<?xml version="1.0" encoding="UTF-8"?>
<osm version="0.6" generator="osmapis">
	<node lat="61.06130000038564" lon="10.390233324900011" id="-23157">
		<tag k="alt_name" v="Brekken" />
		<tag k="name" v="Brekka" />
		<tag k="place" v="farm" />
		<tag k="ssr:stedsnr" v="7653" />
	</node>
	<node lat="61.09144444218178" lon="10.484522215177742" id="-23158">
		<tag k="name" v="Sæterhagan" />
		<tag k="place" v="farm" />
		<tag k="ssr:stedsnr" v="7845" />
	</node>
	<node lat="61.14326666457947" lon="10.469699991678368" id="-23162">
		<tag k="alt_name" v="Bergesveen" />
		<tag k="name" v="Bergesvea" />
		<tag k="place" v="farm" />
		<tag k="ssr:stedsnr" v="7951" />
	</node>
	<node lat="61.14202222645975" lon="10.37189721886063" id="-23165">
		<tag k="name" v="Torsgard" />
		<tag k="place" v="isolated_dwelling" />
		<tag k="ssr:stedsnr" v="7998" />
	</node>
	<node lat="61.10251708660646" lon="10.546331424173852" id="-23166">
		<tag k="fixme" v="consider place=hamlet" />
		<tag k="name" v="Holtlia" />
		<tag k="place" v="farm" />
		<tag k="ssr:stedsnr" v="8782" />
	</node>
	<node lat="61.166136425120264" lon="10.379429935193047" id="-23168">
		<tag k="fixme" v="consider place=hamlet" />
		<tag k="name" v="Mælum" />
		<tag k="place" v="farm" />
		<tag k="ssr:stedsnr" v="8893" />
	</node>
	<node lat="61.164794444986214" lon="10.393633337043209" id="-23171">
		<tag k="name" v="Evjen" />
		<tag k="place" v="farm" />
		<tag k="ssr:stedsnr" v="40567" />
	</node>
	<node lat="61.12206666559102" lon="10.286291670549645" id="-23174">
		<tag k="name" v="Nedre Rusten" />
		<tag k="place" v="farm" />
		<tag k="ssr:stedsnr" v="41940" />
	</node>
	<node lat="61.11620277436046" lon="10.300475007336471" id="-23175">
		<tag k="name" v="Nordre Nygård" />
		<tag k="place" v="farm" />
		<tag k="ssr:stedsnr" v="41802" />
	</node>
	<node lat="61.2003950365105" lon="10.307473890030217" id="-23176">
		<tag k="alt_name" v="Nordre Flygstad" />
		<tag k="name" v="Nordre Flugstad" />
		<tag k="place" v="farm" />
		<tag k="ssr:stedsnr" v="237616" />
	</node>
	<node lat="61.12203889052139" lon="10.495944441183811" id="-23177">
		<tag k="name" v="Nedre Skrefsrud" />
		<tag k="place" v="farm" />
		<tag k="ssr:stedsnr" v="237795" />
	</node>
	<node lat="61.13154444240326" lon="10.489580546970727" id="-23179">
		<tag k="name" v="Stenseng" />
		<tag k="place" v="farm" />
		<tag k="ssr:stedsnr" v="237819" />
	</node>
	<node lat="61.04671111553976" lon="10.408261105452556" id="-23182">
		<tag k="name" v="Åmothaugen" />
		<tag k="place" v="farm" />
		<tag k="ssr:stedsnr" v="238322" />
	</node>
	<node lat="61.098413888196816" lon="10.53441666623554" id="-23183">
		<tag k="name" v="Tamburstuen" />
		<tag k="place" v="farm" />
		<tag k="ssr:stedsnr" v="238501" />
	</node>
	<node lat="61.060838892527975" lon="10.395697214628669" id="-23184">
		<tag k="name" v="Arneberg" />
		<tag k="place" v="farm" />
		<tag k="ssr:stedsnr" v="238699" />
	</node>
	<node lat="61.10678333525123" lon="10.116816675884005" id="-23187">
		<tag k="historic" v="shieling" />
		<tag k="name" v="Gullringen" />
		<tag k="place" v="isolated_dwelling" />
		<tag k="ssr:stedsnr" v="49819" />
	</node>
	<node lat="61.13813610902722" lon="10.453319452784418" id="-23189">
		<tag k="name" v="Ekromskogen" />
		<tag k="place" v="quarter" />
		<tag k="ssr:stedsnr" v="56109" />
	</node>
	<node lat="61.05424167021229" lon="10.422894441883939" id="-23190">
		<tag k="name" v="Nedre Gilberg" />
		<tag k="place" v="farm" />
		<tag k="ssr:stedsnr" v="56312" />
	</node>
	<node lat="61.103115267500264" lon="10.42609604467187" id="-23191">
		<tag k="fixme" v="consider place=hamlet" />
		<tag k="name" v="Øyjordet" />
		<tag k="place" v="farm" />
		<tag k="ssr:stedsnr" v="56271" />
	</node>
	<node lat="61.17119722649328" lon="10.618794443613186" id="-23193">
		<tag k="historic" v="shieling" />
		<tag k="name" v="Breisetsetra" />
		<tag k="place" v="isolated_dwelling" />
		<tag k="ssr:stedsnr" v="56579" />
	</node>
	<node lat="61.1753027757464" lon="10.620733336497638" id="-23194">
		<tag k="historic" v="shieling" />
		<tag k="name" v="Skikstadsetra" />
		<tag k="place" v="isolated_dwelling" />
		<tag k="ssr:stedsnr" v="56581" />
	</node>
	<node lat="61.079850002458365" lon="10.247577785012984" id="-23195">
		<tag k="name" v="Lorthola" />
		<tag k="place" v="hamlet" />
		<tag k="ssr:stedsnr" v="67048" />
	</node>
	<node lat="61.11078055755342" lon="10.189102778664381" id="-23196">
		<tag k="alt_name" v="Bergsetra" />
		<tag k="historic" v="shieling" />
		<tag k="name" v="Bergsætra" />
		<tag k="place" v="isolated_dwelling" />
		<tag k="ssr:stedsnr" v="68003" />
	</node>
	<node lat="61.11478055412458" lon="10.311161112874352" id="-23198">
		<tag k="alt_name" v="Hovland" />
		<tag k="name" v="Søre Hovland" />
		<tag k="place" v="farm" />
		<tag k="ssr:stedsnr" v="68011" />
	</node>
	<node lat="61.1866305595627" lon="10.237602773538539" id="-23200">
		<tag k="alt_name" v="Stølsetra" />
		<tag k="name" v="Stølan" />
		<tag k="place" v="hamlet" />
		<tag k="ssr:stedsnr" v="68406" />
	</node>
	<node lat="61.18916110914319" lon="10.31678055772718" id="-23201">
		<tag k="alt_name" v="Ødegårdstuen" />
		<tag k="name" v="Øygardsstugua" />
		<tag k="place" v="farm" />
		<tag k="ssr:stedsnr" v="68446" />
	</node>
	<node lat="61.12464722291385" lon="10.390230561860005" id="-23203">
		<tag k="name" v="Slåttsvea" />
		<tag k="place" v="farm" />
		<tag k="ssr:stedsnr" v="68793" />
	</node>
	<node lat="61.12248584911482" lon="10.449246556025741" id="-23204">
		<tag k="fixme" v="consider place=hamlet" />
		<tag k="name" v="Moen" />
		<tag k="place" v="farm" />
		<tag k="ssr:stedsnr" v="68795" />
	</node>
	<node lat="61.13640000379448" lon="10.618794448991306" id="-23206">
		<tag k="name" v="Bekkero" />
		<tag k="place" v="isolated_dwelling" />
		<tag k="ssr:stedsnr" v="68926" />
	</node>
	<node lat="61.14018333244075" lon="10.535574993904662" id="-23207">
		<tag k="name" v="Dagsli" />
		<tag k="old_name" v="Dagslia" />
		<tag k="place" v="farm" />
		<tag k="ssr:stedsnr" v="68929" />
	</node>
	<node lat="61.132999724293406" lon="10.4749060208674" id="-23208">
		<tag k="fixme" v="consider place=hamlet" />
		<tag k="name" v="Skårset" />
		<tag k="place" v="farm" />
		<tag k="ssr:stedsnr" v="68950" />
	</node>
	<node lat="61.06213333111935" lon="10.417097221365706" id="-23209">
		<tag k="alt_name" v="Røineslien" />
		<tag k="name" v="Røyneslia" />
		<tag k="place" v="farm" />
		<tag k="ssr:stedsnr" v="68685" />
	</node>
	<node lat="61.115486115574285" lon="10.370172217241022" id="-23210">
		<tag k="name" v="Kveldsro" />
		<tag k="place" v="isolated_dwelling" />
		<tag k="ssr:stedsnr" v="68806" />
	</node>
	<node lat="61.13930555736175" lon="10.443863886352114" id="-23212">
		<tag k="alt_name" v="Skikstad" />
		<tag k="name" v="Øvre Skikstad" />
		<tag k="place" v="farm" />
		<tag k="ssr:stedsnr" v="68993" />
	</node>
	<node lat="61.19623888627961" lon="10.26367778005084" id="-23213">
		<tag k="name" v="Nordre Stuksrud" />
		<tag k="place" v="farm" />
		<tag k="ssr:stedsnr" v="248263" />
	</node>
	<node lat="61.15076667026013" lon="10.347808337669969" id="-23214">
		<tag k="name" v="Einløisa" />
		<tag k="place" v="farm" />
		<tag k="ssr:stedsnr" v="101177" />
	</node>
	<node lat="61.15512777699188" lon="10.40887222254072" id="-23219">
		<tag k="name" v="Søre Nord-Hove" />
		<tag k="place" v="farm" />
		<tag k="ssr:stedsnr" v="101573" />
	</node>
	<node lat="61.09191364297298" lon="10.340299277238405" id="-23221">
		<tag k="fixme" v="consider place=hamlet" />
		<tag k="name" v="Åsen" />
		<tag k="place" v="farm" />
		<tag k="ssr:stedsnr" v="249020" />
	</node>
	<node lat="61.08858611562504" lon="10.164108326419168" id="-23223">
		<tag k="alt_name" v="Borudsæter" />
		<tag k="historic" v="shieling" />
		<tag k="name" v="Borudseter beitelag" />
		<tag k="place" v="isolated_dwelling" />
		<tag k="ssr:stedsnr" v="249043" />
	</node>
	<node lat="61.07534934965807" lon="10.368683138023325" id="-23224">
		<tag k="fixme" v="consider place=hamlet" />
		<tag k="name" v="Døsen" />
		<tag k="place" v="farm" />
		<tag k="ssr:stedsnr" v="249803" />
	</node>
	<node lat="61.09724046791162" lon="10.534224300244988" id="-23226">
		<tag k="alt_name" v="Tølløfsrud" />
		<tag k="fixme" v="consider place=hamlet" />
		<tag k="name" v="Tollevrud" />
		<tag k="place" v="farm" />
		<tag k="ssr:stedsnr" v="249755" />
	</node>
	<node lat="61.066124015292374" lon="10.462509549380036" id="-23227">
		<tag k="alt_name" v="Hinkleiv" />
		<tag k="fixme" v="consider place=hamlet" />
		<tag k="name" v="Hinnkleiv" />
		<tag k="place" v="farm" />
		<tag k="ssr:stedsnr" v="249845" />
	</node>
	<node lat="61.19488671566938" lon="10.286143989583312" id="-23231">
		<tag k="alt_name" v="Kokslien" />
		<tag k="fixme" v="consider place=hamlet" />
		<tag k="name" v="Kokslia" />
		<tag k="place" v="farm" />
		<tag k="ssr:stedsnr" v="250392" />
	</node>
	<node lat="61.19869496672474" lon="10.309172342184999" id="-23233">
		<tag k="fixme" v="consider place=hamlet" />
		<tag k="name" v="Flugstad" />
		<tag k="place" v="farm" />
		<tag k="ssr:stedsnr" v="250397" />
	</node>
	<node lat="61.165044445336655" lon="10.328658334839766" id="-23234">
		<tag k="alt_name" v="Granom" />
		<tag k="name" v="Kirkerudsveen" />
		<tag k="place" v="farm" />
		<tag k="ssr:stedsnr" v="250404" />
	</node>
	<node lat="61.19296944185681" lon="10.334858341122462" id="-23235">
		<tag k="name" v="Torgersrudenga" />
		<tag k="place" v="farm" />
		<tag k="ssr:stedsnr" v="250380" />
	</node>
	<node lat="61.102008332313225" lon="10.595497226693565" id="-23236">
		<tag k="name" v="Søre Skjellerudsveen" />
		<tag k="place" v="farm" />
		<tag k="ssr:stedsnr" v="116103" />
	</node>
	<node lat="61.103022219048455" lon="10.5453444413269" id="-23238">
		<tag k="name" v="Nordre Holtlien" />
		<tag k="place" v="farm" />
		<tag k="ssr:stedsnr" v="116100" />
	</node>
	<node lat="61.03394722029835" lon="10.439219441534332" id="-23240">
		<tag k="name" v="Bø" />
		<tag k="place" v="farm" />
		<tag k="ssr:stedsnr" v="250630" />
	</node>
	<node lat="61.10211296217371" lon="10.59101139604176" id="-23243">
		<tag k="fixme" v="consider place=hamlet" />
		<tag k="name" v="Skjellerudsvea" />
		<tag k="place" v="farm" />
		<tag k="ssr:stedsnr" v="250743" />
	</node>
	<node lat="61.08156874394195" lon="10.412335950760546" id="-23244">
		<tag k="fixme" v="consider place=hamlet" />
		<tag k="name" v="Midthaugen" />
		<tag k="place" v="farm" />
		<tag k="ssr:stedsnr" v="250841" />
	</node>
	<node lat="61.07399211600613" lon="10.387358220091999" id="-23245">
		<tag k="alt_name" v="Hattestad" />
		<tag k="name" v="Øvre Hattestad" />
		<tag k="place" v="farm" />
		<tag k="ssr:stedsnr" v="250842" />
	</node>
	<node lat="61.10899444318738" lon="10.337994452104148" id="-23246">
		<tag k="name" v="Stugulykka" />
		<tag k="place" v="farm" />
		<tag k="ssr:stedsnr" v="117620" />
	</node>
	<node lat="61.107227777638904" lon="10.50665832588357" id="-23247">
		<tag k="alt_name" v="Storsveen" />
		<tag k="name" v="Storsvea" />
		<tag k="place" v="isolated_dwelling" />
		<tag k="ssr:stedsnr" v="250754" />
	</node>
	<node lat="61.10360555619952" lon="10.499841660276724" id="-23248">
		<tag k="alt_name" v="Alvsonhaugen" />
		<tag k="name" v="Alfsonhaugen" />
		<tag k="place" v="farm" />
		<tag k="ssr:stedsnr" v="250755" />
	</node>
	<node lat="61.12335277824456" lon="10.49955277527628" id="-23249">
		<tag k="name" v="Skrefsrud" />
		<tag k="place" v="farm" />
		<tag k="ssr:stedsnr" v="250772" />
	</node>
	<node lat="61.10964444065403" lon="10.362794440497064" id="-23251">
		<tag k="alt_name" v="Tjernshaugen" />
		<tag k="name" v="Kinnshaugen" />
		<tag k="place" v="locality" />
		<tag k="ssr:stedsnr" v="250788" />
	</node>
	<node lat="61.085679769176586" lon="10.426700018506178" id="-23252">
		<tag k="fixme" v="consider place=hamlet" />
		<tag k="name" v="Bulung" />
		<tag k="place" v="farm" />
		<tag k="ssr:stedsnr" v="250835" />
	</node>
	<node lat="61.14369721920009" lon="10.59180555809932" id="-23259">
		<tag k="historic" v="shieling" />
		<tag k="name" v="Sjøsætra" />
		<tag k="place" v="isolated_dwelling" />
		<tag k="ssr:stedsnr" v="250922" />
	</node>
	<node lat="61.13774568372183" lon="10.5024312695267" id="-23260">
		<tag k="name" v="Storhagan" />
		<tag k="place" v="locality" />
		<tag k="ssr:stedsnr" v="250929" />
	</node>
	<node lat="61.14387777962302" lon="10.483586110121204" id="-23261">
		<tag k="name" v="Granli" />
		<tag k="place" v="farm" />
		<tag k="ssr:stedsnr" v="250931" />
	</node>
	<node lat="61.14023055134284" lon="10.481947229478266" id="-23262">
		<tag k="alt_name" v="Olasveen" />
		<tag k="name" v="Olasvea" />
		<tag k="place" v="farm" />
		<tag k="ssr:stedsnr" v="250933" />
	</node>
	<node lat="61.12971666348448" lon="10.4234666667423" id="-23263">
		<tag k="alt_name" v="Korgen" />
		<tag k="name" v="Korga" />
		<tag k="place" v="farm" />
		<tag k="ssr:stedsnr" v="250951" />
	</node>
	<node lat="61.15404999611796" lon="10.372161119613093" id="-23266">
		<tag k="alt_name" v="Jorekstad" />
		<tag k="name" v="Nymoen" />
		<tag k="place" v="farm" />
		<tag k="ssr:stedsnr" v="250965" />
	</node>
	<node lat="61.150380551971004" lon="10.334247227354366" id="-23269">
		<tag k="alt_name" v="Rolandstuen" />
		<tag k="name" v="Rolandsstugua" />
		<tag k="place" v="farm" />
		<tag k="ssr:stedsnr" v="251099" />
	</node>
	<node lat="61.20440555708581" lon="10.660144453518376" id="-23272">
		<tag k="alt_name" v="Nysetra" />
		<tag k="historic" v="shieling" />
		<tag k="name" v="Nysætra" />
		<tag k="place" v="isolated_dwelling" />
		<tag k="ssr:stedsnr" v="128910" />
	</node>
	<node lat="61.148002774209836" lon="10.465869445937267" id="-23274">
		<tag k="alt_name" v="Øverberg" />
		<tag k="name" v="Øverberget" />
		<tag k="place" v="farm" />
		<tag k="ssr:stedsnr" v="128990" />
	</node>
	<node lat="61.14616388706807" lon="10.467288881150708" id="-23275">
		<tag k="alt_name" v="Klauven" />
		<tag k="name" v="Kleiva" />
		<tag k="place" v="farm" />
		<tag k="ssr:stedsnr" v="128992" />
	</node>
	<node lat="61.14838366038542" lon="10.474833936210228" id="-23276">
		<tag k="fixme" v="consider place=hamlet" />
		<tag k="name" v="Åsen" />
		<tag k="place" v="farm" />
		<tag k="ssr:stedsnr" v="128994" />
	</node>
	<node lat="61.14322777359638" lon="10.438136116327431" id="-23277">
		<tag k="alt_name" v="Geitstad" />
		<tag k="name" v="Øvre Jeistad" />
		<tag k="place" v="farm" />
		<tag k="ssr:stedsnr" v="128995" />
	</node>
	<node lat="61.11205555313614" lon="10.282547221992292" id="-23278">
		<tag k="name" v="Elvheim" />
		<tag k="place" v="locality" />
		<tag k="ssr:stedsnr" v="129131" />
	</node>
	<node lat="61.206311107571885" lon="10.714727785428616" id="-23280">
		<tag k="name" v="Mellsjøen" />
		<tag k="place" v="hamlet" />
		<tag k="ssr:stedsnr" v="128899" />
	</node>
	<node lat="61.110224998394" lon="10.323405547880933" id="-23281">
		<tag k="name" v="Engstad" />
		<tag k="place" v="farm" />
		<tag k="ssr:stedsnr" v="129019" />
	</node>
	<node lat="61.103958329057676" lon="10.317652773388351" id="-23282">
		<tag k="alt_name" v="Ringen" />
		<tag k="name" v="Dalbyringen" />
		<tag k="place" v="farm" />
		<tag k="ssr:stedsnr" v="129035" />
	</node>
	<node lat="61.106794447042645" lon="10.338791660341915" id="-23283">
		<tag k="alt_name" v="Storsveen" />
		<tag k="name" v="Storsvea" />
		<tag k="place" v="farm" />
		<tag k="ssr:stedsnr" v="129043" />
	</node>
	<node lat="61.181770570316694" lon="10.322017448062233" id="-23285">
		<tag k="alt_name" v="Syverrud;Syverud" />
		<tag k="fixme" v="consider place=hamlet" />
		<tag k="name" v="Sjulerud" />
		<tag k="place" v="farm" />
		<tag k="ssr:stedsnr" v="129431" />
	</node>
	<node lat="61.114408334379085" lon="10.386997229547315" id="-23287">
		<tag k="alt_name" v="Engen" />
		<tag k="name" v="Enga" />
		<tag k="place" v="farm" />
		<tag k="ssr:stedsnr" v="129813" />
	</node>
	<node lat="61.14558333558884" lon="10.384575003691928" id="-23289">
		<tag k="name" v="Jørstadmoen" />
		<tag k="place" v="village" />
		<tag k="ssr:stedsnr" v="129978" />
	</node>
	<node lat="61.18706944838899" lon="10.575741673551754" id="-23290">
		<tag k="alt_name" v="Grøtåssetra" />
		<tag k="name" v="Grøtåsen" />
		<tag k="place" v="hamlet" />
		<tag k="ssr:stedsnr" v="129875" />
	</node>
	<node lat="61.16587500042635" lon="10.338116667588869" id="-23291">
		<tag k="name" v="Toverud" />
		<tag k="place" v="farm" />
		<tag k="ssr:stedsnr" v="162211" />
	</node>
	<node lat="61.18016111122723" lon="10.46964999999319" id="-23293">
		<tag k="name" v="Sveom" />
		<tag k="place" v="locality" />
		<tag k="ssr:stedsnr" v="162226" />
	</node>
	<node lat="61.1542611154052" lon="10.392722222432644" id="-23294">
		<tag k="amenity" v="school" />
		<tag k="name" v="Jørstadmoen" />
		<tag k="ssr:stedsnr" v="162603" />
	</node>
	<node lat="61.15098055938155" lon="10.364799994282214" id="-23296">
		<tag k="name" v="Skogmo" />
		<tag k="place" v="farm" />
		<tag k="ssr:stedsnr" v="162573" />
	</node>
	<node lat="61.04894722662141" lon="10.292330557533957" id="-23302">
		<tag k="historic" v="shieling" />
		<tag k="name" v="Døsen beitelag" />
		<tag k="place" v="isolated_dwelling" />
		<tag k="ssr:stedsnr" v="170871" />
	</node>
	<node lat="61.130036107981766" lon="10.424688879875161" id="-23305">
		<tag k="name" v="Midtre Korgen" />
		<tag k="place" v="farm" />
		<tag k="ssr:stedsnr" v="177163" />
	</node>
	<node lat="61.05797499559907" lon="10.427544444065768" id="-23306">
		<tag k="name" v="Røineslia" />
		<tag k="place" v="isolated_dwelling" />
		<tag k="ssr:stedsnr" v="177303" />
	</node>
	<node lat="61.05282910401847" lon="10.41589236550319" id="-23307">
		<tag k="fixme" v="consider place=hamlet" />
		<tag k="name" v="Nersveen" />
		<tag k="place" v="farm" />
		<tag k="ssr:stedsnr" v="177314" />
	</node>
	<node lat="61.19252777618659" lon="10.291547220506493" id="-23311">
		<tag k="name" v="Brudal" />
		<tag k="place" v="farm" />
		<tag k="ssr:stedsnr" v="189379" />
	</node>
	<node lat="61.08331133133893" lon="10.540302071883431" id="-23312">
		<tag k="fixme" v="consider place=hamlet" />
		<tag k="name" v="Menkerud" />
		<tag k="place" v="farm" />
		<tag k="ssr:stedsnr" v="189821" />
	</node>
	<node lat="61.087419755358596" lon="10.47833683853944" id="-23313">
		<tag k="fixme" v="consider place=hamlet" />
		<tag k="name" v="Flugsrud" />
		<tag k="place" v="farm" />
		<tag k="ssr:stedsnr" v="189830" />
	</node>
	<node lat="61.074905556305524" lon="10.382041660751645" id="-23314">
		<tag k="alt_name" v="Hovsødegård" />
		<tag k="name" v="Øygarden" />
		<tag k="place" v="farm" />
		<tag k="ssr:stedsnr" v="189864" />
	</node>
	<node lat="61.02512198528619" lon="10.440747306088058" id="-23315">
		<tag k="alt_name" v="Sveen" />
		<tag k="fixme" v="consider place=hamlet" />
		<tag k="name" v="Svea" />
		<tag k="place" v="farm" />
		<tag k="ssr:stedsnr" v="189714" />
	</node>
	<node lat="61.18981944636102" lon="10.40325832902195" id="-23316">
		<tag k="alt_name" v="Haugen" />
		<tag k="name" v="Nedre Haugen" />
		<tag k="place" v="farm" />
		<tag k="ssr:stedsnr" v="189917" />
	</node>
	<node lat="61.141977507254445" lon="10.551169761249776" id="-23318">
		<tag k="alt_name" v="Finnsveen" />
		<tag k="fixme" v="consider place=hamlet" />
		<tag k="name" v="Finnsvea" />
		<tag k="place" v="farm" />
		<tag k="ssr:stedsnr" v="189937" />
	</node>
	<node lat="61.09601944768669" lon="10.327116673851235" id="-23320">
		<tag k="name" v="Svensstugua" />
		<tag k="place" v="farm" />
		<tag k="ssr:stedsnr" v="190023" />
	</node>
	<node lat="61.11232499727023" lon="10.309350005347616" id="-23321">
		<tag k="alt_name" v="Saksumdalen" />
		<tag k="fixme" v="consider place=hamlet" />
		<tag k="name" v="Saksumsdalen" />
		<tag k="old_name" v="Saxumdalen" />
		<tag k="place" v="village" />
		<tag k="ssr:stedsnr" v="190027" />
	</node>
	<node lat="61.223536108957504" lon="10.678677783465615" id="-23323">
		<tag k="historic" v="shieling" />
		<tag k="name" v="Kruggrud" />
		<tag k="place" v="isolated_dwelling" />
		<tag k="ssr:stedsnr" v="190173" />
	</node>
	<node lat="61.172158857446455" lon="10.311814515678048" id="-23325">
		<tag k="alt_name" v="Lien" />
		<tag k="fixme" v="consider place=hamlet" />
		<tag k="name" v="Flifletlia" />
		<tag k="place" v="farm" />
		<tag k="ssr:stedsnr" v="190427" />
	</node>
	<node lat="61.03022203610906" lon="10.372517931314578" id="-23326">
		<tag k="name" v="Lekshuslihytta" />
		<tag k="place" v="isolated_dwelling" />
		<tag k="ssr:stedsnr" v="190627" />
	</node>
	<node lat="61.165945677017945" lon="10.419612835064292" id="-23328">
		<tag k="fixme" v="consider place=hamlet" />
		<tag k="name" v="Bessrud" />
		<tag k="place" v="farm" />
		<tag k="ssr:stedsnr" v="190908" />
	</node>
	<node lat="61.15265785580494" lon="10.41390301940685" id="-23330">
		<tag k="alt_name" v="Leirhølen" />
		<tag k="fixme" v="consider place=hamlet" />
		<tag k="name" v="Solberg" />
		<tag k="place" v="farm" />
		<tag k="ssr:stedsnr" v="190970" />
	</node>
	<node lat="61.148743998965934" lon="10.4278919467438" id="-23331">
		<tag k="alt_name" v="Sørhove" />
		<tag k="fixme" v="consider place=hamlet" />
		<tag k="name" v="Sør-Hove" />
		<tag k="place" v="farm" />
		<tag k="ssr:stedsnr" v="190971" />
	</node>
	<node lat="61.22731110974435" lon="10.435341671420398" id="-23333">
		<tag k="name" v="Hunderfossen familiepark" />
		<tag k="old_name" v="Familiepark" />
		<tag k="ssr:stedsnr" v="269894" />
		<tag k="tourism" v="theme_park" />
	</node>
	<node lat="61.1141027748984" lon="10.299369437692901" id="-23339">
		<tag k="name" v="Nedre Nygård" />
		<tag k="place" v="farm" />
		<tag k="ssr:stedsnr" v="223840" />
	</node>
	<node lat="61.131780556026435" lon="10.450633325706248" id="-23341">
		<tag k="name" v="Smestadmoen" />
		<tag k="place" v="quarter" />
		<tag k="ssr:stedsnr" v="238167" />
	</node>
	<node lat="61.12382500138485" lon="10.473919436977367" id="-23343">
		<tag k="amenity" v="sports_centre" />
		<tag k="name" v="Håkons hall" />
		<tag k="ssr:stedsnr" v="238304" />
	</node>
	<node lat="61.142283333652344" lon="10.42895556393817" id="-23346">
		<tag k="name" v="Jeistadødegården" />
		<tag k="place" v="farm" />
		<tag k="ssr:stedsnr" v="238988" />
	</node>
	<node lat="61.14796111123536" lon="10.359930552923839" id="-23347">
		<tag k="name" v="Kastad" />
		<tag k="place" v="farm" />
		<tag k="ssr:stedsnr" v="283172" />
	</node>
	<node lat="61.15287499568509" lon="10.37106943732836" id="-23348">
		<tag k="name" v="Skyttermoen" />
		<tag k="place" v="farm" />
		<tag k="ssr:stedsnr" v="283480" />
	</node>
	<node lat="61.184955556170515" lon="10.330686108532438" id="-23350">
		<tag k="name" v="Ellingsbergsveen" />
		<tag k="place" v="farm" />
		<tag k="ssr:stedsnr" v="283673" />
	</node>
	<node lat="61.11299166375218" lon="10.473341660643792" id="-23351">
		<tag k="amenity" v="hospital" />
		<tag k="name" v="Sykehuset Innlandet Lillehammer" />
		<tag k="ssr:stedsnr" v="283826" />
	</node>
	<node lat="61.035216669765326" lon="10.308152783712318" id="-23354">
		<tag k="name" v="Jakthytta" />
		<tag k="place" v="locality" />
		<tag k="ssr:stedsnr" v="284194" />
	</node>
	<node lat="61.0995111101628" lon="10.584741671913873" id="-23358">
		<tag k="name" v="Skjellerudenga" />
		<tag k="place" v="farm" />
		<tag k="ssr:stedsnr" v="298134" />
	</node>
	<node lat="61.14196333211122" lon="10.537074662217163" id="-23359">
		<tag k="name" v="Søre Dagsveen" />
		<tag k="place" v="farm" />
		<tag k="ssr:stedsnr" v="298821" />
	</node>
	<node lat="61.13546667024516" lon="10.480777769175507" id="-23360">
		<tag k="name" v="Sagbakken" />
		<tag k="place" v="farm" />
		<tag k="ssr:stedsnr" v="298772" />
	</node>
	<node lat="61.13865000144497" lon="10.483619449145282" id="-23361">
		<tag k="name" v="Soleng" />
		<tag k="place" v="farm" />
		<tag k="ssr:stedsnr" v="298775" />
	</node>
	<node lat="61.13973888616344" lon="10.441116662629613" id="-23362">
		<tag k="name" v="Nedre Skikstad" />
		<tag k="place" v="farm" />
		<tag k="ssr:stedsnr" v="298987" />
	</node>
	<node lat="61.11846388759444" lon="10.453252772382882" id="-23365">
		<tag k="name" v="Busmoen" />
		<tag k="place" v="suburb" />
		<tag k="ssr:stedsnr" v="299291" />
	</node>
	<node lat="61.149849999769046" lon="10.345947218404527" id="-23367">
		<tag k="name" v="Oppset" />
		<tag k="place" v="farm" />
		<tag k="ssr:stedsnr" v="465196" />
	</node>
	<node lat="61.1498555513804" lon="10.391524998202536" id="-23369">
		<tag k="name" v="Haraldstad" />
		<tag k="place" v="farm" />
		<tag k="ssr:stedsnr" v="465535" />
	</node>
	<node lat="61.16508888848822" lon="10.401600008307721" id="-23370">
		<tag k="name" v="Tune" />
		<tag k="place" v="farm" />
		<tag k="ssr:stedsnr" v="465547" />
	</node>
	<node lat="61.09496666313361" lon="10.466344450271633" id="-23376">
		<tag k="alt_name" v="Sæter, nordre" />
		<tag k="name" v="Nordre Sæter" />
		<tag k="place" v="farm" />
		<tag k="ssr:stedsnr" v="310779" />
	</node>
	<node lat="61.08976111304052" lon="10.412936110618181" id="-23378">
		<tag k="name" v="Skogstad" />
		<tag k="place" v="farm" />
		<tag k="ssr:stedsnr" v="310848" />
	</node>
	<node lat="61.11776388744731" lon="10.305308328695087" id="-23380">
		<tag k="alt_name" v="Kalløkken" />
		<tag k="name" v="Kalvlykkja" />
		<tag k="place" v="farm" />
		<tag k="ssr:stedsnr" v="311011" />
	</node>
	<node lat="61.11521412452973" lon="10.292057824771927" id="-23381">
		<tag k="fixme" v="consider place=hamlet" />
		<tag k="name" v="Saksum" />
		<tag k="place" v="farm" />
		<tag k="ssr:stedsnr" v="311013" />
	</node>
	<node lat="61.13178055447219" lon="10.255716671319213" id="-23383">
		<tag k="alt_name" v="Hågån" />
		<tag k="name" v="Lille-Ullandshagen" />
		<tag k="place" v="farm" />
		<tag k="ssr:stedsnr" v="311125" />
	</node>
	<node lat="61.233844446081996" lon="10.396088881886854" id="-23385">
		<tag k="alt_name" v="Hokna seter" />
		<tag k="historic" v="shieling" />
		<tag k="name" v="Hokna" />
		<tag k="place" v="isolated_dwelling" />
		<tag k="ssr:stedsnr" v="311185" />
	</node>
	<node lat="61.180927781952" lon="10.304555549264654" id="-23395">
		<tag k="alt_name" v="Aurlia" />
		<tag k="name" v="Nordre Aurlien" />
		<tag k="place" v="farm" />
		<tag k="ssr:stedsnr" v="311480" />
	</node>
	<node lat="61.040951584498984" lon="10.427148838810348" id="-23396">
		<tag k="alt_name" v="Jevne" />
		<tag k="fixme" v="consider place=hamlet" />
		<tag k="name" v="Jemne" />
		<tag k="place" v="farm" />
		<tag k="ssr:stedsnr" v="311677" />
	</node>
	<node lat="61.118152774702764" lon="10.585563896309601" id="-23397">
		<tag k="alt_name" v="Mesnasaga" />
		<tag k="name" v="Mesnsaga" />
		<tag k="place" v="isolated_dwelling" />
		<tag k="ssr:stedsnr" v="311808" />
	</node>
	<node lat="61.11514166607341" lon="10.466277773394733" id="-23399">
		<tag k="name" v="Lillehammer" />
		<tag k="place" v="town" />
		<tag k="ssr:stedsnr" v="311824" />
	</node>
	<node lat="61.16298333267369" lon="10.42026110751063" id="-23402">
		<tag k="name" v="Kristofferstua" />
		<tag k="place" v="farm" />
		<tag k="ssr:stedsnr" v="311917" />
	</node>
	<node lat="61.165361113023465" lon="10.41689444839618" id="-23403">
		<tag k="alt_name" v="Midtli" />
		<tag k="name" v="Midtlia" />
		<tag k="place" v="farm" />
		<tag k="ssr:stedsnr" v="311919" />
	</node>
	<node lat="61.16157960810769" lon="10.363898686921686" id="-23404">
		<tag k="fixme" v="consider place=hamlet" />
		<tag k="name" v="Prestegarden" />
		<tag k="place" v="farm" />
		<tag k="ssr:stedsnr" v="311926" />
	</node>
	<node lat="61.12569166445482" lon="10.488711111992442" id="-23408">
		<tag k="leisure" v="pitch" />
		<tag k="name" v="Lysgårdsbakkene" />
		<tag k="ssr:stedsnr" v="329810" />
	</node>
	<node lat="61.163016665736265" lon="10.379538889671457" id="-23419">
		<tag k="name" v="Oppjordet" />
		<tag k="place" v="farm" />
		<tag k="ssr:stedsnr" v="344597" />
	</node>
	<node lat="61.04767777500495" lon="10.326947226059726" id="-23428">
		<tag k="name" v="Øvergårdshytta" />
		<tag k="place" v="locality" />
		<tag k="ssr:stedsnr" v="473844" />
	</node>
	<node lat="61.09311111474893" lon="10.485733333979088" id="-23432">
		<tag k="leisure" v="pitch" />
		<tag k="name" v="Engesvea hoppbakke" />
		<tag k="ssr:stedsnr" v="359002" />
	</node>
	<node lat="61.092500000218635" lon="10.484944439878781" id="-23433">
		<tag k="name" v="Bekkelund" />
		<tag k="place" v="isolated_dwelling" />
		<tag k="ssr:stedsnr" v="359006" />
	</node>
	<node lat="61.13943610929524" lon="10.478213883585521" id="-23434">
		<tag k="name" v="Bergehaugen" />
		<tag k="place" v="farm" />
		<tag k="ssr:stedsnr" v="359206" />
	</node>
	<node lat="61.10796388987709" lon="10.529069440928124" id="-23437">
		<tag k="name" v="Opheim" />
		<tag k="place" v="isolated_dwelling" />
		<tag k="ssr:stedsnr" v="359758" />
	</node>
	<node lat="61.1391166647154" lon="10.50253054964424" id="-23440">
		<tag k="amenity" v="cafe" />
		<tag k="name" v="Gammelkarenes skihytte" />
		<tag k="ssr:stedsnr" v="359822" />
	</node>
	<node lat="61.073413889040964" lon="10.28009167274634" id="-23442">
		<tag k="name" v="Jakobsbu" />
		<tag k="place" v="isolated_dwelling" />
		<tag k="ssr:stedsnr" v="370075" />
	</node>
	<node lat="61.123583334333276" lon="10.251994451333966" id="-23443">
		<tag k="alt_name" v="Sveen" />
		<tag k="fixme" v="consider place=hamlet" />
		<tag k="name" v="Svea" />
		<tag k="place" v="farm" />
		<tag k="ssr:stedsnr" v="371120" />
	</node>
	<node lat="61.1927582571982" lon="10.324325412904136" id="-23444">
		<tag k="fixme" v="consider place=hamlet" />
		<tag k="name" v="Torgersrud" />
		<tag k="place" v="farm" />
		<tag k="ssr:stedsnr" v="371383" />
	</node>
	<node lat="61.20174722083186" lon="10.303797217709949" id="-23445">
		<tag k="alt_name" v="Flygstadhaugen" />
		<tag k="name" v="Flugstadhaugen" />
		<tag k="place" v="farm" />
		<tag k="ssr:stedsnr" v="371460" />
	</node>
	<node lat="61.162686438639895" lon="10.356785291036964" id="-23446">
		<tag k="alt_name" v="Gaustum" />
		<tag k="fixme" v="consider place=hamlet" />
		<tag k="name" v="Gaustom" />
		<tag k="place" v="farm" />
		<tag k="ssr:stedsnr" v="371902" />
	</node>
	<node lat="61.16836111046138" lon="10.404794447247033" id="-23447">
		<tag k="name" v="Fåberg" />
		<tag k="place" v="village" />
		<tag k="ssr:stedsnr" v="371909" />
	</node>
	<node lat="61.05875575287958" lon="10.415993043986065" id="-23448">
		<tag k="fixme" v="consider place=hamlet" />
		<tag k="name" v="Ovren" />
		<tag k="place" v="farm" />
		<tag k="ssr:stedsnr" v="371662" />
	</node>
	<node lat="61.075178996996" lon="10.426475326967395" id="-23449">
		<tag k="alt_name" v="Hov, s;Søndre Hov" />
		<tag k="fixme" v="consider place=hamlet" />
		<tag k="name" v="Søre Hov" />
		<tag k="place" v="farm" />
		<tag k="ssr:stedsnr" v="371862" />
	</node>
	<node lat="61.07562500421557" lon="10.426116661387097" id="-23450">
		<tag k="alt_name" v="Hov, midtre" />
		<tag k="name" v="Midtre Hov" />
		<tag k="place" v="farm" />
		<tag k="ssr:stedsnr" v="371863" />
	</node>
	<node lat="61.10589166974817" lon="10.116041670148839" id="-23451">
		<tag k="historic" v="shieling" />
		<tag k="name" v="Brahus" />
		<tag k="place" v="isolated_dwelling" />
		<tag k="ssr:stedsnr" v="372003" />
	</node>
	<node lat="61.15363333669478" lon="10.32555833130424" id="-23452">
		<tag k="alt_name" v="Høglia" />
		<tag k="loc_name" v="Lierstugua" />
		<tag k="name" v="Lierstuen" />
		<tag k="place" v="farm" />
		<tag k="ssr:stedsnr" v="372069" />
	</node>
	<node lat="61.17792222400418" lon="10.596133327375947" id="-23459">
		<tag k="name" v="Midtre Grøtåshaugen" />
		<tag k="place" v="neighbourhood" />
		<tag k="ssr:stedsnr" v="480523" />
	</node>
	<node lat="61.17598055361141" lon="10.598638891014566" id="-23460">
		<tag k="name" v="Nedre Grøtåshaugen" />
		<tag k="place" v="neighbourhood" />
		<tag k="ssr:stedsnr" v="480532" />
	</node>
	<node lat="61.18656944314739" lon="10.344630556991177" id="-23468">
		<tag k="name" v="Engeli" />
		<tag k="place" v="farm" />
		<tag k="ssr:stedsnr" v="405706" />
	</node>
	<node lat="61.114941662821" lon="10.28476110689447" id="-23470">
		<tag k="name" v="Nedre Ulland" />
		<tag k="place" v="farm" />
		<tag k="ssr:stedsnr" v="405840" />
	</node>
	<node lat="61.078347224986224" lon="10.482761116578386" id="-23474">
		<tag k="name" v="Kaløkkebakken" />
		<tag k="place" v="locality" />
		<tag k="ssr:stedsnr" v="420238" />
	</node>
	<node lat="61.13796388727733" lon="10.505150009032057" id="-23477">
		<tag k="name" v="Søre Storhagen" />
		<tag k="place" v="farm" />
		<tag k="ssr:stedsnr" v="420838" />
	</node>
	<node lat="61.173541665562894" lon="10.374066674531468" id="-23478">
		<tag k="name" v="Kriklom" />
		<tag k="place" v="farm" />
		<tag k="ssr:stedsnr" v="427818" />
	</node>
	<node lat="61.08431388946648" lon="10.08076110336451" id="-23479">
		<tag k="alt_name" v="Bjørkestylen seter" />
		<tag k="historic" v="shieling" />
		<tag k="name" v="Bjørkestølen" />
		<tag k="place" v="isolated_dwelling" />
		<tag k="ssr:stedsnr" v="431050" />
	</node>
	<node lat="61.067069447542444" lon="10.248019442018872" id="-23480">
		<tag k="alt_name" v="Sjogsetra" />
		<tag k="historic" v="shieling" />
		<tag k="name" v="Sjoga" />
		<tag k="place" v="isolated_dwelling" />
		<tag k="ssr:stedsnr" v="431065" />
	</node>
	<node lat="61.09858195905278" lon="10.406948265042786" id="-23482">
		<tag k="name" v="Finnsvea" />
		<tag k="place" v="locality" />
		<tag k="ssr:stedsnr" v="431794" />
	</node>
	<node lat="61.12949696861219" lon="10.227071901494353" id="-23484">
		<tag k="alt_name" v="Berg" />
		<tag k="fixme" v="consider place=hamlet" />
		<tag k="name" v="Nordre Berg" />
		<tag k="place" v="farm" />
		<tag k="ssr:stedsnr" v="432099" />
	</node>
	<node lat="61.188299168413934" lon="10.329089110404084" id="-23485">
		<tag k="fixme" v="consider place=hamlet" />
		<tag k="name" v="Smedsrud" />
		<tag k="place" v="farm" />
		<tag k="ssr:stedsnr" v="432405" />
	</node>
	<node lat="61.19742222329325" lon="10.313924992247772" id="-23486">
		<tag k="name" v="Veiverud" />
		<tag k="place" v="farm" />
		<tag k="ssr:stedsnr" v="432383" />
	</node>
	<node lat="61.11999999570387" lon="10.396966665387502" id="-23488">
		<tag k="name" v="Nysvea" />
		<tag k="place" v="farm" />
		<tag k="ssr:stedsnr" v="432782" />
	</node>
	<node lat="61.14214239003802" lon="10.535434566047398" id="-23491">
		<tag k="fixme" v="consider place=hamlet" />
		<tag k="name" v="Dagsvea" />
		<tag k="place" v="farm" />
		<tag k="ssr:stedsnr" v="432932" />
	</node>
	<node lat="61.17954404613079" lon="10.41231061967153" id="-23493">
		<tag k="alt_name" v="Bergesvea;Ødegården" />
		<tag k="fixme" v="consider place=hamlet" />
		<tag k="name" v="Øygarden" />
		<tag k="place" v="farm" />
		<tag k="ssr:stedsnr" v="432890" />
	</node>
	<node lat="61.16860555911433" lon="10.300308337426227" id="-23496">
		<tag k="alt_name" v="Stræte" />
		<tag k="name" v="Søre Stræte" />
		<tag k="place" v="farm" />
		<tag k="ssr:stedsnr" v="433387" />
	</node>
	<node lat="61.21309166956451" lon="10.377874994703351" id="-23498">
		<tag k="alt_name" v="Baksetra" />
		<tag k="name" v="Baksætra" />
		<tag k="place" v="hamlet" />
		<tag k="ssr:stedsnr" v="492139" />
	</node>
	<node lat="61.0987072421289" lon="10.542628242439879" id="-23500">
		<tag k="alt_name" v="Sveinsrud" />
		<tag k="fixme" v="consider place=hamlet" />
		<tag k="name" v="Svensrud" />
		<tag k="place" v="farm" />
		<tag k="ssr:stedsnr" v="492754" />
	</node>
	<node lat="61.09742500207134" lon="10.43720000683724" id="-23501">
		<tag k="name" v="Øyresbrettingen" />
		<tag k="place" v="farm" />
		<tag k="ssr:stedsnr" v="492765" />
	</node>
	<node lat="61.08370626986703" lon="10.570593842385989" id="-23503">
		<tag k="fixme" v="consider place=hamlet" />
		<tag k="name" v="Geiterud" />
		<tag k="place" v="farm" />
		<tag k="ssr:stedsnr" v="492838" />
	</node>
	<node lat="61.08442151425749" lon="10.482612522048834" id="-23504">
		<tag k="alt_name" v="Galterud" />
		<tag k="fixme" v="consider place=hamlet" />
		<tag k="name" v="Galtrud" />
		<tag k="place" v="farm" />
		<tag k="ssr:stedsnr" v="492841" />
	</node>
	<node lat="61.07076388870024" lon="10.380583342140415" id="-23505">
		<tag k="alt_name" v="Løkken" />
		<tag k="name" v="Hattestadlykkja" />
		<tag k="place" v="farm" />
		<tag k="ssr:stedsnr" v="492801" />
	</node>
	<node lat="61.08080538277326" lon="10.47504421564127" id="-23506">
		<tag k="alt_name" v="Halvorstua;Halvorstuen;Tønnevold;Tøndevold" />
		<tag k="name" v="Halvorstugua" />
		<tag k="place" v="farm" />
		<tag k="ssr:stedsnr" v="492856" />
	</node>
	<node lat="61.07717222182455" lon="10.415508330365963" id="-23507">
		<tag k="name" v="Aspeli" />
		<tag k="place" v="farm" />
		<tag k="ssr:stedsnr" v="492862" />
	</node>
	<node lat="61.13801110886397" lon="10.425269440763646" id="-23509">
		<tag k="alt_name" v="Sandvadet" />
		<tag k="name" v="Sandvad" />
		<tag k="place" v="farm" />
		<tag k="ssr:stedsnr" v="492991" />
	</node>
	<node lat="61.12404721868094" lon="10.241577777323885" id="-23513">
		<tag k="name" v="Rinnvoll" />
		<tag k="place" v="isolated_dwelling" />
		<tag k="ssr:stedsnr" v="493134" />
	</node>
	<node lat="61.16911944180259" lon="10.3111694417055" id="-23514">
		<tag k="alt_name" v="Listuen" />
		<tag k="name" v="Listugua" />
		<tag k="place" v="farm" />
		<tag k="ssr:stedsnr" v="493399" />
	</node>
	<node lat="61.05743333367149" lon="10.381986109860115" id="-23515">
		<tag k="alt_name" v="Nordsveen" />
		<tag k="name" v="Nordsvea" />
		<tag k="place" v="farm" />
		<tag k="ssr:stedsnr" v="493692" />
	</node>
	<node lat="61.03271639440663" lon="10.415758824446899" id="-23517">
		<tag k="fixme" v="consider place=hamlet" />
		<tag k="name" v="Fjell" />
		<tag k="place" v="farm" />
		<tag k="ssr:stedsnr" v="493637" />
	</node>
	<node lat="61.046044442350514" lon="10.429602770554594" id="-23518">
		<tag k="name" v="Vingrom" />
		<tag k="place" v="village" />
		<tag k="ssr:stedsnr" v="493649" />
	</node>
	<node lat="61.10130801612233" lon="10.512458073199642" id="-23519">
		<tag k="alt_name" v="Askjellerud;Askjelrud" />
		<tag k="fixme" v="consider place=hamlet" />
		<tag k="name" v="Askjellrud" />
		<tag k="place" v="farm" />
		<tag k="ssr:stedsnr" v="493780" />
	</node>
	<node lat="61.16004721812173" lon="10.378555555562185" id="-23521">
		<tag k="alt_name" v="Jørstad" />
		<tag k="name" v="Nordre Jørstad" />
		<tag k="place" v="farm" />
		<tag k="ssr:stedsnr" v="493974" />
	</node>
	<node lat="61.15446862372927" lon="10.406653919719597" id="-23523">
		<tag k="alt_name" v="Sundgården" />
		<tag k="fixme" v="consider place=hamlet" />
		<tag k="name" v="Sundgarden" />
		<tag k="place" v="farm" />
		<tag k="ssr:stedsnr" v="493980" />
	</node>
	<node lat="61.10949444277779" lon="10.309830546511522" id="-23524">
		<tag k="name" v="Bekkemellom" />
		<tag k="place" v="farm" />
		<tag k="ssr:stedsnr" v="675032" />
	</node>
	<node lat="61.100580554931625" lon="10.042325006660336" id="-23525">
		<tag k="alt_name" v="Gaustumsetra" />
		<tag k="historic" v="shieling" />
		<tag k="name" v="Gaustumssætra" />
		<tag k="place" v="isolated_dwelling" />
		<tag k="ssr:stedsnr" v="675034" />
	</node>
	<node lat="61.08062500041745" lon="10.526508333851396" id="-23529">
		<tag k="name" v="Spiten" />
		<tag k="place" v="farm" />
		<tag k="ssr:stedsnr" v="674816" />
	</node>
	<node lat="61.155997223591235" lon="10.334522229331323" id="-23532">
		<tag k="alt_name" v="Bekkevold" />
		<tag k="name" v="Bekkevoll" />
		<tag k="place" v="farm" />
		<tag k="ssr:stedsnr" v="675084" />
	</node>
	<node lat="61.11377135902431" lon="10.271031042353636" id="-23535">
		<tag k="name" v="Ladderud" />
		<tag k="place" v="locality" />
		<tag k="ssr:stedsnr" v="675133" />
	</node>
	<node lat="61.11997222099161" lon="10.29871943781281" id="-23536">
		<tag k="alt_name" v="Sveom" />
		<tag k="name" v="Søre Sæter" />
		<tag k="place" v="farm" />
		<tag k="ssr:stedsnr" v="675139" />
	</node>
	<node lat="61.216708332957786" lon="10.43431945275914" id="-23537">
		<tag k="name" v="Husemoen" />
		<tag k="place" v="farm" />
		<tag k="ssr:stedsnr" v="675211" />
	</node>
	<node lat="61.234011113025005" lon="10.429983340050178" id="-23538">
		<tag k="name" v="Myrom" />
		<tag k="place" v="farm" />
		<tag k="ssr:stedsnr" v="675175" />
	</node>
	<node lat="61.183540705981734" lon="10.318319992569672" id="-23540">
		<tag k="fixme" v="consider place=hamlet" />
		<tag k="name" v="Tollersrud" />
		<tag k="place" v="farm" />
		<tag k="ssr:stedsnr" v="675440" />
	</node>
	<node lat="61.10431944084581" lon="10.422880558803303" id="-23541">
		<tag k="alt_name" v="Ramnum" />
		<tag k="name" v="Nedre Ravnum" />
		<tag k="place" v="farm" />
		<tag k="ssr:stedsnr" v="675788" />
	</node>
	<node lat="61.17721111163663" lon="10.419766673191445" id="-23543">
		<tag k="name" v="Bakkom" />
		<tag k="place" v="farm" />
		<tag k="ssr:stedsnr" v="675883" />
	</node>
	<node lat="61.18598888568863" lon="10.349888891961958" id="-23544">
		<tag k="name" v="Synsterud" />
		<tag k="place" v="farm" />
		<tag k="ssr:stedsnr" v="675944" />
	</node>
	<node lat="61.139794448881965" lon="10.498941661451367" id="-23545">
		<tag k="name" v="Ålstad" />
		<tag k="place" v="farm" />
		<tag k="ssr:stedsnr" v="675954" />
	</node>
	<node lat="61.12711388465958" lon="10.491766664359055" id="-23548">
		<tag k="name" v="Kanthaugen" />
		<tag k="old_name" v="Kanten" />
		<tag k="place" v="isolated_dwelling" />
		<tag k="ssr:stedsnr" v="675967" />
	</node>
	<node lat="61.133483336139705" lon="10.493775003956902" id="-23549">
		<tag k="alt_name" v="Veslehagen" />
		<tag k="name" v="Veslehagan" />
		<tag k="place" v="farm" />
		<tag k="ssr:stedsnr" v="675968" />
	</node>
	<node lat="61.16240833062739" lon="10.419288892164936" id="-23551">
		<tag k="name" v="Fjellstad" />
		<tag k="place" v="farm" />
		<tag k="ssr:stedsnr" v="675984" />
	</node>
	<node lat="61.190322224116" lon="10.31725833402421" id="-23553">
		<tag k="fixme" v="consider place=hamlet" />
		<tag k="name" v="Rudsbygd" />
		<tag k="place" v="village" />
		<tag k="ssr:stedsnr" v="480111" />
	</node>
	<node lat="61.048372219514285" lon="10.431947227239494" id="-23557">
		<tag k="amenity" v="school" />
		<tag k="name" v="Vingrom" />
		<tag k="ssr:stedsnr" v="480268" />
	</node>
	<node lat="61.056369445819115" lon="10.415413884368785" id="-23558">
		<tag k="name" v="Ovrebrettingen" />
		<tag k="place" v="farm" />
		<tag k="ssr:stedsnr" v="480272" />
	</node>
	<node lat="61.072558336253906" lon="10.419583325942998" id="-23559">
		<tag k="name" v="Bakkom" />
		<tag k="place" v="farm" />
		<tag k="ssr:stedsnr" v="480716" />
	</node>
	<node lat="61.083869445960495" lon="10.176097217194952" id="-23562">
		<tag k="alt_name" v="Borud seter" />
		<tag k="historic" v="shieling" />
		<tag k="name" v="Borosætra" />
		<tag k="place" v="isolated_dwelling" />
		<tag k="ssr:stedsnr" v="492024" />
	</node>
	<node lat="61.07831666728112" lon="10.36011388152696" id="-23564">
		<tag k="alt_name" v="Kindlistuen" />
		<tag k="name" v="Kinnlistua" />
		<tag k="place" v="farm" />
		<tag k="ssr:stedsnr" v="492868" />
	</node>
	<node lat="61.129808335876405" lon="10.28144722534744" id="-23566">
		<tag k="alt_name" v="Rusthagen" />
		<tag k="name" v="Rusthågån" />
		<tag k="place" v="farm" />
		<tag k="ssr:stedsnr" v="493114" />
	</node>
	<node lat="61.19409999833906" lon="10.264911106404716" id="-23568">
		<tag k="name" v="Søre Stuksrud" />
		<tag k="place" v="farm" />
		<tag k="ssr:stedsnr" v="493388" />
	</node>
	<node lat="61.16511666788643" lon="10.350186103142573" id="-23570">
		<tag k="alt_name" v="Alvstad" />
		<tag k="name" v="Alfstad" />
		<tag k="place" v="farm" />
		<tag k="ssr:stedsnr" v="493905" />
	</node>
	<node lat="61.2039589951033" lon="10.569902328630253" id="-23571">
		<tag k="name" v="Nevelhytta" />
		<tag k="place" v="isolated_dwelling" />
		<tag k="ssr:stedsnr" v="493927" />
	</node>
	<node lat="61.12790277449514" lon="10.374033330230981" id="-23574">
		<tag k="alt_name" v="Storengen" />
		<tag k="name" v="Storenga" />
		<tag k="place" v="farm" />
		<tag k="ssr:stedsnr" v="493814" />
	</node>
	<node lat="61.11124444477955" lon="10.568013896525006" id="-23576">
		<tag k="name" v="Sorgendalshytta" />
		<tag k="place" v="locality" />
		<tag k="ssr:stedsnr" v="493819" />
	</node>
	<node lat="61.17667500032307" lon="10.368736104230916" id="-23577">
		<tag k="alt_name" v="Finnsveen" />
		<tag k="name" v="Finnsvea" />
		<tag k="place" v="locality" />
		<tag k="ssr:stedsnr" v="493885" />
	</node>
	<node lat="61.178388891598125" lon="10.616577782171758" id="-23583">
		<tag k="fixme" v="consider tourism=alpine_hut or tourism=chalet" />
		<tag k="name" v="Nordseter Sportell" />
		<tag k="ssr:stedsnr" v="536718" />
		<tag k="tourism" v="wilderness_hut" />
	</node>
	<node lat="61.134380551461064" lon="10.479258327430498" id="-23585">
		<tag k="building" v="industrial" />
		<tag k="name" v="Skårsetsaga" />
		<tag k="ssr:stedsnr" v="541218" />
	</node>
	<node lat="61.13243055432984" lon="10.464497215201238" id="-23587">
		<tag k="amenity" v="school" />
		<tag k="name" v="Kringsjå" />
		<tag k="ssr:stedsnr" v="541171" />
	</node>
	<node lat="61.12580555900166" lon="10.44518055544529" id="-23588">
		<tag k="name" v="Mosveen" />
		<tag k="place" v="isolated_dwelling" />
		<tag k="ssr:stedsnr" v="541172" />
	</node>
	<node lat="61.092216665669724" lon="10.47306111016076" id="-23591">
		<tag k="name" v="Søre nordre Sæter" />
		<tag k="place" v="farm" />
		<tag k="ssr:stedsnr" v="541674" />
	</node>
	<node lat="61.02922499977008" lon="10.246824998277544" id="-23596">
		<tag k="historic" v="shieling" />
		<tag k="name" v="Nysætra" />
		<tag k="place" v="isolated_dwelling" />
		<tag k="ssr:stedsnr" v="552236" />
	</node>
	<node lat="61.07088889197922" lon="10.384183337912386" id="-23597">
		<tag k="alt_name" v="Hattestadenga" />
		<tag k="name" v="Hattestad" />
		<tag k="place" v="farm" />
		<tag k="ssr:stedsnr" v="552839" />
	</node>
	<node lat="61.09184166863704" lon="10.571874991484501" id="-23599">
		<tag k="alt_name" v="Engjum" />
		<tag k="name" v="Engom" />
		<tag k="place" v="farm" />
		<tag k="ssr:stedsnr" v="552784" />
	</node>
	<node lat="61.11842500209758" lon="10.266897221672087" id="-23601">
		<tag k="alt_name" v="Storsveen" />
		<tag k="name" v="Storsvea" />
		<tag k="place" v="farm" />
		<tag k="ssr:stedsnr" v="553102" />
	</node>
	<node lat="61.13123889051417" lon="10.221919438954503" id="-23602">
		<tag k="alt_name" v="Glåtten" />
		<tag k="name" v="Glotten" />
		<tag k="place" v="farm" />
		<tag k="ssr:stedsnr" v="553098" />
	</node>
	<node lat="61.1676666691353" lon="10.244483332755387" id="-23603">
		<tag k="alt_name" v="Kinna seter" />
		<tag k="name" v="Kinna" />
		<tag k="place" v="hamlet" />
		<tag k="ssr:stedsnr" v="553403" />
	</node>
	<node lat="61.17787982527272" lon="10.325383736120054" id="-23604">
		<tag k="fixme" v="consider place=hamlet" />
		<tag k="name" v="Horn" />
		<tag k="place" v="farm" />
		<tag k="ssr:stedsnr" v="553420" />
	</node>
	<node lat="61.180777774042134" lon="10.32480000179974" id="-23605">
		<tag k="name" v="Haug" />
		<tag k="place" v="farm" />
		<tag k="ssr:stedsnr" v="553431" />
	</node>
	<node lat="61.18288055445758" lon="10.283394447639457" id="-23606">
		<tag k="name" v="Øverjordet" />
		<tag k="place" v="farm" />
		<tag k="ssr:stedsnr" v="553378" />
	</node>
	<node lat="61.04509712102042" lon="10.419747916708209" id="-23607">
		<tag k="fixme" v="consider place=hamlet" />
		<tag k="name" v="Hauger" />
		<tag k="place" v="farm" />
		<tag k="ssr:stedsnr" v="553685" />
	</node>
	<node lat="61.1386861099269" lon="10.377550006751335" id="-23608">
		<tag k="name" v="Skogsrud" />
		<tag k="place" v="farm" />
		<tag k="ssr:stedsnr" v="553995" />
	</node>
	<node lat="61.10036111516379" lon="10.482233335903901" id="-23611">
		<tag k="alt_name" v="Skogli Helse- og Rehab.senter" />
		<tag k="amenity" v="nursing_home" />
		<tag k="name" v="Skogli Helse- og Rehabiliteringssenter" />
		<tag k="ssr:stedsnr" v="554788" />
	</node>
	<node lat="61.10391670840201" lon="10.467686964283505" id="-23612">
		<tag k="alt_name" v="Suttestad" />
		<tag k="fixme" v="consider place=hamlet" />
		<tag k="name" v="Sustad" />
		<tag k="place" v="farm" />
		<tag k="ssr:stedsnr" v="554790" />
	</node>
	<node lat="61.14892765316396" lon="10.42420130313565" id="-23614">
		<tag k="alt_name" v="Storhove" />
		<tag k="fixme" v="consider place=hamlet" />
		<tag k="name" v="Stor-Hove" />
		<tag k="place" v="farm" />
		<tag k="ssr:stedsnr" v="554989" />
	</node>
	<node lat="61.11499722526349" lon="10.09821388493442" id="-23616">
		<tag k="fixme" v="consider tourism=alpine_hut or tourism=chalet" />
		<tag k="name" v="Skjellbreidhytta" />
		<tag k="ssr:stedsnr" v="693779" />
		<tag k="tourism" v="wilderness_hut" />
	</node>
	<node lat="61.165425002767385" lon="10.34018054746184" id="-23617">
		<tag k="name" v="Gaustumhaugen" />
		<tag k="place" v="farm" />
		<tag k="ssr:stedsnr" v="586203" />
	</node>
	<node lat="61.155303285349994" lon="10.318677966499655" id="-23618">
		<tag k="name" v="Nordre Hauklien" />
		<tag k="place" v="farm" />
		<tag k="ssr:stedsnr" v="586193" />
	</node>
	<node lat="61.15405833567442" lon="10.372125005203504" id="-23619">
		<tag k="name" v="Nymoen" />
		<tag k="place" v="farm" />
		<tag k="ssr:stedsnr" v="586545" />
	</node>
	<node lat="61.02629722090802" lon="10.428925002908958" id="-23620">
		<tag k="alt_name" v="Sveastuen" />
		<tag k="name" v="Sveastua" />
		<tag k="place" v="farm" />
		<tag k="ssr:stedsnr" v="586550" />
	</node>
	<node lat="61.15406388919613" lon="10.43402222979244" id="-23622">
		<tag k="name" v="Høyenhall" />
		<tag k="place" v="locality" />
		<tag k="ssr:stedsnr" v="586857" />
	</node>
	<node lat="61.07458889040653" lon="10.484791674499327" id="-23628">
		<tag k="name" v="Enga" />
		<tag k="place" v="locality" />
		<tag k="ssr:stedsnr" v="601215" />
	</node>
	<node lat="61.05891110816982" lon="10.410099992651157" id="-23631">
		<tag k="name" v="Vestre Ovren" />
		<tag k="place" v="farm" />
		<tag k="ssr:stedsnr" v="601750" />
	</node>
	<node lat="61.049916662818035" lon="10.428738886572123" id="-23634">
		<tag k="alt_name" v="Øvre Rindal" />
		<tag k="fixme" v="consider place=hamlet" />
		<tag k="name" v="Øvre Rinddal" />
		<tag k="place" v="farm" />
		<tag k="ssr:stedsnr" v="602326" />
	</node>
	<node lat="61.10550277465095" lon="10.423880547874926" id="-23635">
		<tag k="name" v="Nedre Ravnum" />
		<tag k="place" v="farm" />
		<tag k="ssr:stedsnr" v="602297" />
	</node>
	<node lat="61.083940896559895" lon="10.548484581828083" id="-23638">
		<tag k="fixme" v="consider place=hamlet" />
		<tag k="name" v="Skålia" />
		<tag k="place" v="farm" />
		<tag k="ssr:stedsnr" v="613839" />
	</node>
	<node lat="61.08233905071063" lon="10.353434879211818" id="-23639">
		<tag k="alt_name" v="Kindlien" />
		<tag k="fixme" v="consider place=hamlet" />
		<tag k="name" v="Kinnlia" />
		<tag k="place" v="farm" />
		<tag k="ssr:stedsnr" v="613864" />
	</node>
	<node lat="61.12628610786641" lon="10.22233889456677" id="-23640">
		<tag k="name" v="Bergsjordet" />
		<tag k="place" v="farm" />
		<tag k="ssr:stedsnr" v="614100" />
	</node>
	<node lat="61.1987083369803" lon="10.311708340022138" id="-23641">
		<tag k="name" v="Hauge" />
		<tag k="place" v="farm" />
		<tag k="ssr:stedsnr" v="614402" />
	</node>
	<node lat="61.16820277606953" lon="10.30480834126241" id="-23642">
		<tag k="alt_name" v="Glåmen" />
		<tag k="name" v="Glåma" />
		<tag k="place" v="farm" />
		<tag k="ssr:stedsnr" v="614410" />
	</node>
	<node lat="61.05163198145899" lon="10.39704703810852" id="-23643">
		<tag k="fixme" v="consider place=hamlet" />
		<tag k="name" v="Kolerud" />
		<tag k="place" v="farm" />
		<tag k="ssr:stedsnr" v="614710" />
	</node>
	<node lat="61.12309166849415" lon="10.391238886577904" id="-23644">
		<tag k="name" v="Jørud" />
		<tag k="place" v="farm" />
		<tag k="ssr:stedsnr" v="614817" />
	</node>
	<node lat="61.199755558475395" lon="10.405133325947121" id="-23647">
		<tag k="name" v="Skansen" />
		<tag k="place" v="farm" />
		<tag k="ssr:stedsnr" v="614908" />
	</node>
	<node lat="61.190813893243394" lon="10.399061113211845" id="-23648">
		<tag k="alt_name" v="Gutsveen" />
		<tag k="name" v="Gutsvea" />
		<tag k="place" v="farm" />
		<tag k="ssr:stedsnr" v="614921" />
	</node>
	<node lat="61.14323055257172" lon="10.477963896044898" id="-23649">
		<tag k="name" v="Bergehagan" />
		<tag k="place" v="farm" />
		<tag k="ssr:stedsnr" v="614945" />
	</node>
	<node lat="61.12657390939067" lon="10.48209433778749" id="-23652">
		<tag k="fixme" v="consider place=hamlet" />
		<tag k="name" v="Lysgård" />
		<tag k="place" v="farm" />
		<tag k="ssr:stedsnr" v="614957" />
	</node>
	<node lat="61.12730953385689" lon="10.238449582215768" id="-23666">
		<tag k="fixme" v="consider place=hamlet" />
		<tag k="name" v="Rindal" />
		<tag k="place" v="farm" />
		<tag k="ssr:stedsnr" v="708393" />
	</node>
	<node lat="61.16223055680191" lon="10.384450007769733" id="-23669">
		<tag k="name" v="Søre Jørstad" />
		<tag k="place" v="farm" />
		<tag k="ssr:stedsnr" v="708579" />
	</node>
	<node lat="61.095824996677834" lon="10.554230549597397" id="-23673">
		<tag k="name" v="Nedre Roterud" />
		<tag k="place" v="farm" />
		<tag k="ssr:stedsnr" v="662086" />
	</node>
	<node lat="61.10149722622048" lon="10.552913895095129" id="-23674">
		<tag k="name" v="Holtlihaugen" />
		<tag k="place" v="farm" />
		<tag k="ssr:stedsnr" v="662088" />
	</node>
	<node lat="61.10047222400685" lon="10.553938891402561" id="-23675">
		<tag k="name" v="Slåtten" />
		<tag k="place" v="farm" />
		<tag k="ssr:stedsnr" v="662090" />
	</node>
	<node lat="61.14420555406929" lon="10.469872227097731" id="-23677">
		<tag k="name" v="Løkken" />
		<tag k="place" v="farm" />
		<tag k="ssr:stedsnr" v="662202" />
	</node>
	<node lat="61.11510419264486" lon="10.322672571763588" id="-23678">
		<tag k="name" v="Nordre Jenssveen" />
		<tag k="place" v="farm" />
		<tag k="ssr:stedsnr" v="662336" />
	</node>
	<node lat="61.1133249992861" lon="10.310266667137743" id="-23679">
		<tag k="amenity" v="school" />
		<tag k="name" v="Saksheim" />
		<tag k="ssr:stedsnr" v="662640" />
	</node>
	<node lat="61.0723777762161" lon="10.373833336263033" id="-23680">
		<tag k="name" v="Nedre Hovsødegård" />
		<tag k="place" v="farm" />
		<tag k="ssr:stedsnr" v="662715" />
	</node>
	<node lat="61.12644721989146" lon="10.493405548673577" id="-23682">
		<tag k="amenity" v="cafe" />
		<tag k="name" v="Kanten kro" />
		<tag k="ssr:stedsnr" v="662821" />
	</node>
	<node lat="61.04686389325531" lon="10.409861106594809" id="-23684">
		<tag k="name" v="Søre Åmot" />
		<tag k="place" v="farm" />
		<tag k="ssr:stedsnr" v="663304" />
	</node>
	<node lat="61.1704444470685" lon="10.299530557594611" id="-23687">
		<tag k="name" v="Nordre Stræte" />
		<tag k="place" v="farm" />
		<tag k="ssr:stedsnr" v="890740" />
	</node>
	<node lat="61.0974972220745" lon="10.502538884605354" id="-23692">
		<tag k="amenity" v="nursing_home" />
		<tag k="name" v="Solhøgda" />
		<tag k="ssr:stedsnr" v="674766" />
	</node>
	<node lat="61.10144444483052" lon="10.439133326830284" id="-23693">
		<tag k="alt_name" v="Nordre Rise" />
		<tag k="name" v="Rise" />
		<tag k="place" v="farm" />
		<tag k="ssr:stedsnr" v="674771" />
	</node>
	<node lat="61.12168888650812" lon="10.281469439989918" id="-23695">
		<tag k="alt_name" v="Lillehagen" />
		<tag k="name" v="Veslhågån" />
		<tag k="place" v="farm" />
		<tag k="ssr:stedsnr" v="675146" />
	</node>
	<node lat="61.077466428699395" lon="10.469968693707818" id="-23696">
		<tag k="fixme" v="consider place=hamlet" />
		<tag k="name" v="Dallerud" />
		<tag k="place" v="farm" />
		<tag k="ssr:stedsnr" v="674855" />
	</node>
	<node lat="61.11235000389705" lon="10.334575000191196" id="-23698">
		<tag k="alt_name" v="Kvalsringen" />
		<tag k="name" v="Ringen" />
		<tag k="place" v="farm" />
		<tag k="ssr:stedsnr" v="675012" />
	</node>
	<node lat="61.19142500298767" lon="10.333041672295614" id="-23701">
		<tag k="name" v="Kopperud" />
		<tag k="place" v="farm" />
		<tag k="ssr:stedsnr" v="675404" />
	</node>
	<node lat="61.18677122174007" lon="10.283601059601684" id="-23703">
		<tag k="alt_name" v="Kjetlien" />
		<tag k="fixme" v="consider place=hamlet" />
		<tag k="name" v="Kjettlia" />
		<tag k="place" v="farm" />
		<tag k="ssr:stedsnr" v="675412" />
	</node>
	<node lat="61.206961495969594" lon="10.334376621425758" id="-23704">
		<tag k="fixme" v="consider place=hamlet" />
		<tag k="name" v="Land" />
		<tag k="place" v="farm" />
		<tag k="ssr:stedsnr" v="675504" />
	</node>
	<node lat="61.207311107753505" lon="10.32915555025233" id="-23705">
		<tag k="name" v="Engebakken" />
		<tag k="place" v="isolated_dwelling" />
		<tag k="ssr:stedsnr" v="675505" />
	</node>
	<node lat="61.20330832995994" lon="10.306038897167177" id="-23706">
		<tag k="name" v="Rønningsmarka" />
		<tag k="place" v="farm" />
		<tag k="ssr:stedsnr" v="675509" />
	</node>
	<node lat="61.11980555338253" lon="10.483366668510095" id="-23707">
		<tag k="alt_name" v="Åveitsveen" />
		<tag k="name" v="Åveitsvea" />
		<tag k="place" v="locality" />
		<tag k="ssr:stedsnr" v="675810" />
	</node>
	<node lat="61.122186109119724" lon="10.396452773074545" id="-23708">
		<tag k="name" v="Rønningen" />
		<tag k="place" v="farm" />
		<tag k="ssr:stedsnr" v="675821" />
	</node>
	<node lat="61.106897720072666" lon="10.51281866793985" id="-23709">
		<tag k="alt_name" v="Ringsveen" />
		<tag k="fixme" v="consider place=hamlet" />
		<tag k="name" v="Ringsvea" />
		<tag k="place" v="farm" />
		<tag k="ssr:stedsnr" v="675791" />
	</node>
	<node lat="61.16987778207664" lon="10.385583324567971" id="-23710">
		<tag k="alt_name" v="Jørstad" />
		<tag k="name" v="Øvre Jørstad" />
		<tag k="place" v="farm" />
		<tag k="ssr:stedsnr" v="675903" />
	</node>
	<node lat="61.15687918111923" lon="10.360203798340637" id="-23712">
		<tag k="name" v="Hølen" />
		<tag k="place" v="locality" />
		<tag k="ssr:stedsnr" v="675915" />
	</node>
	<node lat="61.14242222592616" lon="10.387055549168318" id="-23714">
		<tag k="name" v="Borgtun" />
		<tag k="place" v="farm" />
		<tag k="ssr:stedsnr" v="675997" />
	</node>
	<node lat="61.168844445444044" lon="10.382080552279625" id="-23715">
		<tag k="name" v="Oppgarden Jørstad" />
		<tag k="place" v="farm" />
		<tag k="ssr:stedsnr" v="891546" />
	</node>
	<node lat="61.16624722090698" lon="10.345958342566766" id="-23719">
		<tag k="name" v="Lønstad" />
		<tag k="place" v="farm" />
		<tag k="ssr:stedsnr" v="708219" />
	</node>
	<node lat="61.125849999136484" lon="10.283011118782724" id="-23721">
		<tag k="name" v="Nordre Rusten" />
		<tag k="place" v="farm" />
		<tag k="ssr:stedsnr" v="708158" />
	</node>
	<node lat="61.16659722367409" lon="10.40592500340056" id="-23722">
		<tag k="name" v="Søreng" />
		<tag k="place" v="farm" />
		<tag k="ssr:stedsnr" v="708566" />
	</node>
	<node lat="61.15336944345117" lon="10.392161115040143" id="-23723">
		<tag k="name" v="Voldbakken" />
		<tag k="place" v="farm" />
		<tag k="ssr:stedsnr" v="708572" />
	</node>
	<node lat="61.095516662661886" lon="10.555272220596075" id="-23729">
		<tag k="name" v="Nedre Roterud" />
		<tag k="place" v="farm" />
		<tag k="ssr:stedsnr" v="723104" />
	</node>
	<node lat="61.098980491719345" lon="10.55600572557031" id="-23730">
		<tag k="name" v="Myhreenga" />
		<tag k="place" v="farm" />
		<tag k="ssr:stedsnr" v="723118" />
	</node>
	<node lat="61.17038889021986" lon="10.622563889382375" id="-23733">
		<tag k="historic" v="shieling" />
		<tag k="name" v="Bårdsengsetra" />
		<tag k="place" v="isolated_dwelling" />
		<tag k="ssr:stedsnr" v="723507" />
	</node>
	<node lat="61.14394166771808" lon="10.427394446820147" id="-23734">
		<tag k="name" v="Svehaugen" />
		<tag k="place" v="farm" />
		<tag k="ssr:stedsnr" v="723920" />
	</node>
	<node lat="61.12960555129046" lon="10.255147217383334" id="-23735">
		<tag k="alt_name" v="Vesle-Ullandstugua" />
		<tag k="name" v="Stugua" />
		<tag k="place" v="farm" />
		<tag k="ssr:stedsnr" v="735097" />
	</node>
	<node lat="61.09908624180069" lon="10.483596143211582" id="-23736">
		<tag k="fixme" v="consider place=hamlet" />
		<tag k="name" v="Holen" />
		<tag k="place" v="farm" />
		<tag k="ssr:stedsnr" v="735776" />
	</node>
	<node lat="61.080007377487576" lon="10.411130235100005" id="-23737">
		<tag k="fixme" v="consider place=hamlet" />
		<tag k="name" v="Furu" />
		<tag k="place" v="farm" />
		<tag k="ssr:stedsnr" v="735873" />
	</node>
	<node lat="61.10672222215848" lon="10.131433336970897" id="-23738">
		<tag k="alt_name" v="Dinglia seter" />
		<tag k="historic" v="shieling" />
		<tag k="name" v="Dinglia" />
		<tag k="place" v="isolated_dwelling" />
		<tag k="ssr:stedsnr" v="736010" />
	</node>
	<node lat="61.11369166970676" lon="10.299755550503662" id="-23739">
		<tag k="name" v="Nordeng" />
		<tag k="place" v="farm" />
		<tag k="ssr:stedsnr" v="736012" />
	</node>
	<node lat="61.10979444560879" lon="10.294552774113711" id="-23740">
		<tag k="alt_name" v="Myra" />
		<tag k="name" v="Nedre Myren" />
		<tag k="place" v="farm" />
		<tag k="ssr:stedsnr" v="736014" />
	</node>
	<node lat="61.11273610886911" lon="10.332919441550809" id="-23741">
		<tag k="alt_name" v="Engstad" />
		<tag k="name" v="Engeland" />
		<tag k="place" v="farm" />
		<tag k="ssr:stedsnr" v="736016" />
	</node>
	<node lat="61.116033330241194" lon="10.322536103777157" id="-23742">
		<tag k="alt_name" v="Øversveen" />
		<tag k="name" v="Øversvea" />
		<tag k="place" v="farm" />
		<tag k="ssr:stedsnr" v="736019" />
	</node>
	<node lat="61.19936666666599" lon="10.381927778080172" id="-23743">
		<tag k="name" v="Saghytta" />
		<tag k="place" v="isolated_dwelling" />
		<tag k="ssr:stedsnr" v="735920" />
	</node>
	<node lat="61.11580833290759" lon="10.271061112537623" id="-23747">
		<tag k="name" v="Eng" />
		<tag k="place" v="farm" />
		<tag k="ssr:stedsnr" v="736105" />
	</node>
	<node lat="61.11838889262287" lon="10.28388055273395" id="-23748">
		<tag k="alt_name" v="Ulland" />
		<tag k="name" v="Øvre Ulland" />
		<tag k="place" v="farm" />
		<tag k="ssr:stedsnr" v="736111" />
	</node>
	<node lat="61.123455553389505" lon="10.286516669006994" id="-23749">
		<tag k="alt_name" v="Jensvold" />
		<tag k="name" v="Jensvoll" />
		<tag k="place" v="farm" />
		<tag k="ssr:stedsnr" v="736122" />
	</node>
	<node lat="61.125627780750094" lon="10.248416664204864" id="-23751">
		<tag k="alt_name" v="Rikje" />
		<tag k="name" v="Riket" />
		<tag k="place" v="farm" />
		<tag k="ssr:stedsnr" v="736126" />
	</node>
	<node lat="61.186422525383485" lon="10.32600080680488" id="-23752">
		<tag k="fixme" v="consider place=hamlet" />
		<tag k="name" v="Ellingsberg" />
		<tag k="place" v="farm" />
		<tag k="ssr:stedsnr" v="736418" />
	</node>
	<node lat="61.188052676717895" lon="10.276679991891557" id="-23753">
		<tag k="alt_name" v="Grønlia" />
		<tag k="name" v="Søre Grønlien" />
		<tag k="place" v="farm" />
		<tag k="ssr:stedsnr" v="736382" />
	</node>
	<node lat="61.06296944020289" lon="10.392047226444921" id="-23754">
		<tag k="alt_name" v="Øvergard" />
		<tag k="name" v="Ødegården" />
		<tag k="place" v="farm" />
		<tag k="ssr:stedsnr" v="736687" />
	</node>
	<node lat="61.116741667011354" lon="10.415719452100483" id="-23755">
		<tag k="alt_name" v="Trosset, s;Søndre Trosset;Søre Troset" />
		<tag k="name" v="Søre Trosset" />
		<tag k="place" v="farm" />
		<tag k="ssr:stedsnr" v="736811" />
	</node>
	<node lat="61.1906666624893" lon="10.307727786474576" id="-23757">
		<tag k="amenity" v="school" />
		<tag k="name" v="Buvollen" />
		<tag k="ssr:stedsnr" v="904389" />
	</node>
	<node lat="61.140811111021485" lon="10.452552775754322" id="-23759">
		<tag k="name" v="Knipen" />
		<tag k="place" v="farm" />
		<tag k="ssr:stedsnr" v="905138" />
	</node>
	<node lat="61.14143055367033" lon="10.451763880283785" id="-23760">
		<tag k="name" v="Midtre Lunde" />
		<tag k="place" v="farm" />
		<tag k="ssr:stedsnr" v="905144" />
	</node>
	<node lat="61.12498611287122" lon="10.472691662257267" id="-23761">
		<tag k="amenity" v="school" />
		<tag k="name" v="Mesna videregående skole" />
		<tag k="ssr:stedsnr" v="905172" />
	</node>
	<node lat="61.1009833359029" lon="10.477086114674313" id="-23762">
		<tag k="amenity" v="school" />
		<tag k="name" v="Åretta ungdomsskole" />
		<tag k="ssr:stedsnr" v="905680" />
	</node>
	<node lat="61.141038893217484" lon="10.424291669648799" id="-23765">
		<tag k="name" v="Mælingen" />
		<tag k="place" v="farm" />
		<tag k="ssr:stedsnr" v="905947" />
	</node>
	<node lat="61.1031777771108" lon="10.437561114930892" id="-23766">
		<tag k="name" v="Mellemberg" />
		<tag k="place" v="farm" />
		<tag k="ssr:stedsnr" v="906296" />
	</node>
	<node lat="61.21035555995791" lon="10.403947223773775" id="-23772">
		<tag k="name" v="Kalvsveen" />
		<tag k="place" v="locality" />
		<tag k="ssr:stedsnr" v="769208" />
	</node>
	<node lat="61.08301266688353" lon="10.572825023644626" id="-23774">
		<tag k="name" v="Søre Geiterud" />
		<tag k="place" v="farm" />
		<tag k="ssr:stedsnr" v="783063" />
	</node>
	<node lat="61.126238888577845" lon="10.444066673011863" id="-23775">
		<tag k="name" v="Sannheim" />
		<tag k="place" v="farm" />
		<tag k="ssr:stedsnr" v="784163" />
	</node>
	<node lat="61.14420555343729" lon="10.4666972182625" id="-23776">
		<tag k="name" v="Halvorstuen" />
		<tag k="place" v="farm" />
		<tag k="ssr:stedsnr" v="784219" />
	</node>
	<node lat="61.17459722356579" lon="10.62056667237094" id="-23777">
		<tag k="historic" v="shieling" />
		<tag k="name" v="Lundesetra" />
		<tag k="place" v="isolated_dwelling" />
		<tag k="ssr:stedsnr" v="784582" />
	</node>
	<node lat="61.074502776953004" lon="10.365102781401996" id="-23778">
		<tag k="name" v="Nordvang" />
		<tag k="place" v="farm" />
		<tag k="ssr:stedsnr" v="784721" />
	</node>
	<node lat="61.07412777713895" lon="10.364197227971673" id="-23779">
		<tag k="name" v="Nyset" />
		<tag k="place" v="farm" />
		<tag k="ssr:stedsnr" v="795812" />
	</node>
	<node lat="61.1166499960719" lon="10.303369442095848" id="-23781">
		<tag k="alt_name" v="Ringen" />
		<tag k="name" v="Øvre Nygård" />
		<tag k="place" v="farm" />
		<tag k="ssr:stedsnr" v="796005" />
	</node>
	<node lat="61.17713055865959" lon="10.382219453179824" id="-23782">
		<tag k="name" v="Øfstedalshaugen" />
		<tag k="place" v="farm" />
		<tag k="ssr:stedsnr" v="912863" />
	</node>
	<node lat="61.23367777347467" lon="10.426822215263876" id="-23787">
		<tag k="name" v="Svarverud" />
		<tag k="place" v="farm" />
		<tag k="ssr:stedsnr" v="797150" />
	</node>
	<node lat="61.220963890177245" lon="10.434308333855427" id="-23788">
		<tag k="name" v="Håkenstua" />
		<tag k="place" v="farm" />
		<tag k="ssr:stedsnr" v="797164" />
	</node>
	<node lat="61.114841669161514" lon="10.3239694405106" id="-23789">
		<tag k="alt_name" v="Søre Jenssveen" />
		<tag k="name" v="Jenssvea" />
		<tag k="place" v="farm" />
		<tag k="ssr:stedsnr" v="797022" />
	</node>
	<node lat="61.17409166344395" lon="10.299269442518867" id="-23790">
		<tag k="alt_name" v="Bergum" />
		<tag k="name" v="Bergom" />
		<tag k="place" v="farm" />
		<tag k="ssr:stedsnr" v="797422" />
	</node>
	<node lat="61.06224166570391" lon="10.188519445625385" id="-23792">
		<tag k="name" v="Bleiklia" />
		<tag k="place" v="locality" />
		<tag k="ssr:stedsnr" v="917054" />
	</node>
	<node lat="61.049936112191546" lon="10.197619437738693" id="-23793">
		<tag k="alt_name" v="Vismundsetra" />
		<tag k="name" v="Vismundsætra" />
		<tag k="place" v="hamlet" />
		<tag k="ssr:stedsnr" v="917151" />
	</node>
	<node lat="61.12422777787884" lon="10.294086104973163" id="-23796">
		<tag k="alt_name" v="Rusta" />
		<tag k="name" v="Øvre Rusten" />
		<tag k="place" v="farm" />
		<tag k="ssr:stedsnr" v="918124" />
	</node>
	<node lat="61.13784012197112" lon="10.384800532277582" id="-23797">
		<tag k="alt_name" v="Kasterud" />
		<tag k="fixme" v="consider place=hamlet" />
		<tag k="name" v="Kastrud" />
		<tag k="place" v="farm" />
		<tag k="ssr:stedsnr" v="918000" />
	</node>
	<node lat="61.227494445505634" lon="10.717519448869355" id="-23800">
		<tag k="name" v="Snultra" />
		<tag k="place" v="hamlet" />
		<tag k="ssr:stedsnr" v="918178" />
	</node>
	<node lat="61.1943777766732" lon="10.296180563002608" id="-23801">
		<tag k="alt_name" v="Voldheim" />
		<tag k="name" v="Vollheim" />
		<tag k="place" v="farm" />
		<tag k="ssr:stedsnr" v="918457" />
	</node>
	<node lat="61.18691585670888" lon="10.339463046586951" id="-23803">
		<tag k="fixme" v="consider place=hamlet" />
		<tag k="name" v="Korsrud" />
		<tag k="place" v="farm" />
		<tag k="ssr:stedsnr" v="918479" />
	</node>
	<node lat="61.20838055671351" lon="10.332716659546186" id="-23804">
		<tag k="name" v="Holshaugen" />
		<tag k="place" v="farm" />
		<tag k="ssr:stedsnr" v="918542" />
	</node>
	<node lat="61.103900435497046" lon="10.417831923103963" id="-23806">
		<tag k="fixme" v="consider place=hamlet" />
		<tag k="name" v="Reistad" />
		<tag k="place" v="farm" />
		<tag k="ssr:stedsnr" v="918816" />
	</node>
	<node lat="61.10408888729239" lon="10.40632222493027" id="-23807">
		<tag k="alt_name" v="Pålstuen" />
		<tag k="name" v="Pålstua" />
		<tag k="place" v="farm" />
		<tag k="ssr:stedsnr" v="918819" />
	</node>
	<node lat="61.19512499753216" lon="10.401538881696467" id="-23810">
		<tag k="alt_name" v="Skålsveen" />
		<tag k="name" v="Skålsvea" />
		<tag k="place" v="farm" />
		<tag k="ssr:stedsnr" v="918939" />
	</node>
	<node lat="61.147996504750445" lon="10.441554677179138" id="-23811">
		<tag k="alt_name" v="Bjørnstad" />
		<tag k="fixme" v="consider place=hamlet" />
		<tag k="name" v="Bjørstad" />
		<tag k="place" v="farm" />
		<tag k="ssr:stedsnr" v="918986" />
	</node>
	<node lat="61.14666680735762" lon="10.36686846271393" id="-23812">
		<tag k="fixme" v="consider place=hamlet" />
		<tag k="name" v="Rånnerud" />
		<tag k="place" v="farm" />
		<tag k="ssr:stedsnr" v="918990" />
	</node>
	<node lat="61.15052500347567" lon="10.45186389659467" id="-23816">
		<tag k="name" v="Sagbakken" />
		<tag k="place" v="isolated_dwelling" />
		<tag k="ssr:stedsnr" v="830651" />
	</node>
	<node lat="61.09676388806847" lon="10.340911107120869" id="-23817">
		<tag k="name" v="Stylshaugen" />
		<tag k="place" v="locality" />
		<tag k="ssr:stedsnr" v="830676" />
	</node>
	<node lat="61.0846316488554" lon="10.409672385511612" id="-23818">
		<tag k="fixme" v="consider place=hamlet" />
		<tag k="name" v="Brattberg" />
		<tag k="old_name" v="Bratberg;Bratbjerg" />
		<tag k="place" v="farm" />
		<tag k="ssr:stedsnr" v="843805" />
	</node>
	<node lat="61.09947222222029" lon="10.591158336595752" id="-23819">
		<tag k="name" v="Sønsteli" />
		<tag k="place" v="isolated_dwelling" />
		<tag k="ssr:stedsnr" v="844130" />
	</node>
	<node lat="61.13537499871877" lon="10.463611112286882" id="-23820">
		<tag k="name" v="Knutrud" />
		<tag k="place" v="farm" />
		<tag k="ssr:stedsnr" v="845176" />
	</node>
	<node lat="61.182638889342066" lon="10.622466663212556" id="-23821">
		<tag k="historic" v="shieling" />
		<tag k="name" v="Søre Langsetsetra" />
		<tag k="place" v="isolated_dwelling" />
		<tag k="ssr:stedsnr" v="845610" />
	</node>
	<node lat="61.18914210422188" lon="10.275665353573942" id="-23824">
		<tag k="name" v="Nordre Grønlien" />
		<tag k="place" v="farm" />
		<tag k="ssr:stedsnr" v="845784" />
	</node>
	<node lat="61.11721110799015" lon="10.311208328038031" id="-23826">
		<tag k="name" v="Granberg" />
		<tag k="place" v="farm" />
		<tag k="ssr:stedsnr" v="857011" />
	</node>
	<node lat="61.112413890218846" lon="10.304958327323902" id="-23827">
		<tag k="alt_name" v="Midttun" />
		<tag k="name" v="Nordenga" />
		<tag k="place" v="farm" />
		<tag k="ssr:stedsnr" v="857014" />
	</node>
	<node lat="61.09638889314312" lon="10.225155555303273" id="-23829">
		<tag k="alt_name" v="Sveen seter" />
		<tag k="historic" v="shieling" />
		<tag k="name" v="Svesætra" />
		<tag k="place" v="isolated_dwelling" />
		<tag k="ssr:stedsnr" v="857017" />
	</node>
	<node lat="61.10772222432673" lon="10.318477778347612" id="-23831">
		<tag k="alt_name" v="Dalby" />
		<tag k="name" v="Nordre Dalby" />
		<tag k="place" v="farm" />
		<tag k="ssr:stedsnr" v="857027" />
	</node>
	<node lat="61.12669444481828" lon="10.246713896946188" id="-23833">
		<tag k="name" v="Rønningen" />
		<tag k="place" v="farm" />
		<tag k="ssr:stedsnr" v="857128" />
	</node>
	<node lat="61.18416558149231" lon="10.290836799702976" id="-23835">
		<tag k="alt_name" v="Arlien" />
		<tag k="fixme" v="consider place=hamlet" />
		<tag k="name" v="Arlia" />
		<tag k="place" v="farm" />
		<tag k="ssr:stedsnr" v="857419" />
	</node>
	<node lat="61.19361716341466" lon="10.311055396163995" id="-23836">
		<tag k="fixme" v="consider place=hamlet" />
		<tag k="name" v="Simenrud" />
		<tag k="place" v="farm" />
		<tag k="ssr:stedsnr" v="857428" />
	</node>
	<node lat="61.061099997972086" lon="10.398355562101289" id="-23837">
		<tag k="alt_name" v="Ovresveen" />
		<tag k="name" v="Ovrensvea" />
		<tag k="place" v="farm" />
		<tag k="ssr:stedsnr" v="857674" />
	</node>
	<node lat="61.12004522123248" lon="10.451432491037014" id="-23838">
		<tag k="fixme" v="consider place=hamlet" />
		<tag k="name" v="Skjellerud" />
		<tag k="place" v="farm" />
		<tag k="ssr:stedsnr" v="857783" />
	</node>
	<node lat="61.2003777761693" lon="10.345777782988323" id="-23840">
		<tag k="name" v="Nysvea" />
		<tag k="place" v="farm" />
		<tag k="ssr:stedsnr" v="857906" />
	</node>
	<node lat="61.191766667033534" lon="10.637711111449763" id="-23841">
		<tag k="name" v="Løvisåsen" />
		<tag k="place" v="isolated_dwelling" />
		<tag k="ssr:stedsnr" v="857924" />
	</node>
	<node lat="61.145102778242745" lon="10.495458332910662" id="-23842">
		<tag k="alt_name" v="Rustadstuen" />
		<tag k="name" v="Rustadstua" />
		<tag k="place" v="farm" />
		<tag k="ssr:stedsnr" v="857985" />
	</node>
	<node lat="61.10793055335023" lon="10.374316668029305" id="-23845">
		<tag k="alt_name" v="Ravnumsetra" />
		<tag k="historic" v="shieling" />
		<tag k="name" v="Ramnumsætra" />
		<tag k="place" v="isolated_dwelling" />
		<tag k="ssr:stedsnr" v="858820" />
	</node>
	<node lat="61.19119166404341" lon="10.402555548501658" id="-23847">
		<tag k="name" v="Øvre Haugen" />
		<tag k="place" v="farm" />
		<tag k="ssr:stedsnr" v="890608" />
	</node>
	<node lat="61.15322500012186" lon="10.41309721495938" id="-23849">
		<tag k="name" v="Hoveløkken" />
		<tag k="place" v="isolated_dwelling" />
		<tag k="ssr:stedsnr" v="890613" />
	</node>
	<node lat="61.11526388594056" lon="10.280355555992235" id="-23853">
		<tag k="name" v="Saksheim" />
		<tag k="place" v="isolated_dwelling" />
		<tag k="ssr:stedsnr" v="891826" />
	</node>
	<node lat="61.03866944045495" lon="10.342602776057674" id="-23856">
		<tag k="name" v="Rindalshytta" />
		<tag k="place" v="locality" />
		<tag k="ssr:stedsnr" v="898826" />
	</node>
	<node lat="61.1447972189275" lon="10.461763891635448" id="-23859">
		<tag k="name" v="Lundeødegården" />
		<tag k="place" v="locality" />
		<tag k="ssr:stedsnr" v="905207" />
	</node>
	<node lat="61.082572220409446" lon="10.524897220931624" id="-23860">
		<tag k="name" v="Spikerudhaugen" />
		<tag k="place" v="farm" />
		<tag k="ssr:stedsnr" v="905515" />
	</node>
	<node lat="61.091805617549106" lon="10.506343634342254" id="-23863">
		<tag k="fixme" v="consider place=hamlet" />
		<tag k="name" v="Røyslia" />
		<tag k="place" v="farm" />
		<tag k="ssr:stedsnr" v="917767" />
	</node>
	<node lat="61.098479853536766" lon="10.47301542736692" id="-23864">
		<tag k="alt_name" v="Hage" />
		<tag k="name" v="Haga" />
		<tag k="place" v="locality" />
		<tag k="ssr:stedsnr" v="917768" />
	</node>
	<node lat="61.07288071343673" lon="10.464217939928796" id="-23865">
		<tag k="alt_name" v="Smed" />
		<tag k="fixme" v="consider place=hamlet" />
		<tag k="name" v="Sme" />
		<tag k="place" v="farm" />
		<tag k="ssr:stedsnr" v="917864" />
	</node>
	<node lat="61.07753333374415" lon="10.363916658490545" id="-23866">
		<tag k="name" v="Døsrønningen" />
		<tag k="place" v="farm" />
		<tag k="ssr:stedsnr" v="917872" />
	</node>
	<node lat="61.1132333304248" lon="10.329786112356043" id="-23867">
		<tag k="name" v="Lybekk" />
		<tag k="place" v="farm" />
		<tag k="ssr:stedsnr" v="918014" />
	</node>
	<node lat="61.10844999837988" lon="10.333166675480923" id="-23868">
		<tag k="name" v="Oddland" />
		<tag k="place" v="farm" />
		<tag k="ssr:stedsnr" v="918020" />
	</node>
	<node lat="61.11017997049597" lon="10.10215924521213" id="-23869">
		<tag k="fixme" v="multiple name tags, choose one and add the other to alt_name" />
		<tag k="historic" v="shieling" />
		<tag k="name" v="Skjellbreida;Skjellbreidssætra" />
		<tag k="place" v="isolated_dwelling" />
		<tag k="ssr:stedsnr" v="918002" />
	</node>
	<node lat="61.11328857172177" lon="10.426086637756864" id="-23872">
		<tag k="alt_name" v="Børke" />
		<tag k="fixme" v="consider place=hamlet" />
		<tag k="name" v="Børkje" />
		<tag k="place" v="farm" />
		<tag k="ssr:stedsnr" v="918861" />
	</node>
	<node lat="61.17448293679788" lon="10.409989207863307" id="-23873">
		<tag k="fixme" v="consider place=hamlet" />
		<tag k="name" v="Skog" />
		<tag k="place" v="farm" />
		<tag k="ssr:stedsnr" v="918903" />
	</node>
	<node lat="61.17733888444204" lon="10.375925003279086" id="-23874">
		<tag k="name" v="Skogli" />
		<tag k="place" v="farm" />
		<tag k="ssr:stedsnr" v="918904" />
	</node>
	<node lat="61.17481012365209" lon="10.384236802388104" id="-23875">
		<tag k="alt_name" v="Øfstedal" />
		<tag k="fixme" v="consider place=hamlet" />
		<tag k="name" v="Øvstdal" />
		<tag k="place" v="farm" />
		<tag k="ssr:stedsnr" v="918905" />
	</node>
	<node lat="61.168222220387115" lon="10.371736110191819" id="-23876">
		<tag k="name" v="Rønningen" />
		<tag k="place" v="farm" />
		<tag k="ssr:stedsnr" v="918916" />
	</node>
	<node lat="61.16703888567207" lon="10.423122214683865" id="-23877">
		<tag k="alt_name" v="Dølden" />
		<tag k="name" v="Dølda" />
		<tag k="place" v="farm" />
		<tag k="ssr:stedsnr" v="918921" />
	</node>
	<node lat="61.184966666046165" lon="10.393183327136482" id="-23878">
		<tag k="alt_name" v="Rugsveen" />
		<tag k="name" v="Rugsvea" />
		<tag k="place" v="farm" />
		<tag k="ssr:stedsnr" v="918946" />
	</node>
	<node lat="61.18266110827038" lon="10.405188882826364" id="-23879">
		<tag k="alt_name" v="Sveen" />
		<tag k="name" v="Svea" />
		<tag k="place" v="farm" />
		<tag k="ssr:stedsnr" v="918948" />
	</node>
	<node lat="61.13004166723896" lon="10.49171944125532" id="-23880">
		<tag k="name" v="Pålsrud" />
		<tag k="place" v="farm" />
		<tag k="ssr:stedsnr" v="918963" />
	</node>
	<node lat="61.12823261561792" lon="10.473611498167033" id="-23881">
		<tag k="alt_name" v="Randgard" />
		<tag k="fixme" v="consider place=hamlet" />
		<tag k="name" v="Randgård" />
		<tag k="place" v="farm" />
		<tag k="ssr:stedsnr" v="918966" />
	</node>
	<node lat="61.149080558201" lon="10.355538883017699" id="-23882">
		<tag k="name" v="Rønningen" />
		<tag k="place" v="farm" />
		<tag k="ssr:stedsnr" v="951206" />
	</node>
	<node lat="61.156519443115364" lon="10.359594442618723" id="-23883">
		<tag k="name" v="Framre Hølen" />
		<tag k="place" v="farm" />
		<tag k="ssr:stedsnr" v="951211" />
	</node>
	<node lat="61.12657500090142" lon="10.226213884408313" id="-23884">
		<tag k="name" v="Bergstuen" />
		<tag k="place" v="farm" />
		<tag k="ssr:stedsnr" v="951400" />
	</node>
	<node lat="61.09967222074884" lon="10.54757222699297" id="-23893">
		<tag k="name" v="Engen" />
		<tag k="place" v="farm" />
		<tag k="ssr:stedsnr" v="965114" />
	</node>
	<node lat="61.20385833242713" lon="10.335224996053102" id="-23894">
		<tag k="name" v="Rønningen" />
		<tag k="place" v="farm" />
		<tag k="ssr:stedsnr" v="965611" />
	</node>
	<node lat="61.20735277688596" lon="10.317616659961496" id="-23895">
		<tag k="name" v="Nordgarden" />
		<tag k="place" v="farm" />
		<tag k="ssr:stedsnr" v="965613" />
	</node>
	<node lat="61.08344721817851" lon="10.53734443528688" id="-23896">
		<tag k="name" v="Nordre Menkerud" />
		<tag k="place" v="farm" />
		<tag k="ssr:stedsnr" v="966500" />
	</node>
	<node lat="61.10654820522782" lon="10.418151147994895" id="-23898">
		<tag k="fixme" v="consider place=hamlet" />
		<tag k="name" v="Ramberg" />
		<tag k="place" v="farm" />
		<tag k="ssr:stedsnr" v="986434" />
	</node>
	<node lat="61.10614068107911" lon="10.42455192927706" id="-23899">
		<tag k="fixme" v="consider place=hamlet" />
		<tag k="name" v="Ravnum" />
		<tag k="place" v="farm" />
		<tag k="ssr:stedsnr" v="986435" />
	</node>
	<node lat="61.14201424996077" lon="10.452406471253944" id="-23900">
		<tag k="fixme" v="consider place=hamlet" />
		<tag k="name" v="Lunde" />
		<tag k="place" v="farm" />
		<tag k="ssr:stedsnr" v="986438" />
	</node>
	<node lat="61.13888483072538" lon="10.439756687938026" id="-23901">
		<tag k="fixme" v="consider place=hamlet" />
		<tag k="name" v="Skikstad" />
		<tag k="place" v="farm" />
		<tag k="ssr:stedsnr" v="986439" />
	</node>
	<node lat="61.129706352403595" lon="10.62605630428797" id="-23902">
		<tag k="fixme" v="consider place=hamlet" />
		<tag k="name" v="Avskåkålia" />
		<tag k="place" v="farm" />
		<tag k="ssr:stedsnr" v="986443" />
	</node>
	<node lat="61.0492423633327" lon="10.428461945690888" id="-23903">
		<tag k="name" v="Rinddal" />
		<tag k="place" v="hamlet" />
		<tag k="ssr:stedsnr" v="986401" />
	</node>
	<node lat="61.15458831583438" lon="10.318672549001192" id="-23904">
		<tag k="alt_name" v="Hauklien" />
		<tag k="fixme" v="consider place=hamlet" />
		<tag k="name" v="Hauklia" />
		<tag k="place" v="farm" />
		<tag k="ssr:stedsnr" v="986532" />
	</node>
	<node lat="61.169195603222015" lon="10.300300487127235" id="-23905">
		<tag k="fixme" v="consider place=hamlet" />
		<tag k="name" v="Stræte" />
		<tag k="place" v="farm" />
		<tag k="ssr:stedsnr" v="986533" />
	</node>
	<node lat="61.16108098123736" lon="10.325009621206124" id="-23906">
		<tag k="fixme" v="consider place=hamlet" />
		<tag k="name" v="Fliflet" />
		<tag k="place" v="farm" />
		<tag k="ssr:stedsnr" v="986535" />
	</node>
	<node lat="61.17917020450236" lon="10.305574889959724" id="-23907">
		<tag k="fixme" v="consider place=hamlet" />
		<tag k="name" v="Aurlia" />
		<tag k="place" v="farm" />
		<tag k="ssr:stedsnr" v="986536" />
	</node>
	<node lat="61.188529452814166" lon="10.276219870942251" id="-23908">
		<tag k="fixme" v="consider place=hamlet" />
		<tag k="name" v="Grønlia" />
		<tag k="place" v="farm" />
		<tag k="ssr:stedsnr" v="986537" />
	</node>
	<node lat="61.1502330184064" lon="10.422412900292247" id="-23909">
		<tag k="amenity" v="university" />
		<tag k="name" v="Høgskolen i Innlandet, Lillehammer" />
		<tag k="ssr:stedsnr" v="987569" />
	</node>
	<node lat="61.06551111081265" lon="10.467447225451128" id="-23913">
		<tag k="alt_name" v="Tuveng" />
		<tag k="name" v="Tuvenga" />
		<tag k="place" v="isolated_dwelling" />
		<tag k="ssr:stedsnr" v="6847" />
	</node>
	<node lat="61.087841554655405" lon="10.465946652386291" id="-23916">
		<tag k="alt_name" v="Trangerud" />
		<tag k="fixme" v="consider place=hamlet" />
		<tag k="name" v="Trangrud" />
		<tag k="place" v="farm" />
		<tag k="ssr:stedsnr" v="7842" />
	</node>
	<node lat="61.21796388964037" lon="10.652050009013239" id="-23917">
		<tag k="alt_name" v="Reina, yt;Yttre Reina" />
		<tag k="name" v="Ytre Reina" />
		<tag k="place" v="hamlet" />
		<tag k="ssr:stedsnr" v="7180" />
	</node>
	<node lat="61.128235763490785" lon="10.23142655598614" id="-23919">
		<tag k="name" v="Berg" />
		<tag k="place" v="hamlet" />
		<tag k="ssr:stedsnr" v="7466" />
	</node>
	<node lat="61.20517006295826" lon="10.402673790570587" id="-23920">
		<tag k="alt_name" v="Storsveen" />
		<tag k="name" v="Storsvea" />
		<tag k="place" v="locality" />
		<tag k="ssr:stedsnr" v="7911" />
	</node>
	<node lat="61.19885555939901" lon="10.407288894495933" id="-23921">
		<tag k="alt_name" v="Åen" />
		<tag k="name" v="Åa" />
		<tag k="place" v="farm" />
		<tag k="ssr:stedsnr" v="7925" />
	</node>
	<node lat="61.18858889031137" lon="10.343786119822624" id="-23922">
		<tag k="name" v="Rud" />
		<tag k="place" v="farm" />
		<tag k="ssr:stedsnr" v="7935" />
	</node>
	<node lat="61.10353333236121" lon="10.313349991378036" id="-23923">
		<tag k="alt_name" v="Monsstuen" />
		<tag k="name" v="Monsstugua" />
		<tag k="place" v="farm" />
		<tag k="ssr:stedsnr" v="8030" />
	</node>
	<node lat="61.11724444041144" lon="10.253913896231099" id="-23924">
		<tag k="alt_name" v="Volden" />
		<tag k="name" v="Vollen" />
		<tag k="place" v="farm" />
		<tag k="ssr:stedsnr" v="8125" />
	</node>
	<node lat="61.12057499989541" lon="10.242961117566411" id="-23925">
		<tag k="alt_name" v="Voldbakken" />
		<tag k="name" v="Vollbakken" />
		<tag k="place" v="farm" />
		<tag k="ssr:stedsnr" v="8127" />
	</node>
	<node lat="61.14614999837605" lon="10.484341673790372" id="-23926">
		<tag k="alt_name" v="Nordre Kjølgård" />
		<tag k="name" v="Kjøllgarden" />
		<tag k="place" v="farm" />
		<tag k="ssr:stedsnr" v="7983" />
	</node>
	<node lat="61.144122224361574" lon="10.558572223583267" id="-23927">
		<tag k="name" v="Reiret" />
		<tag k="place" v="isolated_dwelling" />
		<tag k="ssr:stedsnr" v="7986" />
	</node>
	<node lat="61.14906944726533" lon="10.456238898238936" id="-23928">
		<tag k="name" v="Bjørnerud" />
		<tag k="place" v="farm" />
		<tag k="ssr:stedsnr" v="7987" />
	</node>
	<node lat="61.19572439810868" lon="10.322764392666233" id="-23930">
		<tag k="fixme" v="consider place=hamlet" />
		<tag k="name" v="Prestrud" />
		<tag k="place" v="farm" />
		<tag k="ssr:stedsnr" v="8430" />
	</node>
	<node lat="61.05016666869039" lon="10.38574443988922" id="-23931">
		<tag k="name" v="Kolerudhagan" />
		<tag k="place" v="farm" />
		<tag k="ssr:stedsnr" v="8721" />
	</node>
	<node lat="61.1070444486985" lon="10.519191675629978" id="-23933">
		<tag k="name" v="Ringen" />
		<tag k="place" v="isolated_dwelling" />
		<tag k="ssr:stedsnr" v="8787" />
	</node>
	<node lat="61.134391665258214" lon="10.505872226002332" id="-23935">
		<tag k="leisure" v="pitch" />
		<tag k="name" v="Birkebeineren skistadion" />
		<tag k="ssr:stedsnr" v="24476" />
	</node>
	<node lat="61.148983337692094" lon="10.360775008819989" id="-23936">
		<tag k="name" v="Lieng" />
		<tag k="place" v="farm" />
		<tag k="ssr:stedsnr" v="40221" />
	</node>
	<node lat="61.099791665244325" lon="10.568486112523956" id="-23947">
		<tag k="name" v="Mælumsenga" />
		<tag k="place" v="isolated_dwelling" />
		<tag k="ssr:stedsnr" v="55089" />
	</node>
	<node lat="61.073544445916525" lon="10.501163886126017" id="-23948">
		<tag k="name" v="Roverudlia" />
		<tag k="place" v="locality" />
		<tag k="ssr:stedsnr" v="56216" />
	</node>
	<node lat="61.09112499785241" lon="10.47195277734288" id="-23950">
		<tag k="name" v="Søre Sæter" />
		<tag k="place" v="farm" />
		<tag k="ssr:stedsnr" v="56662" />
	</node>
	<node lat="61.09458611414344" lon="10.47576666730494" id="-23951">
		<tag k="amenity" v="school" />
		<tag k="name" v="Søre Ål" />
		<tag k="ssr:stedsnr" v="56665" />
	</node>
	<node lat="61.17067222253686" lon="10.363086115859408" id="-23953">
		<tag k="name" v="Nordre Høgsveen" />
		<tag k="place" v="farm" />
		<tag k="ssr:stedsnr" v="63851" />
	</node>
	<node lat="61.09611111036307" lon="10.501805553626047" id="-23955">
		<tag k="alt_name" v="Høstmælingshaugen" />
		<tag k="name" v="Haugen" />
		<tag k="place" v="farm" />
		<tag k="ssr:stedsnr" v="67778" />
	</node>
	<node lat="61.04964166604132" lon="10.302119443898219" id="-23956">
		<tag k="alt_name" v="Nye-Døssetra" />
		<tag k="historic" v="shieling" />
		<tag k="name" v="Nydøssætra" />
		<tag k="place" v="isolated_dwelling" />
		<tag k="ssr:stedsnr" v="68049" />
	</node>
	<node lat="61.14500108297577" lon="10.233111392500396" id="-23957">
		<tag k="alt_name" v="Veslesetra" />
		<tag k="historic" v="shieling" />
		<tag k="name" v="Veslsætra" />
		<tag k="place" v="isolated_dwelling" />
		<tag k="ssr:stedsnr" v="68082" />
	</node>
	<node lat="61.21074444408389" lon="10.41390556052828" id="-23959">
		<tag k="alt_name" v="Sletten" />
		<tag k="name" v="Husesletta" />
		<tag k="place" v="farm" />
		<tag k="ssr:stedsnr" v="68182" />
	</node>
	<node lat="61.175991670595884" lon="10.327408340628205" id="-23960">
		<tag k="name" v="Uroa" />
		<tag k="place" v="farm" />
		<tag k="ssr:stedsnr" v="68453" />
	</node>
	<node lat="61.17396446008035" lon="10.324592935671077" id="-23962">
		<tag k="fixme" v="consider place=hamlet" />
		<tag k="name" v="Snakhol" />
		<tag k="place" v="farm" />
		<tag k="ssr:stedsnr" v="68458" />
	</node>
	<node lat="61.13280464938487" lon="10.389457147202144" id="-23964">
		<tag k="alt_name" v="Nordlien" />
		<tag k="fixme" v="consider place=hamlet" />
		<tag k="name" v="Nordlia" />
		<tag k="place" v="farm" />
		<tag k="ssr:stedsnr" v="68935" />
	</node>
	<node lat="61.13066388708631" lon="10.410919443106529" id="-23965">
		<tag k="name" v="Hovemoen" />
		<tag k="place" v="farm" />
		<tag k="ssr:stedsnr" v="68936" />
	</node>
	<node lat="61.130472225973215" lon="10.619680558540711" id="-23966">
		<tag k="alt_name" v="Avskåkålia" />
		<tag k="name" v="Nordre Avskåkelien" />
		<tag k="place" v="farm" />
		<tag k="ssr:stedsnr" v="68956" />
	</node>
	<node lat="61.14542499702519" lon="10.430638883621892" id="-23967">
		<tag k="alt_name" v="Hovesveen" />
		<tag k="name" v="Hovesvea" />
		<tag k="place" v="farm" />
		<tag k="ssr:stedsnr" v="68972" />
	</node>
	<node lat="61.08541111500461" lon="10.516077786283905" id="-23968">
		<tag k="name" v="Gjørlihagan" />
		<tag k="place" v="farm" />
		<tag k="ssr:stedsnr" v="68837" />
	</node>
	<node lat="61.08309166911681" lon="10.507494446090847" id="-23969">
		<tag k="name" v="Gjørlienga" />
		<tag k="place" v="farm" />
		<tag k="ssr:stedsnr" v="68838" />
	</node>
	<node lat="61.07954615811417" lon="10.42809412611483" id="-23970">
		<tag k="alt_name" v="Hov, nordre" />
		<tag k="fixme" v="consider place=hamlet" />
		<tag k="name" v="Nordre Hov" />
		<tag k="place" v="farm" />
		<tag k="ssr:stedsnr" v="68857" />
	</node>
	<node lat="61.10927500402923" lon="10.500275000482485" id="-23971">
		<tag k="name" v="Nysvea" />
		<tag k="place" v="isolated_dwelling" />
		<tag k="ssr:stedsnr" v="69821" />
	</node>
	<node lat="61.110047223723726" lon="10.505955557727047" id="-23972">
		<tag k="alt_name" v="Vatningsveen" />
		<tag k="name" v="Vatningsvea" />
		<tag k="place" v="isolated_dwelling" />
		<tag k="ssr:stedsnr" v="69822" />
	</node>
	<node lat="61.10858688883505" lon="10.528934139801915" id="-23973">
		<tag k="fixme" v="consider place=hamlet" />
		<tag k="name" v="Sollia" />
		<tag k="place" v="farm" />
		<tag k="ssr:stedsnr" v="69825" />
	</node>
	<node lat="61.158522219666416" lon="10.392444441190872" id="-23974">
		<tag k="name" v="Brusvea" />
		<tag k="place" v="isolated_dwelling" />
		<tag k="ssr:stedsnr" v="69976" />
	</node>
	<node lat="61.1523397671009" lon="10.35564522559453" id="-23975">
		<tag k="fixme" v="consider place=hamlet" />
		<tag k="name" v="Lundgard" />
		<tag k="place" v="farm" />
		<tag k="ssr:stedsnr" v="69985" />
	</node>
	<node lat="61.147622218389074" lon="10.381858337262452" id="-23976">
		<tag k="landuse" v="military" />
		<tag k="name" v="Jørstadmoen" />
		<tag k="ssr:stedsnr" v="99532" />
	</node>
	<node lat="61.15453611007664" lon="10.366775002381527" id="-23977">
		<tag k="name" v="Moringen" />
		<tag k="place" v="farm" />
		<tag k="ssr:stedsnr" v="101538" />
	</node>
	<node lat="61.14924444740517" lon="10.37148610510422" id="-23978">
		<tag k="name" v="Nedre Onsum" />
		<tag k="place" v="farm" />
		<tag k="ssr:stedsnr" v="101540" />
	</node>
	<node lat="61.100711108177535" lon="10.536902770619792" id="-23989">
		<tag k="name" v="Høyenshall" />
		<tag k="old_name" v="Høienshall" />
		<tag k="place" v="isolated_dwelling" />
		<tag k="ssr:stedsnr" v="116010" />
	</node>
	<node lat="61.073350002403224" lon="10.370797217143364" id="-23990">
		<tag k="name" v="Øvre Døsen" />
		<tag k="place" v="farm" />
		<tag k="ssr:stedsnr" v="116700" />
	</node>
	<node lat="61.091786107729895" lon="10.476380564104073" id="-23991">
		<tag k="name" v="Sæterengen" />
		<tag k="place" v="farm" />
		<tag k="ssr:stedsnr" v="116657" />
	</node>
	<node lat="61.135041669871086" lon="10.454683338340331" id="-23995">
		<tag k="name" v="Øvre Smestad" />
		<tag k="place" v="farm" />
		<tag k="ssr:stedsnr" v="117142" />
	</node>
	<node lat="61.10136666808624" lon="10.414324995937456" id="-23997">
		<tag k="name" v="Sagstuen" />
		<tag k="place" v="farm" />
		<tag k="ssr:stedsnr" v="117480" />
	</node>
	<node lat="61.045049996557815" lon="10.429555559443417" id="-23998">
		<tag k="fixme" v="consider place=hamlet" />
		<tag k="name" v="Moen" />
		<tag k="place" v="farm" />
		<tag k="ssr:stedsnr" v="117351" />
	</node>
	<node lat="61.108199998937906" lon="10.311038893970643" id="-24000">
		<tag k="name" v="Dalbyenga" />
		<tag k="place" v="farm" />
		<tag k="ssr:stedsnr" v="117616" />
	</node>
	<node lat="61.093149996903364" lon="10.157486118058198" id="-24003">
		<tag k="alt_name" v="Åltjern beitelag" />
		<tag k="historic" v="shieling" />
		<tag k="name" v="Åltjern fellessæter" />
		<tag k="place" v="isolated_dwelling" />
		<tag k="ssr:stedsnr" v="128028" />
	</node>
	<node lat="61.047011108216495" lon="10.273008324150199" id="-24005">
		<tag k="name" v="Fløytlia" />
		<tag k="place" v="isolated_dwelling" />
		<tag k="ssr:stedsnr" v="128160" />
	</node>
	<node lat="61.20535000438865" lon="10.335047220671807" id="-24006">
		<tag k="name" v="Nyhus" />
		<tag k="place" v="farm" />
		<tag k="ssr:stedsnr" v="128455" />
	</node>
	<node lat="61.130216670033796" lon="10.482999991090871" id="-24008">
		<tag k="alt_name" v="Ersgard" />
		<tag k="fixme" v="consider place=hamlet" />
		<tag k="name" v="Ersgård" />
		<tag k="place" v="farm" />
		<tag k="ssr:stedsnr" v="128952" />
	</node>
	<node lat="61.097463886470116" lon="10.566275005713477" id="-24010">
		<tag k="name" v="Ulvenenga" />
		<tag k="place" v="farm" />
		<tag k="ssr:stedsnr" v="128762" />
	</node>
	<node lat="61.15698029577289" lon="10.337412613130136" id="-24012">
		<tag k="fixme" v="consider place=hamlet" />
		<tag k="name" v="Lier" />
		<tag k="place" v="farm" />
		<tag k="ssr:stedsnr" v="129096" />
	</node>
	<node lat="61.16149166852001" lon="10.324569439120173" id="-24013">
		<tag k="name" v="Nordre Fliflet" />
		<tag k="place" v="farm" />
		<tag k="ssr:stedsnr" v="129101" />
	</node>
	<node lat="61.1160083362133" lon="10.27366666408884" id="-24014">
		<tag k="name" v="Klemetrud" />
		<tag k="place" v="farm" />
		<tag k="ssr:stedsnr" v="129126" />
	</node>
	<node lat="61.17992500165485" lon="10.342097224022403" id="-24016">
		<tag k="alt_name" v="Stenseng" />
		<tag k="name" v="Steinseng" />
		<tag k="place" v="farm" />
		<tag k="ssr:stedsnr" v="129438" />
	</node>
	<node lat="61.048550002382235" lon="10.436436111433842" id="-24017">
		<tag k="name" v="Frydenlund" />
		<tag k="place" v="isolated_dwelling" />
		<tag k="ssr:stedsnr" v="129663" />
	</node>
	<node lat="61.0622471463978" lon="10.460922815208518" id="-24018">
		<tag k="fixme" v="consider place=hamlet" />
		<tag k="name" v="Bårdseng" />
		<tag k="place" v="farm" />
		<tag k="ssr:stedsnr" v="129692" />
	</node>
	<node lat="61.05292221967042" lon="10.392050004766885" id="-24019">
		<tag k="name" v="Brusvea" />
		<tag k="place" v="isolated_dwelling" />
		<tag k="ssr:stedsnr" v="129700" />
	</node>
	<node lat="61.10614444756338" lon="10.418400002522702" id="-24020">
		<tag k="alt_name" v="Ramberg" />
		<tag k="name" v="Nedre Ravneberg" />
		<tag k="place" v="farm" />
		<tag k="ssr:stedsnr" v="129764" />
	</node>
	<node lat="61.10564133055944" lon="10.539541237008631" id="-24021">
		<tag k="alt_name" v="Kaldmyra;Kallmyra;Kalmyren" />
		<tag k="name" v="Kalmyra" />
		<tag k="place" v="farm" />
		<tag k="ssr:stedsnr" v="129766" />
	</node>
	<node lat="61.02977927628533" lon="10.431382726399397" id="-24022">
		<tag k="alt_name" v="Audenhuslykkja" />
		<tag k="name" v="Lykkja" />
		<tag k="place" v="locality" />
		<tag k="ssr:stedsnr" v="129617" />
	</node>
	<node lat="61.17354444210323" lon="10.485388897217426" id="-24024">
		<tag k="name" v="Hulderheimen" />
		<tag k="place" v="isolated_dwelling" />
		<tag k="ssr:stedsnr" v="129881" />
	</node>
	<node lat="61.17250000100649" lon="10.414313892069307" id="-24025">
		<tag k="name" v="Jonsonhaugen" />
		<tag k="place" v="farm" />
		<tag k="ssr:stedsnr" v="129884" />
	</node>
	<node lat="61.169130558113565" lon="10.36822500121958" id="-24026">
		<tag k="alt_name" v="Høgsvea" />
		<tag k="name" v="Nedre Høgsveen" />
		<tag k="place" v="farm" />
		<tag k="ssr:stedsnr" v="129892" />
	</node>
	<node lat="61.16513333238935" lon="10.424113895474276" id="-24027">
		<tag k="alt_name" v="Bessrudhagen" />
		<tag k="name" v="Bessrudhagan" />
		<tag k="place" v="farm" />
		<tag k="ssr:stedsnr" v="129899" />
	</node>
	<node lat="61.112238885315634" lon="10.294355558248293" id="-24036">
		<tag k="name" v="Øvre Myren" />
		<tag k="place" v="farm" />
		<tag k="ssr:stedsnr" v="162829" />
	</node>
	<node lat="61.11417777676362" lon="10.27070000716359" id="-24037">
		<tag k="name" v="Nordre Laderud" />
		<tag k="place" v="farm" />
		<tag k="ssr:stedsnr" v="162835" />
	</node>
	<node lat="61.16218611500918" lon="10.404483324866897" id="-24038">
		<tag k="alt_name" v="Sandvold" />
		<tag k="name" v="Sandvoll" />
		<tag k="place" v="farm" />
		<tag k="ssr:stedsnr" v="162593" />
	</node>
	<node lat="61.110783329046235" lon="10.434158324870692" id="-24046">
		<tag k="name" v="Strømnes" />
		<tag k="place" v="farm" />
		<tag k="ssr:stedsnr" v="177251" />
	</node>
	<node lat="61.10875833481912" lon="10.312472225980425" id="-24048">
		<tag k="name" v="Solbakken" />
		<tag k="place" v="farm" />
		<tag k="ssr:stedsnr" v="177651" />
	</node>
	<node lat="61.07910833034713" lon="10.416688893285855" id="-24049">
		<tag k="name" v="Hovsengen" />
		<tag k="place" v="farm" />
		<tag k="ssr:stedsnr" v="177729" />
	</node>
	<node lat="61.07242729814552" lon="10.384400750483419" id="-24050">
		<tag k="fixme" v="consider place=hamlet" />
		<tag k="name" v="Hattestad" />
		<tag k="place" v="farm" />
		<tag k="ssr:stedsnr" v="177732" />
	</node>
	<node lat="61.060827776332935" lon="10.384652783696287" id="-24051">
		<tag k="name" v="Haugen" />
		<tag k="place" v="farm" />
		<tag k="ssr:stedsnr" v="177735" />
	</node>
	<node lat="61.13292222532794" lon="10.486136112041144" id="-24053">
		<tag k="name" v="Ersgårdshaugen" />
		<tag k="place" v="farm" />
		<tag k="ssr:stedsnr" v="177848" />
	</node>
	<node lat="61.14074444516359" lon="10.432655551711791" id="-24054">
		<tag k="name" v="Nedre Jeistad" />
		<tag k="place" v="farm" />
		<tag k="ssr:stedsnr" v="177990" />
	</node>
	<node lat="61.05495572703191" lon="10.423615653365829" id="-24059">
		<tag k="alt_name" v="Øvre Gilberg" />
		<tag k="fixme" v="consider place=hamlet" />
		<tag k="name" v="Gilberg" />
		<tag k="place" v="farm" />
		<tag k="ssr:stedsnr" v="189637" />
	</node>
	<node lat="61.036057417564784" lon="10.43313581511224" id="-24060">
		<tag k="fixme" v="consider place=hamlet" />
		<tag k="name" v="Lekshus" />
		<tag k="place" v="farm" />
		<tag k="ssr:stedsnr" v="190629" />
	</node>
	<node lat="61.03032335379969" lon="10.439807998495027" id="-24061">
		<tag k="fixme" v="consider place=hamlet" />
		<tag k="name" v="Audenhus" />
		<tag k="place" v="farm" />
		<tag k="ssr:stedsnr" v="190631" />
	</node>
	<node lat="61.137636109241804" lon="10.241927770076321" id="-24062">
		<tag k="name" v="Skarpsno" />
		<tag k="place" v="isolated_dwelling" />
		<tag k="ssr:stedsnr" v="189077" />
	</node>
	<node lat="61.06132944439322" lon="10.297461610531188" id="-24063">
		<tag k="alt_name" v="Gammeldøssætra" />
		<tag k="historic" v="shieling" />
		<tag k="name" v="Gammaldøssætra" />
		<tag k="place" v="isolated_dwelling" />
		<tag k="ssr:stedsnr" v="189043" />
	</node>
	<node lat="61.12974722136792" lon="10.236658342220935" id="-24064">
		<tag k="name" v="Rinddal" />
		<tag k="place" v="isolated_dwelling" />
		<tag k="ssr:stedsnr" v="189100" />
	</node>
	<node lat="61.1398194429818" lon="10.633180560776843" id="-24065">
		<tag k="name" v="Spiten" />
		<tag k="place" v="isolated_dwelling" />
		<tag k="ssr:stedsnr" v="189934" />
	</node>
	<node lat="61.142754605235844" lon="10.49506524047859" id="-24066">
		<tag k="fixme" v="consider place=hamlet" />
		<tag k="name" v="Rustad" />
		<tag k="place" v="farm" />
		<tag k="ssr:stedsnr" v="189939" />
	</node>
	<node lat="61.12807440454557" lon="10.393727449908445" id="-24067">
		<tag k="alt_name" v="Sørlien" />
		<tag k="fixme" v="consider place=hamlet" />
		<tag k="name" v="Sørlia" />
		<tag k="place" v="farm" />
		<tag k="ssr:stedsnr" v="189944" />
	</node>
	<node lat="61.13002777989173" lon="10.380347223934903" id="-24068">
		<tag k="alt_name" v="Øverli" />
		<tag k="name" v="Øverlia" />
		<tag k="place" v="farm" />
		<tag k="ssr:stedsnr" v="189945" />
	</node>
	<node lat="61.07969722357489" lon="10.461672224028828" id="-24070">
		<tag k="name" v="Sjøli" />
		<tag k="place" v="farm" />
		<tag k="ssr:stedsnr" v="189848" />
	</node>
	<node lat="61.1481944431624" lon="10.54699443779558" id="-24071">
		<tag k="name" v="Vesle-Kvanndalen" />
		<tag k="place" v="hamlet" />
		<tag k="ssr:stedsnr" v="189984" />
	</node>
	<node lat="61.15087777631149" lon="10.478097225135304" id="-24072">
		<tag k="name" v="Åsstua" />
		<tag k="place" v="farm" />
		<tag k="ssr:stedsnr" v="189987" />
	</node>
	<node lat="61.15024166588083" lon="10.473033331448603" id="-24073">
		<tag k="alt_name" v="Skålsvea" />
		<tag k="name" v="Nordre Åsen" />
		<tag k="place" v="farm" />
		<tag k="ssr:stedsnr" v="189988" />
	</node>
	<node lat="61.14105278194288" lon="10.450852774995052" id="-24074">
		<tag k="alt_name" v="Lunde" />
		<tag k="name" v="Søre Lunde" />
		<tag k="place" v="farm" />
		<tag k="ssr:stedsnr" v="189996" />
	</node>
	<node lat="61.11433333236698" lon="10.278927768485076" id="-24075">
		<tag k="name" v="Enger" />
		<tag k="place" v="farm" />
		<tag k="ssr:stedsnr" v="190115" />
	</node>
	<node lat="61.12040277688491" lon="10.296991670332341" id="-24076">
		<tag k="alt_name" v="Seter" />
		<tag k="name" v="Nordre Sæter" />
		<tag k="place" v="farm" />
		<tag k="ssr:stedsnr" v="190125" />
	</node>
	<node lat="61.13434444064536" lon="10.450230550024443" id="-24079">
		<tag k="alt_name" v="Smedstad" />
		<tag k="name" v="Nedre Smedstad" />
		<tag k="place" v="farm" />
		<tag k="ssr:stedsnr" v="189956" />
	</node>
	<node lat="61.19683888534345" lon="10.334033328338368" id="-24081">
		<tag k="name" v="Olerud" />
		<tag k="place" v="farm" />
		<tag k="ssr:stedsnr" v="190388" />
	</node>
	<node lat="61.16490555796919" lon="10.32532499685639" id="-24082">
		<tag k="alt_name" v="Kirkerudmoen" />
		<tag k="name" v="Kyrkjerudmoen" />
		<tag k="place" v="farm" />
		<tag k="ssr:stedsnr" v="190439" />
	</node>
	<node lat="61.17775555884094" lon="10.306822217320086" id="-24083">
		<tag k="alt_name" v="Urdlia" />
		<tag k="name" v="Søre Aurlien" />
		<tag k="place" v="farm" />
		<tag k="ssr:stedsnr" v="190451" />
	</node>
	<node lat="61.104555557646336" lon="10.397752775503825" id="-24084">
		<tag k="name" v="Reistadbakken" />
		<tag k="place" v="farm" />
		<tag k="ssr:stedsnr" v="190780" />
	</node>
	<node lat="61.17911944820621" lon="10.399322227146653" id="-24086">
		<tag k="alt_name" v="Ødegården" />
		<tag k="name" v="Øygarden" />
		<tag k="place" v="farm" />
		<tag k="ssr:stedsnr" v="190887" />
	</node>
	<node lat="61.122930552934825" lon="10.51601388041612" id="-24088">
		<tag k="fixme" v="consider tourism=alpine_hut or tourism=chalet" />
		<tag k="name" v="Krokbua" />
		<tag k="old_name" v="Profossen" />
		<tag k="ssr:stedsnr" v="216314" />
		<tag k="tourism" v="wilderness_hut" />
	</node>
	<node lat="61.14868332902109" lon="10.449550002460624" id="-24089">
		<tag k="name" v="Bjørstadbakken" />
		<tag k="place" v="isolated_dwelling" />
		<tag k="ssr:stedsnr" v="222596" />
	</node>
	<node lat="61.15315277875229" lon="10.37386943736599" id="-24098">
		<tag k="name" v="Nordgardsmoen" />
		<tag k="place" v="farm" />
		<tag k="ssr:stedsnr" v="281563" />
	</node>
	<node lat="61.13579444650635" lon="10.392577785419558" id="-24101">
		<tag k="name" v="Jonstuen" />
		<tag k="place" v="locality" />
		<tag k="ssr:stedsnr" v="284821" />
	</node>
	<node lat="61.144858330256" lon="10.38511944346784" id="-24102">
		<tag k="name" v="Nedre Brein" />
		<tag k="place" v="farm" />
		<tag k="ssr:stedsnr" v="284823" />
	</node>
	<node lat="61.15199721908706" lon="10.41463888922651" id="-24103">
		<tag k="name" v="Vormstuen" />
		<tag k="place" v="isolated_dwelling" />
		<tag k="ssr:stedsnr" v="283535" />
	</node>
	<node lat="61.09683889338067" lon="10.222927776727456" id="-24107">
		<tag k="name" v="Svesetra" />
		<tag k="place" v="hamlet" />
		<tag k="ssr:stedsnr" v="284161" />
	</node>
	<node lat="61.208755551251954" lon="10.402461118608839" id="-24108">
		<tag k="name" v="Veslesveen" />
		<tag k="place" v="locality" />
		<tag k="ssr:stedsnr" v="284242" />
	</node>
	<node lat="61.14284554668426" lon="10.450174886644868" id="-24117">
		<tag k="name" v="Nordre Lunde" />
		<tag k="place" v="farm" />
		<tag k="ssr:stedsnr" v="298151" />
	</node>
	<node lat="61.08956944114761" lon="10.48866388971925" id="-24118">
		<tag k="name" v="Øverhagen" />
		<tag k="place" v="farm" />
		<tag k="ssr:stedsnr" v="298468" />
	</node>
	<node lat="61.08381666718426" lon="10.427616661414026" id="-24119">
		<tag k="name" v="Nordsletta" />
		<tag k="place" v="farm" />
		<tag k="ssr:stedsnr" v="298641" />
	</node>
	<node lat="61.10941944312336" lon="10.50015555053618" id="-24124">
		<tag k="name" v="Nysveen" />
		<tag k="place" v="isolated_dwelling" />
		<tag k="ssr:stedsnr" v="298718" />
	</node>
	<node lat="61.14528332981589" lon="10.487199994815999" id="-24125">
		<tag k="name" v="Solås" />
		<tag k="place" v="farm" />
		<tag k="ssr:stedsnr" v="298781" />
	</node>
	<node lat="61.13390000050407" lon="10.468780556680683" id="-24128">
		<tag k="name" v="Skårsetødegården" />
		<tag k="place" v="farm" />
		<tag k="ssr:stedsnr" v="299166" />
	</node>
	<node lat="61.12556389313171" lon="10.464141667881284" id="-24129">
		<tag k="name" v="Søre Holme" />
		<tag k="place" v="farm" />
		<tag k="ssr:stedsnr" v="299170" />
	</node>
	<node lat="61.058736107226125" lon="10.233372215844682" id="-24131">
		<tag k="alt_name" v="Sjoghaugen seter" />
		<tag k="historic" v="shieling" />
		<tag k="name" v="Sjogehaugen" />
		<tag k="place" v="isolated_dwelling" />
		<tag k="ssr:stedsnr" v="310067" />
	</node>
	<node lat="61.127647223660354" lon="10.228908328774894" id="-24133">
		<tag k="name" v="Ringen" />
		<tag k="place" v="farm" />
		<tag k="ssr:stedsnr" v="311118" />
	</node>
	<node lat="61.20967843694124" lon="10.412559919476848" id="-24135">
		<tag k="alt_name" v="Rustad" />
		<tag k="fixme" v="consider place=hamlet" />
		<tag k="name" v="Rustaden" />
		<tag k="place" v="farm" />
		<tag k="ssr:stedsnr" v="311227" />
	</node>
	<node lat="61.211519448567415" lon="10.386872218809955" id="-24136">
		<tag k="alt_name" v="Storsvesetra" />
		<tag k="historic" v="shieling" />
		<tag k="name" v="Storsvesætra" />
		<tag k="place" v="isolated_dwelling" />
		<tag k="ssr:stedsnr" v="311228" />
	</node>
	<node lat="61.21194644050019" lon="10.424871677394544" id="-24137">
		<tag k="fixme" v="consider place=hamlet" />
		<tag k="name" v="Huse" />
		<tag k="place" v="farm" />
		<tag k="ssr:stedsnr" v="311232" />
	</node>
	<node lat="61.198930552588095" lon="10.329544446223867" id="-24138">
		<tag k="name" v="Høgstad" />
		<tag k="place" v="farm" />
		<tag k="ssr:stedsnr" v="311432" />
	</node>
	<node lat="61.19669999811656" lon="10.289166664681286" id="-24139">
		<tag k="name" v="Strand" />
		<tag k="place" v="isolated_dwelling" />
		<tag k="ssr:stedsnr" v="311445" />
	</node>
	<node lat="61.173124701311934" lon="10.329679223999904" id="-24140">
		<tag k="fixme" v="consider place=hamlet" />
		<tag k="name" v="Diserud" />
		<tag k="place" v="farm" />
		<tag k="ssr:stedsnr" v="311460" />
	</node>
	<node lat="61.169976230702915" lon="10.331913119424764" id="-24141">
		<tag k="fixme" v="consider place=hamlet" />
		<tag k="name" v="Jongerud" />
		<tag k="place" v="farm" />
		<tag k="ssr:stedsnr" v="311461" />
	</node>
	<node lat="61.182598327346724" lon="10.33386259017601" id="-24142">
		<tag k="fixme" v="consider place=hamlet" />
		<tag k="name" v="Alvsberg" />
		<tag k="place" v="farm" />
		<tag k="ssr:stedsnr" v="311463" />
	</node>
	<node lat="61.17727221855436" lon="10.406011107415857" id="-24143">
		<tag k="name" v="Bottum" />
		<tag k="place" v="farm" />
		<tag k="ssr:stedsnr" v="311899" />
	</node>
	<node lat="61.137734154605084" lon="10.473840868508058" id="-24144">
		<tag k="fixme" v="consider place=hamlet" />
		<tag k="name" v="Storberget" />
		<tag k="place" v="farm" />
		<tag k="ssr:stedsnr" v="311999" />
	</node>
	<node lat="61.03388610907403" lon="10.361188892907123" id="-24145">
		<tag k="name" v="Moslundsplassen" />
		<tag k="place" v="isolated_dwelling" />
		<tag k="ssr:stedsnr" v="311664" />
	</node>
	<node lat="61.183047481649474" lon="10.417621179871073" id="-24151">
		<tag k="alt_name" v="Isakstuen" />
		<tag k="fixme" v="consider place=hamlet" />
		<tag k="name" v="Isakstua" />
		<tag k="place" v="farm" />
		<tag k="ssr:stedsnr" v="311957" />
	</node>
	<node lat="61.02662777572118" lon="10.449433338342866" id="-24154">
		<tag k="name" v="Strandli" />
		<tag k="place" v="farm" />
		<tag k="ssr:stedsnr" v="344573" />
	</node>
	<node lat="61.10590277854425" lon="10.416680562587558" id="-24158">
		<tag k="name" v="Øvre Ravneberg" />
		<tag k="place" v="farm" />
		<tag k="ssr:stedsnr" v="344369" />
	</node>
	<node lat="61.112327776051686" lon="10.300816660757881" id="-24160">
		<tag k="name" v="Nygårdsenger" />
		<tag k="place" v="farm" />
		<tag k="ssr:stedsnr" v="344826" />
	</node>
	<node lat="61.03107499783807" lon="10.220452775973596" id="-24161">
		<tag k="name" v="Storlon kafe" />
		<tag k="place" v="isolated_dwelling" />
		<tag k="ssr:stedsnr" v="344684" />
	</node>
	<node lat="61.099519440490766" lon="10.57262777193395" id="-24166">
		<tag k="name" v="Holssveen" />
		<tag k="place" v="farm" />
		<tag k="ssr:stedsnr" v="358131" />
	</node>
	<node lat="61.13850277827035" lon="10.447561111750636" id="-24167">
		<tag k="amenity" v="school" />
		<tag k="name" v="Ekrom" />
		<tag k="ssr:stedsnr" v="359117" />
	</node>
	<node lat="61.077194446602846" lon="10.488674992801968" id="-24169">
		<tag k="name" v="Roverudbergum" />
		<tag k="place" v="locality" />
		<tag k="ssr:stedsnr" v="359241" />
	</node>
	<node lat="61.123205551872346" lon="10.47140277534021" id="-24170">
		<tag k="amenity" v="sports_centre" />
		<tag k="name" v="Kristins hall" />
		<tag k="ssr:stedsnr" v="359301" />
	</node>
	<node lat="61.058627774794566" lon="10.413125003502381" id="-24171">
		<tag k="name" v="Midtre Ovren" />
		<tag k="place" v="farm" />
		<tag k="ssr:stedsnr" v="359332" />
	</node>
	<node lat="61.17923333346553" lon="10.600644435817506" id="-24176">
		<tag k="name" v="Øvre Grøtåshaugen" />
		<tag k="place" v="neighbourhood" />
		<tag k="ssr:stedsnr" v="359543" />
	</node>
	<node lat="61.114741663480366" lon="10.31049166750205" id="-24178">
		<tag k="name" v="Nordre Hovland" />
		<tag k="place" v="farm" />
		<tag k="ssr:stedsnr" v="359634" />
	</node>
	<node lat="61.10660555361959" lon="10.340825007416601" id="-24179">
		<tag k="name" v="Søre Storsveen" />
		<tag k="place" v="farm" />
		<tag k="ssr:stedsnr" v="359636" />
	</node>
	<node lat="61.10112777846178" lon="10.42936110610149" id="-24180">
		<tag k="name" v="Stinterud" />
		<tag k="place" v="farm" />
		<tag k="ssr:stedsnr" v="359670" />
	</node>
	<node lat="61.143780556102136" lon="10.434372226033558" id="-24182">
		<tag k="name" v="Hoveødegården" />
		<tag k="place" v="farm" />
		<tag k="ssr:stedsnr" v="359990" />
	</node>
	<node lat="61.065653060548584" lon="10.388542966171109" id="-24184">
		<tag k="fixme" v="consider place=hamlet" />
		<tag k="name" v="Fryjordet" />
		<tag k="place" v="farm" />
		<tag k="ssr:stedsnr" v="370851" />
	</node>
	<node lat="61.06515340152656" lon="10.427479976121319" id="-24185">
		<tag k="alt_name" v="Røine" />
		<tag k="fixme" v="consider place=hamlet" />
		<tag k="name" v="Røyne" />
		<tag k="place" v="farm" />
		<tag k="ssr:stedsnr" v="370856" />
	</node>
	<node lat="61.1578305585471" lon="10.335266661685756" id="-24190">
		<tag k="alt_name" v="Roland" />
		<tag k="name" v="Nedre Roland" />
		<tag k="place" v="farm" />
		<tag k="ssr:stedsnr" v="372085" />
	</node>
	<node lat="61.08635324066026" lon="10.510847861451754" id="-24192">
		<tag k="fixme" v="consider place=hamlet" />
		<tag k="name" v="Gjørlia" />
		<tag k="place" v="farm" />
		<tag k="ssr:stedsnr" v="371844" />
	</node>
	<node lat="61.12380277561693" lon="10.396374994769346" id="-24194">
		<tag k="alt_name" v="Kolberg" />
		<tag k="name" v="Øvre Kolberg" />
		<tag k="place" v="farm" />
		<tag k="ssr:stedsnr" v="371801" />
	</node>
	<node lat="61.1755336217953" lon="10.392135115075487" id="-24195">
		<tag k="fixme" v="consider place=hamlet" />
		<tag k="name" v="Nedre Dal" />
		<tag k="place" v="farm" />
		<tag k="ssr:stedsnr" v="371885" />
	</node>
	<node lat="61.190341671001086" lon="10.478905548676854" id="-24198">
		<tag k="name" v="Sagteighytta" />
		<tag k="place" v="isolated_dwelling" />
		<tag k="ssr:stedsnr" v="371931" />
	</node>
	<node lat="61.16640555757793" lon="10.342713880259094" id="-24200">
		<tag k="alt_name" v="Sletta" />
		<tag k="name" v="Gaustumsletten" />
		<tag k="place" v="farm" />
		<tag k="ssr:stedsnr" v="372430" />
	</node>
	<node lat="61.16851046378265" lon="10.335329842674494" id="-24201">
		<tag k="alt_name" v="Kirkerud" />
		<tag k="fixme" v="consider place=hamlet" />
		<tag k="name" v="Kyrkjerud" />
		<tag k="place" v="farm" />
		<tag k="ssr:stedsnr" v="372434" />
	</node>
	<node lat="61.159086107223395" lon="10.421147222429315" id="-24202">
		<tag k="alt_name" v="Trætengen" />
		<tag k="name" v="Trettenga" />
		<tag k="place" v="farm" />
		<tag k="ssr:stedsnr" v="372974" />
	</node>
	<node lat="61.15569747939205" lon="10.42259901457151" id="-24203">
		<tag k="fixme" v="consider place=hamlet" />
		<tag k="name" v="Balberg" />
		<tag k="place" v="farm" />
		<tag k="ssr:stedsnr" v="372978" />
	</node>
	<node lat="61.10572778098827" lon="10.395483333180483" id="-24204">
		<tag k="name" v="Åsheim" />
		<tag k="place" v="farm" />
		<tag k="ssr:stedsnr" v="372831" />
	</node>
	<node lat="61.15288333096606" lon="10.367558337862699" id="-24206">
		<tag k="name" v="Myrvang" />
		<tag k="place" v="farm" />
		<tag k="ssr:stedsnr" v="404526" />
	</node>
	<node lat="61.12615637869458" lon="10.395280100660235" id="-24208">
		<tag k="name" v="Kolberg" />
		<tag k="place" v="farm" />
		<tag k="ssr:stedsnr" v="404826" />
	</node>
	<node lat="61.09692221888259" lon="10.496038882583802" id="-24216">
		<tag k="name" v="Søre Høstmælingen" />
		<tag k="place" v="farm" />
		<tag k="ssr:stedsnr" v="420456" />
	</node>
	<node lat="61.07308888902234" lon="10.497102778192177" id="-24217">
		<tag k="name" v="Roverudhågån" />
		<tag k="place" v="locality" />
		<tag k="ssr:stedsnr" v="420230" />
	</node>
	<node lat="61.09527122659499" lon="10.568078908885482" id="-24219">
		<tag k="fixme" v="consider place=hamlet" />
		<tag k="name" v="Vesleseterenga" />
		<tag k="place" v="farm" />
		<tag k="ssr:stedsnr" v="420077" />
	</node>
	<node lat="61.09632222350441" lon="10.54998889547803" id="-24220">
		<tag k="name" v="Nordre Roterud" />
		<tag k="place" v="farm" />
		<tag k="ssr:stedsnr" v="420080" />
	</node>
	<node lat="61.096977776824986" lon="10.556327782119554" id="-24221">
		<tag k="name" v="Øvre Roterud" />
		<tag k="place" v="farm" />
		<tag k="ssr:stedsnr" v="420084" />
	</node>
	<node lat="61.10753888982662" lon="10.422580548493636" id="-24224">
		<tag k="name" v="Øvre Ravnum" />
		<tag k="place" v="farm" />
		<tag k="ssr:stedsnr" v="420273" />
	</node>
	<node lat="61.12141944260488" lon="10.49183332923972" id="-24229">
		<tag k="name" v="Svarga" />
		<tag k="place" v="isolated_dwelling" />
		<tag k="ssr:stedsnr" v="420828" />
	</node>
	<node lat="61.13820833348414" lon="10.500147231288569" id="-24230">
		<tag k="name" v="Nedre Storhagen" />
		<tag k="place" v="farm" />
		<tag k="ssr:stedsnr" v="420832" />
	</node>
	<node lat="61.0869694457458" lon="10.4112916618882" id="-24232">
		<tag k="alt_name" v="Bratbergsengen" />
		<tag k="name" v="Brattbergsenga" />
		<tag k="place" v="farm" />
		<tag k="ssr:stedsnr" v="431873" />
	</node>
	<node lat="61.1419138858795" lon="10.423141666306398" id="-24233">
		<tag k="alt_name" v="Nordhaug" />
		<tag k="name" v="Innlegginga" />
		<tag k="place" v="farm" />
		<tag k="ssr:stedsnr" v="432996" />
	</node>
	<node lat="61.20582052862274" lon="10.329459088635" id="-24236">
		<tag k="fixme" v="consider place=hamlet" />
		<tag k="name" v="Holen" />
		<tag k="place" v="farm" />
		<tag k="ssr:stedsnr" v="432457" />
	</node>
	<node lat="61.20335833354106" lon="10.322083336536956" id="-24237">
		<tag k="alt_name" v="Bleike" />
		<tag k="name" v="Nordre Bleken" />
		<tag k="place" v="farm" />
		<tag k="ssr:stedsnr" v="432460" />
	</node>
	<node lat="61.189383331806305" lon="10.271772222451844" id="-24238">
		<tag k="name" v="Grønlihaugen" />
		<tag k="place" v="farm" />
		<tag k="ssr:stedsnr" v="432355" />
	</node>
	<node lat="61.18891666548412" lon="10.29467222635623" id="-24239">
		<tag k="alt_name" v="Kjetlisenga" />
		<tag k="name" v="Kjettlienga" />
		<tag k="place" v="farm" />
		<tag k="ssr:stedsnr" v="432358" />
	</node>
	<node lat="61.1222333319414" lon="10.474161103035302" id="-24240">
		<tag k="leisure" v="pitch" />
		<tag k="name" v="Stampesletta" />
		<tag k="ssr:stedsnr" v="432767" />
	</node>
	<node lat="61.12721110803052" lon="10.460580548195468" id="-24241">
		<tag k="alt_name" v="Holme" />
		<tag k="name" v="Nordre Holme" />
		<tag k="place" v="farm" />
		<tag k="ssr:stedsnr" v="432770" />
	</node>
	<node lat="61.08088943658475" lon="10.467532681187166" id="-24243">
		<tag k="fixme" v="consider place=hamlet" />
		<tag k="name" v="Ånnerud" />
		<tag k="place" v="farm" />
		<tag k="ssr:stedsnr" v="432860" />
	</node>
	<node lat="61.076330556743244" lon="10.41615554974459" id="-24244">
		<tag k="alt_name" v="Søre Hovslien" />
		<tag k="name" v="Hovslia" />
		<tag k="place" v="farm" />
		<tag k="ssr:stedsnr" v="432868" />
	</node>
	<node lat="61.07403333209499" lon="10.378836116452014" id="-24245">
		<tag k="alt_name" v="Hattestadsvea" />
		<tag k="name" v="Solheim" />
		<tag k="place" v="farm" />
		<tag k="ssr:stedsnr" v="432874" />
	</node>
	<node lat="61.13017411740213" lon="10.456781404742992" id="-24247">
		<tag k="alt_name" v="Hammerseng" />
		<tag k="fixme" v="consider place=hamlet" />
		<tag k="name" v="Hamarseng" />
		<tag k="place" v="farm" />
		<tag k="ssr:stedsnr" v="432957" />
	</node>
	<node lat="61.12963889070516" lon="10.587049994906733" id="-24248">
		<tag k="name" v="Myggbukta" />
		<tag k="place" v="isolated_dwelling" />
		<tag k="ssr:stedsnr" v="432965" />
	</node>
	<node lat="61.15742500168237" lon="10.341830554022405" id="-24250">
		<tag k="alt_name" v="Røberg" />
		<tag k="name" v="Raudberg" />
		<tag k="place" v="farm" />
		<tag k="ssr:stedsnr" v="433089" />
	</node>
	<node lat="61.16176944659291" lon="10.20646388256162" id="-24251">
		<tag k="alt_name" v="Rinnåssetra" />
		<tag k="name" v="Rindåsen" />
		<tag k="place" v="hamlet" />
		<tag k="ssr:stedsnr" v="433093" />
	</node>
	<node lat="61.18048888904333" lon="10.291333341748002" id="-24252">
		<tag k="alt_name" v="Ørslien" />
		<tag k="name" v="Ørslia" />
		<tag k="place" v="farm" />
		<tag k="ssr:stedsnr" v="433419" />
	</node>
	<node lat="61.04975833669077" lon="10.429955563706272" id="-24253">
		<tag k="alt_name" v="Rinddal" />
		<tag k="fixme" v="consider place=hamlet" />
		<tag k="name" v="Nedre Rinddal" />
		<tag k="place" v="farm" />
		<tag k="ssr:stedsnr" v="433655" />
	</node>
	<node lat="61.047241664299655" lon="10.409044447957557" id="-24254">
		<tag k="alt_name" v="Åmot" />
		<tag k="name" v="Nordre Åmot" />
		<tag k="place" v="farm" />
		<tag k="ssr:stedsnr" v="433669" />
	</node>
	<node lat="61.04323055473066" lon="10.35333332658574" id="-24255">
		<tag k="name" v="Haugerhaugen" />
		<tag k="place" v="isolated_dwelling" />
		<tag k="ssr:stedsnr" v="433670" />
	</node>
	<node lat="61.03887778032811" lon="10.37180832871" id="-24256">
		<tag k="name" v="Svarthaugen" />
		<tag k="place" v="isolated_dwelling" />
		<tag k="ssr:stedsnr" v="433673" />
	</node>
	<node lat="61.10099449871333" lon="10.566756832351397" id="-24257">
		<tag k="fixme" v="consider place=hamlet" />
		<tag k="name" v="Mælumsenga" />
		<tag k="place" v="farm" />
		<tag k="ssr:stedsnr" v="433761" />
	</node>
	<node lat="61.157216666771795" lon="10.427047221045232" id="-24258">
		<tag k="alt_name" v="Engesveen" />
		<tag k="name" v="Engesvea" />
		<tag k="place" v="locality" />
		<tag k="ssr:stedsnr" v="433971" />
	</node>
	<node lat="61.16478333717852" lon="10.407777786750296" id="-24261">
		<tag k="name" v="Bratland" />
		<tag k="place" v="farm" />
		<tag k="ssr:stedsnr" v="526574" />
	</node>
	<node lat="61.15316666658748" lon="10.391949996162333" id="-24263">
		<tag k="name" v="Jehansbakken" />
		<tag k="place" v="farm" />
		<tag k="ssr:stedsnr" v="526585" />
	</node>
	<node lat="61.04446944315216" lon="10.33179444454875" id="-24275">
		<tag k="name" v="Kollerudslåtten" />
		<tag k="place" v="locality" />
		<tag k="ssr:stedsnr" v="534828" />
	</node>
	<node lat="61.04270833071058" lon="10.417266671284377" id="-24280">
		<tag k="name" v="Haugerrønningen" />
		<tag k="place" v="farm" />
		<tag k="ssr:stedsnr" v="541331" />
	</node>
	<node lat="61.056344447071055" lon="10.404891666463714" id="-24281">
		<tag k="name" v="Nordre Gilberg" />
		<tag k="place" v="farm" />
		<tag k="ssr:stedsnr" v="541338" />
	</node>
	<node lat="61.10611666871628" lon="10.318261104641698" id="-24283">
		<tag k="name" v="Søre Dalby" />
		<tag k="place" v="farm" />
		<tag k="ssr:stedsnr" v="541643" />
	</node>
	<node lat="61.060049996468194" lon="10.384230548397285" id="-24284">
		<tag k="name" v="Kvernhussveen" />
		<tag k="place" v="farm" />
		<tag k="ssr:stedsnr" v="541727" />
	</node>
	<node lat="61.11614444697238" lon="10.48568055673684" id="-24285">
		<tag k="name" v="Nybu" />
		<tag k="place" v="quarter" />
		<tag k="ssr:stedsnr" v="541760" />
	</node>
	<node lat="61.138408331341054" lon="10.490905550915066" id="-24287">
		<tag k="name" v="Høgli" />
		<tag k="place" v="farm" />
		<tag k="ssr:stedsnr" v="541832" />
	</node>
	<node lat="61.10118055241615" lon="10.416524997459808" id="-24289">
		<tag k="alt_name" v="Flaten" />
		<tag k="name" v="Flata" />
		<tag k="place" v="farm" />
		<tag k="ssr:stedsnr" v="552797" />
	</node>
	<node lat="61.091765714023026" lon="10.494896071953903" id="-24290">
		<tag k="fixme" v="consider place=hamlet" />
		<tag k="name" v="Veslelia" />
		<tag k="place" v="farm" />
		<tag k="ssr:stedsnr" v="552798" />
	</node>
	<node lat="61.07556426151407" lon="10.48022051230744" id="-24291">
		<tag k="fixme" v="consider place=hamlet" />
		<tag k="name" v="Roverud" />
		<tag k="place" v="farm" />
		<tag k="ssr:stedsnr" v="552887" />
	</node>
	<node lat="61.19134722434322" lon="10.265508340387294" id="-24293">
		<tag k="alt_name" v="Gulliksveen" />
		<tag k="name" v="Gulleiksvea" />
		<tag k="place" v="farm" />
		<tag k="ssr:stedsnr" v="553377" />
	</node>
	<node lat="61.20792770803065" lon="10.30917421074433" id="-24298">
		<tag k="alt_name" v="Nordødegården" />
		<tag k="fixme" v="consider place=hamlet" />
		<tag k="name" v="Nordøygarden" />
		<tag k="place" v="farm" />
		<tag k="ssr:stedsnr" v="553471" />
	</node>
	<node lat="61.04584721791864" lon="10.43635278583792" id="-24299">
		<tag k="alt_name" v="Åssveen" />
		<tag k="name" v="Åssvea" />
		<tag k="place" v="isolated_dwelling" />
		<tag k="ssr:stedsnr" v="553651" />
	</node>
	<node lat="61.051672222943424" lon="10.405886104009765" id="-24300">
		<tag k="name" v="Rinddalsenga" />
		<tag k="place" v="farm" />
		<tag k="ssr:stedsnr" v="553670" />
	</node>
	<node lat="61.14704203017225" lon="10.459246209968269" id="-24301">
		<tag k="fixme" v="consider place=hamlet" />
		<tag k="name" v="Vesleberget" />
		<tag k="place" v="farm" />
		<tag k="ssr:stedsnr" v="553986" />
	</node>
	<node lat="61.15260555215211" lon="10.325330546951733" id="-24302">
		<tag k="alt_name" v="Midtstuen" />
		<tag k="name" v="Midtstugua" />
		<tag k="place" v="farm" />
		<tag k="ssr:stedsnr" v="554055" />
	</node>
	<node lat="61.15447221830991" lon="10.312491666820712" id="-24303">
		<tag k="name" v="Svenskerud" />
		<tag k="place" v="farm" />
		<tag k="ssr:stedsnr" v="554059" />
	</node>
	<node lat="61.1852666693274" lon="10.412727774846761" id="-24308">
		<tag k="name" v="Raunsvea" />
		<tag k="place" v="farm" />
		<tag k="ssr:stedsnr" v="587272" />
	</node>
	<node lat="61.0979166704461" lon="10.324858332738124" id="-24313">
		<tag k="name" v="Søre Lien" />
		<tag k="place" v="farm" />
		<tag k="ssr:stedsnr" v="587685" />
	</node>
	<node lat="61.14039999603011" lon="10.403013889494577" id="-24315">
		<tag k="name" v="Søre Moshølen" />
		<tag k="place" v="farm" />
		<tag k="ssr:stedsnr" v="587796" />
	</node>
	<node lat="61.14119999707614" lon="10.40384722269861" id="-24316">
		<tag k="name" v="Øvre Moshølen" />
		<tag k="place" v="farm" />
		<tag k="ssr:stedsnr" v="587797" />
	</node>
	<node lat="61.20269166615461" lon="10.32307777506528" id="-24325">
		<tag k="name" v="Midtre Bleken" />
		<tag k="place" v="farm" />
		<tag k="ssr:stedsnr" v="600470" />
	</node>
	<node lat="61.110433334594845" lon="10.302744442683627" id="-24326">
		<tag k="name" v="Nedre Storsveen" />
		<tag k="place" v="farm" />
		<tag k="ssr:stedsnr" v="601606" />
	</node>
	<node lat="61.12961666261535" lon="10.428641661824212" id="-24327">
		<tag k="name" v="Søre Korgen" />
		<tag k="place" v="farm" />
		<tag k="ssr:stedsnr" v="601138" />
	</node>
	<node lat="61.140394447272584" lon="10.424280564638082" id="-24331">
		<tag k="name" v="Sørsveen" />
		<tag k="place" v="farm" />
		<tag k="ssr:stedsnr" v="601937" />
	</node>
	<node lat="61.07681666830461" lon="10.5105138931492" id="-24333">
		<tag k="building" v="industrial" />
		<tag k="industrial" v="factory" />
		<tag k="name" v="Roverudmyra miljøstasjon" />
		<tag k="ssr:stedsnr" v="601781" />
	</node>
	<node lat="61.092469446413006" lon="10.544588895078862" id="-24335">
		<tag k="name" v="Ågård" />
		<tag k="place" v="isolated_dwelling" />
		<tag k="ssr:stedsnr" v="602127" />
	</node>
	<node lat="61.098974999859976" lon="10.407688889619434" id="-24337">
		<tag k="name" v="Nordre Finnsveen" />
		<tag k="place" v="farm" />
		<tag k="ssr:stedsnr" v="602477" />
	</node>
	<node lat="61.082499996660076" lon="10.41194444016756" id="-24338">
		<tag k="name" v="Nordre Midthaugen" />
		<tag k="place" v="farm" />
		<tag k="ssr:stedsnr" v="602482" />
	</node>
	<node lat="61.0748638881867" lon="10.337036115627358" id="-24339">
		<tag k="alt_name" v="Rugsveen" />
		<tag k="name" v="Rugsvea" />
		<tag k="place" v="farm" />
		<tag k="ssr:stedsnr" v="613035" />
	</node>
	<node lat="61.09335833037586" lon="10.131030550897576" id="-24340">
		<tag k="alt_name" v="Åltjernsetra" />
		<tag k="historic" v="shieling" />
		<tag k="name" v="Åltjerna" />
		<tag k="place" v="isolated_dwelling" />
		<tag k="ssr:stedsnr" v="613043" />
	</node>
	<node lat="61.08794722112255" lon="10.199369438005803" id="-24341">
		<tag k="alt_name" v="Vottestad seter" />
		<tag k="historic" v="shieling" />
		<tag k="loc_name" v="Våsstadsætra" />
		<tag k="name" v="Våstadsætra" />
		<tag k="place" v="isolated_dwelling" />
		<tag k="ssr:stedsnr" v="613046" />
	</node>
	<node lat="61.06369166640115" lon="10.327466672192543" id="-24342">
		<tag k="alt_name" v="Stila" />
		<tag k="name" v="Stilla" />
		<tag k="place" v="locality" />
		<tag k="ssr:stedsnr" v="613051" />
	</node>
	<node lat="61.036419444618026" lon="10.279286102655309" id="-24345">
		<tag k="alt_name" v="Fløyten beitelag" />
		<tag k="historic" v="shieling" />
		<tag k="name" v="Fløyta" />
		<tag k="place" v="isolated_dwelling" />
		<tag k="ssr:stedsnr" v="613191" />
	</node>
	<node lat="61.12560277639652" lon="10.227494450952987" id="-24346">
		<tag k="alt_name" v="Nordre Volden" />
		<tag k="name" v="Vollstad" />
		<tag k="place" v="farm" />
		<tag k="ssr:stedsnr" v="614121" />
	</node>
	<node lat="61.12337777445627" lon="10.265277784835195" id="-24347">
		<tag k="alt_name" v="Hestsveen" />
		<tag k="name" v="Hestsvea" />
		<tag k="place" v="farm" />
		<tag k="ssr:stedsnr" v="614123" />
	</node>
	<node lat="61.19900555747168" lon="10.32735277489479" id="-24348">
		<tag k="name" v="Finnerud" />
		<tag k="place" v="isolated_dwelling" />
		<tag k="ssr:stedsnr" v="614372" />
	</node>
	<node lat="61.19803333670222" lon="10.341305559785154" id="-24349">
		<tag k="name" v="Skogvang" />
		<tag k="place" v="farm" />
		<tag k="ssr:stedsnr" v="614373" />
	</node>
	<node lat="61.10479721868918" lon="10.159600008514982" id="-24350">
		<tag k="alt_name" v="Storstøsetra" />
		<tag k="historic" v="shieling" />
		<tag k="name" v="Storstødet" />
		<tag k="place" v="isolated_dwelling" />
		<tag k="ssr:stedsnr" v="614012" />
	</node>
	<node lat="61.093677404648716" lon="10.426051797915873" id="-24351">
		<tag k="fixme" v="consider place=hamlet" />
		<tag k="name" v="Øyre" />
		<tag k="place" v="farm" />
		<tag k="ssr:stedsnr" v="613767" />
	</node>
	<node lat="61.10997185409603" lon="10.330646727454473" id="-24354">
		<tag k="alt_name" v="Kval" />
		<tag k="fixme" v="consider place=hamlet" />
		<tag k="name" v="Kvalen" />
		<tag k="place" v="farm" />
		<tag k="ssr:stedsnr" v="614031" />
	</node>
	<node lat="61.10991389076041" lon="10.316491661491593" id="-24355">
		<tag k="alt_name" v="Dalbyenga" />
		<tag k="name" v="Øvre Dalbyenga" />
		<tag k="place" v="farm" />
		<tag k="ssr:stedsnr" v="614033" />
	</node>
	<node lat="61.192541880971724" lon="10.277708796647092" id="-24358">
		<tag k="alt_name" v="Håvardlia;Håvardslien" />
		<tag k="fixme" v="consider place=hamlet" />
		<tag k="name" v="Håvardslia" />
		<tag k="place" v="farm" />
		<tag k="ssr:stedsnr" v="614395" />
	</node>
	<node lat="61.027974996898784" lon="10.384405546381878" id="-24359">
		<tag k="name" v="Audenhuslihytta" />
		<tag k="place" v="isolated_dwelling" />
		<tag k="ssr:stedsnr" v="614775" />
	</node>
	<node lat="61.10511926292868" lon="10.444533192995824" id="-24360">
		<tag k="name" v="Vingnes" />
		<tag k="place" v="village" />
		<tag k="ssr:stedsnr" v="614790" />
	</node>
	<node lat="61.18171389216287" lon="10.62085832459156" id="-24361">
		<tag k="alt_name" v="Nevra" />
		<tag k="name" v="Nevra Aparthotell" />
		<tag k="ssr:stedsnr" v="614874" />
		<tag k="tourism" v="hotel" />
	</node>
	<node lat="61.17587500274184" lon="10.418555556535901" id="-24362">
		<tag k="name" v="Svea" />
		<tag k="place" v="farm" />
		<tag k="ssr:stedsnr" v="614882" />
	</node>
	<node lat="61.17996389270586" lon="10.473730564474407" id="-24363">
		<tag k="name" v="Storsvea" />
		<tag k="place" v="isolated_dwelling" />
		<tag k="ssr:stedsnr" v="614883" />
	</node>
	<node lat="61.1760944418744" lon="10.532908325000587" id="-24364">
		<tag k="alt_name" v="Gropa seter" />
		<tag k="historic" v="shieling" />
		<tag k="name" v="Gropa" />
		<tag k="place" v="isolated_dwelling" />
		<tag k="ssr:stedsnr" v="614888" />
	</node>
	<node lat="61.16731200441973" lon="10.357343382847318" id="-24365">
		<tag k="alt_name" v="Gruven" />
		<tag k="fixme" v="consider place=hamlet" />
		<tag k="name" v="Gruva" />
		<tag k="place" v="farm" />
		<tag k="ssr:stedsnr" v="614893" />
	</node>
	<node lat="61.15104722380148" lon="10.35915277907796" id="-24366">
		<tag k="alt_name" v="Onsum" />
		<tag k="name" v="Øvre Onsum" />
		<tag k="place" v="farm" />
		<tag k="ssr:stedsnr" v="614983" />
	</node>
	<node lat="61.03547222599027" lon="10.438036103401464" id="-24369">
		<tag k="name" v="Holte" />
		<tag k="place" v="isolated_dwelling" />
		<tag k="ssr:stedsnr" v="647568" />
	</node>
	<node lat="61.148872219429464" lon="10.47599723026723" id="-24372">
		<tag k="name" v="Midtre Åsen" />
		<tag k="place" v="farm" />
		<tag k="ssr:stedsnr" v="647662" />
	</node>
	<node lat="61.10069444708234" lon="10.322897221862291" id="-24373">
		<tag k="name" v="Nordre Lien" />
		<tag k="place" v="farm" />
		<tag k="ssr:stedsnr" v="647671" />
	</node>
	<node lat="61.19536388566158" lon="10.264124997436527" id="-24377">
		<tag k="name" v="Midtre Stuksrud" />
		<tag k="place" v="farm" />
		<tag k="ssr:stedsnr" v="661250" />
	</node>
	<node lat="61.201382952588254" lon="10.325706712064665" id="-24378">
		<tag k="name" v="Søre Bleken" />
		<tag k="place" v="farm" />
		<tag k="ssr:stedsnr" v="661452" />
	</node>
	<node lat="61.14325000272263" lon="10.37290000877332" id="-24380">
		<tag k="alt_name" v="Synstrud" />
		<tag k="name" v="Synsterud" />
		<tag k="place" v="farm" />
		<tag k="ssr:stedsnr" v="662300" />
	</node>
	<node lat="61.21999999661316" lon="10.437150001197134" id="-24381">
		<tag k="amenity" v="cafe" />
		<tag k="name" v="Fossekroa" />
		<tag k="ssr:stedsnr" v="662301" />
	</node>
	<node lat="61.09943889135384" lon="10.497419450294824" id="-24382">
		<tag k="name" v="Nordre Høstmælingen" />
		<tag k="place" v="farm" />
		<tag k="ssr:stedsnr" v="662417" />
	</node>
	<node lat="61.09383889249269" lon="10.509972217415788" id="-24385">
		<tag k="name" v="Røyslimoen" />
		<tag k="place" v="quarter" />
		<tag k="ssr:stedsnr" v="662478" />
	</node>
	<node lat="61.129640107249706" lon="10.6314628935158" id="-24387">
		<tag k="name" v="Søre Avskåkelien" />
		<tag k="place" v="locality" />
		<tag k="ssr:stedsnr" v="662649" />
	</node>
	<node lat="61.09324444643352" lon="10.557572225004163" id="-24388">
		<tag k="name" v="Roterudsveen" />
		<tag k="place" v="farm" />
		<tag k="ssr:stedsnr" v="663129" />
	</node>
	<node lat="61.099544440486945" lon="10.476388886466456" id="-24394">
		<tag k="amenity" v="nursing_home" />
		<tag k="name" v="Søre Ål bo- og servicesenter" />
		<tag k="ssr:stedsnr" v="714967" />
	</node>
	<node lat="61.09243889137433" lon="10.41531944622118" id="-24401">
		<tag k="name" v="Søre Vottestad" />
		<tag k="place" v="farm" />
		<tag k="ssr:stedsnr" v="723470" />
	</node>
	<node lat="61.09602221994001" lon="10.474888883037357" id="-24402">
		<tag k="name" v="Kolsveen" />
		<tag k="place" v="farm" />
		<tag k="ssr:stedsnr" v="723640" />
	</node>
	<node lat="61.071766666575606" lon="10.373899991897114" id="-24406">
		<tag k="name" v="Døsløkken" />
		<tag k="place" v="farm" />
		<tag k="ssr:stedsnr" v="723699" />
	</node>
	<node lat="61.08156389259369" lon="10.525108327101822" id="-24414">
		<tag k="alt_name" v="Spikerud" />
		<tag k="name" v="Spikkerud" />
		<tag k="place" v="farm" />
		<tag k="ssr:stedsnr" v="735838" />
	</node>
	<node lat="61.0855175358616" lon="10.470651430819753" id="-24415">
		<tag k="fixme" v="consider place=hamlet" />
		<tag k="name" v="Bakke" />
		<tag k="place" v="farm" />
		<tag k="ssr:stedsnr" v="735841" />
	</node>
	<node lat="61.08636739299136" lon="10.49179413684855" id="-24416">
		<tag k="alt_name" v="Galterudsveen" />
		<tag k="name" v="Galtrudsvea" />
		<tag k="place" v="farm" />
		<tag k="ssr:stedsnr" v="735843" />
	</node>
	<node lat="61.07343333580287" lon="10.473911106187611" id="-24418">
		<tag k="alt_name" v="Torsveen" />
		<tag k="name" v="Torsvea" />
		<tag k="place" v="farm" />
		<tag k="ssr:stedsnr" v="735869" />
	</node>
	<node lat="61.15390000106928" lon="10.319566670123749" id="-24420">
		<tag k="name" v="Søre Hauklien" />
		<tag k="place" v="farm" />
		<tag k="ssr:stedsnr" v="736067" />
	</node>
	<node lat="61.042763891597126" lon="10.422380559054643" id="-24422">
		<tag k="name" v="Spakerud" />
		<tag k="place" v="farm" />
		<tag k="ssr:stedsnr" v="736637" />
	</node>
	<node lat="61.03943347243472" lon="10.430324881221916" id="-24423">
		<tag k="fixme" v="consider place=hamlet" />
		<tag k="name" v="Mo" />
		<tag k="place" v="farm" />
		<tag k="ssr:stedsnr" v="736639" />
	</node>
	<node lat="61.09643888793408" lon="10.539847222449604" id="-24424">
		<tag k="name" v="Engeset" />
		<tag k="place" v="farm" />
		<tag k="ssr:stedsnr" v="736782" />
	</node>
	<node lat="61.10338818018218" lon="10.486338633100855" id="-24425">
		<tag k="name" v="Langset" />
		<tag k="place" v="hamlet" />
		<tag k="ssr:stedsnr" v="736793" />
	</node>
	<node lat="61.11434444706418" lon="10.407111102578234" id="-24426">
		<tag k="name" v="Grandalen" />
		<tag k="place" v="farm" />
		<tag k="ssr:stedsnr" v="736829" />
	</node>
	<node lat="61.15315555642562" lon="10.641897220409724" id="-24429">
		<tag k="name" v="Stor-Kvanndalen" />
		<tag k="place" v="hamlet" />
		<tag k="ssr:stedsnr" v="736982" />
	</node>
	<node lat="61.154158329467585" lon="10.365883336908645" id="-24430">
		<tag k="name" v="Haug" />
		<tag k="place" v="farm" />
		<tag k="ssr:stedsnr" v="768529" />
	</node>
	<node lat="61.16388347545607" lon="10.411725006006815" id="-24431">
		<tag k="fixme" v="consider place=hamlet" />
		<tag k="name" v="Smerud" />
		<tag k="place" v="farm" />
		<tag k="ssr:stedsnr" v="768533" />
	</node>
	<node lat="61.164374998958046" lon="10.400325003679173" id="-24432">
		<tag k="name" v="Strandheim" />
		<tag k="place" v="farm" />
		<tag k="ssr:stedsnr" v="768535" />
	</node>
	<node lat="61.10478889114055" lon="10.404608324454916" id="-24435">
		<tag k="name" v="Nybu" />
		<tag k="place" v="farm" />
		<tag k="ssr:stedsnr" v="769341" />
	</node>
	<node lat="61.101502779604075" lon="10.471341660879407" id="-24444">
		<tag k="name" v="Elverhøi" />
		<tag k="place" v="farm" />
		<tag k="ssr:stedsnr" v="784674" />
	</node>
	<node lat="61.16332778040779" lon="10.415630549777205" id="-24445">
		<tag k="name" v="Solbrå" />
		<tag k="place" v="farm" />
		<tag k="ssr:stedsnr" v="797886" />
	</node>
	<node lat="61.16223611011913" lon="10.460916666924222" id="-24446">
		<tag k="alt_name" v="Lundesveen" />
		<tag k="name" v="Lundsvea" />
		<tag k="place" v="isolated_dwelling" />
		<tag k="ssr:stedsnr" v="797962" />
	</node>
	<node lat="61.197016665594354" lon="10.332366666611609" id="-24447">
		<tag k="name" v="Orheim" />
		<tag k="place" v="farm" />
		<tag k="ssr:stedsnr" v="783592" />
	</node>
	<node lat="61.10816389042332" lon="10.427858334360062" id="-24450">
		<tag k="amenity" v="school" />
		<tag k="name" v="Vingar" />
		<tag k="ssr:stedsnr" v="784296" />
	</node>
	<node lat="61.05733332961459" lon="10.430516662639002" id="-24452">
		<tag k="name" v="Roligheten" />
		<tag k="place" v="isolated_dwelling" />
		<tag k="ssr:stedsnr" v="784348" />
	</node>
	<node lat="61.09189444691593" lon="10.500050003754561" id="-24453">
		<tag k="name" v="Hageringen" />
		<tag k="place" v="isolated_dwelling" />
		<tag k="ssr:stedsnr" v="784510" />
	</node>
	<node lat="61.07195555442135" lon="10.47425000207383" id="-24455">
		<tag k="name" v="Nedre Engsveen" />
		<tag k="place" v="farm" />
		<tag k="ssr:stedsnr" v="784831" />
	</node>
	<node lat="61.1383638863874" lon="10.502327768436968" id="-24456">
		<tag k="name" v="Storhagen" />
		<tag k="place" v="farm" />
		<tag k="ssr:stedsnr" v="784843" />
	</node>
	<node lat="61.08153888960293" lon="10.157786119916201" id="-24459">
		<tag k="alt_name" v="Hovsetra" />
		<tag k="historic" v="shieling" />
		<tag k="name" v="Hovsætra" />
		<tag k="place" v="isolated_dwelling" />
		<tag k="ssr:stedsnr" v="795049" />
	</node>
	<node lat="61.07661389212533" lon="10.332680556423766" id="-24460">
		<tag k="name" v="Brubakken" />
		<tag k="place" v="isolated_dwelling" />
		<tag k="ssr:stedsnr" v="795057" />
	</node>
	<node lat="61.080280222253016" lon="10.521195481743373" id="-24461">
		<tag k="fixme" v="consider place=hamlet" />
		<tag k="name" v="Bolstad" />
		<tag k="place" v="farm" />
		<tag k="ssr:stedsnr" v="795829" />
	</node>
	<node lat="61.0646055563193" lon="10.490308341959814" id="-24462">
		<tag k="name" v="Bårdsengringen" />
		<tag k="place" v="isolated_dwelling" />
		<tag k="ssr:stedsnr" v="795836" />
	</node>
	<node lat="61.072084171301675" lon="10.4766116493448" id="-24463">
		<tag k="name" v="Engesvea" />
		<tag k="place" v="locality" />
		<tag k="ssr:stedsnr" v="795845" />
	</node>
	<node lat="61.07142224279892" lon="10.425810971282996" id="-24464">
		<tag k="alt_name" v="Borud" />
		<tag k="fixme" v="consider place=hamlet" />
		<tag k="name" v="Boro" />
		<tag k="place" v="farm" />
		<tag k="ssr:stedsnr" v="795846" />
	</node>
	<node lat="61.095770858397785" lon="10.557584824592034" id="-24465">
		<tag k="fixme" v="consider place=hamlet" />
		<tag k="name" v="Roterud" />
		<tag k="place" v="farm" />
		<tag k="ssr:stedsnr" v="795767" />
	</node>
	<node lat="61.094709037347265" lon="10.410703918458736" id="-24466">
		<tag k="fixme" v="consider place=hamlet" />
		<tag k="name" v="Vottestad" />
		<tag k="place" v="farm" />
		<tag k="ssr:stedsnr" v="795776" />
	</node>
	<node lat="61.09100833759069" lon="10.465308329038676" id="-24467">
		<tag k="alt_name" v="Sæter, s" />
		<tag k="name" v="Søre nedre Sæter" />
		<tag k="place" v="farm" />
		<tag k="ssr:stedsnr" v="795777" />
	</node>
	<node lat="61.087152776649916" lon="10.415916669002117" id="-24470">
		<tag k="name" v="Geitsvea" />
		<tag k="place" v="isolated_dwelling" />
		<tag k="ssr:stedsnr" v="796871" />
	</node>
	<node lat="61.07514722566775" lon="10.463277787162879" id="-24472">
		<tag k="alt_name" v="Bergom" />
		<tag k="name" v="Klinkenberg" />
		<tag k="place" v="farm" />
		<tag k="ssr:stedsnr" v="796877" />
	</node>
	<node lat="61.1323504321204" lon="10.243448467512122" id="-24473">
		<tag k="alt_name" v="Lille-Ulland;Vesle-Ulland" />
		<tag k="fixme" v="consider place=hamlet" />
		<tag k="name" v="Veslulland" />
		<tag k="place" v="farm" />
		<tag k="ssr:stedsnr" v="796098" />
	</node>
	<node lat="61.118994441987546" lon="10.26439722258346" id="-24474">
		<tag k="name" v="Svesenga" />
		<tag k="place" v="farm" />
		<tag k="ssr:stedsnr" v="796102" />
	</node>
	<node lat="61.186633334514184" lon="10.298652786158915" id="-24476">
		<tag k="name" v="Brubakken" />
		<tag k="place" v="farm" />
		<tag k="ssr:stedsnr" v="796390" />
	</node>
	<node lat="61.1900452061134" lon="10.3058654185057" id="-24477">
		<tag k="fixme" v="consider place=hamlet" />
		<tag k="name" v="Buvollen" />
		<tag k="old_name" v="Buvolden" />
		<tag k="place" v="farm" />
		<tag k="ssr:stedsnr" v="796391" />
	</node>
	<node lat="61.20129166822735" lon="10.332861104281406" id="-24478">
		<tag k="name" v="Bleikeringen" />
		<tag k="place" v="locality" />
		<tag k="ssr:stedsnr" v="796477" />
	</node>
	<node lat="61.17554444449376" lon="10.61498054784439" id="-24480">
		<tag k="alt_name" v="Nordsæter" />
		<tag k="fixme" v="consider place=hamlet" />
		<tag k="name" v="Nordseter" />
		<tag k="place" v="village" />
		<tag k="ssr:stedsnr" v="796907" />
	</node>
	<node lat="61.1715083361745" lon="10.37976111525071" id="-24481">
		<tag k="name" v="Oppheim" />
		<tag k="place" v="farm" />
		<tag k="ssr:stedsnr" v="796910" />
	</node>
	<node lat="61.186880558574586" lon="10.348716666486247" id="-24484">
		<tag k="alt_name" v="Nørsterud" />
		<tag k="name" v="Nørdsterud" />
		<tag k="place" v="farm" />
		<tag k="ssr:stedsnr" v="796938" />
	</node>
	<node lat="61.098716669487835" lon="10.325688897045186" id="-24485">
		<tag k="name" v="Midtre Lien" />
		<tag k="place" v="farm" />
		<tag k="ssr:stedsnr" v="797031" />
	</node>
	<node lat="61.098430552030266" lon="10.089533338717693" id="-24486">
		<tag k="alt_name" v="Bleikjesetra" />
		<tag k="historic" v="shieling" />
		<tag k="name" v="Bleikesætra" />
		<tag k="place" v="isolated_dwelling" />
		<tag k="ssr:stedsnr" v="797034" />
	</node>
	<node lat="61.13633534945385" lon="10.461356159430538" id="-24488">
		<tag k="alt_name" v="Fagstad" />
		<tag k="fixme" v="consider place=hamlet" />
		<tag k="name" v="Fakstad" />
		<tag k="place" v="farm" />
		<tag k="ssr:stedsnr" v="796993" />
	</node>
	<node lat="61.03355833348812" lon="10.430891657812326" id="-24489">
		<tag k="alt_name" v="Ødegård" />
		<tag k="name" v="Øygarden" />
		<tag k="place" v="farm" />
		<tag k="ssr:stedsnr" v="797633" />
	</node>
	<node lat="61.02900555423349" lon="10.441291667243165" id="-24490">
		<tag k="name" v="Bakke" />
		<tag k="place" v="farm" />
		<tag k="ssr:stedsnr" v="797637" />
	</node>
	<node lat="61.157510201264" lon="10.40733973230241" id="-24491">
		<tag k="alt_name" v="Nordhove" />
		<tag k="fixme" v="consider place=hamlet" />
		<tag k="name" v="Nord-Hove" />
		<tag k="place" v="farm" />
		<tag k="ssr:stedsnr" v="797971" />
	</node>
	<node lat="61.09294166548124" lon="10.218105549286992" id="-24492">
		<tag k="historic" v="shieling" />
		<tag k="name" v="Sætersetra" />
		<tag k="place" v="isolated_dwelling" />
		<tag k="ssr:stedsnr" v="830145" />
	</node>
	<node lat="61.17771882653118" lon="10.393647021031423" id="-24495">
		<tag k="fixme" v="consider place=hamlet" />
		<tag k="name" v="Øvre Dal" />
		<tag k="place" v="farm" />
		<tag k="ssr:stedsnr" v="830532" />
	</node>
	<node lat="61.15750833729372" lon="10.474597219667897" id="-24497">
		<tag k="name" v="Sjøseterlykkja" />
		<tag k="place" v="locality" />
		<tag k="ssr:stedsnr" v="830665" />
	</node>
	<node lat="61.152411113771464" lon="10.420622219471678" id="-24499">
		<tag k="name" v="Ensrud" />
		<tag k="place" v="farm" />
		<tag k="ssr:stedsnr" v="830868" />
	</node>
	<node lat="61.098205553600295" lon="10.558780549912822" id="-24503">
		<tag k="name" v="Nymoenga" />
		<tag k="place" v="farm" />
		<tag k="ssr:stedsnr" v="844135" />
	</node>
	<node lat="61.062697219064056" lon="10.387958331781443" id="-24505">
		<tag k="name" v="Stenseng" />
		<tag k="place" v="farm" />
		<tag k="ssr:stedsnr" v="845737" />
	</node>
	<node lat="61.12712777548261" lon="10.493772228634285" id="-24506">
		<tag k="amenity" v="cafe" />
		<tag k="name" v="Telemarktunet" />
		<tag k="ssr:stedsnr" v="845866" />
	</node>
	<node lat="61.072272221782896" lon="10.30560556222781" id="-24507">
		<tag k="alt_name" v="Veslesetra" />
		<tag k="name" v="Veslsætra" />
		<tag k="place" v="hamlet" />
		<tag k="ssr:stedsnr" v="856056" />
	</node>
	<node lat="61.08675277705681" lon="10.4899777777895" id="-24508">
		<tag k="name" v="Nordre Galterudsveen" />
		<tag k="place" v="farm" />
		<tag k="ssr:stedsnr" v="856474" />
	</node>
	<node lat="61.141085265944525" lon="10.402808771860864" id="-24509">
		<tag k="name" v="Moshølen" />
		<tag k="place" v="farm" />
		<tag k="ssr:stedsnr" v="857999" />
	</node>
	<node lat="61.07003055567823" lon="10.419191672301388" id="-24510">
		<tag k="alt_name" v="Borudlien" />
		<tag k="name" v="Engli" />
		<tag k="place" v="farm" />
		<tag k="ssr:stedsnr" v="856854" />
	</node>
	<node lat="61.1364777802658" lon="10.316091665736021" id="-24512">
		<tag k="alt_name" v="Ruksetra" />
		<tag k="name" v="Ruka" />
		<tag k="place" v="hamlet" />
		<tag k="ssr:stedsnr" v="857083" />
	</node>
	<node lat="61.11835555140713" lon="10.259877782979483" id="-24513">
		<tag k="alt_name" v="Elvsveen" />
		<tag k="name" v="Elvsvea" />
		<tag k="place" v="farm" />
		<tag k="ssr:stedsnr" v="857124" />
	</node>
	<node lat="61.12453693306439" lon="10.289565944756228" id="-24515">
		<tag k="alt_name" v="Rusten" />
		<tag k="fixme" v="consider place=hamlet" />
		<tag k="name" v="Rusta" />
		<tag k="place" v="farm" />
		<tag k="ssr:stedsnr" v="857488" />
	</node>
	<node lat="61.12217821167326" lon="10.412579650114045" id="-24517">
		<tag k="alt_name" v="Trosset, nordre;Trosset;Nordre Troset" />
		<tag k="name" v="Nordre Trosset" />
		<tag k="place" v="farm" />
		<tag k="ssr:stedsnr" v="857796" />
	</node>
	<node lat="61.08437222006186" lon="10.410527782276993" id="-24520">
		<tag k="fixme" v="multiple name tags, choose one and add the other to alt_name" />
		<tag k="name" v="Brattberg;Øverhaugen" />
		<tag k="place" v="farm" />
		<tag k="ssr:stedsnr" v="857852" />
	</node>
	<node lat="61.15263888445411" lon="10.33460277631081" id="-24521">
		<tag k="alt_name" v="Nerstugua" />
		<tag k="name" v="Øvre Roland" />
		<tag k="place" v="farm" />
		<tag k="ssr:stedsnr" v="858058" />
	</node>
	<node lat="61.097973653311556" lon="10.495030101068599" id="-24523">
		<tag k="fixme" v="consider place=hamlet" />
		<tag k="name" v="Høstmælinga" />
		<tag k="place" v="farm" />
		<tag k="ssr:stedsnr" v="858795" />
	</node>
	<node lat="61.15487439578949" lon="10.34950879423206" id="-24524">
		<tag k="fixme" v="consider place=hamlet" />
		<tag k="name" v="Veum" />
		<tag k="place" v="farm" />
		<tag k="ssr:stedsnr" v="858908" />
	</node>
	<node lat="61.10185555715363" lon="10.513302774004725" id="-24527">
		<tag k="alt_name" v="Vårsetergrenda" />
		<tag k="name" v="Vårsætergrenda" />
		<tag k="place" v="quarter" />
		<tag k="ssr:stedsnr" v="869491" />
	</node>
	<node lat="61.07144722491733" lon="10.281108337545534" id="-24530">
		<tag k="name" v="Jakobsetra" />
		<tag k="place" v="locality" />
		<tag k="ssr:stedsnr" v="951767" />
	</node>
	<node lat="61.14862222318629" lon="10.447688894521825" id="-24531">
		<tag k="name" v="Bjørstadrønningen" />
		<tag k="place" v="farm" />
		<tag k="ssr:stedsnr" v="951852" />
	</node>
	<node lat="61.16933333568665" lon="10.394055564443828" id="-24532">
		<tag k="name" v="Engjar" />
		<tag k="place" v="farm" />
		<tag k="ssr:stedsnr" v="951857" />
	</node>
	<node lat="61.16073826138964" lon="10.326184309199531" id="-24533">
		<tag k="name" v="Søre Fliflet" />
		<tag k="place" v="farm" />
		<tag k="ssr:stedsnr" v="951041" />
	</node>
	<node lat="61.16954392571545" lon="10.39798435758908" id="-24535">
		<tag k="name" v="Blåtarmrud" />
		<tag k="place" v="locality" />
		<tag k="ssr:stedsnr" v="951238" />
	</node>
	<node lat="61.167563885239986" lon="10.383677782181348" id="-24538">
		<tag k="name" v="Nergarden Jørstad" />
		<tag k="place" v="farm" />
		<tag k="ssr:stedsnr" v="951547" />
	</node>
	<node lat="61.18135000151493" lon="10.616022220505274" id="-24550">
		<tag k="fixme" v="consider tourism=alpine_hut or tourism=chalet" />
		<tag k="name" v="Lillehammer Fjellstue og Hytteutleie" />
		<tag k="old_name" v="Nordseter Fjellstue og Hytter;Nordseter fjellstue" />
		<tag k="ssr:stedsnr" v="961747" />
		<tag k="tourism" v="wilderness_hut" />
	</node>
	<node lat="61.08132751137568" lon="10.54442420718219" id="-24552">
		<tag k="fixme" v="consider place=hamlet" />
		<tag k="name" v="Grensen" />
		<tag k="place" v="farm" />
		<tag k="ssr:stedsnr" v="966124" />
	</node>
	<node lat="61.106263891157184" lon="10.50611111631167" id="-24553">
		<tag k="name" v="Nerhagen" />
		<tag k="place" v="farm" />
		<tag k="ssr:stedsnr" v="965754" />
	</node>
	<node lat="61.11066389285099" lon="10.42431666603447" id="-24558">
		<tag k="name" v="Børkdal" />
		<tag k="place" v="farm" />
		<tag k="ssr:stedsnr" v="966264" />
	</node>
	<node lat="61.09494722258407" lon="10.424388895701957" id="-24563">
		<tag k="name" v="Vesleenga" />
		<tag k="place" v="farm" />
		<tag k="ssr:stedsnr" v="966679" />
	</node>
	<node lat="61.125176531903556" lon="10.395281464854646" id="-24567">
		<tag k="fixme" v="consider place=hamlet" />
		<tag k="name" v="Kolberg" />
		<tag k="place" v="farm" />
		<tag k="ssr:stedsnr" v="970895" />
	</node>
	<node lat="61.19479273787304" lon="10.264403616145927" id="-24568">
		<tag k="alt_name" v="Struksrud;Stutshovud" />
		<tag k="fixme" v="consider place=hamlet" />
		<tag k="name" v="Stuksrud" />
		<tag k="place" v="farm" />
		<tag k="ssr:stedsnr" v="981464" />
	</node>
	<node lat="61.047156170039685" lon="10.410957020158941" id="-24569">
		<tag k="fixme" v="consider place=hamlet" />
		<tag k="name" v="Åmot" />
		<tag k="place" v="farm" />
		<tag k="ssr:stedsnr" v="986336" />
	</node>
	<node lat="61.093208868883984" lon="10.470319835316767" id="-24570">
		<tag k="fixme" v="consider place=hamlet" />
		<tag k="name" v="Sæter" />
		<tag k="place" v="farm" />
		<tag k="ssr:stedsnr" v="986486" />
	</node>
	<node lat="61.09911760402914" lon="10.32400386410655" id="-24571">
		<tag k="fixme" v="consider place=hamlet" />
		<tag k="name" v="Lia" />
		<tag k="place" v="farm" />
		<tag k="ssr:stedsnr" v="986487" />
	</node>
	<node lat="61.10682577089906" lon="10.317731350666866" id="-24572">
		<tag k="fixme" v="consider place=hamlet" />
		<tag k="name" v="Dalby" />
		<tag k="place" v="farm" />
		<tag k="ssr:stedsnr" v="986488" />
	</node>
	<node lat="61.11130383592916" lon="10.295185072968751" id="-24573">
		<tag k="fixme" v="consider place=hamlet" />
		<tag k="name" v="Myren" />
		<tag k="place" v="farm" />
		<tag k="ssr:stedsnr" v="986489" />
	</node>
	<node lat="61.1169632139158" lon="10.284947989521335" id="-24574">
		<tag k="fixme" v="consider place=hamlet" />
		<tag k="name" v="Ulland" />
		<tag k="place" v="farm" />
		<tag k="ssr:stedsnr" v="986490" />
	</node>
	<node lat="61.119596209271336" lon="10.297128824077488" id="-24575">
		<tag k="fixme" v="consider place=hamlet" />
		<tag k="name" v="Sæter" />
		<tag k="place" v="farm" />
		<tag k="ssr:stedsnr" v="986495" />
	</node>
	<node lat="61.11540081970621" lon="10.300051632344987" id="-24576">
		<tag k="fixme" v="consider place=hamlet" />
		<tag k="name" v="Nygård" />
		<tag k="place" v="farm" />
		<tag k="ssr:stedsnr" v="986512" />
	</node>
	<node lat="61.11548868074315" lon="10.309650093735458" id="-24577">
		<tag k="fixme" v="consider place=hamlet" />
		<tag k="name" v="Hovland" />
		<tag k="place" v="farm" />
		<tag k="ssr:stedsnr" v="986513" />
	</node>
	<node lat="61.11963844102408" lon="10.413273599624638" id="-24578">
		<tag k="fixme" v="consider place=hamlet" />
		<tag k="name" v="Trosset" />
		<tag k="place" v="farm" />
		<tag k="ssr:stedsnr" v="986514" />
	</node>
	<node lat="61.14225986105848" lon="10.377753244205202" id="-24579">
		<tag k="name" v="Huse" />
		<tag k="place" v="locality" />
		<tag k="ssr:stedsnr" v="986515" />
	</node>
	<node lat="61.15137760897832" lon="10.361897413822986" id="-24580">
		<tag k="fixme" v="consider place=hamlet" />
		<tag k="name" v="Onsum" />
		<tag k="place" v="farm" />
		<tag k="ssr:stedsnr" v="986516" />
	</node>
	<node lat="61.153846528428886" lon="10.335318798055905" id="-24581">
		<tag k="fixme" v="consider place=hamlet" />
		<tag k="name" v="Roland" />
		<tag k="place" v="farm" />
		<tag k="ssr:stedsnr" v="986517" />
	</node>
	<node lat="61.20201250568219" lon="10.324163655690642" id="-24583">
		<tag k="name" v="Bleike" />
		<tag k="place" v="hamlet" />
		<tag k="ssr:stedsnr" v="986540" />
	</node>
	<node lat="61.1647379693354" lon="10.383508285002634" id="-24584">
		<tag k="name" v="Jørstad" />
		<tag k="place" v="hamlet" />
		<tag k="ssr:stedsnr" v="986541" />
	</node>
	<node lat="61.14202146176378" lon="10.436392033184708" id="-24586">
		<tag k="fixme" v="consider place=hamlet" />
		<tag k="name" v="Jeistad" />
		<tag k="place" v="farm" />
		<tag k="ssr:stedsnr" v="986547" />
	</node>
	<node lat="61.19787186463186" lon="10.309947723252828" id="-24638">
		<tag k="alt_name" v="Søre Flygstad" />
		<tag k="name" v="Søre Flugstad" />
		<tag k="place" v="farm" />
		<tag k="ssr:stedsnr" v="1073344" />
	</node>
	<node lat="61.10275268073532" lon="10.587664445003199" id="-24639">
		<tag k="name" v="Nordre Skjellerudsveen" />
		<tag k="place" v="farm" />
		<tag k="ssr:stedsnr" v="1073345" />
	</node>
	<node lat="61.1407741800838" lon="10.403362360781857" id="-24640">
		<tag k="name" v="Midtre Moshølen" />
		<tag k="place" v="locality" />
		<tag k="ssr:stedsnr" v="1073346" />
	</node>
	<node lat="61.098484366270185" lon="10.492135393615037" id="-24641">
		<tag k="alt_name" v="Høstmælingen søre nedre" />
		<tag k="name" v="Søre nedre Høstmælingen" />
		<tag k="place" v="farm" />
		<tag k="ssr:stedsnr" v="1073347" />
	</node>
	<node lat="61.14257895426267" lon="10.535273760586518" id="-24642">
		<tag k="name" v="Nordre Dagsveen" />
		<tag k="place" v="farm" />
		<tag k="ssr:stedsnr" v="1073348" />
	</node>
	<node lat="61.11325127255142" lon="10.27185514631542" id="-24643">
		<tag k="name" v="Søre Ladderud" />
		<tag k="place" v="farm" />
		<tag k="ssr:stedsnr" v="1073349" />
	</node>
	<node lat="61.09490428752673" lon="10.561369438567313" id="-24644">
		<tag k="name" v="Søre Roterud" />
		<tag k="place" v="farm" />
		<tag k="ssr:stedsnr" v="1073350" />
	</node>
	<node lat="61.07144188807536" lon="10.476186501525513" id="-24645">
		<tag k="name" v="Søre Engesveen" />
		<tag k="place" v="farm" />
		<tag k="ssr:stedsnr" v="1073351" />
	</node>
	<node lat="61.14787435102584" lon="10.47597736915315" id="-24646">
		<tag k="name" v="Søre Åsen" />
		<tag k="place" v="farm" />
		<tag k="ssr:stedsnr" v="1073352" />
	</node>
	<node lat="61.1270170443738" lon="10.234546503770595" id="-24647">
		<tag k="fixme" v="consider place=hamlet" />
		<tag k="name" v="Søre Berg" />
		<tag k="place" v="farm" />
		<tag k="ssr:stedsnr" v="1073353" />
	</node>
	<node lat="61.10204886280639" lon="10.54654380398922" id="-24648">
		<tag k="name" v="Søre Holtlien" />
		<tag k="place" v="farm" />
		<tag k="ssr:stedsnr" v="1073354" />
	</node>
	<node lat="61.077445135061865" lon="10.426294155535244" id="-24649">
		<tag k="name" v="Hov" />
		<tag k="place" v="hamlet" />
		<tag k="ssr:stedsnr" v="1073355" />
	</node>
	<node lat="61.082903167420994" lon="10.54114784157537" id="-24650">
		<tag k="name" v="Søre Menkerud" />
		<tag k="place" v="farm" />
		<tag k="ssr:stedsnr" v="1073356" />
	</node>
	<node lat="61.09885561561901" lon="10.405605545531929" id="-24651">
		<tag k="name" v="Øvre Finnsveen" />
		<tag k="place" v="farm" />
		<tag k="ssr:stedsnr" v="1073361" />
	</node>
	<node lat="61.157460780657736" lon="10.359436990215029" id="-24654">
		<tag k="name" v="Ytre Hølen" />
		<tag k="place" v="farm" />
		<tag k="ssr:stedsnr" v="1076510" />
	</node>
	<node lat="61.11631381071269" lon="10.462136956852547" id="-24655">
		<tag k="amenity" v="townhall" />
		<tag k="name" v="Fylkeshuset på Lillehammer" />
		<tag k="ssr:stedsnr" v="1078423" />
	</node>
	<node lat="61.17645610898649" lon="10.392980910796451" id="-24656">
		<tag k="name" v="Dal" />
		<tag k="place" v="hamlet" />
		<tag k="ssr:stedsnr" v="1080576" />
	</node>
	<node lat="61.079216894822174" lon="10.206327339773473" id="-24657">
		<tag k="name" v="Skjellbreida skog" />
		<tag k="place" v="farm" />
		<tag k="ssr:stedsnr" v="1081039" />
	</node>
</osm>
