<?xml version="1.0" encoding="UTF-8"?>
<<<<<<< HEAD
<osm version="0.6" generator="osmapis">
	<node lat="61.11373055573906" lon="10.246480556031932" id="-18312">
		<tag k="name" v="Sveslia" />
		<tag k="natural" v="slope" />
		<tag k="place" v="locality" />
		<tag k="ssr:stedsnr" v="41937" />
	</node>
	<node lat="61.044244448846335" lon="10.38183610627851" id="-18320">
		<tag k="name" v="Haugerlia" />
		<tag k="natural" v="slope" />
		<tag k="place" v="locality" />
		<tag k="ssr:stedsnr" v="238320" />
	</node>
	<node lat="61.09710555477456" lon="10.429216662434962" id="-18324">
		<tag k="name" v="Brettengshaugen" />
		<tag k="natural" v="hill" />
		<tag k="place" v="locality" />
		<tag k="ssr:stedsnr" v="238665" />
	</node>
	<node lat="61.20109166453472" lon="10.640166668268034" id="-18344">
		<tag k="alt_name" v="Nysæterhøgda, ytre" />
		<tag k="name" v="Ytre Nysæterhøgda" />
		<tag k="natural" v="hill" />
		<tag k="place" v="locality" />
		<tag k="ssr:stedsnr" v="68915" />
	</node>
	<node lat="61.15133610971643" lon="10.459799996248126" id="-18350">
		<tag k="name" v="Rundhaugen" />
		<tag k="natural" v="hill" />
		<tag k="place" v="locality" />
		<tag k="ssr:stedsnr" v="68982" />
	</node>
	<node lat="61.112427782208194" lon="10.234683326037171" id="-18354">
		<tag k="name" v="Bekkebakken" />
		<tag k="natural" v="slope" />
		<tag k="place" v="locality" />
		<tag k="ssr:stedsnr" v="101404" />
	</node>
	<node lat="61.10790278113783" lon="10.188455556712881" id="-18355">
		<tag k="name" v="Bergshaugen" />
		<tag k="natural" v="hill" />
		<tag k="place" v="locality" />
		<tag k="ssr:stedsnr" v="101439" />
	</node>
	<node lat="61.18250833234414" lon="10.659791661269482" id="-18392">
		<tag k="fixme" v="consider natural=peak for the most distinct mountains in the district" />
		<tag k="name" v="Høgfjellet" />
		<tag k="natural" v="hill" />
		<tag k="place" v="locality" />
		<tag k="ssr:stedsnr" v="250862" />
	</node>
	<node lat="61.204447225108886" lon="10.567008329871468" id="-18393">
		<tag k="fixme" v="consider natural=peak for the most distinct mountains in the district" />
		<tag k="name" v="Nevelfjell" />
		<tag k="natural" v="hill" />
		<tag k="place" v="locality" />
		<tag k="ssr:stedsnr" v="250906" />
	</node>
	<node lat="61.193616668998146" lon="10.646513881726293" id="-18395">
		<tag k="fixme" v="consider natural=peak for the most distinct mountains in the district" />
		<tag k="name" v="Løvisåsen" />
		<tag k="natural" v="hill" />
		<tag k="place" v="locality" />
		<tag k="ssr:stedsnr" v="250914" />
	</node>
	<node lat="61.18611666980537" lon="10.364961110499918" id="-18396">
		<tag k="name" v="Tjernshaugen" />
		<tag k="natural" v="hill" />
		<tag k="place" v="locality" />
		<tag k="ssr:stedsnr" v="250920" />
	</node>
	<node lat="61.149683329874044" lon="10.576924991737647" id="-18406">
		<tag k="alt_name" v="Sjøseteråsen" />
		<tag k="fixme" v="consider natural=peak for the most distinct mountains in the district" />
		<tag k="name" v="Sjøsæterhøgda" />
		<tag k="natural" v="hill" />
		<tag k="place" v="locality" />
		<tag k="ssr:stedsnr" v="250984" />
	</node>
	<node lat="61.136922222017965" lon="10.411886118630264" id="-18407">
		<tag k="name" v="Hovemoen" />
		<tag k="place" v="locality" />
		<tag k="ssr:stedsnr" v="250995" />
	</node>
	<node lat="61.12648055980381" lon="10.320205549276254" id="-18409">
		<tag k="fixme" v="consider natural=peak for the most distinct mountains in the district" />
		<tag k="name" v="Korsåsen" />
		<tag k="natural" v="hill" />
		<tag k="place" v="locality" />
		<tag k="ssr:stedsnr" v="124209" />
	</node>
	<node lat="61.135022219125894" lon="10.339969435911367" id="-18412">
		<tag k="name" v="Ljøsbakken" />
		<tag k="natural" v="slope" />
		<tag k="place" v="locality" />
		<tag k="ssr:stedsnr" v="128939" />
	</node>
	<node lat="61.168747223361585" lon="10.397877777571969" id="-18431">
		<tag k="name" v="Jeistadroa" />
		<tag k="place" v="locality" />
		<tag k="ssr:stedsnr" v="162219" />
	</node>
	<node lat="61.093605554753985" lon="10.103333326813932" id="-18440">
		<tag k="name" v="Lunkehaugen" />
		<tag k="natural" v="hill" />
		<tag k="place" v="locality" />
		<tag k="ssr:stedsnr" v="162914" />
	</node>
	<node lat="61.16076666657275" lon="10.49343054830236" id="-18447">
		<tag k="name" v="Langmyrrabben" />
		<tag k="natural" v="hill" />
		<tag k="place" v="locality" />
		<tag k="ssr:stedsnr" v="177862" />
	</node>
	<node lat="61.19996667029623" lon="10.534069438245993" id="-18471">
		<tag k="name" v="Kvitmåsåberget" />
		<tag k="natural" v="hill" />
		<tag k="place" v="locality" />
		<tag k="ssr:stedsnr" v="265770" />
	</node>
	<node lat="61.22003055579519" lon="10.366486115718887" id="-18473">
		<tag k="fixme" v="consider natural=peak for the most distinct mountains in the district" />
		<tag k="name" v="Bakseterkjølen" />
		<tag k="natural" v="hill" />
		<tag k="place" v="locality" />
		<tag k="ssr:stedsnr" v="223204" />
	</node>
	<node lat="61.167777774073905" lon="10.462455553442858" id="-18474">
		<tag k="name" v="Kolbottenbakka" />
		<tag k="natural" v="slope" />
		<tag k="place" v="locality" />
		<tag k="ssr:stedsnr" v="223233" />
	</node>
	<node lat="61.1176888867935" lon="10.358372216839895" id="-18483">
		<tag k="name" v="Drita" />
		<tag k="place" v="locality" />
		<tag k="ssr:stedsnr" v="238636" />
	</node>
	<node lat="61.1627305550468" lon="10.395102776078222" id="-18510">
		<tag k="name" v="Rundtomodden" />
		<tag k="place" v="locality" />
		<tag k="ssr:stedsnr" v="465549" />
	</node>
	<node lat="61.234088887860324" lon="10.401261104656447" id="-18525">
		<tag k="name" v="Hokneknappen" />
		<tag k="natural" v="hill" />
		<tag k="place" v="locality" />
		<tag k="ssr:stedsnr" v="311187" />
	</node>
	<node lat="61.17290555114537" lon="10.46475556137413" id="-18527">
		<tag k="name" v="Esdragsletta" />
		<tag k="place" v="locality" />
		<tag k="ssr:stedsnr" v="466266" />
	</node>
	<node lat="61.0571333356764" lon="10.35131388144184" id="-18533">
		<tag k="name" v="Djupdalen" />
		<tag k="natural" v="valley" />
=======
<osm generator="osmapis" version="0.6">
	<node id="-304639" lat="61.1558833355" lon="10.4008583279">
		<tag k="name" v="Sundstranda" />
>>>>>>> e1d4bc35ff8a6074a6f2e91616a996b547c36f15
		<tag k="place" v="locality" />
		<tag k="ssr:stedsnr" v="311516" />
	</node>
<<<<<<< HEAD
	<node lat="61.1788472190365" lon="10.51156110232639" id="-18539">
=======
	<node id="-303445" lat="61.153388888" lon="10.4256666596">
		<tag k="name" v="Kalykjeberget" />
		<tag k="natural" v="cliff" />
		<tag k="ssr:stedsnr" v="222847" />
	</node>
	<node id="-303871" lat="61.1030166663" lon="10.4367000041">
		<tag k="name" v="Hustruberget" />
		<tag k="natural" v="cliff" />
		<tag k="ssr:stedsnr" v="723269" />
	</node>
	<node id="-304632" lat="61.1563861156" lon="10.4974611026">
>>>>>>> e1d4bc35ff8a6074a6f2e91616a996b547c36f15
		<tag k="fixme" v="consider natural=peak for the most distinct mountains in the district" />
		<tag k="name" v="Venåsen" />
		<tag k="natural" v="hill" />
		<tag k="place" v="locality" />
		<tag k="ssr:stedsnr" v="311906" />
	</node>
<<<<<<< HEAD
	<node lat="61.175130557351466" lon="10.664702772005409" id="-18540">
		<tag k="fixme" v="consider natural=peak for the most distinct mountains in the district" />
		<tag k="name" v="Lunkefjell" />
		<tag k="natural" v="hill" />
=======
	<node id="-303605" lat="61.1138361101" lon="10.5300972296">
		<tag k="name" v="Baklia" />
		<tag k="natural" v="slope" />
>>>>>>> e1d4bc35ff8a6074a6f2e91616a996b547c36f15
		<tag k="place" v="locality" />
		<tag k="ssr:stedsnr" v="311912" />
	</node>
<<<<<<< HEAD
	<node lat="61.0922583301112" lon="10.075319439411626" id="-18545">
		<tag k="name" v="Bokkesletta" />
=======
	<node id="-303602" lat="61.0981250026" lon="10.4389999976">
		<tag k="name" v="Riselandet" />
>>>>>>> e1d4bc35ff8a6074a6f2e91616a996b547c36f15
		<tag k="place" v="locality" />
		<tag k="ssr:stedsnr" v="466920" />
	</node>
<<<<<<< HEAD
	<node lat="61.07106389173444" lon="10.19370833995045" id="-18553">
		<tag k="name" v="Kopnageln" />
=======
	<node id="-304107" lat="61.1007111082" lon="10.5369027706">
		<tag k="fixme" v="consider natural=peak for the most distinct mountains in the district" />
		<tag k="name" v="Askjellerudåsen" />
>>>>>>> e1d4bc35ff8a6074a6f2e91616a996b547c36f15
		<tag k="natural" v="hill" />
		<tag k="place" v="locality" />
		<tag k="ssr:stedsnr" v="344190" />
	</node>
<<<<<<< HEAD
	<node lat="61.18902500217943" lon="10.364863881803199" id="-18555">
		<tag k="name" v="Tjernshaugen" />
		<tag k="natural" v="hill" />
=======
	<node id="-303594" lat="61.0780055539" lon="10.3136083246">
		<tag k="name" v="Knipplia" />
		<tag k="natural" v="slope" />
>>>>>>> e1d4bc35ff8a6074a6f2e91616a996b547c36f15
		<tag k="place" v="locality" />
		<tag k="ssr:stedsnr" v="344603" />
	</node>
<<<<<<< HEAD
	<node lat="61.15464444582729" lon="10.440236112967938" id="-18561">
		<tag k="name" v="Varddokka" />
		<tag k="natural" v="valley" />
=======
	<node id="-304103" lat="61.0935555568" lon="10.2798305638">
		<tag k="name" v="Hovlandsliene" />
		<tag k="natural" v="slope" />
>>>>>>> e1d4bc35ff8a6074a6f2e91616a996b547c36f15
		<tag k="place" v="locality" />
		<tag k="ssr:stedsnr" v="344859" />
	</node>
<<<<<<< HEAD
	<node lat="61.116602773959244" lon="10.097247229392249" id="-18564">
		<tag k="name" v="Kokslihaugen" />
		<tag k="natural" v="hill" />
		<tag k="place" v="locality" />
		<tag k="ssr:stedsnr" v="473824" />
	</node>
	<node lat="61.11828888607915" lon="10.079563894951297" id="-18565">
		<tag k="name" v="Flugstadfjellet" />
		<tag k="natural" v="hill" />
		<tag k="place" v="locality" />
		<tag k="ssr:stedsnr" v="473835" />
	</node>
	<node lat="61.04529722140211" lon="10.430733325506594" id="-18574">
		<tag k="name" v="Moalunden" />
=======
	<node id="-304101" lat="61.1762222183" lon="10.3885777857">
		<tag k="name" v="Nåsån" />
		<tag k="natural" v="hill" />
		<tag k="place" v="locality" />
		<tag k="ssr:stedsnr" v="951564" />
	</node>
	<node id="-303583" lat="61.1607666666" lon="10.4934305483">
		<tag k="name" v="Langmyrrabben" />
		<tag k="natural" v="hill" />
>>>>>>> e1d4bc35ff8a6074a6f2e91616a996b547c36f15
		<tag k="place" v="locality" />
		<tag k="ssr:stedsnr" v="359320" />
	</node>
<<<<<<< HEAD
	<node lat="61.16981666450913" lon="10.478761115128638" id="-18592">
		<tag k="name" v="Rabben" />
		<tag k="natural" v="slope" />
=======
	<node id="-303582" lat="61.1444416646" lon="10.550880561">
		<tag k="name" v="Finnsvehaugen" />
		<tag k="natural" v="hill" />
>>>>>>> e1d4bc35ff8a6074a6f2e91616a996b547c36f15
		<tag k="place" v="locality" />
		<tag k="ssr:stedsnr" v="372918" />
	</node>
<<<<<<< HEAD
	<node lat="61.13486944303734" lon="10.418330552755615" id="-18608">
		<tag k="name" v="Kobberslagergrøpene" />
		<tag k="natural" v="valley" />
=======
	<node id="-304603" lat="61.1219694481" lon="10.0708361164">
		<tag k="name" v="Myssmørhelje" />
		<tag k="natural" v="ridge" />
>>>>>>> e1d4bc35ff8a6074a6f2e91616a996b547c36f15
		<tag k="place" v="locality" />
		<tag k="ssr:stedsnr" v="405807" />
	</node>
<<<<<<< HEAD
	<node lat="61.1847055575406" lon="10.531261107063983" id="-18629">
		<tag k="name" v="Huerhaugen" />
		<tag k="natural" v="hill" />
=======
	<node id="-303575" lat="61.1229305544" lon="10.3929750016">
		<tag k="name" v="Jørudbakken" />
		<tag k="natural" v="slope" />
>>>>>>> e1d4bc35ff8a6074a6f2e91616a996b547c36f15
		<tag k="place" v="locality" />
		<tag k="ssr:stedsnr" v="432929" />
	</node>
<<<<<<< HEAD
	<node lat="61.03909721830214" lon="10.260916674458704" id="-18638">
		<tag k="name" v="Fløythaugen" />
		<tag k="natural" v="hill" />
		<tag k="place" v="locality" />
		<tag k="ssr:stedsnr" v="492152" />
	</node>
	<node lat="61.10968610884525" lon="10.075372216392028" id="-18650">
		<tag k="name" v="Prestkjerringa" />
=======
	<node id="-304594" lat="61.1622499981" lon="10.5062694535">
		<tag k="name" v="Skotlimyrrabben" />
>>>>>>> e1d4bc35ff8a6074a6f2e91616a996b547c36f15
		<tag k="natural" v="hill" />
		<tag k="place" v="locality" />
		<tag k="ssr:stedsnr" v="493001" />
	</node>
<<<<<<< HEAD
	<node lat="61.06841388467013" lon="10.141630552081535" id="-18665">
		<tag k="name" v="Svartdalen" />
=======
	<node id="-304079" lat="61.1369055575" lon="10.2761055464">
		<tag k="name" v="Turtdalen" />
>>>>>>> e1d4bc35ff8a6074a6f2e91616a996b547c36f15
		<tag k="natural" v="valley" />
		<tag k="place" v="locality" />
		<tag k="ssr:stedsnr" v="465162" />
	</node>
<<<<<<< HEAD
	<node lat="61.034372222619965" lon="10.392363890849373" id="-18669">
		<tag k="name" v="Moslia" />
		<tag k="natural" v="slope" />
=======
	<node id="-303564" lat="61.154280552" lon="10.4524833278">
		<tag k="name" v="Langsletta" />
>>>>>>> e1d4bc35ff8a6074a6f2e91616a996b547c36f15
		<tag k="place" v="locality" />
		<tag k="ssr:stedsnr" v="466616" />
	</node>
<<<<<<< HEAD
	<node lat="61.03296666752322" lon="10.401572215715227" id="-18670">
		<tag k="name" v="Rødsletta" />
=======
	<node id="-303563" lat="61.2095138893" lon="10.3913833378">
		<tag k="name" v="Bjørnhilia" />
		<tag k="natural" v="slope" />
>>>>>>> e1d4bc35ff8a6074a6f2e91616a996b547c36f15
		<tag k="place" v="locality" />
		<tag k="ssr:stedsnr" v="466570" />
	</node>
<<<<<<< HEAD
	<node lat="61.0732750017352" lon="10.347163890330526" id="-18691">
		<tag k="name" v="Døslia" />
=======
	<node id="-303863" lat="61.1277666693" lon="10.4934694509">
		<tag k="name" v="Kanthaugen" />
		<tag k="natural" v="hill" />
		<tag k="place" v="locality" />
		<tag k="ssr:stedsnr" v="614954" />
	</node>
	<node id="-304070" lat="61.0529277734" lon="10.3488361139">
		<tag k="name" v="Rindalslia" />
>>>>>>> e1d4bc35ff8a6074a6f2e91616a996b547c36f15
		<tag k="natural" v="slope" />
		<tag k="place" v="locality" />
		<tag k="ssr:stedsnr" v="473865" />
	</node>
<<<<<<< HEAD
	<node lat="61.108369439947175" lon="10.432302782791693" id="-18695">
		<tag k="name" v="Pinnikhaugen" />
		<tag k="natural" v="hill" />
		<tag k="place" v="locality" />
		<tag k="ssr:stedsnr" v="480226" />
	</node>
	<node lat="61.157430557812454" lon="10.58095554927345" id="-18699">
		<tag k="name" v="Geitryggen" />
=======
	<node id="-304581" lat="61.1044083372" lon="10.0761027776">
		<tag k="name" v="Endrelia" />
		<tag k="natural" v="slope" />
		<tag k="place" v="locality" />
		<tag k="ssr:stedsnr" v="534826" />
	</node>
	<node id="-304068" lat="61.156475001" lon="10.4428472161">
		<tag k="fixme" v="multiple name tags, choose one and add the other to alt_name" />
		<tag k="name" v="Balbergkampen;Vardhøgda" />
>>>>>>> e1d4bc35ff8a6074a6f2e91616a996b547c36f15
		<tag k="natural" v="hill" />
		<tag k="place" v="locality" />
		<tag k="ssr:stedsnr" v="480859" />
	</node>
<<<<<<< HEAD
	<node lat="61.118477777564934" lon="10.117116659116183" id="-18706">
		<tag k="name" v="Storhaugen" />
=======
	<node id="-303549" lat="61.0334027796" lon="10.3510416719">
		<tag k="name" v="Revhaugen" />
>>>>>>> e1d4bc35ff8a6074a6f2e91616a996b547c36f15
		<tag k="natural" v="hill" />
		<tag k="place" v="locality" />
		<tag k="ssr:stedsnr" v="493123" />
	</node>
<<<<<<< HEAD
	<node lat="61.10592499774375" lon="10.56611945307161" id="-18708">
		<tag k="fixme" v="consider natural=peak for the most distinct mountains in the district" />
		<tag k="name" v="Sollihøgda" />
		<tag k="natural" v="hill" />
		<tag k="place" v="locality" />
		<tag k="ssr:stedsnr" v="493768" />
	</node>
	<node lat="61.199605554298735" lon="10.584016665498325" id="-18711">
		<tag k="name" v="Fjelldokka" />
=======
	<node id="-304572" lat="61.0855583369" lon="10.273872219">
		<tag k="name" v="Bubekkdalen" />
>>>>>>> e1d4bc35ff8a6074a6f2e91616a996b547c36f15
		<tag k="natural" v="valley" />
		<tag k="place" v="locality" />
		<tag k="ssr:stedsnr" v="493928" />
	</node>
<<<<<<< HEAD
	<node lat="61.189777778467445" lon="10.585125004068114" id="-18712">
		<tag k="name" v="Skogshaugen" />
=======
	<node id="-303775" lat="61.1083694399" lon="10.4323027828">
		<tag k="name" v="Pinnikhaugen" />
		<tag k="natural" v="hill" />
		<tag k="place" v="locality" />
		<tag k="ssr:stedsnr" v="480226" />
	</node>
	<node id="-304051" lat="61.1243750026" lon="10.0717888916">
		<tag k="alt_name" v="Gammel-Hans" />
		<tag k="fixme" v="consider natural=peak for the most distinct mountains in the district" />
		<tag k="name" v="Gammelhans" />
>>>>>>> e1d4bc35ff8a6074a6f2e91616a996b547c36f15
		<tag k="natural" v="hill" />
		<tag k="place" v="locality" />
		<tag k="ssr:stedsnr" v="493938" />
	</node>
<<<<<<< HEAD
	<node lat="61.10573889165794" lon="10.225738883070465" id="-18718">
		<tag k="name" v="Sveseterlia" />
		<tag k="natural" v="slope" />
		<tag k="place" v="locality" />
		<tag k="ssr:stedsnr" v="526415" />
	</node>
	<node lat="61.19081111165895" lon="10.678311106518827" id="-18733">
		<tag k="name" v="Grønnbekkdalen" />
		<tag k="natural" v="valley" />
		<tag k="place" v="locality" />
		<tag k="ssr:stedsnr" v="541579" />
	</node>
	<node lat="61.15638611556232" lon="10.497461102625962" id="-18752">
=======
	<node id="-303534" lat="61.0888138858" lon="10.0668583315">
>>>>>>> e1d4bc35ff8a6074a6f2e91616a996b547c36f15
		<tag k="fixme" v="consider natural=peak for the most distinct mountains in the district" />
		<tag k="name" v="Høgsvelia" />
		<tag k="natural" v="hill" />
		<tag k="place" v="locality" />
		<tag k="ssr:stedsnr" v="554980" />
	</node>
<<<<<<< HEAD
	<node lat="61.1558833355048" lon="10.400858327860954" id="-18760">
		<tag k="name" v="Sundstranda" />
=======
	<node id="-303533" lat="61.1999666703" lon="10.5340694382">
		<tag k="name" v="Kvitmåsåberget" />
		<tag k="natural" v="hill" />
>>>>>>> e1d4bc35ff8a6074a6f2e91616a996b547c36f15
		<tag k="place" v="locality" />
		<tag k="ssr:stedsnr" v="586560" />
	</node>
<<<<<<< HEAD
	<node lat="61.20283055420788" lon="10.416194452633903" id="-18763">
		<tag k="name" v="Brattsveen" />
=======
	<node id="-303532" lat="61.1552638917" lon="10.483599993">
		<tag k="name" v="Tjonerudlia" />
>>>>>>> e1d4bc35ff8a6074a6f2e91616a996b547c36f15
		<tag k="natural" v="slope" />
		<tag k="place" v="locality" />
		<tag k="ssr:stedsnr" v="587257" />
	</node>
<<<<<<< HEAD
	<node lat="61.10556110681564" lon="10.087033333180706" id="-18765">
		<tag k="name" v="Saltbakken" />
		<tag k="natural" v="slope" />
=======
	<node id="-304553" lat="61.1847055575" lon="10.5312611071">
		<tag k="name" v="Huerhaugen" />
		<tag k="natural" v="hill" />
>>>>>>> e1d4bc35ff8a6074a6f2e91616a996b547c36f15
		<tag k="place" v="locality" />
		<tag k="ssr:stedsnr" v="595807" />
	</node>
<<<<<<< HEAD
	<node lat="61.1635916670093" lon="10.594627768883212" id="-18769">
		<tag k="name" v="Svahella" />
=======
	<node id="-303772" lat="61.0343722226" lon="10.3923638908">
		<tag k="name" v="Moslia" />
		<tag k="natural" v="slope" />
		<tag k="place" v="locality" />
		<tag k="ssr:stedsnr" v="466616" />
	</node>
	<node id="-303525" lat="61.136922222" lon="10.4118861186">
		<tag k="name" v="Hovemoen" />
>>>>>>> e1d4bc35ff8a6074a6f2e91616a996b547c36f15
		<tag k="place" v="locality" />
		<tag k="ssr:stedsnr" v="601831" />
	</node>
<<<<<<< HEAD
	<node lat="61.16180832988929" lon="10.652605554318505" id="-18784">
=======
	<node id="-303524" lat="61.1496833299" lon="10.5769249917">
		<tag k="alt_name" v="Sjøseteråsen" />
>>>>>>> e1d4bc35ff8a6074a6f2e91616a996b547c36f15
		<tag k="fixme" v="consider natural=peak for the most distinct mountains in the district" />
		<tag k="name" v="Heståsen" />
		<tag k="natural" v="hill" />
		<tag k="place" v="locality" />
		<tag k="ssr:stedsnr" v="614898" />
	</node>
<<<<<<< HEAD
	<node lat="61.127766669346435" lon="10.493469450933592" id="-18790">
		<tag k="name" v="Kanthaugen" />
		<tag k="natural" v="hill" />
		<tag k="place" v="locality" />
		<tag k="ssr:stedsnr" v="614954" />
	</node>
	<node lat="61.12625555750457" lon="10.577577771823373" id="-18793">
		<tag k="name" v="Mesnhaugen" />
=======
	<node id="-304034" lat="61.0265305538" lon="10.3578222162">
		<tag k="fixme" v="consider natural=peak for the most distinct mountains in the district" />
		<tag k="name" v="Høgåsen" />
>>>>>>> e1d4bc35ff8a6074a6f2e91616a996b547c36f15
		<tag k="natural" v="hill" />
		<tag k="place" v="locality" />
		<tag k="ssr:stedsnr" v="614968" />
	</node>
<<<<<<< HEAD
	<node lat="61.18418610835377" lon="10.553091674037308" id="-18794">
		<tag k="name" v="Kruggerudberget" />
=======
	<node id="-303771" lat="61.0329666675" lon="10.4015722157">
		<tag k="name" v="Rødsletta" />
		<tag k="place" v="locality" />
		<tag k="ssr:stedsnr" v="466570" />
	</node>
	<node id="-303514" lat="61.1861166698" lon="10.3649611105">
		<tag k="name" v="Tjernshaugen" />
>>>>>>> e1d4bc35ff8a6074a6f2e91616a996b547c36f15
		<tag k="natural" v="hill" />
		<tag k="place" v="locality" />
		<tag k="ssr:stedsnr" v="629298" />
	</node>
<<<<<<< HEAD
	<node lat="61.089061115336044" lon="10.056019438702432" id="-18810">
=======
	<node id="-303513" lat="61.193616669" lon="10.6465138817">
>>>>>>> e1d4bc35ff8a6074a6f2e91616a996b547c36f15
		<tag k="fixme" v="consider natural=peak for the most distinct mountains in the district" />
		<tag k="name" v="Kufjellflågån" />
		<tag k="natural" v="hill" />
		<tag k="place" v="locality" />
		<tag k="ssr:stedsnr" v="708913" />
	</node>
<<<<<<< HEAD
	<node lat="61.14440277433269" lon="10.472463884247878" id="-18815">
		<tag k="name" v="Hansvehaugen" />
=======
	<node id="-303511" lat="61.2044472251" lon="10.5670083299">
		<tag k="name" v="Nevelfjell" />
>>>>>>> e1d4bc35ff8a6074a6f2e91616a996b547c36f15
		<tag k="natural" v="hill" />
		<tag k="place" v="locality" />
		<tag k="ssr:stedsnr" v="662199" />
	</node>
<<<<<<< HEAD
	<node lat="61.15510278195719" lon="10.426691671970522" id="-18828">
		<tag k="name" v="Svartberget" />
		<tag k="natural" v="cliff" />
		<tag k="ssr:stedsnr" v="890877" />
	</node>
	<node lat="61.16258888970947" lon="10.394186103297649" id="-18829">
		<tag k="name" v="Steinkista" />
=======
	<node id="-303510" lat="61.1825083323" lon="10.6597916613">
		<tag k="fixme" v="consider natural=peak for the most distinct mountains in the district" />
		<tag k="name" v="Høgfjellet" />
		<tag k="natural" v="hill" />
>>>>>>> e1d4bc35ff8a6074a6f2e91616a996b547c36f15
		<tag k="place" v="locality" />
		<tag k="ssr:stedsnr" v="890590" />
	</node>
<<<<<<< HEAD
	<node lat="61.23299444197728" lon="10.419133336902451" id="-18833">
		<tag k="name" v="Svarverudberget" />
		<tag k="natural" v="cliff" />
		<tag k="ssr:stedsnr" v="891181" />
	</node>
	<node lat="61.101780555455484" lon="10.274894448658939" id="-18836">
		<tag k="name" v="Amerika" />
=======
	<node id="-304533" lat="61.1416166666" lon="10.2793611105">
		<tag k="name" v="Turtdalshøgda" />
		<tag k="natural" v="hill" />
>>>>>>> e1d4bc35ff8a6074a6f2e91616a996b547c36f15
		<tag k="place" v="locality" />
		<tag k="ssr:stedsnr" v="675008" />
	</node>
<<<<<<< HEAD
	<node lat="61.12197777647095" lon="10.218238896298335" id="-18859">
		<tag k="name" v="Bergslia" />
		<tag k="natural" v="slope" />
		<tag k="place" v="locality" />
		<tag k="ssr:stedsnr" v="708430" />
	</node>
	<node lat="61.103016666251854" lon="10.43670000410878" id="-18870">
		<tag k="name" v="Hustruberget" />
		<tag k="natural" v="cliff" />
		<tag k="ssr:stedsnr" v="723269" />
	</node>
	<node lat="61.102649997523834" lon="10.433194440016187" id="-18903">
		<tag k="name" v="Snauhaugen" />
		<tag k="natural" v="hill" />
=======
	<node id="-304528" lat="61.1050527803" lon="10.4956444489">
		<tag k="name" v="Saudalen" />
		<tag k="natural" v="valley" />
>>>>>>> e1d4bc35ff8a6074a6f2e91616a996b547c36f15
		<tag k="place" v="locality" />
		<tag k="ssr:stedsnr" v="905688" />
	</node>
<<<<<<< HEAD
	<node lat="61.02653055375432" lon="10.357822216220868" id="-18923">
		<tag k="fixme" v="consider natural=peak for the most distinct mountains in the district" />
		<tag k="name" v="Høgåsen" />
=======
	<node id="-304526" lat="61.1659277747" lon="10.5001611166">
		<tag k="name" v="Høgrabben" />
>>>>>>> e1d4bc35ff8a6074a6f2e91616a996b547c36f15
		<tag k="natural" v="hill" />
		<tag k="place" v="locality" />
		<tag k="ssr:stedsnr" v="796762" />
	</node>
<<<<<<< HEAD
	<node lat="61.20316944218661" lon="10.590972220088737" id="-18948">
=======
	<node id="-304013" lat="61.2031694422" lon="10.5909722201">
>>>>>>> e1d4bc35ff8a6074a6f2e91616a996b547c36f15
		<tag k="fixme" v="consider natural=peak for the most distinct mountains in the district" />
		<tag k="name" v="Nevelåsen" />
		<tag k="natural" v="hill" />
		<tag k="place" v="locality" />
		<tag k="ssr:stedsnr" v="918936" />
	</node>
<<<<<<< HEAD
	<node lat="61.22850277752442" lon="10.41000833577158" id="-18953">
		<tag k="name" v="Husekampen" />
		<tag k="natural" v="hill" />
=======
	<node id="-303996" lat="61.1629777775" lon="10.4660611058">
		<tag k="name" v="Lundesvelia" />
		<tag k="natural" v="slope" />
>>>>>>> e1d4bc35ff8a6074a6f2e91616a996b547c36f15
		<tag k="place" v="locality" />
		<tag k="ssr:stedsnr" v="830180" />
	</node>
<<<<<<< HEAD
	<node lat="61.15656666549026" lon="10.40334166056136" id="-18954">
		<tag k="name" v="Hellberget" />
		<tag k="place" v="locality" />
		<tag k="ssr:stedsnr" v="830562" />
	</node>
	<node lat="61.12437500259938" lon="10.071788891589959" id="-18971">
		<tag k="alt_name" v="Gammel-Hans" />
		<tag k="fixme" v="consider natural=peak for the most distinct mountains in the district" />
		<tag k="name" v="Gammelhans" />
=======
	<node id="-303991" lat="61.1026499975" lon="10.43319444">
		<tag k="name" v="Snauhaugen" />
>>>>>>> e1d4bc35ff8a6074a6f2e91616a996b547c36f15
		<tag k="natural" v="hill" />
		<tag k="place" v="locality" />
		<tag k="ssr:stedsnr" v="857108" />
	</node>
<<<<<<< HEAD
	<node lat="61.127705551830026" lon="10.26827222669179" id="-18973">
		<tag k="fixme" v="consider natural=peak for the most distinct mountains in the district" />
		<tag k="name" v="Ullandsåsen" />
=======
	<node id="-303476" lat="61.0971055548" lon="10.4292166624">
		<tag k="name" v="Brettengshaugen" />
>>>>>>> e1d4bc35ff8a6074a6f2e91616a996b547c36f15
		<tag k="natural" v="hill" />
		<tag k="place" v="locality" />
		<tag k="ssr:stedsnr" v="857133" />
	</node>
<<<<<<< HEAD
	<node lat="61.20700278021739" lon="10.651252787006456" id="-18978">
		<tag k="alt_name" v="Nysæterhøgda, indre" />
		<tag k="name" v="Indre Nysæterhøgda" />
		<tag k="natural" v="hill" />
=======
	<node id="-303475" lat="61.1176888868" lon="10.3583722168">
		<tag k="name" v="Drita" />
>>>>>>> e1d4bc35ff8a6074a6f2e91616a996b547c36f15
		<tag k="place" v="locality" />
		<tag k="ssr:stedsnr" v="857904" />
	</node>
<<<<<<< HEAD
	<node lat="61.110383336872246" lon="10.090388887114484" id="-18993">
		<tag k="name" v="Sladrehaugen" />
=======
	<node id="-304498" lat="61.1095805513" lon="10.4118166702">
		<tag k="name" v="Korpeberget" />
>>>>>>> e1d4bc35ff8a6074a6f2e91616a996b547c36f15
		<tag k="natural" v="hill" />
		<tag k="place" v="locality" />
		<tag k="ssr:stedsnr" v="898817" />
	</node>
<<<<<<< HEAD
	<node lat="61.05292777342919" lon="10.34883611387372" id="-18994">
		<tag k="name" v="Rindalslia" />
=======
	<node id="-303472" lat="61.0442444488" lon="10.3818361063">
		<tag k="name" v="Haugerlia" />
>>>>>>> e1d4bc35ff8a6074a6f2e91616a996b547c36f15
		<tag k="natural" v="slope" />
		<tag k="place" v="locality" />
		<tag k="ssr:stedsnr" v="898820" />
	</node>
<<<<<<< HEAD
	<node lat="61.13690555745553" lon="10.276105546446066" id="-19009">
		<tag k="name" v="Turtdalen" />
		<tag k="natural" v="valley" />
=======
	<node id="-304494" lat="61.1003694473" lon="10.0715138843">
		<tag k="alt_name" v="Bleikjefjellet" />
		<tag k="fixme" v="consider natural=peak for the most distinct mountains in the district" />
		<tag k="name" v="Bleikefjellet" />
		<tag k="natural" v="hill" />
>>>>>>> e1d4bc35ff8a6074a6f2e91616a996b547c36f15
		<tag k="place" v="locality" />
		<tag k="ssr:stedsnr" v="918107" />
	</node>
<<<<<<< HEAD
	<node lat="61.1770083312958" lon="10.447391665059786" id="-19024">
=======
	<node id="-304491" lat="61.1779305518" lon="10.580047231">
>>>>>>> e1d4bc35ff8a6074a6f2e91616a996b547c36f15
		<tag k="fixme" v="consider natural=peak for the most distinct mountains in the district" />
		<tag k="name" v="Kvesåsen" />
		<tag k="natural" v="hill" />
		<tag k="place" v="locality" />
<<<<<<< HEAD
		<tag k="ssr:stedsnr" v="951529" />
	</node>
	<node lat="61.11070277415704" lon="10.602838888241296" id="-19036">
		<tag k="name" v="Baklia" />
		<tag k="natural" v="slope" />
		<tag k="place" v="locality" />
		<tag k="ssr:stedsnr" v="966611" />
	</node>
	<node lat="61.084113887397166" lon="10.392141663671513" id="-19054">
		<tag k="loc_name" v="Brattbergkjølen;Brattberghøgda" />
		<tag k="name" v="Vottestadhøgda" />
=======
		<tag k="ssr:stedsnr" v="371897" />
	</node>
	<node id="-303970" lat="61.232994442" lon="10.4191333369">
		<tag k="name" v="Svarverudberget" />
		<tag k="natural" v="cliff" />
		<tag k="ssr:stedsnr" v="891181" />
	</node>
	<node id="-303969" lat="61.155102782" lon="10.426691672">
		<tag k="name" v="Svartberget" />
		<tag k="natural" v="cliff" />
		<tag k="ssr:stedsnr" v="890877" />
	</node>
	<node id="-304479" lat="61.1210583374" lon="10.071305558">
		<tag k="fixme" v="consider natural=peak for the most distinct mountains in the district" />
		<tag k="name" v="Skjellbreida" />
>>>>>>> e1d4bc35ff8a6074a6f2e91616a996b547c36f15
		<tag k="natural" v="hill" />
		<tag k="old_name" v="Vaatestadhøiden" />
		<tag k="place" v="locality" />
		<tag k="ssr:stedsnr" v="6857" />
	</node>
<<<<<<< HEAD
	<node lat="61.21802500135186" lon="10.356958331689336" id="-19057">
		<tag k="name" v="Svartdalen" />
		<tag k="natural" v="valley" />
		<tag k="place" v="locality" />
		<tag k="ssr:stedsnr" v="7182" />
	</node>
	<node lat="61.109955551786776" lon="10.563980549959885" id="-19071">
		<tag k="name" v="Baklia" />
=======
	<node id="-304613" lat="61.1957027753" lon="10.6609694527">
		<tag k="fixme" v="consider natural=peak for the most distinct mountains in the district" />
		<tag k="name" v="Høgåsen" />
		<tag k="natural" v="hill" />
		<tag k="place" v="locality" />
		<tag k="ssr:stedsnr" v="553464" />
	</node>
	<node id="-303448" lat="61.1677777741" lon="10.4624555534">
		<tag k="name" v="Kolbottenbakka" />
>>>>>>> e1d4bc35ff8a6074a6f2e91616a996b547c36f15
		<tag k="natural" v="slope" />
		<tag k="place" v="locality" />
		<tag k="ssr:stedsnr" v="8813" />
	</node>
<<<<<<< HEAD
	<node lat="61.170555555437495" lon="10.401008334740332" id="-19078">
		<tag k="name" v="Lortvarpet" />
=======
	<node id="-303959" lat="61.1625888897" lon="10.3941861033">
		<tag k="name" v="Steinkista" />
>>>>>>> e1d4bc35ff8a6074a6f2e91616a996b547c36f15
		<tag k="place" v="locality" />
		<tag k="ssr:stedsnr" v="41249" />
	</node>
<<<<<<< HEAD
	<node lat="61.066800000055636" lon="10.330802781712624" id="-19085">
		<tag k="name" v="Stillia" />
		<tag k="natural" v="slope" />
		<tag k="place" v="locality" />
		<tag k="ssr:stedsnr" v="49840" />
	</node>
	<node lat="61.09943888514496" lon="10.185152769216351" id="-19118">
		<tag k="name" v="Svartåsen" />
=======
	<node id="-304469" lat="61.1874722222" lon="10.6266416695">
		<tag k="name" v="Snauskallen" />
>>>>>>> e1d4bc35ff8a6074a6f2e91616a996b547c36f15
		<tag k="natural" v="hill" />
		<tag k="place" v="locality" />
		<tag k="ssr:stedsnr" v="101139" />
	</node>
<<<<<<< HEAD
	<node lat="61.182402774857096" lon="10.411836110143918" id="-19123">
		<tag k="name" v="Drotten" />
=======
	<node id="-304466" lat="61.1833166637" lon="10.6212944522">
		<tag k="name" v="Kaus" />
>>>>>>> e1d4bc35ff8a6074a6f2e91616a996b547c36f15
		<tag k="place" v="locality" />
		<tag k="ssr:stedsnr" v="102292" />
	</node>
<<<<<<< HEAD
	<node lat="61.17285555416254" lon="10.403341658118892" id="-19124">
		<tag k="name" v="Skogsvarpet" />
=======
	<node id="-304464" lat="61.0953361131" lon="10.413872216">
		<tag k="name" v="Vottestadkampen" />
		<tag k="natural" v="hill" />
>>>>>>> e1d4bc35ff8a6074a6f2e91616a996b547c36f15
		<tag k="place" v="locality" />
		<tag k="ssr:stedsnr" v="102297" />
	</node>
<<<<<<< HEAD
	<node lat="61.15526389174486" lon="10.48359999298576" id="-19133">
		<tag k="name" v="Tjonerudlia" />
=======
	<node id="-303439" lat="61.1099555518" lon="10.56398055">
		<tag k="name" v="Baklia" />
>>>>>>> e1d4bc35ff8a6074a6f2e91616a996b547c36f15
		<tag k="natural" v="slope" />
		<tag k="place" v="locality" />
		<tag k="ssr:stedsnr" v="116839" />
	</node>
<<<<<<< HEAD
	<node lat="61.0888138857812" lon="10.066858331483713" id="-19141">
		<tag k="fixme" v="consider natural=peak for the most distinct mountains in the district" />
		<tag k="name" v="Kufjellet" />
=======
	<node id="-303436" lat="61.0841138874" lon="10.3921416637">
		<tag k="loc_name" v="Brattberghøgda;Brattbergkjølen" />
		<tag k="name" v="Vottestadhøgda" />
>>>>>>> e1d4bc35ff8a6074a6f2e91616a996b547c36f15
		<tag k="natural" v="hill" />
		<tag k="place" v="locality" />
		<tag k="ssr:stedsnr" v="128015" />
	</node>
<<<<<<< HEAD
	<node lat="61.033402779594766" lon="10.351041671925067" id="-19172">
		<tag k="name" v="Revhaugen" />
		<tag k="natural" v="hill" />
		<tag k="place" v="locality" />
		<tag k="ssr:stedsnr" v="162419" />
	</node>
	<node lat="61.15327777990686" lon="10.471427769334174" id="-19179">
		<tag k="name" v="Menkelia" />
		<tag k="natural" v="slope" />
		<tag k="place" v="locality" />
		<tag k="ssr:stedsnr" v="162681" />
	</node>
	<node lat="61.09291944816447" lon="10.074822225638362" id="-19180">
		<tag k="name" v="Hiberget" />
=======
	<node id="-304448" lat="61.1819749965" lon="10.3870444404">
		<tag k="name" v="Rugsveberget" />
>>>>>>> e1d4bc35ff8a6074a6f2e91616a996b547c36f15
		<tag k="natural" v="cliff" />
		<tag k="ssr:stedsnr" v="162894" />
	</node>
<<<<<<< HEAD
	<node lat="61.144441664617744" lon="10.550880560964112" id="-19191">
		<tag k="name" v="Finnsvehaugen" />
=======
	<node id="-304444" lat="61.1619194412" lon="10.4162361018">
		<tag k="name" v="Kjølgårdshaugen" />
>>>>>>> e1d4bc35ff8a6074a6f2e91616a996b547c36f15
		<tag k="natural" v="hill" />
		<tag k="place" v="locality" />
		<tag k="ssr:stedsnr" v="177809" />
	</node>
<<<<<<< HEAD
	<node lat="61.077091663490144" lon="10.30081388259017" id="-19196">
		<tag k="name" v="Kniphaugen" />
		<tag k="natural" v="hill" />
		<tag k="place" v="locality" />
		<tag k="ssr:stedsnr" v="188036" />
	</node>
	<node lat="61.1233833330037" lon="10.337452773402337" id="-19216">
		<tag k="fixme" v="consider natural=peak for the most distinct mountains in the district" />
		<tag k="name" v="Korsåsen" />
		<tag k="natural" v="hill" />
		<tag k="place" v="locality" />
		<tag k="ssr:stedsnr" v="190132" />
	</node>
	<node lat="61.183197225061434" lon="10.651922220527094" id="-19224">
		<tag k="name" v="Nordsæterfjellet" />
=======
	<node id="-304441" lat="61.0710638917" lon="10.19370834">
		<tag k="name" v="Kopnageln" />
>>>>>>> e1d4bc35ff8a6074a6f2e91616a996b547c36f15
		<tag k="natural" v="hill" />
		<tag k="place" v="locality" />
		<tag k="ssr:stedsnr" v="190885" />
	</node>
<<<<<<< HEAD
	<node lat="61.15338888798227" lon="10.425666659628959" id="-19232">
		<tag k="name" v="Kalykjeberget" />
		<tag k="natural" v="cliff" />
		<tag k="ssr:stedsnr" v="222847" />
	</node>
	<node lat="61.209513889271264" lon="10.391383337811844" id="-19243">
		<tag k="name" v="Bjørnhilia" />
		<tag k="natural" v="slope" />
=======
	<node id="-303928" lat="61.1017805555" lon="10.2748944487">
		<tag k="name" v="Amerika" />
>>>>>>> e1d4bc35ff8a6074a6f2e91616a996b547c36f15
		<tag k="place" v="locality" />
		<tag k="ssr:stedsnr" v="283536" />
	</node>
<<<<<<< HEAD
	<node lat="61.154280552039324" lon="10.452483327822362" id="-19244">
		<tag k="name" v="Langsletta" />
		<tag k="place" v="locality" />
		<tag k="ssr:stedsnr" v="283631" />
	</node>
	<node lat="61.122930554389455" lon="10.392975001576126" id="-19249">
		<tag k="name" v="Jørudbakken" />
		<tag k="natural" v="slope" />
		<tag k="place" v="locality" />
		<tag k="ssr:stedsnr" v="284357" />
	</node>
	<node lat="61.0780055538854" lon="10.313608324554119" id="-19254">
		<tag k="name" v="Knipplia" />
		<tag k="natural" v="slope" />
		<tag k="place" v="locality" />
		<tag k="ssr:stedsnr" v="292850" />
	</node>
	<node lat="61.09812500263119" lon="10.438999997640861" id="-19259">
		<tag k="name" v="Riselandet" />
		<tag k="place" v="locality" />
		<tag k="ssr:stedsnr" v="298645" />
	</node>
	<node lat="61.11383611005305" lon="10.530097229598839" id="-19260">
		<tag k="name" v="Baklia" />
		<tag k="natural" v="slope" />
=======
	<node id="-304436" lat="61.1330194425" lon="10.3554083341">
		<tag k="fixme" v="consider natural=peak for the most distinct mountains in the district" />
		<tag k="name" v="Fuglbakken" />
		<tag k="natural" v="hill" />
>>>>>>> e1d4bc35ff8a6074a6f2e91616a996b547c36f15
		<tag k="place" v="locality" />
		<tag k="ssr:stedsnr" v="298721" />
	</node>
<<<<<<< HEAD
	<node lat="61.21428333429321" lon="10.346947226787886" id="-19273">
		<tag k="name" v="Trolldalen" />
		<tag k="natural" v="valley" />
=======
	<node id="-303923" lat="61.2138166677" lon="10.3413999926">
		<tag k="name" v="Landskampen" />
		<tag k="natural" v="hill" />
>>>>>>> e1d4bc35ff8a6074a6f2e91616a996b547c36f15
		<tag k="place" v="locality" />
		<tag k="ssr:stedsnr" v="311223" />
	</node>
<<<<<<< HEAD
	<node lat="61.19692895868441" lon="10.544406929930993" id="-19286">
=======
	<node id="-304435" lat="61.1380444454" lon="10.5676722294">
		<tag k="name" v="Inngjerdingshaugen" />
		<tag k="natural" v="hill" />
		<tag k="place" v="locality" />
		<tag k="ssr:stedsnr" v="311959" />
	</node>
	<node id="-304430" lat="61.1969289587" lon="10.5444069299">
>>>>>>> e1d4bc35ff8a6074a6f2e91616a996b547c36f15
		<tag k="alt_name" v="Turthaugen" />
		<tag k="name" v="Turthaugane" />
		<tag k="natural" v="hill" />
		<tag k="place" v="locality" />
		<tag k="ssr:stedsnr" v="311937" />
	</node>
<<<<<<< HEAD
	<node lat="61.13804444541558" lon="10.567672229394855" id="-19291">
		<tag k="name" v="Inngjerdingshaugen" />
=======
	<node id="-304425" lat="61.1751305574" lon="10.664702772">
		<tag k="fixme" v="consider natural=peak for the most distinct mountains in the district" />
		<tag k="name" v="Lunkefjell" />
>>>>>>> e1d4bc35ff8a6074a6f2e91616a996b547c36f15
		<tag k="natural" v="hill" />
		<tag k="place" v="locality" />
		<tag k="ssr:stedsnr" v="311959" />
	</node>
<<<<<<< HEAD
	<node lat="61.13301944250339" lon="10.355408334127263" id="-19292">
=======
	<node id="-304424" lat="61.178847219" lon="10.5115611023">
>>>>>>> e1d4bc35ff8a6074a6f2e91616a996b547c36f15
		<tag k="fixme" v="consider natural=peak for the most distinct mountains in the district" />
		<tag k="name" v="Fuglbakken" />
		<tag k="natural" v="hill" />
		<tag k="place" v="locality" />
		<tag k="ssr:stedsnr" v="311965" />
	</node>
<<<<<<< HEAD
	<node lat="61.036611115196095" lon="10.401980552345215" id="-19294">
		<tag k="name" v="Hågåsletta" />
		<tag k="place" v="locality" />
		<tag k="ssr:stedsnr" v="344574" />
	</node>
	<node lat="61.16191944118584" lon="10.41623610182315" id="-19295">
		<tag k="name" v="Kjølgårdshaugen" />
		<tag k="natural" v="hill" />
=======
	<node id="-304417" lat="61.0571333357" lon="10.3513138814">
		<tag k="name" v="Djupdalen" />
		<tag k="natural" v="valley" />
>>>>>>> e1d4bc35ff8a6074a6f2e91616a996b547c36f15
		<tag k="place" v="locality" />
		<tag k="ssr:stedsnr" v="344578" />
	</node>
<<<<<<< HEAD
	<node lat="61.18197499648514" lon="10.38704444043474" id="-19298">
		<tag k="name" v="Rugsveberget" />
		<tag k="natural" v="cliff" />
		<tag k="ssr:stedsnr" v="344524" />
	</node>
	<node lat="61.09533611307094" lon="10.413872216012688" id="-19312">
		<tag k="name" v="Vottestadkampen" />
=======
	<node id="-304406" lat="61.2142833343" lon="10.3469472268">
		<tag k="name" v="Trolldalen" />
		<tag k="natural" v="valley" />
		<tag k="place" v="locality" />
		<tag k="ssr:stedsnr" v="311223" />
	</node>
	<node id="-304403" lat="61.2340888879" lon="10.4012611047">
		<tag k="name" v="Hokneknappen" />
>>>>>>> e1d4bc35ff8a6074a6f2e91616a996b547c36f15
		<tag k="natural" v="hill" />
		<tag k="place" v="locality" />
		<tag k="ssr:stedsnr" v="359489" />
	</node>
<<<<<<< HEAD
	<node lat="61.18747222220121" lon="10.6266416695246" id="-19313">
		<tag k="name" v="Snauskallen" />
=======
	<node id="-303886" lat="61.2159916682" lon="10.7070055568">
		<tag k="name" v="Mellsjøhøgda" />
>>>>>>> e1d4bc35ff8a6074a6f2e91616a996b547c36f15
		<tag k="natural" v="hill" />
		<tag k="place" v="locality" />
		<tag k="ssr:stedsnr" v="359588" />
	</node>
<<<<<<< HEAD
	<node lat="61.18331666369929" lon="10.621294452162672" id="-19316">
		<tag k="name" v="Kaus" />
=======
	<node id="-303883" lat="61.06046389" lon="10.2340305512">
		<tag k="alt_name" v="Sjoghaugen" />
		<tag k="name" v="Sjogehaugen" />
		<tag k="natural" v="hill" />
>>>>>>> e1d4bc35ff8a6074a6f2e91616a996b547c36f15
		<tag k="place" v="locality" />
		<tag k="ssr:stedsnr" v="359546" />
	</node>
<<<<<<< HEAD
	<node lat="61.23951944139729" lon="10.370497216011232" id="-19322">
		<tag k="fixme" v="consider natural=peak for the most distinct mountains in the district" />
		<tag k="name" v="Lønstølhaugen" />
=======
	<node id="-304383" lat="61.1831972251" lon="10.6519222205">
		<tag k="name" v="Nordsæterfjellet" />
>>>>>>> e1d4bc35ff8a6074a6f2e91616a996b547c36f15
		<tag k="natural" v="hill" />
		<tag k="place" v="locality" />
		<tag k="ssr:stedsnr" v="371132" />
	</node>
<<<<<<< HEAD
	<node lat="61.12105833739459" lon="10.071305558029598" id="-19325">
		<tag k="fixme" v="multiple name tags, choose one and add the other to alt_name; consider natural=peak for the most distinct mountains in the district" />
		<tag k="name" v="Skjellbreida;Skjellbreidsfjellet" />
=======
	<node id="-303866" lat="61.1262555575" lon="10.5775777718">
		<tag k="name" v="Mesnhaugen" />
>>>>>>> e1d4bc35ff8a6074a6f2e91616a996b547c36f15
		<tag k="natural" v="hill" />
		<tag k="place" v="locality" />
		<tag k="ssr:stedsnr" v="371091" />
	</node>
<<<<<<< HEAD
	<node lat="61.1150305535506" lon="10.346936107668142" id="-19330">
		<tag k="name" v="Tjernshaugen" />
		<tag k="natural" v="hill" />
		<tag k="place" v="locality" />
		<tag k="ssr:stedsnr" v="371810" />
	</node>
	<node lat="61.177930551821156" lon="10.580047230991408" id="-19336">
=======
	<node id="-303743" lat="61.1137166644" lon="10.1174305598">
		<tag k="name" v="Veslehaugen" />
		<tag k="natural" v="hill" />
		<tag k="place" v="locality" />
		<tag k="ssr:stedsnr" v="655817" />
	</node>
	<node id="-304375" lat="61.123383333" lon="10.3374527734">
		<tag k="fixme" v="consider natural=peak for the most distinct mountains in the district" />
		<tag k="name" v="Korsåsen" />
		<tag k="natural" v="hill" />
		<tag k="place" v="locality" />
		<tag k="ssr:stedsnr" v="190132" />
	</node>
	<node id="-303856" lat="61.1804361096" lon="10.2204944443">
>>>>>>> e1d4bc35ff8a6074a6f2e91616a996b547c36f15
		<tag k="fixme" v="consider natural=peak for the most distinct mountains in the district" />
		<tag k="name" v="Grøtåshaugen" />
		<tag k="natural" v="hill" />
		<tag k="place" v="locality" />
<<<<<<< HEAD
		<tag k="ssr:stedsnr" v="371897" />
	</node>
	<node lat="61.100369447284024" lon="10.071513884318424" id="-19338">
		<tag k="alt_name" v="Bleikjefjellet" />
		<tag k="fixme" v="consider natural=peak for the most distinct mountains in the district" />
		<tag k="name" v="Bleikefjellet" />
		<tag k="natural" v="hill" />
=======
		<tag k="ssr:stedsnr" v="614380" />
	</node>
	<node id="-303851" lat="61.1552083378" lon="10.5766999934">
		<tag k="name" v="Sjødalslia" />
		<tag k="natural" v="slope" />
		<tag k="place" v="locality" />
		<tag k="ssr:stedsnr" v="601833" />
	</node>
	<node id="-303850" lat="61.163591667" lon="10.5946277689">
		<tag k="name" v="Svahella" />
>>>>>>> e1d4bc35ff8a6074a6f2e91616a996b547c36f15
		<tag k="place" v="locality" />
		<tag k="ssr:stedsnr" v="372036" />
	</node>
<<<<<<< HEAD
	<node lat="61.109580551318054" lon="10.411816670207342" id="-19344">
		<tag k="name" v="Korpeberget" />
		<tag k="natural" v="hill" />
		<tag k="place" v="locality" />
		<tag k="ssr:stedsnr" v="372836" />
	</node>
	<node lat="61.1674583344719" lon="10.42399443830907" id="-19346">
		<tag k="name" v="Døldbakken" />
=======
	<node id="-303846" lat="61.1055611068" lon="10.0870333332">
		<tag k="name" v="Saltbakken" />
>>>>>>> e1d4bc35ff8a6074a6f2e91616a996b547c36f15
		<tag k="natural" v="slope" />
		<tag k="place" v="locality" />
		<tag k="ssr:stedsnr" v="404852" />
	</node>
<<<<<<< HEAD
	<node lat="61.20848055165344" lon="10.378288888147859" id="-19351">
		<tag k="name" v="Trolldalen" />
		<tag k="natural" v="valley" />
=======
	<node id="-304861" lat="61.1107027742" lon="10.6028388882">
		<tag k="name" v="Baklia" />
		<tag k="natural" v="slope" />
>>>>>>> e1d4bc35ff8a6074a6f2e91616a996b547c36f15
		<tag k="place" v="locality" />
		<tag k="ssr:stedsnr" v="405618" />
	</node>
<<<<<<< HEAD
	<node lat="61.1050527802648" lon="10.495644448909973" id="-19365">
		<tag k="name" v="Saudalen" />
		<tag k="natural" v="valley" />
=======
	<node id="-303836" lat="61.2028305542" lon="10.4161944526">
		<tag k="name" v="Brattsveen" />
		<tag k="natural" v="slope" />
>>>>>>> e1d4bc35ff8a6074a6f2e91616a996b547c36f15
		<tag k="place" v="locality" />
		<tag k="ssr:stedsnr" v="420763" />
	</node>
<<<<<<< HEAD
	<node lat="61.165927774697224" lon="10.50016111662008" id="-19370">
		<tag k="name" v="Høgrabben" />
=======
	<node id="-303833" lat="61.0890611153" lon="10.0560194387">
		<tag k="fixme" v="consider natural=peak for the most distinct mountains in the district" />
		<tag k="name" v="Kufjellflågån" />
>>>>>>> e1d4bc35ff8a6074a6f2e91616a996b547c36f15
		<tag k="natural" v="hill" />
		<tag k="place" v="locality" />
		<tag k="ssr:stedsnr" v="420861" />
	</node>
<<<<<<< HEAD
	<node lat="61.14161666659152" lon="10.279361110527223" id="-19374">
		<tag k="name" v="Turtdalshøgda" />
=======
	<node id="-304341" lat="61.0770916635" lon="10.3008138826">
		<tag k="name" v="Kniphaugen" />
>>>>>>> e1d4bc35ff8a6074a6f2e91616a996b547c36f15
		<tag k="natural" v="hill" />
		<tag k="place" v="locality" />
		<tag k="ssr:stedsnr" v="432073" />
	</node>
<<<<<<< HEAD
	<node lat="61.108450001602854" lon="10.1997583270676" id="-19404">
		<tag k="name" v="Auggelia" />
		<tag k="natural" v="slope" />
		<tag k="place" v="locality" />
		<tag k="ssr:stedsnr" v="526441" />
	</node>
	<node lat="61.08555833691114" lon="10.273872219034693" id="-19406">
		<tag k="name" v="Bubekkdalen" />
		<tag k="natural" v="valley" />
=======
	<node id="-303824" lat="61.1219777765" lon="10.2182388963">
		<tag k="name" v="Bergslia" />
		<tag k="natural" v="slope" />
>>>>>>> e1d4bc35ff8a6074a6f2e91616a996b547c36f15
		<tag k="place" v="locality" />
		<tag k="ssr:stedsnr" v="526656" />
	</node>
<<<<<<< HEAD
	<node lat="61.10440833717871" lon="10.076102777636567" id="-19413">
		<tag k="name" v="Endrelia" />
=======
	<node id="-304844" lat="61.1073166679" lon="10.262075004">
		<tag k="name" v="Saksumslia" />
>>>>>>> e1d4bc35ff8a6074a6f2e91616a996b547c36f15
		<tag k="natural" v="slope" />
		<tag k="place" v="locality" />
		<tag k="ssr:stedsnr" v="534826" />
	</node>
<<<<<<< HEAD
	<node lat="61.16224999806755" lon="10.506269453455301" id="-19427">
		<tag k="name" v="Skotlimyrrabben" />
=======
	<node id="-304840" lat="61.1770083313" lon="10.4473916651">
		<tag k="fixme" v="consider natural=peak for the most distinct mountains in the district" />
		<tag k="name" v="Kvesåsen" />
>>>>>>> e1d4bc35ff8a6074a6f2e91616a996b547c36f15
		<tag k="natural" v="hill" />
		<tag k="place" v="locality" />
		<tag k="ssr:stedsnr" v="541861" />
	</node>
<<<<<<< HEAD
	<node lat="61.121969448136056" lon="10.070836116404175" id="-19431">
		<tag k="name" v="Myssmørhelje" />
		<tag k="natural" v="ridge" />
=======
	<node id="-304837" lat="61.1733027799" lon="10.4018166577">
		<tag k="name" v="Tolden" />
>>>>>>> e1d4bc35ff8a6074a6f2e91616a996b547c36f15
		<tag k="place" v="locality" />
		<tag k="ssr:stedsnr" v="553093" />
	</node>
<<<<<<< HEAD
	<node lat="61.19570277527328" lon="10.66096945270623" id="-19436">
		<tag k="fixme" v="consider natural=peak for the most distinct mountains in the district" />
		<tag k="name" v="Høgåsen" />
		<tag k="natural" v="hill" />
		<tag k="place" v="locality" />
		<tag k="ssr:stedsnr" v="553464" />
	</node>
	<node lat="61.130241669296105" lon="10.418755558320447" id="-19453">
		<tag k="name" v="Fagerholt" />
=======
	<node id="-304322" lat="61.0929194482" lon="10.0748222256">
		<tag k="name" v="Hiberget" />
		<tag k="natural" v="cliff" />
		<tag k="ssr:stedsnr" v="162894" />
	</node>
	<node id="-304317" lat="61.1532777799" lon="10.4714277693">
		<tag k="name" v="Menkelia" />
		<tag k="natural" v="slope" />
>>>>>>> e1d4bc35ff8a6074a6f2e91616a996b547c36f15
		<tag k="place" v="locality" />
		<tag k="ssr:stedsnr" v="587795" />
	</node>
<<<<<<< HEAD
	<node lat="61.1060416640913" lon="10.49550555962232" id="-19468">
		<tag k="name" v="Sauhaugen" />
		<tag k="natural" v="hill" />
=======
	<node id="-304314" lat="61.1687472234" lon="10.3978777776">
		<tag k="name" v="Jeistadroa" />
>>>>>>> e1d4bc35ff8a6074a6f2e91616a996b547c36f15
		<tag k="place" v="locality" />
		<tag k="ssr:stedsnr" v="601739" />
	</node>
<<<<<<< HEAD
	<node lat="61.155208337803366" lon="10.576699993370719" id="-19469">
		<tag k="name" v="Sjødalslia" />
=======
	<node id="-303800" lat="61.1084500016" lon="10.1997583271">
		<tag k="name" v="Auggelia" />
>>>>>>> e1d4bc35ff8a6074a6f2e91616a996b547c36f15
		<tag k="natural" v="slope" />
		<tag k="place" v="locality" />
		<tag k="ssr:stedsnr" v="601833" />
	</node>
<<<<<<< HEAD
	<node lat="61.17133333062577" lon="10.611158333627328" id="-19475">
		<tag k="name" v="Sandbakken" />
=======
	<node id="-303799" lat="61.1057388917" lon="10.2257388831">
		<tag k="name" v="Sveseterlia" />
		<tag k="natural" v="slope" />
>>>>>>> e1d4bc35ff8a6074a6f2e91616a996b547c36f15
		<tag k="place" v="locality" />
		<tag k="ssr:stedsnr" v="602525" />
	</node>
<<<<<<< HEAD
	<node lat="61.18043610961678" lon="10.220494444345702" id="-19496">
=======
	<node id="-304822" lat="61.1277055518" lon="10.2682722267">
>>>>>>> e1d4bc35ff8a6074a6f2e91616a996b547c36f15
		<tag k="fixme" v="consider natural=peak for the most distinct mountains in the district" />
		<tag k="name" v="Kinnkjølen" />
		<tag k="natural" v="hill" />
		<tag k="place" v="locality" />
		<tag k="ssr:stedsnr" v="614380" />
	</node>
<<<<<<< HEAD
	<node lat="61.11371666441995" lon="10.11743055979352" id="-19515">
		<tag k="name" v="Veslehaugen" />
=======
	<node id="-303781" lat="61.1574305578" lon="10.5809555493">
		<tag k="name" v="Geitryggen" />
>>>>>>> e1d4bc35ff8a6074a6f2e91616a996b547c36f15
		<tag k="natural" v="hill" />
		<tag k="place" v="locality" />
		<tag k="ssr:stedsnr" v="655817" />
	</node>
<<<<<<< HEAD
	<node lat="61.060463889988505" lon="10.234030551194895" id="-19548">
		<tag k="alt_name" v="Sjoghaugen" />
		<tag k="name" v="Sjogehaugen" />
		<tag k="natural" v="hill" />
		<tag k="place" v="locality" />
		<tag k="ssr:stedsnr" v="735053" />
	</node>
	<node lat="61.21599166822731" lon="10.707005556841247" id="-19550">
		<tag k="name" v="Mellsjøhøgda" />
		<tag k="natural" v="hill" />
=======
	<node id="-304287" lat="61.1350222191" lon="10.3399694359">
		<tag k="name" v="Ljøsbakken" />
		<tag k="natural" v="slope" />
		<tag k="place" v="locality" />
		<tag k="ssr:stedsnr" v="128939" />
	</node>
	<node id="-303773" lat="61.0922583301" lon="10.0753194394">
		<tag k="name" v="Bokkesletta" />
		<tag k="place" v="locality" />
		<tag k="ssr:stedsnr" v="466920" />
	</node>
	<node id="-304796" lat="61.1565666655" lon="10.4033416606">
		<tag k="name" v="Hellberget" />
>>>>>>> e1d4bc35ff8a6074a6f2e91616a996b547c36f15
		<tag k="place" v="locality" />
		<tag k="ssr:stedsnr" v="735174" />
	</node>
<<<<<<< HEAD
	<node lat="61.162977777487434" lon="10.466061105750805" id="-19572">
		<tag k="name" v="Lundesvelia" />
=======
	<node id="-304795" lat="61.1175666675" lon="10.2323972221">
		<tag k="name" v="Rindalslia" />
>>>>>>> e1d4bc35ff8a6074a6f2e91616a996b547c36f15
		<tag k="natural" v="slope" />
		<tag k="place" v="locality" />
		<tag k="ssr:stedsnr" v="768659" />
	</node>
<<<<<<< HEAD
	<node lat="61.18405833120018" lon="10.221302768922397" id="-19573">
		<tag k="fixme" v="consider natural=peak for the most distinct mountains in the district" />
		<tag k="name" v="Stølkjølen" />
=======
	<node id="-304794" lat="61.2285027775" lon="10.4100083358">
		<tag k="name" v="Husekampen" />
>>>>>>> e1d4bc35ff8a6074a6f2e91616a996b547c36f15
		<tag k="natural" v="hill" />
		<tag k="place" v="locality" />
		<tag k="ssr:stedsnr" v="769238" />
	</node>
<<<<<<< HEAD
	<node lat="61.15690000268531" lon="10.486613895251887" id="-19593">
		<tag k="name" v="Sjøseterhøgda" />
		<tag k="natural" v="hill" />
=======
	<node id="-303769" lat="61.1729055511" lon="10.4647555614">
		<tag k="name" v="Esdragsletta" />
>>>>>>> e1d4bc35ff8a6074a6f2e91616a996b547c36f15
		<tag k="place" v="locality" />
		<tag k="ssr:stedsnr" v="784865" />
	</node>
<<<<<<< HEAD
	<node lat="61.11756666750378" lon="10.232397222131738" id="-19633">
		<tag k="name" v="Rindalslia" />
		<tag k="natural" v="slope" />
=======
	<node id="-303556" lat="61.0936055548" lon="10.1033333268">
		<tag k="name" v="Lunkehaugen" />
		<tag k="natural" v="hill" />
		<tag k="place" v="locality" />
		<tag k="ssr:stedsnr" v="162914" />
	</node>
	<node id="-303764" lat="61.0684138847" lon="10.1416305521">
		<tag k="name" v="Svartdalen" />
		<tag k="natural" v="valley" />
>>>>>>> e1d4bc35ff8a6074a6f2e91616a996b547c36f15
		<tag k="place" v="locality" />
		<tag k="ssr:stedsnr" v="830402" />
	</node>
<<<<<<< HEAD
	<node lat="61.15647500097201" lon="10.44284721608534" id="-19665">
		<tag k="fixme" v="multiple name tags, choose one and add the other to alt_name" />
		<tag k="name" v="Balbergkampen;Vardhøgda" />
=======
	<node id="-304274" lat="61.1264805598" lon="10.3202055493">
		<tag k="fixme" v="consider natural=peak for the most distinct mountains in the district" />
		<tag k="name" v="Korsåsen" />
>>>>>>> e1d4bc35ff8a6074a6f2e91616a996b547c36f15
		<tag k="natural" v="hill" />
		<tag k="place" v="locality" />
		<tag k="ssr:stedsnr" v="858961" />
	</node>
<<<<<<< HEAD
	<node lat="61.21381666767607" lon="10.341399992557605" id="-19667">
		<tag k="name" v="Landskampen" />
=======
	<node id="-303752" lat="61.1444027743" lon="10.4724638842">
		<tag k="name" v="Hansvehaugen" />
>>>>>>> e1d4bc35ff8a6074a6f2e91616a996b547c36f15
		<tag k="natural" v="hill" />
		<tag k="place" v="locality" />
		<tag k="ssr:stedsnr" v="878283" />
	</node>
<<<<<<< HEAD
	<node lat="61.093555556805384" lon="10.279830563751691" id="-19668">
		<tag k="name" v="Hovlandsliene" />
		<tag k="natural" v="slope" />
=======
	<node id="-304256" lat="61.1728555542" lon="10.4033416581">
		<tag k="name" v="Skogsvarpet" />
>>>>>>> e1d4bc35ff8a6074a6f2e91616a996b547c36f15
		<tag k="place" v="locality" />
		<tag k="ssr:stedsnr" v="951659" />
	</node>
<<<<<<< HEAD
	<node lat="61.17330277986967" lon="10.401816657710514" id="-19675">
		<tag k="name" v="Tolden" />
=======
	<node id="-304255" lat="61.1824027749" lon="10.4118361101">
		<tag k="name" v="Drotten" />
>>>>>>> e1d4bc35ff8a6074a6f2e91616a996b547c36f15
		<tag k="place" v="locality" />
		<tag k="ssr:stedsnr" v="951240" />
	</node>
<<<<<<< HEAD
	<node lat="61.17622221825876" lon="10.388577785707232" id="-19678">
		<tag k="name" v="Nåsån" />
		<tag k="natural" v="hill" />
		<tag k="place" v="locality" />
		<tag k="ssr:stedsnr" v="951564" />
	</node>
	<node lat="61.10731666786579" lon="10.262075003999078" id="-19683">
		<tag k="name" v="Saksumslia" />
=======
	<node id="-304765" lat="61.1569000027" lon="10.4866138953">
		<tag k="name" v="Sjøseterhøgda" />
		<tag k="natural" v="hill" />
		<tag k="place" v="locality" />
		<tag k="ssr:stedsnr" v="784865" />
	</node>
	<node id="-304247" lat="61.1079027811" lon="10.1884555567">
		<tag k="name" v="Bergshaugen" />
		<tag k="natural" v="hill" />
		<tag k="place" v="locality" />
		<tag k="ssr:stedsnr" v="101439" />
	</node>
	<node id="-304246" lat="61.1124277822" lon="10.234683326">
		<tag k="name" v="Bekkebakken" />
>>>>>>> e1d4bc35ff8a6074a6f2e91616a996b547c36f15
		<tag k="natural" v="slope" />
		<tag k="place" v="locality" />
		<tag k="ssr:stedsnr" v="951946" />
	</node>
<<<<<<< HEAD
	<node lat="61.100711108177535" lon="10.536902770619792" id="-19690">
		<tag k="fixme" v="consider natural=peak for the most distinct mountains in the district" />
		<tag k="name" v="Askjellerudåsen" />
		<tag k="natural" v="hill" />
		<tag k="place" v="locality" />
		<tag k="ssr:stedsnr" v="965015" />
=======
	<node id="-304242" lat="61.0994388851" lon="10.1851527692">
		<tag k="name" v="Svartåsen" />
		<tag k="natural" v="hill" />
		<tag k="place" v="locality" />
		<tag k="ssr:stedsnr" v="101139" />
	</node>
	<node id="-303729" lat="61.134869443" lon="10.4183305528">
		<tag k="name" v="Kobberslagergrøpene" />
		<tag k="natural" v="valley" />
		<tag k="place" v="locality" />
		<tag k="ssr:stedsnr" v="405807" />
	</node>
	<node id="-303727" lat="61.2084805517" lon="10.3782888881">
		<tag k="name" v="Trolldalen" />
		<tag k="natural" v="valley" />
		<tag k="place" v="locality" />
		<tag k="ssr:stedsnr" v="405618" />
>>>>>>> e1d4bc35ff8a6074a6f2e91616a996b547c36f15
	</node>
	<node id="-303725" lat="61.1674583345" lon="10.4239944383">
		<tag k="name" v="Døldbakken" />
		<tag k="natural" v="slope" />
		<tag k="place" v="locality" />
		<tag k="ssr:stedsnr" v="404852" />
	</node>
	<node id="-304234" lat="61.1513361097" lon="10.4597999962">
		<tag k="name" v="Rundhaugen" />
		<tag k="natural" v="hill" />
		<tag k="place" v="locality" />
		<tag k="ssr:stedsnr" v="68982" />
	</node>
	<node id="-303720" lat="61.1698166645" lon="10.4787611151">
		<tag k="name" v="Rabben" />
		<tag k="natural" v="slope" />
		<tag k="place" v="locality" />
		<tag k="ssr:stedsnr" v="372918" />
	</node>
	<node id="-304060" lat="61.2070027802" lon="10.651252787">
		<tag k="alt_name" v="Nysæterhøgda, indre" />
		<tag k="name" v="Indre Nysæterhøgda" />
		<tag k="natural" v="hill" />
		<tag k="place" v="locality" />
		<tag k="ssr:stedsnr" v="857904" />
	</node>
	<node id="-304741" lat="61.1840583312" lon="10.2213027689">
		<tag k="fixme" v="consider natural=peak for the most distinct mountains in the district" />
		<tag k="name" v="Stølkjølen" />
		<tag k="natural" v="hill" />
		<tag k="place" v="locality" />
		<tag k="ssr:stedsnr" v="769238" />
	</node>
	<node id="-303715" lat="61.1150305536" lon="10.3469361077">
		<tag k="name" v="Tjernshaugen" />
		<tag k="natural" v="hill" />
		<tag k="place" v="locality" />
		<tag k="ssr:stedsnr" v="371810" />
	</node>
	<node id="-304226" lat="61.2010916645" lon="10.6401666683">
		<tag k="alt_name" v="Nysæterhøgda, ytre" />
		<tag k="name" v="Ytre Nysæterhøgda" />
		<tag k="natural" v="hill" />
		<tag k="place" v="locality" />
		<tag k="ssr:stedsnr" v="68915" />
	</node>
	<node id="-303712" lat="61.2395194414" lon="10.370497216">
		<tag k="fixme" v="consider natural=peak for the most distinct mountains in the district" />
		<tag k="name" v="Lønstølhaugen" />
		<tag k="natural" v="hill" />
		<tag k="place" v="locality" />
		<tag k="ssr:stedsnr" v="371132" />
	</node>
	<node id="-303706" lat="61.1897777785" lon="10.5851250041">
		<tag k="name" v="Skogshaugen" />
		<tag k="natural" v="hill" />
		<tag k="place" v="locality" />
		<tag k="ssr:stedsnr" v="493938" />
	</node>
	<node id="-303705" lat="61.1996055543" lon="10.5840166655">
		<tag k="name" v="Fjelldokka" />
		<tag k="natural" v="valley" />
		<tag k="place" v="locality" />
		<tag k="ssr:stedsnr" v="493928" />
	</node>
	<node id="-303697" lat="61.1059249977" lon="10.5661194531">
		<tag k="fixme" v="consider natural=peak for the most distinct mountains in the district" />
		<tag k="name" v="Sollihøgda" />
		<tag k="natural" v="hill" />
		<tag k="place" v="locality" />
		<tag k="ssr:stedsnr" v="493768" />
	</node>
	<node id="-303689" lat="61.1184777776" lon="10.1171166591">
		<tag k="name" v="Storhaugen" />
		<tag k="natural" v="hill" />
		<tag k="place" v="locality" />
		<tag k="ssr:stedsnr" v="493123" />
	</node>
	<node id="-303685" lat="61.1096861088" lon="10.0753722164">
		<tag k="name" v="Prestkjerringa" />
		<tag k="natural" v="hill" />
		<tag k="place" v="locality" />
		<tag k="ssr:stedsnr" v="493001" />
	</node>
	<node id="-304706" lat="61.1841861084" lon="10.553091674">
		<tag k="name" v="Kruggerudberget" />
		<tag k="natural" v="hill" />
		<tag k="place" v="locality" />
		<tag k="ssr:stedsnr" v="629298" />
	</node>
	<node id="-304193" lat="61.0668000001" lon="10.3308027817">
		<tag k="name" v="Stillia" />
		<tag k="natural" v="slope" />
		<tag k="place" v="locality" />
		<tag k="ssr:stedsnr" v="49840" />
	</node>
	<node id="-304699" lat="61.1618083299" lon="10.6526055543">
		<tag k="fixme" v="consider natural=peak for the most distinct mountains in the district" />
		<tag k="name" v="Heståsen" />
		<tag k="natural" v="hill" />
		<tag k="place" v="locality" />
		<tag k="ssr:stedsnr" v="614898" />
	</node>
	<node id="-304184" lat="61.1705555554" lon="10.4010083347">
		<tag k="name" v="Lortvarpet" />
		<tag k="place" v="locality" />
		<tag k="ssr:stedsnr" v="41249" />
	</node>
	<node id="-303668" lat="61.0452972214" lon="10.4307333255">
		<tag k="name" v="Moalunden" />
		<tag k="place" v="locality" />
		<tag k="ssr:stedsnr" v="359320" />
	</node>
	<node id="-303664" lat="61.0390972183" lon="10.2609166745">
		<tag k="name" v="Fløythaugen" />
		<tag k="natural" v="hill" />
		<tag k="place" v="locality" />
		<tag k="ssr:stedsnr" v="492152" />
	</node>
	<node id="-304069" lat="61.1103833369" lon="10.0903888871">
		<tag k="name" v="Sladrehaugen" />
		<tag k="natural" v="hill" />
		<tag k="place" v="locality" />
		<tag k="ssr:stedsnr" v="898817" />
	</node>
	<node id="-303661" lat="61.1546444458" lon="10.440236113">
		<tag k="name" v="Varddokka" />
		<tag k="natural" v="valley" />
		<tag k="place" v="locality" />
		<tag k="ssr:stedsnr" v="344859" />
	</node>
	<node id="-303659" lat="61.0366111152" lon="10.4019805523">
		<tag k="name" v="Hågåsletta" />
		<tag k="place" v="locality" />
		<tag k="ssr:stedsnr" v="344574" />
	</node>
	<node id="-303656" lat="61.1890250022" lon="10.3648638818">
		<tag k="name" v="Tjernshaugen" />
		<tag k="natural" v="hill" />
		<tag k="place" v="locality" />
		<tag k="ssr:stedsnr" v="344603" />
	</node>
	<node id="-303813" lat="61.1908111117" lon="10.6783111065">
		<tag k="name" v="Grønnbekkdalen" />
		<tag k="natural" v="valley" />
		<tag k="place" v="locality" />
		<tag k="ssr:stedsnr" v="541579" />
	</node>
	<node id="-304674" lat="61.1713333306" lon="10.6111583336">
		<tag k="name" v="Sandbakken" />
		<tag k="place" v="locality" />
		<tag k="ssr:stedsnr" v="602525" />
	</node>
	<node id="-304155" lat="61.2180250014" lon="10.3569583317">
		<tag k="name" v="Svartdalen" />
		<tag k="natural" v="valley" />
		<tag k="place" v="locality" />
		<tag k="ssr:stedsnr" v="7182" />
	</node>
	<node id="-303642" lat="61.0732750017" lon="10.3471638903">
		<tag k="name" v="Døslia" />
		<tag k="natural" v="slope" />
		<tag k="place" v="locality" />
		<tag k="ssr:stedsnr" v="473865" />
	</node>
	<node id="-303639" lat="61.1182888861" lon="10.079563895">
		<tag k="name" v="Skjellbreidsfjellet" />
		<tag k="natural" v="hill" />
		<tag k="place" v="locality" />
		<tag k="ssr:stedsnr" v="473835" />
	</node>
	<node id="-303638" lat="61.116602774" lon="10.0972472294">
		<tag k="name" v="Kokslihaugen" />
		<tag k="natural" v="hill" />
		<tag k="place" v="locality" />
		<tag k="ssr:stedsnr" v="473824" />
	</node>
	<node id="-304661" lat="61.1060416641" lon="10.4955055596">
		<tag k="name" v="Sauhaugen" />
		<tag k="natural" v="hill" />
		<tag k="place" v="locality" />
		<tag k="ssr:stedsnr" v="601739" />
	</node>
	<node id="-303447" lat="61.2200305558" lon="10.3664861157">
		<tag k="fixme" v="consider natural=peak for the most distinct mountains in the district" />
		<tag k="name" v="Bakseterkjølen" />
		<tag k="natural" v="hill" />
		<tag k="place" v="locality" />
		<tag k="ssr:stedsnr" v="223204" />
	</node>
	<node id="-303624" lat="61.162730555" lon="10.3951027761">
		<tag k="name" v="Rundtomodden" />
		<tag k="place" v="locality" />
		<tag k="ssr:stedsnr" v="465549" />
	</node>
	<node id="-304187" lat="61.1137305557" lon="10.246480556">
		<tag k="name" v="Sveslia" />
		<tag k="natural" v="slope" />
		<tag k="place" v="locality" />
		<tag k="ssr:stedsnr" v="41937" />
	</node>
	<node id="-304643" lat="61.1302416693" lon="10.4187555583">
		<tag k="name" v="Fagerholt" />
		<tag k="place" v="locality" />
		<tag k="ssr:stedsnr" v="587795" />
	</node>
</osm>
