<?xml version="1.0" encoding="UTF-8"?>
<<<<<<< HEAD
<osm version="0.6" generator="osmapis">
	<node lat="61.052830559349786" lon="10.255794441108849" id="-18295">
		<tag k="name" v="Vassendmyra" />
		<tag k="natural" v="wetland" />
		<tag k="ssr:stedsnr" v="230840" />
	</node>
	<node lat="61.10894444395612" lon="10.146022225951386" id="-18299">
		<tag k="name" v="Gråbeinmyra" />
		<tag k="natural" v="wetland" />
		<tag k="ssr:stedsnr" v="8011" />
	</node>
	<node lat="61.175933333458524" lon="10.515977774187695" id="-18309">
		<tag k="name" v="Gropmarka" />
		<tag k="place" v="locality" />
		<tag k="ssr:stedsnr" v="20445" />
	</node>
	<node lat="61.07828333667054" lon="10.48685556121136" id="-18317">
		<tag k="name" v="Bergumsmyra" />
		<tag k="natural" v="wetland" />
		<tag k="ssr:stedsnr" v="237796" />
	</node>
	<node lat="61.10556666730502" lon="10.265066671045997" id="-18336">
		<tag k="name" v="Hågåmyra" />
		<tag k="natural" v="wetland" />
		<tag k="ssr:stedsnr" v="68004" />
	</node>
	<node lat="61.03202500138438" lon="10.333363884346827" id="-18356">
		<tag k="name" v="Mosheimslåtten" />
		<tag k="place" v="locality" />
		<tag k="ssr:stedsnr" v="101381" />
	</node>
	<node lat="61.19587499669648" lon="10.312200003862413" id="-18371">
		<tag k="landuse" v="meadow" />
		<tag k="name" v="Tølløvlykkja" />
		<tag k="ssr:stedsnr" v="250395" />
	</node>
	<node lat="61.07988888654749" lon="10.536058328625515" id="-18381">
		<tag k="name" v="Menkerudmyra" />
		<tag k="natural" v="wetland" />
		<tag k="ssr:stedsnr" v="116804" />
	</node>
	<node lat="61.10337778045145" lon="10.371708328051067" id="-18389">
		<tag k="name" v="Hølbekkmyra" />
		<tag k="natural" v="wetland" />
		<tag k="ssr:stedsnr" v="250786" />
	</node>
	<node lat="61.19098610683886" lon="10.518983324556437" id="-18394">
		<tag k="name" v="Turthaugmyra" />
		<tag k="natural" v="wetland" />
		<tag k="ssr:stedsnr" v="250912" />
	</node>
	<node lat="61.18016944209311" lon="10.523397230432364" id="-18397">
		<tag k="name" v="Langkloppmyra" />
		<tag k="natural" v="wetland" />
		<tag k="ssr:stedsnr" v="250921" />
	</node>
	<node lat="61.16170277786898" lon="10.499013894613226" id="-18403">
		<tag k="name" v="Skotlimyra" />
		<tag k="natural" v="wetland" />
		<tag k="ssr:stedsnr" v="250960" />
	</node>
	<node lat="61.15780555259349" lon="10.516799993999417" id="-18404">
		<tag k="name" v="Flømyra" />
		<tag k="natural" v="wetland" />
		<tag k="ssr:stedsnr" v="250962" />
	</node>
	<node lat="61.082388889183555" lon="10.118663888455359" id="-18410">
		<tag k="alt_name" v="Svartdalsetra" />
		<tag k="historic" v="shieling" />
		<tag k="name" v="Svartdalen" />
		<tag k="place" v="locality" />
		<tag k="ssr:stedsnr" v="128038" />
	</node>
	<node lat="61.04532500255323" lon="10.28519999276344" id="-18448">
		<tag k="name" v="Fjellmyra" />
		<tag k="natural" v="wetland" />
		<tag k="ssr:stedsnr" v="189172" />
	</node>
	<node lat="61.07247500093826" lon="10.197599991005756" id="-18475">
		<tag k="name" v="Kopnagelmyra" />
		<tag k="natural" v="wetland" />
		<tag k="ssr:stedsnr" v="223191" />
	</node>
	<node lat="61.06249722249152" lon="10.413150000124459" id="-18484">
		<tag k="name" v="Stubberud" />
		<tag k="place" v="locality" />
		<tag k="ssr:stedsnr" v="238706" />
	</node>
	<node lat="61.08752777888163" lon="10.547455554425031" id="-18516">
		<tag k="name" v="Stormyra" />
		<tag k="natural" v="wetland" />
		<tag k="ssr:stedsnr" v="310841" />
	</node>
	<node lat="61.136430556911776" lon="10.255358330256316" id="-18521">
		<tag k="name" v="Stormyra" />
		<tag k="natural" v="wetland" />
		<tag k="ssr:stedsnr" v="311124" />
	</node>
	<node lat="61.13639999601828" lon="10.267613891197215" id="-18523">
		<tag k="name" v="Rundmyra" />
		<tag k="natural" v="wetland" />
		<tag k="ssr:stedsnr" v="311127" />
	</node>
	<node lat="61.18871111560224" lon="10.467944444268415" id="-18526">
		<tag k="name" v="Sagteigen" />
		<tag k="place" v="locality" />
		<tag k="ssr:stedsnr" v="466261" />
	</node>
	<node lat="61.175513892796616" lon="10.44010833117653" id="-18528">
		<tag k="name" v="Kolbu" />
		<tag k="place" v="locality" />
		<tag k="ssr:stedsnr" v="466268" />
	</node>
	<node lat="61.21990277572828" lon="10.392474991184088" id="-18530">
		<tag k="alt_name" v="Skålmyra, nedre" />
		<tag k="name" v="Nedre Skålmyra" />
		<tag k="natural" v="wetland" />
		<tag k="ssr:stedsnr" v="311212" />
	</node>
	<node lat="61.16019722285894" lon="10.401422226935203" id="-18557">
		<tag k="landuse" v="meadow" />
		<tag k="name" v="Evjudalen" />
		<tag k="ssr:stedsnr" v="344581" />
	</node>
	<node lat="61.11403333557146" lon="10.102986117390078" id="-18563">
		<tag k="name" v="Bustein" />
		<tag k="natural" v="stone" />
		<tag k="ssr:stedsnr" v="473821" />
	</node>
	<node lat="61.08395555487102" lon="10.179511116074885" id="-18570">
		<tag k="name" v="Borudmyra" />
		<tag k="natural" v="wetland" />
		<tag k="ssr:stedsnr" v="474800" />
	</node>
	<node lat="61.10706110698237" lon="10.548436104424717" id="-18575">
		<tag k="historic" v="shieling" />
		<tag k="name" v="Natterudstylen" />
		<tag k="place" v="locality" />
		<tag k="ssr:stedsnr" v="359408" />
	</node>
	<node lat="61.06941111118544" lon="10.511883329077598" id="-18577">
		<tag k="name" v="Svaberga" />
		<tag k="place" v="locality" />
		<tag k="ssr:stedsnr" v="359809" />
	</node>
	<node lat="61.13849444693932" lon="10.463275004440307" id="-18594">
		<tag k="name" v="Fagstadmyra" />
		<tag k="place" v="locality" />
		<tag k="ssr:stedsnr" v="480134" />
	</node>
	<node lat="61.104416665358244" lon="10.574597228218265" id="-18597">
		<tag k="historic" v="shieling" />
		<tag k="name" v="Stylen" />
		<tag k="place" v="locality" />
		<tag k="ssr:stedsnr" v="480354" />
	</node>
	<node lat="61.159722220463664" lon="10.492991672436784" id="-18602">
		<tag k="name" v="Langmyra" />
		<tag k="natural" v="wetland" />
		<tag k="ssr:stedsnr" v="480893" />
	</node>
	<node lat="61.20268611040086" lon="10.630255558255353" id="-18603">
		<tag k="name" v="Torvmyra" />
=======
<osm generator="osmapis" version="0.6">
	<node id="-304640" lat="61.2010805516" lon="10.3651999968">
		<tag k="name" v="Lønnmyra" />
>>>>>>> e1d4bc35ff8a6074a6f2e91616a996b547c36f15
		<tag k="natural" v="wetland" />
		<tag k="ssr:stedsnr" v="480933" />
	</node>
<<<<<<< HEAD
	<node lat="61.04829444751482" lon="10.228633325981082" id="-18605">
		<tag k="name" v="Mannmyra" />
=======
	<node id="-303610" lat="61.1494444417" lon="10.5360000018">
		<tag k="name" v="Stølmyra" />
>>>>>>> e1d4bc35ff8a6074a6f2e91616a996b547c36f15
		<tag k="natural" v="wetland" />
		<tag k="ssr:stedsnr" v="405193" />
	</node>
<<<<<<< HEAD
	<node lat="61.191416669298725" lon="10.543549991472178" id="-18628">
		<tag k="name" v="Eriksmyra" />
=======
	<node id="-304630" lat="61.166241669" lon="10.4448361061">
		<tag k="name" v="Vassmyra" />
>>>>>>> e1d4bc35ff8a6074a6f2e91616a996b547c36f15
		<tag k="natural" v="wetland" />
		<tag k="ssr:stedsnr" v="432926" />
	</node>
<<<<<<< HEAD
	<node lat="61.181244448544284" lon="10.362591664324967" id="-18631">
		<tag k="name" v="Snarsmyra" />
=======
	<node id="-304629" lat="61.1640333297" lon="10.4422250019">
		<tag k="name" v="Vardmyra" />
>>>>>>> e1d4bc35ff8a6074a6f2e91616a996b547c36f15
		<tag k="natural" v="wetland" />
		<tag k="ssr:stedsnr" v="432884" />
	</node>
<<<<<<< HEAD
	<node lat="61.15099166746281" lon="10.484847213204722" id="-18633">
		<tag k="name" v="Åsmyra" />
		<tag k="natural" v="wetland" />
		<tag k="ssr:stedsnr" v="432987" />
	</node>
	<node lat="61.17003888875776" lon="10.444861114499915" id="-18636">
		<tag k="name" v="Lortmyra" />
=======
	<node id="-303603" lat="61.0688555544" lon="10.3634499958">
		<tag k="name" v="Engmyra" />
		<tag k="place" v="locality" />
		<tag k="ssr:stedsnr" v="298680" />
	</node>
	<node id="-304621" lat="61.1759472207" lon="10.5527416685">
		<tag k="name" v="Stormyra" />
>>>>>>> e1d4bc35ff8a6074a6f2e91616a996b547c36f15
		<tag k="natural" v="wetland" />
		<tag k="ssr:stedsnr" v="433905" />
	</node>
<<<<<<< HEAD
	<node lat="61.098738892433" lon="10.380949998326509" id="-18641">
		<tag k="name" v="Vottestadlangmyra" />
=======
	<node id="-304100" lat="61.0347083316" lon="10.3562444369">
		<tag k="name" v="Sjursmyra" />
>>>>>>> e1d4bc35ff8a6074a6f2e91616a996b547c36f15
		<tag k="natural" v="wetland" />
		<tag k="ssr:stedsnr" v="492766" />
	</node>
<<<<<<< HEAD
	<node lat="61.15718055414081" lon="10.489761106296326" id="-18659">
		<tag k="name" v="Rundmyra" />
		<tag k="natural" v="wetland" />
		<tag k="ssr:stedsnr" v="493972" />
	</node>
	<node lat="61.18464426208687" lon="10.257498316750333" id="-18666">
		<tag k="name" v="Håvardslirønningen" />
		<tag k="place" v="locality" />
		<tag k="ssr:stedsnr" v="465716" />
	</node>
	<node lat="61.22556111173184" lon="10.388774991997304" id="-18678">
		<tag k="alt_name" v="Skålmyra, øvre" />
		<tag k="name" v="Øvre Skålmyra" />
		<tag k="natural" v="wetland" />
		<tag k="ssr:stedsnr" v="675178" />
	</node>
	<node lat="61.126305554054795" lon="10.511836113054096" id="-18686">
		<tag k="name" v="Bottilmyra" />
=======
	<node id="-303585" lat="61.1036500021" lon="10.291036105">
		<tag k="landuse" v="meadow" />
		<tag k="name" v="Nygårdsvolla" />
		<tag k="ssr:stedsnr" v="284840" />
	</node>
	<node id="-303674" lat="61.0987388924" lon="10.3809499983">
		<tag k="name" v="Vottestadlangmyra" />
		<tag k="natural" v="wetland" />
		<tag k="ssr:stedsnr" v="492766" />
	</node>
	<node id="-304087" lat="61.1060583293" lon="10.560705554">
		<tag k="name" v="Bånmyra" />
>>>>>>> e1d4bc35ff8a6074a6f2e91616a996b547c36f15
		<tag k="natural" v="wetland" />
		<tag k="ssr:stedsnr" v="675966" />
	</node>
<<<<<<< HEAD
	<node lat="61.03679444321339" lon="10.31934166792329" id="-18717">
		<tag k="name" v="Starrmyra" />
=======
	<node id="-304595" lat="61.1557916632" lon="10.5619361133">
		<tag k="name" v="Torvmyra" />
>>>>>>> e1d4bc35ff8a6074a6f2e91616a996b547c36f15
		<tag k="natural" v="wetland" />
		<tag k="ssr:stedsnr" v="526407" />
	</node>
<<<<<<< HEAD
	<node lat="61.122249999032164" lon="10.54659721683162" id="-18725">
=======
	<node id="-304590" lat="61.122249999" lon="10.5465972168">
>>>>>>> e1d4bc35ff8a6074a6f2e91616a996b547c36f15
		<tag k="name" v="Stormyra" />
		<tag k="natural" v="wetland" />
		<tag k="ssr:stedsnr" v="541408" />
	</node>
<<<<<<< HEAD
	<node lat="61.1223777760086" lon="10.631222215960026" id="-18729">
		<tag k="name" v="Øyamoen" />
=======
	<node id="-303565" lat="61.1590055588" lon="10.4580916706">
		<tag k="name" v="Knarudringen" />
>>>>>>> e1d4bc35ff8a6074a6f2e91616a996b547c36f15
		<tag k="place" v="locality" />
		<tag k="ssr:stedsnr" v="541606" />
	</node>
<<<<<<< HEAD
	<node lat="61.15579166315472" lon="10.56193611329366" id="-18734">
		<tag k="name" v="Torvmyra" />
=======
	<node id="-304587" lat="61.0562555567" lon="10.1682916671">
		<tag k="name" v="Goåsmyrene" />
>>>>>>> e1d4bc35ff8a6074a6f2e91616a996b547c36f15
		<tag k="natural" v="wetland" />
		<tag k="ssr:stedsnr" v="541869" />
	</node>
<<<<<<< HEAD
	<node lat="61.17594722069074" lon="10.552741668451347" id="-18749">
		<tag k="name" v="Stormyra" />
		<tag k="natural" v="wetland" />
		<tag k="ssr:stedsnr" v="553900" />
	</node>
	<node lat="61.099627734166994" lon="10.575956204309248" id="-18766">
=======
	<node id="-303559" lat="61.0330472191" lon="10.3491027822">
		<tag k="name" v="Spakrudmyra" />
		<tag k="natural" v="wetland" />
		<tag k="ssr:stedsnr" v="283335" />
	</node>
	<node id="-303553" lat="61.1017499992" lon="10.2906999963">
		<tag k="landuse" v="meadow" />
		<tag k="name" v="Nygardsvolla" />
		<tag k="ssr:stedsnr" v="162670" />
	</node>
	<node id="-304571" lat="61.1021472231" lon="10.2979305593">
>>>>>>> e1d4bc35ff8a6074a6f2e91616a996b547c36f15
		<tag k="landuse" v="meadow" />
		<tag k="name" v="Holsenga" />
		<tag k="ssr:stedsnr" v="601111" />
	</node>
<<<<<<< HEAD
	<node lat="61.063327775457886" lon="10.48235555036203" id="-18771">
		<tag k="name" v="Bårdsengmyra" />
=======
	<node id="-303545" lat="61.187736115" lon="10.5418833296">
		<tag k="name" v="Krokmyra" />
>>>>>>> e1d4bc35ff8a6074a6f2e91616a996b547c36f15
		<tag k="natural" v="wetland" />
		<tag k="ssr:stedsnr" v="601799" />
	</node>
<<<<<<< HEAD
	<node lat="61.13243611447584" lon="10.592011108098294" id="-18792">
		<tag k="name" v="Gråbeinmyra" />
=======
	<node id="-303536" lat="61.0973888845" lon="10.1678805562">
		<tag k="fixme" v="multiple name tags, choose one and add the other to alt_name" />
		<tag k="name" v="Krakastømyrene;Stormyra" />
>>>>>>> e1d4bc35ff8a6074a6f2e91616a996b547c36f15
		<tag k="natural" v="wetland" />
		<tag k="ssr:stedsnr" v="614966" />
	</node>
<<<<<<< HEAD
	<node lat="61.147177775990876" lon="10.394377770746734" id="-18807">
		<tag k="landuse" v="meadow" />
		<tag k="name" v="Jørstadmovolla" />
		<tag k="ssr:stedsnr" v="708556" />
	</node>
	<node lat="61.065005557052054" lon="10.256683332598241" id="-18809">
		<tag k="name" v="Raumyra" />
=======
	<node id="-304559" lat="61.1509916675" lon="10.4848472132">
		<tag k="name" v="Åsmyra" />
		<tag k="natural" v="wetland" />
		<tag k="ssr:stedsnr" v="432987" />
	</node>
	<node id="-303531" lat="61.0798888865" lon="10.5360583286">
		<tag k="name" v="Menkerudmyra" />
>>>>>>> e1d4bc35ff8a6074a6f2e91616a996b547c36f15
		<tag k="natural" v="wetland" />
		<tag k="ssr:stedsnr" v="708658" />
	</node>
<<<<<<< HEAD
	<node lat="61.16616388848009" lon="10.514338880794059" id="-18822">
		<tag k="name" v="Stormyra" />
=======
	<node id="-304552" lat="61.1914166693" lon="10.5435499915">
		<tag k="name" v="Eriksmyra" />
>>>>>>> e1d4bc35ff8a6074a6f2e91616a996b547c36f15
		<tag k="natural" v="wetland" />
		<tag k="ssr:stedsnr" v="662831" />
	</node>
<<<<<<< HEAD
	<node lat="61.16470277558592" lon="10.271486119368074" id="-18825">
		<tag k="name" v="Stræteslåtten" />
=======
	<node id="-304548" lat="61.1812444485" lon="10.3625916643">
		<tag k="name" v="Snarsmyra" />
>>>>>>> e1d4bc35ff8a6074a6f2e91616a996b547c36f15
		<tag k="natural" v="wetland" />
		<tag k="ssr:stedsnr" v="890700" />
	</node>
<<<<<<< HEAD
	<node lat="61.12250832906708" lon="10.321469453417555" id="-18871">
		<tag k="name" v="Sveen" />
		<tag k="place" v="locality" />
		<tag k="ssr:stedsnr" v="723607" />
	</node>
	<node lat="61.123641670725036" lon="10.32120277556057" id="-18889">
		<tag k="name" v="Skålenga" />
		<tag k="place" v="locality" />
		<tag k="ssr:stedsnr" v="736125" />
	</node>
	<node lat="61.08775277818047" lon="10.524366660837481" id="-18912">
		<tag k="name" v="Maurudmyra" />
=======
	<node id="-303522" lat="61.1578055526" lon="10.516799994">
		<tag k="name" v="Flømyra" />
		<tag k="natural" v="wetland" />
		<tag k="ssr:stedsnr" v="250962" />
	</node>
	<node id="-303521" lat="61.1617027779" lon="10.4990138946">
		<tag k="name" v="Skotlimyra" />
		<tag k="natural" v="wetland" />
		<tag k="ssr:stedsnr" v="250960" />
	</node>
	<node id="-303515" lat="61.1801694421" lon="10.5233972304">
		<tag k="name" v="Langkloppmyra" />
>>>>>>> e1d4bc35ff8a6074a6f2e91616a996b547c36f15
		<tag k="natural" v="wetland" />
		<tag k="ssr:stedsnr" v="783015" />
	</node>
<<<<<<< HEAD
	<node lat="61.09934999802059" lon="10.364966668957958" id="-18930">
		<tag k="name" v="Stormyra" />
=======
	<node id="-303512" lat="61.1909861068" lon="10.5189833246">
		<tag k="name" v="Turthaugmyra" />
>>>>>>> e1d4bc35ff8a6074a6f2e91616a996b547c36f15
		<tag k="natural" v="wetland" />
		<tag k="ssr:stedsnr" v="797812" />
	</node>
<<<<<<< HEAD
	<node lat="61.1060583292717" lon="10.560705553968186" id="-18944">
		<tag k="name" v="Bånmyra" />
=======
	<node id="-304532" lat="61.0532750025" lon="10.2894666712">
		<tag k="name" v="Dalsmyra" />
>>>>>>> e1d4bc35ff8a6074a6f2e91616a996b547c36f15
		<tag k="natural" v="wetland" />
		<tag k="ssr:stedsnr" v="918808" />
	</node>
<<<<<<< HEAD
	<node lat="61.18511110745815" lon="10.634777781287031" id="-18961">
		<tag k="name" v="Raudtjernsmyra" />
=======
	<node id="-303505" lat="61.1033777805" lon="10.3717083281">
		<tag k="name" v="Hølbekkmyra" />
>>>>>>> e1d4bc35ff8a6074a6f2e91616a996b547c36f15
		<tag k="natural" v="wetland" />
		<tag k="ssr:stedsnr" v="845611" />
	</node>
<<<<<<< HEAD
	<node lat="61.077375003492094" lon="10.387452780689475" id="-18962">
		<tag k="name" v="Hestvelta" />
		<tag k="place" v="locality" />
		<tag k="ssr:stedsnr" v="845732" />
	</node>
	<node lat="61.10352499620934" lon="10.268194450422296" id="-18964">
		<tag k="name" v="Leamyra" />
=======
	<node id="-304521" lat="61.1688750041" lon="10.6010111167">
		<tag k="name" v="Sagmyra" />
		<tag k="natural" v="wetland" />
		<tag k="ssr:stedsnr" v="420560" />
	</node>
	<node id="-304519" lat="61.1205361145" lon="10.5401111156">
		<tag k="name" v="Veslemyra" />
>>>>>>> e1d4bc35ff8a6074a6f2e91616a996b547c36f15
		<tag k="natural" v="wetland" />
		<tag k="ssr:stedsnr" v="857007" />
	</node>
<<<<<<< HEAD
	<node lat="61.18411666462485" lon="10.598436110263124" id="-18982">
		<tag k="name" v="Trondsmyra" />
		<tag k="natural" v="wetland" />
		<tag k="ssr:stedsnr" v="857878" />
	</node>
	<node lat="61.07763611262996" lon="10.520061103638339" id="-19000">
=======
	<node id="-304277" lat="61.0823888892" lon="10.1186638885">
		<tag k="alt_name" v="Svartdalsetra" />
		<tag k="historic" v="shieling" />
		<tag k="name" v="Svartdalen" />
		<tag k="place" v="locality" />
		<tag k="ssr:stedsnr" v="128038" />
	</node>
	<node id="-304503" lat="61.0482944475" lon="10.228633326">
		<tag k="name" v="Mannmyra" />
		<tag k="natural" v="wetland" />
		<tag k="ssr:stedsnr" v="405193" />
	</node>
	<node id="-303478" lat="61.0624972225" lon="10.4131500001">
		<tag k="name" v="Stubberud" />
		<tag k="place" v="locality" />
		<tag k="ssr:stedsnr" v="238706" />
	</node>
	<node id="-303988" lat="61.0776361126" lon="10.5200611036">
>>>>>>> e1d4bc35ff8a6074a6f2e91616a996b547c36f15
		<tag k="name" v="Bolstadmyra" />
		<tag k="natural" v="wetland" />
		<tag k="ssr:stedsnr" v="905799" />
	</node>
<<<<<<< HEAD
	<node lat="61.11695833519737" lon="10.124005562970243" id="-19030">
		<tag k="name" v="Storhaugmyrene" />
=======
	<node id="-303982" lat="61.1225083291" lon="10.3214694534">
		<tag k="name" v="Sveen" />
		<tag k="place" v="locality" />
		<tag k="ssr:stedsnr" v="723607" />
	</node>
	<node id="-304490" lat="61.1765138863" lon="10.46503612">
		<tag k="name" v="Halvorsteinen" />
		<tag k="natural" v="stone" />
		<tag k="ssr:stedsnr" v="371894" />
	</node>
	<node id="-303464" lat="61.0782833367" lon="10.4868555612">
		<tag k="name" v="Bergumsmyra" />
>>>>>>> e1d4bc35ff8a6074a6f2e91616a996b547c36f15
		<tag k="natural" v="wetland" />
		<tag k="ssr:stedsnr" v="959837" />
	</node>
<<<<<<< HEAD
	<node lat="61.04580833320316" lon="10.294830554143772" id="-19031">
		<tag k="name" v="Langmyra" />
=======
	<node id="-304481" lat="61.1549555572" lon="10.6035527708">
		<tag k="name" v="Stormyra" />
>>>>>>> e1d4bc35ff8a6074a6f2e91616a996b547c36f15
		<tag k="natural" v="wetland" />
		<tag k="ssr:stedsnr" v="959850" />
	</node>
<<<<<<< HEAD
	<node lat="61.223083336029504" lon="10.39650833692005" id="-19068">
		<tag k="alt_name" v="Røtdalen" />
		<tag k="name" v="Rotdalen" />
=======
	<node id="-303454" lat="61.0528305593" lon="10.2557944411">
		<tag k="name" v="Vassendmyra" />
>>>>>>> e1d4bc35ff8a6074a6f2e91616a996b547c36f15
		<tag k="natural" v="wetland" />
		<tag k="ssr:stedsnr" v="8181" />
	</node>
<<<<<<< HEAD
	<node lat="61.15201388591891" lon="10.40696667312401" id="-19076">
		<tag k="landuse" v="meadow" />
		<tag k="name" v="Balbergsøya" />
		<tag k="ssr:stedsnr" v="40594" />
	</node>
	<node lat="61.13654166446906" lon="10.324358334778902" id="-19080">
		<tag k="historic" v="shieling" />
		<tag k="name" v="Onsumlykkja" />
		<tag k="place" v="locality" />
		<tag k="ssr:stedsnr" v="41286" />
	</node>
	<node lat="61.13893611091761" lon="10.31457778257111" id="-19081">
=======
	<node id="-303963" lat="61.1647027756" lon="10.2714861194">
		<tag k="name" v="Stræteslåtten" />
		<tag k="natural" v="wetland" />
		<tag k="ssr:stedsnr" v="890700" />
	</node>
	<node id="-304470" lat="61.1449749986" lon="10.6286333338">
		<tag k="name" v="Stykkjemyra" />
		<tag k="natural" v="wetland" />
		<tag k="ssr:stedsnr" v="359591" />
	</node>
	<node id="-303951" lat="61.1263055541" lon="10.5118361131">
		<tag k="name" v="Bottilmyra" />
		<tag k="natural" v="wetland" />
		<tag k="ssr:stedsnr" v="675966" />
	</node>
	<node id="-304461" lat="61.107061107" lon="10.5484361044">
>>>>>>> e1d4bc35ff8a6074a6f2e91616a996b547c36f15
		<tag k="historic" v="shieling" />
		<tag k="name" v="Hauklilykkja" />
		<tag k="place" v="locality" />
		<tag k="ssr:stedsnr" v="41287" />
	</node>
<<<<<<< HEAD
	<node lat="61.123888890483336" lon="10.318891658530466" id="-19088">
		<tag k="name" v="Seterhagen" />
=======
	<node id="-304452" lat="61.0232055567" lon="10.3949944399">
		<tag k="historic" v="shieling" />
		<tag k="name" v="Storsveen" />
>>>>>>> e1d4bc35ff8a6074a6f2e91616a996b547c36f15
		<tag k="place" v="locality" />
		<tag k="ssr:stedsnr" v="56639" />
	</node>
<<<<<<< HEAD
	<node lat="61.06902777777145" lon="10.419777786779337" id="-19091">
		<tag k="name" v="Mjølbøla" />
		<tag k="place" v="locality" />
		<tag k="ssr:stedsnr" v="56727" />
	</node>
	<node lat="61.09718333263025" lon="10.427086104019683" id="-19132">
=======
	<node id="-303934" lat="61.2255611117" lon="10.388774992">
		<tag k="alt_name" v="Skålmyra, øvre" />
		<tag k="name" v="Øvre Skålmyra" />
		<tag k="natural" v="wetland" />
		<tag k="ssr:stedsnr" v="675178" />
	</node>
	<node id="-304445" lat="61.1601972229" lon="10.4014222269">
>>>>>>> e1d4bc35ff8a6074a6f2e91616a996b547c36f15
		<tag k="landuse" v="meadow" />
		<tag k="name" v="Sveen" />
		<tag k="ssr:stedsnr" v="116666" />
	</node>
<<<<<<< HEAD
	<node lat="61.09581388530943" lon="10.544194437564355" id="-19135">
		<tag k="landuse" v="meadow" />
		<tag k="name" v="Gjørlienga" />
		<tag k="ssr:stedsnr" v="117149" />
	</node>
	<node lat="61.09738888446982" lon="10.167880556202114" id="-19150">
		<tag k="fixme" v="multiple name tags, choose one and add the other to alt_name" />
		<tag k="name" v="Stormyra;Krakastømyrene" />
=======
	<node id="-304439" lat="61.0596083313" lon="10.1563750083">
		<tag k="name" v="Goåsmyra" />
>>>>>>> e1d4bc35ff8a6074a6f2e91616a996b547c36f15
		<tag k="natural" v="wetland" />
		<tag k="ssr:stedsnr" v="129027" />
	</node>
<<<<<<< HEAD
	<node lat="61.18773611498396" lon="10.541883329561104" id="-19167">
		<tag k="name" v="Krokmyra" />
		<tag k="natural" v="wetland" />
		<tag k="ssr:stedsnr" v="129936" />
	</node>
	<node lat="61.15955000383674" lon="10.49407500272842" id="-19168">
		<tag k="name" v="Langmyra" />
		<tag k="natural" v="wetland" />
		<tag k="ssr:stedsnr" v="129968" />
	</node>
	<node lat="61.23358333489866" lon="10.401369445513229" id="-19170">
		<tag k="name" v="Brånån" />
		<tag k="place" v="locality" />
		<tag k="ssr:stedsnr" v="162180" />
	</node>
	<node lat="61.056236113650364" lon="10.213027783202731" id="-19171">
		<tag k="name" v="Vivelsjøenga" />
		<tag k="place" v="locality" />
		<tag k="ssr:stedsnr" v="162186" />
	</node>
	<node lat="61.18582777521901" lon="10.454736109022901" id="-19173">
		<tag k="name" v="Skålsvea" />
=======
	<node id="-303497" lat="61.1958749967" lon="10.3122000039">
		<tag k="landuse" v="meadow" />
		<tag k="name" v="Tølløvlykkja" />
		<tag k="ssr:stedsnr" v="250395" />
	</node>
	<node id="-303921" lat="61.0908305573" lon="10.5760555561">
		<tag k="landuse" v="meadow" />
		<tag k="name" v="Erikringen" />
		<tag k="ssr:stedsnr" v="663130" />
	</node>
	<node id="-303912" lat="61.1236416707" lon="10.3212027756">
		<tag k="name" v="Skålenga" />
>>>>>>> e1d4bc35ff8a6074a6f2e91616a996b547c36f15
		<tag k="place" v="locality" />
		<tag k="ssr:stedsnr" v="162529" />
	</node>
<<<<<<< HEAD
	<node lat="61.101749999232126" lon="10.290699996288412" id="-19178">
		<tag k="landuse" v="meadow" />
		<tag k="name" v="Nygardsvolla" />
		<tag k="ssr:stedsnr" v="162670" />
	</node>
	<node lat="61.13512499831092" lon="10.63306667407362" id="-19208">
=======
	<node id="-303901" lat="61.1333305578" lon="10.5715972229">
		<tag k="name" v="Inngjerdingsmyra" />
		<tag k="natural" v="wetland" />
		<tag k="ssr:stedsnr" v="735965" />
	</node>
	<node id="-303896" lat="61.1951305535" lon="10.3623000077">
>>>>>>> e1d4bc35ff8a6074a6f2e91616a996b547c36f15
		<tag k="name" v="Stormyra" />
		<tag k="natural" v="wetland" />
		<tag k="ssr:stedsnr" v="189949" />
	</node>
<<<<<<< HEAD
	<node lat="61.033047219087265" lon="10.349102782196919" id="-19238">
		<tag k="name" v="Spakrudmyra" />
=======
	<node id="-303895" lat="61.2040305522" lon="10.6266777686">
		<tag k="name" v="Blautmyra" />
>>>>>>> e1d4bc35ff8a6074a6f2e91616a996b547c36f15
		<tag k="natural" v="wetland" />
		<tag k="ssr:stedsnr" v="283335" />
	</node>
<<<<<<< HEAD
	<node lat="61.15900555876773" lon="10.458091670578135" id="-19245">
		<tag k="name" v="Knarudringen" />
		<tag k="place" v="locality" />
		<tag k="ssr:stedsnr" v="283635" />
	</node>
	<node lat="61.1036500021293" lon="10.291036105014603" id="-19250">
		<tag k="landuse" v="meadow" />
		<tag k="name" v="Nygårdsvolla" />
		<tag k="ssr:stedsnr" v="284840" />
	</node>
	<node lat="61.0688555543851" lon="10.363449995769555" id="-19262">
		<tag k="name" v="Engmyra" />
		<tag k="place" v="locality" />
		<tag k="ssr:stedsnr" v="298680" />
	</node>
	<node lat="61.14944444168541" lon="10.53600000176929" id="-19265">
		<tag k="name" v="Stølmyra" />
=======
	<node id="-304405" lat="61.2199027757" lon="10.3924749912">
		<tag k="alt_name" v="Skålmyra, nedre" />
		<tag k="name" v="Nedre Skålmyra" />
		<tag k="natural" v="wetland" />
		<tag k="ssr:stedsnr" v="311212" />
	</node>
	<node id="-303891" lat="61.0907194482" lon="10.3881833324">
		<tag k="alt_name" v="Langmyra" />
		<tag k="name" v="Hauggardslangmyra" />
		<tag k="natural" v="wetland" />
		<tag k="ssr:stedsnr" v="735849" />
	</node>
	<node id="-304401" lat="61.136399996" lon="10.2676138912">
		<tag k="name" v="Rundmyra" />
		<tag k="natural" v="wetland" />
		<tag k="ssr:stedsnr" v="311127" />
	</node>
	<node id="-304399" lat="61.1364305569" lon="10.2553583303">
		<tag k="name" v="Stormyra" />
>>>>>>> e1d4bc35ff8a6074a6f2e91616a996b547c36f15
		<tag k="natural" v="wetland" />
		<tag k="ssr:stedsnr" v="298797" />
	</node>
<<<<<<< HEAD
	<node lat="61.13559444705689" lon="10.296927780846865" id="-19271">
=======
	<node id="-304397" lat="61.1355944471" lon="10.2969277808">
>>>>>>> e1d4bc35ff8a6074a6f2e91616a996b547c36f15
		<tag k="name" v="Rukkjølen" />
		<tag k="natural" v="wetland" />
		<tag k="ssr:stedsnr" v="311101" />
	</node>
<<<<<<< HEAD
	<node lat="61.05960833132353" lon="10.1563750082951" id="-19296">
		<tag k="name" v="Goåsmyra" />
=======
	<node id="-304395" lat="61.0875277789" lon="10.5474555544">
		<tag k="name" v="Stormyra" />
		<tag k="natural" v="wetland" />
		<tag k="ssr:stedsnr" v="310841" />
	</node>
	<node id="-303880" lat="61.1612833289" lon="10.452452786">
		<tag k="name" v="Torvmyra" />
>>>>>>> e1d4bc35ff8a6074a6f2e91616a996b547c36f15
		<tag k="natural" v="wetland" />
		<tag k="ssr:stedsnr" v="344162" />
	</node>
<<<<<<< HEAD
	<node lat="61.02320555674149" lon="10.39499443987057" id="-19301">
=======
	<node id="-303876" lat="61.1121027739" lon="10.5148138867">
>>>>>>> e1d4bc35ff8a6074a6f2e91616a996b547c36f15
		<tag k="historic" v="shieling" />
		<tag k="name" v="Storsveen" />
		<tag k="place" v="locality" />
		<tag k="ssr:stedsnr" v="344988" />
	</node>
<<<<<<< HEAD
	<node lat="61.14497499857618" lon="10.62863333376858" id="-19314">
		<tag k="name" v="Stykkjemyra" />
=======
	<node id="-304854" lat="61.0381666633" lon="10.3417499968">
		<tag k="landuse" v="meadow" />
		<tag k="name" v="Rindalsslåtten" />
		<tag k="ssr:stedsnr" v="959830" />
	</node>
	<node id="-303865" lat="61.1324361145" lon="10.5920111081">
		<tag k="name" v="Gråbeinmyra" />
>>>>>>> e1d4bc35ff8a6074a6f2e91616a996b547c36f15
		<tag k="natural" v="wetland" />
		<tag k="ssr:stedsnr" v="359591" />
	</node>
<<<<<<< HEAD
	<node lat="61.15495555720136" lon="10.603552770827447" id="-19326">
=======
	<node id="-304361" lat="61.1351249983" lon="10.6330666741">
>>>>>>> e1d4bc35ff8a6074a6f2e91616a996b547c36f15
		<tag k="name" v="Stormyra" />
		<tag k="natural" v="wetland" />
		<tag k="ssr:stedsnr" v="371448" />
	</node>
<<<<<<< HEAD
	<node lat="61.17651388634444" lon="10.465036119994856" id="-19335">
		<tag k="name" v="Halvorsteinen" />
		<tag k="natural" v="stone" />
		<tag k="ssr:stedsnr" v="371894" />
	</node>
	<node lat="61.08903333667946" lon="10.522888884883674" id="-19354">
		<tag k="name" v="Maurud" />
		<tag k="place" v="locality" />
		<tag k="ssr:stedsnr" v="420016" />
	</node>
	<node lat="61.1688750041204" lon="10.60101111667178" id="-19357">
		<tag k="name" v="Sagmyra" />
=======
	<node id="-304346" lat="61.0453250026" lon="10.2851999928">
		<tag k="name" v="Fjellmyra" />
>>>>>>> e1d4bc35ff8a6074a6f2e91616a996b547c36f15
		<tag k="natural" v="wetland" />
		<tag k="ssr:stedsnr" v="420560" />
	</node>
<<<<<<< HEAD
	<node lat="61.12053611449645" lon="10.540111115555405" id="-19364">
		<tag k="name" v="Veslemyra" />
=======
	<node id="-304856" lat="61.0458083332" lon="10.2948305541">
		<tag k="name" v="Langmyra" />
>>>>>>> e1d4bc35ff8a6074a6f2e91616a996b547c36f15
		<tag k="natural" v="wetland" />
		<tag k="ssr:stedsnr" v="420401" />
	</node>
<<<<<<< HEAD
	<node lat="61.05327500251166" lon="10.28946667116424" id="-19373">
		<tag k="name" v="Dalsmyra" />
=======
	<node id="-304855" lat="61.1169583352" lon="10.124005563">
		<tag k="name" v="Storhaugmyrene" />
>>>>>>> e1d4bc35ff8a6074a6f2e91616a996b547c36f15
		<tag k="natural" v="wetland" />
		<tag k="ssr:stedsnr" v="432044" />
	</node>
<<<<<<< HEAD
	<node lat="61.10214722309795" lon="10.297930559349876" id="-19405">
		<tag k="landuse" v="meadow" />
		<tag k="name" v="Dalbyvollen" />
		<tag k="ssr:stedsnr" v="526655" />
	</node>
	<node lat="61.05625555673474" lon="10.168291667093367" id="-19418">
		<tag k="name" v="Goåsmyrene" />
		<tag k="natural" v="wetland" />
		<tag k="ssr:stedsnr" v="539088" />
	</node>
	<node lat="61.16403332974936" lon="10.442225001913396" id="-19444">
		<tag k="name" v="Vardmyra" />
		<tag k="natural" v="wetland" />
		<tag k="ssr:stedsnr" v="554916" />
	</node>
	<node lat="61.166241668977285" lon="10.444836106105239" id="-19445">
		<tag k="name" v="Vassmyra" />
		<tag k="natural" v="wetland" />
		<tag k="ssr:stedsnr" v="554918" />
	</node>
	<node lat="61.201080551575096" lon="10.36519999681161" id="-19450">
		<tag k="name" v="Lønnmyra" />
		<tag k="natural" v="wetland" />
		<tag k="ssr:stedsnr" v="586587" />
	</node>
	<node lat="61.033802774560634" lon="10.369872218466911" id="-19451">
		<tag k="name" v="Skoromyra" />
		<tag k="natural" v="wetland" />
		<tag k="ssr:stedsnr" v="587636" />
	</node>
	<node lat="61.04241666747101" lon="10.315950004859145" id="-19461">
		<tag k="historic" v="shieling" />
		<tag k="name" v="Gamle Borudsetra" />
=======
	<node id="-303830" lat="61.0650055571" lon="10.2566833326">
		<tag k="name" v="Raumyra" />
		<tag k="natural" v="wetland" />
		<tag k="ssr:stedsnr" v="708658" />
	</node>
	<node id="-303825" lat="61.147177776" lon="10.3943777707">
		<tag k="landuse" v="meadow" />
		<tag k="name" v="Jørstadmovolla" />
		<tag k="ssr:stedsnr" v="708556" />
	</node>
	<node id="-304848" lat="61.0803527744" lon="10.0787166707">
		<tag k="name" v="Dølsteinen" />
		<tag k="natural" v="stone" />
		<tag k="ssr:stedsnr" v="951876" />
	</node>
	<node id="-303810" lat="61.122377776" lon="10.631222216">
		<tag k="name" v="Øyamoen" />
		<tag k="place" v="locality" />
		<tag k="ssr:stedsnr" v="541606" />
	</node>
	<node id="-304316" lat="61.1858277752" lon="10.454736109">
		<tag k="name" v="Skålsvea" />
		<tag k="place" v="locality" />
		<tag k="ssr:stedsnr" v="162529" />
	</node>
	<node id="-304313" lat="61.0562361137" lon="10.2130277832">
		<tag k="name" v="Vivelsjøenga" />
		<tag k="place" v="locality" />
		<tag k="ssr:stedsnr" v="162186" />
	</node>
	<node id="-304312" lat="61.2335833349" lon="10.4013694455">
		<tag k="name" v="Brånån" />
>>>>>>> e1d4bc35ff8a6074a6f2e91616a996b547c36f15
		<tag k="place" v="locality" />
		<tag k="ssr:stedsnr" v="594829" />
	</node>
<<<<<<< HEAD
	<node lat="61.137500003820385" lon="10.538999992151703" id="-19495">
		<tag k="name" v="Torvmyra" />
=======
	<node id="-303798" lat="61.0367944432" lon="10.3193416679">
		<tag k="name" v="Starrmyra" />
>>>>>>> e1d4bc35ff8a6074a6f2e91616a996b547c36f15
		<tag k="natural" v="wetland" />
		<tag k="ssr:stedsnr" v="614942" />
	</node>
<<<<<<< HEAD
	<node lat="61.036302781576204" lon="10.26125000457414" id="-19506">
=======
	<node id="-304309" lat="61.1595500038" lon="10.4940750027">
>>>>>>> e1d4bc35ff8a6074a6f2e91616a996b547c36f15
		<tag k="name" v="Langmyra" />
		<tag k="natural" v="wetland" />
		<tag k="ssr:stedsnr" v="647420" />
	</node>
<<<<<<< HEAD
	<node lat="61.034977779903095" lon="10.398908341839789" id="-19507">
		<tag k="name" v="Bånslettringen" />
		<tag k="place" v="locality" />
		<tag k="ssr:stedsnr" v="647567" />
	</node>
	<node lat="61.16128332892637" lon="10.452452785951555" id="-19510">
		<tag k="name" v="Torvmyra" />
=======
	<node id="-304815" lat="61.1035249962" lon="10.2681944504">
		<tag k="name" v="Leamyra" />
>>>>>>> e1d4bc35ff8a6074a6f2e91616a996b547c36f15
		<tag k="natural" v="wetland" />
		<tag k="ssr:stedsnr" v="647658" />
	</node>
<<<<<<< HEAD
	<node lat="61.085272221448626" lon="10.527661116499814" id="-19518">
		<tag k="name" v="Bjørkesvea" />
=======
	<node id="-304811" lat="61.0773750035" lon="10.3874527807">
		<tag k="name" v="Hestvelta" />
>>>>>>> e1d4bc35ff8a6074a6f2e91616a996b547c36f15
		<tag k="place" v="locality" />
		<tag k="ssr:stedsnr" v="662019" />
	</node>
<<<<<<< HEAD
	<node lat="61.13299166847188" lon="10.63267776977993" id="-19522">
		<tag k="name" v="Snurumyra" />
=======
	<node id="-304810" lat="61.1851111075" lon="10.6347777813">
		<tag k="name" v="Raudtjernsmyra" />
>>>>>>> e1d4bc35ff8a6074a6f2e91616a996b547c36f15
		<tag k="natural" v="wetland" />
		<tag k="ssr:stedsnr" v="662590" />
	</node>
<<<<<<< HEAD
	<node lat="61.09083055728402" lon="10.576055556063356" id="-19528">
		<tag k="landuse" v="meadow" />
		<tag k="name" v="Erikringen" />
		<tag k="ssr:stedsnr" v="663130" />
	</node>
	<node lat="61.112102773887266" lon="10.514813886742674" id="-19542">
		<tag k="historic" v="shieling" />
		<tag k="name" v="Vårsetra" />
=======
	<node id="-304804" lat="61.1202694455" lon="10.2741361072">
		<tag k="landuse" v="meadow" />
		<tag k="name" v="Hestsveringen" />
		<tag k="ssr:stedsnr" v="830947" />
	</node>
	<node id="-304803" lat="61.0823194404" lon="10.0752972159">
		<tag k="name" v="Brurvollmyra" />
		<tag k="natural" v="wetland" />
		<tag k="ssr:stedsnr" v="830889" />
	</node>
	<node id="-303777" lat="61.1044166654" lon="10.5745972282">
		<tag k="historic" v="shieling" />
		<tag k="name" v="Stylen" />
		<tag k="place" v="locality" />
		<tag k="ssr:stedsnr" v="480354" />
	</node>
	<node id="-304797" lat="61.0269583367" lon="10.3776611153">
		<tag k="name" v="Småslåttene" />
		<tag k="place" v="locality" />
		<tag k="ssr:stedsnr" v="830607" />
	</node>
	<node id="-303770" lat="61.1755138928" lon="10.4401083312">
		<tag k="name" v="Kolbu" />
>>>>>>> e1d4bc35ff8a6074a6f2e91616a996b547c36f15
		<tag k="place" v="locality" />
		<tag k="ssr:stedsnr" v="723741" />
	</node>
<<<<<<< HEAD
	<node lat="61.20403055219385" lon="10.62667776862294" id="-19546">
		<tag k="name" v="Blautmyra" />
		<tag k="natural" v="wetland" />
		<tag k="ssr:stedsnr" v="735916" />
	</node>
	<node lat="61.19513055352486" lon="10.362300007732038" id="-19547">
=======
	<node id="-303768" lat="61.1887111156" lon="10.4679444443">
		<tag k="name" v="Sagteigen" />
		<tag k="place" v="locality" />
		<tag k="ssr:stedsnr" v="466261" />
	</node>
	<node id="-304789" lat="61.099349998" lon="10.364966669">
>>>>>>> e1d4bc35ff8a6074a6f2e91616a996b547c36f15
		<tag k="name" v="Stormyra" />
		<tag k="natural" v="wetland" />
		<tag k="ssr:stedsnr" v="735917" />
	</node>
<<<<<<< HEAD
	<node lat="61.090719448228405" lon="10.388183332396" id="-19556">
		<tag k="alt_name" v="Langmyra" />
		<tag k="name" v="Hauggardslangmyra" />
=======
	<node id="-303762" lat="61.1661638885" lon="10.5143388808">
		<tag k="name" v="Stormyra" />
>>>>>>> e1d4bc35ff8a6074a6f2e91616a996b547c36f15
		<tag k="natural" v="wetland" />
		<tag k="ssr:stedsnr" v="735849" />
	</node>
<<<<<<< HEAD
	<node lat="61.13333055783838" lon="10.571597222928272" id="-19558">
		<tag k="name" v="Inngjerdingsmyra" />
=======
	<node id="-303758" lat="61.1329916685" lon="10.6326777698">
		<tag k="name" v="Snurumyra" />
>>>>>>> e1d4bc35ff8a6074a6f2e91616a996b547c36f15
		<tag k="natural" v="wetland" />
		<tag k="ssr:stedsnr" v="735965" />
	</node>
	<node lat="61.07670000211346" lon="10.329347217665212" id="-19581">
		<tag k="name" v="Ringflata" />
		<tag k="place" v="locality" />
		<tag k="ssr:stedsnr" v="777819" />
	</node>
<<<<<<< HEAD
	<node lat="61.20826388616513" lon="10.40121111078545" id="-19621">
=======
	<node id="-304781" lat="61.2082638862" lon="10.4012111108">
>>>>>>> e1d4bc35ff8a6074a6f2e91616a996b547c36f15
		<tag k="name" v="Storrmyra" />
		<tag k="natural" v="wetland" />
		<tag k="ssr:stedsnr" v="796921" />
	</node>
<<<<<<< HEAD
	<node lat="61.02695833674918" lon="10.377661115314421" id="-19637">
		<tag k="name" v="Småslåttene" />
		<tag k="place" v="locality" />
		<tag k="ssr:stedsnr" v="830607" />
	</node>
	<node lat="61.12026944553972" lon="10.27413610720534" id="-19639">
=======
	<node id="-304268" lat="61.0958138853" lon="10.5441944376">
		<tag k="landuse" v="meadow" />
		<tag k="name" v="Gjørlienga" />
		<tag k="ssr:stedsnr" v="117149" />
	</node>
	<node id="-304265" lat="61.0971833326" lon="10.427086104">
>>>>>>> e1d4bc35ff8a6074a6f2e91616a996b547c36f15
		<tag k="landuse" v="meadow" />
		<tag k="name" v="Hestsveringen" />
		<tag k="ssr:stedsnr" v="830947" />
	</node>
<<<<<<< HEAD
	<node lat="61.08231944038136" lon="10.075297215938017" id="-19640">
		<tag k="name" v="Brurvollmyra" />
		<tag k="natural" v="wetland" />
		<tag k="ssr:stedsnr" v="830889" />
	</node>
	<node lat="61.03470833158726" lon="10.356244436943445" id="-19679">
		<tag k="name" v="Sjursmyra" />
=======
	<node id="-303749" lat="61.0852722214" lon="10.5276611165">
		<tag k="name" v="Bjørkesvea" />
		<tag k="place" v="locality" />
		<tag k="ssr:stedsnr" v="662019" />
	</node>
	<node id="-303741" lat="61.1700388888" lon="10.4448611145">
		<tag k="name" v="Lortmyra" />
>>>>>>> e1d4bc35ff8a6074a6f2e91616a996b547c36f15
		<tag k="natural" v="wetland" />
		<tag k="ssr:stedsnr" v="951423" />
	</node>
<<<<<<< HEAD
	<node lat="61.08035277440162" lon="10.078716670672588" id="-19681">
		<tag k="name" v="Dølsteinen" />
		<tag k="natural" v="stone" />
		<tag k="ssr:stedsnr" v="951876" />
	</node>
	<node lat="61.03816666329498" lon="10.34174999679315" id="-19688">
		<tag k="landuse" v="meadow" />
		<tag k="name" v="Rindalsslåtten" />
		<tag k="ssr:stedsnr" v="959830" />
=======
	<node id="-304245" lat="61.0320250014" lon="10.3333638843">
		<tag k="name" v="Mosheimslåtten" />
		<tag k="place" v="locality" />
		<tag k="ssr:stedsnr" v="101381" />
	</node>
	<node id="-303730" lat="61.0890333367" lon="10.5228888849">
		<tag k="name" v="Maurud" />
		<tag k="place" v="locality" />
		<tag k="ssr:stedsnr" v="420016" />
>>>>>>> e1d4bc35ff8a6074a6f2e91616a996b547c36f15
	</node>
	<node id="-304750" lat="61.0877527782" lon="10.5243666608">
		<tag k="name" v="Maurudmyra" />
		<tag k="natural" v="wetland" />
		<tag k="ssr:stedsnr" v="783015" />
	</node>
	<node id="-304748" lat="61.0767000021" lon="10.3293472177">
		<tag k="name" v="Ringflata" />
		<tag k="place" v="locality" />
		<tag k="ssr:stedsnr" v="777819" />
	</node>
	<node id="-303708" lat="61.1571805541" lon="10.4897611063">
		<tag k="name" v="Rundmyra" />
		<tag k="natural" v="wetland" />
		<tag k="ssr:stedsnr" v="493972" />
	</node>
	<node id="-304825" lat="61.1841166646" lon="10.5984361103">
		<tag k="name" v="Trondsmyra" />
		<tag k="natural" v="wetland" />
		<tag k="ssr:stedsnr" v="857878" />
	</node>
	<node id="-304206" lat="61.1055666673" lon="10.265066671">
		<tag k="name" v="Hågåmyra" />
		<tag k="natural" v="wetland" />
		<tag k="ssr:stedsnr" v="68004" />
	</node>
	<node id="-304203" lat="61.0690277778" lon="10.4197777868">
		<tag k="name" v="Mjølbøla" />
		<tag k="place" v="locality" />
		<tag k="ssr:stedsnr" v="56727" />
	</node>
	<node id="-304200" lat="61.1238888905" lon="10.3188916585">
		<tag k="name" v="Seterhagen" />
		<tag k="place" v="locality" />
		<tag k="ssr:stedsnr" v="56639" />
	</node>
	<node id="-304711" lat="61.0363027816" lon="10.2612500046">
		<tag k="name" v="Langmyra" />
		<tag k="natural" v="wetland" />
		<tag k="ssr:stedsnr" v="647420" />
	</node>
	<node id="-304707" lat="61.0349777799" lon="10.3989083418">
		<tag k="name" v="Bånslettringen" />
		<tag k="place" v="locality" />
		<tag k="ssr:stedsnr" v="647567" />
	</node>
	<node id="-304703" lat="61.1375000038" lon="10.5389999922">
		<tag k="name" v="Torvmyra" />
		<tag k="natural" v="wetland" />
		<tag k="ssr:stedsnr" v="614942" />
	</node>
	<node id="-304186" lat="61.1389361109" lon="10.3145777826">
		<tag k="historic" v="shieling" />
		<tag k="name" v="Hauklilykkja" />
		<tag k="place" v="locality" />
		<tag k="ssr:stedsnr" v="41287" />
	</node>
	<node id="-304185" lat="61.1365416645" lon="10.3243583348">
		<tag k="historic" v="shieling" />
		<tag k="name" v="Onsumlykkja" />
		<tag k="place" v="locality" />
		<tag k="ssr:stedsnr" v="41286" />
	</node>
	<node id="-304183" lat="61.1520138859" lon="10.4069666731">
		<tag k="landuse" v="meadow" />
		<tag k="name" v="Balbergsøya" />
		<tag k="ssr:stedsnr" v="40594" />
	</node>
	<node id="-303670" lat="61.0694111112" lon="10.5118833291">
		<tag k="name" v="Svaberga" />
		<tag k="place" v="locality" />
		<tag k="ssr:stedsnr" v="359809" />
	</node>
	<node id="-304181" lat="61.1759333335" lon="10.5159777742">
		<tag k="name" v="Gropmarka" />
		<tag k="place" v="locality" />
		<tag k="ssr:stedsnr" v="20445" />
	</node>
	<node id="-304176" lat="61.223083336" lon="10.3965083369">
		<tag k="alt_name" v="Røtdalen" />
		<tag k="name" v="Rotdalen" />
		<tag k="natural" v="wetland" />
		<tag k="ssr:stedsnr" v="8181" />
	</node>
	<node id="-304171" lat="61.108944444" lon="10.146022226">
		<tag k="name" v="Gråbeinmyra" />
		<tag k="natural" v="wetland" />
		<tag k="ssr:stedsnr" v="8011" />
	</node>
	<node id="-303655" lat="61.2026861104" lon="10.6302555583">
		<tag k="name" v="Torvmyra" />
		<tag k="natural" v="wetland" />
		<tag k="ssr:stedsnr" v="480933" />
	</node>
	<node id="-303654" lat="61.1597222205" lon="10.4929916724">
		<tag k="name" v="Langmyra" />
		<tag k="natural" v="wetland" />
		<tag k="ssr:stedsnr" v="480893" />
	</node>
	<node id="-303648" lat="61.1384944469" lon="10.4632750044">
		<tag k="name" v="Fagstadmyra" />
		<tag k="place" v="locality" />
		<tag k="ssr:stedsnr" v="480134" />
	</node>
	<node id="-303644" lat="61.0839555549" lon="10.1795111161">
		<tag k="name" v="Borudmyra" />
		<tag k="natural" v="wetland" />
		<tag k="ssr:stedsnr" v="474800" />
	</node>
	<node id="-304665" lat="61.0633277755" lon="10.4823555504">
		<tag k="name" v="Bårdsengmyra" />
		<tag k="natural" v="wetland" />
		<tag k="ssr:stedsnr" v="601799" />
	</node>
	<node id="-303637" lat="61.1140333356" lon="10.1029861174">
		<tag k="name" v="Bustein" />
		<tag k="natural" v="stone" />
		<tag k="ssr:stedsnr" v="473821" />
	</node>
	<node id="-304657" lat="61.0996277342" lon="10.5759562043">
		<tag k="landuse" v="meadow" />
		<tag k="name" v="Holsenga" />
		<tag k="ssr:stedsnr" v="601111" />
	</node>
	<node id="-304653" lat="61.0424166675" lon="10.3159500049">
		<tag k="historic" v="shieling" />
		<tag k="name" v="Gamle Borudsetra" />
		<tag k="place" v="locality" />
		<tag k="ssr:stedsnr" v="594829" />
	</node>
	<node id="-303625" lat="61.1846442621" lon="10.2574983168">
		<tag k="name" v="Håvardslirønningen" />
		<tag k="place" v="locality" />
		<tag k="ssr:stedsnr" v="465716" />
	</node>
	<node id="-304646" lat="61.0338027746" lon="10.3698722185">
		<tag k="name" v="Skoromyra" />
		<tag k="natural" v="wetland" />
		<tag k="ssr:stedsnr" v="587636" />
	</node>
	<node id="-303446" lat="61.0724750009" lon="10.197599991">
		<tag k="name" v="Kopnagelmyra" />
		<tag k="natural" v="wetland" />
		<tag k="ssr:stedsnr" v="223191" />
	</node>
</osm>
