<?xml version="1.0" encoding="UTF-8"?>
<osm version="0.6" generator="osmapis">
	<node id="31264141" lat="68.6951304" lon="15.4148253" version="11" timestamp="2022-07-04T05:49:14Z" changeset="123172518" uid="3497659" user="NKA">
		<tag k="loc_name:se" v="Suortá" />
		<tag k="name" v="Sortland" />
		<tag k="name:no" v="Sortland" />
		<tag k="name:ru" v="Сортланд" />
		<tag k="name:sma" v="Suorta" />
		<tag k="place" v="town" />
		<tag k="population" v="5492" />
		<tag k="population:date" v="2021-01-01" />
		<tag k="ref:ssb_tettsted" v="7851" />
		<tag k="source:population" v="SSB - befolkning i tettstedet" />
		<tag k="ssr:stedsnr" v="685163" />
	</node>
	<node id="1596750136" lat="68.6442283" lon="15.2756719" version="2" timestamp="2022-07-04T05:49:14Z" changeset="123172518" uid="3497659" user="NKA">
		<tag k="name" v="Holand" />
		<tag k="place" v="quarter" />
		<tag k="ssr:stedsnr" v="502228" />
	</node>
	<node id="1597741725" lat="68.7212518" lon="15.3734146" version="4" timestamp="2022-07-04T05:49:14Z" changeset="123172518" uid="3497659" user="NKA">
		<tag k="alt_name" v="Fagerbakkan" />
		<tag k="name" v="Fagerbakken" />
		<tag k="place" v="hamlet" />
		<tag k="ssr:stedsnr" v="17857" />
	</node>
	<node id="1597747449" lat="68.7429849" lon="15.3465954" version="2" timestamp="2022-07-04T05:49:14Z" changeset="123172518" uid="3497659" user="NKA">
		<tag k="name" v="Sandstrand" />
		<tag k="place" v="hamlet" />
		<tag k="ssr:stedsnr" v="807775" />
	</node>
	<node id="1597747450" lat="68.7469376" lon="15.3238238" version="2" timestamp="2022-07-04T05:49:14Z" changeset="123172518" uid="3497659" user="NKA">
		<tag k="name" v="Sandstrandhøgda" />
		<tag k="place" v="hamlet" />
		<tag k="ssr:stedsnr" v="339956" />
	</node>
	<node id="1597750277" lat="68.7622217" lon="15.2885571" version="2" timestamp="2022-07-04T05:49:14Z" changeset="123172518" uid="3497659" user="NKA">
		<tag k="name" v="Vik" />
		<tag k="place" v="hamlet" />
		<tag k="ssr:stedsnr" v="442409" />
	</node>
	<node id="1597761153" lat="68.8659414" lon="15.3313225" version="2" timestamp="2022-07-04T05:49:14Z" changeset="123172518" uid="3497659" user="NKA">
		<tag k="alt_name" v="Rypstrand" />
		<tag k="name" v="Rypstranda" />
		<tag k="place" v="hamlet" />
		<tag k="ssr:stedsnr" v="260785" />
	</node>
	<node id="1597761154" lat="68.8650874" lon="15.3406977" version="2" timestamp="2022-07-04T05:49:14Z" changeset="123172518" uid="3497659" user="NKA">
		<tag k="name" v="Holm" />
		<tag k="place" v="hamlet" />
		<tag k="ssr:stedsnr" v="807713" />
	</node>
	<node id="1597762061" lat="68.8566495" lon="15.3504167" version="2" timestamp="2022-07-04T05:49:14Z" changeset="123172518" uid="3497659" user="NKA">
		<tag k="name" v="Sæterstranda" />
		<tag k="place" v="hamlet" />
		<tag k="ssr:stedsnr" v="382700" />
	</node>
	<node id="1597766600" lat="68.8383701" lon="15.3837561" version="2" timestamp="2022-07-04T05:49:14Z" changeset="123172518" uid="3497659" user="NKA">
		<tag k="name" v="Bremnes" />
		<tag k="place" v="hamlet" />
		<tag k="ssr:stedsnr" v="36278" />
	</node>
	<node id="4263467931" lat="68.9387924" lon="15.9090494" version="2" timestamp="2022-07-04T05:49:14Z" changeset="123172518" uid="3497659" user="NKA">
		<tag k="name" v="Kinn" />
		<tag k="place" v="hamlet" />
		<tag k="ssr:stedsnr" v="18449" />
	</node>
	<node id="5712984113" lat="68.6972703" lon="15.4500157" version="5" timestamp="2022-07-04T05:49:14Z" changeset="123172518" uid="3497659" user="NKA">
		<tag k="name" v="Strand" />
		<tag k="name:ru" v="Странд" />
		<tag k="place" v="suburb" />
		<tag k="population" v="754" />
		<tag k="population:date" v="2021-01-01" />
		<tag k="ref:ssb_tettsted" v="7853" />
		<tag k="source:population" v="SSB - befolkning i tettstedet" />
		<tag k="ssr:stedsnr" v="321812" />
	</node>
	<node id="7102014925" lat="68.6469528" lon="15.5054378" version="4" timestamp="2022-07-04T05:49:14Z" changeset="123172518" uid="3497659" user="NKA">
		<tag k="name" v="Sigerfjord" />
		<tag k="place" v="village" />
		<tag k="population" v="791" />
		<tag k="population:date" v="2021-01-01" />
		<tag k="ref:ssb_tettsted" v="7852" />
		<tag k="source:population" v="SSB - befolkning i tettstedet" />
		<tag k="ssr:stedsnr" v="17281" />
	</node>
	<node id="9007179091" lat="68.6703366" lon="15.3613508" version="2" timestamp="2022-07-04T05:49:14Z" changeset="123172518" uid="3497659" user="NKA">
		<tag k="name" v="Steiro" />
		<tag k="place" v="farm" />
		<tag k="ssr:stedsnr" v="1076513" />
	</node>
	<node id="9007179092" lat="68.6767097" lon="15.3745326" version="2" timestamp="2022-07-04T05:49:14Z" changeset="123172518" uid="3497659" user="NKA">
		<tag k="name" v="Nordnes" />
		<tag k="place" v="farm" />
		<tag k="ssr:stedsnr" v="806172" />
	</node>
	<node id="9865030710" lat="68.6195666" lon="15.6061388" version="1" timestamp="2022-07-04T05:49:14Z" changeset="123172518" uid="3497659" user="NKA">
		<tag k="loc_name:se" v="Riddarseahtta" />
		<tag k="name" v="Riddarset" />
		<tag k="name:no" v="Riddarset" />
		<tag k="place" v="farm" />
		<tag k="ssr:stedsnr" v="867035" />
	</node>
	<node id="9865030711" lat="68.7178944" lon="15.1745694" version="1" timestamp="2022-07-04T05:49:14Z" changeset="123172518" uid="3497659" user="NKA">
		<tag k="name" v="Rabben" />
		<tag k="place" v="farm" />
		<tag k="ssr:stedsnr" v="138788" />
	</node>
	<node id="9865030712" lat="68.7632389" lon="15.2677139" version="1" timestamp="2022-07-04T05:49:14Z" changeset="123172518" uid="3497659" user="NKA">
		<tag k="name" v="Relten" />
		<tag k="place" v="locality" />
		<tag k="ssr:stedsnr" v="78410" />
	</node>
	<node id="9865030713" lat="68.7055219" lon="15.1504409" version="1" timestamp="2022-07-04T05:49:14Z" changeset="123172518" uid="3497659" user="NKA">
		<tag k="name" v="Valfjorden - Válafierda" />
		<tag k="name:no" v="Valfjorden" />
		<tag k="name:se" v="Válafierda" />
		<tag k="place" v="farm" />
		<tag k="ssr:stedsnr" v="1075081" />
	</node>
	<node id="9865030714" lat="68.7495066" lon="15.3030032" version="1" timestamp="2022-07-04T05:49:14Z" changeset="123172518" uid="3497659" user="NKA">
		<tag k="name" v="Jennestad" />
		<tag k="place" v="hamlet" />
		<tag k="ssr:stedsnr" v="200768" />
	</node>
	<node id="9865030715" lat="68.6974917" lon="14.8632083" version="1" timestamp="2022-07-04T05:49:14Z" changeset="123172518" uid="3497659" user="NKA">
		<tag k="alt_name" v="Melfjorden, in;Indre Melfjord" />
		<tag k="name" v="Indre Melfjorden" />
		<tag k="place" v="farm" />
		<tag k="ssr:stedsnr" v="503622" />
	</node>
	<node id="9865030716" lat="68.6125204" lon="15.5855818" version="1" timestamp="2022-07-04T05:49:14Z" changeset="123172518" uid="3497659" user="NKA">
		<tag k="name" v="Vangpollen" />
		<tag k="old_name" v="Vangspollen" />
		<tag k="place" v="isolated_dwelling" />
		<tag k="ssr:stedsnr" v="623063" />
	</node>
	<node id="9865049917" lat="68.7851678" lon="15.8764397" version="1" timestamp="2022-07-04T05:49:14Z" changeset="123172518" uid="3497659" user="NKA">
		<tag k="name" v="Finneset" />
		<tag k="place" v="farm" />
		<tag k="ssr:stedsnr" v="199090" />
	</node>
	<node id="9865049918" lat="68.8031132" lon="15.363633" version="1" timestamp="2022-07-04T05:49:14Z" changeset="123172518" uid="3497659" user="NKA">
		<tag k="alt_name" v="Nævernes" />
		<tag k="name" v="Nevernes" />
		<tag k="place" v="farm" />
		<tag k="ssr:stedsnr" v="564340" />
	</node>
	<node id="9865049919" lat="68.7222539" lon="15.1471451" version="1" timestamp="2022-07-04T05:49:14Z" changeset="123172518" uid="3497659" user="NKA">
		<tag k="name" v="Holmstad" />
		<tag k="place" v="hamlet" />
		<tag k="ssr:stedsnr" v="321757" />
	</node>
	<node id="9865049920" lat="68.7386912" lon="15.6985931" version="1" timestamp="2022-07-04T05:49:14Z" changeset="123172518" uid="3497659" user="NKA">
		<tag k="name" v="Lappjorda" />
		<tag k="place" v="farm" />
		<tag k="ssr:stedsnr" v="601002" />
	</node>
	<node id="9865049921" lat="68.7283782" lon="15.0593449" version="1" timestamp="2022-07-04T05:49:14Z" changeset="123172518" uid="3497659" user="NKA">
		<tag k="alt_name" v="Hokkabogen" />
		<tag k="name" v="Håkabogen" />
		<tag k="place" v="farm" />
		<tag k="ssr:stedsnr" v="321724" />
	</node>
	<node id="9865049922" lat="68.7759498" lon="15.8573624" version="1" timestamp="2022-07-04T05:49:14Z" changeset="123172518" uid="3497659" user="NKA">
		<tag k="name" v="Reinstad" />
		<tag k="place" v="hamlet" />
		<tag k="ssr:stedsnr" v="604407" />
	</node>
	<node id="9865049923" lat="68.6560126" lon="15.3191997" version="1" timestamp="2022-07-04T05:49:14Z" changeset="123172518" uid="3497659" user="NKA">
		<tag k="name" v="Bø" />
		<tag k="place" v="hamlet" />
		<tag k="ssr:stedsnr" v="867219" />
	</node>
	<node id="9865049924" lat="68.7303579" lon="15.1559536" version="1" timestamp="2022-07-04T05:49:14Z" changeset="123172518" uid="3497659" user="NKA">
		<tag k="name" v="Brekka" />
		<tag k="place" v="farm" />
		<tag k="ssr:stedsnr" v="764887" />
	</node>
	<node id="9865049925" lat="68.724871" lon="15.3939613" version="1" timestamp="2022-07-04T05:49:14Z" changeset="123172518" uid="3497659" user="NKA">
		<tag k="name" v="Øvertoften" />
		<tag k="place" v="farm" />
		<tag k="ssr:stedsnr" v="764583" />
	</node>
	<node id="9865049926" lat="68.6788278" lon="15.3902471" version="1" timestamp="2022-07-04T05:49:14Z" changeset="123172518" uid="3497659" user="NKA">
		<tag k="name" v="Myrland" />
		<tag k="place" v="neighbourhood" />
		<tag k="ssr:stedsnr" v="603610" />
	</node>
	<node id="9865049927" lat="68.59839" lon="15.3908049" version="1" timestamp="2022-07-04T05:49:14Z" changeset="123172518" uid="3497659" user="NKA">
		<tag k="name" v="Nygård" />
		<tag k="place" v="isolated_dwelling" />
		<tag k="ssr:stedsnr" v="199068" />
	</node>
	<node id="9865049928" lat="68.6580111" lon="15.3413306" version="1" timestamp="2022-07-04T05:49:14Z" changeset="123172518" uid="3497659" user="NKA">
		<tag k="alt_name" v="Haldtstranda" />
		<tag k="name" v="Haldstranda" />
		<tag k="place" v="hamlet" />
		<tag k="ssr:stedsnr" v="562179" />
	</node>
	<node id="9865049929" lat="68.7512236" lon="15.2853942" version="1" timestamp="2022-07-04T05:49:14Z" changeset="123172518" uid="3497659" user="NKA">
		<tag k="alt_name" v="Breidvika" />
		<tag k="name" v="Breivik" />
		<tag k="place" v="hamlet" />
		<tag k="ssr:stedsnr" v="746365" />
	</node>
	<node id="9865049930" lat="68.7094333" lon="15.2019389" version="1" timestamp="2022-07-04T05:49:14Z" changeset="123172518" uid="3497659" user="NKA">
		<tag k="name" v="Bruholt" />
		<tag k="place" v="farm" />
		<tag k="ssr:stedsnr" v="200848" />
	</node>
	<node id="9865049931" lat="68.7108447" lon="15.3537697" version="1" timestamp="2022-07-04T05:49:14Z" changeset="123172518" uid="3497659" user="NKA">
		<tag k="name" v="Heimerhøgda" />
		<tag k="place" v="isolated_dwelling" />
		<tag k="ssr:stedsnr" v="641539" />
	</node>
	<node id="9865049932" lat="68.683003" lon="14.8724461" version="1" timestamp="2022-07-04T05:49:14Z" changeset="123172518" uid="3497659" user="NKA">
		<tag k="name" v="Melfjorden - Máđafierda" />
		<tag k="name:no" v="Melfjorden" />
		<tag k="name:se" v="Máđafierda" />
		<tag k="place" v="farm" />
		<tag k="ssr:stedsnr" v="1075069" />
	</node>
	<node id="9865049933" lat="68.6539278" lon="15.3260416" version="1" timestamp="2022-07-04T05:49:14Z" changeset="123172518" uid="3497659" user="NKA">
		<tag k="name" v="Bøstranda" />
		<tag k="place" v="farm" />
		<tag k="ssr:stedsnr" v="562173" />
	</node>
	<node id="9865049934" lat="68.7579611" lon="15.1409499" version="1" timestamp="2022-07-04T05:49:14Z" changeset="123172518" uid="3497659" user="NKA">
		<tag k="name" v="Strand" />
		<tag k="place" v="farm" />
		<tag k="ssr:stedsnr" v="200426" />
	</node>
	<node id="9865049935" lat="68.622119" lon="15.6272711" version="1" timestamp="2022-07-04T05:49:14Z" changeset="123172518" uid="3497659" user="NKA">
		<tag k="name" v="Labakkan" />
		<tag k="place" v="isolated_dwelling" />
		<tag k="ssr:stedsnr" v="521633" />
	</node>
	<node id="9865049936" lat="68.6479805" lon="15.2901112" version="1" timestamp="2022-07-04T05:49:14Z" changeset="123172518" uid="3497659" user="NKA">
		<tag k="name" v="Kleiva" />
		<tag k="place" v="hamlet" />
		<tag k="ssr:stedsnr" v="442222" />
	</node>
	<node id="9865049937" lat="68.6983444" lon="15.3513279" version="1" timestamp="2022-07-04T05:49:14Z" changeset="123172518" uid="3497659" user="NKA">
		<tag k="name" v="Turlagsstua" />
		<tag k="old_name" v="Kovstua" />
		<tag k="place" v="isolated_dwelling" />
		<tag k="ssr:stedsnr" v="624178" />
	</node>
	<node id="9865049938" lat="68.6003639" lon="15.3937769" version="1" timestamp="2022-07-04T05:49:14Z" changeset="123172518" uid="3497659" user="NKA">
		<tag k="name" v="Teingården" />
		<tag k="place" v="farm" />
		<tag k="ssr:stedsnr" v="662559" />
	</node>
	<node id="9865049939" lat="68.6720889" lon="15.3683251" version="1" timestamp="2022-07-04T05:49:14Z" changeset="123172518" uid="3497659" user="NKA">
		<tag k="name" v="Jektnes" />
		<tag k="place" v="farm" />
		<tag k="ssr:stedsnr" v="623177" />
	</node>
	<node id="9865049940" lat="68.6742111" lon="14.8349888" version="1" timestamp="2022-07-04T05:49:14Z" changeset="123172518" uid="3497659" user="NKA">
		<tag k="name" v="Jakobvik" />
		<tag k="place" v="locality" />
		<tag k="ssr:stedsnr" v="648666" />
	</node>
	<node id="9865049941" lat="68.6831577" lon="14.8716759" version="1" timestamp="2022-07-04T05:49:14Z" changeset="123172518" uid="3497659" user="NKA">
		<tag k="name" v="Ytre Melfjorden" />
		<tag k="place" v="farm" />
		<tag k="ssr:stedsnr" v="503609" />
	</node>
	<node id="9865049942" lat="68.6513889" lon="15.5020082" version="1" timestamp="2022-07-04T05:49:14Z" changeset="123172518" uid="3497659" user="NKA">
		<tag k="name" v="Lundgård" />
		<tag k="place" v="farm" />
		<tag k="ssr:stedsnr" v="138279" />
	</node>
	<node id="9865049943" lat="68.6864967" lon="15.3850608" version="1" timestamp="2022-07-04T05:49:14Z" changeset="123172518" uid="3497659" user="NKA">
		<tag k="name" v="Sørli" />
		<tag k="place" v="neighbourhood" />
		<tag k="ssr:stedsnr" v="476374" />
	</node>
	<node id="9865049944" lat="68.7205997" lon="15.3803993" version="1" timestamp="2022-07-04T05:49:14Z" changeset="123172518" uid="3497659" user="NKA">
		<tag k="name" v="Kornbakk" />
		<tag k="place" v="farm" />
		<tag k="ssr:stedsnr" v="97957" />
	</node>
	<node id="9865049945" lat="68.6907861" lon="15.3891723" version="1" timestamp="2022-07-04T05:49:14Z" changeset="123172518" uid="3497659" user="NKA">
		<tag k="name" v="Lamarka" />
		<tag k="place" v="neighbourhood" />
		<tag k="ssr:stedsnr" v="401514" />
	</node>
	<node id="9865049946" lat="68.6925889" lon="14.9235555" version="1" timestamp="2022-07-04T05:49:14Z" changeset="123172518" uid="3497659" user="NKA">
		<tag k="name" v="Solum" />
		<tag k="place" v="farm" />
		<tag k="ssr:stedsnr" v="745693" />
	</node>
	<node id="9865049947" lat="68.5971916" lon="15.3546722" version="1" timestamp="2022-07-04T05:49:14Z" changeset="123172518" uid="3497659" user="NKA">
		<tag k="name" v="Djupvika" />
		<tag k="place" v="isolated_dwelling" />
		<tag k="ssr:stedsnr" v="218354" />
	</node>
	<node id="9865049948" lat="68.7774626" lon="15.9401173" version="1" timestamp="2022-07-04T05:49:14Z" changeset="123172518" uid="3497659" user="NKA">
		<tag k="name" v="Gunnesdal" />
		<tag k="place" v="hamlet" />
		<tag k="ssr:stedsnr" v="321047" />
	</node>
	<node id="9865049949" lat="68.6488223" lon="15.2944166" version="1" timestamp="2022-07-04T05:49:14Z" changeset="123172518" uid="3497659" user="NKA">
		<tag k="name" v="Bøstranda" />
		<tag k="place" v="farm" />
		<tag k="ssr:stedsnr" v="338693" />
	</node>
	<node id="9865049950" lat="68.6822766" lon="15.3894742" version="1" timestamp="2022-07-04T05:49:14Z" changeset="123172518" uid="3497659" user="NKA">
		<tag k="name" v="Prestgården" />
		<tag k="place" v="farm" />
		<tag k="ssr:stedsnr" v="118595" />
	</node>
	<node id="9865049951" lat="68.7212397" lon="15.3914903" version="1" timestamp="2022-07-04T05:49:14Z" changeset="123172518" uid="3497659" user="NKA">
		<tag k="name" v="Ånstad" />
		<tag k="place" v="hamlet" />
		<tag k="ssr:stedsnr" v="806863" />
	</node>
	<node id="9865049952" lat="68.810746" lon="15.3584553" version="1" timestamp="2022-07-04T05:49:14Z" changeset="123172518" uid="3497659" user="NKA">
		<tag k="name" v="Litlejorda" />
		<tag k="place" v="isolated_dwelling" />
		<tag k="ssr:stedsnr" v="907800" />
	</node>
	<node id="9865049953" lat="68.7863352" lon="15.9501031" version="1" timestamp="2022-07-04T05:49:14Z" changeset="123172518" uid="3497659" user="NKA">
		<tag k="name" v="Mehus" />
		<tag k="place" v="hamlet" />
		<tag k="ssr:stedsnr" v="807091" />
	</node>
	<node id="9865049954" lat="68.7223639" lon="15.4482611" version="1" timestamp="2022-07-04T05:49:14Z" changeset="123172518" uid="3497659" user="NKA">
		<tag k="name" v="Stihaugen" />
		<tag k="place" v="farm" />
		<tag k="ssr:stedsnr" v="400491" />
	</node>
	<node id="9865049955" lat="68.7187916" lon="15.4031638" version="1" timestamp="2022-07-04T05:49:14Z" changeset="123172518" uid="3497659" user="NKA">
		<tag k="name" v="Tofta" />
		<tag k="place" v="farm" />
		<tag k="ssr:stedsnr" v="78883" />
	</node>
	<node id="9865049956" lat="68.7069833" lon="14.9844554" version="1" timestamp="2022-07-04T05:49:14Z" changeset="123172518" uid="3497659" user="NKA">
		<tag k="name" v="Daljorda" />
		<tag k="place" v="farm" />
		<tag k="ssr:stedsnr" v="442698" />
	</node>
	<node id="9865049957" lat="68.7421474" lon="15.734388" version="1" timestamp="2022-07-04T05:49:14Z" changeset="123172518" uid="3497659" user="NKA">
		<tag k="name" v="Eidesbakken" />
		<tag k="place" v="isolated_dwelling" />
		<tag k="ssr:stedsnr" v="139455" />
	</node>
	<node id="9865049958" lat="68.8004763" lon="15.3552568" version="1" timestamp="2022-07-04T05:49:14Z" changeset="123172518" uid="3497659" user="NKA">
		<tag k="name" v="Bjørkly" />
		<tag k="place" v="farm" />
		<tag k="ssr:stedsnr" v="967619" />
	</node>
	<node id="9865049959" lat="68.6547139" lon="15.3134916" version="1" timestamp="2022-07-04T05:49:14Z" changeset="123172518" uid="3497659" user="NKA">
		<tag k="name" v="Tofta" />
		<tag k="place" v="farm" />
		<tag k="ssr:stedsnr" v="885434" />
	</node>
	<node id="9865049960" lat="68.7658195" lon="15.0482989" version="1" timestamp="2022-07-04T05:49:14Z" changeset="123172518" uid="3497659" user="NKA">
		<tag k="name" v="Brenna" />
		<tag k="place" v="farm" />
		<tag k="ssr:stedsnr" v="989670" />
	</node>
	<node id="9865049961" lat="68.6761608" lon="14.8113641" version="1" timestamp="2022-07-04T05:49:14Z" changeset="123172518" uid="3497659" user="NKA">
		<tag k="alt_name" v="Hellfjord" />
		<tag k="name" v="Hellfjorden" />
		<tag k="place" v="farm" />
		<tag k="ssr:stedsnr" v="18594" />
	</node>
	<node id="9865049962" lat="68.7319" lon="14.9568945" version="1" timestamp="2022-07-04T05:49:14Z" changeset="123172518" uid="3497659" user="NKA">
		<tag k="name" v="Solumsetra" />
		<tag k="place" v="locality" />
		<tag k="ssr:stedsnr" v="59839" />
	</node>
	<node id="9865049963" lat="68.5985139" lon="15.3857333" version="1" timestamp="2022-07-04T05:49:14Z" changeset="123172518" uid="3497659" user="NKA">
		<tag k="name" v="Berg" />
		<tag k="place" v="isolated_dwelling" />
		<tag k="ssr:stedsnr" v="825332" />
	</node>
	<node id="9865049964" lat="68.6696787" lon="15.3626721" version="1" timestamp="2022-07-04T05:49:14Z" changeset="123172518" uid="3497659" user="NKA">
		<tag k="alt_name" v="Steiro" />
		<tag k="name" v="Sør-Steiro" />
		<tag k="place" v="quarter" />
		<tag k="ssr:stedsnr" v="199178" />
	</node>
	<node id="9865049965" lat="68.7243933" lon="15.0359382" version="1" timestamp="2022-07-04T05:49:14Z" changeset="123172518" uid="3497659" user="NKA">
		<tag k="loc_name:se" v="Grivttegak" />
		<tag k="name" v="Grytting" />
		<tag k="name:no" v="Grytting" />
		<tag k="place" v="farm" />
		<tag k="ssr:stedsnr" v="928757" />
	</node>
	<node id="9865049966" lat="68.8711083" lon="15.9359388" version="1" timestamp="2022-07-04T05:49:14Z" changeset="123172518" uid="3497659" user="NKA">
		<tag k="name" v="Finnsæter" />
		<tag k="place" v="hamlet" />
		<tag k="ssr:stedsnr" v="382056" />
	</node>
	<node id="9865049967" lat="68.7393216" lon="15.0795648" version="1" timestamp="2022-07-04T05:49:14Z" changeset="123172518" uid="3497659" user="NKA">
		<tag k="name" v="Valsnes" />
		<tag k="place" v="farm" />
		<tag k="ssr:stedsnr" v="928788" />
	</node>
	<node id="9865049968" lat="68.7994257" lon="15.3234886" version="1" timestamp="2022-07-04T05:49:14Z" changeset="123172518" uid="3497659" user="NKA">
		<tag k="name" v="Gåsbøl" />
		<tag k="place" v="hamlet" />
		<tag k="ssr:stedsnr" v="79333" />
	</node>
	<node id="9865049969" lat="68.5998459" lon="15.3881285" version="1" timestamp="2022-07-04T05:49:14Z" changeset="123172518" uid="3497659" user="NKA">
		<tag k="name" v="Blokken" />
		<tag k="place" v="village" />
		<tag k="ssr:stedsnr" v="927066" />
	</node>
	<node id="9865049970" lat="68.7430196" lon="15.3697497" version="1" timestamp="2022-07-04T05:49:14Z" changeset="123172518" uid="3497659" user="NKA">
		<tag k="name" v="Jektbogen" />
		<tag k="place" v="hamlet" />
		<tag k="ssr:stedsnr" v="563815" />
	</node>
	<node id="9865049971" lat="68.7103889" lon="14.9727529" version="1" timestamp="2022-07-04T05:49:14Z" changeset="123172518" uid="3497659" user="NKA">
		<tag k="name" v="Sølferstranda" />
		<tag k="place" v="farm" />
		<tag k="ssr:stedsnr" v="868294" />
	</node>
	<node id="9865049972" lat="68.7635083" lon="15.8293126" version="1" timestamp="2022-07-04T05:49:14Z" changeset="123172518" uid="3497659" user="NKA">
		<tag k="name" v="Haugly" />
		<tag k="place" v="farm" />
		<tag k="ssr:stedsnr" v="908363" />
	</node>
	<node id="9865049973" lat="68.7322471" lon="15.4004321" version="1" timestamp="2022-07-04T05:49:14Z" changeset="123172518" uid="3497659" user="NKA">
		<tag k="name" v="Bygdnes" />
		<tag k="place" v="farm" />
		<tag k="ssr:stedsnr" v="624772" />
	</node>
	<node id="9865049974" lat="68.775625" lon="15.298925" version="1" timestamp="2022-07-04T05:49:14Z" changeset="123172518" uid="3497659" user="NKA">
		<tag k="name" v="Åsen" />
		<tag k="place" v="hamlet" />
		<tag k="ssr:stedsnr" v="624349" />
	</node>
	<node id="9865049975" lat="68.68875" lon="15.3965333" version="1" timestamp="2022-07-04T05:49:14Z" changeset="123172518" uid="3497659" user="NKA">
		<tag k="alt_name" v="Nattland" />
		<tag k="name" v="Natland" />
		<tag k="place" v="neighbourhood" />
		<tag k="ssr:stedsnr" v="340510" />
	</node>
	<node id="9865049976" lat="68.8077589" lon="15.3639899" version="1" timestamp="2022-07-04T05:49:14Z" changeset="123172518" uid="3497659" user="NKA">
		<tag k="name" v="Bogen" />
		<tag k="place" v="hamlet" />
		<tag k="ssr:stedsnr" v="18245" />
	</node>
	<node id="9865049977" lat="68.6476198" lon="15.5028665" version="1" timestamp="2022-07-04T05:49:14Z" changeset="123172518" uid="3497659" user="NKA">
		<tag k="name" v="Heimgard" />
		<tag k="place" v="farm" />
		<tag k="ssr:stedsnr" v="97479" />
	</node>
	<node id="9865049978" lat="68.7302778" lon="15.7647916" version="1" timestamp="2022-07-04T05:49:14Z" changeset="123172518" uid="3497659" user="NKA">
		<tag k="name" v="Adskillgamman" />
		<tag k="place" v="locality" />
		<tag k="ssr:stedsnr" v="56013" />
	</node>
	<node id="9865049979" lat="68.8430389" lon="15.3884417" version="1" timestamp="2022-07-04T05:49:14Z" changeset="123172518" uid="3497659" user="NKA">
		<tag k="alt_name" v="Nordstrand" />
		<tag k="name" v="Nordstranda" />
		<tag k="place" v="farm" />
		<tag k="ssr:stedsnr" v="79276" />
	</node>
	<node id="9865049980" lat="68.7754888" lon="15.8538427" version="1" timestamp="2022-07-04T05:49:14Z" changeset="123172518" uid="3497659" user="NKA">
		<tag k="name" v="Solheim" />
		<tag k="place" v="farm" />
		<tag k="ssr:stedsnr" v="604361" />
	</node>
	<node id="9865049981" lat="68.7041056" lon="15.4106111" version="1" timestamp="2022-07-04T05:49:14Z" changeset="123172518" uid="3497659" user="NKA">
		<tag k="name" v="Brekka" />
		<tag k="place" v="neighbourhood" />
		<tag k="ssr:stedsnr" v="218978" />
	</node>
	<node id="9865049982" lat="68.6915417" lon="15.4033167" version="1" timestamp="2022-07-04T05:49:14Z" changeset="123172518" uid="3497659" user="NKA">
		<tag k="name" v="Kjempenhøy" />
		<tag k="place" v="neighbourhood" />
		<tag k="ssr:stedsnr" v="298702" />
	</node>
	<node id="9865049983" lat="68.6565953" lon="15.3235664" version="1" timestamp="2022-07-04T05:49:14Z" changeset="123172518" uid="3497659" user="NKA">
		<tag k="name" v="Nordbø" />
		<tag k="place" v="farm" />
		<tag k="ssr:stedsnr" v="980642" />
	</node>
	<node id="9865049984" lat="68.7434" lon="15.3666308" version="1" timestamp="2022-07-04T05:49:14Z" changeset="123172518" uid="3497659" user="NKA">
		<tag k="name" v="Sjøhaugen" />
		<tag k="place" v="farm" />
		<tag k="ssr:stedsnr" v="218477" />
	</node>
	<node id="9865049985" lat="68.6320602" lon="15.5845442" version="1" timestamp="2022-07-04T05:49:14Z" changeset="123172518" uid="3497659" user="NKA">
		<tag k="name" v="Åkenes" />
		<tag k="place" v="isolated_dwelling" />
		<tag k="ssr:stedsnr" v="157644" />
	</node>
	<node id="9865049986" lat="68.7479945" lon="15.8097667" version="1" timestamp="2022-07-04T05:49:14Z" changeset="123172518" uid="3497659" user="NKA">
		<tag k="name" v="Reinstad" />
		<tag k="place" v="isolated_dwelling" />
		<tag k="ssr:stedsnr" v="624443" />
	</node>
	<node id="9865049987" lat="68.7225738" lon="15.5348812" version="1" timestamp="2022-07-04T05:49:14Z" changeset="123172518" uid="3497659" user="NKA">
		<tag k="name" v="Gårdsgrunnen" />
		<tag k="place" v="farm" />
		<tag k="ssr:stedsnr" v="769227" />
	</node>
	<node id="9865049988" lat="68.814569" lon="15.8955846" version="1" timestamp="2022-07-04T05:49:14Z" changeset="123172518" uid="3497659" user="NKA">
		<tag k="name" v="Nordheim" />
		<tag k="place" v="farm" />
		<tag k="ssr:stedsnr" v="726696" />
	</node>
	<node id="9865049989" lat="68.6422555" lon="15.5293362" version="1" timestamp="2022-07-04T05:49:14Z" changeset="123172518" uid="3497659" user="NKA">
		<tag k="name" v="Haugen" />
		<tag k="place" v="neighbourhood" />
		<tag k="ssr:stedsnr" v="946455" />
	</node>
	<node id="9865049990" lat="68.7884456" lon="15.8818951" version="1" timestamp="2022-07-04T05:49:14Z" changeset="123172518" uid="3497659" user="NKA">
		<tag k="name" v="Skoglund" />
		<tag k="place" v="farm" />
		<tag k="ssr:stedsnr" v="685081" />
	</node>
	<node id="9865049991" lat="68.7225759" lon="15.4028083" version="1" timestamp="2022-07-04T05:49:14Z" changeset="123172518" uid="3497659" user="NKA">
		<tag k="name" v="Sel" />
		<tag k="place" v="farm" />
		<tag k="ssr:stedsnr" v="503813" />
	</node>
	<node id="9865049992" lat="68.7155666" lon="15.4067" version="1" timestamp="2022-07-04T05:49:14Z" changeset="123172518" uid="3497659" user="NKA">
		<tag k="name" v="Nertofta" />
		<tag k="place" v="farm" />
		<tag k="ssr:stedsnr" v="503823" />
	</node>
	<node id="9865049994" lat="68.6298862" lon="15.5516639" version="1" timestamp="2022-07-04T05:49:14Z" changeset="123172518" uid="3497659" user="NKA">
		<tag k="alt_name" v="Spjutvik" />
		<tag k="name" v="Spjutvika" />
		<tag k="place" v="hamlet" />
		<tag k="ssr:stedsnr" v="138245" />
	</node>
	<node id="9865049995" lat="68.7210057" lon="15.5302345" version="1" timestamp="2022-07-04T05:49:14Z" changeset="123172518" uid="3497659" user="NKA">
		<tag k="name" v="Kvalsaukan" />
		<tag k="place" v="hamlet" />
		<tag k="ssr:stedsnr" v="503809" />
	</node>
	<node id="9865049997" lat="68.7257143" lon="15.4780388" version="1" timestamp="2022-07-04T05:49:14Z" changeset="123172518" uid="3497659" user="NKA">
		<tag k="name" v="Kringlen" />
		<tag k="place" v="farm" />
		<tag k="ssr:stedsnr" v="321837" />
	</node>
	<node id="9865049998" lat="68.7901647" lon="15.9521936" version="1" timestamp="2022-07-04T05:49:14Z" changeset="123172518" uid="3497659" user="NKA">
		<tag k="alt_name" v="Røykenes;Røkenes" />
		<tag k="name" v="Røyknes" />
		<tag k="place" v="hamlet" />
		<tag k="ssr:stedsnr" v="261076" />
	</node>
	<node id="9865049999" lat="68.7582498" lon="15.4683823" version="1" timestamp="2022-07-04T05:49:14Z" changeset="123172518" uid="3497659" user="NKA">
		<tag k="name" v="Kleiva" />
		<tag k="place" v="farm" />
		<tag k="ssr:stedsnr" v="685412" />
	</node>
	<node id="9865050000" lat="68.6568032" lon="15.5120395" version="1" timestamp="2022-07-04T05:49:14Z" changeset="123172518" uid="3497659" user="NKA">
		<tag k="name" v="Langbakken" />
		<tag k="place" v="farm" />
		<tag k="ssr:stedsnr" v="381240" />
	</node>
	<node id="9865050001" lat="68.7558909" lon="15.8217145" version="1" timestamp="2022-07-04T05:49:14Z" changeset="123172518" uid="3497659" user="NKA">
		<tag k="name" v="Søreng" />
		<tag k="place" v="farm" />
		<tag k="ssr:stedsnr" v="563142" />
	</node>
	<node id="9865050002" lat="68.7371985" lon="15.8056965" version="1" timestamp="2022-07-04T05:49:14Z" changeset="123172518" uid="3497659" user="NKA">
		<tag k="name" v="Fjordjorda" />
		<tag k="place" v="farm" />
		<tag k="ssr:stedsnr" v="443461" />
	</node>
	<node id="9865050003" lat="68.7611916" lon="15.0942751" version="1" timestamp="2022-07-04T05:49:14Z" changeset="123172518" uid="3497659" user="NKA">
		<tag k="name" v="Rabben" />
		<tag k="place" v="farm" />
		<tag k="ssr:stedsnr" v="503397" />
	</node>
	<node id="9865050004" lat="68.6573444" lon="15.4914722" version="1" timestamp="2022-07-04T05:49:14Z" changeset="123172518" uid="3497659" user="NKA">
		<tag k="alt_name" v="Elvebakken" />
		<tag k="name" v="Elvbakken" />
		<tag k="place" v="farm" />
		<tag k="ssr:stedsnr" v="320212" />
	</node>
	<node id="9865050005" lat="68.76955" lon="15.8940055" version="1" timestamp="2022-07-04T05:49:14Z" changeset="123172518" uid="3497659" user="NKA">
		<tag k="name" v="Hamran" />
		<tag k="place" v="locality" />
		<tag k="ssr:stedsnr" v="199190" />
	</node>
	<node id="9865050006" lat="68.652357" lon="15.4969886" version="1" timestamp="2022-07-04T05:49:14Z" changeset="123172518" uid="3497659" user="NKA">
		<tag k="name" v="Dalsand" />
		<tag k="place" v="farm" />
		<tag k="ssr:stedsnr" v="138211" />
	</node>
	<node id="9865050007" lat="68.8109462" lon="15.4689113" version="1" timestamp="2022-07-04T05:49:14Z" changeset="123172518" uid="3497659" user="NKA">
		<tag k="name" v="Stamnes" />
		<tag k="place" v="hamlet" />
		<tag k="ssr:stedsnr" v="261261" />
	</node>
	<node id="9865050008" lat="68.7997397" lon="15.8864753" version="1" timestamp="2022-07-04T05:49:14Z" changeset="123172518" uid="3497659" user="NKA">
		<tag k="name" v="Berg" />
		<tag k="place" v="farm" />
		<tag k="ssr:stedsnr" v="848403" />
	</node>
	<node id="9865050009" lat="68.7445361" lon="15.5629945" version="1" timestamp="2022-07-04T05:49:14Z" changeset="123172518" uid="3497659" user="NKA">
		<tag k="name" v="Myra" />
		<tag k="place" v="farm" />
		<tag k="ssr:stedsnr" v="79766" />
	</node>
	<node id="9865050010" lat="68.6430014" lon="15.5312389" version="1" timestamp="2022-07-04T05:49:14Z" changeset="123172518" uid="3497659" user="NKA">
		<tag k="name" v="Sigerfjord" />
		<tag k="place" v="farm" />
		<tag k="ssr:stedsnr" v="1076420" />
	</node>
	<node id="9865050011" lat="68.6414167" lon="15.0398084" version="1" timestamp="2022-07-04T05:49:14Z" changeset="123172518" uid="3497659" user="NKA">
		<tag k="name" v="Innerslåtten" />
		<tag k="place" v="locality" />
		<tag k="ssr:stedsnr" v="502236" />
	</node>
	<node id="9865050012" lat="68.8379139" lon="15.9056695" version="1" timestamp="2022-07-04T05:49:14Z" changeset="123172518" uid="3497659" user="NKA">
		<tag k="name" v="Myrvoll" />
		<tag k="place" v="locality" />
		<tag k="ssr:stedsnr" v="399906" />
	</node>
	<node id="9865050013" lat="68.7394806" lon="15.5572555" version="1" timestamp="2022-07-04T05:49:14Z" changeset="123172518" uid="3497659" user="NKA">
		<tag k="name" v="Jettaskogan" />
		<tag k="place" v="farm" />
		<tag k="ssr:stedsnr" v="298758" />
	</node>
	<node id="9865050014" lat="68.6279009" lon="15.4722352" version="1" timestamp="2022-07-04T05:49:14Z" changeset="123172518" uid="3497659" user="NKA">
		<tag k="name" v="Innerbrokløysa" />
		<tag k="place" v="locality" />
		<tag k="ssr:stedsnr" v="78252" />
	</node>
	<node id="9865050015" lat="68.6618361" lon="15.5750778" version="1" timestamp="2022-07-04T05:49:14Z" changeset="123172518" uid="3497659" user="NKA">
		<tag k="name" v="Sætra" />
		<tag k="place" v="isolated_dwelling" />
		<tag k="ssr:stedsnr" v="78276" />
	</node>
	<node id="9865050016" lat="68.7456471" lon="15.5050112" version="1" timestamp="2022-07-04T05:49:14Z" changeset="123172518" uid="3497659" user="NKA">
		<tag k="name" v="Liland - Lidaláddi" />
		<tag k="name:no" v="Liland" />
		<tag k="name:se" v="Lidaláddi" />
		<tag k="place" v="hamlet" />
		<tag k="ssr:stedsnr" v="1075042" />
	</node>
	<node id="9865050017" lat="68.7009945" lon="15.4469277" version="1" timestamp="2022-07-04T05:49:14Z" changeset="123172518" uid="3497659" user="NKA">
		<tag k="name" v="Kjellarbakken" />
		<tag k="place" v="isolated_dwelling" />
		<tag k="ssr:stedsnr" v="704997" />
	</node>
	<node id="9865050018" lat="68.7792902" lon="15.4860196" version="1" timestamp="2022-07-04T05:49:14Z" changeset="123172518" uid="3497659" user="NKA">
		<tag k="name" v="Reinsnes" />
		<tag k="place" v="hamlet" />
		<tag k="ssr:stedsnr" v="867360" />
	</node>
	<node id="9865050019" lat="68.7100323" lon="15.4511066" version="1" timestamp="2022-07-04T05:49:14Z" changeset="123172518" uid="3497659" user="NKA">
		<tag k="name" v="Strand" />
		<tag k="place" v="farm" />
		<tag k="ssr:stedsnr" v="1076343" />
	</node>
	<node id="9865050020" lat="68.7221834" lon="15.4021418" version="1" timestamp="2022-07-04T05:49:14Z" changeset="123172518" uid="3497659" user="NKA">
		<tag k="name" v="Nertoften" />
		<tag k="place" v="farm" />
		<tag k="ssr:stedsnr" v="907954" />
	</node>
	<node id="9865050021" lat="68.7429408" lon="15.5936057" version="1" timestamp="2022-07-04T05:49:14Z" changeset="123172518" uid="3497659" user="NKA">
		<tag k="alt_name:no" v="Hognfjord" />
		<tag k="name" v="Hognfjorden - Onafierda" />
		<tag k="name:no" v="Hognfjorden" />
		<tag k="name:se" v="Onafierda" />
		<tag k="place" v="farm" />
		<tag k="ssr:stedsnr" v="1075067" />
	</node>
	<node id="9865050022" lat="68.6792611" lon="15.4802862" version="1" timestamp="2022-07-04T05:49:14Z" changeset="123172518" uid="3497659" user="NKA">
		<tag k="name" v="Slettmarka" />
		<tag k="place" v="farm" />
		<tag k="ssr:stedsnr" v="643535" />
	</node>
	<node id="9865050023" lat="68.6756195" lon="15.4746778" version="1" timestamp="2022-07-04T05:49:14Z" changeset="123172518" uid="3497659" user="NKA">
		<tag k="name" v="Ånes" />
		<tag k="place" v="farm" />
		<tag k="ssr:stedsnr" v="461572" />
	</node>
	<node id="9865050024" lat="68.6655888" lon="15.475696" version="1" timestamp="2022-07-04T05:49:14Z" changeset="123172518" uid="3497659" user="NKA">
		<tag k="name" v="Kjerringnes - Gernášši" />
		<tag k="name:no" v="Kjerringnes" />
		<tag k="name:se" v="Gernášši" />
		<tag k="place" v="hamlet" />
		<tag k="ssr:stedsnr" v="1075057" />
	</node>
	<node id="9865050025" lat="68.8151119" lon="15.5394993" version="1" timestamp="2022-07-04T05:49:14Z" changeset="123172518" uid="3497659" user="NKA">
		<tag k="alt_name" v="Rogsøy" />
		<tag k="name" v="Roksøy" />
		<tag k="place" v="hamlet" />
		<tag k="ssr:stedsnr" v="199284" />
	</node>
	<node id="9865050026" lat="68.6933667" lon="14.9202971" version="1" timestamp="2022-07-04T05:49:14Z" changeset="123172518" uid="3497659" user="NKA">
		<tag k="name" v="Øvergården" />
		<tag k="place" v="isolated_dwelling" />
		<tag k="ssr:stedsnr" v="892616" />
	</node>
	<node id="9865050027" lat="68.6406164" lon="15.2724307" version="1" timestamp="2022-07-04T05:49:14Z" changeset="123172518" uid="3497659" user="NKA">
		<tag k="alt_name" v="Tjørnvollen" />
		<tag k="name" v="Tjønnvollen" />
		<tag k="place" v="locality" />
		<tag k="ssr:stedsnr" v="320255" />
	</node>
	<node id="9865050028" lat="68.6456777" lon="15.2570166" version="1" timestamp="2022-07-04T05:49:14Z" changeset="123172518" uid="3497659" user="NKA">
		<tag k="name" v="Lyngåsen" />
		<tag k="place" v="isolated_dwelling" />
		<tag k="ssr:stedsnr" v="642738" />
	</node>
	<node id="9865050029" lat="68.7491571" lon="15.4943881" version="1" timestamp="2022-07-04T05:49:14Z" changeset="123172518" uid="3497659" user="NKA">
		<tag k="name" v="Hågen" />
		<tag k="place" v="farm" />
		<tag k="ssr:stedsnr" v="177818" />
	</node>
	<node id="9865050030" lat="68.6238333" lon="15.5931694" version="1" timestamp="2022-07-04T05:49:14Z" changeset="123172518" uid="3497659" user="NKA">
		<tag k="name" v="Kleiva" />
		<tag k="place" v="farm" />
		<tag k="ssr:stedsnr" v="97647" />
	</node>
	<node id="9865050031" lat="68.6341752" lon="15.2160828" version="1" timestamp="2022-07-04T05:49:14Z" changeset="123172518" uid="3497659" user="NKA">
		<tag k="name" v="Store Rise" />
		<tag k="place" v="farm" />
		<tag k="ssr:stedsnr" v="157851" />
	</node>
	<node id="9865050032" lat="68.7206083" lon="15.376536" version="1" timestamp="2022-07-04T05:49:14Z" changeset="123172518" uid="3497659" user="NKA">
		<tag k="name" v="Høgbakkan" />
		<tag k="place" v="farm" />
		<tag k="ssr:stedsnr" v="36949" />
	</node>
	<node id="9865050033" lat="68.7269126" lon="15.4018214" version="1" timestamp="2022-07-04T05:49:14Z" changeset="123172518" uid="3497659" user="NKA">
		<tag k="name" v="Bygd - Bivda" />
		<tag k="name:no" v="Bygd" />
		<tag k="name:se" v="Bivda" />
		<tag k="place" v="farm" />
		<tag k="ssr:stedsnr" v="624775" />
	</node>
	<node id="9865050034" lat="68.7469445" lon="15.14915" version="1" timestamp="2022-07-04T05:49:14Z" changeset="123172518" uid="3497659" user="NKA">
		<tag k="name" v="Langskogen" />
		<tag k="place" v="farm" />
		<tag k="ssr:stedsnr" v="928768" />
	</node>
	<node id="9865050035" lat="68.6645861" lon="15.5676972" version="1" timestamp="2022-07-04T05:49:14Z" changeset="123172518" uid="3497659" user="NKA">
		<tag k="name" v="Kleiva" />
		<tag k="place" v="isolated_dwelling" />
		<tag k="ssr:stedsnr" v="623222" />
	</node>
	<node id="9865050036" lat="68.641788" lon="15.2667407" version="1" timestamp="2022-07-04T05:49:14Z" changeset="123172518" uid="3497659" user="NKA">
		<tag k="name" v="Tjønnvoll" />
		<tag k="place" v="neighbourhood" />
		<tag k="ssr:stedsnr" v="97402" />
	</node>
	<node id="9865050037" lat="68.6303765" lon="15.2064878" version="1" timestamp="2022-07-04T05:49:14Z" changeset="123172518" uid="3497659" user="NKA">
		<tag k="loc_name" v="Litlerise" />
		<tag k="name" v="Lille Rise" />
		<tag k="place" v="farm" />
		<tag k="ssr:stedsnr" v="35862" />
	</node>
	<node id="9865050038" lat="68.7184211" lon="15.4090677" version="1" timestamp="2022-07-04T05:49:14Z" changeset="123172518" uid="3497659" user="NKA">
		<tag k="name" v="Ånstadsjøen" />
		<tag k="place" v="hamlet" />
		<tag k="ssr:stedsnr" v="279604" />
	</node>
	<node id="9865050039" lat="68.5870753" lon="15.4316492" version="1" timestamp="2022-07-04T05:49:14Z" changeset="123172518" uid="3497659" user="NKA">
		<tag k="name" v="Elvsletta" />
		<tag k="place" v="isolated_dwelling" />
		<tag k="ssr:stedsnr" v="179613" />
	</node>
	<node id="9865050040" lat="68.691925" lon="14.9200305" version="1" timestamp="2022-07-04T05:49:14Z" changeset="123172518" uid="3497659" user="NKA">
		<tag k="name" v="Nergården" />
		<tag k="place" v="isolated_dwelling" />
		<tag k="ssr:stedsnr" v="709631" />
	</node>
	<node id="9865050041" lat="68.692375" lon="14.9264917" version="1" timestamp="2022-07-04T05:49:14Z" changeset="123172518" uid="3497659" user="NKA">
		<tag k="name" v="Øvrenesene" />
		<tag k="place" v="isolated_dwelling" />
		<tag k="ssr:stedsnr" v="406635" />
	</node>
	<node id="9865050042" lat="68.6621639" lon="15.5260917" version="1" timestamp="2022-07-04T05:49:14Z" changeset="123172518" uid="3497659" user="NKA">
		<tag k="name" v="Moen" />
		<tag k="place" v="farm" />
		<tag k="ssr:stedsnr" v="502195" />
	</node>
	<node id="9865050043" lat="68.7041444" lon="15.261775" version="1" timestamp="2022-07-04T05:49:14Z" changeset="123172518" uid="3497659" user="NKA">
		<tag k="name" v="Solvang" />
		<tag k="place" v="farm" />
		<tag k="ssr:stedsnr" v="807808" />
	</node>
	<node id="9865050044" lat="68.6907889" lon="14.9286167" version="1" timestamp="2022-07-04T05:49:14Z" changeset="123172518" uid="3497659" user="NKA">
		<tag k="name" v="Nedrenesene" />
		<tag k="place" v="isolated_dwelling" />
		<tag k="ssr:stedsnr" v="345618" />
	</node>
	<node id="9865050045" lat="68.7582524" lon="15.1297425" version="1" timestamp="2022-07-04T05:49:14Z" changeset="123172518" uid="3497659" user="NKA">
		<tag k="name" v="Nergarden" />
		<tag k="place" v="farm" />
		<tag k="ssr:stedsnr" v="763450" />
	</node>
	<node id="9865050046" lat="68.6601889" lon="15.3185861" version="1" timestamp="2022-07-04T05:49:14Z" changeset="123172518" uid="3497659" user="NKA">
		<tag k="name" v="Røa" />
		<tag k="place" v="farm" />
		<tag k="ssr:stedsnr" v="806211" />
	</node>
	<node id="9865050047" lat="68.7095944" lon="15.1443167" version="1" timestamp="2022-07-04T05:49:14Z" changeset="123172518" uid="3497659" user="NKA">
		<tag k="name" v="Nygård" />
		<tag k="place" v="farm" />
		<tag k="ssr:stedsnr" v="442886" />
	</node>
	<node id="9865050048" lat="68.7102889" lon="15.2555444" version="1" timestamp="2022-07-04T05:49:14Z" changeset="123172518" uid="3497659" user="NKA">
		<tag k="name" v="Vikstad" />
		<tag k="place" v="farm" />
		<tag k="ssr:stedsnr" v="806882" />
	</node>
	<node id="9865050049" lat="68.7638795" lon="15.1424585" version="1" timestamp="2022-07-04T05:49:14Z" changeset="123172518" uid="3497659" user="NKA">
		<tag k="name" v="Bakketun" />
		<tag k="place" v="farm" />
		<tag k="ssr:stedsnr" v="847638" />
	</node>
	<node id="9865050050" lat="68.7599256" lon="15.2159361" version="1" timestamp="2022-07-04T05:49:14Z" changeset="123172518" uid="3497659" user="NKA">
		<tag k="name" v="Lamarka" />
		<tag k="place" v="farm" />
		<tag k="ssr:stedsnr" v="763446" />
	</node>
	<node id="9865050051" lat="68.6939389" lon="15.0637499" version="1" timestamp="2022-07-04T05:49:14Z" changeset="123172518" uid="3497659" user="NKA">
		<tag k="name" v="Avhaldet" />
		<tag k="place" v="farm" />
		<tag k="ssr:stedsnr" v="928829" />
	</node>
	<node id="9865050052" lat="68.7534939" lon="15.4698561" version="1" timestamp="2022-07-04T05:49:14Z" changeset="123172518" uid="3497659" user="NKA">
		<tag k="name" v="Maurnes" />
		<tag k="place" v="quarter" />
		<tag k="ssr:stedsnr" v="139388" />
	</node>
	<node id="9865050053" lat="68.6206302" lon="15.6361422" version="1" timestamp="2022-07-04T05:49:14Z" changeset="123172518" uid="3497659" user="NKA">
		<tag k="name" v="Sommarhågen" />
		<tag k="place" v="isolated_dwelling" />
		<tag k="ssr:stedsnr" v="764627" />
	</node>
	<node id="9865050054" lat="68.7583419" lon="15.1231886" version="1" timestamp="2022-07-04T05:49:14Z" changeset="123172518" uid="3497659" user="NKA">
		<tag k="name" v="Mellomgarden" />
		<tag k="place" v="farm" />
		<tag k="ssr:stedsnr" v="641367" />
	</node>
	<node id="9865050055" lat="68.7582159" lon="15.1386896" version="1" timestamp="2022-07-04T05:49:14Z" changeset="123172518" uid="3497659" user="NKA">
		<tag k="name" v="Vangen" />
		<tag k="place" v="farm" />
		<tag k="ssr:stedsnr" v="520415" />
	</node>
	<node id="9865050056" lat="68.7604223" lon="15.0600861" version="1" timestamp="2022-07-04T05:49:14Z" changeset="123172518" uid="3497659" user="NKA">
		<tag k="alt_name" v="Toften" />
		<tag k="name" v="Tofta" />
		<tag k="place" v="farm" />
		<tag k="ssr:stedsnr" v="928387" />
	</node>
	<node id="9865050057" lat="68.7663306" lon="15.0633639" version="1" timestamp="2022-07-04T05:49:14Z" changeset="123172518" uid="3497659" user="NKA">
		<tag k="name" v="Åsheim" />
		<tag k="place" v="farm" />
		<tag k="ssr:stedsnr" v="746314" />
	</node>
	<node id="9865050058" lat="68.7297611" lon="15.402425" version="1" timestamp="2022-07-04T05:49:14Z" changeset="123172518" uid="3497659" user="NKA">
		<tag k="name" v="Vollen" />
		<tag k="place" v="farm" />
		<tag k="ssr:stedsnr" v="138776" />
	</node>
	<node id="9865050059" lat="68.6633388" lon="15.4818584" version="1" timestamp="2022-07-04T05:49:14Z" changeset="123172518" uid="3497659" user="NKA">
		<tag k="name" v="Fredheim" />
		<tag k="place" v="farm" />
		<tag k="ssr:stedsnr" v="684208" />
	</node>
	<node id="9865050060" lat="68.6771833" lon="15.4762972" version="1" timestamp="2022-07-04T05:49:14Z" changeset="123172518" uid="3497659" user="NKA">
		<tag k="name" v="Osvoll" />
		<tag k="place" v="hamlet" />
		<tag k="ssr:stedsnr" v="684176" />
	</node>
	<node id="9865050061" lat="68.7584528" lon="15.2276027" version="1" timestamp="2022-07-04T05:49:14Z" changeset="123172518" uid="3497659" user="NKA">
		<tag k="name" v="Vikeidet" />
		<tag k="place" v="farm" />
		<tag k="ssr:stedsnr" v="624439" />
	</node>
	<node id="9865050062" lat="68.7585528" lon="15.113098" version="1" timestamp="2022-07-04T05:49:14Z" changeset="123172518" uid="3497659" user="NKA">
		<tag k="loc_name:se" v="Froská" />
		<tag k="name" v="Frøskeland" />
		<tag k="name:no" v="Frøskeland" />
		<tag k="place" v="hamlet" />
		<tag k="ssr:stedsnr" v="321396" />
	</node>
	<node id="9865050063" lat="68.651575" lon="15.6168277" version="1" timestamp="2022-07-04T05:49:14Z" changeset="123172518" uid="3497659" user="NKA">
		<tag k="name" v="Slåtten" />
		<tag k="place" v="farm" />
		<tag k="ssr:stedsnr" v="502239" />
	</node>
	<node id="9865050064" lat="68.7527944" lon="15.1902194" version="1" timestamp="2022-07-04T05:49:14Z" changeset="123172518" uid="3497659" user="NKA">
		<tag k="name" v="Vasshaugen" />
		<tag k="place" v="farm" />
		<tag k="ssr:stedsnr" v="321404" />
	</node>
	<node id="9865050065" lat="68.6908195" lon="15.4058166" version="1" timestamp="2022-07-04T05:49:14Z" changeset="123172518" uid="3497659" user="NKA">
		<tag k="name" v="Lykketreff" />
		<tag k="place" v="locality" />
		<tag k="ssr:stedsnr" v="583527" />
	</node>
	<node id="9865050066" lat="68.6312557" lon="15.5863364" version="1" timestamp="2022-07-04T05:49:14Z" changeset="123172518" uid="3497659" user="NKA">
		<tag k="alt_name:no" v="Olderskog" />
		<tag k="loc_name:se" v="Oldurak" />
		<tag k="name" v="Olderskogan" />
		<tag k="name:no" v="Olderskogan" />
		<tag k="place" v="hamlet" />
		<tag k="ssr:stedsnr" v="78018" />
	</node>
	<node id="9865050067" lat="68.7205694" lon="15.3780944" version="1" timestamp="2022-07-04T05:49:14Z" changeset="123172518" uid="3497659" user="NKA">
		<tag k="name" v="Rya" />
		<tag k="place" v="farm" />
		<tag k="ssr:stedsnr" v="946953" />
	</node>
	<node id="9865050068" lat="68.6850833" lon="15.3963722" version="1" timestamp="2022-07-04T05:49:14Z" changeset="123172518" uid="3497659" user="NKA">
		<tag k="alt_name" v="Strandskogen" />
		<tag k="name" v="Strandskog" />
		<tag k="place" v="neighbourhood" />
		<tag k="ssr:stedsnr" v="947511" />
	</node>
	<node id="9865050069" lat="68.620981" lon="15.6316978" version="1" timestamp="2022-07-04T05:49:14Z" changeset="123172518" uid="3497659" user="NKA">
		<tag k="name" v="Austpollen" />
		<tag k="place" v="hamlet" />
		<tag k="ssr:stedsnr" v="867363" />
	</node>
	<node id="9865050070" lat="68.708997" lon="15.1184826" version="1" timestamp="2022-07-04T05:49:14Z" changeset="123172518" uid="3497659" user="NKA">
		<tag k="name" v="Sildpollen" />
		<tag k="place" v="hamlet" />
		<tag k="ssr:stedsnr" v="928855" />
	</node>
	<node id="9865050071" lat="68.6805043" lon="15.0668013" version="1" timestamp="2022-07-04T05:49:14Z" changeset="123172518" uid="3497659" user="NKA">
		<tag k="alt_name" v="Straumfjorden" />
		<tag k="name" v="Straumfjord" />
		<tag k="place" v="hamlet" />
		<tag k="ssr:stedsnr" v="945574" />
	</node>
	<node id="9865050072" lat="68.657025" lon="15.5973861" version="1" timestamp="2022-07-04T05:49:14Z" changeset="123172518" uid="3497659" user="NKA">
		<tag k="name" v="Dalheim" />
		<tag k="place" v="farm" />
		<tag k="ssr:stedsnr" v="563253" />
	</node>
	<node id="9865050073" lat="68.8074419" lon="15.4699071" version="1" timestamp="2022-07-04T05:49:14Z" changeset="123172518" uid="3497659" user="NKA">
		<tag k="name" v="Vollen" />
		<tag k="place" v="farm" />
		<tag k="ssr:stedsnr" v="503237" />
	</node>
	<node id="9865050074" lat="68.7508206" lon="15.1426178" version="1" timestamp="2022-07-04T05:49:14Z" changeset="123172518" uid="3497659" user="NKA">
		<tag k="name" v="Stranda" />
		<tag k="place" v="hamlet" />
		<tag k="ssr:stedsnr" v="139454" />
	</node>
	<node id="9865050075" lat="68.7612333" lon="15.0683054" version="1" timestamp="2022-07-04T05:49:14Z" changeset="123172518" uid="3497659" user="NKA">
		<tag k="alt_name" v="Sletten" />
		<tag k="name" v="Slettene" />
		<tag k="place" v="farm" />
		<tag k="ssr:stedsnr" v="78331" />
	</node>
	<node id="9865050076" lat="68.767445" lon="15.0206258" version="1" timestamp="2022-07-04T05:49:14Z" changeset="123172518" uid="3497659" user="NKA">
		<tag k="name" v="Bjørndalen" />
		<tag k="place" v="farm" />
		<tag k="ssr:stedsnr" v="928290" />
	</node>
	<node id="9865050077" lat="68.7440861" lon="15.5987888" version="1" timestamp="2022-07-04T05:49:14Z" changeset="123172518" uid="3497659" user="NKA">
		<tag k="name" v="Mølla" />
		<tag k="place" v="isolated_dwelling" />
		<tag k="ssr:stedsnr" v="157696" />
	</node>
	<node id="9865050078" lat="68.7567083" lon="15.2622417" version="1" timestamp="2022-07-04T05:49:14Z" changeset="123172518" uid="3497659" user="NKA">
		<tag k="name" v="Bruland" />
		<tag k="place" v="hamlet" />
		<tag k="ssr:stedsnr" v="139442" />
	</node>
	<node id="9865050079" lat="68.6272379" lon="15.5907833" version="1" timestamp="2022-07-04T05:49:14Z" changeset="123172518" uid="3497659" user="NKA">
		<tag k="name" v="Breines" />
		<tag k="place" v="farm" />
		<tag k="ssr:stedsnr" v="339638" />
	</node>
	<node id="9865050080" lat="68.7575139" lon="15.2720029" version="1" timestamp="2022-07-04T05:49:14Z" changeset="123172518" uid="3497659" user="NKA">
		<tag k="name" v="Sør-Vik" />
		<tag k="place" v="farm" />
		<tag k="ssr:stedsnr" v="824081" />
	</node>
	<node id="9865050081" lat="68.7631541" lon="15.0590731" version="1" timestamp="2022-07-04T05:49:14Z" changeset="123172518" uid="3497659" user="NKA">
		<tag k="name" v="Åsli" />
		<tag k="place" v="farm" />
		<tag k="ssr:stedsnr" v="563326" />
	</node>
	<node id="9865050082" lat="68.7486944" lon="15.3174028" version="1" timestamp="2022-07-04T05:49:14Z" changeset="123172518" uid="3497659" user="NKA">
		<tag k="name" v="Holten" />
		<tag k="place" v="farm" />
		<tag k="ssr:stedsnr" v="321773" />
	</node>
	<node id="9865050083" lat="68.769" lon="15.0561917" version="1" timestamp="2022-07-04T05:49:14Z" changeset="123172518" uid="3497659" user="NKA">
		<tag k="name" v="Grønjorda" />
		<tag k="place" v="farm" />
		<tag k="ssr:stedsnr" v="806328" />
	</node>
	<node id="9865050084" lat="68.6324416" lon="15.5644499" version="1" timestamp="2022-07-04T05:49:14Z" changeset="123172518" uid="3497659" user="NKA">
		<tag k="name" v="Husvik" />
		<tag k="place" v="neighbourhood" />
		<tag k="ssr:stedsnr" v="320232" />
	</node>
	<node id="9865050085" lat="68.6398972" lon="15.5590527" version="1" timestamp="2022-07-04T05:49:14Z" changeset="123172518" uid="3497659" user="NKA">
		<tag k="name" v="Øverland" />
		<tag k="place" v="isolated_dwelling" />
		<tag k="ssr:stedsnr" v="260282" />
	</node>
	<node id="9865050086" lat="68.8157556" lon="15.6048889" version="1" timestamp="2022-07-04T05:49:14Z" changeset="123172518" uid="3497659" user="NKA">
		<tag k="alt_name" v="Vibukta" />
		<tag k="name" v="Vidbukta" />
		<tag k="place" v="farm" />
		<tag k="ssr:stedsnr" v="442296" />
	</node>
	<node id="9865050087" lat="68.7338583" lon="14.9634111" version="1" timestamp="2022-07-04T05:49:14Z" changeset="123172518" uid="3497659" user="NKA">
		<tag k="name" v="Sætra" />
		<tag k="place" v="isolated_dwelling" />
		<tag k="ssr:stedsnr" v="544847" />
	</node>
	<node id="9865050088" lat="68.7014222" lon="15.4043167" version="1" timestamp="2022-07-04T05:49:14Z" changeset="123172518" uid="3497659" user="NKA">
		<tag k="name" v="Kjerkåsen" />
		<tag k="place" v="neighbourhood" />
		<tag k="ssr:stedsnr" v="764986" />
	</node>
	<node id="9865050089" lat="68.7575166" lon="15.1792527" version="1" timestamp="2022-07-04T05:49:14Z" changeset="123172518" uid="3497659" user="NKA">
		<tag k="name" v="Lyngmo" />
		<tag k="place" v="hamlet" />
		<tag k="ssr:stedsnr" v="443441" />
	</node>
	<node id="9865050090" lat="68.7670334" lon="15.0531999" version="1" timestamp="2022-07-04T05:49:14Z" changeset="123172518" uid="3497659" user="NKA">
		<tag k="name" v="Vollen" />
		<tag k="place" v="farm" />
		<tag k="ssr:stedsnr" v="279551" />
	</node>
	<node id="9865050091" lat="68.7043167" lon="15.1547971" version="1" timestamp="2022-07-04T05:49:14Z" changeset="123172518" uid="3497659" user="NKA">
		<tag k="name" v="Valfjord" />
		<tag k="place" v="hamlet" />
		<tag k="ssr:stedsnr" v="746781" />
	</node>
	<node id="9865050092" lat="68.7580805" lon="15.1359944" version="1" timestamp="2022-07-04T05:49:14Z" changeset="123172518" uid="3497659" user="NKA">
		<tag k="name" v="Vollan" />
		<tag k="place" v="farm" />
		<tag k="ssr:stedsnr" v="581461" />
	</node>
	<node id="9865050093" lat="68.6622306" lon="15.487661" version="1" timestamp="2022-07-04T05:49:14Z" changeset="123172518" uid="3497659" user="NKA">
		<tag k="name" v="Vintersteinen" />
		<tag k="place" v="farm" />
		<tag k="ssr:stedsnr" v="36455" />
	</node>
	<node id="9865050094" lat="68.7101744" lon="15.409235" version="1" timestamp="2022-07-04T05:49:14Z" changeset="123172518" uid="3497659" user="NKA">
		<tag k="name" v="Selnes" />
		<tag k="place" v="farm" />
		<tag k="ssr:stedsnr" v="442889" />
	</node>
	<node id="9865050095" lat="68.6827333" lon="15.0623305" version="1" timestamp="2022-07-04T05:49:14Z" changeset="123172518" uid="3497659" user="NKA">
		<tag k="alt_name" v="Straumfjord, indre" />
		<tag k="name" v="Indre Straumfjord" />
		<tag k="place" v="farm" />
		<tag k="ssr:stedsnr" v="261138" />
	</node>
	<node id="9865050096" lat="68.6443366" lon="15.5051918" version="1" timestamp="2022-07-04T05:49:14Z" changeset="123172518" uid="3497659" user="NKA">
		<tag k="name" v="Ramnkloa" />
		<tag k="place" v="farm" />
		<tag k="ssr:stedsnr" v="36444" />
	</node>
	<node id="9865050097" lat="68.7432551" lon="15.6608497" version="1" timestamp="2022-07-04T05:49:14Z" changeset="123172518" uid="3497659" user="NKA">
		<tag k="alt_name" v="Eidbukta" />
		<tag k="name" v="Eidebukta" />
		<tag k="place" v="hamlet" />
		<tag k="ssr:stedsnr" v="18396" />
	</node>
	<node id="9865050098" lat="68.7559194" lon="15.0861084" version="1" timestamp="2022-07-04T05:49:14Z" changeset="123172518" uid="3497659" user="NKA">
		<tag k="name" v="Selnesbukt" />
		<tag k="place" v="farm" />
		<tag k="ssr:stedsnr" v="139430" />
	</node>
	<node id="9865050099" lat="68.7538527" lon="15.268189" version="1" timestamp="2022-07-04T05:49:14Z" changeset="123172518" uid="3497659" user="NKA">
		<tag k="name" v="Vikosen" />
		<tag k="place" v="farm" />
		<tag k="ssr:stedsnr" v="460078" />
	</node>
	<node id="9865050100" lat="68.7114439" lon="14.9603412" version="1" timestamp="2022-07-04T05:49:14Z" changeset="123172518" uid="3497659" user="NKA">
		<tag k="name" v="Valen" />
		<tag k="place" v="isolated_dwelling" />
		<tag k="ssr:stedsnr" v="103666" />
	</node>
	<node id="9865050101" lat="68.7407167" lon="15.13785" version="1" timestamp="2022-07-04T05:49:14Z" changeset="123172518" uid="3497659" user="NKA">
		<tag k="name" v="Altona" />
		<tag k="place" v="farm" />
		<tag k="ssr:stedsnr" v="685794" />
	</node>
	<node id="9865050102" lat="68.7329222" lon="15.0714694" version="1" timestamp="2022-07-04T05:49:14Z" changeset="123172518" uid="3497659" user="NKA">
		<tag k="name" v="Ranheim" />
		<tag k="place" v="farm" />
		<tag k="ssr:stedsnr" v="18687" />
	</node>
	<node id="9865050103" lat="68.7254778" lon="15.1639084" version="1" timestamp="2022-07-04T05:49:14Z" changeset="123172518" uid="3497659" user="NKA">
		<tag k="alt_name" v="Raen" />
		<tag k="name" v="Raene" />
		<tag k="place" v="farm" />
		<tag k="ssr:stedsnr" v="381815" />
	</node>
	<node id="9865050104" lat="68.7167556" lon="15.3875779" version="1" timestamp="2022-07-04T05:49:14Z" changeset="123172518" uid="3497659" user="NKA">
		<tag k="name" v="Martahaugen" />
		<tag k="place" v="farm" />
		<tag k="ssr:stedsnr" v="200842" />
	</node>
	<node id="9865050105" lat="68.839975" lon="15.3839195" version="1" timestamp="2022-07-04T05:49:14Z" changeset="123172518" uid="3497659" user="NKA">
		<tag k="name" v="Stranda" />
		<tag k="place" v="farm" />
		<tag k="ssr:stedsnr" v="745338" />
	</node>
	<node id="9865050106" lat="68.7177445" lon="15.1895027" version="1" timestamp="2022-07-04T05:49:14Z" changeset="123172518" uid="3497659" user="NKA">
		<tag k="name" v="Fagereng" />
		<tag k="place" v="farm" />
		<tag k="ssr:stedsnr" v="381819" />
	</node>
	<node id="9865050107" lat="68.6276807" lon="15.4581453" version="1" timestamp="2022-07-04T05:49:14Z" changeset="123172518" uid="3497659" user="NKA">
		<tag k="name" v="Brokløysa" />
		<tag k="place" v="farm" />
		<tag k="ssr:stedsnr" v="1076421" />
	</node>
	<node id="9865050108" lat="68.6262055" lon="15.4541916" version="1" timestamp="2022-07-04T05:49:14Z" changeset="123172518" uid="3497659" user="NKA">
		<tag k="name" v="Ytterbrokløysa" />
		<tag k="place" v="farm" />
		<tag k="ssr:stedsnr" v="17037" />
	</node>
	<node id="9865050109" lat="68.7682167" lon="15.0270194" version="1" timestamp="2022-07-04T05:49:14Z" changeset="123172518" uid="3497659" user="NKA">
		<tag k="name" v="Toften" />
		<tag k="place" v="farm" />
		<tag k="ssr:stedsnr" v="663156" />
	</node>
	<node id="9865050110" lat="68.7130861" lon="15.2191945" version="1" timestamp="2022-07-04T05:49:14Z" changeset="123172518" uid="3497659" user="NKA">
		<tag k="name" v="Lundgård" />
		<tag k="place" v="farm" />
		<tag k="ssr:stedsnr" v="503814" />
	</node>
	<node id="9865050111" lat="68.7702409" lon="15.8398111" version="1" timestamp="2022-07-04T05:49:14Z" changeset="123172518" uid="3497659" user="NKA">
		<tag k="name" v="Molund" />
		<tag k="place" v="farm" />
		<tag k="ssr:stedsnr" v="969348" />
	</node>
	<node id="9865050112" lat="68.7066583" lon="15.1847611" version="1" timestamp="2022-07-04T05:49:14Z" changeset="123172518" uid="3497659" user="NKA">
		<tag k="name" v="Fjellbu" />
		<tag k="place" v="farm" />
		<tag k="ssr:stedsnr" v="321811" />
	</node>
	<node id="9865050113" lat="68.592125" lon="15.3194862" version="1" timestamp="2022-07-04T05:49:14Z" changeset="123172518" uid="3497659" user="NKA">
		<tag k="name" v="Rødsand - Rovdasáddu" />
		<tag k="name:no" v="Rødsand" />
		<tag k="name:se" v="Rovdasáddu" />
		<tag k="place" v="farm" />
		<tag k="ssr:stedsnr" v="867044" />
	</node>
	<node id="9865050114" lat="68.655275" lon="15.3323334" version="1" timestamp="2022-07-04T05:49:14Z" changeset="123172518" uid="3497659" user="NKA">
		<tag k="name" v="Bønes" />
		<tag k="place" v="farm" />
		<tag k="ssr:stedsnr" v="461424" />
	</node>
	<node id="9865050115" lat="68.6773028" lon="15.156839" version="1" timestamp="2022-07-04T05:49:14Z" changeset="123172518" uid="3497659" user="NKA">
		<tag k="name" v="Innersetra" />
		<tag k="place" v="isolated_dwelling" />
		<tag k="ssr:stedsnr" v="399577" />
	</node>
	<node id="9865050116" lat="68.7989346" lon="15.2662035" version="1" timestamp="2022-07-04T05:49:14Z" changeset="123172518" uid="3497659" user="NKA">
		<tag k="name" v="Vollen" />
		<tag k="place" v="isolated_dwelling" />
		<tag k="ssr:stedsnr" v="321316" />
	</node>
	<node id="9865050117" lat="68.6331758" lon="15.2099609" version="1" timestamp="2022-07-04T05:49:14Z" changeset="123172518" uid="3497659" user="NKA">
		<tag k="name" v="Rise" />
		<tag k="place" v="hamlet" />
		<tag k="ssr:stedsnr" v="260284" />
	</node>
	<node id="9865050118" lat="68.6997574" lon="15.0800887" version="1" timestamp="2022-07-04T05:49:14Z" changeset="123172518" uid="3497659" user="NKA">
		<tag k="name" v="Sildvika" />
		<tag k="place" v="farm" />
		<tag k="ssr:stedsnr" v="382797" />
	</node>
	<node id="9865050119" lat="68.8168889" lon="15.5358306" version="1" timestamp="2022-07-04T05:49:14Z" changeset="123172518" uid="3497659" user="NKA">
		<tag k="name" v="Haugan" />
		<tag k="place" v="farm" />
		<tag k="ssr:stedsnr" v="784105" />
	</node>
	<node id="9865050120" lat="68.7559404" lon="15.0813744" version="1" timestamp="2022-07-04T05:49:14Z" changeset="123172518" uid="3497659" user="NKA">
		<tag k="name" v="Solstrand" />
		<tag k="place" v="farm" />
		<tag k="ssr:stedsnr" v="382415" />
	</node>
	<node id="9865050121" lat="68.7200136" lon="15.379601" version="1" timestamp="2022-07-04T05:49:14Z" changeset="123172518" uid="3497659" user="NKA">
		<tag k="name" v="Rabben" />
		<tag k="place" v="farm" />
		<tag k="ssr:stedsnr" v="339943" />
	</node>
	<node id="9865050122" lat="68.5701375" lon="15.3403965" version="1" timestamp="2022-07-04T05:49:14Z" changeset="123172518" uid="3497659" user="NKA">
		<tag k="alt_name" v="Fiskfjord" />
		<tag k="name" v="Fiskfjorden" />
		<tag k="place" v="hamlet" />
		<tag k="ssr:stedsnr" v="646989" />
	</node>
	<node id="9865050123" lat="68.6987666" lon="15.3909389" version="1" timestamp="2022-07-04T05:49:14Z" changeset="123172518" uid="3497659" user="NKA">
		<tag k="name" v="Vestmarka" />
		<tag k="place" v="neighbourhood" />
		<tag k="ssr:stedsnr" v="339975" />
	</node>
	<node id="9865050124" lat="68.7563333" lon="15.1944916" version="1" timestamp="2022-07-04T05:49:14Z" changeset="123172518" uid="3497659" user="NKA">
		<tag k="name" v="Myrstad" />
		<tag k="place" v="farm" />
		<tag k="ssr:stedsnr" v="216096" />
	</node>
	<node id="9865050125" lat="68.7575185" lon="15.8706029" version="1" timestamp="2022-07-04T05:49:14Z" changeset="123172518" uid="3497659" user="NKA">
		<tag k="name" v="Inner-Bjørnrå" />
		<tag k="place" v="hamlet" />
		<tag k="ssr:stedsnr" v="807179" />
	</node>
	<node id="9865050126" lat="68.691975" lon="15.0588695" version="1" timestamp="2022-07-04T05:49:14Z" changeset="123172518" uid="3497659" user="NKA">
		<tag k="name" v="Skjeringberget" />
		<tag k="place" v="farm" />
		<tag k="ssr:stedsnr" v="339321" />
	</node>
	<node id="9865050127" lat="68.75875" lon="15.1176417" version="1" timestamp="2022-07-04T05:49:14Z" changeset="123172518" uid="3497659" user="NKA">
		<tag k="name" v="Øvergarden" />
		<tag k="place" v="farm" />
		<tag k="ssr:stedsnr" v="217421" />
	</node>
	<node id="9865050128" lat="68.806702" lon="15.889049" version="1" timestamp="2022-07-04T05:49:14Z" changeset="123172518" uid="3497659" user="NKA">
		<tag k="name" v="Myrland" />
		<tag k="place" v="hamlet" />
		<tag k="ssr:stedsnr" v="604375" />
	</node>
	<node id="9865050129" lat="68.7079626" lon="15.2194137" version="1" timestamp="2022-07-04T05:49:14Z" changeset="123172518" uid="3497659" user="NKA">
		<tag k="name" v="Engan" />
		<tag k="place" v="farm" />
		<tag k="ssr:stedsnr" v="685815" />
	</node>
	<node id="9865050130" lat="68.740375" lon="15.6816167" version="1" timestamp="2022-07-04T05:49:14Z" changeset="123172518" uid="3497659" user="NKA">
		<tag k="name" v="Godfjordeidet" />
		<tag k="place" v="farm" />
		<tag k="ssr:stedsnr" v="685423" />
	</node>
	<node id="9865050131" lat="68.6318921" lon="15.2412413" version="1" timestamp="2022-07-04T05:49:14Z" changeset="123172518" uid="3497659" user="NKA">
		<tag k="name" v="Latofta" />
		<tag k="place" v="locality" />
		<tag k="ssr:stedsnr" v="157726" />
	</node>
	<node id="9865050132" lat="68.6162833" lon="15.426564" version="1" timestamp="2022-07-04T05:49:14Z" changeset="123172518" uid="3497659" user="NKA">
		<tag k="name" v="Djupfjord" />
		<tag k="place" v="hamlet" />
		<tag k="ssr:stedsnr" v="199020" />
	</node>
	<node id="9865050133" lat="68.764725" lon="15.0646139" version="1" timestamp="2022-07-04T05:49:14Z" changeset="123172518" uid="3497659" user="NKA">
		<tag k="name" v="Åsgård" />
		<tag k="place" v="farm" />
		<tag k="ssr:stedsnr" v="200339" />
	</node>
	<node id="9865050134" lat="68.6956328" lon="15.176727" version="1" timestamp="2022-07-04T05:49:14Z" changeset="123172518" uid="3497659" user="NKA">
		<tag k="alt_name:no" v="Oshaug" />
		<tag k="name" v="Oshaugen - Hodja" />
		<tag k="name:no" v="Oshaugen" />
		<tag k="name:se" v="Hodja" />
		<tag k="place" v="farm" />
		<tag k="ssr:stedsnr" v="564836" />
	</node>
	<node id="9865050135" lat="68.651125" lon="15.6216167" version="1" timestamp="2022-07-04T05:49:14Z" changeset="123172518" uid="3497659" user="NKA">
		<tag k="name" v="Guttormslåtta" />
		<tag k="place" v="farm" />
		<tag k="ssr:stedsnr" v="806313" />
	</node>
	<node id="9865050136" lat="68.7477916" lon="15.3165" version="1" timestamp="2022-07-04T05:49:14Z" changeset="123172518" uid="3497659" user="NKA">
		<tag k="name" v="Bakkan" />
		<tag k="place" v="isolated_dwelling" />
		<tag k="ssr:stedsnr" v="36631" />
	</node>
	<node id="9865050137" lat="68.7478583" lon="15.1599055" version="1" timestamp="2022-07-04T05:49:14Z" changeset="123172518" uid="3497659" user="NKA">
		<tag k="name" v="Solbakken" />
		<tag k="place" v="farm" />
		<tag k="ssr:stedsnr" v="867802" />
	</node>
	<node id="9865050138" lat="68.7130639" lon="15.2321777" version="1" timestamp="2022-07-04T05:49:14Z" changeset="123172518" uid="3497659" user="NKA">
		<tag k="name" v="Skoglund" />
		<tag k="place" v="farm" />
		<tag k="ssr:stedsnr" v="260898" />
	</node>
	<node id="9865050139" lat="68.650809" lon="15.5049858" version="1" timestamp="2022-07-04T05:49:14Z" changeset="123172518" uid="3497659" user="NKA">
		<tag k="name" v="Rishaugen" />
		<tag k="place" v="farm" />
		<tag k="ssr:stedsnr" v="946451" />
	</node>
	<node id="9865050140" lat="68.7541806" lon="15.2083251" version="1" timestamp="2022-07-04T05:49:14Z" changeset="123172518" uid="3497659" user="NKA">
		<tag k="name" v="Høystakktjørna" />
		<tag k="place" v="farm" />
		<tag k="ssr:stedsnr" v="79400" />
	</node>
	<node id="9865050141" lat="68.7436675" lon="15.5996758" version="1" timestamp="2022-07-04T05:49:14Z" changeset="123172518" uid="3497659" user="NKA">
		<tag k="alt_name:no" v="Hognfjord" />
		<tag k="loc_name:se" v="Onafierda" />
		<tag k="name" v="Hognfjorden" />
		<tag k="name:no" v="Hognfjorden" />
		<tag k="place" v="hamlet" />
		<tag k="ssr:stedsnr" v="503754" />
	</node>
	<node id="9865050142" lat="68.7054144" lon="15.2506441" version="1" timestamp="2022-07-04T05:49:14Z" changeset="123172518" uid="3497659" user="NKA">
		<tag k="name" v="Finstad" />
		<tag k="place" v="farm" />
		<tag k="ssr:stedsnr" v="1080686" />
	</node>
	<node id="9865050143" lat="68.6821414" lon="15.3879938" version="1" timestamp="2022-07-04T05:49:14Z" changeset="123172518" uid="3497659" user="NKA">
		<tag k="name" v="Nord-Steiro" />
		<tag k="place" v="quarter" />
		<tag k="ssr:stedsnr" v="928115" />
	</node>
	<node id="9865050144" lat="68.659282" lon="15.3135577" version="1" timestamp="2022-07-04T05:49:14Z" changeset="123172518" uid="3497659" user="NKA">
		<tag k="name" v="Øverbø" />
		<tag k="place" v="farm" />
		<tag k="ssr:stedsnr" v="980644" />
	</node>
	<node id="9865050145" lat="68.7943334" lon="15.8866376" version="1" timestamp="2022-07-04T05:49:14Z" changeset="123172518" uid="3497659" user="NKA">
		<tag k="name" v="Lunde" />
		<tag k="place" v="farm" />
		<tag k="ssr:stedsnr" v="868067" />
	</node>
	<node id="9865050146" lat="68.7959234" lon="15.8862036" version="1" timestamp="2022-07-04T05:49:14Z" changeset="123172518" uid="3497659" user="NKA">
		<tag k="name" v="Nordlund" />
		<tag k="place" v="farm" />
		<tag k="ssr:stedsnr" v="868089" />
	</node>
	<node id="9865050147" lat="68.7263207" lon="15.1587574" version="1" timestamp="2022-07-04T05:49:14Z" changeset="123172518" uid="3497659" user="NKA">
		<tag k="name" v="Holmstad" />
		<tag k="place" v="farm" />
		<tag k="ssr:stedsnr" v="1076706" />
	</node>
	<node id="9865050148" lat="68.6983355" lon="15.1526093" version="1" timestamp="2022-07-04T05:49:14Z" changeset="123172518" uid="3497659" user="NKA">
		<tag k="name" v="Lahaugen" />
		<tag k="place" v="farm" />
		<tag k="ssr:stedsnr" v="1075249" />
	</node>
	<node id="9865050149" lat="68.7406611" lon="15.5618501" version="1" timestamp="2022-07-04T05:49:14Z" changeset="123172518" uid="3497659" user="NKA">
		<tag k="name" v="Jettasbogen" />
		<tag k="place" v="farm" />
		<tag k="ssr:stedsnr" v="261726" />
	</node>
	<node id="9865050150" lat="68.6638305" lon="15.355086" version="1" timestamp="2022-07-04T05:49:14Z" changeset="123172518" uid="3497659" user="NKA">
		<tag k="name" v="Elvenes" />
		<tag k="place" v="farm" />
		<tag k="ssr:stedsnr" v="17179" />
	</node>
	<node id="9865050151" lat="68.7641083" lon="15.0437388" version="1" timestamp="2022-07-04T05:49:14Z" changeset="123172518" uid="3497659" user="NKA">
		<tag k="name" v="Valjorda" />
		<tag k="place" v="farm" />
		<tag k="ssr:stedsnr" v="421132" />
	</node>
	<node id="9865050152" lat="68.8003528" lon="15.3603693" version="1" timestamp="2022-07-04T05:49:14Z" changeset="123172518" uid="3497659" user="NKA">
		<tag k="name" v="Gropa" />
		<tag k="place" v="farm" />
		<tag k="ssr:stedsnr" v="200352" />
	</node>
	<node id="9865050153" lat="68.6662972" lon="15.5492194" version="1" timestamp="2022-07-04T05:49:14Z" changeset="123172518" uid="3497659" user="NKA">
		<tag k="alt_name" v="Geitsætra" />
		<tag k="name" v="Geitsetra" />
		<tag k="place" v="isolated_dwelling" />
		<tag k="ssr:stedsnr" v="684210" />
	</node>
	<node id="9865050154" lat="68.7051357" lon="15.2589433" version="1" timestamp="2022-07-04T05:49:14Z" changeset="123172518" uid="3497659" user="NKA">
		<tag k="name" v="Valstad" />
		<tag k="place" v="farm" />
		<tag k="ssr:stedsnr" v="867838" />
	</node>
	<node id="9865050155" lat="68.6531695" lon="15.5046213" version="1" timestamp="2022-07-04T05:49:14Z" changeset="123172518" uid="3497659" user="NKA">
		<tag k="name" v="Nerdalen" />
		<tag k="place" v="farm" />
		<tag k="ssr:stedsnr" v="442287" />
	</node>
	<node id="9865050156" lat="68.7327726" lon="15.1406504" version="1" timestamp="2022-07-04T05:49:14Z" changeset="123172518" uid="3497659" user="NKA">
		<tag k="name" v="Kvassneset" />
		<tag k="place" v="hamlet" />
		<tag k="ssr:stedsnr" v="503709" />
	</node>
	<node id="9865050157" lat="68.6328805" lon="15.1970832" version="1" timestamp="2022-07-04T05:49:14Z" changeset="123172518" uid="3497659" user="NKA">
		<tag k="name" v="Nevhågraen" />
		<tag k="place" v="farm" />
		<tag k="ssr:stedsnr" v="824852" />
	</node>
	<node id="9865050158" lat="68.758925" lon="15.0792222" version="1" timestamp="2022-07-04T05:49:14Z" changeset="123172518" uid="3497659" user="NKA">
		<tag k="name" v="Selnes" />
		<tag k="place" v="hamlet" />
		<tag k="ssr:stedsnr" v="200417" />
	</node>
	<node id="9865050159" lat="68.6403632" lon="15.5421095" version="1" timestamp="2022-07-04T05:49:14Z" changeset="123172518" uid="3497659" user="NKA">
		<tag k="name" v="Hagen" />
		<tag k="place" v="farm" />
		<tag k="ssr:stedsnr" v="684250" />
	</node>
	<node id="9865050160" lat="68.7086111" lon="15.2166555" version="1" timestamp="2022-07-04T05:49:14Z" changeset="123172518" uid="3497659" user="NKA">
		<tag k="name" v="Vangen" />
		<tag k="place" v="farm" />
		<tag k="ssr:stedsnr" v="806884" />
	</node>
	<node id="9865050161" lat="68.6386316" lon="15.247629" version="1" timestamp="2022-07-04T05:49:14Z" changeset="123172518" uid="3497659" user="NKA">
		<tag k="name" v="Holand" />
		<tag k="place" v="farm" />
		<tag k="ssr:stedsnr" v="806182" />
	</node>
	<node id="9865050162" lat="68.6966063" lon="15.7169333" version="1" timestamp="2022-07-04T05:49:14Z" changeset="123172518" uid="3497659" user="NKA">
		<tag k="name" v="Sørfjorden" />
		<tag k="place" v="hamlet" />
		<tag k="ssr:stedsnr" v="260509" />
	</node>
	<node id="9865050163" lat="68.7287029" lon="15.1420974" version="1" timestamp="2022-07-04T05:49:14Z" changeset="123172518" uid="3497659" user="NKA">
		<tag k="name" v="Myra" />
		<tag k="place" v="farm" />
		<tag k="ssr:stedsnr" v="624754" />
	</node>
	<node id="9865050164" lat="68.8032083" lon="15.8272501" version="1" timestamp="2022-07-04T05:49:14Z" changeset="123172518" uid="3497659" user="NKA">
		<tag k="name" v="Kjerkegården" />
		<tag k="place" v="locality" />
		<tag k="ssr:stedsnr" v="381111" />
	</node>
	<node id="9865050165" lat="68.7464084" lon="15.1900554" version="1" timestamp="2022-07-04T05:49:14Z" changeset="123172518" uid="3497659" user="NKA">
		<tag k="name" v="Setra" />
		<tag k="place" v="isolated_dwelling" />
		<tag k="ssr:stedsnr" v="762074" />
	</node>
	<node id="9865050166" lat="68.7042361" lon="15.6952638" version="1" timestamp="2022-07-04T05:49:14Z" changeset="123172518" uid="3497659" user="NKA">
		<tag k="name" v="Skåla" />
		<tag k="place" v="isolated_dwelling" />
		<tag k="ssr:stedsnr" v="806480" />
	</node>
	<node id="9865050167" lat="68.7145368" lon="15.1525403" version="1" timestamp="2022-07-04T05:49:14Z" changeset="123172518" uid="3497659" user="NKA">
		<tag k="name" v="Kjerringvik" />
		<tag k="place" v="quarter" />
		<tag k="ssr:stedsnr" v="321843" />
	</node>
	<node id="9865050168" lat="68.7203748" lon="15.1523288" version="1" timestamp="2022-07-04T05:49:14Z" changeset="123172518" uid="3497659" user="NKA">
		<tag k="name" v="Sørstranda" />
		<tag k="place" v="farm" />
		<tag k="ssr:stedsnr" v="745818" />
	</node>
	<node id="9865050169" lat="68.6295611" lon="15.5891251" version="1" timestamp="2022-07-04T05:49:14Z" changeset="123172518" uid="3497659" user="NKA">
		<tag k="name" v="Stiberget" />
		<tag k="place" v="farm" />
		<tag k="ssr:stedsnr" v="97673" />
	</node>
	<node id="9865050170" lat="68.7263782" lon="15.1474447" version="1" timestamp="2022-07-04T05:49:14Z" changeset="123172518" uid="3497659" user="NKA">
		<tag k="name" v="Høgbakken" />
		<tag k="place" v="farm" />
		<tag k="ssr:stedsnr" v="581878" />
	</node>
	<node id="9865050171" lat="68.6628833" lon="15.323111" version="1" timestamp="2022-07-04T05:49:14Z" changeset="123172518" uid="3497659" user="NKA">
		<tag k="name" v="Skiftbakken" />
		<tag k="place" v="farm" />
		<tag k="ssr:stedsnr" v="581439" />
	</node>
	<node id="9865050172" lat="68.7219235" lon="15.3906707" version="1" timestamp="2022-07-04T05:49:14Z" changeset="123172518" uid="3497659" user="NKA">
		<tag k="name" v="Småbakkan" />
		<tag k="place" v="farm" />
		<tag k="ssr:stedsnr" v="521590" />
	</node>
	<node id="9865050173" lat="68.70785" lon="15.1971862" version="1" timestamp="2022-07-04T05:49:14Z" changeset="123172518" uid="3497659" user="NKA">
		<tag k="name" v="Brunstad" />
		<tag k="place" v="farm" />
		<tag k="ssr:stedsnr" v="200802" />
	</node>
	<node id="9865050174" lat="68.7651" lon="15.880714" version="1" timestamp="2022-07-04T05:49:14Z" changeset="123172518" uid="3497659" user="NKA">
		<tag k="name" v="Bjørnrå" />
		<tag k="old_name" v="Bjørnerå" />
		<tag k="place" v="hamlet" />
		<tag k="ssr:stedsnr" v="321170" />
	</node>
	<node id="9865050175" lat="68.7983277" lon="15.885254" version="1" timestamp="2022-07-04T05:49:14Z" changeset="123172518" uid="3497659" user="NKA">
		<tag k="name" v="Bakkemo" />
		<tag k="place" v="farm" />
		<tag k="ssr:stedsnr" v="261101" />
	</node>
	<node id="9865050176" lat="68.6221708" lon="15.63594" version="1" timestamp="2022-07-04T05:49:14Z" changeset="123172518" uid="3497659" user="NKA">
		<tag k="name" v="Moan" />
		<tag k="place" v="isolated_dwelling" />
		<tag k="ssr:stedsnr" v="158748" />
	</node>
	<node id="9865050177" lat="68.7743611" lon="15.2963944" version="1" timestamp="2022-07-04T05:49:14Z" changeset="123172518" uid="3497659" user="NKA">
		<tag k="name" v="Storelv-Fredheim" />
		<tag k="place" v="farm" />
		<tag k="ssr:stedsnr" v="399226" />
	</node>
	<node id="9865050178" lat="68.6715174" lon="15.7735322" version="1" timestamp="2022-07-04T05:49:14Z" changeset="123172518" uid="3497659" user="NKA">
		<tag k="name" v="Sørdalsbua" />
		<tag k="place" v="isolated_dwelling" />
		<tag k="ssr:stedsnr" v="116099" />
	</node>
	<node id="9865050179" lat="68.7584889" lon="15.8684055" version="1" timestamp="2022-07-04T05:49:14Z" changeset="123172518" uid="3497659" user="NKA">
		<tag k="name" v="Solbakken" />
		<tag k="place" v="farm" />
		<tag k="ssr:stedsnr" v="260183" />
	</node>
	<node id="9865050180" lat="68.7091528" lon="15.3741054" version="1" timestamp="2022-07-04T05:49:14Z" changeset="123172518" uid="3497659" user="NKA">
		<tag k="name" v="Fjellheim" />
		<tag k="place" v="isolated_dwelling" />
		<tag k="ssr:stedsnr" v="338585" />
	</node>
	<node id="9865050181" lat="68.6928917" lon="15.1833971" version="1" timestamp="2022-07-04T05:49:14Z" changeset="123172518" uid="3497659" user="NKA">
		<tag k="name" v="Oshaug" />
		<tag k="place" v="farm" />
		<tag k="ssr:stedsnr" v="946523" />
	</node>
	<node id="9865050182" lat="68.7037555" lon="15.1296668" version="1" timestamp="2022-07-04T05:49:14Z" changeset="123172518" uid="3497659" user="NKA">
		<tag k="name" v="Straumnes" />
		<tag k="place" v="farm" />
		<tag k="ssr:stedsnr" v="79805" />
	</node>
	<node id="9865050183" lat="68.6963472" lon="15.1416223" version="1" timestamp="2022-07-04T05:49:14Z" changeset="123172518" uid="3497659" user="NKA">
		<tag k="name" v="Sørbogen" />
		<tag k="place" v="farm" />
		<tag k="ssr:stedsnr" v="139819" />
	</node>
	<node id="325809888" lat="68.7063129" lon="15.416041" version="12" timestamp="2018-02-10T17:42:02Z" changeset="56245734" uid="3296383" user="Reitstoen_import" />
	<node id="5335694630" lat="68.7064569" lon="15.4237456" version="1" timestamp="2018-01-12T21:24:02Z" changeset="55393035" uid="3296383" user="Reitstoen_import" />
	<node id="5335695110" lat="68.7065327" lon="15.4278079" version="1" timestamp="2018-01-12T21:24:07Z" changeset="55393035" uid="3296383" user="Reitstoen_import" />
	<node id="5335695109" lat="68.7067575" lon="15.4394986" version="1" timestamp="2018-01-12T21:24:07Z" changeset="55393035" uid="3296383" user="Reitstoen_import" />
	<node id="33598195" lat="68.7232438" lon="15.5241047" version="5" timestamp="2018-01-11T22:41:27Z" changeset="55365763" uid="3296383" user="Reitstoen_import" />
	<node id="1893926233" lat="68.7234024" lon="15.5240892" version="2" timestamp="2018-01-11T22:41:27Z" changeset="55365763" uid="3296383" user="Reitstoen_import" />
	<node id="1893926236" lat="68.7234555" lon="15.5240781" version="2" timestamp="2018-01-11T22:41:28Z" changeset="55365763" uid="3296383" user="Reitstoen_import" />
	<node id="1893926237" lat="68.7238775" lon="15.5239272" version="2" timestamp="2018-01-11T22:41:28Z" changeset="55365763" uid="3296383" user="Reitstoen_import" />
	<node id="5334031124" lat="68.7231748" lon="15.5241076" version="1" timestamp="2018-01-11T22:41:24Z" changeset="55365763" uid="3296383" user="Reitstoen_import" />
	<node id="5334031125" lat="68.7235769" lon="15.5240397" version="1" timestamp="2018-01-11T22:41:24Z" changeset="55365763" uid="3296383" user="Reitstoen_import" />
	<node id="33598196" lat="68.7267315" lon="15.5227319" version="4" timestamp="2018-01-11T22:28:29Z" changeset="55365539" uid="3296383" user="Reitstoen_import" />
	<way id="5030246" version="12" timestamp="2022-01-24T06:56:00Z" changeset="116526664" uid="3497659" user="NKA">
		<tag k="bridge" v="yes" />
		<tag k="bridge:structure" v="beam" />
		<tag k="highway" v="primary" />
		<tag k="layer" v="1" />
		<tag k="maxspeed" v="80" />
		<tag k="name" v="Kvalsaukbrua" />
		<tag k="ref" v="82" />
		<tag k="ssr:stedsnr" v="405233" />
		<tag k="wikidata" v="Q4588833" />
		<nd ref="5334031124" />
		<nd ref="33598195" />
		<nd ref="1893926233" />
		<nd ref="1893926236" />
		<nd ref="5334031125" />
		<nd ref="1893926237" />
		<nd ref="33598196" />
	</way>
	<way id="29564336" version="12" timestamp="2022-01-24T06:56:00Z" changeset="116526664" uid="3497659" user="NKA">
		<tag k="bridge" v="yes" />
		<tag k="bridge:structure" v="beam" />
		<tag k="height" v="30" />
		<tag k="highway" v="trunk" />
		<tag k="lanes" v="2" />
		<tag k="layer" v="1" />
		<tag k="lit" v="yes" />
		<tag k="maxspeed" v="50" />
		<tag k="name" v="Sortlandbrua" />
		<tag k="old_name" v="Sortlandsbrua" />
		<tag k="ref" v="85;82" />
		<tag k="sidewalk" v="both" />
		<tag k="source:maxspeed" v="sign" />
		<tag k="ssr:stedsnr" v="936053" />
		<tag k="surface" v="asphalt" />
		<tag k="width" v="7" />
		<tag k="wikidata" v="Q1769742" />
		<nd ref="325809888" />
		<nd ref="5335694630" />
	</way>
	<way id="552679644" version="3" timestamp="2022-01-24T06:56:00Z" changeset="116526664" uid="3497659" user="NKA">
		<tag k="bridge" v="yes" />
		<tag k="bridge:structure" v="beam" />
		<tag k="height" v="30" />
		<tag k="highway" v="trunk" />
		<tag k="lanes" v="2" />
		<tag k="layer" v="1" />
		<tag k="lit" v="yes" />
		<tag k="maxspeed" v="60" />
		<tag k="name" v="Sortlandbrua" />
		<tag k="old_name" v="Sortlandsbrua" />
		<tag k="ref" v="85;82" />
		<tag k="sidewalk" v="both" />
		<tag k="source:maxspeed" v="sign" />
		<tag k="ssr:stedsnr" v="936053" />
		<tag k="surface" v="asphalt" />
		<tag k="width" v="7" />
		<tag k="wikidata" v="Q1769742" />
		<nd ref="5335694630" />
		<nd ref="5335695110" />
		<nd ref="5335695109" />
	</way>
</osm>
