<?xml version="1.0" encoding="UTF-8"?>
<osm version="0.6" generator="osmapis">
	<node id="86002383" lat="62.1839991" lon="6.0869868" version="4" timestamp="2022-08-16T05:21:07Z" changeset="124952856" uid="3497659" user="NKA">
		<tag k="name" v="Hovdebygda" />
		<tag k="place" v="quarter" />
		<tag k="ssr:stedsnr" v="808138" />
	</node>
	<node id="86002385" lat="62.2010542" lon="6.1238625" version="8" timestamp="2022-08-16T05:21:07Z" changeset="124952856" uid="3497659" user="NKA">
		<tag k="name" v="Ørsta" />
		<tag k="place" v="town" />
		<tag k="population" v="7466" />
		<tag k="population:date" v="2021-01-01" />
		<tag k="ref:ssb_tettsted" v="6081" />
		<tag k="source:population" v="SSB - befolkning i tettstedet" />
		<tag k="ssr:stedsnr" v="436106" />
	</node>
	<node id="1334315430" lat="62.2027238" lon="6.5998794" version="2" timestamp="2022-08-16T05:21:07Z" changeset="124952856" uid="3497659" user="NKA">
		<tag k="name" v="Stenes" />
		<tag k="place" v="hamlet" />
		<tag k="ssr:stedsnr" v="810477" />
	</node>
	<node id="1396768057" lat="62.2127021" lon="6.5686748" version="3" timestamp="2022-08-16T05:21:07Z" changeset="124952856" uid="3497659" user="NKA">
		<tag k="name" v="Urke" />
		<tag k="place" v="village" />
		<tag k="ssr:stedsnr" v="678509" />
	</node>
	<node id="1549924379" lat="62.1915928" lon="6.6619081" version="3" timestamp="2022-08-16T05:21:07Z" changeset="124952856" uid="3497659" user="NKA">
		<tag k="alt_name" v="Norangsfjorden" />
		<tag k="name" v="Øye" />
		<tag k="place" v="hamlet" />
		<tag k="ssr:stedsnr" v="71673" />
	</node>
	<node id="3717336845" lat="62.2030161" lon="6.4400637" version="2" timestamp="2022-08-16T05:21:07Z" changeset="124952856" uid="3497659" user="NKA">
		<tag k="name" v="Heimste-Holen" />
		<tag k="place" v="farm" />
		<tag k="ssr:stedsnr" v="71551" />
	</node>
	<node id="3717336846" lat="62.2041778" lon="6.2491139" version="2" timestamp="2022-08-16T05:21:07Z" changeset="124952856" uid="3497659" user="NKA">
		<tag k="name" v="Myklebust" />
		<tag k="place" v="hamlet" />
		<tag k="ssr:stedsnr" v="861480" />
	</node>
	<node id="3717361181" lat="62.2332397" lon="6.2862009" version="2" timestamp="2022-08-16T05:21:07Z" changeset="124952856" uid="3497659" user="NKA">
		<tag k="name" v="Kolåsen" />
		<tag k="place" v="hamlet" />
		<tag k="ssr:stedsnr" v="800558" />
	</node>
	<node id="3717361182" lat="62.2990856" lon="6.2260207" version="2" timestamp="2022-08-16T05:21:07Z" changeset="124952856" uid="3497659" user="NKA">
		<tag k="historic" v="shieling" />
		<tag k="name" v="Vartdalsætra" />
		<tag k="place" v="hamlet" />
		<tag k="ssr:stedsnr" v="72456" />
	</node>
	<node id="3717422934" lat="62.3222461" lon="6.2727458" version="2" timestamp="2022-08-16T05:21:07Z" changeset="124952856" uid="3497659" user="NKA">
		<tag k="historic" v="shieling" />
		<tag k="name" v="Barstadsætra" />
		<tag k="old_name" v="Burstadsætra" />
		<tag k="place" v="hamlet" />
		<tag k="ssr:stedsnr" v="11444" />
	</node>
	<node id="3717444546" lat="62.2984458" lon="6.4095874" version="3" timestamp="2022-08-16T05:21:07Z" changeset="124952856" uid="3497659" user="NKA">
		<tag k="name" v="Ytre-Standal" />
		<tag k="place" v="hamlet" />
		<tag k="ssr:stedsnr" v="299641" />
	</node>
	<node id="3718987214" lat="62.1861106" lon="6.6924128" version="2" timestamp="2022-08-16T05:21:07Z" changeset="124952856" uid="3497659" user="NKA">
		<tag k="name" v="Skylstad" />
		<tag k="place" v="hamlet" />
		<tag k="ssr:stedsnr" v="11597" />
	</node>
	<node id="3719024041" lat="62.2643359" lon="6.5017254" version="4" timestamp="2022-08-16T05:21:07Z" changeset="124952856" uid="3497659" user="NKA">
		<tag k="name" v="Ytre-Trandal" />
		<tag k="place" v="hamlet" />
		<tag k="ssr:stedsnr" v="314309" />
	</node>
	<node id="3820643071" lat="62.3596702" lon="6.2676938" version="3" timestamp="2022-08-16T05:21:07Z" changeset="124952856" uid="3497659" user="NKA">
		<tag k="alt_name" v="Barstadvik" />
		<tag k="name" v="Barstadvik" />
		<tag k="place" v="village" />
		<tag k="ssr:stedsnr" v="557392" />
	</node>
	<node id="3820643072" lat="62.324615" lon="6.1433741" version="2" timestamp="2022-08-16T05:21:07Z" changeset="124952856" uid="3497659" user="NKA">
		<tag k="name" v="Nordre Vartdal" />
		<tag k="place" v="village" />
		<tag k="ssr:stedsnr" v="557738" />
	</node>
	<node id="4832256942" lat="62.2095815" lon="6.4756502" version="3" timestamp="2022-08-16T05:21:07Z" changeset="124952856" uid="3497659" user="NKA">
		<tag k="name" v="Sæbø" />
		<tag k="place" v="village" />
		<tag k="ssr:stedsnr" v="935049" />
	</node>
	<node id="4907732174" lat="62.2625528" lon="6.4248052" version="3" timestamp="2022-08-16T05:21:07Z" changeset="124952856" uid="3497659" user="NKA">
		<tag k="alt_name" v="Storestandal" />
		<tag k="name" v="Store-Standal" />
		<tag k="place" v="hamlet" />
		<tag k="ssr:stedsnr" v="541649" />
	</node>
	<node id="5846147007" lat="62.3010778" lon="6.0839841" version="5" timestamp="2022-08-16T05:21:07Z" changeset="124952856" uid="3497659" user="NKA">
		<tag k="name" v="Vartdal" />
		<tag k="old_name" v="Søre Vartdal;Vartdal, søre" />
		<tag k="place" v="village" />
		<tag k="population" v="398" />
		<tag k="population:date" v="2021-01-01" />
		<tag k="ref:ssb_tettsted" v="6082" />
		<tag k="source:population" v="SSB - befolkning i tettstedet" />
		<tag k="ssr:stedsnr" v="193141" />
	</node>
	<node id="5849208107" lat="62.1425802" lon="6.2784494" version="2" timestamp="2022-01-26T07:34:57Z" changeset="116611763" uid="3497659" user="NKA">
		<tag k="junction" v="yes" />
		<tag k="name" v="Bjørdalskiftet" />
		<tag k="ssr:stedsnr" v="954249" />
	</node>
	<node id="9956150041" lat="62.346875" lon="6.3582558" version="1" timestamp="2022-08-16T05:21:07Z" changeset="124952856" uid="3497659" user="NKA">
		<tag k="name" v="Øyra" />
		<tag k="place" v="hamlet" />
		<tag k="ssr:stedsnr" v="861375" />
	</node>
	<node id="9956150042" lat="62.1382027" lon="6.4200419" version="1" timestamp="2022-08-16T05:21:07Z" changeset="124952856" uid="3497659" user="NKA">
		<tag k="historic" v="shieling" />
		<tag k="name" v="Rognestøylen" />
		<tag k="place" v="isolated_dwelling" />
		<tag k="ssr:stedsnr" v="800581" />
	</node>
	<node id="9956150043" lat="62.2131404" lon="6.062781" version="1" timestamp="2022-08-16T05:21:07Z" changeset="124952856" uid="3497659" user="NKA">
		<tag k="name" v="Karlplassen" />
		<tag k="place" v="farm" />
		<tag k="ssr:stedsnr" v="392196" />
	</node>
	<node id="9956150044" lat="62.2721417" lon="6.2844279" version="1" timestamp="2022-08-16T05:21:07Z" changeset="124952856" uid="3497659" user="NKA">
		<tag k="historic" v="shieling" />
		<tag k="name" v="Romedalsstøylen" />
		<tag k="place" v="isolated_dwelling" />
		<tag k="ssr:stedsnr" v="314289" />
	</node>
	<node id="9956150045" lat="62.3588014" lon="6.2704602" version="1" timestamp="2022-08-16T05:21:07Z" changeset="124952856" uid="3497659" user="NKA">
		<tag k="name" v="Melbøen" />
		<tag k="place" v="farm" />
		<tag k="ssr:stedsnr" v="739397" />
	</node>
	<node id="9956150046" lat="62.1896422" lon="6.065017" version="1" timestamp="2022-08-16T05:21:07Z" changeset="124952856" uid="3497659" user="NKA">
		<tag k="name" v="Ytrehovden" />
		<tag k="place" v="hamlet" />
		<tag k="ssr:stedsnr" v="860138" />
	</node>
	<node id="9956150047" lat="62.3626528" lon="6.3483085" version="1" timestamp="2022-08-16T05:21:07Z" changeset="124952856" uid="3497659" user="NKA">
		<tag k="name" v="Gamlegarden" />
		<tag k="place" v="farm" />
		<tag k="ssr:stedsnr" v="772851" />
	</node>
	<node id="9956150048" lat="62.2148167" lon="6.4782723" version="1" timestamp="2022-08-16T05:21:07Z" changeset="124952856" uid="3497659" user="NKA">
		<tag k="name" v="Angellplassen" />
		<tag k="place" v="locality" />
		<tag k="ssr:stedsnr" v="401253" />
	</node>
	<node id="9956150049" lat="62.1458416" lon="6.2554614" version="1" timestamp="2022-08-16T05:21:07Z" changeset="124952856" uid="3497659" user="NKA">
		<tag k="name" v="Solbakken" />
		<tag k="place" v="farm" />
		<tag k="ssr:stedsnr" v="132563" />
	</node>
	<node id="9956150050" lat="62.1789879" lon="6.0610991" version="1" timestamp="2022-08-16T05:21:07Z" changeset="124952856" uid="3497659" user="NKA">
		<tag k="name" v="Åsen" />
		<tag k="place" v="hamlet" />
		<tag k="ssr:stedsnr" v="314028" />
	</node>
	<node id="9956150051" lat="62.2042194" lon="6.4478614" version="1" timestamp="2022-08-16T05:21:07Z" changeset="124952856" uid="3497659" user="NKA">
		<tag k="name" v="Pålplassen" />
		<tag k="place" v="farm" />
		<tag k="ssr:stedsnr" v="340351" />
	</node>
	<node id="9956150052" lat="62.2916139" lon="6.3532308" version="1" timestamp="2022-08-16T05:21:07Z" changeset="124952856" uid="3497659" user="NKA">
		<tag k="alt_name" v="Sandalsætra, ytre" />
		<tag k="historic" v="shieling" />
		<tag k="loc_name" v="Ytre-Standalsætra" />
		<tag k="name" v="Ytre Standalsætra" />
		<tag k="place" v="isolated_dwelling" />
		<tag k="ssr:stedsnr" v="315479" />
	</node>
	<node id="9956150053" lat="62.2408206" lon="5.9994586" version="1" timestamp="2022-08-16T05:21:07Z" changeset="124952856" uid="3497659" user="NKA">
		<tag k="name" v="Liadal" />
		<tag k="old_name" v="Liadalen" />
		<tag k="place" v="village" />
		<tag k="ssr:stedsnr" v="132128" />
	</node>
	<node id="9956150054" lat="62.22868" lon="5.9654881" version="1" timestamp="2022-08-16T05:21:07Z" changeset="124952856" uid="3497659" user="NKA">
		<tag k="name" v="Ytre-Steinnes" />
		<tag k="place" v="farm" />
		<tag k="ssr:stedsnr" v="82600" />
	</node>
	<node id="9956150055" lat="62.2246917" lon="6.3097696" version="1" timestamp="2022-08-16T05:21:07Z" changeset="124952856" uid="3497659" user="NKA">
		<tag k="name" v="Heidane" />
		<tag k="place" v="isolated_dwelling" />
		<tag k="ssr:stedsnr" v="193557" />
	</node>
	<node id="9956150056" lat="62.3505833" lon="6.2181391" version="1" timestamp="2022-08-16T05:21:07Z" changeset="124952856" uid="3497659" user="NKA">
		<tag k="name" v="Haggarsteigen" />
		<tag k="place" v="farm" />
		<tag k="ssr:stedsnr" v="529972" />
	</node>
	<node id="9956150057" lat="62.2742229" lon="6.0102558" version="1" timestamp="2022-08-16T05:21:07Z" changeset="124952856" uid="3497659" user="NKA">
		<tag k="name" v="Bjørndalen" />
		<tag k="place" v="farm" />
		<tag k="ssr:stedsnr" v="71189" />
	</node>
	<node id="9956150058" lat="62.1669778" lon="6.225267" version="1" timestamp="2022-08-16T05:21:07Z" changeset="124952856" uid="3497659" user="NKA">
		<tag k="name" v="Solheim" />
		<tag k="place" v="farm" />
		<tag k="ssr:stedsnr" v="193609" />
	</node>
	<node id="9956150059" lat="62.2163214" lon="6.0162124" version="1" timestamp="2022-08-16T05:21:07Z" changeset="124952856" uid="3497659" user="NKA">
		<tag k="name" v="Lianeset" />
		<tag k="place" v="farm" />
		<tag k="ssr:stedsnr" v="21606" />
	</node>
	<node id="9956150060" lat="62.3188694" lon="6.1335807" version="1" timestamp="2022-08-16T05:21:07Z" changeset="124952856" uid="3497659" user="NKA">
		<tag k="name" v="Øggarden" />
		<tag k="place" v="farm" />
		<tag k="ssr:stedsnr" v="142601" />
	</node>
	<node id="9956150061" lat="62.2034722" lon="6.4823585" version="1" timestamp="2022-08-16T05:21:07Z" changeset="124952856" uid="3497659" user="NKA">
		<tag k="historic" v="shieling" />
		<tag k="name" v="Støylen" />
		<tag k="place" v="isolated_dwelling" />
		<tag k="ssr:stedsnr" v="408362" />
	</node>
	<node id="9956150062" lat="62.1782005" lon="6.3837975" version="1" timestamp="2022-08-16T05:21:07Z" changeset="124952856" uid="3497659" user="NKA">
		<tag k="name" v="Gjerdet" />
		<tag k="place" v="farm" />
		<tag k="ssr:stedsnr" v="496612" />
	</node>
	<node id="9956150063" lat="62.1694906" lon="6.3611204" version="1" timestamp="2022-08-16T05:21:07Z" changeset="124952856" uid="3497659" user="NKA">
		<tag k="name" v="Haugen" />
		<tag k="place" v="farm" />
		<tag k="ssr:stedsnr" v="253630" />
	</node>
	<node id="9956150064" lat="62.1837155" lon="6.4002277" version="1" timestamp="2022-08-16T05:21:07Z" changeset="124952856" uid="3497659" user="NKA">
		<tag k="name" v="Årset" />
		<tag k="place" v="hamlet" />
		<tag k="ssr:stedsnr" v="678589" />
	</node>
	<node id="9956150065" lat="62.1422729" lon="6.3895201" version="1" timestamp="2022-08-16T05:21:07Z" changeset="124952856" uid="3497659" user="NKA">
		<tag k="historic" v="shieling" />
		<tag k="name" v="Kvia" />
		<tag k="place" v="isolated_dwelling" />
		<tag k="ssr:stedsnr" v="193579" />
	</node>
	<node id="9956150066" lat="62.2016697" lon="6.1492871" version="1" timestamp="2022-08-16T05:21:07Z" changeset="124952856" uid="3497659" user="NKA">
		<tag k="name" v="Engeset" />
		<tag k="place" v="neighbourhood" />
		<tag k="ssr:stedsnr" v="921097" />
	</node>
	<node id="9956150067" lat="62.1847799" lon="6.3830842" version="1" timestamp="2022-08-16T05:21:07Z" changeset="124952856" uid="3497659" user="NKA">
		<tag k="name" v="Stokke" />
		<tag k="place" v="hamlet" />
		<tag k="ssr:stedsnr" v="71676" />
	</node>
	<node id="9956150068" lat="62.1704167" lon="6.1149391" version="1" timestamp="2022-08-16T05:21:07Z" changeset="124952856" uid="3497659" user="NKA">
		<tag k="historic" v="shieling" />
		<tag k="name" v="Ossætra" />
		<tag k="place" v="isolated_dwelling" />
		<tag k="ssr:stedsnr" v="557033" />
	</node>
	<node id="9956150069" lat="62.1877062" lon="6.3945205" version="1" timestamp="2022-08-16T05:21:07Z" changeset="124952856" uid="3497659" user="NKA">
		<tag k="name" v="Myrholen" />
		<tag k="place" v="hamlet" />
		<tag k="ssr:stedsnr" v="860661" />
	</node>
	<node id="9956150070" lat="62.1681768" lon="6.3531862" version="1" timestamp="2022-08-16T05:21:07Z" changeset="124952856" uid="3497659" user="NKA">
		<tag k="name" v="Rekkedal" />
		<tag k="place" v="hamlet" />
		<tag k="ssr:stedsnr" v="11603" />
	</node>
	<node id="9956150071" lat="62.1940306" lon="6.3409947" version="1" timestamp="2022-08-16T05:21:07Z" changeset="124952856" uid="3497659" user="NKA">
		<tag k="name" v="Stokkesætra" />
		<tag k="place" v="locality" />
		<tag k="ssr:stedsnr" v="556643" />
	</node>
	<node id="9956150072" lat="62.1667861" lon="6.1846559" version="1" timestamp="2022-08-16T05:21:07Z" changeset="124952856" uid="3497659" user="NKA">
		<tag k="historic" v="shieling" />
		<tag k="name" v="Melssætra" />
		<tag k="place" v="isolated_dwelling" />
		<tag k="ssr:stedsnr" v="193056" />
	</node>
	<node id="9956150073" lat="62.1604" lon="6.1843279" version="1" timestamp="2022-08-16T05:21:07Z" changeset="124952856" uid="3497659" user="NKA">
		<tag k="name" v="Søsterhytta" />
		<tag k="place" v="isolated_dwelling" />
		<tag k="ssr:stedsnr" v="131817" />
	</node>
	<node id="9956150074" lat="62.1635719" lon="6.2099448" version="1" timestamp="2022-08-16T05:21:07Z" changeset="124952856" uid="3497659" user="NKA">
		<tag k="name" v="Haugen" />
		<tag k="place" v="hamlet" />
		<tag k="ssr:stedsnr" v="799804" />
	</node>
	<node id="9956150075" lat="62.153775" lon="6.1951002" version="1" timestamp="2022-08-16T05:21:07Z" changeset="124952856" uid="3497659" user="NKA">
		<tag k="name" v="Risledet" />
		<tag k="place" v="isolated_dwelling" />
		<tag k="ssr:stedsnr" v="556812" />
	</node>
	<node id="9956150076" lat="62.1604325" lon="6.3535346" version="1" timestamp="2022-08-16T05:21:07Z" changeset="124952856" uid="3497659" user="NKA">
		<tag k="historic" v="shieling" />
		<tag k="name" v="Støylane" />
		<tag k="place" v="isolated_dwelling" />
		<tag k="ssr:stedsnr" v="347197" />
	</node>
	<node id="9956150077" lat="62.1593603" lon="6.1835326" version="1" timestamp="2022-08-16T05:21:07Z" changeset="124952856" uid="3497659" user="NKA">
		<tag k="name" v="Furenakk" />
		<tag k="place" v="farm" />
		<tag k="ssr:stedsnr" v="1079253" />
	</node>
	<node id="9956150078" lat="62.1845613" lon="6.2300923" version="1" timestamp="2022-08-16T05:21:07Z" changeset="124952856" uid="3497659" user="NKA">
		<tag k="name" v="Moane" />
		<tag k="place" v="hamlet" />
		<tag k="ssr:stedsnr" v="374607" />
	</node>
	<node id="9956150079" lat="62.1668417" lon="6.4301473" version="1" timestamp="2022-08-16T05:21:07Z" changeset="124952856" uid="3497659" user="NKA">
		<tag k="historic" v="shieling" />
		<tag k="name" v="Årsetheimsætra" />
		<tag k="place" v="isolated_dwelling" />
		<tag k="ssr:stedsnr" v="529739" />
	</node>
	<node id="9956150080" lat="62.1424559" lon="6.3899432" version="1" timestamp="2022-08-16T05:21:07Z" changeset="124952856" uid="3497659" user="NKA">
		<tag k="historic" v="shieling" />
		<tag k="name" v="Rekkedalssætra" />
		<tag k="place" v="isolated_dwelling" />
		<tag k="ssr:stedsnr" v="165158" />
	</node>
	<node id="9956150081" lat="62.1974644" lon="6.2349834" version="1" timestamp="2022-08-16T05:21:07Z" changeset="124952856" uid="3497659" user="NKA">
		<tag k="name" v="Rebbestad" />
		<tag k="place" v="hamlet" />
		<tag k="ssr:stedsnr" v="617538" />
	</node>
	<node id="9956150082" lat="62.1706083" lon="6.1148807" version="1" timestamp="2022-08-16T05:21:07Z" changeset="124952856" uid="3497659" user="NKA">
		<tag k="historic" v="shieling" />
		<tag k="name" v="Osdalsætra" />
		<tag k="place" v="isolated_dwelling" />
		<tag k="ssr:stedsnr" v="407956" />
	</node>
	<node id="9956150083" lat="62.3350048" lon="6.2756262" version="1" timestamp="2022-08-16T05:21:07Z" changeset="124952856" uid="3497659" user="NKA">
		<tag k="name" v="Erdalen" />
		<tag k="place" v="hamlet" />
		<tag k="ssr:stedsnr" v="557410" />
	</node>
	<node id="9956150084" lat="62.1921507" lon="6.391151" version="1" timestamp="2022-08-16T05:21:07Z" changeset="124952856" uid="3497659" user="NKA">
		<tag k="name" v="Halsen" />
		<tag k="place" v="farm" />
		<tag k="ssr:stedsnr" v="131612" />
	</node>
	<node id="9956150085" lat="62.2025693" lon="6.4472937" version="1" timestamp="2022-08-16T05:21:07Z" changeset="124952856" uid="3497659" user="NKA">
		<tag k="name" v="Årskogane" />
		<tag k="place" v="hamlet" />
		<tag k="ssr:stedsnr" v="506498" />
	</node>
	<node id="9956150086" lat="62.3742988" lon="6.3298594" version="1" timestamp="2022-08-16T05:21:07Z" changeset="124952856" uid="3497659" user="NKA">
		<tag k="name" v="Festøya" />
		<tag k="place" v="hamlet" />
		<tag k="ssr:stedsnr" v="566628" />
	</node>
	<node id="9956150087" lat="62.2077305" lon="6.2424169" version="1" timestamp="2022-08-16T05:21:07Z" changeset="124952856" uid="3497659" user="NKA">
		<tag k="name" v="Litlesæter" />
		<tag k="place" v="farm" />
		<tag k="ssr:stedsnr" v="436507" />
	</node>
	<node id="9956150088" lat="62.178087" lon="6.2021595" version="1" timestamp="2022-08-16T05:21:07Z" changeset="124952856" uid="3497659" user="NKA">
		<tag k="name" v="Åmbøen" />
		<tag k="place" v="hamlet" />
		<tag k="ssr:stedsnr" v="496020" />
	</node>
	<node id="9956150089" lat="62.2277164" lon="5.9839179" version="1" timestamp="2022-08-16T05:21:07Z" changeset="124952856" uid="3497659" user="NKA">
		<tag k="name" v="Indre-Steinnes" />
		<tag k="place" v="farm" />
		<tag k="ssr:stedsnr" v="203620" />
	</node>
	<node id="9956150090" lat="62.1850576" lon="6.1600084" version="1" timestamp="2022-08-16T05:21:07Z" changeset="124952856" uid="3497659" user="NKA">
		<tag k="name" v="Brekke" />
		<tag k="place" v="hamlet" />
		<tag k="ssr:stedsnr" v="375011" />
	</node>
	<node id="9956150091" lat="62.179365" lon="6.5312847" version="1" timestamp="2022-08-16T05:21:07Z" changeset="124952856" uid="3497659" user="NKA">
		<tag k="name" v="Skår" />
		<tag k="place" v="hamlet" />
		<tag k="ssr:stedsnr" v="921627" />
	</node>
	<node id="9956150092" lat="62.1619568" lon="6.2285802" version="1" timestamp="2022-08-16T05:21:07Z" changeset="124952856" uid="3497659" user="NKA">
		<tag k="name" v="Brautaset" />
		<tag k="place" v="village" />
		<tag k="ssr:stedsnr" v="314624" />
	</node>
	<node id="9956150093" lat="62.2351573" lon="6.0072369" version="1" timestamp="2022-08-16T05:21:07Z" changeset="124952856" uid="3497659" user="NKA">
		<tag k="name" v="Sandvik" />
		<tag k="place" v="farm" />
		<tag k="ssr:stedsnr" v="294050" />
	</node>
	<node id="9956150094" lat="62.2972888" lon="6.3956641" version="1" timestamp="2022-08-16T05:21:07Z" changeset="124952856" uid="3497659" user="NKA">
		<tag k="historic" v="shieling" />
		<tag k="name" v="Støylen" />
		<tag k="place" v="isolated_dwelling" />
		<tag k="ssr:stedsnr" v="894346" />
	</node>
	<node id="9956150095" lat="62.1672389" lon="6.524289" version="1" timestamp="2022-08-16T05:21:07Z" changeset="124952856" uid="3497659" user="NKA">
		<tag k="historic" v="shieling" />
		<tag k="name" v="Skårasætra" />
		<tag k="place" v="isolated_dwelling" />
		<tag k="ssr:stedsnr" v="253614" />
	</node>
	<node id="9956150096" lat="62.1931596" lon="6.1753677" version="1" timestamp="2022-08-16T05:21:07Z" changeset="124952856" uid="3497659" user="NKA">
		<tag k="historic" v="shieling" />
		<tag k="name" v="Brekkesætra" />
		<tag k="place" v="isolated_dwelling" />
		<tag k="ssr:stedsnr" v="253136" />
	</node>
	<node id="9956150097" lat="62.2126627" lon="6.0655437" version="1" timestamp="2022-08-16T05:21:07Z" changeset="124952856" uid="3497659" user="NKA">
		<tag k="name" v="Hagen" />
		<tag k="place" v="hamlet" />
		<tag k="ssr:stedsnr" v="71090" />
	</node>
	<node id="9956150098" lat="62.2033945" lon="6.4793086" version="1" timestamp="2022-08-16T05:21:07Z" changeset="124952856" uid="3497659" user="NKA">
		<tag k="name" v="Hustadvika" />
		<tag k="place" v="farm" />
		<tag k="ssr:stedsnr" v="253538" />
	</node>
	<node id="9956150099" lat="62.3477482" lon="6.3574115" version="1" timestamp="2022-08-16T05:21:07Z" changeset="124952856" uid="3497659" user="NKA">
		<tag k="name" v="Ytre-Øyra" />
		<tag k="place" v="farm" />
		<tag k="ssr:stedsnr" v="627514" />
	</node>
	<node id="9956150100" lat="62.1982307" lon="6.0451447" version="1" timestamp="2022-08-16T05:21:07Z" changeset="124952856" uid="3497659" user="NKA">
		<tag k="name" v="Digernes" />
		<tag k="place" v="hamlet" />
		<tag k="ssr:stedsnr" v="627636" />
	</node>
	<node id="9956150101" lat="62.1811777" lon="6.0577225" version="1" timestamp="2022-08-16T05:21:07Z" changeset="124952856" uid="3497659" user="NKA">
		<tag k="name" v="Berget" />
		<tag k="place" v="farm" />
		<tag k="ssr:stedsnr" v="887909" />
	</node>
	<node id="9956150102" lat="62.2355111" lon="6.0804142" version="1" timestamp="2022-08-16T05:21:07Z" changeset="124952856" uid="3497659" user="NKA">
		<tag k="name" v="Skorgesætra" />
		<tag k="place" v="isolated_dwelling" />
		<tag k="ssr:stedsnr" v="132177" />
	</node>
	<node id="9956150103" lat="62.2077609" lon="5.9944915" version="1" timestamp="2022-08-16T05:21:07Z" changeset="124952856" uid="3497659" user="NKA">
		<tag k="name" v="Sørheim" />
		<tag k="place" v="hamlet" />
		<tag k="ssr:stedsnr" v="71087" />
	</node>
	<node id="9956150104" lat="62.2110473" lon="6.1709418" version="1" timestamp="2022-08-16T05:21:07Z" changeset="124952856" uid="3497659" user="NKA">
		<tag k="name" v="Nupen" />
		<tag k="place" v="hamlet" />
		<tag k="ssr:stedsnr" v="11067" />
	</node>
	<node id="9956150105" lat="62.2833889" lon="6.0355253" version="1" timestamp="2022-08-16T05:21:07Z" changeset="124952856" uid="3497659" user="NKA">
		<tag k="name" v="Heggehjellen" />
		<tag k="place" v="locality" />
		<tag k="ssr:stedsnr" v="495195" />
	</node>
	<node id="9956150106" lat="62.1927361" lon="6.0152531" version="1" timestamp="2022-08-16T05:21:07Z" changeset="124952856" uid="3497659" user="NKA">
		<tag k="historic" v="shieling" />
		<tag k="name" v="Helgestøylen" />
		<tag k="place" v="isolated_dwelling" />
		<tag k="ssr:stedsnr" v="583906" />
	</node>
	<node id="9956150107" lat="62.1980672" lon="6.1274109" version="1" timestamp="2022-08-16T05:21:07Z" changeset="124952856" uid="3497659" user="NKA">
		<tag k="name" v="Velle" />
		<tag k="place" v="quarter" />
		<tag k="ssr:stedsnr" v="800104" />
	</node>
	<node id="9956150108" lat="62.1819562" lon="6.1734875" version="1" timestamp="2022-08-16T05:21:07Z" changeset="124952856" uid="3497659" user="NKA">
		<tag k="name" v="Melsgjerdet industriområde" />
		<tag k="place" v="neighbourhood" />
		<tag k="ssr:stedsnr" v="977919" />
	</node>
	<node id="9956150109" lat="62.182843" lon="6.1510197" version="1" timestamp="2022-08-16T05:21:07Z" changeset="124952856" uid="3497659" user="NKA">
		<tag k="name" v="Nosa" />
		<tag k="place" v="farm" />
		<tag k="ssr:stedsnr" v="800037" />
	</node>
	<node id="9956150110" lat="62.1864753" lon="6.1396985" version="1" timestamp="2022-08-16T05:21:07Z" changeset="124952856" uid="3497659" user="NKA">
		<tag k="name" v="Mele" />
		<tag k="place" v="hamlet" />
		<tag k="ssr:stedsnr" v="193013" />
	</node>
	<node id="9956150111" lat="62.2887142" lon="6.0498604" version="1" timestamp="2022-08-16T05:21:07Z" changeset="124952856" uid="3497659" user="NKA">
		<tag k="alt_name" v="Søre Berg" />
		<tag k="name" v="Berget" />
		<tag k="place" v="farm" />
		<tag k="ssr:stedsnr" v="10141" />
	</node>
	<node id="9956150112" lat="62.1868262" lon="6.0884252" version="1" timestamp="2022-08-16T05:21:07Z" changeset="124952856" uid="3497659" user="NKA">
		<tag k="name" v="Ytre-Rystene" />
		<tag k="place" v="neighbourhood" />
		<tag k="ssr:stedsnr" v="870617" />
	</node>
	<node id="9956150113" lat="62.1809394" lon="6.1936066" version="1" timestamp="2022-08-16T05:21:07Z" changeset="124952856" uid="3497659" user="NKA">
		<tag k="name" v="Åmåsen" />
		<tag k="place" v="hamlet" />
		<tag k="ssr:stedsnr" v="436028" />
	</node>
	<node id="9956150114" lat="62.1742189" lon="6.1857748" version="1" timestamp="2022-08-16T05:21:07Z" changeset="124952856" uid="3497659" user="NKA">
		<tag k="name" v="Årflot" />
		<tag k="place" v="hamlet" />
		<tag k="ssr:stedsnr" v="861054" />
	</node>
	<node id="9956150115" lat="62.1959524" lon="6.1436529" version="1" timestamp="2022-08-16T05:21:07Z" changeset="124952856" uid="3497659" user="NKA">
		<tag k="name" v="Mo" />
		<tag k="place" v="neighbourhood" />
		<tag k="ssr:stedsnr" v="383147" />
	</node>
	<node id="9956150116" lat="62.2080233" lon="6.0844825" version="1" timestamp="2022-08-16T05:21:07Z" changeset="124952856" uid="3497659" user="NKA">
		<tag k="name" v="Sætre" />
		<tag k="place" v="hamlet" />
		<tag k="ssr:stedsnr" v="132086" />
	</node>
	<node id="9956163917" lat="62.1810805" lon="6.2083059" version="1" timestamp="2022-08-16T05:21:07Z" changeset="124952856" uid="3497659" user="NKA">
		<tag k="name" v="Plassen" />
		<tag k="place" v="farm" />
		<tag k="ssr:stedsnr" v="711691" />
	</node>
	<node id="9956163918" lat="62.185773" lon="6.1810498" version="1" timestamp="2022-08-16T05:21:07Z" changeset="124952856" uid="3497659" user="NKA">
		<tag k="name" v="Brungot" />
		<tag k="place" v="hamlet" />
		<tag k="ssr:stedsnr" v="861016" />
	</node>
	<node id="9956163919" lat="62.1844183" lon="6.0908681" version="1" timestamp="2022-08-16T05:21:07Z" changeset="124952856" uid="3497659" user="NKA">
		<tag k="name" v="Indrehovden" />
		<tag k="place" v="neighbourhood" />
		<tag k="ssr:stedsnr" v="800004" />
	</node>
	<node id="9956163920" lat="62.2059505" lon="6.1034993" version="1" timestamp="2022-08-16T05:21:07Z" changeset="124952856" uid="3497659" user="NKA">
		<tag k="name" v="Mork" />
		<tag k="place" v="hamlet" />
		<tag k="ssr:stedsnr" v="556120" />
	</node>
	<node id="9956163921" lat="62.1837555" lon="6.5194668" version="1" timestamp="2022-08-16T05:21:07Z" changeset="124952856" uid="3497659" user="NKA">
		<tag k="historic" v="shieling" />
		<tag k="name" v="Litledalsstøylen" />
		<tag k="place" v="isolated_dwelling" />
		<tag k="ssr:stedsnr" v="893056" />
	</node>
	<node id="9956163922" lat="62.186047" lon="6.1939639" version="1" timestamp="2022-08-16T05:21:07Z" changeset="124952856" uid="3497659" user="NKA">
		<tag k="name" v="Brudavollen" />
		<tag k="place" v="hamlet" />
		<tag k="ssr:stedsnr" v="557007" />
	</node>
	<node id="9956163923" lat="62.2122285" lon="6.0678748" version="1" timestamp="2022-08-16T05:21:07Z" changeset="124952856" uid="3497659" user="NKA">
		<tag k="name" v="Øvrehagen" />
		<tag k="place" v="farm" />
		<tag k="ssr:stedsnr" v="877172" />
	</node>
	<node id="9956163924" lat="62.2056898" lon="6.1118776" version="1" timestamp="2022-08-16T05:21:07Z" changeset="124952856" uid="3497659" user="NKA">
		<tag k="name" v="Vinjevoll" />
		<tag k="place" v="farm" />
		<tag k="ssr:stedsnr" v="556118" />
	</node>
	<node id="9956163925" lat="62.1882376" lon="6.0835641" version="1" timestamp="2022-08-16T05:21:07Z" changeset="124952856" uid="3497659" user="NKA">
		<tag k="name" v="Store-Rystene" />
		<tag k="place" v="farm" />
		<tag k="ssr:stedsnr" v="566620" />
	</node>
	<node id="9956163926" lat="62.1870335" lon="6.0986307" version="1" timestamp="2022-08-16T05:21:07Z" changeset="124952856" uid="3497659" user="NKA">
		<tag k="name" v="Sandvik-Rystene" />
		<tag k="place" v="farm" />
		<tag k="ssr:stedsnr" v="506608" />
	</node>
	<node id="9956163927" lat="62.1844167" lon="6.0747891" version="1" timestamp="2022-08-16T05:21:07Z" changeset="124952856" uid="3497659" user="NKA">
		<tag k="name" v="Indre-Hovden" />
		<tag k="place" v="farm" />
		<tag k="ssr:stedsnr" v="627629" />
	</node>
	<node id="9956163928" lat="62.1931088" lon="6.4203012" version="1" timestamp="2022-08-16T05:21:07Z" changeset="124952856" uid="3497659" user="NKA">
		<tag k="name" v="Svidene" />
		<tag k="place" v="farm" />
		<tag k="ssr:stedsnr" v="408038" />
	</node>
	<node id="9956163929" lat="62.1892583" lon="6.1490002" version="1" timestamp="2022-08-16T05:21:07Z" changeset="124952856" uid="3497659" user="NKA">
		<tag k="alt_name" v="Indre Mo" />
		<tag k="name" v="Indremo" />
		<tag k="place" v="hamlet" />
		<tag k="ssr:stedsnr" v="314011" />
	</node>
	<node id="9956163930" lat="62.1875225" lon="6.1120226" version="1" timestamp="2022-08-16T05:21:07Z" changeset="124952856" uid="3497659" user="NKA">
		<tag k="name" v="Osborg" />
		<tag k="place" v="farm" />
		<tag k="ssr:stedsnr" v="627626" />
	</node>
	<node id="9956163931" lat="62.1597695" lon="6.4463197" version="1" timestamp="2022-08-16T05:21:07Z" changeset="124952856" uid="3497659" user="NKA">
		<tag k="historic" v="shieling" />
		<tag k="name" v="Årsetsætra" />
		<tag k="place" v="isolated_dwelling" />
		<tag k="ssr:stedsnr" v="436576" />
	</node>
	<node id="9956163932" lat="62.1787082" lon="6.5303075" version="1" timestamp="2022-08-16T05:21:07Z" changeset="124952856" uid="3497659" user="NKA">
		<tag k="name" v="Lødebakken" />
		<tag k="place" v="farm" />
		<tag k="ssr:stedsnr" v="347726" />
	</node>
	<node id="9956163933" lat="62.2488029" lon="5.9679082" version="1" timestamp="2022-08-16T05:21:07Z" changeset="124952856" uid="3497659" user="NKA">
		<tag k="name" v="Rjåneset" />
		<tag k="place" v="farm" />
		<tag k="ssr:stedsnr" v="627612" />
	</node>
	<node id="9956163934" lat="62.2048567" lon="6.1255753" version="1" timestamp="2022-08-16T05:21:07Z" changeset="124952856" uid="3497659" user="NKA">
		<tag k="name" v="Ørstavik" />
		<tag k="place" v="farm" />
		<tag k="ssr:stedsnr" v="193097" />
	</node>
	<node id="9956163935" lat="62.1947778" lon="6.4255752" version="1" timestamp="2022-08-16T05:21:07Z" changeset="124952856" uid="3497659" user="NKA">
		<tag k="name" v="Røysa" />
		<tag k="place" v="locality" />
		<tag k="ssr:stedsnr" v="590479" />
	</node>
	<node id="9956163936" lat="62.1367581" lon="6.3008428" version="1" timestamp="2022-08-16T05:21:07Z" changeset="124952856" uid="3497659" user="NKA">
		<tag k="name" v="Bjørdalen" />
		<tag k="place" v="hamlet" />
		<tag k="ssr:stedsnr" v="445632" />
	</node>
	<node id="9956163937" lat="62.2030136" lon="6.465653" version="1" timestamp="2022-08-16T05:21:07Z" changeset="124952856" uid="3497659" user="NKA">
		<tag k="name" v="Hustad" />
		<tag k="place" v="hamlet" />
		<tag k="ssr:stedsnr" v="131480" />
	</node>
	<node id="9956163938" lat="62.1875806" lon="6.1140336" version="1" timestamp="2022-08-16T05:21:07Z" changeset="124952856" uid="3497659" user="NKA">
		<tag k="name" v="Osmarka" />
		<tag k="place" v="farm" />
		<tag k="ssr:stedsnr" v="193002" />
	</node>
	<node id="9956163939" lat="62.1997056" lon="6.4253835" version="1" timestamp="2022-08-16T05:21:07Z" changeset="124952856" uid="3497659" user="NKA">
		<tag k="name" v="Kvid" />
		<tag k="place" v="locality" />
		<tag k="ssr:stedsnr" v="226504" />
	</node>
	<node id="9956163940" lat="62.2162889" lon="6.4855834" version="1" timestamp="2022-08-16T05:21:07Z" changeset="124952856" uid="3497659" user="NKA">
		<tag k="name" v="Myra" />
		<tag k="place" v="farm" />
		<tag k="ssr:stedsnr" v="739500" />
	</node>
	<node id="9956163941" lat="62.2661004" lon="6.1379895" version="1" timestamp="2022-08-16T05:21:07Z" changeset="124952856" uid="3497659" user="NKA">
		<tag k="historic" v="shieling" />
		<tag k="name" v="Øyesætra" />
		<tag k="place" v="isolated_dwelling" />
		<tag k="ssr:stedsnr" v="738224" />
	</node>
	<node id="9956163942" lat="62.1310389" lon="6.336753" version="1" timestamp="2022-08-16T05:21:07Z" changeset="124952856" uid="3497659" user="NKA">
		<tag k="alt_name" v="Kvanndalssætra" />
		<tag k="loc_name" v="Kvanndalsætra" />
		<tag k="name" v="Kvanndalsstøylen" />
		<tag k="place" v="hamlet" />
		<tag k="ssr:stedsnr" v="739672" />
	</node>
	<node id="9956163943" lat="62.14285" lon="6.3977112" version="1" timestamp="2022-08-16T05:21:07Z" changeset="124952856" uid="3497659" user="NKA">
		<tag k="historic" v="shieling" />
		<tag k="name" v="Risesætra" />
		<tag k="place" v="isolated_dwelling" />
		<tag k="ssr:stedsnr" v="678560" />
	</node>
	<node id="9956163944" lat="62.1736639" lon="6.2280585" version="1" timestamp="2022-08-16T05:21:07Z" changeset="124952856" uid="3497659" user="NKA">
		<tag k="name" v="Rongja" />
		<tag k="place" v="farm" />
		<tag k="ssr:stedsnr" v="165840" />
	</node>
	<node id="9956163945" lat="62.2540315" lon="6.5035384" version="1" timestamp="2022-08-16T05:21:07Z" changeset="124952856" uid="3497659" user="NKA">
		<tag k="name" v="Indre-Trandal" />
		<tag k="place" v="hamlet" />
		<tag k="ssr:stedsnr" v="11279" />
	</node>
	<node id="9956163946" lat="62.1524594" lon="6.2154247" version="1" timestamp="2022-08-16T05:21:07Z" changeset="124952856" uid="3497659" user="NKA">
		<tag k="name" v="Krøvelen" />
		<tag k="place" v="hamlet" />
		<tag k="ssr:stedsnr" v="131845" />
	</node>
	<node id="9956163947" lat="62.1824896" lon="6.0730729" version="1" timestamp="2022-08-16T05:21:07Z" changeset="124952856" uid="3497659" user="NKA">
		<tag k="name" v="Hamaren" />
		<tag k="place" v="farm" />
		<tag k="ssr:stedsnr" v="324601" />
	</node>
	<node id="9956163948" lat="62.1619656" lon="6.333981" version="1" timestamp="2022-08-16T05:21:07Z" changeset="124952856" uid="3497659" user="NKA">
		<tag k="name" v="Valset" />
		<tag k="place" v="hamlet" />
		<tag k="ssr:stedsnr" v="860625" />
	</node>
	<node id="9956163949" lat="62.1809986" lon="6.1627298" version="1" timestamp="2022-08-16T05:21:07Z" changeset="124952856" uid="3497659" user="NKA">
		<tag k="name" v="Sporstøylen" />
		<tag k="place" v="hamlet" />
		<tag k="ssr:stedsnr" v="800038" />
	</node>
	<node id="9956163950" lat="62.1778503" lon="6.3721828" version="1" timestamp="2022-08-16T05:21:07Z" changeset="124952856" uid="3497659" user="NKA">
		<tag k="name" v="Tryset" />
		<tag k="place" v="farm" />
		<tag k="ssr:stedsnr" v="496617" />
	</node>
	<node id="9956163951" lat="62.1938118" lon="6.4185655" version="1" timestamp="2022-08-16T05:21:07Z" changeset="124952856" uid="3497659" user="NKA">
		<tag k="name" v="Kvistad" />
		<tag k="place" v="hamlet" />
		<tag k="ssr:stedsnr" v="314638" />
	</node>
	<node id="9956163952" lat="62.3546719" lon="6.3514836" version="1" timestamp="2022-08-16T05:21:07Z" changeset="124952856" uid="3497659" user="NKA">
		<tag k="name" v="Skarbøen" />
		<tag k="place" v="hamlet" />
		<tag k="ssr:stedsnr" v="678443" />
	</node>
	<node id="9956163953" lat="62.2920218" lon="6.1154872" version="1" timestamp="2022-08-16T05:21:07Z" changeset="124952856" uid="3497659" user="NKA">
		<tag k="name" v="Årset" />
		<tag k="place" v="hamlet" />
		<tag k="ssr:stedsnr" v="71146" />
	</node>
	<node id="9956163954" lat="62.2591276" lon="6.1278947" version="1" timestamp="2022-08-16T05:21:07Z" changeset="124952856" uid="3497659" user="NKA">
		<tag k="historic" v="shieling" />
		<tag k="name" v="Skorgestøylen" />
		<tag k="place" v="hamlet" />
		<tag k="ssr:stedsnr" v="253239" />
	</node>
	<node id="9956163955" lat="62.1783167" lon="6.1871585" version="1" timestamp="2022-08-16T05:21:07Z" changeset="124952856" uid="3497659" user="NKA">
		<tag k="name" v="Dalane" />
		<tag k="place" v="farm" />
		<tag k="ssr:stedsnr" v="800035" />
	</node>
	<node id="9956163956" lat="62.2597055" lon="6.5043641" version="1" timestamp="2022-08-16T05:21:07Z" changeset="124952856" uid="3497659" user="NKA">
		<tag k="name" v="Gjerdeplassen" />
		<tag k="place" v="farm" />
		<tag k="ssr:stedsnr" v="772078" />
	</node>
	<node id="9956163957" lat="62.2064851" lon="6.5338057" version="1" timestamp="2022-08-16T05:21:07Z" changeset="124952856" uid="3497659" user="NKA">
		<tag k="name" v="Lekneset" />
		<tag k="place" v="hamlet" />
		<tag k="ssr:stedsnr" v="324610" />
	</node>
	<node id="9956163958" lat="62.1962337" lon="6.3410582" version="1" timestamp="2022-08-16T05:21:07Z" changeset="124952856" uid="3497659" user="NKA">
		<tag k="historic" v="shieling" />
		<tag k="name" v="Frølandssætra" />
		<tag k="place" v="isolated_dwelling" />
		<tag k="ssr:stedsnr" v="131491" />
	</node>
	<node id="9956163959" lat="62.2352861" lon="6.3146974" version="1" timestamp="2022-08-16T05:21:07Z" changeset="124952856" uid="3497659" user="NKA">
		<tag k="name" v="Øyasætra" />
		<tag k="place" v="isolated_dwelling" />
		<tag k="ssr:stedsnr" v="72540" />
	</node>
	<node id="9956163960" lat="62.2923258" lon="6.0802137" version="1" timestamp="2022-08-16T05:21:07Z" changeset="124952856" uid="3497659" user="NKA">
		<tag k="name" v="Remen" />
		<tag k="place" v="hamlet" />
		<tag k="ssr:stedsnr" v="860156" />
	</node>
	<node id="9956163961" lat="62.1676472" lon="6.321903" version="1" timestamp="2022-08-16T05:21:07Z" changeset="124952856" uid="3497659" user="NKA">
		<tag k="historic" v="shieling" />
		<tag k="name" v="Sætrestøylen" />
		<tag k="place" v="isolated_dwelling" />
		<tag k="ssr:stedsnr" v="105201" />
	</node>
	<node id="9956163962" lat="62.3404888" lon="6.2029808" version="1" timestamp="2022-08-16T05:21:07Z" changeset="124952856" uid="3497659" user="NKA">
		<tag k="name" v="Bukta" />
		<tag k="place" v="farm" />
		<tag k="ssr:stedsnr" v="11786" />
	</node>
	<node id="9956163963" lat="62.2599667" lon="6.2022613" version="1" timestamp="2022-08-16T05:21:07Z" changeset="124952856" uid="3497659" user="NKA">
		<tag k="alt_name" v="Sessætra" />
		<tag k="historic" v="shieling" />
		<tag k="name" v="Skarsætra" />
		<tag k="place" v="isolated_dwelling" />
		<tag k="ssr:stedsnr" v="860232" />
	</node>
	<node id="9956163964" lat="62.1902662" lon="6.4112751" version="1" timestamp="2022-08-16T05:21:07Z" changeset="124952856" uid="3497659" user="NKA">
		<tag k="name" v="Holane" />
		<tag k="place" v="farm" />
		<tag k="ssr:stedsnr" v="954042" />
	</node>
	<node id="9956163965" lat="62.1992361" lon="6.2470947" version="1" timestamp="2022-08-16T05:21:07Z" changeset="124952856" uid="3497659" user="NKA">
		<tag k="name" v="Halvardset" />
		<tag k="place" v="farm" />
		<tag k="ssr:stedsnr" v="314550" />
	</node>
	<node id="9956163966" lat="62.1618988" lon="6.3492857" version="1" timestamp="2022-08-16T05:21:07Z" changeset="124952856" uid="3497659" user="NKA">
		<tag k="name" v="Lida" />
		<tag k="place" v="hamlet" />
		<tag k="ssr:stedsnr" v="71625" />
	</node>
	<node id="9956163967" lat="62.1893585" lon="6.6618831" version="1" timestamp="2022-08-16T05:21:07Z" changeset="124952856" uid="3497659" user="NKA">
		<tag k="name" v="Norang" />
		<tag k="place" v="hamlet" />
		<tag k="ssr:stedsnr" v="921626" />
	</node>
	<node id="9956163968" lat="62.1957276" lon="6.4124674" version="1" timestamp="2022-08-16T05:21:07Z" changeset="124952856" uid="3497659" user="NKA">
		<tag k="name" v="Ner-Frøland" />
		<tag k="place" v="hamlet" />
		<tag k="ssr:stedsnr" v="810485" />
	</node>
	<node id="9956163969" lat="62.2172222" lon="6.4834669" version="1" timestamp="2022-08-16T05:21:07Z" changeset="124952856" uid="3497659" user="NKA">
		<tag k="name" v="Hjellen" />
		<tag k="place" v="farm" />
		<tag k="ssr:stedsnr" v="921554" />
	</node>
	<node id="9956163970" lat="62.2713555" lon="6.1480392" version="1" timestamp="2022-08-16T05:21:07Z" changeset="124952856" uid="3497659" user="NKA">
		<tag k="historic" v="shieling" />
		<tag k="name" v="Busetsætra" />
		<tag k="place" v="isolated_dwelling" />
		<tag k="ssr:stedsnr" v="556246" />
	</node>
	<node id="9956163971" lat="62.1414407" lon="6.2560183" version="1" timestamp="2022-08-16T05:21:07Z" changeset="124952856" uid="3497659" user="NKA">
		<tag k="name" v="Vatne" />
		<tag k="place" v="hamlet" />
		<tag k="ssr:stedsnr" v="921595" />
	</node>
	<node id="9956163972" lat="62.3379306" lon="6.201242" version="1" timestamp="2022-08-16T05:21:07Z" changeset="124952856" uid="3497659" user="NKA">
		<tag k="name" v="Kosen" />
		<tag k="place" v="isolated_dwelling" />
		<tag k="ssr:stedsnr" v="287997" />
	</node>
	<node id="9956163973" lat="62.1569305" lon="6.231778" version="1" timestamp="2022-08-16T05:21:07Z" changeset="124952856" uid="3497659" user="NKA">
		<tag k="name" v="Stranda" />
		<tag k="place" v="farm" />
		<tag k="ssr:stedsnr" v="921618" />
	</node>
	<node id="9956163974" lat="62.201902" lon="6.43024" version="1" timestamp="2022-08-16T05:21:07Z" changeset="124952856" uid="3497659" user="NKA">
		<tag k="name" v="Fremste-Holen" />
		<tag k="place" v="farm" />
		<tag k="ssr:stedsnr" v="748495" />
	</node>
	<node id="9956163975" lat="62.3143028" lon="6.1651059" version="1" timestamp="2022-08-16T05:21:07Z" changeset="124952856" uid="3497659" user="NKA">
		<tag k="name" v="Reitegarden" />
		<tag k="place" v="farm" />
		<tag k="ssr:stedsnr" v="287584" />
	</node>
	<node id="9956163976" lat="62.2792091" lon="6.1579548" version="1" timestamp="2022-08-16T05:21:07Z" changeset="124952856" uid="3497659" user="NKA">
		<tag k="name" v="Kvia" />
		<tag k="place" v="hamlet" />
		<tag k="ssr:stedsnr" v="374186" />
	</node>
	<node id="9956163977" lat="62.2404694" lon="6.3366696" version="1" timestamp="2022-08-16T05:21:07Z" changeset="124952856" uid="3497659" user="NKA">
		<tag k="name" v="Myklebustsætra" />
		<tag k="place" v="isolated_dwelling" />
		<tag k="ssr:stedsnr" v="800546" />
	</node>
	<node id="9956163978" lat="62.2631861" lon="6.2843474" version="1" timestamp="2022-08-16T05:21:07Z" changeset="124952856" uid="3497659" user="NKA">
		<tag k="historic" v="shieling" />
		<tag k="name" v="Moastøylen" />
		<tag k="place" v="isolated_dwelling" />
		<tag k="ssr:stedsnr" v="375218" />
	</node>
	<node id="9956163979" lat="62.1948194" lon="6.4163169" version="1" timestamp="2022-08-16T05:21:07Z" changeset="124952856" uid="3497659" user="NKA">
		<tag k="name" v="Kari-Berteplassen" />
		<tag k="place" v="locality" />
		<tag k="ssr:stedsnr" v="651059" />
	</node>
	<node id="9956163980" lat="62.1953278" lon="6.3697058" version="1" timestamp="2022-08-16T05:21:07Z" changeset="124952856" uid="3497659" user="NKA">
		<tag k="historic" v="shieling" />
		<tag k="name" v="Heimstesætra" />
		<tag k="place" v="isolated_dwelling" />
		<tag k="ssr:stedsnr" v="651134" />
	</node>
	<node id="9956163981" lat="62.1714" lon="6.2505003" version="1" timestamp="2022-08-16T05:21:07Z" changeset="124952856" uid="3497659" user="NKA">
		<tag k="historic" v="shieling" />
		<tag k="name" v="Gamlesætra" />
		<tag k="place" v="isolated_dwelling" />
		<tag k="ssr:stedsnr" v="396764" />
	</node>
	<node id="9956163982" lat="62.3040909" lon="6.0928971" version="1" timestamp="2022-08-16T05:21:07Z" changeset="124952856" uid="3497659" user="NKA">
		<tag k="name" v="Bauta" />
		<tag k="place" v="farm" />
		<tag k="ssr:stedsnr" v="286172" />
	</node>
	<node id="9956163983" lat="62.2063917" lon="6.434803" version="1" timestamp="2022-08-16T05:21:07Z" changeset="124952856" uid="3497659" user="NKA">
		<tag k="historic" v="shieling" />
		<tag k="name" v="Støylen" />
		<tag k="place" v="isolated_dwelling" />
		<tag k="ssr:stedsnr" v="765332" />
	</node>
	<node id="9956163984" lat="62.135106" lon="6.3084902" version="1" timestamp="2022-08-16T05:21:07Z" changeset="124952856" uid="3497659" user="NKA">
		<tag k="name" v="Bjørdalsbakken" />
		<tag k="place" v="farm" />
		<tag k="ssr:stedsnr" v="506605" />
	</node>
	<node id="9956163985" lat="62.2715333" lon="6.5070057" version="1" timestamp="2022-08-16T05:21:07Z" changeset="124952856" uid="3497659" user="NKA">
		<tag k="historic" v="shieling" />
		<tag k="name" v="Vårsætra" />
		<tag k="place" v="isolated_dwelling" />
		<tag k="ssr:stedsnr" v="226261" />
	</node>
	<node id="9956163986" lat="62.2042111" lon="6.2694058" version="1" timestamp="2022-08-16T05:21:07Z" changeset="124952856" uid="3497659" user="NKA">
		<tag k="historic" v="shieling" />
		<tag k="name" v="Støylen" />
		<tag k="place" v="isolated_dwelling" />
		<tag k="ssr:stedsnr" v="44560" />
	</node>
	<node id="9956163987" lat="62.3573608" lon="6.262149" version="1" timestamp="2022-08-16T05:21:07Z" changeset="124952856" uid="3497659" user="NKA">
		<tag k="name" v="Lynge" />
		<tag k="place" v="hamlet" />
		<tag k="ssr:stedsnr" v="739394" />
	</node>
	<node id="9956163988" lat="62.1593206" lon="6.3261438" version="1" timestamp="2022-08-16T05:21:07Z" changeset="124952856" uid="3497659" user="NKA">
		<tag k="name" v="Tvergrova" />
		<tag k="place" v="hamlet" />
		<tag k="ssr:stedsnr" v="739579" />
	</node>
	<node id="9956163989" lat="62.1628583" lon="6.4424113" version="1" timestamp="2022-08-16T05:21:07Z" changeset="124952856" uid="3497659" user="NKA">
		<tag k="historic" v="shieling" />
		<tag k="name" v="Kvistadsætra" />
		<tag k="place" v="isolated_dwelling" />
		<tag k="ssr:stedsnr" v="739581" />
	</node>
	<node id="9956163990" lat="62.1956583" lon="6.1537845" version="1" timestamp="2022-08-16T05:21:07Z" changeset="124952856" uid="3497659" user="NKA">
		<tag k="alt_name" v="Øvre-Mo;Ytre Mo" />
		<tag k="name" v="Øvremo" />
		<tag k="place" v="neighbourhood" />
		<tag k="ssr:stedsnr" v="678124" />
	</node>
	<node id="9956163991" lat="62.2381294" lon="5.9803921" version="1" timestamp="2022-08-16T05:21:07Z" changeset="124952856" uid="3497659" user="NKA">
		<tag k="name" v="Raudøya" />
		<tag k="place" v="hamlet" />
		<tag k="ssr:stedsnr" v="688631" />
	</node>
	<node id="9956163992" lat="62.2254083" lon="6.1861196" version="1" timestamp="2022-08-16T05:21:07Z" changeset="124952856" uid="3497659" user="NKA">
		<tag k="historic" v="shieling" />
		<tag k="name" v="Nupasætra" />
		<tag k="place" v="isolated_dwelling" />
		<tag k="ssr:stedsnr" v="253072" />
	</node>
	<node id="9956163993" lat="62.2008273" lon="6.4260515" version="1" timestamp="2022-08-16T05:21:07Z" changeset="124952856" uid="3497659" user="NKA">
		<tag k="name" v="Aklestad" />
		<tag k="place" v="hamlet" />
		<tag k="ssr:stedsnr" v="678519" />
	</node>
	<node id="9956163994" lat="62.3625889" lon="6.2834224" version="1" timestamp="2022-08-16T05:21:07Z" changeset="124952856" uid="3497659" user="NKA">
		<tag k="name" v="Hjellen" />
		<tag k="place" v="farm" />
		<tag k="ssr:stedsnr" v="739398" />
	</node>
	<node id="9956163995" lat="62.3607884" lon="6.2793702" version="1" timestamp="2022-08-16T05:21:07Z" changeset="124952856" uid="3497659" user="NKA">
		<tag k="name" v="Romestrand" />
		<tag k="place" v="hamlet" />
		<tag k="ssr:stedsnr" v="921430" />
	</node>
	<node id="9956163996" lat="62.2140055" lon="6.2558502" version="1" timestamp="2022-08-16T05:21:07Z" changeset="124952856" uid="3497659" user="NKA">
		<tag k="name" v="Nordheim" />
		<tag k="place" v="farm" />
		<tag k="ssr:stedsnr" v="739521" />
	</node>
	<node id="9956163997" lat="62.1645167" lon="6.2626779" version="1" timestamp="2022-08-16T05:21:07Z" changeset="124952856" uid="3497659" user="NKA">
		<tag k="historic" v="shieling" />
		<tag k="name" v="Brautasetstøylen" />
		<tag k="place" v="isolated_dwelling" />
		<tag k="ssr:stedsnr" v="32783" />
	</node>
	<node id="9956163998" lat="62.1362889" lon="6.243853" version="1" timestamp="2022-08-16T05:21:07Z" changeset="124952856" uid="3497659" user="NKA">
		<tag k="name" v="Tiltrem" />
		<tag k="place" v="farm" />
		<tag k="ssr:stedsnr" v="590737" />
	</node>
	<node id="9956163999" lat="62.1875055" lon="6.6835584" version="1" timestamp="2022-08-16T05:21:07Z" changeset="124952856" uid="3497659" user="NKA">
		<tag k="name" v="Lunheim" />
		<tag k="place" v="farm" />
		<tag k="ssr:stedsnr" v="921625" />
	</node>
	<node id="9956164000" lat="62.1806367" lon="6.3744175" version="1" timestamp="2022-08-16T05:21:07Z" changeset="124952856" uid="3497659" user="NKA">
		<tag k="name" v="Ville" />
		<tag k="place" v="hamlet" />
		<tag k="ssr:stedsnr" v="435657" />
	</node>
	<node id="9956164001" lat="62.2112949" lon="6.5741749" version="1" timestamp="2022-08-16T05:21:07Z" changeset="124952856" uid="3497659" user="NKA">
		<tag k="name" v="Halekkja" />
		<tag k="place" v="farm" />
		<tag k="ssr:stedsnr" v="810482" />
	</node>
	<node id="9956164002" lat="62.3399022" lon="6.3701821" version="1" timestamp="2022-08-16T05:21:07Z" changeset="124952856" uid="3497659" user="NKA">
		<tag k="name" v="Saltre" />
		<tag k="place" v="hamlet" />
		<tag k="ssr:stedsnr" v="688500" />
	</node>
	<node id="9956164003" lat="62.2101646" lon="6.5698475" version="1" timestamp="2022-08-16T05:21:07Z" changeset="124952856" uid="3497659" user="NKA">
		<tag k="name" v="Indre-Urke" />
		<tag k="place" v="farm" />
		<tag k="ssr:stedsnr" v="810480" />
	</node>
	<node id="9956164004" lat="62.1894306" lon="6.386353" version="1" timestamp="2022-08-16T05:21:07Z" changeset="124952856" uid="3497659" user="NKA">
		<tag k="historic" v="shieling" />
		<tag k="name" v="Sætreledstølen" />
		<tag k="place" v="isolated_dwelling" />
		<tag k="ssr:stedsnr" v="287074" />
	</node>
	<node id="9956164005" lat="62.2187139" lon="6.2605223" version="1" timestamp="2022-08-16T05:21:07Z" changeset="124952856" uid="3497659" user="NKA">
		<tag k="name" v="Midttun" />
		<tag k="place" v="farm" />
		<tag k="ssr:stedsnr" v="375481" />
	</node>
	<node id="9956164006" lat="62.1729361" lon="6.196514" version="1" timestamp="2022-08-16T05:21:07Z" changeset="124952856" uid="3497659" user="NKA">
		<tag k="name" v="Leitet" />
		<tag k="place" v="farm" />
		<tag k="ssr:stedsnr" v="496054" />
	</node>
	<node id="9956164007" lat="62.2535917" lon="6.2306529" version="1" timestamp="2022-08-16T05:21:07Z" changeset="124952856" uid="3497659" user="NKA">
		<tag k="name" v="Høgeheida" />
		<tag k="place" v="isolated_dwelling" />
		<tag k="ssr:stedsnr" v="254248" />
	</node>
	<node id="9956164008" lat="62.229188" lon="5.9727217" version="1" timestamp="2022-08-16T05:21:07Z" changeset="124952856" uid="3497659" user="NKA">
		<tag k="name" v="Steinnes" />
		<tag k="place" v="hamlet" />
		<tag k="ssr:stedsnr" v="739168" />
	</node>
	<node id="9956164009" lat="62.2106557" lon="6.5637335" version="1" timestamp="2022-08-16T05:21:07Z" changeset="124952856" uid="3497659" user="NKA">
		<tag k="name" v="Ytre-Urke" />
		<tag k="place" v="farm" />
		<tag k="ssr:stedsnr" v="314539" />
	</node>
	<node id="9956164010" lat="62.353425" lon="6.3419807" version="1" timestamp="2022-08-16T05:21:07Z" changeset="124952856" uid="3497659" user="NKA">
		<tag k="historic" v="shieling" />
		<tag k="name" v="Skarbøsæter" />
		<tag k="place" v="isolated_dwelling" />
		<tag k="ssr:stedsnr" v="469847" />
	</node>
	<node id="9956164011" lat="62.3531096" lon="6.2631898" version="1" timestamp="2022-08-16T05:21:07Z" changeset="124952856" uid="3497659" user="NKA">
		<tag k="name" v="Barstad" />
		<tag k="place" v="hamlet" />
		<tag k="ssr:stedsnr" v="678420" />
	</node>
	<node id="9956164012" lat="62.1807306" lon="6.7259252" version="1" timestamp="2022-08-16T05:21:07Z" changeset="124952856" uid="3497659" user="NKA">
		<tag k="name" v="Øyekvia" />
		<tag k="place" v="locality" />
		<tag k="ssr:stedsnr" v="956439" />
	</node>
	<node id="9956164013" lat="62.3493578" lon="6.279654" version="1" timestamp="2022-08-16T05:21:07Z" changeset="124952856" uid="3497659" user="NKA">
		<tag k="name" v="Vollane" />
		<tag k="place" v="hamlet" />
		<tag k="ssr:stedsnr" v="921460" />
	</node>
	<node id="9956164014" lat="62.2123951" lon="6.0606786" version="1" timestamp="2022-08-16T05:21:07Z" changeset="124952856" uid="3497659" user="NKA">
		<tag k="name" v="Nedrehagen" />
		<tag k="place" v="farm" />
		<tag k="ssr:stedsnr" v="159150" />
	</node>
	<node id="9956164015" lat="62.1355555" lon="6.4118557" version="1" timestamp="2022-08-16T05:21:07Z" changeset="124952856" uid="3497659" user="NKA">
		<tag k="historic" v="shieling" />
		<tag k="name" v="Villasætra" />
		<tag k="place" v="isolated_dwelling" />
		<tag k="ssr:stedsnr" v="529878" />
	</node>
	<node id="9956164016" lat="62.2734319" lon="6.4764471" version="1" timestamp="2022-08-16T05:21:07Z" changeset="124952856" uid="3497659" user="NKA">
		<tag k="name" v="Nes" />
		<tag k="place" v="hamlet" />
		<tag k="ssr:stedsnr" v="618233" />
	</node>
	<node id="9956164017" lat="62.1921654" lon="6.4019309" version="1" timestamp="2022-08-16T05:21:07Z" changeset="124952856" uid="3497659" user="NKA">
		<tag k="name" v="Fram-Frøland" />
		<tag k="place" v="hamlet" />
		<tag k="ssr:stedsnr" v="192644" />
	</node>
	<node id="9956164018" lat="62.3654356" lon="6.34808" version="1" timestamp="2022-08-16T05:21:07Z" changeset="124952856" uid="3497659" user="NKA">
		<tag k="name" v="Brattheim" />
		<tag k="place" v="farm" />
		<tag k="ssr:stedsnr" v="739390" />
	</node>
	<node id="9956164019" lat="62.1811083" lon="6.3881613" version="1" timestamp="2022-08-16T05:21:07Z" changeset="124952856" uid="3497659" user="NKA">
		<tag k="name" v="Moland" />
		<tag k="place" v="farm" />
		<tag k="ssr:stedsnr" v="469008" />
	</node>
	<node id="9956164020" lat="62.2204306" lon="6.5792751" version="1" timestamp="2022-08-16T05:21:07Z" changeset="124952856" uid="3497659" user="NKA">
		<tag k="historic" v="shieling" />
		<tag k="name" v="Stolane" />
		<tag k="place" v="isolated_dwelling" />
		<tag k="ssr:stedsnr" v="106158" />
	</node>
	<node id="9956164021" lat="62.3233773" lon="6.4444724" version="1" timestamp="2022-08-16T05:21:07Z" changeset="124952856" uid="3497659" user="NKA">
		<tag k="name" v="Strandabøen" />
		<tag k="place" v="farm" />
		<tag k="ssr:stedsnr" v="800450" />
	</node>
	<node id="9956164022" lat="62.21985" lon="6.2615364" version="1" timestamp="2022-08-16T05:21:07Z" changeset="124952856" uid="3497659" user="NKA">
		<tag k="name" v="Olagarden" />
		<tag k="place" v="farm" />
		<tag k="ssr:stedsnr" v="921541" />
	</node>
	<node id="9956164023" lat="62.1333861" lon="6.1933809" version="1" timestamp="2022-08-16T05:21:07Z" changeset="124952856" uid="3497659" user="NKA">
		<tag k="name" v="Krøvelsætra" />
		<tag k="place" v="isolated_dwelling" />
		<tag k="ssr:stedsnr" v="921781" />
	</node>
	<node id="9956164024" lat="62.2498337" lon="6.0377576" version="1" timestamp="2022-08-16T05:21:07Z" changeset="124952856" uid="3497659" user="NKA">
		<tag k="alt_name" v="Liadalsstøylen" />
		<tag k="historic" v="shieling" />
		<tag k="name" v="Liadalssætra" />
		<tag k="place" v="isolated_dwelling" />
		<tag k="ssr:stedsnr" v="557582" />
	</node>
	<node id="9956164025" lat="62.1864555" lon="6.233689" version="1" timestamp="2022-08-16T05:21:07Z" changeset="124952856" uid="3497659" user="NKA">
		<tag k="name" v="Rishaugen" />
		<tag k="place" v="farm" />
		<tag k="ssr:stedsnr" v="799625" />
	</node>
	<node id="9956164026" lat="62.2181638" lon="6.5701779" version="1" timestamp="2022-08-16T05:21:07Z" changeset="124952856" uid="3497659" user="NKA">
		<tag k="name" v="Urkegjerdet" />
		<tag k="place" v="farm" />
		<tag k="ssr:stedsnr" v="254499" />
	</node>
	<node id="9956164027" lat="62.1962336" lon="6.2145335" version="1" timestamp="2022-08-16T05:21:07Z" changeset="124952856" uid="3497659" user="NKA">
		<tag k="alt_name" v="Støylen" />
		<tag k="historic" v="shieling" />
		<tag k="name" v="Barstadsætra" />
		<tag k="place" v="isolated_dwelling" />
		<tag k="ssr:stedsnr" v="556138" />
	</node>
	<node id="9956164028" lat="62.299" lon="6.2079753" version="1" timestamp="2022-08-16T05:21:07Z" changeset="124952856" uid="3497659" user="NKA">
		<tag k="historic" v="shieling" />
		<tag k="name" v="Puskesætra" />
		<tag k="place" v="isolated_dwelling" />
		<tag k="ssr:stedsnr" v="772575" />
	</node>
	<node id="9956164029" lat="62.2144444" lon="6.5750343" version="1" timestamp="2022-08-16T05:21:07Z" changeset="124952856" uid="3497659" user="NKA">
		<tag k="name" v="Klokk" />
		<tag k="place" v="farm" />
		<tag k="ssr:stedsnr" v="436483" />
	</node>
	<node id="9956164030" lat="62.3193598" lon="6.3961759" version="1" timestamp="2022-08-16T05:21:07Z" changeset="124952856" uid="3497659" user="NKA">
		<tag k="name" v="Indre-Årsneset" />
		<tag k="place" v="farm" />
		<tag k="ssr:stedsnr" v="506500" />
	</node>
	<node id="9956164031" lat="62.1917" lon="6.2439169" version="1" timestamp="2022-08-16T05:21:07Z" changeset="124952856" uid="3497659" user="NKA">
		<tag k="name" v="Massgarden" />
		<tag k="place" v="farm" />
		<tag k="ssr:stedsnr" v="374587" />
	</node>
	<node id="9956164032" lat="62.2374861" lon="6.4070947" version="1" timestamp="2022-08-16T05:21:07Z" changeset="124952856" uid="3497659" user="NKA">
		<tag k="historic" v="shieling" />
		<tag k="name" v="Aklestadsætra" />
		<tag k="place" v="isolated_dwelling" />
		<tag k="ssr:stedsnr" v="617552" />
	</node>
	<node id="9956164033" lat="62.2155974" lon="6.0236993" version="1" timestamp="2022-08-16T05:21:07Z" changeset="124952856" uid="3497659" user="NKA">
		<tag k="name" v="Lystad" />
		<tag k="place" v="hamlet" />
		<tag k="ssr:stedsnr" v="374101" />
	</node>
	<node id="9956164034" lat="62.2507621" lon="6.3686303" version="1" timestamp="2022-08-16T05:21:07Z" changeset="124952856" uid="3497659" user="NKA">
		<tag k="historic" v="shieling" />
		<tag k="name" v="Standalsætra" />
		<tag k="place" v="isolated_dwelling" />
		<tag k="ssr:stedsnr" v="11283" />
	</node>
	<node id="9956164035" lat="62.249181" lon="5.9779668" version="1" timestamp="2022-08-16T05:21:07Z" changeset="124952856" uid="3497659" user="NKA">
		<tag k="name" v="Grøvika" />
		<tag k="place" v="hamlet" />
		<tag k="ssr:stedsnr" v="931610" />
	</node>
	<node id="9956164036" lat="62.1902081" lon="6.1234744" version="1" timestamp="2022-08-16T05:21:07Z" changeset="124952856" uid="3497659" user="NKA">
		<tag k="name" v="Ose" />
		<tag k="place" v="quarter" />
		<tag k="ssr:stedsnr" v="446609" />
	</node>
	<node id="9956164037" lat="62.3542583" lon="6.2504612" version="1" timestamp="2022-08-16T05:21:07Z" changeset="124952856" uid="3497659" user="NKA">
		<tag k="historic" v="shieling" />
		<tag k="name" v="Lyngsætra" />
		<tag k="place" v="isolated_dwelling" />
		<tag k="ssr:stedsnr" v="518989" />
	</node>
	<node id="9956164038" lat="62.2232494" lon="6.2640263" version="1" timestamp="2022-08-16T05:21:07Z" changeset="124952856" uid="3497659" user="NKA">
		<tag k="name" v="Øy" />
		<tag k="place" v="hamlet" />
		<tag k="ssr:stedsnr" v="436512" />
	</node>
	<node id="9956164039" lat="62.3432944" lon="6.2939779" version="1" timestamp="2022-08-16T05:21:07Z" changeset="124952856" uid="3497659" user="NKA">
		<tag k="historic" v="shieling" />
		<tag k="name" v="Gamlestøylen" />
		<tag k="place" v="isolated_dwelling" />
		<tag k="ssr:stedsnr" v="314446" />
	</node>
	<node id="9956164040" lat="62.339083" lon="6.2036152" version="1" timestamp="2022-08-16T05:21:07Z" changeset="124952856" uid="3497659" user="NKA">
		<tag k="name" v="Masdal" />
		<tag k="place" v="hamlet" />
		<tag k="ssr:stedsnr" v="436781" />
	</node>
	<node id="9956164041" lat="62.2858271" lon="6.4212724" version="1" timestamp="2022-08-16T05:21:07Z" changeset="124952856" uid="3497659" user="NKA">
		<tag k="name" v="Stavset" />
		<tag k="place" v="farm" />
		<tag k="ssr:stedsnr" v="11245" />
	</node>
	<node id="9956164042" lat="62.3070207" lon="6.4046968" version="1" timestamp="2022-08-16T05:21:07Z" changeset="124952856" uid="3497659" user="NKA">
		<tag k="name" v="Ytsteneset" />
		<tag k="place" v="locality" />
		<tag k="ssr:stedsnr" v="748503" />
	</node>
	<node id="9956164043" lat="62.195975" lon="6.244778" version="1" timestamp="2022-08-16T05:21:07Z" changeset="124952856" uid="3497659" user="NKA">
		<tag k="name" v="Torset" />
		<tag k="place" v="farm" />
		<tag k="ssr:stedsnr" v="738501" />
	</node>
	<node id="9956164044" lat="62.2354916" lon="6.080078" version="1" timestamp="2022-08-16T05:21:07Z" changeset="124952856" uid="3497659" user="NKA">
		<tag k="historic" v="shieling" />
		<tag k="name" v="Skorgestøylen" />
		<tag k="place" v="isolated_dwelling" />
		<tag k="ssr:stedsnr" v="528065" />
	</node>
	<node id="9956164045" lat="62.3540674" lon="6.2781397" version="1" timestamp="2022-08-16T05:21:07Z" changeset="124952856" uid="3497659" user="NKA">
		<tag k="name" v="Kvia" />
		<tag k="place" v="farm" />
		<tag k="ssr:stedsnr" v="882981" />
	</node>
	<node id="9956164046" lat="62.2395789" lon="6.0038775" version="1" timestamp="2022-08-16T05:21:07Z" changeset="124952856" uid="3497659" user="NKA">
		<tag k="name" v="Håvoll" />
		<tag k="place" v="farm" />
		<tag k="ssr:stedsnr" v="861141" />
	</node>
	<node id="9956164047" lat="62.1612166" lon="6.2382224" version="1" timestamp="2022-08-16T05:21:07Z" changeset="124952856" uid="3497659" user="NKA">
		<tag k="name" v="Brunene" />
		<tag k="place" v="farm" />
		<tag k="ssr:stedsnr" v="11605" />
	</node>
	<node id="9956164048" lat="62.2228591" lon="6.2517104" version="1" timestamp="2022-08-16T05:21:07Z" changeset="124952856" uid="3497659" user="NKA">
		<tag k="name" v="Langstøylen" />
		<tag k="place" v="farm" />
		<tag k="ssr:stedsnr" v="132519" />
	</node>
	<node id="9956164049" lat="62.1701341" lon="6.2166292" version="1" timestamp="2022-08-16T05:21:07Z" changeset="124952856" uid="3497659" user="NKA">
		<tag k="name" v="Indre-Åm" />
		<tag k="place" v="hamlet" />
		<tag k="ssr:stedsnr" v="263625" />
	</node>
	<node id="9956164050" lat="62.2160493" lon="6.029077" version="1" timestamp="2022-08-16T05:21:07Z" changeset="124952856" uid="3497659" user="NKA">
		<tag k="name" v="Oppsal" />
		<tag k="place" v="hamlet" />
		<tag k="ssr:stedsnr" v="860088" />
	</node>
	<node id="9956164051" lat="62.2421389" lon="6.2823336" version="1" timestamp="2022-08-16T05:21:07Z" changeset="124952856" uid="3497659" user="NKA">
		<tag k="historic" v="shieling" />
		<tag k="name" v="Årsætersætra" />
		<tag k="place" v="isolated_dwelling" />
		<tag k="ssr:stedsnr" v="71594" />
	</node>
	<node id="9956164052" lat="62.2299419" lon="6.2705226" version="1" timestamp="2022-08-16T05:21:07Z" changeset="124952856" uid="3497659" user="NKA">
		<tag k="name" v="Årsætra" />
		<tag k="place" v="farm" />
		<tag k="ssr:stedsnr" v="860601" />
	</node>
	<node id="9956164053" lat="62.2269562" lon="6.2726995" version="1" timestamp="2022-08-16T05:21:07Z" changeset="124952856" uid="3497659" user="NKA">
		<tag k="name" v="Nygarden" />
		<tag k="place" v="farm" />
		<tag k="ssr:stedsnr" v="193543" />
	</node>
	<node id="9956164054" lat="62.2618733" lon="6.502958" version="1" timestamp="2022-08-16T05:21:07Z" changeset="124952856" uid="3497659" user="NKA">
		<tag k="name" v="Midt-Trandal" />
		<tag k="place" v="farm" />
		<tag k="ssr:stedsnr" v="446621" />
	</node>
	<node id="9956164055" lat="62.1687666" lon="6.2208781" version="1" timestamp="2022-08-16T05:21:07Z" changeset="124952856" uid="3497659" user="NKA">
		<tag k="name" v="Åmbakken" />
		<tag k="place" v="farm" />
		<tag k="ssr:stedsnr" v="739597" />
	</node>
	<node id="9956164056" lat="62.22145" lon="6.4773834" version="1" timestamp="2022-08-16T05:21:07Z" changeset="124952856" uid="3497659" user="NKA">
		<tag k="historic" v="shieling" />
		<tag k="name" v="Feirstøylen" />
		<tag k="place" v="isolated_dwelling" />
		<tag k="ssr:stedsnr" v="521252" />
	</node>
	<node id="9956164057" lat="62.2686389" lon="6.1805364" version="1" timestamp="2022-08-16T05:21:07Z" changeset="124952856" uid="3497659" user="NKA">
		<tag k="historic" v="shieling" />
		<tag k="name" v="Gletten" />
		<tag k="place" v="isolated_dwelling" />
		<tag k="ssr:stedsnr" v="165917" />
	</node>
	<node id="9956164058" lat="62.2000083" lon="6.4325168" version="1" timestamp="2022-08-16T05:21:07Z" changeset="124952856" uid="3497659" user="NKA">
		<tag k="name" v="Klokkarplassen" />
		<tag k="place" v="locality" />
		<tag k="ssr:stedsnr" v="590478" />
	</node>
	<node id="9956164059" lat="62.1953541" lon="6.4298795" version="1" timestamp="2022-08-16T05:21:07Z" changeset="124952856" uid="3497659" user="NKA">
		<tag k="name" v="Mo" />
		<tag k="place" v="hamlet" />
		<tag k="ssr:stedsnr" v="314633" />
	</node>
	<node id="9956164060" lat="62.2835303" lon="6.1326721" version="1" timestamp="2022-08-16T05:21:07Z" changeset="124952856" uid="3497659" user="NKA">
		<tag k="name" v="Buset" />
		<tag k="place" v="hamlet" />
		<tag k="ssr:stedsnr" v="920172" />
	</node>
	<node id="9956164061" lat="62.1698666" lon="6.2487835" version="1" timestamp="2022-08-16T05:21:07Z" changeset="124952856" uid="3497659" user="NKA">
		<tag k="historic" v="shieling" />
		<tag k="name" v="Åmsætra" />
		<tag k="place" v="isolated_dwelling" />
		<tag k="ssr:stedsnr" v="639784" />
	</node>
	<node id="9956164062" lat="62.2478122" lon="6.0334907" version="1" timestamp="2022-08-16T05:21:07Z" changeset="124952856" uid="3497659" user="NKA">
		<tag k="historic" v="shieling" />
		<tag k="name" v="Leitet" />
		<tag k="place" v="isolated_dwelling" />
		<tag k="ssr:stedsnr" v="573151" />
	</node>
	<node id="9956164063" lat="62.3113287" lon="6.4449152" version="1" timestamp="2022-08-16T05:21:07Z" changeset="124952856" uid="3497659" user="NKA">
		<tag k="name" v="Molaupen" />
		<tag k="place" v="farm" />
		<tag k="ssr:stedsnr" v="749628" />
	</node>
	<node id="9956164064" lat="62.2490222" lon="6.2820224" version="1" timestamp="2022-08-16T05:21:07Z" changeset="124952856" uid="3497659" user="NKA">
		<tag k="historic" v="shieling" />
		<tag k="name" v="Kubbestøylen" />
		<tag k="place" v="isolated_dwelling" />
		<tag k="ssr:stedsnr" v="556582" />
	</node>
	<node id="9956164065" lat="62.1978583" lon="6.0309778" version="1" timestamp="2022-08-16T05:21:07Z" changeset="124952856" uid="3497659" user="NKA">
		<tag k="name" v="Selbervika" />
		<tag k="place" v="farm" />
		<tag k="ssr:stedsnr" v="436104" />
	</node>
	<node id="9956164066" lat="62.2635528" lon="6.2845112" version="1" timestamp="2022-08-16T05:21:07Z" changeset="124952856" uid="3497659" user="NKA">
		<tag k="historic" v="shieling" />
		<tag k="name" v="Olastøylen" />
		<tag k="place" v="isolated_dwelling" />
		<tag k="ssr:stedsnr" v="650686" />
	</node>
	<node id="9956164067" lat="62.1753528" lon="6.7264057" version="1" timestamp="2022-08-16T05:21:07Z" changeset="124952856" uid="3497659" user="NKA">
		<tag k="historic" v="shieling" />
		<tag k="name" v="Lygnstøylen" />
		<tag k="place" v="isolated_dwelling" />
		<tag k="ssr:stedsnr" v="934742" />
	</node>
	<node id="9956164068" lat="62.1511709" lon="6.2478962" version="1" timestamp="2022-08-16T05:21:07Z" changeset="124952856" uid="3497659" user="NKA">
		<tag k="name" v="Hovdenakken" />
		<tag k="place" v="hamlet" />
		<tag k="ssr:stedsnr" v="627623" />
	</node>
	<node id="9956164069" lat="62.1585917" lon="6.2648642" version="1" timestamp="2022-08-16T05:21:07Z" changeset="124952856" uid="3497659" user="NKA">
		<tag k="historic" v="shieling" />
		<tag k="name" v="Litlestøylen" />
		<tag k="place" v="isolated_dwelling" />
		<tag k="ssr:stedsnr" v="153823" />
	</node>
	<node id="9956164070" lat="62.3209232" lon="6.1445829" version="1" timestamp="2022-08-16T05:21:07Z" changeset="124952856" uid="3497659" user="NKA">
		<tag k="alt_name" v="Toregarden" />
		<tag k="name" v="Nørdre-Vartdal" />
		<tag k="place" v="farm" />
		<tag k="ssr:stedsnr" v="603169" />
	</node>
	<node id="9956164071" lat="62.2148451" lon="6.4809603" version="1" timestamp="2022-08-16T05:21:07Z" changeset="124952856" uid="3497659" user="NKA">
		<tag k="name" v="Solstrand" />
		<tag k="place" v="farm" />
		<tag k="ssr:stedsnr" v="901810" />
	</node>
	<node id="9956164072" lat="62.2059318" lon="6.4632279" version="1" timestamp="2022-08-16T05:21:07Z" changeset="124952856" uid="3497659" user="NKA">
		<tag k="name" v="Rise" />
		<tag k="place" v="farm" />
		<tag k="ssr:stedsnr" v="314546" />
	</node>
	<node id="9956164073" lat="62.2189539" lon="6.2487411" version="1" timestamp="2022-08-16T05:21:07Z" changeset="124952856" uid="3497659" user="NKA">
		<tag k="name" v="Fyldalen" />
		<tag k="place" v="hamlet" />
		<tag k="ssr:stedsnr" v="627616" />
	</node>
	<node id="9956164074" lat="62.2685927" lon="6.1730045" version="1" timestamp="2022-08-16T05:21:07Z" changeset="124952856" uid="3497659" user="NKA">
		<tag k="historic" v="shieling" />
		<tag k="name" v="Årsetstøylen" />
		<tag k="place" v="hamlet" />
		<tag k="ssr:stedsnr" v="435251" />
	</node>
	<node id="9956164075" lat="62.3087749" lon="6.099328" version="1" timestamp="2022-08-16T05:21:07Z" changeset="124952856" uid="3497659" user="NKA">
		<tag k="name" v="Stranda" />
		<tag k="place" v="hamlet" />
		<tag k="ssr:stedsnr" v="375755" />
	</node>
	<node id="9956164076" lat="62.3238381" lon="6.2756889" version="1" timestamp="2022-08-16T05:21:07Z" changeset="124952856" uid="3497659" user="NKA">
		<tag k="loc_name" v="Malbøsætra" />
		<tag k="name" v="Melbøsætra" />
		<tag k="place" v="hamlet" />
		<tag k="ssr:stedsnr" v="557428" />
	</node>
	<node id="9956164077" lat="62.1564527" lon="6.3623356" version="1" timestamp="2022-08-16T05:21:07Z" changeset="124952856" uid="3497659" user="NKA">
		<tag k="name" v="Aksla" />
		<tag k="place" v="farm" />
		<tag k="ssr:stedsnr" v="800597" />
	</node>
	<node id="9956164078" lat="62.2282805" lon="6.2840142" version="1" timestamp="2022-08-16T05:21:07Z" changeset="124952856" uid="3497659" user="NKA">
		<tag k="historic" v="shieling" />
		<tag k="name" v="Litlsætra" />
		<tag k="place" v="isolated_dwelling" />
		<tag k="ssr:stedsnr" v="408693" />
	</node>
	<node id="9956164079" lat="62.2967722" lon="6.2466697" version="1" timestamp="2022-08-16T05:21:07Z" changeset="124952856" uid="3497659" user="NKA">
		<tag k="name" v="Skjerva" />
		<tag k="place" v="locality" />
		<tag k="ssr:stedsnr" v="254450" />
	</node>
	<node id="9956164080" lat="62.3320877" lon="6.3817749" version="1" timestamp="2022-08-16T05:21:07Z" changeset="124952856" uid="3497659" user="NKA">
		<tag k="name" v="Klubbeneset" />
		<tag k="place" v="farm" />
		<tag k="ssr:stedsnr" v="748502" />
	</node>
	<node id="9956164081" lat="62.2273445" lon="6.2763113" version="1" timestamp="2022-08-16T05:21:07Z" changeset="124952856" uid="3497659" user="NKA">
		<tag k="name" v="Øyahaugen" />
		<tag k="place" v="farm" />
		<tag k="ssr:stedsnr" v="375492" />
	</node>
	<node id="9956164082" lat="62.2074" lon="6.242064" version="1" timestamp="2022-08-16T05:21:07Z" changeset="124952856" uid="3497659" user="NKA">
		<tag k="historic" v="shieling" />
		<tag k="name" v="Litlsætertunet" />
		<tag k="place" v="isolated_dwelling" />
		<tag k="ssr:stedsnr" v="287748" />
	</node>
	<node id="9956164083" lat="62.3425541" lon="6.2927663" version="1" timestamp="2022-08-16T05:21:07Z" changeset="124952856" uid="3497659" user="NKA">
		<tag k="historic" v="shieling" />
		<tag k="name" v="Vollesætra" />
		<tag k="place" v="isolated_dwelling" />
		<tag k="ssr:stedsnr" v="578724" />
	</node>
	<node id="9956164084" lat="62.2707833" lon="5.9940641" version="1" timestamp="2022-08-16T05:21:07Z" changeset="124952856" uid="3497659" user="NKA">
		<tag k="alt_name" v="Flåvik" />
		<tag k="name" v="Flåvika" />
		<tag k="place" v="hamlet" />
		<tag k="ssr:stedsnr" v="435211" />
	</node>
	<node id="9956164085" lat="62.1973722" lon="6.3708668" version="1" timestamp="2022-08-16T05:21:07Z" changeset="124952856" uid="3497659" user="NKA">
		<tag k="alt_name" v="Heimsætra" />
		<tag k="name" v="Frølands heimsætra" />
		<tag k="place" v="locality" />
		<tag k="ssr:stedsnr" v="799524" />
	</node>
	<node id="9956164086" lat="62.2518583" lon="6.3686363" version="1" timestamp="2022-08-16T05:21:07Z" changeset="124952856" uid="3497659" user="NKA">
		<tag k="historic" v="shieling" />
		<tag k="name" v="Gamlesætra" />
		<tag k="place" v="isolated_dwelling" />
		<tag k="ssr:stedsnr" v="408383" />
	</node>
	<node id="9956164087" lat="62.2517472" lon="6.0221476" version="1" timestamp="2022-08-16T05:21:07Z" changeset="124952856" uid="3497659" user="NKA">
		<tag k="historic" v="shieling" />
		<tag k="name" v="Fjellsætra" />
		<tag k="place" v="isolated_dwelling" />
		<tag k="ssr:stedsnr" v="827422" />
	</node>
	<node id="9956164088" lat="62.1820041" lon="6.0706885" version="1" timestamp="2022-08-16T05:21:07Z" changeset="124952856" uid="3497659" user="NKA">
		<tag k="name" v="Fagerhol" />
		<tag k="place" v="hamlet" />
		<tag k="ssr:stedsnr" v="810607" />
	</node>
	<node id="9956164089" lat="62.1505234" lon="6.3198931" version="1" timestamp="2022-08-16T05:21:07Z" changeset="124952856" uid="3497659" user="NKA">
		<tag k="name" v="Eidet" />
		<tag k="place" v="hamlet" />
		<tag k="ssr:stedsnr" v="556597" />
	</node>
	<node id="9956164090" lat="62.3200889" lon="6.1538251" version="1" timestamp="2022-08-16T05:21:07Z" changeset="124952856" uid="3497659" user="NKA">
		<tag k="name" v="Reitane" />
		<tag k="place" v="farm" />
		<tag k="ssr:stedsnr" v="72738" />
	</node>
	<node id="9956164091" lat="62.1746127" lon="6.2118023" version="1" timestamp="2022-08-16T05:21:07Z" changeset="124952856" uid="3497659" user="NKA">
		<tag k="name" v="Ytre-Åm" />
		<tag k="place" v="hamlet" />
		<tag k="ssr:stedsnr" v="203611" />
	</node>
	<node id="9956164092" lat="62.1514501" lon="6.3712363" version="1" timestamp="2022-08-16T05:21:07Z" changeset="124952856" uid="3497659" user="NKA">
		<tag k="name" v="Sledalen" />
		<tag k="place" v="hamlet" />
		<tag k="ssr:stedsnr" v="617590" />
	</node>
	<node id="9956164093" lat="62.323688" lon="6.1515394" version="1" timestamp="2022-08-16T05:21:07Z" changeset="124952856" uid="3497659" user="NKA">
		<tag k="name" v="Auregota" />
		<tag k="place" v="farm" />
		<tag k="ssr:stedsnr" v="496763" />
	</node>
	<node id="9956164094" lat="62.3397334" lon="6.2032391" version="1" timestamp="2022-08-16T05:21:07Z" changeset="124952856" uid="3497659" user="NKA">
		<tag k="name" v="Foten" />
		<tag k="place" v="farm" />
		<tag k="ssr:stedsnr" v="954994" />
	</node>
	<node id="9956164095" lat="62.2410508" lon="6.0089766" version="1" timestamp="2022-08-16T05:21:07Z" changeset="124952856" uid="3497659" user="NKA">
		<tag k="name" v="Halse" />
		<tag k="place" v="hamlet" />
		<tag k="ssr:stedsnr" v="496162" />
	</node>
	<node id="9956164096" lat="62.2839722" lon="6.522703" version="1" timestamp="2022-08-16T05:21:07Z" changeset="124952856" uid="3497659" user="NKA">
		<tag k="historic" v="shieling" />
		<tag k="name" v="Trandalssætra" />
		<tag k="place" v="isolated_dwelling" />
		<tag k="ssr:stedsnr" v="921273" />
	</node>
	<node id="9956164097" lat="62.2305529" lon="6.0087295" version="1" timestamp="2022-08-16T05:21:07Z" changeset="124952856" uid="3497659" user="NKA">
		<tag k="name" v="Sandvika" />
		<tag k="place" v="hamlet" />
		<tag k="ssr:stedsnr" v="384584" />
	</node>
	<node id="9956164098" lat="62.2850739" lon="6.1433389" version="1" timestamp="2022-08-16T05:21:07Z" changeset="124952856" uid="3497659" user="NKA">
		<tag k="name" v="Myklebust" />
		<tag k="place" v="hamlet" />
		<tag k="ssr:stedsnr" v="374198" />
	</node>
	<node id="9956164099" lat="62.2980777" lon="6.0785866" version="1" timestamp="2022-08-16T05:21:07Z" changeset="124952856" uid="3497659" user="NKA">
		<tag k="name" v="Søre-Vartdal" />
		<tag k="place" v="hamlet" />
		<tag k="ssr:stedsnr" v="11622" />
	</node>
	<node id="9956164100" lat="62.2966111" lon="6.095253" version="1" timestamp="2022-08-16T05:21:07Z" changeset="124952856" uid="3497659" user="NKA">
		<tag k="name" v="Årset" />
		<tag k="place" v="farm" />
		<tag k="ssr:stedsnr" v="890982" />
	</node>
	<node id="9956164101" lat="62.208166" lon="6.6106966" version="1" timestamp="2022-08-16T05:21:07Z" changeset="124952856" uid="3497659" user="NKA">
		<tag k="name" v="Maude" />
		<tag k="place" v="farm" />
		<tag k="ssr:stedsnr" v="678514" />
	</node>
	<node id="9956164102" lat="62.3012962" lon="6.0948207" version="1" timestamp="2022-08-16T05:21:07Z" changeset="124952856" uid="3497659" user="NKA">
		<tag k="name" v="Sætre" />
		<tag k="place" v="hamlet" />
		<tag k="ssr:stedsnr" v="11140" />
	</node>
	<node id="9956164103" lat="62.2416695" lon="6.2827697" version="1" timestamp="2022-08-16T05:21:07Z" changeset="124952856" uid="3497659" user="NKA">
		<tag k="historic" v="shieling" />
		<tag k="name" v="Årsæterstøylen" />
		<tag k="place" v="isolated_dwelling" />
		<tag k="ssr:stedsnr" v="529686" />
	</node>
	<node id="9956164104" lat="62.3066361" lon="6.0966585" version="1" timestamp="2022-08-16T05:21:07Z" changeset="124952856" uid="3497659" user="NKA">
		<tag k="name" v="Gullikgarden" />
		<tag k="place" v="farm" />
		<tag k="ssr:stedsnr" v="11136" />
	</node>
	<node id="9956164105" lat="62.1878493" lon="6.2121054" version="1" timestamp="2022-08-16T05:21:07Z" changeset="124952856" uid="3497659" user="NKA">
		<tag k="name" v="Barstad" />
		<tag k="place" v="hamlet" />
		<tag k="ssr:stedsnr" v="617014" />
	</node>
	<node id="9956164106" lat="62.2940236" lon="6.098509" version="1" timestamp="2022-08-16T05:21:07Z" changeset="124952856" uid="3497659" user="NKA">
		<tag k="name" v="Øye" />
		<tag k="place" v="hamlet" />
		<tag k="ssr:stedsnr" v="799148" />
	</node>
	<node id="9956164107" lat="62.2270126" lon="6.6336069" version="1" timestamp="2022-08-16T05:21:07Z" changeset="124952856" uid="3497659" user="NKA">
		<tag k="alt_name" v="Langesætra" />
		<tag k="historic" v="shieling" />
		<tag k="name" v="Langsætra" />
		<tag k="place" v="isolated_dwelling" />
		<tag k="ssr:stedsnr" v="617541" />
	</node>
	<node id="9956164108" lat="62.3155578" lon="6.1570736" version="1" timestamp="2022-08-16T05:21:07Z" changeset="124952856" uid="3497659" user="NKA">
		<tag k="name" v="Årskog" />
		<tag k="place" v="hamlet" />
		<tag k="ssr:stedsnr" v="193759" />
	</node>
	<node id="9956164109" lat="62.2970389" lon="6.2047031" version="1" timestamp="2022-08-16T05:21:07Z" changeset="124952856" uid="3497659" user="NKA">
		<tag k="historic" v="shieling" />
		<tag k="name" v="Årskogsætra" />
		<tag k="place" v="isolated_dwelling" />
		<tag k="ssr:stedsnr" v="860152" />
	</node>
	<node id="9956164110" lat="62.185377" lon="6.6870561" version="1" timestamp="2022-08-16T05:21:07Z" changeset="124952856" uid="3497659" user="NKA">
		<tag k="name" v="Norangshol" />
		<tag k="place" v="farm" />
		<tag k="ssr:stedsnr" v="82469" />
	</node>
	<node id="9956164111" lat="62.2503889" lon="6.5049827" version="1" timestamp="2022-08-16T05:21:07Z" changeset="124952856" uid="3497659" user="NKA">
		<tag k="name" v="Rynningen" />
		<tag k="place" v="farm" />
		<tag k="ssr:stedsnr" v="678298" />
	</node>
	<node id="9956164112" lat="62.1435388" lon="6.2734641" version="1" timestamp="2022-08-16T05:21:07Z" changeset="124952856" uid="3497659" user="NKA">
		<tag k="name" v="Vatnebakk" />
		<tag k="place" v="farm" />
		<tag k="ssr:stedsnr" v="496586" />
	</node>
	<node id="9956164113" lat="62.2310535" lon="6.5882575" version="1" timestamp="2022-08-16T05:21:07Z" changeset="124952856" uid="3497659" user="NKA">
		<tag k="historic" v="shieling" />
		<tag k="name" v="Haukåssætra" />
		<tag k="place" v="isolated_dwelling" />
		<tag k="ssr:stedsnr" v="496557" />
	</node>
	<node id="9956164114" lat="62.2200437" lon="6.4899007" version="1" timestamp="2022-08-16T05:21:07Z" changeset="124952856" uid="3497659" user="NKA">
		<tag k="name" v="Flatnes" />
		<tag k="place" v="farm" />
		<tag k="ssr:stedsnr" v="597815" />
	</node>
	<node id="9956164115" lat="62.1433366" lon="6.7464702" version="1" timestamp="2022-08-16T05:21:07Z" changeset="124952856" uid="3497659" user="NKA">
		<tag k="historic" v="shieling" />
		<tag k="name" v="Urasætra" />
		<tag k="place" v="isolated_dwelling" />
		<tag k="ssr:stedsnr" v="496366" />
	</node>
	<node id="9956164116" lat="62.230975" lon="6.5885946" version="1" timestamp="2022-08-16T05:21:07Z" changeset="124952856" uid="3497659" user="NKA">
		<tag k="historic" v="shieling" />
		<tag k="name" v="Ytre Urkesætra" />
		<tag k="place" v="isolated_dwelling" />
		<tag k="ssr:stedsnr" v="651690" />
	</node>
	<node id="9956164117" lat="62.3230617" lon="6.396176" version="1" timestamp="2022-08-16T05:21:07Z" changeset="124952856" uid="3497659" user="NKA">
		<tag k="name" v="Ytre-Årsneset" />
		<tag k="place" v="farm" />
		<tag k="ssr:stedsnr" v="141504" />
	</node>
	<node id="9956164118" lat="62.2946425" lon="6.0804855" version="1" timestamp="2022-08-16T05:21:07Z" changeset="124952856" uid="3497659" user="NKA">
		<tag k="name" v="Blundrebakken" />
		<tag k="place" v="isolated_dwelling" />
		<tag k="ssr:stedsnr" v="658214" />
	</node>
	<node id="9956164119" lat="62.1927139" lon="6.6615724" version="1" timestamp="2022-08-16T05:21:07Z" changeset="124952856" uid="3497659" user="NKA">
		<tag k="name" v="Styrkargarden" />
		<tag k="place" v="farm" />
		<tag k="ssr:stedsnr" v="10635" />
	</node>
	<node id="9956164120" lat="62.1786889" lon="6.7344223" version="1" timestamp="2022-08-16T05:21:07Z" changeset="124952856" uid="3497659" user="NKA">
		<tag k="name" v="Skylstad" />
		<tag k="place" v="locality" />
		<tag k="ssr:stedsnr" v="227725" />
	</node>
	<node id="9956164121" lat="62.2053578" lon="6.1395764" version="1" timestamp="2022-08-16T05:21:07Z" changeset="124952856" uid="3497659" user="NKA">
		<tag k="name" v="Vallabøen" />
		<tag k="place" v="quarter" />
		<tag k="ssr:stedsnr" v="435133" />
	</node>
	<node id="9956164122" lat="62.3461928" lon="6.3590101" version="1" timestamp="2022-08-16T05:21:07Z" changeset="124952856" uid="3497659" user="NKA">
		<tag k="name" v="Indre-Øyra" />
		<tag k="place" v="farm" />
		<tag k="ssr:stedsnr" v="20489" />
	</node>
	<node id="9956164123" lat="62.2298354" lon="6.2116086" version="1" timestamp="2022-08-16T05:21:07Z" changeset="124952856" uid="3497659" user="NKA">
		<tag k="name" v="Mosætra" />
		<tag k="place" v="isolated_dwelling" />
		<tag k="ssr:stedsnr" v="496064" />
	</node>
	<node id="9956164124" lat="62.2652972" lon="6.1886612" version="1" timestamp="2022-08-16T05:21:07Z" changeset="124952856" uid="3497659" user="NKA">
		<tag k="historic" v="shieling" />
		<tag k="name" v="Grytastøylen" />
		<tag k="place" v="isolated_dwelling" />
		<tag k="ssr:stedsnr" v="435250" />
	</node>
	<node id="9956164125" lat="62.2732305" lon="6.1709085" version="1" timestamp="2022-08-16T05:21:07Z" changeset="124952856" uid="3497659" user="NKA">
		<tag k="historic" v="shieling" />
		<tag k="name" v="Litlesætra" />
		<tag k="place" v="isolated_dwelling" />
		<tag k="ssr:stedsnr" v="529310" />
	</node>
	<node id="9956164126" lat="62.2840472" lon="6.2767974" version="1" timestamp="2022-08-16T05:21:07Z" changeset="124952856" uid="3497659" user="NKA">
		<tag k="historic" v="shieling" />
		<tag k="name" v="Steinstøylen" />
		<tag k="place" v="isolated_dwelling" />
		<tag k="ssr:stedsnr" v="497479" />
	</node>
	<node id="9956164127" lat="62.3100805" lon="6.1818447" version="1" timestamp="2022-08-16T05:21:07Z" changeset="124952856" uid="3497659" user="NKA">
		<tag k="name" v="Gamlegarden" />
		<tag k="place" v="farm" />
		<tag k="ssr:stedsnr" v="165945" />
	</node>
	<node id="9956164128" lat="62.2118194" lon="6.5901973" version="1" timestamp="2022-08-16T05:21:07Z" changeset="124952856" uid="3497659" user="NKA">
		<tag k="name" v="Nilsgjerdet" />
		<tag k="place" v="locality" />
		<tag k="ssr:stedsnr" v="287910" />
	</node>
	<node id="9956164129" lat="62.3441349" lon="6.2119053" version="1" timestamp="2022-08-16T05:21:07Z" changeset="124952856" uid="3497659" user="NKA">
		<tag k="name" v="Rot" />
		<tag k="place" v="hamlet" />
		<tag k="ssr:stedsnr" v="314783" />
	</node>
	<node id="9956164130" lat="62.2180594" lon="6.5715185" version="1" timestamp="2022-08-16T05:21:07Z" changeset="124952856" uid="3497659" user="NKA">
		<tag k="alt_name" v="Urke Fremre" />
		<tag k="name" v="Fremre Urke" />
		<tag k="place" v="farm" />
		<tag k="ssr:stedsnr" v="530195" />
	</node>
	<node id="9956164131" lat="62.2797348" lon="6.0262998" version="1" timestamp="2022-08-16T05:21:07Z" changeset="124952856" uid="3497659" user="NKA">
		<tag k="name" v="Flåskjer" />
		<tag k="place" v="hamlet" />
		<tag k="ssr:stedsnr" v="435219" />
	</node>
	<node id="9956164132" lat="62.3526389" lon="6.2324168" version="1" timestamp="2022-08-16T05:21:07Z" changeset="124952856" uid="3497659" user="NKA">
		<tag k="name" v="Storegjølet" />
		<tag k="place" v="isolated_dwelling" />
		<tag k="ssr:stedsnr" v="954949" />
	</node>
	<node id="9956164133" lat="62.1908168" lon="6.2392055" version="1" timestamp="2022-08-16T05:21:07Z" changeset="124952856" uid="3497659" user="NKA">
		<tag k="name" v="Follestad" />
		<tag k="place" v="hamlet" />
		<tag k="ssr:stedsnr" v="688610" />
	</node>
	<node id="9956164134" lat="62.1869785" lon="6.0945488" version="1" timestamp="2022-08-16T05:21:07Z" changeset="124952856" uid="3497659" user="NKA">
		<tag k="name" v="Midt-Rystene" />
		<tag k="place" v="farm" />
		<tag k="ssr:stedsnr" v="203615" />
	</node>
	<node id="9956164135" lat="62.2718806" lon="6.1647808" version="1" timestamp="2022-08-16T05:21:07Z" changeset="124952856" uid="3497659" user="NKA">
		<tag k="historic" v="shieling" />
		<tag k="name" v="Sætregarden" />
		<tag k="place" v="isolated_dwelling" />
		<tag k="ssr:stedsnr" v="347403" />
	</node>
	<node id="9956164136" lat="62.1802636" lon="6.0633802" version="1" timestamp="2022-08-16T05:21:07Z" changeset="124952856" uid="3497659" user="NKA">
		<tag k="name" v="Storåsen" />
		<tag k="place" v="farm" />
		<tag k="ssr:stedsnr" v="462903" />
	</node>
	<node id="9956164137" lat="62.3534738" lon="6.2244384" version="1" timestamp="2022-08-16T05:21:07Z" changeset="124952856" uid="3497659" user="NKA">
		<tag k="name" v="Rotaneset" />
		<tag k="place" v="hamlet" />
		<tag k="ssr:stedsnr" v="870628" />
	</node>
	<node id="9956164138" lat="62.1846167" lon="6.1040892" version="1" timestamp="2022-08-16T05:21:07Z" changeset="124952856" uid="3497659" user="NKA">
		<tag k="name" v="Rystefeltet" />
		<tag k="place" v="neighbourhood" />
		<tag k="ssr:stedsnr" v="678002" />
	</node>
	<node id="9956164139" lat="62.217025" lon="6.2591557" version="1" timestamp="2022-08-16T05:21:07Z" changeset="124952856" uid="3497659" user="NKA">
		<tag k="name" v="Holetun" />
		<tag k="place" v="farm" />
		<tag k="ssr:stedsnr" v="375479" />
	</node>
	<node id="9956164140" lat="62.2324116" lon="6.2126627" version="1" timestamp="2022-08-16T05:21:07Z" changeset="124952856" uid="3497659" user="NKA">
		<tag k="name" v="Vallasætra" />
		<tag k="place" v="hamlet" />
		<tag k="ssr:stedsnr" v="10074" />
	</node>
	<node id="9956164141" lat="62.185549" lon="6.0839335" version="1" timestamp="2022-08-16T05:21:07Z" changeset="124952856" uid="3497659" user="NKA">
		<tag k="name" v="Bøplassen" />
		<tag k="place" v="farm" />
		<tag k="ssr:stedsnr" v="220896" />
	</node>
	<node id="9956164142" lat="62.2110671" lon="6.2521554" version="1" timestamp="2022-08-16T05:21:07Z" changeset="124952856" uid="3497659" user="NKA">
		<tag k="name" v="Haugset" />
		<tag k="place" v="farm" />
		<tag k="ssr:stedsnr" v="314541" />
	</node>
	<node id="9956164143" lat="62.1870583" lon="6.0740586" version="1" timestamp="2022-08-16T05:21:07Z" changeset="124952856" uid="3497659" user="NKA">
		<tag k="name" v="Skiftet" />
		<tag k="place" v="farm" />
		<tag k="ssr:stedsnr" v="71001" />
	</node>
	<node id="9956164144" lat="62.2892692" lon="6.0527359" version="1" timestamp="2022-08-16T05:21:07Z" changeset="124952856" uid="3497659" user="NKA">
		<tag k="alt_name" v="Saltrø" />
		<tag k="name" v="Saltre" />
		<tag k="place" v="locality" />
		<tag k="ssr:stedsnr" v="346202" />
	</node>
	<node id="9956164145" lat="62.3219667" lon="6.3984304" version="1" timestamp="2022-08-16T05:21:07Z" changeset="124952856" uid="3497659" user="NKA">
		<tag k="name" v="Årsneset" />
		<tag k="place" v="hamlet" />
		<tag k="ssr:stedsnr" v="739462" />
	</node>
</osm>
