<?xml version="1.0" encoding="UTF-8"?>
<osm generator="osmapis" version="0.6">
	<node id="-835584" lat="68.7598611105" lon="16.2621249948">
		<tag k="name" v="Gårahøgda" />
		<tag k="natural" v="hill" />
		<tag k="place" v="locality" />
		<tag k="ssr:stedsnr" v="172572" />
	</node>
	<node id="-835583" lat="68.7362027807" lon="16.2899972314">
		<tag k="name" v="Hammarsletta" />
		<tag k="place" v="locality" />
		<tag k="ssr:stedsnr" v="172557" />
	</node>
	<node id="-835581" lat="68.6467888875" lon="16.0984694418">
		<tag k="name" v="Skredan" />
		<tag k="natural" v="slope" />
		<tag k="place" v="locality" />
		<tag k="ssr:stedsnr" v="172438" />
	</node>
	<node id="-835580" lat="68.7286305532" lon="16.0767472168">
		<tag k="name" v="Ryggholla" />
		<tag k="natural" v="valley" />
		<tag k="place" v="locality" />
		<tag k="ssr:stedsnr" v="172419" />
	</node>
	<node id="-835577" lat="68.7761749959" lon="16.0674527774">
		<tag k="name" v="Setlia" />
		<tag k="natural" v="slope" />
		<tag k="place" v="locality" />
		<tag k="ssr:stedsnr" v="172409" />
	</node>
	<node id="-835576" lat="68.7671938824" lon="16.1031149282">
		<tag k="name" v="Skårtorvhågen" />
		<tag k="natural" v="hill" />
		<tag k="place" v="locality" />
		<tag k="ssr:stedsnr" v="172343" />
	</node>
	<node id="-835575" lat="68.6066361116" lon="15.8186277715">
		<tag k="name" v="Hella" />
		<tag k="natural" v="hill" />
		<tag k="place" v="locality" />
		<tag k="ssr:stedsnr" v="172195" />
	</node>
	<node id="-835573" lat="68.7644611086" lon="16.2744888831">
		<tag k="name" v="Atterhøgda" />
		<tag k="natural" v="hill" />
		<tag k="place" v="locality" />
		<tag k="ssr:stedsnr" v="173494" />
	</node>
	<node id="-835572" lat="68.7654499996" lon="16.2755194485">
		<tag k="name" v="Markushågen" />
		<tag k="natural" v="hill" />
		<tag k="place" v="locality" />
		<tag k="ssr:stedsnr" v="173487" />
	</node>
	<node id="-835570" lat="68.7403472186" lon="16.2768083314">
		<tag k="name" v="Varan" />
		<tag k="natural" v="slope" />
		<tag k="place" v="locality" />
		<tag k="ssr:stedsnr" v="173446" />
	</node>
	<node id="-835569" lat="68.7054666659" lon="16.0897805466">
		<tag k="fixme" v="consider natural=peak for the most distinct mountains in the district" />
		<tag k="name" v="Hornet" />
		<tag k="natural" v="hill" />
		<tag k="ssr:stedsnr" v="173444" />
	</node>
	<node id="-835568" lat="68.650780557" lon="15.8648055536">
		<tag k="name" v="Rødberget" />
		<tag k="natural" v="hill" />
		<tag k="place" v="locality" />
		<tag k="ssr:stedsnr" v="166084" />
	</node>
	<node id="-835563" lat="68.5369777784" lon="15.8812027779">
		<tag k="fixme" v="consider natural=peak for the most distinct mountains in the district" />
		<tag k="name" v="Storolaheimfjellet" />
		<tag k="natural" v="hill" />
		<tag k="place" v="locality" />
		<tag k="ssr:stedsnr" v="149124" />
	</node>
	<node id="-835562" lat="68.6873194406" lon="16.4078111031">
		<tag k="fixme" v="consider natural=peak for the most distinct mountains in the district" />
		<tag k="name" v="Svarthumpen - Rismalčohkka" />
		<tag k="name:no" v="Svarthumpen" />
		<tag k="name:se" v="Rismalčohkka" />
		<tag k="natural" v="hill" />
		<tag k="old_name:no" v="Svarthompen" />
		<tag k="place" v="locality" />
		<tag k="ssr:stedsnr" v="142160" />
	</node>
	<node id="-835561" lat="68.6632194483" lon="16.3949944374">
		<tag k="alt_name" v="Litlebakkan" />
		<tag k="name" v="Litjebakkan" />
		<tag k="natural" v="slope" />
		<tag k="place" v="locality" />
		<tag k="ssr:stedsnr" v="141067" />
	</node>
	<node id="-835560" lat="68.5879972245" lon="16.0077694393">
		<tag k="name" v="Steinhaugan" />
		<tag k="natural" v="hill" />
		<tag k="place" v="locality" />
		<tag k="ssr:stedsnr" v="139805" />
	</node>
	<node id="-835557" lat="68.7477333325" lon="16.2714972126">
		<tag k="name" v="Djupedalen" />
		<tag k="natural" v="valley" />
		<tag k="place" v="locality" />
		<tag k="ssr:stedsnr" v="139779" />
	</node>
	<node id="-835556" lat="68.7887638901" lon="16.25367501">
		<tag k="name" v="Tortenbakkan" />
		<tag k="natural" v="slope" />
		<tag k="place" v="locality" />
		<tag k="ssr:stedsnr" v="139509" />
	</node>
	<node id="-835553" lat="68.7439361118" lon="16.0001722175">
		<tag k="name" v="Karisletta" />
		<tag k="place" v="locality" />
		<tag k="ssr:stedsnr" v="139472" />
	</node>
	<node id="-835552" lat="68.614516663" lon="16.0244861205">
		<tag k="alt_name" v="Lapphaugan" />
		<tag k="name" v="Lapphågen" />
		<tag k="natural" v="hill" />
		<tag k="place" v="locality" />
		<tag k="ssr:stedsnr" v="139367" />
	</node>
	<node id="-835551" lat="68.6183944405" lon="15.9502111111">
		<tag k="fixme" v="consider natural=peak for the most distinct mountains in the district" />
		<tag k="name" v="Vassvikegga" />
		<tag k="natural" v="hill" />
		<tag k="place" v="locality" />
		<tag k="ssr:stedsnr" v="139346" />
	</node>
	<node id="-835549" lat="68.8203999959" lon="16.118047222">
		<tag k="alt_name" v="Durmålshaugen" />
		<tag k="name" v="Durmålshågen" />
		<tag k="natural" v="hill" />
		<tag k="place" v="locality" />
		<tag k="ssr:stedsnr" v="139132" />
	</node>
	<node id="-835542" lat="68.5701138895" lon="15.6822833399">
		<tag k="name" v="Løbergsdalen" />
		<tag k="natural" v="valley" />
		<tag k="place" v="locality" />
		<tag k="ssr:stedsnr" v="138855" />
	</node>
	<node id="-835541" lat="68.5625916712" lon="15.7793861022">
		<tag k="fixme" v="consider natural=peak for the most distinct mountains in the district" />
		<tag k="name" v="Brattfjellet" />
		<tag k="natural" v="hill" />
		<tag k="place" v="locality" />
		<tag k="ssr:stedsnr" v="138853" />
	</node>
	<node id="-835536" lat="68.7720277793" lon="16.345469441">
		<tag k="alt_name" v="Litlejorda" />
		<tag k="name" v="Litjejorda" />
		<tag k="place" v="locality" />
		<tag k="ssr:stedsnr" v="138453" />
	</node>
	<node id="-835534" lat="68.7574194437" lon="16.3622111094">
		<tag k="fixme" v="consider natural=peak for the most distinct mountains in the district" />
		<tag k="name" v="Tømmeråsan" />
		<tag k="natural" v="hill" />
		<tag k="place" v="locality" />
		<tag k="ssr:stedsnr" v="138447" />
	</node>
	<node id="-835532" lat="68.629600001" lon="15.7458000023">
		<tag k="name" v="Sæterdalen" />
		<tag k="natural" v="valley" />
		<tag k="place" v="locality" />
		<tag k="ssr:stedsnr" v="138361" />
	</node>
	<node id="-835531" lat="68.6367888901" lon="16.0139110998">
		<tag k="name" v="Kulidalen" />
		<tag k="natural" v="valley" />
		<tag k="place" v="locality" />
		<tag k="ssr:stedsnr" v="138359" />
	</node>
	<node id="-835523" lat="68.7753196824" lon="16.0828089546">
		<tag k="alt_name" v="Haugtorvhaugen" />
		<tag k="name" v="Haugtorvhågen" />
		<tag k="natural" v="hill" />
		<tag k="place" v="locality" />
		<tag k="ssr:stedsnr" v="138080" />
	</node>
	<node id="-835519" lat="68.6333138887" lon="15.897158328">
		<tag k="name" v="Ørnhågen" />
		<tag k="natural" v="hill" />
		<tag k="place" v="locality" />
		<tag k="ssr:stedsnr" v="113997" />
	</node>
	<node id="-835518" lat="68.6335499995" lon="15.917699996">
		<tag k="name" v="Hjelmelia" />
		<tag k="natural" v="slope" />
		<tag k="place" v="locality" />
		<tag k="ssr:stedsnr" v="113993" />
	</node>
	<node id="-835516" lat="68.6337777787" lon="15.9106916756">
		<tag k="name" v="Gullhågen" />
		<tag k="natural" v="hill" />
		<tag k="place" v="locality" />
		<tag k="ssr:stedsnr" v="113988" />
	</node>
	<node id="-835515" lat="68.8458722212" lon="16.0062361152">
		<tag k="name" v="Lotterhågen" />
		<tag k="natural" v="hill" />
		<tag k="place" v="locality" />
		<tag k="ssr:stedsnr" v="113364" />
	</node>
	<node id="-835510" lat="68.7810972265" lon="16.2030138856">
		<tag k="name" v="Normannhågen" />
		<tag k="natural" v="hill" />
		<tag k="place" v="locality" />
		<tag k="ssr:stedsnr" v="112697" />
	</node>
	<node id="-835507" lat="68.8473166631" lon="16.1736805473">
		<tag k="fixme" v="consider natural=peak for the most distinct mountains in the district" />
		<tag k="name" v="Høgda" />
		<tag k="natural" v="hill" />
		<tag k="place" v="locality" />
		<tag k="ssr:stedsnr" v="112635" />
	</node>
	<node id="-835504" lat="68.7479055548" lon="16.2544861188">
		<tag k="name" v="Høgeliteppen" />
		<tag k="natural" v="hill" />
		<tag k="place" v="locality" />
		<tag k="ssr:stedsnr" v="112555" />
	</node>
	<node id="-835503" lat="68.5317750045" lon="15.7576111063">
		<tag k="name" v="Nova" />
		<tag k="natural" v="slope" />
		<tag k="place" v="locality" />
		<tag k="ssr:stedsnr" v="112767" />
	</node>
	<node id="-835502" lat="68.5889138933" lon="15.7799555511">
		<tag k="name" v="Grasnesholla" />
		<tag k="natural" v="valley" />
		<tag k="place" v="locality" />
		<tag k="ssr:stedsnr" v="112766" />
	</node>
	<node id="-835500" lat="68.7320694438" lon="16.2088222102">
		<tag k="name" v="Storhågen" />
		<tag k="natural" v="hill" />
		<tag k="place" v="locality" />
		<tag k="ssr:stedsnr" v="112759" />
	</node>
	<node id="-835499" lat="68.7243277754" lon="16.1734972237">
		<tag k="name" v="Vedhågan" />
		<tag k="natural" v="hill" />
		<tag k="place" v="locality" />
		<tag k="ssr:stedsnr" v="112758" />
	</node>
	<node id="-835498" lat="68.7231055523" lon="16.2461277884">
		<tag k="name" v="Halsen" />
		<tag k="natural" v="valley" />
		<tag k="place" v="locality" />
		<tag k="ssr:stedsnr" v="112754" />
	</node>
	<node id="-835497" lat="68.7359305516" lon="16.2353888962">
		<tag k="name" v="Grindsletten" />
		<tag k="place" v="locality" />
		<tag k="ssr:stedsnr" v="112749" />
	</node>
	<node id="-835496" lat="68.7338777791" lon="16.1465333321">
		<tag k="name" v="Skinkevollen" />
		<tag k="place" v="locality" />
		<tag k="ssr:stedsnr" v="112742" />
	</node>
	<node id="-835495" lat="68.7512277613" lon="16.1638146332">
		<tag k="name" v="Hoklandshågen" />
		<tag k="natural" v="hill" />
		<tag k="place" v="locality" />
		<tag k="ssr:stedsnr" v="112739" />
	</node>
	<node id="-835494" lat="68.7368361073" lon="15.9794166723">
		<tag k="name" v="Brosmehallardalen" />
		<tag k="natural" v="valley" />
		<tag k="place" v="locality" />
		<tag k="ssr:stedsnr" v="112496" />
	</node>
	<node id="-835493" lat="68.7088222235" lon="15.9550888783">
		<tag k="fixme" v="consider natural=peak for the most distinct mountains in the district" />
		<tag k="name" v="Storåsen" />
		<tag k="natural" v="hill" />
		<tag k="place" v="locality" />
		<tag k="ssr:stedsnr" v="112478" />
	</node>
	<node id="-835490" lat="68.7017777788" lon="15.9616055671">
		<tag k="fixme" v="consider natural=peak for the most distinct mountains in the district" />
		<tag k="name" v="Litjeåsen" />
		<tag k="natural" v="hill" />
		<tag k="place" v="locality" />
		<tag k="ssr:stedsnr" v="112461" />
	</node>
	<node id="-835487" lat="68.6411111131" lon="16.1085944407">
		<tag k="name" v="Djupskaret" />
		<tag k="natural" v="valley" />
		<tag k="place" v="locality" />
		<tag k="ssr:stedsnr" v="112450" />
	</node>
	<node id="-835486" lat="68.6899055534" lon="16.3576555469">
		<tag k="fixme" v="consider natural=peak for the most distinct mountains in the district" />
		<tag k="name" v="Kjølen" />
		<tag k="natural" v="hill" />
		<tag k="place" v="locality" />
		<tag k="ssr:stedsnr" v="112543" />
	</node>
	<node id="-835485" lat="68.686241663" lon="16.2276805506">
		<tag k="name" v="Kjeipen" />
		<tag k="place" v="locality" />
		<tag k="ssr:stedsnr" v="112370" />
	</node>
	<node id="-835484" lat="68.5927499956" lon="15.824616677">
		<tag k="fixme" v="consider natural=peak for the most distinct mountains in the district" />
		<tag k="name" v="Åsen" />
		<tag k="natural" v="hill" />
		<tag k="place" v="locality" />
		<tag k="ssr:stedsnr" v="112227" />
	</node>
	<node id="-835479" lat="68.6352694414" lon="15.9716499901">
		<tag k="name" v="Aspenesskaret" />
		<tag k="natural" v="valley" />
		<tag k="place" v="locality" />
		<tag k="ssr:stedsnr" v="112063" />
	</node>
	<node id="-835478" lat="68.6355249969" lon="15.95319166">
		<tag k="name" v="Litjebotnsletta" />
		<tag k="place" v="locality" />
		<tag k="ssr:stedsnr" v="112062" />
	</node>
	<node id="-835476" lat="68.6893916659" lon="15.9118805543">
		<tag k="name" v="Gurisjekken" />
		<tag k="natural" v="hill" />
		<tag k="place" v="locality" />
		<tag k="ssr:stedsnr" v="112137" />
	</node>
	<node id="-835475" lat="68.6861500039" lon="15.841016674">
		<tag k="name" v="Nattmålsberget" />
		<tag k="natural" v="hill" />
		<tag k="place" v="locality" />
		<tag k="ssr:stedsnr" v="112134" />
	</node>
	<node id="-835473" lat="68.6115499953" lon="15.7483083428">
		<tag k="name" v="Litjelia" />
		<tag k="natural" v="slope" />
		<tag k="place" v="locality" />
		<tag k="ssr:stedsnr" v="111736" />
	</node>
	<node id="-835466" lat="68.6724138938" lon="16.2695388786">
		<tag k="fixme" v="consider natural=peak for the most distinct mountains in the district" />
		<tag k="name" v="Vaddåsen" />
		<tag k="natural" v="hill" />
		<tag k="place" v="locality" />
		<tag k="ssr:stedsnr" v="80101" />
	</node>
	<node id="-835450" lat="68.5478611106" lon="15.8705166719">
		<tag k="name" v="Kvanndalen" />
		<tag k="natural" v="valley" />
		<tag k="place" v="locality" />
		<tag k="ssr:stedsnr" v="78757" />
	</node>
	<node id="-835449" lat="68.7045888922" lon="16.1993388891">
		<tag k="fixme" v="multiple name tags, choose one and add the other to alt_name; consider natural=peak for the most distinct mountains in the district" />
		<tag k="name" v="Brakkefjellet;Strømsfjellet" />
		<tag k="natural" v="hill" />
		<tag k="place" v="locality" />
		<tag k="ssr:stedsnr" v="78492" />
	</node>
	<node id="-835445" lat="68.7318916683" lon="15.9119166574">
		<tag k="fixme" v="consider natural=peak for the most distinct mountains in the district" />
		<tag k="name" v="Attertverrfjellet" />
		<tag k="natural" v="hill" />
		<tag k="place" v="locality" />
		<tag k="ssr:stedsnr" v="78461" />
	</node>
	<node id="-835444" lat="68.7266694437" lon="15.8899305645">
		<tag k="alt_name" v="Breidtinden" />
		<tag k="fixme" v="consider natural=peak for the most distinct mountains in the district" />
		<tag k="name" v="Breitinden" />
		<tag k="natural" v="hill" />
		<tag k="place" v="locality" />
		<tag k="ssr:stedsnr" v="78460" />
	</node>
	<node id="-835442" lat="68.7316777768" lon="16.0940055566">
		<tag k="name" v="Rundhaugen" />
		<tag k="natural" v="hill" />
		<tag k="place" v="locality" />
		<tag k="ssr:stedsnr" v="78451" />
	</node>
	<node id="-835439" lat="68.6197611103" lon="16.0320694472">
		<tag k="name" v="Aspenesdalen - Čoarddavággi" />
		<tag k="name:no" v="Aspenesdalen" />
		<tag k="name:se" v="Čoarddavággi" />
		<tag k="natural" v="valley" />
		<tag k="place" v="locality" />
		<tag k="ssr:stedsnr" v="78355" />
	</node>
	<node id="-835435" lat="68.7537638866" lon="16.2758444392">
		<tag k="fixme" v="consider natural=peak for the most distinct mountains in the district" />
		<tag k="loc_name:se" v="Viikkaidvárri" />
		<tag k="name" v="Vikelandsfjellet" />
		<tag k="name:no" v="Vikelandsfjellet" />
		<tag k="natural" v="hill" />
		<tag k="place" v="locality" />
		<tag k="ssr:stedsnr" v="78303" />
	</node>
	<node id="-835434" lat="68.7724249972" lon="16.2107916712">
		<tag k="fixme" v="consider natural=peak for the most distinct mountains in the district" />
		<tag k="name" v="Størkaråsen" />
		<tag k="natural" v="hill" />
		<tag k="place" v="locality" />
		<tag k="ssr:stedsnr" v="78179" />
	</node>
	<node id="-835432" lat="68.8157444422" lon="16.1330166773">
		<tag k="alt_name" v="Blomsbakkan" />
		<tag k="name" v="Blombakkan" />
		<tag k="natural" v="slope" />
		<tag k="place" v="locality" />
		<tag k="ssr:stedsnr" v="78118" />
	</node>
	<node id="-835431" lat="68.7834444439" lon="16.0774583381">
		<tag k="name" v="Hestedalen" />
		<tag k="natural" v="valley" />
		<tag k="place" v="locality" />
		<tag k="ssr:stedsnr" v="78073" />
	</node>
	<node id="-835430" lat="68.8525694434" lon="16.2118055513">
		<tag k="alt_name" v="Gammeltorvhaugen" />
		<tag k="name" v="Gammeltorvhågen" />
		<tag k="natural" v="hill" />
		<tag k="place" v="locality" />
		<tag k="ssr:stedsnr" v="78025" />
	</node>
	<node id="-835427" lat="68.6329055537" lon="15.9183888983">
		<tag k="name" v="Jakobhågen" />
		<tag k="natural" v="hill" />
		<tag k="place" v="locality" />
		<tag k="ssr:stedsnr" v="52989" />
	</node>
	<node id="-835426" lat="68.7272055567" lon="16.2474555557">
		<tag k="name" v="Tortengjota" />
		<tag k="natural" v="slope" />
		<tag k="place" v="locality" />
		<tag k="ssr:stedsnr" v="52729" />
	</node>
	<node id="-835425" lat="68.7731388897" lon="16.0947555609">
		<tag k="name" v="Lian" />
		<tag k="natural" v="slope" />
		<tag k="place" v="locality" />
		<tag k="ssr:stedsnr" v="52683" />
	</node>
	<node id="-835424" lat="68.7656111093" lon="16.0990944483">
		<tag k="name" v="Nakken" />
		<tag k="natural" v="hill" />
		<tag k="place" v="locality" />
		<tag k="ssr:stedsnr" v="52682" />
	</node>
	<node id="-835423" lat="68.7882194475" lon="16.235516662">
		<tag k="name" v="Avgjørelsens haug" />
		<tag k="natural" v="hill" />
		<tag k="place" v="locality" />
		<tag k="ssr:stedsnr" v="52681" />
	</node>
	<node id="-835420" lat="68.7431472212" lon="16.2708111105">
		<tag k="name" v="Skjåberget" />
		<tag k="natural" v="hill" />
		<tag k="place" v="locality" />
		<tag k="ssr:stedsnr" v="52524" />
	</node>
	<node id="-835419" lat="68.673413889" lon="15.9051444342">
		<tag k="name" v="Høgda" />
		<tag k="natural" v="hill" />
		<tag k="place" v="locality" />
		<tag k="ssr:stedsnr" v="52171" />
	</node>
	<node id="-835418" lat="68.6799277764" lon="15.8927583311">
		<tag k="name" v="Lyngtua" />
		<tag k="natural" v="hill" />
		<tag k="place" v="locality" />
		<tag k="ssr:stedsnr" v="52092" />
	</node>
	<node id="-835415" lat="68.7101166639" lon="15.8985111213">
		<tag k="name" v="Sørdalsskaret" />
		<tag k="natural" v="valley" />
		<tag k="place" v="locality" />
		<tag k="ssr:stedsnr" v="52081" />
	</node>
	<node id="-835414" lat="68.667094447" lon="15.8804249983">
		<tag k="name" v="Liholla" />
		<tag k="natural" v="valley" />
		<tag k="place" v="locality" />
		<tag k="ssr:stedsnr" v="52147" />
	</node>
	<node id="-835413" lat="68.6708833311" lon="16.0444194542">
		<tag k="name" v="Nausthågen" />
		<tag k="natural" v="hill" />
		<tag k="place" v="locality" />
		<tag k="ssr:stedsnr" v="52028" />
	</node>
	<node id="-835410" lat="68.5432888879" lon="15.7214833418">
		<tag k="name" v="Øyenlia" />
		<tag k="natural" v="slope" />
		<tag k="place" v="locality" />
		<tag k="ssr:stedsnr" v="51833" />
	</node>
	<node id="-835408" lat="68.687938891" lon="16.2572499917">
		<tag k="name" v="Kjeipen" />
		<tag k="natural" v="hill" />
		<tag k="place" v="locality" />
		<tag k="ssr:stedsnr" v="51631" />
	</node>
	<node id="-835407" lat="68.6249138928" lon="15.6737500119">
		<tag k="name" v="Kariberget" />
		<tag k="natural" v="hill" />
		<tag k="place" v="locality" />
		<tag k="ssr:stedsnr" v="51794" />
	</node>
	<node id="-835401" lat="68.7648506415" lon="16.1054322552">
		<tag k="name" v="Kjerringkråa" />
		<tag k="natural" v="valley" />
		<tag k="place" v="locality" />
		<tag k="ssr:stedsnr" v="51417" />
	</node>
	<node id="-835399" lat="68.7036722211" lon="16.2406222292">
		<tag k="name" v="Høgget" />
		<tag k="natural" v="slope" />
		<tag k="place" v="locality" />
		<tag k="ssr:stedsnr" v="51470" />
	</node>
	<node id="-835397" lat="68.7828444417" lon="16.3314388924">
		<tag k="fixme" v="consider natural=peak for the most distinct mountains in the district" />
		<tag k="name" v="Blomåsen" />
		<tag k="natural" v="hill" />
		<tag k="place" v="locality" />
		<tag k="ssr:stedsnr" v="38987" />
	</node>
	<node id="-835396" lat="68.675969444" lon="16.0595972273">
		<tag k="alt_name" v="Svarteberget" />
		<tag k="name" v="Svartberget" />
		<tag k="natural" v="hill" />
		<tag k="place" v="locality" />
		<tag k="ssr:stedsnr" v="37692" />
	</node>
	<node id="-835394" lat="68.6885972197" lon="16.2849583314">
		<tag k="fixme" v="consider natural=peak for the most distinct mountains in the district" />
		<tag k="name" v="Finnaksla" />
		<tag k="natural" v="hill" />
		<tag k="place" v="locality" />
		<tag k="ssr:stedsnr" v="21170" />
	</node>
	<node id="-835393" lat="68.67351111" lon="16.2499888978">
		<tag k="fixme" v="consider natural=peak for the most distinct mountains in the district" />
		<tag k="name" v="Finngammen" />
		<tag k="natural" v="hill" />
		<tag k="place" v="locality" />
		<tag k="ssr:stedsnr" v="20099" />
	</node>
	<node id="-835391" lat="68.7389972235" lon="16.3689722253">
		<tag k="name" v="Storhøgda" />
		<tag k="natural" v="hill" />
		<tag k="place" v="locality" />
		<tag k="ssr:stedsnr" v="18962" />
	</node>
	<node id="-835390" lat="68.7371388883" lon="16.2968111109">
		<tag k="name" v="Andreasberget" />
		<tag k="natural" v="hill" />
		<tag k="place" v="locality" />
		<tag k="ssr:stedsnr" v="18960" />
	</node>
	<node id="-835385" lat="68.7424277803" lon="16.3452694352">
		<tag k="fixme" v="consider natural=peak for the most distinct mountains in the district" />
		<tag k="name" v="Toskevassfjellet" />
		<tag k="natural" v="hill" />
		<tag k="place" v="locality" />
		<tag k="ssr:stedsnr" v="18936" />
	</node>
	<node id="-835382" lat="68.8839805562" lon="16.0722722289">
		<tag k="name" v="Seingshumpen" />
		<tag k="natural" v="hill" />
		<tag k="place" v="locality" />
		<tag k="ssr:stedsnr" v="18426" />
	</node>
	<node id="-835371" lat="68.5397583292" lon="15.7776861147">
		<tag k="fixme" v="multiple name tags, choose one and add the other to alt_name" />
		<tag k="name" v="Durmålshaugen;Eidefjell" />
		<tag k="natural" v="hill" />
		<tag k="place" v="locality" />
		<tag k="ssr:stedsnr" v="17781" />
	</node>
	<node id="-835369" lat="68.5865722231" lon="15.927766677">
		<tag k="fixme" v="consider natural=peak for the most distinct mountains in the district" />
		<tag k="name" v="Trollfjellet - Rollavárri" />
		<tag k="name:no" v="Trollfjellet" />
		<tag k="name:se" v="Rollavárri" />
		<tag k="natural" v="hill" />
		<tag k="place" v="locality" />
		<tag k="ssr:stedsnr" v="17222" />
	</node>
	<node id="-835366" lat="68.7085333294" lon="15.9743333311">
		<tag k="alt_name" v="Bjørnen" />
		<tag k="name" v="Bjørnhågen" />
		<tag k="natural" v="hill" />
		<tag k="place" v="locality" />
		<tag k="ssr:stedsnr" v="17488" />
	</node>
	<node id="-835365" lat="68.7118083347" lon="15.9058222328">
		<tag k="name" v="Sørdalshola" />
		<tag k="natural" v="valley" />
		<tag k="place" v="locality" />
		<tag k="ssr:stedsnr" v="17484" />
	</node>
	<node id="-835364" lat="68.7092249982" lon="15.7845361218">
		<tag k="fixme" v="consider natural=peak for the most distinct mountains in the district" />
		<tag k="name" v="Tverrfjellet" />
		<tag k="natural" v="hill" />
		<tag k="place" v="locality" />
		<tag k="ssr:stedsnr" v="17483" />
	</node>
	<node id="-835363" lat="68.7277583381" lon="16.180233328">
		<tag k="loc_name:se" v="Sáddalvággi" />
		<tag k="name" v="Saldalen" />
		<tag k="name:no" v="Saldalen" />
		<tag k="natural" v="valley" />
		<tag k="place" v="locality" />
		<tag k="ssr:stedsnr" v="17474" />
	</node>
	<node id="-835360" lat="68.8452555557" lon="15.9847611175">
		<tag k="alt_name" v="Skardholtan, austre;Austerskarholtan" />
		<tag k="fixme" v="consider natural=peak for the most distinct mountains in the district" />
		<tag k="name" v="Austerskarholten" />
		<tag k="natural" v="hill" />
		<tag k="old_name" v="Skardholtan" />
		<tag k="place" v="locality" />
		<tag k="ssr:stedsnr" v="17024" />
	</node>
	<node id="-835353" lat="68.5891166663" lon="15.8263916631">
		<tag k="name" v="Storholla" />
		<tag k="natural" v="valley" />
		<tag k="place" v="locality" />
		<tag k="ssr:stedsnr" v="962812" />
	</node>
	<node id="-835352" lat="68.5923805558" lon="15.8318444545">
		<tag k="name" v="Gullholmdalen" />
		<tag k="natural" v="valley" />
		<tag k="place" v="locality" />
		<tag k="ssr:stedsnr" v="962811" />
	</node>
	<node id="-835351" lat="68.7834027804" lon="16.1835250112">
		<tag k="name" v="Storhågen" />
		<tag k="natural" v="hill" />
		<tag k="place" v="locality" />
		<tag k="ssr:stedsnr" v="962671" />
	</node>
	<node id="-835350" lat="68.7711472258" lon="16.2136222181">
		<tag k="name" v="Kanan" />
		<tag k="place" v="locality" />
		<tag k="ssr:stedsnr" v="962658" />
	</node>
	<node id="-835348" lat="68.6702527811" lon="15.8691499955">
		<tag k="name" v="Sionsdalen" />
		<tag k="natural" v="valley" />
		<tag k="place" v="locality" />
		<tag k="ssr:stedsnr" v="962164" />
	</node>
	<node id="-835346" lat="68.6371944439" lon="15.9440583411">
		<tag k="name" v="Kjellaren" />
		<tag k="natural" v="valley" />
		<tag k="place" v="locality" />
		<tag k="ssr:stedsnr" v="962054" />
	</node>
	<node id="-835345" lat="68.6701972265" lon="16.0474111161">
		<tag k="name" v="Holgerskaret" />
		<tag k="natural" v="valley" />
		<tag k="place" v="locality" />
		<tag k="ssr:stedsnr" v="962027" />
	</node>
	<node id="-835344" lat="68.666816669" lon="16.0361583452">
		<tag k="name" v="Storhågen" />
		<tag k="natural" v="hill" />
		<tag k="place" v="locality" />
		<tag k="ssr:stedsnr" v="962025" />
	</node>
	<node id="-835341" lat="68.6224611148" lon="15.7560083269">
		<tag k="name" v="Langvassnesaksla" />
		<tag k="place" v="locality" />
		<tag k="ssr:stedsnr" v="961807" />
	</node>
	<node id="-835340" lat="68.6261333288" lon="15.7212611184">
		<tag k="fixme" v="consider natural=peak for the most distinct mountains in the district" />
		<tag k="name" v="Skjellskartinden" />
		<tag k="natural" v="hill" />
		<tag k="ssr:stedsnr" v="961806" />
	</node>
	<node id="-835339" lat="68.6276416645" lon="15.6672555464">
		<tag k="name" v="Geitlia" />
		<tag k="natural" v="slope" />
		<tag k="place" v="locality" />
		<tag k="ssr:stedsnr" v="961804" />
	</node>
	<node id="-835338" lat="68.6859833303" lon="16.3088972185">
		<tag k="name" v="Skjellberget" />
		<tag k="natural" v="hill" />
		<tag k="place" v="locality" />
		<tag k="ssr:stedsnr" v="961604" />
	</node>
	<node id="-835337" lat="68.7317083368" lon="16.0651416783">
		<tag k="fixme" v="consider natural=peak for the most distinct mountains in the district" />
		<tag k="name" v="Lykkjaåsen" />
		<tag k="natural" v="hill" />
		<tag k="place" v="locality" />
		<tag k="ssr:stedsnr" v="961420" />
	</node>
	<node id="-835334" lat="68.7814805533" lon="16.0828833266">
		<tag k="name" v="Bulikleiva" />
		<tag k="natural" v="slope" />
		<tag k="place" v="locality" />
		<tag k="ssr:stedsnr" v="961409" />
	</node>
	<node id="-835331" lat="68.7037638903" lon="16.0603694327">
		<tag k="name" v="Hesjedalen" />
		<tag k="natural" v="valley" />
		<tag k="place" v="locality" />
		<tag k="ssr:stedsnr" v="928445" />
	</node>
	<node id="-835328" lat="68.7375388867" lon="16.0787499894">
		<tag k="name" v="Hoklia" />
		<tag k="natural" v="slope" />
		<tag k="place" v="locality" />
		<tag k="ssr:stedsnr" v="928414" />
	</node>
	<node id="-835326" lat="68.6132250024" lon="15.8378305443">
		<tag k="fixme" v="consider natural=peak for the most distinct mountains in the district" />
		<tag k="name" v="Gullhornet" />
		<tag k="natural" v="hill" />
		<tag k="place" v="locality" />
		<tag k="ssr:stedsnr" v="928337" />
	</node>
	<node id="-835319" lat="68.6371222231" lon="16.0640583306">
		<tag k="name" v="Sildeberget" />
		<tag k="natural" v="hill" />
		<tag k="place" v="locality" />
		<tag k="ssr:stedsnr" v="901472" />
	</node>
	<node id="-835318" lat="68.7077694409" lon="15.9824499881">
		<tag k="name" v="Gammelosten" />
		<tag k="natural" v="slope" />
		<tag k="place" v="locality" />
		<tag k="ssr:stedsnr" v="901459" />
	</node>
	<node id="-835317" lat="68.7744138903" lon="16.0678194491">
		<tag k="name" v="Haugkjerringa" />
		<tag k="natural" v="hill" />
		<tag k="place" v="locality" />
		<tag k="ssr:stedsnr" v="901415" />
	</node>
	<node id="-835315" lat="68.7378249962" lon="16.2720916548">
		<tag k="name" v="Kleiva" />
		<tag k="natural" v="slope" />
		<tag k="place" v="locality" />
		<tag k="ssr:stedsnr" v="901512" />
	</node>
	<node id="-835314" lat="68.7358833334" lon="16.2811222131">
		<tag k="name" v="Middagshågen" />
		<tag k="natural" v="hill" />
		<tag k="place" v="locality" />
		<tag k="ssr:stedsnr" v="901504" />
	</node>
	<node id="-835311" lat="68.6647027798" lon="16.0175110989">
		<tag k="fixme" v="consider natural=peak for the most distinct mountains in the district" />
		<tag k="name" v="Kengsnesfjellet" />
		<tag k="natural" v="hill" />
		<tag k="place" v="locality" />
		<tag k="ssr:stedsnr" v="901019" />
	</node>
	<node id="-835308" lat="68.630302776" lon="15.753627765">
		<tag k="fixme" v="consider natural=peak for the most distinct mountains in the district" />
		<tag k="name" v="Gårdstinden" />
		<tag k="natural" v="hill" />
		<tag k="ssr:stedsnr" v="900773" />
	</node>
	<node id="-835306" lat="68.5954222245" lon="15.8316361174">
		<tag k="name" v="Skellarbakkan" />
		<tag k="natural" v="slope" />
		<tag k="place" v="locality" />
		<tag k="ssr:stedsnr" v="900214" />
	</node>
	<node id="-835304" lat="68.6646444425" lon="16.2952305513">
		<tag k="fixme" v="consider natural=peak for the most distinct mountains in the district" />
		<tag k="name" v="Steinvassfjellet - Bersavárri" />
		<tag k="name:no" v="Steinvassfjellet" />
		<tag k="name:se" v="Bersavárri" />
		<tag k="natural" v="hill" />
		<tag k="old_name:se" v="Bersavarri" />
		<tag k="place" v="locality" />
		<tag k="ssr:stedsnr" v="870075" />
	</node>
	<node id="-835296" lat="68.6170250002" lon="15.8115888897">
		<tag k="fixme" v="consider natural=peak for the most distinct mountains in the district" />
		<tag k="name" v="Nakkekollen" />
		<tag k="natural" v="hill" />
		<tag k="place" v="locality" />
		<tag k="ssr:stedsnr" v="841958" />
	</node>
	<node id="-835295" lat="68.6153249991" lon="15.8145222169">
		<tag k="fixme" v="consider natural=peak for the most distinct mountains in the district" />
		<tag k="name" v="Gullgrua" />
		<tag k="natural" v="hill" />
		<tag k="place" v="locality" />
		<tag k="ssr:stedsnr" v="841957" />
	</node>
	<node id="-835293" lat="68.7120361095" lon="16.3035916573">
		<tag k="name" v="Asenbakkan" />
		<tag k="natural" v="slope" />
		<tag k="place" v="locality" />
		<tag k="ssr:stedsnr" v="841562" />
	</node>
	<node id="-835292" lat="68.7437194404" lon="16.2703444487">
		<tag k="name" v="Eineberget" />
		<tag k="natural" v="hill" />
		<tag k="place" v="locality" />
		<tag k="ssr:stedsnr" v="841559" />
	</node>
	<node id="-835291" lat="68.7734499978" lon="16.2292555652">
		<tag k="name" v="Kalvsletta" />
		<tag k="place" v="locality" />
		<tag k="ssr:stedsnr" v="841655" />
	</node>
	<node id="-835289" lat="68.7022805541" lon="16.277177776">
		<tag k="fixme" v="consider natural=peak for the most distinct mountains in the district" />
		<tag k="name" v="Tømmeråskollen" />
		<tag k="natural" v="hill" />
		<tag k="place" v="locality" />
		<tag k="ssr:stedsnr" v="841610" />
	</node>
	<node id="-835288" lat="68.6942500013" lon="15.9480694444">
		<tag k="name" v="Svartdalen" />
		<tag k="natural" v="valley" />
		<tag k="place" v="locality" />
		<tag k="ssr:stedsnr" v="841473" />
	</node>
	<node id="-835286" lat="68.6654222212" lon="15.8792277768">
		<tag k="name" v="Sausletta" />
		<tag k="place" v="locality" />
		<tag k="ssr:stedsnr" v="841171" />
	</node>
	<node id="-835284" lat="68.6575916684" lon="15.8260749902">
		<tag k="name" v="Fremmerkvanntoa" />
		<tag k="natural" v="slope" />
		<tag k="place" v="locality" />
		<tag k="ssr:stedsnr" v="841158" />
	</node>
	<node id="-835278" lat="68.7363833367" lon="16.2530777793">
		<tag k="name" v="Nessebakkan" />
		<tag k="natural" v="slope" />
		<tag k="place" v="locality" />
		<tag k="ssr:stedsnr" v="840521" />
	</node>
	<node id="-835277" lat="68.7536916654" lon="16.1426305533">
		<tag k="name" v="Toftebergan" />
		<tag k="natural" v="hill" />
		<tag k="place" v="locality" />
		<tag k="ssr:stedsnr" v="840363" />
	</node>
	<node id="-835276" lat="68.7168083378" lon="16.2176472133">
		<tag k="fixme" v="consider natural=peak for the most distinct mountains in the district" />
		<tag k="name" v="Tverrfjellet" />
		<tag k="natural" v="hill" />
		<tag k="place" v="locality" />
		<tag k="ssr:stedsnr" v="840413" />
	</node>
	<node id="-835266" lat="68.5111805592" lon="15.6669944568">
		<tag k="fixme" v="consider natural=peak for the most distinct mountains in the district" />
		<tag k="loc_name" v="Botntinden" />
		<tag k="name" v="Botntindan" />
		<tag k="natural" v="hill" />
		<tag k="place" v="locality" />
		<tag k="ssr:stedsnr" v="928750" />
	</node>
	<node id="-835264" lat="68.5561027777" lon="15.8112611158">
		<tag k="name" v="Tverrbakken" />
		<tag k="natural" v="slope" />
		<tag k="place" v="locality" />
		<tag k="ssr:stedsnr" v="928853" />
	</node>
	<node id="-835263" lat="68.6976138915" lon="15.7887110995">
		<tag k="fixme" v="consider natural=peak for the most distinct mountains in the district" />
		<tag k="name" v="Rundfjellet" />
		<tag k="natural" v="hill" />
		<tag k="place" v="locality" />
		<tag k="ssr:stedsnr" v="928451" />
	</node>
	<node id="-835262" lat="68.6888500024" lon="15.8237500127">
		<tag k="name" v="Lemman" />
		<tag k="place" v="locality" />
		<tag k="ssr:stedsnr" v="928450" />
	</node>
	<node id="-835259" lat="68.6345833349" lon="16.0579361167">
		<tag k="fixme" v="consider natural=peak for the most distinct mountains in the district" />
		<tag k="name" v="Foraklubben" />
		<tag k="natural" v="hill" />
		<tag k="place" v="locality" />
		<tag k="ssr:stedsnr" v="928291" />
	</node>
	<node id="-835258" lat="68.6424750023" lon="15.7654138856">
		<tag k="name" v="Gamvikdalen" />
		<tag k="natural" v="valley" />
		<tag k="place" v="locality" />
		<tag k="ssr:stedsnr" v="928285" />
	</node>
	<node id="-835257" lat="68.6461388923" lon="15.9425694445">
		<tag k="fixme" v="consider natural=peak for the most distinct mountains in the district" />
		<tag k="name" v="Moan" />
		<tag k="natural" v="hill" />
		<tag k="place" v="locality" />
		<tag k="ssr:stedsnr" v="928277" />
	</node>
	<node id="-835256" lat="68.667263887" lon="16.1126749873">
		<tag k="name" v="Labakkan" />
		<tag k="natural" v="slope" />
		<tag k="place" v="locality" />
		<tag k="ssr:stedsnr" v="928262" />
	</node>
	<node id="-835255" lat="68.6668583299" lon="16.1219250032">
		<tag k="alt_name" v="Flathaugen" />
		<tag k="name" v="Flathågen" />
		<tag k="natural" v="hill" />
		<tag k="place" v="locality" />
		<tag k="ssr:stedsnr" v="928260" />
	</node>
	<node id="-835254" lat="68.6526027807" lon="15.8006055516">
		<tag k="fixme" v="consider natural=peak for the most distinct mountains in the district" />
		<tag k="name" v="Gårdsdalsheia" />
		<tag k="natural" v="hill" />
		<tag k="place" v="locality" />
		<tag k="ssr:stedsnr" v="928257" />
	</node>
	<node id="-835247" lat="68.7787166659" lon="16.169636111">
		<tag k="name" v="Raudhammaren" />
		<tag k="natural" v="hill" />
		<tag k="place" v="locality" />
		<tag k="ssr:stedsnr" v="928157" />
	</node>
	<node id="-835246" lat="68.8219083317" lon="16.1520555584">
		<tag k="name" v="Steinvasskollen" />
		<tag k="natural" v="hill" />
		<tag k="place" v="locality" />
		<tag k="ssr:stedsnr" v="928107" />
	</node>
	<node id="-835245" lat="68.7883250021" lon="16.2188833353">
		<tag k="alt_name" v="Surnåsen" />
		<tag k="fixme" v="consider natural=peak for the most distinct mountains in the district" />
		<tag k="name" v="Surenåsen" />
		<tag k="natural" v="hill" />
		<tag k="place" v="locality" />
		<tag k="ssr:stedsnr" v="928072" />
	</node>
	<node id="-835242" lat="68.8373472191" lon="16.160149986">
		<tag k="alt_name" v="Låhaugen" />
		<tag k="name" v="Lahågen" />
		<tag k="natural" v="hill" />
		<tag k="place" v="locality" />
		<tag k="ssr:stedsnr" v="928006" />
	</node>
	<node id="-835238" lat="68.7619777763" lon="16.1342722088">
		<tag k="alt_name" v="Svarthola" />
		<tag k="name" v="Svartholla" />
		<tag k="natural" v="valley" />
		<tag k="place" v="locality" />
		<tag k="ssr:stedsnr" v="806165" />
	</node>
	<node id="-835236" lat="68.8385722227" lon="16.1817833266">
		<tag k="alt_name:no" v="Reinspælen" />
		<tag k="loc_name:se" v="Bohccobieža" />
		<tag k="name" v="Reinspelen" />
		<tag k="name:no" v="Reinspelen" />
		<tag k="natural" v="hill" />
		<tag k="place" v="locality" />
		<tag k="ssr:stedsnr" v="806007" />
	</node>
	<node id="-835234" lat="68.7253972243" lon="16.2034194425">
		<tag k="fixme" v="consider natural=peak for the most distinct mountains in the district" />
		<tag k="loc_name:se" v="Sáddalčohkka" />
		<tag k="name" v="Salfjellet" />
		<tag k="name:no" v="Salfjellet" />
		<tag k="natural" v="hill" />
		<tag k="place" v="locality" />
		<tag k="ssr:stedsnr" v="927458" />
	</node>
	<node id="-835232" lat="68.7575505214" lon="16.1309667814">
		<tag k="alt_name" v="Kalvsletta" />
		<tag k="name" v="Kalsletta" />
		<tag k="place" v="locality" />
		<tag k="ssr:stedsnr" v="927174" />
	</node>
	<node id="-835231" lat="68.7354111085" lon="16.2014388939">
		<tag k="name" v="Magnusholla" />
		<tag k="natural" v="valley" />
		<tag k="place" v="locality" />
		<tag k="ssr:stedsnr" v="780717" />
	</node>
	<node id="-835229" lat="68.736005559" lon="16.2059194556">
		<tag k="name" v="Storberget" />
		<tag k="natural" v="hill" />
		<tag k="place" v="locality" />
		<tag k="ssr:stedsnr" v="780714" />
	</node>
	<node id="-835225" lat="68.6376583375" lon="15.9498750025">
		<tag k="name" v="Lilian" />
		<tag k="natural" v="slope" />
		<tag k="place" v="locality" />
		<tag k="ssr:stedsnr" v="780056" />
	</node>
	<node id="-835224" lat="68.655008336" lon="15.9421027714">
		<tag k="name" v="Lysåberget" />
		<tag k="natural" v="hill" />
		<tag k="place" v="locality" />
		<tag k="ssr:stedsnr" v="780050" />
	</node>
	<node id="-835222" lat="68.6729999975" lon="16.088494441">
		<tag k="name" v="Grotthollan" />
		<tag k="natural" v="valley" />
		<tag k="place" v="locality" />
		<tag k="ssr:stedsnr" v="780042" />
	</node>
	<node id="-835220" lat="68.6273472183" lon="16.0258527825">
		<tag k="name" v="Høystakksletten" />
		<tag k="place" v="locality" />
		<tag k="ssr:stedsnr" v="780010" />
	</node>
	<node id="-835215" lat="68.6764611121" lon="16.1690444513">
		<tag k="alt_name" v="Knurren, l" />
		<tag k="name" v="Lille Knorren" />
		<tag k="natural" v="hill" />
		<tag k="place" v="locality" />
		<tag k="ssr:stedsnr" v="746269" />
	</node>
	<node id="-835214" lat="68.6687861135" lon="16.1660610996">
		<tag k="alt_name" v="Knurren, store" />
		<tag k="fixme" v="multiple name tags, choose one and add the other to alt_name" />
		<tag k="name" v="Knorren;Store Knurren" />
		<tag k="natural" v="hill" />
		<tag k="place" v="locality" />
		<tag k="ssr:stedsnr" v="746267" />
	</node>
	<node id="-835212" lat="68.5856916676" lon="15.7268666766">
		<tag k="name" v="Rundskardet" />
		<tag k="natural" v="valley" />
		<tag k="place" v="locality" />
		<tag k="ssr:stedsnr" v="745857" />
	</node>
	<node id="-835209" lat="68.6381416702" lon="15.9507277884">
		<tag k="loc_name:se" v="Lissuidvággi" />
		<tag k="name" v="Lysådalen" />
		<tag k="name:no" v="Lysådalen" />
		<tag k="natural" v="valley" />
		<tag k="place" v="locality" />
		<tag k="ssr:stedsnr" v="745358" />
	</node>
	<node id="-835208" lat="68.5432249987" lon="15.6167666697">
		<tag k="fixme" v="consider natural=peak for the most distinct mountains in the district" />
		<tag k="name" v="Snøtindan" />
		<tag k="natural" v="hill" />
		<tag k="place" v="locality" />
		<tag k="ssr:stedsnr" v="745115" />
	</node>
	<node id="-835207" lat="68.6341694437" lon="15.8915111213">
		<tag k="name" v="Småhågan" />
		<tag k="natural" v="hill" />
		<tag k="place" v="locality" />
		<tag k="ssr:stedsnr" v="902000" />
	</node>
	<node id="-835206" lat="68.6230388852" lon="15.9169055489">
		<tag k="name" v="Forren" />
		<tag k="natural" v="slope" />
		<tag k="place" v="locality" />
		<tag k="ssr:stedsnr" v="901995" />
	</node>
	<node id="-835205" lat="68.6322694466" lon="15.912269444">
		<tag k="name" v="Storhjelmen" />
		<tag k="natural" v="slope" />
		<tag k="place" v="locality" />
		<tag k="ssr:stedsnr" v="901993" />
	</node>
	<node id="-835204" lat="68.7847444417" lon="16.3374444517">
		<tag k="fixme" v="consider natural=peak for the most distinct mountains in the district" />
		<tag k="name" v="Olaåsen" />
		<tag k="natural" v="hill" />
		<tag k="place" v="locality" />
		<tag k="ssr:stedsnr" v="901986" />
	</node>
	<node id="-835202" lat="68.6191222215" lon="15.8125083219">
		<tag k="name" v="Håkjerringberget" />
		<tag k="natural" v="hill" />
		<tag k="place" v="locality" />
		<tag k="ssr:stedsnr" v="901980" />
	</node>
	<node id="-835197" lat="68.5564666655" lon="15.8332499904">
		<tag k="name" v="Beritbergan" />
		<tag k="natural" v="hill" />
		<tag k="place" v="locality" />
		<tag k="ssr:stedsnr" v="901943" />
	</node>
	<node id="-835194" lat="68.7870027801" lon="16.1505666677">
		<tag k="name" v="Speiderbakken" />
		<tag k="natural" v="slope" />
		<tag k="place" v="locality" />
		<tag k="ssr:stedsnr" v="901739" />
	</node>
	<node id="-835192" lat="68.8326833336" lon="16.1336249938">
		<tag k="name" v="Knausen" />
		<tag k="natural" v="hill" />
		<tag k="place" v="locality" />
		<tag k="ssr:stedsnr" v="901647" />
	</node>
	<node id="-835189" lat="68.7104277816" lon="16.3185500088">
		<tag k="fixme" v="consider natural=peak for the most distinct mountains in the district" />
		<tag k="name" v="Vikesæteråsen" />
		<tag k="natural" v="hill" />
		<tag k="place" v="locality" />
		<tag k="ssr:stedsnr" v="901579" />
	</node>
	<node id="-835188" lat="68.7525805517" lon="16.3588083355">
		<tag k="name" v="Munkholla" />
		<tag k="natural" v="valley" />
		<tag k="place" v="locality" />
		<tag k="ssr:stedsnr" v="901558" />
	</node>
	<node id="-835187" lat="68.7635611139" lon="16.2519861081">
		<tag k="name" v="Skallan" />
		<tag k="natural" v="hill" />
		<tag k="place" v="locality" />
		<tag k="ssr:stedsnr" v="901545" />
	</node>
	<node id="-835186" lat="68.696908332" lon="15.9467277674">
		<tag k="name" v="Mosehågan" />
		<tag k="natural" v="hill" />
		<tag k="place" v="locality" />
		<tag k="ssr:stedsnr" v="901495" />
	</node>
	<node id="-835185" lat="68.6994277782" lon="15.9621111106">
		<tag k="name" v="Bergebakkan" />
		<tag k="natural" v="slope" />
		<tag k="place" v="locality" />
		<tag k="ssr:stedsnr" v="901493" />
	</node>
	<node id="-835181" lat="68.7463138861" lon="15.9732611112">
		<tag k="name" v="Slettheia" />
		<tag k="natural" v="hill" />
		<tag k="place" v="locality" />
		<tag k="ssr:stedsnr" v="901483" />
	</node>
	<node id="-835179" lat="68.7294472232" lon="15.9898749927">
		<tag k="name" v="Skredbakkan" />
		<tag k="natural" v="slope" />
		<tag k="place" v="locality" />
		<tag k="ssr:stedsnr" v="901475" />
	</node>
	<node id="-835177" lat="68.6777111092" lon="16.1408527712">
		<tag k="name" v="Bakkan" />
		<tag k="natural" v="slope" />
		<tag k="place" v="locality" />
		<tag k="ssr:stedsnr" v="901442" />
	</node>
	<node id="-835175" lat="68.7774972201" lon="16.18205">
		<tag k="name" v="Rødhammaren" />
		<tag k="natural" v="hill" />
		<tag k="place" v="locality" />
		<tag k="ssr:stedsnr" v="901700" />
	</node>
	<node id="-835174" lat="68.7842166655" lon="16.2096388995">
		<tag k="name" v="Heggeberget" />
		<tag k="natural" v="hill" />
		<tag k="place" v="locality" />
		<tag k="ssr:stedsnr" v="901698" />
	</node>
	<node id="-835173" lat="68.758986109" lon="16.1109722166">
		<tag k="name" v="Gardløsbakkan" />
		<tag k="natural" v="slope" />
		<tag k="place" v="locality" />
		<tag k="ssr:stedsnr" v="901321" />
	</node>
	<node id="-835172" lat="68.7480333336" lon="16.2430805586">
		<tag k="name" v="Bukkeknorren" />
		<tag k="natural" v="hill" />
		<tag k="place" v="locality" />
		<tag k="ssr:stedsnr" v="901283" />
	</node>
	<node id="-835171" lat="68.6691333369" lon="15.8867999914">
		<tag k="name" v="Langemyrhågen" />
		<tag k="natural" v="hill" />
		<tag k="place" v="locality" />
		<tag k="ssr:stedsnr" v="901142" />
	</node>
	<node id="-835170" lat="68.6613583325" lon="15.8433583214">
		<tag k="name" v="Rundhågen" />
		<tag k="natural" v="hill" />
		<tag k="place" v="locality" />
		<tag k="ssr:stedsnr" v="901131" />
	</node>
	<node id="-835169" lat="68.8648277753" lon="16.0162611163">
		<tag k="name" v="Skarberget" />
		<tag k="natural" v="hill" />
		<tag k="place" v="locality" />
		<tag k="ssr:stedsnr" v="901392" />
	</node>
	<node id="-835160" lat="68.5752861137" lon="15.7707972327">
		<tag k="name" v="Nattmålsheia" />
		<tag k="natural" v="hill" />
		<tag k="place" v="locality" />
		<tag k="ssr:stedsnr" v="900745" />
	</node>
	<node id="-835159" lat="68.7328833288" lon="16.0687472293">
		<tag k="fixme" v="consider natural=peak for the most distinct mountains in the district" />
		<tag k="name" v="Mellaåsen" />
		<tag k="natural" v="hill" />
		<tag k="place" v="locality" />
		<tag k="ssr:stedsnr" v="900402" />
	</node>
	<node id="-835154" lat="68.6106833372" lon="15.7779138894">
		<tag k="name" v="Torberget" />
		<tag k="natural" v="hill" />
		<tag k="place" v="locality" />
		<tag k="ssr:stedsnr" v="719830" />
	</node>
	<node id="-835153" lat="68.534602778" lon="15.7130583397">
		<tag k="name" v="Skaret" />
		<tag k="natural" v="valley" />
		<tag k="place" v="locality" />
		<tag k="ssr:stedsnr" v="719804" />
	</node>
	<node id="-835149" lat="68.7174305539" lon="15.9418499971">
		<tag k="name" v="Lappetelthågen" />
		<tag k="natural" v="hill" />
		<tag k="place" v="locality" />
		<tag k="ssr:stedsnr" v="719416" />
	</node>
	<node id="-835147" lat="68.6652055561" lon="15.8632944379">
		<tag k="name" v="Bjørnhågen" />
		<tag k="natural" v="hill" />
		<tag k="place" v="locality" />
		<tag k="ssr:stedsnr" v="719171" />
	</node>
	<node id="-835146" lat="68.6763999962" lon="15.9009777795">
		<tag k="name" v="Vinterskaret" />
		<tag k="natural" v="valley" />
		<tag k="place" v="locality" />
		<tag k="ssr:stedsnr" v="719166" />
	</node>
	<node id="-835145" lat="68.6737222247" lon="15.8812527845">
		<tag k="fixme" v="consider natural=peak for the most distinct mountains in the district" />
		<tag k="name" v="Andretinden" />
		<tag k="natural" v="hill" />
		<tag k="ssr:stedsnr" v="719162" />
	</node>
	<node id="-835144" lat="68.6509944473" lon="16.0183944329">
		<tag k="name" v="Juvikdalbotn" />
		<tag k="natural" v="valley" />
		<tag k="place" v="locality" />
		<tag k="ssr:stedsnr" v="719045" />
	</node>
	<node id="-835140" lat="68.6241250028" lon="15.6502861008">
		<tag k="name" v="Marenhågen" />
		<tag k="natural" v="hill" />
		<tag k="place" v="locality" />
		<tag k="ssr:stedsnr" v="718763" />
	</node>
	<node id="-835139" lat="68.5491999963" lon="15.7406166645">
		<tag k="name" v="Teodorlia" />
		<tag k="natural" v="slope" />
		<tag k="place" v="locality" />
		<tag k="ssr:stedsnr" v="718756" />
	</node>
	<node id="-835132" lat="68.5404888901" lon="15.7817916644">
		<tag k="alt_name" v="Kvalbuktskardet" />
		<tag k="name" v="Kvalbuktskaret" />
		<tag k="natural" v="valley" />
		<tag k="place" v="locality" />
		<tag k="ssr:stedsnr" v="685728" />
	</node>
	<node id="-835130" lat="68.6005611093" lon="15.7839444459">
		<tag k="name" v="Middagshågen" />
		<tag k="natural" v="hill" />
		<tag k="place" v="locality" />
		<tag k="ssr:stedsnr" v="658936" />
	</node>
	<node id="-835129" lat="68.7644277756" lon="16.3335444515">
		<tag k="name" v="Mølnhaugen" />
		<tag k="natural" v="hill" />
		<tag k="place" v="locality" />
		<tag k="ssr:stedsnr" v="658934" />
	</node>
	<node id="-835128" lat="68.5971166683" lon="15.783661119">
		<tag k="name" v="Stornesaksla" />
		<tag k="place" v="locality" />
		<tag k="ssr:stedsnr" v="658927" />
	</node>
	<node id="-835124" lat="68.7373194487" lon="16.3406638884">
		<tag k="name" v="Atterbakkan" />
		<tag k="natural" v="slope" />
		<tag k="place" v="locality" />
		<tag k="ssr:stedsnr" v="658510" />
	</node>
	<node id="-835122" lat="68.6555500013" lon="16.0865249993">
		<tag k="name" v="Forrholthågen" />
		<tag k="natural" v="hill" />
		<tag k="place" v="locality" />
		<tag k="ssr:stedsnr" v="658455" />
	</node>
	<node id="-835121" lat="68.6797083324" lon="15.9296111119">
		<tag k="name" v="Brennhågen" />
		<tag k="natural" v="hill" />
		<tag k="place" v="locality" />
		<tag k="ssr:stedsnr" v="658117" />
	</node>
	<node id="-835119" lat="68.7176472203" lon="15.9253861076">
		<tag k="name" v="Gammen" />
		<tag k="place" v="locality" />
		<tag k="ssr:stedsnr" v="658104" />
	</node>
	<node id="-835118" lat="68.5758944432" lon="15.780500005">
		<tag k="name" v="Lars-Petterlia" />
		<tag k="natural" v="slope" />
		<tag k="place" v="locality" />
		<tag k="ssr:stedsnr" v="657718" />
	</node>
	<node id="-835116" lat="68.682530557" lon="16.0607416773">
		<tag k="name" v="Munnsletten" />
		<tag k="place" v="locality" />
		<tag k="ssr:stedsnr" v="657504" />
	</node>
	<node id="-835113" lat="68.7004944488" lon="16.2766416668">
		<tag k="fixme" v="consider natural=peak for the most distinct mountains in the district" />
		<tag k="name" v="Tømmeråsen" />
		<tag k="natural" v="hill" />
		<tag k="place" v="locality" />
		<tag k="ssr:stedsnr" v="627153" />
	</node>
	<node id="-835110" lat="68.56467222" lon="15.790511118">
		<tag k="name" v="Maskaskaret" />
		<tag k="natural" v="valley" />
		<tag k="place" v="locality" />
		<tag k="ssr:stedsnr" v="719922" />
	</node>
	<node id="-835106" lat="68.7302583311" lon="16.1859805514">
		<tag k="name" v="Sæteraksla" />
		<tag k="place" v="locality" />
		<tag k="ssr:stedsnr" v="719730" />
	</node>
	<node id="-835104" lat="68.7332500007" lon="16.1742138886">
		<tag k="name" v="Lyngtuva" />
		<tag k="natural" v="hill" />
		<tag k="place" v="locality" />
		<tag k="ssr:stedsnr" v="719708" />
	</node>
	<node id="-835102" lat="68.8079305573" lon="16.2311583398">
		<tag k="name" v="Kovan" />
		<tag k="natural" v="hill" />
		<tag k="place" v="locality" />
		<tag k="ssr:stedsnr" v="719683" />
	</node>
	<node id="-835101" lat="68.782636113" lon="16.1894499992">
		<tag k="name" v="Kasfjordhågen" />
		<tag k="natural" v="hill" />
		<tag k="place" v="locality" />
		<tag k="ssr:stedsnr" v="719664" />
	</node>
	<node id="-835099" lat="68.5191888926" lon="15.7309416792">
		<tag k="name" v="Kjeipaksla" />
		<tag k="place" v="locality" />
		<tag k="ssr:stedsnr" v="719777" />
	</node>
	<node id="-835098" lat="68.7306000019" lon="16.2526500084">
		<tag k="name" v="Kleivberget" />
		<tag k="natural" v="hill" />
		<tag k="place" v="locality" />
		<tag k="ssr:stedsnr" v="719520" />
	</node>
	<node id="-835097" lat="68.7450027806" lon="16.2857805502">
		<tag k="name" v="Blåsandmelen" />
		<tag k="natural" v="slope" />
		<tag k="place" v="locality" />
		<tag k="ssr:stedsnr" v="719505" />
	</node>
	<node id="-835096" lat="68.739899999" lon="16.2916916539">
		<tag k="name" v="Bjørnhågan" />
		<tag k="natural" v="hill" />
		<tag k="place" v="locality" />
		<tag k="ssr:stedsnr" v="719458" />
	</node>
	<node id="-835094" lat="68.8289472224" lon="16.144100007">
		<tag k="name" v="Eldatorvhågan" />
		<tag k="natural" v="hill" />
		<tag k="place" v="locality" />
		<tag k="ssr:stedsnr" v="719597" />
	</node>
	<node id="-835091" lat="68.6371166626" lon="16.0574000062">
		<tag k="name" v="Klubben" />
		<tag k="natural" v="hill" />
		<tag k="place" v="locality" />
		<tag k="ssr:stedsnr" v="719054" />
	</node>
	<node id="-835089" lat="68.5822055576" lon="15.8535333309">
		<tag k="name" v="Ingeborghaugen" />
		<tag k="natural" v="hill" />
		<tag k="place" v="locality" />
		<tag k="ssr:stedsnr" v="718923" />
	</node>
	<node id="-835086" lat="68.5661388876" lon="15.7616388835">
		<tag k="name" v="Kobbeskaret" />
		<tag k="natural" v="valley" />
		<tag k="place" v="locality" />
		<tag k="ssr:stedsnr" v="718746" />
	</node>
	<node id="-835085" lat="68.6819416677" lon="16.067916669">
		<tag k="name" v="Bjørnhågan" />
		<tag k="natural" v="hill" />
		<tag k="place" v="locality" />
		<tag k="ssr:stedsnr" v="718512" />
	</node>
	<node id="-835082" lat="68.6782277744" lon="16.2368555617">
		<tag k="fixme" v="consider natural=peak for the most distinct mountains in the district" />
		<tag k="name" v="Kjeipen" />
		<tag k="natural" v="hill" />
		<tag k="place" v="locality" />
		<tag k="ssr:stedsnr" v="718437" />
	</node>
	<node id="-835081" lat="68.7220111099" lon="16.2423749956">
		<tag k="name" v="Grønnlia" />
		<tag k="natural" v="slope" />
		<tag k="place" v="locality" />
		<tag k="ssr:stedsnr" v="718433" />
	</node>
	<node id="-835072" lat="68.6514249996" lon="15.8877888845">
		<tag k="name" v="Oksen" />
		<tag k="natural" v="hill" />
		<tag k="place" v="locality" />
		<tag k="ssr:stedsnr" v="590084" />
	</node>
	<node id="-835060" lat="68.6414555581" lon="15.8909583279">
		<tag k="alt_name" v="Akselhola" />
		<tag k="name" v="Akselholla" />
		<tag k="place" v="locality" />
		<tag k="ssr:stedsnr" v="563316" />
	</node>
	<node id="-835055" lat="68.7813999969" lon="16.262966662">
		<tag k="fixme" v="consider natural=peak for the most distinct mountains in the district" />
		<tag k="name" v="Tverråsen" />
		<tag k="natural" v="hill" />
		<tag k="place" v="locality" />
		<tag k="ssr:stedsnr" v="537981" />
	</node>
	<node id="-835054" lat="68.6176666632" lon="15.8489083275">
		<tag k="name" v="Trolldalen" />
		<tag k="natural" v="valley" />
		<tag k="place" v="locality" />
		<tag k="ssr:stedsnr" v="537963" />
	</node>
	<node id="-835052" lat="68.6621833352" lon="16.3552666739">
		<tag k="name" v="Storskaret" />
		<tag k="natural" v="valley" />
		<tag k="place" v="locality" />
		<tag k="ssr:stedsnr" v="537591" />
	</node>
	<node id="-835049" lat="68.7039527789" lon="16.2528055488">
		<tag k="name" v="Svarteberget" />
		<tag k="natural" v="hill" />
		<tag k="place" v="locality" />
		<tag k="ssr:stedsnr" v="537607" />
	</node>
	<node id="-835045" lat="68.7511722234" lon="16.1459583404">
		<tag k="name" v="Kvammen" />
		<tag k="natural" v="hill" />
		<tag k="place" v="locality" />
		<tag k="ssr:stedsnr" v="537355" />
	</node>
	<node id="-835044" lat="68.652302778" lon="15.841644453">
		<tag k="name" v="Gårdsdalshågen" />
		<tag k="natural" v="hill" />
		<tag k="place" v="locality" />
		<tag k="ssr:stedsnr" v="537169" />
	</node>
	<node id="-835042" lat="68.6267805575" lon="16.0386749971">
		<tag k="name" v="Kammersdalsaksla" />
		<tag k="place" v="locality" />
		<tag k="ssr:stedsnr" v="537015" />
	</node>
	<node id="-835041" lat="68.6284249969" lon="16.0249472123">
		<tag k="name" v="Jens-Fochsalia" />
		<tag k="natural" v="slope" />
		<tag k="place" v="locality" />
		<tag k="ssr:stedsnr" v="537013" />
	</node>
	<node id="-835040" lat="68.6199250027" lon="16.069177773">
		<tag k="name" v="Austerdalsflågan" />
		<tag k="place" v="locality" />
		<tag k="ssr:stedsnr" v="537012" />
	</node>
	<node id="-835036" lat="68.693902776" lon="16.2270805598">
		<tag k="fixme" v="consider natural=peak for the most distinct mountains in the district" />
		<tag k="name" v="Kjeipen" />
		<tag k="natural" v="hill" />
		<tag k="place" v="locality" />
		<tag k="ssr:stedsnr" v="536418" />
	</node>
	<node id="-835035" lat="68.6914999979" lon="16.0956722318">
		<tag k="name" v="Refsnesheia" />
		<tag k="natural" v="hill" />
		<tag k="place" v="locality" />
		<tag k="ssr:stedsnr" v="536413" />
	</node>
	<node id="-835032" lat="68.6942638927" lon="16.2766750046">
		<tag k="alt_name" v="Foraholtan" />
		<tag k="fixme" v="consider natural=peak for the most distinct mountains in the district" />
		<tag k="name" v="Forrholtan" />
		<tag k="natural" v="hill" />
		<tag k="place" v="locality" />
		<tag k="ssr:stedsnr" v="688157" />
	</node>
	<node id="-835031" lat="68.6957805549" lon="16.2321138861">
		<tag k="alt_name" v="Straumsdalen" />
		<tag k="name" v="Strømsdalen" />
		<tag k="natural" v="valley" />
		<tag k="place" v="locality" />
		<tag k="ssr:stedsnr" v="688150" />
	</node>
	<node id="-835024" lat="68.6065027791" lon="16.1394111196">
		<tag k="fixme" v="consider natural=peak for the most distinct mountains in the district" />
		<tag k="name" v="Rundkollen" />
		<tag k="natural" v="hill" />
		<tag k="place" v="locality" />
		<tag k="ssr:stedsnr" v="685811" />
	</node>
	<node id="-835023" lat="68.5068805519" lon="15.750102787">
		<tag k="fixme" v="consider natural=peak for the most distinct mountains in the district" />
		<tag k="name" v="Risen" />
		<tag k="natural" v="hill" />
		<tag k="place" v="locality" />
		<tag k="ssr:stedsnr" v="685778" />
	</node>
	<node id="-835022" lat="68.5087555546" lon="15.7822555504">
		<tag k="fixme" v="consider natural=peak for the most distinct mountains in the district" />
		<tag k="name" v="Middagsfjellet" />
		<tag k="natural" v="hill" />
		<tag k="place" v="locality" />
		<tag k="ssr:stedsnr" v="685770" />
	</node>
	<node id="-835021" lat="68.5250305579" lon="15.8135722254">
		<tag k="name" v="Austerdalen" />
		<tag k="natural" v="valley" />
		<tag k="place" v="locality" />
		<tag k="ssr:stedsnr" v="685752" />
	</node>
	<node id="-835019" lat="68.698402775" lon="15.9218972128">
		<tag k="fixme" v="consider natural=peak for the most distinct mountains in the district" />
		<tag k="name" v="Keipen" />
		<tag k="natural" v="hill" />
		<tag k="place" v="locality" />
		<tag k="ssr:stedsnr" v="685475" />
	</node>
	<node id="-835018" lat="68.7077861139" lon="16.1198249981">
		<tag k="fixme" v="consider natural=peak for the most distinct mountains in the district" />
		<tag k="name" v="Tretindan" />
		<tag k="natural" v="hill" />
		<tag k="place" v="locality" />
		<tag k="ssr:stedsnr" v="685468" />
	</node>
	<node id="-835013" lat="68.7385361107" lon="16.0923972275">
		<tag k="name" v="Storhaugen" />
		<tag k="natural" v="hill" />
		<tag k="place" v="locality" />
		<tag k="ssr:stedsnr" v="685416" />
	</node>
	<node id="-835012" lat="68.8021944465" lon="16.2666777797">
		<tag k="name" v="Råheia" />
		<tag k="natural" v="slope" />
		<tag k="place" v="locality" />
		<tag k="ssr:stedsnr" v="685352" />
	</node>
	<node id="-835010" lat="68.620758336" lon="16.2085222265">
		<tag k="fixme" v="consider natural=peak for the most distinct mountains in the district" />
		<tag k="name" v="Storsteinfjellet" />
		<tag k="natural" v="hill" />
		<tag k="place" v="locality" />
		<tag k="ssr:stedsnr" v="685341" />
	</node>
	<node id="-835009" lat="68.6183222232" lon="15.8682472279">
		<tag k="fixme" v="consider natural=peak for the most distinct mountains in the district" />
		<tag k="name" v="Husbytinden" />
		<tag k="natural" v="hill" />
		<tag k="place" v="locality" />
		<tag k="ssr:stedsnr" v="685340" />
	</node>
	<node id="-835008" lat="68.6292944397" lon="16.1104194535">
		<tag k="fixme" v="consider natural=peak for the most distinct mountains in the district" />
		<tag k="name" v="Rundfjellet - Ruotnadas" />
		<tag k="name:no" v="Rundfjellet" />
		<tag k="name:se" v="Ruotnadas" />
		<tag k="natural" v="hill" />
		<tag k="place" v="locality" />
		<tag k="ssr:stedsnr" v="685335" />
	</node>
	<node id="-835006" lat="68.6363888867" lon="15.6741638848">
		<tag k="fixme" v="multiple name tags, choose one and add the other to alt_name; consider natural=peak for the most distinct mountains in the district" />
		<tag k="name" v="Stortinden;Sætertinden" />
		<tag k="natural" v="hill" />
		<tag k="ssr:stedsnr" v="685323" />
	</node>
	<node id="-835004" lat="68.637077776" lon="15.9346805471">
		<tag k="fixme" v="consider natural=peak for the most distinct mountains in the district" />
		<tag k="name" v="Middagstinden" />
		<tag k="natural" v="hill" />
		<tag k="place" v="locality" />
		<tag k="ssr:stedsnr" v="685308" />
	</node>
	<node id="-834995" lat="68.6861777786" lon="15.8786388981">
		<tag k="name" v="Flesnesdalen" />
		<tag k="natural" v="valley" />
		<tag k="place" v="locality" />
		<tag k="ssr:stedsnr" v="685242" />
	</node>
	<node id="-834991" lat="68.7726000019" lon="16.1044027746">
		<tag k="name" v="Hilderkleiva" />
		<tag k="natural" v="slope" />
		<tag k="place" v="locality" />
		<tag k="ssr:stedsnr" v="685165" />
	</node>
	<node id="-834989" lat="68.8001194447" lon="16.1366194463">
		<tag k="name" v="Daleskallen" />
		<tag k="natural" v="hill" />
		<tag k="place" v="locality" />
		<tag k="ssr:stedsnr" v="685084" />
	</node>
	<node id="-834988" lat="68.7871944414" lon="16.1434222175">
		<tag k="fixme" v="consider natural=peak for the most distinct mountains in the district" />
		<tag k="name" v="Blomåsen" />
		<tag k="natural" v="hill" />
		<tag k="place" v="locality" />
		<tag k="ssr:stedsnr" v="685076" />
	</node>
	<node id="-834978" lat="68.7865777777" lon="16.2821944428">
		<tag k="fixme" v="consider natural=peak for the most distinct mountains in the district" />
		<tag k="name" v="Svartåsen" />
		<tag k="natural" v="hill" />
		<tag k="place" v="locality" />
		<tag k="ssr:stedsnr" v="503452" />
	</node>
	<node id="-834974" lat="68.6378194401" lon="15.7580333357">
		<tag k="name" v="Kvitelvheia" />
		<tag k="natural" v="hill" />
		<tag k="place" v="locality" />
		<tag k="ssr:stedsnr" v="503303" />
	</node>
	<node id="-834971" lat="68.4983027777" lon="15.6619472172">
		<tag k="fixme" v="consider natural=peak for the most distinct mountains in the district" />
		<tag k="name" v="Hestetinden - Jápmačohkka" />
		<tag k="name:no" v="Hestetinden" />
		<tag k="name:se" v="Jápmačohkka" />
		<tag k="natural" v="hill" />
		<tag k="place" v="locality" />
		<tag k="ssr:stedsnr" v="502126" />
	</node>
	<node id="-834970" lat="68.5751444455" lon="15.8268583222">
		<tag k="name" v="Moelvhalsen" />
		<tag k="natural" v="hill" />
		<tag k="place" v="locality" />
		<tag k="ssr:stedsnr" v="476922" />
	</node>
	<node id="-834965" lat="68.7024333356" lon="16.3219833399">
		<tag k="name" v="Lasken" />
		<tag k="natural" v="slope" />
		<tag k="place" v="locality" />
		<tag k="ssr:stedsnr" v="476555" />
	</node>
	<node id="-834964" lat="68.7935944463" lon="16.2569138835">
		<tag k="name" v="Strand-Tortenbakkan" />
		<tag k="natural" v="slope" />
		<tag k="place" v="locality" />
		<tag k="ssr:stedsnr" v="476517" />
	</node>
	<node id="-834963" lat="68.750305553" lon="16.1562110992">
		<tag k="name" v="Ramnfløya" />
		<tag k="natural" v="hill" />
		<tag k="place" v="locality" />
		<tag k="ssr:stedsnr" v="476370" />
	</node>
	<node id="-834962" lat="68.5802194468" lon="15.7841444509">
		<tag k="name" v="Skredhågen" />
		<tag k="natural" v="hill" />
		<tag k="place" v="locality" />
		<tag k="ssr:stedsnr" v="658846" />
	</node>
	<node id="-834961" lat="68.5917333331" lon="15.7483222114">
		<tag k="name" v="Rundskarbotn" />
		<tag k="natural" v="valley" />
		<tag k="place" v="locality" />
		<tag k="ssr:stedsnr" v="658831" />
	</node>
	<node id="-834960" lat="68.5926861155" lon="15.7645000009">
		<tag k="name" v="Grønnryggen" />
		<tag k="natural" v="ridge" />
		<tag k="place" v="locality" />
		<tag k="ssr:stedsnr" v="658830" />
	</node>
	<node id="-834959" lat="68.5997805595" lon="15.7476444371">
		<tag k="name" v="Bjørnhågen" />
		<tag k="natural" v="hill" />
		<tag k="place" v="locality" />
		<tag k="ssr:stedsnr" v="658824" />
	</node>
	<node id="-834957" lat="68.6319416651" lon="15.8647138775">
		<tag k="name" v="Husbyhågen" />
		<tag k="natural" v="hill" />
		<tag k="place" v="locality" />
		<tag k="ssr:stedsnr" v="658999" />
	</node>
	<node id="-834956" lat="68.7805305523" lon="16.2933333361">
		<tag k="name" v="Endelausslåtta" />
		<tag k="natural" v="slope" />
		<tag k="place" v="locality" />
		<tag k="ssr:stedsnr" v="658985" />
	</node>
	<node id="-834954" lat="68.7784388921" lon="16.3308027855">
		<tag k="name" v="Lavollen" />
		<tag k="place" v="locality" />
		<tag k="ssr:stedsnr" v="658970" />
	</node>
	<node id="-834952" lat="68.5821666646" lon="15.8241305524">
		<tag k="name" v="Holthalsen" />
		<tag k="natural" v="hill" />
		<tag k="place" v="locality" />
		<tag k="ssr:stedsnr" v="658898" />
	</node>
	<node id="-834947" lat="68.7141138915" lon="16.3130000015">
		<tag k="name" v="Øvstemoa" />
		<tag k="place" v="locality" />
		<tag k="ssr:stedsnr" v="658568" />
	</node>
	<node id="-834946" lat="68.7131500025" lon="16.3200583268">
		<tag k="name" v="Hellhågen" />
		<tag k="natural" v="hill" />
		<tag k="place" v="locality" />
		<tag k="ssr:stedsnr" v="658566" />
	</node>
	<node id="-834944" lat="68.7447944436" lon="16.2798777762">
		<tag k="name" v="Stokkebrekka" />
		<tag k="natural" v="slope" />
		<tag k="place" v="locality" />
		<tag k="ssr:stedsnr" v="658547" />
	</node>
	<node id="-834943" lat="68.79864167" lon="16.190677778">
		<tag k="name" v="Moa" />
		<tag k="place" v="locality" />
		<tag k="ssr:stedsnr" v="658727" />
	</node>
	<node id="-834941" lat="68.7203722201" lon="16.0726055489">
		<tag k="fixme" v="consider natural=peak for the most distinct mountains in the district" />
		<tag k="name" v="Trøssakollen" />
		<tag k="natural" v="hill" />
		<tag k="place" v="locality" />
		<tag k="ssr:stedsnr" v="658441" />
	</node>
	<node id="-834938" lat="68.7402527795" lon="16.2888194393">
		<tag k="name" v="Hallenden" />
		<tag k="natural" v="slope" />
		<tag k="place" v="locality" />
		<tag k="ssr:stedsnr" v="658483" />
	</node>
	<node id="-834937" lat="68.6688722193" lon="15.8719861149">
		<tag k="name" v="Kviteskreda" />
		<tag k="natural" v="slope" />
		<tag k="place" v="locality" />
		<tag k="ssr:stedsnr" v="658176" />
	</node>
	<node id="-834936" lat="68.6715722244" lon="15.8957805559">
		<tag k="name" v="Høgelia" />
		<tag k="natural" v="slope" />
		<tag k="place" v="locality" />
		<tag k="ssr:stedsnr" v="658166" />
	</node>
	<node id="-834935" lat="68.6718833344" lon="15.8189833335">
		<tag k="fixme" v="consider natural=peak for the most distinct mountains in the district" />
		<tag k="name" v="Nordfjellet" />
		<tag k="natural" v="hill" />
		<tag k="place" v="locality" />
		<tag k="ssr:stedsnr" v="658160" />
	</node>
	<node id="-834934" lat="68.6529861071" lon="16.0361666713">
		<tag k="name" v="Skjellelvryggen" />
		<tag k="natural" v="ridge" />
		<tag k="place" v="locality" />
		<tag k="ssr:stedsnr" v="658050" />
	</node>
	<node id="-834933" lat="68.6508333375" lon="15.950427772">
		<tag k="name" v="Moan" />
		<tag k="place" v="locality" />
		<tag k="ssr:stedsnr" v="658040" />
	</node>
	<node id="-834932" lat="68.6542694484" lon="15.9534527749">
		<tag k="name" v="Dalbakkan" />
		<tag k="natural" v="hill" />
		<tag k="place" v="locality" />
		<tag k="ssr:stedsnr" v="658038" />
	</node>
	<node id="-834926" lat="68.5577666658" lon="15.7184250031">
		<tag k="name" v="Ol-Eriksadalen" />
		<tag k="natural" v="valley" />
		<tag k="place" v="locality" />
		<tag k="ssr:stedsnr" v="657731" />
	</node>
	<node id="-834924" lat="68.6684000013" lon="16.1019277773">
		<tag k="name" v="Labakkan" />
		<tag k="natural" v="slope" />
		<tag k="place" v="locality" />
		<tag k="ssr:stedsnr" v="657448" />
	</node>
	<node id="-834921" lat="68.7215249966" lon="16.2194333399">
		<tag k="name" v="Saldalhalsen" />
		<tag k="natural" v="valley" />
		<tag k="place" v="locality" />
		<tag k="ssr:stedsnr" v="657437" />
	</node>
	<node id="-834919" lat="68.8487472211" lon="16.0095472198">
		<tag k="name" v="Lottran" />
		<tag k="natural" v="slope" />
		<tag k="place" v="locality" />
		<tag k="ssr:stedsnr" v="657403" />
	</node>
	<node id="-834915" lat="68.6025250038" lon="15.7686805642">
		<tag k="name" v="Ørnhågan" />
		<tag k="natural" v="hill" />
		<tag k="place" v="locality" />
		<tag k="ssr:stedsnr" v="416826" />
	</node>
	<node id="-834914" lat="68.7308222179" lon="16.2175611171">
		<tag k="name" v="Blankebergan" />
		<tag k="natural" v="hill" />
		<tag k="place" v="locality" />
		<tag k="ssr:stedsnr" v="416725" />
	</node>
	<node id="-834913" lat="68.7305388865" lon="16.0963388814">
		<tag k="name" v="Sandvikaksla" />
		<tag k="place" v="locality" />
		<tag k="ssr:stedsnr" v="416710" />
	</node>
	<node id="-834908" lat="68.7031250035" lon="15.9524694441">
		<tag k="name" v="Vedhøggan" />
		<tag k="natural" v="slope" />
		<tag k="place" v="locality" />
		<tag k="ssr:stedsnr" v="416403" />
	</node>
	<node id="-834907" lat="68.765533334" lon="16.3310055509">
		<tag k="name" v="Skaret" />
		<tag k="natural" v="valley" />
		<tag k="place" v="locality" />
		<tag k="ssr:stedsnr" v="416510" />
	</node>
	<node id="-834906" lat="68.6328972248" lon="16.0561611035">
		<tag k="name" v="Klubben" />
		<tag k="natural" v="hill" />
		<tag k="place" v="locality" />
		<tag k="ssr:stedsnr" v="416002" />
	</node>
	<node id="-834905" lat="68.6840777742" lon="16.2275749884">
		<tag k="fixme" v="consider natural=peak for the most distinct mountains in the district" />
		<tag k="loc_name:se" v="Goahtvárdu" />
		<tag k="name" v="Keipfjellet" />
		<tag k="name:no" v="Keipfjellet" />
		<tag k="natural" v="hill" />
		<tag k="place" v="locality" />
		<tag k="ssr:stedsnr" v="511611" />
	</node>
	<node id="-834903" lat="68.552580553" lon="15.7276833433">
		<tag k="fixme" v="consider natural=peak for the most distinct mountains in the district" />
		<tag k="name" v="Karitinden" />
		<tag k="natural" v="hill" />
		<tag k="place" v="locality" />
		<tag k="ssr:stedsnr" v="503827" />
	</node>
	<node id="-834900" lat="68.5698916642" lon="15.86044721">
		<tag k="name" v="Grytdalen" />
		<tag k="natural" v="valley" />
		<tag k="place" v="locality" />
		<tag k="ssr:stedsnr" v="503804" />
	</node>
	<node id="-834898" lat="68.5738666624" lon="15.6236222312">
		<tag k="name" v="Løbergsskardet" />
		<tag k="natural" v="valley" />
		<tag k="place" v="locality" />
		<tag k="ssr:stedsnr" v="503795" />
	</node>
	<node id="-834897" lat="68.5775416697" lon="15.6955944355">
		<tag k="fixme" v="consider natural=peak for the most distinct mountains in the district" />
		<tag k="name" v="Geitryggen" />
		<tag k="natural" v="hill" />
		<tag k="place" v="locality" />
		<tag k="ssr:stedsnr" v="503794" />
	</node>
	<node id="-834896" lat="68.5892666675" lon="15.8840055527">
		<tag k="fixme" v="consider natural=peak for the most distinct mountains in the district" />
		<tag k="name" v="Moelvfjellan" />
		<tag k="natural" v="hill" />
		<tag k="place" v="locality" />
		<tag k="ssr:stedsnr" v="503789" />
	</node>
	<node id="-834892" lat="68.7385611143" lon="16.3305944515">
		<tag k="alt_name" v="Ramnskardet" />
		<tag k="name" v="Ramnskaret" />
		<tag k="natural" v="valley" />
		<tag k="place" v="locality" />
		<tag k="ssr:stedsnr" v="503766" />
	</node>
	<node id="-834891" lat="68.5108694479" lon="15.7656083317">
		<tag k="name" v="Storskardet" />
		<tag k="natural" v="valley" />
		<tag k="place" v="locality" />
		<tag k="ssr:stedsnr" v="503741" />
	</node>
	<node id="-834887" lat="68.7601805537" lon="16.3239722192">
		<tag k="name" v="Kviteberget" />
		<tag k="natural" v="hill" />
		<tag k="place" v="locality" />
		<tag k="ssr:stedsnr" v="503432" />
	</node>
	<node id="-834881" lat="68.6204055596" lon="16.0237444371">
		<tag k="fixme" v="consider natural=peak for the most distinct mountains in the district" />
		<tag k="name" v="Tverrfjellet" />
		<tag k="natural" v="hill" />
		<tag k="place" v="locality" />
		<tag k="ssr:stedsnr" v="503332" />
	</node>
	<node id="-834879" lat="68.6748722265" lon="15.8882555486">
		<tag k="name" v="Kvanntodalen" />
		<tag k="natural" v="valley" />
		<tag k="place" v="locality" />
		<tag k="ssr:stedsnr" v="503247" />
	</node>
	<node id="-834875" lat="68.6467611104" lon="15.7633527787">
		<tag k="fixme" v="consider natural=peak for the most distinct mountains in the district" />
		<tag k="name" v="Pøylfjellet" />
		<tag k="natural" v="hill" />
		<tag k="place" v="locality" />
		<tag k="ssr:stedsnr" v="503292" />
	</node>
	<node id="-834872" lat="68.8608083356" lon="16.1944277678">
		<tag k="alt_name" v="Hesthola" />
		<tag k="name" v="Hestholla" />
		<tag k="natural" v="valley" />
		<tag k="place" v="locality" />
		<tag k="ssr:stedsnr" v="503043" />
	</node>
	<node id="-834871" lat="68.8451944473" lon="15.9817638857">
		<tag k="alt_name" v="Skardholtan, vestre" />
		<tag k="fixme" v="consider natural=peak for the most distinct mountains in the district" />
		<tag k="name" v="Vesterskarholten" />
		<tag k="natural" v="hill" />
		<tag k="place" v="locality" />
		<tag k="ssr:stedsnr" v="503019" />
	</node>
	<node id="-834869" lat="68.7542750035" lon="16.0031472188">
		<tag k="name" v="Stormulen" />
		<tag k="natural" v="hill" />
		<tag k="place" v="locality" />
		<tag k="ssr:stedsnr" v="503137" />
	</node>
	<node id="-834867" lat="68.5569944426" lon="15.7914805517">
		<tag k="name" v="Larsenberget" />
		<tag k="natural" v="hill" />
		<tag k="place" v="locality" />
		<tag k="ssr:stedsnr" v="354937" />
	</node>
	<node id="-834866" lat="68.5559888907" lon="15.7857888822">
		<tag k="name" v="Båtberget" />
		<tag k="natural" v="hill" />
		<tag k="place" v="locality" />
		<tag k="ssr:stedsnr" v="354936" />
	</node>
	<node id="-834865" lat="68.5458666639" lon="15.7313472291">
		<tag k="name" v="Skallen" />
		<tag k="place" v="locality" />
		<tag k="ssr:stedsnr" v="354818" />
	</node>
	<node id="-834863" lat="68.6075027781" lon="15.7503666732">
		<tag k="name" v="Kuholla" />
		<tag k="natural" v="valley" />
		<tag k="place" v="locality" />
		<tag k="ssr:stedsnr" v="476840" />
	</node>
	<node id="-834862" lat="68.6060305534" lon="15.6791527717">
		<tag k="name" v="Tverrelvdalsbotn" />
		<tag k="natural" v="valley" />
		<tag k="place" v="locality" />
		<tag k="ssr:stedsnr" v="476839" />
	</node>
	<node id="-834860" lat="68.5134611106" lon="15.7327472187">
		<tag k="name" v="Frammervollen" />
		<tag k="place" v="locality" />
		<tag k="ssr:stedsnr" v="476792" />
	</node>
	<node id="-834857" lat="68.8302194425" lon="16.1776277789">
		<tag k="fixme" v="consider natural=peak for the most distinct mountains in the district" />
		<tag k="name" v="Hans-Eidissen aksla" />
		<tag k="natural" v="hill" />
		<tag k="place" v="locality" />
		<tag k="ssr:stedsnr" v="476631" />
	</node>
	<node id="-834856" lat="68.706333335" lon="16.271644454">
		<tag k="name" v="Hallbakkan" />
		<tag k="natural" v="hill" />
		<tag k="place" v="locality" />
		<tag k="ssr:stedsnr" v="476623" />
	</node>
	<node id="-834855" lat="68.7169777821" lon="16.3038361121">
		<tag k="name" v="Storlia" />
		<tag k="natural" v="slope" />
		<tag k="place" v="locality" />
		<tag k="ssr:stedsnr" v="476616" />
	</node>
	<node id="-834851" lat="68.7713555527" lon="16.1718694531">
		<tag k="name" v="Borkhågen" />
		<tag k="natural" v="hill" />
		<tag k="place" v="locality" />
		<tag k="ssr:stedsnr" v="476681" />
	</node>
	<node id="-834849" lat="68.7193749983" lon="15.9460888911">
		<tag k="name" v="Nordlian" />
		<tag k="natural" v="slope" />
		<tag k="place" v="locality" />
		<tag k="ssr:stedsnr" v="476448" />
	</node>
	<node id="-834848" lat="68.7152111081" lon="15.9596583421">
		<tag k="name" v="Hattebekklia" />
		<tag k="natural" v="slope" />
		<tag k="place" v="locality" />
		<tag k="ssr:stedsnr" v="476446" />
	</node>
	<node id="-834844" lat="68.8487972202" lon="15.9844083396">
		<tag k="fixme" v="consider natural=peak for the most distinct mountains in the district" />
		<tag k="name" v="Skardholtan" />
		<tag k="natural" v="hill" />
		<tag k="place" v="locality" />
		<tag k="ssr:stedsnr" v="476382" />
	</node>
	<node id="-834843" lat="68.7633694491" lon="16.1401694362">
		<tag k="name" v="Mangeinan" />
		<tag k="natural" v="slope" />
		<tag k="place" v="locality" />
		<tag k="ssr:stedsnr" v="476373" />
	</node>
	<node id="-834842" lat="68.750822224" lon="16.2958500074">
		<tag k="name" v="Justelia" />
		<tag k="natural" v="slope" />
		<tag k="place" v="locality" />
		<tag k="ssr:stedsnr" v="476531" />
	</node>
	<node id="-834841" lat="68.7517722182" lon="16.2782999907">
		<tag k="name" v="Vikeheia" />
		<tag k="natural" v="hill" />
		<tag k="place" v="locality" />
		<tag k="ssr:stedsnr" v="476524" />
	</node>
	<node id="-834840" lat="68.7360583369" lon="16.3106611">
		<tag k="fixme" v="consider natural=peak for the most distinct mountains in the district" />
		<tag k="name" v="Varden" />
		<tag k="natural" v="hill" />
		<tag k="place" v="locality" />
		<tag k="ssr:stedsnr" v="476495" />
	</node>
	<node id="-834839" lat="68.7343833368" lon="16.3209694541">
		<tag k="name" v="Frammerbakken" />
		<tag k="natural" v="slope" />
		<tag k="place" v="locality" />
		<tag k="ssr:stedsnr" v="476493" />
	</node>
	<node id="-834837" lat="68.698638893" lon="15.9415111178">
		<tag k="fixme" v="consider natural=peak for the most distinct mountains in the district" />
		<tag k="name" v="Ørnstolen" />
		<tag k="natural" v="hill" />
		<tag k="place" v="locality" />
		<tag k="ssr:stedsnr" v="476484" />
	</node>
	<node id="-834835" lat="68.7511691857" lon="16.1574518068">
		<tag k="name" v="Purkeliholla" />
		<tag k="natural" v="valley" />
		<tag k="place" v="locality" />
		<tag k="ssr:stedsnr" v="476349" />
	</node>
	<node id="-834834" lat="68.6575750036" lon="15.863713889">
		<tag k="fixme" v="consider natural=peak for the most distinct mountains in the district" />
		<tag k="name" v="Innerfjellet" />
		<tag k="natural" v="hill" />
		<tag k="place" v="locality" />
		<tag k="ssr:stedsnr" v="476174" />
	</node>
	<node id="-834833" lat="68.7125027815" lon="15.9287361133">
		<tag k="name" v="Tverrbakken" />
		<tag k="natural" v="slope" />
		<tag k="place" v="locality" />
		<tag k="ssr:stedsnr" v="476112" />
	</node>
	<node id="-834831" lat="68.6365416631" lon="15.909225002">
		<tag k="name" v="Steinbakkan" />
		<tag k="natural" v="slope" />
		<tag k="place" v="locality" />
		<tag k="ssr:stedsnr" v="476094" />
	</node>
	<node id="-834825" lat="68.5655305554" lon="15.7706861026">
		<tag k="fixme" v="consider natural=peak for the most distinct mountains in the district" />
		<tag k="name" v="Geithovudet" />
		<tag k="natural" v="hill" />
		<tag k="place" v="locality" />
		<tag k="ssr:stedsnr" v="475752" />
	</node>
	<node id="-834824" lat="68.699433336" lon="16.3383416789">
		<tag k="name" v="Vardhågen" />
		<tag k="natural" v="hill" />
		<tag k="place" v="locality" />
		<tag k="ssr:stedsnr" v="475600" />
	</node>
	<node id="-834822" lat="68.7336777816" lon="15.9486138986">
		<tag k="name" v="Sletta" />
		<tag k="place" v="locality" />
		<tag k="ssr:stedsnr" v="475483" />
	</node>
	<node id="-834821" lat="68.6736361094" lon="16.1200000044">
		<tag k="name" v="Reingjerdet" />
		<tag k="place" v="locality" />
		<tag k="ssr:stedsnr" v="475441" />
	</node>
	<node id="-834820" lat="68.6475583306" lon="16.1023722226">
		<tag k="fixme" v="consider natural=peak for the most distinct mountains in the district" />
		<tag k="name" v="Seljenesfjellet" />
		<tag k="natural" v="hill" />
		<tag k="place" v="locality" />
		<tag k="ssr:stedsnr" v="475430" />
	</node>
	<node id="-834819" lat="68.7871138922" lon="16.0734416567">
		<tag k="name" v="Hulderberget" />
		<tag k="natural" v="hill" />
		<tag k="place" v="locality" />
		<tag k="ssr:stedsnr" v="475416" />
	</node>
	<node id="-834818" lat="68.7813388902" lon="16.0712472202">
		<tag k="name" v="Svedalen" />
		<tag k="natural" v="valley" />
		<tag k="place" v="locality" />
		<tag k="ssr:stedsnr" v="475408" />
	</node>
	<node id="-834817" lat="68.6750361092" lon="16.1093666545">
		<tag k="fixme" v="consider natural=peak for the most distinct mountains in the district" />
		<tag k="name" v="Brattlikollen" />
		<tag k="natural" v="hill" />
		<tag k="place" v="locality" />
		<tag k="ssr:stedsnr" v="475405" />
	</node>
	<node id="-834814" lat="68.651730554" lon="15.8617972225">
		<tag k="name" v="Kattuglhammaren" />
		<tag k="natural" v="hill" />
		<tag k="place" v="locality" />
		<tag k="ssr:stedsnr" v="469090" />
	</node>
	<node id="-834811" lat="68.7053999969" lon="15.9769194545">
		<tag k="name" v="Finneberget" />
		<tag k="natural" v="hill" />
		<tag k="place" v="locality" />
		<tag k="ssr:stedsnr" v="294461" />
	</node>
	<node id="-834810" lat="68.7190388863" lon="16.0506944525">
		<tag k="name" v="Sjåberget" />
		<tag k="natural" v="hill" />
		<tag k="place" v="locality" />
		<tag k="ssr:stedsnr" v="294458" />
	</node>
	<node id="-834809" lat="68.6074166684" lon="16.0429583251">
		<tag k="fixme" v="consider natural=peak for the most distinct mountains in the district" />
		<tag k="name" v="Jonsheimtinden - Čoarddačohkka" />
		<tag k="name:no" v="Jonsheimtinden" />
		<tag k="name:se" v="Čoarddačohkka" />
		<tag k="natural" v="hill" />
		<tag k="place" v="locality" />
		<tag k="ssr:stedsnr" v="464320" />
	</node>
	<node id="-834802" lat="68.7688805557" lon="16.1104333242">
		<tag k="name" v="Lundan" />
		<tag k="natural" v="slope" />
		<tag k="place" v="locality" />
		<tag k="ssr:stedsnr" v="260211" />
	</node>
	<node id="-834800" lat="68.6903805533" lon="16.3364972116">
		<tag k="fixme" v="consider natural=peak for the most distinct mountains in the district" />
		<tag k="name" v="Ørnstolen" />
		<tag k="natural" v="hill" />
		<tag k="place" v="locality" />
		<tag k="ssr:stedsnr" v="446164" />
	</node>
	<node id="-834799" lat="68.6670138875" lon="16.3037444516">
		<tag k="name" v="Skreda" />
		<tag k="natural" v="slope" />
		<tag k="place" v="locality" />
		<tag k="ssr:stedsnr" v="445069" />
	</node>
	<node id="-834797" lat="68.8260444441" lon="16.1304083349">
		<tag k="name" v="Tyskuthøggen" />
		<tag k="natural" v="slope" />
		<tag k="place" v="locality" />
		<tag k="ssr:stedsnr" v="234630" />
	</node>
	<node id="-834795" lat="68.7968166689" lon="16.2740583314">
		<tag k="fixme" v="consider natural=peak for the most distinct mountains in the district" />
		<tag k="name" v="Strandfjellet" />
		<tag k="natural" v="hill" />
		<tag k="place" v="locality" />
		<tag k="ssr:stedsnr" v="234507" />
	</node>
	<node id="-834786" lat="68.8375861088" lon="15.9876194313">
		<tag k="name" v="Bjørnbåsan" />
		<tag k="natural" v="valley" />
		<tag k="place" v="locality" />
		<tag k="ssr:stedsnr" v="233420" />
	</node>
	<node id="-834785" lat="68.6789722179" lon="15.8858583413">
		<tag k="fixme" v="consider natural=peak for the most distinct mountains in the district" />
		<tag k="name" v="Lafjellet" />
		<tag k="natural" v="hill" />
		<tag k="place" v="locality" />
		<tag k="ssr:stedsnr" v="233124" />
	</node>
	<node id="-834782" lat="68.6782194452" lon="16.0854666583">
		<tag k="name" v="Bjørnliknorren" />
		<tag k="natural" v="hill" />
		<tag k="place" v="locality" />
		<tag k="ssr:stedsnr" v="233030" />
	</node>
	<node id="-834781" lat="68.6591833298" lon="15.9572083226">
		<tag k="name" v="Stibergan" />
		<tag k="natural" v="hill" />
		<tag k="place" v="locality" />
		<tag k="ssr:stedsnr" v="233017" />
	</node>
	<node id="-834778" lat="68.6053250031" lon="15.7396611196">
		<tag k="fixme" v="consider natural=peak for the most distinct mountains in the district" />
		<tag k="name" v="Kobbenesaksla" />
		<tag k="natural" v="hill" />
		<tag k="place" v="locality" />
		<tag k="ssr:stedsnr" v="443384" />
	</node>
	<node id="-834777" lat="68.6077638886" lon="16.0318777689">
		<tag k="name" v="Langdalen" />
		<tag k="natural" v="valley" />
		<tag k="place" v="locality" />
		<tag k="ssr:stedsnr" v="443380" />
	</node>
	<node id="-834776" lat="68.6657000019" lon="15.9814249952">
		<tag k="name" v="Lysålandet" />
		<tag k="natural" v="slope" />
		<tag k="place" v="locality" />
		<tag k="ssr:stedsnr" v="443286" />
	</node>
	<node id="-834774" lat="68.6584888849" lon="16.0215138777">
		<tag k="fixme" v="multiple name tags, choose one and add the other to alt_name; consider natural=peak for the most distinct mountains in the district" />
		<tag k="loc_name:se" v="Geaŋkkaidvárri" />
		<tag k="name" v="Kjengsfjellet;Kjerringa" />
		<tag k="name:no" v="Kjengsfjellet;Kjerringa" />
		<tag k="natural" v="hill" />
		<tag k="place" v="locality" />
		<tag k="ssr:stedsnr" v="443278" />
	</node>
	<node id="-834773" lat="68.7905222204" lon="16.2090750037">
		<tag k="name" v="Spellbakken" />
		<tag k="natural" v="slope" />
		<tag k="place" v="locality" />
		<tag k="ssr:stedsnr" v="443066" />
	</node>
	<node id="-834772" lat="68.7149416697" lon="16.3390083305">
		<tag k="name" v="Kvanntoa" />
		<tag k="natural" v="slope" />
		<tag k="place" v="locality" />
		<tag k="ssr:stedsnr" v="442983" />
	</node>
	<node id="-834771" lat="68.709336113" lon="16.3692694495">
		<tag k="fixme" v="consider natural=peak for the most distinct mountains in the district" />
		<tag k="name" v="Vilhelmsæteråsen" />
		<tag k="natural" v="hill" />
		<tag k="place" v="locality" />
		<tag k="ssr:stedsnr" v="442898" />
	</node>
	<node id="-834769" lat="68.5654166645" lon="15.7927249881">
		<tag k="fixme" v="multiple name tags, choose one and add the other to alt_name" />
		<tag k="name" v="Middagshaugen;St.Hanshågen" />
		<tag k="natural" v="hill" />
		<tag k="place" v="locality" />
		<tag k="ssr:stedsnr" v="442877" />
	</node>
	<node id="-834765" lat="68.7016777745" lon="15.8448472314">
		<tag k="alt_name" v="Lebbikaksla" />
		<tag k="fixme" v="consider natural=peak for the most distinct mountains in the district" />
		<tag k="name" v="Lebekkaksla" />
		<tag k="natural" v="hill" />
		<tag k="place" v="locality" />
		<tag k="ssr:stedsnr" v="442502" />
	</node>
	<node id="-834763" lat="68.717802779" lon="16.1074083388">
		<tag k="fixme" v="consider natural=peak for the most distinct mountains in the district" />
		<tag k="loc_name:se" v="Hinaidvárri" />
		<tag k="name" v="Hemmestadfjellet" />
		<tag k="name:no" v="Hemmestadfjellet" />
		<tag k="natural" v="hill" />
		<tag k="place" v="locality" />
		<tag k="ssr:stedsnr" v="442490" />
	</node>
	<node id="-834760" lat="68.7728916693" lon="16.2734888837">
		<tag k="name" v="Blomlikollen" />
		<tag k="natural" v="hill" />
		<tag k="place" v="locality" />
		<tag k="ssr:stedsnr" v="442455" />
	</node>
	<node id="-834758" lat="68.6407722255" lon="15.7407416647">
		<tag k="fixme" v="consider natural=peak for the most distinct mountains in the district" />
		<tag k="name" v="Sæterfjellet" />
		<tag k="natural" v="hill" />
		<tag k="place" v="locality" />
		<tag k="ssr:stedsnr" v="442349" />
	</node>
	<node id="-834753" lat="68.6902000042" lon="16.04536666">
		<tag k="name" v="Middagshaugan" />
		<tag k="natural" v="hill" />
		<tag k="place" v="locality" />
		<tag k="ssr:stedsnr" v="442302" />
	</node>
	<node id="-834752" lat="68.5952861063" lon="15.7326388982">
		<tag k="name" v="Norddalen" />
		<tag k="natural" v="valley" />
		<tag k="place" v="locality" />
		<tag k="ssr:stedsnr" v="442230" />
	</node>
	<node id="-834751" lat="68.6182638907" lon="16.0545111019">
		<tag k="fixme" v="consider natural=peak for the most distinct mountains in the district" />
		<tag k="name" v="Middagsfjellet" />
		<tag k="natural" v="hill" />
		<tag k="place" v="locality" />
		<tag k="ssr:stedsnr" v="442228" />
	</node>
	<node id="-834748" lat="68.8117166676" lon="16.1089944483">
		<tag k="name" v="Risnakken" />
		<tag k="natural" v="hill" />
		<tag k="place" v="locality" />
		<tag k="ssr:stedsnr" v="442127" />
	</node>
	<node id="-834743" lat="68.6293916665" lon="15.9066333228">
		<tag k="name" v="Slåttebakkan" />
		<tag k="natural" v="slope" />
		<tag k="place" v="locality" />
		<tag k="ssr:stedsnr" v="295992" />
	</node>
	<node id="-834741" lat="68.6273611092" lon="15.8259138823">
		<tag k="name" v="Steile" />
		<tag k="natural" v="slope" />
		<tag k="place" v="locality" />
		<tag k="ssr:stedsnr" v="294981" />
	</node>
	<node id="-834739" lat="68.5644250038" lon="15.7863138884">
		<tag k="name" v="Tjyvskaret" />
		<tag k="natural" v="valley" />
		<tag k="place" v="locality" />
		<tag k="ssr:stedsnr" v="294942" />
	</node>
	<node id="-834736" lat="68.5931944481" lon="15.7681000055">
		<tag k="alt_name" v="Hompen" />
		<tag k="name" v="Humpen" />
		<tag k="natural" v="hill" />
		<tag k="place" v="locality" />
		<tag k="ssr:stedsnr" v="294854" />
	</node>
	<node id="-834735" lat="68.4955277756" lon="15.7144555622">
		<tag k="name" v="Stordalsaksla" />
		<tag k="place" v="locality" />
		<tag k="ssr:stedsnr" v="294792" />
	</node>
	<node id="-834734" lat="68.7240250024" lon="16.2478111114">
		<tag k="name" v="Bjørnlihågen" />
		<tag k="natural" v="hill" />
		<tag k="place" v="locality" />
		<tag k="ssr:stedsnr" v="294747" />
	</node>
	<node id="-834733" lat="68.7391444396" lon="16.122663899">
		<tag k="name" v="Laberget" />
		<tag k="natural" v="hill" />
		<tag k="place" v="locality" />
		<tag k="ssr:stedsnr" v="294740" />
	</node>
	<node id="-834731" lat="68.8389194481" lon="16.1595583233">
		<tag k="name" v="Per-Andersahågen" />
		<tag k="natural" v="hill" />
		<tag k="place" v="locality" />
		<tag k="ssr:stedsnr" v="294664" />
	</node>
	<node id="-834730" lat="68.6686694404" lon="16.3573777875">
		<tag k="name" v="Storåkeren" />
		<tag k="natural" v="slope" />
		<tag k="place" v="locality" />
		<tag k="ssr:stedsnr" v="294642" />
	</node>
	<node id="-834729" lat="68.6751722231" lon="16.3476277659">
		<tag k="name" v="Skjellsteinhågen" />
		<tag k="natural" v="hill" />
		<tag k="place" v="locality" />
		<tag k="ssr:stedsnr" v="294635" />
	</node>
	<node id="-834727" lat="68.6734361094" lon="16.2781138963">
		<tag k="fixme" v="consider natural=peak for the most distinct mountains in the district" />
		<tag k="name" v="Vaddas" />
		<tag k="natural" v="hill" />
		<tag k="place" v="locality" />
		<tag k="ssr:stedsnr" v="294627" />
	</node>
	<node id="-834725" lat="68.6948805535" lon="16.378152767">
		<tag k="name" v="Olaslåtten" />
		<tag k="place" v="locality" />
		<tag k="ssr:stedsnr" v="294549" />
	</node>
	<node id="-834724" lat="68.7891944408" lon="16.3341277754">
		<tag k="name" v="Reingjerdhågen" />
		<tag k="natural" v="hill" />
		<tag k="place" v="locality" />
		<tag k="ssr:stedsnr" v="294537" />
	</node>
	<node id="-834722" lat="68.7372083345" lon="16.2873833419">
		<tag k="name" v="Hallsletta" />
		<tag k="place" v="locality" />
		<tag k="ssr:stedsnr" v="294524" />
	</node>
	<node id="-834720" lat="68.7260416666" lon="15.9576277688">
		<tag k="fixme" v="consider natural=peak for the most distinct mountains in the district" />
		<tag k="name" v="Kveita" />
		<tag k="natural" v="hill" />
		<tag k="place" v="locality" />
		<tag k="ssr:stedsnr" v="294489" />
	</node>
	<node id="-834719" lat="68.7286861126" lon="15.9348083267">
		<tag k="name" v="Knorran" />
		<tag k="natural" v="hill" />
		<tag k="place" v="locality" />
		<tag k="ssr:stedsnr" v="294487" />
	</node>
	<node id="-834717" lat="68.6523805528" lon="16.0999333334">
		<tag k="name" v="Oldran" />
		<tag k="natural" v="slope" />
		<tag k="place" v="locality" />
		<tag k="ssr:stedsnr" v="294438" />
	</node>
	<node id="-834716" lat="68.7263361115" lon="16.0554611183">
		<tag k="name" v="Kråkhågen" />
		<tag k="natural" v="hill" />
		<tag k="place" v="locality" />
		<tag k="ssr:stedsnr" v="294419" />
	</node>
	<node id="-834715" lat="68.7784444457" lon="16.0848944447">
		<tag k="name" v="Lian" />
		<tag k="natural" v="slope" />
		<tag k="place" v="locality" />
		<tag k="ssr:stedsnr" v="294416" />
	</node>
	<node id="-834713" lat="68.8352777749" lon="15.9791583227">
		<tag k="name" v="Finngangsletta" />
		<tag k="place" v="locality" />
		<tag k="ssr:stedsnr" v="294403" />
	</node>
	<node id="-834712" lat="68.8621611098" lon="16.029319446">
		<tag k="name" v="Gamvikhågan" />
		<tag k="natural" v="hill" />
		<tag k="place" v="locality" />
		<tag k="ssr:stedsnr" v="294394" />
	</node>
	<node id="-834710" lat="68.7594555544" lon="16.0989138877">
		<tag k="name" v="Saudalen" />
		<tag k="natural" v="valley" />
		<tag k="place" v="locality" />
		<tag k="ssr:stedsnr" v="294334" />
	</node>
	<node id="-834705" lat="68.6404333372" lon="15.8916583432">
		<tag k="name" v="Vassvikklubben" />
		<tag k="natural" v="hill" />
		<tag k="place" v="locality" />
		<tag k="ssr:stedsnr" v="294076" />
	</node>
	<node id="-834704" lat="68.6532499974" lon="15.9530416688">
		<tag k="name" v="Aksla" />
		<tag k="place" v="locality" />
		<tag k="ssr:stedsnr" v="294045" />
	</node>
	<node id="-834703" lat="68.6573055567" lon="16.0325666592">
		<tag k="name" v="Åklodalen" />
		<tag k="natural" v="valley" />
		<tag k="place" v="locality" />
		<tag k="ssr:stedsnr" v="294037" />
	</node>
	<node id="-834702" lat="68.6633861076" lon="16.0240527676">
		<tag k="fixme" v="consider natural=peak for the most distinct mountains in the district" />
		<tag k="name" v="Frammerfjellet" />
		<tag k="natural" v="hill" />
		<tag k="place" v="locality" />
		<tag k="ssr:stedsnr" v="294031" />
	</node>
	<node id="-834700" lat="68.6338222199" lon="16.0380277872">
		<tag k="name" v="Svartdalen" />
		<tag k="natural" v="valley" />
		<tag k="place" v="locality" />
		<tag k="ssr:stedsnr" v="294004" />
	</node>
	<node id="-834699" lat="68.5909333296" lon="15.6977499967">
		<tag k="fixme" v="consider natural=peak for the most distinct mountains in the district" />
		<tag k="name" v="Reinspælen" />
		<tag k="natural" v="hill" />
		<tag k="place" v="locality" />
		<tag k="ssr:stedsnr" v="200803" />
	</node>
	<node id="-834696" lat="68.6161305562" lon="15.6781833367">
		<tag k="name" v="Langnesbergan" />
		<tag k="natural" v="hill" />
		<tag k="place" v="locality" />
		<tag k="ssr:stedsnr" v="293770" />
	</node>
	<node id="-834695" lat="68.5597805587" lon="15.7591138871">
		<tag k="name" v="Vedberget" />
		<tag k="natural" v="hill" />
		<tag k="place" v="locality" />
		<tag k="ssr:stedsnr" v="293761" />
	</node>
	<node id="-834694" lat="68.8008027748" lon="16.237883323">
		<tag k="alt_name" v="Rundhaugen" />
		<tag k="name" v="Rundhågen" />
		<tag k="natural" v="hill" />
		<tag k="place" v="locality" />
		<tag k="ssr:stedsnr" v="200520" />
	</node>
	<node id="-834692" lat="68.8246027801" lon="16.2130472215">
		<tag k="fixme" v="consider natural=peak for the most distinct mountains in the district" />
		<tag k="loc_name:se" v="Stuorčoarvi" />
		<tag k="name" v="Storhornet" />
		<tag k="name:no" v="Storhornet" />
		<tag k="natural" v="hill" />
		<tag k="place" v="locality" />
		<tag k="ssr:stedsnr" v="200114" />
	</node>
	<node id="-834691" lat="68.6317111077" lon="15.6499166721">
		<tag k="fixme" v="consider natural=peak for the most distinct mountains in the district" />
		<tag k="name" v="Bjørnlitinden" />
		<tag k="natural" v="hill" />
		<tag k="place" v="locality" />
		<tag k="ssr:stedsnr" v="199336" />
	</node>
	<node id="-834688" lat="68.6276277749" lon="15.6537611052">
		<tag k="name" v="Bjørnlia" />
		<tag k="natural" v="slope" />
		<tag k="place" v="locality" />
		<tag k="ssr:stedsnr" v="199213" />
	</node>
	<node id="-834687" lat="68.5933527774" lon="15.6987222205">
		<tag k="fixme" v="consider natural=peak for the most distinct mountains in the district" />
		<tag k="name" v="Tverrelvtindan" />
		<tag k="natural" v="hill" />
		<tag k="place" v="locality" />
		<tag k="ssr:stedsnr" v="199208" />
	</node>
	<node id="-834686" lat="68.6708499962" lon="16.3652055468">
		<tag k="loc_name:se" v="Siidagasdievvá" />
		<tag k="name" v="Stallhågen" />
		<tag k="name:no" v="Stallhågen" />
		<tag k="natural" v="hill" />
		<tag k="place" v="locality" />
		<tag k="ssr:stedsnr" v="283576" />
	</node>
	<node id="-834685" lat="68.7474861145" lon="16.2913027788">
		<tag k="name" v="Røyrbakkan" />
		<tag k="natural" v="slope" />
		<tag k="place" v="locality" />
		<tag k="ssr:stedsnr" v="173503" />
	</node>
	<node id="-834684" lat="68.6359305558" lon="16.0851111144">
		<tag k="name" v="Lian" />
		<tag k="natural" v="slope" />
		<tag k="place" v="locality" />
		<tag k="ssr:stedsnr" v="173425" />
	</node>
	<node id="-834681" lat="68.6932611106" lon="16.041724996">
		<tag k="name" v="Vikhågen" />
		<tag k="natural" v="hill" />
		<tag k="place" v="locality" />
		<tag k="ssr:stedsnr" v="172516" />
	</node>
	<node id="-834679" lat="68.663" lon="15.7914500054">
		<tag k="fixme" v="consider natural=peak for the most distinct mountains in the district" />
		<tag k="name" v="Sørdalsaksla" />
		<tag k="natural" v="hill" />
		<tag k="place" v="locality" />
		<tag k="ssr:stedsnr" v="139279" />
	</node>
	<node id="-834677" lat="68.6945222259" lon="16.0697249903">
		<tag k="alt_name:no" v="Refsnestinden" />
		<tag k="fixme" v="consider natural=peak for the most distinct mountains in the district" />
		<tag k="loc_name:se" v="Geahčevárri" />
		<tag k="name" v="Revsnestinden" />
		<tag k="name:no" v="Revsnestinden" />
		<tag k="natural" v="hill" />
		<tag k="place" v="locality" />
		<tag k="ssr:stedsnr" v="139254" />
	</node>
	<node id="-834674" lat="68.6828805515" lon="16.3386333317">
		<tag k="name" v="Lampedalen" />
		<tag k="natural" v="valley" />
		<tag k="place" v="locality" />
		<tag k="ssr:stedsnr" v="263134" />
	</node>
	<node id="-834672" lat="68.6626361065" lon="16.3099222317">
		<tag k="fixme" v="consider natural=peak for the most distinct mountains in the district" />
		<tag k="loc_name:se" v="Stahkkačohkka" />
		<tag k="name" v="Stakketind" />
		<tag k="name:no" v="Stakketind" />
		<tag k="natural" v="hill" />
		<tag k="place" v="locality" />
		<tag k="ssr:stedsnr" v="263088" />
	</node>
	<node id="-834671" lat="68.6615638913" lon="16.3529527878">
		<tag k="fixme" v="consider natural=peak for the most distinct mountains in the district" />
		<tag k="loc_name:se" v="Gásbeaivárri" />
		<tag k="name" v="Middagsfjellet" />
		<tag k="name:no" v="Middagsfjellet" />
		<tag k="natural" v="hill" />
		<tag k="place" v="locality" />
		<tag k="ssr:stedsnr" v="263086" />
	</node>
	<node id="-834670" lat="68.6751138866" lon="16.3906916564">
		<tag k="fixme" v="consider natural=peak for the most distinct mountains in the district" />
		<tag k="name" v="Øvergårdsfjellet" />
		<tag k="natural" v="hill" />
		<tag k="place" v="locality" />
		<tag k="ssr:stedsnr" v="262118" />
	</node>
	<node id="-834667" lat="68.5674472216" lon="15.8322722115">
		<tag k="name" v="Storhågen" />
		<tag k="natural" v="hill" />
		<tag k="place" v="locality" />
		<tag k="ssr:stedsnr" v="112926" />
	</node>
	<node id="-834664" lat="68.5869694433" lon="15.8334861073">
		<tag k="fixme" v="consider natural=peak for the most distinct mountains in the district" />
		<tag k="name" v="Tennholmskallen" />
		<tag k="natural" v="hill" />
		<tag k="place" v="locality" />
		<tag k="ssr:stedsnr" v="112915" />
	</node>
	<node id="-834663" lat="68.5709861108" lon="15.8362055429">
		<tag k="name" v="Flathaugen" />
		<tag k="natural" v="hill" />
		<tag k="place" v="locality" />
		<tag k="ssr:stedsnr" v="112906" />
	</node>
	<node id="-834662" lat="68.5706777807" lon="15.8249611164">
		<tag k="name" v="Pålberget" />
		<tag k="natural" v="hill" />
		<tag k="place" v="locality" />
		<tag k="ssr:stedsnr" v="112904" />
	</node>
	<node id="-834658" lat="68.539069445" lon="15.7746055515">
		<tag k="name" v="Ausa" />
		<tag k="natural" v="hill" />
		<tag k="place" v="locality" />
		<tag k="ssr:stedsnr" v="112821" />
	</node>
	<node id="-834653" lat="68.7372083345" lon="16.2873833419">
		<tag k="name" v="Fagerdalen" />
		<tag k="natural" v="valley" />
		<tag k="place" v="locality" />
		<tag k="ssr:stedsnr" v="112516" />
	</node>
	<node id="-834650" lat="68.733680554" lon="16.0731777671">
		<tag k="fixme" v="consider natural=peak for the most distinct mountains in the district" />
		<tag k="name" v="Vassåsen" />
		<tag k="natural" v="hill" />
		<tag k="place" v="locality" />
		<tag k="ssr:stedsnr" v="112423" />
	</node>
	<node id="-834649" lat="68.6482305555" lon="15.8084194363">
		<tag k="name" v="Grasneslia" />
		<tag k="natural" v="slope" />
		<tag k="place" v="locality" />
		<tag k="ssr:stedsnr" v="112204" />
	</node>
	<node id="-834648" lat="68.7380055588" lon="16.1063138969">
		<tag k="fixme" v="consider natural=peak for the most distinct mountains in the district" />
		<tag k="name" v="Slåttefjellet" />
		<tag k="natural" v="hill" />
		<tag k="place" v="locality" />
		<tag k="ssr:stedsnr" v="112331" />
	</node>
	<node id="-834646" lat="68.6631416661" lon="15.9689361025">
		<tag k="name" v="Sætran" />
		<tag k="natural" v="slope" />
		<tag k="place" v="locality" />
		<tag k="ssr:stedsnr" v="112028" />
	</node>
	<node id="-834644" lat="68.6714361094" lon="15.9895250102">
		<tag k="name" v="Svartberget" />
		<tag k="natural" v="hill" />
		<tag k="place" v="locality" />
		<tag k="ssr:stedsnr" v="112010" />
	</node>
	<node id="-834643" lat="68.673836109" lon="16.0088777874">
		<tag k="name" v="Sildeberget" />
		<tag k="natural" v="hill" />
		<tag k="place" v="locality" />
		<tag k="ssr:stedsnr" v="112009" />
	</node>
	<node id="-834642" lat="68.7018805518" lon="16.1351916586">
		<tag k="fixme" v="consider natural=peak for the most distinct mountains in the district" />
		<tag k="name" v="Tverrfjellet" />
		<tag k="natural" v="hill" />
		<tag k="place" v="locality" />
		<tag k="ssr:stedsnr" v="261198" />
	</node>
	<node id="-834640" lat="68.7850388902" lon="16.1560611197">
		<tag k="fixme" v="consider natural=peak for the most distinct mountains in the district" />
		<tag k="name" v="Trastadåsen" />
		<tag k="natural" v="hill" />
		<tag k="place" v="locality" />
		<tag k="ssr:stedsnr" v="261069" />
	</node>
	<node id="-834637" lat="68.7370944479" lon="16.3250333245">
		<tag k="alt_name" v="Ramnskardheia" />
		<tag k="name" v="Ramnskarheia" />
		<tag k="natural" v="hill" />
		<tag k="place" v="locality" />
		<tag k="ssr:stedsnr" v="260974" />
	</node>
	<node id="-834633" lat="68.5629666628" lon="15.773838876">
		<tag k="name" v="Løbergsaksla" />
		<tag k="natural" v="hill" />
		<tag k="place" v="locality" />
		<tag k="ssr:stedsnr" v="260869" />
	</node>
	<node id="-834631" lat="68.5789138876" lon="15.7624388967">
		<tag k="fixme" v="consider natural=peak for the most distinct mountains in the district" />
		<tag k="name" v="Rundskardtinden" />
		<tag k="natural" v="hill" />
		<tag k="place" v="locality" />
		<tag k="ssr:stedsnr" v="260862" />
	</node>
	<node id="-834629" lat="68.5836249973" lon="15.6773138921">
		<tag k="name" v="Våtvollskardet" />
		<tag k="natural" v="valley" />
		<tag k="place" v="locality" />
		<tag k="ssr:stedsnr" v="260860" />
	</node>
	<node id="-834628" lat="68.767694445" lon="16.3034166729">
		<tag k="alt_name" v="Storhaugen" />
		<tag k="name" v="Storhågen" />
		<tag k="natural" v="hill" />
		<tag k="place" v="locality" />
		<tag k="ssr:stedsnr" v="260482" />
	</node>
	<node id="-834627" lat="68.7740444439" lon="16.3626138919">
		<tag k="fixme" v="consider natural=peak for the most distinct mountains in the district" />
		<tag k="name" v="Tennvassåsen" />
		<tag k="natural" v="hill" />
		<tag k="place" v="locality" />
		<tag k="ssr:stedsnr" v="260479" />
	</node>
	<node id="-834624" lat="68.6161138878" lon="16.0455027703">
		<tag k="name" v="Jonsheimskardet" />
		<tag k="natural" v="valley" />
		<tag k="place" v="locality" />
		<tag k="ssr:stedsnr" v="260389" />
	</node>
	<node id="-834623" lat="68.6256638906" lon="16.0653833405">
		<tag k="name" v="Austerdalen - Čietnjalisvággi" />
		<tag k="name:no" v="Austerdalen" />
		<tag k="name:se" v="Čietnjalisvággi" />
		<tag k="natural" v="valley" />
		<tag k="place" v="locality" />
		<tag k="ssr:stedsnr" v="260387" />
	</node>
	<node id="-834620" lat="68.6405805571" lon="15.9052472261">
		<tag k="name" v="Vassvikklubben" />
		<tag k="natural" v="hill" />
		<tag k="place" v="locality" />
		<tag k="ssr:stedsnr" v="260373" />
	</node>
	<node id="-834619" lat="68.6489666674" lon="16.0070944388">
		<tag k="fixme" v="consider natural=peak for the most distinct mountains in the district" />
		<tag k="loc_name:se" v="Geaipe" />
		<tag k="name" v="Reinfjellet" />
		<tag k="name:no" v="Reinfjellet" />
		<tag k="natural" v="hill" />
		<tag k="place" v="locality" />
		<tag k="ssr:stedsnr" v="260351" />
	</node>
	<node id="-834615" lat="68.6628805585" lon="15.9939861005">
		<tag k="fixme" v="consider natural=peak for the most distinct mountains in the district" />
		<tag k="name" v="Hellaksla" />
		<tag k="natural" v="hill" />
		<tag k="place" v="locality" />
		<tag k="ssr:stedsnr" v="260337" />
	</node>
	<node id="-834612" lat="68.7540019161" lon="16.150012798">
		<tag k="alt_name" v="Storhaugen" />
		<tag k="name" v="Storhågen" />
		<tag k="natural" v="hill" />
		<tag k="place" v="locality" />
		<tag k="ssr:stedsnr" v="260332" />
	</node>
	<node id="-834608" lat="68.7633238436" lon="16.1152879044">
		<tag k="fixme" v="consider natural=peak for the most distinct mountains in the district" />
		<tag k="name" v="Rasmusfjellet" />
		<tag k="natural" v="hill" />
		<tag k="place" v="locality" />
		<tag k="ssr:stedsnr" v="260196" />
	</node>
	<node id="-834597" lat="68.5790083321" lon="15.7938999967">
		<tag k="name" v="Kvalshausen" />
		<tag k="natural" v="hill" />
		<tag k="place" v="locality" />
		<tag k="ssr:stedsnr" v="52865" />
	</node>
	<node id="-834595" lat="68.6139888908" lon="15.8354611028">
		<tag k="fixme" v="consider natural=peak for the most distinct mountains in the district" />
		<tag k="name" v="Nakketinden" />
		<tag k="natural" v="hill" />
		<tag k="ssr:stedsnr" v="52965" />
	</node>
	<node id="-834592" lat="68.6703777796" lon="16.3625527737">
		<tag k="name" v="Hulderberget" />
		<tag k="natural" v="hill" />
		<tag k="place" v="locality" />
		<tag k="ssr:stedsnr" v="52569" />
	</node>
	<node id="-834591" lat="68.6727694425" lon="16.2534305607">
		<tag k="name" v="Storkjeipen" />
		<tag k="natural" v="hill" />
		<tag k="place" v="locality" />
		<tag k="ssr:stedsnr" v="52564" />
	</node>
	<node id="-834590" lat="68.749588888" lon="16.3071166647">
		<tag k="name" v="Marenlaen" />
		<tag k="place" v="locality" />
		<tag k="ssr:stedsnr" v="52515" />
	</node>
	<node id="-834588" lat="68.7499527818" lon="16.2611361073">
		<tag k="name" v="Svartdalen" />
		<tag k="natural" v="valley" />
		<tag k="place" v="locality" />
		<tag k="ssr:stedsnr" v="52507" />
	</node>
	<node id="-834587" lat="68.7468027774" lon="16.2680777852">
		<tag k="name" v="Brokan" />
		<tag k="natural" v="slope" />
		<tag k="place" v="locality" />
		<tag k="ssr:stedsnr" v="52504" />
	</node>
	<node id="-834586" lat="68.7697222225" lon="16.0855333281">
		<tag k="name" v="Haugtua" />
		<tag k="natural" v="hill" />
		<tag k="place" v="locality" />
		<tag k="ssr:stedsnr" v="52365" />
	</node>
	<node id="-834585" lat="68.7755305534" lon="16.0731055471">
		<tag k="name" v="Ravdalen" />
		<tag k="natural" v="valley" />
		<tag k="place" v="locality" />
		<tag k="ssr:stedsnr" v="52362" />
	</node>
	<node id="-834584" lat="68.8421749986" lon="15.9812777691">
		<tag k="name" v="Skaret" />
		<tag k="natural" v="valley" />
		<tag k="place" v="locality" />
		<tag k="ssr:stedsnr" v="52353" />
	</node>
	<node id="-834583" lat="68.7372305519" lon="16.2739777803">
		<tag k="name" v="Nonshågen" />
		<tag k="natural" v="hill" />
		<tag k="place" v="locality" />
		<tag k="ssr:stedsnr" v="52452" />
	</node>
	<node id="-834577" lat="68.6758916705" lon="15.88545001">
		<tag k="alt_name" v="Hompen" />
		<tag k="name" v="Humpen" />
		<tag k="natural" v="hill" />
		<tag k="place" v="locality" />
		<tag k="ssr:stedsnr" v="52155" />
	</node>
	<node id="-834575" lat="68.6366527755" lon="16.0504722192">
		<tag k="name" v="Holmeberget" />
		<tag k="natural" v="hill" />
		<tag k="place" v="locality" />
		<tag k="ssr:stedsnr" v="52059" />
	</node>
	<node id="-834574" lat="68.6679194488" lon="15.9825583292">
		<tag k="name" v="Reinvomma" />
		<tag k="natural" v="slope" />
		<tag k="place" v="locality" />
		<tag k="ssr:stedsnr" v="52012" />
	</node>
	<node id="-834573" lat="68.6197388858" lon="16.0809527818">
		<tag k="name" v="Fossbakken" />
		<tag k="natural" v="slope" />
		<tag k="place" v="locality" />
		<tag k="ssr:stedsnr" v="52009" />
	</node>
	<node id="-834572" lat="68.612375003" lon="15.7430388982">
		<tag k="name" v="Knotterhågen" />
		<tag k="natural" v="hill" />
		<tag k="place" v="locality" />
		<tag k="ssr:stedsnr" v="51802" />
	</node>
	<node id="-834571" lat="68.7099166623" lon="16.3315222259">
		<tag k="name" v="Kusletta" />
		<tag k="place" v="locality" />
		<tag k="ssr:stedsnr" v="51611" />
	</node>
	<node id="-834570" lat="68.724999997" lon="16.3683416615">
		<tag k="name" v="Gråheia" />
		<tag k="natural" v="hill" />
		<tag k="place" v="locality" />
		<tag k="ssr:stedsnr" v="51610" />
	</node>
	<node id="-834568" lat="68.7190000038" lon="16.17299166">
		<tag k="name" v="Vedhøggan" />
		<tag k="natural" v="slope" />
		<tag k="place" v="locality" />
		<tag k="ssr:stedsnr" v="51464" />
	</node>
	<node id="-834564" lat="68.7272194473" lon="16.1680666577">
		<tag k="fixme" v="consider natural=peak for the most distinct mountains in the district" />
		<tag k="name" v="Grønnkollen" />
		<tag k="natural" v="hill" />
		<tag k="place" v="locality" />
		<tag k="ssr:stedsnr" v="234749" />
	</node>
	<node id="-834562" lat="68.8428055582" lon="15.9842972119">
		<tag k="name" v="Lunnekova" />
		<tag k="natural" v="hill" />
		<tag k="place" v="locality" />
		<tag k="ssr:stedsnr" v="234379" />
	</node>
	<node id="-834560" lat="68.7520277765" lon="16.2954972089">
		<tag k="fixme" v="consider natural=peak for the most distinct mountains in the district" />
		<tag k="name" v="Teppan" />
		<tag k="natural" v="hill" />
		<tag k="place" v="locality" />
		<tag k="ssr:stedsnr" v="234521" />
	</node>
	<node id="-834555" lat="68.5217527766" lon="15.7369916765">
		<tag k="fixme" v="consider natural=peak for the most distinct mountains in the district" />
		<tag k="name" v="Kjeipen" />
		<tag k="natural" v="hill" />
		<tag k="place" v="locality" />
		<tag k="ssr:stedsnr" v="233818" />
	</node>
	<node id="-834553" lat="68.5826194487" lon="15.7705666591">
		<tag k="name" v="Skjellnesdalen" />
		<tag k="natural" v="valley" />
		<tag k="place" v="locality" />
		<tag k="ssr:stedsnr" v="233797" />
	</node>
	<node id="-834552" lat="68.7258222207" lon="16.178300007">
		<tag k="name" v="Øvste Dalbakkan" />
		<tag k="natural" v="slope" />
		<tag k="place" v="locality" />
		<tag k="ssr:stedsnr" v="233788" />
	</node>
	<node id="-834550" lat="68.7301888922" lon="16.2470416649">
		<tag k="name" v="Skreddaren" />
		<tag k="natural" v="slope" />
		<tag k="place" v="locality" />
		<tag k="ssr:stedsnr" v="233778" />
	</node>
	<node id="-834549" lat="68.7306250017" lon="16.2414027851">
		<tag k="name" v="Storholla" />
		<tag k="natural" v="valley" />
		<tag k="place" v="locality" />
		<tag k="ssr:stedsnr" v="233777" />
	</node>
	<node id="-834548" lat="68.734002776" lon="16.1371166616">
		<tag k="name" v="Langeteigan" />
		<tag k="natural" v="slope" />
		<tag k="place" v="locality" />
		<tag k="ssr:stedsnr" v="233771" />
	</node>
	<node id="-834547" lat="68.7365138847" lon="16.1334472198">
		<tag k="name" v="Moa" />
		<tag k="place" v="locality" />
		<tag k="ssr:stedsnr" v="233769" />
	</node>
	<node id="-834545" lat="68.6607138914" lon="16.3619166677">
		<tag k="name" v="Litjeskaret" />
		<tag k="natural" v="valley" />
		<tag k="place" v="locality" />
		<tag k="ssr:stedsnr" v="233652" />
	</node>
	<node id="-834544" lat="68.6502027755" lon="16.0931305478">
		<tag k="name" v="Skredan" />
		<tag k="natural" v="slope" />
		<tag k="place" v="locality" />
		<tag k="ssr:stedsnr" v="233497" />
	</node>
	<node id="-834541" lat="68.7177055573" lon="16.2052277741">
		<tag k="name" v="Slåtten" />
		<tag k="natural" v="slope" />
		<tag k="place" v="locality" />
		<tag k="ssr:stedsnr" v="233447" />
	</node>
	<node id="-834540" lat="68.7876638869" lon="16.0694694548">
		<tag k="name" v="Vardehågen" />
		<tag k="natural" v="hill" />
		<tag k="place" v="locality" />
		<tag k="ssr:stedsnr" v="233440" />
	</node>
	<node id="-834539" lat="68.7344777814" lon="16.1087472291">
		<tag k="name" v="Rødlibergan" />
		<tag k="natural" v="hill" />
		<tag k="place" v="locality" />
		<tag k="ssr:stedsnr" v="233330" />
	</node>
	<node id="-834537" lat="68.5971027747" lon="15.8196000072">
		<tag k="name" v="Skjåberget" />
		<tag k="natural" v="hill" />
		<tag k="place" v="locality" />
		<tag k="ssr:stedsnr" v="233222" />
	</node>
	<node id="-834536" lat="68.5949750022" lon="15.8150916789">
		<tag k="name" v="Kvitberget" />
		<tag k="natural" v="hill" />
		<tag k="place" v="locality" />
		<tag k="ssr:stedsnr" v="233219" />
	</node>
	<node id="-834535" lat="68.5937527784" lon="15.8349500035">
		<tag k="name" v="Durmålslegda" />
		<tag k="natural" v="slope" />
		<tag k="place" v="locality" />
		<tag k="ssr:stedsnr" v="233214" />
	</node>
	<node id="-834533" lat="68.6552027755" lon="15.8464805614">
		<tag k="name" v="Kuholla" />
		<tag k="natural" v="valley" />
		<tag k="place" v="locality" />
		<tag k="ssr:stedsnr" v="233193" />
	</node>
	<node id="-834529" lat="68.6635194476" lon="15.8790444531">
		<tag k="name" v="Aspen" />
		<tag k="natural" v="slope" />
		<tag k="place" v="locality" />
		<tag k="ssr:stedsnr" v="233171" />
	</node>
	<node id="-834526" lat="68.6382611075" lon="15.9185305585">
		<tag k="fixme" v="consider natural=peak for the most distinct mountains in the district" />
		<tag k="name" v="Aspefjellet" />
		<tag k="natural" v="hill" />
		<tag k="place" v="locality" />
		<tag k="ssr:stedsnr" v="233092" />
	</node>
	<node id="-834524" lat="68.6349111069" lon="15.9109277824">
		<tag k="name" v="Strupen" />
		<tag k="natural" v="valley" />
		<tag k="place" v="locality" />
		<tag k="ssr:stedsnr" v="233080" />
	</node>
	<node id="-834523" lat="68.639797226" lon="15.9540055682">
		<tag k="name" v="Lahågen" />
		<tag k="natural" v="hill" />
		<tag k="place" v="locality" />
		<tag k="ssr:stedsnr" v="233051" />
	</node>
	<node id="-834516" lat="68.7829916662" lon="16.1946361194">
		<tag k="alt_name" v="Falkhaugen" />
		<tag k="name" v="Falkhågen" />
		<tag k="natural" v="hill" />
		<tag k="place" v="locality" />
		<tag k="ssr:stedsnr" v="17205" />
	</node>
	<node id="-836354" lat="68.6332055529" lon="15.9116361103">
		<tag k="name" v="Litjehjelmen" />
		<tag k="natural" v="slope" />
		<tag k="place" v="locality" />
		<tag k="ssr:stedsnr" v="962995" />
	</node>
	<node id="-836352" lat="68.5098833338" lon="15.7595444561">
		<tag k="fixme" v="consider natural=peak for the most distinct mountains in the district" />
		<tag k="name" v="Famnvedkollen" />
		<tag k="natural" v="hill" />
		<tag k="place" v="locality" />
		<tag k="ssr:stedsnr" v="962784" />
	</node>
	<node id="-836350" lat="68.8143527789" lon="16.1128138788">
		<tag k="name" v="Tyttebærhågen" />
		<tag k="natural" v="hill" />
		<tag k="place" v="locality" />
		<tag k="ssr:stedsnr" v="962611" />
	</node>
	<node id="-836349" lat="68.8330999995" lon="16.2273333331">
		<tag k="loc_name" v="Finnkonndalen" />
		<tag k="name" v="Finnkolldalen" />
		<tag k="natural" v="valley" />
		<tag k="place" v="locality" />
		<tag k="ssr:stedsnr" v="962609" />
	</node>
	<node id="-836348" lat="68.7076777739" lon="16.2701472203">
		<tag k="fixme" v="consider natural=peak for the most distinct mountains in the district" />
		<tag k="name" v="Trettevollfjellet" />
		<tag k="natural" v="hill" />
		<tag k="place" v="locality" />
		<tag k="ssr:stedsnr" v="962601" />
	</node>
	<node id="-836347" lat="68.7181249956" lon="16.2820611118">
		<tag k="name" v="Finnjorda" />
		<tag k="place" v="locality" />
		<tag k="ssr:stedsnr" v="962594" />
	</node>
	<node id="-836345" lat="68.7973249957" lon="16.1197916735">
		<tag k="fixme" v="consider natural=peak for the most distinct mountains in the district" />
		<tag k="name" v="Skallen" />
		<tag k="natural" v="hill" />
		<tag k="place" v="locality" />
		<tag k="ssr:stedsnr" v="962680" />
	</node>
	<node id="-836343" lat="68.7403277799" lon="16.2699749977">
		<tag k="name" v="Svarteberget" />
		<tag k="natural" v="hill" />
		<tag k="place" v="locality" />
		<tag k="ssr:stedsnr" v="962545" />
	</node>
	<node id="-836342" lat="68.7351888869" lon="16.2952166561">
		<tag k="name" v="Guriberget" />
		<tag k="natural" v="hill" />
		<tag k="place" v="locality" />
		<tag k="ssr:stedsnr" v="962543" />
	</node>
	<node id="-836340" lat="68.7480749976" lon="16.2811166602">
		<tag k="fixme" v="consider natural=peak for the most distinct mountains in the district" />
		<tag k="name" v="Voktorfjellet" />
		<tag k="natural" v="hill" />
		<tag k="place" v="locality" />
		<tag k="ssr:stedsnr" v="962533" />
	</node>
	<node id="-836339" lat="68.7352000012" lon="16.2863222215">
		<tag k="name" v="Grønnskaret" />
		<tag k="natural" v="valley" />
		<tag k="place" v="locality" />
		<tag k="ssr:stedsnr" v="962502" />
	</node>
	<node id="-836335" lat="68.7654583371" lon="16.0875944535">
		<tag k="name" v="Grinddalen" />
		<tag k="natural" v="valley" />
		<tag k="place" v="locality" />
		<tag k="ssr:stedsnr" v="962380" />
	</node>
	<node id="-836334" lat="68.6763138904" lon="15.8700055486">
		<tag k="name" v="Blomhollskaret" />
		<tag k="natural" v="valley" />
		<tag k="place" v="locality" />
		<tag k="ssr:stedsnr" v="962147" />
	</node>
	<node id="-836330" lat="68.6513305565" lon="15.9331583235">
		<tag k="name" v="Sletten" />
		<tag k="place" v="locality" />
		<tag k="ssr:stedsnr" v="962088" />
	</node>
	<node id="-836329" lat="68.6480944414" lon="15.9463583264">
		<tag k="fixme" v="consider natural=peak for the most distinct mountains in the district" />
		<tag k="name" v="Stortuva" />
		<tag k="natural" v="hill" />
		<tag k="place" v="locality" />
		<tag k="ssr:stedsnr" v="962050" />
	</node>
	<node id="-836328" lat="68.6497916646" lon="15.9586361179">
		<tag k="fixme" v="consider natural=peak for the most distinct mountains in the district" />
		<tag k="name" v="Grønnkollen" />
		<tag k="natural" v="hill" />
		<tag k="place" v="locality" />
		<tag k="ssr:stedsnr" v="962048" />
	</node>
	<node id="-836327" lat="68.6554388891" lon="15.9453638955">
		<tag k="name" v="Høyberget" />
		<tag k="natural" v="hill" />
		<tag k="place" v="locality" />
		<tag k="ssr:stedsnr" v="962043" />
	</node>
	<node id="-836326" lat="68.6680555569" lon="16.0919027787">
		<tag k="name" v="Fjellbakkan" />
		<tag k="natural" v="slope" />
		<tag k="place" v="locality" />
		<tag k="ssr:stedsnr" v="962035" />
	</node>
	<node id="-836325" lat="68.6735527774" lon="16.0827888849">
		<tag k="name" v="Bjørnlia" />
		<tag k="natural" v="slope" />
		<tag k="place" v="locality" />
		<tag k="ssr:stedsnr" v="962032" />
	</node>
	<node id="-836323" lat="68.6311611071" lon="16.0371361112">
		<tag k="name" v="Lasletten" />
		<tag k="place" v="locality" />
		<tag k="ssr:stedsnr" v="962002" />
	</node>
	<node id="-836322" lat="68.6396555527" lon="15.9027916668">
		<tag k="name" v="Skaret" />
		<tag k="natural" v="valley" />
		<tag k="place" v="locality" />
		<tag k="ssr:stedsnr" v="962079" />
	</node>
	<node id="-836319" lat="68.5378388868" lon="15.7700527692">
		<tag k="name" v="Grisasteinen" />
		<tag k="natural" v="hill" />
		<tag k="place" v="locality" />
		<tag k="ssr:stedsnr" v="961849" />
	</node>
	<node id="-836318" lat="68.543016667" lon="15.7555277768">
		<tag k="name" v="Soppberget" />
		<tag k="natural" v="hill" />
		<tag k="place" v="locality" />
		<tag k="ssr:stedsnr" v="961845" />
	</node>
	<node id="-836317" lat="68.5389000003" lon="15.7244055658">
		<tag k="name" v="Kvitberget" />
		<tag k="natural" v="hill" />
		<tag k="place" v="locality" />
		<tag k="ssr:stedsnr" v="961841" />
	</node>
	<node id="-836315" lat="68.5617027763" lon="15.7757555665">
		<tag k="name" v="Mikkellia" />
		<tag k="natural" v="slope" />
		<tag k="place" v="locality" />
		<tag k="ssr:stedsnr" v="961798" />
	</node>
	<node id="-836314" lat="68.5879333321" lon="15.7799388761">
		<tag k="name" v="Langrabben" />
		<tag k="natural" v="hill" />
		<tag k="place" v="locality" />
		<tag k="ssr:stedsnr" v="961778" />
	</node>
	<node id="-836313" lat="68.5852722202" lon="15.7687888927">
		<tag k="name" v="Heia" />
		<tag k="natural" v="hill" />
		<tag k="place" v="locality" />
		<tag k="ssr:stedsnr" v="961776" />
	</node>
	<node id="-836312" lat="68.6875055535" lon="16.3177222159">
		<tag k="name" v="Piphågen" />
		<tag k="natural" v="hill" />
		<tag k="place" v="locality" />
		<tag k="ssr:stedsnr" v="961602" />
	</node>
	<node id="-836311" lat="68.6975861126" lon="16.0451388848">
		<tag k="name" v="Kjerringstolen" />
		<tag k="natural" v="hill" />
		<tag k="place" v="locality" />
		<tag k="ssr:stedsnr" v="961497" />
	</node>
	<node id="-836309" lat="68.6738333357" lon="16.1746527656">
		<tag k="name" v="Knorran" />
		<tag k="natural" v="hill" />
		<tag k="place" v="locality" />
		<tag k="ssr:stedsnr" v="961441" />
	</node>
	<node id="-836308" lat="68.7131833357" lon="16.2427249907">
		<tag k="fixme" v="consider natural=peak for the most distinct mountains in the district" />
		<tag k="name" v="Småvassfjellan" />
		<tag k="natural" v="hill" />
		<tag k="place" v="locality" />
		<tag k="ssr:stedsnr" v="961430" />
	</node>
	<node id="-836307" lat="68.7060999998" lon="16.2246944417">
		<tag k="name" v="Barakkhågen" />
		<tag k="natural" v="hill" />
		<tag k="place" v="locality" />
		<tag k="ssr:stedsnr" v="961424" />
	</node>
	<node id="-836305" lat="68.6345694429" lon="15.8650972236">
		<tag k="name" v="Buskeberget" />
		<tag k="natural" v="hill" />
		<tag k="place" v="locality" />
		<tag k="ssr:stedsnr" v="955103" />
	</node>
	<node id="-836303" lat="68.626247224" lon="16.2506277781">
		<tag k="name" v="Melåskardet - Beaibárčahca" />
		<tag k="name:no" v="Melåskardet" />
		<tag k="name:se" v="Beaibárčahca" />
		<tag k="natural" v="valley" />
		<tag k="place" v="locality" />
		<tag k="ssr:stedsnr" v="870003" />
	</node>
	<node id="-836302" lat="68.6834666694" lon="16.4059416767">
		<tag k="alt_name" v="Storskardet" />
		<tag k="name" v="Storskaret" />
		<tag k="natural" v="valley" />
		<tag k="place" v="locality" />
		<tag k="ssr:stedsnr" v="869126" />
	</node>
	<node id="-836298" lat="68.780038887" lon="16.2321083363">
		<tag k="fixme" v="consider natural=peak for the most distinct mountains in the district" />
		<tag k="name" v="Leåsen" />
		<tag k="natural" v="hill" />
		<tag k="place" v="locality" />
		<tag k="ssr:stedsnr" v="868466" />
	</node>
	<node id="-836297" lat="68.6600583301" lon="16.1318277651">
		<tag k="name" v="Dalbotnen" />
		<tag k="natural" v="valley" />
		<tag k="place" v="locality" />
		<tag k="ssr:stedsnr" v="868277" />
	</node>
	<node id="-836293" lat="68.723255554" lon="16.3650666756">
		<tag k="name" v="Gråhøgda" />
		<tag k="natural" v="hill" />
		<tag k="place" v="locality" />
		<tag k="ssr:stedsnr" v="867983" />
	</node>
	<node id="-836290" lat="68.5551527741" lon="15.8080416563">
		<tag k="name" v="Hundnesdalen" />
		<tag k="natural" v="valley" />
		<tag k="place" v="locality" />
		<tag k="ssr:stedsnr" v="867884" />
	</node>
	<node id="-836284" lat="68.7259888889" lon="15.9540583446">
		<tag k="fixme" v="consider natural=peak for the most distinct mountains in the district" />
		<tag k="name" v="Storåstinden" />
		<tag k="natural" v="hill" />
		<tag k="place" v="locality" />
		<tag k="ssr:stedsnr" v="867480" />
	</node>
	<node id="-836283" lat="68.773080557" lon="16.2397805429">
		<tag k="alt_name" v="Harshaugen" />
		<tag k="name" v="Harshågen" />
		<tag k="natural" v="hill" />
		<tag k="place" v="locality" />
		<tag k="ssr:stedsnr" v="867478" />
	</node>
	<node id="-836282" lat="68.7247888923" lon="15.9741583349">
		<tag k="name" v="Sæterdalen" />
		<tag k="natural" v="valley" />
		<tag k="place" v="locality" />
		<tag k="ssr:stedsnr" v="867477" />
	</node>
	<node id="-836281" lat="68.8302499981" lon="16.2379222089">
		<tag k="fixme" v="consider natural=peak for the most distinct mountains in the district" />
		<tag k="name" v="Meraftesfjellet" />
		<tag k="natural" v="hill" />
		<tag k="place" v="locality" />
		<tag k="ssr:stedsnr" v="867433" />
	</node>
	<node id="-836279" lat="68.61584444" lon="16.1801166749">
		<tag k="fixme" v="consider natural=peak for the most distinct mountains in the district" />
		<tag k="name" v="Jakobstinden" />
		<tag k="natural" v="hill" />
		<tag k="ssr:stedsnr" v="867377" />
	</node>
	<node id="-836278" lat="68.6165750025" lon="15.8128027788">
		<tag k="fixme" v="consider natural=peak for the most distinct mountains in the district" />
		<tag k="loc_name:se" v="Náhkki" />
		<tag k="name" v="Nakken" />
		<tag k="name:no" v="Nakken" />
		<tag k="natural" v="hill" />
		<tag k="place" v="locality" />
		<tag k="ssr:stedsnr" v="867368" />
	</node>
	<node id="-836276" lat="68.6268222254" lon="15.718805549">
		<tag k="alt_name" v="Skjellskardet" />
		<tag k="name" v="Skjellskaret" />
		<tag k="natural" v="valley" />
		<tag k="place" v="locality" />
		<tag k="ssr:stedsnr" v="867357" />
	</node>
	<node id="-836270" lat="68.6612194462" lon="15.8565805614">
		<tag k="name" v="Kråkberget" />
		<tag k="natural" v="hill" />
		<tag k="place" v="locality" />
		<tag k="ssr:stedsnr" v="867318" />
	</node>
	<node id="-836269" lat="68.6761194474" lon="15.85115834">
		<tag k="name" v="Storhaugen" />
		<tag k="natural" v="hill" />
		<tag k="place" v="locality" />
		<tag k="ssr:stedsnr" v="867315" />
	</node>
	<node id="-836262" lat="68.836483335" lon="16.1315972118">
		<tag k="alt_name" v="Middagshaugen" />
		<tag k="name" v="Middagshågen" />
		<tag k="natural" v="hill" />
		<tag k="place" v="locality" />
		<tag k="ssr:stedsnr" v="867016" />
	</node>
	<node id="-836253" lat="68.5079527796" lon="15.7450027771">
		<tag k="fixme" v="consider natural=peak for the most distinct mountains in the district" />
		<tag k="name" v="Ressepresten" />
		<tag k="natural" v="hill" />
		<tag k="place" v="locality" />
		<tag k="ssr:stedsnr" v="841780" />
	</node>
	<node id="-836252" lat="68.8229444479" lon="16.2410111069">
		<tag k="fixme" v="consider natural=peak for the most distinct mountains in the district" />
		<tag k="name" v="Nordtind" />
		<tag k="natural" v="hill" />
		<tag k="place" v="locality" />
		<tag k="ssr:stedsnr" v="841636" />
	</node>
	<node id="-836250" lat="68.6661444456" lon="16.3057805444">
		<tag k="fixme" v="consider natural=peak for the most distinct mountains in the district" />
		<tag k="name" v="Skredfjellet" />
		<tag k="natural" v="hill" />
		<tag k="place" v="locality" />
		<tag k="ssr:stedsnr" v="841589" />
	</node>
	<node id="-836249" lat="68.7640337452" lon="16.0996935799">
		<tag k="name" v="Ronen" />
		<tag k="natural" v="valley" />
		<tag k="place" v="locality" />
		<tag k="ssr:stedsnr" v="841698" />
	</node>
	<node id="-836248" lat="68.7859277752" lon="16.1475250107">
		<tag k="name" v="Trastadskaret" />
		<tag k="natural" v="valley" />
		<tag k="place" v="locality" />
		<tag k="ssr:stedsnr" v="841696" />
	</node>
	<node id="-836247" lat="68.7964972249" lon="16.2405472241">
		<tag k="name" v="Rå-Tortenbakkan" />
		<tag k="natural" v="slope" />
		<tag k="place" v="locality" />
		<tag k="ssr:stedsnr" v="841694" />
	</node>
	<node id="-836245" lat="68.637275" lon="15.7666250056">
		<tag k="name" v="Bekkenesdalen" />
		<tag k="natural" v="valley" />
		<tag k="place" v="locality" />
		<tag k="ssr:stedsnr" v="841672" />
	</node>
	<node id="-836242" lat="68.734252778" lon="16.2842666592">
		<tag k="name" v="Grønnskarsletta" />
		<tag k="place" v="locality" />
		<tag k="ssr:stedsnr" v="841494" />
	</node>
	<node id="-836241" lat="68.7129416643" lon="15.9861611087">
		<tag k="name" v="Rørvikhågen" />
		<tag k="natural" v="hill" />
		<tag k="place" v="locality" />
		<tag k="ssr:stedsnr" v="841443" />
	</node>
	<node id="-836239" lat="68.7075166707" lon="16.0503333276">
		<tag k="name" v="Lynghammarhågen" />
		<tag k="natural" v="hill" />
		<tag k="place" v="locality" />
		<tag k="ssr:stedsnr" v="841435" />
	</node>
	<node id="-836238" lat="68.7639222236" lon="16.2370527804">
		<tag k="name" v="Brekka" />
		<tag k="natural" v="hill" />
		<tag k="place" v="locality" />
		<tag k="ssr:stedsnr" v="841299" />
	</node>
	<node id="-836237" lat="68.6610749966" lon="15.8211444491">
		<tag k="name" v="Preikstolen" />
		<tag k="natural" v="hill" />
		<tag k="place" v="locality" />
		<tag k="ssr:stedsnr" v="841149" />
	</node>
	<node id="-836235" lat="68.6777416692" lon="15.8111722303">
		<tag k="name" v="Storliskaret" />
		<tag k="natural" v="valley" />
		<tag k="place" v="locality" />
		<tag k="ssr:stedsnr" v="841105" />
	</node>
	<node id="-836234" lat="68.7157666715" lon="15.9167027673">
		<tag k="name" v="Sørdalsbakkan" />
		<tag k="natural" v="slope" />
		<tag k="place" v="locality" />
		<tag k="ssr:stedsnr" v="841102" />
	</node>
	<node id="-836233" lat="68.6384527817" lon="15.8894972344">
		<tag k="name" v="Svartberget" />
		<tag k="natural" v="hill" />
		<tag k="place" v="locality" />
		<tag k="ssr:stedsnr" v="841088" />
	</node>
	<node id="-836231" lat="68.6385694441" lon="16.0343333425">
		<tag k="fixme" v="consider natural=peak for the most distinct mountains in the district" />
		<tag k="name" v="Bjørnlikollen" />
		<tag k="natural" v="hill" />
		<tag k="place" v="locality" />
		<tag k="ssr:stedsnr" v="841069" />
	</node>
	<node id="-836230" lat="68.5586666674" lon="15.8079833371">
		<tag k="name" v="Tverrbakkhella" />
		<tag k="natural" v="hill" />
		<tag k="place" v="locality" />
		<tag k="ssr:stedsnr" v="840929" />
	</node>
	<node id="-836226" lat="68.6207249999" lon="15.7163222181">
		<tag k="name" v="Forøyskjellet" />
		<tag k="natural" v="slope" />
		<tag k="place" v="locality" />
		<tag k="ssr:stedsnr" v="840799" />
	</node>
	<node id="-836221" lat="68.7239999996" lon="16.0706138901">
		<tag k="name" v="Hestvollan" />
		<tag k="natural" v="hill" />
		<tag k="place" v="locality" />
		<tag k="ssr:stedsnr" v="840401" />
	</node>
	<node id="-836217" lat="68.7309583327" lon="15.9484638797">
		<tag k="name" v="Hammaren" />
		<tag k="natural" v="hill" />
		<tag k="place" v="locality" />
		<tag k="ssr:stedsnr" v="840481" />
	</node>
	<node id="-836211" lat="68.5943583319" lon="15.8198138987">
		<tag k="name" v="Perhågen" />
		<tag k="natural" v="hill" />
		<tag k="place" v="locality" />
		<tag k="ssr:stedsnr" v="840195" />
	</node>
	<node id="-836210" lat="68.5937194418" lon="15.8221527792">
		<tag k="name" v="Skaret" />
		<tag k="natural" v="valley" />
		<tag k="place" v="locality" />
		<tag k="ssr:stedsnr" v="840192" />
	</node>
	<node id="-836209" lat="68.6513638862" lon="15.8727194399">
		<tag k="name" v="Storvikklubben" />
		<tag k="natural" v="hill" />
		<tag k="place" v="locality" />
		<tag k="ssr:stedsnr" v="834096" />
	</node>
	<node id="-836206" lat="68.6190416643" lon="15.6570999988">
		<tag k="name" v="Hompan" />
		<tag k="natural" v="hill" />
		<tag k="place" v="locality" />
		<tag k="ssr:stedsnr" v="825725" />
	</node>
	<node id="-836200" lat="68.7979749972" lon="16.3102500026">
		<tag k="fixme" v="consider natural=peak for the most distinct mountains in the district" />
		<tag k="name" v="Storlitinden" />
		<tag k="natural" v="hill" />
		<tag k="place" v="locality" />
		<tag k="ssr:stedsnr" v="807490" />
	</node>
	<node id="-836195" lat="68.6541500014" lon="15.8687861216">
		<tag k="fixme" v="consider natural=peak for the most distinct mountains in the district" />
		<tag k="name" v="Bogklubben" />
		<tag k="natural" v="hill" />
		<tag k="place" v="locality" />
		<tag k="ssr:stedsnr" v="807276" />
	</node>
	<node id="-836185" lat="68.7144861073" lon="16.3271250011">
		<tag k="name" v="Stupet" />
		<tag k="natural" v="slope" />
		<tag k="place" v="locality" />
		<tag k="ssr:stedsnr" v="806979" />
	</node>
	<node id="-836180" lat="68.5746138887" lon="15.7409972309">
		<tag k="name" v="Våtvolldalen" />
		<tag k="natural" v="valley" />
		<tag k="place" v="locality" />
		<tag k="ssr:stedsnr" v="806859" />
	</node>
	<node id="-836179" lat="68.5230222227" lon="15.755377778">
		<tag k="name" v="Sørdalshøgda" />
		<tag k="natural" v="hill" />
		<tag k="place" v="locality" />
		<tag k="ssr:stedsnr" v="806794" />
	</node>
	<node id="-836175" lat="68.7028444483" lon="16.0952055635">
		<tag k="fixme" v="consider natural=peak for the most distinct mountains in the district" />
		<tag k="name" v="Horntindan" />
		<tag k="natural" v="hill" />
		<tag k="place" v="locality" />
		<tag k="ssr:stedsnr" v="806458" />
	</node>
	<node id="-836173" lat="68.6289333316" lon="16.1477722249">
		<tag k="fixme" v="consider natural=peak for the most distinct mountains in the district" />
		<tag k="name" v="Tverrtindan" />
		<tag k="natural" v="hill" />
		<tag k="place" v="locality" />
		<tag k="ssr:stedsnr" v="806347" />
	</node>
	<node id="-836171" lat="68.626530554" lon="16.1121610978">
		<tag k="fixme" v="consider natural=peak for the most distinct mountains in the district" />
		<tag k="name" v="Litinden" />
		<tag k="natural" v="hill" />
		<tag k="place" v="locality" />
		<tag k="ssr:stedsnr" v="806345" />
	</node>
	<node id="-836170" lat="68.631338891" lon="15.9876444459">
		<tag k="fixme" v="consider natural=peak for the most distinct mountains in the district" />
		<tag k="name" v="Botnfjellet" />
		<tag k="natural" v="hill" />
		<tag k="place" v="locality" />
		<tag k="ssr:stedsnr" v="806344" />
	</node>
	<node id="-836163" lat="68.6359527802" lon="15.8332777867">
		<tag k="name" v="Fløya" />
		<tag k="place" v="locality" />
		<tag k="ssr:stedsnr" v="806320" />
	</node>
	<node id="-836162" lat="68.6377138856" lon="16.1623111182">
		<tag k="fixme" v="consider natural=peak for the most distinct mountains in the district" />
		<tag k="name" v="Tverrelvtindan" />
		<tag k="natural" v="hill" />
		<tag k="place" v="locality" />
		<tag k="ssr:stedsnr" v="806318" />
	</node>
	<node id="-836158" lat="68.6559055579" lon="16.0117194357">
		<tag k="name" v="Juvikdalen" />
		<tag k="natural" v="valley" />
		<tag k="place" v="locality" />
		<tag k="ssr:stedsnr" v="806299" />
	</node>
	<node id="-836156" lat="68.6722444424" lon="15.7877527764">
		<tag k="alt_name:no" v="Gombogdalen" />
		<tag k="name" v="Gambogdalen - Gámbogvággi" />
		<tag k="name:no" v="Gambogdalen" />
		<tag k="name:se" v="Gámbogvággi" />
		<tag k="natural" v="valley" />
		<tag k="place" v="locality" />
		<tag k="ssr:stedsnr" v="806276" />
	</node>
	<node id="-836153" lat="68.4924805516" lon="15.7028361107">
		<tag k="name" v="Hestedalen" />
		<tag k="natural" v="valley" />
		<tag k="place" v="locality" />
		<tag k="ssr:stedsnr" v="806123" />
	</node>
	<node id="-836148" lat="68.8394277748" lon="15.9762750078">
		<tag k="name" v="Storliholten" />
		<tag k="natural" v="hill" />
		<tag k="place" v="locality" />
		<tag k="ssr:stedsnr" v="806025" />
	</node>
	<node id="-836144" lat="68.6317000039" lon="15.8225416618">
		<tag k="name" v="Slåttebakkan" />
		<tag k="natural" v="slope" />
		<tag k="place" v="locality" />
		<tag k="ssr:stedsnr" v="780971" />
	</node>
	<node id="-836143" lat="68.7799527824" lon="16.3299611048">
		<tag k="name" v="Aspebakken" />
		<tag k="natural" v="slope" />
		<tag k="place" v="locality" />
		<tag k="ssr:stedsnr" v="780963" />
	</node>
	<node id="-836142" lat="68.7852555566" lon="16.3442138791">
		<tag k="name" v="Slettheia" />
		<tag k="natural" v="hill" />
		<tag k="place" v="locality" />
		<tag k="ssr:stedsnr" v="780955" />
	</node>
	<node id="-836140" lat="68.5740388881" lon="15.7926166545">
		<tag k="name" v="Storsteinrabben" />
		<tag k="natural" v="hill" />
		<tag k="place" v="locality" />
		<tag k="ssr:stedsnr" v="780851" />
	</node>
	<node id="-836138" lat="68.7293749974" lon="16.1525416556">
		<tag k="name" v="Storhågen" />
		<tag k="natural" v="hill" />
		<tag k="place" v="locality" />
		<tag k="ssr:stedsnr" v="780677" />
	</node>
	<node id="-836137" lat="68.8248555541" lon="16.1516361172">
		<tag k="fixme" v="consider natural=peak for the most distinct mountains in the district" />
		<tag k="name" v="Lasset" />
		<tag k="natural" v="hill" />
		<tag k="place" v="locality" />
		<tag k="ssr:stedsnr" v="780564" />
	</node>
	<node id="-836136" lat="68.8239166685" lon="16.1612666707">
		<tag k="name" v="Svartdalen" />
		<tag k="natural" v="valley" />
		<tag k="place" v="locality" />
		<tag k="ssr:stedsnr" v="780562" />
	</node>
	<node id="-836133" lat="68.6721277801" lon="16.3850833345">
		<tag k="name" v="Lian" />
		<tag k="natural" v="slope" />
		<tag k="place" v="locality" />
		<tag k="ssr:stedsnr" v="780542" />
	</node>
	<node id="-836132" lat="68.6759333328" lon="16.3996361139">
		<tag k="name" v="Finnslettheia" />
		<tag k="natural" v="hill" />
		<tag k="place" v="locality" />
		<tag k="ssr:stedsnr" v="780541" />
	</node>
	<node id="-836130" lat="68.7503861126" lon="16.321891663">
		<tag k="fixme" v="consider natural=peak for the most distinct mountains in the district" />
		<tag k="name" v="Tømmeråsen" />
		<tag k="natural" v="hill" />
		<tag k="place" v="locality" />
		<tag k="ssr:stedsnr" v="780496" />
	</node>
	<node id="-836129" lat="68.7558694469" lon="16.2911388793">
		<tag k="name" v="Vikelandskroken" />
		<tag k="natural" v="slope" />
		<tag k="place" v="locality" />
		<tag k="ssr:stedsnr" v="780477" />
	</node>
	<node id="-836127" lat="68.7365166685" lon="16.2755138837">
		<tag k="name" v="Mellahågen" />
		<tag k="natural" v="hill" />
		<tag k="place" v="locality" />
		<tag k="ssr:stedsnr" v="780445" />
	</node>
	<node id="-836126" lat="68.7180027782" lon="15.9546444556">
		<tag k="name" v="Nordheia" />
		<tag k="natural" v="hill" />
		<tag k="place" v="locality" />
		<tag k="ssr:stedsnr" v="780401" />
	</node>
	<node id="-836125" lat="68.6715805584" lon="15.9055611219">
		<tag k="name" v="Storhågen" />
		<tag k="natural" v="hill" />
		<tag k="place" v="locality" />
		<tag k="ssr:stedsnr" v="780190" />
	</node>
	<node id="-836124" lat="68.6375277794" lon="15.8385638786">
		<tag k="name" v="Skarvberget" />
		<tag k="natural" v="hill" />
		<tag k="place" v="locality" />
		<tag k="ssr:stedsnr" v="780187" />
	</node>
	<node id="-836123" lat="68.6480666643" lon="15.8348972226">
		<tag k="name" v="Kleiva" />
		<tag k="natural" v="slope" />
		<tag k="place" v="locality" />
		<tag k="ssr:stedsnr" v="780186" />
	</node>
	<node id="-836122" lat="68.6686638917" lon="15.8929861176">
		<tag k="fixme" v="consider natural=peak for the most distinct mountains in the district" />
		<tag k="name" v="Svartfjellet" />
		<tag k="natural" v="hill" />
		<tag k="place" v="locality" />
		<tag k="ssr:stedsnr" v="780177" />
	</node>
	<node id="-836121" lat="68.6569166633" lon="15.8079833316">
		<tag k="name" v="Atterkvanntoa" />
		<tag k="natural" v="slope" />
		<tag k="place" v="locality" />
		<tag k="ssr:stedsnr" v="780160" />
	</node>
	<node id="-836118" lat="68.6355444421" lon="15.9075527746">
		<tag k="name" v="Botnsletta" />
		<tag k="place" v="locality" />
		<tag k="ssr:stedsnr" v="780091" />
	</node>
	<node id="-836117" lat="68.6407305534" lon="16.0325972315">
		<tag k="name" v="Slåttemyrbergan" />
		<tag k="natural" v="hill" />
		<tag k="place" v="locality" />
		<tag k="ssr:stedsnr" v="780075" />
	</node>
	<node id="-836115" lat="68.5579222247" lon="15.8052055591">
		<tag k="name" v="Gamberget" />
		<tag k="natural" v="hill" />
		<tag k="place" v="locality" />
		<tag k="ssr:stedsnr" v="779937" />
	</node>
	<node id="-836114" lat="68.5675166711" lon="15.855005559">
		<tag k="name" v="Lasken" />
		<tag k="place" v="locality" />
		<tag k="ssr:stedsnr" v="779923" />
	</node>
	<node id="-836112" lat="68.6251249985" lon="15.6787083353">
		<tag k="name" v="Gårdsdalen" />
		<tag k="natural" v="valley" />
		<tag k="place" v="locality" />
		<tag k="ssr:stedsnr" v="779770" />
	</node>
	<node id="-836110" lat="68.6963833308" lon="16.3289138828">
		<tag k="name" v="Brekkhågen" />
		<tag k="natural" v="hill" />
		<tag k="place" v="locality" />
		<tag k="ssr:stedsnr" v="779596" />
	</node>
	<node id="-836109" lat="68.7378583327" lon="16.0762166664">
		<tag k="fixme" v="consider natural=peak for the most distinct mountains in the district" />
		<tag k="name" v="Ildaåsen" />
		<tag k="natural" v="hill" />
		<tag k="place" v="locality" />
		<tag k="ssr:stedsnr" v="779492" />
	</node>
	<node id="-836108" lat="68.7154361079" lon="16.201608341">
		<tag k="name" v="Saldalskråa" />
		<tag k="natural" v="valley" />
		<tag k="place" v="locality" />
		<tag k="ssr:stedsnr" v="779431" />
	</node>
	<node id="-836107" lat="68.6936611129" lon="16.2105916638">
		<tag k="alt_name" v="Rundhompen" />
		<tag k="name" v="Rundhumpen" />
		<tag k="natural" v="hill" />
		<tag k="place" v="locality" />
		<tag k="ssr:stedsnr" v="779427" />
	</node>
	<node id="-836106" lat="68.7267777804" lon="16.0761416716">
		<tag k="name" v="Hemmestadplassen" />
		<tag k="natural" v="slope" />
		<tag k="place" v="locality" />
		<tag k="ssr:stedsnr" v="779422" />
	</node>
	<node id="-836105" lat="68.6726222218" lon="16.107672227">
		<tag k="name" v="Brattlien" />
		<tag k="natural" v="slope" />
		<tag k="place" v="locality" />
		<tag k="ssr:stedsnr" v="779400" />
	</node>
	<node id="-836104" lat="68.7521615472" lon="16.1616225609">
		<tag k="name" v="Naustskaret" />
		<tag k="natural" v="valley" />
		<tag k="place" v="locality" />
		<tag k="ssr:stedsnr" v="779392" />
	</node>
	<node id="-836101" lat="68.4721916685" lon="15.6372527742">
		<tag k="fixme" v="consider natural=peak for the most distinct mountains in the district" />
		<tag k="name" v="Ruoksátvárri" />
		<tag k="name:se" v="Ruoksátvárri" />
		<tag k="natural" v="hill" />
		<tag k="place" v="locality" />
		<tag k="ssr:stedsnr" v="770541" />
	</node>
	<node id="-836097" lat="68.6777833337" lon="16.2670166665">
		<tag k="name" v="Arondalen" />
		<tag k="natural" v="valley" />
		<tag k="place" v="locality" />
		<tag k="ssr:stedsnr" v="748119" />
	</node>
	<node id="-836093" lat="68.6927972253" lon="15.7929027826">
		<tag k="fixme" v="consider natural=peak for the most distinct mountains in the district" />
		<tag k="name" v="Bogheia" />
		<tag k="natural" v="hill" />
		<tag k="place" v="locality" />
		<tag k="ssr:stedsnr" v="746492" />
	</node>
	<node id="-836092" lat="68.6299722187" lon="16.0169138846">
		<tag k="fixme" v="consider natural=peak for the most distinct mountains in the district" />
		<tag k="name" v="Jensfoksalitinden" />
		<tag k="natural" v="hill" />
		<tag k="place" v="locality" />
		<tag k="ssr:stedsnr" v="746335" />
	</node>
	<node id="-836091" lat="68.6048361078" lon="15.7177527811">
		<tag k="fixme" v="multiple name tags, choose one and add the other to alt_name" />
		<tag k="name" v="Djupbuktskaret;Djupskardet" />
		<tag k="natural" v="valley" />
		<tag k="place" v="locality" />
		<tag k="ssr:stedsnr" v="746361" />
	</node>
	<node id="-836089" lat="68.6848749993" lon="16.2118111161">
		<tag k="fixme" v="consider natural=peak for the most distinct mountains in the district" />
		<tag k="name" v="Melåheia" />
		<tag k="natural" v="hill" />
		<tag k="place" v="locality" />
		<tag k="ssr:stedsnr" v="746250" />
	</node>
	<node id="-836084" lat="68.7171861067" lon="16.2541722213">
		<tag k="fixme" v="consider natural=peak for the most distinct mountains in the district" />
		<tag k="name" v="Åsan" />
		<tag k="natural" v="hill" />
		<tag k="place" v="locality" />
		<tag k="ssr:stedsnr" v="745987" />
	</node>
	<node id="-836081" lat="68.8191583355" lon="16.1829944465">
		<tag k="name" v="Svartdalen" />
		<tag k="natural" v="valley" />
		<tag k="place" v="locality" />
		<tag k="ssr:stedsnr" v="746119" />
	</node>
	<node id="-836073" lat="68.7117277782" lon="16.1558361161">
		<tag k="fixme" v="consider natural=peak for the most distinct mountains in the district" />
		<tag k="name" v="Middagstinden" />
		<tag k="natural" v="hill" />
		<tag k="place" v="locality" />
		<tag k="ssr:stedsnr" v="745473" />
	</node>
	<node id="-836072" lat="68.64421667" lon="16.1201027765">
		<tag k="fixme" v="consider natural=peak for the most distinct mountains in the district" />
		<tag k="name" v="Melåaksla" />
		<tag k="natural" v="hill" />
		<tag k="place" v="locality" />
		<tag k="ssr:stedsnr" v="745350" />
	</node>
	<node id="-836070" lat="68.6449472186" lon="15.7824999946">
		<tag k="name" v="Pøyldalen" />
		<tag k="natural" v="valley" />
		<tag k="place" v="locality" />
		<tag k="ssr:stedsnr" v="745332" />
	</node>
	<node id="-836069" lat="68.7556861106" lon="16.3152250056">
		<tag k="name" v="Tortenbakkan" />
		<tag k="natural" v="slope" />
		<tag k="place" v="locality" />
		<tag k="ssr:stedsnr" v="745329" />
	</node>
	<node id="-836066" lat="68.7617249967" lon="16.1046166727">
		<tag k="name" v="Åbrulsen" />
		<tag k="natural" v="hill" />
		<tag k="place" v="locality" />
		<tag k="ssr:stedsnr" v="745198" />
	</node>
	<node id="-836063" lat="68.7865694407" lon="16.3286194487">
		<tag k="fixme" v="consider natural=peak for the most distinct mountains in the district" />
		<tag k="name" v="Stor-Blomåsen" />
		<tag k="natural" v="hill" />
		<tag k="place" v="locality" />
		<tag k="ssr:stedsnr" v="644986" />
	</node>
	<node id="-836059" lat="68.7208222185" lon="16.2289138882">
		<tag k="name" v="Blåhatten" />
		<tag k="natural" v="hill" />
		<tag k="place" v="locality" />
		<tag k="ssr:stedsnr" v="624999" />
	</node>
	<node id="-836050" lat="68.5343083356" lon="15.7803055612">
		<tag k="fixme" v="consider natural=peak for the most distinct mountains in the district" />
		<tag k="name" v="Selja" />
		<tag k="natural" v="hill" />
		<tag k="place" v="locality" />
		<tag k="ssr:stedsnr" v="624749" />
	</node>
	<node id="-836042" lat="68.7889277793" lon="16.315338895">
		<tag k="fixme" v="consider natural=peak for the most distinct mountains in the district" />
		<tag k="name" v="Blomåsen" />
		<tag k="natural" v="hill" />
		<tag k="place" v="locality" />
		<tag k="ssr:stedsnr" v="624480" />
	</node>
	<node id="-836039" lat="68.7632833323" lon="16.2623388837">
		<tag k="name" v="Pinssletta" />
		<tag k="place" v="locality" />
		<tag k="ssr:stedsnr" v="624467" />
	</node>
	<node id="-836037" lat="68.7403861133" lon="16.0858166609">
		<tag k="fixme" v="consider natural=peak for the most distinct mountains in the district" />
		<tag k="name" v="Sandvikaksla" />
		<tag k="natural" v="hill" />
		<tag k="place" v="locality" />
		<tag k="ssr:stedsnr" v="624438" />
	</node>
	<node id="-836035" lat="68.5979916663" lon="15.7606750044">
		<tag k="name" v="Bømarkdalen" />
		<tag k="natural" v="valley" />
		<tag k="place" v="locality" />
		<tag k="ssr:stedsnr" v="624386" />
	</node>
	<node id="-836034" lat="68.5962166654" lon="15.678947215">
		<tag k="name" v="Tverrelvdalen" />
		<tag k="natural" v="valley" />
		<tag k="place" v="locality" />
		<tag k="ssr:stedsnr" v="624382" />
	</node>
	<node id="-836030" lat="68.6353583327" lon="16.0913250016">
		<tag k="name" v="Likråa" />
		<tag k="natural" v="ridge" />
		<tag k="place" v="locality" />
		<tag k="ssr:stedsnr" v="624347" />
	</node>
	<node id="-836022" lat="68.6860638868" lon="16.1113027734">
		<tag k="fixme" v="consider natural=peak for the most distinct mountains in the district" />
		<tag k="name" v="Bjørnliknurran" />
		<tag k="natural" v="hill" />
		<tag k="place" v="locality" />
		<tag k="ssr:stedsnr" v="624265" />
	</node>
	<node id="-836021" lat="68.6869916628" lon="16.1446916673">
		<tag k="fixme" v="consider natural=peak for the most distinct mountains in the district" />
		<tag k="name" v="Tverrelvfoten" />
		<tag k="natural" v="hill" />
		<tag k="place" v="locality" />
		<tag k="ssr:stedsnr" v="624262" />
	</node>
	<node id="-836018" lat="68.7836194434" lon="16.1765527758">
		<tag k="alt_name" v="Trollvasshaugen" />
		<tag k="name" v="Trollvasshågen" />
		<tag k="natural" v="hill" />
		<tag k="place" v="locality" />
		<tag k="ssr:stedsnr" v="624201" />
	</node>
	<node id="-836015" lat="68.8066777793" lon="16.1893083345">
		<tag k="alt_name:no" v="Raudmoldheia" />
		<tag k="fixme" v="consider natural=peak for the most distinct mountains in the district" />
		<tag k="loc_name:se" v="Ruksessáddovárri" />
		<tag k="name" v="Rødmålheia" />
		<tag k="name:no" v="Rødmålheia" />
		<tag k="natural" v="hill" />
		<tag k="place" v="locality" />
		<tag k="ssr:stedsnr" v="624122" />
	</node>
	<node id="-836000" lat="68.7728000004" lon="16.3086416692">
		<tag k="fixme" v="consider natural=peak for the most distinct mountains in the district" />
		<tag k="name" v="Liåsen" />
		<tag k="natural" v="hill" />
		<tag k="place" v="locality" />
		<tag k="ssr:stedsnr" v="597994" />
	</node>
	<node id="-835999" lat="68.7721083369" lon="16.317369434">
		<tag k="name" v="Prestelahågen" />
		<tag k="natural" v="hill" />
		<tag k="place" v="locality" />
		<tag k="ssr:stedsnr" v="597992" />
	</node>
	<node id="-835997" lat="68.6163666662" lon="15.7552666578">
		<tag k="name" v="Tverrbakkan" />
		<tag k="natural" v="slope" />
		<tag k="place" v="locality" />
		<tag k="ssr:stedsnr" v="597856" />
	</node>
	<node id="-835995" lat="68.6071500031" lon="15.7681166767">
		<tag k="name" v="Melkarholla" />
		<tag k="natural" v="valley" />
		<tag k="place" v="locality" />
		<tag k="ssr:stedsnr" v="597849" />
	</node>
	<node id="-835992" lat="68.5089916647" lon="15.7419888917">
		<tag k="fixme" v="consider natural=peak for the most distinct mountains in the district" />
		<tag k="name" v="Ressen" />
		<tag k="natural" v="hill" />
		<tag k="place" v="locality" />
		<tag k="ssr:stedsnr" v="597798" />
	</node>
	<node id="-835989" lat="68.5855194423" lon="15.7807944439">
		<tag k="name" v="Vedhågen" />
		<tag k="natural" v="hill" />
		<tag k="place" v="locality" />
		<tag k="ssr:stedsnr" v="597765" />
	</node>
	<node id="-835988" lat="68.7360138937" lon="16.1400972118">
		<tag k="name" v="Røyrholla" />
		<tag k="natural" v="valley" />
		<tag k="place" v="locality" />
		<tag k="ssr:stedsnr" v="597748" />
	</node>
	<node id="-835987" lat="68.7753583308" lon="16.1959416702">
		<tag k="name" v="Rånakken" />
		<tag k="natural" v="hill" />
		<tag k="place" v="locality" />
		<tag k="ssr:stedsnr" v="597704" />
	</node>
	<node id="-835986" lat="68.812163888" lon="16.1198833228">
		<tag k="name" v="Nakken" />
		<tag k="natural" v="hill" />
		<tag k="place" v="locality" />
		<tag k="ssr:stedsnr" v="597666" />
	</node>
	<node id="-835985" lat="68.8431666655" lon="16.1451610984">
		<tag k="name" v="Durmålshågen" />
		<tag k="natural" v="hill" />
		<tag k="place" v="locality" />
		<tag k="ssr:stedsnr" v="597657" />
	</node>
	<node id="-835984" lat="68.8350194444" lon="16.1222888836">
		<tag k="name" v="Rødberget" />
		<tag k="natural" v="hill" />
		<tag k="place" v="locality" />
		<tag k="ssr:stedsnr" v="597650" />
	</node>
	<node id="-835983" lat="68.7171638852" lon="16.3102055564">
		<tag k="name" v="Storlikollen" />
		<tag k="natural" v="hill" />
		<tag k="place" v="locality" />
		<tag k="ssr:stedsnr" v="597636" />
	</node>
	<node id="-835981" lat="68.7121555565" lon="16.3387722234">
		<tag k="name" v="Tretthågen" />
		<tag k="natural" v="hill" />
		<tag k="place" v="locality" />
		<tag k="ssr:stedsnr" v="597579" />
	</node>
	<node id="-835979" lat="68.7066194437" lon="16.2986222236">
		<tag k="name" v="Vollan" />
		<tag k="place" v="locality" />
		<tag k="ssr:stedsnr" v="597574" />
	</node>
	<node id="-835978" lat="68.709005553" lon="16.3110083238">
		<tag k="name" v="Storhågen" />
		<tag k="natural" v="hill" />
		<tag k="place" v="locality" />
		<tag k="ssr:stedsnr" v="597572" />
	</node>
	<node id="-835977" lat="68.7492361131" lon="16.2970277701">
		<tag k="fixme" v="consider natural=peak for the most distinct mountains in the district" />
		<tag k="name" v="Finefjellet" />
		<tag k="natural" v="hill" />
		<tag k="place" v="locality" />
		<tag k="ssr:stedsnr" v="597538" />
	</node>
	<node id="-835976" lat="68.6945694451" lon="16.3321611032">
		<tag k="name" v="Almenningslegda" />
		<tag k="natural" v="slope" />
		<tag k="place" v="locality" />
		<tag k="ssr:stedsnr" v="597535" />
	</node>
	<node id="-835974" lat="68.7320361154" lon="16.2824833238">
		<tag k="name" v="Strauman" />
		<tag k="natural" v="slope" />
		<tag k="place" v="locality" />
		<tag k="ssr:stedsnr" v="597521" />
	</node>
	<node id="-835973" lat="68.7247111128" lon="16.2565305584">
		<tag k="name" v="Bjørnlihågen" />
		<tag k="natural" v="hill" />
		<tag k="place" v="locality" />
		<tag k="ssr:stedsnr" v="597503" />
	</node>
	<node id="-835972" lat="68.7009000042" lon="16.0880138776">
		<tag k="name" v="Talgrøtholla" />
		<tag k="natural" v="valley" />
		<tag k="place" v="locality" />
		<tag k="ssr:stedsnr" v="597491" />
	</node>
	<node id="-835971" lat="68.6972499998" lon="15.9533277745">
		<tag k="name" v="Rishågen" />
		<tag k="natural" v="hill" />
		<tag k="place" v="locality" />
		<tag k="ssr:stedsnr" v="597490" />
	</node>
	<node id="-835970" lat="68.6845805538" lon="16.0413777856">
		<tag k="name" v="Storlia" />
		<tag k="natural" v="slope" />
		<tag k="place" v="locality" />
		<tag k="ssr:stedsnr" v="597479" />
	</node>
	<node id="-835968" lat="68.665824997" lon="16.1344250058">
		<tag k="loc_name:se" v="Mieluidvággi" />
		<tag k="name" v="Melådalen" />
		<tag k="name:no" v="Melådalen" />
		<tag k="natural" v="valley" />
		<tag k="place" v="locality" />
		<tag k="ssr:stedsnr" v="597444" />
	</node>
	<node id="-835967" lat="68.6687333314" lon="16.0960277845">
		<tag k="fixme" v="consider natural=peak for the most distinct mountains in the district" />
		<tag k="name" v="Nordfjellet" />
		<tag k="natural" v="hill" />
		<tag k="place" v="locality" />
		<tag k="ssr:stedsnr" v="597440" />
	</node>
	<node id="-835965" lat="68.7857472267" lon="16.0675861087">
		<tag k="name" v="Nausthågen" />
		<tag k="natural" v="hill" />
		<tag k="place" v="locality" />
		<tag k="ssr:stedsnr" v="597400" />
	</node>
	<node id="-835964" lat="68.8385249957" lon="15.9874055553">
		<tag k="name" v="Stormyrholla" />
		<tag k="natural" v="valley" />
		<tag k="place" v="locality" />
		<tag k="ssr:stedsnr" v="597398" />
	</node>
	<node id="-835963" lat="68.8295805543" lon="15.9693250083">
		<tag k="name" v="Gjerdhågen" />
		<tag k="natural" v="hill" />
		<tag k="place" v="locality" />
		<tag k="ssr:stedsnr" v="597397" />
	</node>
	<node id="-835962" lat="68.6578555511" lon="16.1134722293">
		<tag k="name" v="Melåheia" />
		<tag k="natural" v="hill" />
		<tag k="place" v="locality" />
		<tag k="ssr:stedsnr" v="597393" />
	</node>
	<node id="-835961" lat="68.5935638877" lon="15.816869441">
		<tag k="name" v="Skinnhallaren" />
		<tag k="natural" v="hill" />
		<tag k="place" v="locality" />
		<tag k="ssr:stedsnr" v="597216" />
	</node>
	<node id="-835960" lat="68.592136112" lon="15.8186527693">
		<tag k="name" v="Litjejordhella" />
		<tag k="natural" v="hill" />
		<tag k="place" v="locality" />
		<tag k="ssr:stedsnr" v="597214" />
	</node>
	<node id="-835959" lat="68.5962444433" lon="15.8247222277">
		<tag k="name" v="Lia" />
		<tag k="natural" v="slope" />
		<tag k="place" v="locality" />
		<tag k="ssr:stedsnr" v="597210" />
	</node>
	<node id="-835958" lat="68.673275002" lon="15.8907944399">
		<tag k="fixme" v="consider natural=peak for the most distinct mountains in the district" />
		<tag k="name" v="Førstetinden" />
		<tag k="natural" v="hill" />
		<tag k="ssr:stedsnr" v="597165" />
	</node>
	<node id="-835955" lat="68.6672388909" lon="16.0873638868">
		<tag k="name" v="Stallbakkan" />
		<tag k="natural" v="slope" />
		<tag k="place" v="locality" />
		<tag k="ssr:stedsnr" v="597036" />
	</node>
	<node id="-835951" lat="68.5589333322" lon="15.7690999975">
		<tag k="name" v="Stokkeberget" />
		<tag k="natural" v="hill" />
		<tag k="place" v="locality" />
		<tag k="ssr:stedsnr" v="596733" />
	</node>
	<node id="-835950" lat="68.5677250029" lon="15.7487000008">
		<tag k="name" v="Kobberyggen" />
		<tag k="natural" v="ridge" />
		<tag k="place" v="locality" />
		<tag k="ssr:stedsnr" v="596730" />
	</node>
	<node id="-835944" lat="68.7318972227" lon="16.2994027722">
		<tag k="name" v="Hokkelidalen" />
		<tag k="natural" v="valley" />
		<tag k="place" v="locality" />
		<tag k="ssr:stedsnr" v="563972" />
	</node>
	<node id="-835942" lat="68.548911112" lon="15.6814583296">
		<tag k="fixme" v="consider natural=peak for the most distinct mountains in the district" />
		<tag k="name" v="Nonstinden" />
		<tag k="natural" v="hill" />
		<tag k="place" v="locality" />
		<tag k="ssr:stedsnr" v="563877" />
	</node>
	<node id="-835941" lat="68.5626666706" lon="15.8732694395">
		<tag k="name" v="Steinslettan" />
		<tag k="place" v="locality" />
		<tag k="ssr:stedsnr" v="563872" />
	</node>
	<node id="-835940" lat="68.5804972254" lon="15.8207750082">
		<tag k="alt_name" v="Storeholten" />
		<tag k="name" v="Storholten" />
		<tag k="natural" v="hill" />
		<tag k="place" v="locality" />
		<tag k="ssr:stedsnr" v="563853" />
	</node>
	<node id="-835939" lat="68.5066277757" lon="15.7163166701">
		<tag k="fixme" v="multiple name tags, choose one and add the other to alt_name" />
		<tag k="name" v="Sørdalen - Luossvuopmi;Orjjesvággi" />
		<tag k="name:no" v="Sørdalen" />
		<tag k="name:se" v="Luossvuopmi;Orjjesvággi" />
		<tag k="natural" v="valley" />
		<tag k="place" v="locality" />
		<tag k="ssr:stedsnr" v="563808" />
	</node>
	<node id="-835938" lat="68.5228638874" lon="15.7759388847">
		<tag k="name" v="Blåberget" />
		<tag k="natural" v="hill" />
		<tag k="place" v="locality" />
		<tag k="ssr:stedsnr" v="563803" />
	</node>
	<node id="-835937" lat="68.7840749974" lon="16.2491027841">
		<tag k="fixme" v="consider natural=peak for the most distinct mountains in the district" />
		<tag k="name" v="Tverråsen" />
		<tag k="natural" v="hill" />
		<tag k="place" v="locality" />
		<tag k="ssr:stedsnr" v="563479" />
	</node>
	<node id="-835930" lat="68.6440166638" lon="15.9089805492">
		<tag k="name" v="Slettebergan" />
		<tag k="natural" v="slope" />
		<tag k="place" v="locality" />
		<tag k="ssr:stedsnr" v="563298" />
	</node>
	<node id="-835929" lat="68.6729916694" lon="16.1292000124">
		<tag k="name" v="Forsbakkan" />
		<tag k="natural" v="slope" />
		<tag k="place" v="locality" />
		<tag k="ssr:stedsnr" v="563276" />
	</node>
	<node id="-835927" lat="68.6743111086" lon="15.8773277712">
		<tag k="fixme" v="consider natural=peak for the most distinct mountains in the district" />
		<tag k="name" v="Stortinden" />
		<tag k="natural" v="hill" />
		<tag k="place" v="locality" />
		<tag k="ssr:stedsnr" v="563270" />
	</node>
	<node id="-835912" lat="68.5896444446" lon="15.8212722179">
		<tag k="name" v="Skjellhågen" />
		<tag k="natural" v="hill" />
		<tag k="place" v="locality" />
		<tag k="ssr:stedsnr" v="537848" />
	</node>
	<node id="-835911" lat="68.5786111099" lon="15.7877166607">
		<tag k="name" v="Storkvalshausen" />
		<tag k="natural" v="hill" />
		<tag k="place" v="locality" />
		<tag k="ssr:stedsnr" v="537844" />
	</node>
	<node id="-835909" lat="68.5976999985" lon="15.7757916629">
		<tag k="name" v="Middagsskaret" />
		<tag k="natural" v="valley" />
		<tag k="place" v="locality" />
		<tag k="ssr:stedsnr" v="537835" />
	</node>
	<node id="-835908" lat="68.5318250018" lon="15.7471361019">
		<tag k="name" v="Laksebakkan" />
		<tag k="natural" v="slope" />
		<tag k="place" v="locality" />
		<tag k="ssr:stedsnr" v="537743" />
	</node>
	<node id="-835907" lat="68.5324694441" lon="15.767174993">
		<tag k="name" v="Bukkebakkan" />
		<tag k="natural" v="slope" />
		<tag k="place" v="locality" />
		<tag k="ssr:stedsnr" v="537739" />
	</node>
	<node id="-835905" lat="68.7487916702" lon="16.2662916566">
		<tag k="fixme" v="consider natural=peak for the most distinct mountains in the district" />
		<tag k="name" v="Vikefjellet" />
		<tag k="natural" v="hill" />
		<tag k="place" v="locality" />
		<tag k="ssr:stedsnr" v="537534" />
	</node>
	<node id="-835904" lat="68.7249000015" lon="16.3038499886">
		<tag k="name" v="Høgden" />
		<tag k="natural" v="slope" />
		<tag k="place" v="locality" />
		<tag k="ssr:stedsnr" v="537502" />
	</node>
	<node id="-835903" lat="68.7980888871" lon="16.1504555532">
		<tag k="name" v="Torvhalsen" />
		<tag k="natural" v="valley" />
		<tag k="place" v="locality" />
		<tag k="ssr:stedsnr" v="537687" />
	</node>
	<node id="-835902" lat="68.8061583325" lon="16.1230194465">
		<tag k="name" v="Høgebakkan" />
		<tag k="natural" v="slope" />
		<tag k="place" v="locality" />
		<tag k="ssr:stedsnr" v="537685" />
	</node>
	<node id="-835901" lat="68.7675888934" lon="16.0947638857">
		<tag k="name" v="Spanshågen" />
		<tag k="natural" v="hill" />
		<tag k="place" v="locality" />
		<tag k="ssr:stedsnr" v="537682" />
	</node>
	<node id="-835899" lat="68.7952666661" lon="16.1912583283">
		<tag k="name" v="Slåtten" />
		<tag k="natural" v="slope" />
		<tag k="place" v="locality" />
		<tag k="ssr:stedsnr" v="537675" />
	</node>
	<node id="-835898" lat="68.7843000035" lon="16.2005111146">
		<tag k="name" v="Gammeltorvhågan" />
		<tag k="natural" v="hill" />
		<tag k="place" v="locality" />
		<tag k="ssr:stedsnr" v="537658" />
	</node>
	<node id="-835897" lat="68.7663166628" lon="16.2355000022">
		<tag k="name" v="Steinkrysshågen" />
		<tag k="natural" v="hill" />
		<tag k="place" v="locality" />
		<tag k="ssr:stedsnr" v="537653" />
	</node>
	<node id="-835895" lat="68.7134750021" lon="16.2752277673">
		<tag k="name" v="Storhågen" />
		<tag k="natural" v="hill" />
		<tag k="place" v="locality" />
		<tag k="ssr:stedsnr" v="537599" />
	</node>
	<node id="-835894" lat="68.75130278" lon="16.1633583334">
		<tag k="name" v="Hoklandshågen" />
		<tag k="natural" v="hill" />
		<tag k="place" v="locality" />
		<tag k="ssr:stedsnr" v="537351" />
	</node>
	<node id="-835891" lat="68.7042138919" lon="15.9369305582">
		<tag k="name" v="Kvannbekkholla" />
		<tag k="natural" v="valley" />
		<tag k="place" v="locality" />
		<tag k="ssr:stedsnr" v="537435" />
	</node>
	<node id="-835890" lat="68.6996222201" lon="15.9389111107">
		<tag k="fixme" v="consider natural=peak for the most distinct mountains in the district" />
		<tag k="name" v="Forsekollen" />
		<tag k="natural" v="hill" />
		<tag k="place" v="locality" />
		<tag k="ssr:stedsnr" v="537433" />
	</node>
	<node id="-835889" lat="68.6783611092" lon="15.912641675">
		<tag k="name" v="Elvedalen" />
		<tag k="natural" v="valley" />
		<tag k="place" v="locality" />
		<tag k="ssr:stedsnr" v="537112" />
	</node>
	<node id="-835886" lat="68.7118666629" lon="15.9135583422">
		<tag k="name" v="Sørdalen" />
		<tag k="natural" v="valley" />
		<tag k="place" v="locality" />
		<tag k="ssr:stedsnr" v="537087" />
	</node>
	<node id="-835885" lat="68.6516472182" lon="16.053002773">
		<tag k="name" v="Heimstadbergan" />
		<tag k="natural" v="hill" />
		<tag k="place" v="locality" />
		<tag k="ssr:stedsnr" v="537064" />
	</node>
	<node id="-835884" lat="68.6467500046" lon="16.0278055473">
		<tag k="name" v="Aspenesskaret" />
		<tag k="natural" v="valley" />
		<tag k="place" v="locality" />
		<tag k="ssr:stedsnr" v="537063" />
	</node>
	<node id="-835883" lat="68.6361277783" lon="15.9477777737">
		<tag k="name" v="Kvanntodalen" />
		<tag k="natural" v="valley" />
		<tag k="place" v="locality" />
		<tag k="ssr:stedsnr" v="537058" />
	</node>
	<node id="-835882" lat="68.6655194403" lon="16.0370138926">
		<tag k="name" v="Stormågdalen" />
		<tag k="natural" v="valley" />
		<tag k="place" v="locality" />
		<tag k="ssr:stedsnr" v="537046" />
	</node>
	<node id="-835880" lat="68.5496361087" lon="15.8165333422">
		<tag k="fixme" v="consider natural=peak for the most distinct mountains in the district" />
		<tag k="name" v="Tverrbakktinden" />
		<tag k="natural" v="hill" />
		<tag k="place" v="locality" />
		<tag k="ssr:stedsnr" v="536929" />
	</node>
	<node id="-835879" lat="68.5675888909" lon="15.7873499897">
		<tag k="name" v="Litjedalen" />
		<tag k="natural" v="valley" />
		<tag k="place" v="locality" />
		<tag k="ssr:stedsnr" v="536916" />
	</node>
	<node id="-835878" lat="68.667280552" lon="15.9847027642">
		<tag k="name" v="Storhågen" />
		<tag k="natural" v="hill" />
		<tag k="place" v="locality" />
		<tag k="ssr:stedsnr" v="537024" />
	</node>
	<node id="-835877" lat="68.6235166637" lon="15.7410888785">
		<tag k="name" v="Grønnhalsen" />
		<tag k="natural" v="valley" />
		<tag k="place" v="locality" />
		<tag k="ssr:stedsnr" v="536785" />
	</node>
	<node id="-835875" lat="68.740125003" lon="16.296202786">
		<tag k="name" v="Geitsteinkleiva" />
		<tag k="natural" v="slope" />
		<tag k="place" v="locality" />
		<tag k="ssr:stedsnr" v="536505" />
	</node>
	<node id="-835874" lat="68.6955805578" lon="16.0438805474">
		<tag k="name" v="Holmebakkan" />
		<tag k="natural" v="slope" />
		<tag k="place" v="locality" />
		<tag k="ssr:stedsnr" v="536488" />
	</node>
	<node id="-835873" lat="68.6887055523" lon="16.1884944503">
		<tag k="fixme" v="consider natural=peak for the most distinct mountains in the district" />
		<tag k="name" v="Steinåsen" />
		<tag k="natural" v="hill" />
		<tag k="place" v="locality" />
		<tag k="ssr:stedsnr" v="536343" />
	</node>
	<node id="-835871" lat="68.6803999955" lon="16.0536500094">
		<tag k="name" v="Kjerringberget" />
		<tag k="natural" v="hill" />
		<tag k="place" v="locality" />
		<tag k="ssr:stedsnr" v="536478" />
	</node>
	<node id="-835870" lat="68.7850416649" lon="16.0732805524">
		<tag k="fixme" v="consider natural=peak for the most distinct mountains in the district" />
		<tag k="name" v="Hjulet" />
		<tag k="natural" v="hill" />
		<tag k="place" v="locality" />
		<tag k="ssr:stedsnr" v="536400" />
	</node>
	<node id="-835868" lat="68.6535499975" lon="15.8923416705">
		<tag k="name" v="Bogklubben" />
		<tag k="natural" v="hill" />
		<tag k="place" v="locality" />
		<tag k="ssr:stedsnr" v="530118" />
	</node>
	<node id="-835863" lat="68.5523388915" lon="15.8289138958">
		<tag k="fixme" v="consider natural=peak for the most distinct mountains in the district" />
		<tag k="name" v="Litjetinden" />
		<tag k="natural" v="hill" />
		<tag k="place" v="locality" />
		<tag k="ssr:stedsnr" v="416909" />
	</node>
	<node id="-835861" lat="68.7773138878" lon="16.2141805603">
		<tag k="name" v="Sjurbakkan" />
		<tag k="natural" v="slope" />
		<tag k="place" v="locality" />
		<tag k="ssr:stedsnr" v="416643" />
	</node>
	<node id="-835860" lat="68.7701111097" lon="16.2268944505">
		<tag k="name" v="Strandhågen" />
		<tag k="natural" v="hill" />
		<tag k="place" v="locality" />
		<tag k="ssr:stedsnr" v="416642" />
	</node>
	<node id="-835858" lat="68.7676777823" lon="16.2318083282">
		<tag k="name" v="Klemma" />
		<tag k="natural" v="valley" />
		<tag k="place" v="locality" />
		<tag k="ssr:stedsnr" v="416636" />
	</node>
	<node id="-835856" lat="68.8351944408" lon="16.1455666649">
		<tag k="name" v="Godskjærmyrdalen" />
		<tag k="natural" v="valley" />
		<tag k="place" v="locality" />
		<tag k="ssr:stedsnr" v="416593" />
	</node>
	<node id="-835854" lat="68.7520027742" lon="16.3027388834">
		<tag k="name" v="Geitbakkan" />
		<tag k="natural" v="slope" />
		<tag k="place" v="locality" />
		<tag k="ssr:stedsnr" v="416496" />
	</node>
	<node id="-835852" lat="68.7554444456" lon="16.1316611029">
		<tag k="name" v="Smiåkeren" />
		<tag k="natural" v="slope" />
		<tag k="place" v="locality" />
		<tag k="ssr:stedsnr" v="416345" />
	</node>
	<node id="-835850" lat="68.7574388868" lon="16.2780138932">
		<tag k="name" v="Reinbenkan" />
		<tag k="natural" v="slope" />
		<tag k="place" v="locality" />
		<tag k="ssr:stedsnr" v="416485" />
	</node>
	<node id="-835848" lat="68.7288083329" lon="16.3267722165">
		<tag k="name" v="Falkhågen" />
		<tag k="natural" v="hill" />
		<tag k="place" v="locality" />
		<tag k="ssr:stedsnr" v="416443" />
	</node>
	<node id="-835847" lat="68.7091527773" lon="16.0752583448">
		<tag k="name" v="Hornbergan" />
		<tag k="natural" v="hill" />
		<tag k="place" v="locality" />
		<tag k="ssr:stedsnr" v="416442" />
	</node>
	<node id="-835845" lat="68.6774722255" lon="15.9115333438">
		<tag k="name" v="Sommarskaret" />
		<tag k="natural" v="valley" />
		<tag k="place" v="locality" />
		<tag k="ssr:stedsnr" v="416158" />
	</node>
	<node id="-835842" lat="68.6713749978" lon="15.8907361149">
		<tag k="name" v="Meraftesskaret" />
		<tag k="natural" v="valley" />
		<tag k="place" v="locality" />
		<tag k="ssr:stedsnr" v="416150" />
	</node>
	<node id="-835840" lat="68.6510722226" lon="15.8614305661">
		<tag k="name" v="Omnen" />
		<tag k="natural" v="hill" />
		<tag k="place" v="locality" />
		<tag k="ssr:stedsnr" v="416088" />
	</node>
	<node id="-835839" lat="68.6397166673" lon="15.8876027659">
		<tag k="name" v="Litjeklubben" />
		<tag k="natural" v="hill" />
		<tag k="place" v="locality" />
		<tag k="ssr:stedsnr" v="416082" />
	</node>
	<node id="-835838" lat="68.6487388928" lon="16.0541138956">
		<tag k="name" v="Skjellelvskallan" />
		<tag k="natural" v="ridge" />
		<tag k="place" v="locality" />
		<tag k="ssr:stedsnr" v="416055" />
	</node>
	<node id="-835835" lat="68.5486694457" lon="15.8006361178">
		<tag k="name" v="Hundnesheia" />
		<tag k="natural" v="hill" />
		<tag k="place" v="locality" />
		<tag k="ssr:stedsnr" v="415950" />
	</node>
	<node id="-835832" lat="68.5876638931" lon="15.8285722199">
		<tag k="name" v="Vargholla" />
		<tag k="natural" v="valley" />
		<tag k="place" v="locality" />
		<tag k="ssr:stedsnr" v="415933" />
	</node>
	<node id="-835830" lat="68.6974888889" lon="16.3061583322">
		<tag k="name" v="Olinasætersletta" />
		<tag k="place" v="locality" />
		<tag k="ssr:stedsnr" v="415639" />
	</node>
	<node id="-835829" lat="68.7081222233" lon="16.3672472225">
		<tag k="name" v="Futhågen" />
		<tag k="natural" v="hill" />
		<tag k="place" v="locality" />
		<tag k="ssr:stedsnr" v="415621" />
	</node>
	<node id="-835826" lat="68.6885444409" lon="16.0431416718">
		<tag k="name" v="Høghågen" />
		<tag k="natural" v="hill" />
		<tag k="place" v="locality" />
		<tag k="ssr:stedsnr" v="415522" />
	</node>
	<node id="-835825" lat="68.6840805532" lon="16.0472972284">
		<tag k="name" v="Søndagshågan" />
		<tag k="natural" v="hill" />
		<tag k="place" v="locality" />
		<tag k="ssr:stedsnr" v="415521" />
	</node>
	<node id="-835824" lat="68.6840166647" lon="16.0341861064">
		<tag k="name" v="Vargeberget" />
		<tag k="natural" v="hill" />
		<tag k="place" v="locality" />
		<tag k="ssr:stedsnr" v="415518" />
	</node>
	<node id="-835823" lat="68.6791555559" lon="16.0643055543">
		<tag k="name" v="Storhågen" />
		<tag k="natural" v="hill" />
		<tag k="place" v="locality" />
		<tag k="ssr:stedsnr" v="415516" />
	</node>
	<node id="-835819" lat="68.7856527773" lon="16.0779110992">
		<tag k="name" v="Guleberget" />
		<tag k="natural" v="hill" />
		<tag k="place" v="locality" />
		<tag k="ssr:stedsnr" v="415425" />
	</node>
	<node id="-835818" lat="68.8341305541" lon="15.9741916681">
		<tag k="name" v="Laberget" />
		<tag k="natural" v="hill" />
		<tag k="place" v="locality" />
		<tag k="ssr:stedsnr" v="415421" />
	</node>
	<node id="-835817" lat="68.7540694451" lon="16.1570277879">
		<tag k="name" v="Bendikssletta" />
		<tag k="place" v="locality" />
		<tag k="ssr:stedsnr" v="415404" />
	</node>
	<node id="-835816" lat="68.7619555544" lon="16.1481916545">
		<tag k="name" v="Hulderberget" />
		<tag k="natural" v="hill" />
		<tag k="place" v="locality" />
		<tag k="ssr:stedsnr" v="415397" />
	</node>
	<node id="-835815" lat="68.7611944436" lon="16.1186472192">
		<tag k="name" v="Gardløstorvhågen" />
		<tag k="natural" v="hill" />
		<tag k="place" v="locality" />
		<tag k="ssr:stedsnr" v="415358" />
	</node>
	<node id="-835811" lat="68.6497" lon="16.2723666737">
		<tag k="fixme" v="consider natural=peak for the most distinct mountains in the district" />
		<tag k="name" v="Hesjevassknurran" />
		<tag k="natural" v="hill" />
		<tag k="place" v="locality" />
		<tag k="ssr:stedsnr" v="384045" />
	</node>
	<node id="-835809" lat="68.6716527737" lon="16.328602774">
		<tag k="name" v="Grønkollan" />
		<tag k="natural" v="hill" />
		<tag k="place" v="locality" />
		<tag k="ssr:stedsnr" v="383104" />
	</node>
	<node id="-835807" lat="68.7755277752" lon="16.2200499921">
		<tag k="alt_name" v="Vehoggtoppen" />
		<tag k="fixme" v="consider natural=peak for the most distinct mountains in the district" />
		<tag k="name" v="Vedhøggtoppen" />
		<tag k="natural" v="hill" />
		<tag k="place" v="locality" />
		<tag k="ssr:stedsnr" v="382468" />
	</node>
	<node id="-835806" lat="68.6123416632" lon="15.993388899">
		<tag k="fixme" v="consider natural=peak for the most distinct mountains in the district" />
		<tag k="name" v="Lysåtinden" />
		<tag k="natural" v="hill" />
		<tag k="place" v="locality" />
		<tag k="ssr:stedsnr" v="382354" />
	</node>
	<node id="-835799" lat="68.7082277753" lon="16.3423388799">
		<tag k="fixme" v="consider natural=peak for the most distinct mountains in the district" />
		<tag k="name" v="Bendiksåsen" />
		<tag k="natural" v="hill" />
		<tag k="place" v="locality" />
		<tag k="ssr:stedsnr" v="381900" />
	</node>
	<node id="-835797" lat="68.5571722204" lon="15.710622229">
		<tag k="name" v="Olnilsadalen" />
		<tag k="natural" v="valley" />
		<tag k="place" v="locality" />
		<tag k="ssr:stedsnr" v="381883" />
	</node>
	<node id="-835794" lat="68.708619446" lon="16.1455749936">
		<tag k="name" v="Langdalen - Geargevággi" />
		<tag k="name:no" v="Langdalen" />
		<tag k="name:se" v="Geargevággi" />
		<tag k="natural" v="valley" />
		<tag k="place" v="locality" />
		<tag k="ssr:stedsnr" v="381496" />
	</node>
	<node id="-835793" lat="68.7218972225" lon="15.9531666732">
		<tag k="fixme" v="consider natural=peak for the most distinct mountains in the district" />
		<tag k="name" v="Storåsheia" />
		<tag k="natural" v="hill" />
		<tag k="place" v="locality" />
		<tag k="ssr:stedsnr" v="381477" />
	</node>
	<node id="-835790" lat="68.6347944458" lon="15.9866972145">
		<tag k="name" v="Lysåskardet" />
		<tag k="natural" v="valley" />
		<tag k="place" v="locality" />
		<tag k="ssr:stedsnr" v="381336" />
	</node>
	<node id="-835780" lat="68.8103888868" lon="16.1259916744">
		<tag k="name" v="Høgnakken" />
		<tag k="natural" v="hill" />
		<tag k="place" v="locality" />
		<tag k="ssr:stedsnr" v="381120" />
	</node>
	<node id="-835779" lat="68.8076444476" lon="16.152291664">
		<tag k="alt_name" v="Daletorvhaugen" />
		<tag k="name" v="Daletorvhågen" />
		<tag k="natural" v="hill" />
		<tag k="place" v="locality" />
		<tag k="ssr:stedsnr" v="381118" />
	</node>
	<node id="-835778" lat="68.7799277757" lon="16.0802222197">
		<tag k="name" v="Austerdalen" />
		<tag k="natural" v="valley" />
		<tag k="place" v="locality" />
		<tag k="ssr:stedsnr" v="381089" />
	</node>
	<node id="-835772" lat="68.5961111076" lon="15.7800277794">
		<tag k="name" v="Storneshompan" />
		<tag k="natural" v="hill" />
		<tag k="place" v="locality" />
		<tag k="ssr:stedsnr" v="355844" />
	</node>
	<node id="-835771" lat="68.5999694487" lon="15.7686861054">
		<tag k="name" v="Ramnhågan" />
		<tag k="natural" v="hill" />
		<tag k="place" v="locality" />
		<tag k="ssr:stedsnr" v="355832" />
	</node>
	<node id="-835770" lat="68.4897194402" lon="15.7213805618">
		<tag k="name" v="Stordalsskaret" />
		<tag k="natural" v="valley" />
		<tag k="place" v="locality" />
		<tag k="ssr:stedsnr" v="355764" />
	</node>
	<node id="-835769" lat="68.7274250036" lon="16.1771333441">
		<tag k="name" v="Nerste Dalbakkan" />
		<tag k="natural" v="slope" />
		<tag k="place" v="locality" />
		<tag k="ssr:stedsnr" v="355727" />
	</node>
	<node id="-835767" lat="68.7328972208" lon="16.2365583336">
		<tag k="name" v="Hesthågen" />
		<tag k="natural" v="hill" />
		<tag k="place" v="locality" />
		<tag k="ssr:stedsnr" v="355712" />
	</node>
	<node id="-835764" lat="68.8111805562" lon="16.1422972337">
		<tag k="name" v="Moa" />
		<tag k="place" v="locality" />
		<tag k="ssr:stedsnr" v="355614" />
	</node>
	<node id="-835762" lat="68.839136114" lon="16.1272055483">
		<tag k="name" v="Bonstadvikpynten" />
		<tag k="natural" v="hill" />
		<tag k="place" v="locality" />
		<tag k="ssr:stedsnr" v="355606" />
	</node>
	<node id="-835759" lat="68.8406472231" lon="16.187380548">
		<tag k="name" v="Dalbakken" />
		<tag k="natural" v="slope" />
		<tag k="place" v="locality" />
		<tag k="ssr:stedsnr" v="355598" />
	</node>
	<node id="-835757" lat="68.7189888899" lon="16.3156638998">
		<tag k="name" v="Storbakkan" />
		<tag k="natural" v="slope" />
		<tag k="place" v="locality" />
		<tag k="ssr:stedsnr" v="355589" />
	</node>
	<node id="-835753" lat="68.7202361082" lon="16.2518861022">
		<tag k="fixme" v="consider natural=peak for the most distinct mountains in the district" />
		<tag k="name" v="Tortenfjellet" />
		<tag k="natural" v="hill" />
		<tag k="place" v="locality" />
		<tag k="ssr:stedsnr" v="355582" />
	</node>
	<node id="-835751" lat="68.7378805523" lon="16.2538472256">
		<tag k="name" v="Skarvberget" />
		<tag k="natural" v="hill" />
		<tag k="place" v="locality" />
		<tag k="ssr:stedsnr" v="355529" />
	</node>
	<node id="-835750" lat="68.7410888862" lon="16.2882194327">
		<tag k="name" v="Katteberget" />
		<tag k="natural" v="hill" />
		<tag k="place" v="locality" />
		<tag k="ssr:stedsnr" v="355527" />
	</node>
	<node id="-835749" lat="68.7425944482" lon="16.291544439">
		<tag k="name" v="Nakarhågen" />
		<tag k="natural" v="hill" />
		<tag k="place" v="locality" />
		<tag k="ssr:stedsnr" v="355525" />
	</node>
	<node id="-835748" lat="68.7472333359" lon="16.2558916744">
		<tag k="name" v="Orreleikan" />
		<tag k="natural" v="slope" />
		<tag k="place" v="locality" />
		<tag k="ssr:stedsnr" v="355510" />
	</node>
	<node id="-835746" lat="68.7396055559" lon="16.2975527674">
		<tag k="name" v="Tyttebærhågan" />
		<tag k="natural" v="hill" />
		<tag k="place" v="locality" />
		<tag k="ssr:stedsnr" v="355456" />
	</node>
	<node id="-835744" lat="68.6955555564" lon="15.9565555609">
		<tag k="name" v="Gaukhågen" />
		<tag k="natural" v="hill" />
		<tag k="place" v="locality" />
		<tag k="ssr:stedsnr" v="355440" />
	</node>
	<node id="-835742" lat="68.704788888" lon="15.9696361075">
		<tag k="name" v="Hulderhågen" />
		<tag k="natural" v="hill" />
		<tag k="place" v="locality" />
		<tag k="ssr:stedsnr" v="355402" />
	</node>
	<node id="-835741" lat="68.7163694475" lon="16.0812388867">
		<tag k="name" v="Mathågen" />
		<tag k="natural" v="hill" />
		<tag k="place" v="locality" />
		<tag k="ssr:stedsnr" v="355399" />
	</node>
	<node id="-835740" lat="68.7551166656" lon="16.1546666537">
		<tag k="name" v="Bjørndalen" />
		<tag k="natural" v="valley" />
		<tag k="place" v="locality" />
		<tag k="ssr:stedsnr" v="355350" />
	</node>
	<node id="-835739" lat="68.7502138893" lon="16.1620805603">
		<tag k="name" v="Loftan" />
		<tag k="natural" v="slope" />
		<tag k="place" v="locality" />
		<tag k="ssr:stedsnr" v="355346" />
	</node>
	<node id="-835738" lat="68.6713944482" lon="15.7993277873">
		<tag k="name" v="Atterslåttlemman" />
		<tag k="natural" v="slope" />
		<tag k="place" v="locality" />
		<tag k="ssr:stedsnr" v="355165" />
	</node>
	<node id="-835735" lat="68.6856416699" lon="15.9136527697">
		<tag k="name" v="Aksla" />
		<tag k="place" v="locality" />
		<tag k="ssr:stedsnr" v="355126" />
	</node>
	<node id="-835734" lat="68.694494446" lon="15.8196944334">
		<tag k="name" v="Dalkråa" />
		<tag k="natural" v="valley" />
		<tag k="place" v="locality" />
		<tag k="ssr:stedsnr" v="355124" />
	</node>
	<node id="-835733" lat="68.6420972211" lon="15.9201999883">
		<tag k="name" v="Skogholla" />
		<tag k="natural" v="valley" />
		<tag k="place" v="locality" />
		<tag k="ssr:stedsnr" v="355110" />
	</node>
	<node id="-835732" lat="68.6485305554" lon="15.9292027824">
		<tag k="name" v="Gropa" />
		<tag k="natural" v="valley" />
		<tag k="place" v="locality" />
		<tag k="ssr:stedsnr" v="355106" />
	</node>
	<node id="-835730" lat="68.6379722182" lon="15.9033472273">
		<tag k="name" v="Olderbakkan" />
		<tag k="natural" v="slope" />
		<tag k="place" v="locality" />
		<tag k="ssr:stedsnr" v="355086" />
	</node>
	<node id="-835728" lat="68.6625250033" lon="16.0783500001">
		<tag k="name" v="Notberget" />
		<tag k="natural" v="hill" />
		<tag k="place" v="locality" />
		<tag k="ssr:stedsnr" v="355040" />
	</node>
	<node id="-835726" lat="68.6231833349" lon="16.0316833419">
		<tag k="name" v="Botnsletten" />
		<tag k="place" v="locality" />
		<tag k="ssr:stedsnr" v="355007" />
	</node>
	<node id="-835724" lat="68.6124527789" lon="15.7328166643">
		<tag k="name" v="Storlia" />
		<tag k="natural" v="slope" />
		<tag k="place" v="locality" />
		<tag k="ssr:stedsnr" v="354797" />
	</node>
	<node id="-835723" lat="68.5529527794" lon="15.7464749957">
		<tag k="name" v="Pauliholla" />
		<tag k="natural" v="valley" />
		<tag k="place" v="locality" />
		<tag k="ssr:stedsnr" v="354783" />
	</node>
	<node id="-835722" lat="68.578552775" lon="15.7662222129">
		<tag k="fixme" v="consider natural=peak for the most distinct mountains in the district" />
		<tag k="name" v="Skjellnestinden" />
		<tag k="natural" v="hill" />
		<tag k="ssr:stedsnr" v="354775" />
	</node>
	<node id="-835719" lat="68.7406250021" lon="16.3077416561">
		<tag k="name" v="Munndagsletta" />
		<tag k="place" v="locality" />
		<tag k="ssr:stedsnr" v="354521" />
	</node>
	<node id="-835718" lat="68.6898777757" lon="16.0313249998">
		<tag k="name" v="Storhågen" />
		<tag k="natural" v="hill" />
		<tag k="place" v="locality" />
		<tag k="ssr:stedsnr" v="354500" />
	</node>
	<node id="-835717" lat="68.6745888842" lon="16.1320944533">
		<tag k="fixme" v="consider natural=peak for the most distinct mountains in the district" />
		<tag k="name" v="Fjellbrunen" />
		<tag k="natural" v="hill" />
		<tag k="place" v="locality" />
		<tag k="ssr:stedsnr" v="354442" />
	</node>
	<node id="-835716" lat="68.7141777773" lon="16.1896277847">
		<tag k="name" v="Siridalen" />
		<tag k="natural" v="valley" />
		<tag k="place" v="locality" />
		<tag k="ssr:stedsnr" v="354430" />
	</node>
	<node id="-835715" lat="68.7124611118" lon="16.094672234">
		<tag k="name" v="Sandvikaksla" />
		<tag k="place" v="locality" />
		<tag k="ssr:stedsnr" v="354427" />
	</node>
	<node id="-835713" lat="68.7808361116" lon="16.0656722145">
		<tag k="name" v="Nonshågen" />
		<tag k="natural" v="hill" />
		<tag k="place" v="locality" />
		<tag k="ssr:stedsnr" v="354408" />
	</node>
	<node id="-835712" lat="68.7585250039" lon="16.1034611068">
		<tag k="name" v="Svarteberget" />
		<tag k="natural" v="hill" />
		<tag k="place" v="locality" />
		<tag k="ssr:stedsnr" v="354388" />
	</node>
	<node id="-835711" lat="68.7602166633" lon="16.1368166632">
		<tag k="name" v="Sankt-Hanshågen" />
		<tag k="natural" v="hill" />
		<tag k="place" v="locality" />
		<tag k="ssr:stedsnr" v="354385" />
	</node>
	<node id="-835703" lat="68.7216722197" lon="16.3421527654">
		<tag k="name" v="Svarteberget" />
		<tag k="natural" v="hill" />
		<tag k="place" v="locality" />
		<tag k="ssr:stedsnr" v="321977" />
	</node>
	<node id="-835702" lat="68.7268722266" lon="16.3224250019">
		<tag k="name" v="Høgdene" />
		<tag k="natural" v="hill" />
		<tag k="place" v="locality" />
		<tag k="ssr:stedsnr" v="321973" />
	</node>
	<node id="-835700" lat="68.5517000006" lon="15.6426388778">
		<tag k="fixme" v="consider natural=peak for the most distinct mountains in the district" />
		<tag k="name" v="Løbergsdalstindan" />
		<tag k="natural" v="hill" />
		<tag k="place" v="locality" />
		<tag k="ssr:stedsnr" v="321836" />
	</node>
	<node id="-835696" lat="68.7421111151" lon="16.3062388936">
		<tag k="fixme" v="consider natural=peak for the most distinct mountains in the district" />
		<tag k="name" v="Rossåsen" />
		<tag k="natural" v="hill" />
		<tag k="place" v="locality" />
		<tag k="ssr:stedsnr" v="321791" />
	</node>
	<node id="-835694" lat="68.5192249956" lon="15.7112861166">
		<tag k="fixme" v="consider natural=peak for the most distinct mountains in the district" />
		<tag k="name" v="Keipen" />
		<tag k="natural" v="hill" />
		<tag k="place" v="locality" />
		<tag k="ssr:stedsnr" v="321747" />
	</node>
	<node id="-835693" lat="68.5384333326" lon="15.8183333408">
		<tag k="fixme" v="consider natural=peak for the most distinct mountains in the district" />
		<tag k="loc_name:se" v="Dulbbok" />
		<tag k="name" v="Eidefjellet" />
		<tag k="name:no" v="Eidefjellet" />
		<tag k="natural" v="hill" />
		<tag k="place" v="locality" />
		<tag k="ssr:stedsnr" v="321722" />
	</node>
	<node id="-835692" lat="68.6924972242" lon="15.9055583429">
		<tag k="fixme" v="consider natural=peak for the most distinct mountains in the district" />
		<tag k="name" v="Nordheia" />
		<tag k="natural" v="hill" />
		<tag k="place" v="locality" />
		<tag k="ssr:stedsnr" v="321460" />
	</node>
	<node id="-835690" lat="68.7101388905" lon="16.0828361003">
		<tag k="name" v="Hornflata" />
		<tag k="place" v="locality" />
		<tag k="ssr:stedsnr" v="321444" />
	</node>
	<node id="-835689" lat="68.7768555584" lon="16.254755552">
		<tag k="fixme" v="consider natural=peak for the most distinct mountains in the district" />
		<tag k="name" v="Hoppelia" />
		<tag k="natural" v="hill" />
		<tag k="place" v="locality" />
		<tag k="ssr:stedsnr" v="321440" />
	</node>
	<node id="-835684" lat="68.6246472228" lon="15.8718611083">
		<tag k="alt_name" v="Husbyhola" />
		<tag k="name" v="Husbyholla" />
		<tag k="natural" v="valley" />
		<tag k="place" v="locality" />
		<tag k="ssr:stedsnr" v="321332" />
	</node>
	<node id="-835681" lat="68.6419166668" lon="15.723405556">
		<tag k="name" v="Urddalsskardet" />
		<tag k="natural" v="valley" />
		<tag k="place" v="locality" />
		<tag k="ssr:stedsnr" v="321304" />
	</node>
	<node id="-835677" lat="68.6654611112" lon="15.8814166634">
		<tag k="name" v="Bogdalen" />
		<tag k="natural" v="valley" />
		<tag k="place" v="locality" />
		<tag k="ssr:stedsnr" v="321253" />
	</node>
	<node id="-835676" lat="68.6717444424" lon="16.0917583373">
		<tag k="name" v="Brattlia" />
		<tag k="natural" v="slope" />
		<tag k="place" v="locality" />
		<tag k="ssr:stedsnr" v="321246" />
	</node>
	<node id="-835675" lat="68.6841138915" lon="15.929227784">
		<tag k="alt_name" v="Storhaugen" />
		<tag k="name" v="Storhågen" />
		<tag k="natural" v="hill" />
		<tag k="place" v="locality" />
		<tag k="ssr:stedsnr" v="321243" />
	</node>
	<node id="-835674" lat="68.6564694472" lon="16.2371722347">
		<tag k="name" v="Geađgeláhku" />
		<tag k="name:se" v="Geađgeláhku" />
		<tag k="natural" v="valley" />
		<tag k="old_name:se" v="Gæđgelakko" />
		<tag k="place" v="locality" />
		<tag k="ssr:stedsnr" v="323065" />
	</node>
	<node id="-835670" lat="68.7918055526" lon="16.2026888775">
		<tag k="alt_name" v="Huldhaugen" />
		<tag k="name" v="Huldhågen" />
		<tag k="natural" v="hill" />
		<tag k="place" v="locality" />
		<tag k="ssr:stedsnr" v="321057" />
	</node>
	<node id="-835667" lat="68.8322027799" lon="16.2112055448">
		<tag k="fixme" v="consider natural=peak for the most distinct mountains in the district" />
		<tag k="name" v="Hornspissen" />
		<tag k="natural" v="hill" />
		<tag k="place" v="locality" />
		<tag k="ssr:stedsnr" v="321005" />
	</node>
	<node id="-835665" lat="68.7706444457" lon="16.2612666627">
		<tag k="name" v="Blomlian" />
		<tag k="natural" v="slope" />
		<tag k="place" v="locality" />
		<tag k="ssr:stedsnr" v="320446" />
	</node>
	<node id="-835664" lat="68.6228472224" lon="15.69871667">
		<tag k="name" v="Langvassdalen" />
		<tag k="natural" v="valley" />
		<tag k="place" v="locality" />
		<tag k="ssr:stedsnr" v="321181" />
	</node>
	<node id="-835662" lat="68.6990916678" lon="16.4076194534">
		<tag k="alt_name" v="Skjelhompen" />
		<tag k="fixme" v="consider natural=peak for the most distinct mountains in the district" />
		<tag k="name" v="Skjelhumpen" />
		<tag k="natural" v="hill" />
		<tag k="place" v="locality" />
		<tag k="ssr:stedsnr" v="203178" />
	</node>
	<node id="-835661" lat="68.6850500011" lon="16.3202138869">
		<tag k="name" v="Grashola" />
		<tag k="natural" v="valley" />
		<tag k="place" v="locality" />
		<tag k="ssr:stedsnr" v="203169" />
	</node>
	<node id="-835660" lat="68.6961083301" lon="16.3338916527">
		<tag k="name" v="Ruddadalen" />
		<tag k="natural" v="valley" />
		<tag k="place" v="locality" />
		<tag k="ssr:stedsnr" v="203168" />
	</node>
	<node id="-835657" lat="68.6113194396" lon="16.1250111213">
		<tag k="name" v="Kongsvikhøgda - Čahca" />
		<tag k="name:no" v="Kongsvikhøgda" />
		<tag k="name:se" v="Čahca" />
		<tag k="natural" v="hill" />
		<tag k="place" v="locality" />
		<tag k="ssr:stedsnr" v="200371" />
	</node>
	<node id="-835654" lat="68.6318611118" lon="16.1226388956">
		<tag k="name" v="Djupskardet" />
		<tag k="natural" v="valley" />
		<tag k="place" v="locality" />
		<tag k="ssr:stedsnr" v="200347" />
	</node>
	<node id="-835650" lat="68.8168555558" lon="16.1007722244">
		<tag k="alt_name" v="Middagshaugen" />
		<tag k="name" v="Middagshågen" />
		<tag k="natural" v="hill" />
		<tag k="place" v="locality" />
		<tag k="ssr:stedsnr" v="200288" />
	</node>
	<node id="-835649" lat="68.6632333293" lon="15.7995722192">
		<tag k="name" v="Hesjevollhøgda" />
		<tag k="natural" v="hill" />
		<tag k="place" v="locality" />
		<tag k="ssr:stedsnr" v="200280" />
	</node>
	<node id="-835648" lat="68.6735777733" lon="15.8269694484">
		<tag k="alt_name" v="Nattmålsberget" />
		<tag k="fixme" v="consider natural=peak for the most distinct mountains in the district" />
		<tag k="name" v="Nattmålstinden" />
		<tag k="natural" v="hill" />
		<tag k="place" v="locality" />
		<tag k="ssr:stedsnr" v="200270" />
	</node>
	<node id="-835641" lat="68.7237500005" lon="16.2205638832">
		<tag k="alt_name" v="Strømsfjellet" />
		<tag k="fixme" v="consider natural=peak for the most distinct mountains in the district" />
		<tag k="name" v="Straumsfjellet" />
		<tag k="natural" v="hill" />
		<tag k="place" v="locality" />
		<tag k="ssr:stedsnr" v="199984" />
	</node>
	<node id="-835638" lat="68.7046111121" lon="16.2235277769">
		<tag k="name" v="Brakkehaugen" />
		<tag k="natural" v="hill" />
		<tag k="place" v="locality" />
		<tag k="ssr:stedsnr" v="199887" />
	</node>
	<node id="-835637" lat="68.7106499994" lon="16.2479416621">
		<tag k="fixme" v="consider natural=peak for the most distinct mountains in the district" />
		<tag k="name" v="Nordfjellet" />
		<tag k="natural" v="hill" />
		<tag k="place" v="locality" />
		<tag k="ssr:stedsnr" v="199879" />
	</node>
	<node id="-835635" lat="68.5887722233" lon="15.710744446">
		<tag k="name" v="Trolldalen" />
		<tag k="natural" v="valley" />
		<tag k="place" v="locality" />
		<tag k="ssr:stedsnr" v="199833" />
	</node>
	<node id="-835633" lat="68.5403333371" lon="15.8914444434">
		<tag k="alt_name" v="Låhaugen" />
		<tag k="name" v="Lahaugen" />
		<tag k="natural" v="hill" />
		<tag k="place" v="locality" />
		<tag k="ssr:stedsnr" v="199778" />
	</node>
	<node id="-835632" lat="68.5426444448" lon="15.6803777724">
		<tag k="name" v="Vesterdalen" />
		<tag k="natural" v="valley" />
		<tag k="place" v="locality" />
		<tag k="ssr:stedsnr" v="199771" />
	</node>
	<node id="-835631" lat="68.7071333371" lon="15.9152805464">
		<tag k="fixme" v="consider natural=peak for the most distinct mountains in the district" />
		<tag k="name" v="Stortinden" />
		<tag k="natural" v="hill" />
		<tag k="place" v="locality" />
		<tag k="ssr:stedsnr" v="199488" />
	</node>
	<node id="-835627" lat="68.7135750025" lon="15.9315333308">
		<tag k="name" v="Holandsdalen" />
		<tag k="natural" v="valley" />
		<tag k="place" v="locality" />
		<tag k="ssr:stedsnr" v="199454" />
	</node>
	<node id="-835621" lat="68.5952611149" lon="15.7847333328">
		<tag k="name" v="Oterurhammaren" />
		<tag k="natural" v="hill" />
		<tag k="place" v="locality" />
		<tag k="ssr:stedsnr" v="173938" />
	</node>
	<node id="-835620" lat="68.510152781" lon="15.7280000068">
		<tag k="name" v="Skredhågen" />
		<tag k="natural" v="hill" />
		<tag k="place" v="locality" />
		<tag k="ssr:stedsnr" v="173773" />
	</node>
	<node id="-835619" lat="68.582952782" lon="15.7807027777">
		<tag k="name" v="Strupen" />
		<tag k="natural" v="valley" />
		<tag k="place" v="locality" />
		<tag k="ssr:stedsnr" v="173742" />
	</node>
	<node id="-835618" lat="68.7330055524" lon="16.2019583342">
		<tag k="name" v="Skredhollen" />
		<tag k="natural" v="valley" />
		<tag k="place" v="locality" />
		<tag k="ssr:stedsnr" v="173729" />
	</node>
	<node id="-835613" lat="68.7678222191" lon="16.0975416554">
		<tag k="name" v="Grønnlia" />
		<tag k="natural" v="slope" />
		<tag k="place" v="locality" />
		<tag k="ssr:stedsnr" v="173633" />
	</node>
	<node id="-835609" lat="68.7196972188" lon="16.2965555647">
		<tag k="name" v="Steinbakkan" />
		<tag k="natural" v="slope" />
		<tag k="place" v="locality" />
		<tag k="ssr:stedsnr" v="173578" />
	</node>
	<node id="-835608" lat="68.7112944472" lon="16.2992194327">
		<tag k="name" v="Markusplassen" />
		<tag k="place" v="locality" />
		<tag k="ssr:stedsnr" v="173520" />
	</node>
	<node id="-835606" lat="68.7676305549" lon="16.0856249869">
		<tag k="name" v="Støttelia" />
		<tag k="natural" v="slope" />
		<tag k="place" v="locality" />
		<tag k="ssr:stedsnr" v="173360" />
	</node>
	<node id="-835604" lat="68.6692555577" lon="15.9071805574">
		<tag k="name" v="Einhågen" />
		<tag k="natural" v="hill" />
		<tag k="place" v="locality" />
		<tag k="ssr:stedsnr" v="173181" />
	</node>
	<node id="-835602" lat="68.654225003" lon="15.8330777676">
		<tag k="name" v="Kleivryggen" />
		<tag k="natural" v="ridge" />
		<tag k="place" v="locality" />
		<tag k="ssr:stedsnr" v="173170" />
	</node>
	<node id="-835601" lat="68.6442138868" lon="15.8055777678">
		<tag k="name" v="Pøyla" />
		<tag k="place" v="locality" />
		<tag k="ssr:stedsnr" v="173168" />
	</node>
	<node id="-835600" lat="68.6759055585" lon="15.8758583405">
		<tag k="fixme" v="consider natural=peak for the most distinct mountains in the district" />
		<tag k="name" v="Tredjetinden" />
		<tag k="natural" v="hill" />
		<tag k="ssr:stedsnr" v="173152" />
	</node>
	<node id="-835598" lat="68.6663388876" lon="15.8075222154">
		<tag k="name" v="Hesjevollkollen" />
		<tag k="natural" v="hill" />
		<tag k="place" v="locality" />
		<tag k="ssr:stedsnr" v="173138" />
	</node>
	<node id="-835597" lat="68.6593638932" lon="15.8091194437">
		<tag k="fixme" v="consider natural=peak for the most distinct mountains in the district" />
		<tag k="name" v="Sørfjellet" />
		<tag k="natural" v="hill" />
		<tag k="place" v="locality" />
		<tag k="ssr:stedsnr" v="173128" />
	</node>
	<node id="-835593" lat="68.6806972191" lon="15.860397221">
		<tag k="name" v="Kleiva" />
		<tag k="natural" v="slope" />
		<tag k="place" v="locality" />
		<tag k="ssr:stedsnr" v="173085" />
	</node>
	<node id="-835592" lat="68.6832666685" lon="15.862597232">
		<tag k="fixme" v="consider natural=peak for the most distinct mountains in the district" />
		<tag k="name" v="Danmarkfjellet" />
		<tag k="natural" v="hill" />
		<tag k="place" v="locality" />
		<tag k="ssr:stedsnr" v="173084" />
	</node>
	<node id="-835590" lat="68.6528444446" lon="15.9488388891">
		<tag k="name" v="Legderabben" />
		<tag k="natural" v="hill" />
		<tag k="place" v="locality" />
		<tag k="ssr:stedsnr" v="173040" />
	</node>
	<node id="-835587" lat="68.6642527746" lon="15.9793555517">
		<tag k="name" v="Holmeteigen" />
		<tag k="natural" v="slope" />
		<tag k="place" v="locality" />
		<tag k="ssr:stedsnr" v="173018" />
	</node>
</osm>
