<?xml version="1.0" encoding="UTF-8"?>
<osm version="0.6" generator="osmapis">
	<node lat="68.80936959467157" lon="16.104904324904787" id="-37938">
		<tag k="fixme" v="consider place=hamlet" />
		<tag k="name" v="Utstrand" />
		<tag k="place" v="farm" />
		<tag k="ssr:stedsnr" v="18104" />
	</node>
	<node lat="68.59583333308079" lon="15.817455558901262" id="-37949">
		<tag k="name" v="Skjåberget" />
		<tag k="place" v="farm" />
		<tag k="ssr:stedsnr" v="18784" />
	</node>
	<node lat="68.76934416064643" lon="16.205096867510825" id="-37952">
		<tag k="fixme" v="consider place=hamlet" />
		<tag k="name" v="Strand" />
		<tag k="place" v="farm" />
		<tag k="ssr:stedsnr" v="233325" />
	</node>
	<node lat="68.75015555310821" lon="16.173274997886704" id="-37990">
		<tag k="name" v="Hamn" />
		<tag k="place" v="farm" />
		<tag k="ssr:stedsnr" v="52268" />
	</node>
	<node lat="68.64712222200428" lon="16.093511117402727" id="-37992">
		<tag k="name" v="Finnviken" />
		<tag k="place" v="farm" />
		<tag k="ssr:stedsnr" v="52416" />
	</node>
	<node lat="68.84643458290061" lon="16.163489615322575" id="-37997">
		<tag k="name" v="Molvik" />
		<tag k="place" v="locality" />
		<tag k="ssr:stedsnr" v="52608" />
	</node>
	<node lat="68.67160827232307" lon="15.910511400714249" id="-38014">
		<tag k="fixme" v="consider place=hamlet" />
		<tag k="name" v="Flesnes" />
		<tag k="place" v="farm" />
		<tag k="ssr:stedsnr" v="79245" />
	</node>
	<node lat="68.61670833037276" lon="16.02434443972406" id="-38029">
		<tag k="name" v="Knut-Jonsaheimen" />
		<tag k="place" v="locality" />
		<tag k="ssr:stedsnr" v="112012" />
	</node>
	<node lat="68.66755000048563" lon="15.914097218861786" id="-38064">
		<tag k="name" v="Lanes" />
		<tag k="place" v="farm" />
		<tag k="ssr:stedsnr" v="158648" />
	</node>
	<node lat="68.83366071224961" lon="15.975928495471482" id="-38066">
		<tag k="fixme" v="consider place=hamlet" />
		<tag k="name" v="Gapøy" />
		<tag k="place" v="farm" />
		<tag k="ssr:stedsnr" v="260016" />
	</node>
	<node lat="68.6542094307352" lon="16.08788736601764" id="-38077">
		<tag k="alt_name" v="Forholtan" />
		<tag k="fixme" v="consider place=hamlet" />
		<tag k="name" v="Forrholtan" />
		<tag k="place" v="farm" />
		<tag k="ssr:stedsnr" v="260348" />
	</node>
	<node lat="68.63495278127061" lon="16.048083343621187" id="-38081">
		<tag k="fixme" v="consider tourism=alpine_hut or tourism=chalet" />
		<tag k="name" v="Fossestua" />
		<tag k="ssr:stedsnr" v="260376" />
		<tag k="tourism" v="wilderness_hut" />
	</node>
	<node lat="68.76384968473035" lon="16.22306283873296" id="-38085">
		<tag k="alt_name" v="Gåra, yt" />
		<tag k="fixme" v="consider place=hamlet" />
		<tag k="name" v="Ytre Gåra" />
		<tag k="place" v="farm" />
		<tag k="ssr:stedsnr" v="260471" />
	</node>
	<node lat="68.58503889008273" lon="15.822408333644182" id="-38088">
		<tag k="name" v="Tennholmen" />
		<tag k="place" v="farm" />
		<tag k="ssr:stedsnr" v="260865" />
	</node>
	<node lat="68.73516666279876" lon="16.231911107795117" id="-38110">
		<tag k="name" v="Vikran" />
		<tag k="place" v="isolated_dwelling" />
		<tag k="ssr:stedsnr" v="173708" />
	</node>
	<node lat="68.73228889262957" lon="16.18712777748858" id="-38112">
		<tag k="name" v="Salsætran" />
		<tag k="place" v="isolated_dwelling" />
		<tag k="ssr:stedsnr" v="173723" />
	</node>
	<node lat="68.73551977571252" lon="16.20435382494395" id="-38113">
		<tag k="name" v="Hoklandsætran" />
		<tag k="place" v="farm" />
		<tag k="ssr:stedsnr" v="261453" />
	</node>
	<node lat="68.6502361150692" lon="16.091675003011343" id="-38120">
		<tag k="name" v="Einlia" />
		<tag k="place" v="isolated_dwelling" />
		<tag k="ssr:stedsnr" v="199321" />
	</node>
	<node lat="68.5863083371213" lon="15.79023611690682" id="-38147">
		<tag k="name" v="Bergli" />
		<tag k="place" v="farm" />
		<tag k="ssr:stedsnr" v="233880" />
	</node>
	<node lat="68.76111794084103" lon="16.242578207222515" id="-38148">
		<tag k="name" v="Gåra" />
		<tag k="place" v="hamlet" />
		<tag k="ssr:stedsnr" v="450039" />
	</node>
	<node lat="68.74484625214824" lon="16.27265106675822" id="-38151">
		<tag k="fixme" v="consider place=hamlet" />
		<tag k="name" v="Vik" />
		<tag k="place" v="farm" />
		<tag k="ssr:stedsnr" v="234531" />
	</node>
	<node lat="68.84665287451797" lon="16.161068219787094" id="-38154">
		<tag k="alt_name" v="Molvika;Molvik" />
		<tag k="name" v="Mollvik" />
		<tag k="place" v="farm" />
		<tag k="ssr:stedsnr" v="260053" />
	</node>
	<node lat="68.82443055552862" lon="16.102108329278323" id="-38156">
		<tag k="fixme" v="consider place=hamlet" />
		<tag k="name" v="Elda" />
		<tag k="place" v="farm" />
		<tag k="ssr:stedsnr" v="260154" />
	</node>
	<node lat="68.84879055354511" lon="16.171266683686515" id="-38172">
		<tag k="alt_name" v="Ytre Mollvik" />
		<tag k="fixme" v="consider place=hamlet" />
		<tag k="name" v="Elva" />
		<tag k="place" v="farm" />
		<tag k="ssr:stedsnr" v="460901" />
	</node>
	<node lat="68.82112499598554" lon="16.102805548592574" id="-38189">
		<tag k="name" v="Elde" />
		<tag k="old_name" v="Elda" />
		<tag k="place" v="farm" />
		<tag k="ssr:stedsnr" v="464143" />
	</node>
	<node lat="68.8220638876029" lon="16.096327764639028" id="-38190">
		<tag k="name" v="Elda" />
		<tag k="old_name" v="Elde" />
		<tag k="place" v="farm" />
		<tag k="ssr:stedsnr" v="464144" />
	</node>
	<node lat="68.82713333126654" lon="16.11004998876136" id="-38191">
		<tag k="name" v="Elda" />
		<tag k="old_name" v="Elde" />
		<tag k="place" v="farm" />
		<tag k="ssr:stedsnr" v="464147" />
	</node>
	<node lat="68.65021944704763" lon="16.091644455066398" id="-38200">
		<tag k="name" v="Skreden" />
		<tag k="place" v="isolated_dwelling" />
		<tag k="ssr:stedsnr" v="321286" />
	</node>
	<node lat="68.7440472208595" lon="16.06872223170296" id="-38202">
		<tag k="name" v="Sandvika" />
		<tag k="place" v="farm" />
		<tag k="ssr:stedsnr" v="321406" />
	</node>
	<node lat="68.67946333543543" lon="16.337202315227668" id="-38207">
		<tag k="name" v="Skoglund" />
		<tag k="place" v="farm" />
		<tag k="ssr:stedsnr" v="323134" />
	</node>
	<node lat="68.76800833252754" lon="16.080394455366218" id="-38272">
		<tag k="name" v="Grønlia" />
		<tag k="place" v="farm" />
		<tag k="ssr:stedsnr" v="381171" />
	</node>
	<node lat="68.59705623641202" lon="15.828001658810313" id="-38280">
		<tag k="alt_name:no" v="Gulholmen;Gullholm" />
		<tag k="fixme" v="multiple name tags, choose one and add the other to alt_name; consider place=hamlet" />
		<tag k="name" v="Gullholmen - Gollesuolu;Guollesuolu" />
		<tag k="name:no" v="Gullholmen" />
		<tag k="name:se" v="Gollesuolu;Guollesuolu" />
		<tag k="place" v="farm" />
		<tag k="ssr:stedsnr" v="382804" />
	</node>
	<node lat="68.76256905640234" lon="16.243104422224306" id="-38321">
		<tag k="alt_name" v="Gåra, in" />
		<tag k="fixme" v="consider place=hamlet" />
		<tag k="name" v="Indre Gåra" />
		<tag k="place" v="farm" />
		<tag k="ssr:stedsnr" v="442444" />
	</node>
	<node lat="68.78967357830999" lon="16.12129939451101" id="-38346">
		<tag k="name" v="Dale" />
		<tag k="place" v="farm" />
		<tag k="ssr:stedsnr" v="503073" />
	</node>
	<node lat="68.57091391516694" lon="15.795772493593827" id="-38351">
		<tag k="fixme" v="consider place=hamlet" />
		<tag k="name" v="Våtvoll" />
		<tag k="place" v="village" />
		<tag k="ssr:stedsnr" v="503806" />
	</node>
	<node lat="68.76025449946444" lon="16.09534099914938" id="-38364">
		<tag k="name" v="Skår" />
		<tag k="place" v="farm" />
		<tag k="ssr:stedsnr" v="685172" />
	</node>
	<node lat="68.73946667091214" lon="16.064736099512043" id="-38368">
		<tag k="name" v="Nergård" />
		<tag k="place" v="farm" />
		<tag k="ssr:stedsnr" v="522666" />
	</node>
	<node lat="68.72776944413934" lon="16.066005560756235" id="-38383">
		<tag k="name" v="Øvre Hemmestad" />
		<tag k="old_name" v="Hemmestad øvre" />
		<tag k="place" v="farm" />
		<tag k="ssr:stedsnr" v="685427" />
	</node>
	<node lat="68.71715196220944" lon="16.30258751560199" id="-38396">
		<tag k="name" v="Storlia" />
		<tag k="place" v="farm" />
		<tag k="ssr:stedsnr" v="685986" />
	</node>
	<node lat="68.59946389009316" lon="15.823191669531045" id="-38397">
		<tag k="name" v="Leirvikvågen" />
		<tag k="place" v="farm" />
		<tag k="ssr:stedsnr" v="536186" />
	</node>
	<node lat="68.63367499770966" lon="16.042769432607503" id="-38405">
		<tag k="name" v="Moa" />
		<tag k="place" v="farm" />
		<tag k="ssr:stedsnr" v="537005" />
	</node>
	<node lat="68.78048611068311" lon="16.061083338671626" id="-38429">
		<tag k="name" v="Leite" />
		<tag k="place" v="farm" />
		<tag k="ssr:stedsnr" v="597402" />
	</node>
	<node lat="68.6852166666881" lon="16.028474998765564" id="-38436">
		<tag k="name" v="Revsnes" />
		<tag k="old_name" v="Refsnes" />
		<tag k="place" v="farm" />
		<tag k="ssr:stedsnr" v="604199" />
	</node>
	<node lat="68.65402857434927" lon="15.944905377729283" id="-38445">
		<tag k="fixme" v="consider place=hamlet" />
		<tag k="name" v="Lyså - Lissuk" />
		<tag k="name:no" v="Lyså" />
		<tag k="name:se" v="Lissuk" />
		<tag k="place" v="farm" />
		<tag k="ssr:stedsnr" v="624313" />
	</node>
	<node lat="68.73506667021951" lon="16.148502768433485" id="-38450">
		<tag k="historic" v="shieling" />
		<tag k="name" v="Hundstadsætran" />
		<tag k="old_name" v="Hunstadsætran" />
		<tag k="place" v="isolated_dwelling" />
		<tag k="ssr:stedsnr" v="624461" />
	</node>
	<node lat="68.7448472235086" lon="16.262794454161607" id="-38451">
		<tag k="name" v="Bartega" />
		<tag k="place" v="farm" />
		<tag k="ssr:stedsnr" v="624804" />
	</node>
	<node lat="68.7081222190448" lon="16.30197500191899" id="-38452">
		<tag k="name" v="Vollan" />
		<tag k="place" v="farm" />
		<tag k="ssr:stedsnr" v="624867" />
	</node>
	<node lat="68.70576111303743" lon="16.328630564790146" id="-38453">
		<tag k="alt_name" v="Vikesetran" />
		<tag k="name" v="Viksætra" />
		<tag k="place" v="locality" />
		<tag k="ssr:stedsnr" v="624870" />
	</node>
	<node lat="68.70089722538178" lon="16.30811944518048" id="-38455">
		<tag k="historic" v="shieling" />
		<tag k="name" v="Rudda" />
		<tag k="place" v="isolated_dwelling" />
		<tag k="ssr:stedsnr" v="627155" />
	</node>
	<node lat="68.83601441479345" lon="16.12430619803514" id="-38456">
		<tag k="name" v="Myrvik" />
		<tag k="place" v="farm" />
		<tag k="ssr:stedsnr" v="703893" />
	</node>
	<node lat="68.82490555273364" lon="16.101974989034066" id="-38458">
		<tag k="name" v="Elde" />
		<tag k="old_name" v="Elda" />
		<tag k="place" v="farm" />
		<tag k="ssr:stedsnr" v="707140" />
	</node>
	<node lat="68.75199539608994" lon="16.137417233922147" id="-38474">
		<tag k="name" v="Vebostad" />
		<tag k="place" v="locality" />
		<tag k="ssr:stedsnr" v="658390" />
	</node>
	<node lat="68.77107936257855" lon="16.195327554612224" id="-38481">
		<tag k="fixme" v="consider place=hamlet" />
		<tag k="name" v="Rå" />
		<tag k="place" v="farm" />
		<tag k="ssr:stedsnr" v="658684" />
	</node>
	<node lat="68.6326305523321" lon="15.908922213603478" id="-38488">
		<tag k="name" v="Vassvika" />
		<tag k="place" v="hamlet" />
		<tag k="ssr:stedsnr" v="685309" />
	</node>
	<node lat="68.78086111116323" lon="16.349849990828144" id="-38492">
		<tag k="name" v="Bjørklund" />
		<tag k="place" v="farm" />
		<tag k="ssr:stedsnr" v="685446" />
	</node>
	<node lat="68.6051218837302" lon="15.775666298986438" id="-38493">
		<tag k="alt_name" v="Bømarken" />
		<tag k="fixme" v="consider place=hamlet" />
		<tag k="name" v="Bømarka" />
		<tag k="place" v="farm" />
		<tag k="ssr:stedsnr" v="685349" />
	</node>
	<node lat="68.681349999598" lon="16.32823056385661" id="-38497">
		<tag k="name" v="Tungebakken" />
		<tag k="place" v="farm" />
		<tag k="ssr:stedsnr" v="688127" />
	</node>
	<node lat="68.74880142305271" lon="16.16898709783607" id="-38499">
		<tag k="fixme" v="consider place=hamlet" />
		<tag k="name" v="Hundstad" />
		<tag k="old_name" v="Hunstad" />
		<tag k="place" v="farm" />
		<tag k="ssr:stedsnr" v="693986" />
	</node>
	<node lat="68.78225441212727" lon="16.141136812660896" id="-38516">
		<tag k="fixme" v="consider place=hamlet" />
		<tag k="name" v="Trastad" />
		<tag k="place" v="farm" />
		<tag k="ssr:stedsnr" v="719691" />
	</node>
	<node lat="68.68211666648745" lon="16.034175011734575" id="-38521">
		<tag k="name" v="Revsnes" />
		<tag k="old_name" v="Refsnes" />
		<tag k="place" v="farm" />
		<tag k="ssr:stedsnr" v="726124" />
	</node>
	<node lat="68.5800555567624" lon="15.826019437598898" id="-38560">
		<tag k="name" v="Holten" />
		<tag k="place" v="farm" />
		<tag k="ssr:stedsnr" v="901935" />
	</node>
	<node lat="68.5757222224821" lon="15.826036109190785" id="-38561">
		<tag k="name" v="Solfjell" />
		<tag k="place" v="farm" />
		<tag k="ssr:stedsnr" v="901937" />
	</node>
	<node lat="68.60255555365913" lon="15.787347209607153" id="-38563">
		<tag k="name" v="Torsete" />
		<tag k="place" v="farm" />
		<tag k="ssr:stedsnr" v="901963" />
	</node>
	<node lat="68.75490621882878" lon="16.126166872682255" id="-38565">
		<tag k="alt_name" v="Vebbestad" />
		<tag k="name" v="Vebostad" />
		<tag k="place" v="farm" />
		<tag k="ssr:stedsnr" v="745182" />
	</node>
	<node lat="68.56452168344624" lon="15.826524318531085" id="-38570">
		<tag k="fixme" v="consider place=hamlet" />
		<tag k="name" v="Eidet - Áidi" />
		<tag k="name:no" v="Eidet" />
		<tag k="name:se" v="Áidi" />
		<tag k="place" v="farm" />
		<tag k="ssr:stedsnr" v="745878" />
	</node>
	<node lat="68.77147222613719" lon="16.345213879764756" id="-38594">
		<tag k="historic" v="shieling" />
		<tag k="name" v="Vikelandsstølen" />
		<tag k="place" v="isolated_dwelling" />
		<tag k="ssr:stedsnr" v="827984" />
	</node>
	<node lat="68.82646388673393" lon="16.11778332333147" id="-38595">
		<tag k="name" v="Elde" />
		<tag k="old_name" v="Elda" />
		<tag k="place" v="farm" />
		<tag k="ssr:stedsnr" v="828117" />
	</node>
	<node lat="68.76123405077885" lon="16.09275715810216" id="-38607">
		<tag k="fixme" v="consider place=hamlet" />
		<tag k="name" v="Skår" />
		<tag k="place" v="farm" />
		<tag k="ssr:stedsnr" v="840488" />
	</node>
	<node lat="68.5717638865659" lon="15.829899990932962" id="-38610">
		<tag k="amenity" v="school" />
		<tag k="name" v="Moelv skole" />
		<tag k="ssr:stedsnr" v="840905" />
	</node>
	<node lat="68.7231305583847" lon="16.260158335179977" id="-38617">
		<tag k="name" v="Gammelsætran" />
		<tag k="place" v="locality" />
		<tag k="ssr:stedsnr" v="841507" />
	</node>
	<node lat="68.82452222357605" lon="16.104027767693776" id="-38620">
		<tag k="alt_name" v="Elde" />
		<tag k="fixme" v="consider place=hamlet" />
		<tag k="name" v="Elda" />
		<tag k="place" v="village" />
		<tag k="ssr:stedsnr" v="841619" />
	</node>
	<node lat="68.72736388769117" lon="16.059416674418948" id="-38625">
		<tag k="name" v="Hemmestad øvre" />
		<tag k="old_name" v="Øvre Hemmestad" />
		<tag k="place" v="farm" />
		<tag k="ssr:stedsnr" v="844178" />
	</node>
	<node lat="68.72723333798028" lon="16.06580832971205" id="-38626">
		<tag k="name" v="Øvre Hemmestad" />
		<tag k="old_name" v="Hemmestad, øvre;Hemmestad øvre" />
		<tag k="place" v="farm" />
		<tag k="ssr:stedsnr" v="844179" />
	</node>
	<node lat="68.7674582360409" lon="16.21215823243519" id="-38628">
		<tag k="name" v="Strand" />
		<tag k="place" v="farm" />
		<tag k="ssr:stedsnr" v="927471" />
	</node>
	<node lat="68.6625806780323" lon="15.884181758427689" id="-38634">
		<tag k="fixme" v="consider place=hamlet" />
		<tag k="name" v="Bogen" />
		<tag k="place" v="farm" />
		<tag k="ssr:stedsnr" v="928244" />
	</node>
	<node lat="68.62426369933407" lon="15.768719840000772" id="-38640">
		<tag k="alt_name" v="Forøysætran" />
		<tag k="fixme" v="consider place=hamlet" />
		<tag k="name" v="Forøysæter" />
		<tag k="place" v="farm" />
		<tag k="ssr:stedsnr" v="928300" />
	</node>
	<node lat="68.74889999973936" lon="16.165241674034615" id="-38642">
		<tag k="name" v="Hundstad" />
		<tag k="place" v="farm" />
		<tag k="ssr:stedsnr" v="928393" />
	</node>
	<node lat="68.71810841276891" lon="16.061083650246786" id="-38643">
		<tag k="alt_name" v="Skommesvika" />
		<tag k="fixme" v="consider place=hamlet" />
		<tag k="name" v="Skommesvik" />
		<tag k="place" v="farm" />
		<tag k="ssr:stedsnr" v="928442" />
	</node>
	<node lat="68.54577222056217" lon="15.761211116032419" id="-38649">
		<tag k="alt_name" v="Våtvoll, l" />
		<tag k="name" v="Litle Våtvoll" />
		<tag k="place" v="farm" />
		<tag k="ssr:stedsnr" v="928860" />
	</node>
	<node lat="68.7351629293842" lon="16.242049951354144" id="-38650">
		<tag k="fixme" v="consider place=hamlet" />
		<tag k="name" v="Straumen - Strávvi" />
		<tag k="name:no" v="Straumen" />
		<tag k="name:se" v="Strávvi" />
		<tag k="place" v="farm" />
		<tag k="ssr:stedsnr" v="928947" />
	</node>
	<node lat="68.65291903519653" lon="15.853112652221533" id="-38659">
		<tag k="name" v="Solvik" />
		<tag k="place" v="farm" />
		<tag k="ssr:stedsnr" v="886663" />
	</node>
	<node lat="68.8425286948779" lon="16.142923086352564" id="-38675">
		<tag k="fixme" v="consider place=hamlet" />
		<tag k="name" v="Haugen" />
		<tag k="place" v="farm" />
		<tag k="ssr:stedsnr" v="901652" />
	</node>
	<node lat="68.61787222113863" lon="15.760341673938754" id="-38694">
		<tag k="fixme" v="consider place=hamlet" />
		<tag k="loc_name" v="Langvassbukt" />
		<tag k="name" v="Langvassbukta" />
		<tag k="place" v="village" />
		<tag k="ssr:stedsnr" v="928321" />
	</node>
	<node lat="68.73901666464528" lon="16.124800001815988" id="-38699">
		<tag k="alt_name" v="Vebestadsætran" />
		<tag k="name" v="Vebbestadsætran" />
		<tag k="place" v="isolated_dwelling" />
		<tag k="ssr:stedsnr" v="928413" />
	</node>
	<node lat="68.673554919294" lon="16.348737496662793" id="-38706">
		<tag k="fixme" v="consider place=hamlet" />
		<tag k="name" v="Storjorda - Stuorgieddi" />
		<tag k="name:no" v="Storjorda" />
		<tag k="name:se" v="Stuorgieddi" />
		<tag k="place" v="village" />
		<tag k="ssr:stedsnr" v="930111" />
	</node>
	<node lat="68.65345923141571" lon="15.848663467417529" id="-38746">
		<tag k="alt_name:no" v="Gambogen" />
		<tag k="fixme" v="consider place=hamlet" />
		<tag k="name" v="Gombogen - Gámbohki" />
		<tag k="name:no" v="Gombogen" />
		<tag k="name:se" v="Gámbohki" />
		<tag k="place" v="farm" />
		<tag k="ssr:stedsnr" v="17347" />
	</node>
	<node lat="68.74232119909867" lon="16.276586894626494" id="-38766">
		<tag k="name" v="Vik" />
		<tag k="place" v="farm" />
		<tag k="ssr:stedsnr" v="18761" />
	</node>
	<node lat="68.6942583333148" lon="16.342041667548912" id="-38788">
		<tag k="name" v="Almenningssætran" />
		<tag k="place" v="locality" />
		<tag k="ssr:stedsnr" v="51640" />
	</node>
	<node lat="68.53596808247477" lon="15.755247844306632" id="-38830">
		<tag k="fixme" v="consider place=hamlet" />
		<tag k="name" v="Gullesfjordbotn - Skájeaggi" />
		<tag k="name:no" v="Gullesfjordbotn" />
		<tag k="name:se" v="Skájeaggi" />
		<tag k="place" v="farm" />
		<tag k="ssr:stedsnr" v="78774" />
	</node>
	<node lat="68.57313333056253" lon="15.824369434879955" id="-38831">
		<tag k="alt_name" v="Gammalgården" />
		<tag k="name" v="Gammelgården" />
		<tag k="place" v="farm" />
		<tag k="ssr:stedsnr" v="78859" />
	</node>
	<node lat="68.78928081833364" lon="16.12479228139942" id="-38864">
		<tag k="fixme" v="consider place=hamlet" />
		<tag k="name" v="Dale" />
		<tag k="place" v="farm" />
		<tag k="ssr:stedsnr" v="112730" />
	</node>
	<node lat="68.58784444488342" lon="15.822427783564336" id="-38874">
		<tag k="name" v="Åsheim" />
		<tag k="place" v="farm" />
		<tag k="ssr:stedsnr" v="112840" />
	</node>
	<node lat="68.68033055874189" lon="16.038552787082775" id="-38882">
		<tag k="name" v="Revsnes" />
		<tag k="old_name" v="Refsnes" />
		<tag k="place" v="farm" />
		<tag k="ssr:stedsnr" v="119188" />
	</node>
	<node lat="68.7813013513687" lon="16.13854897288807" id="-38886">
		<tag k="alt_name" v="Trastad Gård" />
		<tag k="name" v="Trastad" />
		<tag k="place" v="farm" />
		<tag k="ssr:stedsnr" v="138083" />
	</node>
	<node lat="68.76643055949167" lon="16.326950007637304" id="-38893">
		<tag k="historic" v="shieling" />
		<tag k="name" v="Storhaugen" />
		<tag k="place" v="isolated_dwelling" />
		<tag k="ssr:stedsnr" v="138454" />
	</node>
	<node lat="68.75326634032757" lon="16.25699600910398" id="-38895">
		<tag k="fixme" v="consider place=hamlet" />
		<tag k="name" v="Vikeland" />
		<tag k="place" v="farm" />
		<tag k="ssr:stedsnr" v="138322" />
	</node>
	<node lat="68.76957601279727" lon="16.076658066063395" id="-38919">
		<tag k="fixme" v="consider place=hamlet" />
		<tag k="name" v="Haug" />
		<tag k="place" v="farm" />
		<tag k="ssr:stedsnr" v="158676" />
	</node>
	<node lat="68.65420555393638" lon="16.082447221901795" id="-38920">
		<tag k="name" v="Finnvik" />
		<tag k="place" v="locality" />
		<tag k="ssr:stedsnr" v="158681" />
	</node>
	<node lat="68.82258332927778" lon="16.107713891914546" id="-38921">
		<tag k="name" v="Elde" />
		<tag k="old_name" v="Elda" />
		<tag k="place" v="farm" />
		<tag k="ssr:stedsnr" v="161149" />
	</node>
	<node lat="68.68036944304333" lon="16.03450721115926" id="-38964">
		<tag k="fixme" v="consider place=hamlet" />
		<tag k="loc_name:se" v="Reavččak" />
		<tag k="name" v="Revsnes" />
		<tag k="name:no" v="Revsnes" />
		<tag k="place" v="farm" />
		<tag k="ssr:stedsnr" v="180191" />
	</node>
	<node lat="68.72725555324378" lon="16.291913881820303" id="-38967">
		<tag k="name" v="Vonheim" />
		<tag k="place" v="farm" />
		<tag k="ssr:stedsnr" v="199979" />
	</node>
	<node lat="68.77261111267582" lon="16.171147215614166" id="-38972">
		<tag k="name" v="Borkenes" />
		<tag k="place" v="village" />
		<tag k="ssr:stedsnr" v="199188" />
	</node>
	<node lat="68.66340297660172" lon="16.081497705308088" id="-38987">
		<tag k="alt_name:no" v="Melå;Melåen" />
		<tag k="fixme" v="consider place=hamlet" />
		<tag k="name" v="Melåa - Mieluk" />
		<tag k="name:no" v="Melåa" />
		<tag k="name:se" v="Mieluk" />
		<tag k="place" v="farm" />
		<tag k="ssr:stedsnr" v="200298" />
	</node>
	<node lat="68.71076666876613" lon="16.301927778389757" id="-38994">
		<tag k="name" v="Solheim" />
		<tag k="place" v="farm" />
		<tag k="ssr:stedsnr" v="200868" />
	</node>
	<node lat="68.68505731574976" lon="16.320226386834506" id="-38997">
		<tag k="name" v="Grashola - Rássegohpi" />
		<tag k="name:no" v="Grashola" />
		<tag k="name:se" v="Rássegohpi" />
		<tag k="place" v="locality" />
		<tag k="ssr:stedsnr" v="203169" />
	</node>
	<node lat="68.758508333544" lon="16.245924992624136" id="-39016">
		<tag k="name" v="Gamman" />
		<tag k="place" v="locality" />
		<tag k="ssr:stedsnr" v="294286" />
	</node>
	<node lat="68.74132867163252" lon="16.06801154457234" id="-39028">
		<tag k="alt_name" v="Sandvik" />
		<tag k="fixme" v="consider place=hamlet" />
		<tag k="name" v="Sandvika" />
		<tag k="place" v="farm" />
		<tag k="ssr:stedsnr" v="294493" />
	</node>
	<node lat="68.71620277779978" lon="16.318277780568007" id="-39029">
		<tag k="name" v="Aletsætran" />
		<tag k="place" v="locality" />
		<tag k="ssr:stedsnr" v="294593" />
	</node>
	<node lat="68.72474444844593" lon="16.2986333392034" id="-39060">
		<tag k="name" v="Solheim" />
		<tag k="place" v="farm" />
		<tag k="ssr:stedsnr" v="321970" />
	</node>
	<node lat="68.7567439690837" lon="16.115852322670808" id="-39072">
		<tag k="alt_name" v="Gardløs" />
		<tag k="fixme" v="consider place=hamlet" />
		<tag k="name" v="Gardløys" />
		<tag k="place" v="farm" />
		<tag k="ssr:stedsnr" v="354349" />
	</node>
	<node lat="68.68358888829984" lon="16.031063888813808" id="-39180">
		<tag k="name" v="Revsnes" />
		<tag k="old_name" v="Refsnes" />
		<tag k="place" v="farm" />
		<tag k="ssr:stedsnr" v="423128" />
	</node>
	<node lat="68.74148333134534" lon="16.284594432027372" id="-39193">
		<tag k="fixme" v="consider place=hamlet" />
		<tag k="name" v="Voktor" />
		<tag k="place" v="farm" />
		<tag k="ssr:stedsnr" v="442826" />
	</node>
	<node lat="68.73363610800853" lon="16.27501111109439" id="-39200">
		<tag k="name" v="Kristligflata" />
		<tag k="place" v="farm" />
		<tag k="ssr:stedsnr" v="443947" />
	</node>
	<node lat="68.59443333629875" lon="15.81599445571446" id="-39210">
		<tag k="name" v="Skinnhallaren" />
		<tag k="place" v="farm" />
		<tag k="ssr:stedsnr" v="503783" />
	</node>
	<node lat="68.57149999640343" lon="15.827902788565565" id="-39216">
		<tag k="alt_name" v="Moelv" />
		<tag k="fixme" v="consider place=hamlet" />
		<tag k="name" v="Moelva" />
		<tag k="place" v="village" />
		<tag k="ssr:stedsnr" v="503801" />
	</node>
	<node lat="68.67338611500644" lon="16.07721390034462" id="-39222">
		<tag k="name" v="Bjørnlia" />
		<tag k="place" v="farm" />
		<tag k="ssr:stedsnr" v="503235" />
	</node>
	<node lat="68.63255024507438" lon="15.861331233650501" id="-39229">
		<tag k="alt_name" v="Huseby" />
		<tag k="fixme" v="consider place=hamlet" />
		<tag k="name" v="Husby" />
		<tag k="place" v="farm" />
		<tag k="ssr:stedsnr" v="503315" />
	</node>
	<node lat="68.69173682312497" lon="15.95513321713168" id="-39239">
		<tag k="fixme" v="consider place=hamlet" />
		<tag k="name" v="Holand" />
		<tag k="place" v="farm" />
		<tag k="ssr:stedsnr" v="503461" />
	</node>
	<node lat="68.67078610790254" lon="16.369902770182435" id="-39244">
		<tag k="name" v="Øvergården" />
		<tag k="place" v="farm" />
		<tag k="ssr:stedsnr" v="505114" />
	</node>
	<node lat="68.74267777812673" lon="16.10308055346292" id="-39289">
		<tag k="name" v="Garnbukta" />
		<tag k="place" v="isolated_dwelling" />
		<tag k="ssr:stedsnr" v="563413" />
	</node>
	<node lat="68.75431666578915" lon="16.164436109869452" id="-39298">
		<tag k="name" v="Hokland" />
		<tag k="place" v="farm" />
		<tag k="ssr:stedsnr" v="563155" />
	</node>
	<node lat="68.80706389090128" lon="16.228786107739108" id="-39310">
		<tag k="name" v="Koven" />
		<tag k="place" v="isolated_dwelling" />
		<tag k="ssr:stedsnr" v="563362" />
	</node>
	<node lat="68.7085472189407" lon="16.305536118090384" id="-39321">
		<tag k="name" v="Nygård" />
		<tag k="place" v="farm" />
		<tag k="ssr:stedsnr" v="563905" />
	</node>
	<node lat="68.71913611024225" lon="16.29996666653514" id="-39323">
		<tag k="name" v="Lavollen" />
		<tag k="place" v="farm" />
		<tag k="ssr:stedsnr" v="563987" />
	</node>
	<node lat="68.86301052386116" lon="16.19796122477451" id="-39326">
		<tag k="fixme" v="consider place=hamlet" />
		<tag k="name" v="Bremnes" />
		<tag k="place" v="farm" />
		<tag k="ssr:stedsnr" v="571984" />
	</node>
	<node lat="68.82459444695863" lon="16.103225003188392" id="-39328">
		<tag k="name" v="Elde" />
		<tag k="old_name" v="Elda" />
		<tag k="place" v="farm" />
		<tag k="ssr:stedsnr" v="585129" />
	</node>
	<node lat="68.8217750003201" lon="16.09804998990227" id="-39329">
		<tag k="name" v="Elda" />
		<tag k="old_name" v="Elde" />
		<tag k="place" v="farm" />
		<tag k="ssr:stedsnr" v="585137" />
	</node>
	<node lat="68.63804166600464" lon="16.044786106221267" id="-39346">
		<tag k="name" v="Sætran" />
		<tag k="place" v="locality" />
		<tag k="ssr:stedsnr" v="597065" />
	</node>
	<node lat="68.66865696143134" lon="16.041402328118405" id="-39396">
		<tag k="fixme" v="consider place=hamlet" />
		<tag k="name" v="Kjengsnes - Geaŋkkak" />
		<tag k="name:no" v="Kjengsnes" />
		<tag k="name:se" v="Geaŋkkak" />
		<tag k="place" v="farm" />
		<tag k="ssr:stedsnr" v="624291" />
	</node>
	<node lat="68.71783611308332" lon="16.197763898132607" id="-39408">
		<tag k="name" v="Saldalskråa" />
		<tag k="place" v="isolated_dwelling" />
		<tag k="ssr:stedsnr" v="624487" />
	</node>
	<node lat="68.73797777718464" lon="16.258286113867463" id="-39417">
		<tag k="name" v="Lamhagan" />
		<tag k="place" v="farm" />
		<tag k="ssr:stedsnr" v="624942" />
	</node>
	<node lat="68.73841163066348" lon="16.271393204129307" id="-39419">
		<tag k="name" v="Kleiva" />
		<tag k="place" v="farm" />
		<tag k="ssr:stedsnr" v="624965" />
	</node>
	<node lat="68.75516863410598" lon="16.161165115839403" id="-39430">
		<tag k="fixme" v="consider place=hamlet" />
		<tag k="name" v="Hokland" />
		<tag k="place" v="farm" />
		<tag k="ssr:stedsnr" v="657376" />
	</node>
	<node lat="68.7867219109674" lon="16.069566738248334" id="-39433">
		<tag k="fixme" v="consider place=hamlet" />
		<tag k="name" v="Øynes" />
		<tag k="place" v="farm" />
		<tag k="ssr:stedsnr" v="657418" />
	</node>
	<node lat="68.64371361717171" lon="16.05698062071556" id="-39474">
		<tag k="fixme" v="consider place=hamlet" />
		<tag k="name" v="Aspenes" />
		<tag k="place" v="farm" />
		<tag k="ssr:stedsnr" v="719051" />
	</node>
	<node lat="68.78336388738198" lon="16.33361388962325" id="-39492">
		<tag k="name" v="Kvilheim" />
		<tag k="place" v="isolated_dwelling" />
		<tag k="ssr:stedsnr" v="719960" />
	</node>
	<node lat="68.76214999730414" lon="16.249499997979385" id="-39505">
		<tag k="name" v="Skallan" />
		<tag k="place" v="farm" />
		<tag k="ssr:stedsnr" v="745446" />
	</node>
	<node lat="68.56165000238421" lon="15.746583324034908" id="-39508">
		<tag k="name" v="Løbergsbukta" />
		<tag k="place" v="isolated_dwelling" />
		<tag k="ssr:stedsnr" v="745891" />
	</node>
	<node lat="68.59391944252212" lon="16.06522776566679" id="-39530">
		<tag k="fixme" v="consider tourism=alpine_hut or tourism=chalet" />
		<tag k="name" v="Haakonsbu" />
		<tag k="old_name" v="Håkonsbu" />
		<tag k="ssr:stedsnr" v="750155" />
		<tag k="tourism" v="wilderness_hut" />
	</node>
	<node lat="68.73617222053245" lon="16.244397212495734" id="-39531">
		<tag k="name" v="Straumen - Strávvi" />
		<tag k="name:no" v="Straumen" />
		<tag k="name:se" v="Strávvi" />
		<tag k="place" v="hamlet" />
		<tag k="ssr:stedsnr" v="753032" />
	</node>
	<node lat="68.75571554997983" lon="16.120185202273184" id="-39589">
		<tag k="alt_name" v="Gardløs" />
		<tag k="name" v="Gardløys" />
		<tag k="place" v="farm" />
		<tag k="ssr:stedsnr" v="806145" />
	</node>
	<node lat="68.63500833617968" lon="16.07784165854764" id="-39598">
		<tag k="name" v="Botnjorda" />
		<tag k="place" v="isolated_dwelling" />
		<tag k="ssr:stedsnr" v="806333" />
	</node>
	<node lat="68.64091389313906" lon="16.089899993368647" id="-39599">
		<tag k="name" v="Seljeneset" />
		<tag k="place" v="isolated_dwelling" />
		<tag k="ssr:stedsnr" v="806338" />
	</node>
	<node lat="68.77201388821315" lon="16.33053889905112" id="-39605">
		<tag k="historic" v="shieling" />
		<tag k="name" v="Prestlahaugen" />
		<tag k="place" v="isolated_dwelling" />
		<tag k="ssr:stedsnr" v="806436" />
	</node>
	<node lat="68.7218611124552" lon="16.298969453306253" id="-39615">
		<tag k="name" v="Voktarstranda" />
		<tag k="place" v="isolated_dwelling" />
		<tag k="ssr:stedsnr" v="806976" />
	</node>
	<node lat="68.67906944333996" lon="16.04845833428126" id="-39620">
		<tag k="alt_name:no" v="Refsnes" />
		<tag k="fixme" v="consider place=hamlet" />
		<tag k="name" v="Revsnes - Reavččak" />
		<tag k="name:no" v="Revsnes" />
		<tag k="name:se" v="Reavččak" />
		<tag k="place" v="village" />
		<tag k="ssr:stedsnr" v="807246" />
	</node>
	<node lat="68.7315075098447" lon="16.061909199583894" id="-39626">
		<tag k="name" v="Hemmestad - Hinak" />
		<tag k="name:no" v="Hemmestad" />
		<tag k="name:se" v="Hinak" />
		<tag k="place" v="hamlet" />
		<tag k="ssr:stedsnr" v="807428" />
	</node>
	<node lat="68.73250555897363" lon="16.24788610178738" id="-39630">
		<tag k="name" v="Vika" />
		<tag k="place" v="farm" />
		<tag k="ssr:stedsnr" v="807945" />
	</node>
	<node lat="68.73551388499776" lon="16.265425007174816" id="-39631">
		<tag k="name" v="Rydningen" />
		<tag k="place" v="farm" />
		<tag k="ssr:stedsnr" v="807969" />
	</node>
	<node lat="68.677119441034" lon="16.353372214771777" id="-39632">
		<tag k="historic" v="shieling" />
		<tag k="name" v="Gammelheimen" />
		<tag k="place" v="isolated_dwelling" />
		<tag k="ssr:stedsnr" v="808099" />
	</node>
	<node lat="68.6808999999606" lon="16.33267223266537" id="-39633">
		<tag k="name" v="Frydenlund" />
		<tag k="place" v="farm" />
		<tag k="ssr:stedsnr" v="809134" />
	</node>
	<node lat="68.83832499973953" lon="16.12260000047114" id="-39636">
		<tag k="name" v="Bonstadvik" />
		<tag k="place" v="farm" />
		<tag k="ssr:stedsnr" v="824890" />
	</node>
	<node lat="68.68796111182444" lon="15.946799990286063" id="-39643">
		<tag k="name" v="Holand" />
		<tag k="place" v="hamlet" />
		<tag k="ssr:stedsnr" v="840499" />
	</node>
	<node lat="68.66979166310172" lon="15.902561119587821" id="-39695">
		<tag k="name" v="Lamarka" />
		<tag k="place" v="locality" />
		<tag k="ssr:stedsnr" v="867314" />
	</node>
	<node lat="68.73488333052809" lon="16.22436665550827" id="-39719">
		<tag k="alt_name" v="Hestevik;Heslevika" />
		<tag k="name" v="Hestvika" />
		<tag k="place" v="farm" />
		<tag k="ssr:stedsnr" v="868925" />
	</node>
	<node lat="68.7366333330638" lon="16.0566666590635" id="-39729">
		<tag k="alt_name" v="Hemmestad indre" />
		<tag k="name" v="Indre Hemmestad" />
		<tag k="place" v="farm" />
		<tag k="ssr:stedsnr" v="961415" />
	</node>
	<node lat="68.7339722215974" lon="16.054583338871442" id="-39730">
		<tag k="name" v="Brekka" />
		<tag k="place" v="farm" />
		<tag k="ssr:stedsnr" v="961416" />
	</node>
	<node lat="68.66876389231228" lon="16.36372778805944" id="-39759">
		<tag k="fixme" v="consider place=hamlet" />
		<tag k="name" v="Storjorda - Stuorgieddi" />
		<tag k="name:no" v="Storjorda" />
		<tag k="name:se" v="Stuorgieddi" />
		<tag k="place" v="farm" />
		<tag k="ssr:stedsnr" v="962590" />
	</node>
	<node lat="68.84255031937467" lon="16.128617554083704" id="-39762">
		<tag k="fixme" v="consider place=hamlet" />
		<tag k="name" v="Aspenes" />
		<tag k="place" v="farm" />
		<tag k="ssr:stedsnr" v="962621" />
	</node>
	<node lat="68.57055443019738" lon="15.797155382577511" id="-39789">
		<tag k="fixme" v="consider place=hamlet" />
		<tag k="name" v="Våtvoll" />
		<tag k="place" v="farm" />
		<tag k="ssr:stedsnr" v="1073130" />
	</node>
	<node lat="69.65483861708206" lon="18.954055597917613" id="-39792">
		<tag k="amenity" v="school" />
		<tag k="name" v="Ishavsbyen videregående skole" />
		<tag k="ssr:stedsnr" v="1075695" />
	</node>
	<node lat="68.71741310552923" lon="15.987128165129421" id="-39793">
		<tag k="alt_name" v="Røyrvik" />
		<tag k="fixme" v="consider place=hamlet" />
		<tag k="name" v="Rørvika" />
		<tag k="place" v="farm" />
		<tag k="ssr:stedsnr" v="1077078" />
	</node>
	<node lat="68.62422002845992" lon="15.66854643776133" id="-39794">
		<tag k="fixme" v="consider place=hamlet" />
		<tag k="name" v="Langvassdalen" />
		<tag k="place" v="farm" />
		<tag k="ssr:stedsnr" v="1077079" />
	</node>
	<node lat="68.57205369300226" lon="15.83411691508311" id="-39795">
		<tag k="fixme" v="consider place=hamlet" />
		<tag k="name" v="Moelv" />
		<tag k="place" v="farm" />
		<tag k="ssr:stedsnr" v="1077081" />
	</node>
	<node lat="68.73430850470199" lon="16.206139901103157" id="-39796">
		<tag k="fixme" v="consider place=hamlet" />
		<tag k="name" v="Salen - Sáttal" />
		<tag k="name:no" v="Salen" />
		<tag k="name:se" v="Sáttal" />
		<tag k="place" v="farm" />
		<tag k="ssr:stedsnr" v="1077089" />
	</node>
	<node lat="68.6632426993855" lon="16.085931166007637" id="-39802">
		<tag k="name" v="Melåa - Mieluk" />
		<tag k="name:no" v="Melåa" />
		<tag k="name:se" v="Mieluk" />
		<tag k="place" v="hamlet" />
		<tag k="ssr:stedsnr" v="1077557" />
	</node>
	<node lat="68.73145736071204" lon="16.061893775118033" id="-39803">
		<tag k="fixme" v="consider place=hamlet" />
		<tag k="name" v="Hemmestad - Hinak" />
		<tag k="name:no" v="Hemmestad" />
		<tag k="name:se" v="Hinak" />
		<tag k="place" v="village" />
		<tag k="ssr:stedsnr" v="1077558" />
	</node>
	<node lat="68.82809653879175" lon="16.109447067463837" id="-39804">
		<tag k="name" v="Elda" />
		<tag k="old_name" v="Elde" />
		<tag k="place" v="farm" />
		<tag k="ssr:stedsnr" v="1077813" />
	</node>
	<node lat="68.82232827432627" lon="16.108676524104528" id="-39805">
		<tag k="name" v="Elde" />
		<tag k="place" v="farm" />
		<tag k="ssr:stedsnr" v="1077814" />
	</node>
	<node lat="68.68187752647198" lon="16.034432261285158" id="-39806">
		<tag k="name" v="Revsnes" />
		<tag k="old_name" v="Refsnes" />
		<tag k="place" v="farm" />
		<tag k="ssr:stedsnr" v="1077816" />
	</node>
	<node lat="68.68052669451782" lon="16.038226637105684" id="-39807">
		<tag k="name" v="Revsnes" />
		<tag k="old_name" v="Refsnes" />
		<tag k="place" v="farm" />
		<tag k="ssr:stedsnr" v="1077817" />
	</node>
	<node lat="68.68068931707862" lon="16.03331591436094" id="-39808">
		<tag k="name" v="Revsnes" />
		<tag k="old_name" v="Refsnes" />
		<tag k="place" v="farm" />
		<tag k="ssr:stedsnr" v="1077818" />
	</node>
</osm>
