<?xml version="1.0" encoding="UTF-8"?>
<osm version="0.6" generator="osmapis">
	<node lat="68.60916111288522" lon="15.8205555540518" id="-97569">
		<tag k="name" v="Ura" />
		<tag k="natural" v="scree" />
		<tag k="ssr:stedsnr" v="51217" />
	</node>
	<node lat="68.54897221884575" lon="15.746027783382013" id="-97576">
		<tag k="name" v="Erlandsteinen" />
		<tag k="natural" v="stone" />
		<tag k="ssr:stedsnr" v="51784" />
	</node>
	<node lat="68.69123889150231" lon="15.846219451560406" id="-97580">
		<tag k="name" v="Gråsteinen" />
		<tag k="natural" v="stone" />
		<tag k="ssr:stedsnr" v="52085" />
	</node>
	<node lat="68.67798055451948" lon="15.84095277296984" id="-97581">
		<tag k="name" v="Trollkirka" />
		<tag k="natural" v="stone" />
		<tag k="ssr:stedsnr" v="52087" />
	</node>
	<node lat="68.51936666503416" lon="15.753555565442317" id="-97591">
		<tag k="name" v="Høljejorda" />
		<tag k="place" v="locality" />
		<tag k="ssr:stedsnr" v="52771" />
	</node>
	<node lat="68.76434722383487" lon="16.28654167508031" id="-97601">
		<tag k="name" v="Lemyra" />
		<tag k="natural" v="wetland" />
		<tag k="ssr:stedsnr" v="78448" />
	</node>
	<node lat="68.67620555467805" lon="15.905569445771183" id="-97620">
		<tag k="name" v="Banmyra" />
		<tag k="natural" v="wetland" />
		<tag k="ssr:stedsnr" v="233182" />
	</node>
	<node lat="68.70281388963761" lon="15.974286121417192" id="-97629">
		<tag k="name" v="Elveøyra" />
		<tag k="place" v="locality" />
		<tag k="ssr:stedsnr" v="233480" />
	</node>
	<node lat="68.72975000109645" lon="16.231805566767093" id="-97639">
		<tag k="name" v="Mikalmyra" />
		<tag k="natural" v="wetland" />
		<tag k="ssr:stedsnr" v="233779" />
	</node>
	<node lat="68.73021666949901" lon="16.1920333337713" id="-97653">
		<tag k="name" v="Storura" />
		<tag k="natural" v="scree" />
		<tag k="ssr:stedsnr" v="234770" />
	</node>
	<node lat="68.64312221965682" lon="16.053999990912615" id="-97659">
		<tag k="name" v="Urteigen" />
		<tag k="place" v="locality" />
		<tag k="ssr:stedsnr" v="112066" />
	</node>
	<node lat="68.6383222186927" lon="16.051583335291166" id="-97660">
		<tag k="name" v="Botnleira" />
		<tag k="place" v="locality" />
		<tag k="ssr:stedsnr" v="112068" />
	</node>
	<node lat="68.70605000209021" lon="15.949577782502617" id="-97667">
		<tag k="name" v="Storsteinan" />
		<tag k="natural" v="stone" />
		<tag k="ssr:stedsnr" v="112471" />
	</node>
	<node lat="68.70343333134461" lon="16.330899986298775" id="-97670">
		<tag k="name" v="Reingårdsmyra" />
		<tag k="natural" v="wetland" />
		<tag k="ssr:stedsnr" v="112580" />
	</node>
	<node lat="68.83509722471803" lon="16.166166660362173" id="-97678">
		<tag k="alt_name" v="Lahaugsmyra" />
		<tag k="name" v="Lahågmyran" />
		<tag k="natural" v="wetland" />
		<tag k="ssr:stedsnr" v="138010" />
	</node>
	<node lat="68.8474527753135" lon="16.21146944645119" id="-97679">
		<tag k="name" v="Lysmyra" />
		<tag k="natural" v="wetland" />
		<tag k="ssr:stedsnr" v="138038" />
	</node>
	<node lat="68.8626805582611" lon="16.034111105663982" id="-97686">
		<tag k="name" v="Gamvikmyra" />
		<tag k="natural" v="wetland" />
		<tag k="ssr:stedsnr" v="139036" />
	</node>
	<node lat="68.67210555830113" lon="16.019344451878467" id="-97698">
		<tag k="name" v="Juvikmyran" />
		<tag k="natural" v="wetland" />
		<tag k="ssr:stedsnr" v="173022" />
	</node>
	<node lat="68.63744444746274" lon="15.907908328691116" id="-97699">
		<tag k="name" v="Trollmyra" />
		<tag k="natural" v="wetland" />
		<tag k="ssr:stedsnr" v="173068" />
	</node>
	<node lat="68.74772500053972" lon="16.155236103043098" id="-97703">
		<tag k="name" v="Orkattura" />
		<tag k="natural" v="scree" />
		<tag k="ssr:stedsnr" v="173324" />
	</node>
	<node lat="68.65651388632327" lon="16.087819454114967" id="-97706">
		<tag k="name" v="Skarmyra" />
		<tag k="natural" v="wetland" />
		<tag k="ssr:stedsnr" v="173417" />
	</node>
	<node lat="68.8556916664826" lon="16.012313888149002" id="-97736">
		<tag k="alt_name" v="Vålskardmyra;Våskarmyra" />
		<tag k="name" v="Vålskarmyra" />
		<tag k="natural" v="wetland" />
		<tag k="ssr:stedsnr" v="442045" />
	</node>
	<node lat="68.55056666622926" lon="15.852891675407342" id="-97750">
		<tag k="name" v="Stormyra" />
		<tag k="natural" v="wetland" />
		<tag k="ssr:stedsnr" v="442891" />
	</node>
	<node lat="68.62557500006871" lon="15.770444447621983" id="-97764">
		<tag k="landuse" v="meadow" />
		<tag k="name" v="Petterteigen" />
		<tag k="ssr:stedsnr" v="233810" />
	</node>
	<node lat="68.68026944739152" lon="16.194983339176265" id="-97776">
		<tag k="name" v="Melåmyran" />
		<tag k="natural" v="wetland" />
		<tag k="ssr:stedsnr" v="260313" />
	</node>
	<node lat="68.88275555071195" lon="16.068133342386837" id="-97794">
		<tag k="name" v="Gulføttingsmyra" />
		<tag k="natural" v="wetland" />
		<tag k="ssr:stedsnr" v="294407" />
	</node>
	<node lat="68.61357777769636" lon="15.904758328680039" id="-97809">
		<tag k="name" v="Storura" />
		<tag k="natural" v="scree" />
		<tag k="ssr:stedsnr" v="295989" />
	</node>
	<node lat="68.59691389055241" lon="15.81698333843702" id="-97830">
		<tag k="name" v="Galten" />
		<tag k="place" v="locality" />
		<tag k="ssr:stedsnr" v="354205" />
	</node>
	<node lat="68.83789167032889" lon="16.151594446245785" id="-97847">
		<tag k="name" v="Forsemyran" />
		<tag k="natural" v="wetland" />
		<tag k="ssr:stedsnr" v="355605" />
	</node>
	<node lat="68.75774444902002" lon="16.139366665390472" id="-97879">
		<tag k="name" v="Andreas-Bendiksamyra" />
		<tag k="natural" v="wetland" />
		<tag k="ssr:stedsnr" v="416340" />
	</node>
	<node lat="68.79928611071828" lon="16.13329722145129" id="-97888">
		<tag k="name" v="Grønnlimyra" />
		<tag k="natural" v="wetland" />
		<tag k="ssr:stedsnr" v="416696" />
	</node>
	<node lat="68.56055277953261" lon="15.7615916748873" id="-97899">
		<tag k="name" v="Slåttejorda" />
		<tag k="place" v="locality" />
		<tag k="ssr:stedsnr" v="475760" />
	</node>
	<node lat="68.64129166502913" lon="15.919125005900533" id="-97901">
		<tag k="name" v="Henrikslåtta" />
		<tag k="place" v="locality" />
		<tag k="ssr:stedsnr" v="476101" />
	</node>
	<node lat="68.71107500381828" lon="15.979005551130225" id="-97907">
		<tag k="name" v="Rørvikmyra" />
		<tag k="natural" v="wetland" />
		<tag k="ssr:stedsnr" v="476439" />
	</node>
	<node lat="68.71085555425135" lon="15.947847229728906" id="-97908">
		<tag k="name" v="Revura" />
		<tag k="natural" v="scree" />
		<tag k="ssr:stedsnr" v="476440" />
	</node>
	<node lat="68.7068388917633" lon="15.965780557451142" id="-97909">
		<tag k="name" v="Storåsmyra" />
		<tag k="natural" v="wetland" />
		<tag k="ssr:stedsnr" v="476441" />
	</node>
	<node lat="68.81600833686993" lon="16.105958324717164" id="-97921">
		<tag k="name" v="Kårmyrholla" />
		<tag k="natural" v="wetland" />
		<tag k="ssr:stedsnr" v="476651" />
	</node>
	<node lat="68.58578610823983" lon="15.787036107122235" id="-97929">
		<tag k="name" v="Lysmyra" />
		<tag k="natural" v="wetland" />
		<tag k="ssr:stedsnr" v="476864" />
	</node>
	<node lat="68.72534722453051" lon="15.992386108995168" id="-97938">
		<tag k="alt_name" v="Hemmestadsætran" />
		<tag k="historic" v="shieling" />
		<tag k="name" v="Hemmestadsætra" />
		<tag k="place" v="locality" />
		<tag k="ssr:stedsnr" v="442457" />
	</node>
	<node lat="68.86218055210773" lon="16.01830277149669" id="-97954">
		<tag k="name" v="Molvikskogen" />
		<tag k="place" v="locality" />
		<tag k="ssr:stedsnr" v="475404" />
	</node>
	<node lat="68.68566389000111" lon="16.041533344350846" id="-97989">
		<tag k="name" v="Orresteinen" />
		<tag k="natural" v="stone" />
		<tag k="ssr:stedsnr" v="536483" />
	</node>
	<node lat="68.6842999986239" lon="15.880583327247736" id="-97998">
		<tag k="name" v="Hesjevollen" />
		<tag k="natural" v="wetland" />
		<tag k="ssr:stedsnr" v="537103" />
	</node>
	<node lat="68.83959444232194" lon="16.19460277286804" id="-98007">
		<tag k="name" v="Hestemyra" />
		<tag k="natural" v="wetland" />
		<tag k="ssr:stedsnr" v="537610" />
	</node>
	<node lat="68.62966666840006" lon="15.92018610730451" id="-98015">
		<tag k="name" v="Tjukkeskogen" />
		<tag k="place" v="locality" />
		<tag k="ssr:stedsnr" v="537987" />
	</node>
	<node lat="68.77141666604794" lon="16.292436113824234" id="-98016">
		<tag k="name" v="Blomlimyra" />
		<tag k="natural" v="wetland" />
		<tag k="ssr:stedsnr" v="537988" />
	</node>
	<node lat="68.5305666648136" lon="15.79917222915688" id="-98020">
		<tag k="name" v="Stormyra" />
		<tag k="natural" v="wetland" />
		<tag k="ssr:stedsnr" v="563185" />
	</node>
	<node lat="68.84671389250138" lon="16.006644454254857" id="-98027">
		<tag k="name" v="Dikmyra" />
		<tag k="natural" v="wetland" />
		<tag k="ssr:stedsnr" v="685020" />
	</node>
	<node lat="68.8757777746843" lon="16.059266658681477" id="-98091">
		<tag k="alt_name" v="Teisturda" />
		<tag k="name" v="Teistura" />
		<tag k="natural" v="scree" />
		<tag k="ssr:stedsnr" v="624064" />
	</node>
	<node lat="68.73823611447325" lon="16.05926112360733" id="-98123">
		<tag k="landuse" v="meadow" />
		<tag k="name" v="Lesjaåkran" />
		<tag k="ssr:stedsnr" v="657489" />
	</node>
	<node lat="68.61732222680914" lon="15.665844441315542" id="-98124">
		<tag k="name" v="Andreassteinen" />
		<tag k="natural" v="stone" />
		<tag k="ssr:stedsnr" v="657739" />
	</node>
	<node lat="68.64593055799715" lon="15.916341660696467" id="-98128">
		<tag k="name" v="Oterura" />
		<tag k="natural" v="scree" />
		<tag k="ssr:stedsnr" v="658097" />
	</node>
	<node lat="68.6845805538974" lon="15.868230562104518" id="-98130">
		<tag k="name" v="Danmark" />
		<tag k="natural" v="wetland" />
		<tag k="ssr:stedsnr" v="658109" />
	</node>
	<node lat="68.7354694463266" lon="16.274350007164077" id="-98135">
		<tag k="name" v="Hågmyran" />
		<tag k="natural" v="wetland" />
		<tag k="ssr:stedsnr" v="658492" />
	</node>
	<node lat="68.84067222461327" lon="16.205369448557448" id="-98142">
		<tag k="name" v="Godmyran" />
		<tag k="natural" v="wetland" />
		<tag k="ssr:stedsnr" v="658640" />
	</node>
	<node lat="68.67974722558576" lon="15.915636108271874" id="-98162">
		<tag k="name" v="Holandskogmyra" />
		<tag k="natural" v="wetland" />
		<tag k="ssr:stedsnr" v="719106" />
	</node>
	<node lat="68.70368055702681" lon="15.9662472328272" id="-98165">
		<tag k="name" v="Litjeåsmyra" />
		<tag k="natural" v="wetland" />
		<tag k="ssr:stedsnr" v="719414" />
	</node>
	<node lat="68.77574166983574" lon="16.237819436300303" id="-98167">
		<tag k="name" v="Skittendikmyra" />
		<tag k="natural" v="wetland" />
		<tag k="ssr:stedsnr" v="719610" />
	</node>
	<node lat="68.84271111177402" lon="16.2334277830846" id="-98177">
		<tag k="name" v="Åsmyra" />
		<tag k="natural" v="wetland" />
		<tag k="ssr:stedsnr" v="745431" />
	</node>
	<node lat="68.69240278273999" lon="15.947030545292755" id="-98191">
		<tag k="name" v="Grønneslåtten" />
		<tag k="place" v="locality" />
		<tag k="ssr:stedsnr" v="779505" />
	</node>
	<node lat="68.64751111489113" lon="16.044513896281405" id="-98195">
		<tag k="name" v="Kvanntomyran" />
		<tag k="natural" v="wetland" />
		<tag k="ssr:stedsnr" v="780065" />
	</node>
	<node lat="68.8362694472402" lon="16.18803332864463" id="-98200">
		<tag k="name" v="Tomasåkeren" />
		<tag k="place" v="locality" />
		<tag k="ssr:stedsnr" v="780560" />
	</node>
	<node lat="68.68313333068805" lon="15.887524995046624" id="-98216">
		<tag k="name" v="Rundskogmyran" />
		<tag k="natural" v="wetland" />
		<tag k="ssr:stedsnr" v="901097" />
	</node>
	<node lat="68.68188888735698" lon="15.898116677943808" id="-98217">
		<tag k="name" v="Tortlenesmyran" />
		<tag k="natural" v="wetland" />
		<tag k="ssr:stedsnr" v="901099" />
	</node>
	<node lat="68.71758055169208" lon="16.195155554555132" id="-98225">
		<tag k="name" v="Benjaminsteinen" />
		<tag k="natural" v="stone" />
		<tag k="ssr:stedsnr" v="901432" />
	</node>
	<node lat="68.71728333593619" lon="16.3381722290202" id="-98240">
		<tag k="name" v="Nils-Persamyra" />
		<tag k="natural" v="wetland" />
		<tag k="ssr:stedsnr" v="901585" />
	</node>
	<node lat="68.68849999871338" lon="15.862283334622697" id="-98290">
		<tag k="name" v="Langemyra" />
		<tag k="natural" v="wetland" />
		<tag k="ssr:stedsnr" v="841106" />
	</node>
	<node lat="68.8583750036696" lon="16.2417583338395" id="-98295">
		<tag k="name" v="Oksholtan" />
		<tag k="place" v="locality" />
		<tag k="ssr:stedsnr" v="841630" />
	</node>
	<node lat="68.64790555196927" lon="15.924261110232338" id="-98315">
		<tag k="alt_name" v="Nebbsteinhella" />
		<tag k="name" v="Nebbesteinhella" />
		<tag k="natural" v="stone" />
		<tag k="ssr:stedsnr" v="867338" />
	</node>
	<node lat="68.67885833827557" lon="15.906447212243178" id="-98330">
		<tag k="name" v="Skarmyra" />
		<tag k="natural" v="wetland" />
		<tag k="ssr:stedsnr" v="901106" />
	</node>
	<node lat="68.66746111205963" lon="15.869666670929167" id="-98337">
		<tag k="name" v="Pålslåtta" />
		<tag k="place" v="locality" />
		<tag k="ssr:stedsnr" v="901158" />
	</node>
	<node lat="68.68466666944853" lon="15.87434167891753" id="-98376">
		<tag k="name" v="Skavskjulmyra" />
		<tag k="natural" v="wetland" />
		<tag k="ssr:stedsnr" v="962108" />
	</node>
	<node lat="68.6649249987866" lon="15.804811118872923" id="-98377">
		<tag k="name" v="Hesjevollmyra" />
		<tag k="natural" v="wetland" />
		<tag k="ssr:stedsnr" v="962143" />
	</node>
	<node lat="68.70658055972757" lon="15.9724972300155" id="-98390">
		<tag k="name" v="Bjørnmyra" />
		<tag k="natural" v="wetland" />
		<tag k="ssr:stedsnr" v="962437" />
	</node>
	<node lat="68.65375278192401" lon="15.782866655971109" id="-98437">
		<tag k="name" v="Storurda" />
		<tag k="natural" v="scree" />
		<tag k="ssr:stedsnr" v="18262" />
	</node>
	<node lat="68.71660277734983" lon="16.211975007445776" id="-98457">
		<tag k="name" v="Preikestolen" />
		<tag k="natural" v="stone" />
		<tag k="ssr:stedsnr" v="51466" />
	</node>
	<node lat="68.73800832935667" lon="16.0816361150379" id="-98458">
		<tag k="name" v="Storura" />
		<tag k="natural" v="scree" />
		<tag k="ssr:stedsnr" v="51528" />
	</node>
	<node lat="68.53581666481183" lon="15.749102767727825" id="-98465">
		<tag k="name" v="Krestengamsteinen" />
		<tag k="natural" v="stone" />
		<tag k="ssr:stedsnr" v="51843" />
	</node>
	<node lat="68.84350833180116" lon="16.17353887973696" id="-98484">
		<tag k="name" v="Kvitmyra" />
		<tag k="natural" v="wetland" />
		<tag k="ssr:stedsnr" v="52598" />
	</node>
	<node lat="68.77413055743035" lon="16.28245555452833" id="-98502">
		<tag k="name" v="Stormyra" />
		<tag k="natural" v="wetland" />
		<tag k="ssr:stedsnr" v="78467" />
	</node>
	<node lat="68.64786666917108" lon="15.953197233170403" id="-98527">
		<tag k="name" v="Finnkannsteinen" />
		<tag k="natural" v="stone" />
		<tag k="ssr:stedsnr" v="112061" />
	</node>
	<node lat="68.80125278060028" lon="16.13105277035813" id="-98537">
		<tag k="name" v="Langmyra" />
		<tag k="natural" v="wetland" />
		<tag k="ssr:stedsnr" v="112726" />
	</node>
	<node lat="68.62886389036805" lon="15.901922232912332" id="-98564">
		<tag k="name" v="Stormyra" />
		<tag k="natural" v="wetland" />
		<tag k="ssr:stedsnr" v="113990" />
	</node>
	<node lat="68.76072777498814" lon="16.30030278828447" id="-98569">
		<tag k="name" v="Stormyra" />
		<tag k="natural" v="wetland" />
		<tag k="ssr:stedsnr" v="138450" />
	</node>
	<node lat="68.71097222465285" lon="16.282238895723985" id="-98584">
		<tag k="name" v="Straumssetran" />
		<tag k="place" v="locality" />
		<tag k="ssr:stedsnr" v="138987" />
	</node>
	<node lat="68.65181111525743" lon="15.939888885344471" id="-98616">
		<tag k="name" v="Storsteinen" />
		<tag k="natural" v="stone" />
		<tag k="ssr:stedsnr" v="173039" />
	</node>
	<node lat="68.67956666946151" lon="15.909077767405952" id="-98618">
		<tag k="name" v="Djupedalsmyra" />
		<tag k="natural" v="wetland" />
		<tag k="ssr:stedsnr" v="173104" />
	</node>
	<node lat="68.79917500215481" lon="16.1626638917071" id="-98638">
		<tag k="name" v="Titterskogen" />
		<tag k="place" v="locality" />
		<tag k="ssr:stedsnr" v="173676" />
	</node>
	<node lat="68.72807222180673" lon="16.154508326431817" id="-98650">
		<tag k="name" v="Hundstadskogen" />
		<tag k="place" v="locality" />
		<tag k="ssr:stedsnr" v="199437" />
	</node>
	<node lat="68.85633611090752" lon="16.024525011414198" id="-98656">
		<tag k="name" v="Storvikmyra" />
		<tag k="natural" v="wetland" />
		<tag k="ssr:stedsnr" v="200040" />
	</node>
	<node lat="68.66649166616452" lon="15.887775007398709" id="-98723">
		<tag k="name" v="Blåura" />
		<tag k="natural" v="scree" />
		<tag k="ssr:stedsnr" v="294150" />
	</node>
	<node lat="68.67458333327829" lon="15.924894432914714" id="-98724">
		<tag k="name" v="Flesnesøyra" />
		<tag k="place" v="locality" />
		<tag k="ssr:stedsnr" v="294160" />
	</node>
	<node lat="68.75603055641427" lon="16.126027779713123" id="-98730">
		<tag k="name" v="Reinsura" />
		<tag k="natural" v="scree" />
		<tag k="ssr:stedsnr" v="294381" />
	</node>
	<node lat="68.73826110847284" lon="16.27866388853384" id="-98781">
		<tag k="name" v="Voktormyra" />
		<tag k="natural" v="wetland" />
		<tag k="ssr:stedsnr" v="354530" />
	</node>
	<node lat="68.6812111120794" lon="15.885541676052144" id="-98783">
		<tag k="name" v="Lavollen" />
		<tag k="natural" v="wetland" />
		<tag k="ssr:stedsnr" v="355129" />
	</node>
	<node lat="68.66576944153957" lon="15.817091671929322" id="-98784">
		<tag k="name" v="Langemyra" />
		<tag k="natural" v="wetland" />
		<tag k="ssr:stedsnr" v="355154" />
	</node>
	<node lat="68.6492722239673" lon="15.954161106441461" id="-98788">
		<tag k="name" v="Slettesteinen" />
		<tag k="natural" v="stone" />
		<tag k="ssr:stedsnr" v="355046" />
	</node>
	<node lat="68.64011110915203" lon="15.905944452759455" id="-98791">
		<tag k="name" v="Skarmyra" />
		<tag k="natural" v="wetland" />
		<tag k="ssr:stedsnr" v="355093" />
	</node>
	<node lat="68.84398333317566" lon="16.17851388949449" id="-98802">
		<tag k="name" v="Lars Sjursa myra" />
		<tag k="natural" v="wetland" />
		<tag k="ssr:stedsnr" v="355600" />
	</node>
	<node lat="68.69850277672512" lon="15.966055564181147" id="-98806">
		<tag k="name" v="Tausjorda" />
		<tag k="place" v="locality" />
		<tag k="ssr:stedsnr" v="355441" />
	</node>
	<node lat="68.7669333301303" lon="16.27840277916598" id="-98814">
		<tag k="name" v="Røsselbekkmyra" />
		<tag k="natural" v="wetland" />
		<tag k="ssr:stedsnr" v="355992" />
	</node>
	<node lat="68.72676389133574" lon="16.13523055875633" id="-98815">
		<tag k="name" v="Per-Andreasmyra" />
		<tag k="natural" v="wetland" />
		<tag k="ssr:stedsnr" v="355696" />
	</node>
	<node lat="68.68051667030028" lon="16.41148889573381" id="-98819">
		<tag k="name" v="Storjorda" />
		<tag k="place" v="locality" />
		<tag k="ssr:stedsnr" v="355944" />
	</node>
	<node lat="68.60467778074114" lon="15.786780558887763" id="-98820">
		<tag k="name" v="Bømarkøyra" />
		<tag k="place" v="locality" />
		<tag k="ssr:stedsnr" v="355951" />
	</node>
	<node lat="68.79881666557993" lon="16.12599723058952" id="-98836">
		<tag k="alt_name" v="Kutjørnmyra" />
		<tag k="name" v="Kutjønnmyra" />
		<tag k="natural" v="wetland" />
		<tag k="ssr:stedsnr" v="382101" />
	</node>
	<node lat="68.77958332971704" lon="16.087224993078806" id="-98849">
		<tag k="name" v="Bulisteinen" />
		<tag k="natural" v="stone" />
		<tag k="ssr:stedsnr" v="415427" />
	</node>
	<node lat="68.6610361104381" lon="15.890283336545231" id="-98863">
		<tag k="name" v="Elveøyra" />
		<tag k="place" v="locality" />
		<tag k="ssr:stedsnr" v="416156" />
	</node>
	<node lat="68.66982777845807" lon="16.085163889718196" id="-98869">
		<tag k="name" v="Olderteigura" />
		<tag k="natural" v="scree" />
		<tag k="ssr:stedsnr" v="416045" />
	</node>
	<node lat="68.70239722256156" lon="16.257244454225216" id="-98875">
		<tag k="name" v="Langmyra" />
		<tag k="natural" v="wetland" />
		<tag k="ssr:stedsnr" v="416581" />
	</node>
	<node lat="68.7742138876514" lon="16.24045556692967" id="-98877">
		<tag k="name" v="Harshågmyra" />
		<tag k="natural" v="wetland" />
		<tag k="ssr:stedsnr" v="416638" />
	</node>
	<node lat="68.77824722052615" lon="16.210033335412295" id="-98897">
		<tag k="fixme" v="multiple name tags, choose one and add the other to alt_name" />
		<tag k="name" v="Sjustakkmyra;Sjurbakkmyra" />
		<tag k="natural" v="wetland" />
		<tag k="ssr:stedsnr" v="503163" />
	</node>
	<node lat="68.67483610759894" lon="15.922241670389143" id="-98934">
		<tag k="name" v="Nyjorda" />
		<tag k="place" v="locality" />
		<tag k="ssr:stedsnr" v="537156" />
	</node>
	<node lat="68.56236944796287" lon="15.788511099554361" id="-98939">
		<tag k="name" v="Kobbesteinan" />
		<tag k="natural" v="stone" />
		<tag k="ssr:stedsnr" v="536940" />
	</node>
	<node lat="68.8564694417471" lon="16.236688882364337" id="-98949">
		<tag k="name" v="Merremyra" />
		<tag k="natural" v="wetland" />
		<tag k="ssr:stedsnr" v="537623" />
	</node>
	<node lat="68.64065833193024" lon="16.092683340404975" id="-98951">
		<tag k="name" v="Liskogen" />
		<tag k="place" v="locality" />
		<tag k="ssr:stedsnr" v="537442" />
	</node>
	<node lat="68.77468888795784" lon="16.206630559938297" id="-98978">
		<tag k="name" v="Prestemyra" />
		<tag k="natural" v="wetland" />
		<tag k="ssr:stedsnr" v="563173" />
	</node>
	<node lat="68.6615055548531" lon="15.802149987093996" id="-99011">
		<tag k="name" v="Storura" />
		<tag k="natural" v="scree" />
		<tag k="ssr:stedsnr" v="597145" />
	</node>
	<node lat="68.59573333439877" lon="15.786099992824598" id="-99041">
		<tag k="name" v="Oterura" />
		<tag k="natural" v="scree" />
		<tag k="ssr:stedsnr" v="598937" />
	</node>
	<node lat="68.6342833348014" lon="15.881641654924513" id="-99042">
		<tag k="name" v="Kvitsteinura" />
		<tag k="natural" v="scree" />
		<tag k="ssr:stedsnr" v="598994" />
	</node>
	<node lat="68.74610277633195" lon="16.318877776193133" id="-99075">
		<tag k="name" v="Toskevassmyra" />
		<tag k="natural" v="wetland" />
		<tag k="ssr:stedsnr" v="624802" />
	</node>
	<node lat="68.76830278167542" lon="16.2652638881726" id="-99107">
		<tag k="name" v="Esumyra" />
		<tag k="natural" v="wetland" />
		<tag k="ssr:stedsnr" v="658984" />
	</node>
	<node lat="68.64620277455083" lon="15.952336105423894" id="-99123">
		<tag k="name" v="Tjukkeskogen" />
		<tag k="place" v="locality" />
		<tag k="ssr:stedsnr" v="719040" />
	</node>
	<node lat="68.77711388661183" lon="16.33949165622382" id="-99150">
		<tag k="name" v="Steinholmyra" />
		<tag k="natural" v="wetland" />
		<tag k="ssr:stedsnr" v="719964" />
	</node>
	<node lat="68.77693333516723" lon="16.31273056494985" id="-99156">
		<tag k="name" v="Jenssokkmyra" />
		<tag k="natural" v="wetland" />
		<tag k="ssr:stedsnr" v="745462" />
	</node>
	<node lat="68.8254944434768" lon="16.14157223322312" id="-99172">
		<tag k="name" v="Kjærlighetsmyra" />
		<tag k="natural" v="wetland" />
		<tag k="ssr:stedsnr" v="746129" />
	</node>
	<node lat="68.76216111137529" lon="16.102955555825982" id="-99189">
		<tag k="name" v="Durmålshella" />
		<tag k="natural" v="stone" />
		<tag k="ssr:stedsnr" v="779385" />
	</node>
	<node lat="68.65740278068282" lon="16.08653889078394" id="-99204">
		<tag k="name" v="Forrholtan" />
		<tag k="place" v="locality" />
		<tag k="ssr:stedsnr" v="780048" />
	</node>
	<node lat="68.6924916691261" lon="15.841849989586985" id="-99207">
		<tag k="name" v="Storura" />
		<tag k="natural" v="scree" />
		<tag k="ssr:stedsnr" v="780121" />
	</node>
	<node lat="68.66210000108238" lon="15.837827772078889" id="-99209">
		<tag k="name" v="Klevensteinen" />
		<tag k="natural" v="stone" />
		<tag k="ssr:stedsnr" v="780148" />
	</node>
	<node lat="68.72619722538667" lon="16.254033339678067" id="-99212">
		<tag k="name" v="Stiuran" />
		<tag k="natural" v="scree" />
		<tag k="ssr:stedsnr" v="780451" />
	</node>
	<node lat="68.77905555827836" lon="16.25885000917567" id="-99223">
		<tag k="name" v="Hoppelimyra" />
		<tag k="natural" v="wetland" />
		<tag k="ssr:stedsnr" v="780981" />
	</node>
	<node lat="68.85116944751037" lon="16.01363333035623" id="-99273">
		<tag k="name" v="Dikmyra" />
		<tag k="natural" v="wetland" />
		<tag k="ssr:stedsnr" v="840385" />
	</node>
	<node lat="68.88344444241086" lon="16.06965000508311" id="-99274">
		<tag k="name" v="Seingsmyra" />
		<tag k="natural" v="wetland" />
		<tag k="ssr:stedsnr" v="840390" />
	</node>
	<node lat="68.71398333164989" lon="16.21981111468507" id="-99278">
		<tag k="name" v="Snøkofta" />
		<tag k="natural" v="glacier" />
		<tag k="ssr:stedsnr" v="840412" />
	</node>
	<node lat="68.66510555485185" lon="15.826508339879116" id="-99290">
		<tag k="name" v="Tverrskogen" />
		<tag k="place" v="locality" />
		<tag k="ssr:stedsnr" v="841154" />
	</node>
	<node lat="68.64284722698758" lon="15.952872215396807" id="-99294">
		<tag k="name" v="Leira" />
		<tag k="place" v="locality" />
		<tag k="ssr:stedsnr" v="841048" />
	</node>
	<node lat="68.62854444112756" lon="15.819055556402501" id="-99313">
		<tag k="name" v="Heimjorda" />
		<tag k="place" v="locality" />
		<tag k="ssr:stedsnr" v="841968" />
	</node>
	<node lat="68.82880555551084" lon="16.165572228988413" id="-99318">
		<tag k="name" v="Svartdalsmyran" />
		<tag k="natural" v="wetland" />
		<tag k="ssr:stedsnr" v="867153" />
	</node>
	<node lat="68.68188333122954" lon="16.04566110558228" id="-99387">
		<tag k="name" v="Innerholtan" />
		<tag k="place" v="locality" />
		<tag k="ssr:stedsnr" v="961486" />
	</node>
</osm>
