<?xml version="1.0" encoding="UTF-8"?>
<osm version="0.6" generator="osmapis">
	<node lat="68.65066667065436" lon="16.136419444838708" id="-37931">
		<tag k="name" v="Tverrelvvatnan" />
		<tag k="natural" v="water" />
		<tag k="ssr:stedsnr" v="17359" />
		<tag k="water" v="lake" />
	</node>
	<node lat="68.69250833454083" lon="15.80694723415466" id="-37932">
		<tag k="name" v="Andre Tverrelva" />
		<tag k="ssr:stedsnr" v="233118" />
		<tag k="waterway" v="stream" />
	</node>
	<node lat="68.69051389070486" lon="15.892163886734664" id="-37933">
		<tag k="name" v="Kvannbekken" />
		<tag k="ssr:stedsnr" v="233122" />
		<tag k="waterway" v="stream" />
	</node>
	<node lat="68.83192777350926" lon="16.155586114938124" id="-37936">
		<tag k="name" v="Finnevatnet" />
		<tag k="natural" v="water" />
		<tag k="ssr:stedsnr" v="18009" />
	</node>
	<node lat="68.80417499802117" lon="16.15645276715143" id="-37937">
		<tag k="name" v="Trollvatnet" />
		<tag k="natural" v="water" />
		<tag k="ssr:stedsnr" v="18103" />
	</node>
	<node lat="68.81088889191588" lon="16.113077789200766" id="-37939">
		<tag k="name" v="Utstrandvatnet" />
		<tag k="natural" v="water" />
		<tag k="ssr:stedsnr" v="18107" />
	</node>
	<node lat="68.65546388790945" lon="16.35214722587599" id="-37953">
		<tag k="fixme" v="multiple name tags, choose one and add the other to alt_name" />
		<tag k="name" v="Aurvatnet;Dagborvatnet - Dápmokborjávri" />
		<tag k="name:no" v="Aurvatnet;Dagborvatnet" />
		<tag k="name:se" v="Dápmokborjávri" />
		<tag k="natural" v="water" />
		<tag k="ssr:stedsnr" v="20048" />
		<tag k="water" v="lake" />
	</node>
	<node lat="68.67383055388362" lon="16.186163893523002" id="-37957">
		<tag k="name" v="Førstevatnet" />
		<tag k="natural" v="water" />
		<tag k="ssr:stedsnr" v="233467" />
		<tag k="water" v="lake" />
	</node>
	<node lat="68.66329722255618" lon="16.371255551871155" id="-37959">
		<tag k="name" v="Myrvasselva" />
		<tag k="ssr:stedsnr" v="233653" />
		<tag k="waterway" v="stream" />
	</node>
	<node lat="68.54232777452148" lon="15.76458333197967" id="-37972">
		<tag k="name" v="Håelva" />
		<tag k="ssr:stedsnr" v="233843" />
		<tag k="waterway" v="stream" />
	</node>
	<node lat="68.71623333024587" lon="16.24447500502978" id="-37980">
		<tag k="name" v="Brillevatnet" />
		<tag k="natural" v="water" />
		<tag k="ssr:stedsnr" v="51468" />
	</node>
	<node lat="68.66849722275035" lon="16.20153889647349" id="-37982">
		<tag k="name" v="Revet" />
		<tag k="natural" v="cape" />
		<tag k="ssr:stedsnr" v="51475" />
	</node>
	<node lat="68.75721111090087" lon="16.244566661426273" id="-37991">
		<tag k="name" v="Øyra" />
		<tag k="natural" v="bay" />
		<tag k="ssr:stedsnr" v="52269" />
	</node>
	<node lat="68.65428889188117" lon="16.090752775554712" id="-37993">
		<tag k="name" v="Gårdsbekken" />
		<tag k="ssr:stedsnr" v="52417" />
		<tag k="waterway" v="stream" />
	</node>
	<node lat="68.79943332943832" lon="16.225955544938778" id="-37998">
		<tag k="name" v="Høgfossen" />
		<tag k="natural" v="waterfall" />
		<tag k="ssr:stedsnr" v="52677" />
	</node>
	<node lat="68.73038610880099" lon="15.983569432785462" id="-38010">
		<tag k="name" v="Skredbekken" />
		<tag k="ssr:stedsnr" v="78459" />
		<tag k="waterway" v="stream" />
	</node>
	<node lat="68.7113722197735" lon="16.32268333570426" id="-38013">
		<tag k="name" v="Asenbakkbekken" />
		<tag k="ssr:stedsnr" v="78897" />
		<tag k="waterway" v="stream" />
	</node>
	<node lat="68.66533055331998" lon="15.873813881355197" id="-38015">
		<tag k="name" v="Bogelva" />
		<tag k="ssr:stedsnr" v="79252" />
		<tag k="waterway" v="stream" />
	</node>
	<node lat="68.60912777853821" lon="15.822672211304134" id="-38016">
		<tag k="name" v="Urdbekken" />
		<tag k="ssr:stedsnr" v="79348" />
		<tag k="waterway" v="stream" />
	</node>
	<node lat="68.61192499623733" lon="15.893008326231348" id="-38017">
		<tag k="alt_name" v="Gullholmskardelva" />
		<tag k="name" v="Gullholmskarelva" />
		<tag k="ssr:stedsnr" v="79350" />
		<tag k="waterway" v="stream" />
	</node>
	<node lat="68.59134999973877" lon="15.755330547028667" id="-38019">
		<tag k="alt_name" v="Rundskardelva" />
		<tag k="name" v="Rundskarelva" />
		<tag k="ssr:stedsnr" v="79796" />
		<tag k="waterway" v="stream" />
	</node>
	<node lat="68.68109444238839" lon="16.231030542998152" id="-38021">
		<tag k="name" v="Sennevatnet" />
		<tag k="natural" v="water" />
		<tag k="ssr:stedsnr" v="81120" />
	</node>
	<node lat="68.68713055630228" lon="16.2755888878588" id="-38022">
		<tag k="alt_name" v="Litle Korsvatnet" />
		<tag k="name" v="Litje Korsvatnet" />
		<tag k="natural" v="water" />
		<tag k="ssr:stedsnr" v="81144" />
		<tag k="water" v="lake" />
	</node>
	<node lat="68.62080277670958" lon="15.67714721167785" id="-38026">
		<tag k="name" v="Vassbotn" />
		<tag k="natural" v="bay" />
		<tag k="ssr:stedsnr" v="111723" />
	</node>
	<node lat="68.6887277813939" lon="15.938491657369765" id="-38034">
		<tag k="name" v="Småvassbekken" />
		<tag k="ssr:stedsnr" v="112504" />
		<tag k="waterway" v="stream" />
	</node>
	<node lat="68.6719749991316" lon="16.278275007755298" id="-38038">
		<tag k="name" v="Vaddasvatnet" />
		<tag k="natural" v="water" />
		<tag k="ssr:stedsnr" v="112610" />
	</node>
	<node lat="68.67938333624365" lon="16.370022223213066" id="-38039">
		<tag k="name" v="Myrvatnet" />
		<tag k="natural" v="water" />
		<tag k="ssr:stedsnr" v="112615" />
	</node>
	<node lat="68.84248611253895" lon="16.201191668500737" id="-38041">
		<tag k="name" v="Stilla" />
		<tag k="natural" v="water" />
		<tag k="ssr:stedsnr" v="112636" />
		<tag k="water" v="lake" />
	</node>
	<node lat="68.57266666907937" lon="15.830577789157392" id="-38042">
		<tag k="name" v="Nordelva" />
		<tag k="ssr:stedsnr" v="112903" />
		<tag k="waterway" v="stream" />
	</node>
	<node lat="68.63848889051417" lon="15.705436113793478" id="-38056">
		<tag k="name" v="Sæterdalsvatnan" />
		<tag k="natural" v="water" />
		<tag k="ssr:stedsnr" v="138345" />
		<tag k="water" v="lake" />
	</node>
	<node lat="68.58219999945175" lon="15.773519455202266" id="-38058">
		<tag k="name" v="Skjellneselva" />
		<tag k="ssr:stedsnr" v="138839" />
		<tag k="waterway" v="stream" />
	</node>
	<node lat="68.65857499756072" lon="15.873855551690664" id="-38060">
		<tag k="alt_name" v="Sommersetbekken" />
		<tag k="name" v="Sommarsetbekken" />
		<tag k="ssr:stedsnr" v="139297" />
		<tag k="waterway" v="stream" />
	</node>
	<node lat="68.77858611117001" lon="16.286472229185996" id="-38061">
		<tag k="name" v="Vikelandselva" />
		<tag k="ssr:stedsnr" v="139495" />
		<tag k="waterway" v="river" />
	</node>
	<node lat="68.60419166855462" lon="15.825991655282424" id="-38063">
		<tag k="alt_name" v="Svartebekkan" />
		<tag k="name" v="Svartbekken" />
		<tag k="ssr:stedsnr" v="139796" />
		<tag k="waterway" v="stream" />
	</node>
	<node lat="68.84925555716832" lon="16.176072211931885" id="-38067">
		<tag k="name" v="Bremneselva" />
		<tag k="ssr:stedsnr" v="260046" />
		<tag k="waterway" v="stream" />
	</node>
	<node lat="68.80480833127774" lon="16.130497228246945" id="-38068">
		<tag k="alt_name" v="Skallvatnet" />
		<tag k="name" v="Skallevatnet" />
		<tag k="natural" v="water" />
		<tag k="ssr:stedsnr" v="260146" />
	</node>
	<node lat="68.69288055438625" lon="15.864613882281756" id="-38069">
		<tag k="fixme" v="multiple name tags, choose one and add the other to alt_name" />
		<tag k="name" v="Tverrelva;Lebekkelva" />
		<tag k="ssr:stedsnr" v="260243" />
		<tag k="waterway" v="stream" />
	</node>
	<node lat="68.67422778178539" lon="16.14428888248256" id="-38071">
		<tag k="alt_name:no" v="Melåa" />
		<tag k="name" v="Melåelva - Mieluidjohka" />
		<tag k="name:no" v="Melåelva" />
		<tag k="name:se" v="Mieluidjohka" />
		<tag k="ssr:stedsnr" v="260331" />
		<tag k="waterway" v="river" />
	</node>
	<node lat="68.66003889044225" lon="16.009711099276974" id="-38074">
		<tag k="name" v="Juvikvatnet" />
		<tag k="natural" v="water" />
		<tag k="ssr:stedsnr" v="260336" />
	</node>
	<node lat="68.66278055238595" lon="15.977338884495175" id="-38076">
		<tag k="name" v="Skredbekken" />
		<tag k="ssr:stedsnr" v="260339" />
		<tag k="waterway" v="stream" />
	</node>
	<node lat="68.75421667013413" lon="16.320022221903955" id="-38078">
		<tag k="name" v="Tortenbakkvatnet" />
		<tag k="natural" v="water" />
		<tag k="ssr:stedsnr" v="260349" />
	</node>
	<node lat="68.78971944832335" lon="16.142399999268974" id="-38092">
		<tag k="name" v="Dalelva" />
		<tag k="ssr:stedsnr" v="261067" />
		<tag k="waterway" v="stream" />
	</node>
	<node lat="68.80146666247109" lon="16.11661944258862" id="-38101">
		<tag k="name" v="Skallevasselva" />
		<tag k="ssr:stedsnr" v="261084" />
		<tag k="waterway" v="stream" />
	</node>
	<node lat="68.61444166705282" lon="15.72167499258639" id="-38103">
		<tag k="name" v="Djupbukta" />
		<tag k="natural" v="bay" />
		<tag k="ssr:stedsnr" v="172814" />
	</node>
	<node lat="68.72971944815045" lon="16.17750556127167" id="-38111">
		<tag k="name" v="Stilldamman" />
		<tag k="natural" v="water" />
		<tag k="ssr:stedsnr" v="173721" />
		<tag k="water" v="pond" />
	</node>
	<node lat="68.73184166370768" lon="16.33119998642436" id="-38115">
		<tag k="alt_name" v="Ramnskardvatnan" />
		<tag k="name" v="Ramnskarvatnan" />
		<tag k="natural" v="water" />
		<tag k="ssr:stedsnr" v="261961" />
		<tag k="water" v="lake" />
	</node>
	<node lat="68.66567778084266" lon="16.21249165756585" id="-38116">
		<tag k="name" v="Andrevatnet" />
		<tag k="natural" v="water" />
		<tag k="ssr:stedsnr" v="263108" />
	</node>
	<node lat="68.65977499635083" lon="15.966161106343513" id="-38119">
		<tag k="alt_name" v="Stigbekken" />
		<tag k="name" v="Stibekken" />
		<tag k="ssr:stedsnr" v="199308" />
		<tag k="waterway" v="stream" />
	</node>
	<node lat="68.70785833560211" lon="16.1058305659846" id="-38125">
		<tag k="name" v="Kaltdalsvatnan" />
		<tag k="natural" v="water" />
		<tag k="ssr:stedsnr" v="199460" />
		<tag k="water" v="lake" />
	</node>
	<node lat="68.68369722190081" lon="16.05511943508504" id="-38127">
		<tag k="alt_name" v="Mølneelva" />
		<tag k="name" v="Mølnelva" />
		<tag k="ssr:stedsnr" v="200251" />
		<tag k="waterway" v="stream" />
	</node>
	<node lat="68.62429722588139" lon="15.661072229120272" id="-38130">
		<tag k="alt_name" v="Litlvatnet" />
		<tag k="name" v="Litjevatnet" />
		<tag k="natural" v="water" />
		<tag k="ssr:stedsnr" v="200354" />
	</node>
	<node lat="68.62496666287028" lon="15.844369444348875" id="-38131">
		<tag k="name" v="Hestneselva" />
		<tag k="ssr:stedsnr" v="200356" />
		<tag k="waterway" v="stream" />
	</node>
	<node lat="68.67528333730822" lon="15.900047220038141" id="-38137">
		<tag k="name" v="Kvanntodalbekken" />
		<tag k="ssr:stedsnr" v="233183" />
		<tag k="waterway" v="stream" />
	</node>
	<node lat="68.57029444837475" lon="15.784705545780746" id="-38146">
		<tag k="name" v="Nerfossen" />
		<tag k="natural" v="waterfall" />
		<tag k="ssr:stedsnr" v="233878" />
	</node>
	<node lat="68.78538611099043" lon="16.317947226392782" id="-38153">
		<tag k="name" v="Blomåsbekken" />
		<tag k="ssr:stedsnr" v="234995" />
		<tag k="waterway" v="stream" />
	</node>
	<node lat="68.6748194454695" lon="16.08705556428555" id="-38159">
		<tag k="name" v="Bjørnlibekken" />
		<tag k="ssr:stedsnr" v="260318" />
		<tag k="waterway" v="stream" />
	</node>
	<node lat="68.58361667112906" lon="15.734580545210699" id="-38163">
		<tag k="alt_name" v="Rundskardvatnet" />
		<tag k="name" v="Rundskarvatnet" />
		<tag k="natural" v="water" />
		<tag k="ssr:stedsnr" v="260861" />
	</node>
	<node lat="68.5558916678802" lon="15.819197219852422" id="-38165">
		<tag k="name" v="Tverrbakkelva" />
		<tag k="ssr:stedsnr" v="260908" />
		<tag k="waterway" v="stream" />
	</node>
	<node lat="68.71762499769471" lon="16.367252768314827" id="-38167">
		<tag k="loc_name" v="Olhammarvatnet" />
		<tag k="name" v="Hanshammarvatnet" />
		<tag k="natural" v="water" />
		<tag k="ssr:stedsnr" v="260996" />
	</node>
	<node lat="68.73026388936798" lon="16.13092499719741" id="-38169">
		<tag k="alt_name" v="Vebestadelva" />
		<tag k="name" v="Vebbestadelva" />
		<tag k="ssr:stedsnr" v="261447" />
		<tag k="waterway" v="stream" />
	</node>
	<node lat="68.62545833386812" lon="16.03800555092708" id="-38175">
		<tag k="name" v="Kammersdalsbekken" />
		<tag k="ssr:stedsnr" v="294010" />
		<tag k="waterway" v="stream" />
	</node>
	<node lat="68.83136944241811" lon="16.181433337417275" id="-38194">
		<tag k="name" v="Lomvatnet" />
		<tag k="natural" v="water" />
		<tag k="ssr:stedsnr" v="321003" />
	</node>
	<node lat="68.68019722351781" lon="16.348261108832087" id="-38208">
		<tag k="name" v="Grytvatnet" />
		<tag k="natural" v="water" />
		<tag k="ssr:stedsnr" v="323136" />
	</node>
	<node lat="68.62468611410938" lon="16.02375556321773" id="-38212">
		<tag k="name" v="Botnbekken" />
		<tag k="ssr:stedsnr" v="355006" />
		<tag k="waterway" v="stream" />
	</node>
	<node lat="68.6508861133433" lon="16.10329723457843" id="-38218">
		<tag k="name" v="Skredbekken" />
		<tag k="ssr:stedsnr" v="355419" />
		<tag k="waterway" v="stream" />
	</node>
	<node lat="68.82873611112944" lon="16.203349995414907" id="-38222">
		<tag k="name" v="Hornvatnet" />
		<tag k="natural" v="water" />
		<tag k="ssr:stedsnr" v="355610" />
	</node>
	<node lat="68.61525832908507" lon="15.846036106227222" id="-38227">
		<tag k="name" v="Trollvatnet" />
		<tag k="natural" v="water" />
		<tag k="ssr:stedsnr" v="355970" />
	</node>
	<node lat="68.6910416622058" lon="15.945508338156506" id="-38232">
		<tag k="name" v="Libekken" />
		<tag k="ssr:stedsnr" v="475501" />
		<tag k="waterway" v="stream" />
	</node>
	<node lat="68.56022778103444" lon="15.718238892127061" id="-38234">
		<tag k="name" v="Ol-Eriksaelva" />
		<tag k="ssr:stedsnr" v="475758" />
		<tag k="waterway" v="stream" />
	</node>
	<node lat="68.74187777769842" lon="16.2787638904608" id="-38253">
		<tag k="name" v="Storelva" />
		<tag k="ssr:stedsnr" v="476485" />
		<tag k="waterway" v="stream" />
	</node>
	<node lat="68.83373333048824" lon="16.136058319588255" id="-38262">
		<tag k="name" v="Sommerslettbekken" />
		<tag k="ssr:stedsnr" v="476637" />
		<tag k="waterway" v="stream" />
	</node>
	<node lat="68.73109999597067" lon="16.220075008489367" id="-38264">
		<tag k="name" v="Skjellbekken" />
		<tag k="ssr:stedsnr" v="476767" />
		<tag k="waterway" v="stream" />
	</node>
	<node lat="68.51082499742687" lon="15.731058326837552" id="-38266">
		<tag k="name" v="Skredhågvatnet" />
		<tag k="natural" v="water" />
		<tag k="ssr:stedsnr" v="476793" />
	</node>
	<node lat="68.72662222049203" lon="16.12409444904597" id="-38270">
		<tag k="name" v="Lågvasselva" />
		<tag k="ssr:stedsnr" v="476750" />
		<tag k="waterway" v="stream" />
	</node>
	<node lat="68.5234611089097" lon="15.814880548242371" id="-38276">
		<tag k="name" v="Springarbekken" />
		<tag k="ssr:stedsnr" v="381816" />
		<tag k="waterway" v="stream" />
	</node>
	<node lat="68.86014999546441" lon="16.22969444676144" id="-38279">
		<tag k="name" v="Nupsbekken" />
		<tag k="ssr:stedsnr" v="382608" />
		<tag k="waterway" v="stream" />
	</node>
	<node lat="68.71346944195433" lon="15.91210277662603" id="-38292">
		<tag k="name" v="Sørdalsvatnan" />
		<tag k="natural" v="water" />
		<tag k="ssr:stedsnr" v="416098" />
		<tag k="water" v="lake" />
	</node>
	<node lat="68.81934722363353" lon="16.23106667567116" id="-38306">
		<tag k="name" v="Vikelandselvvatnet" />
		<tag k="natural" v="water" />
		<tag k="ssr:stedsnr" v="416600" />
	</node>
	<node lat="68.61993888549553" lon="15.904816653600944" id="-38311">
		<tag k="name" v="Holmen" />
		<tag k="place" v="islet" />
		<tag k="ssr:stedsnr" v="416986" />
	</node>
	<node lat="68.62095277968885" lon="15.905372221944145" id="-38312">
		<tag k="name" v="Holmeneset" />
		<tag k="natural" v="cape" />
		<tag k="ssr:stedsnr" v="416989" />
	</node>
	<node lat="68.67127222173957" lon="16.309469437547875" id="-38330">
		<tag k="name" v="Steinvatnet - Báktejávri" />
		<tag k="name:no" v="Steinvatnet" />
		<tag k="name:se" v="Báktejávri" />
		<tag k="natural" v="water" />
		<tag k="ssr:stedsnr" v="444102" />
		<tag k="water" v="lake" />
	</node>
	<node lat="68.69725000065124" lon="16.30373612243724" id="-38352">
		<tag k="name" v="Botnelva - Strávvevuonjohka" />
		<tag k="name:no" v="Botnelva" />
		<tag k="name:se" v="Strávvevuonjohka" />
		<tag k="ssr:stedsnr" v="506162" />
		<tag k="waterway" v="river" />
	</node>
	<node lat="68.79240555197718" lon="16.152019434075715" id="-38362">
		<tag k="name" v="Tverrbekken" />
		<tag k="ssr:stedsnr" v="685086" />
		<tag k="waterway" v="stream" />
	</node>
	<node lat="68.52603055403779" lon="15.825238896007079" id="-38365">
		<tag k="name" v="Austerdalselva" />
		<tag k="ssr:stedsnr" v="685179" />
		<tag k="waterway" v="river" />
	</node>
	<node lat="68.65393888852694" lon="15.840402771849115" id="-38372">
		<tag k="alt_name" v="Gårdsbekken" />
		<tag k="name" v="Gårdsdalsbekken" />
		<tag k="ssr:stedsnr" v="685288" />
		<tag k="waterway" v="stream" />
	</node>
	<node lat="68.63267777708022" lon="16.047724988664807" id="-38376">
		<tag k="name" v="Austerbekken - Čoarddavákkijohka" />
		<tag k="name:no" v="Austerbekken" />
		<tag k="name:se" v="Čoarddavákkijohka" />
		<tag k="ssr:stedsnr" v="685328" />
		<tag k="waterway" v="stream" />
	</node>
	<node lat="68.72501388557208" lon="16.17644445026115" id="-38382">
		<tag k="name" v="Salelva" />
		<tag k="ssr:stedsnr" v="685426" />
		<tag k="waterway" v="stream" />
	</node>
	<node lat="68.70239166920928" lon="15.863869440482167" id="-38386">
		<tag k="alt_name" v="Lebbikvatnet" />
		<tag k="name" v="Lebekkvatnet" />
		<tag k="natural" v="water" />
		<tag k="ssr:stedsnr" v="685476" />
		<tag k="water" v="lake" />
	</node>
	<node lat="68.53224166552158" lon="15.70894722969444" id="-38389">
		<tag k="alt_name" v="Tjørna" />
		<tag k="name" v="Tjønna" />
		<tag k="natural" v="water" />
		<tag k="ssr:stedsnr" v="685736" />
	</node>
	<node lat="68.5611000009049" lon="15.887922217997975" id="-38394">
		<tag k="name" v="Steinvatnan" />
		<tag k="natural" v="water" />
		<tag k="ssr:stedsnr" v="685865" />
	</node>
	<node lat="68.71228888583994" lon="16.234675000360088" id="-38395">
		<tag k="name" v="Klaveselvvatnet" />
		<tag k="natural" v="water" />
		<tag k="ssr:stedsnr" v="685998" />
	</node>
	<node lat="68.66631111567108" lon="16.10364721484428" id="-38399">
		<tag k="name" v="Labakkfossen" />
		<tag k="natural" v="waterfall" />
		<tag k="ssr:stedsnr" v="536428" />
	</node>
	<node lat="68.63620555706105" lon="16.04844998989993" id="-38404">
		<tag k="name" v="Aspeneselva" />
		<tag k="ssr:stedsnr" v="537004" />
		<tag k="waterway" v="river" />
	</node>
	<node lat="68.68249444350755" lon="15.88601387622729" id="-38412">
		<tag k="name" v="Laksholla" />
		<tag k="place" v="locality" />
		<tag k="ssr:stedsnr" v="537105" />
	</node>
	<node lat="68.73307777579376" lon="16.134297217025164" id="-38415">
		<tag k="name" v="Elvekrokan" />
		<tag k="natural" v="bay" />
		<tag k="ssr:stedsnr" v="537718" />
	</node>
	<node lat="68.69990000287639" lon="16.325311116233514" id="-38427">
		<tag k="name" v="Ruddaelva" />
		<tag k="ssr:stedsnr" v="688168" />
		<tag k="waterway" v="river" />
	</node>
	<node lat="68.68159166815157" lon="16.28456944618917" id="-38428">
		<tag k="name" v="Korsvatnet - Kruossajávri" />
		<tag k="name:no" v="Korsvatnet" />
		<tag k="name:se" v="Kruossajávri" />
		<tag k="natural" v="water" />
		<tag k="ssr:stedsnr" v="566120" />
		<tag k="water" v="lake" />
	</node>
	<node lat="68.48108611042595" lon="15.683238891771026" id="-38437">
		<tag k="name" v="Nedre Matvatnet" />
		<tag k="natural" v="water" />
		<tag k="old_name" v="Matvatnet, nedre" />
		<tag k="ssr:stedsnr" v="623170" />
		<tag k="water" v="lake" />
	</node>
	<node lat="68.66578611174985" lon="16.144905560637543" id="-38442">
		<tag k="name" v="Tverrelva" />
		<tag k="ssr:stedsnr" v="624305" />
		<tag k="waterway" v="stream" />
	</node>
	<node lat="68.61730833097968" lon="15.710963880292844" id="-38448">
		<tag k="name" v="Langvatnet" />
		<tag k="natural" v="water" />
		<tag k="ssr:stedsnr" v="624363" />
		<tag k="water" v="lake" />
	</node>
	<node lat="68.61957499660184" lon="15.990094434802387" id="-38449">
		<tag k="name" v="Botnvatnet" />
		<tag k="natural" v="water" />
		<tag k="ssr:stedsnr" v="624369" />
	</node>
	<node lat="68.65874444041748" lon="16.206149993636316" id="-38462">
		<tag k="name" v="Langelva" />
		<tag k="ssr:stedsnr" v="657441" />
		<tag k="waterway" v="river" />
	</node>
	<node lat="68.6590500014693" lon="16.083830565942804" id="-38466">
		<tag k="name" v="Skjellbekken" />
		<tag k="ssr:stedsnr" v="658036" />
		<tag k="waterway" v="stream" />
	</node>
	<node lat="68.72822499692593" lon="16.345661117057308" id="-38476">
		<tag k="name" v="Sørkjosen" />
		<tag k="natural" v="bay" />
		<tag k="ssr:stedsnr" v="658531" />
	</node>
	<node lat="68.55393333295184" lon="15.852661104697678" id="-38477">
		<tag k="name" v="Eidet" />
		<tag k="place" v="locality" />
		<tag k="ssr:stedsnr" v="658909" />
	</node>
	<node lat="68.56976110934848" lon="15.828811112144164" id="-38484">
		<tag k="name" v="Olavatnet" />
		<tag k="natural" v="water" />
		<tag k="ssr:stedsnr" v="658889" />
	</node>
	<node lat="68.688308331781" lon="16.204819436556907" id="-38489">
		<tag k="name" v="Steinvatnet" />
		<tag k="natural" v="water" />
		<tag k="ssr:stedsnr" v="685246" />
	</node>
	<node lat="68.65573055227003" lon="16.029163875936327" id="-38490">
		<tag k="name" v="Åklovatnet" />
		<tag k="natural" v="water" />
		<tag k="ssr:stedsnr" v="685293" />
	</node>
	<node lat="68.56439999922632" lon="15.689475005341126" id="-38494">
		<tag k="name" v="Løbergselva" />
		<tag k="ssr:stedsnr" v="685844" />
		<tag k="waterway" v="river" />
	</node>
	<node lat="68.54254722573886" lon="15.850208343860286" id="-38495">
		<tag k="name" v="Eidevatnet - Áidejávri" />
		<tag k="name:no" v="Eidevatnet" />
		<tag k="name:se" v="Áidejávri" />
		<tag k="natural" v="water" />
		<tag k="ssr:stedsnr" v="685742" />
	</node>
	<node lat="68.62668332881562" lon="15.967513892469553" id="-38501">
		<tag k="name" v="Lissuidjávrrik" />
		<tag k="name:se" v="Lissuidjávrrik" />
		<tag k="natural" v="water" />
		<tag k="ssr:stedsnr" v="707977" />
		<tag k="water" v="lake" />
	</node>
	<node lat="68.58256666274491" lon="15.830116655138148" id="-38506">
		<tag k="name" v="Tennholmbekken" />
		<tag k="ssr:stedsnr" v="718921" />
		<tag k="waterway" v="stream" />
	</node>
	<node lat="68.66060277705608" lon="16.044675002283174" id="-38508">
		<tag k="name" v="Åkloelva" />
		<tag k="ssr:stedsnr" v="719030" />
		<tag k="waterway" v="stream" />
	</node>
	<node lat="68.67238055435388" lon="16.32017778536495" id="-38513">
		<tag k="name" v="Kirkebukta" />
		<tag k="natural" v="bay" />
		<tag k="ssr:stedsnr" v="719573" />
	</node>
	<node lat="68.55751666378" lon="15.848027769523299" id="-38519">
		<tag k="name" v="Litjevatnet" />
		<tag k="natural" v="water" />
		<tag k="ssr:stedsnr" v="719912" />
	</node>
	<node lat="68.66510555927375" lon="16.04523056460733" id="-38524">
		<tag k="name" v="Småbekken" />
		<tag k="ssr:stedsnr" v="901026" />
		<tag k="waterway" v="stream" />
	</node>
	<node lat="68.65726666312115" lon="16.053858334810347" id="-38525">
		<tag k="name" v="Tomasbekken" />
		<tag k="ssr:stedsnr" v="901030" />
		<tag k="waterway" v="stream" />
	</node>
	<node lat="68.65569167121312" lon="16.04684999824014" id="-38528">
		<tag k="name" v="Verbekken" />
		<tag k="ssr:stedsnr" v="901044" />
		<tag k="waterway" v="stream" />
	</node>
	<node lat="68.72955555975615" lon="15.938227767437134" id="-38542">
		<tag k="name" v="Tjønna" />
		<tag k="natural" v="water" />
		<tag k="ssr:stedsnr" v="901476" />
	</node>
	<node lat="68.68766110947242" lon="16.036688892043983" id="-38544">
		<tag k="name" v="Akselbekken" />
		<tag k="ssr:stedsnr" v="901486" />
		<tag k="waterway" v="stream" />
	</node>
	<node lat="68.8450749982732" lon="16.169488893625843" id="-38552">
		<tag k="name" v="Skoleelva" />
		<tag k="ssr:stedsnr" v="901645" />
		<tag k="waterway" v="stream" />
	</node>
	<node lat="68.59280555746345" lon="15.78389999289706" id="-38557">
		<tag k="name" v="Ytste Tømmerbekken" />
		<tag k="ssr:stedsnr" v="901851" />
		<tag k="waterway" v="stream" />
	</node>
	<node lat="68.55361666614479" lon="15.805858322740525" id="-38559">
		<tag k="name" v="Hundneselva" />
		<tag k="ssr:stedsnr" v="901952" />
		<tag k="waterway" v="stream" />
	</node>
	<node lat="68.53095000063384" lon="15.715905550402214" id="-38568">
		<tag k="name" v="Vesterelva" />
		<tag k="ssr:stedsnr" v="745805" />
		<tag k="waterway" v="river" />
	</node>
	<node lat="68.56697222591285" lon="15.845761106739266" id="-38569">
		<tag k="name" v="Moelva" />
		<tag k="ssr:stedsnr" v="745875" />
		<tag k="waterway" v="stream" />
	</node>
	<node lat="68.66938889267124" lon="16.290527789927367" id="-38572">
		<tag k="name" v="Skredelva" />
		<tag k="ssr:stedsnr" v="748106" />
		<tag k="waterway" v="stream" />
	</node>
	<node lat="68.69143889330469" lon="15.824211102479929" id="-38582">
		<tag k="name" v="Første Tverrelva" />
		<tag k="ssr:stedsnr" v="780120" />
		<tag k="waterway" v="stream" />
	</node>
	<node lat="68.68133055432908" lon="15.92548611238605" id="-38584">
		<tag k="name" v="Rødsandbekken" />
		<tag k="ssr:stedsnr" v="780125" />
		<tag k="waterway" v="stream" />
	</node>
	<node lat="68.72463611019748" lon="15.985880563182546" id="-38604">
		<tag k="name" v="Sæterbekken" />
		<tag k="ssr:stedsnr" v="840479" />
		<tag k="waterway" v="stream" />
	</node>
	<node lat="68.68147777398379" lon="16.35169999093819" id="-38608">
		<tag k="name" v="Lampeelva" />
		<tag k="ssr:stedsnr" v="840589" />
		<tag k="waterway" v="stream" />
	</node>
	<node lat="68.61519444691974" lon="16.078672222057016" id="-38614">
		<tag k="name" v="Jonsebekken" />
		<tag k="ssr:stedsnr" v="841007" />
		<tag k="waterway" v="stream" />
	</node>
	<node lat="68.66090277653737" lon="16.024680564654126" id="-38616">
		<tag k="name" v="Frammerfjellvatnet" />
		<tag k="natural" v="water" />
		<tag k="ssr:stedsnr" v="841029" />
	</node>
	<node lat="68.50573055837098" lon="15.718683324292877" id="-38624">
		<tag k="name" v="Revhøljet" />
		<tag k="place" v="locality" />
		<tag k="ssr:stedsnr" v="841781" />
	</node>
	<node lat="68.68034721934544" lon="15.83889721414703" id="-38632">
		<tag k="alt_name" v="Trollkjerkvatnan" />
		<tag k="name" v="Trollkirkevatnan" />
		<tag k="natural" v="water" />
		<tag k="ssr:stedsnr" v="928219" />
		<tag k="water" v="lake" />
	</node>
	<node lat="68.68532499589413" lon="15.929447215880607" id="-38633">
		<tag k="name" v="Valbekken" />
		<tag k="ssr:stedsnr" v="928230" />
		<tag k="waterway" v="stream" />
	</node>
	<node lat="68.60909999885742" lon="15.68801110216679" id="-38635">
		<tag k="name" v="Tverrelva" />
		<tag k="ssr:stedsnr" v="928334" />
		<tag k="waterway" v="river" />
	</node>
	<node lat="68.52716389215539" lon="15.777027783508041" id="-38646">
		<tag k="name" v="Tverrelva" />
		<tag k="ssr:stedsnr" v="928753" />
		<tag k="waterway" v="stream" />
	</node>
	<node lat="68.5058277778355" lon="15.678925006095238" id="-38647">
		<tag k="name" v="Ivervatnet" />
		<tag k="natural" v="water" />
		<tag k="ssr:stedsnr" v="928775" />
	</node>
	<node lat="68.6011972243785" lon="15.889430561332567" id="-38648">
		<tag k="name" v="Trollvatnan" />
		<tag k="natural" v="water" />
		<tag k="ssr:stedsnr" v="928797" />
	</node>
	<node lat="68.72450277483058" lon="16.319999993327905" id="-38651">
		<tag k="name" v="Vikevatnet" />
		<tag k="natural" v="water" />
		<tag k="ssr:stedsnr" v="928985" />
	</node>
	<node lat="68.73818889043122" lon="16.359233334865355" id="-38653">
		<tag k="name" v="Storhøgdvatnet" />
		<tag k="natural" v="water" />
		<tag k="ssr:stedsnr" v="867950" />
	</node>
	<node lat="68.66056110939337" lon="16.302830551121954" id="-38656">
		<tag k="name" v="Stakketindvatnan" />
		<tag k="natural" v="water" />
		<tag k="ssr:stedsnr" v="930066" />
		<tag k="water" v="lake" />
	</node>
	<node lat="68.66910277786893" lon="16.13452778635173" id="-38667">
		<tag k="name" v="Elvekrokan" />
		<tag k="natural" v="bay" />
		<tag k="ssr:stedsnr" v="901451" />
	</node>
	<node lat="68.51153611160383" lon="15.736805548069832" id="-38689">
		<tag k="name" v="Lakselva - Luossvuomjohka" />
		<tag k="name:no" v="Lakselva" />
		<tag k="name:se" v="Luossvuomjohka" />
		<tag k="ssr:stedsnr" v="928160" />
		<tag k="waterway" v="river" />
	</node>
	<node lat="68.70557499870294" lon="16.27798054909577" id="-38690">
		<tag k="name" v="Tverrelva" />
		<tag k="ssr:stedsnr" v="928161" />
		<tag k="waterway" v="stream" />
	</node>
	<node lat="68.62702500355536" lon="15.967283334241626" id="-38692">
		<tag k="name" v="Langvatnet" />
		<tag k="natural" v="water" />
		<tag k="ssr:stedsnr" v="928308" />
	</node>
	<node lat="68.63001389309602" lon="16.215444448583323" id="-38693">
		<tag k="name" v="Vinkelvatnet" />
		<tag k="natural" v="water" />
		<tag k="ssr:stedsnr" v="928318" />
	</node>
	<node lat="68.56311666761184" lon="15.726044435376204" id="-38703">
		<tag k="name" v="Løbergsvatnet" />
		<tag k="natural" v="water" />
		<tag k="ssr:stedsnr" v="928831" />
		<tag k="water" v="lake" />
	</node>
	<node lat="68.59861944635496" lon="16.06169723283273" id="-38705">
		<tag k="name" v="Langdalsvatnan" />
		<tag k="natural" v="water" />
		<tag k="ssr:stedsnr" v="928802" />
		<tag k="water" v="lake" />
	</node>
	<node lat="68.71527778184398" lon="15.920774988790265" id="-38726">
		<tag k="name" v="Sørdalselva" />
		<tag k="ssr:stedsnr" v="962095" />
		<tag k="waterway" v="stream" />
	</node>
	<node lat="68.68153888456662" lon="15.817658336135025" id="-38727">
		<tag k="name" v="Grunnvatnet" />
		<tag k="natural" v="water" />
		<tag k="ssr:stedsnr" v="962102" />
	</node>
	<node lat="68.76384722555719" lon="16.331113879070802" id="-38736">
		<tag k="name" v="Mølnbekken" />
		<tag k="ssr:stedsnr" v="962536" />
		<tag k="waterway" v="stream" />
	</node>
	<node lat="68.68540277951092" lon="15.866280567712698" id="-38744">
		<tag k="name" v="Storelva" />
		<tag k="ssr:stedsnr" v="17236" />
		<tag k="waterway" v="river" />
	</node>
	<node lat="68.7548444409216" lon="16.299536098619168" id="-38745">
		<tag k="name" v="Justevatnet" />
		<tag k="natural" v="water" />
		<tag k="ssr:stedsnr" v="17337" />
	</node>
	<node lat="68.54897499858903" lon="15.778986104033084" id="-38752">
		<tag k="name" v="Kvalbuktelva" />
		<tag k="ssr:stedsnr" v="17890" />
		<tag k="waterway" v="stream" />
	</node>
	<node lat="68.68813889289751" lon="16.122366662347314" id="-38756">
		<tag k="name" v="Tverrfjellvatnet" />
		<tag k="natural" v="water" />
		<tag k="ssr:stedsnr" v="18230" />
	</node>
	<node lat="68.68275555747172" lon="16.03773056380445" id="-38757">
		<tag k="name" v="Gårdsbekken" />
		<tag k="ssr:stedsnr" v="18240" />
		<tag k="waterway" v="stream" />
	</node>
	<node lat="68.61135000358779" lon="16.052166670992577" id="-38759">
		<tag k="name" v="Jonsheimvatnan - Čoarddajávrrik" />
		<tag k="name:no" v="Jonsheimvatnan" />
		<tag k="name:se" v="Čoarddajávrrik" />
		<tag k="natural" v="water" />
		<tag k="ssr:stedsnr" v="18325" />
		<tag k="water" v="lake" />
	</node>
	<node lat="68.79718333254424" lon="16.284338898425563" id="-38761">
		<tag k="name" v="Tørklevatnet" />
		<tag k="natural" v="water" />
		<tag k="ssr:stedsnr" v="18459" />
	</node>
	<node lat="68.74473610730556" lon="16.291041670213957" id="-38767">
		<tag k="name" v="Vikelva" />
		<tag k="ssr:stedsnr" v="18762" />
		<tag k="waterway" v="stream" />
	</node>
	<node lat="68.63910277377325" lon="16.247897222287953" id="-38771">
		<tag k="name" v="Sjuendevatnet" />
		<tag k="natural" v="water" />
		<tag k="ssr:stedsnr" v="20029" />
		<tag k="water" v="lake" />
	</node>
	<node lat="68.62500833168393" lon="15.652936099465006" id="-38782">
		<tag k="name" v="Marenbekken" />
		<tag k="ssr:stedsnr" v="51791" />
		<tag k="waterway" v="stream" />
	</node>
	<node lat="68.68801388575925" lon="15.949483324748645" id="-38786">
		<tag k="name" v="Valvatnet" />
		<tag k="natural" v="water" />
		<tag k="ssr:stedsnr" v="51543" />
	</node>
	<node lat="68.74582499965608" lon="16.305555564493474" id="-38806">
		<tag k="name" v="Skarelva" />
		<tag k="ssr:stedsnr" v="52512" />
		<tag k="waterway" v="stream" />
	</node>
	<node lat="68.59444166543823" lon="15.767708323438567" id="-38810">
		<tag k="name" v="Småvatnan" />
		<tag k="natural" v="water" />
		<tag k="ssr:stedsnr" v="52852" />
		<tag k="water" v="lake" />
	</node>
	<node lat="68.59341388838276" lon="16.054252773946704" id="-38813">
		<tag k="name" v="Ruomasjávri" />
		<tag k="name:se" v="Ruomasjávri" />
		<tag k="natural" v="water" />
		<tag k="ssr:stedsnr" v="57243" />
	</node>
	<node lat="68.70598610846993" lon="15.970033329346455" id="-38815">
		<tag k="alt_name" v="Finnebekken" />
		<tag k="name" v="Finnbekken" />
		<tag k="ssr:stedsnr" v="78470" />
		<tag k="waterway" v="stream" />
	</node>
	<node lat="68.69579722311701" lon="16.186766660601595" id="-38820">
		<tag k="fixme" v="multiple name tags, choose one and add the other to alt_name" />
		<tag k="name" v="Tverrelvvatnet;Straumstverrelvvatnet" />
		<tag k="natural" v="water" />
		<tag k="ssr:stedsnr" v="78281" />
	</node>
	<node lat="68.62651111068135" lon="15.667599992475374" id="-38822">
		<tag k="name" v="Sandelva" />
		<tag k="ssr:stedsnr" v="78329" />
		<tag k="waterway" v="stream" />
	</node>
	<node lat="68.6155222197699" lon="16.017638881694282" id="-38824">
		<tag k="name" v="Jovatnet" />
		<tag k="natural" v="water" />
		<tag k="ssr:stedsnr" v="78357" />
	</node>
	<node lat="68.5280472181949" lon="15.73890832760359" id="-38829">
		<tag k="name" v="Skjellelva" />
		<tag k="ssr:stedsnr" v="78773" />
		<tag k="waterway" v="stream" />
	</node>
	<node lat="68.56283888926653" lon="15.844447220856354" id="-38833">
		<tag k="name" v="Dalvatnet" />
		<tag k="natural" v="water" />
		<tag k="ssr:stedsnr" v="78876" />
	</node>
	<node lat="68.66754166760805" lon="16.190208332675258" id="-38835">
		<tag k="name" v="Melåvatnan - Mieluidjávrrik" />
		<tag k="name:no" v="Melåvatnan" />
		<tag k="name:se" v="Mieluidjávrrik" />
		<tag k="natural" v="water" />
		<tag k="ssr:stedsnr" v="79283" />
		<tag k="water" v="lake" />
	</node>
	<node lat="68.67222221886108" lon="16.14261666450598" id="-38856">
		<tag k="name" v="Fjellfossen" />
		<tag k="natural" v="waterfall" />
		<tag k="ssr:stedsnr" v="112458" />
	</node>
	<node lat="68.77788888822056" lon="16.19613890005881" id="-38861">
		<tag k="name" v="Langlibekken" />
		<tag k="ssr:stedsnr" v="112700" />
		<tag k="waterway" v="stream" />
	</node>
	<node lat="68.81873888889402" lon="16.21165555388968" id="-38862">
		<tag k="name" v="Dalelvvatnet" />
		<tag k="natural" v="water" />
		<tag k="ssr:stedsnr" v="112663" />
	</node>
	<node lat="68.6320472196276" lon="15.898038882725427" id="-38891">
		<tag k="alt_name" v="Ørnhaugbekken" />
		<tag k="name" v="Ørnhågbekken" />
		<tag k="ssr:stedsnr" v="138366" />
		<tag k="waterway" v="stream" />
	</node>
	<node lat="68.55474166531022" lon="15.714133328165952" id="-38899">
		<tag k="name" v="Olnilsavatnet" />
		<tag k="natural" v="water" />
		<tag k="ssr:stedsnr" v="138870" />
	</node>
	<node lat="68.72235277892318" lon="16.349536105178416" id="-38900">
		<tag k="name" v="Røvatnet" />
		<tag k="natural" v="water" />
		<tag k="ssr:stedsnr" v="138983" />
	</node>
	<node lat="68.81444722392459" lon="16.124252782217386" id="-38904">
		<tag k="name" v="Eldaelva" />
		<tag k="ssr:stedsnr" v="139121" />
		<tag k="waterway" v="stream" />
	</node>
	<node lat="68.68539999725063" lon="15.793469449890956" id="-38906">
		<tag k="name" v="Langvatnet" />
		<tag k="natural" v="water" />
		<tag k="ssr:stedsnr" v="139248" />
	</node>
	<node lat="68.68329444513626" lon="16.13212500105619" id="-38908">
		<tag k="name" v="Tverrfjellelva" />
		<tag k="ssr:stedsnr" v="139263" />
		<tag k="waterway" v="stream" />
	</node>
	<node lat="68.74773888552859" lon="16.35498610849981" id="-38915">
		<tag k="alt_name" v="Småvatnet, vestre" />
		<tag k="name" v="Vestre Småvatn" />
		<tag k="natural" v="water" />
		<tag k="ssr:stedsnr" v="139781" />
	</node>
	<node lat="68.68173055431328" lon="15.891083334737337" id="-38940">
		<tag k="name" v="Storfossen" />
		<tag k="natural" v="waterfall" />
		<tag k="ssr:stedsnr" v="173096" />
	</node>
	<node lat="68.71025277892943" lon="15.964986119922166" id="-38946">
		<tag k="name" v="Hattebekken" />
		<tag k="ssr:stedsnr" v="173413" />
		<tag k="waterway" v="stream" />
	</node>
	<node lat="68.72446666398949" lon="16.339786109002393" id="-38951">
		<tag k="name" v="Ol Larsavatnet" />
		<tag k="natural" v="water" />
		<tag k="ssr:stedsnr" v="173483" />
	</node>
	<node lat="68.71748611573484" lon="16.25734998923753" id="-38955">
		<tag k="name" v="Åsevatnet" />
		<tag k="natural" v="water" />
		<tag k="ssr:stedsnr" v="173582" />
	</node>
	<node lat="68.76658333077937" lon="16.231647227582656" id="-38959">
		<tag k="name" v="Gåraelva" />
		<tag k="ssr:stedsnr" v="173600" />
		<tag k="waterway" v="stream" />
	</node>
	<node lat="68.72370277910917" lon="16.25679443785209" id="-38969">
		<tag k="name" v="Klaveselva" />
		<tag k="ssr:stedsnr" v="199985" />
		<tag k="waterway" v="stream" />
	</node>
	<node lat="68.71540000074857" lon="16.073655552903514" id="-38974">
		<tag k="name" v="Hornelva" />
		<tag k="ssr:stedsnr" v="199470" />
		<tag k="waterway" v="stream" />
	</node>
	<node lat="68.54557221788623" lon="15.808133343902563" id="-38978">
		<tag k="name" v="Hundnesvatnan" />
		<tag k="natural" v="water" />
		<tag k="ssr:stedsnr" v="199779" />
	</node>
	<node lat="68.57253055994278" lon="15.738544435543094" id="-38980">
		<tag k="name" v="Våtvollelva" />
		<tag k="ssr:stedsnr" v="199847" />
		<tag k="waterway" v="stream" />
	</node>
	<node lat="68.65304999662058" lon="16.226252783893397" id="-38995">
		<tag k="name" v="Femtevatnet" />
		<tag k="natural" v="water" />
		<tag k="ssr:stedsnr" v="202050" />
		<tag k="water" v="lake" />
	</node>
	<node lat="68.61873888718391" lon="15.71873889483182" id="-39005">
		<tag k="name" v="Tennsteinen" />
		<tag k="place" v="islet" />
		<tag k="ssr:stedsnr" v="293781" />
	</node>
	<node lat="68.6742888892296" lon="16.307352771556832" id="-39007">
		<tag k="name" v="Kirkeneset" />
		<tag k="natural" v="cape" />
		<tag k="ssr:stedsnr" v="294632" />
	</node>
	<node lat="68.6357527777441" lon="15.78276943813521" id="-39015">
		<tag k="name" v="Bekkenesbekken" />
		<tag k="ssr:stedsnr" v="294166" />
		<tag k="waterway" v="stream" />
	</node>
	<node lat="68.66136388863137" lon="16.12749443249339" id="-39018">
		<tag k="name" v="Kildebekken" />
		<tag k="ssr:stedsnr" v="294451" />
		<tag k="waterway" v="stream" />
	</node>
	<node lat="68.71637499869787" lon="15.988530565442332" id="-39021">
		<tag k="name" v="Rørvikbekken" />
		<tag k="ssr:stedsnr" v="294465" />
		<tag k="waterway" v="stream" />
	</node>
	<node lat="68.82749444151801" lon="16.127674998981767" id="-39041">
		<tag k="alt_name" v="Rismålsskardelva" />
		<tag k="name" v="Resmålskarelva" />
		<tag k="ssr:stedsnr" v="321114" />
		<tag k="waterway" v="stream" />
	</node>
	<node lat="68.6414555549537" lon="15.964338887126383" id="-39042">
		<tag k="alt_name" v="Skardbekken" />
		<tag k="fixme" v="multiple name tags, choose one and add the other to alt_name" />
		<tag k="name" v="Stortindbekken;Skarbekken" />
		<tag k="ssr:stedsnr" v="321310" />
		<tag k="waterway" v="stream" />
	</node>
	<node lat="68.61236194816478" lon="15.906722192477442" id="-39048">
		<tag k="name" v="Botnelva" />
		<tag k="ssr:stedsnr" v="321345" />
		<tag k="waterway" v="stream" />
	</node>
	<node lat="68.62051666680705" lon="15.921841678004446" id="-39049">
		<tag k="alt_name" v="Forrelva" />
		<tag k="name" v="Forelva" />
		<tag k="ssr:stedsnr" v="321331" />
		<tag k="waterway" v="stream" />
	</node>
	<node lat="68.73178611292623" lon="15.945780554214782" id="-39051">
		<tag k="name" v="Skjelltindvatnet" />
		<tag k="natural" v="water" />
		<tag k="ssr:stedsnr" v="321435" />
	</node>
	<node lat="68.70267777521367" lon="16.061994453894656" id="-39054">
		<tag k="name" v="Hesjedalselva" />
		<tag k="ssr:stedsnr" v="321453" />
		<tag k="waterway" v="stream" />
	</node>
	<node lat="68.53098888533164" lon="15.8623805451447" id="-39057">
		<tag k="name" v="Eidelva" />
		<tag k="ssr:stedsnr" v="321751" />
		<tag k="waterway" v="river" />
	</node>
	<node lat="68.59466111045023" lon="15.827894446686582" id="-39059">
		<tag k="name" v="Gullholmelva" />
		<tag k="ssr:stedsnr" v="321810" />
		<tag k="waterway" v="stream" />
	</node>
	<node lat="68.7194388900372" lon="16.184977767837733" id="-39067">
		<tag k="name" v="Bålneset" />
		<tag k="natural" v="cape" />
		<tag k="ssr:stedsnr" v="354426" />
	</node>
	<node lat="68.5918361129209" lon="15.828497223828332" id="-39071">
		<tag k="name" v="Litjevatnet" />
		<tag k="natural" v="water" />
		<tag k="ssr:stedsnr" v="354199" />
	</node>
	<node lat="68.57007778205895" lon="15.78000833173062" id="-39079">
		<tag k="name" v="Øverfossen" />
		<tag k="natural" v="waterfall" />
		<tag k="ssr:stedsnr" v="354769" />
	</node>
	<node lat="68.66843889158034" lon="16.351622224440163" id="-39099">
		<tag k="name" v="Heimvasselva" />
		<tag k="ssr:stedsnr" v="355576" />
		<tag k="waterway" v="stream" />
	</node>
	<node lat="68.70604721977936" lon="16.26755000979074" id="-39101">
		<tag k="name" v="Hallbekken" />
		<tag k="ssr:stedsnr" v="355583" />
		<tag k="waterway" v="stream" />
	</node>
	<node lat="68.71139166565213" lon="16.251619452803425" id="-39102">
		<tag k="name" v="Trollvatnet" />
		<tag k="natural" v="water" />
		<tag k="ssr:stedsnr" v="355584" />
	</node>
	<node lat="68.71442499789293" lon="16.27035000981168" id="-39103">
		<tag k="name" v="Trollbekken" />
		<tag k="ssr:stedsnr" v="355586" />
		<tag k="waterway" v="stream" />
	</node>
	<node lat="68.70206111222811" lon="16.283433340237337" id="-39105">
		<tag k="name" v="Djupebekken" />
		<tag k="ssr:stedsnr" v="355592" />
		<tag k="waterway" v="stream" />
	</node>
	<node lat="68.7691499973915" lon="16.215813878295844" id="-39114">
		<tag k="name" v="Strandelva" />
		<tag k="ssr:stedsnr" v="355646" />
		<tag k="waterway" v="stream" />
	</node>
	<node lat="68.66922222278309" lon="15.849830547966535" id="-39123">
		<tag k="name" v="Hjulbakkelva" />
		<tag k="ssr:stedsnr" v="382259" />
		<tag k="waterway" v="stream" />
	</node>
	<node lat="68.64803333027925" lon="16.054022222581615" id="-39130">
		<tag k="name" v="Skjellelva" />
		<tag k="ssr:stedsnr" v="381323" />
		<tag k="waterway" v="stream" />
	</node>
	<node lat="68.63240833269614" lon="16.032816654136493" id="-39132">
		<tag k="name" v="Labruelva" />
		<tag k="ssr:stedsnr" v="381338" />
		<tag k="waterway" v="stream" />
	</node>
	<node lat="68.6864416689368" lon="15.834916669460005" id="-39133">
		<tag k="alt_name" v="Trollkjerkelva" />
		<tag k="name" v="Trollkirkeelva" />
		<tag k="ssr:stedsnr" v="381281" />
		<tag k="waterway" v="stream" />
	</node>
	<node lat="68.67750555883174" lon="16.07826110034244" id="-39134">
		<tag k="alt_name" v="Stridelva" />
		<tag k="name" v="Strielva" />
		<tag k="ssr:stedsnr" v="381289" />
		<tag k="waterway" v="stream" />
	</node>
	<node lat="68.58843888554071" lon="15.86499721871093" id="-39137">
		<tag k="name" v="Ingeborgvatnet" />
		<tag k="natural" v="water" />
		<tag k="ssr:stedsnr" v="381853" />
	</node>
	<node lat="68.54434166829611" lon="15.726075002247736" id="-39139">
		<tag k="name" v="Brattelva" />
		<tag k="ssr:stedsnr" v="381895" />
		<tag k="waterway" v="stream" />
	</node>
	<node lat="68.6833027739317" lon="16.37689445135754" id="-39145">
		<tag k="alt_name" v="Storskardvatnet" />
		<tag k="name" v="Storskarvatnet" />
		<tag k="natural" v="water" />
		<tag k="ssr:stedsnr" v="383117" />
	</node>
	<node lat="68.66541666423878" lon="16.365583328421934" id="-39146">
		<tag k="name" v="Heimvatnet - Siidajávri" />
		<tag k="name:no" v="Heimvatnet" />
		<tag k="name:se" v="Siidajávri" />
		<tag k="natural" v="water" />
		<tag k="ssr:stedsnr" v="384073" />
		<tag k="water" v="lake" />
	</node>
	<node lat="68.69020555738962" lon="16.24455833416802" id="-39149">
		<tag k="name" v="Kjeipvatnet" />
		<tag k="natural" v="water" />
		<tag k="ssr:stedsnr" v="415447" />
	</node>
	<node lat="68.66588055519053" lon="16.11490278058575" id="-39150">
		<tag k="name" v="Dalfossen" />
		<tag k="natural" v="waterfall" />
		<tag k="ssr:stedsnr" v="415468" />
	</node>
	<node lat="68.59023333433684" lon="15.838666656816356" id="-39161">
		<tag k="name" v="Tverrelva" />
		<tag k="ssr:stedsnr" v="415863" />
		<tag k="waterway" v="stream" />
	</node>
	<node lat="68.73825555571693" lon="16.282975003871854" id="-39162">
		<tag k="name" v="Valsebekken" />
		<tag k="ssr:stedsnr" v="415558" />
		<tag k="waterway" v="stream" />
	</node>
	<node lat="68.60409444717011" lon="15.990661121062155" id="-39199">
		<tag k="name" v="Veilivatnan" />
		<tag k="natural" v="water" />
		<tag k="ssr:stedsnr" v="443791" />
		<tag k="water" v="lake" />
	</node>
	<node lat="68.6697472189152" lon="16.249827764998713" id="-39201">
		<tag k="alt_name" v="Keipvatnet, store;Storkjeipvatnet" />
		<tag k="name" v="Store Keipvatnet" />
		<tag k="natural" v="water" />
		<tag k="ssr:stedsnr" v="444099" />
	</node>
	<node lat="68.66876388783405" lon="16.339258321637956" id="-39202">
		<tag k="name" v="Gunnarvatnet - Luopparjávri" />
		<tag k="name:no" v="Gunnarvatnet" />
		<tag k="name:se" v="Luopparjávri" />
		<tag k="natural" v="water" />
		<tag k="ssr:stedsnr" v="444100" />
		<tag k="water" v="lake" />
	</node>
	<node lat="68.69423333356735" lon="16.381452780593463" id="-39204">
		<tag k="name" v="Langvasselva" />
		<tag k="ssr:stedsnr" v="445151" />
		<tag k="waterway" v="river" />
	</node>
	<node lat="68.536561113172" lon="15.679674991162903" id="-39209">
		<tag k="name" v="Vestervatnan" />
		<tag k="natural" v="water" />
		<tag k="ssr:stedsnr" v="503700" />
		<tag k="water" v="lake" />
	</node>
	<node lat="68.6650861093151" lon="15.86018332267975" id="-39225">
		<tag k="name" v="Bogvatnet" />
		<tag k="natural" v="water" />
		<tag k="ssr:stedsnr" v="503254" />
	</node>
	<node lat="68.65103055596117" lon="15.956405549289286" id="-39227">
		<tag k="name" v="Lysåelva" />
		<tag k="ssr:stedsnr" v="503294" />
		<tag k="waterway" v="stream" />
	</node>
	<node lat="68.64164167097591" lon="15.796919444637037" id="-39228">
		<tag k="name" v="Pøylbekken" />
		<tag k="ssr:stedsnr" v="503301" />
		<tag k="waterway" v="stream" />
	</node>
	<node lat="68.78235555619226" lon="16.23737221497707" id="-39230">
		<tag k="name" v="Leåsvatnet" />
		<tag k="natural" v="water" />
		<tag k="ssr:stedsnr" v="503445" />
	</node>
	<node lat="68.61690278054351" lon="15.935330567528187" id="-39233">
		<tag k="alt_name" v="Forrvatnet" />
		<tag k="name" v="Forvatnet" />
		<tag k="natural" v="water" />
		<tag k="ssr:stedsnr" v="503334" />
	</node>
	<node lat="68.62258333144996" lon="16.074583342236313" id="-39234">
		<tag k="name" v="Austerelva" />
		<tag k="ssr:stedsnr" v="503338" />
		<tag k="waterway" v="river" />
	</node>
	<node lat="68.71580832880257" lon="16.127797228954822" id="-39238">
		<tag k="name" v="Vebbestadvatnet" />
		<tag k="natural" v="water" />
		<tag k="ssr:stedsnr" v="503455" />
		<tag k="water" v="lake" />
	</node>
	<node lat="68.75781388720216" lon="16.25579166445614" id="-39253">
		<tag k="name" v="Elvekrokan" />
		<tag k="natural" v="bay" />
		<tag k="ssr:stedsnr" v="536535" />
	</node>
	<node lat="68.60250833452967" lon="15.774227777620707" id="-39280">
		<tag k="name" v="Bømarkelva" />
		<tag k="ssr:stedsnr" v="537823" />
		<tag k="waterway" v="stream" />
	</node>
	<node lat="68.45857500103297" lon="15.635875011295536" id="-39290">
		<tag k="name" v="Øvre Matvatnet" />
		<tag k="natural" v="water" />
		<tag k="old_name" v="Matvatnet, øvre" />
		<tag k="ssr:stedsnr" v="562160" />
		<tag k="water" v="lake" />
	</node>
	<node lat="68.82023889001097" lon="16.15563056736622" id="-39294">
		<tag k="name" v="Steinvatnet" />
		<tag k="natural" v="water" />
		<tag k="ssr:stedsnr" v="563125" />
	</node>
	<node lat="68.81383889100947" lon="16.147158321649528" id="-39295">
		<tag k="name" v="Steinbekken" />
		<tag k="ssr:stedsnr" v="563126" />
		<tag k="waterway" v="stream" />
	</node>
	<node lat="68.77534722157364" lon="16.18830000088424" id="-39296">
		<tag k="name" v="Råelva" />
		<tag k="ssr:stedsnr" v="563181" />
		<tag k="waterway" v="stream" />
	</node>
	<node lat="68.66318889182861" lon="15.817722225131678" id="-39301">
		<tag k="alt_name:no" v="Gambogelva" />
		<tag k="name" v="Gombogelva - Gámbogjohka" />
		<tag k="name:no" v="Gombogelva" />
		<tag k="name:se" v="Gámbogjohka" />
		<tag k="ssr:stedsnr" v="563273" />
		<tag k="waterway" v="stream" />
	</node>
	<node lat="68.64346944796256" lon="15.955619434888385" id="-39304">
		<tag k="fixme" v="multiple name tags, choose one and add the other to alt_name" />
		<tag k="name" v="Lavatnet;Nordvatnet" />
		<tag k="natural" v="water" />
		<tag k="ssr:stedsnr" v="563305" />
	</node>
	<node lat="68.63434721850659" lon="15.765286117126347" id="-39308">
		<tag k="name" v="Kvitelva" />
		<tag k="ssr:stedsnr" v="563327" />
		<tag k="waterway" v="stream" />
	</node>
	<node lat="68.61831666770894" lon="16.123586107969338" id="-39309">
		<tag k="alt_name" v="Djupskardvatnan" />
		<tag k="name" v="Djupskarvatnan" />
		<tag k="natural" v="water" />
		<tag k="ssr:stedsnr" v="563342" />
	</node>
	<node lat="68.69717222511939" lon="16.16693332371009" id="-39311">
		<tag k="name" v="Langdalsvatnet" />
		<tag k="natural" v="water" />
		<tag k="ssr:stedsnr" v="563475" />
	</node>
	<node lat="68.71825833647645" lon="15.918808321550912" id="-39313">
		<tag k="name" v="Storelvvatnet" />
		<tag k="natural" v="water" />
		<tag k="ssr:stedsnr" v="563462" />
	</node>
	<node lat="68.71739722681839" lon="16.186852769984778" id="-39314">
		<tag k="name" v="Salvatnet" />
		<tag k="natural" v="water" />
		<tag k="ssr:stedsnr" v="563466" />
	</node>
	<node lat="68.69659721745818" lon="16.319400007886458" id="-39324">
		<tag k="name" v="Blomstervatnet" />
		<tag k="natural" v="water" />
		<tag k="ssr:stedsnr" v="566147" />
		<tag k="water" v="lake" />
	</node>
	<node lat="68.69284166233474" lon="16.253786112396362" id="-39325">
		<tag k="alt_name" v="Ytre Kjeipelva;Kjeipelva" />
		<tag k="name" v="Ytre Keipelva" />
		<tag k="ssr:stedsnr" v="566151" />
		<tag k="waterway" v="river" />
	</node>
	<node lat="68.66648333399282" lon="16.040997220022007" id="-39336">
		<tag k="name" v="Oselva" />
		<tag k="ssr:stedsnr" v="597030" />
		<tag k="waterway" v="stream" />
	</node>
	<node lat="68.64335277776621" lon="16.045905556213178" id="-39344">
		<tag k="name" v="Kirkesteinelva" />
		<tag k="ssr:stedsnr" v="597057" />
		<tag k="waterway" v="stream" />
	</node>
	<node lat="68.63942777577925" lon="16.047266671726362" id="-39347">
		<tag k="name" v="Slåttemyrbekken" />
		<tag k="ssr:stedsnr" v="597068" />
		<tag k="waterway" v="stream" />
	</node>
	<node lat="68.64629444568824" lon="15.920702769662483" id="-39348">
		<tag k="name" v="Seglbekken" />
		<tag k="ssr:stedsnr" v="597096" />
		<tag k="waterway" v="stream" />
	</node>
	<node lat="68.73830555708537" lon="16.064374987840132" id="-39357">
		<tag k="name" v="Nergårdselva" />
		<tag k="ssr:stedsnr" v="597467" />
		<tag k="waterway" v="stream" />
	</node>
	<node lat="68.72901389289632" lon="16.288547214772052" id="-39362">
		<tag k="name" v="Vednessbekken" />
		<tag k="ssr:stedsnr" v="597524" />
		<tag k="waterway" v="stream" />
	</node>
	<node lat="68.50929444102734" lon="15.729625002605657" id="-39369">
		<tag k="name" v="Bjørnhøljet" />
		<tag k="place" v="locality" />
		<tag k="ssr:stedsnr" v="597795" />
	</node>
	<node lat="68.63307777351534" lon="15.90680555281748" id="-39383">
		<tag k="name" v="Vassvikelva" />
		<tag k="ssr:stedsnr" v="598997" />
		<tag k="waterway" v="river" />
	</node>
	<node lat="68.79423055548601" lon="16.12163888125238" id="-39387">
		<tag k="name" v="Aspebekken" />
		<tag k="ssr:stedsnr" v="624099" />
		<tag k="waterway" v="stream" />
	</node>
	<node lat="68.83882777920878" lon="16.221969446813333" id="-39389">
		<tag k="name" v="Bremnesvatnet" />
		<tag k="natural" v="water" />
		<tag k="ssr:stedsnr" v="624023" />
		<tag k="water" v="lake" />
	</node>
	<node lat="68.84282222164464" lon="16.209558343541353" id="-39390">
		<tag k="name" v="Stilla" />
		<tag k="natural" v="bay" />
		<tag k="ssr:stedsnr" v="624024" />
	</node>
	<node lat="68.61772500195838" lon="15.6859166688435" id="-39394">
		<tag k="name" v="Langneset" />
		<tag k="natural" v="cape" />
		<tag k="ssr:stedsnr" v="624211" />
	</node>
	<node lat="68.64473611074436" lon="16.09312222606799" id="-39395">
		<tag k="name" v="Djupbekken" />
		<tag k="ssr:stedsnr" v="624213" />
		<tag k="waterway" v="stream" />
	</node>
	<node lat="68.60062777609319" lon="15.748577783775461" id="-39402">
		<tag k="alt_name" v="Bjørnhaugvatnet" />
		<tag k="name" v="Bjørnhågvatnet" />
		<tag k="natural" v="water" />
		<tag k="ssr:stedsnr" v="624388" />
	</node>
	<node lat="68.7062361088951" lon="15.95094722844906" id="-39404">
		<tag k="name" v="Storelva" />
		<tag k="ssr:stedsnr" v="624475" />
		<tag k="waterway" v="stream" />
	</node>
	<node lat="68.77837221947948" lon="16.34597778017764" id="-39405">
		<tag k="name" v="Kvæfjordeidet" />
		<tag k="place" v="locality" />
		<tag k="ssr:stedsnr" v="624478" />
	</node>
	<node lat="68.70425278077423" lon="15.954736113341829" id="-39411">
		<tag k="alt_name" v="Litleelva" />
		<tag k="name" v="Litjeelva" />
		<tag k="ssr:stedsnr" v="624499" />
		<tag k="waterway" v="stream" />
	</node>
	<node lat="68.7007277802186" lon="15.937622213547991" id="-39412">
		<tag k="alt_name" v="Litlevatnet" />
		<tag k="name" v="Litjeelvvatnet" />
		<tag k="natural" v="water" />
		<tag k="ssr:stedsnr" v="624502" />
	</node>
	<node lat="68.5919666632887" lon="15.78414444095363" id="-39415">
		<tag k="fixme" v="multiple name tags, choose one and add the other to alt_name" />
		<tag k="name" v="Tømmerbekken;Inste Tømmerbekken" />
		<tag k="ssr:stedsnr" v="624812" />
		<tag k="waterway" v="stream" />
	</node>
	<node lat="68.74516111215473" lon="16.328044443590393" id="-39418">
		<tag k="name" v="Toskevatnet" />
		<tag k="natural" v="water" />
		<tag k="ssr:stedsnr" v="624944" />
	</node>
	<node lat="68.65841944072783" lon="16.22759722728692" id="-39421">
		<tag k="name" v="Tredjevatnet" />
		<tag k="natural" v="water" />
		<tag k="ssr:stedsnr" v="626074" />
	</node>
	<node lat="68.66400000323551" lon="16.335683332109408" id="-39422">
		<tag k="name" v="Stinaelva" />
		<tag k="ssr:stedsnr" v="626087" />
		<tag k="waterway" v="stream" />
	</node>
	<node lat="68.68584722166517" lon="16.369622210917516" id="-39423">
		<tag k="alt_name" v="Holavatnet" />
		<tag k="name" v="Hollevatnet" />
		<tag k="natural" v="water" />
		<tag k="ssr:stedsnr" v="627169" />
		<tag k="water" v="lake" />
	</node>
	<node lat="68.6962777740339" lon="16.368355564384366" id="-39424">
		<tag k="name" v="Tverrelvvatnan" />
		<tag k="natural" v="water" />
		<tag k="ssr:stedsnr" v="627171" />
		<tag k="water" v="lake" />
	</node>
	<node lat="68.67213333635468" lon="16.188111104335626" id="-39431">
		<tag k="name" v="Kortelva" />
		<tag k="ssr:stedsnr" v="657443" />
		<tag k="waterway" v="river" />
	</node>
	<node lat="68.6694222207459" lon="16.327316665690844" id="-39443">
		<tag k="name" v="Steinvasshalsen" />
		<tag k="natural" v="bay" />
		<tag k="ssr:stedsnr" v="658613" />
	</node>
	<node lat="68.67313055374453" lon="16.363563892023873" id="-39444">
		<tag k="name" v="Øvergårdselva" />
		<tag k="ssr:stedsnr" v="658615" />
		<tag k="waterway" v="stream" />
	</node>
	<node lat="68.75278333614" lon="16.312069435425805" id="-39450">
		<tag k="name" v="Tortenbakkbekken" />
		<tag k="ssr:stedsnr" v="658555" />
		<tag k="waterway" v="stream" />
	</node>
	<node lat="68.59694722003003" lon="15.75281389313739" id="-39454">
		<tag k="name" v="Norddalselva" />
		<tag k="ssr:stedsnr" v="658823" />
		<tag k="waterway" v="stream" />
	</node>
	<node lat="68.72095555737943" lon="16.220963894964704" id="-39463">
		<tag k="name" v="Salfjellvatnet" />
		<tag k="natural" v="water" />
		<tag k="ssr:stedsnr" v="718431" />
	</node>
	<node lat="68.65965000123612" lon="16.194305549102193" id="-39466">
		<tag k="name" v="Fjerdevatnet" />
		<tag k="natural" v="water" />
		<tag k="ssr:stedsnr" v="718453" />
		<tag k="water" v="lake" />
	</node>
	<node lat="68.72928333469831" lon="16.176658344540847" id="-39468">
		<tag k="name" v="Elvekrokan" />
		<tag k="natural" v="bay" />
		<tag k="ssr:stedsnr" v="719731" />
	</node>
	<node lat="68.73324999855039" lon="16.14064998836148" id="-39487">
		<tag k="name" v="Birgitta-Jontebekken" />
		<tag k="ssr:stedsnr" v="719718" />
		<tag k="waterway" v="stream" />
	</node>
	<node lat="68.54730555212588" lon="15.740766660004244" id="-39489">
		<tag k="name" v="Litjevåtvollvatnet" />
		<tag k="natural" v="water" />
		<tag k="ssr:stedsnr" v="719802" />
	</node>
	<node lat="68.62294444285898" lon="15.848533324660682" id="-39493">
		<tag k="name" v="Hestnesvatnet" />
		<tag k="natural" v="water" />
		<tag k="ssr:stedsnr" v="719962" />
	</node>
	<node lat="68.76901944796238" lon="16.33283055839345" id="-39495">
		<tag k="name" v="Mellaelven" />
		<tag k="ssr:stedsnr" v="719965" />
		<tag k="waterway" v="stream" />
	</node>
	<node lat="68.64734722205402" lon="15.959580544061428" id="-39500">
		<tag k="name" v="Durmålsbekken" />
		<tag k="ssr:stedsnr" v="745346" />
		<tag k="waterway" v="stream" />
	</node>
	<node lat="68.63649999641922" lon="16.04039165418654" id="-39503">
		<tag k="name" v="Kulielva" />
		<tag k="ssr:stedsnr" v="745360" />
		<tag k="waterway" v="stream" />
	</node>
	<node lat="68.79915278178629" lon="16.149302785192003" id="-39509">
		<tag k="name" v="Øverlandsvatnet" />
		<tag k="natural" v="water" />
		<tag k="ssr:stedsnr" v="746094" />
	</node>
	<node lat="68.57755000431594" lon="15.713844439444625" id="-39510">
		<tag k="name" v="Våtvolldalsvatnet" />
		<tag k="natural" v="water" />
		<tag k="ssr:stedsnr" v="745866" />
	</node>
	<node lat="68.81248055190323" lon="16.15155832112189" id="-39512">
		<tag k="alt_name" v="Kvantobekken" />
		<tag k="name" v="Kvanntobekken" />
		<tag k="ssr:stedsnr" v="746121" />
		<tag k="waterway" v="stream" />
	</node>
	<node lat="68.68494166347831" lon="15.817708339332311" id="-39517">
		<tag k="name" v="Svartvatnet" />
		<tag k="natural" v="water" />
		<tag k="ssr:stedsnr" v="746235" />
	</node>
	<node lat="68.68858055350326" lon="16.0988583269005" id="-39518">
		<tag k="name" v="Stridelvvatnan" />
		<tag k="natural" v="water" />
		<tag k="ssr:stedsnr" v="746243" />
		<tag k="water" v="lake" />
	</node>
	<node lat="68.61200833341182" lon="15.87954720976421" id="-39522">
		<tag k="alt_name" v="Gullholmskardvatnet" />
		<tag k="name" v="Gullholmskarvatnet" />
		<tag k="natural" v="water" />
		<tag k="ssr:stedsnr" v="746354" />
	</node>
	<node lat="68.65253889110717" lon="16.310188886039917" id="-39526">
		<tag k="name" v="Hesjevatnet" />
		<tag k="natural" v="water" />
		<tag k="ssr:stedsnr" v="748046" />
	</node>
	<node lat="68.67876666183327" lon="16.32543612060604" id="-39528">
		<tag k="name" v="Storelva" />
		<tag k="ssr:stedsnr" v="748121" />
		<tag k="waterway" v="stream" />
	</node>
	<node lat="68.69331389096928" lon="16.348541674478827" id="-39529">
		<tag k="name" v="Tverrelva" />
		<tag k="ssr:stedsnr" v="748151" />
		<tag k="waterway" v="river" />
	</node>
	<node lat="68.59648333670177" lon="15.832499994615532" id="-39537">
		<tag k="name" v="Skellarbekkan" />
		<tag k="ssr:stedsnr" v="779166" />
		<tag k="waterway" v="stream" />
	</node>
	<node lat="68.67551666655903" lon="16.299166673524415" id="-39558">
		<tag k="name" v="Steinvassholmen" />
		<tag k="place" v="islet" />
		<tag k="ssr:stedsnr" v="780535" />
	</node>
	<node lat="68.71864444118198" lon="16.252202774992217" id="-39561">
		<tag k="name" v="Lomvatnet" />
		<tag k="natural" v="water" />
		<tag k="ssr:stedsnr" v="780548" />
	</node>
	<node lat="68.77501666839562" lon="16.309438883171737" id="-39569">
		<tag k="name" v="Jenssokkvatnet" />
		<tag k="natural" v="water" />
		<tag k="ssr:stedsnr" v="780989" />
	</node>
	<node lat="68.61563379942967" lon="15.757174819765382" id="-39576">
		<tag k="name" v="Langvasselva" />
		<tag k="ssr:stedsnr" v="806186" />
		<tag k="waterway" v="river" />
	</node>
	<node lat="68.65371389038565" lon="16.053533344715074" id="-39579">
		<tag k="name" v="Djupbekken" />
		<tag k="ssr:stedsnr" v="806300" />
		<tag k="waterway" v="stream" />
	</node>
	<node lat="68.64993888991629" lon="16.036227773135913" id="-39581">
		<tag k="name" v="Skjellelvvatnet" />
		<tag k="natural" v="water" />
		<tag k="ssr:stedsnr" v="806317" />
	</node>
	<node lat="68.68907499587972" lon="16.163299999768256" id="-39590">
		<tag k="name" v="Bonstervatnet" />
		<tag k="natural" v="water" />
		<tag k="ssr:stedsnr" v="806270" />
	</node>
	<node lat="68.68084166976541" lon="16.071200005351375" id="-39592">
		<tag k="alt_name" v="Storhaugbekken" />
		<tag k="name" v="Storhågbekken" />
		<tag k="ssr:stedsnr" v="806280" />
		<tag k="waterway" v="stream" />
	</node>
	<node lat="68.6289000035527" lon="16.062986102481123" id="-39593">
		<tag k="name" v="Middagsbekken" />
		<tag k="ssr:stedsnr" v="806346" />
		<tag k="waterway" v="stream" />
	</node>
	<node lat="68.62589722638283" lon="15.912113878620962" id="-39596">
		<tag k="name" v="Vassvikvatnet" />
		<tag k="natural" v="water" />
		<tag k="ssr:stedsnr" v="806354" />
		<tag k="water" v="lake" />
	</node>
	<node lat="68.6300472209538" lon="15.679349994934954" id="-39600">
		<tag k="name" v="Olinavatnet" />
		<tag k="natural" v="water" />
		<tag k="ssr:stedsnr" v="806339" />
	</node>
	<node lat="68.62961111327547" lon="15.738938880108222" id="-39601">
		<tag k="name" v="Sæterelva" />
		<tag k="ssr:stedsnr" v="806341" />
		<tag k="waterway" v="stream" />
	</node>
	<node lat="68.72308610819087" lon="16.110358326949914" id="-39608">
		<tag k="name" v="Lågdalsvatnan" />
		<tag k="natural" v="water" />
		<tag k="ssr:stedsnr" v="806469" />
		<tag k="water" v="lake" />
	</node>
	<node lat="68.695338889895" lon="15.881883337679383" id="-39609">
		<tag k="name" v="Kvitelva" />
		<tag k="ssr:stedsnr" v="806477" />
		<tag k="waterway" v="stream" />
	</node>
	<node lat="68.57723888543326" lon="15.843499994040526" id="-39612">
		<tag k="name" v="Ingeborgelva" />
		<tag k="ssr:stedsnr" v="806860" />
		<tag k="waterway" v="stream" />
	</node>
	<node lat="68.57499444854717" lon="15.886572230647568" id="-39613">
		<tag k="name" v="Grytvatnan" />
		<tag k="natural" v="water" />
		<tag k="ssr:stedsnr" v="806862" />
	</node>
	<node lat="68.71082222351706" lon="16.262427777711657" id="-39617">
		<tag k="loc_name" v="Finnkonvatnet" />
		<tag k="name" v="Finnkonevatnet" />
		<tag k="natural" v="water" />
		<tag k="ssr:stedsnr" v="806981" />
	</node>
	<node lat="68.79324444538113" lon="16.130549993000518" id="-39619">
		<tag k="name" v="Rundebekken" />
		<tag k="ssr:stedsnr" v="807101" />
		<tag k="waterway" v="stream" />
	</node>
	<node lat="68.67249999882816" lon="16.11091111306586" id="-39621">
		<tag k="alt_name" v="Brattlielva" />
		<tag k="name" v="Brattlibekken" />
		<tag k="ssr:stedsnr" v="807261" />
		<tag k="waterway" v="stream" />
	</node>
	<node lat="68.66725555080613" lon="16.280852786296318" id="-39634">
		<tag k="name" v="Skredvatnet" />
		<tag k="natural" v="water" />
		<tag k="ssr:stedsnr" v="809076" />
	</node>
	<node lat="68.6603305542358" lon="16.38174444534131" id="-39635">
		<tag k="name" v="Myrvatnet - Jeaggejávri" />
		<tag k="name:no" v="Myrvatnet" />
		<tag k="name:se" v="Jeaggejávri" />
		<tag k="natural" v="water" />
		<tag k="ssr:stedsnr" v="809079" />
		<tag k="water" v="lake" />
	</node>
	<node lat="68.59922777727574" lon="16.06285277327119" id="-39637">
		<tag k="name" v="Biergojávri" />
		<tag k="name:se" v="Biergojávri" />
		<tag k="natural" v="water" />
		<tag k="ssr:stedsnr" v="829334" />
		<tag k="water" v="lake" />
	</node>
	<node lat="68.61595833721579" lon="15.738227780197338" id="-39645">
		<tag k="name" v="Senneneset" />
		<tag k="natural" v="cape" />
		<tag k="ssr:stedsnr" v="840793" />
	</node>
	<node lat="68.6674000031034" lon="15.796427770495065" id="-39655">
		<tag k="name" v="Atterslåttbekken" />
		<tag k="ssr:stedsnr" v="841168" />
		<tag k="waterway" v="stream" />
	</node>
	<node lat="68.62312222283806" lon="15.914322215136433" id="-39663">
		<tag k="name" v="Elveneset" />
		<tag k="natural" v="cape" />
		<tag k="ssr:stedsnr" v="841992" />
	</node>
	<node lat="68.70424166560649" lon="15.948924990448406" id="-39664">
		<tag k="name" v="Kvannbekken" />
		<tag k="ssr:stedsnr" v="841439" />
		<tag k="waterway" v="stream" />
	</node>
	<node lat="68.7507027754896" lon="16.255474995269736" id="-39668">
		<tag k="name" v="Dragebekken" />
		<tag k="ssr:stedsnr" v="841543" />
		<tag k="waterway" v="stream" />
	</node>
	<node lat="68.83839166640492" lon="16.14140555896921" id="-39680">
		<tag k="fixme" v="multiple name tags, choose one and add the other to alt_name" />
		<tag k="name" v="Aspeneselva;Aspelva" />
		<tag k="ssr:stedsnr" v="867008" />
		<tag k="waterway" v="stream" />
	</node>
	<node lat="68.64897500103497" lon="15.818566664411037" id="-39684">
		<tag k="name" v="Sæterbekken" />
		<tag k="ssr:stedsnr" v="867336" />
		<tag k="waterway" v="stream" />
	</node>
	<node lat="68.64444721840476" lon="16.05281944497181" id="-39686">
		<tag k="alt_name" v="Hinnstinnelva" />
		<tag k="name" v="Hinnsteinelva" />
		<tag k="ssr:stedsnr" v="867339" />
		<tag k="waterway" v="stream" />
	</node>
	<node lat="68.56800833589742" lon="15.608361116020443" id="-39689">
		<tag k="name" v="Løbergsvatnet" />
		<tag k="natural" v="water" />
		<tag k="ssr:stedsnr" v="867144" />
	</node>
	<node lat="68.6685527816158" lon="16.01028055012113" id="-39698">
		<tag k="name" v="Juvikelva" />
		<tag k="ssr:stedsnr" v="867324" />
		<tag k="waterway" v="stream" />
	</node>
	<node lat="68.7814361083536" lon="16.31369443373086" id="-39704">
		<tag k="name" v="Kroktåa" />
		<tag k="ssr:stedsnr" v="867487" />
		<tag k="waterway" v="river" />
	</node>
	<node lat="68.77381111173658" lon="16.345269454845777" id="-39705">
		<tag k="name" v="Nakkebekken" />
		<tag k="ssr:stedsnr" v="867490" />
		<tag k="waterway" v="stream" />
	</node>
	<node lat="68.69809444822873" lon="15.95358332880757" id="-39706">
		<tag k="alt_name" v="Årmolsbekken" />
		<tag k="name" v="Årmålsbekken" />
		<tag k="ssr:stedsnr" v="867512" />
		<tag k="waterway" v="stream" />
	</node>
	<node lat="68.64210833143004" lon="16.091797231277724" id="-39707">
		<tag k="alt_name" v="Djupskardbekken" />
		<tag k="name" v="Djupskarelva" />
		<tag k="ssr:stedsnr" v="867353" />
		<tag k="waterway" v="stream" />
	</node>
	<node lat="68.63107500481107" lon="15.856997213324897" id="-39709">
		<tag k="name" v="Husbyelva" />
		<tag k="ssr:stedsnr" v="867358" />
		<tag k="waterway" v="stream" />
	</node>
	<node lat="68.52906389006539" lon="15.763619456378056" id="-39713">
		<tag k="name" v="Seljebekken" />
		<tag k="ssr:stedsnr" v="867787" />
		<tag k="waterway" v="stream" />
	</node>
	<node lat="68.73365555167453" lon="16.075163894937887" id="-39715">
		<tag k="name" v="Hemmestadvatnet" />
		<tag k="natural" v="water" />
		<tag k="ssr:stedsnr" v="868431" />
	</node>
	<node lat="68.74001666245019" lon="16.061069445188302" id="-39716">
		<tag k="fixme" v="multiple name tags, choose one and add the other to alt_name" />
		<tag k="name" v="Negårdsosen;Osen" />
		<tag k="natural" v="bay" />
		<tag k="ssr:stedsnr" v="868439" />
	</node>
	<node lat="68.58681389266026" lon="16.020727767405326" id="-39718">
		<tag k="name" v="Storvatnet - Muorjejávri" />
		<tag k="name:no" v="Storvatnet" />
		<tag k="name:se" v="Muorjejávri" />
		<tag k="natural" v="water" />
		<tag k="ssr:stedsnr" v="868780" />
		<tag k="water" v="lake" />
	</node>
	<node lat="68.64983889115119" lon="16.242802779919067" id="-39720">
		<tag k="name" v="Sjettevatnet" />
		<tag k="natural" v="water" />
		<tag k="ssr:stedsnr" v="869034" />
	</node>
	<node lat="68.70102500027411" lon="16.27346111011167" id="-39723">
		<tag k="name" v="Tømmeråsvatnet" />
		<tag k="natural" v="water" />
		<tag k="ssr:stedsnr" v="870160" />
		<tag k="water" v="lake" />
	</node>
	<node lat="68.6941444478268" lon="16.241688887292177" id="-39724">
		<tag k="fixme" v="multiple name tags, choose one and add the other to alt_name" />
		<tag k="name" v="Indre Keipelva;Bakre Kjeipelva" />
		<tag k="ssr:stedsnr" v="870161" />
		<tag k="waterway" v="river" />
	</node>
	<node lat="68.6287055550584" lon="16.070772226026346" id="-39741">
		<tag k="name" v="Holmeneset" />
		<tag k="natural" v="cape" />
		<tag k="ssr:stedsnr" v="962007" />
	</node>
	<node lat="68.62411666805693" lon="16.07313611980952" id="-39742">
		<tag k="name" v="Sjurdammen" />
		<tag k="natural" v="water" />
		<tag k="ssr:stedsnr" v="962013" />
		<tag k="water" v="lake" />
	</node>
	<node lat="68.73176944006387" lon="16.333108342885645" id="-39755">
		<tag k="name" v="Ramnskarvatnet" />
		<tag k="natural" v="water" />
		<tag k="ssr:stedsnr" v="962546" />
		<tag k="water" v="lake" />
	</node>
</osm>
