<?xml version="1.0" encoding="UTF-8"?>
<<<<<<< HEAD
<osm version="0.6" generator="osmapis">
	<node lat="68.73600555101252" lon="16.19868611595939" id="-35381">
		<tag k="fixme" v="multiple name tags, choose one and add the other to alt_name; consider seamark:type=rock or natural=shoal" />
		<tag k="name" v="Salskjeret;Langskjæret" />
		<tag k="place" v="islet" />
		<tag k="ssr:stedsnr" v="18403" />
	</node>
	<node lat="68.59289166872342" lon="15.817222212490304" id="-35389">
		<tag k="name" v="Skinnhallarbukta" />
		<tag k="natural" v="bay" />
		<tag k="ssr:stedsnr" v="18782" />
	</node>
	<node lat="68.53694722056078" lon="15.724099990228483" id="-35410">
		<tag k="name" v="Holla" />
		<tag k="natural" v="bay" />
		<tag k="ssr:stedsnr" v="233834" />
	</node>
	<node lat="68.5351499964447" lon="15.725530542102698" id="-35411">
		<tag k="name" v="Vesterbotn" />
		<tag k="natural" v="bay" />
		<tag k="ssr:stedsnr" v="233837" />
	</node>
	<node lat="68.54097499794901" lon="15.753180548021474" id="-35412">
		<tag k="name" v="Daskaneset" />
		<tag k="natural" v="cape" />
		<tag k="ssr:stedsnr" v="233840" />
	</node>
	<node lat="68.72989166362814" lon="16.255922214655" id="-35415">
		<tag k="fixme" v="consider seamark:type=rock or natural=shoal" />
		<tag k="name" v="Galtan" />
		<tag k="place" v="islet" />
		<tag k="ssr:stedsnr" v="234499" />
	</node>
	<node lat="68.71137222200416" lon="16.293041656682217" id="-35417">
		<tag k="name" v="Sjøholman" />
		<tag k="natural" v="cape" />
		<tag k="ssr:stedsnr" v="234621" />
	</node>
	<node lat="68.88142222035863" lon="16.05416388581818" id="-35420">
		<tag k="fixme" v="consider seamark:type=rock or natural=shoal" />
		<tag k="name" v="Skarvhausan" />
		<tag k="place" v="islet" />
		<tag k="ssr:stedsnr" v="35908" />
	</node>
	<node lat="68.83071110888083" lon="16.038947223347563" id="-35445">
		<tag k="bay" v="fjord" />
		<tag k="name" v="Kvæfjorden - Giehtavuotna" />
		<tag k="name:no" v="Kvæfjorden" />
		<tag k="name:se" v="Giehtavuotna" />
		<tag k="natural" v="bay" />
		<tag k="ssr:stedsnr" v="78015" />
	</node>
	<node lat="68.63497499756608" lon="15.869841667473755" id="-35448">
		<tag k="name" v="Hestneset" />
		<tag k="natural" v="cape" />
		<tag k="ssr:stedsnr" v="78323" />
	</node>
	<node lat="68.74588055107614" lon="16.202230565805248" id="-35459">
		<tag k="alt_name" v="Hoklandskjeret" />
		<tag k="fixme" v="consider seamark:type=rock or natural=shoal" />
		<tag k="name" v="Hoklandsskjæran" />
		<tag k="place" v="islet" />
		<tag k="ssr:stedsnr" v="79403" />
	</node>
	<node lat="68.84070277619732" lon="15.9724416649874" id="-35465">
		<tag k="name" v="Sylvikneset" />
		<tag k="natural" v="cape" />
		<tag k="ssr:stedsnr" v="96914" />
	</node>
	<node lat="68.74015000383335" lon="16.212519455678883" id="-35466">
		<tag k="name" v="Kjuklingen" />
		<tag k="place" v="locality" />
		<tag k="seamark:type" v="rock" />
		<tag k="ssr:stedsnr" v="98681" />
	</node>
	<node lat="68.63509722473822" lon="15.849930550753566" id="-35472">
		<tag k="name" v="Austersnaget" />
		<tag k="natural" v="cape" />
		<tag k="ssr:stedsnr" v="112082" />
	</node>
	<node lat="68.56699721814631" lon="15.825783334204267" id="-35487">
		<tag k="name" v="Eidbukta" />
		<tag k="natural" v="bay" />
		<tag k="ssr:stedsnr" v="112922" />
	</node>
	<node lat="68.55984166653735" lon="15.814866658343231" id="-35488">
		<tag k="name" v="Tverrbakkbukta" />
		<tag k="natural" v="bay" />
		<tag k="ssr:stedsnr" v="112924" />
	</node>
	<node lat="68.60102499525274" lon="15.78932778771111" id="-35490">
		<tag k="name" v="Ytste Storneset" />
		<tag k="natural" v="cape" />
		<tag k="ssr:stedsnr" v="113936" />
	</node>
	<node lat="68.63989721812872" lon="15.800680555759216" id="-35493">
		<tag k="name" v="Storsteinneset" />
		<tag k="natural" v="cape" />
		<tag k="ssr:stedsnr" v="138218" />
	</node>
	<node lat="68.6974944436153" lon="15.96816388631017" id="-35496">
		<tag k="name" v="Limneset" />
		<tag k="natural" v="cape" />
		<tag k="ssr:stedsnr" v="138496" />
	</node>
	<node lat="68.6374055580015" lon="15.840416666845162" id="-35498">
		<tag k="name" v="Forøysnaget" />
		<tag k="natural" v="cape" />
		<tag k="ssr:stedsnr" v="138349" />
	</node>
	<node lat="68.83864166910365" lon="15.972769443159482" id="-35506">
		<tag k="name" v="Vadneset" />
		<tag k="natural" v="cape" />
		<tag k="ssr:stedsnr" v="260015" />
	</node>
	<node lat="68.6677027755637" lon="16.053152787279668" id="-35514">
		<tag k="alt_name" v="Klubbneset;Klubbnesset" />
		<tag k="name" v="Klubbeneset" />
		<tag k="natural" v="cape" />
		<tag k="ssr:stedsnr" v="260335" />
	</node>
	<node lat="68.63593055371885" lon="15.899497222832446" id="-35521">
		<tag k="name" v="Vassvika" />
		<tag k="natural" v="bay" />
		<tag k="ssr:stedsnr" v="260375" />
	</node>
	<node lat="68.75359999521311" lon="16.24818889628576" id="-35525">
		<tag k="name" v="Vikelandsbukta" />
		<tag k="natural" v="bay" />
		<tag k="ssr:stedsnr" v="260468" />
	</node>
	<node lat="68.55732499817286" lon="15.756466677918304" id="-35531">
		<tag k="alt_name" v="Løbergbukta" />
		<tag k="name" v="Løbergsbukta" />
		<tag k="natural" v="bay" />
		<tag k="ssr:stedsnr" v="260895" />
	</node>
	<node lat="68.73349444409575" lon="16.05055278277596" id="-35536">
		<tag k="name" v="Brekkaholmen" />
		<tag k="place" v="islet" />
		<tag k="ssr:stedsnr" v="172414" />
	</node>
	<node lat="68.78879797629827" lon="16.071361081619408" id="-35537">
		<tag k="alt_name" v="Øynes" />
		<tag k="name" v="Øyneset" />
		<tag k="natural" v="cape" />
		<tag k="ssr:stedsnr" v="172417" />
	</node>
	<node lat="68.61005000381832" lon="15.813844433091784" id="-35543">
		<tag k="name" v="Urvika" />
		<tag k="natural" v="bay" />
		<tag k="ssr:stedsnr" v="172667" />
	</node>
	<node lat="68.6369333340847" lon="15.846719436544914" id="-35548">
		<tag k="name" v="Midtersnaget" />
		<tag k="natural" v="cape" />
		<tag k="ssr:stedsnr" v="173174" />
	</node>
	<node lat="68.87653332985977" lon="16.04411388077396" id="-35555">
		<tag k="alt_name" v="Tjuvskjeret" />
		<tag k="fixme" v="consider seamark:type=rock or natural=shoal" />
		<tag k="name" v="Tjuvskjæret" />
		<tag k="place" v="islet" />
		<tag k="ssr:stedsnr" v="261475" />
	</node>
	<node lat="68.70696388501095" lon="16.04886667326716" id="-35565">
		<tag k="name" v="Lynghammaren" />
		<tag k="natural" v="cape" />
		<tag k="ssr:stedsnr" v="199458" />
	</node>
	<node lat="68.67087499978406" lon="16.02858611182778" id="-35569">
		<tag k="name" v="Juvika" />
		<tag k="natural" v="bay" />
		<tag k="ssr:stedsnr" v="200261" />
	</node>
	<node lat="68.67238889192284" lon="15.923958336090152" id="-35570">
		<tag k="name" v="Storholmen" />
		<tag k="place" v="islet" />
		<tag k="ssr:stedsnr" v="200265" />
	</node>
	<node lat="68.69050000402765" lon="16.028588878635144" id="-35574">
		<tag k="alt_name" v="Håkjerringnesset" />
		<tag k="name" v="Håkjerringneset" />
		<tag k="natural" v="cape" />
		<tag k="ssr:stedsnr" v="219705" />
	</node>
	<node lat="68.63658055474306" lon="15.792052787425106" id="-35579">
		<tag k="name" v="Gamvika" />
		<tag k="natural" v="bay" />
		<tag k="ssr:stedsnr" v="233191" />
	</node>
	<node lat="68.63723888482767" lon="15.896361114167624" id="-35581">
		<tag k="name" v="Litjeplassneset" />
		<tag k="natural" v="cape" />
		<tag k="ssr:stedsnr" v="233086" />
	</node>
	<node lat="68.65341944509969" lon="15.937424995390044" id="-35583">
		<tag k="name" v="Neset" />
=======
<osm generator="osmapis" version="0.6">
	<node id="-850943" lat="68.5595388875" lon="15.7660555589">
		<tag k="name" v="Steinnesset" />
		<tag k="natural" v="cape" />
		<tag k="ssr:stedsnr" v="900759" />
	</node>
	<node id="-851450" lat="68.6504888928" lon="15.8676138795">
		<tag k="name" v="Storvika" />
		<tag k="natural" v="bay" />
		<tag k="ssr:stedsnr" v="409107" />
	</node>
	<node id="-851449" lat="68.6502666662" lon="15.8795888824">
		<tag k="name" v="Kattevika" />
		<tag k="natural" v="bay" />
		<tag k="ssr:stedsnr" v="409104" />
	</node>
	<node id="-851960" lat="68.6707277747" lon="16.0473944504">
		<tag k="name" v="Djuphamn" />
		<tag k="natural" v="bay" />
		<tag k="ssr:stedsnr" v="962028" />
	</node>
	<node id="-850935" lat="68.7431166667" lon="16.1913972238">
		<tag k="name" v="Salengrunnen" />
		<tag k="natural" v="shoal" />
		<tag k="place" v="locality" />
		<tag k="ssr:stedsnr" v="947648" />
	</node>
	<node id="-850934" lat="68.6306722192" lon="15.8394277683">
		<tag k="name" v="Tjeldnesbukta" />
		<tag k="natural" v="bay" />
		<tag k="ssr:stedsnr" v="841970" />
	</node>
	<node id="-851957" lat="68.6366055596" lon="15.9042527735">
		<tag k="name" v="Finnsteinen" />
		<tag k="natural" v="cape" />
		<tag k="ssr:stedsnr" v="962077" />
	</node>
	<node id="-851956" lat="68.5680750019" lon="15.802144433">
		<tag k="name" v="Kattebukta" />
		<tag k="natural" v="bay" />
		<tag k="ssr:stedsnr" v="961947" />
	</node>
	<node id="-850930" lat="68.7401749972" lon="16.2127750108">
		<tag k="fixme" v="consider seamark:type=rock or natural=shoal" />
		<tag k="name" v="Salskjæret" />
		<tag k="place" v="islet" />
		<tag k="ssr:stedsnr" v="841708" />
	</node>
	<node id="-851441" lat="68.6665138858" lon="16.0499416658">
		<tag k="name" v="Klubbukta" />
		<tag k="natural" v="bay" />
		<tag k="ssr:stedsnr" v="382265" />
	</node>
	<node id="-851952" lat="68.5533972236" lon="15.7805166601">
		<tag k="name" v="Myrneset" />
		<tag k="natural" v="cape" />
		<tag k="ssr:stedsnr" v="961800" />
	</node>
	<node id="-851439" lat="68.6728111097" lon="16.0186361176">
		<tag k="name" v="Juvikklubben" />
		<tag k="natural" v="cape" />
		<tag k="ssr:stedsnr" v="382252" />
	</node>
	<node id="-850723" lat="68.5829333328" lon="15.8189583274">
		<tag k="name" v="Ytterholtebukta" />
		<tag k="natural" v="bay" />
		<tag k="ssr:stedsnr" v="718919" />
	</node>
	<node id="-851437" lat="68.7892750026" lon="16.0744777873">
		<tag k="name" v="Utstrandvika" />
		<tag k="natural" v="bay" />
		<tag k="ssr:stedsnr" v="382077" />
	</node>
	<node id="-851436" lat="68.7921749996" lon="16.0751749956">
		<tag k="name" v="Øynesbåen" />
		<tag k="natural" v="shoal" />
		<tag k="place" v="locality" />
		<tag k="ssr:stedsnr" v="382074" />
	</node>
	<node id="-850562" lat="68.5594055514" lon="15.7747416615">
		<tag k="name" v="Litjeløbergsneset" />
		<tag k="natural" v="cape" />
		<tag k="ssr:stedsnr" v="657729" />
	</node>
	<node id="-850450" lat="68.6375305592" lon="16.0623388814">
		<tag k="name" v="Kvalvika" />
		<tag k="natural" v="bay" />
		<tag k="ssr:stedsnr" v="294479" />
	</node>
	<node id="-851942" lat="68.882480556" lon="16.063330555">
		<tag k="name" v="Tennevalen" />
		<tag k="natural" v="bay" />
		<tag k="ssr:stedsnr" v="961389" />
	</node>
	<node id="-850405" lat="68.7416611094" lon="16.2601527867">
		<tag k="name" v="Vikvågen" />
		<tag k="natural" v="bay" />
		<tag k="ssr:stedsnr" v="442828" />
	</node>
	<node id="-851940" lat="68.5393611156" lon="15.7522361081">
		<tag k="loc_name:se" v="Skeddjanjárga" />
		<tag k="name" v="Skjåneset" />
		<tag k="name:no" v="Skjåneset" />
		<tag k="natural" v="cape" />
		<tag k="ssr:stedsnr" v="950788" />
	</node>
	<node id="-850501" lat="68.6137083373" lon="15.8093249985">
		<tag k="name" v="Labukta" />
		<tag k="natural" v="bay" />
		<tag k="ssr:stedsnr" v="476976" />
	</node>
	<node id="-850402" lat="68.6879861094" lon="15.9506861158">
		<tag k="name" v="Valneset" />
		<tag k="natural" v="cape" />
		<tag k="ssr:stedsnr" v="442496" />
	</node>
	<node id="-850171" lat="68.6365805547" lon="15.7920527874">
		<tag k="name" v="Gamvika" />
		<tag k="natural" v="bay" />
		<tag k="ssr:stedsnr" v="233191" />
	</node>
	<node id="-851424" lat="68.6421034458" lon="16.0600029298">
		<tag k="name" v="Aspenes" />
		<tag k="natural" v="cape" />
		<tag k="ssr:stedsnr" v="381322" />
	</node>
	<node id="-851423" lat="68.6583777788" lon="16.0783250095">
		<tag k="name" v="Skjellvika" />
		<tag k="natural" v="bay" />
		<tag k="ssr:stedsnr" v="381311" />
	</node>
	<node id="-851932" lat="68.7868750024" lon="16.0769944531">
		<tag k="name" v="Snøvika" />
		<tag k="natural" v="bay" />
		<tag k="ssr:stedsnr" v="868055" />
	</node>
	<node id="-851931" lat="68.8782694411" lon="16.0660416599">
		<tag k="name" v="Neseberget" />
		<tag k="natural" v="cape" />
		<tag k="ssr:stedsnr" v="868049" />
	</node>
	<node id="-850394" lat="68.6463277816" lon="15.8252027902">
		<tag k="alt_name" v="Gombogsætran" />
		<tag k="name" v="Gambogsætran" />
		<tag k="natural" v="cape" />
		<tag k="ssr:stedsnr" v="442335" />
	</node>
	<node id="-850393" lat="68.6552750004" lon="15.8919222289">
		<tag k="name" v="Kvalvika" />
		<tag k="natural" v="bay" />
		<tag k="ssr:stedsnr" v="442329" />
	</node>
	<node id="-851928" lat="68.7180583352" lon="16.2883027736">
		<tag k="alt_name" v="Strømsbotn" />
		<tag k="name" v="Straumsbotn" />
		<tag k="natural" v="bay" />
		<tag k="ssr:stedsnr" v="867978" />
	</node>
	<node id="-851924" lat="68.874052779" lon="15.5807444388">
		<tag k="alt_name:no" v="Hinnøy" />
		<tag k="name" v="Hinnøya - Iinnasuolu" />
		<tag k="name:no" v="Hinnøya" />
		<tag k="name:se" v="Iinnasuolu" />
		<tag k="place" v="island" />
		<tag k="ssr:stedsnr" v="867568" />
	</node>
	<node id="-850387" lat="68.8146138856" lon="15.9614333321">
		<tag k="name" v="Floen" />
		<tag k="natural" v="strait" />
		<tag k="ssr:stedsnr" v="442128" />
	</node>
	<node id="-851409" lat="68.5999972252" lon="15.7898388996">
		<tag k="name" v="Inste Storneset" />
		<tag k="natural" v="cape" />
		<tag k="ssr:stedsnr" v="355942" />
	</node>
	<node id="-850384" lat="68.8555194421" lon="16.0276972092">
		<tag k="name" v="Storvikneset" />
		<tag k="natural" v="cape" />
		<tag k="ssr:stedsnr" v="442038" />
	</node>
	<node id="-850382" lat="68.690500004" lon="16.0285888786">
		<tag k="alt_name" v="Håkjerringnesset" />
		<tag k="name" v="Håkjerringneset" />
		<tag k="natural" v="cape" />
		<tag k="ssr:stedsnr" v="219705" />
	</node>
	<node id="-851916" lat="68.6004888893" lon="15.7889805632">
		<tag k="name" v="Stornesan" />
		<tag k="natural" v="cape" />
		<tag k="ssr:stedsnr" v="867392" />
	</node>
	<node id="-851106" lat="68.7401500038" lon="16.2125194557">
		<tag k="name" v="Kjuklingen" />
		<tag k="place" v="locality" />
		<tag k="seamark:type" v="rock" />
		<tag k="ssr:stedsnr" v="98681" />
	</node>
	<node id="-850378" lat="68.5637138932" lon="15.7982083326">
		<tag k="name" v="Notnessan" />
>>>>>>> e1d4bc35ff8a6074a6f2e91616a996b547c36f15
		<tag k="natural" v="cape" />
		<tag k="ssr:stedsnr" v="294943" />
	</node>
<<<<<<< HEAD
	<node lat="68.73882222395979" lon="16.056527776111633" id="-35585">
		<tag k="name" v="Nergårdneset" />
		<tag k="natural" v="cape" />
		<tag k="ssr:stedsnr" v="233507" />
	</node>
	<node lat="68.82649166869268" lon="15.96497778535885" id="-35598">
		<tag k="name" v="Finnsholmen" />
		<tag k="natural" v="cape" />
		<tag k="ssr:stedsnr" v="260156" />
	</node>
	<node lat="68.55036111392604" lon="15.773311121083852" id="-35607">
		<tag k="name" v="Kvalbukta - Geaiggaidluokta" />
		<tag k="name:no" v="Kvalbukta" />
		<tag k="name:se" v="Geaiggaidluokta" />
		<tag k="natural" v="bay" />
		<tag k="ssr:stedsnr" v="260913" />
	</node>
	<node lat="68.62158332951844" lon="15.776061105307939" id="-35618">
		<tag k="name" v="Møllabukta" />
		<tag k="natural" v="bay" />
		<tag k="ssr:stedsnr" v="293776" />
	</node>
	<node lat="68.73133611580151" lon="16.277058322935087" id="-35626">
		<tag k="name" v="Laneset" />
		<tag k="natural" v="cape" />
		<tag k="ssr:stedsnr" v="294531" />
	</node>
	<node lat="68.87410555676095" lon="16.03673054757944" id="-35637">
		<tag k="name" v="Gavlsundet" />
		<tag k="natural" v="strait" />
		<tag k="ssr:stedsnr" v="321040" />
	</node>
	<node lat="68.86571666609218" lon="16.01625832874461" id="-35638">
		<tag k="alt_name" v="Molviknesset" />
		<tag k="name" v="Mollvikneset" />
		<tag k="natural" v="cape" />
		<tag k="ssr:stedsnr" v="321041" />
	</node>
	<node lat="68.82903333435836" lon="15.968155556275184" id="-35639">
		<tag k="name" v="Valen" />
		<tag k="natural" v="bay" />
		<tag k="ssr:stedsnr" v="321105" />
	</node>
	<node lat="68.65698333733762" lon="15.949433328388455" id="-35642">
		<tag k="name" v="Elvebukta" />
		<tag k="natural" v="bay" />
		<tag k="ssr:stedsnr" v="321289" />
	</node>
	<node lat="68.60042777715027" lon="15.821194447248928" id="-35646">
		<tag k="name" v="Leirvikodden" />
		<tag k="natural" v="cape" />
		<tag k="ssr:stedsnr" v="321802" />
	</node>
	<node lat="68.60102222672998" lon="15.822116665224971" id="-35669">
		<tag k="name" v="Leirvika" />
		<tag k="natural" v="bay" />
		<tag k="ssr:stedsnr" v="475197" />
	</node>
	<node lat="68.62738888559356" lon="15.775916657068139" id="-35677">
		<tag k="name" v="Sæterbukta" />
		<tag k="natural" v="bay" />
		<tag k="ssr:stedsnr" v="475773" />
	</node>
	<node lat="68.55565000257484" lon="15.749580566020951" id="-35679">
		<tag k="name" v="Raksebukta" />
		<tag k="natural" v="bay" />
		<tag k="ssr:stedsnr" v="475754" />
	</node>
	<node lat="68.64713610726697" lon="16.06137777154695" id="-35680">
		<tag k="name" v="Kvalryggen" />
		<tag k="natural" v="cape" />
		<tag k="ssr:stedsnr" v="476072" />
	</node>
	<node lat="68.64441111461394" lon="16.09089722695941" id="-35690">
		<tag k="name" v="Seljeneset" />
		<tag k="natural" v="cape" />
		<tag k="ssr:stedsnr" v="476453" />
	</node>
	<node lat="68.65170278094021" lon="16.087791670155184" id="-35691">
		<tag k="name" v="Melkevika" />
		<tag k="natural" v="bay" />
		<tag k="ssr:stedsnr" v="476457" />
	</node>
	<node lat="68.6962194417853" lon="15.967338884048246" id="-35692">
		<tag k="fixme" v="consider seamark:type=rock or natural=shoal" />
		<tag k="name" v="Geitsteinen" />
		<tag k="place" v="islet" />
		<tag k="ssr:stedsnr" v="476482" />
	</node>
	<node lat="68.71422499995978" lon="16.302461112638735" id="-35700">
		<tag k="name" v="Jensekaia" />
		<tag k="natural" v="cape" />
		<tag k="ssr:stedsnr" v="476550" />
	</node>
	<node lat="68.7335472260988" lon="16.187424999995457" id="-35710">
		<tag k="name" v="Salbukta" />
		<tag k="natural" v="bay" />
		<tag k="ssr:stedsnr" v="476737" />
	</node>
	<node lat="68.61370833731418" lon="15.809324998499509" id="-35712">
		<tag k="name" v="Labukta" />
		<tag k="natural" v="bay" />
		<tag k="ssr:stedsnr" v="476976" />
	</node>
	<node lat="68.77519166753326" lon="16.061466659808126" id="-35714">
		<tag k="alt_name" v="Ivarskjeret" />
		<tag k="fixme" v="consider seamark:type=rock or natural=shoal" />
		<tag k="name" v="Ivarskjæret" />
		<tag k="place" v="islet" />
		<tag k="ssr:stedsnr" v="381174" />
	</node>
	<node lat="68.65837777879847" lon="16.07832500949489" id="-35715">
		<tag k="name" v="Skjellvika" />
		<tag k="natural" v="bay" />
		<tag k="ssr:stedsnr" v="381311" />
	</node>
	<node lat="68.65026666619251" lon="15.879588882412211" id="-35723">
		<tag k="name" v="Kattevika" />
		<tag k="natural" v="bay" />
		<tag k="ssr:stedsnr" v="409104" />
	</node>
	<node lat="68.57650000377237" lon="15.826791676158791" id="-35727">
		<tag k="name" v="Osneset" />
		<tag k="natural" v="cape" />
		<tag k="ssr:stedsnr" v="415941" />
	</node>
	<node lat="68.56835832984774" lon="15.827044442582041" id="-35728">
		<tag k="name" v="Høgsteinneset" />
		<tag k="natural" v="cape" />
		<tag k="ssr:stedsnr" v="415944" />
	</node>
	<node lat="68.66864721979779" lon="16.050324993744013" id="-35730">
		<tag k="name" v="Osen" />
		<tag k="natural" v="bay" />
		<tag k="ssr:stedsnr" v="416039" />
	</node>
	<node lat="68.65613888962785" lon="16.07797777332324" id="-35738">
		<tag k="name" v="Skjellvikneset" />
		<tag k="natural" v="cape" />
		<tag k="ssr:stedsnr" v="416411" />
	</node>
	<node lat="68.63783333624174" lon="16.084597215674403" id="-35739">
		<tag k="name" v="Likråa" />
		<tag k="natural" v="bay" />
		<tag k="ssr:stedsnr" v="416417" />
	</node>
	<node lat="68.73740832961872" lon="16.13924723143024" id="-35748">
		<tag k="name" v="Skjellneset" />
		<tag k="natural" v="cape" />
		<tag k="ssr:stedsnr" v="416703" />
	</node>
	<node lat="68.8555194420532" lon="16.027697209150432" id="-35754">
		<tag k="name" v="Storvikneset" />
		<tag k="natural" v="cape" />
		<tag k="ssr:stedsnr" v="442038" />
	</node>
	<node lat="68.68105833157382" lon="15.936552771679318" id="-35758">
		<tag k="name" v="Stabbeneset" />
		<tag k="natural" v="cape" />
		<tag k="ssr:stedsnr" v="442309" />
	</node>
	<node lat="68.64632778159717" lon="15.825202790192375" id="-35759">
		<tag k="alt_name" v="Gambogsætran" />
		<tag k="name" v="Gombogsætran" />
		<tag k="natural" v="cape" />
		<tag k="ssr:stedsnr" v="442335" />
	</node>
	<node lat="68.64913611075215" lon="15.845163892543631" id="-35760">
		<tag k="name" v="Pålneset" />
		<tag k="natural" v="cape" />
		<tag k="ssr:stedsnr" v="442336" />
	</node>
	<node lat="68.68798610937937" lon="15.95068611581396" id="-35764">
		<tag k="name" v="Valneset" />
		<tag k="natural" v="cape" />
		<tag k="ssr:stedsnr" v="442496" />
	</node>
	<node lat="68.66821666988947" lon="15.923127771213935" id="-35768">
		<tag k="fixme" v="consider seamark:type=rock or natural=shoal" />
		<tag k="name" v="Kræka" />
		<tag k="place" v="islet" />
		<tag k="ssr:stedsnr" v="443282" />
	</node>
	<node lat="68.83922500171667" lon="15.994666658112473" id="-35786">
		<tag k="name" v="Kråkvika" />
		<tag k="natural" v="bay" />
		<tag k="ssr:stedsnr" v="503006" />
	</node>
	<node lat="68.73562047430786" lon="16.205911984589466" id="-35789">
		<tag k="name" v="Salen" />
		<tag k="natural" v="cape" />
		<tag k="ssr:stedsnr" v="503430" />
	</node>
	<node lat="68.84126944389737" lon="15.971624991300079" id="-35796">
		<tag k="name" v="Sylvika" />
		<tag k="natural" v="bay" />
		<tag k="ssr:stedsnr" v="685023" />
	</node>
	<node lat="68.8468777784287" lon="15.970599991873783" id="-35797">
		<tag k="alt_name" v="Litjefærnesset" />
		<tag k="name" v="Litlefærneset" />
		<tag k="natural" v="cape" />
		<tag k="ssr:stedsnr" v="685027" />
	</node>
	<node lat="68.85134999741085" lon="16.11414165439819" id="-35798">
		<tag k="name" v="Aspenesgrunnan" />
		<tag k="natural" v="shoal" />
		<tag k="place" v="locality" />
		<tag k="ssr:stedsnr" v="685042" />
	</node>
	<node lat="68.84844721769194" lon="16.013150009828806" id="-35799">
		<tag k="alt_name" v="Låterskjeret;Lotterskjeret" />
		<tag k="fixme" v="consider seamark:type=rock or natural=shoal" />
		<tag k="name" v="Lotterskjæret" />
		<tag k="place" v="islet" />
		<tag k="ssr:stedsnr" v="685044" />
	</node>
	<node lat="68.86041944539332" lon="16.12108888889313" id="-35800">
		<tag k="name" v="Olsbåen" />
		<tag k="natural" v="shoal" />
		<tag k="place" v="locality" />
		<tag k="ssr:stedsnr" v="685050" />
	</node>
	<node lat="68.66990278029529" lon="16.052986120213987" id="-35807">
		<tag k="name" v="Langneset" />
		<tag k="natural" v="cape" />
		<tag k="ssr:stedsnr" v="685189" />
	</node>
	<node lat="68.65200555692657" lon="15.852413893469732" id="-35808">
		<tag k="alt_name" v="Gambogbukta" />
		<tag k="name" v="Gombogbukta" />
		<tag k="natural" v="bay" />
		<tag k="ssr:stedsnr" v="522643" />
	</node>
	<node lat="68.67667221964587" lon="15.934230559789949" id="-35811">
		<tag k="alt_name" v="Holandholmen;Holandsholmen" />
		<tag k="name" v="Holandsholman" />
		<tag k="place" v="islet" />
		<tag k="ssr:stedsnr" v="685268" />
	</node>
	<node lat="68.66136110901826" lon="16.07796388706246" id="-35812">
		<tag k="name" v="Pervika" />
		<tag k="natural" v="bay" />
		<tag k="ssr:stedsnr" v="685284" />
	</node>
	<node lat="68.65841666376298" lon="15.884905544957608" id="-35814">
		<tag k="name" v="Bogbukta" />
		<tag k="natural" v="bay" />
		<tag k="ssr:stedsnr" v="685289" />
	</node>
	<node lat="68.88514444841495" lon="16.041533323336107" id="-35825">
		<tag k="alt_name" v="Svartskjæret" />
		<tag k="name" v="Svartskjeran" />
		<tag k="natural" v="shoal" />
		<tag k="place" v="locality" />
		<tag k="ssr:stedsnr" v="685435" />
	</node>
	<node lat="68.53349166361336" lon="15.734638882624662" id="-35829">
		<tag k="name" v="Stranda" />
		<tag k="natural" v="beach" />
		<tag k="ssr:stedsnr" v="685733" />
	</node>
	<node lat="68.56138055816734" lon="15.82102777775624" id="-35834">
		<tag k="alt_name" v="Eideklubben" />
		<tag k="name" v="Eidklubben" />
		<tag k="natural" v="cape" />
		<tag k="ssr:stedsnr" v="685858" />
	</node>
	<node lat="68.71205278195283" lon="16.28866665740358" id="-35857">
		<tag k="name" v="Vognneset" />
		<tag k="natural" v="cape" />
		<tag k="ssr:stedsnr" v="537602" />
	</node>
	<node lat="68.71246667060903" lon="16.28806110802527" id="-35858">
		<tag k="name" v="Laksevågen" />
		<tag k="natural" v="bay" />
		<tag k="ssr:stedsnr" v="537605" />
	</node>
	<node lat="68.83744444291615" lon="16.107169450515258" id="-35879">
		<tag k="name" v="Stabben" />
		<tag k="natural" v="shoal" />
		<tag k="place" v="locality" />
		<tag k="ssr:stedsnr" v="624016" />
	</node>
	<node lat="68.76349444784503" lon="16.1407388847811" id="-35882">
		<tag k="name" v="Lundebogneset" />
		<tag k="natural" v="cape" />
		<tag k="ssr:stedsnr" v="624187" />
	</node>
	<node lat="68.6546277743832" lon="16.07863887747852" id="-35884">
		<tag k="alt_name" v="Forholtneset" />
		<tag k="name" v="Forrholtneset" />
		<tag k="natural" v="cape" />
		<tag k="ssr:stedsnr" v="624308" />
	</node>
	<node lat="68.65157946636046" lon="15.931959074627116" id="-35885">
		<tag k="name" v="Slettneset" />
		<tag k="natural" v="cape" />
		<tag k="ssr:stedsnr" v="624311" />
	</node>
	<node lat="68.85307777586443" lon="16.021050008422247" id="-35887">
		<tag k="name" v="Storvika" />
		<tag k="natural" v="bay" />
		<tag k="ssr:stedsnr" v="624318" />
	</node>
	<node lat="68.62786388603702" lon="15.81240277002515" id="-35888">
		<tag k="fixme" v="multiple name tags, choose one and add the other to alt_name" />
		<tag k="name" v="Forøybåen;Snaget" />
		<tag k="natural" v="shoal" />
		<tag k="place" v="locality" />
		<tag k="ssr:stedsnr" v="624358" />
	</node>
	<node lat="68.65038889316277" lon="15.875016667306781" id="-35900">
		<tag k="name" v="Urneset" />
		<tag k="natural" v="cape" />
		<tag k="ssr:stedsnr" v="651095" />
	</node>
	<node lat="68.55940555137327" lon="15.77474166153647" id="-35906">
		<tag k="name" v="Litjeløbergsneset" />
=======
	<node id="-850889" lat="68.6663722187" lon="15.9138166745">
		<tag k="name" v="Lanesodden" />
		<tag k="natural" v="cape" />
		<tag k="ssr:stedsnr" v="928253" />
	</node>
	<node id="-850376" lat="68.5631638916" lon="15.8226083421">
		<tag k="name" v="Innereidbukta" />
		<tag k="natural" v="bay" />
		<tag k="ssr:stedsnr" v="294933" />
	</node>
	<node id="-850375" lat="68.5771749987" lon="15.8273500113">
		<tag k="name" v="Osen" />
		<tag k="natural" v="bay" />
		<tag k="ssr:stedsnr" v="294926" />
	</node>
	<node id="-851418" lat="68.7751916675" lon="16.0614666598">
		<tag k="alt_name" v="Ivarskjeret" />
		<tag k="fixme" v="consider seamark:type=rock or natural=shoal" />
		<tag k="name" v="Ivarskjæret" />
		<tag k="place" v="islet" />
		<tag k="ssr:stedsnr" v="381174" />
	</node>
	<node id="-850166" lat="68.6534194451" lon="15.9374249954">
		<tag k="name" v="Neset" />
		<tag k="natural" v="cape" />
		<tag k="ssr:stedsnr" v="233094" />
	</node>
	<node id="-850875" lat="68.5850777763" lon="15.7929111043">
		<tag k="name" v="Skjellneset - Skellanjárga" />
		<tag k="name:no" v="Skjellneset" />
		<tag k="name:se" v="Skellanjárga" />
		<tag k="natural" v="cape" />
		<tag k="ssr:stedsnr" v="927850" />
	</node>
	<node id="-850507" lat="68.8392250017" lon="15.9946666581">
		<tag k="name" v="Kråkvika" />
		<tag k="natural" v="bay" />
		<tag k="ssr:stedsnr" v="503006" />
	</node>
	<node id="-850880" lat="68.8513638893" lon="15.9781722142">
		<tag k="fixme" v="multiple name tags, choose one and add the other to alt_name" />
		<tag k="name" v="Færnesan;Storfærneset" />
		<tag k="natural" v="cape" />
		<tag k="ssr:stedsnr" v="928034" />
	</node>
	<node id="-851903" lat="68.6742666643" lon="15.999119447">
		<tag k="alt_name" v="Lysåhella" />
		<tag k="name" v="Hella" />
		<tag k="natural" v="cape" />
		<tag k="ssr:stedsnr" v="867310" />
	</node>
	<node id="-851902" lat="68.6795861095" lon="16.0343527811">
		<tag k="name" v="Høyneset" />
		<tag k="natural" v="cape" />
		<tag k="ssr:stedsnr" v="867306" />
	</node>
	<node id="-851901" lat="68.863330551" lon="16.1930861162">
		<tag k="name" v="Bremnes" />
		<tag k="natural" v="cape" />
		<tag k="ssr:stedsnr" v="867055" />
	</node>
	<node id="-851900" lat="68.8655472229" lon="16.1173472256">
		<tag k="name" v="Sjursbåen" />
		<tag k="natural" v="shoal" />
		<tag k="place" v="locality" />
		<tag k="ssr:stedsnr" v="867053" />
	</node>
	<node id="-851899" lat="68.8485611124" lon="16.1013249999">
		<tag k="name" v="Flesungen" />
		<tag k="natural" v="shoal" />
		<tag k="place" v="locality" />
		<tag k="ssr:stedsnr" v="867043" />
	</node>
	<node id="-850362" lat="68.7313361158" lon="16.2770583229">
		<tag k="name" v="Laneset" />
		<tag k="natural" v="cape" />
		<tag k="ssr:stedsnr" v="294531" />
	</node>
	<node id="-851897" lat="68.8374833352" lon="16.1169166576">
		<tag k="name" v="Bonstadvika" />
		<tag k="natural" v="bay" />
		<tag k="ssr:stedsnr" v="867014" />
	</node>
	<node id="-851383" lat="68.7304777749" lon="16.2785305533">
		<tag k="name" v="Vednesvika" />
		<tag k="natural" v="bay" />
		<tag k="ssr:stedsnr" v="355476" />
	</node>
	<node id="-850869" lat="68.6515166708" lon="16.0617916576">
		<tag k="name" v="Heimstadneset" />
		<tag k="natural" v="cape" />
		<tag k="ssr:stedsnr" v="927313" />
	</node>
	<node id="-850866" lat="68.7361777735" lon="16.205658334">
		<tag k="name" v="Salodden" />
		<tag k="natural" v="cape" />
		<tag k="ssr:stedsnr" v="780716" />
	</node>
	<node id="-851016" lat="68.7362583335" lon="15.9993222121">
		<tag k="name" v="Brosmehallaren" />
		<tag k="natural" v="cape" />
		<tag k="ssr:stedsnr" v="18389" />
	</node>
	<node id="-850772" lat="68.74545833" lon="16.0648249986">
		<tag k="name" v="Sandvikbåen" />
		<tag k="place" v="locality" />
		<tag k="seamark:type" v="rock" />
		<tag k="ssr:stedsnr" v="887697" />
	</node>
	<node id="-850857" lat="68.6779999986" lon="16.0512916621">
		<tag k="name" v="Mølnneset" />
		<tag k="natural" v="cape" />
		<tag k="ssr:stedsnr" v="780026" />
	</node>
	<node id="-851662" lat="68.6546277744" lon="16.0786388775">
		<tag k="alt_name" v="Forholtneset" />
		<tag k="name" v="Forrholtneset" />
		<tag k="natural" v="cape" />
		<tag k="ssr:stedsnr" v="624308" />
	</node>
	<node id="-851879" lat="68.7452944418" lon="16.2514972195">
		<tag k="name" v="Vågen" />
		<tag k="natural" v="bay" />
		<tag k="ssr:stedsnr" v="841541" />
	</node>
	<node id="-850854" lat="68.6717388912" lon="16.0586055467">
		<tag k="name" v="Langnesgrunnen" />
		<tag k="natural" v="shoal" />
		<tag k="place" v="locality" />
		<tag k="ssr:stedsnr" v="765675" />
	</node>
	<node id="-850853" lat="68.8287666651" lon="15.9656416601">
		<tag k="name" v="Holmefuten" />
		<tag k="natural" v="shoal" />
		<tag k="place" v="locality" />
		<tag k="ssr:stedsnr" v="763909" />
	</node>
	<node id="-850622" lat="68.8484472177" lon="16.0131500098">
		<tag k="alt_name" v="Låterskjeret;Lotterskjeret" />
		<tag k="fixme" v="consider seamark:type=rock or natural=shoal" />
		<tag k="name" v="Lotterskjæret" />
		<tag k="place" v="islet" />
		<tag k="ssr:stedsnr" v="685044" />
	</node>
	<node id="-850336" lat="68.6215833295" lon="15.7760611053">
		<tag k="name" v="Møllabukta" />
		<tag k="natural" v="bay" />
		<tag k="ssr:stedsnr" v="293776" />
	</node>
	<node id="-850260" lat="68.6359305537" lon="15.8994972228">
		<tag k="name" v="Vassvika" />
		<tag k="natural" v="bay" />
		<tag k="ssr:stedsnr" v="260375" />
	</node>
	<node id="-851868" lat="68.6361944443" lon="15.8484666613">
		<tag k="name" v="Myrbukta" />
		<tag k="natural" v="bay" />
		<tag k="ssr:stedsnr" v="841073" />
	</node>
	<node id="-850652" lat="68.8851444484" lon="16.0415333233">
		<tag k="alt_name" v="Svartskjæret" />
		<tag k="name" v="Svartskjeran" />
		<tag k="natural" v="shoal" />
		<tag k="place" v="locality" />
		<tag k="ssr:stedsnr" v="685435" />
	</node>
	<node id="-851864" lat="68.6548194407" lon="15.9426638795">
		<tag k="name" v="Valen" />
		<tag k="natural" v="cape" />
		<tag k="ssr:stedsnr" v="841041" />
	</node>
	<node id="-851860" lat="68.6238166701" lon="15.7747027734">
		<tag k="name" v="Innerbukta" />
		<tag k="natural" v="bay" />
		<tag k="ssr:stedsnr" v="840789" />
	</node>
	<node id="-850835" lat="68.6067749983" lon="15.781019437">
		<tag k="name" v="Bømarkbukta" />
		<tag k="natural" v="bay" />
		<tag k="ssr:stedsnr" v="901849" />
	</node>
	<node id="-851747" lat="68.5499361096" lon="15.7719305654">
		<tag k="name" v="Kvalbuktneset" />
		<tag k="natural" v="cape" />
		<tag k="ssr:stedsnr" v="779769" />
	</node>
	<node id="-850489" lat="68.7335472261" lon="16.187425">
		<tag k="name" v="Salbukta" />
		<tag k="natural" v="bay" />
		<tag k="ssr:stedsnr" v="476737" />
	</node>
	<node id="-851856" lat="68.7778277804" lon="16.0596138772">
		<tag k="name" v="Lyngen" />
		<tag k="natural" v="beach" />
		<tag k="place" v="locality" />
		<tag k="ssr:stedsnr" v="840397" />
	</node>
	<node id="-851343" lat="68.741774999" lon="16.0554027711">
		<tag k="name" v="Korsskjerbåen" />
		<tag k="place" v="locality" />
		<tag k="seamark:type" v="rock" />
		<tag k="ssr:stedsnr" v="340672" />
	</node>
	<node id="-851854" lat="68.746727778" lon="16.0898694325">
		<tag k="name" v="Garnbukta" />
		<tag k="natural" v="bay" />
		<tag k="ssr:stedsnr" v="840485" />
	</node>
	<node id="-850413" lat="68.6682166699" lon="15.9231277712">
		<tag k="fixme" v="consider seamark:type=rock or natural=shoal" />
		<tag k="name" v="Kræka" />
		<tag k="place" v="islet" />
		<tag k="ssr:stedsnr" v="443282" />
	</node>
	<node id="-851340" lat="68.7152055548" lon="16.3018583225">
		<tag k="name" v="Oldervika" />
		<tag k="natural" v="bay" />
		<tag k="ssr:stedsnr" v="321981" />
	</node>
	<node id="-851851" lat="68.8797055591" lon="16.0671666633">
		<tag k="name" v="Matholla" />
		<tag k="natural" v="bay" />
		<tag k="ssr:stedsnr" v="840392" />
	</node>
	<node id="-850314" lat="68.6398972181" lon="15.8006805558">
		<tag k="name" v="Storsteinneset" />
		<tag k="natural" v="cape" />
		<tag k="ssr:stedsnr" v="138218" />
	</node>
	<node id="-850332" lat="68.7481361108" lon="16.1755722237">
		<tag k="name" v="Hundstadneset" />
		<tag k="natural" v="cape" />
		<tag k="ssr:stedsnr" v="200422" />
	</node>
	<node id="-851848" lat="68.8630166631" lon="16.03548056">
		<tag k="name" v="Gamvikneset" />
		<tag k="natural" v="cape" />
		<tag k="ssr:stedsnr" v="840379" />
	</node>
	<node id="-851334" lat="68.6004277772" lon="15.8211944472">
		<tag k="name" v="Leirvikodden" />
		<tag k="natural" v="cape" />
		<tag k="ssr:stedsnr" v="321802" />
	</node>
	<node id="-851333" lat="68.7469027819" lon="16.2443888954">
		<tag k="alt_name" v="Moldneset;Molnesset" />
		<tag k="name" v="Målneset" />
		<tag k="natural" v="cape" />
		<tag k="ssr:stedsnr" v="321799" />
	</node>
	<node id="-850820" lat="68.6838777763" lon="15.945919438">
		<tag k="fixme" v="consider seamark:type=rock or natural=shoal" />
		<tag k="name" v="Steinen" />
		<tag k="place" v="islet" />
		<tag k="ssr:stedsnr" v="901490" />
	</node>
	<node id="-850819" lat="68.6931472189" lon="16.0342305633">
		<tag k="name" v="Holmevika" />
		<tag k="natural" v="bay" />
		<tag k="ssr:stedsnr" v="901487" />
	</node>
	<node id="-850305" lat="68.5598416665" lon="15.8148666583">
		<tag k="name" v="Tverrbakkbukta" />
		<tag k="natural" v="bay" />
		<tag k="ssr:stedsnr" v="112924" />
	</node>
	<node id="-850304" lat="68.5669972181" lon="15.8257833342">
		<tag k="name" v="Eidbukta" />
		<tag k="natural" v="bay" />
		<tag k="ssr:stedsnr" v="112922" />
	</node>
	<node id="-850240" lat="68.8386416691" lon="15.9727694432">
		<tag k="name" v="Vadneset" />
		<tag k="natural" v="cape" />
		<tag k="ssr:stedsnr" v="260015" />
	</node>
	<node id="-851835" lat="68.889652776" lon="16.17072778">
		<tag k="name" v="Kasholmen" />
		<tag k="place" v="islet" />
		<tag k="ssr:stedsnr" v="807453" />
	</node>
	<node id="-850239" lat="68.8407027762" lon="15.972441665">
		<tag k="name" v="Sylvikneset" />
		<tag k="natural" v="cape" />
		<tag k="ssr:stedsnr" v="96914" />
	</node>
	<node id="-851832" lat="68.6085750036" lon="15.8164277772">
		<tag k="alt_name" v="Urdneset" />
		<tag k="name" v="Urneset" />
>>>>>>> e1d4bc35ff8a6074a6f2e91616a996b547c36f15
		<tag k="natural" v="cape" />
		<tag k="ssr:stedsnr" v="807358" />
	</node>
<<<<<<< HEAD
	<node lat="68.6425333376494" lon="15.810286110543856" id="-35927">
		<tag k="name" v="Pøylneset" />
		<tag k="natural" v="cape" />
		<tag k="ssr:stedsnr" v="685306" />
	</node>
	<node lat="68.64430277896017" lon="15.817550001623033" id="-35932">
		<tag k="name" v="Grasneset" />
		<tag k="natural" v="cape" />
		<tag k="ssr:stedsnr" v="685299" />
	</node>
	<node lat="68.84378055166403" lon="16.124191672817556" id="-35941">
		<tag k="name" v="Aspenes" />
		<tag k="natural" v="cape" />
		<tag k="ssr:stedsnr" v="703914" />
	</node>
	<node lat="68.7279805552864" lon="16.051480542829204" id="-35943">
		<tag k="name" v="Skarveskjærbukta" />
		<tag k="natural" v="bay" />
		<tag k="ssr:stedsnr" v="718415" />
	</node>
	<node lat="68.68470278244595" lon="16.027483326673686" id="-35944">
		<tag k="name" v="Gjerdneset" />
		<tag k="natural" v="cape" />
		<tag k="ssr:stedsnr" v="718509" />
	</node>
	<node lat="68.70430555949861" lon="16.049461101663752" id="-35952">
		<tag k="name" v="Gunnarneset" />
		<tag k="natural" v="cape" />
		<tag k="ssr:stedsnr" v="719453" />
	</node>
	<node lat="68.66510833464632" lon="16.07938610355887" id="-35967">
		<tag k="name" v="Osen" />
		<tag k="natural" v="bay" />
		<tag k="ssr:stedsnr" v="901038" />
	</node>
	<node lat="68.66044444721051" lon="16.077622219583326" id="-35968">
		<tag k="name" v="Perneset" />
		<tag k="natural" v="cape" />
		<tag k="ssr:stedsnr" v="901039" />
	</node>
	<node lat="68.7233555556283" lon="16.295511108069633" id="-35980">
		<tag k="name" v="Voktorstranda" />
		<tag k="natural" v="bay" />
		<tag k="ssr:stedsnr" v="901521" />
	</node>
	<node lat="68.6931472189034" lon="16.034230563250453" id="-35986">
		<tag k="name" v="Holmevika" />
		<tag k="natural" v="bay" />
		<tag k="ssr:stedsnr" v="901487" />
	</node>
	<node lat="68.68387777627862" lon="15.945919438037777" id="-35987">
		<tag k="fixme" v="consider seamark:type=rock or natural=shoal" />
		<tag k="name" v="Steinen" />
		<tag k="place" v="islet" />
		<tag k="ssr:stedsnr" v="901490" />
	</node>
	<node lat="68.60677499828651" lon="15.781019436992485" id="-35997">
		<tag k="name" v="Bømarkbukta" />
		<tag k="natural" v="bay" />
		<tag k="ssr:stedsnr" v="901849" />
	</node>
	<node lat="68.58774444365838" lon="15.791824998470064" id="-35999">
		<tag k="name" v="Steinneset" />
		<tag k="natural" v="cape" />
		<tag k="ssr:stedsnr" v="901872" />
	</node>
	<node lat="68.66027222262294" lon="15.90394444376063" id="-36007">
		<tag k="fixme" v="consider seamark:type=rock or natural=shoal" />
		<tag k="name" v="Bogskjeret" />
		<tag k="place" v="islet" />
		<tag k="ssr:stedsnr" v="745324" />
	</node>
	<node lat="68.8287666650828" lon="15.96564166013616" id="-36014">
		<tag k="name" v="Holmefuten" />
		<tag k="natural" v="shoal" />
		<tag k="place" v="locality" />
		<tag k="ssr:stedsnr" v="763909" />
	</node>
	<node lat="68.57496111562682" lon="15.824413879207437" id="-36019">
		<tag k="name" v="Brurstranda" />
		<tag k="natural" v="beach" />
		<tag k="ssr:stedsnr" v="779922" />
	</node>
	<node lat="68.581805559989" lon="15.793819433081888" id="-36033">
		<tag k="name" v="Bekkeneset" />
		<tag k="natural" v="cape" />
		<tag k="ssr:stedsnr" v="780855" />
	</node>
	<node lat="68.86301666314272" lon="16.035480560033154" id="-36039">
		<tag k="name" v="Gamvikneset" />
		<tag k="natural" v="cape" />
		<tag k="ssr:stedsnr" v="840379" />
	</node>
	<node lat="68.87970555912085" lon="16.067166663333857" id="-36042">
		<tag k="name" v="Matholla" />
		<tag k="natural" v="bay" />
		<tag k="ssr:stedsnr" v="840392" />
	</node>
	<node lat="68.74672777796486" lon="16.089869432535398" id="-36047">
		<tag k="name" v="Garnbukta" />
		<tag k="natural" v="bay" />
		<tag k="ssr:stedsnr" v="840485" />
	</node>
	<node lat="68.62381667006916" lon="15.774702773428785" id="-36050">
		<tag k="name" v="Innerbukta" />
		<tag k="natural" v="bay" />
		<tag k="ssr:stedsnr" v="840789" />
	</node>
	<node lat="68.6577611107833" lon="15.952641661990974" id="-36056">
		<tag k="name" v="Elveneset" />
		<tag k="natural" v="cape" />
		<tag k="ssr:stedsnr" v="841016" />
	</node>
	<node lat="68.74017499715197" lon="16.212775010821673" id="-36063">
		<tag k="fixme" v="consider seamark:type=rock or natural=shoal" />
		<tag k="name" v="Salskjæret" />
		<tag k="place" v="islet" />
		<tag k="ssr:stedsnr" v="841708" />
	</node>
	<node lat="68.65151667079992" lon="16.06179165763315" id="-36068">
		<tag k="name" v="Heimstadneset" />
		<tag k="natural" v="cape" />
		<tag k="ssr:stedsnr" v="927313" />
	</node>
	<node lat="68.58507777626295" lon="15.792911104321538" id="-36070">
		<tag k="name" v="Skjellneset - Skellanjárga" />
		<tag k="name:no" v="Skjellneset" />
		<tag k="name:se" v="Skellanjárga" />
		<tag k="natural" v="cape" />
		<tag k="ssr:stedsnr" v="927850" />
	</node>
	<node lat="68.85136388927731" lon="15.97817221424363" id="-36071">
		<tag k="fixme" v="multiple name tags, choose one and add the other to alt_name" />
		<tag k="name" v="Storfærneset;Færnesan" />
		<tag k="natural" v="cape" />
		<tag k="ssr:stedsnr" v="928034" />
	</node>
	<node lat="68.71751944297718" lon="15.991244445445531" id="-36082">
		<tag k="alt_name" v="Røyrvika" />
		<tag k="name" v="Rørvika" />
		<tag k="natural" v="bay" />
		<tag k="ssr:stedsnr" v="928439" />
	</node>
	<node lat="68.71805833521616" lon="16.288302773635458" id="-36093">
		<tag k="name" v="Straumsbotn - Strávvevuotna" />
		<tag k="name:no" v="Straumsbotn" />
		<tag k="name:se" v="Strávvevuotna" />
		<tag k="natural" v="bay" />
		<tag k="ssr:stedsnr" v="867978" />
	</node>
	<node lat="68.88066943993974" lon="16.063511120171103" id="-36095">
		<tag k="name" v="Storholmen" />
		<tag k="place" v="islet" />
		<tag k="ssr:stedsnr" v="868047" />
	</node>
	<node lat="68.87826944109248" lon="16.066041659871086" id="-36096">
		<tag k="name" v="Neseberget" />
		<tag k="natural" v="cape" />
		<tag k="ssr:stedsnr" v="868049" />
	</node>
	<node lat="68.65305277590981" lon="15.89341666068277" id="-36101">
		<tag k="name" v="Vedneset" />
		<tag k="natural" v="cape" />
		<tag k="ssr:stedsnr" v="895070" />
	</node>
	<node lat="68.55953888747713" lon="15.766055558914225" id="-36104">
		<tag k="name" v="Steinnesset" />
		<tag k="natural" v="cape" />
		<tag k="ssr:stedsnr" v="900759" />
	</node>
	<node lat="68.64234999735224" lon="15.896997217669178" id="-36106">
		<tag k="name" v="Kvalen" />
		<tag k="natural" v="cape" />
		<tag k="ssr:stedsnr" v="901070" />
	</node>
	<node lat="68.66597222557266" lon="15.907138882512244" id="-36112">
		<tag k="name" v="Lanesbukta" />
		<tag k="natural" v="bay" />
		<tag k="ssr:stedsnr" v="901170" />
	</node>
	<node lat="68.8373472187796" lon="15.972563877993837" id="-36127">
		<tag k="alt_name" v="Litleklubba" />
		<tag k="name" v="Litjeklubba" />
		<tag k="natural" v="cape" />
		<tag k="ssr:stedsnr" v="928013" />
	</node>
	<node lat="68.62969444382487" lon="15.836891661348195" id="-36132">
		<tag k="name" v="Tjeldneset" />
		<tag k="natural" v="cape" />
		<tag k="ssr:stedsnr" v="928305" />
	</node>
	<node lat="68.66637221871831" lon="15.913816674547828" id="-36136">
		<tag k="name" v="Lanesodden" />
		<tag k="natural" v="cape" />
		<tag k="ssr:stedsnr" v="928253" />
	</node>
	<node lat="68.88248055602182" lon="16.06333055500524" id="-36149">
		<tag k="name" v="Tennevalen" />
		<tag k="natural" v="bay" />
		<tag k="ssr:stedsnr" v="961389" />
	</node>
	<node lat="68.55339722362235" lon="15.780516660149566" id="-36160">
		<tag k="name" v="Myrneset" />
		<tag k="natural" v="cape" />
		<tag k="ssr:stedsnr" v="961800" />
	</node>
	<node lat="68.73355833581486" lon="16.253355561142424" id="-36172">
		<tag k="name" v="Vika" />
		<tag k="natural" v="bay" />
		<tag k="ssr:stedsnr" v="962496" />
	</node>
	<node lat="68.59794722563815" lon="15.789280557736504" id="-36180">
		<tag k="name" v="Innergrunneset" />
		<tag k="natural" v="cape" />
		<tag k="ssr:stedsnr" v="962945" />
	</node>
	<node lat="68.84454721993852" lon="15.971202768870844" id="-36183">
		<tag k="name" v="Storklubba" />
		<tag k="natural" v="cape" />
		<tag k="ssr:stedsnr" v="17026" />
	</node>
	<node lat="68.76434722617617" lon="16.132538884031376" id="-36184">
		<tag k="alt_name" v="Lundbogen" />
		<tag k="name" v="Lundebogen" />
=======
	<node id="-851830" lat="68.6660277743" lon="15.923602765">
		<tag k="name" v="Klubbholmen" />
		<tag k="place" v="islet" />
		<tag k="ssr:stedsnr" v="807269" />
	</node>
	<node id="-851829" lat="68.6608888868" lon="16.0621333431">
		<tag k="bay" v="fjord" />
		<tag k="loc_name:se" v="Mieliudvuotna" />
		<tag k="name" v="Austerfjorden" />
		<tag k="name:no" v="Austerfjorden" />
		<tag k="natural" v="bay" />
		<tag k="ssr:stedsnr" v="807266" />
	</node>
	<node id="-851316" lat="68.6569833373" lon="15.9494333284">
		<tag k="name" v="Elvebukta" />
		<tag k="natural" v="bay" />
		<tag k="ssr:stedsnr" v="321289" />
	</node>
	<node id="-851314" lat="68.6611583325" lon="16.0571944524">
		<tag k="name" v="Støttingsneset" />
		<tag k="natural" v="cape" />
		<tag k="ssr:stedsnr" v="321269" />
	</node>
	<node id="-851825" lat="68.8816972212" lon="16.065475005">
		<tag k="name" v="Gapøyholman" />
		<tag k="place" v="islet" />
		<tag k="ssr:stedsnr" v="807063" />
	</node>
	<node id="-851823" lat="68.7347749969" lon="16.0510111">
		<tag k="name" v="Brekkaholman" />
		<tag k="place" v="islet" />
		<tag k="ssr:stedsnr" v="807426" />
	</node>
	<node id="-850798" lat="68.6651083346" lon="16.0793861036">
		<tag k="name" v="Osen" />
		<tag k="natural" v="bay" />
		<tag k="ssr:stedsnr" v="901038" />
	</node>
	<node id="-851309" lat="68.7727027791" lon="16.0510749944">
		<tag k="name" v="Haugbåen" />
		<tag k="natural" v="shoal" />
		<tag k="place" v="locality" />
		<tag k="ssr:stedsnr" v="321149" />
	</node>
	<node id="-851819" lat="68.5565361096" lon="15.7897666735">
		<tag k="name" v="Hundneset" />
		<tag k="natural" v="cape" />
		<tag k="ssr:stedsnr" v="806881" />
	</node>
	<node id="-851305" lat="68.8657166661" lon="16.0162583287">
		<tag k="alt_name" v="Molviknesset" />
		<tag k="name" v="Mollvikneset" />
		<tag k="natural" v="cape" />
		<tag k="ssr:stedsnr" v="321041" />
	</node>
	<node id="-851304" lat="68.8741055568" lon="16.0367305476">
		<tag k="name" v="Gavlsundet" />
		<tag k="natural" v="strait" />
		<tag k="ssr:stedsnr" v="321040" />
	</node>
	<node id="-851127" lat="68.7040694462" lon="15.9754388893">
		<tag k="name" v="Elvebukta" />
		<tag k="natural" v="bay" />
		<tag k="ssr:stedsnr" v="112466" />
	</node>
	<node id="-851812" lat="68.722502778" lon="15.991222224">
		<tag k="name" v="Sildvika" />
		<tag k="natural" v="bay" />
		<tag k="ssr:stedsnr" v="806466" />
	</node>
	<node id="-850787" lat="68.8453055525" lon="16.1003777672">
		<tag k="fixme" v="consider seamark:type=rock or natural=shoal" />
		<tag k="name" v="Eldeflesan" />
		<tag k="place" v="islet" />
		<tag k="ssr:stedsnr" v="719609" />
	</node>
	<node id="-850273" lat="68.5573249982" lon="15.7564666779">
		<tag k="alt_name" v="Løbergbukta" />
		<tag k="name" v="Løbergsbukta" />
		<tag k="natural" v="bay" />
		<tag k="ssr:stedsnr" v="260895" />
	</node>
	<node id="-851805" lat="68.6324305584" lon="15.8325611086">
		<tag k="name" v="Forøya" />
		<tag k="place" v="island" />
		<tag k="ssr:stedsnr" v="806343" />
	</node>
	<node id="-851289" lat="68.6338666639" lon="15.7857749925">
		<tag k="name" v="Bekkeneset" />
		<tag k="natural" v="cape" />
		<tag k="ssr:stedsnr" v="200341" />
	</node>
	<node id="-851288" lat="68.7479694438" lon="16.0793333251">
		<tag k="name" v="Ålneset" />
		<tag k="natural" v="cape" />
		<tag k="ssr:stedsnr" v="200428" />
	</node>
	<node id="-851428" lat="68.9244388878" lon="16.084380561">
		<tag k="name" v="Mefjordingen" />
		<tag k="natural" v="shoal" />
		<tag k="place" v="locality" />
		<tag k="ssr:stedsnr" v="381439" />
	</node>
	<node id="-850774" lat="68.6530527759" lon="15.8934166607">
		<tag k="name" v="Vedneset" />
		<tag k="natural" v="cape" />
		<tag k="ssr:stedsnr" v="895070" />
	</node>
	<node id="-850773" lat="68.5738416674" lon="15.8246000023">
		<tag k="alt_name" v="Litleholten" />
		<tag k="name" v="Litjeholten" />
		<tag k="natural" v="cape" />
		<tag k="ssr:stedsnr" v="887699" />
	</node>
	<node id="-851796" lat="68.6912722241" lon="15.993291673">
		<tag k="bay" v="fjord" />
		<tag k="loc_name:se" v="Gollevuotna" />
		<tag k="name" v="Gullesfjorden" />
		<tag k="name:no" v="Gullesfjorden" />
		<tag k="natural" v="bay" />
		<tag k="ssr:stedsnr" v="806306" />
	</node>
	<node id="-851283" lat="68.6723888919" lon="15.9239583361">
		<tag k="name" v="Storholmen" />
		<tag k="place" v="islet" />
		<tag k="ssr:stedsnr" v="200265" />
	</node>
	<node id="-851282" lat="68.8346527788" lon="15.9844999933">
		<tag k="name" v="Båtvika" />
		<tag k="natural" v="bay" />
		<tag k="ssr:stedsnr" v="200316" />
	</node>
	<node id="-850769" lat="68.5334916636" lon="15.7346388826">
		<tag k="name" v="Stranda" />
		<tag k="natural" v="beach" />
		<tag k="place" v="locality" />
		<tag k="ssr:stedsnr" v="685733" />
	</node>
	<node id="-851279" lat="68.7952194489" lon="16.1107916594">
		<tag k="name" v="Skallneset" />
		<tag k="natural" v="cape" />
		<tag k="ssr:stedsnr" v="200099" />
	</node>
	<node id="-851788" lat="68.6578500011" lon="16.0608888892">
		<tag k="name" v="Tomasneset" />
		<tag k="natural" v="cape" />
		<tag k="ssr:stedsnr" v="806196" />
	</node>
	<node id="-851786" lat="68.7838583339" lon="16.065722219">
		<tag k="name" v="Leitebukta" />
		<tag k="natural" v="bay" />
		<tag k="ssr:stedsnr" v="806071" />
	</node>
	<node id="-851785" lat="68.7826472241" lon="16.0519638781">
		<tag k="alt_name" v="Skolten" />
		<tag k="name" v="Skoltan" />
		<tag k="natural" v="shoal" />
		<tag k="place" v="locality" />
		<tag k="ssr:stedsnr" v="806067" />
	</node>
	<node id="-850759" lat="68.6408583375" lon="16.0887916575">
		<tag k="name" v="Storsteinneset" />
		<tag k="natural" v="cape" />
		<tag k="ssr:stedsnr" v="658456" />
	</node>
	<node id="-850246" lat="68.8264916687" lon="15.9649777854">
		<tag k="name" v="Finnsholmen" />
		<tag k="natural" v="cape" />
		<tag k="ssr:stedsnr" v="260156" />
	</node>
	<node id="-850918" lat="68.5789833309" lon="15.8235611013">
		<tag k="name" v="Innerholtbukta" />
		<tag k="natural" v="bay" />
		<tag k="ssr:stedsnr" v="840918" />
	</node>
	<node id="-851777" lat="68.58180556" lon="15.7938194331">
		<tag k="name" v="Bekkeneset" />
		<tag k="natural" v="cape" />
		<tag k="ssr:stedsnr" v="780855" />
	</node>
	<node id="-851264" lat="68.706963885" lon="16.0488666733">
		<tag k="name" v="Lynghammaren" />
		<tag k="natural" v="cape" />
		<tag k="ssr:stedsnr" v="199458" />
	</node>
	<node id="-851775" lat="68.7361611087" lon="16.2464861103">
		<tag k="name" v="Straumen" />
		<tag k="natural" v="strait" />
		<tag k="ssr:stedsnr" v="780696" />
	</node>
	<node id="-851261" lat="68.728088888" lon="16.2776500059">
		<tag k="name" v="Vedneset" />
		<tag k="natural" v="cape" />
		<tag k="ssr:stedsnr" v="199195" />
	</node>
	<node id="-850747" lat="68.594186109" lon="15.7889972164">
		<tag k="name" v="Revneset" />
		<tag k="natural" v="cape" />
		<tag k="ssr:stedsnr" v="719933" />
	</node>
	<node id="-850745" lat="68.5642638858" lon="15.8016722307">
		<tag k="name" v="Kabelbukta" />
		<tag k="natural" v="bay" />
		<tag k="ssr:stedsnr" v="719918" />
	</node>
	<node id="-851215" lat="68.7887979763" lon="16.0713610816">
		<tag k="alt_name" v="Øynes" />
		<tag k="name" v="Øyneset" />
		<tag k="natural" v="cape" />
		<tag k="ssr:stedsnr" v="172417" />
	</node>
	<node id="-851247" lat="68.7151250014" lon="16.2834638863">
		<tag k="name" v="Steinneset" />
		<tag k="natural" v="cape" />
		<tag k="ssr:stedsnr" v="173589" />
	</node>
	<node id="-850731" lat="68.7043055595" lon="16.0494611017">
		<tag k="name" v="Gunnarneset" />
		<tag k="natural" v="cape" />
		<tag k="ssr:stedsnr" v="719453" />
	</node>
	<node id="-850729" lat="68.7596222225" lon="16.155594439">
		<tag k="name" v="Siverthamn" />
		<tag k="natural" v="bay" />
		<tag k="ssr:stedsnr" v="719350" />
	</node>
	<node id="-851420" lat="68.6872916629" lon="16.0250777659">
		<tag k="fixme" v="multiple name tags, choose one and add the other to alt_name" />
		<tag k="name" v="Limneset;Nordneset" />
		<tag k="natural" v="cape" />
		<tag k="ssr:stedsnr" v="381229" />
	</node>
	<node id="-851749" lat="68.5749611156" lon="15.8244138792">
		<tag k="name" v="Brurstranda" />
		<tag k="natural" v="beach" />
		<tag k="place" v="locality" />
		<tag k="ssr:stedsnr" v="779922" />
	</node>
	<node id="-851299" lat="68.5917222226" lon="15.7915888996">
		<tag k="name" v="Grasneset" />
		<tag k="natural" v="cape" />
		<tag k="ssr:stedsnr" v="321179" />
	</node>
	<node id="-851235" lat="68.6638499987" lon="15.89378889">
		<tag k="name" v="Arneneset" />
		<tag k="natural" v="cape" />
		<tag k="ssr:stedsnr" v="173145" />
	</node>
	<node id="-850395" lat="68.6491361108" lon="15.8451638925">
		<tag k="name" v="Pålneset" />
		<tag k="natural" v="cape" />
		<tag k="ssr:stedsnr" v="442336" />
	</node>
	<node id="-851232" lat="68.6781055528" lon="15.9271583374">
		<tag k="name" v="Rødsandbukta" />
		<tag k="natural" v="bay" />
		<tag k="ssr:stedsnr" v="173105" />
	</node>
	<node id="-851419" lat="68.6137833353" lon="15.7717194461">
		<tag k="name" v="Kobbeneset" />
		<tag k="natural" v="cape" />
		<tag k="ssr:stedsnr" v="381216" />
	</node>
	<node id="-851003" lat="68.7124277739" lon="16.0503555639">
		<tag k="alt_name" v="Årnes" />
		<tag k="name" v="Årneset" />
		<tag k="natural" v="cape" />
		<tag k="ssr:stedsnr" v="17491" />
	</node>
	<node id="-851930" lat="68.8806694399" lon="16.0635111202">
		<tag k="name" v="Storholmen" />
		<tag k="place" v="islet" />
		<tag k="ssr:stedsnr" v="868047" />
	</node>
	<node id="-850714" lat="68.7279805553" lon="16.0514805428">
		<tag k="name" v="Skarveskjærbukta" />
		<tag k="natural" v="bay" />
		<tag k="ssr:stedsnr" v="718415" />
	</node>
	<node id="-850417" lat="68.7429444481" lon="16.0609416578">
		<tag k="alt_name" v="Korsskjeret" />
		<tag k="fixme" v="consider seamark:type=rock or natural=shoal" />
		<tag k="name" v="Korsskjæret" />
		<tag k="place" v="islet" />
		<tag k="ssr:stedsnr" v="443438" />
	</node>
	<node id="-850710" lat="68.6418916744" lon="16.0605661028">
		<tag k="name" v="Hanseneset" />
		<tag k="natural" v="cape" />
		<tag k="ssr:stedsnr" v="597059" />
	</node>
	<node id="-851221" lat="68.6100500038" lon="15.8138444331">
		<tag k="name" v="Urvika" />
>>>>>>> e1d4bc35ff8a6074a6f2e91616a996b547c36f15
		<tag k="natural" v="bay" />
		<tag k="ssr:stedsnr" v="172667" />
	</node>
<<<<<<< HEAD
	<node lat="68.71242777387451" lon="16.05035556394209" id="-36192">
		<tag k="alt_name" v="Årnes" />
		<tag k="name" v="Årneset" />
=======
	<node id="-850196" lat="68.5351499964" lon="15.7255305421">
		<tag k="name" v="Vesterbotn" />
		<tag k="natural" v="bay" />
		<tag k="ssr:stedsnr" v="233837" />
	</node>
	<node id="-850990" lat="68.6175277801" lon="15.8072305463">
		<tag k="name" v="Nakkodden" />
>>>>>>> e1d4bc35ff8a6074a6f2e91616a996b547c36f15
		<tag k="natural" v="cape" />
		<tag k="ssr:stedsnr" v="962976" />
	</node>
<<<<<<< HEAD
	<node lat="68.85258055924774" lon="16.000438890183368" id="-36194">
		<tag k="name" v="Gapøya" />
		<tag k="place" v="island" />
		<tag k="ssr:stedsnr" v="18024" />
	</node>
	<node lat="68.858366664949" lon="16.031219454638748" id="-36196">
		<tag k="name" v="Seljevika" />
		<tag k="natural" v="bay" />
		<tag k="ssr:stedsnr" v="18055" />
	</node>
	<node lat="68.70004166729301" lon="16.04806389399427" id="-36201">
		<tag k="name" v="Tomasneset" />
		<tag k="natural" v="cape" />
		<tag k="ssr:stedsnr" v="18447" />
	</node>
	<node lat="68.74858333435152" lon="16.14823333881772" id="-36203">
		<tag k="fixme" v="multiple name tags, choose one and add the other to alt_name" />
		<tag k="name" v="Hageskårneset;Havreskorneset" />
		<tag k="natural" v="cape" />
		<tag k="ssr:stedsnr" v="18383" />
	</node>
	<node lat="68.73625833348653" lon="15.999322212132038" id="-36204">
		<tag k="name" v="Brosmehallaren" />
		<tag k="natural" v="cape" />
		<tag k="ssr:stedsnr" v="18389" />
	</node>
	<node lat="68.88438611354536" lon="16.065672218739874" id="-36205">
		<tag k="name" v="Varden" />
		<tag k="natural" v="cape" />
		<tag k="ssr:stedsnr" v="18425" />
	</node>
	<node lat="68.86695555203194" lon="16.028716676026637" id="-36218">
		<tag k="name" v="Eidet" />
		<tag k="place" v="locality" />
		<tag k="ssr:stedsnr" v="51437" />
	</node>
	<node lat="68.55688611338662" lon="15.793866673719512" id="-36232">
		<tag k="name" v="Larsenbukta" />
		<tag k="natural" v="bay" />
		<tag k="ssr:stedsnr" v="51940" />
	</node>
	<node lat="68.65634722024282" lon="15.888713875735142" id="-36236">
		<tag k="name" v="Litjesteinneset" />
		<tag k="natural" v="cape" />
		<tag k="ssr:stedsnr" v="52154" />
	</node>
	<node lat="68.82283055148862" lon="16.069308329521135" id="-36259">
		<tag k="name" v="Sandbåen" />
		<tag k="natural" v="shoal" />
		<tag k="place" v="locality" />
		<tag k="ssr:stedsnr" v="78120" />
	</node>
	<node lat="68.61974444432754" lon="15.774247220542971" id="-36262">
		<tag k="name" v="Langvassneset" />
		<tag k="natural" v="cape" />
		<tag k="ssr:stedsnr" v="78349" />
	</node>
	<node lat="68.70299999870193" lon="16.049405563594785" id="-36266">
		<tag k="name" v="Hesjedalsbukta" />
		<tag k="natural" v="bay" />
		<tag k="ssr:stedsnr" v="78483" />
	</node>
	<node lat="68.74006111023205" lon="16.231086106287858" id="-36268">
		<tag k="name" v="Straumsholmen" />
=======
	<node id="-851730" lat="68.7416055516" lon="16.1559999881">
		<tag k="name" v="Øysundet" />
		<tag k="natural" v="strait" />
		<tag k="ssr:stedsnr" v="746412" />
	</node>
	<node id="-850307" lat="68.6010249953" lon="15.7893277877">
		<tag k="name" v="Ytste Storneset" />
		<tag k="natural" v="cape" />
		<tag k="ssr:stedsnr" v="113936" />
	</node>
	<node id="-850704" lat="68.6887527816" lon="15.9530972347">
		<tag k="name" v="Valen" />
		<tag k="natural" v="bay" />
		<tag k="ssr:stedsnr" v="582656" />
	</node>
	<node id="-850392" lat="68.6810583316" lon="15.9365527717">
		<tag k="name" v="Stabbeneset" />
		<tag k="natural" v="cape" />
		<tag k="ssr:stedsnr" v="442309" />
	</node>
	<node id="-851214" lat="68.7334944441" lon="16.0505527828">
		<tag k="name" v="Brekkaholmen" />
		<tag k="place" v="islet" />
		<tag k="ssr:stedsnr" v="172414" />
	</node>
	<node id="-850701" lat="68.8437805517" lon="16.1241916728">
		<tag k="name" v="Aspenes" />
		<tag k="natural" v="cape" />
		<tag k="ssr:stedsnr" v="703914" />
	</node>
	<node id="-851723" lat="68.6304361103" lon="15.845772212">
		<tag k="name" v="Forøysundet" />
		<tag k="natural" v="strait" />
		<tag k="ssr:stedsnr" v="746332" />
	</node>
	<node id="-851722" lat="68.8454500034" lon="16.1332333392">
		<tag k="fixme" v="multiple name tags, choose one and add the other to alt_name" />
		<tag k="name" v="Melvikneset;Mollvikneset" />
		<tag k="natural" v="cape" />
		<tag k="ssr:stedsnr" v="746297" />
	</node>
	<node id="-850697" lat="68.6378361113" lon="16.0779111166">
		<tag k="alt_name" v="Austerbotnen" />
		<tag k="name" v="Austerbotn" />
		<tag k="natural" v="bay" />
		<tag k="ssr:stedsnr" v="563325" />
	</node>
	<node id="-851281" lat="68.6708749998" lon="16.0285861118">
		<tag k="name" v="Juvika" />
		<tag k="natural" v="bay" />
		<tag k="ssr:stedsnr" v="200261" />
	</node>
	<node id="-850684" lat="68.7124666706" lon="16.288061108">
		<tag k="name" v="Laksevågen" />
		<tag k="natural" v="bay" />
		<tag k="ssr:stedsnr" v="537605" />
	</node>
	<node id="-850683" lat="68.712052782" lon="16.2886666574">
		<tag k="name" v="Vognneset" />
		<tag k="natural" v="cape" />
		<tag k="ssr:stedsnr" v="537602" />
	</node>
	<node id="-851704" lat="68.6602722226" lon="15.9039444438">
		<tag k="fixme" v="consider seamark:type=rock or natural=shoal" />
		<tag k="name" v="Bogskjeret" />
		<tag k="place" v="islet" />
		<tag k="ssr:stedsnr" v="745324" />
	</node>
	<node id="-851703" lat="68.6268083304" lon="15.8427861104">
		<tag k="name" v="Hestneset" />
		<tag k="natural" v="cape" />
		<tag k="ssr:stedsnr" v="745239" />
	</node>
	<node id="-851190" lat="68.9095111084" lon="16.1640750057">
		<tag k="name" v="Jåbåen" />
		<tag k="natural" v="shoal" />
		<tag k="place" v="locality" />
		<tag k="ssr:stedsnr" v="139475" />
	</node>
	<node id="-850473" lat="68.6962194418" lon="15.967338884">
		<tag k="fixme" v="consider seamark:type=rock or natural=shoal" />
		<tag k="name" v="Geitsteinen" />
>>>>>>> e1d4bc35ff8a6074a6f2e91616a996b547c36f15
		<tag k="place" v="islet" />
		<tag k="ssr:stedsnr" v="78821" />
	</node>
<<<<<<< HEAD
	<node lat="68.57595277337968" lon="15.795988892825488" id="-36273">
		<tag k="alt_name" v="Hallvardsneset;Halvardsnesset" />
		<tag k="name" v="Hallvardneset" />
		<tag k="natural" v="cape" />
		<tag k="ssr:stedsnr" v="78860" />
	</node>
	<node lat="68.56610555453648" lon="15.80193611596566" id="-36275">
		<tag k="alt_name" v="Våtvollnessan" />
		<tag k="name" v="Våtvollneset" />
		<tag k="natural" v="cape" />
		<tag k="ssr:stedsnr" v="78877" />
	</node>
	<node lat="68.73292777848572" lon="16.050438884219506" id="-36277">
		<tag k="fixme" v="consider seamark:type=rock or natural=shoal" />
		<tag k="name" v="Skarvskjeret" />
		<tag k="place" v="islet" />
		<tag k="ssr:stedsnr" v="98695" />
	</node>
	<node lat="68.61836943999195" lon="15.724716674012969" id="-36279">
		<tag k="name" v="Svendneset" />
		<tag k="natural" v="cape" />
		<tag k="ssr:stedsnr" v="111738" />
	</node>
	<node lat="68.66780833508552" lon="16.080988883020222" id="-36282">
		<tag k="name" v="Melåbukta" />
		<tag k="natural" v="bay" />
		<tag k="ssr:stedsnr" v="112045" />
	</node>
	<node lat="68.67228055513698" lon="15.917980546656784" id="-36290">
		<tag k="name" v="Flesnesvågen" />
		<tag k="natural" v="bay" />
		<tag k="ssr:stedsnr" v="112209" />
	</node>
	<node lat="68.70406944620703" lon="15.975438889264536" id="-36299">
		<tag k="name" v="Elvebukta" />
		<tag k="natural" v="bay" />
		<tag k="ssr:stedsnr" v="112466" />
	</node>
	<node lat="68.73664999759275" lon="16.235705547922617" id="-36312">
		<tag k="name" v="Litjehavet" />
		<tag k="natural" v="bay" />
		<tag k="ssr:stedsnr" v="112760" />
	</node>
	<node lat="68.58861111220756" lon="15.791647233783593" id="-36316">
		<tag k="name" v="Støttingsneset" />
		<tag k="natural" v="cape" />
		<tag k="ssr:stedsnr" v="112862" />
	</node>
	<node lat="68.56675278158582" lon="15.802474995415965" id="-36318">
		<tag k="name" v="Davidneset" />
		<tag k="natural" v="cape" />
		<tag k="ssr:stedsnr" v="112934" />
	</node>
	<node lat="68.55668333203546" lon="15.79920000207613" id="-36319">
		<tag k="name" v="Hundnesbukta" />
		<tag k="natural" v="bay" />
		<tag k="ssr:stedsnr" v="112937" />
	</node>
	<node lat="68.64091389174295" lon="15.803924992392115" id="-36328">
		<tag k="alt_name" v="Pøyla" />
		<tag k="name" v="Pøylbukta" />
		<tag k="natural" v="bay" />
		<tag k="ssr:stedsnr" v="138350" />
	</node>
	<node lat="68.63978055737986" lon="16.05624166116734" id="-36329">
		<tag k="alt_name" v="Vesterbotnen" />
		<tag k="name" v="Vesterbotn" />
		<tag k="natural" v="bay" />
		<tag k="ssr:stedsnr" v="138357" />
	</node>
	<node lat="68.75860277449088" lon="16.094044442765128" id="-36335">
		<tag k="name" v="Skårneset" />
		<tag k="natural" v="cape" />
		<tag k="ssr:stedsnr" v="138189" />
	</node>
	<node lat="68.6542750044655" lon="15.894224988920568" id="-36337">
		<tag k="name" v="Kveithella" />
		<tag k="natural" v="cape" />
		<tag k="ssr:stedsnr" v="138324" />
	</node>
	<node lat="68.88233055831326" lon="16.137999994700518" id="-36344">
		<tag k="name" v="Sterkebåen" />
		<tag k="natural" v="shoal" />
		<tag k="place" v="locality" />
		<tag k="ssr:stedsnr" v="139055" />
	</node>
	<node lat="68.90951110837301" lon="16.164075005679884" id="-36353">
		<tag k="name" v="Jåbåen" />
		<tag k="natural" v="shoal" />
		<tag k="place" v="locality" />
		<tag k="ssr:stedsnr" v="139475" />
	</node>
	<node lat="68.59650833412672" lon="15.817247227607332" id="-36364">
		<tag k="fixme" v="consider seamark:type=rock or natural=shoal" />
		<tag k="name" v="Gullet" />
		<tag k="place" v="islet" />
		<tag k="ssr:stedsnr" v="172190" />
	</node>
	<node lat="68.73960277549189" lon="16.05895554613462" id="-36368">
		<tag k="fixme" v="consider seamark:type=rock or natural=shoal" />
		<tag k="name" v="Våtræva" />
		<tag k="place" v="islet" />
		<tag k="ssr:stedsnr" v="172501" />
	</node>
	<node lat="68.67810555277771" lon="15.927158337354124" id="-36374">
		<tag k="name" v="Rødsandbukta" />
		<tag k="natural" v="bay" />
		<tag k="ssr:stedsnr" v="173105" />
	</node>
	<node lat="68.66384999870489" lon="15.893788889991676" id="-36377">
		<tag k="name" v="Arneneset" />
		<tag k="natural" v="cape" />
		<tag k="ssr:stedsnr" v="173145" />
	</node>
	<node lat="68.71512500140929" lon="16.28346388628011" id="-36397">
		<tag k="name" v="Steinneset" />
		<tag k="natural" v="cape" />
		<tag k="ssr:stedsnr" v="173589" />
	</node>
	<node lat="68.72808888804829" lon="16.277650005893967" id="-36414">
		<tag k="name" v="Vedneset" />
		<tag k="natural" v="cape" />
		<tag k="ssr:stedsnr" v="199195" />
	</node>
	<node lat="68.79521944891407" lon="16.110791659357613" id="-36422">
		<tag k="name" v="Skallneset" />
		<tag k="natural" v="cape" />
		<tag k="ssr:stedsnr" v="200099" />
	</node>
	<node lat="68.83465277878193" lon="15.98449999325089" id="-36426">
		<tag k="name" v="Båtvika" />
		<tag k="natural" v="bay" />
		<tag k="ssr:stedsnr" v="200316" />
	</node>
	<node lat="68.63386666391236" lon="15.785774992525422" id="-36430">
		<tag k="name" v="Bekkeneset" />
		<tag k="natural" v="cape" />
		<tag k="ssr:stedsnr" v="200341" />
	</node>
	<node lat="68.74813611081495" lon="16.17557222372769" id="-36432">
		<tag k="name" v="Hundstadneset" />
		<tag k="natural" v="cape" />
		<tag k="ssr:stedsnr" v="200422" />
	</node>
	<node lat="68.74796944381342" lon="16.07933332505737" id="-36433">
		<tag k="name" v="Ålneset" />
		<tag k="natural" v="cape" />
		<tag k="ssr:stedsnr" v="200428" />
	</node>
	<node lat="68.57792222026691" lon="15.823608338569196" id="-36441">
		<tag k="name" v="Holtebukta" />
		<tag k="natural" v="bay" />
		<tag k="ssr:stedsnr" v="280693" />
	</node>
	<node lat="68.63753055919959" lon="16.06233888135989" id="-36466">
		<tag k="name" v="Kvalvika" />
		<tag k="natural" v="bay" />
		<tag k="ssr:stedsnr" v="294479" />
	</node>
	<node lat="68.57717499870212" lon="15.827350011338382" id="-36472">
		<tag k="name" v="Osen" />
		<tag k="natural" v="bay" />
		<tag k="ssr:stedsnr" v="294926" />
	</node>
	<node lat="68.56316389155629" lon="15.82260834208301" id="-36473">
		<tag k="name" v="Innereidbukta" />
		<tag k="natural" v="bay" />
		<tag k="ssr:stedsnr" v="294933" />
	</node>
	<node lat="68.56371389315174" lon="15.798208332597012" id="-36475">
		<tag k="name" v="Notnessan" />
		<tag k="natural" v="cape" />
		<tag k="ssr:stedsnr" v="294943" />
	</node>
	<node lat="68.77270277914981" lon="16.051074994442676" id="-36480">
		<tag k="name" v="Haugbåen" />
		<tag k="natural" v="shoal" />
		<tag k="place" v="locality" />
		<tag k="ssr:stedsnr" v="321149" />
	</node>
	<node lat="68.59172222257094" lon="15.791588899555311" id="-36481">
		<tag k="name" v="Grasneset" />
		<tag k="natural" v="cape" />
		<tag k="ssr:stedsnr" v="321179" />
	</node>
	<node lat="68.66115833253986" lon="16.057194452434448" id="-36488">
		<tag k="name" v="Støttingsneset" />
		<tag k="natural" v="cape" />
		<tag k="ssr:stedsnr" v="321269" />
	</node>
	<node lat="68.81580555564688" lon="15.912133331548006" id="-36491">
		<tag k="bay" v="fjord" />
		<tag k="name" v="Godfjorden - Guovvuotna" />
		<tag k="name:no" v="Godfjorden" />
		<tag k="name:se" v="Guovvuotna" />
		<tag k="natural" v="bay" />
		<tag k="ssr:stedsnr" v="321410" />
	</node>
	<node lat="68.74690278188099" lon="16.244388895360512" id="-36499">
		<tag k="alt_name" v="Moldneset;Molnesset" />
		<tag k="name" v="Målneset" />
		<tag k="natural" v="cape" />
		<tag k="ssr:stedsnr" v="321799" />
	</node>
	<node lat="68.71520555478904" lon="16.301858322525504" id="-36504">
		<tag k="name" v="Oldervika" />
		<tag k="natural" v="bay" />
		<tag k="ssr:stedsnr" v="321981" />
	</node>
	<node lat="68.74177499901064" lon="16.055402771112313" id="-36506">
		<tag k="name" v="Korsskjerbåen" />
		<tag k="place" v="locality" />
		<tag k="seamark:type" v="rock" />
		<tag k="ssr:stedsnr" v="340672" />
	</node>
	<node lat="68.73047777485465" lon="16.278530553308947" id="-36549">
		<tag k="name" v="Vednesvika" />
		<tag k="natural" v="bay" />
		<tag k="ssr:stedsnr" v="355476" />
	</node>
	<node lat="68.59999722516885" lon="15.789838899603428" id="-36561">
		<tag k="name" v="Inste Storneset" />
		<tag k="natural" v="cape" />
		<tag k="ssr:stedsnr" v="355942" />
	</node>
	<node lat="68.67281110973454" lon="16.01863611763126" id="-36563">
		<tag k="name" v="Juvikklubben" />
=======
	<node id="-850164" lat="68.6372388848" lon="15.8963611142">
		<tag k="name" v="Litjeplassneset" />
		<tag k="natural" v="cape" />
		<tag k="ssr:stedsnr" v="233086" />
	</node>
	<node id="-850160" lat="68.736005551" lon="16.198686116">
		<tag k="fixme" v="multiple name tags, choose one and add the other to alt_name; consider seamark:type=rock or natural=shoal" />
		<tag k="name" v="Langskjæret;Salskjeret" />
		<tag k="place" v="islet" />
		<tag k="ssr:stedsnr" v="18403" />
	</node>
	<node id="-851183" lat="68.8823305583" lon="16.1379999947">
		<tag k="name" v="Sterkebåen" />
		<tag k="natural" v="shoal" />
		<tag k="place" v="locality" />
		<tag k="ssr:stedsnr" v="139055" />
	</node>
	<node id="-851691" lat="68.7371777774" lon="16.245797224">
		<tag k="name" v="Straumsnes" />
		<tag k="natural" v="cape" />
		<tag k="ssr:stedsnr" v="624938" />
	</node>
	<node id="-851239" lat="68.6369333341" lon="15.8467194365">
		<tag k="name" v="Midtersnaget" />
		<tag k="natural" v="cape" />
		<tag k="ssr:stedsnr" v="173174" />
	</node>
	<node id="-850662" lat="68.5613805582" lon="15.8210277778">
		<tag k="alt_name" v="Eideklubben" />
		<tag k="name" v="Eidklubben" />
		<tag k="natural" v="cape" />
		<tag k="ssr:stedsnr" v="685858" />
	</node>
	<node id="-851681" lat="68.6956583354" lon="16.037383333">
		<tag k="alt_name" v="Refsnesskjeret;Refsnesholmen" />
		<tag k="name" v="Revsnesholmen" />
		<tag k="place" v="islet" />
		<tag k="ssr:stedsnr" v="624491" />
	</node>
	<node id="-851679" lat="68.7170722209" lon="16.0514277675">
		<tag k="name" v="Gammelgårdsbukta" />
		<tag k="natural" v="bay" />
		<tag k="ssr:stedsnr" v="624484" />
	</node>
	<node id="-851166" lat="68.6397805574" lon="16.0562416612">
		<tag k="alt_name" v="Vesterbotnen" />
		<tag k="name" v="Vesterbotn" />
		<tag k="natural" v="bay" />
		<tag k="ssr:stedsnr" v="138357" />
	</node>
	<node id="-851165" lat="68.6409138917" lon="15.8039249924">
		<tag k="alt_name" v="Pøyla" />
		<tag k="name" v="Pøylbukta" />
		<tag k="natural" v="bay" />
		<tag k="ssr:stedsnr" v="138350" />
	</node>
	<node id="-851164" lat="68.637405558" lon="15.8404166668">
		<tag k="name" v="Forøysnaget" />
		<tag k="natural" v="cape" />
		<tag k="ssr:stedsnr" v="138349" />
	</node>
	<node id="-851162" lat="68.6542750045" lon="15.8942249889">
		<tag k="name" v="Kveithella" />
		<tag k="natural" v="cape" />
		<tag k="ssr:stedsnr" v="138324" />
	</node>
	<node id="-850639" lat="68.6425333376" lon="15.8102861105">
		<tag k="name" v="Pøylneset" />
		<tag k="natural" v="cape" />
		<tag k="ssr:stedsnr" v="685306" />
	</node>
	<node id="-851174" lat="68.6974944436" lon="15.9681638863">
		<tag k="name" v="Limneset" />
		<tag k="natural" v="cape" />
		<tag k="ssr:stedsnr" v="138496" />
	</node>
	<node id="-851667" lat="68.627863886" lon="15.81240277">
		<tag k="fixme" v="multiple name tags, choose one and add the other to alt_name" />
		<tag k="name" v="Forøybåen;Snaget" />
		<tag k="natural" v="shoal" />
		<tag k="place" v="locality" />
		<tag k="ssr:stedsnr" v="624358" />
	</node>
	<node id="-851665" lat="68.8530777759" lon="16.0210500084">
		<tag k="name" v="Storvika" />
		<tag k="natural" v="bay" />
		<tag k="ssr:stedsnr" v="624318" />
	</node>
	<node id="-851663" lat="68.6515794664" lon="15.9319590746">
		<tag k="name" v="Slettneset" />
		<tag k="natural" v="cape" />
		<tag k="ssr:stedsnr" v="624311" />
	</node>
	<node id="-850638" lat="68.644302779" lon="15.8175500016">
		<tag k="name" v="Grasneset" />
		<tag k="natural" v="cape" />
		<tag k="ssr:stedsnr" v="685299" />
	</node>
	<node id="-851149" lat="68.5667527816" lon="15.8024749954">
		<tag k="name" v="Davidneset" />
		<tag k="natural" v="cape" />
		<tag k="ssr:stedsnr" v="112934" />
	</node>
	<node id="-850636" lat="68.6584166638" lon="15.884905545">
		<tag k="name" v="Bogbukta" />
		<tag k="natural" v="bay" />
		<tag k="ssr:stedsnr" v="685289" />
	</node>
	<node id="-850634" lat="68.661361109" lon="16.0779638871">
		<tag k="name" v="Pervika" />
		<tag k="natural" v="bay" />
		<tag k="ssr:stedsnr" v="685284" />
	</node>
	<node id="-850633" lat="68.6766722196" lon="15.9342305598">
		<tag k="alt_name" v="Holandholmen;Holandsholmen" />
		<tag k="name" v="Holandsholman" />
		<tag k="place" v="islet" />
		<tag k="ssr:stedsnr" v="685268" />
	</node>
	<node id="-851660" lat="68.6630333331" lon="15.9661694327">
		<tag k="name" v="Sæterneset" />
		<tag k="natural" v="cape" />
		<tag k="ssr:stedsnr" v="624295" />
	</node>
	<node id="-850630" lat="68.6699027803" lon="16.0529861202">
		<tag k="name" v="Langneset" />
		<tag k="natural" v="cape" />
		<tag k="ssr:stedsnr" v="685189" />
	</node>
	<node id="-851653" lat="68.7676194439" lon="16.2016611024">
		<tag k="name" v="Strand" />
		<tag k="natural" v="beach" />
		<tag k="place" v="locality" />
		<tag k="ssr:stedsnr" v="624195" />
	</node>
	<node id="-851652" lat="68.7634944478" lon="16.1407388848">
		<tag k="name" v="Lundebogneset" />
		<tag k="natural" v="cape" />
		<tag k="ssr:stedsnr" v="624187" />
	</node>
	<node id="-851649" lat="68.8833444472" lon="16.0825666644">
		<tag k="name" v="Småholman" />
		<tag k="place" v="islet" />
		<tag k="ssr:stedsnr" v="624072" />
	</node>
	<node id="-851648" lat="68.8687694427" lon="16.0310500056">
		<tag k="name" v="Gavlen" />
		<tag k="natural" v="cape" />
		<tag k="ssr:stedsnr" v="624069" />
	</node>
	<node id="-850720" lat="68.6847027824" lon="16.0274833267">
		<tag k="name" v="Gjerdneset" />
		<tag k="natural" v="cape" />
		<tag k="ssr:stedsnr" v="718509" />
	</node>
	<node id="-850406" lat="68.5653972255" lon="15.8252916768">
		<tag k="alt_name" v="Eidnesset" />
		<tag k="name" v="Eideneset" />
		<tag k="natural" v="cape" />
		<tag k="ssr:stedsnr" v="442876" />
	</node>
	<node id="-850621" lat="68.8513499974" lon="16.1141416544">
		<tag k="name" v="Aspenesgrunnan" />
		<tag k="natural" v="shoal" />
		<tag k="place" v="locality" />
		<tag k="ssr:stedsnr" v="685042" />
	</node>
	<node id="-850620" lat="68.8468777784" lon="15.9705999919">
		<tag k="alt_name" v="Litjefærnesset" />
		<tag k="name" v="Litlefærneset" />
		<tag k="natural" v="cape" />
		<tag k="ssr:stedsnr" v="685027" />
	</node>
	<node id="-850619" lat="68.8412694439" lon="15.9716249913">
		<tag k="name" v="Sylvika" />
		<tag k="natural" v="bay" />
		<tag k="ssr:stedsnr" v="685023" />
	</node>
	<node id="-850804" lat="68.6659722256" lon="15.9071388825">
		<tag k="name" v="Lanesbukta" />
		<tag k="natural" v="bay" />
		<tag k="ssr:stedsnr" v="901170" />
	</node>
	<node id="-850612" lat="68.6637305542" lon="15.9104111082">
		<tag k="alt_name" v="Gravkjeret" />
		<tag k="fixme" v="consider seamark:type=rock or natural=shoal" />
		<tag k="name" v="Grasskjeret" />
		<tag k="place" v="islet" />
		<tag k="ssr:stedsnr" v="503252" />
	</node>
	<node id="-851989" lat="68.5979472256" lon="15.7892805577">
		<tag k="name" v="Innergrunneset" />
>>>>>>> e1d4bc35ff8a6074a6f2e91616a996b547c36f15
		<tag k="natural" v="cape" />
		<tag k="ssr:stedsnr" v="962945" />
	</node>
<<<<<<< HEAD
	<node lat="68.61378333527296" lon="15.771719446094256" id="-36568">
		<tag k="name" v="Kobbeneset" />
		<tag k="natural" v="cape" />
		<tag k="ssr:stedsnr" v="381216" />
	</node>
	<node lat="68.68729166288996" lon="16.025077765879157" id="-36569">
		<tag k="fixme" v="multiple name tags, choose one and add the other to alt_name" />
		<tag k="name" v="Limneset;Nordneset" />
		<tag k="natural" v="cape" />
		<tag k="ssr:stedsnr" v="381229" />
	</node>
	<node lat="68.64210344577327" lon="16.060002929833733" id="-36570">
		<tag k="name" v="Aspenes" />
		<tag k="natural" v="cape" />
		<tag k="ssr:stedsnr" v="381322" />
	</node>
	<node lat="68.92443888783862" lon="16.084380561025082" id="-36576">
		<tag k="name" v="Mefjordingen" />
		<tag k="natural" v="shoal" />
		<tag k="place" v="locality" />
		<tag k="ssr:stedsnr" v="381439" />
	</node>
	<node lat="68.79217499963185" lon="16.07517499555996" id="-36582">
		<tag k="name" v="Øynesbåen" />
		<tag k="natural" v="shoal" />
		<tag k="place" v="locality" />
		<tag k="ssr:stedsnr" v="382074" />
	</node>
	<node lat="68.78927500259289" lon="16.074477787331958" id="-36583">
		<tag k="name" v="Utstrandvika" />
		<tag k="natural" v="bay" />
		<tag k="ssr:stedsnr" v="382077" />
	</node>
	<node lat="68.66651388575741" lon="16.04994166577857" id="-36585">
		<tag k="name" v="Klubbukta" />
		<tag k="natural" v="bay" />
		<tag k="ssr:stedsnr" v="382265" />
	</node>
	<node lat="68.65048889279842" lon="15.86761387945433" id="-36589">
		<tag k="name" v="Storvika" />
		<tag k="natural" v="bay" />
		<tag k="ssr:stedsnr" v="409107" />
	</node>
	<node lat="68.69949166752978" lon="16.046325005078504" id="-36601">
		<tag k="name" v="Tomasnesbukta" />
		<tag k="natural" v="bay" />
		<tag k="ssr:stedsnr" v="415528" />
	</node>
	<node lat="68.72611389041496" lon="16.28415833718624" id="-36608">
		<tag k="name" v="Storstrauman" />
		<tag k="natural" v="bay" />
		<tag k="ssr:stedsnr" v="416469" />
	</node>
	<node lat="68.65705833288979" lon="15.887291656217231" id="-36609">
		<tag k="name" v="Nilsevika" />
		<tag k="natural" v="bay" />
		<tag k="ssr:stedsnr" v="416154" />
	</node>
	<node lat="68.63791389200115" lon="15.841458329998057" id="-36612">
		<tag k="name" v="Vestersnaget" />
		<tag k="natural" v="cape" />
		<tag k="ssr:stedsnr" v="416166" />
	</node>
	<node lat="68.81461388558283" lon="15.961433332051685" id="-36624">
		<tag k="name" v="Floen" />
		<tag k="natural" v="strait" />
		<tag k="ssr:stedsnr" v="442128" />
	</node>
	<node lat="68.65527500042471" lon="15.891922228872895" id="-36627">
		<tag k="name" v="Kvalvika" />
		<tag k="natural" v="bay" />
		<tag k="ssr:stedsnr" v="442329" />
	</node>
	<node lat="68.71104444153674" lon="16.050736099831642" id="-36631">
		<tag k="name" v="Årnesbukta" />
=======
	<node id="-851634" lat="68.5723111094" lon="15.798383331">
		<tag k="name" v="Elvebukta" />
		<tag k="natural" v="bay" />
		<tag k="ssr:stedsnr" v="597872" />
	</node>
	<node id="-850547" lat="68.6378333362" lon="16.0845972157">
		<tag k="name" v="Likråa" />
		<tag k="natural" v="bay" />
		<tag k="ssr:stedsnr" v="416417" />
	</node>
	<node id="-851119" lat="68.6722805551" lon="15.9179805467">
		<tag k="name" v="Flesnesvågen" />
		<tag k="natural" v="bay" />
		<tag k="ssr:stedsnr" v="112209" />
	</node>
	<node id="-851630" lat="68.547325002" lon="15.7624139004">
		<tag k="name" v="Revbukta" />
		<tag k="natural" v="bay" />
		<tag k="ssr:stedsnr" v="597820" />
	</node>
	<node id="-851629" lat="68.5423472197" lon="15.7316055485">
		<tag k="name" v="Tunga" />
		<tag k="natural" v="cape" />
		<tag k="ssr:stedsnr" v="597816" />
	</node>
	<node id="-850604" lat="68.6517027809" lon="16.0877916702">
		<tag k="name" v="Melkevika" />
		<tag k="natural" v="bay" />
		<tag k="ssr:stedsnr" v="476457" />
	</node>
	<node id="-850603" lat="68.6444111146" lon="16.090897227">
		<tag k="name" v="Seljeneset" />
		<tag k="natural" v="cape" />
		<tag k="ssr:stedsnr" v="476453" />
	</node>
	<node id="-851626" lat="68.5347194487" lon="15.746805551">
		<tag k="name" v="Laksebukta" />
		<tag k="natural" v="bay" />
		<tag k="ssr:stedsnr" v="597768" />
	</node>
	<node id="-851110" lat="68.61836944" lon="15.724716674">
		<tag k="name" v="Svendneset" />
		<tag k="natural" v="cape" />
		<tag k="ssr:stedsnr" v="111738" />
	</node>
	<node id="-851107" lat="68.7329277785" lon="16.0504388842">
		<tag k="fixme" v="consider seamark:type=rock or natural=shoal" />
		<tag k="name" v="Skarvskjeret" />
		<tag k="place" v="islet" />
		<tag k="ssr:stedsnr" v="98695" />
	</node>
	<node id="-851618" lat="68.7190777753" lon="16.2832972256">
		<tag k="name" v="Oldervika" />
		<tag k="natural" v="bay" />
		<tag k="ssr:stedsnr" v="597631" />
	</node>
	<node id="-850715" lat="68.7900916643" lon="16.0703972149">
		<tag k="name" v="Hellevika" />
>>>>>>> e1d4bc35ff8a6074a6f2e91616a996b547c36f15
		<tag k="natural" v="bay" />
		<tag k="ssr:stedsnr" v="718418" />
	</node>
<<<<<<< HEAD
	<node lat="68.56539722549533" lon="15.825291676829305" id="-36632">
		<tag k="alt_name" v="Eidnesset" />
		<tag k="name" v="Eideneset" />
		<tag k="natural" v="cape" />
		<tag k="ssr:stedsnr" v="442876" />
	</node>
	<node lat="68.74166110941697" lon="16.2601527866836" id="-36635">
		<tag k="name" v="Vikevågen" />
		<tag k="natural" v="bay" />
		<tag k="ssr:stedsnr" v="442828" />
	</node>
	<node lat="68.74294444809955" lon="16.060941657776663" id="-36639">
		<tag k="alt_name" v="Korsskjeret" />
		<tag k="fixme" v="consider seamark:type=rock or natural=shoal" />
		<tag k="name" v="Korsskjæret" />
		<tag k="place" v="islet" />
		<tag k="ssr:stedsnr" v="443438" />
	</node>
	<node lat="68.53589444761559" lon="15.73723056129291" id="-36649">
		<tag k="fixme" v="multiple name tags, choose one and add the other to alt_name" />
		<tag k="name" v="Gullesfjordbotn - Gollevuonbahta;Guollesvuonbahta" />
		<tag k="name:no" v="Gullesfjordbotn" />
		<tag k="name:se" v="Gollevuonbahta;Guollesvuonbahta" />
		<tag k="natural" v="bay" />
		<tag k="ssr:stedsnr" v="503699" />
	</node>
	<node lat="68.59614444765899" lon="15.816200002943267" id="-36652">
		<tag k="alt_name" v="Resodden" />
		<tag k="name" v="Ressodden" />
		<tag k="natural" v="cape" />
		<tag k="ssr:stedsnr" v="503784" />
	</node>
	<node lat="68.58498888908422" lon="15.819394453564149" id="-36653">
		<tag k="name" v="Tennholmen" />
		<tag k="place" v="islet" />
		<tag k="ssr:stedsnr" v="503788" />
	</node>
	<node lat="68.8632805549393" lon="16.010752783575317" id="-36659">
		<tag k="alt_name" v="Molvika" />
		<tag k="name" v="Mollvika" />
		<tag k="natural" v="bay" />
		<tag k="ssr:stedsnr" v="503045" />
	</node>
	<node lat="68.85918610998716" lon="16.000863892117792" id="-36660">
		<tag k="name" v="Gullberghamn" />
		<tag k="natural" v="bay" />
		<tag k="ssr:stedsnr" v="503047" />
	</node>
	<node lat="68.66373055423729" lon="15.910411108166306" id="-36665">
		<tag k="alt_name" v="Gravkjeret" />
		<tag k="fixme" v="consider seamark:type=rock or natural=shoal" />
		<tag k="name" v="Grasskjeret" />
		<tag k="place" v="islet" />
		<tag k="ssr:stedsnr" v="503252" />
	</node>
	<node lat="68.61604722618779" lon="15.76961389721152" id="-36676">
		<tag k="name" v="Langvassbukta" />
		<tag k="natural" v="bay" />
		<tag k="ssr:stedsnr" v="503343" />
	</node>
	<node lat="68.60958055862926" lon="15.778344447529761" id="-36677">
		<tag k="name" v="Torneset" />
		<tag k="natural" v="cape" />
		<tag k="ssr:stedsnr" v="503345" />
	</node>
	<node lat="68.55893333209849" lon="15.77229443159573" id="-36684">
		<tag k="name" v="Løbergsneset" />
		<tag k="natural" v="cape" />
		<tag k="ssr:stedsnr" v="503815" />
	</node>
	<node lat="68.88482222182263" lon="16.047666654083272" id="-36690">
		<tag k="fixme" v="consider seamark:type=rock or natural=shoal" />
		<tag k="name" v="Varden" />
		<tag k="place" v="islet" />
		<tag k="ssr:stedsnr" v="536397" />
	</node>
	<node lat="68.63643888435045" lon="16.06586111566556" id="-36710">
		<tag k="name" v="Leirvika" />
		<tag k="natural" v="bay" />
		<tag k="ssr:stedsnr" v="537439" />
	</node>
	<node lat="68.77328889081787" lon="16.166511100805646" id="-36713">
		<tag k="name" v="Leikvika" />
		<tag k="natural" v="bay" />
		<tag k="old_name" v="Leirvika" />
		<tag k="ssr:stedsnr" v="537646" />
	</node>
	<node lat="68.58954722626316" lon="15.791405553263552" id="-36723">
		<tag k="name" v="Litjegrasneset" />
		<tag k="natural" v="cape" />
		<tag k="ssr:stedsnr" v="537842" />
	</node>
	<node lat="68.58246111348335" lon="15.794724996458088" id="-36726">
		<tag k="name" v="Bekkenesbukta" />
		<tag k="natural" v="bay" />
		<tag k="ssr:stedsnr" v="537853" />
	</node>
	<node lat="68.76401944592692" lon="16.109616661220738" id="-36729">
		<tag k="name" v="Kveøya" />
		<tag k="place" v="island" />
		<tag k="ssr:stedsnr" v="563404" />
	</node>
	<node lat="68.8521944414859" lon="16.170027777692447" id="-36732">
		<tag k="alt_name" v="Hangtangen" />
		<tag k="name" v="Haugtangen" />
		<tag k="natural" v="cape" />
		<tag k="ssr:stedsnr" v="563021" />
	</node>
	<node lat="68.8571666653264" lon="15.999549997777713" id="-36733">
		<tag k="name" v="Svartberget" />
		<tag k="natural" v="cape" />
		<tag k="ssr:stedsnr" v="563028" />
	</node>
	<node lat="68.87987222395958" lon="16.073588900021694" id="-36734">
		<tag k="alt_name" v="Svartskjeran" />
		<tag k="fixme" v="consider seamark:type=rock or natural=shoal" />
		<tag k="name" v="Svartskjæret" />
		<tag k="place" v="islet" />
		<tag k="ssr:stedsnr" v="563065" />
	</node>
	<node lat="68.6700027761576" lon="15.924180554101882" id="-36741">
		<tag k="name" v="Flatholmen" />
		<tag k="place" v="islet" />
		<tag k="ssr:stedsnr" v="563266" />
	</node>
	<node lat="68.63783611127243" lon="16.07791111661685" id="-36748">
		<tag k="alt_name" v="Austerbotnen" />
		<tag k="name" v="Austerbotn" />
		<tag k="natural" v="bay" />
		<tag k="ssr:stedsnr" v="563325" />
	</node>
	<node lat="68.55395000247873" lon="15.75186944782286" id="-36761">
		<tag k="name" v="Karineset" />
		<tag k="natural" v="cape" />
		<tag k="ssr:stedsnr" v="563892" />
	</node>
	<node lat="68.6887527815858" lon="15.95309723466808" id="-36768">
		<tag k="name" v="Valen" />
		<tag k="natural" v="bay" />
		<tag k="ssr:stedsnr" v="582656" />
	</node>
	<node lat="68.54831110676973" lon="15.766336121021624" id="-36776">
		<tag k="name" v="Steinbitneset" />
		<tag k="natural" v="cape" />
		<tag k="ssr:stedsnr" v="596737" />
	</node>
	<node lat="68.67088610891817" lon="16.078311099552053" id="-36778">
		<tag k="name" v="Klubben" />
		<tag k="natural" v="cape" />
		<tag k="ssr:stedsnr" v="597034" />
	</node>
	<node lat="68.66176388949808" lon="16.07049167593956" id="-36780">
		<tag k="name" v="Tennskjærgrunnen" />
		<tag k="natural" v="shoal" />
		<tag k="place" v="locality" />
		<tag k="ssr:stedsnr" v="597040" />
	</node>
	<node lat="68.64189167440811" lon="16.060566102758415" id="-36786">
		<tag k="name" v="Hanseneset" />
		<tag k="natural" v="cape" />
		<tag k="ssr:stedsnr" v="597059" />
	</node>
	<node lat="68.71907777525794" lon="16.283297225618306" id="-36806">
		<tag k="name" v="Oldervika" />
=======
	<node id="-851616" lat="68.7058444442" lon="16.302741673">
		<tag k="name" v="Trettholmen" />
		<tag k="natural" v="cape" />
		<tag k="ssr:stedsnr" v="597576" />
	</node>
	<node id="-850252" lat="68.6677027756" lon="16.0531527873">
		<tag k="alt_name" v="Klubbneset;Klubbnesset" />
		<tag k="name" v="Klubbeneset" />
		<tag k="natural" v="cape" />
		<tag k="ssr:stedsnr" v="260335" />
	</node>
	<node id="-850202" lat="68.7298916636" lon="16.2559222147">
		<tag k="fixme" v="consider seamark:type=rock or natural=shoal" />
		<tag k="name" v="Galtan" />
		<tag k="place" v="islet" />
		<tag k="ssr:stedsnr" v="234499" />
	</node>
	<node id="-851100" lat="68.7458805511" lon="16.2022305658">
		<tag k="alt_name" v="Hoklandskjeret" />
		<tag k="fixme" v="consider seamark:type=rock or natural=shoal" />
		<tag k="name" v="Hoklandsskjæran" />
		<tag k="place" v="islet" />
		<tag k="ssr:stedsnr" v="79403" />
	</node>
	<node id="-850587" lat="68.7206194463" lon="16.2786888916">
		<tag k="name" v="Vedneset" />
		<tag k="natural" v="cape" />
		<tag k="ssr:stedsnr" v="658623" />
	</node>
	<node id="-850799" lat="68.6604444472" lon="16.0776222196">
		<tag k="name" v="Perneset" />
		<tag k="natural" v="cape" />
		<tag k="ssr:stedsnr" v="901039" />
	</node>
	<node id="-851093" lat="68.5661055545" lon="15.801936116">
		<tag k="alt_name" v="Våtvollnessan" />
		<tag k="name" v="Våtvollneset" />
		<tag k="natural" v="cape" />
		<tag k="ssr:stedsnr" v="78877" />
	</node>
	<node id="-851091" lat="68.5759527734" lon="15.7959888928">
		<tag k="alt_name" v="Hallvardsneset;Halvardsnesset" />
		<tag k="name" v="Hallvardneset" />
		<tag k="natural" v="cape" />
		<tag k="ssr:stedsnr" v="78860" />
	</node>
	<node id="-850916" lat="68.6577611108" lon="15.952641662">
		<tag k="name" v="Elveneset" />
		<tag k="natural" v="cape" />
		<tag k="ssr:stedsnr" v="841016" />
	</node>
	<node id="-851089" lat="68.7400611102" lon="16.2310861063">
		<tag k="alt_name" v="Straumsholmen" />
		<tag k="name" v="Strømsholmen" />
		<tag k="place" v="islet" />
		<tag k="ssr:stedsnr" v="78821" />
	</node>
	<node id="-850286" lat="68.6678083351" lon="16.080988883">
		<tag k="name" v="Melåbukta" />
		<tag k="natural" v="bay" />
		<tag k="ssr:stedsnr" v="112045" />
	</node>
	<node id="-850777" lat="68.6660472247" lon="15.9743333411">
		<tag k="name" v="Holmebukta" />
		<tag k="natural" v="bay" />
		<tag k="ssr:stedsnr" v="719015" />
	</node>
	<node id="-851084" lat="68.7029999987" lon="16.0494055636">
		<tag k="name" v="Hesjedalsbukta" />
		<tag k="natural" v="bay" />
		<tag k="ssr:stedsnr" v="78483" />
	</node>
	<node id="-851700" lat="68.6503888932" lon="15.8750166673">
		<tag k="name" v="Urneset" />
		<tag k="natural" v="cape" />
		<tag k="ssr:stedsnr" v="651095" />
	</node>
	<node id="-850319" lat="68.5779222203" lon="15.8236083386">
		<tag k="name" v="Holtebukta" />
		<tag k="natural" v="bay" />
		<tag k="ssr:stedsnr" v="280693" />
	</node>
	<node id="-851592" lat="68.6617638895" lon="16.0704916759">
		<tag k="name" v="Tennskjærgrunnen" />
		<tag k="natural" v="shoal" />
		<tag k="place" v="locality" />
		<tag k="ssr:stedsnr" v="597040" />
	</node>
	<node id="-850567" lat="68.6645111147" lon="16.0516111088">
		<tag k="name" v="Stranda" />
		<tag k="natural" v="beach" />
		<tag k="place" v="locality" />
		<tag k="ssr:stedsnr" v="658028" />
	</node>
	<node id="-851590" lat="68.6708861089" lon="16.0783110996">
		<tag k="name" v="Klubben" />
		<tag k="natural" v="cape" />
		<tag k="ssr:stedsnr" v="597034" />
	</node>
	<node id="-851137" lat="68.7366499976" lon="16.2357055479">
		<tag k="name" v="Litjehavet" />
		<tag k="natural" v="bay" />
		<tag k="ssr:stedsnr" v="112760" />
	</node>
	<node id="-851588" lat="68.5483111068" lon="15.766336121">
		<tag k="name" v="Steinbitneset" />
		<tag k="natural" v="cape" />
		<tag k="ssr:stedsnr" v="596737" />
	</node>
	<node id="-851973" lat="68.7204388904" lon="15.9908360996">
		<tag k="name" v="Sildevikklubben" />
		<tag k="natural" v="cape" />
		<tag k="ssr:stedsnr" v="962441" />
	</node>
	<node id="-851074" lat="68.6197444443" lon="15.7742472205">
		<tag k="name" v="Langvassneset" />
		<tag k="natural" v="cape" />
		<tag k="ssr:stedsnr" v="78349" />
	</node>
	<node id="-851643" lat="68.8374444429" lon="16.1071694505">
		<tag k="name" v="Stabben" />
		<tag k="natural" v="shoal" />
		<tag k="place" v="locality" />
		<tag k="ssr:stedsnr" v="624016" />
	</node>
	<node id="-851072" lat="68.6349749976" lon="15.8698416675">
		<tag k="name" v="Hestneset" />
		<tag k="natural" v="cape" />
		<tag k="ssr:stedsnr" v="78323" />
	</node>
	<node id="-851069" lat="68.8228305515" lon="16.0693083295">
		<tag k="name" v="Sandbåen" />
		<tag k="natural" v="shoal" />
		<tag k="place" v="locality" />
		<tag k="ssr:stedsnr" v="78120" />
	</node>
	<node id="-851579" lat="68.5539500025" lon="15.7518694478">
		<tag k="name" v="Karineset" />
		<tag k="natural" v="cape" />
		<tag k="ssr:stedsnr" v="563892" />
	</node>
	<node id="-850554" lat="68.6029416706" lon="15.821377788">
		<tag k="name" v="Einneset" />
		<tag k="natural" v="cape" />
		<tag k="ssr:stedsnr" v="657187" />
	</node>
	<node id="-851065" lat="68.8307111089" lon="16.0389472233">
		<tag k="bay" v="fjord" />
		<tag k="name" v="Kvæfjorden - Giehtavuotna" />
		<tag k="name:no" v="Kvæfjorden" />
		<tag k="name:se" v="Giehtavuotna" />
		<tag k="natural" v="bay" />
		<tag k="ssr:stedsnr" v="78015" />
	</node>
	<node id="-850549" lat="68.7374083296" lon="16.1392472314">
		<tag k="name" v="Skjellneset" />
		<tag k="natural" v="cape" />
		<tag k="ssr:stedsnr" v="416703" />
	</node>
	<node id="-851646" lat="68.8650083309" lon="16.0353333275">
		<tag k="name" v="Gamvika" />
		<tag k="natural" v="bay" />
		<tag k="ssr:stedsnr" v="624053" />
	</node>
	<node id="-850546" lat="68.6561388896" lon="16.0779777733">
		<tag k="name" v="Skjellvikneset" />
		<tag k="natural" v="cape" />
		<tag k="ssr:stedsnr" v="416411" />
	</node>
	<node id="-850195" lat="68.5369472206" lon="15.7240999902">
		<tag k="name" v="Holla" />
>>>>>>> e1d4bc35ff8a6074a6f2e91616a996b547c36f15
		<tag k="natural" v="bay" />
		<tag k="ssr:stedsnr" v="233834" />
	</node>
<<<<<<< HEAD
	<node lat="68.53471944871704" lon="15.746805551003616" id="-36809">
		<tag k="name" v="Laksebukta" />
		<tag k="natural" v="bay" />
		<tag k="ssr:stedsnr" v="597768" />
	</node>
	<node lat="68.7058444441849" lon="16.30274167303268" id="-36814">
		<tag k="name" v="Trettholmen" />
		<tag k="natural" v="cape" />
		<tag k="ssr:stedsnr" v="597576" />
	</node>
	<node lat="68.54234721974426" lon="15.731605548507213" id="-36817">
		<tag k="name" v="Tunga" />
		<tag k="natural" v="cape" />
		<tag k="ssr:stedsnr" v="597816" />
	</node>
	<node lat="68.54732500203784" lon="15.762413900444752" id="-36818">
		<tag k="name" v="Revbukta" />
		<tag k="natural" v="bay" />
		<tag k="ssr:stedsnr" v="597820" />
	</node>
	<node lat="68.57231110936766" lon="15.798383331007548" id="-36819">
		<tag k="name" v="Elvebukta" />
		<tag k="natural" v="bay" />
		<tag k="ssr:stedsnr" v="597872" />
	</node>
	<node lat="68.8687694426728" lon="16.031050005623168" id="-36826">
		<tag k="name" v="Gavlen" />
		<tag k="natural" v="cape" />
		<tag k="ssr:stedsnr" v="624069" />
	</node>
	<node lat="68.8833444472242" lon="16.082566664378763" id="-36827">
		<tag k="name" v="Småholman" />
		<tag k="place" v="islet" />
		<tag k="ssr:stedsnr" v="624072" />
	</node>
	<node lat="68.86500833088824" lon="16.035333327495287" id="-36832">
		<tag k="name" v="Gamvika" />
		<tag k="natural" v="bay" />
		<tag k="ssr:stedsnr" v="624053" />
	</node>
	<node lat="68.76761944386723" lon="16.201661102440056" id="-36833">
		<tag k="name" v="Strand" />
		<tag k="natural" v="beach" />
		<tag k="ssr:stedsnr" v="624195" />
	</node>
	<node lat="68.66303333313692" lon="15.966169432665554" id="-36838">
		<tag k="name" v="Sæterneset" />
		<tag k="natural" v="cape" />
		<tag k="ssr:stedsnr" v="624295" />
	</node>
	<node lat="68.71707222093053" lon="16.05142776748234" id="-36848">
		<tag k="name" v="Gammelgårdsbukta" />
		<tag k="natural" v="bay" />
		<tag k="ssr:stedsnr" v="624484" />
	</node>
	<node lat="68.69565833538827" lon="16.037383333033937" id="-36850">
		<tag k="name" v="Revsnesholmen" />
		<tag k="place" v="islet" />
		<tag k="ssr:stedsnr" v="624491" />
	</node>
	<node lat="68.73717777739472" lon="16.245797224010136" id="-36857">
		<tag k="name" v="Straumsneset - Strávvenjárga" />
		<tag k="name:no" v="Straumsneset" />
		<tag k="name:se" v="Strávvenjárga" />
		<tag k="natural" v="cape" />
		<tag k="ssr:stedsnr" v="624938" />
	</node>
	<node lat="68.60294167064903" lon="15.821377787983387" id="-36870">
		<tag k="name" v="Einneset" />
		<tag k="natural" v="cape" />
		<tag k="ssr:stedsnr" v="657187" />
	</node>
	<node lat="68.67046111285018" lon="16.03715000669873" id="-36878">
		<tag k="name" v="Kobbeneset" />
		<tag k="natural" v="cape" />
		<tag k="ssr:stedsnr" v="658025" />
	</node>
	<node lat="68.66451111472762" lon="16.05161110878221" id="-36879">
		<tag k="name" v="Stranda" />
		<tag k="natural" v="beach" />
		<tag k="ssr:stedsnr" v="658028" />
	</node>
	<node lat="68.72061944629662" lon="16.278688891636985" id="-36886">
		<tag k="name" v="Vedneset" />
		<tag k="natural" v="cape" />
		<tag k="ssr:stedsnr" v="658623" />
	</node>
	<node lat="68.6408583375344" lon="16.08879165747858" id="-36889">
		<tag k="name" v="Storsteinneset" />
		<tag k="natural" v="cape" />
		<tag k="ssr:stedsnr" v="658456" />
	</node>
	<node lat="68.7900916642856" lon="16.070397214863057" id="-36903">
		<tag k="name" v="Hellevika" />
		<tag k="natural" v="bay" />
		<tag k="ssr:stedsnr" v="718418" />
	</node>
	<node lat="68.58293333277865" lon="15.818958327367309" id="-36912">
		<tag k="name" v="Ytterholtebukta" />
		<tag k="natural" v="bay" />
		<tag k="ssr:stedsnr" v="718919" />
	</node>
	<node lat="68.66604722466246" lon="15.974333341074297" id="-36913">
		<tag k="name" v="Holmebukta" />
		<tag k="natural" v="bay" />
		<tag k="ssr:stedsnr" v="719015" />
	</node>
	<node lat="68.75962222253536" lon="16.155594438971146" id="-36921">
		<tag k="name" v="Siverthamn" />
		<tag k="natural" v="bay" />
		<tag k="ssr:stedsnr" v="719350" />
	</node>
	<node lat="68.84530555247517" lon="16.100377767170876" id="-36925">
		<tag k="fixme" v="consider seamark:type=rock or natural=shoal" />
		<tag k="name" v="Eldaflesan" />
		<tag k="place" v="islet" />
		<tag k="ssr:stedsnr" v="719609" />
	</node>
	<node lat="68.5642638857652" lon="15.801672230725368" id="-36931">
		<tag k="name" v="Kabelbukta" />
		<tag k="natural" v="bay" />
		<tag k="ssr:stedsnr" v="719918" />
	</node>
	<node lat="68.59418610897848" lon="15.788997216417211" id="-36932">
		<tag k="name" v="Revneset" />
		<tag k="natural" v="cape" />
		<tag k="ssr:stedsnr" v="719933" />
	</node>
	<node lat="68.62680833039589" lon="15.842786110386678" id="-36938">
		<tag k="name" v="Hestneset" />
		<tag k="natural" v="cape" />
		<tag k="ssr:stedsnr" v="745239" />
	</node>
	<node lat="68.84545000338493" lon="16.13323333924506" id="-36957">
		<tag k="fixme" v="multiple name tags, choose one and add the other to alt_name" />
		<tag k="name" v="Mollvikneset;Melvikneset" />
		<tag k="natural" v="cape" />
		<tag k="ssr:stedsnr" v="746297" />
	</node>
	<node lat="68.6304361103391" lon="15.845772212035389" id="-36961">
		<tag k="name" v="Forøysundet" />
		<tag k="natural" v="strait" />
		<tag k="ssr:stedsnr" v="746332" />
	</node>
	<node lat="68.7416055516315" lon="16.15599998806695" id="-36966">
		<tag k="name" v="Øysundet" />
		<tag k="natural" v="strait" />
		<tag k="ssr:stedsnr" v="746412" />
	</node>
	<node lat="68.6717388912251" lon="16.058605546722873" id="-36973">
		<tag k="name" v="Langnesgrunnen" />
		<tag k="natural" v="shoal" />
		<tag k="place" v="locality" />
		<tag k="ssr:stedsnr" v="765675" />
	</node>
	<node lat="68.54993610958086" lon="15.771930565391974" id="-36982">
		<tag k="name" v="Kvalbuktneset" />
		<tag k="natural" v="cape" />
		<tag k="ssr:stedsnr" v="779769" />
	</node>
	<node lat="68.67799999861154" lon="16.05129166211135" id="-36986">
		<tag k="name" v="Mølnneset" />
		<tag k="natural" v="cape" />
		<tag k="ssr:stedsnr" v="780026" />
	</node>
	<node lat="68.73616110865437" lon="16.246486110277818" id="-37007">
		<tag k="name" v="Straumen" />
		<tag k="natural" v="strait" />
		<tag k="ssr:stedsnr" v="780696" />
	</node>
	<node lat="68.73617777348635" lon="16.20565833396479" id="-37012">
		<tag k="name" v="Salodden" />
		<tag k="natural" v="cape" />
		<tag k="ssr:stedsnr" v="780716" />
	</node>
	<node lat="68.76410555344098" lon="16.175336107727915" id="-37015">
		<tag k="name" v="Bygdesundet" />
		<tag k="natural" v="strait" />
		<tag k="ssr:stedsnr" v="806163" />
	</node>
	<node lat="68.65785000109693" lon="16.06088888915176" id="-37018">
		<tag k="name" v="Tomasneset" />
		<tag k="natural" v="cape" />
		<tag k="ssr:stedsnr" v="806196" />
	</node>
	<node lat="68.69127222410835" lon="15.993291673024144" id="-37021">
		<tag k="bay" v="fjord" />
		<tag k="fixme" v="multiple name tags, choose one and add the other to alt_name" />
		<tag k="name" v="Gullesfjorden - Gollevuotna;Guollesvuotna" />
		<tag k="name:no" v="Gullesfjorden" />
		<tag k="name:se" v="Gollevuotna;Guollesvuotna" />
		<tag k="natural" v="bay" />
		<tag k="ssr:stedsnr" v="806306" />
	</node>
	<node lat="68.7826472240998" lon="16.05196387810144" id="-37028">
		<tag k="alt_name" v="Skolten" />
		<tag k="name" v="Skoltan" />
		<tag k="natural" v="shoal" />
		<tag k="place" v="locality" />
		<tag k="ssr:stedsnr" v="806067" />
	</node>
	<node lat="68.78385833391103" lon="16.065722218982604" id="-37029">
		<tag k="name" v="Leitebukta" />
		<tag k="natural" v="bay" />
		<tag k="ssr:stedsnr" v="806071" />
	</node>
	<node lat="68.6210166673466" lon="15.820255560232685" id="-37036">
		<tag k="name" v="Hestnesholmen" />
		<tag k="natural" v="cape" />
		<tag k="ssr:stedsnr" v="806353" />
	</node>
	<node lat="68.63705555653" lon="15.892677777451011" id="-37038">
		<tag k="name" v="Plassneset" />
		<tag k="natural" v="cape" />
		<tag k="ssr:stedsnr" v="806327" />
	</node>
	<node lat="68.63243055841946" lon="15.832561108568402" id="-37043">
		<tag k="name" v="Forøya" />
		<tag k="place" v="island" />
		<tag k="ssr:stedsnr" v="806343" />
	</node>
	<node lat="68.72250277803926" lon="15.991222223953578" id="-37048">
		<tag k="name" v="Sildvika" />
		<tag k="natural" v="bay" />
		<tag k="ssr:stedsnr" v="806466" />
	</node>
	<node lat="68.55653610961879" lon="15.78976667346048" id="-37055">
		<tag k="name" v="Hundneset" />
		<tag k="natural" v="cape" />
		<tag k="ssr:stedsnr" v="806881" />
	</node>
	<node lat="68.88169722123806" lon="16.06547500503777" id="-37059">
		<tag k="name" v="Gapøyholman" />
		<tag k="place" v="islet" />
		<tag k="ssr:stedsnr" v="807063" />
	</node>
	<node lat="68.66088888684659" lon="16.06213334305604" id="-37063">
		<tag k="bay" v="fjord" />
		<tag k="name" v="Austerfjorden - Mieluidvuotna" />
		<tag k="name:no" v="Austerfjorden" />
		<tag k="name:se" v="Mieluidvuotna" />
		<tag k="natural" v="bay" />
		<tag k="ssr:stedsnr" v="807266" />
	</node>
	<node lat="68.66602777429193" lon="15.923602764992612" id="-37064">
		<tag k="name" v="Klubbholmen" />
		<tag k="place" v="islet" />
		<tag k="ssr:stedsnr" v="807269" />
	</node>
	<node lat="68.73477499694175" lon="16.051011100018297" id="-37066">
		<tag k="name" v="Brekkaholman" />
		<tag k="place" v="islet" />
		<tag k="ssr:stedsnr" v="807426" />
	</node>
	<node lat="68.6085750036055" lon="15.816427777234344" id="-37068">
		<tag k="alt_name" v="Urdneset" />
		<tag k="name" v="Urneset" />
		<tag k="natural" v="cape" />
		<tag k="ssr:stedsnr" v="807358" />
	</node>
	<node lat="68.88965277599371" lon="16.17072777998706" id="-37069">
		<tag k="name" v="Kasholmen" />
		<tag k="place" v="islet" />
		<tag k="ssr:stedsnr" v="807453" />
	</node>
	<node lat="68.77782778043365" lon="16.05961387718205" id="-37081">
		<tag k="name" v="Lyngen" />
		<tag k="natural" v="beach" />
		<tag k="ssr:stedsnr" v="840397" />
	</node>
	<node lat="68.57898333089794" lon="15.823561101347552" id="-37088">
		<tag k="name" v="Innerholtbukta" />
		<tag k="natural" v="bay" />
		<tag k="ssr:stedsnr" v="840918" />
	</node>
	<node lat="68.65481944068597" lon="15.94266387945767" id="-37089">
		<tag k="name" v="Valen" />
		<tag k="natural" v="cape" />
		<tag k="ssr:stedsnr" v="841041" />
	</node>
	<node lat="68.63619444431437" lon="15.848466661302236" id="-37092">
		<tag k="name" v="Myrbukta" />
		<tag k="natural" v="bay" />
		<tag k="ssr:stedsnr" v="841073" />
	</node>
	<node lat="68.74529444183841" lon="16.25149721946559" id="-37108">
		<tag k="name" v="Vågen" />
		<tag k="natural" v="bay" />
		<tag k="ssr:stedsnr" v="841541" />
	</node>
	<node lat="68.63067221918767" lon="15.839427768336622" id="-37118">
		<tag k="name" v="Tjeldnesbukta" />
		<tag k="natural" v="bay" />
		<tag k="ssr:stedsnr" v="841970" />
	</node>
	<node lat="68.83748333519105" lon="16.116916657574784" id="-37122">
		<tag k="name" v="Bonstadvika" />
		<tag k="natural" v="bay" />
		<tag k="ssr:stedsnr" v="867014" />
	</node>
	<node lat="68.84856111244746" lon="16.101324999909167" id="-37124">
		<tag k="name" v="Flesungen" />
		<tag k="natural" v="shoal" />
		<tag k="place" v="locality" />
		<tag k="ssr:stedsnr" v="867043" />
	</node>
	<node lat="68.8655472228967" lon="16.117347225585753" id="-37128">
		<tag k="name" v="Sjursbåen" />
		<tag k="natural" v="shoal" />
		<tag k="place" v="locality" />
		<tag k="ssr:stedsnr" v="867053" />
	</node>
	<node lat="68.86333055104537" lon="16.193086116196646" id="-37129">
		<tag k="name" v="Bremnes" />
		<tag k="natural" v="cape" />
		<tag k="ssr:stedsnr" v="867055" />
	</node>
	<node lat="68.67958610951648" lon="16.034352781108648" id="-37134">
		<tag k="name" v="Høyneset" />
		<tag k="natural" v="cape" />
		<tag k="ssr:stedsnr" v="867306" />
	</node>
	<node lat="68.67426666432942" lon="15.999119447033904" id="-37135">
		<tag k="alt_name" v="Lysåhella" />
		<tag k="name" v="Hella" />
		<tag k="natural" v="cape" />
		<tag k="ssr:stedsnr" v="867310" />
	</node>
	<node lat="68.60048888928395" lon="15.788980563246767" id="-37140">
		<tag k="name" v="Stornesan" />
		<tag k="natural" v="cape" />
		<tag k="ssr:stedsnr" v="867392" />
	</node>
	<node lat="68.87405277898304" lon="15.580744438809667" id="-37153">
		<tag k="alt_name:no" v="Hinnøy" />
		<tag k="name" v="Hinnøya - Iinnasuolu" />
		<tag k="name:no" v="Hinnøya" />
		<tag k="name:se" v="Iinnasuolu" />
		<tag k="place" v="island" />
		<tag k="ssr:stedsnr" v="867568" />
	</node>
	<node lat="68.78687500238644" lon="16.076994453149098" id="-37155">
		<tag k="name" v="Snøvika" />
		<tag k="natural" v="bay" />
		<tag k="ssr:stedsnr" v="868055" />
	</node>
	<node lat="68.74545832997318" lon="16.064824998583138" id="-37166">
		<tag k="name" v="Sandvikbåen" />
		<tag k="place" v="locality" />
		<tag k="seamark:type" v="rock" />
		<tag k="ssr:stedsnr" v="887697" />
	</node>
	<node lat="68.5738416673928" lon="15.824600002321555" id="-37167">
		<tag k="alt_name" v="Litleholten" />
		<tag k="name" v="Litjeholten" />
		<tag k="natural" v="cape" />
		<tag k="ssr:stedsnr" v="887699" />
	</node>
	<node lat="68.74311666672754" lon="16.191397223810544" id="-37168">
		<tag k="name" v="Salengrunnen" />
		<tag k="natural" v="shoal" />
		<tag k="place" v="locality" />
		<tag k="ssr:stedsnr" v="947648" />
	</node>
	<node lat="68.53936111560907" lon="15.752236108120949" id="-37169">
		<tag k="name" v="Skjåneset - Skadjanjárga" />
		<tag k="name:no" v="Skjåneset" />
		<tag k="name:se" v="Skadjanjárga" />
		<tag k="natural" v="cape" />
		<tag k="ssr:stedsnr" v="950788" />
	</node>
	<node lat="68.56807500192129" lon="15.802144433014153" id="-37180">
		<tag k="name" v="Kattebukta" />
		<tag k="natural" v="bay" />
		<tag k="ssr:stedsnr" v="961947" />
	</node>
	<node lat="68.67072777466561" lon="16.047394450397" id="-37186">
		<tag k="name" v="Djuphamn" />
		<tag k="natural" v="bay" />
		<tag k="ssr:stedsnr" v="962028" />
	</node>
	<node lat="68.63660555958414" lon="15.904252773500062" id="-37188">
		<tag k="name" v="Finnsteinen" />
		<tag k="natural" v="cape" />
		<tag k="ssr:stedsnr" v="962077" />
	</node>
	<node lat="68.72043889044896" lon="15.990836099571712" id="-37192">
		<tag k="name" v="Sildevikklubben" />
		<tag k="natural" v="cape" />
		<tag k="ssr:stedsnr" v="962441" />
	</node>
	<node lat="68.6531333301845" lon="16.085033329827656" id="-37194">
		<tag k="name" v="Melkevikneset" />
		<tag k="natural" v="cape" />
		<tag k="ssr:stedsnr" v="962454" />
	</node>
	<node lat="68.61752778010894" lon="15.807230546347736" id="-37206">
		<tag k="name" v="Nakkodden" />
		<tag k="natural" v="cape" />
		<tag k="ssr:stedsnr" v="962976" />
=======
	<node id="-851568" lat="68.7640194459" lon="16.1096166612">
		<tag k="name" v="Kveøya" />
		<tag k="place" v="island" />
		<tag k="ssr:stedsnr" v="563404" />
	</node>
	<node id="-850426" lat="68.738822224" lon="16.0565277761">
		<tag k="name" v="Nergårdneset" />
		<tag k="natural" v="cape" />
		<tag k="ssr:stedsnr" v="233507" />
	</node>
	<node id="-851218" lat="68.7396027755" lon="16.0589555461">
		<tag k="fixme" v="consider seamark:type=rock or natural=shoal" />
		<tag k="name" v="Våtræva" />
		<tag k="place" v="islet" />
		<tag k="ssr:stedsnr" v="172501" />
	</node>
	<node id="-851562" lat="68.6700027762" lon="15.9241805541">
		<tag k="name" v="Flatholmen" />
		<tag k="place" v="islet" />
		<tag k="ssr:stedsnr" v="563266" />
	</node>
	<node id="-850949" lat="68.6423499974" lon="15.8969972177">
		<tag k="name" v="Kvalen" />
		<tag k="natural" v="cape" />
		<tag k="ssr:stedsnr" v="901070" />
	</node>
	<node id="-851048" lat="68.5568861134" lon="15.7938666737">
		<tag k="name" v="Larsenbukta" />
		<tag k="natural" v="bay" />
		<tag k="ssr:stedsnr" v="51940" />
	</node>
	<node id="-850876" lat="68.6210166673" lon="15.8202555602">
		<tag k="name" v="Hestnesholmen" />
		<tag k="natural" v="cape" />
		<tag k="ssr:stedsnr" v="806353" />
	</node>
	<node id="-850532" lat="68.5849888891" lon="15.8193944536">
		<tag k="name" v="Tennholmen" />
		<tag k="place" v="islet" />
		<tag k="ssr:stedsnr" v="503788" />
	</node>
	<node id="-851555" lat="68.879872224" lon="16.0735889">
		<tag k="alt_name" v="Svartskjeran" />
		<tag k="fixme" v="consider seamark:type=rock or natural=shoal" />
		<tag k="name" v="Svartskjæret" />
		<tag k="place" v="islet" />
		<tag k="ssr:stedsnr" v="563065" />
	</node>
	<node id="-851554" lat="68.8571666653" lon="15.9995499978">
		<tag k="name" v="Svartberget" />
		<tag k="natural" v="cape" />
		<tag k="ssr:stedsnr" v="563028" />
	</node>
	<node id="-851553" lat="68.8521944415" lon="16.1700277777">
		<tag k="alt_name" v="Hangtangen" />
		<tag k="name" v="Haugtangen" />
		<tag k="natural" v="cape" />
		<tag k="ssr:stedsnr" v="563021" />
	</node>
	<node id="-851038" lat="68.866955552" lon="16.028716676">
		<tag k="name" v="Eidet" />
		<tag k="place" v="locality" />
		<tag k="ssr:stedsnr" v="51437" />
	</node>
	<node id="-851549" lat="68.5824611135" lon="15.7947249965">
		<tag k="name" v="Bekkenesbukta" />
		<tag k="natural" v="bay" />
		<tag k="ssr:stedsnr" v="537853" />
	</node>
	<node id="-850264" lat="68.7535999952" lon="16.2481888963">
		<tag k="name" v="Vikelandsbukta" />
		<tag k="natural" v="bay" />
		<tag k="ssr:stedsnr" v="260468" />
	</node>
	<node id="-850523" lat="68.7356204743" lon="16.2059119846">
		<tag k="name" v="Salen" />
		<tag k="natural" v="cape" />
		<tag k="ssr:stedsnr" v="503430" />
	</node>
	<node id="-851546" lat="68.5895472263" lon="15.7914055533">
		<tag k="name" v="Litjegrasneset" />
		<tag k="natural" v="cape" />
		<tag k="ssr:stedsnr" v="537842" />
	</node>
	<node id="-850521" lat="68.6160472262" lon="15.7696138972">
		<tag k="name" v="Langvassbukta" />
		<tag k="natural" v="bay" />
		<tag k="ssr:stedsnr" v="503343" />
	</node>
	<node id="-850539" lat="68.5589333321" lon="15.7722944316">
		<tag k="name" v="Løbergsneset" />
		<tag k="natural" v="cape" />
		<tag k="ssr:stedsnr" v="503815" />
	</node>
	<node id="-851031" lat="68.8814222204" lon="16.0541638858">
		<tag k="fixme" v="consider seamark:type=rock or natural=shoal" />
		<tag k="name" v="Skarvhausan" />
		<tag k="place" v="islet" />
		<tag k="ssr:stedsnr" v="35908" />
	</node>
	<node id="-850215" lat="68.6563472202" lon="15.8887138757">
		<tag k="name" v="Litjesteinneset" />
		<tag k="natural" v="cape" />
		<tag k="ssr:stedsnr" v="52154" />
	</node>
	<node id="-850873" lat="68.7641055534" lon="16.1753361077">
		<tag k="name" v="Bygdesundet" />
		<tag k="natural" v="strait" />
		<tag k="ssr:stedsnr" v="806163" />
	</node>
	<node id="-851307" lat="68.8290333344" lon="15.9681555563">
		<tag k="name" v="Valen" />
		<tag k="natural" v="bay" />
		<tag k="ssr:stedsnr" v="321105" />
	</node>
	<node id="-850275" lat="68.5503611139" lon="15.7733111211">
		<tag k="name" v="Kvalbukta - Geaiggaidluokta" />
		<tag k="name:no" v="Kvalbukta" />
		<tag k="name:se" v="Geaiggaidluokta" />
		<tag k="natural" v="bay" />
		<tag k="ssr:stedsnr" v="260913" />
	</node>
	<node id="-851024" lat="68.5928916687" lon="15.8172222125">
		<tag k="name" v="Skinnhallarbukta" />
		<tag k="natural" v="bay" />
		<tag k="ssr:stedsnr" v="18782" />
	</node>
	<node id="-850511" lat="68.85918611" lon="16.0008638921">
		<tag k="name" v="Gullberghamn" />
		<tag k="natural" v="bay" />
		<tag k="ssr:stedsnr" v="503047" />
	</node>
	<node id="-850510" lat="68.8632805549" lon="16.0107527836">
		<tag k="alt_name" v="Molvika" />
		<tag k="name" v="Mollvika" />
		<tag k="natural" v="bay" />
		<tag k="ssr:stedsnr" v="503045" />
	</node>
	<node id="-850957" lat="68.6296944438" lon="15.8368916613">
		<tag k="name" v="Tjeldneset" />
		<tag k="natural" v="cape" />
		<tag k="ssr:stedsnr" v="928305" />
	</node>
	<node id="-851532" lat="68.7732888908" lon="16.1665111008">
		<tag k="name" v="Leikvika" />
		<tag k="natural" v="bay" />
		<tag k="old_name" v="Leirvika" />
		<tag k="ssr:stedsnr" v="537646" />
	</node>
	<node id="-851019" lat="68.7000416673" lon="16.048063894">
		<tag k="name" v="Tomasneset" />
		<tag k="natural" v="cape" />
		<tag k="ssr:stedsnr" v="18447" />
	</node>
	<node id="-851017" lat="68.8843861135" lon="16.0656722187">
		<tag k="name" v="Varden" />
		<tag k="natural" v="cape" />
		<tag k="ssr:stedsnr" v="18425" />
	</node>
	<node id="-851528" lat="68.6364388844" lon="16.0658611157">
		<tag k="name" v="Leirvika" />
		<tag k="natural" v="bay" />
		<tag k="ssr:stedsnr" v="537439" />
	</node>
	<node id="-850531" lat="68.5961444477" lon="15.8162000029">
		<tag k="alt_name" v="Resodden" />
		<tag k="name" v="Ressodden" />
		<tag k="natural" v="cape" />
		<tag k="ssr:stedsnr" v="503784" />
	</node>
	<node id="-851013" lat="68.7485833344" lon="16.1482333388">
		<tag k="fixme" v="multiple name tags, choose one and add the other to alt_name" />
		<tag k="name" v="Hageskårneset;Havreskorneset" />
		<tag k="natural" v="cape" />
		<tag k="ssr:stedsnr" v="18383" />
	</node>
	<node id="-851011" lat="68.8583666649" lon="16.0312194546">
		<tag k="name" v="Seljevika" />
		<tag k="natural" v="bay" />
		<tag k="ssr:stedsnr" v="18055" />
	</node>
	<node id="-851010" lat="68.8525805592" lon="16.0004388902">
		<tag k="name" v="Gapøya" />
		<tag k="place" v="island" />
		<tag k="ssr:stedsnr" v="18024" />
	</node>
	<node id="-851004" lat="68.7643472262" lon="16.132538884">
		<tag k="alt_name" v="Lundbogen" />
		<tag k="name" v="Lundebogen" />
		<tag k="natural" v="bay" />
		<tag k="ssr:stedsnr" v="17189" />
	</node>
	<node id="-851210" lat="68.5965083341" lon="15.8172472276">
		<tag k="fixme" v="consider seamark:type=rock or natural=shoal" />
		<tag k="name" v="Gullet" />
		<tag k="place" v="islet" />
		<tag k="ssr:stedsnr" v="172190" />
	</node>
	<node id="-850879" lat="68.8373472188" lon="15.972563878">
		<tag k="alt_name" v="Litleklubba" />
		<tag k="name" v="Litjeklubba" />
		<tag k="natural" v="cape" />
		<tag k="ssr:stedsnr" v="928013" />
	</node>
	<node id="-850197" lat="68.5409749979" lon="15.753180548">
		<tag k="name" v="Daskaneset" />
		<tag k="natural" v="cape" />
		<tag k="ssr:stedsnr" v="233840" />
	</node>
	<node id="-850487" lat="68.714225" lon="16.3024611126">
		<tag k="name" v="Jensekaia" />
		<tag k="natural" v="cape" />
		<tag k="ssr:stedsnr" v="476550" />
	</node>
	<node id="-850997" lat="68.8445472199" lon="15.9712027689">
		<tag k="name" v="Storklubba" />
		<tag k="natural" v="cape" />
		<tag k="ssr:stedsnr" v="17026" />
	</node>
	<node id="-850526" lat="68.5358944476" lon="15.7372305613">
		<tag k="loc_name:se" v="Gollevuonbahta" />
		<tag k="name" v="Gullesfjordbotn" />
		<tag k="name:no" v="Gullesfjordbotn" />
		<tag k="natural" v="bay" />
		<tag k="ssr:stedsnr" v="503699" />
	</node>
	<node id="-850623" lat="68.8604194454" lon="16.1210888889">
		<tag k="name" v="Olsbåen" />
		<tag k="natural" v="shoal" />
		<tag k="place" v="locality" />
		<tag k="ssr:stedsnr" v="685050" />
	</node>
	<node id="-851505" lat="68.8848222218" lon="16.0476666541">
		<tag k="fixme" v="consider seamark:type=rock or natural=shoal" />
		<tag k="name" v="Varden" />
		<tag k="place" v="islet" />
		<tag k="ssr:stedsnr" v="536397" />
	</node>
	<node id="-850299" lat="68.8765333299" lon="16.0441138808">
		<tag k="alt_name" v="Tjuvskjeret" />
		<tag k="fixme" v="consider seamark:type=rock or natural=shoal" />
		<tag k="name" v="Tjuvskjæret" />
		<tag k="place" v="islet" />
		<tag k="ssr:stedsnr" v="261475" />
	</node>
	<node id="-851502" lat="68.6520055569" lon="15.8524138935">
		<tag k="name" v="Gambogbukta" />
		<tag k="natural" v="bay" />
		<tag k="ssr:stedsnr" v="522643" />
	</node>
	<node id="-851148" lat="68.5886111122" lon="15.7916472338">
		<tag k="name" v="Støttingsneset" />
		<tag k="natural" v="cape" />
		<tag k="ssr:stedsnr" v="112862" />
	</node>
	<node id="-850985" lat="68.6531333302" lon="16.0850333298">
		<tag k="name" v="Melkevikneset" />
		<tag k="natural" v="cape" />
		<tag k="ssr:stedsnr" v="962454" />
	</node>
	<node id="-851323" lat="68.8158055556" lon="15.9121333315">
		<tag k="bay" v="fjord" />
		<tag k="name" v="Godfjorden - Guovvuotna" />
		<tag k="name:no" v="Godfjorden" />
		<tag k="name:se" v="Guovvuotna" />
		<tag k="natural" v="bay" />
		<tag k="ssr:stedsnr" v="321410" />
	</node>
	<node id="-850467" lat="68.6471361073" lon="16.0613777715">
		<tag k="name" v="Kvalryggen" />
		<tag k="natural" v="cape" />
		<tag k="ssr:stedsnr" v="476072" />
	</node>
	<node id="-850466" lat="68.6273888856" lon="15.7759166571">
		<tag k="name" v="Sæterbukta" />
		<tag k="natural" v="bay" />
		<tag k="ssr:stedsnr" v="475773" />
	</node>
	<node id="-850463" lat="68.5556500026" lon="15.749580566">
		<tag k="name" v="Raksebukta" />
		<tag k="natural" v="bay" />
		<tag k="ssr:stedsnr" v="475754" />
	</node>
	<node id="-851485" lat="68.7261138904" lon="16.2841583372">
		<tag k="name" v="Storstrauman" />
		<tag k="natural" v="bay" />
		<tag k="ssr:stedsnr" v="416469" />
	</node>
	<node id="-850522" lat="68.6095805586" lon="15.7783444475">
		<tag k="name" v="Torneset" />
		<tag k="natural" v="cape" />
		<tag k="ssr:stedsnr" v="503345" />
	</node>
	<node id="-850566" lat="68.6704611129" lon="16.0371500067">
		<tag k="name" v="Kobbeneset" />
		<tag k="natural" v="cape" />
		<tag k="ssr:stedsnr" v="658025" />
	</node>
	<node id="-851479" lat="68.6570583329" lon="15.8872916562">
		<tag k="name" v="Nilsevika" />
		<tag k="natural" v="bay" />
		<tag k="ssr:stedsnr" v="416154" />
	</node>
	<node id="-850965" lat="68.717519443" lon="15.9912444454">
		<tag k="alt_name" v="Røyrvika" />
		<tag k="name" v="Rørvika" />
		<tag k="natural" v="bay" />
		<tag k="ssr:stedsnr" v="928439" />
	</node>
	<node id="-850452" lat="68.6010222267" lon="15.8221166652">
		<tag k="name" v="Leirvika" />
		<tag k="natural" v="bay" />
		<tag k="ssr:stedsnr" v="475197" />
	</node>
	<node id="-851118" lat="68.6350972247" lon="15.8499305508">
		<tag k="name" v="Austersnaget" />
		<tag k="natural" v="cape" />
		<tag k="ssr:stedsnr" v="112082" />
	</node>
	<node id="-851482" lat="68.637913892" lon="15.84145833">
		<tag k="name" v="Vestersnaget" />
		<tag k="natural" v="cape" />
		<tag k="ssr:stedsnr" v="416166" />
	</node>
	<node id="-850315" lat="68.7586027745" lon="16.0940444428">
		<tag k="name" v="Skårneset" />
		<tag k="natural" v="cape" />
		<tag k="ssr:stedsnr" v="138189" />
	</node>
	<node id="-851472" lat="68.6686472198" lon="16.0503249937">
		<tag k="name" v="Osen" />
		<tag k="natural" v="bay" />
		<tag k="ssr:stedsnr" v="416039" />
	</node>
	<node id="-851800" lat="68.6370555565" lon="15.8926777775">
		<tag k="name" v="Plassneset" />
		<tag k="natural" v="cape" />
		<tag k="ssr:stedsnr" v="806327" />
	</node>
	<node id="-851470" lat="68.5683583298" lon="15.8270444426">
		<tag k="name" v="Høgsteinneset" />
		<tag k="natural" v="cape" />
		<tag k="ssr:stedsnr" v="415944" />
	</node>
	<node id="-851469" lat="68.5765000038" lon="15.8267916762">
		<tag k="name" v="Osneset" />
		<tag k="natural" v="cape" />
		<tag k="ssr:stedsnr" v="415941" />
	</node>
	<node id="-850956" lat="68.5877444437" lon="15.7918249985">
		<tag k="name" v="Steinneset" />
		<tag k="natural" v="cape" />
		<tag k="ssr:stedsnr" v="901872" />
	</node>
	<node id="-850400" lat="68.7110444415" lon="16.0507360998">
		<tag k="name" v="Årnesbukta" />
		<tag k="natural" v="bay" />
		<tag k="ssr:stedsnr" v="442478" />
	</node>
	<node id="-850952" lat="68.7233555556" lon="16.2955111081">
		<tag k="name" v="Voktorstranda" />
		<tag k="natural" v="bay" />
		<tag k="ssr:stedsnr" v="901521" />
	</node>
	<node id="-851463" lat="68.6994916675" lon="16.0463250051">
		<tag k="name" v="Tomasnesbukta" />
		<tag k="natural" v="bay" />
		<tag k="ssr:stedsnr" v="415528" />
	</node>
	<node id="-851974" lat="68.7335583358" lon="16.2533555611">
		<tag k="name" v="Vika" />
		<tag k="natural" v="bay" />
		<tag k="ssr:stedsnr" v="962496" />
	</node>
	<node id="-851150" lat="68.556683332" lon="15.7992000021">
		<tag k="name" v="Hundnesbukta" />
		<tag k="natural" v="bay" />
		<tag k="ssr:stedsnr" v="112937" />
	</node>
	<node id="-850434" lat="68.711372222" lon="16.2930416567">
		<tag k="name" v="Sjøholman" />
		<tag k="natural" v="cape" />
		<tag k="ssr:stedsnr" v="234621" />
>>>>>>> e1d4bc35ff8a6074a6f2e91616a996b547c36f15
	</node>
</osm>
