<?xml version="1.0" encoding="UTF-8"?>
<osm generator="osmapis" version="0.6">
	<node id="-21206" lat="59.6412361145" lon="10.9688583269">
		<tag k="bridge" v="yes" />
		<tag k="layer" v="1" />
		<tag k="name" v="Klågot" />
		<tag k="ssr:date" v="2016-05-11" />
		<tag k="ssr:gruppe" v="samferdselsanlegg" />
		<tag k="ssr:hovedgruppe" v="infrastruktur" />
		<tag k="ssr:stedsnr" v="956493" />
		<tag k="ssr:type" v="bru" />
	</node>
	<node id="-21205" lat="59.6862194437" lon="11.0403333298">
		<tag k="bridge" v="yes" />
		<tag k="layer" v="1" />
		<tag k="name" v="Jaren" />
		<tag k="ssr:date" v="2016-05-11" />
		<tag k="ssr:gruppe" v="samferdselsanlegg" />
		<tag k="ssr:hovedgruppe" v="infrastruktur" />
		<tag k="ssr:stedsnr" v="956491" />
		<tag k="ssr:type" v="bru" />
	</node>
	<node id="-21204" lat="59.6227638876" lon="10.9523694477">
		<tag k="bridge" v="yes" />
		<tag k="layer" v="1" />
		<tag k="name" v="Bovim" />
		<tag k="ssr:date" v="2016-05-11" />
		<tag k="ssr:gruppe" v="samferdselsanlegg" />
		<tag k="ssr:hovedgruppe" v="infrastruktur" />
		<tag k="ssr:stedsnr" v="956487" />
		<tag k="ssr:type" v="bru" />
	</node>
	<node id="-21203" lat="59.6220611106" lon="10.9712305515">
		<tag k="bridge" v="yes" />
		<tag k="layer" v="1" />
		<tag k="name" v="Foss" />
		<tag k="ssr:date" v="2016-05-11" />
		<tag k="ssr:gruppe" v="samferdselsanlegg" />
		<tag k="ssr:hovedgruppe" v="infrastruktur" />
		<tag k="ssr:stedsnr" v="956484" />
		<tag k="ssr:type" v="bru" />
	</node>
	<node id="-21202" lat="59.6282166705" lon="10.9255611035">
		<tag k="name" v="Kølabonn" />
		<tag k="place" v="farm" />
		<tag k="ssr:date" v="2016-05-11" />
		<tag k="ssr:gruppe" v="gardsbebyggelse" />
		<tag k="ssr:hovedgruppe" v="bebyggelse" />
		<tag k="ssr:stedsnr" v="933931" />
		<tag k="ssr:type" v="bruk" />
	</node>
	<node id="-21201" lat="59.6371469442" lon="10.9388579531">
		<tag k="alt_name" v="Skog nordre" />
		<tag k="fixme" v="consider place=hamlet" />
		<tag k="name" v="Nordre Skog" />
		<tag k="place" v="farm" />
		<tag k="ssr:date" v="2019-02-12" />
		<tag k="ssr:gruppe" v="gardsbebyggelse" />
		<tag k="ssr:hovedgruppe" v="bebyggelse" />
		<tag k="ssr:stedsnr" v="933930" />
		<tag k="ssr:type" v="gard" />
	</node>
	<node id="-21200" lat="59.6349222201" lon="10.9388472135">
		<tag k="alt_name" v="Skog søndre" />
		<tag k="fixme" v="consider place=hamlet" />
		<tag k="name" v="Søndre Skog" />
		<tag k="place" v="farm" />
		<tag k="ssr:date" v="2019-02-12" />
		<tag k="ssr:gruppe" v="gardsbebyggelse" />
		<tag k="ssr:hovedgruppe" v="bebyggelse" />
		<tag k="ssr:stedsnr" v="933928" />
		<tag k="ssr:type" v="gard" />
	</node>
	<node id="-21199" lat="59.5593027808" lon="10.7912944378">
		<tag k="name" v="Garderbekken" />
		<tag k="ssr:date" v="2016-05-11" />
		<tag k="ssr:gruppe" v="rennendeVann" />
		<tag k="ssr:hovedgruppe" v="ferskvann" />
		<tag k="ssr:stedsnr" v="933898" />
		<tag k="ssr:type" v="bekk" />
		<tag k="waterway" v="stream" />
	</node>
	<node id="-21198" lat="59.6442555584" lon="10.9668444466">
		<tag k="name" v="Kastet" />
		<tag k="natural" v="hill" />
		<tag k="place" v="locality" />
		<tag k="ssr:date" v="2016-05-11" />
		<tag k="ssr:gruppe" v="høyder" />
		<tag k="ssr:hovedgruppe" v="terreng" />
		<tag k="ssr:stedsnr" v="932809" />
		<tag k="ssr:type" v="høyde" />
	</node>
	<node id="-21197" lat="59.6412250025" lon="11.0085638901">
		<tag k="fixme" v="consider natural=peak for the most distinct mountains in the district" />
		<tag k="name" v="Lillebyåsen" />
		<tag k="natural" v="hill" />
		<tag k="place" v="locality" />
		<tag k="ssr:date" v="2016-05-11" />
		<tag k="ssr:gruppe" v="høyder" />
		<tag k="ssr:hovedgruppe" v="terreng" />
		<tag k="ssr:stedsnr" v="932766" />
		<tag k="ssr:type" v="ås" />
	</node>
	<node id="-21196" lat="59.5880416628" lon="11.002280555">
		<tag k="name" v="Hareposten" />
		<tag k="natural" v="hill" />
		<tag k="place" v="locality" />
		<tag k="ssr:date" v="2016-05-11" />
		<tag k="ssr:gruppe" v="høyder" />
		<tag k="ssr:hovedgruppe" v="terreng" />
		<tag k="ssr:stedsnr" v="932751" />
		<tag k="ssr:type" v="høyde" />
	</node>
	<node id="-21195" lat="59.6289833311" lon="10.9478444462">
		<tag k="name" v="Nærbølhagen" />
		<tag k="place" v="farm" />
		<tag k="ssr:date" v="2016-05-11" />
		<tag k="ssr:gruppe" v="gardsbebyggelse" />
		<tag k="ssr:hovedgruppe" v="bebyggelse" />
		<tag k="ssr:stedsnr" v="932738" />
		<tag k="ssr:type" v="bruk" />
	</node>
	<node id="-21194" lat="59.6144333378" lon="10.9904805594">
		<tag k="name" v="Sandakerbekken" />
		<tag k="ssr:date" v="2016-05-11" />
		<tag k="ssr:gruppe" v="rennendeVann" />
		<tag k="ssr:hovedgruppe" v="ferskvann" />
		<tag k="ssr:stedsnr" v="932732" />
		<tag k="ssr:type" v="bekk" />
		<tag k="waterway" v="stream" />
	</node>
	<node id="-21193" lat="59.6040638848" lon="10.9491472249">
		<tag k="name" v="Ommedalen" />
		<tag k="natural" v="valley" />
		<tag k="place" v="locality" />
		<tag k="ssr:date" v="2016-05-11" />
		<tag k="ssr:gruppe" v="senkninger" />
		<tag k="ssr:hovedgruppe" v="terreng" />
		<tag k="ssr:stedsnr" v="932727" />
		<tag k="ssr:type" v="dal" />
	</node>
	<node id="-21192" lat="59.5974444415" lon="11.0083333262">
		<tag k="name" v="Sagholtet" />
		<tag k="place" v="locality" />
		<tag k="ssr:date" v="2016-05-11" />
		<tag k="ssr:gruppe" v="vegetasjon" />
		<tag k="ssr:hovedgruppe" v="markslag" />
		<tag k="ssr:stedsnr" v="932722" />
		<tag k="ssr:type" v="skog" />
	</node>
	<node id="-21191" lat="59.6689611105" lon="11.0152305512">
		<tag k="name" v="Norddalen" />
		<tag k="natural" v="valley" />
		<tag k="place" v="locality" />
		<tag k="ssr:date" v="2016-05-11" />
		<tag k="ssr:gruppe" v="senkninger" />
		<tag k="ssr:hovedgruppe" v="terreng" />
		<tag k="ssr:stedsnr" v="932708" />
		<tag k="ssr:type" v="dal" />
	</node>
	<node id="-21190" lat="59.6990222234" lon="10.9686083362">
		<tag k="alt_name" v="Gørjetjern" />
		<tag k="name" v="Gjørjetjernet" />
		<tag k="natural" v="water" />
		<tag k="ssr:date" v="2016-05-11" />
		<tag k="ssr:gruppe" v="stilleståendeVann" />
		<tag k="ssr:hovedgruppe" v="ferskvann" />
		<tag k="ssr:stedsnr" v="914413" />
		<tag k="ssr:type" v="tjern" />
	</node>
	<node id="-21189" lat="59.5513472191" lon="10.8464055636">
		<tag k="alt_name" v="Skjelfoss" />
		<tag k="name" v="Skjellfoss" />
		<tag k="place" v="farm" />
		<tag k="ssr:date" v="2016-05-11" />
		<tag k="ssr:gruppe" v="gardsbebyggelse" />
		<tag k="ssr:hovedgruppe" v="bebyggelse" />
		<tag k="ssr:stedsnr" v="914264" />
		<tag k="ssr:type" v="bruk" />
	</node>
	<node id="-21188" lat="59.5472833325" lon="10.8141138838">
		<tag k="name" v="Bråte" />
		<tag k="place" v="farm" />
		<tag k="ssr:date" v="2016-05-11" />
		<tag k="ssr:gruppe" v="gardsbebyggelse" />
		<tag k="ssr:hovedgruppe" v="bebyggelse" />
		<tag k="ssr:stedsnr" v="914241" />
		<tag k="ssr:type" v="bruk" />
	</node>
	<node id="-21187" lat="59.5762249983" lon="10.8835722208">
		<tag k="name" v="Eng" />
		<tag k="place" v="farm" />
		<tag k="ssr:date" v="2016-05-11" />
		<tag k="ssr:gruppe" v="gardsbebyggelse" />
		<tag k="ssr:hovedgruppe" v="bebyggelse" />
		<tag k="ssr:stedsnr" v="914231" />
		<tag k="ssr:type" v="bruk" />
	</node>
	<node id="-21186" lat="59.5710583311" lon="10.8907361105">
		<tag k="name" v="Holstad" />
		<tag k="place" v="farm" />
		<tag k="ssr:date" v="2016-05-11" />
		<tag k="ssr:gruppe" v="gardsbebyggelse" />
		<tag k="ssr:hovedgruppe" v="bebyggelse" />
		<tag k="ssr:stedsnr" v="914227" />
		<tag k="ssr:type" v="bruk" />
	</node>
	<node id="-21185" lat="59.5653055587" lon="10.8785527775">
		<tag k="name" v="Rom" />
		<tag k="place" v="farm" />
		<tag k="ssr:date" v="2016-05-11" />
		<tag k="ssr:gruppe" v="gardsbebyggelse" />
		<tag k="ssr:hovedgruppe" v="bebyggelse" />
		<tag k="ssr:stedsnr" v="914204" />
		<tag k="ssr:type" v="bruk" />
	</node>
	<node id="-21184" lat="59.5771249995" lon="10.9424833259">
		<tag k="name" v="Gaukestua" />
		<tag k="place" v="isolated_dwelling" />
		<tag k="ssr:date" v="2016-05-11" />
		<tag k="ssr:gruppe" v="bolighus" />
		<tag k="ssr:hovedgruppe" v="bebyggelse" />
		<tag k="ssr:stedsnr" v="914178" />
		<tag k="ssr:type" v="fritidsbolig" />
	</node>
	<node id="-21183" lat="59.6684277824" lon="11.0153249932">
		<tag k="name" v="Kråkeruddalen" />
		<tag k="place" v="farm" />
		<tag k="ssr:date" v="2016-05-11" />
		<tag k="ssr:gruppe" v="gardsbebyggelse" />
		<tag k="ssr:hovedgruppe" v="bebyggelse" />
		<tag k="ssr:stedsnr" v="913444" />
		<tag k="ssr:type" v="bruk" />
	</node>
	<node id="-21182" lat="59.627563888" lon="10.984836116">
		<tag k="name" v="Torp" />
		<tag k="place" v="farm" />
		<tag k="ssr:date" v="2016-05-11" />
		<tag k="ssr:gruppe" v="gardsbebyggelse" />
		<tag k="ssr:hovedgruppe" v="bebyggelse" />
		<tag k="ssr:stedsnr" v="913324" />
		<tag k="ssr:type" v="bruk" />
	</node>
	<node id="-21181" lat="59.6325999966" lon="11.0158361103">
		<tag k="name" v="Nordenga" />
		<tag k="place" v="farm" />
		<tag k="ssr:date" v="2016-05-11" />
		<tag k="ssr:gruppe" v="gardsbebyggelse" />
		<tag k="ssr:hovedgruppe" v="bebyggelse" />
		<tag k="ssr:stedsnr" v="913307" />
		<tag k="ssr:type" v="bruk" />
	</node>
	<node id="-21180" lat="59.6315305547" lon="11.0527361081">
		<tag k="name" v="Hollebøl" />
		<tag k="place" v="farm" />
		<tag k="ssr:date" v="2016-05-11" />
		<tag k="ssr:gruppe" v="gardsbebyggelse" />
		<tag k="ssr:hovedgruppe" v="bebyggelse" />
		<tag k="ssr:stedsnr" v="913305" />
		<tag k="ssr:type" v="bruk" />
	</node>
	<node id="-21179" lat="59.6357192206" lon="10.9391093503">
		<tag k="name" v="Skog" />
		<tag k="place" v="hamlet" />
		<tag k="ssr:date" v="2019-01-14" />
		<tag k="ssr:gruppe" v="gardsbebyggelse" />
		<tag k="ssr:hovedgruppe" v="bebyggelse" />
		<tag k="ssr:stedsnr" v="913297" />
		<tag k="ssr:type" v="navnegard" />
	</node>
	<node id="-21178" lat="59.6553333302" lon="11.023449997">
		<tag k="name" v="Roås" />
		<tag k="place" v="farm" />
		<tag k="ssr:date" v="2016-05-11" />
		<tag k="ssr:gruppe" v="gardsbebyggelse" />
		<tag k="ssr:hovedgruppe" v="bebyggelse" />
		<tag k="ssr:stedsnr" v="913249" />
		<tag k="ssr:type" v="bruk" />
	</node>
	<node id="-21177" lat="59.5543444471" lon="10.9136499986">
		<tag k="name" v="Bakken" />
		<tag k="place" v="locality" />
		<tag k="ssr:date" v="2016-05-11" />
		<tag k="ssr:gruppe" v="gardsbebyggelse" />
		<tag k="ssr:hovedgruppe" v="bebyggelse" />
		<tag k="ssr:stedsnr" v="873912" />
		<tag k="ssr:type" v="eiendom" />
	</node>
	<node id="-21176" lat="59.57036111" lon="10.9373694472">
		<tag k="fixme" v="consider natural=peak for the most distinct mountains in the district" />
		<tag k="name" v="Svenskeåsen" />
		<tag k="natural" v="hill" />
		<tag k="place" v="locality" />
		<tag k="ssr:date" v="2016-05-11" />
		<tag k="ssr:gruppe" v="høyder" />
		<tag k="ssr:hovedgruppe" v="terreng" />
		<tag k="ssr:stedsnr" v="873902" />
		<tag k="ssr:type" v="ås" />
	</node>
	<node id="-21175" lat="59.5712333334" lon="10.8685999913">
		<tag k="name" v="Kolstad" />
		<tag k="place" v="farm" />
		<tag k="ssr:date" v="2016-05-11" />
		<tag k="ssr:gruppe" v="gardsbebyggelse" />
		<tag k="ssr:hovedgruppe" v="bebyggelse" />
		<tag k="ssr:stedsnr" v="873894" />
		<tag k="ssr:type" v="bruk" />
	</node>
	<node id="-21174" lat="59.6185694464" lon="10.9224416584">
		<tag k="name" v="Groterud" />
		<tag k="place" v="isolated_dwelling" />
		<tag k="ssr:date" v="2016-05-11" />
		<tag k="ssr:gruppe" v="bolighus" />
		<tag k="ssr:hovedgruppe" v="bebyggelse" />
		<tag k="ssr:stedsnr" v="872967" />
		<tag k="ssr:type" v="eneboligMindreBoligbygg" />
	</node>
	<node id="-21173" lat="59.5498611073" lon="10.7937111191">
		<tag k="alt_name" v="Oddestad vestre" />
		<tag k="name" v="Vestre Oddestad" />
		<tag k="place" v="farm" />
		<tag k="ssr:date" v="2016-05-11" />
		<tag k="ssr:gruppe" v="gardsbebyggelse" />
		<tag k="ssr:hovedgruppe" v="bebyggelse" />
		<tag k="ssr:stedsnr" v="871878" />
		<tag k="ssr:type" v="bruk" />
	</node>
	<node id="-21172" lat="59.6422416695" lon="10.9737611043">
		<tag k="name" v="Sagbakken" />
		<tag k="place" v="farm" />
		<tag k="ssr:date" v="2016-05-11" />
		<tag k="ssr:gruppe" v="gardsbebyggelse" />
		<tag k="ssr:hovedgruppe" v="bebyggelse" />
		<tag k="ssr:stedsnr" v="871806" />
		<tag k="ssr:type" v="bruk" />
	</node>
	<node id="-21171" lat="59.6935083304" lon="10.9867222197">
		<tag k="fixme" v="consider natural=peak for the most distinct mountains in the district" />
		<tag k="name" v="Lauvåsen" />
		<tag k="natural" v="hill" />
		<tag k="place" v="locality" />
		<tag k="ssr:date" v="2016-05-11" />
		<tag k="ssr:gruppe" v="høyder" />
		<tag k="ssr:hovedgruppe" v="terreng" />
		<tag k="ssr:stedsnr" v="871796" />
		<tag k="ssr:type" v="ås" />
	</node>
	<node id="-21170" lat="59.7010249957" lon="10.9937666675">
		<tag k="name" v="Gaupesteinmosen" />
		<tag k="natural" v="wetland" />
		<tag k="ssr:date" v="2016-05-11" />
		<tag k="ssr:gruppe" v="våtmark" />
		<tag k="ssr:hovedgruppe" v="markslag" />
		<tag k="ssr:stedsnr" v="871792" />
		<tag k="ssr:type" v="myr" />
	</node>
	<node id="-21169" lat="59.692511107" lon="11.0091361172">
		<tag k="fixme" v="consider natural=peak for the most distinct mountains in the district" />
		<tag k="name" v="Elgmyråsen" />
		<tag k="natural" v="hill" />
		<tag k="place" v="locality" />
		<tag k="ssr:date" v="2016-05-11" />
		<tag k="ssr:gruppe" v="høyder" />
		<tag k="ssr:hovedgruppe" v="terreng" />
		<tag k="ssr:stedsnr" v="871779" />
		<tag k="ssr:type" v="ås" />
	</node>
	<node id="-21168" lat="59.6519583373" lon="11.0085972228">
		<tag k="name" v="Tomter" />
		<tag k="place" v="farm" />
		<tag k="ssr:date" v="2016-05-11" />
		<tag k="ssr:gruppe" v="gardsbebyggelse" />
		<tag k="ssr:hovedgruppe" v="bebyggelse" />
		<tag k="ssr:stedsnr" v="871774" />
		<tag k="ssr:type" v="bruk" />
	</node>
	<node id="-21167" lat="59.6742361117" lon="10.9700638923">
		<tag k="name" v="Svanesund" />
		<tag k="place" v="farm" />
		<tag k="ssr:date" v="2016-05-11" />
		<tag k="ssr:gruppe" v="gardsbebyggelse" />
		<tag k="ssr:hovedgruppe" v="bebyggelse" />
		<tag k="ssr:stedsnr" v="871761" />
		<tag k="ssr:type" v="bruk" />
	</node>
	<node id="-21166" lat="59.6002555598" lon="10.9633250003">
		<tag k="name" v="Brånen" />
		<tag k="place" v="locality" />
		<tag k="ssr:date" v="2016-05-11" />
		<tag k="ssr:gruppe" v="dyrkamark" />
		<tag k="ssr:hovedgruppe" v="markslag" />
		<tag k="ssr:stedsnr" v="871750" />
		<tag k="ssr:type" v="utmark" />
	</node>
	<node id="-21165" lat="59.6140027817" lon="10.9924055527">
		<tag k="name" v="Vestenga" />
		<tag k="place" v="locality" />
		<tag k="ssr:date" v="2016-05-11" />
		<tag k="ssr:gruppe" v="dyrkamark" />
		<tag k="ssr:hovedgruppe" v="markslag" />
		<tag k="ssr:stedsnr" v="871747" />
		<tag k="ssr:type" v="jorde" />
	</node>
	<node id="-21164" lat="59.6830972235" lon="11.049408331">
		<tag k="alt_name" v="Jaren Øvre" />
		<tag k="name" v="Øvre Jaren" />
		<tag k="place" v="farm" />
		<tag k="ssr:date" v="2016-05-11" />
		<tag k="ssr:gruppe" v="gardsbebyggelse" />
		<tag k="ssr:hovedgruppe" v="bebyggelse" />
		<tag k="ssr:stedsnr" v="854408" />
		<tag k="ssr:type" v="bruk" />
	</node>
	<node id="-21163" lat="59.572522219" lon="10.8857361071">
		<tag k="name" v="Tisbjørnrud" />
		<tag k="place" v="farm" />
		<tag k="ssr:date" v="2016-05-11" />
		<tag k="ssr:gruppe" v="gardsbebyggelse" />
		<tag k="ssr:hovedgruppe" v="bebyggelse" />
		<tag k="ssr:stedsnr" v="854197" />
		<tag k="ssr:type" v="bruk" />
	</node>
	<node id="-21162" lat="59.5322833312" lon="10.8003055586">
		<tag k="alt_name" v="Daltun" />
		<tag k="name" v="Bekkhusmyra" />
		<tag k="place" v="farm" />
		<tag k="ssr:date" v="2016-05-11" />
		<tag k="ssr:gruppe" v="gardsbebyggelse" />
		<tag k="ssr:hovedgruppe" v="bebyggelse" />
		<tag k="ssr:stedsnr" v="854005" />
		<tag k="ssr:type" v="bruk" />
	</node>
	<node id="-21161" lat="59.6912722198" lon="10.9690777689">
		<tag k="fixme" v="consider natural=peak for the most distinct mountains in the district" />
		<tag k="name" v="Vangsåsen" />
		<tag k="natural" v="hill" />
		<tag k="place" v="locality" />
		<tag k="ssr:date" v="2016-05-11" />
		<tag k="ssr:gruppe" v="høyder" />
		<tag k="ssr:hovedgruppe" v="terreng" />
		<tag k="ssr:stedsnr" v="853412" />
		<tag k="ssr:type" v="ås" />
	</node>
	<node id="-21160" lat="59.7045888933" lon="10.9898916601">
		<tag k="name" v="Gaupestein" />
		<tag k="natural" v="stone" />
		<tag k="ssr:date" v="2016-05-11" />
		<tag k="ssr:gruppe" v="løsmasseavsetninger" />
		<tag k="ssr:hovedgruppe" v="markslag" />
		<tag k="ssr:stedsnr" v="853383" />
		<tag k="ssr:type" v="stein" />
	</node>
	<node id="-21159" lat="59.6055805549" lon="10.9093944404">
		<tag k="name" v="Åsen" />
		<tag k="place" v="farm" />
		<tag k="ssr:date" v="2016-05-11" />
		<tag k="ssr:gruppe" v="gardsbebyggelse" />
		<tag k="ssr:hovedgruppe" v="bebyggelse" />
		<tag k="ssr:stedsnr" v="853366" />
		<tag k="ssr:type" v="bruk" />
	</node>
	<node id="-21158" lat="59.6157784855" lon="10.9783807586">
		<tag k="alt_name" v="Riggesem" />
		<tag k="fixme" v="consider place=hamlet" />
		<tag k="name" v="Riggesum" />
		<tag k="place" v="farm" />
		<tag k="ssr:date" v="2019-03-07" />
		<tag k="ssr:gruppe" v="gardsbebyggelse" />
		<tag k="ssr:hovedgruppe" v="bebyggelse" />
		<tag k="ssr:stedsnr" v="853352" />
		<tag k="ssr:type" v="gard" />
	</node>
	<node id="-21157" lat="59.6362361097" lon="11.0465499971">
		<tag k="name" v="Igsi" />
		<tag k="place" v="farm" />
		<tag k="ssr:date" v="2016-05-11" />
		<tag k="ssr:gruppe" v="gardsbebyggelse" />
		<tag k="ssr:hovedgruppe" v="bebyggelse" />
		<tag k="ssr:stedsnr" v="853302" />
		<tag k="ssr:type" v="bruk" />
	</node>
	<node id="-21156" lat="59.5495888894" lon="10.9794861128">
		<tag k="alt_name" v="Gammeleriken" />
		<tag k="fixme" v="consider natural=peak for the most distinct mountains in the district" />
		<tag k="loc_name" v="Gamle-Eriken" />
		<tag k="name" v="Gamleeriken" />
		<tag k="natural" v="hill" />
		<tag k="place" v="locality" />
		<tag k="ssr:date" v="2016-05-11" />
		<tag k="ssr:gruppe" v="høyder" />
		<tag k="ssr:hovedgruppe" v="terreng" />
		<tag k="ssr:stedsnr" v="853206" />
		<tag k="ssr:type" v="ås" />
	</node>
	<node id="-21155" lat="59.6090833378" lon="10.9892583359">
		<tag k="alt_name" v="Storedalsbekken" />
		<tag k="name" v="Stordalsbekken" />
		<tag k="ssr:date" v="2016-05-11" />
		<tag k="ssr:gruppe" v="rennendeVann" />
		<tag k="ssr:hovedgruppe" v="ferskvann" />
		<tag k="ssr:stedsnr" v="853119" />
		<tag k="ssr:type" v="bekk" />
		<tag k="waterway" v="stream" />
	</node>
	<node id="-21154" lat="59.6076527801" lon="10.9164805591">
		<tag k="name" v="Bilitt" />
		<tag k="place" v="farm" />
		<tag k="ssr:date" v="2016-05-11" />
		<tag k="ssr:gruppe" v="gardsbebyggelse" />
		<tag k="ssr:hovedgruppe" v="bebyggelse" />
		<tag k="ssr:stedsnr" v="853116" />
		<tag k="ssr:type" v="bruk" />
	</node>
	<node id="-21153" lat="59.6573666629" lon="10.9956722171">
		<tag k="name" v="Brøholt" />
		<tag k="place" v="farm" />
		<tag k="ssr:date" v="2016-05-11" />
		<tag k="ssr:gruppe" v="gardsbebyggelse" />
		<tag k="ssr:hovedgruppe" v="bebyggelse" />
		<tag k="ssr:stedsnr" v="852474" />
		<tag k="ssr:type" v="bruk" />
	</node>
	<node id="-21152" lat="59.5302805523" lon="10.8800027709">
		<tag k="fixme" v="consider tourism=alpine_hut or tourism=chalet" />
		<tag k="name" v="Askerødhytta" />
		<tag k="ssr:date" v="2016-05-11" />
		<tag k="ssr:gruppe" v="næring" />
		<tag k="ssr:hovedgruppe" v="bebyggelse" />
		<tag k="ssr:stedsnr" v="844894" />
		<tag k="ssr:type" v="turisthytte" />
		<tag k="tourism" v="wilderness_hut" />
	</node>
	<node id="-21151" lat="59.6223138927" lon="10.9839249991">
		<tag k="bridge" v="yes" />
		<tag k="layer" v="1" />
		<tag k="name" v="Hestehavna" />
		<tag k="ssr:date" v="2016-05-11" />
		<tag k="ssr:gruppe" v="samferdselsanlegg" />
		<tag k="ssr:hovedgruppe" v="infrastruktur" />
		<tag k="ssr:stedsnr" v="835499" />
		<tag k="ssr:type" v="bru" />
	</node>
	<node id="-21150" lat="59.5481750016" lon="10.8460083257">
		<tag k="bridge" v="yes" />
		<tag k="layer" v="1" />
		<tag k="name" v="Skjellfoss" />
		<tag k="ssr:date" v="2016-05-11" />
		<tag k="ssr:gruppe" v="samferdselsanlegg" />
		<tag k="ssr:hovedgruppe" v="infrastruktur" />
		<tag k="ssr:stedsnr" v="835498" />
		<tag k="ssr:type" v="bru" />
	</node>
	<node id="-21149" lat="59.5872027799" lon="10.8754083335">
		<tag k="name" v="Snippen" />
		<tag k="place" v="isolated_dwelling" />
		<tag k="ssr:date" v="2016-05-11" />
		<tag k="ssr:gruppe" v="bolighus" />
		<tag k="ssr:hovedgruppe" v="bebyggelse" />
		<tag k="ssr:stedsnr" v="812944" />
		<tag k="ssr:type" v="fritidsbolig" />
	</node>
	<node id="-21148" lat="59.5827527798" lon="10.8387499945">
		<tag k="name" v="Låsken" />
		<tag k="place" v="farm" />
		<tag k="ssr:date" v="2016-05-11" />
		<tag k="ssr:gruppe" v="gardsbebyggelse" />
		<tag k="ssr:hovedgruppe" v="bebyggelse" />
		<tag k="ssr:stedsnr" v="812941" />
		<tag k="ssr:type" v="bruk" />
	</node>
	<node id="-21147" lat="59.5577583299" lon="10.9206916708">
		<tag k="name" v="Piskopp" />
		<tag k="place" v="isolated_dwelling" />
		<tag k="ssr:date" v="2016-05-11" />
		<tag k="ssr:gruppe" v="bolighus" />
		<tag k="ssr:hovedgruppe" v="bebyggelse" />
		<tag k="ssr:stedsnr" v="812918" />
		<tag k="ssr:type" v="eneboligMindreBoligbygg" />
	</node>
	<node id="-21146" lat="59.5827083347" lon="10.9967444433">
		<tag k="name" v="Moenbekken" />
		<tag k="ssr:date" v="2016-05-11" />
		<tag k="ssr:gruppe" v="rennendeVann" />
		<tag k="ssr:hovedgruppe" v="ferskvann" />
		<tag k="ssr:stedsnr" v="811973" />
		<tag k="ssr:type" v="bekk" />
		<tag k="waterway" v="stream" />
	</node>
	<node id="-21145" lat="59.6982916656" lon="11.0032194499">
		<tag k="fixme" v="consider natural=peak for the most distinct mountains in the district" />
		<tag k="name" v="Sponåsen" />
		<tag k="natural" v="hill" />
		<tag k="place" v="locality" />
		<tag k="ssr:date" v="2016-05-11" />
		<tag k="ssr:gruppe" v="høyder" />
		<tag k="ssr:hovedgruppe" v="terreng" />
		<tag k="ssr:stedsnr" v="811779" />
		<tag k="ssr:type" v="ås" />
	</node>
	<node id="-21144" lat="59.68334722" lon="11.0223416614">
		<tag k="fixme" v="consider natural=peak for the most distinct mountains in the district" />
		<tag k="name" v="Surbyåsen" />
		<tag k="natural" v="hill" />
		<tag k="place" v="locality" />
		<tag k="ssr:date" v="2016-05-11" />
		<tag k="ssr:gruppe" v="høyder" />
		<tag k="ssr:hovedgruppe" v="terreng" />
		<tag k="ssr:stedsnr" v="811769" />
		<tag k="ssr:type" v="ås" />
	</node>
	<node id="-21143" lat="59.6125249965" lon="10.9914083338">
		<tag k="name" v="Nordreås" />
		<tag k="place" v="locality" />
		<tag k="ssr:date" v="2016-05-11" />
		<tag k="ssr:gruppe" v="dyrkamark" />
		<tag k="ssr:hovedgruppe" v="markslag" />
		<tag k="ssr:stedsnr" v="811739" />
		<tag k="ssr:type" v="utmark" />
	</node>
	<node id="-21142" lat="59.5994638917" lon="10.9872361198">
		<tag k="name" v="Jutulen" />
		<tag k="place" v="locality" />
		<tag k="ssr:date" v="2016-05-11" />
		<tag k="ssr:gruppe" v="dyrkamark" />
		<tag k="ssr:hovedgruppe" v="markslag" />
		<tag k="ssr:stedsnr" v="811735" />
		<tag k="ssr:type" v="utmark" />
	</node>
	<node id="-21141" lat="59.6706749975" lon="11.0219833308">
		<tag k="name" v="Møllerstua" />
		<tag k="place" v="isolated_dwelling" />
		<tag k="ssr:date" v="2016-05-11" />
		<tag k="ssr:gruppe" v="bolighus" />
		<tag k="ssr:hovedgruppe" v="bebyggelse" />
		<tag k="ssr:stedsnr" v="811729" />
		<tag k="ssr:type" v="fritidsbolig" />
	</node>
	<node id="-21140" lat="59.5497333356" lon="10.799355562">
		<tag k="alt_name" v="Oddestad østre" />
		<tag k="name" v="Østre Oddestad" />
		<tag k="place" v="farm" />
		<tag k="ssr:date" v="2016-05-11" />
		<tag k="ssr:gruppe" v="gardsbebyggelse" />
		<tag k="ssr:hovedgruppe" v="bebyggelse" />
		<tag k="ssr:stedsnr" v="810913" />
		<tag k="ssr:type" v="bruk" />
	</node>
	<node id="-21139" lat="59.6773472268" lon="10.9829861099">
		<tag k="alt_name" v="Svanebakke" />
		<tag k="name" v="Svanebakk" />
		<tag k="place" v="farm" />
		<tag k="ssr:date" v="2016-05-11" />
		<tag k="ssr:gruppe" v="gardsbebyggelse" />
		<tag k="ssr:hovedgruppe" v="bebyggelse" />
		<tag k="ssr:stedsnr" v="792451" />
		<tag k="ssr:type" v="bruk" />
	</node>
	<node id="-21138" lat="59.680572222" lon="10.9649527841">
		<tag k="fixme" v="consider natural=peak for the most distinct mountains in the district" />
		<tag k="name" v="Bjørnåsen" />
		<tag k="natural" v="hill" />
		<tag k="place" v="locality" />
		<tag k="ssr:date" v="2016-05-11" />
		<tag k="ssr:gruppe" v="høyder" />
		<tag k="ssr:hovedgruppe" v="terreng" />
		<tag k="ssr:stedsnr" v="792420" />
		<tag k="ssr:type" v="ås" />
	</node>
	<node id="-21137" lat="59.6125972208" lon="10.9206000061">
		<tag k="name" v="Rød" />
		<tag k="place" v="farm" />
		<tag k="ssr:date" v="2016-05-11" />
		<tag k="ssr:gruppe" v="gardsbebyggelse" />
		<tag k="ssr:hovedgruppe" v="bebyggelse" />
		<tag k="ssr:stedsnr" v="792346" />
		<tag k="ssr:type" v="bruk" />
	</node>
	<node id="-21136" lat="59.6229120977" lon="10.9507461234">
		<tag k="fixme" v="consider place=hamlet" />
		<tag k="name" v="Elvestad" />
		<tag k="place" v="village" />
		<tag k="ssr:date" v="2018-01-23" />
		<tag k="ssr:gruppe" v="bebyggelsesområder" />
		<tag k="ssr:hovedgruppe" v="bebyggelse" />
		<tag k="ssr:stedsnr" v="792315" />
		<tag k="ssr:type" v="bygdelagBygd" />
	</node>
	<node id="-21135" lat="59.6277305567" lon="10.9774722253">
		<tag k="alt_name" v="Vestgård" />
		<tag k="name" v="Vestgard" />
		<tag k="place" v="farm" />
		<tag k="ssr:date" v="2016-05-11" />
		<tag k="ssr:gruppe" v="gardsbebyggelse" />
		<tag k="ssr:hovedgruppe" v="bebyggelse" />
		<tag k="ssr:stedsnr" v="792311" />
		<tag k="ssr:type" v="bruk" />
	</node>
	<node id="-21134" lat="59.5497000001" lon="10.79311112">
		<tag k="name" v="Oddestad" />
		<tag k="place" v="farm" />
		<tag k="ssr:date" v="2016-05-11" />
		<tag k="ssr:gruppe" v="gardsbebyggelse" />
		<tag k="ssr:hovedgruppe" v="bebyggelse" />
		<tag k="ssr:stedsnr" v="792218" />
		<tag k="ssr:type" v="bruk" />
	</node>
	<node id="-21133" lat="59.5938250038" lon="11.0146138805">
		<tag k="name" v="Sagbakken" />
		<tag k="place" v="farm" />
		<tag k="ssr:date" v="2016-05-11" />
		<tag k="ssr:gruppe" v="gardsbebyggelse" />
		<tag k="ssr:hovedgruppe" v="bebyggelse" />
		<tag k="ssr:stedsnr" v="792140" />
		<tag k="ssr:type" v="bruk" />
	</node>
	<node id="-21132" lat="59.5990916694" lon="10.9925861025">
		<tag k="alt_name" v="Jutulåsen" />
		<tag k="fixme" v="consider natural=peak for the most distinct mountains in the district" />
		<tag k="name" v="Jutulen" />
		<tag k="natural" v="hill" />
		<tag k="place" v="locality" />
		<tag k="ssr:date" v="2016-05-11" />
		<tag k="ssr:gruppe" v="høyder" />
		<tag k="ssr:hovedgruppe" v="terreng" />
		<tag k="ssr:stedsnr" v="792138" />
		<tag k="ssr:type" v="ås" />
	</node>
	<node id="-21131" lat="59.5945666655" lon="10.9946555643">
		<tag k="fixme" v="consider natural=peak for the most distinct mountains in the district" />
		<tag k="name" v="Gampåsen" />
		<tag k="natural" v="hill" />
		<tag k="place" v="locality" />
		<tag k="ssr:date" v="2016-05-11" />
		<tag k="ssr:gruppe" v="høyder" />
		<tag k="ssr:hovedgruppe" v="terreng" />
		<tag k="ssr:stedsnr" v="792137" />
		<tag k="ssr:type" v="ås" />
	</node>
	<node id="-21130" lat="59.594127774" lon="10.918252781">
		<tag k="name" v="Berger" />
		<tag k="place" v="farm" />
		<tag k="ssr:date" v="2016-05-11" />
		<tag k="ssr:gruppe" v="gardsbebyggelse" />
		<tag k="ssr:hovedgruppe" v="bebyggelse" />
		<tag k="ssr:stedsnr" v="792133" />
		<tag k="ssr:type" v="bruk" />
	</node>
	<node id="-21129" lat="59.6357499964" lon="10.9629888889">
		<tag k="alt_name" v="Bjørkeskog" />
		<tag k="name" v="Bjerkeskog" />
		<tag k="place" v="farm" />
		<tag k="ssr:date" v="2016-05-11" />
		<tag k="ssr:gruppe" v="gardsbebyggelse" />
		<tag k="ssr:hovedgruppe" v="bebyggelse" />
		<tag k="ssr:stedsnr" v="792039" />
		<tag k="ssr:type" v="bruk" />
	</node>
	<node id="-21128" lat="59.5472138903" lon="10.8488666618">
		<tag k="alt_name" v="Skjelfoss" />
		<tag k="name" v="Skjellfoss" />
		<tag k="place" v="farm" />
		<tag k="ssr:date" v="2016-05-11" />
		<tag k="ssr:gruppe" v="gardsbebyggelse" />
		<tag k="ssr:hovedgruppe" v="bebyggelse" />
		<tag k="ssr:stedsnr" v="792037" />
		<tag k="ssr:type" v="bruk" />
	</node>
	<node id="-21127" lat="59.6607111109" lon="11.0263722277">
		<tag k="alt_name" v="Østereng" />
		<tag k="name" v="Geiteberg" />
		<tag k="place" v="farm" />
		<tag k="ssr:date" v="2016-05-11" />
		<tag k="ssr:gruppe" v="gardsbebyggelse" />
		<tag k="ssr:hovedgruppe" v="bebyggelse" />
		<tag k="ssr:stedsnr" v="791468" />
		<tag k="ssr:type" v="bruk" />
	</node>
	<node id="-21126" lat="59.6638805555" lon="11.0193749961">
		<tag k="name" v="Kråkerud" />
		<tag k="place" v="farm" />
		<tag k="ssr:date" v="2016-05-11" />
		<tag k="ssr:gruppe" v="gardsbebyggelse" />
		<tag k="ssr:hovedgruppe" v="bebyggelse" />
		<tag k="ssr:stedsnr" v="791467" />
		<tag k="ssr:type" v="bruk" />
	</node>
	<node id="-21125" lat="59.6561999977" lon="11.0109527753">
		<tag k="name" v="Nygård" />
		<tag k="place" v="farm" />
		<tag k="ssr:date" v="2016-05-11" />
		<tag k="ssr:gruppe" v="gardsbebyggelse" />
		<tag k="ssr:hovedgruppe" v="bebyggelse" />
		<tag k="ssr:stedsnr" v="791464" />
		<tag k="ssr:type" v="bruk" />
	</node>
	<node id="-21124" lat="59.6650527763" lon="11.0239833391">
		<tag k="name" v="Myra" />
		<tag k="place" v="farm" />
		<tag k="ssr:date" v="2016-05-11" />
		<tag k="ssr:gruppe" v="gardsbebyggelse" />
		<tag k="ssr:hovedgruppe" v="bebyggelse" />
		<tag k="ssr:stedsnr" v="791455" />
		<tag k="ssr:type" v="bruk" />
	</node>
	<node id="-21123" lat="59.6449666707" lon="10.9918944416">
		<tag k="name" v="Vestby" />
		<tag k="place" v="farm" />
		<tag k="ssr:date" v="2016-05-11" />
		<tag k="ssr:gruppe" v="gardsbebyggelse" />
		<tag k="ssr:hovedgruppe" v="bebyggelse" />
		<tag k="ssr:stedsnr" v="791284" />
		<tag k="ssr:type" v="bruk" />
	</node>
	<node id="-21122" lat="59.6390192575" lon="10.9484011392">
		<tag k="name" v="Bråten" />
		<tag k="place" v="farm" />
		<tag k="ssr:date" v="2019-02-12" />
		<tag k="ssr:gruppe" v="gardsbebyggelse" />
		<tag k="ssr:hovedgruppe" v="bebyggelse" />
		<tag k="ssr:stedsnr" v="791277" />
		<tag k="ssr:type" v="bruk" />
	</node>
	<node id="-21121" lat="59.6551916703" lon="11.016875001">
		<tag k="alt_name" v="Blikksland" />
		<tag k="name" v="Bliksland" />
		<tag k="place" v="farm" />
		<tag k="ssr:date" v="2016-05-11" />
		<tag k="ssr:gruppe" v="gardsbebyggelse" />
		<tag k="ssr:hovedgruppe" v="bebyggelse" />
		<tag k="ssr:stedsnr" v="791252" />
		<tag k="ssr:type" v="bruk" />
	</node>
	<node id="-21120" lat="59.5574000021" lon="10.8411861039">
		<tag k="fixme" v="consider place=hamlet" />
		<tag k="name" v="Ringvoll" />
		<tag k="place" v="village" />
		<tag k="ssr:date" v="2016-05-11" />
		<tag k="ssr:gruppe" v="bebyggelsesområder" />
		<tag k="ssr:hovedgruppe" v="bebyggelse" />
		<tag k="ssr:stedsnr" v="752437" />
		<tag k="ssr:type" v="bygdelagBygd" />
	</node>
	<node id="-21119" lat="59.5930777752" lon="10.9404472255">
		<tag k="name" v="Sofiatomta" />
		<tag k="place" v="isolated_dwelling" />
		<tag k="ssr:date" v="2016-05-11" />
		<tag k="ssr:gruppe" v="bolighus" />
		<tag k="ssr:hovedgruppe" v="bebyggelse" />
		<tag k="ssr:stedsnr" v="751950" />
		<tag k="ssr:type" v="fritidsbolig" />
	</node>
	<node id="-21118" lat="59.5542611082" lon="10.8485500072">
		<tag k="name" v="Sprangmyra" />
		<tag k="natural" v="wetland" />
		<tag k="ssr:date" v="2016-05-11" />
		<tag k="ssr:gruppe" v="våtmark" />
		<tag k="ssr:hovedgruppe" v="markslag" />
		<tag k="ssr:stedsnr" v="751929" />
		<tag k="ssr:type" v="myr" />
	</node>
	<node id="-21117" lat="59.5752444417" lon="10.9287027853">
		<tag k="fixme" v="consider natural=peak for the most distinct mountains in the district" />
		<tag k="name" v="Bjørnåsen" />
		<tag k="natural" v="hill" />
		<tag k="place" v="locality" />
		<tag k="ssr:date" v="2016-05-11" />
		<tag k="ssr:gruppe" v="høyder" />
		<tag k="ssr:hovedgruppe" v="terreng" />
		<tag k="ssr:stedsnr" v="751923" />
		<tag k="ssr:type" v="ås" />
	</node>
	<node id="-21116" lat="59.5877888857" lon="10.989122226">
		<tag k="fixme" v="consider natural=peak for the most distinct mountains in the district" />
		<tag k="name" v="Bjørnåsen" />
		<tag k="natural" v="hill" />
		<tag k="place" v="locality" />
		<tag k="ssr:date" v="2016-05-11" />
		<tag k="ssr:gruppe" v="høyder" />
		<tag k="ssr:hovedgruppe" v="terreng" />
		<tag k="ssr:stedsnr" v="750971" />
		<tag k="ssr:type" v="ås" />
	</node>
	<node id="-21115" lat="59.6182888915" lon="10.9351750063">
		<tag k="alt_name" v="Greaker øvre" />
		<tag k="name" v="Øvre Greaker" />
		<tag k="place" v="farm" />
		<tag k="ssr:date" v="2016-05-11" />
		<tag k="ssr:gruppe" v="gardsbebyggelse" />
		<tag k="ssr:hovedgruppe" v="bebyggelse" />
		<tag k="ssr:stedsnr" v="750959" />
		<tag k="ssr:type" v="bruk" />
	</node>
	<node id="-21114" lat="59.5479166634" lon="10.8094694385">
		<tag k="alt_name" v="Bråte vestre" />
		<tag k="name" v="Vestre Bråte" />
		<tag k="place" v="farm" />
		<tag k="ssr:date" v="2016-05-11" />
		<tag k="ssr:gruppe" v="gardsbebyggelse" />
		<tag k="ssr:hovedgruppe" v="bebyggelse" />
		<tag k="ssr:stedsnr" v="750886" />
		<tag k="ssr:type" v="bruk" />
	</node>
	<node id="-21113" lat="59.5540888927" lon="10.7820861095">
		<tag k="alt_name" v="Brånen nordre" />
		<tag k="name" v="Nordre Brånen" />
		<tag k="place" v="farm" />
		<tag k="ssr:date" v="2016-05-11" />
		<tag k="ssr:gruppe" v="gardsbebyggelse" />
		<tag k="ssr:hovedgruppe" v="bebyggelse" />
		<tag k="ssr:stedsnr" v="750852" />
		<tag k="ssr:type" v="bruk" />
	</node>
	<node id="-21112" lat="59.6386388852" lon="10.9557333274">
		<tag k="name" v="Mosseby" />
		<tag k="place" v="locality" />
		<tag k="ssr:date" v="2016-05-11" />
		<tag k="ssr:gruppe" v="dyrkamark" />
		<tag k="ssr:hovedgruppe" v="markslag" />
		<tag k="ssr:stedsnr" v="750814" />
		<tag k="ssr:type" v="jorde" />
	</node>
	<node id="-21111" lat="59.6815083332" lon="11.0149055595">
		<tag k="name" v="Sanner" />
		<tag k="place" v="isolated_dwelling" />
		<tag k="ssr:date" v="2016-05-11" />
		<tag k="ssr:gruppe" v="bolighus" />
		<tag k="ssr:hovedgruppe" v="bebyggelse" />
		<tag k="ssr:stedsnr" v="750773" />
		<tag k="ssr:type" v="fritidsbolig" />
	</node>
	<node id="-21110" lat="59.6842472205" lon="11.019291666">
		<tag k="fixme" v="consider natural=peak for the most distinct mountains in the district" />
		<tag k="name" v="Krokåsen" />
		<tag k="natural" v="hill" />
		<tag k="place" v="locality" />
		<tag k="ssr:date" v="2016-05-11" />
		<tag k="ssr:gruppe" v="høyder" />
		<tag k="ssr:hovedgruppe" v="terreng" />
		<tag k="ssr:stedsnr" v="750771" />
		<tag k="ssr:type" v="ås" />
	</node>
	<node id="-21109" lat="59.6311055546" lon="10.9579944427">
		<tag k="name" v="Støttum" />
		<tag k="place" v="farm" />
		<tag k="ssr:date" v="2016-05-11" />
		<tag k="ssr:gruppe" v="gardsbebyggelse" />
		<tag k="ssr:hovedgruppe" v="bebyggelse" />
		<tag k="ssr:stedsnr" v="750750" />
		<tag k="ssr:type" v="bruk" />
	</node>
	<node id="-21108" lat="59.5543611135" lon="10.8912166616">
		<tag k="name" v="Kornetta" />
		<tag k="place" v="farm" />
		<tag k="ssr:date" v="2016-05-11" />
		<tag k="ssr:gruppe" v="gardsbebyggelse" />
		<tag k="ssr:hovedgruppe" v="bebyggelse" />
		<tag k="ssr:stedsnr" v="732252" />
		<tag k="ssr:type" v="bruk" />
	</node>
	<node id="-21107" lat="59.5648805566" lon="10.8837527748">
		<tag k="name" v="Granrud" />
		<tag k="place" v="isolated_dwelling" />
		<tag k="ssr:date" v="2016-05-11" />
		<tag k="ssr:gruppe" v="bolighus" />
		<tag k="ssr:hovedgruppe" v="bebyggelse" />
		<tag k="ssr:stedsnr" v="732206" />
		<tag k="ssr:type" v="eneboligMindreBoligbygg" />
	</node>
	<node id="-21106" lat="59.5394750022" lon="10.9099611101">
		<tag k="fixme" v="consider natural=peak for the most distinct mountains in the district" />
		<tag k="name" v="Tjernsliåsen" />
		<tag k="natural" v="hill" />
		<tag k="place" v="locality" />
		<tag k="ssr:date" v="2016-05-11" />
		<tag k="ssr:gruppe" v="høyder" />
		<tag k="ssr:hovedgruppe" v="terreng" />
		<tag k="ssr:stedsnr" v="732015" />
		<tag k="ssr:type" v="ås" />
	</node>
	<node id="-21105" lat="59.6807777804" lon="11.0195666743">
		<tag k="name" v="Kroken" />
		<tag k="place" v="farm" />
		<tag k="ssr:date" v="2016-05-11" />
		<tag k="ssr:gruppe" v="gardsbebyggelse" />
		<tag k="ssr:hovedgruppe" v="bebyggelse" />
		<tag k="ssr:stedsnr" v="731433" />
		<tag k="ssr:type" v="bruk" />
	</node>
	<node id="-21104" lat="59.6796527783" lon="10.9771527843">
		<tag k="alt_name" v="Vien nordre" />
		<tag k="name" v="Nordre Vien" />
		<tag k="place" v="farm" />
		<tag k="ssr:date" v="2016-05-11" />
		<tag k="ssr:gruppe" v="gardsbebyggelse" />
		<tag k="ssr:hovedgruppe" v="bebyggelse" />
		<tag k="ssr:stedsnr" v="731407" />
		<tag k="ssr:type" v="bruk" />
	</node>
	<node id="-21103" lat="59.6105972241" lon="10.895827775">
		<tag k="name" v="Kattås" />
		<tag k="place" v="farm" />
		<tag k="ssr:date" v="2016-05-11" />
		<tag k="ssr:gruppe" v="gardsbebyggelse" />
		<tag k="ssr:hovedgruppe" v="bebyggelse" />
		<tag k="ssr:stedsnr" v="731329" />
		<tag k="ssr:type" v="bruk" />
	</node>
	<node id="-21102" lat="59.6395750021" lon="10.9823527836">
		<tag k="name" v="Lyshaug" />
		<tag k="place" v="farm" />
		<tag k="ssr:date" v="2016-05-11" />
		<tag k="ssr:gruppe" v="gardsbebyggelse" />
		<tag k="ssr:hovedgruppe" v="bebyggelse" />
		<tag k="ssr:stedsnr" v="731238" />
		<tag k="ssr:type" v="bruk" />
	</node>
	<node id="-21101" lat="59.6471583325" lon="11.0023583262">
		<tag k="alt_name" v="Kinnerud" />
		<tag k="name" v="Kinnerød" />
		<tag k="place" v="farm" />
		<tag k="ssr:date" v="2016-05-11" />
		<tag k="ssr:gruppe" v="gardsbebyggelse" />
		<tag k="ssr:hovedgruppe" v="bebyggelse" />
		<tag k="ssr:stedsnr" v="731216" />
		<tag k="ssr:type" v="bruk" />
	</node>
	<node id="-21100" lat="59.5615000028" lon="10.8815527756">
		<tag k="bridge" v="yes" />
		<tag k="layer" v="1" />
		<tag k="name" v="Holo" />
		<tag k="ssr:date" v="2016-05-11" />
		<tag k="ssr:gruppe" v="samferdselsanlegg" />
		<tag k="ssr:hovedgruppe" v="infrastruktur" />
		<tag k="ssr:stedsnr" v="713472" />
		<tag k="ssr:type" v="bru" />
	</node>
	<node id="-21099" lat="59.5928444456" lon="10.921072228">
		<tag k="name" v="Mære" />
		<tag k="place" v="farm" />
		<tag k="ssr:date" v="2016-05-11" />
		<tag k="ssr:gruppe" v="gardsbebyggelse" />
		<tag k="ssr:hovedgruppe" v="bebyggelse" />
		<tag k="ssr:stedsnr" v="691917" />
		<tag k="ssr:type" v="bruk" />
	</node>
	<node id="-21098" lat="59.5553416663" lon="10.9120444523">
		<tag k="name" v="Tyrihjellen" />
		<tag k="place" v="isolated_dwelling" />
		<tag k="ssr:date" v="2016-05-11" />
		<tag k="ssr:gruppe" v="bolighus" />
		<tag k="ssr:hovedgruppe" v="bebyggelse" />
		<tag k="ssr:stedsnr" v="691898" />
		<tag k="ssr:type" v="eneboligMindreBoligbygg" />
	</node>
	<node id="-21097" lat="59.5687138866" lon="10.8709527718">
		<tag k="name" v="Sørli" />
		<tag k="place" v="farm" />
		<tag k="ssr:date" v="2016-05-11" />
		<tag k="ssr:gruppe" v="gardsbebyggelse" />
		<tag k="ssr:hovedgruppe" v="bebyggelse" />
		<tag k="ssr:stedsnr" v="691887" />
		<tag k="ssr:type" v="bruk" />
	</node>
	<node id="-21096" lat="59.6100166696" lon="10.9227222192">
		<tag k="name" v="Hvitsten" />
		<tag k="place" v="farm" />
		<tag k="ssr:date" v="2016-05-11" />
		<tag k="ssr:gruppe" v="gardsbebyggelse" />
		<tag k="ssr:hovedgruppe" v="bebyggelse" />
		<tag k="ssr:stedsnr" v="690964" />
		<tag k="ssr:type" v="bruk" />
	</node>
	<node id="-21095" lat="59.6020888899" lon="10.8944416725">
		<tag k="name" v="Hulsbråten" />
		<tag k="place" v="farm" />
		<tag k="ssr:date" v="2016-05-11" />
		<tag k="ssr:gruppe" v="gardsbebyggelse" />
		<tag k="ssr:hovedgruppe" v="bebyggelse" />
		<tag k="ssr:stedsnr" v="690962" />
		<tag k="ssr:type" v="bruk" />
	</node>
	<node id="-21094" lat="59.5528944435" lon="10.8244333373">
		<tag k="name" v="Sandaker" />
		<tag k="place" v="farm" />
		<tag k="ssr:date" v="2016-05-11" />
		<tag k="ssr:gruppe" v="gardsbebyggelse" />
		<tag k="ssr:hovedgruppe" v="bebyggelse" />
		<tag k="ssr:stedsnr" v="690890" />
		<tag k="ssr:type" v="bruk" />
	</node>
	<node id="-21093" lat="59.5644999969" lon="10.8299805614">
		<tag k="junction" v="yes" />
		<tag k="name" v="Nummestad" />
		<tag k="place" v="locality" />
		<tag k="ssr:date" v="2016-05-11" />
		<tag k="ssr:gruppe" v="veg" />
		<tag k="ssr:hovedgruppe" v="infrastruktur" />
		<tag k="ssr:stedsnr" v="690279" />
		<tag k="ssr:type" v="vegkryss" />
	</node>
	<node id="-21092" lat="59.5797888859" lon="10.9880388872">
		<tag k="name" v="Slåmosen" />
		<tag k="natural" v="wetland" />
		<tag k="ssr:date" v="2016-05-11" />
		<tag k="ssr:gruppe" v="våtmark" />
		<tag k="ssr:hovedgruppe" v="markslag" />
		<tag k="ssr:stedsnr" v="689971" />
		<tag k="ssr:type" v="myr" />
	</node>
	<node id="-21091" lat="59.6793888856" lon="10.9842444461">
		<tag k="name" v="Burås" />
		<tag k="place" v="isolated_dwelling" />
		<tag k="ssr:date" v="2016-05-11" />
		<tag k="ssr:gruppe" v="bolighus" />
		<tag k="ssr:hovedgruppe" v="bebyggelse" />
		<tag k="ssr:stedsnr" v="689805" />
		<tag k="ssr:type" v="fritidsbolig" />
	</node>
	<node id="-21090" lat="59.6498666661" lon="10.9872861196">
		<tag k="name" v="Tolfshus" />
		<tag k="place" v="farm" />
		<tag k="ssr:date" v="2016-05-11" />
		<tag k="ssr:gruppe" v="gardsbebyggelse" />
		<tag k="ssr:hovedgruppe" v="bebyggelse" />
		<tag k="ssr:stedsnr" v="689797" />
		<tag k="ssr:type" v="bruk" />
	</node>
	<node id="-21089" lat="59.6864333369" lon="10.971119447">
		<tag k="name" v="Vienmosen" />
		<tag k="natural" v="wetland" />
		<tag k="ssr:date" v="2016-05-11" />
		<tag k="ssr:gruppe" v="våtmark" />
		<tag k="ssr:hovedgruppe" v="markslag" />
		<tag k="ssr:stedsnr" v="689790" />
		<tag k="ssr:type" v="myr" />
	</node>
	<node id="-21088" lat="59.7001611138" lon="10.9756833365">
		<tag k="name" v="Holshytta" />
		<tag k="place" v="isolated_dwelling" />
		<tag k="ssr:date" v="2016-05-11" />
		<tag k="ssr:gruppe" v="bolighus" />
		<tag k="ssr:hovedgruppe" v="bebyggelse" />
		<tag k="ssr:stedsnr" v="689789" />
		<tag k="ssr:type" v="fritidsbolig" />
	</node>
	<node id="-21087" lat="59.6843750042" lon="11.0227527731">
		<tag k="name" v="Kloppmyra" />
		<tag k="natural" v="wetland" />
		<tag k="ssr:date" v="2016-05-11" />
		<tag k="ssr:gruppe" v="våtmark" />
		<tag k="ssr:hovedgruppe" v="markslag" />
		<tag k="ssr:stedsnr" v="689757" />
		<tag k="ssr:type" v="myr" />
	</node>
	<node id="-21086" lat="59.6142527768" lon="10.9744999937">
		<tag k="name" v="Kvernhusbekken" />
		<tag k="ssr:date" v="2016-05-11" />
		<tag k="ssr:gruppe" v="rennendeVann" />
		<tag k="ssr:hovedgruppe" v="ferskvann" />
		<tag k="ssr:stedsnr" v="689724" />
		<tag k="ssr:type" v="bekk" />
		<tag k="waterway" v="stream" />
	</node>
	<node id="-21085" lat="59.5991194438" lon="11.0155472204">
		<tag k="name" v="Bølermosen" />
		<tag k="natural" v="wetland" />
		<tag k="ssr:date" v="2016-05-11" />
		<tag k="ssr:gruppe" v="våtmark" />
		<tag k="ssr:hovedgruppe" v="markslag" />
		<tag k="ssr:stedsnr" v="689722" />
		<tag k="ssr:type" v="myr" />
	</node>
	<node id="-21084" lat="59.5958472247" lon="10.9753999932">
		<tag k="name" v="Korsfurua" />
		<tag k="place" v="locality" />
		<tag k="ssr:date" v="2016-05-11" />
		<tag k="ssr:gruppe" v="vegetasjon" />
		<tag k="ssr:hovedgruppe" v="markslag" />
		<tag k="ssr:stedsnr" v="689718" />
		<tag k="ssr:type" v="skog" />
	</node>
	<node id="-21083" lat="59.6837500028" lon="11.0346027727">
		<tag k="alt_name" v="Svikebøl Øvre" />
		<tag k="name" v="Øvre Svikebøl" />
		<tag k="place" v="farm" />
		<tag k="ssr:date" v="2016-05-10" />
		<tag k="ssr:gruppe" v="gardsbebyggelse" />
		<tag k="ssr:hovedgruppe" v="bebyggelse" />
		<tag k="ssr:stedsnr" v="671409" />
		<tag k="ssr:type" v="bruk" />
	</node>
	<node id="-21082" lat="59.5614361114" lon="10.8789583354">
		<tag k="alt_name" v="Bakknesa" />
		<tag k="name" v="Bakkneset" />
		<tag k="place" v="farm" />
		<tag k="ssr:date" v="2016-05-10" />
		<tag k="ssr:gruppe" v="gardsbebyggelse" />
		<tag k="ssr:hovedgruppe" v="bebyggelse" />
		<tag k="ssr:stedsnr" v="671196" />
		<tag k="ssr:type" v="bruk" />
	</node>
	<node id="-21081" lat="59.579322221" lon="11.0178888816">
		<tag k="loc_name" v="Karusstjernet" />
		<tag k="name" v="Karustjernet" />
		<tag k="natural" v="water" />
		<tag k="ssr:date" v="2016-05-10" />
		<tag k="ssr:gruppe" v="stilleståendeVann" />
		<tag k="ssr:hovedgruppe" v="ferskvann" />
		<tag k="ssr:stedsnr" v="671167" />
		<tag k="ssr:type" v="tjern" />
	</node>
	<node id="-21080" lat="59.6684472222" lon="11.0286972235">
		<tag k="name" v="Vaglen" />
		<tag k="place" v="farm" />
		<tag k="ssr:date" v="2016-05-10" />
		<tag k="ssr:gruppe" v="gardsbebyggelse" />
		<tag k="ssr:hovedgruppe" v="bebyggelse" />
		<tag k="ssr:stedsnr" v="671019" />
		<tag k="ssr:type" v="bruk" />
	</node>
	<node id="-21079" lat="59.6626972188" lon="10.9830972249">
		<tag k="name" v="Solberg" />
		<tag k="place" v="farm" />
		<tag k="ssr:date" v="2016-05-10" />
		<tag k="ssr:gruppe" v="gardsbebyggelse" />
		<tag k="ssr:hovedgruppe" v="bebyggelse" />
		<tag k="ssr:stedsnr" v="670459" />
		<tag k="ssr:type" v="bruk" />
	</node>
	<node id="-21078" lat="59.6635833291" lon="11.0371388896">
		<tag k="name" v="Sørli" />
		<tag k="place" v="isolated_dwelling" />
		<tag k="ssr:date" v="2016-05-10" />
		<tag k="ssr:gruppe" v="bolighus" />
		<tag k="ssr:hovedgruppe" v="bebyggelse" />
		<tag k="ssr:stedsnr" v="670456" />
		<tag k="ssr:type" v="fritidsbolig" />
	</node>
	<node id="-21077" lat="59.6716972253" lon="10.9971972154">
		<tag k="name" v="Føsker" />
		<tag k="place" v="farm" />
		<tag k="ssr:date" v="2016-05-10" />
		<tag k="ssr:gruppe" v="gardsbebyggelse" />
		<tag k="ssr:hovedgruppe" v="bebyggelse" />
		<tag k="ssr:stedsnr" v="670452" />
		<tag k="ssr:type" v="bruk" />
	</node>
	<node id="-21076" lat="59.6143250031" lon="10.9984694445">
		<tag k="name" v="Grimsrud" />
		<tag k="place" v="farm" />
		<tag k="ssr:date" v="2016-05-10" />
		<tag k="ssr:gruppe" v="gardsbebyggelse" />
		<tag k="ssr:hovedgruppe" v="bebyggelse" />
		<tag k="ssr:stedsnr" v="670360" />
		<tag k="ssr:type" v="bruk" />
	</node>
	<node id="-21075" lat="59.6204166632" lon="10.9965972248">
		<tag k="name" v="Jaren" />
		<tag k="place" v="farm" />
		<tag k="ssr:date" v="2016-05-10" />
		<tag k="ssr:gruppe" v="gardsbebyggelse" />
		<tag k="ssr:hovedgruppe" v="bebyggelse" />
		<tag k="ssr:stedsnr" v="670349" />
		<tag k="ssr:type" v="bruk" />
	</node>
	<node id="-21074" lat="59.6316500029" lon="10.9574277723">
		<tag k="name" v="Støttum" />
		<tag k="place" v="farm" />
		<tag k="ssr:date" v="2016-05-10" />
		<tag k="ssr:gruppe" v="gardsbebyggelse" />
		<tag k="ssr:hovedgruppe" v="bebyggelse" />
		<tag k="ssr:stedsnr" v="670304" />
		<tag k="ssr:type" v="bruk" />
	</node>
	<node id="-21073" lat="59.6424611077" lon="11.0123499953">
		<tag k="name" v="Kjærbu" />
		<tag k="place" v="farm" />
		<tag k="ssr:date" v="2016-05-10" />
		<tag k="ssr:gruppe" v="gardsbebyggelse" />
		<tag k="ssr:hovedgruppe" v="bebyggelse" />
		<tag k="ssr:stedsnr" v="670282" />
		<tag k="ssr:type" v="bruk" />
	</node>
	<node id="-21072" lat="59.6392250025" lon="11.0075999944">
		<tag k="name" v="Lundeby" />
		<tag k="place" v="farm" />
		<tag k="ssr:date" v="2016-05-10" />
		<tag k="ssr:gruppe" v="gardsbebyggelse" />
		<tag k="ssr:hovedgruppe" v="bebyggelse" />
		<tag k="ssr:stedsnr" v="670281" />
		<tag k="ssr:type" v="bruk" />
	</node>
	<node id="-21071" lat="59.6477527745" lon="11.0343333278">
		<tag k="alt_name" v="Ulveåsen" />
		<tag k="fixme" v="consider natural=peak for the most distinct mountains in the district" />
		<tag k="name" v="Ulvåsen" />
		<tag k="natural" v="hill" />
		<tag k="place" v="locality" />
		<tag k="ssr:date" v="2016-05-10" />
		<tag k="ssr:gruppe" v="høyder" />
		<tag k="ssr:hovedgruppe" v="terreng" />
		<tag k="ssr:stedsnr" v="670262" />
		<tag k="ssr:type" v="ås" />
	</node>
	<node id="-21070" lat="59.6034861144" lon="11.008866675">
		<tag k="name" v="Lure" />
		<tag k="place" v="farm" />
		<tag k="ssr:date" v="2016-05-10" />
		<tag k="ssr:gruppe" v="gardsbebyggelse" />
		<tag k="ssr:hovedgruppe" v="bebyggelse" />
		<tag k="ssr:stedsnr" v="670154" />
		<tag k="ssr:type" v="bruk" />
	</node>
	<node id="-21069" lat="59.554925001" lon="10.8097944373">
		<tag k="name" v="Råken" />
		<tag k="place" v="farm" />
		<tag k="ssr:date" v="2016-05-10" />
		<tag k="ssr:gruppe" v="gardsbebyggelse" />
		<tag k="ssr:hovedgruppe" v="bebyggelse" />
		<tag k="ssr:stedsnr" v="671241" />
		<tag k="ssr:type" v="bruk" />
	</node>
	<node id="-21068" lat="59.5953111071" lon="10.8954305576">
		<tag k="bridge" v="yes" />
		<tag k="layer" v="1" />
		<tag k="name" v="Huls" />
		<tag k="ssr:date" v="2016-05-10" />
		<tag k="ssr:gruppe" v="samferdselsanlegg" />
		<tag k="ssr:hovedgruppe" v="infrastruktur" />
		<tag k="ssr:stedsnr" v="652436" />
		<tag k="ssr:type" v="bru" />
	</node>
	<node id="-21067" lat="59.6233638909" lon="10.9420944372">
		<tag k="alt_name" v="Tingulstad øvre" />
		<tag k="name" v="Øvre Tingulstad" />
		<tag k="place" v="farm" />
		<tag k="ssr:date" v="2016-05-10" />
		<tag k="ssr:gruppe" v="gardsbebyggelse" />
		<tag k="ssr:hovedgruppe" v="bebyggelse" />
		<tag k="ssr:stedsnr" v="629973" />
		<tag k="ssr:type" v="bruk" />
	</node>
	<node id="-21066" lat="59.5440527761" lon="10.8858777801">
		<tag k="name" v="Tønnerøddalen" />
		<tag k="natural" v="valley" />
		<tag k="place" v="locality" />
		<tag k="ssr:date" v="2016-05-10" />
		<tag k="ssr:gruppe" v="senkninger" />
		<tag k="ssr:hovedgruppe" v="terreng" />
		<tag k="ssr:stedsnr" v="629944" />
		<tag k="ssr:type" v="dal" />
	</node>
	<node id="-21065" lat="59.5571388885" lon="10.8418222229">
		<tag k="name" v="Ringvoll" />
		<tag k="place" v="isolated_dwelling" />
		<tag k="ssr:date" v="2016-05-10" />
		<tag k="ssr:gruppe" v="bolighus" />
		<tag k="ssr:hovedgruppe" v="bebyggelse" />
		<tag k="ssr:stedsnr" v="629922" />
		<tag k="ssr:type" v="eneboligMindreBoligbygg" />
	</node>
	<node id="-21064" lat="59.5702305538" lon="10.8733555562">
		<tag k="name" v="Fjellstad" />
		<tag k="place" v="farm" />
		<tag k="ssr:date" v="2016-05-10" />
		<tag k="ssr:gruppe" v="gardsbebyggelse" />
		<tag k="ssr:hovedgruppe" v="bebyggelse" />
		<tag k="ssr:stedsnr" v="629917" />
		<tag k="ssr:type" v="bruk" />
	</node>
	<node id="-21063" lat="59.5598222215" lon="10.8218000056">
		<tag k="name" v="Holtet" />
		<tag k="place" v="farm" />
		<tag k="ssr:date" v="2016-05-10" />
		<tag k="ssr:gruppe" v="gardsbebyggelse" />
		<tag k="ssr:hovedgruppe" v="bebyggelse" />
		<tag k="ssr:stedsnr" v="629894" />
		<tag k="ssr:type" v="bruk" />
	</node>
	<node id="-21062" lat="59.5731277769" lon="10.9818611067">
		<tag k="alt_name" v="Tretterstykker" />
		<tag k="name" v="Tretterstykke" />
		<tag k="place" v="locality" />
		<tag k="ssr:date" v="2016-05-10" />
		<tag k="ssr:gruppe" v="gardsbebyggelse" />
		<tag k="ssr:hovedgruppe" v="bebyggelse" />
		<tag k="ssr:stedsnr" v="628965" />
		<tag k="ssr:type" v="eiendom" />
	</node>
	<node id="-21061" lat="59.6021055521" lon="10.9289722275">
		<tag k="name" v="Hovin" />
		<tag k="place" v="isolated_dwelling" />
		<tag k="ssr:date" v="2016-05-10" />
		<tag k="ssr:gruppe" v="bolighus" />
		<tag k="ssr:hovedgruppe" v="bebyggelse" />
		<tag k="ssr:stedsnr" v="628959" />
		<tag k="ssr:type" v="eneboligMindreBoligbygg" />
	</node>
	<node id="-21060" lat="59.5443361106" lon="10.9133972302">
		<tag k="fixme" v="consider natural=peak for the most distinct mountains in the district" />
		<tag k="name" v="Marikova" />
		<tag k="natural" v="hill" />
		<tag k="place" v="locality" />
		<tag k="ssr:date" v="2016-05-10" />
		<tag k="ssr:gruppe" v="høyder" />
		<tag k="ssr:hovedgruppe" v="terreng" />
		<tag k="ssr:stedsnr" v="628908" />
		<tag k="ssr:type" v="ås" />
	</node>
	<node id="-21059" lat="59.5318833297" lon="10.8362666628">
		<tag k="name" v="Høyås" />
		<tag k="old_name" v="Hoyås;Høiaas;Nordre Heiaas" />
		<tag k="place" v="farm" />
		<tag k="ssr:date" v="2016-05-10" />
		<tag k="ssr:gruppe" v="gardsbebyggelse" />
		<tag k="ssr:hovedgruppe" v="bebyggelse" />
		<tag k="ssr:stedsnr" v="628905" />
		<tag k="ssr:type" v="bruk" />
	</node>
	<node id="-21058" lat="59.5459000019" lon="10.7989555613">
		<tag k="name" v="Stubberud" />
		<tag k="place" v="farm" />
		<tag k="ssr:date" v="2016-05-10" />
		<tag k="ssr:gruppe" v="gardsbebyggelse" />
		<tag k="ssr:hovedgruppe" v="bebyggelse" />
		<tag k="ssr:stedsnr" v="628875" />
		<tag k="ssr:type" v="bruk" />
	</node>
	<node id="-21057" lat="59.6921027792" lon="10.9914611111">
		<tag k="fixme" v="consider natural=peak for the most distinct mountains in the district" />
		<tag k="name" v="Mellemhaugen" />
		<tag k="natural" v="hill" />
		<tag k="place" v="locality" />
		<tag k="ssr:date" v="2016-05-10" />
		<tag k="ssr:gruppe" v="høyder" />
		<tag k="ssr:hovedgruppe" v="terreng" />
		<tag k="ssr:stedsnr" v="628797" />
		<tag k="ssr:type" v="ås" />
	</node>
	<node id="-21056" lat="59.6986388929" lon="10.9855166652">
		<tag k="name" v="Høymyra" />
		<tag k="natural" v="wetland" />
		<tag k="ssr:date" v="2016-05-10" />
		<tag k="ssr:gruppe" v="våtmark" />
		<tag k="ssr:hovedgruppe" v="markslag" />
		<tag k="ssr:stedsnr" v="628795" />
		<tag k="ssr:type" v="myr" />
	</node>
	<node id="-21055" lat="59.6336527756" lon="10.9793499958">
		<tag k="name" v="Ødegården" />
		<tag k="place" v="locality" />
		<tag k="ssr:date" v="2016-05-10" />
		<tag k="ssr:gruppe" v="flater" />
		<tag k="ssr:hovedgruppe" v="terreng" />
		<tag k="ssr:stedsnr" v="628751" />
		<tag k="ssr:type" v="mo" />
	</node>
	<node id="-21054" lat="59.6253555524" lon="10.984527771">
		<tag k="amenity" v="community_centre" />
		<tag k="name" v="Torp" />
		<tag k="ssr:date" v="2016-05-10" />
		<tag k="ssr:gruppe" v="kulturinstitusjoner" />
		<tag k="ssr:hovedgruppe" v="kultur" />
		<tag k="ssr:stedsnr" v="628749" />
		<tag k="ssr:type" v="forsamlingshusKulturhus" />
	</node>
	<node id="-21053" lat="59.6044000007" lon="10.9483527807">
		<tag k="name" v="Kongehulen" />
		<tag k="natural" v="valley" />
		<tag k="place" v="locality" />
		<tag k="ssr:date" v="2016-05-10" />
		<tag k="ssr:gruppe" v="senkninger" />
		<tag k="ssr:hovedgruppe" v="terreng" />
		<tag k="ssr:stedsnr" v="628742" />
		<tag k="ssr:type" v="søkk" />
	</node>
	<node id="-21052" lat="59.600422223" lon="11.0053694505">
		<tag k="landuse" v="meadow" />
		<tag k="name" v="Hysken" />
		<tag k="ssr:date" v="2016-05-10" />
		<tag k="ssr:gruppe" v="dyrkamark" />
		<tag k="ssr:hovedgruppe" v="markslag" />
		<tag k="ssr:stedsnr" v="628736" />
		<tag k="ssr:type" v="eng" />
	</node>
	<node id="-21051" lat="59.6750722211" lon="10.9550916656">
		<tag k="name" v="Bjørnehjellen" />
		<tag k="place" v="farm" />
		<tag k="ssr:date" v="2016-05-10" />
		<tag k="ssr:gruppe" v="gardsbebyggelse" />
		<tag k="ssr:hovedgruppe" v="bebyggelse" />
		<tag k="ssr:stedsnr" v="610479" />
		<tag k="ssr:type" v="bruk" />
	</node>
	<node id="-21050" lat="59.6919333362" lon="11.0107000007">
		<tag k="alt_name" v="Høgbråtetoppen" />
		<tag k="fixme" v="consider natural=peak for the most distinct mountains in the district" />
		<tag k="name" v="Høgbråten" />
		<tag k="natural" v="hill" />
		<tag k="place" v="locality" />
		<tag k="ssr:date" v="2016-05-10" />
		<tag k="ssr:gruppe" v="høyder" />
		<tag k="ssr:hovedgruppe" v="terreng" />
		<tag k="ssr:stedsnr" v="610452" />
		<tag k="ssr:type" v="ås" />
	</node>
	<node id="-21049" lat="59.5952361092" lon="10.934455562">
		<tag k="alt_name" v="Hovinshytta" />
		<tag k="name" v="Hovin" />
		<tag k="place" v="farm" />
		<tag k="ssr:date" v="2016-05-10" />
		<tag k="ssr:gruppe" v="gardsbebyggelse" />
		<tag k="ssr:hovedgruppe" v="bebyggelse" />
		<tag k="ssr:stedsnr" v="610163" />
		<tag k="ssr:type" v="bruk" />
	</node>
	<node id="-21048" lat="59.5972249986" lon="11.0275388856">
		<tag k="alt_name" v="Levestad" />
		<tag k="name" v="Levorstad" />
		<tag k="place" v="farm" />
		<tag k="ssr:date" v="2016-05-10" />
		<tag k="ssr:gruppe" v="gardsbebyggelse" />
		<tag k="ssr:hovedgruppe" v="bebyggelse" />
		<tag k="ssr:stedsnr" v="610146" />
		<tag k="ssr:type" v="bruk" />
	</node>
	<node id="-21047" lat="59.5987111109" lon="10.9297111182">
		<tag k="name" v="Hovin" />
		<tag k="place" v="farm" />
		<tag k="ssr:date" v="2016-05-10" />
		<tag k="ssr:gruppe" v="gardsbebyggelse" />
		<tag k="ssr:hovedgruppe" v="bebyggelse" />
		<tag k="ssr:stedsnr" v="610033" />
		<tag k="ssr:type" v="bruk" />
	</node>
	<node id="-21046" lat="59.5341388849" lon="10.8701722197">
		<tag k="name" v="Holmen" />
		<tag k="place" v="farm" />
		<tag k="ssr:date" v="2016-05-10" />
		<tag k="ssr:gruppe" v="gardsbebyggelse" />
		<tag k="ssr:hovedgruppe" v="bebyggelse" />
		<tag k="ssr:stedsnr" v="610029" />
		<tag k="ssr:type" v="bruk" />
	</node>
	<node id="-21045" lat="59.5440305539" lon="10.785063889">
		<tag k="alt_name" v="Narvestad nedre" />
		<tag k="name" v="Narvestad" />
		<tag k="place" v="farm" />
		<tag k="ssr:date" v="2016-05-10" />
		<tag k="ssr:gruppe" v="gardsbebyggelse" />
		<tag k="ssr:hovedgruppe" v="bebyggelse" />
		<tag k="ssr:stedsnr" v="610027" />
		<tag k="ssr:type" v="bruk" />
	</node>
	<node id="-21044" lat="59.6723388861" lon="10.9797944392">
		<tag k="alt_name" v="Stokstad" />
		<tag k="name" v="Stokkstad" />
		<tag k="place" v="farm" />
		<tag k="ssr:date" v="2016-05-10" />
		<tag k="ssr:gruppe" v="gardsbebyggelse" />
		<tag k="ssr:hovedgruppe" v="bebyggelse" />
		<tag k="ssr:stedsnr" v="609453" />
		<tag k="ssr:type" v="bruk" />
	</node>
	<node id="-21043" lat="59.6680388896" lon="10.9884888922">
		<tag k="name" v="Villumstad" />
		<tag k="place" v="farm" />
		<tag k="ssr:date" v="2016-05-10" />
		<tag k="ssr:gruppe" v="gardsbebyggelse" />
		<tag k="ssr:hovedgruppe" v="bebyggelse" />
		<tag k="ssr:stedsnr" v="609451" />
		<tag k="ssr:type" v="bruk" />
	</node>
	<node id="-21042" lat="59.604019441" lon="10.9044472247">
		<tag k="name" v="Bjerve" />
		<tag k="place" v="farm" />
		<tag k="ssr:date" v="2016-05-10" />
		<tag k="ssr:gruppe" v="gardsbebyggelse" />
		<tag k="ssr:hovedgruppe" v="bebyggelse" />
		<tag k="ssr:stedsnr" v="609360" />
		<tag k="ssr:type" v="bruk" />
	</node>
	<node id="-21041" lat="59.6351750026" lon="10.9740055583">
		<tag k="name" v="Finnholt" />
		<tag k="place" v="farm" />
		<tag k="ssr:date" v="2016-05-10" />
		<tag k="ssr:gruppe" v="gardsbebyggelse" />
		<tag k="ssr:hovedgruppe" v="bebyggelse" />
		<tag k="ssr:stedsnr" v="609304" />
		<tag k="ssr:type" v="bruk" />
	</node>
	<node id="-21040" lat="59.655866666" lon="11.0438638861">
		<tag k="name" v="Trosterud" />
		<tag k="place" v="farm" />
		<tag k="ssr:date" v="2016-05-10" />
		<tag k="ssr:gruppe" v="gardsbebyggelse" />
		<tag k="ssr:hovedgruppe" v="bebyggelse" />
		<tag k="ssr:stedsnr" v="609242" />
		<tag k="ssr:type" v="bruk" />
	</node>
	<node id="-21039" lat="59.6864305515" lon="11.0371472197">
		<tag k="fixme" v="consider place=hamlet" />
		<tag k="name" v="Svikebøl" />
		<tag k="place" v="farm" />
		<tag k="ssr:date" v="2016-05-10" />
		<tag k="ssr:gruppe" v="gardsbebyggelse" />
		<tag k="ssr:hovedgruppe" v="bebyggelse" />
		<tag k="ssr:stedsnr" v="600333" />
		<tag k="ssr:type" v="gard" />
	</node>
	<node id="-21038" lat="59.6185555559" lon="10.9433111064">
		<tag k="bridge" v="yes" />
		<tag k="layer" v="1" />
		<tag k="name" v="Tingulstad" />
		<tag k="ssr:date" v="2016-05-10" />
		<tag k="ssr:gruppe" v="samferdselsanlegg" />
		<tag k="ssr:hovedgruppe" v="infrastruktur" />
		<tag k="ssr:stedsnr" v="592500" />
		<tag k="ssr:type" v="bru" />
	</node>
	<node id="-21037" lat="59.6228332094" lon="10.9496104619">
		<tag k="bridge" v="yes" />
		<tag k="layer" v="1" />
		<tag k="name" v="Elvestadkrysset" />
		<tag k="ssr:date" v="2018-01-23" />
		<tag k="ssr:gruppe" v="samferdselsanlegg" />
		<tag k="ssr:hovedgruppe" v="infrastruktur" />
		<tag k="ssr:stedsnr" v="592488" />
		<tag k="ssr:type" v="bru" />
	</node>
	<node id="-21036" lat="59.6224527753" lon="10.9863416668">
		<tag k="bridge" v="yes" />
		<tag k="layer" v="1" />
		<tag k="name" v="Feierkulpa" />
		<tag k="ssr:date" v="2016-05-10" />
		<tag k="ssr:gruppe" v="samferdselsanlegg" />
		<tag k="ssr:hovedgruppe" v="infrastruktur" />
		<tag k="ssr:stedsnr" v="592485" />
		<tag k="ssr:type" v="bru" />
	</node>
	<node id="-21035" lat="59.6242416688" lon="11.0327388893">
		<tag k="alt_name" v="Knapstad" />
		<tag k="fixme" v="consider place=suburb, village or hamlet" />
		<tag k="name" v="Knappstad" />
		<tag k="place" v="quarter" />
		<tag k="ssr:date" v="2016-05-10" />
		<tag k="ssr:gruppe" v="bebyggelsesområder" />
		<tag k="ssr:hovedgruppe" v="bebyggelse" />
		<tag k="ssr:stedsnr" v="570391" />
		<tag k="ssr:type" v="tettbebyggelse" />
	</node>
	<node id="-21034" lat="59.5842472215" lon="10.8803250047">
		<tag k="name" v="Skogrom" />
		<tag k="place" v="isolated_dwelling" />
		<tag k="ssr:date" v="2016-05-10" />
		<tag k="ssr:gruppe" v="bolighus" />
		<tag k="ssr:hovedgruppe" v="bebyggelse" />
		<tag k="ssr:stedsnr" v="569912" />
		<tag k="ssr:type" v="eneboligMindreBoligbygg" />
	</node>
	<node id="-21033" lat="59.5694866152" lon="10.8550585823">
		<tag k="alt_name" v="Saksebøl øvre" />
		<tag k="name" v="Øvre Saksebøl" />
		<tag k="place" v="farm" />
		<tag k="ssr:date" v="2019-03-07" />
		<tag k="ssr:gruppe" v="gardsbebyggelse" />
		<tag k="ssr:hovedgruppe" v="bebyggelse" />
		<tag k="ssr:stedsnr" v="569879" />
		<tag k="ssr:type" v="bruk" />
	</node>
	<node id="-21032" lat="59.5681916644" lon="10.8803749942">
		<tag k="name" v="Østereng" />
		<tag k="place" v="farm" />
		<tag k="ssr:date" v="2016-05-10" />
		<tag k="ssr:gruppe" v="gardsbebyggelse" />
		<tag k="ssr:hovedgruppe" v="bebyggelse" />
		<tag k="ssr:stedsnr" v="569872" />
		<tag k="ssr:type" v="bruk" />
	</node>
	<node id="-21031" lat="59.5728444477" lon="10.8481111057">
		<tag k="name" v="Vestereng" />
		<tag k="place" v="farm" />
		<tag k="ssr:date" v="2016-05-10" />
		<tag k="ssr:gruppe" v="gardsbebyggelse" />
		<tag k="ssr:hovedgruppe" v="bebyggelse" />
		<tag k="ssr:stedsnr" v="569871" />
		<tag k="ssr:type" v="bruk" />
	</node>
	<node id="-21030" lat="59.6205694427" lon="10.9217527797">
		<tag k="name" v="Groterud" />
		<tag k="place" v="isolated_dwelling" />
		<tag k="ssr:date" v="2016-05-10" />
		<tag k="ssr:gruppe" v="bolighus" />
		<tag k="ssr:hovedgruppe" v="bebyggelse" />
		<tag k="ssr:stedsnr" v="568962" />
		<tag k="ssr:type" v="eneboligMindreBoligbygg" />
	</node>
	<node id="-21029" lat="59.5433305556" lon="10.881358334">
		<tag k="name" v="Askerød" />
		<tag k="natural" v="slope" />
		<tag k="place" v="locality" />
		<tag k="ssr:date" v="2016-05-10" />
		<tag k="ssr:gruppe" v="skråninger" />
		<tag k="ssr:hovedgruppe" v="terreng" />
		<tag k="ssr:stedsnr" v="568923" />
		<tag k="ssr:type" v="bakke" />
	</node>
	<node id="-21028" lat="59.5608527775" lon="10.8037833337">
		<tag k="alt_name" v="Bjoner nedre" />
		<tag k="name" v="Nedre Bjoner" />
		<tag k="place" v="farm" />
		<tag k="ssr:date" v="2016-05-10" />
		<tag k="ssr:gruppe" v="gardsbebyggelse" />
		<tag k="ssr:hovedgruppe" v="bebyggelse" />
		<tag k="ssr:stedsnr" v="568863" />
		<tag k="ssr:type" v="bruk" />
	</node>
	<node id="-21027" lat="59.6066694476" lon="10.8913055487">
		<tag k="name" v="Trollhetta" />
		<tag k="place" v="isolated_dwelling" />
		<tag k="ssr:date" v="2016-05-10" />
		<tag k="ssr:gruppe" v="bolighus" />
		<tag k="ssr:hovedgruppe" v="bebyggelse" />
		<tag k="ssr:stedsnr" v="567961" />
		<tag k="ssr:type" v="fritidsbolig" />
	</node>
	<node id="-21026" lat="59.5414555518" lon="10.9303250061">
		<tag k="fixme" v="consider natural=peak for the most distinct mountains in the district" />
		<tag k="name" v="Østensmyråsen" />
		<tag k="natural" v="hill" />
		<tag k="place" v="locality" />
		<tag k="ssr:date" v="2016-05-10" />
		<tag k="ssr:gruppe" v="høyder" />
		<tag k="ssr:hovedgruppe" v="terreng" />
		<tag k="ssr:stedsnr" v="567938" />
		<tag k="ssr:type" v="ås" />
	</node>
	<node id="-21025" lat="59.6641027778" lon="10.9955222234">
		<tag k="name" v="Øyen" />
		<tag k="place" v="farm" />
		<tag k="ssr:date" v="2016-05-10" />
		<tag k="ssr:gruppe" v="gardsbebyggelse" />
		<tag k="ssr:hovedgruppe" v="bebyggelse" />
		<tag k="ssr:stedsnr" v="567838" />
		<tag k="ssr:type" v="bruk" />
	</node>
	<node id="-21024" lat="59.6395472184" lon="10.9714833322">
		<tag k="name" v="Nesset" />
		<tag k="place" v="farm" />
		<tag k="ssr:date" v="2016-05-10" />
		<tag k="ssr:gruppe" v="gardsbebyggelse" />
		<tag k="ssr:hovedgruppe" v="bebyggelse" />
		<tag k="ssr:stedsnr" v="567832" />
		<tag k="ssr:type" v="bruk" />
	</node>
	<node id="-21023" lat="59.6902861074" lon="10.9760472193">
		<tag k="fixme" v="consider natural=peak for the most distinct mountains in the district" />
		<tag k="name" v="Engskula" />
		<tag k="natural" v="hill" />
		<tag k="place" v="locality" />
		<tag k="ssr:date" v="2016-05-10" />
		<tag k="ssr:gruppe" v="høyder" />
		<tag k="ssr:hovedgruppe" v="terreng" />
		<tag k="ssr:stedsnr" v="567821" />
		<tag k="ssr:type" v="ås" />
	</node>
	<node id="-21022" lat="59.6878749991" lon="10.9771888862">
		<tag k="name" v="Lønjedalen" />
		<tag k="natural" v="valley" />
		<tag k="place" v="locality" />
		<tag k="ssr:date" v="2016-05-10" />
		<tag k="ssr:gruppe" v="senkninger" />
		<tag k="ssr:hovedgruppe" v="terreng" />
		<tag k="ssr:stedsnr" v="567816" />
		<tag k="ssr:type" v="dal" />
	</node>
	<node id="-21021" lat="59.6883527814" lon="11.0029694426">
		<tag k="name" v="Spissdalen" />
		<tag k="natural" v="valley" />
		<tag k="place" v="locality" />
		<tag k="ssr:date" v="2016-05-10" />
		<tag k="ssr:gruppe" v="senkninger" />
		<tag k="ssr:hovedgruppe" v="terreng" />
		<tag k="ssr:stedsnr" v="567802" />
		<tag k="ssr:type" v="dal" />
	</node>
	<node id="-21020" lat="59.5867333355" lon="11.0024555534">
		<tag k="name" v="Hvitmosen" />
		<tag k="natural" v="wetland" />
		<tag k="ssr:date" v="2016-05-10" />
		<tag k="ssr:gruppe" v="våtmark" />
		<tag k="ssr:hovedgruppe" v="markslag" />
		<tag k="ssr:stedsnr" v="567783" />
		<tag k="ssr:type" v="myr" />
	</node>
	<node id="-21019" lat="59.6783388881" lon="10.9694638951">
		<tag k="fixme" v="consider natural=peak for the most distinct mountains in the district" />
		<tag k="name" v="Multemyråsen" />
		<tag k="natural" v="hill" />
		<tag k="place" v="locality" />
		<tag k="ssr:date" v="2016-05-10" />
		<tag k="ssr:gruppe" v="høyder" />
		<tag k="ssr:hovedgruppe" v="terreng" />
		<tag k="ssr:stedsnr" v="567774" />
		<tag k="ssr:type" v="ås" />
	</node>
	<node id="-21018" lat="59.6226527817" lon="10.9956972142">
		<tag k="name" v="Holtskolen" />
		<tag k="place" v="farm" />
		<tag k="ssr:date" v="2016-05-10" />
		<tag k="ssr:gruppe" v="gardsbebyggelse" />
		<tag k="ssr:hovedgruppe" v="bebyggelse" />
		<tag k="ssr:stedsnr" v="567763" />
		<tag k="ssr:type" v="bruk" />
	</node>
	<node id="-21017" lat="59.6282916669" lon="10.9647694514">
		<tag k="name" v="Sulebru" />
		<tag k="place" v="farm" />
		<tag k="ssr:date" v="2016-05-10" />
		<tag k="ssr:gruppe" v="gardsbebyggelse" />
		<tag k="ssr:hovedgruppe" v="bebyggelse" />
		<tag k="ssr:stedsnr" v="567758" />
		<tag k="ssr:type" v="bruk" />
	</node>
	<node id="-21016" lat="59.6078083326" lon="10.9451777758">
		<tag k="name" v="Kasperhytta" />
		<tag k="place" v="isolated_dwelling" />
		<tag k="ssr:date" v="2016-05-10" />
		<tag k="ssr:gruppe" v="bolighus" />
		<tag k="ssr:hovedgruppe" v="bebyggelse" />
		<tag k="ssr:stedsnr" v="567752" />
		<tag k="ssr:type" v="fritidsbolig" />
	</node>
	<node id="-21015" lat="59.6055083364" lon="11.0025694469">
		<tag k="name" v="Ødegården" />
		<tag k="place" v="locality" />
		<tag k="ssr:date" v="2016-05-10" />
		<tag k="ssr:gruppe" v="dyrkamark" />
		<tag k="ssr:hovedgruppe" v="markslag" />
		<tag k="ssr:stedsnr" v="567750" />
		<tag k="ssr:type" v="jorde" />
	</node>
	<node id="-21014" lat="59.6806055545" lon="11.0171777747">
		<tag k="name" v="Lund" />
		<tag k="place" v="isolated_dwelling" />
		<tag k="ssr:date" v="2016-05-10" />
		<tag k="ssr:gruppe" v="bolighus" />
		<tag k="ssr:hovedgruppe" v="bebyggelse" />
		<tag k="ssr:stedsnr" v="567746" />
		<tag k="ssr:type" v="fritidsbolig" />
	</node>
	<node id="-21013" lat="59.6671222216" lon="11.0359805556">
		<tag k="fixme" v="consider natural=peak for the most distinct mountains in the district" />
		<tag k="name" v="Revåsen" />
		<tag k="natural" v="hill" />
		<tag k="place" v="locality" />
		<tag k="ssr:date" v="2016-05-10" />
		<tag k="ssr:gruppe" v="høyder" />
		<tag k="ssr:hovedgruppe" v="terreng" />
		<tag k="ssr:stedsnr" v="567743" />
		<tag k="ssr:type" v="ås" />
	</node>
	<node id="-21012" lat="59.666999996" lon="11.0126972219">
		<tag k="name" v="Veggernesset" />
		<tag k="place" v="locality" />
		<tag k="ssr:date" v="2016-05-10" />
		<tag k="ssr:gruppe" v="flater" />
		<tag k="ssr:hovedgruppe" v="terreng" />
		<tag k="ssr:stedsnr" v="567738" />
		<tag k="ssr:type" v="slette" />
	</node>
	<node id="-21011" lat="59.6297972201" lon="10.9351722306">
		<tag k="alt_name" v="Pigstad;Pekstad øvre;Greåker" />
		<tag k="name" v="Øvre Pekstad" />
		<tag k="place" v="farm" />
		<tag k="ssr:date" v="2016-05-10" />
		<tag k="ssr:gruppe" v="gardsbebyggelse" />
		<tag k="ssr:hovedgruppe" v="bebyggelse" />
		<tag k="ssr:stedsnr" v="553923" />
		<tag k="ssr:type" v="bruk" />
	</node>
	<node id="-21010" lat="59.5727638916" lon="10.9765083304">
		<tag k="name" v="Mærehytta" />
		<tag k="place" v="isolated_dwelling" />
		<tag k="ssr:date" v="2016-05-10" />
		<tag k="ssr:gruppe" v="bolighus" />
		<tag k="ssr:hovedgruppe" v="bebyggelse" />
		<tag k="ssr:stedsnr" v="610256" />
		<tag k="ssr:type" v="fritidsbolig" />
	</node>
	<node id="-21009" lat="59.5608277818" lon="10.8033666635">
		<tag k="name" v="Bjoner" />
		<tag k="place" v="farm" />
		<tag k="ssr:date" v="2016-05-10" />
		<tag k="ssr:gruppe" v="gardsbebyggelse" />
		<tag k="ssr:hovedgruppe" v="bebyggelse" />
		<tag k="ssr:stedsnr" v="610242" />
		<tag k="ssr:type" v="bruk" />
	</node>
	<node id="-21008" lat="59.5611638863" lon="10.8552083298">
		<tag k="name" v="Hvam" />
		<tag k="place" v="farm" />
		<tag k="ssr:date" v="2016-05-10" />
		<tag k="ssr:gruppe" v="gardsbebyggelse" />
		<tag k="ssr:hovedgruppe" v="bebyggelse" />
		<tag k="ssr:stedsnr" v="610240" />
		<tag k="ssr:type" v="bruk" />
	</node>
	<node id="-21007" lat="59.5603816273" lon="10.8400989159">
		<tag k="alt_name" v="Ringstad søndre" />
		<tag k="name" v="Søndre Ringstad" />
		<tag k="place" v="farm" />
		<tag k="ssr:date" v="2019-03-28" />
		<tag k="ssr:gruppe" v="gardsbebyggelse" />
		<tag k="ssr:hovedgruppe" v="bebyggelse" />
		<tag k="ssr:stedsnr" v="610235" />
		<tag k="ssr:type" v="bruk" />
	</node>
	<node id="-21006" lat="59.5817027785" lon="10.8999416646">
		<tag k="name" v="Risermosan" />
		<tag k="natural" v="wetland" />
		<tag k="ssr:date" v="2016-05-10" />
		<tag k="ssr:gruppe" v="våtmark" />
		<tag k="ssr:hovedgruppe" v="markslag" />
		<tag k="ssr:stedsnr" v="610206" />
		<tag k="ssr:type" v="myr" />
	</node>
	<node id="-21005" lat="59.5779000002" lon="10.9897027862">
		<tag k="name" v="Kroktjernet" />
		<tag k="natural" v="water" />
		<tag k="ssr:date" v="2016-05-10" />
		<tag k="ssr:gruppe" v="stilleståendeVann" />
		<tag k="ssr:hovedgruppe" v="ferskvann" />
		<tag k="ssr:stedsnr" v="610204" />
		<tag k="ssr:type" v="tjern" />
	</node>
	<node id="-21004" lat="59.6943333291" lon="10.9770055532">
		<tag k="alt_name" v="Bredmosen" />
		<tag k="name" v="Breidmosan" />
		<tag k="natural" v="wetland" />
		<tag k="ssr:date" v="2016-05-10" />
		<tag k="ssr:gruppe" v="våtmark" />
		<tag k="ssr:hovedgruppe" v="markslag" />
		<tag k="ssr:stedsnr" v="550406" />
		<tag k="ssr:type" v="myr" />
	</node>
	<node id="-21003" lat="59.5513749995" lon="10.9204555477">
		<tag k="alt_name" v="Bærøetjern" />
		<tag k="name" v="Bæretjernet" />
		<tag k="natural" v="water" />
		<tag k="ssr:date" v="2016-05-10" />
		<tag k="ssr:gruppe" v="stilleståendeVann" />
		<tag k="ssr:hovedgruppe" v="ferskvann" />
		<tag k="ssr:stedsnr" v="550236" />
		<tag k="ssr:type" v="tjern" />
	</node>
	<node id="-21002" lat="59.5471166631" lon="10.7906583402">
		<tag k="alt_name" v="Narvestad øvre" />
		<tag k="name" v="Narvestad" />
		<tag k="place" v="farm" />
		<tag k="ssr:date" v="2016-05-10" />
		<tag k="ssr:gruppe" v="gardsbebyggelse" />
		<tag k="ssr:hovedgruppe" v="bebyggelse" />
		<tag k="ssr:stedsnr" v="550221" />
		<tag k="ssr:type" v="bruk" />
	</node>
	<node id="-21001" lat="59.5472908095" lon="10.8370418323">
		<tag k="fixme" v="multiple name tags, choose one and add the other to alt_name" />
		<tag k="name" v="Skjelfoss;Skjelstad" />
		<tag k="place" v="farm" />
		<tag k="ssr:date" v="2019-05-02" />
		<tag k="ssr:gruppe" v="gardsbebyggelse" />
		<tag k="ssr:hovedgruppe" v="bebyggelse" />
		<tag k="ssr:stedsnr" v="550219" />
		<tag k="ssr:type" v="bruk" />
	</node>
	<node id="-21000" lat="59.5905805558" lon="10.8886638817">
		<tag k="alt_name" v="Hvitstein, s" />
		<tag k="name" v="Hvitsten" />
		<tag k="place" v="farm" />
		<tag k="ssr:date" v="2016-05-10" />
		<tag k="ssr:gruppe" v="gardsbebyggelse" />
		<tag k="ssr:hovedgruppe" v="bebyggelse" />
		<tag k="ssr:stedsnr" v="550193" />
		<tag k="ssr:type" v="bruk" />
	</node>
	<node id="-20999" lat="59.5927249981" lon="10.9301111109">
		<tag k="name" v="Skvetta" />
		<tag k="place" v="farm" />
		<tag k="ssr:date" v="2016-05-10" />
		<tag k="ssr:gruppe" v="gardsbebyggelse" />
		<tag k="ssr:hovedgruppe" v="bebyggelse" />
		<tag k="ssr:stedsnr" v="550190" />
		<tag k="ssr:type" v="bruk" />
	</node>
	<node id="-20998" lat="59.6013388871" lon="10.9384916729">
		<tag k="name" v="Haslerud" />
		<tag k="place" v="farm" />
		<tag k="ssr:date" v="2016-05-10" />
		<tag k="ssr:gruppe" v="gardsbebyggelse" />
		<tag k="ssr:hovedgruppe" v="bebyggelse" />
		<tag k="ssr:stedsnr" v="550146" />
		<tag k="ssr:type" v="bruk" />
	</node>
	<node id="-20997" lat="59.5366611072" lon="10.9021611049">
		<tag k="fixme" v="consider natural=peak for the most distinct mountains in the district" />
		<tag k="name" v="Hytteåsen" />
		<tag k="natural" v="hill" />
		<tag k="place" v="locality" />
		<tag k="ssr:date" v="2016-05-10" />
		<tag k="ssr:gruppe" v="høyder" />
		<tag k="ssr:hovedgruppe" v="terreng" />
		<tag k="ssr:stedsnr" v="550034" />
		<tag k="ssr:type" v="ås" />
	</node>
	<node id="-20996" lat="59.6201833346" lon="10.990058342">
		<tag k="name" v="Melleby" />
		<tag k="place" v="farm" />
		<tag k="ssr:date" v="2016-05-10" />
		<tag k="ssr:gruppe" v="gardsbebyggelse" />
		<tag k="ssr:hovedgruppe" v="bebyggelse" />
		<tag k="ssr:stedsnr" v="549359" />
		<tag k="ssr:type" v="bruk" />
	</node>
	<node id="-20995" lat="59.6179416684" lon="10.9008166657">
		<tag k="name" v="Østerdal" />
		<tag k="place" v="farm" />
		<tag k="ssr:date" v="2016-05-10" />
		<tag k="ssr:gruppe" v="gardsbebyggelse" />
		<tag k="ssr:hovedgruppe" v="bebyggelse" />
		<tag k="ssr:stedsnr" v="549360" />
		<tag k="ssr:type" v="bruk" />
	</node>
	<node id="-20994" lat="59.6254472195" lon="11.0140333308">
		<tag k="alt_name" v="Lippestad m;Leppestad" />
		<tag k="name" v="Nordre Leppestad" />
		<tag k="place" v="farm" />
		<tag k="ssr:date" v="2016-05-10" />
		<tag k="ssr:gruppe" v="gardsbebyggelse" />
		<tag k="ssr:hovedgruppe" v="bebyggelse" />
		<tag k="ssr:stedsnr" v="549338" />
		<tag k="ssr:type" v="bruk" />
	</node>
	<node id="-20993" lat="59.6373638849" lon="11.0107833379">
		<tag k="name" v="Sølvberg" />
		<tag k="place" v="farm" />
		<tag k="ssr:date" v="2016-05-10" />
		<tag k="ssr:gruppe" v="gardsbebyggelse" />
		<tag k="ssr:hovedgruppe" v="bebyggelse" />
		<tag k="ssr:stedsnr" v="549322" />
		<tag k="ssr:type" v="bruk" />
	</node>
	<node id="-20992" lat="59.6374305564" lon="10.9740138909">
		<tag k="name" v="Tassebakke" />
		<tag k="place" v="farm" />
		<tag k="ssr:date" v="2016-05-10" />
		<tag k="ssr:gruppe" v="gardsbebyggelse" />
		<tag k="ssr:hovedgruppe" v="bebyggelse" />
		<tag k="ssr:stedsnr" v="549312" />
		<tag k="ssr:type" v="bruk" />
	</node>
	<node id="-20991" lat="59.5611916642" lon="10.9808027718">
		<tag k="name" v="Seut" />
		<tag k="place" v="isolated_dwelling" />
		<tag k="ssr:date" v="2016-05-10" />
		<tag k="ssr:gruppe" v="bolighus" />
		<tag k="ssr:hovedgruppe" v="bebyggelse" />
		<tag k="ssr:stedsnr" v="549192" />
		<tag k="ssr:type" v="fritidsbolig" />
	</node>
	<node id="-20990" lat="59.6248262925" lon="11.0324444069">
		<tag k="alt_name" v="Knappstad;Knapstad" />
		<tag k="name" v="Knapstad holdeplass" />
		<tag k="railway" v="halt" />
		<tag k="ssr:date" v="2019-02-19" />
		<tag k="ssr:gruppe" v="bane" />
		<tag k="ssr:hovedgruppe" v="infrastruktur" />
		<tag k="ssr:stedsnr" v="541355" />
		<tag k="ssr:type" v="holdeplass" />
		<tag k="train" v="yes" />
	</node>
	<node id="-20989" lat="59.6034249956" lon="10.9085833317">
		<tag k="amenity" v="school" />
		<tag k="name" v="Hagen" />
		<tag k="ssr:date" v="2016-05-10" />
		<tag k="ssr:gruppe" v="institusjoner" />
		<tag k="ssr:hovedgruppe" v="bebyggelse" />
		<tag k="ssr:stedsnr" v="508938" />
		<tag k="ssr:type" v="skole" />
	</node>
	<node id="-20988" lat="59.6237888929" lon="10.9403888843">
		<tag k="name" v="Tingulstadbekken" />
		<tag k="ssr:date" v="2016-05-10" />
		<tag k="ssr:gruppe" v="rennendeVann" />
		<tag k="ssr:hovedgruppe" v="ferskvann" />
		<tag k="ssr:stedsnr" v="508933" />
		<tag k="ssr:type" v="bekk" />
		<tag k="waterway" v="stream" />
	</node>
	<node id="-20987" lat="59.5580972265" lon="10.91888611">
		<tag k="name" v="Pipen" />
		<tag k="place" v="locality" />
		<tag k="ssr:date" v="2016-05-10" />
		<tag k="ssr:gruppe" v="gardsbebyggelse" />
		<tag k="ssr:hovedgruppe" v="bebyggelse" />
		<tag k="ssr:stedsnr" v="508928" />
		<tag k="ssr:type" v="eiendom" />
	</node>
	<node id="-20986" lat="59.5651444446" lon="10.8900500018">
		<tag k="name" v="Røstad" />
		<tag k="place" v="locality" />
		<tag k="ssr:date" v="2016-05-10" />
		<tag k="ssr:gruppe" v="gardsbebyggelse" />
		<tag k="ssr:hovedgruppe" v="bebyggelse" />
		<tag k="ssr:stedsnr" v="508926" />
		<tag k="ssr:type" v="eiendom" />
	</node>
	<node id="-20985" lat="59.5710388852" lon="10.8716499961">
		<tag k="name" v="Sandvollen" />
		<tag k="place" v="farm" />
		<tag k="ssr:date" v="2016-05-10" />
		<tag k="ssr:gruppe" v="gardsbebyggelse" />
		<tag k="ssr:hovedgruppe" v="bebyggelse" />
		<tag k="ssr:stedsnr" v="508921" />
		<tag k="ssr:type" v="bruk" />
	</node>
	<node id="-20984" lat="59.5606111086" lon="10.8064583267">
		<tag k="alt_name" v="Bjoner øvre" />
		<tag k="name" v="Øvre Bjoner" />
		<tag k="place" v="farm" />
		<tag k="ssr:date" v="2016-05-10" />
		<tag k="ssr:gruppe" v="gardsbebyggelse" />
		<tag k="ssr:hovedgruppe" v="bebyggelse" />
		<tag k="ssr:stedsnr" v="508885" />
		<tag k="ssr:type" v="bruk" />
	</node>
	<node id="-20983" lat="59.6132777812" lon="10.8887277713">
		<tag k="alt_name" v="Haug søndre" />
		<tag k="name" v="Søndre Haug" />
		<tag k="place" v="farm" />
		<tag k="ssr:date" v="2016-05-10" />
		<tag k="ssr:gruppe" v="gardsbebyggelse" />
		<tag k="ssr:hovedgruppe" v="bebyggelse" />
		<tag k="ssr:stedsnr" v="507966" />
		<tag k="ssr:type" v="bruk" />
	</node>
	<node id="-20982" lat="59.616619441" lon="10.9234444514">
		<tag k="name" v="Hestehagen" />
		<tag k="place" v="farm" />
		<tag k="ssr:date" v="2016-05-10" />
		<tag k="ssr:gruppe" v="gardsbebyggelse" />
		<tag k="ssr:hovedgruppe" v="bebyggelse" />
		<tag k="ssr:stedsnr" v="507957" />
		<tag k="ssr:type" v="bruk" />
	</node>
	<node id="-20981" lat="59.5466111114" lon="10.9409166741">
		<tag k="name" v="Brannstad" />
		<tag k="natural" v="valley" />
		<tag k="place" v="locality" />
		<tag k="ssr:date" v="2016-05-10" />
		<tag k="ssr:gruppe" v="senkninger" />
		<tag k="ssr:hovedgruppe" v="terreng" />
		<tag k="ssr:stedsnr" v="507928" />
		<tag k="ssr:type" v="botn" />
	</node>
	<node id="-20980" lat="59.5500222179" lon="10.9258416741">
		<tag k="fixme" v="consider natural=peak for the most distinct mountains in the district" />
		<tag k="name" v="Sagåsen" />
		<tag k="natural" v="hill" />
		<tag k="place" v="locality" />
		<tag k="ssr:date" v="2016-05-10" />
		<tag k="ssr:gruppe" v="høyder" />
		<tag k="ssr:hovedgruppe" v="terreng" />
		<tag k="ssr:stedsnr" v="507926" />
		<tag k="ssr:type" v="ås" />
	</node>
	<node id="-20979" lat="59.6469055591" lon="10.9461166607">
		<tag k="name" v="Støttumhøgda" />
		<tag k="place" v="farm" />
		<tag k="ssr:date" v="2016-05-10" />
		<tag k="ssr:gruppe" v="gardsbebyggelse" />
		<tag k="ssr:hovedgruppe" v="bebyggelse" />
		<tag k="ssr:stedsnr" v="507841" />
		<tag k="ssr:type" v="bruk" />
	</node>
	<node id="-20978" lat="59.6961833355" lon="10.9709611185">
		<tag k="fixme" v="consider natural=peak for the most distinct mountains in the district" />
		<tag k="name" v="Mellegårdskula" />
		<tag k="natural" v="hill" />
		<tag k="place" v="locality" />
		<tag k="ssr:date" v="2016-05-10" />
		<tag k="ssr:gruppe" v="høyder" />
		<tag k="ssr:hovedgruppe" v="terreng" />
		<tag k="ssr:stedsnr" v="507830" />
		<tag k="ssr:type" v="ås" />
	</node>
	<node id="-20977" lat="59.6891916643" lon="10.9820444359">
		<tag k="fixme" v="consider natural=peak for the most distinct mountains in the district" />
		<tag k="name" v="Lønjedalsåsen" />
		<tag k="natural" v="hill" />
		<tag k="place" v="locality" />
		<tag k="ssr:date" v="2016-05-10" />
		<tag k="ssr:gruppe" v="høyder" />
		<tag k="ssr:hovedgruppe" v="terreng" />
		<tag k="ssr:stedsnr" v="507829" />
		<tag k="ssr:type" v="ås" />
	</node>
	<node id="-20976" lat="59.6541055602" lon="11.0227222139">
		<tag k="name" v="Roås" />
		<tag k="place" v="farm" />
		<tag k="ssr:date" v="2016-05-10" />
		<tag k="ssr:gruppe" v="gardsbebyggelse" />
		<tag k="ssr:hovedgruppe" v="bebyggelse" />
		<tag k="ssr:stedsnr" v="507801" />
		<tag k="ssr:type" v="bruk" />
	</node>
	<node id="-20975" lat="59.5956083355" lon="11.0042388947">
		<tag k="name" v="Hyskemosen" />
		<tag k="natural" v="wetland" />
		<tag k="ssr:date" v="2016-05-10" />
		<tag k="ssr:gruppe" v="våtmark" />
		<tag k="ssr:hovedgruppe" v="markslag" />
		<tag k="ssr:stedsnr" v="507767" />
		<tag k="ssr:type" v="myr" />
	</node>
	<node id="-20974" lat="59.6684861105" lon="11.0139222237">
		<tag k="name" v="Veggerdalen" />
		<tag k="natural" v="valley" />
		<tag k="place" v="locality" />
		<tag k="ssr:date" v="2016-05-10" />
		<tag k="ssr:gruppe" v="senkninger" />
		<tag k="ssr:hovedgruppe" v="terreng" />
		<tag k="ssr:stedsnr" v="507759" />
		<tag k="ssr:type" v="dal" />
	</node>
	<node id="-20973" lat="59.6876416633" lon="10.983486116">
		<tag k="fixme" v="consider natural=peak for the most distinct mountains in the district" />
		<tag k="name" v="Bergerudåsen" />
		<tag k="natural" v="hill" />
		<tag k="place" v="locality" />
		<tag k="ssr:date" v="2016-05-10" />
		<tag k="ssr:gruppe" v="høyder" />
		<tag k="ssr:hovedgruppe" v="terreng" />
		<tag k="ssr:stedsnr" v="489437" />
		<tag k="ssr:type" v="ås" />
	</node>
	<node id="-20972" lat="59.5539249972" lon="10.916513892">
		<tag k="alt_name" v="Kjernsli" />
		<tag k="name" v="Tjernsli" />
		<tag k="place" v="farm" />
		<tag k="ssr:date" v="2016-05-10" />
		<tag k="ssr:gruppe" v="gardsbebyggelse" />
		<tag k="ssr:hovedgruppe" v="bebyggelse" />
		<tag k="ssr:stedsnr" v="489270" />
		<tag k="ssr:type" v="bruk" />
	</node>
	<node id="-20971" lat="59.5458249986" lon="10.8674749973">
		<tag k="name" v="Karlstad" />
		<tag k="place" v="farm" />
		<tag k="ssr:date" v="2016-05-10" />
		<tag k="ssr:gruppe" v="gardsbebyggelse" />
		<tag k="ssr:hovedgruppe" v="bebyggelse" />
		<tag k="ssr:stedsnr" v="489252" />
		<tag k="ssr:type" v="bruk" />
	</node>
	<node id="-20970" lat="59.5693750037" lon="10.9558277705">
		<tag k="alt_name" v="Lægeråsen" />
		<tag k="fixme" v="consider natural=peak for the most distinct mountains in the district" />
		<tag k="name" v="Legeråsen" />
		<tag k="natural" v="hill" />
		<tag k="place" v="locality" />
		<tag k="ssr:date" v="2016-05-10" />
		<tag k="ssr:gruppe" v="høyder" />
		<tag k="ssr:hovedgruppe" v="terreng" />
		<tag k="ssr:stedsnr" v="489245" />
		<tag k="ssr:type" v="ås" />
	</node>
	<node id="-20969" lat="59.567058332" lon="10.8801749998">
		<tag k="name" v="Lier" />
		<tag k="place" v="isolated_dwelling" />
		<tag k="ssr:date" v="2016-05-10" />
		<tag k="ssr:gruppe" v="bolighus" />
		<tag k="ssr:hovedgruppe" v="bebyggelse" />
		<tag k="ssr:stedsnr" v="489219" />
		<tag k="ssr:type" v="eneboligMindreBoligbygg" />
	</node>
	<node id="-20968" lat="59.6004305595" lon="10.9596749944">
		<tag k="name" v="Haslerudbekken" />
		<tag k="ssr:date" v="2016-05-10" />
		<tag k="ssr:gruppe" v="rennendeVann" />
		<tag k="ssr:hovedgruppe" v="ferskvann" />
		<tag k="ssr:stedsnr" v="489149" />
		<tag k="ssr:type" v="bekk" />
		<tag k="waterway" v="stream" />
	</node>
	<node id="-20967" lat="59.5348611103" lon="10.8151361072">
		<tag k="name" v="Stormyra" />
		<tag k="natural" v="wetland" />
		<tag k="ssr:date" v="2016-05-10" />
		<tag k="ssr:gruppe" v="våtmark" />
		<tag k="ssr:hovedgruppe" v="markslag" />
		<tag k="ssr:stedsnr" v="489028" />
		<tag k="ssr:type" v="myr" />
	</node>
	<node id="-20966" lat="59.6733944484" lon="11.028447216">
		<tag k="alt_name" v="Hov Nordre" />
		<tag k="name" v="Nordre Hov" />
		<tag k="place" v="farm" />
		<tag k="ssr:date" v="2016-05-10" />
		<tag k="ssr:gruppe" v="gardsbebyggelse" />
		<tag k="ssr:hovedgruppe" v="bebyggelse" />
		<tag k="ssr:stedsnr" v="488447" />
		<tag k="ssr:type" v="bruk" />
	</node>
	<node id="-20965" lat="59.6209249996" lon="10.957249992">
		<tag k="alt_name" v="Bovum, nordre" />
		<tag k="name" v="Bovim" />
		<tag k="place" v="farm" />
		<tag k="ssr:date" v="2016-05-10" />
		<tag k="ssr:gruppe" v="gardsbebyggelse" />
		<tag k="ssr:hovedgruppe" v="bebyggelse" />
		<tag k="ssr:stedsnr" v="488335" />
		<tag k="ssr:type" v="bruk" />
	</node>
	<node id="-20964" lat="59.615052782" lon="10.9519749927">
		<tag k="name" v="Gusland" />
		<tag k="place" v="farm" />
		<tag k="ssr:date" v="2016-05-10" />
		<tag k="ssr:gruppe" v="gardsbebyggelse" />
		<tag k="ssr:hovedgruppe" v="bebyggelse" />
		<tag k="ssr:stedsnr" v="488333" />
		<tag k="ssr:type" v="bruk" />
	</node>
	<node id="-20963" lat="59.6229000042" lon="11.0023833382">
		<tag k="name" v="Holt" />
		<tag k="place" v="farm" />
		<tag k="ssr:date" v="2016-05-10" />
		<tag k="ssr:gruppe" v="gardsbebyggelse" />
		<tag k="ssr:hovedgruppe" v="bebyggelse" />
		<tag k="ssr:stedsnr" v="488315" />
		<tag k="ssr:type" v="bruk" />
	</node>
	<node id="-20962" lat="59.6217749974" lon="10.9437833355">
		<tag k="name" v="Tingulstad" />
		<tag k="place" v="farm" />
		<tag k="ssr:date" v="2016-05-10" />
		<tag k="ssr:gruppe" v="gardsbebyggelse" />
		<tag k="ssr:hovedgruppe" v="bebyggelse" />
		<tag k="ssr:stedsnr" v="488302" />
		<tag k="ssr:type" v="bruk" />
	</node>
	<node id="-20961" lat="59.6267027814" lon="10.9591083282">
		<tag k="alt_name" v="Nesset" />
		<tag k="name" v="Neset" />
		<tag k="place" v="farm" />
		<tag k="ssr:date" v="2016-05-10" />
		<tag k="ssr:gruppe" v="gardsbebyggelse" />
		<tag k="ssr:hovedgruppe" v="bebyggelse" />
		<tag k="ssr:stedsnr" v="488299" />
		<tag k="ssr:type" v="bruk" />
	</node>
	<node id="-20960" lat="59.6297638906" lon="10.9665388887">
		<tag k="name" v="Haskilt" />
		<tag k="place" v="farm" />
		<tag k="ssr:date" v="2016-05-10" />
		<tag k="ssr:gruppe" v="gardsbebyggelse" />
		<tag k="ssr:hovedgruppe" v="bebyggelse" />
		<tag k="ssr:stedsnr" v="488280" />
		<tag k="ssr:type" v="bruk" />
	</node>
	<node id="-20959" lat="59.6104305544" lon="10.9636361076">
		<tag k="alt_name" v="Sterkhytta" />
		<tag k="name" v="Sterkehytta" />
		<tag k="place" v="isolated_dwelling" />
		<tag k="ssr:date" v="2016-05-10" />
		<tag k="ssr:gruppe" v="bolighus" />
		<tag k="ssr:hovedgruppe" v="bebyggelse" />
		<tag k="ssr:stedsnr" v="488137" />
		<tag k="ssr:type" v="fritidsbolig" />
	</node>
	<node id="-20958" lat="59.6183666661" lon="10.9166472233">
		<tag k="name" v="Gustvethytta" />
		<tag k="place" v="isolated_dwelling" />
		<tag k="ssr:date" v="2016-05-10" />
		<tag k="ssr:gruppe" v="bolighus" />
		<tag k="ssr:hovedgruppe" v="bebyggelse" />
		<tag k="ssr:stedsnr" v="448931" />
		<tag k="ssr:type" v="fritidsbolig" />
	</node>
	<node id="-20957" lat="59.5693194436" lon="10.8752611196">
		<tag k="name" v="Høgda" />
		<tag k="place" v="farm" />
		<tag k="ssr:date" v="2016-05-10" />
		<tag k="ssr:gruppe" v="gardsbebyggelse" />
		<tag k="ssr:hovedgruppe" v="bebyggelse" />
		<tag k="ssr:stedsnr" v="448922" />
		<tag k="ssr:type" v="bruk" />
	</node>
	<node id="-20956" lat="59.5745888925" lon="10.9224999918">
		<tag k="fixme" v="consider natural=peak for the most distinct mountains in the district" />
		<tag k="name" v="Bøleråsen" />
		<tag k="natural" v="hill" />
		<tag k="place" v="locality" />
		<tag k="ssr:date" v="2016-05-10" />
		<tag k="ssr:gruppe" v="høyder" />
		<tag k="ssr:hovedgruppe" v="terreng" />
		<tag k="ssr:stedsnr" v="448916" />
		<tag k="ssr:type" v="ås" />
	</node>
	<node id="-20955" lat="59.5830361098" lon="10.954441668">
		<tag k="name" v="Fugleleiken" />
		<tag k="place" v="locality" />
		<tag k="ssr:date" v="2016-05-10" />
		<tag k="ssr:gruppe" v="flater" />
		<tag k="ssr:hovedgruppe" v="terreng" />
		<tag k="ssr:stedsnr" v="447968" />
		<tag k="ssr:type" v="slette" />
	</node>
	<node id="-20954" lat="59.5459416652" lon="10.8622361045">
		<tag k="name" v="Bardus" />
		<tag k="place" v="isolated_dwelling" />
		<tag k="ssr:date" v="2016-05-10" />
		<tag k="ssr:gruppe" v="bolighus" />
		<tag k="ssr:hovedgruppe" v="bebyggelse" />
		<tag k="ssr:stedsnr" v="447911" />
		<tag k="ssr:type" v="fritidsbolig" />
	</node>
	<node id="-20953" lat="59.5414305563" lon="10.8443277728">
		<tag k="name" v="Lure" />
		<tag k="place" v="locality" />
		<tag k="ssr:date" v="2016-05-10" />
		<tag k="ssr:gruppe" v="dyrkamark" />
		<tag k="ssr:hovedgruppe" v="markslag" />
		<tag k="ssr:stedsnr" v="447912" />
		<tag k="ssr:type" v="utmark" />
	</node>
	<node id="-20952" lat="59.5465416672" lon="10.8321972262">
		<tag k="name" v="Komnes" />
		<tag k="place" v="locality" />
		<tag k="ssr:date" v="2016-05-10" />
		<tag k="ssr:gruppe" v="gardsbebyggelse" />
		<tag k="ssr:hovedgruppe" v="bebyggelse" />
		<tag k="ssr:stedsnr" v="447908" />
		<tag k="ssr:type" v="eiendom" />
	</node>
	<node id="-20951" lat="59.5539944425" lon="10.8279888875">
		<tag k="name" v="Skog" />
		<tag k="place" v="farm" />
		<tag k="ssr:date" v="2016-05-10" />
		<tag k="ssr:gruppe" v="gardsbebyggelse" />
		<tag k="ssr:hovedgruppe" v="bebyggelse" />
		<tag k="ssr:stedsnr" v="447861" />
		<tag k="ssr:type" v="bruk" />
	</node>
	<node id="-20950" lat="59.6077666671" lon="10.950461105">
		<tag k="fixme" v="consider natural=peak for the most distinct mountains in the district" />
		<tag k="name" v="Høgåsen" />
		<tag k="natural" v="hill" />
		<tag k="place" v="locality" />
		<tag k="ssr:date" v="2016-05-10" />
		<tag k="ssr:gruppe" v="høyder" />
		<tag k="ssr:hovedgruppe" v="terreng" />
		<tag k="ssr:stedsnr" v="447735" />
		<tag k="ssr:type" v="ås" />
	</node>
	<node id="-20949" lat="59.6040638919" lon="10.984619437">
		<tag k="name" v="Krok" />
		<tag k="place" v="farm" />
		<tag k="ssr:date" v="2016-05-10" />
		<tag k="ssr:gruppe" v="gardsbebyggelse" />
		<tag k="ssr:hovedgruppe" v="bebyggelse" />
		<tag k="ssr:stedsnr" v="447730" />
		<tag k="ssr:type" v="bruk" />
	</node>
	<node id="-20948" lat="59.6038222183" lon="10.9538527746">
		<tag k="fixme" v="consider natural=peak for the most distinct mountains in the district" />
		<tag k="name" v="Prestbråten" />
		<tag k="natural" v="hill" />
		<tag k="place" v="locality" />
		<tag k="ssr:date" v="2016-05-10" />
		<tag k="ssr:gruppe" v="høyder" />
		<tag k="ssr:hovedgruppe" v="terreng" />
		<tag k="ssr:stedsnr" v="447727" />
		<tag k="ssr:type" v="ås" />
	</node>
	<node id="-20947" lat="59.6685555519" lon="11.0412305525">
		<tag k="name" v="Hovshytta" />
		<tag k="natural" v="slope" />
		<tag k="place" v="locality" />
		<tag k="ssr:date" v="2016-05-10" />
		<tag k="ssr:gruppe" v="skråninger" />
		<tag k="ssr:hovedgruppe" v="terreng" />
		<tag k="ssr:stedsnr" v="447725" />
		<tag k="ssr:type" v="li" />
	</node>
	<node id="-20946" lat="59.5844694471" lon="10.874780555">
		<tag k="name" v="Grønnsletta" />
		<tag k="place" v="isolated_dwelling" />
		<tag k="ssr:date" v="2016-05-10" />
		<tag k="ssr:gruppe" v="bolighus" />
		<tag k="ssr:hovedgruppe" v="bebyggelse" />
		<tag k="ssr:stedsnr" v="446936" />
		<tag k="ssr:type" v="eneboligMindreBoligbygg" />
	</node>
	<node id="-20945" lat="59.542911113" lon="10.8151111101">
		<tag k="name" v="Berg" />
		<tag k="place" v="farm" />
		<tag k="ssr:date" v="2016-05-10" />
		<tag k="ssr:gruppe" v="gardsbebyggelse" />
		<tag k="ssr:hovedgruppe" v="bebyggelse" />
		<tag k="ssr:stedsnr" v="446901" />
		<tag k="ssr:type" v="bruk" />
	</node>
	<node id="-20944" lat="59.5877611097" lon="10.8958749944">
		<tag k="alt_name" v="Rygge øvre" />
		<tag k="name" v="Øvre Rygge" />
		<tag k="place" v="farm" />
		<tag k="ssr:date" v="2016-05-10" />
		<tag k="ssr:gruppe" v="gardsbebyggelse" />
		<tag k="ssr:hovedgruppe" v="bebyggelse" />
		<tag k="ssr:stedsnr" v="429178" />
		<tag k="ssr:type" v="bruk" />
	</node>
	<node id="-20943" lat="59.5888249962" lon="10.8664027748">
		<tag k="name" v="Nygård" />
		<tag k="place" v="farm" />
		<tag k="ssr:date" v="2016-05-10" />
		<tag k="ssr:gruppe" v="gardsbebyggelse" />
		<tag k="ssr:hovedgruppe" v="bebyggelse" />
		<tag k="ssr:stedsnr" v="429171" />
		<tag k="ssr:type" v="bruk" />
	</node>
	<node id="-20942" lat="59.5795638914" lon="10.9165749937">
		<tag k="name" v="Bøler" />
		<tag k="place" v="farm" />
		<tag k="ssr:date" v="2016-05-10" />
		<tag k="ssr:gruppe" v="gardsbebyggelse" />
		<tag k="ssr:hovedgruppe" v="bebyggelse" />
		<tag k="ssr:stedsnr" v="429163" />
		<tag k="ssr:type" v="bruk" />
	</node>
	<node id="-20941" lat="59.600630552" lon="10.924433336">
		<tag k="amenity" v="place_of_worship" />
		<tag k="denomination" v="lutheran" />
		<tag k="name" v="Hobøl kirke" />
		<tag k="religion" v="christian" />
		<tag k="ssr:date" v="2016-05-10" />
		<tag k="ssr:gruppe" v="kulturinstitusjoner" />
		<tag k="ssr:hovedgruppe" v="kultur" />
		<tag k="ssr:stedsnr" v="429128" />
		<tag k="ssr:type" v="kirke" />
	</node>
	<node id="-20940" lat="59.6808333329" lon="10.9786472278">
		<tag k="name" v="Bergerud" />
		<tag k="place" v="locality" />
		<tag k="ssr:date" v="2016-05-10" />
		<tag k="ssr:gruppe" v="bolighus" />
		<tag k="ssr:hovedgruppe" v="bebyggelse" />
		<tag k="ssr:stedsnr" v="428400" />
		<tag k="ssr:type" v="gammelBosettingsplass" />
	</node>
	<node id="-20939" lat="59.6935277788" lon="11.0527638897">
		<tag k="name" v="Bognerud" />
		<tag k="place" v="farm" />
		<tag k="ssr:date" v="2016-05-10" />
		<tag k="ssr:gruppe" v="gardsbebyggelse" />
		<tag k="ssr:hovedgruppe" v="bebyggelse" />
		<tag k="ssr:stedsnr" v="428378" />
		<tag k="ssr:type" v="bruk" />
	</node>
	<node id="-20938" lat="59.60649722" lon="10.9143500014">
		<tag k="alt_name" v="Stenbøl" />
		<tag k="name" v="Steinbøl" />
		<tag k="place" v="farm" />
		<tag k="ssr:date" v="2016-05-10" />
		<tag k="ssr:gruppe" v="gardsbebyggelse" />
		<tag k="ssr:hovedgruppe" v="bebyggelse" />
		<tag k="ssr:stedsnr" v="428332" />
		<tag k="ssr:type" v="bruk" />
	</node>
	<node id="-20937" lat="59.6165555583" lon="10.8811305518">
		<tag k="alt_name" v="Haugjordet" />
		<tag k="name" v="Haugsjordet" />
		<tag k="place" v="farm" />
		<tag k="ssr:date" v="2016-05-10" />
		<tag k="ssr:gruppe" v="gardsbebyggelse" />
		<tag k="ssr:hovedgruppe" v="bebyggelse" />
		<tag k="ssr:stedsnr" v="428321" />
		<tag k="ssr:type" v="bruk" />
	</node>
	<node id="-20936" lat="59.641" lon="11.0009583268">
		<tag k="alt_name" v="Lilleby, østre;Lilleby" />
		<tag k="name" v="Østre Lilleby" />
		<tag k="place" v="farm" />
		<tag k="ssr:date" v="2016-05-10" />
		<tag k="ssr:gruppe" v="gardsbebyggelse" />
		<tag k="ssr:hovedgruppe" v="bebyggelse" />
		<tag k="ssr:stedsnr" v="428269" />
		<tag k="ssr:type" v="bruk" />
	</node>
	<node id="-20935" lat="59.6574611069" lon="11.0351166575">
		<tag k="name" v="Vesterby" />
		<tag k="place" v="farm" />
		<tag k="ssr:date" v="2016-05-10" />
		<tag k="ssr:gruppe" v="gardsbebyggelse" />
		<tag k="ssr:hovedgruppe" v="bebyggelse" />
		<tag k="ssr:stedsnr" v="427494" />
		<tag k="ssr:type" v="bruk" />
	</node>
	<node id="-20934" lat="59.5694472202" lon="10.9254166641">
		<tag k="fixme" v="consider natural=peak for the most distinct mountains in the district" />
		<tag k="name" v="Brånen" />
		<tag k="natural" v="hill" />
		<tag k="place" v="locality" />
		<tag k="ssr:date" v="2016-05-10" />
		<tag k="ssr:gruppe" v="høyder" />
		<tag k="ssr:hovedgruppe" v="terreng" />
		<tag k="ssr:stedsnr" v="429205" />
		<tag k="ssr:type" v="ås" />
	</node>
	<node id="-20933" lat="59.6142583365" lon="10.8839277759">
		<tag k="name" v="Kroerbekken" />
		<tag k="ssr:date" v="2016-05-10" />
		<tag k="ssr:gruppe" v="rennendeVann" />
		<tag k="ssr:hovedgruppe" v="ferskvann" />
		<tag k="ssr:stedsnr" v="265957" />
		<tag k="ssr:type" v="bekk" />
		<tag k="waterway" v="stream" />
	</node>
	<node id="-20932" lat="59.615108329" lon="10.8887833365">
		<tag k="alt_name" v="Haug nordre" />
		<tag k="name" v="Nordre Haug" />
		<tag k="place" v="farm" />
		<tag k="ssr:date" v="2016-05-10" />
		<tag k="ssr:gruppe" v="gardsbebyggelse" />
		<tag k="ssr:hovedgruppe" v="bebyggelse" />
		<tag k="ssr:stedsnr" v="265954" />
		<tag k="ssr:type" v="bruk" />
	</node>
	<node id="-20931" lat="59.5778638894" lon="10.9998583371">
		<tag k="name" v="Smedebølstangen" />
		<tag k="natural" v="valley" />
		<tag k="place" v="locality" />
		<tag k="ssr:date" v="2016-05-10" />
		<tag k="ssr:gruppe" v="senkninger" />
		<tag k="ssr:hovedgruppe" v="terreng" />
		<tag k="ssr:stedsnr" v="265000" />
		<tag k="ssr:type" v="skar" />
	</node>
	<node id="-20930" lat="59.5996194443" lon="10.8977805576">
		<tag k="name" v="Hulsbekken" />
		<tag k="ssr:date" v="2016-05-10" />
		<tag k="ssr:gruppe" v="rennendeVann" />
		<tag k="ssr:hovedgruppe" v="ferskvann" />
		<tag k="ssr:stedsnr" v="264973" />
		<tag k="ssr:type" v="bekk" />
		<tag k="waterway" v="stream" />
	</node>
	<node id="-20929" lat="59.6125833373" lon="10.927341666">
		<tag k="alt_name" v="Hvitsten øvre" />
		<tag k="name" v="Øvre Hvitsten" />
		<tag k="place" v="farm" />
		<tag k="ssr:date" v="2016-05-10" />
		<tag k="ssr:gruppe" v="gardsbebyggelse" />
		<tag k="ssr:hovedgruppe" v="bebyggelse" />
		<tag k="ssr:stedsnr" v="264958" />
		<tag k="ssr:type" v="bruk" />
	</node>
	<node id="-20928" lat="59.5521666644" lon="10.8010888849">
		<tag k="name" v="Nygård" />
		<tag k="place" v="farm" />
		<tag k="ssr:date" v="2016-05-10" />
		<tag k="ssr:gruppe" v="gardsbebyggelse" />
		<tag k="ssr:hovedgruppe" v="bebyggelse" />
		<tag k="ssr:stedsnr" v="264891" />
		<tag k="ssr:type" v="bruk" />
	</node>
	<node id="-20927" lat="59.6588888871" lon="11.0051805541">
		<tag k="name" v="Engen" />
		<tag k="place" v="farm" />
		<tag k="ssr:date" v="2016-05-10" />
		<tag k="ssr:gruppe" v="gardsbebyggelse" />
		<tag k="ssr:hovedgruppe" v="bebyggelse" />
		<tag k="ssr:stedsnr" v="264813" />
		<tag k="ssr:type" v="bruk" />
	</node>
	<node id="-20926" lat="59.6616833304" lon="11.0422083376">
		<tag k="name" v="Tjormyra" />
		<tag k="natural" v="wetland" />
		<tag k="ssr:date" v="2016-05-10" />
		<tag k="ssr:gruppe" v="våtmark" />
		<tag k="ssr:hovedgruppe" v="markslag" />
		<tag k="ssr:stedsnr" v="264807" />
		<tag k="ssr:type" v="myr" />
	</node>
	<node id="-20925" lat="59.6731888869" lon="10.9708194418">
		<tag k="name" v="Svanesund" />
		<tag k="place" v="farm" />
		<tag k="ssr:date" v="2016-05-10" />
		<tag k="ssr:gruppe" v="gardsbebyggelse" />
		<tag k="ssr:hovedgruppe" v="bebyggelse" />
		<tag k="ssr:stedsnr" v="264790" />
		<tag k="ssr:type" v="bruk" />
	</node>
	<node id="-20924" lat="59.6325444447" lon="10.9594249946">
		<tag k="name" v="Støttum" />
		<tag k="place" v="farm" />
		<tag k="ssr:date" v="2016-05-10" />
		<tag k="ssr:gruppe" v="gardsbebyggelse" />
		<tag k="ssr:hovedgruppe" v="bebyggelse" />
		<tag k="ssr:stedsnr" v="264773" />
		<tag k="ssr:type" v="bruk" />
	</node>
	<node id="-20923" lat="59.611569443" lon="10.9867583277">
		<tag k="name" v="Sandaker" />
		<tag k="place" v="farm" />
		<tag k="ssr:date" v="2016-05-10" />
		<tag k="ssr:gruppe" v="gardsbebyggelse" />
		<tag k="ssr:hovedgruppe" v="bebyggelse" />
		<tag k="ssr:stedsnr" v="264759" />
		<tag k="ssr:type" v="bruk" />
	</node>
	<node id="-20922" lat="59.6703305526" lon="11.0235999925">
		<tag k="name" v="Vaglen" />
		<tag k="place" v="farm" />
		<tag k="ssr:date" v="2016-05-10" />
		<tag k="ssr:gruppe" v="gardsbebyggelse" />
		<tag k="ssr:hovedgruppe" v="bebyggelse" />
		<tag k="ssr:stedsnr" v="264752" />
		<tag k="ssr:type" v="bruk" />
	</node>
	<node id="-20921" lat="59.5716666659" lon="10.8588138951">
		<tag k="alt_name" v="Gleden" />
		<tag k="name" v="Gleda" />
		<tag k="place" v="farm" />
		<tag k="ssr:date" v="2016-05-10" />
		<tag k="ssr:gruppe" v="gardsbebyggelse" />
		<tag k="ssr:hovedgruppe" v="bebyggelse" />
		<tag k="ssr:stedsnr" v="247212" />
		<tag k="ssr:type" v="bruk" />
	</node>
	<node id="-20920" lat="59.5913583292" lon="10.9037499932">
		<tag k="name" v="Riser" />
		<tag k="place" v="farm" />
		<tag k="ssr:date" v="2016-05-10" />
		<tag k="ssr:gruppe" v="gardsbebyggelse" />
		<tag k="ssr:hovedgruppe" v="bebyggelse" />
		<tag k="ssr:stedsnr" v="247183" />
		<tag k="ssr:type" v="bruk" />
	</node>
	<node id="-20919" lat="59.5874583325" lon="10.9400333404">
		<tag k="alt_name" v="Hobølvarde" />
		<tag k="fixme" v="consider natural=peak for the most distinct mountains in the district" />
		<tag k="name" v="Hobøl varde" />
		<tag k="natural" v="hill" />
		<tag k="place" v="locality" />
		<tag k="ssr:date" v="2016-05-10" />
		<tag k="ssr:gruppe" v="høyder" />
		<tag k="ssr:hovedgruppe" v="terreng" />
		<tag k="ssr:stedsnr" v="247181" />
		<tag k="ssr:type" v="ås" />
	</node>
	<node id="-20918" lat="59.5874166662" lon="10.9801722268">
		<tag k="alt_name" v="Juldalshøgda" />
		<tag k="fixme" v="consider natural=peak for the most distinct mountains in the district" />
		<tag k="name" v="Juledagshøgda" />
		<tag k="natural" v="hill" />
		<tag k="place" v="locality" />
		<tag k="ssr:date" v="2016-05-10" />
		<tag k="ssr:gruppe" v="høyder" />
		<tag k="ssr:hovedgruppe" v="terreng" />
		<tag k="ssr:stedsnr" v="247177" />
		<tag k="ssr:type" v="ås" />
	</node>
	<node id="-20917" lat="59.580000003" lon="10.8869750074">
		<tag k="alt_name" v="Rygge nedre" />
		<tag k="name" v="Nedre Rygge" />
		<tag k="place" v="farm" />
		<tag k="ssr:date" v="2016-05-10" />
		<tag k="ssr:gruppe" v="gardsbebyggelse" />
		<tag k="ssr:hovedgruppe" v="bebyggelse" />
		<tag k="ssr:stedsnr" v="247170" />
		<tag k="ssr:type" v="bruk" />
	</node>
	<node id="-20916" lat="59.5334972229" lon="10.7966750087">
		<tag k="alt_name" v="Vang (Blekkhus)" />
		<tag k="name" v="Vang" />
		<tag k="place" v="farm" />
		<tag k="ssr:date" v="2016-05-10" />
		<tag k="ssr:gruppe" v="gardsbebyggelse" />
		<tag k="ssr:hovedgruppe" v="bebyggelse" />
		<tag k="ssr:stedsnr" v="247022" />
		<tag k="ssr:type" v="bruk" />
	</node>
	<node id="-20915" lat="59.542297222" lon="10.9855138862">
		<tag k="alt_name" v="Lommetjern" />
		<tag k="name" v="Lommetjernet" />
		<tag k="natural" v="water" />
		<tag k="ssr:date" v="2016-05-10" />
		<tag k="ssr:gruppe" v="stilleståendeVann" />
		<tag k="ssr:hovedgruppe" v="ferskvann" />
		<tag k="ssr:stedsnr" v="247019" />
		<tag k="ssr:type" v="tjern" />
	</node>
	<node id="-20914" lat="59.5295499999" lon="10.8715055517">
		<tag k="name" v="Slutningen" />
		<tag k="place" v="isolated_dwelling" />
		<tag k="ssr:date" v="2016-05-10" />
		<tag k="ssr:gruppe" v="bolighus" />
		<tag k="ssr:hovedgruppe" v="bebyggelse" />
		<tag k="ssr:stedsnr" v="247011" />
		<tag k="ssr:type" v="fritidsbolig" />
	</node>
	<node id="-20913" lat="59.6792750033" lon="11.0024055529">
		<tag k="name" v="Unås" />
		<tag k="place" v="farm" />
		<tag k="ssr:date" v="2016-05-10" />
		<tag k="ssr:gruppe" v="gardsbebyggelse" />
		<tag k="ssr:hovedgruppe" v="bebyggelse" />
		<tag k="ssr:stedsnr" v="246422" />
		<tag k="ssr:type" v="bruk" />
	</node>
	<node id="-20912" lat="59.6091388914" lon="10.9143277784">
		<tag k="name" v="Orskog" />
		<tag k="place" v="farm" />
		<tag k="ssr:date" v="2016-05-10" />
		<tag k="ssr:gruppe" v="gardsbebyggelse" />
		<tag k="ssr:hovedgruppe" v="bebyggelse" />
		<tag k="ssr:stedsnr" v="246359" />
		<tag k="ssr:type" v="bruk" />
	</node>
	<node id="-20911" lat="59.6117277766" lon="10.9423333367">
		<tag k="name" v="Fjell" />
		<tag k="place" v="farm" />
		<tag k="ssr:date" v="2016-05-10" />
		<tag k="ssr:gruppe" v="gardsbebyggelse" />
		<tag k="ssr:hovedgruppe" v="bebyggelse" />
		<tag k="ssr:stedsnr" v="246350" />
		<tag k="ssr:type" v="bruk" />
	</node>
	<node id="-20910" lat="59.6135805531" lon="10.8888000057">
		<tag k="name" v="Haug" />
		<tag k="place" v="farm" />
		<tag k="ssr:date" v="2016-05-10" />
		<tag k="ssr:gruppe" v="gardsbebyggelse" />
		<tag k="ssr:hovedgruppe" v="bebyggelse" />
		<tag k="ssr:stedsnr" v="246342" />
		<tag k="ssr:type" v="bruk" />
	</node>
	<node id="-20909" lat="59.6252638897" lon="10.9180583389">
		<tag k="name" v="Gustvet" />
		<tag k="place" v="farm" />
		<tag k="ssr:date" v="2016-05-10" />
		<tag k="ssr:gruppe" v="gardsbebyggelse" />
		<tag k="ssr:hovedgruppe" v="bebyggelse" />
		<tag k="ssr:stedsnr" v="246336" />
		<tag k="ssr:type" v="bruk" />
	</node>
	<node id="-20908" lat="59.6213111147" lon="10.9707499951">
		<tag k="name" v="Vestereng" />
		<tag k="place" v="farm" />
		<tag k="ssr:date" v="2016-05-10" />
		<tag k="ssr:gruppe" v="gardsbebyggelse" />
		<tag k="ssr:hovedgruppe" v="bebyggelse" />
		<tag k="ssr:stedsnr" v="246330" />
		<tag k="ssr:type" v="bruk" />
	</node>
	<node id="-20907" lat="59.6289805553" lon="11.0144750047">
		<tag k="alt_name" v="Øvre Lippestad;Lippestad nordre" />
		<tag k="fixme" v="multiple name tags, choose one and add the other to alt_name" />
		<tag k="name" v="Nordre Lippestad;Øvre Leppestad" />
		<tag k="place" v="farm" />
		<tag k="ssr:date" v="2016-05-10" />
		<tag k="ssr:gruppe" v="gardsbebyggelse" />
		<tag k="ssr:hovedgruppe" v="bebyggelse" />
		<tag k="ssr:stedsnr" v="246328" />
		<tag k="ssr:type" v="bruk" />
	</node>
	<node id="-20906" lat="59.6212500031" lon="11.0172333419">
		<tag k="alt_name" v="Lippestad søndre;Søndre Lippestad;Leppestad" />
		<tag k="name" v="Søndre Leppestad" />
		<tag k="place" v="farm" />
		<tag k="ssr:date" v="2016-05-10" />
		<tag k="ssr:gruppe" v="gardsbebyggelse" />
		<tag k="ssr:hovedgruppe" v="bebyggelse" />
		<tag k="ssr:stedsnr" v="246324" />
		<tag k="ssr:type" v="bruk" />
	</node>
	<node id="-20905" lat="59.6061138856" lon="10.9682416721">
		<tag k="fixme" v="consider natural=peak for the most distinct mountains in the district" />
		<tag k="name" v="Høgåsen" />
		<tag k="natural" v="hill" />
		<tag k="place" v="locality" />
		<tag k="ssr:date" v="2016-05-10" />
		<tag k="ssr:gruppe" v="høyder" />
		<tag k="ssr:hovedgruppe" v="terreng" />
		<tag k="ssr:stedsnr" v="246147" />
		<tag k="ssr:type" v="ås" />
	</node>
	<node id="-20904" lat="59.6074750032" lon="10.931424998">
		<tag k="name" v="Skjolden" />
		<tag k="place" v="farm" />
		<tag k="ssr:date" v="2016-05-10" />
		<tag k="ssr:gruppe" v="gardsbebyggelse" />
		<tag k="ssr:hovedgruppe" v="bebyggelse" />
		<tag k="ssr:stedsnr" v="246146" />
		<tag k="ssr:type" v="bruk" />
	</node>
	<node id="-20903" lat="59.5981527771" lon="10.8928611034">
		<tag k="name" v="Hul" />
		<tag k="place" v="farm" />
		<tag k="ssr:date" v="2016-05-10" />
		<tag k="ssr:gruppe" v="gardsbebyggelse" />
		<tag k="ssr:hovedgruppe" v="bebyggelse" />
		<tag k="ssr:stedsnr" v="246137" />
		<tag k="ssr:type" v="bruk" />
	</node>
	<node id="-20902" lat="59.5448583376" lon="10.8712749973">
		<tag k="name" v="Tømt" />
		<tag k="place" v="farm" />
		<tag k="ssr:date" v="2016-05-10" />
		<tag k="ssr:gruppe" v="gardsbebyggelse" />
		<tag k="ssr:hovedgruppe" v="bebyggelse" />
		<tag k="ssr:stedsnr" v="246019" />
		<tag k="ssr:type" v="bruk" />
	</node>
	<node id="-20901" lat="59.6688555601" lon="11.0239999988">
		<tag k="name" v="Vaglen" />
		<tag k="place" v="farm" />
		<tag k="ssr:date" v="2016-05-10" />
		<tag k="ssr:gruppe" v="gardsbebyggelse" />
		<tag k="ssr:hovedgruppe" v="bebyggelse" />
		<tag k="ssr:stedsnr" v="245462" />
		<tag k="ssr:type" v="bruk" />
	</node>
	<node id="-20900" lat="59.6366111132" lon="10.9983388876">
		<tag k="name" v="Berg" />
		<tag k="place" v="farm" />
		<tag k="ssr:date" v="2016-05-10" />
		<tag k="ssr:gruppe" v="gardsbebyggelse" />
		<tag k="ssr:hovedgruppe" v="bebyggelse" />
		<tag k="ssr:stedsnr" v="245301" />
		<tag k="ssr:type" v="bruk" />
	</node>
	<node id="-20899" lat="59.629447219" lon="10.9834055626">
		<tag k="name" v="Hollen" />
		<tag k="place" v="farm" />
		<tag k="ssr:date" v="2016-05-10" />
		<tag k="ssr:gruppe" v="gardsbebyggelse" />
		<tag k="ssr:hovedgruppe" v="bebyggelse" />
		<tag k="ssr:stedsnr" v="245299" />
		<tag k="ssr:type" v="bruk" />
	</node>
	<node id="-20898" lat="59.6447361123" lon="10.9796416714">
		<tag k="alt_name" v="Brekke" />
		<tag k="name" v="Brekka" />
		<tag k="place" v="farm" />
		<tag k="ssr:date" v="2016-05-10" />
		<tag k="ssr:gruppe" v="gardsbebyggelse" />
		<tag k="ssr:hovedgruppe" v="bebyggelse" />
		<tag k="ssr:stedsnr" v="245274" />
		<tag k="ssr:type" v="bruk" />
	</node>
	<node id="-20897" lat="59.6513749989" lon="11.0106111096">
		<tag k="amenity" v="place_of_worship" />
		<tag k="denomination" v="lutheran" />
		<tag k="name" v="Tomter kirke" />
		<tag k="religion" v="christian" />
		<tag k="ssr:date" v="2016-05-10" />
		<tag k="ssr:gruppe" v="kulturinstitusjoner" />
		<tag k="ssr:hovedgruppe" v="kultur" />
		<tag k="ssr:stedsnr" v="245259" />
		<tag k="ssr:type" v="kirke" />
	</node>
	<node id="-20896" lat="59.6684916665" lon="11.0130500077">
		<tag k="bridge" v="yes" />
		<tag k="layer" v="1" />
		<tag k="name" v="Vegger" />
		<tag k="ssr:date" v="2016-05-10" />
		<tag k="ssr:gruppe" v="samferdselsanlegg" />
		<tag k="ssr:hovedgruppe" v="infrastruktur" />
		<tag k="ssr:stedsnr" v="228507" />
		<tag k="ssr:type" v="bru" />
	</node>
	<node id="-20895" lat="59.5783944456" lon="10.9375916598">
		<tag k="bridge" v="yes" />
		<tag k="layer" v="1" />
		<tag k="name" v="Tørjebrua" />
		<tag k="ssr:date" v="2016-05-10" />
		<tag k="ssr:gruppe" v="samferdselsanlegg" />
		<tag k="ssr:hovedgruppe" v="infrastruktur" />
		<tag k="ssr:stedsnr" v="205944" />
		<tag k="ssr:type" v="bru" />
	</node>
	<node id="-20894" lat="59.5857805553" lon="10.8705500058">
		<tag k="name" v="Nygårhytta" />
		<tag k="place" v="isolated_dwelling" />
		<tag k="ssr:date" v="2016-05-10" />
		<tag k="ssr:gruppe" v="bolighus" />
		<tag k="ssr:hovedgruppe" v="bebyggelse" />
		<tag k="ssr:stedsnr" v="205943" />
		<tag k="ssr:type" v="fritidsbolig" />
	</node>
	<node id="-20893" lat="59.554775001" lon="10.9223638813">
		<tag k="name" v="Storebråten" />
		<tag k="place" v="isolated_dwelling" />
		<tag k="ssr:date" v="2016-05-10" />
		<tag k="ssr:gruppe" v="bolighus" />
		<tag k="ssr:hovedgruppe" v="bebyggelse" />
		<tag k="ssr:stedsnr" v="205932" />
		<tag k="ssr:type" v="eneboligMindreBoligbygg" />
	</node>
	<node id="-20892" lat="59.5812750022" lon="10.9995250069">
		<tag k="name" v="Sandmoen" />
		<tag k="place" v="locality" />
		<tag k="ssr:date" v="2016-05-10" />
		<tag k="ssr:gruppe" v="flater" />
		<tag k="ssr:hovedgruppe" v="terreng" />
		<tag k="ssr:stedsnr" v="204974" />
		<tag k="ssr:type" v="mo" />
	</node>
	<node id="-20891" lat="59.6805361115" lon="10.9914055539">
		<tag k="fixme" v="consider natural=peak for the most distinct mountains in the district" />
		<tag k="name" v="Kølabånnåsen" />
		<tag k="natural" v="hill" />
		<tag k="place" v="locality" />
		<tag k="ssr:date" v="2016-05-10" />
		<tag k="ssr:gruppe" v="høyder" />
		<tag k="ssr:hovedgruppe" v="terreng" />
		<tag k="ssr:stedsnr" v="204815" />
		<tag k="ssr:type" v="ås" />
	</node>
	<node id="-20890" lat="59.6718722249" lon="10.9887055589">
		<tag k="name" v="Føskerenga" />
		<tag k="place" v="farm" />
		<tag k="ssr:date" v="2016-05-10" />
		<tag k="ssr:gruppe" v="gardsbebyggelse" />
		<tag k="ssr:hovedgruppe" v="bebyggelse" />
		<tag k="ssr:stedsnr" v="204813" />
		<tag k="ssr:type" v="bruk" />
	</node>
	<node id="-20889" lat="59.7016666633" lon="10.9701083344">
		<tag k="name" v="Åremosen" />
		<tag k="natural" v="wetland" />
		<tag k="ssr:date" v="2016-05-10" />
		<tag k="ssr:gruppe" v="våtmark" />
		<tag k="ssr:hovedgruppe" v="markslag" />
		<tag k="ssr:stedsnr" v="204803" />
		<tag k="ssr:type" v="myr" />
	</node>
	<node id="-20888" lat="59.6884305551" lon="11.0010333383">
		<tag k="fixme" v="consider natural=peak for the most distinct mountains in the district" />
		<tag k="name" v="Vardåsen" />
		<tag k="natural" v="hill" />
		<tag k="place" v="locality" />
		<tag k="ssr:date" v="2016-05-10" />
		<tag k="ssr:gruppe" v="høyder" />
		<tag k="ssr:hovedgruppe" v="terreng" />
		<tag k="ssr:stedsnr" v="204797" />
		<tag k="ssr:type" v="ås" />
	</node>
	<node id="-20887" lat="59.6559583329" lon="11.0387916748">
		<tag k="name" v="Monsrud" />
		<tag k="place" v="farm" />
		<tag k="ssr:date" v="2016-05-10" />
		<tag k="ssr:gruppe" v="gardsbebyggelse" />
		<tag k="ssr:hovedgruppe" v="bebyggelse" />
		<tag k="ssr:stedsnr" v="204785" />
		<tag k="ssr:type" v="bruk" />
	</node>
	<node id="-20886" lat="59.6986111146" lon="11.0131583363">
		<tag k="name" v="Nordli" />
		<tag k="place" v="locality" />
		<tag k="ssr:date" v="2016-05-10" />
		<tag k="ssr:gruppe" v="vegetasjon" />
		<tag k="ssr:hovedgruppe" v="markslag" />
		<tag k="ssr:stedsnr" v="204773" />
		<tag k="ssr:type" v="skog" />
	</node>
	<node id="-20885" lat="59.6160369713" lon="10.9783141795">
		<tag k="name" v="Riggesem" />
		<tag k="place" v="farm" />
		<tag k="ssr:date" v="2019-03-07" />
		<tag k="ssr:gruppe" v="gardsbebyggelse" />
		<tag k="ssr:hovedgruppe" v="bebyggelse" />
		<tag k="ssr:stedsnr" v="204748" />
		<tag k="ssr:type" v="bruk" />
	</node>
	<node id="-20884" lat="59.5970527818" lon="11.0159638831">
		<tag k="fixme" v="consider natural=peak for the most distinct mountains in the district" />
		<tag k="name" v="Evensåsen" />
		<tag k="natural" v="hill" />
		<tag k="place" v="locality" />
		<tag k="ssr:date" v="2016-05-10" />
		<tag k="ssr:gruppe" v="høyder" />
		<tag k="ssr:hovedgruppe" v="terreng" />
		<tag k="ssr:stedsnr" v="204740" />
		<tag k="ssr:type" v="ås" />
	</node>
	<node id="-20883" lat="59.5456861148" lon="10.923175006">
		<tag k="name" v="Slora" />
		<tag k="natural" v="valley" />
		<tag k="place" v="locality" />
		<tag k="ssr:date" v="2016-05-10" />
		<tag k="ssr:gruppe" v="senkninger" />
		<tag k="ssr:hovedgruppe" v="terreng" />
		<tag k="ssr:stedsnr" v="204930" />
		<tag k="ssr:type" v="dal" />
	</node>
	<node id="-20882" lat="59.5533555517" lon="10.8131416613">
		<tag k="alt_name" v="Skinnerud;Skinnerød vestre;Skinnerud vestre" />
		<tag k="name" v="Vestre Skinnerud" />
		<tag k="place" v="farm" />
		<tag k="ssr:date" v="2016-05-10" />
		<tag k="ssr:gruppe" v="gardsbebyggelse" />
		<tag k="ssr:hovedgruppe" v="bebyggelse" />
		<tag k="ssr:stedsnr" v="186239" />
		<tag k="ssr:type" v="bruk" />
	</node>
	<node id="-20881" lat="59.5553250022" lon="10.8365888876">
		<tag k="name" v="Kongshaug" />
		<tag k="place" v="farm" />
		<tag k="ssr:date" v="2016-05-10" />
		<tag k="ssr:gruppe" v="gardsbebyggelse" />
		<tag k="ssr:hovedgruppe" v="bebyggelse" />
		<tag k="ssr:stedsnr" v="186235" />
		<tag k="ssr:type" v="bruk" />
	</node>
	<node id="-20880" lat="59.5540305549" lon="10.9744222302">
		<tag k="alt_name" v="Seutmosen" />
		<tag k="name" v="Seutmosan" />
		<tag k="natural" v="wetland" />
		<tag k="ssr:date" v="2016-05-10" />
		<tag k="ssr:gruppe" v="våtmark" />
		<tag k="ssr:hovedgruppe" v="markslag" />
		<tag k="ssr:stedsnr" v="186229" />
		<tag k="ssr:type" v="myr" />
	</node>
	<node id="-20879" lat="59.5495250015" lon="10.8026944455">
		<tag k="alt_name" v="Vestby" />
		<tag k="name" v="Vesterby" />
		<tag k="place" v="farm" />
		<tag k="ssr:date" v="2016-05-10" />
		<tag k="ssr:gruppe" v="gardsbebyggelse" />
		<tag k="ssr:hovedgruppe" v="bebyggelse" />
		<tag k="ssr:stedsnr" v="186215" />
		<tag k="ssr:type" v="bruk" />
	</node>
	<node id="-20878" lat="59.5935555559" lon="10.9228999946">
		<tag k="name" v="Mære" />
		<tag k="place" v="farm" />
		<tag k="ssr:date" v="2016-05-10" />
		<tag k="ssr:gruppe" v="gardsbebyggelse" />
		<tag k="ssr:hovedgruppe" v="bebyggelse" />
		<tag k="ssr:stedsnr" v="186180" />
		<tag k="ssr:type" v="bruk" />
	</node>
	<node id="-20877" lat="59.5682388924" lon="10.9805194473">
		<tag k="name" v="Stenerudtjernet" />
		<tag k="natural" v="water" />
		<tag k="ssr:date" v="2016-05-10" />
		<tag k="ssr:gruppe" v="stilleståendeVann" />
		<tag k="ssr:hovedgruppe" v="ferskvann" />
		<tag k="ssr:stedsnr" v="186203" />
		<tag k="ssr:type" v="tjern" />
	</node>
	<node id="-20876" lat="59.6009388899" lon="10.9309388961">
		<tag k="name" v="Hovin" />
		<tag k="place" v="farm" />
		<tag k="ssr:date" v="2016-05-10" />
		<tag k="ssr:gruppe" v="gardsbebyggelse" />
		<tag k="ssr:hovedgruppe" v="bebyggelse" />
		<tag k="ssr:stedsnr" v="186135" />
		<tag k="ssr:type" v="bruk" />
	</node>
	<node id="-20875" lat="59.5968638927" lon="10.8712416597">
		<tag k="name" v="Hol" />
		<tag k="place" v="farm" />
		<tag k="ssr:date" v="2016-05-10" />
		<tag k="ssr:gruppe" v="gardsbebyggelse" />
		<tag k="ssr:hovedgruppe" v="bebyggelse" />
		<tag k="ssr:stedsnr" v="186131" />
		<tag k="ssr:type" v="bruk" />
	</node>
	<node id="-20874" lat="59.5893055548" lon="10.9956722236">
		<tag k="fixme" v="consider natural=peak for the most distinct mountains in the district" />
		<tag k="name" v="Sponåsen" />
		<tag k="natural" v="hill" />
		<tag k="place" v="locality" />
		<tag k="ssr:date" v="2016-05-10" />
		<tag k="ssr:gruppe" v="høyder" />
		<tag k="ssr:hovedgruppe" v="terreng" />
		<tag k="ssr:stedsnr" v="186170" />
		<tag k="ssr:type" v="ås" />
	</node>
	<node id="-20873" lat="59.5308111117" lon="10.7857416601">
		<tag k="name" v="Dal" />
		<tag k="place" v="farm" />
		<tag k="ssr:date" v="2016-05-10" />
		<tag k="ssr:gruppe" v="gardsbebyggelse" />
		<tag k="ssr:hovedgruppe" v="bebyggelse" />
		<tag k="ssr:stedsnr" v="186004" />
		<tag k="ssr:type" v="bruk" />
	</node>
	<node id="-20872" lat="59.6716166677" lon="11.0076111065">
		<tag k="name" v="Vegger" />
		<tag k="place" v="farm" />
		<tag k="ssr:date" v="2016-05-10" />
		<tag k="ssr:gruppe" v="gardsbebyggelse" />
		<tag k="ssr:hovedgruppe" v="bebyggelse" />
		<tag k="ssr:stedsnr" v="185437" />
		<tag k="ssr:type" v="bruk" />
	</node>
	<node id="-20871" lat="59.6178277739" lon="10.9581666615">
		<tag k="alt_name" v="Bovum, s" />
		<tag k="name" v="Bovim" />
		<tag k="place" v="farm" />
		<tag k="ssr:date" v="2016-05-10" />
		<tag k="ssr:gruppe" v="gardsbebyggelse" />
		<tag k="ssr:hovedgruppe" v="bebyggelse" />
		<tag k="ssr:stedsnr" v="185346" />
		<tag k="ssr:type" v="bruk" />
	</node>
	<node id="-20870" lat="59.6166750006" lon="10.9342166656">
		<tag k="alt_name" v="Greaker" />
		<tag k="name" v="Greåker" />
		<tag k="place" v="farm" />
		<tag k="ssr:date" v="2016-05-10" />
		<tag k="ssr:gruppe" v="gardsbebyggelse" />
		<tag k="ssr:hovedgruppe" v="bebyggelse" />
		<tag k="ssr:stedsnr" v="185343" />
		<tag k="ssr:type" v="bruk" />
	</node>
	<node id="-20869" lat="59.6190861086" lon="11.018927777">
		<tag k="name" v="Dammen" />
		<tag k="place" v="farm" />
		<tag k="ssr:date" v="2016-05-10" />
		<tag k="ssr:gruppe" v="gardsbebyggelse" />
		<tag k="ssr:hovedgruppe" v="bebyggelse" />
		<tag k="ssr:stedsnr" v="185338" />
		<tag k="ssr:type" v="bruk" />
	</node>
	<node id="-20868" lat="59.6200805588" lon="10.9844138843">
		<tag k="name" v="Foss" />
		<tag k="place" v="farm" />
		<tag k="ssr:date" v="2016-05-10" />
		<tag k="ssr:gruppe" v="gardsbebyggelse" />
		<tag k="ssr:hovedgruppe" v="bebyggelse" />
		<tag k="ssr:stedsnr" v="185335" />
		<tag k="ssr:type" v="bruk" />
	</node>
	<node id="-20867" lat="59.6260611109" lon="11.036550006">
		<tag k="alt_name" v="Ekeberg" />
		<tag k="name" v="Eikeberg" />
		<tag k="place" v="farm" />
		<tag k="ssr:date" v="2016-05-10" />
		<tag k="ssr:gruppe" v="gardsbebyggelse" />
		<tag k="ssr:hovedgruppe" v="bebyggelse" />
		<tag k="ssr:stedsnr" v="185327" />
		<tag k="ssr:type" v="bruk" />
	</node>
	<node id="-20866" lat="59.6281750044" lon="11.020519443">
		<tag k="name" v="Haugen" />
		<tag k="place" v="farm" />
		<tag k="ssr:date" v="2016-05-10" />
		<tag k="ssr:gruppe" v="gardsbebyggelse" />
		<tag k="ssr:hovedgruppe" v="bebyggelse" />
		<tag k="ssr:stedsnr" v="185326" />
		<tag k="ssr:type" v="bruk" />
	</node>
	<node id="-20865" lat="59.625697224" lon="10.9491000016">
		<tag k="name" v="Nærbøl" />
		<tag k="place" v="farm" />
		<tag k="ssr:date" v="2016-05-10" />
		<tag k="ssr:gruppe" v="gardsbebyggelse" />
		<tag k="ssr:hovedgruppe" v="bebyggelse" />
		<tag k="ssr:stedsnr" v="185318" />
		<tag k="ssr:type" v="bruk" />
	</node>
	<node id="-20864" lat="59.6471999975" lon="11.0167138959">
		<tag k="name" v="Hagen" />
		<tag k="place" v="farm" />
		<tag k="ssr:date" v="2016-05-10" />
		<tag k="ssr:gruppe" v="gardsbebyggelse" />
		<tag k="ssr:hovedgruppe" v="bebyggelse" />
		<tag k="ssr:stedsnr" v="185250" />
		<tag k="ssr:type" v="bruk" />
	</node>
	<node id="-20863" lat="59.6020999967" lon="10.9820583384">
		<tag k="alt_name" v="Krok;Krok, vestre" />
		<tag k="name" v="Vestre Krok" />
		<tag k="place" v="farm" />
		<tag k="ssr:date" v="2016-05-10" />
		<tag k="ssr:gruppe" v="gardsbebyggelse" />
		<tag k="ssr:hovedgruppe" v="bebyggelse" />
		<tag k="ssr:stedsnr" v="185138" />
		<tag k="ssr:type" v="bruk" />
	</node>
	<node id="-20862" lat="59.567955555" lon="10.8960833312">
		<tag k="name" v="Trinnenborg" />
		<tag k="place" v="locality" />
		<tag k="ssr:date" v="2016-05-10" />
		<tag k="ssr:gruppe" v="gardsbebyggelse" />
		<tag k="ssr:hovedgruppe" v="bebyggelse" />
		<tag k="ssr:stedsnr" v="144910" />
		<tag k="ssr:type" v="eiendom" />
	</node>
	<node id="-20861" lat="59.5600416681" lon="10.8641888945">
		<tag k="name" v="Hvamshytta" />
		<tag k="place" v="isolated_dwelling" />
		<tag k="ssr:date" v="2016-05-10" />
		<tag k="ssr:gruppe" v="bolighus" />
		<tag k="ssr:hovedgruppe" v="bebyggelse" />
		<tag k="ssr:stedsnr" v="144909" />
		<tag k="ssr:type" v="fritidsbolig" />
	</node>
	<node id="-20860" lat="59.6102138914" lon="10.9006333403">
		<tag k="name" v="Bråten" />
		<tag k="place" v="locality" />
		<tag k="ssr:date" v="2016-05-10" />
		<tag k="ssr:gruppe" v="gardsbebyggelse" />
		<tag k="ssr:hovedgruppe" v="bebyggelse" />
		<tag k="ssr:stedsnr" v="143949" />
		<tag k="ssr:type" v="eiendom" />
	</node>
	<node id="-20859" lat="59.5492972213" lon="10.7732749993">
		<tag k="name" v="Verpe" />
		<tag k="place" v="locality" />
		<tag k="ssr:date" v="2016-05-10" />
		<tag k="ssr:gruppe" v="gardsbebyggelse" />
		<tag k="ssr:hovedgruppe" v="bebyggelse" />
		<tag k="ssr:stedsnr" v="143893" />
		<tag k="ssr:type" v="eiendom" />
	</node>
	<node id="-20858" lat="59.5216944426" lon="10.8013444438">
		<tag k="name" v="Sandli" />
		<tag k="place" v="isolated_dwelling" />
		<tag k="ssr:date" v="2016-05-10" />
		<tag k="ssr:gruppe" v="bolighus" />
		<tag k="ssr:hovedgruppe" v="bebyggelse" />
		<tag k="ssr:stedsnr" v="143860" />
		<tag k="ssr:type" v="eneboligMindreBoligbygg" />
	</node>
	<node id="-20857" lat="59.6410111107" lon="10.969252776">
		<tag k="junction" v="yes" />
		<tag k="name" v="Klågot" />
		<tag k="place" v="locality" />
		<tag k="ssr:date" v="2016-05-10" />
		<tag k="ssr:gruppe" v="veg" />
		<tag k="ssr:hovedgruppe" v="infrastruktur" />
		<tag k="ssr:stedsnr" v="143810" />
		<tag k="ssr:type" v="vegkryss" />
	</node>
	<node id="-20856" lat="59.6452499982" lon="10.9915222193">
		<tag k="name" v="Lilleby" />
		<tag k="place" v="farm" />
		<tag k="ssr:date" v="2016-05-10" />
		<tag k="ssr:gruppe" v="gardsbebyggelse" />
		<tag k="ssr:hovedgruppe" v="bebyggelse" />
		<tag k="ssr:stedsnr" v="143808" />
		<tag k="ssr:type" v="bruk" />
	</node>
	<node id="-20855" lat="59.6412138931" lon="11.0392611145">
		<tag k="name" v="Moa" />
		<tag k="place" v="isolated_dwelling" />
		<tag k="ssr:date" v="2016-05-10" />
		<tag k="ssr:gruppe" v="bolighus" />
		<tag k="ssr:hovedgruppe" v="bebyggelse" />
		<tag k="ssr:stedsnr" v="143785" />
		<tag k="ssr:type" v="fritidsbolig" />
	</node>
	<node id="-20854" lat="59.6943666629" lon="11.0216805614">
		<tag k="name" v="Skogen" />
		<tag k="place" v="isolated_dwelling" />
		<tag k="ssr:date" v="2016-05-10" />
		<tag k="ssr:gruppe" v="bolighus" />
		<tag k="ssr:hovedgruppe" v="bebyggelse" />
		<tag k="ssr:stedsnr" v="143776" />
		<tag k="ssr:type" v="fritidsbolig" />
	</node>
	<node id="-20853" lat="59.6876749999" lon="11.018116675">
		<tag k="name" v="Holtsmosen" />
		<tag k="natural" v="wetland" />
		<tag k="ssr:date" v="2016-05-10" />
		<tag k="ssr:gruppe" v="våtmark" />
		<tag k="ssr:hovedgruppe" v="markslag" />
		<tag k="ssr:stedsnr" v="143774" />
		<tag k="ssr:type" v="myr" />
	</node>
	<node id="-20852" lat="59.6772361089" lon="10.9632944362">
		<tag k="loc_name" v="Multemyra" />
		<tag k="name" v="Svanesundmyra" />
		<tag k="natural" v="wetland" />
		<tag k="ssr:date" v="2016-05-10" />
		<tag k="ssr:gruppe" v="våtmark" />
		<tag k="ssr:hovedgruppe" v="markslag" />
		<tag k="ssr:stedsnr" v="143764" />
		<tag k="ssr:type" v="myr" />
	</node>
	<node id="-20851" lat="59.6265777776" lon="10.9773166625">
		<tag k="name" v="Fosshøgda" />
		<tag k="place" v="farm" />
		<tag k="ssr:date" v="2018-01-31" />
		<tag k="ssr:gruppe" v="gardsbebyggelse" />
		<tag k="ssr:hovedgruppe" v="bebyggelse" />
		<tag k="ssr:stedsnr" v="143754" />
		<tag k="ssr:type" v="bruk" />
	</node>
	<node id="-20850" lat="59.6312694489" lon="11.0207583371">
		<tag k="fixme" v="consider natural=peak for the most distinct mountains in the district" />
		<tag k="name" v="Toenåsen" />
		<tag k="natural" v="hill" />
		<tag k="place" v="locality" />
		<tag k="ssr:date" v="2016-05-10" />
		<tag k="ssr:gruppe" v="høyder" />
		<tag k="ssr:hovedgruppe" v="terreng" />
		<tag k="ssr:stedsnr" v="143753" />
		<tag k="ssr:type" v="ås" />
	</node>
	<node id="-20849" lat="59.596408329" lon="10.9954083348">
		<tag k="name" v="Merradalen" />
		<tag k="natural" v="valley" />
		<tag k="place" v="locality" />
		<tag k="ssr:date" v="2016-05-10" />
		<tag k="ssr:gruppe" v="senkninger" />
		<tag k="ssr:hovedgruppe" v="terreng" />
		<tag k="ssr:stedsnr" v="143735" />
		<tag k="ssr:type" v="dal" />
	</node>
	<node id="-20848" lat="59.5575555588" lon="10.865238889">
		<tag k="alt_name" v="Aspeli" />
		<tag k="name" v="Espeli" />
		<tag k="place" v="isolated_dwelling" />
		<tag k="ssr:date" v="2016-05-10" />
		<tag k="ssr:gruppe" v="bolighus" />
		<tag k="ssr:hovedgruppe" v="bebyggelse" />
		<tag k="ssr:stedsnr" v="125263" />
		<tag k="ssr:type" v="eneboligMindreBoligbygg" />
	</node>
	<node id="-20847" lat="59.5456583368" lon="10.7896416698">
		<tag k="name" v="Åsheim" />
		<tag k="place" v="farm" />
		<tag k="ssr:date" v="2016-05-10" />
		<tag k="ssr:gruppe" v="gardsbebyggelse" />
		<tag k="ssr:hovedgruppe" v="bebyggelse" />
		<tag k="ssr:stedsnr" v="125251" />
		<tag k="ssr:type" v="bruk" />
	</node>
	<node id="-20846" lat="59.5692499957" lon="10.9321305635">
		<tag k="alt_name" v="Søretjern" />
		<tag k="name" v="Søretjernet" />
		<tag k="natural" v="water" />
		<tag k="ssr:date" v="2016-05-10" />
		<tag k="ssr:gruppe" v="stilleståendeVann" />
		<tag k="ssr:hovedgruppe" v="ferskvann" />
		<tag k="ssr:stedsnr" v="125243" />
		<tag k="ssr:type" v="tjern" />
	</node>
	<node id="-20845" lat="59.5873750019" lon="10.9125000058">
		<tag k="name" v="Daler" />
		<tag k="place" v="farm" />
		<tag k="ssr:date" v="2016-05-10" />
		<tag k="ssr:gruppe" v="gardsbebyggelse" />
		<tag k="ssr:hovedgruppe" v="bebyggelse" />
		<tag k="ssr:stedsnr" v="125206" />
		<tag k="ssr:type" v="bruk" />
	</node>
	<node id="-20844" lat="59.5928666628" lon="10.9423083253">
		<tag k="name" v="Nyborg" />
		<tag k="place" v="isolated_dwelling" />
		<tag k="ssr:date" v="2016-05-10" />
		<tag k="ssr:gruppe" v="bolighus" />
		<tag k="ssr:hovedgruppe" v="bebyggelse" />
		<tag k="ssr:stedsnr" v="125203" />
		<tag k="ssr:type" v="fritidsbolig" />
	</node>
	<node id="-20843" lat="59.5928222237" lon="11.0206499975">
		<tag k="name" v="Bøler" />
		<tag k="place" v="farm" />
		<tag k="ssr:date" v="2016-05-10" />
		<tag k="ssr:gruppe" v="gardsbebyggelse" />
		<tag k="ssr:hovedgruppe" v="bebyggelse" />
		<tag k="ssr:stedsnr" v="125144" />
		<tag k="ssr:type" v="bruk" />
	</node>
	<node id="-20842" lat="59.6591000002" lon="10.9948666629">
		<tag k="name" v="Tomter" />
		<tag k="place" v="village" />
		<tag k="ssr:date" v="2016-05-10" />
		<tag k="ssr:gruppe" v="bebyggelsesområder" />
		<tag k="ssr:hovedgruppe" v="bebyggelse" />
		<tag k="ssr:stedsnr" v="124428" />
		<tag k="ssr:type" v="tettsted" />
	</node>
	<node id="-20841" lat="59.6808305534" lon="11.0211555509">
		<tag k="alt_name" v="Syversby" />
		<tag k="name" v="Surby" />
		<tag k="place" v="farm" />
		<tag k="ssr:date" v="2016-05-10" />
		<tag k="ssr:gruppe" v="gardsbebyggelse" />
		<tag k="ssr:hovedgruppe" v="bebyggelse" />
		<tag k="ssr:stedsnr" v="124405" />
		<tag k="ssr:type" v="bruk" />
	</node>
	<node id="-20840" lat="59.6327527785" lon="11.0260555567">
		<tag k="alt_name" v="Toen" />
		<tag k="name" v="Ton" />
		<tag k="place" v="farm" />
		<tag k="ssr:date" v="2016-05-10" />
		<tag k="ssr:gruppe" v="gardsbebyggelse" />
		<tag k="ssr:hovedgruppe" v="bebyggelse" />
		<tag k="ssr:stedsnr" v="124271" />
		<tag k="ssr:type" v="bruk" />
	</node>
	<node id="-20839" lat="59.6393555574" lon="10.9673166694">
		<tag k="alt_name" v="Bjørkeskog" />
		<tag k="name" v="Bjerkeskog" />
		<tag k="place" v="farm" />
		<tag k="ssr:date" v="2016-05-10" />
		<tag k="ssr:gruppe" v="gardsbebyggelse" />
		<tag k="ssr:hovedgruppe" v="bebyggelse" />
		<tag k="ssr:stedsnr" v="124240" />
		<tag k="ssr:type" v="bruk" />
	</node>
	<node id="-20838" lat="59.6524055532" lon="10.9870361184">
		<tag k="alt_name" v="Tolshus" />
		<tag k="name" v="Tolfshus" />
		<tag k="place" v="farm" />
		<tag k="ssr:date" v="2016-05-10" />
		<tag k="ssr:gruppe" v="gardsbebyggelse" />
		<tag k="ssr:hovedgruppe" v="bebyggelse" />
		<tag k="ssr:stedsnr" v="124215" />
		<tag k="ssr:type" v="bruk" />
	</node>
	<node id="-20837" lat="59.6858249964" lon="11.0458500071">
		<tag k="alt_name" v="Jaren Nedre" />
		<tag k="name" v="Nedre Jaren" />
		<tag k="place" v="farm" />
		<tag k="ssr:date" v="2016-05-10" />
		<tag k="ssr:gruppe" v="gardsbebyggelse" />
		<tag k="ssr:hovedgruppe" v="bebyggelse" />
		<tag k="ssr:stedsnr" v="125445" />
		<tag k="ssr:type" v="bruk" />
	</node>
	<node id="-20836" lat="59.6866388899" lon="11.0366722281">
		<tag k="alt_name" v="Svikebøl nedre" />
		<tag k="name" v="Nedre Svikebøl" />
		<tag k="place" v="farm" />
		<tag k="ssr:date" v="2016-05-10" />
		<tag k="ssr:gruppe" v="gardsbebyggelse" />
		<tag k="ssr:hovedgruppe" v="bebyggelse" />
		<tag k="ssr:stedsnr" v="125444" />
		<tag k="ssr:type" v="bruk" />
	</node>
	<node id="-20835" lat="59.6249999989" lon="11.0325027691">
		<tag k="fixme" v="consider place=hamlet" />
		<tag k="name" v="Knapstad" />
		<tag k="old_name" v="Knappstad" />
		<tag k="place" v="farm" />
		<tag k="ssr:date" v="2016-05-10" />
		<tag k="ssr:gruppe" v="gardsbebyggelse" />
		<tag k="ssr:hovedgruppe" v="bebyggelse" />
		<tag k="ssr:stedsnr" v="115056" />
		<tag k="ssr:type" v="gard" />
	</node>
	<node id="-20834" lat="59.6570166678" lon="11.0180027825">
		<tag k="bridge" v="yes" />
		<tag k="layer" v="1" />
		<tag k="name" v="Bliksland" />
		<tag k="ssr:date" v="2016-05-10" />
		<tag k="ssr:gruppe" v="samferdselsanlegg" />
		<tag k="ssr:hovedgruppe" v="infrastruktur" />
		<tag k="ssr:stedsnr" v="107466" />
		<tag k="ssr:type" v="bru" />
	</node>
	<node id="-20833" lat="59.5937249969" lon="10.9863666696">
		<tag k="name" v="Jutulbekken" />
		<tag k="ssr:date" v="2016-05-10" />
		<tag k="ssr:gruppe" v="rennendeVann" />
		<tag k="ssr:hovedgruppe" v="ferskvann" />
		<tag k="ssr:stedsnr" v="82997" />
		<tag k="ssr:type" v="bekk" />
		<tag k="waterway" v="stream" />
	</node>
	<node id="-20832" lat="59.5899138925" lon="10.9911416597">
		<tag k="name" v="Mjærdammen" />
		<tag k="natural" v="water" />
		<tag k="ssr:date" v="2016-05-10" />
		<tag k="ssr:gruppe" v="stilleståendeVann" />
		<tag k="ssr:hovedgruppe" v="ferskvann" />
		<tag k="ssr:stedsnr" v="82970" />
		<tag k="ssr:type" v="tjern" />
	</node>
	<node id="-20831" lat="59.586974996" lon="10.9797666631">
		<tag k="fixme" v="consider natural=peak for the most distinct mountains in the district" />
		<tag k="name" v="Hytteåsen" />
		<tag k="natural" v="hill" />
		<tag k="place" v="locality" />
		<tag k="ssr:date" v="2016-05-10" />
		<tag k="ssr:gruppe" v="høyder" />
		<tag k="ssr:hovedgruppe" v="terreng" />
		<tag k="ssr:stedsnr" v="82969" />
		<tag k="ssr:type" v="ås" />
	</node>
	<node id="-20830" lat="59.5802527809" lon="10.9951722262">
		<tag k="name" v="Moen" />
		<tag k="place" v="locality" />
		<tag k="ssr:date" v="2016-05-10" />
		<tag k="ssr:gruppe" v="flater" />
		<tag k="ssr:hovedgruppe" v="terreng" />
		<tag k="ssr:stedsnr" v="82965" />
		<tag k="ssr:type" v="mo" />
	</node>
	<node id="-20829" lat="59.5975055574" lon="10.9355583291">
		<tag k="name" v="Bjerkelund" />
		<tag k="place" v="locality" />
		<tag k="ssr:date" v="2016-05-10" />
		<tag k="ssr:gruppe" v="gardsbebyggelse" />
		<tag k="ssr:hovedgruppe" v="bebyggelse" />
		<tag k="ssr:stedsnr" v="82961" />
		<tag k="ssr:type" v="eiendom" />
	</node>
	<node id="-20828" lat="59.5695666693" lon="10.8532722162">
		<tag k="alt_name" v="Saksebøl nedre" />
		<tag k="name" v="Nedre Saksebøl" />
		<tag k="place" v="farm" />
		<tag k="ssr:date" v="2016-05-10" />
		<tag k="ssr:gruppe" v="gardsbebyggelse" />
		<tag k="ssr:hovedgruppe" v="bebyggelse" />
		<tag k="ssr:stedsnr" v="82960" />
		<tag k="ssr:type" v="bruk" />
	</node>
	<node id="-20827" lat="59.6057138927" lon="10.9394027759">
		<tag k="name" v="Jonsrud" />
		<tag k="place" v="isolated_dwelling" />
		<tag k="ssr:date" v="2016-05-10" />
		<tag k="ssr:gruppe" v="bolighus" />
		<tag k="ssr:hovedgruppe" v="bebyggelse" />
		<tag k="ssr:stedsnr" v="82949" />
		<tag k="ssr:type" v="fritidsbolig" />
	</node>
	<node id="-20826" lat="59.6078638867" lon="10.9133138937">
		<tag k="name" v="Bilitt" />
		<tag k="place" v="farm" />
		<tag k="ssr:date" v="2016-05-10" />
		<tag k="ssr:gruppe" v="gardsbebyggelse" />
		<tag k="ssr:hovedgruppe" v="bebyggelse" />
		<tag k="ssr:stedsnr" v="82945" />
		<tag k="ssr:type" v="bruk" />
	</node>
	<node id="-20825" lat="59.6228194405" lon="10.9778861191">
		<tag k="name" v="Fossbekken" />
		<tag k="ssr:date" v="2016-05-10" />
		<tag k="ssr:gruppe" v="rennendeVann" />
		<tag k="ssr:hovedgruppe" v="ferskvann" />
		<tag k="ssr:stedsnr" v="82769" />
		<tag k="ssr:type" v="bekk" />
		<tag k="waterway" v="stream" />
	</node>
	<node id="-20824" lat="59.6233916648" lon="10.9615944407">
		<tag k="name" v="Jonsrud" />
		<tag k="place" v="isolated_dwelling" />
		<tag k="ssr:date" v="2016-05-10" />
		<tag k="ssr:gruppe" v="bolighus" />
		<tag k="ssr:hovedgruppe" v="bebyggelse" />
		<tag k="ssr:stedsnr" v="82762" />
		<tag k="ssr:type" v="fritidsbolig" />
	</node>
	<node id="-20823" lat="59.6035722224" lon="10.9958277708">
		<tag k="name" v="Krok" />
		<tag k="place" v="farm" />
		<tag k="ssr:date" v="2016-05-10" />
		<tag k="ssr:gruppe" v="gardsbebyggelse" />
		<tag k="ssr:hovedgruppe" v="bebyggelse" />
		<tag k="ssr:stedsnr" v="82749" />
		<tag k="ssr:type" v="bruk" />
	</node>
	<node id="-20822" lat="59.6747777795" lon="11.0260166657">
		<tag k="name" v="Nordal" />
		<tag k="place" v="isolated_dwelling" />
		<tag k="ssr:date" v="2016-05-10" />
		<tag k="ssr:gruppe" v="bolighus" />
		<tag k="ssr:hovedgruppe" v="bebyggelse" />
		<tag k="ssr:stedsnr" v="82745" />
		<tag k="ssr:type" v="fritidsbolig" />
	</node>
	<node id="-20821" lat="59.6715250026" lon="11.016327782">
		<tag k="name" v="Solli" />
		<tag k="place" v="farm" />
		<tag k="ssr:date" v="2016-05-10" />
		<tag k="ssr:gruppe" v="gardsbebyggelse" />
		<tag k="ssr:hovedgruppe" v="bebyggelse" />
		<tag k="ssr:stedsnr" v="82736" />
		<tag k="ssr:type" v="bruk" />
	</node>
	<node id="-20820" lat="59.678497226" lon="10.9880388857">
		<tag k="name" v="Kølabånn" />
		<tag k="place" v="farm" />
		<tag k="ssr:date" v="2016-05-10" />
		<tag k="ssr:gruppe" v="gardsbebyggelse" />
		<tag k="ssr:hovedgruppe" v="bebyggelse" />
		<tag k="ssr:stedsnr" v="82848" />
		<tag k="ssr:type" v="bruk" />
	</node>
	<node id="-20819" lat="59.6482287578" lon="10.950272823">
		<tag k="name" v="Lilleskog" />
		<tag k="place" v="farm" />
		<tag k="ssr:date" v="2019-02-12" />
		<tag k="ssr:gruppe" v="gardsbebyggelse" />
		<tag k="ssr:hovedgruppe" v="bebyggelse" />
		<tag k="ssr:stedsnr" v="82843" />
		<tag k="ssr:type" v="bruk" />
	</node>
	<node id="-20818" lat="59.6906055567" lon="10.9606638937">
		<tag k="name" v="Viendalen" />
		<tag k="natural" v="valley" />
		<tag k="place" v="locality" />
		<tag k="ssr:date" v="2016-05-10" />
		<tag k="ssr:gruppe" v="senkninger" />
		<tag k="ssr:hovedgruppe" v="terreng" />
		<tag k="ssr:stedsnr" v="82834" />
		<tag k="ssr:type" v="dal" />
	</node>
	<node id="-20817" lat="59.6861749969" lon="10.9994083287">
		<tag k="name" v="Tyrihjellen" />
		<tag k="place" v="farm" />
		<tag k="ssr:date" v="2016-05-10" />
		<tag k="ssr:gruppe" v="gardsbebyggelse" />
		<tag k="ssr:hovedgruppe" v="bebyggelse" />
		<tag k="ssr:stedsnr" v="65407" />
		<tag k="ssr:type" v="bruk" />
	</node>
	<node id="-20816" lat="59.5840527759" lon="10.845416672">
		<tag k="alt_name" v="Låsken" />
		<tag k="name" v="Loska" />
		<tag k="place" v="isolated_dwelling" />
		<tag k="ssr:date" v="2016-05-10" />
		<tag k="ssr:gruppe" v="bolighus" />
		<tag k="ssr:hovedgruppe" v="bebyggelse" />
		<tag k="ssr:stedsnr" v="65166" />
		<tag k="ssr:type" v="fritidsbolig" />
	</node>
	<node id="-20815" lat="59.5208111073" lon="10.7838750085">
		<tag k="name" v="Haglerud" />
		<tag k="place" v="farm" />
		<tag k="ssr:date" v="2016-05-10" />
		<tag k="ssr:gruppe" v="gardsbebyggelse" />
		<tag k="ssr:hovedgruppe" v="bebyggelse" />
		<tag k="ssr:stedsnr" v="65043" />
		<tag k="ssr:type" v="bruk" />
	</node>
	<node id="-20814" lat="59.5403361151" lon="10.8771638873">
		<tag k="name" v="Enga" />
		<tag k="place" v="farm" />
		<tag k="ssr:date" v="2016-05-10" />
		<tag k="ssr:gruppe" v="gardsbebyggelse" />
		<tag k="ssr:hovedgruppe" v="bebyggelse" />
		<tag k="ssr:stedsnr" v="65020" />
		<tag k="ssr:type" v="bruk" />
	</node>
	<node id="-20813" lat="59.5459472242" lon="10.9470555605">
		<tag k="name" v="Svartbekken" />
		<tag k="ssr:date" v="2016-05-10" />
		<tag k="ssr:gruppe" v="rennendeVann" />
		<tag k="ssr:hovedgruppe" v="ferskvann" />
		<tag k="ssr:stedsnr" v="65012" />
		<tag k="ssr:type" v="bekk" />
		<tag k="waterway" v="stream" />
	</node>
	<node id="-20812" lat="59.6970055588" lon="10.991416658">
		<tag k="name" v="Gaupesteinhytta" />
		<tag k="place" v="isolated_dwelling" />
		<tag k="ssr:date" v="2016-05-10" />
		<tag k="ssr:gruppe" v="bolighus" />
		<tag k="ssr:hovedgruppe" v="bebyggelse" />
		<tag k="ssr:stedsnr" v="64402" />
		<tag k="ssr:type" v="fritidsbolig" />
	</node>
	<node id="-20811" lat="59.6146083298" lon="10.9665916633">
		<tag k="alt_name" v="Smedebøl" />
		<tag k="name" v="Smedabøl" />
		<tag k="place" v="farm" />
		<tag k="ssr:date" v="2016-05-10" />
		<tag k="ssr:gruppe" v="gardsbebyggelse" />
		<tag k="ssr:hovedgruppe" v="bebyggelse" />
		<tag k="ssr:stedsnr" v="64359" />
		<tag k="ssr:type" v="bruk" />
	</node>
	<node id="-20810" lat="59.6187138924" lon="10.9033027787">
		<tag k="name" v="Høgda" />
		<tag k="place" v="farm" />
		<tag k="ssr:date" v="2016-05-10" />
		<tag k="ssr:gruppe" v="gardsbebyggelse" />
		<tag k="ssr:hovedgruppe" v="bebyggelse" />
		<tag k="ssr:stedsnr" v="64352" />
		<tag k="ssr:type" v="bruk" />
	</node>
	<node id="-20809" lat="59.629507543" lon="10.9377026083">
		<tag k="alt_name" v="Pigstad;Pigstad øvre;Øvre Pigstad" />
		<tag k="name" v="Pegstad" />
		<tag k="place" v="farm" />
		<tag k="ssr:date" v="2019-04-05" />
		<tag k="ssr:gruppe" v="gardsbebyggelse" />
		<tag k="ssr:hovedgruppe" v="bebyggelse" />
		<tag k="ssr:stedsnr" v="64340" />
		<tag k="ssr:type" v="bruk" />
	</node>
	<node id="-20808" lat="59.5432361079" lon="10.8173388881">
		<tag k="alt_name" v="Bråte søndre" />
		<tag k="name" v="Bråte" />
		<tag k="place" v="farm" />
		<tag k="ssr:date" v="2016-05-10" />
		<tag k="ssr:gruppe" v="gardsbebyggelse" />
		<tag k="ssr:hovedgruppe" v="bebyggelse" />
		<tag k="ssr:stedsnr" v="64024" />
		<tag k="ssr:type" v="bruk" />
	</node>
	<node id="-20807" lat="59.6598869452" lon="11.0023036874">
		<tag k="alt_name" v="Tomter" />
		<tag k="name" v="Tomter stasjon" />
		<tag k="railway" v="station" />
		<tag k="ssr:date" v="2019-01-16" />
		<tag k="ssr:gruppe" v="bane" />
		<tag k="ssr:hovedgruppe" v="infrastruktur" />
		<tag k="ssr:stedsnr" v="63518" />
		<tag k="ssr:type" v="stasjon" />
		<tag k="train" v="yes" />
	</node>
	<node id="-20806" lat="59.6630888898" lon="10.9950138829">
		<tag k="name" v="Øyen" />
		<tag k="place" v="farm" />
		<tag k="ssr:date" v="2016-05-10" />
		<tag k="ssr:gruppe" v="gardsbebyggelse" />
		<tag k="ssr:hovedgruppe" v="bebyggelse" />
		<tag k="ssr:stedsnr" v="63505" />
		<tag k="ssr:type" v="bruk" />
	</node>
	<node id="-20805" lat="59.6667861139" lon="11.0004555574">
		<tag k="name" v="Knatrebakk" />
		<tag k="place" v="farm" />
		<tag k="ssr:date" v="2016-05-10" />
		<tag k="ssr:gruppe" v="gardsbebyggelse" />
		<tag k="ssr:hovedgruppe" v="bebyggelse" />
		<tag k="ssr:stedsnr" v="63499" />
		<tag k="ssr:type" v="bruk" />
	</node>
	<node id="-20804" lat="59.6297079913" lon="10.9408122367">
		<tag k="name" v="Skog" />
		<tag k="place" v="farm" />
		<tag k="ssr:date" v="2019-02-12" />
		<tag k="ssr:gruppe" v="gardsbebyggelse" />
		<tag k="ssr:hovedgruppe" v="bebyggelse" />
		<tag k="ssr:stedsnr" v="63336" />
		<tag k="ssr:type" v="bruk" />
	</node>
	<node id="-20803" lat="59.6465555537" lon="10.9517500028">
		<tag k="name" v="Stubberud" />
		<tag k="place" v="farm" />
		<tag k="ssr:date" v="2016-05-10" />
		<tag k="ssr:gruppe" v="gardsbebyggelse" />
		<tag k="ssr:hovedgruppe" v="bebyggelse" />
		<tag k="ssr:stedsnr" v="63310" />
		<tag k="ssr:type" v="bruk" />
	</node>
	<node id="-20802" lat="59.6475222194" lon="10.9735777848">
		<tag k="name" v="Holen" />
		<tag k="place" v="farm" />
		<tag k="ssr:date" v="2016-05-10" />
		<tag k="ssr:gruppe" v="gardsbebyggelse" />
		<tag k="ssr:hovedgruppe" v="bebyggelse" />
		<tag k="ssr:stedsnr" v="63290" />
		<tag k="ssr:type" v="bruk" />
	</node>
	<node id="-20801" lat="59.6065138919" lon="10.9195888926">
		<tag k="bridge" v="yes" />
		<tag k="layer" v="1" />
		<tag k="name" v="Hobøl" />
		<tag k="ssr:date" v="2016-05-10" />
		<tag k="ssr:gruppe" v="samferdselsanlegg" />
		<tag k="ssr:hovedgruppe" v="infrastruktur" />
		<tag k="ssr:stedsnr" v="46490" />
		<tag k="ssr:type" v="bru" />
	</node>
	<node id="-20800" lat="59.5732611093" lon="10.8702611125">
		<tag k="name" v="Sandbekk" />
		<tag k="place" v="farm" />
		<tag k="ssr:date" v="2016-05-10" />
		<tag k="ssr:gruppe" v="gardsbebyggelse" />
		<tag k="ssr:hovedgruppe" v="bebyggelse" />
		<tag k="ssr:stedsnr" v="23923" />
		<tag k="ssr:type" v="bruk" />
	</node>
	<node id="-20799" lat="59.5862277789" lon="10.9701194459">
		<tag k="name" v="Tjoremosen" />
		<tag k="natural" v="wetland" />
		<tag k="ssr:date" v="2016-05-10" />
		<tag k="ssr:gruppe" v="våtmark" />
		<tag k="ssr:hovedgruppe" v="markslag" />
		<tag k="ssr:stedsnr" v="22973" />
		<tag k="ssr:type" v="myr" />
	</node>
	<node id="-20798" lat="59.5685750008" lon="10.9729999942">
		<tag k="name" v="Stutefoss" />
		<tag k="place" v="locality" />
		<tag k="ssr:date" v="2016-05-10" />
		<tag k="ssr:gruppe" v="flater" />
		<tag k="ssr:hovedgruppe" v="terreng" />
		<tag k="ssr:stedsnr" v="22972" />
		<tag k="ssr:type" v="slette" />
	</node>
	<node id="-20797" lat="59.5484777805" lon="10.8402250054">
		<tag k="name" v="Skjelfoss" />
		<tag k="place" v="farm" />
		<tag k="ssr:date" v="2016-05-10" />
		<tag k="ssr:gruppe" v="gardsbebyggelse" />
		<tag k="ssr:hovedgruppe" v="bebyggelse" />
		<tag k="ssr:stedsnr" v="22922" />
		<tag k="ssr:type" v="bruk" />
	</node>
	<node id="-20796" lat="59.5594361079" lon="10.797166667">
		<tag k="name" v="Bjonerhytta" />
		<tag k="place" v="isolated_dwelling" />
		<tag k="ssr:date" v="2016-05-10" />
		<tag k="ssr:gruppe" v="bolighus" />
		<tag k="ssr:hovedgruppe" v="bebyggelse" />
		<tag k="ssr:stedsnr" v="22862" />
		<tag k="ssr:type" v="eneboligMindreBoligbygg" />
	</node>
	<node id="-20795" lat="59.6491500017" lon="10.9799250021">
		<tag k="name" v="Solbergbekken" />
		<tag k="ssr:date" v="2016-05-10" />
		<tag k="ssr:gruppe" v="rennendeVann" />
		<tag k="ssr:hovedgruppe" v="ferskvann" />
		<tag k="ssr:stedsnr" v="22832" />
		<tag k="ssr:type" v="bekk" />
		<tag k="waterway" v="stream" />
	</node>
	<node id="-20794" lat="59.6071444489" lon="10.9899333319">
		<tag k="name" v="Dalsenga" />
		<tag k="natural" v="slope" />
		<tag k="place" v="locality" />
		<tag k="ssr:date" v="2016-05-10" />
		<tag k="ssr:gruppe" v="skråninger" />
		<tag k="ssr:hovedgruppe" v="terreng" />
		<tag k="ssr:stedsnr" v="22759" />
		<tag k="ssr:type" v="li" />
	</node>
	<node id="-20793" lat="59.6647055537" lon="11.0129972221">
		<tag k="name" v="Nordeng" />
		<tag k="natural" v="hill" />
		<tag k="place" v="locality" />
		<tag k="ssr:date" v="2016-05-10" />
		<tag k="ssr:gruppe" v="høyder" />
		<tag k="ssr:hovedgruppe" v="terreng" />
		<tag k="ssr:stedsnr" v="22748" />
		<tag k="ssr:type" v="høyde" />
	</node>
	<node id="-20792" lat="59.5539527799" lon="10.781463896">
		<tag k="name" v="Brånen" />
		<tag k="place" v="farm" />
		<tag k="ssr:date" v="2016-05-10" />
		<tag k="ssr:gruppe" v="gardsbebyggelse" />
		<tag k="ssr:hovedgruppe" v="bebyggelse" />
		<tag k="ssr:stedsnr" v="4243" />
		<tag k="ssr:type" v="bruk" />
	</node>
	<node id="-20791" lat="59.5546361077" lon="10.8753055556">
		<tag k="name" v="Holo" />
		<tag k="place" v="farm" />
		<tag k="ssr:date" v="2016-05-10" />
		<tag k="ssr:gruppe" v="gardsbebyggelse" />
		<tag k="ssr:hovedgruppe" v="bebyggelse" />
		<tag k="ssr:stedsnr" v="4240" />
		<tag k="ssr:type" v="bruk" />
	</node>
	<node id="-20790" lat="59.5549388891" lon="10.9335055472">
		<tag k="name" v="Bærøe" />
		<tag k="place" v="farm" />
		<tag k="ssr:date" v="2016-05-10" />
		<tag k="ssr:gruppe" v="gardsbebyggelse" />
		<tag k="ssr:hovedgruppe" v="bebyggelse" />
		<tag k="ssr:stedsnr" v="4230" />
		<tag k="ssr:type" v="bruk" />
	</node>
	<node id="-20789" lat="59.5728000026" lon="10.8729861138">
		<tag k="name" v="Stubberud" />
		<tag k="place" v="farm" />
		<tag k="ssr:date" v="2016-05-10" />
		<tag k="ssr:gruppe" v="gardsbebyggelse" />
		<tag k="ssr:hovedgruppe" v="bebyggelse" />
		<tag k="ssr:stedsnr" v="4205" />
		<tag k="ssr:type" v="bruk" />
	</node>
	<node id="-20788" lat="59.6025083348" lon="10.9468527779">
		<tag k="name" v="Huken" />
		<tag k="place" v="farm" />
		<tag k="ssr:date" v="2016-05-10" />
		<tag k="ssr:gruppe" v="gardsbebyggelse" />
		<tag k="ssr:hovedgruppe" v="bebyggelse" />
		<tag k="ssr:stedsnr" v="4134" />
		<tag k="ssr:type" v="bruk" />
	</node>
	<node id="-20787" lat="59.6603722266" lon="11.0187638858">
		<tag k="alt_name" v="Finnstad" />
		<tag k="name" v="Finstad" />
		<tag k="place" v="farm" />
		<tag k="ssr:date" v="2016-05-10" />
		<tag k="ssr:gruppe" v="gardsbebyggelse" />
		<tag k="ssr:hovedgruppe" v="bebyggelse" />
		<tag k="ssr:stedsnr" v="3435" />
		<tag k="ssr:type" v="bruk" />
	</node>
	<node id="-20786" lat="59.6685416678" lon="11.0312055521">
		<tag k="alt_name" v="Hov Søndre;Hov" />
		<tag k="name" v="Søndre Hov" />
		<tag k="place" v="farm" />
		<tag k="ssr:date" v="2016-05-10" />
		<tag k="ssr:gruppe" v="gardsbebyggelse" />
		<tag k="ssr:hovedgruppe" v="bebyggelse" />
		<tag k="ssr:stedsnr" v="3429" />
		<tag k="ssr:type" v="bruk" />
	</node>
	<node id="-20785" lat="59.6760166652" lon="10.9777388907">
		<tag k="alt_name" v="Vien;Vien søndre" />
		<tag k="name" v="Søndre Vien" />
		<tag k="place" v="farm" />
		<tag k="ssr:date" v="2016-05-10" />
		<tag k="ssr:gruppe" v="gardsbebyggelse" />
		<tag k="ssr:hovedgruppe" v="bebyggelse" />
		<tag k="ssr:stedsnr" v="3390" />
		<tag k="ssr:type" v="bruk" />
	</node>
	<node id="-20784" lat="59.6991916661" lon="11.0691250047">
		<tag k="alt_name" v="Skånetjern" />
		<tag k="name" v="Skånetjernet" />
		<tag k="natural" v="water" />
		<tag k="ssr:date" v="2016-05-10" />
		<tag k="ssr:gruppe" v="stilleståendeVann" />
		<tag k="ssr:hovedgruppe" v="ferskvann" />
		<tag k="ssr:stedsnr" v="3350" />
		<tag k="ssr:type" v="tjern" />
	</node>
	<node id="-20783" lat="59.6179055537" lon="10.8902499955">
		<tag k="name" v="Dalås" />
		<tag k="place" v="farm" />
		<tag k="ssr:date" v="2016-05-10" />
		<tag k="ssr:gruppe" v="gardsbebyggelse" />
		<tag k="ssr:hovedgruppe" v="bebyggelse" />
		<tag k="ssr:stedsnr" v="3308" />
		<tag k="ssr:type" v="bruk" />
	</node>
	<node id="-20782" lat="59.6307555598" lon="10.9883583393">
		<tag k="name" v="Nordby" />
		<tag k="place" v="farm" />
		<tag k="ssr:date" v="2016-05-10" />
		<tag k="ssr:gruppe" v="gardsbebyggelse" />
		<tag k="ssr:hovedgruppe" v="bebyggelse" />
		<tag k="ssr:stedsnr" v="3287" />
		<tag k="ssr:type" v="bruk" />
	</node>
	<node id="-20781" lat="59.6408583293" lon="11.0323527839">
		<tag k="name" v="Smalopp" />
		<tag k="place" v="farm" />
		<tag k="ssr:date" v="2016-05-10" />
		<tag k="ssr:gruppe" v="gardsbebyggelse" />
		<tag k="ssr:hovedgruppe" v="bebyggelse" />
		<tag k="ssr:stedsnr" v="3267" />
		<tag k="ssr:type" v="bruk" />
	</node>
	<node id="-20780" lat="59.644466666" lon="11.0197611089">
		<tag k="alt_name" v="Homlerud" />
		<tag k="name" v="Homlerød" />
		<tag k="place" v="farm" />
		<tag k="ssr:date" v="2016-05-10" />
		<tag k="ssr:gruppe" v="gardsbebyggelse" />
		<tag k="ssr:hovedgruppe" v="bebyggelse" />
		<tag k="ssr:stedsnr" v="3266" />
		<tag k="ssr:type" v="bruk" />
	</node>
	<node id="-20779" lat="59.5590527736" lon="10.9515499983">
		<tag k="fixme" v="consider natural=peak for the most distinct mountains in the district" />
		<tag k="name" v="Helvete" />
		<tag k="natural" v="hill" />
		<tag k="place" v="locality" />
		<tag k="ssr:date" v="2016-05-10" />
		<tag k="ssr:gruppe" v="høyder" />
		<tag k="ssr:hovedgruppe" v="terreng" />
		<tag k="ssr:stedsnr" v="3166" />
		<tag k="ssr:type" v="ås" />
	</node>
	<node id="-20778" lat="59.5667638872" lon="10.9167111194">
		<tag k="alt_name" v="Bølertjern" />
		<tag k="name" v="Bølertjernet" />
		<tag k="natural" v="water" />
		<tag k="ssr:date" v="2016-05-10" />
		<tag k="ssr:gruppe" v="stilleståendeVann" />
		<tag k="ssr:hovedgruppe" v="ferskvann" />
		<tag k="ssr:stedsnr" v="3165" />
		<tag k="ssr:type" v="tjern" />
	</node>
	<node id="-20777" lat="59.6045166637" lon="10.9954222152">
		<tag k="alt_name" v="Krok, østre;Krok" />
		<tag k="name" v="Østre Krok" />
		<tag k="place" v="farm" />
		<tag k="ssr:date" v="2016-05-10" />
		<tag k="ssr:gruppe" v="gardsbebyggelse" />
		<tag k="ssr:hovedgruppe" v="bebyggelse" />
		<tag k="ssr:stedsnr" v="3142" />
		<tag k="ssr:type" v="bruk" />
	</node>
	<node id="-20776" lat="59.6108111083" lon="10.9246999957">
		<tag k="alt_name" v="Hvitstein nordre" />
		<tag k="name" v="Nordre Hvitstein" />
		<tag k="place" v="farm" />
		<tag k="ssr:date" v="2016-05-10" />
		<tag k="ssr:gruppe" v="gardsbebyggelse" />
		<tag k="ssr:hovedgruppe" v="bebyggelse" />
		<tag k="ssr:stedsnr" v="3140" />
		<tag k="ssr:type" v="bruk" />
	</node>
	<node id="-20775" lat="59.573238886" lon="10.8796416651">
		<tag k="name" v="Nylenda" />
		<tag k="place" v="farm" />
		<tag k="ssr:date" v="2016-05-10" />
		<tag k="ssr:gruppe" v="gardsbebyggelse" />
		<tag k="ssr:hovedgruppe" v="bebyggelse" />
		<tag k="ssr:stedsnr" v="266907" />
		<tag k="ssr:type" v="bruk" />
	</node>
	<node id="-20770" lat="59.6284701165" lon="10.9550570014">
		<tag k="junction" v="yes" />
		<tag k="name" v="Elvestadkrysset" />
		<tag k="place" v="locality" />
		<tag k="ssr:date" v="2018-01-23" />
		<tag k="ssr:gruppe" v="veg" />
		<tag k="ssr:hovedgruppe" v="infrastruktur" />
		<tag k="ssr:stedsnr" v="981544" />
		<tag k="ssr:type" v="vegkryss" />
	</node>
	<node id="-20769" lat="59.6459249989" lon="10.9319777733">
		<tag k="alt_name" v="Brekkaåsen" />
		<tag k="fixme" v="consider natural=peak for the most distinct mountains in the district" />
		<tag k="name" v="Brekkeåsen" />
		<tag k="natural" v="hill" />
		<tag k="place" v="locality" />
		<tag k="ssr:date" v="2018-01-19" />
		<tag k="ssr:gruppe" v="høyder" />
		<tag k="ssr:hovedgruppe" v="terreng" />
		<tag k="ssr:stedsnr" v="689481" />
		<tag k="ssr:type" v="ås" />
	</node>
	<node id="-20768" lat="59.655558335" lon="11.0040361113">
		<tag k="bridge" v="yes" />
		<tag k="layer" v="1" />
		<tag k="name" v="Brøholt" />
		<tag k="ssr:date" v="2016-05-11" />
		<tag k="ssr:gruppe" v="samferdselsanlegg" />
		<tag k="ssr:hovedgruppe" v="infrastruktur" />
		<tag k="ssr:stedsnr" v="896473" />
		<tag k="ssr:type" v="bru" />
	</node>
	<node id="-20762" lat="59.6378750011" lon="11.0254666644">
		<tag k="alt_name" v="Elverud" />
		<tag k="name" v="Elverød" />
		<tag k="place" v="farm" />
		<tag k="ssr:date" v="2016-05-10" />
		<tag k="ssr:gruppe" v="gardsbebyggelse" />
		<tag k="ssr:hovedgruppe" v="bebyggelse" />
		<tag k="ssr:stedsnr" v="245309" />
		<tag k="ssr:type" v="bruk" />
	</node>
	<node id="-20761" lat="59.6296499984" lon="11.0345666718">
		<tag k="name" v="Sørli" />
		<tag k="place" v="farm" />
		<tag k="ssr:date" v="2016-05-10" />
		<tag k="ssr:gruppe" v="gardsbebyggelse" />
		<tag k="ssr:hovedgruppe" v="bebyggelse" />
		<tag k="ssr:stedsnr" v="245306" />
		<tag k="ssr:type" v="bruk" />
	</node>
	<node id="-20760" lat="59.5849222237" lon="10.8448583287">
		<tag k="name" v="Sagbakken" />
		<tag k="place" v="farm" />
		<tag k="ssr:date" v="2016-05-10" />
		<tag k="ssr:gruppe" v="gardsbebyggelse" />
		<tag k="ssr:hovedgruppe" v="bebyggelse" />
		<tag k="ssr:stedsnr" v="387929" />
		<tag k="ssr:type" v="bruk" />
	</node>
	<node id="-20759" lat="59.5926249964" lon="10.9759555531">
		<tag k="name" v="Ulvegravene" />
		<tag k="natural" v="valley" />
		<tag k="place" v="locality" />
		<tag k="ssr:date" v="2016-05-10" />
		<tag k="ssr:gruppe" v="senkninger" />
		<tag k="ssr:hovedgruppe" v="terreng" />
		<tag k="ssr:stedsnr" v="386995" />
		<tag k="ssr:type" v="søkk" />
	</node>
	<node id="-20758" lat="59.5861833347" lon="10.9980944375">
		<tag k="fixme" v="consider natural=peak for the most distinct mountains in the district" />
		<tag k="name" v="Sponåsfestingen" />
		<tag k="natural" v="hill" />
		<tag k="place" v="locality" />
		<tag k="ssr:date" v="2016-05-10" />
		<tag k="ssr:gruppe" v="høyder" />
		<tag k="ssr:hovedgruppe" v="terreng" />
		<tag k="ssr:stedsnr" v="386978" />
		<tag k="ssr:type" v="ås" />
	</node>
	<node id="-20757" lat="59.5500250041" lon="10.877311117">
		<tag k="name" v="Rognelund" />
		<tag k="place" v="isolated_dwelling" />
		<tag k="ssr:date" v="2016-05-10" />
		<tag k="ssr:gruppe" v="bolighus" />
		<tag k="ssr:hovedgruppe" v="bebyggelse" />
		<tag k="ssr:stedsnr" v="386918" />
		<tag k="ssr:type" v="fritidsbolig" />
	</node>
	<node id="-20756" lat="59.5523277758" lon="10.7776277788">
		<tag k="alt_name" v="Brånen søndre" />
		<tag k="name" v="Søndre Brånen" />
		<tag k="place" v="farm" />
		<tag k="ssr:date" v="2016-05-10" />
		<tag k="ssr:gruppe" v="gardsbebyggelse" />
		<tag k="ssr:hovedgruppe" v="bebyggelse" />
		<tag k="ssr:stedsnr" v="386875" />
		<tag k="ssr:type" v="bruk" />
	</node>
	<node id="-20755" lat="59.558733337" lon="10.7910222262">
		<tag k="name" v="Bjonerneset" />
		<tag k="place" v="locality" />
		<tag k="ssr:date" v="2016-05-10" />
		<tag k="ssr:gruppe" v="gardsbebyggelse" />
		<tag k="ssr:hovedgruppe" v="bebyggelse" />
		<tag k="ssr:stedsnr" v="386869" />
		<tag k="ssr:type" v="eiendom" />
	</node>
	<node id="-20754" lat="59.6797055515" lon="10.9972666579">
		<tag k="fixme" v="consider natural=peak for the most distinct mountains in the district" />
		<tag k="name" v="Fjøsåsen" />
		<tag k="natural" v="hill" />
		<tag k="place" v="locality" />
		<tag k="ssr:date" v="2016-05-10" />
		<tag k="ssr:gruppe" v="høyder" />
		<tag k="ssr:hovedgruppe" v="terreng" />
		<tag k="ssr:stedsnr" v="386832" />
		<tag k="ssr:type" v="ås" />
	</node>
	<node id="-20753" lat="59.6523833349" lon="10.9789749974">
		<tag k="name" v="Plundropp" />
		<tag k="natural" v="slope" />
		<tag k="place" v="locality" />
		<tag k="ssr:date" v="2016-05-10" />
		<tag k="ssr:gruppe" v="skråninger" />
		<tag k="ssr:hovedgruppe" v="terreng" />
		<tag k="ssr:stedsnr" v="386827" />
		<tag k="ssr:type" v="li" />
	</node>
	<node id="-20752" lat="59.6924083292" lon="10.9975611093">
		<tag k="name" v="Brånamosen" />
		<tag k="natural" v="wetland" />
		<tag k="ssr:date" v="2016-05-10" />
		<tag k="ssr:gruppe" v="våtmark" />
		<tag k="ssr:hovedgruppe" v="markslag" />
		<tag k="ssr:stedsnr" v="386819" />
		<tag k="ssr:type" v="myr" />
	</node>
	<node id="-20751" lat="59.6921777794" lon="11.0052277774">
		<tag k="name" v="Elgmyra" />
		<tag k="natural" v="wetland" />
		<tag k="ssr:date" v="2016-05-10" />
		<tag k="ssr:gruppe" v="våtmark" />
		<tag k="ssr:hovedgruppe" v="markslag" />
		<tag k="ssr:stedsnr" v="386808" />
		<tag k="ssr:type" v="myr" />
	</node>
	<node id="-20750" lat="59.6766500009" lon="10.9540722146">
		<tag k="name" v="Sandbekken" />
		<tag k="ssr:date" v="2016-05-10" />
		<tag k="ssr:gruppe" v="rennendeVann" />
		<tag k="ssr:hovedgruppe" v="ferskvann" />
		<tag k="ssr:stedsnr" v="386779" />
		<tag k="ssr:type" v="bekk" />
		<tag k="waterway" v="stream" />
	</node>
	<node id="-20749" lat="59.6222277759" lon="11.0292722179">
		<tag k="alt_name" v="Knapstad vestre;Knapstad" />
		<tag k="name" v="Vestre Knapstad" />
		<tag k="place" v="farm" />
		<tag k="ssr:date" v="2016-05-10" />
		<tag k="ssr:gruppe" v="gardsbebyggelse" />
		<tag k="ssr:hovedgruppe" v="bebyggelse" />
		<tag k="ssr:stedsnr" v="386770" />
		<tag k="ssr:type" v="bruk" />
	</node>
	<node id="-20748" lat="59.605316665" lon="10.9634777864">
		<tag k="highway" v="path" />
		<tag k="name" v="Korsveien" />
		<tag k="ssr:date" v="2016-05-10" />
		<tag k="ssr:gruppe" v="veg" />
		<tag k="ssr:hovedgruppe" v="infrastruktur" />
		<tag k="ssr:stedsnr" v="386761" />
		<tag k="ssr:type" v="sti" />
	</node>
	<node id="-20747" lat="59.6118000041" lon="10.975802772">
		<tag k="name" v="Lauvås" />
		<tag k="place" v="locality" />
		<tag k="ssr:date" v="2016-05-10" />
		<tag k="ssr:gruppe" v="dyrkamark" />
		<tag k="ssr:hovedgruppe" v="markslag" />
		<tag k="ssr:stedsnr" v="386757" />
		<tag k="ssr:type" v="utmark" />
	</node>
	<node id="-20746" lat="59.6217249969" lon="11.0492861189">
		<tag k="name" v="Hollebøltangen" />
		<tag k="place" v="isolated_dwelling" />
		<tag k="ssr:date" v="2016-05-10" />
		<tag k="ssr:gruppe" v="bolighus" />
		<tag k="ssr:hovedgruppe" v="bebyggelse" />
		<tag k="ssr:stedsnr" v="386755" />
		<tag k="ssr:type" v="eneboligMindreBoligbygg" />
	</node>
	<node id="-20745" lat="59.608313885" lon="10.9991194364">
		<tag k="name" v="Grådalen" />
		<tag k="place" v="locality" />
		<tag k="ssr:date" v="2016-05-10" />
		<tag k="ssr:gruppe" v="dyrkamark" />
		<tag k="ssr:hovedgruppe" v="markslag" />
		<tag k="ssr:stedsnr" v="386753" />
		<tag k="ssr:type" v="utmark" />
	</node>
	<node id="-20744" lat="59.6045166628" lon="10.8959722204">
		<tag k="name" v="Hulsnesa" />
		<tag k="place" v="isolated_dwelling" />
		<tag k="ssr:date" v="2016-05-10" />
		<tag k="ssr:gruppe" v="bolighus" />
		<tag k="ssr:hovedgruppe" v="bebyggelse" />
		<tag k="ssr:stedsnr" v="385960" />
		<tag k="ssr:type" v="fritidsbolig" />
	</node>
	<node id="-20743" lat="59.539597223" lon="10.8374194366">
		<tag k="fixme" v="consider natural=peak for the most distinct mountains in the district" />
		<tag k="name" v="Norderås" />
		<tag k="natural" v="hill" />
		<tag k="place" v="locality" />
		<tag k="ssr:date" v="2016-05-10" />
		<tag k="ssr:gruppe" v="høyder" />
		<tag k="ssr:hovedgruppe" v="terreng" />
		<tag k="ssr:stedsnr" v="385928" />
		<tag k="ssr:type" v="ås" />
	</node>
	<node id="-20742" lat="59.5262361139" lon="10.8048305543">
		<tag k="name" v="Ødegården" />
		<tag k="place" v="locality" />
		<tag k="ssr:date" v="2016-05-10" />
		<tag k="ssr:gruppe" v="gardsbebyggelse" />
		<tag k="ssr:hovedgruppe" v="bebyggelse" />
		<tag k="ssr:stedsnr" v="385879" />
		<tag k="ssr:type" v="eiendom" />
	</node>
	<node id="-20741" lat="59.622263888" lon="10.9613722296">
		<tag k="name" v="Klingenberg" />
		<tag k="place" v="farm" />
		<tag k="ssr:date" v="2016-05-10" />
		<tag k="ssr:gruppe" v="gardsbebyggelse" />
		<tag k="ssr:hovedgruppe" v="bebyggelse" />
		<tag k="ssr:stedsnr" v="385783" />
		<tag k="ssr:type" v="bruk" />
	</node>
	<node id="-20740" lat="59.5515916651" lon="10.8600250009">
		<tag k="alt_name" v="Høyfoss" />
		<tag k="name" v="Høgfoss" />
		<tag k="place" v="farm" />
		<tag k="ssr:date" v="2016-05-10" />
		<tag k="ssr:gruppe" v="gardsbebyggelse" />
		<tag k="ssr:hovedgruppe" v="bebyggelse" />
		<tag k="ssr:stedsnr" v="368256" />
		<tag k="ssr:type" v="bruk" />
	</node>
	<node id="-20739" lat="59.5500222218" lon="10.8920166726">
		<tag k="name" v="Tønnerud" />
		<tag k="place" v="farm" />
		<tag k="ssr:date" v="2016-05-10" />
		<tag k="ssr:gruppe" v="gardsbebyggelse" />
		<tag k="ssr:hovedgruppe" v="bebyggelse" />
		<tag k="ssr:stedsnr" v="368254" />
		<tag k="ssr:type" v="bruk" />
	</node>
	<node id="-20738" lat="59.5487999961" lon="10.8542611057">
		<tag k="name" v="Svelgen" />
		<tag k="place" v="farm" />
		<tag k="ssr:date" v="2016-05-10" />
		<tag k="ssr:gruppe" v="gardsbebyggelse" />
		<tag k="ssr:hovedgruppe" v="bebyggelse" />
		<tag k="ssr:stedsnr" v="368234" />
		<tag k="ssr:type" v="bruk" />
	</node>
	<node id="-20737" lat="59.5985972219" lon="10.9126250059">
		<tag k="name" v="Årås" />
		<tag k="place" v="farm" />
		<tag k="ssr:date" v="2016-05-10" />
		<tag k="ssr:gruppe" v="gardsbebyggelse" />
		<tag k="ssr:hovedgruppe" v="bebyggelse" />
		<tag k="ssr:stedsnr" v="368156" />
		<tag k="ssr:type" v="bruk" />
	</node>
	<node id="-20736" lat="59.5389611137" lon="10.9315111149">
		<tag k="fixme" v="consider natural=peak for the most distinct mountains in the district" />
		<tag k="name" v="Korsfuruåsen" />
		<tag k="natural" v="hill" />
		<tag k="place" v="locality" />
		<tag k="ssr:date" v="2016-05-10" />
		<tag k="ssr:gruppe" v="høyder" />
		<tag k="ssr:hovedgruppe" v="terreng" />
		<tag k="ssr:stedsnr" v="368017" />
		<tag k="ssr:type" v="ås" />
	</node>
	<node id="-20735" lat="59.6187000008" lon="11.0093472245">
		<tag k="name" v="Rakelstad" />
		<tag k="place" v="farm" />
		<tag k="ssr:date" v="2016-05-10" />
		<tag k="ssr:gruppe" v="gardsbebyggelse" />
		<tag k="ssr:hovedgruppe" v="bebyggelse" />
		<tag k="ssr:stedsnr" v="367292" />
		<tag k="ssr:type" v="bruk" />
	</node>
	<node id="-20734" lat="59.6431277793" lon="10.9944861107">
		<tag k="alt_name" v="Lilleby, vestre;Lilleby" />
		<tag k="name" v="Vestre Lilleby" />
		<tag k="place" v="farm" />
		<tag k="ssr:date" v="2016-05-10" />
		<tag k="ssr:gruppe" v="gardsbebyggelse" />
		<tag k="ssr:hovedgruppe" v="bebyggelse" />
		<tag k="ssr:stedsnr" v="367236" />
		<tag k="ssr:type" v="bruk" />
	</node>
	<node id="-20733" lat="59.6417666674" lon="10.9537388831">
		<tag k="alt_name" v="Hestehagen" />
		<tag k="name" v="Hesthagen" />
		<tag k="place" v="farm" />
		<tag k="ssr:date" v="2016-05-10" />
		<tag k="ssr:gruppe" v="gardsbebyggelse" />
		<tag k="ssr:hovedgruppe" v="bebyggelse" />
		<tag k="ssr:stedsnr" v="367233" />
		<tag k="ssr:type" v="bruk" />
	</node>
	<node id="-20732" lat="59.6498833301" lon="11.0121194422">
		<tag k="name" v="Tomter" />
		<tag k="place" v="farm" />
		<tag k="ssr:date" v="2016-05-10" />
		<tag k="ssr:gruppe" v="gardsbebyggelse" />
		<tag k="ssr:hovedgruppe" v="bebyggelse" />
		<tag k="ssr:stedsnr" v="367222" />
		<tag k="ssr:type" v="bruk" />
	</node>
	<node id="-20731" lat="59.5653833323" lon="10.9642583295">
		<tag k="name" v="Ertevassmyrene" />
		<tag k="natural" v="wetland" />
		<tag k="ssr:date" v="2016-05-10" />
		<tag k="ssr:gruppe" v="våtmark" />
		<tag k="ssr:hovedgruppe" v="markslag" />
		<tag k="ssr:stedsnr" v="367157" />
		<tag k="ssr:type" v="myr" />
	</node>
	<node id="-20730" lat="59.5623190949" lon="10.8420125163">
		<tag k="name" v="Ringstad" />
		<tag k="place" v="hamlet" />
		<tag k="ssr:date" v="2019-03-28" />
		<tag k="ssr:gruppe" v="gardsbebyggelse" />
		<tag k="ssr:hovedgruppe" v="bebyggelse" />
		<tag k="ssr:stedsnr" v="354980" />
		<tag k="ssr:type" v="navnegard" />
	</node>
	<node id="-20728" lat="59.5702611152" lon="10.8972138873">
		<tag k="name" v="Steintørt" />
		<tag k="natural" v="slope" />
		<tag k="place" v="locality" />
		<tag k="ssr:date" v="2016-05-10" />
		<tag k="ssr:gruppe" v="skråninger" />
		<tag k="ssr:hovedgruppe" v="terreng" />
		<tag k="ssr:stedsnr" v="326931" />
		<tag k="ssr:type" v="li" />
	</node>
	<node id="-20727" lat="59.5525666629" lon="10.8602777841">
		<tag k="name" v="Høyfoss" />
		<tag k="place" v="isolated_dwelling" />
		<tag k="ssr:date" v="2016-05-10" />
		<tag k="ssr:gruppe" v="bolighus" />
		<tag k="ssr:hovedgruppe" v="bebyggelse" />
		<tag k="ssr:stedsnr" v="326928" />
		<tag k="ssr:type" v="eneboligMindreBoligbygg" />
	</node>
	<node id="-20726" lat="59.5527999965" lon="10.8435027851">
		<tag k="name" v="Bekkensten" />
		<tag k="place" v="isolated_dwelling" />
		<tag k="ssr:date" v="2016-05-10" />
		<tag k="ssr:gruppe" v="bolighus" />
		<tag k="ssr:hovedgruppe" v="bebyggelse" />
		<tag k="ssr:stedsnr" v="326925" />
		<tag k="ssr:type" v="eneboligMindreBoligbygg" />
	</node>
	<node id="-20725" lat="59.5599750009" lon="10.8186055545">
		<tag k="name" v="Smertu" />
		<tag k="place" v="farm" />
		<tag k="ssr:date" v="2016-05-10" />
		<tag k="ssr:gruppe" v="gardsbebyggelse" />
		<tag k="ssr:hovedgruppe" v="bebyggelse" />
		<tag k="ssr:stedsnr" v="326870" />
		<tag k="ssr:type" v="bruk" />
	</node>
	<node id="-20724" lat="59.5864555567" lon="10.9463416623">
		<tag k="name" v="Merramyra" />
		<tag k="natural" v="wetland" />
		<tag k="ssr:date" v="2016-05-10" />
		<tag k="ssr:gruppe" v="våtmark" />
		<tag k="ssr:hovedgruppe" v="markslag" />
		<tag k="ssr:stedsnr" v="325969" />
		<tag k="ssr:type" v="myr" />
	</node>
	<node id="-20723" lat="59.5745861125" lon="10.9773194515">
		<tag k="name" v="Breimyra" />
		<tag k="natural" v="wetland" />
		<tag k="ssr:date" v="2016-05-10" />
		<tag k="ssr:gruppe" v="våtmark" />
		<tag k="ssr:hovedgruppe" v="markslag" />
		<tag k="ssr:stedsnr" v="325966" />
		<tag k="ssr:type" v="myr" />
	</node>
	<node id="-20722" lat="59.5713416629" lon="10.9713222185">
		<tag k="name" v="Ramstadstykket" />
		<tag k="place" v="locality" />
		<tag k="ssr:date" v="2016-05-10" />
		<tag k="ssr:gruppe" v="gardsbebyggelse" />
		<tag k="ssr:hovedgruppe" v="bebyggelse" />
		<tag k="ssr:stedsnr" v="325965" />
		<tag k="ssr:type" v="eiendom" />
	</node>
	<node id="-20721" lat="59.5401166643" lon="10.9206388908">
		<tag k="name" v="Orebru" />
		<tag k="natural" v="slope" />
		<tag k="place" v="locality" />
		<tag k="ssr:date" v="2016-05-10" />
		<tag k="ssr:gruppe" v="skråninger" />
		<tag k="ssr:hovedgruppe" v="terreng" />
		<tag k="ssr:stedsnr" v="325918" />
		<tag k="ssr:type" v="bakke" />
	</node>
	<node id="-20720" lat="59.5334472257" lon="10.8074527747">
		<tag k="name" v="Jerpelotten" />
		<tag k="place" v="locality" />
		<tag k="ssr:date" v="2016-05-10" />
		<tag k="ssr:gruppe" v="gardsbebyggelse" />
		<tag k="ssr:hovedgruppe" v="bebyggelse" />
		<tag k="ssr:stedsnr" v="325880" />
		<tag k="ssr:type" v="eiendom" />
	</node>
	<node id="-20719" lat="59.6859944468" lon="10.958200005">
		<tag k="name" v="Tjernsli" />
		<tag k="natural" v="slope" />
		<tag k="place" v="locality" />
		<tag k="ssr:date" v="2016-05-10" />
		<tag k="ssr:gruppe" v="skråninger" />
		<tag k="ssr:hovedgruppe" v="terreng" />
		<tag k="ssr:stedsnr" v="325800" />
		<tag k="ssr:type" v="li" />
	</node>
	<node id="-20718" lat="59.650122224" lon="11.0070611165">
		<tag k="name" v="Tomter" />
		<tag k="place" v="farm" />
		<tag k="ssr:date" v="2016-05-10" />
		<tag k="ssr:gruppe" v="gardsbebyggelse" />
		<tag k="ssr:hovedgruppe" v="bebyggelse" />
		<tag k="ssr:stedsnr" v="325774" />
		<tag k="ssr:type" v="bruk" />
	</node>
	<node id="-20717" lat="59.6642666673" lon="11.0396222264">
		<tag k="name" v="Strevopp" />
		<tag k="natural" v="slope" />
		<tag k="place" v="locality" />
		<tag k="ssr:date" v="2016-05-10" />
		<tag k="ssr:gruppe" v="skråninger" />
		<tag k="ssr:hovedgruppe" v="terreng" />
		<tag k="ssr:stedsnr" v="325772" />
		<tag k="ssr:type" v="bakke" />
	</node>
	<node id="-20716" lat="59.6864388879" lon="11.0165611053">
		<tag k="name" v="Holtet" />
		<tag k="place" v="locality" />
		<tag k="ssr:date" v="2016-05-10" />
		<tag k="ssr:gruppe" v="vegetasjon" />
		<tag k="ssr:hovedgruppe" v="markslag" />
		<tag k="ssr:stedsnr" v="325765" />
		<tag k="ssr:type" v="skog" />
	</node>
	<node id="-20715" lat="59.6198277734" lon="11.0261388865">
		<tag k="name" v="Linnestad" />
		<tag k="place" v="farm" />
		<tag k="ssr:date" v="2016-05-10" />
		<tag k="ssr:gruppe" v="gardsbebyggelse" />
		<tag k="ssr:hovedgruppe" v="bebyggelse" />
		<tag k="ssr:stedsnr" v="325746" />
		<tag k="ssr:type" v="bruk" />
	</node>
	<node id="-20714" lat="59.6082555573" lon="10.9614861084">
		<tag k="name" v="Dammen" />
		<tag k="place" v="locality" />
		<tag k="ssr:date" v="2016-05-10" />
		<tag k="ssr:gruppe" v="dyrkamark" />
		<tag k="ssr:hovedgruppe" v="markslag" />
		<tag k="ssr:stedsnr" v="325739" />
		<tag k="ssr:type" v="utmark" />
	</node>
	<node id="-20713" lat="59.6033888845" lon="10.999247229">
		<tag k="name" v="Bråten" />
		<tag k="place" v="farm" />
		<tag k="ssr:date" v="2016-05-10" />
		<tag k="ssr:gruppe" v="gardsbebyggelse" />
		<tag k="ssr:hovedgruppe" v="bebyggelse" />
		<tag k="ssr:stedsnr" v="325734" />
		<tag k="ssr:type" v="bruk" />
	</node>
	<node id="-20712" lat="59.6670000036" lon="11.0006916682">
		<tag k="name" v="Gran" />
		<tag k="place" v="farm" />
		<tag k="ssr:date" v="2016-05-10" />
		<tag k="ssr:gruppe" v="gardsbebyggelse" />
		<tag k="ssr:hovedgruppe" v="bebyggelse" />
		<tag k="ssr:stedsnr" v="325811" />
		<tag k="ssr:type" v="bruk" />
	</node>
	<node id="-20711" lat="59.6456722207" lon="10.9719666664">
		<tag k="name" v="Vestereng" />
		<tag k="place" v="farm" />
		<tag k="ssr:date" v="2016-05-10" />
		<tag k="ssr:gruppe" v="gardsbebyggelse" />
		<tag k="ssr:hovedgruppe" v="bebyggelse" />
		<tag k="ssr:stedsnr" v="325804" />
		<tag k="ssr:type" v="bruk" />
	</node>
	<node id="-20710" lat="59.6816750035" lon="10.9744555519">
		<tag k="name" v="Myrvoll" />
		<tag k="place" v="farm" />
		<tag k="ssr:date" v="2016-05-10" />
		<tag k="ssr:gruppe" v="gardsbebyggelse" />
		<tag k="ssr:hovedgruppe" v="bebyggelse" />
		<tag k="ssr:stedsnr" v="307445" />
		<tag k="ssr:type" v="bruk" />
	</node>
	<node id="-20709" lat="59.5513277767" lon="10.8822527839">
		<tag k="name" v="Skistad" />
		<tag k="place" v="farm" />
		<tag k="ssr:date" v="2016-05-10" />
		<tag k="ssr:gruppe" v="gardsbebyggelse" />
		<tag k="ssr:hovedgruppe" v="bebyggelse" />
		<tag k="ssr:stedsnr" v="307276" />
		<tag k="ssr:type" v="bruk" />
	</node>
	<node id="-20708" lat="59.5505999969" lon="10.8643750051">
		<tag k="name" v="Karlstad" />
		<tag k="place" v="farm" />
		<tag k="ssr:date" v="2016-05-10" />
		<tag k="ssr:gruppe" v="gardsbebyggelse" />
		<tag k="ssr:hovedgruppe" v="bebyggelse" />
		<tag k="ssr:stedsnr" v="307274" />
		<tag k="ssr:type" v="bruk" />
	</node>
	<node id="-20707" lat="59.5696081685" lon="10.8542078062">
		<tag k="name" v="Saksebøl" />
		<tag k="place" v="hamlet" />
		<tag k="ssr:date" v="2019-03-07" />
		<tag k="ssr:gruppe" v="gardsbebyggelse" />
		<tag k="ssr:hovedgruppe" v="bebyggelse" />
		<tag k="ssr:stedsnr" v="307247" />
		<tag k="ssr:type" v="navnegard" />
	</node>
	<node id="-20706" lat="59.5632472259" lon="10.8443027824">
		<tag k="alt_name" v="Ringstad nordre" />
		<tag k="name" v="Nordre Ringstad" />
		<tag k="place" v="farm" />
		<tag k="ssr:date" v="2016-05-10" />
		<tag k="ssr:gruppe" v="gardsbebyggelse" />
		<tag k="ssr:hovedgruppe" v="bebyggelse" />
		<tag k="ssr:stedsnr" v="307213" />
		<tag k="ssr:type" v="bruk" />
	</node>
	<node id="-20705" lat="59.5658638929" lon="10.844300002">
		<tag k="name" v="Li" />
		<tag k="place" v="farm" />
		<tag k="ssr:date" v="2016-05-10" />
		<tag k="ssr:gruppe" v="gardsbebyggelse" />
		<tag k="ssr:hovedgruppe" v="bebyggelse" />
		<tag k="ssr:stedsnr" v="307214" />
		<tag k="ssr:type" v="bruk" />
	</node>
	<node id="-20704" lat="59.5619277764" lon="10.8311111097">
		<tag k="alt_name" v="Nommestad" />
		<tag k="name" v="Nummestad" />
		<tag k="place" v="farm" />
		<tag k="ssr:date" v="2016-05-10" />
		<tag k="ssr:gruppe" v="gardsbebyggelse" />
		<tag k="ssr:hovedgruppe" v="bebyggelse" />
		<tag k="ssr:stedsnr" v="307211" />
		<tag k="ssr:type" v="bruk" />
	</node>
	<node id="-20703" lat="59.5827749962" lon="10.9599861061">
		<tag k="fixme" v="consider natural=peak for the most distinct mountains in the district" />
		<tag k="name" v="Bjørnås" />
		<tag k="natural" v="hill" />
		<tag k="place" v="locality" />
		<tag k="ssr:date" v="2016-05-10" />
		<tag k="ssr:gruppe" v="høyder" />
		<tag k="ssr:hovedgruppe" v="terreng" />
		<tag k="ssr:stedsnr" v="307184" />
		<tag k="ssr:type" v="ås" />
	</node>
	<node id="-20702" lat="59.532430554" lon="10.8809138865">
		<tag k="name" v="Tjernshagen" />
		<tag k="place" v="farm" />
		<tag k="ssr:date" v="2016-05-10" />
		<tag k="ssr:gruppe" v="gardsbebyggelse" />
		<tag k="ssr:hovedgruppe" v="bebyggelse" />
		<tag k="ssr:stedsnr" v="307035" />
		<tag k="ssr:type" v="bruk" />
	</node>
	<node id="-20701" lat="59.5517472188" lon="10.8176444431">
		<tag k="alt_name" v="Skinnerud;Skinnerud østre;Skinnerød østre" />
		<tag k="name" v="Østre Skinnerud" />
		<tag k="place" v="farm" />
		<tag k="ssr:date" v="2016-05-10" />
		<tag k="ssr:gruppe" v="gardsbebyggelse" />
		<tag k="ssr:hovedgruppe" v="bebyggelse" />
		<tag k="ssr:stedsnr" v="307033" />
		<tag k="ssr:type" v="bruk" />
	</node>
	<node id="-20700" lat="59.630425004" lon="10.9988222176">
		<tag k="name" v="Dullerud" />
		<tag k="place" v="farm" />
		<tag k="ssr:date" v="2016-05-10" />
		<tag k="ssr:gruppe" v="gardsbebyggelse" />
		<tag k="ssr:hovedgruppe" v="bebyggelse" />
		<tag k="ssr:stedsnr" v="306303" />
		<tag k="ssr:type" v="bruk" />
	</node>
	<node id="-20699" lat="59.6461388922" lon="11.0255055474">
		<tag k="alt_name" v="Ødegård" />
		<tag k="name" v="Ødegården" />
		<tag k="place" v="farm" />
		<tag k="ssr:date" v="2016-05-10" />
		<tag k="ssr:gruppe" v="gardsbebyggelse" />
		<tag k="ssr:hovedgruppe" v="bebyggelse" />
		<tag k="ssr:stedsnr" v="306280" />
		<tag k="ssr:type" v="bruk" />
	</node>
	<node id="-20698" lat="59.6219833328" lon="10.9833611184">
		<tag k="bridge" v="yes" />
		<tag k="layer" v="1" />
		<tag k="name" v="Foss" />
		<tag k="ssr:date" v="2016-05-10" />
		<tag k="ssr:gruppe" v="samferdselsanlegg" />
		<tag k="ssr:hovedgruppe" v="infrastruktur" />
		<tag k="ssr:stedsnr" v="289473" />
		<tag k="ssr:type" v="bru" />
	</node>
	<node id="-20697" lat="59.6421861107" lon="10.9777999965">
		<tag k="bridge" v="yes" />
		<tag k="layer" v="1" />
		<tag k="name" v="Brekke" />
		<tag k="ssr:date" v="2016-05-10" />
		<tag k="ssr:gruppe" v="samferdselsanlegg" />
		<tag k="ssr:hovedgruppe" v="infrastruktur" />
		<tag k="ssr:stedsnr" v="289461" />
		<tag k="ssr:type" v="bru" />
	</node>
</osm>
