<?xml version="1.0" encoding="UTF-8"?>
<osm version="0.6" generator="osmapis">
	<node lat="69.10136666381534" lon="18.442422209088036" id="-37053">
		<tag k="name" v="Sivertberget" />
		<tag k="natural" v="hill" />
		<tag k="place" v="locality" />
		<tag k="ssr:date" v="2019-12-27" />
		<tag k="ssr:gruppe" v="høyder" />
		<tag k="ssr:hovedgruppe" v="terreng" />
		<tag k="ssr:stedsnr" v="232014" />
		<tag k="ssr:type" v="berg" />
	</node>
	<node lat="69.03404999767746" lon="18.696894432194313" id="-37054">
		<tag k="name" v="Elgstøen" />
		<tag k="place" v="locality" />
		<tag k="ssr:date" v="2019-12-27" />
		<tag k="ssr:gruppe" v="dyrkamark" />
		<tag k="ssr:hovedgruppe" v="markslag" />
		<tag k="ssr:stedsnr" v="232142" />
		<tag k="ssr:type" v="jorde" />
	</node>
	<node lat="69.03676388626374" lon="18.771663885566433" id="-37055">
		<tag k="name" v="Andstaden" />
		<tag k="natural" v="bay" />
		<tag k="ssr:date" v="2019-12-27" />
		<tag k="ssr:gruppe" v="rennendeVann" />
		<tag k="ssr:hovedgruppe" v="ferskvann" />
		<tag k="ssr:stedsnr" v="232147" />
		<tag k="ssr:type" v="os" />
	</node>
	<node lat="69.08941388916935" lon="18.69195278100035" id="-37056">
		<tag k="name" v="Enokvatnet" />
		<tag k="natural" v="water" />
		<tag k="ssr:date" v="2019-12-27" />
		<tag k="ssr:gruppe" v="stilleståendeVann" />
		<tag k="ssr:hovedgruppe" v="ferskvann" />
		<tag k="ssr:stedsnr" v="232150" />
		<tag k="ssr:type" v="tjern" />
	</node>
	<node lat="69.01731388698023" lon="18.75763888180985" id="-37057">
		<tag k="name" v="Sagfossen" />
		<tag k="natural" v="waterfall" />
		<tag k="ssr:date" v="2019-12-27" />
		<tag k="ssr:gruppe" v="rennendeVann" />
		<tag k="ssr:hovedgruppe" v="ferskvann" />
		<tag k="ssr:stedsnr" v="232152" />
		<tag k="ssr:type" v="foss" />
	</node>
	<node lat="69.03886944241565" lon="18.664433316607337" id="-37058">
		<tag k="name" v="Lystringshaugan" />
		<tag k="natural" v="hill" />
		<tag k="place" v="locality" />
		<tag k="ssr:date" v="2019-12-27" />
		<tag k="ssr:gruppe" v="høyder" />
		<tag k="ssr:hovedgruppe" v="terreng" />
		<tag k="ssr:stedsnr" v="232126" />
		<tag k="ssr:type" v="haug" />
	</node>
	<node lat="69.02155000492802" lon="18.74533610057746" id="-37059">
		<tag k="name" v="Kjervelvkjeften" />
		<tag k="natural" v="bay" />
		<tag k="ssr:date" v="2019-12-27" />
		<tag k="ssr:gruppe" v="rennendeVann" />
		<tag k="ssr:hovedgruppe" v="ferskvann" />
		<tag k="ssr:stedsnr" v="232153" />
		<tag k="ssr:type" v="os" />
	</node>
	<node lat="69.01546388520093" lon="18.80111110978787" id="-37060">
		<tag k="name" v="Heimmoen" />
		<tag k="place" v="locality" />
		<tag k="ssr:date" v="2019-12-27" />
		<tag k="ssr:gruppe" v="flater" />
		<tag k="ssr:hovedgruppe" v="terreng" />
		<tag k="ssr:stedsnr" v="232163" />
		<tag k="ssr:type" v="mo" />
	</node>
	<node lat="69.13698055216452" lon="18.67451388845364" id="-37061">
		<tag k="name" v="Sølabekkmoen" />
		<tag k="place" v="locality" />
		<tag k="ssr:date" v="2019-12-27" />
		<tag k="ssr:gruppe" v="flater" />
		<tag k="ssr:hovedgruppe" v="terreng" />
		<tag k="ssr:stedsnr" v="232171" />
		<tag k="ssr:type" v="mo" />
	</node>
	<node lat="69.15032777441748" lon="18.69596665579175" id="-37062">
		<tag k="name" v="Fjellslåtten" />
		<tag k="place" v="locality" />
		<tag k="ssr:date" v="2019-12-27" />
		<tag k="ssr:gruppe" v="dyrkamark" />
		<tag k="ssr:hovedgruppe" v="markslag" />
		<tag k="ssr:stedsnr" v="232230" />
		<tag k="ssr:type" v="utmark" />
	</node>
	<node lat="68.98739444848033" lon="19.39543054663537" id="-37063">
		<tag k="name" v="Storhaugtjønna" />
		<tag k="natural" v="water" />
		<tag k="ssr:date" v="2019-12-27" />
		<tag k="ssr:gruppe" v="stilleståendeVann" />
		<tag k="ssr:hovedgruppe" v="ferskvann" />
		<tag k="ssr:stedsnr" v="232245" />
		<tag k="ssr:type" v="tjern" />
	</node>
	<node lat="69.13794444370325" lon="18.85346110404634" id="-37064">
		<tag k="name" v="Karlvassbekken" />
		<tag k="ssr:date" v="2019-12-27" />
		<tag k="ssr:gruppe" v="rennendeVann" />
		<tag k="ssr:hovedgruppe" v="ferskvann" />
		<tag k="ssr:stedsnr" v="232319" />
		<tag k="ssr:type" v="bekk" />
		<tag k="waterway" v="stream" />
	</node>
	<node lat="69.02794444721347" lon="19.297155559393488" id="-37065">
		<tag k="amenity" v="school" />
		<tag k="name" v="Bjørkeng skole" />
		<tag k="ssr:date" v="2019-12-27" />
		<tag k="ssr:gruppe" v="institusjoner" />
		<tag k="ssr:hovedgruppe" v="bebyggelse" />
		<tag k="ssr:stedsnr" v="232256" />
		<tag k="ssr:type" v="skole" />
	</node>
	<node lat="69.03539166811257" lon="19.387966645430033" id="-37066">
		<tag k="name" v="Stenflåan" />
		<tag k="natural" v="hill" />
		<tag k="place" v="locality" />
		<tag k="ssr:date" v="2019-12-27" />
		<tag k="ssr:gruppe" v="høyder" />
		<tag k="ssr:hovedgruppe" v="terreng" />
		<tag k="ssr:stedsnr" v="232257" />
		<tag k="ssr:type" v="berg" />
	</node>
	<node lat="69.21684166488866" lon="18.696124995579865" id="-37067">
		<tag k="name" v="Steinlia" />
		<tag k="natural" v="slope" />
		<tag k="place" v="locality" />
		<tag k="ssr:date" v="2019-12-27" />
		<tag k="ssr:gruppe" v="skråninger" />
		<tag k="ssr:hovedgruppe" v="terreng" />
		<tag k="ssr:stedsnr" v="232258" />
		<tag k="ssr:type" v="li" />
	</node>
	<node lat="69.22396388839579" lon="18.702016663755657" id="-37068">
		<tag k="name" v="Skredbekkskaret" />
		<tag k="natural" v="valley" />
		<tag k="place" v="locality" />
		<tag k="ssr:date" v="2019-12-27" />
		<tag k="ssr:gruppe" v="senkninger" />
		<tag k="ssr:hovedgruppe" v="terreng" />
		<tag k="ssr:stedsnr" v="232259" />
		<tag k="ssr:type" v="skar" />
	</node>
	<node lat="69.01163055130117" lon="19.433777775992" id="-37069">
		<tag k="name" v="Gammelromkjosen" />
		<tag k="natural" v="bay" />
		<tag k="ssr:date" v="2019-12-27" />
		<tag k="ssr:gruppe" v="rennendeVann" />
		<tag k="ssr:hovedgruppe" v="ferskvann" />
		<tag k="ssr:stedsnr" v="232346" />
		<tag k="ssr:type" v="os" />
	</node>
	<node lat="68.99798611088431" lon="19.030258337315413" id="-37070">
		<tag k="name" v="Skog" />
		<tag k="place" v="farm" />
		<tag k="ssr:date" v="2019-12-27" />
		<tag k="ssr:gruppe" v="gardsbebyggelse" />
		<tag k="ssr:hovedgruppe" v="bebyggelse" />
		<tag k="ssr:stedsnr" v="232501" />
		<tag k="ssr:type" v="bruk" />
	</node>
	<node lat="68.89499722357841" lon="19.012566667526553" id="-37071">
		<tag k="name" v="Skredgjerdet" />
		<tag k="place" v="isolated_dwelling" />
		<tag k="ssr:date" v="2019-12-27" />
		<tag k="ssr:gruppe" v="bolighus" />
		<tag k="ssr:hovedgruppe" v="bebyggelse" />
		<tag k="ssr:stedsnr" v="232523" />
		<tag k="ssr:type" v="fritidsbolig" />
	</node>
	<node lat="69.19974166440386" lon="18.72893887879078" id="-37072">
		<tag k="name" v="Slettmoen" />
		<tag k="place" v="locality" />
		<tag k="ssr:date" v="2019-12-27" />
		<tag k="ssr:gruppe" v="flater" />
		<tag k="ssr:hovedgruppe" v="terreng" />
		<tag k="ssr:stedsnr" v="233297" />
		<tag k="ssr:type" v="mo" />
	</node>
	<node lat="69.00100555714003" lon="18.605627774962382" id="-37073">
		<tag k="name" v="Trolldalen" />
		<tag k="natural" v="valley" />
		<tag k="place" v="locality" />
		<tag k="ssr:date" v="2019-12-27" />
		<tag k="ssr:gruppe" v="senkninger" />
		<tag k="ssr:hovedgruppe" v="terreng" />
		<tag k="ssr:stedsnr" v="232470" />
		<tag k="ssr:type" v="dal" />
	</node>
	<node lat="69.03581389002302" lon="19.27029165830578" id="-37074">
		<tag k="name" v="Finnteltrommet" />
		<tag k="place" v="locality" />
		<tag k="ssr:date" v="2019-12-27" />
		<tag k="ssr:gruppe" v="terrengdetaljer" />
		<tag k="ssr:hovedgruppe" v="terreng" />
		<tag k="ssr:stedsnr" v="232579" />
		<tag k="ssr:type" v="annenTerrengdetalj" />
	</node>
	<node lat="69.17045277557814" lon="18.34449166965093" id="-37075">
		<tag k="highway" v="path" />
		<tag k="name" v="Reisveien" />
		<tag k="ssr:date" v="2019-12-27" />
		<tag k="ssr:gruppe" v="veg" />
		<tag k="ssr:hovedgruppe" v="infrastruktur" />
		<tag k="ssr:stedsnr" v="232761" />
		<tag k="ssr:type" v="sti" />
	</node>
	<node lat="69.0109611116935" lon="18.86000554200661" id="-37076">
		<tag k="name" v="Kjosan" />
		<tag k="natural" v="bay" />
		<tag k="ssr:date" v="2019-12-27" />
		<tag k="ssr:gruppe" v="rennendeVann" />
		<tag k="ssr:hovedgruppe" v="ferskvann" />
		<tag k="ssr:stedsnr" v="232765" />
		<tag k="ssr:type" v="os" />
	</node>
	<node lat="69.01291388786147" lon="18.870530559677263" id="-37077">
		<tag k="name" v="Heimneset" />
		<tag k="natural" v="cape" />
		<tag k="ssr:date" v="2019-12-27" />
		<tag k="ssr:gruppe" v="ferskvannskontur" />
		<tag k="ssr:hovedgruppe" v="ferskvann" />
		<tag k="ssr:stedsnr" v="232770" />
		<tag k="ssr:type" v="nes" />
	</node>
	<node lat="69.06870278056718" lon="18.549016652627262" id="-37078">
		<tag k="name" v="Einbakkan" />
		<tag k="natural" v="slope" />
		<tag k="place" v="locality" />
		<tag k="ssr:date" v="2019-12-27" />
		<tag k="ssr:gruppe" v="skråninger" />
		<tag k="ssr:hovedgruppe" v="terreng" />
		<tag k="ssr:stedsnr" v="232841" />
		<tag k="ssr:type" v="bakke" />
	</node>
	<node lat="69.16548889229817" lon="18.470199997109948" id="-37079">
		<tag k="name" v="Johan-Karlbekken" />
		<tag k="ssr:date" v="2019-12-27" />
		<tag k="ssr:gruppe" v="rennendeVann" />
		<tag k="ssr:hovedgruppe" v="ferskvann" />
		<tag k="ssr:stedsnr" v="232845" />
		<tag k="ssr:type" v="bekk" />
		<tag k="waterway" v="stream" />
	</node>
	<node lat="69.16338333663165" lon="18.465527784865962" id="-37080">
		<tag k="name" v="Sæterbakkmyra" />
		<tag k="natural" v="wetland" />
		<tag k="ssr:date" v="2019-12-27" />
		<tag k="ssr:gruppe" v="våtmark" />
		<tag k="ssr:hovedgruppe" v="markslag" />
		<tag k="ssr:stedsnr" v="232849" />
		<tag k="ssr:type" v="myr" />
	</node>
	<node lat="69.01563055554222" lon="19.22752499933645" id="-37081">
		<tag k="fixme" v="consider natural=peak for the most distinct mountains in the district" />
		<tag k="name" v="Veslkalvhauet" />
		<tag k="natural" v="hill" />
		<tag k="place" v="locality" />
		<tag k="ssr:date" v="2019-12-27" />
		<tag k="ssr:gruppe" v="høyder" />
		<tag k="ssr:hovedgruppe" v="terreng" />
		<tag k="ssr:stedsnr" v="232850" />
		<tag k="ssr:type" v="ås" />
	</node>
	<node lat="69.0751638867188" lon="18.588913894955866" id="-37082">
		<tag k="name" v="Hølmyra" />
		<tag k="natural" v="wetland" />
		<tag k="ssr:date" v="2019-12-27" />
		<tag k="ssr:gruppe" v="våtmark" />
		<tag k="ssr:hovedgruppe" v="markslag" />
		<tag k="ssr:stedsnr" v="232857" />
		<tag k="ssr:type" v="myr" />
	</node>
	<node lat="69.06717778174429" lon="18.628066659164418" id="-37083">
		<tag k="name" v="Brumoen" />
		<tag k="place" v="locality" />
		<tag k="ssr:date" v="2019-12-27" />
		<tag k="ssr:gruppe" v="flater" />
		<tag k="ssr:hovedgruppe" v="terreng" />
		<tag k="ssr:stedsnr" v="232862" />
		<tag k="ssr:type" v="mo" />
	</node>
	<node lat="69.21088889010055" lon="18.414238882042508" id="-37084">
		<tag k="name" v="Tjæramilene" />
		<tag k="natural" v="slope" />
		<tag k="place" v="locality" />
		<tag k="ssr:date" v="2019-12-27" />
		<tag k="ssr:gruppe" v="skråninger" />
		<tag k="ssr:hovedgruppe" v="terreng" />
		<tag k="ssr:stedsnr" v="232924" />
		<tag k="ssr:type" v="li" />
	</node>
	<node lat="69.2584111088661" lon="18.63348331898728" id="-37085">
		<tag k="name" v="Kvannlia" />
		<tag k="natural" v="slope" />
		<tag k="place" v="locality" />
		<tag k="ssr:date" v="2019-12-27" />
		<tag k="ssr:gruppe" v="skråninger" />
		<tag k="ssr:hovedgruppe" v="terreng" />
		<tag k="ssr:stedsnr" v="233016" />
		<tag k="ssr:type" v="li" />
	</node>
	<node lat="69.26713610842125" lon="18.65481944846127" id="-37086">
		<tag k="name" v="Fjellmyra" />
		<tag k="natural" v="wetland" />
		<tag k="ssr:date" v="2019-12-27" />
		<tag k="ssr:gruppe" v="våtmark" />
		<tag k="ssr:hovedgruppe" v="markslag" />
		<tag k="ssr:stedsnr" v="233020" />
		<tag k="ssr:type" v="myr" />
	</node>
	<node lat="68.7669750025027" lon="19.621161090818674" id="-37087">
		<tag k="name" v="Rasbekken" />
		<tag k="ssr:date" v="2019-12-27" />
		<tag k="ssr:gruppe" v="rennendeVann" />
		<tag k="ssr:hovedgruppe" v="ferskvann" />
		<tag k="ssr:stedsnr" v="17215" />
		<tag k="ssr:type" v="bekk" />
		<tag k="waterway" v="stream" />
	</node>
	<node lat="68.92220278232404" lon="19.862980540873007" id="-37088">
		<tag k="fixme" v="consider natural=peak for the most distinct mountains in the district" />
		<tag k="name" v="Høglikka" />
		<tag k="natural" v="hill" />
		<tag k="place" v="locality" />
		<tag k="ssr:date" v="2019-12-27" />
		<tag k="ssr:gruppe" v="høyder" />
		<tag k="ssr:hovedgruppe" v="terreng" />
		<tag k="ssr:stedsnr" v="17159" />
		<tag k="ssr:type" v="ås" />
	</node>
	<node lat="68.90976389389637" lon="20.06636109011971" id="-37089">
		<tag k="fixme" v="consider natural=peak for the most distinct mountains in the district" />
		<tag k="name" v="Áslatvárri" />
		<tag k="name:se" v="Áslatvárri" />
		<tag k="natural" v="hill" />
		<tag k="place" v="locality" />
		<tag k="ssr:date" v="2019-12-27" />
		<tag k="ssr:gruppe" v="høyder" />
		<tag k="ssr:hovedgruppe" v="terreng" />
		<tag k="ssr:stedsnr" v="17164" />
		<tag k="ssr:type" v="fjell" />
	</node>
	<node lat="68.91104166490365" lon="20.297388881841666" id="-37090">
		<tag k="name" v="Šalbmi" />
		<tag k="name:se" v="Šalbmi" />
		<tag k="natural" v="valley" />
		<tag k="place" v="locality" />
		<tag k="ssr:date" v="2019-12-27" />
		<tag k="ssr:gruppe" v="senkninger" />
		<tag k="ssr:hovedgruppe" v="terreng" />
		<tag k="ssr:stedsnr" v="17166" />
		<tag k="ssr:type" v="skar" />
	</node>
	<node lat="69.05119444850406" lon="18.538383318011988" id="-37091">
		<tag k="name" v="Elvekroken" />
		<tag k="natural" v="bay" />
		<tag k="ssr:date" v="2019-12-27" />
		<tag k="ssr:gruppe" v="ferskvannskontur" />
		<tag k="ssr:hovedgruppe" v="ferskvann" />
		<tag k="ssr:stedsnr" v="232973" />
		<tag k="ssr:type" v="vik" />
	</node>
	<node lat="69.23749166787665" lon="18.45726389732899" id="-37092">
		<tag k="name" v="Sørknutheimen" />
		<tag k="place" v="farm" />
		<tag k="ssr:date" v="2019-12-27" />
		<tag k="ssr:gruppe" v="gardsbebyggelse" />
		<tag k="ssr:hovedgruppe" v="bebyggelse" />
		<tag k="ssr:stedsnr" v="233115" />
		<tag k="ssr:type" v="bruk" />
	</node>
	<node lat="69.25849444200337" lon="18.670641662053164" id="-37093">
		<tag k="name" v="Holmen" />
		<tag k="natural" v="cape" />
		<tag k="ssr:date" v="2019-12-27" />
		<tag k="ssr:gruppe" v="rennendeVann" />
		<tag k="ssr:hovedgruppe" v="ferskvann" />
		<tag k="ssr:stedsnr" v="233192" />
		<tag k="ssr:type" v="nesVedElver" />
	</node>
	<node lat="69.24005555175805" lon="18.35080276863716" id="-37094">
		<tag k="name" v="Rydeng" />
		<tag k="place" v="farm" />
		<tag k="ssr:date" v="2019-12-27" />
		<tag k="ssr:gruppe" v="gardsbebyggelse" />
		<tag k="ssr:hovedgruppe" v="bebyggelse" />
		<tag k="ssr:stedsnr" v="17704" />
		<tag k="ssr:type" v="bruk" />
	</node>
	<node lat="69.21349444284097" lon="18.47011944003606" id="-37095">
		<tag k="fixme" v="consider place=hamlet" />
		<tag k="name" v="Karlstad" />
		<tag k="place" v="village" />
		<tag k="ssr:date" v="2019-12-27" />
		<tag k="ssr:gruppe" v="bebyggelsesområder" />
		<tag k="ssr:hovedgruppe" v="bebyggelse" />
		<tag k="ssr:stedsnr" v="17741" />
		<tag k="ssr:type" v="bygdelagBygd" />
	</node>
	<node lat="69.2860999956462" lon="18.48195833838857" id="-37096">
		<tag k="name" v="Salinberget" />
		<tag k="natural" v="hill" />
		<tag k="place" v="locality" />
		<tag k="ssr:date" v="2019-12-27" />
		<tag k="ssr:gruppe" v="høyder" />
		<tag k="ssr:hovedgruppe" v="terreng" />
		<tag k="ssr:stedsnr" v="233037" />
		<tag k="ssr:type" v="berg" />
	</node>
	<node lat="69.13665555984475" lon="18.607288881052618" id="-37097">
		<tag k="fixme" v="verify maritime location" />
		<tag k="mooring" v="yes" />
		<tag k="name" v="Moastøa" />
		<tag k="place" v="locality" />
		<tag k="ssr:date" v="2019-12-27" />
		<tag k="ssr:gruppe" v="sjøfart" />
		<tag k="ssr:hovedgruppe" v="infrastruktur" />
		<tag k="ssr:stedsnr" v="233048" />
		<tag k="ssr:type" v="stø" />
	</node>
	<node lat="69.17143889380655" lon="18.704477764725926" id="-37098">
		<tag k="name" v="Ole-Jansavatnet" />
		<tag k="natural" v="water" />
		<tag k="ssr:date" v="2019-12-27" />
		<tag k="ssr:gruppe" v="stilleståendeVann" />
		<tag k="ssr:hovedgruppe" v="ferskvann" />
		<tag k="ssr:stedsnr" v="17810" />
		<tag k="ssr:type" v="tjern" />
	</node>
	<node lat="68.8034527806953" lon="20.15638054969637" id="-37099">
		<tag k="name" v="Hárvesjávri" />
		<tag k="name:se" v="Hárvesjávri" />
		<tag k="natural" v="water" />
		<tag k="ssr:date" v="2019-12-27" />
		<tag k="ssr:gruppe" v="stilleståendeVann" />
		<tag k="ssr:hovedgruppe" v="ferskvann" />
		<tag k="ssr:stedsnr" v="18101" />
		<tag k="ssr:type" v="vann" />
		<tag k="water" v="lake" />
	</node>
	<node lat="69.24683055408647" lon="18.38903333444672" id="-37100">
		<tag k="highway" v="path" />
		<tag k="name" v="Leirveien" />
		<tag k="ssr:date" v="2019-12-27" />
		<tag k="ssr:gruppe" v="veg" />
		<tag k="ssr:hovedgruppe" v="infrastruktur" />
		<tag k="ssr:stedsnr" v="233075" />
		<tag k="ssr:type" v="sti" />
	</node>
	<node lat="69.32727221864572" lon="18.546886094629937" id="-37101">
		<tag k="name" v="Forraberget" />
		<tag k="natural" v="hill" />
		<tag k="place" v="locality" />
		<tag k="ssr:date" v="2019-12-27" />
		<tag k="ssr:gruppe" v="høyder" />
		<tag k="ssr:hovedgruppe" v="terreng" />
		<tag k="ssr:stedsnr" v="233149" />
		<tag k="ssr:type" v="haug" />
	</node>
	<node lat="69.26347087060289" lon="18.693953557249806" id="-37102">
		<tag k="name" v="Sørelvmoen" />
		<tag k="place" v="farm" />
		<tag k="ssr:date" v="2020-08-17" />
		<tag k="ssr:gruppe" v="gardsbebyggelse" />
		<tag k="ssr:hovedgruppe" v="bebyggelse" />
		<tag k="ssr:stedsnr" v="233153" />
		<tag k="ssr:type" v="bruk" />
	</node>
	<node lat="69.27874722231239" lon="18.6428444279237" id="-37103">
		<tag k="name" v="Storelva" />
		<tag k="ssr:date" v="2019-12-27" />
		<tag k="ssr:gruppe" v="rennendeVann" />
		<tag k="ssr:hovedgruppe" v="ferskvann" />
		<tag k="ssr:stedsnr" v="233165" />
		<tag k="ssr:type" v="bekk" />
		<tag k="waterway" v="stream" />
	</node>
	<node lat="68.87381110842526" lon="19.553313877243138" id="-37104">
		<tag k="name" v="Svalheim" />
		<tag k="place" v="farm" />
		<tag k="ssr:date" v="2019-12-27" />
		<tag k="ssr:gruppe" v="gardsbebyggelse" />
		<tag k="ssr:hovedgruppe" v="bebyggelse" />
		<tag k="ssr:stedsnr" v="18150" />
		<tag k="ssr:type" v="bruk" />
	</node>
	<node lat="68.9738861150243" lon="18.77849998942947" id="-37105">
		<tag k="name" v="Banelvdalen" />
		<tag k="natural" v="valley" />
		<tag k="place" v="locality" />
		<tag k="ssr:date" v="2019-12-27" />
		<tag k="ssr:gruppe" v="senkninger" />
		<tag k="ssr:hovedgruppe" v="terreng" />
		<tag k="ssr:stedsnr" v="18349" />
		<tag k="ssr:type" v="dal" />
	</node>
	<node lat="69.02001111425739" lon="19.72207499870749" id="-37106">
		<tag k="fixme" v="consider natural=peak for the most distinct mountains in the district" />
		<tag k="name" v="Brattlifjellet" />
		<tag k="natural" v="hill" />
		<tag k="place" v="locality" />
		<tag k="ssr:date" v="2019-12-27" />
		<tag k="ssr:gruppe" v="høyder" />
		<tag k="ssr:hovedgruppe" v="terreng" />
		<tag k="ssr:stedsnr" v="18359" />
		<tag k="ssr:type" v="fjell" />
	</node>
	<node lat="69.1453000036678" lon="18.323366656356033" id="-37107">
		<tag k="name" v="Vakkerhumpvatnet" />
		<tag k="natural" v="water" />
		<tag k="ssr:date" v="2019-12-27" />
		<tag k="ssr:gruppe" v="stilleståendeVann" />
		<tag k="ssr:hovedgruppe" v="ferskvann" />
		<tag k="ssr:stedsnr" v="18515" />
		<tag k="ssr:type" v="tjern" />
	</node>
	<node lat="69.13952499547013" lon="18.352758336320147" id="-37108">
		<tag k="name" v="Sommarrovatnet" />
		<tag k="natural" v="water" />
		<tag k="ssr:date" v="2019-12-27" />
		<tag k="ssr:gruppe" v="stilleståendeVann" />
		<tag k="ssr:hovedgruppe" v="ferskvann" />
		<tag k="ssr:stedsnr" v="18517" />
		<tag k="ssr:type" v="tjern" />
	</node>
	<node lat="69.11792221875139" lon="18.826041650111257" id="-37109">
		<tag k="name" v="Storhaugen" />
		<tag k="natural" v="hill" />
		<tag k="place" v="locality" />
		<tag k="ssr:date" v="2019-12-27" />
		<tag k="ssr:gruppe" v="høyder" />
		<tag k="ssr:hovedgruppe" v="terreng" />
		<tag k="ssr:stedsnr" v="18802" />
		<tag k="ssr:type" v="haug" />
	</node>
	<node lat="69.12096389063396" lon="18.731497210480804" id="-37110">
		<tag k="alt_name" v="Ørstad" />
		<tag k="name" v="Aurstad" />
		<tag k="place" v="farm" />
		<tag k="ssr:date" v="2019-12-27" />
		<tag k="ssr:gruppe" v="gardsbebyggelse" />
		<tag k="ssr:hovedgruppe" v="bebyggelse" />
		<tag k="ssr:stedsnr" v="18809" />
		<tag k="ssr:type" v="bruk" />
	</node>
	<node lat="69.14964999893158" lon="18.728683318455584" id="-37111">
		<tag k="fixme" v="consider natural=peak for the most distinct mountains in the district" />
		<tag k="name" v="Sollitinden" />
		<tag k="natural" v="hill" />
		<tag k="place" v="locality" />
		<tag k="ssr:date" v="2019-12-27" />
		<tag k="ssr:gruppe" v="høyder" />
		<tag k="ssr:hovedgruppe" v="terreng" />
		<tag k="ssr:stedsnr" v="18702" />
		<tag k="ssr:type" v="ås" />
	</node>
	<node lat="69.33955000288681" lon="18.542124994117398" id="-37112">
		<tag k="name" v="Djupvik" />
		<tag k="place" v="farm" />
		<tag k="ssr:date" v="2019-12-27" />
		<tag k="ssr:gruppe" v="gardsbebyggelse" />
		<tag k="ssr:hovedgruppe" v="bebyggelse" />
		<tag k="ssr:stedsnr" v="18716" />
		<tag k="ssr:type" v="bruk" />
	</node>
	<node lat="69.13550833603342" lon="18.68501943649006" id="-37113">
		<tag k="name" v="Teigen" />
		<tag k="place" v="farm" />
		<tag k="ssr:date" v="2019-12-27" />
		<tag k="ssr:gruppe" v="gardsbebyggelse" />
		<tag k="ssr:hovedgruppe" v="bebyggelse" />
		<tag k="ssr:stedsnr" v="18751" />
		<tag k="ssr:type" v="bruk" />
	</node>
	<node lat="69.11048938517166" lon="18.878030158754083" id="-37114">
		<tag k="alt_name" v="Holmesletten" />
		<tag k="fixme" v="consider place=hamlet" />
		<tag k="name" v="Holmesletta" />
		<tag k="place" v="farm" />
		<tag k="ssr:date" v="2020-06-23" />
		<tag k="ssr:gruppe" v="gardsbebyggelse" />
		<tag k="ssr:hovedgruppe" v="bebyggelse" />
		<tag k="ssr:stedsnr" v="18779" />
		<tag k="ssr:type" v="gard" />
	</node>
	<node lat="69.31467499946595" lon="18.55844164963583" id="-37115">
		<tag k="name" v="Rubben" />
		<tag k="natural" v="hill" />
		<tag k="place" v="locality" />
		<tag k="ssr:date" v="2019-12-27" />
		<tag k="ssr:gruppe" v="høyder" />
		<tag k="ssr:hovedgruppe" v="terreng" />
		<tag k="ssr:stedsnr" v="233253" />
		<tag k="ssr:type" v="haug" />
	</node>
	<node lat="69.2475861100522" lon="18.55606665973588" id="-37116">
		<tag k="name" v="Vedlia" />
		<tag k="natural" v="slope" />
		<tag k="place" v="locality" />
		<tag k="ssr:date" v="2019-12-27" />
		<tag k="ssr:gruppe" v="skråninger" />
		<tag k="ssr:hovedgruppe" v="terreng" />
		<tag k="ssr:stedsnr" v="233266" />
		<tag k="ssr:type" v="li" />
	</node>
	<node lat="69.23856944281064" lon="18.537147220386206" id="-37117">
		<tag k="name" v="Sturrabben" />
		<tag k="natural" v="hill" />
		<tag k="place" v="locality" />
		<tag k="ssr:date" v="2019-12-27" />
		<tag k="ssr:gruppe" v="høyder" />
		<tag k="ssr:hovedgruppe" v="terreng" />
		<tag k="ssr:stedsnr" v="233267" />
		<tag k="ssr:type" v="haug" />
	</node>
	<node lat="69.00705555330894" lon="18.841791651601877" id="-37118">
		<tag k="name" v="Sandvik" />
		<tag k="place" v="farm" />
		<tag k="ssr:date" v="2019-12-27" />
		<tag k="ssr:gruppe" v="gardsbebyggelse" />
		<tag k="ssr:hovedgruppe" v="bebyggelse" />
		<tag k="ssr:stedsnr" v="19154" />
		<tag k="ssr:type" v="bruk" />
	</node>
	<node lat="69.01121111120405" lon="19.19780276595202" id="-37119">
		<tag k="alt_name" v="Holmtjørna" />
		<tag k="name" v="Holmtjønna" />
		<tag k="natural" v="water" />
		<tag k="ssr:date" v="2019-12-27" />
		<tag k="ssr:gruppe" v="stilleståendeVann" />
		<tag k="ssr:hovedgruppe" v="ferskvann" />
		<tag k="ssr:stedsnr" v="19157" />
		<tag k="ssr:type" v="tjern" />
	</node>
	<node lat="69.1010638893444" lon="18.906288892986176" id="-37120">
		<tag k="name" v="Skavbakken" />
		<tag k="natural" v="slope" />
		<tag k="place" v="locality" />
		<tag k="ssr:date" v="2019-12-27" />
		<tag k="ssr:gruppe" v="skråninger" />
		<tag k="ssr:hovedgruppe" v="terreng" />
		<tag k="ssr:stedsnr" v="233431" />
		<tag k="ssr:type" v="bakke" />
	</node>
	<node lat="69.22452499761401" lon="18.324994440354036" id="-37121">
		<tag k="name" v="Krakkhola" />
		<tag k="natural" v="valley" />
		<tag k="place" v="locality" />
		<tag k="ssr:date" v="2019-12-27" />
		<tag k="ssr:gruppe" v="senkninger" />
		<tag k="ssr:hovedgruppe" v="terreng" />
		<tag k="ssr:stedsnr" v="233432" />
		<tag k="ssr:type" v="søkk" />
	</node>
	<node lat="69.22748333704897" lon="18.313933334875518" id="-37122">
		<tag k="name" v="Kvalryggen" />
		<tag k="natural" v="ridge" />
		<tag k="place" v="locality" />
		<tag k="ssr:date" v="2019-12-27" />
		<tag k="ssr:gruppe" v="høyder" />
		<tag k="ssr:hovedgruppe" v="terreng" />
		<tag k="ssr:stedsnr" v="233433" />
		<tag k="ssr:type" v="rygg" />
	</node>
	<node lat="68.98879722375644" lon="18.905391654335215" id="-37123">
		<tag k="name" v="Revmoen" />
		<tag k="place" v="locality" />
		<tag k="ssr:date" v="2019-12-27" />
		<tag k="ssr:gruppe" v="flater" />
		<tag k="ssr:hovedgruppe" v="terreng" />
		<tag k="ssr:stedsnr" v="233443" />
		<tag k="ssr:type" v="mo" />
	</node>
	<node lat="68.93811389152279" lon="18.943380540320057" id="-37124">
		<tag k="name" v="Revhimælen" />
		<tag k="place" v="locality" />
		<tag k="ssr:date" v="2019-12-27" />
		<tag k="ssr:gruppe" v="løsmasseavsetninger" />
		<tag k="ssr:hovedgruppe" v="markslag" />
		<tag k="ssr:stedsnr" v="233453" />
		<tag k="ssr:type" v="elvemel" />
	</node>
	<node lat="69.19585833134693" lon="18.683930546994265" id="-37125">
		<tag k="name" v="Øverfossen" />
		<tag k="natural" v="waterfall" />
		<tag k="ssr:date" v="2019-12-27" />
		<tag k="ssr:gruppe" v="rennendeVann" />
		<tag k="ssr:hovedgruppe" v="ferskvann" />
		<tag k="ssr:stedsnr" v="233340" />
		<tag k="ssr:type" v="foss" />
	</node>
	<node lat="69.19481944405257" lon="18.704941650894092" id="-37126">
		<tag k="historic" v="shieling" />
		<tag k="name" v="Martinsætra" />
		<tag k="place" v="isolated_dwelling" />
		<tag k="ssr:date" v="2019-12-27" />
		<tag k="ssr:gruppe" v="gardsbebyggelse" />
		<tag k="ssr:hovedgruppe" v="bebyggelse" />
		<tag k="ssr:stedsnr" v="233342" />
		<tag k="ssr:type" v="seterStøl" />
	</node>
	<node lat="69.19711738472623" lon="18.72127433848707" id="-37127">
		<tag k="fixme" v="consider place=hamlet" />
		<tag k="name" v="Skardalen" />
		<tag k="place" v="farm" />
		<tag k="ssr:date" v="2020-06-23" />
		<tag k="ssr:gruppe" v="gardsbebyggelse" />
		<tag k="ssr:hovedgruppe" v="bebyggelse" />
		<tag k="ssr:stedsnr" v="233345" />
		<tag k="ssr:type" v="gard" />
	</node>
	<node lat="69.03515277584928" lon="19.35822500136911" id="-37128">
		<tag k="name" v="Moeng" />
		<tag k="place" v="farm" />
		<tag k="ssr:date" v="2019-12-27" />
		<tag k="ssr:gruppe" v="gardsbebyggelse" />
		<tag k="ssr:hovedgruppe" v="bebyggelse" />
		<tag k="ssr:stedsnr" v="19419" />
		<tag k="ssr:type" v="bruk" />
	</node>
	<node lat="69.20934444666258" lon="18.53378887689424" id="-37129">
		<tag k="name" v="Falkberget" />
		<tag k="natural" v="hill" />
		<tag k="place" v="locality" />
		<tag k="ssr:date" v="2019-12-27" />
		<tag k="ssr:gruppe" v="høyder" />
		<tag k="ssr:hovedgruppe" v="terreng" />
		<tag k="ssr:stedsnr" v="233367" />
		<tag k="ssr:type" v="berg" />
	</node>
	<node lat="68.97648611169922" lon="19.288966652686508" id="-37130">
		<tag k="name" v="Nerøyen" />
		<tag k="place" v="locality" />
		<tag k="ssr:date" v="2019-12-27" />
		<tag k="ssr:gruppe" v="flater" />
		<tag k="ssr:hovedgruppe" v="terreng" />
		<tag k="ssr:stedsnr" v="233371" />
		<tag k="ssr:type" v="mo" />
	</node>
	<node lat="69.15397499628122" lon="18.286847209897488" id="-37131">
		<tag k="name" v="Hamnelvvatnan" />
		<tag k="natural" v="water" />
		<tag k="ssr:date" v="2019-12-27" />
		<tag k="ssr:gruppe" v="stilleståendeVann" />
		<tag k="ssr:hovedgruppe" v="ferskvann" />
		<tag k="ssr:stedsnr" v="19511" />
		<tag k="ssr:type" v="gruppeAvTjern" />
		<tag k="water" v="lake" />
	</node>
	<node lat="69.04156944264724" lon="18.81589165818475" id="-37132">
		<tag k="name" v="Bergestua" />
		<tag k="place" v="locality" />
		<tag k="ssr:date" v="2019-12-27" />
		<tag k="ssr:gruppe" v="bolighus" />
		<tag k="ssr:hovedgruppe" v="bebyggelse" />
		<tag k="ssr:stedsnr" v="233373" />
		<tag k="ssr:type" v="gammelBosettingsplass" />
	</node>
	<node lat="69.21940833442" lon="18.612405559606458" id="-37133">
		<tag k="name" v="Akkamyra" />
		<tag k="natural" v="wetland" />
		<tag k="ssr:date" v="2019-12-27" />
		<tag k="ssr:gruppe" v="våtmark" />
		<tag k="ssr:hovedgruppe" v="markslag" />
		<tag k="ssr:stedsnr" v="233376" />
		<tag k="ssr:type" v="myr" />
	</node>
	<node lat="69.31141689692163" lon="18.582459283111437" id="-37134">
		<tag k="fixme" v="consider place=hamlet" />
		<tag k="name" v="Indre Navaren" />
		<tag k="place" v="farm" />
		<tag k="ssr:date" v="2021-06-08" />
		<tag k="ssr:gruppe" v="gardsbebyggelse" />
		<tag k="ssr:hovedgruppe" v="bebyggelse" />
		<tag k="ssr:stedsnr" v="19800" />
		<tag k="ssr:type" v="gard" />
	</node>
	<node lat="69.13565277846047" lon="18.36934444536372" id="-37135">
		<tag k="name" v="Sennavassdalen" />
		<tag k="natural" v="valley" />
		<tag k="place" v="locality" />
		<tag k="ssr:date" v="2019-12-27" />
		<tag k="ssr:gruppe" v="senkninger" />
		<tag k="ssr:hovedgruppe" v="terreng" />
		<tag k="ssr:stedsnr" v="233394" />
		<tag k="ssr:type" v="dal" />
	</node>
	<node lat="69.14244721985854" lon="18.389377778916444" id="-37136">
		<tag k="name" v="Trongen" />
		<tag k="natural" v="valley" />
		<tag k="place" v="locality" />
		<tag k="ssr:date" v="2019-12-27" />
		<tag k="ssr:gruppe" v="senkninger" />
		<tag k="ssr:hovedgruppe" v="terreng" />
		<tag k="ssr:stedsnr" v="233395" />
		<tag k="ssr:type" v="skar" />
	</node>
	<node lat="69.19751666325287" lon="18.621169446123982" id="-37137">
		<tag k="name" v="Svartvassbekken" />
		<tag k="ssr:date" v="2019-12-27" />
		<tag k="ssr:gruppe" v="rennendeVann" />
		<tag k="ssr:hovedgruppe" v="ferskvann" />
		<tag k="ssr:stedsnr" v="233396" />
		<tag k="ssr:type" v="bekk" />
		<tag k="waterway" v="stream" />
	</node>
	<node lat="69.10219166971916" lon="18.887683326180476" id="-37138">
		<tag k="name" v="Kaldbekken" />
		<tag k="ssr:date" v="2019-12-27" />
		<tag k="ssr:gruppe" v="rennendeVann" />
		<tag k="ssr:hovedgruppe" v="ferskvann" />
		<tag k="ssr:stedsnr" v="233410" />
		<tag k="ssr:type" v="bekk" />
		<tag k="waterway" v="stream" />
	</node>
	<node lat="69.18595277426847" lon="18.698130549961643" id="-37139">
		<tag k="landuse" v="military" />
		<tag k="name" v="Akkasætra" />
		<tag k="ssr:date" v="2019-12-27" />
		<tag k="ssr:gruppe" v="institusjoner" />
		<tag k="ssr:hovedgruppe" v="bebyggelse" />
		<tag k="ssr:stedsnr" v="19988" />
		<tag k="ssr:type" v="militærtByggAnlegg" />
	</node>
	<node lat="69.10004167023959" lon="18.890905562717148" id="-37140">
		<tag k="name" v="Vedhøgsten" />
		<tag k="natural" v="slope" />
		<tag k="place" v="locality" />
		<tag k="ssr:date" v="2019-12-27" />
		<tag k="ssr:gruppe" v="skråninger" />
		<tag k="ssr:hovedgruppe" v="terreng" />
		<tag k="ssr:stedsnr" v="233414" />
		<tag k="ssr:type" v="li" />
	</node>
	<node lat="69.1797555525326" lon="18.65181388272643" id="-37141">
		<tag k="name" v="Storfinnhaugmyra" />
		<tag k="natural" v="wetland" />
		<tag k="ssr:date" v="2019-12-27" />
		<tag k="ssr:gruppe" v="våtmark" />
		<tag k="ssr:hovedgruppe" v="markslag" />
		<tag k="ssr:stedsnr" v="233421" />
		<tag k="ssr:type" v="myr" />
	</node>
	<node lat="69.2366500039393" lon="18.310016657008664" id="-37142">
		<tag k="name" v="Krøkebærhaugen" />
		<tag k="natural" v="hill" />
		<tag k="place" v="locality" />
		<tag k="ssr:date" v="2019-12-27" />
		<tag k="ssr:gruppe" v="høyder" />
		<tag k="ssr:hovedgruppe" v="terreng" />
		<tag k="ssr:stedsnr" v="233424" />
		<tag k="ssr:type" v="haug" />
	</node>
	<node lat="69.17689722215667" lon="18.571133324442542" id="-37143">
		<tag k="name" v="Broderstadbekken" />
		<tag k="ssr:date" v="2019-12-27" />
		<tag k="ssr:gruppe" v="rennendeVann" />
		<tag k="ssr:hovedgruppe" v="ferskvann" />
		<tag k="ssr:stedsnr" v="233518" />
		<tag k="ssr:type" v="bekk" />
		<tag k="waterway" v="stream" />
	</node>
	<node lat="68.9481305524887" lon="18.938477769384697" id="-37144">
		<tag k="name" v="Langleite" />
		<tag k="natural" v="water" />
		<tag k="ssr:date" v="2019-12-27" />
		<tag k="ssr:gruppe" v="rennendeVann" />
		<tag k="ssr:hovedgruppe" v="ferskvann" />
		<tag k="ssr:stedsnr" v="233456" />
		<tag k="ssr:type" v="lon" />
		<tag k="water" v="lake" />
	</node>
	<node lat="69.19254999782154" lon="18.41651944524578" id="-37145">
		<tag k="name" v="Holtan" />
		<tag k="place" v="locality" />
		<tag k="ssr:date" v="2019-12-27" />
		<tag k="ssr:gruppe" v="vegetasjon" />
		<tag k="ssr:hovedgruppe" v="markslag" />
		<tag k="ssr:stedsnr" v="233587" />
		<tag k="ssr:type" v="skog" />
	</node>
	<node lat="69.26209166864274" lon="18.498597209643577" id="-37146">
		<tag k="name" v="Øvre Kjerresnes" />
		<tag k="place" v="farm" />
		<tag k="ssr:date" v="2021-06-08" />
		<tag k="ssr:gruppe" v="gardsbebyggelse" />
		<tag k="ssr:hovedgruppe" v="bebyggelse" />
		<tag k="ssr:stedsnr" v="21209" />
		<tag k="ssr:type" v="bruk" />
	</node>
	<node lat="69.33282201791924" lon="18.579360580204785" id="-37147">
		<tag k="fixme" v="consider place=hamlet" />
		<tag k="name" v="Ytre Navaren" />
		<tag k="place" v="farm" />
		<tag k="ssr:date" v="2021-06-08" />
		<tag k="ssr:gruppe" v="gardsbebyggelse" />
		<tag k="ssr:hovedgruppe" v="bebyggelse" />
		<tag k="ssr:stedsnr" v="21213" />
		<tag k="ssr:type" v="gard" />
	</node>
	<node lat="68.90770833038543" lon="19.537249980050024" id="-37148">
		<tag k="name" v="Bjørneborg" />
		<tag k="place" v="locality" />
		<tag k="ssr:date" v="2019-12-27" />
		<tag k="ssr:gruppe" v="flater" />
		<tag k="ssr:hovedgruppe" v="terreng" />
		<tag k="ssr:stedsnr" v="233544" />
		<tag k="ssr:type" v="mo" />
	</node>
	<node lat="68.89787222126708" lon="19.53772777861678" id="-37149">
		<tag k="name" v="Skålpfloen" />
		<tag k="natural" v="water" />
		<tag k="ssr:date" v="2019-12-27" />
		<tag k="ssr:gruppe" v="rennendeVann" />
		<tag k="ssr:hovedgruppe" v="ferskvann" />
		<tag k="ssr:stedsnr" v="233549" />
		<tag k="ssr:type" v="lon" />
		<tag k="water" v="lake" />
	</node>
	<node lat="68.99704722550152" lon="19.064305554123166" id="-37150">
		<tag k="name" v="Åsmyra" />
		<tag k="natural" v="wetland" />
		<tag k="ssr:date" v="2019-12-27" />
		<tag k="ssr:gruppe" v="våtmark" />
		<tag k="ssr:hovedgruppe" v="markslag" />
		<tag k="ssr:stedsnr" v="233550" />
		<tag k="ssr:type" v="myr" />
	</node>
	<node lat="68.80937500483303" lon="19.604422210592038" id="-37151">
		<tag k="name" v="Skjærbekken" />
		<tag k="ssr:date" v="2019-12-27" />
		<tag k="ssr:gruppe" v="rennendeVann" />
		<tag k="ssr:hovedgruppe" v="ferskvann" />
		<tag k="ssr:stedsnr" v="233557" />
		<tag k="ssr:type" v="bekk" />
		<tag k="waterway" v="stream" />
	</node>
	<node lat="68.99353611227593" lon="19.08952222348604" id="-37152">
		<tag k="name" v="Revhaugan" />
		<tag k="natural" v="hill" />
		<tag k="place" v="locality" />
		<tag k="ssr:date" v="2019-12-27" />
		<tag k="ssr:gruppe" v="høyder" />
		<tag k="ssr:hovedgruppe" v="terreng" />
		<tag k="ssr:stedsnr" v="233559" />
		<tag k="ssr:type" v="haug" />
	</node>
	<node lat="68.97642222676141" lon="18.99582776359239" id="-37153">
		<tag k="name" v="Sennamyra" />
		<tag k="natural" v="wetland" />
		<tag k="ssr:date" v="2019-12-27" />
		<tag k="ssr:gruppe" v="våtmark" />
		<tag k="ssr:hovedgruppe" v="markslag" />
		<tag k="ssr:stedsnr" v="233563" />
		<tag k="ssr:type" v="myr" />
	</node>
	<node lat="68.99516110911966" lon="19.10241109245295" id="-37154">
		<tag k="name" v="Hølbekkmoen" />
		<tag k="place" v="locality" />
		<tag k="ssr:date" v="2019-12-27" />
		<tag k="ssr:gruppe" v="flater" />
		<tag k="ssr:hovedgruppe" v="terreng" />
		<tag k="ssr:stedsnr" v="233569" />
		<tag k="ssr:type" v="mo" />
	</node>
	<node lat="69.00692222418667" lon="18.96657498151404" id="-37155">
		<tag k="name" v="Bussta" />
		<tag k="natural" v="slope" />
		<tag k="place" v="locality" />
		<tag k="ssr:date" v="2019-12-27" />
		<tag k="ssr:gruppe" v="skråninger" />
		<tag k="ssr:hovedgruppe" v="terreng" />
		<tag k="ssr:stedsnr" v="233578" />
		<tag k="ssr:type" v="bakke" />
	</node>
	<node lat="68.86600833574217" lon="19.07115832710882" id="-37156">
		<tag k="name" v="Holmengrena" />
		<tag k="ssr:date" v="2019-12-27" />
		<tag k="ssr:gruppe" v="rennendeVann" />
		<tag k="ssr:hovedgruppe" v="ferskvann" />
		<tag k="ssr:stedsnr" v="233651" />
		<tag k="ssr:type" v="bekk" />
		<tag k="waterway" v="stream" />
	</node>
	<node lat="68.86684166696644" lon="19.083791655344434" id="-37157">
		<tag k="name" v="Bjørkåsflatene" />
		<tag k="place" v="locality" />
		<tag k="ssr:date" v="2019-12-27" />
		<tag k="ssr:gruppe" v="flater" />
		<tag k="ssr:hovedgruppe" v="terreng" />
		<tag k="ssr:stedsnr" v="233656" />
		<tag k="ssr:type" v="slette" />
	</node>
	<node lat="68.9186444478353" lon="18.977266655156757" id="-37158">
		<tag k="name" v="Badtjønna" />
		<tag k="natural" v="water" />
		<tag k="ssr:date" v="2019-12-27" />
		<tag k="ssr:gruppe" v="stilleståendeVann" />
		<tag k="ssr:hovedgruppe" v="ferskvann" />
		<tag k="ssr:stedsnr" v="233660" />
		<tag k="ssr:type" v="tjern" />
	</node>
	<node lat="69.2198777742399" lon="18.473399990853707" id="-37159">
		<tag k="name" v="Kjosen" />
		<tag k="natural" v="bay" />
		<tag k="ssr:date" v="2019-12-27" />
		<tag k="ssr:gruppe" v="rennendeVann" />
		<tag k="ssr:hovedgruppe" v="ferskvann" />
		<tag k="ssr:stedsnr" v="233595" />
		<tag k="ssr:type" v="os" />
	</node>
	<node lat="69.17396388913916" lon="18.401622208762763" id="-37160">
		<tag k="name" v="Nattmålshaugen" />
		<tag k="natural" v="hill" />
		<tag k="place" v="locality" />
		<tag k="ssr:date" v="2019-12-27" />
		<tag k="ssr:gruppe" v="høyder" />
		<tag k="ssr:hovedgruppe" v="terreng" />
		<tag k="ssr:stedsnr" v="233745" />
		<tag k="ssr:type" v="haug" />
	</node>
	<node lat="69.17319166858913" lon="18.39813053984525" id="-37161">
		<tag k="name" v="Kavelbakken" />
		<tag k="natural" v="slope" />
		<tag k="place" v="locality" />
		<tag k="ssr:date" v="2019-12-27" />
		<tag k="ssr:gruppe" v="skråninger" />
		<tag k="ssr:hovedgruppe" v="terreng" />
		<tag k="ssr:stedsnr" v="233746" />
		<tag k="ssr:type" v="bakke" />
	</node>
	<node lat="68.84587777863558" lon="19.60038610478416" id="-37162">
		<tag k="name" v="Ørnreirberget" />
		<tag k="natural" v="hill" />
		<tag k="place" v="locality" />
		<tag k="ssr:date" v="2019-12-27" />
		<tag k="ssr:gruppe" v="høyder" />
		<tag k="ssr:hovedgruppe" v="terreng" />
		<tag k="ssr:stedsnr" v="233747" />
		<tag k="ssr:type" v="haug" />
	</node>
	<node lat="69.02450555273208" lon="18.963144424486714" id="-37163">
		<tag k="name" v="Tekkja" />
		<tag k="natural" v="slope" />
		<tag k="place" v="locality" />
		<tag k="ssr:date" v="2019-12-27" />
		<tag k="ssr:gruppe" v="skråninger" />
		<tag k="ssr:hovedgruppe" v="terreng" />
		<tag k="ssr:stedsnr" v="233772" />
		<tag k="ssr:type" v="li" />
	</node>
	<node lat="69.0289611084887" lon="18.971172205987934" id="-37164">
		<tag k="name" v="Fjellslåttbergan" />
		<tag k="natural" v="hill" />
		<tag k="place" v="locality" />
		<tag k="ssr:date" v="2019-12-27" />
		<tag k="ssr:gruppe" v="høyder" />
		<tag k="ssr:hovedgruppe" v="terreng" />
		<tag k="ssr:stedsnr" v="233774" />
		<tag k="ssr:type" v="berg" />
	</node>
	<node lat="69.02118333401035" lon="18.961624990169877" id="-37165">
		<tag k="name" v="Mortenvelta" />
		<tag k="natural" v="slope" />
		<tag k="place" v="locality" />
		<tag k="ssr:date" v="2019-12-27" />
		<tag k="ssr:gruppe" v="skråninger" />
		<tag k="ssr:hovedgruppe" v="terreng" />
		<tag k="ssr:stedsnr" v="233782" />
		<tag k="ssr:type" v="bakke" />
	</node>
	<node lat="69.0224472257735" lon="19.005580560356044" id="-37166">
		<tag k="name" v="Myra og Haugen" />
		<tag k="natural" v="hill" />
		<tag k="place" v="locality" />
		<tag k="ssr:date" v="2019-12-27" />
		<tag k="ssr:gruppe" v="høyder" />
		<tag k="ssr:hovedgruppe" v="terreng" />
		<tag k="ssr:stedsnr" v="233785" />
		<tag k="ssr:type" v="haug" />
	</node>
	<node lat="68.77193611580813" lon="19.701099989380598" id="-37167">
		<tag k="name" v="Bersvendholmen" />
		<tag k="place" v="islet" />
		<tag k="ssr:date" v="2019-12-27" />
		<tag k="ssr:gruppe" v="ferskvannskontur" />
		<tag k="ssr:hovedgruppe" v="ferskvann" />
		<tag k="ssr:stedsnr" v="233811" />
		<tag k="ssr:type" v="holme" />
	</node>
	<node lat="69.03064722280513" lon="19.574174996807564" id="-37168">
		<tag k="name" v="Småbekkan" />
		<tag k="ssr:date" v="2019-12-27" />
		<tag k="ssr:gruppe" v="rennendeVann" />
		<tag k="ssr:hovedgruppe" v="ferskvann" />
		<tag k="ssr:stedsnr" v="233813" />
		<tag k="ssr:type" v="bekk" />
		<tag k="waterway" v="stream" />
	</node>
	<node lat="68.72196944499261" lon="19.73156665929063" id="-37169">
		<tag k="name" v="Langnesbekken" />
		<tag k="ssr:date" v="2019-12-27" />
		<tag k="ssr:gruppe" v="rennendeVann" />
		<tag k="ssr:hovedgruppe" v="ferskvann" />
		<tag k="ssr:stedsnr" v="233836" />
		<tag k="ssr:type" v="bekk" />
		<tag k="waterway" v="stream" />
	</node>
	<node lat="68.74803333648717" lon="19.727438868578304" id="-37170">
		<tag k="name" v="Søndre Henbergnes" />
		<tag k="natural" v="cape" />
		<tag k="ssr:date" v="2019-12-27" />
		<tag k="ssr:gruppe" v="ferskvannskontur" />
		<tag k="ssr:hovedgruppe" v="ferskvann" />
		<tag k="ssr:stedsnr" v="233842" />
		<tag k="ssr:type" v="nes" />
	</node>
	<node lat="69.06762222519953" lon="18.659763882663224" id="-37171">
		<tag k="name" v="Stordalen" />
		<tag k="natural" v="valley" />
		<tag k="place" v="locality" />
		<tag k="ssr:date" v="2019-12-27" />
		<tag k="ssr:gruppe" v="senkninger" />
		<tag k="ssr:hovedgruppe" v="terreng" />
		<tag k="ssr:stedsnr" v="233704" />
		<tag k="ssr:type" v="dal" />
	</node>
	<node lat="68.92774722446234" lon="19.507108333767864" id="-37172">
		<tag k="name" v="Langbakken" />
		<tag k="natural" v="slope" />
		<tag k="place" v="locality" />
		<tag k="ssr:date" v="2019-12-27" />
		<tag k="ssr:gruppe" v="skråninger" />
		<tag k="ssr:hovedgruppe" v="terreng" />
		<tag k="ssr:stedsnr" v="233719" />
		<tag k="ssr:type" v="bakke" />
	</node>
	<node lat="68.96136666568502" lon="19.723577753027" id="-37173">
		<tag k="name" v="Furumyra" />
		<tag k="natural" v="wetland" />
		<tag k="ssr:date" v="2019-12-27" />
		<tag k="ssr:gruppe" v="våtmark" />
		<tag k="ssr:hovedgruppe" v="markslag" />
		<tag k="ssr:stedsnr" v="233963" />
		<tag k="ssr:type" v="myr" />
	</node>
	<node lat="69.02183333350108" lon="19.630947204988757" id="-37174">
		<tag k="name" v="Kvennelvskaret" />
		<tag k="natural" v="valley" />
		<tag k="place" v="locality" />
		<tag k="ssr:date" v="2019-12-27" />
		<tag k="ssr:gruppe" v="senkninger" />
		<tag k="ssr:hovedgruppe" v="terreng" />
		<tag k="ssr:stedsnr" v="233973" />
		<tag k="ssr:type" v="skar" />
	</node>
	<node lat="69.22053055568996" lon="18.51080833416793" id="-37175">
		<tag k="name" v="Rundhaugen" />
		<tag k="natural" v="hill" />
		<tag k="place" v="locality" />
		<tag k="ssr:date" v="2019-12-27" />
		<tag k="ssr:gruppe" v="høyder" />
		<tag k="ssr:hovedgruppe" v="terreng" />
		<tag k="ssr:stedsnr" v="35373" />
		<tag k="ssr:type" v="haug" />
	</node>
	<node lat="69.13302499654681" lon="19.01829165714426" id="-37176">
		<tag k="name" v="Stormyra" />
		<tag k="natural" v="wetland" />
		<tag k="ssr:date" v="2019-12-27" />
		<tag k="ssr:gruppe" v="våtmark" />
		<tag k="ssr:hovedgruppe" v="markslag" />
		<tag k="ssr:stedsnr" v="50613" />
		<tag k="ssr:type" v="myr" />
	</node>
	<node lat="69.11621944580317" lon="18.978244429878178" id="-37177">
		<tag k="alt_name" v="Hompen" />
		<tag k="name" v="Humpen" />
		<tag k="natural" v="hill" />
		<tag k="place" v="locality" />
		<tag k="ssr:date" v="2019-12-27" />
		<tag k="ssr:gruppe" v="høyder" />
		<tag k="ssr:hovedgruppe" v="terreng" />
		<tag k="ssr:stedsnr" v="50619" />
		<tag k="ssr:type" v="haug" />
	</node>
	<node lat="69.11995278248631" lon="18.95644442952573" id="-37178">
		<tag k="name" v="Peder-Larsalia" />
		<tag k="natural" v="slope" />
		<tag k="place" v="locality" />
		<tag k="ssr:date" v="2019-12-27" />
		<tag k="ssr:gruppe" v="skråninger" />
		<tag k="ssr:hovedgruppe" v="terreng" />
		<tag k="ssr:stedsnr" v="50622" />
		<tag k="ssr:type" v="li" />
	</node>
	<node lat="68.9733555529738" lon="19.199947223790993" id="-37179">
		<tag k="name" v="Slåtthaugen" />
		<tag k="natural" v="hill" />
		<tag k="place" v="locality" />
		<tag k="ssr:date" v="2019-12-27" />
		<tag k="ssr:gruppe" v="høyder" />
		<tag k="ssr:hovedgruppe" v="terreng" />
		<tag k="ssr:stedsnr" v="50623" />
		<tag k="ssr:type" v="haug" />
	</node>
	<node lat="69.0241777800631" lon="18.60898887671037" id="-37180">
		<tag k="name" v="Nedre Langmyrrygg" />
		<tag k="natural" v="ridge" />
		<tag k="place" v="locality" />
		<tag k="ssr:date" v="2019-12-27" />
		<tag k="ssr:gruppe" v="høyder" />
		<tag k="ssr:hovedgruppe" v="terreng" />
		<tag k="ssr:stedsnr" v="50901" />
		<tag k="ssr:type" v="rygg" />
	</node>
	<node lat="69.08226944881248" lon="18.586174986954358" id="-37181">
		<tag k="name" v="Gustavrommet" />
		<tag k="place" v="locality" />
		<tag k="ssr:date" v="2019-12-27" />
		<tag k="ssr:gruppe" v="terrengdetaljer" />
		<tag k="ssr:hovedgruppe" v="terreng" />
		<tag k="ssr:stedsnr" v="50912" />
		<tag k="ssr:type" v="annenTerrengdetalj" />
	</node>
	<node lat="69.09985833021646" lon="18.584888878053828" id="-37182">
		<tag k="name" v="Sagstillingsmoen" />
		<tag k="place" v="locality" />
		<tag k="ssr:date" v="2019-12-27" />
		<tag k="ssr:gruppe" v="flater" />
		<tag k="ssr:hovedgruppe" v="terreng" />
		<tag k="ssr:stedsnr" v="50920" />
		<tag k="ssr:type" v="mo" />
	</node>
	<node lat="69.08470852106585" lon="18.638243542690017" id="-37183">
		<tag k="alt_name" v="Nordre Rognmo" />
		<tag k="name" v="Nordre Rognmoen" />
		<tag k="place" v="farm" />
		<tag k="ssr:date" v="2021-02-20" />
		<tag k="ssr:gruppe" v="gardsbebyggelse" />
		<tag k="ssr:hovedgruppe" v="bebyggelse" />
		<tag k="ssr:stedsnr" v="50922" />
		<tag k="ssr:type" v="bruk" />
	</node>
	<node lat="68.98535000083743" lon="19.196394433218526" id="-37184">
		<tag k="name" v="Hølbekken" />
		<tag k="ssr:date" v="2019-12-27" />
		<tag k="ssr:gruppe" v="rennendeVann" />
		<tag k="ssr:hovedgruppe" v="ferskvann" />
		<tag k="ssr:stedsnr" v="50801" />
		<tag k="ssr:type" v="bekk" />
		<tag k="waterway" v="stream" />
	</node>
	<node lat="69.2334027794542" lon="18.450913874880264" id="-37185">
		<tag k="name" v="Kringlemoen" />
		<tag k="place" v="locality" />
		<tag k="ssr:date" v="2019-12-27" />
		<tag k="ssr:gruppe" v="flater" />
		<tag k="ssr:hovedgruppe" v="terreng" />
		<tag k="ssr:stedsnr" v="51108" />
		<tag k="ssr:type" v="mo" />
	</node>
	<node lat="68.9894222200077" lon="18.79321111098778" id="-37186">
		<tag k="name" v="Bjønnbåsaksla" />
		<tag k="place" v="locality" />
		<tag k="ssr:date" v="2019-12-27" />
		<tag k="ssr:gruppe" v="høyder" />
		<tag k="ssr:hovedgruppe" v="terreng" />
		<tag k="ssr:stedsnr" v="51110" />
		<tag k="ssr:type" v="fjellkant" />
	</node>
	<node lat="69.24920833040223" lon="18.692841665537596" id="-37187">
		<tag k="name" v="Storneset" />
		<tag k="natural" v="cape" />
		<tag k="ssr:date" v="2019-12-27" />
		<tag k="ssr:gruppe" v="ferskvannskontur" />
		<tag k="ssr:hovedgruppe" v="ferskvann" />
		<tag k="ssr:stedsnr" v="51169" />
		<tag k="ssr:type" v="nes" />
	</node>
	<node lat="69.24515278201447" lon="18.710983320308486" id="-37188">
		<tag k="alt_name" v="Berghompen" />
		<tag k="name" v="Berghumpen" />
		<tag k="natural" v="hill" />
		<tag k="place" v="locality" />
		<tag k="ssr:date" v="2019-12-27" />
		<tag k="ssr:gruppe" v="høyder" />
		<tag k="ssr:hovedgruppe" v="terreng" />
		<tag k="ssr:stedsnr" v="51173" />
		<tag k="ssr:type" v="haug" />
	</node>
	<node lat="69.23557500419095" lon="18.689888890148122" id="-37189">
		<tag k="name" v="Neset" />
		<tag k="natural" v="cape" />
		<tag k="ssr:date" v="2019-12-27" />
		<tag k="ssr:gruppe" v="ferskvannskontur" />
		<tag k="ssr:hovedgruppe" v="ferskvann" />
		<tag k="ssr:stedsnr" v="51175" />
		<tag k="ssr:type" v="nes" />
	</node>
	<node lat="69.23799166548275" lon="18.66337776384423" id="-37190">
		<tag k="name" v="Småslettene" />
		<tag k="place" v="locality" />
		<tag k="ssr:date" v="2019-12-27" />
		<tag k="ssr:gruppe" v="flater" />
		<tag k="ssr:hovedgruppe" v="terreng" />
		<tag k="ssr:stedsnr" v="51176" />
		<tag k="ssr:type" v="slette" />
	</node>
	<node lat="69.26667778266328" lon="18.67396665367656" id="-37191">
		<tag k="name" v="Geitberget" />
		<tag k="natural" v="hill" />
		<tag k="place" v="locality" />
		<tag k="ssr:date" v="2019-12-27" />
		<tag k="ssr:gruppe" v="høyder" />
		<tag k="ssr:hovedgruppe" v="terreng" />
		<tag k="ssr:stedsnr" v="51179" />
		<tag k="ssr:type" v="berg" />
	</node>
	<node lat="69.14125555495208" lon="18.712788871069915" id="-37192">
		<tag k="name" v="Skitaberglia" />
		<tag k="natural" v="slope" />
		<tag k="place" v="locality" />
		<tag k="ssr:date" v="2019-12-27" />
		<tag k="ssr:gruppe" v="skråninger" />
		<tag k="ssr:hovedgruppe" v="terreng" />
		<tag k="ssr:stedsnr" v="51180" />
		<tag k="ssr:type" v="li" />
	</node>
	<node lat="69.25953333276385" lon="18.665211095641876" id="-37193">
		<tag k="name" v="Johanneslabekken" />
		<tag k="ssr:date" v="2019-12-27" />
		<tag k="ssr:gruppe" v="rennendeVann" />
		<tag k="ssr:hovedgruppe" v="ferskvann" />
		<tag k="ssr:stedsnr" v="51181" />
		<tag k="ssr:type" v="bekk" />
		<tag k="waterway" v="stream" />
	</node>
	<node lat="69.25283333426465" lon="18.669449997328734" id="-37194">
		<tag k="name" v="Slettene" />
		<tag k="place" v="locality" />
		<tag k="ssr:date" v="2019-12-27" />
		<tag k="ssr:gruppe" v="flater" />
		<tag k="ssr:hovedgruppe" v="terreng" />
		<tag k="ssr:stedsnr" v="51184" />
		<tag k="ssr:type" v="slette" />
	</node>
	<node lat="69.20480278040058" lon="18.720683316576164" id="-37195">
		<tag k="name" v="Melkeberget" />
		<tag k="natural" v="hill" />
		<tag k="place" v="locality" />
		<tag k="ssr:date" v="2019-12-27" />
		<tag k="ssr:gruppe" v="høyder" />
		<tag k="ssr:hovedgruppe" v="terreng" />
		<tag k="ssr:stedsnr" v="51304" />
		<tag k="ssr:type" v="berg" />
	</node>
	<node lat="69.00121666263195" lon="19.39422221438412" id="-37196">
		<tag k="fixme" v="consider natural=peak for the most distinct mountains in the district" />
		<tag k="name" v="Neråsen" />
		<tag k="natural" v="hill" />
		<tag k="place" v="locality" />
		<tag k="ssr:date" v="2019-12-27" />
		<tag k="ssr:gruppe" v="høyder" />
		<tag k="ssr:hovedgruppe" v="terreng" />
		<tag k="ssr:stedsnr" v="51307" />
		<tag k="ssr:type" v="ås" />
	</node>
	<node lat="68.99999722517393" lon="19.41136943798473" id="-37197">
		<tag k="name" v="Sørhalla" />
		<tag k="natural" v="slope" />
		<tag k="place" v="locality" />
		<tag k="ssr:date" v="2019-12-27" />
		<tag k="ssr:gruppe" v="skråninger" />
		<tag k="ssr:hovedgruppe" v="terreng" />
		<tag k="ssr:stedsnr" v="51311" />
		<tag k="ssr:type" v="li" />
	</node>
	<node lat="69.03020555463891" lon="18.50377777691547" id="-37198">
		<tag k="amenity" v="school" />
		<tag k="loc_name:se" v="Beardogoržži joatkkaskovlá" />
		<tag k="name" v="Bardufoss videregående skole" />
		<tag k="name:no" v="Bardufoss videregående skole" />
		<tag k="ssr:date" v="2019-12-27" />
		<tag k="ssr:gruppe" v="institusjoner" />
		<tag k="ssr:hovedgruppe" v="bebyggelse" />
		<tag k="ssr:stedsnr" v="51074" />
		<tag k="ssr:type" v="skole" />
	</node>
	<node lat="69.00533888838785" lon="18.699774993006166" id="-37199">
		<tag k="name" v="Tortenlitjønna" />
		<tag k="natural" v="water" />
		<tag k="ssr:date" v="2019-12-27" />
		<tag k="ssr:gruppe" v="stilleståendeVann" />
		<tag k="ssr:hovedgruppe" v="ferskvann" />
		<tag k="ssr:stedsnr" v="51076" />
		<tag k="ssr:type" v="tjern" />
	</node>
	<node lat="69.01505555363438" lon="18.662508336979997" id="-37200">
		<tag k="name" v="Tekkjmyra" />
		<tag k="natural" v="wetland" />
		<tag k="ssr:date" v="2019-12-27" />
		<tag k="ssr:gruppe" v="våtmark" />
		<tag k="ssr:hovedgruppe" v="markslag" />
		<tag k="ssr:stedsnr" v="51077" />
		<tag k="ssr:type" v="myr" />
	</node>
	<node lat="68.98592222163936" lon="18.71393054716289" id="-37201">
		<tag k="name" v="Kjervelvlia" />
		<tag k="natural" v="slope" />
		<tag k="place" v="locality" />
		<tag k="ssr:date" v="2019-12-27" />
		<tag k="ssr:gruppe" v="skråninger" />
		<tag k="ssr:hovedgruppe" v="terreng" />
		<tag k="ssr:stedsnr" v="51079" />
		<tag k="ssr:type" v="li" />
	</node>
	<node lat="69.00549166497615" lon="18.759319430680062" id="-37202">
		<tag k="name" v="Tjæramilmyra" />
		<tag k="natural" v="wetland" />
		<tag k="ssr:date" v="2019-12-27" />
		<tag k="ssr:gruppe" v="våtmark" />
		<tag k="ssr:hovedgruppe" v="markslag" />
		<tag k="ssr:stedsnr" v="51085" />
		<tag k="ssr:type" v="myr" />
	</node>
	<node lat="69.22741388789835" lon="18.68294444808315" id="-37203">
		<tag k="name" v="Finnheimen" />
		<tag k="place" v="locality" />
		<tag k="ssr:date" v="2019-12-27" />
		<tag k="ssr:gruppe" v="bolighus" />
		<tag k="ssr:hovedgruppe" v="bebyggelse" />
		<tag k="ssr:stedsnr" v="51279" />
		<tag k="ssr:type" v="gammelBosettingsplass" />
	</node>
	<node lat="69.23764999966673" lon="18.537505556857894" id="-37204">
		<tag k="name" v="Høyhågbakken" />
		<tag k="natural" v="slope" />
		<tag k="place" v="locality" />
		<tag k="ssr:date" v="2019-12-27" />
		<tag k="ssr:gruppe" v="skråninger" />
		<tag k="ssr:hovedgruppe" v="terreng" />
		<tag k="ssr:stedsnr" v="51285" />
		<tag k="ssr:type" v="bakke" />
	</node>
	<node lat="69.17675277468875" lon="18.67390555009812" id="-37205">
		<tag k="name" v="Fosslia" />
		<tag k="natural" v="slope" />
		<tag k="place" v="locality" />
		<tag k="ssr:date" v="2019-12-27" />
		<tag k="ssr:gruppe" v="skråninger" />
		<tag k="ssr:hovedgruppe" v="terreng" />
		<tag k="ssr:stedsnr" v="51287" />
		<tag k="ssr:type" v="li" />
	</node>
	<node lat="69.14373888650653" lon="18.94653887280671" id="-37206">
		<tag k="name" v="Stormyra" />
		<tag k="natural" v="wetland" />
		<tag k="ssr:date" v="2019-12-27" />
		<tag k="ssr:gruppe" v="våtmark" />
		<tag k="ssr:hovedgruppe" v="markslag" />
		<tag k="ssr:stedsnr" v="51406" />
		<tag k="ssr:type" v="myr" />
	</node>
	<node lat="68.96551666655716" lon="19.360438872661174" id="-37207">
		<tag k="name" v="Langfjellaksla" />
		<tag k="place" v="locality" />
		<tag k="ssr:date" v="2019-12-27" />
		<tag k="ssr:gruppe" v="høyder" />
		<tag k="ssr:hovedgruppe" v="terreng" />
		<tag k="ssr:stedsnr" v="51379" />
		<tag k="ssr:type" v="fjellkant" />
	</node>
	<node lat="69.03022777491606" lon="18.95324720710021" id="-37208">
		<tag k="historic" v="shieling" />
		<tag k="name" v="Mosætra" />
		<tag k="place" v="isolated_dwelling" />
		<tag k="ssr:date" v="2019-12-27" />
		<tag k="ssr:gruppe" v="gardsbebyggelse" />
		<tag k="ssr:hovedgruppe" v="bebyggelse" />
		<tag k="ssr:stedsnr" v="51501" />
		<tag k="ssr:type" v="seterStøl" />
	</node>
	<node lat="69.03476388812484" lon="18.93656110967619" id="-37209">
		<tag k="historic" v="shieling" />
		<tag k="name" v="Gardsætra" />
		<tag k="place" v="isolated_dwelling" />
		<tag k="ssr:date" v="2019-12-27" />
		<tag k="ssr:gruppe" v="gardsbebyggelse" />
		<tag k="ssr:hovedgruppe" v="bebyggelse" />
		<tag k="ssr:stedsnr" v="51502" />
		<tag k="ssr:type" v="seterStøl" />
	</node>
	<node lat="69.019647217684" lon="19.40802222170645" id="-37210">
		<tag k="name" v="Ågårdlia" />
		<tag k="natural" v="slope" />
		<tag k="place" v="locality" />
		<tag k="ssr:date" v="2019-12-27" />
		<tag k="ssr:gruppe" v="skråninger" />
		<tag k="ssr:hovedgruppe" v="terreng" />
		<tag k="ssr:stedsnr" v="51569" />
		<tag k="ssr:type" v="li" />
	</node>
	<node lat="68.97580277644427" lon="19.007427770119975" id="-37211">
		<tag k="name" v="Snauhaugen" />
		<tag k="natural" v="hill" />
		<tag k="place" v="locality" />
		<tag k="ssr:date" v="2019-12-27" />
		<tag k="ssr:gruppe" v="høyder" />
		<tag k="ssr:hovedgruppe" v="terreng" />
		<tag k="ssr:stedsnr" v="51574" />
		<tag k="ssr:type" v="haug" />
	</node>
	<node lat="69.01262500455212" lon="18.961716658703544" id="-37212">
		<tag k="name" v="Brannhaugen" />
		<tag k="natural" v="hill" />
		<tag k="place" v="locality" />
		<tag k="ssr:date" v="2019-12-27" />
		<tag k="ssr:gruppe" v="høyder" />
		<tag k="ssr:hovedgruppe" v="terreng" />
		<tag k="ssr:stedsnr" v="51582" />
		<tag k="ssr:type" v="haug" />
	</node>
	<node lat="69.20727222559886" lon="18.47059721725129" id="-37213">
		<tag k="name" v="Kjosen" />
		<tag k="natural" v="bay" />
		<tag k="ssr:date" v="2019-12-27" />
		<tag k="ssr:gruppe" v="ferskvannskontur" />
		<tag k="ssr:hovedgruppe" v="ferskvann" />
		<tag k="ssr:stedsnr" v="51585" />
		<tag k="ssr:type" v="vik" />
	</node>
	<node lat="69.220063889051" lon="18.423536106188678" id="-37214">
		<tag k="name" v="Langmyra" />
		<tag k="natural" v="wetland" />
		<tag k="ssr:date" v="2019-12-27" />
		<tag k="ssr:gruppe" v="våtmark" />
		<tag k="ssr:hovedgruppe" v="markslag" />
		<tag k="ssr:stedsnr" v="51590" />
		<tag k="ssr:type" v="myr" />
	</node>
	<node lat="69.07951666843265" lon="18.720741665970685" id="-37215">
		<tag k="name" v="Finnteltholtet" />
		<tag k="natural" v="hill" />
		<tag k="place" v="locality" />
		<tag k="ssr:date" v="2019-12-27" />
		<tag k="ssr:gruppe" v="høyder" />
		<tag k="ssr:hovedgruppe" v="terreng" />
		<tag k="ssr:stedsnr" v="51703" />
		<tag k="ssr:type" v="haug" />
	</node>
	<node lat="69.06667499617645" lon="18.6556249968754" id="-37216">
		<tag k="name" v="Bjønnmoen" />
		<tag k="place" v="locality" />
		<tag k="ssr:date" v="2019-12-27" />
		<tag k="ssr:gruppe" v="flater" />
		<tag k="ssr:hovedgruppe" v="terreng" />
		<tag k="ssr:stedsnr" v="51705" />
		<tag k="ssr:type" v="mo" />
	</node>
	<node lat="69.06846944375113" lon="18.66662498313878" id="-37217">
		<tag k="name" v="Mellamoen" />
		<tag k="place" v="locality" />
		<tag k="ssr:date" v="2019-12-27" />
		<tag k="ssr:gruppe" v="flater" />
		<tag k="ssr:hovedgruppe" v="terreng" />
		<tag k="ssr:stedsnr" v="51707" />
		<tag k="ssr:type" v="mo" />
	</node>
	<node lat="69.25887222192117" lon="18.499372213074086" id="-37218">
		<tag k="fixme" v="consider seamark:type=rock or natural=shoal" />
		<tag k="name" v="Hamnesstroket" />
		<tag k="place" v="islet" />
		<tag k="ssr:date" v="2019-12-27" />
		<tag k="ssr:gruppe" v="grunnerISjø" />
		<tag k="ssr:hovedgruppe" v="sjø" />
		<tag k="ssr:stedsnr" v="51469" />
		<tag k="ssr:type" v="skjærISjø" />
	</node>
	<node lat="69.25780555694674" lon="18.49683610593431" id="-37219">
		<tag k="name" v="Holmen" />
		<tag k="natural" v="cape" />
		<tag k="ssr:date" v="2019-12-27" />
		<tag k="ssr:gruppe" v="kystkontur" />
		<tag k="ssr:hovedgruppe" v="sjø" />
		<tag k="ssr:stedsnr" v="51472" />
		<tag k="ssr:type" v="nesISjø" />
	</node>
	<node lat="68.9434388870859" lon="18.91428888995247" id="-37220">
		<tag k="name" v="Prostmoen" />
		<tag k="place" v="locality" />
		<tag k="ssr:date" v="2019-12-27" />
		<tag k="ssr:gruppe" v="flater" />
		<tag k="ssr:hovedgruppe" v="terreng" />
		<tag k="ssr:stedsnr" v="51482" />
		<tag k="ssr:type" v="mo" />
	</node>
	<node lat="69.01949166469743" lon="18.918541658414604" id="-37221">
		<tag k="name" v="Leirdalen" />
		<tag k="natural" v="valley" />
		<tag k="place" v="locality" />
		<tag k="ssr:date" v="2019-12-27" />
		<tag k="ssr:gruppe" v="senkninger" />
		<tag k="ssr:hovedgruppe" v="terreng" />
		<tag k="ssr:stedsnr" v="51487" />
		<tag k="ssr:type" v="dal" />
	</node>
	<node lat="69.01171389032241" lon="19.009255543204134" id="-37222">
		<tag k="name" v="Veslenggrindbakken" />
		<tag k="natural" v="slope" />
		<tag k="place" v="locality" />
		<tag k="ssr:date" v="2019-12-27" />
		<tag k="ssr:gruppe" v="skråninger" />
		<tag k="ssr:hovedgruppe" v="terreng" />
		<tag k="ssr:stedsnr" v="51602" />
		<tag k="ssr:type" v="bakke" />
	</node>
	<node lat="69.22248333316786" lon="18.459624994556425" id="-37223">
		<tag k="name" v="Hesttrøa" />
		<tag k="place" v="islet" />
		<tag k="ssr:date" v="2019-12-27" />
		<tag k="ssr:gruppe" v="ferskvannskontur" />
		<tag k="ssr:hovedgruppe" v="ferskvann" />
		<tag k="ssr:stedsnr" v="51606" />
		<tag k="ssr:type" v="holme" />
	</node>
	<node lat="69.17710000187927" lon="18.436033331299445" id="-37224">
		<tag k="name" v="Ola-lafossen" />
		<tag k="natural" v="waterfall" />
		<tag k="ssr:date" v="2019-12-27" />
		<tag k="ssr:gruppe" v="rennendeVann" />
		<tag k="ssr:hovedgruppe" v="ferskvann" />
		<tag k="ssr:stedsnr" v="51801" />
		<tag k="ssr:type" v="foss" />
	</node>
	<node lat="69.16742222070917" lon="18.394002765840114" id="-37225">
		<tag k="name" v="Kjørmyra" />
		<tag k="natural" v="wetland" />
		<tag k="ssr:date" v="2019-12-27" />
		<tag k="ssr:gruppe" v="våtmark" />
		<tag k="ssr:hovedgruppe" v="markslag" />
		<tag k="ssr:stedsnr" v="51878" />
		<tag k="ssr:type" v="myr" />
	</node>
	<node lat="69.16500833319067" lon="18.381030540866206" id="-37226">
		<tag k="name" v="Reierfossen" />
		<tag k="natural" v="waterfall" />
		<tag k="ssr:date" v="2019-12-27" />
		<tag k="ssr:gruppe" v="rennendeVann" />
		<tag k="ssr:hovedgruppe" v="ferskvann" />
		<tag k="ssr:stedsnr" v="51881" />
		<tag k="ssr:type" v="foss" />
	</node>
	<node lat="69.08716944500664" lon="18.614894448753056" id="-37227">
		<tag k="name" v="Brannskogsand" />
		<tag k="place" v="farm" />
		<tag k="ssr:date" v="2021-06-08" />
		<tag k="ssr:gruppe" v="gardsbebyggelse" />
		<tag k="ssr:hovedgruppe" v="bebyggelse" />
		<tag k="ssr:stedsnr" v="51889" />
		<tag k="ssr:type" v="bruk" />
	</node>
	<node lat="69.23920277548883" lon="18.463841661260258" id="-37228">
		<tag k="name" v="Skjelldalen" />
		<tag k="natural" v="valley" />
		<tag k="place" v="locality" />
		<tag k="ssr:date" v="2019-12-27" />
		<tag k="ssr:gruppe" v="senkninger" />
		<tag k="ssr:hovedgruppe" v="terreng" />
		<tag k="ssr:stedsnr" v="52025" />
		<tag k="ssr:type" v="dal" />
	</node>
	<node lat="69.24607500193846" lon="18.38897221713267" id="-37229">
		<tag k="name" v="Langegga" />
		<tag k="natural" v="hill" />
		<tag k="place" v="locality" />
		<tag k="ssr:date" v="2019-12-27" />
		<tag k="ssr:gruppe" v="høyder" />
		<tag k="ssr:hovedgruppe" v="terreng" />
		<tag k="ssr:stedsnr" v="52068" />
		<tag k="ssr:type" v="berg" />
	</node>
	<node lat="69.23814166928955" lon="18.46189166754772" id="-37230">
		<tag k="name" v="Knutheimbakken" />
		<tag k="natural" v="slope" />
		<tag k="place" v="locality" />
		<tag k="ssr:date" v="2019-12-27" />
		<tag k="ssr:gruppe" v="skråninger" />
		<tag k="ssr:hovedgruppe" v="terreng" />
		<tag k="ssr:stedsnr" v="52078" />
		<tag k="ssr:type" v="bakke" />
	</node>
	<node lat="69.17680278075822" lon="18.463916652665656" id="-37231">
		<tag k="name" v="Myra" />
		<tag k="place" v="farm" />
		<tag k="ssr:date" v="2019-12-27" />
		<tag k="ssr:gruppe" v="gardsbebyggelse" />
		<tag k="ssr:hovedgruppe" v="bebyggelse" />
		<tag k="ssr:stedsnr" v="51774" />
		<tag k="ssr:type" v="bruk" />
	</node>
	<node lat="68.8207361151841" lon="19.628366663234218" id="-37232">
		<tag k="name" v="Fossmobekken" />
		<tag k="ssr:date" v="2019-12-27" />
		<tag k="ssr:gruppe" v="rennendeVann" />
		<tag k="ssr:hovedgruppe" v="ferskvann" />
		<tag k="ssr:stedsnr" v="51781" />
		<tag k="ssr:type" v="bekk" />
		<tag k="waterway" v="stream" />
	</node>
	<node lat="68.84728888850782" lon="19.63161664862872" id="-37233">
		<tag k="name" v="Langkjostjønna" />
		<tag k="natural" v="water" />
		<tag k="ssr:date" v="2019-12-27" />
		<tag k="ssr:gruppe" v="stilleståendeVann" />
		<tag k="ssr:hovedgruppe" v="ferskvann" />
		<tag k="ssr:stedsnr" v="51786" />
		<tag k="ssr:type" v="tjern" />
	</node>
	<node lat="68.96906666457907" lon="18.787980540236987" id="-37234">
		<tag k="historic" v="shieling" />
		<tag k="name" v="Banelvdalssætra" />
		<tag k="place" v="isolated_dwelling" />
		<tag k="ssr:date" v="2019-12-27" />
		<tag k="ssr:gruppe" v="gardsbebyggelse" />
		<tag k="ssr:hovedgruppe" v="bebyggelse" />
		<tag k="ssr:stedsnr" v="51917" />
		<tag k="ssr:type" v="seterStøl" />
	</node>
	<node lat="68.81437500469752" lon="19.651474986066603" id="-37235">
		<tag k="name" v="Fiskbergholmen" />
		<tag k="place" v="islet" />
		<tag k="ssr:date" v="2019-12-27" />
		<tag k="ssr:gruppe" v="ferskvannskontur" />
		<tag k="ssr:hovedgruppe" v="ferskvann" />
		<tag k="ssr:stedsnr" v="51970" />
		<tag k="ssr:type" v="holme" />
	</node>
	<node lat="68.99028333456685" lon="18.60721944276092" id="-37236">
		<tag k="name" v="Inglebyhaugan" />
		<tag k="natural" v="hill" />
		<tag k="place" v="locality" />
		<tag k="ssr:date" v="2019-12-27" />
		<tag k="ssr:gruppe" v="høyder" />
		<tag k="ssr:hovedgruppe" v="terreng" />
		<tag k="ssr:stedsnr" v="51979" />
		<tag k="ssr:type" v="haug" />
	</node>
	<node lat="68.84063333129527" lon="19.58343611024834" id="-37237">
		<tag k="name" v="Båthølet" />
		<tag k="natural" v="bay" />
		<tag k="ssr:date" v="2019-12-27" />
		<tag k="ssr:gruppe" v="ferskvannskontur" />
		<tag k="ssr:hovedgruppe" v="ferskvann" />
		<tag k="ssr:stedsnr" v="52710" />
		<tag k="ssr:type" v="vik" />
	</node>
	<node lat="68.83857777831327" lon="19.57567222377626" id="-37238">
		<tag k="name" v="Storhaugen" />
		<tag k="natural" v="hill" />
		<tag k="place" v="locality" />
		<tag k="ssr:date" v="2019-12-27" />
		<tag k="ssr:gruppe" v="høyder" />
		<tag k="ssr:hovedgruppe" v="terreng" />
		<tag k="ssr:stedsnr" v="52679" />
		<tag k="ssr:type" v="haug" />
	</node>
	<node lat="68.83298888861752" lon="19.610483326185193" id="-37239">
		<tag k="name" v="Nedre Fosstjønn" />
		<tag k="natural" v="water" />
		<tag k="ssr:date" v="2019-12-27" />
		<tag k="ssr:gruppe" v="stilleståendeVann" />
		<tag k="ssr:hovedgruppe" v="ferskvann" />
		<tag k="ssr:stedsnr" v="52684" />
		<tag k="ssr:type" v="tjern" />
	</node>
	<node lat="69.00704999798434" lon="19.467652756879396" id="-37240">
		<tag k="name" v="Kråa" />
		<tag k="natural" v="strait" />
		<tag k="ssr:date" v="2019-12-27" />
		<tag k="ssr:gruppe" v="ferskvannskontur" />
		<tag k="ssr:hovedgruppe" v="ferskvann" />
		<tag k="ssr:stedsnr" v="52813" />
		<tag k="ssr:type" v="sund" />
	</node>
	<node lat="69.01739721944521" lon="19.622213882989687" id="-37241">
		<tag k="name" v="Kvasshaugen" />
		<tag k="natural" v="hill" />
		<tag k="place" v="locality" />
		<tag k="ssr:date" v="2019-12-27" />
		<tag k="ssr:gruppe" v="høyder" />
		<tag k="ssr:hovedgruppe" v="terreng" />
		<tag k="ssr:stedsnr" v="52913" />
		<tag k="ssr:type" v="haug" />
	</node>
	<node lat="68.93811667086784" lon="19.504861097480603" id="-37242">
		<tag k="name" v="Attkjippneset" />
		<tag k="natural" v="cape" />
		<tag k="ssr:date" v="2019-12-27" />
		<tag k="ssr:gruppe" v="ferskvannskontur" />
		<tag k="ssr:hovedgruppe" v="ferskvann" />
		<tag k="ssr:stedsnr" v="52868" />
		<tag k="ssr:type" v="nes" />
	</node>
	<node lat="68.9096111143926" lon="20.19321942170299" id="-37243">
		<tag k="name" v="Moskánláhku" />
		<tag k="name:se" v="Moskánláhku" />
		<tag k="natural" v="valley" />
		<tag k="place" v="locality" />
		<tag k="ssr:date" v="2019-12-27" />
		<tag k="ssr:gruppe" v="senkninger" />
		<tag k="ssr:hovedgruppe" v="terreng" />
		<tag k="ssr:stedsnr" v="78149" />
		<tag k="ssr:type" v="senkning" />
	</node>
	<node lat="68.87837499919554" lon="20.23353331331113" id="-37244">
		<tag k="name" v="Spállogas" />
		<tag k="name:se" v="Spállogas" />
		<tag k="natural" v="hill" />
		<tag k="place" v="locality" />
		<tag k="ssr:date" v="2019-12-27" />
		<tag k="ssr:gruppe" v="høyder" />
		<tag k="ssr:hovedgruppe" v="terreng" />
		<tag k="ssr:stedsnr" v="78154" />
		<tag k="ssr:type" v="berg" />
	</node>
	<node lat="68.8678388925721" lon="20.11268610431311" id="-37245">
		<tag k="name" v="Gassavákkejohka" />
		<tag k="name:se" v="Gassavákkejohka" />
		<tag k="ssr:date" v="2019-12-27" />
		<tag k="ssr:gruppe" v="rennendeVann" />
		<tag k="ssr:hovedgruppe" v="ferskvann" />
		<tag k="ssr:stedsnr" v="78155" />
		<tag k="ssr:type" v="elv" />
		<tag k="waterway" v="river" />
	</node>
	<node lat="68.8620583303635" lon="19.55604444440494" id="-37246">
		<tag k="name" v="Østlund" />
		<tag k="place" v="farm" />
		<tag k="ssr:date" v="2019-12-27" />
		<tag k="ssr:gruppe" v="gardsbebyggelse" />
		<tag k="ssr:hovedgruppe" v="bebyggelse" />
		<tag k="ssr:stedsnr" v="78163" />
		<tag k="ssr:type" v="bruk" />
	</node>
	<node lat="68.96810277619649" lon="19.698538878763788" id="-37247">
		<tag k="name" v="Elvevoll" />
		<tag k="place" v="farm" />
		<tag k="ssr:date" v="2019-12-27" />
		<tag k="ssr:gruppe" v="gardsbebyggelse" />
		<tag k="ssr:hovedgruppe" v="bebyggelse" />
		<tag k="ssr:stedsnr" v="78254" />
		<tag k="ssr:type" v="bruk" />
	</node>
	<node lat="68.71696666209819" lon="19.422074996581085" id="-37248">
		<tag k="name" v="Geimmojohka" />
		<tag k="name:se" v="Geimmojohka" />
		<tag k="ssr:date" v="2019-12-27" />
		<tag k="ssr:gruppe" v="rennendeVann" />
		<tag k="ssr:hovedgruppe" v="ferskvann" />
		<tag k="ssr:stedsnr" v="78422" />
		<tag k="ssr:type" v="bekk" />
		<tag k="waterway" v="stream" />
	</node>
	<node lat="68.99235833202557" lon="18.761730542340832" id="-37249">
		<tag k="name" v="Vakkermoen" />
		<tag k="place" v="locality" />
		<tag k="ssr:date" v="2019-12-27" />
		<tag k="ssr:gruppe" v="flater" />
		<tag k="ssr:hovedgruppe" v="terreng" />
		<tag k="ssr:stedsnr" v="78425" />
		<tag k="ssr:type" v="mo" />
	</node>
	<node lat="68.65106389154403" lon="19.774149981199564" id="-37250">
		<tag k="name" v="Skjærbekken" />
		<tag k="ssr:date" v="2019-12-27" />
		<tag k="ssr:gruppe" v="rennendeVann" />
		<tag k="ssr:hovedgruppe" v="ferskvann" />
		<tag k="ssr:stedsnr" v="78396" />
		<tag k="ssr:type" v="bekk" />
		<tag k="waterway" v="stream" />
	</node>
	<node lat="68.9751333368759" lon="19.02005833448763" id="-37251">
		<tag k="historic" v="shieling" />
		<tag k="name" v="Alapmosetra - Állatmuvaseahtar" />
		<tag k="name:no" v="Alapmosetra" />
		<tag k="name:se" v="Állatmuvaseahtar" />
		<tag k="place" v="isolated_dwelling" />
		<tag k="ssr:date" v="2021-06-08" />
		<tag k="ssr:gruppe" v="gardsbebyggelse" />
		<tag k="ssr:hovedgruppe" v="bebyggelse" />
		<tag k="ssr:stedsnr" v="78400" />
		<tag k="ssr:type" v="seterStøl" />
	</node>
	<node lat="68.96135278280065" lon="18.592552762835382" id="-37252">
		<tag k="loc_name" v="Tindvatnet" />
		<tag k="name" v="Vesltindvatnet" />
		<tag k="natural" v="water" />
		<tag k="ssr:date" v="2020-09-07" />
		<tag k="ssr:gruppe" v="stilleståendeVann" />
		<tag k="ssr:hovedgruppe" v="ferskvann" />
		<tag k="ssr:stedsnr" v="78648" />
		<tag k="ssr:type" v="vann" />
		<tag k="water" v="lake" />
	</node>
	<node lat="68.70029166763975" lon="20.155688862437774" id="-37253">
		<tag k="fixme" v="consider natural=peak for the most distinct mountains in the district" />
		<tag k="name" v="Goahtemuorvárri" />
		<tag k="name:se" v="Goahtemuorvárri" />
		<tag k="natural" v="hill" />
		<tag k="place" v="locality" />
		<tag k="ssr:date" v="2019-12-27" />
		<tag k="ssr:gruppe" v="høyder" />
		<tag k="ssr:hovedgruppe" v="terreng" />
		<tag k="ssr:stedsnr" v="79100" />
		<tag k="ssr:type" v="ås" />
	</node>
	<node lat="68.99663610649604" lon="19.254463890497863" id="-37254">
		<tag k="name" v="Skjeggestad" />
		<tag k="place" v="farm" />
		<tag k="ssr:date" v="2019-12-27" />
		<tag k="ssr:gruppe" v="gardsbebyggelse" />
		<tag k="ssr:hovedgruppe" v="bebyggelse" />
		<tag k="ssr:stedsnr" v="79242" />
		<tag k="ssr:type" v="bruk" />
	</node>
	<node lat="68.99384722098898" lon="19.43288332622778" id="-37255">
		<tag k="name" v="Åsen" />
		<tag k="place" v="farm" />
		<tag k="ssr:date" v="2019-12-27" />
		<tag k="ssr:gruppe" v="gardsbebyggelse" />
		<tag k="ssr:hovedgruppe" v="bebyggelse" />
		<tag k="ssr:stedsnr" v="79243" />
		<tag k="ssr:type" v="bruk" />
	</node>
	<node lat="68.7982555546428" lon="19.03935276669902" id="-37256">
		<tag k="name" v="Altevasskardet - Čunovággi" />
		<tag k="name:no" v="Altevasskardet" />
		<tag k="name:se" v="Čunovággi" />
		<tag k="natural" v="valley" />
		<tag k="old_name:se" v="Čunuvaggi" />
		<tag k="place" v="locality" />
		<tag k="ssr:date" v="2019-12-27" />
		<tag k="ssr:gruppe" v="senkninger" />
		<tag k="ssr:hovedgruppe" v="terreng" />
		<tag k="ssr:stedsnr" v="79253" />
		<tag k="ssr:type" v="skar" />
	</node>
	<node lat="69.19850485349056" lon="18.71462454905949" id="-37257">
		<tag k="alt_name" v="Skarddalen" />
		<tag k="name" v="Skardalen" />
		<tag k="natural" v="valley" />
		<tag k="place" v="locality" />
		<tag k="ssr:date" v="2020-06-23" />
		<tag k="ssr:gruppe" v="senkninger" />
		<tag k="ssr:hovedgruppe" v="terreng" />
		<tag k="ssr:stedsnr" v="79102" />
		<tag k="ssr:type" v="dal" />
	</node>
	<node lat="69.0189750022969" lon="19.081122207468376" id="-37258">
		<tag k="fixme" v="consider natural=peak for the most distinct mountains in the district" />
		<tag k="name" v="Brennhumpan" />
		<tag k="natural" v="hill" />
		<tag k="place" v="locality" />
		<tag k="ssr:date" v="2019-12-27" />
		<tag k="ssr:gruppe" v="høyder" />
		<tag k="ssr:hovedgruppe" v="terreng" />
		<tag k="ssr:stedsnr" v="79196" />
		<tag k="ssr:type" v="ås" />
	</node>
	<node lat="69.01171666983741" lon="18.974991649371965" id="-37259">
		<tag k="name" v="Moholt" />
		<tag k="place" v="farm" />
		<tag k="ssr:date" v="2019-12-27" />
		<tag k="ssr:gruppe" v="gardsbebyggelse" />
		<tag k="ssr:hovedgruppe" v="bebyggelse" />
		<tag k="ssr:stedsnr" v="79199" />
		<tag k="ssr:type" v="bruk" />
	</node>
	<node lat="69.01242778219286" lon="18.76409443089809" id="-37260">
		<tag k="alt_name" v="Åsmoen" />
		<tag k="name" v="Åsmo" />
		<tag k="place" v="farm" />
		<tag k="ssr:date" v="2019-12-27" />
		<tag k="ssr:gruppe" v="gardsbebyggelse" />
		<tag k="ssr:hovedgruppe" v="bebyggelse" />
		<tag k="ssr:stedsnr" v="79201" />
		<tag k="ssr:type" v="bruk" />
	</node>
	<node lat="68.87229444477701" lon="18.815544425727282" id="-37261">
		<tag k="name" v="Frøkentindelva" />
		<tag k="ssr:date" v="2019-12-27" />
		<tag k="ssr:gruppe" v="rennendeVann" />
		<tag k="ssr:hovedgruppe" v="ferskvann" />
		<tag k="ssr:stedsnr" v="79305" />
		<tag k="ssr:type" v="elv" />
		<tag k="waterway" v="river" />
	</node>
	<node lat="68.86939999854549" lon="19.071958330764595" id="-37262">
		<tag k="name" v="Åsbakk" />
		<tag k="place" v="farm" />
		<tag k="ssr:date" v="2019-12-27" />
		<tag k="ssr:gruppe" v="gardsbebyggelse" />
		<tag k="ssr:hovedgruppe" v="bebyggelse" />
		<tag k="ssr:stedsnr" v="79293" />
		<tag k="ssr:type" v="bruk" />
	</node>
	<node lat="68.86986944027781" lon="19.078655557977996" id="-37263">
		<tag k="alt_name" v="Tuvmoen" />
		<tag k="name" v="Tuvmo" />
		<tag k="place" v="farm" />
		<tag k="ssr:date" v="2019-12-27" />
		<tag k="ssr:gruppe" v="gardsbebyggelse" />
		<tag k="ssr:hovedgruppe" v="bebyggelse" />
		<tag k="ssr:stedsnr" v="79297" />
		<tag k="ssr:type" v="bruk" />
	</node>
	<node lat="69.0284416646724" lon="19.328447219869382" id="-37264">
		<tag k="alt_name" v="Branntjørnan" />
		<tag k="name" v="Brannmotjønnan" />
		<tag k="natural" v="water" />
		<tag k="ssr:date" v="2019-12-27" />
		<tag k="ssr:gruppe" v="stilleståendeVann" />
		<tag k="ssr:hovedgruppe" v="ferskvann" />
		<tag k="ssr:stedsnr" v="79406" />
		<tag k="ssr:type" v="gruppeAvTjern" />
		<tag k="water" v="lake" />
	</node>
	<node lat="69.1792749999136" lon="18.59609443677731" id="-37265">
		<tag k="name" v="Fossbakken" />
		<tag k="place" v="farm" />
		<tag k="ssr:date" v="2019-12-27" />
		<tag k="ssr:gruppe" v="gardsbebyggelse" />
		<tag k="ssr:hovedgruppe" v="bebyggelse" />
		<tag k="ssr:stedsnr" v="79498" />
		<tag k="ssr:type" v="bruk" />
	</node>
	<node lat="69.15638889141543" lon="18.545722210478722" id="-37266">
		<tag k="alt_name" v="Forahaugen" />
		<tag k="name" v="Forrahaugen" />
		<tag k="natural" v="hill" />
		<tag k="place" v="locality" />
		<tag k="ssr:date" v="2019-12-27" />
		<tag k="ssr:gruppe" v="høyder" />
		<tag k="ssr:hovedgruppe" v="terreng" />
		<tag k="ssr:stedsnr" v="79500" />
		<tag k="ssr:type" v="haug" />
	</node>
	<node lat="69.02580000502789" lon="19.554683317716847" id="-37267">
		<tag k="name" v="Skoglund" />
		<tag k="place" v="farm" />
		<tag k="ssr:date" v="2019-12-27" />
		<tag k="ssr:gruppe" v="gardsbebyggelse" />
		<tag k="ssr:hovedgruppe" v="bebyggelse" />
		<tag k="ssr:stedsnr" v="79393" />
		<tag k="ssr:type" v="bruk" />
	</node>
	<node lat="69.16060555631665" lon="18.721797205540554" id="-37268">
		<tag k="name" v="Rundhaugen" />
		<tag k="natural" v="hill" />
		<tag k="place" v="locality" />
		<tag k="ssr:date" v="2019-12-27" />
		<tag k="ssr:gruppe" v="høyder" />
		<tag k="ssr:hovedgruppe" v="terreng" />
		<tag k="ssr:stedsnr" v="79739" />
		<tag k="ssr:type" v="haug" />
	</node>
	<node lat="69.2993250051062" lon="18.54320276344553" id="-37269">
		<tag k="name" v="Nordstrand" />
		<tag k="place" v="farm" />
		<tag k="ssr:date" v="2019-12-27" />
		<tag k="ssr:gruppe" v="gardsbebyggelse" />
		<tag k="ssr:hovedgruppe" v="bebyggelse" />
		<tag k="ssr:stedsnr" v="79806" />
		<tag k="ssr:type" v="bruk" />
	</node>
	<node lat="69.07740711556261" lon="18.666959717400026" id="-37270">
		<tag k="alt_name" v="Rognmoen, nordre" />
		<tag k="fixme" v="consider place=hamlet" />
		<tag k="name" v="Nordre Rognmoen" />
		<tag k="place" v="farm" />
		<tag k="ssr:date" v="2020-06-23" />
		<tag k="ssr:gruppe" v="gardsbebyggelse" />
		<tag k="ssr:hovedgruppe" v="bebyggelse" />
		<tag k="ssr:stedsnr" v="79839" />
		<tag k="ssr:type" v="gard" />
	</node>
	<node lat="68.59528888854472" lon="19.59237498464423" id="-37271">
		<tag k="fixme" v="consider natural=peak for the most distinct mountains in the district" />
		<tag k="name" v="Kistefjell - Buoccagas" />
		<tag k="name:no" v="Kistefjell" />
		<tag k="name:se" v="Buoccagas" />
		<tag k="natural" v="hill" />
		<tag k="place" v="locality" />
		<tag k="ssr:date" v="2019-12-27" />
		<tag k="ssr:gruppe" v="høyder" />
		<tag k="ssr:hovedgruppe" v="terreng" />
		<tag k="ssr:stedsnr" v="85087" />
		<tag k="ssr:type" v="fjell" />
	</node>
	<node lat="69.10168889025645" lon="18.43381109843457" id="-37272">
		<tag k="name" v="Odden" />
		<tag k="natural" v="cape" />
		<tag k="ssr:date" v="2019-12-27" />
		<tag k="ssr:gruppe" v="ferskvannskontur" />
		<tag k="ssr:hovedgruppe" v="ferskvann" />
		<tag k="ssr:stedsnr" v="97610" />
		<tag k="ssr:type" v="nes" />
	</node>
	<node lat="69.08816110662319" lon="18.48518889170503" id="-37273">
		<tag k="name" v="Stilla" />
		<tag k="natural" v="water" />
		<tag k="ssr:date" v="2019-12-27" />
		<tag k="ssr:gruppe" v="rennendeVann" />
		<tag k="ssr:hovedgruppe" v="ferskvann" />
		<tag k="ssr:stedsnr" v="97613" />
		<tag k="ssr:type" v="lon" />
		<tag k="water" v="lake" />
	</node>
	<node lat="69.09062777487753" lon="18.47912777407585" id="-37274">
		<tag k="name" v="Stillfossen" />
		<tag k="natural" v="waterfall" />
		<tag k="ssr:date" v="2019-12-27" />
		<tag k="ssr:gruppe" v="rennendeVann" />
		<tag k="ssr:hovedgruppe" v="ferskvann" />
		<tag k="ssr:stedsnr" v="97614" />
		<tag k="ssr:type" v="foss" />
	</node>
	<node lat="69.00607499628691" lon="18.780730546245692" id="-37275">
		<tag k="name" v="Hellfossen" />
		<tag k="natural" v="waterfall" />
		<tag k="ssr:date" v="2019-12-27" />
		<tag k="ssr:gruppe" v="rennendeVann" />
		<tag k="ssr:hovedgruppe" v="ferskvann" />
		<tag k="ssr:stedsnr" v="111102" />
		<tag k="ssr:type" v="foss" />
	</node>
	<node lat="69.11640833092632" lon="18.759224982419088" id="-37276">
		<tag k="name" v="Brynnelkjosen" />
		<tag k="natural" v="bay" />
		<tag k="ssr:date" v="2019-12-27" />
		<tag k="ssr:gruppe" v="rennendeVann" />
		<tag k="ssr:hovedgruppe" v="ferskvann" />
		<tag k="ssr:stedsnr" v="111205" />
		<tag k="ssr:type" v="os" />
	</node>
	<node lat="69.14425833437616" lon="18.693030555503515" id="-37277">
		<tag k="name" v="Brattlia" />
		<tag k="natural" v="slope" />
		<tag k="place" v="locality" />
		<tag k="ssr:date" v="2019-12-27" />
		<tag k="ssr:gruppe" v="skråninger" />
		<tag k="ssr:hovedgruppe" v="terreng" />
		<tag k="ssr:stedsnr" v="111178" />
		<tag k="ssr:type" v="li" />
	</node>
	<node lat="68.9753694464692" lon="19.400602775753192" id="-37278">
		<tag k="name" v="Skavhaugen" />
		<tag k="natural" v="hill" />
		<tag k="place" v="locality" />
		<tag k="ssr:date" v="2019-12-27" />
		<tag k="ssr:gruppe" v="høyder" />
		<tag k="ssr:hovedgruppe" v="terreng" />
		<tag k="ssr:stedsnr" v="111369" />
		<tag k="ssr:type" v="haug" />
	</node>
	<node lat="69.15852500434546" lon="18.632149990392737" id="-37279">
		<tag k="name" v="Arnlia" />
		<tag k="natural" v="slope" />
		<tag k="place" v="locality" />
		<tag k="ssr:date" v="2019-12-27" />
		<tag k="ssr:gruppe" v="skråninger" />
		<tag k="ssr:hovedgruppe" v="terreng" />
		<tag k="ssr:stedsnr" v="111380" />
		<tag k="ssr:type" v="li" />
	</node>
	<node lat="68.99823333782554" lon="19.11750276135429" id="-37280">
		<tag k="name" v="Øya" />
		<tag k="place" v="farm" />
		<tag k="ssr:date" v="2019-12-27" />
		<tag k="ssr:gruppe" v="gardsbebyggelse" />
		<tag k="ssr:hovedgruppe" v="bebyggelse" />
		<tag k="ssr:stedsnr" v="111483" />
		<tag k="ssr:type" v="bruk" />
	</node>
	<node lat="69.17469999839022" lon="18.446077766884287" id="-37281">
		<tag k="name" v="Skavhaugen" />
		<tag k="natural" v="hill" />
		<tag k="place" v="locality" />
		<tag k="ssr:date" v="2019-12-27" />
		<tag k="ssr:gruppe" v="høyder" />
		<tag k="ssr:hovedgruppe" v="terreng" />
		<tag k="ssr:stedsnr" v="111708" />
		<tag k="ssr:type" v="haug" />
	</node>
	<node lat="69.01265832900903" lon="18.927774995931514" id="-37282">
		<tag k="name" v="Øvre Gjeddtjønn" />
		<tag k="natural" v="water" />
		<tag k="ssr:date" v="2019-12-27" />
		<tag k="ssr:gruppe" v="stilleståendeVann" />
		<tag k="ssr:hovedgruppe" v="ferskvann" />
		<tag k="ssr:stedsnr" v="111775" />
		<tag k="ssr:type" v="tjern" />
	</node>
	<node lat="69.00777222121637" lon="19.144661093494594" id="-37283">
		<tag k="name" v="Tverrelvskaret" />
		<tag k="natural" v="valley" />
		<tag k="place" v="locality" />
		<tag k="ssr:date" v="2019-12-27" />
		<tag k="ssr:gruppe" v="senkninger" />
		<tag k="ssr:hovedgruppe" v="terreng" />
		<tag k="ssr:stedsnr" v="111623" />
		<tag k="ssr:type" v="skar" />
	</node>
	<node lat="69.1790722194888" lon="18.395813874855936" id="-37284">
		<tag k="name" v="Lammholene" />
		<tag k="natural" v="valley" />
		<tag k="place" v="locality" />
		<tag k="ssr:date" v="2019-12-27" />
		<tag k="ssr:gruppe" v="senkninger" />
		<tag k="ssr:hovedgruppe" v="terreng" />
		<tag k="ssr:stedsnr" v="111672" />
		<tag k="ssr:type" v="søkk" />
	</node>
	<node lat="69.13120278095536" lon="18.9796527765291" id="-37285">
		<tag k="name" v="Lomtjønna" />
		<tag k="natural" v="water" />
		<tag k="ssr:date" v="2019-12-27" />
		<tag k="ssr:gruppe" v="stilleståendeVann" />
		<tag k="ssr:hovedgruppe" v="ferskvann" />
		<tag k="ssr:stedsnr" v="111678" />
		<tag k="ssr:type" v="tjern" />
	</node>
	<node lat="68.97858333733666" lon="19.187852768921875" id="-37286">
		<tag k="name" v="Falkhaugmyra" />
		<tag k="natural" v="wetland" />
		<tag k="ssr:date" v="2019-12-27" />
		<tag k="ssr:gruppe" v="våtmark" />
		<tag k="ssr:hovedgruppe" v="markslag" />
		<tag k="ssr:stedsnr" v="111806" />
		<tag k="ssr:type" v="myr" />
	</node>
	<node lat="69.22627221900144" lon="18.407783339401448" id="-37287">
		<tag k="landuse" v="meadow" />
		<tag k="name" v="Gammelenget" />
		<tag k="ssr:date" v="2019-12-27" />
		<tag k="ssr:gruppe" v="dyrkamark" />
		<tag k="ssr:hovedgruppe" v="markslag" />
		<tag k="ssr:stedsnr" v="111814" />
		<tag k="ssr:type" v="eng" />
	</node>
	<node lat="69.20689166398613" lon="18.364294450329602" id="-37288">
		<tag k="name" v="Varddalen" />
		<tag k="natural" v="valley" />
		<tag k="place" v="locality" />
		<tag k="ssr:date" v="2019-12-27" />
		<tag k="ssr:gruppe" v="senkninger" />
		<tag k="ssr:hovedgruppe" v="terreng" />
		<tag k="ssr:stedsnr" v="111924" />
		<tag k="ssr:type" v="dal" />
	</node>
	<node lat="69.00966388909926" lon="18.75926944801198" id="-37289">
		<tag k="name" v="Svellbekken" />
		<tag k="ssr:date" v="2019-12-27" />
		<tag k="ssr:gruppe" v="rennendeVann" />
		<tag k="ssr:hovedgruppe" v="ferskvann" />
		<tag k="ssr:stedsnr" v="112108" />
		<tag k="ssr:type" v="bekk" />
		<tag k="waterway" v="stream" />
	</node>
	<node lat="69.23790277765545" lon="18.386916668464178" id="-37290">
		<tag k="name" v="Fiskbekken" />
		<tag k="ssr:date" v="2019-12-27" />
		<tag k="ssr:gruppe" v="rennendeVann" />
		<tag k="ssr:hovedgruppe" v="ferskvann" />
		<tag k="ssr:stedsnr" v="112073" />
		<tag k="ssr:type" v="bekk" />
		<tag k="waterway" v="stream" />
	</node>
	<node lat="69.24171666313646" lon="18.399944435974266" id="-37291">
		<tag k="name" v="Kjærdalsmyra" />
		<tag k="natural" v="wetland" />
		<tag k="ssr:date" v="2019-12-27" />
		<tag k="ssr:gruppe" v="våtmark" />
		<tag k="ssr:hovedgruppe" v="markslag" />
		<tag k="ssr:stedsnr" v="112077" />
		<tag k="ssr:type" v="myr" />
	</node>
	<node lat="69.2374166643718" lon="18.342049986315114" id="-37292">
		<tag k="name" v="Rundmyra" />
		<tag k="natural" v="wetland" />
		<tag k="ssr:date" v="2019-12-27" />
		<tag k="ssr:gruppe" v="våtmark" />
		<tag k="ssr:hovedgruppe" v="markslag" />
		<tag k="ssr:stedsnr" v="112084" />
		<tag k="ssr:type" v="myr" />
	</node>
	<node lat="69.24276666877371" lon="18.553397228517643" id="-37293">
		<tag k="name" v="Steinbekkdalen" />
		<tag k="natural" v="valley" />
		<tag k="place" v="locality" />
		<tag k="ssr:date" v="2019-12-27" />
		<tag k="ssr:gruppe" v="senkninger" />
		<tag k="ssr:hovedgruppe" v="terreng" />
		<tag k="ssr:stedsnr" v="112229" />
		<tag k="ssr:type" v="dal" />
	</node>
	<node lat="69.16943888508727" lon="18.26537778426416" id="-37294">
		<tag k="name" v="Trollsteinan" />
		<tag k="natural" v="stone" />
		<tag k="ssr:date" v="2019-12-27" />
		<tag k="ssr:gruppe" v="løsmasseavsetninger" />
		<tag k="ssr:hovedgruppe" v="markslag" />
		<tag k="ssr:stedsnr" v="112328" />
		<tag k="ssr:type" v="stein" />
	</node>
	<node lat="69.19515555203454" lon="18.66116111099568" id="-37295">
		<tag k="name" v="Svingmyrene" />
		<tag k="natural" v="wetland" />
		<tag k="ssr:date" v="2019-12-27" />
		<tag k="ssr:gruppe" v="våtmark" />
		<tag k="ssr:hovedgruppe" v="markslag" />
		<tag k="ssr:stedsnr" v="112334" />
		<tag k="ssr:type" v="myr" />
	</node>
	<node lat="68.8680611082266" lon="18.873144446142657" id="-37296">
		<tag k="name" v="Håkåfjellia" />
		<tag k="natural" v="slope" />
		<tag k="place" v="locality" />
		<tag k="ssr:date" v="2019-12-27" />
		<tag k="ssr:gruppe" v="skråninger" />
		<tag k="ssr:hovedgruppe" v="terreng" />
		<tag k="ssr:stedsnr" v="112339" />
		<tag k="ssr:type" v="li" />
	</node>
	<node lat="69.1832555579785" lon="18.612658338603005" id="-37297">
		<tag k="name" v="Kirkemyra" />
		<tag k="natural" v="wetland" />
		<tag k="ssr:date" v="2019-12-27" />
		<tag k="ssr:gruppe" v="våtmark" />
		<tag k="ssr:hovedgruppe" v="markslag" />
		<tag k="ssr:stedsnr" v="112502" />
		<tag k="ssr:type" v="myr" />
	</node>
	<node lat="68.88095000276229" lon="19.551852775220286" id="-37298">
		<tag k="name" v="Øvre Lombol" />
		<tag k="natural" v="water" />
		<tag k="ssr:date" v="2019-12-27" />
		<tag k="ssr:gruppe" v="rennendeVann" />
		<tag k="ssr:hovedgruppe" v="ferskvann" />
		<tag k="ssr:stedsnr" v="112523" />
		<tag k="ssr:type" v="lon" />
		<tag k="water" v="lake" />
	</node>
	<node lat="68.97238888893493" lon="19.008511103131163" id="-37299">
		<tag k="name" v="Fjellbekken" />
		<tag k="ssr:date" v="2019-12-27" />
		<tag k="ssr:gruppe" v="rennendeVann" />
		<tag k="ssr:hovedgruppe" v="ferskvann" />
		<tag k="ssr:stedsnr" v="112530" />
		<tag k="ssr:type" v="bekk" />
		<tag k="waterway" v="stream" />
	</node>
	<node lat="69.20542222370366" lon="18.419108336398704" id="-37300">
		<tag k="name" v="Rundhaugsletta" />
		<tag k="place" v="locality" />
		<tag k="ssr:date" v="2019-12-27" />
		<tag k="ssr:gruppe" v="flater" />
		<tag k="ssr:hovedgruppe" v="terreng" />
		<tag k="ssr:stedsnr" v="112535" />
		<tag k="ssr:type" v="slette" />
	</node>
	<node lat="69.20831389278689" lon="18.441424989704974" id="-37301">
		<tag k="name" v="Thomasbakkan" />
		<tag k="natural" v="slope" />
		<tag k="place" v="locality" />
		<tag k="ssr:date" v="2019-12-27" />
		<tag k="ssr:gruppe" v="skråninger" />
		<tag k="ssr:hovedgruppe" v="terreng" />
		<tag k="ssr:stedsnr" v="112539" />
		<tag k="ssr:type" v="bakke" />
	</node>
	<node lat="69.20875833402103" lon="18.445338878633724" id="-37302">
		<tag k="name" v="Labakken" />
		<tag k="natural" v="slope" />
		<tag k="place" v="locality" />
		<tag k="ssr:date" v="2019-12-27" />
		<tag k="ssr:gruppe" v="skråninger" />
		<tag k="ssr:hovedgruppe" v="terreng" />
		<tag k="ssr:stedsnr" v="112540" />
		<tag k="ssr:type" v="bakke" />
	</node>
	<node lat="69.10927777858058" lon="18.902233329951333" id="-37303">
		<tag k="name" v="Djupholet" />
		<tag k="natural" v="water" />
		<tag k="ssr:date" v="2019-12-27" />
		<tag k="ssr:gruppe" v="rennendeVann" />
		<tag k="ssr:hovedgruppe" v="ferskvann" />
		<tag k="ssr:stedsnr" v="112409" />
		<tag k="ssr:type" v="lon" />
		<tag k="water" v="lake" />
	</node>
	<node lat="69.11619166464767" lon="18.92855554807517" id="-37304">
		<tag k="name" v="Finnbrufossen" />
		<tag k="natural" v="waterfall" />
		<tag k="ssr:date" v="2019-12-27" />
		<tag k="ssr:gruppe" v="rennendeVann" />
		<tag k="ssr:hovedgruppe" v="ferskvann" />
		<tag k="ssr:stedsnr" v="112413" />
		<tag k="ssr:type" v="foss" />
	</node>
	<node lat="69.11588889344034" lon="18.886033325740307" id="-37305">
		<tag k="name" v="Grindgången" />
		<tag k="natural" v="slope" />
		<tag k="place" v="locality" />
		<tag k="ssr:date" v="2019-12-27" />
		<tag k="ssr:gruppe" v="skråninger" />
		<tag k="ssr:hovedgruppe" v="terreng" />
		<tag k="ssr:stedsnr" v="112418" />
		<tag k="ssr:type" v="bakke" />
	</node>
	<node lat="69.03135833063764" lon="18.918969433513542" id="-37306">
		<tag k="name" v="Bjønnkletten" />
		<tag k="natural" v="hill" />
		<tag k="place" v="locality" />
		<tag k="ssr:date" v="2019-12-27" />
		<tag k="ssr:gruppe" v="høyder" />
		<tag k="ssr:hovedgruppe" v="terreng" />
		<tag k="ssr:stedsnr" v="112472" />
		<tag k="ssr:type" v="haug" />
	</node>
	<node lat="68.86798611476263" lon="19.05576944567194" id="-37307">
		<tag k="alt_name" v="Storhompen" />
		<tag k="name" v="Storhumpen" />
		<tag k="natural" v="hill" />
		<tag k="place" v="locality" />
		<tag k="ssr:date" v="2019-12-27" />
		<tag k="ssr:gruppe" v="høyder" />
		<tag k="ssr:hovedgruppe" v="terreng" />
		<tag k="ssr:stedsnr" v="112618" />
		<tag k="ssr:type" v="haug" />
	</node>
	<node lat="69.13392499914896" lon="18.979349985613545" id="-37308">
		<tag k="name" v="Blautmyra" />
		<tag k="natural" v="wetland" />
		<tag k="ssr:date" v="2019-12-27" />
		<tag k="ssr:gruppe" v="våtmark" />
		<tag k="ssr:hovedgruppe" v="markslag" />
		<tag k="ssr:stedsnr" v="112707" />
		<tag k="ssr:type" v="myr" />
	</node>
	<node lat="69.13703611256669" lon="18.977652784156152" id="-37309">
		<tag k="name" v="Skjellsteinen" />
		<tag k="natural" v="stone" />
		<tag k="ssr:date" v="2019-12-27" />
		<tag k="ssr:gruppe" v="løsmasseavsetninger" />
		<tag k="ssr:hovedgruppe" v="markslag" />
		<tag k="ssr:stedsnr" v="112710" />
		<tag k="ssr:type" v="stein" />
	</node>
	<node lat="68.86582222401137" lon="19.55589998052574" id="-37310">
		<tag k="name" v="Brennskogneset" />
		<tag k="natural" v="cape" />
		<tag k="ssr:date" v="2019-12-27" />
		<tag k="ssr:gruppe" v="ferskvannskontur" />
		<tag k="ssr:hovedgruppe" v="ferskvann" />
		<tag k="ssr:stedsnr" v="112712" />
		<tag k="ssr:type" v="nes" />
	</node>
	<node lat="68.83043055585158" lon="19.594883323535033" id="-37311">
		<tag k="name" v="Fossbekkan" />
		<tag k="ssr:date" v="2019-12-27" />
		<tag k="ssr:gruppe" v="rennendeVann" />
		<tag k="ssr:hovedgruppe" v="ferskvann" />
		<tag k="ssr:stedsnr" v="112724" />
		<tag k="ssr:type" v="bekk" />
		<tag k="waterway" v="stream" />
	</node>
	<node lat="68.79522777729053" lon="19.665669429663645" id="-37312">
		<tag k="name" v="Klevbergan" />
		<tag k="natural" v="hill" />
		<tag k="place" v="locality" />
		<tag k="ssr:date" v="2019-12-27" />
		<tag k="ssr:gruppe" v="høyder" />
		<tag k="ssr:hovedgruppe" v="terreng" />
		<tag k="ssr:stedsnr" v="112772" />
		<tag k="ssr:type" v="berg" />
	</node>
	<node lat="68.77476944236062" lon="19.70192498660634" id="-37313">
		<tag k="name" v="Småholman" />
		<tag k="place" v="islet" />
		<tag k="ssr:date" v="2019-12-27" />
		<tag k="ssr:gruppe" v="ferskvannskontur" />
		<tag k="ssr:hovedgruppe" v="ferskvann" />
		<tag k="ssr:stedsnr" v="112787" />
		<tag k="ssr:type" v="holme" />
	</node>
	<node lat="69.07139444784893" lon="18.6937750048497" id="-37314">
		<tag k="name" v="Stordjupdalen" />
		<tag k="natural" v="valley" />
		<tag k="place" v="locality" />
		<tag k="ssr:date" v="2019-12-27" />
		<tag k="ssr:gruppe" v="senkninger" />
		<tag k="ssr:hovedgruppe" v="terreng" />
		<tag k="ssr:stedsnr" v="112675" />
		<tag k="ssr:type" v="dal" />
	</node>
	<node lat="69.06608610993118" lon="18.66630278365214" id="-37315">
		<tag k="name" v="Mellamomyra" />
		<tag k="natural" v="wetland" />
		<tag k="ssr:date" v="2019-12-27" />
		<tag k="ssr:gruppe" v="våtmark" />
		<tag k="ssr:hovedgruppe" v="markslag" />
		<tag k="ssr:stedsnr" v="112677" />
		<tag k="ssr:type" v="myr" />
	</node>
	<node lat="68.73112777594638" lon="19.73845831920535" id="-37316">
		<tag k="highway" v="path" />
		<tag k="name" v="Finnbruene" />
		<tag k="ssr:date" v="2019-12-27" />
		<tag k="ssr:gruppe" v="veg" />
		<tag k="ssr:hovedgruppe" v="infrastruktur" />
		<tag k="ssr:stedsnr" v="112802" />
		<tag k="ssr:type" v="sti" />
	</node>
	<node lat="68.74948055536028" lon="19.72290554291702" id="-37317">
		<tag k="name" v="Henneset" />
		<tag k="natural" v="cape" />
		<tag k="ssr:date" v="2019-12-27" />
		<tag k="ssr:gruppe" v="ferskvannskontur" />
		<tag k="ssr:hovedgruppe" v="ferskvann" />
		<tag k="ssr:stedsnr" v="112818" />
		<tag k="ssr:type" v="nes" />
	</node>
	<node lat="68.98660833624278" lon="19.458177777799143" id="-37318">
		<tag k="highway" v="path" />
		<tag k="name" v="Gammelveien" />
		<tag k="ssr:date" v="2019-12-27" />
		<tag k="ssr:gruppe" v="veg" />
		<tag k="ssr:hovedgruppe" v="infrastruktur" />
		<tag k="ssr:stedsnr" v="112823" />
		<tag k="ssr:type" v="sti" />
	</node>
	<node lat="69.08669721929618" lon="18.590158336452326" id="-37319">
		<tag k="name" v="Skjellforegga" />
		<tag k="natural" v="slope" />
		<tag k="place" v="locality" />
		<tag k="ssr:date" v="2019-12-27" />
		<tag k="ssr:gruppe" v="skråninger" />
		<tag k="ssr:hovedgruppe" v="terreng" />
		<tag k="ssr:stedsnr" v="112884" />
		<tag k="ssr:type" v="bakke" />
	</node>
	<node lat="68.93968333478689" lon="19.49131110700014" id="-37320">
		<tag k="alt_name" v="Tomasbekken" />
		<tag k="name" v="Thomasbekken" />
		<tag k="ssr:date" v="2019-12-27" />
		<tag k="ssr:gruppe" v="rennendeVann" />
		<tag k="ssr:hovedgruppe" v="ferskvann" />
		<tag k="ssr:stedsnr" v="138205" />
		<tag k="ssr:type" v="bekk" />
		<tag k="waterway" v="stream" />
	</node>
	<node lat="68.79442222544387" lon="19.851319431906628" id="-37321">
		<tag k="fixme" v="consider natural=peak for the most distinct mountains in the district" />
		<tag k="name" v="Nohlli" />
		<tag k="name:se" v="Nohlli" />
		<tag k="natural" v="hill" />
		<tag k="place" v="locality" />
		<tag k="ssr:date" v="2019-12-27" />
		<tag k="ssr:gruppe" v="høyder" />
		<tag k="ssr:hovedgruppe" v="terreng" />
		<tag k="ssr:stedsnr" v="138107" />
		<tag k="ssr:type" v="fjell" />
	</node>
	<node lat="68.81657222081449" lon="19.851911096384782" id="-37322">
		<tag k="fixme" v="consider natural=peak for the most distinct mountains in the district" />
		<tag k="name" v="Návdegielas" />
		<tag k="name:se" v="Návdegielas" />
		<tag k="natural" v="hill" />
		<tag k="place" v="locality" />
		<tag k="ssr:date" v="2019-12-27" />
		<tag k="ssr:gruppe" v="høyder" />
		<tag k="ssr:hovedgruppe" v="terreng" />
		<tag k="ssr:stedsnr" v="138116" />
		<tag k="ssr:type" v="fjell" />
	</node>
	<node lat="68.76903333436807" lon="19.81484442757062" id="-37323">
		<tag k="name" v="Skáktárnjunni" />
		<tag k="name:se" v="Skáktárnjunni" />
		<tag k="natural" v="hill" />
		<tag k="place" v="locality" />
		<tag k="ssr:date" v="2019-12-27" />
		<tag k="ssr:gruppe" v="høyder" />
		<tag k="ssr:hovedgruppe" v="terreng" />
		<tag k="ssr:stedsnr" v="138142" />
		<tag k="ssr:type" v="berg" />
	</node>
	<node lat="68.99544444546048" lon="19.97466387186512" id="-37324">
		<tag k="name" v="Fjellfrøsskardet" />
		<tag k="natural" v="valley" />
		<tag k="place" v="locality" />
		<tag k="ssr:date" v="2019-12-27" />
		<tag k="ssr:gruppe" v="senkninger" />
		<tag k="ssr:hovedgruppe" v="terreng" />
		<tag k="ssr:stedsnr" v="138144" />
		<tag k="ssr:type" v="skar" />
	</node>
	<node lat="68.70502499823522" lon="19.397858325129544" id="-37325">
		<tag k="name" v="Gáicanjira" />
		<tag k="name:se" v="Gáicanjira" />
		<tag k="ssr:date" v="2019-12-27" />
		<tag k="ssr:gruppe" v="rennendeVann" />
		<tag k="ssr:hovedgruppe" v="ferskvann" />
		<tag k="ssr:stedsnr" v="138400" />
		<tag k="ssr:type" v="bekk" />
		<tag k="waterway" v="stream" />
	</node>
	<node lat="69.24275555734194" lon="18.524900005012057" id="-37326">
		<tag k="name" v="Bjørkeli" />
		<tag k="place" v="farm" />
		<tag k="ssr:date" v="2019-12-27" />
		<tag k="ssr:gruppe" v="gardsbebyggelse" />
		<tag k="ssr:hovedgruppe" v="bebyggelse" />
		<tag k="ssr:stedsnr" v="138693" />
		<tag k="ssr:type" v="bruk" />
	</node>
	<node lat="69.08279722706162" lon="19.10971109364443" id="-37327">
		<tag k="name" v="Sæterelva" />
		<tag k="ssr:date" v="2019-12-27" />
		<tag k="ssr:gruppe" v="rennendeVann" />
		<tag k="ssr:hovedgruppe" v="ferskvann" />
		<tag k="ssr:stedsnr" v="139102" />
		<tag k="ssr:type" v="elv" />
		<tag k="waterway" v="river" />
	</node>
	<node lat="69.0235555542508" lon="18.809944428151102" id="-37328">
		<tag k="alt_name" v="Grimsbu" />
		<tag k="name" v="Grimsbo" />
		<tag k="place" v="farm" />
		<tag k="ssr:date" v="2019-12-27" />
		<tag k="ssr:gruppe" v="gardsbebyggelse" />
		<tag k="ssr:hovedgruppe" v="bebyggelse" />
		<tag k="ssr:stedsnr" v="139192" />
		<tag k="ssr:type" v="bruk" />
	</node>
	<node lat="69.01864444294709" lon="18.81681944069847" id="-37329">
		<tag k="name" v="Birkeland" />
		<tag k="place" v="farm" />
		<tag k="ssr:date" v="2019-12-27" />
		<tag k="ssr:gruppe" v="gardsbebyggelse" />
		<tag k="ssr:hovedgruppe" v="bebyggelse" />
		<tag k="ssr:stedsnr" v="139193" />
		<tag k="ssr:type" v="bruk" />
	</node>
	<node lat="69.0246361069863" lon="18.772669443347453" id="-37330">
		<tag k="name" v="Pannesmoen" />
		<tag k="old_name" v="Rannesmoen" />
		<tag k="place" v="locality" />
		<tag k="ssr:date" v="2019-12-27" />
		<tag k="ssr:gruppe" v="flater" />
		<tag k="ssr:hovedgruppe" v="terreng" />
		<tag k="ssr:stedsnr" v="139198" />
		<tag k="ssr:type" v="mo" />
	</node>
	<node lat="68.70642499794026" lon="20.13904164401728" id="-37331">
		<tag k="name" v="Goahtemuorjohka" />
		<tag k="name:se" v="Goahtemuorjohka" />
		<tag k="ssr:date" v="2019-12-27" />
		<tag k="ssr:gruppe" v="rennendeVann" />
		<tag k="ssr:hovedgruppe" v="ferskvann" />
		<tag k="ssr:stedsnr" v="139096" />
		<tag k="ssr:type" v="bekk" />
		<tag k="waterway" v="stream" />
	</node>
	<node lat="69.00064444787715" lon="18.698722226478182" id="-37332">
		<tag k="name" v="Skjelvatnet" />
		<tag k="natural" v="water" />
		<tag k="ssr:date" v="2019-12-27" />
		<tag k="ssr:gruppe" v="stilleståendeVann" />
		<tag k="ssr:hovedgruppe" v="ferskvann" />
		<tag k="ssr:stedsnr" v="139206" />
		<tag k="ssr:type" v="tjern" />
	</node>
	<node lat="69.03245555393227" lon="18.81159444587916" id="-37333">
		<tag k="name" v="Kvammen" />
		<tag k="place" v="farm" />
		<tag k="ssr:date" v="2019-12-27" />
		<tag k="ssr:gruppe" v="gardsbebyggelse" />
		<tag k="ssr:hovedgruppe" v="bebyggelse" />
		<tag k="ssr:stedsnr" v="139237" />
		<tag k="ssr:type" v="bruk" />
	</node>
	<node lat="69.04042782751903" lon="18.636306856102998" id="-37334">
		<tag k="fixme" v="consider place=hamlet" />
		<tag k="name" v="Elvskiftnes" />
		<tag k="place" v="farm" />
		<tag k="ssr:date" v="2020-07-06" />
		<tag k="ssr:gruppe" v="gardsbebyggelse" />
		<tag k="ssr:hovedgruppe" v="bebyggelse" />
		<tag k="ssr:stedsnr" v="139247" />
		<tag k="ssr:type" v="gard" />
	</node>
	<node lat="68.84036110798047" lon="19.115605553798428" id="-37335">
		<tag k="name" v="Kirkesjordsætra" />
		<tag k="place" v="locality" />
		<tag k="ssr:date" v="2019-12-27" />
		<tag k="ssr:gruppe" v="gardsbebyggelse" />
		<tag k="ssr:hovedgruppe" v="bebyggelse" />
		<tag k="ssr:stedsnr" v="139298" />
		<tag k="ssr:type" v="eiendom" />
	</node>
	<node lat="69.00941944558394" lon="19.414958320321976" id="-37336">
		<tag k="name" v="Moland" />
		<tag k="place" v="farm" />
		<tag k="ssr:date" v="2019-12-27" />
		<tag k="ssr:gruppe" v="gardsbebyggelse" />
		<tag k="ssr:hovedgruppe" v="bebyggelse" />
		<tag k="ssr:stedsnr" v="139406" />
		<tag k="ssr:type" v="bruk" />
	</node>
	<node lat="69.10993055735757" lon="18.497361112846047" id="-37337">
		<tag k="name" v="Hjerkinlia" />
		<tag k="natural" v="slope" />
		<tag k="place" v="locality" />
		<tag k="ssr:date" v="2019-12-27" />
		<tag k="ssr:gruppe" v="skråninger" />
		<tag k="ssr:hovedgruppe" v="terreng" />
		<tag k="ssr:stedsnr" v="139588" />
		<tag k="ssr:type" v="li" />
	</node>
	<node lat="69.17685555357362" lon="18.299527772198" id="-37338">
		<tag k="name" v="Reinvatnet - Boazojávri" />
		<tag k="name:no" v="Reinvatnet" />
		<tag k="name:se" v="Boazojávri" />
		<tag k="natural" v="water" />
		<tag k="old_name:se" v="Boazujavri" />
		<tag k="ssr:date" v="2019-12-27" />
		<tag k="ssr:gruppe" v="stilleståendeVann" />
		<tag k="ssr:hovedgruppe" v="ferskvann" />
		<tag k="ssr:stedsnr" v="139706" />
		<tag k="ssr:type" v="vann" />
		<tag k="water" v="lake" />
	</node>
	<node lat="69.2745916670755" lon="18.50098054347534" id="-37339">
		<tag k="name" v="Nedre Kjerresnes" />
		<tag k="place" v="farm" />
		<tag k="ssr:date" v="2021-06-08" />
		<tag k="ssr:gruppe" v="gardsbebyggelse" />
		<tag k="ssr:hovedgruppe" v="bebyggelse" />
		<tag k="ssr:stedsnr" v="140833" />
		<tag k="ssr:type" v="bruk" />
	</node>
	<node lat="69.19045555751312" lon="18.695963879580457" id="-37340">
		<tag k="name" v="Britamyra" />
		<tag k="natural" v="wetland" />
		<tag k="ssr:date" v="2019-12-27" />
		<tag k="ssr:gruppe" v="våtmark" />
		<tag k="ssr:hovedgruppe" v="markslag" />
		<tag k="ssr:stedsnr" v="140992" />
		<tag k="ssr:type" v="myr" />
	</node>
	<node lat="69.05575555612664" lon="18.490208336531886" id="-37341">
		<tag k="name" v="Rustahøgda" />
		<tag k="place" v="hamlet" />
		<tag k="ssr:date" v="2021-06-08" />
		<tag k="ssr:gruppe" v="bebyggelsesområder" />
		<tag k="ssr:hovedgruppe" v="bebyggelse" />
		<tag k="ssr:stedsnr" v="145529" />
		<tag k="ssr:type" v="grend" />
	</node>
	<node lat="69.06066944579497" lon="18.463124993280207" id="-37342">
		<tag k="name" v="Rabben" />
		<tag k="natural" v="hill" />
		<tag k="place" v="locality" />
		<tag k="ssr:date" v="2019-12-27" />
		<tag k="ssr:gruppe" v="høyder" />
		<tag k="ssr:hovedgruppe" v="terreng" />
		<tag k="ssr:stedsnr" v="157600" />
		<tag k="ssr:type" v="haug" />
	</node>
	<node lat="69.0863416663157" lon="18.481152785226314" id="-37343">
		<tag k="name" v="Langmyra" />
		<tag k="natural" v="wetland" />
		<tag k="ssr:date" v="2019-12-27" />
		<tag k="ssr:gruppe" v="våtmark" />
		<tag k="ssr:hovedgruppe" v="markslag" />
		<tag k="ssr:stedsnr" v="158618" />
		<tag k="ssr:type" v="myr" />
	</node>
	<node lat="68.6632749996811" lon="19.468788889002248" id="-37344">
		<tag k="name" v="Moskánjávri" />
		<tag k="name:se" v="Moskánjávri" />
		<tag k="natural" v="water" />
		<tag k="ssr:date" v="2019-12-27" />
		<tag k="ssr:gruppe" v="stilleståendeVann" />
		<tag k="ssr:hovedgruppe" v="ferskvann" />
		<tag k="ssr:stedsnr" v="260415" />
		<tag k="ssr:type" v="vann" />
		<tag k="water" v="lake" />
	</node>
	<node lat="68.95596944154826" lon="18.82938610951716" id="-37345">
		<tag k="name" v="Langvatnet" />
		<tag k="natural" v="water" />
		<tag k="ssr:date" v="2019-12-27" />
		<tag k="ssr:gruppe" v="stilleståendeVann" />
		<tag k="ssr:hovedgruppe" v="ferskvann" />
		<tag k="ssr:stedsnr" v="260419" />
		<tag k="ssr:type" v="tjern" />
	</node>
	<node lat="68.7639416640278" lon="19.71796108980435" id="-37346">
		<tag k="fixme" v="consider tourism=alpine_hut or tourism=chalet" />
		<tag k="name" v="Ventebu" />
		<tag k="ssr:date" v="2019-12-27" />
		<tag k="ssr:gruppe" v="næring" />
		<tag k="ssr:hovedgruppe" v="bebyggelse" />
		<tag k="ssr:stedsnr" v="162812" />
		<tag k="ssr:type" v="turisthytte" />
		<tag k="tourism" v="wilderness_hut" />
	</node>
	<node lat="68.67583055214008" lon="19.82305831317065" id="-37347">
		<tag k="fixme" v="consider tourism=alpine_hut or tourism=chalet" />
		<tag k="name" v="Dividalshytta" />
		<tag k="ssr:date" v="2019-12-27" />
		<tag k="ssr:gruppe" v="næring" />
		<tag k="ssr:hovedgruppe" v="bebyggelse" />
		<tag k="ssr:stedsnr" v="260127" />
		<tag k="ssr:type" v="turisthytte" />
		<tag k="tourism" v="wilderness_hut" />
	</node>
	<node lat="68.69961944482878" lon="20.069019431611007" id="-37348">
		<tag k="name" v="Ádojávri" />
		<tag k="name:se" v="Ádojávri" />
		<tag k="natural" v="water" />
		<tag k="ssr:date" v="2019-12-27" />
		<tag k="ssr:gruppe" v="stilleståendeVann" />
		<tag k="ssr:hovedgruppe" v="ferskvann" />
		<tag k="ssr:stedsnr" v="260130" />
		<tag k="ssr:type" v="tjern" />
	</node>
	<node lat="68.77262222469687" lon="19.958852757460015" id="-37349">
		<tag k="name" v="Gárasvuopmi" />
		<tag k="name:se" v="Gárasvuopmi" />
		<tag k="natural" v="valley" />
		<tag k="place" v="locality" />
		<tag k="ssr:date" v="2019-12-27" />
		<tag k="ssr:gruppe" v="senkninger" />
		<tag k="ssr:hovedgruppe" v="terreng" />
		<tag k="ssr:stedsnr" v="260135" />
		<tag k="ssr:type" v="dal" />
	</node>
	<node lat="68.74731388823848" lon="19.865836085715937" id="-37350">
		<tag k="fixme" v="consider natural=peak for the most distinct mountains in the district" />
		<tag k="name" v="Skáktárnjunni" />
		<tag k="name:se" v="Skáktárnjunni" />
		<tag k="natural" v="hill" />
		<tag k="place" v="locality" />
		<tag k="ssr:date" v="2019-12-27" />
		<tag k="ssr:gruppe" v="høyder" />
		<tag k="ssr:hovedgruppe" v="terreng" />
		<tag k="ssr:stedsnr" v="260141" />
		<tag k="ssr:type" v="fjell" />
	</node>
	<node lat="68.8188888910245" lon="20.10805831692026" id="-37351">
		<tag k="fixme" v="consider tourism=alpine_hut or tourism=chalet" />
		<tag k="name" v="Dærtahytta" />
		<tag k="ssr:date" v="2019-12-27" />
		<tag k="ssr:gruppe" v="næring" />
		<tag k="ssr:hovedgruppe" v="bebyggelse" />
		<tag k="ssr:stedsnr" v="260143" />
		<tag k="ssr:type" v="turisthytte" />
		<tag k="tourism" v="wilderness_hut" />
	</node>
	<node lat="68.84338888679969" lon="20.259716640898844" id="-37352">
		<tag k="name" v="Váhkarajuovva" />
		<tag k="name:se" v="Váhkarajuovva" />
		<tag k="natural" v="scree" />
		<tag k="ssr:date" v="2019-12-27" />
		<tag k="ssr:gruppe" v="løsmasseavsetninger" />
		<tag k="ssr:hovedgruppe" v="markslag" />
		<tag k="ssr:stedsnr" v="260145" />
		<tag k="ssr:type" v="ur" />
	</node>
	<node lat="68.94309167072353" lon="19.492224990391676" id="-37353">
		<tag k="name" v="Oppi" />
		<tag k="place" v="farm" />
		<tag k="ssr:date" v="2019-12-27" />
		<tag k="ssr:gruppe" v="gardsbebyggelse" />
		<tag k="ssr:hovedgruppe" v="bebyggelse" />
		<tag k="ssr:stedsnr" v="260230" />
		<tag k="ssr:type" v="bruk" />
	</node>
	<node lat="68.93526110881777" lon="19.510538877323768" id="-37354">
		<tag k="alt_name" v="Sørholmen" />
		<tag k="name" v="Sørliholmen" />
		<tag k="place" v="islet" />
		<tag k="ssr:date" v="2019-12-27" />
		<tag k="ssr:gruppe" v="ferskvannskontur" />
		<tag k="ssr:hovedgruppe" v="ferskvann" />
		<tag k="ssr:stedsnr" v="260232" />
		<tag k="ssr:type" v="holme" />
	</node>
	<node lat="68.92622247951513" lon="19.51783953224132" id="-37355">
		<tag k="fixme" v="consider place=hamlet" />
		<tag k="name" v="Dividalen" />
		<tag k="place" v="farm" />
		<tag k="ssr:date" v="2020-07-08" />
		<tag k="ssr:gruppe" v="gardsbebyggelse" />
		<tag k="ssr:hovedgruppe" v="bebyggelse" />
		<tag k="ssr:stedsnr" v="260238" />
		<tag k="ssr:type" v="gard" />
	</node>
	<node lat="68.93178610999391" lon="19.506236109198312" id="-37356">
		<tag k="alt_name" v="Steinberg" />
		<tag k="name" v="Stenberg" />
		<tag k="place" v="farm" />
		<tag k="ssr:date" v="2019-12-27" />
		<tag k="ssr:gruppe" v="gardsbebyggelse" />
		<tag k="ssr:hovedgruppe" v="bebyggelse" />
		<tag k="ssr:stedsnr" v="260247" />
		<tag k="ssr:type" v="bruk" />
	</node>
	<node lat="68.89201111240817" lon="19.24267221453789" id="-37357">
		<tag k="name" v="Iccariehppi" />
		<tag k="name:se" v="Iccariehppi" />
		<tag k="natural" v="valley" />
		<tag k="place" v="locality" />
		<tag k="ssr:date" v="2019-12-27" />
		<tag k="ssr:gruppe" v="senkninger" />
		<tag k="ssr:hovedgruppe" v="terreng" />
		<tag k="ssr:stedsnr" v="260272" />
		<tag k="ssr:type" v="botn" />
	</node>
	<node lat="68.89536111283482" lon="19.575727759247435" id="-37358">
		<tag k="name" v="Skredbekken" />
		<tag k="ssr:date" v="2019-12-27" />
		<tag k="ssr:gruppe" v="rennendeVann" />
		<tag k="ssr:hovedgruppe" v="ferskvann" />
		<tag k="ssr:stedsnr" v="260274" />
		<tag k="ssr:type" v="bekk" />
		<tag k="waterway" v="stream" />
	</node>
	<node lat="68.97752221885317" lon="19.721316646740917" id="-37359">
		<tag k="name" v="Bjørnhaug" />
		<tag k="place" v="farm" />
		<tag k="ssr:date" v="2019-12-27" />
		<tag k="ssr:gruppe" v="gardsbebyggelse" />
		<tag k="ssr:hovedgruppe" v="bebyggelse" />
		<tag k="ssr:stedsnr" v="260275" />
		<tag k="ssr:type" v="bruk" />
	</node>
	<node lat="68.92042499781282" lon="20.200727754642774" id="-37360">
		<tag k="name" v="Moskánjávri" />
		<tag k="name:se" v="Moskánjávri" />
		<tag k="natural" v="water" />
		<tag k="ssr:date" v="2019-12-27" />
		<tag k="ssr:gruppe" v="stilleståendeVann" />
		<tag k="ssr:hovedgruppe" v="ferskvann" />
		<tag k="ssr:stedsnr" v="260180" />
		<tag k="ssr:type" v="vann" />
		<tag k="water" v="lake" />
	</node>
	<node lat="68.87375833771489" lon="20.184455538494806" id="-37361">
		<tag k="name" v="Spállogasjávrrit" />
		<tag k="name:se" v="Spállogasjávrrit" />
		<tag k="natural" v="water" />
		<tag k="ssr:date" v="2019-12-27" />
		<tag k="ssr:gruppe" v="stilleståendeVann" />
		<tag k="ssr:hovedgruppe" v="ferskvann" />
		<tag k="ssr:stedsnr" v="260194" />
		<tag k="ssr:type" v="vann" />
		<tag k="water" v="lake" />
	</node>
	<node lat="68.86557777993957" lon="19.47354999952578" id="-37362">
		<tag k="name" v="Lulit Gussariehppi" />
		<tag k="name:se" v="Lulit Gussariehppi" />
		<tag k="natural" v="valley" />
		<tag k="old_name:se" v="Gussariehppi, lulit" />
		<tag k="place" v="locality" />
		<tag k="ssr:date" v="2019-12-27" />
		<tag k="ssr:gruppe" v="senkninger" />
		<tag k="ssr:hovedgruppe" v="terreng" />
		<tag k="ssr:stedsnr" v="260197" />
		<tag k="ssr:type" v="botn" />
	</node>
	<node lat="68.85916944254927" lon="19.594552756772828" id="-37363">
		<tag k="alt_name" v="Brennskogtjørnet" />
		<tag k="name" v="Brennskogtjønna" />
		<tag k="natural" v="water" />
		<tag k="ssr:date" v="2019-12-27" />
		<tag k="ssr:gruppe" v="stilleståendeVann" />
		<tag k="ssr:hovedgruppe" v="ferskvann" />
		<tag k="ssr:stedsnr" v="260199" />
		<tag k="ssr:type" v="tjern" />
	</node>
	<node lat="68.97261666388992" lon="19.662086100483414" id="-37364">
		<tag k="name" v="Mo" />
		<tag k="place" v="farm" />
		<tag k="ssr:date" v="2019-12-27" />
		<tag k="ssr:gruppe" v="gardsbebyggelse" />
		<tag k="ssr:hovedgruppe" v="bebyggelse" />
		<tag k="ssr:stedsnr" v="260281" />
		<tag k="ssr:type" v="bruk" />
	</node>
	<node lat="68.95992222377778" lon="19.263497219255214" id="-37365">
		<tag k="fixme" v="consider natural=peak for the most distinct mountains in the district" />
		<tag k="name" v="Vetlruten" />
		<tag k="natural" v="hill" />
		<tag k="old_name" v="Veltruten" />
		<tag k="place" v="locality" />
		<tag k="ssr:date" v="2019-12-27" />
		<tag k="ssr:gruppe" v="høyder" />
		<tag k="ssr:hovedgruppe" v="terreng" />
		<tag k="ssr:stedsnr" v="260286" />
		<tag k="ssr:type" v="ås" />
	</node>
	<node lat="68.971383333981" lon="19.825944424456893" id="-37366">
		<tag k="alt_name" v="Rundhaugen" />
		<tag k="fixme" v="consider natural=peak for the most distinct mountains in the district" />
		<tag k="name" v="Rundingen" />
		<tag k="natural" v="hill" />
		<tag k="place" v="locality" />
		<tag k="ssr:date" v="2019-12-27" />
		<tag k="ssr:gruppe" v="høyder" />
		<tag k="ssr:hovedgruppe" v="terreng" />
		<tag k="ssr:stedsnr" v="260294" />
		<tag k="ssr:type" v="fjell" />
	</node>
	<node lat="68.8885509198189" lon="19.057953442213744" id="-37367">
		<tag k="alt_name" v="Kirkesjord" />
		<tag k="fixme" v="consider place=hamlet" />
		<tag k="name" v="Kirkesjorda" />
		<tag k="place" v="farm" />
		<tag k="ssr:date" v="2020-07-06" />
		<tag k="ssr:gruppe" v="gardsbebyggelse" />
		<tag k="ssr:hovedgruppe" v="bebyggelse" />
		<tag k="ssr:stedsnr" v="260367" />
		<tag k="ssr:type" v="gard" />
	</node>
	<node lat="68.9152861127613" lon="18.723013876656744" id="-37368">
		<tag k="alt_name:no" v="Istinden, vesle" />
		<tag k="fixme" v="consider natural=peak for the most distinct mountains in the district" />
		<tag k="name" v="Vesle Istinden - Gákkašgáisi" />
		<tag k="name:no" v="Vesle Istinden" />
		<tag k="name:se" v="Gákkašgáisi" />
		<tag k="natural" v="hill" />
		<tag k="old_name:se" v="Gaggašgaisi" />
		<tag k="place" v="locality" />
		<tag k="ssr:date" v="2019-12-27" />
		<tag k="ssr:gruppe" v="høyder" />
		<tag k="ssr:hovedgruppe" v="terreng" />
		<tag k="ssr:stedsnr" v="260378" />
		<tag k="ssr:type" v="fjell" />
	</node>
	<node lat="68.93096666915078" lon="18.96092776216762" id="-37369">
		<tag k="name" v="Rydland" />
		<tag k="place" v="farm" />
		<tag k="ssr:date" v="2019-12-27" />
		<tag k="ssr:gruppe" v="gardsbebyggelse" />
		<tag k="ssr:hovedgruppe" v="bebyggelse" />
		<tag k="ssr:stedsnr" v="260382" />
		<tag k="ssr:type" v="bruk" />
	</node>
	<node lat="68.94583333651464" lon="19.07049998745345" id="-37370">
		<tag k="name" v="Oppivatnet" />
		<tag k="natural" v="water" />
		<tag k="ssr:date" v="2019-12-27" />
		<tag k="ssr:gruppe" v="stilleståendeVann" />
		<tag k="ssr:hovedgruppe" v="ferskvann" />
		<tag k="ssr:stedsnr" v="260385" />
		<tag k="ssr:type" v="tjern" />
	</node>
	<node lat="68.94196111447748" lon="18.834055543827894" id="-37371">
		<tag k="name" v="Storvatnet - Loaŋkkasjávri" />
		<tag k="name:no" v="Storvatnet" />
		<tag k="name:se" v="Loaŋkkasjávri" />
		<tag k="natural" v="water" />
		<tag k="old_name:se" v="Loaŋkasjavri" />
		<tag k="ssr:date" v="2019-12-27" />
		<tag k="ssr:gruppe" v="stilleståendeVann" />
		<tag k="ssr:hovedgruppe" v="ferskvann" />
		<tag k="ssr:stedsnr" v="260391" />
		<tag k="ssr:type" v="vann" />
		<tag k="water" v="lake" />
	</node>
	<node lat="68.94283610949428" lon="18.89146666361749" id="-37372">
		<tag k="name" v="Vestlisætra" />
		<tag k="place" v="isolated_dwelling" />
		<tag k="ssr:date" v="2019-12-27" />
		<tag k="ssr:gruppe" v="bolighus" />
		<tag k="ssr:hovedgruppe" v="bebyggelse" />
		<tag k="ssr:stedsnr" v="260392" />
		<tag k="ssr:type" v="fritidsbolig" />
	</node>
	<node lat="68.995086113597" lon="19.140627762806638" id="-37373">
		<tag k="name" v="Målselva" />
		<tag k="ssr:date" v="2019-12-27" />
		<tag k="ssr:gruppe" v="rennendeVann" />
		<tag k="ssr:hovedgruppe" v="ferskvann" />
		<tag k="ssr:stedsnr" v="260422" />
		<tag k="ssr:type" v="elv" />
		<tag k="waterway" v="river" />
	</node>
	<node lat="68.98838333597539" lon="19.153594435510232" id="-37374">
		<tag k="alt_name" v="Tillermo, øvre;Øvre Tillermo" />
		<tag k="name" v="Tillermoen øvre" />
		<tag k="place" v="farm" />
		<tag k="ssr:date" v="2019-12-27" />
		<tag k="ssr:gruppe" v="gardsbebyggelse" />
		<tag k="ssr:hovedgruppe" v="bebyggelse" />
		<tag k="ssr:stedsnr" v="260424" />
		<tag k="ssr:type" v="bruk" />
	</node>
	<node lat="68.97506110958119" lon="18.783255554682867" id="-37375">
		<tag k="name" v="Storflåa" />
		<tag k="natural" v="waterfall" />
		<tag k="ssr:date" v="2019-12-27" />
		<tag k="ssr:gruppe" v="rennendeVann" />
		<tag k="ssr:hovedgruppe" v="ferskvann" />
		<tag k="ssr:stedsnr" v="260431" />
		<tag k="ssr:type" v="foss" />
	</node>
	<node lat="68.98980277898282" lon="18.904119434891317" id="-37376">
		<tag k="name" v="Heggenes" />
		<tag k="place" v="farm" />
		<tag k="ssr:date" v="2019-12-27" />
		<tag k="ssr:gruppe" v="gardsbebyggelse" />
		<tag k="ssr:hovedgruppe" v="bebyggelse" />
		<tag k="ssr:stedsnr" v="260444" />
		<tag k="ssr:type" v="bruk" />
	</node>
	<node lat="69.23879721839991" lon="18.49510554676242" id="-37377">
		<tag k="name" v="Olderholmen" />
		<tag k="place" v="islet" />
		<tag k="ssr:date" v="2019-12-27" />
		<tag k="ssr:gruppe" v="ferskvannskontur" />
		<tag k="ssr:hovedgruppe" v="ferskvann" />
		<tag k="ssr:stedsnr" v="260694" />
		<tag k="ssr:type" v="holme" />
	</node>
	<node lat="69.217269626122" lon="18.49647905520273" id="-37378">
		<tag k="alt_name" v="Guldhav" />
		<tag k="fixme" v="consider place=hamlet" />
		<tag k="name" v="Gullhav" />
		<tag k="place" v="farm" />
		<tag k="ssr:date" v="2020-06-22" />
		<tag k="ssr:gruppe" v="gardsbebyggelse" />
		<tag k="ssr:hovedgruppe" v="bebyggelse" />
		<tag k="ssr:stedsnr" v="260731" />
		<tag k="ssr:type" v="gard" />
	</node>
	<node lat="69.21716666748824" lon="18.442380543339215" id="-37379">
		<tag k="name" v="Holmsætra" />
		<tag k="place" v="farm" />
		<tag k="ssr:date" v="2019-12-27" />
		<tag k="ssr:gruppe" v="gardsbebyggelse" />
		<tag k="ssr:hovedgruppe" v="bebyggelse" />
		<tag k="ssr:stedsnr" v="260735" />
		<tag k="ssr:type" v="bruk" />
	</node>
	<node lat="69.30841388431624" lon="18.59454722678536" id="-37380">
		<tag k="name" v="Mortenneset" />
		<tag k="natural" v="cape" />
		<tag k="ssr:date" v="2019-12-27" />
		<tag k="ssr:gruppe" v="kystkontur" />
		<tag k="ssr:hovedgruppe" v="sjø" />
		<tag k="ssr:stedsnr" v="171168" />
		<tag k="ssr:type" v="nesISjø" />
	</node>
	<node lat="69.26248055428778" lon="18.636408332800098" id="-37381">
		<tag k="name" v="Hatten" />
		<tag k="natural" v="hill" />
		<tag k="place" v="locality" />
		<tag k="ssr:date" v="2019-12-27" />
		<tag k="ssr:gruppe" v="høyder" />
		<tag k="ssr:hovedgruppe" v="terreng" />
		<tag k="ssr:stedsnr" v="261055" />
		<tag k="ssr:type" v="haug" />
	</node>
	<node lat="69.0341388868388" lon="18.62767498769499" id="-37382">
		<tag k="name" v="Storleirfallet" />
		<tag k="natural" v="slope" />
		<tag k="place" v="locality" />
		<tag k="ssr:date" v="2019-12-27" />
		<tag k="ssr:gruppe" v="skråninger" />
		<tag k="ssr:hovedgruppe" v="terreng" />
		<tag k="ssr:stedsnr" v="171925" />
		<tag k="ssr:type" v="li" />
	</node>
	<node lat="69.13793611315621" lon="18.69818054343952" id="-37383">
		<tag k="name" v="Heggelia" />
		<tag k="natural" v="slope" />
		<tag k="place" v="locality" />
		<tag k="ssr:date" v="2019-12-27" />
		<tag k="ssr:gruppe" v="skråninger" />
		<tag k="ssr:hovedgruppe" v="terreng" />
		<tag k="ssr:stedsnr" v="172162" />
		<tag k="ssr:type" v="li" />
	</node>
	<node lat="69.22410555500927" lon="18.287905548058525" id="-37384">
		<tag k="name" v="Famnevedmoen" />
		<tag k="place" v="locality" />
		<tag k="ssr:date" v="2019-12-27" />
		<tag k="ssr:gruppe" v="flater" />
		<tag k="ssr:hovedgruppe" v="terreng" />
		<tag k="ssr:stedsnr" v="172406" />
		<tag k="ssr:type" v="mo" />
	</node>
	<node lat="69.1551888866414" lon="18.56289165244145" id="-37385">
		<tag k="name" v="Olsborgnesan" />
		<tag k="natural" v="cape" />
		<tag k="ssr:date" v="2019-12-27" />
		<tag k="ssr:gruppe" v="ferskvannskontur" />
		<tag k="ssr:hovedgruppe" v="ferskvann" />
		<tag k="ssr:stedsnr" v="172408" />
		<tag k="ssr:type" v="nes" />
	</node>
	<node lat="69.22756111494304" lon="18.280519444478614" id="-37386">
		<tag k="name" v="Bjørnmobekken" />
		<tag k="ssr:date" v="2019-12-27" />
		<tag k="ssr:gruppe" v="rennendeVann" />
		<tag k="ssr:hovedgruppe" v="ferskvann" />
		<tag k="ssr:stedsnr" v="172411" />
		<tag k="ssr:type" v="bekk" />
		<tag k="waterway" v="stream" />
	</node>
	<node lat="69.02924167109458" lon="18.900708317739856" id="-37387">
		<tag k="name" v="Nedre Tjønnmyr" />
		<tag k="natural" v="wetland" />
		<tag k="ssr:date" v="2019-12-27" />
		<tag k="ssr:gruppe" v="våtmark" />
		<tag k="ssr:hovedgruppe" v="markslag" />
		<tag k="ssr:stedsnr" v="172472" />
		<tag k="ssr:type" v="myr" />
	</node>
	<node lat="69.21354444653649" lon="18.438813893119292" id="-37388">
		<tag k="name" v="Buvegdalen" />
		<tag k="natural" v="valley" />
		<tag k="place" v="locality" />
		<tag k="ssr:date" v="2019-12-27" />
		<tag k="ssr:gruppe" v="senkninger" />
		<tag k="ssr:hovedgruppe" v="terreng" />
		<tag k="ssr:stedsnr" v="172608" />
		<tag k="ssr:type" v="dal" />
	</node>
	<node lat="69.22965833436315" lon="18.444652776444194" id="-37389">
		<tag k="name" v="Bunøddalsbekken" />
		<tag k="ssr:date" v="2019-12-27" />
		<tag k="ssr:gruppe" v="rennendeVann" />
		<tag k="ssr:hovedgruppe" v="ferskvann" />
		<tag k="ssr:stedsnr" v="172615" />
		<tag k="ssr:type" v="bekk" />
		<tag k="waterway" v="stream" />
	</node>
	<node lat="69.11081944460926" lon="18.56537500041267" id="-37390">
		<tag k="name" v="Sprutfossen" />
		<tag k="natural" v="waterfall" />
		<tag k="ssr:date" v="2019-12-27" />
		<tag k="ssr:gruppe" v="rennendeVann" />
		<tag k="ssr:hovedgruppe" v="ferskvann" />
		<tag k="ssr:stedsnr" v="172508" />
		<tag k="ssr:type" v="foss" />
	</node>
	<node lat="69.01493888906631" lon="18.63187499842547" id="-37391">
		<tag k="name" v="Varmbekken" />
		<tag k="ssr:date" v="2019-12-27" />
		<tag k="ssr:gruppe" v="rennendeVann" />
		<tag k="ssr:hovedgruppe" v="ferskvann" />
		<tag k="ssr:stedsnr" v="172558" />
		<tag k="ssr:type" v="bekk" />
		<tag k="waterway" v="stream" />
	</node>
	<node lat="69.19654166230103" lon="18.486763891935617" id="-37392">
		<tag k="name" v="Storbakken" />
		<tag k="natural" v="slope" />
		<tag k="place" v="locality" />
		<tag k="ssr:date" v="2019-12-27" />
		<tag k="ssr:gruppe" v="skråninger" />
		<tag k="ssr:hovedgruppe" v="terreng" />
		<tag k="ssr:stedsnr" v="172559" />
		<tag k="ssr:type" v="bakke" />
	</node>
	<node lat="69.19981110795516" lon="18.430252769342964" id="-37393">
		<tag k="name" v="Geitberget" />
		<tag k="natural" v="hill" />
		<tag k="place" v="locality" />
		<tag k="ssr:date" v="2019-12-27" />
		<tag k="ssr:gruppe" v="høyder" />
		<tag k="ssr:hovedgruppe" v="terreng" />
		<tag k="ssr:stedsnr" v="172561" />
		<tag k="ssr:type" v="berg" />
	</node>
	<node lat="69.19290277809493" lon="18.449825004287767" id="-37394">
		<tag k="name" v="Mattiasneset" />
		<tag k="natural" v="cape" />
		<tag k="ssr:date" v="2019-12-27" />
		<tag k="ssr:gruppe" v="ferskvannskontur" />
		<tag k="ssr:hovedgruppe" v="ferskvann" />
		<tag k="ssr:stedsnr" v="172562" />
		<tag k="ssr:type" v="nes" />
	</node>
	<node lat="69.20014722208137" lon="18.449252768535427" id="-37395">
		<tag k="name" v="Langneset" />
		<tag k="natural" v="cape" />
		<tag k="ssr:date" v="2019-12-27" />
		<tag k="ssr:gruppe" v="ferskvannskontur" />
		<tag k="ssr:hovedgruppe" v="ferskvann" />
		<tag k="ssr:stedsnr" v="172563" />
		<tag k="ssr:type" v="nes" />
	</node>
	<node lat="69.01455555648074" lon="19.017558322176082" id="-37396">
		<tag k="name" v="Tømmerhaugen" />
		<tag k="natural" v="hill" />
		<tag k="place" v="locality" />
		<tag k="ssr:date" v="2019-12-27" />
		<tag k="ssr:gruppe" v="høyder" />
		<tag k="ssr:hovedgruppe" v="terreng" />
		<tag k="ssr:stedsnr" v="172569" />
		<tag k="ssr:type" v="haug" />
	</node>
</osm>
