<?xml version="1.0" encoding="UTF-8"?>
<osm version="0.6" generator="osmapis">
	<node lat="69.08202864749475" lon="18.569419381415255" id="-95545">
		<tag k="name" v="Ole Krogsengs vei" />
		<tag k="ssr:date" v="2019-12-27" />
		<tag k="ssr:gruppe" v="veg" />
		<tag k="ssr:hovedgruppe" v="infrastruktur" />
		<tag k="ssr:stedsnr" v="976009" />
		<tag k="ssr:type" v="adressenavn" />
	</node>
	<node lat="69.2109261055253" lon="18.656771430032784" id="-95546">
		<tag k="name" v="Blåtindveien" />
		<tag k="ssr:date" v="2019-12-27" />
		<tag k="ssr:gruppe" v="veg" />
		<tag k="ssr:hovedgruppe" v="infrastruktur" />
		<tag k="ssr:stedsnr" v="976010" />
		<tag k="ssr:type" v="adressenavn" />
	</node>
	<node lat="69.09039708012534" lon="18.57955445180314" id="-96820">
		<tag k="name" v="Lyngveien" />
		<tag k="ssr:date" v="2019-12-27" />
		<tag k="ssr:gruppe" v="veg" />
		<tag k="ssr:hovedgruppe" v="infrastruktur" />
		<tag k="ssr:stedsnr" v="536888" />
		<tag k="ssr:type" v="adressenavn" />
	</node>
	<node lat="69.1926833326107" lon="18.431794448199078" id="-97402">
		<tag k="name" v="Målselv" />
		<tag k="ssr:date" v="2019-12-27" />
		<tag k="ssr:gruppe" v="terrengområder" />
		<tag k="ssr:hovedgruppe" v="terreng" />
		<tag k="ssr:stedsnr" v="756793" />
		<tag k="ssr:type" v="landskapsområde" />
	</node>
	<node lat="69.12388889062697" lon="18.614977776274458" id="-97786">
		<tag k="name" v="Målselv kommune" />
		<tag k="ssr:date" v="2019-12-27" />
		<tag k="ssr:gruppe" v="administrativeIndelinger" />
		<tag k="ssr:hovedgruppe" v="offentligAdministrasjon" />
		<tag k="ssr:stedsnr" v="936314" />
		<tag k="ssr:type" v="kommune" />
	</node>
	<node lat="69.0160822718846" lon="19.40886027049833" id="-97898">
		<tag k="name" v="Thomas Bells vei" />
		<tag k="ssr:date" v="2019-12-27" />
		<tag k="ssr:gruppe" v="veg" />
		<tag k="ssr:hovedgruppe" v="infrastruktur" />
		<tag k="ssr:stedsnr" v="1010086" />
		<tag k="ssr:type" v="adressenavn" />
	</node>
	<node lat="69.01696991233952" lon="19.39467391284126" id="-97899">
		<tag k="name" v="Brannmoveien" />
		<tag k="ssr:date" v="2019-12-27" />
		<tag k="ssr:gruppe" v="veg" />
		<tag k="ssr:hovedgruppe" v="infrastruktur" />
		<tag k="ssr:stedsnr" v="1010088" />
		<tag k="ssr:type" v="adressenavn" />
	</node>
	<node lat="69.02447118950388" lon="19.29470946334574" id="-97900">
		<tag k="name" v="Idrettsveien" />
		<tag k="ssr:date" v="2019-12-27" />
		<tag k="ssr:gruppe" v="veg" />
		<tag k="ssr:hovedgruppe" v="infrastruktur" />
		<tag k="ssr:stedsnr" v="1010090" />
		<tag k="ssr:type" v="adressenavn" />
	</node>
	<node lat="69.02220446483398" lon="19.286575756176553" id="-97901">
		<tag k="name" v="Snarveien" />
		<tag k="ssr:date" v="2019-12-27" />
		<tag k="ssr:gruppe" v="veg" />
		<tag k="ssr:hovedgruppe" v="infrastruktur" />
		<tag k="ssr:stedsnr" v="1010095" />
		<tag k="ssr:type" v="adressenavn" />
	</node>
	<node lat="69.03202352032226" lon="19.292178618896244" id="-97902">
		<tag k="name" v="Maukstadveien" />
		<tag k="ssr:date" v="2019-12-27" />
		<tag k="ssr:gruppe" v="veg" />
		<tag k="ssr:hovedgruppe" v="infrastruktur" />
		<tag k="ssr:stedsnr" v="1010096" />
		<tag k="ssr:type" v="adressenavn" />
	</node>
	<node lat="69.02725917993487" lon="19.295809633141175" id="-97903">
		<tag k="name" v="Haraldshaugen" />
		<tag k="ssr:date" v="2019-12-27" />
		<tag k="ssr:gruppe" v="veg" />
		<tag k="ssr:hovedgruppe" v="infrastruktur" />
		<tag k="ssr:stedsnr" v="1010099" />
		<tag k="ssr:type" v="adressenavn" />
	</node>
	<node lat="69.02490574209723" lon="19.270583374750164" id="-97904">
		<tag k="name" v="Per Hansabakken" />
		<tag k="ssr:date" v="2019-12-27" />
		<tag k="ssr:gruppe" v="veg" />
		<tag k="ssr:hovedgruppe" v="infrastruktur" />
		<tag k="ssr:stedsnr" v="1010102" />
		<tag k="ssr:type" v="adressenavn" />
	</node>
	<node lat="69.02430083411333" lon="19.295459003280136" id="-97905">
		<tag k="name" v="Dørumveien" />
		<tag k="ssr:date" v="2019-12-27" />
		<tag k="ssr:gruppe" v="veg" />
		<tag k="ssr:hovedgruppe" v="infrastruktur" />
		<tag k="ssr:stedsnr" v="1010105" />
		<tag k="ssr:type" v="adressenavn" />
	</node>
	<node lat="69.02294395048024" lon="19.288315660508836" id="-97906">
		<tag k="name" v="Maukenveien" />
		<tag k="ssr:date" v="2019-12-27" />
		<tag k="ssr:gruppe" v="veg" />
		<tag k="ssr:hovedgruppe" v="infrastruktur" />
		<tag k="ssr:stedsnr" v="1010108" />
		<tag k="ssr:type" v="adressenavn" />
	</node>
	<node lat="69.02490574209723" lon="19.270583374750164" id="-97907">
		<tag k="name" v="Kjosveien" />
		<tag k="ssr:date" v="2019-12-27" />
		<tag k="ssr:gruppe" v="veg" />
		<tag k="ssr:hovedgruppe" v="infrastruktur" />
		<tag k="ssr:stedsnr" v="1010111" />
		<tag k="ssr:type" v="adressenavn" />
	</node>
	<node lat="69.08923138628886" lon="18.58943317633326" id="-97908">
		<tag k="name" v="Storegga" />
		<tag k="ssr:date" v="2019-12-27" />
		<tag k="ssr:gruppe" v="veg" />
		<tag k="ssr:hovedgruppe" v="infrastruktur" />
		<tag k="ssr:stedsnr" v="1010073" />
		<tag k="ssr:type" v="adressenavn" />
	</node>
	<node lat="69.0055607049705" lon="19.40262993191119" id="-97909">
		<tag k="name" v="Arntrommet" />
		<tag k="ssr:date" v="2019-12-27" />
		<tag k="ssr:gruppe" v="veg" />
		<tag k="ssr:hovedgruppe" v="infrastruktur" />
		<tag k="ssr:stedsnr" v="1010075" />
		<tag k="ssr:type" v="adressenavn" />
	</node>
	<node lat="69.09038829515521" lon="18.572007536623936" id="-97910">
		<tag k="name" v="Bratta" />
		<tag k="ssr:date" v="2019-12-27" />
		<tag k="ssr:gruppe" v="veg" />
		<tag k="ssr:hovedgruppe" v="infrastruktur" />
		<tag k="ssr:stedsnr" v="1010077" />
		<tag k="ssr:type" v="adressenavn" />
	</node>
	<node lat="69.08925870161063" lon="18.569537762817383" id="-97911">
		<tag k="name" v="Tindveien" />
		<tag k="ssr:date" v="2019-12-27" />
		<tag k="ssr:gruppe" v="veg" />
		<tag k="ssr:hovedgruppe" v="infrastruktur" />
		<tag k="ssr:stedsnr" v="1010079" />
		<tag k="ssr:type" v="adressenavn" />
	</node>
	<node lat="69.01640519175042" lon="19.39448536941886" id="-97912">
		<tag k="name" v="Fjeldeveien" />
		<tag k="ssr:date" v="2019-12-27" />
		<tag k="ssr:gruppe" v="veg" />
		<tag k="ssr:hovedgruppe" v="infrastruktur" />
		<tag k="ssr:stedsnr" v="1010080" />
		<tag k="ssr:type" v="adressenavn" />
	</node>
	<node lat="69.03217102495154" lon="19.292324161745743" id="-97913">
		<tag k="name" v="Grindjordveien" />
		<tag k="ssr:date" v="2019-12-27" />
		<tag k="ssr:gruppe" v="veg" />
		<tag k="ssr:hovedgruppe" v="infrastruktur" />
		<tag k="ssr:stedsnr" v="1010083" />
		<tag k="ssr:type" v="adressenavn" />
	</node>
	<node lat="69.07647230441093" lon="18.542783716766035" id="-97914">
		<tag k="name" v="Olea Borgestads vei" />
		<tag k="ssr:date" v="2019-12-27" />
		<tag k="ssr:gruppe" v="veg" />
		<tag k="ssr:hovedgruppe" v="infrastruktur" />
		<tag k="ssr:stedsnr" v="1010136" />
		<tag k="ssr:type" v="adressenavn" />
	</node>
	<node lat="69.07858229157029" lon="18.537722395496" id="-97915">
		<tag k="name" v="Blåklokkeveien" />
		<tag k="ssr:date" v="2019-12-27" />
		<tag k="ssr:gruppe" v="veg" />
		<tag k="ssr:hovedgruppe" v="infrastruktur" />
		<tag k="ssr:stedsnr" v="1010139" />
		<tag k="ssr:type" v="adressenavn" />
	</node>
	<node lat="69.07792961474897" lon="18.540190071589826" id="-97916">
		<tag k="name" v="Smørblomstveien" />
		<tag k="ssr:date" v="2019-12-27" />
		<tag k="ssr:gruppe" v="veg" />
		<tag k="ssr:hovedgruppe" v="infrastruktur" />
		<tag k="ssr:stedsnr" v="1010142" />
		<tag k="ssr:type" v="adressenavn" />
	</node>
	<node lat="69.03479891758249" lon="18.506377673928462" id="-97917">
		<tag k="name" v="Finnsundveien" />
		<tag k="ssr:date" v="2019-12-27" />
		<tag k="ssr:gruppe" v="veg" />
		<tag k="ssr:hovedgruppe" v="infrastruktur" />
		<tag k="ssr:stedsnr" v="1010146" />
		<tag k="ssr:type" v="adressenavn" />
	</node>
	<node lat="69.09245853070009" lon="18.58680682534668" id="-97918">
		<tag k="name" v="Olarommet" />
		<tag k="ssr:date" v="2019-12-27" />
		<tag k="ssr:gruppe" v="veg" />
		<tag k="ssr:hovedgruppe" v="infrastruktur" />
		<tag k="ssr:stedsnr" v="1010147" />
		<tag k="ssr:type" v="adressenavn" />
	</node>
	<node lat="69.02316109975547" lon="19.2933557334765" id="-97919">
		<tag k="name" v="Fjellfroskhaugen" />
		<tag k="ssr:date" v="2019-12-27" />
		<tag k="ssr:gruppe" v="veg" />
		<tag k="ssr:hovedgruppe" v="infrastruktur" />
		<tag k="ssr:stedsnr" v="1010149" />
		<tag k="ssr:type" v="adressenavn" />
	</node>
	<node lat="69.06756660773885" lon="18.520090195757515" id="-97920">
		<tag k="name" v="Fagerlidal" />
		<tag k="ssr:date" v="2019-12-27" />
		<tag k="ssr:gruppe" v="veg" />
		<tag k="ssr:hovedgruppe" v="infrastruktur" />
		<tag k="ssr:stedsnr" v="1010151" />
		<tag k="ssr:type" v="adressenavn" />
	</node>
	<node lat="69.07410657510765" lon="18.52405994754552" id="-97921">
		<tag k="name" v="Tiurveien" />
		<tag k="ssr:date" v="2019-12-27" />
		<tag k="ssr:gruppe" v="veg" />
		<tag k="ssr:hovedgruppe" v="infrastruktur" />
		<tag k="ssr:stedsnr" v="1010153" />
		<tag k="ssr:type" v="adressenavn" />
	</node>
	<node lat="69.07359244464737" lon="18.53104858651307" id="-97922">
		<tag k="name" v="Sverre Stenersens vei" />
		<tag k="ssr:date" v="2019-12-27" />
		<tag k="ssr:gruppe" v="veg" />
		<tag k="ssr:hovedgruppe" v="infrastruktur" />
		<tag k="ssr:stedsnr" v="1010154" />
		<tag k="ssr:type" v="adressenavn" />
	</node>
	<node lat="69.07549558256632" lon="18.52447317323248" id="-97923">
		<tag k="name" v="Trostveien" />
		<tag k="ssr:date" v="2019-12-27" />
		<tag k="ssr:gruppe" v="veg" />
		<tag k="ssr:hovedgruppe" v="infrastruktur" />
		<tag k="ssr:stedsnr" v="1010155" />
		<tag k="ssr:type" v="adressenavn" />
	</node>
	<node lat="69.0735368964489" lon="18.522711151960394" id="-97924">
		<tag k="name" v="Rypeveien" />
		<tag k="ssr:date" v="2019-12-27" />
		<tag k="ssr:gruppe" v="veg" />
		<tag k="ssr:hovedgruppe" v="infrastruktur" />
		<tag k="ssr:stedsnr" v="1010156" />
		<tag k="ssr:type" v="adressenavn" />
	</node>
	<node lat="69.07920389449644" lon="18.718271888353534" id="-97925">
		<tag k="name" v="Moltebærveien" />
		<tag k="ssr:date" v="2019-12-27" />
		<tag k="ssr:gruppe" v="veg" />
		<tag k="ssr:hovedgruppe" v="infrastruktur" />
		<tag k="ssr:stedsnr" v="1010157" />
		<tag k="ssr:type" v="adressenavn" />
	</node>
	<node lat="69.07828998451214" lon="18.724371875036564" id="-97926">
		<tag k="name" v="Rognebærveien" />
		<tag k="ssr:date" v="2019-12-27" />
		<tag k="ssr:gruppe" v="veg" />
		<tag k="ssr:hovedgruppe" v="infrastruktur" />
		<tag k="ssr:stedsnr" v="1010158" />
		<tag k="ssr:type" v="adressenavn" />
	</node>
	<node lat="69.0798296868689" lon="18.72284000071138" id="-97927">
		<tag k="name" v="Nordlysveien" />
		<tag k="ssr:date" v="2019-12-27" />
		<tag k="ssr:gruppe" v="veg" />
		<tag k="ssr:hovedgruppe" v="infrastruktur" />
		<tag k="ssr:stedsnr" v="1010160" />
		<tag k="ssr:type" v="adressenavn" />
	</node>
	<node lat="69.07949029491562" lon="18.714392158512" id="-97928">
		<tag k="name" v="Blåbærveien" />
		<tag k="ssr:date" v="2019-12-27" />
		<tag k="ssr:gruppe" v="veg" />
		<tag k="ssr:hovedgruppe" v="infrastruktur" />
		<tag k="ssr:stedsnr" v="1010161" />
		<tag k="ssr:type" v="adressenavn" />
	</node>
	<node lat="69.07770113287981" lon="18.71827301971118" id="-97929">
		<tag k="name" v="Bringebærveien" />
		<tag k="ssr:date" v="2019-12-27" />
		<tag k="ssr:gruppe" v="veg" />
		<tag k="ssr:hovedgruppe" v="infrastruktur" />
		<tag k="ssr:stedsnr" v="1010162" />
		<tag k="ssr:type" v="adressenavn" />
	</node>
	<node lat="69.07853532758963" lon="18.724229645654088" id="-97930">
		<tag k="name" v="Skrubbærveien" />
		<tag k="ssr:date" v="2019-12-27" />
		<tag k="ssr:gruppe" v="veg" />
		<tag k="ssr:hovedgruppe" v="infrastruktur" />
		<tag k="ssr:stedsnr" v="1010163" />
		<tag k="ssr:type" v="adressenavn" />
	</node>
	<node lat="69.07753859129065" lon="18.723244568955526" id="-97931">
		<tag k="name" v="Månetoppen" />
		<tag k="ssr:date" v="2019-12-27" />
		<tag k="ssr:gruppe" v="veg" />
		<tag k="ssr:hovedgruppe" v="infrastruktur" />
		<tag k="ssr:stedsnr" v="1010164" />
		<tag k="ssr:type" v="adressenavn" />
	</node>
	<node lat="69.07667336077549" lon="18.717889121398564" id="-97932">
		<tag k="name" v="Tranebærveien" />
		<tag k="ssr:date" v="2019-12-27" />
		<tag k="ssr:gruppe" v="veg" />
		<tag k="ssr:hovedgruppe" v="infrastruktur" />
		<tag k="ssr:stedsnr" v="1010165" />
		<tag k="ssr:type" v="adressenavn" />
	</node>
	<node lat="69.07666502452741" lon="18.715796614053513" id="-97933">
		<tag k="name" v="Tågebærveien" />
		<tag k="ssr:date" v="2019-12-27" />
		<tag k="ssr:gruppe" v="veg" />
		<tag k="ssr:hovedgruppe" v="infrastruktur" />
		<tag k="ssr:stedsnr" v="1010167" />
		<tag k="ssr:type" v="adressenavn" />
	</node>
	<node lat="69.07848913443699" lon="18.716033085849965" id="-97934">
		<tag k="name" v="Einebærveien" />
		<tag k="ssr:date" v="2019-12-27" />
		<tag k="ssr:gruppe" v="veg" />
		<tag k="ssr:hovedgruppe" v="infrastruktur" />
		<tag k="ssr:stedsnr" v="1010169" />
		<tag k="ssr:type" v="adressenavn" />
	</node>
	<node lat="69.07881981696544" lon="18.71426582418754" id="-97935">
		<tag k="name" v="Blokkebærveien" />
		<tag k="ssr:date" v="2019-12-27" />
		<tag k="ssr:gruppe" v="veg" />
		<tag k="ssr:hovedgruppe" v="infrastruktur" />
		<tag k="ssr:stedsnr" v="1010170" />
		<tag k="ssr:type" v="adressenavn" />
	</node>
	<node lat="69.04389205715275" lon="18.594269110611908" id="-97936">
		<tag k="name" v="Barduhaugveien" />
		<tag k="ssr:date" v="2019-12-27" />
		<tag k="ssr:gruppe" v="veg" />
		<tag k="ssr:hovedgruppe" v="infrastruktur" />
		<tag k="ssr:stedsnr" v="1010173" />
		<tag k="ssr:type" v="adressenavn" />
	</node>
	<node lat="69.04573647186463" lon="18.594102394116447" id="-97937">
		<tag k="name" v="Ingeborgveien" />
		<tag k="ssr:date" v="2019-12-27" />
		<tag k="ssr:gruppe" v="veg" />
		<tag k="ssr:hovedgruppe" v="infrastruktur" />
		<tag k="ssr:stedsnr" v="1010175" />
		<tag k="ssr:type" v="adressenavn" />
	</node>
	<node lat="69.00587211628829" lon="18.88665022958468" id="-97938">
		<tag k="name" v="Istindveien" />
		<tag k="ssr:date" v="2019-12-27" />
		<tag k="ssr:gruppe" v="veg" />
		<tag k="ssr:hovedgruppe" v="infrastruktur" />
		<tag k="ssr:stedsnr" v="1010176" />
		<tag k="ssr:type" v="adressenavn" />
	</node>
	<node lat="69.02344637323571" lon="18.58034205886378" id="-97939">
		<tag k="name" v="Beredskapsveien" />
		<tag k="ssr:date" v="2019-12-27" />
		<tag k="ssr:gruppe" v="veg" />
		<tag k="ssr:hovedgruppe" v="infrastruktur" />
		<tag k="ssr:stedsnr" v="1010177" />
		<tag k="ssr:type" v="adressenavn" />
	</node>
	<node lat="69.0942363219635" lon="18.587607822981283" id="-97940">
		<tag k="name" v="Sameskoleveien" />
		<tag k="ssr:date" v="2019-12-27" />
		<tag k="ssr:gruppe" v="veg" />
		<tag k="ssr:hovedgruppe" v="infrastruktur" />
		<tag k="ssr:stedsnr" v="1010178" />
		<tag k="ssr:type" v="adressenavn" />
	</node>
	<node lat="69.06245016355697" lon="18.556055031306865" id="-97941">
		<tag k="name" v="Nylund" />
		<tag k="ssr:date" v="2019-12-27" />
		<tag k="ssr:gruppe" v="veg" />
		<tag k="ssr:hovedgruppe" v="infrastruktur" />
		<tag k="ssr:stedsnr" v="1010179" />
		<tag k="ssr:type" v="adressenavn" />
	</node>
	<node lat="69.05956496098769" lon="18.54163098308582" id="-97942">
		<tag k="name" v="Flyplassveien" />
		<tag k="ssr:date" v="2019-12-27" />
		<tag k="ssr:gruppe" v="veg" />
		<tag k="ssr:hovedgruppe" v="infrastruktur" />
		<tag k="ssr:stedsnr" v="1010180" />
		<tag k="ssr:type" v="adressenavn" />
	</node>
	<node lat="69.0643112822662" lon="18.51233492507754" id="-97943">
		<tag k="name" v="Nerveien" />
		<tag k="ssr:date" v="2019-12-27" />
		<tag k="ssr:gruppe" v="veg" />
		<tag k="ssr:hovedgruppe" v="infrastruktur" />
		<tag k="ssr:stedsnr" v="1010182" />
		<tag k="ssr:type" v="adressenavn" />
	</node>
	<node lat="69.06436512532467" lon="18.511416907968773" id="-97944">
		<tag k="name" v="Andsliveien" />
		<tag k="ssr:date" v="2019-12-27" />
		<tag k="ssr:gruppe" v="veg" />
		<tag k="ssr:hovedgruppe" v="infrastruktur" />
		<tag k="ssr:stedsnr" v="1010184" />
		<tag k="ssr:type" v="adressenavn" />
	</node>
	<node lat="69.07817299204173" lon="18.55611324564038" id="-97945">
		<tag k="name" v="Øverliveien" />
		<tag k="ssr:date" v="2019-12-27" />
		<tag k="ssr:gruppe" v="veg" />
		<tag k="ssr:hovedgruppe" v="infrastruktur" />
		<tag k="ssr:stedsnr" v="1010185" />
		<tag k="ssr:type" v="adressenavn" />
	</node>
	<node lat="69.06442123867657" lon="18.511790034987275" id="-97946">
		<tag k="name" v="Torget" />
		<tag k="ssr:date" v="2019-12-27" />
		<tag k="ssr:gruppe" v="veg" />
		<tag k="ssr:hovedgruppe" v="infrastruktur" />
		<tag k="ssr:stedsnr" v="1010186" />
		<tag k="ssr:type" v="adressenavn" />
	</node>
	<node lat="69.04421803518647" lon="18.510577636855967" id="-97947">
		<tag k="name" v="Rustahøgdveien" />
		<tag k="ssr:date" v="2019-12-27" />
		<tag k="ssr:gruppe" v="veg" />
		<tag k="ssr:hovedgruppe" v="infrastruktur" />
		<tag k="ssr:stedsnr" v="1010187" />
		<tag k="ssr:type" v="adressenavn" />
	</node>
	<node lat="69.06179190722577" lon="18.493850668466965" id="-97948">
		<tag k="name" v="Andsvatnveien" />
		<tag k="ssr:date" v="2019-12-27" />
		<tag k="ssr:gruppe" v="veg" />
		<tag k="ssr:hovedgruppe" v="infrastruktur" />
		<tag k="ssr:stedsnr" v="1010189" />
		<tag k="ssr:type" v="adressenavn" />
	</node>
	<node lat="69.05541980872245" lon="18.48858566311365" id="-97949">
		<tag k="name" v="Bjørnåsen" />
		<tag k="ssr:date" v="2019-12-27" />
		<tag k="ssr:gruppe" v="veg" />
		<tag k="ssr:hovedgruppe" v="infrastruktur" />
		<tag k="ssr:stedsnr" v="1010190" />
		<tag k="ssr:type" v="adressenavn" />
	</node>
	<node lat="69.021747123409" lon="18.870321255876828" id="-97950">
		<tag k="name" v="Gammelhaugveien" />
		<tag k="ssr:date" v="2019-12-27" />
		<tag k="ssr:gruppe" v="veg" />
		<tag k="ssr:hovedgruppe" v="infrastruktur" />
		<tag k="ssr:stedsnr" v="1010192" />
		<tag k="ssr:type" v="adressenavn" />
	</node>
	<node lat="69.03476907007175" lon="18.507606243469837" id="-97951">
		<tag k="name" v="Platåveien" />
		<tag k="ssr:date" v="2019-12-27" />
		<tag k="ssr:gruppe" v="veg" />
		<tag k="ssr:hovedgruppe" v="infrastruktur" />
		<tag k="ssr:stedsnr" v="1010194" />
		<tag k="ssr:type" v="adressenavn" />
	</node>
	<node lat="69.04660757416634" lon="18.59337467587661" id="-97952">
		<tag k="name" v="Fossmoveien" />
		<tag k="ssr:date" v="2019-12-27" />
		<tag k="ssr:gruppe" v="veg" />
		<tag k="ssr:hovedgruppe" v="infrastruktur" />
		<tag k="ssr:stedsnr" v="1010196" />
		<tag k="ssr:type" v="adressenavn" />
	</node>
	<node lat="69.11754589604027" lon="18.61963883649899" id="-97953">
		<tag k="name" v="Skogsveien" />
		<tag k="ssr:date" v="2019-12-27" />
		<tag k="ssr:gruppe" v="veg" />
		<tag k="ssr:hovedgruppe" v="infrastruktur" />
		<tag k="ssr:stedsnr" v="1010197" />
		<tag k="ssr:type" v="adressenavn" />
	</node>
	<node lat="69.12077473776998" lon="18.621394022580457" id="-97954">
		<tag k="name" v="Ekornveien" />
		<tag k="ssr:date" v="2019-12-27" />
		<tag k="ssr:gruppe" v="veg" />
		<tag k="ssr:hovedgruppe" v="infrastruktur" />
		<tag k="ssr:stedsnr" v="1010200" />
		<tag k="ssr:type" v="adressenavn" />
	</node>
	<node lat="69.11766028952313" lon="18.623356838799868" id="-97955">
		<tag k="name" v="Rødhettestien" />
		<tag k="ssr:date" v="2019-12-27" />
		<tag k="ssr:gruppe" v="veg" />
		<tag k="ssr:hovedgruppe" v="infrastruktur" />
		<tag k="ssr:stedsnr" v="1010202" />
		<tag k="ssr:type" v="adressenavn" />
	</node>
	<node lat="69.1175535752453" lon="18.621050675179564" id="-97956">
		<tag k="name" v="Skartjønnveien" />
		<tag k="ssr:date" v="2019-12-27" />
		<tag k="ssr:gruppe" v="veg" />
		<tag k="ssr:hovedgruppe" v="infrastruktur" />
		<tag k="ssr:stedsnr" v="1010203" />
		<tag k="ssr:type" v="adressenavn" />
	</node>
	<node lat="69.14040508101135" lon="18.613163724723396" id="-97957">
		<tag k="name" v="Toppen" />
		<tag k="ssr:date" v="2019-12-27" />
		<tag k="ssr:gruppe" v="veg" />
		<tag k="ssr:hovedgruppe" v="infrastruktur" />
		<tag k="ssr:stedsnr" v="1010205" />
		<tag k="ssr:type" v="adressenavn" />
	</node>
	<node lat="69.14118006743915" lon="18.606671387060445" id="-97958">
		<tag k="name" v="Gulveisbakken" />
		<tag k="ssr:date" v="2019-12-27" />
		<tag k="ssr:gruppe" v="veg" />
		<tag k="ssr:hovedgruppe" v="infrastruktur" />
		<tag k="ssr:stedsnr" v="1010208" />
		<tag k="ssr:type" v="adressenavn" />
	</node>
	<node lat="69.07760085990375" lon="18.70803855499123" id="-97959">
		<tag k="name" v="Skogsbærveien" />
		<tag k="ssr:date" v="2019-12-27" />
		<tag k="ssr:gruppe" v="veg" />
		<tag k="ssr:hovedgruppe" v="infrastruktur" />
		<tag k="ssr:stedsnr" v="1010115" />
		<tag k="ssr:type" v="adressenavn" />
	</node>
	<node lat="69.07661856639945" lon="18.70697152955978" id="-97960">
		<tag k="name" v="Tyttebærveien" />
		<tag k="ssr:date" v="2019-12-27" />
		<tag k="ssr:gruppe" v="veg" />
		<tag k="ssr:hovedgruppe" v="infrastruktur" />
		<tag k="ssr:stedsnr" v="1010118" />
		<tag k="ssr:type" v="adressenavn" />
	</node>
	<node lat="69.07673286927484" lon="18.715347977197226" id="-97961">
		<tag k="name" v="Krøkebærveien" />
		<tag k="ssr:date" v="2019-12-27" />
		<tag k="ssr:gruppe" v="veg" />
		<tag k="ssr:hovedgruppe" v="infrastruktur" />
		<tag k="ssr:stedsnr" v="1010122" />
		<tag k="ssr:type" v="adressenavn" />
	</node>
	<node lat="69.0770428785988" lon="18.713050600054697" id="-97962">
		<tag k="name" v="Heggebærveien" />
		<tag k="ssr:date" v="2019-12-27" />
		<tag k="ssr:gruppe" v="veg" />
		<tag k="ssr:hovedgruppe" v="infrastruktur" />
		<tag k="ssr:stedsnr" v="1010124" />
		<tag k="ssr:type" v="adressenavn" />
	</node>
	<node lat="69.08859775458656" lon="18.569922700745348" id="-97963">
		<tag k="name" v="Einerveien" />
		<tag k="ssr:date" v="2019-12-27" />
		<tag k="ssr:gruppe" v="veg" />
		<tag k="ssr:hovedgruppe" v="infrastruktur" />
		<tag k="ssr:stedsnr" v="1010126" />
		<tag k="ssr:type" v="adressenavn" />
	</node>
	<node lat="69.14782336301136" lon="18.590511033260412" id="-97964">
		<tag k="name" v="Lisbeth Bardonsens vei" />
		<tag k="ssr:date" v="2019-12-27" />
		<tag k="ssr:gruppe" v="veg" />
		<tag k="ssr:hovedgruppe" v="infrastruktur" />
		<tag k="ssr:stedsnr" v="1010127" />
		<tag k="ssr:type" v="adressenavn" />
	</node>
	<node lat="69.075649801927" lon="18.70902414008058" id="-97965">
		<tag k="name" v="Markjordbærveien" />
		<tag k="ssr:date" v="2019-12-27" />
		<tag k="ssr:gruppe" v="veg" />
		<tag k="ssr:hovedgruppe" v="infrastruktur" />
		<tag k="ssr:stedsnr" v="1010129" />
		<tag k="ssr:type" v="adressenavn" />
	</node>
	<node lat="69.07060235249925" lon="18.676818134888116" id="-97966">
		<tag k="name" v="Myrefjellveien" />
		<tag k="ssr:date" v="2019-12-27" />
		<tag k="ssr:gruppe" v="veg" />
		<tag k="ssr:hovedgruppe" v="infrastruktur" />
		<tag k="ssr:stedsnr" v="1010131" />
		<tag k="ssr:type" v="adressenavn" />
	</node>
	<node lat="69.0778246271162" lon="18.54088171541715" id="-97967">
		<tag k="name" v="Slåtthaugveien" />
		<tag k="ssr:date" v="2019-12-27" />
		<tag k="ssr:gruppe" v="veg" />
		<tag k="ssr:hovedgruppe" v="infrastruktur" />
		<tag k="ssr:stedsnr" v="1010134" />
		<tag k="ssr:type" v="adressenavn" />
	</node>
	<node lat="69.04784130027775" lon="18.51169965429961" id="-97968">
		<tag k="name" v="Blokkveien" />
		<tag k="ssr:date" v="2019-12-27" />
		<tag k="ssr:gruppe" v="veg" />
		<tag k="ssr:hovedgruppe" v="infrastruktur" />
		<tag k="ssr:stedsnr" v="1010238" />
		<tag k="ssr:type" v="adressenavn" />
	</node>
	<node lat="69.04783808379125" lon="18.51067859214331" id="-97969">
		<tag k="name" v="Leif Rolstads vei" />
		<tag k="ssr:date" v="2019-12-27" />
		<tag k="ssr:gruppe" v="veg" />
		<tag k="ssr:hovedgruppe" v="infrastruktur" />
		<tag k="ssr:stedsnr" v="1010240" />
		<tag k="ssr:type" v="adressenavn" />
	</node>
	<node lat="69.04787217248816" lon="18.51601537059147" id="-97970">
		<tag k="name" v="Rabben" />
		<tag k="ssr:date" v="2019-12-27" />
		<tag k="ssr:gruppe" v="veg" />
		<tag k="ssr:hovedgruppe" v="infrastruktur" />
		<tag k="ssr:stedsnr" v="1010243" />
		<tag k="ssr:type" v="adressenavn" />
	</node>
	<node lat="69.02550144461154" lon="18.497164268321487" id="-97971">
		<tag k="name" v="Sundliveien" />
		<tag k="ssr:date" v="2019-12-27" />
		<tag k="ssr:gruppe" v="veg" />
		<tag k="ssr:hovedgruppe" v="infrastruktur" />
		<tag k="ssr:stedsnr" v="1010245" />
		<tag k="ssr:type" v="adressenavn" />
	</node>
	<node lat="69.03528979337646" lon="18.5088405995745" id="-97972">
		<tag k="name" v="Friluftsveien" />
		<tag k="ssr:date" v="2019-12-27" />
		<tag k="ssr:gruppe" v="veg" />
		<tag k="ssr:hovedgruppe" v="infrastruktur" />
		<tag k="ssr:stedsnr" v="1010247" />
		<tag k="ssr:type" v="adressenavn" />
	</node>
	<node lat="69.04388055441773" lon="18.511837772181096" id="-97973">
		<tag k="name" v="Kapellveien" />
		<tag k="ssr:date" v="2019-12-27" />
		<tag k="ssr:gruppe" v="veg" />
		<tag k="ssr:hovedgruppe" v="infrastruktur" />
		<tag k="ssr:stedsnr" v="1010248" />
		<tag k="ssr:type" v="adressenavn" />
	</node>
	<node lat="69.02826789309736" lon="18.50088570356276" id="-97974">
		<tag k="name" v="Sundlia Leir" />
		<tag k="ssr:date" v="2019-12-27" />
		<tag k="ssr:gruppe" v="veg" />
		<tag k="ssr:hovedgruppe" v="infrastruktur" />
		<tag k="ssr:stedsnr" v="1010250" />
		<tag k="ssr:type" v="adressenavn" />
	</node>
	<node lat="69.0628407501691" lon="18.509899559541783" id="-97975">
		<tag k="name" v="Steinhusveien" />
		<tag k="ssr:date" v="2019-12-27" />
		<tag k="ssr:gruppe" v="veg" />
		<tag k="ssr:hovedgruppe" v="infrastruktur" />
		<tag k="ssr:stedsnr" v="1010253" />
		<tag k="ssr:type" v="adressenavn" />
	</node>
	<node lat="69.06466583144508" lon="18.509626872445086" id="-97976">
		<tag k="name" v="Øvreveien" />
		<tag k="ssr:date" v="2019-12-27" />
		<tag k="ssr:gruppe" v="veg" />
		<tag k="ssr:hovedgruppe" v="infrastruktur" />
		<tag k="ssr:stedsnr" v="1010254" />
		<tag k="ssr:type" v="adressenavn" />
	</node>
	<node lat="69.06780861800752" lon="18.519719673222248" id="-97977">
		<tag k="name" v="Jørnlia" />
		<tag k="ssr:date" v="2019-12-27" />
		<tag k="ssr:gruppe" v="veg" />
		<tag k="ssr:hovedgruppe" v="infrastruktur" />
		<tag k="ssr:stedsnr" v="1010256" />
		<tag k="ssr:type" v="adressenavn" />
	</node>
	<node lat="69.0685973069292" lon="18.521109786528225" id="-97978">
		<tag k="name" v="St.Hansberget" />
		<tag k="ssr:date" v="2019-12-27" />
		<tag k="ssr:gruppe" v="veg" />
		<tag k="ssr:hovedgruppe" v="infrastruktur" />
		<tag k="ssr:stedsnr" v="1010259" />
		<tag k="ssr:type" v="adressenavn" />
	</node>
	<node lat="69.05451893595279" lon="18.48967572288817" id="-97979">
		<tag k="name" v="Ole Reistads vei" />
		<tag k="ssr:date" v="2019-12-27" />
		<tag k="ssr:gruppe" v="veg" />
		<tag k="ssr:hovedgruppe" v="infrastruktur" />
		<tag k="ssr:stedsnr" v="1010261" />
		<tag k="ssr:type" v="adressenavn" />
	</node>
	<node lat="69.0398469387173" lon="18.50891697179286" id="-97980">
		<tag k="name" v="General Fleischers vei" />
		<tag k="ssr:date" v="2019-12-27" />
		<tag k="ssr:gruppe" v="veg" />
		<tag k="ssr:hovedgruppe" v="infrastruktur" />
		<tag k="ssr:stedsnr" v="1010263" />
		<tag k="ssr:type" v="adressenavn" />
	</node>
	<node lat="69.0624671944973" lon="18.492280764942787" id="-97981">
		<tag k="name" v="Skytterveien" />
		<tag k="ssr:date" v="2019-12-27" />
		<tag k="ssr:gruppe" v="veg" />
		<tag k="ssr:hovedgruppe" v="infrastruktur" />
		<tag k="ssr:stedsnr" v="1010265" />
		<tag k="ssr:type" v="adressenavn" />
	</node>
	<node lat="69.0628492754847" lon="18.491873353624936" id="-97982">
		<tag k="name" v="Utsikten" />
		<tag k="ssr:date" v="2019-12-27" />
		<tag k="ssr:gruppe" v="veg" />
		<tag k="ssr:hovedgruppe" v="infrastruktur" />
		<tag k="ssr:stedsnr" v="1010267" />
		<tag k="ssr:type" v="adressenavn" />
	</node>
	<node lat="69.0422788950816" lon="18.503784640931567" id="-97983">
		<tag k="name" v="Tangenveien" />
		<tag k="ssr:date" v="2019-12-27" />
		<tag k="ssr:gruppe" v="veg" />
		<tag k="ssr:hovedgruppe" v="infrastruktur" />
		<tag k="ssr:stedsnr" v="1010269" />
		<tag k="ssr:type" v="adressenavn" />
	</node>
	<node lat="69.0438423090284" lon="18.50973548975253" id="-97984">
		<tag k="name" v="Tverrveien" />
		<tag k="ssr:date" v="2019-12-27" />
		<tag k="ssr:gruppe" v="veg" />
		<tag k="ssr:hovedgruppe" v="infrastruktur" />
		<tag k="ssr:stedsnr" v="1010272" />
		<tag k="ssr:type" v="adressenavn" />
	</node>
	<node lat="69.0418903005685" lon="18.50798497950504" id="-97985">
		<tag k="name" v="Lindgårdjordet" />
		<tag k="ssr:date" v="2019-12-27" />
		<tag k="ssr:gruppe" v="veg" />
		<tag k="ssr:hovedgruppe" v="infrastruktur" />
		<tag k="ssr:stedsnr" v="1010274" />
		<tag k="ssr:type" v="adressenavn" />
	</node>
	<node lat="69.12066688964222" lon="18.61784025072212" id="-97986">
		<tag k="name" v="Elgveien" />
		<tag k="ssr:date" v="2019-12-27" />
		<tag k="ssr:gruppe" v="veg" />
		<tag k="ssr:hovedgruppe" v="infrastruktur" />
		<tag k="ssr:stedsnr" v="1010210" />
		<tag k="ssr:type" v="adressenavn" />
	</node>
	<node lat="69.1225187595307" lon="18.616779641442506" id="-97987">
		<tag k="name" v="Tsjekkerveien" />
		<tag k="ssr:date" v="2019-12-27" />
		<tag k="ssr:gruppe" v="veg" />
		<tag k="ssr:hovedgruppe" v="infrastruktur" />
		<tag k="ssr:stedsnr" v="1010213" />
		<tag k="ssr:type" v="adressenavn" />
	</node>
	<node lat="69.14935118316008" lon="18.594115653099397" id="-97988">
		<tag k="name" v="Furusvingen" />
		<tag k="ssr:date" v="2019-12-27" />
		<tag k="ssr:gruppe" v="veg" />
		<tag k="ssr:hovedgruppe" v="infrastruktur" />
		<tag k="ssr:stedsnr" v="1010215" />
		<tag k="ssr:type" v="adressenavn" />
	</node>
	<node lat="69.14763937759801" lon="18.58811762918774" id="-97989">
		<tag k="name" v="Skoleveien" />
		<tag k="ssr:date" v="2019-12-27" />
		<tag k="ssr:gruppe" v="veg" />
		<tag k="ssr:hovedgruppe" v="infrastruktur" />
		<tag k="ssr:stedsnr" v="1010217" />
		<tag k="ssr:type" v="adressenavn" />
	</node>
	<node lat="69.1404627300093" lon="18.606230243836485" id="-97990">
		<tag k="name" v="Reiersbakken" />
		<tag k="ssr:date" v="2019-12-27" />
		<tag k="ssr:gruppe" v="veg" />
		<tag k="ssr:hovedgruppe" v="infrastruktur" />
		<tag k="ssr:stedsnr" v="1010220" />
		<tag k="ssr:type" v="adressenavn" />
	</node>
	<node lat="69.14014059965784" lon="18.60253392530211" id="-97991">
		<tag k="name" v="Trollbakken" />
		<tag k="ssr:date" v="2019-12-27" />
		<tag k="ssr:gruppe" v="veg" />
		<tag k="ssr:hovedgruppe" v="infrastruktur" />
		<tag k="ssr:stedsnr" v="1010222" />
		<tag k="ssr:type" v="adressenavn" />
	</node>
	<node lat="69.04670478521523" lon="18.500042968639715" id="-97992">
		<tag k="name" v="Røstveien" />
		<tag k="ssr:date" v="2019-12-27" />
		<tag k="ssr:gruppe" v="veg" />
		<tag k="ssr:hovedgruppe" v="infrastruktur" />
		<tag k="ssr:stedsnr" v="1010224" />
		<tag k="ssr:type" v="adressenavn" />
	</node>
	<node lat="69.04774244815206" lon="18.49650738063171" id="-97993">
		<tag k="name" v="Rustabakken" />
		<tag k="ssr:date" v="2019-12-27" />
		<tag k="ssr:gruppe" v="veg" />
		<tag k="ssr:hovedgruppe" v="infrastruktur" />
		<tag k="ssr:stedsnr" v="1010226" />
		<tag k="ssr:type" v="adressenavn" />
	</node>
	<node lat="69.04135781553086" lon="18.50788955563396" id="-97994">
		<tag k="name" v="Liveien" />
		<tag k="ssr:date" v="2019-12-27" />
		<tag k="ssr:gruppe" v="veg" />
		<tag k="ssr:hovedgruppe" v="infrastruktur" />
		<tag k="ssr:stedsnr" v="1010228" />
		<tag k="ssr:type" v="adressenavn" />
	</node>
	<node lat="69.04870291248527" lon="18.49265805603715" id="-97995">
		<tag k="name" v="Beretveien" />
		<tag k="ssr:date" v="2019-12-27" />
		<tag k="ssr:gruppe" v="veg" />
		<tag k="ssr:hovedgruppe" v="infrastruktur" />
		<tag k="ssr:stedsnr" v="1010230" />
		<tag k="ssr:type" v="adressenavn" />
	</node>
	<node lat="69.04742365423553" lon="18.507176059489474" id="-97996">
		<tag k="name" v="Ole A Rustens vei" />
		<tag k="ssr:date" v="2019-12-27" />
		<tag k="ssr:gruppe" v="veg" />
		<tag k="ssr:hovedgruppe" v="infrastruktur" />
		<tag k="ssr:stedsnr" v="1010233" />
		<tag k="ssr:type" v="adressenavn" />
	</node>
	<node lat="69.04143306002051" lon="18.507622873116816" id="-97997">
		<tag k="name" v="Rustaveien" />
		<tag k="ssr:date" v="2019-12-27" />
		<tag k="ssr:gruppe" v="veg" />
		<tag k="ssr:hovedgruppe" v="infrastruktur" />
		<tag k="ssr:stedsnr" v="1010235" />
		<tag k="ssr:type" v="adressenavn" />
	</node>
	<node lat="69.08964093825801" lon="18.577097558347475" id="-97998">
		<tag k="name" v="Furuveien" />
		<tag k="ssr:date" v="2019-12-27" />
		<tag k="ssr:gruppe" v="veg" />
		<tag k="ssr:hovedgruppe" v="infrastruktur" />
		<tag k="ssr:stedsnr" v="1010286" />
		<tag k="ssr:type" v="adressenavn" />
	</node>
	<node lat="69.09040391725533" lon="18.579485184799857" id="-97999">
		<tag k="name" v="Bjørkveien" />
		<tag k="ssr:date" v="2019-12-27" />
		<tag k="ssr:gruppe" v="veg" />
		<tag k="ssr:hovedgruppe" v="infrastruktur" />
		<tag k="ssr:stedsnr" v="1010289" />
		<tag k="ssr:type" v="adressenavn" />
	</node>
	<node lat="69.09033839914451" lon="18.585888538767335" id="-98000">
		<tag k="name" v="Industriveien" />
		<tag k="ssr:date" v="2019-12-27" />
		<tag k="ssr:gruppe" v="veg" />
		<tag k="ssr:hovedgruppe" v="infrastruktur" />
		<tag k="ssr:stedsnr" v="1010291" />
		<tag k="ssr:type" v="adressenavn" />
	</node>
	<node lat="69.09033839914451" lon="18.585888538767335" id="-98001">
		<tag k="name" v="Haraldvollveien" />
		<tag k="ssr:date" v="2019-12-27" />
		<tag k="ssr:gruppe" v="veg" />
		<tag k="ssr:hovedgruppe" v="infrastruktur" />
		<tag k="ssr:stedsnr" v="1010294" />
		<tag k="ssr:type" v="adressenavn" />
	</node>
	<node lat="69.08688702170784" lon="18.573406958223135" id="-98002">
		<tag k="name" v="Myrveien" />
		<tag k="ssr:date" v="2019-12-27" />
		<tag k="ssr:gruppe" v="veg" />
		<tag k="ssr:hovedgruppe" v="infrastruktur" />
		<tag k="ssr:stedsnr" v="1010297" />
		<tag k="ssr:type" v="adressenavn" />
	</node>
	<node lat="69.08482703180375" lon="18.574254578477444" id="-98003">
		<tag k="name" v="Nordliveien" />
		<tag k="ssr:date" v="2019-12-27" />
		<tag k="ssr:gruppe" v="veg" />
		<tag k="ssr:hovedgruppe" v="infrastruktur" />
		<tag k="ssr:stedsnr" v="1010299" />
		<tag k="ssr:type" v="adressenavn" />
	</node>
	<node lat="69.09045536884125" lon="18.58196771653136" id="-98004">
		<tag k="name" v="Fjellveien" />
		<tag k="ssr:date" v="2019-12-27" />
		<tag k="ssr:gruppe" v="veg" />
		<tag k="ssr:hovedgruppe" v="infrastruktur" />
		<tag k="ssr:stedsnr" v="1010302" />
		<tag k="ssr:type" v="adressenavn" />
	</node>
	<node lat="69.0717284958643" lon="18.52763712211346" id="-98005">
		<tag k="name" v="Krokbekkveien" />
		<tag k="ssr:date" v="2019-12-27" />
		<tag k="ssr:gruppe" v="veg" />
		<tag k="ssr:hovedgruppe" v="infrastruktur" />
		<tag k="ssr:stedsnr" v="1010304" />
		<tag k="ssr:type" v="adressenavn" />
	</node>
	<node lat="69.07155352055874" lon="18.52880719528265" id="-98006">
		<tag k="name" v="Lasse Olsens vei" />
		<tag k="ssr:date" v="2019-12-27" />
		<tag k="ssr:gruppe" v="veg" />
		<tag k="ssr:hovedgruppe" v="infrastruktur" />
		<tag k="ssr:stedsnr" v="1010306" />
		<tag k="ssr:type" v="adressenavn" />
	</node>
	<node lat="69.08356638933763" lon="18.57428248001097" id="-98007">
		<tag k="name" v="Heimdalveien" />
		<tag k="ssr:date" v="2019-12-27" />
		<tag k="ssr:gruppe" v="veg" />
		<tag k="ssr:hovedgruppe" v="infrastruktur" />
		<tag k="ssr:stedsnr" v="1010308" />
		<tag k="ssr:type" v="adressenavn" />
	</node>
	<node lat="69.0722532414717" lon="18.525961627828078" id="-98008">
		<tag k="name" v="Rønning Tollefsens vei" />
		<tag k="ssr:date" v="2019-12-27" />
		<tag k="ssr:gruppe" v="veg" />
		<tag k="ssr:hovedgruppe" v="infrastruktur" />
		<tag k="ssr:stedsnr" v="1010310" />
		<tag k="ssr:type" v="adressenavn" />
	</node>
	<node lat="69.0678415664067" lon="18.522093431644546" id="-98009">
		<tag k="name" v="Skogbruksveien" />
		<tag k="ssr:date" v="2019-12-27" />
		<tag k="ssr:gruppe" v="veg" />
		<tag k="ssr:hovedgruppe" v="infrastruktur" />
		<tag k="ssr:stedsnr" v="1010312" />
		<tag k="ssr:type" v="adressenavn" />
	</node>
	<node lat="69.07122903883925" lon="18.524456845783337" id="-98010">
		<tag k="name" v="Parkveien" />
		<tag k="ssr:date" v="2019-12-27" />
		<tag k="ssr:gruppe" v="veg" />
		<tag k="ssr:hovedgruppe" v="infrastruktur" />
		<tag k="ssr:stedsnr" v="1010315" />
		<tag k="ssr:type" v="adressenavn" />
	</node>
	<node lat="69.06992668147898" lon="18.523327962705462" id="-98011">
		<tag k="name" v="Venstad" />
		<tag k="ssr:date" v="2019-12-27" />
		<tag k="ssr:gruppe" v="veg" />
		<tag k="ssr:hovedgruppe" v="infrastruktur" />
		<tag k="ssr:stedsnr" v="1010317" />
		<tag k="ssr:type" v="adressenavn" />
	</node>
	<node lat="69.04197579954023" lon="18.505166154548007" id="-98012">
		<tag k="name" v="Mellomveien" />
		<tag k="ssr:date" v="2019-12-27" />
		<tag k="ssr:gruppe" v="veg" />
		<tag k="ssr:hovedgruppe" v="infrastruktur" />
		<tag k="ssr:stedsnr" v="1010276" />
		<tag k="ssr:type" v="adressenavn" />
	</node>
	<node lat="69.04657298606881" lon="18.504799861288504" id="-98013">
		<tag k="name" v="Bobakks vei" />
		<tag k="ssr:date" v="2019-12-27" />
		<tag k="ssr:gruppe" v="veg" />
		<tag k="ssr:hovedgruppe" v="infrastruktur" />
		<tag k="ssr:stedsnr" v="1010278" />
		<tag k="ssr:type" v="adressenavn" />
	</node>
	<node lat="69.04638634987143" lon="18.49857447369056" id="-98014">
		<tag k="name" v="Skogveien" />
		<tag k="ssr:date" v="2019-12-27" />
		<tag k="ssr:gruppe" v="veg" />
		<tag k="ssr:hovedgruppe" v="infrastruktur" />
		<tag k="ssr:stedsnr" v="1010280" />
		<tag k="ssr:type" v="adressenavn" />
	</node>
	<node lat="69.04394595137494" lon="18.50698329166522" id="-98015">
		<tag k="name" v="Engveien" />
		<tag k="ssr:date" v="2019-12-27" />
		<tag k="ssr:gruppe" v="veg" />
		<tag k="ssr:hovedgruppe" v="infrastruktur" />
		<tag k="ssr:stedsnr" v="1010282" />
		<tag k="ssr:type" v="adressenavn" />
	</node>
	<node lat="69.04567378957164" lon="18.505797782224207" id="-98016">
		<tag k="name" v="Olderveien" />
		<tag k="ssr:date" v="2019-12-27" />
		<tag k="ssr:gruppe" v="veg" />
		<tag k="ssr:hovedgruppe" v="infrastruktur" />
		<tag k="ssr:stedsnr" v="1010284" />
		<tag k="ssr:type" v="adressenavn" />
	</node>
	<node lat="69.04927648345942" lon="18.625526103297265" id="-98017">
		<tag k="name" v="Storhaugen" />
		<tag k="ssr:date" v="2019-12-27" />
		<tag k="ssr:gruppe" v="veg" />
		<tag k="ssr:hovedgruppe" v="infrastruktur" />
		<tag k="ssr:stedsnr" v="1010403" />
		<tag k="ssr:type" v="adressenavn" />
	</node>
	<node lat="69.07876323344631" lon="18.64588169642968" id="-98018">
		<tag k="name" v="Brandskognesveien" />
		<tag k="ssr:date" v="2019-12-27" />
		<tag k="ssr:gruppe" v="veg" />
		<tag k="ssr:hovedgruppe" v="infrastruktur" />
		<tag k="ssr:stedsnr" v="1010405" />
		<tag k="ssr:type" v="adressenavn" />
	</node>
	<node lat="68.96908118449454" lon="18.926605682512516" id="-98019">
		<tag k="name" v="Iselvmoveien" />
		<tag k="ssr:date" v="2019-12-27" />
		<tag k="ssr:gruppe" v="veg" />
		<tag k="ssr:hovedgruppe" v="infrastruktur" />
		<tag k="ssr:stedsnr" v="1010407" />
		<tag k="ssr:type" v="adressenavn" />
	</node>
	<node lat="68.96895323656125" lon="18.92450935462061" id="-98020">
		<tag k="name" v="Rønninglia" />
		<tag k="ssr:date" v="2019-12-27" />
		<tag k="ssr:gruppe" v="veg" />
		<tag k="ssr:hovedgruppe" v="infrastruktur" />
		<tag k="ssr:stedsnr" v="1010409" />
		<tag k="ssr:type" v="adressenavn" />
	</node>
	<node lat="69.0608402444005" lon="18.462788992133184" id="-98021">
		<tag k="name" v="Sørhusveien" />
		<tag k="ssr:date" v="2019-12-27" />
		<tag k="ssr:gruppe" v="veg" />
		<tag k="ssr:hovedgruppe" v="infrastruktur" />
		<tag k="ssr:stedsnr" v="1010411" />
		<tag k="ssr:type" v="adressenavn" />
	</node>
	<node lat="69.11310429173608" lon="18.8975965778935" id="-98022">
		<tag k="name" v="Skarelvveien" />
		<tag k="ssr:date" v="2019-12-27" />
		<tag k="ssr:gruppe" v="veg" />
		<tag k="ssr:hovedgruppe" v="infrastruktur" />
		<tag k="ssr:stedsnr" v="1010413" />
		<tag k="ssr:type" v="adressenavn" />
	</node>
	<node lat="69.00715347306648" lon="18.805865955153976" id="-98023">
		<tag k="name" v="Elverum" />
		<tag k="ssr:date" v="2019-12-27" />
		<tag k="ssr:gruppe" v="veg" />
		<tag k="ssr:hovedgruppe" v="infrastruktur" />
		<tag k="ssr:stedsnr" v="1010415" />
		<tag k="ssr:type" v="adressenavn" />
	</node>
	<node lat="69.02201850832553" lon="18.71894421677664" id="-98024">
		<tag k="name" v="Grøtte" />
		<tag k="ssr:date" v="2019-12-27" />
		<tag k="ssr:gruppe" v="veg" />
		<tag k="ssr:hovedgruppe" v="infrastruktur" />
		<tag k="ssr:stedsnr" v="1010417" />
		<tag k="ssr:type" v="adressenavn" />
	</node>
	<node lat="69.11136307001756" lon="18.863914008274097" id="-98025">
		<tag k="name" v="Roliveien" />
		<tag k="ssr:date" v="2019-12-27" />
		<tag k="ssr:gruppe" v="veg" />
		<tag k="ssr:hovedgruppe" v="infrastruktur" />
		<tag k="ssr:stedsnr" v="1010419" />
		<tag k="ssr:type" v="adressenavn" />
	</node>
	<node lat="69.14557730585493" lon="18.63487248298756" id="-98026">
		<tag k="name" v="Sollia" />
		<tag k="ssr:date" v="2019-12-27" />
		<tag k="ssr:gruppe" v="veg" />
		<tag k="ssr:hovedgruppe" v="infrastruktur" />
		<tag k="ssr:stedsnr" v="1010421" />
		<tag k="ssr:type" v="adressenavn" />
	</node>
	<node lat="69.11191191951619" lon="18.880992661510746" id="-98027">
		<tag k="name" v="Tverrelvveien" />
		<tag k="ssr:date" v="2019-12-27" />
		<tag k="ssr:gruppe" v="veg" />
		<tag k="ssr:hovedgruppe" v="infrastruktur" />
		<tag k="ssr:stedsnr" v="1010423" />
		<tag k="ssr:type" v="adressenavn" />
	</node>
	<node lat="69.10577100158207" lon="18.88403980359494" id="-98028">
		<tag k="name" v="Kaldbekkveien" />
		<tag k="ssr:date" v="2019-12-27" />
		<tag k="ssr:gruppe" v="veg" />
		<tag k="ssr:hovedgruppe" v="infrastruktur" />
		<tag k="ssr:stedsnr" v="1010425" />
		<tag k="ssr:type" v="adressenavn" />
	</node>
	<node lat="69.2524843336861" lon="18.685873501755925" id="-98029">
		<tag k="name" v="Keianesveien" />
		<tag k="ssr:date" v="2019-12-27" />
		<tag k="ssr:gruppe" v="veg" />
		<tag k="ssr:hovedgruppe" v="infrastruktur" />
		<tag k="ssr:stedsnr" v="1010426" />
		<tag k="ssr:type" v="adressenavn" />
	</node>
	<node lat="69.00924656936725" lon="18.974251269763847" id="-98030">
		<tag k="name" v="Stenslandveien" />
		<tag k="ssr:date" v="2019-12-27" />
		<tag k="ssr:gruppe" v="veg" />
		<tag k="ssr:hovedgruppe" v="infrastruktur" />
		<tag k="ssr:stedsnr" v="1010427" />
		<tag k="ssr:type" v="adressenavn" />
	</node>
	<node lat="69.14442698989092" lon="18.594228293339814" id="-98031">
		<tag k="name" v="Høgtunveien" />
		<tag k="ssr:date" v="2019-12-27" />
		<tag k="ssr:gruppe" v="veg" />
		<tag k="ssr:hovedgruppe" v="infrastruktur" />
		<tag k="ssr:stedsnr" v="1010429" />
		<tag k="ssr:type" v="adressenavn" />
	</node>
	<node lat="69.21432637312908" lon="18.67593293884141" id="-98032">
		<tag k="name" v="Mårtindveien" />
		<tag k="ssr:date" v="2019-12-27" />
		<tag k="ssr:gruppe" v="veg" />
		<tag k="ssr:hovedgruppe" v="infrastruktur" />
		<tag k="ssr:stedsnr" v="1010431" />
		<tag k="ssr:type" v="adressenavn" />
	</node>
	<node lat="69.17908332435353" lon="18.46163094651684" id="-98033">
		<tag k="name" v="Myra" />
		<tag k="ssr:date" v="2019-12-27" />
		<tag k="ssr:gruppe" v="veg" />
		<tag k="ssr:hovedgruppe" v="infrastruktur" />
		<tag k="ssr:stedsnr" v="1010487" />
		<tag k="ssr:type" v="adressenavn" />
	</node>
	<node lat="69.1840533441745" lon="18.44745272350795" id="-98034">
		<tag k="name" v="Møllerhaugveien" />
		<tag k="ssr:date" v="2019-12-27" />
		<tag k="ssr:gruppe" v="veg" />
		<tag k="ssr:hovedgruppe" v="infrastruktur" />
		<tag k="ssr:stedsnr" v="1010488" />
		<tag k="ssr:type" v="adressenavn" />
	</node>
	<node lat="69.2133789189819" lon="18.470078820221072" id="-98035">
		<tag k="name" v="Kjerresnesveien" />
		<tag k="ssr:date" v="2019-12-27" />
		<tag k="ssr:gruppe" v="veg" />
		<tag k="ssr:hovedgruppe" v="infrastruktur" />
		<tag k="ssr:stedsnr" v="1010489" />
		<tag k="ssr:type" v="adressenavn" />
	</node>
	<node lat="69.209363597815" lon="18.468362714674033" id="-98036">
		<tag k="name" v="Solvangveien" />
		<tag k="ssr:date" v="2019-12-27" />
		<tag k="ssr:gruppe" v="veg" />
		<tag k="ssr:hovedgruppe" v="infrastruktur" />
		<tag k="ssr:stedsnr" v="1010490" />
		<tag k="ssr:type" v="adressenavn" />
	</node>
	<node lat="69.07647109743378" lon="18.525450568144127" id="-98037">
		<tag k="name" v="Fjellvåkveien" />
		<tag k="old_name" v="Vei 1218" />
		<tag k="ssr:date" v="2019-12-27" />
		<tag k="ssr:gruppe" v="veg" />
		<tag k="ssr:hovedgruppe" v="infrastruktur" />
		<tag k="ssr:stedsnr" v="1010437" />
		<tag k="ssr:type" v="adressenavn" />
	</node>
	<node lat="69.02329153713814" lon="18.871862202028282" id="-98038">
		<tag k="name" v="Gaustadveien" />
		<tag k="ssr:date" v="2019-12-27" />
		<tag k="ssr:gruppe" v="veg" />
		<tag k="ssr:hovedgruppe" v="infrastruktur" />
		<tag k="ssr:stedsnr" v="1010439" />
		<tag k="ssr:type" v="adressenavn" />
	</node>
	<node lat="69.07780170977868" lon="18.525912565735993" id="-98039">
		<tag k="name" v="Orrfuglveien" />
		<tag k="old_name" v="Vei 1219" />
		<tag k="ssr:date" v="2019-12-27" />
		<tag k="ssr:gruppe" v="veg" />
		<tag k="ssr:hovedgruppe" v="infrastruktur" />
		<tag k="ssr:stedsnr" v="1010442" />
		<tag k="ssr:type" v="adressenavn" />
	</node>
	<node lat="68.97032387788975" lon="19.651650311877834" id="-98040">
		<tag k="name" v="Innsetveien" />
		<tag k="ssr:date" v="2019-12-27" />
		<tag k="ssr:gruppe" v="veg" />
		<tag k="ssr:hovedgruppe" v="infrastruktur" />
		<tag k="ssr:stedsnr" v="1010444" />
		<tag k="ssr:type" v="adressenavn" />
	</node>
	<node lat="69.02189273540198" lon="19.446930105191438" id="-98041">
		<tag k="name" v="Kongsliveien" />
		<tag k="ssr:date" v="2019-12-27" />
		<tag k="ssr:gruppe" v="veg" />
		<tag k="ssr:hovedgruppe" v="infrastruktur" />
		<tag k="ssr:stedsnr" v="1010446" />
		<tag k="ssr:type" v="adressenavn" />
	</node>
	<node lat="68.93890377577088" lon="19.50882794687632" id="-98042">
		<tag k="name" v="Sørliveien" />
		<tag k="ssr:date" v="2019-12-27" />
		<tag k="ssr:gruppe" v="veg" />
		<tag k="ssr:hovedgruppe" v="infrastruktur" />
		<tag k="ssr:stedsnr" v="1010449" />
		<tag k="ssr:type" v="adressenavn" />
	</node>
	<node lat="68.9793360907067" lon="19.47718689747107" id="-98043">
		<tag k="name" v="Ulebergveien" />
		<tag k="ssr:date" v="2019-12-27" />
		<tag k="ssr:gruppe" v="veg" />
		<tag k="ssr:hovedgruppe" v="infrastruktur" />
		<tag k="ssr:stedsnr" v="1010451" />
		<tag k="ssr:type" v="adressenavn" />
	</node>
	<node lat="69.00215329635844" lon="18.970896461510304" id="-98044">
		<tag k="name" v="Evenmoveien" />
		<tag k="ssr:date" v="2019-12-27" />
		<tag k="ssr:gruppe" v="veg" />
		<tag k="ssr:hovedgruppe" v="infrastruktur" />
		<tag k="ssr:stedsnr" v="1010453" />
		<tag k="ssr:type" v="adressenavn" />
	</node>
	<node lat="68.88185808239216" lon="19.068411724186525" id="-98045">
		<tag k="name" v="Jensvollveien" />
		<tag k="ssr:date" v="2019-12-27" />
		<tag k="ssr:gruppe" v="veg" />
		<tag k="ssr:hovedgruppe" v="infrastruktur" />
		<tag k="ssr:stedsnr" v="1010455" />
		<tag k="ssr:type" v="adressenavn" />
	</node>
	<node lat="69.01725376762629" lon="19.351402974050746" id="-98046">
		<tag k="name" v="Vårtunveien" />
		<tag k="ssr:date" v="2019-12-27" />
		<tag k="ssr:gruppe" v="veg" />
		<tag k="ssr:hovedgruppe" v="infrastruktur" />
		<tag k="ssr:stedsnr" v="1010457" />
		<tag k="ssr:type" v="adressenavn" />
	</node>
	<node lat="68.99610659751998" lon="18.907526509645855" id="-98047">
		<tag k="name" v="Alapmoveien" />
		<tag k="ssr:date" v="2019-12-27" />
		<tag k="ssr:gruppe" v="veg" />
		<tag k="ssr:hovedgruppe" v="infrastruktur" />
		<tag k="ssr:stedsnr" v="1010459" />
		<tag k="ssr:type" v="adressenavn" />
	</node>
	<node lat="69.13290752868079" lon="18.58025822750096" id="-98048">
		<tag k="name" v="Karlstadveien" />
		<tag k="ssr:date" v="2019-12-27" />
		<tag k="ssr:gruppe" v="veg" />
		<tag k="ssr:hovedgruppe" v="infrastruktur" />
		<tag k="ssr:stedsnr" v="1010491" />
		<tag k="ssr:type" v="adressenavn" />
	</node>
	<node lat="69.10008751496888" lon="18.606899778055144" id="-98049">
		<tag k="name" v="Fleskmoveien" />
		<tag k="ssr:date" v="2019-12-27" />
		<tag k="ssr:gruppe" v="veg" />
		<tag k="ssr:hovedgruppe" v="infrastruktur" />
		<tag k="ssr:stedsnr" v="1010492" />
		<tag k="ssr:type" v="adressenavn" />
	</node>
	<node lat="69.17731435627708" lon="18.518241739903193" id="-98050">
		<tag k="name" v="Engsetveien" />
		<tag k="ssr:date" v="2019-12-27" />
		<tag k="ssr:gruppe" v="veg" />
		<tag k="ssr:hovedgruppe" v="infrastruktur" />
		<tag k="ssr:stedsnr" v="1010493" />
		<tag k="ssr:type" v="adressenavn" />
	</node>
	<node lat="69.166890411263" lon="18.519515884585662" id="-98051">
		<tag k="name" v="Lamoveien" />
		<tag k="ssr:date" v="2019-12-27" />
		<tag k="ssr:gruppe" v="veg" />
		<tag k="ssr:hovedgruppe" v="infrastruktur" />
		<tag k="ssr:stedsnr" v="1010494" />
		<tag k="ssr:type" v="adressenavn" />
	</node>
	<node lat="68.8890220850696" lon="19.059835963045675" id="-98052">
		<tag k="name" v="Kirkesdalsveien" />
		<tag k="ssr:date" v="2019-12-27" />
		<tag k="ssr:gruppe" v="veg" />
		<tag k="ssr:hovedgruppe" v="infrastruktur" />
		<tag k="ssr:stedsnr" v="1010495" />
		<tag k="ssr:type" v="adressenavn" />
	</node>
	<node lat="69.01210957050685" lon="18.671838179459" id="-98053">
		<tag k="name" v="Målselvfossveien" />
		<tag k="ssr:date" v="2019-12-27" />
		<tag k="ssr:gruppe" v="veg" />
		<tag k="ssr:hovedgruppe" v="infrastruktur" />
		<tag k="ssr:stedsnr" v="1010496" />
		<tag k="ssr:type" v="adressenavn" />
	</node>
	<node lat="69.06470727073626" lon="18.516116047908653" id="-98054">
		<tag k="name" v="Målselvveien" />
		<tag k="ssr:date" v="2019-12-27" />
		<tag k="ssr:gruppe" v="veg" />
		<tag k="ssr:hovedgruppe" v="infrastruktur" />
		<tag k="ssr:stedsnr" v="1010497" />
		<tag k="ssr:type" v="adressenavn" />
	</node>
	<node lat="69.0064624852355" lon="19.278937141048775" id="-98055">
		<tag k="name" v="Skjærhaugveien" />
		<tag k="ssr:date" v="2019-12-27" />
		<tag k="ssr:gruppe" v="veg" />
		<tag k="ssr:hovedgruppe" v="infrastruktur" />
		<tag k="ssr:stedsnr" v="1010498" />
		<tag k="ssr:type" v="adressenavn" />
	</node>
	<node lat="69.01628937760115" lon="19.348996356173625" id="-98056">
		<tag k="name" v="Holtveien" />
		<tag k="ssr:date" v="2019-12-27" />
		<tag k="ssr:gruppe" v="veg" />
		<tag k="ssr:hovedgruppe" v="infrastruktur" />
		<tag k="ssr:stedsnr" v="1010499" />
		<tag k="ssr:type" v="adressenavn" />
	</node>
	<node lat="69.02625384242583" lon="19.301194422637522" id="-98057">
		<tag k="name" v="Kløvsvingen" />
		<tag k="ssr:date" v="2019-12-27" />
		<tag k="ssr:gruppe" v="veg" />
		<tag k="ssr:hovedgruppe" v="infrastruktur" />
		<tag k="ssr:stedsnr" v="1010500" />
		<tag k="ssr:type" v="adressenavn" />
	</node>
	<node lat="68.93360053189087" lon="19.50504448034982" id="-98058">
		<tag k="name" v="Dividalsveien" />
		<tag k="ssr:date" v="2019-12-27" />
		<tag k="ssr:gruppe" v="veg" />
		<tag k="ssr:hovedgruppe" v="infrastruktur" />
		<tag k="ssr:stedsnr" v="1010501" />
		<tag k="ssr:type" v="adressenavn" />
	</node>
	<node lat="69.02088931243" lon="19.30800919678933" id="-98059">
		<tag k="name" v="Bjørkengveien" />
		<tag k="ssr:date" v="2019-12-27" />
		<tag k="ssr:gruppe" v="veg" />
		<tag k="ssr:hovedgruppe" v="infrastruktur" />
		<tag k="ssr:stedsnr" v="1010502" />
		<tag k="ssr:type" v="adressenavn" />
	</node>
	<node lat="68.9935073200125" lon="19.185028675506736" id="-98060">
		<tag k="name" v="Øverbygdveien" />
		<tag k="ssr:date" v="2019-12-27" />
		<tag k="ssr:gruppe" v="veg" />
		<tag k="ssr:hovedgruppe" v="infrastruktur" />
		<tag k="ssr:stedsnr" v="1010503" />
		<tag k="ssr:type" v="adressenavn" />
	</node>
	<node lat="69.02009651603768" lon="18.898727140818156" id="-98061">
		<tag k="name" v="Sandkjosveien" />
		<tag k="ssr:date" v="2019-12-27" />
		<tag k="ssr:gruppe" v="veg" />
		<tag k="ssr:hovedgruppe" v="infrastruktur" />
		<tag k="ssr:stedsnr" v="1010504" />
		<tag k="ssr:type" v="adressenavn" />
	</node>
	<node lat="69.02476076488125" lon="19.29633969105921" id="-98062">
		<tag k="name" v="Tomas Tomassens vei" />
		<tag k="ssr:date" v="2019-12-27" />
		<tag k="ssr:gruppe" v="veg" />
		<tag k="ssr:hovedgruppe" v="infrastruktur" />
		<tag k="ssr:stedsnr" v="1010505" />
		<tag k="ssr:type" v="adressenavn" />
	</node>
	<node lat="69.04184522649646" lon="19.290791495684456" id="-98063">
		<tag k="name" v="Takvassveien" />
		<tag k="ssr:date" v="2019-12-27" />
		<tag k="ssr:gruppe" v="veg" />
		<tag k="ssr:hovedgruppe" v="infrastruktur" />
		<tag k="ssr:stedsnr" v="1010506" />
		<tag k="ssr:type" v="adressenavn" />
	</node>
	<node lat="69.1313360864088" lon="18.611818274853835" id="-98064">
		<tag k="name" v="Mølleveien" />
		<tag k="ssr:date" v="2019-12-27" />
		<tag k="ssr:gruppe" v="veg" />
		<tag k="ssr:hovedgruppe" v="infrastruktur" />
		<tag k="ssr:stedsnr" v="1010507" />
		<tag k="ssr:type" v="adressenavn" />
	</node>
	<node lat="69.13632704504609" lon="18.609810986193022" id="-98065">
		<tag k="name" v="Moastøa" />
		<tag k="ssr:date" v="2019-12-27" />
		<tag k="ssr:gruppe" v="veg" />
		<tag k="ssr:hovedgruppe" v="infrastruktur" />
		<tag k="ssr:stedsnr" v="1010508" />
		<tag k="ssr:type" v="adressenavn" />
	</node>
	<node lat="69.03509784616567" lon="18.73650151812725" id="-98066">
		<tag k="name" v="Nesveien" />
		<tag k="ssr:date" v="2019-12-27" />
		<tag k="ssr:gruppe" v="veg" />
		<tag k="ssr:hovedgruppe" v="infrastruktur" />
		<tag k="ssr:stedsnr" v="1010509" />
		<tag k="ssr:type" v="adressenavn" />
	</node>
	<node lat="69.1257889566502" lon="18.61490927047445" id="-98067">
		<tag k="name" v="Sletta" />
		<tag k="ssr:date" v="2019-12-27" />
		<tag k="ssr:gruppe" v="veg" />
		<tag k="ssr:hovedgruppe" v="infrastruktur" />
		<tag k="ssr:stedsnr" v="1010510" />
		<tag k="ssr:type" v="adressenavn" />
	</node>
	<node lat="69.13899712839658" lon="18.59520886853035" id="-98068">
		<tag k="name" v="Bukta" />
		<tag k="ssr:date" v="2019-12-27" />
		<tag k="ssr:gruppe" v="veg" />
		<tag k="ssr:hovedgruppe" v="infrastruktur" />
		<tag k="ssr:stedsnr" v="1010512" />
		<tag k="ssr:type" v="adressenavn" />
	</node>
	<node lat="69.22479020951631" lon="18.283779771249993" id="-98069">
		<tag k="name" v="Rundmoveien" />
		<tag k="ssr:date" v="2019-12-27" />
		<tag k="ssr:gruppe" v="veg" />
		<tag k="ssr:hovedgruppe" v="infrastruktur" />
		<tag k="ssr:stedsnr" v="1010513" />
		<tag k="ssr:type" v="adressenavn" />
	</node>
	<node lat="69.13957842348952" lon="18.603901743563767" id="-98070">
		<tag k="name" v="Elvenes" />
		<tag k="ssr:date" v="2019-12-27" />
		<tag k="ssr:gruppe" v="veg" />
		<tag k="ssr:hovedgruppe" v="infrastruktur" />
		<tag k="ssr:stedsnr" v="1010514" />
		<tag k="ssr:type" v="adressenavn" />
	</node>
	<node lat="69.02012330996475" lon="18.898253326636468" id="-98071">
		<tag k="name" v="Mellombygdveien" />
		<tag k="ssr:date" v="2019-12-27" />
		<tag k="ssr:gruppe" v="veg" />
		<tag k="ssr:hovedgruppe" v="infrastruktur" />
		<tag k="ssr:stedsnr" v="1010515" />
		<tag k="ssr:type" v="adressenavn" />
	</node>
	<node lat="69.31909000824236" lon="18.56542092342455" id="-98072">
		<tag k="name" v="Navaren" />
		<tag k="ssr:date" v="2019-12-27" />
		<tag k="ssr:gruppe" v="veg" />
		<tag k="ssr:hovedgruppe" v="infrastruktur" />
		<tag k="ssr:stedsnr" v="1010516" />
		<tag k="ssr:type" v="adressenavn" />
	</node>
	<node lat="69.32293599390272" lon="18.544588438804922" id="-98073">
		<tag k="name" v="Eideveien" />
		<tag k="ssr:date" v="2019-12-27" />
		<tag k="ssr:gruppe" v="veg" />
		<tag k="ssr:hovedgruppe" v="infrastruktur" />
		<tag k="ssr:stedsnr" v="1010517" />
		<tag k="ssr:type" v="adressenavn" />
	</node>
	<node lat="69.1468333629563" lon="18.628327660535682" id="-98074">
		<tag k="name" v="Solheimveien" />
		<tag k="ssr:date" v="2019-12-27" />
		<tag k="ssr:gruppe" v="veg" />
		<tag k="ssr:hovedgruppe" v="infrastruktur" />
		<tag k="ssr:stedsnr" v="1010518" />
		<tag k="ssr:type" v="adressenavn" />
	</node>
	<node lat="69.22750871976078" lon="18.469059073733035" id="-98075">
		<tag k="name" v="Soltunveien" />
		<tag k="ssr:date" v="2019-12-27" />
		<tag k="ssr:gruppe" v="veg" />
		<tag k="ssr:hovedgruppe" v="infrastruktur" />
		<tag k="ssr:stedsnr" v="1010519" />
		<tag k="ssr:type" v="adressenavn" />
	</node>
	<node lat="69.25235644578699" lon="18.691797726089053" id="-98076">
		<tag k="name" v="Aursfjordveien" />
		<tag k="ssr:date" v="2019-12-27" />
		<tag k="ssr:gruppe" v="veg" />
		<tag k="ssr:hovedgruppe" v="infrastruktur" />
		<tag k="ssr:stedsnr" v="1010520" />
		<tag k="ssr:type" v="adressenavn" />
	</node>
	<node lat="69.18415310592613" lon="18.569350648201926" id="-98077">
		<tag k="name" v="Storjordveien" />
		<tag k="ssr:date" v="2019-12-27" />
		<tag k="ssr:gruppe" v="veg" />
		<tag k="ssr:hovedgruppe" v="infrastruktur" />
		<tag k="ssr:stedsnr" v="1010521" />
		<tag k="ssr:type" v="adressenavn" />
	</node>
	<node lat="69.18853769137299" lon="18.578075396911682" id="-98078">
		<tag k="name" v="Kjellmoveien" />
		<tag k="ssr:date" v="2019-12-27" />
		<tag k="ssr:gruppe" v="veg" />
		<tag k="ssr:hovedgruppe" v="infrastruktur" />
		<tag k="ssr:stedsnr" v="1010522" />
		<tag k="ssr:type" v="adressenavn" />
	</node>
	<node lat="69.14255985382873" lon="18.599660617341108" id="-98079">
		<tag k="name" v="Målsnesveien" />
		<tag k="ssr:date" v="2019-12-27" />
		<tag k="ssr:gruppe" v="veg" />
		<tag k="ssr:hovedgruppe" v="infrastruktur" />
		<tag k="ssr:stedsnr" v="1010523" />
		<tag k="ssr:type" v="adressenavn" />
	</node>
	<node lat="69.10857333614965" lon="18.81757781108484" id="-98080">
		<tag k="name" v="Takelvveien" />
		<tag k="ssr:date" v="2019-12-27" />
		<tag k="ssr:gruppe" v="veg" />
		<tag k="ssr:hovedgruppe" v="infrastruktur" />
		<tag k="ssr:stedsnr" v="1010524" />
		<tag k="ssr:type" v="adressenavn" />
	</node>
	<node lat="69.19482394186677" lon="18.48401506300656" id="-98081">
		<tag k="name" v="Bjørndalveien" />
		<tag k="ssr:date" v="2019-12-27" />
		<tag k="ssr:gruppe" v="veg" />
		<tag k="ssr:hovedgruppe" v="infrastruktur" />
		<tag k="ssr:stedsnr" v="1010526" />
		<tag k="ssr:type" v="adressenavn" />
	</node>
	<node lat="69.19106939932966" lon="18.490125045061756" id="-98082">
		<tag k="name" v="Rossvollveien" />
		<tag k="ssr:date" v="2019-12-27" />
		<tag k="ssr:gruppe" v="veg" />
		<tag k="ssr:hovedgruppe" v="infrastruktur" />
		<tag k="ssr:stedsnr" v="1010527" />
		<tag k="ssr:type" v="adressenavn" />
	</node>
	<node lat="68.8733070152991" lon="19.551855220800324" id="-98083">
		<tag k="name" v="Devddesjávreluodda" />
		<tag k="ssr:date" v="2019-12-27" />
		<tag k="ssr:gruppe" v="veg" />
		<tag k="ssr:hovedgruppe" v="infrastruktur" />
		<tag k="ssr:stedsnr" v="1010528" />
		<tag k="ssr:type" v="adressenavn" />
	</node>
	<node lat="69.00919669874999" lon="19.412408651795612" id="-98084">
		<tag k="name" v="Messeltmoen" />
		<tag k="ssr:date" v="2019-12-27" />
		<tag k="ssr:gruppe" v="veg" />
		<tag k="ssr:hovedgruppe" v="infrastruktur" />
		<tag k="ssr:stedsnr" v="1010529" />
		<tag k="ssr:type" v="adressenavn" />
	</node>
	<node lat="68.96960016376048" lon="19.686125234061176" id="-98085">
		<tag k="name" v="Rostadalsveien" />
		<tag k="ssr:date" v="2019-12-27" />
		<tag k="ssr:gruppe" v="veg" />
		<tag k="ssr:hovedgruppe" v="infrastruktur" />
		<tag k="ssr:stedsnr" v="1010530" />
		<tag k="ssr:type" v="adressenavn" />
	</node>
	<node lat="69.02183993010765" lon="19.443694012610095" id="-98086">
		<tag k="name" v="Tamokveien" />
		<tag k="ssr:date" v="2019-12-27" />
		<tag k="ssr:gruppe" v="veg" />
		<tag k="ssr:hovedgruppe" v="infrastruktur" />
		<tag k="ssr:stedsnr" v="1010532" />
		<tag k="ssr:type" v="adressenavn" />
	</node>
	<node lat="69.14325475699566" lon="18.60076606543611" id="-98087">
		<tag k="name" v="Skarperudveien" />
		<tag k="ssr:date" v="2019-12-27" />
		<tag k="ssr:gruppe" v="veg" />
		<tag k="ssr:hovedgruppe" v="infrastruktur" />
		<tag k="ssr:stedsnr" v="1010533" />
		<tag k="ssr:type" v="adressenavn" />
	</node>
	<node lat="69.08777802455582" lon="19.14393421548985" id="-98088">
		<tag k="name" v="Strømstadkjosen" />
		<tag k="ssr:date" v="2019-12-27" />
		<tag k="ssr:gruppe" v="veg" />
		<tag k="ssr:hovedgruppe" v="infrastruktur" />
		<tag k="ssr:stedsnr" v="1010534" />
		<tag k="ssr:type" v="adressenavn" />
	</node>
	<node lat="69.21491568346815" lon="18.465211499217247" id="-98089">
		<tag k="name" v="Skjellbekkveien" />
		<tag k="ssr:date" v="2019-12-27" />
		<tag k="ssr:gruppe" v="veg" />
		<tag k="ssr:hovedgruppe" v="infrastruktur" />
		<tag k="ssr:stedsnr" v="1010535" />
		<tag k="ssr:type" v="adressenavn" />
	</node>
	<node lat="69.14427109078959" lon="18.594656807778968" id="-98090">
		<tag k="name" v="Olsborgveien" />
		<tag k="ssr:date" v="2019-12-27" />
		<tag k="ssr:gruppe" v="veg" />
		<tag k="ssr:hovedgruppe" v="infrastruktur" />
		<tag k="ssr:stedsnr" v="1010536" />
		<tag k="ssr:type" v="adressenavn" />
	</node>
	<node lat="69.14514537621528" lon="18.595010816737503" id="-98091">
		<tag k="name" v="Hestehagen" />
		<tag k="ssr:date" v="2019-12-27" />
		<tag k="ssr:gruppe" v="veg" />
		<tag k="ssr:hovedgruppe" v="infrastruktur" />
		<tag k="ssr:stedsnr" v="1010537" />
		<tag k="ssr:type" v="adressenavn" />
	</node>
	<node lat="69.1776185828877" lon="18.51794506895283" id="-98092">
		<tag k="name" v="Øvre Rossvoll" />
		<tag k="ssr:date" v="2019-12-27" />
		<tag k="ssr:gruppe" v="veg" />
		<tag k="ssr:hovedgruppe" v="infrastruktur" />
		<tag k="ssr:stedsnr" v="1010538" />
		<tag k="ssr:type" v="adressenavn" />
	</node>
	<node lat="69.11859581936206" lon="18.978298634667567" id="-98093">
		<tag k="name" v="Langkjosveien" />
		<tag k="ssr:date" v="2019-12-27" />
		<tag k="ssr:gruppe" v="veg" />
		<tag k="ssr:hovedgruppe" v="infrastruktur" />
		<tag k="ssr:stedsnr" v="1010540" />
		<tag k="ssr:type" v="adressenavn" />
	</node>
	<node lat="69.11098178539535" lon="18.862542637877613" id="-98094">
		<tag k="name" v="Bjørkliveien" />
		<tag k="ssr:date" v="2019-12-27" />
		<tag k="ssr:gruppe" v="veg" />
		<tag k="ssr:hovedgruppe" v="infrastruktur" />
		<tag k="ssr:stedsnr" v="1010541" />
		<tag k="ssr:type" v="adressenavn" />
	</node>
	<node lat="69.03074369549041" lon="19.29261117839715" id="-98095">
		<tag k="name" v="Skjold leir" />
		<tag k="ssr:date" v="2019-12-27" />
		<tag k="ssr:gruppe" v="veg" />
		<tag k="ssr:hovedgruppe" v="infrastruktur" />
		<tag k="ssr:stedsnr" v="1010542" />
		<tag k="ssr:type" v="adressenavn" />
	</node>
	<node lat="69.06428549102985" lon="18.538507814217144" id="-98096">
		<tag k="name" v="Bardufoss flystasjon" />
		<tag k="ssr:date" v="2019-12-27" />
		<tag k="ssr:gruppe" v="veg" />
		<tag k="ssr:hovedgruppe" v="infrastruktur" />
		<tag k="ssr:stedsnr" v="1010543" />
		<tag k="ssr:type" v="adressenavn" />
	</node>
	<node lat="69.23197109104531" lon="18.472439423891572" id="-98097">
		<tag k="name" v="Nyjordveien" />
		<tag k="ssr:date" v="2019-12-27" />
		<tag k="ssr:gruppe" v="veg" />
		<tag k="ssr:hovedgruppe" v="infrastruktur" />
		<tag k="ssr:stedsnr" v="1010544" />
		<tag k="ssr:type" v="adressenavn" />
	</node>
	<node lat="69.07951638587282" lon="18.557376875905366" id="-98098">
		<tag k="name" v="Rakettveien" />
		<tag k="ssr:date" v="2019-12-27" />
		<tag k="ssr:gruppe" v="veg" />
		<tag k="ssr:hovedgruppe" v="infrastruktur" />
		<tag k="ssr:stedsnr" v="1010545" />
		<tag k="ssr:type" v="adressenavn" />
	</node>
	<node lat="69.10819439555287" lon="18.83265305716949" id="-98099">
		<tag k="name" v="Granliveien" />
		<tag k="ssr:date" v="2019-12-27" />
		<tag k="ssr:gruppe" v="veg" />
		<tag k="ssr:hovedgruppe" v="infrastruktur" />
		<tag k="ssr:stedsnr" v="1010547" />
		<tag k="ssr:type" v="adressenavn" />
	</node>
	<node lat="69.11550662200416" lon="18.769536287117692" id="-98100">
		<tag k="name" v="Kjosmoveien" />
		<tag k="ssr:date" v="2019-12-27" />
		<tag k="ssr:gruppe" v="veg" />
		<tag k="ssr:hovedgruppe" v="infrastruktur" />
		<tag k="ssr:stedsnr" v="1010548" />
		<tag k="ssr:type" v="adressenavn" />
	</node>
	<node lat="69.04974813846147" lon="18.51052815517528" id="-98101">
		<tag k="name" v="Bardufoss leir" />
		<tag k="ssr:date" v="2019-12-27" />
		<tag k="ssr:gruppe" v="veg" />
		<tag k="ssr:hovedgruppe" v="infrastruktur" />
		<tag k="ssr:stedsnr" v="1010549" />
		<tag k="ssr:type" v="adressenavn" />
	</node>
	<node lat="69.04814187537346" lon="18.497999365019993" id="-98102">
		<tag k="name" v="Rusta befalsforlegning" />
		<tag k="ssr:date" v="2019-12-27" />
		<tag k="ssr:gruppe" v="veg" />
		<tag k="ssr:hovedgruppe" v="infrastruktur" />
		<tag k="ssr:stedsnr" v="1010550" />
		<tag k="ssr:type" v="adressenavn" />
	</node>
	<node lat="69.2134465678498" lon="18.47005951703112" id="-98103">
		<tag k="name" v="Fagerfjellveien" />
		<tag k="ssr:date" v="2019-12-27" />
		<tag k="ssr:gruppe" v="veg" />
		<tag k="ssr:hovedgruppe" v="infrastruktur" />
		<tag k="ssr:stedsnr" v="1010482" />
		<tag k="ssr:type" v="adressenavn" />
	</node>
	<node lat="69.2126401589183" lon="18.473922642891733" id="-98104">
		<tag k="name" v="Elvstøa" />
		<tag k="ssr:date" v="2019-12-27" />
		<tag k="ssr:gruppe" v="veg" />
		<tag k="ssr:hovedgruppe" v="infrastruktur" />
		<tag k="ssr:stedsnr" v="1010483" />
		<tag k="ssr:type" v="adressenavn" />
	</node>
	<node lat="69.22366339903542" lon="18.309530817433526" id="-98105">
		<tag k="name" v="Reinelvveien" />
		<tag k="ssr:date" v="2019-12-27" />
		<tag k="ssr:gruppe" v="veg" />
		<tag k="ssr:hovedgruppe" v="infrastruktur" />
		<tag k="ssr:stedsnr" v="1010484" />
		<tag k="ssr:type" v="adressenavn" />
	</node>
	<node lat="69.21917939841049" lon="18.44746543636803" id="-98106">
		<tag k="name" v="Holmsæterveien" />
		<tag k="ssr:date" v="2019-12-27" />
		<tag k="ssr:gruppe" v="veg" />
		<tag k="ssr:hovedgruppe" v="infrastruktur" />
		<tag k="ssr:stedsnr" v="1010485" />
		<tag k="ssr:type" v="adressenavn" />
	</node>
	<node lat="70.08225403199775" lon="29.73028468656217" id="-98112">
		<tag k="fixme" v="multiple name tags, choose one and add the other to alt_name" />
		<tag k="name" v="Troms og Finnmark;Troms og Finnmark fylke - Romssa ja Finnmárkku fylka - Tromssan ja Finmarkun fylkki" />
		<tag k="name:fkv" v="Tromssan ja Finmarkun fylkki" />
		<tag k="name:no" v="Troms og Finnmark;Troms og Finnmark fylke" />
		<tag k="name:se" v="Romssa ja Finnmárkku fylka" />
		<tag k="ssr:date" v="2021-06-08" />
		<tag k="ssr:gruppe" v="administrativeIndelinger" />
		<tag k="ssr:hovedgruppe" v="offentligAdministrasjon" />
		<tag k="ssr:stedsnr" v="1073694" />
		<tag k="ssr:type" v="fylke" />
	</node>
</osm>
