<?xml version="1.0" encoding="UTF-8"?>
<osm generator="osmapis" version="0.6">
	<node id="-533248" lat="61.4292779908" lon="5.99971013212">
		<tag k="name" v="Naustvegen" />
		<tag k="ssr:date" v="2019-05-31" />
		<tag k="ssr:gruppe" v="veg" />
		<tag k="ssr:hovedgruppe" v="infrastruktur" />
		<tag k="ssr:stedsnr" v="982540" />
		<tag k="ssr:type" v="adressenavn" />
	</node>
	<node id="-533247" lat="61.4586276502" lon="5.88994562063">
		<tag k="name" v="Svanehaugvegen" />
		<tag k="ssr:date" v="2019-05-31" />
		<tag k="ssr:gruppe" v="veg" />
		<tag k="ssr:hovedgruppe" v="infrastruktur" />
		<tag k="ssr:stedsnr" v="982539" />
		<tag k="ssr:type" v="adressenavn" />
	</node>
	<node id="-533246" lat="61.4349403273" lon="5.98275083078">
		<tag k="name" v="Movegen" />
		<tag k="ssr:date" v="2019-05-31" />
		<tag k="ssr:gruppe" v="veg" />
		<tag k="ssr:hovedgruppe" v="infrastruktur" />
		<tag k="ssr:stedsnr" v="982533" />
		<tag k="ssr:type" v="adressenavn" />
	</node>
	<node id="-534653" lat="60.8816104596" lon="6.30047518531">
		<tag k="name" v="Vestlandet" />
		<tag k="ssr:date" v="2019-01-06" />
		<tag k="ssr:gruppe" v="administrativeIndelinger" />
		<tag k="ssr:hovedgruppe" v="offentligAdministrasjon" />
		<tag k="ssr:stedsnr" v="974777" />
		<tag k="ssr:type" v="annenAdministrativInndeling" />
	</node>
	<node id="-533497" lat="61.4812000024" lon="5.79716110213">
		<tag k="alt_name" v="Ulltangneset" />
		<tag k="name" v="Ulltangneset lykt" />
		<tag k="ssr:date" v="2016-05-10" />
		<tag k="ssr:gruppe" v="navigasjon" />
		<tag k="ssr:hovedgruppe" v="infrastruktur" />
		<tag k="ssr:stedsnr" v="129687" />
		<tag k="ssr:type" v="fyrlykt" />
	</node>
	<node id="-533176" lat="61.4531526996" lon="5.90434338477">
		<tag k="name" v="Rennebakkane" />
		<tag k="ssr:date" v="2019-05-31" />
		<tag k="ssr:gruppe" v="veg" />
		<tag k="ssr:hovedgruppe" v="infrastruktur" />
		<tag k="ssr:stedsnr" v="1053829" />
		<tag k="ssr:type" v="adressenavn" />
	</node>
	<node id="-533175" lat="61.4483847065" lon="5.87461898754">
		<tag k="name" v="Veg 1017" />
		<tag k="ssr:date" v="2019-05-31" />
		<tag k="ssr:gruppe" v="veg" />
		<tag k="ssr:hovedgruppe" v="infrastruktur" />
		<tag k="ssr:stedsnr" v="1053823" />
		<tag k="ssr:type" v="adressenavn" />
	</node>
	<node id="-533174" lat="61.4766117029" lon="5.78952097776">
		<tag k="name" v="Veg 1007" />
		<tag k="ssr:date" v="2019-05-31" />
		<tag k="ssr:gruppe" v="veg" />
		<tag k="ssr:hovedgruppe" v="infrastruktur" />
		<tag k="ssr:stedsnr" v="1053810" />
		<tag k="ssr:type" v="adressenavn" />
	</node>
	<node id="-533173" lat="61.4485798189" lon="5.88418867618">
		<tag k="name" v="Kronborgvegen" />
		<tag k="ssr:date" v="2019-05-31" />
		<tag k="ssr:gruppe" v="veg" />
		<tag k="ssr:hovedgruppe" v="infrastruktur" />
		<tag k="ssr:stedsnr" v="1053807" />
		<tag k="ssr:type" v="adressenavn" />
	</node>
	<node id="-533172" lat="61.4524220858" lon="5.89924250543">
		<tag k="name" v="Råkane" />
		<tag k="ssr:date" v="2019-05-31" />
		<tag k="ssr:gruppe" v="veg" />
		<tag k="ssr:hovedgruppe" v="infrastruktur" />
		<tag k="ssr:stedsnr" v="1053785" />
		<tag k="ssr:type" v="adressenavn" />
	</node>
	<node id="-533171" lat="61.4538001576" lon="5.90274918096">
		<tag k="name" v="Viebakkane" />
		<tag k="ssr:date" v="2019-05-31" />
		<tag k="ssr:gruppe" v="veg" />
		<tag k="ssr:hovedgruppe" v="infrastruktur" />
		<tag k="ssr:stedsnr" v="1053780" />
		<tag k="ssr:type" v="adressenavn" />
	</node>
	<node id="-533170" lat="61.4555509949" lon="5.89488949174">
		<tag k="name" v="Moldtaket" />
		<tag k="ssr:date" v="2019-05-31" />
		<tag k="ssr:gruppe" v="veg" />
		<tag k="ssr:hovedgruppe" v="infrastruktur" />
		<tag k="ssr:stedsnr" v="1053802" />
		<tag k="ssr:type" v="adressenavn" />
	</node>
	<node id="-533169" lat="61.4548941477" lon="5.83913082484">
		<tag k="name" v="Veg 1012" />
		<tag k="ssr:date" v="2019-05-31" />
		<tag k="ssr:gruppe" v="veg" />
		<tag k="ssr:hovedgruppe" v="infrastruktur" />
		<tag k="ssr:stedsnr" v="1053799" />
		<tag k="ssr:type" v="adressenavn" />
	</node>
	<node id="-533488" lat="61.4775833312" lon="5.66173610519">
		<tag k="alt_name" v="Geitneset;Gjesnes" />
		<tag k="name" v="Geitsneset" />
		<tag k="ssr:date" v="2016-05-10" />
		<tag k="ssr:gruppe" v="navigasjon" />
		<tag k="ssr:hovedgruppe" v="infrastruktur" />
		<tag k="ssr:stedsnr" v="129708" />
		<tag k="ssr:type" v="fyrlykt" />
	</node>
	<node id="-533059" lat="61.4504416641" lon="5.8539916725">
		<tag k="name" v="Førde kommune" />
		<tag k="ssr:date" v="2016-05-10" />
		<tag k="ssr:gruppe" v="administrativeIndelinger" />
		<tag k="ssr:hovedgruppe" v="offentligAdministrasjon" />
		<tag k="ssr:stedsnr" v="328172" />
		<tag k="ssr:type" v="kommune" />
	</node>
	<node id="-533250" lat="61.432086193" lon="5.90170739593">
		<tag k="name" v="Skavdalsvegen" />
		<tag k="ssr:date" v="2019-05-31" />
		<tag k="ssr:gruppe" v="veg" />
		<tag k="ssr:hovedgruppe" v="infrastruktur" />
		<tag k="ssr:stedsnr" v="982544" />
		<tag k="ssr:type" v="adressenavn" />
	</node>
	<node id="-533249" lat="61.4316029782" lon="5.90179287559">
		<tag k="name" v="Storelia" />
		<tag k="ssr:date" v="2019-05-31" />
		<tag k="ssr:gruppe" v="veg" />
		<tag k="ssr:hovedgruppe" v="infrastruktur" />
		<tag k="ssr:stedsnr" v="982542" />
		<tag k="ssr:type" v="adressenavn" />
	</node>
</osm>
