<?xml version="1.0" encoding="UTF-8"?>
<osm version="0.6" generator="osmapis">
	<node lat="61.2997416679784" lon="6.929516661526846" id="-36855">
		<tag k="fixme" v="consider natural=peak for the most distinct mountains in the district" />
		<tag k="name" v="Kambafjellet" />
		<tag k="natural" v="hill" />
		<tag k="place" v="locality" />
		<tag k="ssr:stedsnr" v="7255" />
	</node>
	<node lat="61.276941662986225" lon="7.143658335228067" id="-36857">
		<tag k="name" v="Våkelshaug" />
		<tag k="natural" v="hill" />
		<tag k="place" v="locality" />
		<tag k="ssr:stedsnr" v="7326" />
	</node>
	<node lat="61.36780833774339" lon="6.493774997951211" id="-36858">
		<tag k="fixme" v="consider natural=peak for the most distinct mountains in the district" />
		<tag k="name" v="Vardeggi" />
		<tag k="natural" v="hill" />
		<tag k="place" v="locality" />
		<tag k="ssr:stedsnr" v="7702" />
	</node>
	<node lat="61.40787500402338" lon="6.781233330525634" id="-36861">
		<tag k="name" v="Middagshaugen" />
		<tag k="natural" v="hill" />
		<tag k="place" v="locality" />
		<tag k="ssr:stedsnr" v="7898" />
	</node>
	<node lat="61.26003055183261" lon="6.6663444531272535" id="-36862">
		<tag k="name" v="Trodalen" />
		<tag k="natural" v="valley" />
		<tag k="place" v="locality" />
		<tag k="ssr:stedsnr" v="8159" />
	</node>
	<node lat="61.26812777506903" lon="7.208116675901132" id="-36866">
		<tag k="name" v="Sigledalen" />
		<tag k="natural" v="valley" />
		<tag k="place" v="locality" />
		<tag k="ssr:stedsnr" v="8392" />
	</node>
	<node lat="61.45597500184851" lon="6.711058331408507" id="-36868">
		<tag k="fixme" v="consider natural=peak for the most distinct mountains in the district" />
		<tag k="name" v="Skipafjellet" />
		<tag k="natural" v="hill" />
		<tag k="place" v="locality" />
		<tag k="ssr:stedsnr" v="8848" />
	</node>
	<node lat="61.402208336546195" lon="6.95135832588731" id="-36869">
		<tag k="name" v="Yngsdalsskaret" />
		<tag k="natural" v="valley" />
		<tag k="place" v="locality" />
		<tag k="ssr:stedsnr" v="8903" />
	</node>
	<node lat="61.37360555646307" lon="6.930005548836081" id="-36871">
		<tag k="name" v="Sauagrovbetnene" />
		<tag k="natural" v="valley" />
		<tag k="place" v="locality" />
		<tag k="ssr:stedsnr" v="8990" />
	</node>
	<node lat="61.359263884755684" lon="6.712011109327324" id="-36872">
		<tag k="fixme" v="consider natural=peak for the most distinct mountains in the district" />
		<tag k="name" v="Omnen" />
		<tag k="natural" v="hill" />
		<tag k="place" v="locality" />
		<tag k="ssr:stedsnr" v="8994" />
	</node>
	<node lat="61.177508333986296" lon="7.310583338716798" id="-36878">
		<tag k="alt_name" v="Svarteholsbakkane" />
		<tag k="name" v="Svartaholsbakkane" />
		<tag k="natural" v="slope" />
		<tag k="place" v="locality" />
		<tag k="ssr:stedsnr" v="10011" />
	</node>
	<node lat="61.170402778482526" lon="7.056266671919295" id="-36879">
		<tag k="alt_name" v="Daurmålshaugen" />
		<tag k="name" v="Daurmålhaug" />
		<tag k="natural" v="hill" />
		<tag k="place" v="locality" />
		<tag k="ssr:stedsnr" v="10015" />
	</node>
	<node lat="61.115855555012594" lon="6.962888892395541" id="-36881">
		<tag k="alt_name" v="Hønsagjelet" />
		<tag k="name" v="Hønsagilet" />
		<tag k="natural" v="cliff" />
		<tag k="ssr:stedsnr" v="9793" />
	</node>
	<node lat="61.211825001168144" lon="6.656172226923783" id="-36886">
		<tag k="name" v="Vetlehaugen" />
		<tag k="natural" v="hill" />
		<tag k="place" v="locality" />
		<tag k="ssr:stedsnr" v="9999" />
	</node>
	<node lat="61.21083333313322" lon="7.28078055313572" id="-36888">
		<tag k="alt_name" v="Vardahei" />
		<tag k="fixme" v="consider natural=peak for the most distinct mountains in the district" />
		<tag k="name" v="Vardaheii" />
		<tag k="natural" v="hill" />
		<tag k="place" v="locality" />
		<tag k="ssr:stedsnr" v="10092" />
	</node>
	<node lat="61.319122218663026" lon="6.898516665933796" id="-36889">
		<tag k="name" v="Storeskreda" />
		<tag k="natural" v="valley" />
		<tag k="place" v="locality" />
		<tag k="ssr:stedsnr" v="32008" />
	</node>
	<node lat="61.33478055118346" lon="6.9410805561529" id="-36891">
		<tag k="name" v="Haustbakken" />
		<tag k="natural" v="slope" />
		<tag k="place" v="locality" />
		<tag k="ssr:stedsnr" v="32064" />
	</node>
	<node lat="61.33668888665214" lon="6.94021944511806" id="-36893">
		<tag k="name" v="Knausane" />
		<tag k="natural" v="hill" />
		<tag k="place" v="locality" />
		<tag k="ssr:stedsnr" v="32077" />
	</node>
	<node lat="61.33666388732715" lon="6.931736111040855" id="-36894">
		<tag k="name" v="Lialøflaten" />
		<tag k="place" v="locality" />
		<tag k="ssr:stedsnr" v="32078" />
	</node>
	<node lat="61.25733055534876" lon="7.176577778452969" id="-36897">
		<tag k="name" v="Stegen" />
		<tag k="natural" v="slope" />
		<tag k="place" v="locality" />
		<tag k="ssr:stedsnr" v="32385" />
	</node>
	<node lat="61.29660833157455" lon="7.014652775261627" id="-36901">
		<tag k="name" v="Kleivsli" />
		<tag k="natural" v="slope" />
		<tag k="place" v="locality" />
		<tag k="ssr:stedsnr" v="32866" />
	</node>
	<node lat="61.344411113929645" lon="6.675311103665446" id="-36902">
		<tag k="name" v="Steinskreda" />
		<tag k="natural" v="valley" />
		<tag k="place" v="locality" />
		<tag k="ssr:stedsnr" v="32877" />
	</node>
	<node lat="61.27764722033505" lon="7.016869438532273" id="-36903">
		<tag k="fixme" v="consider natural=peak for the most distinct mountains in the district" />
		<tag k="name" v="Hildeskårfjellet" />
		<tag k="natural" v="hill" />
		<tag k="place" v="locality" />
		<tag k="ssr:stedsnr" v="32880" />
	</node>
	<node lat="61.348830554234546" lon="6.877638892820991" id="-36904">
		<tag k="name" v="Kupa" />
		<tag k="natural" v="hill" />
		<tag k="place" v="locality" />
		<tag k="ssr:stedsnr" v="32766" />
	</node>
	<node lat="61.3457555572705" lon="6.854275001919077" id="-36905">
		<tag k="name" v="Skredene" />
		<tag k="natural" v="valley" />
		<tag k="place" v="locality" />
		<tag k="ssr:stedsnr" v="32785" />
	</node>
	<node lat="61.27528055364342" lon="7.025299994230094" id="-36906">
		<tag k="name" v="Hindarhaug" />
		<tag k="natural" v="hill" />
		<tag k="place" v="locality" />
		<tag k="ssr:stedsnr" v="32903" />
	</node>
	<node lat="61.27405833636679" lon="7.021719442369569" id="-36907">
		<tag k="name" v="Vågaskori" />
		<tag k="place" v="locality" />
		<tag k="ssr:stedsnr" v="32906" />
	</node>
	<node lat="61.35433888598337" lon="6.895538892219529" id="-36908">
		<tag k="name" v="Vesleskreda" />
		<tag k="natural" v="valley" />
		<tag k="place" v="locality" />
		<tag k="ssr:stedsnr" v="32913" />
	</node>
	<node lat="61.26469444010072" lon="7.00665277372688" id="-36909">
		<tag k="name" v="Tausagøyma" />
		<tag k="place" v="locality" />
		<tag k="ssr:stedsnr" v="32924" />
	</node>
	<node lat="61.25229444456692" lon="7.101630557954915" id="-36912">
		<tag k="name" v="Stovereina" />
		<tag k="natural" v="valley" />
		<tag k="place" v="locality" />
		<tag k="ssr:stedsnr" v="32983" />
	</node>
	<node lat="61.229163887506665" lon="7.253752776979129" id="-36913">
		<tag k="name" v="Budeiesvåi" />
		<tag k="natural" v="slope" />
		<tag k="place" v="locality" />
		<tag k="ssr:stedsnr" v="33319" />
	</node>
	<node lat="61.24251388469327" lon="7.223194438104355" id="-36914">
		<tag k="fixme" v="consider natural=peak for the most distinct mountains in the district" />
		<tag k="name" v="Øyestølsknubbane" />
		<tag k="natural" v="hill" />
		<tag k="place" v="locality" />
		<tag k="ssr:stedsnr" v="33514" />
	</node>
	<node lat="61.17363055151446" lon="7.261066663142234" id="-36915">
		<tag k="name" v="Kollegjerdet" />
		<tag k="natural" v="slope" />
		<tag k="place" v="locality" />
		<tag k="ssr:stedsnr" v="33576" />
	</node>
	<node lat="61.41496667046574" lon="6.674986104179781" id="-36916">
		<tag k="name" v="Bjørkhaugen" />
		<tag k="natural" v="hill" />
		<tag k="place" v="locality" />
		<tag k="ssr:stedsnr" v="33997" />
	</node>
	<node lat="61.21530000009165" lon="6.73683889402638" id="-36917">
		<tag k="fixme" v="consider natural=peak for the most distinct mountains in the district" />
		<tag k="name" v="Veslehovden" />
		<tag k="natural" v="hill" />
		<tag k="place" v="locality" />
		<tag k="ssr:stedsnr" v="34416" />
	</node>
	<node lat="61.21286111000471" lon="6.822777771715549" id="-36924">
		<tag k="name" v="Nondalen" />
		<tag k="natural" v="valley" />
		<tag k="place" v="locality" />
		<tag k="ssr:stedsnr" v="40967" />
	</node>
	<node lat="61.31189444664667" lon="6.589852781653711" id="-36925">
		<tag k="name" v="Gjilgjadalen" />
		<tag k="natural" v="valley" />
		<tag k="place" v="locality" />
		<tag k="ssr:stedsnr" v="44019" />
	</node>
	<node lat="61.183727780271376" lon="6.501924999150856" id="-36926">
		<tag k="name" v="Rennesvoi" />
		<tag k="natural" v="slope" />
		<tag k="place" v="locality" />
		<tag k="ssr:stedsnr" v="44980" />
	</node>
	<node lat="61.11737500393105" lon="6.449030553252612" id="-36927">
		<tag k="name" v="Sagadalen" />
		<tag k="natural" v="valley" />
		<tag k="place" v="locality" />
		<tag k="ssr:stedsnr" v="45120" />
	</node>
	<node lat="61.116058329008624" lon="6.444838882298312" id="-36928">
		<tag k="name" v="Nestehaugsflaten" />
		<tag k="place" v="locality" />
		<tag k="ssr:stedsnr" v="45122" />
	</node>
	<node lat="61.22621388500879" lon="6.481383339578247" id="-36931">
		<tag k="name" v="Hermundhaug" />
		<tag k="natural" v="hill" />
		<tag k="place" v="locality" />
		<tag k="ssr:stedsnr" v="45929" />
	</node>
	<node lat="61.17999166417737" lon="6.531816675623914" id="-36932">
		<tag k="name" v="Skinandehola" />
		<tag k="natural" v="valley" />
		<tag k="place" v="locality" />
		<tag k="ssr:stedsnr" v="45954" />
	</node>
	<node lat="61.22814999761291" lon="6.501886118383832" id="-36934">
		<tag k="fixme" v="consider natural=peak for the most distinct mountains in the district" />
		<tag k="name" v="Kvalheimsholten" />
		<tag k="natural" v="hill" />
		<tag k="place" v="locality" />
		<tag k="ssr:stedsnr" v="45971" />
	</node>
	<node lat="61.17488889094766" lon="6.504327773920617" id="-36935">
		<tag k="name" v="Tungene" />
		<tag k="natural" v="hill" />
		<tag k="place" v="locality" />
		<tag k="ssr:stedsnr" v="45984" />
	</node>
	<node lat="61.22431944024469" lon="6.495633339123947" id="-36936">
		<tag k="name" v="Tråna" />
		<tag k="natural" v="slope" />
		<tag k="place" v="locality" />
		<tag k="ssr:stedsnr" v="45990" />
	</node>
	<node lat="61.21870555340125" lon="6.541913890588293" id="-36937">
		<tag k="name" v="Lydarhaug" />
		<tag k="natural" v="hill" />
		<tag k="place" v="locality" />
		<tag k="ssr:stedsnr" v="45873" />
	</node>
	<node lat="61.33104444482637" lon="6.472430561056108" id="-36948">
		<tag k="name" v="Vetle Eikjadalen" />
		<tag k="natural" v="valley" />
		<tag k="place" v="locality" />
		<tag k="ssr:stedsnr" v="68789" />
	</node>
	<node lat="61.473266668619964" lon="6.773086102851783" id="-36954">
		<tag k="name" v="Tyskarbotn" />
		<tag k="natural" v="valley" />
		<tag k="place" v="locality" />
		<tag k="ssr:stedsnr" v="68813" />
	</node>
	<node lat="61.394063888463165" lon="6.855702780247717" id="-36957">
		<tag k="fixme" v="consider natural=peak for the most distinct mountains in the district" />
		<tag k="name" v="Steindalseggi" />
		<tag k="natural" v="hill" />
		<tag k="place" v="locality" />
		<tag k="ssr:stedsnr" v="68895" />
	</node>
	<node lat="61.39583333771006" lon="6.760452773316927" id="-36959">
		<tag k="name" v="Daurmåla" />
		<tag k="natural" v="slope" />
		<tag k="place" v="locality" />
		<tag k="ssr:stedsnr" v="68899" />
	</node>
	<node lat="61.36412499599633" lon="6.687800007399998" id="-36960">
		<tag k="name" v="Distaddalen" />
		<tag k="natural" v="valley" />
		<tag k="place" v="locality" />
		<tag k="ssr:stedsnr" v="68992" />
	</node>
	<node lat="61.36325277562161" lon="6.811469436560866" id="-36961">
		<tag k="fixme" v="consider natural=peak for the most distinct mountains in the district" />
		<tag k="name" v="Rana" />
		<tag k="natural" v="hill" />
		<tag k="place" v="locality" />
		<tag k="ssr:stedsnr" v="68995" />
	</node>
	<node lat="61.301358337620364" lon="6.481505557718982" id="-36965">
		<tag k="fixme" v="consider natural=peak for the most distinct mountains in the district" />
		<tag k="name" v="Raudnipa" />
		<tag k="natural" v="hill" />
		<tag k="place" v="locality" />
		<tag k="ssr:stedsnr" v="69779" />
	</node>
	<node lat="61.321280558387265" lon="6.425074997103234" id="-36968">
		<tag k="fixme" v="consider natural=peak for the most distinct mountains in the district" />
		<tag k="name" v="Flatfjell" />
		<tag k="natural" v="hill" />
		<tag k="place" v="locality" />
		<tag k="ssr:stedsnr" v="69837" />
	</node>
	<node lat="61.32245000280646" lon="6.519786119065366" id="-36969">
		<tag k="fixme" v="consider natural=peak for the most distinct mountains in the district" />
		<tag k="name" v="Vatnaskredfjellet" />
		<tag k="natural" v="hill" />
		<tag k="place" v="locality" />
		<tag k="ssr:stedsnr" v="69839" />
	</node>
	<node lat="61.247202779285345" lon="6.6490250052643045" id="-36972">
		<tag k="fixme" v="consider natural=peak for the most distinct mountains in the district" />
		<tag k="name" v="Syringaholten" />
		<tag k="natural" v="hill" />
		<tag k="place" v="locality" />
		<tag k="ssr:stedsnr" v="70499" />
	</node>
	<node lat="61.168225001952685" lon="6.426911105613996" id="-36973">
		<tag k="fixme" v="consider natural=peak for the most distinct mountains in the district" />
		<tag k="name" v="Flaug" />
		<tag k="natural" v="hill" />
		<tag k="place" v="locality" />
		<tag k="ssr:stedsnr" v="70636" />
	</node>
	<node lat="61.24661944311413" lon="6.796580563192809" id="-36974">
		<tag k="alt_name" v="Kjerringafjell;Kjerringafjellet" />
		<tag k="fixme" v="consider natural=peak for the most distinct mountains in the district" />
		<tag k="name" v="Kjeringafjell" />
		<tag k="natural" v="hill" />
		<tag k="place" v="locality" />
		<tag k="ssr:stedsnr" v="70507" />
	</node>
	<node lat="61.2354972182766" lon="6.825311111801003" id="-36976">
		<tag k="name" v="Skuledalen" />
		<tag k="natural" v="valley" />
		<tag k="place" v="locality" />
		<tag k="ssr:stedsnr" v="70529" />
	</node>
	<node lat="61.19002777739596" lon="6.908122227739959" id="-36984">
		<tag k="name" v="Liaflatene" />
		<tag k="place" v="locality" />
		<tag k="ssr:stedsnr" v="70870" />
	</node>
	<node lat="61.195341664090655" lon="6.799641662820214" id="-36985">
		<tag k="fixme" v="consider natural=peak for the most distinct mountains in the district" />
		<tag k="name" v="Høgehaug" />
		<tag k="natural" v="hill" />
		<tag k="place" v="locality" />
		<tag k="ssr:stedsnr" v="70877" />
	</node>
	<node lat="61.168586107007464" lon="7.278805565044764" id="-36987">
		<tag k="alt_name" v="Amleholten" />
		<tag k="fixme" v="consider natural=peak for the most distinct mountains in the district" />
		<tag k="name" v="Amlaholten" />
		<tag k="natural" v="hill" />
		<tag k="place" v="locality" />
		<tag k="ssr:stedsnr" v="71010" />
	</node>
	<node lat="61.15591666432392" lon="7.042399997186946" id="-36989">
		<tag k="fixme" v="consider natural=peak for the most distinct mountains in the district" />
		<tag k="name" v="Lingesetfjellet" />
		<tag k="natural" v="hill" />
		<tag k="place" v="locality" />
		<tag k="ssr:stedsnr" v="71014" />
	</node>
	<node lat="61.204166670558664" lon="6.762577782675626" id="-36991">
		<tag k="name" v="Dalene" />
		<tag k="natural" v="valley" />
		<tag k="place" v="locality" />
		<tag k="ssr:stedsnr" v="70902" />
	</node>
	<node lat="61.17154722002793" lon="6.911783324520658" id="-36993">
		<tag k="name" v="Haugadalen" />
		<tag k="natural" v="valley" />
		<tag k="place" v="locality" />
		<tag k="ssr:stedsnr" v="70923" />
	</node>
	<node lat="61.12408888667726" lon="6.996986119691877" id="-36996">
		<tag k="name" v="Hyttedalen" />
		<tag k="natural" v="valley" />
		<tag k="place" v="locality" />
		<tag k="ssr:stedsnr" v="71509" />
	</node>
	<node lat="61.31413889085627" lon="6.7017222288339715" id="-37000">
		<tag k="alt_name" v="Ospeskreda" />
		<tag k="fixme" v="multiple name tags, choose one and add the other to alt_name" />
		<tag k="name" v="Ospenesskreda;Oternesskreda" />
		<tag k="natural" v="slope" />
		<tag k="place" v="locality" />
		<tag k="ssr:stedsnr" v="82207" />
	</node>
	<node lat="61.34088611026579" lon="6.93374165741229" id="-37001">
		<tag k="name" v="Selsengli" />
		<tag k="natural" v="slope" />
		<tag k="place" v="locality" />
		<tag k="ssr:stedsnr" v="93011" />
	</node>
	<node lat="61.44802778007002" lon="6.792211112642555" id="-37002">
		<tag k="name" v="Kleivane" />
		<tag k="natural" v="slope" />
		<tag k="place" v="locality" />
		<tag k="ssr:stedsnr" v="93277" />
	</node>
	<node lat="61.33344722220347" lon="6.962636107719059" id="-37003">
		<tag k="name" v="Setehaugane" />
		<tag k="natural" v="hill" />
		<tag k="place" v="locality" />
		<tag k="ssr:stedsnr" v="93162" />
	</node>
	<node lat="61.27912221964285" lon="6.999480553599328" id="-37004">
		<tag k="name" v="Blombakkane" />
		<tag k="natural" v="slope" />
		<tag k="place" v="locality" />
		<tag k="ssr:stedsnr" v="93326" />
	</node>
	<node lat="61.265955557879536" lon="6.973586120040445" id="-37005">
		<tag k="fixme" v="consider natural=peak for the most distinct mountains in the district" />
		<tag k="name" v="Såta" />
		<tag k="natural" v="hill" />
		<tag k="place" v="locality" />
		<tag k="ssr:stedsnr" v="93331" />
	</node>
	<node lat="61.281533335154805" lon="7.000166657682449" id="-37006">
		<tag k="name" v="Bruselhaugane" />
		<tag k="natural" v="hill" />
		<tag k="place" v="locality" />
		<tag k="ssr:stedsnr" v="93365" />
	</node>
	<node lat="61.180505552599186" lon="7.198908332675467" id="-37009">
		<tag k="name" v="Drivdalsgjerdet" />
		<tag k="natural" v="slope" />
		<tag k="place" v="locality" />
		<tag k="ssr:stedsnr" v="93511" />
	</node>
	<node lat="61.22552777630259" lon="7.140766659534705" id="-37010">
		<tag k="name" v="Jeskedalen" />
		<tag k="natural" v="valley" />
		<tag k="place" v="locality" />
		<tag k="ssr:stedsnr" v="93467" />
	</node>
	<node lat="61.14728055941566" lon="6.944419443274571" id="-37011">
		<tag k="name" v="Skorane" />
		<tag k="natural" v="hill" />
		<tag k="place" v="locality" />
		<tag k="ssr:stedsnr" v="93468" />
	</node>
	<node lat="61.46411388935142" lon="6.741330559190053" id="-37012">
		<tag k="name" v="Rompa" />
		<tag k="place" v="locality" />
		<tag k="ssr:stedsnr" v="93777" />
	</node>
	<node lat="61.4626944431908" lon="6.752477775896537" id="-37013">
		<tag k="name" v="Klypegardgjelet" />
		<tag k="natural" v="valley" />
		<tag k="place" v="locality" />
		<tag k="ssr:stedsnr" v="93789" />
	</node>
	<node lat="61.47798055849538" lon="6.7602111150608595" id="-37014">
		<tag k="name" v="Illerindane" />
		<tag k="natural" v="hill" />
		<tag k="place" v="locality" />
		<tag k="ssr:stedsnr" v="93791" />
	</node>
	<node lat="61.229905558543365" lon="7.044791668332616" id="-37015">
		<tag k="name" v="Asbjørnhaugen" />
		<tag k="natural" v="hill" />
		<tag k="place" v="locality" />
		<tag k="ssr:stedsnr" v="93865" />
	</node>
	<node lat="61.32543888724803" lon="6.709874997194173" id="-37016">
		<tag k="name" v="Halvaskreda" />
		<tag k="natural" v="valley" />
		<tag k="place" v="locality" />
		<tag k="ssr:stedsnr" v="93877" />
	</node>
	<node lat="61.24626388615997" lon="7.1425611051091655" id="-37017">
		<tag k="name" v="Kuholt" />
		<tag k="natural" v="hill" />
		<tag k="place" v="locality" />
		<tag k="ssr:stedsnr" v="93883" />
	</node>
	<node lat="61.22570277473288" lon="7.261216670011975" id="-37018">
		<tag k="name" v="Draghammar" />
		<tag k="natural" v="hill" />
		<tag k="place" v="locality" />
		<tag k="ssr:stedsnr" v="94082" />
	</node>
	<node lat="61.24483333507358" lon="7.107530552117656" id="-37019">
		<tag k="name" v="Galdane" />
		<tag k="natural" v="slope" />
		<tag k="place" v="locality" />
		<tag k="ssr:stedsnr" v="93981" />
	</node>
	<node lat="61.24757778129749" lon="7.106783341970317" id="-37020">
		<tag k="name" v="Bakkane" />
		<tag k="natural" v="slope" />
		<tag k="place" v="locality" />
		<tag k="ssr:stedsnr" v="93985" />
	</node>
	<node lat="61.39213333086988" lon="6.689205553002458" id="-37025">
		<tag k="fixme" v="consider natural=peak for the most distinct mountains in the district" />
		<tag k="name" v="Hamrafjell" />
		<tag k="natural" v="hill" />
		<tag k="place" v="locality" />
		<tag k="ssr:stedsnr" v="94930" />
	</node>
	<node lat="61.18872221877787" lon="6.804055555067991" id="-37026">
		<tag k="name" v="Ramnaberg" />
		<tag k="natural" v="hill" />
		<tag k="place" v="locality" />
		<tag k="ssr:stedsnr" v="95617" />
	</node>
	<node lat="61.22021944500001" lon="6.65449722242376" id="-37027">
		<tag k="name" v="Tjørnali" />
		<tag k="natural" v="slope" />
		<tag k="place" v="locality" />
		<tag k="ssr:stedsnr" v="95672" />
	</node>
	<node lat="61.24306389036013" lon="6.864544450466776" id="-37029">
		<tag k="name" v="Kvistali" />
		<tag k="natural" v="slope" />
		<tag k="place" v="locality" />
		<tag k="ssr:stedsnr" v="95904" />
	</node>
	<node lat="61.290536112057" lon="6.471155555826457" id="-37030">
		<tag k="name" v="Skorane" />
		<tag k="place" v="locality" />
		<tag k="ssr:stedsnr" v="105030" />
	</node>
	<node lat="61.26715555356785" lon="6.498302785659004" id="-37031">
		<tag k="name" v="Dalsli" />
		<tag k="natural" v="slope" />
		<tag k="place" v="locality" />
		<tag k="ssr:stedsnr" v="105606" />
	</node>
	<node lat="61.152211113238764" lon="6.498583335609895" id="-37034">
		<tag k="name" v="Halvfaret" />
		<tag k="natural" v="hill" />
		<tag k="place" v="locality" />
		<tag k="ssr:stedsnr" v="105983" />
	</node>
	<node lat="61.345158332588305" lon="6.569230560175973" id="-37037">
		<tag k="name" v="Opsegjelet" />
		<tag k="natural" v="gorge" />
		<tag k="ssr:stedsnr" v="106087" />
	</node>
	<node lat="61.133230555979914" lon="6.492841658155385" id="-37038">
		<tag k="name" v="Stabburhaugen" />
		<tag k="natural" v="hill" />
		<tag k="place" v="locality" />
		<tag k="ssr:stedsnr" v="106090" />
	</node>
	<node lat="61.23416110708286" lon="6.4689222288179895" id="-37039">
		<tag k="name" v="Plitten" />
		<tag k="natural" v="hill" />
		<tag k="place" v="locality" />
		<tag k="ssr:stedsnr" v="106791" />
	</node>
	<node lat="61.11645555851004" lon="6.428241658895552" id="-37041">
		<tag k="name" v="Hatlefletene" />
		<tag k="natural" v="slope" />
		<tag k="place" v="locality" />
		<tag k="ssr:stedsnr" v="106929" />
	</node>
	<node lat="61.29883611392732" lon="6.5393111018559535" id="-37042">
		<tag k="name" v="Ramsteindalen" />
		<tag k="natural" v="valley" />
		<tag k="place" v="locality" />
		<tag k="ssr:stedsnr" v="106874" />
	</node>
	<node lat="61.320866664960874" lon="6.568925006398107" id="-37044">
		<tag k="name" v="Vatnaskredhaugen" />
		<tag k="natural" v="hill" />
		<tag k="place" v="locality" />
		<tag k="ssr:stedsnr" v="107739" />
	</node>
	<node lat="61.228102776701974" lon="6.541333338651908" id="-37045">
		<tag k="name" v="Brennene" />
		<tag k="natural" v="hill" />
		<tag k="place" v="locality" />
		<tag k="ssr:stedsnr" v="107909" />
	</node>
	<node lat="61.26691944539404" lon="6.695211110890427" id="-37047">
		<tag k="name" v="Uragotholten" />
		<tag k="natural" v="hill" />
		<tag k="place" v="locality" />
		<tag k="ssr:stedsnr" v="250141" />
	</node>
	<node lat="61.28950278118729" lon="6.695999998809191" id="-37057">
		<tag k="fixme" v="consider natural=peak for the most distinct mountains in the district" />
		<tag k="name" v="Svingaholten" />
		<tag k="natural" v="hill" />
		<tag k="place" v="locality" />
		<tag k="ssr:stedsnr" v="250258" />
	</node>
	<node lat="61.28658611373743" lon="7.029766666416532" id="-37063">
		<tag k="alt_name" v="Varafjellet" />
		<tag k="fixme" v="consider natural=peak for the most distinct mountains in the district" />
		<tag k="name" v="Vardafjellet" />
		<tag k="natural" v="hill" />
		<tag k="place" v="locality" />
		<tag k="ssr:stedsnr" v="250405" />
	</node>
	<node lat="61.26698610995929" lon="7.0048638904383385" id="-37064">
		<tag k="name" v="Reppalii" />
		<tag k="natural" v="slope" />
		<tag k="place" v="locality" />
		<tag k="ssr:stedsnr" v="250372" />
	</node>
	<node lat="61.207322220413886" lon="6.663449993276654" id="-37065">
		<tag k="alt_name" v="Skopargjelet" />
		<tag k="name" v="Skopargilet" />
		<tag k="natural" v="valley" />
		<tag k="place" v="locality" />
		<tag k="ssr:stedsnr" v="250431" />
	</node>
	<node lat="61.31074166940897" lon="6.469750001904853" id="-37071">
		<tag k="name" v="Vassdalen" />
		<tag k="natural" v="valley" />
		<tag k="place" v="locality" />
		<tag k="ssr:stedsnr" v="250787" />
	</node>
	<node lat="61.47242777998419" lon="6.811019437833496" id="-37072">
		<tag k="name" v="Brefallet" />
		<tag k="natural" v="slope" />
		<tag k="place" v="locality" />
		<tag k="ssr:stedsnr" v="250800" />
	</node>
	<node lat="61.42576111070075" lon="6.841211106452294" id="-37078">
		<tag k="name" v="Sauanipa" />
		<tag k="natural" v="ridge" />
		<tag k="place" v="locality" />
		<tag k="ssr:stedsnr" v="250867" />
	</node>
	<node lat="61.41688611212544" lon="6.8265305582007985" id="-37080">
		<tag k="name" v="Steindalen" />
		<tag k="natural" v="valley" />
		<tag k="place" v="locality" />
		<tag k="ssr:stedsnr" v="250879" />
	</node>
	<node lat="61.36686944521717" lon="6.948861119759239" id="-37085">
		<tag k="fixme" v="consider natural=peak for the most distinct mountains in the district" />
		<tag k="name" v="Torstadnakken" />
		<tag k="natural" v="hill" />
		<tag k="place" v="locality" />
		<tag k="ssr:stedsnr" v="250924" />
	</node>
	<node lat="61.34859166842069" lon="6.847725004461755" id="-37087">
		<tag k="name" v="Bjørnaskori" />
		<tag k="place" v="locality" />
		<tag k="ssr:stedsnr" v="250946" />
	</node>
	<node lat="61.34830555923471" lon="6.800691660602999" id="-37088">
		<tag k="fixme" v="consider natural=peak for the most distinct mountains in the district" />
		<tag k="name" v="Trollkyrkja" />
		<tag k="natural" v="hill" />
		<tag k="place" v="locality" />
		<tag k="ssr:stedsnr" v="250947" />
	</node>
	<node lat="61.379563884642536" lon="6.820961105463573" id="-37090">
		<tag k="name" v="Vetlebotn" />
		<tag k="natural" v="valley" />
		<tag k="place" v="locality" />
		<tag k="ssr:stedsnr" v="250971" />
	</node>
	<node lat="61.29200833332645" lon="7.032713881579106" id="-37097">
		<tag k="fixme" v="consider natural=peak for the most distinct mountains in the district" />
		<tag k="name" v="Tylderingen" />
		<tag k="natural" v="hill" />
		<tag k="place" v="locality" />
		<tag k="ssr:stedsnr" v="251450" />
	</node>
	<node lat="61.15519444834309" lon="6.477200004716114" id="-37098">
		<tag k="name" v="Saurdalen" />
		<tag k="natural" v="valley" />
		<tag k="place" v="locality" />
		<tag k="ssr:stedsnr" v="251685" />
	</node>
	<node lat="61.18436111055789" lon="7.117336115836123" id="-37105">
		<tag k="alt_name" v="Erlingskuten" />
		<tag k="name" v="Eldingsskuten" />
		<tag k="natural" v="hill" />
		<tag k="place" v="locality" />
		<tag k="ssr:stedsnr" v="252056" />
	</node>
	<node lat="61.274688891132165" lon="6.677272212755902" id="-37108">
		<tag k="name" v="Berrføtlene" />
		<tag k="natural" v="slope" />
		<tag k="place" v="locality" />
		<tag k="ssr:stedsnr" v="128105" />
	</node>
	<node lat="61.276644443218466" lon="7.2220722134240365" id="-37113">
		<tag k="name" v="Hestadalen" />
		<tag k="natural" v="valley" />
		<tag k="place" v="locality" />
		<tag k="ssr:stedsnr" v="128287" />
	</node>
	<node lat="61.16888673258698" lon="7.345534257826651" id="-37114">
		<tag k="name" v="Djupedal" />
		<tag k="natural" v="valley" />
		<tag k="place" v="locality" />
		<tag k="ssr:stedsnr" v="252350" />
	</node>
	<node lat="61.43381111263507" lon="6.679377768872729" id="-37115">
		<tag k="fixme" v="consider natural=peak for the most distinct mountains in the district" />
		<tag k="name" v="Fjellstølsnipa" />
		<tag k="natural" v="hill" />
		<tag k="place" v="locality" />
		<tag k="ssr:stedsnr" v="128904" />
	</node>
	<node lat="61.47012777854288" lon="6.720102785357967" id="-37125">
		<tag k="name" v="Lammabotn" />
		<tag k="natural" v="valley" />
		<tag k="place" v="locality" />
		<tag k="ssr:stedsnr" v="129817" />
	</node>
	<node lat="61.45525833238488" lon="6.766397230473169" id="-37126">
		<tag k="fixme" v="consider natural=peak for the most distinct mountains in the district" />
		<tag k="name" v="Skeisnipa" />
		<tag k="natural" v="hill" />
		<tag k="place" v="locality" />
		<tag k="ssr:stedsnr" v="129831" />
	</node>
	<node lat="61.27763611062991" lon="6.5898694491995435" id="-37129">
		<tag k="fixme" v="consider natural=peak for the most distinct mountains in the district" />
		<tag k="name" v="Meneseggi" />
		<tag k="natural" v="hill" />
		<tag k="place" v="locality" />
		<tag k="ssr:stedsnr" v="129849" />
	</node>
	<node lat="61.24650833074475" lon="6.657111110641915" id="-37130">
		<tag k="name" v="Perdalen" />
		<tag k="natural" v="valley" />
		<tag k="place" v="locality" />
		<tag k="ssr:stedsnr" v="252472" />
	</node>
	<node lat="61.340300000898814" lon="6.421905561027943" id="-37132">
		<tag k="name" v="Tverrlihamrane" />
		<tag k="natural" v="hill" />
		<tag k="place" v="locality" />
		<tag k="ssr:stedsnr" v="129714" />
	</node>
	<node lat="61.23606667070719" lon="6.722255547724425" id="-37135">
		<tag k="name" v="Vetlebotnen" />
		<tag k="natural" v="valley" />
		<tag k="place" v="locality" />
		<tag k="ssr:stedsnr" v="252492" />
	</node>
	<node lat="61.24813055214515" lon="6.947863883151739" id="-37136">
		<tag k="fixme" v="consider natural=peak for the most distinct mountains in the district" />
		<tag k="name" v="Dyrhovden" />
		<tag k="natural" v="hill" />
		<tag k="place" v="locality" />
		<tag k="ssr:stedsnr" v="252496" />
	</node>
	<node lat="61.23810171793699" lon="6.610950663631324" id="-37137">
		<tag k="fixme" v="consider natural=peak for the most distinct mountains in the district" />
		<tag k="name" v="Slettafjellet" />
		<tag k="natural" v="hill" />
		<tag k="place" v="locality" />
		<tag k="ssr:stedsnr" v="252498" />
	</node>
	<node lat="61.38165555575125" lon="6.6348861063324645" id="-37138">
		<tag k="name" v="Vassbrekka" />
		<tag k="natural" v="valley" />
		<tag k="place" v="locality" />
		<tag k="ssr:stedsnr" v="129973" />
	</node>
	<node lat="61.37043889017273" lon="6.9008333300037625" id="-37141">
		<tag k="fixme" v="consider natural=peak for the most distinct mountains in the district" />
		<tag k="name" v="Tverrlii" />
		<tag k="natural" v="hill" />
		<tag k="place" v="locality" />
		<tag k="ssr:stedsnr" v="129992" />
	</node>
	<node lat="61.245780553557985" lon="6.92447500326055" id="-37142">
		<tag k="name" v="Kalvahaug" />
		<tag k="natural" v="hill" />
		<tag k="place" v="locality" />
		<tag k="ssr:stedsnr" v="130504" />
	</node>
	<node lat="61.23102221909909" lon="6.662177784736179" id="-37144">
		<tag k="name" v="Kupehaugen" />
		<tag k="natural" v="hill" />
		<tag k="place" v="locality" />
		<tag k="ssr:stedsnr" v="130516" />
	</node>
	<node lat="61.24804444638671" lon="6.698533342014105" id="-37146">
		<tag k="fixme" v="consider natural=peak for the most distinct mountains in the district" />
		<tag k="name" v="Midteggi" />
		<tag k="natural" v="hill" />
		<tag k="place" v="locality" />
		<tag k="ssr:stedsnr" v="130495" />
	</node>
	<node lat="61.19484166582213" lon="6.778927785847556" id="-37153">
		<tag k="fixme" v="consider natural=peak for the most distinct mountains in the district" />
		<tag k="name" v="Kavlshammar" />
		<tag k="natural" v="hill" />
		<tag k="place" v="locality" />
		<tag k="ssr:stedsnr" v="130873" />
	</node>
	<node lat="61.23368055928188" lon="7.144066657547788" id="-37159">
		<tag k="fixme" v="consider natural=peak for the most distinct mountains in the district" />
		<tag k="name" v="Loftesnesfjellet" />
		<tag k="natural" v="hill" />
		<tag k="place" v="locality" />
		<tag k="ssr:stedsnr" v="131112" />
	</node>
	<node lat="61.13940555685296" lon="6.4735666578306645" id="-37166">
		<tag k="alt_name" v="Storagjelet" />
		<tag k="name" v="Storagilet" />
		<tag k="natural" v="valley" />
		<tag k="place" v="locality" />
		<tag k="ssr:stedsnr" v="252622" />
	</node>
	<node lat="61.229958333723026" lon="6.482897225551242" id="-37167">
		<tag k="name" v="Esebotn" />
		<tag k="natural" v="valley" />
		<tag k="place" v="locality" />
		<tag k="ssr:stedsnr" v="252654" />
	</node>
	<node lat="61.23159999932207" lon="6.904652775007857" id="-37175">
		<tag k="fixme" v="consider natural=peak for the most distinct mountains in the district" />
		<tag k="name" v="Hottadalsnosi" />
		<tag k="natural" v="hill" />
		<tag k="place" v="locality" />
		<tag k="ssr:stedsnr" v="131979" />
	</node>
	<node lat="61.12831667109745" lon="6.950088888457407" id="-37177">
		<tag k="alt_name" v="Humlegjelet;Humla" />
		<tag k="name" v="Humlagilet" />
		<tag k="natural" v="cliff" />
		<tag k="ssr:stedsnr" v="252745" />
	</node>
	<node lat="61.189525004188766" lon="6.8781416636598625" id="-37181">
		<tag k="fixme" v="consider natural=peak for the most distinct mountains in the district" />
		<tag k="name" v="Seljeskredfjellet" />
		<tag k="natural" v="hill" />
		<tag k="place" v="locality" />
		<tag k="ssr:stedsnr" v="252861" />
	</node>
	<node lat="61.19335833146151" lon="6.755397229168558" id="-37183">
		<tag k="fixme" v="consider natural=peak for the most distinct mountains in the district" />
		<tag k="name" v="Hovdanosi" />
		<tag k="natural" v="hill" />
		<tag k="place" v="locality" />
		<tag k="ssr:stedsnr" v="252873" />
	</node>
	<node lat="61.20333610676887" lon="6.778719446542656" id="-37184">
		<tag k="fixme" v="consider natural=peak for the most distinct mountains in the district" />
		<tag k="name" v="Svartasva" />
		<tag k="natural" v="hill" />
		<tag k="place" v="locality" />
		<tag k="ssr:stedsnr" v="252891" />
	</node>
	<node lat="61.21278888726826" lon="6.901361120044836" id="-37185">
		<tag k="name" v="Nummeskar" />
		<tag k="natural" v="valley" />
		<tag k="place" v="locality" />
		<tag k="ssr:stedsnr" v="252978" />
	</node>
	<node lat="61.22328889199816" lon="6.85603333642862" id="-37189">
		<tag k="fixme" v="consider natural=peak for the most distinct mountains in the district" />
		<tag k="name" v="Brennandeholten" />
		<tag k="natural" v="hill" />
		<tag k="place" v="locality" />
		<tag k="ssr:stedsnr" v="252950" />
	</node>
	<node lat="61.21118611038678" lon="7.034630552995446" id="-37193">
		<tag k="name" v="Smørhovden" />
		<tag k="natural" v="hill" />
		<tag k="place" v="locality" />
		<tag k="ssr:stedsnr" v="253069" />
	</node>
	<node lat="61.13620833122213" lon="7.072672219024351" id="-37194">
		<tag k="name" v="Seljeløypet" />
		<tag k="place" v="locality" />
		<tag k="ssr:stedsnr" v="253526" />
	</node>
	<node lat="61.15992777746582" lon="6.523322229309164" id="-37195">
		<tag k="name" v="Tunga" />
		<tag k="natural" v="slope" />
		<tag k="place" v="locality" />
		<tag k="ssr:stedsnr" v="141993" />
	</node>
	<node lat="61.34495555211574" lon="6.931819445529665" id="-37196">
		<tag k="name" v="Torgeirrinden" />
		<tag k="natural" v="ridge" />
		<tag k="place" v="locality" />
		<tag k="ssr:stedsnr" v="153005" />
	</node>
	<node lat="61.4832111136486" lon="6.857944436343235" id="-37198">
		<tag k="name" v="Vetlebotn" />
		<tag k="natural" v="valley" />
		<tag k="place" v="locality" />
		<tag k="ssr:stedsnr" v="153368" />
	</node>
	<node lat="61.47136666648204" lon="6.850172213303996" id="-37199">
		<tag k="name" v="Langeskredene" />
		<tag k="natural" v="valley" />
		<tag k="place" v="locality" />
		<tag k="ssr:stedsnr" v="153378" />
	</node>
	<node lat="61.20712777397157" lon="7.000988897293904" id="-37202">
		<tag k="name" v="Murahaug" />
		<tag k="natural" v="hill" />
		<tag k="place" v="locality" />
		<tag k="ssr:stedsnr" v="153558" />
	</node>
	<node lat="61.44740833620124" lon="6.7843722268697215" id="-37204">
		<tag k="fixme" v="consider natural=peak for the most distinct mountains in the district" />
		<tag k="name" v="Klubben" />
		<tag k="natural" v="hill" />
		<tag k="place" v="locality" />
		<tag k="ssr:stedsnr" v="153301" />
	</node>
	<node lat="61.17626944157955" lon="7.001086117395549" id="-37206">
		<tag k="name" v="Bårdteigen" />
		<tag k="natural" v="slope" />
		<tag k="place" v="locality" />
		<tag k="ssr:stedsnr" v="153709" />
	</node>
	<node lat="61.34898333280567" lon="6.8893416683805215" id="-37208">
		<tag k="name" v="Frudalsli" />
		<tag k="natural" v="slope" />
		<tag k="place" v="locality" />
		<tag k="ssr:stedsnr" v="153927" />
	</node>
	<node lat="61.16330277356264" lon="6.9261249997387" id="-37209">
		<tag k="name" v="Bårdhammar" />
		<tag k="natural" v="hill" />
		<tag k="place" v="locality" />
		<tag k="ssr:stedsnr" v="153817" />
	</node>
	<node lat="61.16113673624458" lon="6.94175905259179" id="-37210">
		<tag k="name" v="Haugen" />
		<tag k="natural" v="hill" />
		<tag k="place" v="locality" />
		<tag k="ssr:stedsnr" v="153825" />
	</node>
	<node lat="61.26058611085843" lon="7.180236106218784" id="-37211">
		<tag k="fixme" v="consider natural=peak for the most distinct mountains in the district" />
		<tag k="name" v="Bruaholten" />
		<tag k="natural" v="hill" />
		<tag k="place" v="locality" />
		<tag k="ssr:stedsnr" v="154501" />
	</node>
	<node lat="61.28658610795531" lon="7.142780555894332" id="-37212">
		<tag k="name" v="Pikhaug" />
		<tag k="natural" v="hill" />
		<tag k="place" v="locality" />
		<tag k="ssr:stedsnr" v="154606" />
	</node>
	<node lat="61.27260555264739" lon="7.128855561599422" id="-37215">
		<tag k="fixme" v="consider natural=peak for the most distinct mountains in the district" />
		<tag k="name" v="Storehovden" />
		<tag k="natural" v="hill" />
		<tag k="place" v="locality" />
		<tag k="ssr:stedsnr" v="154629" />
	</node>
	<node lat="61.16759444723413" lon="7.190041671408862" id="-37216">
		<tag k="name" v="Utbresten" />
		<tag k="place" v="locality" />
		<tag k="ssr:stedsnr" v="154645" />
	</node>
	<node lat="61.41883889165178" lon="6.664238891113894" id="-37220">
		<tag k="name" v="Botnalia" />
		<tag k="natural" v="slope" />
		<tag k="place" v="locality" />
		<tag k="ssr:stedsnr" v="154953" />
	</node>
	<node lat="61.20443055307955" lon="6.659683342082229" id="-37222">
		<tag k="name" v="Stegane" />
		<tag k="natural" v="hill" />
		<tag k="place" v="locality" />
		<tag k="ssr:stedsnr" v="155109" />
	</node>
	<node lat="61.22388888561117" lon="6.603919439366031" id="-37223">
		<tag k="name" v="Tenningali" />
		<tag k="natural" v="slope" />
		<tag k="place" v="locality" />
		<tag k="ssr:stedsnr" v="155562" />
	</node>
	<node lat="61.17831111550319" lon="7.328444443612424" id="-37224">
		<tag k="name" v="Lonehaugane" />
		<tag k="natural" v="hill" />
		<tag k="place" v="locality" />
		<tag k="ssr:stedsnr" v="155612" />
	</node>
	<node lat="61.31726666577459" lon="6.564927769329806" id="-37229">
		<tag k="name" v="Høgaloftet" />
		<tag k="natural" v="hill" />
		<tag k="place" v="locality" />
		<tag k="ssr:stedsnr" v="167869" />
	</node>
	<node lat="61.27923055122426" lon="6.525583330648848" id="-37233">
		<tag k="fixme" v="consider natural=peak for the most distinct mountains in the district" />
		<tag k="name" v="Fureholten" />
		<tag k="natural" v="hill" />
		<tag k="place" v="locality" />
		<tag k="ssr:stedsnr" v="167971" />
	</node>
	<node lat="61.28011110754511" lon="6.512113897909739" id="-37234">
		<tag k="name" v="Øyreskredteigen" />
		<tag k="natural" v="slope" />
		<tag k="place" v="locality" />
		<tag k="ssr:stedsnr" v="167973" />
	</node>
	<node lat="61.35290555826405" lon="6.501027781522733" id="-37251">
		<tag k="name" v="Djupegjelsrabben" />
		<tag k="natural" v="hill" />
		<tag k="place" v="locality" />
		<tag k="ssr:stedsnr" v="190710" />
	</node>
	<node lat="61.257866663690436" lon="6.508880560006043" id="-37255">
		<tag k="name" v="Farnesholten" />
		<tag k="natural" v="hill" />
		<tag k="place" v="locality" />
		<tag k="ssr:stedsnr" v="190873" />
	</node>
	<node lat="61.406527780216976" lon="6.702238881608298" id="-37257">
		<tag k="name" v="Mundalsdalen" />
		<tag k="natural" v="valley" />
		<tag k="place" v="locality" />
		<tag k="ssr:stedsnr" v="190909" />
	</node>
	<node lat="61.44107778175042" lon="6.768536116504156" id="-37258">
		<tag k="fixme" v="consider natural=peak for the most distinct mountains in the district" />
		<tag k="name" v="Leiki" />
		<tag k="natural" v="hill" />
		<tag k="place" v="locality" />
		<tag k="ssr:stedsnr" v="190918" />
	</node>
	<node lat="61.38611388814072" lon="6.8573361166744045" id="-37260">
		<tag k="fixme" v="consider natural=peak for the most distinct mountains in the district" />
		<tag k="name" v="Sogndalseggi" />
		<tag k="natural" v="hill" />
		<tag k="place" v="locality" />
		<tag k="ssr:stedsnr" v="190972" />
	</node>
	<node lat="61.36314444830202" lon="6.639672217310118" id="-37261">
		<tag k="name" v="Brekkeholten" />
		<tag k="natural" v="hill" />
		<tag k="place" v="locality" />
		<tag k="ssr:stedsnr" v="190979" />
	</node>
	<node lat="61.135350002171094" lon="6.413038893650746" id="-37264">
		<tag k="name" v="Haukedalsnipi" />
		<tag k="natural" v="hill" />
		<tag k="place" v="locality" />
		<tag k="ssr:stedsnr" v="191619" />
	</node>
	<node lat="61.23654444566209" lon="6.663238883990657" id="-37269">
		<tag k="name" v="Soleihaugen" />
		<tag k="natural" v="hill" />
		<tag k="place" v="locality" />
		<tag k="ssr:stedsnr" v="191510" />
	</node>
	<node lat="61.1845111101758" lon="7.335302778364514" id="-37274">
		<tag k="alt_name" v="Svartehol" />
		<tag k="name" v="Svartahol" />
		<tag k="natural" v="valley" />
		<tag k="place" v="locality" />
		<tag k="ssr:stedsnr" v="192009" />
	</node>
	<node lat="61.1842833316837" lon="6.904855564382573" id="-37278">
		<tag k="alt_name" v="Hangsetdalen" />
		<tag k="name" v="Hangsetedalen" />
		<tag k="natural" v="valley" />
		<tag k="place" v="locality" />
		<tag k="ssr:stedsnr" v="191903" />
	</node>
	<node lat="61.22080833496569" lon="6.8577277723773955" id="-37279">
		<tag k="name" v="Ulvadalen" />
		<tag k="natural" v="valley" />
		<tag k="place" v="locality" />
		<tag k="ssr:stedsnr" v="191914" />
	</node>
	<node lat="61.26089721932955" lon="6.880441658565981" id="-37281">
		<tag k="name" v="Pipehaug" />
		<tag k="natural" v="hill" />
		<tag k="place" v="locality" />
		<tag k="ssr:stedsnr" v="263737" />
	</node>
	<node lat="61.420291665478516" lon="6.8508916749301445" id="-37283">
		<tag k="name" v="Storebotn" />
		<tag k="natural" v="valley" />
		<tag k="place" v="locality" />
		<tag k="ssr:stedsnr" v="263672" />
	</node>
	<node lat="61.32420277465523" lon="6.635097218517453" id="-37284">
		<tag k="fixme" v="consider natural=peak for the most distinct mountains in the district" />
		<tag k="name" v="Storaskrednipa" />
		<tag k="natural" v="hill" />
		<tag k="place" v="locality" />
		<tag k="ssr:stedsnr" v="263674" />
	</node>
	<node lat="61.308222219027925" lon="6.997761119214023" id="-37285">
		<tag k="name" v="Skiphaug" />
		<tag k="natural" v="hill" />
		<tag k="place" v="locality" />
		<tag k="ssr:stedsnr" v="214186" />
	</node>
	<node lat="61.423916666846466" lon="6.775066664135065" id="-37288">
		<tag k="name" v="Maragjelet" />
		<tag k="natural" v="valley" />
		<tag k="place" v="locality" />
		<tag k="ssr:stedsnr" v="214775" />
	</node>
	<node lat="61.19856388698884" lon="7.005047229775854" id="-37289">
		<tag k="name" v="Vassvoll-li" />
		<tag k="natural" v="slope" />
		<tag k="place" v="locality" />
		<tag k="ssr:stedsnr" v="214779" />
	</node>
	<node lat="61.476874996366575" lon="6.84421389133509" id="-37292">
		<tag k="name" v="Stokkhilleren" />
		<tag k="natural" v="hill" />
		<tag k="place" v="locality" />
		<tag k="ssr:stedsnr" v="214825" />
	</node>
	<node lat="61.147288887969495" lon="6.940388886931685" id="-37293">
		<tag k="name" v="Skipssida" />
		<tag k="natural" v="hill" />
		<tag k="place" v="locality" />
		<tag k="ssr:stedsnr" v="214827" />
	</node>
	<node lat="61.427488889806746" lon="6.821047216529105" id="-37294">
		<tag k="name" v="Sjursvollskreda" />
		<tag k="natural" v="valley" />
		<tag k="place" v="locality" />
		<tag k="ssr:stedsnr" v="214879" />
	</node>
	<node lat="61.26357499850226" lon="7.123402783402417" id="-37295">
		<tag k="name" v="Seten" />
		<tag k="place" v="locality" />
		<tag k="ssr:stedsnr" v="214973" />
	</node>
	<node lat="61.44491110735722" lon="6.739277777809303" id="-37297">
		<tag k="name" v="Teighaugen" />
		<tag k="natural" v="hill" />
		<tag k="place" v="locality" />
		<tag k="ssr:stedsnr" v="215577" />
	</node>
	<node lat="61.279594440832525" lon="7.208197215434619" id="-37298">
		<tag k="fixme" v="consider natural=peak for the most distinct mountains in the district" />
		<tag k="name" v="Skindalsfjellet" />
		<tag k="natural" v="hill" />
		<tag k="place" v="locality" />
		<tag k="ssr:stedsnr" v="215605" />
	</node>
	<node lat="61.19056110757738" lon="7.06906944404528" id="-37299">
		<tag k="name" v="Gjellene" />
		<tag k="place" v="locality" />
		<tag k="ssr:stedsnr" v="215624" />
	</node>
	<node lat="61.17839166733418" lon="7.322497213562139" id="-37300">
		<tag k="fixme" v="consider natural=peak for the most distinct mountains in the district" />
		<tag k="name" v="Svarteholsnosi" />
		<tag k="natural" v="hill" />
		<tag k="place" v="locality" />
		<tag k="ssr:stedsnr" v="216606" />
	</node>
	<node lat="61.190430556866694" lon="6.8013833296610695" id="-37301">
		<tag k="name" v="Skutlane" />
		<tag k="natural" v="hill" />
		<tag k="place" v="locality" />
		<tag k="ssr:stedsnr" v="216630" />
	</node>
	<node lat="61.202774998597874" lon="6.857613890214537" id="-37302">
		<tag k="name" v="Kappeldalen" />
		<tag k="natural" v="valley" />
		<tag k="place" v="locality" />
		<tag k="ssr:stedsnr" v="216580" />
	</node>
	<node lat="61.1447611113737" lon="6.482141664932412" id="-37305">
		<tag k="name" v="Branden" />
		<tag k="natural" v="hill" />
		<tag k="place" v="locality" />
		<tag k="ssr:stedsnr" v="227105" />
	</node>
	<node lat="61.13988055322588" lon="6.496294446942898" id="-37306">
		<tag k="name" v="Sprengsbakkane" />
		<tag k="natural" v="slope" />
		<tag k="place" v="locality" />
		<tag k="ssr:stedsnr" v="227106" />
	</node>
	<node lat="61.1374416710313" lon="6.503369440846415" id="-37307">
		<tag k="name" v="Dalen" />
		<tag k="natural" v="valley" />
		<tag k="place" v="locality" />
		<tag k="ssr:stedsnr" v="227067" />
	</node>
	<node lat="61.263825003820855" lon="6.489869447047849" id="-37308">
		<tag k="name" v="Oksli" />
		<tag k="natural" v="ridge" />
		<tag k="place" v="locality" />
		<tag k="ssr:stedsnr" v="227582" />
	</node>
	<node lat="61.30673333207482" lon="6.563805552977023" id="-37311">
		<tag k="name" v="Kyrkjeøyna" />
		<tag k="place" v="locality" />
		<tag k="ssr:stedsnr" v="227772" />
	</node>
	<node lat="61.24427499874517" lon="6.51619444570851" id="-37312">
		<tag k="name" v="Farnesdalen" />
		<tag k="natural" v="valley" />
		<tag k="place" v="locality" />
		<tag k="ssr:stedsnr" v="227779" />
	</node>
	<node lat="61.310055552239" lon="6.548627777444825" id="-37317">
		<tag k="name" v="Steinbotn" />
		<tag k="natural" v="valley" />
		<tag k="place" v="locality" />
		<tag k="ssr:stedsnr" v="227842" />
	</node>
	<node lat="61.302752782325015" lon="6.538177784343468" id="-37323">
		<tag k="fixme" v="consider natural=peak for the most distinct mountains in the district" />
		<tag k="name" v="Holten" />
		<tag k="natural" v="hill" />
		<tag k="place" v="locality" />
		<tag k="ssr:stedsnr" v="228894" />
	</node>
	<node lat="61.34787222474588" lon="6.541413896121774" id="-37324">
		<tag k="name" v="Småskredene" />
		<tag k="natural" v="gorge" />
		<tag k="ssr:stedsnr" v="228785" />
	</node>
	<node lat="61.22428611091781" lon="6.537402781999649" id="-37325">
		<tag k="name" v="Liane" />
		<tag k="natural" v="slope" />
		<tag k="place" v="locality" />
		<tag k="ssr:stedsnr" v="228904" />
	</node>
	<node lat="61.23093888624038" lon="6.529291665108664" id="-37326">
		<tag k="name" v="Tunga" />
		<tag k="natural" v="slope" />
		<tag k="place" v="locality" />
		<tag k="ssr:stedsnr" v="228914" />
	</node>
	<node lat="61.1960055598644" lon="7.281905556620484" id="-37327">
		<tag k="name" v="Hungerhaugen" />
		<tag k="natural" v="hill" />
		<tag k="place" v="locality" />
		<tag k="ssr:stedsnr" v="236329" />
	</node>
	<node lat="61.187358337016924" lon="6.888149991775947" id="-37328">
		<tag k="name" v="Svahaug" />
		<tag k="natural" v="hill" />
		<tag k="place" v="locality" />
		<tag k="ssr:stedsnr" v="241987" />
	</node>
	<node lat="61.19348888709382" lon="6.899036119136577" id="-37329">
		<tag k="name" v="Lushovden" />
		<tag k="natural" v="hill" />
		<tag k="place" v="locality" />
		<tag k="ssr:stedsnr" v="241988" />
	</node>
	<node lat="61.22019166639382" lon="6.896880564762908" id="-37331">
		<tag k="name" v="Snauskoltane" />
		<tag k="natural" v="hill" />
		<tag k="place" v="locality" />
		<tag k="ssr:stedsnr" v="252924" />
	</node>
	<node lat="61.239608329823724" lon="7.144891672159985" id="-37332">
		<tag k="fixme" v="consider natural=peak for the most distinct mountains in the district" />
		<tag k="name" v="Ospeklanten" />
		<tag k="natural" v="hill" />
		<tag k="place" v="locality" />
		<tag k="ssr:stedsnr" v="253118" />
	</node>
	<node lat="61.2322916703324" lon="7.212447214063971" id="-37334">
		<tag k="name" v="Svartedalen" />
		<tag k="natural" v="valley" />
		<tag k="place" v="locality" />
		<tag k="ssr:stedsnr" v="253125" />
	</node>
	<node lat="61.1970444444978" lon="7.1863583259966175" id="-37335">
		<tag k="name" v="Engesetdalen" />
		<tag k="natural" v="valley" />
		<tag k="place" v="locality" />
		<tag k="ssr:stedsnr" v="457570" />
	</node>
	<node lat="61.33595555156428" lon="6.961961111036918" id="-37336">
		<tag k="name" v="Gjelet" />
		<tag k="natural" v="valley" />
		<tag k="place" v="locality" />
		<tag k="ssr:stedsnr" v="457157" />
	</node>
	<node lat="61.326966663471076" lon="7.000883327393888" id="-37340">
		<tag k="name" v="Pikhaug" />
		<tag k="natural" v="hill" />
		<tag k="place" v="locality" />
		<tag k="ssr:stedsnr" v="457343" />
	</node>
	<node lat="61.162813890822555" lon="6.956727772963056" id="-37342">
		<tag k="name" v="Seihammar" />
		<tag k="natural" v="hill" />
		<tag k="place" v="locality" />
		<tag k="ssr:stedsnr" v="457539" />
	</node>
	<node lat="61.4009444408692" lon="6.735975005373365" id="-37343">
		<tag k="name" v="Mundalsøyrane" />
		<tag k="place" v="locality" />
		<tag k="ssr:stedsnr" v="457540" />
	</node>
	<node lat="61.3766055531417" lon="6.716125003280081" id="-37344">
		<tag k="fixme" v="consider natural=peak for the most distinct mountains in the district" />
		<tag k="name" v="Høgeholten" />
		<tag k="natural" v="hill" />
		<tag k="place" v="locality" />
		<tag k="ssr:stedsnr" v="457572" />
	</node>
	<node lat="61.17889722389124" lon="6.978022230246228" id="-37347">
		<tag k="name" v="Haukaberg" />
		<tag k="natural" v="hill" />
		<tag k="place" v="locality" />
		<tag k="ssr:stedsnr" v="457637" />
	</node>
	<node lat="61.46810832924446" lon="6.830055559179994" id="-37348">
		<tag k="name" v="Sjonarhaug" />
		<tag k="natural" v="hill" />
		<tag k="place" v="locality" />
		<tag k="ssr:stedsnr" v="457642" />
	</node>
	<node lat="61.48346111404253" lon="6.767561118331341" id="-37351">
		<tag k="name" v="Fremste Breierindsgjelet" />
		<tag k="natural" v="valley" />
		<tag k="place" v="locality" />
		<tag k="ssr:stedsnr" v="457857" />
	</node>
	<node lat="61.28135000148298" lon="7.029924995422036" id="-37352">
		<tag k="name" v="Helleberg" />
		<tag k="natural" v="hill" />
		<tag k="place" v="locality" />
		<tag k="ssr:stedsnr" v="457863" />
	</node>
	<node lat="61.34999444173363" lon="6.698166674837792" id="-37353">
		<tag k="name" v="Nonskrossen" />
		<tag k="natural" v="hill" />
		<tag k="place" v="locality" />
		<tag k="ssr:stedsnr" v="457872" />
	</node>
	<node lat="61.34078611300129" lon="6.667411107729315" id="-37354">
		<tag k="name" v="Stokkaskreda" />
		<tag k="natural" v="valley" />
		<tag k="place" v="locality" />
		<tag k="ssr:stedsnr" v="457878" />
	</node>
	<node lat="61.281947225549956" lon="7.011480555360118" id="-37355">
		<tag k="fixme" v="consider natural=peak for the most distinct mountains in the district" />
		<tag k="name" v="Midtfjellet" />
		<tag k="natural" v="hill" />
		<tag k="place" v="locality" />
		<tag k="ssr:stedsnr" v="457879" />
	</node>
	<node lat="61.23865833198096" lon="7.018211113782207" id="-37356">
		<tag k="name" v="Tråna" />
		<tag k="place" v="locality" />
		<tag k="ssr:stedsnr" v="457888" />
	</node>
	<node lat="61.28389166914014" lon="7.043358342239381" id="-37357">
		<tag k="name" v="Hellebotn" />
		<tag k="natural" v="valley" />
		<tag k="place" v="locality" />
		<tag k="ssr:stedsnr" v="457894" />
	</node>
	<node lat="61.22884444479149" lon="7.041630550125058" id="-37358">
		<tag k="name" v="Holene" />
		<tag k="natural" v="slope" />
		<tag k="place" v="locality" />
		<tag k="ssr:stedsnr" v="457897" />
	</node>
	<node lat="61.23890555934943" lon="7.107033333257139" id="-37360">
		<tag k="name" v="Røvhaugane" />
		<tag k="natural" v="hill" />
		<tag k="place" v="locality" />
		<tag k="ssr:stedsnr" v="457993" />
	</node>
	<node lat="61.438825004252614" lon="6.734383336763283" id="-37364">
		<tag k="name" v="Vetleskreda" />
		<tag k="natural" v="valley" />
		<tag k="place" v="locality" />
		<tag k="ssr:stedsnr" v="458582" />
	</node>
	<node lat="61.175561110931426" lon="7.2799333361157625" id="-37365">
		<tag k="name" v="Kastet" />
		<tag k="natural" v="slope" />
		<tag k="place" v="locality" />
		<tag k="ssr:stedsnr" v="458587" />
	</node>
	<node lat="61.42232222494308" lon="6.762161119542613" id="-37367">
		<tag k="name" v="Ospeøyna" />
		<tag k="place" v="locality" />
		<tag k="ssr:stedsnr" v="458953" />
	</node>
	<node lat="61.25842222446205" lon="6.848794447042474" id="-37369">
		<tag k="name" v="Haugali" />
		<tag k="natural" v="slope" />
		<tag k="place" v="locality" />
		<tag k="ssr:stedsnr" v="459143" />
	</node>
	<node lat="61.23548055810045" lon="6.749436106269927" id="-37370">
		<tag k="name" v="Budeiehaug" />
		<tag k="natural" v="hill" />
		<tag k="place" v="locality" />
		<tag k="ssr:stedsnr" v="459278" />
	</node>
	<node lat="61.318027780311965" lon="6.915852773355874" id="-37371">
		<tag k="name" v="Midtrabben" />
		<tag k="natural" v="ridge" />
		<tag k="place" v="locality" />
		<tag k="ssr:stedsnr" v="275112" />
	</node>
	<node lat="61.28428333204034" lon="6.983819445417049" id="-37373">
		<tag k="name" v="Risbakkholene" />
		<tag k="natural" v="valley" />
		<tag k="place" v="locality" />
		<tag k="ssr:stedsnr" v="275403" />
	</node>
	<node lat="61.32396944884691" lon="6.9941249976537225" id="-37376">
		<tag k="name" v="Fimreitetråna" />
		<tag k="natural" v="slope" />
		<tag k="place" v="locality" />
		<tag k="ssr:stedsnr" v="275326" />
	</node>
	<node lat="61.13856389232539" lon="7.007811103606855" id="-37381">
		<tag k="name" v="Svinshovden" />
		<tag k="natural" v="hill" />
		<tag k="place" v="locality" />
		<tag k="ssr:stedsnr" v="275480" />
	</node>
	<node lat="61.15804722193142" lon="7.067449993877182" id="-37382">
		<tag k="fixme" v="consider natural=peak for the most distinct mountains in the district" />
		<tag k="name" v="Såta" />
		<tag k="natural" v="hill" />
		<tag k="place" v="locality" />
		<tag k="ssr:stedsnr" v="275483" />
	</node>
	<node lat="61.18057222107942" lon="6.979911118820666" id="-37383">
		<tag k="fixme" v="consider natural=peak for the most distinct mountains in the district" />
		<tag k="name" v="Sitjafjellet" />
		<tag k="natural" v="hill" />
		<tag k="place" v="locality" />
		<tag k="ssr:stedsnr" v="275625" />
	</node>
	<node lat="61.15154722278026" lon="7.139597223975694" id="-37384">
		<tag k="name" v="Vetleløypsdalen" />
		<tag k="natural" v="valley" />
		<tag k="place" v="locality" />
		<tag k="ssr:stedsnr" v="275570" />
	</node>
	<node lat="61.24509999641835" lon="7.163327772230375" id="-37387">
		<tag k="name" v="Furehaugen" />
		<tag k="natural" v="hill" />
		<tag k="place" v="locality" />
		<tag k="ssr:stedsnr" v="275919" />
	</node>
	<node lat="61.243483333047116" lon="7.174463879644555" id="-37388">
		<tag k="name" v="Svea" />
		<tag k="place" v="locality" />
		<tag k="ssr:stedsnr" v="275923" />
	</node>
	<node lat="61.30145278012363" lon="6.656866662146754" id="-37389">
		<tag k="name" v="Havavikskreda" />
		<tag k="natural" v="valley" />
		<tag k="place" v="locality" />
		<tag k="ssr:stedsnr" v="275981" />
	</node>
	<node lat="61.241455553180224" lon="7.223061102255063" id="-37391">
		<tag k="name" v="Kyrkjedalshaug" />
		<tag k="natural" v="hill" />
		<tag k="place" v="locality" />
		<tag k="ssr:stedsnr" v="276517" />
	</node>
	<node lat="61.42804444050723" lon="6.757774995931066" id="-37392">
		<tag k="name" v="Possen" />
		<tag k="place" v="locality" />
		<tag k="ssr:stedsnr" v="276614" />
	</node>
	<node lat="61.16813611505719" lon="7.332733325612089" id="-37393">
		<tag k="name" v="Øvste Halsane" />
		<tag k="natural" v="hill" />
		<tag k="place" v="locality" />
		<tag k="ssr:stedsnr" v="276704" />
	</node>
	<node lat="61.23884444449486" lon="7.2651666732574816" id="-37394">
		<tag k="name" v="Heggerummane" />
		<tag k="natural" v="slope" />
		<tag k="place" v="locality" />
		<tag k="ssr:stedsnr" v="276773" />
	</node>
	<node lat="61.26252777669038" lon="6.651875000874587" id="-37395">
		<tag k="name" v="Fureranden" />
		<tag k="natural" v="ridge" />
		<tag k="place" v="locality" />
		<tag k="ssr:stedsnr" v="277230" />
	</node>
	<node lat="61.28890277439031" lon="6.482866667060375" id="-37397">
		<tag k="name" v="Stokkane" />
		<tag k="natural" v="slope" />
		<tag k="place" v="locality" />
		<tag k="ssr:stedsnr" v="287031" />
	</node>
	<node lat="61.1964500006694" lon="6.500022217376632" id="-37398">
		<tag k="fixme" v="consider natural=peak for the most distinct mountains in the district" />
		<tag k="name" v="Fjærestadholten" />
		<tag k="natural" v="hill" />
		<tag k="place" v="locality" />
		<tag k="ssr:stedsnr" v="288078" />
	</node>
	<node lat="61.13450833541247" lon="6.483449999571481" id="-37399">
		<tag k="name" v="Kleivane" />
		<tag k="natural" v="valley" />
		<tag k="place" v="locality" />
		<tag k="ssr:stedsnr" v="288098" />
	</node>
	<node lat="61.17119444278627" lon="6.5117277821188315" id="-37400">
		<tag k="fixme" v="consider natural=peak for the most distinct mountains in the district" />
		<tag k="name" v="Hovden" />
		<tag k="natural" v="hill" />
		<tag k="place" v="locality" />
		<tag k="ssr:stedsnr" v="287992" />
	</node>
	<node lat="61.210358337112616" lon="6.498191671400209" id="-37401">
		<tag k="fixme" v="consider natural=peak for the most distinct mountains in the district" />
		<tag k="name" v="Hatlehamaren" />
		<tag k="natural" v="hill" />
		<tag k="place" v="locality" />
		<tag k="ssr:stedsnr" v="288000" />
	</node>
	<node lat="61.117716667656815" lon="6.454599994318907" id="-37402">
		<tag k="name" v="Lyngfletene" />
		<tag k="place" v="locality" />
		<tag k="ssr:stedsnr" v="288129" />
	</node>
	<node lat="61.124719446589275" lon="6.394422217168472" id="-37403">
		<tag k="name" v="Neste Sjonarhaug" />
		<tag k="natural" v="hill" />
		<tag k="place" v="locality" />
		<tag k="ssr:stedsnr" v="288279" />
	</node>
	<node lat="61.12726388622009" lon="6.381997220198006" id="-37404">
		<tag k="name" v="Storebotn" />
		<tag k="natural" v="valley" />
		<tag k="place" v="locality" />
		<tag k="ssr:stedsnr" v="288280" />
	</node>
	<node lat="61.23446110685697" lon="6.540797225079577" id="-37405">
		<tag k="name" v="Skåpargjelholten" />
		<tag k="natural" v="hill" />
		<tag k="place" v="locality" />
		<tag k="ssr:stedsnr" v="288732" />
	</node>
	<node lat="61.216569447748746" lon="6.466383338663651" id="-37406">
		<tag k="name" v="Rindane" />
		<tag k="natural" v="hill" />
		<tag k="place" v="locality" />
		<tag k="ssr:stedsnr" v="288777" />
	</node>
	<node lat="61.196299995885354" lon="6.431027772376557" id="-37407">
		<tag k="name" v="Styggagjelet" />
		<tag k="natural" v="valley" />
		<tag k="place" v="locality" />
		<tag k="ssr:stedsnr" v="288786" />
	</node>
	<node lat="61.31316110898212" lon="6.580297230012467" id="-37408">
		<tag k="name" v="Almehola" />
		<tag k="natural" v="valley" />
		<tag k="place" v="locality" />
		<tag k="ssr:stedsnr" v="288787" />
	</node>
	<node lat="61.16208889104473" lon="6.536116669945672" id="-37410">
		<tag k="name" v="Vasstakahaug" />
		<tag k="natural" v="hill" />
		<tag k="place" v="locality" />
		<tag k="ssr:stedsnr" v="288798" />
	</node>
	<node lat="61.22007222541927" lon="6.523286105428874" id="-37413">
		<tag k="name" v="Gullmannshaugen" />
		<tag k="natural" v="hill" />
		<tag k="place" v="locality" />
		<tag k="ssr:stedsnr" v="288890" />
	</node>
	<node lat="61.26069722290447" lon="6.471172230975583" id="-37417">
		<tag k="name" v="Almebakkane" />
		<tag k="natural" v="slope" />
		<tag k="place" v="locality" />
		<tag k="ssr:stedsnr" v="289635" />
	</node>
	<node lat="61.15284444591499" lon="6.538855564298477" id="-37418">
		<tag k="name" v="Sagahaugane" />
		<tag k="natural" v="hill" />
		<tag k="place" v="locality" />
		<tag k="ssr:stedsnr" v="289976" />
	</node>
	<node lat="61.18283610782569" lon="6.767047222994044" id="-37419">
		<tag k="name" v="Korrane" />
		<tag k="natural" v="slope" />
		<tag k="place" v="locality" />
		<tag k="ssr:stedsnr" v="465944" />
	</node>
	<node lat="61.26784999845649" lon="6.847472226670186" id="-37420">
		<tag k="fixme" v="consider natural=peak for the most distinct mountains in the district" />
		<tag k="name" v="Svolsetfjellet" />
		<tag k="natural" v="hill" />
		<tag k="place" v="locality" />
		<tag k="ssr:stedsnr" v="311176" />
	</node>
	<node lat="61.26396666706935" lon="6.737413884208069" id="-37421">
		<tag k="fixme" v="consider natural=peak for the most distinct mountains in the district" />
		<tag k="name" v="Stavafjellet" />
		<tag k="natural" v="hill" />
		<tag k="place" v="locality" />
		<tag k="ssr:stedsnr" v="311177" />
	</node>
	<node lat="61.26301944620271" lon="6.76428333106907" id="-37422">
		<tag k="name" v="Svinadalen" />
		<tag k="natural" v="valley" />
		<tag k="place" v="locality" />
		<tag k="ssr:stedsnr" v="311180" />
	</node>
	<node lat="61.265838886038324" lon="7.121244436891719" id="-37428">
		<tag k="alt_name" v="Hovden, vetle" />
		<tag k="fixme" v="consider natural=peak for the most distinct mountains in the district" />
		<tag k="name" v="Vetle Hovden" />
		<tag k="natural" v="hill" />
		<tag k="place" v="locality" />
		<tag k="ssr:stedsnr" v="311427" />
	</node>
	<node lat="61.283083333044324" lon="6.57748888884282" id="-37429">
		<tag k="name" v="Moldskreddalen" />
		<tag k="natural" v="valley" />
		<tag k="place" v="locality" />
		<tag k="ssr:stedsnr" v="311804" />
	</node>
	<node lat="61.335949996367255" lon="6.581425001838123" id="-37430">
		<tag k="name" v="Trollakyrkja" />
		<tag k="natural" v="valley" />
		<tag k="place" v="locality" />
		<tag k="ssr:stedsnr" v="311810" />
	</node>
	<node lat="61.46394721788954" lon="6.840108331109145" id="-37431">
		<tag k="name" v="Pallskreda" />
		<tag k="natural" v="slope" />
		<tag k="place" v="locality" />
		<tag k="ssr:stedsnr" v="311869" />
	</node>
	<node lat="61.497933330239526" lon="6.865449996358393" id="-37432">
		<tag k="name" v="Skarhola" />
		<tag k="natural" v="valley" />
		<tag k="place" v="locality" />
		<tag k="ssr:stedsnr" v="311885" />
	</node>
	<node lat="61.384102778199704" lon="6.584688881397005" id="-37434">
		<tag k="fixme" v="consider natural=peak for the most distinct mountains in the district" />
		<tag k="name" v="Grøndalseggi" />
		<tag k="natural" v="hill" />
		<tag k="place" v="locality" />
		<tag k="ssr:stedsnr" v="311771" />
	</node>
	<node lat="61.40113888469245" lon="6.763633335805705" id="-37435">
		<tag k="alt_name" v="Breidskreda" />
		<tag k="name" v="Breiskreda" />
		<tag k="natural" v="slope" />
		<tag k="place" v="locality" />
		<tag k="ssr:stedsnr" v="311913" />
	</node>
	<node lat="61.34395833010594" lon="6.741558341728936" id="-37436">
		<tag k="name" v="Buskreda" />
		<tag k="natural" v="valley" />
		<tag k="place" v="locality" />
		<tag k="ssr:stedsnr" v="311966" />
	</node>
	<node lat="61.23828332984493" lon="6.536799993693714" id="-37443">
		<tag k="alt_name" v="Skåpargjeldalen" />
		<tag k="name" v="Skopargilet" />
		<tag k="natural" v="valley" />
		<tag k="place" v="locality" />
		<tag k="ssr:stedsnr" v="312306" />
	</node>
	<node lat="61.108325000317734" lon="6.985866667554942" id="-37444">
		<tag k="alt_name" v="Applane" />
		<tag k="name" v="Aplane" />
		<tag k="place" v="locality" />
		<tag k="ssr:stedsnr" v="312469" />
	</node>
	<node lat="61.20396944334948" lon="6.881080546857461" id="-37452">
		<tag k="alt_name" v="Njøsdalen" />
		<tag k="name" v="Njøsadalen" />
		<tag k="natural" v="valley" />
		<tag k="place" v="locality" />
		<tag k="ssr:stedsnr" v="312982" />
	</node>
	<node lat="61.24876111274491" lon="7.088691663489932" id="-37454">
		<tag k="fixme" v="consider natural=peak for the most distinct mountains in the district" />
		<tag k="name" v="Skjeggen" />
		<tag k="natural" v="hill" />
		<tag k="place" v="locality" />
		<tag k="ssr:stedsnr" v="313167" />
	</node>
	<node lat="61.17828333477937" lon="7.334180555762751" id="-37456">
		<tag k="alt_name" v="Turrli-fjell" />
		<tag k="fixme" v="consider natural=peak for the most distinct mountains in the district" />
		<tag k="name" v="Turrlifjellet" />
		<tag k="natural" v="hill" />
		<tag k="place" v="locality" />
		<tag k="ssr:stedsnr" v="313004" />
	</node>
	<node lat="61.149822223961614" lon="7.060841666642971" id="-37459">
		<tag k="fixme" v="consider natural=peak for the most distinct mountains in the district" />
		<tag k="name" v="Byttegjuvhøgdi" />
		<tag k="natural" v="hill" />
		<tag k="place" v="locality" />
		<tag k="ssr:stedsnr" v="313027" />
	</node>
	<node lat="61.2154138897081" lon="7.092836106462525" id="-37460">
		<tag k="name" v="Stedjeberget" />
		<tag k="natural" v="hill" />
		<tag k="place" v="locality" />
		<tag k="ssr:stedsnr" v="313071" />
	</node>
	<node lat="61.144447221664755" lon="7.155550005379954" id="-37462">
		<tag k="name" v="Kyraløypet" />
		<tag k="place" v="locality" />
		<tag k="ssr:stedsnr" v="313476" />
	</node>
	<node lat="61.140680552063095" lon="6.99372500601827" id="-37464">
		<tag k="alt_name" v="Dømmingadalen" />
		<tag k="name" v="Dømingadalen" />
		<tag k="natural" v="valley" />
		<tag k="place" v="locality" />
		<tag k="ssr:stedsnr" v="313484" />
	</node>
	<node lat="61.13323611437641" lon="6.45063610239047" id="-37466">
		<tag k="name" v="Skaret" />
		<tag k="natural" v="valley" />
		<tag k="place" v="locality" />
		<tag k="ssr:stedsnr" v="469017" />
	</node>
	<node lat="61.17569721817328" lon="6.512313890885492" id="-37471">
		<tag k="name" v="Plomesvavegen" />
		<tag k="natural" v="slope" />
		<tag k="place" v="locality" />
		<tag k="ssr:stedsnr" v="469991" />
	</node>
	<node lat="61.139552779470634" lon="6.494266674361266" id="-37472">
		<tag k="name" v="Brandtgjelet" />
		<tag k="natural" v="valley" />
		<tag k="place" v="locality" />
		<tag k="ssr:stedsnr" v="470070" />
	</node>
	<node lat="61.13396944436708" lon="6.475349995239925" id="-37476">
		<tag k="name" v="Midthamaren" />
		<tag k="natural" v="hill" />
		<tag k="place" v="locality" />
		<tag k="ssr:stedsnr" v="470076" />
	</node>
	<node lat="61.34324283473965" lon="6.445836198348555" id="-37477">
		<tag k="name" v="Gaularfjellet" />
		<tag k="natural" v="mountain_range" />
		<tag k="ssr:stedsnr" v="329721" />
	</node>
	<node lat="61.33508333418886" lon="6.556438893381701" id="-37485">
		<tag k="name" v="Hatlhaugane" />
		<tag k="natural" v="hill" />
		<tag k="place" v="locality" />
		<tag k="ssr:stedsnr" v="470796" />
	</node>
	<node lat="61.257275004513914" lon="6.529633334657315" id="-37486">
		<tag k="name" v="Knulteren" />
		<tag k="natural" v="hill" />
		<tag k="place" v="locality" />
		<tag k="ssr:stedsnr" v="470743" />
	</node>
	<node lat="61.26411111305302" lon="6.467469441652495" id="-37487">
		<tag k="name" v="Kvanngrøli" />
		<tag k="natural" v="slope" />
		<tag k="place" v="locality" />
		<tag k="ssr:stedsnr" v="470746" />
	</node>
	<node lat="61.264119445641306" lon="6.518108331534849" id="-37488">
		<tag k="name" v="Strandagjelet" />
		<tag k="natural" v="valley" />
		<tag k="place" v="locality" />
		<tag k="ssr:stedsnr" v="470749" />
	</node>
	<node lat="61.29137778068242" lon="6.583236102807845" id="-37489">
		<tag k="fixme" v="consider natural=peak for the most distinct mountains in the district" />
		<tag k="name" v="Daurmålsholten" />
		<tag k="natural" v="hill" />
		<tag k="place" v="locality" />
		<tag k="ssr:stedsnr" v="470843" />
	</node>
	<node lat="61.24472499631796" lon="6.548255553698667" id="-37491">
		<tag k="name" v="Snauhaug" />
		<tag k="natural" v="hill" />
		<tag k="place" v="locality" />
		<tag k="ssr:stedsnr" v="470853" />
	</node>
	<node lat="61.30503610901129" lon="6.552338880352563" id="-37492">
		<tag k="name" v="Tråna" />
		<tag k="natural" v="slope" />
		<tag k="place" v="locality" />
		<tag k="ssr:stedsnr" v="470877" />
	</node>
	<node lat="61.221186110000595" lon="6.536199991654796" id="-37493">
		<tag k="name" v="Orraleiken" />
		<tag k="natural" v="slope" />
		<tag k="place" v="locality" />
		<tag k="ssr:stedsnr" v="470885" />
	</node>
	<node lat="61.22858055121299" lon="6.528644443216789" id="-37494">
		<tag k="fixme" v="consider natural=peak for the most distinct mountains in the district" />
		<tag k="name" v="Gjedlaholten" />
		<tag k="natural" v="hill" />
		<tag k="place" v="locality" />
		<tag k="ssr:stedsnr" v="470887" />
	</node>
	<node lat="61.22069167053911" lon="6.541236110411137" id="-37495">
		<tag k="name" v="Storehaug" />
		<tag k="natural" v="hill" />
		<tag k="place" v="locality" />
		<tag k="ssr:stedsnr" v="470889" />
	</node>
	<node lat="61.222627778985284" lon="6.524197220143478" id="-37496">
		<tag k="name" v="Leigdene" />
		<tag k="natural" v="valley" />
		<tag k="place" v="locality" />
		<tag k="ssr:stedsnr" v="470894" />
	</node>
	<node lat="61.22666944368557" lon="6.512475004711237" id="-37497">
		<tag k="name" v="Skrenesgjelet" />
		<tag k="natural" v="gorge" />
		<tag k="ssr:stedsnr" v="470901" />
	</node>
	<node lat="61.28656111197648" lon="6.5080305589232115" id="-37499">
		<tag k="fixme" v="consider natural=peak for the most distinct mountains in the district" />
		<tag k="name" v="Flåghamaren" />
		<tag k="natural" v="hill" />
		<tag k="place" v="locality" />
		<tag k="ssr:stedsnr" v="470954" />
	</node>
	<node lat="61.211200002134696" lon="6.504027778157095" id="-37500">
		<tag k="name" v="Storahøgdi" />
		<tag k="natural" v="hill" />
		<tag k="place" v="locality" />
		<tag k="ssr:stedsnr" v="470983" />
	</node>
	<node lat="61.352999998813885" lon="6.911633339460241" id="-37501">
		<tag k="name" v="Lingeneshaugen" />
		<tag k="natural" v="hill" />
		<tag k="place" v="locality" />
		<tag k="ssr:stedsnr" v="335005" />
	</node>
	<node lat="61.319658329906694" lon="6.906205547186873" id="-37502">
		<tag k="name" v="Hausali" />
		<tag k="natural" v="slope" />
		<tag k="place" v="locality" />
		<tag k="ssr:stedsnr" v="335016" />
	</node>
	<node lat="61.32501944456816" lon="6.9270222160875665" id="-37503">
		<tag k="name" v="Brandhaugane" />
		<tag k="natural" v="hill" />
		<tag k="place" v="locality" />
		<tag k="ssr:stedsnr" v="335149" />
	</node>
	<node lat="61.28574166588306" lon="6.958030548453683" id="-37504">
		<tag k="name" v="Tuftahaug" />
		<tag k="natural" v="hill" />
		<tag k="place" v="locality" />
		<tag k="ssr:stedsnr" v="335363" />
	</node>
	<node lat="61.16408055225719" lon="6.966219444689439" id="-37506">
		<tag k="name" v="Husebøslettet" />
		<tag k="place" v="locality" />
		<tag k="ssr:stedsnr" v="335560" />
	</node>
	<node lat="61.232166666937886" lon="7.050019452166587" id="-37508">
		<tag k="name" v="Kløv" />
		<tag k="natural" v="slope" />
		<tag k="place" v="locality" />
		<tag k="ssr:stedsnr" v="335944" />
	</node>
	<node lat="61.235494440781686" lon="7.103569452207407" id="-37509">
		<tag k="name" v="Kongaberg" />
		<tag k="natural" v="hill" />
		<tag k="place" v="locality" />
		<tag k="ssr:stedsnr" v="335995" />
	</node>
	<node lat="61.25802500163497" lon="7.206083325168911" id="-37512">
		<tag k="name" v="Fagervasshaugen" />
		<tag k="natural" v="hill" />
		<tag k="place" v="locality" />
		<tag k="ssr:stedsnr" v="336535" />
	</node>
	<node lat="61.26390832879135" lon="7.174708325510067" id="-37515">
		<tag k="name" v="Lindedokki" />
		<tag k="natural" v="hill" />
		<tag k="place" v="locality" />
		<tag k="ssr:stedsnr" v="336415" />
	</node>
	<node lat="61.450111115372636" lon="6.743591669875576" id="-37517">
		<tag k="name" v="Flåtane" />
		<tag k="place" v="locality" />
		<tag k="ssr:stedsnr" v="336818" />
	</node>
	<node lat="61.439705556954905" lon="6.773986119166632" id="-37521">
		<tag k="name" v="Sjonarhaug" />
		<tag k="natural" v="hill" />
		<tag k="place" v="locality" />
		<tag k="ssr:stedsnr" v="336800" />
	</node>
	<node lat="61.41934999598864" lon="6.67619722943917" id="-37522">
		<tag k="name" v="Hamaren" />
		<tag k="natural" v="hill" />
		<tag k="place" v="locality" />
		<tag k="ssr:stedsnr" v="336992" />
	</node>
	<node lat="61.19494294019902" lon="6.745242571368117" id="-37523">
		<tag k="name" v="Huksdalen" />
		<tag k="natural" v="valley" />
		<tag k="place" v="locality" />
		<tag k="ssr:stedsnr" v="337125" />
	</node>
	<node lat="61.260613888944754" lon="6.918994449199122" id="-37525">
		<tag k="name" v="Botn" />
		<tag k="natural" v="valley" />
		<tag k="place" v="locality" />
		<tag k="ssr:stedsnr" v="337708" />
	</node>
	<node lat="61.19080833104953" lon="6.791516659691072" id="-37526">
		<tag k="name" v="Styggeteigen" />
		<tag k="natural" v="slope" />
		<tag k="place" v="locality" />
		<tag k="ssr:stedsnr" v="337656" />
	</node>
	<node lat="61.20641944739645" lon="6.807413880919845" id="-37527">
		<tag k="name" v="Svoldsæt" />
		<tag k="natural" v="hill" />
		<tag k="place" v="locality" />
		<tag k="ssr:stedsnr" v="337658" />
	</node>
	<node lat="61.308588886636755" lon="6.590580562234989" id="-37529">
		<tag k="fixme" v="consider natural=peak for the most distinct mountains in the district" />
		<tag k="name" v="Kringleholten" />
		<tag k="natural" v="hill" />
		<tag k="place" v="locality" />
		<tag k="ssr:stedsnr" v="348019" />
	</node>
	<node lat="61.26584999911604" lon="6.5050111162683315" id="-37532">
		<tag k="name" v="Flåtane" />
		<tag k="natural" v="hill" />
		<tag k="place" v="locality" />
		<tag k="ssr:stedsnr" v="348573" />
	</node>
	<node lat="61.11856944168003" lon="6.4359277750464425" id="-37533">
		<tag k="name" v="Kambane" />
		<tag k="natural" v="ridge" />
		<tag k="place" v="locality" />
		<tag k="ssr:stedsnr" v="348916" />
	</node>
	<node lat="61.12303610728807" lon="6.4110472301172665" id="-37534">
		<tag k="name" v="Raudfletene" />
		<tag k="natural" v="slope" />
		<tag k="place" v="locality" />
		<tag k="ssr:stedsnr" v="348920" />
	</node>
	<node lat="61.18542777429067" lon="6.5144444506610775" id="-37536">
		<tag k="name" v="Rinden" />
		<tag k="natural" v="hill" />
		<tag k="place" v="locality" />
		<tag k="ssr:stedsnr" v="348866" />
	</node>
	<node lat="61.1421916654821" lon="6.5082833320488644" id="-37538">
		<tag k="name" v="Budeieklypet" />
		<tag k="natural" v="valley" />
		<tag k="place" v="locality" />
		<tag k="ssr:stedsnr" v="349060" />
	</node>
	<node lat="61.22356944113563" lon="6.529033330699905" id="-37543">
		<tag k="name" v="Djupeli" />
		<tag k="natural" v="slope" />
		<tag k="place" v="locality" />
		<tag k="ssr:stedsnr" v="349920" />
	</node>
	<node lat="61.277605552284655" lon="7.052774991716283" id="-37550">
		<tag k="name" v="Haraberg" />
		<tag k="natural" v="hill" />
		<tag k="place" v="locality" />
		<tag k="ssr:stedsnr" v="371311" />
	</node>
	<node lat="61.38174999595783" lon="6.5654916622848924" id="-37556">
		<tag k="name" v="Tverrbotnen" />
		<tag k="natural" v="valley" />
		<tag k="place" v="locality" />
		<tag k="ssr:stedsnr" v="371726" />
	</node>
	<node lat="61.383374997792046" lon="6.515297219572946" id="-37557">
		<tag k="fixme" v="consider natural=peak for the most distinct mountains in the district" />
		<tag k="name" v="Gottopphesten" />
		<tag k="natural" v="hill" />
		<tag k="old_name" v="Gotopphesten" />
		<tag k="place" v="locality" />
		<tag k="ssr:stedsnr" v="371728" />
	</node>
	<node lat="61.294152775039734" lon="6.472730550950832" id="-37558">
		<tag k="name" v="Sværadalen" />
		<tag k="natural" v="valley" />
		<tag k="place" v="locality" />
		<tag k="ssr:stedsnr" v="371760" />
	</node>
	<node lat="61.402888891450935" lon="6.764163895547176" id="-37559">
		<tag k="alt_name" v="Inste Toskaskreda;Yste Toskaskreda" />
		<tag k="name" v="Toskeskredene" />
		<tag k="natural" v="slope" />
		<tag k="place" v="locality" />
		<tag k="ssr:stedsnr" v="371908" />
	</node>
	<node lat="61.383369441127314" lon="6.649941658120256" id="-37560">
		<tag k="fixme" v="consider natural=peak for the most distinct mountains in the district" />
		<tag k="name" v="Jordalsnipa" />
		<tag k="natural" v="hill" />
		<tag k="place" v="locality" />
		<tag k="ssr:stedsnr" v="371912" />
	</node>
	<node lat="61.33738055285875" lon="6.613174994419694" id="-37561">
		<tag k="fixme" v="consider natural=peak for the most distinct mountains in the district" />
		<tag k="name" v="Saueggi" />
		<tag k="natural" v="hill" />
		<tag k="place" v="locality" />
		<tag k="ssr:stedsnr" v="371959" />
	</node>
	<node lat="61.39113610692503" lon="6.760994444994508" id="-37563">
		<tag k="alt_name" v="Ramsaskreda" />
		<tag k="name" v="Ramsegroskreda" />
		<tag k="natural" v="slope" />
		<tag k="place" v="locality" />
		<tag k="ssr:stedsnr" v="371966" />
	</node>
	<node lat="61.3288416634635" lon="6.854388889592468" id="-37566">
		<tag k="alt_name" v="Nystølfjellet" />
		<tag k="fixme" v="consider natural=peak for the most distinct mountains in the district" />
		<tag k="name" v="Nystølsfjellet" />
		<tag k="natural" v="hill" />
		<tag k="place" v="locality" />
		<tag k="ssr:stedsnr" v="372209" />
	</node>
	<node lat="61.32075555183788" lon="6.81261944332889" id="-37567">
		<tag k="name" v="Styggebotn" />
		<tag k="natural" v="valley" />
		<tag k="place" v="locality" />
		<tag k="ssr:stedsnr" v="372216" />
	</node>
	<node lat="61.30946666710127" lon="6.6337333255116775" id="-37568">
		<tag k="fixme" v="consider natural=peak for the most distinct mountains in the district" />
		<tag k="name" v="Teigerana" />
		<tag k="natural" v="hill" />
		<tag k="place" v="locality" />
		<tag k="ssr:stedsnr" v="372222" />
	</node>
	<node lat="61.45704722630386" lon="6.707583339134363" id="-37574">
		<tag k="name" v="Risabotn" />
		<tag k="natural" v="valley" />
		<tag k="place" v="locality" />
		<tag k="ssr:stedsnr" v="372860" />
	</node>
	<node lat="61.2345527756607" lon="6.515813896265447" id="-37578">
		<tag k="fixme" v="consider natural=peak for the most distinct mountains in the district" />
		<tag k="name" v="Tjugatoten" />
		<tag k="natural" v="hill" />
		<tag k="place" v="locality" />
		<tag k="ssr:stedsnr" v="373298" />
	</node>
	<node lat="61.23975832970341" lon="6.694555562767993" id="-37579">
		<tag k="fixme" v="consider natural=peak for the most distinct mountains in the district" />
		<tag k="name" v="Hest" />
		<tag k="natural" v="hill" />
		<tag k="place" v="locality" />
		<tag k="ssr:stedsnr" v="373550" />
	</node>
	<node lat="61.24139444610357" lon="6.744852786262556" id="-37581">
		<tag k="name" v="Henjane" />
		<tag k="natural" v="hill" />
		<tag k="place" v="locality" />
		<tag k="ssr:stedsnr" v="373565" />
	</node>
	<node lat="61.22510833531007" lon="6.451741671184569" id="-37582">
		<tag k="fixme" v="consider natural=peak for the most distinct mountains in the district" />
		<tag k="name" v="Vindreken" />
		<tag k="natural" v="hill" />
		<tag k="place" v="locality" />
		<tag k="ssr:stedsnr" v="373712" />
	</node>
	<node lat="61.154194447288106" lon="6.407586109200006" id="-37585">
		<tag k="name" v="Russdalen" />
		<tag k="natural" v="valley" />
		<tag k="place" v="locality" />
		<tag k="ssr:stedsnr" v="373650" />
	</node>
	<node lat="61.17666666924501" lon="6.887413888987289" id="-37589">
		<tag k="name" v="Korahola" />
		<tag k="place" v="locality" />
		<tag k="ssr:stedsnr" v="373928" />
	</node>
	<node lat="61.22308333512466" lon="6.896372214059805" id="-37590">
		<tag k="name" v="Storli" />
		<tag k="natural" v="slope" />
		<tag k="place" v="locality" />
		<tag k="ssr:stedsnr" v="373950" />
	</node>
	<node lat="61.41446666471767" lon="6.74448332632565" id="-37598">
		<tag k="name" v="Brattbakken" />
		<tag k="natural" v="slope" />
		<tag k="place" v="locality" />
		<tag k="ssr:stedsnr" v="481046" />
	</node>
	<node lat="61.25633610723504" lon="6.764205550201511" id="-37601">
		<tag k="name" v="Bleiehaug" />
		<tag k="natural" v="hill" />
		<tag k="place" v="locality" />
		<tag k="ssr:stedsnr" v="384722" />
	</node>
	<node lat="61.33125000036794" lon="6.982033332855315" id="-37605">
		<tag k="name" v="Klantaflaten" />
		<tag k="place" v="locality" />
		<tag k="ssr:stedsnr" v="396229" />
	</node>
	<node lat="61.276463889401676" lon="7.16256944322155" id="-37606">
		<tag k="name" v="Hasledokki" />
		<tag k="natural" v="hill" />
		<tag k="place" v="locality" />
		<tag k="ssr:stedsnr" v="396507" />
	</node>
	<node lat="61.148002780178196" lon="6.969155559506344" id="-37607">
		<tag k="name" v="Vassli" />
		<tag k="natural" v="slope" />
		<tag k="place" v="locality" />
		<tag k="ssr:stedsnr" v="396514" />
	</node>
	<node lat="61.28248611309993" lon="7.210988880845323" id="-37608">
		<tag k="fixme" v="consider natural=peak for the most distinct mountains in the district" />
		<tag k="name" v="Middagsholten" />
		<tag k="natural" v="hill" />
		<tag k="place" v="locality" />
		<tag k="ssr:stedsnr" v="396533" />
	</node>
	<node lat="61.13937500168531" lon="7.106969446750618" id="-37610">
		<tag k="name" v="Johannesløypet" />
		<tag k="natural" v="slope" />
		<tag k="place" v="locality" />
		<tag k="ssr:stedsnr" v="396538" />
	</node>
	<node lat="61.26397221813533" lon="7.170105552122537" id="-37611">
		<tag k="name" v="Bjørgahamrane" />
		<tag k="natural" v="hill" />
		<tag k="place" v="locality" />
		<tag k="ssr:stedsnr" v="396407" />
	</node>
	<node lat="61.402777779349634" lon="6.726694452751539" id="-37613">
		<tag k="name" v="Kvernhusøyna" />
		<tag k="place" v="locality" />
		<tag k="ssr:stedsnr" v="396492" />
	</node>
	<node lat="61.36296666456199" lon="6.710152772249677" id="-37614">
		<tag k="fixme" v="consider natural=peak for the most distinct mountains in the district" />
		<tag k="name" v="Holten" />
		<tag k="natural" v="hill" />
		<tag k="place" v="locality" />
		<tag k="ssr:stedsnr" v="396588" />
	</node>
	<node lat="61.14416666862615" lon="6.989597215439292" id="-37615">
		<tag k="name" v="Torkjelsløypet" />
		<tag k="natural" v="hill" />
		<tag k="place" v="locality" />
		<tag k="ssr:stedsnr" v="396591" />
	</node>
	<node lat="61.18005555906037" lon="7.106075003941857" id="-37616">
		<tag k="name" v="Mannaskar" />
		<tag k="natural" v="valley" />
		<tag k="place" v="locality" />
		<tag k="ssr:stedsnr" v="396599" />
	</node>
	<node lat="61.41738610688633" lon="6.806024997261879" id="-37617">
		<tag k="name" v="Kvannskreda" />
		<tag k="natural" v="valley" />
		<tag k="place" v="locality" />
		<tag k="ssr:stedsnr" v="396729" />
	</node>
	<node lat="61.1425361134831" lon="6.929933340076635" id="-37618">
		<tag k="name" v="Meisdalen" />
		<tag k="natural" v="valley" />
		<tag k="place" v="locality" />
		<tag k="ssr:stedsnr" v="396780" />
	</node>
	<node lat="61.3272916644384" lon="6.711016672403788" id="-37619">
		<tag k="name" v="Heggeskreda" />
		<tag k="natural" v="valley" />
		<tag k="place" v="locality" />
		<tag k="ssr:stedsnr" v="396905" />
	</node>
	<node lat="61.24107222335173" lon="7.169591666192994" id="-37620">
		<tag k="name" v="Habbesetli" />
		<tag k="natural" v="slope" />
		<tag k="place" v="locality" />
		<tag k="ssr:stedsnr" v="396911" />
	</node>
	<node lat="61.11860832932456" lon="6.9427416681376934" id="-37622">
		<tag k="name" v="Knekebeberget" />
		<tag k="natural" v="hill" />
		<tag k="place" v="locality" />
		<tag k="ssr:stedsnr" v="396810" />
	</node>
	<node lat="61.28257500341241" lon="7.058813881359085" id="-37624">
		<tag k="name" v="Kiggavassholene" />
		<tag k="natural" v="gorge" />
		<tag k="ssr:stedsnr" v="396880" />
	</node>
	<node lat="61.23068055836183" lon="7.037052774040387" id="-37625">
		<tag k="name" v="Svartaberg" />
		<tag k="natural" v="hill" />
		<tag k="place" v="locality" />
		<tag k="ssr:stedsnr" v="396893" />
	</node>
	<node lat="61.347611109156844" lon="6.894947221731014" id="-37626">
		<tag k="name" v="Veslestakken" />
		<tag k="natural" v="hill" />
		<tag k="place" v="locality" />
		<tag k="ssr:stedsnr" v="396894" />
	</node>
	<node lat="61.18595555714042" lon="7.229244436252024" id="-37628">
		<tag k="name" v="Hatlebakken" />
		<tag k="natural" v="valley" />
		<tag k="place" v="locality" />
		<tag k="ssr:stedsnr" v="397209" />
	</node>
	<node lat="61.21273888748346" lon="6.6676222233639475" id="-37629">
		<tag k="name" v="Skar" />
		<tag k="natural" v="valley" />
		<tag k="place" v="locality" />
		<tag k="ssr:stedsnr" v="397297" />
	</node>
	<node lat="61.19465278122156" lon="7.280022222218659" id="-37630">
		<tag k="name" v="Bukkhaug" />
		<tag k="natural" v="hill" />
		<tag k="place" v="locality" />
		<tag k="ssr:stedsnr" v="397588" />
	</node>
	<node lat="61.18736111404335" lon="7.288311106913957" id="-37631">
		<tag k="name" v="Fossbakkane" />
		<tag k="natural" v="slope" />
		<tag k="place" v="locality" />
		<tag k="ssr:stedsnr" v="397592" />
	</node>
	<node lat="61.181763885083825" lon="6.889047222033745" id="-37634">
		<tag k="name" v="Soleiholene" />
		<tag k="natural" v="slope" />
		<tag k="place" v="locality" />
		<tag k="ssr:stedsnr" v="398502" />
	</node>
	<node lat="61.202530559780485" lon="6.484800002503967" id="-37638">
		<tag k="name" v="Sjonarstein" />
		<tag k="natural" v="hill" />
		<tag k="place" v="locality" />
		<tag k="ssr:stedsnr" v="409074" />
	</node>
	<node lat="61.12544722028259" lon="6.401405559115528" id="-37640">
		<tag k="name" v="Skabakken" />
		<tag k="natural" v="slope" />
		<tag k="place" v="locality" />
		<tag k="ssr:stedsnr" v="409308" />
	</node>
	<node lat="61.23916110832833" lon="6.53859721519823" id="-37642">
		<tag k="name" v="Bringebærhaugane" />
		<tag k="natural" v="hill" />
		<tag k="place" v="locality" />
		<tag k="ssr:stedsnr" v="409829" />
	</node>
	<node lat="61.27729166586198" lon="6.533591658518104" id="-37644">
		<tag k="name" v="Stølsgjelet" />
		<tag k="natural" v="valley" />
		<tag k="place" v="locality" />
		<tag k="ssr:stedsnr" v="409892" />
	</node>
	<node lat="61.26131666341514" lon="6.51309166750074" id="-37645">
		<tag k="name" v="Jenko" />
		<tag k="natural" v="valley" />
		<tag k="place" v="locality" />
		<tag k="ssr:stedsnr" v="409740" />
	</node>
	<node lat="61.17830556000689" lon="6.518725008399121" id="-37647">
		<tag k="name" v="Galdavegen" />
		<tag k="natural" v="slope" />
		<tag k="place" v="locality" />
		<tag k="ssr:stedsnr" v="409991" />
	</node>
	<node lat="61.19989722566352" lon="6.450913895714953" id="-37649">
		<tag k="name" v="Geitskreda" />
		<tag k="natural" v="valley" />
		<tag k="place" v="locality" />
		<tag k="ssr:stedsnr" v="410790" />
	</node>
	<node lat="61.2290500013865" lon="6.585691670607971" id="-37650">
		<tag k="name" v="Slurpen" />
		<tag k="place" v="locality" />
		<tag k="ssr:stedsnr" v="410943" />
	</node>
	<node lat="61.21036111296917" lon="6.775041662693869" id="-37652">
		<tag k="name" v="Vasslihaugane" />
		<tag k="natural" v="valley" />
		<tag k="place" v="locality" />
		<tag k="ssr:stedsnr" v="423996" />
	</node>
	<node lat="61.259197222197315" lon="6.647736113138069" id="-37653">
		<tag k="name" v="Trodalen" />
		<tag k="natural" v="valley" />
		<tag k="place" v="locality" />
		<tag k="ssr:stedsnr" v="432140" />
	</node>
	<node lat="61.26517777929103" lon="6.663761107579181" id="-37654">
		<tag k="fixme" v="consider natural=peak for the most distinct mountains in the district" />
		<tag k="name" v="Børtnesholten" />
		<tag k="natural" v="hill" />
		<tag k="place" v="locality" />
		<tag k="ssr:stedsnr" v="432142" />
	</node>
	<node lat="61.283480556029495" lon="7.023019449839032" id="-37658">
		<tag k="alt_name" v="Kviksås" />
		<tag k="fixme" v="consider natural=peak for the most distinct mountains in the district" />
		<tag k="name" v="Kvikksås" />
		<tag k="natural" v="hill" />
		<tag k="place" v="locality" />
		<tag k="ssr:stedsnr" v="432392" />
	</node>
	<node lat="61.39891111433373" lon="6.798297217475278" id="-37660">
		<tag k="fixme" v="consider natural=peak for the most distinct mountains in the district" />
		<tag k="name" v="Endrefjellet" />
		<tag k="natural" v="hill" />
		<tag k="place" v="locality" />
		<tag k="ssr:stedsnr" v="432908" />
	</node>
	<node lat="61.342638890647024" lon="6.947530553358532" id="-37662">
		<tag k="name" v="Klanten" />
		<tag k="natural" v="hill" />
		<tag k="place" v="locality" />
		<tag k="ssr:stedsnr" v="433189" />
	</node>
	<node lat="61.31563889161874" lon="6.6524000056072685" id="-37664">
		<tag k="name" v="Rabbaskreda" />
		<tag k="natural" v="slope" />
		<tag k="place" v="locality" />
		<tag k="ssr:stedsnr" v="433202" />
	</node>
	<node lat="61.3396916632265" lon="6.446377769437298" id="-37669">
		<tag k="name" v="Nystølshaugane" />
		<tag k="natural" v="hill" />
		<tag k="place" v="locality" />
		<tag k="ssr:stedsnr" v="433714" />
	</node>
	<node lat="61.33051111534235" lon="6.523861104008952" id="-37670">
		<tag k="fixme" v="consider natural=peak for the most distinct mountains in the district" />
		<tag k="name" v="Bakkanipa" />
		<tag k="natural" v="hill" />
		<tag k="place" v="locality" />
		<tag k="ssr:stedsnr" v="433808" />
	</node>
	<node lat="61.45173480603294" lon="6.727541996761846" id="-37671">
		<tag k="name" v="Fugleleiki" />
		<tag k="natural" v="slope" />
		<tag k="place" v="locality" />
		<tag k="ssr:stedsnr" v="433835" />
	</node>
	<node lat="61.45941111256957" lon="6.738736107736821" id="-37672">
		<tag k="name" v="Bøyadalen" />
		<tag k="natural" v="valley" />
		<tag k="place" v="locality" />
		<tag k="ssr:stedsnr" v="433839" />
	</node>
	<node lat="61.3039916625439" lon="6.45990832786742" id="-37673">
		<tag k="name" v="Sværaskaret" />
		<tag k="natural" v="valley" />
		<tag k="place" v="locality" />
		<tag k="ssr:stedsnr" v="433776" />
	</node>
	<node lat="61.18511110873794" lon="6.901416659279421" id="-37677">
		<tag k="name" v="Stemmedalen" />
		<tag k="natural" v="valley" />
		<tag k="place" v="locality" />
		<tag k="ssr:stedsnr" v="434921" />
	</node>
	<node lat="61.187766663678836" lon="6.90125833099575" id="-37678">
		<tag k="fixme" v="consider natural=peak for the most distinct mountains in the district" />
		<tag k="name" v="Svarthamrane" />
		<tag k="natural" v="hill" />
		<tag k="place" v="locality" />
		<tag k="ssr:stedsnr" v="434923" />
	</node>
	<node lat="61.24055000000052" lon="7.079033338937043" id="-37683">
		<tag k="name" v="Bergi" />
		<tag k="natural" v="hill" />
		<tag k="place" v="locality" />
		<tag k="ssr:stedsnr" v="435130" />
	</node>
	<node lat="61.168261110492466" lon="7.136980547721666" id="-37685">
		<tag k="fixme" v="consider natural=peak for the most distinct mountains in the district" />
		<tag k="name" v="Glennefjellet" />
		<tag k="natural" v="hill" />
		<tag k="place" v="locality" />
		<tag k="ssr:stedsnr" v="435019" />
	</node>
	<node lat="61.18323333034701" lon="7.0824305604537345" id="-37687">
		<tag k="name" v="Bergjamhaug" />
		<tag k="natural" v="hill" />
		<tag k="place" v="locality" />
		<tag k="ssr:stedsnr" v="435066" />
	</node>
	<node lat="61.18027777360332" lon="7.06481110568681" id="-37691">
		<tag k="fixme" v="consider natural=peak for the most distinct mountains in the district" />
		<tag k="name" v="Vinesnipa" />
		<tag k="natural" v="hill" />
		<tag k="place" v="locality" />
		<tag k="ssr:stedsnr" v="435077" />
	</node>
	<node lat="61.17954167086032" lon="7.049808330514631" id="-37692">
		<tag k="alt_name" v="Venesåsen" />
		<tag k="fixme" v="consider natural=peak for the most distinct mountains in the district" />
		<tag k="name" v="Vinesåsen" />
		<tag k="natural" v="hill" />
		<tag k="place" v="locality" />
		<tag k="ssr:stedsnr" v="435079" />
	</node>
	<node lat="61.14321111367045" lon="7.064311115351706" id="-37694">
		<tag k="alt_name" v="Byttejuvgjelet" />
		<tag k="name" v="Byttejuvgilet" />
		<tag k="natural" v="valley" />
		<tag k="place" v="locality" />
		<tag k="ssr:stedsnr" v="435520" />
	</node>
	<node lat="61.43142222578463" lon="6.687300002707161" id="-37696">
		<tag k="fixme" v="consider natural=peak for the most distinct mountains in the district" />
		<tag k="name" v="Geitaryggen" />
		<tag k="natural" v="hill" />
		<tag k="place" v="locality" />
		<tag k="ssr:stedsnr" v="492900" />
	</node>
	<node lat="61.257022225976804" lon="6.700469436150871" id="-37699">
		<tag k="alt_name" v="Stavafjellet" />
		<tag k="fixme" v="consider natural=peak for the most distinct mountains in the district" />
		<tag k="name" v="Stav" />
		<tag k="natural" v="hill" />
		<tag k="place" v="locality" />
		<tag k="ssr:stedsnr" v="493162" />
	</node>
	<node lat="61.294602774781396" lon="6.700125000433072" id="-37702">
		<tag k="fixme" v="consider natural=peak for the most distinct mountains in the district" />
		<tag k="name" v="Ramsnesholten" />
		<tag k="natural" v="hill" />
		<tag k="place" v="locality" />
		<tag k="ssr:stedsnr" v="493240" />
	</node>
	<node lat="61.29946388519093" lon="6.528549993562644" id="-37707">
		<tag k="alt_name" v="Vetlafjellet" />
		<tag k="fixme" v="consider natural=peak for the most distinct mountains in the district" />
		<tag k="name" v="Vetlefjell" />
		<tag k="natural" v="hill" />
		<tag k="place" v="locality" />
		<tag k="ssr:stedsnr" v="493775" />
	</node>
	<node lat="61.341022218977535" lon="6.538344447449603" id="-37709">
		<tag k="alt_name" v="Slåkedalen" />
		<tag k="name" v="Slåkadalen" />
		<tag k="natural" v="valley" />
		<tag k="place" v="locality" />
		<tag k="ssr:stedsnr" v="493717" />
	</node>
	<node lat="61.28529444125443" lon="6.443966671954125" id="-37712">
		<tag k="fixme" v="consider natural=peak for the most distinct mountains in the district" />
		<tag k="name" v="Johannesberg" />
		<tag k="natural" v="hill" />
		<tag k="place" v="locality" />
		<tag k="ssr:stedsnr" v="493793" />
	</node>
	<node lat="61.40547221875582" lon="6.635369447704296" id="-37714">
		<tag k="fixme" v="consider natural=peak for the most distinct mountains in the district" />
		<tag k="name" v="Midtgretta" />
		<tag k="natural" v="hill" />
		<tag k="place" v="locality" />
		<tag k="ssr:stedsnr" v="493892" />
	</node>
	<node lat="61.45752222165076" lon="6.72136111631291" id="-37715">
		<tag k="name" v="Omnskredene" />
		<tag k="natural" v="slope" />
		<tag k="place" v="locality" />
		<tag k="ssr:stedsnr" v="493856" />
	</node>
	<node lat="61.334969440097" lon="6.79839445083471" id="-37719">
		<tag k="fixme" v="consider natural=peak for the most distinct mountains in the district" />
		<tag k="name" v="Vikaeggene" />
		<tag k="natural" v="hill" />
		<tag k="place" v="locality" />
		<tag k="ssr:stedsnr" v="493959" />
	</node>
	<node lat="61.37139444696922" lon="6.634127783193601" id="-37721">
		<tag k="name" v="Jordalsdalen" />
		<tag k="natural" v="valley" />
		<tag k="place" v="locality" />
		<tag k="ssr:stedsnr" v="493984" />
	</node>
	<node lat="61.367763889159235" lon="6.705347215742841" id="-37723">
		<tag k="fixme" v="consider natural=peak for the most distinct mountains in the district" />
		<tag k="name" v="Robbi" />
		<tag k="natural" v="hill" />
		<tag k="place" v="locality" />
		<tag k="ssr:stedsnr" v="493988" />
	</node>
	<node lat="61.20518611116218" lon="6.887161110063037" id="-37727">
		<tag k="name" v="Lysedalen" />
		<tag k="natural" v="valley" />
		<tag k="place" v="locality" />
		<tag k="ssr:stedsnr" v="494896" />
	</node>
	<node lat="61.24316388987566" lon="6.602538883839971" id="-37729">
		<tag k="alt_name" v="Frykjelen" />
		<tag k="name" v="Frykkjelen" />
		<tag k="natural" v="slope" />
		<tag k="place" v="locality" />
		<tag k="ssr:stedsnr" v="494501" />
	</node>
	<node lat="61.280944445449634" lon="6.940999991300769" id="-37735">
		<tag k="name" v="Ryseteholene" />
		<tag k="natural" v="gorge" />
		<tag k="ssr:stedsnr" v="457365" />
	</node>
	<node lat="61.26986111019816" lon="7.207430560634607" id="-37738">
		<tag k="name" v="Rustadbakken" />
		<tag k="natural" v="slope" />
		<tag k="place" v="locality" />
		<tag k="ssr:stedsnr" v="457523" />
	</node>
	<node lat="61.116124998786425" lon="6.973149992774645" id="-37740">
		<tag k="name" v="Kjøtsili" />
		<tag k="natural" v="slope" />
		<tag k="place" v="locality" />
		<tag k="ssr:stedsnr" v="457824" />
	</node>
	<node lat="61.48428888653461" lon="6.732294442466801" id="-37741">
		<tag k="name" v="Breierinden" />
		<tag k="natural" v="hill" />
		<tag k="place" v="locality" />
		<tag k="ssr:stedsnr" v="457851" />
	</node>
	<node lat="61.137233336042776" lon="6.946494452428761" id="-37742">
		<tag k="name" v="Stigane" />
		<tag k="natural" v="slope" />
		<tag k="place" v="locality" />
		<tag k="ssr:stedsnr" v="457720" />
	</node>
	<node lat="61.321669440846975" lon="6.704325005628641" id="-37745">
		<tag k="name" v="Geitsberg" />
		<tag k="natural" v="hill" />
		<tag k="place" v="locality" />
		<tag k="ssr:stedsnr" v="457906" />
	</node>
	<node lat="61.24169722483891" lon="7.155777769518922" id="-37746">
		<tag k="fixme" v="consider natural=peak for the most distinct mountains in the district" />
		<tag k="name" v="Daurmannholten" />
		<tag k="natural" v="hill" />
		<tag k="place" v="locality" />
		<tag k="ssr:stedsnr" v="457920" />
	</node>
	<node lat="61.319413884628155" lon="6.664325003906524" id="-37747">
		<tag k="name" v="Guddalsskreda" />
		<tag k="natural" v="valley" />
		<tag k="place" v="locality" />
		<tag k="ssr:stedsnr" v="457926" />
	</node>
	<node lat="61.19526666302679" lon="7.236955554686842" id="-37748">
		<tag k="name" v="Kleppene" />
		<tag k="place" v="locality" />
		<tag k="ssr:stedsnr" v="458208" />
	</node>
	<node lat="61.425311111950755" lon="6.762097231506617" id="-37749">
		<tag k="name" v="Øyane" />
		<tag k="place" v="locality" />
		<tag k="ssr:stedsnr" v="458613" />
	</node>
	<node lat="61.43497500326849" lon="6.734261110027688" id="-37750">
		<tag k="name" v="Knutskreda" />
		<tag k="natural" v="valley" />
		<tag k="place" v="locality" />
		<tag k="ssr:stedsnr" v="458578" />
	</node>
	<node lat="61.41861388821319" lon="6.73991944205788" id="-37752">
		<tag k="name" v="Nubbi" />
		<tag k="natural" v="hill" />
		<tag k="place" v="locality" />
		<tag k="ssr:stedsnr" v="458960" />
	</node>
	<node lat="61.41509166760648" lon="6.74049722975849" id="-37753">
		<tag k="name" v="Ospehaug" />
		<tag k="natural" v="hill" />
		<tag k="place" v="locality" />
		<tag k="ssr:stedsnr" v="458962" />
	</node>
	<node lat="61.411338892351864" lon="6.698508338808234" id="-37755">
		<tag k="name" v="Alfleteskorane" />
		<tag k="place" v="locality" />
		<tag k="ssr:stedsnr" v="458974" />
	</node>
	<node lat="61.176075000326044" lon="7.34260833080285" id="-37756">
		<tag k="fixme" v="consider natural=peak for the most distinct mountains in the district" />
		<tag k="name" v="Brannholten" />
		<tag k="natural" v="hill" />
		<tag k="place" v="locality" />
		<tag k="ssr:stedsnr" v="459614" />
	</node>
	<node lat="61.219602774401864" lon="6.626958339284198" id="-37757">
		<tag k="name" v="Raunesteinholten" />
		<tag k="natural" v="hill" />
		<tag k="place" v="locality" />
		<tag k="ssr:stedsnr" v="459509" />
	</node>
	<node lat="61.212338891896366" lon="6.597411103219334" id="-37758">
		<tag k="name" v="Basdalen" />
		<tag k="natural" v="valley" />
		<tag k="place" v="locality" />
		<tag k="ssr:stedsnr" v="459558" />
	</node>
	<node lat="61.248847224321054" lon="6.914966672943801" id="-37759">
		<tag k="name" v="Leite" />
		<tag k="place" v="locality" />
		<tag k="ssr:stedsnr" v="459719" />
	</node>
	<node lat="61.470677774470346" lon="6.877602777945929" id="-37760">
		<tag k="fixme" v="consider natural=peak for the most distinct mountains in the district" />
		<tag k="name" v="Stølsskrednipa" />
		<tag k="natural" v="hill" />
		<tag k="place" v="locality" />
		<tag k="ssr:stedsnr" v="675831" />
	</node>
	<node lat="61.47011666466262" lon="6.8489416608120655" id="-37761">
		<tag k="name" v="Svartøyskreda" />
		<tag k="natural" v="slope" />
		<tag k="place" v="locality" />
		<tag k="ssr:stedsnr" v="675832" />
	</node>
	<node lat="61.291355552137034" lon="6.923180554237618" id="-37767">
		<tag k="name" v="Storakupa" />
		<tag k="natural" v="valley" />
		<tag k="place" v="locality" />
		<tag k="ssr:stedsnr" v="675288" />
	</node>
	<node lat="61.25850555170988" lon="7.069044449155635" id="-37770">
		<tag k="fixme" v="consider natural=peak for the most distinct mountains in the district" />
		<tag k="name" v="Demmehamrane" />
		<tag k="natural" v="hill" />
		<tag k="place" v="locality" />
		<tag k="ssr:stedsnr" v="675377" />
	</node>
	<node lat="61.34819999731006" lon="6.572027786440006" id="-37772">
		<tag k="fixme" v="consider natural=peak for the most distinct mountains in the district" />
		<tag k="name" v="Holten" />
		<tag k="natural" v="hill" />
		<tag k="place" v="locality" />
		<tag k="ssr:stedsnr" v="470621" />
	</node>
	<node lat="61.273916669522684" lon="6.575280555725445" id="-37774">
		<tag k="name" v="Furekamben" />
		<tag k="natural" v="ridge" />
		<tag k="place" v="locality" />
		<tag k="ssr:stedsnr" v="470681" />
	</node>
	<node lat="61.3167305536797" lon="6.5873583314680175" id="-37775">
		<tag k="name" v="Storeskori" />
		<tag k="place" v="locality" />
		<tag k="ssr:stedsnr" v="470805" />
	</node>
	<node lat="61.15967777884592" lon="6.527758324195516" id="-37777">
		<tag k="name" v="Hestvikagjelet" />
		<tag k="natural" v="valley" />
		<tag k="place" v="locality" />
		<tag k="ssr:stedsnr" v="470810" />
	</node>
	<node lat="61.46452777852675" lon="6.800686110354618" id="-37781">
		<tag k="name" v="Vetla Supphellenipa" />
		<tag k="natural" v="hill" />
		<tag k="place" v="locality" />
		<tag k="ssr:stedsnr" v="675856" />
	</node>
	<node lat="61.35696666221572" lon="6.684024990991804" id="-37783">
		<tag k="fixme" v="consider natural=peak for the most distinct mountains in the district" />
		<tag k="name" v="Lyngsetefjellet" />
		<tag k="natural" v="hill" />
		<tag k="place" v="locality" />
		<tag k="ssr:stedsnr" v="675951" />
	</node>
	<node lat="61.360011106871184" lon="6.885836119663248" id="-37785">
		<tag k="fixme" v="consider natural=peak for the most distinct mountains in the district" />
		<tag k="name" v="Oksli" />
		<tag k="natural" v="hill" />
		<tag k="place" v="locality" />
		<tag k="ssr:stedsnr" v="675959" />
	</node>
	<node lat="61.337258337166084" lon="6.73386665984454" id="-37788">
		<tag k="name" v="Syringa" />
		<tag k="natural" v="slope" />
		<tag k="place" v="locality" />
		<tag k="ssr:stedsnr" v="675977" />
	</node>
	<node lat="61.168530559983154" lon="6.48671389687947" id="-37793">
		<tag k="name" v="Songdalen" />
		<tag k="natural" v="valley" />
		<tag k="place" v="locality" />
		<tag k="ssr:stedsnr" v="676727" />
	</node>
	<node lat="61.169686108384646" lon="6.92968332482742" id="-37794">
		<tag k="alt_name" v="Marsteinhaug" />
		<tag k="name" v="Marsteinshaug" />
		<tag k="natural" v="hill" />
		<tag k="place" v="locality" />
		<tag k="ssr:stedsnr" v="676896" />
	</node>
	<node lat="61.2188083345697" lon="6.7504555514738716" id="-37796">
		<tag k="alt_name" v="Parisgjelet" />
		<tag k="name" v="Parisgilet" />
		<tag k="natural" v="gorge" />
		<tag k="ssr:stedsnr" v="676951" />
	</node>
	<node lat="61.18910555507635" lon="6.751438893288002" id="-37797">
		<tag k="fixme" v="consider natural=peak for the most distinct mountains in the district" />
		<tag k="name" v="Ulvafjellet" />
		<tag k="natural" v="hill" />
		<tag k="place" v="locality" />
		<tag k="ssr:stedsnr" v="676878" />
	</node>
	<node lat="61.1695499997067" lon="6.978930564535288" id="-37798">
		<tag k="fixme" v="consider natural=peak for the most distinct mountains in the district" />
		<tag k="name" v="Klanten" />
		<tag k="natural" v="hill" />
		<tag k="place" v="locality" />
		<tag k="ssr:stedsnr" v="677008" />
	</node>
	<node lat="61.19190277421517" lon="7.20115556480384" id="-37799">
		<tag k="fixme" v="consider natural=peak for the most distinct mountains in the district" />
		<tag k="name" v="Hasleggi" />
		<tag k="natural" v="hill" />
		<tag k="place" v="locality" />
		<tag k="ssr:stedsnr" v="677046" />
	</node>
	<node lat="61.22855833321564" lon="6.733530561077682" id="-37803">
		<tag k="name" v="Fagradalen" />
		<tag k="natural" v="valley" />
		<tag k="place" v="locality" />
		<tag k="ssr:stedsnr" v="677545" />
	</node>
	<node lat="61.12059722224033" lon="6.963380551749459" id="-37806">
		<tag k="fixme" v="consider natural=peak for the most distinct mountains in the district" />
		<tag k="name" v="Hønsaholten" />
		<tag k="natural" v="hill" />
		<tag k="place" v="locality" />
		<tag k="ssr:stedsnr" v="677772" />
	</node>
	<node lat="61.217777779719505" lon="6.599797221387226" id="-37807">
		<tag k="alt_name" v="Alskori" />
		<tag k="name" v="Almskori" />
		<tag k="place" v="locality" />
		<tag k="ssr:stedsnr" v="677966" />
	</node>
	<node lat="61.23432500238747" lon="6.963816674678519" id="-37808">
		<tag k="name" v="Buhaugdalane" />
		<tag k="natural" v="valley" />
		<tag k="place" v="locality" />
		<tag k="ssr:stedsnr" v="677969" />
	</node>
	<node lat="61.150991666287354" lon="6.9522805579597815" id="-37809">
		<tag k="name" v="Håkjerringgrovi" />
		<tag k="natural" v="valley" />
		<tag k="place" v="locality" />
		<tag k="ssr:stedsnr" v="481009" />
	</node>
	<node lat="61.39173611434143" lon="6.542427780817599" id="-37811">
		<tag k="name" v="Skaddalen" />
		<tag k="natural" v="valley" />
		<tag k="place" v="locality" />
		<tag k="ssr:stedsnr" v="492725" />
	</node>
	<node lat="61.25496666276612" lon="6.954502787008295" id="-37813">
		<tag k="name" v="Bollesteinshamrane" />
		<tag k="natural" v="hill" />
		<tag k="place" v="locality" />
		<tag k="ssr:stedsnr" v="493171" />
	</node>
	<node lat="61.398202774098216" lon="6.708177778227885" id="-37819">
		<tag k="name" v="Skredene" />
		<tag k="natural" v="slope" />
		<tag k="place" v="locality" />
		<tag k="ssr:stedsnr" v="493902" />
	</node>
	<node lat="61.414119445529494" lon="6.806313897801192" id="-37820">
		<tag k="name" v="Kvannabotn" />
		<tag k="natural" v="valley" />
		<tag k="place" v="locality" />
		<tag k="ssr:stedsnr" v="493906" />
	</node>
	<node lat="61.386574998377974" lon="6.692302784933472" id="-37822">
		<tag k="name" v="Hamradalen" />
		<tag k="natural" v="valley" />
		<tag k="place" v="locality" />
		<tag k="ssr:stedsnr" v="493911" />
	</node>
	<node lat="61.400744445896514" lon="6.906986109610492" id="-37823">
		<tag k="fixme" v="consider natural=peak for the most distinct mountains in the district" />
		<tag k="name" v="Nipa" />
		<tag k="natural" v="hill" />
		<tag k="place" v="locality" />
		<tag k="ssr:stedsnr" v="493914" />
	</node>
	<node lat="61.401847218164036" lon="6.817686114642273" id="-37824">
		<tag k="fixme" v="consider natural=peak for the most distinct mountains in the district" />
		<tag k="name" v="Nyastølseggi" />
		<tag k="natural" v="hill" />
		<tag k="place" v="locality" />
		<tag k="ssr:stedsnr" v="493917" />
	</node>
	<node lat="61.42725277347545" lon="6.735758340991436" id="-37825">
		<tag k="name" v="Nonshaugen" />
		<tag k="natural" v="hill" />
		<tag k="place" v="locality" />
		<tag k="ssr:stedsnr" v="493946" />
	</node>
	<node lat="61.311272222515356" lon="6.522986102658377" id="-37828">
		<tag k="name" v="Eikjadalen" />
		<tag k="natural" v="valley" />
		<tag k="place" v="locality" />
		<tag k="ssr:stedsnr" v="493824" />
	</node>
	<node lat="61.48028333600515" lon="6.712430561443627" id="-37830">
		<tag k="name" v="Jølstrabotn" />
		<tag k="natural" v="valley" />
		<tag k="place" v="locality" />
		<tag k="ssr:stedsnr" v="493839" />
	</node>
	<node lat="61.183516663614675" lon="6.888516658033971" id="-37838">
		<tag k="name" v="Oreholene" />
		<tag k="natural" v="valley" />
		<tag k="place" v="locality" />
		<tag k="ssr:stedsnr" v="494934" />
	</node>
	<node lat="61.2215555524094" lon="6.796191675017134" id="-37839">
		<tag k="name" v="Rjupeskar" />
		<tag k="natural" v="valley" />
		<tag k="place" v="locality" />
		<tag k="ssr:stedsnr" v="494941" />
	</node>
	<node lat="61.1727500032548" lon="7.120724994893591" id="-37840">
		<tag k="fixme" v="consider natural=peak for the most distinct mountains in the district" />
		<tag k="name" v="Storehaugfjellet" />
		<tag k="natural" v="hill" />
		<tag k="place" v="locality" />
		<tag k="ssr:stedsnr" v="495012" />
	</node>
	<node lat="61.16683333551232" lon="7.276574999864447" id="-37842">
		<tag k="alt_name" v="Amlebergi" />
		<tag k="name" v="Amlabergi" />
		<tag k="natural" v="hill" />
		<tag k="place" v="locality" />
		<tag k="ssr:stedsnr" v="495028" />
	</node>
	<node lat="61.18068888602555" lon="7.1932750088313755" id="-37846">
		<tag k="alt_name" v="Trollahaug" />
		<tag k="name" v="Trollhaug" />
		<tag k="natural" v="hill" />
		<tag k="place" v="locality" />
		<tag k="ssr:stedsnr" v="495079" />
	</node>
	<node lat="61.241422219217256" lon="7.16530278476486" id="-37847">
		<tag k="fixme" v="consider natural=peak for the most distinct mountains in the district" />
		<tag k="name" v="Barsnesfjellet" />
		<tag k="natural" v="hill" />
		<tag k="place" v="locality" />
		<tag k="ssr:stedsnr" v="495119" />
	</node>
	<node lat="61.13243611491833" lon="6.988174995680282" id="-37849">
		<tag k="name" v="Kloppadalen" />
		<tag k="natural" v="valley" />
		<tag k="place" v="locality" />
		<tag k="ssr:stedsnr" v="495475" />
	</node>
	<node lat="61.226497221347955" lon="6.767808329614975" id="-37852">
		<tag k="fixme" v="consider natural=peak for the most distinct mountains in the district" />
		<tag k="name" v="Myklebruholten" />
		<tag k="natural" v="hill" />
		<tag k="place" v="locality" />
		<tag k="ssr:stedsnr" v="495961" />
	</node>
	<node lat="61.28085000145763" lon="6.72607222160071" id="-37855">
		<tag k="fixme" v="consider natural=peak for the most distinct mountains in the district" />
		<tag k="name" v="Husbyggjefjellet" />
		<tag k="natural" v="hill" />
		<tag k="place" v="locality" />
		<tag k="ssr:stedsnr" v="506717" />
	</node>
	<node lat="61.190597225951535" lon="7.0149027761381815" id="-37859">
		<tag k="name" v="Bjørnalmen" />
		<tag k="natural" v="slope" />
		<tag k="place" v="locality" />
		<tag k="ssr:stedsnr" v="517776" />
	</node>
	<node lat="61.19317222269334" lon="7.023777783020894" id="-37860">
		<tag k="name" v="Brekka" />
		<tag k="natural" v="slope" />
		<tag k="place" v="locality" />
		<tag k="ssr:stedsnr" v="517780" />
	</node>
	<node lat="61.26991944505907" lon="7.037886111990251" id="-37861">
		<tag k="name" v="Hillestadnipa" />
		<tag k="natural" v="hill" />
		<tag k="place" v="locality" />
		<tag k="ssr:stedsnr" v="517982" />
	</node>
	<node lat="61.4560361133202" lon="6.78793889161067" id="-37862">
		<tag k="name" v="Fessene" />
		<tag k="natural" v="slope" />
		<tag k="place" v="locality" />
		<tag k="ssr:stedsnr" v="518326" />
	</node>
	<node lat="61.45961111574127" lon="6.784327784531867" id="-37863">
		<tag k="name" v="Bjødnahaug" />
		<tag k="natural" v="hill" />
		<tag k="place" v="locality" />
		<tag k="ssr:stedsnr" v="518348" />
	</node>
	<node lat="61.46837777882633" lon="6.846944437094911" id="-37864">
		<tag k="name" v="Stølsskreda" />
		<tag k="natural" v="valley" />
		<tag k="place" v="locality" />
		<tag k="ssr:stedsnr" v="518382" />
	</node>
	<node lat="61.25371666924459" lon="7.172966675243164" id="-37865">
		<tag k="name" v="Saurane" />
		<tag k="place" v="locality" />
		<tag k="ssr:stedsnr" v="518417" />
	</node>
	<node lat="61.33763055672174" lon="6.734358336961729" id="-37867">
		<tag k="name" v="Djupagjelet" />
		<tag k="natural" v="valley" />
		<tag k="place" v="locality" />
		<tag k="ssr:stedsnr" v="518960" />
	</node>
	<node lat="61.42909722364537" lon="6.657580548831363" id="-37868">
		<tag k="name" v="Fremste Legesvolene" />
		<tag k="natural" v="hill" />
		<tag k="place" v="locality" />
		<tag k="ssr:stedsnr" v="519078" />
	</node>
	<node lat="61.24912500158606" lon="6.632227769128529" id="-37869">
		<tag k="name" v="Munkatungene" />
		<tag k="natural" v="valley" />
		<tag k="place" v="locality" />
		<tag k="ssr:stedsnr" v="519522" />
	</node>
	<node lat="61.2681555592641" lon="6.572947219395545" id="-37873">
		<tag k="name" v="Bjørnestigen" />
		<tag k="natural" v="slope" />
		<tag k="place" v="locality" />
		<tag k="ssr:stedsnr" v="530693" />
	</node>
	<node lat="61.14121388521273" lon="6.390533331674385" id="-37878">
		<tag k="name" v="Heggebotn" />
		<tag k="natural" v="valley" />
		<tag k="place" v="locality" />
		<tag k="ssr:stedsnr" v="531302" />
	</node>
	<node lat="61.26259722626272" lon="6.477961103059626" id="-37880">
		<tag k="name" v="Alterskori" />
		<tag k="place" v="locality" />
		<tag k="ssr:stedsnr" v="531622" />
	</node>
	<node lat="61.34626110856695" lon="6.552394442942318" id="-37881">
		<tag k="name" v="Killingøya" />
		<tag k="place" v="locality" />
		<tag k="ssr:stedsnr" v="531682" />
	</node>
	<node lat="61.19386666357834" lon="6.447530559804007" id="-37882">
		<tag k="name" v="Nonsskard" />
		<tag k="natural" v="valley" />
		<tag k="place" v="locality" />
		<tag k="ssr:stedsnr" v="531828" />
	</node>
	<node lat="61.303355557956884" lon="6.581383337472884" id="-37884">
		<tag k="name" v="Øvstelegdi" />
		<tag k="natural" v="hill" />
		<tag k="place" v="locality" />
		<tag k="ssr:stedsnr" v="531786" />
	</node>
	<node lat="61.309111109107896" lon="6.5520472306151" id="-37886">
		<tag k="name" v="Småhamrane" />
		<tag k="natural" v="hill" />
		<tag k="place" v="locality" />
		<tag k="ssr:stedsnr" v="531875" />
	</node>
	<node lat="61.28340000149557" lon="6.496947230404668" id="-37888">
		<tag k="name" v="Sværaskaret" />
		<tag k="natural" v="valley" />
		<tag k="place" v="locality" />
		<tag k="ssr:stedsnr" v="539544" />
	</node>
	<node lat="61.18111667040989" lon="6.883116671666919" id="-37892">
		<tag k="name" v="Kyrkja" />
		<tag k="place" v="locality" />
		<tag k="ssr:stedsnr" v="544987" />
	</node>
	<node lat="61.284419444232256" lon="6.462836113213344" id="-37898">
		<tag k="name" v="Kvannskredbotn" />
		<tag k="natural" v="valley" />
		<tag k="place" v="locality" />
		<tag k="ssr:stedsnr" v="553778" />
	</node>
	<node lat="61.297322219497346" lon="6.585130550365796" id="-37899">
		<tag k="name" v="Ulvastaddalen" />
		<tag k="natural" v="valley" />
		<tag k="place" v="locality" />
		<tag k="ssr:stedsnr" v="553779" />
	</node>
	<node lat="61.42022777664972" lon="6.642052779031136" id="-37901">
		<tag k="name" v="Fjellstølshaugen" />
		<tag k="natural" v="hill" />
		<tag k="place" v="locality" />
		<tag k="ssr:stedsnr" v="553934" />
	</node>
	<node lat="61.49910833026086" lon="6.784319439506009" id="-37903">
		<tag k="fixme" v="consider natural=peak for the most distinct mountains in the district" />
		<tag k="name" v="Kvannholtnipa" />
		<tag k="natural" v="hill" />
		<tag k="place" v="locality" />
		<tag k="ssr:stedsnr" v="553879" />
	</node>
	<node lat="61.25004721962308" lon="7.052933342508405" id="-37906">
		<tag k="name" v="Kongshaug" />
		<tag k="natural" v="hill" />
		<tag k="place" v="locality" />
		<tag k="ssr:stedsnr" v="554306" />
	</node>
	<node lat="61.30448333614561" lon="6.497019446127953" id="-37911">
		<tag k="fixme" v="consider natural=peak for the most distinct mountains in the district" />
		<tag k="name" v="Vassdalsnipa" />
		<tag k="natural" v="hill" />
		<tag k="place" v="locality" />
		<tag k="ssr:stedsnr" v="554789" />
	</node>
	<node lat="61.41113889228064" lon="6.7297166702654145" id="-37924">
		<tag k="name" v="Mundalshaugen" />
		<tag k="natural" v="hill" />
		<tag k="place" v="locality" />
		<tag k="ssr:stedsnr" v="688670" />
	</node>
	<node lat="61.15220833553407" lon="6.513458333631257" id="-37925">
		<tag k="name" v="Ospedotten" />
		<tag k="natural" v="hill" />
		<tag k="place" v="locality" />
		<tag k="ssr:stedsnr" v="566970" />
	</node>
	<node lat="61.32304999946446" lon="6.893244438252174" id="-37926">
		<tag k="name" v="Syndarhaug" />
		<tag k="natural" v="hill" />
		<tag k="place" v="locality" />
		<tag k="ssr:stedsnr" v="578012" />
	</node>
	<node lat="61.343891668727416" lon="6.9128416736157865" id="-37927">
		<tag k="name" v="Vintradalen" />
		<tag k="natural" v="valley" />
		<tag k="place" v="locality" />
		<tag k="ssr:stedsnr" v="578054" />
	</node>
	<node lat="61.316322222150006" lon="6.9087305595311905" id="-37928">
		<tag k="name" v="Tungene" />
		<tag k="natural" v="hill" />
		<tag k="place" v="locality" />
		<tag k="ssr:stedsnr" v="578111" />
	</node>
	<node lat="61.39060833083599" lon="6.733711118734877" id="-37930">
		<tag k="name" v="Regnbakken" />
		<tag k="natural" v="slope" />
		<tag k="place" v="locality" />
		<tag k="ssr:stedsnr" v="578508" />
	</node>
	<node lat="61.16392499972053" lon="6.958430556033626" id="-37931">
		<tag k="name" v="Styggebakken" />
		<tag k="natural" v="slope" />
		<tag k="place" v="locality" />
		<tag k="ssr:stedsnr" v="578528" />
	</node>
	<node lat="61.491025001180255" lon="6.86439721528626" id="-37934">
		<tag k="name" v="Storebotn" />
		<tag k="natural" v="valley" />
		<tag k="place" v="locality" />
		<tag k="ssr:stedsnr" v="578292" />
	</node>
	<node lat="61.498180557614994" lon="6.868697219373684" id="-37935">
		<tag k="name" v="Skardbakken" />
		<tag k="natural" v="slope" />
		<tag k="place" v="locality" />
		<tag k="ssr:stedsnr" v="578294" />
	</node>
	<node lat="61.291616665096264" lon="6.97168888727418" id="-37936">
		<tag k="name" v="Fosskambrinden" />
		<tag k="natural" v="ridge" />
		<tag k="place" v="locality" />
		<tag k="ssr:stedsnr" v="578297" />
	</node>
	<node lat="61.21616388498233" lon="7.145616658192178" id="-37937">
		<tag k="name" v="Steinskot" />
		<tag k="natural" v="hill" />
		<tag k="place" v="locality" />
		<tag k="ssr:stedsnr" v="578491" />
	</node>
	<node lat="61.35047499588174" lon="6.881811114763326" id="-37938">
		<tag k="name" v="Kupegjelet" />
		<tag k="natural" v="valley" />
		<tag k="place" v="locality" />
		<tag k="ssr:stedsnr" v="578741" />
	</node>
	<node lat="61.24734999840462" lon="7.166927776195495" id="-37939">
		<tag k="fixme" v="consider natural=peak for the most distinct mountains in the district" />
		<tag k="name" v="Blåfjellet" />
		<tag k="natural" v="hill" />
		<tag k="place" v="locality" />
		<tag k="ssr:stedsnr" v="578918" />
	</node>
	<node lat="61.176938888939794" lon="6.976888890009066" id="-37943">
		<tag k="name" v="Sauaklanten" />
		<tag k="natural" v="hill" />
		<tag k="place" v="locality" />
		<tag k="ssr:stedsnr" v="578643" />
	</node>
	<node lat="61.12339999798387" lon="6.984122218076199" id="-37944">
		<tag k="name" v="Ormagytti" />
		<tag k="natural" v="gorge" />
		<tag k="ssr:stedsnr" v="578693" />
	</node>
	<node lat="61.43418333493397" lon="6.791566657365311" id="-37946">
		<tag k="name" v="Dyragjelet" />
		<tag k="natural" v="valley" />
		<tag k="place" v="locality" />
		<tag k="ssr:stedsnr" v="578807" />
	</node>
	<node lat="61.2939500027461" lon="7.071583339712517" id="-37947">
		<tag k="name" v="Havrabergskorane" />
		<tag k="place" v="locality" />
		<tag k="ssr:stedsnr" v="578818" />
	</node>
	<node lat="61.31074444094744" lon="7.008063894413886" id="-37948">
		<tag k="name" v="Nærestadli" />
		<tag k="natural" v="slope" />
		<tag k="place" v="locality" />
		<tag k="ssr:stedsnr" v="578822" />
	</node>
	<node lat="61.42848888832656" lon="6.765408341974967" id="-37949">
		<tag k="name" v="Killingaøyna" />
		<tag k="place" v="locality" />
		<tag k="ssr:stedsnr" v="579609" />
	</node>
	<node lat="61.19663611195459" lon="7.287725009044013" id="-37951">
		<tag k="name" v="Plassagjerdet" />
		<tag k="place" v="locality" />
		<tag k="ssr:stedsnr" v="579615" />
	</node>
	<node lat="61.18886111151157" lon="7.346030556556228" id="-37952">
		<tag k="name" v="Jomfruskaret" />
		<tag k="natural" v="valley" />
		<tag k="place" v="locality" />
		<tag k="ssr:stedsnr" v="579628" />
	</node>
	<node lat="61.44334722080871" lon="6.746683338061613" id="-37953">
		<tag k="name" v="Pilhaugen" />
		<tag k="natural" v="hill" />
		<tag k="place" v="locality" />
		<tag k="ssr:stedsnr" v="579592" />
	</node>
	<node lat="61.26145833771924" lon="6.58042223063815" id="-37961">
		<tag k="name" v="Halvfaret" />
		<tag k="natural" v="valley" />
		<tag k="place" v="locality" />
		<tag k="ssr:stedsnr" v="591614" />
	</node>
	<node lat="61.26274166999246" lon="6.580333338776345" id="-37962">
		<tag k="name" v="Foss- sethaugen" />
		<tag k="natural" v="hill" />
		<tag k="place" v="locality" />
		<tag k="ssr:stedsnr" v="591619" />
	</node>
	<node lat="61.271147225778414" lon="6.574508337800859" id="-37963">
		<tag k="name" v="Tungene" />
		<tag k="natural" v="valley" />
		<tag k="place" v="locality" />
		<tag k="ssr:stedsnr" v="591672" />
	</node>
	<node lat="61.16595277717085" lon="6.529691664523525" id="-37964">
		<tag k="name" v="Salskarhaug" />
		<tag k="natural" v="hill" />
		<tag k="place" v="locality" />
		<tag k="ssr:stedsnr" v="591805" />
	</node>
	<node lat="61.23264167072707" lon="6.5874083276030175" id="-37966">
		<tag k="name" v="Tenningen" />
		<tag k="natural" v="hill" />
		<tag k="place" v="locality" />
		<tag k="ssr:stedsnr" v="591757" />
	</node>
	<node lat="61.16749444288985" lon="6.533172229721068" id="-37968">
		<tag k="name" v="Birtadalen" />
		<tag k="natural" v="valley" />
		<tag k="place" v="locality" />
		<tag k="ssr:stedsnr" v="591956" />
	</node>
	<node lat="61.15093888989576" lon="6.527441673846929" id="-37969">
		<tag k="name" v="Dalen" />
		<tag k="natural" v="valley" />
		<tag k="place" v="locality" />
		<tag k="ssr:stedsnr" v="591960" />
	</node>
	<node lat="61.31347500041137" lon="6.556186103723172" id="-37970">
		<tag k="name" v="Eikjaskori" />
		<tag k="place" v="locality" />
		<tag k="ssr:stedsnr" v="591855" />
	</node>
	<node lat="61.22683611477602" lon="6.585263892209847" id="-37971">
		<tag k="name" v="Høyberget" />
		<tag k="natural" v="hill" />
		<tag k="place" v="locality" />
		<tag k="ssr:stedsnr" v="592951" />
	</node>
	<node lat="61.31246666486428" lon="6.980938882958894" id="-37975">
		<tag k="name" v="Staven" />
		<tag k="natural" v="hill" />
		<tag k="place" v="locality" />
		<tag k="ssr:stedsnr" v="699183" />
	</node>
	<node lat="61.31498889147189" lon="6.949819444847163" id="-37976">
		<tag k="name" v="Legene" />
		<tag k="natural" v="slope" />
		<tag k="place" v="locality" />
		<tag k="ssr:stedsnr" v="699116" />
	</node>
	<node lat="61.33461388839773" lon="6.967638898155861" id="-37977">
		<tag k="name" v="Kleivane" />
		<tag k="natural" v="slope" />
		<tag k="place" v="locality" />
		<tag k="ssr:stedsnr" v="699154" />
	</node>
	<node lat="61.29176389136694" lon="6.964602778675947" id="-37978">
		<tag k="name" v="Rindabotnen" />
		<tag k="natural" v="valley" />
		<tag k="place" v="locality" />
		<tag k="ssr:stedsnr" v="699346" />
	</node>
	<node lat="61.169611107717536" lon="6.981727784834147" id="-37980">
		<tag k="fixme" v="consider natural=peak for the most distinct mountains in the district" />
		<tag k="name" v="Hjorthammar" />
		<tag k="natural" v="hill" />
		<tag k="place" v="locality" />
		<tag k="ssr:stedsnr" v="699633" />
	</node>
	<node lat="61.227691668557114" lon="7.08554722187735" id="-37982">
		<tag k="name" v="Sandbakken" />
		<tag k="natural" v="slope" />
		<tag k="place" v="locality" />
		<tag k="ssr:stedsnr" v="699730" />
	</node>
	<node lat="61.163825003441126" lon="6.912966668740672" id="-37983">
		<tag k="name" v="Vorphumlene" />
		<tag k="natural" v="slope" />
		<tag k="place" v="locality" />
		<tag k="ssr:stedsnr" v="699741" />
	</node>
	<node lat="61.27344166679527" lon="7.034955552657029" id="-37985">
		<tag k="fixme" v="consider natural=peak for the most distinct mountains in the district" />
		<tag k="name" v="Ruggesetnipa" />
		<tag k="natural" v="hill" />
		<tag k="place" v="locality" />
		<tag k="ssr:stedsnr" v="699902" />
	</node>
	<node lat="61.26826666429281" lon="7.009219440261919" id="-37986">
		<tag k="name" v="Blomhammar" />
		<tag k="natural" v="hill" />
		<tag k="place" v="locality" />
		<tag k="ssr:stedsnr" v="699907" />
	</node>
	<node lat="61.245891663008194" lon="7.08431944394187" id="-37989">
		<tag k="name" v="Kjørrdalane" />
		<tag k="natural" v="valley" />
		<tag k="place" v="locality" />
		<tag k="ssr:stedsnr" v="699998" />
	</node>
	<node lat="61.2160027736898" lon="7.23765834038553" id="-37990">
		<tag k="name" v="Bomben" />
		<tag k="natural" v="slope" />
		<tag k="place" v="locality" />
		<tag k="ssr:stedsnr" v="700102" />
	</node>
	<node lat="61.19317222338788" lon="7.25175278319923" id="-37991">
		<tag k="name" v="Djupedal" />
		<tag k="natural" v="valley" />
		<tag k="place" v="locality" />
		<tag k="ssr:stedsnr" v="700187" />
	</node>
	<node lat="61.487874998522464" lon="6.863263895450892" id="-37993">
		<tag k="name" v="Fessene" />
		<tag k="place" v="locality" />
		<tag k="ssr:stedsnr" v="700385" />
	</node>
	<node lat="61.279261113388536" lon="6.978058324485607" id="-37994">
		<tag k="name" v="Selbakken" />
		<tag k="natural" v="slope" />
		<tag k="place" v="locality" />
		<tag k="ssr:stedsnr" v="700386" />
	</node>
	<node lat="61.211302774972" lon="7.2069472303146975" id="-37995">
		<tag k="name" v="Storeløypet" />
		<tag k="natural" v="slope" />
		<tag k="place" v="locality" />
		<tag k="ssr:stedsnr" v="700594" />
	</node>
	<node lat="61.17311944780073" lon="7.288908335217712" id="-37996">
		<tag k="name" v="Skavdal" />
		<tag k="natural" v="valley" />
		<tag k="place" v="locality" />
		<tag k="ssr:stedsnr" v="700546" />
	</node>
	<node lat="61.158916670804" lon="7.071266664945051" id="-37997">
		<tag k="name" v="Lingesetevarden" />
		<tag k="natural" v="hill" />
		<tag k="place" v="locality" />
		<tag k="ssr:stedsnr" v="700551" />
	</node>
	<node lat="61.22040833492384" lon="6.989605555892572" id="-37998">
		<tag k="name" v="Tuftene" />
		<tag k="place" v="locality" />
		<tag k="ssr:stedsnr" v="700552" />
	</node>
	<node lat="61.15377499569947" lon="7.09361111419986" id="-38000">
		<tag k="name" v="Daugersbeite" />
		<tag k="natural" v="slope" />
		<tag k="place" v="locality" />
		<tag k="ssr:stedsnr" v="700557" />
	</node>
	<node lat="61.2015499963892" lon="7.045613892285027" id="-38001">
		<tag k="name" v="Øyratråna" />
		<tag k="natural" v="slope" />
		<tag k="place" v="locality" />
		<tag k="ssr:stedsnr" v="700598" />
	</node>
	<node lat="61.16119999853282" lon="7.323091664519876" id="-38002">
		<tag k="fixme" v="consider natural=peak for the most distinct mountains in the district" />
		<tag k="name" v="Nedste Halsane" />
		<tag k="natural" v="hill" />
		<tag k="place" v="locality" />
		<tag k="ssr:stedsnr" v="700634" />
	</node>
	<node lat="61.27835277937958" lon="6.68869999225908" id="-38004">
		<tag k="fixme" v="consider natural=peak for the most distinct mountains in the district" />
		<tag k="name" v="Uragotholten" />
		<tag k="natural" v="hill" />
		<tag k="place" v="locality" />
		<tag k="ssr:stedsnr" v="700768" />
	</node>
	<node lat="61.47627222519757" lon="6.8428305469195045" id="-38005">
		<tag k="name" v="Seildi" />
		<tag k="natural" v="valley" />
		<tag k="place" v="locality" />
		<tag k="ssr:stedsnr" v="700791" />
	</node>
	<node lat="61.4611388913066" lon="6.757899995782381" id="-38006">
		<tag k="name" v="Høgerinden" />
		<tag k="natural" v="hill" />
		<tag k="place" v="locality" />
		<tag k="ssr:stedsnr" v="700831" />
	</node>
	<node lat="61.42573333363115" lon="6.786177786999291" id="-38007">
		<tag k="name" v="Hatl" />
		<tag k="natural" v="slope" />
		<tag k="place" v="locality" />
		<tag k="ssr:stedsnr" v="700832" />
	</node>
	<node lat="61.471174999322464" lon="6.841425005672458" id="-38008">
		<tag k="name" v="Svartøyane" />
		<tag k="natural" v="hill" />
		<tag k="place" v="locality" />
		<tag k="ssr:stedsnr" v="700793" />
	</node>
	<node lat="61.47990277612058" lon="6.846919448901531" id="-38009">
		<tag k="name" v="Illebakkane" />
		<tag k="natural" v="slope" />
		<tag k="place" v="locality" />
		<tag k="ssr:stedsnr" v="700794" />
	</node>
	<node lat="61.291013887186125" lon="6.693133341778667" id="-38010">
		<tag k="name" v="Koven" />
		<tag k="natural" v="ridge" />
		<tag k="place" v="locality" />
		<tag k="ssr:stedsnr" v="700798" />
	</node>
	<node lat="61.36373889317788" lon="6.910563896719747" id="-38011">
		<tag k="name" v="Kristihaug" />
		<tag k="natural" v="hill" />
		<tag k="place" v="locality" />
		<tag k="ssr:stedsnr" v="700889" />
	</node>
	<node lat="61.354775002487386" lon="6.903477778716878" id="-38012">
		<tag k="name" v="Hansøygarden" />
		<tag k="natural" v="hill" />
		<tag k="place" v="locality" />
		<tag k="ssr:stedsnr" v="700936" />
	</node>
	<node lat="61.426236109314" lon="6.665338889816408" id="-38015">
		<tag k="name" v="Heimste Legesvolene" />
		<tag k="natural" v="hill" />
		<tag k="place" v="locality" />
		<tag k="ssr:stedsnr" v="701079" />
	</node>
	<node lat="61.3297388926039" lon="6.772294448273714" id="-38016">
		<tag k="fixme" v="consider natural=peak for the most distinct mountains in the district" />
		<tag k="name" v="Havrakollen" />
		<tag k="natural" v="hill" />
		<tag k="place" v="locality" />
		<tag k="ssr:stedsnr" v="614204" />
	</node>
	<node lat="61.32490833030416" lon="6.796055562441709" id="-38017">
		<tag k="fixme" v="consider natural=peak for the most distinct mountains in the district" />
		<tag k="name" v="Skjerdingane" />
		<tag k="natural" v="hill" />
		<tag k="place" v="locality" />
		<tag k="ssr:stedsnr" v="614205" />
	</node>
	<node lat="61.32633055952162" lon="6.740580555521149" id="-38018">
		<tag k="name" v="Norddalen" />
		<tag k="natural" v="valley" />
		<tag k="place" v="locality" />
		<tag k="ssr:stedsnr" v="614206" />
	</node>
	<node lat="61.32714999676038" lon="6.8874527812601825" id="-38019">
		<tag k="name" v="Laugadalen" />
		<tag k="natural" v="valley" />
		<tag k="place" v="locality" />
		<tag k="ssr:stedsnr" v="614210" />
	</node>
	<node lat="61.30594722131562" lon="6.635866673917118" id="-38020">
		<tag k="name" v="Ytstedalen" />
		<tag k="natural" v="valley" />
		<tag k="place" v="locality" />
		<tag k="ssr:stedsnr" v="614222" />
	</node>
	<node lat="61.267899996882505" lon="6.94203889030328" id="-38023">
		<tag k="name" v="Helleberget" />
		<tag k="natural" v="hill" />
		<tag k="place" v="locality" />
		<tag k="ssr:stedsnr" v="614152" />
	</node>
	<node lat="61.27732222521082" lon="7.206791658360673" id="-38028">
		<tag k="name" v="Småhaugane" />
		<tag k="natural" v="hill" />
		<tag k="place" v="locality" />
		<tag k="ssr:stedsnr" v="614311" />
	</node>
	<node lat="61.26637777922954" lon="7.1791972256268615" id="-38031">
		<tag k="fixme" v="consider natural=peak for the most distinct mountains in the district" />
		<tag k="name" v="Romnaholten" />
		<tag k="natural" v="hill" />
		<tag k="place" v="locality" />
		<tag k="ssr:stedsnr" v="614355" />
	</node>
	<node lat="61.3324583328065" lon="7.0192777746601855" id="-38034">
		<tag k="fixme" v="consider natural=peak for the most distinct mountains in the district" />
		<tag k="name" v="Navarsetfjellet" />
		<tag k="natural" v="hill" />
		<tag k="place" v="locality" />
		<tag k="ssr:stedsnr" v="614451" />
	</node>
	<node lat="61.32810555113405" lon="6.4482916605347675" id="-38037">
		<tag k="name" v="Tuftabotn" />
		<tag k="natural" v="valley" />
		<tag k="place" v="locality" />
		<tag k="ssr:stedsnr" v="614815" />
	</node>
	<node lat="61.4895972267111" lon="6.772577778313857" id="-38038">
		<tag k="name" v="Riplane" />
		<tag k="natural" v="valley" />
		<tag k="place" v="locality" />
		<tag k="ssr:stedsnr" v="614864" />
	</node>
	<node lat="61.250697226054264" lon="6.498930552700178" id="-38039">
		<tag k="name" v="Geithalsen" />
		<tag k="natural" v="valley" />
		<tag k="place" v="locality" />
		<tag k="ssr:stedsnr" v="614867" />
	</node>
	<node lat="61.440763893214125" lon="6.692572213120607" id="-38041">
		<tag k="name" v="Halvtynneholten" />
		<tag k="natural" v="hill" />
		<tag k="place" v="locality" />
		<tag k="ssr:stedsnr" v="614904" />
	</node>
	<node lat="61.45818332893911" lon="6.875602774951279" id="-38042">
		<tag k="fixme" v="consider natural=peak for the most distinct mountains in the district" />
		<tag k="name" v="Fremsta Ryssenipa" />
		<tag k="natural" v="hill" />
		<tag k="place" v="locality" />
		<tag k="ssr:stedsnr" v="614909" />
	</node>
	<node lat="61.43561944795621" lon="6.648561113880879" id="-38043">
		<tag k="name" v="Bjørnalægene" />
		<tag k="natural" v="slope" />
		<tag k="place" v="locality" />
		<tag k="ssr:stedsnr" v="614920" />
	</node>
	<node lat="61.34968332955352" lon="6.82429167494056" id="-38045">
		<tag k="name" v="Nipa" />
		<tag k="natural" v="hill" />
		<tag k="place" v="locality" />
		<tag k="ssr:stedsnr" v="614953" />
	</node>
	<node lat="61.43132777407162" lon="6.749397228019885" id="-38052">
		<tag k="name" v="Nepegjerdsskredene" />
		<tag k="natural" v="slope" />
		<tag k="place" v="locality" />
		<tag k="ssr:stedsnr" v="701545" />
	</node>
	<node lat="61.43769166809463" lon="6.734863891307106" id="-38053">
		<tag k="name" v="Rotaskreda" />
		<tag k="natural" v="valley" />
		<tag k="place" v="locality" />
		<tag k="ssr:stedsnr" v="701551" />
	</node>
	<node lat="61.239441669020174" lon="6.627855564112686" id="-38054">
		<tag k="name" v="Grønhaugane" />
		<tag k="natural" v="hill" />
		<tag k="place" v="locality" />
		<tag k="ssr:stedsnr" v="615542" />
	</node>
	<node lat="61.206027779015805" lon="6.810680549632734" id="-38056">
		<tag k="fixme" v="consider natural=peak for the most distinct mountains in the district" />
		<tag k="name" v="Svolsetfjellet" />
		<tag k="natural" v="hill" />
		<tag k="place" v="locality" />
		<tag k="ssr:stedsnr" v="615896" />
	</node>
	<node lat="61.17360555508906" lon="7.179249991367021" id="-38060">
		<tag k="alt_name" v="Rudsgjelet" />
		<tag k="name" v="Rudsgilet" />
		<tag k="natural" v="valley" />
		<tag k="place" v="locality" />
		<tag k="ssr:stedsnr" v="616013" />
	</node>
	<node lat="61.188274998522374" lon="7.098049999580116" id="-38061">
		<tag k="name" v="Sleppane" />
		<tag k="place" v="locality" />
		<tag k="ssr:stedsnr" v="616044" />
	</node>
	<node lat="61.18120555908263" lon="7.126880550476588" id="-38062">
		<tag k="fixme" v="consider natural=peak for the most distinct mountains in the district" />
		<tag k="name" v="Storehaugen" />
		<tag k="natural" v="hill" />
		<tag k="place" v="locality" />
		<tag k="ssr:stedsnr" v="616052" />
	</node>
	<node lat="61.22628610668316" lon="6.958247223950229" id="-38064">
		<tag k="alt_name" v="Smiereset" />
		<tag k="fixme" v="consider natural=peak for the most distinct mountains in the district" />
		<tag k="name" v="Smidjeriset" />
		<tag k="natural" v="hill" />
		<tag k="place" v="locality" />
		<tag k="ssr:stedsnr" v="615986" />
	</node>
	<node lat="61.225261106672185" lon="6.964180547247628" id="-38066">
		<tag k="name" v="Trodhaug" />
		<tag k="natural" v="hill" />
		<tag k="place" v="locality" />
		<tag k="ssr:stedsnr" v="615993" />
	</node>
	<node lat="61.22130555775829" lon="6.599622223493669" id="-38068">
		<tag k="alt_name" v="Ørnaberget" />
		<tag k="name" v="Ørnaberg" />
		<tag k="natural" v="hill" />
		<tag k="place" v="locality" />
		<tag k="ssr:stedsnr" v="616548" />
	</node>
	<node lat="61.225611112120056" lon="6.59675832854147" id="-38069">
		<tag k="fixme" v="consider natural=peak for the most distinct mountains in the district" />
		<tag k="name" v="Kjelåsen" />
		<tag k="natural" v="hill" />
		<tag k="place" v="locality" />
		<tag k="ssr:stedsnr" v="616550" />
	</node>
	<node lat="61.267083336533254" lon="6.937438885049767" id="-38072">
		<tag k="fixme" v="consider natural=peak for the most distinct mountains in the district" />
		<tag k="name" v="Hellerbergeggi" />
		<tag k="natural" v="hill" />
		<tag k="place" v="locality" />
		<tag k="ssr:stedsnr" v="701757" />
	</node>
	<node lat="61.14233333318697" lon="7.112238881843915" id="-38075">
		<tag k="alt_name" v="Eitragjelet" />
		<tag k="name" v="Eitregilet" />
		<tag k="natural" v="valley" />
		<tag k="place" v="locality" />
		<tag k="ssr:stedsnr" v="617514" />
	</node>
	<node lat="61.18888055501315" lon="6.782916662821429" id="-38076">
		<tag k="name" v="Kalvehagen" />
		<tag k="natural" v="slope" />
		<tag k="place" v="locality" />
		<tag k="ssr:stedsnr" v="701827" />
	</node>
	<node lat="61.35183889286501" lon="6.913622222615116" id="-38078">
		<tag k="name" v="Reset" />
		<tag k="natural" v="hill" />
		<tag k="place" v="locality" />
		<tag k="ssr:stedsnr" v="638027" />
	</node>
	<node lat="61.31263611215373" lon="6.916766666208454" id="-38079">
		<tag k="name" v="Gunvordalsli" />
		<tag k="natural" v="slope" />
		<tag k="place" v="locality" />
		<tag k="ssr:stedsnr" v="638109" />
	</node>
	<node lat="61.37232500192428" lon="6.714633328905359" id="-38083">
		<tag k="fixme" v="consider natural=peak for the most distinct mountains in the district" />
		<tag k="name" v="Furuholten" />
		<tag k="natural" v="hill" />
		<tag k="place" v="locality" />
		<tag k="ssr:stedsnr" v="638595" />
	</node>
	<node lat="61.23442499757929" lon="7.042866667966368" id="-38084">
		<tag k="name" v="Stenageimshagane" />
		<tag k="natural" v="slope" />
		<tag k="place" v="locality" />
		<tag k="ssr:stedsnr" v="638905" />
	</node>
	<node lat="61.239738889951106" lon="7.035563889822308" id="-38085">
		<tag k="name" v="Gjeljane" />
		<tag k="natural" v="hill" />
		<tag k="place" v="locality" />
		<tag k="ssr:stedsnr" v="638908" />
	</node>
	<node lat="61.22251666361824" lon="7.081469451874139" id="-38086">
		<tag k="name" v="Bårdskjelmane" />
		<tag k="natural" v="hill" />
		<tag k="place" v="locality" />
		<tag k="ssr:stedsnr" v="638988" />
	</node>
	<node lat="61.26249999638271" lon="7.0623111037565405" id="-38087">
		<tag k="name" v="Skarpinov" />
		<tag k="natural" v="hill" />
		<tag k="place" v="locality" />
		<tag k="ssr:stedsnr" v="638874" />
	</node>
	<node lat="61.27384722661716" lon="7.032136104670984" id="-38088">
		<tag k="name" v="Ruggesethagen" />
		<tag k="natural" v="slope" />
		<tag k="place" v="locality" />
		<tag k="ssr:stedsnr" v="638893" />
	</node>
	<node lat="61.237008332380185" lon="7.1417027748910105" id="-38089">
		<tag k="name" v="Barsnesskori" />
		<tag k="place" v="locality" />
		<tag k="ssr:stedsnr" v="639430" />
	</node>
	<node lat="61.14928055216973" lon="7.1625305592677995" id="-38091">
		<tag k="name" v="Gåsaløypet" />
		<tag k="natural" v="slope" />
		<tag k="place" v="locality" />
		<tag k="ssr:stedsnr" v="639607" />
	</node>
	<node lat="61.15727777878392" lon="7.322172215034724" id="-38092">
		<tag k="name" v="Joskori" />
		<tag k="place" v="locality" />
		<tag k="ssr:stedsnr" v="639629" />
	</node>
	<node lat="61.29146666489727" lon="6.696016668143654" id="-38093">
		<tag k="name" v="Kovagjelet" />
		<tag k="natural" v="valley" />
		<tag k="place" v="locality" />
		<tag k="ssr:stedsnr" v="639805" />
	</node>
	<node lat="61.23104444595339" lon="6.64844722279906" id="-38094">
		<tag k="name" v="Seltuftebotn" />
		<tag k="natural" v="valley" />
		<tag k="place" v="locality" />
		<tag k="ssr:stedsnr" v="640281" />
	</node>
	<node lat="61.22018086707008" lon="6.732851588794168" id="-38095">
		<tag k="name" v="Gåsedalen" />
		<tag k="natural" v="valley" />
		<tag k="place" v="locality" />
		<tag k="ssr:stedsnr" v="640492" />
	</node>
	<node lat="61.228102780794835" lon="6.753219437390345" id="-38096">
		<tag k="name" v="Myklebruskredene" />
		<tag k="natural" v="valley" />
		<tag k="place" v="locality" />
		<tag k="ssr:stedsnr" v="640381" />
	</node>
	<node lat="61.22337500111089" lon="6.649400000391501" id="-38097">
		<tag k="name" v="Kolmileflatane" />
		<tag k="place" v="locality" />
		<tag k="ssr:stedsnr" v="640705" />
	</node>
	<node lat="61.19893888728735" lon="7.213991661864599" id="-38099">
		<tag k="name" v="Kvernhushaugen" />
		<tag k="natural" v="hill" />
		<tag k="place" v="locality" />
		<tag k="ssr:stedsnr" v="640986" />
	</node>
	<node lat="61.20326111480945" lon="6.518683340355203" id="-38101">
		<tag k="name" v="Kinnungabakkane" />
		<tag k="natural" v="slope" />
		<tag k="place" v="locality" />
		<tag k="ssr:stedsnr" v="651007" />
	</node>
	<node lat="61.135694444219965" lon="6.4511138885598935" id="-38103">
		<tag k="name" v="Hovdali" />
		<tag k="natural" v="slope" />
		<tag k="place" v="locality" />
		<tag k="ssr:stedsnr" v="651015" />
	</node>
	<node lat="61.13056389071761" lon="6.443386112008757" id="-38107">
		<tag k="name" v="Furehaugen" />
		<tag k="natural" v="hill" />
		<tag k="place" v="locality" />
		<tag k="ssr:stedsnr" v="652029" />
	</node>
	<node lat="61.13980277969598" lon="6.503311103490894" id="-38108">
		<tag k="name" v="Slettebakkane" />
		<tag k="natural" v="slope" />
		<tag k="place" v="locality" />
		<tag k="ssr:stedsnr" v="652032" />
	</node>
</osm>
