<?xml version="1.0" encoding="UTF-8"?>
<osm version="0.6" generator="osmapis">
	<node lat="61.4174722241864" lon="6.761569440781853" id="-33217">
		<tag k="bridge" v="yes" />
		<tag k="layer" v="1" />
		<tag k="name" v="Fjærland undergang" />
		<tag k="ssr:stedsnr" v="46500" />
	</node>
	<node lat="61.21455000140462" lon="6.566799996834874" id="-33220">
		<tag k="amenity" v="ferry_terminal" />
		<tag k="loc_name" v="Dragsvik ferjekai" />
		<tag k="name" v="Dragsviki ferjekai" />
		<tag k="ssr:stedsnr" v="59221" />
	</node>
	<node lat="61.12756111157005" lon="6.471647219876394" id="-33322">
		<tag k="bridge" v="yes" />
		<tag k="layer" v="1" />
		<tag k="name" v="Kvernhuselvi" />
		<tag k="ssr:stedsnr" v="107508" />
	</node>
	<node lat="61.32738333133821" lon="6.925208325894532" id="-33507">
		<tag k="bridge" v="yes" />
		<tag k="layer" v="1" />
		<tag k="name" v="Laugadalen kulvert" />
		<tag k="ssr:stedsnr" v="167469" />
	</node>
	<node lat="61.19722222595791" lon="6.525508334510071" id="-33599">
		<tag k="bridge" v="yes" />
		<tag k="layer" v="1" />
		<tag k="name" v="Sande undergang" />
		<tag k="ssr:stedsnr" v="228498" />
	</node>
	<node lat="61.422913886727805" lon="6.758747228555483" id="-33600">
		<tag k="bridge" v="yes" />
		<tag k="layer" v="1" />
		<tag k="name" v="Grunska" />
		<tag k="ssr:stedsnr" v="228513" />
	</node>
	<node lat="61.199638891910425" lon="6.525733323970339" id="-33601">
		<tag k="bridge" v="yes" />
		<tag k="layer" v="1" />
		<tag k="name" v="Fjærestad undergang" />
		<tag k="ssr:stedsnr" v="228542" />
	</node>
	<node lat="61.34265278019125" lon="6.4543916740822675" id="-33693">
		<tag k="bridge" v="yes" />
		<tag k="layer" v="1" />
		<tag k="name" v="Skarvedalselv" />
		<tag k="ssr:stedsnr" v="289477" />
	</node>
	<node lat="61.17490000378381" lon="6.887008324635887" id="-33694">
		<tag k="bridge" v="yes" />
		<tag k="layer" v="1" />
		<tag k="name" v="Fatla" />
		<tag k="ssr:stedsnr" v="289479" />
	</node>
	<node lat="61.324394445835246" lon="6.926263880915602" id="-33695">
		<tag k="bridge" v="yes" />
		<tag k="layer" v="1" />
		<tag k="name" v="Gunnvordalselvi" />
		<tag k="ssr:stedsnr" v="289492" />
	</node>
	<node lat="61.18960000229167" lon="6.859436111730014" id="-33757">
		<tag k="bridge" v="yes" />
		<tag k="layer" v="1" />
		<tag k="name" v="Sygna" />
		<tag k="ssr:stedsnr" v="470449" />
	</node>
	<node lat="61.19131110903027" lon="7.22200000833305" id="-33758">
		<tag k="bridge" v="yes" />
		<tag k="layer" v="1" />
		<tag k="name" v="Kaupangsenteret bru" />
		<tag k="ssr:stedsnr" v="470450" />
	</node>
	<node lat="61.294555553829426" lon="7.002669452059997" id="-33759">
		<tag k="bridge" v="yes" />
		<tag k="layer" v="1" />
		<tag k="name" v="Hodlekve kulvert" />
		<tag k="ssr:stedsnr" v="470453" />
	</node>
	<node lat="61.210149995437966" lon="6.537905963263158" id="-33760">
		<tag k="amenity" v="ferry_terminal" />
		<tag k="name" v="Balestrand ferjekai" />
		<tag k="ssr:stedsnr" v="470469" />
	</node>
	<node lat="61.162169443120156" lon="6.542680559592208" id="-33761">
		<tag k="bridge" v="yes" />
		<tag k="layer" v="1" />
		<tag k="name" v="Hestviki" />
		<tag k="ssr:stedsnr" v="470472" />
	</node>
	<node lat="61.11485833741287" lon="6.453516658897149" id="-33762">
		<tag k="bridge" v="yes" />
		<tag k="layer" v="1" />
		<tag k="name" v="Sagelva" />
		<tag k="ssr:stedsnr" v="470476" />
	</node>
	<node lat="61.343688889472425" lon="6.909311113164613" id="-33818">
		<tag k="bridge" v="yes" />
		<tag k="layer" v="1" />
		<tag k="name" v="Nysete kulvert" />
		<tag k="ssr:stedsnr" v="349503" />
	</node>
	<node lat="61.2055666624658" lon="7.199555548215465" id="-33819">
		<tag k="bridge" v="yes" />
		<tag k="layer" v="1" />
		<tag k="name" v="Vesterheim" />
		<tag k="ssr:stedsnr" v="349509" />
	</node>
	<node lat="61.17730277875442" lon="6.532297229859863" id="-33820">
		<tag k="bridge" v="yes" />
		<tag k="layer" v="1" />
		<tag k="name" v="Thue" />
		<tag k="ssr:stedsnr" v="349516" />
	</node>
	<node lat="61.16391666974518" lon="7.336472212969946" id="-33821">
		<tag k="bridge" v="yes" />
		<tag k="layer" v="1" />
		<tag k="name" v="Fjellhall bru" />
		<tag k="ssr:stedsnr" v="349522" />
	</node>
	<node lat="61.40222815483499" lon="6.739476604674072" id="-33888">
		<tag k="man_made" v="quay" />
		<tag k="name" v="Torbryggja" />
		<tag k="place" v="locality" />
		<tag k="ssr:stedsnr" v="396535" />
	</node>
	<node lat="61.32363055314107" lon="6.964449995536751" id="-34133">
		<tag k="bridge" v="yes" />
		<tag k="layer" v="1" />
		<tag k="name" v="Gunvordalsbrui" />
		<tag k="ssr:stedsnr" v="506504" />
	</node>
</osm>
