<?xml version="1.0" encoding="UTF-8"?>
<osm version="0.6" generator="osmapis">
	<node lat="61.21519114328748" lon="6.543788550727781" id="-74204">
		<tag k="alt_name" v="Tjugum" />
		<tag k="amenity" v="place_of_worship" />
		<tag k="denomination" v="lutheran" />
		<tag k="name" v="Tjugum kyrkje" />
		<tag k="religion" v="christian" />
		<tag k="ssr:stedsnr" v="9694" />
	</node>
	<node lat="61.22651666905947" lon="7.0957416708930685" id="-74491">
		<tag k="alt_name" v="Stedje" />
		<tag k="amenity" v="place_of_worship" />
		<tag k="denomination" v="lutheran" />
		<tag k="name" v="Stedje kyrkje" />
		<tag k="religion" v="christian" />
		<tag k="ssr:stedsnr" v="131126" />
	</node>
	<node lat="61.18390277885439" lon="7.07085555051365" id="-75020">
		<tag k="name" v="Øygarden" />
		<tag k="place" v="locality" />
		<tag k="ssr:stedsnr" v="435065" />
	</node>
	<node lat="61.11235277481908" lon="6.389113890200059" id="-75124">
		<tag k="alt_name" v="Sæle" />
		<tag k="amenity" v="place_of_worship" />
		<tag k="denomination" v="lutheran" />
		<tag k="name" v="Sæle kyrkje" />
		<tag k="religion" v="christian" />
		<tag k="ssr:stedsnr" v="473965" />
	</node>
	<node lat="61.40362322925264" lon="6.739659597482082" id="-75155">
		<tag k="alt_name" v="Fjærland" />
		<tag k="amenity" v="place_of_worship" />
		<tag k="denomination" v="lutheran" />
		<tag k="name" v="Fjærland kyrkje" />
		<tag k="religion" v="christian" />
		<tag k="ssr:stedsnr" v="493908" />
	</node>
	<node lat="61.184207965149504" lon="7.233399685010232" id="-75995">
		<tag k="amenity" v="place_of_worship" />
		<tag k="denomination" v="lutheran" />
		<tag k="name" v="Kaupanger stavkyrkje" />
		<tag k="religion" v="christian" />
		<tag k="ssr:stedsnr" v="991242" />
	</node>
	<node lat="61.23752222043842" lon="7.115947214689132" id="-76177">
		<tag k="name" v="Krossen" />
		<tag k="place" v="locality" />
		<tag k="ssr:stedsnr" v="71127" />
	</node>
	<node lat="61.352105559801686" lon="6.522994447120395" id="-76413">
		<tag k="name" v="Utsikten" />
		<tag k="ssr:stedsnr" v="190718" />
		<tag k="tourism" v="viewpoint" />
	</node>
	<node lat="61.42341944819908" lon="6.762883331485958" id="-76476">
		<tag k="name" v="Norsk Bremuseum" />
		<tag k="ssr:stedsnr" v="209141" />
		<tag k="tourism" v="museum" />
	</node>
	<node lat="61.18544166964623" lon="6.806300006859192" id="-76506">
		<tag k="name" v="Baldershagen" />
		<tag k="ssr:stedsnr" v="216792" />
		<tag k="tourism" v="attraction" />
	</node>
	<node lat="61.203602779741225" lon="6.534033324282479" id="-76600">
		<tag k="name" v="Balehaugen" />
		<tag k="ssr:stedsnr" v="288055" />
		<tag k="tourism" v="attraction" />
	</node>
	<node lat="61.12875277705802" lon="6.484522216194245" id="-76949">
		<tag k="alt_name" v="Kvamsøy" />
		<tag k="amenity" v="place_of_worship" />
		<tag k="denomination" v="lutheran" />
		<tag k="name" v="Kvamsøy kyrkje" />
		<tag k="religion" v="christian" />
		<tag k="ssr:stedsnr" v="434642" />
	</node>
	<node lat="61.170888245044154" lon="6.994130262416583" id="-76967">
		<tag k="alt_name" v="Norum kyrkje" />
		<tag k="amenity" v="place_of_worship" />
		<tag k="denomination" v="lutheran" />
		<tag k="name" v="Ølmheim kyrkje" />
		<tag k="religion" v="christian" />
		<tag k="ssr:stedsnr" v="435011" />
	</node>
	<node lat="61.44806388611552" lon="6.722455559743972" id="-77026">
		<tag k="name" v="Knuthansløa" />
		<tag k="place" v="locality" />
		<tag k="ssr:stedsnr" v="519829" />
	</node>
	<node lat="61.1853101041967" lon="6.819544012582497" id="-77274">
		<tag k="alt_name" v="Leikanger" />
		<tag k="amenity" v="place_of_worship" />
		<tag k="denomination" v="lutheran" />
		<tag k="name" v="Leikanger kyrkje" />
		<tag k="religion" v="christian" />
		<tag k="ssr:stedsnr" v="615932" />
	</node>
	<node lat="61.17453055660829" lon="7.378149998712498" id="-77784">
		<tag k="name" v="Vetlepallen" />
		<tag k="place" v="locality" />
		<tag k="ssr:stedsnr" v="859346" />
	</node>
</osm>
