<?xml version="1.0" encoding="UTF-8"?>
<osm version="0.6" generator="osmapis">
	<node lat="61.36452500043522" lon="6.828069438242156" id="-41268">
		<tag k="name" v="Frudalsbreen" />
		<tag k="natural" v="glacier" />
		<tag k="ssr:stedsnr" v="8996" />
	</node>
	<node lat="61.14610833508537" lon="6.95545554927463" id="-41271">
		<tag k="alt_name" v="Veslaurdi" />
		<tag k="name" v="Vetleuri" />
		<tag k="natural" v="scree" />
		<tag k="ssr:stedsnr" v="9810" />
	</node>
	<node lat="61.33318889114231" lon="6.926483341943451" id="-41285">
		<tag k="name" v="Storamyri" />
		<tag k="natural" v="wetland" />
		<tag k="ssr:stedsnr" v="32063" />
	</node>
	<node lat="61.332647219721686" lon="6.915861105780164" id="-41287">
		<tag k="landuse" v="meadow" />
		<tag k="name" v="Heimteigane" />
		<tag k="ssr:stedsnr" v="32076" />
	</node>
	<node lat="61.19869722617237" lon="6.840730552237774" id="-41318">
		<tag k="name" v="Heggdalene" />
		<tag k="place" v="locality" />
		<tag k="ssr:stedsnr" v="40966" />
	</node>
	<node lat="61.23301666695581" lon="6.588252773489298" id="-41324">
		<tag k="name" v="Blåuri" />
		<tag k="natural" v="scree" />
		<tag k="ssr:stedsnr" v="45820" />
	</node>
	<node lat="61.1168833322309" lon="6.416058339347363" id="-41325">
		<tag k="name" v="Hagagjerdet" />
		<tag k="place" v="locality" />
		<tag k="ssr:stedsnr" v="45907" />
	</node>
	<node lat="61.179461111819286" lon="6.534097218287306" id="-41328">
		<tag k="name" v="Øygarden" />
		<tag k="place" v="locality" />
		<tag k="ssr:stedsnr" v="45958" />
	</node>
	<node lat="61.15864722309915" lon="6.542899994340551" id="-41334">
		<tag k="name" v="Nygjerdet" />
		<tag k="place" v="locality" />
		<tag k="ssr:stedsnr" v="46824" />
	</node>
	<node lat="61.27535277878152" lon="6.5002750073739675" id="-41335">
		<tag k="name" v="Vossasteinane" />
		<tag k="natural" v="stone" />
		<tag k="ssr:stedsnr" v="54571" />
	</node>
	<node lat="61.193602774506225" lon="6.833747229017803" id="-41338">
		<tag k="name" v="Dalene" />
		<tag k="place" v="locality" />
		<tag k="ssr:stedsnr" v="59994" />
	</node>
	<node lat="61.48041111512682" lon="6.809858338264697" id="-41351">
		<tag k="name" v="Supphellebreen" />
		<tag k="natural" v="glacier" />
		<tag k="ssr:stedsnr" v="68823" />
	</node>
	<node lat="61.260236115174166" lon="6.48107777545143" id="-41427">
		<tag k="name" v="Altersteinen" />
		<tag k="natural" v="stone" />
		<tag k="ssr:stedsnr" v="105597" />
	</node>
	<node lat="61.20949444416396" lon="6.4847111167965386" id="-41431">
		<tag k="name" v="Orteteigen" />
		<tag k="place" v="locality" />
		<tag k="ssr:stedsnr" v="106051" />
	</node>
	<node lat="61.25151111359576" lon="7.071186118368028" id="-41454">
		<tag k="name" v="Brendemyrane" />
		<tag k="natural" v="wetland" />
		<tag k="ssr:stedsnr" v="250278" />
	</node>
	<node lat="61.3402301809789" lon="6.842469987872241" id="-41511">
		<tag k="name" v="Tungene" />
		<tag k="place" v="locality" />
		<tag k="ssr:stedsnr" v="129203" />
	</node>
	<node lat="61.1174805520758" lon="6.410575003983181" id="-41560">
		<tag k="alt_name" v="Sjurhagen" />
		<tag k="name" v="Sjurdhagen" />
		<tag k="place" v="locality" />
		<tag k="ssr:stedsnr" v="252607" />
	</node>
	<node lat="61.12426111460526" lon="6.947361116297334" id="-41571">
		<tag k="alt_name" v="Søstrene" />
		<tag k="name" v="Systrene" />
		<tag k="place" v="locality" />
		<tag k="ssr:stedsnr" v="252743" />
	</node>
	<node lat="61.26181111225229" lon="7.199905560512836" id="-41596">
		<tag k="name" v="Djupemyr" />
		<tag k="natural" v="wetland" />
		<tag k="ssr:stedsnr" v="153556" />
	</node>
	<node lat="61.15370833729237" lon="7.1263916732248065" id="-41612">
		<tag k="name" v="Haukåsmyrane" />
		<tag k="natural" v="wetland" />
		<tag k="ssr:stedsnr" v="154673" />
	</node>
	<node lat="61.45468888754211" lon="6.742644449618392" id="-41649">
		<tag k="name" v="Langemyri" />
		<tag k="natural" v="wetland" />
		<tag k="ssr:stedsnr" v="190862" />
	</node>
	<node lat="61.19905833576495" lon="6.789108324052855" id="-41667">
		<tag k="alt_name" v="Storuri" />
		<tag k="name" v="Storurdi" />
		<tag k="natural" v="scree" />
		<tag k="ssr:stedsnr" v="191873" />
	</node>
	<node lat="61.22691666381225" lon="6.935700008435395" id="-41681">
		<tag k="name" v="Gråsteinen" />
		<tag k="natural" v="stone" />
		<tag k="ssr:stedsnr" v="214425" />
	</node>
	<node lat="61.18660555527021" lon="6.765236112784323" id="-41699">
		<tag k="name" v="Haugatjørni" />
		<tag k="place" v="locality" />
		<tag k="ssr:stedsnr" v="222929" />
	</node>
	<node lat="61.282952776531125" lon="6.568400008311904" id="-41711">
		<tag k="name" v="Kyrkjeteigen" />
		<tag k="place" v="locality" />
		<tag k="ssr:stedsnr" v="227841" />
	</node>
	<node lat="61.16603610712299" lon="6.963341664641173" id="-41744">
		<tag k="name" v="Bjørnuri" />
		<tag k="natural" v="scree" />
		<tag k="ssr:stedsnr" v="457644" />
	</node>
	<node lat="61.201505559647295" lon="6.467619450799413" id="-41804">
		<tag k="name" v="Øykjagarden" />
		<tag k="place" v="locality" />
		<tag k="ssr:stedsnr" v="288790" />
	</node>
	<node lat="61.258680558205405" lon="6.572605546220866" id="-41807">
		<tag k="name" v="Steguri" />
		<tag k="natural" v="scree" />
		<tag k="ssr:stedsnr" v="288694" />
	</node>
	<node lat="61.311038893353356" lon="6.800988887273354" id="-41820">
		<tag k="name" v="Gunvordalsbreen" />
		<tag k="natural" v="glacier" />
		<tag k="ssr:stedsnr" v="311282" />
	</node>
	<node lat="61.34281111339878" lon="6.847841664878546" id="-41832">
		<tag k="name" v="Storestein" />
		<tag k="natural" v="stone" />
		<tag k="ssr:stedsnr" v="311968" />
	</node>
	<node lat="61.12036388683929" lon="6.993583339545828" id="-41856">
		<tag k="alt_name" v="Kvituri" />
		<tag k="name" v="Kviturdane" />
		<tag k="natural" v="scree" />
		<tag k="ssr:stedsnr" v="313465" />
	</node>
	<node lat="61.25881110720379" lon="6.919741668490717" id="-41864">
		<tag k="name" v="Krekane" />
		<tag k="natural" v="wetland" />
		<tag k="ssr:stedsnr" v="324722" />
	</node>
	<node lat="61.15222222112868" lon="6.955830552709709" id="-41900">
		<tag k="name" v="Killingurane" />
		<tag k="natural" v="scree" />
		<tag k="ssr:stedsnr" v="335547" />
	</node>
	<node lat="61.20392499811067" lon="6.995405562735222" id="-41902">
		<tag k="name" v="Høygjerdet" />
		<tag k="place" v="locality" />
		<tag k="ssr:stedsnr" v="335563" />
	</node>
	<node lat="61.25848611514175" lon="7.202672219708432" id="-41908">
		<tag k="name" v="Leinurane" />
		<tag k="natural" v="scree" />
		<tag k="ssr:stedsnr" v="336536" />
	</node>
	<node lat="61.186211115605786" lon="7.309927777611884" id="-41909">
		<tag k="name" v="Fjelluri" />
		<tag k="natural" v="scree" />
		<tag k="ssr:stedsnr" v="336544" />
	</node>
	<node lat="61.28559444844652" lon="7.175422229295073" id="-41911">
		<tag k="name" v="Storamyr" />
		<tag k="natural" v="wetland" />
		<tag k="ssr:stedsnr" v="336462" />
	</node>
	<node lat="61.12653333203485" lon="6.450608336407786" id="-41923">
		<tag k="name" v="Legehaugmyri" />
		<tag k="natural" v="wetland" />
		<tag k="ssr:stedsnr" v="348010" />
	</node>
	<node lat="61.25723333426905" lon="6.474852777226651" id="-41926">
		<tag k="name" v="Syndasteinurane" />
		<tag k="natural" v="scree" />
		<tag k="ssr:stedsnr" v="348556" />
	</node>
	<node lat="61.281127775087484" lon="6.495833341979102" id="-41930">
		<tag k="name" v="Storamyri" />
		<tag k="natural" v="wetland" />
		<tag k="ssr:stedsnr" v="348955" />
	</node>
	<node lat="61.13930833115252" lon="6.929330563554132" id="-42028">
		<tag k="alt_name" v="Meisakyrkja" />
		<tag k="name" v="Meiskyrkja" />
		<tag k="natural" v="stone" />
		<tag k="ssr:stedsnr" v="494868" />
	</node>
	<node lat="61.19854444293602" lon="6.89959167245585" id="-42032">
		<tag k="name" v="Bergsetmyrane" />
		<tag k="natural" v="wetland" />
		<tag k="ssr:stedsnr" v="494880" />
	</node>
	<node lat="61.257511113261" lon="7.093958331856162" id="-42058">
		<tag k="name" v="Grønmyr" />
		<tag k="natural" v="wetland" />
		<tag k="ssr:stedsnr" v="433331" />
	</node>
	<node lat="61.18831388538866" lon="6.888550009014524" id="-42074">
		<tag k="alt_name" v="Skarsmyri" />
		<tag k="name" v="Skardsmyri" />
		<tag k="natural" v="wetland" />
		<tag k="ssr:stedsnr" v="434926" />
	</node>
	<node lat="61.46428889312325" lon="6.876086102128223" id="-42111">
		<tag k="name" v="Stølsbotnbreen" />
		<tag k="natural" v="glacier" />
		<tag k="ssr:stedsnr" v="493859" />
	</node>
	<node lat="61.260602782295265" lon="6.991358342050842" id="-42128">
		<tag k="name" v="Tuftamyrane" />
		<tag k="natural" v="wetland" />
		<tag k="ssr:stedsnr" v="456460" />
	</node>
	<node lat="61.32440555146652" lon="6.935763889841238" id="-42129">
		<tag k="landuse" v="meadow" />
		<tag k="name" v="Kongsteigen" />
		<tag k="ssr:stedsnr" v="457140" />
	</node>
	<node lat="61.19559166279268" lon="7.2012222246053375" id="-42134">
		<tag k="name" v="Kjelkasteinen" />
		<tag k="natural" v="stone" />
		<tag k="ssr:stedsnr" v="457563" />
	</node>
	<node lat="61.34574722320071" lon="6.882902786392614" id="-42138">
		<tag k="name" v="Rauamoldi" />
		<tag k="natural" v="wetland" />
		<tag k="ssr:stedsnr" v="457772" />
	</node>
	<node lat="61.371733330218845" lon="6.551544449811456" id="-42168">
		<tag k="alt_name" v="Meelsteigane" />
		<tag k="name" v="Melsteigane" />
		<tag k="place" v="locality" />
		<tag k="ssr:stedsnr" v="470666" />
	</node>
	<node lat="61.30802777660946" lon="6.563227772141077" id="-42173">
		<tag k="name" v="Øygarden" />
		<tag k="place" v="locality" />
		<tag k="ssr:stedsnr" v="470780" />
	</node>
	<node lat="61.365911109893624" lon="6.955680551280936" id="-42221">
		<tag k="name" v="Brattbreen" />
		<tag k="natural" v="glacier" />
		<tag k="ssr:stedsnr" v="493950" />
	</node>
	<node lat="61.233016665824316" lon="6.76619167013345" id="-42230">
		<tag k="alt_name" v="Gråurane" />
		<tag k="name" v="Gråurdane" />
		<tag k="natural" v="scree" />
		<tag k="ssr:stedsnr" v="494520" />
	</node>
	<node lat="61.44055833199133" lon="6.780716668255187" id="-42252">
		<tag k="name" v="Myrane" />
		<tag k="natural" v="wetland" />
		<tag k="ssr:stedsnr" v="517830" />
	</node>
	<node lat="61.26021110848867" lon="6.477855564674365" id="-42267">
		<tag k="name" v="Grautasteinen" />
		<tag k="natural" v="stone" />
		<tag k="ssr:stedsnr" v="530604" />
	</node>
	<node lat="61.26486388521715" lon="6.473725005116627" id="-42274">
		<tag k="name" v="Trolluri" />
		<tag k="natural" v="scree" />
		<tag k="ssr:stedsnr" v="531621" />
	</node>
	<node lat="61.17740555386715" lon="6.865808330663285" id="-42314">
		<tag k="landuse" v="meadow" />
		<tag k="name" v="Hjellene" />
		<tag k="ssr:stedsnr" v="555907" />
	</node>
	<node lat="61.20345833659251" lon="6.823963881409931" id="-42317">
		<tag k="alt_name" v="Vidmyrane" />
		<tag k="name" v="Viddmyrane" />
		<tag k="natural" v="wetland" />
		<tag k="ssr:stedsnr" v="555876" />
	</node>
	<node lat="61.321241667017226" lon="6.8674111069052195" id="-42337">
		<tag k="name" v="Fiksemyrane" />
		<tag k="natural" v="wetland" />
		<tag k="ssr:stedsnr" v="578940" />
	</node>
	<node lat="61.286897218108244" lon="6.490244449898037" id="-42352">
		<tag k="name" v="Uraneset" />
		<tag k="natural" v="scree" />
		<tag k="ssr:stedsnr" v="590956" />
	</node>
	<node lat="61.296727777873414" lon="6.539316661516144" id="-42360">
		<tag k="name" v="Blåurane" />
		<tag k="natural" v="scree" />
		<tag k="ssr:stedsnr" v="591814" />
	</node>
	<node lat="61.27281666368042" lon="7.069874997859136" id="-42379">
		<tag k="name" v="Tretturi" />
		<tag k="natural" v="scree" />
		<tag k="ssr:stedsnr" v="699901" />
	</node>
	<node lat="61.35885555172866" lon="6.656399992595463" id="-42409">
		<tag k="name" v="Kvilesteinen" />
		<tag k="natural" v="stone" />
		<tag k="ssr:stedsnr" v="700905" />
	</node>
	<node lat="61.29500833275168" lon="6.807508333093694" id="-42417">
		<tag k="name" v="Myrdalsbreen" />
		<tag k="natural" v="glacier" />
		<tag k="ssr:stedsnr" v="614255" />
	</node>
	<node lat="61.278641667714545" lon="7.171097220717824" id="-42421">
		<tag k="name" v="Borgarholt" />
		<tag k="place" v="locality" />
		<tag k="ssr:stedsnr" v="614305" />
	</node>
	<node lat="61.278719446701835" lon="7.183555554101027" id="-42422">
		<tag k="name" v="Kvernasteinane" />
		<tag k="natural" v="stone" />
		<tag k="ssr:stedsnr" v="614310" />
	</node>
	<node lat="61.1990472245748" lon="6.517616669504986" id="-42500">
		<tag k="name" v="Bjødnamyr" />
		<tag k="natural" v="wetland" />
		<tag k="ssr:stedsnr" v="652006" />
	</node>
	<node lat="61.12592500278676" lon="6.440599992966488" id="-42501">
		<tag k="name" v="Juklehamarmyri" />
		<tag k="natural" v="wetland" />
		<tag k="ssr:stedsnr" v="652027" />
	</node>
	<node lat="61.12546111353857" lon="6.469391665444523" id="-42505">
		<tag k="name" v="Holene" />
		<tag k="place" v="locality" />
		<tag k="ssr:stedsnr" v="652046" />
	</node>
	<node lat="61.11488055128954" lon="6.403163880477131" id="-42508">
		<tag k="name" v="Gyllingshola" />
		<tag k="place" v="locality" />
		<tag k="ssr:stedsnr" v="652294" />
	</node>
	<node lat="61.222569445126645" lon="6.5552611145737565" id="-42515">
		<tag k="name" v="Kattavollen" />
		<tag k="place" v="locality" />
		<tag k="ssr:stedsnr" v="652932" />
	</node>
	<node lat="61.14043889253479" lon="7.125172219718689" id="-42521">
		<tag k="name" v="Siki" />
		<tag k="place" v="locality" />
		<tag k="ssr:stedsnr" v="663021" />
	</node>
	<node lat="61.175375001868744" lon="6.873124995331468" id="-42522">
		<tag k="landuse" v="meadow" />
		<tag k="name" v="Staurhoggene" />
		<tag k="ssr:stedsnr" v="666982" />
	</node>
	<node lat="61.424608333103585" lon="6.755033341838693" id="-42550">
		<tag k="alt_name" v="Fruhiller" />
		<tag k="name" v="Fruhilleren" />
		<tag k="natural" v="stone" />
		<tag k="ssr:stedsnr" v="675940" />
	</node>
	<node lat="61.417911111656075" lon="6.7584972170306825" id="-42552">
		<tag k="name" v="Bøyaøyri" />
		<tag k="place" v="locality" />
		<tag k="ssr:stedsnr" v="675892" />
	</node>
	<node lat="61.1972444474343" lon="6.79186110772553" id="-42562">
		<tag k="name" v="Volamyri" />
		<tag k="natural" v="wetland" />
		<tag k="ssr:stedsnr" v="676891" />
	</node>
	<node lat="61.27980555674546" lon="7.0043861111439565" id="-42596">
		<tag k="name" v="Vollamyrane" />
		<tag k="natural" v="wetland" />
		<tag k="ssr:stedsnr" v="699367" />
	</node>
	<node lat="61.11479444783571" lon="6.425200004939026" id="-42602">
		<tag k="name" v="Furenesgjerdet" />
		<tag k="place" v="locality" />
		<tag k="ssr:stedsnr" v="895924" />
	</node>
	<node lat="61.21531666820267" lon="6.661122222252631" id="-42618">
		<tag k="name" v="Langamyri" />
		<tag k="natural" v="wetland" />
		<tag k="ssr:stedsnr" v="701319" />
	</node>
	<node lat="61.20879721785896" lon="6.532086102889683" id="-42623">
		<tag k="name" v="Holmamyrane" />
		<tag k="natural" v="wetland" />
		<tag k="ssr:stedsnr" v="713031" />
	</node>
	<node lat="61.300513885963696" lon="6.6580527865035215" id="-42637">
		<tag k="name" v="Kobbesteinen" />
		<tag k="natural" v="stone" />
		<tag k="ssr:stedsnr" v="721483" />
	</node>
	<node lat="61.19469722491193" lon="6.837652783504659" id="-42644">
		<tag k="name" v="Klinggjerde" />
		<tag k="place" v="locality" />
		<tag k="ssr:stedsnr" v="727994" />
	</node>
	<node lat="61.20533055238972" lon="6.87168056286242" id="-42645">
		<tag k="landuse" v="meadow" />
		<tag k="name" v="Bustagjerde" />
		<tag k="ssr:stedsnr" v="727999" />
	</node>
	<node lat="61.71061388714826" lon="6.924205551876885" id="-42663">
		<tag k="name" v="Jostedalsbreen" />
		<tag k="natural" v="glacier" />
		<tag k="ssr:stedsnr" v="737912" />
	</node>
	<node lat="61.14921110986381" lon="6.946869447388733" id="-42691">
		<tag k="name" v="Tuskorane" />
		<tag k="natural" v="scree" />
		<tag k="ssr:stedsnr" v="760526" />
	</node>
	<node lat="61.27631944291206" lon="7.2154611073692845" id="-42704">
		<tag k="name" v="Kyrkjemyr" />
		<tag k="natural" v="wetland" />
		<tag k="ssr:stedsnr" v="761600" />
	</node>
	<node lat="61.34400000244658" lon="6.466708341699787" id="-42710">
		<tag k="historic" v="shieling" />
		<tag k="name" v="Nystølen" />
		<tag k="place" v="locality" />
		<tag k="ssr:stedsnr" v="918755" />
	</node>
	<node lat="61.1997305585735" lon="6.742713890773155" id="-42712">
		<tag k="name" v="Øygardane" />
		<tag k="place" v="locality" />
		<tag k="ssr:stedsnr" v="768943" />
	</node>
	<node lat="61.19174721985388" lon="6.516488884601354" id="-42714">
		<tag k="name" v="Kalvagjerdet" />
		<tag k="place" v="locality" />
		<tag k="ssr:stedsnr" v="773070" />
	</node>
	<node lat="61.238002776449115" lon="6.4765888931578415" id="-42719">
		<tag k="name" v="Vikjaslåtten" />
		<tag k="place" v="locality" />
		<tag k="ssr:stedsnr" v="773757" />
	</node>
	<node lat="61.27785278115514" lon="7.121888888653952" id="-42736">
		<tag k="name" v="Storamyr" />
		<tag k="natural" v="wetland" />
		<tag k="ssr:stedsnr" v="796330" />
	</node>
	<node lat="61.51025000199817" lon="6.853402784566638" id="-42754">
		<tag k="name" v="Vetlebreen" />
		<tag k="natural" v="glacier" />
		<tag k="ssr:stedsnr" v="798448" />
	</node>
	<node lat="61.410807608078485" lon="6.556567405285899" id="-42778">
		<tag k="name" v="Vetlefjordbreen" />
		<tag k="natural" v="glacier" />
		<tag k="ssr:stedsnr" v="810544" />
	</node>
	<node lat="61.28967222478121" lon="6.798077778065289" id="-42788">
		<tag k="name" v="Voggebreen" />
		<tag k="natural" v="glacier" />
		<tag k="ssr:stedsnr" v="918293" />
	</node>
	<node lat="61.49580833375148" lon="6.7646916695572585" id="-42893">
		<tag k="name" v="Bøyabreen" />
		<tag k="natural" v="glacier" />
		<tag k="ssr:stedsnr" v="857873" />
	</node>
	<node lat="61.17304167010365" lon="6.957283325285086" id="-42911">
		<tag k="alt_name" v="Breidesetmyrane" />
		<tag k="name" v="Breiesetemyrane" />
		<tag k="natural" v="wetland" />
		<tag k="ssr:stedsnr" v="859903" />
	</node>
	<node lat="61.14581389074059" lon="6.9394194399870575" id="-42931">
		<tag k="name" v="Kvitormen" />
		<tag k="natural" v="scree" />
		<tag k="ssr:stedsnr" v="882725" />
	</node>
	<node lat="61.17113055523825" lon="7.33878333789556" id="-42943">
		<tag k="name" v="Hardasleppmyri" />
		<tag k="natural" v="wetland" />
		<tag k="ssr:stedsnr" v="883702" />
	</node>
	<node lat="61.21924444903063" lon="6.6096638974853965" id="-42946">
		<tag k="name" v="Vasstaket" />
		<tag k="natural" v="wetland" />
		<tag k="ssr:stedsnr" v="884523" />
	</node>
	<node lat="61.12190555127369" lon="6.4426472264337376" id="-42951">
		<tag k="name" v="Bleinksdalsmyri" />
		<tag k="natural" v="wetland" />
		<tag k="ssr:stedsnr" v="895110" />
	</node>
	<node lat="61.25195277516517" lon="6.627472225761885" id="-42955">
		<tag k="alt_name" v="Vetletroøyri" />
		<tag k="name" v="Vetlatroøyri" />
		<tag k="place" v="locality" />
		<tag k="ssr:stedsnr" v="895838" />
	</node>
	<node lat="61.430286107189815" lon="6.567916673787093" id="-42970">
		<tag k="name" v="Jostefonni" />
		<tag k="natural" v="glacier" />
		<tag k="ssr:stedsnr" v="918694" />
	</node>
	<node lat="61.201638887553834" lon="6.9085416703057545" id="-42991">
		<tag k="historic" v="shieling" />
		<tag k="name" v="Bergsete" />
		<tag k="place" v="locality" />
		<tag k="ssr:stedsnr" v="919893" />
	</node>
	<node lat="61.199094448318355" lon="7.1640999943494075" id="-43007">
		<tag k="name" v="Storesteinen" />
		<tag k="natural" v="stone" />
		<tag k="ssr:stedsnr" v="964046" />
	</node>
	<node lat="61.413369444663424" lon="6.8738888951674495" id="-43026">
		<tag k="name" v="Steindalsbreen" />
		<tag k="natural" v="glacier" />
		<tag k="ssr:stedsnr" v="7885" />
	</node>
	<node lat="61.219186113377866" lon="6.901549999765964" id="-43078">
		<tag k="alt_name" v="Eivalgjerdmyri" />
		<tag k="name" v="Elvagjerdmyri" />
		<tag k="natural" v="wetland" />
		<tag k="ssr:stedsnr" v="9933" />
	</node>
	<node lat="61.502180558779564" lon="6.726644445499591" id="-43085">
		<tag k="name" v="Vetlebreen" />
		<tag k="natural" v="glacier" />
		<tag k="ssr:stedsnr" v="9759" />
	</node>
	<node lat="61.18458888984943" lon="7.29900555856934" id="-43111">
		<tag k="alt_name" v="Dalsurane" />
		<tag k="name" v="Dalurane" />
		<tag k="natural" v="scree" />
		<tag k="ssr:stedsnr" v="33530" />
	</node>
	<node lat="61.19583888646787" lon="6.7212611137848866" id="-43131">
		<tag k="name" v="Storamyri" />
		<tag k="natural" v="wetland" />
		<tag k="ssr:stedsnr" v="34092" />
	</node>
	<node lat="61.291622226749396" lon="6.546586114860733" id="-43137">
		<tag k="name" v="Otteruri" />
		<tag k="natural" v="scree" />
		<tag k="ssr:stedsnr" v="46933" />
	</node>
	<node lat="61.19966667124156" lon="6.76256111813456" id="-43139">
		<tag k="name" v="Kjeringamyri" />
		<tag k="natural" v="wetland" />
		<tag k="ssr:stedsnr" v="40951" />
	</node>
	<node lat="61.25882222440004" lon="6.536216662354754" id="-43153">
		<tag k="name" v="Breithogsteren" />
		<tag k="place" v="locality" />
		<tag k="ssr:stedsnr" v="45734" />
	</node>
	<node lat="61.1149861139443" lon="6.400419452928557" id="-43161">
		<tag k="name" v="Gyllinga" />
		<tag k="place" v="locality" />
		<tag k="ssr:stedsnr" v="46347" />
	</node>
	<node lat="61.219166662746716" lon="6.910063882204166" id="-43168">
		<tag k="name" v="Kvitastein" />
		<tag k="natural" v="stone" />
		<tag k="ssr:stedsnr" v="60000" />
	</node>
	<node lat="61.274705558242644" lon="7.174872216762238" id="-43173">
		<tag k="name" v="Munthemarki" />
		<tag k="place" v="locality" />
		<tag k="ssr:stedsnr" v="68317" />
	</node>
	<node lat="61.2633916654683" lon="7.013563889067816" id="-43228">
		<tag k="name" v="Kveldsmyr" />
		<tag k="natural" v="wetland" />
		<tag k="ssr:stedsnr" v="93891" />
	</node>
	<node lat="61.29908889288854" lon="6.973808326594366" id="-43231">
		<tag k="name" v="Antunsmyri" />
		<tag k="natural" v="wetland" />
		<tag k="ssr:stedsnr" v="93198" />
	</node>
	<node lat="61.26248611403589" lon="7.000638884218765" id="-43233">
		<tag k="name" v="Vintralimyrane" />
		<tag k="natural" v="wetland" />
		<tag k="ssr:stedsnr" v="93432" />
	</node>
	<node lat="61.15304444034273" lon="7.0036027732315285" id="-43240">
		<tag k="name" v="Vatnsteinane" />
		<tag k="natural" v="stone" />
		<tag k="ssr:stedsnr" v="93538" />
	</node>
	<node lat="61.206061114420095" lon="6.994202771853871" id="-43244">
		<tag k="name" v="Knausgjerdet" />
		<tag k="place" v="locality" />
		<tag k="ssr:stedsnr" v="93481" />
	</node>
	<node lat="61.200877777861585" lon="7.273419450678004" id="-43258">
		<tag k="name" v="Dyresteinane" />
		<tag k="natural" v="stone" />
		<tag k="ssr:stedsnr" v="94599" />
	</node>
	<node lat="61.20755555886979" lon="6.727555550506184" id="-43263">
		<tag k="name" v="Myrane" />
		<tag k="natural" v="wetland" />
		<tag k="ssr:stedsnr" v="95054" />
	</node>
	<node lat="61.1534472266925" lon="6.536061109902929" id="-43284">
		<tag k="name" v="Ytstebøen" />
		<tag k="place" v="locality" />
		<tag k="ssr:stedsnr" v="106951" />
	</node>
	<node lat="61.48839167046068" lon="6.811944448855875" id="-43308">
		<tag k="name" v="Flatbreen" />
		<tag k="natural" v="glacier" />
		<tag k="ssr:stedsnr" v="129862" />
	</node>
	<node lat="61.235494441982894" lon="6.802855557381237" id="-43321">
		<tag k="name" v="Kjeringi" />
		<tag k="natural" v="stone" />
		<tag k="ssr:stedsnr" v="130533" />
	</node>
	<node lat="61.34047221964871" lon="6.922874998494558" id="-43353">
		<tag k="name" v="Småteigane" />
		<tag k="place" v="locality" />
		<tag k="ssr:stedsnr" v="153024" />
	</node>
	<node lat="61.31910833414876" lon="6.968830551618883" id="-43356">
		<tag k="name" v="Sandsteigen" />
		<tag k="place" v="locality" />
		<tag k="ssr:stedsnr" v="153270" />
	</node>
	<node lat="61.28656388476169" lon="6.97963610617806" id="-43357">
		<tag k="name" v="Tjørnmyri" />
		<tag k="natural" v="wetland" />
		<tag k="ssr:stedsnr" v="153306" />
	</node>
	<node lat="61.239822220579406" lon="7.113880563697489" id="-43372">
		<tag k="name" v="Skjelestein" />
		<tag k="natural" v="stone" />
		<tag k="ssr:stedsnr" v="153999" />
	</node>
	<node lat="61.17485833457869" lon="6.528858328059402" id="-43401">
		<tag k="name" v="Skorflaten" />
		<tag k="place" v="locality" />
		<tag k="ssr:stedsnr" v="166933" />
	</node>
	<node lat="61.13601388781202" lon="6.3852055581695994" id="-43406">
		<tag k="name" v="Fledna" />
		<tag k="place" v="locality" />
		<tag k="ssr:stedsnr" v="167296" />
	</node>
	<node lat="61.185625002632726" lon="6.509111118301248" id="-43414">
		<tag k="name" v="Kringlemyri" />
		<tag k="natural" v="wetland" />
		<tag k="ssr:stedsnr" v="167917" />
	</node>
	<node lat="61.17155000122269" lon="7.370675007403797" id="-43434">
		<tag k="name" v="Skardurdi" />
		<tag k="natural" v="scree" />
		<tag k="ssr:stedsnr" v="191350" />
	</node>
	<node lat="61.530625003302156" lon="6.836999997909061" id="-43467">
		<tag k="name" v="Vetle Supphellebreen" />
		<tag k="natural" v="glacier" />
		<tag k="old_name" v="Vesle Suphellebreen" />
		<tag k="ssr:stedsnr" v="191828" />
	</node>
	<node lat="61.20543333188646" lon="6.996752774632807" id="-43510">
		<tag k="name" v="Korngjerdet" />
		<tag k="place" v="locality" />
		<tag k="ssr:stedsnr" v="214546" />
	</node>
	<node lat="61.45465000169376" lon="6.751286112915159" id="-43519">
		<tag k="name" v="Storsteinuri" />
		<tag k="natural" v="scree" />
		<tag k="ssr:stedsnr" v="215199" />
	</node>
	<node lat="61.27892222370451" lon="6.962999996073037" id="-43558">
		<tag k="name" v="Stølsteigen" />
		<tag k="place" v="locality" />
		<tag k="ssr:stedsnr" v="275346" />
	</node>
	<node lat="61.277266670879115" lon="7.001700006316469" id="-43560">
		<tag k="name" v="Stampestein" />
		<tag k="natural" v="stone" />
		<tag k="ssr:stedsnr" v="275364" />
	</node>
	<node lat="61.27882778209457" lon="7.167666664998379" id="-43561">
		<tag k="name" v="Huldrestein" />
		<tag k="natural" v="stone" />
		<tag k="ssr:stedsnr" v="275440" />
	</node>
	<node lat="61.14140555167914" lon="6.992969450056437" id="-43576">
		<tag k="name" v="Øykjakrekmyri" />
		<tag k="natural" v="wetland" />
		<tag k="ssr:stedsnr" v="275698" />
	</node>
	<node lat="61.465994449066756" lon="6.734955563167749" id="-43583">
		<tag k="name" v="Fjellstølsuri" />
		<tag k="natural" v="scree" />
		<tag k="ssr:stedsnr" v="275826" />
	</node>
	<node lat="61.23930000339069" lon="6.757099995063542" id="-43606">
		<tag k="name" v="Navarsetmyrane" />
		<tag k="natural" v="wetland" />
		<tag k="ssr:stedsnr" v="277255" />
	</node>
	<node lat="61.262283331423454" lon="6.535038884962288" id="-43624">
		<tag k="name" v="Øygarden" />
		<tag k="place" v="locality" />
		<tag k="ssr:stedsnr" v="288704" />
	</node>
	<node lat="61.298480553343325" lon="6.550816657773504" id="-43635">
		<tag k="name" v="Ramsteinane" />
		<tag k="natural" v="stone" />
		<tag k="ssr:stedsnr" v="288872" />
	</node>
	<node lat="61.24542777690129" lon="6.606058336980436" id="-43641">
		<tag k="name" v="Svateigane" />
		<tag k="place" v="locality" />
		<tag k="ssr:stedsnr" v="297342" />
	</node>
	<node lat="61.406561112827795" lon="6.759011114538145" id="-43643">
		<tag k="landuse" v="meadow" />
		<tag k="name" v="Moshammarteigen" />
		<tag k="ssr:stedsnr" v="297757" />
	</node>
	<node lat="61.33752222459069" lon="6.571608326987613" id="-43771">
		<tag k="name" v="Storesteinane" />
		<tag k="natural" v="stone" />
		<tag k="ssr:stedsnr" v="349744" />
	</node>
	<node lat="61.167577774843984" lon="6.5397861023970485" id="-43780">
		<tag k="name" v="Øygarden" />
		<tag k="place" v="locality" />
		<tag k="ssr:stedsnr" v="349971" />
	</node>
	<node lat="61.20899444088266" lon="6.810252785951971" id="-43836">
		<tag k="alt_name" v="Kagastein" />
		<tag k="name" v="Kagasteinen" />
		<tag k="natural" v="stone" />
		<tag k="ssr:stedsnr" v="373978" />
	</node>
	<node lat="61.21148889229016" lon="6.857374993824533" id="-43837">
		<tag k="name" v="Maustelmyrane" />
		<tag k="natural" v="wetland" />
		<tag k="ssr:stedsnr" v="373980" />
	</node>
	<node lat="61.33033055810653" lon="6.969569437288916" id="-43853">
		<tag k="name" v="Steguri" />
		<tag k="natural" v="scree" />
		<tag k="ssr:stedsnr" v="396218" />
	</node>
	<node lat="61.33058333207214" lon="6.991613892930641" id="-43861">
		<tag k="name" v="Svedalsmyrane" />
		<tag k="natural" v="wetland" />
		<tag k="ssr:stedsnr" v="396325" />
	</node>
	<node lat="61.180144448858876" lon="7.007930564102066" id="-43865">
		<tag k="name" v="Uri" />
		<tag k="natural" v="scree" />
		<tag k="ssr:stedsnr" v="396549" />
	</node>
	<node lat="61.24252499741314" lon="6.752283334069747" id="-43890">
		<tag k="name" v="Stavseteuri" />
		<tag k="natural" v="scree" />
		<tag k="ssr:stedsnr" v="398386" />
	</node>
	<node lat="61.23835278045577" lon="6.549808336819776" id="-43921">
		<tag k="name" v="Jøtulsvaet" />
		<tag k="place" v="locality" />
		<tag k="ssr:stedsnr" v="419538" />
	</node>
	<node lat="61.24152777637201" lon="6.4003249913649025" id="-43957">
		<tag k="name" v="Langedalsbreen" />
		<tag k="natural" v="glacier" />
		<tag k="ssr:stedsnr" v="434267" />
	</node>
	<node lat="61.51415833288126" lon="6.807861118506207" id="-43968">
		<tag k="name" v="Supphellebreen" />
		<tag k="natural" v="glacier" />
		<tag k="old_name" v="Suphellebreen" />
		<tag k="ssr:stedsnr" v="434832" />
	</node>
	<node lat="61.42870000422223" lon="6.819411104448488" id="-44003">
		<tag k="name" v="Koppaholuri" />
		<tag k="natural" v="scree" />
		<tag k="ssr:stedsnr" v="517881" />
	</node>
	<node lat="61.19211111005175" lon="7.2232805511252" id="-44009">
		<tag k="name" v="Myrane" />
		<tag k="natural" v="wetland" />
		<tag k="ssr:stedsnr" v="518175" />
	</node>
	<node lat="61.205544442872736" lon="7.190830550432207" id="-44016">
		<tag k="name" v="Vestreimsmyrane" />
		<tag k="natural" v="wetland" />
		<tag k="ssr:stedsnr" v="518574" />
	</node>
	<node lat="61.18495833757966" lon="7.194700003665772" id="-44017">
		<tag k="name" v="Storemyri" />
		<tag k="natural" v="wetland" />
		<tag k="ssr:stedsnr" v="518575" />
	</node>
	<node lat="61.36161944904721" lon="6.721641671456476" id="-44019">
		<tag k="name" v="Myri" />
		<tag k="natural" v="wetland" />
		<tag k="ssr:stedsnr" v="518584" />
	</node>
	<node lat="61.17656389034947" lon="6.8853027853243605" id="-44036">
		<tag k="name" v="Fatlauri" />
		<tag k="natural" v="scree" />
		<tag k="ssr:stedsnr" v="519531" />
	</node>
	<node lat="61.21363888857078" lon="6.501569439453751" id="-44052">
		<tag k="name" v="Hilleren" />
		<tag k="place" v="locality" />
		<tag k="ssr:stedsnr" v="530971" />
	</node>
	<node lat="61.12741666704277" lon="6.469899999140889" id="-44063">
		<tag k="name" v="Rugjerdet" />
		<tag k="place" v="locality" />
		<tag k="ssr:stedsnr" v="531048" />
	</node>
	<node lat="61.352441666943214" lon="6.551388891219038" id="-44073">
		<tag k="name" v="Trolløymyrane" />
		<tag k="natural" v="wetland" />
		<tag k="ssr:stedsnr" v="531766" />
	</node>
	<node lat="61.39488889233416" lon="6.739133327617167" id="-44079">
		<tag k="name" v="Toskesvaet" />
		<tag k="place" v="locality" />
		<tag k="ssr:stedsnr" v="539024" />
	</node>
	<node lat="61.339361115483946" lon="6.571955553014829" id="-44142">
		<tag k="name" v="Rustauri" />
		<tag k="natural" v="scree" />
		<tag k="ssr:stedsnr" v="566637" />
	</node>
	<node lat="61.19944722063841" lon="7.033344453672364" id="-44149">
		<tag k="name" v="Hjellsmyri" />
		<tag k="natural" v="wetland" />
		<tag k="ssr:stedsnr" v="578573" />
	</node>
	<node lat="61.31649166995782" lon="6.981655554152263" id="-44160">
		<tag k="name" v="Biskuri" />
		<tag k="natural" v="scree" />
		<tag k="ssr:stedsnr" v="578273" />
	</node>
	<node lat="61.19419444763629" lon="6.744674992776859" id="-44191">
		<tag k="name" v="Kalvahagen" />
		<tag k="place" v="locality" />
		<tag k="ssr:stedsnr" v="586941" />
	</node>
	<node lat="61.25765555751016" lon="6.480411105708271" id="-44195">
		<tag k="name" v="Ospemyrane" />
		<tag k="natural" v="wetland" />
		<tag k="ssr:stedsnr" v="590579" />
	</node>
	<node lat="61.243802781387636" lon="6.5431027853979735" id="-44222">
		<tag k="name" v="Galdamyri" />
		<tag k="natural" v="wetland" />
		<tag k="ssr:stedsnr" v="591847" />
	</node>
	<node lat="61.305288885876685" lon="6.689408335065764" id="-44236">
		<tag k="name" v="Storura" />
		<tag k="natural" v="scree" />
		<tag k="ssr:stedsnr" v="600444" />
	</node>
	<node lat="61.273794448636075" lon="6.900144439021752" id="-44237">
		<tag k="name" v="Britastein" />
		<tag k="natural" v="stone" />
		<tag k="ssr:stedsnr" v="614132" />
	</node>
	<node lat="61.3317027774626" lon="6.988044451478351" id="-44316">
		<tag k="name" v="Grøssetemyrane" />
		<tag k="natural" v="wetland" />
		<tag k="ssr:stedsnr" v="638330" />
	</node>
	<node lat="61.18591111166593" lon="7.219777782128615" id="-44331">
		<tag k="name" v="Porsmyri" />
		<tag k="natural" v="wetland" />
		<tag k="ssr:stedsnr" v="639491" />
	</node>
	<node lat="61.34995277554507" lon="6.556750007418507" id="-44366">
		<tag k="name" v="Langehaugsmyri" />
		<tag k="natural" v="wetland" />
		<tag k="ssr:stedsnr" v="652725" />
	</node>
	<node lat="61.27543333154864" lon="6.52103333415652" id="-44375">
		<tag k="alt_name" v="Sværauri" />
		<tag k="name" v="Sværuri" />
		<tag k="natural" v="scree" />
		<tag k="ssr:stedsnr" v="652958" />
	</node>
	<node lat="61.252711107621195" lon="6.574141670919281" id="-44376">
		<tag k="name" v="Hella" />
		<tag k="place" v="locality" />
		<tag k="ssr:stedsnr" v="660578" />
	</node>
	<node lat="61.221372221240046" lon="6.5161777694538445" id="-44388">
		<tag k="name" v="Skitteigen" />
		<tag k="place" v="locality" />
		<tag k="ssr:stedsnr" v="712895" />
	</node>
	<node lat="61.211391669637536" lon="6.4750611118071975" id="-44390">
		<tag k="name" v="Kvanngrøteigen" />
		<tag k="place" v="locality" />
		<tag k="ssr:stedsnr" v="712998" />
	</node>
	<node lat="61.13123610905346" lon="6.479936107883581" id="-44400">
		<tag k="name" v="Hagane" />
		<tag k="place" v="locality" />
		<tag k="ssr:stedsnr" v="713059" />
	</node>
	<node lat="61.49941944896492" lon="6.732241672928717" id="-44437">
		<tag k="name" v="Vetlebreen" />
		<tag k="natural" v="glacier" />
		<tag k="ssr:stedsnr" v="736877" />
	</node>
	<node lat="61.248838892490326" lon="6.426961105417038" id="-44452">
		<tag k="name" v="Bjørnabreen" />
		<tag k="natural" v="glacier" />
		<tag k="ssr:stedsnr" v="737299" />
	</node>
	<node lat="61.29046944439975" lon="7.054272217092939" id="-44507">
		<tag k="name" v="Hundersgjerdi" />
		<tag k="place" v="locality" />
		<tag k="ssr:stedsnr" v="760888" />
	</node>
	<node lat="61.42776389240346" lon="6.663063887304566" id="-44510">
		<tag k="name" v="Fjellstølsuri" />
		<tag k="natural" v="scree" />
		<tag k="ssr:stedsnr" v="761075" />
	</node>
	<node lat="61.19204166373141" lon="6.7895083383116095" id="-44530">
		<tag k="name" v="Bustoene" />
		<tag k="place" v="locality" />
		<tag k="ssr:stedsnr" v="768966" />
	</node>
	<node lat="61.12461110932009" lon="6.383527769916403" id="-44533">
		<tag k="name" v="Myrleite" />
		<tag k="place" v="locality" />
		<tag k="ssr:stedsnr" v="773307" />
	</node>
	<node lat="61.27174444701865" lon="6.5317722287617" id="-44543">
		<tag k="name" v="Grønlundsmyri" />
		<tag k="natural" v="wetland" />
		<tag k="ssr:stedsnr" v="773718" />
	</node>
	<node lat="61.276155554649165" lon="6.537488894454042" id="-44548">
		<tag k="name" v="Fletene" />
		<tag k="place" v="locality" />
		<tag k="ssr:stedsnr" v="773889" />
	</node>
	<node lat="61.2871000024617" lon="6.565383335098904" id="-44563">
		<tag k="name" v="Karistykket" />
		<tag k="place" v="locality" />
		<tag k="ssr:stedsnr" v="782379" />
	</node>
	<node lat="61.33628888679492" lon="6.790619435910862" id="-44580">
		<tag k="name" v="Bjåstadbreen" />
		<tag k="natural" v="glacier" />
		<tag k="ssr:stedsnr" v="796190" />
	</node>
	<node lat="61.20864166486237" lon="6.896908324863358" id="-44637">
		<tag k="historic" v="shieling" />
		<tag k="name" v="Gamlestølen" />
		<tag k="place" v="locality" />
		<tag k="ssr:stedsnr" v="798978" />
	</node>
	<node lat="61.207083335549704" lon="6.716847229742709" id="-44639">
		<tag k="name" v="Klovsteinane" />
		<tag k="natural" v="stone" />
		<tag k="ssr:stedsnr" v="798984" />
	</node>
	<node lat="61.33733055750207" lon="6.923049997294747" id="-44650">
		<tag k="name" v="Tangamyri" />
		<tag k="natural" v="wetland" />
		<tag k="ssr:stedsnr" v="821049" />
	</node>
	<node lat="61.17366666337121" lon="7.3343527704006135" id="-44692">
		<tag k="name" v="Gjertamyri" />
		<tag k="natural" v="wetland" />
		<tag k="ssr:stedsnr" v="823600" />
	</node>
	<node lat="61.29281666830354" lon="6.476577779645134" id="-44694">
		<tag k="name" v="Nøturi" />
		<tag k="natural" v="scree" />
		<tag k="ssr:stedsnr" v="833027" />
	</node>
	<node lat="61.14646111304261" lon="6.392186112322977" id="-44701">
		<tag k="name" v="Grisagrovteigen" />
		<tag k="place" v="locality" />
		<tag k="ssr:stedsnr" v="834461" />
	</node>
	<node lat="61.1729833293815" lon="6.510619443263029" id="-44716">
		<tag k="name" v="Faganastadmyrane" />
		<tag k="natural" v="wetland" />
		<tag k="ssr:stedsnr" v="834992" />
	</node>
	<node lat="61.438325000990744" lon="6.7670749910166474" id="-44908">
		<tag k="name" v="Lindesvoi" />
		<tag k="place" v="locality" />
		<tag k="ssr:stedsnr" v="944557" />
	</node>
	<node lat="61.20207221890942" lon="6.766444452259055" id="-44918">
		<tag k="name" v="Langemyr" />
		<tag k="natural" v="wetland" />
		<tag k="ssr:stedsnr" v="944823" />
	</node>
	<node lat="61.32334999654685" lon="6.583549997637494" id="-44925">
		<tag k="name" v="Gleuri" />
		<tag k="natural" v="scree" />
		<tag k="ssr:stedsnr" v="956744" />
	</node>
	<node lat="61.234411111649386" lon="6.482963893264913" id="-44932">
		<tag k="name" v="Storesteinane" />
		<tag k="natural" v="stone" />
		<tag k="ssr:stedsnr" v="955778" />
	</node>
	<node lat="61.32790832969225" lon="6.553261115754118" id="-44936">
		<tag k="name" v="Storuri" />
		<tag k="natural" v="scree" />
		<tag k="ssr:stedsnr" v="955706" />
	</node>
	<node lat="61.14115277694312" lon="6.515638881784322" id="-44938">
		<tag k="name" v="Halvfarmyri" />
		<tag k="natural" v="wetland" />
		<tag k="ssr:stedsnr" v="956039" />
	</node>
	<node lat="61.115647221845165" lon="6.404952783491971" id="-44942">
		<tag k="name" v="Rudgjerdet" />
		<tag k="place" v="locality" />
		<tag k="ssr:stedsnr" v="956369" />
	</node>
	<node lat="61.23172778021647" lon="6.548033338689128" id="-44957">
		<tag k="name" v="Ivasteinen" />
		<tag k="natural" v="stone" />
		<tag k="ssr:stedsnr" v="965558" />
	</node>
</osm>
