<?xml version="1.0" encoding="UTF-8"?>
<osm generator="osmapis" version="0.6">
	<node id="-65536" lat="61.1714888853" lon="6.9397472141">
		<tag k="historic" v="shieling" />
		<tag k="name" v="Øyestølen" />
		<tag k="place" v="locality" />
		<tag k="ssr:stedsnr" v="457618" />
	</node>
	<node id="-65530" lat="61.2110967857" lon="7.1659002198">
		<tag k="name" v="Kyrkjeteigen" />
		<tag k="place" v="locality" />
		<tag k="ssr:stedsnr" v="457535" />
	</node>
	<node id="-65528" lat="61.251377777" lon="7.16701388175">
		<tag k="name" v="Teigen" />
		<tag k="place" v="farm" />
		<tag k="ssr:stedsnr" v="457394" />
	</node>
	<node id="-67575" lat="61.2889750008" lon="6.9591750013">
		<tag k="name" v="Stedjekammen" />
		<tag k="place" v="isolated_dwelling" />
		<tag k="ssr:stedsnr" v="311158" />
	</node>
	<node id="-65524" lat="61.1990305542" lon="7.03024444337">
		<tag k="name" v="Alpedal" />
		<tag k="place" v="farm" />
		<tag k="ssr:stedsnr" v="457318" />
	</node>
	<node id="-67567" lat="61.3380635716" lon="6.98997313036">
		<tag k="fixme" v="consider tourism=alpine_hut or tourism=chalet" />
		<tag k="name" v="Grøssete" />
		<tag k="ssr:stedsnr" v="216478" />
		<tag k="tourism" v="wilderness_hut" />
	</node>
	<node id="-65515" lat="61.2844776384" lon="6.68288906129">
		<tag k="fixme" v="consider place=hamlet" />
		<tag k="name" v="Romøyri" />
		<tag k="place" v="farm" />
		<tag k="ssr:stedsnr" v="250257" />
	</node>
	<node id="-67560" lat="61.2422944446" lon="7.08667777616">
		<tag k="historic" v="shieling" />
		<tag k="name" v="Trona" />
		<tag k="place" v="locality" />
		<tag k="ssr:stedsnr" v="215000" />
	</node>
	<node id="-67552" lat="61.2551861088" lon="7.00628889381">
		<tag k="name" v="Øygarden" />
		<tag k="place" v="farm" />
		<tag k="ssr:stedsnr" v="214942" />
	</node>
	<node id="-67549" lat="61.1944366668" lon="7.02184846804">
		<tag k="fixme" v="consider place=hamlet" />
		<tag k="name" v="Fardal" />
		<tag k="place" v="farm" />
		<tag k="ssr:stedsnr" v="214793" />
	</node>
	<node id="-67541" lat="61.1452472253" lon="6.97733888634">
		<tag k="name" v="Simongjerteigen" />
		<tag k="place" v="locality" />
		<tag k="ssr:stedsnr" v="214586" />
	</node>
	<node id="-65488" lat="61.1863444405" lon="7.22382777764">
		<tag k="name" v="Brekka" />
		<tag k="place" v="farm" />
		<tag k="ssr:stedsnr" v="215526" />
	</node>
	<node id="-65482" lat="61.1541861101" lon="7.00196666434">
		<tag k="name" v="Nordheim" />
		<tag k="place" v="farm" />
		<tag k="ssr:stedsnr" v="214605" />
	</node>
	<node id="-67525" lat="61.1435249971" lon="7.17423889104">
		<tag k="name" v="Holm" />
		<tag k="place" v="locality" />
		<tag k="ssr:stedsnr" v="192509" />
	</node>
	<node id="-67524" lat="61.2441333337" lon="6.99406667337">
		<tag k="historic" v="shieling" />
		<tag k="name" v="Tyldestølen" />
		<tag k="place" v="locality" />
		<tag k="ssr:stedsnr" v="192170" />
	</node>
	<node id="-67523" lat="61.2456264156" lon="7.02594003798">
		<tag k="fixme" v="consider place=hamlet" />
		<tag k="name" v="Ospesete" />
		<tag k="place" v="farm" />
		<tag k="ssr:stedsnr" v="192168" />
	</node>
	<node id="-67522" lat="61.2240611102" lon="6.98787778635">
		<tag k="alt_name" v="Midtunskamben" />
		<tag k="historic" v="shieling" />
		<tag k="name" v="Kamben" />
		<tag k="place" v="locality" />
		<tag k="ssr:stedsnr" v="192142" />
	</node>
	<node id="-65472" lat="61.2345961143" lon="7.05371393124">
		<tag k="fixme" v="consider place=hamlet" />
		<tag k="name" v="Stenageim" />
		<tag k="place" v="farm" />
		<tag k="ssr:stedsnr" v="192115" />
	</node>
	<node id="-65471" lat="61.2391888878" lon="6.99904166055">
		<tag k="alt_name" v="Ospesetølen" />
		<tag k="historic" v="shieling" />
		<tag k="name" v="Ospesetestølen" />
		<tag k="place" v="locality" />
		<tag k="ssr:stedsnr" v="192110" />
	</node>
	<node id="-65470" lat="61.2441819904" lon="7.04802332805">
		<tag k="alt_name" v="Hofslundsengen" />
		<tag k="fixme" v="consider place=hamlet" />
		<tag k="name" v="Hovslundengi" />
		<tag k="place" v="farm" />
		<tag k="ssr:stedsnr" v="192107" />
	</node>
	<node id="-65469" lat="61.2480989512" lon="7.1366848345">
		<tag k="fixme" v="consider place=hamlet" />
		<tag k="name" v="Barsnes" />
		<tag k="place" v="farm" />
		<tag k="ssr:stedsnr" v="192102" />
	</node>
	<node id="-67516" lat="61.1990666693" lon="7.02637777211">
		<tag k="name" v="Alpen" />
		<tag k="place" v="farm" />
		<tag k="ssr:stedsnr" v="192037" />
	</node>
	<node id="-67515" lat="61.1489611098" lon="6.99003888829">
		<tag k="name" v="Haugen" />
		<tag k="place" v="farm" />
		<tag k="ssr:stedsnr" v="192028" />
	</node>
	<node id="-65465" lat="61.1697149108" lon="6.99405706927">
		<tag k="alt_name" v="Norum" />
		<tag k="fixme" v="consider place=hamlet" />
		<tag k="name" v="Norane" />
		<tag k="place" v="village" />
		<tag k="ssr:stedsnr" v="192007" />
	</node>
	<node id="-67511" lat="61.2095694406" lon="6.63768055169">
		<tag k="name" v="Eikenes" />
		<tag k="place" v="farm" />
		<tag k="ssr:stedsnr" v="191997" />
	</node>
	<node id="-65459" lat="61.1506388885" lon="6.53806111629">
		<tag k="name" v="Eikelund" />
		<tag k="place" v="farm" />
		<tag k="ssr:stedsnr" v="191607" />
	</node>
	<node id="-67503" lat="61.2122022995" lon="6.63183640743">
		<tag k="fixme" v="consider place=hamlet" />
		<tag k="name" v="Eitorn" />
		<tag k="place" v="farm" />
		<tag k="ssr:stedsnr" v="191939" />
	</node>
	<node id="-67502" lat="61.2177833299" lon="6.64101389015">
		<tag k="historic" v="shieling" />
		<tag k="name" v="Kluke" />
		<tag k="place" v="locality" />
		<tag k="ssr:stedsnr" v="191937" />
	</node>
	<node id="-67495" lat="61.1937720093" lon="6.83880424523">
		<tag k="name" v="Skahaug" />
		<tag k="place" v="farm" />
		<tag k="ssr:stedsnr" v="191854" />
	</node>
	<node id="-67494" lat="61.1894666641" lon="6.48844999446">
		<tag k="historic" v="shieling" />
		<tag k="name" v="Kallbakk" />
		<tag k="place" v="locality" />
		<tag k="ssr:stedsnr" v="191681" />
	</node>
	<node id="-67492" lat="61.2054888902" lon="6.50985277308">
		<tag k="historic" v="shieling" />
		<tag k="name" v="Balastølen" />
		<tag k="place" v="locality" />
		<tag k="ssr:stedsnr" v="191654" />
	</node>
	<node id="-67489" lat="61.2116083335" lon="6.46005555709">
		<tag k="historic" v="shieling" />
		<tag k="name" v="Esestølen" />
		<tag k="place" v="locality" />
		<tag k="ssr:stedsnr" v="191633" />
	</node>
	<node id="-67226" lat="61.1980583376" lon="6.88512500634">
		<tag k="name" v="Fleken" />
		<tag k="place" v="isolated_dwelling" />
		<tag k="ssr:stedsnr" v="94734" />
	</node>
	<node id="-67482" lat="61.4187333357" lon="6.82690833699">
		<tag k="historic" v="shieling" />
		<tag k="name" v="Steindalen" />
		<tag k="place" v="locality" />
		<tag k="ssr:stedsnr" v="190894" />
	</node>
	<node id="-67480" lat="61.3645333348" lon="6.70290832643">
		<tag k="historic" v="shieling" />
		<tag k="name" v="Distadfjellstølen" />
		<tag k="place" v="locality" />
		<tag k="ssr:stedsnr" v="190989" />
	</node>
	<node id="-67479" lat="61.36426389" lon="6.65450000669">
		<tag k="historic" v="shieling" />
		<tag k="name" v="Brekka" />
		<tag k="place" v="locality" />
		<tag k="ssr:stedsnr" v="190985" />
	</node>
	<node id="-67475" lat="61.3529472257" lon="6.72089167101">
		<tag k="name" v="Lyngsete" />
		<tag k="place" v="isolated_dwelling" />
		<tag k="ssr:stedsnr" v="190944" />
	</node>
	<node id="-67474" lat="61.3653861133" lon="6.9080194438">
		<tag k="historic" v="shieling" />
		<tag k="name" v="Anestølen" />
		<tag k="place" v="locality" />
		<tag k="ssr:stedsnr" v="190939" />
	</node>
	<node id="-67470" lat="61.412050002" lon="6.79390277682">
		<tag k="historic" v="shieling" />
		<tag k="name" v="Endrestølen" />
		<tag k="place" v="locality" />
		<tag k="ssr:stedsnr" v="190907" />
	</node>
	<node id="-65417" lat="61.1102666689" lon="6.38115556027">
		<tag k="name" v="Sæle sag" />
		<tag k="place" v="quarter" />
		<tag k="ssr:stedsnr" v="177574" />
	</node>
	<node id="-65416" lat="61.2172583317" lon="6.55463332597">
		<tag k="name" v="Lunde" />
		<tag k="place" v="quarter" />
		<tag k="ssr:stedsnr" v="177567" />
	</node>
	<node id="-67463" lat="61.4838694485" lon="6.86192499502">
		<tag k="name" v="Gamlestølen" />
		<tag k="place" v="locality" />
		<tag k="ssr:stedsnr" v="190852" />
	</node>
	<node id="-67461" lat="61.3055861152" lon="6.38588610439">
		<tag k="historic" v="shieling" />
		<tag k="name" v="Risbotnstølen" />
		<tag k="place" v="locality" />
		<tag k="ssr:stedsnr" v="190783" />
	</node>
	<node id="-65412" lat="61.1704805524" lon="6.53370000639">
		<tag k="name" v="Stuene" />
		<tag k="place" v="isolated_dwelling" />
		<tag k="ssr:stedsnr" v="167967" />
	</node>
	<node id="-67457" lat="61.2726760269" lon="7.15861369801">
		<tag k="fixme" v="consider place=hamlet" />
		<tag k="name" v="Årøy" />
		<tag k="place" v="farm" />
		<tag k="ssr:stedsnr" v="190368" />
	</node>
	<node id="-67456" lat="61.2610111075" lon="7.10734166258">
		<tag k="alt_name" v="Øygardane" />
		<tag k="historic" v="shieling" />
		<tag k="name" v="Øygarden" />
		<tag k="place" v="locality" />
		<tag k="ssr:stedsnr" v="190351" />
	</node>
	<node id="-65406" lat="61.1965222195" lon="6.52399722139">
		<tag k="name" v="Sandshagen" />
		<tag k="place" v="farm" />
		<tag k="ssr:stedsnr" v="167004" />
	</node>
	<node id="-67453" lat="61.3319388857" lon="6.92606389052">
		<tag k="name" v="Steinane" />
		<tag k="place" v="isolated_dwelling" />
		<tag k="ssr:stedsnr" v="190210" />
	</node>
	<node id="-65403" lat="61.1893583328" lon="6.50884722833">
		<tag k="name" v="Gamlestølen" />
		<tag k="place" v="locality" />
		<tag k="ssr:stedsnr" v="166062" />
	</node>
	<node id="-67447" lat="61.4121249973" lon="6.68479166011">
		<tag k="historic" v="shieling" />
		<tag k="name" v="Heimastølen" />
		<tag k="place" v="locality" />
		<tag k="ssr:stedsnr" v="189871" />
	</node>
	<node id="-67446" lat="61.2726666644" lon="6.50472221722">
		<tag k="alt_name" v="Teigen" />
		<tag k="name" v="Nybø" />
		<tag k="place" v="farm" />
		<tag k="ssr:stedsnr" v="189842" />
	</node>
	<node id="-67445" lat="61.2760603511" lon="6.54365318658">
		<tag k="fixme" v="consider place=hamlet" />
		<tag k="name" v="Torsnes" />
		<tag k="place" v="farm" />
		<tag k="ssr:stedsnr" v="189835" />
	</node>
	<node id="-67441" lat="61.2854527804" lon="7.10075554678">
		<tag k="historic" v="shieling" />
		<tag k="name" v="Kvamsnystølen" />
		<tag k="place" v="locality" />
		<tag k="ssr:stedsnr" v="189315" />
	</node>
	<node id="-67440" lat="61.282058331" lon="7.1693888802">
		<tag k="alt_name" v="Skrestølen" />
		<tag k="historic" v="shieling" />
		<tag k="name" v="Skredstølen" />
		<tag k="place" v="locality" />
		<tag k="ssr:stedsnr" v="189283" />
	</node>
	<node id="-65512" lat="61.3101750025" lon="6.65483333819">
		<tag k="historic" v="shieling" />
		<tag k="name" v="Heimastølen" />
		<tag k="place" v="locality" />
		<tag k="ssr:stedsnr" v="446665" />
	</node>
	<node id="-65389" lat="61.1763333315" lon="7.27317778585">
		<tag k="name" v="Bakkateigen" />
		<tag k="place" v="farm" />
		<tag k="ssr:stedsnr" v="276589" />
	</node>
	<node id="-67433" lat="61.2742166706" lon="6.54430833009">
		<tag k="name" v="Ytre Torsnes" />
		<tag k="place" v="farm" />
		<tag k="ssr:stedsnr" v="175588" />
	</node>
	<node id="-65384" lat="61.1892722243" lon="7.23276944516">
		<tag k="name" v="Mårkjettehola" />
		<tag k="place" v="farm" />
		<tag k="ssr:stedsnr" v="276218" />
	</node>
	<node id="-65382" lat="61.2579805557" lon="6.98773889431">
		<tag k="historic" v="shieling" />
		<tag k="name" v="Tranene" />
		<tag k="place" v="locality" />
		<tag k="ssr:stedsnr" v="153402" />
	</node>
	<node id="-65379" lat="61.3362083369" lon="6.69082221956">
		<tag k="name" v="Bergheim" />
		<tag k="place" v="farm" />
		<tag k="ssr:stedsnr" v="275931" />
	</node>
	<node id="-65369" lat="61.2002916647" lon="7.01330277724">
		<tag k="name" v="Brekkedal" />
		<tag k="place" v="farm" />
		<tag k="ssr:stedsnr" v="275738" />
	</node>
	<node id="-65358" lat="61.1973444468" lon="7.08838888086">
		<tag k="name" v="Torstein-teigen" />
		<tag k="place" v="locality" />
		<tag k="ssr:stedsnr" v="275536" />
	</node>
	<node id="-65354" lat="61.1656222182" lon="6.91429722063">
		<tag k="name" v="Samteigane" />
		<tag k="place" v="locality" />
		<tag k="ssr:stedsnr" v="275582" />
	</node>
	<node id="-65342" lat="61.2955305543" lon="6.63912221575">
		<tag k="historic" v="shieling" />
		<tag k="name" v="Svalåndalsstølen" />
		<tag k="place" v="locality" />
		<tag k="ssr:stedsnr" v="142653" />
	</node>
	<node id="-67387" lat="61.2730972215" lon="7.14369444545">
		<tag k="historic" v="shieling" />
		<tag k="name" v="Brunastølen" />
		<tag k="place" v="locality" />
		<tag k="ssr:stedsnr" v="154627" />
	</node>
	<node id="-65338" lat="61.1567305575" lon="6.51836389519">
		<tag k="alt_name" v="Sauesete" />
		<tag k="historic" v="shieling" />
		<tag k="name" v="Savesete" />
		<tag k="place" v="locality" />
		<tag k="ssr:stedsnr" v="131632" />
	</node>
	<node id="-65337" lat="61.1654361154" lon="7.2945916616">
		<tag k="alt_name" v="Festingsdalen" />
		<tag k="historic" v="shieling" />
		<tag k="name" v="Festingdalen" />
		<tag k="place" v="locality" />
		<tag k="ssr:stedsnr" v="131036" />
	</node>
	<node id="-65334" lat="61.228840789" lon="7.06813740738">
		<tag k="fixme" v="consider place=hamlet" />
		<tag k="name" v="Skjeldestad" />
		<tag k="place" v="farm" />
		<tag k="ssr:stedsnr" v="131127" />
	</node>
	<node id="-65332" lat="61.232079915" lon="7.06066908308">
		<tag k="fixme" v="consider place=hamlet" />
		<tag k="name" v="Flugheim" />
		<tag k="place" v="farm" />
		<tag k="ssr:stedsnr" v="131118" />
	</node>
	<node id="-65330" lat="61.2368582203" lon="7.03070359218">
		<tag k="fixme" v="consider place=hamlet" />
		<tag k="name" v="Lereim" />
		<tag k="place" v="farm" />
		<tag k="ssr:stedsnr" v="131109" />
	</node>
	<node id="-65328" lat="61.1130999976" lon="6.44860555918">
		<tag k="name" v="Hasleviki" />
		<tag k="place" v="farm" />
		<tag k="ssr:stedsnr" v="130651" />
	</node>
	<node id="-65325" lat="61.114705328" lon="6.39661099975">
		<tag k="fixme" v="consider place=hamlet" />
		<tag k="name" v="Linde" />
		<tag k="place" v="farm" />
		<tag k="ssr:stedsnr" v="130625" />
	</node>
	<node id="-65320" lat="61.345897219" lon="6.9098055603">
		<tag k="historic" v="shieling" />
		<tag k="name" v="Nysete" />
		<tag k="place" v="locality" />
		<tag k="ssr:stedsnr" v="129950" />
	</node>
	<node id="-65317" lat="61.3154686088" lon="6.57365021729">
		<tag k="fixme" v="consider place=hamlet" />
		<tag k="name" v="Meland" />
		<tag k="place" v="farm" />
		<tag k="ssr:stedsnr" v="129807" />
	</node>
	<node id="-65315" lat="61.360324999" lon="6.54390000781">
		<tag k="name" v="Gottopp" />
		<tag k="place" v="locality" />
		<tag k="ssr:stedsnr" v="129726" />
	</node>
	<node id="-65313" lat="61.3509055591" lon="6.55795555575">
		<tag k="alt_name" v="Langhaugen" />
		<tag k="name" v="Langehaugen" />
		<tag k="place" v="isolated_dwelling" />
		<tag k="ssr:stedsnr" v="129706" />
	</node>
	<node id="-67359" lat="61.196097224" lon="7.1240750091">
		<tag k="name" v="Sjellestadteigen" />
		<tag k="place" v="locality" />
		<tag k="ssr:stedsnr" v="153570" />
	</node>
	<node id="-65308" lat="61.316558336" lon="7.01460277648">
		<tag k="historic" v="shieling" />
		<tag k="name" v="Spe" />
		<tag k="place" v="locality" />
		<tag k="ssr:stedsnr" v="129404" />
	</node>
	<node id="-67355" lat="61.2633249997" lon="7.18862778181">
		<tag k="name" v="Allmorki" />
		<tag k="place" v="locality" />
		<tag k="ssr:stedsnr" v="153530" />
	</node>
	<node id="-67354" lat="61.2140951021" lon="6.99212856173">
		<tag k="fixme" v="consider place=hamlet" />
		<tag k="name" v="Haugen" />
		<tag k="place" v="farm" />
		<tag k="ssr:stedsnr" v="153510" />
	</node>
	<node id="-67351" lat="61.2822027818" lon="6.96522222238">
		<tag k="historic" v="shieling" />
		<tag k="name" v="Øyestølen" />
		<tag k="place" v="locality" />
		<tag k="ssr:stedsnr" v="153367" />
	</node>
	<node id="-65302" lat="61.2864583302" lon="7.14416111927">
		<tag k="historic" v="shieling" />
		<tag k="name" v="Dvergadalsstølen" />
		<tag k="place" v="locality" />
		<tag k="ssr:stedsnr" v="128310" />
	</node>
	<node id="-65300" lat="61.2765611102" lon="6.98425555345">
		<tag k="historic" v="shieling" />
		<tag k="name" v="Skirsete" />
		<tag k="place" v="locality" />
		<tag k="ssr:stedsnr" v="128304" />
	</node>
	<node id="-65295" lat="61.4307444452" lon="6.76325000924">
		<tag k="name" v="Bruvoll" />
		<tag k="place" v="farm" />
		<tag k="ssr:stedsnr" v="263671" />
	</node>
	<node id="-65294" lat="61.254130641" lon="6.54153210927">
		<tag k="fixme" v="consider place=hamlet" />
		<tag k="name" v="Ytre Farnes" />
		<tag k="place" v="farm" />
		<tag k="ssr:stedsnr" v="263568" />
	</node>
	<node id="-65293" lat="61.183101491" lon="6.78267468465">
		<tag k="fixme" v="consider place=hamlet" />
		<tag k="name" v="Ytre Hamre" />
		<tag k="place" v="farm" />
		<tag k="ssr:stedsnr" v="95805" />
	</node>
	<node id="-67334" lat="61.2314972248" lon="7.2837138834">
		<tag k="historic" v="shieling" />
		<tag k="name" v="Vatnasete" />
		<tag k="place" v="locality" />
		<tag k="ssr:stedsnr" v="131069" />
	</node>
	<node id="-67333" lat="61.1803194413" lon="7.17051111422">
		<tag k="alt_name" v="Bjørkastølen" />
		<tag k="historic" v="shieling" />
		<tag k="name" v="Bjørkestølen" />
		<tag k="place" v="locality" />
		<tag k="ssr:stedsnr" v="131060" />
	</node>
	<node id="-67332" lat="61.2198694404" lon="6.96337499787">
		<tag k="historic" v="shieling" />
		<tag k="name" v="Gardsel" />
		<tag k="place" v="locality" />
		<tag k="ssr:stedsnr" v="130997" />
	</node>
	<node id="-65281" lat="61.210102142" lon="6.6251810914">
		<tag k="alt_name" v="Eithungjerde" />
		<tag k="fixme" v="consider place=hamlet" />
		<tag k="name" v="Eitorngjerdet" />
		<tag k="place" v="farm" />
		<tag k="ssr:stedsnr" v="252998" />
	</node>
	<node id="-65280" lat="61.2084431257" lon="6.5986646219">
		<tag k="fixme" v="consider place=hamlet" />
		<tag k="name" v="Hella" />
		<tag k="place" v="farm" />
		<tag k="ssr:stedsnr" v="252994" />
	</node>
	<node id="-67326" lat="61.1894472209" lon="6.81121943563">
		<tag k="name" v="Haug" />
		<tag k="place" v="farm" />
		<tag k="ssr:stedsnr" v="130869" />
	</node>
	<node id="-65274" lat="61.186637715" lon="6.86358390604">
		<tag k="fixme" v="consider place=hamlet" />
		<tag k="name" v="Gjerde" />
		<tag k="place" v="farm" />
		<tag k="ssr:stedsnr" v="252911" />
	</node>
	<node id="-65272" lat="61.1918305557" lon="6.70343611333">
		<tag k="name" v="Neset" />
		<tag k="place" v="locality" />
		<tag k="ssr:stedsnr" v="252879" />
	</node>
	<node id="-67319" lat="61.1825862173" lon="6.78719794078">
		<tag k="name" v="Hamre" />
		<tag k="place" v="hamlet" />
		<tag k="ssr:stedsnr" v="130929" />
	</node>
	<node id="-65270" lat="61.1932999973" lon="6.7605555621">
		<tag k="historic" v="shieling" />
		<tag k="name" v="Fosstølen" />
		<tag k="place" v="locality" />
		<tag k="ssr:stedsnr" v="252871" />
	</node>
	<node id="-65268" lat="61.186196241" lon="6.76099307366">
		<tag k="fixme" v="consider place=hamlet" />
		<tag k="name" v="Fosse" />
		<tag k="place" v="farm" />
		<tag k="ssr:stedsnr" v="252855" />
	</node>
	<node id="-67314" lat="61.2137055564" lon="6.50486388056">
		<tag k="name" v="Risheim" />
		<tag k="place" v="farm" />
		<tag k="ssr:stedsnr" v="130659" />
	</node>
	<node id="-65262" lat="61.2099138899" lon="6.5296888855">
		<tag k="name" v="Haugen" />
		<tag k="place" v="farm" />
		<tag k="ssr:stedsnr" v="252695" />
	</node>
	<node id="-65261" lat="61.1988194469" lon="6.45211388168">
		<tag k="fixme" v="multiple name tags, choose one and add the other to alt_name" />
		<tag k="historic" v="shieling" />
		<tag k="name" v="Esedalen;Selbøen" />
		<tag k="place" v="locality" />
		<tag k="ssr:stedsnr" v="252674" />
	</node>
	<node id="-65260" lat="61.2186305558" lon="6.51664166481">
		<tag k="name" v="Nesheim" />
		<tag k="place" v="farm" />
		<tag k="ssr:stedsnr" v="252673" />
	</node>
	<node id="-65259" lat="61.2127944476" lon="6.51145277402">
		<tag k="name" v="Øygarden" />
		<tag k="place" v="farm" />
		<tag k="ssr:stedsnr" v="252662" />
	</node>
	<node id="-67305" lat="61.3686305561" lon="6.77695833364">
		<tag k="historic" v="shieling" />
		<tag k="name" v="Fjellstølen" />
		<tag k="place" v="locality" />
		<tag k="ssr:stedsnr" v="129985" />
	</node>
	<node id="-67304" lat="61.3751513143" lon="6.72776267644">
		<tag k="fixme" v="consider place=hamlet" />
		<tag k="name" v="Distad" />
		<tag k="place" v="farm" />
		<tag k="ssr:stedsnr" v="129984" />
	</node>
	<node id="-65251" lat="61.237288891" lon="6.74102777769">
		<tag k="historic" v="shieling" />
		<tag k="name" v="Gildal" />
		<tag k="place" v="locality" />
		<tag k="ssr:stedsnr" v="252486" />
	</node>
	<node id="-67297" lat="61.4626361128" lon="6.82094167325">
		<tag k="historic" v="shieling" />
		<tag k="name" v="Fjellstølen" />
		<tag k="place" v="locality" />
		<tag k="ssr:stedsnr" v="129841" />
	</node>
	<node id="-65247" lat="61.2073169934" lon="7.17176835686">
		<tag k="fixme" v="consider place=hamlet" />
		<tag k="name" v="Valeberg" />
		<tag k="place" v="farm" />
		<tag k="ssr:stedsnr" v="252083" />
	</node>
	<node id="-65246" lat="61.178361108" lon="7.21063056397">
		<tag k="name" v="Holten" />
		<tag k="place" v="locality" />
		<tag k="ssr:stedsnr" v="252058" />
	</node>
	<node id="-65244" lat="61.1918194415" lon="7.0231499988">
		<tag k="fixme" v="consider place=hamlet" />
		<tag k="name" v="Fardal" />
		<tag k="place" v="village" />
		<tag k="ssr:stedsnr" v="252044" />
	</node>
	<node id="-67290" lat="61.2621111129" lon="7.0449888908">
		<tag k="alt_name" v="Elvagjengåsen" />
		<tag k="historic" v="shieling" />
		<tag k="name" v="Elvagjengsåsen" />
		<tag k="place" v="locality" />
		<tag k="ssr:stedsnr" v="129353" />
	</node>
	<node id="-65241" lat="61.2167055563" lon="6.82461389736">
		<tag k="historic" v="shieling" />
		<tag k="name" v="Stokksete" />
		<tag k="place" v="locality" />
		<tag k="ssr:stedsnr" v="251964" />
	</node>
	<node id="-67288" lat="61.2637694444" lon="7.11392778482">
		<tag k="historic" v="shieling" />
		<tag k="name" v="Galden" />
		<tag k="place" v="locality" />
		<tag k="ssr:stedsnr" v="129348" />
	</node>
	<node id="-67287" lat="61.2519777779" lon="7.02604444427">
		<tag k="name" v="Øyna" />
		<tag k="place" v="farm" />
		<tag k="ssr:stedsnr" v="129288" />
	</node>
	<node id="-67284" lat="61.3260694438" lon="6.9093166694">
		<tag k="name" v="Vetlaberg" />
		<tag k="place" v="locality" />
		<tag k="ssr:stedsnr" v="129226" />
	</node>
	<node id="-67283" lat="61.3336707435" lon="6.9377189946">
		<tag k="alt_name" v="Kalvskinn" />
		<tag k="fixme" v="consider place=hamlet" />
		<tag k="name" v="Heimdal" />
		<tag k="place" v="farm" />
		<tag k="ssr:stedsnr" v="129222" />
	</node>
	<node id="-65233" lat="61.3725999981" lon="6.88565832425">
		<tag k="name" v="Tuftahaug" />
		<tag k="place" v="locality" />
		<tag k="ssr:stedsnr" v="250986" />
	</node>
	<node id="-67280" lat="61.2627777791" lon="6.64540000087">
		<tag k="name" v="Troøyri" />
		<tag k="place" v="locality" />
		<tag k="ssr:stedsnr" v="129167" />
	</node>
	<node id="-67279" lat="61.4397277737" lon="6.78932222735">
		<tag k="alt_name" v="Raunehaug" />
		<tag k="historic" v="shieling" />
		<tag k="name" v="Raunehaugen" />
		<tag k="place" v="locality" />
		<tag k="ssr:stedsnr" v="128920" />
	</node>
	<node id="-65230" lat="61.38394205" lon="6.73451538306">
		<tag k="fixme" v="consider place=hamlet" />
		<tag k="name" v="Hatlestad" />
		<tag k="place" v="farm" />
		<tag k="ssr:stedsnr" v="250967" />
	</node>
	<node id="-67277" lat="61.277127774" lon="6.50119444554">
		<tag k="name" v="Bakketun" />
		<tag k="place" v="farm" />
		<tag k="ssr:stedsnr" v="128761" />
	</node>
	<node id="-67275" lat="61.2707364078" lon="6.6096722408">
		<tag k="fixme" v="consider place=hamlet" />
		<tag k="name" v="Nauteskreda" />
		<tag k="place" v="farm" />
		<tag k="ssr:stedsnr" v="128092" />
	</node>
	<node id="-65225" lat="61.4227643909" lon="6.78119353731">
		<tag k="fixme" v="consider place=hamlet" />
		<tag k="name" v="Horpedalen" />
		<tag k="place" v="farm" />
		<tag k="ssr:stedsnr" v="250916" />
	</node>
	<node id="-65224" lat="61.4332416622" lon="6.78098610759">
		<tag k="name" v="Grandavollen" />
		<tag k="place" v="locality" />
		<tag k="ssr:stedsnr" v="250911" />
	</node>
	<node id="-65220" lat="61.4080361085" lon="6.66944999658">
		<tag k="historic" v="shieling" />
		<tag k="name" v="Holten" />
		<tag k="place" v="locality" />
		<tag k="ssr:stedsnr" v="250871" />
	</node>
	<node id="-65217" lat="61.4577361074" lon="6.82000554865">
		<tag k="historic" v="shieling" />
		<tag k="name" v="Heimastølen" />
		<tag k="place" v="locality" />
		<tag k="ssr:stedsnr" v="250816" />
	</node>
	<node id="-65216" lat="61.4483694411" lon="6.70566388332">
		<tag k="fixme" v="multiple name tags, choose one and add the other to alt_name" />
		<tag k="historic" v="shieling" />
		<tag k="name" v="Tverrdalen;Tverrdalsstølen" />
		<tag k="place" v="locality" />
		<tag k="ssr:stedsnr" v="250814" />
	</node>
	<node id="-65215" lat="61.449325003" lon="6.71608889722">
		<tag k="name" v="Skipet" />
		<tag k="place" v="locality" />
		<tag k="ssr:stedsnr" v="250810" />
	</node>
	<node id="-65211" lat="61.3169972201" lon="6.57433055039">
		<tag k="name" v="Flatheim" />
		<tag k="place" v="farm" />
		<tag k="ssr:stedsnr" v="250782" />
	</node>
	<node id="-65206" lat="61.2611555538" lon="7.15965833063">
		<tag k="name" v="Brattland" />
		<tag k="place" v="farm" />
		<tag k="ssr:stedsnr" v="250351" />
	</node>
	<node id="-65205" lat="61.2840569977" lon="7.15609478129">
		<tag k="alt_name" v="Dvergedal" />
		<tag k="fixme" v="consider place=hamlet" />
		<tag k="name" v="Dvergadal" />
		<tag k="place" v="farm" />
		<tag k="ssr:stedsnr" v="250332" />
	</node>
	<node id="-65203" lat="61.3287241772" lon="6.95393018601">
		<tag k="fixme" v="consider place=hamlet" />
		<tag k="name" v="Torstad" />
		<tag k="place" v="farm" />
		<tag k="ssr:stedsnr" v="250219" />
	</node>
	<node id="-67250" lat="61.2727638846" lon="6.5425444481">
		<tag k="name" v="Nygard" />
		<tag k="place" v="farm" />
		<tag k="ssr:stedsnr" v="106744" />
	</node>
	<node id="-65201" lat="61.258075002" lon="6.83937778331">
		<tag k="historic" v="shieling" />
		<tag k="name" v="Friksdal" />
		<tag k="place" v="locality" />
		<tag k="ssr:stedsnr" v="250164" />
	</node>
	<node id="-65193" lat="61.1473000008" lon="7.1001083248">
		<tag k="alt_name" v="Haukåsen, øvre;Øvre Haukåsen;Haukås Øvste" />
		<tag k="name" v="Øvste Haukåsen" />
		<tag k="place" v="farm" />
		<tag k="ssr:stedsnr" v="71526" />
	</node>
	<node id="-65192" lat="61.1478299296" lon="7.12517324764">
		<tag k="name" v="Jordi" />
		<tag k="place" v="farm" />
		<tag k="ssr:stedsnr" v="71520" />
	</node>
	<node id="-65188" lat="61.1590972208" lon="7.0080749929">
		<tag k="name" v="Høl" />
		<tag k="place" v="farm" />
		<tag k="ssr:stedsnr" v="71016" />
	</node>
	<node id="-65186" lat="61.1705944433" lon="7.16508611596">
		<tag k="alt_name" v="Rudstølen" />
		<tag k="historic" v="shieling" />
		<tag k="name" v="Rudsstølen" />
		<tag k="place" v="locality" />
		<tag k="ssr:stedsnr" v="71011" />
	</node>
	<node id="-65184" lat="61.217633337" lon="6.90748054891">
		<tag k="historic" v="shieling" />
		<tag k="name" v="Tuftahaug" />
		<tag k="place" v="locality" />
		<tag k="ssr:stedsnr" v="70945" />
	</node>
	<node id="-65183" lat="61.1834333316" lon="6.89561388629">
		<tag k="historic" v="shieling" />
		<tag k="name" v="Hangsete" />
		<tag k="place" v="locality" />
		<tag k="ssr:stedsnr" v="70931" />
	</node>
	<node id="-65181" lat="61.1780593901" lon="6.96343397286">
		<tag k="fixme" v="multiple name tags, choose one and add the other to alt_name" />
		<tag k="historic" v="shieling" />
		<tag k="name" v="Ølmedal;Ølmedalsstølen" />
		<tag k="place" v="locality" />
		<tag k="ssr:stedsnr" v="70910" />
	</node>
	<node id="-65179" lat="61.2191222213" lon="6.51144166773">
		<tag k="name" v="Instebø" />
		<tag k="place" v="farm" />
		<tag k="ssr:stedsnr" v="70705" />
	</node>
	<node id="-65178" lat="61.2238927226" lon="6.49359508474">
		<tag k="alt_name" v="Kvalheim" />
		<tag k="fixme" v="consider place=hamlet" />
		<tag k="name" v="Kvaleim" />
		<tag k="place" v="farm" />
		<tag k="ssr:stedsnr" v="70702" />
	</node>
	<node id="-65177" lat="61.2200833309" lon="6.50948889052">
		<tag k="name" v="Bakken" />
		<tag k="place" v="farm" />
		<tag k="ssr:stedsnr" v="70701" />
	</node>
	<node id="-67224" lat="61.1801046223" lon="7.26817336488">
		<tag k="alt_name" v="Amle Øvre" />
		<tag k="fixme" v="consider place=hamlet" />
		<tag k="name" v="Øvre Amla" />
		<tag k="place" v="farm" />
		<tag k="ssr:stedsnr" v="94606" />
	</node>
	<node id="-65173" lat="61.2362750002" lon="6.65172222229">
		<tag k="name" v="Gamlestølen" />
		<tag k="place" v="locality" />
		<tag k="ssr:stedsnr" v="70524" />
	</node>
	<node id="-65171" lat="61.1997666627" lon="7.11068333686">
		<tag k="alt_name" v="Djupevik" />
		<tag k="name" v="Djupeviki" />
		<tag k="place" v="farm" />
		<tag k="ssr:stedsnr" v="70032" />
	</node>
	<node id="-65170" lat="61.1502388865" lon="6.38975000631">
		<tag k="historic" v="shieling" />
		<tag k="name" v="Tenndalen" />
		<tag k="place" v="locality" />
		<tag k="ssr:stedsnr" v="69695" />
	</node>
	<node id="-65169" lat="61.4827611151" lon="6.75134999054">
		<tag k="fixme" v="consider tourism=alpine_hut or tourism=chalet" />
		<tag k="name" v="Brevasshytta" />
		<tag k="ssr:stedsnr" v="68815" />
		<tag k="tourism" v="wilderness_hut" />
	</node>
	<node id="-65158" lat="61.1884611096" lon="7.02068056425">
		<tag k="name" v="Sageviki" />
		<tag k="place" v="locality" />
		<tag k="ssr:stedsnr" v="236416" />
	</node>
	<node id="-67197" lat="61.4370499998" lon="6.75679721652">
		<tag k="name" v="Bøyum" />
		<tag k="place" v="farm" />
		<tag k="ssr:stedsnr" v="93699" />
	</node>
	<node id="-65765" lat="61.2567138921" lon="6.54151665827">
		<tag k="name" v="Farnes" />
		<tag k="place" v="hamlet" />
		<tag k="ssr:stedsnr" v="493880" />
	</node>
	<node id="-67191" lat="61.1552277748" lon="7.00559999424">
		<tag k="name" v="Uglateigen" />
		<tag k="place" v="locality" />
		<tag k="ssr:stedsnr" v="93543" />
	</node>
	<node id="-67518" lat="61.1987789006" lon="7.24191315688">
		<tag k="fixme" v="consider place=hamlet" />
		<tag k="name" v="Hauståker" />
		<tag k="place" v="farm" />
		<tag k="ssr:stedsnr" v="192045" />
	</node>
	<node id="-67184" lat="61.2029888846" lon="7.17842222253">
		<tag k="name" v="Eidshagen" />
		<tag k="place" v="farm" />
		<tag k="ssr:stedsnr" v="93482" />
	</node>
	<node id="-67177" lat="61.2153470622" lon="6.97989085114">
		<tag k="fixme" v="consider place=hamlet" />
		<tag k="name" v="Brusegard" />
		<tag k="place" v="farm" />
		<tag k="ssr:stedsnr" v="93438" />
	</node>
	<node id="-65117" lat="61.2362375606" lon="7.07318178783">
		<tag k="fixme" v="consider place=hamlet" />
		<tag k="name" v="Gorvin" />
		<tag k="place" v="farm" />
		<tag k="ssr:stedsnr" v="10124" />
	</node>
	<node id="-65115" lat="61.1687816673" lon="6.52943621624">
		<tag k="alt_name" v="Tuftedal" />
		<tag k="fixme" v="consider place=hamlet" />
		<tag k="name" v="Tuftadalen" />
		<tag k="place" v="farm" />
		<tag k="ssr:stedsnr" v="9738" />
	</node>
	<node id="-65114" lat="61.1857666624" lon="6.49533333714">
		<tag k="historic" v="shieling" />
		<tag k="name" v="Kisane" />
		<tag k="place" v="locality" />
		<tag k="ssr:stedsnr" v="9735" />
	</node>
	<node id="-65112" lat="61.2003465682" lon="6.52327211129">
		<tag k="alt_name" v="Fjerestad" />
		<tag k="fixme" v="consider place=hamlet" />
		<tag k="name" v="Fjærestad" />
		<tag k="place" v="farm" />
		<tag k="ssr:stedsnr" v="9711" />
	</node>
	<node id="-67158" lat="61.2085277749" lon="6.83886389591">
		<tag k="historic" v="shieling" />
		<tag k="name" v="Dalhjella" />
		<tag k="place" v="locality" />
		<tag k="ssr:stedsnr" v="70979" />
	</node>
	<node id="-67155" lat="61.178377776" lon="7.22829721392">
		<tag k="name" v="Hagen" />
		<tag k="place" v="farm" />
		<tag k="ssr:stedsnr" v="71056" />
	</node>
	<node id="-65106" lat="61.2539166672" lon="7.05150278626">
		<tag k="alt_name" v="Årvollsåsen" />
		<tag k="historic" v="shieling" />
		<tag k="name" v="Åsen" />
		<tag k="place" v="locality" />
		<tag k="ssr:stedsnr" v="8313" />
	</node>
	<node id="-65105" lat="61.253947223" lon="7.18452221338">
		<tag k="alt_name" v="Heggarusti" />
		<tag k="name" v="Heggerusti" />
		<tag k="place" v="locality" />
		<tag k="ssr:stedsnr" v="8306" />
	</node>
	<node id="-67150" lat="61.2113247169" lon="6.61278802827">
		<tag k="fixme" v="consider place=hamlet" />
		<tag k="name" v="Rud" />
		<tag k="place" v="farm" />
		<tag k="ssr:stedsnr" v="70958" />
	</node>
	<node id="-65805" lat="61.2352154787" lon="7.11106672706">
		<tag k="fixme" v="consider place=hamlet" />
		<tag k="name" v="Navarsete" />
		<tag k="place" v="farm" />
		<tag k="ssr:stedsnr" v="495139" />
	</node>
	<node id="-67147" lat="61.2046070807" lon="6.53018274852">
		<tag k="alt_name" v="Bale" />
		<tag k="fixme" v="consider place=hamlet" />
		<tag k="name" v="Bala" />
		<tag k="place" v="farm" />
		<tag k="ssr:stedsnr" v="70714" />
	</node>
	<node id="-67145" lat="61.2018999975" lon="6.88896110909">
		<tag k="historic" v="shieling" />
		<tag k="name" v="Fadnastølen" />
		<tag k="place" v="locality" />
		<tag k="ssr:stedsnr" v="70895" />
	</node>
	<node id="-67142" lat="61.1873554406" lon="6.73249754123">
		<tag k="alt_name" v="Engesæter;Engasete" />
		<tag k="fixme" v="consider place=hamlet" />
		<tag k="name" v="Engjasete" />
		<tag k="place" v="farm" />
		<tag k="ssr:stedsnr" v="70863" />
	</node>
	<node id="-66145" lat="61.1236361099" lon="7.00646665932">
		<tag k="name" v="Humlaposen" />
		<tag k="place" v="locality" />
		<tag k="ssr:stedsnr" v="556519" />
	</node>
	<node id="-67140" lat="61.161205555" lon="6.92771111787">
		<tag k="name" v="Ytre Slinda" />
		<tag k="place" v="locality" />
		<tag k="ssr:stedsnr" v="70823" />
	</node>
	<node id="-67137" lat="61.1314527795" lon="6.47953889488">
		<tag k="name" v="Nystad" />
		<tag k="place" v="farm" />
		<tag k="ssr:stedsnr" v="70665" />
	</node>
	<node id="-67134" lat="61.245969444" lon="7.06528334085">
		<tag k="historic" v="shieling" />
		<tag k="name" v="Bjellastølen" />
		<tag k="place" v="locality" />
		<tag k="ssr:stedsnr" v="70129" />
	</node>
	<node id="-67133" lat="61.1757277732" lon="7.00609721461">
		<tag k="alt_name" v="Uraplassen" />
		<tag k="name" v="Urdaplassen" />
		<tag k="place" v="locality" />
		<tag k="ssr:stedsnr" v="70046" />
	</node>
	<node id="-67132" lat="61.1845277811" lon="7.24251944036">
		<tag k="name" v="Kaupanger" />
		<tag k="place" v="village" />
		<tag k="ssr:stedsnr" v="70043" />
	</node>
	<node id="-67131" lat="61.449009854" lon="6.79907638225">
		<tag k="fixme" v="multiple name tags, choose one and add the other to alt_name; consider place=hamlet" />
		<tag k="name" v="Rødseter;Øygarden" />
		<tag k="place" v="farm" />
		<tag k="ssr:stedsnr" v="69931" />
	</node>
	<node id="-67130" lat="61.2402083315" lon="6.54348889429">
		<tag k="historic" v="shieling" />
		<tag k="name" v="Galdane" />
		<tag k="place" v="locality" />
		<tag k="ssr:stedsnr" v="70286" />
	</node>
	<node id="-67128" lat="61.4526472181" lon="6.78853889168">
		<tag k="historic" v="shieling" />
		<tag k="name" v="Øygardsstølen" />
		<tag k="place" v="locality" />
		<tag k="ssr:stedsnr" v="69860" />
	</node>
	<node id="-65797" lat="61.1801166669" lon="7.2704027859">
		<tag k="fixme" v="consider place=hamlet" />
		<tag k="name" v="Amla" />
		<tag k="place" v="village" />
		<tag k="ssr:stedsnr" v="495001" />
	</node>
	<node id="-67122" lat="61.3191840929" lon="6.57434293043">
		<tag k="name" v="Meland" />
		<tag k="place" v="farm" />
		<tag k="ssr:stedsnr" v="69547" />
	</node>
	<node id="-67507" lat="61.2146305531" lon="6.96622499487">
		<tag k="historic" v="shieling" />
		<tag k="name" v="Kinn" />
		<tag k="place" v="locality" />
		<tag k="ssr:stedsnr" v="191958" />
	</node>
	<node id="-66066" lat="61.1961000002" lon="7.13058333665">
		<tag k="name" v="Flugeimsteigen" />
		<tag k="place" v="locality" />
		<tag k="ssr:stedsnr" v="518537" />
	</node>
	<node id="-67107" lat="61.4305315829" lon="6.77517427521">
		<tag k="fixme" v="consider place=hamlet" />
		<tag k="name" v="Våteviki" />
		<tag k="place" v="farm" />
		<tag k="ssr:stedsnr" v="68919" />
	</node>
	<node id="-67106" lat="61.437536111" lon="6.75358055659">
		<tag k="name" v="Tuftene" />
		<tag k="place" v="farm" />
		<tag k="ssr:stedsnr" v="68913" />
	</node>
	<node id="-67163" lat="61.403911113" lon="6.74007222594">
		<tag k="fixme" v="consider place=hamlet" />
		<tag k="name" v="Fjærland" />
		<tag k="place" v="village" />
		<tag k="ssr:stedsnr" v="87769" />
	</node>
	<node id="-67104" lat="61.3001594128" lon="6.5647408261">
		<tag k="fixme" v="consider place=hamlet" />
		<tag k="name" v="Ulvastad" />
		<tag k="place" v="farm" />
		<tag k="ssr:stedsnr" v="68783" />
	</node>
	<node id="-67103" lat="61.4023888918" lon="6.78504999352">
		<tag k="name" v="Gamlestølskrærne" />
		<tag k="place" v="locality" />
		<tag k="ssr:stedsnr" v="68896" />
	</node>
	<node id="-67101" lat="61.4298944484" lon="6.81823888039">
		<tag k="name" v="Blombakkaneset" />
		<tag k="place" v="locality" />
		<tag k="ssr:stedsnr" v="68878" />
	</node>
	<node id="-67162" lat="61.2627305556" lon="6.66396667091">
		<tag k="historic" v="shieling" />
		<tag k="name" v="Trodalsstølen" />
		<tag k="place" v="locality" />
		<tag k="ssr:stedsnr" v="81740" />
	</node>
	<node id="-67098" lat="61.2651904861" lon="7.02661518879">
		<tag k="alt_name" v="Hundere" />
		<tag k="fixme" v="consider place=hamlet" />
		<tag k="name" v="Hundæri" />
		<tag k="place" v="farm" />
		<tag k="ssr:stedsnr" v="68391" />
	</node>
	<node id="-67097" lat="61.2581511218" lon="7.03062877171">
		<tag k="name" v="Skardet" />
		<tag k="place" v="farm" />
		<tag k="ssr:stedsnr" v="68370" />
	</node>
	<node id="-67096" lat="61.2594111082" lon="6.98015278655">
		<tag k="historic" v="shieling" />
		<tag k="name" v="Liastølen" />
		<tag k="place" v="locality" />
		<tag k="ssr:stedsnr" v="68367" />
	</node>
	<node id="-67791" lat="61.1930076939" lon="6.8635116808">
		<tag k="fixme" v="consider place=hamlet" />
		<tag k="name" v="Dalen" />
		<tag k="place" v="farm" />
		<tag k="ssr:stedsnr" v="373894" />
	</node>
	<node id="-67089" lat="61.3414527808" lon="6.92575277982">
		<tag k="historic" v="shieling" />
		<tag k="name" v="Tråna" />
		<tag k="place" v="locality" />
		<tag k="ssr:stedsnr" v="68193" />
	</node>
	<node id="-67079" lat="61.1939194413" lon="6.52526943656">
		<tag k="name" v="Brattland" />
		<tag k="place" v="quarter" />
		<tag k="ssr:stedsnr" v="55508" />
	</node>
	<node id="-67078" lat="61.3390972229" lon="6.73057500398">
		<tag k="name" v="Storesteinneset" />
		<tag k="place" v="farm" />
		<tag k="ssr:stedsnr" v="54489" />
	</node>
	<node id="-67154" lat="61.1824722188" lon="7.22488611839">
		<tag k="name" v="Kvamshagen" />
		<tag k="place" v="farm" />
		<tag k="ssr:stedsnr" v="71054" />
	</node>
	<node id="-67046" lat="61.2039416652" lon="6.52219167295">
		<tag k="name" v="Kreklingen" />
		<tag k="place" v="quarter" />
		<tag k="ssr:stedsnr" v="45086" />
	</node>
	<node id="-67043" lat="61.1953027791" lon="6.52072500553">
		<tag k="amenity" v="school" />
		<tag k="name" v="Granlia off. skule" />
		<tag k="ssr:stedsnr" v="45067" />
	</node>
	<node id="-67039" lat="61.2172111126" lon="6.75805833513">
		<tag k="historic" v="shieling" />
		<tag k="name" v="Blomsete" />
		<tag k="place" v="locality" />
		<tag k="ssr:stedsnr" v="40944" />
	</node>
	<node id="-67029" lat="61.1843861152" lon="7.2208916717">
		<tag k="name" v="Brubakk" />
		<tag k="place" v="farm" />
		<tag k="ssr:stedsnr" v="33536" />
	</node>
	<node id="-65995" lat="61.3049795549" lon="6.55869895866">
		<tag k="fixme" v="consider place=hamlet" />
		<tag k="name" v="Eiki" />
		<tag k="place" v="farm" />
		<tag k="ssr:stedsnr" v="675784" />
	</node>
	<node id="-67020" lat="61.2641055566" lon="7.02903611608">
		<tag k="name" v="Bergheim" />
		<tag k="place" v="farm" />
		<tag k="ssr:stedsnr" v="32974" />
	</node>
	<node id="-67019" lat="61.268325002" lon="7.02262499864">
		<tag k="name" v="Nyheim" />
		<tag k="place" v="farm" />
		<tag k="ssr:stedsnr" v="32972" />
	</node>
	<node id="-67002" lat="61.1672166698" lon="6.92186389129">
		<tag k="name" v="Kolshagane" />
		<tag k="place" v="locality" />
		<tag k="ssr:stedsnr" v="32625" />
	</node>
	<node id="-66986" lat="61.3197333355" lon="6.96000000608">
		<tag k="name" v="Samteigane" />
		<tag k="place" v="locality" />
		<tag k="ssr:stedsnr" v="32146" />
	</node>
	<node id="-66977" lat="61.2547322262" lon="6.57674785045">
		<tag k="fixme" v="consider place=hamlet" />
		<tag k="name" v="Menes" />
		<tag k="place" v="farm" />
		<tag k="ssr:stedsnr" v="26234" />
	</node>
	<node id="-66971" lat="61.2091666689" lon="7.05337500728">
		<tag k="name" v="Skolt" />
		<tag k="place" v="farm" />
		<tag k="ssr:stedsnr" v="10087" />
	</node>
	<node id="-66967" lat="61.1981833184" lon="7.04932426834">
		<tag k="alt_name" v="Øskjestrond;Eskestrand" />
		<tag k="fixme" v="consider place=hamlet" />
		<tag k="name" v="Eskestrond" />
		<tag k="place" v="farm" />
		<tag k="ssr:stedsnr" v="10035" />
	</node>
	<node id="-66964" lat="61.1753526721" lon="7.26595674328">
		<tag k="alt_name" v="Amla, nedre;Amla;Amle Nedre" />
		<tag k="fixme" v="consider place=hamlet" />
		<tag k="name" v="Nedre Amla" />
		<tag k="place" v="farm" />
		<tag k="ssr:stedsnr" v="10018" />
	</node>
	<node id="-66960" lat="61.1800861084" lon="7.27581388997">
		<tag k="alt_name" v="Timmerli" />
		<tag k="name" v="Timberlid" />
		<tag k="place" v="farm" />
		<tag k="ssr:stedsnr" v="10004" />
	</node>
	<node id="-66956" lat="61.2172638864" lon="6.71929444492">
		<tag k="alt_name" v="Dalsbotn" />
		<tag k="historic" v="shieling" />
		<tag k="name" v="Dalsbotnen" />
		<tag k="place" v="locality" />
		<tag k="ssr:stedsnr" v="9945" />
	</node>
	<node id="-66951" lat="61.1859583328" lon="6.80638055268">
		<tag k="name" v="Solbakken" />
		<tag k="place" v="farm" />
		<tag k="ssr:stedsnr" v="9930" />
	</node>
	<node id="-66950" lat="61.1886068806" lon="6.84230783492">
		<tag k="alt_name" v="Henjum" />
		<tag k="fixme" v="consider place=hamlet" />
		<tag k="name" v="Henjane" />
		<tag k="place" v="farm" />
		<tag k="ssr:stedsnr" v="9923" />
	</node>
	<node id="-66948" lat="61.247825004" lon="7.04565276872">
		<tag k="name" v="Skori" />
		<tag k="place" v="farm" />
		<tag k="ssr:stedsnr" v="10151" />
	</node>
	<node id="-66944" lat="61.1854055593" lon="6.82232778663">
		<tag k="fixme" v="consider place=hamlet" />
		<tag k="name" v="Systrond" />
		<tag k="place" v="village" />
		<tag k="ssr:stedsnr" v="9914" />
	</node>
	<node id="-66943" lat="61.1790611104" lon="6.90341666493">
		<tag k="historic" v="shieling" />
		<tag k="name" v="Kråkesete" />
		<tag k="place" v="locality" />
		<tag k="ssr:stedsnr" v="9910" />
	</node>
	<node id="-66940" lat="61.2138716218" lon="6.49398046714">
		<tag k="alt_name" v="Ese, ytre;Ese" />
		<tag k="fixme" v="consider place=hamlet" />
		<tag k="name" v="Ytre Ese" />
		<tag k="place" v="farm" />
		<tag k="ssr:stedsnr" v="9686" />
	</node>
	<node id="-66938" lat="61.1599922" lon="6.9360565511">
		<tag k="name" v="Lunden" />
		<tag k="place" v="farm" />
		<tag k="ssr:stedsnr" v="9826" />
	</node>
	<node id="-66926" lat="61.4738777756" lon="6.79544167437">
		<tag k="fixme" v="consider tourism=alpine_hut or tourism=chalet" />
		<tag k="name" v="Flatbrehytta" />
		<tag k="ssr:stedsnr" v="8838" />
		<tag k="tourism" v="wilderness_hut" />
	</node>
	<node id="-66921" lat="61.3825305589" lon="6.77188889194">
		<tag k="historic" v="shieling" />
		<tag k="name" v="Heimastølen" />
		<tag k="place" v="locality" />
		<tag k="ssr:stedsnr" v="8980" />
	</node>
	<node id="-66919" lat="61.3866694479" lon="6.79928888812">
		<tag k="historic" v="shieling" />
		<tag k="name" v="Fjellstølen" />
		<tag k="place" v="locality" />
		<tag k="ssr:stedsnr" v="8975" />
	</node>
	<node id="-66918" lat="61.4718972218" lon="6.8390416667">
		<tag k="historic" v="shieling" />
		<tag k="name" v="Fjellstølen" />
		<tag k="place" v="locality" />
		<tag k="ssr:stedsnr" v="8677" />
	</node>
	<node id="-66914" lat="61.262672218" lon="6.98818610261">
		<tag k="alt_name" v="Tuftastølen" />
		<tag k="historic" v="shieling" />
		<tag k="name" v="Tuftestølen" />
		<tag k="place" v="locality" />
		<tag k="ssr:stedsnr" v="8377" />
	</node>
	<node id="-66913" lat="61.2595835219" lon="7.00197312145">
		<tag k="fixme" v="consider place=hamlet" />
		<tag k="name" v="Tuftene" />
		<tag k="place" v="farm" />
		<tag k="ssr:stedsnr" v="8371" />
	</node>
	<node id="-66912" lat="61.2627366735" lon="7.15434707948">
		<tag k="fixme" v="consider place=hamlet" />
		<tag k="name" v="Ølnes" />
		<tag k="place" v="farm" />
		<tag k="ssr:stedsnr" v="8368" />
	</node>
	<node id="-66909" lat="61.3166749991" lon="6.89465832442">
		<tag k="name" v="Blåsvoi" />
		<tag k="place" v="locality" />
		<tag k="ssr:stedsnr" v="8246" />
	</node>
	<node id="-66905" lat="61.329683329" lon="6.92718611437">
		<tag k="name" v="Vatnasete" />
		<tag k="place" v="farm" />
		<tag k="ssr:stedsnr" v="8224" />
	</node>
	<node id="-66903" lat="61.331401464" lon="6.94126983264">
		<tag k="fixme" v="consider place=hamlet" />
		<tag k="name" v="Flatland" />
		<tag k="place" v="farm" />
		<tag k="ssr:stedsnr" v="8220" />
	</node>
	<node id="-66898" lat="61.3352222253" lon="6.66560833554">
		<tag k="historic" v="shieling" />
		<tag k="name" v="Skardet" />
		<tag k="place" v="locality" />
		<tag k="ssr:stedsnr" v="7971" />
	</node>
	<node id="-66894" lat="61.4242444401" lon="6.66657222294">
		<tag k="alt_name" v="Mundalsfjellstølen" />
		<tag k="historic" v="shieling" />
		<tag k="name" v="Fjellstølen" />
		<tag k="place" v="locality" />
		<tag k="ssr:stedsnr" v="7936" />
	</node>
	<node id="-66892" lat="61.4312888865" lon="6.72788889611">
		<tag k="historic" v="shieling" />
		<tag k="name" v="Geitabotn" />
		<tag k="place" v="locality" />
		<tag k="ssr:stedsnr" v="7919" />
	</node>
	<node id="-66890" lat="61.4187723962" lon="6.76402987597">
		<tag k="fixme" v="consider place=hamlet" />
		<tag k="name" v="Stølen" />
		<tag k="place" v="farm" />
		<tag k="ssr:stedsnr" v="7893" />
	</node>
	<node id="-66886" lat="61.2828576742" lon="7.00624770036">
		<tag k="alt_name" v="Orrestad" />
		<tag k="fixme" v="consider place=hamlet" />
		<tag k="name" v="Orrastad" />
		<tag k="place" v="farm" />
		<tag k="ssr:stedsnr" v="7415" />
	</node>
	<node id="-67465" lat="61.4554747581" lon="6.80541283273">
		<tag k="alt_name" v="Supphellen" />
		<tag k="fixme" v="consider place=hamlet" />
		<tag k="name" v="Supphella" />
		<tag k="place" v="farm" />
		<tag k="ssr:stedsnr" v="190861" />
	</node>
	<node id="-67464" lat="61.4480694402" lon="6.73942499634">
		<tag k="alt_name" v="Heimastølen" />
		<tag k="historic" v="shieling" />
		<tag k="name" v="Bøyaheimastølen" />
		<tag k="place" v="locality" />
		<tag k="ssr:stedsnr" v="190856" />
	</node>
	<node id="-66862" lat="61.1612569942" lon="6.93931027829">
		<tag k="fixme" v="consider place=hamlet" />
		<tag k="name" v="Slinda" />
		<tag k="place" v="farm" />
		<tag k="ssr:stedsnr" v="979937" />
	</node>
	<node id="-66861" lat="61.2074261377" lon="7.05773156972">
		<tag k="fixme" v="consider place=hamlet" />
		<tag k="name" v="Bondeviki" />
		<tag k="place" v="farm" />
		<tag k="ssr:stedsnr" v="979932" />
	</node>
	<node id="-66860" lat="61.2259839742" lon="7.09849504538">
		<tag k="fixme" v="consider place=hamlet" />
		<tag k="name" v="Stedje" />
		<tag k="place" v="farm" />
		<tag k="ssr:stedsnr" v="979930" />
	</node>
	<node id="-66859" lat="61.2315490119" lon="7.04398458226">
		<tag k="name" v="Stigen" />
		<tag k="place" v="locality" />
		<tag k="ssr:stedsnr" v="979928" />
	</node>
	<node id="-66858" lat="61.2296618644" lon="7.09878567349">
		<tag k="name" v="Bahus" />
		<tag k="place" v="locality" />
		<tag k="ssr:stedsnr" v="979877" />
	</node>
	<node id="-66857" lat="61.1277014139" lon="6.48304647681">
		<tag k="fixme" v="consider place=hamlet" />
		<tag k="name" v="Kvamsøy" />
		<tag k="place" v="farm" />
		<tag k="ssr:stedsnr" v="979652" />
	</node>
	<node id="-66856" lat="61.1823561216" lon="6.85635878392">
		<tag k="fixme" v="consider place=hamlet" />
		<tag k="name" v="Bakken" />
		<tag k="place" v="farm" />
		<tag k="ssr:stedsnr" v="979578" />
	</node>
	<node id="-66854" lat="61.1849748937" lon="6.81925023003">
		<tag k="fixme" v="consider place=hamlet" />
		<tag k="name" v="Leikanger prestegard" />
		<tag k="place" v="farm" />
		<tag k="ssr:stedsnr" v="979574" />
	</node>
	<node id="-66852" lat="61.2888638912" lon="6.97402221529">
		<tag k="historic" v="shieling" />
		<tag k="name" v="Fosskamben" />
		<tag k="place" v="locality" />
		<tag k="ssr:stedsnr" v="970643" />
	</node>
	<node id="-68897" lat="61.4292569154" lon="6.7757276052">
		<tag k="name" v="Nedste Våteviki" />
		<tag k="place" v="farm" />
		<tag k="ssr:stedsnr" v="1078063" />
	</node>
	<node id="-68896" lat="61.4313415477" lon="6.77662696982">
		<tag k="name" v="Øvste Våteviki" />
		<tag k="place" v="farm" />
		<tag k="ssr:stedsnr" v="1078062" />
	</node>
	<node id="-68895" lat="61.2534421751" lon="7.17603212381">
		<tag k="name" v="Saurane" />
		<tag k="place" v="farm" />
		<tag k="ssr:stedsnr" v="1078060" />
	</node>
	<node id="-68894" lat="61.249015478" lon="7.13933340419">
		<tag k="name" v="Perhaugen" />
		<tag k="place" v="farm" />
		<tag k="ssr:stedsnr" v="1078059" />
	</node>
	<node id="-68893" lat="61.2495605981" lon="7.13868099694">
		<tag k="name" v="Risane" />
		<tag k="place" v="farm" />
		<tag k="ssr:stedsnr" v="1078058" />
	</node>
	<node id="-68892" lat="61.2929625279" lon="6.98383429822">
		<tag k="name" v="Øvste Hodlekve" />
		<tag k="place" v="farm" />
		<tag k="ssr:stedsnr" v="1078056" />
	</node>
	<node id="-68891" lat="61.2941535662" lon="6.98856471639">
		<tag k="name" v="Midtre Hodlekve" />
		<tag k="place" v="farm" />
		<tag k="ssr:stedsnr" v="1078054" />
	</node>
	<node id="-68890" lat="61.294404921" lon="6.99307194511">
		<tag k="name" v="Nedste Hodlekve" />
		<tag k="place" v="farm" />
		<tag k="ssr:stedsnr" v="1078053" />
	</node>
	<node id="-66841" lat="61.2971699548" lon="6.96804575601">
		<tag k="alt_name" v="Rindestølen" />
		<tag k="historic" v="shieling" />
		<tag k="name" v="Rindastølen" />
		<tag k="place" v="locality" />
		<tag k="ssr:stedsnr" v="942113" />
	</node>
	<node id="-66840" lat="61.2200805595" lon="7.08504999159">
		<tag k="historic" v="shieling" />
		<tag k="name" v="Stedjåsen" />
		<tag k="place" v="locality" />
		<tag k="ssr:stedsnr" v="920074" />
	</node>
	<node id="-66839" lat="61.2261000018" lon="7.25480277466">
		<tag k="historic" v="shieling" />
		<tag k="name" v="Syresete" />
		<tag k="place" v="locality" />
		<tag k="ssr:stedsnr" v="920069" />
	</node>
	<node id="-66837" lat="61.1627916699" lon="7.08095833822">
		<tag k="historic" v="shieling" />
		<tag k="name" v="Lingesete" />
		<tag k="place" v="locality" />
		<tag k="ssr:stedsnr" v="920026" />
	</node>
	<node id="-66836" lat="61.1666244373" lon="7.16794544279">
		<tag k="fixme" v="consider place=hamlet" />
		<tag k="name" v="Rud" />
		<tag k="place" v="farm" />
		<tag k="ssr:stedsnr" v="920025" />
	</node>
	<node id="-65749" lat="61.3290250022" lon="7.0049944467">
		<tag k="historic" v="shieling" />
		<tag k="name" v="Navarsete" />
		<tag k="place" v="locality" />
		<tag k="ssr:stedsnr" v="493486" />
	</node>
	<node id="-68882" lat="61.2054915915" lon="6.5109222893">
		<tag k="fixme" v="consider tourism=alpine_hut or tourism=chalet" />
		<tag k="name" v="Balabu" />
		<tag k="ssr:stedsnr" v="1073235" />
		<tag k="tourism" v="wilderness_hut" />
	</node>
	<node id="-66833" lat="61.2385916625" lon="7.27589166505">
		<tag k="historic" v="shieling" />
		<tag k="name" v="Vassløysa" />
		<tag k="place" v="locality" />
		<tag k="ssr:stedsnr" v="920128" />
	</node>
	<node id="-66832" lat="61.2274250015" lon="7.04535277833">
		<tag k="name" v="Kvålsøvrehagane" />
		<tag k="place" v="farm" />
		<tag k="ssr:stedsnr" v="920127" />
	</node>
	<node id="-66831" lat="61.2318510723" lon="7.07411150992">
		<tag k="fixme" v="consider place=hamlet" />
		<tag k="name" v="Kvåle" />
		<tag k="place" v="farm" />
		<tag k="ssr:stedsnr" v="920124" />
	</node>
	<node id="-66830" lat="61.2358888924" lon="6.99522499565">
		<tag k="alt_name" v="Lerheimstølen" />
		<tag k="historic" v="shieling" />
		<tag k="name" v="Lereimsstølen" />
		<tag k="place" v="locality" />
		<tag k="ssr:stedsnr" v="920114" />
	</node>
	<node id="-66828" lat="61.2043527814" lon="6.67984999997">
		<tag k="name" v="Viki" />
		<tag k="place" v="locality" />
		<tag k="ssr:stedsnr" v="919977" />
	</node>
	<node id="-66826" lat="61.1682888925" lon="6.91473055511">
		<tag k="name" v="Engi" />
		<tag k="place" v="locality" />
		<tag k="ssr:stedsnr" v="919906" />
	</node>
	<node id="-66825" lat="61.1725381461" lon="7.35789206113">
		<tag k="alt_name" v="Ombandstølen" />
		<tag k="historic" v="shieling" />
		<tag k="name" v="Ombandsstølen" />
		<tag k="place" v="locality" />
		<tag k="ssr:stedsnr" v="919375" />
	</node>
	<node id="-66821" lat="61.3575611153" lon="6.91254444837">
		<tag k="name" v="Vetlegarden" />
		<tag k="place" v="locality" />
		<tag k="ssr:stedsnr" v="918954" />
	</node>
	<node id="-66819" lat="61.3557416681" lon="6.52289444019">
		<tag k="name" v="Bårddalen" />
		<tag k="place" v="isolated_dwelling" />
		<tag k="ssr:stedsnr" v="918772" />
	</node>
	<node id="-66815" lat="61.2682416704" lon="6.99071944122">
		<tag k="historic" v="shieling" />
		<tag k="name" v="Reppastølen" />
		<tag k="place" v="locality" />
		<tag k="ssr:stedsnr" v="918422" />
	</node>
	<node id="-66813" lat="61.2713759768" lon="7.02744750359">
		<tag k="fixme" v="consider place=hamlet" />
		<tag k="name" v="Fretland" />
		<tag k="place" v="farm" />
		<tag k="ssr:stedsnr" v="918418" />
	</node>
	<node id="-66811" lat="61.2595666804" lon="7.03542694982">
		<tag k="fixme" v="consider place=hamlet" />
		<tag k="name" v="Elvagjeng" />
		<tag k="place" v="farm" />
		<tag k="ssr:stedsnr" v="918407" />
	</node>
	<node id="-66810" lat="61.2562203007" lon="7.03243386892">
		<tag k="alt_name" v="Uglum" />
		<tag k="fixme" v="consider place=hamlet" />
		<tag k="name" v="Ugla" />
		<tag k="place" v="farm" />
		<tag k="ssr:stedsnr" v="918406" />
	</node>
	<node id="-66806" lat="61.2829111125" lon="7.13838056321">
		<tag k="historic" v="shieling" />
		<tag k="name" v="Steigstølen" />
		<tag k="place" v="locality" />
		<tag k="ssr:stedsnr" v="918373" />
	</node>
	<node id="-66804" lat="61.4346141899" lon="6.7720664398">
		<tag k="fixme" v="consider place=hamlet" />
		<tag k="name" v="Skarestad" />
		<tag k="place" v="farm" />
		<tag k="ssr:stedsnr" v="917916" />
	</node>
	<node id="-67454" lat="61.323913885" lon="6.88671666208">
		<tag k="historic" v="shieling" />
		<tag k="name" v="Laugi" />
		<tag k="place" v="locality" />
		<tag k="ssr:stedsnr" v="190221" />
	</node>
	<node id="-66800" lat="61.1962444475" lon="6.52313333569">
		<tag k="name" v="Øvre Sande" />
		<tag k="place" v="quarter" />
		<tag k="ssr:stedsnr" v="905553" />
	</node>
	<node id="-66796" lat="61.2185095078" lon="6.51627245464">
		<tag k="name" v="Teigen" />
		<tag k="place" v="isolated_dwelling" />
		<tag k="ssr:stedsnr" v="904506" />
	</node>
	<node id="-68839" lat="61.4454402716" lon="6.74985388758">
		<tag k="name" v="Vårstølen" />
		<tag k="place" v="farm" />
		<tag k="ssr:stedsnr" v="980018" />
	</node>
	<node id="-68838" lat="61.2288457893" lon="7.1028963335">
		<tag k="name" v="Sogndalsfjøra" />
		<tag k="place" v="locality" />
		<tag k="ssr:stedsnr" v="979875" />
	</node>
	<node id="-68837" lat="61.2328644178" lon="7.10303931286">
		<tag k="name" v="Årvoll" />
		<tag k="place" v="locality" />
		<tag k="ssr:stedsnr" v="979871" />
	</node>
	<node id="-68836" lat="61.2318045676" lon="7.10756989812">
		<tag k="alt_name" v="Hofslund" />
		<tag k="name" v="Hovslund" />
		<tag k="place" v="locality" />
		<tag k="ssr:stedsnr" v="979870" />
	</node>
	<node id="-68835" lat="61.2322817389" lon="7.11126437277">
		<tag k="name" v="Grøt" />
		<tag k="place" v="locality" />
		<tag k="ssr:stedsnr" v="979867" />
	</node>
	<node id="-67451" lat="61.3258936277" lon="6.67887556978">
		<tag k="fixme" v="consider place=hamlet" />
		<tag k="name" v="Raudboti" />
		<tag k="place" v="farm" />
		<tag k="ssr:stedsnr" v="190206" />
	</node>
	<node id="-68832" lat="61.1596216086" lon="7.17426942035">
		<tag k="name" v="Rudsvik" />
		<tag k="place" v="locality" />
		<tag k="ssr:stedsnr" v="979964" />
	</node>
	<node id="-68831" lat="61.1461126722" lon="7.10279226071">
		<tag k="fixme" v="consider place=hamlet" />
		<tag k="name" v="Haukåsen" />
		<tag k="place" v="farm" />
		<tag k="ssr:stedsnr" v="979962" />
	</node>
	<node id="-68827" lat="61.2156432527" lon="6.49066942833">
		<tag k="alt_name" v="Ese, indre;Ese" />
		<tag k="fixme" v="consider place=hamlet" />
		<tag k="name" v="Indre Ese" />
		<tag k="place" v="farm" />
		<tag k="ssr:stedsnr" v="959679" />
	</node>
	<node id="-66778" lat="61.1357583359" lon="7.05070833805">
		<tag k="name" v="Sleipi" />
		<tag k="place" v="locality" />
		<tag k="ssr:stedsnr" v="860519" />
	</node>
	<node id="-68825" lat="61.1231499996" lon="6.41848611383">
		<tag k="name" v="Haukedalsløa" />
		<tag k="place" v="locality" />
		<tag k="ssr:stedsnr" v="956970" />
	</node>
	<node id="-66776" lat="61.2286666674" lon="7.03743332999">
		<tag k="alt_name" v="Fugleheimshaugen" />
		<tag k="name" v="Flugheimshaugen" />
		<tag k="place" v="farm" />
		<tag k="ssr:stedsnr" v="860116" />
	</node>
	<node id="-66774" lat="61.202869447" lon="6.74403610274">
		<tag k="historic" v="shieling" />
		<tag k="name" v="Holestølen" />
		<tag k="old_name" v="Marsete" />
		<tag k="place" v="locality" />
		<tag k="ssr:stedsnr" v="859967" />
	</node>
	<node id="-66767" lat="61.1171916671" lon="6.46665555307">
		<tag k="alt_name" v="Skaret" />
		<tag k="name" v="Skardet" />
		<tag k="place" v="farm" />
		<tag k="ssr:stedsnr" v="859659" />
	</node>
	<node id="-66764" lat="61.2216222216" lon="6.61751944486">
		<tag k="historic" v="shieling" />
		<tag k="name" v="Daurmålhaug" />
		<tag k="place" v="locality" />
		<tag k="ssr:stedsnr" v="859528" />
	</node>
	<node id="-66759" lat="61.2459722243" lon="7.05739722046">
		<tag k="alt_name" v="Eggastølen" />
		<tag k="historic" v="shieling" />
		<tag k="name" v="Eggjastølen" />
		<tag k="place" v="locality" />
		<tag k="ssr:stedsnr" v="859121" />
	</node>
	<node id="-66758" lat="61.2489273239" lon="7.03816529853">
		<tag k="fixme" v="consider place=hamlet" />
		<tag k="name" v="Ormalseng" />
		<tag k="place" v="farm" />
		<tag k="ssr:stedsnr" v="859119" />
	</node>
	<node id="-66757" lat="61.4472388856" lon="6.74841666583">
		<tag k="historic" v="shieling" />
		<tag k="name" v="Hjellene" />
		<tag k="place" v="locality" />
		<tag k="ssr:stedsnr" v="858913" />
	</node>
	<node id="-66756" lat="61.4428722577" lon="6.74806248623">
		<tag k="alt_name" v="Øyarane" />
		<tag k="fixme" v="consider place=hamlet" />
		<tag k="name" v="Øyjarane" />
		<tag k="place" v="farm" />
		<tag k="ssr:stedsnr" v="858911" />
	</node>
	<node id="-66754" lat="61.3275336767" lon="6.57015778646">
		<tag k="fixme" v="consider place=hamlet" />
		<tag k="name" v="Renndalen" />
		<tag k="place" v="farm" />
		<tag k="ssr:stedsnr" v="858821" />
	</node>
	<node id="-66751" lat="61.2651249983" lon="7.18553611219">
		<tag k="historic" v="shieling" />
		<tag k="name" v="Dal" />
		<tag k="place" v="locality" />
		<tag k="ssr:stedsnr" v="858357" />
	</node>
	<node id="-66749" lat="61.4238750036" lon="6.77263332388">
		<tag k="name" v="Haugen" />
		<tag k="place" v="farm" />
		<tag k="ssr:stedsnr" v="857926" />
	</node>
	<node id="-68793" lat="61.2016777785" lon="6.53313056061">
		<tag k="name" v="Sagatun" />
		<tag k="place" v="farm" />
		<tag k="ssr:stedsnr" v="955060" />
	</node>
	<node id="-66744" lat="61.4727666668" lon="6.73986943522">
		<tag k="historic" v="shieling" />
		<tag k="name" v="Bøyafjellstølen" />
		<tag k="place" v="locality" />
		<tag k="ssr:stedsnr" v="857810" />
	</node>
	<node id="-68786" lat="61.2177695555" lon="6.97411010437">
		<tag k="alt_name" v="Mansverk" />
		<tag k="fixme" v="consider place=hamlet" />
		<tag k="name" v="Mannsverk" />
		<tag k="place" v="farm" />
		<tag k="ssr:stedsnr" v="860143" />
	</node>
	<node id="-68785" lat="61.230981881" lon="7.09266948607">
		<tag k="fixme" v="consider place=hamlet" />
		<tag k="name" v="Foss" />
		<tag k="place" v="farm" />
		<tag k="ssr:stedsnr" v="860137" />
	</node>
	<node id="-68783" lat="61.2159333363" lon="7.22771389431">
		<tag k="historic" v="shieling" />
		<tag k="name" v="Ospesete" />
		<tag k="place" v="locality" />
		<tag k="ssr:stedsnr" v="860100" />
	</node>
	<node id="-68782" lat="61.2068273369" lon="7.00494565189">
		<tag k="fixme" v="consider place=hamlet" />
		<tag k="name" v="Vatlestad" />
		<tag k="place" v="farm" />
		<tag k="ssr:stedsnr" v="860097" />
	</node>
	<node id="-66730" lat="61.2545277735" lon="6.75209722911">
		<tag k="historic" v="shieling" />
		<tag k="name" v="Stavsete" />
		<tag k="place" v="locality" />
		<tag k="ssr:stedsnr" v="857164" />
	</node>
	<node id="-68771" lat="61.2255638897" lon="6.90857500562">
		<tag k="historic" v="shieling" />
		<tag k="name" v="Hottadalen" />
		<tag k="place" v="locality" />
		<tag k="ssr:stedsnr" v="859996" />
	</node>
	<node id="-68770" lat="61.210355559" lon="6.73945833274">
		<tag k="historic" v="shieling" />
		<tag k="name" v="Skitstølen" />
		<tag k="place" v="locality" />
		<tag k="ssr:stedsnr" v="859993" />
	</node>
	<node id="-68769" lat="61.2152583357" lon="6.75234722128">
		<tag k="alt_name" v="Seljevoll" />
		<tag k="name" v="Seljevollen" />
		<tag k="place" v="locality" />
		<tag k="ssr:stedsnr" v="859989" />
	</node>
	<node id="-68766" lat="61.1373316187" lon="6.52691591106">
		<tag k="fixme" v="consider place=hamlet" />
		<tag k="name" v="Målsnes" />
		<tag k="place" v="farm" />
		<tag k="ssr:stedsnr" v="859635" />
	</node>
	<node id="-67439" lat="61.2774583363" lon="7.15603610578">
		<tag k="name" v="Steig" />
		<tag k="place" v="farm" />
		<tag k="ssr:stedsnr" v="189281" />
	</node>
	<node id="-68757" lat="61.1834055518" lon="7.05611667115">
		<tag k="alt_name" v="Venesstølen" />
		<tag k="historic" v="shieling" />
		<tag k="name" v="Vinesstølen" />
		<tag k="place" v="locality" />
		<tag k="ssr:stedsnr" v="859042" />
	</node>
	<node id="-68756" lat="61.2019543027" lon="7.2363310883">
		<tag k="fixme" v="consider place=hamlet" />
		<tag k="name" v="Olstad" />
		<tag k="place" v="farm" />
		<tag k="ssr:stedsnr" v="859031" />
	</node>
	<node id="-68755" lat="61.2033987179" lon="7.17680480422">
		<tag k="fixme" v="consider place=hamlet" />
		<tag k="name" v="Eide" />
		<tag k="place" v="farm" />
		<tag k="ssr:stedsnr" v="859028" />
	</node>
	<node id="-68753" lat="61.2390824806" lon="7.05186488326">
		<tag k="alt_name" v="Eggum" />
		<tag k="fixme" v="consider place=hamlet" />
		<tag k="name" v="Eggja" />
		<tag k="place" v="farm" />
		<tag k="ssr:stedsnr" v="859087" />
	</node>
	<node id="-68751" lat="61.2191999979" lon="6.67363333596">
		<tag k="name" v="Frisete" />
		<tag k="place" v="locality" />
		<tag k="ssr:stedsnr" v="858942" />
	</node>
	<node id="-68750" lat="61.2143333362" lon="6.67781110376">
		<tag k="name" v="Kleivafjellstølen" />
		<tag k="place" v="locality" />
		<tag k="ssr:stedsnr" v="858941" />
	</node>
	<node id="-66701" lat="61.2552027787" lon="7.04638889511">
		<tag k="historic" v="shieling" />
		<tag k="name" v="Loftenesøygarden" />
		<tag k="place" v="locality" />
		<tag k="ssr:stedsnr" v="942998" />
	</node>
	<node id="-68747" lat="61.3077083315" lon="6.53839722312">
		<tag k="historic" v="shieling" />
		<tag k="name" v="Eikjadalen" />
		<tag k="place" v="locality" />
		<tag k="ssr:stedsnr" v="858789" />
	</node>
	<node id="-66697" lat="61.2546888894" lon="7.01536665941">
		<tag k="name" v="Haukereid" />
		<tag k="place" v="farm" />
		<tag k="ssr:stedsnr" v="942948" />
	</node>
	<node id="-68744" lat="61.3060194439" lon="7.06518889346">
		<tag k="historic" v="shieling" />
		<tag k="name" v="Turrli" />
		<tag k="place" v="locality" />
		<tag k="ssr:stedsnr" v="858447" />
	</node>
	<node id="-68743" lat="61.2547194469" lon="7.11471110705">
		<tag k="historic" v="shieling" />
		<tag k="name" v="Vetlestølen" />
		<tag k="place" v="locality" />
		<tag k="ssr:stedsnr" v="858283" />
	</node>
	<node id="-68741" lat="61.4033735402" lon="6.7351627979">
		<tag k="name" v="Mundal" />
		<tag k="place" v="hamlet" />
		<tag k="ssr:stedsnr" v="857899" />
	</node>
	<node id="-68740" lat="61.402072219" lon="6.72617221895">
		<tag k="name" v="Øyna" />
		<tag k="place" v="farm" />
		<tag k="ssr:stedsnr" v="857893" />
	</node>
	<node id="-68739" lat="61.4230055539" lon="6.80606388492">
		<tag k="historic" v="shieling" />
		<tag k="name" v="Blåbærstølen" />
		<tag k="place" v="locality" />
		<tag k="ssr:stedsnr" v="857885" />
	</node>
	<node id="-68735" lat="61.2620555598" lon="6.49185555401">
		<tag k="alt_name" v="Dalsdalen støl" />
		<tag k="historic" v="shieling" />
		<tag k="name" v="Dalsdalen" />
		<tag k="place" v="locality" />
		<tag k="ssr:stedsnr" v="857850" />
	</node>
	<node id="-68734" lat="61.2691297221" lon="6.51086400085">
		<tag k="fixme" v="consider place=hamlet" />
		<tag k="name" v="Dale" />
		<tag k="place" v="farm" />
		<tag k="ssr:stedsnr" v="857839" />
	</node>
	<node id="-68733" lat="61.2695194421" lon="6.58946666511">
		<tag k="name" v="Menesstølen" />
		<tag k="place" v="locality" />
		<tag k="ssr:stedsnr" v="857836" />
	</node>
	<node id="-68732" lat="61.331636112" lon="6.5677944377">
		<tag k="alt_name" v="Midtun" />
		<tag k="name" v="Midttun" />
		<tag k="place" v="farm" />
		<tag k="ssr:stedsnr" v="857788" />
	</node>
	<node id="-68729" lat="61.2518999996" lon="6.53180277816">
		<tag k="fixme" v="multiple name tags, choose one and add the other to alt_name" />
		<tag k="name" v="Botnen;Brunene" />
		<tag k="place" v="locality" />
		<tag k="ssr:stedsnr" v="857869" />
	</node>
	<node id="-68723" lat="61.3055222193" lon="6.56662500868">
		<tag k="name" v="Nedrebø" />
		<tag k="place" v="farm" />
		<tag k="ssr:stedsnr" v="857772" />
	</node>
	<node id="-68719" lat="61.2709527811" lon="7.20513889144">
		<tag k="historic" v="shieling" />
		<tag k="name" v="Helgasete" />
		<tag k="place" v="locality" />
		<tag k="ssr:stedsnr" v="857392" />
	</node>
	<node id="-68718" lat="61.2639361143" lon="7.06333889168">
		<tag k="historic" v="shieling" />
		<tag k="name" v="Nystølshola" />
		<tag k="place" v="locality" />
		<tag k="ssr:stedsnr" v="857378" />
	</node>
	<node id="-68717" lat="61.3162833377" lon="6.7321111017">
		<tag k="historic" v="shieling" />
		<tag k="name" v="Breisete" />
		<tag k="place" v="locality" />
		<tag k="ssr:stedsnr" v="857237" />
	</node>
	<node id="-68715" lat="61.2823861085" lon="7.1399777787">
		<tag k="historic" v="shieling" />
		<tag k="name" v="Bergastølen" />
		<tag k="place" v="locality" />
		<tag k="ssr:stedsnr" v="857348" />
	</node>
	<node id="-68714" lat="61.2787083316" lon="7.13500832677">
		<tag k="historic" v="shieling" />
		<tag k="name" v="Surnali" />
		<tag k="place" v="locality" />
		<tag k="ssr:stedsnr" v="857342" />
	</node>
	<node id="-68706" lat="61.2331937532" lon="7.10538524104">
		<tag k="fixme" v="consider place=hamlet" />
		<tag k="name" v="Hove" />
		<tag k="place" v="farm" />
		<tag k="ssr:stedsnr" v="844067" />
	</node>
	<node id="-68705" lat="61.3116666708" lon="6.66469166528">
		<tag k="fixme" v="consider place=hamlet" />
		<tag k="name" v="Knorren" />
		<tag k="place" v="farm" />
		<tag k="ssr:stedsnr" v="843478" />
	</node>
	<node id="-66645" lat="61.4201638862" lon="6.76658888097">
		<tag k="name" v="Hola" />
		<tag k="place" v="farm" />
		<tag k="ssr:stedsnr" v="822960" />
	</node>
	<node id="-66643" lat="61.2924166623" lon="6.71963332541">
		<tag k="fixme" v="multiple name tags, choose one and add the other to alt_name" />
		<tag k="historic" v="shieling" />
		<tag k="name" v="Nedre Rommedal;Nedstedalen" />
		<tag k="place" v="locality" />
		<tag k="ssr:stedsnr" v="931757" />
	</node>
	<node id="-68685" lat="61.2597611118" lon="6.57826943996">
		<tag k="name" v="Liane" />
		<tag k="place" v="locality" />
		<tag k="ssr:stedsnr" v="834736" />
	</node>
	<node id="-66060" lat="61.2515675617" lon="7.11471407477">
		<tag k="fixme" v="consider place=hamlet" />
		<tag k="name" v="Flåten" />
		<tag k="place" v="farm" />
		<tag k="ssr:stedsnr" v="736287" />
	</node>
	<node id="-66401" lat="61.1871655393" lon="6.82059689952">
		<tag k="fixme" v="consider place=hamlet" />
		<tag k="name" v="Halland" />
		<tag k="place" v="farm" />
		<tag k="ssr:stedsnr" v="884636" />
	</node>
	<node id="-66621" lat="61.1543980826" lon="7.0022795077">
		<tag k="name" v="Klubben" />
		<tag k="place" v="farm" />
		<tag k="ssr:stedsnr" v="799026" />
	</node>
	<node id="-66615" lat="61.1992222199" lon="6.70135277649">
		<tag k="name" v="Fjellheim" />
		<tag k="place" v="farm" />
		<tag k="ssr:stedsnr" v="798963" />
	</node>
	<node id="-67316" lat="61.1974138867" lon="6.52832500315">
		<tag k="name" v="Grønlii" />
		<tag k="place" v="farm" />
		<tag k="ssr:stedsnr" v="130672" />
	</node>
	<node id="-66608" lat="61.124044333" lon="6.46778548294">
		<tag k="fixme" v="consider place=hamlet" />
		<tag k="name" v="Kvamme" />
		<tag k="place" v="farm" />
		<tag k="ssr:stedsnr" v="798634" />
	</node>
	<node id="-66606" lat="61.1490527778" lon="6.53918610952">
		<tag k="name" v="Kallestad" />
		<tag k="place" v="farm" />
		<tag k="ssr:stedsnr" v="798619" />
	</node>
	<node id="-66605" lat="61.1389305578" lon="6.43473889412">
		<tag k="alt_name" v="Grysete" />
		<tag k="historic" v="shieling" />
		<tag k="name" v="Gryssete" />
		<tag k="place" v="locality" />
		<tag k="ssr:stedsnr" v="798617" />
	</node>
	<node id="-66601" lat="61.1985388364" lon="7.10062693128">
		<tag k="alt_name" v="Meisterplassen" />
		<tag k="fixme" v="consider place=hamlet" />
		<tag k="name" v="Meistarplass" />
		<tag k="place" v="farm" />
		<tag k="ssr:stedsnr" v="798039" />
	</node>
	<node id="-66600" lat="61.2021714656" lon="7.04183964322">
		<tag k="fixme" v="consider place=hamlet" />
		<tag k="name" v="Øyre" />
		<tag k="place" v="farm" />
		<tag k="ssr:stedsnr" v="798037" />
	</node>
	<node id="-66599" lat="61.3027552509" lon="6.55443083552">
		<tag k="name" v="Eiki" />
		<tag k="place" v="farm" />
		<tag k="ssr:stedsnr" v="797767" />
	</node>
	<node id="-68644" lat="61.1599055523" lon="6.97966111062">
		<tag k="name" v="Myri" />
		<tag k="place" v="farm" />
		<tag k="ssr:stedsnr" v="821541" />
	</node>
	<node id="-68643" lat="61.3894916712" lon="6.71652777839">
		<tag k="name" v="Vårstølen" />
		<tag k="place" v="locality" />
		<tag k="ssr:stedsnr" v="821533" />
	</node>
	<node id="-68641" lat="61.2141578471" lon="6.98277017448">
		<tag k="fixme" v="consider place=hamlet" />
		<tag k="name" v="Rusti" />
		<tag k="place" v="farm" />
		<tag k="ssr:stedsnr" v="821484" />
	</node>
	<node id="-66592" lat="61.284133337" lon="6.49584166633">
		<tag k="name" v="Vetlestølen" />
		<tag k="place" v="locality" />
		<tag k="ssr:stedsnr" v="796789" />
	</node>
	<node id="-68637" lat="61.190269448" lon="7.0767388968">
		<tag k="name" v="Djupevikteigen" />
		<tag k="place" v="locality" />
		<tag k="ssr:stedsnr" v="820579" />
	</node>
	<node id="-66587" lat="61.1889000001" lon="6.8435027702">
		<tag k="name" v="Henja" />
		<tag k="place" v="hamlet" />
		<tag k="ssr:stedsnr" v="787228" />
	</node>
	<node id="-66586" lat="61.2325916649" lon="6.84867222021">
		<tag k="name" v="Fivelhola" />
		<tag k="place" v="locality" />
		<tag k="ssr:stedsnr" v="920965" />
	</node>
	<node id="-66735" lat="61.3399750003" lon="6.92644999626">
		<tag k="name" v="Bøen" />
		<tag k="place" v="farm" />
		<tag k="ssr:stedsnr" v="857203" />
	</node>
	<node id="-68630" lat="61.2255722222" lon="7.09684445243">
		<tag k="fixme" v="consider place=suburb, village or hamlet" />
		<tag k="name" v="Stedje" />
		<tag k="place" v="quarter" />
		<tag k="ssr:stedsnr" v="799127" />
	</node>
	<node id="-68628" lat="61.2387632876" lon="7.09968155411">
		<tag k="alt_name" v="Åberge" />
		<tag k="fixme" v="consider place=hamlet" />
		<tag k="name" v="Åbyrge" />
		<tag k="place" v="farm" />
		<tag k="ssr:stedsnr" v="799109" />
	</node>
	<node id="-68627" lat="61.2394143651" lon="7.04289589185">
		<tag k="fixme" v="consider place=hamlet" />
		<tag k="name" v="Hausa" />
		<tag k="place" v="farm" />
		<tag k="ssr:stedsnr" v="799106" />
	</node>
	<node id="-68625" lat="61.2288316584" lon="7.09645219678">
		<tag k="fixme" v="consider place=suburb, village or hamlet" />
		<tag k="name" v="Sogndalsfjøra" />
		<tag k="place" v="quarter" />
		<tag k="ssr:stedsnr" v="799066" />
	</node>
	<node id="-66576" lat="61.1783138912" lon="7.23436388354">
		<tag k="alt_name" v="Havnen" />
		<tag k="name" v="Hamnen" />
		<tag k="place" v="farm" />
		<tag k="ssr:stedsnr" v="920002" />
	</node>
	<node id="-68623" lat="61.2164361141" lon="7.00372500595">
		<tag k="historic" v="shieling" />
		<tag k="name" v="Teigsstølen" />
		<tag k="place" v="locality" />
		<tag k="ssr:stedsnr" v="799053" />
	</node>
	<node id="-66574" lat="61.2092645042" lon="6.61605547916">
		<tag k="alt_name" v="Vestreim" />
		<tag k="fixme" v="consider place=hamlet" />
		<tag k="name" v="Vestrheim" />
		<tag k="place" v="farm" />
		<tag k="ssr:stedsnr" v="919992" />
	</node>
	<node id="-68621" lat="61.2167694435" lon="6.61190555457">
		<tag k="historic" v="shieling" />
		<tag k="name" v="Skare" />
		<tag k="place" v="locality" />
		<tag k="ssr:stedsnr" v="798950" />
	</node>
	<node id="-68620" lat="61.1706544642" lon="6.93405180301">
		<tag k="fixme" v="consider place=hamlet" />
		<tag k="name" v="Melås" />
		<tag k="place" v="farm" />
		<tag k="ssr:stedsnr" v="798894" />
	</node>
	<node id="-68619" lat="61.2009472242" lon="6.87512223077">
		<tag k="name" v="Pyttane" />
		<tag k="place" v="farm" />
		<tag k="ssr:stedsnr" v="798889" />
	</node>
	<node id="-66570" lat="61.1855580883" lon="6.8045443243">
		<tag k="name" v="Leikanger" />
		<tag k="place" v="village" />
		<tag k="ssr:stedsnr" v="919935" />
	</node>
	<node id="-68617" lat="61.1937406327" lon="6.86655550321">
		<tag k="fixme" v="consider place=hamlet" />
		<tag k="name" v="Kvålen" />
		<tag k="place" v="farm" />
		<tag k="ssr:stedsnr" v="798873" />
	</node>
	<node id="-68614" lat="61.2197972182" lon="6.95142222102">
		<tag k="historic" v="shieling" />
		<tag k="name" v="Bjørndal" />
		<tag k="place" v="locality" />
		<tag k="ssr:stedsnr" v="798994" />
	</node>
	<node id="-68610" lat="61.180618687" lon="6.53405112564">
		<tag k="alt_name" v="Thue" />
		<tag k="fixme" v="consider place=hamlet" />
		<tag k="name" v="Tue" />
		<tag k="place" v="farm" />
		<tag k="ssr:stedsnr" v="798691" />
	</node>
	<node id="-68608" lat="61.1901583318" lon="6.52803611466">
		<tag k="name" v="Hagen" />
		<tag k="place" v="farm" />
		<tag k="ssr:stedsnr" v="798683" />
	</node>
	<node id="-68607" lat="61.1713660897" lon="6.54104901643">
		<tag k="alt_name" v="Flesje" />
		<tag k="fixme" v="consider place=hamlet" />
		<tag k="name" v="Flesjane" />
		<tag k="place" v="farm" />
		<tag k="ssr:stedsnr" v="798680" />
	</node>
	<node id="-66555" lat="61.2420499972" lon="6.76603333908">
		<tag k="alt_name" v="Nyanstøl" />
		<tag k="historic" v="shieling" />
		<tag k="name" v="Nyastølen" />
		<tag k="place" v="locality" />
		<tag k="ssr:stedsnr" v="919542" />
	</node>
	<node id="-66548" lat="61.249794442" lon="6.52063333156">
		<tag k="historic" v="shieling" />
		<tag k="name" v="Farnesstølen" />
		<tag k="place" v="locality" />
		<tag k="ssr:stedsnr" v="918896" />
	</node>
	<node id="-68594" lat="61.2155546101" lon="6.55359820607">
		<tag k="fixme" v="consider place=hamlet" />
		<tag k="name" v="Lunde" />
		<tag k="place" v="farm" />
		<tag k="ssr:stedsnr" v="798674" />
	</node>
	<node id="-68592" lat="61.2034055598" lon="7.04870555678">
		<tag k="alt_name" v="Timberlid" />
		<tag k="name" v="Timmerli" />
		<tag k="place" v="farm" />
		<tag k="ssr:stedsnr" v="798091" />
	</node>
	<node id="-68591" lat="61.2066472246" lon="7.04863333689">
		<tag k="alt_name" v="Brekkeflat" />
		<tag k="name" v="Brekkeflaten" />
		<tag k="place" v="farm" />
		<tag k="ssr:stedsnr" v="798089" />
	</node>
	<node id="-66541" lat="61.3296305537" lon="6.44190555418">
		<tag k="historic" v="shieling" />
		<tag k="name" v="Torsnesstølen" />
		<tag k="place" v="locality" />
		<tag k="ssr:stedsnr" v="918844" />
	</node>
	<node id="-68586" lat="61.4406197569" lon="6.75857483698">
		<tag k="alt_name" v="Skeie" />
		<tag k="fixme" v="consider place=hamlet" />
		<tag k="name" v="Skeide" />
		<tag k="place" v="farm" />
		<tag k="ssr:stedsnr" v="797896" />
	</node>
	<node id="-68585" lat="61.2093861134" lon="7.2078444362">
		<tag k="name" v="Dalen" />
		<tag k="place" v="farm" />
		<tag k="ssr:stedsnr" v="798083" />
	</node>
	<node id="-66536" lat="61.2578138908" lon="7.1163916751">
		<tag k="historic" v="shieling" />
		<tag k="name" v="Krosskleivane" />
		<tag k="place" v="locality" />
		<tag k="ssr:stedsnr" v="918395" />
	</node>
	<node id="-66535" lat="61.2873694402" lon="7.15899999821">
		<tag k="name" v="Myrhaug" />
		<tag k="place" v="farm" />
		<tag k="ssr:stedsnr" v="918393" />
	</node>
	<node id="-66532" lat="61.3229555548" lon="6.87984999875">
		<tag k="historic" v="shieling" />
		<tag k="name" v="Reset" />
		<tag k="place" v="locality" />
		<tag k="ssr:stedsnr" v="918244" />
	</node>
	<node id="-68579" lat="61.3177638911" lon="6.98616665908">
		<tag k="alt_name" v="Kokstad" />
		<tag k="historic" v="shieling" />
		<tag k="name" v="Kokkstad" />
		<tag k="place" v="locality" />
		<tag k="ssr:stedsnr" v="797472" />
	</node>
	<node id="-68578" lat="61.2997305522" lon="6.98962222547">
		<tag k="historic" v="shieling" />
		<tag k="name" v="Vasslitråna" />
		<tag k="place" v="locality" />
		<tag k="ssr:stedsnr" v="797374" />
	</node>
	<node id="-68575" lat="61.251104778" lon="7.12268411063">
		<tag k="fixme" v="consider place=hamlet" />
		<tag k="name" v="Kvam" />
		<tag k="place" v="farm" />
		<tag k="ssr:stedsnr" v="797259" />
	</node>
	<node id="-66538" lat="61.2611054814" lon="7.00809047561">
		<tag k="fixme" v="consider place=hamlet" />
		<tag k="name" v="Reppen" />
		<tag k="place" v="farm" />
		<tag k="ssr:stedsnr" v="918401" />
	</node>
	<node id="-65701" lat="61.2035333303" lon="7.04433610343">
		<tag k="name" v="Haugane" />
		<tag k="place" v="farm" />
		<tag k="ssr:stedsnr" v="336563" />
	</node>
	<node id="-66039" lat="61.2530083317" lon="6.90908056285">
		<tag k="name" v="Sumhaug" />
		<tag k="place" v="isolated_dwelling" />
		<tag k="ssr:stedsnr" v="493176" />
	</node>
	<node id="-68546" lat="61.2618527772" lon="7.155944449">
		<tag k="name" v="Sva" />
		<tag k="place" v="farm" />
		<tag k="ssr:stedsnr" v="782850" />
	</node>
	<node id="-68545" lat="61.2770777802" lon="6.54466112001">
		<tag k="name" v="Indre Torsnes" />
		<tag k="place" v="farm" />
		<tag k="ssr:stedsnr" v="782533" />
	</node>
	<node id="-68542" lat="61.2143472225" lon="6.55013055302">
		<tag k="name" v="Eikedal" />
		<tag k="place" v="isolated_dwelling" />
		<tag k="ssr:stedsnr" v="782260" />
	</node>
	<node id="-66487" lat="61.222313893" lon="7.12630277007">
		<tag k="name" v="Hagen" />
		<tag k="place" v="farm" />
		<tag k="ssr:stedsnr" v="760534" />
	</node>
	<node id="-66485" lat="61.1577888859" lon="6.99237777288">
		<tag k="name" v="Naglatun" />
		<tag k="place" v="locality" />
		<tag k="ssr:stedsnr" v="760528" />
	</node>
	<node id="-66476" lat="61.1256361075" lon="6.4674694469">
		<tag k="name" v="Skardet" />
		<tag k="place" v="farm" />
		<tag k="ssr:stedsnr" v="904548" />
	</node>
	<node id="-66474" lat="61.1933249973" lon="7.2129472185">
		<tag k="name" v="Nordre Bjørk" />
		<tag k="place" v="farm" />
		<tag k="ssr:stedsnr" v="904337" />
	</node>
	<node id="-66470" lat="61.1895638884" lon="6.76928888069">
		<tag k="name" v="Djupapollen" />
		<tag k="place" v="farm" />
		<tag k="ssr:stedsnr" v="727971" />
	</node>
	<node id="-66462" lat="61.247097224" lon="6.54741944236">
		<tag k="name" v="Hankateigane" />
		<tag k="place" v="locality" />
		<tag k="ssr:stedsnr" v="895844" />
	</node>
	<node id="-68506" lat="61.1888999974" lon="6.7924555529">
		<tag k="name" v="Skaftestad" />
		<tag k="place" v="isolated_dwelling" />
		<tag k="ssr:stedsnr" v="762646" />
	</node>
	<node id="-68498" lat="61.4734583338" lon="6.72982778113">
		<tag k="name" v="Joslåtten" />
		<tag k="place" v="locality" />
		<tag k="ssr:stedsnr" v="761881" />
	</node>
	<node id="-68488" lat="61.2020722265" lon="7.23161110582">
		<tag k="name" v="Treet" />
		<tag k="place" v="farm" />
		<tag k="ssr:stedsnr" v="761192" />
	</node>
	<node id="-68486" lat="61.2351083326" lon="7.11167499906">
		<tag k="name" v="Navarsete" />
		<tag k="place" v="farm" />
		<tag k="ssr:stedsnr" v="760993" />
	</node>
	<node id="-68480" lat="61.2040027816" lon="7.00993610844">
		<tag k="name" v="Hagen" />
		<tag k="place" v="farm" />
		<tag k="ssr:stedsnr" v="760752" />
	</node>
	<node id="-68477" lat="61.2545361148" lon="6.98327777738">
		<tag k="historic" v="shieling" />
		<tag k="name" v="Haugastølen" />
		<tag k="place" v="locality" />
		<tag k="ssr:stedsnr" v="760398" />
	</node>
	<node id="-66417" lat="61.3284472242" lon="6.7315277765">
		<tag k="name" v="Dalen" />
		<tag k="place" v="farm" />
		<tag k="ssr:stedsnr" v="700956" />
	</node>
	<node id="-68463" lat="61.2790673776" lon="6.49934171699">
		<tag k="fixme" v="consider place=hamlet" />
		<tag k="name" v="Sværen" />
		<tag k="old_name" v="Sværafjorden" />
		<tag k="place" v="farm" />
		<tag k="ssr:stedsnr" v="753348" />
	</node>
	<node id="-68462" lat="61.46420833" lon="6.78965278217">
		<tag k="historic" v="shieling" />
		<tag k="name" v="Tunga" />
		<tag k="place" v="locality" />
		<tag k="ssr:stedsnr" v="749665" />
	</node>
	<node id="-68460" lat="61.2105571419" lon="7.11996707091">
		<tag k="fixme" v="consider place=hamlet" />
		<tag k="name" v="Kjørnes" />
		<tag k="place" v="farm" />
		<tag k="ssr:stedsnr" v="748483" />
	</node>
	<node id="-68458" lat="61.2373000021" lon="7.23564166702">
		<tag k="alt_name" v="Øyestølen" />
		<tag k="historic" v="shieling" />
		<tag k="name" v="Øydestølen" />
		<tag k="place" v="locality" />
		<tag k="ssr:stedsnr" v="738127" />
	</node>
	<node id="-68457" lat="61.2329805536" lon="7.03457500887">
		<tag k="name" v="Rygg" />
		<tag k="place" v="farm" />
		<tag k="ssr:stedsnr" v="738119" />
	</node>
	<node id="-66407" lat="61.1666500032" lon="7.29465556219">
		<tag k="barrier" v="fence" />
		<tag k="name" v="Festingdalsgjerdet" />
		<tag k="ssr:stedsnr" v="700556" />
	</node>
	<node id="-66406" lat="61.2330916657" lon="7.03872777409">
		<tag k="fixme" v="consider place=hamlet" />
		<tag k="name" v="Stigen" />
		<tag k="place" v="farm" />
		<tag k="ssr:stedsnr" v="699914" />
	</node>
	<node id="-65681" lat="61.2475444443" lon="7.26123611548">
		<tag k="alt_name" v="Breidesete" />
		<tag k="historic" v="shieling" />
		<tag k="name" v="Breisete" />
		<tag k="place" v="locality" />
		<tag k="ssr:stedsnr" v="313121" />
	</node>
	<node id="-68452" lat="61.2165559701" lon="6.98391584377">
		<tag k="fixme" v="consider place=hamlet" />
		<tag k="name" v="Øvretun" />
		<tag k="place" v="farm" />
		<tag k="ssr:stedsnr" v="738070" />
	</node>
	<node id="-68449" lat="61.210638886" lon="6.65944445278">
		<tag k="historic" v="shieling" />
		<tag k="name" v="Skoparsete" />
		<tag k="place" v="locality" />
		<tag k="ssr:stedsnr" v="737999" />
	</node>
	<node id="-66397" lat="61.1857111117" lon="6.85540555981">
		<tag k="name" v="Lundene" />
		<tag k="place" v="quarter" />
		<tag k="ssr:stedsnr" v="883994" />
	</node>
	<node id="-66396" lat="61.4047194488" lon="6.71306944417">
		<tag k="name" v="Øygardane" />
		<tag k="place" v="locality" />
		<tag k="ssr:stedsnr" v="883980" />
	</node>
	<node id="-67386" lat="61.4301250019" lon="6.75967500533">
		<tag k="name" v="Sjurgarden" />
		<tag k="place" v="farm" />
		<tag k="ssr:stedsnr" v="154615" />
	</node>
	<node id="-65679" lat="61.2093435652" lon="7.13151706124">
		<tag k="name" v="Vedlegjerdet" />
		<tag k="place" v="farm" />
		<tag k="ssr:stedsnr" v="313104" />
	</node>
	<node id="-68440" lat="61.1728499962" lon="6.93399445289">
		<tag k="name" v="Melåsstølen" />
		<tag k="place" v="locality" />
		<tag k="ssr:stedsnr" v="737917" />
	</node>
	<node id="-68438" lat="61.1714666697" lon="6.94524166755">
		<tag k="historic" v="shieling" />
		<tag k="name" v="Orrabru" />
		<tag k="place" v="locality" />
		<tag k="ssr:stedsnr" v="737911" />
	</node>
	<node id="-66387" lat="61.2718280299" lon="7.0225060087">
		<tag k="fixme" v="consider place=hamlet" />
		<tag k="name" v="Stavateig" />
		<tag k="place" v="farm" />
		<tag k="ssr:stedsnr" v="882957" />
	</node>
	<node id="-68432" lat="61.2096194443" lon="6.53608332471">
		<tag k="name" v="Balestrand" />
		<tag k="place" v="village" />
		<tag k="ssr:stedsnr" v="737706" />
	</node>
	<node id="-68430" lat="61.1946333334" lon="6.52561944272">
		<tag k="name" v="Brattland" />
		<tag k="place" v="farm" />
		<tag k="ssr:stedsnr" v="737694" />
	</node>
	<node id="-68429" lat="61.2253711846" lon="6.49033446927">
		<tag k="alt_name" v="Hjelseng" />
		<tag k="fixme" v="consider place=hamlet" />
		<tag k="name" v="Hjellsengi" />
		<tag k="place" v="farm" />
		<tag k="ssr:stedsnr" v="737682" />
	</node>
	<node id="-68427" lat="61.224891516" lon="6.58683022183">
		<tag k="alt_name" v="Tenningen" />
		<tag k="fixme" v="consider place=hamlet" />
		<tag k="name" v="Tenningane" />
		<tag k="place" v="farm" />
		<tag k="ssr:stedsnr" v="737671" />
	</node>
	<node id="-68424" lat="61.1557990909" lon="6.53750702867">
		<tag k="alt_name" v="Hanevik" />
		<tag k="fixme" v="consider place=hamlet" />
		<tag k="name" v="Hanaviki" />
		<tag k="place" v="farm" />
		<tag k="ssr:stedsnr" v="737645" />
	</node>
	<node id="-68423" lat="61.1402527805" lon="6.46447500715">
		<tag k="alt_name" v="Nyanstøl" />
		<tag k="historic" v="shieling" />
		<tag k="name" v="Nyanstølen" />
		<tag k="place" v="locality" />
		<tag k="ssr:stedsnr" v="737640" />
	</node>
	<node id="-68421" lat="61.1641555598" lon="6.5099138804">
		<tag k="historic" v="shieling" />
		<tag k="name" v="Glisebikkja" />
		<tag k="place" v="locality" />
		<tag k="ssr:stedsnr" v="737623" />
	</node>
	<node id="-68420" lat="61.2277583333" lon="6.60693611799">
		<tag k="historic" v="shieling" />
		<tag k="name" v="Tenningastølen" />
		<tag k="place" v="locality" />
		<tag k="ssr:stedsnr" v="737554" />
	</node>
	<node id="-68418" lat="61.2308250037" lon="6.64726667263">
		<tag k="historic" v="shieling" />
		<tag k="name" v="Nyanstøl" />
		<tag k="place" v="locality" />
		<tag k="ssr:stedsnr" v="737548" />
	</node>
	<node id="-68417" lat="61.1773500003" lon="7.38205554819">
		<tag k="alt_name" v="Pallane" />
		<tag k="name" v="Storepallen" />
		<tag k="place" v="locality" />
		<tag k="ssr:stedsnr" v="737355" />
	</node>
	<node id="-66367" lat="61.1565499976" lon="6.47266389447">
		<tag k="name" v="Målsnesstølen" />
		<tag k="place" v="locality" />
		<tag k="ssr:stedsnr" v="677627" />
	</node>
	<node id="-68411" lat="61.3903472268" lon="6.71951389199">
		<tag k="historic" v="shieling" />
		<tag k="name" v="Hamrastølen" />
		<tag k="place" v="locality" />
		<tag k="ssr:stedsnr" v="736896" />
	</node>
	<node id="-68410" lat="61.418097222" lon="6.74688055556">
		<tag k="name" v="Mundalsskreda" />
		<tag k="place" v="farm" />
		<tag k="ssr:stedsnr" v="736888" />
	</node>
	<node id="-66360" lat="61.180797221" lon="7.22726944041">
		<tag k="name" v="Hagahaugen" />
		<tag k="place" v="farm" />
		<tag k="ssr:stedsnr" v="677059" />
	</node>
	<node id="-68406" lat="61.2714000022" lon="6.53577499708">
		<tag k="name" v="Grønlund" />
		<tag k="place" v="farm" />
		<tag k="ssr:stedsnr" v="736860" />
	</node>
	<node id="-68404" lat="61.4697583327" lon="6.74267777356">
		<tag k="historic" v="shieling" />
		<tag k="name" v="Skeisstølen" />
		<tag k="place" v="locality" />
		<tag k="ssr:stedsnr" v="736831" />
	</node>
	<node id="-66353" lat="61.1519111093" lon="6.99821389116">
		<tag k="name" v="Øygarden" />
		<tag k="place" v="farm" />
		<tag k="ssr:stedsnr" v="677027" />
	</node>
	<node id="-68400" lat="61.2990094227" lon="6.99963985546">
		<tag k="fixme" v="consider place=hamlet" />
		<tag k="name" v="Vassli" />
		<tag k="place" v="farm" />
		<tag k="ssr:stedsnr" v="736381" />
	</node>
	<node id="-65672" lat="61.1597972243" lon="6.93841667189">
		<tag k="name" v="Kleivane" />
		<tag k="place" v="isolated_dwelling" />
		<tag k="ssr:stedsnr" v="312821" />
	</node>
	<node id="-66350" lat="61.1837194466" lon="7.25510000758">
		<tag k="name" v="Løypet" />
		<tag k="place" v="farm" />
		<tag k="ssr:stedsnr" v="677005" />
	</node>
	<node id="-66347" lat="61.1886128297" lon="6.52407265635">
		<tag k="fixme" v="consider place=hamlet" />
		<tag k="name" v="Bruhjell" />
		<tag k="place" v="farm" />
		<tag k="ssr:stedsnr" v="676723" />
	</node>
	<node id="-66346" lat="61.2171194462" lon="6.55840833918">
		<tag k="alt_name" v="Dragsvik" />
		<tag k="name" v="Dragsviki" />
		<tag k="place" v="hamlet" />
		<tag k="ssr:stedsnr" v="676704" />
	</node>
	<node id="-66340" lat="61.2411388892" lon="7.13317499882">
		<tag k="name" v="Vandanes" />
		<tag k="place" v="locality" />
		<tag k="ssr:stedsnr" v="882343" />
	</node>
	<node id="-66339" lat="61.3351491305" lon="6.68737864422">
		<tag k="fixme" v="consider place=hamlet" />
		<tag k="name" v="Jordal" />
		<tag k="place" v="farm" />
		<tag k="ssr:stedsnr" v="675978" />
	</node>
	<node id="-66337" lat="61.3443194415" lon="6.92408611714">
		<tag k="historic" v="shieling" />
		<tag k="name" v="Beitahaugane" />
		<tag k="place" v="locality" />
		<tag k="ssr:stedsnr" v="675972" />
	</node>
	<node id="-66336" lat="61.3436666709" lon="6.66937499676">
		<tag k="name" v="Vårstølen" />
		<tag k="place" v="locality" />
		<tag k="ssr:stedsnr" v="675963" />
	</node>
	<node id="-66333" lat="61.263463885" lon="6.46471389256">
		<tag k="alt_name" v="Påfunn fjellstøl" />
		<tag k="historic" v="shieling" />
		<tag k="name" v="Påfunn" />
		<tag k="place" v="locality" />
		<tag k="ssr:stedsnr" v="675869" />
	</node>
	<node id="-68379" lat="61.1903083352" lon="6.51481111181">
		<tag k="name" v="Heimastølen" />
		<tag k="place" v="locality" />
		<tag k="ssr:stedsnr" v="652040" />
	</node>
	<node id="-66329" lat="61.2921984062" lon="6.99344479118">
		<tag k="fixme" v="consider place=hamlet" />
		<tag k="name" v="Hodlekve" />
		<tag k="place" v="farm" />
		<tag k="ssr:stedsnr" v="675453" />
	</node>
	<node id="-66326" lat="61.3144805525" lon="6.91608333121">
		<tag k="name" v="Soleisete" />
		<tag k="place" v="locality" />
		<tag k="ssr:stedsnr" v="675262" />
	</node>
	<node id="-66325" lat="61.310342937" lon="6.66466384484">
		<tag k="fixme" v="consider place=hamlet" />
		<tag k="name" v="Teigen" />
		<tag k="place" v="farm" />
		<tag k="ssr:stedsnr" v="675255" />
	</node>
	<node id="-68366" lat="61.1863511866" lon="6.83460598643">
		<tag k="fixme" v="consider place=hamlet" />
		<tag k="name" v="Nybø" />
		<tag k="place" v="farm" />
		<tag k="ssr:stedsnr" v="640999" />
	</node>
	<node id="-68365" lat="61.1852722184" lon="6.84269721804">
		<tag k="name" v="Palne" />
		<tag k="place" v="farm" />
		<tag k="ssr:stedsnr" v="640997" />
	</node>
	<node id="-66315" lat="61.3104777788" lon="6.94528611131">
		<tag k="name" v="Middagshola" />
		<tag k="place" v="locality" />
		<tag k="ssr:stedsnr" v="882125" />
	</node>
	<node id="-66313" lat="61.2099111129" lon="6.63648333622">
		<tag k="name" v="Pergjerdet" />
		<tag k="place" v="farm" />
		<tag k="ssr:stedsnr" v="665058" />
	</node>
	<node id="-68356" lat="61.3498944469" lon="6.75148056259">
		<tag k="historic" v="shieling" />
		<tag k="name" v="Vikastølen" />
		<tag k="place" v="locality" />
		<tag k="ssr:stedsnr" v="639958" />
	</node>
	<node id="-66301" lat="61.3675333321" lon="6.5566027794">
		<tag k="name" v="Hovden" />
		<tag k="place" v="isolated_dwelling" />
		<tag k="ssr:stedsnr" v="735713" />
	</node>
	<node id="-68346" lat="61.2001694455" lon="7.1358194385">
		<tag k="name" v="Kvamsteigen" />
		<tag k="place" v="locality" />
		<tag k="ssr:stedsnr" v="639578" />
	</node>
	<node id="-66789" lat="61.1791027772" lon="7.28142778059">
		<tag k="name" v="Furehaugen" />
		<tag k="place" v="farm" />
		<tag k="ssr:stedsnr" v="883603" />
	</node>
	<node id="-68343" lat="61.2062805514" lon="7.17773888426">
		<tag k="name" v="Ålsberg" />
		<tag k="place" v="farm" />
		<tag k="ssr:stedsnr" v="639574" />
	</node>
	<node id="-66290" lat="61.4104833334" lon="6.74343056075">
		<tag k="name" v="Laberg" />
		<tag k="place" v="farm" />
		<tag k="ssr:stedsnr" v="640945" />
	</node>
	<node id="-66288" lat="61.2015249999" lon="7.01649999489">
		<tag k="name" v="Altona" />
		<tag k="place" v="farm" />
		<tag k="ssr:stedsnr" v="638758" />
	</node>
	<node id="-66279" lat="61.1905805532" lon="6.84761111173">
		<tag k="name" v="Røysa" />
		<tag k="place" v="hamlet" />
		<tag k="ssr:stedsnr" v="726226" />
	</node>
	<node id="-66001" lat="61.4503805547" lon="6.74552500012">
		<tag k="alt_name" v="Bykse" />
		<tag k="historic" v="shieling" />
		<tag k="name" v="Bykset" />
		<tag k="place" v="locality" />
		<tag k="ssr:stedsnr" v="675843" />
	</node>
	<node id="-66276" lat="61.173947226" lon="7.00336667206">
		<tag k="name" v="Lasteberget" />
		<tag k="place" v="locality" />
		<tag k="ssr:stedsnr" v="722457" />
	</node>
	<node id="-66000" lat="61.4795027795" lon="6.74854722941">
		<tag k="name" v="Grandane" />
		<tag k="place" v="locality" />
		<tag k="ssr:stedsnr" v="675841" />
	</node>
	<node id="-68318" lat="61.1712638909" lon="6.92329444095">
		<tag k="name" v="Engamarki" />
		<tag k="place" v="locality" />
		<tag k="ssr:stedsnr" v="638633" />
	</node>
	<node id="-68313" lat="61.2110640157" lon="6.99603445408">
		<tag k="fixme" v="consider place=hamlet" />
		<tag k="name" v="Teigen" />
		<tag k="place" v="farm" />
		<tag k="ssr:stedsnr" v="638524" />
	</node>
	<node id="-66264" lat="61.1970277814" lon="7.28320278505">
		<tag k="historic" v="shieling" />
		<tag k="name" v="Hungerhaug" />
		<tag k="place" v="locality" />
		<tag k="ssr:stedsnr" v="616034" />
	</node>
	<node id="-66262" lat="61.198807152" lon="7.02064564146">
		<tag k="alt_name" v="Oppheim;Uppeim" />
		<tag k="name" v="Uppheim" />
		<tag k="place" v="farm" />
		<tag k="ssr:stedsnr" v="616026" />
	</node>
	<node id="-66259" lat="61.1779351389" lon="7.27217749687">
		<tag k="name" v="Amla" />
		<tag k="place" v="hamlet" />
		<tag k="ssr:stedsnr" v="616004" />
	</node>
	<node id="-66258" lat="61.1720495095" lon="6.99557310474">
		<tag k="fixme" v="consider place=hamlet" />
		<tag k="name" v="Ølmheim" />
		<tag k="place" v="farm" />
		<tag k="ssr:stedsnr" v="616003" />
	</node>
	<node id="-68305" lat="61.1397583366" lon="7.01273054908">
		<tag k="alt_name" v="Dueskar" />
		<tag k="historic" v="shieling" />
		<tag k="name" v="Dueskard" />
		<tag k="place" v="locality" />
		<tag k="ssr:stedsnr" v="617515" />
	</node>
	<node id="-66256" lat="61.1325072023" lon="6.48980709682">
		<tag k="alt_name" v="Engum" />
		<tag k="fixme" v="consider place=hamlet" />
		<tag k="name" v="Engjane" />
		<tag k="place" v="farm" />
		<tag k="ssr:stedsnr" v="615644" />
	</node>
	<node id="-66253" lat="61.3804162595" lon="6.7551941551">
		<tag k="fixme" v="consider place=hamlet" />
		<tag k="name" v="Berge" />
		<tag k="place" v="farm" />
		<tag k="ssr:stedsnr" v="614979" />
	</node>
	<node id="-68297" lat="61.1610499975" lon="6.54238055548">
		<tag k="name" v="Hestviki" />
		<tag k="place" v="farm" />
		<tag k="ssr:stedsnr" v="616633" />
	</node>
	<node id="-66248" lat="61.347572219" lon="6.87354721637">
		<tag k="historic" v="shieling" />
		<tag k="name" v="Kupa" />
		<tag k="place" v="locality" />
		<tag k="ssr:stedsnr" v="614960" />
	</node>
	<node id="-68293" lat="61.2107002872" lon="7.14035804312">
		<tag k="alt_name" v="Hagen" />
		<tag k="fixme" v="consider place=hamlet" />
		<tag k="name" v="Vikane" />
		<tag k="place" v="farm" />
		<tag k="ssr:stedsnr" v="616080" />
	</node>
	<node id="-68292" lat="61.2076793815" lon="7.19980507087">
		<tag k="fixme" v="consider place=hamlet" />
		<tag k="name" v="Vestreim" />
		<tag k="place" v="farm" />
		<tag k="ssr:stedsnr" v="616076" />
	</node>
	<node id="-66243" lat="61.3018249985" lon="6.7450944434">
		<tag k="fixme" v="multiple name tags, choose one and add the other to alt_name" />
		<tag k="historic" v="shieling" />
		<tag k="name" v="Øvre Rommedal;Øvstedalen" />
		<tag k="place" v="locality" />
		<tag k="ssr:stedsnr" v="614761" />
	</node>
	<node id="-68290" lat="61.2062864116" lon="7.21426096022">
		<tag k="fixme" v="consider place=hamlet" />
		<tag k="name" v="Hovland" />
		<tag k="place" v="farm" />
		<tag k="ssr:stedsnr" v="616073" />
	</node>
	<node id="-66241" lat="61.3129777794" lon="7.00259445207">
		<tag k="historic" v="shieling" />
		<tag k="name" v="Nerestad" />
		<tag k="place" v="locality" />
		<tag k="ssr:stedsnr" v="614404" />
	</node>
	<node id="-68288" lat="61.2094722192" lon="6.60543889621">
		<tag k="alt_name" v="Flætene" />
		<tag k="name" v="Flete" />
		<tag k="place" v="farm" />
		<tag k="ssr:stedsnr" v="615991" />
	</node>
	<node id="-66239" lat="61.3038666631" lon="7.00709722369">
		<tag k="historic" v="shieling" />
		<tag k="name" v="Binesete" />
		<tag k="place" v="locality" />
		<tag k="ssr:stedsnr" v="614381" />
	</node>
	<node id="-66234" lat="61.2846388905" lon="6.62283610598">
		<tag k="historic" v="shieling" />
		<tag k="name" v="Heimastølen" />
		<tag k="place" v="locality" />
		<tag k="ssr:stedsnr" v="614250" />
	</node>
	<node id="-68280" lat="61.1830138848" lon="6.85175555364">
		<tag k="name" v="Hermansverk" />
		<tag k="place" v="village" />
		<tag k="ssr:stedsnr" v="615923" />
	</node>
	<node id="-68279" lat="61.1879805546" lon="6.93445555408">
		<tag k="name" v="Honnsete" />
		<tag k="place" v="locality" />
		<tag k="ssr:stedsnr" v="615922" />
	</node>
	<node id="-68278" lat="61.1755722192" lon="6.95890555188">
		<tag k="alt_name" v="Breidesete" />
		<tag k="historic" v="shieling" />
		<tag k="name" v="Breiesete" />
		<tag k="place" v="locality" />
		<tag k="ssr:stedsnr" v="615913" />
	</node>
	<node id="-68277" lat="61.1736555582" lon="6.95149722718">
		<tag k="name" v="Hola" />
		<tag k="place" v="isolated_dwelling" />
		<tag k="ssr:stedsnr" v="615912" />
	</node>
	<node id="-68274" lat="61.1805333342" lon="6.5086583246">
		<tag k="alt_name" v="Bruhjellstølen" />
		<tag k="historic" v="shieling" />
		<tag k="name" v="Bruhjellsstølen" />
		<tag k="place" v="locality" />
		<tag k="ssr:stedsnr" v="615726" />
	</node>
	<node id="-68273" lat="61.2090416636" lon="6.53852778272">
		<tag k="name" v="Kviknes Hotel" />
		<tag k="old_name" v="Kvikne hotell" />
		<tag k="ssr:stedsnr" v="615691" />
		<tag k="tourism" v="hotel" />
	</node>
	<node id="-68272" lat="61.195917396" lon="6.52607683696">
		<tag k="fixme" v="consider place=hamlet" />
		<tag k="name" v="Sande" />
		<tag k="place" v="farm" />
		<tag k="ssr:stedsnr" v="615686" />
	</node>
	<node id="-68269" lat="61.1139729884" lon="6.45260957312">
		<tag k="name" v="Haugen" />
		<tag k="place" v="farm" />
		<tag k="ssr:stedsnr" v="615658" />
	</node>
	<node id="-68268" lat="61.1910749999" lon="6.78533332783">
		<tag k="historic" v="shieling" />
		<tag k="name" v="Hamrestølen" />
		<tag k="place" v="locality" />
		<tag k="ssr:stedsnr" v="615875" />
	</node>
	<node id="-68266" lat="61.1850651384" lon="6.74100900953">
		<tag k="fixme" v="consider place=hamlet" />
		<tag k="name" v="Grinde" />
		<tag k="place" v="farm" />
		<tag k="ssr:stedsnr" v="615864" />
	</node>
	<node id="-68265" lat="61.2359000001" lon="6.62357499198">
		<tag k="historic" v="shieling" />
		<tag k="name" v="Åsastølen" />
		<tag k="place" v="locality" />
		<tag k="ssr:stedsnr" v="615544" />
	</node>
	<node id="-68258" lat="61.4284305579" lon="6.75582777701">
		<tag k="name" v="Bakkane" />
		<tag k="place" v="farm" />
		<tag k="ssr:stedsnr" v="614932" />
	</node>
	<node id="-68244" lat="61.3237630246" lon="6.99011065224">
		<tag k="fixme" v="consider place=hamlet" />
		<tag k="name" v="Svedal" />
		<tag k="place" v="farm" />
		<tag k="ssr:stedsnr" v="614478" />
	</node>
	<node id="-68243" lat="61.2627944456" lon="7.03317777246">
		<tag k="name" v="Rusti" />
		<tag k="place" v="farm" />
		<tag k="ssr:stedsnr" v="614351" />
	</node>
	<node id="-68240" lat="61.2757733463" lon="7.01330470948">
		<tag k="alt_name" v="Hildeskår" />
		<tag k="fixme" v="consider place=hamlet" />
		<tag k="name" v="Hilleskor" />
		<tag k="place" v="farm" />
		<tag k="ssr:stedsnr" v="614330" />
	</node>
	<node id="-65986" lat="61.367677778" lon="6.57875000134">
		<tag k="name" v="Grøndalen" />
		<tag k="place" v="isolated_dwelling" />
		<tag k="ssr:stedsnr" v="675748" />
	</node>
	<node id="-68230" lat="61.296555556" lon="7.01017500094">
		<tag k="historic" v="shieling" />
		<tag k="name" v="Kleiv" />
		<tag k="place" v="locality" />
		<tag k="ssr:stedsnr" v="614434" />
	</node>
	<node id="-68224" lat="61.3049472235" lon="6.66248333079">
		<tag k="name" v="Øyri" />
		<tag k="place" v="locality" />
		<tag k="ssr:stedsnr" v="600477" />
	</node>
	<node id="-66164" lat="61.17325038" lon="7.34723470756">
		<tag k="historic" v="shieling" />
		<tag k="name" v="Djupedalsstølen" />
		<tag k="place" v="locality" />
		<tag k="ssr:stedsnr" v="579657" />
	</node>
	<node id="-68211" lat="61.1830055512" lon="6.52717777076">
		<tag k="historic" v="shieling" />
		<tag k="name" v="Persstølen" />
		<tag k="place" v="locality" />
		<tag k="ssr:stedsnr" v="591888" />
	</node>
	<node id="-66161" lat="61.3284527783" lon="6.68175556403">
		<tag k="name" v="Haugen" />
		<tag k="place" v="farm" />
		<tag k="ssr:stedsnr" v="578927" />
	</node>
	<node id="-66157" lat="61.2480750004" lon="7.20592500597">
		<tag k="name" v="Skogasetbøen" />
		<tag k="place" v="locality" />
		<tag k="ssr:stedsnr" v="578571" />
	</node>
	<node id="-68202" lat="61.2678527819" lon="6.50932777195">
		<tag k="name" v="Nyheim" />
		<tag k="place" v="farm" />
		<tag k="ssr:stedsnr" v="591732" />
	</node>
	<node id="-66148" lat="61.1449861116" lon="7.10539444672">
		<tag k="alt_name" v="Haukåsen, nedre;Haukås Nedste" />
		<tag k="name" v="Nedste Haukåsen" />
		<tag k="place" v="farm" />
		<tag k="ssr:stedsnr" v="556527" />
	</node>
	<node id="-66146" lat="61.1355339913" lon="7.08932002202">
		<tag k="fixme" v="consider place=hamlet" />
		<tag k="name" v="Tingastad" />
		<tag k="place" v="farm" />
		<tag k="ssr:stedsnr" v="556521" />
	</node>
	<node id="-68193" lat="61.2149344877" lon="6.54608810509">
		<tag k="fixme" v="consider place=hamlet" />
		<tag k="name" v="Tjugum" />
		<tag k="place" v="farm" />
		<tag k="ssr:stedsnr" v="591884" />
	</node>
	<node id="-66142" lat="61.2117747448" lon="7.05847881279">
		<tag k="alt_name" v="Skarsbø" />
		<tag k="fixme" v="consider place=hamlet" />
		<tag k="name" v="Skardsbø" />
		<tag k="place" v="farm" />
		<tag k="ssr:stedsnr" v="556076" />
	</node>
	<node id="-66140" lat="61.1741138863" lon="6.86887499347">
		<tag k="alt_name" v="Klyvi" />
		<tag k="name" v="Kløvi" />
		<tag k="place" v="hamlet" />
		<tag k="ssr:stedsnr" v="555905" />
	</node>
	<node id="-66139" lat="61.1717000023" lon="6.505488895">
		<tag k="historic" v="shieling" />
		<tag k="name" v="Brekka" />
		<tag k="place" v="locality" />
		<tag k="ssr:stedsnr" v="555702" />
	</node>
	<node id="-66138" lat="61.191195328" lon="6.81034811224">
		<tag k="alt_name" v="Frekeland" />
		<tag k="fixme" v="consider place=hamlet" />
		<tag k="name" v="Frekaland" />
		<tag k="place" v="farm" />
		<tag k="ssr:stedsnr" v="555867" />
	</node>
	<node id="-66137" lat="61.1900881932" lon="6.84938142812">
		<tag k="alt_name" v="Røysum" />
		<tag k="fixme" v="consider place=hamlet" />
		<tag k="name" v="Røysane" />
		<tag k="place" v="farm" />
		<tag k="ssr:stedsnr" v="555864" />
	</node>
	<node id="-66134" lat="61.2368777817" lon="7.03692221433">
		<tag k="name" v="Ågardane" />
		<tag k="place" v="farm" />
		<tag k="ssr:stedsnr" v="555085" />
	</node>
	<node id="-66133" lat="61.2460999981" lon="7.03888055689">
		<tag k="name" v="Dalen" />
		<tag k="place" v="farm" />
		<tag k="ssr:stedsnr" v="555082" />
	</node>
	<node id="-68173" lat="61.1865527785" lon="6.77542777835">
		<tag k="name" v="Haugane" />
		<tag k="place" v="farm" />
		<tag k="ssr:stedsnr" v="580836" />
	</node>
	<node id="-68172" lat="61.1830932752" lon="6.79751678604">
		<tag k="loc_name" v="Hanahaug" />
		<tag k="name" v="Hanehaug" />
		<tag k="place" v="locality" />
		<tag k="ssr:stedsnr" v="580821" />
	</node>
	<node id="-68170" lat="61.2260055535" lon="6.75803055951">
		<tag k="name" v="Myklebruteigane" />
		<tag k="place" v="locality" />
		<tag k="ssr:stedsnr" v="580295" />
	</node>
	<node id="-68160" lat="61.213194442" lon="7.24892221575">
		<tag k="historic" v="shieling" />
		<tag k="name" v="Goro" />
		<tag k="place" v="locality" />
		<tag k="ssr:stedsnr" v="579084" />
	</node>
	<node id="-68154" lat="61.2290750035" lon="7.05025834153">
		<tag k="name" v="Nedre Kvålshagane" />
		<tag k="place" v="farm" />
		<tag k="ssr:stedsnr" v="578896" />
	</node>
	<node id="-66098" lat="61.2464638895" lon="7.09636944135">
		<tag k="name" v="Lysegalden" />
		<tag k="place" v="locality" />
		<tag k="ssr:stedsnr" v="699991" />
	</node>
	<node id="-66095" lat="61.1758416634" lon="6.972191673">
		<tag k="name" v="Frulauposete" />
		<tag k="place" v="locality" />
		<tag k="ssr:stedsnr" v="699634" />
	</node>
	<node id="-66092" lat="61.1953333295" lon="7.11726111108">
		<tag k="name" v="Åabergeteigen" />
		<tag k="place" v="locality" />
		<tag k="ssr:stedsnr" v="699544" />
	</node>
	<node id="-68139" lat="61.1479666638" lon="7.12489721824">
		<tag k="name" v="Indre Haukås" />
		<tag k="place" v="farm" />
		<tag k="ssr:stedsnr" v="578583" />
	</node>
	<node id="-68136" lat="61.195250001" lon="7.11091666053">
		<tag k="name" v="Kvaaleteigen" />
		<tag k="place" v="locality" />
		<tag k="ssr:stedsnr" v="578547" />
	</node>
	<node id="-68135" lat="61.2016833322" lon="7.17460000367">
		<tag k="name" v="Eidsbakken" />
		<tag k="place" v="farm" />
		<tag k="ssr:stedsnr" v="578532" />
	</node>
	<node id="-68128" lat="61.215446714" lon="6.98815318331">
		<tag k="fixme" v="consider place=hamlet" />
		<tag k="name" v="Midtun" />
		<tag k="place" v="farm" />
		<tag k="ssr:stedsnr" v="578457" />
	</node>
	<node id="-66075" lat="61.1974583313" lon="6.51493333887">
		<tag k="name" v="Sandsstølen" />
		<tag k="place" v="locality" />
		<tag k="ssr:stedsnr" v="531007" />
	</node>
	<node id="-66073" lat="61.3049166693" lon="6.5647472209">
		<tag k="name" v="Haugen" />
		<tag k="place" v="farm" />
		<tag k="ssr:stedsnr" v="530776" />
	</node>
	<node id="-68114" lat="61.3063916671" lon="6.64390832601">
		<tag k="historic" v="shieling" />
		<tag k="name" v="Bjørnahaug" />
		<tag k="place" v="locality" />
		<tag k="ssr:stedsnr" v="566656" />
	</node>
	<node id="-68111" lat="61.1424361125" lon="6.99511667078">
		<tag k="alt_name" v="Nyasæl" />
		<tag k="historic" v="shieling" />
		<tag k="name" v="Nyasel" />
		<tag k="place" v="locality" />
		<tag k="ssr:stedsnr" v="556531" />
	</node>
	<node id="-68108" lat="61.1492033515" lon="6.98143598755">
		<tag k="fixme" v="consider place=hamlet" />
		<tag k="name" v="Haug" />
		<tag k="place" v="farm" />
		<tag k="ssr:stedsnr" v="556023" />
	</node>
	<node id="-68106" lat="61.201186112" lon="6.69005277803">
		<tag k="name" v="Nygard" />
		<tag k="place" v="farm" />
		<tag k="ssr:stedsnr" v="555962" />
	</node>
	<node id="-66057" lat="61.3292888873" lon="6.72256111716">
		<tag k="historic" v="shieling" />
		<tag k="name" v="Jensdalen" />
		<tag k="place" v="locality" />
		<tag k="ssr:stedsnr" v="506655" />
	</node>
	<node id="-66056" lat="61.1894888922" lon="6.85626388308">
		<tag k="fixme" v="consider place=hamlet" />
		<tag k="name" v="Brundene" />
		<tag k="place" v="village" />
		<tag k="ssr:stedsnr" v="506487" />
	</node>
	<node id="-66054" lat="61.1760194432" lon="6.41593056286">
		<tag k="name" v="Igdedalen" />
		<tag k="place" v="locality" />
		<tag k="ssr:stedsnr" v="495734" />
	</node>
	<node id="-67329" lat="61.1961472249" lon="6.80954444518">
		<tag k="historic" v="shieling" />
		<tag k="name" v="Husabøstølen" />
		<tag k="place" v="locality" />
		<tag k="ssr:stedsnr" v="130887" />
	</node>
	<node id="-66050" lat="61.1786611103" lon="6.99138610434">
		<tag k="alt_name" v="Sitjane" />
		<tag k="historic" v="shieling" />
		<tag k="name" v="Sikjane" />
		<tag k="place" v="locality" />
		<tag k="ssr:stedsnr" v="495066" />
	</node>
	<node id="-67328" lat="61.1904277774" lon="6.72782223136">
		<tag k="historic" v="shieling" />
		<tag k="name" v="Orrasete" />
		<tag k="place" v="locality" />
		<tag k="ssr:stedsnr" v="130877" />
	</node>
	<node id="-68094" lat="61.2173873102" lon="6.5323360611">
		<tag k="fixme" v="consider place=hamlet" />
		<tag k="name" v="Gjerde" />
		<tag k="place" v="farm" />
		<tag k="ssr:stedsnr" v="555660" />
	</node>
	<node id="-68090" lat="61.182067403" lon="7.0153956068">
		<tag k="alt_name" v="Ylvesåker" />
		<tag k="fixme" v="consider place=hamlet" />
		<tag k="name" v="Ylvisåker" />
		<tag k="place" v="farm" />
		<tag k="ssr:stedsnr" v="555049" />
	</node>
	<node id="-66040" lat="61.2533861087" lon="6.87333333699">
		<tag k="historic" v="shieling" />
		<tag k="name" v="Hovden" />
		<tag k="place" v="locality" />
		<tag k="ssr:stedsnr" v="493177" />
	</node>
	<node id="-68087" lat="61.2009594482" lon="7.1804859842">
		<tag k="alt_name" v="Engseter" />
		<tag k="fixme" v="consider place=hamlet" />
		<tag k="name" v="Engjasete" />
		<tag k="place" v="farm" />
		<tag k="ssr:stedsnr" v="555036" />
	</node>
	<node id="-66036" lat="61.1312027799" lon="7.03198888169">
		<tag k="alt_name" v="Galdarap" />
		<tag k="name" v="Galdarabb" />
		<tag k="place" v="locality" />
		<tag k="ssr:stedsnr" v="678493" />
	</node>
	<node id="-66034" lat="61.2349444424" lon="6.93709443958">
		<tag k="historic" v="shieling" />
		<tag k="name" v="Furesete" />
		<tag k="place" v="locality" />
		<tag k="ssr:stedsnr" v="677976" />
	</node>
	<node id="-66030" lat="61.2231861146" lon="6.61400833852">
		<tag k="alt_name" v="Ruudstølen" />
		<tag k="historic" v="shieling" />
		<tag k="name" v="Rudsstølen" />
		<tag k="place" v="locality" />
		<tag k="ssr:stedsnr" v="677549" />
	</node>
	<node id="-66027" lat="61.2354027808" lon="6.85720000847">
		<tag k="historic" v="shieling" />
		<tag k="name" v="Flya" />
		<tag k="place" v="locality" />
		<tag k="ssr:stedsnr" v="677534" />
	</node>
	<node id="-66026" lat="61.2074833331" lon="7.20875278628">
		<tag k="alt_name" v="Hammarvoll" />
		<tag k="name" v="Hammarvollen" />
		<tag k="place" v="farm" />
		<tag k="ssr:stedsnr" v="677095" />
	</node>
	<node id="-66024" lat="61.2130916635" lon="7.04156943762">
		<tag k="alt_name" v="Øyrahagstølen" />
		<tag k="historic" v="shieling" />
		<tag k="name" v="Øyrahagestølen" />
		<tag k="place" v="locality" />
		<tag k="ssr:stedsnr" v="677084" />
	</node>
	<node id="-68070" lat="61.350332022" lon="6.74543291153">
		<tag k="fixme" v="consider place=hamlet" />
		<tag k="name" v="Viki" />
		<tag k="place" v="farm" />
		<tag k="ssr:stedsnr" v="553939" />
	</node>
	<node id="-67530" lat="61.2127138905" lon="6.63087223117">
		<tag k="name" v="Eitun" />
		<tag k="place" v="farm" />
		<tag k="ssr:stedsnr" v="202489" />
	</node>
	<node id="-66020" lat="61.2039666628" lon="7.21706944307">
		<tag k="name" v="Hola" />
		<tag k="place" v="farm" />
		<tag k="ssr:stedsnr" v="677034" />
	</node>
	<node id="-66019" lat="61.1984138859" lon="7.20589999318">
		<tag k="name" v="Haugen" />
		<tag k="place" v="farm" />
		<tag k="ssr:stedsnr" v="677032" />
	</node>
	<node id="-68065" lat="61.4259611096" lon="6.81099443567">
		<tag k="name" v="Dalakvina" />
		<tag k="place" v="locality" />
		<tag k="ssr:stedsnr" v="553892" />
	</node>
	<node id="-66011" lat="61.1995972214" lon="6.81114722853">
		<tag k="historic" v="shieling" />
		<tag k="name" v="Orrasete" />
		<tag k="place" v="locality" />
		<tag k="ssr:stedsnr" v="676892" />
	</node>
	<node id="-66008" lat="61.1115485943" lon="6.38059308819">
		<tag k="fixme" v="consider place=hamlet" />
		<tag k="name" v="Sæle" />
		<tag k="place" v="farm" />
		<tag k="ssr:stedsnr" v="676646" />
	</node>
	<node id="-66007" lat="61.199279644" lon="6.52932325296">
		<tag k="fixme" v="consider place=hamlet" />
		<tag k="name" v="Askelund" />
		<tag k="place" v="farm" />
		<tag k="ssr:stedsnr" v="676702" />
	</node>
	<node id="-68052" lat="61.2708416669" lon="7.05069444329">
		<tag k="alt_name" v="Uglaåsen" />
		<tag k="historic" v="shieling" />
		<tag k="name" v="Uglåsen" />
		<tag k="place" v="locality" />
		<tag k="ssr:stedsnr" v="553363" />
	</node>
	<node id="-68444" lat="61.2177500008" lon="6.75961945021">
		<tag k="alt_name" v="Hukestølen" />
		<tag k="historic" v="shieling" />
		<tag k="name" v="Huksstølane" />
		<tag k="place" v="locality" />
		<tag k="ssr:stedsnr" v="737959" />
	</node>
	<node id="-68050" lat="61.2869083377" lon="6.70615832807">
		<tag k="historic" v="shieling" />
		<tag k="name" v="Svingen" />
		<tag k="place" v="locality" />
		<tag k="ssr:stedsnr" v="553231" />
	</node>
	<node id="-68049" lat="61.2542543153" lon="7.02288662714">
		<tag k="fixme" v="consider place=hamlet" />
		<tag k="name" v="Notsete" />
		<tag k="place" v="farm" />
		<tag k="ssr:stedsnr" v="553345" />
	</node>
	<node id="-68048" lat="61.2723416693" lon="7.01545556008">
		<tag k="alt_name" v="Hundershagen" />
		<tag k="name" v="Hundærshagen" />
		<tag k="place" v="farm" />
		<tag k="ssr:stedsnr" v="553321" />
	</node>
	<node id="-68045" lat="61.2931694439" lon="6.64018888679">
		<tag k="historic" v="shieling" />
		<tag k="name" v="Fjellstølen" />
		<tag k="place" v="locality" />
		<tag k="ssr:stedsnr" v="553228" />
	</node>
	<node id="-68043" lat="61.3352245756" lon="6.93387523004">
		<tag k="fixme" v="consider place=hamlet" />
		<tag k="name" v="Selseng" />
		<tag k="place" v="farm" />
		<tag k="ssr:stedsnr" v="553178" />
	</node>
	<node id="-65994" lat="61.3079878237" lon="6.57062453077">
		<tag k="fixme" v="consider place=hamlet" />
		<tag k="name" v="Feten" />
		<tag k="place" v="farm" />
		<tag k="ssr:stedsnr" v="675783" />
	</node>
	<node id="-66295" lat="61.2799000027" lon="7.15260834164">
		<tag k="name" v="Berget" />
		<tag k="place" v="farm" />
		<tag k="ssr:stedsnr" v="735333" />
	</node>
	<node id="-68037" lat="61.1609833363" lon="6.96577777918">
		<tag k="name" v="Gamleplassen" />
		<tag k="place" v="isolated_dwelling" />
		<tag k="ssr:stedsnr" v="541017" />
	</node>
	<node id="-68035" lat="61.2877888868" lon="7.15942500494">
		<tag k="name" v="Maurahagen" />
		<tag k="place" v="farm" />
		<tag k="ssr:stedsnr" v="540633" />
	</node>
	<node id="-68034" lat="61.2083833325" lon="6.99465000633">
		<tag k="name" v="Hjelmasete" />
		<tag k="place" v="farm" />
		<tag k="ssr:stedsnr" v="540437" />
	</node>
	<node id="-65984" lat="61.3007611116" lon="7.02000833477">
		<tag k="historic" v="shieling" />
		<tag k="name" v="Stepin" />
		<tag k="place" v="locality" />
		<tag k="ssr:stedsnr" v="675447" />
	</node>
	<node id="-65983" lat="61.2678004469" lon="7.0301484337">
		<tag k="alt_name" v="Ruggeseter" />
		<tag k="fixme" v="consider place=hamlet" />
		<tag k="name" v="Ruggesete" />
		<tag k="place" v="farm" />
		<tag k="ssr:stedsnr" v="675400" />
	</node>
	<node id="-65982" lat="61.2758472189" lon="7.1431833254">
		<tag k="name" v="Kleivane" />
		<tag k="place" v="locality" />
		<tag k="ssr:stedsnr" v="675396" />
	</node>
	<node id="-65979" lat="61.2566027801" lon="7.08879444625">
		<tag k="alt_name" v="Hylsete" />
		<tag k="historic" v="shieling" />
		<tag k="name" v="Hølsete" />
		<tag k="place" v="locality" />
		<tag k="ssr:stedsnr" v="675375" />
	</node>
	<node id="-65978" lat="61.2647208451" lon="7.13875625374">
		<tag k="fixme" v="consider place=hamlet" />
		<tag k="name" v="England" />
		<tag k="place" v="farm" />
		<tag k="ssr:stedsnr" v="675373" />
	</node>
	<node id="-65977" lat="61.2800833355" lon="6.99584167525">
		<tag k="name" v="Kollsete" />
		<tag k="place" v="farm" />
		<tag k="ssr:stedsnr" v="675361" />
	</node>
	<node id="-65976" lat="61.2791972266" lon="6.97380554912">
		<tag k="historic" v="shieling" />
		<tag k="name" v="Kollsetestølen" />
		<tag k="place" v="locality" />
		<tag k="ssr:stedsnr" v="675358" />
	</node>
	<node id="-65975" lat="61.3236365354" lon="6.9320771522">
		<tag k="fixme" v="consider place=hamlet" />
		<tag k="name" v="Gunvordal" />
		<tag k="place" v="farm" />
		<tag k="ssr:stedsnr" v="675247" />
	</node>
	<node id="-65974" lat="61.3217305522" lon="6.91685555195">
		<tag k="historic" v="shieling" />
		<tag k="name" v="Gunvordalsstølen" />
		<tag k="place" v="locality" />
		<tag k="ssr:stedsnr" v="675245" />
	</node>
	<node id="-65973" lat="61.3277255699" lon="6.96493930732">
		<tag k="fixme" v="consider place=hamlet" />
		<tag k="name" v="Kvam" />
		<tag k="place" v="farm" />
		<tag k="ssr:stedsnr" v="675238" />
	</node>
	<node id="-65971" lat="61.2935500003" lon="6.6814972147">
		<tag k="name" v="Ramsnes" />
		<tag k="place" v="locality" />
		<tag k="ssr:stedsnr" v="675277" />
	</node>
	<node id="-65970" lat="61.284881658" lon="6.64866990049">
		<tag k="fixme" v="consider place=hamlet" />
		<tag k="name" v="Hammarsnes" />
		<tag k="place" v="farm" />
		<tag k="ssr:stedsnr" v="675276" />
	</node>
	<node id="-65969" lat="61.323855557" lon="6.72735833826">
		<tag k="historic" v="shieling" />
		<tag k="name" v="Nyanstølen" />
		<tag k="place" v="locality" />
		<tag k="ssr:stedsnr" v="675230" />
	</node>
	<node id="-65966" lat="61.2152000008" lon="6.54711944211">
		<tag k="name" v="Tjugane" />
		<tag k="place" v="isolated_dwelling" />
		<tag k="ssr:stedsnr" v="479266" />
	</node>
	<node id="-65965" lat="61.2354188138" lon="7.07534491943">
		<tag k="fixme" v="consider place=hamlet" />
		<tag k="name" v="Haug" />
		<tag k="place" v="farm" />
		<tag k="ssr:stedsnr" v="479052" />
	</node>
	<node id="-65964" lat="61.3244944448" lon="6.73648888769">
		<tag k="historic" v="shieling" />
		<tag k="name" v="Røysete" />
		<tag k="place" v="locality" />
		<tag k="ssr:stedsnr" v="736216" />
	</node>
	<node id="-65963" lat="61.3355972262" lon="6.92154167289">
		<tag k="name" v="Stomnasete" />
		<tag k="place" v="locality" />
		<tag k="ssr:stedsnr" v="736206" />
	</node>
	<node id="-65962" lat="61.2596916681" lon="6.86371389448">
		<tag k="historic" v="shieling" />
		<tag k="name" v="Nyastølen" />
		<tag k="place" v="locality" />
		<tag k="ssr:stedsnr" v="736162" />
	</node>
	<node id="-65954" lat="61.2123325406" lon="7.13168652778">
		<tag k="name" v="Stølen" />
		<tag k="place" v="locality" />
		<tag k="ssr:stedsnr" v="457510" />
	</node>
	<node id="-65948" lat="61.2132805529" lon="7.12983334124">
		<tag k="name" v="Kjørnes" />
		<tag k="place" v="quarter" />
		<tag k="ssr:stedsnr" v="660642" />
	</node>
	<node id="-67993" lat="61.423236108" lon="6.74320556431">
		<tag k="historic" v="shieling" />
		<tag k="name" v="Øyestølen" />
		<tag k="place" v="locality" />
		<tag k="ssr:stedsnr" v="519965" />
	</node>
	<node id="-67988" lat="61.2074249965" lon="6.61263056488">
		<tag k="name" v="Sanden" />
		<tag k="place" v="farm" />
		<tag k="ssr:stedsnr" v="435000" />
	</node>
	<node id="-67310" lat="61.2433277758" lon="6.92791665937">
		<tag k="historic" v="shieling" />
		<tag k="name" v="Myrbeinsete" />
		<tag k="place" v="locality" />
		<tag k="ssr:stedsnr" v="130523" />
	</node>
	<node id="-67982" lat="61.2148888848" lon="6.6455138838">
		<tag k="alt_name" v="Myrset" />
		<tag k="historic" v="shieling" />
		<tag k="name" v="Myrsete" />
		<tag k="place" v="locality" />
		<tag k="ssr:stedsnr" v="434943" />
	</node>
	<node id="-67980" lat="61.1834976335" lon="6.76304276339">
		<tag k="fixme" v="consider place=hamlet" />
		<tag k="name" v="Fosshagen" />
		<tag k="place" v="farm" />
		<tag k="ssr:stedsnr" v="434929" />
	</node>
	<node id="-67979" lat="61.1824665805" lon="6.78950776463">
		<tag k="fixme" v="consider place=hamlet" />
		<tag k="name" v="Indre Hamre" />
		<tag k="place" v="farm" />
		<tag k="ssr:stedsnr" v="434928" />
	</node>
	<node id="-65929" lat="61.1885638857" lon="7.07073333513">
		<tag k="name" v="Øyrateigen" />
		<tag k="place" v="locality" />
		<tag k="ssr:stedsnr" v="518563" />
	</node>
	<node id="-67254" lat="61.2336138906" lon="6.47708888064">
		<tag k="name" v="Bysete" />
		<tag k="place" v="isolated_dwelling" />
		<tag k="ssr:stedsnr" v="106793" />
	</node>
	<node id="-67971" lat="61.1941941304" lon="7.23200102757">
		<tag k="fixme" v="consider place=hamlet" />
		<tag k="name" v="Kjøpstad" />
		<tag k="place" v="farm" />
		<tag k="ssr:stedsnr" v="435071" />
	</node>
	<node id="-67970" lat="61.1893472267" lon="7.20068611523">
		<tag k="alt_name" v="Bjørka-vårstøl" />
		<tag k="historic" v="shieling" />
		<tag k="name" v="Bjørkestølen" />
		<tag k="place" v="locality" />
		<tag k="ssr:stedsnr" v="435068" />
	</node>
	<node id="-65921" lat="61.248224999" lon="7.11472221339">
		<tag k="name" v="Kvam" />
		<tag k="place" v="farm" />
		<tag k="ssr:stedsnr" v="435117" />
	</node>
	<node id="-65918" lat="61.1601300637" lon="6.97013455959">
		<tag k="fixme" v="consider place=hamlet" />
		<tag k="name" v="Lomelde" />
		<tag k="place" v="farm" />
		<tag k="ssr:stedsnr" v="435027" />
	</node>
	<node id="-67965" lat="61.1619361065" lon="6.94147499137">
		<tag k="name" v="Indre Slinda" />
		<tag k="place" v="locality" />
		<tag k="ssr:stedsnr" v="434799" />
	</node>
	<node id="-67962" lat="61.1867916654" lon="6.70875277835">
		<tag k="name" v="Verken" />
		<tag k="place" v="farm" />
		<tag k="ssr:stedsnr" v="434850" />
	</node>
	<node id="-65913" lat="61.1815444448" lon="7.26407222534">
		<tag k="name" v="Nybø" />
		<tag k="place" v="farm" />
		<tag k="ssr:stedsnr" v="435005" />
	</node>
	<node id="-67958" lat="61.200961115" lon="6.50578056455">
		<tag k="historic" v="shieling" />
		<tag k="name" v="Fjerestadstølen" />
		<tag k="place" v="locality" />
		<tag k="ssr:stedsnr" v="434673" />
	</node>
	<node id="-67957" lat="61.2203583356" lon="6.31611388349">
		<tag k="historic" v="shieling" />
		<tag k="name" v="Balestrandstølen" />
		<tag k="place" v="locality" />
		<tag k="ssr:stedsnr" v="434666" />
	</node>
	<node id="-67956" lat="61.2181467692" lon="6.524193963">
		<tag k="fixme" v="consider place=hamlet" />
		<tag k="name" v="Grøneng" />
		<tag k="place" v="farm" />
		<tag k="ssr:stedsnr" v="434665" />
	</node>
	<node id="-67954" lat="61.1202166653" lon="6.3830750043">
		<tag k="historic" v="shieling" />
		<tag k="name" v="Lindestølen" />
		<tag k="place" v="locality" />
		<tag k="ssr:stedsnr" v="434645" />
	</node>
	<node id="-65905" lat="61.3533027803" lon="6.65992221746">
		<tag k="name" v="Gamlegarden" />
		<tag k="place" v="locality" />
		<tag k="ssr:stedsnr" v="433935" />
	</node>
	<node id="-67951" lat="61.2089527747" lon="7.02858889148">
		<tag k="historic" v="shieling" />
		<tag k="name" v="Alpastølen" />
		<tag k="place" v="locality" />
		<tag k="ssr:stedsnr" v="434065" />
	</node>
	<node id="-65902" lat="61.3024472211" lon="7.00696110553">
		<tag k="name" v="Vassenden" />
		<tag k="place" v="farm" />
		<tag k="ssr:stedsnr" v="433413" />
	</node>
	<node id="-65899" lat="61.3180333373" lon="6.95599722395">
		<tag k="historic" v="shieling" />
		<tag k="name" v="Øvste Teigane" />
		<tag k="place" v="locality" />
		<tag k="ssr:stedsnr" v="433214" />
	</node>
	<node id="-65898" lat="61.3118249996" lon="6.64590555916">
		<tag k="historic" v="shieling" />
		<tag k="name" v="Teigastølen" />
		<tag k="place" v="locality" />
		<tag k="ssr:stedsnr" v="433203" />
	</node>
	<node id="-65896" lat="61.2342635178" lon="7.09029956224">
		<tag k="fixme" v="consider place=hamlet" />
		<tag k="name" v="Rutlin" />
		<tag k="place" v="farm" />
		<tag k="ssr:stedsnr" v="517999" />
	</node>
	<node id="-67937" lat="61.2521666662" lon="6.99305276935">
		<tag k="historic" v="shieling" />
		<tag k="name" v="Hausastølen" />
		<tag k="place" v="locality" />
		<tag k="ssr:stedsnr" v="433268" />
	</node>
	<node id="-65888" lat="61.2859748828" lon="6.54755081245">
		<tag k="alt_name" v="Bjørkatun;Hjetland" />
		<tag k="name" v="Bjørketun" />
		<tag k="place" v="farm" />
		<tag k="ssr:stedsnr" v="432753" />
	</node>
	<node id="-65887" lat="61.276458334" lon="6.50078333046">
		<tag k="name" v="Sværen" />
		<tag k="place" v="hamlet" />
		<tag k="ssr:stedsnr" v="432748" />
	</node>
	<node id="-65886" lat="61.1192027749" lon="6.98657778091">
		<tag k="name" v="Tretteteigen" />
		<tag k="place" v="locality" />
		<tag k="ssr:stedsnr" v="517860" />
	</node>
	<node id="-67933" lat="61.346622226" lon="6.87426666093">
		<tag k="historic" v="shieling" />
		<tag k="name" v="Haugen" />
		<tag k="place" v="locality" />
		<tag k="ssr:stedsnr" v="432956" />
	</node>
	<node id="-65883" lat="61.2690999963" lon="7.12069444359">
		<tag k="alt_name" v="Imesdal-stølen" />
		<tag k="historic" v="shieling" />
		<tag k="name" v="Imesdal" />
		<tag k="place" v="locality" />
		<tag k="ssr:stedsnr" v="432342" />
	</node>
	<node id="-67929" lat="61.2518388892" lon="6.93190556364">
		<tag k="alt_name" v="Fjærlandsete" />
		<tag k="historic" v="shieling" />
		<tag k="name" v="Fjærlandssete" />
		<tag k="place" v="locality" />
		<tag k="ssr:stedsnr" v="433157" />
	</node>
	<node id="-65880" lat="61.2793666708" lon="7.02859721801">
		<tag k="historic" v="shieling" />
		<tag k="name" v="Stokksete" />
		<tag k="place" v="locality" />
		<tag k="ssr:stedsnr" v="432310" />
	</node>
	<node id="-67927" lat="61.2894214825" lon="7.00005448027">
		<tag k="historic" v="shieling" />
		<tag k="name" v="Høljarvollen" />
		<tag k="place" v="locality" />
		<tag k="ssr:stedsnr" v="432395" />
	</node>
	<node id="-65878" lat="61.3199611093" lon="6.99370554964">
		<tag k="name" v="Solhaug" />
		<tag k="place" v="farm" />
		<tag k="ssr:stedsnr" v="517243" />
	</node>
	<node id="-67924" lat="61.2681777765" lon="6.95037776907">
		<tag k="name" v="Fagreggi" />
		<tag k="place" v="isolated_dwelling" />
		<tag k="ssr:stedsnr" v="432149" />
	</node>
	<node id="-67923" lat="61.2658888855" lon="6.6061416578">
		<tag k="historic" v="shieling" />
		<tag k="name" v="Kulestad" />
		<tag k="place" v="locality" />
		<tag k="ssr:stedsnr" v="432145" />
	</node>
	<node id="-67920" lat="61.2793888849" lon="6.93289166771">
		<tag k="name" v="Rysete" />
		<tag k="place" v="locality" />
		<tag k="ssr:stedsnr" v="432125" />
	</node>
	<node id="-67915" lat="61.1958250022" lon="6.81671388751">
		<tag k="historic" v="shieling" />
		<tag k="name" v="Kleppa" />
		<tag k="place" v="locality" />
		<tag k="ssr:stedsnr" v="421891" />
	</node>
	<node id="-67911" lat="61.23098056" lon="7.07902221735">
		<tag k="leisure" v="pitch" />
		<tag k="name" v="Kvåle stadion" />
		<tag k="ssr:stedsnr" v="418982" />
	</node>
	<node id="-65861" lat="61.2074499997" lon="6.59803332423">
		<tag k="name" v="Hella" />
		<tag k="place" v="hamlet" />
		<tag k="ssr:stedsnr" v="394633" />
	</node>
	<node id="-65860" lat="61.2290749963" lon="7.0967444396">
		<tag k="name" v="Sogndal" />
		<tag k="place" v="village" />
		<tag k="ssr:stedsnr" v="374075" />
	</node>
	<node id="-65858" lat="61.1919625456" lon="7.21087679582">
		<tag k="fixme" v="consider place=hamlet" />
		<tag k="name" v="Bjørk" />
		<tag k="place" v="farm" />
		<tag k="ssr:stedsnr" v="374060" />
	</node>
	<node id="-65854" lat="61.2243388928" lon="6.776922217">
		<tag k="historic" v="shieling" />
		<tag k="name" v="Dalsete" />
		<tag k="place" v="locality" />
		<tag k="ssr:stedsnr" v="373968" />
	</node>
	<node id="-68102" lat="61.2162805598" lon="7.1935611096">
		<tag k="alt_name" v="Vestreim vårstøl" />
		<tag k="historic" v="shieling" />
		<tag k="name" v="Vestreimsstølen" />
		<tag k="place" v="locality" />
		<tag k="ssr:stedsnr" v="556094" />
	</node>
	<node id="-65852" lat="61.222363886" lon="6.73788889217">
		<tag k="historic" v="shieling" />
		<tag k="name" v="Steinsete" />
		<tag k="place" v="locality" />
		<tag k="ssr:stedsnr" v="373962" />
	</node>
	<node id="-65847" lat="61.1516229784" lon="6.96453134055">
		<tag k="fixme" v="consider place=hamlet" />
		<tag k="name" v="Fimreite" />
		<tag k="place" v="farm" />
		<tag k="ssr:stedsnr" v="373822" />
	</node>
	<node id="-65846" lat="61.1290111114" lon="6.47371388562">
		<tag k="name" v="Livdi" />
		<tag k="place" v="farm" />
		<tag k="ssr:stedsnr" v="373668" />
	</node>
	<node id="-65845" lat="61.2158000016" lon="6.55809443617">
		<tag k="name" v="Lundsviki" />
		<tag k="place" v="farm" />
		<tag k="ssr:stedsnr" v="373725" />
	</node>
	<node id="-65843" lat="61.220602068" lon="6.50372478841">
		<tag k="fixme" v="consider place=hamlet" />
		<tag k="name" v="Skrednes" />
		<tag k="place" v="farm" />
		<tag k="ssr:stedsnr" v="373714" />
	</node>
	<node id="-65839" lat="61.2397972243" lon="6.836511106">
		<tag k="historic" v="shieling" />
		<tag k="name" v="Sevi" />
		<tag k="place" v="locality" />
		<tag k="ssr:stedsnr" v="373560" />
	</node>
	<node id="-65838" lat="61.2042975583" lon="7.24078182669">
		<tag k="fixme" v="consider place=hamlet" />
		<tag k="name" v="Dalåker" />
		<tag k="place" v="farm" />
		<tag k="ssr:stedsnr" v="373070" />
	</node>
	<node id="-65837" lat="61.2072666673" lon="7.04492778686">
		<tag k="name" v="Viland" />
		<tag k="place" v="farm" />
		<tag k="ssr:stedsnr" v="373065" />
	</node>
	<node id="-65836" lat="61.2101083303" lon="7.05631388003">
		<tag k="alt_name" v="Vetlehagen" />
		<tag k="name" v="Veslehagen" />
		<tag k="place" v="farm" />
		<tag k="ssr:stedsnr" v="373063" />
	</node>
	<node id="-65835" lat="61.3777402922" lon="6.75107451981">
		<tag k="fixme" v="consider place=hamlet" />
		<tag k="name" v="Bjåstad" />
		<tag k="place" v="farm" />
		<tag k="ssr:stedsnr" v="372977" />
	</node>
	<node id="-65833" lat="61.3326283212" lon="6.56497032648">
		<tag k="fixme" v="consider place=hamlet" />
		<tag k="name" v="Langateig" />
		<tag k="place" v="farm" />
		<tag k="ssr:stedsnr" v="372805" />
	</node>
	<node id="-65831" lat="61.2635638867" lon="7.02867222371">
		<tag k="name" v="Middalen" />
		<tag k="place" v="farm" />
		<tag k="ssr:stedsnr" v="372379" />
	</node>
	<node id="-65830" lat="61.2496736048" lon="7.02205942607">
		<tag k="alt_name" v="Tylden" />
		<tag k="fixme" v="consider place=hamlet" />
		<tag k="name" v="Tylda" />
		<tag k="place" v="farm" />
		<tag k="ssr:stedsnr" v="372303" />
	</node>
	<node id="-65823" lat="61.3354353357" lon="6.71978095634">
		<tag k="fixme" v="consider place=hamlet" />
		<tag k="name" v="Lidal" />
		<tag k="place" v="farm" />
		<tag k="ssr:stedsnr" v="371965" />
	</node>
	<node id="-67866" lat="61.423644446" lon="6.75319721718">
		<tag k="name" v="Svalunden" />
		<tag k="place" v="farm" />
		<tag k="ssr:stedsnr" v="397968" />
	</node>
	<node id="-65817" lat="61.2686472257" lon="7.0442666677">
		<tag k="historic" v="shieling" />
		<tag k="name" v="Kråi" />
		<tag k="place" v="locality" />
		<tag k="ssr:stedsnr" v="371354" />
	</node>
	<node id="-65816" lat="61.2808666658" lon="7.13518054702">
		<tag k="historic" v="shieling" />
		<tag k="name" v="Ølnesstølen" />
		<tag k="old_name" v="Ølnesstølan" />
		<tag k="place" v="locality" />
		<tag k="ssr:stedsnr" v="371314" />
	</node>
	<node id="-66432" lat="61.201761115" lon="6.47221666282">
		<tag k="name" v="Vårstølen" />
		<tag k="place" v="locality" />
		<tag k="ssr:stedsnr" v="713044" />
	</node>
	<node id="-65810" lat="61.2650527744" lon="6.59538610584">
		<tag k="historic" v="shieling" />
		<tag k="name" v="Ospeskori" />
		<tag k="place" v="locality" />
		<tag k="ssr:stedsnr" v="371121" />
	</node>
	<node id="-67856" lat="61.1832817984" lon="7.23632046903">
		<tag k="alt_name" v="Kaupanger hovedgård" />
		<tag k="fixme" v="consider place=hamlet" />
		<tag k="name" v="Kaupanger herregard" />
		<tag k="place" v="farm" />
		<tag k="ssr:stedsnr" v="397569" />
	</node>
	<node id="-65818" lat="61.3557694442" lon="6.54419999067">
		<tag k="alt_name" v="Furhaugstølen" />
		<tag k="historic" v="shieling" />
		<tag k="name" v="Furehaugen" />
		<tag k="place" v="locality" />
		<tag k="ssr:stedsnr" v="371718" />
	</node>
	<node id="-65806" lat="61.1556722256" lon="7.10791111341">
		<tag k="historic" v="shieling" />
		<tag k="name" v="Skogasete" />
		<tag k="place" v="locality" />
		<tag k="ssr:stedsnr" v="495486" />
	</node>
	<node id="-68653" lat="61.160908481" lon="6.93706232868">
		<tag k="name" v="Kleivi" />
		<tag k="place" v="farm" />
		<tag k="ssr:stedsnr" v="821796" />
	</node>
	<node id="-65804" lat="61.2334106339" lon="7.11574606024">
		<tag k="fixme" v="consider place=hamlet" />
		<tag k="name" v="Nes" />
		<tag k="place" v="farm" />
		<tag k="ssr:stedsnr" v="495133" />
	</node>
	<node id="-65799" lat="61.1605041922" lon="6.9887965499">
		<tag k="fixme" v="consider place=hamlet" />
		<tag k="name" v="Nornes" />
		<tag k="place" v="farm" />
		<tag k="ssr:stedsnr" v="495025" />
	</node>
	<node id="-67318" lat="61.1813756718" lon="6.86359913496">
		<tag k="fixme" v="consider place=hamlet" />
		<tag k="name" v="Njøs" />
		<tag k="place" v="farm" />
		<tag k="ssr:stedsnr" v="130923" />
	</node>
	<node id="-67845" lat="61.3194166692" lon="6.86631943677">
		<tag k="historic" v="shieling" />
		<tag k="name" v="Nystølen" />
		<tag k="place" v="locality" />
		<tag k="ssr:stedsnr" v="396941" />
	</node>
	<node id="-65795" lat="61.2052472376" lon="7.01170643411">
		<tag k="fixme" v="consider place=hamlet" />
		<tag k="name" v="Uglane" />
		<tag k="place" v="farm" />
		<tag k="ssr:stedsnr" v="495101" />
	</node>
	<node id="-65794" lat="61.2088527809" lon="7.05093611682">
		<tag k="alt_name" v="Øyrehagen" />
		<tag k="name" v="Øyrahagen" />
		<tag k="place" v="farm" />
		<tag k="ssr:stedsnr" v="495094" />
	</node>
	<node id="-65793" lat="61.2169083341" lon="7.12444443923">
		<tag k="name" v="Hagalandet" />
		<tag k="place" v="farm" />
		<tag k="ssr:stedsnr" v="495091" />
	</node>
	<node id="-65792" lat="61.2206111077" lon="7.17500833234">
		<tag k="historic" v="shieling" />
		<tag k="name" v="Valebergstølen" />
		<tag k="place" v="locality" />
		<tag k="ssr:stedsnr" v="495087" />
	</node>
	<node id="-67831" lat="61.1289694471" lon="6.9810027707">
		<tag k="historic" v="shieling" />
		<tag k="name" v="Åsstølen" />
		<tag k="place" v="locality" />
		<tag k="ssr:stedsnr" v="396699" />
	</node>
	<node id="-65780" lat="61.3705333353" lon="6.64572222597">
		<tag k="name" v="Bjørkehaugane" />
		<tag k="place" v="locality" />
		<tag k="ssr:stedsnr" v="493985" />
	</node>
	<node id="-65778" lat="61.3462861125" lon="6.90469444699">
		<tag k="historic" v="shieling" />
		<tag k="name" v="Frudalsvollen" />
		<tag k="place" v="locality" />
		<tag k="ssr:stedsnr" v="493960" />
	</node>
	<node id="-65776" lat="61.3471388902" lon="6.66664721429">
		<tag k="historic" v="shieling" />
		<tag k="name" v="Heimastølen" />
		<tag k="place" v="locality" />
		<tag k="ssr:stedsnr" v="493957" />
	</node>
	<node id="-67816" lat="61.3251222251" lon="6.98176111055">
		<tag k="name" v="Kvamshagen" />
		<tag k="place" v="farm" />
		<tag k="ssr:stedsnr" v="396225" />
	</node>
	<node id="-65766" lat="61.2506055515" lon="6.540591663">
		<tag k="name" v="Vetlestølen" />
		<tag k="place" v="locality" />
		<tag k="ssr:stedsnr" v="493882" />
	</node>
	<node id="-67281" lat="61.2613277763" lon="6.87703054771">
		<tag k="name" v="Trastå" />
		<tag k="place" v="isolated_dwelling" />
		<tag k="ssr:stedsnr" v="129174" />
	</node>
	<node id="-67808" lat="61.4250972188" lon="6.75462499334">
		<tag k="name" v="Kråna" />
		<tag k="place" v="farm" />
		<tag k="ssr:stedsnr" v="391192" />
	</node>
	<node id="-65759" lat="61.4729222198" lon="6.74119166441">
		<tag k="historic" v="shieling" />
		<tag k="name" v="Holten" />
		<tag k="place" v="locality" />
		<tag k="ssr:stedsnr" v="493835" />
	</node>
	<node id="-65756" lat="61.298022219" lon="6.56444444756">
		<tag k="fixme" v="consider place=hamlet" />
		<tag k="name" v="Vetlefjorden" />
		<tag k="place" v="village" />
		<tag k="ssr:stedsnr" v="493798" />
	</node>
	<node id="-67803" lat="61.2487234822" lon="7.13695536942">
		<tag k="name" v="Skakhaugen" />
		<tag k="place" v="farm" />
		<tag k="ssr:stedsnr" v="374169" />
	</node>
	<node id="-67801" lat="61.2102888889" lon="7.0137416721">
		<tag k="historic" v="shieling" />
		<tag k="name" v="Vatlestadstølen" />
		<tag k="place" v="locality" />
		<tag k="ssr:stedsnr" v="374086" />
	</node>
	<node id="-67800" lat="61.2059527746" lon="6.73889723103">
		<tag k="historic" v="shieling" />
		<tag k="name" v="Vegaskilvollen" />
		<tag k="place" v="locality" />
		<tag k="ssr:stedsnr" v="373994" />
	</node>
	<node id="-67799" lat="61.2242249965" lon="7.02601388888">
		<tag k="historic" v="shieling" />
		<tag k="name" v="Slakken" />
		<tag k="place" v="locality" />
		<tag k="ssr:stedsnr" v="374130" />
	</node>
	<node id="-67798" lat="61.1905402634" lon="7.04993312527">
		<tag k="alt_name" v="Venes" />
		<tag k="fixme" v="consider place=hamlet" />
		<tag k="name" v="Vines" />
		<tag k="place" v="farm" />
		<tag k="ssr:stedsnr" v="374051" />
	</node>
	<node id="-67961" lat="61.1847965779" lon="6.74918280014">
		<tag k="fixme" v="consider place=hamlet" />
		<tag k="name" v="Huke" />
		<tag k="place" v="farm" />
		<tag k="ssr:stedsnr" v="434843" />
	</node>
	<node id="-65748" lat="61.3382909015" lon="6.99164557776">
		<tag k="historic" v="shieling" />
		<tag k="name" v="Grøssete" />
		<tag k="place" v="locality" />
		<tag k="ssr:stedsnr" v="493433" />
	</node>
	<node id="-65747" lat="61.2964361129" lon="6.98682500778">
		<tag k="historic" v="shieling" />
		<tag k="name" v="Hodlekvestølen" />
		<tag k="place" v="locality" />
		<tag k="ssr:stedsnr" v="493420" />
	</node>
	<node id="-65745" lat="61.3139861138" lon="6.97481111914">
		<tag k="name" v="Håvardstølen" />
		<tag k="place" v="locality" />
		<tag k="ssr:stedsnr" v="493393" />
	</node>
	<node id="-65743" lat="61.2754527776" lon="7.02854445218">
		<tag k="name" v="Tråna" />
		<tag k="place" v="isolated_dwelling" />
		<tag k="ssr:stedsnr" v="493340" />
	</node>
	<node id="-67789" lat="61.1839402264" lon="6.74717317568">
		<tag k="fixme" v="consider place=hamlet" />
		<tag k="name" v="Holene" />
		<tag k="place" v="farm" />
		<tag k="ssr:stedsnr" v="373879" />
	</node>
	<node id="-65739" lat="61.3087888924" lon="6.65618055456">
		<tag k="historic" v="shieling" />
		<tag k="name" v="Åsen" />
		<tag k="place" v="locality" />
		<tag k="ssr:stedsnr" v="493230" />
	</node>
	<node id="-65738" lat="61.3165833363" lon="6.73657221903">
		<tag k="historic" v="shieling" />
		<tag k="name" v="Myrsete" />
		<tag k="place" v="locality" />
		<tag k="ssr:stedsnr" v="493216" />
	</node>
	<node id="-65737" lat="61.2782169684" lon="6.61914296832">
		<tag k="historic" v="shieling" />
		<tag k="name" v="Kvilesteinshola" />
		<tag k="place" v="locality" />
		<tag k="ssr:stedsnr" v="493147" />
	</node>
	<node id="-67783" lat="61.2304900613" lon="6.59211446815">
		<tag k="fixme" v="consider place=hamlet" />
		<tag k="name" v="Tenningåsen" />
		<tag k="place" v="farm" />
		<tag k="ssr:stedsnr" v="373296" />
	</node>
	<node id="-65910" lat="61.1162194457" lon="6.4209666696">
		<tag k="name" v="Lindehagen" />
		<tag k="place" v="farm" />
		<tag k="ssr:stedsnr" v="434641" />
	</node>
	<node id="-65730" lat="61.2872222259" lon="7.01668055063">
		<tag k="alt_name" v="Orrestadstølen" />
		<tag k="historic" v="shieling" />
		<tag k="name" v="Orrastadstølen" />
		<tag k="place" v="locality" />
		<tag k="ssr:stedsnr" v="492395" />
	</node>
	<node id="-65729" lat="61.1898333334" lon="7.21240000595">
		<tag k="name" v="Søre Bjørk" />
		<tag k="place" v="farm" />
		<tag k="ssr:stedsnr" v="358328" />
	</node>
	<node id="-67776" lat="61.4831166639" lon="6.84843889131">
		<tag k="historic" v="shieling" />
		<tag k="name" v="Mikjelsstølen" />
		<tag k="place" v="locality" />
		<tag k="ssr:stedsnr" v="372842" />
	</node>
	<node id="-67793" lat="61.208463887" lon="6.87455832945">
		<tag k="historic" v="shieling" />
		<tag k="name" v="Skagasete" />
		<tag k="place" v="locality" />
		<tag k="ssr:stedsnr" v="373981" />
	</node>
	<node id="-67766" lat="61.436765354" lon="6.75529857675">
		<tag k="fixme" v="consider place=hamlet" />
		<tag k="name" v="Bøyum" />
		<tag k="place" v="farm" />
		<tag k="ssr:stedsnr" v="371932" />
	</node>
	<node id="-66249" lat="61.346994448" lon="6.87179166936">
		<tag k="historic" v="shieling" />
		<tag k="name" v="Frudalen" />
		<tag k="place" v="locality" />
		<tag k="ssr:stedsnr" v="614961" />
	</node>
	<node id="-67760" lat="61.287889042" lon="7.00857681894">
		<tag k="historic" v="shieling" />
		<tag k="name" v="Gorvinsstølen" />
		<tag k="place" v="locality" />
		<tag k="ssr:stedsnr" v="371394" />
	</node>
	<node id="-68296" lat="61.2482138903" lon="6.9780000074">
		<tag k="alt_name" v="Drevdalen" />
		<tag k="historic" v="shieling" />
		<tag k="name" v="Drivdal" />
		<tag k="place" v="locality" />
		<tag k="ssr:stedsnr" v="616137" />
	</node>
	<node id="-67757" lat="61.2675067651" lon="7.1613500914">
		<tag k="fixme" v="consider place=hamlet" />
		<tag k="name" v="Nagløyri" />
		<tag k="place" v="farm" />
		<tag k="ssr:stedsnr" v="371342" />
	</node>
	<node id="-67756" lat="61.2572711854" lon="7.00731097393">
		<tag k="fixme" v="consider place=hamlet" />
		<tag k="name" v="Resaland" />
		<tag k="place" v="farm" />
		<tag k="ssr:stedsnr" v="371338" />
	</node>
	<node id="-67755" lat="61.2580666647" lon="7.01760555859">
		<tag k="name" v="Kalbakken" />
		<tag k="place" v="farm" />
		<tag k="ssr:stedsnr" v="371337" />
	</node>
	<node id="-67753" lat="61.27639969" lon="7.00778033465">
		<tag k="alt_name" v="Legsvoll" />
		<tag k="fixme" v="consider place=hamlet" />
		<tag k="name" v="Gjesthaug" />
		<tag k="place" v="farm" />
		<tag k="ssr:stedsnr" v="371320" />
	</node>
	<node id="-67752" lat="61.2906972224" lon="6.7192861112">
		<tag k="alt_name" v="Romedal, nedre" />
		<tag k="historic" v="shieling" />
		<tag k="name" v="Nedre Romedal" />
		<tag k="place" v="locality" />
		<tag k="ssr:stedsnr" v="371234" />
	</node>
	<node id="-68101" lat="61.2147500022" lon="7.05140833439">
		<tag k="alt_name" v="Skarsbøstølen" />
		<tag k="historic" v="shieling" />
		<tag k="name" v="Skardsbøstølen" />
		<tag k="place" v="locality" />
		<tag k="ssr:stedsnr" v="556083" />
	</node>
	<node id="-67749" lat="61.1859694479" lon="7.21970554927">
		<tag k="name" v="Kaupanger" />
		<tag k="place" v="quarter" />
		<tag k="ssr:stedsnr" v="356640" />
	</node>
	<node id="-65700" lat="61.2189444485" lon="7.00106388402">
		<tag k="historic" v="shieling" />
		<tag k="name" v="Haugsstølen" />
		<tag k="place" v="locality" />
		<tag k="ssr:stedsnr" v="335514" />
	</node>
	<node id="-65694" lat="61.3983638896" lon="6.73644723019">
		<tag k="name" v="Haugtun" />
		<tag k="place" v="farm" />
		<tag k="ssr:stedsnr" v="481048" />
	</node>
	<node id="-66245" lat="61.2805944488" lon="6.50119999264">
		<tag k="name" v="Hellebø" />
		<tag k="place" v="farm" />
		<tag k="ssr:stedsnr" v="614794" />
	</node>
	<node id="-65692" lat="61.2004666639" lon="6.52376943676">
		<tag k="name" v="Fjærestad" />
		<tag k="place" v="quarter" />
		<tag k="ssr:stedsnr" v="480549" />
	</node>
	<node id="-65682" lat="61.2321530171" lon="7.12670627843">
		<tag k="fixme" v="consider place=hamlet" />
		<tag k="name" v="Loftesnes" />
		<tag k="place" v="farm" />
		<tag k="ssr:stedsnr" v="313127" />
	</node>
	<node id="-67729" lat="61.2209111087" lon="6.5459861042">
		<tag k="historic" v="shieling" />
		<tag k="name" v="Gamlestølen" />
		<tag k="place" v="locality" />
		<tag k="ssr:stedsnr" v="348850" />
	</node>
	<node id="-65680" lat="61.2341150128" lon="7.06339193298">
		<tag k="alt_name" v="Bjelle" />
		<tag k="fixme" v="consider place=hamlet" />
		<tag k="name" v="Bjella" />
		<tag k="place" v="farm" />
		<tag k="ssr:stedsnr" v="313115" />
	</node>
	<node id="-67727" lat="61.2873750033" lon="6.56647500503">
		<tag k="name" v="Stølen" />
		<tag k="place" v="locality" />
		<tag k="ssr:stedsnr" v="348819" />
	</node>
	<node id="-66242" lat="61.2930888919" lon="7.08362500868">
		<tag k="alt_name" v="Havarleite" />
		<tag k="name" v="Håvardleite" />
		<tag k="place" v="locality" />
		<tag k="ssr:stedsnr" v="614411" />
	</node>
	<node id="-67720" lat="61.190852775" lon="6.74515555433">
		<tag k="name" v="Huksgjerde" />
		<tag k="place" v="farm" />
		<tag k="ssr:stedsnr" v="343958" />
	</node>
	<node id="-65671" lat="61.1213638902" lon="6.46830833025">
		<tag k="name" v="Midtbøen" />
		<tag k="place" v="farm" />
		<tag k="ssr:stedsnr" v="312663" />
	</node>
	<node id="-65669" lat="61.1921565114" lon="6.52053176467">
		<tag k="alt_name" v="Skaasheim" />
		<tag k="fixme" v="consider place=hamlet" />
		<tag k="name" v="Skåseim" />
		<tag k="place" v="farm" />
		<tag k="ssr:stedsnr" v="312705" />
	</node>
	<node id="-66582" lat="61.1576666693" lon="6.47965833538">
		<tag k="historic" v="shieling" />
		<tag k="name" v="Hanavikstølen" />
		<tag k="place" v="locality" />
		<tag k="ssr:stedsnr" v="920629" />
	</node>
	<node id="-65666" lat="61.1430388899" lon="6.50078333204">
		<tag k="alt_name" v="Hongsete" />
		<tag k="name" v="Hangsete" />
		<tag k="place" v="locality" />
		<tag k="ssr:stedsnr" v="312624" />
	</node>
	<node id="-66240" lat="61.3170434694" lon="6.99854169687">
		<tag k="fixme" v="consider place=hamlet" />
		<tag k="name" v="Litlabø" />
		<tag k="place" v="farm" />
		<tag k="ssr:stedsnr" v="614398" />
	</node>
	<node id="-66580" lat="61.2459444451" lon="6.99262777053">
		<tag k="historic" v="shieling" />
		<tag k="name" v="Nystølen" />
		<tag k="place" v="locality" />
		<tag k="ssr:stedsnr" v="920145" />
	</node>
	<node id="-66579" lat="61.2246333348" lon="6.97932778692">
		<tag k="historic" v="shieling" />
		<tag k="name" v="Siplingane" />
		<tag k="place" v="locality" />
		<tag k="ssr:stedsnr" v="920131" />
	</node>
	<node id="-67691" lat="61.2047111088" lon="7.17965555043">
		<tag k="name" v="Hola" />
		<tag k="place" v="farm" />
		<tag k="ssr:stedsnr" v="336539" />
	</node>
	<node id="-66017" lat="61.1876972265" lon="6.91019166135">
		<tag k="name" v="Dalsete" />
		<tag k="place" v="locality" />
		<tag k="ssr:stedsnr" v="676924" />
	</node>
	<node id="-66577" lat="61.203634717" lon="7.22449837945">
		<tag k="fixme" v="consider place=hamlet" />
		<tag k="name" v="Vangestad" />
		<tag k="place" v="farm" />
		<tag k="ssr:stedsnr" v="920092" />
	</node>
	<node id="-67684" lat="61.1864833375" lon="7.23034165991">
		<tag k="name" v="Teigen" />
		<tag k="place" v="farm" />
		<tag k="ssr:stedsnr" v="336171" />
	</node>
	<node id="-67678" lat="61.28343056" lon="7.02872222278">
		<tag k="name" v="Kraksete" />
		<tag k="place" v="locality" />
		<tag k="ssr:stedsnr" v="335889" />
	</node>
	<node id="-66494" lat="61.3346500006" lon="6.66458333789">
		<tag k="historic" v="shieling" />
		<tag k="name" v="Fjellstølen" />
		<tag k="place" v="locality" />
		<tag k="ssr:stedsnr" v="760922" />
	</node>
	<node id="-65622" lat="61.2372833327" lon="6.45687778663">
		<tag k="name" v="Elvastølen" />
		<tag k="place" v="locality" />
		<tag k="ssr:stedsnr" v="288765" />
	</node>
	<node id="-66573" lat="61.1959305542" lon="7.07658055421">
		<tag k="name" v="Lindborg" />
		<tag k="place" v="farm" />
		<tag k="ssr:stedsnr" v="920037" />
	</node>
	<node id="-67657" lat="61.2564332822" lon="6.5392521152">
		<tag k="fixme" v="consider place=hamlet" />
		<tag k="name" v="Indre Farnes" />
		<tag k="place" v="farm" />
		<tag k="ssr:stedsnr" v="324539" />
	</node>
	<node id="-67655" lat="61.2148861081" lon="6.62117222264">
		<tag k="name" v="Øygarden" />
		<tag k="place" v="locality" />
		<tag k="ssr:stedsnr" v="313970" />
	</node>
	<node id="-67654" lat="61.2349305595" lon="6.94615277731">
		<tag k="alt_name" v="Gautestølen" />
		<tag k="historic" v="shieling" />
		<tag k="name" v="Gautastølen" />
		<tag k="place" v="locality" />
		<tag k="ssr:stedsnr" v="313967" />
	</node>
	<node id="-67651" lat="61.1654640922" lon="6.54055281681">
		<tag k="fixme" v="consider place=hamlet" />
		<tag k="name" v="Stokkabø" />
		<tag k="place" v="farm" />
		<tag k="ssr:stedsnr" v="313637" />
	</node>
	<node id="-67648" lat="61.1540361101" lon="7.12005278497">
		<tag k="name" v="Øvstajordi" />
		<tag k="place" v="locality" />
		<tag k="ssr:stedsnr" v="313488" />
	</node>
	<node id="-67759" lat="61.1497305538" lon="6.97295000781">
		<tag k="name" v="Fimreite" />
		<tag k="place" v="farm" />
		<tag k="ssr:stedsnr" v="371443" />
	</node>
	<node id="-67643" lat="61.2150388934" lon="7.22109722428">
		<tag k="alt_name" v="Anfinnstølen" />
		<tag k="historic" v="shieling" />
		<tag k="name" v="Arnfinnsstølen" />
		<tag k="place" v="locality" />
		<tag k="ssr:stedsnr" v="313097" />
	</node>
	<node id="-65879" lat="61.3659666698" lon="6.70829167312">
		<tag k="historic" v="shieling" />
		<tag k="name" v="Gamlestølen" />
		<tag k="place" v="locality" />
		<tag k="ssr:stedsnr" v="517552" />
	</node>
	<node id="-66569" lat="61.1858224263" lon="6.79968844856">
		<tag k="fixme" v="consider place=hamlet" />
		<tag k="name" v="Husabø" />
		<tag k="place" v="farm" />
		<tag k="ssr:stedsnr" v="919931" />
	</node>
	<node id="-67636" lat="61.1596805553" lon="7.15707778571">
		<tag k="alt_name" v="Vikastølen" />
		<tag k="historic" v="shieling" />
		<tag k="name" v="Rudsvikstølen" />
		<tag k="place" v="locality" />
		<tag k="ssr:stedsnr" v="313022" />
	</node>
	<node id="-67634" lat="61.1984829784" lon="6.6988326783">
		<tag k="alt_name" v="Supeim;Suphamar" />
		<tag k="fixme" v="consider place=hamlet" />
		<tag k="name" v="Suppam" />
		<tag k="place" v="farm" />
		<tag k="ssr:stedsnr" v="312979" />
	</node>
	<node id="-67632" lat="61.2014999212" lon="6.53019177233">
		<tag k="fixme" v="consider place=hamlet" />
		<tag k="name" v="Sjøtun" />
		<tag k="place" v="farm" />
		<tag k="ssr:stedsnr" v="312687" />
	</node>
	<node id="-67629" lat="61.1275361123" lon="6.4478861085">
		<tag k="historic" v="shieling" />
		<tag k="name" v="Supphella" />
		<tag k="place" v="locality" />
		<tag k="ssr:stedsnr" v="312644" />
	</node>
	<node id="-65579" lat="61.198044445" lon="7.17421110534">
		<tag k="name" v="Skakkateigen" />
		<tag k="place" v="locality" />
		<tag k="ssr:stedsnr" v="275521" />
	</node>
	<node id="-65578" lat="61.1960277803" lon="7.13729443675">
		<tag k="name" v="Årvollsteigen" />
		<tag k="place" v="locality" />
		<tag k="ssr:stedsnr" v="275519" />
	</node>
	<node id="-67625" lat="61.388551739" lon="6.74106706455">
		<tag k="fixme" v="consider place=hamlet" />
		<tag k="name" v="Homrane" />
		<tag k="place" v="farm" />
		<tag k="ssr:stedsnr" v="311983" />
	</node>
	<node id="-67624" lat="61.3329250032" lon="6.72232777088">
		<tag k="name" v="Tråna" />
		<tag k="place" v="farm" />
		<tag k="ssr:stedsnr" v="311981" />
	</node>
	<node id="-67623" lat="61.3447166648" lon="6.92306943541">
		<tag k="historic" v="shieling" />
		<tag k="name" v="Øyestølen" />
		<tag k="place" v="locality" />
		<tag k="ssr:stedsnr" v="311977" />
	</node>
	<node id="-67622" lat="61.3460222217" lon="6.89952222547">
		<tag k="alt_name" v="Skinnstad" />
		<tag k="historic" v="shieling" />
		<tag k="name" v="Skinstå" />
		<tag k="place" v="locality" />
		<tag k="ssr:stedsnr" v="311973" />
	</node>
	<node id="-65569" lat="61.1860055523" lon="7.3516611118">
		<tag k="historic" v="shieling" />
		<tag k="name" v="Padlastølen" />
		<tag k="place" v="locality" />
		<tag k="ssr:stedsnr" v="458626" />
	</node>
	<node id="-67610" lat="61.2610888867" lon="6.53820556384">
		<tag k="fixme" v="consider place=hamlet" />
		<tag k="name" v="Sværafjorden" />
		<tag k="place" v="village" />
		<tag k="ssr:stedsnr" v="311888" />
	</node>
	<node id="-68291" lat="61.2082555561" lon="7.19301667029">
		<tag k="name" v="Hjellabøen" />
		<tag k="place" v="farm" />
		<tag k="ssr:stedsnr" v="616075" />
	</node>
	<node id="-65881" lat="61.2562865746" lon="6.99559790192">
		<tag k="fixme" v="consider place=hamlet" />
		<tag k="name" v="Geirane" />
		<tag k="place" v="farm" />
		<tag k="ssr:stedsnr" v="432321" />
	</node>
	<node id="-67600" lat="61.3384058267" lon="6.5555707863">
		<tag k="fixme" v="consider place=hamlet" />
		<tag k="name" v="Mel" />
		<tag k="place" v="farm" />
		<tag k="ssr:stedsnr" v="311750" />
	</node>
	<node id="-67596" lat="61.2670093195" lon="7.03652699509">
		<tag k="alt_name" v="Hillestad" />
		<tag k="fixme" v="consider place=hamlet" />
		<tag k="name" v="Hildestad" />
		<tag k="place" v="farm" />
		<tag k="ssr:stedsnr" v="311425" />
	</node>
	<node id="-66562" lat="61.1888699842" lon="6.77338358209">
		<tag k="alt_name" v="Eggum" />
		<tag k="fixme" v="consider place=hamlet" />
		<tag k="name" v="Eggjane" />
		<tag k="place" v="farm" />
		<tag k="ssr:stedsnr" v="919887" />
	</node>
	<node id="-67593" lat="61.2813250041" lon="7.04530555387">
		<tag k="historic" v="shieling" />
		<tag k="name" v="Djupadal" />
		<tag k="place" v="locality" />
		<tag k="ssr:stedsnr" v="311385" />
	</node>
	<node id="-67592" lat="61.2520154721" lon="7.03732090661">
		<tag k="fixme" v="consider place=hamlet" />
		<tag k="name" v="Vikheim" />
		<tag k="place" v="farm" />
		<tag k="ssr:stedsnr" v="311343" />
	</node>
	<node id="-67591" lat="61.2508111136" lon="7.01075556246">
		<tag k="historic" v="shieling" />
		<tag k="name" v="Teig" />
		<tag k="place" v="locality" />
		<tag k="ssr:stedsnr" v="311341" />
	</node>
	<node id="-67587" lat="61.3225555554" lon="6.95091944888">
		<tag k="historic" v="shieling" />
		<tag k="name" v="Teigane" />
		<tag k="place" v="locality" />
		<tag k="ssr:stedsnr" v="311274" />
	</node>
</osm>
