<?xml version="1.0" encoding="UTF-8"?>
<osm version="0.6" generator="osmapis">
	<node lat="61.39813086605473" lon="6.527437522856557" id="-36859">
		<tag k="name" v="Skaddalsvatnet" />
		<tag k="natural" v="water" />
		<tag k="ssr:stedsnr" v="7726" />
		<tag k="water" v="lake" />
	</node>
	<node lat="61.31437777348617" lon="6.82875832618494" id="-36864">
		<tag k="name" v="Styggebotngrovi" />
		<tag k="ssr:stedsnr" v="8255" />
		<tag k="waterway" v="stream" />
	</node>
	<node lat="61.396236108559236" lon="6.872261108665433" id="-36870">
		<tag k="name" v="Langedalsvatnet" />
		<tag k="natural" v="water" />
		<tag k="ssr:stedsnr" v="8904" />
	</node>
	<node lat="61.17419444541468" lon="6.939708336446565" id="-36882">
		<tag k="alt_name" v="Lundaelvi;Lundeelvi" />
		<tag k="name" v="Lundelvi" />
		<tag k="ssr:stedsnr" v="9904" />
		<tag k="waterway" v="stream" />
	</node>
	<node lat="61.25766666739915" lon="6.946249994829686" id="-36895">
		<tag k="name" v="Langavatnet" />
		<tag k="natural" v="water" />
		<tag k="ssr:stedsnr" v="32370" />
		<tag k="water" v="lake" />
	</node>
	<node lat="61.261566543699324" lon="6.964322465787822" id="-36896">
		<tag k="name" v="Kalvavatnet" />
		<tag k="natural" v="water" />
		<tag k="ssr:stedsnr" v="32374" />
		<tag k="water" v="lake" />
	</node>
	<node lat="61.38299166299728" lon="6.726288889343348" id="-36899">
		<tag k="name" v="Svartegrovi" />
		<tag k="ssr:stedsnr" v="32516" />
		<tag k="waterway" v="stream" />
	</node>
	<node lat="61.27869125946984" lon="6.622275374599284" id="-36919">
		<tag k="name" v="Ytste Nåbera" />
		<tag k="ssr:stedsnr" v="236375" />
		<tag k="waterway" v="stream" />
	</node>
	<node lat="61.182022223911765" lon="6.871561109924848" id="-36942">
		<tag k="name" v="Ringdøla" />
		<tag k="ssr:stedsnr" v="59988" />
		<tag k="waterway" v="stream" />
	</node>
	<node lat="61.28715555395892" lon="7.066705558834216" id="-36944">
		<tag k="name" v="Kyrauga" />
		<tag k="natural" v="water" />
		<tag k="ssr:stedsnr" v="68351" />
	</node>
	<node lat="61.32804444641514" lon="6.985283328222268" id="-36946">
		<tag k="name" v="Fessene" />
		<tag k="natural" v="waterfall" />
		<tag k="ssr:stedsnr" v="68507" />
	</node>
	<node lat="61.423461110468835" lon="6.741638895873561" id="-36951">
		<tag k="name" v="Høyskreda" />
		<tag k="ssr:stedsnr" v="68921" />
		<tag k="waterway" v="stream" />
	</node>
	<node lat="61.35235555909908" lon="6.867630564605004" id="-36952">
		<tag k="name" v="Fossane" />
		<tag k="natural" v="waterfall" />
		<tag k="ssr:stedsnr" v="68932" />
	</node>
	<node lat="61.341852781791836" lon="6.672594435656878" id="-36953">
		<tag k="name" v="Jordalselvi" />
		<tag k="ssr:stedsnr" v="68944" />
		<tag k="waterway" v="river" />
	</node>
	<node lat="61.31987500410774" lon="6.93646388979554" id="-36962">
		<tag k="alt_name" v="Kongsteigelvi" />
		<tag k="name" v="Kongsteiggrovi" />
		<tag k="ssr:stedsnr" v="69219" />
		<tag k="waterway" v="stream" />
	</node>
	<node lat="61.19998055541325" lon="6.5092250028435865" id="-36980">
		<tag k="alt_name" v="Fjærestadgrovi" />
		<tag k="name" v="Fjerestadgrovi" />
		<tag k="ssr:stedsnr" v="70712" />
		<tag k="waterway" v="stream" />
	</node>
	<node lat="61.2128055579704" lon="6.7388000011122315" id="-36995">
		<tag k="name" v="Skitstøla" />
		<tag k="ssr:stedsnr" v="70993" />
		<tag k="waterway" v="stream" />
	</node>
	<node lat="61.22168889219584" lon="7.220672225686523" id="-37021">
		<tag k="name" v="Ospesettjørn" />
		<tag k="natural" v="water" />
		<tag k="ssr:stedsnr" v="94109" />
	</node>
	<node lat="61.23631666967206" lon="7.243411113918472" id="-37022">
		<tag k="name" v="Kyrkjedalsgrovi" />
		<tag k="ssr:stedsnr" v="94531" />
		<tag k="waterway" v="stream" />
	</node>
	<node lat="61.20372777861972" lon="7.293547223883331" id="-37023">
		<tag k="name" v="Nordredemma-elvi" />
		<tag k="ssr:stedsnr" v="94605" />
		<tag k="waterway" v="river" />
	</node>
	<node lat="61.18801944603344" lon="6.495702783118546" id="-37033">
		<tag k="name" v="Futevadgrovi" />
		<tag k="ssr:stedsnr" v="105891" />
		<tag k="waterway" v="stream" />
	</node>
	<node lat="61.262488888276096" lon="6.822755546954676" id="-37049">
		<tag k="name" v="Friksdøla" />
		<tag k="ssr:stedsnr" v="250146" />
		<tag k="waterway" v="river" />
	</node>
	<node lat="61.27992500434128" lon="6.945599992464382" id="-37050">
		<tag k="name" v="Skavassgrovi" />
		<tag k="ssr:stedsnr" v="250138" />
		<tag k="waterway" v="stream" />
	</node>
	<node lat="61.339811110536864" lon="6.916363896458919" id="-37051">
		<tag k="name" v="Kolda" />
		<tag k="ssr:stedsnr" v="250196" />
		<tag k="waterway" v="stream" />
	</node>
	<node lat="61.266661106908174" lon="6.960550000627433" id="-37052">
		<tag k="name" v="Nipevatnet" />
		<tag k="natural" v="water" />
		<tag k="ssr:stedsnr" v="250158" />
	</node>
	<node lat="61.258552779694895" lon="6.954772227732665" id="-37053">
		<tag k="name" v="Bollesteinsvatnet" />
		<tag k="natural" v="water" />
		<tag k="ssr:stedsnr" v="250160" />
	</node>
	<node lat="61.25412777696198" lon="7.245194451047595" id="-37058">
		<tag k="name" v="Lommagrovi" />
		<tag k="ssr:stedsnr" v="250272" />
		<tag k="waterway" v="stream" />
	</node>
	<node lat="61.27533333140667" lon="7.039522224797647" id="-37061">
		<tag k="name" v="Hundøla" />
		<tag k="ssr:stedsnr" v="250320" />
		<tag k="waterway" v="stream" />
	</node>
	<node lat="61.34910833019731" lon="6.446994446856358" id="-37067">
		<tag k="name" v="Skarvedalselvi" />
		<tag k="ssr:stedsnr" v="250690" />
		<tag k="waterway" v="stream" />
	</node>
	<node lat="61.297111112094676" lon="6.368513886040637" id="-37068">
		<tag k="alt_name" v="Blankavatn, nordre;Blankevatn" />
		<tag k="name" v="Blåvatn" />
		<tag k="natural" v="water" />
		<tag k="ssr:stedsnr" v="250752" />
	</node>
	<node lat="61.28513055857667" lon="6.477319446594718" id="-37069">
		<tag k="name" v="Blåbærskreda" />
		<tag k="ssr:stedsnr" v="250765" />
		<tag k="waterway" v="stream" />
	</node>
	<node lat="61.484741670377126" lon="6.757013886557706" id="-37073">
		<tag k="name" v="Brevatnet" />
		<tag k="natural" v="water" />
		<tag k="ssr:stedsnr" v="250808" />
	</node>
	<node lat="61.36865555367924" lon="5.692122226093889" id="-37077">
		<tag k="name" v="Gaula" />
		<tag k="ssr:stedsnr" v="250866" />
		<tag k="waterway" v="river" />
	</node>
	<node lat="61.41762500042504" lon="6.7926666589304645" id="-37081">
		<tag k="name" v="Fjellgrovi" />
		<tag k="ssr:stedsnr" v="250882" />
		<tag k="waterway" v="stream" />
	</node>
	<node lat="61.38776944745433" lon="6.725883326718033" id="-37082">
		<tag k="name" v="Hatlestadelvi" />
		<tag k="ssr:stedsnr" v="250887" />
		<tag k="waterway" v="stream" />
	</node>
	<node lat="61.35114999619615" lon="6.751077778933393" id="-37086">
		<tag k="name" v="Tyfossa" />
		<tag k="natural" v="waterfall" />
		<tag k="ssr:stedsnr" v="250932" />
	</node>
	<node lat="61.371394440124256" lon="6.712436115244432" id="-37091">
		<tag k="name" v="Distadfossen" />
		<tag k="natural" v="waterfall" />
		<tag k="ssr:stedsnr" v="250978" />
	</node>
	<node lat="61.374461115012856" lon="6.871869442444459" id="-37093">
		<tag k="alt_name" v="Tverråna" />
		<tag k="name" v="Tverråni" />
		<tag k="ssr:stedsnr" v="250987" />
		<tag k="waterway" v="stream" />
	</node>
	<node lat="61.18277500405387" lon="7.2860472224861095" id="-37095">
		<tag k="fixme" v="multiple name tags, choose one and add the other to alt_name" />
		<tag k="name" v="Tverrelvi;Amlaelvi" />
		<tag k="ssr:stedsnr" v="251001" />
		<tag k="waterway" v="stream" />
	</node>
	<node lat="61.30848055917343" lon="6.649908337701993" id="-37096">
		<tag k="name" v="Teigaelvi" />
		<tag k="ssr:stedsnr" v="251244" />
		<tag k="waterway" v="stream" />
	</node>
	<node lat="61.22134444266352" lon="6.834352785366313" id="-37099">
		<tag k="name" v="Hjellande" />
		<tag k="ssr:stedsnr" v="251961" />
		<tag k="waterway" v="stream" />
	</node>
	<node lat="61.178694440349204" lon="7.295586120127136" id="-37101">
		<tag k="name" v="Turrligrovi" />
		<tag k="ssr:stedsnr" v="252004" />
		<tag k="waterway" v="stream" />
	</node>
	<node lat="61.28739722268545" lon="7.059822213727604" id="-37110">
		<tag k="name" v="Hundsvatnet" />
		<tag k="natural" v="water" />
		<tag k="ssr:stedsnr" v="128306" />
	</node>
	<node lat="61.25483610840158" lon="6.978766667559715" id="-37121">
		<tag k="name" v="Slumpa" />
		<tag k="ssr:stedsnr" v="129352" />
		<tag k="waterway" v="stream" />
	</node>
	<node lat="61.379175000055334" lon="6.9089888805925534" id="-37122">
		<tag k="name" v="Tverrdalselvi" />
		<tag k="ssr:stedsnr" v="129506" />
		<tag k="waterway" v="river" />
	</node>
	<node lat="61.30810277390746" lon="6.371627779087321" id="-37123">
		<tag k="name" v="Risbotnvatnet" />
		<tag k="natural" v="water" />
		<tag k="ssr:stedsnr" v="129805" />
		<tag k="water" v="lake" />
	</node>
	<node lat="61.261377776848995" lon="6.4631472241285906" id="-37128">
		<tag k="name" v="Remelvi" />
		<tag k="ssr:stedsnr" v="129846" />
		<tag k="waterway" v="stream" />
	</node>
	<node lat="61.33644166588941" lon="6.577891666721774" id="-37134">
		<tag k="name" v="Oreskredgrovi" />
		<tag k="ssr:stedsnr" v="129791" />
		<tag k="waterway" v="stream" />
	</node>
	<node lat="61.24339166300183" lon="6.80525000308475" id="-37143">
		<tag k="name" v="Svartavatnet" />
		<tag k="natural" v="water" />
		<tag k="ssr:stedsnr" v="130508" />
	</node>
	<node lat="61.14386110785103" lon="6.391452780360009" id="-37147">
		<tag k="name" v="Grisagrovi" />
		<tag k="ssr:stedsnr" v="130617" />
		<tag k="waterway" v="river" />
	</node>
	<node lat="61.1245138863166" lon="6.443763889719255" id="-37149">
		<tag k="name" v="Sagelvi" />
		<tag k="ssr:stedsnr" v="130629" />
		<tag k="waterway" v="stream" />
	</node>
	<node lat="61.18912500391839" lon="6.932408338821337" id="-37150">
		<tag k="name" v="Honnsetevatnet" />
		<tag k="natural" v="water" />
		<tag k="ssr:stedsnr" v="130921" />
	</node>
	<node lat="61.161408334230835" lon="6.4568611079728715" id="-37156">
		<tag k="alt_name" v="Eistrebotnvatn" />
		<tag k="name" v="Eistrebotnvatnet" />
		<tag k="natural" v="water" />
		<tag k="ssr:stedsnr" v="252587" />
	</node>
	<node lat="61.206930553803815" lon="6.964211119634219" id="-37157">
		<tag k="name" v="Kinnsgrovi" />
		<tag k="ssr:stedsnr" v="130973" />
		<tag k="waterway" v="stream" />
	</node>
	<node lat="61.21670833666695" lon="7.279641670655222" id="-37164">
		<tag k="name" v="Grønamyrvatnet" />
		<tag k="natural" v="water" />
		<tag k="ssr:stedsnr" v="131081" />
	</node>
	<node lat="61.215169441634934" lon="6.395063887011396" id="-37168">
		<tag k="name" v="Ågåtastølvatnet" />
		<tag k="natural" v="water" />
		<tag k="ssr:stedsnr" v="252655" />
	</node>
	<node lat="61.16755555163994" lon="6.5160611112332045" id="-37174">
		<tag k="name" v="Flesjaelvi" />
		<tag k="ssr:stedsnr" v="252705" />
		<tag k="waterway" v="river" />
	</node>
	<node lat="61.21173610742603" lon="6.716305560619361" id="-37186">
		<tag k="name" v="Yksnavatnet" />
		<tag k="natural" v="water" />
		<tag k="ssr:stedsnr" v="252981" />
	</node>
	<node lat="61.21175000250023" lon="6.844286116604485" id="-37190">
		<tag k="alt_name" v="Migandegrovi" />
		<tag k="name" v="Migande" />
		<tag k="ssr:stedsnr" v="252972" />
		<tag k="waterway" v="stream" />
	</node>
	<node lat="61.22787500339781" lon="7.299763884475779" id="-37192">
		<tag k="name" v="Botnavatnet" />
		<tag k="natural" v="water" />
		<tag k="ssr:stedsnr" v="253058" />
	</node>
	<node lat="61.363124998056925" lon="6.908563897587803" id="-37207">
		<tag k="name" v="Løkene" />
		<tag k="ssr:stedsnr" v="153910" />
		<tag k="waterway" v="river" />
	</node>
	<node lat="61.40068055772665" lon="6.692394449655577" id="-37219">
		<tag k="name" v="Kolgrovi" />
		<tag k="ssr:stedsnr" v="154913" />
		<tag k="waterway" v="stream" />
	</node>
	<node lat="61.40848055273918" lon="6.714944439925917" id="-37221">
		<tag k="name" v="Skaskredgrovi" />
		<tag k="ssr:stedsnr" v="154963" />
		<tag k="waterway" v="stream" />
	</node>
	<node lat="61.257005560070866" lon="6.49005278585001" id="-37226">
		<tag k="name" v="Sandsskreda" />
		<tag k="ssr:stedsnr" v="166571" />
		<tag k="waterway" v="stream" />
	</node>
	<node lat="61.23273610732833" lon="6.84972500699272" id="-37239">
		<tag k="name" v="Fljotande" />
		<tag k="natural" v="water" />
		<tag k="ssr:stedsnr" v="180965" />
		<tag k="water" v="lake" />
	</node>
	<node lat="61.29449721837135" lon="6.488441673856895" id="-37243">
		<tag k="name" v="Lægdaskreda" />
		<tag k="ssr:stedsnr" v="189724" />
		<tag k="waterway" v="stream" />
	</node>
	<node lat="61.43118610895104" lon="6.703483335805902" id="-37244">
		<tag k="name" v="Botnavatnet" />
		<tag k="natural" v="water" />
		<tag k="ssr:stedsnr" v="189909" />
	</node>
	<node lat="61.321611115538175" lon="6.749477776096228" id="-37246">
		<tag k="name" v="Kvanndøla" />
		<tag k="ssr:stedsnr" v="190209" />
		<tag k="waterway" v="stream" />
	</node>
	<node lat="61.31596111197729" lon="6.9628388885598325" id="-37249">
		<tag k="name" v="Sandsteigelvi" />
		<tag k="ssr:stedsnr" v="190223" />
		<tag k="waterway" v="stream" />
	</node>
	<node lat="61.449458332149156" lon="6.85193610302985" id="-37259">
		<tag k="name" v="Ryssenipvatnet" />
		<tag k="natural" v="water" />
		<tag k="ssr:stedsnr" v="190921" />
	</node>
	<node lat="61.23680555768445" lon="6.740502770242013" id="-37268">
		<tag k="name" v="Gildøla" />
		<tag k="ssr:stedsnr" v="191507" />
		<tag k="waterway" v="stream" />
	</node>
	<node lat="61.20258333517359" lon="6.9498777846778825" id="-37271">
		<tag k="name" v="Skriksvatnet" />
		<tag k="natural" v="water" />
		<tag k="ssr:stedsnr" v="191867" />
	</node>
	<node lat="61.35324999848361" lon="6.870894443135835" id="-37291">
		<tag k="name" v="Frudalsfossen" />
		<tag k="natural" v="waterfall" />
		<tag k="ssr:stedsnr" v="214806" />
	</node>
	<node lat="61.21400278181546" lon="6.778099998987582" id="-37303">
		<tag k="name" v="Tomasbritakjelda" />
		<tag k="place" v="locality" />
		<tag k="ssr:stedsnr" v="216926" />
	</node>
	<node lat="61.223283337034765" lon="6.480355559089696" id="-37314">
		<tag k="name" v="Kjenesskreda" />
		<tag k="ssr:stedsnr" v="227932" />
		<tag k="waterway" v="stream" />
	</node>
	<node lat="61.216336108953016" lon="6.4952416597264175" id="-37319">
		<tag k="name" v="Eseøyrane" />
		<tag k="natural" v="cape" />
		<tag k="ssr:stedsnr" v="227997" />
	</node>
	<node lat="61.242397925046156" lon="7.260552188449196" id="-37333">
		<tag k="alt_name" v="Breidesetevatnet;Breisetevatn" />
		<tag k="name" v="Breisetevatnet" />
		<tag k="natural" v="water" />
		<tag k="ssr:stedsnr" v="253120" />
		<tag k="water" v="lake" />
	</node>
	<node lat="61.35386666733848" lon="6.905022214928735" id="-37359">
		<tag k="name" v="Ekra" />
		<tag k="natural" v="bay" />
		<tag k="ssr:stedsnr" v="457937" />
	</node>
	<node lat="61.218008570928006" lon="7.298079100660654" id="-37361">
		<tag k="name" v="Trehovevatnet" />
		<tag k="natural" v="water" />
		<tag k="ssr:stedsnr" v="458089" />
		<tag k="water" v="lake" />
	</node>
	<node lat="61.21131389127869" lon="7.266508340897708" id="-37362">
		<tag k="name" v="Dalaker-vasstak" />
		<tag k="place" v="locality" />
		<tag k="ssr:stedsnr" v="458090" />
	</node>
	<node lat="61.26443055393331" lon="7.225441672043097" id="-37363">
		<tag k="name" v="Sagelvi" />
		<tag k="ssr:stedsnr" v="458537" />
		<tag k="waterway" v="stream" />
	</node>
	<node lat="61.42135555168788" lon="6.673427784954473" id="-37368">
		<tag k="name" v="Kvannskreda" />
		<tag k="ssr:stedsnr" v="459000" />
		<tag k="waterway" v="stream" />
	</node>
	<node lat="61.33208889141528" lon="6.929927776810042" id="-37372">
		<tag k="name" v="Odden" />
		<tag k="natural" v="cape" />
		<tag k="ssr:stedsnr" v="275072" />
	</node>
	<node lat="61.30161944226809" lon="7.00375833878713" id="-37374">
		<tag k="name" v="Purlesete" />
		<tag k="natural" v="bay" />
		<tag k="ssr:stedsnr" v="275173" />
	</node>
	<node lat="61.31306389339309" lon="6.998486115826565" id="-37375">
		<tag k="name" v="Plitten" />
		<tag k="natural" v="cape" />
		<tag k="ssr:stedsnr" v="275178" />
	</node>
	<node lat="61.26721667096106" lon="7.213447227495542" id="-37377">
		<tag k="name" v="Fossane" />
		<tag k="natural" v="waterfall" />
		<tag k="ssr:stedsnr" v="275511" />
	</node>
	<node lat="61.194080551054924" lon="6.999258328805275" id="-37380">
		<tag k="name" v="Midtgilja" />
		<tag k="ssr:stedsnr" v="275522" />
		<tag k="waterway" v="stream" />
	</node>
	<node lat="61.36919444715825" lon="6.907963886675083" id="-37386">
		<tag k="name" v="Stavagrøvene" />
		<tag k="ssr:stedsnr" v="275872" />
		<tag k="waterway" v="stream" />
	</node>
	<node lat="61.255038889674225" lon="6.651136110587567" id="-37396">
		<tag k="name" v="Perelvi" />
		<tag k="ssr:stedsnr" v="277234" />
		<tag k="waterway" v="stream" />
	</node>
	<node lat="61.33819721965052" lon="6.570927775464398" id="-37411">
		<tag k="name" v="Rustadgrovi" />
		<tag k="ssr:stedsnr" v="288680" />
		<tag k="waterway" v="stream" />
	</node>
	<node lat="61.2554416694944" lon="6.91850277671921" id="-37423">
		<tag k="alt_name" v="Fjærlandsetvatn" />
		<tag k="name" v="Fjærlandssetvatnet" />
		<tag k="natural" v="water" />
		<tag k="ssr:stedsnr" v="311203" />
		<tag k="water" v="lake" />
	</node>
	<node lat="61.34785187724603" lon="6.999772173159215" id="-37426">
		<tag k="name" v="Stenageimsvotni" />
		<tag k="natural" v="water" />
		<tag k="ssr:stedsnr" v="311508" />
		<tag k="water" v="lake" />
	</node>
	<node lat="61.375488887690146" lon="6.883741666759629" id="-37442">
		<tag k="name" v="Langedalselvi" />
		<tag k="ssr:stedsnr" v="311993" />
		<tag k="waterway" v="river" />
	</node>
	<node lat="61.153258337514195" lon="6.520066670678611" id="-37446">
		<tag k="alt_name" v="Hanevikelvi" />
		<tag k="name" v="Hanavikelvi" />
		<tag k="ssr:stedsnr" v="312628" />
		<tag k="waterway" v="river" />
	</node>
	<node lat="61.21342500409161" lon="6.368352770053097" id="-37447">
		<tag k="alt_name" v="Urdavatnet" />
		<tag k="name" v="Uravatnet" />
		<tag k="natural" v="water" />
		<tag k="ssr:stedsnr" v="312668" />
	</node>
	<node lat="61.16409444647533" lon="6.922258331125032" id="-37449">
		<tag k="alt_name" v="Skråtlagrovi" />
		<tag k="name" v="Skrollegrovi" />
		<tag k="ssr:stedsnr" v="312904" />
		<tag k="waterway" v="stream" />
	</node>
	<node lat="61.34097778159462" lon="6.5471166699953764" id="-37467">
		<tag k="name" v="Slåkedalsfossen" />
		<tag k="natural" v="waterfall" />
		<tag k="ssr:stedsnr" v="324625" />
	</node>
	<node lat="61.302886112577724" lon="6.462008325369311" id="-37468">
		<tag k="name" v="Øvstefossen" />
		<tag k="natural" v="waterfall" />
		<tag k="ssr:stedsnr" v="469053" />
	</node>
	<node lat="61.13014167006209" lon="6.434674995074948" id="-37474">
		<tag k="name" v="Tverra" />
		<tag k="ssr:stedsnr" v="470041" />
		<tag k="waterway" v="stream" />
	</node>
	<node lat="61.311083329038205" lon="6.5602166624170035" id="-37490">
		<tag k="name" v="Storskreda" />
		<tag k="ssr:stedsnr" v="470850" />
		<tag k="waterway" v="stream" />
	</node>
	<node lat="61.44355278194842" lon="6.804741669062125" id="-37518">
		<tag k="name" v="Knutskreda" />
		<tag k="ssr:stedsnr" v="336820" />
		<tag k="waterway" v="stream" />
	</node>
	<node lat="61.47041388577048" lon="6.7270777704555735" id="-37519">
		<tag k="name" v="Lambagrovi" />
		<tag k="ssr:stedsnr" v="336852" />
		<tag k="waterway" v="stream" />
	</node>
	<node lat="61.25211944485066" lon="6.904063879748518" id="-37524">
		<tag k="name" v="Sumi" />
		<tag k="ssr:stedsnr" v="337705" />
		<tag k="waterway" v="stream" />
	</node>
	<node lat="61.27862222456619" lon="6.490036101595136" id="-37530">
		<tag k="name" v="Kalvagrovi" />
		<tag k="ssr:stedsnr" v="348027" />
		<tag k="waterway" v="stream" />
	</node>
	<node lat="61.283549997778174" lon="6.807727771853307" id="-37549">
		<tag k="name" v="Voggevatnet" />
		<tag k="natural" v="water" />
		<tag k="ssr:stedsnr" v="371126" />
	</node>
	<node lat="61.28376110935422" lon="7.164399995027198" id="-37553">
		<tag k="alt_name" v="Arøyelvi" />
		<tag k="name" v="Årøyelvi" />
		<tag k="ssr:stedsnr" v="371328" />
		<tag k="waterway" v="river" />
	</node>
	<node lat="61.26133611456771" lon="6.658619446322114" id="-37554">
		<tag k="name" v="Trodøla" />
		<tag k="ssr:stedsnr" v="479351" />
		<tag k="waterway" v="stream" />
	</node>
	<node lat="61.25739722481591" lon="6.887494443738927" id="-37564">
		<tag k="alt_name" v="Lomavatn" />
		<tag k="name" v="Lomavatnet" />
		<tag k="natural" v="water" />
		<tag k="ssr:stedsnr" v="372166" />
	</node>
	<node lat="61.30905277497513" lon="6.698652774476891" id="-37569">
		<tag k="alt_name" v="Algøya" />
		<tag k="name" v="Allgøya" />
		<tag k="ssr:stedsnr" v="372225" />
		<tag k="waterway" v="stream" />
	</node>
	<node lat="61.32935833659081" lon="6.988563889397385" id="-37571">
		<tag k="name" v="Svedalselvi" />
		<tag k="ssr:stedsnr" v="372511" />
		<tag k="waterway" v="stream" />
	</node>
	<node lat="61.454836115193906" lon="6.688361109124901" id="-37573">
		<tag k="name" v="Tverrgrovi" />
		<tag k="ssr:stedsnr" v="372849" />
		<tag k="waterway" v="stream" />
	</node>
	<node lat="61.222769445086854" lon="6.405408335912153" id="-37583">
		<tag k="alt_name" v="Skaravatnet" />
		<tag k="name" v="Skardavatnet" />
		<tag k="natural" v="water" />
		<tag k="ssr:stedsnr" v="373713" />
	</node>
	<node lat="61.16474166873968" lon="6.952411117232155" id="-37587">
		<tag k="name" v="Gautefossen" />
		<tag k="natural" v="waterfall" />
		<tag k="ssr:stedsnr" v="373914" />
	</node>
	<node lat="61.176452780218014" lon="6.946536102814867" id="-37588">
		<tag k="name" v="Krokelvi" />
		<tag k="ssr:stedsnr" v="373922" />
		<tag k="waterway" v="stream" />
	</node>
	<node lat="61.15917221827004" lon="7.014911118484635" id="-37593">
		<tag k="alt_name" v="Tallberggrovi;Hølagrovi" />
		<tag k="name" v="Hølelvi" />
		<tag k="ssr:stedsnr" v="374021" />
		<tag k="waterway" v="stream" />
	</node>
	<node lat="61.219811106860874" lon="7.241405556017092" id="-37596">
		<tag k="name" v="Kaupangselvi" />
		<tag k="ssr:stedsnr" v="374092" />
		<tag k="waterway" v="river" />
	</node>
	<node lat="61.260991662972394" lon="7.132391659037444" id="-37612">
		<tag k="name" v="Englandselvi" />
		<tag k="ssr:stedsnr" v="396480" />
		<tag k="waterway" v="stream" />
	</node>
	<node lat="61.44023889205752" lon="6.800480564580946" id="-37623">
		<tag k="name" v="Kvannskreda" />
		<tag k="ssr:stedsnr" v="396812" />
		<tag k="waterway" v="stream" />
	</node>
	<node lat="61.22062401664759" lon="7.296663690101265" id="-37627">
		<tag k="name" v="Fagerlivatn" />
		<tag k="natural" v="water" />
		<tag k="ssr:stedsnr" v="397093" />
		<tag k="water" v="lake" />
	</node>
	<node lat="61.19959444445563" lon="7.298127783816374" id="-37632">
		<tag k="name" v="Søredemma-elvi" />
		<tag k="ssr:stedsnr" v="397596" />
		<tag k="waterway" v="stream" />
	</node>
	<node lat="61.18535555252773" lon="6.872136118832327" id="-37635">
		<tag k="name" v="Bogagrovi" />
		<tag k="ssr:stedsnr" v="484989" />
		<tag k="waterway" v="stream" />
	</node>
	<node lat="61.276397220861156" lon="6.572077769642577" id="-37641">
		<tag k="name" v="Brukaskreda" />
		<tag k="ssr:stedsnr" v="409821" />
		<tag k="waterway" v="stream" />
	</node>
	<node lat="61.308336112492135" lon="6.555655556345249" id="-37648">
		<tag k="name" v="Vetleskreda" />
		<tag k="ssr:stedsnr" v="410852" />
		<tag k="waterway" v="stream" />
	</node>
	<node lat="61.4044861088649" lon="6.686052772769991" id="-37661">
		<tag k="name" v="Tverrelvi" />
		<tag k="ssr:stedsnr" v="432891" />
		<tag k="waterway" v="stream" />
	</node>
	<node lat="61.31134722017442" lon="6.878447216332409" id="-37666">
		<tag k="name" v="Resavatnet" />
		<tag k="natural" v="water" />
		<tag k="ssr:stedsnr" v="433224" />
	</node>
	<node lat="61.26908055482931" lon="6.822222226295477" id="-37668">
		<tag k="name" v="Røsebotna" />
		<tag k="ssr:stedsnr" v="433513" />
		<tag k="waterway" v="stream" />
	</node>
	<node lat="61.44756944411464" lon="6.727661102923163" id="-37674">
		<tag k="name" v="Tverrdalselvi" />
		<tag k="ssr:stedsnr" v="433911" />
		<tag k="waterway" v="river" />
	</node>
	<node lat="61.24660728235072" lon="6.817956058648558" id="-37675">
		<tag k="name" v="Blankavatni" />
		<tag k="natural" v="water" />
		<tag k="ssr:stedsnr" v="434498" />
		<tag k="water" v="lake" />
	</node>
	<node lat="61.21673333481487" lon="6.660961115901275" id="-37676">
		<tag k="alt_name" v="Koveelvi" />
		<tag k="name" v="Kovelvi" />
		<tag k="ssr:stedsnr" v="434525" />
		<tag k="waterway" v="stream" />
	</node>
	<node lat="61.17811944775801" lon="7.283586103107085" id="-37684">
		<tag k="alt_name" v="Svarteholsgrovi" />
		<tag k="name" v="Svartaholsgrovi" />
		<tag k="ssr:stedsnr" v="435017" />
		<tag k="waterway" v="stream" />
	</node>
	<node lat="61.175833337055906" lon="7.039788882970836" id="-37693">
		<tag k="alt_name" v="Klåbakgrovi" />
		<tag k="name" v="Klåbakkgrovi" />
		<tag k="ssr:stedsnr" v="435083" />
		<tag k="waterway" v="stream" />
	</node>
	<node lat="61.283555724873985" lon="6.85986027286706" id="-37697">
		<tag k="name" v="Myrdalsvotni" />
		<tag k="natural" v="water" />
		<tag k="ssr:stedsnr" v="493145" />
		<tag k="water" v="lake" />
	</node>
	<node lat="61.27458333616609" lon="7.031136114989795" id="-37703">
		<tag k="name" v="Spøna" />
		<tag k="ssr:stedsnr" v="493330" />
		<tag k="waterway" v="stream" />
	</node>
	<node lat="61.28719166541479" lon="7.126444453334056" id="-37705">
		<tag k="name" v="Fårleggrovi" />
		<tag k="ssr:stedsnr" v="493343" />
		<tag k="waterway" v="stream" />
	</node>
	<node lat="61.30028610944744" lon="6.475166672493116" id="-37708">
		<tag k="name" v="Kvitskreda" />
		<tag k="ssr:stedsnr" v="493776" />
		<tag k="waterway" v="stream" />
	</node>
	<node lat="61.28896110760052" lon="6.5726111085142795" id="-37710">
		<tag k="name" v="Stølsskreda" />
		<tag k="ssr:stedsnr" v="493788" />
		<tag k="waterway" v="stream" />
	</node>
	<node lat="61.27922965381745" lon="6.392359607862887" id="-37711">
		<tag k="name" v="Trollabotsvotni" />
		<tag k="natural" v="water" />
		<tag k="old_name" v="Trolabotsvotni" />
		<tag k="ssr:stedsnr" v="493792" />
		<tag k="water" v="lake" />
	</node>
	<node lat="61.46461666333328" lon="6.7868333394582" id="-37717">
		<tag k="name" v="Krokagilja" />
		<tag k="ssr:stedsnr" v="493861" />
		<tag k="waterway" v="stream" />
	</node>
	<node lat="61.370933333888765" lon="6.772191669532552" id="-37724">
		<tag k="name" v="Bjåstadelvi" />
		<tag k="ssr:stedsnr" v="493989" />
		<tag k="waterway" v="river" />
	</node>
	<node lat="61.231650003627045" lon="6.452419446230414" id="-37725">
		<tag k="name" v="Yglelvi" />
		<tag k="ssr:stedsnr" v="494292" />
		<tag k="waterway" v="stream" />
	</node>
	<node lat="61.19412778199596" lon="6.743766673437881" id="-37726">
		<tag k="name" v="Øyane" />
		<tag k="place" v="island" />
		<tag k="ssr:stedsnr" v="494891" />
	</node>
	<node lat="61.24295453290969" lon="6.95684100574802" id="-37728">
		<tag k="alt_name" v="Drevdalsgrovi" />
		<tag k="name" v="Drivdalsgrovi" />
		<tag k="ssr:stedsnr" v="494534" />
		<tag k="waterway" v="stream" />
	</node>
	<node lat="61.146233334210706" lon="6.445649994504331" id="-37730">
		<tag k="name" v="Saurlevatnet" />
		<tag k="natural" v="water" />
		<tag k="ssr:stedsnr" v="494620" />
	</node>
	<node lat="61.12041110992862" lon="6.402927769027667" id="-37731">
		<tag k="alt_name" v="Gyllingselvi" />
		<tag k="name" v="Gjyllingselvi" />
		<tag k="ssr:stedsnr" v="494630" />
		<tag k="waterway" v="stream" />
	</node>
	<node lat="61.41854999623978" lon="6.755988881611432" id="-37751">
		<tag k="name" v="Tangane" />
		<tag k="natural" v="cape" />
		<tag k="ssr:stedsnr" v="458958" />
	</node>
	<node lat="61.40921111324623" lon="6.719661101714945" id="-37754">
		<tag k="name" v="Stormofossen" />
		<tag k="natural" v="waterfall" />
		<tag k="ssr:stedsnr" v="458967" />
	</node>
	<node lat="61.335052781864206" lon="6.962663895566598" id="-37764">
		<tag k="name" v="Kvamselvi" />
		<tag k="ssr:stedsnr" v="675220" />
		<tag k="waterway" v="stream" />
	</node>
	<node lat="61.25829166800985" lon="7.085036115618734" id="-37771">
		<tag k="name" v="Liagrovi" />
		<tag k="ssr:stedsnr" v="675378" />
		<tag k="waterway" v="stream" />
	</node>
	<node lat="61.43599444113418" lon="6.780716662712285" id="-37784">
		<tag k="name" v="Supphelleelvi" />
		<tag k="ssr:stedsnr" v="675938" />
		<tag k="waterway" v="river" />
	</node>
	<node lat="61.22430832935614" lon="6.648927777692881" id="-37804">
		<tag k="name" v="Kvinna" />
		<tag k="ssr:stedsnr" v="677547" />
		<tag k="waterway" v="stream" />
	</node>
	<node lat="61.299827773648346" lon="7.046786102654864" id="-37816">
		<tag k="name" v="Svartavatnet" />
		<tag k="natural" v="water" />
		<tag k="ssr:stedsnr" v="493418" />
	</node>
	<node lat="61.33157499905214" lon="6.4265500070544235" id="-37827">
		<tag k="name" v="Lonevatnet" />
		<tag k="natural" v="water" />
		<tag k="ssr:stedsnr" v="493809" />
	</node>
	<node lat="61.270511112911414" lon="6.49690833389264" id="-37831">
		<tag k="name" v="Teigagrovi" />
		<tag k="ssr:stedsnr" v="493872" />
		<tag k="waterway" v="stream" />
	</node>
	<node lat="61.247166670475494" lon="6.867827774764281" id="-37834">
		<tag k="name" v="Reiseta" />
		<tag k="ssr:stedsnr" v="494511" />
		<tag k="waterway" v="stream" />
	</node>
	<node lat="61.176322220271615" lon="6.914536119554945" id="-37837">
		<tag k="name" v="Lomstjørni" />
		<tag k="natural" v="water" />
		<tag k="ssr:stedsnr" v="494914" />
	</node>
	<node lat="61.20703611226019" lon="7.309430551308077" id="-37844">
		<tag k="name" v="Søredemma" />
		<tag k="natural" v="water" />
		<tag k="ssr:stedsnr" v="495039" />
	</node>
	<node lat="61.13126944107606" lon="7.003477784639228" id="-37848">
		<tag k="name" v="Krågrovi" />
		<tag k="ssr:stedsnr" v="495474" />
		<tag k="waterway" v="stream" />
	</node>
	<node lat="61.13163055501248" lon="6.9907333287032305" id="-37850">
		<tag k="name" v="Kloppagrovi" />
		<tag k="ssr:stedsnr" v="495476" />
		<tag k="waterway" v="stream" />
	</node>
	<node lat="61.23436944650915" lon="6.956566661133393" id="-37851">
		<tag k="name" v="Budeiegrovi" />
		<tag k="ssr:stedsnr" v="495957" />
		<tag k="waterway" v="stream" />
	</node>
	<node lat="61.228461106798676" lon="6.931875004714177" id="-37853">
		<tag k="alt_name" v="Tistelgrovi" />
		<tag k="name" v="Tistelegrovi" />
		<tag k="ssr:stedsnr" v="495964" />
		<tag k="waterway" v="stream" />
	</node>
	<node lat="61.32789166908747" lon="6.9529888817933285" id="-37856">
		<tag k="alt_name" v="Kjørkjevikane" />
		<tag k="name" v="Kyrkjevikane" />
		<tag k="natural" v="bay" />
		<tag k="ssr:stedsnr" v="517177" />
	</node>
	<node lat="61.28191666973598" lon="6.692538893313443" id="-37866">
		<tag k="name" v="Sauerisfossen" />
		<tag k="natural" v="waterfall" />
		<tag k="ssr:stedsnr" v="518748" />
	</node>
	<node lat="61.255149997143405" lon="6.932930556343917" id="-37870">
		<tag k="name" v="Sanden" />
		<tag k="natural" v="beach" />
		<tag k="ssr:stedsnr" v="519723" />
	</node>
	<node lat="61.22151944642795" lon="6.479252785570186" id="-37874">
		<tag k="name" v="Hølsskreda" />
		<tag k="ssr:stedsnr" v="530917" />
		<tag k="waterway" v="stream" />
	</node>
	<node lat="61.28417221858003" lon="6.542386114313985" id="-37875">
		<tag k="name" v="Appelskreda" />
		<tag k="ssr:stedsnr" v="530900" />
		<tag k="waterway" v="stream" />
	</node>
	<node lat="61.33832222477276" lon="6.5667083339895775" id="-37883">
		<tag k="name" v="Vasstaket" />
		<tag k="ssr:stedsnr" v="531732" />
		<tag k="waterway" v="stream" />
	</node>
	<node lat="61.23639166553073" lon="6.481761116301169" id="-37885">
		<tag k="name" v="Breidskreda" />
		<tag k="ssr:stedsnr" v="531794" />
		<tag k="waterway" v="stream" />
	</node>
	<node lat="61.25453055340512" lon="6.8903527869377275" id="-37893">
		<tag k="alt_name" v="Hovdavatni" />
		<tag k="name" v="Hovdavatnet" />
		<tag k="natural" v="water" />
		<tag k="ssr:stedsnr" v="553144" />
	</node>
	<node lat="61.28068611378589" lon="7.118191665385919" id="-37894">
		<tag k="name" v="Kyrauga" />
		<tag k="place" v="locality" />
		<tag k="ssr:stedsnr" v="553307" />
	</node>
	<node lat="61.40307500433673" lon="6.935566663853167" id="-37900">
		<tag k="name" v="Stora Tverrdalsvatnet" />
		<tag k="natural" v="water" />
		<tag k="ssr:stedsnr" v="553914" />
	</node>
	<node lat="61.402750000788885" lon="6.724269448844888" id="-37905">
		<tag k="name" v="Mundalselvi" />
		<tag k="ssr:stedsnr" v="553894" />
		<tag k="waterway" v="river" />
	</node>
	<node lat="61.319424998042805" lon="7.010369445510412" id="-37907">
		<tag k="name" v="Storagrovi" />
		<tag k="ssr:stedsnr" v="554509" />
		<tag k="waterway" v="stream" />
	</node>
	<node lat="61.32140833316801" lon="6.869472220316881" id="-37908">
		<tag k="name" v="Nystøltjørni" />
		<tag k="natural" v="water" />
		<tag k="ssr:stedsnr" v="554224" />
	</node>
	<node lat="61.31559722372015" lon="6.454241672771349" id="-37909">
		<tag k="name" v="Skarvatn" />
		<tag k="natural" v="water" />
		<tag k="ssr:stedsnr" v="554844" />
		<tag k="water" v="lake" />
	</node>
	<node lat="61.32452499598959" lon="6.544441661503669" id="-37910">
		<tag k="name" v="Vatnaskredgrovi" />
		<tag k="ssr:stedsnr" v="554847" />
		<tag k="waterway" v="stream" />
	</node>
	<node lat="61.4624500040627" lon="6.791677768821441" id="-37923">
		<tag k="name" v="Tverrdøla" />
		<tag k="ssr:stedsnr" v="688666" />
		<tag k="waterway" v="river" />
	</node>
	<node lat="61.1199713099749" lon="6.981799829662249" id="-37945">
		<tag k="name" v="Gagersnesvatnet" />
		<tag k="natural" v="water" />
		<tag k="ssr:stedsnr" v="578803" />
		<tag k="water" v="lake" />
	</node>
	<node lat="61.20052222329009" lon="7.26603888948468" id="-37950">
		<tag k="name" v="Svartetjørn" />
		<tag k="natural" v="water" />
		<tag k="ssr:stedsnr" v="579613" />
	</node>
	<node lat="61.25669166597207" lon="6.930311103582996" id="-37956">
		<tag k="name" v="Kjøhalvardneset" />
		<tag k="natural" v="cape" />
		<tag k="ssr:stedsnr" v="580714" />
	</node>
	<node lat="61.11890555431959" lon="6.397197230867715" id="-37960">
		<tag k="name" v="Huselvi" />
		<tag k="ssr:stedsnr" v="591311" />
		<tag k="waterway" v="stream" />
	</node>
	<node lat="61.25548610993538" lon="7.020850006611607" id="-37987">
		<tag k="name" v="Rustagrovi" />
		<tag k="ssr:stedsnr" v="699945" />
		<tag k="waterway" v="stream" />
	</node>
	<node lat="61.32535833412877" lon="6.9355666674607" id="-37992">
		<tag k="name" v="Årenes" />
		<tag k="natural" v="cape" />
		<tag k="ssr:stedsnr" v="700197" />
	</node>
	<node lat="61.260094448343615" lon="6.947305558600075" id="-38024">
		<tag k="name" v="Storavatnet" />
		<tag k="natural" v="water" />
		<tag k="ssr:stedsnr" v="614156" />
	</node>
	<node lat="61.25152499843625" lon="6.9008277762917425" id="-38025">
		<tag k="alt_name" v="Vetlevatni" />
		<tag k="name" v="Vetlavatnet" />
		<tag k="natural" v="water" />
		<tag k="ssr:stedsnr" v="614157" />
	</node>
	<node lat="61.2747713149954" lon="7.065764872803274" id="-38029">
		<tag k="name" v="Halsavatnet" />
		<tag k="natural" v="water" />
		<tag k="ssr:stedsnr" v="614321" />
		<tag k="water" v="lake" />
	</node>
	<node lat="61.337772221488315" lon="6.436511111146193" id="-38036">
		<tag k="name" v="Remaelvi" />
		<tag k="ssr:stedsnr" v="614726" />
		<tag k="waterway" v="stream" />
	</node>
	<node lat="61.33396388744796" lon="6.595058332611084" id="-38048">
		<tag k="name" v="Renndalsgjeli" />
		<tag k="ssr:stedsnr" v="614963" />
		<tag k="waterway" v="stream" />
	</node>
	<node lat="61.1673527770227" lon="7.076497220276519" id="-38059">
		<tag k="name" v="Demmene" />
		<tag k="natural" v="water" />
		<tag k="ssr:stedsnr" v="616006" />
	</node>
	<node lat="61.212858336924654" lon="6.765794443556073" id="-38063">
		<tag k="alt_name" v="Knotla" />
		<tag k="name" v="Kotla" />
		<tag k="ssr:stedsnr" v="615983" />
		<tag k="waterway" v="stream" />
	</node>
	<node lat="61.22507777608031" lon="7.0327388904294175" id="-38067">
		<tag k="alt_name" v="Skaggagrovi" />
		<tag k="name" v="Slakkagrovi" />
		<tag k="ssr:stedsnr" v="616114" />
		<tag k="waterway" v="stream" />
	</node>
	<node lat="61.26099722340673" lon="6.922191671252071" id="-38071">
		<tag k="name" v="Botna" />
		<tag k="ssr:stedsnr" v="701746" />
		<tag k="waterway" v="stream" />
	</node>
	<node lat="61.13912499766195" lon="6.953344438563356" id="-38073">
		<tag k="alt_name" v="Skatjørn" />
		<tag k="name" v="Skadtjørni" />
		<tag k="natural" v="water" />
		<tag k="ssr:stedsnr" v="616889" />
	</node>
	<node lat="61.129495387200464" lon="6.966897560920603" id="-38074">
		<tag k="alt_name" v="Lomstjørni, s" />
		<tag k="name" v="Søra Lomstjørni" />
		<tag k="natural" v="water" />
		<tag k="ssr:stedsnr" v="617505" />
	</node>
	<node lat="61.40724721827339" lon="6.766986106671905" id="-38077">
		<tag k="name" v="Sandsskreda" />
		<tag k="ssr:stedsnr" v="701935" />
		<tag k="waterway" v="stream" />
	</node>
	<node lat="61.309461113554555" lon="7.001641663122276" id="-38080">
		<tag k="name" v="Årenes" />
		<tag k="natural" v="cape" />
		<tag k="ssr:stedsnr" v="638177" />
	</node>
	<node lat="61.37959722385302" lon="6.728702768863794" id="-38082">
		<tag k="name" v="Helleskreda" />
		<tag k="ssr:stedsnr" v="638585" />
		<tag k="waterway" v="stream" />
	</node>
	<node lat="61.26056110822548" lon="6.931461115332728" id="-38098">
		<tag k="name" v="Steina" />
		<tag k="ssr:stedsnr" v="640726" />
		<tag k="waterway" v="stream" />
	</node>
	<node lat="61.20494166576257" lon="6.523563892583721" id="-38102">
		<tag k="name" v="Hittungsgrovi" />
		<tag k="ssr:stedsnr" v="651008" />
		<tag k="waterway" v="stream" />
	</node>
	<node lat="61.262088885903715" lon="6.520986104177684" id="-38104">
		<tag k="name" v="Langskreda" />
		<tag k="ssr:stedsnr" v="651747" />
		<tag k="waterway" v="stream" />
	</node>
</osm>
