<?xml version="1.0" encoding="UTF-8"?>
<osm generator="osmapis" version="0.6">
	<node id="-654816" lat="61.1278816439" lon="6.9635615617">
		<tag k="fixme" v="consider boundary=protected_area and relevant protect_class if not nature reserve" />
		<tag k="leisure" v="nature_reserve" />
		<tag k="name" v="FimreiteÃ¥sen naturreservat" />
		<tag k="ssr:stedsnr" v="971504" />
	</node>
	<node id="-654329" lat="61.2055277775" lon="7.15909167193">
		<tag k="name" v="Sogndal Almenning" />
		<tag k="place" v="locality" />
		<tag k="ssr:stedsnr" v="882498" />
	</node>
	<node id="-654326" lat="61.1989555514" lon="7.13603888677">
		<tag k="name" v="Haugesiden Almenning" />
		<tag k="place" v="locality" />
		<tag k="ssr:stedsnr" v="882492" />
	</node>
	<node id="-656819" lat="61.1393726012" lon="7.0718035582">
		<tag k="fixme" v="consider boundary=protected_area and relevant protect_class if not nature reserve" />
		<tag k="leisure" v="nature_reserve" />
		<tag k="name" v="Tingastad naturreservat" />
		<tag k="ssr:stedsnr" v="989185" />
	</node>
	<node id="-656818" lat="61.2460649942" lon="7.24407720679">
		<tag k="fixme" v="consider boundary=protected_area and relevant protect_class if not nature reserve" />
		<tag k="leisure" v="nature_reserve" />
		<tag k="name" v="Breisete naturreservat" />
		<tag k="ssr:stedsnr" v="985577" />
	</node>
	<node id="-656817" lat="61.171564134" lon="7.14779053987">
		<tag k="fixme" v="consider boundary=protected_area and relevant protect_class if not nature reserve" />
		<tag k="leisure" v="nature_reserve" />
		<tag k="name" v="Rodeholene naturreservat" />
		<tag k="ssr:stedsnr" v="985576" />
	</node>
	<node id="-655527" lat="61.1316083302" lon="7.01823610894">
		<tag k="name" v="Vikaalmenningen" />
		<tag k="place" v="locality" />
		<tag k="ssr:stedsnr" v="215571" />
	</node>
	<node id="-656103" lat="61.1462166654" lon="7.14182777448">
		<tag k="name" v="Feios almenning" />
		<tag k="place" v="locality" />
		<tag k="ssr:stedsnr" v="578577" />
	</node>
</osm>
