<?xml version="1.0" encoding="UTF-8"?>
<osm version="0.6" generator="osmapis">
	<node lat="61.16111975634435" lon="6.994786576941272" id="-33177">
		<tag k="name" v="Leirviki" />
		<tag k="natural" v="bay" />
		<tag k="ssr:stedsnr" v="32503" />
	</node>
	<node lat="61.4103739433352" lon="6.744055650251825" id="-33197">
		<tag k="name" v="Labergneset" />
		<tag k="natural" v="cape" />
		<tag k="ssr:stedsnr" v="236043" />
	</node>
	<node lat="61.252522224326896" lon="6.545144449901193" id="-33200">
		<tag k="name" v="Klorviki" />
		<tag k="natural" v="bay" />
		<tag k="ssr:stedsnr" v="236563" />
	</node>
	<node lat="61.41468610687964" lon="6.76000277296205" id="-33201">
		<tag k="name" v="Stølaviki" />
		<tag k="natural" v="bay" />
		<tag k="ssr:stedsnr" v="236751" />
	</node>
	<node lat="61.25023055861919" lon="7.138077775338748" id="-33242">
		<tag k="name" v="Barsnes" />
		<tag k="natural" v="cape" />
		<tag k="ssr:stedsnr" v="69297" />
	</node>
	<node lat="61.160230558083235" lon="6.9445055622902165" id="-33261">
		<tag k="name" v="Hoppeneset" />
		<tag k="natural" v="cape" />
		<tag k="ssr:stedsnr" v="70819" />
	</node>
	<node lat="61.263927774199665" lon="7.162313891696123" id="-33286">
		<tag k="name" v="Røysaneset" />
		<tag k="natural" v="cape" />
		<tag k="ssr:stedsnr" v="93370" />
	</node>
	<node lat="61.259130555990524" lon="7.149788897608777" id="-33287">
		<tag k="name" v="Sundhella" />
		<tag k="natural" v="cape" />
		<tag k="ssr:stedsnr" v="93381" />
	</node>
	<node lat="61.13502777980338" lon="6.519055546508363" id="-33314">
		<tag k="name" v="Kvernhusviki" />
		<tag k="natural" v="bay" />
		<tag k="ssr:stedsnr" v="106037" />
	</node>
	<node lat="61.22669444113968" lon="6.548608329141367" id="-33325">
		<tag k="name" v="Vikane" />
		<tag k="natural" v="cape" />
		<tag k="ssr:stedsnr" v="107910" />
	</node>
	<node lat="61.26707777959922" lon="6.65048611537854" id="-33327">
		<tag k="name" v="Børtnes" />
		<tag k="natural" v="cape" />
		<tag k="ssr:stedsnr" v="250143" />
	</node>
	<node lat="61.41037777566229" lon="6.759544444466479" id="-33345">
		<tag k="name" v="Moshammarneset" />
		<tag k="natural" v="cape" />
		<tag k="ssr:stedsnr" v="115724" />
	</node>
	<node lat="61.36494444859307" lon="6.724133324848552" id="-33373">
		<tag k="name" v="Uranakken" />
		<tag k="natural" v="cape" />
		<tag k="ssr:stedsnr" v="250996" />
	</node>
	<node lat="61.24897221920313" lon="7.1603694522182835" id="-33386">
		<tag k="name" v="Vikalandet" />
		<tag k="natural" v="beach" />
		<tag k="ssr:stedsnr" v="252109" />
	</node>
	<node lat="61.21050832998449" lon="6.537705550524631" id="-33452">
		<tag k="name" v="Munken" />
		<tag k="natural" v="cape" />
		<tag k="ssr:stedsnr" v="252698" />
	</node>
	<node lat="61.131569441899764" lon="6.938919446045296" id="-33457">
		<tag k="name" v="Haugaviki" />
		<tag k="natural" v="bay" />
		<tag k="ssr:stedsnr" v="252750" />
	</node>
	<node lat="61.151252774335326" lon="6.982311115169871" id="-33470">
		<tag k="alt_name" v="Vetleholmen" />
		<tag k="name" v="Vesleholmen" />
		<tag k="place" v="islet" />
		<tag k="ssr:stedsnr" v="253024" />
	</node>
	<node lat="61.26188055684346" lon="7.1734249926425395" id="-33497">
		<tag k="name" v="Bjørgi" />
		<tag k="natural" v="beach" />
		<tag k="ssr:stedsnr" v="154503" />
	</node>
	<node lat="61.115866665365644" lon="6.420055558743349" id="-33509">
		<tag k="name" v="Sanden" />
		<tag k="natural" v="beach" />
		<tag k="ssr:stedsnr" v="167957" />
	</node>
	<node lat="61.27568610908138" lon="6.515127772631979" id="-33511">
		<tag k="name" v="Marneset" />
		<tag k="natural" v="cape" />
		<tag k="ssr:stedsnr" v="167969" />
	</node>
	<node lat="61.208833334822955" lon="7.147336106965616" id="-33514">
		<tag k="name" v="Hærnesbukti" />
		<tag k="natural" v="bay" />
		<tag k="ssr:stedsnr" v="176054" />
	</node>
	<node lat="61.12655277406473" lon="6.473172216833512" id="-33515">
		<tag k="name" v="Kvamsbukti" />
		<tag k="natural" v="bay" />
		<tag k="ssr:stedsnr" v="176556" />
	</node>
	<node lat="61.15087222494463" lon="6.994677781160284" id="-33516">
		<tag k="name" v="Indrebogen" />
		<tag k="natural" v="bay" />
		<tag k="ssr:stedsnr" v="177018" />
	</node>
	<node lat="61.1274879086175" lon="6.4820168368048385" id="-33542">
		<tag k="name" v="Kvamsøy" />
		<tag k="place" v="islet" />
		<tag k="ssr:stedsnr" v="191614" />
	</node>
	<node lat="61.11270277857293" lon="6.4286777760240374" id="-33544">
		<tag k="alt_name" v="Furuneset" />
		<tag k="name" v="Fureneset" />
		<tag k="natural" v="cape" />
		<tag k="ssr:stedsnr" v="191627" />
	</node>
	<node lat="61.15599722434796" lon="6.998161112544069" id="-33554">
		<tag k="name" v="Nornessundet" />
		<tag k="natural" v="strait" />
		<tag k="ssr:stedsnr" v="192020" />
	</node>
	<node lat="61.1588055573132" lon="7.175827780369847" id="-33555">
		<tag k="name" v="Rudsviki" />
		<tag k="natural" v="bay" />
		<tag k="ssr:stedsnr" v="192023" />
	</node>
	<node lat="61.15973610687445" lon="6.922155546836017" id="-33556">
		<tag k="name" v="Saltskjer" />
		<tag k="natural" v="cape" />
		<tag k="ssr:stedsnr" v="191798" />
	</node>
	<node lat="61.271116669420344" lon="6.526600000888018" id="-33588">
		<tag k="name" v="Langesva" />
		<tag k="natural" v="cape" />
		<tag k="ssr:stedsnr" v="227736" />
	</node>
	<node lat="61.26647499614804" lon="6.519408333392752" id="-33589">
		<tag k="name" v="Øyraneset" />
		<tag k="natural" v="cape" />
		<tag k="ssr:stedsnr" v="227738" />
	</node>
	<node lat="61.1225611097482" lon="6.470561110772582" id="-33592">
		<tag k="name" v="Verpeneset" />
		<tag k="natural" v="cape" />
		<tag k="ssr:stedsnr" v="227916" />
	</node>
	<node lat="61.289861113227595" lon="6.5645583318460705" id="-33594">
		<tag k="name" v="Budeieviki" />
		<tag k="natural" v="bay" />
		<tag k="ssr:stedsnr" v="227840" />
	</node>
	<node lat="61.21254166275375" lon="6.513666661351988" id="-33597">
		<tag k="name" v="Støvelstolviki" />
		<tag k="natural" v="bay" />
		<tag k="ssr:stedsnr" v="227882" />
	</node>
	<node lat="61.25281388670779" lon="7.168761115939787" id="-33617">
		<tag k="alt_name" v="Skogdølneset" />
		<tag k="name" v="Skoddelneset" />
		<tag k="natural" v="cape" />
		<tag k="ssr:stedsnr" v="457393" />
	</node>
	<node lat="61.17239999859483" lon="7.000172228608686" id="-33624">
		<tag k="name" v="Buviki" />
		<tag k="natural" v="bay" />
		<tag k="ssr:stedsnr" v="457670" />
	</node>
	<node lat="61.227747221478275" lon="7.102677783768706" id="-33629">
		<tag k="name" v="Granden" />
		<tag k="natural" v="cape" />
		<tag k="ssr:stedsnr" v="457743" />
	</node>
	<node lat="61.314652781316035" lon="6.697611115166103" id="-33669">
		<tag k="name" v="Ospeneset" />
		<tag k="natural" v="cape" />
		<tag k="ssr:stedsnr" v="275987" />
	</node>
	<node lat="61.20330555771511" lon="6.673169435428195" id="-33729">
		<tag k="alt_name" v="Skjær" />
		<tag k="fixme" v="consider seamark:type=rock or natural=shoal" />
		<tag k="name" v="Skjer" />
		<tag k="place" v="islet" />
		<tag k="ssr:stedsnr" v="312977" />
	</node>
	<node lat="61.182769446530536" lon="6.7131194518173105" id="-33734">
		<tag k="name" v="Verkaneset" />
		<tag k="natural" v="cape" />
		<tag k="ssr:stedsnr" v="312867" />
	</node>
	<node lat="61.15293333607459" lon="6.970941668983752" id="-33737">
		<tag k="alt_name" v="Tangen" />
		<tag k="name" v="Gjerlogtangen" />
		<tag k="natural" v="cape" />
		<tag k="ssr:stedsnr" v="313025" />
	</node>
	<node lat="61.141355555359176" lon="7.165780560489586" id="-33742">
		<tag k="alt_name" v="Klovstein" />
		<tag k="name" v="Klovsteinen" />
		<tag k="natural" v="cape" />
		<tag k="ssr:stedsnr" v="313477" />
	</node>
	<node lat="61.27018333259448" lon="6.510741676022432" id="-33749">
		<tag k="name" v="Viki" />
		<tag k="natural" v="bay" />
		<tag k="ssr:stedsnr" v="469775" />
	</node>
	<node lat="61.20950277881894" lon="6.537844445139101" id="-33752">
		<tag k="name" v="Holmen" />
		<tag k="natural" v="cape" />
		<tag k="ssr:stedsnr" v="470035" />
	</node>
	<node lat="61.13026944190084" lon="6.478863893171489" id="-33754">
		<tag k="name" v="Fjørene" />
		<tag k="natural" v="beach" />
		<tag k="ssr:stedsnr" v="470055" />
	</node>
	<node lat="61.27042777403887" lon="6.565230546599529" id="-33763">
		<tag k="name" v="Alstokkenes" />
		<tag k="natural" v="cape" />
		<tag k="ssr:stedsnr" v="470691" />
	</node>
	<node lat="61.17165555427706" lon="6.54176388664046" id="-33777">
		<tag k="name" v="Flesjaneset" />
		<tag k="natural" v="cape" />
		<tag k="ssr:stedsnr" v="470947" />
	</node>
	<node lat="61.396622223678804" lon="6.73913888079725" id="-33789">
		<tag k="name" v="Nesaviki" />
		<tag k="natural" v="bay" />
		<tag k="ssr:stedsnr" v="336519" />
	</node>
	<node lat="61.16277222611607" lon="7.281833325188111" id="-33790">
		<tag k="name" v="Heggebakkneset" />
		<tag k="natural" v="cape" />
		<tag k="ssr:stedsnr" v="336529" />
	</node>
	<node lat="61.29346110862729" lon="6.656302770178105" id="-33799">
		<tag k="name" v="Nausthaugviki" />
		<tag k="natural" v="bay" />
		<tag k="ssr:stedsnr" v="336752" />
	</node>
	<node lat="61.220697221593525" lon="6.592194452812578" id="-33816">
		<tag k="alt_name" v="Tenningsbukti" />
		<tag k="name" v="Tenningaviki" />
		<tag k="natural" v="bay" />
		<tag k="ssr:stedsnr" v="348868" />
	</node>
	<node lat="61.24228889262048" lon="7.1300500043420705" id="-33823">
		<tag k="fixme" v="consider seamark:type=rock or natural=shoal" />
		<tag k="name" v="Håvardskjeret" />
		<tag k="place" v="islet" />
		<tag k="ssr:stedsnr" v="358054" />
	</node>
	<node lat="61.21410555723205" lon="6.506755563679589" id="-33849">
		<tag k="name" v="Rissva" />
		<tag k="natural" v="cape" />
		<tag k="ssr:stedsnr" v="479531" />
	</node>
	<node lat="61.34767222318436" lon="6.714636110020621" id="-33900">
		<tag k="name" v="Leirviki" />
		<tag k="natural" v="bay" />
		<tag k="ssr:stedsnr" v="396929" />
	</node>
	<node lat="61.127408332379815" lon="6.472738889693871" id="-33918">
		<tag k="name" v="Skitviki" />
		<tag k="natural" v="bay" />
		<tag k="ssr:stedsnr" v="409092" />
	</node>
	<node lat="61.2484777734702" lon="6.550775002009016" id="-33922">
		<tag k="name" v="Hankaneset" />
		<tag k="natural" v="cape" />
		<tag k="ssr:stedsnr" v="409840" />
	</node>
	<node lat="61.2679027777614" lon="6.5160750015438715" id="-33925">
		<tag k="name" v="Dalsøren" />
		<tag k="natural" v="cape" />
		<tag k="ssr:stedsnr" v="409744" />
	</node>
	<node lat="61.16025277941946" lon="6.544344441538036" id="-33930">
		<tag k="name" v="Hestvikneset" />
		<tag k="natural" v="cape" />
		<tag k="ssr:stedsnr" v="418559" />
	</node>
	<node lat="61.24157222198338" lon="7.132102774655204" id="-33961">
		<tag k="name" v="Vandaneset" />
		<tag k="natural" v="cape" />
		<tag k="ssr:stedsnr" v="435119" />
	</node>
	<node lat="61.179027777380306" lon="7.017958325844881" id="-33969">
		<tag k="name" v="Ylvesåkneset" />
		<tag k="natural" v="cape" />
		<tag k="ssr:stedsnr" v="435072" />
	</node>
	<node lat="61.301952781695874" lon="6.684983340625299" id="-33980">
		<tag k="name" v="Karihamn" />
		<tag k="natural" v="cape" />
		<tag k="ssr:stedsnr" v="493238" />
	</node>
	<node lat="61.13661944289441" lon="6.933241659443129" id="-34011">
		<tag k="alt_name" v="Meisaviki" />
		<tag k="name" v="Meisavika" />
		<tag k="natural" v="bay" />
		<tag k="ssr:stedsnr" v="494748" />
	</node>
	<node lat="61.20861666599397" lon="7.142155550818444" id="-34015">
		<tag k="name" v="Hærnes" />
		<tag k="natural" v="cape" />
		<tag k="ssr:stedsnr" v="457509" />
	</node>
	<node lat="61.31750555358695" lon="6.6989555482046885" id="-34023">
		<tag k="name" v="Perneset" />
		<tag k="natural" v="cape" />
		<tag k="ssr:stedsnr" v="457904" />
	</node>
	<node lat="61.136147219946636" lon="6.5276111075691" id="-34055">
		<tag k="name" v="Gaupestoi" />
		<tag k="natural" v="beach" />
		<tag k="ssr:stedsnr" v="470809" />
	</node>
	<node lat="61.15166944809889" lon="6.9904250027043915" id="-34080">
		<tag k="name" v="Storeholmen" />
		<tag k="place" v="islet" />
		<tag k="ssr:stedsnr" v="677025" />
	</node>
	<node lat="61.216880554378164" lon="6.508466661853038" id="-34115">
		<tag k="bay" v="fjord" />
		<tag k="name" v="Esefjorden" />
		<tag k="natural" v="bay" />
		<tag k="ssr:stedsnr" v="494661" />
	</node>
	<node lat="61.15571944303168" lon="7.004275005377096" id="-34122">
		<tag k="name" v="Hagastrondi" />
		<tag k="natural" v="beach" />
		<tag k="ssr:stedsnr" v="495031" />
	</node>
	<node lat="61.18894722559802" lon="6.5294055571726135" id="-34156">
		<tag k="name" v="Bruhjellsnoi" />
		<tag k="natural" v="beach" />
		<tag k="ssr:stedsnr" v="531023" />
	</node>
</osm>
