<?xml version="1.0" encoding="UTF-8"?>
<<<<<<< HEAD
<osm version="0.6" generator="osmapis">
	<node lat="61.249355552882626" lon="11.229772226280614" id="-16212">
		<tag k="historic" v="boundary_stone" />
		<tag k="man_made" v="cairn" />
		<tag k="name" v="Kneet" />
		<tag k="place" v="locality" />
		<tag k="ssr:stedsnr" v="950509" />
	</node>
	<node lat="61.640738910058424" lon="10.91267621885109" id="-16232">
		<tag k="fixme" v="consider boundary=protected_area and relevant protect_class if not nature reserve" />
		<tag k="leisure" v="nature_reserve" />
		<tag k="name" v="Viengskletten naturreservat" />
		<tag k="ssr:stedsnr" v="969491" />
	</node>
	<node lat="61.49899783754346" lon="11.093808421942605" id="-16238">
=======
<osm generator="osmapis" version="0.6">
	<node id="-343360" lat="61.3243338254" lon="11.2592913789">
		<tag k="fixme" v="consider boundary=protected_area and relevant protect_class if not nature reserve" />
		<tag k="leisure" v="nature_reserve" />
		<tag k="name" v="Svendstuøyene naturreservat" />
		<tag k="ssr:stedsnr" v="981240" />
	</node>
	<node id="-343359" lat="61.4853299184" lon="11.0623444807">
		<tag k="fixme" v="consider boundary=protected_area and relevant protect_class if not nature reserve" />
		<tag k="leisure" v="nature_reserve" />
		<tag k="name" v="Solfrittkroken naturreservat" />
		<tag k="ssr:stedsnr" v="976250" />
	</node>
	<node id="-343358" lat="61.903404261" lon="10.0926333026">
		<tag k="fixme" v="consider boundary=protected_area and relevant protect_class if not nature reserve" />
		<tag k="leisure" v="nature_reserve" />
		<tag k="name" v="Atnsjømyrene naturreservat" />
		<tag k="ssr:stedsnr" v="976179" />
	</node>
	<node id="-343352" lat="61.4989978375" lon="11.0938084219">
>>>>>>> e1d4bc35ff8a6074a6f2e91616a996b547c36f15
		<tag k="fixme" v="consider boundary=protected_area and relevant protect_class if not nature reserve" />
		<tag k="leisure" v="nature_reserve" />
		<tag k="name" v="Veslhammarlia naturreservat" />
		<tag k="ssr:stedsnr" v="971434" />
	</node>
<<<<<<< HEAD
	<node lat="61.32433382539406" lon="11.259291378913698" id="-16242">
=======
	<node id="-343351" lat="61.5390671775" lon="10.8319412848">
>>>>>>> e1d4bc35ff8a6074a6f2e91616a996b547c36f15
		<tag k="fixme" v="consider boundary=protected_area and relevant protect_class if not nature reserve" />
		<tag k="leisure" v="nature_reserve" />
		<tag k="name" v="Svendstuøyene naturreservat" />
		<tag k="ssr:stedsnr" v="981240" />
	</node>
<<<<<<< HEAD
	<node lat="61.44265293045385" lon="11.186072327616749" id="-16243">
		<tag k="fixme" v="consider boundary=protected_area and relevant protect_class if not nature reserve" />
		<tag k="leisure" v="nature_reserve" />
		<tag k="name" v="Tøråsen naturreservat" />
		<tag k="ssr:stedsnr" v="982690" />
	</node>
	<node lat="61.42352820542885" lon="11.191504286443006" id="-16244">
		<tag k="fixme" v="consider boundary=protected_area and relevant protect_class if not nature reserve" />
		<tag k="leisure" v="nature_reserve" />
		<tag k="name" v="Gråkletten naturreservat" />
		<tag k="ssr:stedsnr" v="982691" />
	</node>
	<node lat="61.43514194520664" lon="11.110536366538962" id="-16246">
		<tag k="fixme" v="consider boundary=protected_area and relevant protect_class if not nature reserve" />
		<tag k="leisure" v="nature_reserve" />
		<tag k="name" v="Tronkberget naturreservat" />
		<tag k="ssr:stedsnr" v="991094" />
	</node>
	<node lat="61.44038970586211" lon="10.820755549643716" id="-17390">
=======
	<node id="-343350" lat="61.4403897059" lon="10.8207555496">
>>>>>>> e1d4bc35ff8a6074a6f2e91616a996b547c36f15
		<tag k="fixme" v="consider boundary=protected_area and relevant protect_class if not nature reserve" />
		<tag k="leisure" v="nature_reserve" />
		<tag k="name" v="Eldåa naturreservat" />
		<tag k="ssr:stedsnr" v="971432" />
	</node>
<<<<<<< HEAD
	<node lat="61.53906717750925" lon="10.83194128480139" id="-17391">
		<tag k="fixme" v="consider boundary=protected_area and relevant protect_class if not nature reserve" />
		<tag k="leisure" v="nature_reserve" />
		<tag k="name" v="Rokkåa naturreservat" />
		<tag k="ssr:stedsnr" v="971433" />
	</node>
	<node lat="61.485329918388445" lon="11.062344480707866" id="-17394">
=======
	<node id="-343376" lat="61.5866975092" lon="10.9563976886">
>>>>>>> e1d4bc35ff8a6074a6f2e91616a996b547c36f15
		<tag k="fixme" v="consider boundary=protected_area and relevant protect_class if not nature reserve" />
		<tag k="leisure" v="nature_reserve" />
		<tag k="name" v="Solfrittkroken naturreservat" />
		<tag k="ssr:stedsnr" v="976250" />
	</node>
<<<<<<< HEAD
	<node lat="61.90340426104016" lon="10.092633302619413" id="-17395">
=======
	<node id="-343375" lat="61.5844119131" lon="10.9190944085">
>>>>>>> e1d4bc35ff8a6074a6f2e91616a996b547c36f15
		<tag k="fixme" v="consider boundary=protected_area and relevant protect_class if not nature reserve" />
		<tag k="leisure" v="nature_reserve" />
		<tag k="name" v="Atnsjømyrene naturreservat" />
		<tag k="ssr:stedsnr" v="976179" />
	</node>
<<<<<<< HEAD
	<node lat="61.64688119645568" lon="10.78294994988011" id="-17396">
=======
	<node id="-343374" lat="61.5682071597" lon="10.9281815334">
>>>>>>> e1d4bc35ff8a6074a6f2e91616a996b547c36f15
		<tag k="fixme" v="consider boundary=protected_area and relevant protect_class if not nature reserve" />
		<tag k="leisure" v="nature_reserve" />
		<tag k="name" v="Kvannskardkletten naturreservat" />
		<tag k="ssr:stedsnr" v="989005" />
	</node>
<<<<<<< HEAD
	<node lat="61.50999893855002" lon="10.716927129590621" id="-17403">
=======
	<node id="-343372" lat="61.5099989386" lon="10.7169271296">
>>>>>>> e1d4bc35ff8a6074a6f2e91616a996b547c36f15
		<tag k="fixme" v="consider boundary=protected_area and relevant protect_class if not nature reserve" />
		<tag k="leisure" v="nature_reserve" />
		<tag k="name" v="Gålaskarven naturreservat" />
		<tag k="ssr:stedsnr" v="1072110" />
	</node>
<<<<<<< HEAD
	<node lat="61.58441191308209" lon="10.91909440854949" id="-17405">
		<tag k="fixme" v="consider boundary=protected_area and relevant protect_class if not nature reserve" />
		<tag k="leisure" v="nature_reserve" />
		<tag k="name" v="Sæteråsskaret naturreservat" />
		<tag k="ssr:stedsnr" v="1074764" />
	</node>
	<node lat="61.58669750917399" lon="10.95639768857447" id="-17406">
=======
	<node id="-343304" lat="61.2493555529" lon="11.2297722263">
		<tag k="historic" v="boundary_stone" />
		<tag k="man_made" v="cairn" />
		<tag k="name" v="Kneet" />
		<tag k="place" v="locality" />
		<tag k="ssr:stedsnr" v="950509" />
	</node>
	<node id="-343340" lat="61.6305138932" lon="10.9119305628">
		<tag k="fixme" v="consider boundary=protected_area and relevant protect_class if not nature reserve" />
		<tag k="leisure" v="nature_reserve" />
		<tag k="name" v="Viengskletten naturreservat" />
		<tag k="ssr:stedsnr" v="969491" />
	</node>
	<node id="-343365" lat="61.4351419452" lon="11.1105363665">
>>>>>>> e1d4bc35ff8a6074a6f2e91616a996b547c36f15
		<tag k="fixme" v="consider boundary=protected_area and relevant protect_class if not nature reserve" />
		<tag k="leisure" v="nature_reserve" />
		<tag k="name" v="Ulvbergkletten naturreservat" />
		<tag k="ssr:stedsnr" v="1074765" />
	</node>
<<<<<<< HEAD
	<node lat="61.568207159692655" lon="10.928181533377952" id="-17407">
=======
	<node id="-343364" lat="61.6468811965" lon="10.7829499499">
>>>>>>> e1d4bc35ff8a6074a6f2e91616a996b547c36f15
		<tag k="fixme" v="consider boundary=protected_area and relevant protect_class if not nature reserve" />
		<tag k="leisure" v="nature_reserve" />
		<tag k="name" v="Trya naturreservat" />
		<tag k="ssr:stedsnr" v="1074761" />
	</node>
<<<<<<< HEAD
	<node lat="61.76165330554614" lon="10.902050053103205" id="-17413">
=======
	<node id="-343362" lat="61.4235282054" lon="11.1915042864">
>>>>>>> e1d4bc35ff8a6074a6f2e91616a996b547c36f15
		<tag k="fixme" v="consider boundary=protected_area and relevant protect_class if not nature reserve" />
		<tag k="leisure" v="nature_reserve" />
		<tag k="name" v="Hanestadvola naturreservat" />
		<tag k="ssr:stedsnr" v="1078014" />
	</node>
<<<<<<< HEAD
	<node lat="61.75656666298278" lon="10.787468961683745" id="-17414">
=======
	<node id="-343361" lat="61.4426529305" lon="11.1860723276">
>>>>>>> e1d4bc35ff8a6074a6f2e91616a996b547c36f15
		<tag k="fixme" v="consider boundary=protected_area and relevant protect_class if not nature reserve" />
		<tag k="leisure" v="nature_reserve" />
		<tag k="name" v="Atnoset naturreservat" />
		<tag k="ssr:stedsnr" v="1078015" />
	</node>
<<<<<<< HEAD
	<node lat="61.35457080020191" lon="11.210361228077502" id="-17415">
		<tag k="fixme" v="consider boundary=protected_area and relevant protect_class if not nature reserve" />
		<tag k="leisure" v="nature_reserve" />
		<tag k="name" v="Krokkletten naturreservat" />
		<tag k="ssr:stedsnr" v="1079558" />
	</node>
	<node lat="61.612514110236475" lon="10.980783388667282" id="-17419">
		<tag k="fixme" v="consider boundary=protected_area and relevant protect_class if not nature reserve" />
		<tag k="leisure" v="nature_reserve" />
		<tag k="name" v="Månskjæra naturreservat" />
		<tag k="ssr:stedsnr" v="1081099" />
	</node>
	<node lat="61.502098101217776" lon="10.885367450628328" id="-17420">
		<tag k="fixme" v="consider boundary=protected_area and relevant protect_class if not nature reserve" />
		<tag k="leisure" v="nature_reserve" />
		<tag k="name" v="Sjøbekken naturreservat" />
		<tag k="ssr:stedsnr" v="1081100" />
	</node>
=======
>>>>>>> e1d4bc35ff8a6074a6f2e91616a996b547c36f15
</osm>
