<?xml version="1.0" encoding="UTF-8"?>
<osm version="0.6" generator="osmapis">
	<node lat="61.42636110714133" lon="10.96057500746564" id="-24330">
		<tag k="landuse" v="meadow" />
		<tag k="name" v="Alvestuslåtten" />
		<tag k="ssr:stedsnr" v="39874" />
	</node>
	<node lat="61.402111114353445" lon="11.06390832884778" id="-24338">
		<tag k="name" v="Snipperslåtten" />
		<tag k="place" v="locality" />
		<tag k="ssr:stedsnr" v="41883" />
	</node>
	<node lat="61.41030277886438" lon="11.034674996325032" id="-24340">
		<tag k="name" v="Knutsmork" />
		<tag k="place" v="locality" />
		<tag k="ssr:stedsnr" v="41889" />
	</node>
	<node lat="61.25001110657769" lon="11.301613895937848" id="-24341">
		<tag k="name" v="Kvislmyra" />
		<tag k="natural" v="wetland" />
		<tag k="ssr:stedsnr" v="42512" />
	</node>
	<node lat="61.45066944623846" lon="10.814977772643333" id="-24348">
		<tag k="name" v="Myrbakken" />
		<tag k="place" v="locality" />
		<tag k="ssr:stedsnr" v="238647" />
	</node>
	<node lat="61.36591944621475" lon="11.280516658152859" id="-24351">
		<tag k="name" v="Sønstmyra" />
		<tag k="natural" v="wetland" />
		<tag k="ssr:stedsnr" v="238822" />
	</node>
	<node lat="61.84507777945479" lon="10.227905556497358" id="-24353">
		<tag k="name" v="Granrøstmyra" />
		<tag k="natural" v="wetland" />
		<tag k="ssr:stedsnr" v="239263" />
	</node>
	<node lat="61.7646888898826" lon="10.46115833031569" id="-24355">
		<tag k="name" v="Gammelsætermyra" />
		<tag k="natural" v="wetland" />
		<tag k="ssr:stedsnr" v="239519" />
	</node>
	<node lat="61.38508055706898" lon="11.275880555179855" id="-24358">
		<tag k="name" v="Storstensmyra" />
		<tag k="natural" v="wetland" />
		<tag k="ssr:stedsnr" v="56812" />
	</node>
	<node lat="61.7742777784838" lon="10.370730560853849" id="-24366">
		<tag k="name" v="Småslåa" />
		<tag k="place" v="locality" />
		<tag k="ssr:stedsnr" v="57480" />
	</node>
	<node lat="61.60289444189369" lon="11.065230551915102" id="-24372">
		<tag k="name" v="Blæstermyrene" />
		<tag k="natural" v="wetland" />
		<tag k="ssr:stedsnr" v="59310" />
	</node>
	<node lat="61.805063884730004" lon="10.493508333857314" id="-24376">
		<tag k="name" v="Trekanten" />
		<tag k="place" v="locality" />
		<tag k="ssr:stedsnr" v="59975" />
	</node>
	<node lat="61.40172777799148" lon="11.090147229097338" id="-24379">
		<tag k="name" v="Gillerengmyra" />
		<tag k="natural" v="wetland" />
		<tag k="ssr:stedsnr" v="241241" />
	</node>
	<node lat="61.77732777889473" lon="10.315541672622318" id="-24386">
		<tag k="name" v="Revhaugmyrene" />
		<tag k="natural" v="wetland" />
		<tag k="ssr:stedsnr" v="241371" />
	</node>
	<node lat="61.3587499996997" lon="11.001025004327744" id="-24402">
		<tag k="name" v="Akselmyra" />
		<tag k="natural" v="wetland" />
		<tag k="ssr:stedsnr" v="69436" />
	</node>
	<node lat="61.690666664273344" lon="10.924372227407432" id="-24425">
		<tag k="name" v="Hælasbusætan" />
		<tag k="place" v="locality" />
		<tag k="ssr:stedsnr" v="101104" />
	</node>
	<node lat="61.452411113239094" lon="11.025422225538327" id="-24429">
		<tag k="name" v="Kringlemyra" />
		<tag k="natural" v="wetland" />
		<tag k="ssr:stedsnr" v="101786" />
	</node>
	<node lat="61.357488892662396" lon="10.835513885112137" id="-24461">
		<tag k="name" v="Svartsteinen" />
		<tag k="natural" v="stone" />
		<tag k="ssr:stedsnr" v="251428" />
	</node>
	<node lat="61.926005555680874" lon="10.24748888985791" id="-24495">
		<tag k="name" v="Skjellåmyrin" />
		<tag k="natural" v="wetland" />
		<tag k="ssr:stedsnr" v="131614" />
	</node>
	<node lat="61.419413890120914" lon="10.903416660832752" id="-24513">
		<tag k="landuse" v="meadow" />
		<tag k="name" v="Slåtten" />
		<tag k="ssr:stedsnr" v="161554" />
	</node>
	<node lat="61.40732777507883" lon="11.028166659946905" id="-24518">
		<tag k="name" v="Rognermorka" />
		<tag k="place" v="locality" />
		<tag k="ssr:stedsnr" v="162906" />
	</node>
	<node lat="61.57350277643778" lon="10.990030552838338" id="-24529">
		<tag k="name" v="Løvmyra" />
		<tag k="place" v="locality" />
		<tag k="ssr:stedsnr" v="180366" />
	</node>
	<node lat="61.588530558293236" lon="10.877174999311555" id="-24553">
		<tag k="name" v="Måsåmyra" />
		<tag k="natural" v="wetland" />
		<tag k="ssr:stedsnr" v="221114" />
	</node>
	<node lat="61.217608330762936" lon="11.278816668389561" id="-24558">
		<tag k="name" v="Tovmyra" />
		<tag k="natural" v="wetland" />
		<tag k="ssr:stedsnr" v="222415" />
	</node>
	<node lat="61.24267778072391" lon="11.244377770702583" id="-24559">
		<tag k="name" v="Slagåsmyra" />
		<tag k="natural" v="wetland" />
		<tag k="ssr:stedsnr" v="222417" />
	</node>
	<node lat="61.234636108540734" lon="11.288930563361335" id="-24563">
		<tag k="name" v="Vakkerbakk" />
		<tag k="place" v="locality" />
		<tag k="ssr:stedsnr" v="224497" />
	</node>
	<node lat="61.24723610876449" lon="11.312350002046408" id="-24564">
		<tag k="name" v="Enermyra" />
		<tag k="natural" v="wetland" />
		<tag k="ssr:stedsnr" v="224505" />
	</node>
	<node lat="61.24999166507487" lon="11.312213890223633" id="-24565">
		<tag k="name" v="Langmyra" />
		<tag k="natural" v="wetland" />
		<tag k="ssr:stedsnr" v="224506" />
	</node>
	<node lat="61.38440000144413" lon="11.284361107279173" id="-24569">
		<tag k="name" v="Grønmyra" />
		<tag k="natural" v="wetland" />
		<tag k="ssr:stedsnr" v="238828" />
	</node>
	<node lat="61.577299999854255" lon="10.924999994880903" id="-24582">
		<tag k="name" v="Hestmyra" />
		<tag k="natural" v="wetland" />
		<tag k="ssr:stedsnr" v="253134" />
	</node>
	<node lat="61.39007222095801" lon="10.895763888401135" id="-24605">
		<tag k="landuse" v="meadow" />
		<tag k="name" v="Rognerslåtten" />
		<tag k="ssr:stedsnr" v="283670" />
	</node>
	<node lat="61.32101666771986" lon="11.133916670614035" id="-24627">
		<tag k="name" v="Krokodillemyrene" />
		<tag k="natural" v="wetland" />
		<tag k="ssr:stedsnr" v="464095" />
	</node>
	<node lat="61.7337166622046" lon="10.738861111914327" id="-24637">
		<tag k="name" v="Skjærbekkøra" />
		<tag k="place" v="locality" />
		<tag k="ssr:stedsnr" v="465198" />
	</node>
	<node lat="61.59449166922542" lon="11.075455557721757" id="-24660">
		<tag k="name" v="Blæstermyrene" />
		<tag k="natural" v="wetland" />
		<tag k="ssr:stedsnr" v="313013" />
	</node>
	<node lat="61.69174999629642" lon="10.777841669085902" id="-24662">
		<tag k="name" v="Sjøbekkmyra" />
		<tag k="natural" v="wetland" />
		<tag k="ssr:stedsnr" v="313204" />
	</node>
	<node lat="61.89428333403205" lon="10.454288886577935" id="-24672">
		<tag k="alt_name" v="Lauvrøstmyrene" />
		<tag k="name" v="Lauvrøstmyrane" />
		<tag k="natural" v="wetland" />
		<tag k="ssr:stedsnr" v="313487" />
	</node>
	<node lat="61.41592777611264" lon="10.997894440444675" id="-24677">
		<tag k="name" v="Dølbrenna" />
		<tag k="place" v="locality" />
		<tag k="ssr:stedsnr" v="466905" />
	</node>
	<node lat="61.44380277386286" lon="10.977352785701202" id="-24687">
		<tag k="historic" v="shieling" />
		<tag k="name" v="Tjønnlia" />
		<tag k="place" v="locality" />
		<tag k="ssr:stedsnr" v="343905" />
	</node>
	<node lat="61.39839721851664" lon="11.258241665439673" id="-24694">
		<tag k="name" v="Nybrenna" />
		<tag k="place" v="locality" />
		<tag k="ssr:stedsnr" v="358803" />
	</node>
	<node lat="61.37199166259097" lon="11.283130551514724" id="-24696">
		<tag k="name" v="Kjølmyrene" />
		<tag k="natural" v="wetland" />
		<tag k="ssr:stedsnr" v="359804" />
	</node>
	<node lat="61.87201666711228" lon="10.333316658319262" id="-24714">
		<tag k="alt_name" v="Geitkjørpmyrin;Geitskjøttmyrene" />
		<tag k="name" v="Geitkjørpmyrene" />
		<tag k="natural" v="wetland" />
		<tag k="ssr:stedsnr" v="373597" />
	</node>
	<node lat="61.77656667069142" lon="10.40061943664687" id="-24737">
		<tag k="landuse" v="meadow" />
		<tag k="name" v="Kirkestuslått" />
		<tag k="ssr:stedsnr" v="481532" />
	</node>
	<node lat="61.81657222620126" lon="10.208822219387649" id="-24740">
		<tag k="name" v="Rundtjønnlykkja" />
		<tag k="place" v="locality" />
		<tag k="ssr:stedsnr" v="481288" />
	</node>
	<node lat="61.77594166542946" lon="10.344736116619998" id="-24752">
		<tag k="name" v="Nørdre Korsslåmyra" />
		<tag k="natural" v="wetland" />
		<tag k="ssr:stedsnr" v="483417" />
	</node>
	<node lat="61.451288889381445" lon="10.916277777221818" id="-24761">
		<tag k="name" v="Halvsætermyra" />
		<tag k="natural" v="wetland" />
		<tag k="ssr:stedsnr" v="404497" />
	</node>
	<node lat="61.52977777538295" lon="11.061416672668313" id="-24763">
		<tag k="name" v="Skeiøya" />
		<tag k="place" v="locality" />
		<tag k="ssr:stedsnr" v="404796" />
	</node>
	<node lat="61.74081389170019" lon="10.945194436188705" id="-24831">
		<tag k="name" v="Gørkjølla" />
		<tag k="natural" v="wetland" />
		<tag k="ssr:stedsnr" v="464003" />
	</node>
	<node lat="61.85594444636683" lon="10.36399999706685" id="-24840">
		<tag k="name" v="Klevrøsta" />
		<tag k="place" v="locality" />
		<tag k="ssr:stedsnr" v="465911" />
	</node>
	<node lat="61.610375001244286" lon="11.074238890911365" id="-24851">
		<tag k="name" v="Fuglåsmyra" />
		<tag k="natural" v="wetland" />
		<tag k="ssr:stedsnr" v="677013" />
	</node>
	<node lat="61.56966666418037" lon="10.968808328815536" id="-24856">
		<tag k="alt_name" v="Fjordungsrøsta" />
		<tag k="name" v="Fjordingsrusta" />
		<tag k="place" v="locality" />
		<tag k="ssr:stedsnr" v="677121" />
	</node>
	<node lat="61.20422777475127" lon="11.204341665259488" id="-24890">
		<tag k="name" v="Uthusbua" />
		<tag k="natural" v="wetland" />
		<tag k="ssr:stedsnr" v="482459" />
	</node>
	<node lat="61.652063890834384" lon="11.060227770194354" id="-24898">
		<tag k="name" v="Tresmyra" />
		<tag k="natural" v="wetland" />
		<tag k="ssr:stedsnr" v="484725" />
	</node>
	<node lat="61.41665000422727" lon="10.889961104866693" id="-24905">
		<tag k="name" v="Stormyra" />
		<tag k="natural" v="wetland" />
		<tag k="ssr:stedsnr" v="493411" />
	</node>
	<node lat="61.43334444784018" lon="11.08630277502266" id="-24943">
		<tag k="name" v="Torvmyra" />
		<tag k="natural" v="wetland" />
		<tag k="ssr:stedsnr" v="526320" />
	</node>
	<node lat="61.419466670812895" lon="11.228111103391322" id="-24948">
		<tag k="name" v="Veslfly" />
		<tag k="natural" v="wetland" />
		<tag k="ssr:stedsnr" v="527814" />
	</node>
	<node lat="61.370530556435064" lon="11.258644445697382" id="-24952">
		<tag k="name" v="Hyttmyra" />
		<tag k="natural" v="wetland" />
		<tag k="ssr:stedsnr" v="541813" />
	</node>
	<node lat="61.77029722150301" lon="10.281480563032556" id="-24961">
		<tag k="name" v="Stormyra" />
		<tag k="natural" v="wetland" />
		<tag k="ssr:stedsnr" v="544371" />
	</node>
	<node lat="61.81249999895843" lon="10.4246805600026" id="-24992">
		<tag k="alt_name" v="Farbrorsmyrene" />
		<tag k="name" v="Farbrorsmyrane" />
		<tag k="natural" v="wetland" />
		<tag k="ssr:stedsnr" v="556335" />
	</node>
	<node lat="61.389866663745735" lon="11.243033329455368" id="-25011">
		<tag k="name" v="Vangen" />
		<tag k="place" v="locality" />
		<tag k="ssr:stedsnr" v="601808" />
	</node>
	<node lat="61.759402777900256" lon="10.525299999263167" id="-25012">
		<tag k="name" v="Skjæringfjellia" />
		<tag k="place" v="locality" />
		<tag k="ssr:stedsnr" v="601997" />
	</node>
	<node lat="61.205638891340236" lon="11.299777776565925" id="-25016">
		<tag k="name" v="Seljebakken" />
		<tag k="place" v="locality" />
		<tag k="ssr:stedsnr" v="603454" />
	</node>
	<node lat="61.86437499722193" lon="10.273194452581539" id="-25017">
		<tag k="name" v="Svahella" />
		<tag k="place" v="locality" />
		<tag k="ssr:stedsnr" v="603625" />
	</node>
	<node lat="61.33838333090344" lon="11.128030559102632" id="-25032">
		<tag k="alt_name" v="Grindmyrene" />
		<tag k="name" v="Grindmyra" />
		<tag k="natural" v="wetland" />
		<tag k="ssr:stedsnr" v="615001" />
	</node>
	<node lat="61.76047500053447" lon="10.579402769741698" id="-25051">
		<tag k="name" v="Oddmyra" />
		<tag k="natural" v="wetland" />
		<tag k="ssr:stedsnr" v="617314" />
	</node>
	<node lat="61.504183336539064" lon="11.061716658322442" id="-25057">
		<tag k="alt_name" v="Bjørkningsfita" />
		<tag k="name" v="Bjørkningsfetten" />
		<tag k="place" v="locality" />
		<tag k="ssr:stedsnr" v="617433" />
	</node>
	<node lat="61.737702781919445" lon="10.926761109182571" id="-25060">
		<tag k="name" v="Løvenget" />
		<tag k="place" v="locality" />
		<tag k="ssr:stedsnr" v="646051" />
	</node>
	<node lat="61.324533336294095" lon="11.140069443575713" id="-25069">
		<tag k="name" v="Langeberget" />
		<tag k="place" v="locality" />
		<tag k="ssr:stedsnr" v="647112" />
	</node>
	<node lat="61.215194444040726" lon="11.173119449182748" id="-25077">
		<tag k="name" v="Flymyra" />
		<tag k="natural" v="wetland" />
		<tag k="ssr:stedsnr" v="707789" />
	</node>
	<node lat="61.46011388690309" lon="11.162044450404935" id="-25094">
		<tag k="name" v="Vintermyra" />
		<tag k="natural" v="wetland" />
		<tag k="ssr:stedsnr" v="709331" />
	</node>
	<node lat="61.7805972250895" lon="10.335147225036051" id="-25100">
		<tag k="name" v="Korsmessmyra" />
		<tag k="natural" v="wetland" />
		<tag k="ssr:stedsnr" v="665436" />
	</node>
	<node lat="61.49774721917626" lon="11.131124998631803" id="-25102">
		<tag k="historic" v="shieling" />
		<tag k="name" v="Landvollen" />
		<tag k="place" v="locality" />
		<tag k="ssr:stedsnr" v="665544" />
	</node>
	<node lat="61.836766668033" lon="10.294405560743868" id="-25104">
		<tag k="name" v="Vesledalsmyra" />
		<tag k="natural" v="wetland" />
		<tag k="ssr:stedsnr" v="665695" />
	</node>
	<node lat="61.59754722268729" lon="10.979427781390687" id="-25106">
		<tag k="name" v="Tannfetten" />
		<tag k="place" v="locality" />
		<tag k="ssr:stedsnr" v="666327" />
	</node>
	<node lat="61.22737222652108" lon="11.279194451251747" id="-25111">
		<tag k="name" v="Vintermyrene" />
		<tag k="natural" v="wetland" />
		<tag k="ssr:stedsnr" v="890468" />
	</node>
	<node lat="61.221141667708466" lon="11.3031500078166" id="-25112">
		<tag k="name" v="Småhusmyrene" />
		<tag k="natural" v="wetland" />
		<tag k="ssr:stedsnr" v="890469" />
	</node>
	<node lat="61.22193333246986" lon="11.275172220014607" id="-25113">
		<tag k="name" v="Hovdmyra" />
		<tag k="natural" v="wetland" />
		<tag k="ssr:stedsnr" v="890470" />
	</node>
	<node lat="61.56166667024853" lon="10.855230564252562" id="-25134">
		<tag k="name" v="Bekkemyrene" />
		<tag k="natural" v="wetland" />
		<tag k="ssr:stedsnr" v="677103" />
	</node>
	<node lat="61.69880833030908" lon="10.84759999427168" id="-25136">
		<tag k="name" v="Karlstadmyra" />
		<tag k="natural" v="wetland" />
		<tag k="ssr:stedsnr" v="677188" />
	</node>
	<node lat="61.77361111131828" lon="10.33616667073871" id="-25139">
		<tag k="name" v="Hesjemarka" />
		<tag k="place" v="locality" />
		<tag k="ssr:stedsnr" v="677404" />
	</node>
	<node lat="61.840388887417824" lon="10.231019438377716" id="-25141">
		<tag k="alt_name" v="Småmyrane;Småmyren" />
		<tag k="name" v="Småmyrene" />
		<tag k="natural" v="wetland" />
		<tag k="ssr:stedsnr" v="677381" />
	</node>
	<node lat="61.34613888949447" lon="10.913552779915896" id="-25167">
		<tag k="name" v="Kamphavfløyet" />
		<tag k="natural" v="wetland" />
		<tag k="ssr:stedsnr" v="707649" />
	</node>
	<node lat="61.846258332705006" lon="10.41441667422567" id="-25170">
		<tag k="landuse" v="meadow" />
		<tag k="name" v="Ratlevollen" />
		<tag k="ssr:stedsnr" v="707907" />
	</node>
	<node lat="61.83930833114532" lon="10.377808339056191" id="-25171">
		<tag k="name" v="Brenninga" />
		<tag k="place" v="locality" />
		<tag k="ssr:stedsnr" v="707908" />
	</node>
	<node lat="61.76677778009542" lon="10.313066671043961" id="-25183">
		<tag k="landuse" v="meadow" />
		<tag k="name" v="Vesletrøa" />
		<tag k="ssr:stedsnr" v="726413" />
	</node>
	<node lat="61.594297221198104" lon="10.859788896221808" id="-25202">
		<tag k="alt_name" v="Svantjønnmyra" />
		<tag k="name" v="Svantjørnmyra" />
		<tag k="natural" v="wetland" />
		<tag k="ssr:stedsnr" v="738007" />
	</node>
	<node lat="61.69478610670924" lon="10.658083338946765" id="-25210">
		<tag k="name" v="Flymyrene" />
		<tag k="natural" v="wetland" />
		<tag k="ssr:stedsnr" v="738163" />
	</node>
	<node lat="61.69595278118016" lon="10.709161105927977" id="-25211">
		<tag k="alt_name" v="Kollmyra" />
		<tag k="name" v="Kollemyra" />
		<tag k="natural" v="wetland" />
		<tag k="ssr:stedsnr" v="738165" />
	</node>
	<node lat="61.577163887018905" lon="10.997400004998322" id="-25223">
		<tag k="name" v="Fløyet" />
		<tag k="place" v="locality" />
		<tag k="ssr:stedsnr" v="748271" />
	</node>
	<node lat="61.757669444899484" lon="10.719674995387512" id="-25234">
		<tag k="name" v="Holøya" />
		<tag k="place" v="locality" />
		<tag k="ssr:stedsnr" v="768198" />
	</node>
	<node lat="61.74411666640482" lon="10.751111103873734" id="-25235">
		<tag k="name" v="Østre Hirmoen" />
		<tag k="place" v="locality" />
		<tag k="ssr:stedsnr" v="768199" />
	</node>
	<node lat="61.4015861149228" lon="10.954302771206567" id="-25241">
		<tag k="name" v="Østre Fallhaugstormyra" />
		<tag k="natural" v="wetland" />
		<tag k="ssr:stedsnr" v="768699" />
	</node>
	<node lat="61.40584166533959" lon="11.170002776893332" id="-25245">
		<tag k="name" v="Styggegga" />
		<tag k="place" v="locality" />
		<tag k="ssr:stedsnr" v="907289" />
	</node>
	<node lat="61.40942499615608" lon="11.223286114920034" id="-25250">
		<tag k="name" v="Sameimyra" />
		<tag k="natural" v="wetland" />
		<tag k="ssr:stedsnr" v="770805" />
	</node>
	<node lat="61.38587222253347" lon="11.300966657800753" id="-25271">
		<tag k="name" v="Løssettøråsen" />
		<tag k="place" v="locality" />
		<tag k="ssr:stedsnr" v="783816" />
	</node>
	<node lat="61.39731388583938" lon="11.252588891445106" id="-25272">
		<tag k="name" v="Vangrusta" />
		<tag k="place" v="locality" />
		<tag k="ssr:stedsnr" v="783819" />
	</node>
	<node lat="61.33413055663397" lon="11.323191668270107" id="-25273">
		<tag k="name" v="Opphuskjølen" />
		<tag k="natural" v="wetland" />
		<tag k="ssr:stedsnr" v="783855" />
	</node>
	<node lat="61.348511108620436" lon="11.212613896327285" id="-25282">
		<tag k="name" v="Klettangmyra" />
		<tag k="natural" v="wetland" />
		<tag k="ssr:stedsnr" v="787707" />
	</node>
	<node lat="61.40973055542241" lon="11.262536106721994" id="-25328">
		<tag k="alt_name" v="Storfly" />
		<tag k="name" v="Storfløyet" />
		<tag k="natural" v="wetland" />
		<tag k="ssr:stedsnr" v="918091" />
	</node>
	<node lat="61.91205000267542" lon="10.290144438401407" id="-25360">
		<tag k="alt_name" v="Lessingsmyrin" />
		<tag k="name" v="Lessingsmyrene" />
		<tag k="natural" v="wetland" />
		<tag k="ssr:stedsnr" v="920565" />
	</node>
	<node lat="61.819475000460706" lon="10.662949992538485" id="-25364">
		<tag k="alt_name" v="Kjølmyrene" />
		<tag k="name" v="Kjølmyrane" />
		<tag k="natural" v="wetland" />
		<tag k="ssr:stedsnr" v="921276" />
	</node>
	<node lat="61.766366667968256" lon="10.620775005283088" id="-25366">
		<tag k="name" v="Stormyra" />
		<tag k="natural" v="wetland" />
		<tag k="ssr:stedsnr" v="921292" />
	</node>
	<node lat="61.87323333366799" lon="10.305088896423996" id="-25398">
		<tag k="name" v="Veslegrytdalslia" />
		<tag k="place" v="locality" />
		<tag k="ssr:stedsnr" v="846630" />
	</node>
	<node lat="61.7780722223904" lon="10.747619450983061" id="-25399">
		<tag k="name" v="Langmyra" />
		<tag k="natural" v="wetland" />
		<tag k="ssr:stedsnr" v="847319" />
	</node>
	<node lat="61.34480833523837" lon="11.312433328550878" id="-25408">
		<tag k="name" v="Kloppåsmyra" />
		<tag k="natural" v="wetland" />
		<tag k="ssr:stedsnr" v="858007" />
	</node>
	<node lat="61.83382499891116" lon="10.614133342524788" id="-25426">
		<tag k="alt_name" v="Tørråsmyra" />
		<tag k="name" v="Tørråsmyrane" />
		<tag k="natural" v="wetland" />
		<tag k="ssr:stedsnr" v="860319" />
	</node>
	<node lat="61.542000000949315" lon="10.701380561771588" id="-25436">
		<tag k="landuse" v="meadow" />
		<tag k="name" v="Storslåa" />
		<tag k="ssr:stedsnr" v="888762" />
	</node>
	<node lat="61.35913888868988" lon="10.980572216582605" id="-25449">
		<tag k="name" v="Bjønnbørtna" />
		<tag k="natural" v="wetland" />
		<tag k="ssr:stedsnr" v="891959" />
	</node>
	<node lat="61.38215555998791" lon="11.282227779533997" id="-25455">
		<tag k="name" v="Grønsletmyrene" />
		<tag k="natural" v="wetland" />
		<tag k="ssr:stedsnr" v="905814" />
	</node>
	<node lat="61.420441662493204" lon="11.196191664504656" id="-25456">
		<tag k="name" v="Nysætermyra" />
		<tag k="natural" v="wetland" />
		<tag k="ssr:stedsnr" v="907216" />
	</node>
	<node lat="61.757038889070586" lon="10.356933336885012" id="-25462">
		<tag k="landuse" v="meadow" />
		<tag k="name" v="Kvanslåa" />
		<tag k="ssr:stedsnr" v="908702" />
	</node>
	<node lat="61.46611666609459" lon="10.966074997526695" id="-25463">
		<tag k="landuse" v="quarry" />
		<tag k="name" v="Stenberget" />
		<tag k="ssr:stedsnr" v="908852" />
	</node>
	<node lat="61.33486944142288" lon="11.15229166194247" id="-25496">
		<tag k="name" v="Hagjomyra" />
		<tag k="natural" v="wetland" />
		<tag k="ssr:stedsnr" v="951082" />
	</node>
	<node lat="61.331883333914405" lon="11.167586114144498" id="-25497">
		<tag k="name" v="Veslesætermyra" />
		<tag k="natural" v="wetland" />
		<tag k="ssr:stedsnr" v="951091" />
	</node>
	<node lat="61.5420055565858" lon="10.980677786711492" id="-25500">
		<tag k="name" v="Brattegga" />
		<tag k="place" v="locality" />
		<tag k="ssr:stedsnr" v="965498" />
	</node>
	<node lat="61.7730055537957" lon="10.39008610297344" id="-25502">
		<tag k="landuse" v="meadow" />
		<tag k="name" v="Vakkerslåa" />
		<tag k="ssr:stedsnr" v="967488" />
	</node>
	<node lat="61.76815277525009" lon="10.30729166382849" id="-25508">
		<tag k="name" v="Brennmyra" />
		<tag k="natural" v="wetland" />
		<tag k="ssr:stedsnr" v="969404" />
	</node>
	<node lat="61.75888333487022" lon="10.246688886705092" id="-25509">
		<tag k="name" v="Bukjølen" />
		<tag k="place" v="locality" />
		<tag k="ssr:stedsnr" v="969410" />
	</node>
	<node lat="61.90718610933145" lon="10.406061114264688" id="-25515">
		<tag k="name" v="Uttimyra" />
		<tag k="natural" v="wetland" />
		<tag k="ssr:stedsnr" v="969986" />
	</node>
	<node lat="61.54399166955645" lon="11.13326389383603" id="-25534">
		<tag k="alt_name" v="Tretjønnmyra" />
		<tag k="name" v="Tretjørnmyra" />
		<tag k="natural" v="wetland" />
		<tag k="ssr:stedsnr" v="10273" />
	</node>
	<node lat="61.3755166640464" lon="11.04303056465485" id="-25541">
		<tag k="name" v="Kolåsmyra" />
		<tag k="natural" v="wetland" />
		<tag k="ssr:stedsnr" v="8442" />
	</node>
	<node lat="61.882883334127655" lon="10.480738880632659" id="-25558">
		<tag k="name" v="Stormyra" />
		<tag k="natural" v="wetland" />
		<tag k="ssr:stedsnr" v="10480" />
	</node>
	<node lat="61.519808333693895" lon="11.052174997538774" id="-25564">
		<tag k="name" v="Bogtrøa" />
		<tag k="place" v="locality" />
		<tag k="ssr:stedsnr" v="20365" />
	</node>
	<node lat="61.71286111347697" lon="10.916252772261672" id="-25572">
		<tag k="name" v="Furuholmslia" />
		<tag k="place" v="locality" />
		<tag k="ssr:stedsnr" v="39044" />
	</node>
	<node lat="61.22176389037372" lon="11.181197219116214" id="-25573">
		<tag k="name" v="Kjellermyrene" />
		<tag k="natural" v="wetland" />
		<tag k="ssr:stedsnr" v="39743" />
	</node>
	<node lat="61.22416388669463" lon="11.210324999216645" id="-25578">
		<tag k="name" v="Mørkesmyrene" />
		<tag k="natural" v="wetland" />
		<tag k="ssr:stedsnr" v="40474" />
	</node>
	<node lat="61.397416663866466" lon="10.9372972176185" id="-25580">
		<tag k="name" v="Fallhaugstormyra" />
		<tag k="natural" v="wetland" />
		<tag k="ssr:stedsnr" v="40699" />
	</node>
	<node lat="61.36203055710256" lon="11.265508337350491" id="-25590">
		<tag k="name" v="Lemyra" />
		<tag k="natural" v="wetland" />
		<tag k="ssr:stedsnr" v="56816" />
	</node>
	<node lat="61.737475002531674" lon="10.967480564840567" id="-25594">
		<tag k="name" v="Stormyra" />
		<tag k="natural" v="wetland" />
		<tag k="ssr:stedsnr" v="58658" />
	</node>
	<node lat="61.84743611157473" lon="10.258611116944067" id="-25599">
		<tag k="name" v="Hestlykkja" />
		<tag k="place" v="locality" />
		<tag k="ssr:stedsnr" v="59349" />
	</node>
	<node lat="61.82110000047363" lon="10.313075004264666" id="-25624">
		<tag k="alt_name" v="Brennmyrin" />
		<tag k="name" v="Brennmyrene" />
		<tag k="natural" v="wetland" />
		<tag k="ssr:stedsnr" v="70355" />
	</node>
	<node lat="61.30480277550603" lon="11.167386108878523" id="-25649">
		<tag k="name" v="Etarmyra" />
		<tag k="natural" v="wetland" />
		<tag k="ssr:stedsnr" v="100084" />
	</node>
	<node lat="61.54631111306029" lon="11.029572216461357" id="-25652">
		<tag k="name" v="Trønsenget" />
		<tag k="place" v="locality" />
		<tag k="ssr:stedsnr" v="100456" />
	</node>
	<node lat="61.38738610987558" lon="10.904505549430167" id="-25656">
		<tag k="landuse" v="meadow" />
		<tag k="name" v="Moslåtten" />
		<tag k="ssr:stedsnr" v="101688" />
	</node>
	<node lat="61.400363891372415" lon="10.902147224910651" id="-25657">
		<tag k="historic" v="shieling" />
		<tag k="name" v="Akslehusa" />
		<tag k="place" v="locality" />
		<tag k="ssr:stedsnr" v="101693" />
	</node>
	<node lat="61.21909999724719" lon="11.267697226421987" id="-25659">
		<tag k="name" v="Bekkestormyra" />
		<tag k="natural" v="wetland" />
		<tag k="ssr:stedsnr" v="101458" />
	</node>
	<node lat="61.78574166265476" lon="10.439072229520502" id="-25676">
		<tag k="loc_name" v="Stubbvollen" />
		<tag k="name" v="Stubvolden" />
		<tag k="place" v="locality" />
		<tag k="ssr:stedsnr" v="117536" />
	</node>
	<node lat="61.877147225302096" lon="10.392683332212705" id="-25689">
		<tag k="name" v="Vestlia" />
		<tag k="place" v="locality" />
		<tag k="ssr:stedsnr" v="119990" />
	</node>
	<node lat="61.42200000280135" lon="11.106569445808736" id="-25725">
		<tag k="name" v="Kvernstumyra" />
		<tag k="natural" v="wetland" />
		<tag k="ssr:stedsnr" v="161218" />
	</node>
	<node lat="61.72058333637809" lon="10.869325008803138" id="-25727">
		<tag k="name" v="Lillestulia" />
		<tag k="place" v="locality" />
		<tag k="ssr:stedsnr" v="161033" />
	</node>
	<node lat="61.419952776824395" lon="11.115738898037836" id="-25731">
		<tag k="name" v="Torvmyra" />
		<tag k="natural" v="wetland" />
		<tag k="ssr:stedsnr" v="161232" />
	</node>
	<node lat="61.479152774570046" lon="11.03645277807265" id="-25736">
		<tag k="name" v="Gammelgårdsjordet" />
		<tag k="place" v="locality" />
		<tag k="ssr:stedsnr" v="161720" />
	</node>
	<node lat="61.59493055219864" lon="11.113549997847995" id="-25754">
		<tag k="name" v="Fallmyra" />
		<tag k="natural" v="wetland" />
		<tag k="ssr:stedsnr" v="177933" />
	</node>
	<node lat="61.85748055632985" lon="10.230516666466256" id="-25755">
		<tag k="name" v="Raumyra" />
		<tag k="natural" v="wetland" />
		<tag k="ssr:stedsnr" v="178237" />
	</node>
	<node lat="61.58326110960697" lon="11.00681666069337" id="-25761">
		<tag k="name" v="Øverenget" />
		<tag k="place" v="locality" />
		<tag k="ssr:stedsnr" v="180326" />
	</node>
	<node lat="61.55321110854494" lon="11.129105547961965" id="-25766">
		<tag k="name" v="Bakmyra" />
		<tag k="natural" v="wetland" />
		<tag k="ssr:stedsnr" v="180636" />
	</node>
	<node lat="61.87341944541806" lon="10.365583335949715" id="-25772">
		<tag k="name" v="Skarmyra" />
		<tag k="natural" v="wetland" />
		<tag k="ssr:stedsnr" v="180990" />
	</node>
	<node lat="61.7429777800861" lon="10.709941669292876" id="-25796">
		<tag k="name" v="Dammyra" />
		<tag k="natural" v="wetland" />
		<tag k="ssr:stedsnr" v="192202" />
	</node>
	<node lat="61.73555833208363" lon="10.682558330891458" id="-25797">
		<tag k="alt_name" v="Lemyra" />
		<tag k="name" v="Lemyrene" />
		<tag k="natural" v="wetland" />
		<tag k="ssr:stedsnr" v="192203" />
	</node>
	<node lat="61.900466665801595" lon="10.283566660558503" id="-25807">
		<tag k="alt_name" v="Haugakjella" />
		<tag k="name" v="Haugakjelda" />
		<tag k="natural" v="wetland" />
		<tag k="ssr:stedsnr" v="192590" />
	</node>
	<node lat="61.828608336737425" lon="10.56562500751608" id="-25817">
		<tag k="name" v="Stormyra" />
		<tag k="natural" v="wetland" />
		<tag k="ssr:stedsnr" v="193126" />
	</node>
	<node lat="61.751352774462106" lon="10.617899992562059" id="-25826">
		<tag k="name" v="Gråbeinmyra" />
		<tag k="natural" v="wetland" />
		<tag k="ssr:stedsnr" v="193273" />
	</node>
	<node lat="61.68396111032878" lon="10.71493889612367" id="-25836">
		<tag k="name" v="Granåsmyra" />
		<tag k="natural" v="wetland" />
		<tag k="ssr:stedsnr" v="221766" />
	</node>
	<node lat="61.299872225264295" lon="11.159686116888947" id="-25837">
		<tag k="name" v="Bjønnsmyra" />
		<tag k="natural" v="wetland" />
		<tag k="ssr:stedsnr" v="222099" />
	</node>
	<node lat="61.223977774953646" lon="11.262177770397283" id="-25839">
		<tag k="name" v="Slastongmyrene" />
		<tag k="natural" v="wetland" />
		<tag k="ssr:stedsnr" v="222420" />
	</node>
	<node lat="61.42105555295345" lon="10.940830554012479" id="-25841">
		<tag k="landuse" v="meadow" />
		<tag k="name" v="Eldåvollen" />
		<tag k="ssr:stedsnr" v="222547" />
	</node>
	<node lat="61.33331111477141" lon="11.23402499470575" id="-25842">
		<tag k="name" v="Kalmyra" />
		<tag k="natural" v="wetland" />
		<tag k="ssr:stedsnr" v="222647" />
	</node>
	<node lat="61.388441666931115" lon="10.886661116836471" id="-25844">
		<tag k="historic" v="shieling" />
		<tag k="name" v="Nystuhusa" />
		<tag k="place" v="locality" />
		<tag k="ssr:stedsnr" v="222659" />
	</node>
	<node lat="61.34308888740034" lon="11.00528889272122" id="-25850">
		<tag k="name" v="Stormyra" />
		<tag k="natural" v="wetland" />
		<tag k="ssr:stedsnr" v="224948" />
	</node>
	<node lat="61.395913892369414" lon="11.02839167422503" id="-25862">
		<tag k="name" v="Milskiftmyra" />
		<tag k="natural" v="wetland" />
		<tag k="ssr:stedsnr" v="284916" />
	</node>
	<node lat="61.3994666648106" lon="10.888797227757262" id="-25863">
		<tag k="name" v="Dammyra" />
		<tag k="natural" v="wetland" />
		<tag k="ssr:stedsnr" v="283658" />
	</node>
	<node lat="61.87489167041067" lon="10.239000007058928" id="-25875">
		<tag k="name" v="Storriset" />
		<tag k="place" v="locality" />
		<tag k="ssr:stedsnr" v="300656" />
	</node>
	<node lat="61.612422223039495" lon="11.072930550627461" id="-25876">
		<tag k="name" v="Fuglåsmyra" />
		<tag k="natural" v="wetland" />
		<tag k="ssr:stedsnr" v="298260" />
	</node>
	<node lat="61.476008336453994" lon="10.72470833651244" id="-25877">
		<tag k="name" v="Storlortfløyet" />
		<tag k="natural" v="wetland" />
		<tag k="ssr:stedsnr" v="298644" />
	</node>
	<node lat="61.45787777417191" lon="10.796097217349306" id="-25879">
		<tag k="name" v="Veslelortfløyet" />
		<tag k="natural" v="wetland" />
		<tag k="ssr:stedsnr" v="298619" />
	</node>
	<node lat="61.31975833598559" lon="11.332419441123855" id="-25880">
		<tag k="name" v="Stormyra" />
		<tag k="natural" v="wetland" />
		<tag k="ssr:stedsnr" v="298814" />
	</node>
	<node lat="61.467252779584896" lon="11.2033194380821" id="-25882">
		<tag k="landuse" v="meadow" />
		<tag k="name" v="Nerbuvollen" />
		<tag k="ssr:stedsnr" v="299338" />
	</node>
	<node lat="61.207377779235244" lon="11.21142222035911" id="-25895">
		<tag k="name" v="Bjørnmyra" />
		<tag k="natural" v="wetland" />
		<tag k="ssr:stedsnr" v="301468" />
	</node>
	<node lat="61.22183888761859" lon="11.26467221800701" id="-25945">
		<tag k="name" v="Enmyra" />
		<tag k="natural" v="wetland" />
		<tag k="ssr:stedsnr" v="343441" />
	</node>
	<node lat="61.54820833605681" lon="11.035777769082136" id="-25946">
		<tag k="name" v="Koppangsjordet" />
		<tag k="place" v="locality" />
		<tag k="ssr:stedsnr" v="343450" />
	</node>
	<node lat="61.82706111081792" lon="10.22297499976403" id="-25963">
		<tag k="name" v="Loken" />
		<tag k="natural" v="wetland" />
		<tag k="ssr:stedsnr" v="360234" />
	</node>
	<node lat="61.87338888555339" lon="10.283269444169857" id="-25967">
		<tag k="name" v="Storula" />
		<tag k="natural" v="scree" />
		<tag k="ssr:stedsnr" v="360630" />
	</node>
	<node lat="61.743663886032074" lon="10.80315832937956" id="-25974">
		<tag k="name" v="Tangen" />
		<tag k="place" v="locality" />
		<tag k="ssr:stedsnr" v="362210" />
	</node>
	<node lat="61.81162778116098" lon="10.331666665941174" id="-25982">
		<tag k="name" v="Finnsjølia" />
		<tag k="natural" v="wetland" />
		<tag k="ssr:stedsnr" v="362388" />
	</node>
	<node lat="61.37629999755764" lon="10.87748889484601" id="-25985">
		<tag k="name" v="Skamarksmyra" />
		<tag k="natural" v="wetland" />
		<tag k="ssr:stedsnr" v="362674" />
	</node>
	<node lat="61.7699916700947" lon="10.409194446989861" id="-25988">
		<tag k="name" v="Kollmyra" />
		<tag k="natural" v="wetland" />
		<tag k="ssr:stedsnr" v="362688" />
	</node>
	<node lat="61.90406666894302" lon="10.399300005241868" id="-25994">
		<tag k="name" v="Slåttene" />
		<tag k="place" v="locality" />
		<tag k="ssr:stedsnr" v="362992" />
	</node>
	<node lat="61.53063055841024" lon="10.956400005176151" id="-26038">
		<tag k="name" v="Dammyra" />
		<tag k="natural" v="wetland" />
		<tag k="ssr:stedsnr" v="374087" />
	</node>
	<node lat="61.72079444387684" lon="10.90386110451587" id="-26060">
		<tag k="name" v="Firkanten" />
		<tag k="place" v="locality" />
		<tag k="ssr:stedsnr" v="403056" />
	</node>
	<node lat="61.39976944269221" lon="10.910377771136263" id="-26067">
		<tag k="name" v="Bugåsmyra" />
		<tag k="natural" v="wetland" />
		<tag k="ssr:stedsnr" v="404668" />
	</node>
	<node lat="61.48991666540146" lon="10.793508340334963" id="-26078">
		<tag k="name" v="Stormyra" />
		<tag k="natural" v="wetland" />
		<tag k="ssr:stedsnr" v="420682" />
	</node>
	<node lat="61.84508888477295" lon="10.180716672221651" id="-26081">
		<tag k="name" v="Stortangmyra" />
		<tag k="natural" v="wetland" />
		<tag k="ssr:stedsnr" v="421255" />
	</node>
	<node lat="61.777947221841345" lon="10.359605551770544" id="-26084">
		<tag k="alt_name" v="Søndre Korsslåmyra" />
		<tag k="name" v="Søre Korsslåmyra" />
		<tag k="natural" v="wetland" />
		<tag k="ssr:stedsnr" v="421531" />
	</node>
	<node lat="61.73723889092602" lon="10.978830561136975" id="-26094">
		<tag k="name" v="Klettmyra" />
		<tag k="natural" v="wetland" />
		<tag k="ssr:stedsnr" v="422639" />
	</node>
	<node lat="61.84613333564266" lon="10.257872226697122" id="-26103">
		<tag k="landuse" v="meadow" />
		<tag k="name" v="Stormyra" />
		<tag k="ssr:stedsnr" v="423400" />
	</node>
	<node lat="61.626216665011064" lon="11.074902770496925" id="-26140">
		<tag k="name" v="Stormyra" />
		<tag k="natural" v="wetland" />
		<tag k="ssr:stedsnr" v="435037" />
	</node>
	<node lat="61.27771667014933" lon="11.142747226789556" id="-26163">
		<tag k="name" v="Fløyet" />
		<tag k="natural" v="wetland" />
		<tag k="ssr:stedsnr" v="525115" />
	</node>
	<node lat="61.318208330758694" lon="11.127083339418544" id="-26167">
		<tag k="name" v="Gråteriset" />
		<tag k="natural" v="wetland" />
		<tag k="ssr:stedsnr" v="525096" />
	</node>
	<node lat="61.2256833342415" lon="11.259769452173822" id="-26169">
		<tag k="name" v="Slagåsmyra" />
		<tag k="natural" v="wetland" />
		<tag k="ssr:stedsnr" v="525449" />
	</node>
	<node lat="61.21729722306661" lon="11.299822224343878" id="-26170">
		<tag k="name" v="Stabburmyrene" />
		<tag k="natural" v="wetland" />
		<tag k="ssr:stedsnr" v="525515" />
	</node>
	<node lat="61.245227774338986" lon="11.269116665678492" id="-26179">
		<tag k="name" v="Gråmærmyra" />
		<tag k="natural" v="wetland" />
		<tag k="ssr:stedsnr" v="527534" />
	</node>
	<node lat="61.371491662344205" lon="11.009247222863124" id="-26183">
		<tag k="name" v="Åsmyra" />
		<tag k="natural" v="wetland" />
		<tag k="ssr:stedsnr" v="527954" />
	</node>
	<node lat="61.54536667084727" lon="10.997461104509533" id="-26184">
		<tag k="name" v="Skarmyra" />
		<tag k="natural" v="wetland" />
		<tag k="ssr:stedsnr" v="540486" />
	</node>
	<node lat="61.768122219747795" lon="10.225655561156735" id="-26198">
		<tag k="name" v="Bukjølen" />
		<tag k="place" v="locality" />
		<tag k="ssr:stedsnr" v="544298" />
	</node>
	<node lat="61.45200555748958" lon="10.851091664411321" id="-26280">
		<tag k="name" v="Fjerdingsmyra" />
		<tag k="natural" v="wetland" />
		<tag k="ssr:stedsnr" v="586518" />
	</node>
	<node lat="61.88897499569976" lon="10.157655550369759" id="-26293">
		<tag k="name" v="Kjøllen" />
		<tag k="natural" v="wetland" />
		<tag k="ssr:stedsnr" v="598600" />
	</node>
	<node lat="61.376955554760436" lon="11.304297219315004" id="-26298">
		<tag k="name" v="Tøråsmyrene" />
		<tag k="natural" v="wetland" />
		<tag k="ssr:stedsnr" v="601794" />
	</node>
	<node lat="61.78424166856117" lon="10.38678055616818" id="-26302">
		<tag k="name" v="Slåa" />
		<tag k="place" v="locality" />
		<tag k="ssr:stedsnr" v="602518" />
	</node>
	<node lat="61.77457221862819" lon="10.395186102564905" id="-26303">
		<tag k="name" v="Lykja" />
		<tag k="place" v="locality" />
		<tag k="ssr:stedsnr" v="602519" />
	</node>
	<node lat="61.80762777794249" lon="10.193325002244151" id="-26308">
		<tag k="name" v="Vollkjølen" />
		<tag k="place" v="locality" />
		<tag k="ssr:stedsnr" v="603247" />
	</node>
	<node lat="61.854852774295814" lon="10.27303055840899" id="-26315">
		<tag k="name" v="Bløthølet" />
		<tag k="natural" v="wetland" />
		<tag k="ssr:stedsnr" v="604350" />
	</node>
	<node lat="61.75533055517069" lon="10.342319436779983" id="-26317">
		<tag k="landuse" v="meadow" />
		<tag k="name" v="Bjønnslåa" />
		<tag k="ssr:stedsnr" v="604391" />
	</node>
	<node lat="61.76766666453298" lon="10.364858338563758" id="-26319">
		<tag k="name" v="Gammeljordet" />
		<tag k="place" v="locality" />
		<tag k="ssr:stedsnr" v="604693" />
	</node>
	<node lat="61.81456388575109" lon="10.561613885097547" id="-26320">
		<tag k="name" v="Kvanhøle" />
		<tag k="place" v="locality" />
		<tag k="ssr:stedsnr" v="604990" />
	</node>
	<node lat="61.84095000238118" lon="10.58298610971826" id="-26323">
		<tag k="name" v="Stormyra" />
		<tag k="natural" v="wetland" />
		<tag k="ssr:stedsnr" v="605976" />
	</node>
	<node lat="61.242824997751306" lon="11.207325001424179" id="-26324">
		<tag k="name" v="Fløyet" />
		<tag k="natural" v="wetland" />
		<tag k="ssr:stedsnr" v="613393" />
	</node>
	<node lat="61.39811388809869" lon="11.276213894094036" id="-26328">
		<tag k="name" v="Stormyra" />
		<tag k="natural" v="wetland" />
		<tag k="ssr:stedsnr" v="615038" />
	</node>
	<node lat="61.91368333486723" lon="10.434355563765173" id="-26348">
		<tag k="alt_name" v="Åstjønnmyrene" />
		<tag k="name" v="Åstjørnmyrane" />
		<tag k="natural" v="wetland" />
		<tag k="ssr:stedsnr" v="616474" />
	</node>
	<node lat="61.84710555307897" lon="10.353830549115242" id="-26381">
		<tag k="name" v="Lund" />
		<tag k="place" v="locality" />
		<tag k="ssr:stedsnr" v="646885" />
	</node>
	<node lat="61.53038333723563" lon="10.857411113006387" id="-26386">
		<tag k="name" v="Blekvangen" />
		<tag k="place" v="locality" />
		<tag k="ssr:stedsnr" v="646515" />
	</node>
	<node lat="61.40804721829271" lon="11.233691665158824" id="-26393">
		<tag k="name" v="Tøråsmyra" />
		<tag k="natural" v="wetland" />
		<tag k="ssr:stedsnr" v="648810" />
	</node>
	<node lat="61.23817777922866" lon="11.319125006463606" id="-26394">
		<tag k="name" v="Kvernmyra" />
		<tag k="natural" v="wetland" />
		<tag k="ssr:stedsnr" v="648815" />
	</node>
	<node lat="61.869130553982004" lon="10.291955551251087" id="-26406">
		<tag k="name" v="Mobekkrøsta" />
		<tag k="natural" v="wetland" />
		<tag k="ssr:stedsnr" v="664621" />
	</node>
	<node lat="61.67336388524877" lon="10.906469446422896" id="-26408">
		<tag k="name" v="Vesleenget" />
		<tag k="place" v="locality" />
		<tag k="ssr:stedsnr" v="665116" />
	</node>
	<node lat="61.35090277554321" lon="11.269819452953294" id="-26414">
		<tag k="name" v="Nedre Slåttmyra" />
		<tag k="natural" v="wetland" />
		<tag k="ssr:stedsnr" v="665744" />
	</node>
	<node lat="61.344441668247924" lon="11.216400006856297" id="-26415">
		<tag k="name" v="Høymyra" />
		<tag k="natural" v="wetland" />
		<tag k="ssr:stedsnr" v="665746" />
	</node>
	<node lat="61.766713886215626" lon="10.932369438099737" id="-26430">
		<tag k="name" v="Grensemyra" />
		<tag k="natural" v="wetland" />
		<tag k="ssr:stedsnr" v="724419" />
	</node>
	<node lat="61.85908333294439" lon="10.200436105198047" id="-26432">
		<tag k="name" v="Oksa" />
		<tag k="natural" v="stone" />
		<tag k="ssr:stedsnr" v="725237" />
	</node>
	<node lat="61.35220277481759" lon="11.2037555542092" id="-26440">
		<tag k="name" v="Klettjernmyra" />
		<tag k="natural" v="wetland" />
		<tag k="ssr:stedsnr" v="726724" />
	</node>
	<node lat="61.38220833532583" lon="10.945855564660112" id="-26444">
		<tag k="name" v="Rognsjøåsstormyra" />
		<tag k="natural" v="wetland" />
		<tag k="ssr:stedsnr" v="727659" />
	</node>
	<node lat="61.47632778126542" lon="11.195841676102706" id="-26454">
		<tag k="alt_name" v="Netfly" />
		<tag k="name" v="Netfløyet" />
		<tag k="natural" v="wetland" />
		<tag k="ssr:stedsnr" v="737102" />
	</node>
	<node lat="61.63328611234602" lon="10.809950006518745" id="-26458">
		<tag k="name" v="Løvlandsmyra" />
		<tag k="natural" v="wetland" />
		<tag k="ssr:stedsnr" v="738027" />
	</node>
	<node lat="61.83491666358021" lon="10.462475003361977" id="-26479">
		<tag k="name" v="Tomasmyra" />
		<tag k="natural" v="wetland" />
		<tag k="ssr:stedsnr" v="739266" />
	</node>
	<node lat="61.22623789721999" lon="11.188874680686144" id="-26485">
		<tag k="landuse" v="meadow" />
		<tag k="name" v="Fjellslåtten" />
		<tag k="ssr:stedsnr" v="767774" />
	</node>
	<node lat="61.26306388800077" lon="11.102483328393971" id="-26487">
		<tag k="name" v="Tollefsfløyet" />
		<tag k="natural" v="wetland" />
		<tag k="ssr:stedsnr" v="767787" />
	</node>
	<node lat="61.220841665674826" lon="11.280530546286249" id="-26488">
		<tag k="name" v="Nordre Tovmyra" />
		<tag k="natural" v="wetland" />
		<tag k="ssr:stedsnr" v="768433" />
	</node>
	<node lat="61.576980553409726" lon="10.842430562665067" id="-26544">
		<tag k="name" v="Skarvmyra" />
		<tag k="natural" v="wetland" />
		<tag k="ssr:stedsnr" v="799125" />
	</node>
	<node lat="61.688705552212866" lon="10.990525005622269" id="-26547">
		<tag k="name" v="Lensmannsmyrene" />
		<tag k="natural" v="wetland" />
		<tag k="ssr:stedsnr" v="799044" />
	</node>
	<node lat="61.68069166626076" lon="10.788413886037986" id="-26548">
		<tag k="name" v="Fuglåsmyra" />
		<tag k="natural" v="wetland" />
		<tag k="ssr:stedsnr" v="799045" />
	</node>
	<node lat="61.838127777749754" lon="10.46372500491591" id="-26564">
		<tag k="name" v="Myrfloen" />
		<tag k="natural" v="wetland" />
		<tag k="ssr:stedsnr" v="799482" />
	</node>
	<node lat="61.52158888628775" lon="11.06110277749706" id="-26574">
		<tag k="landuse" v="meadow" />
		<tag k="name" v="Enget" />
		<tag k="ssr:stedsnr" v="827244" />
	</node>
	<node lat="61.22221111535191" lon="11.279458327877451" id="-26576">
		<tag k="name" v="Blistermyra" />
		<tag k="natural" v="wetland" />
		<tag k="ssr:stedsnr" v="829453" />
	</node>
	<node lat="61.38314722509408" lon="11.198413881021198" id="-26587">
		<tag k="name" v="Netlimyra" />
		<tag k="natural" v="wetland" />
		<tag k="ssr:stedsnr" v="831762" />
	</node>
	<node lat="61.90211388804461" lon="10.093511106363536" id="-26596">
		<tag k="name" v="Atnsjømyrene" />
		<tag k="natural" v="wetland" />
		<tag k="ssr:stedsnr" v="841558" />
	</node>
	<node lat="61.38393888459773" lon="11.297600003978477" id="-26600">
		<tag k="name" v="Bjerkhaugmyra" />
		<tag k="natural" v="wetland" />
		<tag k="ssr:stedsnr" v="845846" />
	</node>
	<node lat="61.8653138865238" lon="10.264536105883689" id="-26604">
		<tag k="landuse" v="meadow" />
		<tag k="name" v="Enget" />
		<tag k="ssr:stedsnr" v="846638" />
	</node>
	<node lat="61.353183331771476" lon="11.29144722078883" id="-26608">
		<tag k="name" v="Øvre Slåttmyra" />
		<tag k="natural" v="wetland" />
		<tag k="ssr:stedsnr" v="848719" />
	</node>
	<node lat="61.690788888612694" lon="10.69267222339954" id="-26643">
		<tag k="alt_name" v="Elgmyra" />
		<tag k="name" v="Elgsmyra" />
		<tag k="natural" v="wetland" />
		<tag k="ssr:stedsnr" v="860194" />
	</node>
	<node lat="61.83548333056882" lon="10.46599444625294" id="-26649">
		<tag k="name" v="Langørene" />
		<tag k="place" v="locality" />
		<tag k="ssr:stedsnr" v="860326" />
	</node>
	<node lat="61.76068055760209" lon="10.479372213516642" id="-26652">
		<tag k="alt_name" v="Bergsvenmyra" />
		<tag k="name" v="Bersvenmyra" />
		<tag k="natural" v="wetland" />
		<tag k="ssr:stedsnr" v="861255" />
	</node>
	<node lat="61.602499999945394" lon="10.843125004699743" id="-26663">
		<tag k="name" v="Krokmyra" />
		<tag k="natural" v="wetland" />
		<tag k="ssr:stedsnr" v="950130" />
	</node>
	<node lat="61.457088889355354" lon="10.846069435787971" id="-26668">
		<tag k="name" v="Stormyra" />
		<tag k="natural" v="wetland" />
		<tag k="ssr:stedsnr" v="950492" />
	</node>
	<node lat="61.39496111383613" lon="11.264488888918141" id="-26675">
		<tag k="name" v="Tjukkriset" />
		<tag k="place" v="locality" />
		<tag k="ssr:stedsnr" v="965808" />
	</node>
	<node lat="61.61083611271782" lon="11.0471333281799" id="-26677">
		<tag k="name" v="Kloppmyra" />
		<tag k="natural" v="wetland" />
		<tag k="ssr:stedsnr" v="966298" />
	</node>
	<node lat="61.38867777455571" lon="11.284813882561746" id="-26681">
		<tag k="name" v="Grøndava" />
		<tag k="natural" v="wetland" />
		<tag k="ssr:stedsnr" v="966847" />
	</node>
	<node lat="61.807216666077395" lon="10.3300722197996" id="-26695">
		<tag k="name" v="Brenntjønnmyrene" />
		<tag k="natural" v="wetland" />
		<tag k="ssr:stedsnr" v="969379" />
	</node>
</osm>
