<?xml version="1.0" encoding="UTF-8"?>
<osm generator="osmapis" version="0.6">
	<node id="-340344" lat="61.4211138886" lon="11.1480638826">
		<tag k="name" v="Lorthullet" />
		<tag k="place" v="locality" />
		<tag k="ssr:stedsnr" v="725240" />
	</node>
	<node id="-339821" lat="61.4058222256" lon="11.1332916617">
		<tag k="amenity" v="place_of_worship" />
		<tag k="denomination" v="lutheran" />
		<tag k="name" v="Evenstad kirke" />
		<tag k="religion" v="christian" />
		<tag k="ssr:stedsnr" v="493102" />
	</node>
	<node id="-341352" lat="61.6467694457" lon="10.8837861123">
		<tag k="amenity" v="community_centre" />
		<tag k="name" v="Strandheim" />
		<tag k="ssr:stedsnr" v="586097" />
	</node>
	<node id="-341603" lat="61.5240499975" lon="11.048294447">
		<tag k="amenity" v="place_of_worship" />
		<tag k="denomination" v="lutheran" />
		<tag k="name" v="Stor-Elvdal kirke" />
		<tag k="religion" v="christian" />
		<tag k="ssr:stedsnr" v="799081" />
	</node>
	<node id="-339937" lat="61.4028694429" lon="11.1321277765">
		<tag k="amenity" v="community_centre" />
		<tag k="name" v="Brattlund" />
		<tag k="ssr:stedsnr" v="433108" />
	</node>
	<node id="-340188" lat="61.7375444474" lon="10.8168777708">
		<tag k="amenity" v="place_of_worship" />
		<tag k="denomination" v="lutheran" />
		<tag k="name" v="Atneosen kirke" />
		<tag k="old_name" v="Atnosen" />
		<tag k="religion" v="christian" />
		<tag k="ssr:stedsnr" v="616203" />
	</node>
	<node id="-341722" lat="61.7802388888" lon="10.4007444441">
		<tag k="amenity" v="place_of_worship" />
		<tag k="denomination" v="lutheran" />
		<tag k="name" v="Sollia kirke" />
		<tag k="religion" v="christian" />
		<tag k="ssr:stedsnr" v="860301" />
	</node>
	<node id="-341075" lat="61.7508500023" lon="10.3611527831">
		<tag k="name" v="Porten" />
		<tag k="place" v="locality" />
		<tag k="ssr:stedsnr" v="362683" />
	</node>
	<node id="-340687" lat="61.8814638863" lon="10.184486118">
		<tag k="name" v="Jønnblestra" />
		<tag k="place" v="locality" />
		<tag k="ssr:stedsnr" v="59272" />
	</node>
	<node id="-340205" lat="61.7763888929" lon="10.3858055628">
		<tag k="amenity" v="community_centre" />
		<tag k="name" v="Solvang" />
		<tag k="ssr:stedsnr" v="724482" />
	</node>
	<node id="-340166" lat="61.5764805588" lon="11.036872229">
		<tag k="alt_name" v="Koppang kirkestue;Koppang småkirke" />
		<tag k="amenity" v="place_of_worship" />
		<tag k="denomination" v="lutheran" />
		<tag k="name" v="Koppang kirke" />
		<tag k="religion" v="christian" />
		<tag k="ssr:stedsnr" v="604430" />
	</node>
	<node id="-341314" lat="61.2905833361" lon="11.2741333331">
		<tag k="amenity" v="place_of_worship" />
		<tag k="denomination" v="lutheran" />
		<tag k="name" v="Strand kirke" />
		<tag k="religion" v="christian" />
		<tag k="ssr:stedsnr" v="554242" />
	</node>
	<node id="-340151" lat="61.591449996" lon="10.8731388934">
		<tag k="name" v="Korsen" />
		<tag k="place" v="locality" />
		<tag k="ssr:stedsnr" v="585134" />
	</node>
	<node id="-340784" lat="61.4196527784" lon="11.0750194408">
		<tag k="amenity" v="community_centre" />
		<tag k="name" v="Møkleby samfunnshus" />
		<tag k="ssr:stedsnr" v="102902" />
	</node>
	<node id="-339630" lat="61.5466027784" lon="11.0240277819">
		<tag k="amenity" v="community_centre" />
		<tag k="name" v="Lokalet Noren" />
		<tag k="ssr:stedsnr" v="161457" />
	</node>
	<node id="-340521" lat="61.763272224" lon="10.4977222261">
		<tag k="name" v="Fløttningen" />
		<tag k="place" v="locality" />
		<tag k="ssr:stedsnr" v="861257" />
	</node>
	<node id="-341532" lat="61.3237944489" lon="11.2675166587">
		<tag k="amenity" v="community_centre" />
		<tag k="name" v="Skogglimt" />
		<tag k="ssr:stedsnr" v="768741" />
	</node>
	<node id="-341550" lat="61.7787166673" lon="10.6880861141">
		<tag k="name" v="Sløøra" />
		<tag k="place" v="locality" />
		<tag k="ssr:stedsnr" v="783859" />
	</node>
	<node id="-341138" lat="61.5476944468" lon="11.0243194445">
		<tag k="amenity" v="community_centre" />
		<tag k="name" v="Fram" />
		<tag k="ssr:stedsnr" v="404450" />
	</node>
	<node id="-339473" lat="61.2457555592" lon="11.332324992">
		<tag k="amenity" v="community_centre" />
		<tag k="name" v="Steinvik samfunnshus" />
		<tag k="ssr:stedsnr" v="223857" />
	</node>
	<node id="-339600" lat="61.8432916626" lon="10.2380722152">
		<tag k="amenity" v="community_centre" />
		<tag k="name" v="Jomsborg" />
		<tag k="ssr:stedsnr" v="119375" />
	</node>
	<node id="-339981" lat="61.7701805527" lon="10.3720277753">
		<tag k="amenity" v="community_centre" />
		<tag k="name" v="Soltun" />
		<tag k="ssr:stedsnr" v="665715" />
	</node>
	<node id="-340873" lat="61.7846305596" lon="10.5029861153">
		<tag k="amenity" v="community_centre" />
		<tag k="name" v="Stenmo" />
		<tag k="ssr:stedsnr" v="163980" />
	</node>
</osm>
