<?xml version="1.0" encoding="UTF-8"?>
<<<<<<< HEAD
<osm version="0.6" generator="osmapis">
	<node lat="61.84879444383373" lon="10.379069437321764" id="-15071">
		<tag k="highway" v="path" />
		<tag k="name" v="Lauvrøstsætervegen" />
		<tag k="ssr:stedsnr" v="40915" />
	</node>
	<node lat="61.617316664237656" lon="10.89603055092642" id="-15084">
		<tag k="bridge" v="yes" />
		<tag k="layer" v="1" />
		<tag k="name" v="Gardbekken" />
		<tag k="ssr:stedsnr" v="46308" />
	</node>
	<node lat="61.292536112414346" lon="11.271797219873953" id="-15085">
		<tag k="alt_name" v="Vollbekk Nordre" />
		<tag k="bridge" v="yes" />
		<tag k="layer" v="1" />
		<tag k="name" v="Nordre Vollbekk" />
		<tag k="ssr:stedsnr" v="46289" />
	</node>
	<node lat="61.50313610993528" lon="10.832786105808127" id="-15095">
		<tag k="fixme" v="consider highway=path" />
		<tag k="highway" v="track" />
		<tag k="name" v="Gamle Imsdalsvegen" />
		<tag k="ssr:stedsnr" v="56679" />
	</node>
	<node lat="61.38152777628315" lon="11.124627784166455" id="-15116">
		<tag k="fixme" v="consider highway=path" />
		<tag k="highway" v="track" />
		<tag k="name" v="Søkkundlivegen" />
		<tag k="ssr:stedsnr" v="241257" />
	</node>
	<node lat="61.77060278206243" lon="10.287311102345559" id="-15121">
=======
<osm generator="osmapis" version="0.6">
	<node id="-341159" lat="61.5515250034" lon="10.9112027822">
		<tag k="highway" v="path" />
		<tag k="name" v="Vintervegen" />
		<tag k="ssr:stedsnr" v="118115" />
	</node>
	<node id="-342609" lat="61.3895777809" lon="10.9509583299">
		<tag k="highway" v="path" />
		<tag k="name" v="Børtnevegen" />
		<tag k="ssr:stedsnr" v="343712" />
	</node>
	<node id="-341961" lat="61.385044441" lon="10.9103833286">
		<tag k="highway" v="path" />
		<tag k="name" v="Skarvvegen" />
		<tag k="ssr:stedsnr" v="768695" />
	</node>
	<node id="-342974" lat="61.3731222186" lon="11.2031638979">
		<tag k="name" v="Neta" />
		<tag k="railway" v="station" />
		<tag k="ssr:stedsnr" v="615045" />
		<tag k="train" v="yes" />
	</node>
	<node id="-342459" lat="61.4799944433" lon="11.1102666612">
		<tag k="highway" v="path" />
		<tag k="name" v="Hovdskarvegen" />
		<tag k="ssr:stedsnr" v="180492" />
	</node>
	<node id="-342457" lat="61.7685944451" lon="10.3454138932">
		<tag k="highway" v="path" />
		<tag k="name" v="Gammelvegen" />
		<tag k="ssr:stedsnr" v="180394" />
	</node>
	<node id="-342429" lat="61.4401138843" lon="10.9196555641">
		<tag k="fixme" v="consider highway=path" />
		<tag k="highway" v="track" />
		<tag k="name" v="Gamle Messeltsætervegen" />
		<tag k="ssr:stedsnr" v="161599" />
	</node>
	<node id="-341924" lat="61.4451305512" lon="10.7905555596">
>>>>>>> e1d4bc35ff8a6074a6f2e91616a996b547c36f15
		<tag k="highway" v="path" />
		<tag k="name" v="Storåstjønnvegen" />
		<tag k="ssr:stedsnr" v="241367" />
	</node>
<<<<<<< HEAD
	<node lat="61.35765555930941" lon="11.14559444973647" id="-15160">
=======
	<node id="-342433" lat="61.7361694413" lon="10.7141500083">
>>>>>>> e1d4bc35ff8a6074a6f2e91616a996b547c36f15
		<tag k="fixme" v="consider highway=path" />
		<tag k="highway" v="track" />
		<tag k="name" v="Gamle Furusetsætervegen" />
		<tag k="ssr:stedsnr" v="101084" />
	</node>
	<node lat="61.55152500341266" lon="10.911202782240249" id="-15177">
		<tag k="highway" v="path" />
		<tag k="name" v="Vintervegen" />
		<tag k="ssr:stedsnr" v="118115" />
	</node>
<<<<<<< HEAD
	<node lat="61.440113884328824" lon="10.919655564141046" id="-15248">
=======
	<node id="-341917" lat="61.8113611078" lon="10.5462305543">
>>>>>>> e1d4bc35ff8a6074a6f2e91616a996b547c36f15
		<tag k="fixme" v="consider highway=path" />
		<tag k="highway" v="track" />
		<tag k="name" v="Gamle Gravsjøvegen" />
		<tag k="ssr:stedsnr" v="726983" />
	</node>
<<<<<<< HEAD
	<node lat="61.73703333253832" lon="10.704008326865278" id="-15301">
		<tag k="bridge" v="yes" />
		<tag k="layer" v="1" />
		<tag k="name" v="Stor Hira" />
		<tag k="ssr:stedsnr" v="228314" />
	</node>
	<node lat="61.78980832917815" lon="10.422847222685764" id="-15306">
=======
	<node id="-342937" lat="61.4922305512" lon="10.7366694464">
		<tag k="highway" v="path" />
		<tag k="name" v="Dølvegen" />
		<tag k="ssr:stedsnr" v="601653" />
	</node>
	<node id="-341908" lat="61.8498999984" lon="10.2189583403">
		<tag k="fixme" v="verify maritime location" />
		<tag k="mooring" v="yes" />
		<tag k="name" v="Andersbåta" />
		<tag k="place" v="locality" />
		<tag k="ssr:stedsnr" v="724221" />
	</node>
	<node id="-341906" lat="61.8113250031" lon="10.6594666728">
>>>>>>> e1d4bc35ff8a6074a6f2e91616a996b547c36f15
		<tag k="fixme" v="consider highway=path" />
		<tag k="highway" v="track" />
		<tag k="name" v="Småtjønnsætervegen" />
		<tag k="ssr:stedsnr" v="239508" />
	</node>
<<<<<<< HEAD
	<node lat="61.892216662525534" lon="10.223416668296514" id="-15309">
=======
	<node id="-342927" lat="61.4451611093" lon="11.1306777769">
>>>>>>> e1d4bc35ff8a6074a6f2e91616a996b547c36f15
		<tag k="highway" v="path" />
		<tag k="name" v="Veslegrytdalsvegen" />
		<tag k="ssr:stedsnr" v="240427" />
	</node>
	<node lat="61.25071389189636" lon="11.178377771879592" id="-15335">
		<tag k="highway" v="path" />
		<tag k="name" v="Hovdsjøvegen" />
		<tag k="ssr:stedsnr" v="282769" />
	</node>
<<<<<<< HEAD
	<node lat="61.444824998011356" lon="10.832355557193525" id="-15367">
		<tag k="fixme" v="consider highway=path" />
		<tag k="highway" v="track" />
		<tag k="name" v="Nordre Messeltsætervegen" />
		<tag k="ssr:stedsnr" v="464630" />
	</node>
	<node lat="61.372274995969335" lon="11.012938887058935" id="-15412">
		<tag k="bridge" v="yes" />
		<tag k="layer" v="1" />
		<tag k="name" v="Åsbrukloppa" />
		<tag k="ssr:stedsnr" v="466951" />
	</node>
	<node lat="61.73386110747382" lon="10.669330551714992" id="-15413">
		<tag k="fixme" v="consider highway=path" />
		<tag k="highway" v="track" />
		<tag k="name" v="Hirbuvollvegen" />
		<tag k="ssr:stedsnr" v="342757" />
	</node>
	<node lat="61.389577780884714" lon="10.950958329892133" id="-15418">
=======
	<node id="-342923" lat="61.4263861098" lon="10.8285805592">
		<tag k="fixme" v="consider highway=path" />
		<tag k="highway" v="track" />
		<tag k="name" v="Lyngsjøvegen" />
		<tag k="ssr:stedsnr" v="586638" />
	</node>
	<node id="-342337" lat="61.3576555593" lon="11.1455944497">
		<tag k="fixme" v="consider highway=path" />
		<tag k="highway" v="track" />
		<tag k="name" v="Gamle Furusetsætervegen" />
		<tag k="ssr:stedsnr" v="101084" />
	</node>
	<node id="-342916" lat="61.5404194415" lon="11.0354361172">
		<tag k="man_made" v="quay" />
		<tag k="name" v="Skatrud" />
		<tag k="place" v="locality" />
		<tag k="ssr:stedsnr" v="585419" />
	</node>
	<node id="-341885" lat="61.2254055539" lon="11.1709944357">
>>>>>>> e1d4bc35ff8a6074a6f2e91616a996b547c36f15
		<tag k="highway" v="path" />
		<tag k="name" v="Børtnevegen" />
		<tag k="ssr:stedsnr" v="343712" />
	</node>
<<<<<<< HEAD
	<node lat="61.31019166685873" lon="11.257472217849639" id="-15424">
		<tag k="bridge" v="yes" />
		<tag k="layer" v="1" />
		<tag k="name" v="Løveng bru" />
		<tag k="ssr:stedsnr" v="349363" />
	</node>
	<node lat="61.78968611544397" lon="10.561327770971381" id="-15425">
		<tag k="bridge" v="yes" />
		<tag k="layer" v="1" />
		<tag k="name" v="Bredbekk" />
		<tag k="ssr:stedsnr" v="349778" />
	</node>
	<node lat="61.4537083364505" lon="10.790761114025932" id="-15427">
=======
	<node id="-342906" lat="61.6994305568" lon="10.9029722264">
		<tag k="name" v="Rådelsbekken" />
		<tag k="railway" v="station" />
		<tag k="ssr:stedsnr" v="556233" />
		<tag k="train" v="yes" />
	</node>
	<node id="-341368" lat="61.4537083365" lon="10.790761114">
>>>>>>> e1d4bc35ff8a6074a6f2e91616a996b547c36f15
		<tag k="highway" v="path" />
		<tag k="name" v="Skraslavegen" />
		<tag k="ssr:stedsnr" v="359653" />
	</node>
<<<<<<< HEAD
	<node lat="61.597361114447864" lon="11.11414444623031" id="-15473">
		<tag k="fixme" v="consider highway=path" />
		<tag k="highway" v="track" />
		<tag k="name" v="Rokkstuvegen" />
		<tag k="ssr:stedsnr" v="481928" />
	</node>
	<node lat="61.79999722561356" lon="10.3438333428573" id="-15482">
=======
	<node id="-342932" lat="61.8108000017" lon="10.2114944537">
		<tag k="bridge" v="yes" />
		<tag k="layer" v="1" />
		<tag k="name" v="Vollum bru" />
		<tag k="ssr:stedsnr" v="592297" />
	</node>
	<node id="-341875" lat="61.5940666625" lon="10.8770138827">
		<tag k="highway" v="path" />
		<tag k="name" v="Viengsvegen" />
		<tag k="ssr:stedsnr" v="889142" />
	</node>
	<node id="-341360" lat="61.365280556" lon="10.9007111055">
		<tag k="highway" v="path" />
		<tag k="name" v="Gamle Sjøvegen" />
		<tag k="ssr:stedsnr" v="484645" />
	</node>
	<node id="-341355" lat="61.7999972256" lon="10.3438333429">
>>>>>>> e1d4bc35ff8a6074a6f2e91616a996b547c36f15
		<tag k="highway" v="path" />
		<tag k="name" v="Finnsjøvegen" />
		<tag k="ssr:stedsnr" v="483396" />
	</node>
<<<<<<< HEAD
	<node lat="61.36528055600462" lon="10.900711105455024" id="-15487">
		<tag k="highway" v="path" />
		<tag k="name" v="Gamle Sjøvegen" />
		<tag k="ssr:stedsnr" v="484645" />
	</node>
	<node lat="61.33113333230036" lon="11.272369436602078" id="-15494">
		<tag k="fixme" v="consider highway=path" />
		<tag k="highway" v="track" />
		<tag k="name" v="Flismovegen" />
		<tag k="ssr:stedsnr" v="404699" />
	</node>
	<node lat="61.83424999746186" lon="10.46113611645237" id="-15497">
		<tag k="fixme" v="consider highway=path" />
		<tag k="highway" v="track" />
		<tag k="name" v="Myrflovegen" />
		<tag k="ssr:stedsnr" v="404895" />
	</node>
	<node lat="61.3274166634008" lon="11.170155554835867" id="-15498">
		<tag k="fixme" v="consider highway=path" />
		<tag k="highway" v="track" />
		<tag k="name" v="Løvengdalsvegen" />
		<tag k="ssr:stedsnr" v="405084" />
	</node>
	<node lat="61.505416669338125" lon="11.052491666354351" id="-15501">
		<tag k="bridge" v="yes" />
		<tag k="layer" v="1" />
		<tag k="name" v="Flørbekken" />
		<tag k="ssr:stedsnr" v="410314" />
	</node>
	<node lat="61.83432500404699" lon="10.207730547655306" id="-15502">
=======
	<node id="-342375" lat="61.8868083319" lon="10.1721861077">
		<tag k="name" v="Gravskarsvingen" />
		<tag k="place" v="locality" />
		<tag k="ssr:stedsnr" v="119439" />
	</node>
	<node id="-341347" lat="61.5973611144" lon="11.1141444462">
		<tag k="fixme" v="consider highway=path" />
		<tag k="highway" v="track" />
		<tag k="name" v="Rokkstuvegen" />
		<tag k="ssr:stedsnr" v="481928" />
	</node>
	<node id="-342881" lat="61.2511909639" lon="11.3243760737">
		<tag k="name" v="Steinvik stasjon" />
		<tag k="railway" v="station" />
		<tag k="ssr:stedsnr" v="554213" />
		<tag k="train" v="yes" />
	</node>
	<node id="-342875" lat="61.3995061827" lon="11.1449955205">
		<tag k="name" v="Rasta stasjon" />
		<tag k="railway" v="station" />
		<tag k="ssr:stedsnr" v="554087" />
		<tag k="train" v="yes" />
	</node>
	<node id="-342356" lat="61.5042444411" lon="11.06447223">
		<tag k="bridge" v="yes" />
		<tag k="layer" v="1" />
		<tag k="name" v="Svestad bru" />
		<tag k="ssr:stedsnr" v="107295" />
	</node>
	<node id="-342349" lat="61.4384111074" lon="11.1288472197">
>>>>>>> e1d4bc35ff8a6074a6f2e91616a996b547c36f15
		<tag k="highway" v="path" />
		<tag k="name" v="Hamnsætervegen" />
		<tag k="ssr:stedsnr" v="421253" />
	</node>
<<<<<<< HEAD
	<node lat="61.55832777779414" lon="10.882141673542918" id="-15505">
		<tag k="highway" v="path" />
		<tag k="name" v="Øvre Slavegen" />
		<tag k="ssr:stedsnr" v="422120" />
	</node>
	<node lat="61.72348055914393" lon="10.91465555109795" id="-15666">
=======
	<node id="-341211" lat="61.2507138919" lon="11.1783777719">
		<tag k="highway" v="path" />
		<tag k="name" v="Hovdsjøvegen" />
		<tag k="ssr:stedsnr" v="282769" />
	</node>
	<node id="-341315" lat="61.372274996" lon="11.0129388871">
		<tag k="bridge" v="yes" />
		<tag k="layer" v="1" />
		<tag k="name" v="Åsbrukloppa" />
		<tag k="ssr:stedsnr" v="466951" />
	</node>
	<node id="-341825" lat="61.4812444417" lon="10.7516583401">
>>>>>>> e1d4bc35ff8a6074a6f2e91616a996b547c36f15
		<tag k="highway" v="path" />
		<tag k="name" v="Sætervegen" />
		<tag k="ssr:stedsnr" v="525060" />
	</node>
<<<<<<< HEAD
	<node lat="61.303863887807694" lon="11.21268333682964" id="-15687">
=======
	<node id="-341302" lat="61.444824998" lon="10.8323555572">
>>>>>>> e1d4bc35ff8a6074a6f2e91616a996b547c36f15
		<tag k="fixme" v="consider highway=path" />
		<tag k="highway" v="track" />
		<tag k="name" v="Gamle Opphussætervegen" />
		<tag k="ssr:stedsnr" v="543512" />
	</node>
<<<<<<< HEAD
	<node lat="61.69943055680982" lon="10.902972226388219" id="-15725">
		<tag k="name" v="Rådelsbekken" />
		<tag k="railway" v="station" />
		<tag k="ssr:stedsnr" v="556233" />
		<tag k="train" v="yes" />
	</node>
	<node lat="61.540419441490485" lon="11.03543611715061" id="-15730">
		<tag k="man_made" v="quay" />
		<tag k="name" v="Skatrud" />
=======
	<node id="-343338" lat="61.7822638859" lon="10.3504777736">
		<tag k="man_made" v="cairn" />
		<tag k="name" v="Korsmess" />
>>>>>>> e1d4bc35ff8a6074a6f2e91616a996b547c36f15
		<tag k="place" v="locality" />
		<tag k="ssr:stedsnr" v="585419" />
	</node>
	<node lat="61.81248055946533" lon="10.474636118685844" id="-15731">
		<tag k="name" v="Lonfossvegen" />
		<tag k="place" v="locality" />
		<tag k="ssr:stedsnr" v="585894" />
	</node>
<<<<<<< HEAD
	<node lat="61.44516110931996" lon="11.13067777690269" id="-15733">
=======
	<node id="-341286" lat="61.7706027821" lon="10.2873111023">
>>>>>>> e1d4bc35ff8a6074a6f2e91616a996b547c36f15
		<tag k="highway" v="path" />
		<tag k="name" v="Holmtjønnvegen" />
		<tag k="ssr:stedsnr" v="587358" />
	</node>
<<<<<<< HEAD
	<node lat="61.492230551189074" lon="10.736669446409309" id="-15735">
=======
	<node id="-341797" lat="61.4577444458" lon="10.943974998">
>>>>>>> e1d4bc35ff8a6074a6f2e91616a996b547c36f15
		<tag k="highway" v="path" />
		<tag k="name" v="Dølvegen" />
		<tag k="ssr:stedsnr" v="601653" />
	</node>
<<<<<<< HEAD
	<node lat="61.37312221857392" lon="11.203163897944423" id="-15758">
		<tag k="name" v="Neta" />
		<tag k="railway" v="station" />
		<tag k="ssr:stedsnr" v="615045" />
		<tag k="train" v="yes" />
	</node>
	<node lat="61.76568611272055" lon="10.31139721828739" id="-15825">
		<tag k="highway" v="path" />
		<tag k="name" v="Pikvegen" />
		<tag k="ssr:stedsnr" v="665445" />
	</node>
	<node lat="61.811325003072575" lon="10.659466672762223" id="-15888">
=======
	<node id="-341282" lat="61.3815277763" lon="11.1246277842">
		<tag k="fixme" v="consider highway=path" />
		<tag k="highway" v="track" />
		<tag k="name" v="Søkkundlivegen" />
		<tag k="ssr:stedsnr" v="241257" />
	</node>
	<node id="-342235" lat="61.5862111149" lon="11.1093333258">
		<tag k="fixme" v="consider highway=path" />
		<tag k="highway" v="track" />
		<tag k="name" v="Moravegen" />
		<tag k="ssr:stedsnr" v="55596" />
	</node>
	<node id="-343327" lat="61.2784777755" lon="11.2839416692">
		<tag k="fixme" v="consider highway=path" />
		<tag k="highway" v="track" />
		<tag k="name" v="Bratsbergvegen" />
		<tag k="ssr:stedsnr" v="967499" />
	</node>
	<node id="-342917" lat="61.8124805595" lon="10.4746361187">
		<tag k="name" v="Lonfossvegen" />
		<tag k="place" v="locality" />
		<tag k="ssr:stedsnr" v="585894" />
	</node>
	<node id="-341275" lat="61.4771388902" lon="11.0272000077">
>>>>>>> e1d4bc35ff8a6074a6f2e91616a996b547c36f15
		<tag k="fixme" v="consider highway=path" />
		<tag k="highway" v="track" />
		<tag k="name" v="Kjølsætervegen" />
		<tag k="ssr:stedsnr" v="897302" />
	</node>
	<node lat="61.49401944330722" lon="11.058733333270569" id="-15901">
		<tag k="name" v="Stai stasjon" />
		<tag k="railway" v="station" />
		<tag k="ssr:stedsnr" v="722439" />
		<tag k="train" v="yes" />
	</node>
<<<<<<< HEAD
	<node lat="61.8113611077923" lon="10.546230554331757" id="-15909">
		<tag k="fixme" v="consider highway=path" />
		<tag k="highway" v="track" />
		<tag k="name" v="Gamle Gravsjøvegen" />
		<tag k="ssr:stedsnr" v="726983" />
	</node>
	<node lat="61.445130551246855" lon="10.790555559579143" id="-15947">
		<tag k="highway" v="path" />
		<tag k="name" v="Stakavegen" />
		<tag k="ssr:stedsnr" v="905664" />
	</node>
	<node lat="61.826947220812535" lon="10.61641111357294" id="-15959">
		<tag k="highway" v="path" />
		<tag k="name" v="Øvre Kjølvegen" />
		<tag k="ssr:stedsnr" v="768238" />
	</node>
	<node lat="61.38504444100029" lon="10.910383328565343" id="-15963">
		<tag k="highway" v="path" />
		<tag k="name" v="Skarvvegen" />
		<tag k="ssr:stedsnr" v="768695" />
	</node>
	<node lat="61.825330553718814" lon="10.218716668952002" id="-15998">
=======
	<node id="-341772" lat="61.6071083325" lon="11.0256138952">
		<tag k="fixme" v="consider highway=path" />
		<tag k="highway" v="track" />
		<tag k="name" v="Mexicovegen" />
		<tag k="ssr:stedsnr" v="723283" />
	</node>
	<node id="-341769" lat="61.4940194433" lon="11.0587333333">
		<tag k="name" v="Stai stasjon" />
		<tag k="railway" v="station" />
		<tag k="ssr:stedsnr" v="722439" />
		<tag k="train" v="yes" />
	</node>
	<node id="-341248" lat="61.5625388861" lon="11.0449444464">
>>>>>>> e1d4bc35ff8a6074a6f2e91616a996b547c36f15
		<tag k="bridge" v="yes" />
		<tag k="layer" v="1" />
		<tag k="name" v="Stenbrua" />
		<tag k="ssr:stedsnr" v="785251" />
	</node>
<<<<<<< HEAD
	<node lat="61.65346666800745" lon="10.855552775374493" id="-16097">
		<tag k="fixme" v="consider highway=path" />
		<tag k="highway" v="track" />
		<tag k="name" v="Kjelskarvegen" />
		<tag k="ssr:stedsnr" v="829118" />
	</node>
	<node lat="61.21586944432534" lon="11.185483333796288" id="-16106">
		<tag k="highway" v="path" />
		<tag k="name" v="Gamle Hovdedalsvegen" />
		<tag k="ssr:stedsnr" v="829781" />
	</node>
	<node lat="61.55716944774893" lon="10.762413883201527" id="-16108">
		<tag k="highway" v="path" />
		<tag k="name" v="Fampvegen" />
		<tag k="ssr:stedsnr" v="829878" />
	</node>
	<node lat="61.4875833333457" lon="10.821733334786277" id="-16113">
=======
	<node id="-341247" lat="61.3715277743" lon="11.1750472201">
		<tag k="bridge" v="yes" />
		<tag k="layer" v="1" />
		<tag k="name" v="Furuset bru" />
		<tag k="ssr:stedsnr" v="289287" />
	</node>
	<node id="-341246" lat="61.2563972258" lon="11.3158138913">
		<tag k="bridge" v="yes" />
		<tag k="layer" v="1" />
		<tag k="name" v="Stenbekken bru" />
		<tag k="ssr:stedsnr" v="289284" />
	</node>
	<node id="-342269" lat="61.5112027788" lon="11.0715472135">
>>>>>>> e1d4bc35ff8a6074a6f2e91616a996b547c36f15
		<tag k="fixme" v="consider highway=path" />
		<tag k="highway" v="track" />
		<tag k="name" v="Gamle Gålavegen" />
		<tag k="ssr:stedsnr" v="845704" />
	</node>
<<<<<<< HEAD
	<node lat="61.546544448654835" lon="10.910777786409058" id="-16114">
		<tag k="highway" v="path" />
		<tag k="name" v="Måsåvegen" />
		<tag k="ssr:stedsnr" v="846114" />
	</node>
	<node lat="61.331755551228085" lon="11.260538881380933" id="-16131">
		<tag k="name" v="Opphus stasjon" />
=======
	<node id="-343285" lat="61.7323805557" lon="10.8347972287">
		<tag k="name" v="Atna stasjon" />
>>>>>>> e1d4bc35ff8a6074a6f2e91616a996b547c36f15
		<tag k="railway" v="station" />
		<tag k="ssr:stedsnr" v="858016" />
		<tag k="train" v="yes" />
	</node>
<<<<<<< HEAD
	<node lat="61.33585833769359" lon="11.173972227520439" id="-16170">
=======
	<node id="-342241" lat="61.5031361099" lon="10.8327861058">
>>>>>>> e1d4bc35ff8a6074a6f2e91616a996b547c36f15
		<tag k="fixme" v="consider highway=path" />
		<tag k="highway" v="track" />
		<tag k="name" v="Gamle Kroksætervegen" />
		<tag k="ssr:stedsnr" v="891104" />
	</node>
<<<<<<< HEAD
	<node lat="61.63844166608147" lon="10.9781055617683" id="-16175">
		<tag k="fixme" v="consider highway=path" />
		<tag k="highway" v="track" />
		<tag k="name" v="Månsætervegen" />
		<tag k="ssr:stedsnr" v="905255" />
	</node>
	<node lat="61.78226388592152" lon="10.350477773556282" id="-16233">
		<tag k="man_made" v="cairn" />
		<tag k="name" v="Korsmess" />
		<tag k="place" v="locality" />
		<tag k="ssr:stedsnr" v="969386" />
	</node>
	<node lat="61.58621111493941" lon="11.109333325760483" id="-16305">
=======
	<node id="-342747" lat="61.3707888905" lon="11.238508337">
		<tag k="fixme" v="consider highway=path" />
		<tag k="highway" v="track" />
		<tag k="name" v="Elgvegen" />
		<tag k="ssr:stedsnr" v="423835" />
	</node>
	<node id="-342234" lat="61.6173166642" lon="10.8960305509">
		<tag k="bridge" v="yes" />
		<tag k="layer" v="1" />
		<tag k="name" v="Gardbekken" />
		<tag k="ssr:stedsnr" v="46308" />
	</node>
	<node id="-342233" lat="61.2925361124" lon="11.2717972199">
		<tag k="alt_name" v="Vollbekk Nordre" />
		<tag k="bridge" v="yes" />
		<tag k="layer" v="1" />
		<tag k="name" v="Nordre Vollbekk" />
		<tag k="ssr:stedsnr" v="46289" />
	</node>
	<node id="-343249" lat="61.6151805522" lon="11.1394944389">
		<tag k="fixme" v="consider highway=path" />
		<tag k="highway" v="track" />
		<tag k="name" v="Kneppåsvegen" />
		<tag k="ssr:stedsnr" v="847909" />
	</node>
	<node id="-343247" lat="61.7286305548" lon="10.9984333288">
>>>>>>> e1d4bc35ff8a6074a6f2e91616a996b547c36f15
		<tag k="fixme" v="consider highway=path" />
		<tag k="highway" v="track" />
		<tag k="name" v="Moravegen" />
		<tag k="ssr:stedsnr" v="55596" />
	</node>
<<<<<<< HEAD
	<node lat="61.430502780753855" lon="11.235616675192043" id="-16307">
=======
	<node id="-343237" lat="61.5465444487" lon="10.9107777864">
>>>>>>> e1d4bc35ff8a6074a6f2e91616a996b547c36f15
		<tag k="highway" v="path" />
		<tag k="name" v="Holmslivegen" />
		<tag k="ssr:stedsnr" v="56260" />
	</node>
<<<<<<< HEAD
	<node lat="61.51120277882185" lon="11.0715472135305" id="-16324">
=======
	<node id="-343234" lat="61.4875833333" lon="10.8217333348">
>>>>>>> e1d4bc35ff8a6074a6f2e91616a996b547c36f15
		<tag k="fixme" v="consider highway=path" />
		<tag k="highway" v="track" />
		<tag k="name" v="Rørtjønnvegen" />
		<tag k="ssr:stedsnr" v="59741" />
	</node>
<<<<<<< HEAD
	<node lat="61.438411107386834" lon="11.128847219654983" id="-16378">
		<tag k="highway" v="path" />
		<tag k="name" v="Gamle Evenstadsætervegen" />
		<tag k="ssr:stedsnr" v="102395" />
	</node>
	<node lat="61.50424444106863" lon="11.064472229989534" id="-16384">
=======
	<node id="-342721" lat="61.834325004" lon="10.2077305477">
		<tag k="highway" v="path" />
		<tag k="name" v="Hamnsætervegen" />
		<tag k="ssr:stedsnr" v="421253" />
	</node>
	<node id="-343231" lat="61.4278666652" lon="11.0588916632">
		<tag k="bridge" v="yes" />
		<tag k="layer" v="1" />
		<tag k="name" v="Rogna bru" />
		<tag k="ssr:stedsnr" v="835302" />
	</node>
	<node id="-342713" lat="61.5054166693" lon="11.0524916664">
>>>>>>> e1d4bc35ff8a6074a6f2e91616a996b547c36f15
		<tag k="bridge" v="yes" />
		<tag k="layer" v="1" />
		<tag k="name" v="Svestad bru" />
		<tag k="ssr:stedsnr" v="107295" />
	</node>
<<<<<<< HEAD
	<node lat="61.86561388616141" lon="10.2365611115836" id="-16392">
=======
	<node id="-343223" lat="61.5571694477" lon="10.7624138832">
>>>>>>> e1d4bc35ff8a6074a6f2e91616a996b547c36f15
		<tag k="highway" v="path" />
		<tag k="name" v="Storgrytdalsvegen" />
		<tag k="ssr:stedsnr" v="118610" />
	</node>
<<<<<<< HEAD
	<node lat="61.88680833194525" lon="10.17218610765183" id="-16399">
		<tag k="name" v="Gravskarsvingen" />
		<tag k="place" v="locality" />
		<tag k="ssr:stedsnr" v="119439" />
	</node>
	<node lat="61.736169441251754" lon="10.71415000825125" id="-16452">
=======
	<node id="-342709" lat="61.3274166634" lon="11.1701555548">
		<tag k="fixme" v="consider highway=path" />
		<tag k="highway" v="track" />
		<tag k="name" v="Løvengdalsvegen" />
		<tag k="ssr:stedsnr" v="405084" />
	</node>
	<node id="-342708" lat="61.8342499975" lon="10.4611361165">
>>>>>>> e1d4bc35ff8a6074a6f2e91616a996b547c36f15
		<tag k="fixme" v="consider highway=path" />
		<tag k="highway" v="track" />
		<tag k="name" v="Hirhalsvegen" />
		<tag k="ssr:stedsnr" v="161783" />
	</node>
<<<<<<< HEAD
	<node lat="61.76859444512653" lon="10.345413893233776" id="-16460">
=======
	<node id="-343217" lat="61.2158694443" lon="11.1854833338">
>>>>>>> e1d4bc35ff8a6074a6f2e91616a996b547c36f15
		<tag k="highway" v="path" />
		<tag k="name" v="Gammelvegen" />
		<tag k="ssr:stedsnr" v="180394" />
	</node>
<<<<<<< HEAD
	<node lat="61.479994443306836" lon="11.110266661176764" id="-16477">
		<tag k="highway" v="path" />
		<tag k="name" v="Hovdskarvegen" />
		<tag k="ssr:stedsnr" v="180492" />
	</node>
	<node lat="61.47713889017745" lon="11.027200007732791" id="-16545">
=======
	<node id="-342703" lat="61.3311333323" lon="11.2723694366">
>>>>>>> e1d4bc35ff8a6074a6f2e91616a996b547c36f15
		<tag k="fixme" v="consider highway=path" />
		<tag k="highway" v="track" />
		<tag k="name" v="Gjesla" />
		<tag k="ssr:stedsnr" v="222737" />
	</node>
<<<<<<< HEAD
	<node lat="61.324152781651804" lon="11.255694448831056" id="-16564">
		<tag k="bridge" v="yes" />
		<tag k="layer" v="1" />
		<tag k="name" v="Åkjeta bru" />
		<tag k="ssr:stedsnr" v="228297" />
	</node>
	<node lat="61.73980833517569" lon="10.187188889392848" id="-16565">
		<tag k="bridge" v="yes" />
		<tag k="layer" v="1" />
		<tag k="name" v="Muen bru" />
		<tag k="ssr:stedsnr" v="228322" />
	</node>
	<node lat="61.53652777927834" lon="11.038577772480034" id="-16566">
		<tag k="bridge" v="yes" />
		<tag k="layer" v="1" />
		<tag k="name" v="Kvernbekken" />
		<tag k="ssr:stedsnr" v="228325" />
	</node>
	<node lat="61.463455558749686" lon="11.024949997222098" id="-16567">
		<tag k="bridge" v="yes" />
		<tag k="layer" v="1" />
		<tag k="name" v="Nordre Imsa bru" />
		<tag k="ssr:stedsnr" v="228327" />
	</node>
	<node lat="61.256397225837944" lon="11.315813891316502" id="-16581">
		<tag k="bridge" v="yes" />
		<tag k="layer" v="1" />
		<tag k="name" v="Stenbekken bru" />
		<tag k="ssr:stedsnr" v="289284" />
	</node>
	<node lat="61.3715277742857" lon="11.175047220139824" id="-16582">
		<tag k="bridge" v="yes" />
		<tag k="layer" v="1" />
		<tag k="name" v="Furuset bru" />
		<tag k="ssr:stedsnr" v="289287" />
	</node>
	<node lat="61.56253888605785" lon="11.044944446440375" id="-16583">
		<tag k="bridge" v="yes" />
		<tag k="layer" v="1" />
		<tag k="name" v="Kjemå bru" />
		<tag k="ssr:stedsnr" v="289293" />
	</node>
	<node lat="61.30216666250046" lon="11.275830546128498" id="-16611">
		<tag k="name" v="Siljubekken" />
		<tag k="railway" v="station" />
		<tag k="ssr:stedsnr" v="311291" />
		<tag k="train" v="yes" />
	</node>
	<node lat="61.287649998936864" lon="11.262022213606464" id="-16650">
=======
	<node id="-341161" lat="61.8656138862" lon="10.2365611116">
		<tag k="highway" v="path" />
		<tag k="name" v="Storgrytdalsvegen" />
		<tag k="ssr:stedsnr" v="118610" />
	</node>
	<node id="-343207" lat="61.6354666654" lon="10.7947083414">
		<tag k="highway" v="path" />
		<tag k="name" v="Halandsvegen" />
		<tag k="ssr:stedsnr" v="829238" />
	</node>
	<node id="-343204" lat="61.653466668" lon="10.8555527754">
		<tag k="fixme" v="consider highway=path" />
		<tag k="highway" v="track" />
		<tag k="name" v="Kjelskarvegen" />
		<tag k="ssr:stedsnr" v="829118" />
	</node>
	<node id="-342725" lat="61.5583277778" lon="10.8821416735">
		<tag k="highway" v="path" />
		<tag k="name" v="Øvre Slavegen" />
		<tag k="ssr:stedsnr" v="422120" />
	</node>
	<node id="-341659" lat="61.868972225" lon="10.2769861146">
		<tag k="highway" v="path" />
		<tag k="name" v="Veslegrytdalsvegen" />
		<tag k="ssr:stedsnr" v="543638" />
	</node>
	<node id="-341656" lat="61.5708972205" lon="10.9470611055">
		<tag k="fixme" v="consider highway=path" />
		<tag k="highway" v="track" />
		<tag k="name" v="Gamle Vinjevegen" />
		<tag k="ssr:stedsnr" v="543163" />
	</node>
	<node id="-341655" lat="61.3038638878" lon="11.2126833368">
>>>>>>> e1d4bc35ff8a6074a6f2e91616a996b547c36f15
		<tag k="fixme" v="consider highway=path" />
		<tag k="highway" v="track" />
		<tag k="name" v="Hellbuvegen" />
		<tag k="ssr:stedsnr" v="342870" />
	</node>
<<<<<<< HEAD
	<node lat="61.82147500412503" lon="10.61829167084713" id="-16653">
=======
	<node id="-342148" lat="61.4864166644" lon="10.7412444424">
>>>>>>> e1d4bc35ff8a6074a6f2e91616a996b547c36f15
		<tag k="highway" v="path" />
		<tag k="name" v="Nedre Kjølvegen" />
		<tag k="ssr:stedsnr" v="343237" />
	</node>
<<<<<<< HEAD
	<node lat="61.33148611300248" lon="11.263477769049432" id="-16663">
		<tag k="bridge" v="yes" />
		<tag k="layer" v="1" />
		<tag k="name" v="Sagbekk bru" />
		<tag k="ssr:stedsnr" v="349352" />
	</node>
	<node lat="61.63708888769858" lon="10.991430546832555" id="-16668">
		<tag k="highway" v="path" />
		<tag k="name" v="Gamle Månsætervegen" />
		<tag k="ssr:stedsnr" v="359277" />
	</node>
	<node lat="61.57374722096619" lon="11.04331943921906" id="-16678">
=======
	<node id="-342651" lat="61.4232944444" lon="11.099411115">
		<tag k="name" v="Evenstad holdeplass" />
		<tag k="railway" v="halt" />
		<tag k="ssr:stedsnr" v="372084" />
		<tag k="train" v="yes" />
	</node>
	<node id="-342645" lat="61.573747221" lon="11.0433194392">
>>>>>>> e1d4bc35ff8a6074a6f2e91616a996b547c36f15
		<tag k="alt_name" v="Koppang" />
		<tag k="name" v="Koppang stasjon" />
		<tag k="railway" v="station" />
		<tag k="ssr:stedsnr" v="362432" />
		<tag k="train" v="yes" />
	</node>
<<<<<<< HEAD
	<node lat="61.80044166841388" lon="10.352647219012955" id="-16688">
=======
	<node id="-342637" lat="61.8004416684" lon="10.352647219">
>>>>>>> e1d4bc35ff8a6074a6f2e91616a996b547c36f15
		<tag k="highway" v="path" />
		<tag k="name" v="Blestervegen" />
		<tag k="ssr:stedsnr" v="362385" />
	</node>
<<<<<<< HEAD
	<node lat="61.423294444372715" lon="11.099411114983125" id="-16707">
		<tag k="name" v="Evenstad holdeplass" />
		<tag k="railway" v="halt" />
		<tag k="ssr:stedsnr" v="372084" />
		<tag k="train" v="yes" />
	</node>
	<node lat="61.37078889048902" lon="11.23850833700497" id="-16813">
		<tag k="fixme" v="consider highway=path" />
		<tag k="highway" v="track" />
		<tag k="name" v="Elgvegen" />
		<tag k="ssr:stedsnr" v="423835" />
	</node>
	<node lat="61.57089722050837" lon="10.94706110550837" id="-16893">
		<tag k="fixme" v="consider highway=path" />
		<tag k="highway" v="track" />
		<tag k="name" v="Gamle Vinjevegen" />
		<tag k="ssr:stedsnr" v="543163" />
	</node>
	<node lat="61.86897222495011" lon="10.276986114608007" id="-16896">
=======
	<node id="-343143" lat="61.3731749983" lon="10.9026083277">
		<tag k="highway" v="path" />
		<tag k="name" v="Olavsvegen" />
		<tag k="ssr:stedsnr" v="787678" />
	</node>
	<node id="-343142" lat="61.3736722189" lon="10.9529749998">
		<tag k="highway" v="path" />
		<tag k="name" v="Rognsjøvegen" />
		<tag k="ssr:stedsnr" v="787674" />
	</node>
	<node id="-343140" lat="61.8211777801" lon="10.2684555633">
		<tag k="highway" v="path" />
		<tag k="name" v="Atnbruvegen" />
		<tag k="ssr:stedsnr" v="787388" />
	</node>
	<node id="-343139" lat="61.3718583293" lon="11.104083335">
		<tag k="landuse" v="industrial" />
		<tag k="name" v="Storfallet Kraftverk" />
		<tag k="power" v="plant" />
		<tag k="ssr:stedsnr" v="787271" />
	</node>
	<node id="-341086" lat="61.8922166625" lon="10.2234166683">
>>>>>>> e1d4bc35ff8a6074a6f2e91616a996b547c36f15
		<tag k="highway" v="path" />
		<tag k="name" v="Veslegrytdalsvegen" />
		<tag k="ssr:stedsnr" v="543638" />
	</node>
<<<<<<< HEAD
	<node lat="61.39950618273284" lon="11.144995520518972" id="-16928">
		<tag k="name" v="Rasta stasjon" />
		<tag k="railway" v="station" />
		<tag k="ssr:stedsnr" v="554087" />
		<tag k="train" v="yes" />
	</node>
	<node lat="61.25119096391291" lon="11.324376073726468" id="-16930">
		<tag k="name" v="Steinvik stasjon" />
		<tag k="railway" v="station" />
		<tag k="ssr:stedsnr" v="554213" />
		<tag k="train" v="yes" />
	</node>
	<node lat="61.42638610975993" lon="10.828580559154686" id="-16983">
		<tag k="fixme" v="consider highway=path" />
		<tag k="highway" v="track" />
		<tag k="name" v="Lyngsjøvegen" />
		<tag k="ssr:stedsnr" v="586638" />
	</node>
	<node lat="61.81080000171351" lon="10.211494453651362" id="-16992">
=======
	<node id="-342621" lat="61.6370888877" lon="10.9914305468">
		<tag k="highway" v="path" />
		<tag k="name" v="Gamle Månsætervegen" />
		<tag k="ssr:stedsnr" v="359277" />
	</node>
	<node id="-343129" lat="61.3099333318" lon="11.2147916758">
		<tag k="fixme" v="consider highway=path" />
		<tag k="highway" v="track" />
		<tag k="name" v="Femmervegen" />
		<tag k="ssr:stedsnr" v="785483" />
	</node>
	<node id="-342616" lat="61.3101916669" lon="11.2574722178">
		<tag k="bridge" v="yes" />
		<tag k="layer" v="1" />
		<tag k="name" v="Løveng bru" />
		<tag k="ssr:stedsnr" v="349363" />
	</node>
	<node id="-342615" lat="61.331486113" lon="11.263477769">
>>>>>>> e1d4bc35ff8a6074a6f2e91616a996b547c36f15
		<tag k="bridge" v="yes" />
		<tag k="layer" v="1" />
		<tag k="name" v="Vollum bru" />
		<tag k="ssr:stedsnr" v="592297" />
	</node>
<<<<<<< HEAD
	<node lat="61.45774444577417" lon="10.94397499796278" id="-17081">
		<tag k="highway" v="path" />
		<tag k="name" v="Gamle nordre Messeltsætervegen" />
		<tag k="ssr:stedsnr" v="646505" />
	</node>
	<node lat="61.70988889012752" lon="10.888713890176104" id="-17094">
		<tag k="bridge" v="yes" />
		<tag k="layer" v="1" />
		<tag k="name" v="Kjølsjøbekken" />
		<tag k="ssr:stedsnr" v="653276" />
	</node>
	<node lat="61.48124444173326" lon="10.751658340080034" id="-17099">
		<tag k="highway" v="path" />
		<tag k="name" v="Myrvegen" />
		<tag k="ssr:stedsnr" v="662684" />
	</node>
	<node lat="61.60710833247066" lon="11.025613895206849" id="-17118">
=======
	<node id="-343126" lat="61.5418611132" lon="10.8492638822">
		<tag k="fixme" v="consider highway=path" />
		<tag k="highway" v="track" />
		<tag k="name" v="Gamle Trylivegen" />
		<tag k="ssr:stedsnr" v="785125" />
	</node>
	<node id="-342101" lat="61.6384416661" lon="10.9781055618">
		<tag k="fixme" v="consider highway=path" />
		<tag k="highway" v="track" />
		<tag k="name" v="Månsætervegen" />
		<tag k="ssr:stedsnr" v="905255" />
	</node>
	<node id="-343121" lat="61.6371833314" lon="11.0013694411">
		<tag k="fixme" v="consider highway=path" />
		<tag k="highway" v="track" />
		<tag k="name" v="Djupdalsvegen" />
		<tag k="ssr:stedsnr" v="784289" />
	</node>
	<node id="-342095" lat="61.3358583377" lon="11.1739722275">
>>>>>>> e1d4bc35ff8a6074a6f2e91616a996b547c36f15
		<tag k="fixme" v="consider highway=path" />
		<tag k="highway" v="track" />
		<tag k="name" v="Mexicovegen" />
		<tag k="ssr:stedsnr" v="723283" />
	</node>
<<<<<<< HEAD
	<node lat="61.84989999843712" lon="10.21895834033936" id="-17122">
		<tag k="fixme" v="verify maritime location" />
		<tag k="mooring" v="yes" />
		<tag k="name" v="Andersbåta" />
		<tag k="place" v="locality" />
		<tag k="ssr:stedsnr" v="724221" />
	</node>
	<node lat="61.691608334770976" lon="10.313391672003743" id="-17173">
=======
	<node id="-341065" lat="61.4305027808" lon="11.2356166752">
		<tag k="highway" v="path" />
		<tag k="name" v="Holmslivegen" />
		<tag k="ssr:stedsnr" v="56260" />
	</node>
	<node id="-342600" lat="61.8214750041" lon="10.6182916708">
>>>>>>> e1d4bc35ff8a6074a6f2e91616a996b547c36f15
		<tag k="highway" v="path" />
		<tag k="name" v="Prestvegen" />
		<tag k="ssr:stedsnr" v="738980" />
	</node>
<<<<<<< HEAD
	<node lat="61.225405553888045" lon="11.170994435722971" id="-17180">
=======
	<node id="-342796" lat="61.7234805591" lon="10.9146555511">
		<tag k="highway" v="path" />
		<tag k="name" v="Sætervegen" />
		<tag k="ssr:stedsnr" v="525060" />
	</node>
	<node id="-341060" lat="61.8487944438" lon="10.3790694373">
>>>>>>> e1d4bc35ff8a6074a6f2e91616a996b547c36f15
		<tag k="highway" v="path" />
		<tag k="name" v="Stenvikvegen" />
		<tag k="ssr:stedsnr" v="889779" />
	</node>
<<<<<<< HEAD
	<node lat="61.6371833314461" lon="11.00136944111121" id="-17197">
=======
	<node id="-342595" lat="61.2876499989" lon="11.2620222136">
>>>>>>> e1d4bc35ff8a6074a6f2e91616a996b547c36f15
		<tag k="fixme" v="consider highway=path" />
		<tag k="highway" v="track" />
		<tag k="name" v="Djupdalsvegen" />
		<tag k="ssr:stedsnr" v="784289" />
	</node>
<<<<<<< HEAD
	<node lat="61.54186111316811" lon="10.849263882176643" id="-17199">
		<tag k="fixme" v="consider highway=path" />
		<tag k="highway" v="track" />
		<tag k="name" v="Gamle Trylivegen" />
		<tag k="ssr:stedsnr" v="785125" />
	</node>
	<node lat="61.309933331834046" lon="11.214791675802088" id="-17202">
		<tag k="fixme" v="consider highway=path" />
		<tag k="highway" v="track" />
		<tag k="name" v="Femmervegen" />
		<tag k="ssr:stedsnr" v="785483" />
	</node>
	<node lat="61.371858329277835" lon="11.104083334982372" id="-17208">
		<tag k="landuse" v="industrial" />
		<tag k="name" v="Storfallet Kraftverk" />
		<tag k="power" v="plant" />
		<tag k="ssr:stedsnr" v="787271" />
	</node>
	<node lat="61.821177780073164" lon="10.268455563314895" id="-17213">
		<tag k="highway" v="path" />
		<tag k="name" v="Atnbruvegen" />
		<tag k="ssr:stedsnr" v="787388" />
	</node>
	<node lat="61.37367221885625" lon="10.952974999764622" id="-17215">
=======
	<node id="-342594" lat="61.7338611075" lon="10.6693305517">
		<tag k="fixme" v="consider highway=path" />
		<tag k="highway" v="track" />
		<tag k="name" v="Hirbuvollvegen" />
		<tag k="ssr:stedsnr" v="342757" />
	</node>
	<node id="-341055" lat="61.4634555587" lon="11.0249499972">
		<tag k="bridge" v="yes" />
		<tag k="layer" v="1" />
		<tag k="name" v="Nordre Imsa bru" />
		<tag k="ssr:stedsnr" v="228327" />
	</node>
	<node id="-341054" lat="61.5365277793" lon="11.0385777725">
		<tag k="bridge" v="yes" />
		<tag k="layer" v="1" />
		<tag k="name" v="Kvernbekken" />
		<tag k="ssr:stedsnr" v="228325" />
	</node>
	<node id="-341053" lat="61.7398083352" lon="10.1871888894">
		<tag k="bridge" v="yes" />
		<tag k="layer" v="1" />
		<tag k="name" v="Muen bru" />
		<tag k="ssr:stedsnr" v="228322" />
	</node>
	<node id="-341052" lat="61.7370333325" lon="10.7040083269">
		<tag k="bridge" v="yes" />
		<tag k="layer" v="1" />
		<tag k="name" v="Stor Hira" />
		<tag k="ssr:stedsnr" v="228314" />
	</node>
	<node id="-341051" lat="61.3241527817" lon="11.2556944488">
		<tag k="bridge" v="yes" />
		<tag k="layer" v="1" />
		<tag k="name" v="Åkjeta bru" />
		<tag k="ssr:stedsnr" v="228297" />
	</node>
	<node id="-343097" lat="61.8269472208" lon="10.6164111136">
>>>>>>> e1d4bc35ff8a6074a6f2e91616a996b547c36f15
		<tag k="highway" v="path" />
		<tag k="name" v="Rognsjøvegen" />
		<tag k="ssr:stedsnr" v="787674" />
	</node>
<<<<<<< HEAD
	<node lat="61.373174998268425" lon="10.902608327744472" id="-17216">
=======
	<node id="-343085" lat="61.6916083348" lon="10.313391672">
>>>>>>> e1d4bc35ff8a6074a6f2e91616a996b547c36f15
		<tag k="highway" v="path" />
		<tag k="name" v="Olavsvegen" />
		<tag k="ssr:stedsnr" v="787678" />
	</node>
<<<<<<< HEAD
	<node lat="61.63546666540913" lon="10.794708341407963" id="-17269">
=======
	<node id="-341547" lat="61.7656861127" lon="10.3113972183">
>>>>>>> e1d4bc35ff8a6074a6f2e91616a996b547c36f15
		<tag k="highway" v="path" />
		<tag k="name" v="Halandsvegen" />
		<tag k="ssr:stedsnr" v="829238" />
	</node>
<<<<<<< HEAD
	<node lat="61.42786666523423" lon="11.058891663167055" id="-17285">
		<tag k="bridge" v="yes" />
		<tag k="layer" v="1" />
		<tag k="name" v="Rogna bru" />
		<tag k="ssr:stedsnr" v="835302" />
	</node>
	<node lat="61.72863055482656" lon="10.99843332880338" id="-17293">
		<tag k="fixme" v="consider highway=path" />
		<tag k="highway" v="track" />
		<tag k="name" v="Mjovassvegen" />
		<tag k="ssr:stedsnr" v="847651" />
	</node>
	<node lat="61.61518055224286" lon="11.139494438885155" id="-17294">
		<tag k="fixme" v="consider highway=path" />
		<tag k="highway" v="track" />
		<tag k="name" v="Kneppåsvegen" />
		<tag k="ssr:stedsnr" v="847909" />
	</node>
	<node lat="61.73238055570183" lon="10.83479722867264" id="-17335">
		<tag k="name" v="Atna stasjon" />
=======
	<node id="-342058" lat="61.3317555512" lon="11.2605388814">
		<tag k="name" v="Opphus stasjon" />
		<tag k="railway" v="station" />
		<tag k="ssr:stedsnr" v="858016" />
		<tag k="train" v="yes" />
	</node>
	<node id="-342617" lat="61.7896861154" lon="10.561327771">
		<tag k="bridge" v="yes" />
		<tag k="layer" v="1" />
		<tag k="name" v="Bredbekk" />
		<tag k="ssr:stedsnr" v="349778" />
	</node>
	<node id="-342547" lat="61.3021666625" lon="11.2758305461">
		<tag k="name" v="Siljubekken" />
>>>>>>> e1d4bc35ff8a6074a6f2e91616a996b547c36f15
		<tag k="railway" v="station" />
		<tag k="ssr:stedsnr" v="860239" />
		<tag k="train" v="yes" />
	</node>
<<<<<<< HEAD
	<node lat="61.594066662477694" lon="10.877013882749756" id="-17346">
		<tag k="highway" v="path" />
		<tag k="name" v="Viengsvegen" />
		<tag k="ssr:stedsnr" v="889142" />
	</node>
	<node lat="61.48641666443962" lon="10.741244442443413" id="-17366">
		<tag k="highway" v="path" />
		<tag k="name" v="Måsåvegen" />
		<tag k="ssr:stedsnr" v="966681" />
	</node>
	<node lat="61.278477775484575" lon="11.28394166921712" id="-17369">
		<tag k="fixme" v="consider highway=path" />
		<tag k="highway" v="track" />
		<tag k="name" v="Bratsbergvegen" />
		<tag k="ssr:stedsnr" v="967499" />
=======
	<node id="-343128" lat="61.8253305537" lon="10.218716669">
		<tag k="bridge" v="yes" />
		<tag k="layer" v="1" />
		<tag k="name" v="Stenbrua" />
		<tag k="ssr:stedsnr" v="785251" />
	</node>
	<node id="-341814" lat="61.7098888901" lon="10.8887138902">
		<tag k="bridge" v="yes" />
		<tag k="layer" v="1" />
		<tag k="name" v="Kjølsjøbekken" />
		<tag k="ssr:stedsnr" v="653276" />
	</node>
	<node id="-341078" lat="61.7898083292" lon="10.4228472227">
		<tag k="fixme" v="consider highway=path" />
		<tag k="highway" v="track" />
		<tag k="name" v="Småtjønnsætervegen" />
		<tag k="ssr:stedsnr" v="239508" />
>>>>>>> e1d4bc35ff8a6074a6f2e91616a996b547c36f15
	</node>
</osm>
