<?xml version="1.0" encoding="UTF-8"?>
<osm generator="osmapis" version="0.6">
	<node id="-305146" lat="61.6551138847" lon="10.7818750048">
		<tag k="name" v="Kjelskardet" />
		<tag k="natural" v="valley" />
		<tag k="place" v="locality" />
		<tag k="ssr:stedsnr" v="920059" />
	</node>
	<node id="-305144" lat="61.6582805515" lon="10.9595722221">
		<tag k="alt_name" v="Letjønnåsen" />
		<tag k="fixme" v="consider natural=peak for the most distinct mountains in the district" />
		<tag k="name" v="Letjørnåsen" />
		<tag k="natural" v="hill" />
		<tag k="place" v="locality" />
		<tag k="ssr:stedsnr" v="920056" />
	</node>
	<node id="-305141" lat="61.6189916652" lon="10.9784416732">
		<tag k="fixme" v="consider natural=peak for the most distinct mountains in the district" />
		<tag k="name" v="Månkampen" />
		<tag k="natural" v="hill" />
		<tag k="place" v="locality" />
		<tag k="ssr:stedsnr" v="920021" />
	</node>
	<node id="-305139" lat="61.5638499965" lon="10.9175916606">
		<tag k="name" v="Trylia" />
		<tag k="natural" v="slope" />
		<tag k="place" v="locality" />
		<tag k="ssr:stedsnr" v="920121" />
	</node>
	<node id="-305137" lat="61.4789638887" lon="10.6987166593">
		<tag k="fixme" v="consider natural=peak for the most distinct mountains in the district" />
		<tag k="name" v="Måsåfjellet" />
		<tag k="natural" v="hill" />
		<tag k="place" v="locality" />
		<tag k="ssr:stedsnr" v="919803" />
	</node>
	<node id="-305132" lat="61.3365555517" lon="10.8387999905">
		<tag k="fixme" v="consider natural=peak for the most distinct mountains in the district" />
		<tag k="name" v="Skollfjellet" />
		<tag k="natural" v="hill" />
		<tag k="place" v="locality" />
		<tag k="ssr:stedsnr" v="918462" />
	</node>
	<node id="-305128" lat="61.4302944451" lon="11.1421833391">
		<tag k="fixme" v="consider natural=peak for the most distinct mountains in the district" />
		<tag k="name" v="Kloppåsen" />
		<tag k="natural" v="hill" />
		<tag k="place" v="locality" />
		<tag k="ssr:stedsnr" v="918077" />
	</node>
	<node id="-304124" lat="61.7330638899" lon="10.9475666622">
		<tag k="alt_name" v="Løvåsen" />
		<tag k="fixme" v="consider natural=peak for the most distinct mountains in the district" />
		<tag k="name" v="Lauvåsen" />
		<tag k="natural" v="hill" />
		<tag k="place" v="locality" />
		<tag k="ssr:stedsnr" v="252182" />
	</node>
	<node id="-305124" lat="61.4609805553" lon="10.8661111044">
		<tag k="fixme" v="consider natural=peak for the most distinct mountains in the district" />
		<tag k="name" v="Halvmilsåsen" />
		<tag k="natural" v="hill" />
		<tag k="place" v="locality" />
		<tag k="ssr:stedsnr" v="917427" />
	</node>
	<node id="-305122" lat="61.4529750035" lon="10.7853861102">
		<tag k="alt_name" v="Bjønnskarven" />
		<tag k="fixme" v="consider natural=peak for the most distinct mountains in the district" />
		<tag k="name" v="Bjørnskarven" />
		<tag k="natural" v="hill" />
		<tag k="place" v="locality" />
		<tag k="ssr:stedsnr" v="917403" />
	</node>
	<node id="-305121" lat="61.2357083369" lon="11.2366416725">
		<tag k="fixme" v="consider natural=peak for the most distinct mountains in the district" />
		<tag k="name" v="Slagåskampen" />
		<tag k="natural" v="hill" />
		<tag k="place" v="locality" />
		<tag k="ssr:stedsnr" v="917355" />
	</node>
	<node id="-305117" lat="61.3650666638" lon="11.2956083248">
		<tag k="name" v="Tømmerhaugene" />
		<tag k="natural" v="hill" />
		<tag k="place" v="locality" />
		<tag k="ssr:stedsnr" v="905811" />
	</node>
	<node id="-305114" lat="61.6125444423" lon="10.982961103">
		<tag k="name" v="Månskjæra" />
		<tag k="place" v="locality" />
		<tag k="ssr:stedsnr" v="905253" />
	</node>
	<node id="-305101" lat="61.8531249992" lon="10.3614805618">
		<tag k="name" v="Hattlia" />
		<tag k="natural" v="slope" />
		<tag k="place" v="locality" />
		<tag k="ssr:stedsnr" v="860520" />
	</node>
	<node id="-305097" lat="61.576480558" lon="10.688547231">
		<tag k="fixme" v="consider natural=peak for the most distinct mountains in the district" />
		<tag k="name" v="Rundvola" />
		<tag k="natural" v="hill" />
		<tag k="place" v="locality" />
		<tag k="ssr:stedsnr" v="860169" />
	</node>
	<node id="-305096" lat="61.8735000017" lon="10.5115111054">
		<tag k="fixme" v="consider natural=peak for the most distinct mountains in the district" />
		<tag k="name" v="Gråhøgda" />
		<tag k="natural" v="hill" />
		<tag k="place" v="locality" />
		<tag k="ssr:stedsnr" v="860164" />
	</node>
	<node id="-305094" lat="61.5658749965" lon="10.8323388857">
		<tag k="fixme" v="consider natural=peak for the most distinct mountains in the district" />
		<tag k="name" v="Trønnesskarven" />
		<tag k="natural" v="hill" />
		<tag k="place" v="locality" />
		<tag k="ssr:stedsnr" v="860125" />
	</node>
	<node id="-305087" lat="61.7532249959" lon="10.123249998">
		<tag k="fixme" v="consider natural=peak for the most distinct mountains in the district" />
		<tag k="name" v="Ramshøgda" />
		<tag k="natural" v="hill" />
		<tag k="place" v="locality" />
		<tag k="ssr:stedsnr" v="859377" />
	</node>
	<node id="-305084" lat="61.8050916681" lon="10.1014777778">
		<tag k="name" v="Vuludalen" />
		<tag k="natural" v="valley" />
		<tag k="place" v="locality" />
		<tag k="ssr:stedsnr" v="859355" />
	</node>
	<node id="-305082" lat="61.5198583335" lon="11.0946583351">
		<tag k="alt_name" v="Madsskaret" />
		<tag k="name" v="Madsskardet" />
		<tag k="natural" v="valley" />
		<tag k="place" v="locality" />
		<tag k="ssr:stedsnr" v="859266" />
	</node>
	<node id="-305081" lat="61.5360055589" lon="10.6976166711">
		<tag k="name" v="Imsdalen" />
		<tag k="natural" v="valley" />
		<tag k="place" v="locality" />
		<tag k="ssr:stedsnr" v="859226" />
	</node>
	<node id="-305078" lat="61.2919555517" lon="10.9865250065">
		<tag k="name" v="Rundhaugen" />
		<tag k="natural" v="hill" />
		<tag k="place" v="locality" />
		<tag k="ssr:stedsnr" v="858405" />
	</node>
	<node id="-305076" lat="61.4213527754" lon="11.2336111098">
		<tag k="fixme" v="consider natural=peak for the most distinct mountains in the district" />
		<tag k="name" v="Jønnbuåsen" />
		<tag k="natural" v="hill" />
		<tag k="place" v="locality" />
		<tag k="ssr:stedsnr" v="858068" />
	</node>
	<node id="-305070" lat="61.2174555546" lon="11.3133055485">
		<tag k="fixme" v="consider natural=peak for the most distinct mountains in the district" />
		<tag k="name" v="Kletten" />
		<tag k="natural" v="hill" />
		<tag k="place" v="locality" />
		<tag k="ssr:stedsnr" v="856430" />
	</node>
	<node id="-304114" lat="61.8297999983" lon="10.6651388911">
		<tag k="name" v="Lortdalen" />
		<tag k="natural" v="valley" />
		<tag k="place" v="locality" />
		<tag k="ssr:stedsnr" v="71304" />
	</node>
	<node id="-305063" lat="61.4628388881" lon="11.1031527746">
		<tag k="name" v="Karibrenndalen" />
		<tag k="natural" v="valley" />
		<tag k="place" v="locality" />
		<tag k="ssr:stedsnr" v="830303" />
	</node>
	<node id="-305059" lat="61.7443416646" lon="10.3070388853">
		<tag k="alt_name" v="Bretningsvorda" />
		<tag k="fixme" v="consider natural=peak for the most distinct mountains in the district" />
		<tag k="name" v="Bretningsvola" />
		<tag k="natural" v="hill" />
		<tag k="place" v="locality" />
		<tag k="ssr:stedsnr" v="799956" />
	</node>
	<node id="-305050" lat="61.7382666681" lon="10.9893277752">
		<tag k="fixme" v="consider natural=peak for the most distinct mountains in the district" />
		<tag k="name" v="Gråkletten" />
		<tag k="natural" v="hill" />
		<tag k="place" v="locality" />
		<tag k="ssr:stedsnr" v="799215" />
	</node>
	<node id="-305039" lat="61.9473249977" lon="10.1556249961">
		<tag k="name" v="Gravskardet" />
		<tag k="natural" v="valley" />
		<tag k="place" v="locality" />
		<tag k="ssr:stedsnr" v="798564" />
	</node>
	<node id="-305036" lat="61.384299997" lon="11.0621583356">
		<tag k="alt_name" v="Storkletten;Rødkletten" />
		<tag k="fixme" v="consider natural=peak for the most distinct mountains in the district" />
		<tag k="name" v="Raudkletten" />
		<tag k="natural" v="hill" />
		<tag k="place" v="locality" />
		<tag k="ssr:stedsnr" v="797404" />
	</node>
	<node id="-305033" lat="61.3285944469" lon="11.2073583259">
		<tag k="fixme" v="consider natural=peak for the most distinct mountains in the district" />
		<tag k="name" v="Midtåsen" />
		<tag k="natural" v="hill" />
		<tag k="place" v="locality" />
		<tag k="ssr:stedsnr" v="797011" />
	</node>
	<node id="-305031" lat="61.3465722185" lon="11.2661333315">
		<tag k="alt_name" v="Storskjæret" />
		<tag k="name" v="Storskjeret" />
		<tag k="natural" v="hill" />
		<tag k="place" v="locality" />
		<tag k="ssr:stedsnr" v="797005" />
	</node>
	<node id="-305030" lat="61.459727776" lon="10.7737499967">
		<tag k="alt_name" v="Nordre Brennfjellet" />
		<tag k="fixme" v="consider natural=peak for the most distinct mountains in the district" />
		<tag k="name" v="Brennfjellet" />
		<tag k="natural" v="hill" />
		<tag k="place" v="locality" />
		<tag k="ssr:stedsnr" v="796444" />
	</node>
	<node id="-305029" lat="61.4638833322" lon="11.0868805556">
		<tag k="name" v="Grindfossberget" />
		<tag k="natural" v="hill" />
		<tag k="place" v="locality" />
		<tag k="ssr:stedsnr" v="796443" />
	</node>
	<node id="-305027" lat="61.8756694445" lon="10.4799805501">
		<tag k="name" v="Fallbakken" />
		<tag k="natural" v="slope" />
		<tag k="place" v="locality" />
		<tag k="ssr:stedsnr" v="787981" />
	</node>
	<node id="-305019" lat="61.7752361069" lon="10.5350249969">
		<tag k="alt_name" v="Bredlia" />
		<tag k="name" v="Breidlia" />
		<tag k="natural" v="slope" />
		<tag k="place" v="locality" />
		<tag k="ssr:stedsnr" v="921312" />
	</node>
	<node id="-305018" lat="61.7753666637" lon="10.4290083418">
		<tag k="name" v="Ytterdalen" />
		<tag k="natural" v="valley" />
		<tag k="place" v="locality" />
		<tag k="ssr:stedsnr" v="921305" />
	</node>
	<node id="-305015" lat="61.8068500041" lon="10.6712583244">
		<tag k="name" v="Elgslåa" />
		<tag k="natural" v="slope" />
		<tag k="place" v="locality" />
		<tag k="ssr:stedsnr" v="921277" />
	</node>
	<node id="-305012" lat="61.3577166649" lon="11.3218805465">
		<tag k="fixme" v="consider natural=peak for the most distinct mountains in the district" />
		<tag k="name" v="Kloppåsen" />
		<tag k="natural" v="hill" />
		<tag k="place" v="locality" />
		<tag k="ssr:stedsnr" v="920775" />
	</node>
	<node id="-305010" lat="61.9273611122" lon="10.1323749965">
		<tag k="alt_name" v="Tverrdalen, øvre" />
		<tag k="name" v="Øvre Tverrdalen" />
		<tag k="natural" v="valley" />
		<tag k="place" v="locality" />
		<tag k="ssr:stedsnr" v="920611" />
	</node>
	<node id="-304994" lat="61.3026499972" lon="10.8727972267">
		<tag k="fixme" v="consider natural=peak for the most distinct mountains in the district" />
		<tag k="name" v="Gjertrudsfjellet" />
		<tag k="natural" v="hill" />
		<tag k="place" v="locality" />
		<tag k="ssr:stedsnr" v="919388" />
	</node>
	<node id="-304993" lat="61.3728944432" lon="11.2556444389">
		<tag k="fixme" v="consider natural=peak for the most distinct mountains in the district" />
		<tag k="name" v="Hyttåsen" />
		<tag k="natural" v="hill" />
		<tag k="place" v="locality" />
		<tag k="ssr:stedsnr" v="919045" />
	</node>
	<node id="-304989" lat="61.2959361078" lon="11.1081444357">
		<tag k="name" v="Hea" />
		<tag k="natural" v="hill" />
		<tag k="place" v="locality" />
		<tag k="ssr:stedsnr" v="918248" />
	</node>
	<node id="-304980" lat="61.439227781" lon="11.0562361123">
		<tag k="name" v="Kåsa" />
		<tag k="natural" v="valley" />
		<tag k="place" v="locality" />
		<tag k="ssr:stedsnr" v="769868" />
	</node>
	<node id="-304969" lat="61.3890611136" lon="11.1012444355">
		<tag k="fixme" v="consider natural=peak for the most distinct mountains in the district" />
		<tag k="name" v="Syrkletten" />
		<tag k="natural" v="hill" />
		<tag k="place" v="locality" />
		<tag k="ssr:stedsnr" v="909276" />
	</node>
	<node id="-304968" lat="61.3986444489" lon="11.0883500022">
		<tag k="fixme" v="consider natural=peak for the most distinct mountains in the district" />
		<tag k="name" v="Nystukletten" />
		<tag k="natural" v="hill" />
		<tag k="place" v="locality" />
		<tag k="ssr:stedsnr" v="909273" />
	</node>
	<node id="-304965" lat="61.7544194483" lon="10.3994499988">
		<tag k="fixme" v="consider natural=peak for the most distinct mountains in the district" />
		<tag k="name" v="Veslekletten" />
		<tag k="natural" v="hill" />
		<tag k="ssr:stedsnr" v="908705" />
	</node>
	<node id="-304146" lat="61.703025004" lon="10.7853361083">
		<tag k="fixme" v="consider natural=peak for the most distinct mountains in the district" />
		<tag k="name" v="Nybuåsen" />
		<tag k="natural" v="hill" />
		<tag k="place" v="locality" />
		<tag k="ssr:stedsnr" v="253224" />
	</node>
	<node id="-304945" lat="61.6244055524" lon="10.9889361152">
		<tag k="name" v="Bråtålia" />
		<tag k="natural" v="slope" />
		<tag k="place" v="locality" />
		<tag k="ssr:stedsnr" v="748268" />
	</node>
	<node id="-304940" lat="61.4559500013" lon="10.778786105">
		<tag k="fixme" v="consider natural=peak for the most distinct mountains in the district" />
		<tag k="name" v="Søndre Brennfjellet" />
		<tag k="natural" v="hill" />
		<tag k="ssr:stedsnr" v="905666" />
	</node>
	<node id="-304938" lat="61.769700003" lon="10.4964444402">
		<tag k="name" v="Storbekkdalen" />
		<tag k="natural" v="valley" />
		<tag k="place" v="locality" />
		<tag k="ssr:stedsnr" v="739280" />
	</node>
	<node id="-304350" lat="61.8516194444" lon="10.5210944429">
		<tag k="fixme" v="consider natural=peak for the most distinct mountains in the district" />
		<tag k="name" v="Steinhøgda" />
		<tag k="natural" v="hill" />
		<tag k="place" v="locality" />
		<tag k="ssr:stedsnr" v="313467" />
	</node>
	<node id="-304928" lat="61.8628305553" lon="10.176150008">
		<tag k="name" v="Holtlia" />
		<tag k="natural" v="slope" />
		<tag k="place" v="locality" />
		<tag k="ssr:stedsnr" v="725246" />
	</node>
	<node id="-304924" lat="61.8401777798" lon="10.2230083372">
		<tag k="name" v="Volbakken" />
		<tag k="natural" v="slope" />
		<tag k="place" v="locality" />
		<tag k="ssr:stedsnr" v="724245" />
	</node>
	<node id="-304915" lat="61.3603416642" lon="10.9702805482">
		<tag k="fixme" v="consider natural=peak for the most distinct mountains in the district" />
		<tag k="name" v="Vestre Stenåsen" />
		<tag k="natural" v="hill" />
		<tag k="place" v="locality" />
		<tag k="ssr:stedsnr" v="891954" />
	</node>
	<node id="-304898" lat="61.2488055527" lon="11.2398972259">
		<tag k="name" v="Lågforberget" />
		<tag k="natural" v="slope" />
		<tag k="place" v="locality" />
		<tag k="ssr:stedsnr" v="889512" />
	</node>
	<node id="-304889" lat="61.6048055558" lon="10.8870138832">
		<tag k="name" v="Klarbekklia" />
		<tag k="natural" v="slope" />
		<tag k="place" v="locality" />
		<tag k="ssr:stedsnr" v="889127" />
	</node>
	<node id="-304883" lat="61.7444583334" lon="10.2176083264">
		<tag k="fixme" v="consider natural=peak for the most distinct mountains in the district" />
		<tag k="name" v="Snødølhøgda" />
		<tag k="natural" v="hill" />
		<tag k="place" v="locality" />
		<tag k="ssr:stedsnr" v="677959" />
	</node>
	<node id="-304880" lat="61.8628749978" lon="10.5448277823">
		<tag k="name" v="Småbekkdalen" />
		<tag k="natural" v="valley" />
		<tag k="place" v="locality" />
		<tag k="ssr:stedsnr" v="677466" />
	</node>
	<node id="-304878" lat="61.8478999959" lon="10.1468833267">
		<tag k="name" v="Voldalen" />
		<tag k="natural" v="valley" />
		<tag k="place" v="locality" />
		<tag k="ssr:stedsnr" v="677370" />
	</node>
	<node id="-304866" lat="61.5815638881" lon="11.0195472169">
		<tag k="name" v="Ivarsmoen" />
		<tag k="place" v="locality" />
		<tag k="ssr:stedsnr" v="677122" />
	</node>
	<node id="-304858" lat="61.3536805565" lon="10.9372027727">
		<tag k="fixme" v="consider natural=peak for the most distinct mountains in the district" />
		<tag k="name" v="Svartåsfjellet" />
		<tag k="natural" v="hill" />
		<tag k="place" v="locality" />
		<tag k="ssr:stedsnr" v="676414" />
	</node>
	<node id="-304079" lat="61.4186472239" lon="10.8865944442">
		<tag k="name" v="Tjønnskaret" />
		<tag k="natural" v="valley" />
		<tag k="place" v="locality" />
		<tag k="ssr:stedsnr" v="237575" />
	</node>
	<node id="-304856" lat="61.3386611116" lon="11.1520361044">
		<tag k="alt_name" v="Vesle-Horta" />
		<tag k="fixme" v="consider natural=peak for the most distinct mountains in the district" />
		<tag k="name" v="Veslehorta" />
		<tag k="natural" v="hill" />
		<tag k="place" v="locality" />
		<tag k="ssr:stedsnr" v="676011" />
	</node>
	<node id="-304850" lat="61.4494999978" lon="10.9954527761">
		<tag k="fixme" v="consider natural=peak for the most distinct mountains in the district" />
		<tag k="name" v="Furuåsen" />
		<tag k="natural" v="hill" />
		<tag k="place" v="locality" />
		<tag k="ssr:stedsnr" v="675460" />
	</node>
	<node id="-304849" lat="61.4334777816" lon="10.9869916642">
		<tag k="alt_name" v="Rognvorda, midtre;Rognvola" />
		<tag k="fixme" v="consider natural=peak for the most distinct mountains in the district" />
		<tag k="name" v="Midtre Rognvola" />
		<tag k="natural" v="hill" />
		<tag k="place" v="locality" />
		<tag k="ssr:stedsnr" v="675456" />
	</node>
	<node id="-304847" lat="61.4362694449" lon="11.1103944497">
		<tag k="name" v="Tronkberget" />
		<tag k="natural" v="hill" />
		<tag k="place" v="locality" />
		<tag k="ssr:stedsnr" v="675071" />
	</node>
	<node id="-304844" lat="61.8970638865" lon="10.1832416718">
		<tag k="name" v="Gravskardalen" />
		<tag k="natural" v="valley" />
		<tag k="place" v="locality" />
		<tag k="ssr:stedsnr" v="665458" />
	</node>
	<node id="-304841" lat="61.8444833292" lon="10.1552472291">
		<tag k="name" v="Dokka" />
		<tag k="natural" v="valley" />
		<tag k="place" v="locality" />
		<tag k="ssr:stedsnr" v="664231" />
	</node>
	<node id="-304839" lat="61.7741916703" lon="10.6803444392">
		<tag k="fixme" v="consider natural=peak for the most distinct mountains in the district" />
		<tag k="name" v="Trylikletten" />
		<tag k="natural" v="hill" />
		<tag k="place" v="locality" />
		<tag k="ssr:stedsnr" v="661866" />
	</node>
	<node id="-304838" lat="61.8377749994" lon="10.1346027862">
		<tag k="name" v="Nordrebekkdalen" />
		<tag k="natural" v="valley" />
		<tag k="place" v="locality" />
		<tag k="ssr:stedsnr" v="659925" />
	</node>
	<node id="-304834" lat="61.4312916653" lon="11.1790222187">
		<tag k="fixme" v="consider natural=peak for the most distinct mountains in the district" />
		<tag k="name" v="Evenstadkletten" />
		<tag k="natural" v="hill" />
		<tag k="place" v="locality" />
		<tag k="ssr:stedsnr" v="736080" />
	</node>
	<node id="-304821" lat="61.3983972212" lon="11.0699499907">
		<tag k="fixme" v="consider natural=peak for the most distinct mountains in the district" />
		<tag k="name" v="Bjønnkletten" />
		<tag k="natural" v="hill" />
		<tag k="place" v="locality" />
		<tag k="ssr:stedsnr" v="647911" />
	</node>
	<node id="-304819" lat="61.3445749974" lon="11.167091674">
		<tag k="name" v="Heggedalen" />
		<tag k="natural" v="valley" />
		<tag k="place" v="locality" />
		<tag k="ssr:stedsnr" v="647123" />
	</node>
	<node id="-304814" lat="61.5284194482" lon="10.9107055633">
		<tag k="name" v="Vassdalen" />
		<tag k="natural" v="valley" />
		<tag k="place" v="locality" />
		<tag k="ssr:stedsnr" v="646509" />
	</node>
	<node id="-304813" lat="61.3621166682" lon="10.9851583326">
		<tag k="alt_name" v="Østre Stenåsen" />
		<tag k="fixme" v="consider natural=peak for the most distinct mountains in the district" />
		<tag k="name" v="Steinåsen" />
		<tag k="natural" v="hill" />
		<tag k="place" v="locality" />
		<tag k="ssr:stedsnr" v="646506" />
	</node>
	<node id="-304807" lat="61.6033194436" lon="10.9175083286">
		<tag k="name" v="Djupdalen" />
		<tag k="natural" v="valley" />
		<tag k="place" v="locality" />
		<tag k="ssr:stedsnr" v="646089" />
	</node>
	<node id="-304803" lat="61.3678277761" lon="10.9438055551">
		<tag k="name" v="Rundhaugen" />
		<tag k="natural" v="hill" />
		<tag k="place" v="locality" />
		<tag k="ssr:stedsnr" v="727655" />
	</node>
	<node id="-304797" lat="61.8495444486" lon="10.247622225">
		<tag k="name" v="Langdalen" />
		<tag k="natural" v="valley" />
		<tag k="place" v="locality" />
		<tag k="ssr:stedsnr" v="726382" />
	</node>
	<node id="-304795" lat="61.2814333302" lon="11.2287222185">
		<tag k="fixme" v="consider natural=peak for the most distinct mountains in the district" />
		<tag k="name" v="Tøråsen" />
		<tag k="natural" v="hill" />
		<tag k="place" v="locality" />
		<tag k="ssr:stedsnr" v="725470" />
	</node>
	<node id="-304793" lat="61.5437916679" lon="10.929075">
		<tag k="name" v="Lemhaugene" />
		<tag k="natural" v="hill" />
		<tag k="place" v="locality" />
		<tag k="ssr:stedsnr" v="725121" />
	</node>
	<node id="-304791" lat="61.5864111147" lon="11.1207305479">
		<tag k="name" v="Blåbæråsen" />
		<tag k="natural" v="hill" />
		<tag k="place" v="locality" />
		<tag k="ssr:stedsnr" v="724936" />
	</node>
	<node id="-304790" lat="61.7567527764" lon="10.4503583339">
		<tag k="name" v="Vollskaret" />
		<tag k="natural" v="valley" />
		<tag k="place" v="locality" />
		<tag k="ssr:stedsnr" v="724499" />
	</node>
	<node id="-304782" lat="61.5952444451" lon="10.7029916708">
		<tag k="fixme" v="consider natural=peak for the most distinct mountains in the district" />
		<tag k="name" v="Famphøgdene" />
		<tag k="natural" v="hill" />
		<tag k="place" v="locality" />
		<tag k="ssr:stedsnr" v="617160" />
	</node>
	<node id="-304780" lat="61.6162638877" lon="10.7939055635">
		<tag k="alt_name" v="Gråvorda" />
		<tag k="fixme" v="consider natural=peak for the most distinct mountains in the district" />
		<tag k="name" v="Gråvola" />
		<tag k="natural" v="hill" />
		<tag k="place" v="locality" />
		<tag k="ssr:stedsnr" v="617032" />
	</node>
	<node id="-304773" lat="61.7914750037" lon="10.1719555614">
		<tag k="fixme" v="consider natural=peak for the most distinct mountains in the district" />
		<tag k="name" v="Gråhøgda" />
		<tag k="natural" v="hill" />
		<tag k="place" v="locality" />
		<tag k="ssr:stedsnr" v="616413" />
	</node>
	<node id="-304772" lat="61.7871555581" lon="10.1137083417">
		<tag k="fixme" v="consider natural=peak for the most distinct mountains in the district" />
		<tag k="name" v="Sandflågån" />
		<tag k="natural" v="hill" />
		<tag k="place" v="locality" />
		<tag k="ssr:stedsnr" v="616411" />
	</node>
	<node id="-304768" lat="61.7318000042" lon="10.9251833366">
		<tag k="name" v="Gråhammaren" />
		<tag k="natural" v="hill" />
		<tag k="place" v="locality" />
		<tag k="ssr:stedsnr" v="616186" />
	</node>
	<node id="-304765" lat="61.609819444" lon="10.8107111022">
		<tag k="alt_name" v="Gråvordtangen" />
		<tag k="name" v="Gråvoltangen" />
		<tag k="natural" v="hill" />
		<tag k="place" v="locality" />
		<tag k="ssr:stedsnr" v="616022" />
	</node>
	<node id="-304764" lat="61.5933500037" lon="10.7819499972">
		<tag k="alt_name" v="Raufjellet" />
		<tag k="fixme" v="consider natural=peak for the most distinct mountains in the district" />
		<tag k="name" v="Raudfjellet" />
		<tag k="natural" v="hill" />
		<tag k="place" v="locality" />
		<tag k="ssr:stedsnr" v="616002" />
	</node>
	<node id="-304763" lat="61.3230416644" lon="11.0311666595">
		<tag k="alt_name" v="Møklebyskarven" />
		<tag k="fixme" v="consider natural=peak for the most distinct mountains in the district" />
		<tag k="name" v="Myklebyskarven" />
		<tag k="natural" v="hill" />
		<tag k="place" v="locality" />
		<tag k="ssr:stedsnr" v="615381" />
	</node>
	<node id="-304752" lat="61.7676055575" lon="10.3018055537">
		<tag k="fixme" v="consider natural=peak for the most distinct mountains in the district" />
		<tag k="name" v="Vesleåsen" />
		<tag k="natural" v="hill" />
		<tag k="place" v="locality" />
		<tag k="ssr:stedsnr" v="604397" />
	</node>
	<node id="-304750" lat="61.8545722229" lon="10.2531861142">
		<tag k="fixme" v="consider natural=peak for the most distinct mountains in the district" />
		<tag k="name" v="Åsen" />
		<tag k="natural" v="hill" />
		<tag k="place" v="locality" />
		<tag k="ssr:stedsnr" v="604357" />
	</node>
	<node id="-304746" lat="61.75028333" lon="10.4780527796">
		<tag k="name" v="Snusklettlia" />
		<tag k="natural" v="slope" />
		<tag k="place" v="locality" />
		<tag k="ssr:stedsnr" v="601999" />
	</node>
	<node id="-304737" lat="61.488669446" lon="11.0426861096">
		<tag k="alt_name" v="Geithammarn" />
		<tag k="fixme" v="consider natural=peak for the most distinct mountains in the district" />
		<tag k="name" v="Geithammaren" />
		<tag k="natural" v="hill" />
		<tag k="place" v="locality" />
		<tag k="ssr:stedsnr" v="585721" />
	</node>
	<node id="-304736" lat="61.4273777734" lon="10.9600416711">
		<tag k="name" v="Bjønnstilla" />
		<tag k="natural" v="valley" />
		<tag k="place" v="locality" />
		<tag k="ssr:stedsnr" v="585880" />
	</node>
	<node id="-304733" lat="61.5855583319" lon="10.9132555532">
		<tag k="fixme" v="consider natural=peak for the most distinct mountains in the district" />
		<tag k="name" v="Sæteråsen" />
		<tag k="natural" v="hill" />
		<tag k="place" v="locality" />
		<tag k="ssr:stedsnr" v="585132" />
	</node>
	<node id="-304704" lat="61.7599444467" lon="10.375849992">
		<tag k="name" v="Øverdalen" />
		<tag k="natural" v="valley" />
		<tag k="place" v="locality" />
		<tag k="ssr:stedsnr" v="557269" />
	</node>
	<node id="-304703" lat="61.7381" lon="10.1543694518">
		<tag k="fixme" v="consider natural=peak for the most distinct mountains in the district" />
		<tag k="name" v="Merrahøgda" />
		<tag k="natural" v="hill" />
		<tag k="place" v="locality" />
		<tag k="ssr:stedsnr" v="556955" />
	</node>
	<node id="-304700" lat="61.79415556" lon="10.380794438">
		<tag k="fixme" v="consider natural=peak for the most distinct mountains in the district" />
		<tag k="name" v="Snautangen" />
		<tag k="natural" v="hill" />
		<tag k="place" v="locality" />
		<tag k="ssr:stedsnr" v="556325" />
	</node>
	<node id="-304699" lat="61.8011694424" lon="10.7051999916">
		<tag k="fixme" v="consider natural=peak for the most distinct mountains in the district" />
		<tag k="name" v="Langvola" />
		<tag k="natural" v="hill" />
		<tag k="place" v="locality" />
		<tag k="ssr:stedsnr" v="556323" />
	</node>
	<node id="-304692" lat="61.7135666675" lon="10.764705557">
		<tag k="alt_name" v="Skjærbekk-kletten;Skjerbekkletten" />
		<tag k="fixme" v="consider natural=peak for the most distinct mountains in the district" />
		<tag k="name" v="Skjerbekk-kletten" />
		<tag k="natural" v="hill" />
		<tag k="place" v="locality" />
		<tag k="ssr:stedsnr" v="556223" />
	</node>
	<node id="-304691" lat="61.7874861112" lon="10.7210527735">
		<tag k="fixme" v="consider natural=peak for the most distinct mountains in the district" />
		<tag k="name" v="Bjørndalsåsen" />
		<tag k="natural" v="hill" />
		<tag k="place" v="locality" />
		<tag k="ssr:stedsnr" v="556221" />
	</node>
	<node id="-304689" lat="61.7394861133" lon="10.4254000079">
		<tag k="fixme" v="consider natural=peak for the most distinct mountains in the district" />
		<tag k="name" v="Svuluhøgda" />
		<tag k="natural" v="hill" />
		<tag k="place" v="locality" />
		<tag k="ssr:stedsnr" v="556213" />
	</node>
	<node id="-304686" lat="61.6851333333" lon="10.9474249939">
		<tag k="name" v="Storberget" />
		<tag k="natural" v="hill" />
		<tag k="place" v="locality" />
		<tag k="ssr:stedsnr" v="556058" />
	</node>
	<node id="-304685" lat="61.6606861121" lon="10.7290500002">
		<tag k="alt_name" v="Veslekletten" />
		<tag k="fixme" v="consider natural=peak for the most distinct mountains in the district" />
		<tag k="name" v="Veslkletten" />
		<tag k="natural" v="hill" />
		<tag k="place" v="locality" />
		<tag k="ssr:stedsnr" v="556054" />
	</node>
	<node id="-304684" lat="61.6189805545" lon="11.1233000094">
		<tag k="fixme" v="consider natural=peak for the most distinct mountains in the district" />
		<tag k="name" v="Kneppåsen" />
		<tag k="natural" v="hill" />
		<tag k="place" v="locality" />
		<tag k="ssr:stedsnr" v="555429" />
	</node>
	<node id="-304683" lat="61.9067138892" lon="10.1444277774">
		<tag k="name" v="Neskampen" />
		<tag k="natural" v="hill" />
		<tag k="place" v="locality" />
		<tag k="ssr:stedsnr" v="555527" />
	</node>
	<node id="-304681" lat="61.6651527746" lon="10.6874416623">
		<tag k="alt_name" v="Lauvåsen" />
		<tag k="fixme" v="consider natural=peak for the most distinct mountains in the district" />
		<tag k="name" v="Løvåsen" />
		<tag k="natural" v="hill" />
		<tag k="place" v="locality" />
		<tag k="ssr:stedsnr" v="555123" />
	</node>
	<node id="-304678" lat="61.2852499962" lon="10.9416999918">
		<tag k="fixme" v="consider natural=peak for the most distinct mountains in the district" />
		<tag k="name" v="Gråberget" />
		<tag k="natural" v="hill" />
		<tag k="place" v="locality" />
		<tag k="ssr:stedsnr" v="554407" />
	</node>
	<node id="-306097" lat="61.8729611112" lon="10.2313611151">
		<tag k="alt_name" v="Naråskarven, nordre;Nørdre Narroskarven;Nordre Næråskarven" />
		<tag k="fixme" v="consider natural=peak for the most distinct mountains in the district" />
		<tag k="name" v="Nørdre Næråskarven" />
		<tag k="natural" v="hill" />
		<tag k="place" v="locality" />
		<tag k="ssr:stedsnr" v="738580" />
	</node>
	<node id="-304048" lat="61.5785083299" lon="11.1244500033">
		<tag k="name" v="Sunndalen" />
		<tag k="natural" v="valley" />
		<tag k="place" v="locality" />
		<tag k="ssr:stedsnr" v="10437" />
	</node>
	<node id="-304666" lat="60.9287583328" lon="11.4804249971">
		<tag k="name" v="Østerdalen" />
		<tag k="natural" v="valley" />
		<tag k="place" v="locality" />
		<tag k="ssr:stedsnr" v="692157" />
	</node>
	<node id="-304665" lat="61.8566000017" lon="10.1448611043">
		<tag k="name" v="Nysæterhaugen" />
		<tag k="natural" v="hill" />
		<tag k="place" v="locality" />
		<tag k="ssr:stedsnr" v="537595" />
	</node>
	<node id="-304662" lat="61.3753972265" lon="11.0736583243">
		<tag k="fixme" v="consider natural=peak for the most distinct mountains in the district" />
		<tag k="name" v="Veslekletten" />
		<tag k="natural" v="hill" />
		<tag k="place" v="locality" />
		<tag k="ssr:stedsnr" v="527997" />
	</node>
	<node id="-304655" lat="61.4622333317" lon="10.8518666646">
		<tag k="name" v="Skjærdalen" />
		<tag k="natural" v="valley" />
		<tag k="place" v="locality" />
		<tag k="ssr:stedsnr" v="525619" />
	</node>
	<node id="-304654" lat="61.5161416646" lon="11.0242777767">
		<tag k="alt_name" v="Veslesnippen" />
		<tag k="fixme" v="consider natural=peak for the most distinct mountains in the district" />
		<tag k="name" v="Veslsnippen" />
		<tag k="natural" v="hill" />
		<tag k="place" v="locality" />
		<tag k="ssr:stedsnr" v="687384" />
	</node>
	<node id="-304632" lat="61.8349777799" lon="10.5335277808">
		<tag k="name" v="Gravbekkdalen" />
		<tag k="natural" v="valley" />
		<tag k="place" v="locality" />
		<tag k="ssr:stedsnr" v="678291" />
	</node>
	<node id="-304629" lat="61.6229166662" lon="10.9274138937">
		<tag k="fixme" v="consider natural=peak for the most distinct mountains in the district" />
		<tag k="name" v="Viengskletten" />
		<tag k="natural" v="hill" />
		<tag k="place" v="locality" />
		<tag k="ssr:stedsnr" v="678032" />
	</node>
	<node id="-304627" lat="61.8751999965" lon="10.4970833289">
		<tag k="name" v="Blankgrytdalen" />
		<tag k="natural" v="valley" />
		<tag k="place" v="locality" />
		<tag k="ssr:stedsnr" v="677487" />
	</node>
	<node id="-304626" lat="61.6071999957" lon="11.127258334">
		<tag k="fixme" v="consider natural=peak for the most distinct mountains in the district" />
		<tag k="name" v="Mora" />
		<tag k="natural" v="hill" />
		<tag k="place" v="locality" />
		<tag k="ssr:stedsnr" v="677485" />
	</node>
	<node id="-304624" lat="61.9529444433" lon="10.348286112">
		<tag k="fixme" v="consider natural=peak for the most distinct mountains in the district" />
		<tag k="name" v="Gråvolan" />
		<tag k="natural" v="hill" />
		<tag k="old_name" v="Gråvolvan" />
		<tag k="place" v="locality" />
		<tag k="ssr:stedsnr" v="677424" />
	</node>
	<node id="-304617" lat="61.5408916675" lon="10.9647388878">
		<tag k="fixme" v="consider natural=peak for the most distinct mountains in the district" />
		<tag k="name" v="Tørråsen" />
		<tag k="natural" v="hill" />
		<tag k="place" v="locality" />
		<tag k="ssr:stedsnr" v="677094" />
	</node>
	<node id="-304616" lat="61.5299833337" lon="10.9189527834">
		<tag k="alt_name" v="Malmskardvorda" />
		<tag k="fixme" v="consider natural=peak for the most distinct mountains in the district" />
		<tag k="name" v="Malmskardvola" />
		<tag k="natural" v="hill" />
		<tag k="place" v="locality" />
		<tag k="ssr:stedsnr" v="677089" />
	</node>
	<node id="-304610" lat="61.7128999962" lon="10.822858332">
		<tag k="alt_name" v="Høgstdagsskaret" />
		<tag k="name" v="Høgstdagsskardet" />
		<tag k="natural" v="valley" />
		<tag k="place" v="locality" />
		<tag k="ssr:stedsnr" v="677179" />
	</node>
	<node id="-304608" lat="61.7441555554" lon="10.5463527845">
		<tag k="fixme" v="consider natural=peak for the most distinct mountains in the district" />
		<tag k="name" v="Nørstkletten" />
		<tag k="natural" v="hill" />
		<tag k="place" v="locality" />
		<tag k="ssr:stedsnr" v="677169" />
	</node>
	<node id="-304603" lat="61.4913388848" lon="11.1724416639">
		<tag k="alt_name" v="Nordre Hovden" />
		<tag k="name" v="Nordhovden" />
		<tag k="natural" v="hill" />
		<tag k="place" v="locality" />
		<tag k="ssr:stedsnr" v="676094" />
	</node>
	<node id="-304601" lat="61.4210000017" lon="10.9055833353">
		<tag k="alt_name" v="Heievorda" />
		<tag k="name" v="Heievola" />
		<tag k="natural" v="hill" />
		<tag k="place" v="locality" />
		<tag k="ssr:stedsnr" v="675451" />
	</node>
	<node id="-304593" lat="61.7785583363" lon="10.3152972217">
		<tag k="name" v="Revhaugen" />
		<tag k="natural" v="hill" />
		<tag k="place" v="locality" />
		<tag k="ssr:stedsnr" v="483414" />
	</node>
	<node id="-304134" lat="61.6312722209" lon="10.783830563">
		<tag k="alt_name" v="Bjørnsteinsvorda;Bjønnstensvola" />
		<tag k="fixme" v="consider natural=peak for the most distinct mountains in the district" />
		<tag k="name" v="Bjørnsteinsvola" />
		<tag k="natural" v="hill" />
		<tag k="place" v="locality" />
		<tag k="ssr:stedsnr" v="253025" />
	</node>
	<node id="-304584" lat="61.8430027737" lon="10.3844861167">
		<tag k="name" v="Geitryggen" />
		<tag k="natural" v="hill" />
		<tag k="place" v="locality" />
		<tag k="ssr:stedsnr" v="465915" />
	</node>
	<node id="-304582" lat="61.5687416697" lon="10.7160416635">
		<tag k="name" v="Trønneskampen" />
		<tag k="natural" v="hill" />
		<tag k="place" v="locality" />
		<tag k="ssr:stedsnr" v="465775" />
	</node>
	<node id="-304572" lat="61.8741472253" lon="10.4820833387">
		<tag k="name" v="Brenthaugen" />
		<tag k="natural" v="hill" />
		<tag k="place" v="locality" />
		<tag k="ssr:stedsnr" v="666980" />
	</node>
	<node id="-304569" lat="61.8730500002" lon="10.3720888881">
		<tag k="name" v="Skaret" />
		<tag k="natural" v="valley" />
		<tag k="place" v="locality" />
		<tag k="ssr:stedsnr" v="665994" />
	</node>
	<node id="-304566" lat="61.3477333303" lon="11.2595805608">
		<tag k="name" v="Embretstuskjærene" />
		<tag k="place" v="locality" />
		<tag k="ssr:stedsnr" v="665742" />
	</node>
	<node id="-304544" lat="61.8684972234" lon="10.1682388878">
		<tag k="name" v="Fugllekhaugen" />
		<tag k="natural" v="hill" />
		<tag k="place" v="locality" />
		<tag k="ssr:stedsnr" v="659611" />
	</node>
	<node id="-304540" lat="61.6826249984" lon="10.4306750075">
		<tag k="name" v="Brettingsdalen" />
		<tag k="natural" v="valley" />
		<tag k="place" v="locality" />
		<tag k="ssr:stedsnr" v="435204" />
	</node>
	<node id="-304533" lat="61.544141666" lon="10.892363884">
		<tag k="alt_name" v="Tittilsjøfjellet" />
		<tag k="fixme" v="consider natural=peak for the most distinct mountains in the district" />
		<tag k="name" v="Tittelsjøfjellet" />
		<tag k="natural" v="hill" />
		<tag k="place" v="locality" />
		<tag k="ssr:stedsnr" v="435122" />
	</node>
	<node id="-304526" lat="61.9227777804" lon="10.1255250063">
		<tag k="alt_name" v="Tverrdalen, nedre" />
		<tag k="name" v="Nedre Tverrdalen" />
		<tag k="natural" v="valley" />
		<tag k="place" v="locality" />
		<tag k="ssr:stedsnr" v="434609" />
	</node>
	<node id="-304523" lat="61.265638888" lon="11.2500833312">
		<tag k="alt_name" v="Uråsen" />
		<tag k="fixme" v="consider natural=peak for the most distinct mountains in the district" />
		<tag k="name" v="Urdåsen" />
		<tag k="natural" v="hill" />
		<tag k="place" v="locality" />
		<tag k="ssr:stedsnr" v="433226" />
	</node>
	<node id="-304521" lat="61.4801222265" lon="11.1650499988">
		<tag k="alt_name" v="Søndre Hovden" />
		<tag k="name" v="Sørhovden" />
		<tag k="natural" v="hill" />
		<tag k="place" v="locality" />
		<tag k="ssr:stedsnr" v="433117" />
	</node>
	<node id="-304677" lat="61.7492499983" lon="10.46821944">
		<tag k="fixme" v="consider natural=peak for the most distinct mountains in the district" />
		<tag k="name" v="Kvanskarkletten" />
		<tag k="natural" v="hill" />
		<tag k="ssr:stedsnr" v="299538" />
	</node>
	<node id="-304511" lat="61.2655861084" lon="11.2110416719">
		<tag k="name" v="Strandberget" />
		<tag k="natural" v="slope" />
		<tag k="place" v="locality" />
		<tag k="ssr:stedsnr" v="421533" />
	</node>
	<node id="-304508" lat="61.8125305514" lon="10.3564083287">
		<tag k="name" v="Blesterlia" />
		<tag k="natural" v="slope" />
		<tag k="place" v="locality" />
		<tag k="ssr:stedsnr" v="421528" />
	</node>
	<node id="-304500" lat="61.4373027734" lon="10.8093722286">
		<tag k="name" v="Vakkerbakken" />
		<tag k="natural" v="slope" />
		<tag k="place" v="locality" />
		<tag k="ssr:stedsnr" v="404620" />
	</node>
	<node id="-304497" lat="61.222455552" lon="11.2962111201">
		<tag k="fixme" v="consider natural=peak for the most distinct mountains in the district" />
		<tag k="name" v="Hallberget" />
		<tag k="natural" v="hill" />
		<tag k="place" v="locality" />
		<tag k="ssr:stedsnr" v="506161" />
	</node>
	<node id="-304496" lat="61.5278749997" lon="11.0039583388">
		<tag k="name" v="Snippdalen" />
		<tag k="natural" v="valley" />
		<tag k="place" v="locality" />
		<tag k="ssr:stedsnr" v="505377" />
	</node>
	<node id="-304491" lat="61.6650000022" lon="10.7743027856">
		<tag k="alt_name" v="Gravskaret" />
		<tag k="name" v="Gravskardet" />
		<tag k="natural" v="valley" />
		<tag k="place" v="locality" />
		<tag k="ssr:stedsnr" v="384275" />
	</node>
	<node id="-304490" lat="61.6693305561" lon="10.926961113">
		<tag k="fixme" v="consider natural=peak for the most distinct mountains in the district" />
		<tag k="name" v="Viholmskletten" />
		<tag k="natural" v="hill" />
		<tag k="place" v="locality" />
		<tag k="ssr:stedsnr" v="384273" />
	</node>
	<node id="-304484" lat="61.7665999998" lon="10.4851888968">
		<tag k="fixme" v="consider natural=peak for the most distinct mountains in the district" />
		<tag k="name" v="Svartåsen" />
		<tag k="natural" v="hill" />
		<tag k="place" v="locality" />
		<tag k="ssr:stedsnr" v="375256" />
	</node>
	<node id="-304480" lat="61.6933250026" lon="10.8698805472">
		<tag k="name" v="Karlstadpiggen" />
		<tag k="natural" v="hill" />
		<tag k="place" v="locality" />
		<tag k="ssr:stedsnr" v="374218" />
	</node>
	<node id="-304479" lat="61.7113361146" lon="10.7475083301">
		<tag k="fixme" v="consider natural=peak for the most distinct mountains in the district" />
		<tag k="name" v="Bjørsjøåsen" />
		<tag k="natural" v="hill" />
		<tag k="place" v="locality" />
		<tag k="ssr:stedsnr" v="374213" />
	</node>
	<node id="-304478" lat="61.5093888882" lon="10.7419888912">
		<tag k="alt_name" v="Løvskarven" />
		<tag k="fixme" v="consider natural=peak for the most distinct mountains in the district" />
		<tag k="name" v="Lauvskarven" />
		<tag k="natural" v="hill" />
		<tag k="place" v="locality" />
		<tag k="ssr:stedsnr" v="374077" />
	</node>
	<node id="-304476" lat="61.6761250032" lon="10.8050805596">
		<tag k="fixme" v="consider natural=peak for the most distinct mountains in the district" />
		<tag k="name" v="Bjøråkjølen" />
		<tag k="natural" v="hill" />
		<tag k="place" v="locality" />
		<tag k="ssr:stedsnr" v="374070" />
	</node>
	<node id="-304471" lat="61.5617222247" lon="10.725461107">
		<tag k="fixme" v="consider natural=peak for the most distinct mountains in the district" />
		<tag k="name" v="Stripfjellet" />
		<tag k="natural" v="hill" />
		<tag k="place" v="locality" />
		<tag k="ssr:stedsnr" v="374108" />
	</node>
	<node id="-304469" lat="61.8954916691" lon="10.2393194443">
		<tag k="fixme" v="consider natural=peak for the most distinct mountains in the district" />
		<tag k="name" v="Skarven" />
		<tag k="natural" v="hill" />
		<tag k="place" v="locality" />
		<tag k="ssr:stedsnr" v="373577" />
	</node>
	<node id="-304467" lat="61.5860361091" lon="11.1206638952">
		<tag k="alt_name" v="Reset, nedre" />
		<tag k="fixme" v="consider natural=peak for the most distinct mountains in the district" />
		<tag k="name" v="Nedre Reset" />
		<tag k="natural" v="hill" />
		<tag k="place" v="locality" />
		<tag k="ssr:stedsnr" v="373455" />
	</node>
	<node id="-304461" lat="61.3299583314" lon="10.8904750047">
		<tag k="alt_name" v="Helgetjernvorda" />
		<tag k="fixme" v="consider natural=peak for the most distinct mountains in the district" />
		<tag k="name" v="Helgetjernvola" />
		<tag k="natural" v="hill" />
		<tag k="place" v="locality" />
		<tag k="ssr:stedsnr" v="372419" />
	</node>
	<node id="-304458" lat="61.352041664" lon="11.189183333">
		<tag k="alt_name" v="Ørrettjernåsen" />
		<tag k="fixme" v="consider natural=peak for the most distinct mountains in the district" />
		<tag k="name" v="Ørtjørnåsen" />
		<tag k="natural" v="hill" />
		<tag k="place" v="locality" />
		<tag k="ssr:stedsnr" v="372064" />
	</node>
	<node id="-304453" lat="61.7674055553" lon="10.7755750009">
		<tag k="alt_name" v="Atnglopen" />
		<tag k="fixme" v="consider natural=peak for the most distinct mountains in the district" />
		<tag k="name" v="Atnglupen" />
		<tag k="natural" v="hill" />
		<tag k="place" v="locality" />
		<tag k="ssr:stedsnr" v="496212" />
	</node>
	<node id="-304452" lat="61.7945250043" lon="10.7188111041">
		<tag k="fixme" v="consider natural=peak for the most distinct mountains in the district" />
		<tag k="name" v="Brennåsen" />
		<tag k="natural" v="hill" />
		<tag k="place" v="locality" />
		<tag k="ssr:stedsnr" v="496205" />
	</node>
	<node id="-304451" lat="61.7617777774" lon="10.4267305638">
		<tag k="fixme" v="consider natural=peak for the most distinct mountains in the district" />
		<tag k="name" v="Storkletten" />
		<tag k="natural" v="hill" />
		<tag k="place" v="locality" />
		<tag k="ssr:stedsnr" v="496130" />
	</node>
	<node id="-304450" lat="61.7134777807" lon="10.2903416742">
		<tag k="fixme" v="consider natural=peak for the most distinct mountains in the district" />
		<tag k="name" v="Grøtørhøgda" />
		<tag k="natural" v="hill" />
		<tag k="old_name" v="Grøtøthøgda" />
		<tag k="place" v="locality" />
		<tag k="ssr:stedsnr" v="495956" />
	</node>
	<node id="-304448" lat="61.8571749999" lon="10.1582750094">
		<tag k="alt_name" v="Vola, nordre" />
		<tag k="fixme" v="consider natural=peak for the most distinct mountains in the district" />
		<tag k="name" v="Nordre Vola" />
		<tag k="natural" v="hill" />
		<tag k="place" v="locality" />
		<tag k="ssr:stedsnr" v="495584" />
	</node>
	<node id="-304445" lat="61.9023500033" lon="10.279949994">
		<tag k="name" v="Grytroa" />
		<tag k="natural" v="valley" />
		<tag k="place" v="locality" />
		<tag k="ssr:stedsnr" v="495573" />
	</node>
	<node id="-304444" lat="61.9255444458" lon="10.483013896">
		<tag k="alt_name" v="Geitvorda" />
		<tag k="fixme" v="consider natural=peak for the most distinct mountains in the district" />
		<tag k="name" v="Geitvola" />
		<tag k="natural" v="hill" />
		<tag k="place" v="locality" />
		<tag k="ssr:stedsnr" v="495440" />
	</node>
	<node id="-304441" lat="61.8382361143" lon="10.295075004">
		<tag k="alt_name" v="Vesledalen" />
		<tag k="name" v="Vesldalen" />
		<tag k="natural" v="valley" />
		<tag k="place" v="locality" />
		<tag k="ssr:stedsnr" v="495394" />
	</node>
	<node id="-304439" lat="61.5584388925" lon="10.6713583383">
		<tag k="fixme" v="consider natural=peak for the most distinct mountains in the district" />
		<tag k="name" v="Imsoskampen" />
		<tag k="natural" v="hill" />
		<tag k="place" v="locality" />
		<tag k="ssr:stedsnr" v="495244" />
	</node>
	<node id="-304437" lat="61.7217833307" lon="10.7689750026">
		<tag k="name" v="Risbrennlia" />
		<tag k="natural" v="slope" />
		<tag k="place" v="locality" />
		<tag k="ssr:stedsnr" v="495225" />
	</node>
	<node id="-304436" lat="61.7221638862" lon="10.7026250058">
		<tag k="fixme" v="consider natural=peak for the most distinct mountains in the district" />
		<tag k="name" v="Lemyråsen" />
		<tag k="natural" v="hill" />
		<tag k="place" v="locality" />
		<tag k="ssr:stedsnr" v="495202" />
	</node>
	<node id="-304435" lat="61.696927778" lon="10.4210861042">
		<tag k="name" v="Breidskardet" />
		<tag k="natural" v="valley" />
		<tag k="place" v="locality" />
		<tag k="ssr:stedsnr" v="495179" />
	</node>
	<node id="-304416" lat="61.3092249965" lon="11.0765555496">
		<tag k="fixme" v="consider natural=peak for the most distinct mountains in the district" />
		<tag k="name" v="Horta" />
		<tag k="natural" v="hill" />
		<tag k="place" v="locality" />
		<tag k="ssr:stedsnr" v="494374" />
	</node>
	<node id="-304414" lat="61.3538861078" lon="11.2100555621">
		<tag k="name" v="Krokkletten" />
		<tag k="natural" v="hill" />
		<tag k="place" v="locality" />
		<tag k="ssr:stedsnr" v="494067" />
	</node>
	<node id="-304398" lat="61.3255805555" lon="11.0562027743">
		<tag k="name" v="Hortabekkdalen" />
		<tag k="natural" v="valley" />
		<tag k="place" v="locality" />
		<tag k="ssr:stedsnr" v="362953" />
	</node>
	<node id="-304389" lat="61.8653722253" lon="10.2119777802">
		<tag k="name" v="Eksingedalen" />
		<tag k="natural" v="valley" />
		<tag k="place" v="locality" />
		<tag k="ssr:stedsnr" v="360216" />
	</node>
	<node id="-304387" lat="61.5711666668" lon="10.9533305473">
		<tag k="name" v="Elgbakken" />
		<tag k="natural" v="slope" />
		<tag k="place" v="locality" />
		<tag k="ssr:stedsnr" v="360107" />
	</node>
	<node id="-304374" lat="61.8595833373" lon="10.3940888958">
		<tag k="name" v="Eltdalen" />
		<tag k="natural" v="valley" />
		<tag k="place" v="locality" />
		<tag k="ssr:stedsnr" v="483993" />
	</node>
	<node id="-304371" lat="61.8829833294" lon="10.1740222211">
		<tag k="name" v="Sæterberga" />
		<tag k="natural" v="slope" />
		<tag k="place" v="locality" />
		<tag k="ssr:stedsnr" v="483295" />
	</node>
	<node id="-304352" lat="61.6271666646" lon="10.7828888806">
		<tag k="alt_name" v="Dalbuskaret" />
		<tag k="name" v="Dalbuskardet" />
		<tag k="natural" v="valley" />
		<tag k="place" v="locality" />
		<tag k="ssr:stedsnr" v="314025" />
	</node>
	<node id="-304351" lat="61.9073749965" lon="10.4184694416">
		<tag k="fixme" v="consider natural=peak for the most distinct mountains in the district" />
		<tag k="name" v="Åsfjellet" />
		<tag k="natural" v="hill" />
		<tag k="place" v="locality" />
		<tag k="ssr:stedsnr" v="313473" />
	</node>
	<node id="-306398" lat="61.4933000037" lon="10.6982638805">
		<tag k="name" v="Gålglupen" />
		<tag k="natural" v="valley" />
		<tag k="place" v="locality" />
		<tag k="ssr:stedsnr" v="433833" />
	</node>
	<node id="-306397" lat="61.9292061317" lon="10.3152862889">
		<tag k="fixme" v="multiple name tags, choose one and add the other to alt_name; consider natural=peak for the most distinct mountains in the district" />
		<tag k="name" v="Bogen;Musvola" />
		<tag k="natural" v="hill" />
		<tag k="place" v="locality" />
		<tag k="ssr:stedsnr" v="738612" />
	</node>
	<node id="-304347" lat="61.831486112" lon="10.2767305567">
		<tag k="fixme" v="consider natural=peak for the most distinct mountains in the district" />
		<tag k="name" v="Knappen" />
		<tag k="natural" v="hill" />
		<tag k="place" v="locality" />
		<tag k="ssr:stedsnr" v="313376" />
	</node>
	<node id="-304341" lat="61.6607555557" lon="10.8507250007">
		<tag k="alt_name" v="Tjørnraet, øvre;Øvre Tjønnraet" />
		<tag k="name" v="Øvre Tjørnraet" />
		<tag k="natural" v="slope" />
		<tag k="place" v="locality" />
		<tag k="ssr:stedsnr" v="313052" />
	</node>
	<node id="-304311" lat="61.7701749964" lon="10.5478916758">
		<tag k="alt_name" v="Atnvorda" />
		<tag k="fixme" v="consider natural=peak for the most distinct mountains in the district" />
		<tag k="name" v="Atnvola" />
		<tag k="natural" v="hill" />
		<tag k="place" v="locality" />
		<tag k="ssr:stedsnr" v="254272" />
	</node>
	<node id="-304310" lat="61.2942750042" lon="10.9321194369">
		<tag k="fixme" v="consider natural=peak for the most distinct mountains in the district" />
		<tag k="name" v="Storbekkfjellet" />
		<tag k="natural" v="hill" />
		<tag k="place" v="locality" />
		<tag k="ssr:stedsnr" v="251407" />
	</node>
	<node id="-306356" lat="61.7618944479" lon="10.3673499936">
		<tag k="name" v="Leråflata" />
		<tag k="place" v="locality" />
		<tag k="ssr:stedsnr" v="969683" />
	</node>
	<node id="-304299" lat="61.8401388881" lon="10.2629749917">
		<tag k="name" v="Knapplia" />
		<tag k="natural" v="slope" />
		<tag k="place" v="locality" />
		<tag k="ssr:stedsnr" v="241354" />
	</node>
	<node id="-306345" lat="61.8813916642" lon="10.1888416742">
		<tag k="name" v="Bredrøsta" />
		<tag k="natural" v="slope" />
		<tag k="place" v="locality" />
		<tag k="ssr:stedsnr" v="968284" />
	</node>
	<node id="-304296" lat="61.8672694431" lon="10.2059416682">
		<tag k="name" v="Stornilsrøsta" />
		<tag k="natural" v="slope" />
		<tag k="place" v="locality" />
		<tag k="ssr:stedsnr" v="239255" />
	</node>
	<node id="-304295" lat="61.5705000041" lon="10.9312027817">
		<tag k="name" v="Hestskodalen" />
		<tag k="natural" v="valley" />
		<tag k="place" v="locality" />
		<tag k="ssr:stedsnr" v="445276" />
	</node>
	<node id="-304291" lat="61.4771388926" lon="11.0065416704">
		<tag k="name" v="Djupdalen" />
		<tag k="natural" v="valley" />
		<tag k="place" v="locality" />
		<tag k="ssr:stedsnr" v="222740" />
	</node>
	<node id="-304283" lat="61.7819805551" lon="10.6155277805">
		<tag k="fixme" v="consider natural=peak for the most distinct mountains in the district" />
		<tag k="name" v="Syrkletten" />
		<tag k="natural" v="hill" />
		<tag k="place" v="locality" />
		<tag k="ssr:stedsnr" v="193308" />
	</node>
	<node id="-306318" lat="61.4108111086" lon="10.9495611039">
		<tag k="name" v="Nordlendingsdalen" />
		<tag k="natural" v="valley" />
		<tag k="place" v="locality" />
		<tag k="ssr:stedsnr" v="950573" />
	</node>
	<node id="-304269" lat="61.590766669" lon="10.8800499952">
		<tag k="name" v="Blakersmoen" />
		<tag k="place" v="locality" />
		<tag k="ssr:stedsnr" v="192004" />
	</node>
	<node id="-304268" lat="61.5874999991" lon="10.9240833284">
		<tag k="alt_name" v="Sameieåsen" />
		<tag k="fixme" v="consider natural=peak for the most distinct mountains in the district" />
		<tag k="name" v="Sameigeåsen" />
		<tag k="natural" v="hill" />
		<tag k="place" v="locality" />
		<tag k="ssr:stedsnr" v="192003" />
	</node>
	<node id="-306313" lat="61.5893638932" lon="10.9715083267">
		<tag k="alt_name" v="Hellskjæra" />
		<tag k="name" v="Hellskjera" />
		<tag k="place" v="locality" />
		<tag k="ssr:stedsnr" v="869289" />
	</node>
	<node id="-306312" lat="61.5719888924" lon="10.9400250093">
		<tag k="name" v="Skifurubakken" />
		<tag k="natural" v="slope" />
		<tag k="place" v="locality" />
		<tag k="ssr:stedsnr" v="869287" />
	</node>
	<node id="-306310" lat="61.6409166692" lon="10.9397861135">
		<tag k="fixme" v="consider natural=peak for the most distinct mountains in the district" />
		<tag k="name" v="Lauvkletten" />
		<tag k="natural" v="hill" />
		<tag k="place" v="locality" />
		<tag k="ssr:stedsnr" v="869282" />
	</node>
	<node id="-306309" lat="61.8257416705" lon="10.3718638947">
		<tag k="fixme" v="consider natural=peak for the most distinct mountains in the district" />
		<tag k="name" v="Kletten" />
		<tag k="natural" v="hill" />
		<tag k="place" v="locality" />
		<tag k="ssr:stedsnr" v="860331" />
	</node>
	<node id="-304259" lat="61.3320416697" lon="10.9732138858">
		<tag k="fixme" v="consider natural=peak for the most distinct mountains in the district" />
		<tag k="name" v="Svartåsen" />
		<tag k="natural" v="hill" />
		<tag k="place" v="locality" />
		<tag k="ssr:stedsnr" v="180961" />
	</node>
	<node id="-306306" lat="61.8036305565" lon="10.6007833388">
		<tag k="name" v="Atndalen" />
		<tag k="natural" v="valley" />
		<tag k="place" v="locality" />
		<tag k="ssr:stedsnr" v="860304" />
	</node>
	<node id="-306304" lat="61.7924361143" lon="10.6955138825">
		<tag k="name" v="Fosslia" />
		<tag k="natural" v="slope" />
		<tag k="place" v="locality" />
		<tag k="ssr:stedsnr" v="860300" />
	</node>
	<node id="-304255" lat="61.762949996" lon="10.3873722213">
		<tag k="name" v="Midtlia" />
		<tag k="natural" v="slope" />
		<tag k="place" v="locality" />
		<tag k="ssr:stedsnr" v="180669" />
	</node>
	<node id="-306297" lat="61.6483666672" lon="10.9576027789">
		<tag k="fixme" v="consider natural=peak for the most distinct mountains in the district" />
		<tag k="name" v="Månsæterkletten" />
		<tag k="natural" v="hill" />
		<tag k="place" v="locality" />
		<tag k="ssr:stedsnr" v="860049" />
	</node>
	<node id="-306292" lat="61.52114167" lon="10.8584361025">
		<tag k="alt_name" v="Bjønnberget" />
		<tag k="name" v="Bjørnberget" />
		<tag k="natural" v="hill" />
		<tag k="place" v="locality" />
		<tag k="ssr:stedsnr" v="860083" />
	</node>
	<node id="-306290" lat="61.6832611084" lon="10.9317611134">
		<tag k="alt_name" v="Midtskaret" />
		<tag k="name" v="Midtskardet" />
		<tag k="natural" v="valley" />
		<tag k="place" v="locality" />
		<tag k="ssr:stedsnr" v="860064" />
	</node>
	<node id="-306287" lat="61.7532277801" lon="10.1620722235">
		<tag k="fixme" v="consider natural=peak for the most distinct mountains in the district" />
		<tag k="name" v="Bølaughøgda" />
		<tag k="natural" v="hill" />
		<tag k="place" v="locality" />
		<tag k="ssr:stedsnr" v="859384" />
	</node>
	<node id="-306283" lat="61.7325583317" lon="10.8677333323">
		<tag k="alt_name" v="Kvitskjæret" />
		<tag k="fixme" v="consider natural=peak for the most distinct mountains in the district" />
		<tag k="name" v="Kvitskjeret" />
		<tag k="natural" v="hill" />
		<tag k="place" v="locality" />
		<tag k="ssr:stedsnr" v="859185" />
	</node>
	<node id="-306281" lat="61.3617833339" lon="11.0160555486">
		<tag k="fixme" v="consider natural=peak for the most distinct mountains in the district" />
		<tag k="name" v="Sæteråsen" />
		<tag k="natural" v="hill" />
		<tag k="place" v="locality" />
		<tag k="ssr:stedsnr" v="858431" />
	</node>
	<node id="-306277" lat="61.4592500017" lon="11.116883335">
		<tag k="fixme" v="consider natural=peak for the most distinct mountains in the district" />
		<tag k="name" v="Svartåsen" />
		<tag k="natural" v="hill" />
		<tag k="place" v="locality" />
		<tag k="ssr:stedsnr" v="858110" />
	</node>
	<node id="-306276" lat="61.4528611131" lon="10.8290777868">
		<tag k="alt_name" v="Stenåsen" />
		<tag k="fixme" v="consider natural=peak for the most distinct mountains in the district" />
		<tag k="name" v="Steinåsen" />
		<tag k="natural" v="hill" />
		<tag k="place" v="locality" />
		<tag k="ssr:stedsnr" v="857450" />
	</node>
	<node id="-306270" lat="61.3237888856" lon="10.9811583328">
		<tag k="name" v="Løvlia" />
		<tag k="natural" v="slope" />
		<tag k="place" v="locality" />
		<tag k="ssr:stedsnr" v="848950" />
	</node>
	<node id="-304221" lat="61.3493499968" lon="10.9745305635">
		<tag k="name" v="Rognsjøbekkdalen" />
		<tag k="natural" v="valley" />
		<tag k="place" v="locality" />
		<tag k="ssr:stedsnr" v="163959" />
	</node>
	<node id="-304220" lat="61.3755555587" lon="10.974366666">
		<tag k="name" v="Tøråsskaret" />
		<tag k="natural" v="valley" />
		<tag k="place" v="locality" />
		<tag k="ssr:stedsnr" v="163954" />
	</node>
	<node id="-306266" lat="61.7836583335" lon="10.3356027787">
		<tag k="name" v="Korsmessdalen" />
		<tag k="natural" v="valley" />
		<tag k="place" v="locality" />
		<tag k="ssr:stedsnr" v="848395" />
	</node>
	<node id="-306265" lat="61.3792305575" lon="11.0996472276">
		<tag k="fixme" v="consider natural=peak for the most distinct mountains in the district" />
		<tag k="name" v="Søkkundkletten" />
		<tag k="natural" v="hill" />
		<tag k="place" v="locality" />
		<tag k="ssr:stedsnr" v="848282" />
	</node>
	<node id="-306257" lat="61.7573027816" lon="10.4421555591">
		<tag k="fixme" v="consider natural=peak for the most distinct mountains in the district" />
		<tag k="name" v="Veslekletten" />
		<tag k="natural" v="hill" />
		<tag k="ssr:stedsnr" v="846510" />
	</node>
	<node id="-304206" lat="61.6354500044" lon="10.9637888809">
		<tag k="fixme" v="consider natural=peak for the most distinct mountains in the district" />
		<tag k="name" v="Måna" />
		<tag k="natural" v="hill" />
		<tag k="place" v="locality" />
		<tag k="ssr:stedsnr" v="131046" />
	</node>
	<node id="-306253" lat="61.7647611115" lon="10.9572611204">
		<tag k="name" v="Grenserøsta" />
		<tag k="natural" v="hill" />
		<tag k="place" v="locality" />
		<tag k="ssr:stedsnr" v="846420" />
	</node>
	<node id="-304204" lat="61.6030750008" lon="11.0909999975">
		<tag k="fixme" v="consider natural=peak for the most distinct mountains in the district" />
		<tag k="name" v="Fuglåsen" />
		<tag k="natural" v="hill" />
		<tag k="place" v="locality" />
		<tag k="ssr:stedsnr" v="131013" />
	</node>
	<node id="-306251" lat="61.5941999977" lon="11.0988666585">
		<tag k="name" v="Nordre Blæsterdalen" />
		<tag k="natural" v="valley" />
		<tag k="place" v="locality" />
		<tag k="ssr:stedsnr" v="845941" />
	</node>
	<node id="-304196" lat="61.378958333" lon="10.9291833355">
		<tag k="fixme" v="consider natural=peak for the most distinct mountains in the district" />
		<tag k="name" v="Eldåbørtskarven" />
		<tag k="natural" v="hill" />
		<tag k="place" v="locality" />
		<tag k="ssr:stedsnr" v="129416" />
	</node>
	<node id="-306243" lat="61.3757694424" lon="11.0141694355">
		<tag k="name" v="Skotfrihaugen" />
		<tag k="natural" v="hill" />
		<tag k="place" v="locality" />
		<tag k="ssr:stedsnr" v="831939" />
	</node>
	<node id="-304193" lat="61.3613111068" lon="10.892672231">
		<tag k="alt_name" v="Gråvorda, s;Søndre Gråvola" />
		<tag k="fixme" v="consider natural=peak for the most distinct mountains in the district" />
		<tag k="name" v="Søre Gråvola" />
		<tag k="natural" v="hill" />
		<tag k="place" v="locality" />
		<tag k="ssr:stedsnr" v="129408" />
	</node>
	<node id="-306240" lat="61.4373805515" lon="11.1869861199">
		<tag k="name" v="Østerrikdalen" />
		<tag k="natural" v="valley" />
		<tag k="place" v="locality" />
		<tag k="ssr:stedsnr" v="830366" />
	</node>
	<node id="-304187" lat="61.2473750013" lon="11.1833388806">
		<tag k="alt_name" v="Hovdsjøfjellet, vle" />
		<tag k="name" v="Vesle Hovdsjøfjellet" />
		<tag k="natural" v="hill" />
		<tag k="place" v="locality" />
		<tag k="ssr:stedsnr" v="128355" />
	</node>
	<node id="-304185" lat="61.5446888862" lon="11.0007000023">
		<tag k="alt_name" v="Skarmyråsen" />
		<tag k="fixme" v="consider natural=peak for the most distinct mountains in the district" />
		<tag k="name" v="Skardmyråsen" />
		<tag k="natural" v="hill" />
		<tag k="place" v="locality" />
		<tag k="ssr:stedsnr" v="263389" />
	</node>
	<node id="-306231" lat="61.4677277784" lon="11.0292111107">
		<tag k="fixme" v="consider natural=peak for the most distinct mountains in the district" />
		<tag k="name" v="Urstuhaugen" />
		<tag k="natural" v="hill" />
		<tag k="place" v="locality" />
		<tag k="ssr:stedsnr" v="829779" />
	</node>
	<node id="-306230" lat="61.4984944403" lon="10.9706472129">
		<tag k="fixme" v="consider natural=peak for the most distinct mountains in the district" />
		<tag k="name" v="Raufjellet" />
		<tag k="natural" v="hill" />
		<tag k="place" v="locality" />
		<tag k="ssr:stedsnr" v="829753" />
	</node>
	<node id="-304177" lat="61.6687888905" lon="10.7819638964">
		<tag k="alt_name" v="Kjelskaret" />
		<tag k="name" v="Kjelskardet" />
		<tag k="natural" v="valley" />
		<tag k="place" v="locality" />
		<tag k="ssr:stedsnr" v="262251" />
	</node>
	<node id="-304175" lat="61.8663277765" lon="10.321980562">
		<tag k="name" v="Høyegga" />
		<tag k="natural" v="hill" />
		<tag k="place" v="locality" />
		<tag k="ssr:stedsnr" v="118608" />
	</node>
	<node id="-304172" lat="61.7820111115" lon="10.4541888858">
		<tag k="name" v="Svartåslia" />
		<tag k="natural" v="slope" />
		<tag k="place" v="locality" />
		<tag k="ssr:stedsnr" v="117533" />
	</node>
	<node id="-304171" lat="61.7714805597" lon="10.4089500066">
		<tag k="fixme" v="consider natural=peak for the most distinct mountains in the district" />
		<tag k="name" v="Kollen" />
		<tag k="natural" v="hill" />
		<tag k="place" v="locality" />
		<tag k="ssr:stedsnr" v="117528" />
	</node>
	<node id="-306216" lat="61.5966583323" lon="10.9127777853">
		<tag k="name" v="Djupdalslia" />
		<tag k="natural" v="slope" />
		<tag k="place" v="locality" />
		<tag k="ssr:stedsnr" v="828116" />
	</node>
	<node id="-304167" lat="61.5445277807" lon="10.9868611119">
		<tag k="alt_name" v="Skjerbekkdalen" />
		<tag k="name" v="Skjærbekkdalen" />
		<tag k="natural" v="valley" />
		<tag k="place" v="locality" />
		<tag k="ssr:stedsnr" v="103220" />
	</node>
	<node id="-306212" lat="61.7743111096" lon="10.6539666575">
		<tag k="alt_name" v="Svartskjæret" />
		<tag k="fixme" v="consider natural=peak for the most distinct mountains in the district" />
		<tag k="name" v="Svartskjeret" />
		<tag k="natural" v="hill" />
		<tag k="place" v="locality" />
		<tag k="ssr:stedsnr" v="800300" />
	</node>
	<node id="-306210" lat="61.762077781" lon="10.6102250049">
		<tag k="fixme" v="consider natural=peak for the most distinct mountains in the district" />
		<tag k="name" v="Nysæteråsen" />
		<tag k="natural" v="hill" />
		<tag k="place" v="locality" />
		<tag k="ssr:stedsnr" v="800294" />
	</node>
	<node id="-306208" lat="61.7625916681" lon="10.6470333426">
		<tag k="alt_name" v="Ledsagaren" />
		<tag k="fixme" v="consider natural=peak for the most distinct mountains in the district" />
		<tag k="name" v="Ledsageren" />
		<tag k="natural" v="hill" />
		<tag k="place" v="locality" />
		<tag k="ssr:stedsnr" v="800284" />
	</node>
	<node id="-304158" lat="61.6131333364" lon="10.8716444356">
		<tag k="name" v="Garbekklia" />
		<tag k="natural" v="slope" />
		<tag k="place" v="locality" />
		<tag k="ssr:stedsnr" v="100109" />
	</node>
	<node id="-304157" lat="61.7484083372" lon="10.1292277703">
		<tag k="alt_name" v="Ramshøgda, store" />
		<tag k="fixme" v="consider natural=peak for the most distinct mountains in the district" />
		<tag k="name" v="Store Ramshøgda" />
		<tag k="natural" v="hill" />
		<tag k="place" v="locality" />
		<tag k="ssr:stedsnr" v="253946" />
	</node>
	<node id="-306204" lat="61.7617111144" lon="10.9792583258">
		<tag k="fixme" v="consider natural=peak for the most distinct mountains in the district" />
		<tag k="name" v="Svartåsen" />
		<tag k="natural" v="hill" />
		<tag k="place" v="locality" />
		<tag k="ssr:stedsnr" v="800218" />
	</node>
	<node id="-304151" lat="61.8048972207" lon="10.3692861189">
		<tag k="alt_name" v="Mosabuvola;Mosabuvorda" />
		<tag k="name" v="Måsåbuvola" />
		<tag k="natural" v="hill" />
		<tag k="place" v="locality" />
		<tag k="ssr:stedsnr" v="253300" />
	</node>
	<node id="-306198" lat="61.9607527771" lon="10.4485416697">
		<tag k="fixme" v="consider natural=peak for the most distinct mountains in the district" />
		<tag k="name" v="Storgrønhøgda" />
		<tag k="natural" v="hill" />
		<tag k="place" v="locality" />
		<tag k="ssr:stedsnr" v="799468" />
	</node>
	<node id="-306196" lat="61.9385305559" lon="10.4382277817">
		<tag k="fixme" v="consider natural=peak for the most distinct mountains in the district" />
		<tag k="name" v="Veslgrønhøgda" />
		<tag k="natural" v="hill" />
		<tag k="place" v="locality" />
		<tag k="ssr:stedsnr" v="799453" />
	</node>
	<node id="-306194" lat="61.7867277768" lon="10.1912111064">
		<tag k="name" v="Endkletten" />
		<tag k="natural" v="hill" />
		<tag k="place" v="locality" />
		<tag k="ssr:stedsnr" v="799431" />
	</node>
	<node id="-304145" lat="61.7073111132" lon="10.4147166646">
		<tag k="fixme" v="consider natural=peak for the most distinct mountains in the district" />
		<tag k="name" v="Storvola" />
		<tag k="natural" v="hill" />
		<tag k="place" v="locality" />
		<tag k="ssr:stedsnr" v="253221" />
	</node>
	<node id="-306191" lat="61.6040666647" lon="10.6603444359">
		<tag k="fixme" v="consider natural=peak for the most distinct mountains in the district" />
		<tag k="name" v="Piggvola" />
		<tag k="natural" v="hill" />
		<tag k="place" v="locality" />
		<tag k="ssr:stedsnr" v="799139" />
	</node>
	<node id="-306184" lat="61.5050143001" lon="10.7315096648">
		<tag k="alt_name" v="Gardskarven" />
		<tag k="fixme" v="consider natural=peak for the most distinct mountains in the district" />
		<tag k="name" v="Gålaskarven" />
		<tag k="natural" v="hill" />
		<tag k="place" v="locality" />
		<tag k="ssr:stedsnr" v="799058" />
	</node>
	<node id="-306183" lat="61.719341667" lon="11.0142055559">
		<tag k="fixme" v="consider natural=peak for the most distinct mountains in the district" />
		<tag k="name" v="Rokkåsen" />
		<tag k="natural" v="hill" />
		<tag k="place" v="locality" />
		<tag k="ssr:stedsnr" v="799202" />
	</node>
	<node id="-306182" lat="61.7129750016" lon="10.7284361127">
		<tag k="fixme" v="consider natural=peak for the most distinct mountains in the district" />
		<tag k="name" v="Bjørsjøkletten" />
		<tag k="natural" v="hill" />
		<tag k="place" v="locality" />
		<tag k="ssr:stedsnr" v="799199" />
	</node>
	<node id="-304132" lat="61.9327555559" lon="10.4071277766">
		<tag k="name" v="Finnhaugane" />
		<tag k="natural" v="hill" />
		<tag k="place" v="locality" />
		<tag k="ssr:stedsnr" v="252406" />
	</node>
	<node id="-306179" lat="61.7465472228" lon="10.4769861033">
		<tag k="fixme" v="consider natural=peak for the most distinct mountains in the district" />
		<tag k="name" v="Snuskletten" />
		<tag k="natural" v="hill" />
		<tag k="place" v="locality" />
		<tag k="ssr:stedsnr" v="799179" />
	</node>
	<node id="-304130" lat="61.8490722243" lon="10.1812499922">
		<tag k="fixme" v="consider natural=peak for the most distinct mountains in the district" />
		<tag k="name" v="Midtvola" />
		<tag k="natural" v="hill" />
		<tag k="place" v="locality" />
		<tag k="ssr:stedsnr" v="252368" />
	</node>
	<node id="-304129" lat="61.8168027769" lon="10.171308333">
		<tag k="name" v="Bjørndalen" />
		<tag k="natural" v="valley" />
		<tag k="place" v="locality" />
		<tag k="ssr:stedsnr" v="252354" />
	</node>
	<node id="-306176" lat="61.4715638847" lon="10.6931138917">
		<tag k="name" v="Storlortfløyin" />
		<tag k="place" v="locality" />
		<tag k="ssr:stedsnr" v="797346" />
	</node>
	<node id="-306172" lat="61.3156138906" lon="10.92642777">
		<tag k="fixme" v="consider natural=peak for the most distinct mountains in the district" />
		<tag k="name" v="Myklesjøfjellet" />
		<tag k="natural" v="hill" />
		<tag k="place" v="locality" />
		<tag k="ssr:stedsnr" v="797386" />
	</node>
	<node id="-306171" lat="61.27379167" lon="11.022180555">
		<tag k="alt_name" v="Staupvorda" />
		<tag k="fixme" v="consider natural=peak for the most distinct mountains in the district" />
		<tag k="name" v="Staupvola" />
		<tag k="natural" v="hill" />
		<tag k="place" v="locality" />
		<tag k="ssr:stedsnr" v="797373" />
	</node>
	<node id="-304121" lat="61.4646583362" lon="10.7075277772">
		<tag k="fixme" v="consider natural=peak for the most distinct mountains in the district" />
		<tag k="name" v="Storbekkfjellet" />
		<tag k="natural" v="hill" />
		<tag k="place" v="locality" />
		<tag k="ssr:stedsnr" v="251389" />
	</node>
	<node id="-304120" lat="61.2924583346" lon="11.2053972208">
		<tag k="alt_name" v="Løvåsen" />
		<tag k="fixme" v="consider natural=peak for the most distinct mountains in the district" />
		<tag k="name" v="Lauvåsen" />
		<tag k="natural" v="hill" />
		<tag k="place" v="locality" />
		<tag k="ssr:stedsnr" v="251241" />
	</node>
	<node id="-306162" lat="61.4334527793" lon="11.14180556">
		<tag k="name" v="Slettbekkskaret" />
		<tag k="natural" v="valley" />
		<tag k="place" v="locality" />
		<tag k="ssr:stedsnr" v="787856" />
	</node>
	<node id="-306161" lat="61.4616083334" lon="10.9621194513">
		<tag k="fixme" v="consider natural=peak for the most distinct mountains in the district" />
		<tag k="name" v="Enerhaugen" />
		<tag k="natural" v="hill" />
		<tag k="place" v="locality" />
		<tag k="ssr:stedsnr" v="787795" />
	</node>
	<node id="-306156" lat="61.5369194476" lon="11.1304527738">
		<tag k="fixme" v="consider natural=peak for the most distinct mountains in the district" />
		<tag k="name" v="Skånsjøåsen" />
		<tag k="natural" v="hill" />
		<tag k="place" v="locality" />
		<tag k="ssr:stedsnr" v="787664" />
	</node>
	<node id="-304103" lat="61.5160194453" lon="11.1677916681">
		<tag k="name" v="Vestgardspiggen" />
		<tag k="natural" v="hill" />
		<tag k="place" v="locality" />
		<tag k="ssr:stedsnr" v="240841" />
	</node>
	<node id="-304100" lat="61.810516669" lon="10.2903305592">
		<tag k="name" v="Skadden" />
		<tag k="natural" v="hill" />
		<tag k="place" v="locality" />
		<tag k="ssr:stedsnr" v="240390" />
	</node>
	<node id="-304095" lat="61.8111638845" lon="10.3693972294">
		<tag k="name" v="Måsåbulia" />
		<tag k="natural" v="slope" />
		<tag k="place" v="locality" />
		<tag k="ssr:stedsnr" v="239530" />
	</node>
	<node id="-306127" lat="61.901519448" lon="10.1048166636">
		<tag k="name" v="Hørsberget" />
		<tag k="natural" v="hill" />
		<tag k="place" v="locality" />
		<tag k="ssr:stedsnr" v="780504" />
	</node>
	<node id="-304074" lat="61.7991888901" lon="10.4607194355">
		<tag k="name" v="Vollbuskarven" />
		<tag k="natural" v="hill" />
		<tag k="place" v="locality" />
		<tag k="ssr:stedsnr" v="40914" />
	</node>
	<node id="-306121" lat="61.3332222233" lon="11.1445361203">
		<tag k="name" v="Grindmyråsen" />
		<tag k="natural" v="hill" />
		<tag k="place" v="locality" />
		<tag k="ssr:stedsnr" v="769074" />
	</node>
	<node id="-304063" lat="61.3709027788" lon="10.9717111154">
		<tag k="alt_name" v="Søndre Tøråsen" />
		<tag k="fixme" v="consider natural=peak for the most distinct mountains in the district" />
		<tag k="name" v="Søre Tøråsen" />
		<tag k="natural" v="hill" />
		<tag k="place" v="locality" />
		<tag k="ssr:stedsnr" v="224940" />
	</node>
	<node id="-304054" lat="61.3223472177" lon="11.1832833402">
		<tag k="name" v="Løvenglia" />
		<tag k="natural" v="slope" />
		<tag k="place" v="locality" />
		<tag k="ssr:stedsnr" v="223090" />
	</node>
	<node id="-306098" lat="61.9187999971" lon="10.2014138834">
		<tag k="fixme" v="consider natural=peak for the most distinct mountains in the district" />
		<tag k="name" v="Sæterhøa" />
		<tag k="natural" v="hill" />
		<tag k="place" v="locality" />
		<tag k="ssr:stedsnr" v="738616" />
	</node>
	<node id="-304049" lat="61.9396916673" lon="10.4567111123">
		<tag k="name" v="Bekkjebotn" />
		<tag k="natural" v="valley" />
		<tag k="place" v="locality" />
		<tag k="ssr:stedsnr" v="10441" />
	</node>
	<node id="-306096" lat="61.8922499995" lon="10.4822194391">
		<tag k="fixme" v="consider natural=peak for the most distinct mountains in the district" />
		<tag k="name" v="Geitryggen" />
		<tag k="natural" v="hill" />
		<tag k="place" v="locality" />
		<tag k="ssr:stedsnr" v="738478" />
	</node>
	<node id="-304047" lat="61.9477055575" lon="10.4044249956">
		<tag k="alt_name" v="Skrabben, synste" />
		<tag k="name" v="Synste Skrabben" />
		<tag k="natural" v="hill" />
		<tag k="place" v="locality" />
		<tag k="ssr:stedsnr" v="10428" />
	</node>
	<node id="-306090" lat="61.8417333305" lon="10.2060555619">
		<tag k="alt_name" v="Vola, s;Søndre Vola" />
		<tag k="fixme" v="consider natural=peak for the most distinct mountains in the district" />
		<tag k="name" v="Søre Vola" />
		<tag k="natural" v="hill" />
		<tag k="place" v="locality" />
		<tag k="ssr:stedsnr" v="738405" />
	</node>
	<node id="-304041" lat="61.8250583307" lon="10.6005361034">
		<tag k="name" v="Tangslådalen" />
		<tag k="natural" v="valley" />
		<tag k="place" v="locality" />
		<tag k="ssr:stedsnr" v="222211" />
	</node>
	<node id="-306087" lat="61.5371777739" lon="11.1520055589">
		<tag k="fixme" v="consider natural=peak for the most distinct mountains in the district" />
		<tag k="name" v="Storåsen" />
		<tag k="natural" v="hill" />
		<tag k="place" v="locality" />
		<tag k="ssr:stedsnr" v="738312" />
	</node>
	<node id="-306085" lat="61.7284888918" lon="10.751508324">
		<tag k="alt_name" v="Skjærbekkåsen" />
		<tag k="fixme" v="consider natural=peak for the most distinct mountains in the district" />
		<tag k="name" v="Skjerbekkåsen" />
		<tag k="natural" v="hill" />
		<tag k="place" v="locality" />
		<tag k="ssr:stedsnr" v="738214" />
	</node>
	<node id="-304035" lat="61.4022499983" lon="10.9950249991">
		<tag k="alt_name" v="Fautilåsen" />
		<tag k="fixme" v="consider natural=peak for the most distinct mountains in the district" />
		<tag k="name" v="Fagertilåsen" />
		<tag k="natural" v="hill" />
		<tag k="place" v="locality" />
		<tag k="ssr:stedsnr" v="8448" />
	</node>
	<node id="-306082" lat="61.705202776" lon="10.9448249972">
		<tag k="alt_name" v="Søndre Tørråsen" />
		<tag k="fixme" v="consider natural=peak for the most distinct mountains in the district" />
		<tag k="name" v="Tørråsen" />
		<tag k="natural" v="hill" />
		<tag k="place" v="locality" />
		<tag k="ssr:stedsnr" v="738196" />
	</node>
	<node id="-306081" lat="61.7205500035" lon="10.371536105">
		<tag k="name" v="Grandalen" />
		<tag k="natural" v="valley" />
		<tag k="place" v="locality" />
		<tag k="ssr:stedsnr" v="738190" />
	</node>
	<node id="-306080" lat="61.737316665" lon="10.3946250028">
		<tag k="fixme" v="consider natural=peak for the most distinct mountains in the district" />
		<tag k="name" v="Måsååsen" />
		<tag k="natural" v="hill" />
		<tag k="place" v="locality" />
		<tag k="ssr:stedsnr" v="738176" />
	</node>
	<node id="-304029" lat="61.5406138933" lon="10.6852472173">
		<tag k="name" v="Endberget" />
		<tag k="natural" v="hill" />
		<tag k="place" v="locality" />
		<tag k="ssr:stedsnr" v="221737" />
	</node>
	<node id="-304028" lat="61.2561722208" lon="11.2162611021">
		<tag k="name" v="Fløtberget" />
		<tag k="natural" v="slope" />
		<tag k="place" v="locality" />
		<tag k="ssr:stedsnr" v="221485" />
	</node>
	<node id="-304026" lat="61.5852888852" lon="10.9196361123">
		<tag k="name" v="Sæteråsskaret" />
		<tag k="natural" v="valley" />
		<tag k="place" v="locality" />
		<tag k="ssr:stedsnr" v="221108" />
	</node>
	<node id="-306073" lat="61.5660833351" lon="10.7878611051">
		<tag k="alt_name" v="Skramsvorda" />
		<tag k="fixme" v="consider natural=peak for the most distinct mountains in the district" />
		<tag k="name" v="Skramsvola" />
		<tag k="natural" v="hill" />
		<tag k="place" v="locality" />
		<tag k="ssr:stedsnr" v="738120" />
	</node>
	<node id="-306070" lat="61.5434861126" lon="10.8019277751">
		<tag k="fixme" v="consider natural=peak for the most distinct mountains in the district" />
		<tag k="name" v="Gråfjellet" />
		<tag k="natural" v="hill" />
		<tag k="place" v="locality" />
		<tag k="ssr:stedsnr" v="738101" />
	</node>
	<node id="-306064" lat="61.5882749991" lon="10.9552499965">
		<tag k="alt_name" v="Ulbergkletten" />
		<tag k="fixme" v="consider natural=peak for the most distinct mountains in the district" />
		<tag k="name" v="Ulvbergkletten" />
		<tag k="natural" v="hill" />
		<tag k="place" v="locality" />
		<tag k="ssr:stedsnr" v="738003" />
	</node>
	<node id="-306059" lat="61.3355555552" lon="11.3179027807">
		<tag k="alt_name" v="Skjæråsen" />
		<tag k="fixme" v="consider natural=peak for the most distinct mountains in the district" />
		<tag k="name" v="Skjeråsen" />
		<tag k="natural" v="hill" />
		<tag k="place" v="locality" />
		<tag k="ssr:stedsnr" v="737009" />
	</node>
	<node id="-306058" lat="61.4076499998" lon="10.8598361185">
		<tag k="fixme" v="consider natural=peak for the most distinct mountains in the district" />
		<tag k="name" v="Gravskarven" />
		<tag k="natural" v="hill" />
		<tag k="place" v="locality" />
		<tag k="ssr:stedsnr" v="736419" />
	</node>
	<node id="-306056" lat="61.285100001" lon="11.0855805564">
		<tag k="fixme" v="consider natural=peak for the most distinct mountains in the district" />
		<tag k="name" v="Ruskåsen" />
		<tag k="natural" v="hill" />
		<tag k="place" v="locality" />
		<tag k="ssr:stedsnr" v="736386" />
	</node>
	<node id="-306044" lat="61.4396916673" lon="10.9367444404">
		<tag k="name" v="Skurven" />
		<tag k="natural" v="gorge" />
		<tag k="ssr:stedsnr" v="646620" />
	</node>
	<node id="-306041" lat="61.2228305566" lon="11.1735055474">
		<tag k="name" v="Kjellermyrhaugen" />
		<tag k="natural" v="hill" />
		<tag k="place" v="locality" />
		<tag k="ssr:stedsnr" v="646763" />
	</node>
	<node id="-306036" lat="61.5057388869" lon="10.969949993">
		<tag k="alt_name" v="Havtjønnfjellet" />
		<tag k="fixme" v="consider natural=peak for the most distinct mountains in the district" />
		<tag k="name" v="Havtjørnfjellet" />
		<tag k="natural" v="hill" />
		<tag k="place" v="locality" />
		<tag k="ssr:stedsnr" v="626410" />
	</node>
	<node id="-306030" lat="61.7510361068" lon="10.3561527801">
		<tag k="fixme" v="consider natural=peak for the most distinct mountains in the district" />
		<tag k="name" v="Lauvåsen" />
		<tag k="natural" v="hill" />
		<tag k="place" v="locality" />
		<tag k="ssr:stedsnr" v="617319" />
	</node>
	<node id="-306029" lat="61.7570361124" lon="10.6041027858">
		<tag k="alt_name" v="Nysæterskaret" />
		<tag k="name" v="Nysæterskardet" />
		<tag k="natural" v="valley" />
		<tag k="place" v="locality" />
		<tag k="ssr:stedsnr" v="617318" />
	</node>
	<node id="-306023" lat="61.5464388877" lon="10.7834944519">
		<tag k="alt_name" v="Vestgardsskarven" />
		<tag k="fixme" v="consider natural=peak for the most distinct mountains in the district" />
		<tag k="name" v="Skarven" />
		<tag k="natural" v="hill" />
		<tag k="place" v="locality" />
		<tag k="ssr:stedsnr" v="617129" />
	</node>
	<node id="-306020" lat="61.5345111103" lon="10.859949997">
		<tag k="alt_name" v="Skjærberget" />
		<tag k="name" v="Skjerberget" />
		<tag k="natural" v="hill" />
		<tag k="place" v="locality" />
		<tag k="ssr:stedsnr" v="617113" />
	</node>
	<node id="-306015" lat="61.5154499994" lon="11.0091555538">
		<tag k="fixme" v="consider natural=peak for the most distinct mountains in the district" />
		<tag k="name" v="Snippen" />
		<tag k="natural" v="hill" />
		<tag k="place" v="locality" />
		<tag k="ssr:stedsnr" v="617091" />
	</node>
	<node id="-306009" lat="61.3321055568" lon="11.3456666597">
		<tag k="fixme" v="consider natural=peak for the most distinct mountains in the district" />
		<tag k="name" v="Fugleåsen" />
		<tag k="natural" v="hill" />
		<tag k="place" v="locality" />
		<tag k="ssr:stedsnr" v="616774" />
	</node>
	<node id="-306008" lat="61.8958888895" lon="10.4239333357">
		<tag k="fixme" v="consider natural=peak for the most distinct mountains in the district" />
		<tag k="name" v="Lauvåsen" />
		<tag k="natural" v="hill" />
		<tag k="place" v="locality" />
		<tag k="ssr:stedsnr" v="616481" />
	</node>
	<node id="-306006" lat="61.8930583332" lon="10.3714555612">
		<tag k="name" v="Storgrytdalen" />
		<tag k="natural" v="valley" />
		<tag k="place" v="locality" />
		<tag k="ssr:stedsnr" v="616472" />
	</node>
	<node id="-306005" lat="61.9063861082" lon="10.4597527736">
		<tag k="name" v="Lauvrøsta" />
		<tag k="natural" v="valley" />
		<tag k="place" v="locality" />
		<tag k="ssr:stedsnr" v="616470" />
	</node>
	<node id="-306004" lat="61.8570777735" lon="10.4383805648">
		<tag k="alt_name" v="Tjønnlia" />
		<tag k="name" v="Tjørnlia" />
		<tag k="natural" v="slope" />
		<tag k="place" v="locality" />
		<tag k="ssr:stedsnr" v="616456" />
	</node>
	<node id="-306003" lat="61.7666027766" lon="10.2899027802">
		<tag k="fixme" v="consider natural=peak for the most distinct mountains in the district" />
		<tag k="name" v="Storåsen" />
		<tag k="natural" v="hill" />
		<tag k="place" v="locality" />
		<tag k="ssr:stedsnr" v="616397" />
	</node>
	<node id="-305999" lat="61.830524997" lon="10.3085916585">
		<tag k="fixme" v="consider natural=peak for the most distinct mountains in the district" />
		<tag k="name" v="Finnsjøknappen" />
		<tag k="natural" v="hill" />
		<tag k="place" v="locality" />
		<tag k="ssr:stedsnr" v="616369" />
	</node>
	<node id="-305998" lat="61.8286500024" lon="10.1324555536">
		<tag k="fixme" v="consider natural=peak for the most distinct mountains in the district" />
		<tag k="name" v="Valdreshøgda" />
		<tag k="natural" v="hill" />
		<tag k="place" v="locality" />
		<tag k="ssr:stedsnr" v="616363" />
	</node>
	<node id="-305997" lat="61.5751611102" lon="10.8704333401">
		<tag k="name" v="Ledsageren" />
		<tag k="natural" v="hill" />
		<tag k="place" v="locality" />
		<tag k="ssr:stedsnr" v="616111" />
	</node>
	<node id="-305996" lat="61.5698833367" lon="10.734816668">
		<tag k="alt_name" v="Vesterådalen" />
		<tag k="name" v="Vestrebekkdalen" />
		<tag k="natural" v="valley" />
		<tag k="place" v="locality" />
		<tag k="ssr:stedsnr" v="616109" />
	</node>
	<node id="-305992" lat="61.3633166662" lon="10.8327749907">
		<tag k="alt_name" v="Akselvorda" />
		<tag k="fixme" v="consider natural=peak for the most distinct mountains in the district" />
		<tag k="name" v="Akselvola" />
		<tag k="natural" v="hill" />
		<tag k="place" v="locality" />
		<tag k="ssr:stedsnr" v="615401" />
	</node>
	<node id="-305986" lat="61.4704444481" lon="10.7629277719">
		<tag k="fixme" v="consider natural=peak for the most distinct mountains in the district" />
		<tag k="name" v="Vardfjellet" />
		<tag k="natural" v="hill" />
		<tag k="place" v="locality" />
		<tag k="ssr:stedsnr" v="614467" />
	</node>
	<node id="-305984" lat="61.5099450385" lon="10.9099037786">
		<tag k="alt_name" v="Hovalen" />
		<tag k="fixme" v="consider natural=peak for the most distinct mountains in the district" />
		<tag k="name" v="Hovarden" />
		<tag k="natural" v="hill" />
		<tag k="place" v="locality" />
		<tag k="ssr:stedsnr" v="614465" />
	</node>
	<node id="-305979" lat="61.3678777751" lon="11.2122055642">
		<tag k="name" v="Kirkehaugen" />
		<tag k="natural" v="hill" />
		<tag k="place" v="locality" />
		<tag k="ssr:stedsnr" v="605799" />
	</node>
	<node id="-305978" lat="61.3728972223" lon="10.9275722191">
		<tag k="fixme" v="consider natural=peak for the most distinct mountains in the district" />
		<tag k="name" v="Haukskjæra" />
		<tag k="natural" v="hill" />
		<tag k="place" v="locality" />
		<tag k="ssr:stedsnr" v="605658" />
	</node>
	<node id="-305971" lat="61.6615833368" lon="10.9316555464">
		<tag k="name" v="Vibekkskaret" />
		<tag k="natural" v="valley" />
		<tag k="place" v="locality" />
		<tag k="ssr:stedsnr" v="604121" />
	</node>
	<node id="-305963" lat="61.5685472215" lon="10.9360361188">
		<tag k="name" v="Skiførådalen" />
		<tag k="natural" v="valley" />
		<tag k="place" v="locality" />
		<tag k="ssr:stedsnr" v="603107" />
	</node>
	<node id="-305937" lat="61.4323166684" lon="10.9242166684">
		<tag k="fixme" v="consider natural=peak for the most distinct mountains in the district" />
		<tag k="name" v="Bjønnkletten" />
		<tag k="natural" v="hill" />
		<tag k="place" v="locality" />
		<tag k="ssr:stedsnr" v="586632" />
	</node>
	<node id="-305933" lat="61.7504527778" lon="10.7043416697">
		<tag k="fixme" v="consider natural=peak for the most distinct mountains in the district" />
		<tag k="name" v="Hølskaråsen" />
		<tag k="natural" v="hill" />
		<tag k="place" v="locality" />
		<tag k="ssr:stedsnr" v="585765" />
	</node>
	<node id="-305927" lat="61.3310527758" lon="11.1790638952">
		<tag k="alt_name" v="Tøråsen" />
		<tag k="fixme" v="consider natural=peak for the most distinct mountains in the district" />
		<tag k="name" v="Tørråsen" />
		<tag k="natural" v="hill" />
		<tag k="place" v="locality" />
		<tag k="ssr:stedsnr" v="556777" />
	</node>
	<node id="-305926" lat="61.4098805578" lon="11.2337638901">
		<tag k="alt_name" v="Tøråsen" />
		<tag k="fixme" v="consider natural=peak for the most distinct mountains in the district" />
		<tag k="name" v="Tørråsen" />
		<tag k="natural" v="hill" />
		<tag k="place" v="locality" />
		<tag k="ssr:stedsnr" v="556771" />
	</node>
	<node id="-305916" lat="61.8197111113" lon="10.493944439">
		<tag k="fixme" v="consider natural=peak for the most distinct mountains in the district" />
		<tag k="name" v="Skarvknappen" />
		<tag k="natural" v="hill" />
		<tag k="place" v="locality" />
		<tag k="ssr:stedsnr" v="556330" />
	</node>
	<node id="-305914" lat="61.663958334" lon="10.7401500032">
		<tag k="name" v="Kvannskardet" />
		<tag k="natural" v="valley" />
		<tag k="place" v="locality" />
		<tag k="ssr:stedsnr" v="556049" />
	</node>
	<node id="-305900" lat="61.4104500038" lon="10.828886103">
		<tag k="alt_name" v="Gråvorda, nordre" />
		<tag k="fixme" v="consider natural=peak for the most distinct mountains in the district" />
		<tag k="name" v="Nordre Gråvola" />
		<tag k="natural" v="hill" />
		<tag k="place" v="locality" />
		<tag k="ssr:stedsnr" v="554448" />
	</node>
	<node id="-305898" lat="61.2873611115" lon="11.339338892">
		<tag k="fixme" v="consider natural=peak for the most distinct mountains in the district" />
		<tag k="name" v="Strandkletten" />
		<tag k="natural" v="hill" />
		<tag k="place" v="locality" />
		<tag k="ssr:stedsnr" v="554244" />
	</node>
	<node id="-305895" lat="61.4034750017" lon="11.066755563">
		<tag k="fixme" v="consider natural=peak for the most distinct mountains in the district" />
		<tag k="name" v="Middagskletten" />
		<tag k="natural" v="hill" />
		<tag k="place" v="locality" />
		<tag k="ssr:stedsnr" v="554445" />
	</node>
	<node id="-305893" lat="61.3892527819" lon="11.0958638811">
		<tag k="alt_name" v="Saubukletten" />
		<tag k="name" v="Storkletten" />
		<tag k="natural" v="hill" />
		<tag k="place" v="locality" />
		<tag k="ssr:stedsnr" v="554441" />
	</node>
	<node id="-305880" lat="61.318377776" lon="11.2151250074">
		<tag k="alt_name" v="Løvengreset" />
		<tag k="name" v="Lauvengreset" />
		<tag k="natural" v="hill" />
		<tag k="place" v="locality" />
		<tag k="ssr:stedsnr" v="554013" />
	</node>
	<node id="-305878" lat="61.4545527793" lon="10.9169888975">
		<tag k="alt_name" v="Halvsæteråsen" />
		<tag k="fixme" v="consider natural=peak for the most distinct mountains in the district" />
		<tag k="name" v="Halvsæterkletten" />
		<tag k="natural" v="hill" />
		<tag k="place" v="locality" />
		<tag k="ssr:stedsnr" v="553432" />
	</node>
	<node id="-305877" lat="61.4359583288" lon="10.9991527826">
		<tag k="alt_name" v="Rognvorda, østre" />
		<tag k="fixme" v="consider natural=peak for the most distinct mountains in the district" />
		<tag k="name" v="Østre Rognvola" />
		<tag k="natural" v="hill" />
		<tag k="place" v="locality" />
		<tag k="ssr:stedsnr" v="553429" />
	</node>
	<node id="-305874" lat="61.2259805554" lon="11.2221166629">
		<tag k="name" v="Mørkeskampen" />
		<tag k="natural" v="hill" />
		<tag k="place" v="locality" />
		<tag k="ssr:stedsnr" v="552422" />
	</node>
	<node id="-305872" lat="61.4578416652" lon="10.960461116">
		<tag k="name" v="Storgropa" />
		<tag k="natural" v="valley" />
		<tag k="place" v="locality" />
		<tag k="ssr:stedsnr" v="544817" />
	</node>
	<node id="-305868" lat="61.6977777774" lon="11.0128583247">
		<tag k="name" v="Langmoen" />
		<tag k="place" v="locality" />
		<tag k="ssr:stedsnr" v="544747" />
	</node>
	<node id="-305866" lat="61.7573666707" lon="10.39076666">
		<tag k="name" v="Skradden" />
		<tag k="natural" v="hill" />
		<tag k="place" v="locality" />
		<tag k="ssr:stedsnr" v="544685" />
	</node>
	<node id="-305864" lat="61.3785777785" lon="10.8874888963">
		<tag k="name" v="Rundhaugen" />
		<tag k="natural" v="hill" />
		<tag k="place" v="locality" />
		<tag k="ssr:stedsnr" v="544659" />
	</node>
	<node id="-305862" lat="61.5184694452" lon="11.0999444414">
		<tag k="fixme" v="consider natural=peak for the most distinct mountains in the district" />
		<tag k="name" v="Madsskarkletten" />
		<tag k="natural" v="hill" />
		<tag k="place" v="locality" />
		<tag k="ssr:stedsnr" v="544492" />
	</node>
	<node id="-305861" lat="61.8606722258" lon="10.3954055604">
		<tag k="name" v="Eltdalshaugen" />
		<tag k="natural" v="hill" />
		<tag k="place" v="locality" />
		<tag k="ssr:stedsnr" v="544990" />
	</node>
	<node id="-305860" lat="61.3291638922" lon="11.0127638846">
		<tag k="name" v="Skarvlia" />
		<tag k="natural" v="slope" />
		<tag k="place" v="locality" />
		<tag k="ssr:stedsnr" v="544967" />
	</node>
	<node id="-305854" lat="61.8355055564" lon="10.2359944443">
		<tag k="name" v="Hamndalen" />
		<tag k="natural" v="valley" />
		<tag k="place" v="locality" />
		<tag k="ssr:stedsnr" v="544356" />
	</node>
	<node id="-304244" lat="61.862405553" lon="10.1988611166">
		<tag k="name" v="Oksdalen" />
		<tag k="natural" v="valley" />
		<tag k="place" v="locality" />
		<tag k="ssr:stedsnr" v="178252" />
	</node>
	<node id="-305846" lat="61.5303500009" lon="11.125330562">
		<tag k="fixme" v="consider natural=peak for the most distinct mountains in the district" />
		<tag k="name" v="Øvre Nestjønnkletten" />
		<tag k="natural" v="hill" />
		<tag k="place" v="locality" />
		<tag k="ssr:stedsnr" v="544468" />
	</node>
	<node id="-305843" lat="61.4306694444" lon="11.1814527865">
		<tag k="name" v="Netklettskjæret" />
		<tag k="place" v="locality" />
		<tag k="ssr:stedsnr" v="543278" />
	</node>
	<node id="-305835" lat="61.9112361122" lon="10.3175694374">
		<tag k="name" v="Bogen" />
		<tag k="natural" v="valley" />
		<tag k="place" v="locality" />
		<tag k="ssr:stedsnr" v="539888" />
	</node>
	<node id="-304039" lat="61.7285055546" lon="10.7211333408">
		<tag k="name" v="Hellbulia" />
		<tag k="natural" v="slope" />
		<tag k="place" v="locality" />
		<tag k="ssr:stedsnr" v="222166" />
	</node>
	<node id="-305830" lat="61.4243027811" lon="11.0014166757">
		<tag k="alt_name" v="Langkremmørdalen" />
		<tag k="name" v="Landkremmerdalen" />
		<tag k="natural" v="valley" />
		<tag k="place" v="locality" />
		<tag k="ssr:stedsnr" v="526893" />
	</node>
	<node id="-305829" lat="61.3971472263" lon="10.9727444374">
		<tag k="name" v="Tjønnbuhauga" />
		<tag k="natural" v="hill" />
		<tag k="place" v="locality" />
		<tag k="ssr:stedsnr" v="526891" />
	</node>
	<node id="-305817" lat="61.5914888912" lon="10.9388861099">
		<tag k="name" v="Ulvbergskaret" />
		<tag k="natural" v="valley" />
		<tag k="place" v="locality" />
		<tag k="ssr:stedsnr" v="525150" />
	</node>
	<node id="-305814" lat="61.6142222196" lon="10.9520500062">
		<tag k="name" v="Frøsålia" />
		<tag k="natural" v="slope" />
		<tag k="place" v="locality" />
		<tag k="ssr:stedsnr" v="525117" />
	</node>
	<node id="-305809" lat="61.7511638923" lon="10.7001777836">
		<tag k="name" v="Holskardet" />
		<tag k="natural" v="valley" />
		<tag k="place" v="locality" />
		<tag k="ssr:stedsnr" v="436261" />
	</node>
	<node id="-305808" lat="61.7988555563" lon="10.348963896">
		<tag k="name" v="Finnsjøfjellet" />
		<tag k="natural" v="hill" />
		<tag k="place" v="locality" />
		<tag k="ssr:stedsnr" v="436239" />
	</node>
	<node id="-305806" lat="61.7325944429" lon="10.3205666582">
		<tag k="fixme" v="consider natural=peak for the most distinct mountains in the district" />
		<tag k="name" v="Vardehøgda" />
		<tag k="natural" v="hill" />
		<tag k="place" v="locality" />
		<tag k="ssr:stedsnr" v="435967" />
	</node>
	<node id="-305801" lat="61.7862249982" lon="10.2846555471">
		<tag k="fixme" v="consider natural=peak for the most distinct mountains in the district" />
		<tag k="name" v="Pika" />
		<tag k="natural" v="hill" />
		<tag k="place" v="locality" />
		<tag k="ssr:stedsnr" v="435474" />
	</node>
	<node id="-305798" lat="61.5156750034" lon="10.9864777859">
		<tag k="alt_name" v="Løytnantsnippen" />
		<tag k="fixme" v="consider natural=peak for the most distinct mountains in the district" />
		<tag k="name" v="Løytnantsvarden" />
		<tag k="natural" v="hill" />
		<tag k="place" v="locality" />
		<tag k="ssr:stedsnr" v="435098" />
	</node>
	<node id="-305793" lat="61.8026499988" lon="10.4437083367">
		<tag k="fixme" v="consider natural=peak for the most distinct mountains in the district" />
		<tag k="name" v="Sollitangen" />
		<tag k="natural" v="hill" />
		<tag k="place" v="locality" />
		<tag k="ssr:stedsnr" v="435282" />
	</node>
	<node id="-305786" lat="61.6637083315" lon="10.7609861032">
		<tag k="alt_name" v="Kvannskarkletten" />
		<tag k="fixme" v="consider natural=peak for the most distinct mountains in the district" />
		<tag k="name" v="Kvannskardkletten" />
		<tag k="natural" v="hill" />
		<tag k="place" v="locality" />
		<tag k="ssr:stedsnr" v="435067" />
	</node>
	<node id="-305785" lat="61.6709388886" lon="10.9852777796">
		<tag k="name" v="Lehaugen" />
		<tag k="natural" v="hill" />
		<tag k="place" v="locality" />
		<tag k="ssr:stedsnr" v="435063" />
	</node>
	<node id="-305778" lat="61.8844250007" lon="10.3379833333">
		<tag k="alt_name" v="Grytvorda" />
		<tag k="fixme" v="consider natural=peak for the most distinct mountains in the district" />
		<tag k="name" v="Grytvola" />
		<tag k="natural" v="hill" />
		<tag k="place" v="locality" />
		<tag k="ssr:stedsnr" v="434569" />
	</node>
	<node id="-305776" lat="61.9009916662" lon="10.1338361047">
		<tag k="alt_name" v="Megrunnslia" />
		<tag k="name" v="Medgrunnslia" />
		<tag k="natural" v="slope" />
		<tag k="place" v="locality" />
		<tag k="ssr:stedsnr" v="434533" />
	</node>
	<node id="-305774" lat="61.4639499978" lon="10.8084611166">
		<tag k="fixme" v="consider natural=peak for the most distinct mountains in the district" />
		<tag k="name" v="Libråtfjellet" />
		<tag k="natural" v="hill" />
		<tag k="place" v="locality" />
		<tag k="ssr:stedsnr" v="433436" />
	</node>
	<node id="-305760" lat="61.7645777785" lon="10.2666027758">
		<tag k="name" v="Sjølia" />
		<tag k="natural" v="slope" />
		<tag k="place" v="locality" />
		<tag k="ssr:stedsnr" v="423440" />
	</node>
	<node id="-305758" lat="61.5486527803" lon="11.0841916741">
		<tag k="name" v="Anderåsberget" />
		<tag k="natural" v="slope" />
		<tag k="place" v="locality" />
		<tag k="ssr:stedsnr" v="423676" />
	</node>
	<node id="-305746" lat="61.4027166656" lon="11.095716673">
		<tag k="fixme" v="consider natural=peak for the most distinct mountains in the district" />
		<tag k="name" v="Lemkletten" />
		<tag k="natural" v="hill" />
		<tag k="place" v="locality" />
		<tag k="ssr:stedsnr" v="423261" />
	</node>
	<node id="-305742" lat="61.4174583346" lon="11.1841416693">
		<tag k="name" v="Meksikoskaret" />
		<tag k="natural" v="valley" />
		<tag k="place" v="locality" />
		<tag k="ssr:stedsnr" v="422239" />
	</node>
	<node id="-305739" lat="61.8706249965" lon="10.2615666637">
		<tag k="name" v="Vinterveggrubba" />
		<tag k="place" v="locality" />
		<tag k="ssr:stedsnr" v="421641" />
	</node>
	<node id="-305738" lat="61.8574750013" lon="10.2492666617">
		<tag k="fixme" v="consider natural=peak for the most distinct mountains in the district" />
		<tag k="name" v="Stenåsen" />
		<tag k="natural" v="hill" />
		<tag k="place" v="locality" />
		<tag k="ssr:stedsnr" v="421636" />
	</node>
	<node id="-306331" lat="61.3948194462" lon="11.0354194526">
		<tag k="name" v="Milskiftet" />
		<tag k="place" v="locality" />
		<tag k="ssr:stedsnr" v="951894" />
	</node>
	<node id="-304308" lat="61.494230558" lon="10.9936833425">
		<tag k="alt_name" v="Husvorda" />
		<tag k="name" v="Husvola" />
		<tag k="natural" v="hill" />
		<tag k="place" v="locality" />
		<tag k="ssr:stedsnr" v="250448" />
	</node>
	<node id="-305715" lat="61.4545638886" lon="10.8577027751">
		<tag k="fixme" v="consider natural=peak for the most distinct mountains in the district" />
		<tag k="name" v="Fjerdingsåsen" />
		<tag k="natural" v="hill" />
		<tag k="place" v="locality" />
		<tag k="ssr:stedsnr" v="404489" />
	</node>
	<node id="-305708" lat="61.5214500038" lon="10.9292861023">
		<tag k="name" v="Vassdalen" />
		<tag k="natural" v="valley" />
		<tag k="place" v="locality" />
		<tag k="ssr:stedsnr" v="383396" />
	</node>
	<node id="-305704" lat="61.7514222202" lon="10.5443361191">
		<tag k="fixme" v="consider natural=peak for the most distinct mountains in the district" />
		<tag k="name" v="Midtkletten" />
		<tag k="natural" v="hill" />
		<tag k="place" v="locality" />
		<tag k="ssr:stedsnr" v="375241" />
	</node>
	<node id="-305703" lat="61.54534167" lon="10.9916111072">
		<tag k="fixme" v="consider natural=peak for the most distinct mountains in the district" />
		<tag k="name" v="Svartåsen" />
		<tag k="natural" v="hill" />
		<tag k="place" v="locality" />
		<tag k="ssr:stedsnr" v="374828" />
	</node>
	<node id="-305700" lat="61.8293249976" lon="10.5153583388">
		<tag k="alt_name" v="Gravåsene" />
		<tag k="fixme" v="consider natural=peak for the most distinct mountains in the district" />
		<tag k="name" v="Gravåsane" />
		<tag k="natural" v="hill" />
		<tag k="place" v="locality" />
		<tag k="ssr:stedsnr" v="374297" />
	</node>
	<node id="-305696" lat="61.7433972222" lon="10.6025249916">
		<tag k="fixme" v="consider natural=peak for the most distinct mountains in the district" />
		<tag k="name" v="Gråvola" />
		<tag k="natural" v="hill" />
		<tag k="place" v="locality" />
		<tag k="ssr:stedsnr" v="374200" />
	</node>
	<node id="-305691" lat="61.5179250044" lon="10.9683833299">
		<tag k="alt_name" v="Dammfjellet" />
		<tag k="fixme" v="consider natural=peak for the most distinct mountains in the district" />
		<tag k="name" v="Damfjellet" />
		<tag k="natural" v="hill" />
		<tag k="place" v="locality" />
		<tag k="ssr:stedsnr" v="374079" />
	</node>
	<node id="-305689" lat="61.6516166649" lon="10.9913638856">
		<tag k="alt_name" v="Elghudkletten" />
		<tag k="name" v="Elgshøkletten" />
		<tag k="natural" v="hill" />
		<tag k="place" v="locality" />
		<tag k="ssr:stedsnr" v="374048" />
	</node>
	<node id="-305687" lat="61.6406583291" lon="10.9223499975">
		<tag k="alt_name" v="Rødfjellet" />
		<tag k="fixme" v="consider natural=peak for the most distinct mountains in the district" />
		<tag k="name" v="Raudfjellet" />
		<tag k="natural" v="hill" />
		<tag k="place" v="locality" />
		<tag k="ssr:stedsnr" v="374042" />
	</node>
	<node id="-305683" lat="61.9398611073" lon="10.1533250053">
		<tag k="fixme" v="consider natural=peak for the most distinct mountains in the district" />
		<tag k="name" v="Gravskardhøgda" />
		<tag k="natural" v="hill" />
		<tag k="place" v="locality" />
		<tag k="ssr:stedsnr" v="373636" />
	</node>
	<node id="-305680" lat="61.6081833323" lon="11.1327388857">
		<tag k="name" v="Korsen" />
		<tag k="place" v="locality" />
		<tag k="ssr:stedsnr" v="373501" />
	</node>
	<node id="-305665" lat="61.4363722255" lon="10.806383339">
		<tag k="name" v="Eldådalen" />
		<tag k="natural" v="valley" />
		<tag k="place" v="locality" />
		<tag k="ssr:stedsnr" v="371424" />
	</node>
	<node id="-305651" lat="61.841324999" lon="10.2371555465">
		<tag k="name" v="Svellingdalen" />
		<tag k="natural" v="valley" />
		<tag k="place" v="locality" />
		<tag k="ssr:stedsnr" v="362377" />
	</node>
	<node id="-305648" lat="61.7341333316" lon="10.8132722253">
		<tag k="name" v="Smestukollen" />
		<tag k="natural" v="hill" />
		<tag k="place" v="locality" />
		<tag k="ssr:stedsnr" v="362280" />
	</node>
	<node id="-305645" lat="61.8568333357" lon="10.316063885">
		<tag k="name" v="Tjørødal" />
		<tag k="natural" v="valley" />
		<tag k="place" v="locality" />
		<tag k="ssr:stedsnr" v="360628" />
	</node>
	<node id="-305641" lat="61.8748583362" lon="10.1931555488">
		<tag k="name" v="Benveghaugen" />
		<tag k="natural" v="hill" />
		<tag k="place" v="locality" />
		<tag k="ssr:stedsnr" v="360228" />
	</node>
	<node id="-305640" lat="61.872600001" lon="10.1892222317">
		<tag k="name" v="Sjøegga" />
		<tag k="natural" v="slope" />
		<tag k="place" v="locality" />
		<tag k="ssr:stedsnr" v="360226" />
	</node>
	<node id="-305639" lat="61.8437499977" lon="10.205502783">
		<tag k="name" v="Grønndokka" />
		<tag k="place" v="locality" />
		<tag k="ssr:stedsnr" v="360224" />
	</node>
	<node id="-304209" lat="61.9421888868" lon="10.1122694457">
		<tag k="name" v="Nørdre Hyrsdalen" />
		<tag k="natural" v="valley" />
		<tag k="place" v="locality" />
		<tag k="ssr:stedsnr" v="131617" />
	</node>
	<node id="-305634" lat="61.4933055578" lon="10.8728722185">
		<tag k="fixme" v="consider natural=peak for the most distinct mountains in the district" />
		<tag k="name" v="Gravåsen" />
		<tag k="natural" v="hill" />
		<tag k="place" v="locality" />
		<tag k="ssr:stedsnr" v="358530" />
	</node>
	<node id="-305623" lat="61.3285194485" lon="10.9228000038">
		<tag k="name" v="Tippskaret" />
		<tag k="natural" v="valley" />
		<tag k="place" v="locality" />
		<tag k="ssr:stedsnr" v="343686" />
	</node>
	<node id="-305614" lat="61.4054749991" lon="11.0945333333">
		<tag k="name" v="Huskletten" />
		<tag k="natural" v="hill" />
		<tag k="place" v="locality" />
		<tag k="ssr:stedsnr" v="343221" />
	</node>
	<node id="-305605" lat="61.7988444473" lon="10.5104777796">
		<tag k="name" v="Tanglia" />
		<tag k="natural" v="slope" />
		<tag k="place" v="locality" />
		<tag k="ssr:stedsnr" v="314290" />
	</node>
	<node id="-304203" lat="61.5897777771" lon="11.065775001">
		<tag k="alt_name" v="Tjønnmoen" />
		<tag k="name" v="Tjernmoen" />
		<tag k="place" v="locality" />
		<tag k="ssr:stedsnr" v="131007" />
	</node>
	<node id="-305600" lat="61.5013861069" lon="10.9274833353">
		<tag k="alt_name" v="Stenåsen" />
		<tag k="fixme" v="consider natural=peak for the most distinct mountains in the district" />
		<tag k="name" v="Steinåsen" />
		<tag k="natural" v="hill" />
		<tag k="place" v="locality" />
		<tag k="ssr:stedsnr" v="313788" />
	</node>
	<node id="-305594" lat="61.950441667" lon="10.3984666593">
		<tag k="name" v="Skårdalen" />
		<tag k="natural" v="valley" />
		<tag k="place" v="locality" />
		<tag k="ssr:stedsnr" v="313433" />
	</node>
	<node id="-305591" lat="61.8049083291" lon="10.2505638967">
		<tag k="name" v="Hamnbekkfløyet" />
		<tag k="place" v="locality" />
		<tag k="ssr:stedsnr" v="313392" />
	</node>
	<node id="-305588" lat="61.6206555575" lon="10.6867277817">
		<tag k="fixme" v="consider natural=peak for the most distinct mountains in the district" />
		<tag k="name" v="Storvola" />
		<tag k="natural" v="hill" />
		<tag k="place" v="locality" />
		<tag k="ssr:stedsnr" v="313179" />
	</node>
	<node id="-305585" lat="61.577380555" lon="11.0898361102">
		<tag k="alt_name" v="Varpåsen, vestre" />
		<tag k="fixme" v="consider natural=peak for the most distinct mountains in the district" />
		<tag k="name" v="Vestre Varpåsen" />
		<tag k="natural" v="hill" />
		<tag k="place" v="locality" />
		<tag k="ssr:stedsnr" v="313140" />
	</node>
	<node id="-305579" lat="61.3679277816" lon="10.9614361206">
		<tag k="fixme" v="consider natural=peak for the most distinct mountains in the district" />
		<tag k="name" v="Rognsjøkampen" />
		<tag k="natural" v="hill" />
		<tag k="place" v="locality" />
		<tag k="ssr:stedsnr" v="312416" />
	</node>
	<node id="-305578" lat="61.3702500035" lon="11.0208861075">
		<tag k="alt_name" v="Løvhaugen" />
		<tag k="fixme" v="consider natural=peak for the most distinct mountains in the district" />
		<tag k="name" v="Lauvhaugen" />
		<tag k="natural" v="hill" />
		<tag k="place" v="locality" />
		<tag k="ssr:stedsnr" v="312411" />
	</node>
	<node id="-305571" lat="61.3991916665" lon="11.1840750055">
		<tag k="fixme" v="consider natural=peak for the most distinct mountains in the district" />
		<tag k="name" v="Netkletten" />
		<tag k="natural" v="hill" />
		<tag k="place" v="locality" />
		<tag k="ssr:stedsnr" v="312081" />
	</node>
	<node id="-305569" lat="61.3817944449" lon="11.3193416642">
		<tag k="alt_name" v="Tøråsen" />
		<tag k="fixme" v="consider natural=peak for the most distinct mountains in the district" />
		<tag k="name" v="Tørråsen" />
		<tag k="natural" v="hill" />
		<tag k="place" v="locality" />
		<tag k="ssr:stedsnr" v="312043" />
	</node>
	<node id="-305565" lat="61.4182388868" lon="10.868561116">
		<tag k="alt_name" v="Mørgransåsen" />
		<tag k="fixme" v="consider natural=peak for the most distinct mountains in the district" />
		<tag k="name" v="Mårgransåsen" />
		<tag k="natural" v="hill" />
		<tag k="place" v="locality" />
		<tag k="ssr:stedsnr" v="311475" />
	</node>
	<node id="-305559" lat="61.2841944487" lon="11.1761138863">
		<tag k="fixme" v="consider natural=peak for the most distinct mountains in the district" />
		<tag k="name" v="Hovdsjøfjellet" />
		<tag k="natural" v="hill" />
		<tag k="place" v="locality" />
		<tag k="ssr:stedsnr" v="311284" />
	</node>
	<node id="-305554" lat="61.4218833336" lon="11.1781250073">
		<tag k="fixme" v="consider natural=peak for the most distinct mountains in the district" />
		<tag k="name" v="Gråkletten" />
		<tag k="natural" v="hill" />
		<tag k="place" v="locality" />
		<tag k="ssr:stedsnr" v="311083" />
	</node>
	<node id="-305546" lat="61.4004388855" lon="11.1779194349">
		<tag k="name" v="Veslekletten" />
		<tag k="natural" v="hill" />
		<tag k="place" v="locality" />
		<tag k="ssr:stedsnr" v="302286" />
	</node>
	<node id="-305534" lat="61.5663083369" lon="10.9589249933">
		<tag k="alt_name" v="Reset" />
		<tag k="fixme" v="consider natural=peak for the most distinct mountains in the district" />
		<tag k="name" v="Riset" />
		<tag k="natural" v="hill" />
		<tag k="place" v="locality" />
		<tag k="ssr:stedsnr" v="202270" />
	</node>
	<node id="-305527" lat="61.7699944437" lon="10.6290388874">
		<tag k="name" v="Tørrhaugen" />
		<tag k="natural" v="hill" />
		<tag k="place" v="locality" />
		<tag k="ssr:stedsnr" v="193272" />
	</node>
	<node id="-305526" lat="61.8249666622" lon="10.4345055642">
		<tag k="name" v="Styggberget" />
		<tag k="natural" v="hill" />
		<tag k="place" v="locality" />
		<tag k="ssr:stedsnr" v="193262" />
	</node>
	<node id="-305522" lat="61.922505557" lon="10.1578666597">
		<tag k="fixme" v="consider natural=peak for the most distinct mountains in the district" />
		<tag k="name" v="Blåkampen" />
		<tag k="natural" v="hill" />
		<tag k="place" v="locality" />
		<tag k="ssr:stedsnr" v="192645" />
	</node>
	<node id="-305521" lat="61.8655277811" lon="10.3867416754">
		<tag k="fixme" v="consider natural=peak for the most distinct mountains in the district" />
		<tag k="name" v="Grythatten" />
		<tag k="natural" v="hill" />
		<tag k="place" v="locality" />
		<tag k="ssr:stedsnr" v="192497" />
	</node>
	<node id="-305519" lat="61.9133231996" lon="10.3077848588">
		<tag k="name" v="Skardet" />
		<tag k="natural" v="valley" />
		<tag k="place" v="locality" />
		<tag k="ssr:stedsnr" v="192599" />
	</node>
	<node id="-305518" lat="61.9182527736" lon="10.1747166735">
		<tag k="name" v="Gravskardet" />
		<tag k="natural" v="valley" />
		<tag k="place" v="locality" />
		<tag k="ssr:stedsnr" v="192596" />
	</node>
	<node id="-305515" lat="61.5841888925" lon="11.1002805565">
		<tag k="alt_name" v="Varpåsen, østre" />
		<tag k="fixme" v="consider natural=peak for the most distinct mountains in the district" />
		<tag k="name" v="Østre Varpåsen" />
		<tag k="natural" v="hill" />
		<tag k="place" v="locality" />
		<tag k="ssr:stedsnr" v="192472" />
	</node>
	<node id="-305514" lat="61.7716499983" lon="10.1119749921">
		<tag k="fixme" v="consider natural=peak for the most distinct mountains in the district" />
		<tag k="name" v="Saukampen" />
		<tag k="natural" v="hill" />
		<tag k="place" v="locality" />
		<tag k="ssr:stedsnr" v="192454" />
	</node>
	<node id="-305512" lat="61.7666750038" lon="10.1148666729">
		<tag k="name" v="Svabudalen" />
		<tag k="natural" v="valley" />
		<tag k="place" v="locality" />
		<tag k="ssr:stedsnr" v="192436" />
	</node>
	<node id="-305506" lat="61.7051749957" lon="10.7142666584">
		<tag k="fixme" v="consider natural=peak for the most distinct mountains in the district" />
		<tag k="name" v="Granåsen" />
		<tag k="natural" v="hill" />
		<tag k="place" v="locality" />
		<tag k="ssr:stedsnr" v="192183" />
	</node>
	<node id="-305503" lat="61.6729916665" lon="10.7991361147">
		<tag k="fixme" v="consider natural=peak for the most distinct mountains in the district" />
		<tag k="name" v="Fuglåsen" />
		<tag k="natural" v="hill" />
		<tag k="place" v="locality" />
		<tag k="ssr:stedsnr" v="192067" />
	</node>
	<node id="-305502" lat="61.6656277795" lon="10.8577250067">
		<tag k="alt_name" v="Tjørnraet, nedre;Nedre Tjønnraet" />
		<tag k="name" v="Nedre Tjørnraet" />
		<tag k="natural" v="slope" />
		<tag k="place" v="locality" />
		<tag k="ssr:stedsnr" v="192055" />
	</node>
	<node id="-305499" lat="61.6102138909" lon="10.7812611152">
		<tag k="name" v="Horta" />
		<tag k="natural" v="hill" />
		<tag k="place" v="locality" />
		<tag k="ssr:stedsnr" v="192027" />
	</node>
	<node id="-305495" lat="61.5880166238" lon="10.8961845359">
		<tag k="alt_name" v="Hemåsen" />
		<tag k="fixme" v="consider natural=peak for the most distinct mountains in the district" />
		<tag k="name" v="Heimåsen" />
		<tag k="natural" v="hill" />
		<tag k="place" v="locality" />
		<tag k="ssr:stedsnr" v="192140" />
	</node>
	<node id="-305494" lat="61.3779305598" lon="10.9732583398">
		<tag k="alt_name" v="Nordre Tøråsen" />
		<tag k="fixme" v="consider natural=peak for the most distinct mountains in the district" />
		<tag k="name" v="Tørråsen" />
		<tag k="natural" v="hill" />
		<tag k="place" v="locality" />
		<tag k="ssr:stedsnr" v="190435" />
	</node>
	<node id="-305492" lat="61.3165999971" lon="11.0039027709">
		<tag k="name" v="Søkkunddalen" />
		<tag k="natural" v="valley" />
		<tag k="place" v="locality" />
		<tag k="ssr:stedsnr" v="190413" />
	</node>
	<node id="-305483" lat="61.6533472216" lon="10.9727583295">
		<tag k="fixme" v="consider natural=peak for the most distinct mountains in the district" />
		<tag k="name" v="Veslekletten" />
		<tag k="natural" v="hill" />
		<tag k="place" v="locality" />
		<tag k="ssr:stedsnr" v="180743" />
	</node>
	<node id="-305481" lat="61.6816972189" lon="10.9863222181">
		<tag k="name" v="Flygarmoen" />
		<tag k="place" v="locality" />
		<tag k="ssr:stedsnr" v="180735" />
	</node>
	<node id="-305475" lat="61.4036472195" lon="11.1788638903">
		<tag k="fixme" v="consider natural=peak for the most distinct mountains in the district" />
		<tag k="name" v="Eltkletten" />
		<tag k="natural" v="hill" />
		<tag k="place" v="locality" />
		<tag k="ssr:stedsnr" v="180240" />
	</node>
	<node id="-305469" lat="61.8639861145" lon="10.2456888927">
		<tag k="fixme" v="consider natural=peak for the most distinct mountains in the district" />
		<tag k="name" v="Åsen" />
		<tag k="natural" v="hill" />
		<tag k="place" v="locality" />
		<tag k="ssr:stedsnr" v="178627" />
	</node>
	<node id="-305464" lat="61.5834888891" lon="11.1140638858">
		<tag k="name" v="Øvre Reset" />
		<tag k="place" v="locality" />
		<tag k="ssr:stedsnr" v="177928" />
	</node>
	<node id="-305463" lat="61.4439250023" lon="11.2194916665">
		<tag k="name" v="Lektjønnåsen" />
		<tag k="natural" v="hill" />
		<tag k="place" v="locality" />
		<tag k="ssr:stedsnr" v="177240" />
	</node>
	<node id="-305462" lat="61.8418972209" lon="10.1437888841">
		<tag k="name" v="Nordrebekkberget" />
		<tag k="place" v="locality" />
		<tag k="ssr:stedsnr" v="173888" />
	</node>
	<node id="-305461" lat="61.8386611073" lon="10.1487666621">
		<tag k="name" v="Sørebekkberget" />
		<tag k="place" v="locality" />
		<tag k="ssr:stedsnr" v="173887" />
	</node>
	<node id="-305453" lat="61.4164166672" lon="11.0324138826">
		<tag k="name" v="Resryggen" />
		<tag k="natural" v="ridge" />
		<tag k="place" v="locality" />
		<tag k="ssr:stedsnr" v="162900" />
	</node>
	<node id="-305437" lat="61.2854055578" lon="11.1842333365">
		<tag k="name" v="Svartdalshaugene" />
		<tag k="natural" v="hill" />
		<tag k="place" v="locality" />
		<tag k="ssr:stedsnr" v="161122" />
	</node>
	<node id="-305435" lat="61.3464555521" lon="11.0940750067">
		<tag k="name" v="Djupdalen" />
		<tag k="natural" v="valley" />
		<tag k="place" v="locality" />
		<tag k="ssr:stedsnr" v="161101" />
	</node>
	<node id="-305433" lat="61.4276444414" lon="11.1790277747">
		<tag k="name" v="Rosetskaret" />
		<tag k="natural" v="valley" />
		<tag k="place" v="locality" />
		<tag k="ssr:stedsnr" v="300270" />
	</node>
	<node id="-305431" lat="61.5590999987" lon="10.7931277694">
		<tag k="alt_name" v="Skramsvorddalen" />
		<tag k="name" v="Skramsvoldalen" />
		<tag k="natural" v="valley" />
		<tag k="place" v="locality" />
		<tag k="ssr:stedsnr" v="141378" />
	</node>
	<node id="-305428" lat="61.4586888856" lon="11.2259722309">
		<tag k="fixme" v="consider natural=peak for the most distinct mountains in the district" />
		<tag k="name" v="Netsjøåsen" />
		<tag k="natural" v="hill" />
		<tag k="place" v="locality" />
		<tag k="ssr:stedsnr" v="141264" />
	</node>
	<node id="-305425" lat="61.8154750004" lon="10.5295944476">
		<tag k="alt_name" v="Gråteråsen" />
		<tag k="fixme" v="consider natural=peak for the most distinct mountains in the district" />
		<tag k="name" v="Gråtaråsen" />
		<tag k="natural" v="hill" />
		<tag k="place" v="locality" />
		<tag k="ssr:stedsnr" v="132253" />
	</node>
	<node id="-305423" lat="61.3119777785" lon="11.3507777818">
		<tag k="alt_name" v="Skjæråsen" />
		<tag k="fixme" v="consider natural=peak for the most distinct mountains in the district" />
		<tag k="name" v="Skjeråsen" />
		<tag k="natural" v="hill" />
		<tag k="place" v="locality" />
		<tag k="ssr:stedsnr" v="131793" />
	</node>
	<node id="-305422" lat="61.4479861101" lon="11.1724999946">
		<tag k="alt_name" v="Tøråsen" />
		<tag k="fixme" v="consider natural=peak for the most distinct mountains in the district" />
		<tag k="name" v="Tørråsen" />
		<tag k="natural" v="hill" />
		<tag k="place" v="locality" />
		<tag k="ssr:stedsnr" v="131782" />
	</node>
	<node id="-305421" lat="61.8794249981" lon="10.286166663">
		<tag k="alt_name" v="Veslegrytdalen" />
		<tag k="name" v="Veslgrytdalen" />
		<tag k="natural" v="valley" />
		<tag k="place" v="locality" />
		<tag k="ssr:stedsnr" v="131583" />
	</node>
	<node id="-305412" lat="61.3319555592" lon="11.0939527832">
		<tag k="fixme" v="consider natural=peak for the most distinct mountains in the district" />
		<tag k="name" v="Storhorta" />
		<tag k="natural" v="hill" />
		<tag k="place" v="locality" />
		<tag k="ssr:stedsnr" v="130001" />
	</node>
	<node id="-305411" lat="61.4716055555" lon="10.6802250051">
		<tag k="fixme" v="consider natural=peak for the most distinct mountains in the district" />
		<tag k="name" v="Eldåhøgda" />
		<tag k="natural" v="hill" />
		<tag k="place" v="locality" />
		<tag k="ssr:stedsnr" v="129360" />
	</node>
	<node id="-305379" lat="61.6792527747" lon="10.8773833266">
		<tag k="name" v="Lille Karlstadpiggen" />
		<tag k="natural" v="hill" />
		<tag k="place" v="locality" />
		<tag k="ssr:stedsnr" v="119113" />
	</node>
	<node id="-305370" lat="61.3945611094" lon="11.2116694413">
		<tag k="name" v="Netlia" />
		<tag k="natural" v="slope" />
		<tag k="place" v="locality" />
		<tag k="ssr:stedsnr" v="103808" />
	</node>
	<node id="-304164" lat="61.4727444411" lon="10.9817944496">
		<tag k="name" v="Brenninga" />
		<tag k="natural" v="slope" />
		<tag k="place" v="locality" />
		<tag k="ssr:stedsnr" v="100713" />
	</node>
	<node id="-305357" lat="61.3921305592" lon="10.912261115">
		<tag k="name" v="Fallhaugene" />
		<tag k="natural" v="hill" />
		<tag k="place" v="locality" />
		<tag k="ssr:stedsnr" v="101684" />
	</node>
	<node id="-305345" lat="61.5394611148" lon="11.0130027873">
		<tag k="name" v="Syringa" />
		<tag k="natural" v="slope" />
		<tag k="place" v="locality" />
		<tag k="ssr:stedsnr" v="80384" />
	</node>
	<node id="-305339" lat="61.9521249962" lon="10.4211944372">
		<tag k="name" v="Kvislåfløyet" />
		<tag k="place" v="locality" />
		<tag k="ssr:stedsnr" v="71461" />
	</node>
	<node id="-305337" lat="61.8124305564" lon="10.6348555523">
		<tag k="fixme" v="consider natural=peak for the most distinct mountains in the district" />
		<tag k="name" v="Tørråsen" />
		<tag k="natural" v="hill" />
		<tag k="place" v="locality" />
		<tag k="ssr:stedsnr" v="71293" />
	</node>
	<node id="-305336" lat="61.6819777811" lon="10.4065444401">
		<tag k="fixme" v="consider natural=peak for the most distinct mountains in the district" />
		<tag k="name" v="Rundvola" />
		<tag k="natural" v="hill" />
		<tag k="place" v="locality" />
		<tag k="ssr:stedsnr" v="71191" />
	</node>
	<node id="-305335" lat="61.7563999972" lon="10.950652781">
		<tag k="fixme" v="consider natural=peak for the most distinct mountains in the district" />
		<tag k="name" v="Granåsen" />
		<tag k="natural" v="hill" />
		<tag k="place" v="locality" />
		<tag k="ssr:stedsnr" v="71151" />
	</node>
	<node id="-305332" lat="61.7579694428" lon="10.7565777845">
		<tag k="fixme" v="consider natural=peak for the most distinct mountains in the district" />
		<tag k="name" v="Steinbakkåsen" />
		<tag k="natural" v="hill" />
		<tag k="place" v="locality" />
		<tag k="ssr:stedsnr" v="71228" />
	</node>
	<node id="-305328" lat="61.8680861137" lon="10.244108338">
		<tag k="alt_name" v="Naråskarven, s;Søre Narroskarven;Næråskarven" />
		<tag k="fixme" v="consider natural=peak for the most distinct mountains in the district" />
		<tag k="name" v="Søre Næråskarven" />
		<tag k="natural" v="hill" />
		<tag k="place" v="locality" />
		<tag k="ssr:stedsnr" v="70563" />
	</node>
	<node id="-305316" lat="61.7388416675" lon="10.8578777829">
		<tag k="alt_name" v="Kjølsjøberget, Vestre;Søndre Kjølsjøberget" />
		<tag k="name" v="Vestre Kjølsjøberget" />
		<tag k="natural" v="hill" />
		<tag k="place" v="locality" />
		<tag k="ssr:stedsnr" v="70206" />
	</node>
	<node id="-305315" lat="61.5432027738" lon="10.8532555567">
		<tag k="name" v="Rømoen" />
		<tag k="place" v="locality" />
		<tag k="ssr:stedsnr" v="300147" />
	</node>
	<node id="-305313" lat="61.3832805587" lon="10.8880583317">
		<tag k="name" v="Børtne" />
		<tag k="natural" v="slope" />
		<tag k="place" v="locality" />
		<tag k="ssr:stedsnr" v="69450" />
	</node>
	<node id="-305311" lat="61.3421500014" lon="11.042538881">
		<tag k="fixme" v="consider natural=peak for the most distinct mountains in the district" />
		<tag k="name" v="Styggbergtangen" />
		<tag k="natural" v="hill" />
		<tag k="place" v="locality" />
		<tag k="ssr:stedsnr" v="69433" />
	</node>
	<node id="-305309" lat="61.3240749967" lon="10.9614249953">
		<tag k="fixme" v="consider natural=peak for the most distinct mountains in the district" />
		<tag k="name" v="Graslifjellet" />
		<tag k="natural" v="hill" />
		<tag k="place" v="locality" />
		<tag k="ssr:stedsnr" v="69426" />
	</node>
	<node id="-305307" lat="61.3128277741" lon="10.8824055482">
		<tag k="alt_name" v="Myklesjøvorda" />
		<tag k="name" v="Myklesjøvola" />
		<tag k="natural" v="hill" />
		<tag k="place" v="locality" />
		<tag k="ssr:stedsnr" v="69411" />
	</node>
	<node id="-305304" lat="61.2807055586" lon="11.3403000001">
		<tag k="fixme" v="consider natural=peak for the most distinct mountains in the district" />
		<tag k="name" v="Vikkletten" />
		<tag k="natural" v="hill" />
		<tag k="place" v="locality" />
		<tag k="ssr:stedsnr" v="69247" />
	</node>
	<node id="-305303" lat="61.3041499963" lon="11.1907749985">
		<tag k="fixme" v="consider natural=peak for the most distinct mountains in the district" />
		<tag k="name" v="Halvfaråsen" />
		<tag k="natural" v="hill" />
		<tag k="place" v="locality" />
		<tag k="ssr:stedsnr" v="69232" />
	</node>
	<node id="-305297" lat="61.3671805574" lon="11.3208416587">
		<tag k="fixme" v="consider natural=peak for the most distinct mountains in the district" />
		<tag k="name" v="Gravåsen" />
		<tag k="natural" v="hill" />
		<tag k="place" v="locality" />
		<tag k="ssr:stedsnr" v="69052" />
	</node>
	<node id="-305288" lat="61.4325388919" lon="10.9699805506">
		<tag k="alt_name" v="Rognvorda, vestre" />
		<tag k="fixme" v="consider natural=peak for the most distinct mountains in the district" />
		<tag k="name" v="Vestre Rognvola" />
		<tag k="natural" v="hill" />
		<tag k="place" v="locality" />
		<tag k="ssr:stedsnr" v="68459" />
	</node>
	<node id="-305286" lat="61.8414083309" lon="10.5440055469">
		<tag k="fixme" v="consider natural=peak for the most distinct mountains in the district" />
		<tag k="name" v="Helgerudhøgda" />
		<tag k="natural" v="hill" />
		<tag k="place" v="locality" />
		<tag k="ssr:stedsnr" v="59980" />
	</node>
	<node id="-305283" lat="61.6784805516" lon="10.9779833413">
		<tag k="name" v="Veslesæterlia" />
		<tag k="natural" v="slope" />
		<tag k="place" v="locality" />
		<tag k="ssr:stedsnr" v="59721" />
	</node>
	<node id="-305280" lat="61.8358833363" lon="10.3418361117">
		<tag k="fixme" v="consider natural=peak for the most distinct mountains in the district" />
		<tag k="name" v="Sæterskletten" />
		<tag k="natural" v="hill" />
		<tag k="place" v="locality" />
		<tag k="ssr:stedsnr" v="59646" />
	</node>
	<node id="-305276" lat="61.8324694448" lon="10.3400000092">
		<tag k="fixme" v="consider natural=peak for the most distinct mountains in the district" />
		<tag k="name" v="Finnbukletten" />
		<tag k="natural" v="hill" />
		<tag k="place" v="locality" />
		<tag k="ssr:stedsnr" v="59364" />
	</node>
	<node id="-304148" lat="61.7114833343" lon="10.7927694372">
		<tag k="fixme" v="consider natural=peak for the most distinct mountains in the district" />
		<tag k="name" v="Atnoskletten" />
		<tag k="natural" v="hill" />
		<tag k="place" v="locality" />
		<tag k="ssr:stedsnr" v="253226" />
	</node>
	<node id="-305268" lat="61.5288888877" lon="11.1182083346">
		<tag k="fixme" v="consider natural=peak for the most distinct mountains in the district" />
		<tag k="name" v="Nedre Nestjønnkletten" />
		<tag k="natural" v="hill" />
		<tag k="place" v="locality" />
		<tag k="ssr:stedsnr" v="58503" />
	</node>
	<node id="-305267" lat="61.8673083345" lon="10.2747305558">
		<tag k="name" v="Mørkrøsta" />
		<tag k="natural" v="hill" />
		<tag k="place" v="locality" />
		<tag k="ssr:stedsnr" v="57622" />
	</node>
	<node id="-305264" lat="61.2932666667" lon="11.212480555">
		<tag k="name" v="Sekserhaugene" />
		<tag k="natural" v="hill" />
		<tag k="place" v="locality" />
		<tag k="ssr:stedsnr" v="57483" />
	</node>
	<node id="-305262" lat="61.3142972253" lon="11.2087000026">
		<tag k="name" v="Løvengdalen" />
		<tag k="natural" v="valley" />
		<tag k="place" v="locality" />
		<tag k="ssr:stedsnr" v="57479" />
	</node>
	<node id="-305260" lat="61.8589027787" lon="10.1819166736">
		<tag k="name" v="Pullen" />
		<tag k="natural" v="valley" />
		<tag k="place" v="locality" />
		<tag k="ssr:stedsnr" v="57214" />
	</node>
	<node id="-305259" lat="61.8613611135" lon="10.1813805585">
		<tag k="name" v="Berga" />
		<tag k="place" v="locality" />
		<tag k="ssr:stedsnr" v="57211" />
	</node>
	<node id="-305258" lat="61.8567444431" lon="10.2230833327">
		<tag k="name" v="Granrøstbakken" />
		<tag k="natural" v="slope" />
		<tag k="place" v="locality" />
		<tag k="ssr:stedsnr" v="57201" />
	</node>
	<node id="-305255" lat="61.445688889" lon="10.8043166714">
		<tag k="name" v="Lokkarbakken" />
		<tag k="natural" v="slope" />
		<tag k="place" v="locality" />
		<tag k="ssr:stedsnr" v="56650" />
	</node>
	<node id="-305252" lat="61.4827111117" lon="10.8712249947">
		<tag k="name" v="Neppa" />
		<tag k="natural" v="hill" />
		<tag k="place" v="locality" />
		<tag k="ssr:stedsnr" v="55488" />
	</node>
	<node id="-305244" lat="61.3564111129" lon="11.0065861118">
		<tag k="name" v="Neverfellmoen" />
		<tag k="place" v="locality" />
		<tag k="ssr:stedsnr" v="42934" />
	</node>
	<node id="-305240" lat="61.4323333366" lon="11.045594451">
		<tag k="name" v="Tjønnmoen" />
		<tag k="place" v="locality" />
		<tag k="ssr:stedsnr" v="41876" />
	</node>
	<node id="-305237" lat="61.462294442" lon="11.0925666717">
		<tag k="name" v="Gjeddtjønndalen" />
		<tag k="natural" v="valley" />
		<tag k="place" v="locality" />
		<tag k="ssr:stedsnr" v="41337" />
	</node>
	<node id="-305233" lat="61.5547055513" lon="11.0409166614">
		<tag k="alt_name" v="Koppangshamarn" />
		<tag k="name" v="Koppangshammaren" />
		<tag k="natural" v="hill" />
		<tag k="place" v="locality" />
		<tag k="ssr:stedsnr" v="40482" />
	</node>
	<node id="-305231" lat="61.4881333328" lon="11.0014416598">
		<tag k="fixme" v="consider natural=peak for the most distinct mountains in the district" />
		<tag k="name" v="Husvoltangen" />
		<tag k="natural" v="hill" />
		<tag k="ssr:stedsnr" v="39688" />
	</node>
	<node id="-305214" lat="61.7335305597" lon="10.1866999995">
		<tag k="name" v="Snødøldalen" />
		<tag k="natural" v="valley" />
		<tag k="place" v="locality" />
		<tag k="ssr:stedsnr" v="10953" />
	</node>
	<node id="-305210" lat="61.8507333327" lon="10.483044437">
		<tag k="alt_name" v="Brenthaugene" />
		<tag k="name" v="Brenthaugane" />
		<tag k="natural" v="hill" />
		<tag k="place" v="locality" />
		<tag k="ssr:stedsnr" v="10467" />
	</node>
	<node id="-305206" lat="61.8100527788" lon="10.1336305599">
		<tag k="name" v="Valdressletta" />
		<tag k="place" v="locality" />
		<tag k="ssr:stedsnr" v="10373" />
	</node>
	<node id="-305202" lat="61.5012916625" lon="10.7049694516">
		<tag k="fixme" v="consider natural=peak for the most distinct mountains in the district" />
		<tag k="name" v="Skarven" />
		<tag k="natural" v="hill" />
		<tag k="place" v="locality" />
		<tag k="ssr:stedsnr" v="10219" />
	</node>
	<node id="-305201" lat="61.7193333301" lon="10.9506416739">
		<tag k="name" v="Snokollen" />
		<tag k="natural" v="hill" />
		<tag k="place" v="locality" />
		<tag k="ssr:stedsnr" v="10216" />
	</node>
	<node id="-305194" lat="61.629383336" lon="10.8310638857">
		<tag k="alt_name" v="Løvlandsvorda" />
		<tag k="name" v="Løvlandsvola" />
		<tag k="natural" v="hill" />
		<tag k="place" v="locality" />
		<tag k="ssr:stedsnr" v="10036" />
	</node>
	<node id="-305193" lat="61.6251527814" lon="10.7509527842">
		<tag k="alt_name" v="Trytjørnvordene" />
		<tag k="fixme" v="consider natural=peak for the most distinct mountains in the district" />
		<tag k="name" v="Trytjønnsvolene" />
		<tag k="natural" v="hill" />
		<tag k="place" v="locality" />
		<tag k="ssr:stedsnr" v="10027" />
	</node>
	<node id="-305187" lat="61.7452277785" lon="10.5814055613">
		<tag k="name" v="Svaresberget" />
		<tag k="natural" v="hill" />
		<tag k="place" v="locality" />
		<tag k="ssr:stedsnr" v="10185" />
	</node>
	<node id="-305186" lat="61.6992611102" lon="10.3620833303">
		<tag k="fixme" v="consider natural=peak for the most distinct mountains in the district" />
		<tag k="name" v="Prestbuhøgda" />
		<tag k="natural" v="hill" />
		<tag k="place" v="locality" />
		<tag k="ssr:stedsnr" v="10169" />
	</node>
	<node id="-305182" lat="61.3655499994" lon="11.2673888833">
		<tag k="fixme" v="consider natural=peak for the most distinct mountains in the district" />
		<tag k="name" v="Fuglåsen" />
		<tag k="natural" v="hill" />
		<tag k="place" v="locality" />
		<tag k="ssr:stedsnr" v="8056" />
	</node>
	<node id="-305179" lat="61.3180861104" lon="11.3073055621">
		<tag k="fixme" v="consider natural=peak for the most distinct mountains in the district" />
		<tag k="name" v="Sæteråsen" />
		<tag k="natural" v="hill" />
		<tag k="place" v="locality" />
		<tag k="ssr:stedsnr" v="8036" />
	</node>
	<node id="-305176" lat="61.4192166671" lon="10.776805548">
		<tag k="fixme" v="consider natural=peak for the most distinct mountains in the district" />
		<tag k="name" v="Foringsskarven" />
		<tag k="natural" v="hill" />
		<tag k="place" v="locality" />
		<tag k="ssr:stedsnr" v="7428" />
	</node>
	<node id="-305162" lat="61.4669972262" lon="10.7950500057">
		<tag k="name" v="Skaret" />
		<tag k="natural" v="valley" />
		<tag k="place" v="locality" />
		<tag k="ssr:stedsnr" v="966675" />
	</node>
	<node id="-305154" lat="61.7952611109" lon="10.319213881">
		<tag k="fixme" v="consider natural=peak for the most distinct mountains in the district" />
		<tag k="name" v="Finnsjøvola" />
		<tag k="natural" v="hill" />
		<tag k="place" v="locality" />
		<tag k="ssr:stedsnr" v="920391" />
	</node>
	<node id="-305153" lat="61.7523222197" lon="10.1856250061">
		<tag k="name" v="Snødalen" />
		<tag k="natural" v="valley" />
		<tag k="place" v="locality" />
		<tag k="ssr:stedsnr" v="920381" />
	</node>
</osm>
