<?xml version="1.0" encoding="UTF-8"?>
<osm version="0.6" generator="osmapis">
	<node lat="61.30628611417138" lon="10.943988896347895" id="-38344">
		<tag k="alt_name" v="Storbekken, nordre" />
		<tag k="name" v="Nordre Storbekken" />
		<tag k="ssr:stedsnr" v="8417" />
		<tag k="waterway" v="stream" />
	</node>
	<node lat="61.59118333681526" lon="11.003374996874687" id="-38347">
		<tag k="name" v="Tresøya" />
		<tag k="place" v="island" />
		<tag k="ssr:stedsnr" v="10003" />
	</node>
	<node lat="61.54127892980051" lon="10.871276817174303" id="-38350">
		<tag k="alt_name" v="Tittilsjøen" />
		<tag k="name" v="Tittelsjøen" />
		<tag k="natural" v="water" />
		<tag k="ssr:stedsnr" v="10090" />
		<tag k="water" v="lake" />
	</node>
	<node lat="61.77734999976838" lon="10.568308324040173" id="-38359">
		<tag k="name" v="Syrbekken" />
		<tag k="ssr:stedsnr" v="11291" />
		<tag k="waterway" v="stream" />
	</node>
	<node lat="61.83937777805253" lon="10.418158324873009" id="-38361">
		<tag k="name" v="Skjeftemyrbekken" />
		<tag k="ssr:stedsnr" v="11483" />
		<tag k="waterway" v="stream" />
	</node>
	<node lat="61.24943610910285" lon="11.213119438731008" id="-38362">
		<tag k="name" v="Storbekken" />
		<tag k="ssr:stedsnr" v="39457" />
		<tag k="waterway" v="stream" />
	</node>
	<node lat="61.46427500218224" lon="11.200177781864054" id="-38377">
		<tag k="name" v="Småneta" />
		<tag k="ssr:stedsnr" v="238251" />
		<tag k="waterway" v="stream" />
	</node>
	<node lat="61.49619722132531" lon="10.724541667376167" id="-38382">
		<tag k="name" v="Skarvtjønna" />
		<tag k="natural" v="water" />
		<tag k="ssr:stedsnr" v="238669" />
	</node>
	<node lat="61.85247222216836" lon="10.207974993521132" id="-38387">
		<tag k="name" v="Nybuvika" />
		<tag k="natural" v="bay" />
		<tag k="ssr:stedsnr" v="239264" />
	</node>
	<node lat="61.86863610862199" lon="10.238983333299752" id="-38389">
		<tag k="name" v="Næråtjønna" />
		<tag k="natural" v="water" />
		<tag k="ssr:stedsnr" v="239657" />
	</node>
	<node lat="61.55050832998263" lon="10.85257222897888" id="-38392">
		<tag k="name" v="Tittilsjøbekken" />
		<tag k="ssr:stedsnr" v="57112" />
		<tag k="waterway" v="stream" />
	</node>
	<node lat="61.679663890722516" lon="10.860122217339907" id="-38397">
		<tag k="name" v="Eldfløyta" />
		<tag k="ssr:stedsnr" v="240122" />
		<tag k="waterway" v="dam" />
	</node>
	<node lat="61.684094445105764" lon="10.729105554837835" id="-38402">
		<tag k="name" v="Granåsdammen" />
		<tag k="ssr:stedsnr" v="240262" />
		<tag k="waterway" v="dam" />
	</node>
	<node lat="61.84973055188158" lon="10.270616666301907" id="-38415">
		<tag k="name" v="Fosshue" />
		<tag k="natural" v="cape" />
		<tag k="ssr:stedsnr" v="241345" />
	</node>
	<node lat="61.82236944045587" lon="10.319536105654322" id="-38417">
		<tag k="name" v="Kløftbekken" />
		<tag k="ssr:stedsnr" v="241356" />
		<tag k="waterway" v="stream" />
	</node>
	<node lat="61.515386113779115" lon="11.053013889454204" id="-38421">
		<tag k="name" v="Storholmen" />
		<tag k="place" v="islet" />
		<tag k="ssr:stedsnr" v="241752" />
	</node>
	<node lat="61.33026389038637" lon="10.969016674152515" id="-38422">
		<tag k="name" v="Graslitjernet" />
		<tag k="natural" v="water" />
		<tag k="ssr:stedsnr" v="241964" />
	</node>
	<node lat="61.37769166271091" lon="11.196966662091894" id="-38425">
		<tag k="alt_name" v="Nabbtjørnet" />
		<tag k="name" v="Nabbtjønna" />
		<tag k="natural" v="water" />
		<tag k="ssr:stedsnr" v="69041" />
	</node>
	<node lat="61.358050002949795" lon="11.13112499916052" id="-38426">
		<tag k="name" v="Milskiftbekken" />
		<tag k="ssr:stedsnr" v="69047" />
		<tag k="waterway" v="stream" />
	</node>
	<node lat="61.425727777232005" lon="11.173705547998345" id="-38429">
		<tag k="alt_name" v="Davatjernet" />
		<tag k="name" v="Davatjønna" />
		<tag k="natural" v="water" />
		<tag k="ssr:stedsnr" v="69081" />
	</node>
	<node lat="61.25320000085538" lon="11.062286112459157" id="-38437">
		<tag k="name" v="Stauvnsjøen" />
		<tag k="natural" v="water" />
		<tag k="ssr:stedsnr" v="69391" />
	</node>
	<node lat="61.72907500013517" lon="10.769788897237829" id="-38440">
		<tag k="alt_name" v="Risbrennlibekken" />
		<tag k="name" v="Risbrennbekken" />
		<tag k="ssr:stedsnr" v="70190" />
		<tag k="waterway" v="stream" />
	</node>
	<node lat="61.751980251688096" lon="10.981332731137998" id="-38443">
		<tag k="alt_name" v="Mjovassjøen, nørdre" />
		<tag k="name" v="Nordre Mjovassjøen" />
		<tag k="natural" v="water" />
		<tag k="old_name" v="Mjøvassjøen, nørdre" />
		<tag k="ssr:stedsnr" v="70214" />
		<tag k="water" v="lake" />
	</node>
	<node lat="61.525958334807" lon="10.874563886012163" id="-38446">
		<tag k="alt_name" v="Negardssjøen" />
		<tag k="name" v="Nedgardssjøen" />
		<tag k="natural" v="water" />
		<tag k="ssr:stedsnr" v="71075" />
		<tag k="water" v="lake" />
	</node>
	<node lat="61.485119447630815" lon="11.029530560787295" id="-38453">
		<tag k="name" v="Tyskevja" />
		<tag k="ssr:stedsnr" v="100708" />
		<tag k="waterway" v="stream" />
	</node>
	<node lat="61.50090833319396" lon="10.98045000832167" id="-38454">
		<tag k="name" v="Kvannbekkmyra" />
		<tag k="ssr:stedsnr" v="100710" />
		<tag k="waterway" v="stream" />
	</node>
	<node lat="61.477280556063704" lon="10.974738887169567" id="-38456">
		<tag k="name" v="Lerådalsbekken" />
		<tag k="ssr:stedsnr" v="100715" />
		<tag k="waterway" v="stream" />
	</node>
	<node lat="61.33158055697709" lon="11.251924999943192" id="-38461">
		<tag k="name" v="Taraldstutjernet" />
		<tag k="natural" v="water" />
		<tag k="ssr:stedsnr" v="101685" />
	</node>
	<node lat="61.44345278131249" lon="11.049683341658719" id="-38463">
		<tag k="name" v="Evja" />
		<tag k="ssr:stedsnr" v="102895" />
		<tag k="waterway" v="stream" />
	</node>
	<node lat="61.24714721787922" lon="11.14404443849678" id="-38465">
		<tag k="name" v="Svartbekken" />
		<tag k="ssr:stedsnr" v="249386" />
		<tag k="waterway" v="stream" />
	</node>
	<node lat="61.85585833200172" lon="10.262188896059639" id="-38481">
		<tag k="name" v="Tjønna" />
		<tag k="natural" v="water" />
		<tag k="ssr:stedsnr" v="119369" />
	</node>
	<node lat="61.80818889199632" lon="10.33465000652621" id="-38484">
		<tag k="name" v="Brenntjønna" />
		<tag k="natural" v="water" />
		<tag k="ssr:stedsnr" v="119389" />
	</node>
	<node lat="61.33845555622263" lon="11.022974999606896" id="-38489">
		<tag k="name" v="Skarvlibekken" />
		<tag k="ssr:stedsnr" v="119971" />
		<tag k="waterway" v="stream" />
	</node>
	<node lat="61.50197500389946" lon="11.164194450627505" id="-38498">
		<tag k="alt_name" v="Fjølbutjørna" />
		<tag k="name" v="Fjølbutjønna" />
		<tag k="natural" v="water" />
		<tag k="ssr:stedsnr" v="252237" />
	</node>
	<node lat="61.537486108350556" lon="11.13520555201856" id="-38500">
		<tag k="name" v="Revtjørna" />
		<tag k="natural" v="water" />
		<tag k="ssr:stedsnr" v="252279" />
	</node>
	<node lat="61.41752777537206" lon="11.052286115255276" id="-38501">
		<tag k="name" v="Rogna" />
		<tag k="ssr:stedsnr" v="128410" />
		<tag k="waterway" v="river" />
	</node>
	<node lat="61.75918610767563" lon="10.332983342388413" id="-38505">
		<tag k="name" v="Setninga" />
		<tag k="ssr:stedsnr" v="252378" />
		<tag k="waterway" v="river" />
	</node>
	<node lat="61.433481226524584" lon="11.203583027832693" id="-38508">
		<tag k="fixme" v="multiple name tags, choose one and add the other to alt_name" />
		<tag k="name" v="Steindammen;Netfloen" />
		<tag k="natural" v="water" />
		<tag k="ssr:stedsnr" v="129091" />
	</node>
	<node lat="61.34383055409296" lon="10.946674997972249" id="-38511">
		<tag k="name" v="Svartbekken" />
		<tag k="ssr:stedsnr" v="129405" />
		<tag k="waterway" v="stream" />
	</node>
	<node lat="61.366330551085504" lon="11.062944449741337" id="-38513">
		<tag k="name" v="Søkkunda" />
		<tag k="ssr:stedsnr" v="129412" />
		<tag k="waterway" v="river" />
	</node>
	<node lat="61.38049166394596" lon="11.005074997382371" id="-38516">
		<tag k="alt_name" v="Hestskobekken" />
		<tag k="name" v="Hesteskobekken" />
		<tag k="ssr:stedsnr" v="129420" />
		<tag k="waterway" v="stream" />
	</node>
	<node lat="61.48766111169134" lon="11.029361109326482" id="-38518">
		<tag k="alt_name" v="Morttjernet" />
		<tag k="name" v="Morttjønna" />
		<tag k="natural" v="water" />
		<tag k="ssr:stedsnr" v="129460" />
	</node>
	<node lat="61.319969448930784" lon="11.164525001742797" id="-38519">
		<tag k="alt_name" v="Skjærbekken" />
		<tag k="name" v="Skjerbekken" />
		<tag k="ssr:stedsnr" v="130008" />
		<tag k="waterway" v="stream" />
	</node>
	<node lat="61.6080055530379" lon="11.060124998645835" id="-38522">
		<tag k="alt_name" v="Blæsterbekken, nørdre;Nordre Blæsterbekken" />
		<tag k="name" v="Nørdre Blæsterbekken" />
		<tag k="ssr:stedsnr" v="131015" />
		<tag k="waterway" v="stream" />
	</node>
	<node lat="61.63894166552527" lon="10.765374990726185" id="-38534">
		<tag k="name" v="Bjørnvollbekken" />
		<tag k="ssr:stedsnr" v="253033" />
		<tag k="waterway" v="stream" />
	</node>
	<node lat="61.66024166272576" lon="10.78536111299074" id="-38536">
		<tag k="name" v="Gustutjørna" />
		<tag k="natural" v="water" />
		<tag k="ssr:stedsnr" v="253041" />
	</node>
	<node lat="61.63833610959195" lon="10.689091671425262" id="-38542">
		<tag k="alt_name" v="Bjøråa, s;Søndre Bjøråa" />
		<tag k="name" v="Søre Bjøråa" />
		<tag k="ssr:stedsnr" v="253172" />
		<tag k="waterway" v="stream" />
	</node>
	<node lat="61.453319441177136" lon="11.234022222794831" id="-38545">
		<tag k="name" v="Netsjøbekken" />
		<tag k="ssr:stedsnr" v="259236" />
		<tag k="waterway" v="stream" />
	</node>
	<node lat="61.385502779943685" lon="10.873847222182391" id="-38548">
		<tag k="name" v="Børtneeldåa" />
		<tag k="ssr:stedsnr" v="161643" />
		<tag k="waterway" v="stream" />
	</node>
	<node lat="61.56675277491466" lon="10.686930559318233" id="-38550">
		<tag k="name" v="Storslåbekken" />
		<tag k="ssr:stedsnr" v="162804" />
		<tag k="waterway" v="stream" />
	</node>
	<node lat="61.84605000170245" lon="10.254036107980266" id="-38560">
		<tag k="name" v="Lona" />
		<tag k="natural" v="water" />
		<tag k="ssr:stedsnr" v="180360" />
		<tag k="water" v="lake" />
	</node>
	<node lat="61.52585277545356" lon="11.051658339605876" id="-38565">
		<tag k="name" v="Tomøya" />
		<tag k="place" v="islet" />
		<tag k="ssr:stedsnr" v="180806" />
	</node>
	<node lat="61.34008055315539" lon="10.997191658131678" id="-38567">
		<tag k="name" v="Søkkunddammen" />
		<tag k="ssr:stedsnr" v="180958" />
		<tag k="waterway" v="dam" />
	</node>
	<node lat="61.511749996797604" lon="11.008652770212482" id="-38570">
		<tag k="alt_name" v="Havtjønnbekken" />
		<tag k="name" v="Havtjørnbekken" />
		<tag k="ssr:stedsnr" v="262373" />
		<tag k="waterway" v="stream" />
	</node>
	<node lat="61.22007777966298" lon="11.254800003319879" id="-38571">
		<tag k="name" v="Bubekken" />
		<tag k="ssr:stedsnr" v="189366" />
		<tag k="waterway" v="stream" />
	</node>
	<node lat="61.339524995673685" lon="11.2704444474141" id="-38576">
		<tag k="name" v="Åborbekken" />
		<tag k="ssr:stedsnr" v="191004" />
		<tag k="waterway" v="stream" />
	</node>
	<node lat="61.60260555440747" lon="11.051961104351069" id="-38580">
		<tag k="alt_name" v="Blæsterbekken, søre;Søndre Blæsterbekken" />
		<tag k="name" v="Søre Blæsterbekken" />
		<tag k="ssr:stedsnr" v="192015" />
		<tag k="waterway" v="stream" />
	</node>
	<node lat="61.701050001337535" lon="10.9262166741814" id="-38583">
		<tag k="name" v="Rådelsbekken" />
		<tag k="ssr:stedsnr" v="202260" />
		<tag k="waterway" v="stream" />
	</node>
	<node lat="61.664627774774935" lon="10.848652784942727" id="-38588">
		<tag k="name" v="Stenbekken" />
		<tag k="ssr:stedsnr" v="222102" />
		<tag k="waterway" v="stream" />
	</node>
	<node lat="61.7359222202408" lon="10.75079999459104" id="-38589">
		<tag k="name" v="Veslefallet" />
		<tag k="natural" v="waterfall" />
		<tag k="ssr:stedsnr" v="222169" />
	</node>
	<node lat="61.234819440880464" lon="11.186322224180072" id="-38593">
		<tag k="name" v="Sautjernet" />
		<tag k="natural" v="water" />
		<tag k="ssr:stedsnr" v="222776" />
	</node>
	<node lat="61.85175278199544" lon="10.427258332856011" id="-38594">
		<tag k="name" v="Lonfossen" />
		<tag k="natural" v="waterfall" />
		<tag k="ssr:stedsnr" v="222871" />
	</node>
	<node lat="61.788597225078895" lon="10.222708339452195" id="-38604">
		<tag k="name" v="Tjønnhøle" />
		<tag k="natural" v="water" />
		<tag k="ssr:stedsnr" v="239278" />
	</node>
	<node lat="61.57151666298632" lon="11.064374991351219" id="-38611">
		<tag k="name" v="Blæsterbekken" />
		<tag k="ssr:stedsnr" v="241398" />
		<tag k="waterway" v="stream" />
	</node>
	<node lat="61.702800000196504" lon="10.763725009344292" id="-38620">
		<tag k="alt_name" v="Abortjønna" />
		<tag k="name" v="Åbortjørna" />
		<tag k="natural" v="water" />
		<tag k="ssr:stedsnr" v="253225" />
	</node>
	<node lat="61.81709999812976" lon="10.449474998297285" id="-38625">
		<tag k="name" v="Styggbergsbekken" />
		<tag k="ssr:stedsnr" v="253309" />
		<tag k="waterway" v="stream" />
	</node>
	<node lat="61.57276619672543" lon="10.66487149514707" id="-38632">
		<tag k="alt_name" v="Famptjørnet" />
		<tag k="name" v="Famptjønna" />
		<tag k="natural" v="water" />
		<tag k="ssr:stedsnr" v="267419" />
	</node>
	<node lat="61.39746388847946" lon="10.945758339067321" id="-38639">
		<tag k="name" v="Bybubekken" />
		<tag k="ssr:stedsnr" v="283676" />
		<tag k="waterway" v="stream" />
	</node>
	<node lat="61.843305556777636" lon="10.362552780727519" id="-38642">
		<tag k="name" v="Svarthølen" />
		<tag k="place" v="locality" />
		<tag k="ssr:stedsnr" v="283908" />
	</node>
	<node lat="61.36940555424271" lon="11.011377769811254" id="-38644">
		<tag k="name" v="Kaldkjelda" />
		<tag k="ssr:stedsnr" v="285927" />
		<tag k="waterway" v="stream" />
	</node>
	<node lat="61.76219722643938" lon="10.32691388966667" id="-38653">
		<tag k="name" v="Brubekken" />
		<tag k="ssr:stedsnr" v="301379" />
		<tag k="waterway" v="stream" />
	</node>
	<node lat="61.688474999292396" lon="11.058094443549098" id="-38656">
		<tag k="name" v="Gammeldammen" />
		<tag k="ssr:stedsnr" v="301830" />
		<tag k="waterway" v="dam" />
	</node>
	<node lat="61.39160000048939" lon="11.132916667169146" id="-38658">
		<tag k="name" v="Gullknapptjønna" />
		<tag k="natural" v="water" />
		<tag k="ssr:stedsnr" v="302279" />
	</node>
	<node lat="61.75001110960691" lon="10.3698333426689" id="-38661">
		<tag k="name" v="Klokkarbekken" />
		<tag k="ssr:stedsnr" v="302673" />
		<tag k="waterway" v="stream" />
	</node>
	<node lat="61.513058335578" lon="11.05811666365909" id="-38662">
		<tag k="name" v="Møkkeløya" />
		<tag k="place" v="island" />
		<tag k="ssr:stedsnr" v="302776" />
	</node>
	<node lat="61.516169440863" lon="11.062641666719156" id="-38664">
		<tag k="name" v="Prestøya" />
		<tag k="place" v="island" />
		<tag k="ssr:stedsnr" v="302779" />
	</node>
	<node lat="61.356380551348465" lon="11.160700000833337" id="-38669">
		<tag k="name" v="Gunnarsbekken" />
		<tag k="ssr:stedsnr" v="465087" />
		<tag k="waterway" v="stream" />
	</node>
	<node lat="61.45860555134962" lon="11.042997226679274" id="-38674">
		<tag k="name" v="Imsoset" />
		<tag k="natural" v="bay" />
		<tag k="ssr:stedsnr" v="465794" />
	</node>
	<node lat="61.468486108573" lon="10.940038892091405" id="-38687">
		<tag k="name" v="Imsa" />
		<tag k="ssr:stedsnr" v="311491" />
		<tag k="waterway" v="river" />
	</node>
	<node lat="61.34197777986503" lon="11.20556944009028" id="-38688">
		<tag k="alt_name" v="Ørrettjernbekken" />
		<tag k="name" v="Ørtjørnbekken" />
		<tag k="ssr:stedsnr" v="312007" />
		<tag k="waterway" v="stream" />
	</node>
	<node lat="61.296842654500914" lon="10.900246387915063" id="-38692">
		<tag k="alt_name" v="Myklebysjøen, l" />
		<tag k="name" v="Vesle Myklebysjøen" />
		<tag k="natural" v="water" />
		<tag k="ssr:stedsnr" v="312375" />
	</node>
	<node lat="61.69883610724788" lon="11.04220555764632" id="-38694">
		<tag k="name" v="Rokka" />
		<tag k="ssr:stedsnr" v="313202" />
		<tag k="waterway" v="river" />
	</node>
	<node lat="61.696266662399644" lon="10.986830563330836" id="-38696">
		<tag k="name" v="Sæterbekken" />
		<tag k="ssr:stedsnr" v="313205" />
		<tag k="waterway" v="stream" />
	</node>
	<node lat="61.43873333296241" lon="11.060391673212628" id="-38709">
		<tag k="name" v="Holmen" />
		<tag k="place" v="islet" />
		<tag k="ssr:stedsnr" v="466891" />
	</node>
	<node lat="61.5709666640381" lon="10.932041660084076" id="-38731">
		<tag k="name" v="Hestmyrbekken" />
		<tag k="ssr:stedsnr" v="360105" />
		<tag k="waterway" v="stream" />
	</node>
	<node lat="61.84209167051288" lon="10.153905562723365" id="-38738">
		<tag k="name" v="Sørebekken" />
		<tag k="ssr:stedsnr" v="477934" />
		<tag k="waterway" v="stream" />
	</node>
	<node lat="61.342833333290166" lon="11.237772230217464" id="-38739">
		<tag k="name" v="Harptjernet" />
		<tag k="natural" v="water" />
		<tag k="ssr:stedsnr" v="372005" />
	</node>
	<node lat="61.26743055963568" lon="11.098925000210631" id="-38741">
		<tag k="name" v="Halasjøen" />
		<tag k="natural" v="water" />
		<tag k="ssr:stedsnr" v="372261" />
	</node>
	<node lat="61.74247499956003" lon="10.87761388480376" id="-38743">
		<tag k="name" v="Kjølsjøen" />
		<tag k="natural" v="water" />
		<tag k="ssr:stedsnr" v="373208" />
	</node>
	<node lat="61.5829333323525" lon="11.006213882937828" id="-38759">
		<tag k="name" v="Storholmen" />
		<tag k="place" v="island" />
		<tag k="ssr:stedsnr" v="374141" />
	</node>
	<node lat="61.81550555619557" lon="10.392438892197108" id="-38761">
		<tag k="alt_name" v="Stortjønna" />
		<tag k="name" v="Stortjørna" />
		<tag k="natural" v="water" />
		<tag k="ssr:stedsnr" v="374290" />
	</node>
	<node lat="61.616627774932155" lon="11.056505550442662" id="-38768">
		<tag k="name" v="Rokkdammen" />
		<tag k="ssr:stedsnr" v="480243" />
		<tag k="waterway" v="dam" />
	</node>
	<node lat="61.7827166694294" lon="10.417705565098498" id="-38769">
		<tag k="name" v="Oksbekken" />
		<tag k="ssr:stedsnr" v="481530" />
		<tag k="waterway" v="stream" />
	</node>
	<node lat="61.852408331263" lon="10.22774999878492" id="-38771">
		<tag k="name" v="Stryken" />
		<tag k="ssr:stedsnr" v="481282" />
		<tag k="waterway" v="rapids" />
	</node>
	<node lat="61.56898333541677" lon="10.815233337164553" id="-38776">
		<tag k="name" v="Kråkrybekken" />
		<tag k="ssr:stedsnr" v="383364" />
		<tag k="waterway" v="stream" />
	</node>
	<node lat="61.30508333738671" lon="11.282605559846338" id="-38777">
		<tag k="name" v="Siljubekken" />
		<tag k="ssr:stedsnr" v="482532" />
		<tag k="waterway" v="stream" />
	</node>
	<node lat="61.68726111495479" lon="10.915999995781094" id="-38778">
		<tag k="name" v="Rønningsbekken" />
		<tag k="ssr:stedsnr" v="483128" />
		<tag k="waterway" v="stream" />
	</node>
	<node lat="61.82240000210762" lon="10.346747224811589" id="-38782">
		<tag k="name" v="Bubekken" />
		<tag k="ssr:stedsnr" v="483392" />
		<tag k="waterway" v="stream" />
	</node>
	<node lat="61.480322220361096" lon="11.180963897836131" id="-38786">
		<tag k="name" v="Hovdskarbekken" />
		<tag k="ssr:stedsnr" v="483536" />
		<tag k="waterway" v="stream" />
	</node>
	<node lat="61.44953055705453" lon="10.935105563868055" id="-38793">
		<tag k="name" v="Halvsæterbekken" />
		<tag k="ssr:stedsnr" v="404492" />
		<tag k="waterway" v="stream" />
	</node>
	<node lat="61.4345194417542" lon="11.153644449700925" id="-38800">
		<tag k="name" v="Sæterbekken" />
		<tag k="ssr:stedsnr" v="405339" />
		<tag k="waterway" v="stream" />
	</node>
	<node lat="61.78437222219735" lon="10.435958331968777" id="-38806">
		<tag k="name" v="Killingholmen" />
		<tag k="place" v="islet" />
		<tag k="ssr:stedsnr" v="421508" />
	</node>
	<node lat="61.85042500139393" lon="10.232511104848474" id="-38812">
		<tag k="name" v="Øverhølen" />
		<tag k="place" v="locality" />
		<tag k="ssr:stedsnr" v="423394" />
	</node>
	<node lat="61.20908611295448" lon="11.214199996337664" id="-38817">
		<tag k="name" v="Bjørnmyrbekken" />
		<tag k="ssr:stedsnr" v="432384" />
		<tag k="waterway" v="stream" />
	</node>
	<node lat="61.33364247492321" lon="10.876036117378431" id="-38823">
		<tag k="name" v="Helgetjerna" />
		<tag k="natural" v="water" />
		<tag k="ssr:stedsnr" v="433373" />
		<tag k="water" v="lake" />
	</node>
	<node lat="61.8858638889385" lon="10.26269444175586" id="-38827">
		<tag k="alt_name" v="Hesjestøtjørn" />
		<tag k="name" v="Hesjestøtjørna" />
		<tag k="natural" v="water" />
		<tag k="ssr:stedsnr" v="434571" />
	</node>
	<node lat="61.564338888408145" lon="11.072877783527066" id="-38835">
		<tag k="name" v="Kjemåa" />
		<tag k="ssr:stedsnr" v="435137" />
		<tag k="waterway" v="stream" />
	</node>
	<node lat="61.56425833360832" lon="10.823474991706957" id="-38836">
		<tag k="alt_name" v="Skarvtjønna" />
		<tag k="name" v="Skarvtjørna" />
		<tag k="natural" v="water" />
		<tag k="ssr:stedsnr" v="435138" />
	</node>
	<node lat="61.67593333142642" lon="10.91652777167488" id="-38839">
		<tag k="name" v="Vibekken" />
		<tag k="ssr:stedsnr" v="435088" />
		<tag k="waterway" v="stream" />
	</node>
	<node lat="61.82274444596551" lon="10.374388884880572" id="-38844">
		<tag k="alt_name" v="Kletttjønna" />
		<tag k="name" v="Klettjørn" />
		<tag k="natural" v="water" />
		<tag k="ssr:stedsnr" v="435308" />
	</node>
	<node lat="61.91145833624914" lon="10.422066669372231" id="-38846">
		<tag k="alt_name" v="Åstjønna" />
		<tag k="name" v="Åstjørna" />
		<tag k="natural" v="water" />
		<tag k="ssr:stedsnr" v="435516" />
	</node>
	<node lat="61.726544686994586" lon="10.174122112720532" id="-38850">
		<tag k="name" v="Gututjørnet" />
		<tag k="natural" v="water" />
		<tag k="ssr:stedsnr" v="435974" />
	</node>
	<node lat="61.30738611473242" lon="11.179755556159764" id="-38853">
		<tag k="name" v="Etarmyrbekken" />
		<tag k="ssr:stedsnr" v="493039" />
		<tag k="waterway" v="stream" />
	</node>
	<node lat="61.34252777481666" lon="11.247605553205158" id="-38857">
		<tag k="alt_name" v="Stensøya" />
		<tag k="name" v="Steinøya" />
		<tag k="place" v="island" />
		<tag k="ssr:stedsnr" v="494008" />
	</node>
	<node lat="61.386019440135314" lon="11.160950004205977" id="-38859">
		<tag k="name" v="Spongøya" />
		<tag k="place" v="island" />
		<tag k="ssr:stedsnr" v="494050" />
	</node>
	<node lat="61.33331666387531" lon="10.932025003399456" id="-38861">
		<tag k="name" v="Kvitåa" />
		<tag k="ssr:stedsnr" v="494379" />
		<tag k="waterway" v="stream" />
	</node>
	<node lat="61.49663055593308" lon="11.109127768453348" id="-38863">
		<tag k="alt_name" v="Svestadtjørnet" />
		<tag k="name" v="Svestadtjønna" />
		<tag k="natural" v="water" />
		<tag k="ssr:stedsnr" v="494346" />
	</node>
	<node lat="61.53493888511846" lon="11.060363884981294" id="-38865">
		<tag k="name" v="Stensøya" />
		<tag k="place" v="island" />
		<tag k="ssr:stedsnr" v="464464" />
	</node>
	<node lat="61.26459444457834" lon="11.154386112304408" id="-38868">
		<tag k="name" v="Vassbekken" />
		<tag k="ssr:stedsnr" v="464812" />
		<tag k="waterway" v="stream" />
	</node>
	<node lat="61.73941388734268" lon="10.698633335148957" id="-38870">
		<tag k="name" v="Hirdammen" />
		<tag k="ssr:stedsnr" v="464823" />
		<tag k="waterway" v="dam" />
	</node>
	<node lat="61.44415832991029" lon="11.143961106685268" id="-38877">
		<tag k="alt_name" v="Tronktjernet" />
		<tag k="name" v="Tronktjønna" />
		<tag k="natural" v="water" />
		<tag k="ssr:stedsnr" v="675142" />
	</node>
	<node lat="61.4463805587062" lon="10.785008336510032" id="-38879">
		<tag k="alt_name" v="Stortjernet" />
		<tag k="name" v="Stortjønna" />
		<tag k="natural" v="water" />
		<tag k="ssr:stedsnr" v="675474" />
	</node>
	<node lat="61.352225000925536" lon="11.130261120276822" id="-38882">
		<tag k="name" v="Kvernbekken" />
		<tag k="ssr:stedsnr" v="676058" />
		<tag k="waterway" v="stream" />
	</node>
	<node lat="61.264891666461985" lon="11.360875002480402" id="-38883">
		<tag k="name" v="Vikåa" />
		<tag k="ssr:stedsnr" v="676231" />
		<tag k="waterway" v="stream" />
	</node>
	<node lat="61.579858332017785" lon="10.78866666101156" id="-38887">
		<tag k="alt_name" v="Gardåtjønna" />
		<tag k="name" v="Gardåtjørna" />
		<tag k="natural" v="water" />
		<tag k="ssr:stedsnr" v="677117" />
	</node>
	<node lat="61.57741389332496" lon="10.814749995722474" id="-38888">
		<tag k="name" v="Gardåa" />
		<tag k="ssr:stedsnr" v="677118" />
		<tag k="waterway" v="stream" />
	</node>
	<node lat="61.70850555880036" lon="10.976966663488133" id="-38896">
		<tag k="name" v="Granbekken" />
		<tag k="ssr:stedsnr" v="677178" />
		<tag k="waterway" v="stream" />
	</node>
	<node lat="61.5304027735045" lon="11.140324998369362" id="-38898">
		<tag k="alt_name" v="Vakkertjønna" />
		<tag k="name" v="Vakkertjørna" />
		<tag k="natural" v="water" />
		<tag k="ssr:stedsnr" v="677274" />
	</node>
	<node lat="61.517499996743" lon="11.154855562780853" id="-38899">
		<tag k="alt_name" v="Negardskroktjønna" />
		<tag k="name" v="Nedgardskroktjørna" />
		<tag k="natural" v="water" />
		<tag k="ssr:stedsnr" v="677277" />
	</node>
	<node lat="61.82436111426513" lon="10.252038898078744" id="-38900">
		<tag k="alt_name" v="Hamnabekken" />
		<tag k="name" v="Hamnbekken" />
		<tag k="ssr:stedsnr" v="677358" />
		<tag k="waterway" v="stream" />
	</node>
	<node lat="61.925166667716155" lon="10.508327772120035" id="-38906">
		<tag k="name" v="Blankgryta" />
		<tag k="ssr:stedsnr" v="677425" />
		<tag k="waterway" v="stream" />
	</node>
	<node lat="61.886836106852044" lon="10.135466661087468" id="-38907">
		<tag k="name" v="Svartodden" />
		<tag k="natural" v="cape" />
		<tag k="ssr:stedsnr" v="477619" />
	</node>
	<node lat="61.82395277729761" lon="10.390105559345347" id="-38917">
		<tag k="alt_name" v="Småtjønna;Småtjønnene" />
		<tag k="name" v="Småtjørnane" />
		<tag k="natural" v="water" />
		<tag k="ssr:stedsnr" v="678297" />
		<tag k="water" v="lake" />
	</node>
	<node lat="61.522697220377395" lon="10.773588884922058" id="-38918">
		<tag k="name" v="Krokhølen" />
		<tag k="place" v="locality" />
		<tag k="ssr:stedsnr" v="480658" />
	</node>
	<node lat="61.55104999872515" lon="10.677924999261858" id="-38919">
		<tag k="alt_name" v="Imsostjønna" />
		<tag k="name" v="Imsostjørna" />
		<tag k="natural" v="water" />
		<tag k="ssr:stedsnr" v="678258" />
	</node>
	<node lat="61.85029444728115" lon="10.221363894670187" id="-38921">
		<tag k="name" v="Storhella" />
		<tag k="natural" v="cape" />
		<tag k="ssr:stedsnr" v="481271" />
	</node>
	<node lat="61.7391055597991" lon="10.81580555802871" id="-38925">
		<tag k="name" v="Atnoset" />
		<tag k="natural" v="bay" />
		<tag k="ssr:stedsnr" v="483233" />
	</node>
	<node lat="61.69330277407692" lon="10.791802772699358" id="-38926">
		<tag k="name" v="Røskvolldammen" />
		<tag k="ssr:stedsnr" v="483275" />
		<tag k="waterway" v="dam" />
	</node>
	<node lat="61.55702500188358" lon="11.02924444599127" id="-38928">
		<tag k="alt_name" v="Øvergårdsholmen" />
		<tag k="name" v="Øvergardsholmen" />
		<tag k="place" v="islet" />
		<tag k="ssr:stedsnr" v="483521" />
	</node>
	<node lat="61.57614166871169" lon="11.168880560359463" id="-38929">
		<tag k="name" v="Burudalsbekken" />
		<tag k="ssr:stedsnr" v="483859" />
		<tag k="waterway" v="stream" />
	</node>
	<node lat="61.32319999949362" lon="11.185713879833997" id="-38933">
		<tag k="alt_name" v="Løvenga" />
		<tag k="name" v="Lauvenga" />
		<tag k="ssr:stedsnr" v="493026" />
		<tag k="waterway" v="river" />
	</node>
	<node lat="61.38725832958216" lon="11.002925003743036" id="-38937">
		<tag k="name" v="Rogna" />
		<tag k="ssr:stedsnr" v="493404" />
		<tag k="waterway" v="stream" />
	</node>
	<node lat="61.61153888983056" lon="10.942700001976625" id="-38940">
		<tag k="name" v="Frøsa" />
		<tag k="ssr:stedsnr" v="495016" />
		<tag k="waterway" v="stream" />
	</node>
	<node lat="61.61435277650402" lon="10.851063892705533" id="-38943">
		<tag k="alt_name" v="Garbekken" />
		<tag k="name" v="Gardbekken" />
		<tag k="ssr:stedsnr" v="495029" />
		<tag k="waterway" v="stream" />
	</node>
	<node lat="61.685018770564675" lon="10.888221520041927" id="-38946">
		<tag k="alt_name" v="Rønningstjønna" />
		<tag k="name" v="Rønningstjørnene" />
		<tag k="natural" v="water" />
		<tag k="ssr:stedsnr" v="495078" />
		<tag k="water" v="lake" />
	</node>
	<node lat="61.55009999887737" lon="10.955777777744144" id="-38948">
		<tag k="name" v="Trybekken" />
		<tag k="ssr:stedsnr" v="495113" />
		<tag k="waterway" v="stream" />
	</node>
	<node lat="61.509799998842354" lon="11.172463880883035" id="-38955">
		<tag k="alt_name" v="Vestgardtjørna" />
		<tag k="name" v="Vestgardstjønna" />
		<tag k="natural" v="water" />
		<tag k="ssr:stedsnr" v="495267" />
	</node>
	<node lat="61.442113885672136" lon="10.938300003132179" id="-38975">
		<tag k="name" v="Kløfte" />
		<tag k="place" v="locality" />
		<tag k="ssr:stedsnr" v="525626" />
	</node>
	<node lat="61.48575555760177" lon="10.89205277794705" id="-38983">
		<tag k="name" v="Nybrubekken" />
		<tag k="ssr:stedsnr" v="540523" />
		<tag k="waterway" v="stream" />
	</node>
	<node lat="61.426530554409894" lon="11.199936117821176" id="-38984">
		<tag k="name" v="Rosetbekken" />
		<tag k="ssr:stedsnr" v="541266" />
		<tag k="waterway" v="stream" />
	</node>
	<node lat="61.86469722547682" lon="10.532241672189915" id="-38990">
		<tag k="name" v="Småbekken" />
		<tag k="ssr:stedsnr" v="543283" />
		<tag k="waterway" v="stream" />
	</node>
	<node lat="61.49030555219965" lon="11.16676667041544" id="-38993">
		<tag k="name" v="Skartjønna" />
		<tag k="natural" v="water" />
		<tag k="ssr:stedsnr" v="543820" />
	</node>
	<node lat="61.508205554725535" lon="11.057219449462872" id="-38997">
		<tag k="name" v="Storsand" />
		<tag k="place" v="islet" />
		<tag k="ssr:stedsnr" v="544770" />
	</node>
	<node lat="61.52666111352274" lon="11.055688898245371" id="-39002">
		<tag k="name" v="Kvisla" />
		<tag k="place" v="islet" />
		<tag k="ssr:stedsnr" v="544803" />
	</node>
	<node lat="61.278133329633214" lon="10.98161666501947" id="-39011">
		<tag k="alt_name" v="Himmelbogen" />
		<tag k="name" v="Hemmelbogen" />
		<tag k="ssr:stedsnr" v="554400" />
		<tag k="waterway" v="stream" />
	</node>
	<node lat="61.74082222432309" lon="10.782286119887603" id="-39013">
		<tag k="name" v="Atna" />
		<tag k="ssr:stedsnr" v="555186" />
		<tag k="waterway" v="river" />
	</node>
	<node lat="61.777038889228336" lon="10.171616667633582" id="-39014">
		<tag k="name" v="Fantbekken" />
		<tag k="ssr:stedsnr" v="555366" />
		<tag k="waterway" v="stream" />
	</node>
	<node lat="61.558800000948466" lon="10.815355564196961" id="-39017">
		<tag k="alt_name" v="Volltjønna" />
		<tag k="name" v="Volltjørnene" />
		<tag k="natural" v="water" />
		<tag k="ssr:stedsnr" v="556114" />
	</node>
	<node lat="61.794916667013815" lon="10.42495000616987" id="-39023">
		<tag k="name" v="Kvernbekken" />
		<tag k="ssr:stedsnr" v="556327" />
		<tag k="waterway" v="stream" />
	</node>
	<node lat="61.721466669137165" lon="10.498663892408187" id="-39027">
		<tag k="name" v="Sørebekken" />
		<tag k="ssr:stedsnr" v="556214" />
		<tag k="waterway" v="stream" />
	</node>
	<node lat="61.287779767813966" lon="11.145150863847022" id="-39057">
		<tag k="name" v="Storhovden" />
		<tag k="natural" v="water" />
		<tag k="ssr:stedsnr" v="614220" />
		<tag k="water" v="lake" />
	</node>
	<node lat="61.48233055295267" lon="10.792800002790074" id="-39062">
		<tag k="fixme" v="multiple name tags, choose one and add the other to alt_name" />
		<tag k="name" v="Langgårds-Eldåa;Langdalseldåa" />
		<tag k="ssr:stedsnr" v="614466" />
		<tag k="waterway" v="river" />
	</node>
	<node lat="61.26050188904899" lon="10.975468263727375" id="-39067">
		<tag k="alt_name" v="Himmelsjøen" />
		<tag k="name" v="Hemmelsjøen" />
		<tag k="natural" v="water" />
		<tag k="ssr:stedsnr" v="615357" />
		<tag k="water" v="lake" />
	</node>
	<node lat="61.65189999978279" lon="11.066502776921993" id="-39079">
		<tag k="name" v="Røtbekken" />
		<tag k="ssr:stedsnr" v="617055" />
		<tag k="waterway" v="stream" />
	</node>
	<node lat="61.68607499897986" lon="10.875436117137845" id="-39082">
		<tag k="alt_name" v="Karlstadtjørn, søre;Søndre Karlstadtjønna" />
		<tag k="name" v="Søre Karlstadtjørn" />
		<tag k="natural" v="water" />
		<tag k="ssr:stedsnr" v="617233" />
	</node>
	<node lat="61.41069722630521" lon="11.091469437146092" id="-39096">
		<tag k="name" v="Husbekken" />
		<tag k="ssr:stedsnr" v="646231" />
		<tag k="waterway" v="stream" />
	</node>
	<node lat="61.74126944594666" lon="10.641422224453725" id="-39099">
		<tag k="name" v="Skarbekken" />
		<tag k="ssr:stedsnr" v="646773" />
		<tag k="waterway" v="stream" />
	</node>
	<node lat="61.464644445403145" lon="11.039494448307583" id="-39104">
		<tag k="name" v="Vesle Imsa" />
		<tag k="ssr:stedsnr" v="647812" />
		<tag k="waterway" v="stream" />
	</node>
	<node lat="61.40671111283568" lon="11.049861108049786" id="-39105">
		<tag k="name" v="Østre Rogndammen" />
		<tag k="ssr:stedsnr" v="647901" />
		<tag k="waterway" v="dam" />
	</node>
	<node lat="61.65411944438493" lon="10.916716672632793" id="-39109">
		<tag k="name" v="Stasjonsbekken" />
		<tag k="ssr:stedsnr" v="707125" />
		<tag k="waterway" v="stream" />
	</node>
	<node lat="61.55453888903982" lon="11.025758337140509" id="-39113">
		<tag k="name" v="Risholmen" />
		<tag k="place" v="islet" />
		<tag k="ssr:stedsnr" v="707469" />
	</node>
	<node lat="61.54323888519682" lon="11.053627782241838" id="-39115">
		<tag k="name" v="Nystumoøya" />
		<tag k="place" v="island" />
		<tag k="ssr:stedsnr" v="707473" />
	</node>
	<node lat="61.445202780502335" lon="10.85916111653923" id="-39117">
		<tag k="name" v="Fjerdingsbekken" />
		<tag k="ssr:stedsnr" v="707494" />
		<tag k="waterway" v="stream" />
	</node>
	<node lat="61.84379444660327" lon="10.454733335351994" id="-39118">
		<tag k="name" v="Blankgrytbrottet" />
		<tag k="natural" v="beach" />
		<tag k="ssr:stedsnr" v="707885" />
	</node>
	<node lat="61.86916389115013" lon="10.167105551861608" id="-39123">
		<tag k="alt_name" v="Søndre Slåbekken" />
		<tag k="name" v="Søre Slåbekken" />
		<tag k="ssr:stedsnr" v="659612" />
		<tag k="waterway" v="stream" />
	</node>
	<node lat="61.423180560062676" lon="10.851891658117822" id="-39125">
		<tag k="name" v="Bubekken" />
		<tag k="ssr:stedsnr" v="661532" />
		<tag k="waterway" v="stream" />
	</node>
	<node lat="61.29022778182558" lon="11.35680278196385" id="-39140">
		<tag k="name" v="Hattbekken" />
		<tag k="ssr:stedsnr" v="709867" />
		<tag k="waterway" v="stream" />
	</node>
	<node lat="61.37462499650394" lon="11.048347219197943" id="-39141">
		<tag k="name" v="Kolåsmyrtjønna" />
		<tag k="natural" v="water" />
		<tag k="ssr:stedsnr" v="709998" />
	</node>
	<node lat="61.34693333690535" lon="11.19173611249221" id="-39143">
		<tag k="name" v="Ørrettjerndammen" />
		<tag k="natural" v="water" />
		<tag k="ssr:stedsnr" v="890092" />
	</node>
	<node lat="61.53111388595095" lon="11.054533331505667" id="-39149">
		<tag k="name" v="Vestgardsvollen" />
		<tag k="place" v="island" />
		<tag k="ssr:stedsnr" v="890833" />
	</node>
	<node lat="61.511492013275316" lon="10.881838926136224" id="-39156">
		<tag k="name" v="Sjøbekken" />
		<tag k="ssr:stedsnr" v="675496" />
		<tag k="waterway" v="stream" />
	</node>
	<node lat="61.27524667328214" lon="11.036794333228436" id="-39162">
		<tag k="name" v="Stauptjernet" />
		<tag k="natural" v="water" />
		<tag k="ssr:stedsnr" v="676384" />
	</node>
	<node lat="61.28835833371114" lon="10.948591663493543" id="-39163">
		<tag k="alt_name" v="Storbekken, s" />
		<tag k="name" v="Søre Storbekken" />
		<tag k="ssr:stedsnr" v="676386" />
		<tag k="waterway" v="stream" />
	</node>
	<node lat="61.776694440964654" lon="10.24058611185905" id="-39173">
		<tag k="alt_name" v="Setningsjøen;Setningssjøen" />
		<tag k="name" v="Setningen" />
		<tag k="natural" v="water" />
		<tag k="ssr:stedsnr" v="677409" />
		<tag k="water" v="lake" />
	</node>
	<node lat="61.8440833316998" lon="10.320341661856213" id="-39175">
		<tag k="name" v="Finnsjøbekken" />
		<tag k="ssr:stedsnr" v="677382" />
		<tag k="waterway" v="stream" />
	</node>
	<node lat="61.76341110817345" lon="10.10083888675612" id="-39176">
		<tag k="name" v="Svabutjørna" />
		<tag k="natural" v="water" />
		<tag k="ssr:stedsnr" v="677385" />
	</node>
	<node lat="61.752219447672125" lon="10.06320555945589" id="-39177">
		<tag k="alt_name" v="Rundhøtjørnane" />
		<tag k="name" v="Rundhøtjørnene" />
		<tag k="natural" v="water" />
		<tag k="ssr:stedsnr" v="677386" />
		<tag k="water" v="lake" />
	</node>
	<node lat="61.79540000418396" lon="10.121558328817052" id="-39178">
		<tag k="name" v="Skjerbekken" />
		<tag k="ssr:stedsnr" v="677398" />
		<tag k="waterway" v="stream" />
	</node>
	<node lat="61.721413889841905" lon="10.664322227373267" id="-39184">
		<tag k="name" v="Hølbekken" />
		<tag k="ssr:stedsnr" v="678190" />
		<tag k="waterway" v="stream" />
	</node>
	<node lat="61.549783334904234" lon="11.125886119060608" id="-39186">
		<tag k="name" v="Skånsjøbekken" />
		<tag k="ssr:stedsnr" v="678312" />
		<tag k="waterway" v="stream" />
	</node>
	<node lat="61.42842499758439" lon="11.047969449860629" id="-39190">
		<tag k="name" v="Ellingsbekken" />
		<tag k="ssr:stedsnr" v="891889" />
		<tag k="waterway" v="stream" />
	</node>
	<node lat="61.39268889225077" lon="10.98616389747798" id="-39192">
		<tag k="name" v="Vestre Rogndammen" />
		<tag k="ssr:stedsnr" v="891899" />
		<tag k="waterway" v="dam" />
	</node>
	<node lat="61.37699166872934" lon="10.968822213850382" id="-39193">
		<tag k="name" v="Tøråstjønna" />
		<tag k="natural" v="water" />
		<tag k="ssr:stedsnr" v="891947" />
	</node>
	<node lat="61.7321944463074" lon="10.730347227752219" id="-39198">
		<tag k="name" v="Storfallet" />
		<tag k="natural" v="waterfall" />
		<tag k="ssr:stedsnr" v="707208" />
	</node>
	<node lat="61.68714444284538" lon="10.696008340062045" id="-39201">
		<tag k="name" v="Lortbekken" />
		<tag k="ssr:stedsnr" v="707808" />
		<tag k="waterway" v="stream" />
	</node>
	<node lat="61.8424388897664" lon="10.403575004470003" id="-39202">
		<tag k="name" v="Bakevja" />
		<tag k="place" v="locality" />
		<tag k="ssr:stedsnr" v="707906" />
	</node>
	<node lat="61.24202777845089" lon="11.304933332102447" id="-39207">
		<tag k="name" v="Sagbekken" />
		<tag k="ssr:stedsnr" v="709529" />
		<tag k="waterway" v="stream" />
	</node>
	<node lat="61.42083610699159" lon="11.211519438604553" id="-39208">
		<tag k="name" v="Nysæterbekken" />
		<tag k="ssr:stedsnr" v="709810" />
		<tag k="waterway" v="stream" />
	</node>
	<node lat="61.897649996330834" lon="10.096913887168267" id="-39210">
		<tag k="name" v="Svarttjønnkroken" />
		<tag k="natural" v="water" />
		<tag k="ssr:stedsnr" v="720578" />
		<tag k="water" v="lake" />
	</node>
	<node lat="61.57389999626952" lon="10.909155546595317" id="-39212">
		<tag k="name" v="Måsåmyrbekken" />
		<tag k="ssr:stedsnr" v="725119" />
		<tag k="waterway" v="stream" />
	</node>
	<node lat="61.38354226143024" lon="11.127995195447857" id="-39214">
		<tag k="alt_name" v="Søndre Stortjønna" />
		<tag k="name" v="Søre Stortjønna" />
		<tag k="natural" v="water" />
		<tag k="ssr:stedsnr" v="726271" />
	</node>
	<node lat="61.232524997952034" lon="11.260694442644995" id="-39222">
		<tag k="name" v="Gravingsbekken" />
		<tag k="ssr:stedsnr" v="735380" />
		<tag k="waterway" v="stream" />
	</node>
	<node lat="61.23036944162372" lon="11.157286106186197" id="-39223">
		<tag k="name" v="Hovda" />
		<tag k="ssr:stedsnr" v="735382" />
		<tag k="waterway" v="river" />
	</node>
	<node lat="61.440956593064605" lon="11.035093697371947" id="-39224">
		<tag k="alt_name" v="Harptjernet" />
		<tag k="name" v="Harptjønna" />
		<tag k="natural" v="water" />
		<tag k="ssr:stedsnr" v="735423" />
	</node>
	<node lat="61.447127779052785" lon="11.072102772292086" id="-39225">
		<tag k="name" v="Sagbekken" />
		<tag k="ssr:stedsnr" v="735428" />
		<tag k="waterway" v="stream" />
	</node>
	<node lat="61.46217500297694" lon="11.12691665978151" id="-39228">
		<tag k="alt_name" v="Holmtjernet" />
		<tag k="name" v="Holmtjønna" />
		<tag k="natural" v="water" />
		<tag k="ssr:stedsnr" v="736110" />
	</node>
	<node lat="61.45548611071183" lon="11.2034944385153" id="-39229">
		<tag k="alt_name" v="Lektjønna" />
		<tag k="name" v="Leiktjernet" />
		<tag k="natural" v="water" />
		<tag k="ssr:stedsnr" v="736119" />
	</node>
	<node lat="61.68937499580027" lon="10.87340277361339" id="-39239">
		<tag k="alt_name" v="Karlstadtjørn, nordre;Nordre Karlstadtjønna" />
		<tag k="name" v="Nordre Karlstadtjørn" />
		<tag k="natural" v="water" />
		<tag k="ssr:stedsnr" v="738204" />
	</node>
	<node lat="61.906700004557415" lon="10.090258327094812" id="-39251">
		<tag k="name" v="Hørsgrava" />
		<tag k="natural" v="water" />
		<tag k="ssr:stedsnr" v="902595" />
	</node>
	<node lat="61.733169446185805" lon="10.190000000469126" id="-39252">
		<tag k="name" v="Mubekken" />
		<tag k="ssr:stedsnr" v="738959" />
		<tag k="waterway" v="stream" />
	</node>
	<node lat="61.75555278053981" lon="10.47021110470344" id="-39261">
		<tag k="name" v="Kvanskarbekken" />
		<tag k="ssr:stedsnr" v="906541" />
		<tag k="waterway" v="stream" />
	</node>
	<node lat="61.21978610764006" lon="11.077497218542858" id="-39262">
		<tag k="name" v="Hemla" />
		<tag k="ssr:stedsnr" v="918768" />
		<tag k="waterway" v="river" />
	</node>
	<node lat="61.55329921517603" lon="11.02250227790696" id="-39270">
		<tag k="name" v="Tremoholmen" />
		<tag k="place" v="island" />
		<tag k="ssr:stedsnr" v="768448" />
	</node>
	<node lat="61.387633330799964" lon="10.908097226098292" id="-39272">
		<tag k="name" v="Kroka" />
		<tag k="natural" v="water" />
		<tag k="ssr:stedsnr" v="768693" />
		<tag k="water" v="lake" />
	</node>
	<node lat="61.466372221409884" lon="11.037619438594461" id="-39275">
		<tag k="name" v="Søstubekken" />
		<tag k="ssr:stedsnr" v="768804" />
		<tag k="waterway" v="stream" />
	</node>
	<node lat="61.53149444780971" lon="11.071436107958696" id="-39276">
		<tag k="name" v="Bekk-bekken" />
		<tag k="ssr:stedsnr" v="768835" />
		<tag k="waterway" v="stream" />
	</node>
	<node lat="61.402372222701736" lon="10.963013891560044" id="-39281">
		<tag k="name" v="Tjønnbutjønna" />
		<tag k="natural" v="water" />
		<tag k="ssr:stedsnr" v="769871" />
	</node>
	<node lat="61.7876638919025" lon="10.503986110204703" id="-39284">
		<tag k="name" v="Døløya" />
		<tag k="place" v="island" />
		<tag k="ssr:stedsnr" v="770966" />
	</node>
	<node lat="61.76578333083428" lon="10.34793055103684" id="-39288">
		<tag k="name" v="Gransvingbekken" />
		<tag k="ssr:stedsnr" v="908414" />
		<tag k="waterway" v="stream" />
	</node>
	<node lat="61.84714999865218" lon="10.250449993749475" id="-39290">
		<tag k="name" v="Løken" />
		<tag k="natural" v="bay" />
		<tag k="ssr:stedsnr" v="908386" />
	</node>
	<node lat="61.48723333590407" lon="11.098738893945637" id="-39292">
		<tag k="name" v="Blisterbekken" />
		<tag k="ssr:stedsnr" v="908537" />
		<tag k="waterway" v="stream" />
	</node>
	<node lat="61.523238887422714" lon="11.05307778406779" id="-39302">
		<tag k="name" v="Tomteøra" />
		<tag k="place" v="islet" />
		<tag k="ssr:stedsnr" v="909794" />
	</node>
	<node lat="61.62621666676517" lon="10.894483328021485" id="-39303">
		<tag k="name" v="Sørøya" />
		<tag k="place" v="island" />
		<tag k="ssr:stedsnr" v="783097" />
	</node>
	<node lat="61.49890555604355" lon="11.128022216302286" id="-39311">
		<tag k="name" v="Landtjønna" />
		<tag k="natural" v="water" />
		<tag k="ssr:stedsnr" v="786526" />
	</node>
	<node lat="61.47956389099997" lon="11.124911116812248" id="-39318">
		<tag k="alt_name" v="Lorttjernet" />
		<tag k="name" v="Lorttjønna" />
		<tag k="natural" v="water" />
		<tag k="ssr:stedsnr" v="797105" />
	</node>
	<node lat="61.47962499885425" lon="11.147527785828075" id="-39319">
		<tag k="alt_name" v="Okstjernet" />
		<tag k="name" v="Okstjønna" />
		<tag k="natural" v="water" />
		<tag k="ssr:stedsnr" v="797107" />
	</node>
	<node lat="61.46381944682823" lon="11.16894444845744" id="-39320">
		<tag k="alt_name" v="Sløbekktjørnet" />
		<tag k="name" v="Sløbekktjønna" />
		<tag k="natural" v="water" />
		<tag k="ssr:stedsnr" v="797115" />
	</node>
	<node lat="61.32396388984961" lon="11.190980558108373" id="-39322">
		<tag k="alt_name" v="Bjønnkjelda" />
		<tag k="name" v="Bjørnkjelda" />
		<tag k="natural" v="water" />
		<tag k="ssr:stedsnr" v="797008" />
	</node>
	<node lat="61.62729166687829" lon="10.941750005135258" id="-39332">
		<tag k="name" v="Libekken" />
		<tag k="ssr:stedsnr" v="799024" />
		<tag k="waterway" v="stream" />
	</node>
	<node lat="61.51742777826559" lon="11.139527775521648" id="-39336">
		<tag k="alt_name" v="Mørbekktjørna" />
		<tag k="name" v="Mørbekktjønna" />
		<tag k="natural" v="water" />
		<tag k="ssr:stedsnr" v="799319" />
	</node>
	<node lat="61.86035555436607" lon="10.277152773111068" id="-39343">
		<tag k="name" v="Storbekken" />
		<tag k="ssr:stedsnr" v="799389" />
		<tag k="waterway" v="stream" />
	</node>
	<node lat="61.90192777635125" lon="10.39634999062203" id="-39346">
		<tag k="name" v="Slåttbekken" />
		<tag k="ssr:stedsnr" v="799490" />
		<tag k="waterway" v="stream" />
	</node>
	<node lat="61.45735833316568" lon="11.068975003435696" id="-39356">
		<tag k="name" v="Grindfossbekken" />
		<tag k="ssr:stedsnr" v="917429" />
		<tag k="waterway" v="stream" />
	</node>
	<node lat="61.449366670124405" lon="11.202594450424689" id="-39357">
		<tag k="name" v="Styggbekken" />
		<tag k="ssr:stedsnr" v="918129" />
		<tag k="waterway" v="stream" />
	</node>
	<node lat="61.44879999845441" lon="11.192158333706827" id="-39358">
		<tag k="name" v="Sløbekken" />
		<tag k="ssr:stedsnr" v="918130" />
		<tag k="waterway" v="stream" />
	</node>
	<node lat="61.25565277445158" lon="11.157019435717302" id="-39366">
		<tag k="name" v="Sløbekken" />
		<tag k="ssr:stedsnr" v="918283" />
		<tag k="waterway" v="stream" />
	</node>
	<node lat="61.35510555723856" lon="10.9260888971885" id="-39369">
		<tag k="name" v="Svartåstjernet" />
		<tag k="natural" v="water" />
		<tag k="ssr:stedsnr" v="918463" />
	</node>
	<node lat="61.76545833008341" lon="10.302452786379831" id="-39370">
		<tag k="name" v="Torgerslåbekken" />
		<tag k="ssr:stedsnr" v="920367" />
		<tag k="waterway" v="stream" />
	</node>
	<node lat="61.772574995983206" lon="10.289147216103682" id="-39371">
		<tag k="alt_name" v="Storåstjønnene" />
		<tag k="name" v="Storåstjørnene" />
		<tag k="natural" v="water" />
		<tag k="ssr:stedsnr" v="920372" />
		<tag k="water" v="lake" />
	</node>
	<node lat="61.31500555575959" lon="10.836175000675865" id="-39378">
		<tag k="name" v="Smørslåa" />
		<tag k="ssr:stedsnr" v="919392" />
		<tag k="waterway" v="stream" />
	</node>
	<node lat="61.510797221123156" lon="11.08027499607251" id="-39383">
		<tag k="name" v="Landbekken" />
		<tag k="ssr:stedsnr" v="920071" />
		<tag k="waterway" v="stream" />
	</node>
	<node lat="61.74385833283375" lon="10.371441657489344" id="-39385">
		<tag k="alt_name" v="Øvredalsbekken" />
		<tag k="name" v="Øverdalsbekken" />
		<tag k="ssr:stedsnr" v="920168" />
		<tag k="waterway" v="stream" />
	</node>
	<node lat="61.71823888636152" lon="10.641502770353629" id="-39386">
		<tag k="alt_name" v="Hira" />
		<tag k="name" v="Stor-Hira" />
		<tag k="ssr:stedsnr" v="920176" />
		<tag k="waterway" v="river" />
	</node>
	<node lat="61.66274722346359" lon="10.882338888188977" id="-39388">
		<tag k="alt_name" v="Bjøråa, nordre;Bjøråa" />
		<tag k="name" v="Nordre Bjøråa" />
		<tag k="ssr:stedsnr" v="920184" />
		<tag k="waterway" v="river" />
	</node>
	<node lat="61.8881194413221" lon="10.401558327649257" id="-39390">
		<tag k="name" v="Langstilla" />
		<tag k="place" v="locality" />
		<tag k="ssr:stedsnr" v="920478" />
	</node>
	<node lat="61.90630278152501" lon="10.104744448664306" id="-39392">
		<tag k="alt_name" v="Hørsa" />
		<tag k="name" v="Hyrsa" />
		<tag k="ssr:stedsnr" v="920613" />
		<tag k="waterway" v="stream" />
	</node>
	<node lat="61.78640833267384" lon="10.363772220684353" id="-39396">
		<tag k="name" v="Djupdalsbekken" />
		<tag k="ssr:stedsnr" v="921262" />
		<tag k="waterway" v="stream" />
	</node>
	<node lat="61.245694448149216" lon="11.241280558471406" id="-39406">
		<tag k="name" v="Lågforbekken" />
		<tag k="ssr:stedsnr" v="828483" />
		<tag k="waterway" v="stream" />
	</node>
	<node lat="61.449627773652175" lon="10.851119444517252" id="-39411">
		<tag k="name" v="Blæsterbekken" />
		<tag k="ssr:stedsnr" v="829514" />
		<tag k="waterway" v="stream" />
	</node>
	<node lat="61.40114999922082" lon="10.89816388897928" id="-39415">
		<tag k="name" v="Stenbekken" />
		<tag k="ssr:stedsnr" v="829687" />
		<tag k="waterway" v="stream" />
	</node>
	<node lat="61.56191944084287" lon="10.740913885415319" id="-39418">
		<tag k="name" v="Saukjølla" />
		<tag k="natural" v="spring" />
		<tag k="ssr:stedsnr" v="829876" />
	</node>
	<node lat="61.75052777505465" lon="10.868275003893585" id="-39427">
		<tag k="name" v="Grensepytten" />
		<tag k="natural" v="water" />
		<tag k="ssr:stedsnr" v="846425" />
		<tag k="water" v="pond" />
	</node>
	<node lat="61.76601388727584" lon="10.454613882287752" id="-39430">
		<tag k="name" v="Gammelsæterbekken" />
		<tag k="ssr:stedsnr" v="846516" />
		<tag k="waterway" v="stream" />
	</node>
	<node lat="61.6643055543884" lon="11.040955556731383" id="-39433">
		<tag k="name" v="Klarbekken" />
		<tag k="ssr:stedsnr" v="847845" />
		<tag k="waterway" v="stream" />
	</node>
	<node lat="61.21662499676083" lon="11.218133339342097" id="-39439">
		<tag k="name" v="Mørkesmyrbekken" />
		<tag k="ssr:stedsnr" v="856438" />
		<tag k="waterway" v="stream" />
	</node>
	<node lat="61.58268055117141" lon="10.782216670300794" id="-39445">
		<tag k="alt_name" v="Rundtjønna" />
		<tag k="name" v="Rundtjørna" />
		<tag k="natural" v="water" />
		<tag k="ssr:stedsnr" v="859106" />
	</node>
	<node lat="61.88106388913888" lon="10.173591669097611" id="-39451">
		<tag k="name" v="Atnsjøen" />
		<tag k="natural" v="water" />
		<tag k="ssr:stedsnr" v="859560" />
		<tag k="water" v="lake" />
	</node>
	<node lat="61.74734166522654" lon="10.382633327053302" id="-39463">
		<tag k="name" v="Vesterbekken" />
		<tag k="ssr:stedsnr" v="860212" />
		<tag k="waterway" v="stream" />
	</node>
	<node lat="61.73522778065733" lon="10.249330558803337" id="-39467">
		<tag k="alt_name" v="Skjærbekken" />
		<tag k="name" v="Skjerbekken" />
		<tag k="ssr:stedsnr" v="860963" />
		<tag k="waterway" v="stream" />
	</node>
	<node lat="61.540400001152435" lon="11.043577779184416" id="-39476">
		<tag k="name" v="Sauholmen" />
		<tag k="place" v="islet" />
		<tag k="ssr:stedsnr" v="889445" />
	</node>
	<node lat="61.53498611335109" lon="11.048936104828112" id="-39477">
		<tag k="name" v="Lijordseggholmen" />
		<tag k="place" v="islet" />
		<tag k="ssr:stedsnr" v="889447" />
	</node>
	<node lat="61.5379027802379" lon="11.05932500092552" id="-39478">
		<tag k="name" v="Stubbøya" />
		<tag k="place" v="island" />
		<tag k="ssr:stedsnr" v="889458" />
	</node>
	<node lat="61.45733055485646" lon="11.046922213720425" id="-39480">
		<tag k="name" v="Messeltfossen" />
		<tag k="natural" v="waterfall" />
		<tag k="ssr:stedsnr" v="890801" />
	</node>
	<node lat="61.84315277904648" lon="10.163397228457079" id="-39483">
		<tag k="name" v="Midtbrennsætertjønna" />
		<tag k="natural" v="water" />
		<tag k="ssr:stedsnr" v="902918" />
	</node>
	<node lat="61.60542499625815" lon="10.960161111279163" id="-39485">
		<tag k="name" v="Revedalsholmen" />
		<tag k="place" v="islet" />
		<tag k="ssr:stedsnr" v="905254" />
	</node>
	<node lat="61.790108335088235" lon="10.221186105810974" id="-39490">
		<tag k="name" v="Tuvtjønna" />
		<tag k="natural" v="water" />
		<tag k="ssr:stedsnr" v="907255" />
	</node>
	<node lat="61.87502777333825" lon="10.293755561522156" id="-39492">
		<tag k="name" v="Vintervegstilla" />
		<tag k="natural" v="water" />
		<tag k="ssr:stedsnr" v="907603" />
		<tag k="water" v="lake" />
	</node>
	<node lat="61.53456944408915" lon="11.129933330512538" id="-39497">
		<tag k="name" v="Vakkertjønnbekken" />
		<tag k="ssr:stedsnr" v="909635" />
		<tag k="waterway" v="stream" />
	</node>
	<node lat="61.48458333621006" lon="10.964488882831773" id="-39502">
		<tag k="alt_name" v="Leråa" />
		<tag k="name" v="Leiråa" />
		<tag k="ssr:stedsnr" v="918518" />
		<tag k="waterway" v="stream" />
	</node>
	<node lat="61.32314444014357" lon="11.131294443138431" id="-39503">
		<tag k="alt_name" v="Hulbekken" />
		<tag k="name" v="Hullbekken" />
		<tag k="ssr:stedsnr" v="919006" />
		<tag k="waterway" v="stream" />
	</node>
	<node lat="61.62011110848785" lon="10.934633337820232" id="-39510">
		<tag k="name" v="Brennbekken" />
		<tag k="ssr:stedsnr" v="920022" />
		<tag k="waterway" v="stream" />
	</node>
	<node lat="61.66002500335806" lon="10.970166673733134" id="-39513">
		<tag k="alt_name" v="Letjønna" />
		<tag k="name" v="Letjørna" />
		<tag k="natural" v="water" />
		<tag k="ssr:stedsnr" v="920057" />
	</node>
	<node lat="61.542425003154456" lon="10.824075001766916" id="-39515">
		<tag k="name" v="Bubekken" />
		<tag k="ssr:stedsnr" v="920095" />
		<tag k="waterway" v="stream" />
	</node>
	<node lat="61.879700004187306" lon="10.40739444885504" id="-39521">
		<tag k="name" v="Storgryta" />
		<tag k="ssr:stedsnr" v="920454" />
		<tag k="waterway" v="river" />
	</node>
	<node lat="61.56651389079613" lon="11.012252770196373" id="-39525">
		<tag k="name" v="Storresøya" />
		<tag k="place" v="island" />
		<tag k="ssr:stedsnr" v="950610" />
	</node>
	<node lat="61.354949997109074" lon="11.223911118222958" id="-39539">
		<tag k="name" v="Vesleøya" />
		<tag k="place" v="islet" />
		<tag k="ssr:stedsnr" v="968743" />
	</node>
	<node lat="61.571463885902894" lon="11.158180561894623" id="-39540">
		<tag k="name" v="Sunndalsbekken" />
		<tag k="ssr:stedsnr" v="968838" />
		<tag k="waterway" v="stream" />
	</node>
	<node lat="61.441893178526584" lon="10.93831094603751" id="-39550">
		<tag k="name" v="Eldåa" />
		<tag k="ssr:stedsnr" v="971902" />
		<tag k="waterway" v="river" />
	</node>
	<node lat="61.442758331701825" lon="10.924841658937417" id="-39560">
		<tag k="alt_name" v="Nordre Eldåa;Eldåa, nordre" />
		<tag k="name" v="Nørdre Eldåa" />
		<tag k="ssr:stedsnr" v="7435" />
		<tag k="waterway" v="river" />
	</node>
	<node lat="61.24593611025442" lon="11.12573054974822" id="-39562">
		<tag k="name" v="Svartåa" />
		<tag k="ssr:stedsnr" v="7374" />
		<tag k="waterway" v="stream" />
	</node>
	<node lat="61.697066669797685" lon="10.753263889757486" id="-39566">
		<tag k="name" v="Bjørsjøen" />
		<tag k="natural" v="water" />
		<tag k="ssr:stedsnr" v="10196" />
		<tag k="water" v="lake" />
	</node>
	<node lat="61.8372500015227" lon="10.172111107662273" id="-39568">
		<tag k="alt_name" v="Laugartjønna" />
		<tag k="name" v="Laugartjørna" />
		<tag k="natural" v="water" />
		<tag k="ssr:stedsnr" v="10361" />
	</node>
	<node lat="61.32043691893801" lon="10.908976206942473" id="-39573">
		<tag k="alt_name" v="Møklebysjøen" />
		<tag k="name" v="Myklebysjøen" />
		<tag k="natural" v="water" />
		<tag k="ssr:stedsnr" v="8424" />
		<tag k="water" v="lake" />
	</node>
	<node lat="61.355249998345485" lon="11.226780560968503" id="-39577">
		<tag k="name" v="Revøya" />
		<tag k="place" v="island" />
		<tag k="ssr:stedsnr" v="9029" />
	</node>
	<node lat="61.49808611414253" lon="11.15214444199394" id="-39578">
		<tag k="alt_name" v="Smalhovdtjørnet" />
		<tag k="name" v="Smalhovdtjønna" />
		<tag k="natural" v="water" />
		<tag k="ssr:stedsnr" v="9364" />
	</node>
	<node lat="61.85173332924409" lon="10.150238884939125" id="-39587">
		<tag k="name" v="Loken" />
		<tag k="ssr:stedsnr" v="10387" />
		<tag k="waterway" v="stream" />
	</node>
	<node lat="61.857894442245254" lon="10.577686105418385" id="-39589">
		<tag k="alt_name" v="Gråtjønna" />
		<tag k="name" v="Gråtjørna" />
		<tag k="natural" v="water" />
		<tag k="ssr:stedsnr" v="10459" />
	</node>
	<node lat="61.908409608089805" lon="10.088195189651616" id="-39592">
		<tag k="alt_name" v="Hessetjørn;Hessetjønna" />
		<tag k="name" v="Hessetjørna" />
		<tag k="natural" v="water" />
		<tag k="ssr:stedsnr" v="10578" />
	</node>
	<node lat="61.76249444012756" lon="10.41219166125855" id="-39596">
		<tag k="name" v="Klettbekken" />
		<tag k="ssr:stedsnr" v="11272" />
		<tag k="waterway" v="stream" />
	</node>
	<node lat="61.379186111386126" lon="10.965791671103752" id="-39615">
		<tag k="name" v="Tøråsbekken" />
		<tag k="ssr:stedsnr" v="42997" />
		<tag k="waterway" v="stream" />
	</node>
	<node lat="61.58996389113499" lon="10.861380551333609" id="-39618">
		<tag k="name" v="Svantjønna" />
		<tag k="natural" v="water" />
		<tag k="ssr:stedsnr" v="55438" />
	</node>
	<node lat="61.7879666711551" lon="10.539124999336972" id="-39621">
		<tag k="name" v="Lortgåsenget" />
		<tag k="place" v="islet" />
		<tag k="ssr:stedsnr" v="55971" />
	</node>
	<node lat="61.865294441875236" lon="10.30344999638659" id="-39625">
		<tag k="name" v="Skarvstilla" />
		<tag k="natural" v="water" />
		<tag k="ssr:stedsnr" v="57614" />
		<tag k="water" v="lake" />
	</node>
	<node lat="61.862683337098446" lon="10.343250003766014" id="-39626">
		<tag k="alt_name" v="Søndre Hattlibekken" />
		<tag k="name" v="Søre Hattlibekken" />
		<tag k="ssr:stedsnr" v="57617" />
		<tag k="waterway" v="stream" />
	</node>
	<node lat="61.765388889151055" lon="10.335511113254283" id="-39629">
		<tag k="name" v="Storslåbekken" />
		<tag k="ssr:stedsnr" v="59383" />
		<tag k="waterway" v="stream" />
	</node>
	<node lat="61.76182222056703" lon="10.277530562888382" id="-39630">
		<tag k="name" v="Svarthølbekken" />
		<tag k="ssr:stedsnr" v="59390" />
		<tag k="waterway" v="stream" />
	</node>
	<node lat="61.84917499956541" lon="10.236669435482035" id="-39633">
		<tag k="name" v="Ytterhølen" />
		<tag k="place" v="locality" />
		<tag k="ssr:stedsnr" v="59353" />
	</node>
	<node lat="61.29934999897542" lon="11.220388890529101" id="-39646">
		<tag k="name" v="Brynhildsløbekken" />
		<tag k="ssr:stedsnr" v="69229" />
		<tag k="waterway" v="stream" />
	</node>
	<node lat="61.33113055445712" lon="11.057091661273908" id="-39651">
		<tag k="name" v="Hortabekken" />
		<tag k="ssr:stedsnr" v="69427" />
		<tag k="waterway" v="stream" />
	</node>
	<node lat="61.527371733477956" lon="11.14726872234719" id="-39655">
		<tag k="alt_name" v="Svarttjønna" />
		<tag k="name" v="Svarttjørna" />
		<tag k="natural" v="water" />
		<tag k="ssr:stedsnr" v="70272" />
	</node>
	<node lat="61.827408329170844" lon="10.199583341479764" id="-39656">
		<tag k="name" v="Bjørhusbekken" />
		<tag k="ssr:stedsnr" v="70353" />
		<tag k="waterway" v="stream" />
	</node>
	<node lat="61.85650000295201" lon="10.266538884152874" id="-39658">
		<tag k="alt_name" v="Veslebekken" />
		<tag k="name" v="Veslbekken" />
		<tag k="ssr:stedsnr" v="70367" />
		<tag k="waterway" v="stream" />
	</node>
	<node lat="61.65077500027127" lon="11.049716663281881" id="-39662">
		<tag k="name" v="Bjørbekken" />
		<tag k="ssr:stedsnr" v="71035" />
		<tag k="waterway" v="stream" />
	</node>
	<node lat="61.81534444641026" lon="10.555725007988366" id="-39670">
		<tag k="name" v="Gravbekken" />
		<tag k="ssr:stedsnr" v="71294" />
		<tag k="waterway" v="stream" />
	</node>
	<node lat="61.82175277487152" lon="10.431261115966016" id="-39672">
		<tag k="alt_name" v="Styggbergstjønna" />
		<tag k="name" v="Styggbergstjørna" />
		<tag k="natural" v="water" />
		<tag k="ssr:stedsnr" v="71308" />
	</node>
	<node lat="61.869433334308326" lon="10.352599997901894" id="-39673">
		<tag k="alt_name" v="Nordre Hattlibekken" />
		<tag k="name" v="Hattlibekken" />
		<tag k="ssr:stedsnr" v="71500" />
		<tag k="waterway" v="stream" />
	</node>
	<node lat="61.77815833647284" lon="10.617375005255255" id="-39676">
		<tag k="alt_name" v="Syrklettjønna" />
		<tag k="name" v="Syrklettjørna" />
		<tag k="natural" v="water" />
		<tag k="ssr:stedsnr" v="72294" />
	</node>
	<node lat="61.777680556941064" lon="10.575091671273706" id="-39677">
		<tag k="alt_name" v="Bredbekken;Breddbekken" />
		<tag k="name" v="Breidbekken" />
		<tag k="ssr:stedsnr" v="72295" />
		<tag k="waterway" v="stream" />
	</node>
	<node lat="61.55101110670092" lon="10.677711114390762" id="-39680">
		<tag k="name" v="Imsostjønna" />
		<tag k="natural" v="water" />
		<tag k="ssr:stedsnr" v="100734" />
	</node>
	<node lat="61.53921388763842" lon="11.040500000311384" id="-39684">
		<tag k="name" v="Hestholmen" />
		<tag k="place" v="island" />
		<tag k="ssr:stedsnr" v="100448" />
	</node>
	<node lat="61.278099996514364" lon="11.128058336946538" id="-39687">
		<tag k="name" v="Fløtbekken" />
		<tag k="ssr:stedsnr" v="100751" />
		<tag k="waterway" v="stream" />
	</node>
	<node lat="61.438772221588124" lon="10.856791675484983" id="-39688">
		<tag k="name" v="Eldådammen" />
		<tag k="ssr:stedsnr" v="101497" />
		<tag k="waterway" v="dam" />
	</node>
	<node lat="61.40190555679328" lon="10.916869446600147" id="-39691">
		<tag k="alt_name" v="Søndre Heievolbekken" />
		<tag k="name" v="Søre Heievolbekken" />
		<tag k="ssr:stedsnr" v="101694" />
		<tag k="waterway" v="stream" />
	</node>
	<node lat="61.434963891969325" lon="11.120333339516566" id="-39693">
		<tag k="name" v="Bratteggbekken" />
		<tag k="ssr:stedsnr" v="102389" />
		<tag k="waterway" v="stream" />
	</node>
	<node lat="61.36269167007794" lon="10.980619441544679" id="-39696">
		<tag k="name" v="Bjønnbekken" />
		<tag k="ssr:stedsnr" v="102961" />
		<tag k="waterway" v="stream" />
	</node>
	<node lat="61.844388888002946" lon="10.149683335934897" id="-39702">
		<tag k="name" v="Nordrebekken" />
		<tag k="ssr:stedsnr" v="113886" />
		<tag k="waterway" v="stream" />
	</node>
	<node lat="61.337813887594585" lon="11.243999997537571" id="-39704">
		<tag k="name" v="Sjurstutjernet" />
		<tag k="natural" v="water" />
		<tag k="ssr:stedsnr" v="116354" />
	</node>
	<node lat="61.72684444482649" lon="10.730402771220167" id="-39712">
		<tag k="name" v="Hellbekken" />
		<tag k="ssr:stedsnr" v="119242" />
		<tag k="waterway" v="stream" />
	</node>
	<node lat="61.37000833359127" lon="11.078797218862375" id="-39715">
		<tag k="name" v="Kolåsmyrfallet" />
		<tag k="natural" v="waterfall" />
		<tag k="ssr:stedsnr" v="119256" />
	</node>
	<node lat="61.75625555383309" lon="10.268313891459057" id="-39717">
		<tag k="name" v="Setningstjønna" />
		<tag k="natural" v="water" />
		<tag k="ssr:stedsnr" v="119435" />
	</node>
	<node lat="61.482716670890156" lon="11.12510832984113" id="-39721">
		<tag k="name" v="Lorttjønnbekken" />
		<tag k="ssr:stedsnr" v="119537" />
		<tag k="waterway" v="stream" />
	</node>
	<node lat="61.5070499963348" lon="11.060530563358066" id="-39728">
		<tag k="name" v="Veslesand" />
		<tag k="place" v="islet" />
		<tag k="ssr:stedsnr" v="120750" />
	</node>
	<node lat="61.44397500427561" lon="10.743777784237613" id="-39729">
		<tag k="name" v="Fløtbekken" />
		<tag k="ssr:stedsnr" v="128425" />
		<tag k="waterway" v="stream" />
	</node>
	<node lat="61.390825001212725" lon="11.168374997859631" id="-39732">
		<tag k="alt_name" v="Spongtjønna" />
		<tag k="name" v="Spongtjørna" />
		<tag k="natural" v="water" />
		<tag k="ssr:stedsnr" v="129049" />
		<tag k="water" v="lake" />
	</node>
	<node lat="61.28786388873601" lon="11.243025005531708" id="-39735">
		<tag k="name" v="Vollbekken" />
		<tag k="ssr:stedsnr" v="129243" />
		<tag k="waterway" v="stream" />
	</node>
	<node lat="61.48469167029015" lon="10.97289444632889" id="-39738">
		<tag k="name" v="Kvannbekken" />
		<tag k="ssr:stedsnr" v="129464" />
		<tag k="waterway" v="stream" />
	</node>
	<node lat="61.47703055863731" lon="10.984708336752965" id="-39739">
		<tag k="name" v="Syringsbekken" />
		<tag k="ssr:stedsnr" v="129466" />
		<tag k="waterway" v="stream" />
	</node>
	<node lat="61.73854999868954" lon="10.891449999912448" id="-39743">
		<tag k="name" v="Kjølsjøbekken" />
		<tag k="ssr:stedsnr" v="131197" />
		<tag k="waterway" v="stream" />
	</node>
	<node lat="61.87381388672283" lon="10.437550008484772" id="-39747">
		<tag k="name" v="Lauvrøstbekken" />
		<tag k="ssr:stedsnr" v="131450" />
		<tag k="waterway" v="stream" />
	</node>
	<node lat="61.838075003003595" lon="10.369661102008134" id="-39751">
		<tag k="alt_name" v="Småtjønnbekken" />
		<tag k="name" v="Småtjørnbekken" />
		<tag k="ssr:stedsnr" v="132457" />
		<tag k="waterway" v="stream" />
	</node>
	<node lat="61.51079999557438" lon="11.021488890706182" id="-39752">
		<tag k="name" v="Snippdalsbekken" />
		<tag k="ssr:stedsnr" v="140383" />
		<tag k="waterway" v="stream" />
	</node>
	<node lat="61.598186111973575" lon="10.891363894765604" id="-39755">
		<tag k="name" v="Styggdalsbekken" />
		<tag k="ssr:stedsnr" v="141276" />
		<tag k="waterway" v="stream" />
	</node>
	<node lat="61.47498055567735" lon="11.052341667991131" id="-39768">
		<tag k="name" v="Kvernknarrbekken" />
		<tag k="ssr:stedsnr" v="161719" />
		<tag k="waterway" v="stream" />
	</node>
	<node lat="61.44002500138099" lon="10.858669446552785" id="-39770">
		<tag k="name" v="Storfallet" />
		<tag k="natural" v="waterfall" />
		<tag k="ssr:stedsnr" v="161594" />
	</node>
	<node lat="61.57289999734932" lon="10.762436113229008" id="-39773">
		<tag k="name" v="Vesteråbekken" />
		<tag k="ssr:stedsnr" v="161853" />
		<tag k="waterway" v="stream" />
	</node>
	<node lat="61.85288055133752" lon="10.414236109718871" id="-39774">
		<tag k="name" v="Tuvtjønna" />
		<tag k="natural" v="water" />
		<tag k="ssr:stedsnr" v="161890" />
	</node>
	<node lat="61.45836667039998" lon="11.10174721355372" id="-39775">
		<tag k="name" v="Karibrennbekken" />
		<tag k="ssr:stedsnr" v="162335" />
		<tag k="waterway" v="stream" />
	</node>
	<node lat="61.72866666316304" lon="10.706738888822603" id="-39777">
		<tag k="name" v="Hellbubekken" />
		<tag k="ssr:stedsnr" v="162676" />
		<tag k="waterway" v="stream" />
	</node>
	<node lat="61.8500777786346" lon="10.261913897796527" id="-39796">
		<tag k="name" v="Øvrekrokotbekken" />
		<tag k="ssr:stedsnr" v="180348" />
		<tag k="waterway" v="stream" />
	</node>
	<node lat="61.85141944894063" lon="10.314675002585895" id="-39800">
		<tag k="name" v="Grythølen" />
		<tag k="place" v="locality" />
		<tag k="ssr:stedsnr" v="180639" />
	</node>
	<node lat="61.24800277994095" lon="11.26853333078614" id="-39806">
		<tag k="name" v="Stenbekken" />
		<tag k="ssr:stedsnr" v="189354" />
		<tag k="waterway" v="stream" />
	</node>
	<node lat="61.296341866740974" lon="11.028478877257578" id="-39809">
		<tag k="alt_name" v="Søkkundsjøen" />
		<tag k="name" v="Søkkundsjøene" />
		<tag k="natural" v="water" />
		<tag k="ssr:stedsnr" v="190403" />
		<tag k="water" v="lake" />
	</node>
	<node lat="61.351727775087944" lon="11.181400004810772" id="-39812">
		<tag k="alt_name" v="Ørrettjernet" />
		<tag k="name" v="Ørtjørnet" />
		<tag k="natural" v="water" />
		<tag k="ssr:stedsnr" v="191044" />
	</node>
	<node lat="61.66921111268964" lon="10.70237778472474" id="-39814">
		<tag k="alt_name" v="Bjøråa, nordre" />
		<tag k="name" v="Nordre Bjøråa" />
		<tag k="ssr:stedsnr" v="192190" />
		<tag k="waterway" v="stream" />
	</node>
	<node lat="61.52695852129371" lon="11.12968502539918" id="-39816">
		<tag k="alt_name" v="Brennkroktjønna" />
		<tag k="name" v="Brennkroktjørna" />
		<tag k="natural" v="water" />
		<tag k="ssr:stedsnr" v="192327" />
	</node>
	<node lat="61.509158330793866" lon="10.975125007222653" id="-39826">
		<tag k="alt_name" v="Havtjønna" />
		<tag k="name" v="Havtjørna" />
		<tag k="natural" v="water" />
		<tag k="ssr:stedsnr" v="192082" />
	</node>
	<node lat="61.73920000032965" lon="10.47201388321696" id="-39827">
		<tag k="alt_name" v="Nordrebekken" />
		<tag k="name" v="Nørdrebekken" />
		<tag k="ssr:stedsnr" v="192198" />
		<tag k="waterway" v="stream" />
	</node>
	<node lat="61.742588891561425" lon="10.517608329919884" id="-39828">
		<tag k="name" v="Storbekken" />
		<tag k="ssr:stedsnr" v="192200" />
		<tag k="waterway" v="stream" />
	</node>
	<node lat="61.725730559959175" lon="10.999705561571055" id="-39834">
		<tag k="alt_name" v="Sætertjønna" />
		<tag k="name" v="Sætertjørna" />
		<tag k="natural" v="water" />
		<tag k="ssr:stedsnr" v="192230" />
	</node>
	<node lat="61.83540278144612" lon="10.177924998566237" id="-39836">
		<tag k="alt_name" v="Vorddalstjønna" />
		<tag k="name" v="Voldalstjørna" />
		<tag k="natural" v="water" />
		<tag k="ssr:stedsnr" v="192397" />
	</node>
	<node lat="61.794599998939354" lon="10.281533339075063" id="-39841">
		<tag k="alt_name" v="Piktjønna" />
		<tag k="name" v="Piktjørna" />
		<tag k="natural" v="water" />
		<tag k="ssr:stedsnr" v="192450" />
	</node>
	<node lat="61.85336666231738" lon="10.564569436754814" id="-39845">
		<tag k="name" v="Gråsjøen" />
		<tag k="natural" v="water" />
		<tag k="ssr:stedsnr" v="192493" />
		<tag k="water" v="lake" />
	</node>
	<node lat="61.82328055873522" lon="10.631691664592063" id="-39856">
		<tag k="name" v="Tørråsbekken" />
		<tag k="ssr:stedsnr" v="193260" />
		<tag k="waterway" v="stream" />
	</node>
	<node lat="61.395677781000025" lon="10.898247227602948" id="-39876">
		<tag k="alt_name" v="Søndre Eldådammen" />
		<tag k="name" v="Søre Eldådammen" />
		<tag k="ssr:stedsnr" v="222656" />
		<tag k="waterway" v="dam" />
	</node>
	<node lat="61.430677781275" lon="11.036697218855055" id="-39879">
		<tag k="name" v="Nystumotjønna" />
		<tag k="natural" v="water" />
		<tag k="ssr:stedsnr" v="223901" />
	</node>
	<node lat="61.343833330902534" lon="11.017738885835152" id="-39884">
		<tag k="name" v="Skarvlitjernet" />
		<tag k="natural" v="water" />
		<tag k="ssr:stedsnr" v="224951" />
	</node>
	<node lat="61.43114999683294" lon="10.805194437315887" id="-39894">
		<tag k="name" v="Foringsbekken" />
		<tag k="ssr:stedsnr" v="283617" />
		<tag k="waterway" v="stream" />
	</node>
	<node lat="61.32208055224506" lon="11.262427778300143" id="-39897">
		<tag k="name" v="Svendstuøya" />
		<tag k="place" v="island" />
		<tag k="ssr:stedsnr" v="283710" />
	</node>
	<node lat="61.46536389102937" lon="11.135858330735017" id="-39900">
		<tag k="name" v="Risbudalsbekken" />
		<tag k="ssr:stedsnr" v="284335" />
		<tag k="waterway" v="stream" />
	</node>
	<node lat="61.467124996554986" lon="11.088177773942284" id="-39901">
		<tag k="name" v="Gjeddtjønna" />
		<tag k="natural" v="water" />
		<tag k="ssr:stedsnr" v="284336" />
	</node>
	<node lat="61.877586109975276" lon="10.28286666684078" id="-39907">
		<tag k="name" v="Mobekktjønna" />
		<tag k="natural" v="water" />
		<tag k="ssr:stedsnr" v="300655" />
	</node>
	<node lat="61.436038884814174" lon="11.2428833338288" id="-39914">
		<tag k="name" v="Svantjønnbekken" />
		<tag k="ssr:stedsnr" v="299302" />
		<tag k="waterway" v="stream" />
	</node>
	<node lat="61.66135555245442" lon="10.989186117869236" id="-39929">
		<tag k="name" v="Letjønnbekken" />
		<tag k="ssr:stedsnr" v="302727" />
		<tag k="waterway" v="stream" />
	</node>
	<node lat="61.44015277905622" lon="11.230944450454961" id="-39931">
		<tag k="name" v="Neta" />
		<tag k="ssr:stedsnr" v="311153" />
		<tag k="waterway" v="river" />
	</node>
	<node lat="61.30486111274764" lon="11.133474996331456" id="-39933">
		<tag k="name" v="Sandbekken" />
		<tag k="ssr:stedsnr" v="311286" />
		<tag k="waterway" v="stream" />
	</node>
	<node lat="61.30291943990362" lon="11.221519451648389" id="-39934">
		<tag k="name" v="Halvfarbekken" />
		<tag k="ssr:stedsnr" v="311290" />
		<tag k="waterway" v="stream" />
	</node>
	<node lat="61.4939444438429" lon="11.19500000245634" id="-39941">
		<tag k="alt_name" v="Skjærbekktjønna" />
		<tag k="name" v="Skjerbekktjønnet" />
		<tag k="natural" v="water" />
		<tag k="ssr:stedsnr" v="312085" />
	</node>
	<node lat="61.340616666453805" lon="10.924524992455565" id="-39942">
		<tag k="name" v="Kamphavet" />
		<tag k="natural" v="water" />
		<tag k="ssr:stedsnr" v="312394" />
	</node>
	<node lat="61.346136113156504" lon="10.895302786275783" id="-39943">
		<tag k="name" v="Kvannbekken" />
		<tag k="ssr:stedsnr" v="312396" />
		<tag k="waterway" v="stream" />
	</node>
	<node lat="61.34111744586941" lon="10.853024977403226" id="-39944">
		<tag k="name" v="Skollsjøen" />
		<tag k="natural" v="water" />
		<tag k="ssr:stedsnr" v="312397" />
		<tag k="water" v="lake" />
	</node>
	<node lat="61.71284581536174" lon="10.782209555898456" id="-39948">
		<tag k="alt_name" v="Atnostjørna" />
		<tag k="name" v="Atnostjønnene" />
		<tag k="natural" v="water" />
		<tag k="ssr:stedsnr" v="313200" />
		<tag k="water" v="lake" />
	</node>
	<node lat="61.8997250038193" lon="10.265033325034144" id="-39949">
		<tag k="name" v="Slåttbekken" />
		<tag k="ssr:stedsnr" v="313559" />
		<tag k="waterway" v="stream" />
	</node>
	<node lat="61.66471944641896" lon="11.009972217402781" id="-39955">
		<tag k="name" v="Tresa" />
		<tag k="ssr:stedsnr" v="313056" />
		<tag k="waterway" v="river" />
	</node>
	<node lat="61.57792499855421" lon="10.778308327555012" id="-39956">
		<tag k="name" v="Naustertjørna" />
		<tag k="natural" v="water" />
		<tag k="ssr:stedsnr" v="313128" />
	</node>
	<node lat="61.57413889133864" lon="10.89624999681219" id="-39957">
		<tag k="name" v="Trya" />
		<tag k="ssr:stedsnr" v="313130" />
		<tag k="waterway" v="river" />
	</node>
	<node lat="61.5644711982321" lon="11.09694702288498" id="-39964">
		<tag k="name" v="Kjemsjøen" />
		<tag k="natural" v="water" />
		<tag k="ssr:stedsnr" v="313440" />
		<tag k="water" v="lake" />
	</node>
	<node lat="61.894563889879066" lon="10.15752221928139" id="-39965">
		<tag k="name" v="Kvernbekken" />
		<tag k="ssr:stedsnr" v="313561" />
		<tag k="waterway" v="stream" />
	</node>
	<node lat="61.86812500242114" lon="10.299552781422038" id="-39966">
		<tag k="alt_name" v="Veslegryta" />
		<tag k="name" v="Veslgryta" />
		<tag k="ssr:stedsnr" v="313584" />
		<tag k="waterway" v="stream" />
	</node>
	<node lat="61.377830559389054" lon="11.237991675929074" id="-39967">
		<tag k="name" v="Grøna" />
		<tag k="ssr:stedsnr" v="313785" />
		<tag k="waterway" v="river" />
	</node>
	<node lat="61.71793610694454" lon="10.330930562472911" id="-39972">
		<tag k="name" v="Steintjørna" />
		<tag k="natural" v="water" />
		<tag k="ssr:stedsnr" v="314943" />
	</node>
	<node lat="61.708711108626495" lon="10.318713883383717" id="-39973">
		<tag k="name" v="Grøtørtjørna" />
		<tag k="natural" v="water" />
		<tag k="ssr:stedsnr" v="314947" />
	</node>
	<node lat="61.34010555837681" lon="11.12999999749099" id="-39975">
		<tag k="name" v="Librennbekken" />
		<tag k="ssr:stedsnr" v="343087" />
		<tag k="waterway" v="stream" />
	</node>
	<node lat="61.54544999742292" lon="11.052130551981776" id="-39980">
		<tag k="name" v="Skredderstukåsa" />
		<tag k="place" v="locality" />
		<tag k="ssr:stedsnr" v="343458" />
	</node>
	<node lat="61.43917222081153" lon="10.911647213326752" id="-39982">
		<tag k="name" v="Skjærdalsbekken" />
		<tag k="ssr:stedsnr" v="343655" />
		<tag k="waterway" v="stream" />
	</node>
	<node lat="61.892425003328974" lon="10.106472222607975" id="-39990">
		<tag k="name" v="Gammelelva" />
		<tag k="ssr:stedsnr" v="355515" />
		<tag k="waterway" v="stream" />
	</node>
	<node lat="61.54584166677148" lon="11.014730548524698" id="-39991">
		<tag k="name" v="Røstmotjønna" />
		<tag k="natural" v="water" />
		<tag k="ssr:stedsnr" v="358485" />
	</node>
	<node lat="61.33563610901423" lon="11.250238886087379" id="-39995">
		<tag k="name" v="Kvernmotjernet" />
		<tag k="natural" v="water" />
		<tag k="ssr:stedsnr" v="359392" />
	</node>
	<node lat="61.75354722475908" lon="10.934230554090547" id="-39997">
		<tag k="name" v="Granåsbekken" />
		<tag k="ssr:stedsnr" v="360400" />
		<tag k="waterway" v="stream" />
	</node>
	<node lat="61.575888885128165" lon="11.021186107067578" id="-40001">
		<tag k="name" v="Tretteøya" />
		<tag k="place" v="islet" />
		<tag k="ssr:stedsnr" v="362400" />
	</node>
	<node lat="61.76360555262942" lon="10.333088881507361" id="-40002">
		<tag k="name" v="Lille Halebekken" />
		<tag k="ssr:stedsnr" v="362402" />
		<tag k="waterway" v="stream" />
	</node>
	<node lat="61.76488888477272" lon="10.320744446227673" id="-40003">
		<tag k="name" v="Klokkarbekken" />
		<tag k="ssr:stedsnr" v="362404" />
		<tag k="waterway" v="stream" />
	</node>
	<node lat="61.84866388532667" lon="10.268088884999939" id="-40012">
		<tag k="name" v="Elsehølet" />
		<tag k="place" v="locality" />
		<tag k="ssr:stedsnr" v="362365" />
	</node>
	<node lat="61.805524999747895" lon="10.306652775566286" id="-40016">
		<tag k="name" v="Stentjønna" />
		<tag k="natural" v="water" />
		<tag k="ssr:stedsnr" v="362392" />
	</node>
	<node lat="61.85300555262085" lon="10.30228888945765" id="-40017">
		<tag k="name" v="Amperholmen" />
		<tag k="place" v="islet" />
		<tag k="ssr:stedsnr" v="362656" />
	</node>
	<node lat="61.37615833410718" lon="10.90636667217597" id="-40019">
		<tag k="name" v="Hoppbekken" />
		<tag k="ssr:stedsnr" v="362678" />
		<tag k="waterway" v="stream" />
	</node>
	<node lat="61.525822218965764" lon="11.06120554893807" id="-40024">
		<tag k="name" v="Landtuen" />
		<tag k="place" v="islet" />
		<tag k="ssr:stedsnr" v="362814" />
	</node>
	<node lat="61.419963885811455" lon="11.005380546097346" id="-40030">
		<tag k="alt_name" v="Rogna, l" />
		<tag k="name" v="Veslerogna" />
		<tag k="ssr:stedsnr" v="371412" />
		<tag k="waterway" v="stream" />
	</node>
	<node lat="61.31159444718522" lon="11.261811115872487" id="-40037">
		<tag k="name" v="Kongsøya" />
		<tag k="place" v="island" />
		<tag k="ssr:stedsnr" v="372030" />
	</node>
	<node lat="61.31493611262603" lon="11.338200003886143" id="-40038">
		<tag k="name" v="Stormyrtjernet" />
		<tag k="natural" v="water" />
		<tag k="ssr:stedsnr" v="372040" />
	</node>
	<node lat="61.30308610858692" lon="11.26842499683214" id="-40040">
		<tag k="alt_name" v="Strandøyene" />
		<tag k="name" v="Strandøyane" />
		<tag k="place" v="island" />
		<tag k="ssr:stedsnr" v="372232" />
	</node>
	<node lat="61.296841854340414" lon="11.104468829846246" id="-40041">
		<tag k="name" v="Tvetjerna" />
		<tag k="natural" v="water" />
		<tag k="ssr:stedsnr" v="372237" />
		<tag k="water" v="lake" />
	</node>
	<node lat="61.283591667712045" lon="11.067452786775576" id="-40042">
		<tag k="name" v="Ruskåstjernet" />
		<tag k="natural" v="water" />
		<tag k="ssr:stedsnr" v="372411" />
	</node>
	<node lat="61.37238055954408" lon="10.945211107820505" id="-40044">
		<tag k="name" v="Rognsjøen" />
		<tag k="natural" v="water" />
		<tag k="ssr:stedsnr" v="372433" />
	</node>
	<node lat="61.384899995639636" lon="11.040891671121466" id="-40045">
		<tag k="name" v="Langbekken" />
		<tag k="ssr:stedsnr" v="372436" />
		<tag k="waterway" v="stream" />
	</node>
	<node lat="61.38433055544042" lon="11.080208327397264" id="-40046">
		<tag k="alt_name" v="Køiedalsbekken" />
		<tag k="name" v="Koiedalsbekken" />
		<tag k="ssr:stedsnr" v="372437" />
		<tag k="waterway" v="stream" />
	</node>
	<node lat="61.770191669284124" lon="10.1972805590663" id="-40048">
		<tag k="name" v="Snødøla" />
		<tag k="ssr:stedsnr" v="373444" />
		<tag k="waterway" v="stream" />
	</node>
	<node lat="61.528246170018484" lon="11.134389206266775" id="-40050">
		<tag k="alt_name" v="Langtjønna" />
		<tag k="name" v="Langtjørna" />
		<tag k="natural" v="water" />
		<tag k="ssr:stedsnr" v="373279" />
	</node>
	<node lat="61.53658889154482" lon="11.117272218893872" id="-40051">
		<tag k="alt_name" v="Skånsjøen" />
		<tag k="name" v="Skårnsjøen" />
		<tag k="natural" v="water" />
		<tag k="ssr:stedsnr" v="373285" />
	</node>
	<node lat="61.82914227248159" lon="10.182919872691413" id="-40052">
		<tag k="alt_name" v="Motjønna" />
		<tag k="name" v="Motjørna" />
		<tag k="natural" v="water" />
		<tag k="ssr:stedsnr" v="373366" />
	</node>
	<node lat="61.821302781542094" lon="10.21144166636613" id="-40053">
		<tag k="alt_name" v="Langtjønna" />
		<tag k="name" v="Langtjørna" />
		<tag k="natural" v="water" />
		<tag k="ssr:stedsnr" v="373374" />
	</node>
	<node lat="61.67900555142948" lon="10.99866944330841" id="-40065">
		<tag k="name" v="Tresdammen" />
		<tag k="ssr:stedsnr" v="374068" />
		<tag k="waterway" v="dam" />
	</node>
	<node lat="61.740108329115465" lon="10.071613892411634" id="-40073">
		<tag k="name" v="Svabubekken" />
		<tag k="ssr:stedsnr" v="374956" />
		<tag k="waterway" v="stream" />
	</node>
	<node lat="61.65266666494831" lon="10.829280558821342" id="-40086">
		<tag k="name" v="Bjøråfallet" />
		<tag k="natural" v="waterfall" />
		<tag k="ssr:stedsnr" v="384276" />
	</node>
	<node lat="61.59897500273504" lon="10.887358342367452" id="-40087">
		<tag k="name" v="Klarbekken" />
		<tag k="ssr:stedsnr" v="384278" />
		<tag k="waterway" v="stream" />
	</node>
	<node lat="61.646855558983006" lon="10.929283339362518" id="-40088">
		<tag k="alt_name" v="Nestjørna, øvre;Øvre Nesttjønna" />
		<tag k="name" v="Øvre Nestjørna" />
		<tag k="natural" v="water" />
		<tag k="ssr:stedsnr" v="384283" />
	</node>
	<node lat="61.50402500307715" lon="11.032325009298825" id="-40089">
		<tag k="alt_name" v="Sørtjønna" />
		<tag k="name" v="Sørtjørna" />
		<tag k="natural" v="water" />
		<tag k="ssr:stedsnr" v="495085" />
	</node>
	<node lat="61.53739444611211" lon="10.968263886344817" id="-40090">
		<tag k="name" v="Kvernbekken" />
		<tag k="ssr:stedsnr" v="495099" />
		<tag k="waterway" v="stream" />
	</node>
	<node lat="61.487952776293625" lon="11.022652768942185" id="-40095">
		<tag k="name" v="Husvolbekken" />
		<tag k="ssr:stedsnr" v="403742" />
		<tag k="waterway" v="stream" />
	</node>
	<node lat="61.53458611028083" lon="11.043724993573244" id="-40096">
		<tag k="name" v="Vestgardsøya" />
		<tag k="place" v="island" />
		<tag k="ssr:stedsnr" v="404448" />
	</node>
	<node lat="61.56393888546169" lon="10.662736115074969" id="-40104">
		<tag k="alt_name" v="Skarbekken" />
		<tag k="name" v="Skakkbekken" />
		<tag k="ssr:stedsnr" v="407883" />
		<tag k="waterway" v="stream" />
	</node>
	<node lat="61.638452774969124" lon="10.89032500084548" id="-40107">
		<tag k="name" v="Daløya" />
		<tag k="place" v="island" />
		<tag k="ssr:stedsnr" v="419126" />
	</node>
	<node lat="61.679452773831954" lon="10.90306944088173" id="-40129">
		<tag k="name" v="Frekkholmen" />
		<tag k="place" v="island" />
		<tag k="ssr:stedsnr" v="423109" />
	</node>
	<node lat="61.88528888639526" lon="10.176147219130439" id="-40132">
		<tag k="name" v="Sæterbekken" />
		<tag k="ssr:stedsnr" v="423289" />
		<tag k="waterway" v="stream" />
	</node>
	<node lat="61.854855552326484" lon="10.236730561229477" id="-40133">
		<tag k="name" v="Storbekken" />
		<tag k="ssr:stedsnr" v="423386" />
		<tag k="waterway" v="stream" />
	</node>
	<node lat="61.75411944681031" lon="10.276411119243255" id="-40135">
		<tag k="name" v="Svarthølen" />
		<tag k="place" v="locality" />
		<tag k="ssr:stedsnr" v="423448" />
	</node>
	<node lat="61.765130555888206" lon="10.302066670957771" id="-40139">
		<tag k="name" v="Laugartjønna" />
		<tag k="natural" v="water" />
		<tag k="ssr:stedsnr" v="423430" />
	</node>
	<node lat="61.48518333354502" lon="11.13148333657042" id="-40140">
		<tag k="name" v="Okstjønnbekken" />
		<tag k="ssr:stedsnr" v="423529" />
		<tag k="waterway" v="stream" />
	</node>
	<node lat="61.848986108825976" lon="10.314477785185861" id="-40143">
		<tag k="name" v="Vesledalsbekken" />
		<tag k="ssr:stedsnr" v="423675" />
		<tag k="waterway" v="stream" />
	</node>
	<node lat="61.510900003863995" lon="11.077630551675858" id="-40145">
		<tag k="name" v="Veslebekken" />
		<tag k="ssr:stedsnr" v="423788" />
		<tag k="waterway" v="stream" />
	</node>
	<node lat="61.31976666635252" lon="10.981927769879976" id="-40146">
		<tag k="name" v="Løvlibekken" />
		<tag k="ssr:stedsnr" v="423974" />
		<tag k="waterway" v="stream" />
	</node>
	<node lat="60.93943888528743" lon="11.516244438964907" id="-40148">
		<tag k="fixme" v="multiple name tags, choose one and add the other to alt_name" />
		<tag k="name" v="Glåma;Glomma" />
		<tag k="ssr:stedsnr" v="426301" />
		<tag k="waterway" v="river" />
	</node>
	<node lat="61.38704083383149" lon="11.128985865139262" id="-40151">
		<tag k="name" v="Nordre Stortjønna" />
		<tag k="natural" v="water" />
		<tag k="ssr:stedsnr" v="433049" />
	</node>
	<node lat="61.4638900241594" lon="11.23070529919687" id="-40154">
		<tag k="name" v="Netsjøen" />
		<tag k="natural" v="water" />
		<tag k="ssr:stedsnr" v="433123" />
		<tag k="water" v="lake" />
	</node>
	<node lat="61.57615000174001" lon="10.772066674605352" id="-40157">
		<tag k="alt_name" v="Øvsttjønna" />
		<tag k="name" v="Øvsttjørna" />
		<tag k="natural" v="water" />
		<tag k="ssr:stedsnr" v="435155" />
	</node>
	<node lat="61.737963890314795" lon="10.957816661869055" id="-40161">
		<tag k="alt_name" v="Gørkjølla" />
		<tag k="name" v="Gørrkjelda" />
		<tag k="natural" v="water" />
		<tag k="ssr:stedsnr" v="435244" />
	</node>
	<node lat="61.89591099175701" lon="10.104899185563816" id="-40164">
		<tag k="alt_name" v="Myrtjørn;Myrtjønna" />
		<tag k="name" v="Myrtjørna" />
		<tag k="natural" v="water" />
		<tag k="ssr:stedsnr" v="434534" />
	</node>
	<node lat="61.60304166509247" lon="10.827133332812776" id="-40165">
		<tag k="alt_name" v="Fåfengtjønna" />
		<tag k="name" v="Fåfengtjørna" />
		<tag k="natural" v="water" />
		<tag k="ssr:stedsnr" v="435022" />
	</node>
	<node lat="61.588158334325676" lon="10.771999996512326" id="-40166">
		<tag k="name" v="Holmstjørna" />
		<tag k="natural" v="water" />
		<tag k="ssr:stedsnr" v="435007" />
	</node>
	<node lat="61.5096611154937" lon="11.155441674177384" id="-40171">
		<tag k="alt_name" v="Rørtjørna" />
		<tag k="name" v="Rørtjønna" />
		<tag k="natural" v="water" />
		<tag k="ssr:stedsnr" v="435284" />
	</node>
	<node lat="61.8165611135964" lon="10.58201944352946" id="-40172">
		<tag k="name" v="Gråsjøbekken" />
		<tag k="ssr:stedsnr" v="435292" />
		<tag k="waterway" v="stream" />
	</node>
	<node lat="61.63700277552734" lon="11.01118611575966" id="-40174">
		<tag k="name" v="Gangbekken" />
		<tag k="ssr:stedsnr" v="435049" />
		<tag k="waterway" v="stream" />
	</node>
	<node lat="61.654250003146835" lon="10.828655561738945" id="-40175">
		<tag k="alt_name" v="Bjøråa, søre;Søndre Bjøråa" />
		<tag k="name" v="Søre Bjøråa" />
		<tag k="ssr:stedsnr" v="435053" />
		<tag k="waterway" v="river" />
	</node>
	<node lat="61.81583889290351" lon="10.21117499290383" id="-40177">
		<tag k="alt_name" v="Rundtjønna" />
		<tag k="name" v="Rundtjørna" />
		<tag k="natural" v="water" />
		<tag k="ssr:stedsnr" v="435436" />
	</node>
	<node lat="61.92566944345605" lon="10.389733340172858" id="-40180">
		<tag k="name" v="Kvislåbekken" />
		<tag k="ssr:stedsnr" v="435491" />
		<tag k="waterway" v="stream" />
	</node>
	<node lat="61.51063611272774" lon="10.778299994824426" id="-40182">
		<tag k="name" v="Storbekken" />
		<tag k="ssr:stedsnr" v="444353" />
		<tag k="waterway" v="stream" />
	</node>
	<node lat="61.552633334347206" lon="11.145752784200342" id="-40183">
		<tag k="name" v="Storåsbekken" />
		<tag k="ssr:stedsnr" v="495299" />
		<tag k="waterway" v="stream" />
	</node>
	<node lat="61.80872499926614" lon="10.161077771777132" id="-40185">
		<tag k="name" v="Vulua" />
		<tag k="ssr:stedsnr" v="495379" />
		<tag k="waterway" v="river" />
	</node>
	<node lat="61.80314167054477" lon="10.348505557642461" id="-40191">
		<tag k="alt_name" v="Vintertjørn" />
		<tag k="name" v="Vintertjønna" />
		<tag k="natural" v="water" />
		<tag k="ssr:stedsnr" v="496269" />
	</node>
	<node lat="61.33345278162385" lon="11.237147229129576" id="-40204">
		<tag k="name" v="Kalmyrbekken" />
		<tag k="ssr:stedsnr" v="525657" />
		<tag k="waterway" v="stream" />
	</node>
	<node lat="61.815547221736004" lon="10.381413889518207" id="-40207">
		<tag k="name" v="Måsåbutjønna" />
		<tag k="natural" v="water" />
		<tag k="ssr:stedsnr" v="525895" />
	</node>
	<node lat="61.82926666785943" lon="10.35994721566443" id="-40208">
		<tag k="name" v="Vollbekken" />
		<tag k="ssr:stedsnr" v="525897" />
		<tag k="waterway" v="stream" />
	</node>
	<node lat="61.8722861117008" lon="10.164519435134059" id="-40220">
		<tag k="name" v="Nordre Slåbekken" />
		<tag k="ssr:stedsnr" v="537589" />
		<tag k="waterway" v="stream" />
	</node>
	<node lat="61.90008611006817" lon="10.105691673893306" id="-40222">
		<tag k="name" v="Lortkvilta" />
		<tag k="ssr:stedsnr" v="537548" />
		<tag k="waterway" v="stream" />
	</node>
	<node lat="61.85116944496106" lon="10.222775006199036" id="-40225">
		<tag k="name" v="Osen" />
		<tag k="natural" v="bay" />
		<tag k="ssr:stedsnr" v="542251" />
	</node>
	<node lat="61.86686388923928" lon="10.29993332542591" id="-40227">
		<tag k="name" v="Mobekkstilla" />
		<tag k="natural" v="water" />
		<tag k="ssr:stedsnr" v="543630" />
		<tag k="water" v="lake" />
	</node>
	<node lat="61.86019444749397" lon="10.239077785150654" id="-40228">
		<tag k="name" v="Storbekken" />
		<tag k="ssr:stedsnr" v="543634" />
		<tag k="waterway" v="stream" />
	</node>
	<node lat="61.75987499571212" lon="10.253738881467369" id="-40232">
		<tag k="name" v="Kvesbekken" />
		<tag k="ssr:stedsnr" v="544393" />
		<tag k="waterway" v="stream" />
	</node>
	<node lat="61.402736107214594" lon="11.117769443653323" id="-40234">
		<tag k="name" v="Bjørklundsbekken" />
		<tag k="ssr:stedsnr" v="544252" />
		<tag k="waterway" v="stream" />
	</node>
	<node lat="61.85421110685459" lon="10.285672217410642" id="-40236">
		<tag k="name" v="Veslebekken" />
		<tag k="ssr:stedsnr" v="544335" />
		<tag k="waterway" v="stream" />
	</node>
	<node lat="61.80397777392625" lon="10.333527786790961" id="-40240">
		<tag k="name" v="Brenntjønna" />
		<tag k="natural" v="water" />
		<tag k="ssr:stedsnr" v="544361" />
	</node>
	<node lat="61.84533055742285" lon="10.351230552040606" id="-40241">
		<tag k="name" v="Sætersholmen" />
		<tag k="place" v="islet" />
		<tag k="ssr:stedsnr" v="544654" />
	</node>
	<node lat="61.35320000353564" lon="11.198763887300165" id="-40244">
		<tag k="name" v="Lille Klettjernet" />
		<tag k="natural" v="water" />
		<tag k="ssr:stedsnr" v="544715" />
	</node>
	<node lat="61.51618889207286" lon="11.051480546925966" id="-40245">
		<tag k="name" v="Moholmen" />
		<tag k="place" v="islet" />
		<tag k="ssr:stedsnr" v="544799" />
	</node>
	<node lat="61.30326944513598" lon="11.306702781301194" id="-40256">
		<tag k="name" v="Kvernbekken" />
		<tag k="ssr:stedsnr" v="554019" />
		<tag k="waterway" v="stream" />
	</node>
	<node lat="61.35656111517712" lon="11.283538887934228" id="-40266">
		<tag k="name" v="Åborsjøen" />
		<tag k="natural" v="water" />
		<tag k="ssr:stedsnr" v="554045" />
	</node>
	<node lat="61.3543805536931" lon="10.967341660571009" id="-40271">
		<tag k="name" v="Rognsjøbekken" />
		<tag k="ssr:stedsnr" v="554420" />
		<tag k="waterway" v="stream" />
	</node>
	<node lat="61.82699722211497" lon="10.338619452182344" id="-40276">
		<tag k="name" v="Finnsjøen" />
		<tag k="natural" v="water" />
		<tag k="ssr:stedsnr" v="555325" />
		<tag k="water" v="lake" />
	</node>
	<node lat="61.65144166242133" lon="10.924999999800104" id="-40280">
		<tag k="alt_name" v="Nestjørna, nedre;Nedre Nesttjønna" />
		<tag k="name" v="Nedre Nestjørna" />
		<tag k="natural" v="water" />
		<tag k="ssr:stedsnr" v="556040" />
	</node>
	<node lat="61.5222527796646" lon="10.827455551584606" id="-40291">
		<tag k="name" v="Rokkåa" />
		<tag k="ssr:stedsnr" v="556079" />
		<tag k="waterway" v="stream" />
	</node>
	<node lat="61.7034333329996" lon="10.613138881744261" id="-40293">
		<tag k="alt_name" v="Hira, l;Hira" />
		<tag k="name" v="Vesle-Hira" />
		<tag k="ssr:stedsnr" v="556192" />
		<tag k="waterway" v="stream" />
	</node>
	<node lat="61.83645833627905" lon="10.558388891411688" id="-40295">
		<tag k="name" v="Lortbekken" />
		<tag k="ssr:stedsnr" v="556340" />
		<tag k="waterway" v="stream" />
	</node>
	<node lat="61.79318889143954" lon="10.564827784023363" id="-40296">
		<tag k="name" v="Nordstumoøya" />
		<tag k="place" v="island" />
		<tag k="ssr:stedsnr" v="556301" />
	</node>
	<node lat="61.74077778123038" lon="10.286252780212509" id="-40300">
		<tag k="name" v="Grøtørbekken" />
		<tag k="ssr:stedsnr" v="556952" />
		<tag k="waterway" v="stream" />
	</node>
	<node lat="61.508811111898744" lon="10.783963892749941" id="-40301">
		<tag k="alt_name" v="Veslebekken" />
		<tag k="name" v="Veslbekken" />
		<tag k="ssr:stedsnr" v="565357" />
		<tag k="waterway" v="stream" />
	</node>
	<node lat="61.67633889258273" lon="10.644841674582432" id="-40310">
		<tag k="name" v="Søre Hellaktjønna" />
		<tag k="natural" v="water" />
		<tag k="ssr:stedsnr" v="585767" />
	</node>
	<node lat="61.326197223510825" lon="11.258708335765732" id="-40317">
		<tag k="name" v="Støøyene" />
		<tag k="place" v="island" />
		<tag k="ssr:stedsnr" v="586728" />
	</node>
	<node lat="61.89118333082687" lon="10.111516671321393" id="-40327">
		<tag k="name" v="Myrkbotn" />
		<tag k="natural" v="shoal" />
		<tag k="place" v="locality" />
		<tag k="ssr:stedsnr" v="598597" />
	</node>
	<node lat="61.42421944183895" lon="10.887016658232383" id="-40330">
		<tag k="name" v="Nordre Heievolbekken" />
		<tag k="ssr:stedsnr" v="601543" />
		<tag k="waterway" v="stream" />
	</node>
	<node lat="61.85234166907928" lon="10.219450006403811" id="-40333">
		<tag k="name" v="Sjøendmyrodden" />
		<tag k="natural" v="cape" />
		<tag k="ssr:stedsnr" v="602271" />
	</node>
	<node lat="61.40018333614418" lon="10.92491110284991" id="-40359">
		<tag k="alt_name" v="Eldåa, s;Søndre Eldåa" />
		<tag k="name" v="Søre Eldåa" />
		<tag k="ssr:stedsnr" v="614427" />
		<tag k="waterway" v="river" />
	</node>
	<node lat="61.70458610878032" lon="10.956077770547688" id="-40366">
		<tag k="name" v="Grasbekken" />
		<tag k="ssr:stedsnr" v="616176" />
		<tag k="waterway" v="stream" />
	</node>
	<node lat="61.701402777999476" lon="10.803836111791261" id="-40367">
		<tag k="name" v="Nybubekken" />
		<tag k="ssr:stedsnr" v="616179" />
		<tag k="waterway" v="stream" />
	</node>
	<node lat="61.94496944631826" lon="10.376505560911836" id="-40374">
		<tag k="name" v="Sølnsjøbekken" />
		<tag k="old_name" v="Sølensjøbekken" />
		<tag k="ssr:stedsnr" v="616426" />
		<tag k="waterway" v="stream" />
	</node>
	<node lat="61.911141669548975" lon="10.179847214485815" id="-40384">
		<tag k="alt_name" v="Gravskarbekken" />
		<tag k="name" v="Gravskardbekken" />
		<tag k="ssr:stedsnr" v="616567" />
		<tag k="waterway" v="stream" />
	</node>
	<node lat="61.90991666698032" lon="10.141988894185044" id="-40385">
		<tag k="alt_name" v="Kamptjønna" />
		<tag k="name" v="Kamptjørna" />
		<tag k="natural" v="water" />
		<tag k="ssr:stedsnr" v="616571" />
	</node>
	<node lat="61.543024997348006" lon="10.756930561106165" id="-40395">
		<tag k="name" v="Kjerkemobekken" />
		<tag k="ssr:stedsnr" v="617115" />
		<tag k="waterway" v="stream" />
	</node>
	<node lat="61.54174166802064" lon="10.74058333173536" id="-40396">
		<tag k="alt_name" v="Kattskjærbekken" />
		<tag k="name" v="Kattskjerbekken" />
		<tag k="ssr:stedsnr" v="617116" />
		<tag k="waterway" v="stream" />
	</node>
	<node lat="61.56080555743384" lon="10.695000006486664" id="-40403">
		<tag k="alt_name" v="Sørtjønna" />
		<tag k="name" v="Sørtjørna" />
		<tag k="natural" v="water" />
		<tag k="ssr:stedsnr" v="617269" />
	</node>
	<node lat="61.53921111556791" lon="11.078802770004542" id="-40404">
		<tag k="alt_name" v="Nestjønnbekken" />
		<tag k="name" v="Nestjørnbekken" />
		<tag k="ssr:stedsnr" v="626389" />
		<tag k="waterway" v="stream" />
	</node>
	<node lat="61.542038891735" lon="11.045663894579269" id="-40407">
		<tag k="name" v="Torsteinsholmen" />
		<tag k="place" v="islet" />
		<tag k="ssr:stedsnr" v="646442" />
	</node>
	<node lat="61.850516665618365" lon="10.421002781036071" id="-40413">
		<tag k="name" v="Dalbakkholmen" />
		<tag k="place" v="islet" />
		<tag k="ssr:stedsnr" v="646884" />
	</node>
	<node lat="61.54218055248469" lon="10.829880560911526" id="-40421">
		<tag k="name" v="Hembekken" />
		<tag k="ssr:stedsnr" v="646854" />
		<tag k="waterway" v="stream" />
	</node>
	<node lat="61.45603333069429" lon="11.045522215376621" id="-40422">
		<tag k="name" v="Korsstuholmen" />
		<tag k="place" v="islet" />
		<tag k="ssr:stedsnr" v="647775" />
	</node>
	<node lat="61.450075002728276" lon="11.046247216696843" id="-40423">
		<tag k="name" v="Nesset" />
		<tag k="natural" v="cape" />
		<tag k="ssr:stedsnr" v="647776" />
	</node>
	<node lat="61.3729749974978" lon="11.069274997927732" id="-40428">
		<tag k="name" v="Kolåsmyrbekken" />
		<tag k="ssr:stedsnr" v="648957" />
		<tag k="waterway" v="stream" />
	</node>
	<node lat="61.90280556007207" lon="10.09966110995235" id="-40430">
		<tag k="name" v="Veslehørsa" />
		<tag k="ssr:stedsnr" v="659560" />
		<tag k="waterway" v="stream" />
	</node>
	<node lat="61.85636111201221" lon="10.148055553812432" id="-40431">
		<tag k="name" v="Voldalsbekken" />
		<tag k="ssr:stedsnr" v="659624" />
		<tag k="waterway" v="stream" />
	</node>
	<node lat="61.851405559803936" lon="10.230652781507496" id="-40437">
		<tag k="name" v="Øverhølen" />
		<tag k="place" v="locality" />
		<tag k="ssr:stedsnr" v="663250" />
	</node>
	<node lat="61.75577777750305" lon="10.188288895621577" id="-40440">
		<tag k="name" v="Lensmannstjønna" />
		<tag k="natural" v="water" />
		<tag k="ssr:stedsnr" v="664263" />
	</node>
	<node lat="61.760674997213755" lon="10.321649994246764" id="-40444">
		<tag k="name" v="Sæterbekken" />
		<tag k="ssr:stedsnr" v="665447" />
		<tag k="waterway" v="stream" />
	</node>
	<node lat="61.74944444742064" lon="10.281799993317255" id="-40472">
		<tag k="name" v="Kvennbekken" />
		<tag k="ssr:stedsnr" v="726426" />
		<tag k="waterway" v="stream" />
	</node>
	<node lat="61.45173888790841" lon="10.751958329492913" id="-40478">
		<tag k="name" v="Storbekken" />
		<tag k="ssr:stedsnr" v="735440" />
		<tag k="waterway" v="stream" />
	</node>
	<node lat="61.276033334351375" lon="11.252924999706297" id="-40481">
		<tag k="name" v="Sagbekken" />
		<tag k="ssr:stedsnr" v="736254" />
		<tag k="waterway" v="stream" />
	</node>
	<node lat="61.42545000415957" lon="11.107880552899122" id="-40483">
		<tag k="name" v="Grøfta" />
		<tag k="ssr:stedsnr" v="736076" />
		<tag k="waterway" v="stream" />
	</node>
	<node lat="61.35379444091876" lon="11.202455546114065" id="-40490">
		<tag k="alt_name" v="Klettjernet" />
		<tag k="name" v="Klettjørna" />
		<tag k="natural" v="water" />
		<tag k="ssr:stedsnr" v="737053" />
	</node>
	<node lat="61.77318843403332" lon="10.147094765520846" id="-40496">
		<tag k="name" v="Brennflytjørna" />
		<tag k="natural" v="water" />
		<tag k="ssr:stedsnr" v="738429" />
	</node>
	<node lat="61.95928055135787" lon="10.408522228030202" id="-40497">
		<tag k="name" v="Slettfatbekken" />
		<tag k="ssr:stedsnr" v="738447" />
		<tag k="waterway" v="stream" />
	</node>
	<node lat="61.580102775440814" lon="10.96443055025429" id="-40500">
		<tag k="name" v="Bjørbekken" />
		<tag k="ssr:stedsnr" v="738123" />
		<tag k="waterway" v="stream" />
	</node>
	<node lat="61.51031111252715" lon="11.082741662338172" id="-40505">
		<tag k="name" v="Heimbekken" />
		<tag k="ssr:stedsnr" v="738266" />
		<tag k="waterway" v="stream" />
	</node>
	<node lat="61.76545277473398" lon="10.567227781663988" id="-40513">
		<tag k="alt_name" v="Syrbekktjønna" />
		<tag k="name" v="Syrbekktjørna" />
		<tag k="natural" v="water" />
		<tag k="ssr:stedsnr" v="739276" />
	</node>
	<node lat="61.22370833681331" lon="11.192149997197587" id="-40516">
		<tag k="name" v="Fjellbekken" />
		<tag k="ssr:stedsnr" v="889775" />
		<tag k="waterway" v="stream" />
	</node>
	<node lat="61.266802773967456" lon="11.178947218779031" id="-40519">
		<tag k="name" v="Hembekken" />
		<tag k="ssr:stedsnr" v="767782" />
		<tag k="waterway" v="stream" />
	</node>
	<node lat="61.482297220295756" lon="10.926397222310557" id="-40522">
		<tag k="name" v="Kalrøstbekken" />
		<tag k="ssr:stedsnr" v="768509" />
		<tag k="waterway" v="stream" />
	</node>
	<node lat="61.84507500087554" lon="10.35617221610138" id="-40525">
		<tag k="name" v="Sæterslona" />
		<tag k="natural" v="water" />
		<tag k="ssr:stedsnr" v="768921" />
		<tag k="water" v="lake" />
	</node>
	<node lat="61.4445777759956" lon="11.151852779135393" id="-40526">
		<tag k="name" v="Holmtjønnbekken" />
		<tag k="ssr:stedsnr" v="769327" />
		<tag k="waterway" v="stream" />
	</node>
	<node lat="61.655749996249675" lon="10.708550006172851" id="-40528">
		<tag k="name" v="Løvåsvatnet" />
		<tag k="natural" v="water" />
		<tag k="ssr:stedsnr" v="771847" />
		<tag k="water" v="lake" />
	</node>
	<node lat="61.52871944841228" lon="10.733716660538986" id="-40531">
		<tag k="name" v="Kvitkalen" />
		<tag k="natural" v="waterfall" />
		<tag k="ssr:stedsnr" v="784669" />
	</node>
	<node lat="61.46386666404393" lon="10.832836117445387" id="-40532">
		<tag k="name" v="Halvmilsbekken" />
		<tag k="ssr:stedsnr" v="784675" />
		<tag k="waterway" v="stream" />
	</node>
	<node lat="61.48316389238006" lon="10.753855551913297" id="-40533">
		<tag k="name" v="Djupdalsbekken" />
		<tag k="ssr:stedsnr" v="784678" />
		<tag k="waterway" v="stream" />
	</node>
	<node lat="61.61467633753759" lon="10.75700850939816" id="-40534">
		<tag k="alt_name" v="Trytjørna" />
		<tag k="name" v="Trytjønna" />
		<tag k="natural" v="water" />
		<tag k="ssr:stedsnr" v="784021" />
		<tag k="water" v="lake" />
	</node>
	<node lat="61.86455278015117" lon="10.20193888543223" id="-40539">
		<tag k="name" v="Stornilsrøstbekken" />
		<tag k="ssr:stedsnr" v="785246" />
		<tag k="waterway" v="stream" />
	</node>
	<node lat="61.69074444061138" lon="10.772902773213215" id="-40545">
		<tag k="name" v="Sjøbekken" />
		<tag k="ssr:stedsnr" v="786240" />
		<tag k="waterway" v="stream" />
	</node>
	<node lat="61.80545555396847" lon="10.279422218964008" id="-40546">
		<tag k="name" v="Hamnbekken" />
		<tag k="ssr:stedsnr" v="786381" />
		<tag k="waterway" v="stream" />
	</node>
	<node lat="61.754883333713586" lon="10.260800002220984" id="-40548">
		<tag k="name" v="Bubekken" />
		<tag k="ssr:stedsnr" v="787404" />
		<tag k="waterway" v="stream" />
	</node>
	<node lat="61.85061389024764" lon="10.269161106728564" id="-40550">
		<tag k="name" v="Nedrekrokotbekken" />
		<tag k="ssr:stedsnr" v="787358" />
		<tag k="waterway" v="stream" />
	</node>
	<node lat="61.56061388769267" lon="11.022319442459166" id="-40553">
		<tag k="name" v="Storøya" />
		<tag k="place" v="island" />
		<tag k="ssr:stedsnr" v="787494" />
	</node>
	<node lat="61.42758888774244" lon="11.129136107513892" id="-40562">
		<tag k="name" v="Tronka" />
		<tag k="ssr:stedsnr" v="797079" />
		<tag k="waterway" v="stream" />
	</node>
	<node lat="61.25723333312274" lon="11.182152777855622" id="-40563">
		<tag k="name" v="Veslehovden" />
		<tag k="natural" v="water" />
		<tag k="ssr:stedsnr" v="797232" />
	</node>
	<node lat="61.27730833199578" lon="10.865161103643402" id="-40565">
		<tag k="name" v="Steinstjernet" />
		<tag k="natural" v="water" />
		<tag k="ssr:stedsnr" v="797372" />
	</node>
	<node lat="61.33738611212558" lon="10.82411389276989" id="-40568">
		<tag k="alt_name" v="Skollsjøen, l" />
		<tag k="name" v="Vesle Skollsjøen" />
		<tag k="natural" v="water" />
		<tag k="ssr:stedsnr" v="797389" />
	</node>
	<node lat="61.634211109252234" lon="10.989000006818186" id="-40572">
		<tag k="name" v="Treerbekken" />
		<tag k="ssr:stedsnr" v="799033" />
		<tag k="waterway" v="stream" />
	</node>
	<node lat="61.569541668724995" lon="10.90849445056172" id="-40575">
		<tag k="name" v="Storfallet" />
		<tag k="natural" v="waterfall" />
		<tag k="ssr:stedsnr" v="799116" />
	</node>
	<node lat="61.724483333289896" lon="10.741836103945964" id="-40578">
		<tag k="alt_name" v="Skjærbekken" />
		<tag k="name" v="Skjerbekken" />
		<tag k="ssr:stedsnr" v="799223" />
		<tag k="waterway" v="stream" />
	</node>
	<node lat="61.731852778587935" lon="10.429961114386419" id="-40587">
		<tag k="alt_name" v="Skyvælktjernet" />
		<tag k="name" v="Skyvælktjønna" />
		<tag k="natural" v="water" />
		<tag k="ssr:stedsnr" v="799186" />
	</node>
	<node lat="61.73401666251648" lon="10.379063896581126" id="-40588">
		<tag k="name" v="Tverrdalsbekken" />
		<tag k="ssr:stedsnr" v="799187" />
		<tag k="waterway" v="stream" />
	</node>
	<node lat="61.72115833591098" lon="10.915000003702776" id="-40589">
		<tag k="name" v="Gråhammarbekken" />
		<tag k="ssr:stedsnr" v="799226" />
		<tag k="waterway" v="stream" />
	</node>
	<node lat="61.77474166830982" lon="10.94887777562737" id="-40600">
		<tag k="name" v="Mjovassbekken" />
		<tag k="ssr:stedsnr" v="800206" />
		<tag k="waterway" v="stream" />
	</node>
	<node lat="61.827166666070525" lon="10.590349996479402" id="-40605">
		<tag k="name" v="Mesmørbekken" />
		<tag k="ssr:stedsnr" v="800271" />
		<tag k="waterway" v="stream" />
	</node>
	<node lat="61.50111666906711" lon="11.082911114993015" id="-40606">
		<tag k="name" v="Svestadbekken" />
		<tag k="ssr:stedsnr" v="808362" />
		<tag k="waterway" v="stream" />
	</node>
	<node lat="61.215669442577344" lon="11.209652777346092" id="-40610">
		<tag k="name" v="Storbekken" />
		<tag k="ssr:stedsnr" v="829459" />
		<tag k="waterway" v="stream" />
	</node>
	<node lat="61.40928611433749" lon="10.938408328858948" id="-40611">
		<tag k="name" v="Kølbufallet" />
		<tag k="natural" v="waterfall" />
		<tag k="ssr:stedsnr" v="829589" />
	</node>
	<node lat="61.23486389277659" lon="11.192300005307231" id="-40613">
		<tag k="alt_name" v="Bekkebekken" />
		<tag k="name" v="Bekkbekken" />
		<tag k="ssr:stedsnr" v="829789" />
		<tag k="waterway" v="stream" />
	</node>
	<node lat="61.26603611528282" lon="11.123077780766307" id="-40614">
		<tag k="name" v="Svartbekkdammen" />
		<tag k="ssr:stedsnr" v="829792" />
		<tag k="waterway" v="dam" />
	</node>
	<node lat="61.440638890626836" lon="10.82456110872659" id="-40615">
		<tag k="name" v="Bubekken" />
		<tag k="ssr:stedsnr" v="829646" />
		<tag k="waterway" v="stream" />
	</node>
	<node lat="61.531974997683434" lon="11.04316944531633" id="-40616">
		<tag k="name" v="Vestgardsjordet" />
		<tag k="place" v="island" />
		<tag k="ssr:stedsnr" v="829823" />
	</node>
	<node lat="61.52829444547817" lon="11.05905277360533" id="-40617">
		<tag k="name" v="Killingholmen" />
		<tag k="place" v="island" />
		<tag k="ssr:stedsnr" v="829824" />
	</node>
	<node lat="61.44703055881939" lon="10.963994438111111" id="-40618">
		<tag k="name" v="Tjønnlibekken" />
		<tag k="ssr:stedsnr" v="829891" />
		<tag k="waterway" v="stream" />
	</node>
	<node lat="61.399486108908086" lon="11.201863881513987" id="-40621">
		<tag k="name" v="Storfallet" />
		<tag k="natural" v="waterfall" />
		<tag k="ssr:stedsnr" v="831763" />
	</node>
	<node lat="61.345738890072944" lon="11.003536111302596" id="-40622">
		<tag k="name" v="Fønebekken" />
		<tag k="ssr:stedsnr" v="831947" />
		<tag k="waterway" v="stream" />
	</node>
	<node lat="61.61781110747831" lon="11.06803610672334" id="-40631">
		<tag k="name" v="Ulvbekken" />
		<tag k="ssr:stedsnr" v="845271" />
		<tag k="waterway" v="stream" />
	</node>
	<node lat="61.91531944634484" lon="10.387972224943004" id="-40643">
		<tag k="name" v="Storrøstbekken" />
		<tag k="ssr:stedsnr" v="848989" />
		<tag k="waterway" v="stream" />
	</node>
	<node lat="61.434496311995304" lon="11.247112983713787" id="-40650">
		<tag k="alt_name" v="Svanedammen" />
		<tag k="name" v="Svantjønna" />
		<tag k="place" v="locality" />
		<tag k="ssr:stedsnr" v="858060" />
	</node>
	<node lat="61.58567778009203" lon="10.776152770284698" id="-40656">
		<tag k="name" v="Stubbtjørna" />
		<tag k="natural" v="water" />
		<tag k="ssr:stedsnr" v="859002" />
	</node>
	<node lat="61.52681439314506" lon="11.111567606743629" id="-40659">
		<tag k="alt_name" v="Nedre Nestjønna" />
		<tag k="name" v="Nestjørna" />
		<tag k="natural" v="water" />
		<tag k="ssr:stedsnr" v="859269" />
	</node>
	<node lat="61.82864999553617" lon="10.227261119988293" id="-40660">
		<tag k="alt_name" v="Hamntjønna" />
		<tag k="name" v="Hamntjørna" />
		<tag k="natural" v="water" />
		<tag k="ssr:stedsnr" v="859348" />
	</node>
	<node lat="61.824374999763805" lon="10.242963893364445" id="-40661">
		<tag k="name" v="Rørosbekken" />
		<tag k="ssr:stedsnr" v="859349" />
		<tag k="waterway" v="stream" />
	</node>
	<node lat="61.80809166718895" lon="10.303197220256214" id="-40663">
		<tag k="name" v="Steintjørnene" />
		<tag k="natural" v="water" />
		<tag k="ssr:stedsnr" v="859356" />
	</node>
	<node lat="61.876166670188425" lon="10.281955554000705" id="-40665">
		<tag k="name" v="Mobekken" />
		<tag k="ssr:stedsnr" v="859561" />
		<tag k="waterway" v="stream" />
	</node>
	<node lat="61.93000000304713" lon="10.324225009529862" id="-40666">
		<tag k="name" v="Grytrotjørn" />
		<tag k="natural" v="water" />
		<tag k="ssr:stedsnr" v="859594" />
	</node>
	<node lat="61.63474166270426" lon="11.080194436412162" id="-40667">
		<tag k="alt_name" v="Bjørnbekken" />
		<tag k="name" v="Bjønnbekken" />
		<tag k="ssr:stedsnr" v="860028" />
		<tag k="waterway" v="stream" />
	</node>
	<node lat="61.63875000117346" lon="10.931136118897106" id="-40669">
		<tag k="alt_name" v="Gammelstutjønna" />
		<tag k="name" v="Gamlestutjørna" />
		<tag k="natural" v="water" />
		<tag k="ssr:stedsnr" v="860040" />
	</node>
	<node lat="61.671500002463574" lon="10.97110278502626" id="-40672">
		<tag k="alt_name" v="Bjønnskarbekken" />
		<tag k="name" v="Bjørnskardbekken" />
		<tag k="ssr:stedsnr" v="860055" />
		<tag k="waterway" v="stream" />
	</node>
	<node lat="61.54862222411646" lon="10.702802786113775" id="-40677">
		<tag k="name" v="Kvernskjerbekken" />
		<tag k="ssr:stedsnr" v="860291" />
		<tag k="waterway" v="stream" />
	</node>
	<node lat="61.60585832944414" lon="10.859588886533828" id="-40687">
		<tag k="name" v="Krokmyrbekken" />
		<tag k="ssr:stedsnr" v="869284" />
		<tag k="waterway" v="stream" />
	</node>
	<node lat="61.56412499996779" lon="11.014563880293329" id="-40690">
		<tag k="name" v="Oksøya" />
		<tag k="place" v="island" />
		<tag k="ssr:stedsnr" v="870384" />
	</node>
	<node lat="61.48962500056237" lon="11.076711112417065" id="-40695">
		<tag k="name" v="Staibekken" />
		<tag k="ssr:stedsnr" v="950725" />
		<tag k="waterway" v="stream" />
	</node>
	<node lat="61.31890555631237" lon="11.106444451858696" id="-40697">
		<tag k="name" v="Kvernbekktjernet" />
		<tag k="natural" v="water" />
		<tag k="ssr:stedsnr" v="950093" />
	</node>
	<node lat="61.292269443497865" lon="11.07800833008374" id="-40698">
		<tag k="name" v="Ruskåstjernet" />
		<tag k="natural" v="water" />
		<tag k="ssr:stedsnr" v="950122" />
	</node>
	<node lat="61.60058055470769" lon="10.937216662395873" id="-40699">
		<tag k="name" v="Revdalsbekken" />
		<tag k="ssr:stedsnr" v="950123" />
		<tag k="waterway" v="stream" />
	</node>
	<node lat="61.467902776010895" lon="10.844480564791612" id="-40700">
		<tag k="name" v="Bryedalsbekken" />
		<tag k="ssr:stedsnr" v="950491" />
		<tag k="waterway" v="stream" />
	</node>
	<node lat="61.60232778121474" lon="10.811869453959718" id="-40707">
		<tag k="name" v="Trydammen" />
		<tag k="ssr:stedsnr" v="950838" />
		<tag k="waterway" v="dam" />
	</node>
	<node lat="61.386647222685745" lon="11.258769441893238" id="-40713">
		<tag k="name" v="Vangrustbekken" />
		<tag k="ssr:stedsnr" v="966835" />
		<tag k="waterway" v="stream" />
	</node>
	<node lat="61.85510277930531" lon="10.2161749978868" id="-40717">
		<tag k="name" v="Granrøstbekken" />
		<tag k="ssr:stedsnr" v="967230" />
		<tag k="waterway" v="stream" />
	</node>
	<node lat="61.705294439993274" lon="10.897624999879929" id="-40718">
		<tag k="name" v="Vannstasjonsbekken" />
		<tag k="ssr:stedsnr" v="968127" />
		<tag k="waterway" v="stream" />
	</node>
	<node lat="61.87831389323772" lon="10.189141665963803" id="-40719">
		<tag k="name" v="Blåstensbekken" />
		<tag k="ssr:stedsnr" v="968279" />
		<tag k="waterway" v="stream" />
	</node>
	<node lat="61.52809166916" lon="11.12095833265243" id="-40720">
		<tag k="name" v="Øvre Nestjønna" />
		<tag k="natural" v="water" />
		<tag k="ssr:stedsnr" v="968527" />
	</node>
	<node lat="61.72171666704033" lon="10.959177771059244" id="-40721">
		<tag k="alt_name" v="Snokkollen;Snøkkhølen;Snokolltjønnet" />
		<tag k="name" v="Snokolltjønna" />
		<tag k="natural" v="water" />
		<tag k="ssr:stedsnr" v="968675" />
	</node>
	<node lat="61.67104166427449" lon="10.991952780969676" id="-40722">
		<tag k="name" v="Ledammen" />
		<tag k="natural" v="water" />
		<tag k="ssr:stedsnr" v="969732" />
	</node>
	<node lat="61.63057499834646" lon="11.093841672463876" id="-40723">
		<tag k="name" v="Eksingbekken" />
		<tag k="ssr:stedsnr" v="968900" />
		<tag k="waterway" v="stream" />
	</node>
	<node lat="61.85040555930924" lon="10.234808339601909" id="-40724">
		<tag k="name" v="Atnfossen" />
		<tag k="natural" v="waterfall" />
		<tag k="ssr:stedsnr" v="969362" />
	</node>
	<node lat="61.85001110844078" lon="10.326658334023255" id="-40729">
		<tag k="name" v="Finstadskjæra" />
		<tag k="place" v="islet" />
		<tag k="ssr:stedsnr" v="969657" />
	</node>
	<node lat="61.49586111328805" lon="11.03286667478261" id="-40730">
		<tag k="name" v="Vesle Sørtjønna" />
		<tag k="natural" v="water" />
		<tag k="ssr:stedsnr" v="969749" />
	</node>
	<node lat="61.38483054864521" lon="11.127957359550805" id="-40970">
		<tag k="alt_name" v="Stortjørnet" />
		<tag k="name" v="Stortjønna" />
		<tag k="natural" v="water" />
		<tag k="ssr:stedsnr" v="1082779" />
		<tag k="water" v="lake" />
	</node>
</osm>
