<?xml version="1.0" encoding="UTF-8"?>
<osm generator="osmapis" version="0.6">
	<node id="-305152" lat="61.7498993212" lon="10.2879987054">
		<tag k="fixme" v="multiple name tags, choose one and add the other to alt_name; consider place=hamlet" />
		<tag k="name" v="Bjerkli;Bjørke" />
		<tag k="place" v="farm" />
		<tag k="ssr:stedsnr" v="920380" />
	</node>
	<node id="-305151" lat="61.7637972248" lon="10.3376500062">
		<tag k="alt_name" v="Storslåa" />
		<tag k="name" v="Storslå" />
		<tag k="place" v="farm" />
		<tag k="ssr:stedsnr" v="920376" />
	</node>
	<node id="-305147" lat="61.6694027782" lon="10.8976305617">
		<tag k="alt_name" v="Glomstad" />
		<tag k="name" v="Glåmstad" />
		<tag k="place" v="farm" />
		<tag k="ssr:stedsnr" v="920065" />
	</node>
	<node id="-305143" lat="61.6079611109" lon="10.9224944455">
		<tag k="name" v="Prestenget" />
		<tag k="place" v="farm" />
		<tag k="ssr:stedsnr" v="920024" />
	</node>
	<node id="-304126" lat="61.7360722251" lon="10.8184833363">
		<tag k="fixme" v="multiple name tags, choose one and add the other to alt_name" />
		<tag k="name" v="Atneosmoen;Nordimo" />
		<tag k="place" v="farm" />
		<tag k="ssr:stedsnr" v="252199" />
	</node>
	<node id="-305138" lat="61.5553500008" lon="11.0068999953">
		<tag k="name" v="Tryheim" />
		<tag k="place" v="farm" />
		<tag k="ssr:stedsnr" v="920112" />
	</node>
	<node id="-305136" lat="61.330061111" lon="11.2566777709">
		<tag k="fixme" v="consider place=hamlet" />
		<tag k="name" v="Opphus" />
		<tag k="place" v="village" />
		<tag k="ssr:stedsnr" v="919019" />
	</node>
	<node id="-305131" lat="61.299694441" lon="11.3392499949">
		<tag k="name" v="Strandkjølen" />
		<tag k="place" v="isolated_dwelling" />
		<tag k="ssr:stedsnr" v="918265" />
	</node>
	<node id="-305129" lat="61.4706111147" lon="11.0284305606">
		<tag k="name" v="Gammelstu Stai" />
		<tag k="place" v="farm" />
		<tag k="ssr:stedsnr" v="918515" />
	</node>
	<node id="-305123" lat="61.4486305519" lon="10.9246583253">
		<tag k="name" v="Halvsætra" />
		<tag k="place" v="locality" />
		<tag k="ssr:stedsnr" v="917404" />
	</node>
	<node id="-305119" lat="61.5782861075" lon="11.0323361047">
		<tag k="building" v="industrial" />
		<tag k="industrial" v="factory" />
		<tag k="name" v="Forestia Østerdalen" />
		<tag k="ssr:stedsnr" v="908337" />
	</node>
	<node id="-305112" lat="61.6528694454" lon="10.6939666746">
		<tag k="name" v="Løvåsen" />
		<tag k="place" v="neighbourhood" />
		<tag k="ssr:stedsnr" v="892816" />
	</node>
	<node id="-305111" lat="61.4228416674" lon="11.2055944512">
		<tag k="name" v="Nedre Dambua" />
		<tag k="place" v="isolated_dwelling" />
		<tag k="ssr:stedsnr" v="892810" />
	</node>
	<node id="-305109" lat="61.4090805539" lon="11.1150777697">
		<tag k="name" v="Fremgården" />
		<tag k="place" v="farm" />
		<tag k="ssr:stedsnr" v="889104" />
	</node>
	<node id="-305108" lat="61.5361111095" lon="11.0746888905">
		<tag k="name" v="Gustugrenda" />
		<tag k="place" v="hamlet" />
		<tag k="ssr:stedsnr" v="950455" />
	</node>
	<node id="-305107" lat="61.5504833356" lon="11.045561109">
		<tag k="name" v="Nordre Bakken" />
		<tag k="place" v="farm" />
		<tag k="ssr:stedsnr" v="950451" />
	</node>
	<node id="-305100" lat="61.8481527805" lon="10.4537638958">
		<tag k="name" v="Grytdalen" />
		<tag k="place" v="isolated_dwelling" />
		<tag k="ssr:stedsnr" v="860517" />
	</node>
	<node id="-305099" lat="61.8729333325" lon="10.4162388889">
		<tag k="name" v="Bærvollen" />
		<tag k="place" v="locality" />
		<tag k="ssr:stedsnr" v="860510" />
	</node>
	<node id="-305095" lat="61.5705638876" lon="10.9843027813">
		<tag k="name" v="Norddal" />
		<tag k="place" v="farm" />
		<tag k="ssr:stedsnr" v="860127" />
	</node>
	<node id="-305093" lat="61.5558711483" lon="11.0409898352">
		<tag k="alt_name" v="Hamarn" />
		<tag k="name" v="Hammaren" />
		<tag k="place" v="hamlet" />
		<tag k="ssr:stedsnr" v="860108" />
	</node>
	<node id="-305090" lat="61.6178999983" lon="10.91234166">
		<tag k="name" v="Høyset" />
		<tag k="place" v="farm" />
		<tag k="ssr:stedsnr" v="860018" />
	</node>
	<node id="-305086" lat="61.7652277749" lon="10.3158611086">
		<tag k="historic" v="shieling" />
		<tag k="name" v="Øverdalssætra" />
		<tag k="place" v="locality" />
		<tag k="ssr:stedsnr" v="859375" />
	</node>
	<node id="-304117" lat="61.8512277745" lon="10.4219833377">
		<tag k="name" v="Trøbua" />
		<tag k="place" v="locality" />
		<tag k="ssr:stedsnr" v="71510" />
	</node>
	<node id="-305079" lat="61.6049277765" lon="10.8071750008">
		<tag k="name" v="Tryvang" />
		<tag k="place" v="isolated_dwelling" />
		<tag k="ssr:stedsnr" v="859005" />
	</node>
	<node id="-305077" lat="61.2827444454" lon="11.2895555558">
		<tag k="name" v="Brynhildstua" />
		<tag k="place" v="farm" />
		<tag k="ssr:stedsnr" v="858225" />
	</node>
	<node id="-305074" lat="61.3223722195" lon="11.2524611142">
		<tag k="name" v="Skogeng" />
		<tag k="place" v="farm" />
		<tag k="ssr:stedsnr" v="858020" />
	</node>
	<node id="-305071" lat="61.4618805577" lon="11.0268750007">
		<tag k="name" v="Tobru" />
		<tag k="place" v="farm" />
		<tag k="ssr:stedsnr" v="857458" />
	</node>
	<node id="-305069" lat="61.2470583345" lon="11.3002611187">
		<tag k="name" v="Kvislen" />
		<tag k="place" v="isolated_dwelling" />
		<tag k="ssr:stedsnr" v="856415" />
	</node>
	<node id="-305067" lat="61.8929555516" lon="10.1082694423">
		<tag k="name" v="Tangløa" />
		<tag k="place" v="locality" />
		<tag k="ssr:stedsnr" v="841561" />
	</node>
	<node id="-305065" lat="61.4964249469" lon="11.0541945209">
		<tag k="fixme" v="consider place=hamlet" />
		<tag k="name" v="Stai" />
		<tag k="place" v="village" />
		<tag k="ssr:stedsnr" v="936467" />
	</node>
	<node id="-305064" lat="61.4550472198" lon="11.0983138892">
		<tag k="name" v="Raubua" />
		<tag k="place" v="isolated_dwelling" />
		<tag k="ssr:stedsnr" v="830306" />
	</node>
	<node id="-305058" lat="61.8451141846" lon="10.2462203457">
		<tag k="fixme" v="consider place=hamlet" />
		<tag k="name" v="Skogli" />
		<tag k="place" v="farm" />
		<tag k="ssr:stedsnr" v="799401" />
	</node>
	<node id="-305057" lat="61.8546611086" lon="10.3097694383">
		<tag k="name" v="Grytstua" />
		<tag k="place" v="farm" />
		<tag k="ssr:stedsnr" v="799399" />
	</node>
	<node id="-305055" lat="61.8599666705" lon="10.2184499929">
		<tag k="name" v="Bakken" />
		<tag k="place" v="farm" />
		<tag k="ssr:stedsnr" v="799388" />
	</node>
	<node id="-305054" lat="61.6588694473" lon="10.6997916611">
		<tag k="alt_name" v="Lauvåsen" />
		<tag k="historic" v="shieling" />
		<tag k="name" v="Løvåsen" />
		<tag k="place" v="locality" />
		<tag k="ssr:stedsnr" v="799161" />
	</node>
	<node id="-305053" lat="61.753823165" lon="10.2847599057">
		<tag k="fixme" v="consider place=hamlet" />
		<tag k="name" v="Bretningen" />
		<tag k="place" v="farm" />
		<tag k="ssr:stedsnr" v="799416" />
	</node>
	<node id="-305049" lat="61.732633333" lon="10.8178777764">
		<tag k="name" v="Vegard" />
		<tag k="place" v="isolated_dwelling" />
		<tag k="ssr:stedsnr" v="799211" />
	</node>
	<node id="-305048" lat="61.7293944422" lon="10.8219083292">
		<tag k="alt_name" v="Atneosen" />
		<tag k="name" v="Atnosen" />
		<tag k="place" v="farm" />
		<tag k="ssr:stedsnr" v="799209" />
	</node>
	<node id="-305047" lat="61.7295305515" lon="10.8414472132">
		<tag k="alt_name" v="Sjulhus" />
		<tag k="name" v="Sjurdhus" />
		<tag k="old_name" v="Schulhus" />
		<tag k="place" v="farm" />
		<tag k="ssr:stedsnr" v="799207" />
	</node>
	<node id="-305046" lat="61.6656249971" lon="10.8887722237">
		<tag k="name" v="Vestad" />
		<tag k="place" v="farm" />
		<tag k="ssr:stedsnr" v="799043" />
	</node>
	<node id="-305045" lat="61.6411638875" lon="10.9596777786">
		<tag k="name" v="Månsætra" />
		<tag k="place" v="isolated_dwelling" />
		<tag k="ssr:stedsnr" v="799034" />
	</node>
	<node id="-305042" lat="61.6182888891" lon="10.8961722132">
		<tag k="alt_name" v="Garbekken" />
		<tag k="name" v="Gardbekken" />
		<tag k="place" v="farm" />
		<tag k="ssr:stedsnr" v="799015" />
	</node>
	<node id="-305041" lat="61.6058305535" lon="10.901469447">
		<tag k="name" v="Klarbekken" />
		<tag k="place" v="isolated_dwelling" />
		<tag k="ssr:stedsnr" v="799012" />
	</node>
	<node id="-305040" lat="61.5896111139" lon="11.0206972252">
		<tag k="alt_name" v="Bråten" />
		<tag k="name" v="Bråtån" />
		<tag k="place" v="farm" />
		<tag k="ssr:stedsnr" v="799004" />
	</node>
	<node id="-305038" lat="61.2614749998" lon="11.0493638821">
		<tag k="historic" v="shieling" />
		<tag k="name" v="Staupholen" />
		<tag k="place" v="locality" />
		<tag k="ssr:stedsnr" v="797359" />
	</node>
	<node id="-305037" lat="61.4190361094" lon="11.0785499946">
		<tag k="name" v="Dalen" />
		<tag k="place" v="farm" />
		<tag k="ssr:stedsnr" v="797418" />
	</node>
	<node id="-305035" lat="61.337055554" lon="11.252075008">
		<tag k="name" v="Midtstu" />
		<tag k="place" v="farm" />
		<tag k="ssr:stedsnr" v="797019" />
	</node>
	<node id="-305034" lat="61.3331944472" lon="11.3124750064">
		<tag k="alt_name" v="Ophuskjølvollen" />
		<tag k="historic" v="shieling" />
		<tag k="name" v="Opphuskjølen" />
		<tag k="place" v="locality" />
		<tag k="ssr:stedsnr" v="797016" />
	</node>
	<node id="-305028" lat="61.4363388922" lon="11.0553611162">
		<tag k="name" v="Trøa" />
		<tag k="place" v="farm" />
		<tag k="ssr:stedsnr" v="796428" />
	</node>
	<node id="-305026" lat="61.5763555548" lon="11.0632055466">
		<tag k="leisure" v="pitch" />
		<tag k="name" v="Tekna" />
		<tag k="ssr:stedsnr" v="787426" />
	</node>
	<node id="-305024" lat="61.5704833338" lon="11.0144527845">
		<tag k="name" v="Egga" />
		<tag k="place" v="farm" />
		<tag k="ssr:stedsnr" v="787368" />
	</node>
	<node id="-305021" lat="61.7765611148" lon="10.3825833293">
		<tag k="name" v="Vangen" />
		<tag k="place" v="farm" />
		<tag k="ssr:stedsnr" v="921319" />
	</node>
	<node id="-305020" lat="61.7840138927" lon="10.5002222293">
		<tag k="name" v="Modalen" />
		<tag k="place" v="farm" />
		<tag k="ssr:stedsnr" v="921316" />
	</node>
	<node id="-305017" lat="61.7666527741" lon="10.3575749918">
		<tag k="alt_name" v="Nordre Lien" />
		<tag k="name" v="Lia" />
		<tag k="place" v="farm" />
		<tag k="ssr:stedsnr" v="921302" />
	</node>
	<node id="-305853" lat="61.5721222207" lon="10.9857666723">
		<tag k="name" v="Dalslia" />
		<tag k="place" v="farm" />
		<tag k="ssr:stedsnr" v="544354" />
	</node>
	<node id="-305009" lat="61.871166668" lon="10.1880694378">
		<tag k="name" v="Gunstadbua" />
		<tag k="place" v="isolated_dwelling" />
		<tag k="ssr:stedsnr" v="920582" />
	</node>
	<node id="-305006" lat="61.5838638926" lon="10.9918722164">
		<tag k="name" v="Øverby" />
		<tag k="place" v="farm" />
		<tag k="ssr:stedsnr" v="920130" />
	</node>
	<node id="-305005" lat="61.5453916643" lon="10.9293805565">
		<tag k="name" v="Trylisætra" />
		<tag k="place" v="isolated_dwelling" />
		<tag k="ssr:stedsnr" v="920102" />
	</node>
	<node id="-305003" lat="61.5388833369" lon="11.0363416581">
		<tag k="alt_name" v="Storstu" />
		<tag k="name" v="Storstu Vestgard" />
		<tag k="place" v="farm" />
		<tag k="ssr:stedsnr" v="920086" />
	</node>
	<node id="-305002" lat="61.7383111091" lon="10.7685388875">
		<tag k="name" v="Vestlund" />
		<tag k="place" v="farm" />
		<tag k="ssr:stedsnr" v="920217" />
	</node>
	<node id="-305001" lat="61.7212499981" lon="10.8483944466">
		<tag k="name" v="Eng" />
		<tag k="place" v="farm" />
		<tag k="ssr:stedsnr" v="920200" />
	</node>
	<node id="-305000" lat="61.7034138907" lon="10.8810583244">
		<tag k="name" v="Alset" />
		<tag k="place" v="farm" />
		<tag k="ssr:stedsnr" v="920191" />
	</node>
	<node id="-304997" lat="61.6459861111" lon="10.8786888801">
		<tag k="alt_name" v="Sletmo" />
		<tag k="name" v="Slettmo" />
		<tag k="place" v="farm" />
		<tag k="ssr:stedsnr" v="920049" />
	</node>
	<node id="-304996" lat="61.6180611146" lon="10.8786611131">
		<tag k="name" v="Granli" />
		<tag k="place" v="farm" />
		<tag k="ssr:stedsnr" v="920033" />
	</node>
	<node id="-304992" lat="61.3877611152" lon="11.1481555646">
		<tag k="name" v="Hagen" />
		<tag k="place" v="farm" />
		<tag k="ssr:stedsnr" v="919035" />
	</node>
	<node id="-304991" lat="61.3254777738" lon="11.2520472149">
		<tag k="name" v="Bolkjen" />
		<tag k="place" v="farm" />
		<tag k="ssr:stedsnr" v="919021" />
	</node>
	<node id="-304990" lat="61.2913055543" lon="11.2820138878">
		<tag k="alt_name" v="Nystu" />
		<tag k="name" v="Nystu Strand" />
		<tag k="place" v="farm" />
		<tag k="ssr:stedsnr" v="918249" />
	</node>
	<node id="-304988" lat="61.2753861103" lon="11.2941583306">
		<tag k="alt_name" v="Veslestusveen" />
		<tag k="name" v="Veslstusvea" />
		<tag k="place" v="farm" />
		<tag k="ssr:stedsnr" v="918289" />
	</node>
	<node id="-304986" lat="61.4083388916" lon="11.1262277818">
		<tag k="alt_name" v="Rusten" />
		<tag k="name" v="Rusta" />
		<tag k="place" v="farm" />
		<tag k="ssr:stedsnr" v="918093" />
	</node>
	<node id="-304984" lat="61.4201111108" lon="11.1500333252">
		<tag k="name" v="Lunnarbua" />
		<tag k="place" v="isolated_dwelling" />
		<tag k="ssr:stedsnr" v="918081" />
	</node>
	<node id="-304983" lat="61.4283305577" lon="11.0575250011">
		<tag k="alt_name" v="Knuds" />
		<tag k="name" v="Knuts" />
		<tag k="place" v="farm" />
		<tag k="ssr:stedsnr" v="917391" />
	</node>
	<node id="-304982" lat="61.4309000038" lon="11.0553222241">
		<tag k="name" v="Rogner" />
		<tag k="place" v="farm" />
		<tag k="ssr:stedsnr" v="917390" />
	</node>
	<node id="-304979" lat="61.426102775" lon="11.0618833312">
		<tag k="name" v="Synstad" />
		<tag k="place" v="farm" />
		<tag k="ssr:stedsnr" v="769863" />
	</node>
	<node id="-304099" lat="61.5580583303" lon="11.0126055524">
		<tag k="name" v="Nordby" />
		<tag k="place" v="isolated_dwelling" />
		<tag k="ssr:stedsnr" v="240371" />
	</node>
	<node id="-304974" lat="61.6493083374" lon="10.8839305495">
		<tag k="name" v="Nedre Huse" />
		<tag k="ssr:stedsnr" v="768108" />
		<tag k="tourism" v="camp_site" />
	</node>
	<node id="-304972" lat="61.3655472264" lon="11.2433944473">
		<tag k="name" v="Soria Moria" />
		<tag k="place" v="locality" />
		<tag k="ssr:stedsnr" v="909793" />
	</node>
	<node id="-304971" lat="61.5044861113" lon="11.0516777804">
		<tag k="alt_name" v="Flørhamarn" />
		<tag k="name" v="Flørhammaren" />
		<tag k="place" v="locality" />
		<tag k="ssr:stedsnr" v="909753" />
	</node>
	<node id="-304970" lat="61.5700777758" lon="10.9653472298">
		<tag k="loc_name" v="Li" />
		<tag k="name" v="Lie" />
		<tag k="place" v="isolated_dwelling" />
		<tag k="ssr:stedsnr" v="909338" />
	</node>
	<node id="-304967" lat="61.8480638908" lon="10.3775194477">
		<tag k="name" v="Øvre Sameiebua" />
		<tag k="place" v="locality" />
		<tag k="ssr:stedsnr" v="908999" />
	</node>
	<node id="-304966" lat="61.3568944477" lon="11.2292305601">
		<tag k="alt_name" v="Søndre Krokegga" />
		<tag k="name" v="Søre Krokegga" />
		<tag k="place" v="isolated_dwelling" />
		<tag k="ssr:stedsnr" v="908738" />
	</node>
	<node id="-304962" lat="61.8496027814" lon="10.232250005">
		<tag k="name" v="Nordre Brenn" />
		<tag k="place" v="farm" />
		<tag k="ssr:stedsnr" v="908520" />
	</node>
	<node id="-304961" lat="61.757458336" lon="10.2661944479">
		<tag k="name" v="Midtkulstadbua" />
		<tag k="place" v="isolated_dwelling" />
		<tag k="ssr:stedsnr" v="908430" />
	</node>
	<node id="-304959" lat="61.7823722258" lon="10.2351666663">
		<tag k="name" v="Slåbumoen" />
		<tag k="place" v="farm" />
		<tag k="ssr:stedsnr" v="908406" />
	</node>
	<node id="-304957" lat="61.8527611074" lon="10.2386250013">
		<tag k="name" v="Olstad" />
		<tag k="place" v="isolated_dwelling" />
		<tag k="ssr:stedsnr" v="908385" />
	</node>
	<node id="-304955" lat="61.8870166685" lon="10.1839888884">
		<tag k="historic" v="shieling" />
		<tag k="name" v="Utli sæter" />
		<tag k="place" v="locality" />
		<tag k="ssr:stedsnr" v="908293" />
	</node>
	<node id="-304951" lat="61.2807305552" lon="11.2663027806">
		<tag k="name" v="Kontbua" />
		<tag k="place" v="isolated_dwelling" />
		<tag k="ssr:stedsnr" v="907490" />
	</node>
	<node id="-304949" lat="61.781741667" lon="10.2249250006">
		<tag k="name" v="Solhaug" />
		<tag k="place" v="isolated_dwelling" />
		<tag k="ssr:stedsnr" v="907257" />
	</node>
	<node id="-304947" lat="61.8116055596" lon="10.2129277783">
		<tag k="loc_name" v="Østre Vuluvollen" />
		<tag k="name" v="Østre Vuluvolden" />
		<tag k="place" v="farm" />
		<tag k="ssr:stedsnr" v="907233" />
	</node>
	<node id="-304944" lat="61.7141749975" lon="10.8390722164">
		<tag k="name" v="Midtskogen" />
		<tag k="place" v="farm" />
		<tag k="ssr:stedsnr" v="748262" />
	</node>
	<node id="-304942" lat="61.7906222195" lon="10.5024305551">
		<tag k="name" v="Solheim" />
		<tag k="place" v="farm" />
		<tag k="ssr:stedsnr" v="905978" />
	</node>
	<node id="-304941" lat="61.4828416688" lon="10.8125388815">
		<tag k="name" v="Olderbakken" />
		<tag k="place" v="isolated_dwelling" />
		<tag k="ssr:stedsnr" v="905682" />
	</node>
	<node id="-304935" lat="61.8900805594" lon="10.1405583315">
		<tag k="name" v="Nordre Neset" />
		<tag k="place" v="farm" />
		<tag k="ssr:stedsnr" v="902634" />
	</node>
	<node id="-304933" lat="61.8778583357" lon="10.4418499908">
		<tag k="alt_name" v="Trangsætra" />
		<tag k="historic" v="shieling" />
		<tag k="name" v="Tangsætra" />
		<tag k="place" v="locality" />
		<tag k="ssr:stedsnr" v="726994" />
	</node>
	<node id="-304931" lat="61.4663555554" lon="10.9908194447">
		<tag k="name" v="Simenstuen" />
		<tag k="place" v="isolated_dwelling" />
		<tag k="ssr:stedsnr" v="726835" />
	</node>
	<node id="-304922" lat="61.7914270284" lon="10.4877875356">
		<tag k="name" v="Atnenget" />
		<tag k="place" v="farm" />
		<tag k="ssr:stedsnr" v="723955" />
	</node>
	<node id="-304917" lat="61.6295833353" lon="10.948277784">
		<tag k="name" v="Øvre Frøsålibua" />
		<tag k="place" v="isolated_dwelling" />
		<tag k="ssr:stedsnr" v="707124" />
	</node>
	<node id="-304913" lat="61.4097138885" lon="10.9710472244">
		<tag k="name" v="Engbua" />
		<tag k="place" v="isolated_dwelling" />
		<tag k="ssr:stedsnr" v="891896" />
	</node>
	<node id="-304911" lat="61.4207166679" lon="11.0764722278">
		<tag k="name" v="Moen" />
		<tag k="place" v="isolated_dwelling" />
		<tag k="ssr:stedsnr" v="891888" />
	</node>
	<node id="-304909" lat="61.6364777811" lon="10.6900305627">
		<tag k="name" v="Søndre Bjøråa" />
		<tag k="place" v="neighbourhood" />
		<tag k="ssr:stedsnr" v="890815" />
	</node>
	<node id="-304907" lat="61.3863555525" lon="10.9100361023">
		<tag k="name" v="Saubua" />
		<tag k="place" v="isolated_dwelling" />
		<tag k="ssr:stedsnr" v="890705" />
	</node>
	<node id="-304906" lat="61.9124722249" lon="10.3693250013">
		<tag k="fixme" v="consider tourism=alpine_hut or tourism=chalet" />
		<tag k="name" v="Storgrytdalseter" />
		<tag k="old_name" v="Storgrytdalsseter" />
		<tag k="ssr:stedsnr" v="890583" />
		<tag k="tourism" v="wilderness_hut" />
	</node>
	<node id="-304897" lat="61.5345527808" lon="11.0388722271">
		<tag k="name" v="Walstad" />
		<tag k="place" v="farm" />
		<tag k="ssr:stedsnr" v="889465" />
	</node>
	<node id="-304893" lat="61.4180638868" lon="11.1045916707">
		<tag k="name" v="Skaugum" />
		<tag k="place" v="farm" />
		<tag k="ssr:stedsnr" v="889225" />
	</node>
	<node id="-304892" lat="61.4122027748" lon="11.1243694352">
		<tag k="name" v="Hauge" />
		<tag k="place" v="farm" />
		<tag k="ssr:stedsnr" v="889218" />
	</node>
	<node id="-304891" lat="61.4225250009" lon="11.0984083285">
		<tag k="name" v="Nordvang" />
		<tag k="place" v="farm" />
		<tag k="ssr:stedsnr" v="889213" />
	</node>
	<node id="-304887" lat="61.7732749994" lon="10.4006166658">
		<tag k="alt_name" v="Bortpå-Egga" />
		<tag k="name" v="Bortpåegga" />
		<tag k="place" v="farm" />
		<tag k="ssr:stedsnr" v="678306" />
	</node>
	<node id="-304886" lat="61.7855805569" lon="10.4141527847">
		<tag k="name" v="Oppsal" />
		<tag k="place" v="farm" />
		<tag k="ssr:stedsnr" v="678274" />
	</node>
	<node id="-304884" lat="61.6904249995" lon="10.404755551">
		<tag k="loc_name" v="Sollibua" />
		<tag k="name" v="Brettingsdalsbua" />
		<tag k="place" v="isolated_dwelling" />
		<tag k="ssr:stedsnr" v="678168" />
	</node>
	<node id="-304882" lat="61.506205559" lon="11.064466673">
		<tag k="name" v="Svestad" />
		<tag k="place" v="farm" />
		<tag k="ssr:stedsnr" v="678076" />
	</node>
	<node id="-304881" lat="61.8987499994" lon="10.1123166726">
		<tag k="name" v="Nordeng" />
		<tag k="place" v="farm" />
		<tag k="ssr:stedsnr" v="677553" />
	</node>
	<node id="-304879" lat="61.8535944411" lon="10.225280556">
		<tag k="name" v="Trøa" />
		<tag k="place" v="farm" />
		<tag k="ssr:stedsnr" v="677372" />
	</node>
	<node id="-304877" lat="61.8628305532" lon="10.3349666671">
		<tag k="name" v="Hattlibua" />
		<tag k="place" v="locality" />
		<tag k="ssr:stedsnr" v="677368" />
	</node>
	<node id="-304876" lat="61.8568833307" lon="10.2339833276">
		<tag k="name" v="Høye" />
		<tag k="place" v="isolated_dwelling" />
		<tag k="ssr:stedsnr" v="677366" />
	</node>
	<node id="-304870" lat="61.7380111113" lon="10.8274583315">
		<tag k="name" v="Rønningen" />
		<tag k="place" v="farm" />
		<tag k="ssr:stedsnr" v="677214" />
	</node>
	<node id="-304869" lat="61.7384611073" lon="10.7705805571">
		<tag k="name" v="Bakke" />
		<tag k="place" v="farm" />
		<tag k="ssr:stedsnr" v="677212" />
	</node>
	<node id="-304868" lat="61.7481777737" lon="10.744124996">
		<tag k="alt_name" v="Steinbakken" />
		<tag k="name" v="Stenbakken" />
		<tag k="place" v="farm" />
		<tag k="ssr:stedsnr" v="677208" />
	</node>
	<node id="-304867" lat="61.7464138883" lon="10.7486722206">
		<tag k="name" v="Solbakken" />
		<tag k="place" v="farm" />
		<tag k="ssr:stedsnr" v="677207" />
	</node>
	<node id="-304861" lat="61.6035611066" lon="11.0149416726">
		<tag k="alt_name" v="Tresebrakka" />
		<tag k="name" v="Tresbrakkene" />
		<tag k="place" v="isolated_dwelling" />
		<tag k="ssr:stedsnr" v="677019" />
	</node>
	<node id="-304860" lat="61.6133388909" lon="10.949116667">
		<tag k="name" v="Frøsåbua" />
		<tag k="place" v="isolated_dwelling" />
		<tag k="ssr:stedsnr" v="677017" />
	</node>
	<node id="-304855" lat="61.3325777775" lon="11.2541472143">
		<tag k="name" v="Taraldstu" />
		<tag k="place" v="farm" />
		<tag k="ssr:stedsnr" v="676008" />
	</node>
	<node id="-304853" lat="61.4654833337" lon="11.0242055468">
		<tag k="fixme" v="consider place=hamlet" />
		<tag k="name" v="Imsroa" />
		<tag k="place" v="village" />
		<tag k="ssr:stedsnr" v="675470" />
	</node>
	<node id="-304852" lat="61.4456999979" lon="10.7420527811">
		<tag k="name" v="Fløtbekkbua" />
		<tag k="place" v="isolated_dwelling" />
		<tag k="ssr:stedsnr" v="675465" />
	</node>
	<node id="-304851" lat="61.4463111155" lon="11.0380083329">
		<tag k="name" v="Nordstu Messelt" />
		<tag k="place" v="farm" />
		<tag k="ssr:stedsnr" v="675463" />
	</node>
	<node id="-304848" lat="61.3001305543" lon="11.1538027734">
		<tag k="historic" v="shieling" />
		<tag k="name" v="Kroksætra" />
		<tag k="place" v="locality" />
		<tag k="ssr:stedsnr" v="675256" />
	</node>
	<node id="-304835" lat="61.4199972181" lon="11.1033972191">
		<tag k="alt_name" v="Thune" />
		<tag k="name" v="Tune" />
		<tag k="place" v="farm" />
		<tag k="ssr:stedsnr" v="736087" />
	</node>
	<node id="-304832" lat="61.4332027811" lon="11.1622250053">
		<tag k="historic" v="shieling" />
		<tag k="name" v="Evenstadsætra" />
		<tag k="place" v="locality" />
		<tag k="ssr:stedsnr" v="736069" />
	</node>
	<node id="-304831" lat="61.3196805572" lon="11.2548249998">
		<tag k="name" v="Vestvang" />
		<tag k="place" v="farm" />
		<tag k="ssr:stedsnr" v="736024" />
	</node>
	<node id="-304830" lat="61.3175194401" lon="11.2554750034">
		<tag k="name" v="Støa" />
		<tag k="place" v="farm" />
		<tag k="ssr:stedsnr" v="736022" />
	</node>
	<node id="-304823" lat="61.2365611072" lon="11.3050916711">
		<tag k="name" v="Nordset" />
		<tag k="place" v="farm" />
		<tag k="ssr:stedsnr" v="648523" />
	</node>
	<node id="-304816" lat="61.4693611079" lon="10.9670027823">
		<tag k="name" v="Leråbua" />
		<tag k="place" v="isolated_dwelling" />
		<tag k="ssr:stedsnr" v="646729" />
	</node>
	<node id="-304815" lat="61.2309194458" lon="11.3024000036">
		<tag k="name" v="Granlien" />
		<tag k="place" v="farm" />
		<tag k="ssr:stedsnr" v="646511" />
	</node>
	<node id="-304806" lat="61.3249555525" lon="11.1335388837">
		<tag k="name" v="Hortenbua" />
		<tag k="place" v="isolated_dwelling" />
		<tag k="ssr:stedsnr" v="646078" />
	</node>
	<node id="-304805" lat="61.6438000021" lon="10.996430552">
		<tag k="name" v="Djupdalskoia" />
		<tag k="place" v="isolated_dwelling" />
		<tag k="ssr:stedsnr" v="727741" />
	</node>
	<node id="-304802" lat="61.5976750036" lon="11.0379722267">
		<tag k="name" v="Austeng" />
		<tag k="place" v="farm" />
		<tag k="ssr:stedsnr" v="726337" />
	</node>
	<node id="-304801" lat="61.3796888902" lon="11.0891388923">
		<tag k="name" v="Koiedalsvollen" />
		<tag k="place" v="isolated_dwelling" />
		<tag k="ssr:stedsnr" v="726275" />
	</node>
	<node id="-304796" lat="61.2969694463" lon="11.2654111122">
		<tag k="name" v="Hanstu" />
		<tag k="place" v="farm" />
		<tag k="ssr:stedsnr" v="725473" />
	</node>
	<node id="-304794" lat="61.8119194409" lon="10.2125805512">
		<tag k="loc_name" v="Nordre Vuluvollen" />
		<tag k="name" v="Nordre Vuluvolden" />
		<tag k="place" v="farm" />
		<tag k="ssr:stedsnr" v="725251" />
	</node>
	<node id="-304789" lat="61.7844749962" lon="10.4297222126">
		<tag k="loc_name" v="Sollivollen" />
		<tag k="name" v="Sollivolden" />
		<tag k="place" v="farm" />
		<tag k="ssr:stedsnr" v="724487" />
	</node>
	<node id="-304786" lat="61.7939499961" lon="10.6409999983">
		<tag k="name" v="Fosseng" />
		<tag k="place" v="farm" />
		<tag k="ssr:stedsnr" v="722881" />
	</node>
	<node id="-304785" lat="61.7887916711" lon="10.6564416589">
		<tag k="name" v="Heimtun" />
		<tag k="place" v="isolated_dwelling" />
		<tag k="ssr:stedsnr" v="722879" />
	</node>
	<node id="-304781" lat="61.644855557" lon="10.8775499928">
		<tag k="name" v="Skogheim" />
		<tag k="place" v="farm" />
		<tag k="ssr:stedsnr" v="617036" />
	</node>
	<node id="-304779" lat="61.6201083298" lon="10.8943305617">
		<tag k="alt_name" v="Søndre Viengen;Vienga, søre;Vienga" />
		<tag k="name" v="Søre Vienga" />
		<tag k="place" v="farm" />
		<tag k="ssr:stedsnr" v="617020" />
	</node>
	<node id="-304778" lat="61.9084111111" lon="10.1216583291">
		<tag k="historic" v="shieling" />
		<tag k="name" v="Nessætra" />
		<tag k="place" v="locality" />
		<tag k="ssr:stedsnr" v="616572" />
	</node>
	<node id="-304775" lat="61.8901805562" lon="10.1303638949">
		<tag k="name" v="Furulund" />
		<tag k="place" v="farm" />
		<tag k="ssr:stedsnr" v="616560" />
	</node>
	<node id="-304770" lat="61.7254055525" lon="10.95937223">
		<tag k="alt_name" v="Koppangkjølen, nørdre" />
		<tag k="name" v="Nordre Koppangskjølen" />
		<tag k="place" v="hamlet" />
		<tag k="ssr:stedsnr" v="616191" />
	</node>
	<node id="-304769" lat="61.7178250011" lon="10.8421916642">
		<tag k="name" v="Fredvang" />
		<tag k="place" v="farm" />
		<tag k="ssr:stedsnr" v="616189" />
	</node>
	<node id="-304761" lat="61.3483666694" lon="11.2439499963">
		<tag k="name" v="Solheim" />
		<tag k="place" v="farm" />
		<tag k="ssr:stedsnr" v="615005" />
	</node>
	<node id="-304759" lat="61.2873111117" lon="11.2902527827">
		<tag k="alt_name" v="Svea Strand" />
		<tag k="name" v="Svea" />
		<tag k="place" v="farm" />
		<tag k="ssr:stedsnr" v="614225" />
	</node>
	<node id="-304757" lat="61.3214555581" lon="11.2549166747">
		<tag k="name" v="Svea" />
		<tag k="place" v="farm" />
		<tag k="ssr:stedsnr" v="614019" />
	</node>
	<node id="-304756" lat="61.2146833362" lon="11.3023055585">
		<tag k="name" v="Kletten" />
		<tag k="place" v="locality" />
		<tag k="ssr:stedsnr" v="613408" />
	</node>
	<node id="-304748" lat="61.8885027798" lon="10.1806916729">
		<tag k="name" v="Atnstua" />
		<tag k="place" v="farm" />
		<tag k="ssr:stedsnr" v="604414" />
	</node>
	<node id="-304743" lat="61.2558805598" lon="11.3207472304">
		<tag k="alt_name" v="Stenvikstuen" />
		<tag k="name" v="Stenvikstua" />
		<tag k="old_name" v="Stuen" />
		<tag k="place" v="farm" />
		<tag k="ssr:stedsnr" v="600204" />
	</node>
	<node id="-304742" lat="61.4190944465" lon="10.9648472292">
		<tag k="name" v="Glesåsbua" />
		<tag k="place" v="locality" />
		<tag k="ssr:stedsnr" v="587903" />
	</node>
	<node id="-304741" lat="61.4765277763" lon="10.9075583351">
		<tag k="name" v="Borgbua" />
		<tag k="place" v="isolated_dwelling" />
		<tag k="ssr:stedsnr" v="586523" />
	</node>
	<node id="-304738" lat="61.4886555525" lon="11.0519027744">
		<tag k="loc_name" v="Baggroa" />
		<tag k="name" v="Bagroa" />
		<tag k="place" v="isolated_dwelling" />
		<tag k="ssr:stedsnr" v="585723" />
	</node>
	<node id="-304731" lat="61.7852555515" lon="10.5310666611">
		<tag k="name" v="Rygnestad" />
		<tag k="place" v="locality" />
		<tag k="ssr:stedsnr" v="709968" />
	</node>
	<node id="-304729" lat="61.2328388894" lon="11.3327083275">
		<tag k="name" v="Glomstad" />
		<tag k="place" v="farm" />
		<tag k="ssr:stedsnr" v="709818" />
	</node>
	<node id="-304726" lat="61.5307166669" lon="11.0369750058">
		<tag k="name" v="Mohaug" />
		<tag k="place" v="isolated_dwelling" />
		<tag k="ssr:stedsnr" v="708809" />
	</node>
	<node id="-304725" lat="61.4621222227" lon="11.062013886">
		<tag k="loc_name" v="Merramyrkoia" />
		<tag k="name" v="Mærramyrkoia" />
		<tag k="place" v="isolated_dwelling" />
		<tag k="ssr:stedsnr" v="708782" />
	</node>
	<node id="-304724" lat="61.4552555599" lon="11.0771833404">
		<tag k="name" v="Gardtomtene" />
		<tag k="place" v="locality" />
		<tag k="ssr:stedsnr" v="708765" />
	</node>
	<node id="-304720" lat="61.8328722223" lon="10.3772527777">
		<tag k="historic" v="shieling" />
		<tag k="name" v="Kirkestusætra" />
		<tag k="place" v="locality" />
		<tag k="ssr:stedsnr" v="707899" />
	</node>
	<node id="-304718" lat="61.6041416637" lon="10.8070138833">
		<tag k="name" v="Saubua" />
		<tag k="place" v="locality" />
		<tag k="ssr:stedsnr" v="707856" />
	</node>
	<node id="-304713" lat="61.5399166687" lon="11.0355055603">
		<tag k="name" v="Nordre Storstu" />
		<tag k="place" v="farm" />
		<tag k="ssr:stedsnr" v="707478" />
	</node>
	<node id="-304711" lat="61.5342888855" lon="11.0662972251">
		<tag k="name" v="Lien" />
		<tag k="place" v="isolated_dwelling" />
		<tag k="ssr:stedsnr" v="707472" />
	</node>
	<node id="-304709" lat="61.4077527812" lon="11.1176472267">
		<tag k="name" v="Mellemstad" />
		<tag k="place" v="isolated_dwelling" />
		<tag k="ssr:stedsnr" v="707252" />
	</node>
	<node id="-304708" lat="61.4184305594" lon="11.0925166578">
		<tag k="name" v="Strandli" />
		<tag k="place" v="farm" />
		<tag k="ssr:stedsnr" v="707242" />
	</node>
	<node id="-304707" lat="61.7380805573" lon="10.769441661">
		<tag k="name" v="Riise" />
		<tag k="place" v="isolated_dwelling" />
		<tag k="ssr:stedsnr" v="707213" />
	</node>
	<node id="-304698" lat="61.8004222249" lon="10.6062638804">
		<tag k="name" v="Nordrum" />
		<tag k="place" v="farm" />
		<tag k="ssr:stedsnr" v="556319" />
	</node>
	<node id="-304697" lat="61.7841416704" lon="10.4123083254">
		<tag k="name" v="Haugland" />
		<tag k="place" v="farm" />
		<tag k="ssr:stedsnr" v="556310" />
	</node>
	<node id="-304696" lat="61.7973916645" lon="10.6659222296">
		<tag k="name" v="Malmbua" />
		<tag k="place" v="isolated_dwelling" />
		<tag k="ssr:stedsnr" v="556308" />
	</node>
	<node id="-304695" lat="61.5612166624" lon="11.0050527796">
		<tag k="name" v="Nordset" />
		<tag k="place" v="farm" />
		<tag k="ssr:stedsnr" v="556119" />
	</node>
	<node id="-304693" lat="61.5481083363" lon="11.0546666635">
		<tag k="name" v="Ånestubakken" />
		<tag k="place" v="farm" />
		<tag k="ssr:stedsnr" v="556105" />
	</node>
	<node id="-304688" lat="61.5071499966" lon="11.0486444525">
		<tag k="name" v="Sagstua" />
		<tag k="place" v="isolated_dwelling" />
		<tag k="ssr:stedsnr" v="556066" />
	</node>
	<node id="-304680" lat="61.5853388904" lon="10.851727771">
		<tag k="name" v="Trønnesgammelsætra" />
		<tag k="place" v="isolated_dwelling" />
		<tag k="ssr:stedsnr" v="555095" />
	</node>
	<node id="-304676" lat="61.7856702906" lon="10.4309891879">
		<tag k="fixme" v="consider place=hamlet" />
		<tag k="name" v="Eggen" />
		<tag k="place" v="farm" />
		<tag k="ssr:stedsnr" v="299534" />
	</node>
	<node id="-304675" lat="61.7706027809" lon="10.3727222178">
		<tag k="amenity" v="townhall" />
		<tag k="name" v="Sollia kommunehus" />
		<tag k="ssr:stedsnr" v="299528" />
	</node>
	<node id="-304669" lat="61.3060666678" lon="11.2387499941">
		<tag k="name" v="Sentralen" />
		<tag k="place" v="isolated_dwelling" />
		<tag k="ssr:stedsnr" v="543511" />
	</node>
	<node id="-304663" lat="61.889322223" lon="10.1459472254">
		<tag k="name" v="Midt-Neset" />
		<tag k="place" v="farm" />
		<tag k="ssr:stedsnr" v="537586" />
	</node>
	<node id="-304659" lat="61.5292305524" lon="11.0350611083">
		<tag k="name" v="Botolfsmoen" />
		<tag k="place" v="isolated_dwelling" />
		<tag k="ssr:stedsnr" v="526833" />
	</node>
	<node id="-304658" lat="61.5320611112" lon="11.0367250056">
		<tag k="name" v="Åkermoen" />
		<tag k="place" v="isolated_dwelling" />
		<tag k="ssr:stedsnr" v="526832" />
	</node>
	<node id="-304657" lat="61.4387416667" lon="11.1522222273">
		<tag k="name" v="Storfløtningen" />
		<tag k="place" v="locality" />
		<tag k="ssr:stedsnr" v="526375" />
	</node>
	<node id="-304653" lat="61.5679000039" lon="11.0177611153">
		<tag k="name" v="Sundfloen" />
		<tag k="old_name" v="Sundfloen Camping" />
		<tag k="ssr:stedsnr" v="687374" />
		<tag k="tourism" v="camp_site" />
	</node>
	<node id="-304651" lat="61.2726166646" lon="11.2996833363">
		<tag k="alt_name" v="Rusten" />
		<tag k="name" v="Rusta" />
		<tag k="place" v="farm" />
		<tag k="ssr:stedsnr" v="736256" />
	</node>
	<node id="-304649" lat="61.2642722217" lon="11.3096499916">
		<tag k="name" v="Hovdstua" />
		<tag k="place" v="farm" />
		<tag k="ssr:stedsnr" v="736247" />
	</node>
	<node id="-304648" lat="61.2998944455" lon="11.262161108">
		<tag k="name" v="Vik" />
		<tag k="place" v="farm" />
		<tag k="ssr:stedsnr" v="736239" />
	</node>
	<node id="-304647" lat="61.7884777765" lon="10.5532027694">
		<tag k="name" v="Holmsbu" />
		<tag k="place" v="farm" />
		<tag k="ssr:stedsnr" v="496320" />
	</node>
	<node id="-304646" lat="61.786261111" lon="10.5395888874">
		<tag k="name" v="Bjerke" />
		<tag k="place" v="farm" />
		<tag k="ssr:stedsnr" v="496317" />
	</node>
	<node id="-304645" lat="61.784427778" lon="10.5065111179">
		<tag k="name" v="Storbekkmoen" />
		<tag k="place" v="farm" />
		<tag k="ssr:stedsnr" v="496314" />
	</node>
	<node id="-304644" lat="61.7588805532" lon="10.7155305608">
		<tag k="alt_name" v="Høløyneset" />
		<tag k="name" v="Holøyneset" />
		<tag k="place" v="isolated_dwelling" />
		<tag k="ssr:stedsnr" v="496299" />
	</node>
	<node id="-304643" lat="61.8243083337" lon="10.5613916633">
		<tag k="historic" v="shieling" />
		<tag k="name" v="Hanestadnysætra" />
		<tag k="place" v="locality" />
		<tag k="ssr:stedsnr" v="496281" />
	</node>
	<node id="-304641" lat="61.8460972206" lon="10.3593833416">
		<tag k="alt_name" v="Åsgard" />
		<tag k="name" v="Åsgård" />
		<tag k="place" v="farm" />
		<tag k="ssr:stedsnr" v="495473" />
	</node>
	<node id="-304639" lat="61.5404388861" lon="11.0326916637">
		<tag k="name" v="Berger" />
		<tag k="place" v="farm" />
		<tag k="ssr:stedsnr" v="495104" />
	</node>
	<node id="-304638" lat="61.5341500036" lon="11.0677250027">
		<tag k="name" v="Gustulia" />
		<tag k="place" v="farm" />
		<tag k="ssr:stedsnr" v="495102" />
	</node>
	<node id="-304637" lat="61.8437749965" lon="10.4053666649">
		<tag k="name" v="Raslvollen" />
		<tag k="place" v="isolated_dwelling" />
		<tag k="ssr:stedsnr" v="678487" />
	</node>
	<node id="-304636" lat="61.7890111081" lon="10.66968889">
		<tag k="name" v="Fossum" />
		<tag k="place" v="farm" />
		<tag k="ssr:stedsnr" v="678333" />
	</node>
	<node id="-304631" lat="61.6339972202" lon="10.8863416618">
		<tag k="alt_name" v="Nordenget" />
		<tag k="name" v="Nordengen" />
		<tag k="place" v="farm" />
		<tag k="ssr:stedsnr" v="678047" />
	</node>
	<node id="-304630" lat="61.6287500003" lon="11.0622027809">
		<tag k="name" v="Rokksætra" />
		<tag k="place" v="isolated_dwelling" />
		<tag k="ssr:stedsnr" v="678040" />
	</node>
	<node id="-304628" lat="61.6260611101" lon="10.8894277855">
		<tag k="name" v="Åsvang" />
		<tag k="place" v="farm" />
		<tag k="ssr:stedsnr" v="678030" />
	</node>
	<node id="-304623" lat="61.7933388846" lon="10.1979555638">
		<tag k="alt_name" v="Vollumsæter" />
		<tag k="historic" v="shieling" />
		<tag k="name" v="Vollomsætra" />
		<tag k="place" v="locality" />
		<tag k="ssr:stedsnr" v="677400" />
	</node>
	<node id="-304615" lat="61.5288138894" lon="10.8654249934">
		<tag k="name" v="Nedgardsgammelsætra" />
		<tag k="place" v="farm" />
		<tag k="ssr:stedsnr" v="677088" />
	</node>
	<node id="-304614" lat="61.7170833378" lon="10.8525166707">
		<tag k="name" v="Nyvoll" />
		<tag k="place" v="farm" />
		<tag k="ssr:stedsnr" v="677198" />
	</node>
	<node id="-304613" lat="61.7378555587" lon="10.9067805611">
		<tag k="name" v="Skaugum" />
		<tag k="place" v="isolated_dwelling" />
		<tag k="ssr:stedsnr" v="677196" />
	</node>
	<node id="-304611" lat="61.7165222192" lon="10.864958326">
		<tag k="name" v="Bakkelund" />
		<tag k="place" v="farm" />
		<tag k="ssr:stedsnr" v="677183" />
	</node>
	<node id="-304604" lat="61.3668138874" lon="11.201383336">
		<tag k="name" v="Nabben" />
		<tag k="place" v="farm" />
		<tag k="ssr:stedsnr" v="676052" />
	</node>
	<node id="-304595" lat="61.5554166683" lon="11.0143694416">
		<tag k="name" v="Nystu Trønnes" />
		<tag k="place" v="farm" />
		<tag k="ssr:stedsnr" v="483366" />
	</node>
	<node id="-304589" lat="61.6336527764" lon="11.0034138863">
		<tag k="name" v="Månsæterbua" />
		<tag k="place" v="locality" />
		<tag k="ssr:stedsnr" v="480219" />
	</node>
	<node id="-304588" lat="61.88973889" lon="10.1465916595">
		<tag k="name" v="Søre Neset" />
		<tag k="place" v="farm" />
		<tag k="ssr:stedsnr" v="477623" />
	</node>
	<node id="-304586" lat="61.7852055542" lon="10.4926916578">
		<tag k="loc_name" v="Høyvoll" />
		<tag k="name" v="Høyvold" />
		<tag k="place" v="isolated_dwelling" />
		<tag k="ssr:stedsnr" v="466975" />
	</node>
	<node id="-304580" lat="61.83319167" lon="10.3762638901">
		<tag k="historic" v="shieling" />
		<tag k="name" v="Ingridstusætra" />
		<tag k="place" v="locality" />
		<tag k="ssr:stedsnr" v="464908" />
	</node>
	<node id="-304576" lat="61.5451666639" lon="11.0231472135">
		<tag k="alt_name" v="Søndre Noren" />
		<tag k="name" v="Søre Noren" />
		<tag k="place" v="farm" />
		<tag k="ssr:stedsnr" v="464474" />
	</node>
	<node id="-304575" lat="61.5365166688" lon="11.034908325">
		<tag k="name" v="Kverndalen" />
		<tag k="place" v="farm" />
		<tag k="ssr:stedsnr" v="464470" />
	</node>
	<node id="-304571" lat="61.522336109" lon="11.0404222293">
		<tag k="name" v="Myreng" />
		<tag k="place" v="isolated_dwelling" />
		<tag k="ssr:stedsnr" v="666777" />
	</node>
	<node id="-304570" lat="61.57236111" lon="11.016974991">
		<tag k="name" v="Koppang Camping" />
		<tag k="ssr:stedsnr" v="666363" />
		<tag k="tourism" v="camp_site" />
	</node>
	<node id="-304565" lat="61.7696111139" lon="10.3710861037">
		<tag k="name" v="Sollia prestegård" />
		<tag k="place" v="farm" />
		<tag k="ssr:stedsnr" v="665717" />
	</node>
	<node id="-304560" lat="61.8499222187" lon="10.2425638958">
		<tag k="name" v="Nordre Moen" />
		<tag k="place" v="farm" />
		<tag k="ssr:stedsnr" v="665423" />
	</node>
	<node id="-304558" lat="61.3889500008" lon="11.1479083352">
		<tag k="name" v="Akselstuen" />
		<tag k="place" v="farm" />
		<tag k="ssr:stedsnr" v="665290" />
	</node>
	<node id="-304557" lat="61.38802222" lon="11.1489250011">
		<tag k="name" v="Manstuen" />
		<tag k="place" v="farm" />
		<tag k="ssr:stedsnr" v="665289" />
	</node>
	<node id="-304555" lat="61.5588416664" lon="10.9492888797">
		<tag k="name" v="Kjerkemobua" />
		<tag k="place" v="isolated_dwelling" />
		<tag k="ssr:stedsnr" v="664116" />
	</node>
	<node id="-304552" lat="61.7855416644" lon="10.4949611031">
		<tag k="name" v="Åsland" />
		<tag k="place" v="farm" />
		<tag k="ssr:stedsnr" v="662975" />
	</node>
	<node id="-304549" lat="61.2565252669" lon="11.3187823368">
		<tag k="fixme" v="consider place=hamlet" />
		<tag k="name" v="Steinvika" />
		<tag k="place" v="farm" />
		<tag k="ssr:stedsnr" v="661398" />
	</node>
	<node id="-304548" lat="61.4296888877" lon="11.2003222294">
		<tag k="name" v="Perstu" />
		<tag k="place" v="locality" />
		<tag k="ssr:stedsnr" v="299282" />
	</node>
	<node id="-304542" lat="61.8419000037" lon="10.158702782">
		<tag k="historic" v="shieling" />
		<tag k="name" v="Midtbrennsætra" />
		<tag k="place" v="locality" />
		<tag k="ssr:stedsnr" v="435455" />
	</node>
	<node id="-304539" lat="61.8702555569" lon="10.4941638951">
		<tag k="alt_name" v="Ruudshytta" />
		<tag k="name" v="Rudshytta" />
		<tag k="place" v="isolated_dwelling" />
		<tag k="ssr:stedsnr" v="435503" />
	</node>
	<node id="-304537" lat="61.5783083357" lon="11.0257388847">
		<tag k="name" v="Mørstad" />
		<tag k="place" v="isolated_dwelling" />
		<tag k="ssr:stedsnr" v="435145" />
	</node>
	<node id="-304534" lat="61.5567027811" lon="11.0037277824">
		<tag k="name" v="Syra" />
		<tag k="place" v="farm" />
		<tag k="ssr:stedsnr" v="435125" />
	</node>
	<node id="-304532" lat="61.5353652992" lon="11.0727134705">
		<tag k="fixme" v="consider place=hamlet" />
		<tag k="name" v="Gustumoen" />
		<tag k="place" v="farm" />
		<tag k="ssr:stedsnr" v="435107" />
	</node>
	<node id="-304531" lat="61.5287396436" lon="11.0444626301">
		<tag k="alt_name" v="Negard" />
		<tag k="fixme" v="consider place=hamlet" />
		<tag k="name" v="Nedgard" />
		<tag k="place" v="farm" />
		<tag k="ssr:stedsnr" v="435103" />
	</node>
	<node id="-304530" lat="61.5296444473" lon="11.0421499918">
		<tag k="alt_name" v="Sørstu" />
		<tag k="name" v="Søstu Vestgard" />
		<tag k="place" v="farm" />
		<tag k="ssr:stedsnr" v="435102" />
	</node>
	<node id="-304528" lat="61.6017500014" lon="10.9922527763">
		<tag k="fixme" v="multiple name tags, choose one and add the other to alt_name" />
		<tag k="name" v="Langrusta;Svenskbrakka" />
		<tag k="place" v="isolated_dwelling" />
		<tag k="ssr:stedsnr" v="435015" />
	</node>
	<node id="-304525" lat="61.4216396012" lon="11.0745731321">
		<tag k="alt_name" v="Møkleby" />
		<tag k="fixme" v="consider place=hamlet" />
		<tag k="name" v="Mykleby" />
		<tag k="place" v="village" />
		<tag k="ssr:stedsnr" v="433409" />
	</node>
	<node id="-304524" lat="61.2705611083" lon="11.3034111193">
		<tag k="name" v="Strandenga" />
		<tag k="place" v="farm" />
		<tag k="ssr:stedsnr" v="433233" />
	</node>
	<node id="-304519" lat="61.4477583304" lon="10.8164777718">
		<tag k="alt_name" v="Messeltsætra, nordre" />
		<tag k="historic" v="shieling" />
		<tag k="name" v="Nordre Messeltsætra" />
		<tag k="place" v="locality" />
		<tag k="ssr:stedsnr" v="432416" />
	</node>
	<node id="-304518" lat="61.4335805537" lon="11.0777111109">
		<tag k="name" v="Svea" />
		<tag k="place" v="farm" />
		<tag k="ssr:stedsnr" v="432412" />
	</node>
	<node id="-304517" lat="61.2187888861" lon="11.2028305592">
		<tag k="alt_name" v="Storbua, øvre" />
		<tag k="name" v="Øvre Storbua" />
		<tag k="place" v="isolated_dwelling" />
		<tag k="ssr:stedsnr" v="431428" />
	</node>
	<node id="-304516" lat="61.5260638916" lon="11.0455916583">
		<tag k="name" v="Vesterheim" />
		<tag k="place" v="isolated_dwelling" />
		<tag k="ssr:stedsnr" v="423832" />
	</node>
	<node id="-304515" lat="61.5657527814" lon="11.0433138896">
		<tag k="name" v="Lillestu-Koppang" />
		<tag k="place" v="farm" />
		<tag k="ssr:stedsnr" v="423419" />
	</node>
	<node id="-304513" lat="61.7013416669" lon="10.9014027756">
		<tag k="name" v="Furuholmshytta" />
		<tag k="place" v="isolated_dwelling" />
		<tag k="ssr:stedsnr" v="423111" />
	</node>
	<node id="-304510" lat="61.2531250022" lon="11.2974249961">
		<tag k="name" v="Kannusbua" />
		<tag k="place" v="isolated_dwelling" />
		<tag k="ssr:stedsnr" v="421532" />
	</node>
	<node id="-304506" lat="61.2965249988" lon="11.2776777746">
		<tag k="name" v="Nordmo" />
		<tag k="place" v="farm" />
		<tag k="ssr:stedsnr" v="421509" />
	</node>
	<node id="-304504" lat="61.8309694459" lon="10.3627555515">
		<tag k="historic" v="shieling" />
		<tag k="name" v="Solligardssætra" />
		<tag k="place" v="locality" />
		<tag k="ssr:stedsnr" v="404907" />
	</node>
	<node id="-304503" lat="61.4660972208" lon="11.0122555591">
		<tag k="name" v="Roa" />
		<tag k="place" v="isolated_dwelling" />
		<tag k="ssr:stedsnr" v="404753" />
	</node>
	<node id="-304499" lat="61.5385833316" lon="11.0262055557">
		<tag k="name" v="Myrbakken" />
		<tag k="place" v="isolated_dwelling" />
		<tag k="ssr:stedsnr" v="404456" />
	</node>
	<node id="-304498" lat="61.4081694488" lon="11.1169499968">
		<tag k="name" v="Magnhildstuen" />
		<tag k="place" v="farm" />
		<tag k="ssr:stedsnr" v="403205" />
	</node>
	<node id="-304495" lat="61.7462861078" lon="10.190050009">
		<tag k="historic" v="shieling" />
		<tag k="name" v="Snødøldalssætra" />
		<tag k="place" v="locality" />
		<tag k="ssr:stedsnr" v="505293" />
	</node>
	<node id="-304489" lat="61.7845388917" lon="10.4217805519">
		<tag k="name" v="Solligarden" />
		<tag k="place" v="farm" />
		<tag k="ssr:stedsnr" v="375273" />
	</node>
	<node id="-304488" lat="61.7720717233" lon="10.6799522237">
		<tag k="fixme" v="consider place=hamlet" />
		<tag k="name" v="Tryli" />
		<tag k="place" v="farm" />
		<tag k="ssr:stedsnr" v="375264" />
	</node>
	<node id="-304487" lat="61.7819833333" lon="10.4025722188">
		<tag k="name" v="Myrvang" />
		<tag k="place" v="farm" />
		<tag k="ssr:stedsnr" v="375261" />
	</node>
	<node id="-304486" lat="61.7813111104" lon="10.4033194506">
		<tag k="name" v="Ingridstua" />
		<tag k="place" v="farm" />
		<tag k="ssr:stedsnr" v="375260" />
	</node>
	<node id="-304485" lat="61.7792972213" lon="10.4019555489">
		<tag k="alt_name" v="Kirkestua" />
		<tag k="name" v="Kjerkestua" />
		<tag k="place" v="farm" />
		<tag k="ssr:stedsnr" v="375259" />
	</node>
	<node id="-304482" lat="61.5721305511" lon="10.6714555534">
		<tag k="historic" v="shieling" />
		<tag k="name" v="Fampsætra" />
		<tag k="place" v="locality" />
		<tag k="ssr:stedsnr" v="374261" />
	</node>
	<node id="-304481" lat="61.6999611086" lon="10.8862750074">
		<tag k="name" v="Sørheim" />
		<tag k="place" v="farm" />
		<tag k="ssr:stedsnr" v="374222" />
	</node>
	<node id="-304477" lat="61.5174444487" lon="11.0666944355">
		<tag k="name" v="Svea" />
		<tag k="place" v="farm" />
		<tag k="ssr:stedsnr" v="374076" />
	</node>
	<node id="-304474" lat="61.6945083295" lon="10.8911777858">
		<tag k="name" v="Bergset" />
		<tag k="place" v="farm" />
		<tag k="ssr:stedsnr" v="374063" />
	</node>
	<node id="-304473" lat="61.5624444411" lon="11.0055333356">
		<tag k="alt_name" v="Ulmoen, s;Søndre Ulvmoen" />
		<tag k="name" v="Søre Ulmoen" />
		<tag k="place" v="farm" />
		<tag k="ssr:stedsnr" v="374121" />
	</node>
	<node id="-304472" lat="61.5634277771" lon="11.0508888946">
		<tag k="name" v="Myrberget" />
		<tag k="place" v="farm" />
		<tag k="ssr:stedsnr" v="374117" />
	</node>
	<node id="-304470" lat="61.5585138868" lon="11.0416388862">
		<tag k="name" v="Høystad" />
		<tag k="place" v="farm" />
		<tag k="ssr:stedsnr" v="374103" />
	</node>
	<node id="-304468" lat="61.6078972202" lon="11.0945694405">
		<tag k="alt_name" v="Måsåbua, nedre" />
		<tag k="name" v="Nedre Måsåbu" />
		<tag k="place" v="isolated_dwelling" />
		<tag k="ssr:stedsnr" v="373504" />
	</node>
	<node id="-304466" lat="61.7589054775" lon="10.2639131819">
		<tag k="name" v="Sjøli" />
		<tag k="place" v="hamlet" />
		<tag k="ssr:stedsnr" v="373408" />
	</node>
	<node id="-304462" lat="61.59478056" lon="11.0116694469">
		<tag k="alt_name" v="Nysveen" />
		<tag k="name" v="Nysvea" />
		<tag k="place" v="farm" />
		<tag k="ssr:stedsnr" v="373006" />
	</node>
	<node id="-304457" lat="61.3266277809" lon="11.2789944497">
		<tag k="alt_name" v="Løsset" />
		<tag k="name" v="Løset" />
		<tag k="place" v="farm" />
		<tag k="ssr:stedsnr" v="372021" />
	</node>
	<node id="-304455" lat="61.4272638873" lon="11.0601916629">
		<tag k="name" v="Rognstad" />
		<tag k="place" v="farm" />
		<tag k="ssr:stedsnr" v="371413" />
	</node>
	<node id="-304449" lat="61.8587638902" lon="10.2083083318">
		<tag k="name" v="Rønningen" />
		<tag k="place" v="farm" />
		<tag k="ssr:stedsnr" v="495585" />
	</node>
	<node id="-304447" lat="61.8727722193" lon="10.1940861186">
		<tag k="amenity" v="cafe" />
		<tag k="name" v="Atnasjø kafe" />
		<tag k="old_name" v="Atnsjø" />
		<tag k="ssr:stedsnr" v="495581" />
	</node>
	<node id="-304446" lat="61.8787166668" lon="10.3037083382">
		<tag k="historic" v="shieling" />
		<tag k="name" v="Nygardsætra" />
		<tag k="place" v="locality" />
		<tag k="ssr:stedsnr" v="495579" />
	</node>
	<node id="-304443" lat="61.7845622406" lon="10.2303431635">
		<tag k="name" v="Enden" />
		<tag k="place" v="locality" />
		<tag k="ssr:stedsnr" v="495419" />
	</node>
	<node id="-304442" lat="61.7972429038" lon="10.220719294">
		<tag k="name" v="Sæter" />
		<tag k="place" v="hamlet" />
		<tag k="ssr:stedsnr" v="495411" />
	</node>
	<node id="-304440" lat="61.8939111135" lon="10.1216194456">
		<tag k="name" v="Nyheim" />
		<tag k="place" v="farm" />
		<tag k="ssr:stedsnr" v="495556" />
	</node>
	<node id="-304438" lat="61.734499996" lon="10.729458324">
		<tag k="name" v="Hirhalsen" />
		<tag k="place" v="isolated_dwelling" />
		<tag k="ssr:stedsnr" v="495241" />
	</node>
	<node id="-304434" lat="61.5646999995" lon="11.0402166629">
		<tag k="name" v="Bø" />
		<tag k="place" v="farm" />
		<tag k="ssr:stedsnr" v="495124" />
	</node>
	<node id="-304433" lat="61.8032916638" lon="10.1947861203">
		<tag k="alt_name" v="Vollumsæter" />
		<tag k="historic" v="shieling" />
		<tag k="name" v="Vollomsætra" />
		<tag k="place" v="locality" />
		<tag k="ssr:stedsnr" v="495382" />
	</node>
	<node id="-304432" lat="61.8100402732" lon="10.2129959119">
		<tag k="name" v="Vollom" />
		<tag k="place" v="hamlet" />
		<tag k="ssr:stedsnr" v="495381" />
	</node>
	<node id="-304429" lat="61.6393583363" lon="10.8861388931">
		<tag k="name" v="Smedbakken" />
		<tag k="place" v="farm" />
		<tag k="ssr:stedsnr" v="495043" />
	</node>
	<node id="-304428" lat="61.6450250017" lon="10.8870777758">
		<tag k="name" v="Løvland" />
		<tag k="place" v="farm" />
		<tag k="ssr:stedsnr" v="495040" />
	</node>
	<node id="-304426" lat="61.6221888893" lon="10.8909694489">
		<tag k="alt_name" v="Vienga, nørdre;Nordre Viengen" />
		<tag k="name" v="Nørdre Vienga" />
		<tag k="place" v="farm" />
		<tag k="ssr:stedsnr" v="495026" />
	</node>
	<node id="-304425" lat="61.616650003" lon="10.9073972299">
		<tag k="name" v="Solbakken" />
		<tag k="place" v="farm" />
		<tag k="ssr:stedsnr" v="495024" />
	</node>
	<node id="-304423" lat="61.5534388876" lon="11.0525333336">
		<tag k="name" v="Nordberg" />
		<tag k="place" v="farm" />
		<tag k="ssr:stedsnr" v="495116" />
	</node>
	<node id="-304422" lat="61.5446583326" lon="11.0155611104">
		<tag k="name" v="Rustmoen" />
		<tag k="place" v="isolated_dwelling" />
		<tag k="ssr:stedsnr" v="495115" />
	</node>
	<node id="-304412" lat="61.3477916668" lon="11.2231611109">
		<tag k="name" v="Davan" />
		<tag k="place" v="farm" />
		<tag k="ssr:stedsnr" v="494009" />
	</node>
	<node id="-304346" lat="61.7226861126" lon="10.8300611143">
		<tag k="alt_name" v="Kjølhammar" />
		<tag k="name" v="Kjøldhammaren" />
		<tag k="place" v="farm" />
		<tag k="ssr:stedsnr" v="313211" />
	</node>
	<node id="-304410" lat="61.4858472198" lon="11.0477999915">
		<tag k="name" v="Seljordet" />
		<tag k="place" v="farm" />
		<tag k="ssr:stedsnr" v="493447" />
	</node>
	<node id="-304407" lat="61.2666111069" lon="11.3061138897">
		<tag k="name" v="Myrbakken" />
		<tag k="place" v="farm" />
		<tag k="ssr:stedsnr" v="493241" />
	</node>
	<node id="-304406" lat="61.2978055593" lon="11.2767333257">
		<tag k="alt_name" v="Veslstu" />
		<tag k="name" v="Veslestu Strand" />
		<tag k="place" v="farm" />
		<tag k="ssr:stedsnr" v="493235" />
	</node>
	<node id="-304405" lat="61.2566000005" lon="11.3134555626">
		<tag k="name" v="Rytterstua" />
		<tag k="place" v="farm" />
		<tag k="ssr:stedsnr" v="493208" />
	</node>
	<node id="-304403" lat="61.4310805591" lon="11.1258111114">
		<tag k="name" v="Bratteggbua" />
		<tag k="place" v="isolated_dwelling" />
		<tag k="ssr:stedsnr" v="493077" />
	</node>
	<node id="-304399" lat="61.8823277743" lon="10.4424388807">
		<tag k="historic" v="shieling" />
		<tag k="name" v="Vatnesætra" />
		<tag k="place" v="locality" />
		<tag k="ssr:stedsnr" v="362988" />
	</node>
	<node id="-304397" lat="61.5268000014" lon="11.0427777743">
		<tag k="name" v="Negard" />
		<tag k="place" v="hamlet" />
		<tag k="ssr:stedsnr" v="362816" />
	</node>
	<node id="-304391" lat="61.7288138868" lon="10.8157916691">
		<tag k="amenity" v="school" />
		<tag k="name" v="Atna" />
		<tag k="ssr:stedsnr" v="362215" />
	</node>
	<node id="-304388" lat="61.8608222262" lon="10.209791658">
		<tag k="name" v="Fjelltun" />
		<tag k="ssr:stedsnr" v="360215" />
		<tag k="tourism" v="guest_house" />
	</node>
	<node id="-304385" lat="61.3795861092" lon="11.2671027809">
		<tag k="name" v="Kjølmyrrustkoia" />
		<tag k="place" v="isolated_dwelling" />
		<tag k="ssr:stedsnr" v="359807" />
	</node>
	<node id="-304382" lat="61.4513250012" lon="11.0367722282">
		<tag k="name" v="Perstu Messelt" />
		<tag k="place" v="farm" />
		<tag k="ssr:stedsnr" v="492414" />
	</node>
	<node id="-304381" lat="61.2287777791" lon="11.2714388943">
		<tag k="name" v="Gravingsbua" />
		<tag k="place" v="isolated_dwelling" />
		<tag k="ssr:stedsnr" v="492367" />
	</node>
	<node id="-304379" lat="61.7881250018" lon="10.5122472262">
		<tag k="name" v="Vatne" />
		<tag k="place" v="farm" />
		<tag k="ssr:stedsnr" v="345962" />
	</node>
	<node id="-304378" lat="61.4083138883" lon="11.1998472144">
		<tag k="name" v="Sameibua" />
		<tag k="place" v="isolated_dwelling" />
		<tag k="ssr:stedsnr" v="345803" />
	</node>
	<node id="-304377" lat="61.4314666633" lon="11.0870694379">
		<tag k="name" v="Hagestua" />
		<tag k="place" v="locality" />
		<tag k="ssr:stedsnr" v="344341" />
	</node>
	<node id="-304376" lat="61.5233805576" lon="11.0381972156">
		<tag k="name" v="Andreasmoen" />
		<tag k="place" v="isolated_dwelling" />
		<tag k="ssr:stedsnr" v="484792" />
	</node>
	<node id="-304363" lat="61.7884805565" lon="10.2246999918">
		<tag k="name" v="Rondane Gjestegård" />
		<tag k="old_name" v="Enden pensjonat" />
		<tag k="ssr:stedsnr" v="482279" />
		<tag k="tourism" v="hotel" />
	</node>
	<node id="-304358" lat="61.4284638866" lon="11.2017083402">
		<tag k="name" v="Svenskebrakka" />
		<tag k="place" v="isolated_dwelling" />
		<tag k="ssr:stedsnr" v="481283" />
	</node>
	<node id="-304356" lat="61.4354472239" lon="11.2008055497">
		<tag k="name" v="Hørstadvika" />
		<tag k="place" v="locality" />
		<tag k="ssr:stedsnr" v="481277" />
	</node>
	<node id="-304354" lat="61.469752869" lon="11.0310216188">
		<tag k="fixme" v="consider place=hamlet" />
		<tag k="name" v="Stai" />
		<tag k="place" v="farm" />
		<tag k="ssr:stedsnr" v="479848" />
	</node>
	<node id="-304349" lat="61.843284368" lon="10.3506258616">
		<tag k="fixme" v="consider place=hamlet" />
		<tag k="name" v="Sætra" />
		<tag k="place" v="farm" />
		<tag k="ssr:stedsnr" v="313461" />
	</node>
	<node id="-304348" lat="61.8325277756" lon="10.1863777739">
		<tag k="historic" v="shieling" />
		<tag k="name" v="Hamnsætra" />
		<tag k="place" v="locality" />
		<tag k="ssr:stedsnr" v="313378" />
	</node>
	<node id="-306395" lat="61.7851981964" lon="10.5063840601">
		<tag k="fixme" v="consider place=hamlet" />
		<tag k="name" v="Sollimoen" />
		<tag k="place" v="farm" />
		<tag k="ssr:stedsnr" v="1076564" />
	</node>
	<node id="-306394" lat="61.7692622535" lon="10.3588164347">
		<tag k="fixme" v="consider place=hamlet" />
		<tag k="name" v="Djupdalen" />
		<tag k="place" v="farm" />
		<tag k="ssr:stedsnr" v="1076563" />
	</node>
	<node id="-306393" lat="61.2568898771" lon="11.3188502954">
		<tag k="name" v="Stenviken nordre" />
		<tag k="place" v="farm" />
		<tag k="ssr:stedsnr" v="1076554" />
	</node>
	<node id="-306392" lat="61.2234773444" lon="11.33533794">
		<tag k="fixme" v="consider place=hamlet" />
		<tag k="name" v="Sætre" />
		<tag k="place" v="farm" />
		<tag k="ssr:stedsnr" v="1076553" />
	</node>
	<node id="-304339" lat="61.3097805517" lon="11.2583777794">
		<tag k="name" v="Lunde" />
		<tag k="place" v="farm" />
		<tag k="ssr:stedsnr" v="311032" />
	</node>
	<node id="-304338" lat="61.5158138871" lon="11.0472694364">
		<tag k="name" v="Havna" />
		<tag k="place" v="isolated_dwelling" />
		<tag k="ssr:stedsnr" v="302777" />
	</node>
	<node id="-304335" lat="61.6365416689" lon="11.0846333387">
		<tag k="name" v="Bjønnbekk-koia" />
		<tag k="place" v="isolated_dwelling" />
		<tag k="ssr:stedsnr" v="301902" />
	</node>
	<node id="-306378" lat="61.7850300665" lon="10.2280396255">
		<tag k="name" v="Vestre Enden" />
		<tag k="place" v="farm" />
		<tag k="ssr:stedsnr" v="987823" />
	</node>
	<node id="-304327" lat="61.2286999979" lon="11.3331138819">
		<tag k="name" v="Nordvang" />
		<tag k="place" v="isolated_dwelling" />
		<tag k="ssr:stedsnr" v="466847" />
	</node>
	<node id="-304326" lat="61.2265527812" lon="11.3342250087">
		<tag k="name" v="Haugen" />
		<tag k="place" v="isolated_dwelling" />
		<tag k="ssr:stedsnr" v="466844" />
	</node>
	<node id="-304325" lat="61.2371638876" lon="11.3069638943">
		<tag k="name" v="Granrud" />
		<tag k="place" v="farm" />
		<tag k="ssr:stedsnr" v="466539" />
	</node>
	<node id="-306372" lat="61.8107477782" lon="10.2127866276">
		<tag k="fixme" v="consider place=hamlet" />
		<tag k="name" v="Østre Vuluvolden" />
		<tag k="place" v="farm" />
		<tag k="ssr:stedsnr" v="976021" />
	</node>
	<node id="-306371" lat="61.7993596972" lon="10.6108108521">
		<tag k="fixme" v="consider place=hamlet" />
		<tag k="name" v="Atnedalen" />
		<tag k="place" v="farm" />
		<tag k="ssr:stedsnr" v="976016" />
	</node>
	<node id="-306370" lat="61.7299811281" lon="10.8229117724">
		<tag k="fixme" v="consider place=hamlet" />
		<tag k="name" v="Atnosen" />
		<tag k="place" v="farm" />
		<tag k="ssr:stedsnr" v="976015" />
	</node>
	<node id="-306369" lat="61.8524961934" lon="10.2349926427">
		<tag k="fixme" v="consider place=hamlet" />
		<tag k="name" v="Atnelien" />
		<tag k="place" v="farm" />
		<tag k="ssr:stedsnr" v="976014" />
	</node>
	<node id="-306368" lat="61.8123017971" lon="10.2087390818">
		<tag k="fixme" v="consider place=hamlet" />
		<tag k="name" v="Vestre Vuluvolden" />
		<tag k="place" v="farm" />
		<tag k="ssr:stedsnr" v="976013" />
	</node>
	<node id="-304318" lat="61.3192305596" lon="10.922200004">
		<tag k="name" v="Sjøhusene" />
		<tag k="place" v="isolated_dwelling" />
		<tag k="ssr:stedsnr" v="464638" />
	</node>
	<node id="-306364" lat="61.9117805523" lon="10.3692083292">
		<tag k="historic" v="shieling" />
		<tag k="name" v="Nyeggsætra" />
		<tag k="place" v="locality" />
		<tag k="ssr:stedsnr" v="969997" />
	</node>
	<node id="-306363" lat="61.9101527774" lon="10.3677444392">
		<tag k="historic" v="shieling" />
		<tag k="name" v="Uttisætra" />
		<tag k="place" v="locality" />
		<tag k="ssr:stedsnr" v="969994" />
	</node>
	<node id="-306362" lat="61.8812472236" lon="10.4442527848">
		<tag k="historic" v="shieling" />
		<tag k="name" v="Lauvristen" />
		<tag k="place" v="locality" />
		<tag k="ssr:stedsnr" v="969991" />
	</node>
	<node id="-304313" lat="61.3989222258" lon="11.1449083395">
		<tag k="name" v="Rasta" />
		<tag k="place" v="hamlet" />
		<tag k="ssr:stedsnr" v="268657" />
	</node>
	<node id="-306359" lat="61.5271083322" lon="11.0451500005">
		<tag k="name" v="Thune" />
		<tag k="place" v="farm" />
		<tag k="ssr:stedsnr" v="969795" />
	</node>
	<node id="-304309" lat="61.4874111102" lon="10.8634583385">
		<tag k="name" v="Halasbua" />
		<tag k="place" v="isolated_dwelling" />
		<tag k="ssr:stedsnr" v="250453" />
	</node>
	<node id="-304307" lat="61.466155554" lon="10.9982138913">
		<tag k="name" v="Syringen" />
		<tag k="place" v="isolated_dwelling" />
		<tag k="ssr:stedsnr" v="250440" />
	</node>
	<node id="-306354" lat="61.5945111098" lon="10.9938472214">
		<tag k="name" v="Halvorstua" />
		<tag k="place" v="locality" />
		<tag k="ssr:stedsnr" v="969333" />
	</node>
	<node id="-304305" lat="61.4254875901" lon="11.0782594757">
		<tag k="amenity" v="university" />
		<tag k="fixme" v="multiple name tags, choose one and add the other to alt_name" />
		<tag k="name" v="Høgskolen i Innlandet, Evenstad;Høgskolen i Hedmark avd. Evenstad" />
		<tag k="ssr:stedsnr" v="250424" />
	</node>
	<node id="-306350" lat="61.8467365951" lon="10.2365911299">
		<tag k="fixme" v="consider place=hamlet" />
		<tag k="name" v="Søndre Brenn" />
		<tag k="place" v="farm" />
		<tag k="ssr:stedsnr" v="969373" />
	</node>
	<node id="-304298" lat="61.5945527734" lon="11.0485833312">
		<tag k="name" v="Røste" />
		<tag k="place" v="farm" />
		<tag k="ssr:stedsnr" v="241308" />
	</node>
	<node id="-306341" lat="61.2954888874" lon="11.2785166754">
		<tag k="name" v="Stenaker" />
		<tag k="place" v="farm" />
		<tag k="ssr:stedsnr" v="967491" />
	</node>
	<node id="-306340" lat="61.309236111" lon="11.2586972208">
		<tag k="name" v="Lunde" />
		<tag k="ssr:stedsnr" v="967489" />
		<tag k="tourism" v="camp_site" />
	</node>
	<node id="-306338" lat="61.2827166683" lon="11.2588055594">
		<tag k="name" v="Hellbua" />
		<tag k="place" v="isolated_dwelling" />
		<tag k="ssr:stedsnr" v="967487" />
	</node>
	<node id="-306333" lat="61.4598944402" lon="11.2080999999">
		<tag k="name" v="Smånetbua" />
		<tag k="place" v="locality" />
		<tag k="ssr:stedsnr" v="966247" />
	</node>
	<node id="-304284" lat="61.5371027739" lon="11.0374083421">
		<tag k="alt_name" v="Livordsegga;Livolseggen;Lijordseggen" />
		<tag k="name" v="Lijordsegga" />
		<tag k="place" v="farm" />
		<tag k="ssr:stedsnr" v="297112" />
	</node>
	<node id="-306330" lat="61.2381111131" lon="11.3322722306">
		<tag k="name" v="Eng" />
		<tag k="place" v="farm" />
		<tag k="ssr:stedsnr" v="951843" />
	</node>
	<node id="-304280" lat="61.8549527782" lon="10.3140583306">
		<tag k="name" v="Grytmoen" />
		<tag k="place" v="farm" />
		<tag k="ssr:stedsnr" v="192420" />
	</node>
	<node id="-306327" lat="61.3292888889" lon="11.1651583396">
		<tag k="historic" v="shieling" />
		<tag k="name" v="Veslesætra" />
		<tag k="place" v="locality" />
		<tag k="ssr:stedsnr" v="951081" />
	</node>
	<node id="-306326" lat="61.8329305522" lon="10.3680666657">
		<tag k="historic" v="shieling" />
		<tag k="name" v="Bortpåeggsætra" />
		<tag k="place" v="locality" />
		<tag k="ssr:stedsnr" v="950882" />
	</node>
	<node id="-304277" lat="61.7109555584" lon="10.8763888919">
		<tag k="alt_name" v="Glomvang" />
		<tag k="name" v="Glåmvang" />
		<tag k="place" v="farm" />
		<tag k="ssr:stedsnr" v="192215" />
	</node>
	<node id="-306324" lat="61.4621222224" lon="11.0404638825">
		<tag k="name" v="Gunnarstuen" />
		<tag k="place" v="locality" />
		<tag k="ssr:stedsnr" v="950752" />
	</node>
	<node id="-306322" lat="61.5287416626" lon="11.037197231">
		<tag k="name" v="Solvang" />
		<tag k="place" v="isolated_dwelling" />
		<tag k="ssr:stedsnr" v="950785" />
	</node>
	<node id="-304272" lat="61.5461833339" lon="11.120502786">
		<tag k="alt_name" v="Åsensætra" />
		<tag k="historic" v="shieling" />
		<tag k="name" v="Åsen" />
		<tag k="place" v="locality" />
		<tag k="ssr:stedsnr" v="192311" />
	</node>
	<node id="-304271" lat="61.5781361088" lon="11.0581416685">
		<tag k="name" v="Elvlia" />
		<tag k="place" v="farm" />
		<tag k="ssr:stedsnr" v="192135" />
	</node>
	<node id="-304270" lat="61.5472249979" lon="10.8139083373">
		<tag k="name" v="Vestgardsgammelsætra" />
		<tag k="place" v="isolated_dwelling" />
		<tag k="ssr:stedsnr" v="192105" />
	</node>
	<node id="-304322" lat="61.3346416631" lon="11.2037500075">
		<tag k="name" v="Tøråsbua" />
		<tag k="place" v="locality" />
		<tag k="ssr:stedsnr" v="465671" />
	</node>
	<node id="-304266" lat="61.3265166669" lon="11.2553694469">
		<tag k="alt_name" v="Stenmoen" />
		<tag k="name" v="Steinmoen" />
		<tag k="place" v="farm" />
		<tag k="ssr:stedsnr" v="191021" />
	</node>
	<node id="-304265" lat="61.3387499978" lon="11.2503500039">
		<tag k="alt_name" v="Sjurstuen" />
		<tag k="name" v="Sjurstu" />
		<tag k="place" v="farm" />
		<tag k="ssr:stedsnr" v="191013" />
	</node>
	<node id="-304257" lat="61.5266638912" lon="11.0350722144">
		<tag k="name" v="Myhre" />
		<tag k="place" v="isolated_dwelling" />
		<tag k="ssr:stedsnr" v="180810" />
	</node>
	<node id="-306303" lat="61.794808329" lon="10.5045611151">
		<tag k="name" v="Granli" />
		<tag k="place" v="farm" />
		<tag k="ssr:stedsnr" v="860293" />
	</node>
	<node id="-304254" lat="61.8515666683" lon="10.3216222208">
		<tag k="name" v="Furuli" />
		<tag k="place" v="isolated_dwelling" />
		<tag k="ssr:stedsnr" v="180653" />
	</node>
	<node id="-306301" lat="61.7195333356" lon="10.8595277859">
		<tag k="name" v="Østli" />
		<tag k="place" v="farm" />
		<tag k="ssr:stedsnr" v="860246" />
	</node>
	<node id="-304251" lat="61.8854388879" lon="10.1842638941">
		<tag k="historic" v="shieling" />
		<tag k="name" v="Nordre Moen sæter" />
		<tag k="place" v="locality" />
		<tag k="ssr:stedsnr" v="180416" />
	</node>
	<node id="-306298" lat="61.6477388845" lon="10.8823388978">
		<tag k="name" v="Nordstad" />
		<tag k="place" v="farm" />
		<tag k="ssr:stedsnr" v="860051" />
	</node>
	<node id="-304249" lat="61.3943277744" lon="11.1497777826">
		<tag k="name" v="Vesleenget" />
		<tag k="place" v="isolated_dwelling" />
		<tag k="ssr:stedsnr" v="180252" />
	</node>
	<node id="-306295" lat="61.6441583341" lon="11.0149361127">
		<tag k="alt_name" v="Stendammen" />
		<tag k="name" v="Steindammen" />
		<tag k="place" v="isolated_dwelling" />
		<tag k="ssr:stedsnr" v="860035" />
	</node>
	<node id="-306294" lat="61.5278111137" lon="10.7327750041">
		<tag k="name" v="Kalbua" />
		<tag k="place" v="isolated_dwelling" />
		<tag k="ssr:stedsnr" v="860093" />
	</node>
	<node id="-304245" lat="61.2436416625" lon="11.3273666598">
		<tag k="name" v="Vesterheim" />
		<tag k="place" v="isolated_dwelling" />
		<tag k="ssr:stedsnr" v="284865" />
	</node>
	<node id="-306291" lat="61.6748944439" lon="10.9905694484">
		<tag k="name" v="Jegersborg" />
		<tag k="place" v="isolated_dwelling" />
		<tag k="ssr:stedsnr" v="860067" />
	</node>
	<node id="-306289" lat="61.6624694411" lon="10.9019138822">
		<tag k="name" v="Østvang" />
		<tag k="place" v="farm" />
		<tag k="ssr:stedsnr" v="860058" />
	</node>
	<node id="-306286" lat="61.8795638925" lon="10.2977888964">
		<tag k="historic" v="shieling" />
		<tag k="name" v="Mosætra" />
		<tag k="place" v="locality" />
		<tag k="ssr:stedsnr" v="859546" />
	</node>
	<node id="-304237" lat="61.5300638901" lon="11.035163896">
		<tag k="name" v="Nordhaug" />
		<tag k="place" v="isolated_dwelling" />
		<tag k="ssr:stedsnr" v="283816" />
	</node>
	<node id="-306280" lat="61.2957027816" lon="11.0699111179">
		<tag k="name" v="Hortabua" />
		<tag k="place" v="isolated_dwelling" />
		<tag k="ssr:stedsnr" v="858390" />
	</node>
	<node id="-306279" lat="61.2762027746" lon="11.2999527817">
		<tag k="alt_name" v="Urmakerstua" />
		<tag k="name" v="Urmakarstua" />
		<tag k="place" v="farm" />
		<tag k="ssr:stedsnr" v="858245" />
	</node>
	<node id="-306278" lat="61.2606861129" lon="11.3126388904">
		<tag k="alt_name" v="Nedre Mørmoen" />
		<tag k="name" v="Mørmoen" />
		<tag k="place" v="farm" />
		<tag k="ssr:stedsnr" v="858236" />
	</node>
	<node id="-304229" lat="61.5397805573" lon="11.0329861198">
		<tag k="name" v="Mongset" />
		<tag k="place" v="farm" />
		<tag k="ssr:stedsnr" v="283426" />
	</node>
	<node id="-304228" lat="61.5511833314" lon="11.021250005">
		<tag k="name" v="Høyvang" />
		<tag k="place" v="farm" />
		<tag k="ssr:stedsnr" v="283417" />
	</node>
	<node id="-306275" lat="61.4415388895" lon="11.0461777729">
		<tag k="name" v="Akselstu" />
		<tag k="place" v="farm" />
		<tag k="ssr:stedsnr" v="857446" />
	</node>
	<node id="-306273" lat="61.2154527804" lon="11.2687138831">
		<tag k="name" v="Bekka" />
		<tag k="place" v="isolated_dwelling" />
		<tag k="ssr:stedsnr" v="856432" />
	</node>
	<node id="-304224" lat="61.41000833" lon="11.1228611202">
		<tag k="alt_name" v="Søndre Holter" />
		<tag k="name" v="Søre Holter" />
		<tag k="place" v="farm" />
		<tag k="ssr:stedsnr" v="282198" />
	</node>
	<node id="-306271" lat="61.8828861146" lon="10.4431944428">
		<tag k="historic" v="shieling" />
		<tag k="name" v="Rønningsætra" />
		<tag k="place" v="locality" />
		<tag k="ssr:stedsnr" v="848983" />
	</node>
	<node id="-304222" lat="61.726913889" lon="10.8459388838">
		<tag k="name" v="Østmo" />
		<tag k="place" v="farm" />
		<tag k="ssr:stedsnr" v="282058" />
	</node>
	<node id="-306269" lat="61.4958527781" lon="11.0526000091">
		<tag k="name" v="Åsheim" />
		<tag k="place" v="farm" />
		<tag k="ssr:stedsnr" v="848777" />
	</node>
	<node id="-306267" lat="61.7574222187" lon="10.266063896">
		<tag k="name" v="Framibua" />
		<tag k="place" v="isolated_dwelling" />
		<tag k="ssr:stedsnr" v="848414" />
	</node>
	<node id="-304215" lat="61.3186055545" lon="11.2561500026">
		<tag k="alt_name" v="Nordre Ophusstøa" />
		<tag k="name" v="Nordre Opphusstøa" />
		<tag k="place" v="farm" />
		<tag k="ssr:stedsnr" v="161683" />
	</node>
	<node id="-304212" lat="61.5357638927" lon="11.0306138917">
		<tag k="name" v="Egga" />
		<tag k="place" v="farm" />
		<tag k="ssr:stedsnr" v="161455" />
	</node>
	<node id="-304211" lat="61.2536277741" lon="11.3200388927">
		<tag k="name" v="Steinvik" />
		<tag k="place" v="hamlet" />
		<tag k="ssr:stedsnr" v="146660" />
	</node>
	<node id="-304207" lat="61.7266000008" lon="10.8465416712">
		<tag k="alt_name" v="Moberg" />
		<tag k="name" v="Moberget" />
		<tag k="place" v="farm" />
		<tag k="ssr:stedsnr" v="131205" />
	</node>
	<node id="-304202" lat="61.5600999959" lon="11.01113889">
		<tag k="name" v="Trøa" />
		<tag k="place" v="farm" />
		<tag k="ssr:stedsnr" v="131108" />
	</node>
	<node id="-304201" lat="61.5515025595" lon="11.0169204659">
		<tag k="alt_name" v="Træmoen" />
		<tag k="fixme" v="consider place=hamlet" />
		<tag k="name" v="Tremoen" />
		<tag k="place" v="farm" />
		<tag k="ssr:stedsnr" v="131107" />
	</node>
	<node id="-304200" lat="61.5511166663" lon="11.0543138853">
		<tag k="name" v="Gorostua" />
		<tag k="place" v="farm" />
		<tag k="ssr:stedsnr" v="131103" />
	</node>
	<node id="-304199" lat="61.3637861077" lon="11.2148527759">
		<tag k="name" v="Nyløenget" />
		<tag k="place" v="farm" />
		<tag k="ssr:stedsnr" v="130040" />
	</node>
	<node id="-306245" lat="61.7832000009" lon="10.5005888843">
		<tag k="name" v="Mogård" />
		<tag k="place" v="farm" />
		<tag k="ssr:stedsnr" v="831966" />
	</node>
	<node id="-304195" lat="61.3777833321" lon="10.9122305486">
		<tag k="name" v="Skarvhuset" />
		<tag k="place" v="isolated_dwelling" />
		<tag k="ssr:stedsnr" v="129415" />
	</node>
	<node id="-304191" lat="61.4203611127" lon="11.2041888826">
		<tag k="historic" v="shieling" />
		<tag k="name" v="Nysætra" />
		<tag k="place" v="locality" />
		<tag k="ssr:stedsnr" v="129102" />
	</node>
	<node id="-304189" lat="61.3874805515" lon="11.201886104">
		<tag k="name" v="Netlibua" />
		<tag k="place" v="isolated_dwelling" />
		<tag k="ssr:stedsnr" v="129047" />
	</node>
	<node id="-304188" lat="61.3068195566" lon="11.2591945696">
		<tag k="fixme" v="multiple name tags, choose one and add the other to alt_name" />
		<tag k="name" v="Bakken;Nørdstebø" />
		<tag k="place" v="farm" />
		<tag k="ssr:stedsnr" v="129032" />
	</node>
	<node id="-304186" lat="61.5694055531" lon="11.0106416652">
		<tag k="alt_name" v="Furumo" />
		<tag k="name" v="Furumoen" />
		<tag k="place" v="farm" />
		<tag k="ssr:stedsnr" v="263396" />
	</node>
	<node id="-304184" lat="61.5707222189" lon="11.0164694389">
		<tag k="name" v="Østerhaug" />
		<tag k="place" v="farm" />
		<tag k="ssr:stedsnr" v="120357" />
	</node>
	<node id="-304182" lat="61.8476638911" lon="10.2333333252">
		<tag k="name" v="Midtbrenn" />
		<tag k="place" v="farm" />
		<tag k="ssr:stedsnr" v="119372" />
	</node>
	<node id="-306229" lat="61.3351361074" lon="11.2520805461">
		<tag k="amenity" v="school" />
		<tag k="name" v="Opphus skole" />
		<tag k="ssr:stedsnr" v="829719" />
	</node>
	<node id="-306228" lat="61.3328833349" lon="11.261138888">
		<tag k="name" v="Lysthaug" />
		<tag k="place" v="isolated_dwelling" />
		<tag k="ssr:stedsnr" v="829710" />
	</node>
	<node id="-304179" lat="61.5565472198" lon="11.0142666611">
		<tag k="name" v="Elvestad" />
		<tag k="place" v="farm" />
		<tag k="ssr:stedsnr" v="119364" />
	</node>
	<node id="-306223" lat="61.5407305527" lon="11.032505561">
		<tag k="name" v="Øverli" />
		<tag k="place" v="farm" />
		<tag k="ssr:stedsnr" v="829471" />
	</node>
	<node id="-306220" lat="61.7402305595" lon="10.7756722228">
		<tag k="loc_name" v="Nedre Ris" />
		<tag k="name" v="Nedre Riis" />
		<tag k="place" v="locality" />
		<tag k="ssr:stedsnr" v="829185" />
	</node>
	<node id="-304306" lat="61.4379694489" lon="11.0729833273">
		<tag k="name" v="Avlestua" />
		<tag k="place" v="locality" />
		<tag k="ssr:stedsnr" v="250426" />
	</node>
	<node id="-306218" lat="61.7369305552" lon="10.7033472152">
		<tag k="name" v="Hellbua" />
		<tag k="place" v="isolated_dwelling" />
		<tag k="ssr:stedsnr" v="828766" />
	</node>
	<node id="-306215" lat="61.7280750034" lon="10.8439944426">
		<tag k="name" v="Fjellmo" />
		<tag k="place" v="farm" />
		<tag k="ssr:stedsnr" v="828004" />
	</node>
	<node id="-306211" lat="61.7792527744" lon="10.6864194439">
		<tag k="alt_name" v="Thorstad" />
		<tag k="name" v="Torstad" />
		<tag k="place" v="farm" />
		<tag k="ssr:stedsnr" v="800299" />
	</node>
	<node id="-306209" lat="61.7674499967" lon="10.5802750076">
		<tag k="historic" v="shieling" />
		<tag k="name" v="Nysætra" />
		<tag k="place" v="locality" />
		<tag k="ssr:stedsnr" v="800293" />
	</node>
	<node id="-306206" lat="61.8170666667" lon="10.6735611154">
		<tag k="historic" v="shieling" />
		<tag k="name" v="Kjølsætra" />
		<tag k="place" v="locality" />
		<tag k="ssr:stedsnr" v="800267" />
	</node>
	<node id="-306205" lat="61.7935277733" lon="10.6387083356">
		<tag k="name" v="Vestheim" />
		<tag k="place" v="farm" />
		<tag k="ssr:stedsnr" v="800252" />
	</node>
	<node id="-304156" lat="61.8480194459" lon="10.3462055503">
		<tag k="alt_name" v="Elgevad" />
		<tag k="name" v="Elgsvadet" />
		<tag k="place" v="farm" />
		<tag k="ssr:stedsnr" v="253520" />
	</node>
	<node id="-306203" lat="61.760486109" lon="10.7259805561">
		<tag k="name" v="Åsgard" />
		<tag k="place" v="farm" />
		<tag k="ssr:stedsnr" v="800217" />
	</node>
	<node id="-304154" lat="61.7756222233" lon="10.3912722292">
		<tag k="alt_name" v="Røstum" />
		<tag k="name" v="Røstom" />
		<tag k="place" v="farm" />
		<tag k="ssr:stedsnr" v="253349" />
	</node>
	<node id="-304324" lat="61.3202527757" lon="11.1941916639">
		<tag k="name" v="Nierbua" />
		<tag k="place" v="locality" />
		<tag k="ssr:stedsnr" v="466099" />
	</node>
	<node id="-306199" lat="61.8808750031" lon="10.443075002">
		<tag k="historic" v="shieling" />
		<tag k="name" v="Lauvrøstsætra" />
		<tag k="place" v="locality" />
		<tag k="ssr:stedsnr" v="799481" />
	</node>
	<node id="-304150" lat="61.809105552" lon="10.3680750064">
		<tag k="alt_name" v="Måsåbua" />
		<tag k="name" v="Mosabua" />
		<tag k="place" v="isolated_dwelling" />
		<tag k="ssr:stedsnr" v="253298" />
	</node>
	<node id="-306197" lat="61.5653944435" lon="11.0912583246">
		<tag k="name" v="Kjemsjøen" />
		<tag k="place" v="isolated_dwelling" />
		<tag k="ssr:stedsnr" v="799465" />
	</node>
	<node id="-306195" lat="61.7850416707" lon="10.2171194465">
		<tag k="historic" v="shieling" />
		<tag k="name" v="Endsætra" />
		<tag k="place" v="locality" />
		<tag k="ssr:stedsnr" v="799433" />
	</node>
	<node id="-306193" lat="61.8882296793" lon="10.18395198">
		<tag k="historic" v="shieling" />
		<tag k="name" v="Sjølisætra" />
		<tag k="place" v="locality" />
		<tag k="ssr:stedsnr" v="799597" />
	</node>
	<node id="-304143" lat="61.5785861068" lon="11.040866671">
		<tag k="name" v="Hellum" />
		<tag k="place" v="isolated_dwelling" />
		<tag k="ssr:stedsnr" v="253138" />
	</node>
	<node id="-306189" lat="61.5681749988" lon="10.9935249949">
		<tag k="name" v="Rønningen" />
		<tag k="place" v="isolated_dwelling" />
		<tag k="ssr:stedsnr" v="799119" />
	</node>
	<node id="-304140" lat="61.5329527783" lon="11.0391944506">
		<tag k="alt_name" v="Nordstu" />
		<tag k="name" v="Nordstu Vestgard" />
		<tag k="place" v="farm" />
		<tag k="ssr:stedsnr" v="253078" />
	</node>
	<node id="-306187" lat="61.5598999967" lon="11.0326777721">
		<tag k="alt_name" v="Øvergård" />
		<tag k="name" v="Øvergard" />
		<tag k="place" v="farm" />
		<tag k="ssr:stedsnr" v="799111" />
	</node>
	<node id="-304138" lat="61.6605999989" lon="10.9292138858">
		<tag k="name" v="Basbua" />
		<tag k="place" v="isolated_dwelling" />
		<tag k="ssr:stedsnr" v="253047" />
	</node>
	<node id="-306185" lat="61.5130111137" lon="11.0664583297">
		<tag k="name" v="Landet" />
		<tag k="place" v="farm" />
		<tag k="ssr:stedsnr" v="799063" />
	</node>
	<node id="-304136" lat="61.6343166677" lon="10.8896999938">
		<tag k="name" v="Friland" />
		<tag k="place" v="farm" />
		<tag k="ssr:stedsnr" v="253037" />
	</node>
	<node id="-304133" lat="61.5930916677" lon="11.1140388887">
		<tag k="name" v="Moraplassen" />
		<tag k="place" v="isolated_dwelling" />
		<tag k="ssr:stedsnr" v="252417" />
	</node>
	<node id="-306175" lat="61.3788749993" lon="10.8368805556">
		<tag k="name" v="Rypehytta" />
		<tag k="place" v="isolated_dwelling" />
		<tag k="ssr:stedsnr" v="797402" />
	</node>
	<node id="-306174" lat="61.3437250017" lon="11.0715499928">
		<tag k="historic" v="shieling" />
		<tag k="name" v="Furusetsætra" />
		<tag k="place" v="locality" />
		<tag k="ssr:stedsnr" v="797394" />
	</node>
	<node id="-304125" lat="61.7372972181" lon="10.7752111075">
		<tag k="name" v="Vangen" />
		<tag k="place" v="farm" />
		<tag k="ssr:stedsnr" v="252195" />
	</node>
	<node id="-304123" lat="61.6069194457" lon="10.9678972284">
		<tag k="alt_name" v="Frøbergstad" />
		<tag k="name" v="Frøberstad" />
		<tag k="place" v="farm" />
		<tag k="ssr:stedsnr" v="252009" />
	</node>
	<node id="-304119" lat="61.3720638916" lon="11.2790750026">
		<tag k="name" v="Kjølbua" />
		<tag k="place" v="isolated_dwelling" />
		<tag k="ssr:stedsnr" v="251060" />
	</node>
	<node id="-306165" lat="61.3707611081" lon="11.2111527729">
		<tag k="name" v="Grøndalen" />
		<tag k="place" v="farm" />
		<tag k="ssr:stedsnr" v="797043" />
	</node>
	<node id="-304116" lat="61.7496833325" lon="10.5054666725">
		<tag k="alt_name" v="Mokjølsætra" />
		<tag k="historic" v="shieling" />
		<tag k="name" v="Mokjølen" />
		<tag k="place" v="locality" />
		<tag k="ssr:stedsnr" v="71204" />
	</node>
	<node id="-304113" lat="61.6708111113" lon="11.0369250082">
		<tag k="name" v="Enerbua" />
		<tag k="place" v="isolated_dwelling" />
		<tag k="ssr:stedsnr" v="71042" />
	</node>
	<node id="-306159" lat="61.7665416633" lon="10.3629777731">
		<tag k="alt_name" v="Søndre Lien" />
		<tag k="name" v="Søre Lien" />
		<tag k="place" v="farm" />
		<tag k="ssr:stedsnr" v="787686" />
	</node>
	<node id="-304110" lat="61.6106805583" lon="10.9168111119">
		<tag k="name" v="Sole" />
		<tag k="place" v="farm" />
		<tag k="ssr:stedsnr" v="70019" />
	</node>
	<node id="-304109" lat="61.8338166633" lon="10.5470916618">
		<tag k="name" v="Gråsjøfeltet" />
		<tag k="place" v="neighbourhood" />
		<tag k="ssr:stedsnr" v="241979" />
	</node>
	<node id="-304108" lat="61.8490388858" lon="10.3264611181">
		<tag k="alt_name" v="Søndre Finstad" />
		<tag k="name" v="Søre Finstad" />
		<tag k="place" v="farm" />
		<tag k="ssr:stedsnr" v="241643" />
	</node>
	<node id="-304107" lat="61.8553249988" lon="10.3061305566">
		<tag k="name" v="Midtmoen" />
		<tag k="place" v="isolated_dwelling" />
		<tag k="ssr:stedsnr" v="241639" />
	</node>
	<node id="-306153" lat="61.2592555552" lon="11.317586118">
		<tag k="name" v="Olstua" />
		<tag k="place" v="farm" />
		<tag k="ssr:stedsnr" v="786867" />
	</node>
	<node id="-304102" lat="61.8879111075" lon="10.1857805571">
		<tag k="historic" v="shieling" />
		<tag k="name" v="Nordre Brenn sæter" />
		<tag k="place" v="locality" />
		<tag k="ssr:stedsnr" v="240429" />
	</node>
	<node id="-306149" lat="61.6818416673" lon="10.9327388935">
		<tag k="name" v="Midtskarbua" />
		<tag k="place" v="isolated_dwelling" />
		<tag k="ssr:stedsnr" v="786111" />
	</node>
	<node id="-306148" lat="61.2586305551" lon="11.2942833288">
		<tag k="name" v="Mørmobua" />
		<tag k="place" v="locality" />
		<tag k="ssr:stedsnr" v="785511" />
	</node>
	<node id="-306147" lat="61.7910361098" lon="10.4019666708">
		<tag k="name" v="Grønerhytta" />
		<tag k="place" v="isolated_dwelling" />
		<tag k="ssr:stedsnr" v="785492" />
	</node>
	<node id="-306146" lat="61.3169472179" lon="11.2558805532">
		<tag k="name" v="Mellem" />
		<tag k="place" v="isolated_dwelling" />
		<tag k="ssr:stedsnr" v="785488" />
	</node>
	<node id="-306145" lat="61.3118666633" lon="11.1981916578">
		<tag k="name" v="Slåttbua" />
		<tag k="place" v="isolated_dwelling" />
		<tag k="ssr:stedsnr" v="785484" />
	</node>
	<node id="-304092" lat="61.4063249999" lon="11.1385972177">
		<tag k="name" v="Nabben" />
		<tag k="place" v="farm" />
		<tag k="ssr:stedsnr" v="239305" />
	</node>
	<node id="-306137" lat="61.5747416683" lon="11.0479027807">
		<tag k="amenity" v="nursing_home" />
		<tag k="name" v="Granheim" />
		<tag k="ssr:stedsnr" v="784349" />
	</node>
	<node id="-304086" lat="61.3772222264" lon="11.2614527848">
		<tag k="name" v="Kjølvollen" />
		<tag k="place" v="isolated_dwelling" />
		<tag k="ssr:stedsnr" v="238815" />
	</node>
	<node id="-306128" lat="61.9034916667" lon="10.0986027821">
		<tag k="name" v="Hørsvollen" />
		<tag k="place" v="locality" />
		<tag k="ssr:stedsnr" v="780505" />
	</node>
	<node id="-304078" lat="61.8951055576" lon="10.1596944459">
		<tag k="name" v="Megrunnslia" />
		<tag k="place" v="neighbourhood" />
		<tag k="ssr:stedsnr" v="234597" />
	</node>
	<node id="-304076" lat="61.2308222201" lon="11.3305666717">
		<tag k="name" v="Bakken" />
		<tag k="place" v="isolated_dwelling" />
		<tag k="ssr:stedsnr" v="41819" />
	</node>
	<node id="-306123" lat="61.782038887" lon="10.4983222246">
		<tag k="name" v="Sveen" />
		<tag k="place" v="isolated_dwelling" />
		<tag k="ssr:stedsnr" v="770970" />
	</node>
	<node id="-304072" lat="61.7460638929" lon="10.7496166639">
		<tag k="name" v="Simenstua" />
		<tag k="place" v="farm" />
		<tag k="ssr:stedsnr" v="40217" />
	</node>
	<node id="-306119" lat="61.8132138877" lon="10.4736083372">
		<tag k="name" v="Styggbergsbua" />
		<tag k="place" v="isolated_dwelling" />
		<tag k="ssr:stedsnr" v="768916" />
	</node>
	<node id="-304062" lat="61.4220361145" lon="11.2367138911">
		<tag k="name" v="Jønnbua" />
		<tag k="place" v="isolated_dwelling" />
		<tag k="ssr:stedsnr" v="224816" />
	</node>
	<node id="-306106" lat="61.4146416664" lon="11.1061972241">
		<tag k="name" v="Mortenstad" />
		<tag k="place" v="farm" />
		<tag k="ssr:stedsnr" v="767196" />
	</node>
	<node id="-306105" lat="61.4042638925" lon="11.1287027797">
		<tag k="name" v="Arnestad" />
		<tag k="place" v="isolated_dwelling" />
		<tag k="ssr:stedsnr" v="767193" />
	</node>
	<node id="-306104" lat="61.4169694422" lon="11.0983611079">
		<tag k="name" v="Solvang" />
		<tag k="place" v="farm" />
		<tag k="ssr:stedsnr" v="767190" />
	</node>
	<node id="-304055" lat="61.2273000036" lon="11.3335888939">
		<tag k="name" v="Westerhaug" />
		<tag k="place" v="isolated_dwelling" />
		<tag k="ssr:stedsnr" v="223855" />
	</node>
	<node id="-306102" lat="61.7928861135" lon="10.6466694367">
		<tag k="name" v="Tune" />
		<tag k="place" v="farm" />
		<tag k="ssr:stedsnr" v="739245" />
	</node>
	<node id="-306101" lat="61.790880557" lon="10.5014055568">
		<tag k="name" v="Rønningen" />
		<tag k="place" v="farm" />
		<tag k="ssr:stedsnr" v="739241" />
	</node>
	<node id="-306095" lat="61.6081361124" lon="11.1150361038">
		<tag k="alt_name" v="Måsåbua, øvre" />
		<tag k="name" v="Øvre Måsåbu" />
		<tag k="place" v="isolated_dwelling" />
		<tag k="ssr:stedsnr" v="738474" />
	</node>
	<node id="-306094" lat="61.9104138846" lon="10.3679111022">
		<tag k="historic" v="shieling" />
		<tag k="name" v="Storgrytdalssætra" />
		<tag k="place" v="locality" />
		<tag k="ssr:stedsnr" v="738467" />
	</node>
	<node id="-306091" lat="61.7825111123" lon="10.2000111027">
		<tag k="historic" v="shieling" />
		<tag k="name" v="Nårbusætra" />
		<tag k="place" v="locality" />
		<tag k="ssr:stedsnr" v="738426" />
	</node>
	<node id="-304042" lat="61.5763888867" lon="11.0266138815">
		<tag k="alt_name" v="Glomstad" />
		<tag k="name" v="Glåmstad" />
		<tag k="place" v="farm" />
		<tag k="ssr:stedsnr" v="10120" />
	</node>
	<node id="-306089" lat="61.8495888864" lon="10.2439500083">
		<tag k="alt_name" v="Søndre Moen" />
		<tag k="name" v="Moen" />
		<tag k="place" v="farm" />
		<tag k="ssr:stedsnr" v="738398" />
	</node>
	<node id="-306088" lat="61.8637944473" lon="10.2127638801">
		<tag k="name" v="Nyhus" />
		<tag k="place" v="farm" />
		<tag k="ssr:stedsnr" v="738388" />
	</node>
	<node id="-306084" lat="61.7309361107" lon="10.8222888933">
		<tag k="name" v="Nordistu" />
		<tag k="place" v="locality" />
		<tag k="ssr:stedsnr" v="738211" />
	</node>
	<node id="-304032" lat="61.305183334" lon="10.8242722172">
		<tag k="historic" v="shieling" />
		<tag k="name" v="Nyskolla" />
		<tag k="place" v="locality" />
		<tag k="ssr:stedsnr" v="8418" />
	</node>
	<node id="-306077" lat="61.5688555579" lon="11.0281388952">
		<tag k="name" v="Sundet" />
		<tag k="place" v="farm" />
		<tag k="ssr:stedsnr" v="738129" />
	</node>
	<node id="-306076" lat="61.5714055573" lon="10.9941361135">
		<tag k="name" v="Dalen" />
		<tag k="place" v="farm" />
		<tag k="ssr:stedsnr" v="738125" />
	</node>
	<node id="-304282" lat="61.7899972231" lon="10.4395833337">
		<tag k="name" v="Røstvang" />
		<tag k="place" v="farm" />
		<tag k="ssr:stedsnr" v="193303" />
	</node>
	<node id="-306074" lat="61.5644861081" lon="11.0025805565">
		<tag k="alt_name" v="Ulmoen, nordre;Nordre Ulvmoen" />
		<tag k="name" v="Nordre Ulmoen" />
		<tag k="place" v="farm" />
		<tag k="ssr:stedsnr" v="738122" />
	</node>
	<node id="-306072" lat="61.5565755316" lon="11.0132560527">
		<tag k="fixme" v="consider place=hamlet" />
		<tag k="name" v="Trønnes" />
		<tag k="place" v="village" />
		<tag k="ssr:stedsnr" v="738114" />
	</node>
	<node id="-306071" lat="61.5457026098" lon="11.023052319">
		<tag k="fixme" v="consider place=hamlet" />
		<tag k="name" v="Noren" />
		<tag k="place" v="farm" />
		<tag k="ssr:stedsnr" v="738105" />
	</node>
	<node id="-306069" lat="61.5209722244" lon="11.0436027838">
		<tag k="name" v="Brenna" />
		<tag k="place" v="farm" />
		<tag k="ssr:stedsnr" v="738084" />
	</node>
	<node id="-306068" lat="61.5016805596" lon="11.0537500002">
		<tag k="name" v="Alfheim" />
		<tag k="place" v="farm" />
		<tag k="ssr:stedsnr" v="738069" />
	</node>
	<node id="-306066" lat="61.5996305555" lon="10.9268527822">
		<tag k="name" v="Revdalen" />
		<tag k="place" v="isolated_dwelling" />
		<tag k="ssr:stedsnr" v="738014" />
	</node>
	<node id="-306061" lat="61.3585519119" lon="11.2166440375">
		<tag k="fixme" v="consider place=hamlet" />
		<tag k="name" v="Kroken" />
		<tag k="place" v="farm" />
		<tag k="ssr:stedsnr" v="737044" />
	</node>
	<node id="-306060" lat="61.3364388871" lon="11.2521833388">
		<tag k="name" v="Kvernmoen" />
		<tag k="place" v="farm" />
		<tag k="ssr:stedsnr" v="737012" />
	</node>
	<node id="-306057" lat="61.3042666653" lon="10.9922666739">
		<tag k="name" v="Saubua" />
		<tag k="place" v="isolated_dwelling" />
		<tag k="ssr:stedsnr" v="736388" />
	</node>
	<node id="-304278" lat="61.7144138883" lon="10.9898777714">
		<tag k="alt_name" v="Søndre Koppangskjølen;Koppangkjølen, søre" />
		<tag k="name" v="Søre Koppangkjølen" />
		<tag k="place" v="hamlet" />
		<tag k="ssr:stedsnr" v="192220" />
	</node>
	<node id="-306045" lat="61.833544447" lon="10.3694055555">
		<tag k="historic" v="shieling" />
		<tag k="name" v="Finstadsætra" />
		<tag k="place" v="locality" />
		<tag k="ssr:stedsnr" v="646881" />
	</node>
	<node id="-304046" lat="61.5390305542" lon="11.026830555">
		<tag k="name" v="Johnsgård" />
		<tag k="place" v="isolated_dwelling" />
		<tag k="ssr:stedsnr" v="222445" />
	</node>
	<node id="-306042" lat="61.539780552" lon="11.024694451">
		<tag k="name" v="Moen" />
		<tag k="place" v="isolated_dwelling" />
		<tag k="ssr:stedsnr" v="646458" />
	</node>
	<node id="-306040" lat="61.5435611105" lon="11.0193138978">
		<tag k="name" v="Egga" />
		<tag k="place" v="isolated_dwelling" />
		<tag k="ssr:stedsnr" v="646453" />
	</node>
	<node id="-304276" lat="61.7254944446" lon="10.6596027826">
		<tag k="name" v="Høyvang" />
		<tag k="place" v="farm" />
		<tag k="ssr:stedsnr" v="192204" />
	</node>
	<node id="-306038" lat="61.4160138924" lon="11.10033334">
		<tag k="name" v="Våge" />
		<tag k="place" v="farm" />
		<tag k="ssr:stedsnr" v="646220" />
	</node>
	<node id="-306034" lat="61.2511249956" lon="11.1527416697">
		<tag k="historic" v="shieling" />
		<tag k="name" v="Sætresætra" />
		<tag k="place" v="locality" />
		<tag k="ssr:stedsnr" v="617786" />
	</node>
	<node id="-306033" lat="61.7908944417" lon="10.4349861031">
		<tag k="name" v="Løfall" />
		<tag k="place" v="farm" />
		<tag k="ssr:stedsnr" v="617334" />
	</node>
	<node id="-306032" lat="61.7824222247" lon="10.4922000037">
		<tag k="name" v="Øvermoen" />
		<tag k="place" v="farm" />
		<tag k="ssr:stedsnr" v="617327" />
	</node>
	<node id="-306031" lat="61.7636833321" lon="10.5158083253">
		<tag k="name" v="Skjerdingfjell" />
		<tag k="place" v="isolated_dwelling" />
		<tag k="ssr:stedsnr" v="617326" />
	</node>
	<node id="-306027" lat="61.7994833369" lon="10.5812027821">
		<tag k="name" v="Lia" />
		<tag k="place" v="locality" />
		<tag k="ssr:stedsnr" v="617302" />
	</node>
	<node id="-306025" lat="61.7589972222" lon="10.7238194426">
		<tag k="name" v="Arnestad" />
		<tag k="place" v="farm" />
		<tag k="ssr:stedsnr" v="617240" />
	</node>
	<node id="-306019" lat="61.5431888867" lon="10.8642694442">
		<tag k="name" v="Raudmoen" />
		<tag k="place" v="isolated_dwelling" />
		<tag k="ssr:stedsnr" v="617112" />
	</node>
	<node id="-306018" lat="61.5357138853" lon="11.0257333264">
		<tag k="name" v="Simenstua" />
		<tag k="place" v="farm" />
		<tag k="ssr:stedsnr" v="617109" />
	</node>
	<node id="-306017" lat="61.5345055538" lon="10.9666666688">
		<tag k="alt_name" v="Åslisætra" />
		<tag k="historic" v="shieling" />
		<tag k="name" v="Åsli" />
		<tag k="place" v="locality" />
		<tag k="ssr:stedsnr" v="617107" />
	</node>
	<node id="-306016" lat="61.5360527778" lon="11.0380611163">
		<tag k="alt_name" v="Kjerkemo" />
		<tag k="name" v="Kjerkemoen" />
		<tag k="place" v="farm" />
		<tag k="ssr:stedsnr" v="617105" />
	</node>
	<node id="-306014" lat="61.5105055543" lon="11.0455027852">
		<tag k="alt_name" v="Grefsengdalen" />
		<tag k="name" v="Grefsingdalen" />
		<tag k="place" v="farm" />
		<tag k="ssr:stedsnr" v="617087" />
	</node>
	<node id="-306013" lat="61.6875777762" lon="10.9070083392">
		<tag k="name" v="Viholmen" />
		<tag k="place" v="farm" />
		<tag k="ssr:stedsnr" v="617070" />
	</node>
	<node id="-306011" lat="61.6539361094" lon="10.8722416659">
		<tag k="name" v="Steinbekkbua" />
		<tag k="place" v="isolated_dwelling" />
		<tag k="ssr:stedsnr" v="617046" />
	</node>
	<node id="-306010" lat="61.6381138865" lon="10.8872499939">
		<tag k="name" v="Myrvoll" />
		<tag k="place" v="farm" />
		<tag k="ssr:stedsnr" v="617041" />
	</node>
	<node id="-306002" lat="61.8511333314" lon="10.2339638811">
		<tag k="fixme" v="consider place=hamlet" />
		<tag k="name" v="Atnbrua" />
		<tag k="place" v="village" />
		<tag k="ssr:stedsnr" v="616389" />
	</node>
	<node id="-306001" lat="61.8493034611" lon="10.32594363">
		<tag k="fixme" v="consider place=hamlet" />
		<tag k="name" v="Finnstad" />
		<tag k="place" v="farm" />
		<tag k="ssr:stedsnr" v="616385" />
	</node>
	<node id="-306000" lat="61.8520027789" lon="10.236158325">
		<tag k="alt_name" v="Utti" />
		<tag k="name" v="Uti" />
		<tag k="place" v="farm" />
		<tag k="ssr:stedsnr" v="616382" />
	</node>
	<node id="-305995" lat="61.5673611081" lon="11.0462083327">
		<tag k="alt_name" v="Nordstu" />
		<tag k="name" v="Nordstu Koppang" />
		<tag k="place" v="farm" />
		<tag k="ssr:stedsnr" v="616099" />
	</node>
	<node id="-305994" lat="61.5678111145" lon="11.0011555613">
		<tag k="name" v="Nordstumoen" />
		<tag k="place" v="farm" />
		<tag k="ssr:stedsnr" v="616095" />
	</node>
	<node id="-305993" lat="61.5587527742" lon="11.0400500038">
		<tag k="name" v="Nystumoen" />
		<tag k="place" v="isolated_dwelling" />
		<tag k="ssr:stedsnr" v="616091" />
	</node>
	<node id="-305991" lat="61.4028638849" lon="11.1441833308">
		<tag k="name" v="Tronkheim" />
		<tag k="place" v="farm" />
		<tag k="ssr:stedsnr" v="615078" />
	</node>
	<node id="-305990" lat="61.3500694441" lon="11.2399972288">
		<tag k="alt_name" v="Embretstuen" />
		<tag k="name" v="Embretstua" />
		<tag k="place" v="farm" />
		<tag k="ssr:stedsnr" v="615055" />
	</node>
	<node id="-305983" lat="61.4559749981" lon="11.0319444486">
		<tag k="alt_name" v="Sørstu Messelt" />
		<tag k="name" v="Søstu Messelt" />
		<tag k="place" v="farm" />
		<tag k="ssr:stedsnr" v="614459" />
	</node>
	<node id="-305981" lat="61.4280527823" lon="10.855299991">
		<tag k="alt_name" v="Messeltsætra, s;Søndre Messeltsætra" />
		<tag k="historic" v="shieling" />
		<tag k="name" v="Søre Messeltsætra" />
		<tag k="place" v="locality" />
		<tag k="ssr:stedsnr" v="614433" />
	</node>
	<node id="-305975" lat="61.8492111071" lon="10.3235333248">
		<tag k="name" v="Nordre Finstad" />
		<tag k="place" v="farm" />
		<tag k="ssr:stedsnr" v="604665" />
	</node>
	<node id="-305973" lat="61.8861472215" lon="10.1886250009">
		<tag k="historic" v="shieling" />
		<tag k="name" v="Amperhaugen sæter" />
		<tag k="place" v="locality" />
		<tag k="ssr:stedsnr" v="604281" />
	</node>
	<node id="-305972" lat="61.8870666652" lon="10.1764194499">
		<tag k="historic" v="shieling" />
		<tag k="name" v="Trøsætra" />
		<tag k="place" v="locality" />
		<tag k="ssr:stedsnr" v="604277" />
	</node>
	<node id="-305970" lat="61.2608611097" lon="11.314058332">
		<tag k="name" v="Sole" />
		<tag k="place" v="farm" />
		<tag k="ssr:stedsnr" v="603528" />
	</node>
	<node id="-305969" lat="61.2971111134" lon="11.2771472134">
		<tag k="name" v="Ottestad" />
		<tag k="place" v="farm" />
		<tag k="ssr:stedsnr" v="603518" />
	</node>
	<node id="-305968" lat="61.2951277758" lon="11.2794638817">
		<tag k="name" v="Arneberg" />
		<tag k="place" v="farm" />
		<tag k="ssr:stedsnr" v="603511" />
	</node>
	<node id="-305967" lat="61.3032472189" lon="11.2074861085">
		<tag k="name" v="Petsamo" />
		<tag k="place" v="isolated_dwelling" />
		<tag k="ssr:stedsnr" v="603510" />
	</node>
	<node id="-305962" lat="61.7711694435" lon="10.4434500054">
		<tag k="historic" v="shieling" />
		<tag k="name" v="Gammelsætrene" />
		<tag k="place" v="locality" />
		<tag k="ssr:stedsnr" v="602527" />
	</node>
	<node id="-305961" lat="61.7813364886" lon="10.3999640649">
		<tag k="fixme" v="consider place=hamlet" />
		<tag k="name" v="Klokkerstua" />
		<tag k="place" v="farm" />
		<tag k="ssr:stedsnr" v="602526" />
	</node>
	<node id="-304316" lat="61.4211750025" lon="11.0765944408">
		<tag k="name" v="Moen" />
		<tag k="place" v="quarter" />
		<tag k="ssr:stedsnr" v="464229" />
	</node>
	<node id="-305958" lat="61.8352250019" lon="10.1845749928">
		<tag k="historic" v="shieling" />
		<tag k="name" v="Hamnsætra" />
		<tag k="place" v="locality" />
		<tag k="ssr:stedsnr" v="602290" />
	</node>
	<node id="-305957" lat="61.4286250041" lon="11.209655562">
		<tag k="name" v="Dambua" />
		<tag k="place" v="locality" />
		<tag k="ssr:stedsnr" v="602273" />
	</node>
	<node id="-305955" lat="61.450619443" lon="11.1994249932">
		<tag k="name" v="Nebybua" />
		<tag k="place" v="isolated_dwelling" />
		<tag k="ssr:stedsnr" v="602263" />
	</node>
	<node id="-305950" lat="61.7993305538" lon="10.6196555638">
		<tag k="name" v="Myrvang" />
		<tag k="place" v="farm" />
		<tag k="ssr:stedsnr" v="600865" />
	</node>
	<node id="-305945" lat="61.2443694451" lon="11.3295055533">
		<tag k="name" v="Linnstad" />
		<tag k="place" v="isolated_dwelling" />
		<tag k="ssr:stedsnr" v="587849" />
	</node>
	<node id="-305944" lat="61.2469777779" lon="11.3263333343">
		<tag k="name" v="Norderhaug" />
		<tag k="place" v="isolated_dwelling" />
		<tag k="ssr:stedsnr" v="587843" />
	</node>
	<node id="-305943" lat="61.2339361096" lon="11.3307749981">
		<tag k="name" v="Smedløkken" />
		<tag k="place" v="isolated_dwelling" />
		<tag k="ssr:stedsnr" v="587834" />
	</node>
	<node id="-305941" lat="61.4642305523" lon="11.0164972144">
		<tag k="name" v="Imsroa" />
		<tag k="place" v="farm" />
		<tag k="ssr:stedsnr" v="586781" />
	</node>
	<node id="-305940" lat="61.4650249968" lon="11.009977769">
		<tag k="name" v="Ingeborgstua" />
		<tag k="place" v="farm" />
		<tag k="ssr:stedsnr" v="586775" />
	</node>
	<node id="-305936" lat="61.321077774" lon="11.2530361197">
		<tag k="name" v="Hiken" />
		<tag k="place" v="isolated_dwelling" />
		<tag k="ssr:stedsnr" v="586672" />
	</node>
	<node id="-305930" lat="61.4156138857" lon="11.1179138951">
		<tag k="name" v="Mellvoll" />
		<tag k="place" v="farm" />
		<tag k="ssr:stedsnr" v="585196" />
	</node>
	<node id="-305929" lat="61.7307749975" lon="10.8320805508">
		<tag k="fixme" v="consider place=suburb, village or hamlet" />
		<tag k="name" v="Atna" />
		<tag k="place" v="quarter" />
		<tag k="ssr:stedsnr" v="573483" />
	</node>
	<node id="-305925" lat="61.7866694446" lon="10.5347722156">
		<tag k="name" v="Atnosdalen" />
		<tag k="place" v="farm" />
		<tag k="ssr:stedsnr" v="556370" />
	</node>
	<node id="-305924" lat="61.7846444434" lon="10.4904583379">
		<tag k="name" v="Brubakken" />
		<tag k="place" v="farm" />
		<tag k="ssr:stedsnr" v="556365" />
	</node>
	<node id="-305923" lat="61.7844472192" lon="10.5122333264">
		<tag k="alt_name" v="Roen" />
		<tag k="name" v="Roa" />
		<tag k="place" v="farm" />
		<tag k="ssr:stedsnr" v="556363" />
	</node>
	<node id="-305922" lat="61.7576694421" lon="10.7272083355">
		<tag k="name" v="Øyset" />
		<tag k="place" v="farm" />
		<tag k="ssr:stedsnr" v="556238" />
	</node>
	<node id="-305918" lat="61.8325335424" lon="10.3645045823">
		<tag k="alt_name" v="Småtjønnsætrene" />
		<tag k="name" v="Småtjørnsætrane" />
		<tag k="place" v="hamlet" />
		<tag k="ssr:stedsnr" v="556339" />
	</node>
	<node id="-305913" lat="61.6529888863" lon="11.0629861121">
		<tag k="name" v="Treerbua" />
		<tag k="place" v="isolated_dwelling" />
		<tag k="ssr:stedsnr" v="556043" />
	</node>
	<node id="-305911" lat="61.6356472235" lon="10.8865555507">
		<tag k="name" v="Løveng" />
		<tag k="place" v="farm" />
		<tag k="ssr:stedsnr" v="556034" />
	</node>
	<node id="-305910" lat="61.5826527822" lon="11.0409444386">
		<tag k="alt_name" v="Båsrøsta" />
		<tag k="name" v="Båsrusta" />
		<tag k="place" v="quarter" />
		<tag k="ssr:stedsnr" v="556135" />
	</node>
	<node id="-305909" lat="61.5312916661" lon="11.0661138848">
		<tag k="name" v="Gunnhildsstua" />
		<tag k="place" v="farm" />
		<tag k="ssr:stedsnr" v="556081" />
	</node>
	<node id="-305906" lat="61.8621333305" lon="10.2122611164">
		<tag k="name" v="Bjørnstad" />
		<tag k="place" v="farm" />
		<tag k="ssr:stedsnr" v="555338" />
	</node>
	<node id="-305904" lat="61.6115694435" lon="11.0210777862">
		<tag k="name" v="Mytingbua" />
		<tag k="place" v="isolated_dwelling" />
		<tag k="ssr:stedsnr" v="555011" />
	</node>
	<node id="-305903" lat="61.5904416698" lon="11.0189361041">
		<tag k="name" v="Moen" />
		<tag k="place" v="farm" />
		<tag k="ssr:stedsnr" v="555008" />
	</node>
	<node id="-305902" lat="61.5905888913" lon="11.039808339">
		<tag k="fixme" v="multiple name tags, choose one and add the other to alt_name" />
		<tag k="name" v="Granli;Skoglund" />
		<tag k="place" v="farm" />
		<tag k="ssr:stedsnr" v="555005" />
	</node>
	<node id="-304253" lat="61.8444416701" lon="10.2434083312">
		<tag k="building" v="industrial" />
		<tag k="name" v="Hamnsaga" />
		<tag k="ssr:stedsnr" v="180364" />
	</node>
	<node id="-305899" lat="61.2674472229" lon="11.1230388821">
		<tag k="name" v="Dambua" />
		<tag k="place" v="isolated_dwelling" />
		<tag k="ssr:stedsnr" v="554259" />
	</node>
	<node id="-305894" lat="61.3936500024" lon="11.0168916629">
		<tag k="historic" v="shieling" />
		<tag k="name" v="Nysætra" />
		<tag k="place" v="locality" />
		<tag k="ssr:stedsnr" v="554444" />
	</node>
	<node id="-305891" lat="61.4042555515" lon="11.1437361158">
		<tag k="name" v="Øvrenget" />
		<tag k="place" v="farm" />
		<tag k="ssr:stedsnr" v="554088" />
	</node>
	<node id="-305889" lat="61.4132027816" lon="11.1288944393">
		<tag k="name" v="Vangen" />
		<tag k="place" v="farm" />
		<tag k="ssr:stedsnr" v="554083" />
	</node>
	<node id="-305888" lat="61.4110083328" lon="11.1209833291">
		<tag k="name" v="Lykkja" />
		<tag k="place" v="farm" />
		<tag k="ssr:stedsnr" v="554078" />
	</node>
	<node id="-305887" lat="61.3499499998" lon="11.1264222262">
		<tag k="name" v="Veslesætra" />
		<tag k="place" v="isolated_dwelling" />
		<tag k="ssr:stedsnr" v="554048" />
	</node>
	<node id="-305885" lat="61.3648000002" lon="11.2195000069">
		<tag k="name" v="Størdavan" />
		<tag k="place" v="farm" />
		<tag k="ssr:stedsnr" v="554040" />
	</node>
	<node id="-305884" lat="61.3946416641" lon="11.1494611104">
		<tag k="name" v="Bratteng" />
		<tag k="place" v="farm" />
		<tag k="ssr:stedsnr" v="554025" />
	</node>
	<node id="-304250" lat="61.8875722185" lon="10.1816222296">
		<tag k="historic" v="shieling" />
		<tag k="name" v="Rønning sæter" />
		<tag k="place" v="locality" />
		<tag k="ssr:stedsnr" v="180266" />
	</node>
	<node id="-305882" lat="61.3128944469" lon="11.2550638925">
		<tag k="name" v="Sagerud" />
		<tag k="place" v="farm" />
		<tag k="ssr:stedsnr" v="554021" />
	</node>
	<node id="-305879" lat="61.466086109" lon="11.0042277756">
		<tag k="name" v="Skogstad" />
		<tag k="place" v="farm" />
		<tag k="ssr:stedsnr" v="553437" />
	</node>
	<node id="-305876" lat="61.2227972188" lon="11.2135805574">
		<tag k="alt_name" v="Mørkesmyrbua, nedre" />
		<tag k="name" v="Nedre Mørkesmyrbua" />
		<tag k="place" v="isolated_dwelling" />
		<tag k="ssr:stedsnr" v="552433" />
	</node>
	<node id="-305875" lat="61.2394805542" lon="11.2449194452">
		<tag k="name" v="Slagåsen" />
		<tag k="place" v="isolated_dwelling" />
		<tag k="ssr:stedsnr" v="552425" />
	</node>
	<node id="-305873" lat="61.227186108" lon="11.2036250025">
		<tag k="alt_name" v="Mørkesmyrbua, øvre" />
		<tag k="name" v="Øvre Mørkesmyrbua" />
		<tag k="place" v="isolated_dwelling" />
		<tag k="ssr:stedsnr" v="552421" />
	</node>
	<node id="-304246" lat="61.3995083347" lon="11.0137722205">
		<tag k="name" v="Åsbua" />
		<tag k="place" v="isolated_dwelling" />
		<tag k="ssr:stedsnr" v="284908" />
	</node>
	<node id="-305858" lat="61.7560027793" lon="10.3052027801">
		<tag k="alt_name" v="Søndre Kulstad" />
		<tag k="name" v="Søre Kulstad" />
		<tag k="place" v="farm" />
		<tag k="ssr:stedsnr" v="544389" />
	</node>
	<node id="-305857" lat="61.764127777" lon="10.3366999974">
		<tag k="name" v="Øvre Storslåa" />
		<tag k="place" v="isolated_dwelling" />
		<tag k="ssr:stedsnr" v="544380" />
	</node>
	<node id="-306293" lat="61.5266777758" lon="11.0661388929">
		<tag k="alt_name" v="Rugsvehammarn" />
		<tag k="name" v="Rossvehammaren" />
		<tag k="place" v="isolated_dwelling" />
		<tag k="ssr:stedsnr" v="860087" />
	</node>
	<node id="-305852" lat="61.5577944441" lon="11.0106472136">
		<tag k="name" v="Solheim" />
		<tag k="place" v="isolated_dwelling" />
		<tag k="ssr:stedsnr" v="544339" />
	</node>
	<node id="-305849" lat="61.3792472218" lon="11.1653972268">
		<tag k="name" v="Graff" />
		<tag k="place" v="farm" />
		<tag k="ssr:stedsnr" v="544256" />
	</node>
	<node id="-305847" lat="61.7292027753" lon="10.8370555482">
		<tag k="building" v="industrial" />
		<tag k="name" v="Saga" />
		<tag k="ssr:stedsnr" v="544201" />
	</node>
	<node id="-305842" lat="61.7851749995" lon="10.4167527786">
		<tag k="name" v="Dalbakken" />
		<tag k="place" v="farm" />
		<tag k="ssr:stedsnr" v="542511" />
	</node>
	<node id="-305841" lat="61.7773555526" lon="10.3853777752">
		<tag k="name" v="Plassen" />
		<tag k="place" v="locality" />
		<tag k="ssr:stedsnr" v="542508" />
	</node>
	<node id="-305840" lat="61.4397833296" lon="11.0706666643">
		<tag k="name" v="Haugen" />
		<tag k="place" v="farm" />
		<tag k="ssr:stedsnr" v="541984" />
	</node>
	<node id="-305833" lat="61.5277749998" lon="11.0358166625">
		<tag k="loc_name" v="Bekkevoll" />
		<tag k="name" v="Bækkevold" />
		<tag k="place" v="isolated_dwelling" />
		<tag k="ssr:stedsnr" v="527799" />
	</node>
	<node id="-305832" lat="61.2490888912" lon="11.259088891">
		<tag k="name" v="Skaugum" />
		<tag k="place" v="isolated_dwelling" />
		<tag k="ssr:stedsnr" v="527535" />
	</node>
	<node id="-305828" lat="61.4427027736" lon="11.0692805497">
		<tag k="name" v="Gubbstua" />
		<tag k="place" v="locality" />
		<tag k="ssr:stedsnr" v="526889" />
	</node>
	<node id="-305823" lat="61.84381667" lon="10.3688333311">
		<tag k="name" v="Sameiebua" />
		<tag k="place" v="isolated_dwelling" />
		<tag k="ssr:stedsnr" v="525894" />
	</node>
	<node id="-305822" lat="61.2611138847" lon="11.2413666689">
		<tag k="name" v="Olsrudbua" />
		<tag k="place" v="isolated_dwelling" />
		<tag k="ssr:stedsnr" v="525531" />
	</node>
	<node id="-305819" lat="61.5496611069" lon="11.0513666719">
		<tag k="name" v="Lykja" />
		<tag k="place" v="farm" />
		<tag k="ssr:stedsnr" v="525458" />
	</node>
	<node id="-304243" lat="61.7876666672" lon="10.48361388">
		<tag k="building" v="industrial" />
		<tag k="industrial" v="factory" />
		<tag k="name" v="Sollitangen Industrier" />
		<tag k="ssr:stedsnr" v="177976" />
	</node>
	<node id="-304238" lat="61.8339888846" lon="10.3678638836">
		<tag k="historic" v="shieling" />
		<tag k="name" v="Sætersætra" />
		<tag k="place" v="locality" />
		<tag k="ssr:stedsnr" v="283898" />
	</node>
	<node id="-305810" lat="61.7869249985" lon="10.4802055509">
		<tag k="alt_name" v="Mælum" />
		<tag k="name" v="Melum" />
		<tag k="place" v="farm" />
		<tag k="ssr:stedsnr" v="436277" />
	</node>
	<node id="-305802" lat="61.9179805584" lon="10.376161113">
		<tag k="alt_name" v="Rypstad" />
		<tag k="name" v="Rypestad" />
		<tag k="place" v="isolated_dwelling" />
		<tag k="ssr:stedsnr" v="435490" />
	</node>
	<node id="-305800" lat="61.5836444404" lon="10.999219441">
		<tag k="name" v="Myrstad" />
		<tag k="place" v="isolated_dwelling" />
		<tag k="ssr:stedsnr" v="435158" />
	</node>
	<node id="-305797" lat="61.50534722" lon="11.0661277746">
		<tag k="alt_name" v="Svestad bruk" />
		<tag k="building" v="industrial" />
		<tag k="industrial" v="factory" />
		<tag k="name" v="Svestad industri" />
		<tag k="ssr:stedsnr" v="435093" />
	</node>
	<node id="-305796" lat="61.5036722218" lon="11.0475361083">
		<tag k="alt_name" v="Børsesmedmoen" />
		<tag k="name" v="Børssmedmoen" />
		<tag k="place" v="farm" />
		<tag k="ssr:stedsnr" v="435089" />
	</node>
	<node id="-305792" lat="61.7411638893" lon="10.7525388858">
		<tag k="name" v="Hirmoen" />
		<tag k="place" v="isolated_dwelling" />
		<tag k="ssr:stedsnr" v="435262" />
	</node>
	<node id="-305791" lat="61.7218388911" lon="10.8442499913">
		<tag k="alt_name" v="Nesset;Neset, søre;Neset" />
		<tag k="name" v="Søre Neset" />
		<tag k="place" v="farm" />
		<tag k="ssr:stedsnr" v="435248" />
	</node>
	<node id="-305789" lat="61.7248245497" lon="10.8357793112">
		<tag k="alt_name" v="Neset, nørdre" />
		<tag k="fixme" v="multiple name tags, choose one and add the other to alt_name" />
		<tag k="name" v="Atnakjernnesset;Nørdre Neset" />
		<tag k="place" v="farm" />
		<tag k="ssr:stedsnr" v="435241" />
	</node>
	<node id="-305788" lat="61.7044666679" lon="10.878247231">
		<tag k="name" v="Strandli" />
		<tag k="place" v="farm" />
		<tag k="ssr:stedsnr" v="435236" />
	</node>
	<node id="-305787" lat="61.743950002" lon="10.3528250082">
		<tag k="name" v="Åsbua" />
		<tag k="place" v="isolated_dwelling" />
		<tag k="ssr:stedsnr" v="435212" />
	</node>
	<node id="-305781" lat="61.881849215" lon="10.2916919119">
		<tag k="historic" v="shieling" />
		<tag k="name" v="Haugasætra" />
		<tag k="place" v="locality" />
		<tag k="ssr:stedsnr" v="434576" />
	</node>
	<node id="-305780" lat="61.876117228" lon="10.1677573744">
		<tag k="fixme" v="consider place=hamlet" />
		<tag k="name" v="Holtet" />
		<tag k="place" v="farm" />
		<tag k="ssr:stedsnr" v="434574" />
	</node>
	<node id="-305773" lat="61.4103194406" lon="11.1113027757">
		<tag k="fixme" v="multiple name tags, choose one and add the other to alt_name" />
		<tag k="name" v="Nytun;Rønningen" />
		<tag k="place" v="farm" />
		<tag k="ssr:stedsnr" v="433100" />
	</node>
	<node id="-305771" lat="61.3923249956" lon="11.1448666733">
		<tag k="name" v="Enget" />
		<tag k="place" v="farm" />
		<tag k="ssr:stedsnr" v="433042" />
	</node>
	<node id="-305770" lat="61.3188222238" lon="11.2637972276">
		<tag k="alt_name" v="Svendstu Ophus;Opphus, Nørdre" />
		<tag k="name" v="Svendstu Opphus" />
		<tag k="place" v="farm" />
		<tag k="ssr:stedsnr" v="433034" />
	</node>
	<node id="-305768" lat="61.4663916642" lon="10.9820416631">
		<tag k="name" v="Helgestua" />
		<tag k="place" v="farm" />
		<tag k="ssr:stedsnr" v="432422" />
	</node>
	<node id="-305765" lat="61.9078944468" lon="10.3685694381">
		<tag k="historic" v="shieling" />
		<tag k="name" v="Trøsætra" />
		<tag k="place" v="locality" />
		<tag k="ssr:stedsnr" v="423998" />
	</node>
	<node id="-304230" lat="61.4467583308" lon="10.8562250078">
		<tag k="name" v="Fjerdingsbua" />
		<tag k="place" v="isolated_dwelling" />
		<tag k="ssr:stedsnr" v="283592" />
	</node>
	<node id="-305756" lat="61.5712583359" lon="11.0177166737">
		<tag k="name" v="Landhøymoen" />
		<tag k="place" v="farm" />
		<tag k="ssr:stedsnr" v="423401" />
	</node>
	<node id="-305753" lat="61.5567555537" lon="11.0090194428">
		<tag k="name" v="Syrmoen" />
		<tag k="place" v="isolated_dwelling" />
		<tag k="ssr:stedsnr" v="423387" />
	</node>
	<node id="-305751" lat="61.5815638881" lon="11.0195472169">
		<tag k="building" v="industrial" />
		<tag k="industrial" v="factory" />
		<tag k="name" v="Svestad Bruk" />
		<tag k="ssr:stedsnr" v="423336" />
	</node>
	<node id="-305750" lat="61.5928388873" lon="11.0456083316">
		<tag k="name" v="Furuheim" />
		<tag k="place" v="isolated_dwelling" />
		<tag k="ssr:stedsnr" v="423334" />
	</node>
	<node id="-305749" lat="61.5937499971" lon="11.0691416646">
		<tag k="name" v="Tjønnmostua" />
		<tag k="place" v="locality" />
		<tag k="ssr:stedsnr" v="423332" />
	</node>
	<node id="-305748" lat="61.5972250015" lon="11.0536222291">
		<tag k="name" v="Myrheim" />
		<tag k="place" v="farm" />
		<tag k="ssr:stedsnr" v="423330" />
	</node>
	<node id="-305741" lat="61.413716669" lon="11.156877781">
		<tag k="name" v="Midtlibua" />
		<tag k="place" v="isolated_dwelling" />
		<tag k="ssr:stedsnr" v="422238" />
	</node>
	<node id="-305735" lat="61.4087888853" lon="11.1175916668">
		<tag k="name" v="Bjørke" />
		<tag k="place" v="farm" />
		<tag k="ssr:stedsnr" v="420982" />
	</node>
	<node id="-305734" lat="61.7712833315" lon="10.5741361103">
		<tag k="name" v="Rabben" />
		<tag k="place" v="isolated_dwelling" />
		<tag k="ssr:stedsnr" v="420974" />
	</node>
	<node id="-304225" lat="61.2180305512" lon="11.161694443">
		<tag k="historic" v="shieling" />
		<tag k="name" v="Søndre Hovde sæter" />
		<tag k="place" v="locality" />
		<tag k="ssr:stedsnr" v="282766" />
	</node>
	<node id="-305731" lat="61.387788889" lon="11.2975388925">
		<tag k="name" v="Løssettøråsbua" />
		<tag k="place" v="isolated_dwelling" />
		<tag k="ssr:stedsnr" v="419801" />
	</node>
	<node id="-305729" lat="61.8914472238" lon="10.1288000096">
		<tag k="name" v="Nordli" />
		<tag k="place" v="farm" />
		<tag k="ssr:stedsnr" v="416559" />
	</node>
	<node id="-305722" lat="61.4674222228" lon="11.0023333357">
		<tag k="name" v="Storbakken" />
		<tag k="place" v="farm" />
		<tag k="ssr:stedsnr" v="404746" />
	</node>
	<node id="-304223" lat="61.4203972204" lon="11.1019777752">
		<tag k="name" v="Heimtun" />
		<tag k="place" v="locality" />
		<tag k="ssr:stedsnr" v="282191" />
	</node>
	<node id="-305712" lat="61.4827000043" lon="10.969902786">
		<tag k="name" v="Kvannbekkbua" />
		<tag k="place" v="isolated_dwelling" />
		<tag k="ssr:stedsnr" v="403738" />
	</node>
	<node id="-305709" lat="61.7287749967" lon="10.8178583339">
		<tag k="fixme" v="consider place=hamlet" />
		<tag k="name" v="Atnosen" />
		<tag k="place" v="village" />
		<tag k="ssr:stedsnr" v="389295" />
	</node>
	<node id="-305706" lat="61.7679972209" lon="10.3609333365">
		<tag k="alt_name" v="Gran" />
		<tag k="name" v="Grana" />
		<tag k="place" v="farm" />
		<tag k="ssr:stedsnr" v="375250" />
	</node>
	<node id="-305705" lat="61.7700416683" lon="10.3736388881">
		<tag k="name" v="Brenna" />
		<tag k="place" v="farm" />
		<tag k="ssr:stedsnr" v="375244" />
	</node>
	<node id="-305702" lat="61.5658666631" lon="11.1191111149">
		<tag k="name" v="Frogner" />
		<tag k="place" v="farm" />
		<tag k="ssr:stedsnr" v="374446" />
	</node>
	<node id="-305701" lat="61.7153055552" lon="10.8539666579">
		<tag k="name" v="Flaten" />
		<tag k="place" v="farm" />
		<tag k="ssr:stedsnr" v="374237" />
	</node>
	<node id="-305699" lat="61.8123277803" lon="10.5853888872">
		<tag k="name" v="Storstubua" />
		<tag k="place" v="isolated_dwelling" />
		<tag k="ssr:stedsnr" v="374293" />
	</node>
	<node id="-305697" lat="61.7984500027" lon="10.6073722275">
		<tag k="name" v="Rydland" />
		<tag k="place" v="farm" />
		<tag k="ssr:stedsnr" v="374282" />
	</node>
	<node id="-305695" lat="61.6885250026" lon="10.7149722289">
		<tag k="historic" v="shieling" />
		<tag k="name" v="Granåsen" />
		<tag k="place" v="locality" />
		<tag k="ssr:stedsnr" v="374189" />
	</node>
	<node id="-305694" lat="61.5462388862" lon="11.0603750038">
		<tag k="name" v="Myrbakken" />
		<tag k="place" v="farm" />
		<tag k="ssr:stedsnr" v="374099" />
	</node>
	<node id="-305692" lat="61.5249583355" lon="10.774227785">
		<tag k="name" v="Krokhølen" />
		<tag k="place" v="isolated_dwelling" />
		<tag k="ssr:stedsnr" v="374083" />
	</node>
	<node id="-305688" lat="61.6588611153" lon="10.8878694367">
		<tag k="name" v="Bjerknes" />
		<tag k="place" v="farm" />
		<tag k="ssr:stedsnr" v="374046" />
	</node>
	<node id="-305686" lat="61.6240027781" lon="11.0227638817">
		<tag k="alt_name" v="Gånga" />
		<tag k="name" v="Ganga" />
		<tag k="place" v="isolated_dwelling" />
		<tag k="ssr:stedsnr" v="374035" />
	</node>
	<node id="-305685" lat="61.6272194466" lon="10.8893027704">
		<tag k="alt_name" v="Styrand" />
		<tag k="name" v="Strand" />
		<tag k="place" v="farm" />
		<tag k="ssr:stedsnr" v="374032" />
	</node>
	<node id="-305684" lat="61.6184055534" lon="10.8947833389">
		<tag k="name" v="Steinberg" />
		<tag k="place" v="farm" />
		<tag k="ssr:stedsnr" v="374022" />
	</node>
	<node id="-305681" lat="61.8909075789" lon="10.1317033929">
		<tag k="fixme" v="multiple name tags, choose one and add the other to alt_name" />
		<tag k="name" v="Dalen;Dokka" />
		<tag k="place" v="farm" />
		<tag k="ssr:stedsnr" v="373581" />
	</node>
	<node id="-305679" lat="61.8515916638" lon="10.2394694417">
		<tag k="name" v="Amperhaugen" />
		<tag k="old_name" v="Sole" />
		<tag k="place" v="farm" />
		<tag k="ssr:stedsnr" v="373395" />
	</node>
	<node id="-305672" lat="61.4158222179" lon="11.1165694449">
		<tag k="alt_name" v="Akre" />
		<tag k="name" v="Åkre" />
		<tag k="place" v="farm" />
		<tag k="ssr:stedsnr" v="372091" />
	</node>
	<node id="-305669" lat="61.3685055596" lon="11.2560194499">
		<tag k="name" v="Hyttmyrbua" />
		<tag k="place" v="isolated_dwelling" />
		<tag k="ssr:stedsnr" v="372047" />
	</node>
	<node id="-305664" lat="61.451427776" lon="10.9692055587">
		<tag k="name" v="Furuåsbua" />
		<tag k="place" v="isolated_dwelling" />
		<tag k="ssr:stedsnr" v="371421" />
	</node>
	<node id="-305663" lat="61.2172111078" lon="11.3345055476">
		<tag k="alt_name" v="Sætre, s;Søndre Sætre" />
		<tag k="name" v="Søre Sætre" />
		<tag k="place" v="farm" />
		<tag k="ssr:stedsnr" v="370441" />
	</node>
	<node id="-305662" lat="61.227122221" lon="11.333811118">
		<tag k="alt_name" v="Sætre, nordre" />
		<tag k="loc_name" v="Nørdre Sætre" />
		<tag k="name" v="Nordre Sætre" />
		<tag k="place" v="farm" />
		<tag k="ssr:stedsnr" v="370432" />
	</node>
	<node id="-305661" lat="61.5669333371" lon="11.0600527837">
		<tag k="amenity" v="school" />
		<tag k="name" v="Koppang skole" />
		<tag k="ssr:stedsnr" v="362436" />
	</node>
	<node id="-305649" lat="61.5552527784" lon="11.0116583357">
		<tag k="name" v="Søstu Trønnes" />
		<tag k="place" v="farm" />
		<tag k="ssr:stedsnr" v="362362" />
	</node>
	<node id="-305647" lat="61.3867861077" lon="11.0796805511">
		<tag k="name" v="Høybua" />
		<tag k="place" v="isolated_dwelling" />
		<tag k="ssr:stedsnr" v="362275" />
	</node>
	<node id="-305644" lat="61.3032472189" lon="11.2074861085">
		<tag k="name" v="Petsamo" />
		<tag k="place" v="isolated_dwelling" />
		<tag k="ssr:stedsnr" v="360488" />
	</node>
	<node id="-305629" lat="61.3844583314" lon="11.0178222207">
		<tag k="name" v="Hesteskobua" />
		<tag k="place" v="isolated_dwelling" />
		<tag k="ssr:stedsnr" v="344898" />
	</node>
	<node id="-305627" lat="61.4597277786" lon="11.0273694435">
		<tag k="name" v="Messeltbakken" />
		<tag k="place" v="farm" />
		<tag k="ssr:stedsnr" v="343805" />
	</node>
	<node id="-305625" lat="61.331138888" lon="11.2617416594">
		<tag k="name" v="Bekkheim" />
		<tag k="place" v="isolated_dwelling" />
		<tag k="ssr:stedsnr" v="343751" />
	</node>
	<node id="-305620" lat="61.4753500027" lon="10.9014166589">
		<tag k="name" v="Nierbua" />
		<tag k="place" v="isolated_dwelling" />
		<tag k="ssr:stedsnr" v="343495" />
	</node>
	<node id="-305619" lat="61.5402944469" lon="11.0312222188">
		<tag k="name" v="Bjørnstad" />
		<tag k="place" v="isolated_dwelling" />
		<tag k="ssr:stedsnr" v="343459" />
	</node>
	<node id="-305613" lat="61.4092055525" lon="11.12423611">
		<tag k="name" v="Skogstad" />
		<tag k="place" v="farm" />
		<tag k="ssr:stedsnr" v="343217" />
	</node>
	<node id="-305612" lat="61.4153249965" lon="11.1021611117">
		<tag k="loc_name" v="Stubbsveen" />
		<tag k="name" v="Stubsveen" />
		<tag k="place" v="farm" />
		<tag k="ssr:stedsnr" v="343212" />
	</node>
	<node id="-305606" lat="61.7986416681" lon="10.6114861197">
		<tag k="name" v="Atndalen" />
		<tag k="place" v="farm" />
		<tag k="ssr:stedsnr" v="314293" />
	</node>
	<node id="-305604" lat="61.7972666639" lon="10.6346194357">
		<tag k="name" v="Reierstua" />
		<tag k="place" v="farm" />
		<tag k="ssr:stedsnr" v="314284" />
	</node>
	<node id="-305603" lat="61.7392361088" lon="10.6666527717">
		<tag k="name" v="Hirbuvollen" />
		<tag k="place" v="isolated_dwelling" />
		<tag k="ssr:stedsnr" v="314200" />
	</node>
	<node id="-305602" lat="61.769913889" lon="10.4574388837">
		<tag k="alt_name" v="Atnosgammelsæter" />
		<tag k="historic" v="shieling" />
		<tag k="name" v="Gammelsætra" />
		<tag k="place" v="locality" />
		<tag k="ssr:stedsnr" v="314324" />
	</node>
	<node id="-305601" lat="61.628725003" lon="11.000519447">
		<tag k="name" v="Enerbua" />
		<tag k="place" v="isolated_dwelling" />
		<tag k="ssr:stedsnr" v="314026" />
	</node>
	<node id="-305592" lat="61.8559027791" lon="10.3040722226">
		<tag k="alt_name" v="Bjerke" />
		<tag k="name" v="Bjørke" />
		<tag k="place" v="farm" />
		<tag k="ssr:stedsnr" v="313396" />
	</node>
	<node id="-305590" lat="61.8317240099" lon="10.2341204773">
		<tag k="alt_name" v="Øvre Hamna" />
		<tag k="name" v="Hamna" />
		<tag k="place" v="hamlet" />
		<tag k="ssr:stedsnr" v="313380" />
	</node>
	<node id="-305225" lat="61.4227000027" lon="11.0995722163">
		<tag k="name" v="Bø" />
		<tag k="place" v="farm" />
		<tag k="ssr:stedsnr" v="39165" />
	</node>
	<node id="-305587" lat="61.531277257" lon="11.0402629633">
		<tag k="fixme" v="consider place=hamlet" />
		<tag k="name" v="Vestgard" />
		<tag k="place" v="farm" />
		<tag k="ssr:stedsnr" v="313100" />
	</node>
	<node id="-305586" lat="61.5858749996" lon="10.9911750032">
		<tag k="name" v="Sjåheim" />
		<tag k="place" v="farm" />
		<tag k="ssr:stedsnr" v="313143" />
	</node>
	<node id="-305584" lat="61.5819555564" lon="11.0383861143">
		<tag k="name" v="Olstad" />
		<tag k="place" v="farm" />
		<tag k="ssr:stedsnr" v="313136" />
	</node>
	<node id="-305582" lat="61.6538222248" lon="10.8985611034">
		<tag k="name" v="Granheim" />
		<tag k="place" v="farm" />
		<tag k="ssr:stedsnr" v="313038" />
	</node>
	<node id="-305580" lat="61.5864055585" lon="10.9972611114">
		<tag k="name" v="Øvre" />
		<tag k="place" v="farm" />
		<tag k="ssr:stedsnr" v="313001" />
	</node>
	<node id="-305577" lat="61.3493833334" lon="11.0118361124">
		<tag k="alt_name" v="Møklebysætra" />
		<tag k="historic" v="shieling" />
		<tag k="name" v="Myklebysætra" />
		<tag k="place" v="locality" />
		<tag k="ssr:stedsnr" v="312405" />
	</node>
	<node id="-305570" lat="61.4058237863" lon="11.1248728566">
		<tag k="fixme" v="multiple name tags, choose one and add the other to alt_name" />
		<tag k="name" v="Odden;Storperstuen" />
		<tag k="place" v="farm" />
		<tag k="ssr:stedsnr" v="312075" />
	</node>
	<node id="-305566" lat="61.4373277821" lon="11.073355549">
		<tag k="name" v="Feta" />
		<tag k="place" v="locality" />
		<tag k="ssr:stedsnr" v="311481" />
	</node>
	<node id="-305564" lat="61.4160333332" lon="10.7597388965">
		<tag k="name" v="Kvannslåa" />
		<tag k="place" v="isolated_dwelling" />
		<tag k="ssr:stedsnr" v="311474" />
	</node>
	<node id="-305563" lat="61.2807749997" lon="11.2928194387">
		<tag k="alt_name" v="Løveng" />
		<tag k="name" v="Lauveng" />
		<tag k="place" v="farm" />
		<tag k="ssr:stedsnr" v="311306" />
	</node>
	<node id="-305558" lat="61.287027778" lon="11.278219441">
		<tag k="name" v="Myre" />
		<tag k="place" v="farm" />
		<tag k="ssr:stedsnr" v="311276" />
	</node>
	<node id="-305557" lat="61.2935500029" lon="11.2697166731">
		<tag k="name" v="Jensbakken" />
		<tag k="place" v="farm" />
		<tag k="ssr:stedsnr" v="311272" />
	</node>
	<node id="-305555" lat="61.4177833327" lon="11.121594442">
		<tag k="name" v="Skoglund" />
		<tag k="place" v="farm" />
		<tag k="ssr:stedsnr" v="311100" />
	</node>
	<node id="-305553" lat="61.2097499963" lon="11.2090749972">
		<tag k="name" v="Bjørnmyrbua" />
		<tag k="place" v="isolated_dwelling" />
		<tag k="ssr:stedsnr" v="310407" />
	</node>
	<node id="-305552" lat="61.2135972264" lon="11.2340138823">
		<tag k="alt_name" v="Storbua, nedre" />
		<tag k="name" v="Nedre Storbua" />
		<tag k="place" v="isolated_dwelling" />
		<tag k="ssr:stedsnr" v="310404" />
	</node>
	<node id="-305551" lat="61.2494638859" lon="11.152938897">
		<tag k="historic" v="shieling" />
		<tag k="name" v="Sætresætra" />
		<tag k="place" v="locality" />
		<tag k="ssr:stedsnr" v="310386" />
	</node>
	<node id="-305550" lat="61.2424878898" lon="11.3289142108">
		<tag k="alt_name" v="Søndre Hovde" />
		<tag k="fixme" v="consider place=hamlet" />
		<tag k="name" v="Hovde" />
		<tag k="place" v="farm" />
		<tag k="ssr:stedsnr" v="310382" />
	</node>
	<node id="-305901" lat="61.4119916646" lon="11.0406083412">
		<tag k="name" v="Bergebua" />
		<tag k="place" v="isolated_dwelling" />
		<tag k="ssr:stedsnr" v="554449" />
	</node>
	<node id="-305544" lat="61.8643722263" lon="10.3782666738">
		<tag k="name" v="Elgbua" />
		<tag k="place" v="locality" />
		<tag k="ssr:stedsnr" v="301998" />
	</node>
	<node id="-305541" lat="61.8540011087" lon="10.2370066177">
		<tag k="name" v="Haug" />
		<tag k="place" v="farm" />
		<tag k="ssr:stedsnr" v="301340" />
	</node>
	<node id="-305540" lat="61.757580555" lon="10.2645666651">
		<tag k="name" v="Dølbua" />
		<tag k="place" v="isolated_dwelling" />
		<tag k="ssr:stedsnr" v="301393" />
	</node>
	<node id="-305539" lat="61.7552361098" lon="10.3010277809">
		<tag k="name" v="Midtre Kulstad" />
		<tag k="place" v="farm" />
		<tag k="ssr:stedsnr" v="301387" />
	</node>
	<node id="-305536" lat="61.7808055517" lon="10.3999361107">
		<tag k="fixme" v="consider place=hamlet" />
		<tag k="name" v="Sollia" />
		<tag k="place" v="village" />
		<tag k="ssr:stedsnr" v="213150" />
	</node>
	<node id="-305535" lat="61.5461250001" lon="11.0392916616">
		<tag k="name" v="Koppangsjordet" />
		<tag k="place" v="locality" />
		<tag k="ssr:stedsnr" v="202366" />
	</node>
	<node id="-305532" lat="61.7822277814" lon="10.4999416716">
		<tag k="fixme" v="consider place=hamlet" />
		<tag k="name" v="Mogrenda" />
		<tag k="place" v="village" />
		<tag k="ssr:stedsnr" v="193293" />
	</node>
	<node id="-305531" lat="61.7734083366" lon="10.3812916714">
		<tag k="name" v="Modal" />
		<tag k="place" v="farm" />
		<tag k="ssr:stedsnr" v="193285" />
	</node>
	<node id="-305530" lat="61.7687944416" lon="10.3564555603">
		<tag k="name" v="Granhaugen" />
		<tag k="place" v="farm" />
		<tag k="ssr:stedsnr" v="193282" />
	</node>
	<node id="-305529" lat="61.7722527771" lon="10.3788999951">
		<tag k="name" v="Nymoen" />
		<tag k="place" v="farm" />
		<tag k="ssr:stedsnr" v="193278" />
	</node>
	<node id="-305524" lat="61.8225138889" lon="10.5782055578">
		<tag k="historic" v="shieling" />
		<tag k="name" v="Atndalsnysætra" />
		<tag k="place" v="locality" />
		<tag k="ssr:stedsnr" v="193250" />
	</node>
	<node id="-305523" lat="61.7904499964" lon="10.5070944361">
		<tag k="name" v="Tangen" />
		<tag k="place" v="farm" />
		<tag k="ssr:stedsnr" v="193239" />
	</node>
	<node id="-305516" lat="61.5690888926" lon="11.1282499924">
		<tag k="name" v="Dronninga" />
		<tag k="place" v="locality" />
		<tag k="ssr:stedsnr" v="192480" />
	</node>
	<node id="-305511" lat="61.852713146" lon="10.2386440833">
		<tag k="name" v="Olstad" />
		<tag k="place" v="farm" />
		<tag k="ssr:stedsnr" v="192426" />
	</node>
	<node id="-305504" lat="61.5084555571" lon="10.9452861105">
		<tag k="name" v="Staigammelsætra" />
		<tag k="place" v="farm" />
		<tag k="ssr:stedsnr" v="192080" />
	</node>
	<node id="-305501" lat="61.6529722262" lon="10.889894436">
		<tag k="alt_name" v="Bjøråneset, søre;Søndre Bjøråneset" />
		<tag k="name" v="Søre Bjøråneset" />
		<tag k="place" v="farm" />
		<tag k="ssr:stedsnr" v="192047" />
	</node>
	<node id="-305500" lat="61.6559861127" lon="10.8908555489">
		<tag k="name" v="Bråten" />
		<tag k="place" v="farm" />
		<tag k="ssr:stedsnr" v="192046" />
	</node>
	<node id="-305498" lat="61.6173722185" lon="11.0818472253">
		<tag k="name" v="Rokkstua" />
		<tag k="place" v="isolated_dwelling" />
		<tag k="ssr:stedsnr" v="192025" />
	</node>
	<node id="-305497" lat="61.6153361135" lon="10.8899916591">
		<tag k="alt_name" v="Garli" />
		<tag k="name" v="Gardli" />
		<tag k="place" v="farm" />
		<tag k="ssr:stedsnr" v="192022" />
	</node>
	<node id="-305493" lat="61.3601166709" lon="10.844480556">
		<tag k="name" v="Prøva" />
		<tag k="place" v="isolated_dwelling" />
		<tag k="ssr:stedsnr" v="190428" />
	</node>
	<node id="-305490" lat="61.3983361134" lon="11.1395944436">
		<tag k="name" v="Syra" />
		<tag k="place" v="farm" />
		<tag k="ssr:stedsnr" v="190102" />
	</node>
	<node id="-305489" lat="61.4116055516" lon="11.1037999904">
		<tag k="name" v="Huset" />
		<tag k="place" v="farm" />
		<tag k="ssr:stedsnr" v="190094" />
	</node>
	<node id="-305488" lat="61.3650305545" lon="11.1980833299">
		<tag k="name" v="Smedstua" />
		<tag k="place" v="farm" />
		<tag k="ssr:stedsnr" v="190056" />
	</node>
	<node id="-305487" lat="61.4476666654" lon="10.9596888958">
		<tag k="name" v="Storbekkvollen" />
		<tag k="place" v="isolated_dwelling" />
		<tag k="ssr:stedsnr" v="189420" />
	</node>
	<node id="-305549" lat="61.525494448" lon="11.0658055602">
		<tag k="name" v="Olufstua" />
		<tag k="place" v="locality" />
		<tag k="ssr:stedsnr" v="302780" />
	</node>
	<node id="-305482" lat="61.6604388888" lon="10.9955972181">
		<tag k="name" v="Bjønnskarkoia" />
		<tag k="place" v="isolated_dwelling" />
		<tag k="ssr:stedsnr" v="180737" />
	</node>
	<node id="-305477" lat="61.5579277755" lon="11.0072416665">
		<tag k="name" v="Vestlund" />
		<tag k="place" v="isolated_dwelling" />
		<tag k="ssr:stedsnr" v="180346" />
	</node>
	<node id="-305468" lat="61.2827166683" lon="11.2588055594">
		<tag k="name" v="Hellbua" />
		<tag k="place" v="isolated_dwelling" />
		<tag k="ssr:stedsnr" v="178522" />
	</node>
	<node id="-305467" lat="61.7760138931" lon="10.3873638803">
		<tag k="name" v="Granli" />
		<tag k="place" v="farm" />
		<tag k="ssr:stedsnr" v="178506" />
	</node>
	<node id="-304180" lat="61.5594055549" lon="11.0126361024">
		<tag k="name" v="Ekerstua" />
		<tag k="place" v="farm" />
		<tag k="ssr:stedsnr" v="119367" />
	</node>
	<node id="-305460" lat="61.2760361123" lon="11.2755250047">
		<tag k="name" v="Bratsbergbua" />
		<tag k="place" v="isolated_dwelling" />
		<tag k="ssr:stedsnr" v="300538" />
	</node>
	<node id="-305459" lat="61.2949527742" lon="11.2779500076">
		<tag k="name" v="Gammelstu Strand" />
		<tag k="place" v="locality" />
		<tag k="ssr:stedsnr" v="300537" />
	</node>
	<node id="-305458" lat="61.3166777793" lon="11.256044446">
		<tag k="name" v="Fossum" />
		<tag k="place" v="isolated_dwelling" />
		<tag k="ssr:stedsnr" v="300527" />
	</node>
	<node id="-305454" lat="61.2451194466" lon="11.3304694515">
		<tag k="name" v="Tokstad" />
		<tag k="place" v="isolated_dwelling" />
		<tag k="ssr:stedsnr" v="162847" />
	</node>
	<node id="-305449" lat="61.5283111144" lon="11.0404444384">
		<tag k="name" v="Kolden" />
		<tag k="place" v="isolated_dwelling" />
		<tag k="ssr:stedsnr" v="161797" />
	</node>
	<node id="-305442" lat="61.4049527775" lon="11.1269333401">
		<tag k="name" v="Lisbetstuen" />
		<tag k="place" v="farm" />
		<tag k="ssr:stedsnr" v="161240" />
	</node>
	<node id="-305883" lat="61.3114805543" lon="11.2562361159">
		<tag k="name" v="Stensrud" />
		<tag k="place" v="farm" />
		<tag k="ssr:stedsnr" v="554022" />
	</node>
	<node id="-305440" lat="61.4184277756" lon="11.0906055619">
		<tag k="name" v="Rø" />
		<tag k="place" v="isolated_dwelling" />
		<tag k="ssr:stedsnr" v="161223" />
	</node>
	<node id="-305434" lat="61.7875166688" lon="10.2255916659">
		<tag k="name" v="Nordre Enden" />
		<tag k="place" v="locality" />
		<tag k="ssr:stedsnr" v="300287" />
	</node>
	<node id="-305432" lat="61.8566611105" lon="10.214838884">
		<tag k="name" v="Nysted" />
		<tag k="place" v="locality" />
		<tag k="ssr:stedsnr" v="300263" />
	</node>
	<node id="-305429" lat="61.713386108" lon="10.8415166636">
		<tag k="name" v="Lundby" />
		<tag k="place" v="farm" />
		<tag k="ssr:stedsnr" v="141266" />
	</node>
	<node id="-305424" lat="61.7512888886" lon="10.9156250053">
		<tag k="name" v="Kongsvoll" />
		<tag k="place" v="isolated_dwelling" />
		<tag k="ssr:stedsnr" v="132195" />
	</node>
	<node id="-305420" lat="61.8009387085" lon="10.2207167437">
		<tag k="name" v="Tangen" />
		<tag k="place" v="hamlet" />
		<tag k="ssr:stedsnr" v="131400" />
	</node>
	<node id="-305419" lat="61.755928575" lon="10.3029469586">
		<tag k="name" v="Kolstad" />
		<tag k="place" v="hamlet" />
		<tag k="ssr:stedsnr" v="131386" />
	</node>
	<node id="-305418" lat="61.762222222" lon="10.2048611164">
		<tag k="historic" v="shieling" />
		<tag k="name" v="Gunstadsætra" />
		<tag k="place" v="locality" />
		<tag k="ssr:stedsnr" v="131377" />
	</node>
	<node id="-305416" lat="61.5071999994" lon="11.1069722141">
		<tag k="name" v="Midtbua" />
		<tag k="old_name" v="Midtbrua" />
		<tag k="place" v="isolated_dwelling" />
		<tag k="ssr:stedsnr" v="131251" />
	</node>
	<node id="-305415" lat="61.544061115" lon="11.0246027689">
		<tag k="name" v="Evje" />
		<tag k="place" v="farm" />
		<tag k="ssr:stedsnr" v="131095" />
	</node>
	<node id="-305414" lat="61.5385722226" lon="11.0653305523">
		<tag k="name" v="Gustu" />
		<tag k="place" v="farm" />
		<tag k="ssr:stedsnr" v="131078" />
	</node>
	<node id="-305408" lat="61.4858083366" lon="11.0269472189">
		<tag k="name" v="Husvola" />
		<tag k="place" v="farm" />
		<tag k="ssr:stedsnr" v="129463" />
	</node>
	<node id="-305406" lat="61.4953138873" lon="11.0600277822">
		<tag k="alt_name" v="Veslhamarn" />
		<tag k="name" v="Veslhammaren" />
		<tag k="place" v="farm" />
		<tag k="ssr:stedsnr" v="129459" />
	</node>
	<node id="-305405" lat="61.2657805565" lon="11.1624194518">
		<tag k="name" v="Strandsætra" />
		<tag k="place" v="hamlet" />
		<tag k="ssr:stedsnr" v="129257" />
	</node>
	<node id="-305402" lat="61.3838222196" lon="11.1598861093">
		<tag k="alt_name" v="Spongsveen, nordre;Spongsvea, nordre;Spongsvea" />
		<tag k="name" v="Nordre Spongsvea" />
		<tag k="place" v="farm" />
		<tag k="ssr:stedsnr" v="129066" />
	</node>
	<node id="-305399" lat="61.2081027782" lon="11.3004527733">
		<tag k="name" v="Syljubekkoia" />
		<tag k="place" v="isolated_dwelling" />
		<tag k="ssr:stedsnr" v="128376" />
	</node>
	<node id="-305398" lat="61.3759638919" lon="11.2365166676">
		<tag k="name" v="Asplundbua" />
		<tag k="place" v="isolated_dwelling" />
		<tag k="ssr:stedsnr" v="120798" />
	</node>
	<node id="-305397" lat="61.5249805543" lon="11.045297229">
		<tag k="name" v="Negardshaugen" />
		<tag k="place" v="farm" />
		<tag k="ssr:stedsnr" v="120789" />
	</node>
	<node id="-305394" lat="61.8804083307" lon="10.4429694376">
		<tag k="historic" v="shieling" />
		<tag k="name" v="Solheimsætra" />
		<tag k="place" v="locality" />
		<tag k="ssr:stedsnr" v="119992" />
	</node>
	<node id="-305387" lat="61.7554999996" lon="10.2958749907">
		<tag k="name" v="Nordre Kulstad" />
		<tag k="place" v="farm" />
		<tag k="ssr:stedsnr" v="119419" />
	</node>
	<node id="-305386" lat="61.763308333" lon="10.3427888939">
		<tag k="name" v="Nyegga" />
		<tag k="place" v="farm" />
		<tag k="ssr:stedsnr" v="119407" />
	</node>
	<node id="-305385" lat="61.5808305567" lon="11.0222888821">
		<tag k="name" v="Støen" />
		<tag k="place" v="farm" />
		<tag k="ssr:stedsnr" v="119322" />
	</node>
	<node id="-305384" lat="61.8870305563" lon="10.1807388908">
		<tag k="historic" v="shieling" />
		<tag k="name" v="Søndre Moen sæter" />
		<tag k="place" v="locality" />
		<tag k="ssr:stedsnr" v="119270" />
	</node>
	<node id="-305382" lat="61.7272499957" lon="10.8321111019">
		<tag k="leisure" v="pitch" />
		<tag k="name" v="Atna stadion" />
		<tag k="ssr:stedsnr" v="119245" />
	</node>
	<node id="-305377" lat="61.2602305595" lon="11.3101333382">
		<tag k="name" v="Øvre Mørmoen" />
		<tag k="place" v="isolated_dwelling" />
		<tag k="ssr:stedsnr" v="118488" />
	</node>
	<node id="-305376" lat="61.2942583327" lon="11.2790555548">
		<tag k="name" v="Solvang" />
		<tag k="place" v="farm" />
		<tag k="ssr:stedsnr" v="118480" />
	</node>
	<node id="-305375" lat="61.4326944437" lon="11.2002944511">
		<tag k="name" v="Henningsvær" />
		<tag k="place" v="locality" />
		<tag k="ssr:stedsnr" v="117293" />
	</node>
	<node id="-305374" lat="61.6335694434" lon="11.0608555612">
		<tag k="name" v="Bjørbekkstua" />
		<tag k="place" v="isolated_dwelling" />
		<tag k="ssr:stedsnr" v="116240" />
	</node>
	<node id="-305372" lat="61.8928277797" lon="10.1306166726">
		<tag k="name" v="Berg" />
		<tag k="place" v="isolated_dwelling" />
		<tag k="ssr:stedsnr" v="113576" />
	</node>
	<node id="-305369" lat="61.2342833301" lon="11.3044361101">
		<tag k="name" v="Solvang" />
		<tag k="place" v="farm" />
		<tag k="ssr:stedsnr" v="103532" />
	</node>
	<node id="-305366" lat="61.4441250022" lon="11.0663777839">
		<tag k="name" v="Linnær" />
		<tag k="place" v="isolated_dwelling" />
		<tag k="ssr:stedsnr" v="102900" />
	</node>
	<node id="-305350" lat="61.2658361149" lon="11.1853472203">
		<tag k="name" v="Strand hytteområde" />
		<tag k="place" v="neighbourhood" />
		<tag k="ssr:stedsnr" v="100750" />
	</node>
	<node id="-304161" lat="61.5365416636" lon="11.0280277821">
		<tag k="name" v="Solhaug" />
		<tag k="place" v="isolated_dwelling" />
		<tag k="ssr:stedsnr" v="100461" />
	</node>
	<node id="-305348" lat="61.4220000021" lon="11.0997694439">
		<tag k="name" v="Nyhus" />
		<tag k="place" v="farm" />
		<tag k="ssr:stedsnr" v="100192" />
	</node>
	<node id="-305346" lat="61.5493416639" lon="11.0465472161">
		<tag k="alt_name" v="Bakken;Søstu Bakken" />
		<tag k="name" v="Søndre Bakken" />
		<tag k="place" v="farm" />
		<tag k="ssr:stedsnr" v="81387" />
	</node>
	<node id="-305344" lat="61.7799916684" lon="10.4977888968">
		<tag k="name" v="Mohaugen" />
		<tag k="place" v="farm" />
		<tag k="ssr:stedsnr" v="72298" />
	</node>
	<node id="-305341" lat="61.7948555587" lon="10.6241444495">
		<tag k="name" v="Myrdal" />
		<tag k="place" v="farm" />
		<tag k="ssr:stedsnr" v="72247" />
	</node>
	<node id="-305334" lat="61.7905666646" lon="10.4413777863">
		<tag k="name" v="Brandvoll" />
		<tag k="place" v="farm" />
		<tag k="ssr:stedsnr" v="71284" />
	</node>
	<node id="-305333" lat="61.7959250008" lon="10.6157416708">
		<tag k="name" v="Øverås" />
		<tag k="place" v="farm" />
		<tag k="ssr:stedsnr" v="71271" />
	</node>
	<node id="-305331" lat="61.5370333308" lon="11.0775694504">
		<tag k="alt_name" v="Skjæret" />
		<tag k="name" v="Skjeret" />
		<tag k="place" v="isolated_dwelling" />
		<tag k="ssr:stedsnr" v="71081" />
	</node>
	<node id="-305329" lat="61.6700888868" lon="10.9302277869">
		<tag k="name" v="Skardbua" />
		<tag k="place" v="isolated_dwelling" />
		<tag k="ssr:stedsnr" v="71058" />
	</node>
	<node id="-305327" lat="61.8473944452" lon="10.254225009">
		<tag k="alt_name" v="Nygard" />
		<tag k="name" v="Nygård" />
		<tag k="place" v="farm" />
		<tag k="ssr:stedsnr" v="70374" />
	</node>
	<node id="-305326" lat="61.8472238517" lon="10.2369907289">
		<tag k="alt_name" v="Brenna" />
		<tag k="name" v="Brenn" />
		<tag k="place" v="hamlet" />
		<tag k="ssr:stedsnr" v="70368" />
	</node>
	<node id="-305322" lat="61.583644447" lon="10.9991944381">
		<tag k="name" v="Øverengsmoen" />
		<tag k="place" v="farm" />
		<tag k="ssr:stedsnr" v="70109" />
	</node>
	<node id="-305321" lat="61.5846750045" lon="11.0424638888">
		<tag k="name" v="Brattli" />
		<tag k="place" v="farm" />
		<tag k="ssr:stedsnr" v="70105" />
	</node>
	<node id="-305319" lat="61.5413249973" lon="10.6996000032">
		<tag k="name" v="Kvernskjerbuene" />
		<tag k="place" v="isolated_dwelling" />
		<tag k="ssr:stedsnr" v="70238" />
	</node>
	<node id="-305317" lat="61.7364750007" lon="10.7878499946">
		<tag k="name" v="Solfeng" />
		<tag k="place" v="farm" />
		<tag k="ssr:stedsnr" v="70211" />
	</node>
	<node id="-305314" lat="61.4903195325" lon="10.7757442374">
		<tag k="historic" v="shieling" />
		<tag k="name" v="Gåla" />
		<tag k="place" v="locality" />
		<tag k="ssr:stedsnr" v="69495" />
	</node>
	<node id="-304155" lat="61.7801888861" lon="10.3955416755">
		<tag k="name" v="Øverli" />
		<tag k="place" v="farm" />
		<tag k="ssr:stedsnr" v="253363" />
	</node>
	<node id="-305306" lat="61.2703583316" lon="11.3109750063">
		<tag k="alt_name" v="Søndre Bekken" />
		<tag k="name" v="Bekken" />
		<tag k="place" v="farm" />
		<tag k="ssr:stedsnr" v="69253" />
	</node>
	<node id="-305305" lat="61.2691055577" lon="11.3038499969">
		<tag k="name" v="Rønningen" />
		<tag k="place" v="locality" />
		<tag k="ssr:stedsnr" v="69252" />
	</node>
	<node id="-305301" lat="61.2955222227" lon="11.2854500079">
		<tag k="fixme" v="consider place=hamlet" />
		<tag k="name" v="Strand" />
		<tag k="place" v="village" />
		<tag k="ssr:stedsnr" v="69224" />
	</node>
	<node id="-305300" lat="61.4093055573" lon="11.1323444379">
		<tag k="name" v="Enghol" />
		<tag k="place" v="farm" />
		<tag k="ssr:stedsnr" v="69093" />
	</node>
	<node id="-305299" lat="61.4178611107" lon="11.1070611103">
		<tag k="name" v="Holt" />
		<tag k="place" v="farm" />
		<tag k="ssr:stedsnr" v="69088" />
	</node>
	<node id="-305296" lat="61.3601888846" lon="11.2219750085">
		<tag k="name" v="Vollen" />
		<tag k="place" v="isolated_dwelling" />
		<tag k="ssr:stedsnr" v="69048" />
	</node>
	<node id="-305293" lat="61.3829083296" lon="11.1614722202">
		<tag k="alt_name" v="Søndre Spongsveen;Spongsvea, søndre;Søndre Spongsvea" />
		<tag k="name" v="Søre Spongsvea" />
		<tag k="place" v="farm" />
		<tag k="ssr:stedsnr" v="69040" />
	</node>
	<node id="-305292" lat="61.3995666663" lon="11.2339111082">
		<tag k="name" v="Kjølvollen" />
		<tag k="place" v="isolated_dwelling" />
		<tag k="ssr:stedsnr" v="69031" />
	</node>
	<node id="-305291" lat="61.315730555" lon="11.2550750057">
		<tag k="name" v="Gårder" />
		<tag k="place" v="farm" />
		<tag k="ssr:stedsnr" v="69010" />
	</node>
	<node id="-305290" lat="61.3443305563" lon="11.2291583245">
		<tag k="name" v="Kvernbua" />
		<tag k="place" v="isolated_dwelling" />
		<tag k="ssr:stedsnr" v="69003" />
	</node>
	<node id="-305289" lat="61.4451166668" lon="11.0660472279">
		<tag k="name" v="Lorensstua" />
		<tag k="place" v="farm" />
		<tag k="ssr:stedsnr" v="68465" />
	</node>
	<node id="-305287" lat="61.4495259739" lon="11.0396172495">
		<tag k="fixme" v="consider place=hamlet" />
		<tag k="name" v="Messelt" />
		<tag k="place" v="farm" />
		<tag k="ssr:stedsnr" v="67061" />
	</node>
	<node id="-305282" lat="61.3403694408" lon="11.2490472289">
		<tag k="name" v="Nymoen" />
		<tag k="place" v="farm" />
		<tag k="ssr:stedsnr" v="59684" />
	</node>
	<node id="-305281" lat="61.3432000029" lon="11.2433027688">
		<tag k="name" v="Malonæs" />
		<tag k="place" v="farm" />
		<tag k="ssr:stedsnr" v="59683" />
	</node>
	<node id="-305279" lat="61.7556583378" lon="10.2725638898">
		<tag k="name" v="Tjerne" />
		<tag k="place" v="isolated_dwelling" />
		<tag k="ssr:stedsnr" v="59398" />
	</node>
	<node id="-304149" lat="61.7230027755" lon="10.8426083325">
		<tag k="name" v="Granrud" />
		<tag k="place" v="farm" />
		<tag k="ssr:stedsnr" v="253248" />
	</node>
	<node id="-305274" lat="61.5711666693" lon="10.9683861139">
		<tag k="name" v="Liberg" />
		<tag k="place" v="isolated_dwelling" />
		<tag k="ssr:stedsnr" v="59362" />
	</node>
	<node id="-305261" lat="61.8141138928" lon="10.2069111074">
		<tag k="name" v="Vollsaga" />
		<tag k="place" v="locality" />
		<tag k="ssr:stedsnr" v="57220" />
	</node>
	<node id="-304058" lat="61.2360916695" lon="11.3034999956">
		<tag k="name" v="Myrvang" />
		<tag k="place" v="farm" />
		<tag k="ssr:stedsnr" v="224495" />
	</node>
	<node id="-305253" lat="61.393208337" lon="11.2582638881">
		<tag k="name" v="Røybua" />
		<tag k="old_name" v="Røibua" />
		<tag k="place" v="locality" />
		<tag k="ssr:stedsnr" v="55788" />
	</node>
	<node id="-305247" lat="61.7860138906" lon="10.5358333409">
		<tag k="loc_name" v="Sæter" />
		<tag k="name" v="Sæther" />
		<tag k="place" v="farm" />
		<tag k="ssr:stedsnr" v="42998" />
	</node>
	<node id="-305245" lat="61.4365638913" lon="11.0736916583">
		<tag k="name" v="Solbakken" />
		<tag k="place" v="farm" />
		<tag k="ssr:stedsnr" v="299979" />
	</node>
	<node id="-305242" lat="61.4215333292" lon="11.0730166655">
		<tag k="building" v="commercial" />
		<tag k="name" v="Svingen" />
		<tag k="ssr:stedsnr" v="41887" />
	</node>
	<node id="-305239" lat="61.4284416679" lon="11.0442250084">
		<tag k="name" v="Nystumoen" />
		<tag k="place" v="isolated_dwelling" />
		<tag k="ssr:stedsnr" v="41874" />
	</node>
	<node id="-305236" lat="61.5303722244" lon="11.0378527865">
		<tag k="name" v="Solhøi" />
		<tag k="place" v="isolated_dwelling" />
		<tag k="ssr:stedsnr" v="40834" />
	</node>
	<node id="-305235" lat="61.4462944446" lon="10.9262000021">
		<tag k="name" v="Bjønnbua" />
		<tag k="place" v="isolated_dwelling" />
		<tag k="ssr:stedsnr" v="40634" />
	</node>
	<node id="-304141" lat="61.572194444" lon="11.0465861022">
		<tag k="name" v="Koppang" />
		<tag k="place" v="village" />
		<tag k="ssr:stedsnr" v="253126" />
	</node>
	<node id="-305228" lat="61.4152055573" lon="11.1033583303">
		<tag k="name" v="Bråten" />
		<tag k="place" v="farm" />
		<tag k="ssr:stedsnr" v="39172" />
	</node>
	<node id="-305227" lat="61.4170499986" lon="11.0954388936">
		<tag k="name" v="Skogen" />
		<tag k="place" v="farm" />
		<tag k="ssr:stedsnr" v="39170" />
	</node>
	<node id="-305226" lat="61.4167166628" lon="11.0991055613">
		<tag k="name" v="Sandhaugen" />
		<tag k="place" v="farm" />
		<tag k="ssr:stedsnr" v="39169" />
	</node>
	<node id="-306201" lat="61.8438805515" lon="10.3734083271">
		<tag k="name" v="Lyngstad" />
		<tag k="place" v="farm" />
		<tag k="ssr:stedsnr" v="799484" />
	</node>
	<node id="-305223" lat="61.42418889" lon="11.0974527817">
		<tag k="fixme" v="consider place=hamlet" />
		<tag k="name" v="Evenstad" />
		<tag k="place" v="village" />
		<tag k="ssr:stedsnr" v="25530" />
	</node>
	<node id="-305220" lat="61.7852861079" lon="10.5283750046">
		<tag k="alt_name" v="Sletten" />
		<tag k="name" v="Sletta" />
		<tag k="place" v="farm" />
		<tag k="ssr:stedsnr" v="11296" />
	</node>
	<node id="-305218" lat="61.7690333344" lon="10.3696166636">
		<tag k="name" v="Frammi" />
		<tag k="place" v="farm" />
		<tag k="ssr:stedsnr" v="11286" />
	</node>
	<node id="-304139" lat="61.5146472236" lon="11.0436694477">
		<tag k="name" v="Fullpantmoen" />
		<tag k="place" v="farm" />
		<tag k="ssr:stedsnr" v="253064" />
	</node>
	<node id="-305216" lat="61.7974055575" lon="10.6153972225">
		<tag k="name" v="Flaten" />
		<tag k="place" v="farm" />
		<tag k="ssr:stedsnr" v="11246" />
	</node>
	<node id="-305215" lat="61.7500861074" lon="10.5061027755">
		<tag k="historic" v="shieling" />
		<tag k="name" v="Mokjølen" />
		<tag k="place" v="locality" />
		<tag k="ssr:stedsnr" v="11121" />
	</node>
	<node id="-305213" lat="61.8890718667" lon="10.1440180098">
		<tag k="name" v="Neset" />
		<tag k="place" v="hamlet" />
		<tag k="ssr:stedsnr" v="10597" />
	</node>
	<node id="-305208" lat="61.8533277805" lon="10.2869944515">
		<tag k="name" v="Bryn" />
		<tag k="place" v="farm" />
		<tag k="ssr:stedsnr" v="10391" />
	</node>
	<node id="-305205" lat="61.8341055538" lon="10.2373444369">
		<tag k="name" v="Rondetunet" />
		<tag k="ssr:stedsnr" v="10365" />
		<tag k="tourism" v="hotel" />
	</node>
	<node id="-305199" lat="61.5523305543" lon="11.053744444">
		<tag k="name" v="Haugen" />
		<tag k="place" v="farm" />
		<tag k="ssr:stedsnr" v="10100" />
	</node>
	<node id="-305198" lat="61.5441694406" lon="11.0625333326">
		<tag k="alt_name" v="Skredderstua" />
		<tag k="name" v="Skreddarstua" />
		<tag k="place" v="farm" />
		<tag k="ssr:stedsnr" v="10096" />
	</node>
	<node id="-305196" lat="61.5061749972" lon="10.9984638854">
		<tag k="alt_name" v="Sørtjønnlisætra" />
		<tag k="historic" v="shieling" />
		<tag k="name" v="Sørtjørnlisætra" />
		<tag k="place" v="locality" />
		<tag k="ssr:stedsnr" v="10072" />
	</node>
	<node id="-305195" lat="61.6732861076" lon="10.8920805598">
		<tag k="name" v="Vangen" />
		<tag k="place" v="farm" />
		<tag k="ssr:stedsnr" v="10058" />
	</node>
	<node id="-305192" lat="61.6309805581" lon="10.8866250047">
		<tag k="name" v="Myrland" />
		<tag k="place" v="farm" />
		<tag k="ssr:stedsnr" v="10024" />
	</node>
	<node id="-305191" lat="61.6005500026" lon="10.9616305502">
		<tag k="name" v="Olsrud" />
		<tag k="place" v="farm" />
		<tag k="ssr:stedsnr" v="10021" />
	</node>
	<node id="-305190" lat="61.5916333351" lon="11.0129249955">
		<tag k="name" v="Alvheim" />
		<tag k="place" v="isolated_dwelling" />
		<tag k="ssr:stedsnr" v="10013" />
	</node>
	<node id="-305188" lat="61.5949547303" lon="11.0013871123">
		<tag k="name" v="Tresen" />
		<tag k="place" v="hamlet" />
		<tag k="ssr:stedsnr" v="10002" />
	</node>
	<node id="-305184" lat="61.4911999956" lon="11.1287666741">
		<tag k="name" v="Svestadvollen" />
		<tag k="place" v="isolated_dwelling" />
		<tag k="ssr:stedsnr" v="9066" />
	</node>
	<node id="-305183" lat="61.281677778" lon="11.1616249987">
		<tag k="historic" v="shieling" />
		<tag k="name" v="Opphussætra" />
		<tag k="place" v="locality" />
		<tag k="ssr:stedsnr" v="8252" />
	</node>
	<node id="-305181" lat="61.3740011608" lon="11.1789518885">
		<tag k="fixme" v="consider place=hamlet" />
		<tag k="name" v="Furuset" />
		<tag k="place" v="farm" />
		<tag k="ssr:stedsnr" v="8047" />
	</node>
	<node id="-305180" lat="61.3159253228" lon="11.2636999433">
		<tag k="alt_name" v="Opphus, Søre" />
		<tag k="name" v="Søstu Opphus" />
		<tag k="place" v="farm" />
		<tag k="ssr:stedsnr" v="8037" />
	</node>
	<node id="-305178" lat="61.4651138847" lon="11.0310611092">
		<tag k="alt_name" v="Sørstu Stai" />
		<tag k="name" v="Søstu Stai" />
		<tag k="place" v="farm" />
		<tag k="ssr:stedsnr" v="7440" />
	</node>
	<node id="-305175" lat="61.2028611154" lon="11.186911119">
		<tag k="name" v="Hemmelosbua" />
		<tag k="place" v="isolated_dwelling" />
		<tag k="ssr:stedsnr" v="7412" />
	</node>
	<node id="-305174" lat="61.2352352231" lon="11.3044393651">
		<tag k="name" v="Rugsvea" />
		<tag k="place" v="hamlet" />
		<tag k="ssr:stedsnr" v="7381" />
	</node>
	<node id="-305173" lat="61.2280555549" lon="11.2303694372">
		<tag k="name" v="Bjørndalskoia" />
		<tag k="place" v="isolated_dwelling" />
		<tag k="ssr:stedsnr" v="7376" />
	</node>
	<node id="-305171" lat="61.4992194402" lon="11.054925002">
		<tag k="alt_name" v="Nyvehamarn" />
		<tag k="name" v="Nyvehammaren" />
		<tag k="place" v="isolated_dwelling" />
		<tag k="ssr:stedsnr" v="969759" />
	</node>
	<node id="-305164" lat="61.811925003" lon="10.2091083405">
		<tag k="loc_name" v="Vestre Vuluvollen" />
		<tag k="name" v="Vestre Vuluvolden" />
		<tag k="place" v="farm" />
		<tag k="ssr:stedsnr" v="967219" />
	</node>
	<node id="-304153" lat="61.7811611124" lon="10.5007555471">
		<tag k="name" v="Mostua" />
		<tag k="place" v="farm" />
		<tag k="ssr:stedsnr" v="253345" />
	</node>
	<node id="-305156" lat="61.5656750003" lon="11.1182000028">
		<tag k="name" v="Sørli" />
		<tag k="place" v="farm" />
		<tag k="ssr:stedsnr" v="920430" />
	</node>
</osm>
