<?xml version="1.0" encoding="UTF-8"?>
<osm generator="osmapis" version="0.6">
	<node id="-169981" lat="60.6004444402" lon="9.03836388259">
		<tag k="name" v="Bindarvollen" />
		<tag k="place" v="locality" />
		<tag k="ssr:stedsnr" v="128437" />
	</node>
	<node id="-169968" lat="60.5401277743" lon="8.70599443848">
		<tag k="name" v="Smalevasslie" />
		<tag k="natural" v="slope" />
		<tag k="place" v="locality" />
		<tag k="ssr:stedsnr" v="128190" />
	</node>
	<node id="-169965" lat="60.5912916665" lon="8.79258611334">
		<tag k="fixme" v="consider natural=peak for the most distinct mountains in the district" />
		<tag k="name" v="Hatthovda" />
		<tag k="natural" v="hill" />
		<tag k="place" v="locality" />
		<tag k="ssr:stedsnr" v="128035" />
	</node>
	<node id="-169961" lat="60.4391694484" lon="9.08498055662">
		<tag k="name" v="Gråhovda" />
		<tag k="natural" v="hill" />
		<tag k="place" v="locality" />
		<tag k="ssr:stedsnr" v="127338" />
	</node>
	<node id="-169960" lat="60.469891668" lon="9.14788889153">
		<tag k="name" v="Flishaugan" />
		<tag k="natural" v="hill" />
		<tag k="place" v="locality" />
		<tag k="ssr:stedsnr" v="127333" />
	</node>
	<node id="-169959" lat="60.4231777816" lon="9.14465000795">
		<tag k="fixme" v="consider natural=peak for the most distinct mountains in the district" />
		<tag k="name" v="Buhovdnatten" />
		<tag k="natural" v="hill" />
		<tag k="place" v="locality" />
		<tag k="ssr:stedsnr" v="127353" />
	</node>
	<node id="-169957" lat="60.4929361106" lon="8.82346110691">
		<tag k="name" v="Buvasshallin" />
		<tag k="natural" v="slope" />
		<tag k="place" v="locality" />
		<tag k="ssr:stedsnr" v="127089" />
	</node>
	<node id="-169936" lat="60.6724805573" lon="9.31253611947">
		<tag k="name" v="Buvasslie" />
		<tag k="natural" v="slope" />
		<tag k="place" v="locality" />
		<tag k="ssr:stedsnr" v="86431" />
	</node>
	<node id="-169918" lat="60.5086749955" lon="9.26230556234">
		<tag k="name" v="Knutshøl" />
		<tag k="natural" v="valley" />
		<tag k="place" v="locality" />
		<tag k="ssr:stedsnr" v="85839" />
	</node>
	<node id="-169916" lat="60.497094447" lon="9.19883889718">
		<tag k="name" v="Skardet" />
		<tag k="natural" v="valley" />
		<tag k="place" v="locality" />
		<tag k="ssr:stedsnr" v="85686" />
	</node>
	<node id="-169912" lat="60.5705472217" lon="9.36300555692">
		<tag k="name" v="Juvvollan" />
		<tag k="place" v="locality" />
		<tag k="ssr:stedsnr" v="68832" />
	</node>
	<node id="-169910" lat="60.5834410481" lon="9.27034804594">
		<tag k="name" v="Lyseskard" />
		<tag k="natural" v="valley" />
		<tag k="place" v="locality" />
		<tag k="ssr:stedsnr" v="68818" />
	</node>
	<node id="-169907" lat="60.6106083362" lon="9.3105472231">
		<tag k="fixme" v="consider natural=peak for the most distinct mountains in the district" />
		<tag k="name" v="Hellervassfjell" />
		<tag k="natural" v="hill" />
		<tag k="place" v="locality" />
		<tag k="ssr:stedsnr" v="68690" />
	</node>
	<node id="-169903" lat="60.5373777805" lon="8.906213883">
		<tag k="fixme" v="consider natural=peak for the most distinct mountains in the district" />
		<tag k="name" v="Rukkeåsen" />
		<tag k="natural" v="hill" />
		<tag k="place" v="locality" />
		<tag k="ssr:stedsnr" v="68578" />
	</node>
	<node id="-169900" lat="60.6178694489" lon="9.04320834152">
		<tag k="name" v="Sandbekklie" />
		<tag k="natural" v="slope" />
		<tag k="place" v="locality" />
		<tag k="ssr:stedsnr" v="68469" />
	</node>
	<node id="-169892" lat="60.5536805517" lon="9.00521388006">
		<tag k="name" v="Gamlebrennhøgde" />
		<tag k="natural" v="hill" />
		<tag k="place" v="locality" />
		<tag k="ssr:stedsnr" v="68412" />
	</node>
	<node id="-169889" lat="60.6201944451" lon="9.36919166147">
		<tag k="fixme" v="consider natural=peak for the most distinct mountains in the district" />
		<tag k="name" v="Brenna" />
		<tag k="natural" v="hill" />
		<tag k="place" v="locality" />
		<tag k="ssr:stedsnr" v="68703" />
	</node>
	<node id="-169888" lat="60.5212055545" lon="8.69865277495">
		<tag k="fixme" v="consider natural=peak for the most distinct mountains in the district" />
		<tag k="name" v="Riklehovda" />
		<tag k="natural" v="hill" />
		<tag k="place" v="locality" />
		<tag k="ssr:stedsnr" v="68213" />
	</node>
	<node id="-169886" lat="60.5964749999" lon="8.8356555488">
		<tag k="loc_name" v="Blåbærhaugan" />
		<tag k="name" v="Blåberghovda" />
		<tag k="natural" v="hill" />
		<tag k="place" v="locality" />
		<tag k="ssr:stedsnr" v="68053" />
	</node>
	<node id="-169884" lat="60.5650333305" lon="9.25162221771">
		<tag k="fixme" v="consider natural=peak for the most distinct mountains in the district" />
		<tag k="name" v="Lauvhovda" />
		<tag k="natural" v="hill" />
		<tag k="place" v="locality" />
		<tag k="ssr:stedsnr" v="67847" />
	</node>
	<node id="-169873" lat="60.6470249961" lon="9.15159443718">
		<tag k="fixme" v="consider natural=peak for the most distinct mountains in the district" />
		<tag k="name" v="Møneåsen" />
		<tag k="natural" v="hill" />
		<tag k="place" v="locality" />
		<tag k="ssr:stedsnr" v="67511" />
	</node>
	<node id="-169865" lat="60.4597722191" lon="9.10110556101">
		<tag k="name" v="Imlehaugen" />
		<tag k="natural" v="hill" />
		<tag k="place" v="locality" />
		<tag k="ssr:stedsnr" v="67329" />
	</node>
	<node id="-169864" lat="60.4577777787" lon="9.14961111226">
		<tag k="name" v="Fjellstøllie" />
		<tag k="natural" v="slope" />
		<tag k="place" v="locality" />
		<tag k="ssr:stedsnr" v="67323" />
	</node>
	<node id="-169863" lat="60.4666249969" lon="9.04316111375">
		<tag k="name" v="Karilinatten" />
		<tag k="natural" v="hill" />
		<tag k="place" v="locality" />
		<tag k="ssr:stedsnr" v="67308" />
	</node>
	<node id="-169861" lat="60.4974333315" lon="9.1149416756">
		<tag k="name" v="Girelie" />
		<tag k="natural" v="slope" />
		<tag k="place" v="locality" />
		<tag k="ssr:stedsnr" v="67280" />
	</node>
	<node id="-169845" lat="60.5110027812" lon="8.93150000016">
		<tag k="name" v="Vestre Storhalle" />
		<tag k="natural" v="hill" />
		<tag k="place" v="locality" />
		<tag k="ssr:stedsnr" v="25810" />
	</node>
	<node id="-169843" lat="60.4816250009" lon="9.25626945174">
		<tag k="name" v="Finnesetbakkan" />
		<tag k="natural" v="slope" />
		<tag k="place" v="locality" />
		<tag k="ssr:stedsnr" v="25598" />
	</node>
	<node id="-169842" lat="60.4433555556" lon="9.15628054687">
		<tag k="name" v="Hovdenatten" />
		<tag k="natural" v="ridge" />
		<tag k="place" v="locality" />
		<tag k="ssr:stedsnr" v="25478" />
	</node>
	<node id="-169841" lat="60.418258329" lon="9.11479166581">
		<tag k="loc_name" v="Høgeleine" />
		<tag k="name" v="Høgeleina" />
		<tag k="place" v="locality" />
		<tag k="ssr:stedsnr" v="25327" />
	</node>
	<node id="-169829" lat="60.5559305593" lon="8.75204722684">
		<tag k="name" v="Svartevasshøgde" />
		<tag k="natural" v="hill" />
		<tag k="place" v="locality" />
		<tag k="ssr:stedsnr" v="25208" />
	</node>
	<node id="-169827" lat="60.5436805517" lon="9.26188334116">
		<tag k="fixme" v="consider natural=peak for the most distinct mountains in the district" />
		<tag k="name" v="Brattlihovda" />
		<tag k="natural" v="hill" />
		<tag k="place" v="locality" />
		<tag k="ssr:stedsnr" v="7854" />
	</node>
	<node id="-169826" lat="60.544008331" lon="9.22544721838">
		<tag k="fixme" v="consider natural=peak for the most distinct mountains in the district" />
		<tag k="name" v="Styggdalshøgde" />
		<tag k="natural" v="hill" />
		<tag k="place" v="locality" />
		<tag k="ssr:stedsnr" v="7853" />
	</node>
	<node id="-169825" lat="60.5587638867" lon="9.23419444297">
		<tag k="fixme" v="consider natural=peak for the most distinct mountains in the district" />
		<tag k="name" v="Nybuhøgde" />
		<tag k="natural" v="hill" />
		<tag k="place" v="locality" />
		<tag k="ssr:stedsnr" v="7841" />
	</node>
	<node id="-169823" lat="60.5128805556" lon="9.2769694413">
		<tag k="name" v="Øvre Mørkedalen" />
		<tag k="natural" v="valley" />
		<tag k="place" v="locality" />
		<tag k="ssr:stedsnr" v="7774" />
	</node>
	<node id="-169814" lat="60.6313583322" lon="9.2364027861">
		<tag k="fixme" v="consider natural=peak for the most distinct mountains in the district" />
		<tag k="name" v="Tjernsetåsen" />
		<tag k="natural" v="hill" />
		<tag k="place" v="locality" />
		<tag k="ssr:stedsnr" v="7613" />
	</node>
	<node id="-169813" lat="60.6258972247" lon="9.27557778536">
		<tag k="fixme" v="consider natural=peak for the most distinct mountains in the district" />
		<tag k="name" v="Grønåsbrenna" />
		<tag k="natural" v="hill" />
		<tag k="place" v="locality" />
		<tag k="ssr:stedsnr" v="7609" />
	</node>
	<node id="-169810" lat="60.5490166704" lon="9.07341667091">
		<tag k="name" v="Hågeberg" />
		<tag k="natural" v="hill" />
		<tag k="place" v="locality" />
		<tag k="ssr:stedsnr" v="7581" />
	</node>
	<node id="-169809" lat="60.5606611136" lon="9.11480555308">
		<tag k="name" v="Moan" />
		<tag k="place" v="locality" />
		<tag k="ssr:stedsnr" v="7571" />
	</node>
	<node id="-169802" lat="60.6351222199" lon="9.19959445192">
		<tag k="fixme" v="consider natural=peak for the most distinct mountains in the district" />
		<tag k="name" v="Mjellhovda" />
		<tag k="natural" v="hill" />
		<tag k="place" v="locality" />
		<tag k="ssr:stedsnr" v="7479" />
	</node>
	<node id="-169795" lat="60.5625833295" lon="9.05473333474">
		<tag k="name" v="Høgehaug" />
		<tag k="natural" v="hill" />
		<tag k="place" v="locality" />
		<tag k="ssr:stedsnr" v="7382" />
	</node>
	<node id="-169793" lat="60.5621944449" lon="8.93973889455">
		<tag k="name" v="Gudbrandsrudnatten" />
		<tag k="natural" v="hill" />
		<tag k="place" v="locality" />
		<tag k="ssr:stedsnr" v="7375" />
	</node>
	<node id="-169788" lat="60.5684277784" lon="8.77010832577">
		<tag k="name" v="Langhøgde" />
		<tag k="natural" v="hill" />
		<tag k="place" v="locality" />
		<tag k="ssr:stedsnr" v="7021" />
	</node>
	<node id="-169786" lat="60.519261112" lon="8.96671945027">
		<tag k="name" v="Kulusetberget" />
		<tag k="natural" v="hill" />
		<tag k="place" v="locality" />
		<tag k="ssr:stedsnr" v="6621" />
	</node>
	<node id="-169778" lat="60.4757750017" lon="9.06870832458">
		<tag k="fixme" v="consider natural=peak for the most distinct mountains in the district" />
		<tag k="name" v="Fetjafjell" />
		<tag k="natural" v="hill" />
		<tag k="place" v="locality" />
		<tag k="ssr:stedsnr" v="6304" />
	</node>
	<node id="-169776" lat="60.6450555546" lon="8.95454166998">
		<tag k="name" v="Vesleskard" />
		<tag k="natural" v="valley" />
		<tag k="place" v="locality" />
		<tag k="ssr:stedsnr" v="6296" />
	</node>
	<node id="-169771" lat="60.6607750038" lon="9.14237499607">
		<tag k="name" v="Fuglehaugen" />
		<tag k="natural" v="hill" />
		<tag k="place" v="locality" />
		<tag k="ssr:stedsnr" v="6279" />
	</node>
	<node id="-169768" lat="60.6663388848" lon="8.93740555655">
		<tag k="name" v="Meåsen" />
		<tag k="natural" v="hill" />
		<tag k="place" v="locality" />
		<tag k="ssr:stedsnr" v="6265" />
	</node>
	<node id="-169761" lat="60.4696500014" lon="8.92941665823">
		<tag k="name" v="Grågalten" />
		<tag k="natural" v="ridge" />
		<tag k="old_name" v="Graagalten;Gragalten" />
		<tag k="place" v="locality" />
		<tag k="ssr:stedsnr" v="5270" />
	</node>
	<node id="-169758" lat="60.4486388925" lon="9.12858888208">
		<tag k="name" v="Langevasslie" />
		<tag k="natural" v="slope" />
		<tag k="place" v="locality" />
		<tag k="ssr:stedsnr" v="267453" />
	</node>
	<node id="-169730" lat="60.5344611128" lon="9.48946666012">
		<tag k="name" v="Vassfaret" />
		<tag k="natural" v="valley" />
		<tag k="place" v="locality" />
		<tag k="ssr:stedsnr" v="735876" />
	</node>
	<node id="-169714" lat="60.4315333291" lon="9.23248889137">
		<tag k="name" v="Bjørnalie" />
		<tag k="natural" v="slope" />
		<tag k="place" v="locality" />
		<tag k="ssr:stedsnr" v="389916" />
	</node>
	<node id="-169709" lat="60.467372219" lon="9.17519722469">
		<tag k="name" v="Juvet" />
		<tag k="natural" v="gorge" />
		<tag k="ssr:stedsnr" v="389520" />
	</node>
	<node id="-169704" lat="60.5164444456" lon="9.31726389771">
		<tag k="name" v="Bødalslie" />
		<tag k="natural" v="slope" />
		<tag k="place" v="locality" />
		<tag k="ssr:stedsnr" v="389462" />
	</node>
	<node id="-169703" lat="60.4112333335" lon="9.0772333379">
		<tag k="fixme" v="consider natural=peak for the most distinct mountains in the district" />
		<tag k="name" v="Skurvenatten" />
		<tag k="natural" v="hill" />
		<tag k="place" v="locality" />
		<tag k="ssr:stedsnr" v="389325" />
	</node>
	<node id="-169698" lat="60.5206111082" lon="8.7190055591">
		<tag k="name" v="Høgehaug" />
		<tag k="natural" v="hill" />
		<tag k="place" v="locality" />
		<tag k="ssr:stedsnr" v="389027" />
	</node>
	<node id="-169689" lat="60.6350250007" lon="9.01105832937">
		<tag k="name" v="Sagbakkan" />
		<tag k="natural" v="slope" />
		<tag k="place" v="locality" />
		<tag k="ssr:stedsnr" v="388753" />
	</node>
	<node id="-169688" lat="60.5045722264" lon="9.23850277479">
		<tag k="name" v="Baklie" />
		<tag k="natural" v="slope" />
		<tag k="place" v="locality" />
		<tag k="ssr:stedsnr" v="388742" />
	</node>
	<node id="-169686" lat="60.5406638871" lon="9.19077778651">
		<tag k="name" v="Hallandnatten" />
		<tag k="natural" v="hill" />
		<tag k="place" v="locality" />
		<tag k="ssr:stedsnr" v="389185" />
	</node>
	<node id="-169678" lat="60.5249833296" lon="9.30601943981">
		<tag k="fixme" v="consider natural=peak for the most distinct mountains in the district" />
		<tag k="name" v="Kjerringnatten" />
		<tag k="natural" v="hill" />
		<tag k="place" v="locality" />
		<tag k="ssr:stedsnr" v="432743" />
	</node>
	<node id="-169672" lat="60.6756861095" lon="9.26936111586">
		<tag k="fixme" v="consider natural=peak for the most distinct mountains in the district" />
		<tag k="name" v="Valdreslihovda" />
		<tag k="natural" v="hill" />
		<tag k="place" v="locality" />
		<tag k="ssr:stedsnr" v="371753" />
	</node>
	<node id="-169670" lat="60.5956333317" lon="9.31842776916">
		<tag k="fixme" v="consider natural=peak for the most distinct mountains in the district" />
		<tag k="name" v="Tverrlifjellet" />
		<tag k="natural" v="hill" />
		<tag k="place" v="locality" />
		<tag k="ssr:stedsnr" v="371654" />
	</node>
	<node id="-169665" lat="60.5417833305" lon="8.87183333052">
		<tag k="name" v="Blåberghovda" />
		<tag k="natural" v="hill" />
		<tag k="place" v="locality" />
		<tag k="ssr:stedsnr" v="371571" />
	</node>
	<node id="-169663" lat="60.5328388881" lon="8.93633055857">
		<tag k="name" v="Vestlie" />
		<tag k="natural" v="slope" />
		<tag k="place" v="locality" />
		<tag k="ssr:stedsnr" v="371549" />
	</node>
	<node id="-169661" lat="60.5361222266" lon="9.17265000908">
		<tag k="fixme" v="consider natural=peak for the most distinct mountains in the district" />
		<tag k="name" v="Brøtaåsen" />
		<tag k="natural" v="hill" />
		<tag k="place" v="locality" />
		<tag k="ssr:stedsnr" v="371544" />
	</node>
	<node id="-169658" lat="60.5114916646" lon="9.04650833863">
		<tag k="name" v="Unskanattan" />
		<tag k="natural" v="hill" />
		<tag k="place" v="locality" />
		<tag k="ssr:stedsnr" v="371497" />
	</node>
	<node id="-169652" lat="60.6418916641" lon="9.12103611696">
		<tag k="fixme" v="consider natural=peak for the most distinct mountains in the district" />
		<tag k="name" v="Langtjernnatten" />
		<tag k="natural" v="hill" />
		<tag k="place" v="locality" />
		<tag k="ssr:stedsnr" v="371459" />
	</node>
	<node id="-169647" lat="60.6082444427" lon="9.17521110312">
		<tag k="name" v="Todalsnatten" />
		<tag k="natural" v="hill" />
		<tag k="place" v="locality" />
		<tag k="ssr:stedsnr" v="371440" />
	</node>
	<node id="-169645" lat="60.6210583354" lon="8.94441943769">
		<tag k="name" v="Kvilinglie" />
		<tag k="natural" v="slope" />
		<tag k="place" v="locality" />
		<tag k="ssr:stedsnr" v="371432" />
	</node>
	<node id="-169640" lat="60.5349722195" lon="8.73324722862">
		<tag k="fixme" v="consider natural=peak for the most distinct mountains in the district" />
		<tag k="name" v="Tefurnatten" />
		<tag k="natural" v="hill" />
		<tag k="place" v="locality" />
		<tag k="ssr:stedsnr" v="371209" />
	</node>
	<node id="-169639" lat="60.5163777795" lon="8.80220278258">
		<tag k="name" v="Brusethøgde" />
		<tag k="natural" v="hill" />
		<tag k="place" v="locality" />
		<tag k="ssr:stedsnr" v="371185" />
	</node>
	<node id="-169635" lat="60.5272861152" lon="8.96151389507">
		<tag k="fixme" v="consider natural=peak for the most distinct mountains in the district" />
		<tag k="name" v="Storhalle" />
		<tag k="natural" v="hill" />
		<tag k="place" v="locality" />
		<tag k="ssr:stedsnr" v="370630" />
	</node>
	<node id="-169630" lat="60.5737499979" lon="9.06332776986">
		<tag k="name" v="Djupedokknatten" />
		<tag k="natural" v="hill" />
		<tag k="place" v="locality" />
		<tag k="ssr:stedsnr" v="370478" />
	</node>
	<node id="-169628" lat="60.5705111108" lon="8.86607499907">
		<tag k="name" v="Gladhøgde" />
		<tag k="natural" v="hill" />
		<tag k="place" v="locality" />
		<tag k="ssr:stedsnr" v="370471" />
	</node>
	<node id="-169622" lat="60.6626000029" lon="9.21259166871">
		<tag k="fixme" v="consider natural=peak for the most distinct mountains in the district" />
		<tag k="name" v="Vardefjell" />
		<tag k="natural" v="hill" />
		<tag k="place" v="locality" />
		<tag k="ssr:stedsnr" v="370316" />
	</node>
	<node id="-169608" lat="60.5960583355" lon="8.86059999767">
		<tag k="fixme" v="consider natural=peak for the most distinct mountains in the district" />
		<tag k="name" v="Natten" />
		<tag k="natural" v="hill" />
		<tag k="old_name" v="Blåbærhøgda" />
		<tag k="place" v="locality" />
		<tag k="ssr:stedsnr" v="360432" />
	</node>
	<node id="-169607" lat="60.4703000041" lon="9.13758888548">
		<tag k="name" v="Storskørrnatten" />
		<tag k="natural" v="hill" />
		<tag k="place" v="locality" />
		<tag k="ssr:stedsnr" v="430292" />
	</node>
	<node id="-169600" lat="60.6186722198" lon="9.25203611511">
		<tag k="name" v="Hattegrønhaugen" />
		<tag k="natural" v="hill" />
		<tag k="place" v="locality" />
		<tag k="ssr:stedsnr" v="329455" />
	</node>
	<node id="-169592" lat="60.6465499984" lon="8.86685833269">
		<tag k="name" v="Efesus" />
		<tag k="natural" v="hill" />
		<tag k="place" v="locality" />
		<tag k="ssr:stedsnr" v="328974" />
	</node>
	<node id="-169590" lat="60.4519222259" lon="9.2217694488">
		<tag k="name" v="Heimseterdalen" />
		<tag k="natural" v="valley" />
		<tag k="place" v="locality" />
		<tag k="ssr:stedsnr" v="328918" />
	</node>
	<node id="-169580" lat="60.4583472242" lon="9.21620833183">
		<tag k="name" v="Sevrelie" />
		<tag k="natural" v="slope" />
		<tag k="place" v="locality" />
		<tag k="ssr:stedsnr" v="328573" />
	</node>
	<node id="-169576" lat="60.4339861111" lon="9.04696944916">
		<tag k="fixme" v="consider natural=peak for the most distinct mountains in the district" />
		<tag k="name" v="Karileinnatten" />
		<tag k="natural" v="hill" />
		<tag k="place" v="locality" />
		<tag k="ssr:stedsnr" v="328268" />
	</node>
	<node id="-169573" lat="60.4992194484" lon="9.18416667477">
		<tag k="fixme" v="consider natural=peak for the most distinct mountains in the district" />
		<tag k="name" v="Veslenatten" />
		<tag k="natural" v="hill" />
		<tag k="place" v="locality" />
		<tag k="ssr:stedsnr" v="328165" />
	</node>
	<node id="-169569" lat="60.5694999974" lon="8.74476389431">
		<tag k="name" v="Dugurdsnatten" />
		<tag k="natural" v="hill" />
		<tag k="place" v="locality" />
		<tag k="ssr:stedsnr" v="327498" />
	</node>
	<node id="-169566" lat="60.5447194448" lon="9.09896389542">
		<tag k="fixme" v="consider natural=peak for the most distinct mountains in the district" />
		<tag k="name" v="Gråhøgde" />
		<tag k="natural" v="hill" />
		<tag k="place" v="locality" />
		<tag k="ssr:stedsnr" v="328060" />
	</node>
	<node id="-169562" lat="60.626330554" lon="9.08832222609">
		<tag k="fixme" v="consider natural=peak for the most distinct mountains in the district" />
		<tag k="name" v="Flatåsen" />
		<tag k="natural" v="hill" />
		<tag k="place" v="locality" />
		<tag k="ssr:stedsnr" v="310883" />
	</node>
	<node id="-169558" lat="60.5646250033" lon="9.32436111664">
		<tag k="fixme" v="consider natural=peak for the most distinct mountains in the district" />
		<tag k="name" v="Sandvassfjellet" />
		<tag k="natural" v="hill" />
		<tag k="place" v="locality" />
		<tag k="ssr:stedsnr" v="310835" />
	</node>
	<node id="-169553" lat="60.6741638929" lon="9.28889444284">
		<tag k="fixme" v="consider natural=peak for the most distinct mountains in the district" />
		<tag k="name" v="Buhovdkollen" />
		<tag k="natural" v="hill" />
		<tag k="place" v="locality" />
		<tag k="ssr:stedsnr" v="310751" />
	</node>
	<node id="-169552" lat="60.6596833315" lon="9.2480611029">
		<tag k="fixme" v="consider natural=peak for the most distinct mountains in the district" />
		<tag k="name" v="Sjøhovda" />
		<tag k="natural" v="hill" />
		<tag k="place" v="locality" />
		<tag k="ssr:stedsnr" v="310738" />
	</node>
	<node id="-169547" lat="60.548955559" lon="8.98324443545">
		<tag k="name" v="Johannesgardlie" />
		<tag k="natural" v="slope" />
		<tag k="place" v="locality" />
		<tag k="ssr:stedsnr" v="310592" />
	</node>
	<node id="-169538" lat="60.6342194452" lon="8.96303889423">
		<tag k="name" v="Storebakkan" />
		<tag k="natural" v="slope" />
		<tag k="place" v="locality" />
		<tag k="ssr:stedsnr" v="310490" />
	</node>
	<node id="-169535" lat="60.6154500002" lon="9.01492499624">
		<tag k="name" v="Furumohaugen" />
		<tag k="natural" v="hill" />
		<tag k="place" v="locality" />
		<tag k="ssr:stedsnr" v="310465" />
	</node>
	<node id="-169534" lat="60.6080694442" lon="8.98129443986">
		<tag k="fixme" v="consider natural=peak for the most distinct mountains in the district" />
		<tag k="name" v="Meleåsen" />
		<tag k="natural" v="hill" />
		<tag k="place" v="locality" />
		<tag k="ssr:stedsnr" v="310453" />
	</node>
	<node id="-169531" lat="60.5747694482" lon="9.07128611144">
		<tag k="name" v="Bringenatten" />
		<tag k="natural" v="hill" />
		<tag k="place" v="locality" />
		<tag k="ssr:stedsnr" v="310447" />
	</node>
	<node id="-169530" lat="60.5811638934" lon="9.18410278394">
		<tag k="name" v="Ulvedalen" />
		<tag k="natural" v="valley" />
		<tag k="place" v="locality" />
		<tag k="ssr:stedsnr" v="310444" />
	</node>
	<node id="-169528" lat="60.5874166688" lon="9.13525278109">
		<tag k="fixme" v="consider natural=peak for the most distinct mountains in the district" />
		<tag k="name" v="Klevarudnatten" />
		<tag k="natural" v="hill" />
		<tag k="place" v="locality" />
		<tag k="ssr:stedsnr" v="310429" />
	</node>
	<node id="-169526" lat="60.587791666" lon="8.90624999903">
		<tag k="name" v="Rundehaug" />
		<tag k="natural" v="hill" />
		<tag k="place" v="locality" />
		<tag k="ssr:stedsnr" v="310426" />
	</node>
	<node id="-169521" lat="60.4143138907" lon="9.04986388378">
		<tag k="fixme" v="consider natural=peak for the most distinct mountains in the district" />
		<tag k="name" v="Korpenatten" />
		<tag k="natural" v="hill" />
		<tag k="place" v="locality" />
		<tag k="ssr:stedsnr" v="310361" />
	</node>
	<node id="-169520" lat="60.6573722221" lon="8.92461943648">
		<tag k="fixme" v="consider natural=peak for the most distinct mountains in the district" />
		<tag k="name" v="Flatdalsåsen" />
		<tag k="natural" v="hill" />
		<tag k="place" v="locality" />
		<tag k="ssr:stedsnr" v="310244" />
	</node>
	<node id="-171122" lat="60.4668999995" lon="9.14531111599">
		<tag k="name" v="Abakshøl" />
		<tag k="natural" v="valley" />
		<tag k="place" v="locality" />
		<tag k="ssr:stedsnr" v="936704" />
	</node>
	<node id="-171121" lat="60.4857888896" lon="9.05711388376">
		<tag k="name" v="Fetjalie" />
		<tag k="natural" v="slope" />
		<tag k="place" v="locality" />
		<tag k="ssr:stedsnr" v="936691" />
	</node>
	<node id="-171114" lat="60.6100749982" lon="8.96097222005">
		<tag k="name" v="Kvilinglihøgde" />
		<tag k="natural" v="hill" />
		<tag k="place" v="locality" />
		<tag k="ssr:stedsnr" v="935814" />
	</node>
	<node id="-171111" lat="60.5939666695" lon="9.02195278622">
		<tag k="name" v="Dalføret" />
		<tag k="natural" v="valley" />
		<tag k="place" v="locality" />
		<tag k="ssr:stedsnr" v="935407" />
	</node>
	<node id="-171108" lat="60.5112583303" lon="9.19247222015">
		<tag k="name" v="Hundehaugen" />
		<tag k="natural" v="hill" />
		<tag k="place" v="locality" />
		<tag k="ssr:stedsnr" v="935159" />
	</node>
	<node id="-171107" lat="60.5038638909" lon="9.17743888178">
		<tag k="name" v="Sundenatten" />
		<tag k="natural" v="hill" />
		<tag k="place" v="locality" />
		<tag k="ssr:stedsnr" v="935157" />
	</node>
	<node id="-171097" lat="60.5757833303" lon="9.36755276948">
		<tag k="fixme" v="consider natural=peak for the most distinct mountains in the district" />
		<tag k="name" v="Nyseternatten" />
		<tag k="natural" v="hill" />
		<tag k="place" v="locality" />
		<tag k="ssr:stedsnr" v="917832" />
	</node>
	<node id="-171096" lat="60.5852944467" lon="9.23480556068">
		<tag k="fixme" v="consider natural=peak for the most distinct mountains in the district" />
		<tag k="name" v="Bjørnabrenna" />
		<tag k="natural" v="hill" />
		<tag k="place" v="locality" />
		<tag k="ssr:stedsnr" v="917821" />
	</node>
	<node id="-171094" lat="60.5164555529" lon="9.22363610674">
		<tag k="fixme" v="consider natural=peak for the most distinct mountains in the district" />
		<tag k="name" v="Bekretjernåsen" />
		<tag k="natural" v="hill" />
		<tag k="place" v="locality" />
		<tag k="ssr:stedsnr" v="917755" />
	</node>
	<node id="-171089" lat="60.6094972263" lon="9.25628054722">
		<tag k="fixme" v="consider natural=peak for the most distinct mountains in the district" />
		<tag k="name" v="Grønhovden" />
		<tag k="natural" v="hill" />
		<tag k="place" v="locality" />
		<tag k="ssr:stedsnr" v="917659" />
	</node>
	<node id="-171086" lat="60.6367083346" lon="9.35126388676">
		<tag k="fixme" v="consider natural=peak for the most distinct mountains in the district" />
		<tag k="name" v="Vangstjernshøgde" />
		<tag k="natural" v="hill" />
		<tag k="place" v="locality" />
		<tag k="ssr:stedsnr" v="917610" />
	</node>
	<node id="-171085" lat="60.5275083354" lon="9.12634445286">
		<tag k="fixme" v="consider natural=peak for the most distinct mountains in the district" />
		<tag k="name" v="Beia" />
		<tag k="natural" v="hill" />
		<tag k="place" v="locality" />
		<tag k="ssr:stedsnr" v="917598" />
	</node>
	<node id="-171080" lat="60.5222194477" lon="9.08036944543">
		<tag k="fixme" v="consider natural=peak for the most distinct mountains in the district" />
		<tag k="name" v="Høgelinatten" />
		<tag k="natural" v="hill" />
		<tag k="place" v="locality" />
		<tag k="ssr:stedsnr" v="917581" />
	</node>
	<node id="-171079" lat="60.5193583333" lon="8.86384445124">
		<tag k="name" v="Øystølhovda" />
		<tag k="natural" v="hill" />
		<tag k="place" v="locality" />
		<tag k="ssr:stedsnr" v="917577" />
	</node>
	<node id="-171077" lat="60.5373722199" lon="8.94250000742">
		<tag k="name" v="Rukkedalen" />
		<tag k="natural" v="valley" />
		<tag k="place" v="locality" />
		<tag k="ssr:stedsnr" v="917550" />
	</node>
	<node id="-171067" lat="60.6179916708" lon="8.94858610211">
		<tag k="name" v="Kvilinglidalen" />
		<tag k="natural" v="valley" />
		<tag k="place" v="locality" />
		<tag k="ssr:stedsnr" v="917431" />
	</node>
	<node id="-171066" lat="60.6178750002" lon="9.10066666145">
		<tag k="fixme" v="consider natural=peak for the most distinct mountains in the district" />
		<tag k="name" v="Brennatten" />
		<tag k="natural" v="hill" />
		<tag k="place" v="locality" />
		<tag k="ssr:stedsnr" v="917425" />
	</node>
	<node id="-171063" lat="60.5702083291" lon="8.91173888068">
		<tag k="fixme" v="consider natural=peak for the most distinct mountains in the district" />
		<tag k="name" v="Elghøgde" />
		<tag k="natural" v="hill" />
		<tag k="place" v="locality" />
		<tag k="ssr:stedsnr" v="917388" />
	</node>
	<node id="-171051" lat="60.5413249982" lon="8.83385554683">
		<tag k="fixme" v="consider natural=peak for the most distinct mountains in the district" />
		<tag k="name" v="Mykingbrøtet" />
		<tag k="natural" v="hill" />
		<tag k="place" v="locality" />
		<tag k="ssr:stedsnr" v="917188" />
	</node>
	<node id="-171048" lat="60.5133500044" lon="8.70355278104">
		<tag k="fixme" v="consider natural=peak for the most distinct mountains in the district" />
		<tag k="name" v="Veahovda" />
		<tag k="natural" v="hill" />
		<tag k="place" v="locality" />
		<tag k="ssr:stedsnr" v="917159" />
	</node>
	<node id="-171046" lat="60.4254006336" lon="9.18062797958">
		<tag k="name" v="Passelie" />
		<tag k="natural" v="slope" />
		<tag k="place" v="locality" />
		<tag k="ssr:stedsnr" v="916369" />
	</node>
	<node id="-171045" lat="60.4871500016" lon="9.29472500547">
		<tag k="fixme" v="consider natural=peak for the most distinct mountains in the district" />
		<tag k="name" v="Svartetjernåsen" />
		<tag k="natural" v="hill" />
		<tag k="place" v="locality" />
		<tag k="ssr:stedsnr" v="916357" />
	</node>
	<node id="-171042" lat="60.4408638884" lon="8.97793054775">
		<tag k="fixme" v="consider natural=peak for the most distinct mountains in the district" />
		<tag k="name" v="Storevarden" />
		<tag k="natural" v="hill" />
		<tag k="place" v="locality" />
		<tag k="ssr:stedsnr" v="916340" />
	</node>
	<node id="-171029" lat="60.5344583337" lon="9.13823888936">
		<tag k="name" v="Påverudlie" />
		<tag k="natural" v="slope" />
		<tag k="place" v="locality" />
		<tag k="ssr:stedsnr" v="875975" />
	</node>
	<node id="-171028" lat="60.4531666705" lon="9.20021388256">
		<tag k="name" v="Brattebakk" />
		<tag k="natural" v="slope" />
		<tag k="place" v="locality" />
		<tag k="ssr:stedsnr" v="875921" />
	</node>
	<node id="-171025" lat="60.595433335" lon="9.1357611065">
		<tag k="name" v="Baklie" />
		<tag k="natural" v="slope" />
		<tag k="place" v="locality" />
		<tag k="ssr:stedsnr" v="875777" />
	</node>
	<node id="-171022" lat="60.4437361146" lon="9.15885000533">
		<tag k="name" v="Vesleklanten" />
		<tag k="natural" v="hill" />
		<tag k="place" v="locality" />
		<tag k="ssr:stedsnr" v="875490" />
	</node>
	<node id="-171017" lat="60.4919194437" lon="9.19498610538">
		<tag k="fixme" v="consider natural=peak for the most distinct mountains in the district" />
		<tag k="name" v="Lauvviknatten" />
		<tag k="natural" v="hill" />
		<tag k="place" v="locality" />
		<tag k="ssr:stedsnr" v="875726" />
	</node>
	<node id="-171011" lat="60.4961083333" lon="8.8166611027">
		<tag k="name" v="Skreiva" />
		<tag k="natural" v="slope" />
		<tag k="place" v="locality" />
		<tag k="ssr:stedsnr" v="875009" />
	</node>
	<node id="-171009" lat="60.6706916709" lon="8.99958610917">
		<tag k="name" v="Stille" />
		<tag k="natural" v="hill" />
		<tag k="place" v="locality" />
		<tag k="ssr:stedsnr" v="874963" />
	</node>
	<node id="-171008" lat="60.500261107" lon="9.22358055028">
		<tag k="name" v="Geitsundkollan" />
		<tag k="natural" v="hill" />
		<tag k="place" v="locality" />
		<tag k="ssr:stedsnr" v="875335" />
	</node>
	<node id="-171007" lat="60.4127194416" lon="9.07105833819">
		<tag k="name" v="Reinsjøfjelldansen" />
		<tag k="place" v="locality" />
		<tag k="ssr:stedsnr" v="875327" />
	</node>
	<node id="-170999" lat="60.4580444413" lon="9.20856667447">
		<tag k="name" v="Juvhaugen" />
		<tag k="natural" v="hill" />
		<tag k="place" v="locality" />
		<tag k="ssr:stedsnr" v="874580" />
	</node>
	<node id="-170993" lat="60.6377416682" lon="9.04011945014">
		<tag k="name" v="Salen" />
		<tag k="natural" v="hill" />
		<tag k="place" v="locality" />
		<tag k="ssr:stedsnr" v="874156" />
	</node>
	<node id="-170990" lat="60.5015138891" lon="9.07339999778">
		<tag k="name" v="Bærsenden" />
		<tag k="natural" v="hill" />
		<tag k="place" v="locality" />
		<tag k="ssr:stedsnr" v="874137" />
	</node>
	<node id="-170986" lat="60.5107111076" lon="9.24413610775">
		<tag k="fixme" v="consider natural=peak for the most distinct mountains in the district" />
		<tag k="name" v="Gravskardåsen" />
		<tag k="natural" v="hill" />
		<tag k="place" v="locality" />
		<tag k="ssr:stedsnr" v="857779" />
	</node>
	<node id="-170979" lat="60.5047361102" lon="9.08899166107">
		<tag k="fixme" v="consider natural=peak for the most distinct mountains in the district" />
		<tag k="name" v="Venåsen" />
		<tag k="natural" v="hill" />
		<tag k="place" v="locality" />
		<tag k="ssr:stedsnr" v="857509" />
	</node>
	<node id="-170977" lat="60.6279027765" lon="9.15255000115">
		<tag k="fixme" v="consider natural=peak for the most distinct mountains in the district" />
		<tag k="name" v="Bjørhusnatten" />
		<tag k="natural" v="hill" />
		<tag k="place" v="locality" />
		<tag k="ssr:stedsnr" v="857493" />
	</node>
	<node id="-170976" lat="60.5954972266" lon="8.8766694478">
		<tag k="fixme" v="consider natural=peak for the most distinct mountains in the district" />
		<tag k="name" v="Gautesetnatten" />
		<tag k="natural" v="hill" />
		<tag k="place" v="locality" />
		<tag k="ssr:stedsnr" v="857470" />
	</node>
	<node id="-170969" lat="60.522105556" lon="8.82370554931">
		<tag k="fixme" v="consider natural=peak for the most distinct mountains in the district" />
		<tag k="name" v="Flatåsen" />
		<tag k="natural" v="hill" />
		<tag k="place" v="locality" />
		<tag k="ssr:stedsnr" v="857222" />
	</node>
	<node id="-170968" lat="60.508827776" lon="8.74436388725">
		<tag k="fixme" v="consider natural=peak for the most distinct mountains in the district" />
		<tag k="name" v="Skurvenatten" />
		<tag k="natural" v="hill" />
		<tag k="place" v="locality" />
		<tag k="ssr:stedsnr" v="857209" />
	</node>
	<node id="-170965" lat="60.5552027781" lon="9.29186388334">
		<tag k="fixme" v="consider natural=peak for the most distinct mountains in the district" />
		<tag k="name" v="Lusfjell" />
		<tag k="natural" v="hill" />
		<tag k="place" v="locality" />
		<tag k="ssr:stedsnr" v="856867" />
	</node>
	<node id="-170960" lat="60.6539277766" lon="9.28801943744">
		<tag k="fixme" v="consider natural=peak for the most distinct mountains in the district" />
		<tag k="name" v="Buvasskollen" />
		<tag k="natural" v="hill" />
		<tag k="place" v="locality" />
		<tag k="ssr:stedsnr" v="856736" />
	</node>
	<node id="-170959" lat="60.6560000045" lon="9.33521110405">
		<tag k="fixme" v="consider natural=peak for the most distinct mountains in the district" />
		<tag k="name" v="Grunntjernshøgde" />
		<tag k="natural" v="hill" />
		<tag k="place" v="locality" />
		<tag k="ssr:stedsnr" v="856729" />
	</node>
	<node id="-170953" lat="60.6371222192" lon="8.88577777113">
		<tag k="fixme" v="consider natural=peak for the most distinct mountains in the district" />
		<tag k="name" v="Skifuruåsen" />
		<tag k="natural" v="hill" />
		<tag k="place" v="locality" />
		<tag k="ssr:stedsnr" v="856534" />
	</node>
	<node id="-170950" lat="60.5642555537" lon="8.85209167041">
		<tag k="name" v="Smylihaugen" />
		<tag k="natural" v="hill" />
		<tag k="place" v="locality" />
		<tag k="ssr:stedsnr" v="856491" />
	</node>
	<node id="-170948" lat="60.5683833369" lon="9.21604167456">
		<tag k="fixme" v="consider natural=peak for the most distinct mountains in the district" />
		<tag k="name" v="Toåsen" />
		<tag k="natural" v="hill" />
		<tag k="place" v="locality" />
		<tag k="ssr:stedsnr" v="856450" />
	</node>
	<node id="-170938" lat="60.4350083359" lon="9.12784166397">
		<tag k="name" v="Grytehaugan" />
		<tag k="natural" v="hill" />
		<tag k="place" v="locality" />
		<tag k="ssr:stedsnr" v="856349" />
	</node>
	<node id="-170932" lat="60.4955499967" lon="8.99929999973">
		<tag k="fixme" v="consider natural=peak for the most distinct mountains in the district" />
		<tag k="name" v="Kvasshovda" />
		<tag k="natural" v="hill" />
		<tag k="place" v="locality" />
		<tag k="ssr:stedsnr" v="856275" />
	</node>
	<node id="-170929" lat="60.5668694469" lon="8.83230278528">
		<tag k="fixme" v="consider natural=peak for the most distinct mountains in the district" />
		<tag k="name" v="Nybunatten" />
		<tag k="natural" v="hill" />
		<tag k="place" v="locality" />
		<tag k="ssr:stedsnr" v="856016" />
	</node>
	<node id="-170919" lat="60.6135611102" lon="9.23046110525">
		<tag k="name" v="Lyarberget" />
		<tag k="natural" v="hill" />
		<tag k="place" v="locality" />
		<tag k="ssr:stedsnr" v="815453" />
	</node>
	<node id="-170903" lat="60.4287055538" lon="9.08646388048">
		<tag k="name" v="Grauteslettan" />
		<tag k="place" v="locality" />
		<tag k="ssr:stedsnr" v="814358" />
	</node>
	<node id="-170902" lat="60.587269442" lon="9.33681389691">
		<tag k="fixme" v="consider natural=peak for the most distinct mountains in the district" />
		<tag k="name" v="Langeleinfjell" />
		<tag k="natural" v="hill" />
		<tag k="place" v="locality" />
		<tag k="ssr:stedsnr" v="814339" />
	</node>
	<node id="-170895" lat="60.5854888869" lon="9.19024723049">
		<tag k="name" v="Ulvedalen" />
		<tag k="natural" v="valley" />
		<tag k="place" v="locality" />
		<tag k="ssr:stedsnr" v="814218" />
	</node>
	<node id="-170892" lat="60.5170555541" lon="8.98562222547">
		<tag k="name" v="Karihøgde" />
		<tag k="natural" v="hill" />
		<tag k="place" v="locality" />
		<tag k="ssr:stedsnr" v="814128" />
	</node>
	<node id="-170885" lat="60.5703216343" lon="9.3691851206">
		<tag k="name" v="Buvassjuvet" />
		<tag k="natural" v="gorge" />
		<tag k="ssr:stedsnr" v="814029" />
	</node>
	<node id="-170884" lat="60.6351083372" lon="8.96653332572">
		<tag k="name" v="Storebakkan" />
		<tag k="natural" v="slope" />
		<tag k="place" v="locality" />
		<tag k="ssr:stedsnr" v="813988" />
	</node>
	<node id="-170880" lat="60.5303111078" lon="9.21327222837">
		<tag k="name" v="Ureberg" />
		<tag k="natural" v="ridge" />
		<tag k="place" v="locality" />
		<tag k="ssr:stedsnr" v="813638" />
	</node>
	<node id="-170879" lat="60.5392666683" lon="8.97571943896">
		<tag k="name" v="Slagghaug" />
		<tag k="natural" v="hill" />
		<tag k="place" v="locality" />
		<tag k="ssr:stedsnr" v="813635" />
	</node>
	<node id="-170876" lat="60.5705305526" lon="9.08072778378">
		<tag k="name" v="Høvabakkan" />
		<tag k="natural" v="slope" />
		<tag k="place" v="locality" />
		<tag k="ssr:stedsnr" v="813542" />
	</node>
	<node id="-170875" lat="60.4451055513" lon="9.09989444599">
		<tag k="name" v="Imleberget" />
		<tag k="natural" v="hill" />
		<tag k="place" v="locality" />
		<tag k="ssr:stedsnr" v="813457" />
	</node>
	<node id="-170874" lat="60.5392027754" lon="9.33085278009">
		<tag k="fixme" v="consider natural=peak for the most distinct mountains in the district" />
		<tag k="name" v="Blåfjell" />
		<tag k="natural" v="hill" />
		<tag k="place" v="locality" />
		<tag k="ssr:stedsnr" v="796884" />
	</node>
	<node id="-170873" lat="60.5401361098" lon="9.28920833186">
		<tag k="fixme" v="consider natural=peak for the most distinct mountains in the district" />
		<tag k="name" v="Tjernsetfjelle" />
		<tag k="natural" v="hill" />
		<tag k="place" v="locality" />
		<tag k="ssr:stedsnr" v="796881" />
	</node>
	<node id="-170872" lat="60.5749166657" lon="9.38805277138">
		<tag k="name" v="Feselskardet" />
		<tag k="natural" v="valley" />
		<tag k="place" v="locality" />
		<tag k="ssr:stedsnr" v="796845" />
	</node>
	<node id="-170868" lat="60.6058416673" lon="9.34824444399">
		<tag k="fixme" v="consider natural=peak for the most distinct mountains in the district" />
		<tag k="name" v="Briskehaugfjellet" />
		<tag k="natural" v="hill" />
		<tag k="place" v="locality" />
		<tag k="ssr:stedsnr" v="796676" />
	</node>
	<node id="-170862" lat="60.5010750044" lon="9.14546944792">
		<tag k="name" v="Kleive" />
		<tag k="natural" v="slope" />
		<tag k="place" v="locality" />
		<tag k="ssr:stedsnr" v="796515" />
	</node>
	<node id="-170861" lat="60.5043749982" lon="9.10253611559">
		<tag k="name" v="Kleppnatten" />
		<tag k="natural" v="hill" />
		<tag k="place" v="locality" />
		<tag k="ssr:stedsnr" v="796499" />
	</node>
	<node id="-170856" lat="60.6122861104" lon="8.89673611012">
		<tag k="name" v="Gamlemannshovda" />
		<tag k="natural" v="hill" />
		<tag k="place" v="locality" />
		<tag k="ssr:stedsnr" v="796445" />
	</node>
	<node id="-170850" lat="60.5515499971" lon="9.05708610864">
		<tag k="name" v="Almen" />
		<tag k="natural" v="slope" />
		<tag k="place" v="locality" />
		<tag k="ssr:stedsnr" v="796400" />
	</node>
	<node id="-170849" lat="60.5565388891" lon="9.0351194465">
		<tag k="name" v="Kråkenatten" />
		<tag k="natural" v="hill" />
		<tag k="place" v="locality" />
		<tag k="ssr:stedsnr" v="796397" />
	</node>
	<node id="-170845" lat="60.5400250041" lon="8.73335000231">
		<tag k="fixme" v="consider natural=peak for the most distinct mountains in the district" />
		<tag k="name" v="Hoppehalle" />
		<tag k="natural" v="hill" />
		<tag k="place" v="locality" />
		<tag k="ssr:stedsnr" v="796227" />
	</node>
	<node id="-170841" lat="60.641774996" lon="9.34020278018">
		<tag k="fixme" v="consider natural=peak for the most distinct mountains in the district" />
		<tag k="name" v="Sløåsen" />
		<tag k="natural" v="hill" />
		<tag k="place" v="locality" />
		<tag k="ssr:stedsnr" v="795677" />
	</node>
	<node id="-170840" lat="60.6389027742" lon="9.22417221928">
		<tag k="fixme" v="consider natural=peak for the most distinct mountains in the district" />
		<tag k="name" v="Ilemyrhovda" />
		<tag k="natural" v="hill" />
		<tag k="place" v="locality" />
		<tag k="ssr:stedsnr" v="795674" />
	</node>
	<node id="-170833" lat="60.4854250021" lon="9.27692499902">
		<tag k="fixme" v="consider natural=peak for the most distinct mountains in the district" />
		<tag k="name" v="Finnesetkollen" />
		<tag k="natural" v="hill" />
		<tag k="place" v="locality" />
		<tag k="ssr:stedsnr" v="795371" />
	</node>
	<node id="-170831" lat="60.430390666" lon="9.23639137101">
		<tag k="fixme" v="consider natural=peak for the most distinct mountains in the district" />
		<tag k="name" v="Ålungruken" />
		<tag k="natural" v="hill" />
		<tag k="place" v="locality" />
		<tag k="ssr:stedsnr" v="795222" />
	</node>
	<node id="-170829" lat="60.5654888858" lon="8.738174993">
		<tag k="fixme" v="consider natural=peak for the most distinct mountains in the district" />
		<tag k="name" v="Butten" />
		<tag k="natural" v="hill" />
		<tag k="place" v="locality" />
		<tag k="ssr:stedsnr" v="795020" />
	</node>
	<node id="-170826" lat="60.4766111101" lon="9.1356250021">
		<tag k="name" v="Nonsnatten" />
		<tag k="natural" v="hill" />
		<tag k="place" v="locality" />
		<tag k="ssr:stedsnr" v="794274" />
	</node>
	<node id="-170824" lat="60.4731444467" lon="8.94246944248">
		<tag k="fixme" v="consider natural=peak for the most distinct mountains in the district" />
		<tag k="name" v="Åkrefjell" />
		<tag k="natural" v="hill" />
		<tag k="place" v="locality" />
		<tag k="ssr:stedsnr" v="794248" />
	</node>
	<node id="-170822" lat="60.6312083349" lon="8.84336110217">
		<tag k="loc_name" v="Storhøgde" />
		<tag k="name" v="Storhøgda" />
		<tag k="natural" v="hill" />
		<tag k="place" v="locality" />
		<tag k="ssr:stedsnr" v="783048" />
	</node>
	<node id="-170814" lat="60.6644750043" lon="8.98924444389">
		<tag k="name" v="Djupedalan" />
		<tag k="natural" v="valley" />
		<tag k="place" v="locality" />
		<tag k="ssr:stedsnr" v="753971" />
	</node>
	<node id="-170810" lat="60.6579805591" lon="9.02739722094">
		<tag k="name" v="Svenkerudberge" />
		<tag k="natural" v="slope" />
		<tag k="place" v="locality" />
		<tag k="ssr:stedsnr" v="753924" />
	</node>
	<node id="-170809" lat="60.4740000008" lon="9.27484722726">
		<tag k="name" v="Ospelund" />
		<tag k="natural" v="slope" />
		<tag k="place" v="locality" />
		<tag k="ssr:stedsnr" v="753864" />
	</node>
	<node id="-170807" lat="60.5978000039" lon="9.14001110759">
		<tag k="name" v="Svarteberg" />
		<tag k="natural" v="hill" />
		<tag k="place" v="locality" />
		<tag k="ssr:stedsnr" v="753766" />
	</node>
	<node id="-170805" lat="60.6172250018" lon="9.08994722025">
		<tag k="name" v="Brennelie" />
		<tag k="natural" v="slope" />
		<tag k="place" v="locality" />
		<tag k="ssr:stedsnr" v="753756" />
	</node>
	<node id="-170804" lat="60.6332916698" lon="9.02582778459">
		<tag k="name" v="Kvernbakkan" />
		<tag k="natural" v="slope" />
		<tag k="place" v="locality" />
		<tag k="ssr:stedsnr" v="753737" />
	</node>
	<node id="-170800" lat="60.445102776" lon="9.18159165987">
		<tag k="fixme" v="multiple name tags, choose one and add the other to alt_name" />
		<tag k="name" v="Brattelie;Svartelie" />
		<tag k="natural" v="slope" />
		<tag k="place" v="locality" />
		<tag k="ssr:stedsnr" v="753424" />
	</node>
	<node id="-170799" lat="60.4440472234" lon="9.15651389502">
		<tag k="name" v="Øvreklanten" />
		<tag k="natural" v="hill" />
		<tag k="place" v="locality" />
		<tag k="ssr:stedsnr" v="753423" />
	</node>
	<node id="-170792" lat="60.5136805578" lon="9.17633055755">
		<tag k="name" v="Veltenatten" />
		<tag k="natural" v="hill" />
		<tag k="place" v="locality" />
		<tag k="ssr:stedsnr" v="753142" />
	</node>
	<node id="-170790" lat="60.55454167" lon="9.04198056055">
		<tag k="name" v="Liaskardet" />
		<tag k="natural" v="valley" />
		<tag k="place" v="locality" />
		<tag k="ssr:stedsnr" v="753096" />
	</node>
	<node id="-170789" lat="60.5505388894" lon="9.06530277173">
		<tag k="name" v="Storeskard" />
		<tag k="natural" v="valley" />
		<tag k="place" v="locality" />
		<tag k="ssr:stedsnr" v="753093" />
	</node>
	<node id="-170788" lat="60.5435277775" lon="9.12989722315">
		<tag k="name" v="Påverudlie" />
		<tag k="natural" v="slope" />
		<tag k="place" v="locality" />
		<tag k="ssr:stedsnr" v="753045" />
	</node>
	<node id="-170787" lat="60.5065833292" lon="8.71147221634">
		<tag k="name" v="Tjuverihalle" />
		<tag k="natural" v="valley" />
		<tag k="place" v="locality" />
		<tag k="ssr:stedsnr" v="753022" />
	</node>
	<node id="-170784" lat="60.6480750006" lon="9.03396388815">
		<tag k="name" v="Osteberglie" />
		<tag k="natural" v="slope" />
		<tag k="place" v="locality" />
		<tag k="ssr:stedsnr" v="752978" />
	</node>
	<node id="-170775" lat="60.5641749978" lon="9.37165833423">
		<tag k="fixme" v="consider natural=peak for the most distinct mountains in the district" />
		<tag k="name" v="Benkin" />
		<tag k="natural" v="hill" />
		<tag k="place" v="locality" />
		<tag k="ssr:stedsnr" v="735831" />
	</node>
	<node id="-170773" lat="60.5725027815" lon="9.29632499605">
		<tag k="fixme" v="consider natural=peak for the most distinct mountains in the district" />
		<tag k="name" v="Øyvassfjellet" />
		<tag k="natural" v="hill" />
		<tag k="place" v="locality" />
		<tag k="ssr:stedsnr" v="735818" />
	</node>
	<node id="-170770" lat="60.5919638907" lon="9.3863749947">
		<tag k="name" v="Gørrbuflaget" />
		<tag k="natural" v="hill" />
		<tag k="place" v="locality" />
		<tag k="ssr:stedsnr" v="735804" />
	</node>
	<node id="-170766" lat="60.5170111109" lon="9.29377778563">
		<tag k="fixme" v="consider natural=peak for the most distinct mountains in the district" />
		<tag k="name" v="Grisetjernnatten" />
		<tag k="natural" v="hill" />
		<tag k="place" v="locality" />
		<tag k="ssr:stedsnr" v="735760" />
	</node>
	<node id="-170763" lat="60.6536388855" lon="9.23872499156">
		<tag k="fixme" v="consider natural=peak for the most distinct mountains in the district" />
		<tag k="name" v="Langevassfjelle" />
		<tag k="natural" v="hill" />
		<tag k="place" v="locality" />
		<tag k="ssr:stedsnr" v="735719" />
	</node>
	<node id="-170755" lat="60.5417250041" lon="8.9162916686">
		<tag k="name" v="Saupesetlie" />
		<tag k="natural" v="slope" />
		<tag k="place" v="locality" />
		<tag k="ssr:stedsnr" v="735574" />
	</node>
	<node id="-170753" lat="60.5502666688" lon="9.10949999823">
		<tag k="name" v="Bjørnaskard" />
		<tag k="natural" v="valley" />
		<tag k="place" v="locality" />
		<tag k="ssr:stedsnr" v="735563" />
	</node>
	<node id="-170752" lat="60.5365166696" lon="9.06221666787">
		<tag k="fixme" v="consider natural=peak for the most distinct mountains in the district" />
		<tag k="name" v="Syningen" />
		<tag k="natural" v="hill" />
		<tag k="place" v="locality" />
		<tag k="ssr:stedsnr" v="735550" />
	</node>
	<node id="-170748" lat="60.5017722198" lon="9.02777778227">
		<tag k="fixme" v="consider natural=peak for the most distinct mountains in the district" />
		<tag k="name" v="Høgeli" />
		<tag k="natural" v="hill" />
		<tag k="place" v="locality" />
		<tag k="ssr:stedsnr" v="735493" />
	</node>
	<node id="-170747" lat="60.6266916697" lon="9.15577500658">
		<tag k="name" v="Fiskebekkjuvet" />
		<tag k="natural" v="gorge" />
		<tag k="ssr:stedsnr" v="735469" />
	</node>
	<node id="-170738" lat="60.5487888926" lon="9.04766110346">
		<tag k="name" v="Dugurdsnatten" />
		<tag k="natural" v="hill" />
		<tag k="place" v="locality" />
		<tag k="ssr:stedsnr" v="735388" />
	</node>
	<node id="-170735" lat="60.655652777" lon="9.02772778294">
		<tag k="name" v="Grånatten" />
		<tag k="natural" v="hill" />
		<tag k="place" v="locality" />
		<tag k="ssr:stedsnr" v="735262" />
	</node>
	<node id="-170728" lat="60.4621694446" lon="9.24491666448">
		<tag k="fixme" v="consider natural=peak for the most distinct mountains in the district" />
		<tag k="name" v="Høgrauk" />
		<tag k="natural" v="hill" />
		<tag k="place" v="locality" />
		<tag k="ssr:stedsnr" v="734395" />
	</node>
	<node id="-170712" lat="60.4971555561" lon="9.29775277854">
		<tag k="fixme" v="consider natural=peak for the most distinct mountains in the district" />
		<tag k="name" v="Syningen" />
		<tag k="natural" v="hill" />
		<tag k="place" v="locality" />
		<tag k="ssr:stedsnr" v="693884" />
	</node>
	<node id="-170704" lat="60.5529416657" lon="9.18501388403">
		<tag k="name" v="Tømmermoan" />
		<tag k="place" v="locality" />
		<tag k="ssr:stedsnr" v="693221" />
	</node>
	<node id="-170701" lat="60.5414472219" lon="9.00611389226">
		<tag k="name" v="Jonsejuvet" />
		<tag k="natural" v="gorge" />
		<tag k="ssr:stedsnr" v="692631" />
	</node>
	<node id="-170700" lat="60.4619638901" lon="9.21201111599">
		<tag k="name" v="Juvin" />
		<tag k="natural" v="gorge" />
		<tag k="ssr:stedsnr" v="692561" />
	</node>
	<node id="-170699" lat="60.4440805554" lon="9.09649443669">
		<tag k="name" v="Jakobshaugen" />
		<tag k="natural" v="hill" />
		<tag k="place" v="locality" />
		<tag k="ssr:stedsnr" v="692471" />
	</node>
	<node id="-170685" lat="60.6244694406" lon="8.9050499992">
		<tag k="name" v="Sollinatten" />
		<tag k="natural" v="ridge" />
		<tag k="place" v="locality" />
		<tag k="ssr:stedsnr" v="691890" />
	</node>
	<node id="-170683" lat="60.5700611076" lon="9.39311944357">
		<tag k="fixme" v="consider natural=peak for the most distinct mountains in the district" />
		<tag k="name" v="Bringen" />
		<tag k="natural" v="hill" />
		<tag k="place" v="locality" />
		<tag k="ssr:stedsnr" v="675845" />
	</node>
	<node id="-170679" lat="60.5295361142" lon="9.23676666675">
		<tag k="fixme" v="consider natural=peak for the most distinct mountains in the district" />
		<tag k="name" v="Liafjell" />
		<tag k="natural" v="hill" />
		<tag k="place" v="locality" />
		<tag k="ssr:stedsnr" v="674865" />
	</node>
	<node id="-170678" lat="60.5330499997" lon="9.2797833299">
		<tag k="fixme" v="consider natural=peak for the most distinct mountains in the district" />
		<tag k="name" v="Godfarnatten" />
		<tag k="natural" v="hill" />
		<tag k="place" v="locality" />
		<tag k="ssr:stedsnr" v="674764" />
	</node>
	<node id="-170671" lat="60.5982499999" lon="9.38238056118">
		<tag k="fixme" v="consider natural=peak for the most distinct mountains in the district" />
		<tag k="name" v="Kvitingen" />
		<tag k="natural" v="hill" />
		<tag k="place" v="locality" />
		<tag k="ssr:stedsnr" v="674671" />
	</node>
	<node id="-170664" lat="60.5051027742" lon="9.0599888867">
		<tag k="name" v="Heimlinatten" />
		<tag k="natural" v="hill" />
		<tag k="place" v="locality" />
		<tag k="ssr:stedsnr" v="674519" />
	</node>
	<node id="-170659" lat="60.6312333341" lon="8.99664722557">
		<tag k="name" v="Vestlie" />
		<tag k="natural" v="slope" />
		<tag k="place" v="locality" />
		<tag k="ssr:stedsnr" v="674489" />
	</node>
	<node id="-170653" lat="60.5520055541" lon="8.9107000017">
		<tag k="fixme" v="consider natural=peak for the most distinct mountains in the district" />
		<tag k="name" v="Syningen" />
		<tag k="natural" v="hill" />
		<tag k="place" v="locality" />
		<tag k="ssr:stedsnr" v="674379" />
	</node>
	<node id="-170649" lat="60.4257888894" lon="9.19475555601">
		<tag k="name" v="Bruhaugan" />
		<tag k="natural" v="hill" />
		<tag k="place" v="locality" />
		<tag k="ssr:stedsnr" v="674316" />
	</node>
	<node id="-170647" lat="60.55021389" lon="8.74666389176">
		<tag k="fixme" v="consider natural=peak for the most distinct mountains in the district" />
		<tag k="name" v="Holmevassnatten" />
		<tag k="natural" v="hill" />
		<tag k="place" v="locality" />
		<tag k="ssr:stedsnr" v="674234" />
	</node>
	<node id="-170645" lat="60.5235027804" lon="8.79410833938">
		<tag k="name" v="Smørsethallin" />
		<tag k="natural" v="slope" />
		<tag k="place" v="locality" />
		<tag k="ssr:stedsnr" v="674206" />
	</node>
	<node id="-170637" lat="60.4542138929" lon="9.14408888182">
		<tag k="fixme" v="consider natural=peak for the most distinct mountains in the district" />
		<tag k="name" v="Darren" />
		<tag k="natural" v="hill" />
		<tag k="place" v="locality" />
		<tag k="ssr:stedsnr" v="673327" />
	</node>
	<node id="-170633" lat="60.6400555544" lon="9.30135277358">
		<tag k="fixme" v="consider natural=peak for the most distinct mountains in the district" />
		<tag k="name" v="Bjørnaliåsen" />
		<tag k="natural" v="hill" />
		<tag k="place" v="locality" />
		<tag k="ssr:stedsnr" v="674650" />
	</node>
	<node id="-170622" lat="60.4691138862" lon="9.16815277841">
		<tag k="name" v="Veslegurilie" />
		<tag k="natural" v="slope" />
		<tag k="place" v="locality" />
		<tag k="ssr:stedsnr" v="632701" />
	</node>
	<node id="-170620" lat="60.4508611124" lon="9.14964444819">
		<tag k="name" v="Stupet" />
		<tag k="natural" v="cliff" />
		<tag k="ssr:stedsnr" v="632511" />
	</node>
	<node id="-170619" lat="60.4507249996" lon="9.16853610655">
		<tag k="name" v="Kastet" />
		<tag k="natural" v="slope" />
		<tag k="place" v="locality" />
		<tag k="ssr:stedsnr" v="632507" />
	</node>
	<node id="-170616" lat="60.5747444411" lon="9.38295833965">
		<tag k="name" v="Mortenshølet" />
		<tag k="natural" v="valley" />
		<tag k="place" v="locality" />
		<tag k="ssr:stedsnr" v="632453" />
	</node>
	<node id="-170613" lat="60.6452861072" lon="8.97111943995">
		<tag k="name" v="Ospehallene" />
		<tag k="natural" v="slope" />
		<tag k="place" v="locality" />
		<tag k="ssr:stedsnr" v="631983" />
	</node>
	<node id="-170610" lat="60.4361500032" lon="9.20013332631">
		<tag k="name" v="Bakkehaugen" />
		<tag k="natural" v="hill" />
		<tag k="place" v="locality" />
		<tag k="ssr:stedsnr" v="631929" />
	</node>
	<node id="-170608" lat="60.4765722239" lon="9.23534721617">
		<tag k="name" v="Tupperudnatten" />
		<tag k="natural" v="hill" />
		<tag k="place" v="locality" />
		<tag k="ssr:stedsnr" v="631909" />
	</node>
	<node id="-170599" lat="60.477916671" lon="9.21556110268">
		<tag k="name" v="Uleskard" />
		<tag k="natural" v="slope" />
		<tag k="place" v="locality" />
		<tag k="ssr:stedsnr" v="631570" />
	</node>
	<node id="-170581" lat="60.6572333375" lon="9.34863332598">
		<tag k="fixme" v="consider natural=peak for the most distinct mountains in the district" />
		<tag k="name" v="Trytehølhøgde" />
		<tag k="natural" v="hill" />
		<tag k="place" v="locality" />
		<tag k="ssr:stedsnr" v="614776" />
	</node>
	<node id="-170574" lat="60.512216671" lon="9.2638694371">
		<tag k="fixme" v="consider natural=peak for the most distinct mountains in the district" />
		<tag k="name" v="Knutshølkollen" />
		<tag k="natural" v="hill" />
		<tag k="place" v="locality" />
		<tag k="ssr:stedsnr" v="613768" />
	</node>
	<node id="-170569" lat="60.6340444446" lon="9.25985555085">
		<tag k="fixme" v="consider natural=peak for the most distinct mountains in the district" />
		<tag k="name" v="Langevassåsen" />
		<tag k="natural" v="hill" />
		<tag k="place" v="locality" />
		<tag k="ssr:stedsnr" v="613638" />
	</node>
	<node id="-170558" lat="60.5065611094" lon="9.00959445285">
		<tag k="name" v="Gurilie" />
		<tag k="natural" v="hill" />
		<tag k="place" v="locality" />
		<tag k="ssr:stedsnr" v="613516" />
	</node>
	<node id="-170553" lat="60.5983027783" lon="8.85206388084">
		<tag k="name" v="Breivasshallin" />
		<tag k="natural" v="slope" />
		<tag k="place" v="locality" />
		<tag k="ssr:stedsnr" v="613481" />
	</node>
	<node id="-170548" lat="60.5793611093" lon="9.04322777879">
		<tag k="fixme" v="consider natural=peak for the most distinct mountains in the district" />
		<tag k="name" v="Espesetåsen" />
		<tag k="natural" v="hill" />
		<tag k="place" v="locality" />
		<tag k="ssr:stedsnr" v="613425" />
	</node>
	<node id="-170543" lat="60.5587749985" lon="8.75400000749">
		<tag k="name" v="Ausehøgde" />
		<tag k="natural" v="hill" />
		<tag k="place" v="locality" />
		<tag k="ssr:stedsnr" v="613240" />
	</node>
	<node id="-170539" lat="60.6214000025" lon="8.83678611793">
		<tag k="fixme" v="consider natural=peak for the most distinct mountains in the district" />
		<tag k="name" v="Storhovda" />
		<tag k="natural" v="hill" />
		<tag k="place" v="locality" />
		<tag k="ssr:stedsnr" v="613074" />
	</node>
	<node id="-170534" lat="60.477041667" lon="9.28825277941">
		<tag k="fixme" v="consider natural=peak for the most distinct mountains in the district" />
		<tag k="name" v="Kleivåsen" />
		<tag k="natural" v="hill" />
		<tag k="place" v="locality" />
		<tag k="ssr:stedsnr" v="612381" />
	</node>
	<node id="-170531" lat="60.4426333344" lon="9.16269999128">
		<tag k="name" v="Hovdelie" />
		<tag k="natural" v="slope" />
		<tag k="place" v="locality" />
		<tag k="ssr:stedsnr" v="612346" />
	</node>
	<node id="-170526" lat="60.4830472258" lon="9.12120555871">
		<tag k="fixme" v="consider natural=peak for the most distinct mountains in the district" />
		<tag k="name" v="Skrivarfjell" />
		<tag k="natural" v="hill" />
		<tag k="place" v="locality" />
		<tag k="ssr:stedsnr" v="612313" />
	</node>
	<node id="-170521" lat="60.4805833378" lon="9.09053611959">
		<tag k="name" v="Såtepiggen" />
		<tag k="natural" v="hill" />
		<tag k="place" v="locality" />
		<tag k="ssr:stedsnr" v="612291" />
	</node>
	<node id="-170519" lat="60.4847750005" lon="9.12877500042">
		<tag k="name" v="Skrivarnatten" />
		<tag k="natural" v="hill" />
		<tag k="place" v="locality" />
		<tag k="ssr:stedsnr" v="612285" />
	</node>
	<node id="-170506" lat="60.5880397" lon="9.0278032287">
		<tag k="fixme" v="consider natural=peak for the most distinct mountains in the district" />
		<tag k="name" v="Espesetåsen" />
		<tag k="natural" v="hill" />
		<tag k="place" v="locality" />
		<tag k="ssr:stedsnr" v="571827" />
	</node>
	<node id="-170499" lat="60.4772222267" lon="9.23636667301">
		<tag k="name" v="Kjerringskard" />
		<tag k="natural" v="valley" />
		<tag k="place" v="locality" />
		<tag k="ssr:stedsnr" v="571594" />
	</node>
	<node id="-170498" lat="60.5853444414" lon="9.286616674">
		<tag k="fixme" v="consider natural=peak for the most distinct mountains in the district" />
		<tag k="name" v="Grånatten" />
		<tag k="natural" v="hill" />
		<tag k="place" v="locality" />
		<tag k="ssr:stedsnr" v="571477" />
	</node>
	<node id="-170492" lat="60.5366027796" lon="8.80868888501">
		<tag k="name" v="Mohaugen" />
		<tag k="natural" v="hill" />
		<tag k="place" v="locality" />
		<tag k="ssr:stedsnr" v="571186" />
	</node>
	<node id="-170483" lat="60.4967611087" lon="8.92896943767">
		<tag k="name" v="Driftevasshøgde" />
		<tag k="natural" v="hill" />
		<tag k="place" v="locality" />
		<tag k="ssr:stedsnr" v="570968" />
	</node>
	<node id="-170482" lat="60.5096805527" lon="8.98108054778">
		<tag k="name" v="Rundehaug" />
		<tag k="natural" v="hill" />
		<tag k="place" v="locality" />
		<tag k="ssr:stedsnr" v="570959" />
	</node>
	<node id="-170481" lat="60.503716666" lon="8.98175556216">
		<tag k="name" v="Langehaug" />
		<tag k="natural" v="hill" />
		<tag k="place" v="locality" />
		<tag k="ssr:stedsnr" v="570957" />
	</node>
	<node id="-170479" lat="60.5051555597" lon="9.29868611191">
		<tag k="name" v="Dugurdshaugen" />
		<tag k="natural" v="hill" />
		<tag k="place" v="locality" />
		<tag k="ssr:stedsnr" v="570845" />
	</node>
	<node id="-170478" lat="60.4951083326" lon="9.15221389008">
		<tag k="loc_name" v="Nordhagalie" />
		<tag k="name" v="Nordhagelie" />
		<tag k="natural" v="slope" />
		<tag k="place" v="locality" />
		<tag k="ssr:stedsnr" v="570705" />
	</node>
	<node id="-170472" lat="60.5379249984" lon="9.31676943612">
		<tag k="fixme" v="consider natural=peak for the most distinct mountains in the district" />
		<tag k="loc_name" v="Grårovefjellet" />
		<tag k="name" v="Grårovun" />
		<tag k="natural" v="hill" />
		<tag k="place" v="locality" />
		<tag k="ssr:stedsnr" v="553880" />
	</node>
	<node id="-170470" lat="60.5797305557" lon="9.31364444543">
		<tag k="fixme" v="consider natural=peak for the most distinct mountains in the district" />
		<tag k="name" v="Leinenatten" />
		<tag k="natural" v="hill" />
		<tag k="place" v="locality" />
		<tag k="ssr:stedsnr" v="553824" />
	</node>
	<node id="-170467" lat="60.6667388911" lon="9.33183055162">
		<tag k="fixme" v="consider natural=peak for the most distinct mountains in the district" />
		<tag k="name" v="Alketjernhaugen" />
		<tag k="natural" v="hill" />
		<tag k="place" v="locality" />
		<tag k="ssr:stedsnr" v="553758" />
	</node>
	<node id="-170461" lat="60.5010777784" lon="9.19280000098">
		<tag k="fixme" v="consider natural=peak for the most distinct mountains in the district" />
		<tag k="name" v="Benterudnatten" />
		<tag k="natural" v="hill" />
		<tag k="place" v="locality" />
		<tag k="ssr:stedsnr" v="553508" />
	</node>
	<node id="-170460" lat="60.5029055577" lon="9.04966389388">
		<tag k="fixme" v="consider natural=peak for the most distinct mountains in the district" />
		<tag k="name" v="Skurvåsen" />
		<tag k="natural" v="hill" />
		<tag k="place" v="locality" />
		<tag k="ssr:stedsnr" v="553483" />
	</node>
	<node id="-170455" lat="60.589136108" lon="8.91745555346">
		<tag k="name" v="Svartvasshøgde" />
		<tag k="natural" v="hill" />
		<tag k="place" v="locality" />
		<tag k="ssr:stedsnr" v="553404" />
	</node>
	<node id="-170453" lat="60.5550388872" lon="8.85601667493">
		<tag k="fixme" v="consider natural=peak for the most distinct mountains in the district" />
		<tag k="name" v="Nystølhovda" />
		<tag k="natural" v="hill" />
		<tag k="place" v="locality" />
		<tag k="ssr:stedsnr" v="553392" />
	</node>
	<node id="-170451" lat="60.561958332" lon="9.16718333812">
		<tag k="fixme" v="consider natural=peak for the most distinct mountains in the district" />
		<tag k="name" v="Mørkedokknatten" />
		<tag k="natural" v="hill" />
		<tag k="place" v="locality" />
		<tag k="ssr:stedsnr" v="553389" />
	</node>
	<node id="-170443" lat="60.5120878054" lon="8.68149127569">
		<tag k="fixme" v="consider natural=peak for the most distinct mountains in the district" />
		<tag k="name" v="Såtenatten" />
		<tag k="natural" v="hill" />
		<tag k="place" v="locality" />
		<tag k="ssr:stedsnr" v="553180" />
	</node>
	<node id="-170442" lat="60.5072055527" lon="8.78183055749">
		<tag k="name" v="Lyserenhøgde" />
		<tag k="natural" v="hill" />
		<tag k="old_name" v="Lyser Hòvd" />
		<tag k="place" v="locality" />
		<tag k="ssr:stedsnr" v="553174" />
	</node>
	<node id="-170440" lat="60.6850583319" lon="9.27454721886">
		<tag k="name" v="Andsjølie" />
		<tag k="natural" v="slope" />
		<tag k="place" v="locality" />
		<tag k="ssr:stedsnr" v="552736" />
	</node>
	<node id="-170438" lat="60.5270611104" lon="9.04401667438">
		<tag k="fixme" v="consider natural=peak for the most distinct mountains in the district" />
		<tag k="name" v="Ålsvassyningen" />
		<tag k="natural" v="hill" />
		<tag k="place" v="locality" />
		<tag k="ssr:stedsnr" v="552667" />
	</node>
	<node id="-170437" lat="60.5227388927" lon="9.05902221527">
		<tag k="fixme" v="consider natural=peak for the most distinct mountains in the district" />
		<tag k="name" v="Kopparskallen" />
		<tag k="natural" v="hill" />
		<tag k="place" v="locality" />
		<tag k="ssr:stedsnr" v="552666" />
	</node>
	<node id="-170428" lat="60.5643916706" lon="8.95514722193">
		<tag k="name" v="Fussenatten" />
		<tag k="natural" v="hill" />
		<tag k="place" v="locality" />
		<tag k="ssr:stedsnr" v="552423" />
	</node>
	<node id="-170426" lat="60.4289555539" lon="9.1243583314">
		<tag k="name" v="Buvasslie" />
		<tag k="natural" v="slope" />
		<tag k="place" v="locality" />
		<tag k="ssr:stedsnr" v="552381" />
	</node>
	<node id="-170421" lat="60.6486194477" lon="8.99844444944">
		<tag k="name" v="Branden" />
		<tag k="natural" v="slope" />
		<tag k="place" v="locality" />
		<tag k="ssr:stedsnr" v="552318" />
	</node>
	<node id="-170418" lat="60.4442416661" lon="9.24887221615">
		<tag k="fixme" v="consider natural=peak for the most distinct mountains in the district" />
		<tag k="name" v="Ryfjell" />
		<tag k="natural" v="hill" />
		<tag k="place" v="locality" />
		<tag k="ssr:stedsnr" v="552158" />
	</node>
	<node id="-170417" lat="60.5815611143" lon="8.82761111402">
		<tag k="fixme" v="consider natural=peak for the most distinct mountains in the district" />
		<tag k="name" v="Preinsåsen" />
		<tag k="natural" v="hill" />
		<tag k="place" v="locality" />
		<tag k="ssr:stedsnr" v="552044" />
	</node>
	<node id="-170415" lat="60.4831500014" lon="9.01003333479">
		<tag k="fixme" v="consider natural=peak for the most distinct mountains in the district" />
		<tag k="name" v="Smylifjell" />
		<tag k="natural" v="hill" />
		<tag k="place" v="locality" />
		<tag k="ssr:stedsnr" v="551291" />
	</node>
	<node id="-170414" lat="60.4801249986" lon="9.15322777979">
		<tag k="name" v="Rundenatten" />
		<tag k="natural" v="hill" />
		<tag k="place" v="locality" />
		<tag k="ssr:stedsnr" v="551281" />
	</node>
	<node id="-170413" lat="60.4838888923" lon="9.14572500266">
		<tag k="fixme" v="consider natural=peak for the most distinct mountains in the district" />
		<tag k="name" v="Kvelvåsen" />
		<tag k="natural" v="hill" />
		<tag k="place" v="locality" />
		<tag k="ssr:stedsnr" v="551282" />
	</node>
	<node id="-170404" lat="60.6219083357" lon="9.23606667506">
		<tag k="name" v="Kvilarslette" />
		<tag k="place" v="locality" />
		<tag k="ssr:stedsnr" v="511452" />
	</node>
	<node id="-170403" lat="60.608661108" lon="9.21735277041">
		<tag k="fixme" v="consider natural=peak for the most distinct mountains in the district" />
		<tag k="name" v="Heimdalshøgde" />
		<tag k="natural" v="hill" />
		<tag k="place" v="locality" />
		<tag k="ssr:stedsnr" v="511449" />
	</node>
	<node id="-170401" lat="60.6621861107" lon="9.29951110211">
		<tag k="name" v="Hugarhaugen" />
		<tag k="natural" v="hill" />
		<tag k="old_name" v="Haugarhaugen" />
		<tag k="place" v="locality" />
		<tag k="ssr:stedsnr" v="511430" />
	</node>
	<node id="-170394" lat="60.6210861119" lon="8.96149722793">
		<tag k="name" v="Nonshaugen" />
		<tag k="natural" v="hill" />
		<tag k="place" v="locality" />
		<tag k="ssr:stedsnr" v="510843" />
	</node>
	<node id="-170392" lat="60.4836527812" lon="9.21134167415">
		<tag k="name" v="Steinarbråten" />
		<tag k="natural" v="slope" />
		<tag k="place" v="locality" />
		<tag k="ssr:stedsnr" v="510631" />
	</node>
	<node id="-170391" lat="60.4809611105" lon="9.24248334241">
		<tag k="name" v="Slåen" />
		<tag k="natural" v="ridge" />
		<tag k="place" v="locality" />
		<tag k="ssr:stedsnr" v="510628" />
	</node>
	<node id="-170390" lat="60.5745861101" lon="9.07747778489">
		<tag k="name" v="Rundenatten" />
		<tag k="natural" v="hill" />
		<tag k="place" v="locality" />
		<tag k="ssr:stedsnr" v="510590" />
	</node>
	<node id="-170386" lat="60.5271527776" lon="9.03031945157">
		<tag k="name" v="Tverrlie" />
		<tag k="natural" v="slope" />
		<tag k="place" v="locality" />
		<tag k="ssr:stedsnr" v="510122" />
	</node>
	<node id="-170384" lat="60.5498888887" lon="9.09051111496">
		<tag k="name" v="Gråberget" />
		<tag k="natural" v="ridge" />
		<tag k="place" v="locality" />
		<tag k="ssr:stedsnr" v="510064" />
	</node>
	<node id="-170381" lat="60.5077555514" lon="8.7018777779">
		<tag k="name" v="Rommeleine" />
		<tag k="natural" v="slope" />
		<tag k="place" v="locality" />
		<tag k="ssr:stedsnr" v="510037" />
	</node>
	<node id="-170376" lat="60.5322111142" lon="9.18444999432">
		<tag k="name" v="Nilsesprang" />
		<tag k="natural" v="gorge" />
		<tag k="ssr:stedsnr" v="509171" />
	</node>
	<node id="-170373" lat="60.5814055537" lon="9.26339444955">
		<tag k="fixme" v="consider natural=peak for the most distinct mountains in the district" />
		<tag k="name" v="Tilifjell" />
		<tag k="natural" v="hill" />
		<tag k="place" v="locality" />
		<tag k="ssr:stedsnr" v="492814" />
	</node>
	<node id="-170372" lat="60.5792694474" lon="9.38043333554">
		<tag k="fixme" v="consider natural=peak for the most distinct mountains in the district" />
		<tag k="name" v="Strøslifjell" />
		<tag k="natural" v="hill" />
		<tag k="place" v="locality" />
		<tag k="ssr:stedsnr" v="492804" />
	</node>
	<node id="-170371" lat="60.5249166687" lon="9.27973055131">
		<tag k="fixme" v="consider natural=peak for the most distinct mountains in the district" />
		<tag k="name" v="Lauvåsen" />
		<tag k="natural" v="hill" />
		<tag k="place" v="locality" />
		<tag k="ssr:stedsnr" v="492751" />
	</node>
	<node id="-170360" lat="60.5208638914" lon="9.00266389423">
		<tag k="name" v="Bøgahaugen" />
		<tag k="natural" v="hill" />
		<tag k="place" v="locality" />
		<tag k="ssr:stedsnr" v="492562" />
	</node>
	<node id="-170358" lat="60.5167583305" lon="9.03399166318">
		<tag k="name" v="Ålsvasshaugan" />
		<tag k="natural" v="hill" />
		<tag k="place" v="locality" />
		<tag k="ssr:stedsnr" v="492558" />
	</node>
	<node id="-170357" lat="60.5220999959" lon="8.87738610687">
		<tag k="fixme" v="consider natural=peak for the most distinct mountains in the district" />
		<tag k="name" v="Grytåsen" />
		<tag k="natural" v="hill" />
		<tag k="place" v="locality" />
		<tag k="ssr:stedsnr" v="492557" />
	</node>
	<node id="-170352" lat="60.5134999984" lon="8.98586666637">
		<tag k="name" v="Livhøgde" />
		<tag k="natural" v="hill" />
		<tag k="place" v="locality" />
		<tag k="ssr:stedsnr" v="492483" />
	</node>
	<node id="-170348" lat="60.5842194437" lon="8.86439444816">
		<tag k="name" v="Svenkerudhøgde" />
		<tag k="natural" v="hill" />
		<tag k="place" v="locality" />
		<tag k="ssr:stedsnr" v="492397" />
	</node>
	<node id="-170340" lat="60.5147750027" lon="8.76659166249">
		<tag k="fixme" v="consider natural=peak for the most distinct mountains in the district" />
		<tag k="name" v="Lauvhovda" />
		<tag k="natural" v="hill" />
		<tag k="place" v="locality" />
		<tag k="ssr:stedsnr" v="492168" />
	</node>
	<node id="-170338" lat="60.5725750015" lon="8.76834443693">
		<tag k="name" v="Reisehaugen" />
		<tag k="natural" v="hill" />
		<tag k="place" v="locality" />
		<tag k="ssr:stedsnr" v="492004" />
	</node>
	<node id="-170337" lat="60.5964027741" lon="9.062080554">
		<tag k="name" v="Arnegårdslie" />
		<tag k="natural" v="slope" />
		<tag k="place" v="locality" />
		<tag k="ssr:stedsnr" v="492430" />
	</node>
	<node id="-170336" lat="60.6049166662" lon="9.14922499755">
		<tag k="name" v="Todalen" />
		<tag k="natural" v="valley" />
		<tag k="place" v="locality" />
		<tag k="ssr:stedsnr" v="492428" />
	</node>
	<node id="-170333" lat="60.6055999988" lon="9.02383333194">
		<tag k="name" v="Lyshøgde" />
		<tag k="natural" v="hill" />
		<tag k="place" v="locality" />
		<tag k="ssr:stedsnr" v="492409" />
	</node>
	<node id="-170330" lat="60.4594499978" lon="9.05480556129">
		<tag k="name" v="Ørnenatten" />
		<tag k="natural" v="hill" />
		<tag k="place" v="locality" />
		<tag k="ssr:stedsnr" v="491323" />
	</node>
	<node id="-170329" lat="60.44305" lon="9.06492500844">
		<tag k="name" v="Vargnatten" />
		<tag k="natural" v="hill" />
		<tag k="place" v="locality" />
		<tag k="ssr:stedsnr" v="491318" />
	</node>
	<node id="-170315" lat="60.4808944462" lon="9.28405554677">
		<tag k="name" v="Grøndalen" />
		<tag k="natural" v="valley" />
		<tag k="place" v="locality" />
		<tag k="ssr:stedsnr" v="451908" />
	</node>
	<node id="-170312" lat="60.4480305525" lon="9.21807221823">
		<tag k="name" v="Rotveltedalen" />
		<tag k="natural" v="valley" />
		<tag k="place" v="locality" />
		<tag k="ssr:stedsnr" v="450942" />
	</node>
	<node id="-170311" lat="60.4542472204" lon="9.20261944917">
		<tag k="name" v="Langebakk" />
		<tag k="natural" v="slope" />
		<tag k="place" v="locality" />
		<tag k="ssr:stedsnr" v="450939" />
	</node>
	<node id="-170305" lat="60.6497249957" lon="9.1474555503">
		<tag k="name" v="Permøne" />
		<tag k="natural" v="hill" />
		<tag k="place" v="locality" />
		<tag k="ssr:stedsnr" v="450488" />
	</node>
	<node id="-170301" lat="60.4425805531" lon="9.07297499216">
		<tag k="name" v="Rantan" />
		<tag k="natural" v="ridge" />
		<tag k="place" v="locality" />
		<tag k="ssr:stedsnr" v="450308" />
	</node>
	<node id="-170300" lat="60.4502611132" lon="9.15426111154">
		<tag k="name" v="Skardehaugen" />
		<tag k="natural" v="hill" />
		<tag k="place" v="locality" />
		<tag k="ssr:stedsnr" v="450289" />
	</node>
	<node id="-170281" lat="60.4760249971" lon="9.14814166755">
		<tag k="name" v="Primbakkan" />
		<tag k="natural" v="slope" />
		<tag k="place" v="locality" />
		<tag k="ssr:stedsnr" v="449707" />
	</node>
	<node id="-170273" lat="60.5949833323" lon="9.39382499337">
		<tag k="name" v="Gørrbu" />
		<tag k="place" v="locality" />
		<tag k="ssr:stedsnr" v="432802" />
	</node>
	<node id="-170271" lat="60.6677194455" lon="9.27733055203">
		<tag k="fixme" v="consider natural=peak for the most distinct mountains in the district" />
		<tag k="name" v="Høgelihovda" />
		<tag k="natural" v="hill" />
		<tag k="place" v="locality" />
		<tag k="ssr:stedsnr" v="432722" />
	</node>
	<node id="-170269" lat="60.6133249978" lon="9.23491944989">
		<tag k="fixme" v="consider natural=peak for the most distinct mountains in the district" />
		<tag k="name" v="Krossløkåsen" />
		<tag k="natural" v="hill" />
		<tag k="place" v="locality" />
		<tag k="ssr:stedsnr" v="432667" />
	</node>
	<node id="-170253" lat="60.5553944476" lon="9.04206944806">
		<tag k="name" v="Gråberget" />
		<tag k="place" v="locality" />
		<tag k="ssr:stedsnr" v="432366" />
	</node>
	<node id="-170250" lat="60.5361805597" lon="8.76588888431">
		<tag k="fixme" v="consider natural=peak for the most distinct mountains in the district" />
		<tag k="name" v="Grønhovdhøgde" />
		<tag k="natural" v="hill" />
		<tag k="place" v="locality" />
		<tag k="ssr:stedsnr" v="432206" />
	</node>
	<node id="-170246" lat="60.4257361107" lon="9.14235555132">
		<tag k="fixme" v="consider natural=peak for the most distinct mountains in the district" />
		<tag k="name" v="Vierfjell" />
		<tag k="natural" v="hill" />
		<tag k="place" v="locality" />
		<tag k="ssr:stedsnr" v="431356" />
	</node>
	<node id="-170240" lat="60.4860805556" lon="8.98437778013">
		<tag k="name" v="Trommenatten" />
		<tag k="natural" v="hill" />
		<tag k="place" v="locality" />
		<tag k="ssr:stedsnr" v="431281" />
	</node>
	<node id="-170229" lat="60.6073833323" lon="9.23345832813">
		<tag k="name" v="Lauvhaugen" />
		<tag k="natural" v="hill" />
		<tag k="place" v="locality" />
		<tag k="ssr:stedsnr" v="268447" />
	</node>
	<node id="-170228" lat="60.5201611151" lon="9.32219722545">
		<tag k="fixme" v="consider natural=peak for the most distinct mountains in the district" />
		<tag k="name" v="Brennåsen" />
		<tag k="natural" v="hill" />
		<tag k="place" v="locality" />
		<tag k="ssr:stedsnr" v="268427" />
	</node>
	<node id="-170226" lat="60.6588361139" lon="9.2677249975">
		<tag k="fixme" v="consider natural=peak for the most distinct mountains in the district" />
		<tag k="name" v="Storelifjell" />
		<tag k="natural" v="hill" />
		<tag k="place" v="locality" />
		<tag k="ssr:stedsnr" v="268420" />
	</node>
	<node id="-170223" lat="60.4052611151" lon="9.08810277375">
		<tag k="name" v="Reinsjøflæan" />
		<tag k="natural" v="hill" />
		<tag k="place" v="locality" />
		<tag k="ssr:stedsnr" v="268309" />
	</node>
	<node id="-170222" lat="60.662449997" lon="9.33922500055">
		<tag k="fixme" v="consider natural=peak for the most distinct mountains in the district" />
		<tag k="name" v="Trytetjernåsen" />
		<tag k="natural" v="hill" />
		<tag k="place" v="locality" />
		<tag k="ssr:stedsnr" v="268296" />
	</node>
	<node id="-170219" lat="60.5021777769" lon="8.84096388294">
		<tag k="name" v="Bransethaugan" />
		<tag k="natural" v="hill" />
		<tag k="place" v="locality" />
		<tag k="ssr:stedsnr" v="268191" />
	</node>
	<node id="-170213" lat="60.5301722227" lon="9.19501944278">
		<tag k="name" v="Flutonatten" />
		<tag k="natural" v="hill" />
		<tag k="place" v="locality" />
		<tag k="ssr:stedsnr" v="267128" />
	</node>
	<node id="-170212" lat="60.5032972196" lon="9.30756389225">
		<tag k="fixme" v="consider natural=peak for the most distinct mountains in the district" />
		<tag k="name" v="Jordesmyrnatten" />
		<tag k="natural" v="hill" />
		<tag k="place" v="locality" />
		<tag k="ssr:stedsnr" v="250779" />
	</node>
	<node id="-170211" lat="60.5089111086" lon="9.26932499683">
		<tag k="name" v="Nedre Mørkedalen" />
		<tag k="natural" v="valley" />
		<tag k="place" v="locality" />
		<tag k="ssr:stedsnr" v="250775" />
	</node>
	<node id="-170208" lat="60.5970583312" lon="9.41742222492">
		<tag k="fixme" v="consider natural=peak for the most distinct mountains in the district" />
		<tag k="name" v="Trytetjernåsen" />
		<tag k="natural" v="hill" />
		<tag k="place" v="locality" />
		<tag k="ssr:stedsnr" v="250652" />
	</node>
	<node id="-170207" lat="60.5899249982" lon="9.27355834095">
		<tag k="fixme" v="consider natural=peak for the most distinct mountains in the district" />
		<tag k="name" v="Gampetjernbrenna" />
		<tag k="natural" v="hill" />
		<tag k="place" v="locality" />
		<tag k="ssr:stedsnr" v="250649" />
	</node>
	<node id="-170203" lat="60.5461055592" lon="9.06263610849">
		<tag k="fixme" v="consider natural=peak for the most distinct mountains in the district" />
		<tag k="name" v="Storeskardnuten" />
		<tag k="natural" v="hill" />
		<tag k="place" v="locality" />
		<tag k="ssr:stedsnr" v="250580" />
	</node>
	<node id="-170198" lat="60.5918666659" lon="9.1299777768">
		<tag k="fixme" v="consider natural=peak for the most distinct mountains in the district" />
		<tag k="name" v="Rudsåsen" />
		<tag k="natural" v="hill" />
		<tag k="place" v="locality" />
		<tag k="ssr:stedsnr" v="250434" />
	</node>
	<node id="-170194" lat="60.5681388891" lon="9.38188055513">
		<tag k="name" v="Buvasslie" />
		<tag k="natural" v="slope" />
		<tag k="place" v="locality" />
		<tag k="ssr:stedsnr" v="249844" />
	</node>
	<node id="-170183" lat="60.5043055573" lon="8.9937361126">
		<tag k="name" v="Venelie" />
		<tag k="natural" v="hill" />
		<tag k="place" v="locality" />
		<tag k="ssr:stedsnr" v="249514" />
	</node>
	<node id="-170178" lat="60.5637166707" lon="8.88018334005">
		<tag k="name" v="Matberget" />
		<tag k="natural" v="hill" />
		<tag k="place" v="locality" />
		<tag k="ssr:stedsnr" v="249442" />
	</node>
	<node id="-170176" lat="60.5796666704" lon="8.97313055037">
		<tag k="name" v="Sandanhøgde" />
		<tag k="natural" v="hill" />
		<tag k="place" v="locality" />
		<tag k="ssr:stedsnr" v="249414" />
	</node>
	<node id="-170171" lat="60.4361444426" lon="9.2242888933">
		<tag k="name" v="Sevrelie" />
		<tag k="natural" v="slope" />
		<tag k="place" v="locality" />
		<tag k="ssr:stedsnr" v="249344" />
	</node>
	<node id="-170165" lat="60.4689138926" lon="9.20866944688">
		<tag k="loc_name" v="Haugan" />
		<tag k="name" v="Haugane" />
		<tag k="natural" v="hill" />
		<tag k="place" v="locality" />
		<tag k="ssr:stedsnr" v="249303" />
	</node>
	<node id="-170162" lat="60.4664249969" lon="9.13382777416">
		<tag k="fixme" v="consider natural=peak for the most distinct mountains in the district" />
		<tag k="name" v="Rustadstølfjellet" />
		<tag k="natural" v="hill" />
		<tag k="place" v="locality" />
		<tag k="ssr:stedsnr" v="249277" />
	</node>
	<node id="-170161" lat="60.6535277741" lon="9.15399721978">
		<tag k="fixme" v="consider natural=peak for the most distinct mountains in the district" />
		<tag k="name" v="Renslemøne" />
		<tag k="natural" v="hill" />
		<tag k="place" v="locality" />
		<tag k="ssr:stedsnr" v="249269" />
	</node>
	<node id="-170160" lat="60.666166667" lon="8.975850003">
		<tag k="fixme" v="consider natural=peak for the most distinct mountains in the district" />
		<tag k="name" v="Liaåsen" />
		<tag k="natural" v="hill" />
		<tag k="place" v="locality" />
		<tag k="ssr:stedsnr" v="249246" />
	</node>
	<node id="-170155" lat="60.4756777804" lon="9.16229721336">
		<tag k="name" v="Stormyrhaugen" />
		<tag k="natural" v="hill" />
		<tag k="place" v="locality" />
		<tag k="ssr:stedsnr" v="248280" />
	</node>
	<node id="-170145" lat="60.6080305537" lon="9.22223056004">
		<tag k="name" v="Heimdalen" />
		<tag k="natural" v="valley" />
		<tag k="place" v="locality" />
		<tag k="ssr:stedsnr" v="208463" />
	</node>
	<node id="-170143" lat="60.6374472225" lon="8.94426110245">
		<tag k="fixme" v="consider natural=peak for the most distinct mountains in the district" />
		<tag k="name" v="Svenkerudhøgde" />
		<tag k="natural" v="hill" />
		<tag k="place" v="locality" />
		<tag k="ssr:stedsnr" v="207975" />
	</node>
	<node id="-170140" lat="60.4706749957" lon="9.2182666638">
		<tag k="fixme" v="consider natural=peak for the most distinct mountains in the district" />
		<tag k="name" v="Deighovd" />
		<tag k="natural" v="hill" />
		<tag k="place" v="locality" />
		<tag k="ssr:stedsnr" v="207890" />
	</node>
	<node id="-170136" lat="60.4692611108" lon="9.14487500851">
		<tag k="fixme" v="consider natural=peak for the most distinct mountains in the district" />
		<tag k="name" v="Gråhovda" />
		<tag k="natural" v="hill" />
		<tag k="place" v="locality" />
		<tag k="ssr:stedsnr" v="207697" />
	</node>
	<node id="-170128" lat="60.4665527768" lon="9.21430833038">
		<tag k="name" v="Natteberget" />
		<tag k="natural" v="ridge" />
		<tag k="place" v="locality" />
		<tag k="ssr:stedsnr" v="207564" />
	</node>
	<node id="-170126" lat="60.6305722181" lon="9.2197416723">
		<tag k="name" v="Kalken" />
		<tag k="natural" v="hill" />
		<tag k="place" v="locality" />
		<tag k="ssr:stedsnr" v="207395" />
	</node>
	<node id="-170121" lat="60.5280305527" lon="9.1735638917">
		<tag k="name" v="Juvet" />
		<tag k="natural" v="gorge" />
		<tag k="ssr:stedsnr" v="207174" />
	</node>
	<node id="-170120" lat="60.5301500034" lon="9.15465555449">
		<tag k="name" v="Beiakleive" />
		<tag k="natural" v="slope" />
		<tag k="place" v="locality" />
		<tag k="ssr:stedsnr" v="207166" />
	</node>
	<node id="-170110" lat="60.4837222254" lon="9.19528333554">
		<tag k="name" v="Søgardsnatten" />
		<tag k="natural" v="hill" />
		<tag k="place" v="locality" />
		<tag k="ssr:stedsnr" v="206727" />
	</node>
	<node id="-170108" lat="60.4448999955" lon="9.10475833343">
		<tag k="name" v="Sjåhaug" />
		<tag k="natural" v="hill" />
		<tag k="place" v="locality" />
		<tag k="ssr:stedsnr" v="206477" />
	</node>
	<node id="-170107" lat="60.5333722209" lon="9.29667222211">
		<tag k="fixme" v="consider natural=peak for the most distinct mountains in the district" />
		<tag k="name" v="Svartetjernåsen" />
		<tag k="natural" v="hill" />
		<tag k="place" v="locality" />
		<tag k="ssr:stedsnr" v="206224" />
	</node>
	<node id="-170106" lat="60.5260250039" lon="9.30899721616">
		<tag k="name" v="Osetjernhaugen" />
		<tag k="natural" v="hill" />
		<tag k="place" v="locality" />
		<tag k="ssr:stedsnr" v="206218" />
	</node>
	<node id="-170102" lat="60.5786194463" lon="9.22066943717">
		<tag k="fixme" v="consider natural=peak for the most distinct mountains in the district" />
		<tag k="name" v="Tohovda" />
		<tag k="natural" v="hill" />
		<tag k="place" v="locality" />
		<tag k="ssr:stedsnr" v="189794" />
	</node>
	<node id="-170100" lat="60.5104777778" lon="9.30850554799">
		<tag k="fixme" v="consider natural=peak for the most distinct mountains in the district" />
		<tag k="name" v="Vardefjell" />
		<tag k="natural" v="hill" />
		<tag k="place" v="locality" />
		<tag k="ssr:stedsnr" v="189760" />
	</node>
	<node id="-170099" lat="60.5123305556" lon="9.27419722663">
		<tag k="fixme" v="consider natural=peak for the most distinct mountains in the district" />
		<tag k="name" v="Mørkedalsåsen" />
		<tag k="natural" v="hill" />
		<tag k="place" v="locality" />
		<tag k="ssr:stedsnr" v="189757" />
	</node>
	<node id="-170097" lat="60.5232388923" lon="9.23772778271">
		<tag k="fixme" v="consider natural=peak for the most distinct mountains in the district" />
		<tag k="name" v="Dugurdshovda" />
		<tag k="natural" v="hill" />
		<tag k="place" v="locality" />
		<tag k="ssr:stedsnr" v="189722" />
	</node>
	<node id="-170096" lat="60.6034630705" lon="9.29934339219">
		<tag k="fixme" v="consider natural=peak for the most distinct mountains in the district" />
		<tag k="name" v="Veslefjell" />
		<tag k="natural" v="hill" />
		<tag k="place" v="locality" />
		<tag k="ssr:stedsnr" v="189623" />
	</node>
	<node id="-170094" lat="60.5255305561" lon="8.98733611938">
		<tag k="name" v="Lauvhøgde" />
		<tag k="natural" v="hill" />
		<tag k="place" v="locality" />
		<tag k="ssr:stedsnr" v="189581" />
	</node>
	<node id="-170091" lat="60.5458111121" lon="9.02535554972">
		<tag k="name" v="Klovsteindalen" />
		<tag k="natural" v="valley" />
		<tag k="place" v="locality" />
		<tag k="ssr:stedsnr" v="189555" />
	</node>
	<node id="-170088" lat="60.5347638897" lon="9.08038054722">
		<tag k="fixme" v="multiple name tags, choose one and add the other to alt_name" />
		<tag k="name" v="Grånatten;Sjåfunatten" />
		<tag k="natural" v="hill" />
		<tag k="place" v="locality" />
		<tag k="ssr:stedsnr" v="189536" />
	</node>
	<node id="-170082" lat="60.640747219" lon="8.93622777115">
		<tag k="name" v="Storeskarddalen" />
		<tag k="natural" v="valley" />
		<tag k="place" v="locality" />
		<tag k="ssr:stedsnr" v="189448" />
	</node>
	<node id="-170081" lat="60.602094447" lon="8.95734445039">
		<tag k="fixme" v="consider natural=peak for the most distinct mountains in the district" />
		<tag k="name" v="Sandanåsen" />
		<tag k="natural" v="hill" />
		<tag k="place" v="locality" />
		<tag k="ssr:stedsnr" v="189439" />
	</node>
	<node id="-170069" lat="60.5679555574" lon="8.71401943705">
		<tag k="fixme" v="consider natural=peak for the most distinct mountains in the district" />
		<tag k="name" v="Vesle Dyna" />
		<tag k="natural" v="hill" />
		<tag k="place" v="locality" />
		<tag k="ssr:stedsnr" v="189003" />
	</node>
	<node id="-170065" lat="60.4281472256" lon="9.04596110699">
		<tag k="fixme" v="consider natural=peak for the most distinct mountains in the district" />
		<tag k="name" v="Hallingnatten" />
		<tag k="natural" v="hill" />
		<tag k="place" v="locality" />
		<tag k="ssr:stedsnr" v="188340" />
	</node>
	<node id="-170064" lat="60.491469442" lon="9.23135278656">
		<tag k="name" v="Geitsundlie" />
		<tag k="natural" v="slope" />
		<tag k="place" v="locality" />
		<tag k="ssr:stedsnr" v="188332" />
	</node>
	<node id="-170063" lat="60.4987694456" lon="9.24376944826">
		<tag k="fixme" v="consider natural=peak for the most distinct mountains in the district" />
		<tag k="name" v="Nyseternatten" />
		<tag k="natural" v="hill" />
		<tag k="place" v="locality" />
		<tag k="ssr:stedsnr" v="188331" />
	</node>
	<node id="-170060" lat="60.4634472221" lon="9.08708055534">
		<tag k="name" v="Vadlie" />
		<tag k="natural" v="slope" />
		<tag k="place" v="locality" />
		<tag k="ssr:stedsnr" v="188307" />
	</node>
	<node id="-170054" lat="60.4970527778" lon="9.17716110454">
		<tag k="name" v="Purkeberget" />
		<tag k="natural" v="ridge" />
		<tag k="place" v="locality" />
		<tag k="ssr:stedsnr" v="268729" />
	</node>
	<node id="-170053" lat="60.4643416709" lon="9.13905277776">
		<tag k="name" v="Fjellstøllie" />
		<tag k="natural" v="slope" />
		<tag k="place" v="locality" />
		<tag k="ssr:stedsnr" v="268722" />
	</node>
	<node id="-170048" lat="60.4920027747" lon="9.21222778421">
		<tag k="name" v="Bergahølet" />
		<tag k="natural" v="valley" />
		<tag k="place" v="locality" />
		<tag k="ssr:stedsnr" v="268608" />
	</node>
	<node id="-170042" lat="60.5151499975" lon="9.15045833115">
		<tag k="loc_name" v="Vardan" />
		<tag k="name" v="Valan" />
		<tag k="natural" v="hill" />
		<tag k="place" v="locality" />
		<tag k="ssr:stedsnr" v="146867" />
	</node>
	<node id="-170040" lat="60.5247027758" lon="8.97139445172">
		<tag k="name" v="Sollibrekka" />
		<tag k="natural" v="hill" />
		<tag k="place" v="locality" />
		<tag k="ssr:stedsnr" v="146638" />
	</node>
	<node id="-170038" lat="60.44554167" lon="9.14152499751">
		<tag k="name" v="Skotreberget" />
		<tag k="natural" v="hill" />
		<tag k="place" v="locality" />
		<tag k="ssr:stedsnr" v="146593" />
	</node>
	<node id="-170034" lat="60.5582555537" lon="9.30768888314">
		<tag k="fixme" v="consider natural=peak for the most distinct mountains in the district" />
		<tag k="name" v="Brennfjell" />
		<tag k="natural" v="hill" />
		<tag k="place" v="locality" />
		<tag k="ssr:stedsnr" v="146410" />
	</node>
	<node id="-170027" lat="60.5501694463" lon="9.10185277471">
		<tag k="name" v="Føndalen" />
		<tag k="natural" v="valley" />
		<tag k="place" v="locality" />
		<tag k="ssr:stedsnr" v="146056" />
	</node>
	<node id="-170020" lat="60.4776916673" lon="9.19244444265">
		<tag k="name" v="Toreslette" />
		<tag k="place" v="locality" />
		<tag k="ssr:stedsnr" v="145716" />
	</node>
	<node id="-170015" lat="60.649071553" lon="9.1404959567">
		<tag k="name" v="Mønlie" />
		<tag k="natural" v="slope" />
		<tag k="place" v="locality" />
		<tag k="ssr:stedsnr" v="268482" />
	</node>
	<node id="-170006" lat="60.5254083331" lon="9.26263055989">
		<tag k="fixme" v="consider natural=peak for the most distinct mountains in the district" />
		<tag k="name" v="Tilihovda" />
		<tag k="natural" v="hill" />
		<tag k="place" v="locality" />
		<tag k="ssr:stedsnr" v="128756" />
	</node>
	<node id="-169994" lat="60.5326055559" lon="8.98234167511">
		<tag k="name" v="Sollihøgde" />
		<tag k="natural" v="hill" />
		<tag k="place" v="locality" />
		<tag k="ssr:stedsnr" v="128559" />
	</node>
	<node id="-169993" lat="60.5424472208" lon="8.98499722429">
		<tag k="name" v="Gampehaugen" />
		<tag k="natural" v="hill" />
		<tag k="place" v="locality" />
		<tag k="ssr:stedsnr" v="128558" />
	</node>
	<node id="-169985" lat="60.6255666648" lon="9.03342221325">
		<tag k="name" v="Kvernahushaugen" />
		<tag k="natural" v="hill" />
		<tag k="place" v="locality" />
		<tag k="ssr:stedsnr" v="128473" />
	</node>
</osm>
