<?xml version="1.0" encoding="UTF-8"?>
<osm generator="osmapis" version="0.6">
	<node id="-169982" lat="60.5956638881" lon="8.94944444803">
		<tag k="name" v="Sandantjernan" />
		<tag k="natural" v="water" />
		<tag k="ssr:stedsnr" v="128441" />
	</node>
	<node id="-169978" lat="60.5635722191" lon="8.89245278238">
		<tag k="name" v="Søre Fisketjern" />
		<tag k="natural" v="water" />
		<tag k="ssr:stedsnr" v="128404" />
	</node>
	<node id="-169971" lat="60.5554749991" lon="8.92916667063">
		<tag k="name" v="Damtjernbekken" />
		<tag k="ssr:stedsnr" v="128382" />
		<tag k="waterway" v="stream" />
	</node>
	<node id="-169967" lat="60.5553250038" lon="8.74248333062">
		<tag k="name" v="Svartevatnet" />
		<tag k="natural" v="water" />
		<tag k="ssr:stedsnr" v="128220" />
	</node>
	<node id="-169966" lat="60.5438689126" lon="8.74836574905">
		<tag k="name" v="Holmevatn" />
		<tag k="natural" v="water" />
		<tag k="ssr:stedsnr" v="128210" />
	</node>
	<node id="-169964" lat="60.5774472191" lon="8.77544722375">
		<tag k="name" v="Nedre Belgevatnet" />
		<tag k="natural" v="water" />
		<tag k="ssr:stedsnr" v="128016" />
		<tag k="water" v="lake" />
	</node>
	<node id="-169963" lat="60.4816111087" lon="9.28678610885">
		<tag k="name" v="Nørdre Grøndalstjern" />
		<tag k="natural" v="water" />
		<tag k="ssr:stedsnr" v="127351" />
	</node>
	<node id="-169962" lat="60.4427888921" lon="9.19773888137">
		<tag k="name" v="Svangtjern" />
		<tag k="natural" v="water" />
		<tag k="ssr:stedsnr" v="127350" />
	</node>
	<node id="-169947" lat="60.4791222247" lon="9.2899916635">
		<tag k="name" v="Søre Grøndalstjern" />
		<tag k="natural" v="water" />
		<tag k="ssr:stedsnr" v="86893" />
	</node>
	<node id="-169940" lat="60.5997861115" lon="9.26086110737">
		<tag k="name" v="Jutulbekken" />
		<tag k="ssr:stedsnr" v="86478" />
		<tag k="waterway" v="stream" />
	</node>
	<node id="-169937" lat="60.566644448" lon="9.31066666003">
		<tag k="name" v="Raudtjern" />
		<tag k="natural" v="water" />
		<tag k="ssr:stedsnr" v="86462" />
	</node>
	<node id="-169922" lat="60.637772223" lon="8.98574999833">
		<tag k="name" v="Pina" />
		<tag k="ssr:stedsnr" v="85982" />
		<tag k="waterway" v="rapids" />
	</node>
	<node id="-169921" lat="60.5940611143" lon="8.93592500476">
		<tag k="name" v="Langetjern" />
		<tag k="natural" v="water" />
		<tag k="ssr:stedsnr" v="85977" />
	</node>
	<node id="-169911" lat="60.5714583344" lon="9.25344167088">
		<tag k="name" v="Kvitevatnet" />
		<tag k="natural" v="water" />
		<tag k="ssr:stedsnr" v="68830" />
		<tag k="water" v="lake" />
	</node>
	<node id="-169909" lat="60.5173472208" lon="9.26592778118">
		<tag k="name" v="Lauvåsbekken" />
		<tag k="ssr:stedsnr" v="68771" />
		<tag k="waterway" v="stream" />
	</node>
	<node id="-169908" lat="60.6104888917" lon="9.23949999955">
		<tag k="name" v="Krossløken" />
		<tag k="natural" v="water" />
		<tag k="ssr:stedsnr" v="68693" />
	</node>
	<node id="-169902" lat="60.6227611146" lon="9.10212222486">
		<tag k="name" v="Elgtjern" />
		<tag k="natural" v="water" />
		<tag k="ssr:stedsnr" v="68504" />
	</node>
	<node id="-169901" lat="60.6274361116" lon="9.17087499444">
		<tag k="name" v="Fiskebekken" />
		<tag k="ssr:stedsnr" v="68501" />
		<tag k="waterway" v="stream" />
	</node>
	<node id="-169896" lat="60.5933444418" lon="9.2108833276">
		<tag k="name" v="Tverråne" />
		<tag k="ssr:stedsnr" v="68440" />
		<tag k="waterway" v="river" />
	</node>
	<node id="-169891" lat="60.5477055525" lon="8.79087500724">
		<tag k="name" v="Langodden" />
		<tag k="natural" v="strait" />
		<tag k="ssr:stedsnr" v="68238" />
	</node>
	<node id="-169890" lat="60.6174611115" lon="9.27081389684">
		<tag k="name" v="Hellervassbekken" />
		<tag k="ssr:stedsnr" v="68707" />
		<tag k="waterway" v="stream" />
	</node>
	<node id="-169885" lat="60.555786114" lon="9.3264055643">
		<tag k="name" v="Øvre Båtstjern" />
		<tag k="natural" v="water" />
		<tag k="ssr:stedsnr" v="67859" />
	</node>
	<node id="-169883" lat="60.5642555584" lon="9.26896389513">
		<tag k="name" v="Holmetjern" />
		<tag k="natural" v="water" />
		<tag k="ssr:stedsnr" v="67841" />
	</node>
	<node id="-169880" lat="60.5153111072" lon="9.12393332795">
		<tag k="name" v="Påverudtjernet" />
		<tag k="natural" v="water" />
		<tag k="ssr:stedsnr" v="67619" />
	</node>
	<node id="-169878" lat="60.5120388847" lon="8.86727777072">
		<tag k="name" v="Hallingbekken" />
		<tag k="ssr:stedsnr" v="67560" />
		<tag k="waterway" v="stream" />
	</node>
	<node id="-169875" lat="60.501005556" lon="8.88305554947">
		<tag k="name" v="Søre Grårova" />
		<tag k="ssr:stedsnr" v="67541" />
		<tag k="waterway" v="stream" />
	</node>
	<node id="-169874" lat="60.6370833363" lon="9.08710555409">
		<tag k="name" v="Krusetjern" />
		<tag k="natural" v="water" />
		<tag k="ssr:stedsnr" v="67537" />
	</node>
	<node id="-169871" lat="60.5691861076" lon="8.88093054872">
		<tag k="name" v="Nørdre Fisketjern" />
		<tag k="natural" v="water" />
		<tag k="ssr:stedsnr" v="67443" />
	</node>
	<node id="-169870" lat="60.5635145951" lon="8.91027530016">
		<tag k="name" v="Damtjern" />
		<tag k="natural" v="water" />
		<tag k="ssr:stedsnr" v="67442" />
	</node>
	<node id="-169860" lat="60.5844070355" lon="8.78780025822">
		<tag k="name" v="Øystøltjernet" />
		<tag k="natural" v="water" />
		<tag k="ssr:stedsnr" v="67029" />
	</node>
	<node id="-169859" lat="60.5869250006" lon="8.82124722858">
		<tag k="name" v="Preinstjernet" />
		<tag k="natural" v="water" />
		<tag k="ssr:stedsnr" v="67028" />
	</node>
	<node id="-169858" lat="60.5786416631" lon="8.81321111989">
		<tag k="name" v="Langetjernet" />
		<tag k="natural" v="water" />
		<tag k="ssr:stedsnr" v="67003" />
	</node>
	<node id="-169855" lat="60.47320278" lon="8.89621388493">
		<tag k="name" v="Øyvassbekken" />
		<tag k="ssr:stedsnr" v="66273" />
		<tag k="waterway" v="stream" />
	</node>
	<node id="-169847" lat="60.4527083348" lon="8.99401667261">
		<tag k="name" v="Nørdre Småvatn" />
		<tag k="natural" v="water" />
		<tag k="ssr:stedsnr" v="26009" />
	</node>
	<node id="-169835" lat="60.5323805543" lon="9.18143056463">
		<tag k="name" v="Loppetjern" />
		<tag k="natural" v="water" />
		<tag k="ssr:stedsnr" v="25180" />
		<tag k="water" v="pond" />
	</node>
	<node id="-169834" lat="60.5602333365" lon="8.77388333534">
		<tag k="name" v="Vesle Ausa" />
		<tag k="natural" v="water" />
		<tag k="ssr:stedsnr" v="25038" />
	</node>
	<node id="-169828" lat="60.5876416651" lon="8.886119446">
		<tag k="name" v="Storevatnet" />
		<tag k="natural" v="water" />
		<tag k="ssr:stedsnr" v="7895" />
		<tag k="water" v="lake" />
	</node>
	<node id="-169824" lat="60.5770944443" lon="9.37359999575">
		<tag k="name" v="Strøselve" />
		<tag k="ssr:stedsnr" v="7823" />
		<tag k="waterway" v="stream" />
	</node>
	<node id="-169821" lat="60.6989849532" lon="9.31791131767">
		<tag k="name" v="Høvren" />
		<tag k="natural" v="water" />
		<tag k="ssr:stedsnr" v="7686" />
		<tag k="water" v="lake" />
	</node>
	<node id="-169820" lat="60.6137722201" lon="9.40086943864">
		<tag k="name" v="Strøen" />
		<tag k="natural" v="water" />
		<tag k="ssr:stedsnr" v="7662" />
		<tag k="water" v="lake" />
	</node>
	<node id="-169819" lat="60.6083944404" lon="9.33924723095">
		<tag k="name" v="Brenthølvatn" />
		<tag k="natural" v="water" />
		<tag k="ssr:stedsnr" v="7650" />
	</node>
	<node id="-169818" lat="60.6018027773" lon="9.26000000485">
		<tag k="name" v="Baktjernan" />
		<tag k="natural" v="water" />
		<tag k="ssr:stedsnr" v="7648" />
		<tag k="water" v="lake" />
	</node>
	<node id="-169817" lat="60.5973750027" lon="9.336666658">
		<tag k="name" v="Tresteinstjern" />
		<tag k="natural" v="water" />
		<tag k="ssr:stedsnr" v="7644" />
	</node>
	<node id="-169815" lat="60.6486222246" lon="9.35570832513">
		<tag k="name" v="Kroktjern" />
		<tag k="natural" v="water" />
		<tag k="ssr:stedsnr" v="7627" />
	</node>
	<node id="-169812" lat="60.6223228567" lon="9.29260195607">
		<tag k="name" v="Eihellervatnet" />
		<tag k="natural" v="water" />
		<tag k="ssr:stedsnr" v="7608" />
		<tag k="water" v="lake" />
	</node>
	<node id="-169808" lat="60.536638891" lon="9.10826944372">
		<tag k="name" v="Leirtjern" />
		<tag k="natural" v="water" />
		<tag k="ssr:stedsnr" v="7566" />
	</node>
	<node id="-169803" lat="60.502105552" lon="8.92914443653">
		<tag k="name" v="Driftevasstjern" />
		<tag k="natural" v="water" />
		<tag k="ssr:stedsnr" v="7490" />
	</node>
	<node id="-169792" lat="60.505833335" lon="8.74038611978">
		<tag k="name" v="Nedre Skurven" />
		<tag k="natural" v="water" />
		<tag k="ssr:stedsnr" v="7201" />
	</node>
	<node id="-169791" lat="60.5065861149" lon="8.77160277963">
		<tag k="name" v="Stor-Lyseren" />
		<tag k="natural" v="water" />
		<tag k="ssr:stedsnr" v="7198" />
		<tag k="water" v="lake" />
	</node>
	<node id="-169790" lat="60.6045305533" lon="8.84231944731">
		<tag k="name" v="Breivasstjernan" />
		<tag k="natural" v="water" />
		<tag k="ssr:stedsnr" v="7081" />
		<tag k="water" v="lake" />
	</node>
	<node id="-169787" lat="60.5643122436" lon="9.34927835443">
		<tag k="name" v="Buvatnet" />
		<tag k="natural" v="water" />
		<tag k="ssr:stedsnr" v="6849" />
		<tag k="water" v="lake" />
	</node>
	<node id="-169785" lat="60.4335138883" lon="9.06515278318">
		<tag k="name" v="Øyvatnet" />
		<tag k="natural" v="water" />
		<tag k="ssr:stedsnr" v="6612" />
		<tag k="water" v="lake" />
	</node>
	<node id="-169784" lat="60.6121624671" lon="9.3281146471">
		<tag k="name" v="Jakobstjern" />
		<tag k="natural" v="water" />
		<tag k="ssr:stedsnr" v="6443" />
	</node>
	<node id="-169783" lat="60.4169972257" lon="9.15438888937">
		<tag k="name" v="Nørdringsbekken" />
		<tag k="ssr:stedsnr" v="6353" />
		<tag k="waterway" v="stream" />
	</node>
	<node id="-169780" lat="60.4521861107" lon="9.15438611748">
		<tag k="name" v="Svartetjern" />
		<tag k="natural" v="water" />
		<tag k="ssr:stedsnr" v="6320" />
	</node>
	<node id="-169777" lat="60.4628735066" lon="9.13072027615">
		<tag k="name" v="Store Rustadvatn" />
		<tag k="natural" v="water" />
		<tag k="ssr:stedsnr" v="6302" />
		<tag k="water" v="lake" />
	</node>
	<node id="-169770" lat="60.496205557" lon="8.8652250032">
		<tag k="name" v="Synstevatn" />
		<tag k="natural" v="water" />
		<tag k="ssr:stedsnr" v="6271" />
		<tag k="water" v="lake" />
	</node>
	<node id="-169769" lat="60.4891027737" lon="8.84540277487">
		<tag k="name" v="Buvasselve" />
		<tag k="ssr:stedsnr" v="6270" />
		<tag k="waterway" v="river" />
	</node>
	<node id="-169767" lat="60.667819447" lon="8.97138056211">
		<tag k="name" v="Smedtjernan" />
		<tag k="natural" v="water" />
		<tag k="ssr:stedsnr" v="6264" />
	</node>
	<node id="-169766" lat="60.4954749999" lon="8.95668054863">
		<tag k="name" v="Øvre Båtstjern" />
		<tag k="natural" v="water" />
		<tag k="old_name" v="øv Baatstj" />
		<tag k="ssr:stedsnr" v="6262" />
	</node>
	<node id="-169763" lat="60.5822916681" lon="8.77092500852">
		<tag k="name" v="Mjåsundet" />
		<tag k="natural" v="strait" />
		<tag k="ssr:stedsnr" v="6026" />
	</node>
	<node id="-169729" lat="60.4794611108" lon="9.23858888032">
		<tag k="name" v="Mobekken" />
		<tag k="ssr:stedsnr" v="389619" />
		<tag k="waterway" v="stream" />
	</node>
	<node id="-169715" lat="60.5183555582" lon="8.69738888425">
		<tag k="name" v="Såtenattjernan" />
		<tag k="natural" v="water" />
		<tag k="ssr:stedsnr" v="390421" />
		<tag k="water" v="lake" />
	</node>
	<node id="-169708" lat="60.5020499969" lon="9.2232749932">
		<tag k="name" v="Svartetjern" />
		<tag k="natural" v="water" />
		<tag k="ssr:stedsnr" v="389505" />
	</node>
	<node id="-169707" lat="60.5245555514" lon="9.26468333484">
		<tag k="name" v="Tilihovdtjern" />
		<tag k="natural" v="water" />
		<tag k="ssr:stedsnr" v="389498" />
	</node>
	<node id="-169706" lat="60.5962805574" lon="9.23233055565">
		<tag k="name" v="Brøtsetdammen" />
		<tag k="ssr:stedsnr" v="389484" />
		<tag k="waterway" v="dam" />
	</node>
	<node id="-169705" lat="60.5591388902" lon="9.25349445038">
		<tag k="name" v="Raudbekk" />
		<tag k="ssr:stedsnr" v="389477" />
		<tag k="waterway" v="stream" />
	</node>
	<node id="-169692" lat="60.5408249969" lon="9.17704444449">
		<tag k="name" v="Loppetjern" />
		<tag k="natural" v="water" />
		<tag k="ssr:stedsnr" v="388950" />
	</node>
	<node id="-169690" lat="60.4712416697" lon="8.94947221705">
		<tag k="name" v="Åkerfjellvatn" />
		<tag k="natural" v="water" />
		<tag k="ssr:stedsnr" v="388859" />
		<tag k="water" v="lake" />
	</node>
	<node id="-169676" lat="60.5090083373" lon="8.73590556443">
		<tag k="name" v="Langevatnet" />
		<tag k="natural" v="water" />
		<tag k="ssr:stedsnr" v="371906" />
	</node>
	<node id="-169674" lat="60.5459596574" lon="9.29047716368">
		<tag k="name" v="Kroksettjernan" />
		<tag k="natural" v="water" />
		<tag k="ssr:stedsnr" v="371855" />
		<tag k="water" v="lake" />
	</node>
	<node id="-169673" lat="60.5810916645" lon="9.23506944687">
		<tag k="name" v="Steintjernan" />
		<tag k="natural" v="water" />
		<tag k="ssr:stedsnr" v="371822" />
	</node>
	<node id="-169671" lat="60.6152777756" lon="9.29507499741">
		<tag k="name" v="Hellervatnet" />
		<tag k="natural" v="water" />
		<tag k="ssr:stedsnr" v="371689" />
	</node>
	<node id="-169668" lat="60.6263388902" lon="9.36458332825">
		<tag k="name" v="Svartevikje" />
		<tag k="natural" v="bay" />
		<tag k="ssr:stedsnr" v="371621" />
	</node>
	<node id="-169664" lat="60.5380370301" lon="9.01525160264">
		<tag k="alt_name" v="Øynantjernet" />
		<tag k="name" v="Einetjern" />
		<tag k="natural" v="water" />
		<tag k="ssr:stedsnr" v="371556" />
	</node>
	<node id="-169660" lat="60.5119027741" lon="8.93950833893">
		<tag k="name" v="Storhalltjernet" />
		<tag k="natural" v="water" />
		<tag k="ssr:stedsnr" v="371502" />
	</node>
	<node id="-169659" lat="60.5080444405" lon="9.08177223006">
		<tag k="name" v="Skardtjern" />
		<tag k="natural" v="water" />
		<tag k="ssr:stedsnr" v="371501" />
	</node>
	<node id="-169656" lat="60.6231444462" lon="8.85103888029">
		<tag k="name" v="Trytetjern" />
		<tag k="natural" v="water" />
		<tag k="ssr:stedsnr" v="371477" />
	</node>
	<node id="-169655" lat="60.630494442" lon="8.90874166655">
		<tag k="name" v="Oddetjern" />
		<tag k="natural" v="water" />
		<tag k="ssr:stedsnr" v="371474" />
	</node>
	<node id="-169654" lat="60.6213666647" lon="9.0208833375">
		<tag k="name" v="Brabantbekken" />
		<tag k="ssr:stedsnr" v="371471" />
		<tag k="waterway" v="stream" />
	</node>
	<node id="-169651" lat="60.6413694469" lon="9.19875834248">
		<tag k="name" v="Fjellsettjern" />
		<tag k="natural" v="water" />
		<tag k="ssr:stedsnr" v="371454" />
	</node>
	<node id="-169646" lat="60.5998555596" lon="9.08340000367">
		<tag k="name" v="Rudsøyne" />
		<tag k="place" v="island" />
		<tag k="ssr:stedsnr" v="371436" />
	</node>
	<node id="-169638" lat="60.5653361144" lon="8.79606665939">
		<tag k="name" v="Lomtjern" />
		<tag k="natural" v="water" />
		<tag k="ssr:stedsnr" v="371011" />
	</node>
	<node id="-169637" lat="60.6566111118" lon="9.30458055548">
		<tag k="name" v="Buvatnet" />
		<tag k="natural" v="water" />
		<tag k="ssr:stedsnr" v="370732" />
		<tag k="water" v="lake" />
	</node>
	<node id="-169633" lat="60.5152083323" lon="8.90288056168">
		<tag k="name" v="Markåne" />
		<tag k="ssr:stedsnr" v="370613" />
		<tag k="waterway" v="river" />
	</node>
	<node id="-169632" lat="60.4672409528" lon="8.90991495374">
		<tag k="name" v="Øyvatn" />
		<tag k="natural" v="water" />
		<tag k="old_name" v="Store Øyvatnet;Stor-Øyvatn" />
		<tag k="ssr:stedsnr" v="370606" />
		<tag k="water" v="lake" />
	</node>
	<node id="-169627" lat="60.5616888904" lon="8.86209722952">
		<tag k="name" v="Belgefetløken" />
		<tag k="place" v="locality" />
		<tag k="ssr:stedsnr" v="370470" />
	</node>
	<node id="-169620" lat="60.6607916654" lon="9.19046110748">
		<tag k="name" v="Hallgrimstjernan" />
		<tag k="natural" v="water" />
		<tag k="ssr:stedsnr" v="370314" />
	</node>
	<node id="-169617" lat="60.5030700383" lon="8.7338263201">
		<tag k="name" v="Kløvsteinstjernet" />
		<tag k="natural" v="water" />
		<tag k="ssr:stedsnr" v="370226" />
	</node>
	<node id="-169614" lat="60.4718500009" lon="9.00193610585">
		<tag k="name" v="Brynhildstjern" />
		<tag k="natural" v="water" />
		<tag k="ssr:stedsnr" v="369281" />
	</node>
	<node id="-169613" lat="60.4730527752" lon="9.12159721359">
		<tag k="name" v="Høgfjelltjern" />
		<tag k="natural" v="water" />
		<tag k="ssr:stedsnr" v="369282" />
	</node>
	<node id="-169612" lat="60.4744805543" lon="8.97236666812">
		<tag k="name" v="Øyvatn" />
		<tag k="natural" v="water" />
		<tag k="ssr:stedsnr" v="369280" />
		<tag k="water" v="lake" />
	</node>
	<node id="-169604" lat="60.4454611152" lon="9.1634333346">
		<tag k="name" v="Raubekk" />
		<tag k="ssr:stedsnr" v="329499" />
		<tag k="waterway" v="stream" />
	</node>
	<node id="-169602" lat="60.4830694413" lon="9.19213054801">
		<tag k="name" v="Åltonbekken" />
		<tag k="ssr:stedsnr" v="329495" />
		<tag k="waterway" v="stream" />
	</node>
	<node id="-169597" lat="60.5303138863" lon="9.16682499339">
		<tag k="name" v="Liasanden" />
		<tag k="natural" v="beach" />
		<tag k="ssr:stedsnr" v="329193" />
	</node>
	<node id="-169595" lat="60.4650000033" lon="9.00682500373">
		<tag k="name" v="Gamlevollstjern" />
		<tag k="natural" v="water" />
		<tag k="ssr:stedsnr" v="329064" />
	</node>
	<node id="-169593" lat="60.6559083377" lon="8.88754999654">
		<tag k="name" v="Ivarslitjern" />
		<tag k="natural" v="water" />
		<tag k="ssr:stedsnr" v="328977" />
	</node>
	<node id="-169578" lat="60.5332388884" lon="9.22893888548">
		<tag k="name" v="Liabergvatnet" />
		<tag k="natural" v="water" />
		<tag k="ssr:stedsnr" v="328421" />
	</node>
	<node id="-169577" lat="60.4231611138" lon="9.06699166127">
		<tag k="name" v="Svareleintjern" />
		<tag k="natural" v="water" />
		<tag k="ssr:stedsnr" v="328270" />
	</node>
	<node id="-169575" lat="60.5750027791" lon="9.19385556324">
		<tag k="name" v="Svinebekken" />
		<tag k="ssr:stedsnr" v="328206" />
		<tag k="waterway" v="stream" />
	</node>
	<node id="-169574" lat="60.5080141174" lon="8.74411159208">
		<tag k="name" v="Øvre Skurven" />
		<tag k="natural" v="water" />
		<tag k="ssr:stedsnr" v="328178" />
	</node>
	<node id="-169571" lat="60.5456638885" lon="9.31170556282">
		<tag k="name" v="Blåfjelltjern" />
		<tag k="natural" v="water" />
		<tag k="ssr:stedsnr" v="327926" />
	</node>
	<node id="-169568" lat="60.5304861113" lon="9.29992500453">
		<tag k="name" v="Osetjerndipilen" />
		<tag k="natural" v="water" />
		<tag k="ssr:stedsnr" v="327220" />
	</node>
	<node id="-169567" lat="60.514191665" lon="9.31876667398">
		<tag k="name" v="Gylta" />
		<tag k="natural" v="cape" />
		<tag k="ssr:stedsnr" v="327185" />
	</node>
	<node id="-169560" lat="60.5558000012" lon="9.33581667547">
		<tag k="name" v="Nedre Båtstjern" />
		<tag k="natural" v="water" />
		<tag k="ssr:stedsnr" v="310849" />
	</node>
	<node id="-169559" lat="60.5545472185" lon="9.29566943701">
		<tag k="name" v="Lusvatn" />
		<tag k="natural" v="water" />
		<tag k="ssr:stedsnr" v="310846" />
	</node>
	<node id="-169556" lat="60.5220083307" lon="9.22631388369">
		<tag k="name" v="Heimtjern" />
		<tag k="natural" v="water" />
		<tag k="ssr:stedsnr" v="310767" />
	</node>
	<node id="-169555" lat="60.5257805589" lon="9.22040276962">
		<tag k="name" v="Oddevatn" />
		<tag k="natural" v="water" />
		<tag k="ssr:stedsnr" v="310756" />
	</node>
	<node id="-169554" lat="60.6722444478" lon="9.33113333989">
		<tag k="name" v="Øvre Alketjern" />
		<tag k="natural" v="water" />
		<tag k="ssr:stedsnr" v="310750" />
	</node>
	<node id="-169551" lat="60.6823722264" lon="9.24732221708">
		<tag k="name" v="Bekkjesettjern" />
		<tag k="natural" v="water" />
		<tag k="ssr:stedsnr" v="310704" />
	</node>
	<node id="-169550" lat="60.6007611108" lon="9.25159167476">
		<tag k="name" v="Grønhovdtjern" />
		<tag k="natural" v="water" />
		<tag k="ssr:stedsnr" v="310674" />
	</node>
	<node id="-169542" lat="60.510725003" lon="8.97394167456">
		<tag k="name" v="Nølegmanntjernet" />
		<tag k="natural" v="water" />
		<tag k="ssr:stedsnr" v="310531" />
	</node>
	<node id="-169541" lat="60.4979416647" lon="9.09335556119">
		<tag k="name" v="Fetjaåne" />
		<tag k="ssr:stedsnr" v="310511" />
		<tag k="waterway" v="stream" />
	</node>
	<node id="-169536" lat="60.5948194478" lon="9.14749722491">
		<tag k="name" v="Blekketjern" />
		<tag k="natural" v="water" />
		<tag k="ssr:stedsnr" v="310474" />
	</node>
	<node id="-169529" lat="60.5753277747" lon="9.1551444459">
		<tag k="name" v="Trytetjern" />
		<tag k="natural" v="water" />
		<tag k="ssr:stedsnr" v="310435" />
	</node>
	<node id="-169527" lat="60.5798111134" lon="8.92171111231">
		<tag k="name" v="Kistetjern" />
		<tag k="natural" v="water" />
		<tag k="ssr:stedsnr" v="310427" />
	</node>
	<node id="-169525" lat="60.5880666668" lon="8.92711388177">
		<tag k="name" v="Svartevatn" />
		<tag k="natural" v="water" />
		<tag k="ssr:stedsnr" v="310424" />
	</node>
	<node id="-169524" lat="60.5848169648" lon="9.03487360744">
		<tag k="name" v="Busketjern" />
		<tag k="natural" v="water" />
		<tag k="ssr:stedsnr" v="310419" />
	</node>
	<node id="-169519" lat="60.553009239" lon="8.79950174192">
		<tag k="alt_name" v="Skårsrudvatnet" />
		<tag k="name" v="Skålsrudvatnet" />
		<tag k="natural" v="water" />
		<tag k="old_name" v="Skaarsrudvatnet;Skaalsrud Vand" />
		<tag k="ssr:stedsnr" v="310230" />
		<tag k="water" v="lake" />
	</node>
	<node id="-169518" lat="60.5448388899" lon="8.80246665834">
		<tag k="name" v="Smedstjernan" />
		<tag k="natural" v="water" />
		<tag k="ssr:stedsnr" v="310216" />
	</node>
	<node id="-169515" lat="60.5315638916" lon="8.81666944225">
		<tag k="name" v="Mykingsjøen" />
		<tag k="natural" v="water" />
		<tag k="ssr:stedsnr" v="310202" />
		<tag k="water" v="lake" />
	</node>
	<node id="-169514" lat="60.5869388849" lon="8.7963888871">
		<tag k="name" v="Hamartjernet" />
		<tag k="natural" v="water" />
		<tag k="ssr:stedsnr" v="310044" />
	</node>
	<node id="-169513" lat="60.4246500777" lon="9.0260377924">
		<tag k="name" v="Hundevatne" />
		<tag k="natural" v="water" />
		<tag k="ssr:stedsnr" v="309375" />
		<tag k="water" v="lake" />
	</node>
	<node id="-169511" lat="60.4419601774" lon="9.12638852144">
		<tag k="name" v="Langevatn" />
		<tag k="natural" v="water" />
		<tag k="ssr:stedsnr" v="309366" />
		<tag k="water" v="lake" />
	</node>
	<node id="-169510" lat="60.4342777805" lon="9.07976110298">
		<tag k="name" v="Søre Rantetjern" />
		<tag k="natural" v="water" />
		<tag k="ssr:stedsnr" v="309359" />
	</node>
	<node id="-169509" lat="60.4412390065" lon="9.05777895001">
		<tag k="name" v="Haglevatnet" />
		<tag k="natural" v="water" />
		<tag k="ssr:stedsnr" v="309357" />
		<tag k="water" v="lake" />
	</node>
	<node id="-169508" lat="60.4937000031" lon="9.28672500807">
		<tag k="name" v="Syningstjern" />
		<tag k="natural" v="water" />
		<tag k="ssr:stedsnr" v="309353" />
	</node>
	<node id="-171120" lat="60.4511805587" lon="9.17381666312">
		<tag k="name" v="Bugsvingen" />
		<tag k="natural" v="shoal" />
		<tag k="place" v="locality" />
		<tag k="ssr:stedsnr" v="936499" />
	</node>
	<node id="-171119" lat="60.6153166701" lon="9.22247222807">
		<tag k="name" v="Nedre Bekkedalstjern" />
		<tag k="natural" v="water" />
		<tag k="ssr:stedsnr" v="936433" />
	</node>
	<node id="-171117" lat="60.6311000041" lon="9.03273055946">
		<tag k="name" v="Brabantbekken" />
		<tag k="ssr:stedsnr" v="935855" />
		<tag k="waterway" v="stream" />
	</node>
	<node id="-171115" lat="60.6440666704" lon="9.0535333389">
		<tag k="name" v="Hallifossen" />
		<tag k="natural" v="waterfall" />
		<tag k="ssr:stedsnr" v="935849" />
	</node>
	<node id="-171113" lat="60.6025305531" lon="8.91843333519">
		<tag k="name" v="Vesleausa" />
		<tag k="natural" v="water" />
		<tag k="ssr:stedsnr" v="935808" />
	</node>
	<node id="-171112" lat="60.5528444483" lon="9.30233888733">
		<tag k="name" v="Vesle Ausa" />
		<tag k="natural" v="water" />
		<tag k="ssr:stedsnr" v="935472" />
		<tag k="water" v="pond" />
	</node>
	<node id="-171095" lat="60.5898138845" lon="9.31829443795">
		<tag k="name" v="Søre Fjellvatn" />
		<tag k="natural" v="water" />
		<tag k="ssr:stedsnr" v="917808" />
	</node>
	<node id="-171092" lat="60.5268361116" lon="9.22880833357">
		<tag k="name" v="Svartetjern" />
		<tag k="natural" v="water" />
		<tag k="ssr:stedsnr" v="917741" />
	</node>
	<node id="-171087" lat="60.6426194408" lon="9.363744443">
		<tag k="name" v="Vangstjern" />
		<tag k="natural" v="water" />
		<tag k="ssr:stedsnr" v="917626" />
	</node>
	<node id="-171075" lat="60.5034777767" lon="8.87574443949">
		<tag k="name" v="Haglebutjern" />
		<tag k="natural" v="water" />
		<tag k="ssr:stedsnr" v="917505" />
	</node>
	<node id="-171074" lat="60.5055805557" lon="8.8898277839">
		<tag k="name" v="Svarteløken" />
		<tag k="place" v="locality" />
		<tag k="ssr:stedsnr" v="917506" />
	</node>
	<node id="-171073" lat="60.518644447" lon="8.9084861072">
		<tag k="name" v="Nørdre Grårova" />
		<tag k="ssr:stedsnr" v="917496" />
		<tag k="waterway" v="stream" />
	</node>
	<node id="-171072" lat="60.5036527786" lon="9.10837777645">
		<tag k="name" v="Tjernosen" />
		<tag k="natural" v="water" />
		<tag k="ssr:stedsnr" v="917492" />
	</node>
	<node id="-171071" lat="60.5063583338" lon="9.07517778576">
		<tag k="name" v="Mortenstjern" />
		<tag k="natural" v="water" />
		<tag k="ssr:stedsnr" v="917479" />
	</node>
	<node id="-171070" lat="60.6374111067" lon="9.11317777069">
		<tag k="name" v="Langetjern" />
		<tag k="natural" v="water" />
		<tag k="ssr:stedsnr" v="917476" />
	</node>
	<node id="-171069" lat="60.6298305576" lon="8.9812916709">
		<tag k="name" v="Nonshaugbekken" />
		<tag k="ssr:stedsnr" v="917470" />
		<tag k="waterway" v="stream" />
	</node>
	<node id="-171062" lat="60.5887166703" lon="9.20718888427">
		<tag k="name" v="Svinetjernet" />
		<tag k="natural" v="water" />
		<tag k="ssr:stedsnr" v="917378" />
	</node>
	<node id="-171059" lat="60.5867444446" lon="8.97658056223">
		<tag k="name" v="Trytetjern" />
		<tag k="natural" v="water" />
		<tag k="ssr:stedsnr" v="917373" />
	</node>
	<node id="-171057" lat="60.5584027793" lon="8.98838334023">
		<tag k="name" v="Ismannhølen" />
		<tag k="place" v="locality" />
		<tag k="ssr:stedsnr" v="917365" />
	</node>
	<node id="-171054" lat="60.6441555546" lon="8.98510278245">
		<tag k="name" v="Flatdalselve" />
		<tag k="ssr:stedsnr" v="917245" />
		<tag k="waterway" v="river" />
	</node>
	<node id="-171053" lat="60.6481570094" lon="8.91761989503">
		<tag k="name" v="Storevatn" />
		<tag k="natural" v="water" />
		<tag k="ssr:stedsnr" v="917243" />
		<tag k="water" v="lake" />
	</node>
	<node id="-171047" lat="60.5130750016" lon="8.77956943537">
		<tag k="name" v="Vardevatn" />
		<tag k="natural" v="water" />
		<tag k="ssr:stedsnr" v="917157" />
	</node>
	<node id="-171044" lat="60.4509138895" lon="9.10812499849">
		<tag k="name" v="Lauvtangen" />
		<tag k="natural" v="cape" />
		<tag k="ssr:stedsnr" v="916349" />
	</node>
	<node id="-171043" lat="60.434347218" lon="9.09433888547">
		<tag k="name" v="Trulseåne" />
		<tag k="ssr:stedsnr" v="916346" />
		<tag k="waterway" v="stream" />
	</node>
	<node id="-171036" lat="60.4991999963" lon="8.79209999743">
		<tag k="name" v="Mellom-Lyseren" />
		<tag k="natural" v="water" />
		<tag k="ssr:stedsnr" v="916041" />
	</node>
	<node id="-171031" lat="60.6072138885" lon="9.12544166389">
		<tag k="name" v="Vinkeltjern" />
		<tag k="natural" v="water" />
		<tag k="ssr:stedsnr" v="876457" />
	</node>
	<node id="-171027" lat="60.4351388886" lon="9.20855277096">
		<tag k="name" v="Nystølfossen" />
		<tag k="natural" v="waterfall" />
		<tag k="ssr:stedsnr" v="875914" />
	</node>
	<node id="-171021" lat="60.5952833302" lon="9.24212222284">
		<tag k="name" v="Brøtsettjern" />
		<tag k="natural" v="water" />
		<tag k="ssr:stedsnr" v="875473" />
	</node>
	<node id="-171020" lat="60.607827778" lon="9.30250556232">
		<tag k="name" v="Elumtjernbekken" />
		<tag k="ssr:stedsnr" v="875471" />
		<tag k="waterway" v="stream" />
	</node>
	<node id="-171019" lat="60.613244441" lon="9.31615554892">
		<tag k="name" v="Kattugletjern" />
		<tag k="natural" v="water" />
		<tag k="ssr:stedsnr" v="875446" />
	</node>
	<node id="-171018" lat="60.6185722219" lon="9.21703889701">
		<tag k="name" v="Nedre Skjegletjern" />
		<tag k="natural" v="water" />
		<tag k="ssr:stedsnr" v="875427" />
	</node>
	<node id="-171012" lat="60.5837111141" lon="9.09677222607">
		<tag k="name" v="Kavringen" />
		<tag k="place" v="islet" />
		<tag k="ssr:stedsnr" v="875084" />
	</node>
	<node id="-171010" lat="60.509533827" lon="9.26371386103">
		<tag k="name" v="Knutshøltjern" />
		<tag k="natural" v="water" />
		<tag k="ssr:stedsnr" v="874983" />
	</node>
	<node id="-170996" lat="60.5373277772" lon="8.79765832687">
		<tag k="name" v="Raudbekk" />
		<tag k="ssr:stedsnr" v="874208" />
		<tag k="waterway" v="stream" />
	</node>
	<node id="-170995" lat="60.5337444479" lon="8.84868889343">
		<tag k="name" v="Fjerdingsbekk" />
		<tag k="ssr:stedsnr" v="874206" />
		<tag k="waterway" v="stream" />
	</node>
	<node id="-170994" lat="60.5335833289" lon="8.80476945112">
		<tag k="name" v="Hurrahaugtjern" />
		<tag k="natural" v="water" />
		<tag k="ssr:stedsnr" v="874199" />
	</node>
	<node id="-170988" lat="60.5724111076" lon="9.32538333672">
		<tag k="name" v="Sandvatn" />
		<tag k="natural" v="water" />
		<tag k="ssr:stedsnr" v="857824" />
		<tag k="water" v="lake" />
	</node>
	<node id="-170985" lat="60.514297224" lon="9.22956111861">
		<tag k="name" v="Bekretjern" />
		<tag k="natural" v="water" />
		<tag k="ssr:stedsnr" v="857778" />
	</node>
	<node id="-170984" lat="60.5219805512" lon="9.24793334165">
		<tag k="name" v="Heimstølbekken" />
		<tag k="ssr:stedsnr" v="857775" />
		<tag k="waterway" v="stream" />
	</node>
	<node id="-170983" lat="60.6970194453" lon="9.30256111067">
		<tag k="name" v="Bjørnavikje" />
		<tag k="natural" v="bay" />
		<tag k="ssr:stedsnr" v="857730" />
	</node>
	<node id="-170982" lat="60.5979666643" lon="9.26115555442">
		<tag k="name" v="Torgeirtjern" />
		<tag k="natural" v="water" />
		<tag k="ssr:stedsnr" v="857664" />
	</node>
	<node id="-170981" lat="60.5290027759" lon="8.87708610863">
		<tag k="name" v="Fossfossen" />
		<tag k="natural" v="waterfall" />
		<tag k="ssr:stedsnr" v="857614" />
	</node>
	<node id="-170978" lat="60.6239972253" lon="9.12160833046">
		<tag k="name" v="Nørdre Todalsvatnet" />
		<tag k="natural" v="water" />
		<tag k="ssr:stedsnr" v="857495" />
	</node>
	<node id="-170975" lat="60.5976666648" lon="9.00392500743">
		<tag k="name" v="Trytetjernan" />
		<tag k="natural" v="water" />
		<tag k="ssr:stedsnr" v="857464" />
		<tag k="water" v="lake" />
	</node>
	<node id="-170974" lat="60.6069000013" lon="9.20502777157">
		<tag k="name" v="Øvre Stalltjern" />
		<tag k="natural" v="water" />
		<tag k="ssr:stedsnr" v="857460" />
	</node>
	<node id="-170973" lat="60.6186444465" lon="8.87721944445">
		<tag k="name" v="Synneivsettjernan" />
		<tag k="natural" v="water" />
		<tag k="ssr:stedsnr" v="857459" />
		<tag k="water" v="lake" />
	</node>
	<node id="-170971" lat="60.540366671" lon="8.72069444674">
		<tag k="name" v="Smalvatnet" />
		<tag k="natural" v="water" />
		<tag k="ssr:stedsnr" v="857250" />
	</node>
	<node id="-170970" lat="60.5159750031" lon="8.77833055633">
		<tag k="name" v="Hitestrupan" />
		<tag k="place" v="locality" />
		<tag k="ssr:stedsnr" v="857224" />
	</node>
	<node id="-170961" lat="60.5627111138" lon="9.23076111103">
		<tag k="name" v="Hestebekken" />
		<tag k="ssr:stedsnr" v="856847" />
		<tag k="waterway" v="stream" />
	</node>
	<node id="-170954" lat="60.6325666697" lon="9.1295111145">
		<tag k="name" v="Juvbekken" />
		<tag k="ssr:stedsnr" v="856535" />
		<tag k="waterway" v="stream" />
	</node>
	<node id="-170943" lat="60.4025361516" lon="9.14193539874">
		<tag k="name" v="Krysskottjern" />
		<tag k="natural" v="water" />
		<tag k="ssr:stedsnr" v="856403" />
	</node>
	<node id="-170939" lat="60.4456361104" lon="9.1514111094">
		<tag k="name" v="Mytetjern" />
		<tag k="natural" v="water" />
		<tag k="ssr:stedsnr" v="856354" />
	</node>
	<node id="-170937" lat="60.4552361074" lon="9.20675277504">
		<tag k="name" v="Svangtjernåne" />
		<tag k="ssr:stedsnr" v="856350" />
		<tag k="waterway" v="river" />
	</node>
	<node id="-170935" lat="60.4535388856" lon="9.15835555588">
		<tag k="name" v="Kimbetjern" />
		<tag k="natural" v="water" />
		<tag k="ssr:stedsnr" v="856333" />
	</node>
	<node id="-170933" lat="60.65060278" lon="8.99961389119">
		<tag k="name" v="Trytetjern" />
		<tag k="natural" v="water" />
		<tag k="ssr:stedsnr" v="856294" />
	</node>
	<node id="-170931" lat="60.5046611134" lon="8.80349444021">
		<tag k="name" v="Vardevatn" />
		<tag k="natural" v="water" />
		<tag k="ssr:stedsnr" v="856196" />
	</node>
	<node id="-170928" lat="60.5666444475" lon="8.81756666624">
		<tag k="name" v="Langevatnet" />
		<tag k="natural" v="water" />
		<tag k="ssr:stedsnr" v="856014" />
		<tag k="water" v="lake" />
	</node>
	<node id="-170927" lat="60.5735500005" lon="8.81114167527">
		<tag k="name" v="Steintjern" />
		<tag k="natural" v="water" />
		<tag k="ssr:stedsnr" v="856003" />
	</node>
	<node id="-170925" lat="60.4976388886" lon="9.24914444961">
		<tag k="name" v="Nysetertjern" />
		<tag k="natural" v="water" />
		<tag k="ssr:stedsnr" v="855302" />
	</node>
	<node id="-170923" lat="60.4777111113" lon="8.92583610896">
		<tag k="name" v="Midtre Grågalttjern" />
		<tag k="natural" v="water" />
		<tag k="ssr:stedsnr" v="855286" />
	</node>
	<node id="-170917" lat="60.4445833377" lon="9.20357778658">
		<tag k="name" v="Vesle Kjeltjern" />
		<tag k="natural" v="water" />
		<tag k="ssr:stedsnr" v="814933" />
	</node>
	<node id="-170909" lat="60.4909249993" lon="9.03451666207">
		<tag k="name" v="Sølvbergbekken" />
		<tag k="ssr:stedsnr" v="814711" />
		<tag k="waterway" v="stream" />
	</node>
	<node id="-170908" lat="60.4874166667" lon="9.22076944147">
		<tag k="name" v="Mortensodden" />
		<tag k="natural" v="cape" />
		<tag k="ssr:stedsnr" v="814627" />
	</node>
	<node id="-170905" lat="60.5516527736" lon="9.24957778066">
		<tag k="name" v="Krokløken" />
		<tag k="ssr:stedsnr" v="814483" />
		<tag k="waterway" v="stream" />
	</node>
	<node id="-170904" lat="60.5559666652" lon="9.27191110966">
		<tag k="name" v="Venelitjern" />
		<tag k="natural" v="water" />
		<tag k="ssr:stedsnr" v="814479" />
	</node>
	<node id="-170883" lat="60.4705916666" lon="9.24025277666">
		<tag k="name" v="Veaøyne" />
		<tag k="place" v="island" />
		<tag k="ssr:stedsnr" v="813790" />
	</node>
	<node id="-170878" lat="60.5096499991" lon="9.21462222756">
		<tag k="name" v="Brøttjern" />
		<tag k="natural" v="water" />
		<tag k="ssr:stedsnr" v="813631" />
	</node>
	<node id="-170877" lat="60.6318777809" lon="9.21617500187">
		<tag k="name" v="Langetjernet" />
		<tag k="natural" v="water" />
		<tag k="ssr:stedsnr" v="813581" />
	</node>
	<node id="-170870" lat="60.5812277741" lon="9.34573889557">
		<tag k="name" v="Søre Oddevatn" />
		<tag k="natural" v="water" />
		<tag k="ssr:stedsnr" v="796828" />
		<tag k="water" v="lake" />
	</node>
	<node id="-170869" lat="60.5008750011" lon="9.23656110822">
		<tag k="name" v="Baklitjernan" />
		<tag k="natural" v="water" />
		<tag k="ssr:stedsnr" v="796794" />
	</node>
	<node id="-170863" lat="60.511775351" lon="9.02454558261">
		<tag k="fixme" v="multiple name tags, choose one and add the other to alt_name" />
		<tag k="name" v="Søre Lislesettjern;Lislesettjernan" />
		<tag k="natural" v="water" />
		<tag k="ssr:stedsnr" v="796520" />
	</node>
	<node id="-170859" lat="60.5993750038" lon="8.91976666955">
		<tag k="name" v="Storausa" />
		<tag k="natural" v="water" />
		<tag k="ssr:stedsnr" v="796462" />
	</node>
	<node id="-170858" lat="60.6033298968" lon="8.98863930368">
		<tag k="name" v="Heimtjern" />
		<tag k="natural" v="water" />
		<tag k="ssr:stedsnr" v="796456" />
	</node>
	<node id="-170857" lat="60.6004666623" lon="9.19527500719">
		<tag k="name" v="Nedre Stalltjern" />
		<tag k="natural" v="water" />
		<tag k="ssr:stedsnr" v="796453" />
	</node>
	<node id="-170855" lat="60.6100194418" lon="8.90236944346">
		<tag k="name" v="Gamlemannstjern" />
		<tag k="natural" v="water" />
		<tag k="old_name" v="Gamlemannstjernet" />
		<tag k="ssr:stedsnr" v="796437" />
	</node>
	<node id="-170854" lat="60.619077782" lon="9.16997222815">
		<tag k="name" v="Elgesgrovbekken" />
		<tag k="ssr:stedsnr" v="796435" />
		<tag k="waterway" v="stream" />
	</node>
	<node id="-170852" lat="60.5951388863" lon="8.90779999406">
		<tag k="name" v="Mottaktjernet" />
		<tag k="natural" v="water" />
		<tag k="ssr:stedsnr" v="796414" />
	</node>
	<node id="-170847" lat="60.5676833308" lon="8.96805832736">
		<tag k="name" v="Skirvedalsfossen" />
		<tag k="natural" v="waterfall" />
		<tag k="ssr:stedsnr" v="796388" />
	</node>
	<node id="-170846" lat="60.548233332" lon="8.78560277464">
		<tag k="name" v="Veslevatnet" />
		<tag k="natural" v="water" />
		<tag k="ssr:stedsnr" v="796232" />
		<tag k="water" v="lake" />
	</node>
	<node id="-170844" lat="60.5241138549" lon="8.73132265727">
		<tag k="name" v="Olfisken" />
		<tag k="natural" v="water" />
		<tag k="old_name" v="Orfisken" />
		<tag k="ssr:stedsnr" v="796214" />
		<tag k="water" v="lake" />
	</node>
	<node id="-170843" lat="60.5188194443" lon="8.71783889085">
		<tag k="name" v="Såtetjernan" />
		<tag k="natural" v="water" />
		<tag k="ssr:stedsnr" v="796206" />
		<tag k="water" v="lake" />
	</node>
	<node id="-170838" lat="60.5836250025" lon="9.15886943795">
		<tag k="name" v="Svinebekken" />
		<tag k="ssr:stedsnr" v="795493" />
		<tag k="waterway" v="stream" />
	</node>
	<node id="-170835" lat="60.3987833328" lon="9.0830222259">
		<tag k="name" v="Reinsjøen" />
		<tag k="natural" v="water" />
		<tag k="ssr:stedsnr" v="795412" />
		<tag k="water" v="lake" />
	</node>
	<node id="-170832" lat="60.4955750008" lon="9.26967499179">
		<tag k="name" v="Løken" />
		<tag k="place" v="locality" />
		<tag k="ssr:stedsnr" v="795346" />
	</node>
	<node id="-170830" lat="60.5801694462" lon="8.79706666556">
		<tag k="name" v="Volebekken" />
		<tag k="ssr:stedsnr" v="795035" />
		<tag k="waterway" v="stream" />
	</node>
	<node id="-170825" lat="60.4851027801" lon="9.09622499494">
		<tag k="name" v="Purketjern" />
		<tag k="natural" v="water" />
		<tag k="ssr:stedsnr" v="794254" />
	</node>
	<node id="-170823" lat="60.5373583369" lon="9.32155833949">
		<tag k="alt_name" v="Grårovun" />
		<tag k="fixme" v="multiple name tags, choose one and add the other to alt_name" />
		<tag k="name" v="Grårova;Grårovetjern" />
		<tag k="natural" v="water" />
		<tag k="ssr:stedsnr" v="787794" />
	</node>
	<node id="-170808" lat="60.5098333374" lon="8.93645000552">
		<tag k="name" v="Furuhaugtjern" />
		<tag k="natural" v="water" />
		<tag k="ssr:stedsnr" v="753785" />
	</node>
	<node id="-170798" lat="60.5046712201" lon="9.22907295093">
		<tag k="name" v="Trytetjern" />
		<tag k="natural" v="water" />
		<tag k="ssr:stedsnr" v="753416" />
	</node>
	<node id="-170797" lat="60.5752416691" lon="9.34935832902">
		<tag k="name" v="Rugden" />
		<tag k="natural" v="water" />
		<tag k="ssr:stedsnr" v="753382" />
	</node>
	<node id="-170796" lat="60.4127138877" lon="9.08575833477">
		<tag k="name" v="Skurvenattjern" />
		<tag k="natural" v="water" />
		<tag k="ssr:stedsnr" v="753260" />
	</node>
	<node id="-170783" lat="60.6706194474" lon="9.24862222462">
		<tag k="name" v="Mortenstjern" />
		<tag k="natural" v="water" />
		<tag k="ssr:stedsnr" v="752904" />
	</node>
	<node id="-170782" lat="60.5614805514" lon="8.77962221526">
		<tag k="name" v="Ausebekken" />
		<tag k="ssr:stedsnr" v="752876" />
		<tag k="waterway" v="stream" />
	</node>
	<node id="-170781" lat="60.4654722233" lon="9.25207223127">
		<tag k="name" v="Sandøyrtjern" />
		<tag k="natural" v="water" />
		<tag k="ssr:stedsnr" v="752789" />
	</node>
	<node id="-170779" lat="60.5426556043" lon="9.27526692023">
		<tag k="name" v="Tjernsettjernan" />
		<tag k="natural" v="water" />
		<tag k="ssr:stedsnr" v="735868" />
		<tag k="water" v="lake" />
	</node>
	<node id="-170778" lat="60.5445111113" lon="9.25029721541">
		<tag k="name" v="Huldratjern" />
		<tag k="natural" v="water" />
		<tag k="ssr:stedsnr" v="735864" />
	</node>
	<node id="-170777" lat="60.5594249998" lon="9.31661943824">
		<tag k="name" v="Svartetjern" />
		<tag k="natural" v="water" />
		<tag k="ssr:stedsnr" v="735846" />
	</node>
	<node id="-170771" lat="60.5811722235" lon="9.30184445258">
		<tag k="name" v="Oksevatne" />
		<tag k="natural" v="water" />
		<tag k="ssr:stedsnr" v="735812" />
		<tag k="water" v="lake" />
	</node>
	<node id="-170769" lat="60.5879138934" lon="9.41954723046">
		<tag k="name" v="Strøselve" />
		<tag k="ssr:stedsnr" v="735803" />
		<tag k="waterway" v="river" />
	</node>
	<node id="-170768" lat="60.5926416636" lon="9.39867500763">
		<tag k="name" v="Trytetjernbekken" />
		<tag k="ssr:stedsnr" v="735801" />
		<tag k="waterway" v="stream" />
	</node>
	<node id="-170765" lat="60.5324277809" lon="9.25924166669">
		<tag k="name" v="Helgevatnet" />
		<tag k="natural" v="water" />
		<tag k="ssr:stedsnr" v="735757" />
	</node>
	<node id="-170762" lat="60.5963722183" lon="9.34658889303">
		<tag k="name" v="Nørdre Oddevatn" />
		<tag k="natural" v="water" />
		<tag k="ssr:stedsnr" v="735652" />
		<tag k="water" v="lake" />
	</node>
	<node id="-170761" lat="60.6419972204" lon="9.35128611146">
		<tag k="name" v="Trytetjern" />
		<tag k="natural" v="water" />
		<tag k="ssr:stedsnr" v="735647" />
	</node>
	<node id="-170760" lat="60.6263833305" lon="9.23958333532">
		<tag k="name" v="Skardtjernan" />
		<tag k="natural" v="water" />
		<tag k="ssr:stedsnr" v="735625" />
	</node>
	<node id="-170751" lat="60.5339111117" lon="8.88215278212">
		<tag k="name" v="Fosstjern" />
		<tag k="natural" v="water" />
		<tag k="ssr:stedsnr" v="735547" />
	</node>
	<node id="-170749" lat="60.5089305598" lon="9.01644166519">
		<tag k="name" v="Gurilitjern" />
		<tag k="natural" v="water" />
		<tag k="ssr:stedsnr" v="735507" />
	</node>
	<node id="-170746" lat="60.6468611106" lon="9.11522222036">
		<tag k="name" v="Midtmyrtjernet" />
		<tag k="natural" v="water" />
		<tag k="ssr:stedsnr" v="735467" />
	</node>
	<node id="-170745" lat="60.6030333339" lon="8.92684166645">
		<tag k="name" v="Trytetjern" />
		<tag k="natural" v="water" />
		<tag k="ssr:stedsnr" v="735452" />
	</node>
	<node id="-170742" lat="60.5793833359" lon="9.10039999522">
		<tag k="name" v="Myrefjorden" />
		<tag k="natural" v="water" />
		<tag k="ssr:stedsnr" v="735422" />
	</node>
	<node id="-170741" lat="60.5756468709" lon="8.92731425804">
		<tag k="name" v="Fussetjern" />
		<tag k="natural" v="water" />
		<tag k="ssr:stedsnr" v="735419" />
	</node>
	<node id="-170739" lat="60.5912222228" lon="8.90589445288">
		<tag k="name" v="Essartjern" />
		<tag k="natural" v="water" />
		<tag k="ssr:stedsnr" v="735410" />
	</node>
	<node id="-170736" lat="60.6493972206" lon="8.92810832609">
		<tag k="name" v="Gamlemanntjern" />
		<tag k="natural" v="water" />
		<tag k="ssr:stedsnr" v="735270" />
	</node>
	<node id="-170733" lat="60.5581527751" lon="8.72954999215">
		<tag k="alt_name" v="Sivtjørni" />
		<tag k="loc_name" v="Sevtjørne" />
		<tag k="name" v="Sivtjernet" />
		<tag k="natural" v="water" />
		<tag k="ssr:stedsnr" v="735237" />
	</node>
	<node id="-170732" lat="60.5506500022" lon="8.83392221436">
		<tag k="alt_name" v="Skårsrudbekken" />
		<tag k="name" v="Skålsrudbekken" />
		<tag k="old_name" v="Skaarsrudbekken;Skaalsrud Aae" />
		<tag k="ssr:stedsnr" v="735233" />
		<tag k="waterway" v="river" />
	</node>
	<node id="-170731" lat="60.5167361124" lon="8.82114445157">
		<tag k="name" v="Rundetjern" />
		<tag k="natural" v="water" />
		<tag k="ssr:stedsnr" v="735209" />
	</node>
	<node id="-170730" lat="60.5118611144" lon="8.75388334177">
		<tag k="name" v="Killingtjernan" />
		<tag k="natural" v="water" />
		<tag k="ssr:stedsnr" v="735200" />
		<tag k="water" v="lake" />
	</node>
	<node id="-170729" lat="60.5721333363" lon="8.78371110323">
		<tag k="name" v="Trolltjern" />
		<tag k="natural" v="water" />
		<tag k="ssr:stedsnr" v="735003" />
	</node>
	<node id="-170727" lat="60.4858138913" lon="9.29725277428">
		<tag k="name" v="Svartetjern" />
		<tag k="natural" v="water" />
		<tag k="ssr:stedsnr" v="734367" />
	</node>
	<node id="-170726" lat="60.4390027781" lon="9.11275000155">
		<tag k="name" v="Buvatn" />
		<tag k="natural" v="water" />
		<tag k="ssr:stedsnr" v="734356" />
		<tag k="water" v="lake" />
	</node>
	<node id="-170725" lat="60.4407249983" lon="9.00095277232">
		<tag k="name" v="Lille Storvardetjern" />
		<tag k="natural" v="water" />
		<tag k="ssr:stedsnr" v="734351" />
	</node>
	<node id="-170724" lat="60.4397861119" lon="8.99590277019">
		<tag k="name" v="Store Storvardetjern" />
		<tag k="natural" v="water" />
		<tag k="ssr:stedsnr" v="734352" />
	</node>
	<node id="-170721" lat="60.4505262571" lon="8.95078505613">
		<tag k="name" v="Søre Ormevatn" />
		<tag k="natural" v="water" />
		<tag k="old_name" v="Søre Tverrfotvatnet;Søndre Tverrfotvatnet;Tverfotenvt, s" />
		<tag k="ssr:stedsnr" v="734344" />
		<tag k="water" v="lake" />
	</node>
	<node id="-170720" lat="60.4510611089" lon="9.05662778261">
		<tag k="name" v="Steintjern" />
		<tag k="natural" v="water" />
		<tag k="ssr:stedsnr" v="734339" />
	</node>
	<node id="-170718" lat="60.4964388859" lon="8.79641110724">
		<tag k="name" v="Nedre Lyseren" />
		<tag k="natural" v="water" />
		<tag k="ssr:stedsnr" v="734042" />
	</node>
	<node id="-170711" lat="60.4747361154" lon="9.22788055728">
		<tag k="name" v="Bukkøynan" />
		<tag k="place" v="island" />
		<tag k="ssr:stedsnr" v="693881" />
	</node>
	<node id="-170707" lat="60.5918250013" lon="9.23717777455">
		<tag k="name" v="Ormetjern" />
		<tag k="natural" v="water" />
		<tag k="ssr:stedsnr" v="693490" />
	</node>
	<node id="-170703" lat="60.4533638928" lon="9.04189166312">
		<tag k="name" v="Ørnenattjern" />
		<tag k="natural" v="water" />
		<tag k="ssr:stedsnr" v="693031" />
	</node>
	<node id="-170698" lat="60.5259833346" lon="9.29165833755">
		<tag k="name" v="Nordtjern" />
		<tag k="natural" v="water" />
		<tag k="ssr:stedsnr" v="692437" />
	</node>
	<node id="-170697" lat="60.4389222217" lon="9.12142777415">
		<tag k="name" v="Lauvhaugan" />
		<tag k="natural" v="water" />
		<tag k="ssr:stedsnr" v="693558" />
	</node>
	<node id="-170688" lat="60.5306805594" lon="8.70087499617">
		<tag k="name" v="Olsetløken" />
		<tag k="place" v="locality" />
		<tag k="ssr:stedsnr" v="692035" />
	</node>
	<node id="-170684" lat="60.5041333356" lon="9.29046666416">
		<tag k="name" v="Geitsundbekken" />
		<tag k="ssr:stedsnr" v="691852" />
		<tag k="waterway" v="stream" />
	</node>
	<node id="-170682" lat="60.6667805538" lon="9.35001665951">
		<tag k="name" v="Bergatjern" />
		<tag k="natural" v="water" />
		<tag k="ssr:stedsnr" v="675757" />
	</node>
	<node id="-170680" lat="60.602300003" lon="8.91822500778">
		<tag k="name" v="Vesleausa" />
		<tag k="natural" v="water" />
		<tag k="ssr:stedsnr" v="675486" />
	</node>
	<node id="-170676" lat="60.6922333302" lon="9.27050832538">
		<tag k="name" v="Andsjøen" />
		<tag k="natural" v="water" />
		<tag k="ssr:stedsnr" v="674718" />
	</node>
	<node id="-170673" lat="60.5987114764" lon="9.27221847811">
		<tag k="name" v="Gampetjern" />
		<tag k="natural" v="water" />
		<tag k="ssr:stedsnr" v="674678" />
	</node>
	<node id="-170672" lat="60.5966000023" lon="9.37202500029">
		<tag k="name" v="Skardtjern" />
		<tag k="natural" v="water" />
		<tag k="ssr:stedsnr" v="674673" />
	</node>
	<node id="-170669" lat="60.5596472239" lon="9.0917444465">
		<tag k="name" v="Leirbrøtbekken" />
		<tag k="ssr:stedsnr" v="674577" />
		<tag k="waterway" v="stream" />
	</node>
	<node id="-170662" lat="60.5121194424" lon="9.0657750056">
		<tag k="name" v="Forketjern" />
		<tag k="natural" v="water" />
		<tag k="ssr:stedsnr" v="674516" />
	</node>
	<node id="-170658" lat="60.6320194427" lon="9.10486111679">
		<tag k="name" v="Lomtjernan" />
		<tag k="natural" v="water" />
		<tag k="ssr:stedsnr" v="674481" />
	</node>
	<node id="-170656" lat="60.6025861148" lon="9.12962499397">
		<tag k="name" v="Rudstjernan" />
		<tag k="natural" v="water" />
		<tag k="ssr:stedsnr" v="674455" />
		<tag k="water" v="lake" />
	</node>
	<node id="-170655" lat="60.6202500045" lon="8.89486666937">
		<tag k="name" v="Synneivsetåne" />
		<tag k="ssr:stedsnr" v="674428" />
		<tag k="waterway" v="river" />
	</node>
	<node id="-170644" lat="60.5090416628" lon="8.71785000503">
		<tag k="name" v="Djupetjernet" />
		<tag k="natural" v="water" />
		<tag k="ssr:stedsnr" v="674194" />
	</node>
	<node id="-170643" lat="60.510636112" lon="8.8110333265">
		<tag k="name" v="Svartevatnet" />
		<tag k="natural" v="water" />
		<tag k="ssr:stedsnr" v="674191" />
	</node>
	<node id="-170642" lat="60.5631416709" lon="8.731880551">
		<tag k="name" v="Hjartetjern" />
		<tag k="natural" v="water" />
		<tag k="ssr:stedsnr" v="674008" />
	</node>
	<node id="-170639" lat="60.4568094019" lon="8.95748337758">
		<tag k="name" v="Nørdre Ormevatn" />
		<tag k="natural" v="water" />
		<tag k="old_name" v="Nørdre Tverrfotvatnet;Nordre Tverrfotvatnet;Tverfotenvt, n" />
		<tag k="ssr:stedsnr" v="673334" />
		<tag k="water" v="lake" />
	</node>
	<node id="-170636" lat="60.4859893472" lon="9.12324348246">
		<tag k="name" v="Beinstigtjernet" />
		<tag k="natural" v="water" />
		<tag k="ssr:stedsnr" v="673296" />
	</node>
	<node id="-170635" lat="60.4933027796" lon="8.93612778194">
		<tag k="name" v="Nedre Båtstjern" />
		<tag k="natural" v="water" />
		<tag k="old_name" v="n Baatstj" />
		<tag k="ssr:stedsnr" v="673278" />
	</node>
	<node id="-170634" lat="60.4905222202" lon="8.80420000356">
		<tag k="name" v="Krafsebekken" />
		<tag k="ssr:stedsnr" v="673108" />
		<tag k="waterway" v="stream" />
	</node>
	<node id="-170632" lat="60.6300929625" lon="9.28814390434">
		<tag k="name" v="Fisketjern" />
		<tag k="natural" v="water" />
		<tag k="ssr:stedsnr" v="674631" />
	</node>
	<node id="-170625" lat="60.4736111113" lon="9.22374165835">
		<tag k="name" v="Kjerringvikje" />
		<tag k="natural" v="bay" />
		<tag k="ssr:stedsnr" v="632883" />
	</node>
	<node id="-170621" lat="60.4381694412" lon="9.16714721806">
		<tag k="name" v="Bugen" />
		<tag k="ssr:stedsnr" v="632517" />
		<tag k="waterway" v="stream" />
	</node>
	<node id="-170617" lat="60.5217979306" lon="9.32742621508">
		<tag k="name" v="Brennåstjern" />
		<tag k="natural" v="water" />
		<tag k="ssr:stedsnr" v="632454" />
	</node>
	<node id="-170615" lat="60.6039777772" lon="9.2369666692">
		<tag k="name" v="Krossløkbekken" />
		<tag k="ssr:stedsnr" v="632446" />
		<tag k="waterway" v="stream" />
	</node>
	<node id="-170612" lat="60.6329750034" lon="8.85569443762">
		<tag k="name" v="Gråtjern" />
		<tag k="natural" v="water" />
		<tag k="ssr:stedsnr" v="631976" />
	</node>
	<node id="-170611" lat="60.5767055557" lon="8.99338056257">
		<tag k="name" v="Uredalsbekken" />
		<tag k="ssr:stedsnr" v="631943" />
		<tag k="waterway" v="stream" />
	</node>
	<node id="-170607" lat="60.470583333" lon="9.23844722449">
		<tag k="name" v="Sevrefossen" />
		<tag k="natural" v="waterfall" />
		<tag k="ssr:stedsnr" v="631908" />
	</node>
	<node id="-170603" lat="60.6199166707" lon="8.88231389493">
		<tag k="name" v="Synneivsetdammen" />
		<tag k="natural" v="water" />
		<tag k="ssr:stedsnr" v="631825" />
	</node>
	<node id="-170596" lat="60.5559666624" lon="9.26246944658">
		<tag k="name" v="Mortetjern" />
		<tag k="natural" v="water" />
		<tag k="ssr:stedsnr" v="631427" />
	</node>
	<node id="-170585" lat="60.5608833339" lon="9.28960278072">
		<tag k="name" v="Vesledypilen" />
		<tag k="natural" v="water" />
		<tag k="ssr:stedsnr" v="630932" />
	</node>
	<node id="-170583" lat="60.5071777743" lon="9.28773055674">
		<tag k="name" v="Grisetjernbekken" />
		<tag k="ssr:stedsnr" v="630833" />
		<tag k="waterway" v="stream" />
	</node>
	<node id="-170582" lat="60.6691842098" lon="9.266913919">
		<tag k="name" v="Valdreslitjernan" />
		<tag k="natural" v="water" />
		<tag k="ssr:stedsnr" v="614780" />
		<tag k="water" v="lake" />
	</node>
	<node id="-170579" lat="60.5707143941" lon="9.37024634426">
		<tag k="name" v="Buvasselve" />
		<tag k="ssr:stedsnr" v="613892" />
		<tag k="waterway" v="river" />
	</node>
	<node id="-170578" lat="60.5366529387" lon="9.23549106719">
		<tag k="name" v="Liavatnet" />
		<tag k="natural" v="water" />
		<tag k="ssr:stedsnr" v="613873" />
		<tag k="water" v="lake" />
	</node>
	<node id="-170576" lat="60.5607388906" lon="9.28022222407">
		<tag k="name" v="Krøren" />
		<tag k="natural" v="water" />
		<tag k="ssr:stedsnr" v="613835" />
	</node>
	<node id="-170571" lat="60.6066583294" lon="9.31989166648">
		<tag k="name" v="Nørdre Fjellvatn" />
		<tag k="natural" v="water" />
		<tag k="ssr:stedsnr" v="613654" />
	</node>
	<node id="-170570" lat="60.5921916708" lon="9.22875833372">
		<tag k="name" v="Brynhildstjern" />
		<tag k="natural" v="water" />
		<tag k="ssr:stedsnr" v="613647" />
	</node>
	<node id="-170566" lat="60.5312916656" lon="8.84690555873">
		<tag k="name" v="Mykingåne" />
		<tag k="ssr:stedsnr" v="613600" />
		<tag k="waterway" v="river" />
	</node>
	<node id="-170562" lat="60.5345999987" lon="8.99811388833">
		<tag k="name" v="Tronrudåne" />
		<tag k="ssr:stedsnr" v="613564" />
		<tag k="waterway" v="river" />
	</node>
	<node id="-170559" lat="60.503761112" lon="9.20178611312">
		<tag k="name" v="Skardbekken" />
		<tag k="ssr:stedsnr" v="613531" />
		<tag k="waterway" v="stream" />
	</node>
	<node id="-170557" lat="60.6219361119" lon="8.86311945289">
		<tag k="name" v="Trytetjern" />
		<tag k="natural" v="water" />
		<tag k="ssr:stedsnr" v="613495" />
	</node>
	<node id="-170556" lat="60.6376444414" lon="8.97294165911">
		<tag k="name" v="Nyhyttetjern" />
		<tag k="natural" v="water" />
		<tag k="ssr:stedsnr" v="613488" />
	</node>
	<node id="-170555" lat="60.63699167" lon="9.00320833182">
		<tag k="fixme" v="multiple name tags, choose one and add the other to alt_name" />
		<tag k="name" v="Dokkelve;Gardøla" />
		<tag k="old_name" v="Dokka" />
		<tag k="ssr:stedsnr" v="613487" />
		<tag k="waterway" v="river" />
	</node>
	<node id="-170552" lat="60.5962472221" lon="9.09676388833">
		<tag k="name" v="Rudbekken" />
		<tag k="ssr:stedsnr" v="613464" />
		<tag k="waterway" v="stream" />
	</node>
	<node id="-170550" lat="60.5693027804" lon="9.21900555677">
		<tag k="name" v="Tovatnet" />
		<tag k="natural" v="water" />
		<tag k="ssr:stedsnr" v="613436" />
	</node>
	<node id="-170544" lat="60.4243277788" lon="9.19600833122">
		<tag k="name" v="Sevreåne" />
		<tag k="ssr:stedsnr" v="613343" />
		<tag k="waterway" v="stream" />
	</node>
	<node id="-170540" lat="60.5075361111" lon="8.79571666423">
		<tag k="name" v="Langoddetjern" />
		<tag k="natural" v="water" />
		<tag k="ssr:stedsnr" v="613188" />
	</node>
	<node id="-170538" lat="60.5624805545" lon="8.76880278023">
		<tag k="name" v="Store Ausa" />
		<tag k="natural" v="water" />
		<tag k="ssr:stedsnr" v="613022" />
	</node>
	<node id="-170537" lat="60.5673166649" lon="8.73100832503">
		<tag k="name" v="Øvre Fiskebutten" />
		<tag k="natural" v="water" />
		<tag k="ssr:stedsnr" v="613015" />
	</node>
	<node id="-170536" lat="60.5685527742" lon="8.75914444814">
		<tag k="name" v="Auseskaftet" />
		<tag k="natural" v="water" />
		<tag k="ssr:stedsnr" v="613006" />
	</node>
	<node id="-170535" lat="60.5734083369" lon="8.83425833023">
		<tag k="name" v="Voletjernan" />
		<tag k="natural" v="water" />
		<tag k="ssr:stedsnr" v="613004" />
		<tag k="water" v="lake" />
	</node>
	<node id="-170530" lat="60.4489083311" lon="9.13814999588">
		<tag k="name" v="Øyvatn" />
		<tag k="natural" v="water" />
		<tag k="ssr:stedsnr" v="612343" />
	</node>
	<node id="-170529" lat="60.4432929683" lon="9.07043154899">
		<tag k="name" v="Grisetjern" />
		<tag k="natural" v="water" />
		<tag k="ssr:stedsnr" v="612341" />
	</node>
	<node id="-170528" lat="60.4674805525" lon="9.16748334126">
		<tag k="name" v="Abaksbekken" />
		<tag k="ssr:stedsnr" v="612333" />
		<tag k="waterway" v="stream" />
	</node>
	<node id="-170524" lat="60.4670333311" lon="9.10142777849">
		<tag k="name" v="Promtjern" />
		<tag k="natural" v="water" />
		<tag k="ssr:stedsnr" v="612300" />
	</node>
	<node id="-170517" lat="60.4952972219" lon="9.12639444804">
		<tag k="name" v="Skrivarskardbekken" />
		<tag k="ssr:stedsnr" v="612266" />
		<tag k="waterway" v="stream" />
	</node>
	<node id="-170515" lat="60.488705556" lon="8.77722499356">
		<tag k="name" v="Krafsen" />
		<tag k="natural" v="water" />
		<tag k="ssr:stedsnr" v="612109" />
	</node>
	<node id="-170514" lat="60.6000333353" lon="8.86629999969">
		<tag k="name" v="Nattatjern" />
		<tag k="natural" v="water" />
		<tag k="ssr:stedsnr" v="603442" />
	</node>
	<node id="-170509" lat="60.4389611117" lon="9.20430832659">
		<tag k="name" v="Kjeltjern" />
		<tag k="natural" v="water" />
		<tag k="ssr:stedsnr" v="571918" />
	</node>
	<node id="-170503" lat="60.4628888869" lon="9.0957749949">
		<tag k="name" v="Promtjernhaugen" />
		<tag k="natural" v="water" />
		<tag k="ssr:stedsnr" v="571691" />
	</node>
	<node id="-170500" lat="60.467033329" lon="8.89262776996">
		<tag k="name" v="Øyvasslie" />
		<tag k="ssr:stedsnr" v="571617" />
		<tag k="waterway" v="stream" />
	</node>
	<node id="-170497" lat="60.5891666628" lon="9.23015554733">
		<tag k="name" v="Lustjern" />
		<tag k="natural" v="water" />
		<tag k="ssr:stedsnr" v="571468" />
	</node>
	<node id="-170496" lat="60.6233333364" lon="9.30468055749">
		<tag k="name" v="Bananputten" />
		<tag k="natural" v="water" />
		<tag k="ssr:stedsnr" v="571445" />
		<tag k="water" v="pond" />
	</node>
	<node id="-170493" lat="60.5489805516" lon="9.14817500515">
		<tag k="name" v="Sandøyne" />
		<tag k="place" v="island" />
		<tag k="ssr:stedsnr" v="571196" />
	</node>
	<node id="-170489" lat="60.5129888867" lon="9.02448611283">
		<tag k="name" v="Nørdre Lislesettjern" />
		<tag k="natural" v="water" />
		<tag k="ssr:stedsnr" v="571136" />
	</node>
	<node id="-170473" lat="60.5337083352" lon="9.30347777818">
		<tag k="name" v="Svartetjern" />
		<tag k="natural" v="water" />
		<tag k="ssr:stedsnr" v="553884" />
	</node>
	<node id="-170471" lat="60.5819916631" lon="9.36791110309">
		<tag k="name" v="Strøslivatn" />
		<tag k="natural" v="water" />
		<tag k="ssr:stedsnr" v="553830" />
	</node>
	<node id="-170469" lat="60.5097361103" lon="9.29495000103">
		<tag k="name" v="Grisetjern" />
		<tag k="natural" v="water" />
		<tag k="ssr:stedsnr" v="553787" />
	</node>
	<node id="-170468" lat="60.5227749966" lon="9.30251945206">
		<tag k="name" v="Kjerringtjern" />
		<tag k="natural" v="water" />
		<tag k="ssr:stedsnr" v="553773" />
	</node>
	<node id="-170466" lat="60.6005805593" lon="9.39873333223">
		<tag k="name" v="Trytetjern" />
		<tag k="natural" v="water" />
		<tag k="ssr:stedsnr" v="553678" />
	</node>
	<node id="-170464" lat="60.5988027745" lon="9.43347500471">
		<tag k="name" v="Strøsdammen" />
		<tag k="ssr:stedsnr" v="553674" />
		<tag k="waterway" v="dam" />
	</node>
	<node id="-170463" lat="60.6229250003" lon="9.33367777028">
		<tag k="name" v="Brenthølbekken" />
		<tag k="ssr:stedsnr" v="553638" />
		<tag k="waterway" v="stream" />
	</node>
	<node id="-170459" lat="60.6222083322" lon="9.21091944103">
		<tag k="name" v="Tjernsettjern" />
		<tag k="natural" v="water" />
		<tag k="ssr:stedsnr" v="553473" />
	</node>
	<node id="-170458" lat="60.6346833344" lon="8.86046944311">
		<tag k="name" v="Steintjern" />
		<tag k="natural" v="water" />
		<tag k="ssr:stedsnr" v="553465" />
	</node>
	<node id="-170457" lat="60.5966138858" lon="8.87823611461">
		<tag k="name" v="Risvasstjernan" />
		<tag k="natural" v="water" />
		<tag k="ssr:stedsnr" v="553455" />
		<tag k="water" v="lake" />
	</node>
	<node id="-170452" lat="60.5533277737" lon="8.92796389539">
		<tag k="name" v="Syningsbekken" />
		<tag k="ssr:stedsnr" v="553391" />
		<tag k="waterway" v="stream" />
	</node>
	<node id="-170450" lat="60.5543027822" lon="9.06494999564">
		<tag k="name" v="Storeskardbekken" />
		<tag k="ssr:stedsnr" v="553387" />
		<tag k="waterway" v="stream" />
	</node>
	<node id="-170448" lat="60.5625277751" lon="9.12367776868">
		<tag k="name" v="Håvardsøyne" />
		<tag k="place" v="island" />
		<tag k="ssr:stedsnr" v="553373" />
	</node>
	<node id="-170445" lat="60.5473583329" lon="8.77136944191">
		<tag k="name" v="Størrtjern" />
		<tag k="natural" v="water" />
		<tag k="ssr:stedsnr" v="553222" />
	</node>
	<node id="-170444" lat="60.5304138881" lon="8.83705000413">
		<tag k="name" v="Stryktjernet" />
		<tag k="natural" v="water" />
		<tag k="ssr:stedsnr" v="553200" />
	</node>
	<node id="-170433" lat="60.5172638857" lon="9.00152777538">
		<tag k="name" v="Nattetjern" />
		<tag k="natural" v="water" />
		<tag k="ssr:stedsnr" v="552652" />
	</node>
	<node id="-170431" lat="60.5758222241" lon="8.93407500706">
		<tag k="name" v="Heimstetjern" />
		<tag k="natural" v="water" />
		<tag k="ssr:stedsnr" v="552497" />
	</node>
	<node id="-170430" lat="60.5773638934" lon="9.00079722003">
		<tag k="name" v="Sandanåne" />
		<tag k="ssr:stedsnr" v="552450" />
		<tag k="waterway" v="river" />
	</node>
	<node id="-170425" lat="60.4377861112" lon="9.14539999569">
		<tag k="name" v="Holmevatn" />
		<tag k="natural" v="water" />
		<tag k="ssr:stedsnr" v="552357" />
	</node>
	<node id="-170423" lat="60.4662499968" lon="8.97198610889">
		<tag k="name" v="Kringletjern" />
		<tag k="natural" v="water" />
		<tag k="ssr:stedsnr" v="552324" />
	</node>
	<node id="-170422" lat="60.4663559233" lon="9.09413669386">
		<tag k="name" v="Vadlitjern" />
		<tag k="natural" v="water" />
		<tag k="ssr:stedsnr" v="552323" />
	</node>
	<node id="-170420" lat="60.656925004" lon="9.17488888063">
		<tag k="name" v="Fiskebekken" />
		<tag k="ssr:stedsnr" v="552315" />
		<tag k="waterway" v="river" />
	</node>
	<node id="-170419" lat="60.650536115" lon="9.15821388074">
		<tag k="name" v="Haratjernet" />
		<tag k="natural" v="water" />
		<tag k="ssr:stedsnr" v="552311" />
	</node>
	<node id="-170416" lat="60.491330555" lon="9.28028888568">
		<tag k="name" v="Raudbekken" />
		<tag k="ssr:stedsnr" v="551311" />
		<tag k="waterway" v="stream" />
	</node>
	<node id="-170408" lat="60.4850416653" lon="9.1907249916">
		<tag k="name" v="Søgardsbekken" />
		<tag k="ssr:stedsnr" v="513171" />
		<tag k="waterway" v="stream" />
	</node>
	<node id="-170406" lat="60.6009194444" lon="9.30466666323">
		<tag k="name" v="Elumstjerndypilen" />
		<tag k="natural" v="water" />
		<tag k="ssr:stedsnr" v="511463" />
		<tag k="water" v="pond" />
	</node>
	<node id="-170400" lat="60.632083331" lon="9.24896111629">
		<tag k="name" v="Øytjern" />
		<tag k="natural" v="water" />
		<tag k="ssr:stedsnr" v="511426" />
	</node>
	<node id="-170389" lat="60.516475002" lon="9.24826110588">
		<tag k="name" v="Gravskardtjern" />
		<tag k="natural" v="water" />
		<tag k="ssr:stedsnr" v="510470" />
	</node>
	<node id="-170378" lat="60.4714138915" lon="9.26595833763">
		<tag k="name" v="Kolbråtbekken" />
		<tag k="ssr:stedsnr" v="509749" />
		<tag k="waterway" v="stream" />
	</node>
	<node id="-170374" lat="60.5363361138" lon="9.27529166409">
		<tag k="name" v="Urdelivatnet" />
		<tag k="natural" v="water" />
		<tag k="ssr:stedsnr" v="492876" />
	</node>
	<node id="-170370" lat="60.5323166668" lon="9.3331138942">
		<tag k="name" v="Ormevatnet" />
		<tag k="natural" v="water" />
		<tag k="ssr:stedsnr" v="492745" />
	</node>
	<node id="-170368" lat="60.6029472198" lon="9.30478611888">
		<tag k="name" v="Elumstjern" />
		<tag k="natural" v="water" />
		<tag k="ssr:stedsnr" v="492639" />
	</node>
	<node id="-170367" lat="60.5875805513" lon="9.31426110926">
		<tag k="loc_name" v="Tverrlitjernan" />
		<tag k="name" v="Tverrlivatne" />
		<tag k="natural" v="water" />
		<tag k="ssr:stedsnr" v="492625" />
		<tag k="water" v="lake" />
	</node>
	<node id="-170366" lat="60.6430333344" lon="9.32481944294">
		<tag k="name" v="Svartetjern" />
		<tag k="natural" v="water" />
		<tag k="ssr:stedsnr" v="492620" />
	</node>
	<node id="-170363" lat="60.5250194433" lon="9.06971666722">
		<tag k="name" v="Hjartetjernet" />
		<tag k="natural" v="water" />
		<tag k="ssr:stedsnr" v="492581" />
	</node>
	<node id="-170361" lat="60.5334277818" lon="8.96269722524">
		<tag k="name" v="Storhallbekken" />
		<tag k="ssr:stedsnr" v="492576" />
		<tag k="waterway" v="stream" />
	</node>
	<node id="-170359" lat="60.5218388928" lon="8.98150277106">
		<tag k="name" v="Kulusetbekken" />
		<tag k="ssr:stedsnr" v="492561" />
		<tag k="waterway" v="stream" />
	</node>
	<node id="-170350" lat="60.5975222192" lon="8.89039167318">
		<tag k="name" v="Vardetjernan" />
		<tag k="natural" v="water" />
		<tag k="ssr:stedsnr" v="492434" />
		<tag k="water" v="lake" />
	</node>
	<node id="-170349" lat="60.5993916656" lon="9.07922777722">
		<tag k="name" v="Sutøyne" />
		<tag k="natural" v="cape" />
		<tag k="ssr:stedsnr" v="492432" />
	</node>
	<node id="-170347" lat="60.592116157" lon="8.88687091908">
		<tag k="name" v="Bynnetjernan" />
		<tag k="natural" v="water" />
		<tag k="ssr:stedsnr" v="492396" />
		<tag k="water" v="lake" />
	</node>
	<node id="-170346" lat="60.5827333335" lon="9.09844166256">
		<tag k="name" v="Furuøyne" />
		<tag k="place" v="island" />
		<tag k="ssr:stedsnr" v="492394" />
	</node>
	<node id="-170345" lat="60.5854000002" lon="9.0221555545">
		<tag k="name" v="Damtjern" />
		<tag k="natural" v="water" />
		<tag k="ssr:stedsnr" v="492388" />
	</node>
	<node id="-170341" lat="60.5290750034" lon="8.77419444823">
		<tag k="name" v="Grønhovdtjern" />
		<tag k="natural" v="water" />
		<tag k="ssr:stedsnr" v="492174" />
	</node>
	<node id="-170339" lat="60.5221353339" lon="8.80932118858">
		<tag k="name" v="Brusettjern" />
		<tag k="natural" v="water" />
		<tag k="ssr:stedsnr" v="492164" />
	</node>
	<node id="-170334" lat="60.6107944449" lon="9.14516944095">
		<tag k="name" v="Søre Todalsvatnet" />
		<tag k="natural" v="water" />
		<tag k="ssr:stedsnr" v="492413" />
	</node>
	<node id="-170328" lat="60.4737388871" lon="9.07802499239">
		<tag k="name" v="Brisketjern" />
		<tag k="natural" v="water" />
		<tag k="ssr:stedsnr" v="491316" />
	</node>
	<node id="-170325" lat="60.4624249979" lon="9.09977778177">
		<tag k="name" v="Haugatjern" />
		<tag k="natural" v="water" />
		<tag k="ssr:stedsnr" v="491297" />
	</node>
	<node id="-170324" lat="60.4834527753" lon="8.92172499716">
		<tag k="name" v="Nedre Grågalttjern" />
		<tag k="natural" v="water" />
		<tag k="ssr:stedsnr" v="491280" />
	</node>
	<node id="-170320" lat="60.491908336" lon="8.94993334053">
		<tag k="name" v="Midtre Båtstjern" />
		<tag k="natural" v="water" />
		<tag k="old_name" v="m Baatstj" />
		<tag k="ssr:stedsnr" v="491257" />
	</node>
	<node id="-170313" lat="60.4483111105" lon="9.00746945184">
		<tag k="name" v="Søre Småvatn" />
		<tag k="natural" v="water" />
		<tag k="ssr:stedsnr" v="451007" />
	</node>
	<node id="-170307" lat="60.472438886" lon="9.12741944362">
		<tag k="loc_name" v="Holmevatn" />
		<tag k="name" v="Øyvatn" />
		<tag k="natural" v="water" />
		<tag k="ssr:stedsnr" v="450727" />
	</node>
	<node id="-170306" lat="60.4708722259" lon="9.17543888327">
		<tag k="name" v="Børdalsbekken" />
		<tag k="ssr:stedsnr" v="450510" />
		<tag k="waterway" v="stream" />
	</node>
	<node id="-170303" lat="60.5405861103" lon="9.25643332497">
		<tag k="name" v="Brattlitjern" />
		<tag k="natural" v="water" />
		<tag k="ssr:stedsnr" v="450453" />
	</node>
	<node id="-170302" lat="60.6218444421" lon="9.30571667037">
		<tag k="name" v="Eihellervassdypilen" />
		<tag k="natural" v="water" />
		<tag k="ssr:stedsnr" v="450436" />
		<tag k="water" v="pond" />
	</node>
	<node id="-170299" lat="60.5801388918" lon="9.33609443816">
		<tag k="name" v="Mattjern" />
		<tag k="natural" v="water" />
		<tag k="ssr:stedsnr" v="450284" />
	</node>
	<node id="-170298" lat="60.581355559" lon="9.32509166749">
		<tag k="name" v="Fjellvatn" />
		<tag k="natural" v="water" />
		<tag k="ssr:stedsnr" v="450280" />
		<tag k="water" v="lake" />
	</node>
	<node id="-170294" lat="60.559822225" lon="9.12877500442">
		<tag k="name" v="Småøyne" />
		<tag k="place" v="island" />
		<tag k="ssr:stedsnr" v="450200" />
	</node>
	<node id="-170289" lat="60.5559333326" lon="9.14097222728">
		<tag k="name" v="Holmtjern" />
		<tag k="natural" v="water" />
		<tag k="ssr:stedsnr" v="450063" />
	</node>
	<node id="-170283" lat="60.4866722241" lon="8.78928889164">
		<tag k="name" v="Krafsebekken" />
		<tag k="ssr:stedsnr" v="450006" />
		<tag k="waterway" v="stream" />
	</node>
	<node id="-170280" lat="60.6102250038" lon="9.41713611174">
		<tag k="name" v="Langodden" />
		<tag k="natural" v="cape" />
		<tag k="ssr:stedsnr" v="449679" />
	</node>
	<node id="-170278" lat="60.5114583377" lon="9.25017222416">
		<tag k="name" v="Geitsundtjern" />
		<tag k="natural" v="water" />
		<tag k="ssr:stedsnr" v="449629" />
		<tag k="water" v="pond" />
	</node>
	<node id="-170276" lat="60.442891669" lon="9.1174861171">
		<tag k="name" v="Trytetjern" />
		<tag k="natural" v="water" />
		<tag k="ssr:stedsnr" v="449482" />
	</node>
	<node id="-170275" lat="60.5270083312" lon="9.31082777359">
		<tag k="name" v="Løken" />
		<tag k="natural" v="water" />
		<tag k="ssr:stedsnr" v="449229" />
	</node>
	<node id="-170274" lat="60.5757694454" lon="9.22849722397">
		<tag k="name" v="Heimtjern" />
		<tag k="natural" v="water" />
		<tag k="ssr:stedsnr" v="432821" />
	</node>
	<node id="-170270" lat="60.6619478745" lon="9.35414042582">
		<tag k="name" v="Haugatjern" />
		<tag k="natural" v="water" />
		<tag k="ssr:stedsnr" v="432720" />
	</node>
	<node id="-170258" lat="60.6018194424" lon="9.15813888628">
		<tag k="name" v="Todøla" />
		<tag k="ssr:stedsnr" v="432435" />
		<tag k="waterway" v="river" />
	</node>
	<node id="-170257" lat="60.5955777822" lon="8.88570555852">
		<tag k="name" v="Svartetjern" />
		<tag k="natural" v="water" />
		<tag k="ssr:stedsnr" v="432436" />
	</node>
	<node id="-170248" lat="60.629333335" lon="9.36722777965">
		<tag k="name" v="Strøstjern" />
		<tag k="natural" v="water" />
		<tag k="ssr:stedsnr" v="431662" />
	</node>
	<node id="-170245" lat="60.4826916692" lon="9.25540554861">
		<tag k="name" v="Finnesetbekken" />
		<tag k="ssr:stedsnr" v="431350" />
		<tag k="waterway" v="stream" />
	</node>
	<node id="-170243" lat="60.4663638852" lon="8.88904444882">
		<tag k="name" v="Ådnestjern" />
		<tag k="natural" v="water" />
		<tag k="ssr:stedsnr" v="431317" />
	</node>
	<node id="-170242" lat="60.6529277811" lon="9.11059999658">
		<tag k="name" v="Fesheimfjorden" />
		<tag k="natural" v="water" />
		<tag k="ssr:stedsnr" v="431304" />
	</node>
	<node id="-170236" lat="60.4682138889" lon="8.93321944902">
		<tag k="name" v="Øvre Grågalttjern" />
		<tag k="natural" v="water" />
		<tag k="ssr:stedsnr" v="430272" />
	</node>
	<node id="-170231" lat="60.6099305519" lon="8.89210278635">
		<tag k="name" v="Steintjern" />
		<tag k="natural" v="water" />
		<tag k="ssr:stedsnr" v="268815" />
	</node>
	<node id="-170230" lat="60.6103694444" lon="9.11988889065">
		<tag k="name" v="Tollefsgardtjern" />
		<tag k="natural" v="water" />
		<tag k="ssr:stedsnr" v="268765" />
	</node>
	<node id="-170224" lat="60.6376513256" lon="9.29949455272">
		<tag k="name" v="Endreskardtjern" />
		<tag k="natural" v="water" />
		<tag k="ssr:stedsnr" v="268410" />
	</node>
	<node id="-170217" lat="60.6823666655" lon="9.29232222299">
		<tag k="name" v="Valdreslibekken" />
		<tag k="ssr:stedsnr" v="267900" />
		<tag k="waterway" v="stream" />
	</node>
	<node id="-170216" lat="60.6845972198" lon="9.30466389642">
		<tag k="name" v="Andersentjern" />
		<tag k="natural" v="water" />
		<tag k="ssr:stedsnr" v="267898" />
	</node>
	<node id="-170215" lat="60.4601666696" lon="9.25999443917">
		<tag k="name" v="Bergaøyne" />
		<tag k="place" v="island" />
		<tag k="ssr:stedsnr" v="267777" />
	</node>
	<node id="-170214" lat="60.5029888873" lon="8.78301111716">
		<tag k="name" v="Storlyserløken" />
		<tag k="natural" v="water" />
		<tag k="ssr:stedsnr" v="267149" />
	</node>
	<node id="-170210" lat="60.6118502135" lon="9.32680843201">
		<tag k="loc_name" v="Ivartjernan" />
		<tag k="name" v="Kattugletjernan" />
		<tag k="natural" v="water" />
		<tag k="ssr:stedsnr" v="250675" />
		<tag k="water" v="lake" />
	</node>
	<node id="-170209" lat="60.6061444454" lon="9.31179166864">
		<tag k="name" v="Mattjern" />
		<tag k="natural" v="water" />
		<tag k="ssr:stedsnr" v="250672" />
	</node>
	<node id="-170202" lat="60.5576444465" lon="9.21613889704">
		<tag k="name" v="Nybuelve" />
		<tag k="ssr:stedsnr" v="250573" />
		<tag k="waterway" v="river" />
	</node>
	<node id="-170201" lat="60.5345833303" lon="9.16094444397">
		<tag k="name" v="Brommafjorden" />
		<tag k="natural" v="water" />
		<tag k="ssr:stedsnr" v="250564" />
		<tag k="water" v="lake" />
	</node>
	<node id="-170200" lat="60.551169447" lon="9.16669721654">
		<tag k="name" v="Åstjernet" />
		<tag k="natural" v="water" />
		<tag k="ssr:stedsnr" v="250551" />
	</node>
	<node id="-170199" lat="60.6304055539" lon="9.00883610966">
		<tag k="name" v="Miljostølbekken" />
		<tag k="ssr:stedsnr" v="250446" />
		<tag k="waterway" v="stream" />
	</node>
	<node id="-170196" lat="60.568652774" lon="8.96552778576">
		<tag k="name" v="Skirva" />
		<tag k="ssr:stedsnr" v="249883" />
		<tag k="waterway" v="river" />
	</node>
	<node id="-170191" lat="60.6519498708" lon="9.32577842307">
		<tag k="name" v="Grunntjern" />
		<tag k="natural" v="water" />
		<tag k="ssr:stedsnr" v="249701" />
	</node>
	<node id="-170190" lat="60.6448138858" lon="9.24591944302">
		<tag k="name" v="Langevatn" />
		<tag k="natural" v="water" />
		<tag k="ssr:stedsnr" v="249646" />
		<tag k="water" v="lake" />
	</node>
	<node id="-170189" lat="60.6247555557" lon="9.32330000427">
		<tag k="name" v="Nystølløken" />
		<tag k="ssr:stedsnr" v="249621" />
		<tag k="waterway" v="stream" />
	</node>
	<node id="-170187" lat="60.5178444473" lon="9.04302500085">
		<tag k="name" v="Ålsvatnet" />
		<tag k="natural" v="water" />
		<tag k="ssr:stedsnr" v="249590" />
		<tag k="water" v="lake" />
	</node>
	<node id="-170184" lat="60.5066205264" lon="9.05331330094">
		<tag k="name" v="Skurvåstjern" />
		<tag k="natural" v="water" />
		<tag k="ssr:stedsnr" v="249522" />
		<tag k="water" v="lake" />
	</node>
	<node id="-170182" lat="60.6398527771" lon="9.18448888413">
		<tag k="name" v="Fjellsetbekken" />
		<tag k="ssr:stedsnr" v="249505" />
		<tag k="waterway" v="stream" />
	</node>
	<node id="-170177" lat="60.5771444441" lon="9.02266388686">
		<tag k="name" v="Kvernabekken" />
		<tag k="ssr:stedsnr" v="249423" />
		<tag k="waterway" v="stream" />
	</node>
	<node id="-170173" lat="60.4635611124" lon="9.2277555625">
		<tag k="name" v="Purkebekken" />
		<tag k="ssr:stedsnr" v="249371" />
		<tag k="waterway" v="stream" />
	</node>
	<node id="-170170" lat="60.4460416634" lon="9.11443056132">
		<tag k="name" v="Vesleåne" />
		<tag k="ssr:stedsnr" v="249323" />
		<tag k="waterway" v="stream" />
	</node>
	<node id="-170169" lat="60.4510055579" lon="9.11603333887">
		<tag k="name" v="Storåne" />
		<tag k="ssr:stedsnr" v="249324" />
		<tag k="waterway" v="stream" />
	</node>
	<node id="-170168" lat="60.4405277771" lon="9.07895000866">
		<tag k="name" v="Nørdre Rantetjern" />
		<tag k="natural" v="water" />
		<tag k="ssr:stedsnr" v="249314" />
	</node>
	<node id="-170167" lat="60.4717999968" lon="9.15640554688">
		<tag k="name" v="Rustadstølbekken" />
		<tag k="ssr:stedsnr" v="249309" />
		<tag k="waterway" v="stream" />
	</node>
	<node id="-170158" lat="60.5779861075" lon="8.73711944107">
		<tag k="name" v="Fjellsetvatnet" />
		<tag k="natural" v="water" />
		<tag k="ssr:stedsnr" v="249030" />
	</node>
	<node id="-170157" lat="60.5663916648" lon="8.74493333912">
		<tag k="name" v="Nedre Fiskebutten" />
		<tag k="natural" v="water" />
		<tag k="ssr:stedsnr" v="249009" />
	</node>
	<node id="-170151" lat="60.5544777789" lon="9.14022222452">
		<tag k="alt_name" v="Einan" />
		<tag k="name" v="Øynan" />
		<tag k="place" v="island" />
		<tag k="ssr:stedsnr" v="234614" />
	</node>
	<node id="-170139" lat="60.468652779" lon="9.25659443943">
		<tag k="name" v="Tubba" />
		<tag k="place" v="islet" />
		<tag k="ssr:stedsnr" v="207888" />
	</node>
	<node id="-170130" lat="60.4936083337" lon="8.89757222537">
		<tag k="name" v="Grårova" />
		<tag k="ssr:stedsnr" v="207614" />
		<tag k="waterway" v="stream" />
	</node>
	<node id="-170129" lat="60.6086694415" lon="8.85619999681">
		<tag k="name" v="Oddetjern" />
		<tag k="natural" v="water" />
		<tag k="ssr:stedsnr" v="207599" />
	</node>
	<node id="-170127" lat="60.6201861077" lon="9.23141944613">
		<tag k="name" v="Øvre Bekkedalstjern" />
		<tag k="natural" v="water" />
		<tag k="ssr:stedsnr" v="207421" />
	</node>
	<node id="-170125" lat="60.412408337" lon="9.05961943803">
		<tag k="name" v="Vesle Reinsjøen" />
		<tag k="natural" v="water" />
		<tag k="ssr:stedsnr" v="207303" />
	</node>
	<node id="-170116" lat="60.5344083292" lon="8.71029167388">
		<tag k="name" v="Smalvassbekken" />
		<tag k="ssr:stedsnr" v="207030" />
		<tag k="waterway" v="stream" />
	</node>
	<node id="-170114" lat="60.5054712142" lon="8.7149137354">
		<tag k="name" v="Tjuverihallvatnet" />
		<tag k="natural" v="water" />
		<tag k="ssr:stedsnr" v="207025" />
		<tag k="water" v="lake" />
	</node>
	<node id="-170109" lat="60.4649555518" lon="9.12365277541">
		<tag k="name" v="Vesle Rustadvatn" />
		<tag k="natural" v="water" />
		<tag k="ssr:stedsnr" v="206720" />
		<tag k="water" v="lake" />
	</node>
	<node id="-170103" lat="60.5690785852" lon="9.27954630542">
		<tag k="name" v="Gampetjernan" />
		<tag k="natural" v="water" />
		<tag k="ssr:stedsnr" v="189802" />
		<tag k="water" v="lake" />
	</node>
	<node id="-170101" lat="60.5916583378" lon="9.31767777338">
		<tag k="name" v="Svartetjern" />
		<tag k="natural" v="water" />
		<tag k="ssr:stedsnr" v="189787" />
	</node>
	<node id="-170098" lat="60.528130554" lon="9.30375555866">
		<tag k="name" v="Osetjern" />
		<tag k="natural" v="water" />
		<tag k="ssr:stedsnr" v="189734" />
	</node>
	<node id="-170093" lat="60.5289583344" lon="9.07766943904">
		<tag k="name" v="Nymotjernan" />
		<tag k="natural" v="water" />
		<tag k="ssr:stedsnr" v="189580" />
	</node>
	<node id="-170089" lat="60.557511109" lon="9.17170832926">
		<tag k="name" v="Mørkedokktjernet" />
		<tag k="natural" v="water" />
		<tag k="ssr:stedsnr" v="189545" />
	</node>
	<node id="-170087" lat="60.5352611067" lon="8.92771667284">
		<tag k="name" v="Rukkedøla" />
		<tag k="ssr:stedsnr" v="189532" />
		<tag k="waterway" v="river" />
	</node>
	<node id="-170086" lat="60.5110416697" lon="8.85501111026">
		<tag k="name" v="Trolltjern" />
		<tag k="natural" v="water" />
		<tag k="ssr:stedsnr" v="189488" />
	</node>
	<node id="-170085" lat="60.5043638869" lon="9.12590834028">
		<tag k="name" v="Sandåne" />
		<tag k="ssr:stedsnr" v="189485" />
		<tag k="waterway" v="stream" />
	</node>
	<node id="-170080" lat="60.6162916698" lon="9.21075277316">
		<tag k="name" v="Skjegletjern" />
		<tag k="natural" v="water" />
		<tag k="ssr:stedsnr" v="189425" />
	</node>
	<node id="-170079" lat="60.6155638932" lon="9.17084999525">
		<tag k="name" v="Todalsbekken" />
		<tag k="ssr:stedsnr" v="189424" />
		<tag k="waterway" v="stream" />
	</node>
	<node id="-170072" lat="60.6514916628" lon="8.89004444121">
		<tag k="name" v="Svartevatnet" />
		<tag k="natural" v="water" />
		<tag k="ssr:stedsnr" v="189238" />
	</node>
	<node id="-170071" lat="60.6491305526" lon="8.88039721503">
		<tag k="name" v="Eiflatdalsvatne" />
		<tag k="natural" v="water" />
		<tag k="ssr:stedsnr" v="189239" />
		<tag k="water" v="lake" />
	</node>
	<node id="-170070" lat="60.6635305593" lon="8.94196667514">
		<tag k="name" v="Fisketjern" />
		<tag k="natural" v="water" />
		<tag k="ssr:stedsnr" v="189226" />
	</node>
	<node id="-170062" lat="60.45223333" lon="9.1080249933">
		<tag k="name" v="Imlevatn" />
		<tag k="natural" v="water" />
		<tag k="ssr:stedsnr" v="188329" />
		<tag k="water" v="lake" />
	</node>
	<node id="-170057" lat="60.483442721" lon="8.81781114415">
		<tag k="name" v="Buvatn" />
		<tag k="natural" v="water" />
		<tag k="ssr:stedsnr" v="188105" />
		<tag k="water" v="lake" />
	</node>
	<node id="-170041" lat="60.4755638915" lon="9.19244444952">
		<tag k="name" v="Høllefossen" />
		<tag k="natural" v="waterfall" />
		<tag k="ssr:stedsnr" v="146701" />
	</node>
	<node id="-170037" lat="60.5331166663" lon="9.28367777798">
		<tag k="name" v="Godfartjern" />
		<tag k="natural" v="water" />
		<tag k="ssr:stedsnr" v="146435" />
	</node>
	<node id="-170024" lat="60.604388888" lon="8.9431083266">
		<tag k="name" v="Fugletjernet" />
		<tag k="natural" v="water" />
		<tag k="ssr:stedsnr" v="145978" />
	</node>
	<node id="-170021" lat="60.4860861135" lon="8.97244723095">
		<tag k="name" v="Trommenattjernan" />
		<tag k="natural" v="water" />
		<tag k="ssr:stedsnr" v="145882" />
		<tag k="water" v="lake" />
	</node>
	<node id="-170018" lat="60.5273055546" lon="9.29881667156">
		<tag k="name" v="Pottetjern" />
		<tag k="natural" v="water" />
		<tag k="ssr:stedsnr" v="145223" />
	</node>
	<node id="-170013" lat="60.5531833295" lon="9.30763611621">
		<tag k="name" v="Ausa" />
		<tag k="natural" v="water" />
		<tag k="ssr:stedsnr" v="128851" />
	</node>
	<node id="-170012" lat="60.5626638851" lon="9.29517777857">
		<tag k="name" v="Øyvatnet" />
		<tag k="natural" v="water" />
		<tag k="ssr:stedsnr" v="128843" />
	</node>
	<node id="-170010" lat="60.6035722236" lon="9.36732222976">
		<tag k="name" v="Sollitjern" />
		<tag k="natural" v="water" />
		<tag k="ssr:stedsnr" v="128652" />
	</node>
	<node id="-170009" lat="60.5133828897" lon="9.31849870768">
		<tag k="name" v="Bødalsvatnet" />
		<tag k="natural" v="water" />
		<tag k="ssr:stedsnr" v="128790" />
		<tag k="water" v="lake" />
	</node>
	<node id="-170008" lat="60.5061583364" lon="9.25586944543">
		<tag k="name" v="Bekkin" />
		<tag k="ssr:stedsnr" v="128772" />
		<tag k="waterway" v="stream" />
	</node>
	<node id="-170005" lat="60.5286003112" lon="9.32276545809">
		<tag k="name" v="Vesle Ormevatnet" />
		<tag k="natural" v="water" />
		<tag k="ssr:stedsnr" v="128754" />
	</node>
	<node id="-170002" lat="60.5183861092" lon="9.022152781">
		<tag k="name" v="Lislesetbekken" />
		<tag k="ssr:stedsnr" v="128584" />
		<tag k="waterway" v="stream" />
	</node>
	<node id="-169995" lat="60.541272226" lon="9.06641943646">
		<tag k="name" v="Storeskardtjern" />
		<tag k="natural" v="water" />
		<tag k="ssr:stedsnr" v="128560" />
	</node>
	<node id="-169989" lat="60.6294583294" lon="9.30898333194">
		<tag k="name" v="Fisketjernbekken" />
		<tag k="ssr:stedsnr" v="128616" />
		<tag k="waterway" v="stream" />
	</node>
	<node id="-169986" lat="60.6309472196" lon="8.95059444207">
		<tag k="name" v="Breivad" />
		<tag k="place" v="locality" />
		<tag k="ssr:stedsnr" v="128474" />
	</node>
</osm>
