<?xml version="1.0" encoding="UTF-8"?>
<osm version="0.6" generator="osmapis">
	<node id="281210839" lat="70.9963105" lon="24.6609576" version="9" timestamp="2022-07-10T04:44:46Z" changeset="123419244" uid="3497659" user="NKA">
		<tag k="name" v="Havøysund - Ávanuorri" />
		<tag k="name:no" v="Havøysund" />
		<tag k="name:se" v="Ávanuorri" />
		<tag k="old_name:da" v="Havøsund" />
		<tag k="old_name:se" v="Avanuorri" />
		<tag k="place" v="village" />
		<tag k="population" v="979" />
		<tag k="population:date" v="2021-01-01" />
		<tag k="ref:ssb_tettsted" v="8592" />
		<tag k="source:population" v="SSB - befolkning i tettstedet" />
		<tag k="ssr:stedsnr" v="754383" />
	</node>
	<node id="2353331732" lat="71.025308" lon="24.061297" version="2" timestamp="2018-05-02T17:03:49Z" changeset="58620907" uid="3497659" user="NKA">
		<tag k="name" v="Eidnes" />
		<tag k="name:no" v="Eidnes" />
		<tag k="place" v="farm" />
		<tag k="source" v="Kartverket" />
		<tag k="ssr:stedsnr" v="85171" />
	</node>
	<node id="2353333378" lat="71.020439" lon="25.01785" version="2" timestamp="2018-05-02T17:03:49Z" changeset="58620907" uid="3497659" user="NKA">
		<tag k="name" v="Hompen" />
		<tag k="name:no" v="Hompen" />
		<tag k="natural" v="peak" />
		<tag k="source" v="Kartverket" />
		<tag k="ssr:stedsnr" v="147399" />
	</node>
	<node id="2353386082" lat="71.008022" lon="24.596283" version="2" timestamp="2018-05-02T17:03:50Z" changeset="58620907" uid="3497659" user="NKA">
		<tag k="name" v="Gavlen" />
		<tag k="name:no" v="Gavlen" />
		<tag k="natural" v="peak" />
		<tag k="source" v="Kartverket" />
		<tag k="ssr:stedsnr" v="939137" />
	</node>
	<node id="2354914417" lat="71.032789" lon="23.958825" version="2" timestamp="2018-05-02T17:04:02Z" changeset="58620907" uid="3497659" user="NKA">
		<tag k="name" v="Kjellaren" />
		<tag k="name:no" v="Kjellaren" />
		<tag k="natural" v="cape" />
		<tag k="source" v="Kartverket" />
		<tag k="ssr:stedsnr" v="445424" />
	</node>
	<node id="2354914657" lat="71.032792" lon="23.993453" version="3" timestamp="2018-05-02T17:04:02Z" changeset="58620907" uid="3497659" user="NKA">
		<tag k="bay" v="fjord" />
		<tag k="name" v="Trollfjorden" />
		<tag k="name:no" v="Trollfjorden" />
		<tag k="natural" v="bay" />
		<tag k="source" v="Kartverket" />
		<tag k="ssr:stedsnr" v="688419" />
	</node>
	<node id="2354914750" lat="71.027019" lon="24.061694" version="2" timestamp="2018-05-02T17:04:02Z" changeset="58620907" uid="3497659" user="NKA">
		<tag k="name" v="Eidneset" />
		<tag k="name:no" v="Eidneset" />
		<tag k="natural" v="cape" />
		<tag k="source" v="Kartverket" />
		<tag k="ssr:stedsnr" v="323404" />
	</node>
	<node id="2354914825" lat="71.098131" lon="24.788672" version="3" timestamp="2018-05-02T17:04:02Z" changeset="58620907" uid="3497659" user="NKA">
		<tag k="bay" v="fjord" />
		<tag k="name" v="Sandfjorden" />
		<tag k="name:no" v="Sandfjorden" />
		<tag k="natural" v="bay" />
		<tag k="source" v="Kartverket" />
		<tag k="ssr:stedsnr" v="384409" />
	</node>
	<node id="2354914834" lat="71.093428" lon="24.700461" version="3" timestamp="2018-05-02T17:04:02Z" changeset="58620907" uid="3497659" user="NKA">
		<tag k="bay" v="fjord" />
		<tag k="name" v="Akkarfjorden" />
		<tag k="name:no" v="Akkarfjorden" />
		<tag k="natural" v="bay" />
		<tag k="source" v="Kartverket" />
		<tag k="ssr:stedsnr" v="141425" />
	</node>
	<node id="2354914884" lat="71.068542" lon="24.7752" version="2" timestamp="2018-05-02T17:04:02Z" changeset="58620907" uid="3497659" user="NKA">
		<tag k="name" v="Sætervika" />
		<tag k="name:no" v="Sætervika" />
		<tag k="natural" v="bay" />
		<tag k="source" v="Kartverket" />
		<tag k="ssr:stedsnr" v="809423" />
	</node>
	<node id="2354915027" lat="71.036042" lon="25.033992" version="2" timestamp="2018-05-02T17:04:03Z" changeset="58620907" uid="3497659" user="NKA">
		<tag k="name" v="Måsneset" />
		<tag k="name:no" v="Måsneset" />
		<tag k="natural" v="cape" />
		<tag k="source" v="Kartverket" />
		<tag k="ssr:stedsnr" v="748396" />
	</node>
	<node id="2354915434" lat="71.027358" lon="24.932311" version="2" timestamp="2018-05-02T17:04:03Z" changeset="58620907" uid="3497659" user="NKA">
		<tag k="name" v="Elvevika" />
		<tag k="name:no" v="Elvevika" />
		<tag k="natural" v="bay" />
		<tag k="source" v="Kartverket" />
		<tag k="ssr:stedsnr" v="384403" />
	</node>
	<node id="2683234086" lat="70.7853205" lon="24.6033102" version="2" timestamp="2022-07-10T04:44:46Z" changeset="123419244" uid="3497659" user="NKA">
		<tag k="name" v="Stranda" />
		<tag k="place" v="farm" />
		<tag k="ssr:stedsnr" v="208499" />
	</node>
	<node id="2683234090" lat="70.7499026" lon="24.5142832" version="3" timestamp="2022-07-10T04:44:46Z" changeset="123419244" uid="3497659" user="NKA">
		<tag k="name" v="Slåtten - Muotki" />
		<tag k="name:no" v="Slåtten" />
		<tag k="name:se" v="Muotki" />
		<tag k="place" v="hamlet" />
		<tag k="ssr:stedsnr" v="445164" />
	</node>
	<node id="4215101373" lat="70.9980112" lon="23.9402691" version="2" timestamp="2022-01-26T06:08:00Z" changeset="116609992" uid="3497659" user="NKA">
		<tag k="junction" v="yes" />
		<tag k="name" v="Krysset" />
		<tag k="ssr:stedsnr" v="752482" />
	</node>
	<node id="4215125320" lat="71.0655321" lon="24.0461899" version="2" timestamp="2022-01-26T06:08:00Z" changeset="116609992" uid="3497659" user="NKA">
		<tag k="junction" v="yes" />
		<tag k="name" v="Finneskrysset" />
		<tag k="ssr:stedsnr" v="631008" />
	</node>
	<node id="6203030835" lat="71.0835381" lon="24.0573099" version="2" timestamp="2022-07-10T04:44:46Z" changeset="123419244" uid="3497659" user="NKA">
		<tag k="name" v="Ingøy" />
		<tag k="place" v="village" />
		<tag k="ssr:stedsnr" v="384567" />
	</node>
	<node id="6203030855" lat="70.7892789" lon="24.6116537" version="2" timestamp="2022-07-10T04:44:46Z" changeset="123419244" uid="3497659" user="NKA">
		<tag k="name" v="Snefjord - Muorral" />
		<tag k="name:no" v="Snefjord" />
		<tag k="name:se" v="Muorral" />
		<tag k="place" v="hamlet" />
		<tag k="ssr:stedsnr" v="445377" />
	</node>
	<node id="6203030879" lat="71.0077956" lon="25.003738" version="2" timestamp="2022-07-10T04:44:46Z" changeset="123419244" uid="3497659" user="NKA">
		<tag k="name" v="Måsøy" />
		<tag k="place" v="village" />
		<tag k="ssr:stedsnr" v="323712" />
	</node>
	<node id="9878280767" lat="71.0316916" lon="23.9870358" version="1" timestamp="2022-07-10T04:44:46Z" changeset="123419244" uid="3497659" user="NKA">
		<tag k="name" v="Gammelsætra" />
		<tag k="place" v="locality" />
		<tag k="ssr:stedsnr" v="958927" />
	</node>
	<node id="9878280768" lat="70.8549333" lon="24.3877356" version="1" timestamp="2022-07-10T04:44:46Z" changeset="123419244" uid="3497659" user="NKA">
		<tag k="name" v="Rotvikjorda" />
		<tag k="place" v="locality" />
		<tag k="ssr:stedsnr" v="445260" />
	</node>
	<node id="9878280769" lat="71.0522028" lon="24.0153636" version="1" timestamp="2022-07-10T04:44:46Z" changeset="123419244" uid="3497659" user="NKA">
		<tag k="name" v="Vikran" />
		<tag k="place" v="hamlet" />
		<tag k="ssr:stedsnr" v="930643" />
	</node>
	<node id="9878280770" lat="70.7660067" lon="24.3188875" version="1" timestamp="2022-07-10T04:44:46Z" changeset="123419244" uid="3497659" user="NKA">
		<tag k="alt_name:no" v="Sauhamn, yt" />
		<tag k="name" v="Ytre Sauhamn - Sávvenat" />
		<tag k="name:no" v="Ytre Sauhamn" />
		<tag k="name:se" v="Sávvenat" />
		<tag k="old_name:se" v="Savvenat" />
		<tag k="place" v="locality" />
		<tag k="ssr:stedsnr" v="809339" />
	</node>
	<node id="9878280771" lat="71.0050972" lon="23.8969969" version="1" timestamp="2022-07-10T04:44:46Z" changeset="123419244" uid="3497659" user="NKA">
		<tag k="name" v="Været" />
		<tag k="place" v="hamlet" />
		<tag k="ssr:stedsnr" v="145499" />
	</node>
	<node id="9878280772" lat="71.084617" lon="24.0583363" version="1" timestamp="2022-07-10T04:44:46Z" changeset="123419244" uid="3497659" user="NKA">
		<tag k="name" v="Ytterenga" />
		<tag k="place" v="neighbourhood" />
		<tag k="ssr:stedsnr" v="145332" />
	</node>
	<node id="9878280773" lat="70.7585633" lon="24.3602265" version="1" timestamp="2022-07-10T04:44:46Z" changeset="123419244" uid="3497659" user="NKA">
		<tag k="alt_name" v="Sauhamn, in" />
		<tag k="name" v="Indre Sauhamn" />
		<tag k="place" v="locality" />
		<tag k="ssr:stedsnr" v="263351" />
	</node>
	<node id="9878280774" lat="71.0100778" lon="24.0355691" version="1" timestamp="2022-07-10T04:44:46Z" changeset="123419244" uid="3497659" user="NKA">
		<tag k="name" v="Nordmannselva" />
		<tag k="place" v="isolated_dwelling" />
		<tag k="ssr:stedsnr" v="20644" />
	</node>
	<node id="9878280775" lat="70.8724361" lon="24.9383547" version="1" timestamp="2022-07-10T04:44:46Z" changeset="123419244" uid="3497659" user="NKA">
		<tag k="name" v="Hamna i Ryggefjord - Hávdna" />
		<tag k="name:no" v="Hamna i Ryggefjord" />
		<tag k="name:se" v="Hávdna" />
		<tag k="old_name:se" v="Havdna" />
		<tag k="place" v="hamlet" />
		<tag k="ssr:stedsnr" v="626431" />
	</node>
	<node id="9878280776" lat="70.7142972" lon="24.5787771" version="1" timestamp="2022-07-10T04:44:46Z" changeset="123419244" uid="3497659" user="NKA">
		<tag k="alt_name:se" v="Láhttár" />
		<tag k="name" v="Latter - Gohppi" />
		<tag k="name:no" v="Latter" />
		<tag k="name:se" v="Gohppi" />
		<tag k="old_name:se" v="Gåppi;Lattar" />
		<tag k="place" v="hamlet" />
		<tag k="ssr:stedsnr" v="24359" />
	</node>
	<node id="9878280777" lat="70.8743472" lon="25.0231074" version="1" timestamp="2022-07-10T04:44:46Z" changeset="123419244" uid="3497659" user="NKA">
		<tag k="name" v="Storslått" />
		<tag k="place" v="locality" />
		<tag k="ssr:stedsnr" v="291165" />
	</node>
	<node id="9878280778" lat="70.6951145" lon="24.6206687" version="1" timestamp="2022-07-10T04:44:46Z" changeset="123419244" uid="3497659" user="NKA">
		<tag k="name" v="Tjeldvik" />
		<tag k="place" v="farm" />
		<tag k="ssr:stedsnr" v="898473" />
	</node>
	<node id="9878280779" lat="70.6722805" lon="24.6267773" version="1" timestamp="2022-07-10T04:44:46Z" changeset="123419244" uid="3497659" user="NKA">
		<tag k="name" v="Vekselvik" />
		<tag k="place" v="locality" />
		<tag k="ssr:stedsnr" v="48460" />
	</node>
	<node id="9878280780" lat="70.9949053" lon="24.1675761" version="1" timestamp="2022-07-10T04:44:46Z" changeset="123419244" uid="3497659" user="NKA">
		<tag k="name" v="Kalveland" />
		<tag k="place" v="locality" />
		<tag k="ssr:stedsnr" v="748232" />
	</node>
	<node id="9878280781" lat="70.9717333" lon="24.0473858" version="1" timestamp="2022-07-10T04:44:46Z" changeset="123419244" uid="3497659" user="NKA">
		<tag k="name" v="Gargo" />
		<tag k="place" v="farm" />
		<tag k="ssr:stedsnr" v="935172" />
	</node>
	<node id="9878280782" lat="71.0790064" lon="24.1038242" version="1" timestamp="2022-07-10T04:44:46Z" changeset="123419244" uid="3497659" user="NKA">
		<tag k="alt_name" v="Lenninga" />
		<tag k="name" v="Lendingen" />
		<tag k="place" v="farm" />
		<tag k="ssr:stedsnr" v="687605" />
	</node>
	<node id="9878280783" lat="71.0245648" lon="24.016241" version="1" timestamp="2022-07-10T04:44:46Z" changeset="123419244" uid="3497659" user="NKA">
		<tag k="alt_name" v="Persand" />
		<tag k="name" v="Perstrand" />
		<tag k="place" v="locality" />
		<tag k="ssr:stedsnr" v="141627" />
	</node>
	<node id="9878280784" lat="71.0633639" lon="24.0851719" version="1" timestamp="2022-07-10T04:44:46Z" changeset="123419244" uid="3497659" user="NKA">
		<tag k="name" v="Vaktstua" />
		<tag k="place" v="locality" />
		<tag k="ssr:stedsnr" v="206043" />
	</node>
	<node id="9878280785" lat="71.0626861" lon="23.9948329" version="1" timestamp="2022-07-10T04:44:46Z" changeset="123419244" uid="3497659" user="NKA">
		<tag k="name" v="Mafjord" />
		<tag k="place" v="hamlet" />
		<tag k="ssr:stedsnr" v="747541" />
	</node>
	<node id="9878280786" lat="70.785901" lon="24.580978" version="1" timestamp="2022-07-10T04:44:46Z" changeset="123419244" uid="3497659" user="NKA">
		<tag k="name" v="Seiberg" />
		<tag k="place" v="isolated_dwelling" />
		<tag k="ssr:stedsnr" v="81352" />
	</node>
	<node id="9878280787" lat="70.8092568" lon="25.2688514" version="1" timestamp="2022-07-10T04:44:46Z" changeset="123419244" uid="3497659" user="NKA">
		<tag k="name" v="Kjerringvik - Gálagohppi" />
		<tag k="name:no" v="Kjerringvik" />
		<tag k="name:se" v="Gálagohppi" />
		<tag k="old_name:se" v="Galagåppi" />
		<tag k="place" v="hamlet" />
		<tag k="ssr:stedsnr" v="870118" />
	</node>
	<node id="9878280788" lat="71.0057194" lon="24.993702" version="1" timestamp="2022-07-10T04:44:46Z" changeset="123419244" uid="3497659" user="NKA">
		<tag k="name" v="Kilda" />
		<tag k="place" v="locality" />
		<tag k="ssr:stedsnr" v="754151" />
	</node>
	<node id="9878280789" lat="70.9984036" lon="24.1163649" version="1" timestamp="2022-07-10T04:44:46Z" changeset="123419244" uid="3497659" user="NKA">
		<tag k="name" v="Gunnarnes" />
		<tag k="place" v="village" />
		<tag k="ssr:stedsnr" v="748235" />
	</node>
	<node id="9878280790" lat="70.6937895" lon="24.6587131" version="1" timestamp="2022-07-10T04:44:46Z" changeset="123419244" uid="3497659" user="NKA">
		<tag k="name" v="Myrheim" />
		<tag k="place" v="farm" />
		<tag k="ssr:stedsnr" v="505821" />
	</node>
	<node id="9878280791" lat="70.9791346" lon="23.9972579" version="1" timestamp="2022-07-10T04:44:46Z" changeset="123419244" uid="3497659" user="NKA">
		<tag k="name" v="Sørkjosen" />
		<tag k="place" v="farm" />
		<tag k="ssr:stedsnr" v="809142" />
	</node>
	<node id="9878280792" lat="71.003375" lon="23.9350678" version="1" timestamp="2022-07-10T04:44:46Z" changeset="123419244" uid="3497659" user="NKA">
		<tag k="name" v="Sætra" />
		<tag k="place" v="farm" />
		<tag k="ssr:stedsnr" v="821261" />
	</node>
	<node id="9878280793" lat="71.0875056" lon="24.8035882" version="1" timestamp="2022-07-10T04:44:46Z" changeset="123419244" uid="3497659" user="NKA">
		<tag k="name" v="Svartvika" />
		<tag k="place" v="hamlet" />
		<tag k="ssr:stedsnr" v="747636" />
	</node>
	<node id="9878280794" lat="70.8076972" lon="25.2406768" version="1" timestamp="2022-07-10T04:44:46Z" changeset="123419244" uid="3497659" user="NKA">
		<tag k="name" v="Kobbesteinen" />
		<tag k="place" v="locality" />
		<tag k="ssr:stedsnr" v="748111" />
	</node>
	<node id="9878280795" lat="70.9902472" lon="24.0085636" version="1" timestamp="2022-07-10T04:44:46Z" changeset="123419244" uid="3497659" user="NKA">
		<tag k="name" v="Kallen" />
		<tag k="place" v="locality" />
		<tag k="ssr:stedsnr" v="327361" />
	</node>
	<node id="9878280796" lat="70.8509472" lon="25.3640155" version="1" timestamp="2022-07-10T04:44:46Z" changeset="123419244" uid="3497659" user="NKA">
		<tag k="name" v="Steingammen - Steainnagoahti" />
		<tag k="name:no" v="Steingammen" />
		<tag k="name:se" v="Steainnagoahti" />
		<tag k="old_name:se" v="Stæinagoatti" />
		<tag k="place" v="locality" />
		<tag k="ssr:stedsnr" v="869003" />
	</node>
	<node id="9878280797" lat="71.0253083" lon="24.0612968" version="1" timestamp="2022-07-10T04:44:46Z" changeset="123419244" uid="3497659" user="NKA">
		<tag k="name" v="Eidnes" />
		<tag k="place" v="farm" />
		<tag k="ssr:stedsnr" v="85171" />
	</node>
	<node id="9878280798" lat="70.9841829" lon="24.0168299" version="1" timestamp="2022-07-10T04:44:46Z" changeset="123419244" uid="3497659" user="NKA">
		<tag k="name" v="Storvik" />
		<tag k="place" v="farm" />
		<tag k="ssr:stedsnr" v="578546" />
	</node>
	<node id="9878280799" lat="71.0765806" lon="24.796977" version="1" timestamp="2022-07-10T04:44:46Z" changeset="123419244" uid="3497659" user="NKA">
		<tag k="name" v="Russesand" />
		<tag k="place" v="hamlet" />
		<tag k="ssr:stedsnr" v="202696" />
	</node>
	<node id="9878280800" lat="70.8011167" lon="24.5906632" version="1" timestamp="2022-07-10T04:44:46Z" changeset="123419244" uid="3497659" user="NKA">
		<tag k="name" v="Snefjordøya" />
		<tag k="place" v="farm" />
		<tag k="ssr:stedsnr" v="141045" />
	</node>
	<node id="9878280801" lat="70.9408333" lon="24.1382663" version="1" timestamp="2022-07-10T04:44:46Z" changeset="123419244" uid="3497659" user="NKA">
		<tag k="name" v="Rolvsøyhamn" />
		<tag k="place" v="isolated_dwelling" />
		<tag k="ssr:stedsnr" v="748209" />
	</node>
	<node id="9878280802" lat="70.8071694" lon="24.6253522" version="1" timestamp="2022-07-10T04:44:46Z" changeset="123419244" uid="3497659" user="NKA">
		<tag k="name" v="Krokelv" />
		<tag k="place" v="locality" />
		<tag k="ssr:stedsnr" v="875437" />
	</node>
	<node id="9878280803" lat="71.0218463" lon="24.0078419" version="1" timestamp="2022-07-10T04:44:46Z" changeset="123419244" uid="3497659" user="NKA">
		<tag k="name" v="Bukta" />
		<tag k="place" v="farm" />
		<tag k="ssr:stedsnr" v="384595" />
	</node>
	<node id="9878280804" lat="70.6945389" lon="24.6310051" version="1" timestamp="2022-07-10T04:44:46Z" changeset="123419244" uid="3497659" user="NKA">
		<tag k="name" v="Angnes" />
		<tag k="place" v="farm" />
		<tag k="ssr:stedsnr" v="141801" />
	</node>
	<node id="9878280805" lat="71.0790148" lon="24.0666121" version="1" timestamp="2022-07-10T04:44:46Z" changeset="123419244" uid="3497659" user="NKA">
		<tag k="name" v="Thule" />
		<tag k="place" v="farm" />
		<tag k="ssr:stedsnr" v="692010" />
	</node>
	<node id="9878280806" lat="71.0704625" lon="24.0401731" version="1" timestamp="2022-07-10T04:44:46Z" changeset="123419244" uid="3497659" user="NKA">
		<tag k="alt_name" v="Steinvika" />
		<tag k="name" v="Steinvik" />
		<tag k="place" v="locality" />
		<tag k="ssr:stedsnr" v="20602" />
	</node>
	<node id="9878280807" lat="71.0023506" lon="24.0553264" version="1" timestamp="2022-07-10T04:44:46Z" changeset="123419244" uid="3497659" user="NKA">
		<tag k="name" v="Nordhamna" />
		<tag k="place" v="hamlet" />
		<tag k="ssr:stedsnr" v="566596" />
	</node>
	<node id="9878280808" lat="71.0790801" lon="24.1228402" version="1" timestamp="2022-07-10T04:44:46Z" changeset="123419244" uid="3497659" user="NKA">
		<tag k="name" v="Myreng" />
		<tag k="place" v="locality" />
		<tag k="ssr:stedsnr" v="509006" />
	</node>
	<node id="9878280809" lat="70.9656797" lon="25.3687238" version="1" timestamp="2022-07-10T04:44:46Z" changeset="123419244" uid="3497659" user="NKA">
		<tag k="name" v="Stikkelvåg" />
		<tag k="place" v="hamlet" />
		<tag k="ssr:stedsnr" v="809485" />
	</node>
	<node id="9878280810" lat="70.8287277" lon="25.3386959" version="1" timestamp="2022-07-10T04:44:46Z" changeset="123419244" uid="3497659" user="NKA">
		<tag k="name" v="Langnes" />
		<tag k="place" v="isolated_dwelling" />
		<tag k="ssr:stedsnr" v="565106" />
	</node>
	<node id="9878280811" lat="71.07775" lon="24.7019882" version="1" timestamp="2022-07-10T04:44:46Z" changeset="123419244" uid="3497659" user="NKA">
		<tag k="name" v="Sandvikvær" />
		<tag k="place" v="hamlet" />
		<tag k="ssr:stedsnr" v="20668" />
	</node>
	<node id="9878280812" lat="71.0050632" lon="23.9089886" version="1" timestamp="2022-07-10T04:44:46Z" changeset="123419244" uid="3497659" user="NKA">
		<tag k="name" v="Tufjord" />
		<tag k="place" v="village" />
		<tag k="population" v="84" />
		<tag k="ssr:stedsnr" v="262551" />
	</node>
	<node id="9878280813" lat="70.8789777" lon="24.2880913" version="1" timestamp="2022-07-10T04:44:46Z" changeset="123419244" uid="3497659" user="NKA">
		<tag k="name" v="Reinøya" />
		<tag k="place" v="isolated_dwelling" />
		<tag k="ssr:stedsnr" v="654300" />
	</node>
	<node id="9878280814" lat="70.9771078" lon="24.0597556" version="1" timestamp="2022-07-10T04:44:46Z" changeset="123419244" uid="3497659" user="NKA">
		<tag k="name" v="Olagargo - Gárgu" />
		<tag k="name:no" v="Olagargo" />
		<tag k="name:se" v="Gárgu" />
		<tag k="old_name:se" v="Gargo" />
		<tag k="place" v="farm" />
		<tag k="ssr:stedsnr" v="81280" />
	</node>
	<node id="9878280815" lat="70.8589033" lon="24.3252485" version="1" timestamp="2022-07-10T04:44:46Z" changeset="123419244" uid="3497659" user="NKA">
		<tag k="name" v="Burstad" />
		<tag k="place" v="hamlet" />
		<tag k="ssr:stedsnr" v="202265" />
	</node>
	<node id="9878280816" lat="71.1025083" lon="24.7561716" version="1" timestamp="2022-07-10T04:44:46Z" changeset="123419244" uid="3497659" user="NKA">
		<tag k="name" v="Tarevika" />
		<tag k="place" v="isolated_dwelling" />
		<tag k="ssr:stedsnr" v="202673" />
	</node>
	<node id="9878306517" lat="70.9600184" lon="25.4348101" version="1" timestamp="2022-07-10T04:44:46Z" changeset="123419244" uid="3497659" user="NKA">
		<tag k="name" v="Risvika" />
		<tag k="place" v="farm" />
		<tag k="ssr:stedsnr" v="109854" />
	</node>
	<node id="9878306518" lat="70.7834083" lon="24.249794" version="1" timestamp="2022-07-10T04:44:46Z" changeset="123419244" uid="3497659" user="NKA">
		<tag k="name" v="Hattvika" />
		<tag k="place" v="locality" />
		<tag k="ssr:stedsnr" v="351280" />
	</node>
	<node id="9878306519" lat="70.9714389" lon="24.0439359" version="1" timestamp="2022-07-10T04:44:46Z" changeset="123419244" uid="3497659" user="NKA">
		<tag k="name" v="Tomastomta" />
		<tag k="place" v="farm" />
		<tag k="ssr:stedsnr" v="328176" />
	</node>
	<node id="9878306520" lat="70.6975071" lon="24.6561129" version="1" timestamp="2022-07-10T04:44:46Z" changeset="123419244" uid="3497659" user="NKA">
		<tag k="alt_name:se" v="Uhcavuonaš" />
		<tag k="name" v="Lillefjord - Vuotkevuotna" />
		<tag k="name:no" v="Lillefjord" />
		<tag k="name:se" v="Vuotkevuotna" />
		<tag k="place" v="hamlet" />
		<tag k="ssr:stedsnr" v="688792" />
	</node>
	<node id="9878306521" lat="71.0605363" lon="24.0497273" version="1" timestamp="2022-07-10T04:44:46Z" changeset="123419244" uid="3497659" user="NKA">
		<tag k="name" v="Kjerringnes" />
		<tag k="place" v="farm" />
		<tag k="ssr:stedsnr" v="206046" />
	</node>
	<node id="9878306522" lat="70.9456028" lon="23.9650913" version="1" timestamp="2022-07-10T04:44:46Z" changeset="123419244" uid="3497659" user="NKA">
		<tag k="name" v="Stoppelfjord" />
		<tag k="place" v="locality" />
		<tag k="ssr:stedsnr" v="533931" />
	</node>
	<node id="9878306523" lat="70.9082919" lon="24.5819476" version="1" timestamp="2022-07-10T04:44:46Z" changeset="123419244" uid="3497659" user="NKA">
		<tag k="alt_name" v="Sæter" />
		<tag k="name" v="Sandsæter" />
		<tag k="place" v="locality" />
		<tag k="ssr:stedsnr" v="870315" />
	</node>
	<node id="9878306524" lat="70.9587361" lon="24.6572381" version="1" timestamp="2022-07-10T04:44:46Z" changeset="123419244" uid="3497659" user="NKA">
		<tag k="name" v="Niipamuotki" />
		<tag k="name:se" v="Niipamuotki" />
		<tag k="place" v="isolated_dwelling" />
		<tag k="ssr:stedsnr" v="748408" />
	</node>
	<node id="9878306525" lat="70.9698611" lon="24.0981134" version="1" timestamp="2022-07-10T04:44:46Z" changeset="123419244" uid="3497659" user="NKA">
		<tag k="name" v="Gårdstrand" />
		<tag k="place" v="isolated_dwelling" />
		<tag k="ssr:stedsnr" v="565230" />
	</node>
	<node id="9878306526" lat="71.0809361" lon="24.014547" version="1" timestamp="2022-07-10T04:44:46Z" changeset="123419244" uid="3497659" user="NKA">
		<tag k="name" v="Finnes" />
		<tag k="place" v="hamlet" />
		<tag k="ssr:stedsnr" v="87336" />
	</node>
	<node id="9878306527" lat="70.8662138" lon="24.3622106" version="1" timestamp="2022-07-10T04:44:46Z" changeset="123419244" uid="3497659" user="NKA">
		<tag k="name" v="Nonstadnesjordet - Heallu" />
		<tag k="name:no" v="Nonstadnesjordet" />
		<tag k="name:se" v="Heallu" />
		<tag k="old_name:se" v="Hællo" />
		<tag k="place" v="locality" />
		<tag k="ssr:stedsnr" v="141269" />
	</node>
	<node id="9878306528" lat="71.0841278" lon="24.127508" version="1" timestamp="2022-07-10T04:44:46Z" changeset="123419244" uid="3497659" user="NKA">
		<tag k="name" v="Sletta" />
		<tag k="place" v="locality" />
		<tag k="ssr:stedsnr" v="351984" />
	</node>
	<node id="9878306529" lat="70.7906598" lon="24.5685146" version="1" timestamp="2022-07-10T04:44:46Z" changeset="123419244" uid="3497659" user="NKA">
		<tag k="name" v="Skavika" />
		<tag k="place" v="hamlet" />
		<tag k="ssr:stedsnr" v="206380" />
	</node>
	<node id="9878306530" lat="71.0563333" lon="24.7849909" version="1" timestamp="2022-07-10T04:44:46Z" changeset="123419244" uid="3497659" user="NKA">
		<tag k="alt_name" v="Kiholmen" />
		<tag k="name" v="Kjeholmen" />
		<tag k="place" v="isolated_dwelling" />
		<tag k="ssr:stedsnr" v="626710" />
	</node>
	<node id="9878306531" lat="70.8662042" lon="24.6738329" version="1" timestamp="2022-07-10T04:44:46Z" changeset="123419244" uid="3497659" user="NKA">
		<tag k="name" v="Bakfjord" />
		<tag k="place" v="isolated_dwelling" />
		<tag k="ssr:stedsnr" v="412336" />
	</node>
	<node id="9878306532" lat="71.0241907" lon="23.9952188" version="1" timestamp="2022-07-10T04:44:46Z" changeset="123419244" uid="3497659" user="NKA">
		<tag k="name" v="Sætervik" />
		<tag k="place" v="isolated_dwelling" />
		<tag k="ssr:stedsnr" v="837919" />
	</node>
</osm>
