<?xml version="1.0" encoding="UTF-8"?>
<osm generator="osmapis" version="0.6">
	<node id="-544384" lat="58.6875559657" lon="7.77671324332">
		<tag k="name" v="Bø" />
		<tag k="ssr:date" v="2019-12-27" />
		<tag k="ssr:gruppe" v="veg" />
		<tag k="ssr:hovedgruppe" v="infrastruktur" />
		<tag k="ssr:stedsnr" v="974189" />
		<tag k="ssr:type" v="adressetilleggsnavn" />
	</node>
	<node id="-544000" lat="58.9331694484" lon="7.68293332873">
		<tag k="name" v="Husevegen" />
		<tag k="ssr:date" v="2019-12-27" />
		<tag k="ssr:gruppe" v="veg" />
		<tag k="ssr:hovedgruppe" v="infrastruktur" />
		<tag k="ssr:stedsnr" v="788530" />
		<tag k="ssr:type" v="adressenavn" />
	</node>
	<node id="-541692" lat="58.7063694462" lon="7.83439166189">
		<tag k="name" v="Greibrokk" />
		<tag k="ssr:date" v="2019-12-27" />
		<tag k="ssr:gruppe" v="veg" />
		<tag k="ssr:hovedgruppe" v="infrastruktur" />
		<tag k="ssr:stedsnr" v="727268" />
		<tag k="ssr:type" v="adressetilleggsnavn" />
	</node>
	<node id="-544379" lat="58.9379980016" lon="7.7886909166">
		<tag k="name" v="Haugetveit" />
		<tag k="ssr:date" v="2019-12-27" />
		<tag k="ssr:gruppe" v="veg" />
		<tag k="ssr:hovedgruppe" v="infrastruktur" />
		<tag k="ssr:stedsnr" v="973723" />
		<tag k="ssr:type" v="adressetilleggsnavn" />
	</node>
	<node id="-542323" lat="58.7081809084" lon="7.792799778">
		<tag k="name" v="Sines" />
		<tag k="ssr:date" v="2019-12-27" />
		<tag k="ssr:gruppe" v="veg" />
		<tag k="ssr:hovedgruppe" v="infrastruktur" />
		<tag k="ssr:stedsnr" v="1054653" />
		<tag k="ssr:type" v="adressenavn" />
	</node>
	<node id="-542322" lat="58.7365531937" lon="7.80514341493">
		<tag k="name" v="Dalsøyan" />
		<tag k="ssr:date" v="2019-12-27" />
		<tag k="ssr:gruppe" v="veg" />
		<tag k="ssr:hovedgruppe" v="infrastruktur" />
		<tag k="ssr:stedsnr" v="1054651" />
		<tag k="ssr:type" v="adressenavn" />
	</node>
	<node id="-542321" lat="58.7241729313" lon="7.79729094308">
		<tag k="name" v="Ambogøyi" />
		<tag k="ssr:date" v="2019-12-27" />
		<tag k="ssr:gruppe" v="veg" />
		<tag k="ssr:hovedgruppe" v="infrastruktur" />
		<tag k="ssr:stedsnr" v="1054650" />
		<tag k="ssr:type" v="adressenavn" />
	</node>
	<node id="-542320" lat="58.6817997057" lon="7.79988345374">
		<tag k="name" v="Storøyi" />
		<tag k="ssr:date" v="2019-12-27" />
		<tag k="ssr:gruppe" v="veg" />
		<tag k="ssr:hovedgruppe" v="infrastruktur" />
		<tag k="ssr:stedsnr" v="1054649" />
		<tag k="ssr:type" v="adressenavn" />
	</node>
	<node id="-542319" lat="58.9385987191" lon="7.78817451054">
		<tag k="name" v="Haugetveit" />
		<tag k="ssr:date" v="2019-12-27" />
		<tag k="ssr:gruppe" v="veg" />
		<tag k="ssr:hovedgruppe" v="infrastruktur" />
		<tag k="ssr:stedsnr" v="973552" />
		<tag k="ssr:type" v="adressetilleggsnavn" />
	</node>
	<node id="-541754" lat="58.8634777756" lon="7.71042777839">
		<tag k="name" v="Skåmekleiva" />
		<tag k="ssr:date" v="2019-12-27" />
		<tag k="ssr:gruppe" v="veg" />
		<tag k="ssr:hovedgruppe" v="infrastruktur" />
		<tag k="ssr:stedsnr" v="728502" />
		<tag k="ssr:type" v="adressenavn" />
	</node>
	<node id="-543281" lat="58.6790944421" lon="7.78407778017">
		<tag k="name" v="Ystejordet" />
		<tag k="ssr:date" v="2019-12-27" />
		<tag k="ssr:gruppe" v="veg" />
		<tag k="ssr:hovedgruppe" v="infrastruktur" />
		<tag k="ssr:stedsnr" v="363547" />
		<tag k="ssr:type" v="adressetilleggsnavn" />
	</node>
	<node id="-544433" lat="69.6388889725" lon="30.5666644427">
		<tag k="fixme" v="multiple name tags, choose one and add the other to alt_name" />
		<tag k="loc_name:se" v="Norgga gonagasriika" />
		<tag k="loc_name:sma" v="Nöörjen gånkarïjhke" />
		<tag k="loc_name:smj" v="Vuona gånågisrijkka" />
		<tag k="name" v="Noreg;Norge" />
		<tag k="name:en" v="Norway" />
		<tag k="name:no" v="Noreg;Norge" />
		<tag k="ssr:date" v="2020-06-04" />
		<tag k="ssr:gruppe" v="administrativeIndelinger" />
		<tag k="ssr:hovedgruppe" v="offentligAdministrasjon" />
		<tag k="ssr:stedsnr" v="26330" />
		<tag k="ssr:type" v="nasjon" />
	</node>
	<node id="-544399" lat="58.1511039845" lon="7.99409139476">
		<tag k="name" v="Agder fylke" />
		<tag k="ssr:date" v="2020-01-13" />
		<tag k="ssr:gruppe" v="administrativeIndelinger" />
		<tag k="ssr:hovedgruppe" v="offentligAdministrasjon" />
		<tag k="ssr:stedsnr" v="1073974" />
		<tag k="ssr:type" v="fylke" />
	</node>
	<node id="-542861" lat="58.8313861103" lon="7.79716110905">
		<tag k="name" v="Bygland kommune" />
		<tag k="ssr:date" v="2019-12-27" />
		<tag k="ssr:gruppe" v="administrativeIndelinger" />
		<tag k="ssr:hovedgruppe" v="offentligAdministrasjon" />
		<tag k="ssr:stedsnr" v="145031" />
		<tag k="ssr:type" v="kommune" />
	</node>
	<node id="-544394" lat="58.8733972492" lon="7.70481581857">
		<tag k="name" v="Gamlestog" />
		<tag k="ssr:date" v="2020-01-15" />
		<tag k="ssr:gruppe" v="veg" />
		<tag k="ssr:hovedgruppe" v="infrastruktur" />
		<tag k="ssr:stedsnr" v="977308" />
		<tag k="ssr:type" v="adressetilleggsnavn" />
	</node>
	<node id="-544393" lat="58.8706497337" lon="7.70503182677">
		<tag k="name" v="Bjørkevollen" />
		<tag k="ssr:date" v="2020-01-15" />
		<tag k="ssr:gruppe" v="veg" />
		<tag k="ssr:hovedgruppe" v="infrastruktur" />
		<tag k="ssr:stedsnr" v="977307" />
		<tag k="ssr:type" v="adressetilleggsnavn" />
	</node>
	<node id="-544392" lat="58.8221406208" lon="7.80224324983">
		<tag k="name" v="Libakk" />
		<tag k="ssr:date" v="2019-12-27" />
		<tag k="ssr:gruppe" v="veg" />
		<tag k="ssr:hovedgruppe" v="infrastruktur" />
		<tag k="ssr:stedsnr" v="977306" />
		<tag k="ssr:type" v="adressetilleggsnavn" />
	</node>
	<node id="-544391" lat="58.9796571246" lon="7.54539399203">
		<tag k="name" v="Fitjebakk" />
		<tag k="ssr:date" v="2019-12-27" />
		<tag k="ssr:gruppe" v="veg" />
		<tag k="ssr:hovedgruppe" v="infrastruktur" />
		<tag k="ssr:stedsnr" v="977303" />
		<tag k="ssr:type" v="adressetilleggsnavn" />
	</node>
	<node id="-544390" lat="58.9825612096" lon="7.5437868093">
		<tag k="name" v="Krokå" />
		<tag k="ssr:date" v="2019-12-27" />
		<tag k="ssr:gruppe" v="veg" />
		<tag k="ssr:hovedgruppe" v="infrastruktur" />
		<tag k="ssr:stedsnr" v="977301" />
		<tag k="ssr:type" v="adressetilleggsnavn" />
	</node>
	<node id="-544389" lat="58.8760940644" lon="7.70567587729">
		<tag k="name" v="Nordgarden" />
		<tag k="ssr:date" v="2020-01-15" />
		<tag k="ssr:gruppe" v="veg" />
		<tag k="ssr:hovedgruppe" v="infrastruktur" />
		<tag k="ssr:stedsnr" v="977300" />
		<tag k="ssr:type" v="adressetilleggsnavn" />
	</node>
	<node id="-544388" lat="58.9178145233" lon="7.74283931799">
		<tag k="name" v="Haugedal" />
		<tag k="ssr:date" v="2019-12-27" />
		<tag k="ssr:gruppe" v="veg" />
		<tag k="ssr:hovedgruppe" v="infrastruktur" />
		<tag k="ssr:stedsnr" v="974206" />
		<tag k="ssr:type" v="adressetilleggsnavn" />
	</node>
	<node id="-544387" lat="58.8329205003" lon="7.78115241938">
		<tag k="name" v="Nese" />
		<tag k="ssr:date" v="2019-12-27" />
		<tag k="ssr:gruppe" v="veg" />
		<tag k="ssr:hovedgruppe" v="infrastruktur" />
		<tag k="ssr:stedsnr" v="974193" />
		<tag k="ssr:type" v="adressetilleggsnavn" />
	</node>
	<node id="-544386" lat="58.8130512636" lon="7.76294033381">
		<tag k="name" v="Hamre" />
		<tag k="ssr:date" v="2019-12-27" />
		<tag k="ssr:gruppe" v="veg" />
		<tag k="ssr:hovedgruppe" v="infrastruktur" />
		<tag k="ssr:stedsnr" v="974191" />
		<tag k="ssr:type" v="adressetilleggsnavn" />
	</node>
</osm>
