<?xml version="1.0" encoding="UTF-8"?>
<osm generator="osmapis" version="0.6">
	<node id="-442880" lat="59.8907333349" lon="5.33447777923">
		<tag k="name" v="Tveitatræ" />
		<tag k="place" v="farm" />
		<tag k="ssr:stedsnr" v="401384" />
	</node>
	<node id="-443385" lat="59.9328837586" lon="5.45692006722">
		<tag k="alt_name" v="Raunholm søre" />
		<tag k="fixme" v="consider place=hamlet" />
		<tag k="name" v="Søre Raunholmen" />
		<tag k="place" v="farm" />
		<tag k="ssr:stedsnr" v="643082" />
	</node>
	<node id="-443367" lat="59.8980373005" lon="5.32405306662">
		<tag k="fixme" v="consider place=hamlet" />
		<tag k="name" v="Nesbø" />
		<tag k="place" v="farm" />
		<tag k="ssr:stedsnr" v="610849" />
	</node>
	<node id="-443352" lat="59.9170694475" lon="5.3117055494">
		<tag k="name" v="Prestbø" />
		<tag k="place" v="farm" />
		<tag k="ssr:stedsnr" v="584009" />
	</node>
	<node id="-443339" lat="59.9160583342" lon="5.32990833826">
		<tag k="fixme" v="consider place=hamlet" />
		<tag k="name" v="Fitjar" />
		<tag k="place" v="farm" />
		<tag k="ssr:stedsnr" v="583109" />
	</node>
	<node id="-443337" lat="59.9012277771" lon="5.33927222307">
		<tag k="name" v="Søldreid" />
		<tag k="place" v="farm" />
		<tag k="ssr:stedsnr" v="583101" />
	</node>
	<node id="-442823" lat="59.9214972214" lon="5.32966389294">
		<tag k="leisure" v="pitch" />
		<tag k="name" v="Idrettsplass" />
		<tag k="ssr:stedsnr" v="341015" />
	</node>
	<node id="-443327" lat="59.8598151192" lon="5.27370302152">
		<tag k="fixme" v="consider place=hamlet" />
		<tag k="name" v="Tangen" />
		<tag k="place" v="farm" />
		<tag k="ssr:stedsnr" v="571747" />
	</node>
	<node id="-443319" lat="59.9292428351" lon="5.33067014515">
		<tag k="alt_name" v="Breidvik" />
		<tag k="fixme" v="consider place=hamlet" />
		<tag k="name" v="Breidvika" />
		<tag k="place" v="farm" />
		<tag k="ssr:stedsnr" v="550773" />
	</node>
	<node id="-442805" lat="59.9373159157" lon="5.28944780758">
		<tag k="fixme" v="consider place=hamlet" />
		<tag k="name" v="Sørfonno" />
		<tag k="place" v="farm" />
		<tag k="ssr:stedsnr" v="307799" />
	</node>
	<node id="-442800" lat="59.9556638873" lon="5.38713333314">
		<tag k="fixme" v="consider place=hamlet" />
		<tag k="name" v="Nordre Engevik" />
		<tag k="place" v="farm" />
		<tag k="ssr:stedsnr" v="307195" />
	</node>
	<node id="-442799" lat="59.9763641702" lon="5.3193071626">
		<tag k="fixme" v="consider place=hamlet" />
		<tag k="name" v="Stokken" />
		<tag k="place" v="farm" />
		<tag k="ssr:stedsnr" v="307188" />
	</node>
	<node id="-442798" lat="59.9680232166" lon="5.32412926423">
		<tag k="fixme" v="consider place=hamlet" />
		<tag k="name" v="Tveit" />
		<tag k="place" v="farm" />
		<tag k="ssr:stedsnr" v="307170" />
	</node>
	<node id="-443308" lat="59.8772717274" lon="5.23698033824">
		<tag k="alt_name" v="Kuvik" />
		<tag k="fixme" v="consider place=hamlet" />
		<tag k="name" v="Kuvika" />
		<tag k="place" v="farm" />
		<tag k="ssr:stedsnr" v="549923" />
	</node>
	<node id="-442794" lat="59.9572277743" lon="5.29519722559">
		<tag k="name" v="Nestræ" />
		<tag k="place" v="farm" />
		<tag k="ssr:stedsnr" v="281013" />
	</node>
	<node id="-443305" lat="59.8585386493" lon="5.3708528404">
		<tag k="fixme" v="consider place=hamlet" />
		<tag k="name" v="Sætrabø" />
		<tag k="place" v="farm" />
		<tag k="ssr:stedsnr" v="549900" />
	</node>
	<node id="-442790" lat="59.9247722205" lon="5.32785833372">
		<tag k="leisure" v="pitch" />
		<tag k="name" v="Idrettsbane" />
		<tag k="ssr:stedsnr" v="280504" />
	</node>
	<node id="-442789" lat="59.8975906953" lon="5.15860918302">
		<tag k="name" v="Pålstova" />
		<tag k="place" v="isolated_dwelling" />
		<tag k="ssr:stedsnr" v="280476" />
	</node>
	<node id="-443296" lat="59.961758798" lon="5.35690090606">
		<tag k="name" v="Levåg" />
		<tag k="place" v="hamlet" />
		<tag k="ssr:stedsnr" v="545850" />
	</node>
	<node id="-442778" lat="59.9599194446" lon="5.37959167304">
		<tag k="name" v="Kuleskotet" />
		<tag k="place" v="farm" />
		<tag k="ssr:stedsnr" v="280066" />
	</node>
	<node id="-443287" lat="59.9155722181" lon="5.33923332676">
		<tag k="historic" v="shieling" />
		<tag k="name" v="Volden" />
		<tag k="place" v="locality" />
		<tag k="ssr:stedsnr" v="523116" />
	</node>
	<node id="-442947" lat="59.8965779241" lon="5.24145561453">
		<tag k="fixme" v="consider place=hamlet" />
		<tag k="name" v="Straumøya" />
		<tag k="place" v="farm" />
		<tag k="ssr:stedsnr" v="989948" />
	</node>
	<node id="-442946" lat="59.8889793022" lon="5.20727118907">
		<tag k="fixme" v="consider place=hamlet" />
		<tag k="name" v="Tranøya" />
		<tag k="place" v="farm" />
		<tag k="ssr:stedsnr" v="989946" />
	</node>
	<node id="-443270" lat="59.8169194487" lon="5.3251527801">
		<tag k="name" v="Selevik" />
		<tag k="place" v="isolated_dwelling" />
		<tag k="ssr:stedsnr" v="511372" />
	</node>
	<node id="-443258" lat="59.873398923" lon="5.34706040442">
		<tag k="fixme" v="consider place=hamlet" />
		<tag k="name" v="Årbø" />
		<tag k="place" v="farm" />
		<tag k="ssr:stedsnr" v="489925" />
	</node>
	<node id="-443257" lat="59.8640116052" lon="5.26998152054">
		<tag k="alt_name" v="Hamn" />
		<tag k="fixme" v="consider place=hamlet" />
		<tag k="name" v="Fattigmannshamn" />
		<tag k="place" v="farm" />
		<tag k="ssr:stedsnr" v="489915" />
	</node>
	<node id="-443254" lat="59.862343029" lon="5.3446057624">
		<tag k="alt_name" v="Rydland;Raudland" />
		<tag k="fixme" v="consider place=hamlet" />
		<tag k="name" v="Røydland" />
		<tag k="place" v="farm" />
		<tag k="ssr:stedsnr" v="489890" />
	</node>
	<node id="-443226" lat="59.8434555516" lon="5.33642777529">
		<tag k="historic" v="shieling" />
		<tag k="name" v="Tislevollseter" />
		<tag k="place" v="locality" />
		<tag k="ssr:stedsnr" v="462403" />
	</node>
	<node id="-443225" lat="59.8666527814" lon="5.30103056385">
		<tag k="name" v="Sætre" />
		<tag k="place" v="farm" />
		<tag k="ssr:stedsnr" v="462399" />
	</node>
	<node id="-443317" lat="59.9199555513" lon="5.32128889411">
		<tag k="name" v="Fitjar" />
		<tag k="place" v="farm" />
		<tag k="ssr:stedsnr" v="550759" />
	</node>
	<node id="-443530" lat="59.9180333317" lon="5.31674167043">
		<tag k="name" v="Fitjar" />
		<tag k="place" v="village" />
		<tag k="ssr:stedsnr" v="793786" />
	</node>
	<node id="-443185" lat="59.9457893911" lon="5.41151145716">
		<tag k="alt_name" v="Vistvik" />
		<tag k="fixme" v="consider place=hamlet" />
		<tag k="name" v="Vistvika" />
		<tag k="place" v="farm" />
		<tag k="ssr:stedsnr" v="428804" />
	</node>
	<node id="-443183" lat="59.9450011605" lon="5.40419553408">
		<tag k="fixme" v="consider place=hamlet" />
		<tag k="name" v="Hovland" />
		<tag k="place" v="farm" />
		<tag k="ssr:stedsnr" v="428775" />
	</node>
	<node id="-443177" lat="59.9242916666" lon="5.31876944643">
		<tag k="name" v="Træ" />
		<tag k="place" v="farm" />
		<tag k="ssr:stedsnr" v="268230" />
	</node>
	<node id="-443176" lat="59.9228111092" lon="5.32498610644">
		<tag k="name" v="Bakken" />
		<tag k="place" v="farm" />
		<tag k="ssr:stedsnr" v="268231" />
	</node>
	<node id="-443172" lat="59.8180694431" lon="5.33862500255">
		<tag k="name" v="Skomyra" />
		<tag k="place" v="farm" />
		<tag k="ssr:stedsnr" v="247517" />
	</node>
	<node id="-443166" lat="59.91211981" lon="5.32839553471">
		<tag k="fixme" v="consider place=hamlet" />
		<tag k="name" v="Rimbareid" />
		<tag k="place" v="farm" />
		<tag k="ssr:stedsnr" v="246846" />
	</node>
	<node id="-443144" lat="59.9079416702" lon="5.31017500087">
		<tag k="name" v="Vestbøstad" />
		<tag k="place" v="farm" />
		<tag k="ssr:stedsnr" v="220115" />
	</node>
	<node id="-443142" lat="59.9153694447" lon="5.31401388574">
		<tag k="fixme" v="consider place=hamlet" />
		<tag k="name" v="Prestbø" />
		<tag k="place" v="farm" />
		<tag k="ssr:stedsnr" v="220114" />
	</node>
	<node id="-443126" lat="59.9468305545" lon="5.40218332901">
		<tag k="name" v="Hagen" />
		<tag k="place" v="farm" />
		<tag k="ssr:stedsnr" v="207247" />
	</node>
	<node id="-443006" lat="59.9570226884" lon="5.3130068521">
		<tag k="alt_name" v="Litlenes" />
		<tag k="fixme" v="consider place=hamlet" />
		<tag k="name" v="Litlanes" />
		<tag k="place" v="farm" />
		<tag k="ssr:stedsnr" v="64157" />
	</node>
	<node id="-443118" lat="59.9226860771" lon="5.4750057298">
		<tag k="fixme" v="consider place=hamlet" />
		<tag k="name" v="Eide" />
		<tag k="place" v="farm" />
		<tag k="ssr:stedsnr" v="186760" />
	</node>
	<node id="-443117" lat="59.9428955794" lon="5.42716908923">
		<tag k="alt_name" v="Hagberg" />
		<tag k="fixme" v="consider place=hamlet" />
		<tag k="name" v="Hageberg" />
		<tag k="place" v="farm" />
		<tag k="ssr:stedsnr" v="186808" />
	</node>
	<node id="-443115" lat="59.9161694472" lon="5.31456388821">
		<tag k="name" v="Fitjar" />
		<tag k="place" v="farm" />
		<tag k="ssr:stedsnr" v="186620" />
	</node>
	<node id="-443114" lat="59.9598770054" lon="5.3591907065">
		<tag k="alt_name" v="Levåg, øvre" />
		<tag k="fixme" v="consider place=hamlet" />
		<tag k="name" v="Øvre Levåg" />
		<tag k="place" v="farm" />
		<tag k="ssr:stedsnr" v="186181" />
	</node>
	<node id="-443625" lat="59.823711107" lon="5.32104721606">
		<tag k="name" v="Jordnåo" />
		<tag k="place" v="isolated_dwelling" />
		<tag k="ssr:stedsnr" v="935177" />
	</node>
	<node id="-443624" lat="59.8627750002" lon="5.30277221362">
		<tag k="alt_name" v="Nymark" />
		<tag k="name" v="Koløystø" />
		<tag k="place" v="farm" />
		<tag k="ssr:stedsnr" v="935174" />
	</node>
	<node id="-443111" lat="59.8908213958" lon="5.220114184">
		<tag k="alt_name" v="Haslevika" />
		<tag k="fixme" v="consider place=hamlet" />
		<tag k="name" v="Hatlevika" />
		<tag k="place" v="farm" />
		<tag k="ssr:stedsnr" v="185832" />
	</node>
	<node id="-443615" lat="59.8969757432" lon="5.21401734266">
		<tag k="fixme" v="consider place=hamlet" />
		<tag k="name" v="Dalen" />
		<tag k="place" v="farm" />
		<tag k="ssr:stedsnr" v="914841" />
	</node>
	<node id="-443606" lat="59.814396531" lon="5.34544787048">
		<tag k="fixme" v="consider place=hamlet" />
		<tag k="name" v="Stokken" />
		<tag k="place" v="farm" />
		<tag k="ssr:stedsnr" v="914560" />
	</node>
	<node id="-443604" lat="59.915766666" lon="5.31699444657">
		<tag k="name" v="Prestbø" />
		<tag k="place" v="farm" />
		<tag k="ssr:stedsnr" v="875248" />
	</node>
	<node id="-443089" lat="59.8273555535" lon="5.31914166831">
		<tag k="name" v="Søre Skaret" />
		<tag k="place" v="farm" />
		<tag k="ssr:stedsnr" v="159073" />
	</node>
	<node id="-443085" lat="59.9687805578" lon="5.35967221359">
		<tag k="fixme" v="consider place=hamlet" />
		<tag k="name" v="Færøysund" />
		<tag k="place" v="village" />
		<tag k="ssr:stedsnr" v="146248" />
	</node>
	<node id="-443594" lat="59.9332868153" lon="5.45539245052">
		<tag k="loc_name" v="Raunholm" />
		<tag k="name" v="Raunholmen" />
		<tag k="place" v="hamlet" />
		<tag k="ssr:stedsnr" v="854760" />
	</node>
	<node id="-443077" lat="59.8799116996" lon="5.31755984126">
		<tag k="fixme" v="consider place=hamlet" />
		<tag k="name" v="Helland" />
		<tag k="place" v="farm" />
		<tag k="ssr:stedsnr" v="125944" />
	</node>
	<node id="-443074" lat="59.863684543" lon="5.35852893171">
		<tag k="fixme" v="consider place=hamlet" />
		<tag k="name" v="Liarbø" />
		<tag k="place" v="farm" />
		<tag k="ssr:stedsnr" v="125909" />
	</node>
	<node id="-443583" lat="59.9088278072" lon="5.30182540782">
		<tag k="fixme" v="consider place=hamlet" />
		<tag k="name" v="Vestbøstad" />
		<tag k="place" v="farm" />
		<tag k="ssr:stedsnr" v="853869" />
	</node>
	<node id="-442903" lat="59.951708332" lon="5.35921388451">
		<tag k="historic" v="shieling" />
		<tag k="name" v="Levågsætre" />
		<tag k="place" v="locality" />
		<tag k="ssr:stedsnr" v="887050" />
	</node>
	<node id="-443054" lat="59.9389972178" lon="5.33541666265">
		<tag k="historic" v="shieling" />
		<tag k="name" v="Årskog" />
		<tag k="place" v="locality" />
		<tag k="ssr:stedsnr" v="99027" />
	</node>
	<node id="-443564" lat="59.9531833329" lon="5.39004165939">
		<tag k="alt_name" v="Engjavik" />
		<tag k="name" v="Engjavika" />
		<tag k="place" v="hamlet" />
		<tag k="ssr:stedsnr" v="849920" />
	</node>
	<node id="-443556" lat="59.8715999959" lon="5.3335166605">
		<tag k="name" v="Hovstad" />
		<tag k="place" v="farm" />
		<tag k="ssr:stedsnr" v="827430" />
	</node>
	<node id="-443553" lat="59.9231027738" lon="5.2511111036">
		<tag k="name" v="Revet" />
		<tag k="place" v="farm" />
		<tag k="ssr:stedsnr" v="827099" />
	</node>
	<node id="-443034" lat="59.9065555561" lon="5.30963333503">
		<tag k="name" v="Torland" />
		<tag k="place" v="farm" />
		<tag k="ssr:stedsnr" v="98102" />
	</node>
	<node id="-443032" lat="59.9445222214" lon="5.41092776983">
		<tag k="historic" v="shieling" />
		<tag k="name" v="Grønestølen" />
		<tag k="place" v="locality" />
		<tag k="ssr:stedsnr" v="98077" />
	</node>
	<node id="-443030" lat="59.9507083305" lon="5.39141110814">
		<tag k="alt_name" v="Engevik søre" />
		<tag k="fixme" v="consider place=hamlet" />
		<tag k="name" v="Søre Engevik" />
		<tag k="place" v="farm" />
		<tag k="ssr:stedsnr" v="98072" />
	</node>
	<node id="-443019" lat="59.9668444418" lon="5.33491107232">
		<tag k="alt_name" v="Sandvik" />
		<tag k="fixme" v="consider place=hamlet" />
		<tag k="name" v="Sandvika" />
		<tag k="place" v="farm" />
		<tag k="ssr:stedsnr" v="65187" />
	</node>
	<node id="-443018" lat="59.8364027774" lon="5.31525000423">
		<tag k="name" v="Hermansplassen" />
		<tag k="place" v="farm" />
		<tag k="ssr:stedsnr" v="65000" />
	</node>
	<node id="-443017" lat="59.8269888871" lon="5.31886111222">
		<tag k="name" v="Skardet" />
		<tag k="place" v="farm" />
		<tag k="ssr:stedsnr" v="64982" />
	</node>
	<node id="-443016" lat="59.8739196145" lon="5.33047310209">
		<tag k="alt_name" v="Hofstad" />
		<tag k="fixme" v="consider place=hamlet" />
		<tag k="name" v="Hovstø" />
		<tag k="place" v="farm" />
		<tag k="ssr:stedsnr" v="64949" />
	</node>
	<node id="-443519" lat="59.8979361084" lon="5.33623054893">
		<tag k="name" v="Vik" />
		<tag k="place" v="farm" />
		<tag k="ssr:stedsnr" v="792817" />
	</node>
	<node id="-443518" lat="59.9508482834" lon="5.32808950443">
		<tag k="alt_name" v="Lande" />
		<tag k="fixme" v="consider place=hamlet" />
		<tag k="name" v="Landa" />
		<tag k="place" v="farm" />
		<tag k="ssr:stedsnr" v="792788" />
	</node>
	<node id="-443516" lat="59.9374783792" lon="5.33630819369">
		<tag k="fixme" v="consider place=hamlet" />
		<tag k="name" v="Årskog" />
		<tag k="place" v="farm" />
		<tag k="ssr:stedsnr" v="792770" />
	</node>
	<node id="-443511" lat="59.9590317834" lon="5.32544196461">
		<tag k="fixme" v="consider place=hamlet" />
		<tag k="name" v="Gloppo" />
		<tag k="place" v="farm" />
		<tag k="ssr:stedsnr" v="792178" />
	</node>
	<node id="-443505" lat="59.9152944418" lon="5.29320554854">
		<tag k="name" v="Kalveid" />
		<tag k="place" v="farm" />
		<tag k="ssr:stedsnr" v="766464" />
	</node>
	<node id="-442991" lat="59.8482000018" lon="5.32387222144">
		<tag k="historic" v="shieling" />
		<tag k="name" v="Hovstadseter" />
		<tag k="place" v="locality" />
		<tag k="ssr:stedsnr" v="37432" />
	</node>
	<node id="-443495" lat="59.9205638926" lon="5.33134721712">
		<tag k="historic" v="shieling" />
		<tag k="name" v="Fitjarstølen" />
		<tag k="place" v="locality" />
		<tag k="ssr:stedsnr" v="766014" />
	</node>
	<node id="-442980" lat="59.9473861147" lon="5.40226666466">
		<tag k="name" v="Hovlandshagen" />
		<tag k="place" v="farm" />
		<tag k="ssr:stedsnr" v="37095" />
	</node>
	<node id="-442979" lat="59.9356452556" lon="5.44799208636">
		<tag k="alt_name" v="Raunholm nordre" />
		<tag k="fixme" v="consider place=hamlet" />
		<tag k="name" v="Nordre Raunholmen" />
		<tag k="place" v="farm" />
		<tag k="ssr:stedsnr" v="37077" />
	</node>
	<node id="-442971" lat="59.8826568438" lon="5.25264487526">
		<tag k="alt_name" v="Sætravik" />
		<tag k="fixme" v="consider place=hamlet" />
		<tag k="name" v="Sætravika" />
		<tag k="place" v="farm" />
		<tag k="ssr:stedsnr" v="4554" />
	</node>
	<node id="-442968" lat="59.9628306848" lon="5.31512833054">
		<tag k="name" v="Tuftaland" />
		<tag k="place" v="hamlet" />
		<tag k="ssr:stedsnr" v="4164" />
	</node>
	<node id="-443474" lat="59.8658277772" lon="5.29545554807">
		<tag k="name" v="Korsvik" />
		<tag k="place" v="farm" />
		<tag k="ssr:stedsnr" v="732920" />
	</node>
	<node id="-443473" lat="59.865452809" lon="5.33662627135">
		<tag k="fixme" v="consider place=hamlet" />
		<tag k="name" v="Tislavoll" />
		<tag k="place" v="farm" />
		<tag k="ssr:stedsnr" v="732913" />
	</node>
	<node id="-443471" lat="59.8534734777" lon="5.31003320678">
		<tag k="alt_name" v="Storavik" />
		<tag k="fixme" v="consider place=hamlet" />
		<tag k="name" v="Storevika" />
		<tag k="place" v="farm" />
		<tag k="ssr:stedsnr" v="732893" />
	</node>
	<node id="-443467" lat="59.9501527756" lon="5.39404167136">
		<tag k="name" v="Sørgard" />
		<tag k="place" v="farm" />
		<tag k="ssr:stedsnr" v="732806" />
	</node>
	<node id="-442950" lat="59.9216184491" lon="5.3212276848">
		<tag k="fixme" v="consider place=hamlet" />
		<tag k="name" v="Hamnen" />
		<tag k="place" v="farm" />
		<tag k="ssr:stedsnr" v="989951" />
	</node>
	<node id="-442949" lat="59.9167278227" lon="5.30631403614">
		<tag k="fixme" v="consider place=hamlet" />
		<tag k="name" v="Skålevik" />
		<tag k="place" v="farm" />
		<tag k="ssr:stedsnr" v="989950" />
	</node>
	<node id="-443460" lat="59.9165707783" lon="5.33769606632">
		<tag k="alt_name" v="Voll" />
		<tag k="fixme" v="consider place=hamlet" />
		<tag k="name" v="Vollen" />
		<tag k="place" v="farm" />
		<tag k="ssr:stedsnr" v="732757" />
	</node>
	<node id="-443459" lat="59.959075396" lon="5.30363230083">
		<tag k="fixme" v="consider place=hamlet" />
		<tag k="name" v="Skumsnes" />
		<tag k="place" v="farm" />
		<tag k="ssr:stedsnr" v="732194" />
	</node>
	<node id="-443458" lat="59.908838889" lon="5.32556111838">
		<tag k="name" v="Tangen" />
		<tag k="place" v="farm" />
		<tag k="ssr:stedsnr" v="731854" />
	</node>
	<node id="-442945" lat="59.8886782131" lon="5.1853093479">
		<tag k="fixme" v="consider place=hamlet" />
		<tag k="name" v="Nattarøya" />
		<tag k="place" v="farm" />
		<tag k="ssr:stedsnr" v="989943" />
	</node>
	<node id="-442944" lat="59.8967942906" lon="5.15828601144">
		<tag k="fixme" v="consider place=hamlet" />
		<tag k="name" v="Tverdarvik" />
		<tag k="place" v="farm" />
		<tag k="ssr:stedsnr" v="989942" />
	</node>
	<node id="-442943" lat="59.9125470714" lon="5.12948256752">
		<tag k="fixme" v="consider place=hamlet" />
		<tag k="name" v="Hanøya" />
		<tag k="place" v="farm" />
		<tag k="ssr:stedsnr" v="989941" />
	</node>
	<node id="-442942" lat="59.9233747378" lon="5.1643117867">
		<tag k="name" v="Eggøya" />
		<tag k="place" v="hamlet" />
		<tag k="ssr:stedsnr" v="989940" />
	</node>
	<node id="-442941" lat="59.9115822003" lon="5.17259755024">
		<tag k="fixme" v="consider place=hamlet" />
		<tag k="name" v="Torsdagsøy" />
		<tag k="place" v="farm" />
		<tag k="ssr:stedsnr" v="989932" />
	</node>
	<node id="-442940" lat="59.9289532515" lon="5.20519394717">
		<tag k="fixme" v="consider place=hamlet" />
		<tag k="name" v="Siglo" />
		<tag k="place" v="farm" />
		<tag k="ssr:stedsnr" v="989931" />
	</node>
	<node id="-442939" lat="59.9288474617" lon="5.217051952">
		<tag k="fixme" v="consider place=hamlet" />
		<tag k="name" v="Bukkholmen" />
		<tag k="place" v="farm" />
		<tag k="ssr:stedsnr" v="989930" />
	</node>
	<node id="-442938" lat="59.9085649115" lon="5.20785097435">
		<tag k="fixme" v="consider place=hamlet" />
		<tag k="name" v="Langøya" />
		<tag k="place" v="farm" />
		<tag k="ssr:stedsnr" v="989928" />
	</node>
	<node id="-442937" lat="59.9175754155" lon="5.23546843623">
		<tag k="fixme" v="consider place=hamlet" />
		<tag k="name" v="Ivarsøy" />
		<tag k="place" v="farm" />
		<tag k="ssr:stedsnr" v="989927" />
	</node>
	<node id="-442936" lat="59.9191202102" lon="5.25325141091">
		<tag k="fixme" v="consider place=hamlet" />
		<tag k="name" v="Vestre Engesund" />
		<tag k="place" v="farm" />
		<tag k="ssr:stedsnr" v="989926" />
	</node>
	<node id="-442935" lat="59.9216593193" lon="5.26995394271">
		<tag k="fixme" v="consider place=hamlet" />
		<tag k="name" v="Kjeholmen" />
		<tag k="place" v="farm" />
		<tag k="ssr:stedsnr" v="989925" />
	</node>
	<node id="-442934" lat="59.9092342123" lon="5.26598155154">
		<tag k="fixme" v="consider place=hamlet" />
		<tag k="name" v="Gloppholmen" />
		<tag k="place" v="farm" />
		<tag k="ssr:stedsnr" v="989923" />
	</node>
	<node id="-443442" lat="59.9132999991" lon="5.40488333839">
		<tag k="historic" v="shieling" />
		<tag k="name" v="Rimbareidsætre" />
		<tag k="place" v="locality" />
		<tag k="ssr:stedsnr" v="705072" />
	</node>
	<node id="-443437" lat="59.9523999992" lon="5.32408610301">
		<tag k="name" v="Gangstø" />
		<tag k="place" v="farm" />
		<tag k="ssr:stedsnr" v="705027" />
	</node>
	<node id="-443428" lat="59.8213944485" lon="5.32094166148">
		<tag k="name" v="Selevikberget" />
		<tag k="place" v="farm" />
		<tag k="ssr:stedsnr" v="671968" />
	</node>
	<node id="-443422" lat="59.8850941359" lon="5.33719937296">
		<tag k="fixme" v="consider place=hamlet" />
		<tag k="name" v="Tveita" />
		<tag k="place" v="farm" />
		<tag k="ssr:stedsnr" v="671813" />
	</node>
	<node id="-442907" lat="59.818444442" lon="5.32456110302">
		<tag k="name" v="Selevik" />
		<tag k="place" v="farm" />
		<tag k="ssr:stedsnr" v="887092" />
	</node>
	<node id="-442906" lat="59.9532444482" lon="5.39062499375">
		<tag k="alt_name" v="Engevik midtre" />
		<tag k="fixme" v="consider place=hamlet" />
		<tag k="name" v="Midtre Engevik" />
		<tag k="place" v="farm" />
		<tag k="ssr:stedsnr" v="887079" />
	</node>
	<node id="-443416" lat="59.9623285566" lon="5.35540625099">
		<tag k="alt_name" v="Levåg, nedre;Levåg" />
		<tag k="fixme" v="consider place=hamlet" />
		<tag k="name" v="Nedre Levåg" />
		<tag k="place" v="farm" />
		<tag k="ssr:stedsnr" v="671184" />
	</node>
	<node id="-443415" lat="59.9517370423" lon="5.27682944287">
		<tag k="fixme" v="consider place=hamlet" />
		<tag k="name" v="Nordfonno" />
		<tag k="place" v="farm" />
		<tag k="ssr:stedsnr" v="671176" />
	</node>
	<node id="-442883" lat="59.8660750039" lon="5.33115555687">
		<tag k="historic" v="shieling" />
		<tag k="name" v="Vastølen" />
		<tag k="place" v="locality" />
		<tag k="ssr:stedsnr" v="401398" />
	</node>
	<node id="-442948" lat="59.8879912253" lon="5.27189079069">
		<tag k="fixme" v="consider place=hamlet" />
		<tag k="name" v="Hjelmen" />
		<tag k="place" v="farm" />
		<tag k="ssr:stedsnr" v="989949" />
	</node>
	<node id="-443396" lat="59.8996555515" lon="5.33566110439">
		<tag k="fixme" v="consider place=hamlet" />
		<tag k="name" v="Vik" />
		<tag k="place" v="farm" />
		<tag k="ssr:stedsnr" v="644086" />
	</node>
	<node id="-443395" lat="59.9097527775" lon="5.3064527696">
		<tag k="name" v="Dalen" />
		<tag k="place" v="farm" />
		<tag k="ssr:stedsnr" v="644082" />
	</node>
</osm>
