<?xml version="1.0" encoding="UTF-8"?>
<osm version="0.6" generator="osmapis">
	<node lat="64.70212221832655" lon="13.748411104166772" id="-37349">
		<tag k="name" v="Mikkeltangveien" />
		<tag k="ssr:date" v="2019-05-30" />
		<tag k="ssr:gruppe" v="veg" />
		<tag k="ssr:hovedgruppe" v="infrastruktur" />
		<tag k="ssr:stedsnr" v="59370" />
		<tag k="ssr:type" v="adressenavn" />
	</node>
	<node lat="64.22372222331117" lon="13.84292223150747" id="-37438">
		<tag k="name" v="Bjørkhaugsvingen" />
		<tag k="ssr:date" v="2019-05-30" />
		<tag k="ssr:gruppe" v="veg" />
		<tag k="ssr:hovedgruppe" v="infrastruktur" />
		<tag k="ssr:stedsnr" v="119179" />
		<tag k="ssr:type" v="adressenavn" />
	</node>
	<node lat="64.48242777523761" lon="13.346583330769558" id="-38114">
		<tag k="name" v="Styggdalsveien" />
		<tag k="ssr:date" v="2019-05-30" />
		<tag k="ssr:gruppe" v="veg" />
		<tag k="ssr:hovedgruppe" v="infrastruktur" />
		<tag k="ssr:stedsnr" v="484062" />
		<tag k="ssr:type" v="adressenavn" />
	</node>
	<node lat="64.52127778069243" lon="13.68504167398093" id="-38379">
		<tag k="name" v="Jens L. Kvelis vei" />
		<tag k="ssr:date" v="2019-05-30" />
		<tag k="ssr:gruppe" v="veg" />
		<tag k="ssr:hovedgruppe" v="infrastruktur" />
		<tag k="ssr:stedsnr" v="604156" />
		<tag k="ssr:type" v="adressenavn" />
	</node>
	<node lat="64.46982411236186" lon="13.540770357164785" id="-38602">
		<tag k="name" v="Støvika" />
		<tag k="ssr:date" v="2019-05-30" />
		<tag k="ssr:gruppe" v="veg" />
		<tag k="ssr:hovedgruppe" v="infrastruktur" />
		<tag k="ssr:stedsnr" v="728225" />
		<tag k="ssr:type" v="adressenavn" />
	</node>
	<node lat="64.6664120588558" lon="13.623763398011107" id="-38993">
		<tag k="name" v="Pilfjellet" />
		<tag k="ssr:date" v="2019-05-30" />
		<tag k="ssr:gruppe" v="veg" />
		<tag k="ssr:hovedgruppe" v="infrastruktur" />
		<tag k="ssr:stedsnr" v="976069" />
		<tag k="ssr:type" v="adressenavn" />
	</node>
	<node lat="64.58217547050299" lon="13.411992471633631" id="-38994">
		<tag k="name" v="Litlfjellruet" />
		<tag k="ssr:date" v="2019-05-30" />
		<tag k="ssr:gruppe" v="veg" />
		<tag k="ssr:hovedgruppe" v="infrastruktur" />
		<tag k="ssr:stedsnr" v="976070" />
		<tag k="ssr:type" v="adressenavn" />
	</node>
	<node lat="64.6091330714841" lon="13.428822465423991" id="-38995">
		<tag k="name" v="Havdalen" />
		<tag k="ssr:date" v="2019-05-30" />
		<tag k="ssr:gruppe" v="veg" />
		<tag k="ssr:hovedgruppe" v="infrastruktur" />
		<tag k="ssr:stedsnr" v="976071" />
		<tag k="ssr:type" v="adressenavn" />
	</node>
	<node lat="64.66921867861777" lon="13.404347178095687" id="-38996">
		<tag k="name" v="Ingelsvatnet" />
		<tag k="ssr:date" v="2019-05-30" />
		<tag k="ssr:gruppe" v="veg" />
		<tag k="ssr:hovedgruppe" v="infrastruktur" />
		<tag k="ssr:stedsnr" v="976072" />
		<tag k="ssr:type" v="adressenavn" />
	</node>
	<node lat="64.55838676415482" lon="13.417179934931273" id="-38997">
		<tag k="name" v="Halvvegsberget" />
		<tag k="ssr:date" v="2019-05-30" />
		<tag k="ssr:gruppe" v="veg" />
		<tag k="ssr:hovedgruppe" v="infrastruktur" />
		<tag k="ssr:stedsnr" v="976073" />
		<tag k="ssr:type" v="adressenavn" />
	</node>
	<node lat="64.55359945672974" lon="13.298080300126347" id="-38998">
		<tag k="name" v="Klingervatnet" />
		<tag k="ssr:date" v="2019-05-30" />
		<tag k="ssr:gruppe" v="veg" />
		<tag k="ssr:hovedgruppe" v="infrastruktur" />
		<tag k="ssr:stedsnr" v="976074" />
		<tag k="ssr:type" v="adressenavn" />
	</node>
	<node lat="64.53955219703506" lon="13.25647792493013" id="-38999">
		<tag k="name" v="Stortjønnhøgda" />
		<tag k="ssr:date" v="2019-05-30" />
		<tag k="ssr:gruppe" v="veg" />
		<tag k="ssr:hovedgruppe" v="infrastruktur" />
		<tag k="ssr:stedsnr" v="976075" />
		<tag k="ssr:type" v="adressenavn" />
	</node>
	<node lat="64.50951430159161" lon="13.221760839710777" id="-39000">
		<tag k="name" v="Båsdalsfjellet" />
		<tag k="ssr:date" v="2019-05-30" />
		<tag k="ssr:gruppe" v="veg" />
		<tag k="ssr:hovedgruppe" v="infrastruktur" />
		<tag k="ssr:stedsnr" v="976076" />
		<tag k="ssr:type" v="adressenavn" />
	</node>
	<node lat="64.27206568706812" lon="13.505560551146857" id="-39001">
		<tag k="name" v="Gusvatnet" />
		<tag k="ssr:date" v="2019-05-30" />
		<tag k="ssr:gruppe" v="veg" />
		<tag k="ssr:hovedgruppe" v="infrastruktur" />
		<tag k="ssr:stedsnr" v="976126" />
		<tag k="ssr:type" v="adressenavn" />
	</node>
	<node lat="64.39670080408037" lon="13.4795239907998" id="-39002">
		<tag k="name" v="Tissvatna" />
		<tag k="ssr:date" v="2019-05-30" />
		<tag k="ssr:gruppe" v="veg" />
		<tag k="ssr:hovedgruppe" v="infrastruktur" />
		<tag k="ssr:stedsnr" v="976114" />
		<tag k="ssr:type" v="adressenavn" />
	</node>
	<node lat="64.35059532933548" lon="13.426423542635177" id="-39003">
		<tag k="name" v="Langvikelva" />
		<tag k="ssr:date" v="2019-05-30" />
		<tag k="ssr:gruppe" v="veg" />
		<tag k="ssr:hovedgruppe" v="infrastruktur" />
		<tag k="ssr:stedsnr" v="976115" />
		<tag k="ssr:type" v="adressenavn" />
	</node>
	<node lat="64.33208908491596" lon="13.423676873857751" id="-39004">
		<tag k="name" v="Fossdalen" />
		<tag k="ssr:date" v="2019-05-30" />
		<tag k="ssr:gruppe" v="veg" />
		<tag k="ssr:hovedgruppe" v="infrastruktur" />
		<tag k="ssr:stedsnr" v="976116" />
		<tag k="ssr:type" v="adressenavn" />
	</node>
	<node lat="64.41075382189631" lon="13.108011384323504" id="-39005">
		<tag k="name" v="Almdalen" />
		<tag k="ssr:date" v="2019-05-30" />
		<tag k="ssr:gruppe" v="veg" />
		<tag k="ssr:hovedgruppe" v="infrastruktur" />
		<tag k="ssr:stedsnr" v="976117" />
		<tag k="ssr:type" v="adressenavn" />
	</node>
	<node lat="64.46583747528878" lon="13.211014936180062" id="-39006">
		<tag k="name" v="Tverrelva" />
		<tag k="ssr:date" v="2019-05-30" />
		<tag k="ssr:gruppe" v="veg" />
		<tag k="ssr:hovedgruppe" v="infrastruktur" />
		<tag k="ssr:stedsnr" v="976118" />
		<tag k="ssr:type" v="adressenavn" />
	</node>
	<node lat="64.4182306633103" lon="14.0707992451268" id="-39007">
		<tag k="name" v="Muruaksla" />
		<tag k="ssr:date" v="2019-05-30" />
		<tag k="ssr:gruppe" v="veg" />
		<tag k="ssr:hovedgruppe" v="infrastruktur" />
		<tag k="ssr:stedsnr" v="976119" />
		<tag k="ssr:type" v="adressenavn" />
	</node>
	<node lat="64.42898680002274" lon="13.967844299992127" id="-39008">
		<tag k="name" v="Fjellraudberget" />
		<tag k="ssr:date" v="2019-05-30" />
		<tag k="ssr:gruppe" v="veg" />
		<tag k="ssr:hovedgruppe" v="infrastruktur" />
		<tag k="ssr:stedsnr" v="976120" />
		<tag k="ssr:type" v="adressenavn" />
	</node>
	<node lat="64.38500872689852" lon="13.822687398183625" id="-39009">
		<tag k="name" v="Luterdalen" />
		<tag k="ssr:date" v="2019-05-30" />
		<tag k="ssr:gruppe" v="veg" />
		<tag k="ssr:hovedgruppe" v="infrastruktur" />
		<tag k="ssr:stedsnr" v="976121" />
		<tag k="ssr:type" v="adressenavn" />
	</node>
	<node lat="64.36384500451466" lon="13.769071504200163" id="-39010">
		<tag k="name" v="Bengtseteren" />
		<tag k="ssr:date" v="2019-05-30" />
		<tag k="ssr:gruppe" v="veg" />
		<tag k="ssr:hovedgruppe" v="infrastruktur" />
		<tag k="ssr:stedsnr" v="976122" />
		<tag k="ssr:type" v="adressenavn" />
	</node>
	<node lat="64.36754137376637" lon="13.708422284075679" id="-39011">
		<tag k="name" v="Løvsjøen" />
		<tag k="ssr:date" v="2019-05-30" />
		<tag k="ssr:gruppe" v="veg" />
		<tag k="ssr:hovedgruppe" v="infrastruktur" />
		<tag k="ssr:stedsnr" v="976123" />
		<tag k="ssr:type" v="adressenavn" />
	</node>
	<node lat="64.27065073601426" lon="13.575324217015606" id="-39012">
		<tag k="name" v="Gusliseteren" />
		<tag k="ssr:date" v="2019-05-30" />
		<tag k="ssr:gruppe" v="veg" />
		<tag k="ssr:hovedgruppe" v="infrastruktur" />
		<tag k="ssr:stedsnr" v="976127" />
		<tag k="ssr:type" v="adressenavn" />
	</node>
	<node lat="64.46412222453833" lon="13.592477772057299" id="-40951">
		<tag k="name" v="Lierne kommune" />
		<tag k="ssr:date" v="2018-01-09" />
		<tag k="ssr:gruppe" v="administrativeIndelinger" />
		<tag k="ssr:hovedgruppe" v="offentligAdministrasjon" />
		<tag k="ssr:stedsnr" v="936032" />
		<tag k="ssr:type" v="kommune" />
	</node>
	<node lat="64.39618333011559" lon="13.422802769612202" id="-40968">
		<tag k="name" v="Lierne" />
		<tag k="ssr:date" v="2018-01-09" />
		<tag k="ssr:gruppe" v="terrengområder" />
		<tag k="ssr:hovedgruppe" v="terreng" />
		<tag k="ssr:stedsnr" v="938775" />
		<tag k="ssr:type" v="landskapsområde" />
	</node>
	<node lat="64.48364166393847" lon="13.442019437501779" id="-41033">
		<tag k="name" v="Finntangveien" />
		<tag k="ssr:date" v="2019-05-30" />
		<tag k="ssr:gruppe" v="veg" />
		<tag k="ssr:hovedgruppe" v="infrastruktur" />
		<tag k="ssr:stedsnr" v="970119" />
		<tag k="ssr:type" v="adressenavn" />
	</node>
	<node lat="64.44109793375554" lon="13.6393117583768" id="-41035">
		<tag k="name" v="Sørgården" />
		<tag k="ssr:date" v="2018-01-09" />
		<tag k="ssr:gruppe" v="veg" />
		<tag k="ssr:hovedgruppe" v="infrastruktur" />
		<tag k="ssr:stedsnr" v="974313" />
		<tag k="ssr:type" v="adressetilleggsnavn" />
	</node>
	<node lat="64.20457409034557" lon="13.64334052958527" id="-41036">
		<tag k="name" v="Gjertsgård" />
		<tag k="ssr:date" v="2018-01-09" />
		<tag k="ssr:gruppe" v="veg" />
		<tag k="ssr:hovedgruppe" v="infrastruktur" />
		<tag k="ssr:stedsnr" v="974307" />
		<tag k="ssr:type" v="adressetilleggsnavn" />
	</node>
	<node lat="64.3259443800489" lon="13.594657180748694" id="-41037">
		<tag k="name" v="Kveaunet" />
		<tag k="ssr:date" v="2018-01-09" />
		<tag k="ssr:gruppe" v="veg" />
		<tag k="ssr:hovedgruppe" v="infrastruktur" />
		<tag k="ssr:stedsnr" v="974308" />
		<tag k="ssr:type" v="adressetilleggsnavn" />
	</node>
	<node lat="64.14792707565952" lon="13.953446800969951" id="-41038">
		<tag k="name" v="Skålseteren" />
		<tag k="ssr:date" v="2018-01-09" />
		<tag k="ssr:gruppe" v="veg" />
		<tag k="ssr:hovedgruppe" v="infrastruktur" />
		<tag k="ssr:stedsnr" v="974309" />
		<tag k="ssr:type" v="adressetilleggsnavn" />
	</node>
	<node lat="64.15640410903482" lon="14.056587047942413" id="-41039">
		<tag k="name" v="Brennmoen" />
		<tag k="ssr:date" v="2018-01-09" />
		<tag k="ssr:gruppe" v="veg" />
		<tag k="ssr:hovedgruppe" v="infrastruktur" />
		<tag k="ssr:stedsnr" v="974310" />
		<tag k="ssr:type" v="adressetilleggsnavn" />
	</node>
	<node lat="64.77742487529171" lon="13.678141731596963" id="-41040">
		<tag k="name" v="Devikgården" />
		<tag k="ssr:date" v="2018-01-09" />
		<tag k="ssr:gruppe" v="veg" />
		<tag k="ssr:hovedgruppe" v="infrastruktur" />
		<tag k="ssr:stedsnr" v="974311" />
		<tag k="ssr:type" v="adressetilleggsnavn" />
	</node>
	<node lat="64.48175006189058" lon="13.316640476350743" id="-41041">
		<tag k="name" v="Sandmoen" />
		<tag k="ssr:date" v="2018-01-09" />
		<tag k="ssr:gruppe" v="veg" />
		<tag k="ssr:hovedgruppe" v="infrastruktur" />
		<tag k="ssr:stedsnr" v="974312" />
		<tag k="ssr:type" v="adressetilleggsnavn" />
	</node>
	<node lat="64.1141572244062" lon="13.759078535058313" id="-41042">
		<tag k="name" v="Middagsfjellet" />
		<tag k="ssr:date" v="2019-05-30" />
		<tag k="ssr:gruppe" v="veg" />
		<tag k="ssr:hovedgruppe" v="infrastruktur" />
		<tag k="ssr:stedsnr" v="976128" />
		<tag k="ssr:type" v="adressenavn" />
	</node>
	<node lat="64.05771569968371" lon="13.792462295528045" id="-41043">
		<tag k="name" v="Arvatnet" />
		<tag k="ssr:date" v="2020-11-03" />
		<tag k="ssr:gruppe" v="veg" />
		<tag k="ssr:hovedgruppe" v="infrastruktur" />
		<tag k="ssr:stedsnr" v="976129" />
		<tag k="ssr:type" v="adressenavn" />
	</node>
	<node lat="64.12647033114804" lon="13.622962622357798" id="-41044">
		<tag k="name" v="Tjønndalen" />
		<tag k="ssr:date" v="2019-05-30" />
		<tag k="ssr:gruppe" v="veg" />
		<tag k="ssr:hovedgruppe" v="infrastruktur" />
		<tag k="ssr:stedsnr" v="976130" />
		<tag k="ssr:type" v="adressenavn" />
	</node>
	<node lat="64.08343969626218" lon="13.698513177324697" id="-41045">
		<tag k="name" v="Langvatnet" />
		<tag k="ssr:date" v="2019-05-30" />
		<tag k="ssr:gruppe" v="veg" />
		<tag k="ssr:hovedgruppe" v="infrastruktur" />
		<tag k="ssr:stedsnr" v="976131" />
		<tag k="ssr:type" v="adressenavn" />
	</node>
	<node lat="64.14487514800157" lon="13.475785253071912" id="-41046">
		<tag k="name" v="Blåfjellet" />
		<tag k="ssr:date" v="2019-05-30" />
		<tag k="ssr:gruppe" v="veg" />
		<tag k="ssr:hovedgruppe" v="infrastruktur" />
		<tag k="ssr:stedsnr" v="976132" />
		<tag k="ssr:type" v="adressenavn" />
	</node>
	<node lat="64.19237817895747" lon="13.385822520460893" id="-41047">
		<tag k="name" v="Ingeldøla" />
		<tag k="ssr:date" v="2019-05-30" />
		<tag k="ssr:gruppe" v="veg" />
		<tag k="ssr:hovedgruppe" v="infrastruktur" />
		<tag k="ssr:stedsnr" v="976133" />
		<tag k="ssr:type" v="adressenavn" />
	</node>
	<node lat="64.1733201335118" lon="13.94445346504862" id="-41048">
		<tag k="name" v="Vålfjellet" />
		<tag k="ssr:date" v="2019-05-30" />
		<tag k="ssr:gruppe" v="veg" />
		<tag k="ssr:hovedgruppe" v="infrastruktur" />
		<tag k="ssr:stedsnr" v="976135" />
		<tag k="ssr:type" v="adressenavn" />
	</node>
	<node lat="64.18940559743623" lon="14.024523821723639" id="-41049">
		<tag k="name" v="Fjelløya" />
		<tag k="ssr:date" v="2019-05-30" />
		<tag k="ssr:gruppe" v="veg" />
		<tag k="ssr:hovedgruppe" v="infrastruktur" />
		<tag k="ssr:stedsnr" v="976136" />
		<tag k="ssr:type" v="adressenavn" />
	</node>
	<node lat="64.20827360859606" lon="13.93621248462315" id="-41050">
		<tag k="name" v="Gårdtjønnseteren" />
		<tag k="ssr:date" v="2019-05-30" />
		<tag k="ssr:gruppe" v="veg" />
		<tag k="ssr:hovedgruppe" v="infrastruktur" />
		<tag k="ssr:stedsnr" v="976137" />
		<tag k="ssr:type" v="adressenavn" />
	</node>
	<node lat="64.22543161096083" lon="13.937677654437858" id="-41051">
		<tag k="name" v="Gravtjønnseteren" />
		<tag k="ssr:date" v="2019-05-30" />
		<tag k="ssr:gruppe" v="veg" />
		<tag k="ssr:hovedgruppe" v="infrastruktur" />
		<tag k="ssr:stedsnr" v="976138" />
		<tag k="ssr:type" v="adressenavn" />
	</node>
	<node lat="64.238056970499" lon="13.912470918662507" id="-41052">
		<tag k="name" v="Strifloan" />
		<tag k="ssr:date" v="2019-05-30" />
		<tag k="ssr:gruppe" v="veg" />
		<tag k="ssr:hovedgruppe" v="infrastruktur" />
		<tag k="ssr:stedsnr" v="976139" />
		<tag k="ssr:type" v="adressenavn" />
	</node>
	<node lat="64.26359584113425" lon="13.898274964874135" id="-41053">
		<tag k="name" v="Vestgårdsseteren" />
		<tag k="ssr:date" v="2019-05-30" />
		<tag k="ssr:gruppe" v="veg" />
		<tag k="ssr:hovedgruppe" v="infrastruktur" />
		<tag k="ssr:stedsnr" v="976140" />
		<tag k="ssr:type" v="adressenavn" />
	</node>
	<node lat="64.25697360885775" lon="13.855686112683209" id="-41054">
		<tag k="name" v="Arntseteren" />
		<tag k="ssr:date" v="2019-05-30" />
		<tag k="ssr:gruppe" v="veg" />
		<tag k="ssr:hovedgruppe" v="infrastruktur" />
		<tag k="ssr:stedsnr" v="976141" />
		<tag k="ssr:type" v="adressenavn" />
	</node>
	<node lat="64.27940693293377" lon="13.853168073577205" id="-41055">
		<tag k="name" v="Estilrønningseteren" />
		<tag k="ssr:date" v="2019-05-30" />
		<tag k="ssr:gruppe" v="veg" />
		<tag k="ssr:hovedgruppe" v="infrastruktur" />
		<tag k="ssr:stedsnr" v="976142" />
		<tag k="ssr:type" v="adressenavn" />
	</node>
	<node lat="64.28891251511338" lon="13.843029216726586" id="-41056">
		<tag k="name" v="Grunntjønnklumpen" />
		<tag k="ssr:date" v="2019-05-30" />
		<tag k="ssr:gruppe" v="veg" />
		<tag k="ssr:hovedgruppe" v="infrastruktur" />
		<tag k="ssr:stedsnr" v="976143" />
		<tag k="ssr:type" v="adressenavn" />
	</node>
	<node lat="64.29199465467435" lon="13.848983083619352" id="-41057">
		<tag k="name" v="Grunntjønna" />
		<tag k="ssr:date" v="2019-05-30" />
		<tag k="ssr:gruppe" v="veg" />
		<tag k="ssr:hovedgruppe" v="infrastruktur" />
		<tag k="ssr:stedsnr" v="976144" />
		<tag k="ssr:type" v="adressenavn" />
	</node>
	<node lat="64.27639213776189" lon="13.814857274101827" id="-41058">
		<tag k="name" v="Tverruet" />
		<tag k="ssr:date" v="2019-05-30" />
		<tag k="ssr:gruppe" v="veg" />
		<tag k="ssr:hovedgruppe" v="infrastruktur" />
		<tag k="ssr:stedsnr" v="976145" />
		<tag k="ssr:type" v="adressenavn" />
	</node>
	<node lat="64.2789419102314" lon="13.782794352674289" id="-41059">
		<tag k="name" v="Møkkeltjønna" />
		<tag k="ssr:date" v="2019-05-30" />
		<tag k="ssr:gruppe" v="veg" />
		<tag k="ssr:hovedgruppe" v="infrastruktur" />
		<tag k="ssr:stedsnr" v="976146" />
		<tag k="ssr:type" v="adressenavn" />
	</node>
	<node lat="64.28169585616175" lon="13.782092968113421" id="-41060">
		<tag k="name" v="Møkkeltjønnseteren" />
		<tag k="ssr:date" v="2019-05-30" />
		<tag k="ssr:gruppe" v="veg" />
		<tag k="ssr:hovedgruppe" v="infrastruktur" />
		<tag k="ssr:stedsnr" v="976147" />
		<tag k="ssr:type" v="adressenavn" />
	</node>
	<node lat="64.28147289459739" lon="13.713190457300694" id="-41061">
		<tag k="name" v="Lemenvatnet" />
		<tag k="ssr:date" v="2019-05-30" />
		<tag k="ssr:gruppe" v="veg" />
		<tag k="ssr:hovedgruppe" v="infrastruktur" />
		<tag k="ssr:stedsnr" v="976148" />
		<tag k="ssr:type" v="adressenavn" />
	</node>
	<node lat="64.28041586814966" lon="13.740165583211454" id="-41062">
		<tag k="name" v="Lemenvasseteren" />
		<tag k="ssr:date" v="2019-05-30" />
		<tag k="ssr:gruppe" v="veg" />
		<tag k="ssr:hovedgruppe" v="infrastruktur" />
		<tag k="ssr:stedsnr" v="976149" />
		<tag k="ssr:type" v="adressenavn" />
	</node>
	<node lat="64.27821803164508" lon="13.729745747889188" id="-41063">
		<tag k="name" v="Gamnausterliseteren" />
		<tag k="ssr:date" v="2019-05-30" />
		<tag k="ssr:gruppe" v="veg" />
		<tag k="ssr:hovedgruppe" v="infrastruktur" />
		<tag k="ssr:stedsnr" v="976150" />
		<tag k="ssr:type" v="adressenavn" />
	</node>
	<node lat="64.30655040583486" lon="13.749018741064962" id="-41064">
		<tag k="name" v="Godtjønna" />
		<tag k="ssr:date" v="2019-05-30" />
		<tag k="ssr:gruppe" v="veg" />
		<tag k="ssr:hovedgruppe" v="infrastruktur" />
		<tag k="ssr:stedsnr" v="976151" />
		<tag k="ssr:type" v="adressenavn" />
	</node>
	<node lat="64.30405069162647" lon="13.77167470451044" id="-41065">
		<tag k="name" v="Godtjønnseteren" />
		<tag k="ssr:date" v="2019-05-30" />
		<tag k="ssr:gruppe" v="veg" />
		<tag k="ssr:hovedgruppe" v="infrastruktur" />
		<tag k="ssr:stedsnr" v="976152" />
		<tag k="ssr:type" v="adressenavn" />
	</node>
	<node lat="64.32405217826252" lon="13.780262390800642" id="-41066">
		<tag k="name" v="Langlia" />
		<tag k="ssr:date" v="2019-05-30" />
		<tag k="ssr:gruppe" v="veg" />
		<tag k="ssr:hovedgruppe" v="infrastruktur" />
		<tag k="ssr:stedsnr" v="976153" />
		<tag k="ssr:type" v="adressenavn" />
	</node>
	<node lat="64.3384320328467" lon="13.799928426448338" id="-41067">
		<tag k="name" v="Storbursklumpen" />
		<tag k="ssr:date" v="2019-05-30" />
		<tag k="ssr:gruppe" v="veg" />
		<tag k="ssr:hovedgruppe" v="infrastruktur" />
		<tag k="ssr:stedsnr" v="976154" />
		<tag k="ssr:type" v="adressenavn" />
	</node>
	<node lat="64.33683241153398" lon="13.653169252876674" id="-41068">
		<tag k="name" v="Tortjønnklumpen" />
		<tag k="ssr:date" v="2019-05-30" />
		<tag k="ssr:gruppe" v="veg" />
		<tag k="ssr:hovedgruppe" v="infrastruktur" />
		<tag k="ssr:stedsnr" v="976155" />
		<tag k="ssr:type" v="adressenavn" />
	</node>
	<node lat="64.23665137680793" lon="13.966415354080192" id="-41069">
		<tag k="name" v="Strivasshytta" />
		<tag k="ssr:date" v="2019-05-30" />
		<tag k="ssr:gruppe" v="veg" />
		<tag k="ssr:hovedgruppe" v="infrastruktur" />
		<tag k="ssr:stedsnr" v="976156" />
		<tag k="ssr:type" v="adressenavn" />
	</node>
	<node lat="64.19801392141761" lon="14.01205395771017" id="-41070">
		<tag k="name" v="Bakkesseteren" />
		<tag k="ssr:date" v="2019-05-30" />
		<tag k="ssr:gruppe" v="veg" />
		<tag k="ssr:hovedgruppe" v="infrastruktur" />
		<tag k="ssr:stedsnr" v="976157" />
		<tag k="ssr:type" v="adressenavn" />
	</node>
	<node lat="64.52397266741842" lon="13.438885824578286" id="-41071">
		<tag k="name" v="Gasterfjellet" />
		<tag k="ssr:date" v="2019-05-30" />
		<tag k="ssr:gruppe" v="veg" />
		<tag k="ssr:hovedgruppe" v="infrastruktur" />
		<tag k="ssr:stedsnr" v="976077" />
		<tag k="ssr:type" v="adressenavn" />
	</node>
	<node lat="64.58142362879074" lon="13.65001239220152" id="-41072">
		<tag k="name" v="Portfjellet" />
		<tag k="ssr:date" v="2019-05-30" />
		<tag k="ssr:gruppe" v="veg" />
		<tag k="ssr:hovedgruppe" v="infrastruktur" />
		<tag k="ssr:stedsnr" v="976078" />
		<tag k="ssr:type" v="adressenavn" />
	</node>
	<node lat="64.55341790708249" lon="13.673537530969215" id="-41073">
		<tag k="name" v="Brennseteren" />
		<tag k="ssr:date" v="2019-05-30" />
		<tag k="ssr:gruppe" v="veg" />
		<tag k="ssr:hovedgruppe" v="infrastruktur" />
		<tag k="ssr:stedsnr" v="976079" />
		<tag k="ssr:type" v="adressenavn" />
	</node>
	<node lat="64.48678751007256" lon="13.637919352323976" id="-41074">
		<tag k="name" v="Sandvikfjellet" />
		<tag k="ssr:date" v="2019-05-30" />
		<tag k="ssr:gruppe" v="veg" />
		<tag k="ssr:hovedgruppe" v="infrastruktur" />
		<tag k="ssr:stedsnr" v="976080" />
		<tag k="ssr:type" v="adressenavn" />
	</node>
	<node lat="64.4666560849726" lon="13.73440125993667" id="-41075">
		<tag k="name" v="Holandsfjellet" />
		<tag k="ssr:date" v="2019-05-30" />
		<tag k="ssr:gruppe" v="veg" />
		<tag k="ssr:hovedgruppe" v="infrastruktur" />
		<tag k="ssr:stedsnr" v="976081" />
		<tag k="ssr:type" v="adressenavn" />
	</node>
	<node lat="64.22096527966737" lon="13.96245147445257" id="-41076">
		<tag k="name" v="Gravklumpseteren" />
		<tag k="ssr:date" v="2019-05-30" />
		<tag k="ssr:gruppe" v="veg" />
		<tag k="ssr:hovedgruppe" v="infrastruktur" />
		<tag k="ssr:stedsnr" v="976158" />
		<tag k="ssr:type" v="adressenavn" />
	</node>
	<node lat="64.014446801577" lon="11.48188662926966" id="-41077">
		<tag k="name" v="Trøndelag fylke - Trööndelagen fylhke" />
		<tag k="name:no" v="Trøndelag fylke" />
		<tag k="name:sma" v="Trööndelagen fylhke" />
		<tag k="ssr:date" v="2021-06-08" />
		<tag k="ssr:gruppe" v="administrativeIndelinger" />
		<tag k="ssr:hovedgruppe" v="offentligAdministrasjon" />
		<tag k="ssr:stedsnr" v="980645" />
		<tag k="ssr:type" v="fylke" />
	</node>
	<node lat="64.14868416047236" lon="14.017883743445541" id="-41081">
		<tag k="name" v="Svartvikveien" />
		<tag k="ssr:date" v="2019-05-30" />
		<tag k="ssr:gruppe" v="veg" />
		<tag k="ssr:hovedgruppe" v="infrastruktur" />
		<tag k="ssr:stedsnr" v="1034554" />
		<tag k="ssr:type" v="adressenavn" />
	</node>
	<node lat="64.38692768523485" lon="13.263470833889894" id="-41082">
		<tag k="name" v="Hyklan" />
		<tag k="ssr:date" v="2019-05-30" />
		<tag k="ssr:gruppe" v="veg" />
		<tag k="ssr:hovedgruppe" v="infrastruktur" />
		<tag k="ssr:stedsnr" v="1036681" />
		<tag k="ssr:type" v="adressenavn" />
	</node>
	<node lat="64.03006378809532" lon="13.835712024957633" id="-41083">
		<tag k="name" v="Arvaslia" />
		<tag k="ssr:date" v="2019-05-30" />
		<tag k="ssr:gruppe" v="veg" />
		<tag k="ssr:hovedgruppe" v="infrastruktur" />
		<tag k="ssr:stedsnr" v="1036746" />
		<tag k="ssr:type" v="adressenavn" />
	</node>
	<node lat="64.80625344074028" lon="13.862520444113825" id="-41084">
		<tag k="name" v="Jomafjellet" />
		<tag k="ssr:date" v="2019-05-30" />
		<tag k="ssr:gruppe" v="veg" />
		<tag k="ssr:hovedgruppe" v="infrastruktur" />
		<tag k="ssr:stedsnr" v="1036751" />
		<tag k="ssr:type" v="adressenavn" />
	</node>
	<node lat="64.26604667973704" lon="13.858557540991946" id="-41085">
		<tag k="name" v="Mustjønna" />
		<tag k="ssr:date" v="2019-05-30" />
		<tag k="ssr:gruppe" v="veg" />
		<tag k="ssr:hovedgruppe" v="infrastruktur" />
		<tag k="ssr:stedsnr" v="1036756" />
		<tag k="ssr:type" v="adressenavn" />
	</node>
</osm>
