<?xml version="1.0" encoding="UTF-8"?>
<osm generator="osmapis" version="0.6">
	<node id="-44544" lat="60.4417027733" lon="11.0401250085">
		<tag k="name" v="Torvmyra" />
		<tag k="natural" v="wetland" />
		<tag k="ssr:stedsnr" v="224708" />
	</node>
	<node id="-44032" lat="60.4749638921" lon="10.7040666705">
		<tag k="name" v="Sentralmyra" />
		<tag k="natural" v="wetland" />
		<tag k="ssr:stedsnr" v="298870" />
	</node>
	<node id="-44029" lat="60.4265194473" lon="11.1016194506">
		<tag k="name" v="Vindfalla" />
		<tag k="place" v="locality" />
		<tag k="ssr:stedsnr" v="298410" />
	</node>
	<node id="-44540" lat="60.3612805593" lon="11.0812972209">
		<tag k="name" v="Bjønnmyra" />
		<tag k="natural" v="wetland" />
		<tag k="ssr:stedsnr" v="224535" />
	</node>
	<node id="-45051" lat="60.4662944416" lon="10.8212222158">
		<tag k="name" v="Folungmyra" />
		<tag k="natural" v="wetland" />
		<tag k="ssr:stedsnr" v="723891" />
	</node>
	<node id="-45050" lat="60.4671944405" lon="10.7778166732">
		<tag k="name" v="Pershaugmyra" />
		<tag k="natural" v="wetland" />
		<tag k="ssr:stedsnr" v="723890" />
	</node>
	<node id="-44023" lat="60.3840305511" lon="11.072225002">
		<tag k="name" v="Eidseterhagan" />
		<tag k="place" v="locality" />
		<tag k="ssr:stedsnr" v="285899" />
	</node>
	<node id="-44019" lat="60.3923333325" lon="11.1067305631">
		<tag k="historic" v="shieling" />
		<tag k="name" v="Nysetra" />
		<tag k="place" v="locality" />
		<tag k="ssr:stedsnr" v="285762" />
	</node>
	<node id="-45040" lat="60.4113749974" lon="11.0994083399">
		<tag k="name" v="Furuhøgget" />
		<tag k="place" v="locality" />
		<tag k="ssr:stedsnr" v="709748" />
	</node>
	<node id="-44015" lat="60.3754305515" lon="11.0205055475">
		<tag k="name" v="Sjursrudstykket" />
		<tag k="place" v="locality" />
		<tag k="ssr:stedsnr" v="285623" />
	</node>
	<node id="-44014" lat="60.3498777757" lon="11.1021055505">
		<tag k="name" v="Revmyra" />
		<tag k="natural" v="wetland" />
		<tag k="ssr:stedsnr" v="285559" />
	</node>
	<node id="-45036" lat="60.3745055542" lon="10.9961249949">
		<tag k="name" v="Bjønnbråtemyra" />
		<tag k="natural" v="wetland" />
		<tag k="ssr:stedsnr" v="709726" />
	</node>
	<node id="-44011" lat="60.5080611069" lon="11.0398527692">
		<tag k="name" v="Orrhanemyra" />
		<tag k="natural" v="wetland" />
		<tag k="ssr:stedsnr" v="285121" />
	</node>
	<node id="-44009" lat="60.500444443" lon="11.000877773">
		<tag k="alt_name" v="Brennbergene" />
		<tag k="name" v="Brennberget" />
		<tag k="place" v="locality" />
		<tag k="ssr:stedsnr" v="285027" />
	</node>
	<node id="-44284" lat="60.3714055552" lon="11.0776805632">
		<tag k="name" v="Vaskebekkholtet" />
		<tag k="place" v="locality" />
		<tag k="ssr:stedsnr" v="42905" />
	</node>
	<node id="-45137" lat="60.4607972188" lon="10.890277774">
		<tag k="name" v="Rismyra" />
		<tag k="natural" v="wetland" />
		<tag k="ssr:stedsnr" v="785842" />
	</node>
	<node id="-44516" lat="60.522505556" lon="10.7154194487">
		<tag k="name" v="Sauengmyra" />
		<tag k="natural" v="wetland" />
		<tag k="ssr:stedsnr" v="215599" />
	</node>
	<node id="-45222" lat="60.46726389" lon="10.9877555468">
		<tag k="name" v="Hemmyra" />
		<tag k="natural" v="wetland" />
		<tag k="ssr:stedsnr" v="847876" />
	</node>
	<node id="-44002" lat="60.4352083353" lon="10.8442333344">
		<tag k="name" v="Blautmyra" />
		<tag k="natural" v="wetland" />
		<tag k="ssr:stedsnr" v="284178" />
	</node>
	<node id="-44539" lat="60.3620861126" lon="11.1071166719">
		<tag k="name" v="Porsmyra" />
		<tag k="natural" v="wetland" />
		<tag k="ssr:stedsnr" v="224534" />
	</node>
	<node id="-44453" lat="60.4014277814" lon="11.1319361059">
		<tag k="historic" v="shieling" />
		<tag k="name" v="Bergesetra" />
		<tag k="place" v="locality" />
		<tag k="ssr:stedsnr" v="163759" />
	</node>
	<node id="-45020" lat="60.5021972243" lon="11.057894444">
		<tag k="name" v="Isakmyra" />
		<tag k="natural" v="wetland" />
		<tag k="ssr:stedsnr" v="709119" />
	</node>
	<node id="-44026" lat="60.3722888899" lon="11.0843388848">
		<tag k="name" v="Bråtamyrene" />
		<tag k="natural" v="wetland" />
		<tag k="ssr:stedsnr" v="285908" />
	</node>
	<node id="-44452" lat="60.4464638858" lon="11.012283325">
		<tag k="name" v="Kjellern" />
		<tag k="place" v="locality" />
		<tag k="ssr:stedsnr" v="163756" />
	</node>
	<node id="-45014" lat="60.3450722255" lon="10.9822916602">
		<tag k="name" v="Tohesjamyra" />
		<tag k="natural" v="wetland" />
		<tag k="ssr:stedsnr" v="707862" />
	</node>
	<node id="-44281" lat="60.377416671" lon="10.9327722183">
		<tag k="name" v="Hagasetermyra" />
		<tag k="natural" v="wetland" />
		<tag k="ssr:stedsnr" v="42689" />
	</node>
	<node id="-43988" lat="60.4575388844" lon="11.1000972271">
		<tag k="name" v="Vindfalla" />
		<tag k="place" v="locality" />
		<tag k="ssr:stedsnr" v="284213" />
	</node>
	<node id="-45010" lat="60.3464222196" lon="11.1019916723">
		<tag k="name" v="Siggerudmyra" />
		<tag k="natural" v="wetland" />
		<tag k="ssr:stedsnr" v="707769" />
	</node>
	<node id="-44493" lat="60.3981333301" lon="10.9759361106">
		<tag k="alt_name" v="Knaiseterstormyra" />
		<tag k="name" v="Knaisæterstormyra" />
		<tag k="natural" v="wetland" />
		<tag k="ssr:stedsnr" v="188631" />
	</node>
	<node id="-44484" lat="60.455502774" lon="10.7291388857">
		<tag k="name" v="Langmyra" />
		<tag k="natural" v="wetland" />
		<tag k="ssr:stedsnr" v="181441" />
	</node>
	<node id="-44448" lat="60.3826111101" lon="10.9243361051">
		<tag k="name" v="Saumyra" />
		<tag k="natural" v="wetland" />
		<tag k="ssr:stedsnr" v="163719" />
	</node>
	<node id="-44476" lat="60.3804333307" lon="11.0216333417">
		<tag k="name" v="Lorthølet" />
		<tag k="natural" v="wetland" />
		<tag k="ssr:stedsnr" v="180550" />
	</node>
	<node id="-44473" lat="60.4592138918" lon="10.9662222157">
		<tag k="name" v="Lisputtmyra" />
		<tag k="natural" v="wetland" />
		<tag k="ssr:stedsnr" v="179879" />
	</node>
	<node id="-44342" lat="60.4347722261" lon="10.9265111024">
		<tag k="name" v="Badstuengmyra" />
		<tag k="natural" v="wetland" />
		<tag k="ssr:stedsnr" v="102221" />
	</node>
	<node id="-44323" lat="60.4317277744" lon="10.9778277812">
		<tag k="name" v="Handsagmyra" />
		<tag k="natural" v="wetland" />
		<tag k="ssr:stedsnr" v="67668" />
	</node>
	<node id="-45129" lat="60.4398222203" lon="11.0752333292">
		<tag k="name" v="Lensmannslåtten" />
		<tag k="place" v="locality" />
		<tag k="ssr:stedsnr" v="783883" />
	</node>
	<node id="-44463" lat="60.4748305582" lon="10.7087527746">
		<tag k="name" v="Roligbrenna" />
		<tag k="place" v="locality" />
		<tag k="ssr:stedsnr" v="176877" />
	</node>
	<node id="-44460" lat="60.3775083336" lon="11.1031222306">
		<tag k="name" v="Pinntjennsmyra" />
		<tag k="natural" v="wetland" />
		<tag k="ssr:stedsnr" v="163935" />
	</node>
	<node id="-44459" lat="60.3855249977" lon="11.1039861089">
		<tag k="name" v="Svingmyra" />
		<tag k="natural" v="wetland" />
		<tag k="ssr:stedsnr" v="163921" />
	</node>
	<node id="-44458" lat="60.3872138902" lon="11.0982333331">
		<tag k="name" v="Skjellmyra" />
		<tag k="natural" v="wetland" />
		<tag k="ssr:stedsnr" v="163919" />
	</node>
	<node id="-44969" lat="60.4414749986" lon="10.8708527864">
		<tag k="landuse" v="meadow" />
		<tag k="name" v="Nordgårdsenga" />
		<tag k="ssr:stedsnr" v="666403" />
	</node>
	<node id="-44967" lat="60.4252388885" lon="11.0223972282">
		<tag k="name" v="Hurdal prestegårdsskog" />
		<tag k="place" v="locality" />
		<tag k="ssr:stedsnr" v="665054" />
	</node>
	<node id="-44965" lat="60.4652861134" lon="10.9017083421">
		<tag k="name" v="Finnskjeggmyra" />
		<tag k="natural" v="wetland" />
		<tag k="ssr:stedsnr" v="664885" />
	</node>
	<node id="-44964" lat="60.4694527739" lon="10.9279472132">
		<tag k="name" v="Stormyra" />
		<tag k="natural" v="wetland" />
		<tag k="ssr:stedsnr" v="664880" />
	</node>
	<node id="-45296" lat="60.4625888895" lon="10.9669361202">
		<tag k="name" v="Stormyra" />
		<tag k="natural" v="wetland" />
		<tag k="ssr:stedsnr" v="916703" />
	</node>
	<node id="-44449" lat="60.3754722209" lon="10.9280138931">
		<tag k="name" v="Marikollmyra" />
		<tag k="natural" v="wetland" />
		<tag k="ssr:stedsnr" v="163725" />
	</node>
	<node id="-44960" lat="60.4684361108" lon="10.9546111122">
		<tag k="name" v="Lovisemyra" />
		<tag k="natural" v="wetland" />
		<tag k="ssr:stedsnr" v="664867" />
	</node>
	<node id="-44528" lat="60.4335055568" lon="10.9857138924">
		<tag k="name" v="Gjødingeseterstormyra" />
		<tag k="natural" v="wetland" />
		<tag k="ssr:stedsnr" v="224175" />
	</node>
	<node id="-44357" lat="60.3958361113" lon="10.9432666725">
		<tag k="name" v="Hjerteresset" />
		<tag k="natural" v="wetland" />
		<tag k="ssr:stedsnr" v="103818" />
	</node>
	<node id="-44955" lat="60.440672225" lon="10.9688833271">
		<tag k="landuse" v="meadow" />
		<tag k="name" v="Rundhaugenga" />
		<tag k="ssr:stedsnr" v="663648" />
	</node>
	<node id="-44954" lat="60.4503388901" lon="10.9213611071">
		<tag k="name" v="Tolløfsteinen" />
		<tag k="natural" v="stone" />
		<tag k="ssr:stedsnr" v="663644" />
	</node>
	<node id="-44953" lat="60.4524277816" lon="11.0801638889">
		<tag k="name" v="Puttmyra" />
		<tag k="natural" v="wetland" />
		<tag k="ssr:stedsnr" v="662887" />
	</node>
	<node id="-44952" lat="60.4374222241" lon="11.1022888923">
		<tag k="name" v="Skillegardsmyra" />
		<tag k="natural" v="wetland" />
		<tag k="ssr:stedsnr" v="662873" />
	</node>
	<node id="-44356" lat="60.3919055569" lon="10.9868444523">
		<tag k="name" v="Stokkmyra" />
		<tag k="natural" v="wetland" />
		<tag k="ssr:stedsnr" v="103812" />
	</node>
	<node id="-44438" lat="60.4157333359" lon="10.8683027812">
		<tag k="name" v="Furumyra" />
		<tag k="natural" v="wetland" />
		<tag k="ssr:stedsnr" v="163215" />
	</node>
	<node id="-44437" lat="60.4307583357" lon="10.8230138886">
		<tag k="name" v="Jakobinemyra" />
		<tag k="natural" v="wetland" />
		<tag k="ssr:stedsnr" v="163213" />
	</node>
	<node id="-44947" lat="60.383463891" lon="11.0715916691">
		<tag k="name" v="Løesletta" />
		<tag k="place" v="locality" />
		<tag k="ssr:stedsnr" v="648926" />
	</node>
	<node id="-44433" lat="60.4738277787" lon="11.0854833377">
		<tag k="name" v="Fegdemyra" />
		<tag k="natural" v="wetland" />
		<tag k="ssr:stedsnr" v="163205" />
	</node>
	<node id="-44942" lat="60.4025666638" lon="10.9325388922">
		<tag k="name" v="Merramyra" />
		<tag k="natural" v="wetland" />
		<tag k="ssr:stedsnr" v="648824" />
	</node>
	<node id="-45378" lat="60.431275002" lon="11.1053611148">
		<tag k="name" v="Kipp" />
		<tag k="natural" v="wetland" />
		<tag k="ssr:stedsnr" v="969481" />
	</node>
	<node id="-44419" lat="60.3603138924" lon="10.9334999931">
		<tag k="name" v="Andtjennsmyra" />
		<tag k="natural" v="wetland" />
		<tag k="ssr:stedsnr" v="161131" />
	</node>
	<node id="-44929" lat="60.3518388925" lon="11.0934583307">
		<tag k="name" v="Mastemyra" />
		<tag k="natural" v="wetland" />
		<tag k="ssr:stedsnr" v="648573" />
	</node>
	<node id="-44926" lat="60.4788972239" lon="10.7215388954">
		<tag k="name" v="Depotmyra" />
		<tag k="natural" v="wetland" />
		<tag k="ssr:stedsnr" v="648254" />
	</node>
	<node id="-44410" lat="60.4576833303" lon="10.9568416703">
		<tag k="alt_name" v="Daumannsmyra" />
		<tag k="name" v="Daudmannsmyra" />
		<tag k="natural" v="wetland" />
		<tag k="ssr:stedsnr" v="127704" />
	</node>
	<node id="-44409" lat="60.4579472215" lon="11.0059916601">
		<tag k="name" v="Kollmyra" />
		<tag k="natural" v="wetland" />
		<tag k="ssr:stedsnr" v="127701" />
	</node>
	<node id="-44406" lat="60.3436194477" lon="10.948694436">
		<tag k="name" v="Rismyra" />
		<tag k="natural" v="wetland" />
		<tag k="ssr:stedsnr" v="127682" />
	</node>
	<node id="-45062" lat="60.3842333371" lon="11.0357499927">
		<tag k="landuse" v="meadow" />
		<tag k="name" v="Engebakken" />
		<tag k="ssr:stedsnr" v="726970" />
	</node>
	<node id="-44435" lat="60.4959944486" lon="10.7097749966">
		<tag k="name" v="Brannelvmyrene" />
		<tag k="natural" v="wetland" />
		<tag k="ssr:stedsnr" v="163209" />
	</node>
	<node id="-44398" lat="60.3943333374" lon="10.914955547">
		<tag k="name" v="Jeppedalsstormyra" />
		<tag k="natural" v="wetland" />
		<tag k="ssr:stedsnr" v="127626" />
	</node>
	<node id="-44909" lat="60.3452000034" lon="10.9911611044">
		<tag k="name" v="Furumyra" />
		<tag k="natural" v="wetland" />
		<tag k="ssr:stedsnr" v="646848" />
	</node>
	<node id="-44186" lat="60.3820916631" lon="11.0010888946">
		<tag k="name" v="Bottenustad" />
		<tag k="place" v="locality" />
		<tag k="ssr:stedsnr" v="406742" />
	</node>
	<node id="-45116" lat="60.3864305562" lon="10.9354861075">
		<tag k="name" v="Storrmyra" />
		<tag k="natural" v="wetland" />
		<tag k="ssr:stedsnr" v="770734" />
	</node>
	<node id="-44386" lat="60.4410750005" lon="10.6917666708">
		<tag k="name" v="Bustevollmyrene" />
		<tag k="natural" v="wetland" />
		<tag k="ssr:stedsnr" v="120450" />
	</node>
	<node id="-45371" lat="60.3401361118" lon="11.1019500055">
		<tag k="name" v="Fjøsmyra" />
		<tag k="natural" v="wetland" />
		<tag k="ssr:stedsnr" v="967986" />
	</node>
	<node id="-44895" lat="60.4960666693" lon="10.7499750082">
		<tag k="alt_name" v="Vindflomyrane;Vindflomyra" />
		<tag k="name" v="Vindflomyrene" />
		<tag k="natural" v="wetland" />
		<tag k="ssr:stedsnr" v="612765" />
	</node>
	<node id="-44379" lat="60.4659694432" lon="10.9348166625">
		<tag k="name" v="Bjønnhimyra" />
		<tag k="natural" v="wetland" />
		<tag k="ssr:stedsnr" v="118871" />
	</node>
	<node id="-45199" lat="60.465222226" lon="11.0872777812">
		<tag k="name" v="Puttmyra" />
		<tag k="natural" v="wetland" />
		<tag k="ssr:stedsnr" v="831216" />
	</node>
	<node id="-44376" lat="60.4629694408" lon="10.8589583411">
		<tag k="name" v="Mikkelhøgget" />
		<tag k="place" v="locality" />
		<tag k="ssr:stedsnr" v="118832" />
	</node>
	<node id="-45198" lat="60.4616138844" lon="11.0923388908">
		<tag k="name" v="Slettmyrene" />
		<tag k="natural" v="wetland" />
		<tag k="ssr:stedsnr" v="831214" />
	</node>
	<node id="-44370" lat="60.4757805547" lon="10.7554333356">
		<tag k="name" v="Haremyra" />
		<tag k="natural" v="wetland" />
		<tag k="ssr:stedsnr" v="116894" />
	</node>
	<node id="-44369" lat="60.4719694431" lon="10.7350527702">
		<tag k="name" v="Dammyra" />
		<tag k="natural" v="wetland" />
		<tag k="ssr:stedsnr" v="116889" />
	</node>
	<node id="-44368" lat="60.4460138847" lon="11.0951166715">
		<tag k="name" v="Krokmyra" />
		<tag k="natural" v="wetland" />
		<tag k="ssr:stedsnr" v="116879" />
	</node>
	<node id="-44366" lat="60.4391472235" lon="11.0787166693">
		<tag k="name" v="Vesleslåtten" />
		<tag k="place" v="locality" />
		<tag k="ssr:stedsnr" v="116871" />
	</node>
	<node id="-44169" lat="60.4319166633" lon="10.983236104">
		<tag k="name" v="Brenninga" />
		<tag k="place" v="locality" />
		<tag k="ssr:stedsnr" v="406167" />
	</node>
	<node id="-44874" lat="60.4510805592" lon="10.750719438">
		<tag k="name" v="Illebrent" />
		<tag k="place" v="locality" />
		<tag k="ssr:stedsnr" v="605450" />
	</node>
	<node id="-44361" lat="60.3763611152" lon="11.0853805632">
		<tag k="name" v="Moltemyra" />
		<tag k="natural" v="wetland" />
		<tag k="ssr:stedsnr" v="103907" />
	</node>
	<node id="-44360" lat="60.3861888921" lon="11.1226472254">
		<tag k="name" v="Rønsenhogget" />
		<tag k="place" v="locality" />
		<tag k="ssr:stedsnr" v="103901" />
	</node>
	<node id="-44359" lat="60.4075472204" lon="11.0008888862">
		<tag k="name" v="Skillestein" />
		<tag k="natural" v="stone" />
		<tag k="ssr:stedsnr" v="103853" />
	</node>
	<node id="-44869" lat="60.464397221" lon="10.988527773">
		<tag k="name" v="Helgemyra" />
		<tag k="natural" v="wetland" />
		<tag k="ssr:stedsnr" v="603867" />
	</node>
	<node id="-44868" lat="60.4615166703" lon="10.8825555558">
		<tag k="name" v="Johannesbråtamyra" />
		<tag k="natural" v="wetland" />
		<tag k="ssr:stedsnr" v="603824" />
	</node>
	<node id="-44867" lat="60.4576444413" lon="10.8440138813">
		<tag k="landuse" v="meadow" />
		<tag k="name" v="Simarudenga" />
		<tag k="ssr:stedsnr" v="603796" />
	</node>
	<node id="-44866" lat="60.4769916635" lon="10.9670611164">
		<tag k="name" v="Størhusmyra" />
		<tag k="natural" v="wetland" />
		<tag k="ssr:stedsnr" v="603156" />
	</node>
	<node id="-44353" lat="60.3789694444" lon="10.9296000079">
		<tag k="name" v="Lessemyra" />
		<tag k="natural" v="wetland" />
		<tag k="ssr:stedsnr" v="103708" />
	</node>
	<node id="-44864" lat="60.4374111134" lon="10.9738111114">
		<tag k="landuse" v="meadow" />
		<tag k="name" v="Trilterudenga" />
		<tag k="ssr:stedsnr" v="602652" />
	</node>
	<node id="-44355" lat="60.4109472233" lon="11.1207000042">
		<tag k="name" v="Kasta" />
		<tag k="natural" v="stone" />
		<tag k="ssr:stedsnr" v="103736" />
	</node>
	<node id="-44349" lat="60.5064361075" lon="11.0719888974">
		<tag k="name" v="Vintermyra" />
		<tag k="natural" v="wetland" />
		<tag k="ssr:stedsnr" v="103130" />
	</node>
	<node id="-44859" lat="60.4409194404" lon="11.0791027737">
		<tag k="name" v="Bergslåtten" />
		<tag k="place" v="locality" />
		<tag k="ssr:stedsnr" v="601874" />
	</node>
	<node id="-44857" lat="60.421322222" lon="11.1173611056">
		<tag k="name" v="Setermyra" />
		<tag k="natural" v="wetland" />
		<tag k="ssr:stedsnr" v="601448" />
	</node>
	<node id="-44855" lat="60.4450638851" lon="10.8368305485">
		<tag k="landuse" v="meadow" />
		<tag k="name" v="Lundbergsengene" />
		<tag k="ssr:stedsnr" v="604424" />
	</node>
	<node id="-44854" lat="60.3833972224" lon="11.0953388951">
		<tag k="name" v="Stormyra" />
		<tag k="natural" v="wetland" />
		<tag k="ssr:stedsnr" v="588932" />
	</node>
	<node id="-45365" lat="60.4670527762" lon="10.8358361092">
		<tag k="name" v="Fløytmyrene" />
		<tag k="natural" v="wetland" />
		<tag k="ssr:stedsnr" v="967816" />
	</node>
	<node id="-44850" lat="60.4020027753" lon="11.0876194388">
		<tag k="name" v="Storhøgget" />
		<tag k="place" v="locality" />
		<tag k="ssr:stedsnr" v="588796" />
	</node>
	<node id="-44849" lat="60.4083611151" lon="11.1030638866">
		<tag k="name" v="Arnemyra" />
		<tag k="natural" v="wetland" />
		<tag k="ssr:stedsnr" v="588794" />
	</node>
	<node id="-45360" lat="60.4463138914" lon="10.9220138869">
		<tag k="name" v="Tjuvsteinen" />
		<tag k="natural" v="stone" />
		<tag k="ssr:stedsnr" v="967594" />
	</node>
	<node id="-45357" lat="60.4689888914" lon="10.8033472224">
		<tag k="name" v="Finnskjeggmyra" />
		<tag k="natural" v="wetland" />
		<tag k="ssr:stedsnr" v="965912" />
	</node>
	<node id="-45354" lat="60.4378361103" lon="11.0987694355">
		<tag k="name" v="Pusterhøgget" />
		<tag k="place" v="locality" />
		<tag k="ssr:stedsnr" v="965884" />
	</node>
	<node id="-44835" lat="60.491005553" lon="10.6983166683">
		<tag k="name" v="Lomtjennsmyrene" />
		<tag k="natural" v="wetland" />
		<tag k="ssr:stedsnr" v="587244" />
	</node>
	<node id="-44834" lat="60.4857611108" lon="10.7081805513">
		<tag k="name" v="Gampemyra" />
		<tag k="natural" v="wetland" />
		<tag k="ssr:stedsnr" v="587238" />
	</node>
	<node id="-44833" lat="60.42745" lon="10.8871611127">
		<tag k="name" v="Brunmyra" />
		<tag k="natural" v="wetland" />
		<tag k="ssr:stedsnr" v="587232" />
	</node>
	<node id="-44848" lat="60.4091527742" lon="11.0899666732">
		<tag k="name" v="Malastykket" />
		<tag k="place" v="locality" />
		<tag k="ssr:stedsnr" v="588791" />
	</node>
	<node id="-45342" lat="60.3966611096" lon="11.0152500033">
		<tag k="name" v="Grøftemyra" />
		<tag k="natural" v="wetland" />
		<tag k="ssr:stedsnr" v="952857" />
	</node>
	<node id="-44165" lat="60.5098444433" lon="11.0553555531">
		<tag k="name" v="Stormyra" />
		<tag k="natural" v="wetland" />
		<tag k="ssr:stedsnr" v="406125" />
	</node>
	<node id="-44827" lat="60.438197218" lon="10.9106472199">
		<tag k="name" v="Hansbakkmyra" />
		<tag k="natural" v="wetland" />
		<tag k="ssr:stedsnr" v="586318" />
	</node>
	<node id="-45338" lat="60.3944333321" lon="10.9623138863">
		<tag k="name" v="Vesle Stormyra" />
		<tag k="natural" v="wetland" />
		<tag k="ssr:stedsnr" v="952800" />
	</node>
	<node id="-45138" lat="60.4583972221" lon="10.8591138869">
		<tag k="name" v="Godmyra" />
		<tag k="natural" v="wetland" />
		<tag k="ssr:stedsnr" v="785843" />
	</node>
	<node id="-45336" lat="60.407905552" lon="11.0995111114">
		<tag k="name" v="Haukesnatet" />
		<tag k="place" v="locality" />
		<tag k="ssr:stedsnr" v="952761" />
	</node>
	<node id="-44823" lat="60.351255556" lon="10.9891749958">
		<tag k="name" v="Anføttesmyra" />
		<tag k="natural" v="wetland" />
		<tag k="ssr:stedsnr" v="585726" />
	</node>
	<node id="-45334" lat="60.4345527776" lon="10.7136527717">
		<tag k="name" v="Lessemyra" />
		<tag k="natural" v="wetland" />
		<tag k="ssr:stedsnr" v="952739" />
	</node>
	<node id="-45273" lat="60.465483333" lon="10.9981083369">
		<tag k="name" v="Vardølingsmyra" />
		<tag k="natural" v="wetland" />
		<tag k="ssr:stedsnr" v="907839" />
	</node>
	<node id="-44307" lat="60.4480999974" lon="10.7119833315">
		<tag k="name" v="Fallhagen" />
		<tag k="place" v="locality" />
		<tag k="ssr:stedsnr" v="59468" />
	</node>
	<node id="-44302" lat="60.4583833322" lon="10.9996166752">
		<tag k="name" v="Blåbærdammen" />
		<tag k="natural" v="wetland" />
		<tag k="ssr:stedsnr" v="57865" />
	</node>
	<node id="-45274" lat="60.4734833311" lon="10.9018972173">
		<tag k="name" v="Vestre Bjønnåsmyrene" />
		<tag k="natural" v="wetland" />
		<tag k="ssr:stedsnr" v="907848" />
	</node>
	<node id="-44039" lat="60.4709111113" lon="10.9816500052">
		<tag k="name" v="Gulliksrudmyra" />
		<tag k="natural" v="wetland" />
		<tag k="ssr:stedsnr" v="300183" />
	</node>
	<node id="-43991" lat="60.3640777741" lon="10.9297166703">
		<tag k="name" v="Lyngtua" />
		<tag k="natural" v="wetland" />
		<tag k="ssr:stedsnr" v="282725" />
	</node>
	<node id="-45320" lat="60.4770166703" lon="11.0890000049">
		<tag k="name" v="Kvennmyra" />
		<tag k="natural" v="wetland" />
		<tag k="ssr:stedsnr" v="952248" />
	</node>
	<node id="-45379" lat="60.4323027733" lon="11.1153500036">
		<tag k="name" v="Knuvlebeitet" />
		<tag k="place" v="locality" />
		<tag k="ssr:stedsnr" v="969482" />
	</node>
	<node id="-44161" lat="60.3533305587" lon="10.9478805594">
		<tag k="name" v="Huldertjennsmyrene" />
		<tag k="natural" v="wetland" />
		<tag k="ssr:stedsnr" v="404840" />
	</node>
	<node id="-44336" lat="60.4836722222" lon="10.8019777696">
		<tag k="historic" v="shieling" />
		<tag k="name" v="Hyttevollene" />
		<tag k="place" v="locality" />
		<tag k="ssr:stedsnr" v="102050" />
	</node>
	<node id="-44291" lat="60.3887972194" lon="11.0837972211">
		<tag k="name" v="Skarpsno" />
		<tag k="place" v="locality" />
		<tag k="ssr:stedsnr" v="42895" />
	</node>
	<node id="-44796" lat="60.445108337" lon="10.7966972169">
		<tag k="name" v="Tollanmyra" />
		<tag k="natural" v="wetland" />
		<tag k="ssr:stedsnr" v="545367" />
	</node>
	<node id="-44795" lat="60.4524805574" lon="10.7914666753">
		<tag k="historic" v="shieling" />
		<tag k="name" v="Gamlevollen" />
		<tag k="place" v="locality" />
		<tag k="ssr:stedsnr" v="545358" />
	</node>
	<node id="-45306" lat="60.4392805539" lon="11.1125249909">
		<tag k="name" v="Puttmyra" />
		<tag k="natural" v="wetland" />
		<tag k="ssr:stedsnr" v="917445" />
	</node>
	<node id="-44793" lat="60.4379555549" lon="10.8797194385">
		<tag k="landuse" v="meadow" />
		<tag k="name" v="Sørgårdsenga" />
		<tag k="ssr:stedsnr" v="545345" />
	</node>
	<node id="-44792" lat="60.3897833364" lon="11.0416500012">
		<tag k="landuse" v="meadow" />
		<tag k="name" v="Nordenga" />
		<tag k="ssr:stedsnr" v="544959" />
	</node>
	<node id="-44278" lat="60.3494500042" lon="11.0814138886">
		<tag k="name" v="Skilledalsmyra" />
		<tag k="natural" v="wetland" />
		<tag k="ssr:stedsnr" v="42538" />
	</node>
	<node id="-44788" lat="60.4151750035" lon="11.041005547">
		<tag k="landuse" v="meadow" />
		<tag k="name" v="Justenga" />
		<tag k="ssr:stedsnr" v="544037" />
	</node>
	<node id="-45182" lat="60.4547027816" lon="10.8599583309">
		<tag k="name" v="Vintermyra" />
		<tag k="natural" v="wetland" />
		<tag k="ssr:stedsnr" v="829286" />
	</node>
	<node id="-44273" lat="60.4855333324" lon="10.7818611076">
		<tag k="name" v="Bukkemyra" />
		<tag k="natural" v="wetland" />
		<tag k="ssr:stedsnr" v="42043" />
	</node>
	<node id="-44272" lat="60.4955861109" lon="11.0293638888">
		<tag k="name" v="Torvmyra" />
		<tag k="natural" v="wetland" />
		<tag k="ssr:stedsnr" v="42029" />
	</node>
	<node id="-44783" lat="60.3939944465" lon="10.9004694469">
		<tag k="name" v="Eftasverdmyra" />
		<tag k="natural" v="wetland" />
		<tag k="ssr:stedsnr" v="542417" />
	</node>
	<node id="-44782" lat="60.4637527781" lon="10.7362694401">
		<tag k="name" v="Gudbrandsbråtamyra" />
		<tag k="natural" v="wetland" />
		<tag k="ssr:stedsnr" v="540925" />
	</node>
	<node id="-45291" lat="60.4088777762" lon="10.8819805586">
		<tag k="name" v="Steinmyra" />
		<tag k="natural" v="wetland" />
		<tag k="ssr:stedsnr" v="916634" />
	</node>
	<node id="-44774" lat="60.4267805551" lon="11.1123916647">
		<tag k="name" v="Bundlitjennsmyra" />
		<tag k="natural" v="wetland" />
		<tag k="ssr:stedsnr" v="540429" />
	</node>
	<node id="-44667" lat="60.3811083338" lon="11.0986749948">
		<tag k="name" v="Grovsmyra" />
		<tag k="natural" v="wetland" />
		<tag k="ssr:stedsnr" v="467921" />
	</node>
	<node id="-44766" lat="60.400847224" lon="11.1142333361">
		<tag k="name" v="Kasperhogget" />
		<tag k="place" v="locality" />
		<tag k="ssr:stedsnr" v="527770" />
	</node>
	<node id="-45277" lat="60.4491805514" lon="10.7776694532">
		<tag k="name" v="Valbymyra" />
		<tag k="natural" v="wetland" />
		<tag k="ssr:stedsnr" v="909398" />
	</node>
	<node id="-44764" lat="60.4104888867" lon="11.0877472228">
		<tag k="landuse" v="meadow" />
		<tag k="name" v="Hamnsenga" />
		<tag k="ssr:stedsnr" v="527764" />
	</node>
	<node id="-44762" lat="60.3845805534" lon="10.9205861127">
		<tag k="name" v="Signalmyra" />
		<tag k="natural" v="wetland" />
		<tag k="ssr:stedsnr" v="527758" />
	</node>
	<node id="-44761" lat="60.3885555567" lon="10.9113861132">
		<tag k="name" v="Stormyrbråtan" />
		<tag k="place" v="locality" />
		<tag k="ssr:stedsnr" v="527744" />
	</node>
	<node id="-45272" lat="60.4712388908" lon="10.9669138972">
		<tag k="name" v="Ilmyra" />
		<tag k="natural" v="wetland" />
		<tag k="ssr:stedsnr" v="907834" />
	</node>
	<node id="-44759" lat="60.3637027752" lon="11.0963944461">
		<tag k="name" v="Vollengmyra" />
		<tag k="natural" v="wetland" />
		<tag k="ssr:stedsnr" v="527557" />
	</node>
	<node id="-45269" lat="60.4489055564" lon="10.8953138955">
		<tag k="name" v="Oppegårdstormyra" />
		<tag k="natural" v="wetland" />
		<tag k="ssr:stedsnr" v="906672" />
	</node>
	<node id="-44756" lat="60.3562194463" lon="10.9653472225">
		<tag k="name" v="Rundemyra" />
		<tag k="natural" v="wetland" />
		<tag k="ssr:stedsnr" v="527518" />
	</node>
	<node id="-44755" lat="60.3620916702" lon="10.9841222221">
		<tag k="name" v="Valdresmyra" />
		<tag k="natural" v="wetland" />
		<tag k="ssr:stedsnr" v="527514" />
	</node>
	<node id="-45266" lat="60.4702333298" lon="10.731741675">
		<tag k="name" v="Fuglemyra" />
		<tag k="natural" v="wetland" />
		<tag k="ssr:stedsnr" v="905906" />
	</node>
	<node id="-45265" lat="60.4175972207" lon="11.1148666691">
		<tag k="name" v="Kippmyra" />
		<tag k="natural" v="wetland" />
		<tag k="ssr:stedsnr" v="905480" />
	</node>
	<node id="-45346" lat="60.3757249973" lon="11.0954805499">
		<tag k="name" v="Kinnmyra" />
		<tag k="natural" v="wetland" />
		<tag k="ssr:stedsnr" v="952926" />
	</node>
	<node id="-44746" lat="60.5098666687" lon="11.0422055607">
		<tag k="name" v="Skjellmyra" />
		<tag k="natural" v="wetland" />
		<tag k="ssr:stedsnr" v="527129" />
	</node>
	<node id="-44229" lat="60.4034388922" lon="10.9292888931">
		<tag k="name" v="Tobakksteinbrennmyra" />
		<tag k="natural" v="wetland" />
		<tag k="ssr:stedsnr" v="892821" />
	</node>
	<node id="-44736" lat="60.4383944475" lon="10.9280694361">
		<tag k="name" v="Slåttmyra" />
		<tag k="natural" v="wetland" />
		<tag k="ssr:stedsnr" v="526293" />
	</node>
	<node id="-44223" lat="60.39093056" lon="10.9998694369">
		<tag k="name" v="Høgmyra" />
		<tag k="natural" v="wetland" />
		<tag k="ssr:stedsnr" v="892614" />
	</node>
	<node id="-44222" lat="60.3757666694" lon="11.0232111063">
		<tag k="landuse" v="meadow" />
		<tag k="name" v="Utenga" />
		<tag k="ssr:stedsnr" v="892611" />
	</node>
	<node id="-44732" lat="60.3425194456" lon="11.0908305596">
		<tag k="name" v="Olabråtemyra" />
		<tag k="natural" v="wetland" />
		<tag k="ssr:stedsnr" v="525740" />
	</node>
	<node id="-44234" lat="60.4517583329" lon="10.70166944">
		<tag k="alt_name" v="Kåvamyra" />
		<tag k="name" v="Kåvemyra" />
		<tag k="natural" v="wetland" />
		<tag k="ssr:stedsnr" v="578550" />
	</node>
	<node id="-44218" lat="60.3632999972" lon="10.9516111118">
		<tag k="name" v="Fuglemyrene" />
		<tag k="natural" v="wetland" />
		<tag k="ssr:stedsnr" v="892505" />
	</node>
	<node id="-44215" lat="60.4519500045" lon="10.9617472187">
		<tag k="name" v="Rundmyra" />
		<tag k="natural" v="wetland" />
		<tag k="ssr:stedsnr" v="891710" />
	</node>
	<node id="-44213" lat="60.485361115" lon="10.7739166745">
		<tag k="name" v="Hølbekkmyra" />
		<tag k="natural" v="wetland" />
		<tag k="ssr:stedsnr" v="891262" />
	</node>
	<node id="-45235" lat="60.3846694453" lon="11.0370833263">
		<tag k="name" v="Lykkjejordet" />
		<tag k="place" v="locality" />
		<tag k="ssr:stedsnr" v="848953" />
	</node>
	<node id="-44719" lat="60.4647388918" lon="10.7590944532">
		<tag k="name" v="Sjakersmyra" />
		<tag k="natural" v="wetland" />
		<tag k="ssr:stedsnr" v="491702" />
	</node>
	<node id="-45084" lat="60.475283329" lon="10.7780499938">
		<tag k="name" v="Stormyra" />
		<tag k="natural" v="wetland" />
		<tag k="ssr:stedsnr" v="734722" />
	</node>
	<node id="-44198" lat="60.3941777758" lon="10.9448194378">
		<tag k="name" v="Dagrosmyra" />
		<tag k="natural" v="wetland" />
		<tag k="ssr:stedsnr" v="406835" />
	</node>
	<node id="-44195" lat="60.4050777798" lon="11.1074638813">
		<tag k="name" v="Ottohøgget" />
		<tag k="place" v="locality" />
		<tag k="ssr:stedsnr" v="406779" />
	</node>
	<node id="-44706" lat="60.4003249967" lon="10.9884833402">
		<tag k="alt_name" v="Breidmyra" />
		<tag k="name" v="Breimyra" />
		<tag k="natural" v="wetland" />
		<tag k="ssr:stedsnr" v="491606" />
	</node>
	<node id="-44704" lat="60.4817388866" lon="10.6996833376">
		<tag k="alt_name" v="Syslemyra" />
		<tag k="name" v="Syslemyr" />
		<tag k="natural" v="wetland" />
		<tag k="ssr:stedsnr" v="491211" />
	</node>
	<node id="-44191" lat="60.4283361101" lon="10.774133332">
		<tag k="name" v="Langslenga" />
		<tag k="natural" v="wetland" />
		<tag k="ssr:stedsnr" v="406765" />
	</node>
	<node id="-44702" lat="60.4525138903" lon="10.7221249996">
		<tag k="name" v="Fallhaugløkka" />
		<tag k="place" v="locality" />
		<tag k="ssr:stedsnr" v="484413" />
	</node>
	<node id="-44701" lat="60.4542777739" lon="10.7419472306">
		<tag k="name" v="Hølmarka" />
		<tag k="place" v="locality" />
		<tag k="ssr:stedsnr" v="484411" />
	</node>
	<node id="-45211" lat="60.4041861127" lon="10.9746305597">
		<tag k="name" v="Skrukkemyra" />
		<tag k="natural" v="wetland" />
		<tag k="ssr:stedsnr" v="831847" />
	</node>
	<node id="-44698" lat="60.3789722206" lon="11.026169442">
		<tag k="landuse" v="meadow" />
		<tag k="name" v="Utenga" />
		<tag k="ssr:stedsnr" v="483581" />
	</node>
	<node id="-45207" lat="60.3939444428" lon="11.131972222">
		<tag k="name" v="Toputtmyra" />
		<tag k="natural" v="wetland" />
		<tag k="ssr:stedsnr" v="831721" />
	</node>
	<node id="-44693" lat="60.4543277747" lon="10.908686119">
		<tag k="name" v="Fjellhammermyra" />
		<tag k="natural" v="wetland" />
		<tag k="ssr:stedsnr" v="481649" />
	</node>
	<node id="-45204" lat="60.365908337" lon="10.9598916684">
		<tag k="name" v="Kammerherremyrene" />
		<tag k="natural" v="wetland" />
		<tag k="ssr:stedsnr" v="831520" />
	</node>
	<node id="-44179" lat="60.4153638933" lon="10.8621055577">
		<tag k="name" v="Langmyrene" />
		<tag k="natural" v="wetland" />
		<tag k="ssr:stedsnr" v="406248" />
	</node>
	<node id="-44690" lat="60.4720749985" lon="10.8068277726">
		<tag k="name" v="Sovarmyra" />
		<tag k="natural" v="wetland" />
		<tag k="ssr:stedsnr" v="480918" />
	</node>
	<node id="-44177" lat="60.4248861156" lon="10.8535666667">
		<tag k="name" v="Eideflata" />
		<tag k="place" v="locality" />
		<tag k="ssr:stedsnr" v="406238" />
	</node>
	<node id="-44687" lat="60.4545472193" lon="11.0943944522">
		<tag k="name" v="Siridalsmyra" />
		<tag k="natural" v="wetland" />
		<tag k="ssr:stedsnr" v="480897" />
	</node>
	<node id="-44686" lat="60.4434166632" lon="11.1088000015">
		<tag k="name" v="Kollmyra" />
		<tag k="natural" v="wetland" />
		<tag k="ssr:stedsnr" v="480895" />
	</node>
	<node id="-44681" lat="60.4000361074" lon="10.9230583273">
		<tag k="name" v="Bekkemyra" />
		<tag k="natural" v="wetland" />
		<tag k="ssr:stedsnr" v="467849" />
	</node>
	<node id="-44678" lat="60.3821888866" lon="10.9466805534">
		<tag k="name" v="Sjuputtmyra" />
		<tag k="natural" v="wetland" />
		<tag k="ssr:stedsnr" v="467753" />
	</node>
	<node id="-44677" lat="60.3837611104" lon="10.9644111025">
		<tag k="name" v="Kvennmyra" />
		<tag k="natural" v="wetland" />
		<tag k="ssr:stedsnr" v="467751" />
	</node>
	<node id="-45187" lat="60.3699027776" lon="10.9286638893">
		<tag k="name" v="Merramyra" />
		<tag k="natural" v="wetland" />
		<tag k="ssr:stedsnr" v="829749" />
	</node>
	<node id="-45186" lat="60.3828916656" lon="10.9167499929">
		<tag k="name" v="Langmyra" />
		<tag k="natural" v="wetland" />
		<tag k="ssr:stedsnr" v="831685" />
	</node>
	<node id="-44673" lat="60.366219442" lon="10.9770833306">
		<tag k="name" v="Johannesmyra" />
		<tag k="natural" v="wetland" />
		<tag k="ssr:stedsnr" v="467565" />
	</node>
	<node id="-44224" lat="60.3943222257" lon="10.9089111033">
		<tag k="name" v="Skaubråtemyra" />
		<tag k="natural" v="wetland" />
		<tag k="ssr:stedsnr" v="892717" />
	</node>
	<node id="-44670" lat="60.4520194404" lon="10.976588888">
		<tag k="name" v="Merramyra" />
		<tag k="natural" v="wetland" />
		<tag k="ssr:stedsnr" v="466718" />
	</node>
	<node id="-44669" lat="60.4483777805" lon="10.9979277801">
		<tag k="name" v="Stormyra" />
		<tag k="natural" v="wetland" />
		<tag k="ssr:stedsnr" v="466715" />
	</node>
	<node id="-45180" lat="60.4479388879" lon="10.885058331">
		<tag k="name" v="Vestengmyra" />
		<tag k="natural" v="wetland" />
		<tag k="ssr:stedsnr" v="829282" />
	</node>
	<node id="-44178" lat="60.4818777786" lon="10.7139277772">
		<tag k="name" v="Rundmyra" />
		<tag k="natural" v="wetland" />
		<tag k="ssr:stedsnr" v="406239" />
	</node>
	<node id="-44665" lat="60.3887444472" lon="11.1042666632">
		<tag k="name" v="Nysetermyra" />
		<tag k="natural" v="wetland" />
		<tag k="ssr:stedsnr" v="467914" />
	</node>
	<node id="-44664" lat="60.4809361093" lon="10.7580055515">
		<tag k="name" v="Skillemyra" />
		<tag k="natural" v="wetland" />
		<tag k="ssr:stedsnr" v="466253" />
	</node>
	<node id="-44660" lat="60.4243222258" lon="10.8390944506">
		<tag k="name" v="Lomtjennsmyra" />
		<tag k="natural" v="wetland" />
		<tag k="ssr:stedsnr" v="466248" />
	</node>
	<node id="-44659" lat="60.4329888902" lon="10.8860833347">
		<tag k="name" v="Sørgardsmyra" />
		<tag k="natural" v="wetland" />
		<tag k="ssr:stedsnr" v="466242" />
	</node>
	<node id="-44146" lat="60.4885055537" lon="10.7378000086">
		<tag k="name" v="Kloppmyra" />
		<tag k="natural" v="wetland" />
		<tag k="ssr:stedsnr" v="370753" />
	</node>
	<node id="-45331" lat="60.3794944468" lon="10.9502583262">
		<tag k="name" v="Furustubbmyra" />
		<tag k="natural" v="wetland" />
		<tag k="ssr:stedsnr" v="952722" />
	</node>
	<node id="-44655" lat="60.4586638887" lon="11.0788000046">
		<tag k="name" v="Hanskollmyra" />
		<tag k="natural" v="wetland" />
		<tag k="ssr:stedsnr" v="466223" />
	</node>
	<node id="-44041" lat="60.4678305581" lon="10.9003472228">
		<tag k="name" v="Rødsteinmyrene" />
		<tag k="natural" v="wetland" />
		<tag k="ssr:stedsnr" v="300883" />
	</node>
	<node id="-44648" lat="60.4940472243" lon="11.0044527861">
		<tag k="landuse" v="quarry" />
		<tag k="name" v="Steinbruddet" />
		<tag k="ssr:stedsnr" v="466012" />
	</node>
	<node id="-44645" lat="60.3486388867" lon="11.091366668">
		<tag k="name" v="Svartholtet" />
		<tag k="place" v="locality" />
		<tag k="ssr:stedsnr" v="464775" />
	</node>
	<node id="-44132" lat="60.3943166698" lon="10.9574972294">
		<tag k="alt_name" v="Sverretjennsmyrene" />
		<tag k="name" v="Sverretjennsmyra" />
		<tag k="natural" v="wetland" />
		<tag k="ssr:stedsnr" v="370608" />
	</node>
	<node id="-45151" lat="60.4055916655" lon="11.1287777752">
		<tag k="name" v="Stormyra" />
		<tag k="natural" v="wetland" />
		<tag k="ssr:stedsnr" v="795021" />
	</node>
	<node id="-44124" lat="60.4738277738" lon="10.9329555488">
		<tag k="name" v="Kjellermyra" />
		<tag k="natural" v="wetland" />
		<tag k="ssr:stedsnr" v="361889" />
	</node>
	<node id="-44123" lat="60.4744694435" lon="11.0032638937">
		<tag k="name" v="Kårehøgget" />
		<tag k="place" v="locality" />
		<tag k="ssr:stedsnr" v="361876" />
	</node>
	<node id="-44447" lat="60.3661666703" lon="11.0966972148">
		<tag k="name" v="Ruggesteinen" />
		<tag k="natural" v="stone" />
		<tag k="ssr:stedsnr" v="163679" />
	</node>
	<node id="-44115" lat="60.4640222188" lon="10.8171305571">
		<tag k="name" v="Rennhøggmyra" />
		<tag k="natural" v="wetland" />
		<tag k="ssr:stedsnr" v="358901" />
	</node>
	<node id="-44114" lat="60.4697750011" lon="10.7240777856">
		<tag k="name" v="Sprangmyra" />
		<tag k="natural" v="wetland" />
		<tag k="ssr:stedsnr" v="358891" />
	</node>
	<node id="-44625" lat="60.3764305539" lon="10.974349992">
		<tag k="name" v="Vestlistormyra" />
		<tag k="natural" v="wetland" />
		<tag k="ssr:stedsnr" v="431586" />
	</node>
	<node id="-44624" lat="60.3764638905" lon="11.0085055534">
		<tag k="alt_name" v="Rudsætermyra" />
		<tag k="fixme" v="multiple name tags, choose one and add the other to alt_name" />
		<tag k="name" v="Julsmyra;Rudssætermyra" />
		<tag k="natural" v="wetland" />
		<tag k="ssr:stedsnr" v="431584" />
	</node>
	<node id="-44109" lat="60.3802333371" lon="11.115436106">
		<tag k="name" v="Egervangen" />
		<tag k="place" v="locality" />
		<tag k="ssr:stedsnr" v="345925" />
	</node>
	<node id="-44108" lat="60.3840000025" lon="11.1111638888">
		<tag k="name" v="Sølvputtmyra" />
		<tag k="natural" v="wetland" />
		<tag k="ssr:stedsnr" v="345918" />
	</node>
	<node id="-44106" lat="60.3987111126" lon="10.9984583363">
		<tag k="name" v="Gamlevangsmyra" />
		<tag k="natural" v="wetland" />
		<tag k="ssr:stedsnr" v="345822" />
	</node>
	<node id="-44105" lat="60.3993333345" lon="11.0071194535">
		<tag k="name" v="Dvergbjørkmyra" />
		<tag k="natural" v="wetland" />
		<tag k="ssr:stedsnr" v="345816" />
	</node>
	<node id="-44616" lat="60.4428444403" lon="10.8400666612">
		<tag k="name" v="Syltemyrene" />
		<tag k="natural" v="wetland" />
		<tag k="ssr:stedsnr" v="423455" />
	</node>
	<node id="-45126" lat="60.3826638897" lon="11.0704527743">
		<tag k="name" v="Fallandet" />
		<tag k="place" v="locality" />
		<tag k="ssr:stedsnr" v="770929" />
	</node>
	<node id="-44611" lat="60.4623388887" lon="10.8960972239">
		<tag k="name" v="Garsjømyra" />
		<tag k="natural" v="wetland" />
		<tag k="ssr:stedsnr" v="422883" />
	</node>
	<node id="-44096" lat="60.4227583352" lon="10.8738833317">
		<tag k="name" v="Skimyra" />
		<tag k="natural" v="wetland" />
		<tag k="ssr:stedsnr" v="345227" />
	</node>
	<node id="-45118" lat="60.3886138886" lon="10.9469749946">
		<tag k="name" v="Dammyra" />
		<tag k="natural" v="wetland" />
		<tag k="ssr:stedsnr" v="770740" />
	</node>
	<node id="-45117" lat="60.3884861112" lon="10.9175694387">
		<tag k="name" v="Bjørkemyra" />
		<tag k="natural" v="wetland" />
		<tag k="ssr:stedsnr" v="770739" />
	</node>
	<node id="-44604" lat="60.4435305556" lon="10.9386805535">
		<tag k="name" v="Fjellsjømyra" />
		<tag k="natural" v="wetland" />
		<tag k="ssr:stedsnr" v="421624" />
	</node>
	<node id="-44599" lat="60.4198805568" lon="11.0788361195">
		<tag k="name" v="Åsand" />
		<tag k="natural" v="beach" />
		<tag k="ssr:stedsnr" v="262949" />
		<tag k="surface" v="sand" />
	</node>
	<node id="-44597" lat="60.479244445" lon="10.7458861178">
		<tag k="alt_name" v="Malsjømyrene" />
		<tag k="name" v="Malsjømyra" />
		<tag k="natural" v="wetland" />
		<tag k="ssr:stedsnr" v="249718" />
	</node>
	<node id="-44083" lat="60.3693861105" lon="11.0885083325">
		<tag k="name" v="Stormyra" />
		<tag k="natural" v="wetland" />
		<tag k="ssr:stedsnr" v="345508" />
	</node>
	<node id="-45106" lat="60.4195722265" lon="10.8525944478">
		<tag k="name" v="Fjellmyra" />
		<tag k="natural" v="wetland" />
		<tag k="ssr:stedsnr" v="770214" />
	</node>
	<node id="-45103" lat="60.4259055568" lon="10.8882527706">
		<tag k="name" v="Røysumholen" />
		<tag k="place" v="locality" />
		<tag k="ssr:stedsnr" v="770162" />
	</node>
	<node id="-45101" lat="60.4328249978" lon="10.9778749984">
		<tag k="name" v="Slåttmyra" />
		<tag k="natural" v="wetland" />
		<tag k="ssr:stedsnr" v="770147" />
	</node>
	<node id="-45100" lat="60.4204250021" lon="10.9843166584">
		<tag k="name" v="Nermarka" />
		<tag k="place" v="locality" />
		<tag k="ssr:stedsnr" v="770123" />
	</node>
	<node id="-45099" lat="60.4800555584" lon="10.9882666648">
		<tag k="name" v="Lismarka" />
		<tag k="place" v="locality" />
		<tag k="ssr:stedsnr" v="770064" />
	</node>
	<node id="-44074" lat="60.4826750037" lon="10.733352778">
		<tag k="name" v="Bukkemyra" />
		<tag k="natural" v="wetland" />
		<tag k="ssr:stedsnr" v="310727" />
	</node>
	<node id="-44295" lat="60.4743250011" lon="10.7662722158">
		<tag k="name" v="Bergeputtmyra" />
		<tag k="natural" v="wetland" />
		<tag k="ssr:stedsnr" v="55899" />
	</node>
	<node id="-45148" lat="60.3914972252" lon="11.0128277784">
		<tag k="name" v="Gunnersmyra" />
		<tag k="natural" v="wetland" />
		<tag k="ssr:stedsnr" v="787952" />
	</node>
	<node id="-45094" lat="60.5039000023" lon="11.0206694494">
		<tag k="name" v="Garsjømarkene" />
		<tag k="place" v="locality" />
		<tag k="ssr:stedsnr" v="770028" />
	</node>
	<node id="-44038" lat="60.440802781" lon="10.9999000061">
		<tag k="historic" v="shieling" />
		<tag k="name" v="Gammelvangen" />
		<tag k="place" v="locality" />
		<tag k="ssr:stedsnr" v="299668" />
	</node>
	<node id="-44577" lat="60.3977833298" lon="11.09525277">
		<tag k="name" v="Skjellmyra" />
		<tag k="natural" v="wetland" />
		<tag k="ssr:stedsnr" v="249003" />
	</node>
	<node id="-44063" lat="60.4329999971" lon="11.1227611164">
		<tag k="name" v="Knuvlebeitmyra" />
		<tag k="natural" v="wetland" />
		<tag k="ssr:stedsnr" v="310469" />
	</node>
	<node id="-44573" lat="60.382163888" lon="11.0365805607">
		<tag k="name" v="Nystumyra" />
		<tag k="place" v="locality" />
		<tag k="ssr:stedsnr" v="241559" />
	</node>
	<node id="-44572" lat="60.381438893" lon="11.0346861146">
		<tag k="name" v="Søstumyra" />
		<tag k="place" v="locality" />
		<tag k="ssr:stedsnr" v="241557" />
	</node>
	<node id="-44443" lat="60.3904583364" lon="10.9893500008">
		<tag k="name" v="Høgenhallmyrene" />
		<tag k="natural" v="wetland" />
		<tag k="ssr:stedsnr" v="163617" />
	</node>
	<node id="-45215" lat="60.4072083342" lon="11.0556694373">
		<tag k="name" v="Prestegårdsmyrene" />
		<tag k="natural" v="wetland" />
		<tag k="ssr:stedsnr" v="831860" />
	</node>
	<node id="-44559" lat="60.4594083301" lon="10.9302083407">
		<tag k="name" v="Kampemyra" />
		<tag k="natural" v="wetland" />
		<tag k="ssr:stedsnr" v="239854" />
	</node>
	<node id="-44553" lat="60.4168916651" lon="11.1050305629">
		<tag k="name" v="Kloppmyra" />
		<tag k="natural" v="wetland" />
		<tag k="ssr:stedsnr" v="237464" />
	</node>
	<node id="-44040" lat="60.4627138925" lon="10.943063891">
		<tag k="name" v="Gråsteinmyra" />
		<tag k="natural" v="wetland" />
		<tag k="ssr:stedsnr" v="300822" />
	</node>
	<node id="-44551" lat="60.3963805596" lon="11.0183750039">
		<tag k="name" v="Tretjennsmyra" />
		<tag k="natural" v="wetland" />
		<tag k="ssr:stedsnr" v="224867" />
	</node>
	<node id="-44550" lat="60.3898027808" lon="11.0873277861">
		<tag k="name" v="Sledemyra" />
		<tag k="natural" v="wetland" />
		<tag k="ssr:stedsnr" v="224828" />
	</node>
	<node id="-44033" lat="60.4696055591" lon="10.7496250085">
		<tag k="name" v="Svarttjennsmyra" />
		<tag k="natural" v="wetland" />
		<tag k="ssr:stedsnr" v="298877" />
	</node>
	<node id="-45059" lat="60.4636861101" lon="10.8752777738">
		<tag k="name" v="Haramyra" />
		<tag k="natural" v="wetland" />
		<tag k="ssr:stedsnr" v="725810" />
	</node>
	<node id="-44545" lat="60.3808972225" lon="10.9993083276">
		<tag k="name" v="Hvilesteinen" />
		<tag k="natural" v="stone" />
		<tag k="ssr:stedsnr" v="224726" />
	</node>
</osm>
