<?xml version="1.0" encoding="UTF-8"?>
<osm version="0.6" generator="osmapis">
	<node lat="68.77201110951349" lon="16.172941659957576" id="-95673">
		<tag k="alt_name" v="Kvæfjord" />
		<tag k="name" v="Kvæfjord kommune" />
		<tag k="ssr:date" v="2019-12-27" />
		<tag k="ssr:gruppe" v="administrativeIndelinger" />
		<tag k="ssr:hovedgruppe" v="offentligAdministrasjon" />
		<tag k="ssr:stedsnr" v="86927" />
		<tag k="ssr:type" v="kommune" />
	</node>
	<node lat="68.82447026838942" lon="15.960932414463496" id="-96136">
		<tag k="name" v="Gapøy" />
		<tag k="ssr:date" v="2021-01-05" />
		<tag k="ssr:gruppe" v="navigasjon" />
		<tag k="ssr:hovedgruppe" v="infrastruktur" />
		<tag k="ssr:stedsnr" v="685107" />
		<tag k="ssr:type" v="fyrlykt" />
	</node>
	<node lat="68.6746999984447" lon="15.99884166425176" id="-96940">
		<tag k="name" v="Lysåhella" />
		<tag k="ssr:date" v="2019-12-27" />
		<tag k="ssr:gruppe" v="navigasjon" />
		<tag k="ssr:hovedgruppe" v="infrastruktur" />
		<tag k="ssr:stedsnr" v="540896" />
		<tag k="ssr:type" v="lanterne" />
	</node>
	<node lat="68.64843055660613" lon="15.925294434769532" id="-97226">
		<tag k="name" v="Lyså" />
		<tag k="ssr:date" v="2019-12-27" />
		<tag k="ssr:gruppe" v="navigasjon" />
		<tag k="ssr:hovedgruppe" v="infrastruktur" />
		<tag k="ssr:stedsnr" v="782870" />
		<tag k="ssr:type" v="fyrlykt" />
	</node>
	<node lat="68.77041422236542" lon="16.182553852635312" id="-97424">
		<tag k="name" v="Heimenbakken" />
		<tag k="ssr:date" v="2019-12-27" />
		<tag k="ssr:gruppe" v="veg" />
		<tag k="ssr:hovedgruppe" v="infrastruktur" />
		<tag k="ssr:stedsnr" v="1009674" />
		<tag k="ssr:type" v="adressenavn" />
	</node>
	<node lat="68.77226940338184" lon="16.17700576324802" id="-97444">
		<tag k="name" v="Skolegata" />
		<tag k="ssr:date" v="2019-12-27" />
		<tag k="ssr:gruppe" v="veg" />
		<tag k="ssr:hovedgruppe" v="infrastruktur" />
		<tag k="ssr:stedsnr" v="1010378" />
		<tag k="ssr:type" v="adressenavn" />
	</node>
	<node lat="68.74045903485005" lon="16.287002767613917" id="-97505">
		<tag k="name" v="Voktorveien" />
		<tag k="old_name" v="Vei 20110" />
		<tag k="ssr:date" v="2020-11-26" />
		<tag k="ssr:gruppe" v="veg" />
		<tag k="ssr:hovedgruppe" v="infrastruktur" />
		<tag k="ssr:stedsnr" v="1021669" />
		<tag k="ssr:type" v="adressenavn" />
	</node>
	<node lat="68.76969459148228" lon="16.195126188731987" id="-97541">
		<tag k="name" v="Gåraveien" />
		<tag k="ssr:date" v="2019-12-27" />
		<tag k="ssr:gruppe" v="veg" />
		<tag k="ssr:hovedgruppe" v="infrastruktur" />
		<tag k="ssr:stedsnr" v="1073737" />
		<tag k="ssr:type" v="adressenavn" />
	</node>
	<node lat="68.51434268862805" lon="15.737653958647005" id="-97566">
		<tag k="name" v="Sørdalveien" />
		<tag k="ssr:date" v="2021-05-04" />
		<tag k="ssr:gruppe" v="veg" />
		<tag k="ssr:hovedgruppe" v="infrastruktur" />
		<tag k="ssr:stedsnr" v="1081144" />
		<tag k="ssr:type" v="adressenavn" />
	</node>
	<node lat="68.52882950428913" lon="15.819218379464324" id="-97567">
		<tag k="name" v="Kanstadveien" />
		<tag k="ssr:date" v="2021-05-04" />
		<tag k="ssr:gruppe" v="veg" />
		<tag k="ssr:hovedgruppe" v="infrastruktur" />
		<tag k="ssr:stedsnr" v="1081145" />
		<tag k="ssr:type" v="adressenavn" />
	</node>
</osm>
