<?xml version="1.0" encoding="UTF-8"?>
<osm generator="osmapis" version="0.6">
	<node id="-16926" lat="60.5908609473" lon="9.63819281559">
		<tag k="fixme" v="multiple name tags, choose one and add the other to alt_name" />
		<tag k="name" v="Austlandet;Østlandet" />
		<tag k="ssr:date" v="2018-01-09" />
		<tag k="ssr:gruppe" v="administrativeIndelinger" />
		<tag k="ssr:hovedgruppe" v="offentligAdministrasjon" />
		<tag k="ssr:stedsnr" v="974775" />
		<tag k="ssr:type" v="annenAdministrativInndeling" />
	</node>
	<node id="-16278" lat="59.6035362081" lon="11.2854113922">
		<tag k="name" v="Slituveien" />
		<tag k="ssr:date" v="2019-12-02" />
		<tag k="ssr:gruppe" v="veg" />
		<tag k="ssr:hovedgruppe" v="infrastruktur" />
		<tag k="ssr:stedsnr" v="1073610" />
		<tag k="ssr:type" v="adressenavn" />
	</node>
	<node id="-16885" lat="59.5514750022" lon="11.3358722173">
		<tag k="name" v="Eidsberg kommune" />
		<tag k="ssr:date" v="2016-05-11" />
		<tag k="ssr:gruppe" v="administrativeIndelinger" />
		<tag k="ssr:hovedgruppe" v="offentligAdministrasjon" />
		<tag k="ssr:stedsnr" v="873580" />
		<tag k="ssr:type" v="kommune" />
	</node>
	<node id="-16275" lat="59.5471811222" lon="11.448296909">
		<tag k="name" v="Dalveien" />
		<tag k="ssr:date" v="2019-05-31" />
		<tag k="ssr:gruppe" v="veg" />
		<tag k="ssr:hovedgruppe" v="infrastruktur" />
		<tag k="ssr:stedsnr" v="1068982" />
		<tag k="ssr:type" v="adressenavn" />
	</node>
	<node id="-16274" lat="59.5171172534" lon="11.3462359404">
		<tag k="name" v="Åsfaret" />
		<tag k="ssr:date" v="2019-05-31" />
		<tag k="ssr:gruppe" v="veg" />
		<tag k="ssr:hovedgruppe" v="infrastruktur" />
		<tag k="ssr:stedsnr" v="1064526" />
		<tag k="ssr:type" v="adressenavn" />
	</node>
	<node id="-16273" lat="59.5634193329" lon="11.3300472152">
		<tag k="name" v="Høylundsvingen" />
		<tag k="ssr:date" v="2019-05-31" />
		<tag k="ssr:gruppe" v="veg" />
		<tag k="ssr:hovedgruppe" v="infrastruktur" />
		<tag k="ssr:stedsnr" v="1064256" />
		<tag k="ssr:type" v="adressenavn" />
	</node>
	<node id="-16270" lat="59.5915234445" lon="11.2672366775">
		<tag k="name" v="Skogholtveien" />
		<tag k="ssr:date" v="2019-05-31" />
		<tag k="ssr:gruppe" v="veg" />
		<tag k="ssr:hovedgruppe" v="infrastruktur" />
		<tag k="ssr:stedsnr" v="1063878" />
		<tag k="ssr:type" v="adressenavn" />
	</node>
	<node id="-16269" lat="59.5854675201" lon="11.2774006885">
		<tag k="name" v="Henningsmoenkroken" />
		<tag k="ssr:date" v="2019-12-11" />
		<tag k="ssr:gruppe" v="veg" />
		<tag k="ssr:hovedgruppe" v="infrastruktur" />
		<tag k="ssr:stedsnr" v="1063615" />
		<tag k="ssr:type" v="adressenavn" />
	</node>
	<node id="-16268" lat="59.5190959061" lon="11.5182974847">
		<tag k="name" v="Kulevannaveien" />
		<tag k="ssr:date" v="2019-05-31" />
		<tag k="ssr:gruppe" v="veg" />
		<tag k="ssr:hovedgruppe" v="infrastruktur" />
		<tag k="ssr:stedsnr" v="1063578" />
		<tag k="ssr:type" v="adressenavn" />
	</node>
	<node id="-16267" lat="59.5468233181" lon="11.4793184741">
		<tag k="name" v="Lundebystien" />
		<tag k="ssr:date" v="2019-05-31" />
		<tag k="ssr:gruppe" v="veg" />
		<tag k="ssr:hovedgruppe" v="infrastruktur" />
		<tag k="ssr:stedsnr" v="1064032" />
		<tag k="ssr:type" v="adressenavn" />
	</node>
	<node id="-16266" lat="59.5817739964" lon="11.3319846939">
		<tag k="name" v="Gjeterudveien" />
		<tag k="ssr:date" v="2019-12-11" />
		<tag k="ssr:gruppe" v="veg" />
		<tag k="ssr:hovedgruppe" v="infrastruktur" />
		<tag k="ssr:stedsnr" v="1063319" />
		<tag k="ssr:type" v="adressenavn" />
	</node>
	<node id="-16262" lat="59.575726873" lon="11.2883256185">
		<tag k="name" v="Brennemostien" />
		<tag k="ssr:date" v="2019-12-11" />
		<tag k="ssr:gruppe" v="veg" />
		<tag k="ssr:hovedgruppe" v="infrastruktur" />
		<tag k="ssr:stedsnr" v="1060666" />
		<tag k="ssr:type" v="adressenavn" />
	</node>
	<node id="-16261" lat="59.5498324045" lon="11.4718452393">
		<tag k="name" v="Bergestien" />
		<tag k="ssr:date" v="2019-05-31" />
		<tag k="ssr:gruppe" v="veg" />
		<tag k="ssr:hovedgruppe" v="infrastruktur" />
		<tag k="ssr:stedsnr" v="1060512" />
		<tag k="ssr:type" v="adressenavn" />
	</node>
</osm>
