<?xml version="1.0" encoding="UTF-8"?>
<osm version="0.6" generator="osmapis">
	<node id="373395833" lat="58.6645543" lon="6.7160736" version="8" timestamp="2021-10-29T06:11:26Z" changeset="113107708" uid="3497659" user="NKA">
		<tag k="name" v="Tonstad" />
		<tag k="place" v="village" />
		<tag k="population" v="846" />
		<tag k="population:date" v="2021-01-01" />
		<tag k="ref:ssb_tettsted" v="4111" />
		<tag k="source:population" v="SSB - befolkning i tettstedet" />
		<tag k="ssr:stedsnr" v="593" />
		<tag k="ssr:type" v="tettsted" />
	</node>
	<node id="522989788" lat="59.0225205" lon="6.9246356" version="2" timestamp="2018-05-08T19:48:55Z" changeset="58798758" uid="3842253" user="NKA_import">
		<tag k="name" v="Ådneram" />
		<tag k="place" v="village" />
		<tag k="ssr:stedsnr" v="851757" />
		<tag k="ssr:type" v="gard" />
	</node>
	<node id="522989790" lat="59.0167427" lon="6.9533763" version="2" timestamp="2018-05-08T19:48:56Z" changeset="58798758" uid="3842253" user="NKA_import">
		<tag k="alt_name" v="Sulskard;Suleskar" />
		<tag k="name" v="Suleskard" />
		<tag k="place" v="hamlet" />
		<tag k="ssr:stedsnr" v="669752" />
		<tag k="ssr:type" v="gard" />
	</node>
	<node id="663031447" lat="58.9444874" lon="6.9175219" version="2" timestamp="2018-05-08T19:48:56Z" changeset="58798758" uid="3842253" user="NKA_import">
		<tag k="name" v="Kvæven" />
		<tag k="place" v="hamlet" />
		<tag k="ssr:stedsnr" v="546949" />
		<tag k="ssr:type" v="gard" />
	</node>
	<node id="696841577" lat="58.6510042" lon="6.5631562" version="2" timestamp="2018-05-08T19:48:56Z" changeset="58798758" uid="3842253" user="NKA_import">
		<tag k="name" v="Bjørnestad" />
		<tag k="place" v="hamlet" />
		<tag k="ssr:stedsnr" v="61802" />
		<tag k="ssr:type" v="gard" />
	</node>
	<node id="1172135224" lat="58.8261443" lon="6.7883378" version="2" timestamp="2018-05-08T19:48:56Z" changeset="58798758" uid="3842253" user="NKA_import">
		<tag k="alt_name" v="Runtleneset" />
		<tag k="name" v="Neset" />
		<tag k="place" v="farm" />
		<tag k="ssr:stedsnr" v="894745" />
		<tag k="ssr:type" v="bruk" />
	</node>
	<node id="3331385219" lat="58.6362853" lon="6.5136634" version="2" timestamp="2018-05-08T19:48:57Z" changeset="58798758" uid="3842253" user="NKA_import">
		<tag k="name" v="Mydland" />
		<tag k="place" v="hamlet" />
		<tag k="ssr:stedsnr" v="364848" />
		<tag k="ssr:type" v="gard" />
	</node>
	<node id="3779847357" lat="59.0391806" lon="6.8490694" version="2" timestamp="2018-05-08T19:48:57Z" changeset="58798758" uid="3842253" user="NKA_import">
		<tag k="alt_name" v="Grytdalslega" />
		<tag k="name" v="Grydalslegå" />
		<tag k="place" v="locality" />
		<tag k="source" v="N50 map" />
		<tag k="ssr:stedsnr" v="244824" />
		<tag k="ssr:type" v="byggForJordbrukFiskeOgFangst" />
	</node>
	<node id="3780208563" lat="58.8216917" lon="6.7176145" version="2" timestamp="2018-05-08T19:48:57Z" changeset="58798758" uid="3842253" user="NKA_import">
		<tag k="alt_name" v="Skreå" />
		<tag k="name" v="Skredå" />
		<tag k="place" v="hamlet" />
		<tag k="source" v="N50 map" />
		<tag k="ssr:stedsnr" v="911114" />
		<tag k="ssr:type" v="gard" />
	</node>
	<node id="4223563901" lat="58.5136387" lon="6.7606352" version="2" timestamp="2018-05-08T19:48:57Z" changeset="58798758" uid="3842253" user="NKA_import">
		<tag k="name" v="Espetveit" />
		<tag k="place" v="hamlet" />
		<tag k="ssr:stedsnr" v="243346" />
		<tag k="ssr:type" v="gard" />
	</node>
	<node id="4223563902" lat="58.5120311" lon="6.7608798" version="2" timestamp="2018-05-08T19:48:57Z" changeset="58798758" uid="3842253" user="NKA_import">
		<tag k="name" v="Hauan" />
		<tag k="place" v="farm" />
		<tag k="ssr:stedsnr" v="952092" />
		<tag k="ssr:type" v="bruk" />
	</node>
	<node id="4223563903" lat="58.6223077" lon="6.7603007" version="2" timestamp="2018-05-08T19:48:57Z" changeset="58798758" uid="3842253" user="NKA_import">
		<tag k="alt_name" v="Gjødestøl" />
		<tag k="historic" v="shieling" />
		<tag k="name" v="Jødestøl" />
		<tag k="place" v="farm" />
		<tag k="ssr:stedsnr" v="687" />
		<tag k="ssr:type" v="gard" />
	</node>
	<node id="4223563904" lat="58.6089833" lon="6.76145" version="2" timestamp="2018-05-08T19:48:57Z" changeset="58798758" uid="3842253" user="NKA_import">
		<tag k="historic" v="shieling" />
		<tag k="name" v="Listøl" />
		<tag k="place" v="farm" />
		<tag k="ssr:stedsnr" v="546633" />
		<tag k="ssr:type" v="gard" />
	</node>
	<node id="4223563905" lat="58.5148889" lon="6.758175" version="2" timestamp="2018-05-08T19:48:57Z" changeset="58798758" uid="3842253" user="NKA_import">
		<tag k="name" v="Monen" />
		<tag k="place" v="farm" />
		<tag k="ssr:stedsnr" v="224091" />
		<tag k="ssr:type" v="bruk" />
	</node>
	<node id="4223563906" lat="58.5093389" lon="6.765" version="2" timestamp="2018-05-08T19:48:57Z" changeset="58798758" uid="3842253" user="NKA_import">
		<tag k="name" v="Nygård" />
		<tag k="place" v="farm" />
		<tag k="ssr:stedsnr" v="42081" />
		<tag k="ssr:type" v="bruk" />
	</node>
	<node id="4223563907" lat="58.5450423" lon="6.7336666" version="2" timestamp="2018-05-08T19:48:58Z" changeset="58798758" uid="3842253" user="NKA_import">
		<tag k="name" v="Oftedal" />
		<tag k="place" v="hamlet" />
		<tag k="ssr:stedsnr" v="485668" />
		<tag k="ssr:type" v="gard" />
	</node>
	<node id="4223563908" lat="58.6415645" lon="6.7662191" version="2" timestamp="2018-05-08T19:48:58Z" changeset="58798758" uid="3842253" user="NKA_import">
		<tag k="alt_name" v="Åvedal" />
		<tag k="name" v="Ovedal" />
		<tag k="place" v="hamlet" />
		<tag k="ssr:stedsnr" v="182639" />
		<tag k="ssr:type" v="bruk" />
	</node>
	<node id="4223563909" lat="58.5580548" lon="6.7285138" version="2" timestamp="2018-05-08T19:48:58Z" changeset="58798758" uid="3842253" user="NKA_import">
		<tag k="name" v="Skibeli" />
		<tag k="place" v="farm" />
		<tag k="ssr:stedsnr" v="910733" />
		<tag k="ssr:type" v="gard" />
	</node>
	<node id="4223563910" lat="58.52255" lon="6.7130972" version="2" timestamp="2018-05-08T19:48:58Z" changeset="58798758" uid="3842253" user="NKA_import">
		<tag k="name" v="Sporkland" />
		<tag k="place" v="farm" />
		<tag k="ssr:stedsnr" v="850361" />
		<tag k="ssr:type" v="gard" />
	</node>
	<node id="4223566231" lat="58.5984822" lon="6.7306334" version="2" timestamp="2018-05-08T19:48:58Z" changeset="58798758" uid="3842253" user="NKA_import">
		<tag k="alt_name" v="Yksnedal" />
		<tag k="name" v="Øksendal" />
		<tag k="place" v="hamlet" />
		<tag k="ssr:stedsnr" v="485621" />
		<tag k="ssr:type" v="gard" />
	</node>
	<node id="4582618008" lat="58.6671497" lon="6.656397" version="2" timestamp="2018-05-08T19:48:58Z" changeset="58798758" uid="3842253" user="NKA_import">
		<tag k="alt_name" v="Feed" />
		<tag k="name" v="Fed" />
		<tag k="place" v="farm" />
		<tag k="ssr:stedsnr" v="606581" />
		<tag k="ssr:type" v="gard" />
	</node>
	<node id="5168552008" lat="58.5860848" lon="6.7243529" version="2" timestamp="2018-05-08T19:48:58Z" changeset="58798758" uid="3842253" user="NKA_import">
		<tag k="alt_name" v="Haugom" />
		<tag k="name" v="Haughom" />
		<tag k="place" v="hamlet" />
		<tag k="ssr:stedsnr" v="182705" />
		<tag k="ssr:type" v="bygdelagBygd" />
	</node>
	<node id="5168785093" lat="58.7111836" lon="6.8346164" version="2" timestamp="2018-05-08T19:48:59Z" changeset="58798758" uid="3842253" user="NKA_import">
		<tag k="alt_name" v="Ramnestølen" />
		<tag k="historic" v="shieling" />
		<tag k="name" v="Ravnestøl" />
		<tag k="place" v="isolated_dwelling" />
		<tag k="ssr:stedsnr" v="667511" />
		<tag k="ssr:type" v="fritidsbolig" />
	</node>
	<node id="5168785096" lat="58.6676778" lon="6.8351306" version="2" timestamp="2018-05-08T19:48:59Z" changeset="58798758" uid="3842253" user="NKA_import">
		<tag k="historic" v="shieling" />
		<tag k="name" v="Kyrrestøl" />
		<tag k="place" v="locality" />
		<tag k="ssr:stedsnr" v="833427" />
		<tag k="ssr:type" v="gammelBosettingsplass" />
	</node>
	<node id="5485887310" lat="58.9155493" lon="6.8663524" version="2" timestamp="2018-05-08T19:48:59Z" changeset="58798758" uid="3842253" user="NKA_import">
		<tag k="name" v="Sinnes" />
		<tag k="place" v="village" />
		<tag k="ssr:stedsnr" v="547985" />
		<tag k="ssr:type" v="bygdelagBygd" />
		<tag k="wikidata" v="Q11214578" />
		<tag k="wikipedia" v="no:Sinnes" />
	</node>
	<node id="5485890510" lat="58.8091805" lon="6.7643562" version="2" timestamp="2018-05-08T19:48:59Z" changeset="58798758" uid="3842253" user="NKA_import">
		<tag k="name" v="Lunde" />
		<tag k="place" v="hamlet" />
		<tag k="ssr:stedsnr" v="243053" />
		<tag k="ssr:type" v="gard" />
	</node>
	<node id="5485892310" lat="58.8882587" lon="6.8519346" version="2" timestamp="2018-05-08T19:48:59Z" changeset="58798758" uid="3842253" user="NKA_import">
		<tag k="name" v="Tjørhom" />
		<tag k="place" v="village" />
		<tag k="ssr:stedsnr" v="911885" />
		<tag k="ssr:type" v="bygdelagBygd" />
	</node>
	<node id="5605177849" lat="58.7506056" lon="6.6893944" version="1" timestamp="2018-05-08T19:48:29Z" changeset="58798758" uid="3842253" user="NKA_import">
		<tag k="alt_name" v="Blikstøl" />
		<tag k="historic" v="shieling" />
		<tag k="name" v="Blikkstjønnstøl" />
		<tag k="place" v="isolated_dwelling" />
		<tag k="ssr:stedsnr" v="486009" />
		<tag k="ssr:type" v="fritidsbolig" />
	</node>
	<node id="5605177850" lat="59.0216" lon="6.8868" version="1" timestamp="2018-05-08T19:48:29Z" changeset="58798758" uid="3842253" user="NKA_import">
		<tag k="historic" v="shieling" />
		<tag k="name" v="Ånestøl" />
		<tag k="place" v="locality" />
		<tag k="ssr:stedsnr" v="790777" />
		<tag k="ssr:type" v="seterStøl" />
	</node>
	<node id="5605177851" lat="58.7764722" lon="6.8216806" version="1" timestamp="2018-05-08T19:48:29Z" changeset="58798758" uid="3842253" user="NKA_import">
		<tag k="alt_name" v="Salbakkstøl" />
		<tag k="historic" v="shieling" />
		<tag k="name" v="Stigeheistøl" />
		<tag k="place" v="locality" />
		<tag k="ssr:stedsnr" v="61043" />
		<tag k="ssr:type" v="byggForJordbrukFiskeOgFangst" />
	</node>
	<node id="5605177852" lat="59.0491083" lon="6.9575472" version="1" timestamp="2018-05-08T19:48:29Z" changeset="58798758" uid="3842253" user="NKA_import">
		<tag k="historic" v="shieling" />
		<tag k="name" v="Flatstøl" />
		<tag k="place" v="locality" />
		<tag k="ssr:stedsnr" v="790804" />
		<tag k="ssr:type" v="seterStøl" />
	</node>
	<node id="5605177853" lat="58.6215583" lon="6.7374139" version="1" timestamp="2018-05-08T19:48:29Z" changeset="58798758" uid="3842253" user="NKA_import">
		<tag k="historic" v="shieling" />
		<tag k="name" v="Ånskollstølen" />
		<tag k="place" v="locality" />
		<tag k="ssr:stedsnr" v="286051" />
		<tag k="ssr:type" v="gammelBosettingsplass" />
	</node>
	<node id="5605177854" lat="59.0370806" lon="6.9725861" version="1" timestamp="2018-05-08T19:48:29Z" changeset="58798758" uid="3842253" user="NKA_import">
		<tag k="historic" v="shieling" />
		<tag k="name" v="Jonstøl" />
		<tag k="place" v="locality" />
		<tag k="ssr:stedsnr" v="711665" />
		<tag k="ssr:type" v="gammelBosettingsplass" />
	</node>
	<node id="5605177855" lat="58.6025472" lon="6.7964056" version="1" timestamp="2018-05-08T19:48:29Z" changeset="58798758" uid="3842253" user="NKA_import">
		<tag k="historic" v="shieling" />
		<tag k="name" v="Marestøl" />
		<tag k="place" v="locality" />
		<tag k="ssr:stedsnr" v="649014" />
		<tag k="ssr:type" v="byggForJordbrukFiskeOgFangst" />
	</node>
	<node id="5605177856" lat="58.8035028" lon="6.9346306" version="1" timestamp="2018-05-08T19:48:29Z" changeset="58798758" uid="3842253" user="NKA_import">
		<tag k="alt_name" v="Guddelstøl" />
		<tag k="historic" v="shieling" />
		<tag k="name" v="Guddilstøl" />
		<tag k="old_name" v="Guddalstøl" />
		<tag k="place" v="isolated_dwelling" />
		<tag k="ssr:stedsnr" v="61070" />
		<tag k="ssr:type" v="fritidsbolig" />
	</node>
	<node id="5605177857" lat="58.843875" lon="6.7584778" version="1" timestamp="2018-05-08T19:48:29Z" changeset="58798758" uid="3842253" user="NKA_import">
		<tag k="name" v="Tveiten" />
		<tag k="place" v="farm" />
		<tag k="ssr:stedsnr" v="183918" />
		<tag k="ssr:type" v="gard" />
	</node>
	<node id="5605177858" lat="58.9044222" lon="7.048625" version="1" timestamp="2018-05-08T19:48:29Z" changeset="58798758" uid="3842253" user="NKA_import">
		<tag k="historic" v="shieling" />
		<tag k="name" v="Ånghedlerstølen" />
		<tag k="place" v="locality" />
		<tag k="ssr:stedsnr" v="833774" />
		<tag k="ssr:type" v="gammelBosettingsplass" />
	</node>
	<node id="5605177859" lat="58.6652417" lon="6.648575" version="1" timestamp="2018-05-08T19:48:30Z" changeset="58798758" uid="3842253" user="NKA_import">
		<tag k="name" v="Espetveit" />
		<tag k="place" v="hamlet" />
		<tag k="ssr:stedsnr" v="667581" />
		<tag k="ssr:type" v="gard" />
	</node>
	<node id="5605177860" lat="58.8862861" lon="7.0952444" version="1" timestamp="2018-05-08T19:48:30Z" changeset="58798758" uid="3842253" user="NKA_import">
		<tag k="alt_name" v="Kviheller" />
		<tag k="name" v="Kvihedler" />
		<tag k="place" v="locality" />
		<tag k="ssr:stedsnr" v="364175" />
		<tag k="ssr:type" v="byggForJordbrukFiskeOgFangst" />
	</node>
	<node id="5605177861" lat="58.5912694" lon="6.6075472" version="1" timestamp="2018-05-08T19:48:30Z" changeset="58798758" uid="3842253" user="NKA_import">
		<tag k="historic" v="shieling" />
		<tag k="name" v="Gamlestølen" />
		<tag k="place" v="locality" />
		<tag k="ssr:stedsnr" v="953288" />
		<tag k="ssr:type" v="gammelBosettingsplass" />
	</node>
	<node id="5605177862" lat="58.7555361" lon="6.8380139" version="1" timestamp="2018-05-08T19:48:30Z" changeset="58798758" uid="3842253" user="NKA_import">
		<tag k="historic" v="shieling" />
		<tag k="name" v="Rosstølsstølan" />
		<tag k="place" v="locality" />
		<tag k="ssr:stedsnr" v="711686" />
		<tag k="ssr:type" v="gammelBosettingsplass" />
	</node>
	<node id="5605177863" lat="58.9216722" lon="6.75905" version="1" timestamp="2018-05-08T19:48:30Z" changeset="58798758" uid="3842253" user="NKA_import">
		<tag k="historic" v="shieling" />
		<tag k="name" v="Valevatnstølen" />
		<tag k="place" v="locality" />
		<tag k="ssr:stedsnr" v="105083" />
		<tag k="ssr:type" v="gammelBosettingsplass" />
	</node>
	<node id="5605177864" lat="58.6607806" lon="6.624875" version="1" timestamp="2018-05-08T19:48:30Z" changeset="58798758" uid="3842253" user="NKA_import">
		<tag k="alt_name" v="Høyland" />
		<tag k="name" v="Høyvoll" />
		<tag k="place" v="farm" />
		<tag k="ssr:stedsnr" v="667582" />
		<tag k="ssr:type" v="bruk" />
	</node>
	<node id="5605177865" lat="58.9706278" lon="7.0449417" version="1" timestamp="2018-05-08T19:48:30Z" changeset="58798758" uid="3842253" user="NKA_import">
		<tag k="name" v="Steinbu" />
		<tag k="place" v="locality" />
		<tag k="ssr:stedsnr" v="486224" />
		<tag k="ssr:type" v="byggForJordbrukFiskeOgFangst" />
	</node>
	<node id="5605177866" lat="58.7658833" lon="6.6505639" version="1" timestamp="2018-05-08T19:48:30Z" changeset="58798758" uid="3842253" user="NKA_import">
		<tag k="historic" v="shieling" />
		<tag k="name" v="Torstøl" />
		<tag k="place" v="locality" />
		<tag k="ssr:stedsnr" v="468155" />
		<tag k="ssr:type" v="gammelBosettingsplass" />
	</node>
	<node id="5605177867" lat="58.6363083" lon="6.8233944" version="1" timestamp="2018-05-08T19:48:30Z" changeset="58798758" uid="3842253" user="NKA_import">
		<tag k="alt_name" v="Åvedalstølen" />
		<tag k="historic" v="shieling" />
		<tag k="name" v="Ovedalstølen" />
		<tag k="place" v="isolated_dwelling" />
		<tag k="ssr:stedsnr" v="667589" />
		<tag k="ssr:type" v="fritidsbolig" />
	</node>
	<node id="5605177868" lat="58.8179389" lon="6.8251611" version="1" timestamp="2018-05-08T19:48:30Z" changeset="58798758" uid="3842253" user="NKA_import">
		<tag k="historic" v="shieling" />
		<tag k="name" v="Instestøl" />
		<tag k="place" v="locality" />
		<tag k="ssr:stedsnr" v="61095" />
		<tag k="ssr:type" v="seterStøl" />
	</node>
	<node id="5605177869" lat="58.7676861" lon="6.6472417" version="1" timestamp="2018-05-08T19:48:30Z" changeset="58798758" uid="3842253" user="NKA_import">
		<tag k="historic" v="shieling" />
		<tag k="name" v="Venelistøl" />
		<tag k="place" v="locality" />
		<tag k="ssr:stedsnr" v="468158" />
		<tag k="ssr:type" v="gammelBosettingsplass" />
	</node>
	<node id="5605177870" lat="58.7541639" lon="6.6315667" version="1" timestamp="2018-05-08T19:48:31Z" changeset="58798758" uid="3842253" user="NKA_import">
		<tag k="historic" v="shieling" />
		<tag k="name" v="Nordstøl" />
		<tag k="place" v="locality" />
		<tag k="ssr:stedsnr" v="286171" />
		<tag k="ssr:type" v="gammelBosettingsplass" />
	</node>
	<node id="5605177871" lat="58.5655444" lon="6.7721167" version="1" timestamp="2018-05-08T19:48:31Z" changeset="58798758" uid="3842253" user="NKA_import">
		<tag k="alt_name" v="Skibelistølen" />
		<tag k="historic" v="shieling" />
		<tag k="name" v="Skribelistøl" />
		<tag k="place" v="isolated_dwelling" />
		<tag k="ssr:stedsnr" v="667644" />
		<tag k="ssr:type" v="fritidsbolig" />
	</node>
	<node id="5605177872" lat="58.7426669" lon="6.7982461" version="1" timestamp="2018-05-08T19:48:31Z" changeset="58798758" uid="3842253" user="NKA_import">
		<tag k="historic" v="shieling" />
		<tag k="name" v="Rosstøl" />
		<tag k="place" v="farm" />
		<tag k="ssr:stedsnr" v="486511" />
		<tag k="ssr:type" v="gard" />
	</node>
	<node id="5605177873" lat="58.789925" lon="6.8208528" version="1" timestamp="2018-05-08T19:48:31Z" changeset="58798758" uid="3842253" user="NKA_import">
		<tag k="historic" v="shieling" />
		<tag k="name" v="Bakkestøl" />
		<tag k="place" v="locality" />
		<tag k="ssr:stedsnr" v="468186" />
		<tag k="ssr:type" v="gammelBosettingsplass" />
	</node>
	<node id="5605177874" lat="58.5533667" lon="6.8072694" version="1" timestamp="2018-05-08T19:48:31Z" changeset="58798758" uid="3842253" user="NKA_import">
		<tag k="historic" v="shieling" />
		<tag k="name" v="Mikkjelstølen" />
		<tag k="place" v="locality" />
		<tag k="ssr:stedsnr" v="667688" />
		<tag k="ssr:type" v="eiendom" />
	</node>
	<node id="5605177875" lat="58.65045" lon="6.5600444" version="1" timestamp="2018-05-08T19:48:31Z" changeset="58798758" uid="3842253" user="NKA_import">
		<tag k="name" v="Haugen" />
		<tag k="place" v="farm" />
		<tag k="ssr:stedsnr" v="286199" />
		<tag k="ssr:type" v="bruk" />
	</node>
	<node id="5605177876" lat="58.6330139" lon="6.6464944" version="1" timestamp="2018-05-08T19:48:31Z" changeset="58798758" uid="3842253" user="NKA_import">
		<tag k="alt_name" v="Ystestølen" />
		<tag k="historic" v="shieling" />
		<tag k="name" v="Ydstestøl" />
		<tag k="place" v="locality" />
		<tag k="ssr:stedsnr" v="364644" />
		<tag k="ssr:type" v="eiendom" />
	</node>
	<node id="5605177877" lat="59.0319917" lon="7.0489" version="1" timestamp="2018-05-08T19:48:31Z" changeset="58798758" uid="3842253" user="NKA_import">
		<tag k="name" v="Flogvasskvæven" />
		<tag k="place" v="locality" />
		<tag k="ssr:stedsnr" v="790913" />
		<tag k="ssr:type" v="byggForJordbrukFiskeOgFangst" />
	</node>
	<node id="5605177878" lat="58.5742778" lon="6.7914417" version="1" timestamp="2018-05-08T19:48:31Z" changeset="58798758" uid="3842253" user="NKA_import">
		<tag k="alt_name" v="Homstølen" />
		<tag k="historic" v="shieling" />
		<tag k="name" v="Homstøl" />
		<tag k="place" v="isolated_dwelling" />
		<tag k="ssr:stedsnr" v="243702" />
		<tag k="ssr:type" v="fritidsbolig" />
	</node>
	<node id="5605177879" lat="58.7219222" lon="6.8884028" version="1" timestamp="2018-05-08T19:48:31Z" changeset="58798758" uid="3842253" user="NKA_import">
		<tag k="alt_name" v="Hesthommen" />
		<tag k="name" v="Hestehommen" />
		<tag k="place" v="locality" />
		<tag k="ssr:stedsnr" v="486548" />
		<tag k="ssr:type" v="eiendom" />
	</node>
	<node id="5605177880" lat="58.7946389" lon="6.8622278" version="1" timestamp="2018-05-08T19:48:31Z" changeset="58798758" uid="3842253" user="NKA_import">
		<tag k="historic" v="shieling" />
		<tag k="name" v="Nyestøl" />
		<tag k="place" v="locality" />
		<tag k="ssr:stedsnr" v="771654" />
		<tag k="ssr:type" v="gammelBosettingsplass" />
	</node>
	<node id="5605177881" lat="58.8494222" lon="6.8589278" version="1" timestamp="2018-05-08T19:48:32Z" changeset="58798758" uid="3842253" user="NKA_import">
		<tag k="historic" v="shieling" />
		<tag k="name" v="Kallebekkstøl" />
		<tag k="place" v="locality" />
		<tag k="ssr:stedsnr" v="833824" />
		<tag k="ssr:type" v="byggForJordbrukFiskeOgFangst" />
	</node>
	<node id="5605177882" lat="58.6374167" lon="6.6377861" version="1" timestamp="2018-05-08T19:48:32Z" changeset="58798758" uid="3842253" user="NKA_import">
		<tag k="alt_name" v="Finsnesheii" />
		<tag k="name" v="Finsnesheia" />
		<tag k="place" v="isolated_dwelling" />
		<tag k="ssr:stedsnr" v="364655" />
		<tag k="ssr:type" v="fritidsbolig" />
	</node>
	<node id="5605177883" lat="59.0256083" lon="7.0811259" version="1" timestamp="2018-05-08T19:48:32Z" changeset="58798758" uid="3842253" user="NKA_import">
		<tag k="historic" v="shieling" />
		<tag k="name" v="Heiestøl" />
		<tag k="place" v="locality" />
		<tag k="ssr:stedsnr" v="790965" />
		<tag k="ssr:type" v="seterStøl" />
	</node>
	<node id="5605177884" lat="58.6690981" lon="6.7091813" version="1" timestamp="2018-05-08T19:48:32Z" changeset="58798758" uid="3842253" user="NKA_import">
		<tag k="name" v="Fintland" />
		<tag k="place" v="farm" />
		<tag k="ssr:stedsnr" v="242556" />
		<tag k="ssr:type" v="gard" />
	</node>
	<node id="5605177885" lat="58.7837111" lon="6.7508" version="1" timestamp="2018-05-08T19:48:32Z" changeset="58798758" uid="3842253" user="NKA_import">
		<tag k="name" v="Slettene" />
		<tag k="place" v="locality" />
		<tag k="ssr:stedsnr" v="243029" />
		<tag k="ssr:type" v="byggForJordbrukFiskeOgFangst" />
	</node>
	<node id="5605177886" lat="58.6701" lon="6.6486722" version="1" timestamp="2018-05-08T19:48:32Z" changeset="58798758" uid="3842253" user="NKA_import">
		<tag k="name" v="Storeli" />
		<tag k="place" v="farm" />
		<tag k="ssr:stedsnr" v="468221" />
		<tag k="ssr:type" v="bruk" />
	</node>
	<node id="5605177887" lat="58.9979306" lon="6.9269694" version="1" timestamp="2018-05-08T19:48:32Z" changeset="58798758" uid="3842253" user="NKA_import">
		<tag k="alt_name" v="Neset" />
		<tag k="name" v="Via Neset" />
		<tag k="place" v="isolated_dwelling" />
		<tag k="ssr:stedsnr" v="486764" />
		<tag k="ssr:type" v="fritidsbolig" />
	</node>
	<node id="5605177888" lat="58.9219667" lon="6.9016" version="1" timestamp="2018-05-08T19:48:32Z" changeset="58798758" uid="3842253" user="NKA_import">
		<tag k="name" v="Nygård" />
		<tag k="place" v="farm" />
		<tag k="ssr:stedsnr" v="893677" />
		<tag k="ssr:type" v="bruk" />
	</node>
	<node id="5605177889" lat="58.9060167" lon="6.7092611" version="1" timestamp="2018-05-08T19:48:32Z" changeset="58798758" uid="3842253" user="NKA_import">
		<tag k="historic" v="shieling" />
		<tag k="name" v="Midtstøl" />
		<tag k="place" v="locality" />
		<tag k="ssr:stedsnr" v="827070" />
		<tag k="ssr:type" v="gammelBosettingsplass" />
	</node>
	<node id="5605177890" lat="58.8097306" lon="6.7442333" version="1" timestamp="2018-05-08T19:48:32Z" changeset="58798758" uid="3842253" user="NKA_import">
		<tag k="historic" v="shieling" />
		<tag k="name" v="Listøl" />
		<tag k="place" v="isolated_dwelling" />
		<tag k="ssr:stedsnr" v="668067" />
		<tag k="ssr:type" v="fritidsbolig" />
	</node>
	<node id="5605177891" lat="58.65285" lon="6.5705528" version="1" timestamp="2018-05-08T19:48:32Z" changeset="58798758" uid="3842253" user="NKA_import">
		<tag k="name" v="Plasset" />
		<tag k="place" v="farm" />
		<tag k="ssr:stedsnr" v="165177" />
		<tag k="ssr:type" v="bruk" />
	</node>
	<node id="5605177892" lat="58.8457111" lon="6.9495417" version="1" timestamp="2018-05-08T19:48:33Z" changeset="58798758" uid="3842253" user="NKA_import">
		<tag k="alt_name" v="Ausdalslega" />
		<tag k="name" v="Heimre Ousdalslega" />
		<tag k="old_name" v="Ausdalslæga" />
		<tag k="place" v="locality" />
		<tag k="ssr:stedsnr" v="668085" />
		<tag k="ssr:type" v="byggForJordbrukFiskeOgFangst" />
	</node>
	<node id="5605177893" lat="58.8422414" lon="6.7761512" version="2" timestamp="2020-08-08T22:46:37Z" changeset="89140414" uid="29680" user="Romwriter">
		<tag k="alt_name" v="Omlid" />
		<tag k="name" v="Åmli" />
		<tag k="place" v="hamlet" />
		<tag k="ssr:stedsnr" v="364930" />
		<tag k="ssr:type" v="bygdelagBygd" />
	</node>
	<node id="5605177894" lat="58.8337084" lon="6.7425106" version="1" timestamp="2018-05-08T19:48:33Z" changeset="58798758" uid="3842253" user="NKA_import">
		<tag k="alt_name" v="Øygarden;Ødegården" />
		<tag k="name" v="Ødegård" />
		<tag k="place" v="farm" />
		<tag k="ssr:stedsnr" v="668088" />
		<tag k="ssr:type" v="gard" />
	</node>
	<node id="5605177895" lat="58.85805" lon="6.6711361" version="1" timestamp="2018-05-08T19:48:33Z" changeset="58798758" uid="3842253" user="NKA_import">
		<tag k="historic" v="shieling" />
		<tag k="name" v="Gamlestøl" />
		<tag k="place" v="locality" />
		<tag k="ssr:stedsnr" v="589648" />
		<tag k="ssr:type" v="gammelBosettingsplass" />
	</node>
	<node id="5605177896" lat="58.7441806" lon="6.6051667" version="1" timestamp="2018-05-08T19:48:33Z" changeset="58798758" uid="3842253" user="NKA_import">
		<tag k="historic" v="shieling" />
		<tag k="name" v="Goetjønnstølen" />
		<tag k="place" v="locality" />
		<tag k="ssr:stedsnr" v="893706" />
		<tag k="ssr:type" v="gammelBosettingsplass" />
	</node>
	<node id="5605177897" lat="58.8308042" lon="6.7980864" version="1" timestamp="2018-05-08T19:48:33Z" changeset="58798758" uid="3842253" user="NKA_import">
		<tag k="alt_name" v="Ousdal" />
		<tag k="name" v="Ausdal" />
		<tag k="place" v="farm" />
		<tag k="ssr:stedsnr" v="243100" />
		<tag k="ssr:type" v="gard" />
	</node>
	<node id="5605177898" lat="58.8544056" lon="6.851575" version="1" timestamp="2018-05-08T19:48:33Z" changeset="58798758" uid="3842253" user="NKA_import">
		<tag k="alt_name" v="Kvæven" />
		<tag k="historic" v="shieling" />
		<tag k="name" v="Kvævestøl" />
		<tag k="place" v="locality" />
		<tag k="ssr:stedsnr" v="61920" />
		<tag k="ssr:type" v="seterStøl" />
	</node>
	<node id="5605177899" lat="58.6841021" lon="6.7508924" version="1" timestamp="2018-05-08T19:48:33Z" changeset="58798758" uid="3842253" user="NKA_import">
		<tag k="name" v="Nygård" />
		<tag k="place" v="farm" />
		<tag k="ssr:stedsnr" v="771786" />
		<tag k="ssr:type" v="gard" />
	</node>
	<node id="5605177900" lat="58.9024778" lon="6.7976111" version="1" timestamp="2018-05-08T19:48:33Z" changeset="58798758" uid="3842253" user="NKA_import">
		<tag k="historic" v="shieling" />
		<tag k="name" v="Kvævestøl" />
		<tag k="place" v="locality" />
		<tag k="ssr:stedsnr" v="61974" />
		<tag k="ssr:type" v="seterStøl" />
	</node>
	<node id="5605177901" lat="58.7205556" lon="6.6163417" version="1" timestamp="2018-05-08T19:48:33Z" changeset="58798758" uid="3842253" user="NKA_import">
		<tag k="historic" v="shieling" />
		<tag k="name" v="Nyestøl" />
		<tag k="place" v="locality" />
		<tag k="ssr:stedsnr" v="225598" />
		<tag k="ssr:type" v="gammelBosettingsplass" />
	</node>
	<node id="5605177902" lat="58.6697861" lon="6.652425" version="1" timestamp="2018-05-08T19:48:33Z" changeset="58798758" uid="3842253" user="NKA_import">
		<tag k="name" v="Skarsvoll" />
		<tag k="place" v="farm" />
		<tag k="ssr:stedsnr" v="346224" />
		<tag k="ssr:type" v="bruk" />
	</node>
	<node id="5605177903" lat="58.9223111" lon="6.8353778" version="1" timestamp="2018-05-08T19:48:34Z" changeset="58798758" uid="3842253" user="NKA_import">
		<tag k="historic" v="shieling" />
		<tag k="name" v="Nyestøl" />
		<tag k="place" v="locality" />
		<tag k="ssr:stedsnr" v="530629" />
		<tag k="ssr:type" v="gammelBosettingsplass" />
	</node>
	<node id="5605177904" lat="58.9284583" lon="7.0491944" version="1" timestamp="2018-05-08T19:48:34Z" changeset="58798758" uid="3842253" user="NKA_import">
		<tag k="alt_name" v="Trollevassbu" />
		<tag k="name" v="Trodlevassbu" />
		<tag k="place" v="locality" />
		<tag k="ssr:stedsnr" v="62180" />
		<tag k="ssr:type" v="byggForJordbrukFiskeOgFangst" />
	</node>
	<node id="5605177905" lat="58.580375" lon="6.6849194" version="1" timestamp="2018-05-08T19:48:34Z" changeset="58798758" uid="3842253" user="NKA_import">
		<tag k="name" v="Øvre Slåta" />
		<tag k="place" v="farm" />
		<tag k="ssr:stedsnr" v="43397" />
		<tag k="ssr:type" v="bruk" />
	</node>
	<node id="5605177906" lat="58.6651806" lon="6.7023778" version="1" timestamp="2018-05-08T19:48:34Z" changeset="58798758" uid="3842253" user="NKA_import">
		<tag k="name" v="Finsnes" />
		<tag k="place" v="farm" />
		<tag k="ssr:stedsnr" v="849634" />
		<tag k="ssr:type" v="gard" />
	</node>
	<node id="5605177907" lat="58.9151501" lon="6.8720672" version="1" timestamp="2018-05-08T19:48:34Z" changeset="58798758" uid="3842253" user="NKA_import">
		<tag k="amenity" v="restaurant" />
		<tag k="name" v="Sinnes fjellstue" />
		<tag k="ssr:stedsnr" v="953646" />
		<tag k="ssr:type" v="turisthytte" />
	</node>
	<node id="5605177908" lat="58.7983361" lon="6.8741" version="1" timestamp="2018-05-08T19:48:34Z" changeset="58798758" uid="3842253" user="NKA_import">
		<tag k="historic" v="shieling" />
		<tag k="name" v="Andestøl" />
		<tag k="place" v="isolated_dwelling" />
		<tag k="ssr:stedsnr" v="850026" />
		<tag k="ssr:type" v="fritidsbolig" />
	</node>
	<node id="5605177909" lat="58.70565" lon="6.8391028" version="1" timestamp="2018-05-08T19:48:34Z" changeset="58798758" uid="3842253" user="NKA_import">
		<tag k="alt_name" v="Hellerstølen" />
		<tag k="historic" v="shieling" />
		<tag k="name" v="Hellestøl" />
		<tag k="place" v="isolated_dwelling" />
		<tag k="ssr:stedsnr" v="243593" />
		<tag k="ssr:type" v="fritidsbolig" />
	</node>
	<node id="5605177910" lat="58.8046" lon="6.7834861" version="1" timestamp="2018-05-08T19:48:34Z" changeset="58798758" uid="3842253" user="NKA_import">
		<tag k="historic" v="shieling" />
		<tag k="name" v="Glovrestøl" />
		<tag k="place" v="locality" />
		<tag k="ssr:stedsnr" v="365095" />
		<tag k="ssr:type" v="seterStøl" />
	</node>
	<node id="5605177911" lat="58.6222778" lon="6.6407028" version="1" timestamp="2018-05-08T19:48:34Z" changeset="58798758" uid="3842253" user="NKA_import">
		<tag k="alt_name" v="Vislandstølen" />
		<tag k="historic" v="shieling" />
		<tag k="name" v="Vislandsstølen" />
		<tag k="place" v="isolated_dwelling" />
		<tag k="ssr:stedsnr" v="243628" />
		<tag k="ssr:type" v="fritidsbolig" />
	</node>
	<node id="5605177912" lat="59.0097583" lon="6.8825583" version="1" timestamp="2018-05-08T19:48:34Z" changeset="58798758" uid="3842253" user="NKA_import">
		<tag k="historic" v="shieling" />
		<tag k="name" v="Kregdestøl" />
		<tag k="place" v="locality" />
		<tag k="ssr:stedsnr" v="62757" />
		<tag k="ssr:type" v="seterStøl" />
	</node>
	<node id="5605177913" lat="58.5873139" lon="6.7759139" version="1" timestamp="2018-05-08T19:48:34Z" changeset="58798758" uid="3842253" user="NKA_import">
		<tag k="alt_name" v="Storlistølen" />
		<tag k="historic" v="shieling" />
		<tag k="name" v="Storelistøl" />
		<tag k="place" v="isolated_dwelling" />
		<tag k="ssr:stedsnr" v="668740" />
		<tag k="ssr:type" v="fritidsbolig" />
	</node>
	<node id="5605177914" lat="58.812575" lon="6.811525" version="1" timestamp="2018-05-08T19:48:35Z" changeset="58798758" uid="3842253" user="NKA_import">
		<tag k="historic" v="shieling" />
		<tag k="name" v="Midtstøl" />
		<tag k="place" v="locality" />
		<tag k="ssr:stedsnr" v="850061" />
		<tag k="ssr:type" v="seterStøl" />
	</node>
	<node id="5605177915" lat="58.9687917" lon="6.7369" version="1" timestamp="2018-05-08T19:48:35Z" changeset="58798758" uid="3842253" user="NKA_import">
		<tag k="name" v="Degevassbu" />
		<tag k="old_name" v="Degjevassbu" />
		<tag k="place" v="locality" />
		<tag k="ssr:stedsnr" v="62814" />
		<tag k="ssr:type" v="byggForJordbrukFiskeOgFangst" />
	</node>
	<node id="5605177916" lat="58.8054194" lon="6.7257056" version="1" timestamp="2018-05-08T19:48:35Z" changeset="58798758" uid="3842253" user="NKA_import">
		<tag k="alt_name" v="Tjørnene" />
		<tag k="name" v="Tjødnen" />
		<tag k="place" v="isolated_dwelling" />
		<tag k="ssr:stedsnr" v="850071" />
		<tag k="ssr:type" v="fritidsbolig" />
	</node>
	<node id="5605177917" lat="58.92585" lon="6.8366917" version="1" timestamp="2018-05-08T19:48:35Z" changeset="58798758" uid="3842253" user="NKA_import">
		<tag k="alt_name" v="Nyestøl" />
		<tag k="historic" v="shieling" />
		<tag k="name" v="Nystøl" />
		<tag k="place" v="locality" />
		<tag k="ssr:stedsnr" v="243952" />
		<tag k="ssr:type" v="seterStøl" />
	</node>
	<node id="5605177918" lat="58.5439778" lon="6.7546417" version="1" timestamp="2018-05-08T19:48:35Z" changeset="58798758" uid="3842253" user="NKA_import">
		<tag k="alt_name" v="Elskogstølen" />
		<tag k="historic" v="shieling" />
		<tag k="name" v="Eldskostølen" />
		<tag k="place" v="locality" />
		<tag k="ssr:stedsnr" v="243734" />
		<tag k="ssr:type" v="eiendom" />
	</node>
	<node id="5605177919" lat="58.5841111" lon="6.7865611" version="1" timestamp="2018-05-08T19:48:35Z" changeset="58798758" uid="3842253" user="NKA_import">
		<tag k="historic" v="shieling" />
		<tag k="name" v="Kleivstøl" />
		<tag k="place" v="locality" />
		<tag k="ssr:stedsnr" v="832186" />
		<tag k="ssr:type" v="gammelBosettingsplass" />
	</node>
	<node id="5605177920" lat="58.652975" lon="6.5654917" version="1" timestamp="2018-05-08T19:48:35Z" changeset="58798758" uid="3842253" user="NKA_import">
		<tag k="name" v="Brekka" />
		<tag k="place" v="farm" />
		<tag k="ssr:stedsnr" v="243796" />
		<tag k="ssr:type" v="bruk" />
	</node>
	<node id="5605178621" lat="58.7156306" lon="6.6944528" version="1" timestamp="2018-05-08T19:48:35Z" changeset="58798758" uid="3842253" user="NKA_import">
		<tag k="alt_name" v="Frekkarstølen" />
		<tag k="historic" v="shieling" />
		<tag k="name" v="Frekkarstøl" />
		<tag k="place" v="locality" />
		<tag k="ssr:stedsnr" v="546503" />
		<tag k="ssr:type" v="eiendom" />
	</node>
	<node id="5605178622" lat="58.88115" lon="6.608725" version="1" timestamp="2018-05-08T19:48:35Z" changeset="58798758" uid="3842253" user="NKA_import">
		<tag k="name" v="Tverråhytta" />
		<tag k="place" v="isolated_dwelling" />
		<tag k="ssr:stedsnr" v="668894" />
		<tag k="ssr:type" v="fritidsbolig" />
	</node>
	<node id="5605178623" lat="58.8675028" lon="6.9079833" version="1" timestamp="2018-05-08T19:48:35Z" changeset="58798758" uid="3842253" user="NKA_import">
		<tag k="alt_name" v="Gautstøl" />
		<tag k="historic" v="shieling" />
		<tag k="name" v="Gamle Gautstøl" />
		<tag k="place" v="locality" />
		<tag k="ssr:stedsnr" v="62939" />
		<tag k="ssr:type" v="seterStøl" />
	</node>
	<node id="5605178624" lat="58.6856306" lon="6.7239639" version="1" timestamp="2018-05-08T19:48:36Z" changeset="58798758" uid="3842253" user="NKA_import">
		<tag k="name" v="Tjomli" />
		<tag k="place" v="farm" />
		<tag k="ssr:stedsnr" v="546534" />
		<tag k="ssr:type" v="bruk" />
	</node>
	<node id="5605178625" lat="58.9662083" lon="6.9905528" version="1" timestamp="2018-05-08T19:48:36Z" changeset="58798758" uid="3842253" user="NKA_import">
		<tag k="historic" v="shieling" />
		<tag k="name" v="Joglestøl" />
		<tag k="place" v="locality" />
		<tag k="ssr:stedsnr" v="365239" />
		<tag k="ssr:type" v="seterStøl" />
	</node>
	<node id="5605178626" lat="58.6560278" lon="6.81065" version="1" timestamp="2018-05-08T19:48:36Z" changeset="58798758" uid="3842253" user="NKA_import">
		<tag k="alt_name" v="Førestølen" />
		<tag k="historic" v="shieling" />
		<tag k="name" v="Førestøl" />
		<tag k="place" v="isolated_dwelling" />
		<tag k="ssr:stedsnr" v="546566" />
		<tag k="ssr:type" v="fritidsbolig" />
	</node>
	<node id="5605178627" lat="58.5136833" lon="6.7992806" version="1" timestamp="2018-05-08T19:48:36Z" changeset="58798758" uid="3842253" user="NKA_import">
		<tag k="historic" v="shieling" />
		<tag k="name" v="Smålistølen" />
		<tag k="place" v="locality" />
		<tag k="ssr:stedsnr" v="850377" />
		<tag k="ssr:type" v="seterStøl" />
	</node>
	<node id="5605178628" lat="59.125792" lon="6.9926667" version="2" timestamp="2022-06-20T14:39:06Z" changeset="122627654" uid="3497659" user="NKA">
		<tag k="alt_name" v="Taumevassletæ" />
		<tag k="name" v="Taumevassletta" />
		<tag k="operator" v="Statskog" />
		<tag k="ref:kartverket:hytte" v="3226" />
		<tag k="ssr:stedsnr" v="105894" />
		<tag k="ssr:type" v="turisthytte" />
		<tag k="tourism" v="chalet" />
	</node>
	<node id="5605178629" lat="58.8429389" lon="6.77725" version="1" timestamp="2018-05-08T19:48:36Z" changeset="58798758" uid="3842253" user="NKA_import">
		<tag k="name" v="Lunden" />
		<tag k="place" v="farm" />
		<tag k="ssr:stedsnr" v="649838" />
		<tag k="ssr:type" v="bruk" />
	</node>
	<node id="5605178630" lat="58.8476056" lon="6.7956861" version="1" timestamp="2018-05-08T19:48:36Z" changeset="58798758" uid="3842253" user="NKA_import">
		<tag k="name" v="Lega" />
		<tag k="place" v="isolated_dwelling" />
		<tag k="ssr:stedsnr" v="243909" />
		<tag k="ssr:type" v="fritidsbolig" />
	</node>
	<node id="5605178631" lat="58.5892917" lon="6.6022889" version="1" timestamp="2018-05-08T19:48:36Z" changeset="58798758" uid="3842253" user="NKA_import">
		<tag k="alt_name" v="Skardstølen" />
		<tag k="historic" v="shieling" />
		<tag k="name" v="Skarstølen" />
		<tag k="place" v="locality" />
		<tag k="ssr:stedsnr" v="546623" />
		<tag k="ssr:type" v="seterStøl" />
	</node>
	<node id="5605178632" lat="58.8771" lon="6.7024222" version="1" timestamp="2018-05-08T19:48:36Z" changeset="58798758" uid="3842253" user="NKA_import">
		<tag k="historic" v="shieling" />
		<tag k="name" v="Eldristøl" />
		<tag k="place" v="locality" />
		<tag k="ssr:stedsnr" v="893797" />
		<tag k="ssr:type" v="gammelBosettingsplass" />
	</node>
	<node id="5605178633" lat="58.9506667" lon="6.6788472" version="1" timestamp="2018-05-08T19:48:36Z" changeset="58798758" uid="3842253" user="NKA_import">
		<tag k="name" v="Urdalega" />
		<tag k="old_name" v="Urdalæga" />
		<tag k="place" v="locality" />
		<tag k="ssr:stedsnr" v="668956" />
		<tag k="ssr:type" v="byggForJordbrukFiskeOgFangst" />
	</node>
	<node id="5605178634" lat="58.91255" lon="6.8314111" version="1" timestamp="2018-05-08T19:48:36Z" changeset="58798758" uid="3842253" user="NKA_import">
		<tag k="alt_name" v="Perskvæv" />
		<tag k="historic" v="shieling" />
		<tag k="name" v="Perskvæven" />
		<tag k="place" v="locality" />
		<tag k="ssr:stedsnr" v="243989" />
		<tag k="ssr:type" v="seterStøl" />
	</node>
	<node id="5605178635" lat="58.9148472" lon="6.8376417" version="1" timestamp="2018-05-08T19:48:37Z" changeset="58798758" uid="3842253" user="NKA_import">
		<tag k="alt_name" v="Vikestølen" />
		<tag k="historic" v="shieling" />
		<tag k="name" v="Vigestøl" />
		<tag k="old_name" v="Vikestøl" />
		<tag k="place" v="isolated_dwelling" />
		<tag k="ssr:stedsnr" v="668986" />
		<tag k="ssr:type" v="fritidsbolig" />
	</node>
	<node id="5605178636" lat="58.5745889" lon="6.6342861" version="1" timestamp="2018-05-08T19:48:37Z" changeset="58798758" uid="3842253" user="NKA_import">
		<tag k="historic" v="shieling" />
		<tag k="name" v="Skogestadstølen" />
		<tag k="place" v="locality" />
		<tag k="ssr:stedsnr" v="97413" />
		<tag k="ssr:type" v="byggForJordbrukFiskeOgFangst" />
	</node>
	<node id="5605178637" lat="58.5874667" lon="6.7509861" version="1" timestamp="2018-05-08T19:48:37Z" changeset="58798758" uid="3842253" user="NKA_import">
		<tag k="alt_name" v="Klappapåstølen" />
		<tag k="historic" v="shieling" />
		<tag k="name" v="Klappeborgstøl" />
		<tag k="place" v="isolated_dwelling" />
		<tag k="ssr:stedsnr" v="546686" />
		<tag k="ssr:type" v="fritidsbolig" />
	</node>
	<node id="5605178638" lat="58.5918278" lon="6.7793778" version="1" timestamp="2018-05-08T19:48:37Z" changeset="58798758" uid="3842253" user="NKA_import">
		<tag k="alt_name" v="Krokelistølen" />
		<tag k="historic" v="shieling" />
		<tag k="name" v="Kråkelistøl" />
		<tag k="place" v="isolated_dwelling" />
		<tag k="ssr:stedsnr" v="546690" />
		<tag k="ssr:type" v="fritidsbolig" />
	</node>
	<node id="5605178639" lat="58.5957556" lon="6.6063111" version="1" timestamp="2018-05-08T19:48:37Z" changeset="58798758" uid="3842253" user="NKA_import">
		<tag k="historic" v="shieling" />
		<tag k="name" v="Litlevollstølen" />
		<tag k="place" v="locality" />
		<tag k="ssr:stedsnr" v="832297" />
		<tag k="ssr:type" v="gammelBosettingsplass" />
	</node>
	<node id="5605178640" lat="58.9206844" lon="6.9108662" version="1" timestamp="2018-05-08T19:48:37Z" changeset="58798758" uid="3842253" user="NKA_import">
		<tag k="name" v="Haugen" />
		<tag k="place" v="hamlet" />
		<tag k="ssr:stedsnr" v="243998" />
		<tag k="ssr:type" v="gard" />
	</node>
	<node id="5605178641" lat="58.6688056" lon="6.7190694" version="1" timestamp="2018-05-08T19:48:37Z" changeset="58798758" uid="3842253" user="NKA_import">
		<tag k="alt_name" v="Neset" />
		<tag k="name" v="Nesset" />
		<tag k="place" v="farm" />
		<tag k="ssr:stedsnr" v="589790" />
		<tag k="ssr:type" v="gard" />
	</node>
	<node id="5605178642" lat="58.6435083" lon="6.7925722" version="1" timestamp="2018-05-08T19:48:37Z" changeset="58798758" uid="3842253" user="NKA_import">
		<tag k="historic" v="shieling" />
		<tag k="name" v="Heimre stølen" />
		<tag k="place" v="locality" />
		<tag k="ssr:stedsnr" v="528129" />
		<tag k="ssr:type" v="byggForJordbrukFiskeOgFangst" />
	</node>
	<node id="5605178643" lat="59.0489" lon="6.9444972" version="1" timestamp="2018-05-08T19:48:37Z" changeset="58798758" uid="3842253" user="NKA_import">
		<tag k="historic" v="shieling" />
		<tag k="name" v="Flatstøl" />
		<tag k="place" v="locality" />
		<tag k="ssr:stedsnr" v="365809" />
		<tag k="ssr:type" v="seterStøl" />
	</node>
	<node id="5605178644" lat="58.6548333" lon="6.4610639" version="1" timestamp="2018-05-08T19:48:37Z" changeset="58798758" uid="3842253" user="NKA_import">
		<tag k="historic" v="shieling" />
		<tag k="name" v="Gamlestølen" />
		<tag k="place" v="locality" />
		<tag k="ssr:stedsnr" v="850785" />
		<tag k="ssr:type" v="eiendom" />
	</node>
	<node id="5605178645" lat="58.688152" lon="6.7523806" version="1" timestamp="2018-05-08T19:48:38Z" changeset="58798758" uid="3842253" user="NKA_import">
		<tag k="alt_name" v="Josdal" />
		<tag k="name" v="Gjosdal" />
		<tag k="place" v="hamlet" />
		<tag k="ssr:stedsnr" v="121575" />
		<tag k="ssr:type" v="gard" />
	</node>
	<node id="5605178646" lat="58.7300694" lon="6.7776722" version="1" timestamp="2018-05-08T19:48:38Z" changeset="58798758" uid="3842253" user="NKA_import">
		<tag k="historic" v="shieling" />
		<tag k="name" v="Bakkestøl" />
		<tag k="place" v="locality" />
		<tag k="ssr:stedsnr" v="954240" />
		<tag k="ssr:type" v="byggForJordbrukFiskeOgFangst" />
	</node>
	<node id="5605178647" lat="58.5904028" lon="6.785075" version="1" timestamp="2018-05-08T19:48:38Z" changeset="58798758" uid="3842253" user="NKA_import">
		<tag k="historic" v="shieling" />
		<tag k="name" v="Espelistøl" />
		<tag k="place" v="locality" />
		<tag k="ssr:stedsnr" v="528178" />
		<tag k="ssr:type" v="byggForJordbrukFiskeOgFangst" />
	</node>
	<node id="5605178648" lat="58.7033209" lon="6.7272237" version="1" timestamp="2018-05-08T19:48:38Z" changeset="58798758" uid="3842253" user="NKA_import">
		<tag k="name" v="Bjunes" />
		<tag k="place" v="farm" />
		<tag k="ssr:stedsnr" v="121592" />
		<tag k="ssr:type" v="gard" />
	</node>
	<node id="5605178649" lat="59.0715306" lon="6.9810389" version="1" timestamp="2018-05-08T19:48:38Z" changeset="58798758" uid="3842253" user="NKA_import">
		<tag k="alt_name" v="Finnvellene, heimre" />
		<tag k="name" v="Heimre Finnvedlen" />
		<tag k="place" v="locality" />
		<tag k="ssr:stedsnr" v="669933" />
		<tag k="ssr:type" v="byggForJordbrukFiskeOgFangst" />
	</node>
	<node id="5605178650" lat="58.9394694" lon="6.7763639" version="1" timestamp="2018-05-08T19:48:38Z" changeset="58798758" uid="3842253" user="NKA_import">
		<tag k="alt_name" v="Grunnetjørnstøl" />
		<tag k="historic" v="shieling" />
		<tag k="name" v="Grunnetjønnstølen" />
		<tag k="place" v="locality" />
		<tag k="ssr:stedsnr" v="850950" />
		<tag k="ssr:type" v="seterStøl" />
	</node>
	<node id="5605178651" lat="58.9430028" lon="6.84405" version="1" timestamp="2018-05-08T19:48:38Z" changeset="58798758" uid="3842253" user="NKA_import">
		<tag k="historic" v="shieling" />
		<tag k="name" v="Kleivi" />
		<tag k="place" v="locality" />
		<tag k="ssr:stedsnr" v="850959" />
		<tag k="ssr:type" v="seterStøl" />
	</node>
	<node id="5605178652" lat="58.9456806" lon="6.848925" version="1" timestamp="2018-05-08T19:48:38Z" changeset="58798758" uid="3842253" user="NKA_import">
		<tag k="historic" v="shieling" />
		<tag k="name" v="Svåbergstøl" />
		<tag k="place" v="locality" />
		<tag k="ssr:stedsnr" v="850963" />
		<tag k="ssr:type" v="seterStøl" />
	</node>
	<node id="5605178653" lat="58.6325806" lon="6.8162556" version="1" timestamp="2018-05-08T19:48:38Z" changeset="58798758" uid="3842253" user="NKA_import">
		<tag k="historic" v="shieling" />
		<tag k="name" v="Galthomstøl" />
		<tag k="place" v="locality" />
		<tag k="ssr:stedsnr" v="104114" />
		<tag k="ssr:type" v="gammelBosettingsplass" />
	</node>
	<node id="5605178654" lat="58.9253292" lon="6.856615" version="1" timestamp="2018-05-08T19:48:38Z" changeset="58798758" uid="3842253" user="NKA_import">
		<tag k="alt_name" v="Tjødnestøl" />
		<tag k="historic" v="shieling" />
		<tag k="name" v="Tjørnestøl" />
		<tag k="place" v="isolated_dwelling" />
		<tag k="ssr:stedsnr" v="546991" />
		<tag k="ssr:type" v="fritidsbolig" />
	</node>
	<node id="5605178655" lat="58.90545" lon="6.937125" version="1" timestamp="2018-05-08T19:48:39Z" changeset="58798758" uid="3842253" user="NKA_import">
		<tag k="historic" v="shieling" />
		<tag k="name" v="Instestøl" />
		<tag k="place" v="locality" />
		<tag k="ssr:stedsnr" v="850981" />
		<tag k="ssr:type" v="seterStøl" />
	</node>
	<node id="5605178656" lat="58.7189194" lon="6.6528" version="1" timestamp="2018-05-08T19:48:39Z" changeset="58798758" uid="3842253" user="NKA_import">
		<tag k="alt_name" v="Furestøl" />
		<tag k="historic" v="shieling" />
		<tag k="name" v="Førestøl" />
		<tag k="place" v="locality" />
		<tag k="ssr:stedsnr" v="244601" />
		<tag k="ssr:type" v="byggForJordbrukFiskeOgFangst" />
	</node>
	<node id="5605178657" lat="58.8695611" lon="6.7944111" version="1" timestamp="2018-05-08T19:48:39Z" changeset="58798758" uid="3842253" user="NKA_import">
		<tag k="name" v="Bakken" />
		<tag k="place" v="farm" />
		<tag k="ssr:stedsnr" v="365899" />
		<tag k="ssr:type" v="bruk" />
	</node>
	<node id="5605178658" lat="58.880325" lon="6.8547" version="1" timestamp="2018-05-08T19:48:39Z" changeset="58798758" uid="3842253" user="NKA_import">
		<tag k="historic" v="shieling" />
		<tag k="name" v="Åmlistøl" />
		<tag k="place" v="locality" />
		<tag k="ssr:stedsnr" v="365904" />
		<tag k="ssr:type" v="seterStøl" />
	</node>
	<node id="5605178659" lat="58.5783694" lon="6.6819972" version="1" timestamp="2018-05-08T19:48:39Z" changeset="58798758" uid="3842253" user="NKA_import">
		<tag k="name" v="Sivollen" />
		<tag k="place" v="farm" />
		<tag k="ssr:stedsnr" v="832451" />
		<tag k="ssr:type" v="bruk" />
	</node>
	<node id="5605178660" lat="58.7875278" lon="6.7308611" version="1" timestamp="2018-05-08T19:48:39Z" changeset="58798758" uid="3842253" user="NKA_import">
		<tag k="historic" v="shieling" />
		<tag k="name" v="Steinsstøl" />
		<tag k="old_name" v="Steinstøl" />
		<tag k="place" v="isolated_dwelling" />
		<tag k="ssr:stedsnr" v="547056" />
		<tag k="ssr:type" v="fritidsbolig" />
	</node>
	<node id="5605178661" lat="58.7794111" lon="6.7076889" version="1" timestamp="2018-05-08T19:48:39Z" changeset="58798758" uid="3842253" user="NKA_import">
		<tag k="name" v="Svodene" />
		<tag k="old_name" v="Svåen" />
		<tag k="place" v="isolated_dwelling" />
		<tag k="ssr:stedsnr" v="547067" />
		<tag k="ssr:type" v="fritidsbolig" />
	</node>
	<node id="5605178662" lat="58.6311194" lon="6.5018778" version="1" timestamp="2018-05-08T19:48:39Z" changeset="58798758" uid="3842253" user="NKA_import">
		<tag k="name" v="Nordheim" />
		<tag k="place" v="farm" />
		<tag k="ssr:stedsnr" v="121827" />
		<tag k="ssr:type" v="bruk" />
	</node>
	<node id="5605178663" lat="58.7080972" lon="6.6960889" version="1" timestamp="2018-05-08T19:48:39Z" changeset="58798758" uid="3842253" user="NKA_import">
		<tag k="alt_name" v="Finnbustøl" />
		<tag k="historic" v="shieling" />
		<tag k="name" v="Fimbustølen" />
		<tag k="place" v="locality" />
		<tag k="ssr:stedsnr" v="728525" />
		<tag k="ssr:type" v="eiendom" />
	</node>
	<node id="5605178664" lat="58.8789667" lon="6.851725" version="1" timestamp="2018-05-08T19:48:39Z" changeset="58798758" uid="3842253" user="NKA_import">
		<tag k="historic" v="shieling" />
		<tag k="name" v="Finnstøl" />
		<tag k="place" v="locality" />
		<tag k="ssr:stedsnr" v="954337" />
		<tag k="ssr:type" v="byggForJordbrukFiskeOgFangst" />
	</node>
	<node id="5605178665" lat="58.967" lon="6.8293" version="1" timestamp="2018-05-08T19:48:40Z" changeset="58798758" uid="3842253" user="NKA_import">
		<tag k="name" v="Sirisbu" />
		<tag k="place" v="locality" />
		<tag k="ssr:stedsnr" v="244827" />
		<tag k="ssr:type" v="byggForJordbrukFiskeOgFangst" />
	</node>
	<node id="5605178666" lat="58.8586389" lon="6.7856528" version="1" timestamp="2018-05-08T19:48:40Z" changeset="58798758" uid="3842253" user="NKA_import">
		<tag k="alt_name" v="Dorge" />
		<tag k="name" v="Dorga" />
		<tag k="place" v="farm" />
		<tag k="ssr:stedsnr" v="121926" />
		<tag k="ssr:type" v="gard" />
	</node>
	<node id="5605178667" lat="58.9119889" lon="6.9383417" version="1" timestamp="2018-05-08T19:48:40Z" changeset="58798758" uid="3842253" user="NKA_import">
		<tag k="historic" v="shieling" />
		<tag k="name" v="Hønestøl" />
		<tag k="place" v="locality" />
		<tag k="ssr:stedsnr" v="286693" />
		<tag k="ssr:type" v="byggForJordbrukFiskeOgFangst" />
	</node>
	<node id="5605178668" lat="58.7007889" lon="6.79875" version="1" timestamp="2018-05-08T19:48:40Z" changeset="58798758" uid="3842253" user="NKA_import">
		<tag k="historic" v="shieling" />
		<tag k="name" v="Midstøl" />
		<tag k="place" v="locality" />
		<tag k="ssr:stedsnr" v="650320" />
		<tag k="ssr:type" v="gammelBosettingsplass" />
	</node>
	<node id="5605178669" lat="58.7435472" lon="6.6387472" version="1" timestamp="2018-05-08T19:48:40Z" changeset="58798758" uid="3842253" user="NKA_import">
		<tag k="historic" v="shieling" />
		<tag k="name" v="Piggstøl" />
		<tag k="place" v="locality" />
		<tag k="ssr:stedsnr" v="346740" />
		<tag k="ssr:type" v="gammelBosettingsplass" />
	</node>
	<node id="5605178670" lat="58.808" lon="6.665775" version="1" timestamp="2018-05-08T19:48:40Z" changeset="58798758" uid="3842253" user="NKA_import">
		<tag k="historic" v="shieling" />
		<tag k="name" v="Raunlistøl" />
		<tag k="place" v="locality" />
		<tag k="ssr:stedsnr" v="547134" />
		<tag k="ssr:type" v="seterStøl" />
	</node>
	<node id="5605178671" lat="58.8689778" lon="6.7519139" version="1" timestamp="2018-05-08T19:48:40Z" changeset="58798758" uid="3842253" user="NKA_import">
		<tag k="alt_name" v="Eikelandsstøl" />
		<tag k="historic" v="shieling" />
		<tag k="name" v="Heimrestølen" />
		<tag k="place" v="locality" />
		<tag k="ssr:stedsnr" v="244882" />
		<tag k="ssr:type" v="seterStøl" />
	</node>
	<node id="5605178672" lat="58.7902361" lon="6.8317389" version="1" timestamp="2018-05-08T19:48:40Z" changeset="58798758" uid="3842253" user="NKA_import">
		<tag k="historic" v="shieling" />
		<tag k="name" v="Tjødnestøl" />
		<tag k="place" v="locality" />
		<tag k="ssr:stedsnr" v="286714" />
		<tag k="ssr:type" v="gammelBosettingsplass" />
	</node>
	<node id="5605178673" lat="58.9239889" lon="6.9096528" version="1" timestamp="2018-05-08T19:48:40Z" changeset="58798758" uid="3842253" user="NKA_import">
		<tag k="name" v="Hovland" />
		<tag k="place" v="farm" />
		<tag k="ssr:stedsnr" v="286716" />
		<tag k="ssr:type" v="bruk" />
	</node>
	<node id="5605178674" lat="58.7589056" lon="6.7435333" version="1" timestamp="2018-05-08T19:48:40Z" changeset="58798758" uid="3842253" user="NKA_import">
		<tag k="name" v="Lindeland" />
		<tag k="place" v="farm" />
		<tag k="ssr:stedsnr" v="122014" />
		<tag k="ssr:type" v="gard" />
	</node>
	<node id="5605178675" lat="58.6499028" lon="6.8314139" version="1" timestamp="2018-05-08T19:48:40Z" changeset="58798758" uid="3842253" user="NKA_import">
		<tag k="historic" v="shieling" />
		<tag k="name" v="Frielistølen" />
		<tag k="place" v="isolated_dwelling" />
		<tag k="ssr:stedsnr" v="728622" />
		<tag k="ssr:type" v="fritidsbolig" />
	</node>
	<node id="5605178676" lat="58.7201194" lon="6.6908583" version="1" timestamp="2018-05-08T19:48:41Z" changeset="58798758" uid="3842253" user="NKA_import">
		<tag k="historic" v="shieling" />
		<tag k="name" v="Løynstøl" />
		<tag k="place" v="locality" />
		<tag k="ssr:stedsnr" v="165572" />
		<tag k="ssr:type" v="gammelBosettingsplass" />
	</node>
	<node id="5605178677" lat="58.9141833" lon="6.8361861" version="1" timestamp="2018-05-08T19:48:41Z" changeset="58798758" uid="3842253" user="NKA_import">
		<tag k="historic" v="shieling" />
		<tag k="name" v="Nyestøl" />
		<tag k="place" v="locality" />
		<tag k="ssr:stedsnr" v="772567" />
		<tag k="ssr:type" v="gammelBosettingsplass" />
	</node>
	<node id="5605178678" lat="58.5832528" lon="6.6745194" version="1" timestamp="2018-05-08T19:48:41Z" changeset="58798758" uid="3842253" user="NKA_import">
		<tag k="name" v="Stuhaug" />
		<tag k="place" v="farm" />
		<tag k="ssr:stedsnr" v="728667" />
		<tag k="ssr:type" v="gard" />
	</node>
	<node id="5605178679" lat="58.5527944" lon="6.7139" version="1" timestamp="2018-05-08T19:48:41Z" changeset="58798758" uid="3842253" user="NKA_import">
		<tag k="name" v="Strandli" />
		<tag k="place" v="locality" />
		<tag k="ssr:stedsnr" v="728697" />
		<tag k="ssr:type" v="byggForJordbrukFiskeOgFangst" />
	</node>
	<node id="5605178680" lat="58.8094611" lon="6.9895111" version="1" timestamp="2018-05-08T19:48:41Z" changeset="58798758" uid="3842253" user="NKA_import">
		<tag k="name" v="Godfarlega" />
		<tag k="place" v="locality" />
		<tag k="ssr:stedsnr" v="547406" />
		<tag k="ssr:type" v="byggForJordbrukFiskeOgFangst" />
	</node>
	<node id="5605178681" lat="58.9706306" lon="6.8642278" version="1" timestamp="2018-05-08T19:48:41Z" changeset="58798758" uid="3842253" user="NKA_import">
		<tag k="historic" v="shieling" />
		<tag k="name" v="Løkjedalsstøl" />
		<tag k="place" v="locality" />
		<tag k="ssr:stedsnr" v="851806" />
		<tag k="ssr:type" v="seterStøl" />
	</node>
	<node id="5605178682" lat="58.79165" lon="6.73305" version="1" timestamp="2018-05-08T19:48:41Z" changeset="58798758" uid="3842253" user="NKA_import">
		<tag k="historic" v="shieling" />
		<tag k="name" v="Bakkestøl" />
		<tag k="place" v="locality" />
		<tag k="ssr:stedsnr" v="122085" />
		<tag k="ssr:type" v="seterStøl" />
	</node>
	<node id="5605178683" lat="58.8936306" lon="6.666075" version="1" timestamp="2018-05-08T19:48:41Z" changeset="58798758" uid="3842253" user="NKA_import">
		<tag k="historic" v="shieling" />
		<tag k="name" v="Hunnestøl" />
		<tag k="place" v="isolated_dwelling" />
		<tag k="ssr:stedsnr" v="244980" />
		<tag k="ssr:type" v="fritidsbolig" />
	</node>
	<node id="5605178684" lat="58.887225" lon="6.632725" version="1" timestamp="2018-05-08T19:48:41Z" changeset="58798758" uid="3842253" user="NKA_import">
		<tag k="name" v="Hunnebu" />
		<tag k="place" v="isolated_dwelling" />
		<tag k="ssr:stedsnr" v="244984" />
		<tag k="ssr:type" v="fritidsbolig" />
	</node>
	<node id="5605178685" lat="58.5942194" lon="6.6248417" version="1" timestamp="2018-05-08T19:48:41Z" changeset="58798758" uid="3842253" user="NKA_import">
		<tag k="historic" v="shieling" />
		<tag k="name" v="Slåtestølen" />
		<tag k="place" v="locality" />
		<tag k="ssr:stedsnr" v="104274" />
		<tag k="ssr:type" v="gammelBosettingsplass" />
	</node>
	<node id="5605178686" lat="58.7860667" lon="6.6654" version="1" timestamp="2018-05-08T19:48:41Z" changeset="58798758" uid="3842253" user="NKA_import">
		<tag k="historic" v="shieling" />
		<tag k="name" v="Skeidstøl" />
		<tag k="place" v="locality" />
		<tag k="ssr:stedsnr" v="729038" />
		<tag k="ssr:type" v="eiendom" />
	</node>
	<node id="5605178687" lat="58.7950667" lon="6.8683778" version="1" timestamp="2018-05-08T19:48:42Z" changeset="58798758" uid="3842253" user="NKA_import">
		<tag k="historic" v="shieling" />
		<tag k="name" v="Todlakstøl" />
		<tag k="place" v="locality" />
		<tag k="ssr:stedsnr" v="468614" />
		<tag k="ssr:type" v="gammelBosettingsplass" />
	</node>
	<node id="5605178688" lat="58.8489111" lon="6.9820889" version="1" timestamp="2018-05-08T19:48:42Z" changeset="58798758" uid="3842253" user="NKA_import">
		<tag k="name" v="Børelsbu" />
		<tag k="place" v="locality" />
		<tag k="ssr:stedsnr" v="122117" />
		<tag k="ssr:type" v="byggForJordbrukFiskeOgFangst" />
	</node>
	<node id="5605178689" lat="58.9037" lon="6.9161806" version="1" timestamp="2018-05-08T19:48:42Z" changeset="58798758" uid="3842253" user="NKA_import">
		<tag k="historic" v="shieling" />
		<tag k="name" v="Gamlestøl" />
		<tag k="place" v="locality" />
		<tag k="ssr:stedsnr" v="165632" />
		<tag k="ssr:type" v="gammelBosettingsplass" />
	</node>
	<node id="5605178690" lat="58.8107556" lon="6.70025" version="1" timestamp="2018-05-08T19:48:42Z" changeset="58798758" uid="3842253" user="NKA_import">
		<tag k="alt_name" v="Lundestøl" />
		<tag k="historic" v="shieling" />
		<tag k="name" v="Lundestølan" />
		<tag k="place" v="locality" />
		<tag k="ssr:stedsnr" v="729070" />
		<tag k="ssr:type" v="seterStøl" />
	</node>
	<node id="5605178691" lat="58.7372389" lon="6.6160222" version="1" timestamp="2018-05-08T19:48:42Z" changeset="58798758" uid="3842253" user="NKA_import">
		<tag k="historic" v="shieling" />
		<tag k="name" v="Ronestøl" />
		<tag k="place" v="locality" />
		<tag k="ssr:stedsnr" v="43760" />
		<tag k="ssr:type" v="gammelBosettingsplass" />
	</node>
	<node id="5605178692" lat="58.5345472" lon="6.7747972" version="1" timestamp="2018-05-08T19:48:42Z" changeset="58798758" uid="3842253" user="NKA_import">
		<tag k="historic" v="shieling" />
		<tag k="name" v="Åstølen" />
		<tag k="place" v="locality" />
		<tag k="ssr:stedsnr" v="528614" />
		<tag k="ssr:type" v="byggForJordbrukFiskeOgFangst" />
	</node>
	<node id="5605178693" lat="58.9570902" lon="6.9303277" version="1" timestamp="2018-05-08T19:48:42Z" changeset="58798758" uid="3842253" user="NKA_import">
		<tag k="name" v="Fidjeland" />
		<tag k="place" v="village" />
		<tag k="ssr:stedsnr" v="122789" />
		<tag k="ssr:type" v="bygdelagBygd" />
	</node>
	<node id="5605178694" lat="58.8879278" lon="6.8789278" version="1" timestamp="2018-05-08T19:48:42Z" changeset="58798758" uid="3842253" user="NKA_import">
		<tag k="name" v="Solheim" />
		<tag k="place" v="farm" />
		<tag k="ssr:stedsnr" v="122867" />
		<tag k="ssr:type" v="gard" />
	</node>
	<node id="5605178695" lat="58.7098722" lon="6.8530194" version="1" timestamp="2018-05-08T19:48:42Z" changeset="58798758" uid="3842253" user="NKA_import">
		<tag k="historic" v="shieling" />
		<tag k="name" v="Åmelstøl" />
		<tag k="place" v="locality" />
		<tag k="ssr:stedsnr" v="347290" />
		<tag k="ssr:type" v="gammelBosettingsplass" />
	</node>
	<node id="5605178696" lat="58.8474864" lon="6.7713014" version="1" timestamp="2018-05-08T19:48:42Z" changeset="58798758" uid="3842253" user="NKA_import">
		<tag k="alt_name" v="Eikeland" />
		<tag k="name" v="Egeland" />
		<tag k="place" v="hamlet" />
		<tag k="ssr:stedsnr" v="122897" />
		<tag k="ssr:type" v="gard" />
	</node>
	<node id="5605178697" lat="58.8442222" lon="6.7624833" version="1" timestamp="2018-05-08T19:48:42Z" changeset="58798758" uid="3842253" user="NKA_import">
		<tag k="name" v="Nedretveit" />
		<tag k="place" v="farm" />
		<tag k="ssr:stedsnr" v="590857" />
		<tag k="ssr:type" v="bruk" />
	</node>
	<node id="5605178698" lat="58.9161585" lon="6.9628912" version="2" timestamp="2022-01-07T07:24:29Z" changeset="115865206" uid="346410" user="berland">
		<tag k="historic" v="shieling" />
		<tag k="name" v="Hønestøl" />
		<tag k="place" v="locality" />
		<tag k="ssr:stedsnr" v="547981" />
		<tag k="ssr:type" v="seterStøl" />
	</node>
	<node id="5605178699" lat="58.8554083" lon="6.8818361" version="1" timestamp="2018-05-08T19:48:43Z" changeset="58798758" uid="3842253" user="NKA_import">
		<tag k="historic" v="shieling" />
		<tag k="name" v="Fossbrotet" />
		<tag k="place" v="locality" />
		<tag k="ssr:stedsnr" v="122903" />
		<tag k="ssr:type" v="seterStøl" />
	</node>
	<node id="5605178700" lat="59.096603" lon="6.9487982" version="1" timestamp="2018-05-08T19:48:43Z" changeset="58798758" uid="3842253" user="NKA_import">
		<tag k="name" v="Steet" />
		<tag k="place" v="locality" />
		<tag k="ssr:stedsnr" v="548176" />
		<tag k="ssr:type" v="byggForJordbrukFiskeOgFangst" />
	</node>
	<node id="5605178701" lat="58.9201389" lon="6.7520805" version="1" timestamp="2018-05-08T19:48:43Z" changeset="58798758" uid="3842253" user="NKA_import">
		<tag k="name" v="Malurdi" />
		<tag k="place" v="isolated_dwelling" />
		<tag k="ssr:stedsnr" v="122942" />
		<tag k="ssr:type" v="fritidsbolig" />
	</node>
	<node id="5605178702" lat="58.6197194" lon="6.7842389" version="1" timestamp="2018-05-08T19:48:43Z" changeset="58798758" uid="3842253" user="NKA_import">
		<tag k="historic" v="shieling" />
		<tag k="name" v="Tollakstøl" />
		<tag k="place" v="locality" />
		<tag k="ssr:stedsnr" v="893008" />
		<tag k="ssr:type" v="gammelBosettingsplass" />
	</node>
	<node id="5605178703" lat="58.9019944" lon="6.8860694" version="1" timestamp="2018-05-08T19:48:43Z" changeset="58798758" uid="3842253" user="NKA_import">
		<tag k="alt_name" v="Nesset" />
		<tag k="name" v="Neset" />
		<tag k="place" v="hamlet" />
		<tag k="ssr:stedsnr" v="122972" />
		<tag k="ssr:type" v="gard" />
	</node>
	<node id="5605178704" lat="59.0445111" lon="6.8754111" version="1" timestamp="2018-05-08T19:48:43Z" changeset="58798758" uid="3842253" user="NKA_import">
		<tag k="alt_name" v="Reinskvæven" />
		<tag k="name" v="Reinsdyrkvæven" />
		<tag k="place" v="isolated_dwelling" />
		<tag k="ssr:stedsnr" v="729821" />
		<tag k="ssr:type" v="fritidsbolig" />
	</node>
	<node id="5605178705" lat="58.57795" lon="6.6796167" version="1" timestamp="2018-05-08T19:48:43Z" changeset="58798758" uid="3842253" user="NKA_import">
		<tag k="name" v="Litlevollen" />
		<tag k="place" v="farm" />
		<tag k="ssr:stedsnr" v="104402" />
		<tag k="ssr:type" v="bruk" />
	</node>
	<node id="5605178706" lat="58.788075" lon="6.7528528" version="1" timestamp="2018-05-08T19:48:43Z" changeset="58798758" uid="3842253" user="NKA_import">
		<tag k="name" v="Totland" />
		<tag k="place" v="locality" />
		<tag k="ssr:stedsnr" v="911049" />
		<tag k="ssr:type" v="byggForJordbrukFiskeOgFangst" />
	</node>
	<node id="5605178707" lat="58.8676626" lon="6.8087577" version="1" timestamp="2018-05-08T19:48:43Z" changeset="58798758" uid="3842253" user="NKA_import">
		<tag k="name" v="Handeland" />
		<tag k="place" v="farm" />
		<tag k="ssr:stedsnr" v="729877" />
		<tag k="ssr:type" v="gard" />
	</node>
	<node id="5605178708" lat="58.7776306" lon="6.60515" version="1" timestamp="2018-05-08T19:48:43Z" changeset="58798758" uid="3842253" user="NKA_import">
		<tag k="historic" v="shieling" />
		<tag k="name" v="Øyestøl" />
		<tag k="place" v="locality" />
		<tag k="ssr:stedsnr" v="426036" />
		<tag k="ssr:type" v="seterStøl" />
	</node>
	<node id="5605178709" lat="58.8680889" lon="6.6616278" version="1" timestamp="2018-05-08T19:48:43Z" changeset="58798758" uid="3842253" user="NKA_import">
		<tag k="historic" v="shieling" />
		<tag k="name" v="Tvetenordstøl" />
		<tag k="place" v="isolated_dwelling" />
		<tag k="ssr:stedsnr" v="729888" />
		<tag k="ssr:type" v="fritidsbolig" />
	</node>
	<node id="5605178710" lat="58.8657556" lon="6.9422417" version="1" timestamp="2018-05-08T19:48:44Z" changeset="58798758" uid="3842253" user="NKA_import">
		<tag k="name" v="Åløene" />
		<tag k="place" v="locality" />
		<tag k="ssr:stedsnr" v="347388" />
		<tag k="ssr:type" v="gammelBosettingsplass" />
	</node>
	<node id="5605178711" lat="58.8823361" lon="6.8714778" version="1" timestamp="2018-05-08T19:48:44Z" changeset="58798758" uid="3842253" user="NKA_import">
		<tag k="historic" v="shieling" />
		<tag k="name" v="Skuggestøl" />
		<tag k="place" v="isolated_dwelling" />
		<tag k="ssr:stedsnr" v="729891" />
		<tag k="ssr:type" v="fritidsbolig" />
	</node>
	<node id="5605178712" lat="58.6368944" lon="6.5690083" version="1" timestamp="2018-05-08T19:48:44Z" changeset="58798758" uid="3842253" user="NKA_import">
		<tag k="alt_name" v="Hamarsmork" />
		<tag k="name" v="Hammersmark" />
		<tag k="place" v="farm" />
		<tag k="ssr:stedsnr" v="606813" />
		<tag k="ssr:type" v="gard" />
	</node>
	<node id="5605178713" lat="58.5040861" lon="6.7790361" version="1" timestamp="2018-05-08T19:48:44Z" changeset="58798758" uid="3842253" user="NKA_import">
		<tag k="historic" v="shieling" />
		<tag k="name" v="Heimre stølen" />
		<tag k="place" v="locality" />
		<tag k="ssr:stedsnr" v="588118" />
		<tag k="ssr:type" v="seterStøl" />
	</node>
	<node id="5605178714" lat="58.5949306" lon="6.606125" version="1" timestamp="2018-05-08T19:48:44Z" changeset="58798758" uid="3842253" user="NKA_import">
		<tag k="alt_name" v="Slåtta" />
		<tag k="historic" v="shieling" />
		<tag k="name" v="Myklebergstølen" />
		<tag k="place" v="isolated_dwelling" />
		<tag k="ssr:stedsnr" v="662" />
		<tag k="ssr:type" v="fritidsbolig" />
	</node>
	<node id="5605178715" lat="58.9028722" lon="6.9392694" version="1" timestamp="2018-05-08T19:48:44Z" changeset="58798758" uid="3842253" user="NKA_import">
		<tag k="historic" v="shieling" />
		<tag k="name" v="Forestøl" />
		<tag k="place" v="locality" />
		<tag k="ssr:stedsnr" v="954625" />
		<tag k="ssr:type" v="byggForJordbrukFiskeOgFangst" />
	</node>
	<node id="5605178716" lat="58.7031556" lon="6.6543583" version="1" timestamp="2018-05-08T19:48:44Z" changeset="58798758" uid="3842253" user="NKA_import">
		<tag k="alt_name" v="Hovlandstølen" />
		<tag k="historic" v="shieling" />
		<tag k="name" v="Hovlands-støl" />
		<tag k="place" v="locality" />
		<tag k="ssr:stedsnr" v="606570" />
		<tag k="ssr:type" v="byggForJordbrukFiskeOgFangst" />
	</node>
	<node id="5605178717" lat="58.7430889" lon="6.6939389" version="1" timestamp="2018-05-08T19:48:44Z" changeset="58798758" uid="3842253" user="NKA_import">
		<tag k="historic" v="shieling" />
		<tag k="name" v="Urdvasstøl" />
		<tag k="place" v="locality" />
		<tag k="ssr:stedsnr" v="711207" />
		<tag k="ssr:type" v="gammelBosettingsplass" />
	</node>
	<node id="5605178718" lat="58.6664495" lon="6.7276803" version="1" timestamp="2018-05-08T19:48:44Z" changeset="58798758" uid="3842253" user="NKA_import">
		<tag k="name" v="Tonstadli" />
		<tag k="place" v="neighbourhood" />
		<tag k="ssr:stedsnr" v="468775" />
		<tag k="ssr:type" v="boligfelt" />
	</node>
	<node id="5605178719" lat="58.7712194" lon="6.655425" version="1" timestamp="2018-05-08T19:48:44Z" changeset="58798758" uid="3842253" user="NKA_import">
		<tag k="historic" v="shieling" />
		<tag k="name" v="Nordstøl" />
		<tag k="place" v="locality" />
		<tag k="ssr:stedsnr" v="833147" />
		<tag k="ssr:type" v="gammelBosettingsplass" />
	</node>
	<node id="5605178720" lat="58.9010641" lon="6.8469384" version="1" timestamp="2018-05-08T19:48:45Z" changeset="58798758" uid="3842253" user="NKA_import">
		<tag k="historic" v="shieling" />
		<tag k="name" v="Ukviglstøl" />
		<tag k="place" v="isolated_dwelling" />
		<tag k="ssr:stedsnr" v="347430" />
		<tag k="ssr:type" v="fritidsbolig" />
	</node>
	<node id="5605179521" lat="58.6927361" lon="6.8124083" version="1" timestamp="2018-05-08T19:48:45Z" changeset="58798758" uid="3842253" user="NKA_import">
		<tag k="alt_name" v="Mågestølen" />
		<tag k="historic" v="shieling" />
		<tag k="name" v="Mågestøl" />
		<tag k="place" v="isolated_dwelling" />
		<tag k="ssr:stedsnr" v="559" />
		<tag k="ssr:type" v="fritidsbolig" />
	</node>
	<node id="5605179522" lat="58.9366667" lon="7.1553778" version="1" timestamp="2018-05-08T19:48:45Z" changeset="58798758" uid="3842253" user="NKA_import">
		<tag k="name" v="Åmlibadstoga" />
		<tag k="old_name" v="Omlibadstog" />
		<tag k="place" v="locality" />
		<tag k="ssr:stedsnr" v="911209" />
		<tag k="ssr:type" v="byggForJordbrukFiskeOgFangst" />
	</node>
	<node id="5605179523" lat="59.0106596" lon="6.8805422" version="1" timestamp="2018-05-08T19:48:45Z" changeset="58798758" uid="3842253" user="NKA_import">
		<tag k="historic" v="shieling" />
		<tag k="name" v="Kregdestøl" />
		<tag k="place" v="locality" />
		<tag k="ssr:stedsnr" v="468802" />
		<tag k="ssr:type" v="gammelBosettingsplass" />
	</node>
	<node id="5605179524" lat="58.6703389" lon="6.5306028" version="1" timestamp="2018-05-08T19:48:45Z" changeset="58798758" uid="3842253" user="NKA_import">
		<tag k="name" v="Myrehagen" />
		<tag k="place" v="locality" />
		<tag k="ssr:stedsnr" v="711260" />
		<tag k="ssr:type" v="gjerde" />
	</node>
	<node id="5605179525" lat="58.8441778" lon="6.7165639" version="1" timestamp="2018-05-08T19:48:45Z" changeset="58798758" uid="3842253" user="NKA_import">
		<tag k="historic" v="shieling" />
		<tag k="name" v="Surpestøl" />
		<tag k="place" v="locality" />
		<tag k="ssr:stedsnr" v="287688" />
		<tag k="ssr:type" v="byggForJordbrukFiskeOgFangst" />
	</node>
	<node id="5605179526" lat="58.6179944" lon="6.6446222" version="1" timestamp="2018-05-08T19:48:45Z" changeset="58798758" uid="3842253" user="NKA_import">
		<tag k="historic" v="shieling" />
		<tag k="name" v="Stuhaugstølen" />
		<tag k="place" v="isolated_dwelling" />
		<tag k="ssr:stedsnr" v="606621" />
		<tag k="ssr:type" v="fritidsbolig" />
	</node>
	<node id="5605179527" lat="58.7556583" lon="6.6659028" version="1" timestamp="2018-05-08T19:48:45Z" changeset="58798758" uid="3842253" user="NKA_import">
		<tag k="historic" v="shieling" />
		<tag k="name" v="Hemsevasstøl" />
		<tag k="place" v="locality" />
		<tag k="ssr:stedsnr" v="893189" />
		<tag k="ssr:type" v="gammelBosettingsplass" />
	</node>
	<node id="5605179528" lat="58.7305333" lon="6.7618028" version="1" timestamp="2018-05-08T19:48:45Z" changeset="58798758" uid="3842253" user="NKA_import">
		<tag k="name" v="Guddal" />
		<tag k="place" v="farm" />
		<tag k="ssr:stedsnr" v="426543" />
		<tag k="ssr:type" v="gard" />
	</node>
	<node id="5605179529" lat="58.7916667" lon="6.8418195" version="1" timestamp="2018-05-08T19:48:45Z" changeset="58798758" uid="3842253" user="NKA_import">
		<tag k="historic" v="shieling" />
		<tag k="name" v="Sandvatnstølen" />
		<tag k="place" v="locality" />
		<tag k="ssr:stedsnr" v="650670" />
		<tag k="ssr:type" v="gammelBosettingsplass" />
	</node>
	<node id="5605179530" lat="58.7965361" lon="6.6137778" version="1" timestamp="2018-05-08T19:48:46Z" changeset="58798758" uid="3842253" user="NKA_import">
		<tag k="historic" v="shieling" />
		<tag k="name" v="Vassvollstølen" />
		<tag k="place" v="locality" />
		<tag k="ssr:stedsnr" v="44325" />
		<tag k="ssr:type" v="gammelBosettingsplass" />
	</node>
	<node id="5605179531" lat="58.7006722" lon="6.8142194" version="1" timestamp="2018-05-08T19:48:46Z" changeset="58798758" uid="3842253" user="NKA_import">
		<tag k="alt_name" v="Atlaskstølen;Atlakstøl" />
		<tag k="historic" v="shieling" />
		<tag k="name" v="Atlaskstøl" />
		<tag k="place" v="isolated_dwelling" />
		<tag k="ssr:stedsnr" v="581" />
		<tag k="ssr:type" v="fritidsbolig" />
	</node>
	<node id="5605179532" lat="58.7271194" lon="6.6860333" version="1" timestamp="2018-05-08T19:48:46Z" changeset="58798758" uid="3842253" user="NKA_import">
		<tag k="alt_name" v="Heimrestølen" />
		<tag k="historic" v="shieling" />
		<tag k="name" v="Heimrestøl" />
		<tag k="place" v="isolated_dwelling" />
		<tag k="ssr:stedsnr" v="911564" />
		<tag k="ssr:type" v="fritidsbolig" />
	</node>
	<node id="5605179533" lat="58.7188704" lon="6.7328439" version="1" timestamp="2018-05-08T19:48:46Z" changeset="58798758" uid="3842253" user="NKA_import">
		<tag k="name" v="Hompland" />
		<tag k="place" v="hamlet" />
		<tag k="ssr:stedsnr" v="911570" />
		<tag k="ssr:type" v="gard" />
	</node>
	<node id="5605179534" lat="58.7787167" lon="6.7177222" version="1" timestamp="2018-05-08T19:48:46Z" changeset="58798758" uid="3842253" user="NKA_import">
		<tag k="historic" v="shieling" />
		<tag k="name" v="Radestøl" />
		<tag k="place" v="locality" />
		<tag k="ssr:stedsnr" v="44328" />
		<tag k="ssr:type" v="gammelBosettingsplass" />
	</node>
	<node id="5605179535" lat="58.8791" lon="6.7772389" version="1" timestamp="2018-05-08T19:48:46Z" changeset="58798758" uid="3842253" user="NKA_import">
		<tag k="historic" v="shieling" />
		<tag k="name" v="Litlestøl" />
		<tag k="place" v="locality" />
		<tag k="ssr:stedsnr" v="711290" />
		<tag k="ssr:type" v="byggForJordbrukFiskeOgFangst" />
	</node>
	<node id="5605179536" lat="58.7221861" lon="6.692625" version="1" timestamp="2018-05-08T19:48:46Z" changeset="58798758" uid="3842253" user="NKA_import">
		<tag k="historic" v="shieling" />
		<tag k="name" v="Løynestølen" />
		<tag k="place" v="isolated_dwelling" />
		<tag k="ssr:stedsnr" v="911574" />
		<tag k="ssr:type" v="fritidsbolig" />
	</node>
	<node id="5605179537" lat="58.6636889" lon="6.8282028" version="1" timestamp="2018-05-08T19:48:46Z" changeset="58798758" uid="3842253" user="NKA_import">
		<tag k="name" v="Skibulia" />
		<tag k="place" v="isolated_dwelling" />
		<tag k="ssr:stedsnr" v="163418" />
		<tag k="ssr:type" v="fritidsbolig" />
	</node>
	<node id="5605179538" lat="58.5931944" lon="6.6006639" version="1" timestamp="2018-05-08T19:48:46Z" changeset="58798758" uid="3842253" user="NKA_import">
		<tag k="historic" v="shieling" />
		<tag k="name" v="Bostetjødnstølen" />
		<tag k="place" v="locality" />
		<tag k="ssr:stedsnr" v="711312" />
		<tag k="ssr:type" v="gammelBosettingsplass" />
	</node>
	<node id="5605179539" lat="58.6054972" lon="6.8260056" version="1" timestamp="2018-05-08T19:48:46Z" changeset="58798758" uid="3842253" user="NKA_import">
		<tag k="historic" v="shieling" />
		<tag k="name" v="Lievasstølen" />
		<tag k="place" v="locality" />
		<tag k="ssr:stedsnr" v="164007" />
		<tag k="ssr:type" v="byggForJordbrukFiskeOgFangst" />
	</node>
	<node id="5605179540" lat="58.5789278" lon="6.6743528" version="1" timestamp="2018-05-08T19:48:47Z" changeset="58798758" uid="3842253" user="NKA_import">
		<tag k="name" v="Liland" />
		<tag k="place" v="farm" />
		<tag k="ssr:stedsnr" v="712" />
		<tag k="ssr:type" v="gard" />
	</node>
	<node id="5605179541" lat="58.6325778" lon="6.7919972" version="1" timestamp="2018-05-08T19:48:47Z" changeset="58798758" uid="3842253" user="NKA_import">
		<tag k="historic" v="shieling" />
		<tag k="name" v="Krosstjødnstølen" />
		<tag k="place" v="locality" />
		<tag k="ssr:stedsnr" v="589127" />
		<tag k="ssr:type" v="gammelBosettingsplass" />
	</node>
	<node id="5605179542" lat="58.7670833" lon="6.82595" version="1" timestamp="2018-05-08T19:48:47Z" changeset="58798758" uid="3842253" user="NKA_import">
		<tag k="historic" v="shieling" />
		<tag k="name" v="Romestøl" />
		<tag k="place" v="locality" />
		<tag k="ssr:stedsnr" v="954729" />
		<tag k="ssr:type" v="gammelBosettingsplass" />
	</node>
	<node id="5605179543" lat="58.740625" lon="6.8668639" version="1" timestamp="2018-05-08T19:48:47Z" changeset="58798758" uid="3842253" user="NKA_import">
		<tag k="historic" v="shieling" />
		<tag k="name" v="Leidestøl" />
		<tag k="place" v="locality" />
		<tag k="ssr:stedsnr" v="771730" />
		<tag k="ssr:type" v="gammelBosettingsplass" />
	</node>
	<node id="5605179544" lat="58.6257083" lon="6.7814222" version="1" timestamp="2018-05-08T19:48:47Z" changeset="58798758" uid="3842253" user="NKA_import">
		<tag k="historic" v="shieling" />
		<tag k="name" v="Padlestøl" />
		<tag k="place" v="locality" />
		<tag k="ssr:stedsnr" v="164117" />
		<tag k="ssr:type" v="byggForJordbrukFiskeOgFangst" />
	</node>
	<node id="5605179545" lat="58.8105056" lon="6.7699306" version="1" timestamp="2018-05-08T19:48:47Z" changeset="58798758" uid="3842253" user="NKA_import">
		<tag k="alt_name" v="Øyna" />
		<tag k="name" v="Øyne" />
		<tag k="place" v="farm" />
		<tag k="ssr:stedsnr" v="607068" />
		<tag k="ssr:type" v="bruk" />
	</node>
	<node id="5605179546" lat="58.8382389" lon="6.6908861" version="1" timestamp="2018-05-08T19:48:47Z" changeset="58798758" uid="3842253" user="NKA_import">
		<tag k="historic" v="shieling" />
		<tag k="name" v="Heimrestøl" />
		<tag k="place" v="locality" />
		<tag k="ssr:stedsnr" v="911895" />
		<tag k="ssr:type" v="seterStøl" />
	</node>
	<node id="5605179547" lat="58.8472333" lon="6.8614055" version="1" timestamp="2018-05-08T19:48:47Z" changeset="58798758" uid="3842253" user="NKA_import">
		<tag k="alt_name" v="Kaldebekk" />
		<tag k="historic" v="shieling" />
		<tag k="name" v="Kallebekk" />
		<tag k="place" v="locality" />
		<tag k="ssr:stedsnr" v="911901" />
		<tag k="ssr:type" v="seterStøl" />
	</node>
	<node id="5605179548" lat="58.7472778" lon="6.6689167" version="1" timestamp="2018-05-08T19:48:47Z" changeset="58798758" uid="3842253" user="NKA_import">
		<tag k="historic" v="shieling" />
		<tag k="name" v="Ljosevasstøl" />
		<tag k="place" v="locality" />
		<tag k="ssr:stedsnr" v="650746" />
		<tag k="ssr:type" v="gammelBosettingsplass" />
	</node>
	<node id="5605179549" lat="58.8530139" lon="6.7384944" version="1" timestamp="2018-05-08T19:48:47Z" changeset="58798758" uid="3842253" user="NKA_import">
		<tag k="alt_name" v="Rasstøl" />
		<tag k="historic" v="shieling" />
		<tag k="name" v="Radestøl" />
		<tag k="place" v="locality" />
		<tag k="ssr:stedsnr" v="936" />
		<tag k="ssr:type" v="seterStøl" />
	</node>
	<node id="5605179550" lat="58.8327139" lon="6.7879444" version="1" timestamp="2018-05-08T19:48:48Z" changeset="58798758" uid="3842253" user="NKA_import">
		<tag k="name" v="Torhildsløa" />
		<tag k="place" v="locality" />
		<tag k="ssr:stedsnr" v="529497" />
		<tag k="ssr:type" v="byggForJordbrukFiskeOgFangst" />
	</node>
	<node id="5605179551" lat="58.9314" lon="6.96475" version="1" timestamp="2018-05-08T19:48:48Z" changeset="58798758" uid="3842253" user="NKA_import">
		<tag k="historic" v="shieling" />
		<tag k="name" v="Finnstøl" />
		<tag k="place" v="locality" />
		<tag k="ssr:stedsnr" v="911931" />
		<tag k="ssr:type" v="seterStøl" />
	</node>
	<node id="5605179553" lat="58.9281417" lon="7.0869555" version="1" timestamp="2018-05-08T19:48:48Z" changeset="58798758" uid="3842253" user="NKA_import">
		<tag k="name" v="Hegrefosslega" />
		<tag k="place" v="locality" />
		<tag k="ssr:stedsnr" v="607193" />
		<tag k="ssr:type" v="byggForJordbrukFiskeOgFangst" />
	</node>
	<node id="5605179554" lat="58.9043139" lon="6.7683083" version="1" timestamp="2018-05-08T19:48:48Z" changeset="58798758" uid="3842253" user="NKA_import">
		<tag k="alt_name" v="Gravasstøl" />
		<tag k="historic" v="shieling" />
		<tag k="name" v="Gravasstølen" />
		<tag k="place" v="locality" />
		<tag k="ssr:stedsnr" v="426986" />
		<tag k="ssr:type" v="seterStøl" />
	</node>
	<node id="5605179555" lat="58.7050389" lon="6.6940167" version="1" timestamp="2018-05-08T19:48:48Z" changeset="58798758" uid="3842253" user="NKA_import">
		<tag k="historic" v="shieling" />
		<tag k="name" v="Stegestøl" />
		<tag k="place" v="isolated_dwelling" />
		<tag k="ssr:stedsnr" v="788572" />
		<tag k="ssr:type" v="fritidsbolig" />
	</node>
	<node id="5605179556" lat="58.9026694" lon="6.809675" version="1" timestamp="2018-05-08T19:48:48Z" changeset="58798758" uid="3842253" user="NKA_import">
		<tag k="alt_name" v="Skardsstøl" />
		<tag k="historic" v="shieling" />
		<tag k="name" v="Skarstøl" />
		<tag k="place" v="locality" />
		<tag k="ssr:stedsnr" v="426988" />
		<tag k="ssr:type" v="seterStøl" />
	</node>
	<node id="5605179557" lat="58.9065694" lon="6.9860444" version="1" timestamp="2018-05-08T19:48:48Z" changeset="58798758" uid="3842253" user="NKA_import">
		<tag k="historic" v="shieling" />
		<tag k="name" v="Krostøl" />
		<tag k="place" v="locality" />
		<tag k="ssr:stedsnr" v="607219" />
		<tag k="ssr:type" v="seterStøl" />
	</node>
	<node id="5605179558" lat="58.8252389" lon="6.7675639" version="1" timestamp="2018-05-08T19:48:48Z" changeset="58798758" uid="3842253" user="NKA_import">
		<tag k="historic" v="shieling" />
		<tag k="name" v="Storelistøl" />
		<tag k="place" v="isolated_dwelling" />
		<tag k="ssr:stedsnr" v="1128" />
		<tag k="ssr:type" v="fritidsbolig" />
	</node>
	<node id="5605179559" lat="58.5684972" lon="6.6168278" version="1" timestamp="2018-05-08T19:48:48Z" changeset="58798758" uid="3842253" user="NKA_import">
		<tag k="historic" v="shieling" />
		<tag k="name" v="Leisvollstølen" />
		<tag k="place" v="locality" />
		<tag k="ssr:stedsnr" v="788682" />
		<tag k="ssr:type" v="eiendom" />
	</node>
	<node id="5605179560" lat="58.7368472" lon="6.6776778" version="1" timestamp="2018-05-08T19:48:48Z" changeset="58798758" uid="3842253" user="NKA_import">
		<tag k="historic" v="shieling" />
		<tag k="name" v="Nyestøl" />
		<tag k="place" v="locality" />
		<tag k="ssr:stedsnr" v="589229" />
		<tag k="ssr:type" v="gammelBosettingsplass" />
	</node>
	<node id="5605179561" lat="58.690525" lon="6.7237917" version="1" timestamp="2018-05-08T19:48:49Z" changeset="58798758" uid="3842253" user="NKA_import">
		<tag k="alt_name" v="Rekevik" />
		<tag k="name" v="Regevik" />
		<tag k="place" v="farm" />
		<tag k="ssr:stedsnr" v="182566" />
		<tag k="ssr:type" v="bruk" />
	</node>
	<node id="5605179562" lat="58.578638" lon="6.6841209" version="1" timestamp="2018-05-08T19:48:49Z" changeset="58798758" uid="3842253" user="NKA_import">
		<tag k="alt_name" v="Vidrak" />
		<tag k="name" v="Virak" />
		<tag k="place" v="hamlet" />
		<tag k="ssr:stedsnr" v="788690" />
		<tag k="ssr:type" v="grend" />
	</node>
	<node id="5605179563" lat="58.5722556" lon="6.6113556" version="1" timestamp="2018-05-08T19:48:49Z" changeset="58798758" uid="3842253" user="NKA_import">
		<tag k="alt_name" v="Gamlestølen" />
		<tag k="historic" v="shieling" />
		<tag k="name" v="Gamle stølen" />
		<tag k="place" v="isolated_dwelling" />
		<tag k="ssr:stedsnr" v="788691" />
		<tag k="ssr:type" v="fritidsbolig" />
	</node>
	<node id="5605179564" lat="58.6696556" lon="6.647925" version="1" timestamp="2018-05-08T19:48:49Z" changeset="58798758" uid="3842253" user="NKA_import">
		<tag k="name" v="Espevoll" />
		<tag k="place" v="farm" />
		<tag k="ssr:stedsnr" v="182625" />
		<tag k="ssr:type" v="bruk" />
	</node>
	<node id="5605179565" lat="58.798875" lon="6.8792778" version="1" timestamp="2018-05-08T19:48:49Z" changeset="58798758" uid="3842253" user="NKA_import">
		<tag k="alt_name" v="Andelii" />
		<tag k="name" v="Andeli" />
		<tag k="place" v="isolated_dwelling" />
		<tag k="ssr:stedsnr" v="789026" />
		<tag k="ssr:type" v="fritidsbolig" />
	</node>
	<node id="5605179566" lat="58.6642806" lon="6.6136583" version="1" timestamp="2018-05-08T19:48:49Z" changeset="58798758" uid="3842253" user="NKA_import">
		<tag k="name" v="Osen" />
		<tag k="place" v="farm" />
		<tag k="ssr:stedsnr" v="303622" />
		<tag k="ssr:type" v="gard" />
	</node>
	<node id="5605179567" lat="58.775125" lon="6.7181056" version="1" timestamp="2018-05-08T19:48:49Z" changeset="58798758" uid="3842253" user="NKA_import">
		<tag k="alt_name" v="Hellarstøl;Hellerstøl" />
		<tag k="historic" v="shieling" />
		<tag k="name" v="Hedlarstøl" />
		<tag k="old_name" v="Hedlerstøl" />
		<tag k="place" v="locality" />
		<tag k="ssr:stedsnr" v="789046" />
		<tag k="ssr:type" v="seterStøl" />
	</node>
	<node id="5605179568" lat="58.9146" lon="6.9850361" version="1" timestamp="2018-05-08T19:48:49Z" changeset="58798758" uid="3842253" user="NKA_import">
		<tag k="historic" v="shieling" />
		<tag k="name" v="Instestøl" />
		<tag k="place" v="locality" />
		<tag k="ssr:stedsnr" v="1226" />
		<tag k="ssr:type" v="seterStøl" />
	</node>
	<node id="5605179569" lat="58.5990694" lon="6.6104889" version="1" timestamp="2018-05-08T19:48:49Z" changeset="58798758" uid="3842253" user="NKA_import">
		<tag k="alt_name" v="Myra" />
		<tag k="name" v="Myran" />
		<tag k="place" v="isolated_dwelling" />
		<tag k="ssr:stedsnr" v="303671" />
		<tag k="ssr:type" v="fritidsbolig" />
	</node>
	<node id="5605179570" lat="58.5763389" lon="6.6593861" version="1" timestamp="2018-05-08T19:48:50Z" changeset="58798758" uid="3842253" user="NKA_import">
		<tag k="name" v="Skogestad" />
		<tag k="place" v="farm" />
		<tag k="ssr:stedsnr" v="303700" />
		<tag k="ssr:type" v="gard" />
	</node>
	<node id="5605179571" lat="58.6654972" lon="6.5501639" version="1" timestamp="2018-05-08T19:48:50Z" changeset="58798758" uid="3842253" user="NKA_import">
		<tag k="historic" v="shieling" />
		<tag k="name" v="Litlestølen" />
		<tag k="place" v="locality" />
		<tag k="ssr:stedsnr" v="467080" />
		<tag k="ssr:type" v="gammelBosettingsplass" />
	</node>
	<node id="5605179572" lat="58.6201389" lon="6.5827945" version="1" timestamp="2018-05-08T19:48:50Z" changeset="58798758" uid="3842253" user="NKA_import">
		<tag k="name" v="Sandhaughytta" />
		<tag k="place" v="isolated_dwelling" />
		<tag k="ssr:stedsnr" v="303832" />
		<tag k="ssr:type" v="fritidsbolig" />
	</node>
	<node id="5605179573" lat="58.6007222" lon="6.6097778" version="1" timestamp="2018-05-08T19:48:50Z" changeset="58798758" uid="3842253" user="NKA_import">
		<tag k="name" v="Myrberløa" />
		<tag k="place" v="locality" />
		<tag k="ssr:stedsnr" v="589323" />
		<tag k="ssr:type" v="gammelBosettingsplass" />
	</node>
	<node id="5605179574" lat="58.5972917" lon="6.6147278" version="1" timestamp="2018-05-08T19:48:50Z" changeset="58798758" uid="3842253" user="NKA_import">
		<tag k="historic" v="shieling" />
		<tag k="name" v="Botnestølen" />
		<tag k="place" v="locality" />
		<tag k="ssr:stedsnr" v="589332" />
		<tag k="ssr:type" v="byggForJordbrukFiskeOgFangst" />
	</node>
	<node id="5605179575" lat="58.8351611" lon="6.6793194" version="1" timestamp="2018-05-08T19:48:50Z" changeset="58798758" uid="3842253" user="NKA_import">
		<tag k="historic" v="shieling" />
		<tag k="name" v="Skreenordstøl" />
		<tag k="place" v="locality" />
		<tag k="ssr:stedsnr" v="469642" />
		<tag k="ssr:type" v="gammelBosettingsplass" />
	</node>
	<node id="5605179576" lat="58.7272333" lon="6.6145139" version="1" timestamp="2018-05-08T19:48:50Z" changeset="58798758" uid="3842253" user="NKA_import">
		<tag k="historic" v="shieling" />
		<tag k="name" v="Gamlestølen" />
		<tag k="place" v="locality" />
		<tag k="ssr:stedsnr" v="711510" />
		<tag k="ssr:type" v="gammelBosettingsplass" />
	</node>
	<node id="5605179577" lat="58.9537833" lon="6.821975" version="1" timestamp="2018-05-08T19:48:50Z" changeset="58798758" uid="3842253" user="NKA_import">
		<tag k="historic" v="shieling" />
		<tag k="name" v="Åteigen" />
		<tag k="place" v="locality" />
		<tag k="ssr:stedsnr" v="1787" />
		<tag k="ssr:type" v="seterStøl" />
	</node>
	<node id="5605179578" lat="58.8600056" lon="6.867475" version="1" timestamp="2018-05-08T19:48:50Z" changeset="58798758" uid="3842253" user="NKA_import">
		<tag k="historic" v="shieling" />
		<tag k="name" v="Myrstøl" />
		<tag k="place" v="locality" />
		<tag k="ssr:stedsnr" v="182915" />
		<tag k="ssr:type" v="seterStøl" />
	</node>
	<node id="5605179579" lat="58.9056083" lon="6.9264305" version="1" timestamp="2018-05-08T19:48:50Z" changeset="58798758" uid="3842253" user="NKA_import">
		<tag k="name" v="Litlaløa" />
		<tag k="place" v="locality" />
		<tag k="ssr:stedsnr" v="529628" />
		<tag k="ssr:type" v="byggForJordbrukFiskeOgFangst" />
	</node>
	<node id="5605179580" lat="58.9426667" lon="6.8348639" version="1" timestamp="2018-05-08T19:48:50Z" changeset="58798758" uid="3842253" user="NKA_import">
		<tag k="name" v="Grosmebakken" />
		<tag k="place" v="locality" />
		<tag k="ssr:stedsnr" v="44733" />
		<tag k="ssr:type" v="byggForJordbrukFiskeOgFangst" />
	</node>
	<node id="5605179581" lat="58.5859333" lon="6.755925" version="1" timestamp="2018-05-08T19:48:50Z" changeset="58798758" uid="3842253" user="NKA_import">
		<tag k="historic" v="shieling" />
		<tag k="name" v="Svartholstøl" />
		<tag k="place" v="locality" />
		<tag k="ssr:stedsnr" v="467186" />
		<tag k="ssr:type" v="byggForJordbrukFiskeOgFangst" />
	</node>
	<node id="5605179582" lat="58.9018194" lon="6.6940528" version="1" timestamp="2018-05-08T19:48:51Z" changeset="58798758" uid="3842253" user="NKA_import">
		<tag k="historic" v="shieling" />
		<tag k="name" v="Heimrestøl" />
		<tag k="place" v="locality" />
		<tag k="ssr:stedsnr" v="954941" />
		<tag k="ssr:type" v="gammelBosettingsplass" />
	</node>
	<node id="5605179583" lat="58.8613051" lon="6.7089821" version="2" timestamp="2020-07-27T19:41:00Z" changeset="88582986" uid="8764847" user="lklende">
		<tag k="historic" v="shieling" />
		<tag k="name" v="Smogestøl" />
		<tag k="place" v="locality" />
		<tag k="ssr:stedsnr" v="954979" />
		<tag k="ssr:type" v="byggForJordbrukFiskeOgFangst" />
	</node>
	<node id="5605179584" lat="58.8264361" lon="6.8253806" version="1" timestamp="2018-05-08T19:48:51Z" changeset="58798758" uid="3842253" user="NKA_import">
		<tag k="historic" v="shieling" />
		<tag k="name" v="Tverrfjelldalstølen" />
		<tag k="place" v="locality" />
		<tag k="ssr:stedsnr" v="44753" />
		<tag k="ssr:type" v="gammelBosettingsplass" />
	</node>
	<node id="5605179585" lat="58.9031111" lon="6.9239389" version="1" timestamp="2018-05-08T19:48:51Z" changeset="58798758" uid="3842253" user="NKA_import">
		<tag k="name" v="Spekeløa" />
		<tag k="place" v="locality" />
		<tag k="ssr:stedsnr" v="226661" />
		<tag k="ssr:type" v="gammelBosettingsplass" />
	</node>
	<node id="5605179586" lat="58.8573361" lon="6.8575111" version="1" timestamp="2018-05-08T19:48:51Z" changeset="58798758" uid="3842253" user="NKA_import">
		<tag k="historic" v="shieling" />
		<tag k="name" v="Midtstøl" />
		<tag k="place" v="locality" />
		<tag k="ssr:stedsnr" v="485928" />
		<tag k="ssr:type" v="seterStøl" />
	</node>
	<node id="5605179587" lat="58.6954972" lon="6.6387917" version="1" timestamp="2018-05-08T19:48:51Z" changeset="58798758" uid="3842253" user="NKA_import">
		<tag k="alt_name" v="Kveindalstølen" />
		<tag k="historic" v="shieling" />
		<tag k="name" v="Kveindals-støl" />
		<tag k="place" v="isolated_dwelling" />
		<tag k="ssr:stedsnr" v="789564" />
		<tag k="ssr:type" v="fritidsbolig" />
	</node>
	<node id="5605179588" lat="58.5899667" lon="6.7568139" version="1" timestamp="2018-05-08T19:48:51Z" changeset="58798758" uid="3842253" user="NKA_import">
		<tag k="historic" v="shieling" />
		<tag k="name" v="Indrestøl" />
		<tag k="place" v="locality" />
		<tag k="ssr:stedsnr" v="467357" />
		<tag k="ssr:type" v="gammelBosettingsplass" />
	</node>
	<node id="5605179589" lat="59.0753889" lon="7.1060583" version="1" timestamp="2018-05-08T19:48:51Z" changeset="58798758" uid="3842253" user="NKA_import">
		<tag k="name" v="Botnsfjell" />
		<tag k="place" v="locality" />
		<tag k="ssr:stedsnr" v="1929" />
		<tag k="ssr:type" v="byggForJordbrukFiskeOgFangst" />
	</node>
	<node id="5605179590" lat="58.6048722" lon="6.8072583" version="1" timestamp="2018-05-08T19:48:51Z" changeset="58798758" uid="3842253" user="NKA_import">
		<tag k="name" v="Botnen" />
		<tag k="place" v="locality" />
		<tag k="ssr:stedsnr" v="953008" />
		<tag k="ssr:type" v="byggForJordbrukFiskeOgFangst" />
	</node>
	<node id="5605179591" lat="58.8011389" lon="6.9402444" version="1" timestamp="2018-05-08T19:48:51Z" changeset="58798758" uid="3842253" user="NKA_import">
		<tag k="alt_name" v="Kvævane" />
		<tag k="name" v="Kvævan" />
		<tag k="place" v="isolated_dwelling" />
		<tag k="ssr:stedsnr" v="183032" />
		<tag k="ssr:type" v="fritidsbolig" />
	</node>
	<node id="5605179592" lat="58.7838194" lon="6.7205167" version="1" timestamp="2018-05-08T19:48:51Z" changeset="58798758" uid="3842253" user="NKA_import">
		<tag k="historic" v="shieling" />
		<tag k="name" v="Ytrestøl" />
		<tag k="old_name" v="Ytrestølen;Ytrestøylen" />
		<tag k="place" v="locality" />
		<tag k="ssr:stedsnr" v="183041" />
		<tag k="ssr:type" v="seterStøl" />
	</node>
	<node id="5605179593" lat="58.8491472" lon="6.8483889" version="1" timestamp="2018-05-08T19:48:52Z" changeset="58798758" uid="3842253" user="NKA_import">
		<tag k="historic" v="shieling" />
		<tag k="name" v="Vigestøl" />
		<tag k="place" v="locality" />
		<tag k="ssr:stedsnr" v="44794" />
		<tag k="ssr:type" v="byggForJordbrukFiskeOgFangst" />
	</node>
	<node id="5605179594" lat="58.6201667" lon="6.781375" version="1" timestamp="2018-05-08T19:48:52Z" changeset="58798758" uid="3842253" user="NKA_import">
		<tag k="historic" v="shieling" />
		<tag k="name" v="Stemstøl" />
		<tag k="place" v="locality" />
		<tag k="ssr:stedsnr" v="953024" />
		<tag k="ssr:type" v="gammelBosettingsplass" />
	</node>
	<node id="5605179595" lat="59.1386073" lon="7.1717244" version="2" timestamp="2022-06-20T14:39:06Z" changeset="122627654" uid="3497659" user="NKA">
		<tag k="name" v="Urdalsbu" />
		<tag k="operator" v="Statskog" />
		<tag k="ref:kartverket:hytte" v="3221" />
		<tag k="ssr:stedsnr" v="979865" />
		<tag k="ssr:type" v="turisthytte" />
		<tag k="tourism" v="chalet" />
	</node>
	<node id="5605179596" lat="58.8022056" lon="6.7594333" version="1" timestamp="2018-05-08T19:48:52Z" changeset="58798758" uid="3842253" user="NKA_import">
		<tag k="name" v="Skeide" />
		<tag k="old_name" v="Skeie" />
		<tag k="place" v="farm" />
		<tag k="ssr:stedsnr" v="183082" />
		<tag k="ssr:type" v="gard" />
	</node>
	<node id="5605179597" lat="59.1179467" lon="7.1503162" version="2" timestamp="2022-06-20T14:39:06Z" changeset="122627654" uid="3497659" user="NKA">
		<tag k="name" v="Stussheller" />
		<tag k="operator" v="Statskog" />
		<tag k="ref:kartverket:hytte" v="3233" />
		<tag k="ssr:stedsnr" v="979878" />
		<tag k="ssr:type" v="turisthytte" />
		<tag k="tourism" v="chalet" />
	</node>
	<node id="5605179598" lat="58.8540583" lon="6.8882306" version="1" timestamp="2018-05-08T19:48:52Z" changeset="58798758" uid="3842253" user="NKA_import">
		<tag k="name" v="Toreli" />
		<tag k="place" v="locality" />
		<tag k="ssr:stedsnr" v="44852" />
		<tag k="ssr:type" v="byggForJordbrukFiskeOgFangst" />
	</node>
	<node id="5605179599" lat="59.064124" lon="7.1179124" version="2" timestamp="2022-06-20T14:39:06Z" changeset="122627654" uid="3497659" user="NKA">
		<tag k="name" v="Bossfjellhytta" />
		<tag k="operator" v="Statskog" />
		<tag k="ref:kartverket:hytte" v="3227" />
		<tag k="ssr:stedsnr" v="979879" />
		<tag k="ssr:type" v="turisthytte" />
		<tag k="tourism" v="chalet" />
	</node>
	<node id="5605179600" lat="59.0326655" lon="7.0639557" version="2" timestamp="2022-06-20T14:39:06Z" changeset="122627654" uid="3497659" user="NKA">
		<tag k="name" v="Skjerevasshytta" />
		<tag k="operator" v="Statskog" />
		<tag k="ref:kartverket:hytte" v="3228" />
		<tag k="ssr:stedsnr" v="979882" />
		<tag k="ssr:type" v="turisthytte" />
		<tag k="tourism" v="chalet" />
	</node>
	<node id="5605179601" lat="58.9038361" lon="6.883025" version="1" timestamp="2018-05-08T19:48:52Z" changeset="58798758" uid="3842253" user="NKA_import">
		<tag k="name" v="Nygård" />
		<tag k="place" v="farm" />
		<tag k="ssr:stedsnr" v="226712" />
		<tag k="ssr:type" v="bruk" />
	</node>
	<node id="5605179602" lat="58.6939573" lon="6.7308345" version="1" timestamp="2018-05-08T19:48:52Z" changeset="58798758" uid="3842253" user="NKA_import">
		<tag k="name" v="Seland" />
		<tag k="place" v="farm" />
		<tag k="ssr:stedsnr" v="485514" />
		<tag k="ssr:type" v="gard" />
	</node>
	<node id="5605179603" lat="59.0257069" lon="7.0835202" version="2" timestamp="2022-06-20T14:39:06Z" changeset="122627654" uid="3497659" user="NKA">
		<tag k="name" v="Øyarvassbu" />
		<tag k="operator" v="Statskog" />
		<tag k="ref:kartverket:hytte" v="3234" />
		<tag k="ssr:stedsnr" v="979884" />
		<tag k="ssr:type" v="turisthytte" />
		<tag k="tourism" v="chalet" />
	</node>
	<node id="5605179604" lat="59.001325" lon="6.9062556" version="1" timestamp="2018-05-08T19:48:52Z" changeset="58798758" uid="3842253" user="NKA_import">
		<tag k="name" v="Sirekrok" />
		<tag k="place" v="farm" />
		<tag k="ssr:stedsnr" v="608791" />
		<tag k="ssr:type" v="bruk" />
	</node>
	<node id="5605179605" lat="59.0077861" lon="7.1207956" version="2" timestamp="2022-06-20T14:39:06Z" changeset="122627654" uid="3497659" user="NKA">
		<tag k="name" v="Sigurdsheller" />
		<tag k="ref:kartverket:hytte" v="5527" />
		<tag k="ssr:stedsnr" v="979889" />
		<tag k="ssr:type" v="turisthytte" />
		<tag k="tourism" v="chalet" />
	</node>
	<node id="5605179606" lat="58.70265" lon="6.6610944" version="1" timestamp="2018-05-08T19:48:53Z" changeset="58798758" uid="3842253" user="NKA_import">
		<tag k="alt_name" v="Einarstølen" />
		<tag k="historic" v="shieling" />
		<tag k="name" v="Einarstøl" />
		<tag k="place" v="isolated_dwelling" />
		<tag k="ssr:stedsnr" v="485534" />
		<tag k="ssr:type" v="fritidsbolig" />
	</node>
	<node id="5605179607" lat="58.6702667" lon="6.8256056" version="1" timestamp="2018-05-08T19:48:53Z" changeset="58798758" uid="3842253" user="NKA_import">
		<tag k="alt_name" v="Bakkestølen" />
		<tag k="historic" v="shieling" />
		<tag k="name" v="Bakkestøl" />
		<tag k="place" v="isolated_dwelling" />
		<tag k="ssr:stedsnr" v="485548" />
		<tag k="ssr:type" v="fritidsbolig" />
	</node>
	<node id="5605179608" lat="58.8772083" lon="7.0237111" version="1" timestamp="2018-05-08T19:48:53Z" changeset="58798758" uid="3842253" user="NKA_import">
		<tag k="historic" v="shieling" />
		<tag k="name" v="Mjåvasstøl" />
		<tag k="place" v="locality" />
		<tag k="ssr:stedsnr" v="529702" />
		<tag k="ssr:type" v="byggForJordbrukFiskeOgFangst" />
	</node>
	<node id="5605179609" lat="58.9120181" lon="6.7234939" version="1" timestamp="2018-05-08T19:48:53Z" changeset="58798758" uid="3842253" user="NKA_import">
		<tag k="name" v="Valevatn" />
		<tag k="place" v="farm" />
		<tag k="ssr:stedsnr" v="979908" />
		<tag k="ssr:type" v="gard" />
	</node>
	<node id="5605179610" lat="58.7771366" lon="6.6149111" version="1" timestamp="2018-05-08T19:48:53Z" changeset="58798758" uid="3842253" user="NKA_import">
		<tag k="historic" v="shieling" />
		<tag k="name" v="Øyestøl" />
		<tag k="place" v="farm" />
		<tag k="ssr:stedsnr" v="979909" />
		<tag k="ssr:type" v="gard" />
	</node>
	<node id="5605179611" lat="58.8117139" lon="6.8008111" version="1" timestamp="2018-05-08T19:48:53Z" changeset="58798758" uid="3842253" user="NKA_import">
		<tag k="historic" v="shieling" />
		<tag k="name" v="Radestøl" />
		<tag k="place" v="locality" />
		<tag k="ssr:stedsnr" v="651436" />
		<tag k="ssr:type" v="gammelBosettingsplass" />
	</node>
	<node id="5605179612" lat="59.1093224" lon="6.9909813" version="2" timestamp="2022-06-20T14:39:06Z" changeset="122627654" uid="3497659" user="NKA">
		<tag k="alt_name" v="Oslega;Oselegå" />
		<tag k="name" v="Oselega" />
		<tag k="operator" v="Statskog" />
		<tag k="ref:kartverket:hytte" v="3232" />
		<tag k="ssr:stedsnr" v="608924" />
		<tag k="ssr:type" v="turisthytte" />
		<tag k="tourism" v="chalet" />
	</node>
	<node id="5605179613" lat="59.0085972" lon="7.1245" version="1" timestamp="2018-05-08T19:48:53Z" changeset="58798758" uid="3842253" user="NKA_import">
		<tag k="alt_name" v="Sigurdsheller" />
		<tag k="name" v="Sigurdshedlar" />
		<tag k="place" v="locality" />
		<tag k="ssr:stedsnr" v="608984" />
		<tag k="ssr:type" v="byggForJordbrukFiskeOgFangst" />
	</node>
	<node id="5605179614" lat="58.7451433" lon="6.7767952" version="1" timestamp="2018-05-08T19:48:53Z" changeset="58798758" uid="3842253" user="NKA_import">
		<tag k="name" v="Liland" />
		<tag k="place" v="hamlet" />
		<tag k="ssr:stedsnr" v="183460" />
		<tag k="ssr:type" v="gard" />
	</node>
	<node id="5605179615" lat="58.88835" lon="6.7232195" version="1" timestamp="2018-05-08T19:48:54Z" changeset="58798758" uid="3842253" user="NKA_import">
		<tag k="historic" v="shieling" />
		<tag k="name" v="Gravasstøl" />
		<tag k="place" v="locality" />
		<tag k="ssr:stedsnr" v="44953" />
		<tag k="ssr:type" v="gammelBosettingsplass" />
	</node>
	<node id="5605179616" lat="58.8090513" lon="6.7691926" version="2" timestamp="2020-08-08T21:24:38Z" changeset="89139252" uid="29680" user="Romwriter">
		<tag k="fixme" v="Is this a misplaced duplicate of node 5605178706 (locality &quot;Totland&quot; farther south)?" />
		<tag k="name" v="Totland" />
		<tag k="place" v="farm" />
		<tag k="ssr:stedsnr" v="979912" />
		<tag k="ssr:type" v="gard" />
	</node>
	<node id="5605179617" lat="58.7468861" lon="6.91465" version="1" timestamp="2018-05-08T19:48:54Z" changeset="58798758" uid="3842253" user="NKA_import">
		<tag k="alt_name" v="Atlakstølen" />
		<tag k="historic" v="shieling" />
		<tag k="name" v="Atlakstøl" />
		<tag k="place" v="isolated_dwelling" />
		<tag k="ssr:stedsnr" v="183475" />
		<tag k="ssr:type" v="fritidsbolig" />
	</node>
	<node id="5605179618" lat="58.7198429" lon="6.6536753" version="1" timestamp="2018-05-08T19:48:54Z" changeset="58798758" uid="3842253" user="NKA_import">
		<tag k="historic" v="shieling" />
		<tag k="name" v="Furustøl" />
		<tag k="place" v="farm" />
		<tag k="ssr:stedsnr" v="979913" />
		<tag k="ssr:type" v="gard" />
	</node>
	<node id="5605179619" lat="58.5908694" lon="6.6213639" version="1" timestamp="2018-05-08T19:48:54Z" changeset="58798758" uid="3842253" user="NKA_import">
		<tag k="alt_name" v="Heimrestølan" />
		<tag k="historic" v="shieling" />
		<tag k="name" v="Heimrestølen" />
		<tag k="place" v="locality" />
		<tag k="ssr:stedsnr" v="485619" />
		<tag k="ssr:type" v="eiendom" />
	</node>
	<node id="5605179620" lat="58.7174854" lon="6.6344957" version="1" timestamp="2018-05-08T19:48:54Z" changeset="58798758" uid="3842253" user="NKA_import">
		<tag k="name" v="Kulien" />
		<tag k="place" v="farm" />
		<tag k="ssr:stedsnr" v="979914" />
		<tag k="ssr:type" v="gard" />
	</node>
	<node id="5605180621" lat="58.5282972" lon="6.7810556" version="1" timestamp="2018-05-08T19:48:54Z" changeset="58798758" uid="3842253" user="NKA_import">
		<tag k="historic" v="shieling" />
		<tag k="name" v="Gamlestølen" />
		<tag k="place" v="locality" />
		<tag k="ssr:stedsnr" v="164607" />
		<tag k="ssr:type" v="byggForJordbrukFiskeOgFangst" />
	</node>
	<node id="5605180622" lat="58.6082333" lon="6.6697555" version="1" timestamp="2018-05-08T19:48:54Z" changeset="58798758" uid="3842253" user="NKA_import">
		<tag k="name" v="Visland" />
		<tag k="place" v="farm" />
		<tag k="ssr:stedsnr" v="485627" />
		<tag k="ssr:type" v="gard" />
	</node>
	<node id="5605180623" lat="58.7834972" lon="6.7979056" version="1" timestamp="2018-05-08T19:48:54Z" changeset="58798758" uid="3842253" user="NKA_import">
		<tag k="historic" v="shieling" />
		<tag k="name" v="Stølsrodalstølen" />
		<tag k="place" v="locality" />
		<tag k="ssr:stedsnr" v="953195" />
		<tag k="ssr:type" v="byggForJordbrukFiskeOgFangst" />
	</node>
	<node id="5605180624" lat="58.8865306" lon="6.9678861" version="1" timestamp="2018-05-08T19:48:54Z" changeset="58798758" uid="3842253" user="NKA_import">
		<tag k="historic" v="shieling" />
		<tag k="name" v="Raudåvasstøl" />
		<tag k="place" v="locality" />
		<tag k="ssr:stedsnr" v="468350" />
		<tag k="ssr:type" v="byggForJordbrukFiskeOgFangst" />
	</node>
	<node id="5605180625" lat="58.6403554" lon="6.6380419" version="1" timestamp="2018-05-08T19:48:54Z" changeset="58798758" uid="3842253" user="NKA_import">
		<tag k="name" v="Finsnesheien" />
		<tag k="place" v="farm" />
		<tag k="ssr:stedsnr" v="979915" />
		<tag k="ssr:type" v="gard" />
	</node>
	<node id="5605180626" lat="58.698009" lon="6.7851722" version="1" timestamp="2018-05-08T19:48:55Z" changeset="58798758" uid="3842253" user="NKA_import">
		<tag k="name" v="Skjørbu" />
		<tag k="place" v="farm" />
		<tag k="ssr:stedsnr" v="979921" />
		<tag k="ssr:type" v="gard" />
	</node>
	<node id="5605180627" lat="58.7227028" lon="6.6767194" version="1" timestamp="2018-05-08T19:48:55Z" changeset="58798758" uid="3842253" user="NKA_import">
		<tag k="alt_name" v="Mjåvasstølen" />
		<tag k="historic" v="shieling" />
		<tag k="name" v="Mjåvasstøl" />
		<tag k="place" v="locality" />
		<tag k="ssr:stedsnr" v="183522" />
		<tag k="ssr:type" v="eiendom" />
	</node>
	<node id="5605180628" lat="58.9097306" lon="6.8360333" version="1" timestamp="2018-05-08T19:48:55Z" changeset="58798758" uid="3842253" user="NKA_import">
		<tag k="historic" v="shieling" />
		<tag k="name" v="Søvrestøl" />
		<tag k="place" v="locality" />
		<tag k="ssr:stedsnr" v="893565" />
		<tag k="ssr:type" v="byggForJordbrukFiskeOgFangst" />
	</node>
	<node id="5605180629" lat="58.7661333" lon="6.5783639" version="1" timestamp="2018-05-08T19:48:55Z" changeset="58798758" uid="3842253" user="NKA_import">
		<tag k="historic" v="shieling" />
		<tag k="name" v="Øyestølstølen" />
		<tag k="place" v="locality" />
		<tag k="ssr:stedsnr" v="408156" />
		<tag k="ssr:type" v="gammelBosettingsplass" />
	</node>
	<node id="5605180630" lat="58.553889" lon="6.7129344" version="1" timestamp="2018-05-08T19:48:55Z" changeset="58798758" uid="3842253" user="NKA_import">
		<tag k="name" v="Strandeli" />
		<tag k="place" v="farm" />
		<tag k="ssr:stedsnr" v="979923" />
		<tag k="ssr:type" v="gard" />
	</node>
	<node id="5605180631" lat="58.5558333" lon="6.7858" version="1" timestamp="2018-05-08T19:48:55Z" changeset="58798758" uid="3842253" user="NKA_import">
		<tag k="alt_name" v="Ålstølen" />
		<tag k="historic" v="shieling" />
		<tag k="name" v="Ålstøl" />
		<tag k="place" v="isolated_dwelling" />
		<tag k="ssr:stedsnr" v="485681" />
		<tag k="ssr:type" v="fritidsbolig" />
	</node>
	<node id="5605180632" lat="58.7600361" lon="6.7033444" version="1" timestamp="2018-05-08T19:48:55Z" changeset="58798758" uid="3842253" user="NKA_import">
		<tag k="historic" v="shieling" />
		<tag k="name" v="Midtstøl" />
		<tag k="old_name" v="Midstøl" />
		<tag k="place" v="isolated_dwelling" />
		<tag k="ssr:stedsnr" v="61009" />
		<tag k="ssr:type" v="fritidsbolig" />
	</node>
	<node id="5605180633" lat="58.6597611" lon="6.4716222" version="1" timestamp="2018-05-08T19:48:55Z" changeset="58798758" uid="3842253" user="NKA_import">
		<tag k="alt_name" v="Nystølen" />
		<tag k="historic" v="shieling" />
		<tag k="name" v="Nystøl" />
		<tag k="place" v="locality" />
		<tag k="ssr:stedsnr" v="485760" />
		<tag k="ssr:type" v="eiendom" />
	</node>
	<node id="5605179552" lat="58.8881867" lon="6.8752918" version="2" timestamp="2021-03-22T18:52:04Z" changeset="101524085" uid="3497659" user="NKA" />
	<node id="8551199371" lat="58.8881863" lon="6.8752668" version="1" timestamp="2021-03-22T18:51:55Z" changeset="101524079" uid="3497659" user="NKA" />
	<node id="8551199372" lat="58.888227" lon="6.8752892" version="1" timestamp="2021-03-22T18:51:55Z" changeset="101524079" uid="3497659" user="NKA" />
	<node id="8551199373" lat="58.888229" lon="6.8754051" version="1" timestamp="2021-03-22T18:51:55Z" changeset="101524079" uid="3497659" user="NKA" />
	<node id="8551199374" lat="58.888061" lon="6.8754159" version="1" timestamp="2021-03-22T18:51:55Z" changeset="101524079" uid="3497659" user="NKA" />
	<node id="8551199375" lat="58.888059" lon="6.8753003" version="1" timestamp="2021-03-22T18:51:55Z" changeset="101524079" uid="3497659" user="NKA" />
	<node id="8551199376" lat="58.8880987" lon="6.8752977" version="1" timestamp="2021-03-22T18:51:55Z" changeset="101524079" uid="3497659" user="NKA" />
	<node id="8551199377" lat="58.8880983" lon="6.875272" version="1" timestamp="2021-03-22T18:51:55Z" changeset="101524079" uid="3497659" user="NKA" />
	<node id="8551199378" lat="58.8881002" lon="6.8752719" version="1" timestamp="2021-03-22T18:51:55Z" changeset="101524079" uid="3497659" user="NKA" />
	<node id="8551199379" lat="58.8880998" lon="6.8752541" version="1" timestamp="2021-03-22T18:51:55Z" changeset="101524079" uid="3497659" user="NKA" />
	<node id="8551199380" lat="58.8881478" lon="6.875251" version="1" timestamp="2021-03-22T18:51:55Z" changeset="101524079" uid="3497659" user="NKA" />
	<node id="8551199381" lat="58.8881482" lon="6.8752692" version="1" timestamp="2021-03-22T18:51:55Z" changeset="101524079" uid="3497659" user="NKA" />
	<way id="921018971" version="1" timestamp="2021-03-22T18:52:04Z" changeset="101524085" uid="3497659" user="NKA">
		<tag k="building" v="cabin" />
		<tag k="name" v="Folkehjelpshyttå" />
		<tag k="ref:bygningsnr" v="300303199" />
		<tag k="ssr:stedsnr" v="181663" />
		<tag k="ssr:type" v="vaktstasjonBeredsskapsbygning" />
		<nd ref="8551199381" />
		<nd ref="8551199380" />
		<nd ref="8551199379" />
		<nd ref="8551199378" />
		<nd ref="8551199377" />
		<nd ref="8551199376" />
		<nd ref="8551199375" />
		<nd ref="8551199374" />
		<nd ref="8551199373" />
		<nd ref="8551199372" />
		<nd ref="5605179552" />
		<nd ref="8551199371" />
		<nd ref="8551199381" />
	</way>
</osm>
