<?xml version="1.0" encoding="UTF-8"?>
<<<<<<< HEAD
<osm version="0.6" generator="osmapis">
	<node lat="65.88055277372499" lon="14.593933337322353" id="-7160">
		<tag k="historic" v="boundary_stone" />
		<tag k="man_made" v="cairn" />
		<tag k="name" v="Olfjellsrøysa" />
		<tag k="place" v="locality" />
		<tag k="ssr:stedsnr" v="170962" />
	</node>
	<node lat="65.90134006542382" lon="14.584387985080374" id="-8369">
=======
<osm generator="osmapis" version="0.6">
	<node id="-150308" lat="65.8805527737" lon="14.5939333373">
>>>>>>> e1d4bc35ff8a6074a6f2e91616a996b547c36f15
		<tag k="historic" v="boundary_stone" />
		<tag k="man_made" v="cairn" />
		<tag k="name" v="Olfjellsrøysa" />
		<tag k="old_name" v="Ohlfields Røset;Olfjeld Røs" />
		<tag k="place" v="locality" />
		<tag k="ssr:stedsnr" v="959953" />
	</node>
<<<<<<< HEAD
	<node lat="66.0708194425836" lon="13.774291673925044" id="-9031">
=======
	<node id="-150661" lat="66.0708194426" lon="13.7742916739">
>>>>>>> e1d4bc35ff8a6074a6f2e91616a996b547c36f15
		<tag k="fixme" v="specify shooting=range, clay_pigeon etc" />
		<tag k="leisure" v="pitch" />
		<tag k="name" v="Gjeskhaugen" />
		<tag k="sport" v="shooting" />
		<tag k="ssr:stedsnr" v="407447" />
	</node>
<<<<<<< HEAD
	<node lat="66.0417833349624" lon="14.545550003978878" id="-9052">
=======
	<node id="-150677" lat="66.041783335" lon="14.545550004">
>>>>>>> e1d4bc35ff8a6074a6f2e91616a996b547c36f15
		<tag k="historic" v="boundary_stone" />
		<tag k="man_made" v="cairn" />
		<tag k="name" v="Giediaprøysa" />
		<tag k="old_name" v="Giediap Røse;Giedjap røs" />
		<tag k="place" v="locality" />
		<tag k="ssr:stedsnr" v="414562" />
	</node>
<<<<<<< HEAD
	<node lat="65.95790551660151" lon="14.573086846946765" id="-9473">
		<tag k="historic" v="boundary_stone" />
		<tag k="man_made" v="cairn" />
		<tag k="name" v="Artfjellsrøysa" />
		<tag k="old_name" v="Ardofjeld Røs;Ardfields Røset" />
		<tag k="place" v="locality" />
		<tag k="ssr:stedsnr" v="656964" />
	</node>
=======
>>>>>>> e1d4bc35ff8a6074a6f2e91616a996b547c36f15
</osm>
