<?xml version="1.0" encoding="UTF-8"?>
<osm generator="osmapis" version="0.6">
	<node id="-654456" lat="66.1453333298" lon="13.8328222202">
		<tag k="name" v="Hemnes bygdetun" />
		<tag k="ssr:stedsnr" v="345952" />
		<tag k="tourism" v="attraction" />
	</node>
	<node id="-655694" lat="66.2257916676" lon="13.6118888885">
		<tag k="alt_name" v="Hemnes" />
		<tag k="amenity" v="place_of_worship" />
		<tag k="denomination" v="lutheran" />
		<tag k="name" v="Hemnes kirke" />
		<tag k="religion" v="christian" />
		<tag k="ssr:stedsnr" v="440125" />
	</node>
	<node id="-656370" lat="65.9055277783" lon="13.8306361109">
		<tag k="cemetery" v="grave" />
		<tag k="name" v="Kirkegården" />
		<tag k="place" v="locality" />
		<tag k="ssr:stedsnr" v="649643" />
	</node>
	<node id="-655184" lat="65.8504194492" lon="13.9712861025">
		<tag k="name" v="Kråmuren" />
		<tag k="place" v="locality" />
		<tag k="ssr:stedsnr" v="136182" />
	</node>
	<node id="-655822" lat="65.9082250037" lon="13.8032472178">
		<tag k="amenity" v="community_centre" />
		<tag k="name" v="Karihaug" />
		<tag k="ssr:stedsnr" v="468592" />
	</node>
	<node id="-654892" lat="66.0765972198" lon="13.8253916725">
		<tag k="amenity" v="place_of_worship" />
		<tag k="denomination" v="lutheran" />
		<tag k="name" v="Korgen kirke" />
		<tag k="religion" v="christian" />
		<tag k="ssr:stedsnr" v="16936" />
	</node>
	<node id="-654758" lat="65.9073192798" lon="14.3532046974">
		<tag k="amenity" v="place_of_worship" />
		<tag k="denomination" v="lutheran" />
		<tag k="name" v="Sundsli kapell" />
		<tag k="religion" v="christian" />
		<tag k="ssr:stedsnr" v="1072543" />
	</node>
	<node id="-654437" lat="65.9087749981" lon="13.8086888875">
		<tag k="alt_name" v="Bleikvassli kirke" />
		<tag k="amenity" v="place_of_worship" />
		<tag k="denomination" v="lutheran" />
		<tag k="name" v="Bleikvassli" />
		<tag k="religion" v="christian" />
		<tag k="ssr:stedsnr" v="319688" />
	</node>
</osm>
