<?xml version="1.0" encoding="UTF-8"?>
<<<<<<< HEAD
<osm version="0.6" generator="osmapis">
	<node lat="66.00053889061631" lon="14.366666673754064" id="-6844">
		<tag k="name" v="Corneliussenbreen" />
		<tag k="natural" v="glacier" />
		<tag k="ssr:stedsnr" v="15103" />
	</node>
	<node lat="66.22861666292107" lon="13.495008337907615" id="-6845">
		<tag k="name" v="Nepsteinen" />
		<tag k="natural" v="stone" />
		<tag k="ssr:stedsnr" v="15112" />
	</node>
	<node lat="66.15027777501406" lon="13.980622227783115" id="-6854">
		<tag k="name" v="Kvannmyra" />
		<tag k="natural" v="wetland" />
		<tag k="ssr:stedsnr" v="15610" />
	</node>
	<node lat="66.22740833461305" lon="13.798172224096154" id="-6861">
		<tag k="name" v="Fuglmyra" />
=======
<osm generator="osmapis" version="0.6">
	<node id="-150016" lat="66.1459361114" lon="13.8044583404">
		<tag k="name" v="Trollauren" />
		<tag k="place" v="locality" />
		<tag k="ssr:stedsnr" v="43891" />
	</node>
	<node id="-148991" lat="65.9030638895" lon="14.4480472321">
		<tag k="name" v="Sandbuktmyra" />
		<tag k="natural" v="wetland" />
		<tag k="ssr:stedsnr" v="482139" />
	</node>
	<node id="-151037" lat="66.1000527747" lon="13.8283499962">
		<tag k="name" v="Skogmyra" />
		<tag k="natural" v="wetland" />
		<tag k="ssr:stedsnr" v="649845" />
	</node>
	<node id="-149499" lat="66.0641138921" lon="13.9883083376">
		<tag k="name" v="Holmen" />
		<tag k="place" v="locality" />
		<tag k="ssr:stedsnr" v="649931" />
	</node>
	<node id="-150010" lat="66.1134222214" lon="13.8002416573">
		<tag k="name" v="Bakklandet" />
		<tag k="place" v="locality" />
		<tag k="ssr:stedsnr" v="43859" />
	</node>
	<node id="-151032" lat="66.1467916683" lon="13.8667722262">
		<tag k="name" v="Penelaheimen" />
		<tag k="place" v="locality" />
		<tag k="ssr:stedsnr" v="649789" />
	</node>
	<node id="-148471" lat="66.0749083326" lon="13.8385527861">
		<tag k="name" v="Korgauren" />
		<tag k="place" v="locality" />
		<tag k="ssr:stedsnr" v="226663" />
	</node>
	<node id="-151030" lat="66.0832638886" lon="13.8457805542">
		<tag k="landuse" v="meadow" />
		<tag k="name" v="Nyfallenget" />
		<tag k="ssr:stedsnr" v="649750" />
	</node>
	<node id="-151029" lat="66.018113888" lon="13.8685">
		<tag k="name" v="Trongen" />
		<tag k="place" v="locality" />
		<tag k="ssr:stedsnr" v="649732" />
	</node>
	<node id="-150004" lat="66.0593944418" lon="13.80128612">
		<tag k="name" v="Harmyra" />
		<tag k="natural" v="wetland" />
		<tag k="ssr:stedsnr" v="43678" />
	</node>
	<node id="-150000" lat="66.2280805552" lon="13.7032583258">
		<tag k="name" v="Hevland" />
		<tag k="place" v="locality" />
		<tag k="ssr:stedsnr" v="43581" />
	</node>
	<node id="-148611" lat="66.1947083335" lon="13.8137166744">
		<tag k="name" v="Stormyra" />
		<tag k="natural" v="wetland" />
		<tag k="ssr:stedsnr" v="258742" />
	</node>
	<node id="-150013" lat="66.1562222183" lon="13.8890388778">
		<tag k="name" v="Føramyra" />
		<tag k="natural" v="wetland" />
		<tag k="ssr:stedsnr" v="43879" />
	</node>
	<node id="-148459" lat="65.9168499987" lon="13.8317194551">
		<tag k="name" v="Skitmyra" />
		<tag k="natural" v="wetland" />
		<tag k="ssr:stedsnr" v="225657" />
	</node>
	<node id="-151016" lat="66.0293638927" lon="13.8237805599">
		<tag k="name" v="Rypmyra" />
		<tag k="natural" v="wetland" />
		<tag k="ssr:stedsnr" v="649579" />
	</node>
	<node id="-151014" lat="66.0269583357" lon="13.8206055488">
		<tag k="name" v="Brennselmyra" />
		<tag k="natural" v="wetland" />
		<tag k="ssr:stedsnr" v="649573" />
	</node>
	<node id="-150501" lat="66.0761527781" lon="13.8323305539">
		<tag k="name" v="Korgauren" />
		<tag k="place" v="locality" />
		<tag k="ssr:stedsnr" v="346742" />
	</node>
	<node id="-151012" lat="66.0521111145" lon="13.7824944357">
		<tag k="landuse" v="quarry" />
		<tag k="name" v="Friluften" />
		<tag k="ssr:stedsnr" v="649551" />
	</node>
	<node id="-150499" lat="66.1276138863" lon="13.8670138875">
		<tag k="name" v="Grevenmyra" />
		<tag k="natural" v="wetland" />
		<tag k="ssr:stedsnr" v="346725" />
	</node>
	<node id="-150498" lat="66.1307861071" lon="13.8256305511">
		<tag k="landuse" v="meadow" />
		<tag k="name" v="Stormyrengan" />
		<tag k="ssr:stedsnr" v="346691" />
	</node>
	<node id="-148449" lat="66.030913889" lon="13.8264305557">
		<tag k="name" v="Kalvhaugmyra" />
>>>>>>> e1d4bc35ff8a6074a6f2e91616a996b547c36f15
		<tag k="natural" v="wetland" />
		<tag k="ssr:stedsnr" v="15709" />
	</node>
<<<<<<< HEAD
	<node lat="66.22940000332098" lon="13.817286111446847" id="-6862">
		<tag k="name" v="Raudskredan" />
		<tag k="natural" v="scree" />
		<tag k="ssr:stedsnr" v="15711" />
	</node>
	<node lat="66.22808055524656" lon="13.703258325833321" id="-6891">
		<tag k="name" v="Hevland" />
=======
	<node id="-149983" lat="66.0481722205" lon="14.0380305566">
		<tag k="name" v="Auren" />
>>>>>>> e1d4bc35ff8a6074a6f2e91616a996b547c36f15
		<tag k="place" v="locality" />
		<tag k="ssr:stedsnr" v="43581" />
	</node>
<<<<<<< HEAD
	<node lat="66.05939444183738" lon="13.801286120028017" id="-6896">
		<tag k="name" v="Harmyra" />
=======
	<node id="-148958" lat="66.1514444479" lon="13.9389694533">
		<tag k="name" v="Krokmyra" />
>>>>>>> e1d4bc35ff8a6074a6f2e91616a996b547c36f15
		<tag k="natural" v="wetland" />
		<tag k="ssr:stedsnr" v="43678" />
	</node>
<<<<<<< HEAD
	<node lat="66.04752777876881" lon="13.74899721761114" id="-6901">
		<tag k="name" v="Katthansjorda" />
		<tag k="place" v="locality" />
		<tag k="ssr:stedsnr" v="238232" />
	</node>
	<node lat="66.04049444810919" lon="13.758127778549202" id="-6902">
		<tag k="name" v="Kåremyra" />
=======
	<node id="-149469" lat="65.891863892" lon="14.074649996">
		<tag k="name" v="Hestmyra" />
>>>>>>> e1d4bc35ff8a6074a6f2e91616a996b547c36f15
		<tag k="natural" v="wetland" />
		<tag k="ssr:stedsnr" v="238234" />
	</node>
<<<<<<< HEAD
	<node lat="65.98938055823135" lon="13.774466670074368" id="-6910">
		<tag k="name" v="Reinhagenget" />
		<tag k="place" v="locality" />
		<tag k="ssr:stedsnr" v="56176" />
	</node>
	<node lat="65.90737777665728" lon="14.212647223499236" id="-6922">
		<tag k="name" v="Våtmyra" />
=======
	<node id="-148986" lat="66.0129944411" lon="13.7528083375">
		<tag k="name" v="Lifjellenget" />
		<tag k="natural" v="wetland" />
		<tag k="ssr:stedsnr" v="481239" />
	</node>
	<node id="-148954" lat="66.178666667" lon="13.4620055516">
		<tag k="name" v="Stormyra" />
>>>>>>> e1d4bc35ff8a6074a6f2e91616a996b547c36f15
		<tag k="natural" v="wetland" />
		<tag k="ssr:stedsnr" v="240120" />
	</node>
<<<<<<< HEAD
	<node lat="66.16265833415288" lon="13.923352787775139" id="-6949">
		<tag k="name" v="Stormyra" />
=======
	<node id="-148953" lat="65.89755" lon="13.789194447">
		<tag k="name" v="Lamyran" />
>>>>>>> e1d4bc35ff8a6074a6f2e91616a996b547c36f15
		<tag k="natural" v="wetland" />
		<tag k="ssr:stedsnr" v="240417" />
	</node>
<<<<<<< HEAD
	<node lat="66.22113611259653" lon="13.87066943415656" id="-6955">
		<tag k="name" v="Starrmyra" />
		<tag k="natural" v="wetland" />
		<tag k="ssr:stedsnr" v="240472" />
	</node>
	<node lat="66.22115555443051" lon="13.533291666742107" id="-6958">
		<tag k="name" v="Vollan" />
=======
	<node id="-150999" lat="66.1900138861" lon="13.4674722315">
		<tag k="name" v="Revenget" />
>>>>>>> e1d4bc35ff8a6074a6f2e91616a996b547c36f15
		<tag k="place" v="locality" />
		<tag k="ssr:stedsnr" v="240784" />
	</node>
<<<<<<< HEAD
	<node lat="66.22185278045389" lon="13.54341111729081" id="-6959">
		<tag k="name" v="Veitmyra" />
=======
	<node id="-149462" lat="65.8789277788" lon="14.0764527819">
		<tag k="name" v="Brødstøkkmyra" />
>>>>>>> e1d4bc35ff8a6074a6f2e91616a996b547c36f15
		<tag k="natural" v="wetland" />
		<tag k="ssr:stedsnr" v="240857" />
	</node>
<<<<<<< HEAD
	<node lat="66.09091111407393" lon="13.703297229599691" id="-6973">
		<tag k="alt_name" v="Skrivarurda" />
		<tag k="name" v="Skrivarura" />
=======
	<node id="-148948" lat="66.1628527747" lon="13.7178027834">
		<tag k="name" v="Mellaura" />
>>>>>>> e1d4bc35ff8a6074a6f2e91616a996b547c36f15
		<tag k="natural" v="scree" />
		<tag k="ssr:stedsnr" v="76303" />
	</node>
<<<<<<< HEAD
	<node lat="66.121855557526" lon="13.737733335976271" id="-6978">
		<tag k="name" v="Slåttmyren" />
		<tag k="natural" v="wetland" />
		<tag k="ssr:stedsnr" v="76618" />
	</node>
	<node lat="66.03368055214244" lon="13.839372216728494" id="-6997">
		<tag k="name" v="Engesmyra" />
		<tag k="natural" v="wetland" />
		<tag k="ssr:stedsnr" v="76756" />
	</node>
	<node lat="66.18745555226674" lon="13.80947500549894" id="-7004">
		<tag k="name" v="skardmyran" />
		<tag k="natural" v="wetland" />
		<tag k="ssr:stedsnr" v="103789" />
	</node>
	<node lat="66.06014444853328" lon="13.75761389801125" id="-7007">
=======
	<node id="-151459" lat="66.1604416689" lon="13.8445777703">
		<tag k="name" v="Fares" />
		<tag k="place" v="locality" />
		<tag k="ssr:stedsnr" v="953857" />
	</node>
	<node id="-150520" lat="65.9222083319" lon="14.4277555482">
		<tag k="name" v="Sørmyra" />
		<tag k="natural" v="wetland" />
		<tag k="ssr:stedsnr" v="361097" />
	</node>
	<node id="-148940" lat="66.1554138864" lon="13.919466677">
>>>>>>> e1d4bc35ff8a6074a6f2e91616a996b547c36f15
		<tag k="landuse" v="meadow" />
		<tag k="name" v="Damenget" />
		<tag k="ssr:stedsnr" v="104398" />
	</node>
<<<<<<< HEAD
	<node lat="65.90491944700612" lon="13.863230556990823" id="-7009">
		<tag k="name" v="Mellamyra" />
		<tag k="natural" v="wetland" />
		<tag k="ssr:stedsnr" v="104590" />
	</node>
	<node lat="66.1026777790328" lon="13.798580553897933" id="-7013">
		<tag k="name" v="Vomma" />
		<tag k="natural" v="scree" />
		<tag k="place" v="locality" />
		<tag k="ssr:stedsnr" v="104825" />
	</node>
	<node lat="66.0293166677032" lon="13.893661109502982" id="-7014">
		<tag k="name" v="Mellaura" />
=======
	<node id="-148935" lat="65.9075749984" lon="13.8782194522">
		<tag k="name" v="Lillemyra" />
		<tag k="natural" v="wetland" />
		<tag k="ssr:stedsnr" v="468569" />
	</node>
	<node id="-150470" lat="66.1760194438" lon="14.1935638936">
		<tag k="name" v="Jervurda" />
>>>>>>> e1d4bc35ff8a6074a6f2e91616a996b547c36f15
		<tag k="natural" v="scree" />
		<tag k="ssr:stedsnr" v="104726" />
	</node>
<<<<<<< HEAD
	<node lat="66.21010277943434" lon="13.568063883759333" id="-7026">
		<tag k="landuse" v="meadow" />
		<tag k="name" v="Gammeljorda" />
		<tag k="ssr:stedsnr" v="118843" />
	</node>
	<node lat="66.12708333716819" lon="13.81680833393268" id="-7058">
		<tag k="name" v="Krokmyra" />
=======
	<node id="-151457" lat="66.1258694402" lon="13.8218611199">
		<tag k="landuse" v="meadow" />
		<tag k="name" v="Krokmyrenget" />
		<tag k="ssr:stedsnr" v="953839" />
	</node>
	<node id="-150518" lat="65.8245027743" lon="14.0888027861">
		<tag k="name" v="Gammelmyra" />
		<tag k="natural" v="wetland" />
		<tag k="ssr:stedsnr" v="361041" />
	</node>
	<node id="-151490" lat="66.1001916638" lon="13.778416656">
		<tag k="name" v="Tømmerstepmyran" />
>>>>>>> e1d4bc35ff8a6074a6f2e91616a996b547c36f15
		<tag k="natural" v="wetland" />
		<tag k="ssr:stedsnr" v="136615" />
	</node>
<<<<<<< HEAD
	<node lat="65.89625000004735" lon="13.823930552257586" id="-7102">
		<tag k="name" v="Stormyra" />
		<tag k="natural" v="wetland" />
		<tag k="ssr:stedsnr" v="258253" />
	</node>
	<node lat="66.194708333526" lon="13.813716674390148" id="-7119">
		<tag k="name" v="Stormyra" />
=======
	<node id="-149579" lat="65.9214638862" lon="13.8288861064">
		<tag k="name" v="Munnerstadmyra" />
		<tag k="natural" v="wetland" />
		<tag k="ssr:stedsnr" v="893567" />
	</node>
	<node id="-150464" lat="66.1887694463" lon="13.6293055472">
		<tag k="name" v="Sundsmarka" />
		<tag k="place" v="locality" />
		<tag k="ssr:stedsnr" v="319406" />
	</node>
	<node id="-151487" lat="65.891744443" lon="13.8402222308">
		<tag k="name" v="Sølvspennmyra" />
>>>>>>> e1d4bc35ff8a6074a6f2e91616a996b547c36f15
		<tag k="natural" v="wetland" />
		<tag k="ssr:stedsnr" v="258742" />
	</node>
<<<<<<< HEAD
	<node lat="66.06143888477712" lon="13.769408342032946" id="-7144">
		<tag k="landuse" v="meadow" />
		<tag k="name" v="Nordengan" />
		<tag k="ssr:stedsnr" v="164476" />
	</node>
	<node lat="66.05792777661482" lon="13.74198333819943" id="-7145">
		<tag k="name" v="Håkalimyrene" />
=======
	<node id="-150974" lat="65.9696722193" lon="14.1661138966">
		<tag k="name" v="Oksfjellbreen" />
		<tag k="natural" v="glacier" />
		<tag k="ssr:stedsnr" v="622634" />
	</node>
	<node id="-150973" lat="65.9689861134" lon="13.9371972194">
		<tag k="name" v="Femtilassmyra" />
>>>>>>> e1d4bc35ff8a6074a6f2e91616a996b547c36f15
		<tag k="natural" v="wetland" />
		<tag k="ssr:stedsnr" v="164477" />
	</node>
<<<<<<< HEAD
	<node lat="66.02939166679559" lon="13.820233340547114" id="-7148">
		<tag k="name" v="Starrmyra" />
=======
	<node id="-149436" lat="66.1621111124" lon="13.9194055465">
		<tag k="name" v="Karihaugmyra" />
>>>>>>> e1d4bc35ff8a6074a6f2e91616a996b547c36f15
		<tag k="natural" v="wetland" />
		<tag k="ssr:stedsnr" v="164610" />
	</node>
<<<<<<< HEAD
	<node lat="66.15750833103274" lon="13.86221389083026" id="-7151">
		<tag k="landuse" v="meadow" />
		<tag k="name" v="Kvitmyrenget" />
		<tag k="ssr:stedsnr" v="164868" />
	</node>
	<node lat="66.07872222273872" lon="13.808088883269187" id="-7155">
		<tag k="name" v="Markusmyra" />
		<tag k="natural" v="wetland" />
		<tag k="ssr:stedsnr" v="164767" />
	</node>
	<node lat="66.11819166718524" lon="13.751561105440611" id="-7167">
		<tag k="name" v="Prekstolmyra" />
=======
	<node id="-148922" lat="66.0661694446" lon="13.7551138979">
		<tag k="name" v="Andersorsa-myra" />
>>>>>>> e1d4bc35ff8a6074a6f2e91616a996b547c36f15
		<tag k="natural" v="wetland" />
		<tag k="ssr:stedsnr" v="179108" />
	</node>
<<<<<<< HEAD
	<node lat="65.9074722252946" lon="14.333483339727211" id="-7168">
		<tag k="name" v="Sandvikmyran" />
		<tag k="natural" v="wetland" />
		<tag k="ssr:stedsnr" v="179116" />
	</node>
	<node lat="66.20039444342963" lon="13.561327770328807" id="-7174">
		<tag k="alt_name" v="Høinesauren" />
		<tag k="name" v="Høynesauren" />
		<tag k="place" v="locality" />
		<tag k="ssr:stedsnr" v="179821" />
	</node>
	<node lat="66.03091388903009" lon="13.826430555665908" id="-7212">
		<tag k="name" v="Kalvhaugmyra" />
=======
	<node id="-151480" lat="66.1747333348" lon="13.8324249902">
		<tag k="name" v="Sjålihøla" />
>>>>>>> e1d4bc35ff8a6074a6f2e91616a996b547c36f15
		<tag k="natural" v="wetland" />
		<tag k="ssr:stedsnr" v="225586" />
	</node>
	<node lat="66.03948055774477" lon="13.813958328033932" id="-7213">
		<tag k="name" v="Trollbekkmyra" />
		<tag k="natural" v="wetland" />
		<tag k="ssr:stedsnr" v="225590" />
	</node>
<<<<<<< HEAD
	<node lat="65.91855555783657" lon="13.840541669623926" id="-7220">
		<tag k="name" v="Synken" />
=======
	<node id="-149492" lat="65.9090333367" lon="14.2570805614">
		<tag k="name" v="Kvalbukt Karimyra" />
		<tag k="natural" v="wetland" />
		<tag k="ssr:stedsnr" v="726104" />
	</node>
	<node id="-149429" lat="66.0176972233" lon="13.8117861169">
		<tag k="name" v="Furuskogen" />
>>>>>>> e1d4bc35ff8a6074a6f2e91616a996b547c36f15
		<tag k="place" v="locality" />
		<tag k="ssr:stedsnr" v="589719" />
	</node>
<<<<<<< HEAD
	<node lat="65.91684999874828" lon="13.831719455061178" id="-7224">
		<tag k="name" v="Skitmyra" />
=======
	<node id="-149150" lat="65.9858499999" lon="13.7615111076">
		<tag k="name" v="Storskogfjellenget" />
		<tag k="place" v="locality" />
		<tag k="ssr:stedsnr" v="299189" />
	</node>
	<node id="-149426" lat="66.1503861097" lon="13.8943805557">
		<tag k="name" v="Farmyra" />
>>>>>>> e1d4bc35ff8a6074a6f2e91616a996b547c36f15
		<tag k="natural" v="wetland" />
		<tag k="ssr:stedsnr" v="225657" />
	</node>
<<<<<<< HEAD
	<node lat="66.13342500170909" lon="13.836674997867608" id="-7226">
		<tag k="landuse" v="meadow" />
		<tag k="name" v="Innerenget" />
		<tag k="ssr:stedsnr" v="225684" />
	</node>
	<node lat="66.11827500323095" lon="13.828252787583931" id="-7228">
		<tag k="name" v="Bjynnskjøtet" />
		<tag k="place" v="locality" />
		<tag k="ssr:stedsnr" v="225837" />
	</node>
	<node lat="66.07584999707278" lon="14.473288894256493" id="-7259">
		<tag k="name" v="Storskogen" />
		<tag k="place" v="locality" />
		<tag k="ssr:stedsnr" v="258130" />
	</node>
	<node lat="65.9734027736146" lon="14.450780564353416" id="-7265">
		<tag k="name" v="Stormyra" />
		<tag k="natural" v="wetland" />
		<tag k="ssr:stedsnr" v="258098" />
	</node>
	<node lat="66.04555833746267" lon="14.053766665835974" id="-7289">
		<tag k="name" v="Bruåkeren" />
		<tag k="place" v="locality" />
		<tag k="ssr:stedsnr" v="285787" />
	</node>
	<node lat="66.01894444344387" lon="13.843944443637511" id="-7302">
=======
	<node id="-148400" lat="66.2286166629" lon="13.4950083379">
		<tag k="name" v="Nepsteinen" />
		<tag k="natural" v="stone" />
		<tag k="ssr:stedsnr" v="15112" />
	</node>
	<node id="-150959" lat="65.8674611098" lon="13.9466611065">
		<tag k="name" v="Innernesmyra" />
		<tag k="natural" v="wetland" />
		<tag k="ssr:stedsnr" v="622189" />
	</node>
	<node id="-148910" lat="66.117852781" lon="13.8530027852">
		<tag k="name" v="Falksteinen" />
		<tag k="natural" v="stone" />
		<tag k="ssr:stedsnr" v="286861" />
	</node>
	<node id="-149932" lat="66.2294000033" lon="13.8172861114">
		<tag k="name" v="Raudskredan" />
		<tag k="natural" v="scree" />
		<tag k="ssr:stedsnr" v="15711" />
	</node>
	<node id="-151467" lat="65.8728777793" lon="14.1310472241">
		<tag k="name" v="Vikmyra" />
		<tag k="natural" v="wetland" />
		<tag k="ssr:stedsnr" v="968083" />
	</node>
	<node id="-148906" lat="66.0189444434" lon="13.8439444436">
>>>>>>> e1d4bc35ff8a6074a6f2e91616a996b547c36f15
		<tag k="landuse" v="meadow" />
		<tag k="name" v="Lillebekkenget" />
		<tag k="ssr:stedsnr" v="286563" />
	</node>
<<<<<<< HEAD
	<node lat="65.90606666628288" lon="13.870105559966857" id="-7307">
		<tag k="name" v="Slåttmyra" />
		<tag k="natural" v="wetland" />
		<tag k="ssr:stedsnr" v="286629" />
	</node>
	<node lat="66.0600444407843" lon="13.798011119321043" id="-7311">
		<tag k="name" v="Endlausmyra" />
=======
	<node id="-149414" lat="66.0782166645" lon="13.8924944421">
		<tag k="name" v="Verhagen" />
		<tag k="place" v="locality" />
		<tag k="ssr:stedsnr" v="710666" />
	</node>
	<node id="-149413" lat="66.0785750001" lon="13.8847944504">
		<tag k="name" v="Gammelkalvhagen" />
		<tag k="place" v="locality" />
		<tag k="ssr:stedsnr" v="710665" />
	</node>
	<node id="-149411" lat="65.9066638863" lon="13.7914916654">
		<tag k="name" v="Kvannhølmyran" />
		<tag k="natural" v="wetland" />
		<tag k="ssr:stedsnr" v="710638" />
	</node>
	<node id="-151458" lat="66.1265361132" lon="13.8232500031">
		<tag k="name" v="Kartmyra" />
>>>>>>> e1d4bc35ff8a6074a6f2e91616a996b547c36f15
		<tag k="natural" v="wetland" />
		<tag k="ssr:stedsnr" v="286700" />
	</node>
<<<<<<< HEAD
	<node lat="66.0599472261658" lon="13.782975006794418" id="-7312">
		<tag k="landuse" v="meadow" />
		<tag k="name" v="Granlienget" />
		<tag k="ssr:stedsnr" v="286701" />
	</node>
	<node lat="66.0811444411623" lon="13.844424998791485" id="-7313">
		<tag k="name" v="Storolderskogen" />
		<tag k="place" v="locality" />
		<tag k="ssr:stedsnr" v="286781" />
	</node>
	<node lat="65.98584999991365" lon="13.761511107612291" id="-7319">
		<tag k="name" v="Storskogfjellenget" />
		<tag k="place" v="locality" />
		<tag k="ssr:stedsnr" v="299189" />
	</node>
	<node lat="65.89754999997874" lon="13.789194446989168" id="-7327">
		<tag k="name" v="Lamyran" />
=======
	<node id="-150945" lat="66.0126833295" lon="14.3583694354">
		<tag k="name" v="Charles Rabot-breen" />
		<tag k="natural" v="glacier" />
		<tag k="ssr:stedsnr" v="622068" />
	</node>
	<node id="-151455" lat="66.0718555553" lon="13.9545472144">
		<tag k="name" v="Pengåkeren" />
		<tag k="place" v="locality" />
		<tag k="ssr:stedsnr" v="953823" />
	</node>
	<node id="-149406" lat="65.9009916639" lon="13.7875611182">
		<tag k="name" v="Forsmyran" />
		<tag k="natural" v="wetland" />
		<tag k="ssr:stedsnr" v="710590" />
	</node>
	<node id="-149405" lat="66.0298194417" lon="13.8147500093">
		<tag k="name" v="Myrenglamyra" />
		<tag k="natural" v="wetland" />
		<tag k="ssr:stedsnr" v="710564" />
	</node>
	<node id="-149401" lat="65.9805833313" lon="13.7925500023">
		<tag k="name" v="Våtmyra" />
>>>>>>> e1d4bc35ff8a6074a6f2e91616a996b547c36f15
		<tag k="natural" v="wetland" />
		<tag k="ssr:stedsnr" v="300522" />
	</node>
<<<<<<< HEAD
	<node lat="66.16285277474998" lon="13.717802783404872" id="-7329">
		<tag k="name" v="Mellaura" />
		<tag k="natural" v="scree" />
		<tag k="ssr:stedsnr" v="300428" />
	</node>
	<node lat="66.1514444478509" lon="13.938969453278505" id="-7335">
		<tag k="name" v="Krokmyra" />
		<tag k="natural" v="wetland" />
		<tag k="ssr:stedsnr" v="301002" />
	</node>
	<node lat="66.18876944634818" lon="13.62930554717442" id="-7369">
		<tag k="name" v="Sundsmarka" />
		<tag k="place" v="locality" />
		<tag k="ssr:stedsnr" v="319406" />
	</node>
	<node lat="66.1760194438124" lon="14.19356389361656" id="-7373">
		<tag k="name" v="Jervurda" />
		<tag k="natural" v="scree" />
		<tag k="ssr:stedsnr" v="319539" />
	</node>
	<node lat="66.06616944463026" lon="13.755113897937362" id="-7388">
		<tag k="name" v="Andersorsa-myra" />
		<tag k="natural" v="wetland" />
		<tag k="ssr:stedsnr" v="468360" />
	</node>
	<node lat="66.18635833444131" lon="13.686308339523189" id="-7390">
		<tag k="name" v="Torvhesjemyra" />
		<tag k="natural" v="wetland" />
		<tag k="ssr:stedsnr" v="468435" />
	</node>
	<node lat="66.22614444160853" lon="13.676244450793929" id="-7392">
		<tag k="name" v="Mortenura" />
		<tag k="natural" v="scree" />
		<tag k="ssr:stedsnr" v="468444" />
	</node>
	<node lat="66.15541388639602" lon="13.919466676979727" id="-7400">
		<tag k="landuse" v="meadow" />
		<tag k="name" v="Dalaenget" />
		<tag k="ssr:stedsnr" v="468783" />
	</node>
	<node lat="66.22745000000145" lon="13.631622221287193" id="-7406">
		<tag k="name" v="Stormyra" />
		<tag k="natural" v="wetland" />
		<tag k="ssr:stedsnr" v="346418" />
	</node>
	<node lat="66.15186110837274" lon="13.870158326934567" id="-7410">
=======
	<node id="-150420" lat="66.0055083302" lon="14.2274833266">
		<tag k="name" v="Vestre Okstindbreen" />
		<tag k="natural" v="glacier" />
		<tag k="ssr:stedsnr" v="318062" />
	</node>
	<node id="-149571" lat="66.1831055524" lon="13.694422218">
		<tag k="name" v="Furustokkmyra" />
		<tag k="natural" v="wetland" />
		<tag k="ssr:stedsnr" v="893488" />
	</node>
	<node id="-149846" lat="66.03501389" lon="13.87799166">
		<tag k="name" v="Storurda" />
		<tag k="natural" v="scree" />
		<tag k="ssr:stedsnr" v="804758" />
	</node>
	<node id="-150414" lat="66.075538892" lon="13.9314611225">
		<tag k="name" v="Skolejorda" />
		<tag k="place" v="locality" />
		<tag k="ssr:stedsnr" v="301496" />
	</node>
	<node id="-148461" lat="66.1334250017" lon="13.8366749979">
		<tag k="landuse" v="meadow" />
		<tag k="name" v="Innerenget" />
		<tag k="ssr:stedsnr" v="225684" />
	</node>
	<node id="-151434" lat="66.0581777752" lon="14.0110222135">
		<tag k="name" v="Unnlendet" />
		<tag k="place" v="locality" />
		<tag k="ssr:stedsnr" v="952954" />
	</node>
	<node id="-151432" lat="66.0510611147" lon="14.0226750095">
>>>>>>> e1d4bc35ff8a6074a6f2e91616a996b547c36f15
		<tag k="landuse" v="meadow" />
		<tag k="name" v="Åslettenget" />
		<tag k="ssr:stedsnr" v="346762" />
	</node>
<<<<<<< HEAD
	<node lat="66.15372777723938" lon="13.872111106997485" id="-7411">
		<tag k="landuse" v="meadow" />
		<tag k="name" v="Brennselenget" />
		<tag k="ssr:stedsnr" v="346763" />
	</node>
	<node lat="66.01299444105324" lon="13.75280833751873" id="-7426">
		<tag k="name" v="Lifjellenget" />
=======
	<node id="-148870" lat="66.2218527805" lon="13.5434111173">
		<tag k="name" v="Veitmyra" />
>>>>>>> e1d4bc35ff8a6074a6f2e91616a996b547c36f15
		<tag k="natural" v="wetland" />
		<tag k="ssr:stedsnr" v="481239" />
	</node>
<<<<<<< HEAD
	<node lat="66.07921666872792" lon="14.333233328255107" id="-7433">
		<tag k="name" v="Gresfjellurda" />
		<tag k="natural" v="scree" />
		<tag k="ssr:stedsnr" v="379129" />
	</node>
	<node lat="66.18860833555952" lon="13.717052767950292" id="-7461">
		<tag k="name" v="Starrmyra" />
=======
	<node id="-150916" lat="66.1822749963" lon="13.5511861162">
		<tag k="name" v="Sørgranskogen" />
		<tag k="place" v="locality" />
		<tag k="ssr:stedsnr" v="621406" />
	</node>
	<node id="-149142" lat="66.0333361122" lon="13.7798999937">
		<tag k="name" v="Drivamyran" />
		<tag k="natural" v="wetland" />
		<tag k="ssr:stedsnr" v="421213" />
	</node>
	<node id="-149378" lat="66.0305166649" lon="14.0259916689">
		<tag k="name" v="Fagerlimyra" />
>>>>>>> e1d4bc35ff8a6074a6f2e91616a996b547c36f15
		<tag k="natural" v="wetland" />
		<tag k="ssr:stedsnr" v="379703" />
	</node>
<<<<<<< HEAD
	<node lat="65.90306388953326" lon="14.448047232061592" id="-7486">
		<tag k="name" v="Sandbuktmyra" />
		<tag k="natural" v="wetland" />
		<tag k="ssr:stedsnr" v="482139" />
	</node>
	<node lat="65.90013333095834" lon="13.773177771621297" id="-7492">
		<tag k="name" v="Storaven" />
=======
	<node id="-148715" lat="66.0455583375" lon="14.0537666658">
		<tag k="name" v="Bruåkeren" />
		<tag k="place" v="locality" />
		<tag k="ssr:stedsnr" v="285787" />
	</node>
	<node id="-151421" lat="66.0892694482" lon="13.8361722322">
		<tag k="name" v="Tronesmyra" />
>>>>>>> e1d4bc35ff8a6074a6f2e91616a996b547c36f15
		<tag k="natural" v="wetland" />
		<tag k="ssr:stedsnr" v="482200" />
	</node>
<<<<<<< HEAD
	<node lat="65.91214722289823" lon="14.285272222642778" id="-7509">
		<tag k="name" v="Kattbrevmyra" />
=======
	<node id="-150335" lat="66.2003944434" lon="13.5613277703">
		<tag k="alt_name" v="Høinesauren" />
		<tag k="name" v="Høynesauren" />
		<tag k="place" v="locality" />
		<tag k="ssr:stedsnr" v="179821" />
	</node>
	<node id="-149880" lat="66.1974388879" lon="13.4728444527">
		<tag k="name" v="Kartmyrkjerran" />
>>>>>>> e1d4bc35ff8a6074a6f2e91616a996b547c36f15
		<tag k="natural" v="wetland" />
		<tag k="ssr:stedsnr" v="483130" />
	</node>
<<<<<<< HEAD
	<node lat="65.88789721758202" lon="14.066850007076603" id="-7514">
		<tag k="name" v="Momyra" />
=======
	<node id="-148884" lat="65.89625" lon="13.8239305523">
		<tag k="name" v="Stormyra" />
		<tag k="natural" v="wetland" />
		<tag k="ssr:stedsnr" v="258253" />
	</node>
	<node id="-149364" lat="66.1710611073" lon="13.8536472156">
		<tag k="name" v="Tjønnmyra" />
>>>>>>> e1d4bc35ff8a6074a6f2e91616a996b547c36f15
		<tag k="natural" v="wetland" />
		<tag k="ssr:stedsnr" v="483103" />
	</node>
<<<<<<< HEAD
	<node lat="65.91779166460519" lon="14.4082416707463" id="-7515">
		<tag k="name" v="Langmyra" />
=======
	<node id="-149566" lat="66.2005611124" lon="13.655461103">
		<tag k="name" v="Stormyra" />
		<tag k="natural" v="wetland" />
		<tag k="ssr:stedsnr" v="893441" />
	</node>
	<node id="-148850" lat="66.1098722249" lon="13.7724861197">
		<tag k="name" v="Stormyra" />
>>>>>>> e1d4bc35ff8a6074a6f2e91616a996b547c36f15
		<tag k="natural" v="wetland" />
		<tag k="ssr:stedsnr" v="483106" />
	</node>
	<node lat="66.22737777384775" lon="13.611286107456671" id="-7518">
		<tag k="name" v="Rønningan" />
		<tag k="place" v="locality" />
		<tag k="ssr:stedsnr" v="406390" />
	</node>
	<node lat="66.18614444763507" lon="13.706649989611183" id="-7522">
		<tag k="name" v="Kalvhagen" />
		<tag k="place" v="locality" />
		<tag k="ssr:stedsnr" v="407511" />
	</node>
	<node lat="66.18523610887988" lon="13.699286115945341" id="-7524">
		<tag k="name" v="Hagen" />
		<tag k="place" v="locality" />
		<tag k="ssr:stedsnr" v="407516" />
	</node>
	<node lat="65.89172777782657" lon="13.7985750035195" id="-7550">
		<tag k="name" v="Vestermyran" />
		<tag k="natural" v="wetland" />
		<tag k="ssr:stedsnr" v="422524" />
	</node>
	<node lat="66.20192221888122" lon="13.806891655474345" id="-7590">
		<tag k="alt_name" v="Kleivura" />
		<tag k="name" v="Kleivurda" />
		<tag k="natural" v="scree" />
		<tag k="ssr:stedsnr" v="440699" />
	</node>
<<<<<<< HEAD
	<node lat="66.03536389040356" lon="13.834286101283066" id="-7595">
=======
	<node id="-148846" lat="66.0353638904" lon="13.8342861013">
>>>>>>> e1d4bc35ff8a6074a6f2e91616a996b547c36f15
		<tag k="name" v="Stormyra" />
		<tag k="natural" v="wetland" />
		<tag k="ssr:stedsnr" v="440749" />
	</node>
<<<<<<< HEAD
	<node lat="66.01904444047764" lon="13.853719453624969" id="-7611">
		<tag k="landuse" v="meadow" />
		<tag k="name" v="Storlandet" />
		<tag k="ssr:stedsnr" v="467728" />
	</node>
	<node lat="65.90757499837866" lon="13.878219452211225" id="-7616">
		<tag k="name" v="Lillemyra" />
=======
	<node id="-151405" lat="65.9317333348" lon="13.8481472312">
		<tag k="name" v="Fjellmyra" />
>>>>>>> e1d4bc35ff8a6074a6f2e91616a996b547c36f15
		<tag k="natural" v="wetland" />
		<tag k="ssr:stedsnr" v="468569" />
	</node>
<<<<<<< HEAD
	<node lat="66.0783888848424" lon="13.769538885548894" id="-7619">
		<tag k="name" v="Samuelmyra" />
		<tag k="natural" v="wetland" />
		<tag k="ssr:stedsnr" v="481007" />
	</node>
	<node lat="65.89811111085919" lon="13.797638884688483" id="-7626">
		<tag k="name" v="Krengelmyra" />
		<tag k="natural" v="wetland" />
		<tag k="ssr:stedsnr" v="482516" />
	</node>
	<node lat="65.90248055865735" lon="13.798794451729146" id="-7627">
		<tag k="name" v="Lillengmyra" />
=======
	<node id="-149050" lat="66.1886083356" lon="13.717052768">
		<tag k="name" v="Starrmyra" />
		<tag k="natural" v="wetland" />
		<tag k="ssr:stedsnr" v="379703" />
	</node>
	<node id="-148571" lat="66.0758499971" lon="14.4732888943">
		<tag k="name" v="Storskogen" />
		<tag k="place" v="locality" />
		<tag k="ssr:stedsnr" v="258130" />
	</node>
	<node id="-148625" lat="66.2309638846" lon="13.5475111187">
		<tag k="name" v="Enget" />
		<tag k="place" v="locality" />
		<tag k="ssr:stedsnr" v="118122" />
	</node>
	<node id="-150502" lat="66.1086638895" lon="13.8020777857">
		<tag k="name" v="Okshagen" />
		<tag k="place" v="locality" />
		<tag k="ssr:stedsnr" v="346830" />
	</node>
	<node id="-149345" lat="65.9384888873" lon="14.4296805521">
		<tag k="name" v="Litlmyra" />
>>>>>>> e1d4bc35ff8a6074a6f2e91616a996b547c36f15
		<tag k="natural" v="wetland" />
		<tag k="ssr:stedsnr" v="482517" />
	</node>
<<<<<<< HEAD
	<node lat="66.0624638863493" lon="13.933530550099292" id="-7691">
		<tag k="name" v="Myrene" />
		<tag k="natural" v="wetland" />
		<tag k="ssr:stedsnr" v="682969" />
	</node>
	<node lat="66.1815916658432" lon="13.953919434619962" id="-7711">
		<tag k="name" v="Steintrillar-urda" />
		<tag k="natural" v="scree" />
		<tag k="ssr:stedsnr" v="683497" />
	</node>
	<node lat="66.12155277680168" lon="13.811266673386015" id="-7715">
		<tag k="name" v="Mosemyra" />
=======
	<node id="-150879" lat="65.908988887" lon="14.484630555">
		<tag k="name" v="Stormyra" />
>>>>>>> e1d4bc35ff8a6074a6f2e91616a996b547c36f15
		<tag k="natural" v="wetland" />
		<tag k="ssr:stedsnr" v="683567" />
	</node>
<<<<<<< HEAD
	<node lat="66.01925555784892" lon="13.901047227805737" id="-7723">
		<tag k="name" v="Laurda" />
		<tag k="natural" v="scree" />
		<tag k="ssr:stedsnr" v="683774" />
	</node>
	<node lat="65.98058333127757" lon="13.792550002290852" id="-7729">
		<tag k="name" v="Våtmyra" />
=======
	<node id="-148453" lat="65.9185555578" lon="13.8405416696">
		<tag k="name" v="Synken" />
		<tag k="place" v="locality" />
		<tag k="ssr:stedsnr" v="225608" />
	</node>
	<node id="-149339" lat="65.8304055589" lon="14.0962333268">
		<tag k="alt_name" v="Joralsamyra" />
		<tag k="name" v="Jo-Larsamyra" />
>>>>>>> e1d4bc35ff8a6074a6f2e91616a996b547c36f15
		<tag k="natural" v="wetland" />
		<tag k="ssr:stedsnr" v="710550" />
	</node>
<<<<<<< HEAD
	<node lat="66.01916944876015" lon="13.86601388645507" id="-7744">
		<tag k="name" v="Furuskogjuta" />
		<tag k="place" v="locality" />
		<tag k="ssr:stedsnr" v="528712" />
	</node>
	<node lat="66.07378333199973" lon="13.832847227277174" id="-7748">
		<tag k="landuse" v="meadow" />
		<tag k="name" v="Finnenget" />
		<tag k="ssr:stedsnr" v="529624" />
	</node>
	<node lat="66.02981944167757" lon="13.814750009276686" id="-7751">
		<tag k="name" v="Myrenglamyra" />
=======
	<node id="-150871" lat="65.9405888857" lon="13.8056916649">
		<tag k="name" v="Hestmyra" />
>>>>>>> e1d4bc35ff8a6074a6f2e91616a996b547c36f15
		<tag k="natural" v="wetland" />
		<tag k="ssr:stedsnr" v="710564" />
	</node>
<<<<<<< HEAD
	<node lat="66.07689167061723" lon="13.737341659428564" id="-7754">
		<tag k="name" v="Heldikmyra" />
=======
	<node id="-150870" lat="66.0372305596" lon="13.7787444518">
		<tag k="name" v="Fjellenget" />
>>>>>>> e1d4bc35ff8a6074a6f2e91616a996b547c36f15
		<tag k="natural" v="wetland" />
		<tag k="ssr:stedsnr" v="542003" />
	</node>
<<<<<<< HEAD
	<node lat="66.03398333664771" lon="13.768461106359728" id="-7758">
=======
	<node id="-148537" lat="66.2211555544" lon="13.5332916667">
		<tag k="name" v="Vollan" />
		<tag k="place" v="locality" />
		<tag k="ssr:stedsnr" v="240784" />
	</node>
	<node id="-149330" lat="66.0339833366" lon="13.7684611064">
>>>>>>> e1d4bc35ff8a6074a6f2e91616a996b547c36f15
		<tag k="name" v="Vaffeldammen" />
		<tag k="natural" v="wetland" />
		<tag k="ssr:stedsnr" v="542214" />
	</node>
<<<<<<< HEAD
	<node lat="65.90445833618357" lon="14.466258343052182" id="-7768">
		<tag k="name" v="Øverlimyra" />
=======
	<node id="-149329" lat="66.0768916706" lon="13.7373416594">
		<tag k="name" v="Heldikmyra" />
>>>>>>> e1d4bc35ff8a6074a6f2e91616a996b547c36f15
		<tag k="natural" v="wetland" />
		<tag k="ssr:stedsnr" v="543183" />
	</node>
<<<<<<< HEAD
	<node lat="66.16619722145973" lon="13.738327776868983" id="-7772">
		<tag k="name" v="Fjellamarka" />
=======
	<node id="-150864" lat="66.1553666638" lon="13.857572211">
		<tag k="name" v="Rønningan" />
>>>>>>> e1d4bc35ff8a6074a6f2e91616a996b547c36f15
		<tag k="place" v="locality" />
		<tag k="ssr:stedsnr" v="543405" />
	</node>
<<<<<<< HEAD
	<node lat="66.13829722366988" lon="14.062102767195796" id="-7775">
		<tag k="name" v="Gammeljorda" />
=======
	<node id="-150862" lat="66.1531416697" lon="13.8399000097">
		<tag k="name" v="Bjerkaauren" />
>>>>>>> e1d4bc35ff8a6074a6f2e91616a996b547c36f15
		<tag k="place" v="locality" />
		<tag k="ssr:stedsnr" v="543483" />
	</node>
	<node lat="65.90666388625863" lon="13.791491665396329" id="-7779">
		<tag k="name" v="Kvannhølmyran" />
		<tag k="natural" v="wetland" />
		<tag k="ssr:stedsnr" v="710638" />
	</node>
	<node lat="65.9384888873141" lon="14.429680552090256" id="-7782">
		<tag k="name" v="Litlmyra" />
		<tag k="natural" v="wetland" />
		<tag k="ssr:stedsnr" v="561068" />
	</node>
	<node lat="66.0715694480211" lon="13.971324994343071" id="-7799">
		<tag k="name" v="Grahesten" />
		<tag k="place" v="locality" />
		<tag k="ssr:stedsnr" v="588815" />
	</node>
<<<<<<< HEAD
	<node lat="65.91980555550381" lon="13.804869450763029" id="-7804">
=======
	<node id="-148450" lat="66.0394805577" lon="13.813958328">
		<tag k="name" v="Trollbekkmyra" />
		<tag k="natural" v="wetland" />
		<tag k="ssr:stedsnr" v="225590" />
	</node>
	<node id="-149559" lat="66.1942583297" lon="13.4505444439">
		<tag k="name" v="Ågmyra" />
		<tag k="natural" v="wetland" />
		<tag k="ssr:stedsnr" v="892416" />
	</node>
	<node id="-150856" lat="65.9198055555" lon="13.8048694508">
>>>>>>> e1d4bc35ff8a6074a6f2e91616a996b547c36f15
		<tag k="landuse" v="meadow" />
		<tag k="name" v="Storbekkenget" />
		<tag k="ssr:stedsnr" v="589559" />
	</node>
<<<<<<< HEAD
	<node lat="66.01769722332763" lon="13.811786116861128" id="-7805">
		<tag k="name" v="Furuskogen" />
=======
	<node id="-149319" lat="65.9884999992" lon="13.8065777877">
		<tag k="name" v="Pelleggerenget" />
>>>>>>> e1d4bc35ff8a6074a6f2e91616a996b547c36f15
		<tag k="place" v="locality" />
		<tag k="ssr:stedsnr" v="589719" />
	</node>
<<<<<<< HEAD
	<node lat="66.0785750000869" lon="13.88479445035197" id="-7811">
		<tag k="name" v="Gammelkalvhagen" />
		<tag k="place" v="locality" />
		<tag k="ssr:stedsnr" v="710665" />
	</node>
	<node lat="66.07821666445555" lon="13.89249444205931" id="-7812">
		<tag k="name" v="Verhagen" />
=======
	<node id="-150852" lat="66.0781444433" lon="13.8366194363">
		<tag k="name" v="Rønningen" />
		<tag k="place" v="locality" />
		<tag k="ssr:stedsnr" v="589746" />
	</node>
	<node id="-151350" lat="65.9831305543" lon="14.3664916772">
		<tag k="alt_name" v="Svartfjellbreen, austre" />
		<tag k="name" v="Austre Svartfjellbreen" />
		<tag k="natural" v="glacier" />
		<tag k="ssr:stedsnr" v="865113" />
	</node>
	<node id="-150849" lat="66.0598472235" lon="13.7371194542">
		<tag k="name" v="Reinhagan" />
>>>>>>> e1d4bc35ff8a6074a6f2e91616a996b547c36f15
		<tag k="place" v="locality" />
		<tag k="ssr:stedsnr" v="710666" />
	</node>
<<<<<<< HEAD
	<node lat="65.94058888572849" lon="13.805691664925016" id="-7816">
		<tag k="name" v="Hestmyra" />
		<tag k="natural" v="wetland" />
		<tag k="ssr:stedsnr" v="602270" />
	</node>
	<node lat="66.16211111241405" lon="13.91940554648227" id="-7826">
		<tag k="name" v="Karihaugmyra" />
		<tag k="natural" v="wetland" />
		<tag k="ssr:stedsnr" v="604403" />
	</node>
	<node lat="66.18227499634585" lon="13.551186116151246" id="-7833">
		<tag k="name" v="Sørgranskogen" />
=======
	<node id="-150847" lat="66.2063388869" lon="13.6649194339">
		<tag k="name" v="Moaura" />
		<tag k="natural" v="scree" />
		<tag k="ssr:stedsnr" v="589485" />
	</node>
	<node id="-150843" lat="66.071569448" lon="13.9713249943">
		<tag k="name" v="Grahesten" />
>>>>>>> e1d4bc35ff8a6074a6f2e91616a996b547c36f15
		<tag k="place" v="locality" />
		<tag k="ssr:stedsnr" v="621406" />
	</node>
<<<<<<< HEAD
	<node lat="66.01268332952776" lon="14.358369435404958" id="-7851">
		<tag k="name" v="Charles Rabot-breen" />
		<tag k="natural" v="glacier" />
		<tag k="ssr:stedsnr" v="622068" />
	</node>
	<node lat="66.05211111450748" lon="13.782494435725349" id="-7874">
		<tag k="landuse" v="quarry" />
		<tag k="name" v="Friluften" />
		<tag k="ssr:stedsnr" v="649551" />
	</node>
	<node lat="66.10005277472473" lon="13.828349996204333" id="-7883">
		<tag k="name" v="Skogmyra" />
		<tag k="natural" v="wetland" />
		<tag k="ssr:stedsnr" v="649845" />
	</node>
	<node lat="66.14679166827213" lon="13.866772226238801" id="-7886">
		<tag k="name" v="Penelaheimen" />
		<tag k="place" v="locality" />
		<tag k="ssr:stedsnr" v="649789" />
	</node>
	<node lat="66.06411389208682" lon="13.988308337575171" id="-7887">
		<tag k="name" v="Holmen" />
		<tag k="place" v="locality" />
		<tag k="ssr:stedsnr" v="649931" />
	</node>
	<node lat="66.13174444896225" lon="13.793527775629466" id="-7922">
		<tag k="landuse" v="meadow" />
		<tag k="name" v="Bakklandet" />
		<tag k="ssr:stedsnr" v="710688" />
	</node>
	<node lat="66.20056111242606" lon="13.655461102968603" id="-7960">
		<tag k="name" v="Stormyra" />
=======
	<node id="-149019" lat="66.22745" lon="13.6316222213">
		<tag k="name" v="Stormyra" />
		<tag k="natural" v="wetland" />
		<tag k="ssr:stedsnr" v="346418" />
	</node>
	<node id="-150838" lat="66.0046055587" lon="13.8407472313">
		<tag k="name" v="Kjølmyra" />
		<tag k="natural" v="wetland" />
		<tag k="ssr:stedsnr" v="588331" />
	</node>
	<node id="-149296" lat="66.1815916658" lon="13.9539194346">
		<tag k="name" v="Steintrillar-urda" />
		<tag k="natural" v="scree" />
		<tag k="ssr:stedsnr" v="683497" />
	</node>
	<node id="-150408" lat="66.154238891" lon="13.9690027698">
		<tag k="name" v="Nordmyran" />
		<tag k="natural" v="wetland" />
		<tag k="ssr:stedsnr" v="301012" />
	</node>
	<node id="-148445" lat="66.2262666677" lon="13.6858888821">
		<tag k="name" v="Hellarheimen" />
		<tag k="place" v="locality" />
		<tag k="ssr:stedsnr" v="225508" />
	</node>
	<node id="-149752" lat="66.1712111134" lon="13.4488583298">
		<tag k="name" v="Neverlimyran" />
		<tag k="natural" v="wetland" />
		<tag k="ssr:stedsnr" v="925432" />
	</node>
	<node id="-148472" lat="66.0656750004" lon="13.8145916773">
		<tag k="landuse" v="meadow" />
		<tag k="name" v="Plassen" />
		<tag k="ssr:stedsnr" v="226669" />
	</node>
	<node id="-150151" lat="66.0063027812" lon="13.8412694391">
		<tag k="name" v="Tullskogen" />
		<tag k="place" v="locality" />
		<tag k="ssr:stedsnr" v="103338" />
	</node>
	<node id="-149546" lat="66.1215527768" lon="13.8112666734">
		<tag k="name" v="Mosemyra" />
		<tag k="natural" v="wetland" />
		<tag k="ssr:stedsnr" v="683567" />
	</node>
	<node id="-149769" lat="66.2126972181" lon="13.8495750066">
		<tag k="name" v="Lars Jonsamyrene" />
		<tag k="natural" v="wetland" />
		<tag k="ssr:stedsnr" v="925782" />
	</node>
	<node id="-150310" lat="66.1304999971" lon="13.7380416666">
		<tag k="name" v="Langmyra" />
		<tag k="natural" v="wetland" />
		<tag k="ssr:stedsnr" v="178094" />
	</node>
	<node id="-151333" lat="65.8706722248" lon="13.9651777772">
		<tag k="name" v="Hesmyra" />
>>>>>>> e1d4bc35ff8a6074a6f2e91616a996b547c36f15
		<tag k="natural" v="wetland" />
		<tag k="ssr:stedsnr" v="893441" />
	</node>
<<<<<<< HEAD
	<node lat="66.18310555236474" lon="13.694422218028036" id="-7964">
		<tag k="name" v="Furustokkmyra" />
=======
	<node id="-150307" lat="66.0650027811" lon="13.7881666736">
		<tag k="name" v="Brokmyra" />
>>>>>>> e1d4bc35ff8a6074a6f2e91616a996b547c36f15
		<tag k="natural" v="wetland" />
		<tag k="ssr:stedsnr" v="893488" />
	</node>
<<<<<<< HEAD
	<node lat="66.13583333291488" lon="13.817797219033729" id="-7975">
=======
	<node id="-150303" lat="66.0503861073" lon="14.0296944504">
		<tag k="name" v="Lavollen" />
		<tag k="place" v="locality" />
		<tag k="ssr:stedsnr" v="164798" />
	</node>
	<node id="-150302" lat="66.189547226" lon="13.8017138812">
		<tag k="name" v="Svarthammerura" />
		<tag k="natural" v="scree" />
		<tag k="ssr:stedsnr" v="164791" />
	</node>
	<node id="-151321" lat="66.2363944413" lon="13.5220638796">
		<tag k="name" v="Hagamyra" />
		<tag k="natural" v="wetland" />
		<tag k="ssr:stedsnr" v="847162" />
	</node>
	<node id="-150296" lat="66.157508331" lon="13.8622138908">
>>>>>>> e1d4bc35ff8a6074a6f2e91616a996b547c36f15
		<tag k="landuse" v="meadow" />
		<tag k="name" v="Vallabotn" />
		<tag k="ssr:stedsnr" v="692722" />
	</node>
<<<<<<< HEAD
	<node lat="65.90099166392707" lon="13.787561118210446" id="-7982">
		<tag k="name" v="Forsmyran" />
=======
	<node id="-150806" lat="65.9209666623" lon="13.7275444447">
		<tag k="name" v="Hestmyra" />
>>>>>>> e1d4bc35ff8a6074a6f2e91616a996b547c36f15
		<tag k="natural" v="wetland" />
		<tag k="ssr:stedsnr" v="710590" />
	</node>
<<<<<<< HEAD
	<node lat="66.08454722178503" lon="13.769861115673816" id="-7994">
		<tag k="name" v="Skjemmelskjegget" />
		<tag k="natural" v="wetland" />
		<tag k="ssr:stedsnr" v="724003" />
	</node>
	<node lat="66.1228972187203" lon="13.75868054986926" id="-8003">
		<tag k="name" v="Brendselskogen" />
		<tag k="place" v="locality" />
		<tag k="ssr:stedsnr" v="725116" />
	</node>
	<node lat="65.90903333665668" lon="14.25708056136923" id="-8023">
		<tag k="name" v="Kvalbukt Karimyra" />
		<tag k="natural" v="wetland" />
		<tag k="ssr:stedsnr" v="726104" />
	</node>
	<node lat="66.04787500022056" lon="13.765494442419687" id="-8071">
		<tag k="name" v="Bårmyra" />
=======
	<node id="-148697" lat="66.1181916672" lon="13.7515611054">
		<tag k="name" v="Prekstolmyra" />
		<tag k="natural" v="wetland" />
		<tag k="ssr:stedsnr" v="179108" />
	</node>
	<node id="-150801" lat="66.1638333323" lon="13.8874833306">
		<tag k="name" v="Langmyra" />
		<tag k="natural" v="wetland" />
		<tag k="ssr:stedsnr" v="561545" />
	</node>
	<node id="-150288" lat="66.0614388848" lon="13.769408342">
		<tag k="landuse" v="meadow" />
		<tag k="name" v="Nordengan" />
		<tag k="ssr:stedsnr" v="164476" />
	</node>
	<node id="-151311" lat="65.8256888936" lon="14.0828722143">
		<tag k="name" v="Tomyra" />
>>>>>>> e1d4bc35ff8a6074a6f2e91616a996b547c36f15
		<tag k="natural" v="wetland" />
		<tag k="ssr:stedsnr" v="906239" />
	</node>
<<<<<<< HEAD
	<node lat="65.96023888870141" lon="13.747041659134595" id="-8077">
		<tag k="name" v="Treingsmyra" />
		<tag k="natural" v="wetland" />
		<tag k="ssr:stedsnr" v="907187" />
	</node>
	<node lat="66.19771111012763" lon="13.566211116234086" id="-8081">
		<tag k="name" v="Legdskogen" />
=======
	<node id="-148747" lat="66.1056277775" lon="13.788783328">
		<tag k="name" v="Hesthagen" />
>>>>>>> e1d4bc35ff8a6074a6f2e91616a996b547c36f15
		<tag k="place" v="locality" />
		<tag k="ssr:stedsnr" v="907788" />
	</node>
<<<<<<< HEAD
	<node lat="66.07032777580781" lon="13.768936119978868" id="-8083">
		<tag k="name" v="Lars-Nilsamyran" />
=======
	<node id="-151306" lat="66.0485000038" lon="13.7507166779">
		<tag k="name" v="Lauramyra" />
>>>>>>> e1d4bc35ff8a6074a6f2e91616a996b547c36f15
		<tag k="natural" v="wetland" />
		<tag k="ssr:stedsnr" v="771428" />
	</node>
<<<<<<< HEAD
	<node lat="65.90615555872469" lon="14.456783332773249" id="-8096">
		<tag k="name" v="Osbekkmyra" />
		<tag k="natural" v="wetland" />
		<tag k="ssr:stedsnr" v="908163" />
	</node>
	<node lat="65.88444999587641" lon="13.944925009630786" id="-8104">
		<tag k="name" v="Skvarebekkskogan" />
		<tag k="place" v="locality" />
		<tag k="ssr:stedsnr" v="908504" />
	</node>
	<node lat="65.90956111407463" lon="14.210011103227792" id="-8114">
		<tag k="name" v="Loftmyra" />
=======
	<node id="-148745" lat="66.022099996" lon="13.8700694328">
		<tag k="name" v="Furuskogmyra" />
		<tag k="natural" v="wetland" />
		<tag k="ssr:stedsnr" v="286750" />
	</node>
	<node id="-149253" lat="65.9106527735" lon="13.7391222293">
		<tag k="name" v="Stormyra" />
>>>>>>> e1d4bc35ff8a6074a6f2e91616a996b547c36f15
		<tag k="natural" v="wetland" />
		<tag k="ssr:stedsnr" v="786104" />
	</node>
<<<<<<< HEAD
	<node lat="65.90916944478336" lon="14.282127773670384" id="-8115">
		<tag k="name" v="Høgmomyra" />
		<tag k="natural" v="wetland" />
		<tag k="ssr:stedsnr" v="786107" />
	</node>
	<node lat="65.92254166336352" lon="14.379530556857418" id="-8119">
		<tag k="name" v="Krokmyran" />
=======
	<node id="-151300" lat="66.067994443" lon="13.7968222192">
		<tag k="name" v="Bjynnstimyra" />
		<tag k="natural" v="wetland" />
		<tag k="ssr:stedsnr" v="833646" />
	</node>
	<node id="-149763" lat="65.9925500031" lon="13.8113916614">
		<tag k="name" v="Tjeldmyra" />
>>>>>>> e1d4bc35ff8a6074a6f2e91616a996b547c36f15
		<tag k="natural" v="wetland" />
		<tag k="ssr:stedsnr" v="786143" />
	</node>
<<<<<<< HEAD
	<node lat="65.94447778127542" lon="13.768525004620994" id="-8125">
		<tag k="name" v="Merkemyra" />
		<tag k="natural" v="wetland" />
		<tag k="ssr:stedsnr" v="786214" />
	</node>
	<node lat="65.98565278097894" lon="14.320330559551325" id="-8135">
		<tag k="alt_name" v="Svartfjellbreen, vestre" />
		<tag k="name" v="Vestre Svartfjellbreen" />
		<tag k="natural" v="glacier" />
		<tag k="ssr:stedsnr" v="804125" />
	</node>
	<node lat="66.0350138899982" lon="13.877991660023609" id="-8153">
		<tag k="name" v="Storurda" />
		<tag k="natural" v="scree" />
		<tag k="ssr:stedsnr" v="804758" />
	</node>
	<node lat="66.00456666931287" lon="13.8284222257023" id="-8168">
		<tag k="name" v="Snaumyra" />
=======
	<node id="-151298" lat="66.159722227" lon="13.8776499922">
		<tag k="name" v="Stormyra" />
		<tag k="natural" v="wetland" />
		<tag k="ssr:stedsnr" v="832868" />
	</node>
	<node id="-149760" lat="65.984600001" lon="14.1314500018">
		<tag k="name" v="Vestisen" />
		<tag k="natural" v="glacier" />
		<tag k="ssr:stedsnr" v="925701" />
	</node>
	<node id="-151295" lat="66.1483749983" lon="13.8020333331">
		<tag k="name" v="Fløaauren" />
		<tag k="place" v="locality" />
		<tag k="ssr:stedsnr" v="832847" />
	</node>
	<node id="-148733" lat="65.9060666663" lon="13.87010556">
		<tag k="name" v="Slåttmyra" />
>>>>>>> e1d4bc35ff8a6074a6f2e91616a996b547c36f15
		<tag k="natural" v="wetland" />
		<tag k="ssr:stedsnr" v="831328" />
	</node>
<<<<<<< HEAD
	<node lat="65.99952222559754" lon="13.829308341978372" id="-8169">
		<tag k="name" v="Badstuenget" />
		<tag k="place" v="locality" />
		<tag k="ssr:stedsnr" v="831336" />
	</node>
	<node lat="66.19652499639493" lon="13.446788898349748" id="-8170">
		<tag k="name" v="Rabben" />
		<tag k="place" v="locality" />
		<tag k="ssr:stedsnr" v="831402" />
	</node>
	<node lat="66.07196944503708" lon="13.947394443220983" id="-8180">
=======
	<node id="-151291" lat="66.1766583334" lon="13.8534805495">
		<tag k="name" v="Øvre Langmyra" />
		<tag k="natural" v="wetland" />
		<tag k="ssr:stedsnr" v="832821" />
	</node>
	<node id="-151289" lat="66.071969445" lon="13.9473944432">
>>>>>>> e1d4bc35ff8a6074a6f2e91616a996b547c36f15
		<tag k="landuse" v="meadow" />
		<tag k="name" v="Elveenget" />
		<tag k="ssr:stedsnr" v="832803" />
	</node>
<<<<<<< HEAD
	<node lat="66.14907500414881" lon="13.916922226297796" id="-8181">
=======
	<node id="-150776" lat="66.1382972237" lon="14.0621027672">
		<tag k="name" v="Gammeljorda" />
		<tag k="place" v="locality" />
		<tag k="ssr:stedsnr" v="543483" />
	</node>
	<node id="-151287" lat="66.1490750041" lon="13.9169222263">
>>>>>>> e1d4bc35ff8a6074a6f2e91616a996b547c36f15
		<tag k="landuse" v="meadow" />
		<tag k="name" v="Skogenget" />
		<tag k="ssr:stedsnr" v="832780" />
	</node>
<<<<<<< HEAD
	<node lat="66.12779166946144" lon="13.80428611345318" id="-8183">
		<tag k="name" v="Steikeauren" />
		<tag k="place" v="locality" />
		<tag k="ssr:stedsnr" v="832829" />
	</node>
	<node lat="65.87067222484895" lon="13.965177777227408" id="-8231">
		<tag k="name" v="Hesmyra" />
		<tag k="natural" v="wetland" />
		<tag k="ssr:stedsnr" v="847490" />
	</node>
	<node lat="66.21269721806338" lon="13.849575006566221" id="-8243">
		<tag k="name" v="Lars Jonsamyrene" />
		<tag k="natural" v="wetland" />
		<tag k="ssr:stedsnr" v="925782" />
	</node>
	<node lat="66.19425832969561" lon="13.450544443875101" id="-8287">
		<tag k="name" v="Ågmyra" />
		<tag k="natural" v="wetland" />
		<tag k="ssr:stedsnr" v="892416" />
	</node>
	<node lat="66.04681389324685" lon="14.050763882079444" id="-8288">
		<tag k="name" v="Strandåkeren" />
		<tag k="place" v="locality" />
		<tag k="ssr:stedsnr" v="892760" />
	</node>
	<node lat="66.04621388732" lon="14.062130550377654" id="-8289">
		<tag k="name" v="Storsteinen" />
		<tag k="natural" v="stone" />
		<tag k="ssr:stedsnr" v="892764" />
	</node>
	<node lat="65.9214638861793" lon="13.828886106357363" id="-8293">
		<tag k="name" v="Munnerstadmyra" />
		<tag k="natural" v="wetland" />
		<tag k="ssr:stedsnr" v="893567" />
	</node>
	<node lat="66.1440527758644" lon="14.04673333401388" id="-8319">
		<tag k="name" v="Stormyra" />
=======
	<node id="-151285" lat="66.1492833309" lon="13.9024833247">
		<tag k="name" v="Råbandsmyra" />
		<tag k="natural" v="wetland" />
		<tag k="ssr:stedsnr" v="832762" />
	</node>
	<node id="-148419" lat="66.2274083346" lon="13.7981722241">
		<tag k="name" v="Fuglmyra" />
		<tag k="natural" v="wetland" />
		<tag k="ssr:stedsnr" v="15709" />
	</node>
	<node id="-150739" lat="66.0686277746" lon="13.7850888875">
		<tag k="name" v="Åkerlomyra" />
		<tag k="natural" v="wetland" />
		<tag k="ssr:stedsnr" v="529632" />
	</node>
	<node id="-150768" lat="66.1661972215" lon="13.7383277769">
		<tag k="name" v="Fjellamarka" />
		<tag k="place" v="locality" />
		<tag k="ssr:stedsnr" v="543405" />
	</node>
	<node id="-149228" lat="65.9177916646" lon="14.4082416707">
		<tag k="name" v="Langmyra" />
		<tag k="natural" v="wetland" />
		<tag k="ssr:stedsnr" v="483106" />
	</node>
	<node id="-149227" lat="65.8878972176" lon="14.0668500071">
		<tag k="name" v="Momyra" />
		<tag k="natural" v="wetland" />
		<tag k="ssr:stedsnr" v="483103" />
	</node>
	<node id="-149220" lat="65.9024805587" lon="13.7987944517">
		<tag k="name" v="Lillengmyra" />
		<tag k="natural" v="wetland" />
		<tag k="ssr:stedsnr" v="482517" />
	</node>
	<node id="-150756" lat="65.9044583362" lon="14.4662583431">
		<tag k="name" v="Øverlimyra" />
>>>>>>> e1d4bc35ff8a6074a6f2e91616a996b547c36f15
		<tag k="natural" v="wetland" />
		<tag k="ssr:stedsnr" v="908062" />
	</node>
<<<<<<< HEAD
	<node lat="66.17121111339507" lon="13.448858329782725" id="-8330">
		<tag k="name" v="Neverlimyran" />
=======
	<node id="-151267" lat="66.0507111138" lon="13.797272227">
		<tag k="name" v="Fagerengmyra" />
>>>>>>> e1d4bc35ff8a6074a6f2e91616a996b547c36f15
		<tag k="natural" v="wetland" />
		<tag k="ssr:stedsnr" v="925432" />
	</node>
<<<<<<< HEAD
	<node lat="65.99255000307811" lon="13.81139166135464" id="-8332">
		<tag k="name" v="Tjeldmyra" />
		<tag k="natural" v="wetland" />
		<tag k="ssr:stedsnr" v="925710" />
	</node>
	<node lat="65.98460000102929" lon="14.131450001773281" id="-8338">
		<tag k="name" v="Vestisen" />
		<tag k="natural" v="glacier" />
		<tag k="ssr:stedsnr" v="925701" />
	</node>
	<node lat="66.05817777522452" lon="14.011022213526992" id="-8358">
		<tag k="name" v="Unnlendet" />
		<tag k="place" v="locality" />
		<tag k="ssr:stedsnr" v="952954" />
	</node>
	<node lat="66.12586944018152" lon="13.821861119938097" id="-8367">
		<tag k="landuse" v="meadow" />
		<tag k="name" v="Krokmyrenget" />
		<tag k="ssr:stedsnr" v="953839" />
	</node>
	<node lat="66.12653611320735" lon="13.823250003099739" id="-8368">
		<tag k="name" v="Kartmyra" />
		<tag k="natural" v="wetland" />
		<tag k="ssr:stedsnr" v="953840" />
	</node>
	<node lat="66.04817222053775" lon="14.038030556648962" id="-8447">
		<tag k="name" v="Auren" />
=======
	<node id="-151261" lat="66.0618916669" lon="13.7657527833">
		<tag k="name" v="Skådammyra" />
		<tag k="natural" v="wetland" />
		<tag k="ssr:stedsnr" v="832443" />
	</node>
	<node id="-150650" lat="66.2273777738" lon="13.6112861075">
		<tag k="name" v="Rønningan" />
		<tag k="place" v="locality" />
		<tag k="ssr:stedsnr" v="406390" />
	</node>
	<node id="-148698" lat="65.9074722253" lon="14.3334833397">
		<tag k="name" v="Sandvikmyran" />
		<tag k="natural" v="wetland" />
		<tag k="ssr:stedsnr" v="179116" />
	</node>
	<node id="-149209" lat="66.0783888848" lon="13.7695388855">
		<tag k="name" v="Samuelmyra" />
		<tag k="natural" v="wetland" />
		<tag k="ssr:stedsnr" v="481007" />
	</node>
	<node id="-148725" lat="65.9154055517" lon="13.8277555591">
		<tag k="name" v="Bleikvasslimyra" />
		<tag k="natural" v="wetland" />
		<tag k="ssr:stedsnr" v="286659" />
	</node>
	<node id="-149205" lat="66.0190444405" lon="13.8537194536">
		<tag k="landuse" v="meadow" />
		<tag k="name" v="Storlandet" />
		<tag k="ssr:stedsnr" v="467728" />
	</node>
	<node id="-151252" lat="66.1965249964" lon="13.4467888983">
		<tag k="name" v="Rabben" />
>>>>>>> e1d4bc35ff8a6074a6f2e91616a996b547c36f15
		<tag k="place" v="locality" />
		<tag k="ssr:stedsnr" v="42765" />
	</node>
<<<<<<< HEAD
	<node lat="66.11342222136871" lon="13.800241657334487" id="-8466">
		<tag k="name" v="Bakklandet" />
		<tag k="place" v="locality" />
		<tag k="ssr:stedsnr" v="43859" />
	</node>
	<node lat="66.15622221831993" lon="13.88903887777424" id="-8469">
		<tag k="name" v="Føramyra" />
		<tag k="natural" v="wetland" />
		<tag k="ssr:stedsnr" v="43879" />
	</node>
	<node lat="66.14593611139007" lon="13.80445834036011" id="-8472">
		<tag k="name" v="Trollauren" />
		<tag k="place" v="locality" />
		<tag k="ssr:stedsnr" v="43891" />
	</node>
	<node lat="65.87109444522353" lon="13.739683334906944" id="-8477">
		<tag k="name" v="Istermyra" />
=======
	<node id="-151251" lat="65.9995222256" lon="13.829308342">
		<tag k="name" v="Badstuenget" />
		<tag k="place" v="locality" />
		<tag k="ssr:stedsnr" v="831336" />
	</node>
	<node id="-151250" lat="66.0045666693" lon="13.8284222257">
		<tag k="name" v="Snaumyra" />
		<tag k="natural" v="wetland" />
		<tag k="ssr:stedsnr" v="831328" />
	</node>
	<node id="-150737" lat="66.073783332" lon="13.8328472273">
		<tag k="landuse" v="meadow" />
		<tag k="name" v="Finnenget" />
		<tag k="ssr:stedsnr" v="529624" />
	</node>
	<node id="-150181" lat="66.102677779" lon="13.7985805539">
		<tag k="name" v="Vomma" />
		<tag k="natural" v="scree" />
		<tag k="place" v="locality" />
		<tag k="ssr:stedsnr" v="104825" />
	</node>
	<node id="-150106" lat="66.1218555575" lon="13.737733336">
		<tag k="name" v="Slåttmyren" />
		<tag k="natural" v="wetland" />
		<tag k="ssr:stedsnr" v="76618" />
	</node>
	<node id="-150222" lat="65.9247083324" lon="14.4175944549">
		<tag k="name" v="Øvermyran" />
>>>>>>> e1d4bc35ff8a6074a6f2e91616a996b547c36f15
		<tag k="natural" v="wetland" />
		<tag k="ssr:stedsnr" v="58198" />
	</node>
<<<<<<< HEAD
	<node lat="65.86951944209498" lon="13.733686111036265" id="-8478">
		<tag k="name" v="Småskogen" />
=======
	<node id="-150733" lat="66.0191694488" lon="13.8660138865">
		<tag k="name" v="Furuskogjuta" />
>>>>>>> e1d4bc35ff8a6074a6f2e91616a996b547c36f15
		<tag k="place" v="locality" />
		<tag k="ssr:stedsnr" v="58200" />
	</node>
<<<<<<< HEAD
	<node lat="65.89807499949958" lon="14.121986108663313" id="-8479">
		<tag k="name" v="Tjærebrennmyra" />
		<tag k="natural" v="wetland" />
		<tag k="ssr:stedsnr" v="58100" />
	</node>
	<node lat="65.82268332945269" lon="14.0829805569173" id="-8480">
		<tag k="name" v="Høystakkmyra" />
		<tag k="natural" v="wetland" />
		<tag k="ssr:stedsnr" v="58043" />
	</node>
	<node lat="66.00603610851901" lon="13.968705550513127" id="-8541">
		<tag k="name" v="Kotamyren" />
=======
	<node id="-149219" lat="65.8981111109" lon="13.7976388847">
		<tag k="name" v="Krengelmyra" />
		<tag k="natural" v="wetland" />
		<tag k="ssr:stedsnr" v="482516" />
	</node>
	<node id="-148683" lat="66.0293916668" lon="13.8202333405">
		<tag k="name" v="Starrmyra" />
		<tag k="natural" v="wetland" />
		<tag k="ssr:stedsnr" v="164610" />
	</node>
	<node id="-149721" lat="65.9444777813" lon="13.7685250046">
		<tag k="name" v="Merkemyra" />
		<tag k="natural" v="wetland" />
		<tag k="ssr:stedsnr" v="786214" />
	</node>
	<node id="-150728" lat="66.1442388914" lon="13.8395499964">
		<tag k="name" v="Hagen" />
		<tag k="place" v="locality" />
		<tag k="ssr:stedsnr" v="528867" />
	</node>
	<node id="-148684" lat="66.031100001" lon="13.7890388845">
		<tag k="name" v="Brattbakkmyran" />
		<tag k="natural" v="wetland" />
		<tag k="ssr:stedsnr" v="164617" />
	</node>
	<node id="-148678" lat="66.0787222227" lon="13.8080888833">
		<tag k="name" v="Markusmyra" />
>>>>>>> e1d4bc35ff8a6074a6f2e91616a996b547c36f15
		<tag k="natural" v="wetland" />
		<tag k="ssr:stedsnr" v="76788" />
	</node>
<<<<<<< HEAD
	<node lat="66.00630278123607" lon="13.841269439114274" id="-8560">
		<tag k="name" v="Tullskogen" />
=======
	<node id="-149701" lat="65.8844499959" lon="13.9449250096">
		<tag k="name" v="Skvarebekkskogan" />
>>>>>>> e1d4bc35ff8a6074a6f2e91616a996b547c36f15
		<tag k="place" v="locality" />
		<tag k="ssr:stedsnr" v="103338" />
	</node>
<<<<<<< HEAD
	<node lat="66.0536083307265" lon="14.031230556976364" id="-8564">
		<tag k="name" v="Yttermarka" />
		<tag k="place" v="locality" />
		<tag k="ssr:stedsnr" v="103955" />
	</node>
	<node lat="66.02887221838897" lon="13.810405554252085" id="-8566">
		<tag k="name" v="Våtmyra" />
=======
	<node id="-149025" lat="66.1537277772" lon="13.872111107">
		<tag k="landuse" v="meadow" />
		<tag k="name" v="Brennselenget" />
		<tag k="ssr:stedsnr" v="346763" />
	</node>
	<node id="-148672" lat="66.0560888876" lon="13.7982527696">
		<tag k="name" v="Skålmyra" />
>>>>>>> e1d4bc35ff8a6074a6f2e91616a996b547c36f15
		<tag k="natural" v="wetland" />
		<tag k="ssr:stedsnr" v="104541" />
	</node>
<<<<<<< HEAD
	<node lat="65.98342499582549" lon="13.799269449120644" id="-8568">
		<tag k="name" v="Janesenget" />
		<tag k="place" v="locality" />
		<tag k="ssr:stedsnr" v="104517" />
	</node>
	<node lat="66.1422277740249" lon="13.803111100243322" id="-8577">
		<tag k="name" v="Trolldalsauren" />
		<tag k="place" v="locality" />
		<tag k="ssr:stedsnr" v="104866" />
	</node>
	<node lat="66.05178889031012" lon="13.772525003420428" id="-8578">
		<tag k="name" v="Høystakkbakkmyra" />
		<tag k="natural" v="wetland" />
		<tag k="ssr:stedsnr" v="117278" />
	</node>
	<node lat="66.230963884555" lon="13.54751111865857" id="-8584">
		<tag k="name" v="Enget" />
		<tag k="place" v="locality" />
		<tag k="ssr:stedsnr" v="118122" />
	</node>
	<node lat="66.17410277473877" lon="13.945938897024382" id="-8592">
		<tag k="name" v="Kløvasteinen" />
		<tag k="natural" v="stone" />
		<tag k="ssr:stedsnr" v="118449" />
	</node>
	<node lat="66.14207222676433" lon="14.05739999827879" id="-8602">
		<tag k="name" v="Slåttmyrene" />
=======
	<node id="-148690" lat="66.0722694442" lon="13.9371111104">
		<tag k="landuse" v="meadow" />
		<tag k="name" v="Lilleenget" />
		<tag k="ssr:stedsnr" v="164825" />
	</node>
	<node id="-149691" lat="65.9061555587" lon="14.4567833328">
		<tag k="name" v="Osbekkmyra" />
		<tag k="natural" v="wetland" />
		<tag k="ssr:stedsnr" v="908163" />
	</node>
	<node id="-149177" lat="66.1530500014" lon="13.7794861147">
		<tag k="name" v="Hesthagen" />
		<tag k="place" v="locality" />
		<tag k="ssr:stedsnr" v="664397" />
	</node>
	<node id="-148552" lat="66.0536083307" lon="14.031230557">
		<tag k="name" v="Yttermarka" />
		<tag k="place" v="locality" />
		<tag k="ssr:stedsnr" v="103955" />
	</node>
	<node id="-149475" lat="66.1228972187" lon="13.7586805499">
		<tag k="name" v="Brendselskogen" />
		<tag k="place" v="locality" />
		<tag k="ssr:stedsnr" v="725116" />
	</node>
	<node id="-149684" lat="66.1440527759" lon="14.046733334">
		<tag k="name" v="Stormyra" />
		<tag k="natural" v="wetland" />
		<tag k="ssr:stedsnr" v="908062" />
	</node>
	<node id="-150706" lat="65.8917277778" lon="13.7985750035">
		<tag k="name" v="Vestermyran" />
>>>>>>> e1d4bc35ff8a6074a6f2e91616a996b547c36f15
		<tag k="natural" v="wetland" />
		<tag k="ssr:stedsnr" v="119061" />
	</node>
<<<<<<< HEAD
	<node lat="65.9247083323534" lon="14.417594454918047" id="-8619">
		<tag k="name" v="Øvermyran" />
=======
	<node id="-148656" lat="66.1270833372" lon="13.8168083339">
		<tag k="name" v="Krokmyra" />
>>>>>>> e1d4bc35ff8a6074a6f2e91616a996b547c36f15
		<tag k="natural" v="wetland" />
		<tag k="ssr:stedsnr" v="136094" />
	</node>
<<<<<<< HEAD
	<node lat="66.05608888761188" lon="13.798252769582252" id="-8669">
		<tag k="name" v="Skålmyra" />
		<tag k="natural" v="wetland" />
		<tag k="ssr:stedsnr" v="163658" />
	</node>
	<node lat="66.18954722602167" lon="13.801713881238713" id="-8670">
		<tag k="name" v="Svarthammerura" />
		<tag k="natural" v="scree" />
		<tag k="ssr:stedsnr" v="164791" />
	</node>
	<node lat="66.05038610725167" lon="14.029694450382785" id="-8671">
		<tag k="name" v="Lavollen" />
=======
	<node id="-149677" lat="66.1977111101" lon="13.5662111162">
		<tag k="name" v="Legdskogen" />
>>>>>>> e1d4bc35ff8a6074a6f2e91616a996b547c36f15
		<tag k="place" v="locality" />
		<tag k="ssr:stedsnr" v="164798" />
	</node>
<<<<<<< HEAD
	<node lat="66.0311000009878" lon="13.789038884465548" id="-8677">
		<tag k="name" v="Brattbakkmyran" />
=======
	<node id="-149676" lat="65.9602388887" lon="13.7470416591">
		<tag k="name" v="Treingsmyra" />
>>>>>>> e1d4bc35ff8a6074a6f2e91616a996b547c36f15
		<tag k="natural" v="wetland" />
		<tag k="ssr:stedsnr" v="164617" />
	</node>
<<<<<<< HEAD
	<node lat="66.0722694441983" lon="13.937111110378405" id="-8689">
		<tag k="landuse" v="meadow" />
		<tag k="name" v="Lilleenget" />
		<tag k="ssr:stedsnr" v="164825" />
	</node>
	<node lat="66.06500278106432" lon="13.788166673624007" id="-8691">
		<tag k="name" v="Brokmyra" />
=======
	<node id="-150185" lat="66.0517888903" lon="13.7725250034">
		<tag k="name" v="Høystakkbakkmyra" />
>>>>>>> e1d4bc35ff8a6074a6f2e91616a996b547c36f15
		<tag k="natural" v="wetland" />
		<tag k="ssr:stedsnr" v="165640" />
	</node>
<<<<<<< HEAD
	<node lat="66.13049999709024" lon="13.738041666567176" id="-8694">
		<tag k="name" v="Langmyra" />
=======
	<node id="-150696" lat="65.8061416671" lon="14.0339916639">
		<tag k="name" v="Hevelmyra" />
>>>>>>> e1d4bc35ff8a6074a6f2e91616a996b547c36f15
		<tag k="natural" v="wetland" />
		<tag k="ssr:stedsnr" v="178094" />
	</node>
<<<<<<< HEAD
	<node lat="66.07058888508763" lon="13.879152780737753" id="-8777">
		<tag k="name" v="Storsteinskogen" />
		<tag k="place" v="locality" />
		<tag k="ssr:stedsnr" v="224651" />
	</node>
	<node lat="66.22626666767115" lon="13.685888882086589" id="-8781">
		<tag k="name" v="Hellarheimen" />
		<tag k="place" v="locality" />
		<tag k="ssr:stedsnr" v="225508" />
	</node>
	<node lat="66.07490833255157" lon="13.838552786106865" id="-8789">
		<tag k="name" v="Korgauren" />
		<tag k="place" v="locality" />
		<tag k="ssr:stedsnr" v="226663" />
	</node>
	<node lat="66.06567500038203" lon="13.814591677307114" id="-8790">
		<tag k="landuse" v="meadow" />
		<tag k="name" v="Plassen" />
		<tag k="ssr:stedsnr" v="226669" />
	</node>
	<node lat="65.91540555172104" lon="13.82775555913314" id="-8802">
		<tag k="name" v="Bleikvasslimyra" />
=======
	<node id="-150693" lat="65.8742361108" lon="13.7465666769">
		<tag k="name" v="Nordenget" />
		<tag k="place" v="locality" />
		<tag k="ssr:stedsnr" v="422173" />
	</node>
	<node id="-149667" lat="66.0478750002" lon="13.7654944424">
		<tag k="name" v="Bårmyra" />
		<tag k="natural" v="wetland" />
		<tag k="ssr:stedsnr" v="906239" />
	</node>
	<node id="-150177" lat="66.0293166677" lon="13.8936611095">
		<tag k="name" v="Mellaura" />
		<tag k="natural" v="scree" />
		<tag k="ssr:stedsnr" v="104726" />
	</node>
	<node id="-151198" lat="65.985652781" lon="14.3203305596">
		<tag k="alt_name" v="Svartfjellbreen, vestre" />
		<tag k="name" v="Vestre Svartfjellbreen" />
		<tag k="natural" v="glacier" />
		<tag k="ssr:stedsnr" v="804125" />
	</node>
	<node id="-149659" lat="65.987441671" lon="14.1480527763">
		<tag k="name" v="Okstindbreen" />
		<tag k="natural" v="glacier" />
		<tag k="ssr:stedsnr" v="743662" />
	</node>
	<node id="-148399" lat="66.0005388906" lon="14.3666666738">
		<tag k="name" v="Corneliussenbreen" />
		<tag k="natural" v="glacier" />
		<tag k="ssr:stedsnr" v="15103" />
	</node>
	<node id="-150169" lat="65.904919447" lon="13.863230557">
		<tag k="name" v="Mellamyra" />
>>>>>>> e1d4bc35ff8a6074a6f2e91616a996b547c36f15
		<tag k="natural" v="wetland" />
		<tag k="ssr:stedsnr" v="286659" />
	</node>
<<<<<<< HEAD
	<node lat="66.02209999600089" lon="13.870069432778592" id="-8806">
		<tag k="name" v="Furuskogmyra" />
		<tag k="natural" v="wetland" />
		<tag k="ssr:stedsnr" v="286750" />
	</node>
	<node lat="66.1056277775148" lon="13.788783327969647" id="-8809">
		<tag k="name" v="Hesthagen" />
		<tag k="place" v="locality" />
		<tag k="ssr:stedsnr" v="286849" />
	</node>
	<node lat="66.11785278101414" lon="13.853002785182667" id="-8811">
		<tag k="name" v="Falksteinen" />
		<tag k="natural" v="stone" />
		<tag k="ssr:stedsnr" v="286861" />
	</node>
	<node lat="66.17866666699989" lon="13.462005551560248" id="-8826">
		<tag k="name" v="Stormyra" />
=======
	<node id="-150167" lat="66.0288722184" lon="13.8104055543">
		<tag k="name" v="Våtmyra" />
>>>>>>> e1d4bc35ff8a6074a6f2e91616a996b547c36f15
		<tag k="natural" v="wetland" />
		<tag k="ssr:stedsnr" v="300768" />
	</node>
<<<<<<< HEAD
	<node lat="66.15423889096527" lon="13.96900276978053" id="-8832">
		<tag k="name" v="Nordmyran" />
		<tag k="natural" v="wetland" />
		<tag k="ssr:stedsnr" v="301012" />
	</node>
	<node lat="66.07553889203898" lon="13.931461122534424" id="-8842">
		<tag k="name" v="Skolejorda" />
=======
	<node id="-148630" lat="66.1420722268" lon="14.0573999983">
		<tag k="name" v="Slåttmyrene" />
		<tag k="natural" v="wetland" />
		<tag k="ssr:stedsnr" v="119061" />
	</node>
	<node id="-149653" lat="66.1921916639" lon="13.7494222158">
		<tag k="name" v="Reinhagan" />
>>>>>>> e1d4bc35ff8a6074a6f2e91616a996b547c36f15
		<tag k="place" v="locality" />
		<tag k="ssr:stedsnr" v="301496" />
	</node>
<<<<<<< HEAD
	<node lat="66.00550833021047" lon="14.227483326637493" id="-8853">
		<tag k="name" v="Vestre Okstindbreen" />
		<tag k="natural" v="glacier" />
		<tag k="ssr:stedsnr" v="318062" />
	</node>
	<node lat="66.12761388630317" lon="13.867013887463838" id="-8907">
		<tag k="name" v="Grevenmyra" />
		<tag k="natural" v="wetland" />
		<tag k="ssr:stedsnr" v="346725" />
	</node>
	<node lat="66.13078610708448" lon="13.825630551050025" id="-8910">
=======
	<node id="-150676" lat="66.0681388852" lon="13.8248500028">
		<tag k="landuse" v="meadow" />
		<tag k="name" v="Hesthagen" />
		<tag k="ssr:stedsnr" v="408631" />
	</node>
	<node id="-150163" lat="66.0601444485" lon="13.757613898">
>>>>>>> e1d4bc35ff8a6074a6f2e91616a996b547c36f15
		<tag k="landuse" v="meadow" />
		<tag k="name" v="Stormyrengan" />
		<tag k="ssr:stedsnr" v="346691" />
	</node>
<<<<<<< HEAD
	<node lat="66.07615277807727" lon="13.832330553886681" id="-8912">
		<tag k="name" v="Korgauren" />
		<tag k="place" v="locality" />
		<tag k="ssr:stedsnr" v="346742" />
	</node>
	<node lat="66.10866388954841" lon="13.802077785732658" id="-8913">
		<tag k="name" v="Okshagen" />
		<tag k="place" v="locality" />
		<tag k="ssr:stedsnr" v="346830" />
	</node>
	<node lat="66.1451250017793" lon="14.041749995386049" id="-8925">
		<tag k="name" v="Haramyrene" />
=======
	<node id="-151185" lat="66.1846083335" lon="13.8273722321">
		<tag k="name" v="Skjenmyra" />
		<tag k="natural" v="wetland" />
		<tag k="ssr:stedsnr" v="804545" />
	</node>
	<node id="-150160" lat="66.1874555523" lon="13.8094750055">
		<tag k="name" v="skardmyran" />
		<tag k="natural" v="wetland" />
		<tag k="ssr:stedsnr" v="103789" />
	</node>
	<node id="-151183" lat="66.1741083321" lon="13.9928416595">
		<tag k="name" v="Neverskardmyra" />
>>>>>>> e1d4bc35ff8a6074a6f2e91616a996b547c36f15
		<tag k="natural" v="wetland" />
		<tag k="ssr:stedsnr" v="361065" />
	</node>
<<<<<<< HEAD
	<node lat="65.82450277433277" lon="14.088802786096952" id="-8930">
		<tag k="name" v="Gammelmyra" />
=======
	<node id="-150670" lat="66.1520361098" lon="13.9189972176">
		<tag k="name" v="Mastermomyra" />
>>>>>>> e1d4bc35ff8a6074a6f2e91616a996b547c36f15
		<tag k="natural" v="wetland" />
		<tag k="ssr:stedsnr" v="361041" />
	</node>
<<<<<<< HEAD
	<node lat="65.92220833187378" lon="14.427755548175835" id="-8937">
		<tag k="name" v="Sørmyra" />
=======
	<node id="-149645" lat="66.1429000007" lon="13.9231944471">
		<tag k="name" v="Tjønnmyra" />
>>>>>>> e1d4bc35ff8a6074a6f2e91616a996b547c36f15
		<tag k="natural" v="wetland" />
		<tag k="ssr:stedsnr" v="361097" />
	</node>
<<<<<<< HEAD
	<node lat="66.19716944283634" lon="13.627227779681583" id="-8959">
		<tag k="name" v="Storura" />
		<tag k="natural" v="scree" />
		<tag k="ssr:stedsnr" v="361857" />
	</node>
	<node lat="66.03183333071365" lon="13.88217223190468" id="-8968">
		<tag k="name" v="Svahella" />
		<tag k="natural" v="stone" />
		<tag k="ssr:stedsnr" v="379739" />
	</node>
	<node lat="66.08460277370189" lon="13.724644448227037" id="-8972">
		<tag k="name" v="Stormyra" />
		<tag k="natural" v="wetland" />
		<tag k="ssr:stedsnr" v="379012" />
	</node>
	<node lat="66.10018888744528" lon="13.816050001451504" id="-8976">
		<tag k="name" v="Stormyra" />
=======
	<node id="-150666" lat="66.0162833315" lon="13.8589249949">
		<tag k="name" v="Mikkelhøla" />
		<tag k="natural" v="wetland" />
		<tag k="ssr:stedsnr" v="407733" />
	</node>
	<node id="-151176" lat="65.7982638907" lon="13.9789527674">
		<tag k="name" v="Kvalnesmyran" />
>>>>>>> e1d4bc35ff8a6074a6f2e91616a996b547c36f15
		<tag k="natural" v="wetland" />
		<tag k="ssr:stedsnr" v="379027" />
	</node>
<<<<<<< HEAD
	<node lat="66.02239444549477" lon="14.342788883521774" id="-8983">
		<tag k="name" v="Oksskoltbreen" />
		<tag k="natural" v="glacier" />
		<tag k="ssr:stedsnr" v="379072" />
	</node>
	<node lat="66.01392777963109" lon="14.293236115681545" id="-8984">
		<tag k="name" v="Austre Okstindbreen" />
		<tag k="natural" v="glacier" />
		<tag k="ssr:stedsnr" v="379074" />
	</node>
	<node lat="65.97184722650186" lon="14.282291658385999" id="-8990">
		<tag k="name" v="Steikvassbreen" />
		<tag k="natural" v="glacier" />
		<tag k="ssr:stedsnr" v="379098" />
	</node>
	<node lat="65.92372500435404" lon="13.879677780791031" id="-9003">
		<tag k="landuse" v="quarry" />
		<tag k="name" v="Bleikvassli Gruver" />
		<tag k="ssr:stedsnr" v="379680" />
	</node>
	<node lat="66.15891388480696" lon="13.810180557216965" id="-9010">
		<tag k="name" v="Kalvauren" />
		<tag k="place" v="locality" />
		<tag k="ssr:stedsnr" v="379529" />
	</node>
	<node lat="66.13764721943346" lon="13.720949997292443" id="-9014">
		<tag k="name" v="Selhornmyren" />
		<tag k="natural" v="wetland" />
		<tag k="ssr:stedsnr" v="379558" />
	</node>
	<node lat="66.10935277993754" lon="14.106611122548916" id="-9015">
		<tag k="name" v="Kalkurda" />
		<tag k="natural" v="scree" />
		<tag k="ssr:stedsnr" v="379892" />
	</node>
	<node lat="66.18905277687799" lon="13.481413884154845" id="-9026">
=======
	<node id="-149127" lat="66.1852361089" lon="13.6992861159">
		<tag k="name" v="Hagen" />
		<tag k="place" v="locality" />
		<tag k="ssr:stedsnr" v="407516" />
	</node>
	<node id="-149125" lat="66.1861444476" lon="13.7066499896">
		<tag k="name" v="Kalvhagen" />
		<tag k="place" v="locality" />
		<tag k="ssr:stedsnr" v="407511" />
	</node>
	<node id="-149635" lat="65.8702166712" lon="14.1319472146">
		<tag k="name" v="Stormyra" />
		<tag k="natural" v="wetland" />
		<tag k="ssr:stedsnr" v="743217" />
	</node>
	<node id="-149611" lat="66.0845472218" lon="13.7698611157">
		<tag k="name" v="Skjemmelskjegget" />
		<tag k="natural" v="wetland" />
		<tag k="ssr:stedsnr" v="724003" />
	</node>
	<node id="-149120" lat="66.1890527769" lon="13.4814138842">
>>>>>>> e1d4bc35ff8a6074a6f2e91616a996b547c36f15
		<tag k="name" v="Remman" />
		<tag k="place" v="locality" />
		<tag k="ssr:stedsnr" v="406467" />
	</node>
<<<<<<< HEAD
	<node lat="66.01628333150897" lon="13.858924994922937" id="-9034">
		<tag k="name" v="Mikkelhøla" />
=======
	<node id="-151167" lat="65.9225416634" lon="14.3795305569">
		<tag k="name" v="Krokmyran" />
>>>>>>> e1d4bc35ff8a6074a6f2e91616a996b547c36f15
		<tag k="natural" v="wetland" />
		<tag k="ssr:stedsnr" v="407733" />
	</node>
<<<<<<< HEAD
	<node lat="66.15203610982262" lon="13.918997217644069" id="-9046">
		<tag k="name" v="Mastermomyra" />
		<tag k="natural" v="wetland" />
		<tag k="ssr:stedsnr" v="407788" />
	</node>
	<node lat="66.0681388851985" lon="13.824850002812893" id="-9051">
		<tag k="landuse" v="meadow" />
		<tag k="name" v="Hesthagen" />
		<tag k="ssr:stedsnr" v="408631" />
	</node>
	<node lat="66.03333611219456" lon="13.779899993723104" id="-9054">
		<tag k="name" v="Drivamyran" />
		<tag k="natural" v="wetland" />
		<tag k="ssr:stedsnr" v="421213" />
	</node>
	<node lat="65.87423611080845" lon="13.746566676925042" id="-9065">
		<tag k="name" v="Nordenget" />
		<tag k="place" v="locality" />
		<tag k="ssr:stedsnr" v="422173" />
	</node>
	<node lat="65.80614166709745" lon="14.033991663938952" id="-9067">
		<tag k="name" v="Hevelmyra" />
=======
	<node id="-148739" lat="66.0599472262" lon="13.7829750068">
		<tag k="landuse" v="meadow" />
		<tag k="name" v="Granlienget" />
		<tag k="ssr:stedsnr" v="286701" />
	</node>
	<node id="-149628" lat="65.8307388915" lon="14.0508194543">
		<tag k="name" v="Leirvassurda" />
		<tag k="natural" v="scree" />
		<tag k="ssr:stedsnr" v="743163" />
	</node>
	<node id="-151163" lat="65.9091694448" lon="14.2821277737">
		<tag k="name" v="Høgmomyra" />
		<tag k="natural" v="wetland" />
		<tag k="ssr:stedsnr" v="786107" />
	</node>
	<node id="-151162" lat="65.9095611141" lon="14.2100111032">
		<tag k="name" v="Loftmyra" />
		<tag k="natural" v="wetland" />
		<tag k="ssr:stedsnr" v="786104" />
	</node>
	<node id="-149439" lat="66.1620583314" lon="13.8511027855">
		<tag k="name" v="Breivikmyra" />
		<tag k="natural" v="wetland" />
		<tag k="ssr:stedsnr" v="604380" />
	</node>
	<node id="-150132" lat="66.0060361085" lon="13.9687055505">
		<tag k="name" v="Kotamyren" />
		<tag k="natural" v="wetland" />
		<tag k="ssr:stedsnr" v="76788" />
	</node>
	<node id="-150131" lat="66.0336805521" lon="13.8393722167">
		<tag k="name" v="Engesmyra" />
		<tag k="natural" v="wetland" />
		<tag k="ssr:stedsnr" v="76756" />
	</node>
	<node id="-148438" lat="66.0705888851" lon="13.8791527807">
		<tag k="name" v="Storsteinskogen" />
		<tag k="place" v="locality" />
		<tag k="ssr:stedsnr" v="224651" />
	</node>
	<node id="-151152" lat="66.0539249987" lon="13.7634999997">
		<tag k="name" v="Hansamyra" />
		<tag k="natural" v="wetland" />
		<tag k="ssr:stedsnr" v="784245" />
	</node>
	<node id="-148925" lat="66.1863583344" lon="13.6863083395">
		<tag k="name" v="Torvhesjemyra" />
		<tag k="natural" v="wetland" />
		<tag k="ssr:stedsnr" v="468435" />
	</node>
	<node id="-151147" lat="65.9750361151" lon="13.7546389003">
		<tag k="name" v="Blomsterhølmyran" />
>>>>>>> e1d4bc35ff8a6074a6f2e91616a996b547c36f15
		<tag k="natural" v="wetland" />
		<tag k="ssr:stedsnr" v="422442" />
	</node>
<<<<<<< HEAD
	<node lat="66.19298611312159" lon="13.527263879821593" id="-9077">
		<tag k="name" v="Storura" />
=======
	<node id="-150634" lat="66.1093527799" lon="14.1066111225">
		<tag k="name" v="Kalkurda" />
>>>>>>> e1d4bc35ff8a6074a6f2e91616a996b547c36f15
		<tag k="natural" v="scree" />
		<tag k="ssr:stedsnr" v="422839" />
	</node>
<<<<<<< HEAD
	<node lat="66.10987222489165" lon="13.77248611974338" id="-9119">
		<tag k="name" v="Stormyra" />
=======
	<node id="-149606" lat="66.1409111149" lon="13.9056027845">
		<tag k="name" v="Hestmyra" />
>>>>>>> e1d4bc35ff8a6074a6f2e91616a996b547c36f15
		<tag k="natural" v="wetland" />
		<tag k="ssr:stedsnr" v="440874" />
	</node>
<<<<<<< HEAD
	<node lat="65.9763611105977" lon="14.250644438248143" id="-9167">
		<tag k="name" v="Bessedørbreen" />
		<tag k="natural" v="glacier" />
		<tag k="ssr:stedsnr" v="501101" />
	</node>
	<node lat="65.91065277352875" lon="13.739122229268657" id="-9183">
		<tag k="name" v="Stormyra" />
=======
	<node id="-150289" lat="66.0579277766" lon="13.7419833382">
		<tag k="name" v="Håkalimyrene" />
		<tag k="natural" v="wetland" />
		<tag k="ssr:stedsnr" v="164477" />
	</node>
	<node id="-149604" lat="66.2227194472" lon="13.7870805498">
		<tag k="name" v="Fuglemyran" />
>>>>>>> e1d4bc35ff8a6074a6f2e91616a996b547c36f15
		<tag k="natural" v="wetland" />
		<tag k="ssr:stedsnr" v="501671" />
	</node>
<<<<<<< HEAD
	<node lat="65.98849999924366" lon="13.806577787738151" id="-9201">
		<tag k="name" v="Pelleggerenget" />
=======
	<node id="-151138" lat="66.1754666696" lon="13.8155500045">
		<tag k="name" v="Jordan" />
>>>>>>> e1d4bc35ff8a6074a6f2e91616a996b547c36f15
		<tag k="place" v="locality" />
		<tag k="ssr:stedsnr" v="528554" />
	</node>
<<<<<<< HEAD
	<node lat="66.14423889144814" lon="13.839549996418619" id="-9206">
		<tag k="name" v="Hagen" />
		<tag k="place" v="locality" />
		<tag k="ssr:stedsnr" v="528867" />
	</node>
	<node lat="66.06862777462227" lon="13.785088887487891" id="-9207">
		<tag k="name" v="Åkerlomyra" />
		<tag k="natural" v="wetland" />
		<tag k="ssr:stedsnr" v="529632" />
	</node>
	<node lat="65.83040555894448" lon="14.096233326795678" id="-9240">
		<tag k="alt_name" v="Joralsamyra" />
		<tag k="name" v="Jo-Larsamyra" />
		<tag k="natural" v="wetland" />
		<tag k="ssr:stedsnr" v="560113" />
	</node>
	<node lat="66.17106110728473" lon="13.85364721556777" id="-9269">
		<tag k="name" v="Tjønnmyra" />
		<tag k="natural" v="wetland" />
		<tag k="ssr:stedsnr" v="561505" />
	</node>
	<node lat="66.16383333227405" lon="13.887483330575195" id="-9276">
		<tag k="name" v="Langmyra" />
=======
	<node id="-150203" lat="66.2101027794" lon="13.5680638838">
		<tag k="landuse" v="meadow" />
		<tag k="name" v="Gammeljorda" />
		<tag k="ssr:stedsnr" v="118843" />
	</node>
	<node id="-148738" lat="66.0600444408" lon="13.7980111193">
		<tag k="name" v="Endlausmyra" />
		<tag k="natural" v="wetland" />
		<tag k="ssr:stedsnr" v="286700" />
	</node>
	<node id="-151134" lat="66.1412333315" lon="13.9240805564">
		<tag k="landuse" v="meadow" />
		<tag k="name" v="Nordenget" />
		<tag k="ssr:stedsnr" v="771796" />
	</node>
	<node id="-149605" lat="66.1541388884" lon="13.9035222241">
		<tag k="landuse" v="meadow" />
		<tag k="name" v="Frydenget" />
		<tag k="ssr:stedsnr" v="710760" />
	</node>
	<node id="-148414" lat="66.150277775" lon="13.9806222278">
		<tag k="name" v="Kvannmyra" />
		<tag k="natural" v="wetland" />
		<tag k="ssr:stedsnr" v="15610" />
	</node>
	<node id="-150619" lat="66.0318333307" lon="13.8821722319">
		<tag k="name" v="Svahella" />
		<tag k="natural" v="stone" />
		<tag k="ssr:stedsnr" v="379739" />
	</node>
	<node id="-151130" lat="65.9052500043" lon="13.837455556">
		<tag k="name" v="Hølbekkmyra" />
>>>>>>> e1d4bc35ff8a6074a6f2e91616a996b547c36f15
		<tag k="natural" v="wetland" />
		<tag k="ssr:stedsnr" v="561545" />
	</node>
<<<<<<< HEAD
	<node lat="65.92096666228367" lon="13.727544444666112" id="-9294">
		<tag k="name" v="Hestmyra" />
		<tag k="natural" v="wetland" />
		<tag k="ssr:stedsnr" v="561719" />
	</node>
	<node lat="66.03051666492394" lon="14.025991668913772" id="-9302">
		<tag k="name" v="Fagerlimyra" />
		<tag k="natural" v="wetland" />
		<tag k="ssr:stedsnr" v="561768" />
	</node>
	<node lat="66.15038610973066" lon="13.894380555674928" id="-9327">
		<tag k="name" v="Farmyra" />
		<tag k="natural" v="wetland" />
		<tag k="ssr:stedsnr" v="710743" />
	</node>
	<node lat="66.22271944723268" lon="13.787080549790584" id="-9329">
		<tag k="name" v="Fuglemyran" />
=======
	<node id="-151129" lat="65.9176722265" lon="13.8501805601">
		<tag k="name" v="Storsteinen" />
		<tag k="natural" v="stone" />
		<tag k="ssr:stedsnr" v="771636" />
	</node>
	<node id="-148586" lat="66.142227774" lon="13.8031111002">
		<tag k="name" v="Trolldalsauren" />
		<tag k="place" v="locality" />
		<tag k="ssr:stedsnr" v="104866" />
	</node>
	<node id="-148559" lat="65.9734027736" lon="14.4507805644">
		<tag k="name" v="Stormyra" />
>>>>>>> e1d4bc35ff8a6074a6f2e91616a996b547c36f15
		<tag k="natural" v="wetland" />
		<tag k="ssr:stedsnr" v="710757" />
	</node>
<<<<<<< HEAD
	<node lat="66.15413888842086" lon="13.903522224063753" id="-9330">
		<tag k="landuse" v="meadow" />
		<tag k="name" v="Frydenget" />
		<tag k="ssr:stedsnr" v="710760" />
	</node>
	<node lat="66.14091111487188" lon="13.905602784456725" id="-9331">
		<tag k="name" v="Hestmyra" />
		<tag k="natural" v="wetland" />
		<tag k="ssr:stedsnr" v="710774" />
	</node>
	<node lat="66.004605558683" lon="13.840747231272331" id="-9337">
		<tag k="name" v="Kjølmyra" />
		<tag k="natural" v="wetland" />
		<tag k="ssr:stedsnr" v="588331" />
	</node>
	<node lat="66.0781444432918" lon="13.836619436347176" id="-9340">
		<tag k="name" v="Rønningen" />
		<tag k="place" v="locality" />
		<tag k="ssr:stedsnr" v="589746" />
	</node>
	<node lat="66.05984722352714" lon="13.737119454242242" id="-9343">
		<tag k="name" v="Reinhagan" />
		<tag k="place" v="locality" />
		<tag k="ssr:stedsnr" v="589399" />
	</node>
	<node lat="66.2063388868504" lon="13.664919433852694" id="-9345">
		<tag k="name" v="Moaura" />
		<tag k="natural" v="scree" />
		<tag k="ssr:stedsnr" v="589485" />
	</node>
	<node lat="66.15314166968686" lon="13.839900009684895" id="-9349">
		<tag k="name" v="Bjerkaauren" />
=======
	<node id="-149147" lat="66.1929861131" lon="13.5272638798">
		<tag k="name" v="Storura" />
		<tag k="natural" v="scree" />
		<tag k="ssr:stedsnr" v="422839" />
	</node>
	<node id="-150604" lat="65.9237250044" lon="13.8796777808">
		<tag k="landuse" v="quarry" />
		<tag k="name" v="Bleikvassli Gruver" />
		<tag k="ssr:stedsnr" v="379680" />
	</node>
	<node id="-151115" lat="66.0703277758" lon="13.76893612">
		<tag k="name" v="Lars-Nilsamyran" />
		<tag k="natural" v="wetland" />
		<tag k="ssr:stedsnr" v="771428" />
	</node>
	<node id="-151112" lat="66.0535250032" lon="14.0262166581">
		<tag k="name" v="Holmen" />
>>>>>>> e1d4bc35ff8a6074a6f2e91616a996b547c36f15
		<tag k="place" v="locality" />
		<tag k="ssr:stedsnr" v="589884" />
	</node>
<<<<<<< HEAD
	<node lat="66.15536666381033" lon="13.857572210964623" id="-9352">
		<tag k="name" v="Rønningan" />
		<tag k="place" v="locality" />
		<tag k="ssr:stedsnr" v="589783" />
	</node>
	<node lat="66.03723055959742" lon="13.778744451798422" id="-9363">
		<tag k="name" v="Fjellenget" />
		<tag k="natural" v="wetland" />
		<tag k="ssr:stedsnr" v="602239" />
	</node>
	<node lat="65.90898888703786" lon="14.484630555004355" id="-9367">
		<tag k="name" v="Stormyra" />
		<tag k="natural" v="wetland" />
		<tag k="ssr:stedsnr" v="603123" />
	</node>
	<node lat="66.16205833140619" lon="13.851102785536066" id="-9385">
		<tag k="name" v="Breivikmyra" />
		<tag k="natural" v="wetland" />
		<tag k="ssr:stedsnr" v="604380" />
	</node>
	<node lat="65.86746110975639" lon="13.946661106495833" id="-9424">
		<tag k="name" v="Innernesmyra" />
		<tag k="natural" v="wetland" />
		<tag k="ssr:stedsnr" v="622189" />
	</node>
	<node lat="65.96898611335686" lon="13.937197219401293" id="-9433">
		<tag k="name" v="Femtilassmyra" />
=======
	<node id="-151137" lat="66.0852333297" lon="13.8833111167">
		<tag k="name" v="Bukkliteigen" />
		<tag k="place" v="locality" />
		<tag k="ssr:stedsnr" v="772748" />
	</node>
	<node id="-150084" lat="66.0909111141" lon="13.7032972296">
		<tag k="alt_name" v="Skrivarurda" />
		<tag k="name" v="Skrivarura" />
		<tag k="natural" v="scree" />
		<tag k="ssr:stedsnr" v="76303" />
	</node>
	<node id="-151107" lat="66.0017638865" lon="13.8363166573">
		<tag k="name" v="Veitmyra" />
		<tag k="natural" v="wetland" />
		<tag k="ssr:stedsnr" v="770320" />
	</node>
	<node id="-150594" lat="66.1376472194" lon="13.7209499973">
		<tag k="name" v="Selhornmyren" />
>>>>>>> e1d4bc35ff8a6074a6f2e91616a996b547c36f15
		<tag k="natural" v="wetland" />
		<tag k="ssr:stedsnr" v="622626" />
	</node>
	<node lat="65.9696722192622" lon="14.166113896623344" id="-9434">
		<tag k="name" v="Oksfjellbreen" />
		<tag k="natural" v="glacier" />
		<tag k="ssr:stedsnr" v="622634" />
	</node>
<<<<<<< HEAD
	<node lat="66.08326388864509" lon="13.845780554205925" id="-9448">
		<tag k="landuse" v="meadow" />
		<tag k="name" v="Nyfallenget" />
		<tag k="ssr:stedsnr" v="649750" />
	</node>
	<node lat="66.19001388614384" lon="13.467472231460283" id="-9451">
		<tag k="name" v="Revenget" />
		<tag k="place" v="locality" />
		<tag k="ssr:stedsnr" v="649471" />
	</node>
	<node lat="66.01811388799169" lon="13.868500000041475" id="-9463">
		<tag k="name" v="Trongen" />
		<tag k="place" v="locality" />
		<tag k="ssr:stedsnr" v="649732" />
	</node>
	<node lat="66.0269583356948" lon="13.820605548762373" id="-9465">
		<tag k="name" v="Brennselmyra" />
		<tag k="natural" v="wetland" />
		<tag k="ssr:stedsnr" v="649573" />
	</node>
	<node lat="66.029363892672" lon="13.823780559920396" id="-9467">
		<tag k="name" v="Rypmyra" />
		<tag k="natural" v="wetland" />
		<tag k="ssr:stedsnr" v="649579" />
	</node>
	<node lat="66.15305000144029" lon="13.779486114695597" id="-9489">
		<tag k="name" v="Hesthagen" />
		<tag k="place" v="locality" />
		<tag k="ssr:stedsnr" v="664397" />
	</node>
	<node lat="65.87892777875236" lon="14.076452781944125" id="-9507">
		<tag k="name" v="Brødstøkkmyra" />
=======
	<node id="-151175" lat="65.7992194473" lon="13.9646805632">
		<tag k="name" v="Hevelmyra" />
		<tag k="natural" v="wetland" />
		<tag k="ssr:stedsnr" v="786482" />
	</node>
	<node id="-150590" lat="66.1589138848" lon="13.8101805572">
		<tag k="name" v="Kalvauren" />
		<tag k="place" v="locality" />
		<tag k="ssr:stedsnr" v="379529" />
	</node>
	<node id="-149562" lat="66.0462138873" lon="14.0621305504">
		<tag k="name" v="Storsteinen" />
		<tag k="natural" v="stone" />
		<tag k="ssr:stedsnr" v="892764" />
	</node>
	<node id="-149561" lat="66.0468138932" lon="14.0507638821">
		<tag k="name" v="Strandåkeren" />
		<tag k="place" v="locality" />
		<tag k="ssr:stedsnr" v="892760" />
	</node>
	<node id="-150196" lat="66.1741027747" lon="13.945938897">
		<tag k="name" v="Kløvasteinen" />
		<tag k="natural" v="stone" />
		<tag k="ssr:stedsnr" v="118449" />
	</node>
	<node id="-148468" lat="66.1182750032" lon="13.8282527876">
		<tag k="name" v="Bjynnskjøtet" />
		<tag k="place" v="locality" />
		<tag k="ssr:stedsnr" v="225837" />
	</node>
	<node id="-149045" lat="66.1971694428" lon="13.6272277797">
		<tag k="name" v="Storura" />
		<tag k="natural" v="scree" />
		<tag k="ssr:stedsnr" v="361857" />
	</node>
	<node id="-149554" lat="66.1358333329" lon="13.817797219">
		<tag k="landuse" v="meadow" />
		<tag k="name" v="Vallabotn" />
		<tag k="ssr:stedsnr" v="692722" />
	</node>
	<node id="-151087" lat="66.0547194464" lon="14.1540611078">
		<tag k="name" v="Sandan" />
		<tag k="place" v="locality" />
		<tag k="ssr:stedsnr" v="743988" />
	</node>
	<node id="-149550" lat="66.0192555578" lon="13.9010472278">
		<tag k="name" v="Laurda" />
		<tag k="natural" v="scree" />
		<tag k="ssr:stedsnr" v="683774" />
	</node>
	<node id="-150166" lat="65.9834249958" lon="13.7992694491">
		<tag k="name" v="Janesenget" />
		<tag k="place" v="locality" />
		<tag k="ssr:stedsnr" v="104517" />
	</node>
	<node id="-148522" lat="66.2211361126" lon="13.8706694342">
		<tag k="name" v="Starrmyra" />
>>>>>>> e1d4bc35ff8a6074a6f2e91616a996b547c36f15
		<tag k="natural" v="wetland" />
		<tag k="ssr:stedsnr" v="725043" />
	</node>
<<<<<<< HEAD
	<node lat="65.89186389200428" lon="14.074649996040662" id="-9510">
		<tag k="name" v="Hestmyra" />
=======
	<node id="-149033" lat="66.1451250018" lon="14.0417499954">
		<tag k="name" v="Haramyrene" />
>>>>>>> e1d4bc35ff8a6074a6f2e91616a996b547c36f15
		<tag k="natural" v="wetland" />
		<tag k="ssr:stedsnr" v="725075" />
	</node>
<<<<<<< HEAD
	<node lat="65.87021667116589" lon="14.131947214597805" id="-9539">
		<tag k="name" v="Stormyra" />
		<tag k="natural" v="wetland" />
		<tag k="ssr:stedsnr" v="743217" />
	</node>
	<node lat="65.83073889151089" lon="14.050819454310327" id="-9551">
		<tag k="name" v="Leirvassurda" />
		<tag k="natural" v="scree" />
		<tag k="ssr:stedsnr" v="743163" />
	</node>
	<node lat="66.14290000069336" lon="13.9231944470823" id="-9563">
		<tag k="name" v="Tjønnmyra" />
		<tag k="natural" v="wetland" />
		<tag k="ssr:stedsnr" v="743566" />
	</node>
	<node lat="65.98744167102535" lon="14.148052776254511" id="-9569">
		<tag k="name" v="Okstindbreen" />
		<tag k="natural" v="glacier" />
		<tag k="ssr:stedsnr" v="743662" />
	</node>
	<node lat="66.19219166392114" lon="13.749422215784579" id="-9573">
		<tag k="name" v="Reinhagan" />
		<tag k="place" v="locality" />
		<tag k="ssr:stedsnr" v="743722" />
	</node>
	<node lat="66.05471944644484" lon="14.154061107847717" id="-9577">
		<tag k="name" v="Sandan" />
		<tag k="place" v="locality" />
		<tag k="ssr:stedsnr" v="743988" />
	</node>
	<node lat="66.00176388652238" lon="13.836316657281426" id="-9600">
		<tag k="name" v="Veitmyra" />
		<tag k="natural" v="wetland" />
		<tag k="ssr:stedsnr" v="770320" />
	</node>
	<node lat="66.05352500320559" lon="14.02621665814707" id="-9605">
		<tag k="name" v="Holmen" />
		<tag k="place" v="locality" />
		<tag k="ssr:stedsnr" v="770953" />
	</node>
	<node lat="65.91767222652499" lon="13.8501805601346" id="-9611">
		<tag k="name" v="Storsteinen" />
		<tag k="natural" v="stone" />
		<tag k="ssr:stedsnr" v="771636" />
	</node>
	<node lat="65.90525000431015" lon="13.837455556017176" id="-9612">
		<tag k="name" v="Hølbekkmyra" />
		<tag k="natural" v="wetland" />
		<tag k="ssr:stedsnr" v="771639" />
	</node>
	<node lat="66.14123333150923" lon="13.92408055635998" id="-9621">
		<tag k="landuse" v="meadow" />
		<tag k="name" v="Nordenget" />
		<tag k="ssr:stedsnr" v="771796" />
	</node>
	<node lat="66.17546666961033" lon="13.815550004532614" id="-9625">
		<tag k="name" v="Jordan" />
		<tag k="place" v="locality" />
		<tag k="ssr:stedsnr" v="772628" />
	</node>
	<node lat="66.08523332973215" lon="13.883311116678257" id="-9626">
		<tag k="name" v="Bukkliteigen" />
		<tag k="place" v="locality" />
		<tag k="ssr:stedsnr" v="772748" />
	</node>
	<node lat="66.05392499874769" lon="13.763499999678352" id="-9631">
		<tag k="name" v="Hansamyra" />
=======
	<node id="-148520" lat="66.1626583342" lon="13.9233527878">
		<tag k="name" v="Stormyra" />
		<tag k="natural" v="wetland" />
		<tag k="ssr:stedsnr" v="240417" />
	</node>
	<node id="-148833" lat="66.2019222189" lon="13.8068916555">
		<tag k="alt_name" v="Kleivura" />
		<tag k="name" v="Kleivurda" />
		<tag k="natural" v="scree" />
		<tag k="ssr:stedsnr" v="440699" />
	</node>
	<node id="-148514" lat="65.9073777767" lon="14.2126472235">
		<tag k="name" v="Våtmyra" />
		<tag k="natural" v="wetland" />
		<tag k="ssr:stedsnr" v="240120" />
	</node>
	<node id="-150561" lat="66.0792166687" lon="14.3332333283">
		<tag k="name" v="Gresfjellurda" />
		<tag k="natural" v="scree" />
		<tag k="ssr:stedsnr" v="379129" />
	</node>
	<node id="-149024" lat="66.1518611084" lon="13.8701583269">
		<tag k="landuse" v="meadow" />
		<tag k="name" v="Åslettenget" />
		<tag k="ssr:stedsnr" v="346762" />
	</node>
	<node id="-148927" lat="66.2261444416" lon="13.6762444508">
		<tag k="name" v="Mortenura" />
		<tag k="natural" v="scree" />
		<tag k="ssr:stedsnr" v="468444" />
	</node>
	<node id="-150553" lat="65.9718472265" lon="14.2822916584">
		<tag k="name" v="Steikvassbreen" />
		<tag k="natural" v="glacier" />
		<tag k="ssr:stedsnr" v="379098" />
	</node>
	<node id="-151293" lat="66.1277916695" lon="13.8042861135">
		<tag k="name" v="Steikeauren" />
		<tag k="place" v="locality" />
		<tag k="ssr:stedsnr" v="832829" />
	</node>
	<node id="-148740" lat="66.0811444412" lon="13.8444249988">
		<tag k="name" v="Storolderskogen" />
		<tag k="place" v="locality" />
		<tag k="ssr:stedsnr" v="286781" />
	</node>
	<node id="-149526" lat="66.0624638863" lon="13.9335305501">
		<tag k="name" v="Myrene" />
		<tag k="natural" v="wetland" />
		<tag k="ssr:stedsnr" v="682969" />
	</node>
	<node id="-150037" lat="65.8695194421" lon="13.733686111">
		<tag k="name" v="Småskogen" />
		<tag k="place" v="locality" />
		<tag k="ssr:stedsnr" v="58200" />
	</node>
	<node id="-150036" lat="65.8710944452" lon="13.7396833349">
		<tag k="name" v="Istermyra" />
		<tag k="natural" v="wetland" />
		<tag k="ssr:stedsnr" v="58198" />
	</node>
	<node id="-150547" lat="66.0139277796" lon="14.2932361157">
		<tag k="name" v="Austre Okstindbreen" />
		<tag k="natural" v="glacier" />
		<tag k="ssr:stedsnr" v="379074" />
	</node>
	<node id="-150546" lat="66.0223944455" lon="14.3427888835">
		<tag k="name" v="Oksskoltbreen" />
		<tag k="natural" v="glacier" />
		<tag k="ssr:stedsnr" v="379072" />
	</node>
	<node id="-150033" lat="65.8226833295" lon="14.0829805569">
		<tag k="name" v="Høystakkmyra" />
>>>>>>> e1d4bc35ff8a6074a6f2e91616a996b547c36f15
		<tag k="natural" v="wetland" />
		<tag k="ssr:stedsnr" v="784245" />
	</node>
<<<<<<< HEAD
	<node lat="65.97503611511348" lon="13.754638900273092" id="-9638">
		<tag k="name" v="Blomsterhølmyran" />
		<tag k="natural" v="wetland" />
		<tag k="ssr:stedsnr" v="784191" />
	</node>
	<node lat="65.79921944729932" lon="13.964680563178245" id="-9648">
		<tag k="name" v="Hevelmyra" />
=======
	<node id="-149007" lat="65.9121472229" lon="14.2852722226">
		<tag k="name" v="Kattbrevmyra" />
>>>>>>> e1d4bc35ff8a6074a6f2e91616a996b547c36f15
		<tag k="natural" v="wetland" />
		<tag k="ssr:stedsnr" v="786482" />
	</node>
<<<<<<< HEAD
	<node lat="65.79826389070158" lon="13.978952767429117" id="-9649">
		<tag k="name" v="Kvalnesmyran" />
=======
	<node id="-150542" lat="66.1001888874" lon="13.8160500015">
		<tag k="name" v="Stormyra" />
>>>>>>> e1d4bc35ff8a6074a6f2e91616a996b547c36f15
		<tag k="natural" v="wetland" />
		<tag k="ssr:stedsnr" v="786483" />
	</node>
<<<<<<< HEAD
	<node lat="66.17410833213158" lon="13.992841659498502" id="-9654">
		<tag k="name" v="Neverskardmyra" />
		<tag k="natural" v="wetland" />
		<tag k="ssr:stedsnr" v="786532" />
	</node>
	<node lat="66.1846083335091" lon="13.827372232142947" id="-9685">
		<tag k="name" v="Skjenmyra" />
=======
	<node id="-150027" lat="65.9893805582" lon="13.7744666701">
		<tag k="name" v="Reinhagenget" />
		<tag k="place" v="locality" />
		<tag k="ssr:stedsnr" v="56176" />
	</node>
	<node id="-150538" lat="66.0846027737" lon="13.7246444482">
		<tag k="name" v="Stormyra" />
>>>>>>> e1d4bc35ff8a6074a6f2e91616a996b547c36f15
		<tag k="natural" v="wetland" />
		<tag k="ssr:stedsnr" v="804545" />
	</node>
<<<<<<< HEAD
	<node lat="66.17665833339376" lon="13.853480549525921" id="-9726">
		<tag k="name" v="Øvre Langmyra" />
=======
	<node id="-148489" lat="66.0404944481" lon="13.7581277785">
		<tag k="name" v="Kåremyra" />
>>>>>>> e1d4bc35ff8a6074a6f2e91616a996b547c36f15
		<tag k="natural" v="wetland" />
		<tag k="ssr:stedsnr" v="832821" />
	</node>
<<<<<<< HEAD
	<node lat="66.0618916668522" lon="13.765752783334818" id="-9729">
		<tag k="name" v="Skådammyra" />
		<tag k="natural" v="wetland" />
		<tag k="ssr:stedsnr" v="832443" />
	</node>
	<node lat="66.05071111378331" lon="13.797272226956327" id="-9733">
		<tag k="name" v="Fagerengmyra" />
=======
	<node id="-148488" lat="66.0475277788" lon="13.7489972176">
		<tag k="name" v="Katthansjorda" />
		<tag k="place" v="locality" />
		<tag k="ssr:stedsnr" v="238232" />
	</node>
	<node id="-148999" lat="65.900133331" lon="13.7731777716">
		<tag k="name" v="Storaven" />
>>>>>>> e1d4bc35ff8a6074a6f2e91616a996b547c36f15
		<tag k="natural" v="wetland" />
		<tag k="ssr:stedsnr" v="832554" />
	</node>
<<<<<<< HEAD
	<node lat="66.14928333091939" lon="13.90248332468971" id="-9744">
		<tag k="name" v="Råbandsmyra" />
=======
	<node id="-149093" lat="65.9763611106" lon="14.2506444382">
		<tag k="name" v="Bessedørbreen" />
		<tag k="natural" v="glacier" />
		<tag k="ssr:stedsnr" v="501101" />
	</node>
	<node id="-150019" lat="65.8980749995" lon="14.1219861087">
		<tag k="name" v="Tjærebrennmyra" />
>>>>>>> e1d4bc35ff8a6074a6f2e91616a996b547c36f15
		<tag k="natural" v="wetland" />
		<tag k="ssr:stedsnr" v="832762" />
	</node>
<<<<<<< HEAD
	<node lat="66.1483749982505" lon="13.80203333308567" id="-9746">
		<tag k="name" v="Fløaauren" />
		<tag k="place" v="locality" />
		<tag k="ssr:stedsnr" v="832847" />
	</node>
	<node lat="66.15972222698943" lon="13.877649992229031" id="-9749">
		<tag k="name" v="Stormyra" />
		<tag k="natural" v="wetland" />
		<tag k="ssr:stedsnr" v="832868" />
	</node>
	<node lat="66.067994442984" lon="13.796822219164826" id="-9751">
		<tag k="name" v="Bjynnstimyra" />
		<tag k="natural" v="wetland" />
		<tag k="ssr:stedsnr" v="833646" />
	</node>
	<node lat="66.0485000037568" lon="13.75071667792204" id="-9760">
		<tag k="name" v="Lauramyra" />
		<tag k="natural" v="wetland" />
		<tag k="ssr:stedsnr" v="845239" />
	</node>
	<node lat="65.82568889361681" lon="14.082872214251076" id="-9766">
		<tag k="name" v="Tomyra" />
		<tag k="natural" v="wetland" />
		<tag k="ssr:stedsnr" v="847049" />
	</node>
	<node lat="66.23639444133606" lon="13.522063879607419" id="-9767">
		<tag k="name" v="Hagamyra" />
		<tag k="natural" v="wetland" />
		<tag k="ssr:stedsnr" v="847162" />
	</node>
	<node lat="65.98313055433037" lon="14.36649167716274" id="-9785">
		<tag k="alt_name" v="Svartfjellbreen, austre" />
		<tag k="name" v="Austre Svartfjellbreen" />
		<tag k="natural" v="glacier" />
		<tag k="ssr:stedsnr" v="865113" />
	</node>
	<node lat="65.93173333481438" lon="13.848147231234698" id="-9846">
		<tag k="name" v="Fjellmyra" />
		<tag k="natural" v="wetland" />
		<tag k="ssr:stedsnr" v="865735" />
	</node>
	<node lat="66.08926944817264" lon="13.836172232206962" id="-9859">
		<tag k="name" v="Tronesmyra" />
		<tag k="natural" v="wetland" />
		<tag k="ssr:stedsnr" v="865921" />
	</node>
	<node lat="66.19743888788868" lon="13.472844452678578" id="-9875">
		<tag k="name" v="Kartmyrkjerran" />
		<tag k="natural" v="wetland" />
		<tag k="ssr:stedsnr" v="952420" />
	</node>
	<node lat="66.05106111466307" lon="14.022675009511355" id="-9878">
		<tag k="landuse" v="meadow" />
		<tag k="name" v="Larsenget" />
		<tag k="ssr:stedsnr" v="952768" />
	</node>
	<node lat="66.16044166891707" lon="13.844577770340631" id="-9890">
		<tag k="name" v="Fares" />
		<tag k="place" v="locality" />
		<tag k="ssr:stedsnr" v="953857" />
	</node>
	<node lat="66.07185555527032" lon="13.954547214396875" id="-9896">
		<tag k="name" v="Pengåkeren" />
		<tag k="place" v="locality" />
		<tag k="ssr:stedsnr" v="953823" />
	</node>
	<node lat="65.87287777928401" lon="14.131047224126714" id="-9908">
		<tag k="name" v="Vikmyra" />
		<tag k="natural" v="wetland" />
		<tag k="ssr:stedsnr" v="968083" />
	</node>
	<node lat="66.10019166377792" lon="13.778416655953121" id="-9920">
		<tag k="name" v="Tømmerstepmyran" />
		<tag k="natural" v="wetland" />
		<tag k="ssr:stedsnr" v="968439" />
	</node>
	<node lat="65.89174444302218" lon="13.840222230779746" id="-9934">
		<tag k="name" v="Sølvspennmyra" />
		<tag k="natural" v="wetland" />
		<tag k="ssr:stedsnr" v="968537" />
	</node>
	<node lat="66.17473333479111" lon="13.832424990157364" id="-9936">
		<tag k="name" v="Sjålihøla" />
		<tag k="natural" v="wetland" />
		<tag k="ssr:stedsnr" v="968381" />
=======
	<node id="-149419" lat="66.131744449" lon="13.7935277756">
		<tag k="landuse" v="meadow" />
		<tag k="name" v="Bakklandet" />
		<tag k="ssr:stedsnr" v="710688" />
>>>>>>> e1d4bc35ff8a6074a6f2e91616a996b547c36f15
	</node>
</osm>
