<?xml version="1.0" encoding="UTF-8"?>
<osm generator="osmapis" version="0.6">
	<node id="-653308" lat="66.152175" lon="13.7852583324">
		<tag k="name" v="Kleiven" />
		<tag k="place" v="farm" />
		<tag k="ssr:stedsnr" v="286878" />
	</node>
	<node id="-655355" lat="65.9178833321" lon="13.8717888853">
		<tag k="name" v="Buktlia" />
		<tag k="place" v="quarter" />
		<tag k="ssr:stedsnr" v="647131" />
	</node>
	<node id="-655354" lat="65.8845694487" lon="14.1588611015">
		<tag k="name" v="Stabervika" />
		<tag k="place" v="farm" />
		<tag k="ssr:stedsnr" v="646226" />
	</node>
	<node id="-655353" lat="66.14981944" lon="13.8462722292">
		<tag k="name" v="Storbakken" />
		<tag k="place" v="farm" />
		<tag k="ssr:stedsnr" v="631696" />
	</node>
	<node id="-655351" lat="66.1682666696" lon="13.8305916618">
		<tag k="name" v="Nyholmen" />
		<tag k="place" v="farm" />
		<tag k="ssr:stedsnr" v="631642" />
	</node>
	<node id="-655350" lat="66.0408444447" lon="13.7739138837">
		<tag k="historic" v="shieling" />
		<tag k="name" v="Bjurselmosætra" />
		<tag k="place" v="locality" />
		<tag k="ssr:stedsnr" v="623000" />
	</node>
	<node id="-653300" lat="65.8844999989" lon="13.8554444337">
		<tag k="name" v="Granskoglia" />
		<tag k="place" v="farm" />
		<tag k="ssr:stedsnr" v="15223" />
	</node>
	<node id="-655346" lat="66.0758055522" lon="13.9271388874">
		<tag k="name" v="Melandshaugen" />
		<tag k="place" v="farm" />
		<tag k="ssr:stedsnr" v="622943" />
	</node>
	<node id="-655345" lat="66.0817027732" lon="13.8358333375">
		<tag k="name" v="Aspmoen" />
		<tag k="place" v="quarter" />
		<tag k="ssr:stedsnr" v="622938" />
	</node>
	<node id="-655344" lat="66.0753777813" lon="13.7455944488">
		<tag k="historic" v="shieling" />
		<tag k="name" v="Krokan" />
		<tag k="place" v="locality" />
		<tag k="ssr:stedsnr" v="622935" />
	</node>
	<node id="-655342" lat="66.1037694484" lon="13.7931138799">
		<tag k="name" v="Heimtun" />
		<tag k="place" v="farm" />
		<tag k="ssr:stedsnr" v="622892" />
	</node>
	<node id="-655336" lat="65.9535555593" lon="13.8635999927">
		<tag k="name" v="Skardet" />
		<tag k="place" v="farm" />
		<tag k="ssr:stedsnr" v="622736" />
	</node>
	<node id="-655335" lat="66.2203888877" lon="13.8449638814">
		<tag k="name" v="Urdlandet" />
		<tag k="place" v="farm" />
		<tag k="ssr:stedsnr" v="622714" />
	</node>
	<node id="-655329" lat="65.9655055579" lon="13.8432166568">
		<tag k="alt_name" v="Fjellavli" />
		<tag k="name" v="Fjellavlia" />
		<tag k="place" v="farm" />
		<tag k="ssr:stedsnr" v="622616" />
	</node>
	<node id="-655328" lat="65.9602555539" lon="13.9042583272">
		<tag k="name" v="Lendingvika" />
		<tag k="place" v="isolated_dwelling" />
		<tag k="ssr:stedsnr" v="622613" />
	</node>
	<node id="-653305" lat="66.1114972253" lon="13.7968777778">
		<tag k="name" v="Johanmoen" />
		<tag k="place" v="farm" />
		<tag k="ssr:stedsnr" v="286859" />
	</node>
	<node id="-655316" lat="65.8998861139" lon="13.8455389003">
		<tag k="name" v="Valum" />
		<tag k="place" v="farm" />
		<tag k="ssr:stedsnr" v="622258" />
	</node>
	<node id="-655314" lat="65.866683329" lon="13.9328750039">
		<tag k="alt_name" v="Undheim" />
		<tag k="name" v="Unnheim" />
		<tag k="place" v="isolated_dwelling" />
		<tag k="ssr:stedsnr" v="622192" />
	</node>
	<node id="-655309" lat="65.8304888893" lon="13.8939861117">
		<tag k="alt_name" v="Seljeli" />
		<tag k="name" v="Seljelia" />
		<tag k="place" v="farm" />
		<tag k="ssr:stedsnr" v="622153" />
	</node>
	<node id="-655303" lat="65.9070916648" lon="14.3161500092">
		<tag k="alt_name" v="Sandvik" />
		<tag k="name" v="Sandvika" />
		<tag k="place" v="farm" />
		<tag k="ssr:stedsnr" v="622077" />
	</node>
	<node id="-655293" lat="66.050158331" lon="13.8022583233">
		<tag k="name" v="Fagereng" />
		<tag k="place" v="farm" />
		<tag k="ssr:stedsnr" v="621980" />
	</node>
	<node id="-655292" lat="66.0574750016" lon="13.7909111166">
		<tag k="name" v="Vesterlia" />
		<tag k="place" v="quarter" />
		<tag k="ssr:stedsnr" v="621965" />
	</node>
	<node id="-655289" lat="66.0831555568" lon="13.7485277762">
		<tag k="historic" v="shieling" />
		<tag k="name" v="Tilrem" />
		<tag k="place" v="locality" />
		<tag k="ssr:stedsnr" v="621932" />
	</node>
	<node id="-655494" lat="66.0027111139" lon="13.926686109">
		<tag k="alt_name" v="Nilsskog" />
		<tag k="name" v="Nilsskogen" />
		<tag k="place" v="farm" />
		<tag k="ssr:stedsnr" v="682841" />
	</node>
	<node id="-655277" lat="65.9992944421" lon="13.8261944435">
		<tag k="name" v="Stabbforsmoen" />
		<tag k="place" v="farm" />
		<tag k="ssr:stedsnr" v="621710" />
	</node>
	<node id="-655272" lat="66.14779722" lon="13.8836222146">
		<tag k="name" v="Kvanndalen" />
		<tag k="place" v="farm" />
		<tag k="ssr:stedsnr" v="621631" />
	</node>
	<node id="-655264" lat="65.8918138861" lon="13.8434222144">
		<tag k="alt_name" v="Storbekkmo" />
		<tag k="name" v="Storbekkmoen" />
		<tag k="place" v="farm" />
		<tag k="ssr:stedsnr" v="621235" />
	</node>
	<node id="-655254" lat="66.0966777819" lon="13.798427773">
		<tag k="alt_name" v="Helbekkmoen" />
		<tag k="name" v="Hellbekkmoen" />
		<tag k="place" v="farm" />
		<tag k="ssr:stedsnr" v="621915" />
	</node>
	<node id="-655247" lat="65.9170472209" lon="14.3989694477">
		<tag k="name" v="Nystad" />
		<tag k="place" v="farm" />
		<tag k="ssr:stedsnr" v="604101" />
	</node>
	<node id="-655681" lat="66.2375500004" lon="13.6886277731">
		<tag k="name" v="Geitvika" />
		<tag k="place" v="farm" />
		<tag k="ssr:stedsnr" v="743121" />
	</node>
	<node id="-655208" lat="66.1545555523" lon="13.8431472235">
		<tag k="name" v="Fargo" />
		<tag k="place" v="farm" />
		<tag k="ssr:stedsnr" v="589878" />
	</node>
	<node id="-655198" lat="66.0229305523" lon="13.8568444426">
		<tag k="name" v="Skogtun" />
		<tag k="place" v="farm" />
		<tag k="ssr:stedsnr" v="589736" />
	</node>
	<node id="-655193" lat="66.0473527781" lon="13.812155548">
		<tag k="name" v="Sjøbakken" />
		<tag k="place" v="farm" />
		<tag k="ssr:stedsnr" v="589553" />
	</node>
	<node id="-655179" lat="66.1341000002" lon="13.8267277795">
		<tag k="name" v="Langneset" />
		<tag k="place" v="farm" />
		<tag k="ssr:stedsnr" v="588661" />
	</node>
	<node id="-655178" lat="66.1370777743" lon="13.8032583289">
		<tag k="name" v="Lillebakken" />
		<tag k="place" v="farm" />
		<tag k="ssr:stedsnr" v="588659" />
	</node>
	<node id="-655170" lat="66.0521083331" lon="13.754116656">
		<tag k="historic" v="shieling" />
		<tag k="name" v="Nils Monsa-jorda" />
		<tag k="place" v="locality" />
		<tag k="ssr:stedsnr" v="561981" />
	</node>
	<node id="-655164" lat="66.0654083324" lon="13.8066416766">
		<tag k="alt_name" v="Møllehusmoen" />
		<tag k="name" v="Mølnhusmoen" />
		<tag k="place" v="farm" />
		<tag k="ssr:stedsnr" v="561936" />
	</node>
	<node id="-655157" lat="66.0985444418" lon="13.8406138918">
		<tag k="name" v="Nerleirvollen" />
		<tag k="place" v="farm" />
		<tag k="ssr:stedsnr" v="561890" />
	</node>
	<node id="-655156" lat="66.1089027761" lon="13.7872944532">
		<tag k="name" v="Kvernmoen" />
		<tag k="place" v="farm" />
		<tag k="ssr:stedsnr" v="561879" />
	</node>
	<node id="-655145" lat="65.9515083359" lon="13.7962305589">
		<tag k="alt_name" v="Krokselmoen" />
		<tag k="name" v="Kroksælmoen" />
		<tag k="place" v="farm" />
		<tag k="ssr:stedsnr" v="561748" />
	</node>
	<node id="-655137" lat="65.9221527804" lon="13.8247861057">
		<tag k="name" v="Nordås" />
		<tag k="place" v="farm" />
		<tag k="ssr:stedsnr" v="561713" />
	</node>
	<node id="-655132" lat="65.9798999985" lon="13.7782249994">
		<tag k="name" v="Storskogen" />
		<tag k="place" v="farm" />
		<tag k="ssr:stedsnr" v="561660" />
	</node>
	<node id="-655128" lat="66.1305888893" lon="13.819658343">
		<tag k="name" v="Labakken" />
		<tag k="place" v="farm" />
		<tag k="ssr:stedsnr" v="561625" />
	</node>
	<node id="-655123" lat="66.1633972187" lon="13.8450777683">
		<tag k="name" v="Fagerlia" />
		<tag k="place" v="farm" />
		<tag k="ssr:stedsnr" v="561544" />
	</node>
	<node id="-655120" lat="66.1877694468" lon="13.7919472216">
		<tag k="name" v="Finneidfjord" />
		<tag k="place" v="village" />
		<tag k="ssr:stedsnr" v="561524" />
	</node>
	<node id="-655693" lat="65.8715516854" lon="13.7467389879">
		<tag k="alt_name" v="Tverrberg" />
		<tag k="fixme" v="consider place=hamlet" />
		<tag k="name" v="Tverrberget" />
		<tag k="place" v="farm" />
		<tag k="ssr:stedsnr" v="743226" />
	</node>
	<node id="-655112" lat="66.20028889" lon="13.6453833225">
		<tag k="name" v="Odelsmoen" />
		<tag k="place" v="farm" />
		<tag k="ssr:stedsnr" v="561417" />
	</node>
	<node id="-655111" lat="66.2062666652" lon="13.6526611209">
		<tag k="alt_name" v="Ekkeren" />
		<tag k="name" v="Ekra" />
		<tag k="place" v="farm" />
		<tag k="ssr:stedsnr" v="561416" />
	</node>
	<node id="-655105" lat="65.8963416704" lon="13.8007944403">
		<tag k="name" v="Sørli" />
		<tag k="place" v="farm" />
		<tag k="ssr:stedsnr" v="561255" />
	</node>
	<node id="-655098" lat="65.7987583316" lon="13.9537888944">
		<tag k="alt_name" v="Orrhaug" />
		<tag k="name" v="Orrhaugen" />
		<tag k="place" v="farm" />
		<tag k="ssr:stedsnr" v="561133" />
	</node>
	<node id="-655657" lat="65.9013500009" lon="13.805652783">
		<tag k="name" v="Åsen" />
		<tag k="place" v="farm" />
		<tag k="ssr:stedsnr" v="725468" />
	</node>
	<node id="-655092" lat="66.2306666712" lon="13.5523999916">
		<tag k="name" v="Osmoen" />
		<tag k="place" v="farm" />
		<tag k="ssr:stedsnr" v="561100" />
	</node>
	<node id="-655087" lat="66.2108388933" lon="13.5758222154">
		<tag k="alt_name" v="Brennesvik" />
		<tag k="name" v="Brennesvika" />
		<tag k="place" v="farm" />
		<tag k="ssr:stedsnr" v="561082" />
	</node>
	<node id="-655086" lat="65.9178833364" lon="14.3945111063">
		<tag k="alt_name" v="Stekvasselv" />
		<tag k="fixme" v="consider place=hamlet" />
		<tag k="name" v="Steikvasselva" />
		<tag k="place" v="farm" />
		<tag k="ssr:stedsnr" v="561079" />
	</node>
	<node id="-655084" lat="66.2136249988" lon="13.6524583441">
		<tag k="name" v="Langneset" />
		<tag k="place" v="farm" />
		<tag k="ssr:stedsnr" v="561072" />
	</node>
	<node id="-655075" lat="65.8943333355" lon="13.8047499966">
		<tag k="alt_name" v="Stormo" />
		<tag k="name" v="Stormoen" />
		<tag k="place" v="farm" />
		<tag k="ssr:stedsnr" v="560229" />
	</node>
	<node id="-655073" lat="65.889772995" lon="14.0756965845">
		<tag k="alt_name" v="Røssvassbukt" />
		<tag k="fixme" v="consider place=hamlet" />
		<tag k="name" v="Røssvassbukta" />
		<tag k="place" v="farm" />
		<tag k="ssr:stedsnr" v="560221" />
	</node>
	<node id="-655070" lat="65.9746611121" lon="13.9903361053">
		<tag k="name" v="Nils Persa-gamma" />
		<tag k="place" v="locality" />
		<tag k="ssr:stedsnr" v="544281" />
	</node>
	<node id="-655059" lat="65.8779277793" lon="13.9752805603">
		<tag k="name" v="Storgranmo" />
		<tag k="place" v="farm" />
		<tag k="ssr:stedsnr" v="543453" />
	</node>
	<node id="-655043" lat="66.2292194472" lon="13.5625999914">
		<tag k="name" v="Hestnesosen" />
		<tag k="place" v="isolated_dwelling" />
		<tag k="ssr:stedsnr" v="543156" />
	</node>
	<node id="-655039" lat="65.8928972241" lon="14.1124194551">
		<tag k="name" v="Ytre Valberg" />
		<tag k="place" v="farm" />
		<tag k="ssr:stedsnr" v="543105" />
	</node>
	<node id="-655020" lat="66.1110805525" lon="13.7986555594">
		<tag k="fixme" v="consider place=hamlet" />
		<tag k="name" v="Baklandet" />
		<tag k="place" v="village" />
		<tag k="ssr:stedsnr" v="545036" />
	</node>
	<node id="-655004" lat="66.0728722246" lon="13.951794453">
		<tag k="name" v="Brattland" />
		<tag k="place" v="farm" />
		<tag k="ssr:stedsnr" v="528802" />
	</node>
	<node id="-654977" lat="66.231680553" lon="13.8203638857">
		<tag k="name" v="Hagen" />
		<tag k="place" v="farm" />
		<tag k="ssr:stedsnr" v="511744" />
	</node>
	<node id="-654973" lat="66.1124305521" lon="14.0848805476">
		<tag k="name" v="Nyrud" />
		<tag k="place" v="farm" />
		<tag k="ssr:stedsnr" v="501885" />
	</node>
	<node id="-654967" lat="65.9469388877" lon="14.0211750096">
		<tag k="name" v="Oksfjellelva" />
		<tag k="place" v="isolated_dwelling" />
		<tag k="ssr:stedsnr" v="501706" />
	</node>
	<node id="-654965" lat="65.9321194459" lon="13.8697555539">
		<tag k="name" v="Heimtun" />
		<tag k="place" v="farm" />
		<tag k="ssr:stedsnr" v="501699" />
	</node>
	<node id="-654962" lat="65.9085722253" lon="13.8072055519">
		<tag k="fixme" v="consider place=hamlet" />
		<tag k="name" v="Bleikvasslia" />
		<tag k="place" v="village" />
		<tag k="ssr:stedsnr" v="501668" />
	</node>
	<node id="-654955" lat="66.1685861144" lon="13.7385638865">
		<tag k="alt_name" v="Mulvik" />
		<tag k="name" v="Mulvika" />
		<tag k="place" v="farm" />
		<tag k="ssr:stedsnr" v="501492" />
	</node>
	<node id="-654952" lat="66.1911333291" lon="13.5182777819">
		<tag k="name" v="Forvikhaugen" />
		<tag k="place" v="isolated_dwelling" />
		<tag k="ssr:stedsnr" v="501399" />
	</node>
	<node id="-654945" lat="66.2214916707" lon="13.642180552">
		<tag k="fixme" v="multiple name tags, choose one and add the other to alt_name" />
		<tag k="name" v="Dalan;Hundnesdalen" />
		<tag k="place" v="farm" />
		<tag k="ssr:stedsnr" v="501086" />
	</node>
	<node id="-654944" lat="65.9057833333" lon="14.2381194389">
		<tag k="alt_name" v="Skarli" />
		<tag k="name" v="Skardlia" />
		<tag k="place" v="farm" />
		<tag k="ssr:stedsnr" v="501077" />
	</node>
	<node id="-654943" lat="66.2107305577" lon="13.6552888981">
		<tag k="name" v="Framnes" />
		<tag k="place" v="farm" />
		<tag k="ssr:stedsnr" v="501073" />
	</node>
	<node id="-654936" lat="66.0452555574" lon="13.8066805577">
		<tag k="name" v="Bjurselmoen" />
		<tag k="place" v="farm" />
		<tag k="ssr:stedsnr" v="500985" />
	</node>
	<node id="-654933" lat="66.0632138883" lon="13.9948444357">
		<tag k="alt_name" v="Finbak" />
		<tag k="name" v="Finnbakken" />
		<tag k="place" v="farm" />
		<tag k="ssr:stedsnr" v="500975" />
	</node>
	<node id="-654931" lat="66.0609666692" lon="13.8312583285">
		<tag k="name" v="Sjøsela" />
		<tag k="place" v="farm" />
		<tag k="ssr:stedsnr" v="500969" />
	</node>
	<node id="-654928" lat="66.1963361103" lon="13.7853249948">
		<tag k="name" v="Neset" />
		<tag k="place" v="isolated_dwelling" />
		<tag k="ssr:stedsnr" v="500789" />
	</node>
	<node id="-654925" lat="65.9240694479" lon="13.8613444347">
		<tag k="name" v="Enget" />
		<tag k="place" v="farm" />
		<tag k="ssr:stedsnr" v="500772" />
	</node>
	<node id="-654919" lat="65.9887777793" lon="14.0535027737">
		<tag k="fixme" v="consider tourism=alpine_hut or tourism=chalet" />
		<tag k="name" v="Gråfjellhytta" />
		<tag k="ssr:stedsnr" v="500709" />
		<tag k="tourism" v="wilderness_hut" />
	</node>
	<node id="-654912" lat="66.1904972236" lon="13.7778333416">
		<tag k="name" v="Vestre Finneid" />
		<tag k="place" v="farm" />
		<tag k="ssr:stedsnr" v="500607" />
	</node>
	<node id="-654906" lat="65.8752500022" lon="14.1054416668">
		<tag k="name" v="Granli" />
		<tag k="place" v="isolated_dwelling" />
		<tag k="ssr:stedsnr" v="500222" />
	</node>
	<node id="-654894" lat="66.2332666686" lon="13.671258337">
		<tag k="name" v="Granlund" />
		<tag k="place" v="farm" />
		<tag k="ssr:stedsnr" v="500097" />
	</node>
	<node id="-653917" lat="66.1791194477" lon="13.6995666647">
		<tag k="name" v="Grindvika" />
		<tag k="place" v="farm" />
		<tag k="ssr:stedsnr" v="43469" />
	</node>
	<node id="-654892" lat="66.2248888897" lon="13.6164277802">
		<tag k="name" v="Hemnesberget" />
		<tag k="place" v="village" />
		<tag k="ssr:stedsnr" v="500093" />
	</node>
	<node id="-655964" lat="66.0640138915" lon="13.7470833388">
		<tag k="alt_name" v="Kvandalssætra" />
		<tag k="name" v="Kvanndalssætra" />
		<tag k="place" v="locality" />
		<tag k="ssr:stedsnr" v="804963" />
	</node>
	<node id="-654859" lat="65.8779694473" lon="14.0049750082">
		<tag k="name" v="Nordmo nedre" />
		<tag k="place" v="farm" />
		<tag k="ssr:stedsnr" v="482460" />
	</node>
	<node id="-654848" lat="66.1206388891" lon="13.7577944516">
		<tag k="name" v="Ivar Springar-Gulbrandsheimen" />
		<tag k="place" v="locality" />
		<tag k="ssr:stedsnr" v="482109" />
	</node>
	<node id="-654813" lat="66.0855611115" lon="13.7994083403">
		<tag k="name" v="Fjellmoen" />
		<tag k="place" v="farm" />
		<tag k="ssr:stedsnr" v="467750" />
	</node>
	<node id="-654812" lat="66.086361107" lon="13.8297472232">
		<tag k="name" v="Troneshatten" />
		<tag k="place" v="quarter" />
		<tag k="ssr:stedsnr" v="467747" />
	</node>
	<node id="-654811" lat="66.0829111096" lon="13.8515194467">
		<tag k="name" v="Sørheim" />
		<tag k="place" v="farm" />
		<tag k="ssr:stedsnr" v="467745" />
	</node>
	<node id="-654801" lat="65.9099888913" lon="13.8135361144">
		<tag k="name" v="Langli" />
		<tag k="place" v="farm" />
		<tag k="ssr:stedsnr" v="468599" />
	</node>
	<node id="-654800" lat="66.2318888935" lon="13.6437972201">
		<tag k="fixme" v="consider place=suburb, village or hamlet" />
		<tag k="name" v="Juvika" />
		<tag k="place" v="quarter" />
		<tag k="ssr:stedsnr" v="467401" />
	</node>
	<node id="-654798" lat="65.9148194459" lon="14.3759833347">
		<tag k="name" v="Haganeset" />
		<tag k="place" v="neighbourhood" />
		<tag k="ssr:stedsnr" v="465102" />
	</node>
	<node id="-654797" lat="65.8090861121" lon="13.9000888892">
		<tag k="name" v="Tustervatnet" />
		<tag k="place" v="neighbourhood" />
		<tag k="ssr:stedsnr" v="464127" />
	</node>
	<node id="-654796" lat="66.0766222264" lon="13.8215972216">
		<tag k="name" v="Korgen" />
		<tag k="place" v="village" />
		<tag k="ssr:stedsnr" v="451338" />
	</node>
	<node id="-654795" lat="66.1330666685" lon="13.7959416778">
		<tag k="name" v="Stranda" />
		<tag k="place" v="farm" />
		<tag k="ssr:stedsnr" v="450731" />
	</node>
	<node id="-654789" lat="66.0636333305" lon="13.8161805639">
		<tag k="name" v="Villmoen" />
		<tag k="place" v="farm" />
		<tag k="ssr:stedsnr" v="440976" />
	</node>
	<node id="-654782" lat="66.090333337" lon="13.8004527808">
		<tag k="name" v="Nyrud" />
		<tag k="place" v="isolated_dwelling" />
		<tag k="ssr:stedsnr" v="440915" />
	</node>
	<node id="-654780" lat="66.0959111131" lon="13.8139472228">
		<tag k="name" v="Nymoen" />
		<tag k="place" v="isolated_dwelling" />
		<tag k="ssr:stedsnr" v="440893" />
	</node>
	<node id="-654774" lat="66.0104611144" lon="13.9085472181">
		<tag k="name" v="Ytterlia" />
		<tag k="place" v="farm" />
		<tag k="ssr:stedsnr" v="440793" />
	</node>
	<node id="-654770" lat="66.0241583304" lon="13.8582888879">
		<tag k="name" v="Høgtun" />
		<tag k="place" v="farm" />
		<tag k="ssr:stedsnr" v="440760" />
	</node>
	<node id="-654764" lat="66.0441388914" lon="14.0824777837">
		<tag k="alt_name" v="Tverå" />
		<tag k="name" v="Tverråga" />
		<tag k="place" v="farm" />
		<tag k="ssr:stedsnr" v="440743" />
	</node>
	<node id="-654763" lat="66.032949996" lon="13.8556888827">
		<tag k="name" v="Kotamoen" />
		<tag k="place" v="farm" />
		<tag k="ssr:stedsnr" v="440732" />
	</node>
	<node id="-654756" lat="65.9472138901" lon="14.0094555473">
		<tag k="name" v="Laneset" />
		<tag k="place" v="isolated_dwelling" />
		<tag k="ssr:stedsnr" v="440707" />
	</node>
	<node id="-654235" lat="65.925991666" lon="13.8676527809">
		<tag k="name" v="Eidenget" />
		<tag k="place" v="farm" />
		<tag k="ssr:stedsnr" v="136727" />
	</node>
	<node id="-654748" lat="66.2432555509" lon="13.7316500086">
		<tag k="name" v="Litlhøyneset" />
		<tag k="place" v="farm" />
		<tag k="ssr:stedsnr" v="440659" />
	</node>
	<node id="-654742" lat="65.9750555546" lon="13.7750888905">
		<tag k="alt_name" v="Fagermo" />
		<tag k="name" v="Fagermoen" />
		<tag k="place" v="farm" />
		<tag k="ssr:stedsnr" v="440631" />
	</node>
	<node id="-654738" lat="66.1304500034" lon="13.7970722142">
		<tag k="alt_name" v="Millingsjord" />
		<tag k="name" v="Millingsjorda" />
		<tag k="place" v="farm" />
		<tag k="ssr:stedsnr" v="440601" />
	</node>
	<node id="-654736" lat="66.1490777821" lon="13.8362222276">
		<tag k="name" v="Bjerka" />
		<tag k="place" v="village" />
		<tag k="ssr:stedsnr" v="440575" />
	</node>
	<node id="-654732" lat="66.1724916634" lon="14.0714194426">
		<tag k="alt_name" v="Bjurbekkdal" />
		<tag k="name" v="Bjurbekkdalen" />
		<tag k="place" v="farm" />
		<tag k="ssr:stedsnr" v="440551" />
	</node>
	<node id="-654731" lat="66.1632361091" lon="13.9684805651">
		<tag k="name" v="Forsbakken" />
		<tag k="place" v="farm" />
		<tag k="ssr:stedsnr" v="440537" />
	</node>
	<node id="-654723" lat="66.1993055581" lon="13.5609472132">
		<tag k="alt_name" v="Høineset" />
		<tag k="name" v="Høyneset" />
		<tag k="place" v="farm" />
		<tag k="ssr:stedsnr" v="440422" />
	</node>
	<node id="-654718" lat="65.880422218" lon="14.0194194533">
		<tag k="alt_name" v="Austvold" />
		<tag k="name" v="Austvollen" />
		<tag k="place" v="farm" />
		<tag k="ssr:stedsnr" v="440252" />
	</node>
	<node id="-654717" lat="65.8792833328" lon="13.9635583328">
		<tag k="name" v="Daleng" />
		<tag k="place" v="farm" />
		<tag k="ssr:stedsnr" v="440251" />
	</node>
	<node id="-654695" lat="65.9088369555" lon="14.4507644815">
		<tag k="alt_name" v="Rødli" />
		<tag k="fixme" v="consider place=hamlet" />
		<tag k="name" v="Raudlia" />
		<tag k="place" v="farm" />
		<tag k="ssr:stedsnr" v="440072" />
	</node>
	<node id="-654691" lat="65.9204166688" lon="13.873172213">
		<tag k="name" v="Gruva" />
		<tag k="place" v="quarter" />
		<tag k="ssr:stedsnr" v="480122" />
	</node>
	<node id="-655928" lat="65.9485111126" lon="13.9804555598">
		<tag k="name" v="Finneset" />
		<tag k="place" v="farm" />
		<tag k="ssr:stedsnr" v="804743" />
	</node>
	<node id="-654639" lat="66.0066166701" lon="13.9041055666">
		<tag k="name" v="Krokmoen" />
		<tag k="place" v="farm" />
		<tag k="ssr:stedsnr" v="258802" />
	</node>
	<node id="-654635" lat="66.0301638868" lon="13.8324055622">
		<tag k="name" v="Tømmermoen" />
		<tag k="place" v="farm" />
		<tag k="ssr:stedsnr" v="258779" />
	</node>
	<node id="-654622" lat="65.9401277802" lon="13.9027305669">
		<tag k="alt_name" v="Rabliåsen" />
		<tag k="fixme" v="consider place=hamlet" />
		<tag k="name" v="Rapliåsen" />
		<tag k="place" v="farm" />
		<tag k="ssr:stedsnr" v="258730" />
	</node>
	<node id="-654619" lat="65.9150555555" lon="13.8691888779">
		<tag k="name" v="Norum" />
		<tag k="place" v="farm" />
		<tag k="ssr:stedsnr" v="258710" />
	</node>
	<node id="-656260" lat="66.0104972223" lon="13.9122722294">
		<tag k="name" v="Almdalsenget" />
		<tag k="place" v="farm" />
		<tag k="ssr:stedsnr" v="925855" />
	</node>
	<node id="-654211" lat="66.2073444417" lon="13.6437305553">
		<tag k="name" v="Sjøgarden" />
		<tag k="place" v="farm" />
		<tag k="ssr:stedsnr" v="136446" />
	</node>
	<node id="-654606" lat="66.1374972191" lon="13.9475055647">
		<tag k="name" v="Vekthaugkråa" />
		<tag k="place" v="farm" />
		<tag k="ssr:stedsnr" v="258613" />
	</node>
	<node id="-654893" lat="66.2275361107" lon="13.5761527794">
		<tag k="name" v="Hestneset" />
		<tag k="place" v="farm" />
		<tag k="ssr:stedsnr" v="500095" />
	</node>
	<node id="-654603" lat="66.1502333313" lon="14.0420222272">
		<tag k="name" v="Langmyrenget" />
		<tag k="place" v="farm" />
		<tag k="ssr:stedsnr" v="258569" />
	</node>
	<node id="-654594" lat="66.1860833362" lon="13.4606888966">
		<tag k="name" v="Stormoen" />
		<tag k="place" v="locality" />
		<tag k="ssr:stedsnr" v="258386" />
	</node>
	<node id="-654593" lat="65.902019448" lon="13.766569456">
		<tag k="name" v="Bygdåsen" />
		<tag k="place" v="farm" />
		<tag k="ssr:stedsnr" v="258256" />
	</node>
	<node id="-654587" lat="65.873069445" lon="13.7741416592">
		<tag k="alt_name" v="Storjota" />
		<tag k="name" v="Storgjota" />
		<tag k="place" v="farm" />
		<tag k="ssr:stedsnr" v="258208" />
	</node>
	<node id="-654584" lat="65.8508141136" lon="14.1351099216">
		<tag k="fixme" v="consider place=hamlet" />
		<tag k="name" v="Sundsåsen" />
		<tag k="place" v="farm" />
		<tag k="ssr:stedsnr" v="258166" />
	</node>
	<node id="-654583" lat="65.8400972189" lon="13.8751138838">
		<tag k="alt_name" v="Vasseng" />
		<tag k="name" v="Vassenget" />
		<tag k="place" v="farm" />
		<tag k="ssr:stedsnr" v="258164" />
	</node>
	<node id="-654578" lat="66.2310388846" lon="13.5663888905">
		<tag k="alt_name" v="Nygård" />
		<tag k="name" v="Nygården" />
		<tag k="place" v="farm" />
		<tag k="ssr:stedsnr" v="258106" />
	</node>
	<node id="-656253" lat="65.916158333" lon="13.8518333427">
		<tag k="alt_name" v="Grønli" />
		<tag k="name" v="Grønlia" />
		<tag k="place" v="farm" />
		<tag k="ssr:stedsnr" v="925746" />
	</node>
	<node id="-654569" lat="66.2168888927" lon="13.6522944505">
		<tag k="name" v="Prestenget" />
		<tag k="place" v="farm" />
		<tag k="ssr:stedsnr" v="258074" />
	</node>
	<node id="-654560" lat="66.0656944426" lon="13.9846083386">
		<tag k="name" v="Skjeftmoen" />
		<tag k="place" v="farm" />
		<tag k="ssr:stedsnr" v="258979" />
	</node>
	<node id="-654557" lat="66.0791583348" lon="13.7446805626">
		<tag k="alt_name" v="Solvang" />
		<tag k="fixme" v="multiple name tags, choose one and add the other to alt_name" />
		<tag k="historic" v="shieling" />
		<tag k="name" v="Nyrudsætra;Solvangsætra" />
		<tag k="place" v="locality" />
		<tag k="ssr:stedsnr" v="258935" />
	</node>
	<node id="-654556" lat="66.08993889" lon="13.896955552">
		<tag k="historic" v="shieling" />
		<tag k="name" v="Høysteinbakken" />
		<tag k="place" v="locality" />
		<tag k="ssr:stedsnr" v="258926" />
	</node>
	<node id="-654554" lat="66.2131833319" lon="13.788205563">
		<tag k="alt_name" v="Svaleng" />
		<tag k="name" v="Svalenget" />
		<tag k="place" v="farm" />
		<tag k="ssr:stedsnr" v="257736" />
	</node>
	<node id="-654553" lat="65.8870222207" lon="13.8845527879">
		<tag k="name" v="Moldåmoen" />
		<tag k="place" v="farm" />
		<tag k="ssr:stedsnr" v="257253" />
	</node>
	<node id="-653901" lat="66.0774694476" lon="13.9148027737">
		<tag k="name" v="Skjåenget" />
		<tag k="place" v="farm" />
		<tag k="ssr:stedsnr" v="16935" />
	</node>
	<node id="-654537" lat="65.8772555561" lon="14.0262499895">
		<tag k="name" v="Leirbekkenget" />
		<tag k="place" v="farm" />
		<tag k="ssr:stedsnr" v="240498" />
	</node>
	<node id="-655904" lat="66.164683331" lon="13.843297229">
		<tag k="name" v="Breivika" />
		<tag k="place" v="farm" />
		<tag k="ssr:stedsnr" v="804567" />
	</node>
	<node id="-654496" lat="66.0279916694" lon="13.8491388822">
		<tag k="name" v="Bjuråneset" />
		<tag k="place" v="quarter" />
		<tag k="ssr:stedsnr" v="237148" />
	</node>
	<node id="-654485" lat="66.125974996" lon="13.7963194423">
		<tag k="name" v="Risbakken" />
		<tag k="place" v="farm" />
		<tag k="ssr:stedsnr" v="225825" />
	</node>
	<node id="-654484" lat="66.1217055588" lon="13.7964888991">
		<tag k="name" v="Sole" />
		<tag k="place" v="farm" />
		<tag k="ssr:stedsnr" v="225821" />
	</node>
	<node id="-654482" lat="66.0141083336" lon="13.9061861167">
		<tag k="name" v="Øvergården" />
		<tag k="place" v="farm" />
		<tag k="ssr:stedsnr" v="225712" />
	</node>
	<node id="-654479" lat="66.0797166633" lon="13.8557694433">
		<tag k="name" v="Ilversbakkskogen" />
		<tag k="place" v="farm" />
		<tag k="ssr:stedsnr" v="225669" />
	</node>
	<node id="-654465" lat="66.0525083311" lon="13.8287611182">
		<tag k="name" v="Sagen" />
		<tag k="place" v="farm" />
		<tag k="ssr:stedsnr" v="225600" />
	</node>
	<node id="-654448" lat="66.2314305602" lon="13.6426694361">
		<tag k="name" v="Juvika" />
		<tag k="place" v="farm" />
		<tag k="ssr:stedsnr" v="207058" />
	</node>
	<node id="-654443" lat="66.0132305587" lon="13.877938897">
		<tag k="name" v="Litlbryggfjellet" />
		<tag k="place" v="farm" />
		<tag k="ssr:stedsnr" v="198784" />
	</node>
	<node id="-654434" lat="66.1647805576" lon="13.9526277882">
		<tag k="name" v="Stienget" />
		<tag k="place" v="farm" />
		<tag k="ssr:stedsnr" v="198520" />
	</node>
	<node id="-654426" lat="66.0957249968" lon="13.8201722105">
		<tag k="name" v="Bjerkmoen" />
		<tag k="place" v="farm" />
		<tag k="ssr:stedsnr" v="197923" />
	</node>
	<node id="-654424" lat="66.1908166683" lon="13.4830722171">
		<tag k="alt_name" v="Leirvik" />
		<tag k="name" v="Leirvika" />
		<tag k="place" v="farm" />
		<tag k="ssr:stedsnr" v="198404" />
	</node>
	<node id="-654408" lat="66.1251555546" lon="13.7922972188">
		<tag k="name" v="Trongmoen" />
		<tag k="place" v="farm" />
		<tag k="ssr:stedsnr" v="197635" />
	</node>
	<node id="-654399" lat="66.1653722192" lon="13.834916662">
		<tag k="name" v="Finnenget" />
		<tag k="place" v="farm" />
		<tag k="ssr:stedsnr" v="197553" />
	</node>
	<node id="-654392" lat="66.1698444469" lon="13.435502771">
		<tag k="name" v="Neverli" />
		<tag k="place" v="farm" />
		<tag k="ssr:stedsnr" v="197441" />
	</node>
	<node id="-655540" lat="66.0253527788" lon="13.8475611221">
		<tag k="name" v="Bjuråmoen" />
		<tag k="place" v="farm" />
		<tag k="ssr:stedsnr" v="683762" />
	</node>
	<node id="-654389" lat="66.1877388917" lon="13.4620972327">
		<tag k="fixme" v="multiple name tags, choose one and add the other to alt_name" />
		<tag k="name" v="Elverhøy;Toven" />
		<tag k="place" v="farm" />
		<tag k="ssr:stedsnr" v="197422" />
	</node>
	<node id="-654384" lat="65.8733416655" lon="14.1260333419">
		<tag k="name" v="Sundsåsmoen" />
		<tag k="place" v="farm" />
		<tag k="ssr:stedsnr" v="197220" />
	</node>
	<node id="-654379" lat="65.8255749239" lon="14.1038748065">
		<tag k="alt_name" v="Tortenli" />
		<tag k="fixme" v="consider place=hamlet" />
		<tag k="name" v="Tortenlia" />
		<tag k="place" v="farm" />
		<tag k="ssr:stedsnr" v="197142" />
	</node>
	<node id="-654378" lat="66.0627777809" lon="14.2622277713">
		<tag k="fixme" v="consider tourism=alpine_hut or tourism=chalet" />
		<tag k="name" v="Kjennsvasshytta" />
		<tag k="ssr:stedsnr" v="197130" />
		<tag k="tourism" v="wilderness_hut" />
	</node>
	<node id="-655536" lat="65.9459749977" lon="13.8823583431">
		<tag k="name" v="Smalsundmoen" />
		<tag k="place" v="farm" />
		<tag k="ssr:stedsnr" v="683725" />
	</node>
	<node id="-654360" lat="66.0752583341" lon="13.9273833359">
		<tag k="name" v="Nøysomhet" />
		<tag k="place" v="farm" />
		<tag k="ssr:stedsnr" v="179490" />
	</node>
	<node id="-654357" lat="65.8306972234" lon="13.9044416731">
		<tag k="name" v="Fagerbakken" />
		<tag k="place" v="farm" />
		<tag k="ssr:stedsnr" v="179472" />
	</node>
	<node id="-654355" lat="66.2372833376" lon="13.8067111127">
		<tag k="name" v="Holmstranda" />
		<tag k="place" v="locality" />
		<tag k="ssr:stedsnr" v="179454" />
	</node>
	<node id="-656402" lat="66.1418685845" lon="13.8073194631">
		<tag k="name" v="Valla" />
		<tag k="place" v="farm" />
		<tag k="ssr:stedsnr" v="976538" />
	</node>
	<node id="-656392" lat="65.8647638879" lon="13.918880546">
		<tag k="historic" v="shieling" />
		<tag k="name" v="Setra" />
		<tag k="place" v="locality" />
		<tag k="ssr:stedsnr" v="968502" />
	</node>
	<node id="-656387" lat="66.2112722258" lon="13.7861861186">
		<tag k="name" v="Kristenheimen" />
		<tag k="place" v="locality" />
		<tag k="ssr:stedsnr" v="968472" />
	</node>
	<node id="-654326" lat="66.1443333373" lon="13.8420222255">
		<tag k="name" v="Bjerkalia" />
		<tag k="place" v="quarter" />
		<tag k="ssr:stedsnr" v="176166" />
	</node>
	<node id="-656373" lat="66.2404138925" lon="13.5305499943">
		<tag k="name" v="Rauekra" />
		<tag k="place" v="isolated_dwelling" />
		<tag k="ssr:stedsnr" v="968156" />
	</node>
	<node id="-654322" lat="66.0715249995" lon="13.80238055">
		<tag k="name" v="Sjåtofta" />
		<tag k="place" v="farm" />
		<tag k="ssr:stedsnr" v="165668" />
	</node>
	<node id="-654318" lat="66.142966671" lon="13.7945583259">
		<tag k="name" v="Rydså" />
		<tag k="place" v="farm" />
		<tag k="ssr:stedsnr" v="164884" />
	</node>
	<node id="-654310" lat="66.1504333347" lon="13.8853194401">
		<tag k="name" v="Gullskogan" />
		<tag k="place" v="locality" />
		<tag k="ssr:stedsnr" v="164775" />
	</node>
	<node id="-654309" lat="66.0770527747" lon="13.8014249927">
		<tag k="name" v="Brennmoen" />
		<tag k="place" v="farm" />
		<tag k="ssr:stedsnr" v="164769" />
	</node>
	<node id="-656356" lat="66.1852055568" lon="13.7894777883">
		<tag k="name" v="Sørsjøbakken" />
		<tag k="place" v="farm" />
		<tag k="ssr:stedsnr" v="965150" />
	</node>
	<node id="-656348" lat="66.157258337" lon="13.8467833365">
		<tag k="name" v="Fredheim" />
		<tag k="place" v="farm" />
		<tag k="ssr:stedsnr" v="953860" />
	</node>
	<node id="-656341" lat="66.1557222222" lon="13.9246833266">
		<tag k="name" v="Bjerkadalen" />
		<tag k="place" v="farm" />
		<tag k="ssr:stedsnr" v="953777" />
	</node>
	<node id="-654286" lat="66.1899972239" lon="13.6697972314">
		<tag k="name" v="Oterbrandsjøen" />
		<tag k="place" v="farm" />
		<tag k="ssr:stedsnr" v="164517" />
	</node>
	<node id="-656332" lat="66.0477472244" lon="13.8053694423">
		<tag k="name" v="Soltun" />
		<tag k="place" v="farm" />
		<tag k="ssr:stedsnr" v="953608" />
	</node>
	<node id="-654282" lat="66.1878027767" lon="13.466194455">
		<tag k="name" v="Einmo" />
		<tag k="place" v="farm" />
		<tag k="ssr:stedsnr" v="163388" />
	</node>
	<node id="-654278" lat="66.048069447" lon="14.4257916754">
		<tag k="fixme" v="consider tourism=alpine_hut or tourism=chalet" />
		<tag k="name" v="Gressvasshytta" />
		<tag k="ssr:stedsnr" v="147876" />
		<tag k="tourism" v="wilderness_hut" />
	</node>
	<node id="-654273" lat="66.0786777784" lon="13.8660333384">
		<tag k="name" v="Roghella" />
		<tag k="place" v="farm" />
		<tag k="ssr:stedsnr" v="137940" />
	</node>
	<node id="-656318" lat="66.2260166673" lon="13.572911109">
		<tag k="name" v="Fagerheim" />
		<tag k="place" v="farm" />
		<tag k="ssr:stedsnr" v="952450" />
	</node>
	<node id="-654268" lat="66.0164416699" lon="13.8755027776">
		<tag k="name" v="Moen" />
		<tag k="place" v="farm" />
		<tag k="ssr:stedsnr" v="137771" />
	</node>
	<node id="-654267" lat="66.0208638917" lon="13.8582611139">
		<tag k="name" v="Furulund" />
		<tag k="place" v="farm" />
		<tag k="ssr:stedsnr" v="137761" />
	</node>
	<node id="-656313" lat="66.210941663" lon="13.7812722266">
		<tag k="alt_name" v="Granmo" />
		<tag k="name" v="Granmoen" />
		<tag k="place" v="farm" />
		<tag k="ssr:stedsnr" v="936740" />
	</node>
	<node id="-656307" lat="66.1087750043" lon="13.8194333299">
		<tag k="name" v="Øverengmoen" />
		<tag k="place" v="farm" />
		<tag k="ssr:stedsnr" v="926884" />
	</node>
	<node id="-656305" lat="66.0168972246" lon="13.8473694466">
		<tag k="name" v="Rundmoen" />
		<tag k="place" v="farm" />
		<tag k="ssr:stedsnr" v="926790" />
	</node>
	<node id="-656303" lat="66.0284111115" lon="13.8379361107">
		<tag k="fixme" v="consider place=hamlet" />
		<tag k="name" v="Kjukkelmoen" />
		<tag k="place" v="farm" />
		<tag k="ssr:stedsnr" v="926777" />
	</node>
	<node id="-655517" lat="66.1932583363" lon="13.6664333312">
		<tag k="name" v="Lakshusneset" />
		<tag k="place" v="farm" />
		<tag k="ssr:stedsnr" v="683399" />
	</node>
	<node id="-654251" lat="66.0731499969" lon="13.9297694508">
		<tag k="alt_name" v="Brygfjell" />
		<tag k="name" v="Bryggfjellet" />
		<tag k="place" v="farm" />
		<tag k="ssr:stedsnr" v="136955" />
	</node>
	<node id="-656293" lat="65.907594449" lon="13.8015833273">
		<tag k="name" v="Brustad" />
		<tag k="place" v="farm" />
		<tag k="ssr:stedsnr" v="926684" />
	</node>
	<node id="-654243" lat="66.0120833366" lon="13.8842722147">
		<tag k="name" v="Flata" />
		<tag k="place" v="farm" />
		<tag k="ssr:stedsnr" v="136815" />
	</node>
	<node id="-656288" lat="66.1228805566" lon="13.79298056">
		<tag k="name" v="Solbakken" />
		<tag k="place" v="farm" />
		<tag k="ssr:stedsnr" v="926584" />
	</node>
	<node id="-656285" lat="66.1673555528" lon="13.8758833326">
		<tag k="historic" v="shieling" />
		<tag k="name" v="Sætra" />
		<tag k="place" v="locality" />
		<tag k="ssr:stedsnr" v="926494" />
	</node>
	<node id="-656283" lat="65.9012888865" lon="13.7943722202">
		<tag k="name" v="Fagerbakk" />
		<tag k="place" v="farm" />
		<tag k="ssr:stedsnr" v="926246" />
	</node>
	<node id="-654233" lat="66.2123333372" lon="13.8142444417">
		<tag k="name" v="Langneset" />
		<tag k="place" v="farm" />
		<tag k="ssr:stedsnr" v="136713" />
	</node>
	<node id="-654231" lat="66.2337888872" lon="13.8180861182">
		<tag k="name" v="Holmholmen" />
		<tag k="place" v="farm" />
		<tag k="ssr:stedsnr" v="136696" />
	</node>
	<node id="-654229" lat="65.9979555534" lon="13.774211117">
		<tag k="name" v="Fagervollia" />
		<tag k="place" v="farm" />
		<tag k="ssr:stedsnr" v="136686" />
	</node>
	<node id="-654226" lat="66.119869441" lon="13.7708277687">
		<tag k="name" v="Røyrbekkmoen" />
		<tag k="place" v="farm" />
		<tag k="ssr:stedsnr" v="136616" />
	</node>
	<node id="-654225" lat="66.1197611151" lon="13.8070333309">
		<tag k="name" v="Budalsbakken" />
		<tag k="place" v="farm" />
		<tag k="ssr:stedsnr" v="136617" />
	</node>
	<node id="-656271" lat="65.8995555589" lon="14.4404638796">
		<tag k="alt_name" v="Nymo" />
		<tag k="name" v="Nymoen" />
		<tag k="place" v="farm" />
		<tag k="ssr:stedsnr" v="926055" />
	</node>
	<node id="-656269" lat="66.0504138916" lon="14.0405444395">
		<tag k="name" v="Fjelldal" />
		<tag k="place" v="farm" />
		<tag k="ssr:stedsnr" v="925992" />
	</node>
	<node id="-656267" lat="66.0702722222" lon="13.9590805586">
		<tag k="alt_name" v="Leirskar" />
		<tag k="fixme" v="consider place=hamlet" />
		<tag k="name" v="Leirskardet" />
		<tag k="place" v="farm" />
		<tag k="ssr:stedsnr" v="925972" />
	</node>
	<node id="-656264" lat="66.0770833373" lon="13.9084527868">
		<tag k="name" v="Holmen" />
		<tag k="place" v="farm" />
		<tag k="ssr:stedsnr" v="925959" />
	</node>
	<node id="-656262" lat="66.093880556" lon="13.8010833354">
		<tag k="name" v="Hella" />
		<tag k="place" v="isolated_dwelling" />
		<tag k="ssr:stedsnr" v="925932" />
	</node>
	<node id="-654212" lat="66.2071916633" lon="13.6588777761">
		<tag k="name" v="Moan" />
		<tag k="place" v="farm" />
		<tag k="ssr:stedsnr" v="136449" />
	</node>
	<node id="-656259" lat="66.0069361114" lon="14.1002138825">
		<tag k="name" v="Steinbua" />
		<tag k="place" v="isolated_dwelling" />
		<tag k="ssr:stedsnr" v="925848" />
	</node>
	<node id="-656255" lat="65.9304611151" lon="13.8626639001">
		<tag k="alt_name" v="Lauvås" />
		<tag k="name" v="Lauvåsen" />
		<tag k="place" v="farm" />
		<tag k="ssr:stedsnr" v="925757" />
	</node>
	<node id="-654205" lat="65.8798916673" lon="13.984677784">
		<tag k="alt_name" v="Lyngmo" />
		<tag k="name" v="Lyngheim" />
		<tag k="place" v="farm" />
		<tag k="ssr:stedsnr" v="136249" />
	</node>
	<node id="-654203" lat="65.873305555" lon="13.9832722246">
		<tag k="alt_name" v="Lillemo" />
		<tag k="name" v="Litlmoen" />
		<tag k="place" v="farm" />
		<tag k="ssr:stedsnr" v="136232" />
	</node>
	<node id="-654202" lat="65.8773027737" lon="14.0126444445">
		<tag k="fixme" v="multiple name tags, choose one and add the other to alt_name" />
		<tag k="name" v="Moen;Svartvassmoen" />
		<tag k="place" v="farm" />
		<tag k="ssr:stedsnr" v="136231" />
	</node>
	<node id="-656244" lat="66.1348194481" lon="13.7956250072">
		<tag k="name" v="Harahaugen" />
		<tag k="place" v="farm" />
		<tag k="ssr:stedsnr" v="925666" />
	</node>
	<node id="-654193" lat="65.8060083294" lon="13.9951333342">
		<tag k="name" v="Solheim" />
		<tag k="place" v="farm" />
		<tag k="ssr:stedsnr" v="136149" />
	</node>
	<node id="-654188" lat="66.2398666672" lon="13.6996305637">
		<tag k="name" v="Bjerklund" />
		<tag k="place" v="farm" />
		<tag k="ssr:stedsnr" v="136117" />
	</node>
	<node id="-656230" lat="65.8769555594" lon="13.9865055614">
		<tag k="alt_name" v="Granmo" />
		<tag k="name" v="Granmoen" />
		<tag k="place" v="farm" />
		<tag k="ssr:stedsnr" v="925212" />
	</node>
	<node id="-656198" lat="66.1827694433" lon="13.7153500039">
		<tag k="name" v="Nylund" />
		<tag k="place" v="farm" />
		<tag k="ssr:stedsnr" v="908454" />
	</node>
	<node id="-654141" lat="66.2388777753" lon="13.5379361047">
		<tag k="name" v="Harabakken" />
		<tag k="place" v="isolated_dwelling" />
		<tag k="ssr:stedsnr" v="118129" />
	</node>
	<node id="-654128" lat="66.1551722249" lon="13.8461111223">
		<tag k="name" v="Nesengmoen" />
		<tag k="place" v="farm" />
		<tag k="ssr:stedsnr" v="104850" />
	</node>
	<node id="-656175" lat="65.8970694476" lon="13.7658194384">
		<tag k="name" v="Bakken" />
		<tag k="place" v="farm" />
		<tag k="ssr:stedsnr" v="907160" />
	</node>
	<node id="-656174" lat="66.2398000037" lon="13.5348333429">
		<tag k="name" v="Sandvika" />
		<tag k="place" v="isolated_dwelling" />
		<tag k="ssr:stedsnr" v="907141" />
	</node>
	<node id="-654121" lat="66.083013893" lon="13.8547916615">
		<tag k="fixme" v="consider place=hamlet" />
		<tag k="name" v="Jerpbakken" />
		<tag k="place" v="farm" />
		<tag k="ssr:stedsnr" v="104643" />
	</node>
	<node id="-654120" lat="66.0820833344" lon="13.8903861087">
		<tag k="name" v="Lillebakken" />
		<tag k="place" v="farm" />
		<tag k="ssr:stedsnr" v="104635" />
	</node>
	<node id="-654119" lat="66.0619972224" lon="13.8105083254">
		<tag k="name" v="Nils-Hansaplassen" />
		<tag k="place" v="locality" />
		<tag k="ssr:stedsnr" v="104626" />
	</node>
	<node id="-654117" lat="65.9095277764" lon="13.8763166588">
		<tag k="name" v="Rønningen" />
		<tag k="place" v="locality" />
		<tag k="ssr:stedsnr" v="104597" />
	</node>
	<node id="-656164" lat="66.1920222208" lon="13.5994277789">
		<tag k="name" v="Espervika" />
		<tag k="place" v="farm" />
		<tag k="ssr:stedsnr" v="874074" />
	</node>
	<node id="-656163" lat="66.2384944435" lon="13.5460111092">
		<tag k="name" v="Rørvik" />
		<tag k="place" v="farm" />
		<tag k="ssr:stedsnr" v="874056" />
	</node>
	<node id="-656158" lat="66.0679055555" lon="13.9754833241">
		<tag k="name" v="Sandmoen" />
		<tag k="place" v="farm" />
		<tag k="ssr:stedsnr" v="865961" />
	</node>
	<node id="-654103" lat="66.1364861139" lon="13.7941666766">
		<tag k="name" v="Falltuva" />
		<tag k="place" v="locality" />
		<tag k="ssr:stedsnr" v="103660" />
	</node>
	<node id="-654102" lat="66.2263472195" lon="13.6220250092">
		<tag k="name" v="Høghaugen" />
		<tag k="place" v="quarter" />
		<tag k="ssr:stedsnr" v="103447" />
	</node>
	<node id="-654099" lat="66.1905305583" lon="13.4594527685">
		<tag k="name" v="Nordåkerbakken" />
		<tag k="place" v="farm" />
		<tag k="ssr:stedsnr" v="103432" />
	</node>
	<node id="-656145" lat="66.0111416707" lon="13.8906166653">
		<tag k="name" v="Jordåbakken" />
		<tag k="place" v="farm" />
		<tag k="ssr:stedsnr" v="865804" />
	</node>
	<node id="-656144" lat="66.0233916686" lon="14.1574750057">
		<tag k="name" v="Leirbotnhytta" />
		<tag k="place" v="isolated_dwelling" />
		<tag k="ssr:stedsnr" v="865785" />
	</node>
	<node id="-656143" lat="66.026324997" lon="13.8564944331">
		<tag k="name" v="Bollermoen" />
		<tag k="place" v="farm" />
		<tag k="ssr:stedsnr" v="865780" />
	</node>
	<node id="-656142" lat="66.0329472244" lon="13.8493777704">
		<tag k="fixme" v="multiple name tags, choose one and add the other to alt_name" />
		<tag k="name" v="Granengbakken;Granengmoen" />
		<tag k="place" v="farm" />
		<tag k="ssr:stedsnr" v="865760" />
	</node>
	<node id="-654090" lat="66.0561194486" lon="14.0253888901">
		<tag k="name" v="Gosen" />
		<tag k="place" v="farm" />
		<tag k="ssr:stedsnr" v="76983" />
	</node>
	<node id="-654089" lat="66.0519694468" lon="13.8081111046">
		<tag k="name" v="Villmorabben" />
		<tag k="place" v="farm" />
		<tag k="ssr:stedsnr" v="76976" />
	</node>
	<node id="-654086" lat="66.0692611078" lon="13.9503055598">
		<tag k="name" v="Storenget" />
		<tag k="place" v="farm" />
		<tag k="ssr:stedsnr" v="76949" />
	</node>
	<node id="-654084" lat="66.0803055551" lon="13.8872472231">
		<tag k="alt_name" v="Øverleir" />
		<tag k="name" v="Øverleira" />
		<tag k="place" v="farm" />
		<tag k="ssr:stedsnr" v="76933" />
	</node>
	<node id="-654083" lat="66.080608337" lon="13.8286444422">
		<tag k="fixme" v="consider place=suburb, village or hamlet" />
		<tag k="name" v="Olderneset" />
		<tag k="place" v="quarter" />
		<tag k="ssr:stedsnr" v="76927" />
	</node>
	<node id="-656129" lat="65.909938885" lon="13.8174388815">
		<tag k="name" v="Brattli" />
		<tag k="place" v="farm" />
		<tag k="ssr:stedsnr" v="865715" />
	</node>
	<node id="-654080" lat="66.1106111081" lon="13.7992305636">
		<tag k="name" v="Engesmoen" />
		<tag k="place" v="farm" />
		<tag k="ssr:stedsnr" v="76879" />
	</node>
	<node id="-656120" lat="65.968780558" lon="13.7780750036">
		<tag k="name" v="Flatmoen" />
		<tag k="place" v="farm" />
		<tag k="ssr:stedsnr" v="865674" />
	</node>
	<node id="-654069" lat="65.9466194438" lon="14.0216388866">
		<tag k="name" v="Moen" />
		<tag k="place" v="isolated_dwelling" />
		<tag k="ssr:stedsnr" v="76728" />
	</node>
	<node id="-654068" lat="65.9344833378" lon="13.7993388874">
		<tag k="name" v="Forsmoen" />
		<tag k="place" v="farm" />
		<tag k="ssr:stedsnr" v="76725" />
	</node>
	<node id="-654067" lat="65.9294694489" lon="13.8239666596">
		<tag k="name" v="Fjellheim" />
		<tag k="place" v="isolated_dwelling" />
		<tag k="ssr:stedsnr" v="76717" />
	</node>
	<node id="-656114" lat="66.1566527779" lon="13.9356249965">
		<tag k="name" v="Innermoen" />
		<tag k="place" v="farm" />
		<tag k="ssr:stedsnr" v="865598" />
	</node>
	<node id="-656110" lat="66.1599916631" lon="13.7871111007">
		<tag k="fixme" v="consider place=hamlet" />
		<tag k="name" v="Røssåauren" />
		<tag k="place" v="farm" />
		<tag k="ssr:stedsnr" v="865566" />
	</node>
	<node id="-654057" lat="65.9607638871" lon="13.7787416731">
		<tag k="name" v="Aven" />
		<tag k="place" v="isolated_dwelling" />
		<tag k="ssr:stedsnr" v="76647" />
	</node>
	<node id="-656104" lat="66.1913194418" lon="13.4976750104">
		<tag k="name" v="Dalan" />
		<tag k="place" v="farm" />
		<tag k="ssr:stedsnr" v="865462" />
	</node>
	<node id="-654051" lat="66.1269250003" lon="13.7878055581">
		<tag k="name" v="Høgmoen" />
		<tag k="place" v="farm" />
		<tag k="ssr:stedsnr" v="76622" />
	</node>
	<node id="-656097" lat="65.8987833298" lon="13.8046305609">
		<tag k="name" v="Grande" />
		<tag k="place" v="farm" />
		<tag k="ssr:stedsnr" v="865286" />
	</node>
	<node id="-654046" lat="66.1556750026" lon="13.8528111178">
		<tag k="name" v="Myra" />
		<tag k="place" v="farm" />
		<tag k="ssr:stedsnr" v="76602" />
	</node>
	<node id="-654039" lat="66.1666694424" lon="13.9598666692">
		<tag k="name" v="Stien" />
		<tag k="place" v="farm" />
		<tag k="ssr:stedsnr" v="76570" />
	</node>
	<node id="-656086" lat="65.8734749976" lon="14.1349722273">
		<tag k="alt_name" v="Stubbli" />
		<tag k="name" v="Stubblia" />
		<tag k="place" v="farm" />
		<tag k="ssr:stedsnr" v="865223" />
	</node>
	<node id="-654028" lat="66.1967694433" lon="13.5110083295">
		<tag k="alt_name" v="Mastervik" />
		<tag k="name" v="Mastervika" />
		<tag k="place" v="farm" />
		<tag k="ssr:stedsnr" v="76443" />
	</node>
	<node id="-655479" lat="66.1561527768" lon="13.8435222267">
		<tag k="name" v="Sjøenget" />
		<tag k="place" v="farm" />
		<tag k="ssr:stedsnr" v="682643" />
	</node>
	<node id="-656069" lat="65.9090959629" lon="14.2801605005">
		<tag k="fixme" v="consider place=hamlet" />
		<tag k="name" v="Bessedør" />
		<tag k="place" v="farm" />
		<tag k="ssr:stedsnr" v="865097" />
	</node>
	<node id="-654020" lat="66.1845694466" lon="13.7159472126">
		<tag k="alt_name" v="Sæteren" />
		<tag k="name" v="Sætra" />
		<tag k="place" v="farm" />
		<tag k="ssr:stedsnr" v="76404" />
	</node>
	<node id="-654014" lat="65.8718149439" lon="13.7816132835">
		<tag k="fixme" v="consider place=hamlet" />
		<tag k="name" v="Tuven" />
		<tag k="place" v="farm" />
		<tag k="ssr:stedsnr" v="76223" />
	</node>
	<node id="-654006" lat="65.8035601252" lon="14.007637902">
		<tag k="alt_name" v="Kvalbukt" />
		<tag k="fixme" v="consider place=hamlet" />
		<tag k="name" v="Kvalbukta" />
		<tag k="place" v="farm" />
		<tag k="ssr:stedsnr" v="76146" />
	</node>
	<node id="-656048" lat="66.2402666681" lon="13.5320916582">
		<tag k="name" v="Innergården" />
		<tag k="place" v="isolated_dwelling" />
		<tag k="ssr:stedsnr" v="847171" />
	</node>
	<node id="-653995" lat="66.1711055575" lon="13.8252472302">
		<tag k="name" v="Langkleivenget" />
		<tag k="place" v="farm" />
		<tag k="ssr:stedsnr" v="76512" />
	</node>
	<node id="-656038" lat="65.8932833331" lon="14.1282722298">
		<tag k="name" v="Midtre Valberg" />
		<tag k="place" v="farm" />
		<tag k="ssr:stedsnr" v="847072" />
	</node>
	<node id="-656028" lat="66.0759972179" lon="13.7465138932">
		<tag k="historic" v="shieling" />
		<tag k="name" v="Krokansætra" />
		<tag k="place" v="locality" />
		<tag k="ssr:stedsnr" v="845013" />
	</node>
	<node id="-656022" lat="66.0737944448" lon="13.8188888903">
		<tag k="name" v="Hagen" />
		<tag k="place" v="farm" />
		<tag k="ssr:stedsnr" v="833673" />
	</node>
	<node id="-653970" lat="66.239877782" lon="13.5383666646">
		<tag k="name" v="Sanden" />
		<tag k="place" v="isolated_dwelling" />
		<tag k="ssr:stedsnr" v="58168" />
	</node>
	<node id="-656151" lat="66.0939027783" lon="13.8828055634">
		<tag k="name" v="Trollhøgda" />
		<tag k="place" v="isolated_dwelling" />
		<tag k="ssr:stedsnr" v="865918" />
	</node>
	<node id="-656007" lat="66.0454027778" lon="14.059433337">
		<tag k="name" v="Innereng" />
		<tag k="place" v="farm" />
		<tag k="ssr:stedsnr" v="832785" />
	</node>
	<node id="-656150" lat="66.0923861092" lon="13.8247499925">
		<tag k="alt_name" v="Nerleir" />
		<tag k="name" v="Nerleira" />
		<tag k="place" v="farm" />
		<tag k="ssr:stedsnr" v="865912" />
	</node>
	<node id="-656002" lat="66.0870916705" lon="13.8076972173">
		<tag k="name" v="Valåmoen" />
		<tag k="place" v="hamlet" />
		<tag k="ssr:stedsnr" v="832744" />
	</node>
	<node id="-653953" lat="65.9435222244" lon="13.8857861084">
		<tag k="name" v="Gammelrønningen" />
		<tag k="place" v="locality" />
		<tag k="ssr:stedsnr" v="56247" />
	</node>
	<node id="-656000" lat="66.0766527769" lon="13.8052138861">
		<tag k="name" v="Røyrdalsmoen" />
		<tag k="place" v="quarter" />
		<tag k="ssr:stedsnr" v="832734" />
	</node>
	<node id="-655996" lat="65.9091916704" lon="13.8040583315">
		<tag k="name" v="Solvang" />
		<tag k="place" v="farm" />
		<tag k="ssr:stedsnr" v="832665" />
	</node>
	<node id="-653943" lat="66.1408833322" lon="13.8078416643">
		<tag k="name" v="Valla" />
		<tag k="place" v="farm" />
		<tag k="ssr:stedsnr" v="43887" />
	</node>
	<node id="-653939" lat="66.1029166699" lon="13.7946500062">
		<tag k="name" v="Nyheim" />
		<tag k="place" v="farm" />
		<tag k="ssr:stedsnr" v="43873" />
	</node>
	<node id="-655983" lat="66.2197916682" lon="13.6611777782">
		<tag k="name" v="Rauekren" />
		<tag k="place" v="farm" />
		<tag k="ssr:stedsnr" v="832507" />
	</node>
	<node id="-655978" lat="66.0778972214" lon="13.8083805504">
		<tag k="amenity" v="school" />
		<tag k="name" v="Korgen sentralskole" />
		<tag k="ssr:stedsnr" v="831962" />
	</node>
	<node id="-653928" lat="66.0181333314" lon="13.8486999909">
		<tag k="name" v="Gammelgården" />
		<tag k="place" v="farm" />
		<tag k="ssr:stedsnr" v="43536" />
	</node>
	<node id="-655975" lat="66.223819442" lon="13.6351388779">
		<tag k="name" v="Svenskebyen" />
		<tag k="place" v="quarter" />
		<tag k="ssr:stedsnr" v="831416" />
	</node>
	<node id="-655970" lat="66.13216389" lon="13.7963055447">
		<tag k="name" v="Haugen" />
		<tag k="place" v="farm" />
		<tag k="ssr:stedsnr" v="831626" />
	</node>
	<node id="-655965" lat="66.0606500017" lon="13.8142222117">
		<tag k="name" v="Lund" />
		<tag k="place" v="farm" />
		<tag k="ssr:stedsnr" v="804972" />
	</node>
	<node id="-653916" lat="66.2267416669" lon="13.654788881">
		<tag k="name" v="Lyhaugen" />
		<tag k="place" v="farm" />
		<tag k="ssr:stedsnr" v="43465" />
	</node>
	<node id="-654095" lat="66.1777083335" lon="13.8038833368">
		<tag k="name" v="Varpen" />
		<tag k="place" v="farm" />
		<tag k="ssr:stedsnr" v="85575" />
	</node>
	<node id="-653909" lat="66.0569527821" lon="13.8277416672">
		<tag k="name" v="Reinåneset" />
		<tag k="place" v="farm" />
		<tag k="ssr:stedsnr" v="42637" />
	</node>
	<node id="-655956" lat="66.0856166645" lon="13.7432777732">
		<tag k="alt_name" v="Bjørn" />
		<tag k="historic" v="shieling" />
		<tag k="name" v="Bjørnsætra" />
		<tag k="place" v="locality" />
		<tag k="ssr:stedsnr" v="804921" />
	</node>
	<node id="-653905" lat="66.0511083298" lon="13.7035999953">
		<tag k="name" v="Korgfjellet" />
		<tag k="ssr:stedsnr" v="26328" />
		<tag k="tourism" v="hotel" />
	</node>
	<node id="-655949" lat="66.1074555536" lon="13.7963694388">
		<tag k="name" v="Vekthaugen" />
		<tag k="place" v="farm" />
		<tag k="ssr:stedsnr" v="804889" />
	</node>
	<node id="-655948" lat="66.1185722198" lon="13.8099222293">
		<tag k="name" v="Tørkbakken" />
		<tag k="place" v="farm" />
		<tag k="ssr:stedsnr" v="804877" />
	</node>
	<node id="-653899" lat="66.0904944433" lon="13.9096027772">
		<tag k="historic" v="shieling" />
		<tag k="name" v="Bjørnstad" />
		<tag k="place" v="locality" />
		<tag k="ssr:stedsnr" v="16917" />
	</node>
	<node id="-655944" lat="66.0114250008" lon="13.9102027853">
		<tag k="name" v="Remma" />
		<tag k="place" v="farm" />
		<tag k="ssr:stedsnr" v="804811" />
	</node>
	<node id="-655943" lat="66.0093805542" lon="13.8828027788">
		<tag k="fixme" v="multiple name tags, choose one and add the other to alt_name" />
		<tag k="name" v="Vallen;Vollen" />
		<tag k="place" v="farm" />
		<tag k="ssr:stedsnr" v="804810" />
	</node>
	<node id="-653892" lat="65.9087972211" lon="13.7771555563">
		<tag k="name" v="Lyngen" />
		<tag k="place" v="isolated_dwelling" />
		<tag k="ssr:stedsnr" v="16664" />
	</node>
	<node id="-653890" lat="66.1909333318" lon="13.4628138926">
		<tag k="name" v="Solbakken" />
		<tag k="place" v="isolated_dwelling" />
		<tag k="ssr:stedsnr" v="16399" />
	</node>
	<node id="-653889" lat="66.1894972195" lon="13.455575008">
		<tag k="fixme" v="multiple name tags, choose one and add the other to alt_name" />
		<tag k="name" v="Vedå;Åga" />
		<tag k="place" v="farm" />
		<tag k="ssr:stedsnr" v="16392" />
	</node>
	<node id="-655933" lat="66.0349999975" lon="13.8528833265">
		<tag k="name" v="Kattuglhola" />
		<tag k="place" v="farm" />
		<tag k="ssr:stedsnr" v="804755" />
	</node>
	<node id="-655932" lat="65.9548138863" lon="13.7717888879">
		<tag k="name" v="Krokbekkenget" />
		<tag k="place" v="isolated_dwelling" />
		<tag k="ssr:stedsnr" v="804753" />
	</node>
	<node id="-653881" lat="66.0735999998" lon="13.9390333254">
		<tag k="name" v="Meland" />
		<tag k="place" v="farm" />
		<tag k="ssr:stedsnr" v="15960" />
	</node>
	<node id="-653880" lat="66.115549998" lon="13.8302972254">
		<tag k="name" v="Svebakken" />
		<tag k="place" v="farm" />
		<tag k="ssr:stedsnr" v="15888" />
	</node>
	<node id="-653878" lat="66.0068472267" lon="13.9318222138">
		<tag k="alt_name" v="Innerdal" />
		<tag k="name" v="Innerdalen" />
		<tag k="place" v="farm" />
		<tag k="ssr:stedsnr" v="15820" />
	</node>
	<node id="-653876" lat="66.0749361083" lon="13.8829083317">
		<tag k="name" v="Moen" />
		<tag k="place" v="farm" />
		<tag k="ssr:stedsnr" v="15948" />
	</node>
	<node id="-653874" lat="66.0856666694" lon="13.8050944536">
		<tag k="fixme" v="consider place=hamlet" />
		<tag k="name" v="Valåmoen" />
		<tag k="place" v="farm" />
		<tag k="ssr:stedsnr" v="15923" />
	</node>
	<node id="-653873" lat="66.0933638871" lon="13.8131611052">
		<tag k="name" v="Auringmoen" />
		<tag k="place" v="farm" />
		<tag k="ssr:stedsnr" v="15916" />
	</node>
	<node id="-655913" lat="66.1511861146" lon="13.851844437">
		<tag k="name" v="Storbjerka" />
		<tag k="place" v="farm" />
		<tag k="ssr:stedsnr" v="804610" />
	</node>
	<node id="-653863" lat="66.1515805535" lon="13.8309638864">
		<tag k="name" v="Tronstadneset" />
		<tag k="place" v="farm" />
		<tag k="ssr:stedsnr" v="15614" />
	</node>
	<node id="-655909" lat="66.1534222233" lon="13.9476194408">
		<tag k="alt_name" v="Ånonlia" />
		<tag k="name" v="Øninglia" />
		<tag k="place" v="farm" />
		<tag k="ssr:stedsnr" v="804603" />
	</node>
	<node id="-653859" lat="66.1522083351" lon="14.0136638924">
		<tag k="alt_name" v="Skruvnagelen" />
		<tag k="name" v="Skruvnaglen" />
		<tag k="place" v="farm" />
		<tag k="ssr:stedsnr" v="15607" />
	</node>
	<node id="-653856" lat="66.1389416661" lon="13.8091888812">
		<tag k="fixme" v="consider place=hamlet" />
		<tag k="name" v="Valla" />
		<tag k="place" v="farm" />
		<tag k="ssr:stedsnr" v="15595" />
	</node>
	<node id="-653851" lat="66.1658805559" lon="13.7304694432">
		<tag k="name" v="Storvika" />
		<tag k="place" v="farm" />
		<tag k="ssr:stedsnr" v="15550" />
	</node>
	<node id="-655896" lat="65.8921472254" lon="14.1430777883">
		<tag k="name" v="Valberg" />
		<tag k="place" v="farm" />
		<tag k="ssr:stedsnr" v="804254" />
	</node>
	<node id="-653839" lat="65.9327277741" lon="13.8218388938">
		<tag k="name" v="Stabbursdalen" />
		<tag k="place" v="locality" />
		<tag k="ssr:stedsnr" v="15747" />
	</node>
	<node id="-655884" lat="65.9990666659" lon="14.4771138847">
		<tag k="name" v="Balskota" />
		<tag k="place" v="locality" />
		<tag k="ssr:stedsnr" v="804117" />
	</node>
	<node id="-653831" lat="66.2028777738" lon="13.6468666726">
		<tag k="name" v="Staulen" />
		<tag k="place" v="farm" />
		<tag k="ssr:stedsnr" v="15466" />
	</node>
	<node id="-655877" lat="66.2073166663" lon="13.6443500046">
		<tag k="fixme" v="consider place=hamlet" />
		<tag k="name" v="Sund" />
		<tag k="place" v="village" />
		<tag k="ssr:stedsnr" v="804091" />
	</node>
	<node id="-655867" lat="65.8612499991" lon="13.7920861176">
		<tag k="name" v="Innermoen" />
		<tag k="place" v="farm" />
		<tag k="ssr:stedsnr" v="786524" />
	</node>
	<node id="-653805" lat="65.9088249963" lon="14.3581277689">
		<tag k="alt_name" v="Sundsli" />
		<tag k="fixme" v="consider place=hamlet" />
		<tag k="name" v="Sundslia" />
		<tag k="place" v="farm" />
		<tag k="ssr:stedsnr" v="15079" />
	</node>
	<node id="-653801" lat="65.912322218" lon="14.4375722215">
		<tag k="name" v="Granheim" />
		<tag k="place" v="isolated_dwelling" />
		<tag k="ssr:stedsnr" v="15055" />
	</node>
	<node id="-655848" lat="66.240105559" lon="13.5235805486">
		<tag k="name" v="Yttergården" />
		<tag k="place" v="isolated_dwelling" />
		<tag k="ssr:stedsnr" v="786134" />
	</node>
	<node id="-653791" lat="66.1208333341" lon="13.7847861174">
		<tag k="name" v="Røyrbekkmoen" />
		<tag k="place" v="farm" />
		<tag k="ssr:stedsnr" v="893836" />
	</node>
	<node id="-655815" lat="66.1469638933" lon="13.7954222131">
		<tag k="name" v="Rydså" />
		<tag k="place" v="farm" />
		<tag k="ssr:stedsnr" v="771879" />
	</node>
	<node id="-655808" lat="66.0867611153" lon="13.8296083343">
		<tag k="name" v="Hestmyra" />
		<tag k="place" v="quarter" />
		<tag k="ssr:stedsnr" v="771765" />
	</node>
	<node id="-653752" lat="65.8895972265" lon="13.7947888917">
		<tag k="loc_name" v="Hallvardalen" />
		<tag k="name" v="Hallvarddalen" />
		<tag k="place" v="quarter" />
		<tag k="ssr:stedsnr" v="889130" />
	</node>
	<node id="-653747" lat="66.1455749972" lon="13.8095888942">
		<tag k="name" v="Solheim" />
		<tag k="place" v="farm" />
		<tag k="ssr:stedsnr" v="407877" />
	</node>
	<node id="-653744" lat="66.1009861151" lon="13.8021694436">
		<tag k="name" v="Kattuglemoen" />
		<tag k="place" v="farm" />
		<tag k="ssr:stedsnr" v="407849" />
	</node>
	<node id="-653738" lat="66.0790861154" lon="13.8409722248">
		<tag k="name" v="Tømmerheia" />
		<tag k="place" v="farm" />
		<tag k="ssr:stedsnr" v="407764" />
	</node>
	<node id="-655782" lat="66.1394555519" lon="13.7957388924">
		<tag k="name" v="Merratenget" />
		<tag k="place" v="farm" />
		<tag k="ssr:stedsnr" v="770631" />
	</node>
	<node id="-653727" lat="65.9688861129" lon="13.8399027799">
		<tag k="name" v="Ivarrud" />
		<tag k="place" v="farm" />
		<tag k="ssr:stedsnr" v="407554" />
	</node>
	<node id="-655774" lat="66.2234277795" lon="13.8517166711">
		<tag k="name" v="Urdlandåa" />
		<tag k="place" v="farm" />
		<tag k="ssr:stedsnr" v="753744" />
	</node>
	<node id="-655773" lat="66.1866249981" lon="13.7214361152">
		<tag k="name" v="Litlhaug" />
		<tag k="place" v="farm" />
		<tag k="ssr:stedsnr" v="753733" />
	</node>
	<node id="-655772" lat="66.0689222227" lon="13.9620388855">
		<tag k="name" v="Vollen" />
		<tag k="place" v="farm" />
		<tag k="ssr:stedsnr" v="753496" />
	</node>
	<node id="-655771" lat="66.240169441" lon="13.6908277671">
		<tag k="name" v="Hagen" />
		<tag k="place" v="farm" />
		<tag k="ssr:stedsnr" v="753072" />
	</node>
	<node id="-655768" lat="66.0767694463" lon="13.828644435">
		<tag k="name" v="Korgen" />
		<tag k="place" v="farm" />
		<tag k="ssr:stedsnr" v="744928" />
	</node>
	<node id="-655760" lat="66.1638583367" lon="13.9371166626">
		<tag k="name" v="Svartrapmoen" />
		<tag k="place" v="farm" />
		<tag k="ssr:stedsnr" v="744489" />
	</node>
	<node id="-653709" lat="66.0712444452" lon="13.9676722309">
		<tag k="name" v="Skogly" />
		<tag k="place" v="farm" />
		<tag k="ssr:stedsnr" v="406800" />
	</node>
	<node id="-655751" lat="66.0693444487" lon="13.9438499961">
		<tag k="name" v="Skogstad" />
		<tag k="place" v="farm" />
		<tag k="ssr:stedsnr" v="743952" />
	</node>
	<node id="-653701" lat="65.9173888888" lon="13.8714166726">
		<tag k="name" v="Buktlia" />
		<tag k="place" v="farm" />
		<tag k="ssr:stedsnr" v="404094" />
	</node>
	<node id="-653700" lat="66.042075004" lon="13.8355249992">
		<tag k="name" v="Reinåmoen" />
		<tag k="place" v="farm" />
		<tag k="ssr:stedsnr" v="379998" />
	</node>
	<node id="-655744" lat="66.0096555551" lon="13.9715166617">
		<tag k="name" v="Sjurfinnheimen" />
		<tag k="place" v="isolated_dwelling" />
		<tag k="ssr:stedsnr" v="743800" />
	</node>
	<node id="-653695" lat="66.0581555577" lon="14.0158500105">
		<tag k="name" v="Trettbakken" />
		<tag k="place" v="farm" />
		<tag k="ssr:stedsnr" v="379964" />
	</node>
	<node id="-655742" lat="66.0452000034" lon="14.0740083342">
		<tag k="alt_name" v="Nyeng" />
		<tag k="name" v="Nyenget" />
		<tag k="place" v="farm" />
		<tag k="ssr:stedsnr" v="743778" />
	</node>
	<node id="-653693" lat="66.0655361129" lon="13.8314694546">
		<tag k="name" v="Sjøforsen" />
		<tag k="place" v="farm" />
		<tag k="ssr:stedsnr" v="379952" />
	</node>
	<node id="-653691" lat="66.07173611" lon="13.7535749937">
		<tag k="historic" v="shieling" />
		<tag k="name" v="Granhatten" />
		<tag k="place" v="locality" />
		<tag k="ssr:stedsnr" v="379942" />
	</node>
	<node id="-653683" lat="66.0086277795" lon="13.9169138863">
		<tag k="alt_name" v="Mellemdal" />
		<tag k="name" v="Mellomdalen" />
		<tag k="place" v="farm" />
		<tag k="ssr:stedsnr" v="379782" />
	</node>
	<node id="-653682" lat="66.0050166699" lon="13.8470249919">
		<tag k="name" v="Solås" />
		<tag k="place" v="farm" />
		<tag k="ssr:stedsnr" v="379781" />
	</node>
	<node id="-653681" lat="66.0100166634" lon="13.8425444386">
		<tag k="name" v="Skoglund" />
		<tag k="place" v="farm" />
		<tag k="ssr:stedsnr" v="379779" />
	</node>
	<node id="-655727" lat="65.9204055536" lon="13.8332999914">
		<tag k="alt_name" v="Snølia" />
		<tag k="loc_name" v="Snelia" />
		<tag k="name" v="Sneli" />
		<tag k="place" v="farm" />
		<tag k="ssr:stedsnr" v="743696" />
	</node>
	<node id="-653677" lat="66.0077888877" lon="13.9240472228">
		<tag k="name" v="Gammalgården" />
		<tag k="place" v="farm" />
		<tag k="ssr:stedsnr" v="379766" />
	</node>
	<node id="-655716" lat="66.1403166673" lon="13.7930833268">
		<tag k="name" v="Høgtun" />
		<tag k="place" v="farm" />
		<tag k="ssr:stedsnr" v="743570" />
	</node>
	<node id="-655712" lat="66.1671138925" lon="14.0311166603">
		<tag k="name" v="Bakken" />
		<tag k="place" v="farm" />
		<tag k="ssr:stedsnr" v="743562" />
	</node>
	<node id="-655709" lat="66.1622694465" lon="13.9810499958">
		<tag k="name" v="Reinforsmoen" />
		<tag k="place" v="farm" />
		<tag k="ssr:stedsnr" v="743540" />
	</node>
	<node id="-653645" lat="65.9602361068" lon="13.8402638981">
		<tag k="name" v="Sørås" />
		<tag k="place" v="farm" />
		<tag k="ssr:stedsnr" v="379617" />
	</node>
	<node id="-653643" lat="66.1298888932" lon="13.7345277744">
		<tag k="historic" v="shieling" />
		<tag k="name" v="Røssåsætra" />
		<tag k="place" v="locality" />
		<tag k="ssr:stedsnr" v="379604" />
	</node>
	<node id="-653642" lat="66.1372583349" lon="13.8306250076">
		<tag k="name" v="Skogan" />
		<tag k="place" v="farm" />
		<tag k="ssr:stedsnr" v="379602" />
	</node>
	<node id="-655688" lat="65.8321555527" lon="14.1298000061">
		<tag k="name" v="Nordenget" />
		<tag k="place" v="farm" />
		<tag k="ssr:stedsnr" v="743153" />
	</node>
	<node id="-655684" lat="65.8093333326" lon="14.0376888847">
		<tag k="name" v="Hevellada" />
		<tag k="place" v="locality" />
		<tag k="ssr:stedsnr" v="743131" />
	</node>
	<node id="-653633" lat="66.1603000038" lon="13.8508722332">
		<tag k="name" v="Sletta" />
		<tag k="place" v="farm" />
		<tag k="ssr:stedsnr" v="379531" />
	</node>
	<node id="-653626" lat="66.1874472239" lon="13.796230552">
		<tag k="name" v="Austre Finneid" />
		<tag k="place" v="farm" />
		<tag k="ssr:stedsnr" v="379500" />
	</node>
	<node id="-653624" lat="66.1689333343" lon="13.7505472123">
		<tag k="name" v="Mula" />
		<tag k="place" v="farm" />
		<tag k="ssr:stedsnr" v="379474" />
	</node>
	<node id="-653622" lat="66.1909750024" lon="13.6752777784">
		<tag k="alt_name" v="Oterbrand" />
		<tag k="name" v="Oterbrannen" />
		<tag k="place" v="farm" />
		<tag k="ssr:stedsnr" v="379418" />
	</node>
	<node id="-653617" lat="65.8950888894" lon="13.7674277835">
		<tag k="name" v="Bygdåsmoen" />
		<tag k="place" v="farm" />
		<tag k="ssr:stedsnr" v="379250" />
	</node>
	<node id="-655664" lat="65.8770611073" lon="13.8033611082">
		<tag k="name" v="Halvardalen" />
		<tag k="place" v="farm" />
		<tag k="ssr:stedsnr" v="728039" />
	</node>
	<node id="-653614" lat="65.8929027769" lon="13.8914944515">
		<tag k="name" v="Kongsli" />
		<tag k="place" v="isolated_dwelling" />
		<tag k="ssr:stedsnr" v="379232" />
	</node>
	<node id="-653613" lat="66.0453333306" lon="14.4388916661">
		<tag k="name" v="Kotaneset" />
		<tag k="place" v="isolated_dwelling" />
		<tag k="ssr:stedsnr" v="379224" />
	</node>
	<node id="-653611" lat="65.882258336" lon="14.0089305603">
		<tag k="alt_name" v="Kongsvoll" />
		<tag k="name" v="Kongsvollen" />
		<tag k="place" v="farm" />
		<tag k="ssr:stedsnr" v="379214" />
	</node>
	<node id="-653610" lat="65.8804666702" lon="13.9751361077">
		<tag k="name" v="Skogly" />
		<tag k="place" v="farm" />
		<tag k="ssr:stedsnr" v="379213" />
	</node>
	<node id="-653609" lat="65.8816055518" lon="13.9121499929">
		<tag k="name" v="Kongsdalen" />
		<tag k="place" v="farm" />
		<tag k="ssr:stedsnr" v="379211" />
	</node>
	<node id="-653608" lat="65.8719055582" lon="13.7756888817">
		<tag k="name" v="Rønning" />
		<tag k="place" v="farm" />
		<tag k="ssr:stedsnr" v="379197" />
	</node>
	<node id="-655648" lat="65.8353333327" lon="13.8801611085">
		<tag k="name" v="Åsen" />
		<tag k="place" v="isolated_dwelling" />
		<tag k="ssr:stedsnr" v="725415" />
	</node>
	<node id="-653598" lat="66.2400861135" lon="13.5273638896">
		<tag k="fixme" v="consider place=hamlet" />
		<tag k="name" v="Sandnes" />
		<tag k="place" v="farm" />
		<tag k="ssr:stedsnr" v="379118" />
	</node>
	<node id="-655749" lat="66.0866416647" lon="13.8222083284">
		<tag k="name" v="Troneset" />
		<tag k="place" v="farm" />
		<tag k="ssr:stedsnr" v="743927" />
	</node>
	<node id="-655748" lat="66.0865222198" lon="13.8515111095">
		<tag k="name" v="Jerpbakken" />
		<tag k="place" v="farm" />
		<tag k="ssr:stedsnr" v="743925" />
	</node>
	<node id="-655637" lat="66.2406333292" lon="13.5292472239">
		<tag k="name" v="Sjøbakken" />
		<tag k="place" v="isolated_dwelling" />
		<tag k="ssr:stedsnr" v="725140" />
	</node>
	<node id="-653563" lat="66.1583472228" lon="13.7820472172">
		<tag k="name" v="Aurtun" />
		<tag k="place" v="farm" />
		<tag k="ssr:stedsnr" v="361441" />
	</node>
	<node id="-653558" lat="66.2407277738" lon="13.5266833238">
		<tag k="name" v="Volden" />
		<tag k="place" v="isolated_dwelling" />
		<tag k="ssr:stedsnr" v="361154" />
	</node>
	<node id="-655604" lat="66.081147224" lon="13.8055722122">
		<tag k="name" v="Markusmoen" />
		<tag k="place" v="quarter" />
		<tag k="ssr:stedsnr" v="722169" />
	</node>
	<node id="-655600" lat="65.9162888928" lon="13.8075138786">
		<tag k="amenity" v="school" />
		<tag k="name" v="Bleikvassli skole" />
		<tag k="ssr:stedsnr" v="710951" />
	</node>
	<node id="-655596" lat="66.1281361079" lon="13.7991583414">
		<tag k="name" v="Gammeljorda" />
		<tag k="place" v="farm" />
		<tag k="ssr:stedsnr" v="710823" />
	</node>
	<node id="-655594" lat="66.1860194444" lon="13.8002333256">
		<tag k="name" v="Tuvsletta" />
		<tag k="place" v="quarter" />
		<tag k="ssr:stedsnr" v="710787" />
	</node>
	<node id="-653532" lat="66.0710277778" lon="13.8197055554">
		<tag k="name" v="Villmoneset" />
		<tag k="place" v="quarter" />
		<tag k="ssr:stedsnr" v="358148" />
	</node>
	<node id="-655578" lat="66.0783583378" lon="13.8969611023">
		<tag k="name" v="Øverleir" />
		<tag k="place" v="farm" />
		<tag k="ssr:stedsnr" v="710668" />
	</node>
	<node id="-653529" lat="66.0758027743" lon="13.9191611114">
		<tag k="name" v="Stranda" />
		<tag k="place" v="farm" />
		<tag k="ssr:stedsnr" v="347648" />
	</node>
	<node id="-653526" lat="66.1499722179" lon="13.7873583286">
		<tag k="name" v="Myra" />
		<tag k="place" v="farm" />
		<tag k="ssr:stedsnr" v="346845" />
	</node>
	<node id="-653519" lat="66.1522527784" lon="13.8688611003">
		<tag k="name" v="Farmen" />
		<tag k="place" v="farm" />
		<tag k="ssr:stedsnr" v="346761" />
	</node>
	<node id="-653518" lat="66.0789583324" lon="13.8007250085">
		<tag k="fixme" v="consider place=suburb, village or hamlet" />
		<tag k="name" v="Svartmarka" />
		<tag k="place" v="quarter" />
		<tag k="ssr:stedsnr" v="346754" />
	</node>
	<node id="-655563" lat="66.2061944441" lon="13.644511122">
		<tag k="name" v="Gløsen" />
		<tag k="place" v="farm" />
		<tag k="ssr:stedsnr" v="710531" />
	</node>
	<node id="-655554" lat="66.1396409636" lon="13.8103266997">
		<tag k="name" v="Valla" />
		<tag k="place" v="farm" />
		<tag k="ssr:stedsnr" v="710086" />
	</node>
	<node id="-655553" lat="66.0060916647" lon="14.139386103">
		<tag k="fixme" v="consider tourism=alpine_hut or tourism=chalet" />
		<tag k="name" v="Rabothytta" />
		<tag k="ssr:stedsnr" v="709719" />
		<tag k="tourism" v="wilderness_hut" />
	</node>
	<node id="-655551" lat="66.1832638905" lon="13.7112194487">
		<tag k="name" v="Grønvikmoen" />
		<tag k="place" v="farm" />
		<tag k="ssr:stedsnr" v="692108" />
	</node>
	<node id="-655550" lat="66.2080472223" lon="13.6508999928">
		<tag k="alt_name" v="Ekkerneset" />
		<tag k="name" v="Ekreneset" />
		<tag k="place" v="farm" />
		<tag k="ssr:stedsnr" v="692089" />
	</node>
	<node id="-653495" lat="66.179027775" lon="13.6929027786">
		<tag k="name" v="Grønvika" />
		<tag k="place" v="farm" />
		<tag k="ssr:stedsnr" v="328095" />
	</node>
	<node id="-653494" lat="66.1086416636" lon="14.1214194456">
		<tag k="name" v="Målvassmoen" />
		<tag k="place" v="farm" />
		<tag k="ssr:stedsnr" v="319902" />
	</node>
	<node id="-653492" lat="66.1099972263" lon="13.8093277698">
		<tag k="name" v="Hundbekken" />
		<tag k="place" v="farm" />
		<tag k="ssr:stedsnr" v="319890" />
	</node>
	<node id="-653491" lat="66.116158331" lon="13.7961555573">
		<tag k="name" v="Solhaug" />
		<tag k="place" v="farm" />
		<tag k="ssr:stedsnr" v="319875" />
	</node>
	<node id="-653488" lat="66.0308500037" lon="13.834272219">
		<tag k="name" v="Tømmerrud" />
		<tag k="old_name" v="Tømmerud" />
		<tag k="place" v="farm" />
		<tag k="ssr:stedsnr" v="319750" />
	</node>
	<node id="-655535" lat="65.9347583293" lon="13.8638583237">
		<tag k="alt_name" v="Lien" />
		<tag k="name" v="Lia" />
		<tag k="place" v="farm" />
		<tag k="ssr:stedsnr" v="683719" />
	</node>
	<node id="-655533" lat="65.9107888925" lon="13.8731333274">
		<tag k="name" v="Solberg" />
		<tag k="place" v="farm" />
		<tag k="ssr:stedsnr" v="683673" />
	</node>
	<node id="-655730" lat="66.2269777817" lon="13.8586916776">
		<tag k="alt_name" v="Førneset" />
		<tag k="name" v="Forneset" />
		<tag k="place" v="farm" />
		<tag k="ssr:stedsnr" v="743707" />
	</node>
	<node id="-653480" lat="66.1385833329" lon="14.0548472272">
		<tag k="name" v="Litlmålvatnet" />
		<tag k="place" v="farm" />
		<tag k="ssr:stedsnr" v="319599" />
	</node>
	<node id="-653469" lat="66.2040250003" lon="13.6448777744">
		<tag k="name" v="Hesjebakken" />
		<tag k="place" v="farm" />
		<tag k="ssr:stedsnr" v="319398" />
	</node>
	<node id="-655513" lat="65.8983666695" lon="13.8580750105">
		<tag k="name" v="Forslund" />
		<tag k="place" v="farm" />
		<tag k="ssr:stedsnr" v="683226" />
	</node>
	<node id="-656068" lat="65.9095083341" lon="14.2698444431">
		<tag k="alt_name" v="Heggmo" />
		<tag k="name" v="Heggmoen" />
		<tag k="place" v="farm" />
		<tag k="ssr:stedsnr" v="865096" />
	</node>
	<node id="-655509" lat="65.863549996" lon="13.9405249884">
		<tag k="fixme" v="multiple name tags, choose one and add the other to alt_name" />
		<tag k="name" v="Halvgått Kråa;Vestli" />
		<tag k="place" v="farm" />
		<tag k="ssr:stedsnr" v="683170" />
	</node>
	<node id="-653460" lat="65.8695916677" lon="14.1665416757">
		<tag k="alt_name" v="Holmvik" />
		<tag k="name" v="Holmvika" />
		<tag k="place" v="farm" />
		<tag k="ssr:stedsnr" v="319187" />
	</node>
	<node id="-655502" lat="65.8275085128" lon="13.9044955333">
		<tag k="alt_name" v="Tustervatn" />
		<tag k="fixme" v="consider place=hamlet" />
		<tag k="name" v="Tustervatnet" />
		<tag k="place" v="farm" />
		<tag k="ssr:stedsnr" v="683128" />
	</node>
	<node id="-655501" lat="66.2303472246" lon="13.6710805551">
		<tag k="name" v="Åsheim" />
		<tag k="place" v="farm" />
		<tag k="ssr:stedsnr" v="683085" />
	</node>
	<node id="-653452" lat="65.8971555579" lon="14.479994445">
		<tag k="name" v="Skog" />
		<tag k="place" v="locality" />
		<tag k="ssr:stedsnr" v="319049" />
	</node>
	<node id="-653447" lat="66.0680305579" lon="13.9612833351">
		<tag k="name" v="Skredsletta" />
		<tag k="place" v="farm" />
		<tag k="ssr:stedsnr" v="318978" />
	</node>
	<node id="-653446" lat="66.0636611108" lon="13.7533972235">
		<tag k="alt_name" v="Håkalisæter" />
		<tag k="historic" v="shieling" />
		<tag k="name" v="Håkalisætra" />
		<tag k="place" v="locality" />
		<tag k="ssr:stedsnr" v="318963" />
	</node>
	<node id="-653444" lat="66.0976944439" lon="13.8242388973">
		<tag k="name" v="Nerleirmoen" />
		<tag k="place" v="farm" />
		<tag k="ssr:stedsnr" v="318916" />
	</node>
	<node id="-655486" lat="66.2442861123" lon="13.747152779">
		<tag k="name" v="Høyneset" />
		<tag k="place" v="farm" />
		<tag k="ssr:stedsnr" v="682731" />
	</node>
	<node id="-655725" lat="65.998750002" lon="13.8407833273">
		<tag k="name" v="Heggedal" />
		<tag k="place" v="farm" />
		<tag k="ssr:stedsnr" v="743681" />
	</node>
	<node id="-653431" lat="66.1557194485" lon="13.9293222265">
		<tag k="name" v="Bjerkadalen" />
		<tag k="place" v="farm" />
		<tag k="ssr:stedsnr" v="318590" />
	</node>
	<node id="-655478" lat="66.1450750039" lon="13.7946944347">
		<tag k="fixme" v="consider place=hamlet" />
		<tag k="name" v="Røssåga" />
		<tag k="place" v="farm" />
		<tag k="ssr:stedsnr" v="682624" />
	</node>
	<node id="-653427" lat="66.1435666709" lon="13.8329944514">
		<tag k="name" v="Litlbjerka" />
		<tag k="place" v="farm" />
		<tag k="ssr:stedsnr" v="318571" />
	</node>
	<node id="-655471" lat="65.894419448" lon="13.8019388915">
		<tag k="name" v="Fjelltun" />
		<tag k="place" v="farm" />
		<tag k="ssr:stedsnr" v="682257" />
	</node>
	<node id="-653421" lat="66.1878083331" lon="13.469705547">
		<tag k="name" v="Marhaugen" />
		<tag k="place" v="farm" />
		<tag k="ssr:stedsnr" v="318370" />
	</node>
	<node id="-653419" lat="65.893308333" lon="14.1288055495">
		<tag k="name" v="Solbakken" />
		<tag k="place" v="farm" />
		<tag k="ssr:stedsnr" v="318209" />
	</node>
	<node id="-655459" lat="66.0505111106" lon="13.8133249945">
		<tag k="name" v="Asplund" />
		<tag k="place" v="farm" />
		<tag k="ssr:stedsnr" v="682976" />
	</node>
	<node id="-653406" lat="65.887575" lon="14.03943889">
		<tag k="name" v="Austerslått" />
		<tag k="place" v="isolated_dwelling" />
		<tag k="ssr:stedsnr" v="301483" />
	</node>
	<node id="-655402" lat="66.0746249977" lon="13.8005499971">
		<tag k="name" v="Fagerlimoen" />
		<tag k="place" v="farm" />
		<tag k="ssr:stedsnr" v="650618" />
	</node>
	<node id="-655401" lat="66.2264388914" lon="13.6067611019">
		<tag k="amenity" v="school" />
		<tag k="name" v="Hemnes sentralskole" />
		<tag k="ssr:stedsnr" v="649952" />
	</node>
	<node id="-655400" lat="66.0619999977" lon="14.0002111016">
		<tag k="name" v="Finnbakken" />
		<tag k="place" v="farm" />
		<tag k="ssr:stedsnr" v="649944" />
	</node>
	<node id="-653346" lat="66.0729388898" lon="13.8126166574">
		<tag k="name" v="Tømmerbakkmoen" />
		<tag k="place" v="farm" />
		<tag k="ssr:stedsnr" v="286685" />
	</node>
	<node id="-653345" lat="66.0789750019" lon="13.9097027709">
		<tag k="name" v="Marstokken" />
		<tag k="place" v="farm" />
		<tag k="ssr:stedsnr" v="286681" />
	</node>
	<node id="-653344" lat="66.0787499958" lon="13.9121722248">
		<tag k="name" v="Sagbakken" />
		<tag k="place" v="farm" />
		<tag k="ssr:stedsnr" v="286680" />
	</node>
	<node id="-653340" lat="65.9081138849" lon="13.8070416768">
		<tag k="name" v="Åsli" />
		<tag k="place" v="farm" />
		<tag k="ssr:stedsnr" v="286649" />
	</node>
	<node id="-653335" lat="66.0287583339" lon="13.8493694425">
		<tag k="name" v="Bjuråneset" />
		<tag k="place" v="farm" />
		<tag k="ssr:stedsnr" v="286570" />
	</node>
	<node id="-655375" lat="65.9205499978" lon="13.8239888853">
		<tag k="name" v="Solheim" />
		<tag k="place" v="farm" />
		<tag k="ssr:stedsnr" v="649596" />
	</node>
	<node id="-653320" lat="66.06833611" lon="14.0012444355">
		<tag k="name" v="Fylling" />
		<tag k="place" v="farm" />
		<tag k="ssr:stedsnr" v="285917" />
	</node>
	<node id="-653317" lat="66.1850499966" lon="13.7959527797">
		<tag k="name" v="Lilleenget" />
		<tag k="place" v="farm" />
		<tag k="ssr:stedsnr" v="285791" />
	</node>
	<node id="-655361" lat="66.2251611129" lon="13.6160749932">
		<tag k="name" v="Langbakken" />
		<tag k="place" v="quarter" />
		<tag k="ssr:stedsnr" v="649482" />
	</node>
</osm>
