<?xml version="1.0" encoding="UTF-8"?>
<osm version="0.6" generator="osmapis">
	<node lat="65.9303555573189" lon="14.380458338595414" id="-16908">
		<tag k="alt_name" v="Stekvasselva" />
		<tag k="name" v="Steikvasselva" />
		<tag k="ssr:stedsnr" v="15071" />
		<tag k="waterway" v="river" />
	</node>
	<node lat="65.94511388841683" lon="14.446350007899156" id="-16909">
		<tag k="name" v="Spjeltfjellelva - Speelhtejohke" />
		<tag k="name:no" v="Spjeltfjellelva" />
		<tag k="name:sma" v="Speelhtejohke" />
		<tag k="ssr:stedsnr" v="15076" />
		<tag k="waterway" v="river" />
	</node>
	<node lat="65.79914167018777" lon="13.852108335837643" id="-16912">
		<tag k="name" v="Sørbukta" />
		<tag k="natural" v="bay" />
		<tag k="ssr:stedsnr" v="15118" />
	</node>
	<node lat="65.88049167010305" lon="14.153044441137084" id="-16914">
		<tag k="name" v="Hitterholmen" />
		<tag k="place" v="islet" />
		<tag k="ssr:stedsnr" v="15211" />
	</node>
	<node lat="66.18045555636151" lon="13.49293332791242" id="-16915">
		<tag k="alt_name" v="Dalabekken" />
		<tag k="name" v="Dalanbekken" />
		<tag k="ssr:stedsnr" v="15416" />
		<tag k="waterway" v="stream" />
	</node>
	<node lat="66.10747777975006" lon="13.700916669045652" id="-16916">
		<tag k="name" v="Snøtuvtjønna" />
		<tag k="natural" v="water" />
		<tag k="ssr:stedsnr" v="15320" />
	</node>
	<node lat="65.97390277720982" lon="13.757841660980253" id="-16923">
		<tag k="alt_name" v="Kveldskardbekken" />
		<tag k="name" v="Kveldskarbekken" />
		<tag k="ssr:stedsnr" v="15676" />
		<tag k="waterway" v="stream" />
	</node>
	<node lat="65.94434444157753" lon="13.828624992836534" id="-16929">
		<tag k="fixme" v="multiple name tags, choose one and add the other to alt_name" />
		<tag k="name" v="Sørtjønna;Gardstjønna" />
		<tag k="natural" v="water" />
		<tag k="ssr:stedsnr" v="15758" />
	</node>
	<node lat="65.95821944305354" lon="13.947486116075954" id="-16930">
		<tag k="name" v="Myrbekken" />
		<tag k="ssr:stedsnr" v="15765" />
		<tag k="waterway" v="stream" />
	</node>
	<node lat="65.95220832921356" lon="14.04620000209719" id="-16931">
		<tag k="name" v="Oksfjellelva" />
		<tag k="ssr:stedsnr" v="15769" />
		<tag k="waterway" v="river" />
	</node>
	<node lat="65.95817777543346" lon="13.886330553062356" id="-16934">
		<tag k="name" v="Bjørntjønna" />
		<tag k="natural" v="water" />
		<tag k="ssr:stedsnr" v="15773" />
	</node>
	<node lat="66.20554444404051" lon="13.764088883329652" id="-16935">
		<tag k="name" v="Pinbekken" />
		<tag k="ssr:stedsnr" v="15774" />
		<tag k="waterway" v="stream" />
	</node>
	<node lat="65.83164999653808" lon="13.81081110694013" id="-16940">
		<tag k="name" v="Bleriksvasselva" />
		<tag k="ssr:stedsnr" v="16121" />
		<tag k="waterway" v="stream" />
	</node>
	<node lat="66.08685277495967" lon="13.91716389655042" id="-16942">
		<tag k="name" v="Kjerringbekken" />
		<tag k="ssr:stedsnr" v="16914" />
		<tag k="waterway" v="stream" />
	</node>
	<node lat="66.08434722158096" lon="13.905444450762353" id="-16943">
		<tag k="name" v="Vollbekken" />
		<tag k="ssr:stedsnr" v="16915" />
		<tag k="waterway" v="stream" />
	</node>
	<node lat="66.07858888775876" lon="13.759891677228723" id="-16945">
		<tag k="name" v="Ladalsbekken" />
		<tag k="ssr:stedsnr" v="16927" />
		<tag k="waterway" v="stream" />
	</node>
	<node lat="66.10343611339302" lon="14.070536106723363" id="-16948">
		<tag k="name" v="Langneset" />
		<tag k="natural" v="cape" />
		<tag k="ssr:stedsnr" v="16893" />
	</node>
	<node lat="66.1099333304316" lon="14.073750010212816" id="-16949">
		<tag k="name" v="Flatholman" />
		<tag k="place" v="islet" />
		<tag k="ssr:stedsnr" v="16896" />
	</node>
	<node lat="66.0063805578546" lon="13.90961945408709" id="-16956">
		<tag k="name" v="Labekken" />
		<tag k="ssr:stedsnr" v="43529" />
		<tag k="waterway" v="stream" />
	</node>
	<node lat="66.0173722192905" lon="13.859383330918464" id="-16958">
		<tag k="name" v="Storneset" />
		<tag k="natural" v="cape" />
		<tag k="ssr:stedsnr" v="43727" />
	</node>
	<node lat="66.07333055804786" lon="13.840633329471851" id="-16960">
		<tag k="name" v="Midtiauren" />
		<tag k="place" v="islet" />
		<tag k="ssr:stedsnr" v="43628" />
	</node>
	<node lat="66.05817222122566" lon="13.811655551028524" id="-16961">
		<tag k="name" v="Sørdalsbekken" />
		<tag k="ssr:stedsnr" v="43676" />
		<tag k="waterway" v="stream" />
	</node>
	<node lat="66.09563889329056" lon="13.692436107266905" id="-16963">
		<tag k="name" v="Snøfjellholbekken" />
		<tag k="ssr:stedsnr" v="238019" />
		<tag k="waterway" v="stream" />
	</node>
	<node lat="66.09057221958324" lon="13.678147216645781" id="-16973">
		<tag k="name" v="Sundet" />
		<tag k="natural" v="strait" />
		<tag k="ssr:stedsnr" v="56021" />
	</node>
	<node lat="65.82356389257183" lon="14.098091663987772" id="-16978">
		<tag k="name" v="Fredrikvika" />
		<tag k="natural" v="bay" />
		<tag k="ssr:stedsnr" v="240035" />
	</node>
	<node lat="66.15053888938643" lon="14.012397214883276" id="-16979">
		<tag k="name" v="Innerlipøla" />
		<tag k="place" v="locality" />
		<tag k="ssr:stedsnr" v="240049" />
	</node>
	<node lat="65.9052472206176" lon="14.319141668999968" id="-16989">
		<tag k="name" v="Skjærneset" />
		<tag k="natural" v="cape" />
		<tag k="ssr:stedsnr" v="240130" />
	</node>
	<node lat="65.91475832902236" lon="14.431324997120177" id="-16992">
		<tag k="name" v="Elveneset" />
		<tag k="natural" v="cape" />
		<tag k="ssr:stedsnr" v="240168" />
	</node>
	<node lat="65.88301388945266" lon="14.187930564469958" id="-16997">
		<tag k="name" v="Vervik" />
		<tag k="natural" v="bay" />
		<tag k="ssr:stedsnr" v="58069" />
	</node>
	<node lat="65.8744555528622" lon="14.156713897161968" id="-16998">
		<tag k="name" v="Leirdalsbukta" />
		<tag k="natural" v="bay" />
		<tag k="ssr:stedsnr" v="58083" />
	</node>
	<node lat="65.84481666607094" lon="14.119205549544656" id="-16999">
		<tag k="name" v="Hagabekken" />
		<tag k="ssr:stedsnr" v="58088" />
		<tag k="waterway" v="stream" />
	</node>
	<node lat="65.9161777787842" lon="14.385372219148055" id="-17000">
		<tag k="name" v="Slarvika" />
		<tag k="natural" v="bay" />
		<tag k="ssr:stedsnr" v="58102" />
	</node>
	<node lat="66.17605555553344" lon="14.106655551341829" id="-17003">
		<tag k="name" v="Store Svarttjern" />
		<tag k="natural" v="water" />
		<tag k="ssr:stedsnr" v="58121" />
	</node>
	<node lat="65.90679722153568" lon="14.44588332820938" id="-17004">
		<tag k="name" v="Østerbukta" />
		<tag k="natural" v="bay" />
		<tag k="ssr:stedsnr" v="58171" />
	</node>
	<node lat="65.86581110987049" lon="13.991108337917689" id="-17011">
		<tag k="name" v="Tuvnesbekken" />
		<tag k="ssr:stedsnr" v="58507" />
		<tag k="waterway" v="stream" />
	</node>
	<node lat="66.16788055245812" lon="13.434330552805188" id="-17023">
		<tag k="name" v="Holmen" />
		<tag k="place" v="islet" />
		<tag k="ssr:stedsnr" v="240778" />
	</node>
	<node lat="65.98984166237751" lon="14.483702775676557" id="-17027">
		<tag k="name" v="Skrikarbekken" />
		<tag k="ssr:stedsnr" v="76106" />
		<tag k="waterway" v="stream" />
	</node>
	<node lat="66.20748055615103" lon="13.526663882191144" id="-17029">
		<tag k="fixme" v="multiple name tags, choose one and add the other to alt_name" />
		<tag k="name" v="Sprutbekken;Lassevikbekken" />
		<tag k="ssr:stedsnr" v="76001" />
		<tag k="waterway" v="stream" />
	</node>
	<node lat="65.85811666760928" lon="13.79396666585532" id="-17031">
		<tag k="name" v="Tustervassdammen" />
		<tag k="ssr:stedsnr" v="76203" />
		<tag k="waterway" v="dam" />
	</node>
	<node lat="65.86297499797713" lon="13.746611115300409" id="-17033">
		<tag k="name" v="Tverrbergtjønna" />
		<tag k="natural" v="water" />
		<tag k="ssr:stedsnr" v="76214" />
	</node>
	<node lat="65.90464166675332" lon="13.871911119562657" id="-17035">
		<tag k="name" v="Brunesbekken" />
		<tag k="ssr:stedsnr" v="76263" />
		<tag k="waterway" v="stream" />
	</node>
	<node lat="65.81827222238077" lon="14.045524992058082" id="-17036">
		<tag k="alt_name" v="Lille-elva" />
		<tag k="name" v="Litlelva" />
		<tag k="ssr:stedsnr" v="76150" />
		<tag k="waterway" v="stream" />
	</node>
	<node lat="65.85262500274118" lon="13.890472231893062" id="-17038">
		<tag k="name" v="Dalbekktjønna" />
		<tag k="natural" v="water" />
		<tag k="ssr:stedsnr" v="76198" />
	</node>
	<node lat="66.12713888797063" lon="13.83085000675221" id="-17042">
		<tag k="name" v="Småfjellbekken" />
		<tag k="ssr:stedsnr" v="76614" />
		<tag k="waterway" v="stream" />
	</node>
	<node lat="66.14908333491213" lon="14.009175005198417" id="-17055">
		<tag k="fixme" v="multiple name tags, choose one and add the other to alt_name" />
		<tag k="name" v="Stepbekken;Merkebekken" />
		<tag k="ssr:stedsnr" v="76597" />
		<tag k="waterway" v="stream" />
	</node>
	<node lat="65.91753333415367" lon="13.82278055292697" id="-17057">
		<tag k="name" v="Åstjønnen" />
		<tag k="natural" v="water" />
		<tag k="ssr:stedsnr" v="76708" />
		<tag k="water" v="lake" />
	</node>
	<node lat="65.9190527786054" lon="13.726730545936853" id="-17058">
		<tag k="name" v="Hestmyrtjønna" />
		<tag k="natural" v="water" />
		<tag k="ssr:stedsnr" v="76710" />
	</node>
	<node lat="66.04688889246668" lon="14.072886121877689" id="-17062">
		<tag k="name" v="Korghaugbekken" />
		<tag k="ssr:stedsnr" v="76754" />
		<tag k="waterway" v="stream" />
	</node>
	<node lat="65.90926110797778" lon="13.785624999221847" id="-17076">
		<tag k="name" v="Storforsen" />
		<tag k="natural" v="waterfall" />
		<tag k="ssr:stedsnr" v="104611" />
	</node>
	<node lat="65.94698333465053" lon="13.799630556812865" id="-17081">
		<tag k="name" v="Mobukta" />
		<tag k="natural" v="bay" />
		<tag k="ssr:stedsnr" v="117505" />
	</node>
	<node lat="65.9664138895913" lon="13.795419445850678" id="-17084">
		<tag k="name" v="Mellahaugen" />
		<tag k="place" v="islet" />
		<tag k="ssr:stedsnr" v="117514" />
	</node>
	<node lat="65.8877222246702" lon="13.831694444062371" id="-17087">
		<tag k="name" v="Singsbekken" />
		<tag k="ssr:stedsnr" v="118469" />
		<tag k="waterway" v="stream" />
	</node>
	<node lat="65.90953889095205" lon="14.313647220460222" id="-17095">
		<tag k="name" v="Furuhaugbekken" />
		<tag k="ssr:stedsnr" v="119122" />
		<tag k="waterway" v="stream" />
	</node>
	<node lat="65.81146389351197" lon="13.920002773202663" id="-17097">
		<tag k="name" v="Bergdalsbekken" />
		<tag k="ssr:stedsnr" v="119484" />
		<tag k="waterway" v="stream" />
	</node>
	<node lat="66.03866666929923" lon="14.104130555598488" id="-17100">
		<tag k="name" v="Skredabekken" />
		<tag k="ssr:stedsnr" v="136028" />
		<tag k="waterway" v="stream" />
	</node>
	<node lat="65.90213611164114" lon="14.441841660522162" id="-17105">
		<tag k="name" v="Sandbukta" />
		<tag k="natural" v="bay" />
		<tag k="ssr:stedsnr" v="136071" />
	</node>
	<node lat="66.23535833019825" lon="13.707602777460206" id="-17108">
		<tag k="name" v="Sagelva" />
		<tag k="ssr:stedsnr" v="136109" />
		<tag k="waterway" v="stream" />
	</node>
	<node lat="65.89479167011721" lon="13.935138892323582" id="-17111">
		<tag k="name" v="Humptjønna" />
		<tag k="natural" v="water" />
		<tag k="ssr:stedsnr" v="136262" />
	</node>
	<node lat="65.72534444886526" lon="13.973916667709604" id="-17115">
		<tag k="alt_name:no" v="Røssvatnet" />
		<tag k="name" v="Reevhtse - Røsvatnet" />
		<tag k="name:no" v="Røsvatnet" />
		<tag k="name:sma" v="Reevhtse" />
		<tag k="natural" v="water" />
		<tag k="ssr:stedsnr" v="136315" />
		<tag k="water" v="lake" />
	</node>
	<node lat="66.16776666830721" lon="13.944583330439393" id="-17116">
		<tag k="name" v="Tverrbekken" />
		<tag k="ssr:stedsnr" v="136568" />
		<tag k="waterway" v="stream" />
	</node>
	<node lat="66.16402778172701" lon="14.034316673402884" id="-17122">
		<tag k="alt_name" v="Skrøtatiksa" />
		<tag k="name" v="Skrotateksa" />
		<tag k="ssr:stedsnr" v="136609" />
		<tag k="waterway" v="stream" />
	</node>
	<node lat="65.90234444383839" lon="13.913038887118686" id="-17133">
		<tag k="alt_name" v="Durmålstjørna" />
		<tag k="name" v="Durmålstjønna" />
		<tag k="natural" v="water" />
		<tag k="ssr:stedsnr" v="137204" />
	</node>
	<node lat="65.81387222126153" lon="13.78235833588832" id="-17144">
		<tag k="name" v="Hanskvatnet - Gamhtsjaevrie" />
		<tag k="name:no" v="Hanskvatnet" />
		<tag k="name:sma" v="Gamhtsjaevrie" />
		<tag k="natural" v="water" />
		<tag k="ssr:stedsnr" v="257131" />
		<tag k="water" v="lake" />
	</node>
	<node lat="65.89092777379211" lon="14.108955551911997" id="-17145">
		<tag k="alt_name" v="Valneset, yt" />
		<tag k="name" v="Ytre Valneset" />
		<tag k="natural" v="cape" />
		<tag k="ssr:stedsnr" v="257247" />
	</node>
	<node lat="66.10945555140535" lon="14.125661102056453" id="-17149">
		<tag k="name" v="Gardsbekken" />
		<tag k="ssr:stedsnr" v="258041" />
		<tag k="waterway" v="stream" />
	</node>
	<node lat="65.9076250018396" lon="14.46857499387932" id="-17151">
		<tag k="name" v="Osbekken" />
		<tag k="ssr:stedsnr" v="258061" />
		<tag k="waterway" v="stream" />
	</node>
	<node lat="66.02565277859843" lon="14.477949991234729" id="-17152">
		<tag k="name" v="Spjeltfjelldalsbekken - Spielhtejohke" />
		<tag k="name:no" v="Spjeltfjelldalsbekken" />
		<tag k="name:sma" v="Spielhtejohke" />
		<tag k="ssr:stedsnr" v="258073" />
		<tag k="waterway" v="stream" />
	</node>
	<node lat="66.05230833196192" lon="14.223736121178105" id="-17154">
		<tag k="name" v="Klemetbekken" />
		<tag k="ssr:stedsnr" v="258078" />
		<tag k="waterway" v="stream" />
	</node>
	<node lat="65.91472777934838" lon="14.377633334299471" id="-17155">
		<tag k="name" v="Haganeset" />
		<tag k="natural" v="cape" />
		<tag k="ssr:stedsnr" v="258080" />
	</node>
	<node lat="65.91310555344694" lon="14.362433342826881" id="-17156">
		<tag k="name" v="Kråbukta" />
		<tag k="natural" v="bay" />
		<tag k="ssr:stedsnr" v="258081" />
	</node>
	<node lat="66.05787499797903" lon="14.458874996196457" id="-17158">
		<tag k="name" v="Graesiejaevrie" />
		<tag k="name:no" v="Gresvatnet" />
		<tag k="name:sma" v="Graesiejaevrie" />
		<tag k="natural" v="water" />
		<tag k="ssr:stedsnr" v="258084" />
		<tag k="water" v="lake" />
	</node>
	<node lat="66.12797777972976" lon="13.92455554916747" id="-17163">
		<tag k="name" v="Kattmortenbekken" />
		<tag k="ssr:stedsnr" v="258598" />
		<tag k="waterway" v="stream" />
	</node>
	<node lat="65.87609444086787" lon="13.723199998999233" id="-17166">
		<tag k="name" v="Istermyrbekken" />
		<tag k="ssr:stedsnr" v="258226" />
		<tag k="waterway" v="stream" />
	</node>
	<node lat="66.14163611278623" lon="14.216605561221686" id="-17170">
		<tag k="alt_name" v="Raudvasstindtjønna" />
		<tag k="name" v="Ishavet" />
		<tag k="natural" v="water" />
		<tag k="ssr:stedsnr" v="258611" />
	</node>
	<node lat="66.13215555977641" lon="13.822886101377222" id="-17172">
		<tag k="name" v="Leirbekken" />
		<tag k="ssr:stedsnr" v="258616" />
		<tag k="waterway" v="stream" />
	</node>
	<node lat="65.96133610689039" lon="13.846066673483962" id="-17174">
		<tag k="alt_name" v="Mølntjørna" />
		<tag k="name" v="Mølntjønna" />
		<tag k="natural" v="water" />
		<tag k="ssr:stedsnr" v="258632" />
	</node>
	<node lat="65.95145555654523" lon="13.746063886522109" id="-17175">
		<tag k="name" v="Mølnvatnet" />
		<tag k="natural" v="water" />
		<tag k="ssr:stedsnr" v="258636" />
		<tag k="water" v="lake" />
	</node>
	<node lat="65.94148333507177" lon="14.041125007591651" id="-17181">
		<tag k="name" v="Storneset" />
		<tag k="natural" v="cape" />
		<tag k="ssr:stedsnr" v="258732" />
	</node>
	<node lat="66.198088888528" lon="13.720991662232478" id="-17182">
		<tag k="name" v="Heggebærtjønna" />
		<tag k="natural" v="water" />
		<tag k="ssr:stedsnr" v="258733" />
	</node>
	<node lat="65.94578333173008" lon="14.036266665369977" id="-17183">
		<tag k="name" v="Lomtjønna" />
		<tag k="natural" v="water" />
		<tag k="ssr:stedsnr" v="258738" />
	</node>
	<node lat="65.93166944604599" lon="13.750350008934191" id="-17184">
		<tag k="fixme" v="multiple name tags, choose one and add the other to alt_name" />
		<tag k="name" v="Hestmyrlitjønna;Nedre Murtjønna" />
		<tag k="natural" v="water" />
		<tag k="ssr:stedsnr" v="258740" />
	</node>
	<node lat="66.19832777429512" lon="13.796733340689178" id="-17186">
		<tag k="name" v="Oksbekken" />
		<tag k="ssr:stedsnr" v="258743" />
		<tag k="waterway" v="stream" />
	</node>
	<node lat="65.94582500357856" lon="13.809780560916556" id="-17187">
		<tag k="alt_name" v="Sørtjørna" />
		<tag k="name" v="Sørtjønna" />
		<tag k="natural" v="water" />
		<tag k="ssr:stedsnr" v="258747" />
	</node>
	<node lat="65.90552500416695" lon="13.876230564968692" id="-17188">
		<tag k="name" v="Durmålsbekken" />
		<tag k="ssr:stedsnr" v="258697" />
		<tag k="waterway" v="stream" />
	</node>
	<node lat="66.1080916705284" lon="14.094772233568351" id="-17195">
		<tag k="name" v="Gardsnesodden" />
		<tag k="natural" v="cape" />
		<tag k="ssr:stedsnr" v="258894" />
	</node>
	<node lat="66.05096389049818" lon="14.015133323502246" id="-17200">
		<tag k="name" v="Kovabekken" />
		<tag k="ssr:stedsnr" v="258994" />
		<tag k="waterway" v="stream" />
	</node>
	<node lat="65.9447111119024" lon="13.878677775322952" id="-17202">
		<tag k="name" v="Spyvika" />
		<tag k="natural" v="bay" />
		<tag k="ssr:stedsnr" v="258749" />
	</node>
	<node lat="66.06996666714332" lon="13.912138899990314" id="-17204">
		<tag k="name" v="Merkebekken" />
		<tag k="ssr:stedsnr" v="258948" />
		<tag k="waterway" v="stream" />
	</node>
	<node lat="66.1957222233681" lon="13.657477767118598" id="-17209">
		<tag k="name" v="Agnetbekken" />
		<tag k="ssr:stedsnr" v="164527" />
		<tag k="waterway" v="stream" />
	</node>
	<node lat="66.21565000394084" lon="13.658130554803561" id="-17218">
		<tag k="name" v="Langnesbekken" />
		<tag k="ssr:stedsnr" v="164560" />
		<tag k="waterway" v="stream" />
	</node>
	<node lat="66.15519722183431" lon="14.015319452193989" id="-17229">
		<tag k="name" v="Mørnbekken" />
		<tag k="ssr:stedsnr" v="179054" />
		<tag k="waterway" v="stream" />
	</node>
	<node lat="65.90833055215708" lon="14.318269441089257" id="-17235">
		<tag k="name" v="Sandvikbekken" />
		<tag k="ssr:stedsnr" v="179117" />
		<tag k="waterway" v="stream" />
	</node>
	<node lat="66.23026110878965" lon="13.695922232665136" id="-17242">
		<tag k="alt_name" v="Lomtjørna" />
		<tag k="name" v="Lomtjønna" />
		<tag k="natural" v="water" />
		<tag k="ssr:stedsnr" v="197107" />
	</node>
	<node lat="66.05966666980729" lon="14.285649991889082" id="-17244">
		<tag k="name" v="Laurisbukta" />
		<tag k="natural" v="bay" />
		<tag k="ssr:stedsnr" v="197124" />
	</node>
	<node lat="65.82587222294514" lon="13.988519447008585" id="-17245">
		<tag k="name" v="Langtjønna" />
		<tag k="natural" v="water" />
		<tag k="ssr:stedsnr" v="197163" />
	</node>
	<node lat="65.8891749980781" lon="14.123738897713912" id="-17251">
		<tag k="name" v="Valneset" />
		<tag k="natural" v="cape" />
		<tag k="ssr:stedsnr" v="197258" />
	</node>
	<node lat="66.18508611271733" lon="13.526213881878608" id="-17253">
		<tag k="name" v="Stillbekken" />
		<tag k="ssr:stedsnr" v="197425" />
		<tag k="waterway" v="stream" />
	</node>
	<node lat="65.95202221905276" lon="13.953119444331591" id="-17256">
		<tag k="name" v="Finnkotneset" />
		<tag k="natural" v="cape" />
		<tag k="ssr:stedsnr" v="197761" />
	</node>
	<node lat="66.20976944645885" lon="13.815519452770863" id="-17257">
		<tag k="name" v="Toftvikbekken" />
		<tag k="ssr:stedsnr" v="197769" />
		<tag k="waterway" v="stream" />
	</node>
	<node lat="65.94620277622714" lon="13.762252780647177" id="-17258">
		<tag k="name" v="Krokengbekken" />
		<tag k="ssr:stedsnr" v="197770" />
		<tag k="waterway" v="stream" />
	</node>
	<node lat="66.09451111291521" lon="13.856833328841601" id="-17260">
		<tag k="fixme" v="multiple name tags, choose one and add the other to alt_name" />
		<tag k="name" v="Skvalabekken;Skvarbekken" />
		<tag k="ssr:stedsnr" v="197921" />
		<tag k="waterway" v="stream" />
	</node>
	<node lat="66.19108055612158" lon="13.479569453018465" id="-17273">
		<tag k="name" v="Stranda" />
		<tag k="natural" v="beach" />
		<tag k="ssr:stedsnr" v="224395" />
	</node>
	<node lat="66.05197499967676" lon="14.041552773231079" id="-17275">
		<tag k="name" v="Gårdsbekken" />
		<tag k="ssr:stedsnr" v="224786" />
		<tag k="waterway" v="stream" />
	</node>
	<node lat="66.01376111132808" lon="13.91099444040232" id="-17283">
		<tag k="name" v="Ytterbekken" />
		<tag k="ssr:stedsnr" v="225713" />
		<tag k="waterway" v="stream" />
	</node>
	<node lat="66.20135277428922" lon="13.759047225439856" id="-17285">
		<tag k="name" v="Esjehøgbekken" />
		<tag k="ssr:stedsnr" v="225499" />
		<tag k="waterway" v="stream" />
	</node>
	<node lat="66.2330861140836" lon="13.691038892309306" id="-17287">
		<tag k="name" v="Lomtjønnbekken" />
		<tag k="ssr:stedsnr" v="225611" />
		<tag k="waterway" v="stream" />
	</node>
	<node lat="65.83560000072018" lon="13.899658333632974" id="-17307">
		<tag k="name" v="Bekkedalsbekken" />
		<tag k="ssr:stedsnr" v="240503" />
		<tag k="waterway" v="stream" />
	</node>
	<node lat="66.00066388655246" lon="13.94581110205407" id="-17308">
		<tag k="name" v="Englandsbekken" />
		<tag k="ssr:stedsnr" v="240505" />
		<tag k="waterway" v="stream" />
	</node>
	<node lat="65.87605277792609" lon="14.037875001255506" id="-17313">
		<tag k="name" v="Granskoglibekken" />
		<tag k="ssr:stedsnr" v="240497" />
		<tag k="waterway" v="stream" />
	</node>
	<node lat="65.77638055772768" lon="13.912602780091872" id="-17323">
		<tag k="name" v="Langmyrbekken" />
		<tag k="ssr:stedsnr" v="258121" />
		<tag k="waterway" v="stream" />
	</node>
	<node lat="65.87472777599781" lon="14.163525004322729" id="-17333">
		<tag k="name" v="Brunsteinneset" />
		<tag k="natural" v="cape" />
		<tag k="ssr:stedsnr" v="258207" />
	</node>
	<node lat="66.16130555832137" lon="13.92103611567197" id="-17336">
		<tag k="name" v="Rismolibekken" />
		<tag k="ssr:stedsnr" v="258528" />
		<tag k="waterway" v="stream" />
	</node>
	<node lat="65.8326333336704" lon="14.09701665699378" id="-17340">
		<tag k="name" v="Innerbekken" />
		<tag k="ssr:stedsnr" v="258404" />
		<tag k="waterway" v="stream" />
	</node>
	<node lat="65.97179722528095" lon="13.850458336838509" id="-17341">
		<tag k="alt_name" v="Litjørna" />
		<tag k="name" v="Litjønna" />
		<tag k="natural" v="water" />
		<tag k="ssr:stedsnr" v="258655" />
	</node>
	<node lat="65.90865833189591" lon="13.799208326699485" id="-17344">
		<tag k="alt_name" v="Stortjørna" />
		<tag k="name" v="Stortjønna" />
		<tag k="natural" v="water" />
		<tag k="ssr:stedsnr" v="258703" />
	</node>
	<node lat="66.02627499568464" lon="14.185088885021711" id="-17348">
		<tag k="name" v="Lønna" />
		<tag k="natural" v="water" />
		<tag k="ssr:stedsnr" v="258774" />
	</node>
	<node lat="66.00097222170479" lon="13.913461119880374" id="-17365">
		<tag k="name" v="Hestbenkbekken" />
		<tag k="ssr:stedsnr" v="286535" />
		<tag k="waterway" v="stream" />
	</node>
	<node lat="66.15441389017434" lon="13.87724721746019" id="-17381">
		<tag k="name" v="Vadet" />
		<tag k="natural" v="water" />
		<tag k="ssr:stedsnr" v="286784" />
	</node>
	<node lat="66.15935833335696" lon="13.844308341084478" id="-17384">
		<tag k="name" v="Gårdebekken" />
		<tag k="ssr:stedsnr" v="286879" />
		<tag k="waterway" v="stream" />
	</node>
	<node lat="65.9350833313365" lon="13.870219435788394" id="-17387">
		<tag k="name" v="Tømmervika" />
		<tag k="natural" v="bay" />
		<tag k="ssr:stedsnr" v="299296" />
	</node>
	<node lat="65.89607058091904" lon="13.745888251818394" id="-17391">
		<tag k="name" v="Hestbekken" />
		<tag k="ssr:stedsnr" v="300172" />
		<tag k="waterway" v="stream" />
	</node>
	<node lat="65.88676944287495" lon="13.781694452821501" id="-17395">
		<tag k="name" v="Storforsdalsbekken" />
		<tag k="ssr:stedsnr" v="300516" />
		<tag k="waterway" v="stream" />
	</node>
	<node lat="66.16367778033043" lon="13.916366660521604" id="-17404">
		<tag k="name" v="Trappbekken" />
		<tag k="ssr:stedsnr" v="301381" />
		<tag k="waterway" v="stream" />
	</node>
	<node lat="65.90338888900727" lon="14.201433335384298" id="-17410">
		<tag k="name" v="Skardbukta" />
		<tag k="natural" v="bay" />
		<tag k="ssr:stedsnr" v="318227" />
	</node>
	<node lat="66.07519444676728" lon="13.869661121159243" id="-17413">
		<tag k="name" v="Roghellbekken" />
		<tag k="ssr:stedsnr" v="467690" />
		<tag k="waterway" v="stream" />
	</node>
	<node lat="65.96992777651832" lon="13.991763899515673" id="-17417">
		<tag k="name" v="Litlneset" />
		<tag k="natural" v="cape" />
		<tag k="ssr:stedsnr" v="318650" />
	</node>
	<node lat="65.99470278061762" lon="13.796375004204593" id="-17426">
		<tag k="name" v="Fagervollbekken" />
		<tag k="ssr:stedsnr" v="318690" />
		<tag k="waterway" v="stream" />
	</node>
	<node lat="65.95014444632704" lon="13.919225001685431" id="-17445">
		<tag k="name" v="Storholmen" />
		<tag k="place" v="islet" />
		<tag k="ssr:stedsnr" v="319743" />
	</node>
	<node lat="66.1680222247538" lon="13.88208888620756" id="-17448">
		<tag k="name" v="Isterkjerrmyra" />
		<tag k="natural" v="water" />
		<tag k="ssr:stedsnr" v="319490" />
	</node>
	<node lat="66.10062499977589" lon="13.847533341136362" id="-17453">
		<tag k="name" v="Sagbekken" />
		<tag k="ssr:stedsnr" v="319891" />
		<tag k="waterway" v="stream" />
	</node>
	<node lat="66.007466666847" lon="13.90569166011853" id="-17460">
		<tag k="name" v="Almdalsbekken" />
		<tag k="ssr:stedsnr" v="468505" />
		<tag k="waterway" v="stream" />
	</node>
	<node lat="66.1537805586055" lon="13.913661114867843" id="-17468">
		<tag k="name" v="Krenkepøla" />
		<tag k="place" v="locality" />
		<tag k="ssr:stedsnr" v="468787" />
	</node>
	<node lat="66.06948611299505" lon="13.812713881681887" id="-17481">
		<tag k="name" v="Kvernforsen" />
		<tag k="natural" v="waterfall" />
		<tag k="ssr:stedsnr" v="347621" />
	</node>
	<node lat="66.16414722060868" lon="13.421897221182512" id="-17487">
		<tag k="name" v="Runden" />
		<tag k="place" v="islet" />
		<tag k="ssr:stedsnr" v="359757" />
	</node>
	<node lat="65.92661666390966" lon="13.803377782001606" id="-17488">
		<tag k="name" v="Øverforsen" />
		<tag k="natural" v="waterfall" />
		<tag k="ssr:stedsnr" v="360225" />
	</node>
	<node lat="65.94566944796829" lon="13.78746667813061" id="-17489">
		<tag k="name" v="Finnesaven" />
		<tag k="natural" v="bay" />
		<tag k="ssr:stedsnr" v="481517" />
	</node>
	<node lat="66.0798666709956" lon="13.736952770780523" id="-17490">
		<tag k="name" v="Heldiket" />
		<tag k="ssr:stedsnr" v="481001" />
		<tag k="waterway" v="stream" />
	</node>
	<node lat="65.79654444194185" lon="13.984463889140422" id="-17494">
		<tag k="name" v="Kvalneset" />
		<tag k="natural" v="cape" />
		<tag k="ssr:stedsnr" v="379105" />
	</node>
	<node lat="65.79222777600707" lon="13.758136121702801" id="-17495">
		<tag k="name" v="Bijjie Gamhtsjaevrie" />
		<tag k="name:sma" v="Bijjie Gamhtsjaevrie" />
		<tag k="natural" v="water" />
		<tag k="old_name:sma" v="Gamhtsjaevrie, bijjie" />
		<tag k="ssr:stedsnr" v="379109" />
		<tag k="water" v="lake" />
	</node>
	<node lat="65.80801110665082" lon="13.98038056317818" id="-17498">
		<tag k="name" v="Fjellbekken" />
		<tag k="ssr:stedsnr" v="379125" />
		<tag k="waterway" v="stream" />
	</node>
	<node lat="65.80428333190916" lon="13.89487500890064" id="-17501">
		<tag k="fixme" v="multiple name tags, choose one and add the other to alt_name" />
		<tag k="name" v="Straumen;Tustervasstraumen" />
		<tag k="natural" v="strait" />
		<tag k="ssr:stedsnr" v="379140" />
	</node>
	<node lat="65.90277500200538" lon="14.056494447897686" id="-17508">
		<tag k="name" v="Kongselva" />
		<tag k="ssr:stedsnr" v="379236" />
		<tag k="waterway" v="stream" />
	</node>
	<node lat="65.89778611491171" lon="14.095461107983523" id="-17509">
		<tag k="name" v="Merkebekken" />
		<tag k="ssr:stedsnr" v="379237" />
		<tag k="waterway" v="stream" />
	</node>
	<node lat="66.16226110647352" lon="13.763052784327186" id="-17517">
		<tag k="name" v="Sagelva" />
		<tag k="ssr:stedsnr" v="379525" />
		<tag k="waterway" v="stream" />
	</node>
	<node lat="65.96386666682331" lon="14.021594443228706" id="-17527">
		<tag k="name" v="Gløstjønna" />
		<tag k="natural" v="water" />
		<tag k="ssr:stedsnr" v="379626" />
	</node>
	<node lat="65.94339166892466" lon="13.91884999737227" id="-17530">
		<tag k="name" v="Svartåsneset" />
		<tag k="natural" v="cape" />
		<tag k="ssr:stedsnr" v="379706" />
	</node>
	<node lat="65.94726388708209" lon="13.740236118917124" id="-17533">
		<tag k="name" v="Storholmen" />
		<tag k="place" v="islet" />
		<tag k="ssr:stedsnr" v="379718" />
	</node>
	<node lat="66.08366666356966" lon="13.74297498838038" id="-17543">
		<tag k="name" v="Storkvanlibekken" />
		<tag k="ssr:stedsnr" v="379904" />
		<tag k="waterway" v="stream" />
	</node>
	<node lat="66.08852777657142" lon="13.79571666937024" id="-17544">
		<tag k="name" v="Prestbekken" />
		<tag k="ssr:stedsnr" v="379910" />
		<tag k="waterway" v="stream" />
	</node>
	<node lat="66.07700833704509" lon="13.789986109054336" id="-17545">
		<tag k="name" v="Nordbekken" />
		<tag k="ssr:stedsnr" v="379926" />
		<tag k="waterway" v="stream" />
	</node>
	<node lat="66.11680000298702" lon="14.072944443819045" id="-17547">
		<tag k="name" v="Johannesodden" />
		<tag k="natural" v="cape" />
		<tag k="ssr:stedsnr" v="379863" />
	</node>
	<node lat="66.11152777702102" lon="13.925208326997515" id="-17548">
		<tag k="name" v="Lesken" />
		<tag k="natural" v="water" />
		<tag k="ssr:stedsnr" v="379885" />
	</node>
	<node lat="66.06131666325999" lon="13.988308337523852" id="-17551">
		<tag k="name" v="Steinuglstigbekken" />
		<tag k="ssr:stedsnr" v="379965" />
		<tag k="waterway" v="stream" />
	</node>
	<node lat="65.90988889027047" lon="14.472930555574665" id="-17554">
		<tag k="name" v="Brattlitjønna" />
		<tag k="natural" v="water" />
		<tag k="ssr:stedsnr" v="482141" />
	</node>
	<node lat="65.85199722579776" lon="13.832461108568507" id="-17565">
		<tag k="name" v="Storlibukta" />
		<tag k="natural" v="bay" />
		<tag k="ssr:stedsnr" v="482487" />
	</node>
	<node lat="65.85095555538332" lon="13.810141667042013" id="-17567">
		<tag k="name" v="Sævervika" />
		<tag k="natural" v="bay" />
		<tag k="ssr:stedsnr" v="482493" />
	</node>
	<node lat="66.06858333187658" lon="13.937094447686803" id="-17586">
		<tag k="name" v="Morenglibekken" />
		<tag k="ssr:stedsnr" v="406808" />
		<tag k="waterway" v="stream" />
	</node>
	<node lat="66.19825833520976" lon="13.764311120595623" id="-17588">
		<tag k="name" v="Skjølæbekken" />
		<tag k="ssr:stedsnr" v="407508" />
		<tag k="waterway" v="stream" />
	</node>
	<node lat="66.19084166483287" lon="13.687252774954377" id="-17595">
		<tag k="name" v="Skittjønna" />
		<tag k="natural" v="water" />
		<tag k="ssr:stedsnr" v="407494" />
	</node>
	<node lat="66.01760555943576" lon="13.862144454632446" id="-17600">
		<tag k="name" v="Lilleneset" />
		<tag k="natural" v="cape" />
		<tag k="ssr:stedsnr" v="407753" />
	</node>
	<node lat="65.82911388640343" lon="14.116216674628944" id="-17608">
		<tag k="name" v="Lillengbekken" />
		<tag k="ssr:stedsnr" v="422046" />
		<tag k="waterway" v="stream" />
	</node>
	<node lat="65.915763892243" lon="14.417708330124235" id="-17613">
		<tag k="name" v="Bursklubben" />
		<tag k="natural" v="cape" />
		<tag k="ssr:stedsnr" v="422150" />
	</node>
	<node lat="66.14993888787946" lon="13.7451888856831" id="-17614">
		<tag k="name" v="Bekkeneskroken" />
		<tag k="natural" v="cape" />
		<tag k="ssr:stedsnr" v="422415" />
	</node>
	<node lat="65.9006916636298" lon="13.840541658006371" id="-17618">
		<tag k="name" v="Skravlet" />
		<tag k="natural" v="cape" />
		<tag k="ssr:stedsnr" v="422525" />
	</node>
	<node lat="66.22386111046572" lon="13.560702788678269" id="-17621">
		<tag k="name" v="Hestnesbekken" />
		<tag k="ssr:stedsnr" v="422856" />
		<tag k="waterway" v="stream" />
	</node>
	<node lat="65.83103055604549" lon="13.944844444445257" id="-17630">
		<tag k="name" v="Legerbekken" />
		<tag k="ssr:stedsnr" v="440193" />
		<tag k="waterway" v="stream" />
	</node>
	<node lat="65.87786111305728" lon="14.342913898089602" id="-17632">
		<tag k="name" v="Skredbekken" />
		<tag k="ssr:stedsnr" v="440095" />
		<tag k="waterway" v="stream" />
	</node>
	<node lat="65.95063055367382" lon="14.390158328306075" id="-17635">
		<tag k="name" v="Holbekktjønna" />
		<tag k="natural" v="water" />
		<tag k="ssr:stedsnr" v="440101" />
	</node>
	<node lat="66.17666666342859" lon="13.830802777879917" id="-17645">
		<tag k="name" v="Masterlibekken" />
		<tag k="ssr:stedsnr" v="440517" />
		<tag k="waterway" v="stream" />
	</node>
	<node lat="66.17331666476775" lon="14.100583323001917" id="-17647">
		<tag k="name" v="Bjerklibekken" />
		<tag k="ssr:stedsnr" v="440552" />
		<tag k="waterway" v="stream" />
	</node>
	<node lat="66.16794444604788" lon="13.960325007486658" id="-17649">
		<tag k="name" v="Nordbekken" />
		<tag k="ssr:stedsnr" v="440557" />
		<tag k="waterway" v="stream" />
	</node>
	<node lat="65.98177499589943" lon="13.849402777605771" id="-17652">
		<tag k="name" v="Flogbekken" />
		<tag k="ssr:stedsnr" v="440639" />
		<tag k="waterway" v="stream" />
	</node>
	<node lat="65.99159166683174" lon="13.82786945221006" id="-17654">
		<tag k="name" v="Stabbforsen" />
		<tag k="natural" v="waterfall" />
		<tag k="ssr:stedsnr" v="440652" />
	</node>
	<node lat="65.93830555575718" lon="13.877616656819935" id="-17658">
		<tag k="name" v="Nils-Olsaholmen" />
		<tag k="place" v="islet" />
		<tag k="ssr:stedsnr" v="440702" />
	</node>
	<node lat="66.04457777626614" lon="14.09612499695433" id="-17660">
		<tag k="name" v="Tårnbekken" />
		<tag k="ssr:stedsnr" v="440746" />
		<tag k="waterway" v="stream" />
	</node>
	<node lat="66.02334722589697" lon="13.882233337932181" id="-17663">
		<tag k="name" v="Furuskogbekken" />
		<tag k="ssr:stedsnr" v="440750" />
		<tag k="waterway" v="stream" />
	</node>
	<node lat="66.04984444674238" lon="14.045786117898393" id="-17674">
		<tag k="name" v="Vaskarbekken" />
		<tag k="ssr:stedsnr" v="467812" />
		<tag k="waterway" v="stream" />
	</node>
	<node lat="66.01274721903675" lon="13.873255546723598" id="-17675">
		<tag k="name" v="Skillebekken" />
		<tag k="ssr:stedsnr" v="467716" />
		<tag k="waterway" v="stream" />
	</node>
	<node lat="65.8026972242486" lon="13.971747214932545" id="-17707">
		<tag k="name" v="Tjørnan" />
		<tag k="natural" v="water" />
		<tag k="ssr:stedsnr" v="500136" />
	</node>
	<node lat="66.20875555442133" lon="13.81227777620112" id="-17713">
		<tag k="name" v="Sandvikbekken" />
		<tag k="ssr:stedsnr" v="500781" />
		<tag k="waterway" v="stream" />
	</node>
	<node lat="65.97190000438431" lon="13.991708323944344" id="-17717">
		<tag k="name" v="Ytterelva" />
		<tag k="ssr:stedsnr" v="500698" />
		<tag k="waterway" v="stream" />
	</node>
	<node lat="66.03579444754588" lon="13.977366674835448" id="-17729">
		<tag k="name" v="Durmålsvatnet" />
		<tag k="natural" v="water" />
		<tag k="ssr:stedsnr" v="501736" />
		<tag k="water" v="lake" />
	</node>
	<node lat="66.08099166715279" lon="13.95198889816514" id="-17731">
		<tag k="name" v="Einhøybekken" />
		<tag k="ssr:stedsnr" v="501932" />
		<tag k="waterway" v="stream" />
	</node>
	<node lat="65.7953833374049" lon="13.936652788099398" id="-17733">
		<tag k="name" v="Orrhaugneset" />
		<tag k="natural" v="cape" />
		<tag k="ssr:stedsnr" v="682106" />
	</node>
	<node lat="65.79109166458045" lon="13.891686102235811" id="-17736">
		<tag k="name" v="Skarpvika" />
		<tag k="natural" v="bay" />
		<tag k="ssr:stedsnr" v="682110" />
	</node>
	<node lat="66.06253055721884" lon="14.248211106490897" id="-17738">
		<tag k="name" v="Reinhagneset" />
		<tag k="natural" v="cape" />
		<tag k="ssr:stedsnr" v="682132" />
	</node>
	<node lat="66.0917333335534" lon="13.89039722058481" id="-17757">
		<tag k="alt_name" v="Utigardbekken" />
		<tag k="name" v="Utigardsbekken" />
		<tag k="ssr:stedsnr" v="682941" />
		<tag k="waterway" v="stream" />
	</node>
	<node lat="66.05031389109911" lon="13.865530560229777" id="-17760">
		<tag k="name" v="Skredlibekken" />
		<tag k="ssr:stedsnr" v="682977" />
		<tag k="waterway" v="stream" />
	</node>
	<node lat="65.93149722564674" lon="14.245522216458992" id="-17762">
		<tag k="name" v="Tverrelva" />
		<tag k="ssr:stedsnr" v="683058" />
		<tag k="waterway" v="stream" />
	</node>
	<node lat="65.83371944679405" lon="13.87908888315774" id="-17767">
		<tag k="name" v="Vallavikneset" />
		<tag k="natural" v="cape" />
		<tag k="ssr:stedsnr" v="683136" />
	</node>
	<node lat="65.84266666803312" lon="13.736233343558315" id="-17768">
		<tag k="name" v="Skardtjønna" />
		<tag k="natural" v="water" />
		<tag k="ssr:stedsnr" v="683151" />
	</node>
	<node lat="65.86290833183138" lon="14.13734443310137" id="-17771">
		<tag k="name" v="Åsbekken" />
		<tag k="ssr:stedsnr" v="683174" />
		<tag k="waterway" v="stream" />
	</node>
	<node lat="66.18151388467238" lon="14.09186111579194" id="-17777">
		<tag k="name" v="Sandbekken" />
		<tag k="ssr:stedsnr" v="683490" />
		<tag k="waterway" v="stream" />
	</node>
	<node lat="66.1288333369654" lon="14.050780567074558" id="-17781">
		<tag k="name" v="Storpøla" />
		<tag k="place" v="locality" />
		<tag k="ssr:stedsnr" v="683560" />
	</node>
	<node lat="65.96528055797603" lon="13.915877771012918" id="-17784">
		<tag k="name" v="Lendingelva" />
		<tag k="ssr:stedsnr" v="683597" />
		<tag k="waterway" v="stream" />
	</node>
	<node lat="66.16788888799942" lon="14.069925009365267" id="-17786">
		<tag k="name" v="Middagsbekken" />
		<tag k="ssr:stedsnr" v="683527" />
		<tag k="waterway" v="stream" />
	</node>
	<node lat="66.16701944575958" lon="14.063988891750423" id="-17787">
		<tag k="alt_name" v="Nonbekken" />
		<tag k="name" v="Nonsbekken" />
		<tag k="ssr:stedsnr" v="683529" />
		<tag k="waterway" v="stream" />
	</node>
	<node lat="66.09031111063824" lon="14.118647229576071" id="-17792">
		<tag k="name" v="Stolpfjellbekken" />
		<tag k="ssr:stedsnr" v="683922" />
		<tag k="waterway" v="stream" />
	</node>
	<node lat="66.07738333421261" lon="13.961505566159921" id="-17794">
		<tag k="name" v="Kvitsteinbekken" />
		<tag k="ssr:stedsnr" v="683934" />
		<tag k="waterway" v="stream" />
	</node>
	<node lat="65.97723610853043" lon="13.834055558662577" id="-17797">
		<tag k="name" v="Lyskjølatjønna" />
		<tag k="natural" v="water" />
		<tag k="ssr:stedsnr" v="710551" />
	</node>
	<node lat="65.99657222507155" lon="13.904583343735657" id="-17800">
		<tag k="name" v="Skvarabekken" />
		<tag k="ssr:stedsnr" v="710556" />
		<tag k="waterway" v="stream" />
	</node>
	<node lat="66.01500277878327" lon="13.86923333396832" id="-17805">
		<tag k="name" v="Nylaneset" />
		<tag k="natural" v="cape" />
		<tag k="ssr:stedsnr" v="528695" />
	</node>
	<node lat="66.04150277793944" lon="13.820425002783553" id="-17809">
		<tag k="name" v="Leiråneset" />
		<tag k="natural" v="cape" />
		<tag k="ssr:stedsnr" v="528583" />
	</node>
	<node lat="66.04648055922738" lon="13.815666671498118" id="-17810">
		<tag k="name" v="Bjurselforsen" />
		<tag k="natural" v="waterfall" />
		<tag k="ssr:stedsnr" v="528587" />
	</node>
	<node lat="66.06734999901062" lon="13.938075000651637" id="-17813">
		<tag k="name" v="Slipesteinbekken" />
		<tag k="ssr:stedsnr" v="528796" />
		<tag k="waterway" v="stream" />
	</node>
	<node lat="66.07473055206275" lon="13.824941658108807" id="-17814">
		<tag k="name" v="Kalneset" />
		<tag k="natural" v="cape" />
		<tag k="ssr:stedsnr" v="529615" />
	</node>
	<node lat="65.98074167065907" lon="13.762219434928513" id="-17819">
		<tag k="name" v="Rundtjønna" />
		<tag k="natural" v="water" />
		<tag k="ssr:stedsnr" v="542171" />
	</node>
	<node lat="66.09742221897606" lon="13.679647224939286" id="-17822">
		<tag k="name" v="Stråkdalsbekken" />
		<tag k="ssr:stedsnr" v="542017" />
		<tag k="waterway" v="stream" />
	</node>
	<node lat="66.09277499942297" lon="13.683913882293623" id="-17823">
		<tag k="name" v="Slangetjønna" />
		<tag k="natural" v="water" />
		<tag k="ssr:stedsnr" v="542020" />
	</node>
	<node lat="66.13526110741132" lon="13.749658328484884" id="-17824">
		<tag k="name" v="Hestmyrtjønna" />
		<tag k="natural" v="water" />
		<tag k="ssr:stedsnr" v="542082" />
	</node>
	<node lat="66.15667221928322" lon="13.941211119644489" id="-17826">
		<tag k="name" v="Lakspøla" />
		<tag k="place" v="locality" />
		<tag k="ssr:stedsnr" v="543004" />
	</node>
	<node lat="65.88800833699632" lon="14.141219447447341" id="-17827">
		<tag k="name" v="Neset" />
		<tag k="natural" v="cape" />
		<tag k="ssr:stedsnr" v="543079" />
	</node>
	<node lat="66.17232499611099" lon="13.987433333474556" id="-17843">
		<tag k="name" v="Klokkaåtte-tjønna" />
		<tag k="natural" v="water" />
		<tag k="ssr:stedsnr" v="543484" />
	</node>
	<node lat="66.01296111054583" lon="14.542063879496775" id="-17857">
		<tag k="name" v="Skullenvatnet" />
		<tag k="natural" v="water" />
		<tag k="ssr:stedsnr" v="561093" />
		<tag k="water" v="lake" />
	</node>
	<node lat="65.77793785451969" lon="13.920164801701862" id="-17858">
		<tag k="name" v="Kjerringvika" />
		<tag k="natural" v="bay" />
		<tag k="ssr:stedsnr" v="561096" />
	</node>
	<node lat="66.09523333349689" lon="14.219119434209153" id="-17860">
		<tag k="name" v="Kjennsvasspøla" />
		<tag k="natural" v="water" />
		<tag k="ssr:stedsnr" v="561129" />
	</node>
	<node lat="65.9068222264348" lon="13.809316673782703" id="-17869">
		<tag k="name" v="Olaneset" />
		<tag k="natural" v="cape" />
		<tag k="ssr:stedsnr" v="589609" />
	</node>
	<node lat="66.07353888985566" lon="14.26183332863499" id="-17895">
		<tag k="name" v="Storneset" />
		<tag k="natural" v="cape" />
		<tag k="ssr:stedsnr" v="621019" />
	</node>
	<node lat="65.87492777592061" lon="13.759991659939377" id="-17896">
		<tag k="name" v="Storforsen" />
		<tag k="natural" v="waterfall" />
		<tag k="ssr:stedsnr" v="621209" />
	</node>
	<node lat="65.89236388756117" lon="13.963394440003162" id="-17898">
		<tag k="name" v="Storbekken" />
		<tag k="ssr:stedsnr" v="621229" />
		<tag k="waterway" v="stream" />
	</node>
	<node lat="66.21813888425137" lon="13.847497228943904" id="-17907">
		<tag k="alt_name" v="Gårdsbekken" />
		<tag k="name" v="Gardsbekken" />
		<tag k="ssr:stedsnr" v="621737" />
		<tag k="waterway" v="stream" />
	</node>
	<node lat="66.10018055410154" lon="14.134208342706687" id="-17909">
		<tag k="name" v="Storsanden" />
		<tag k="natural" v="beach" />
		<tag k="ssr:stedsnr" v="621920" />
	</node>
	<node lat="66.19771388820283" lon="13.662822221603312" id="-17924">
		<tag k="name" v="Gangvikelva" />
		<tag k="ssr:stedsnr" v="622404" />
		<tag k="waterway" v="stream" />
	</node>
	<node lat="65.8299472237396" lon="13.788794448417118" id="-17925">
		<tag k="alt_name" v="Bleriksvatnet, nedre" />
		<tag k="name" v="Nedre Bleriksvatnet" />
		<tag k="natural" v="water" />
		<tag k="ssr:stedsnr" v="622165" />
	</node>
	<node lat="66.112305552393" lon="13.772766665761282" id="-17929">
		<tag k="name" v="Langbekken" />
		<tag k="ssr:stedsnr" v="622876" />
		<tag k="waterway" v="stream" />
	</node>
	<node lat="66.01828333194085" lon="14.086494434592252" id="-17932">
		<tag k="name" v="Mørkbekken" />
		<tag k="ssr:stedsnr" v="622766" />
		<tag k="waterway" v="stream" />
	</node>
	<node lat="65.9060333295729" lon="13.818711109214284" id="-17945">
		<tag k="name" v="Slåttnesan" />
		<tag k="natural" v="cape" />
		<tag k="ssr:stedsnr" v="649644" />
	</node>
	<node lat="66.0144249994979" lon="13.913705559507019" id="-17951">
		<tag k="name" v="Innerbekken" />
		<tag k="ssr:stedsnr" v="649709" />
		<tag k="waterway" v="stream" />
	</node>
	<node lat="66.05704166287323" lon="14.03114167015867" id="-17956">
		<tag k="name" v="Okslibekken" />
		<tag k="ssr:stedsnr" v="649939" />
		<tag k="waterway" v="stream" />
	</node>
	<node lat="65.82759722598485" lon="13.897394434793174" id="-17974">
		<tag k="name" v="Elvkjeften" />
		<tag k="natural" v="bay" />
		<tag k="ssr:stedsnr" v="664445" />
	</node>
	<node lat="65.90796944701965" lon="13.867344436586615" id="-17983">
		<tag k="name" v="Ol-Eriksaholmen" />
		<tag k="place" v="islet" />
		<tag k="ssr:stedsnr" v="710619" />
	</node>
	<node lat="66.17186944286635" lon="14.07071111963618" id="-17984">
		<tag k="name" v="Langholmen" />
		<tag k="place" v="islet" />
		<tag k="ssr:stedsnr" v="665107" />
	</node>
	<node lat="65.87932777747572" lon="14.015208338425886" id="-17992">
		<tag k="name" v="Svartvatnet" />
		<tag k="natural" v="water" />
		<tag k="ssr:stedsnr" v="682232" />
	</node>
	<node lat="65.8846388915786" lon="14.062100006918138" id="-17993">
		<tag k="alt_name" v="Fiskartjørna" />
		<tag k="name" v="Fiskartjønna" />
		<tag k="natural" v="water" />
		<tag k="ssr:stedsnr" v="682233" />
	</node>
	<node lat="65.81599444150973" lon="13.798144436130181" id="-17996">
		<tag k="name" v="Hanskvasselva" />
		<tag k="ssr:stedsnr" v="682165" />
		<tag k="waterway" v="stream" />
	</node>
	<node lat="66.18887777668697" lon="13.44051389827743" id="-17997">
		<tag k="fixme" v="multiple name tags, choose one and add the other to alt_name" />
		<tag k="name" v="Tennvatnet;Store Tenvatn" />
		<tag k="natural" v="water" />
		<tag k="ssr:stedsnr" v="682410" />
	</node>
	<node lat="65.98175278001126" lon="13.801874996338963" id="-18000">
		<tag k="name" v="Nordaven" />
		<tag k="natural" v="bay" />
		<tag k="ssr:stedsnr" v="682709" />
	</node>
	<node lat="65.99240555168589" lon="13.936194438508082" id="-18001">
		<tag k="name" v="Slegdelva" />
		<tag k="ssr:stedsnr" v="682723" />
		<tag k="waterway" v="stream" />
	</node>
	<node lat="65.85137778189106" lon="13.819866663454459" id="-18007">
		<tag k="alt_name" v="Tustervatnet, litle" />
		<tag k="name" v="Litle Tustervatnet" />
		<tag k="natural" v="water" />
		<tag k="ssr:stedsnr" v="683157" />
		<tag k="water" v="lake" />
	</node>
	<node lat="66.16795555337325" lon="13.445150004111165" id="-18010">
		<tag k="name" v="Durmålsbekken" />
		<tag k="ssr:stedsnr" v="683370" />
		<tag k="waterway" v="stream" />
	</node>
	<node lat="65.83536388891358" lon="14.111408333540206" id="-18011">
		<tag k="name" v="Nordengbekken" />
		<tag k="ssr:stedsnr" v="683379" />
		<tag k="waterway" v="stream" />
	</node>
	<node lat="66.23416666455356" lon="13.80892499111322" id="-18014">
		<tag k="name" v="Sagbekken" />
		<tag k="ssr:stedsnr" v="683651" />
		<tag k="waterway" v="stream" />
	</node>
	<node lat="66.22491111425842" lon="13.860763898449665" id="-18018">
		<tag k="name" v="Otergreinbekken" />
		<tag k="ssr:stedsnr" v="683710" />
		<tag k="waterway" v="stream" />
	</node>
	<node lat="66.0486194446982" lon="14.057877780791124" id="-18022">
		<tag k="name" v="Hestmobekken" />
		<tag k="ssr:stedsnr" v="683740" />
		<tag k="waterway" v="stream" />
	</node>
	<node lat="66.11356388466102" lon="14.089636115946808" id="-18024">
		<tag k="name" v="Gardsbekken" />
		<tag k="ssr:stedsnr" v="683874" />
		<tag k="waterway" v="stream" />
	</node>
	<node lat="66.19478888796792" lon="13.689374999359897" id="-18046">
		<tag k="name" v="Åstjønna" />
		<tag k="natural" v="water" />
		<tag k="ssr:stedsnr" v="710477" />
		<tag k="water" v="lake" />
	</node>
	<node lat="66.01674444349193" lon="13.864019443296492" id="-18054">
		<tag k="name" v="Avneset" />
		<tag k="natural" v="cape" />
		<tag k="ssr:stedsnr" v="710710" />
	</node>
	<node lat="66.13678888908565" lon="13.830069455301613" id="-18057">
		<tag k="name" v="Storstrandbekken" />
		<tag k="ssr:stedsnr" v="710682" />
		<tag k="waterway" v="stream" />
	</node>
	<node lat="66.12303610901134" lon="13.774883341876636" id="-18070">
		<tag k="name" v="Mørnbekken" />
		<tag k="ssr:stedsnr" v="725111" />
		<tag k="waterway" v="stream" />
	</node>
	<node lat="65.86817222064549" lon="13.787858325438151" id="-18088">
		<tag k="name" v="Kvitharamobekken" />
		<tag k="ssr:stedsnr" v="725451" />
		<tag k="waterway" v="stream" />
	</node>
	<node lat="65.91033610705205" lon="14.305149992184418" id="-18093">
		<tag k="name" v="Mølnbekken" />
		<tag k="ssr:stedsnr" v="726108" />
		<tag k="waterway" v="stream" />
	</node>
	<node lat="65.95759444820658" lon="14.471980548361909" id="-18098">
		<tag k="name" v="Artfjellbekken" />
		<tag k="ssr:stedsnr" v="743110" />
		<tag k="waterway" v="stream" />
	</node>
	<node lat="65.98043889177083" lon="14.412161120903786" id="-18099">
		<tag k="name" v="Skredbekken" />
		<tag k="ssr:stedsnr" v="743112" />
		<tag k="waterway" v="stream" />
	</node>
	<node lat="66.07271666278643" lon="14.238152782459348" id="-18100">
		<tag k="name" v="Skardneset" />
		<tag k="natural" v="cape" />
		<tag k="ssr:stedsnr" v="743132" />
	</node>
	<node lat="65.86504722461464" lon="13.978688893596289" id="-18104">
		<tag k="name" v="Ytterbekken" />
		<tag k="ssr:stedsnr" v="743203" />
		<tag k="waterway" v="stream" />
	</node>
	<node lat="65.88546111533444" lon="14.172299998030459" id="-18105">
		<tag k="name" v="Langvika" />
		<tag k="natural" v="bay" />
		<tag k="ssr:stedsnr" v="743230" />
	</node>
	<node lat="65.88113055753904" lon="14.179544443710954" id="-18106">
		<tag k="name" v="Langneset" />
		<tag k="place" v="islet" />
		<tag k="ssr:stedsnr" v="743231" />
	</node>
	<node lat="65.8792500036234" lon="14.09422777320957" id="-18107">
		<tag k="alt_name" v="Bjønndalsneset" />
		<tag k="name" v="Bjørndalsneset" />
		<tag k="natural" v="cape" />
		<tag k="ssr:stedsnr" v="743234" />
	</node>
	<node lat="65.88438333391287" lon="14.00958612024717" id="-18108">
		<tag k="name" v="Styggdalsbekken" />
		<tag k="ssr:stedsnr" v="743239" />
		<tag k="waterway" v="stream" />
	</node>
	<node lat="65.98490277869729" lon="13.918869444413415" id="-18116">
		<tag k="name" v="Fiskartjønna" />
		<tag k="natural" v="water" />
		<tag k="ssr:stedsnr" v="743677" />
	</node>
	<node lat="65.92277221977227" lon="13.916150009997658" id="-18120">
		<tag k="name" v="Kjøkkenbukttjønnen" />
		<tag k="natural" v="water" />
		<tag k="ssr:stedsnr" v="743702" />
		<tag k="water" v="lake" />
	</node>
	<node lat="65.92724999756871" lon="13.925566672794963" id="-18122">
		<tag k="name" v="Kjøkkenbuktelva" />
		<tag k="ssr:stedsnr" v="743705" />
		<tag k="waterway" v="stream" />
	</node>
	<node lat="65.94462778219038" lon="14.156969439019026" id="-18127">
		<tag k="name" v="Oksfjellvatnet" />
		<tag k="natural" v="water" />
		<tag k="ssr:stedsnr" v="743731" />
		<tag k="water" v="lake" />
	</node>
	<node lat="65.89358888929661" lon="14.34907223210248" id="-18132">
		<tag k="name" v="Fredrikvika" />
		<tag k="natural" v="bay" />
		<tag k="ssr:stedsnr" v="744034" />
	</node>
	<node lat="65.83307777564188" lon="13.90310555427533" id="-18134">
		<tag k="name" v="Gåsvasselva" />
		<tag k="ssr:stedsnr" v="744110" />
		<tag k="waterway" v="stream" />
	</node>
	<node lat="66.07524166547555" lon="13.748741673853868" id="-18151">
		<tag k="name" v="Hattneset" />
		<tag k="natural" v="cape" />
		<tag k="ssr:stedsnr" v="771416" />
	</node>
	<node lat="66.06740277537389" lon="13.74661389677032" id="-18154">
		<tag k="name" v="Langneset" />
		<tag k="natural" v="cape" />
		<tag k="ssr:stedsnr" v="771431" />
	</node>
	<node lat="66.0212055586133" lon="13.836044448144994" id="-18157">
		<tag k="name" v="Tullea" />
		<tag k="natural" v="water" />
		<tag k="ssr:stedsnr" v="771566" />
		<tag k="water" v="lake" />
	</node>
	<node lat="66.04244166343753" lon="13.81826388772831" id="-18158">
		<tag k="name" v="Oteraven" />
		<tag k="natural" v="water" />
		<tag k="ssr:stedsnr" v="771577" />
		<tag k="water" v="lake" />
	</node>
	<node lat="66.09283055420855" lon="13.838102769879853" id="-18168">
		<tag k="name" v="Henrikstranda" />
		<tag k="natural" v="beach" />
		<tag k="ssr:stedsnr" v="772706" />
	</node>
	<node lat="66.09077778039743" lon="13.819619445444216" id="-18169">
		<tag k="name" v="Holmen" />
		<tag k="place" v="islet" />
		<tag k="ssr:stedsnr" v="772711" />
	</node>
	<node lat="66.1259000042738" lon="13.743830557818331" id="-18171">
		<tag k="name" v="Budalsbekken" />
		<tag k="ssr:stedsnr" v="908124" />
		<tag k="waterway" v="stream" />
	</node>
	<node lat="66.16150275768449" lon="13.958835970300058" id="-18178">
		<tag k="name" v="Avaholman" />
		<tag k="place" v="islet" />
		<tag k="ssr:stedsnr" v="908544" />
	</node>
	<node lat="66.16430555493878" lon="13.98914999103187" id="-18179">
		<tag k="name" v="Maritmyrbekken" />
		<tag k="ssr:stedsnr" v="908548" />
		<tag k="waterway" v="stream" />
	</node>
	<node lat="65.95680277379114" lon="13.861383323735854" id="-18183">
		<tag k="name" v="Bekkekroken" />
		<tag k="ssr:stedsnr" v="784260" />
		<tag k="waterway" v="stream" />
	</node>
	<node lat="66.15323333548608" lon="14.036988889793292" id="-18195">
		<tag k="name" v="Mattistjønna" />
		<tag k="natural" v="water" />
		<tag k="ssr:stedsnr" v="786054" />
	</node>
	<node lat="66.05084999853561" lon="14.431163884313987" id="-18202">
		<tag k="name" v="Gåsvollan" />
		<tag k="natural" v="cape" />
		<tag k="ssr:stedsnr" v="804103" />
	</node>
	<node lat="65.90627221806227" lon="14.485605551438892" id="-18207">
		<tag k="alt_name" v="Lomtjørna" />
		<tag k="name" v="Lomtjønna" />
		<tag k="natural" v="water" />
		<tag k="ssr:stedsnr" v="804074" />
	</node>
	<node lat="65.95828055580911" lon="13.77795832797302" id="-18215">
		<tag k="name" v="Vefsnaven" />
		<tag k="natural" v="bay" />
		<tag k="ssr:stedsnr" v="804668" />
	</node>
	<node lat="65.97494721953397" lon="13.917058342891412" id="-18216">
		<tag k="name" v="Steikeneset" />
		<tag k="natural" v="cape" />
		<tag k="ssr:stedsnr" v="804671" />
	</node>
	<node lat="65.9807861111102" lon="13.911627784034513" id="-18217">
		<tag k="name" v="Sandbekken" />
		<tag k="ssr:stedsnr" v="804674" />
		<tag k="waterway" v="stream" />
	</node>
	<node lat="66.04564444394104" lon="14.03258055318385" id="-18226">
		<tag k="name" v="Storbekken" />
		<tag k="ssr:stedsnr" v="804765" />
		<tag k="waterway" v="stream" />
	</node>
	<node lat="66.10019999782297" lon="14.147591662865608" id="-18232">
		<tag k="name" v="Mølnbekken" />
		<tag k="ssr:stedsnr" v="804912" />
		<tag k="waterway" v="stream" />
	</node>
	<node lat="66.11057777477193" lon="14.010122226207494" id="-18234">
		<tag k="name" v="Vesterbekken" />
		<tag k="ssr:stedsnr" v="804901" />
		<tag k="waterway" v="stream" />
	</node>
	<node lat="66.0712861156035" lon="13.825305555689209" id="-18235">
		<tag k="name" v="Villmoneset" />
		<tag k="natural" v="cape" />
		<tag k="ssr:stedsnr" v="804952" />
	</node>
	<node lat="66.06910277550307" lon="14.195647215013354" id="-18237">
		<tag k="name" v="Nordskardbekken" />
		<tag k="ssr:stedsnr" v="804962" />
		<tag k="waterway" v="stream" />
	</node>
	<node lat="66.0850305566196" lon="14.320394434318986" id="-18259">
		<tag k="name" v="Storskardbekken" />
		<tag k="ssr:stedsnr" v="925032" />
		<tag k="waterway" v="stream" />
	</node>
	<node lat="66.01613333368836" lon="14.413450001497397" id="-18262">
		<tag k="name" v="Rabotsbekken" />
		<tag k="ssr:stedsnr" v="925080" />
		<tag k="waterway" v="stream" />
	</node>
	<node lat="66.08134444193638" lon="14.432130554472796" id="-18265">
		<tag k="name" v="Kvitsteinbekken" />
		<tag k="ssr:stedsnr" v="925132" />
		<tag k="waterway" v="stream" />
	</node>
	<node lat="65.7996749984348" lon="13.985669433854275" id="-18268">
		<tag k="fixme" v="multiple name tags, choose one and add the other to alt_name" />
		<tag k="name" v="Kvalbukta;Sandbukta" />
		<tag k="natural" v="bay" />
		<tag k="ssr:stedsnr" v="925136" />
	</node>
	<node lat="65.82293611502995" lon="14.093933329289065" id="-18271">
		<tag k="name" v="Hamnodden" />
		<tag k="natural" v="cape" />
		<tag k="ssr:stedsnr" v="925146" />
	</node>
	<node lat="65.80627777677208" lon="13.88999721687198" id="-18273">
		<tag k="alt_name" v="Storneset" />
		<tag k="name" v="Stornesholmen" />
		<tag k="place" v="islet" />
		<tag k="ssr:stedsnr" v="925151" />
	</node>
	<node lat="65.83402222401683" lon="14.134299993313464" id="-18274">
		<tag k="name" v="Laneset" />
		<tag k="natural" v="cape" />
		<tag k="ssr:stedsnr" v="925153" />
	</node>
	<node lat="65.8152805530364" lon="13.864186121410143" id="-18275">
		<tag k="name" v="Småfannaholmen" />
		<tag k="place" v="islet" />
		<tag k="ssr:stedsnr" v="925158" />
	</node>
	<node lat="65.8853111082304" lon="13.863216673685226" id="-18276">
		<tag k="name" v="Sløykbekken" />
		<tag k="ssr:stedsnr" v="925240" />
		<tag k="waterway" v="stream" />
	</node>
	<node lat="65.87763888609624" lon="13.8463694533268" id="-18277">
		<tag k="name" v="Dambekken" />
		<tag k="ssr:stedsnr" v="925241" />
		<tag k="waterway" v="stream" />
	</node>
	<node lat="65.97592221964813" lon="13.89251111982607" id="-18281">
		<tag k="name" v="Keiptjønna" />
		<tag k="natural" v="water" />
		<tag k="ssr:stedsnr" v="925464" />
	</node>
	<node lat="65.98449166973712" lon="13.929122221124802" id="-18298">
		<tag k="name" v="Hestbenktjønna" />
		<tag k="natural" v="water" />
		<tag k="ssr:stedsnr" v="925691" />
	</node>
	<node lat="66.15870833695324" lon="13.77686111293769" id="-18301">
		<tag k="name" v="Kivikbekken" />
		<tag k="ssr:stedsnr" v="847433" />
		<tag k="waterway" v="stream" />
	</node>
	<node lat="66.19715555613621" lon="13.559580554905544" id="-18304">
		<tag k="name" v="Mørnbekken" />
		<tag k="ssr:stedsnr" v="847829" />
		<tag k="waterway" v="stream" />
	</node>
	<node lat="66.17335555831473" lon="13.449636111523626" id="-18312">
		<tag k="name" v="Brubekken" />
		<tag k="ssr:stedsnr" v="847777" />
		<tag k="waterway" v="stream" />
	</node>
	<node lat="65.90216111328154" lon="13.690855551919654" id="-18317">
		<tag k="name" v="Kotadalstjønna" />
		<tag k="natural" v="water" />
		<tag k="ssr:stedsnr" v="925998" />
	</node>
	<node lat="66.07033888919379" lon="13.919038895204034" id="-18322">
		<tag k="name" v="Johannesmobekken" />
		<tag k="ssr:stedsnr" v="925960" />
		<tag k="waterway" v="stream" />
	</node>
	<node lat="65.9097361098255" lon="14.439649991802808" id="-18324">
		<tag k="name" v="Raudlibekkneset" />
		<tag k="natural" v="cape" />
		<tag k="ssr:stedsnr" v="926044" />
	</node>
	<node lat="65.83956388568429" lon="13.954938898589262" id="-18327">
		<tag k="name" v="Gåsvatnet" />
		<tag k="natural" v="water" />
		<tag k="ssr:stedsnr" v="926158" />
		<tag k="water" v="lake" />
	</node>
	<node lat="65.82658333267801" lon="13.833969437952076" id="-18328">
		<tag k="name" v="Jensnaustet" />
		<tag k="natural" v="cape" />
		<tag k="ssr:stedsnr" v="926144" />
	</node>
	<node lat="65.85293889329206" lon="13.920124992841103" id="-18329">
		<tag k="name" v="Nedre Røynestjønna" />
		<tag k="natural" v="water" />
		<tag k="ssr:stedsnr" v="926179" />
	</node>
	<node lat="65.85395000216516" lon="14.117861117258055" id="-18330">
		<tag k="alt_name" v="Stortjørna" />
		<tag k="name" v="Stortjønna" />
		<tag k="natural" v="water" />
		<tag k="ssr:stedsnr" v="926188" />
	</node>
	<node lat="65.86656389257337" lon="13.85089167353794" id="-18332">
		<tag k="name" v="Jervtjønna" />
		<tag k="natural" v="water" />
		<tag k="ssr:stedsnr" v="926199" />
	</node>
	<node lat="65.90085000131131" lon="14.106088884045265" id="-18333">
		<tag k="name" v="Valbekken" />
		<tag k="ssr:stedsnr" v="926241" />
		<tag k="waterway" v="stream" />
	</node>
	<node lat="65.9492555595019" lon="13.895666678142458" id="-18340">
		<tag k="name" v="Svarttjønna" />
		<tag k="natural" v="water" />
		<tag k="ssr:stedsnr" v="926732" />
	</node>
	<node lat="65.95467222475317" lon="13.937561103787111" id="-18345">
		<tag k="name" v="Myrneset" />
		<tag k="natural" v="cape" />
		<tag k="ssr:stedsnr" v="926742" />
	</node>
	<node lat="66.11735277417658" lon="14.1992138927693" id="-18348">
		<tag k="name" v="Raudvassbekken" />
		<tag k="ssr:stedsnr" v="926881" />
		<tag k="waterway" v="stream" />
	</node>
	<node lat="66.0741833355805" lon="13.968113889850002" id="-18351">
		<tag k="name" v="Jamtjordbekken" />
		<tag k="ssr:stedsnr" v="926931" />
		<tag k="waterway" v="stream" />
	</node>
	<node lat="65.98290277689028" lon="13.814869437011282" id="-18361">
		<tag k="name" v="Fallforsdammen" />
		<tag k="ssr:stedsnr" v="893512" />
		<tag k="waterway" v="dam" />
	</node>
	<node lat="66.22582222394571" lon="13.66630556528346" id="-18368">
		<tag k="name" v="Juvikelva" />
		<tag k="ssr:stedsnr" v="893477" />
		<tag k="waterway" v="river" />
	</node>
	<node lat="65.92249166795933" lon="13.916063895136109" id="-18370">
		<tag k="name" v="Nordtjønna" />
		<tag k="natural" v="water" />
		<tag k="ssr:stedsnr" v="893605" />
	</node>
	<node lat="66.06547500079876" lon="13.796391671959185" id="-18373">
		<tag k="name" v="Bjynnstiforsen" />
		<tag k="natural" v="waterfall" />
		<tag k="ssr:stedsnr" v="893621" />
	</node>
	<node lat="66.07769166910127" lon="13.803472215163213" id="-18374">
		<tag k="name" v="Røyrdalsbekken" />
		<tag k="ssr:stedsnr" v="893760" />
		<tag k="waterway" v="stream" />
	</node>
	<node lat="66.15082221796476" lon="13.861688894264136" id="-18378">
		<tag k="name" v="Jakobsfosspøla" />
		<tag k="place" v="locality" />
		<tag k="ssr:stedsnr" v="893780" />
	</node>
	<node lat="66.05315832946819" lon="13.767491663099802" id="-18383">
		<tag k="name" v="Vargnesbekken" />
		<tag k="ssr:stedsnr" v="906250" />
		<tag k="waterway" v="stream" />
	</node>
	<node lat="65.98366944161907" lon="13.862652781198317" id="-18402">
		<tag k="name" v="Lars-Jonsabekken" />
		<tag k="ssr:stedsnr" v="925704" />
		<tag k="waterway" v="stream" />
	</node>
	<node lat="65.92173055985728" lon="14.14479721526072" id="-18405">
		<tag k="name" v="Skardtjønna" />
		<tag k="natural" v="water" />
		<tag k="ssr:stedsnr" v="925744" />
	</node>
	<node lat="65.96867499747871" lon="13.804577783344028" id="-18408">
		<tag k="name" v="Nerhaugen" />
		<tag k="place" v="islet" />
		<tag k="ssr:stedsnr" v="925699" />
	</node>
	<node lat="65.98262221914074" lon="13.725116672486774" id="-18410">
		<tag k="name" v="Mølntjønnen" />
		<tag k="natural" v="water" />
		<tag k="ssr:stedsnr" v="925702" />
	</node>
	<node lat="66.06691111190436" lon="13.827141659922878" id="-18413">
		<tag k="name" v="Sjøforsen" />
		<tag k="natural" v="waterfall" />
		<tag k="ssr:stedsnr" v="925974" />
	</node>
	<node lat="66.15644166413587" lon="13.745841670827836" id="-18417">
		<tag k="name" v="Soppbekken" />
		<tag k="ssr:stedsnr" v="926520" />
		<tag k="waterway" v="stream" />
	</node>
	<node lat="65.94801389076758" lon="13.906294442439373" id="-18419">
		<tag k="name" v="Saraneset" />
		<tag k="natural" v="cape" />
		<tag k="ssr:stedsnr" v="926725" />
	</node>
	<node lat="66.04739444542567" lon="13.818224997660087" id="-18435">
		<tag k="name" v="Knøskaven" />
		<tag k="natural" v="shoal" />
		<tag k="ssr:stedsnr" v="953615" />
	</node>
	<node lat="66.07188611358569" lon="13.92484166913251" id="-18437">
		<tag k="name" v="Ytterjordbekken" />
		<tag k="ssr:stedsnr" v="953819" />
		<tag k="waterway" v="stream" />
	</node>
	<node lat="65.87715833566041" lon="14.08781112062642" id="-18445">
		<tag k="name" v="Bjønndalsbekken" />
		<tag k="ssr:stedsnr" v="968046" />
		<tag k="waterway" v="stream" />
	</node>
	<node lat="66.0845166664631" lon="13.67620555361906" id="-18512">
		<tag k="fixme" v="multiple name tags, choose one and add the other to alt_name" />
		<tag k="name" v="Langholmen;Krokvassholmen" />
		<tag k="place" v="islet" />
		<tag k="ssr:stedsnr" v="15334" />
	</node>
	<node lat="65.92769999887389" lon="14.266774993883145" id="-18515">
		<tag k="name" v="Bessedørelva" />
		<tag k="ssr:stedsnr" v="15084" />
		<tag k="waterway" v="river" />
	</node>
	<node lat="65.8415083292841" lon="13.83348888578351" id="-18521">
		<tag k="name" v="Sundet" />
		<tag k="natural" v="strait" />
		<tag k="ssr:stedsnr" v="15171" />
	</node>
	<node lat="65.8611638881882" lon="13.945813893468346" id="-18523">
		<tag k="alt_name" v="Halvgåttbekken" />
		<tag k="name" v="Halvgåttkråbekken" />
		<tag k="ssr:stedsnr" v="15181" />
		<tag k="waterway" v="stream" />
	</node>
	<node lat="65.8817944406934" lon="14.195819433316835" id="-18529">
		<tag k="name" v="Nordvatnet" />
		<tag k="natural" v="bay" />
		<tag k="ssr:stedsnr" v="15215" />
	</node>
	<node lat="65.97187222385453" lon="13.935200004605354" id="-18533">
		<tag k="name" v="Grøndalselva" />
		<tag k="ssr:stedsnr" v="15467" />
		<tag k="waterway" v="river" />
	</node>
	<node lat="65.89190832912364" lon="14.118355559121401" id="-18535">
		<tag k="name" v="Valbukta" />
		<tag k="natural" v="bay" />
		<tag k="ssr:stedsnr" v="15238" />
	</node>
	<node lat="65.91889721998939" lon="13.865375001207287" id="-18538">
		<tag k="alt_name" v="Lille Bleikvatnet" />
		<tag k="name" v="Litlbleikvatnet" />
		<tag k="natural" v="water" />
		<tag k="ssr:stedsnr" v="15731" />
	</node>
	<node lat="66.18676944760354" lon="14.035266656605948" id="-18547">
		<tag k="name" v="Aven" />
		<tag k="place" v="locality" />
		<tag k="ssr:stedsnr" v="15563" />
	</node>
	<node lat="66.13124444900805" lon="13.761416660337318" id="-18557">
		<tag k="name" v="Merratelva" />
		<tag k="ssr:stedsnr" v="15650" />
		<tag k="waterway" v="stream" />
	</node>
	<node lat="65.97622777557234" lon="13.827627771402783" id="-18558">
		<tag k="alt_name" v="Lomtjørna" />
		<tag k="name" v="Lomtjønna" />
		<tag k="natural" v="water" />
		<tag k="ssr:stedsnr" v="15696" />
	</node>
	<node lat="66.04694721941414" lon="14.08277499995379" id="-18561">
		<tag k="name" v="Kvannbekken" />
		<tag k="ssr:stedsnr" v="15787" />
		<tag k="waterway" v="stream" />
	</node>
	<node lat="66.04738055241819" lon="13.754258336405375" id="-18566">
		<tag k="name" v="Sæterbekken" />
		<tag k="ssr:stedsnr" v="15989" />
		<tag k="waterway" v="stream" />
	</node>
	<node lat="65.8847888865077" lon="14.43514165885952" id="-18567">
		<tag k="name" v="Jierhtejohke" />
		<tag k="name:sma" v="Jierhtejohke" />
		<tag k="ssr:stedsnr" v="16042" />
		<tag k="waterway" v="river" />
	</node>
	<node lat="65.89645555243169" lon="14.330291672438797" id="-18568">
		<tag k="name" v="Nordsundet" />
		<tag k="natural" v="strait" />
		<tag k="ssr:stedsnr" v="16375" />
	</node>
	<node lat="66.01423055139688" lon="13.81977500661223" id="-18573">
		<tag k="name" v="Tullavbekken" />
		<tag k="ssr:stedsnr" v="16781" />
		<tag k="waterway" v="stream" />
	</node>
	<node lat="66.19056944057144" lon="13.464613889836492" id="-18576">
		<tag k="name" v="Trollforsen" />
		<tag k="natural" v="waterfall" />
		<tag k="ssr:stedsnr" v="42416" />
	</node>
	<node lat="65.99520000395835" lon="13.834050010934687" id="-18577">
		<tag k="name" v="Mølnhusaven" />
		<tag k="ssr:stedsnr" v="42342" />
		<tag k="waterway" v="stream" />
	</node>
	<node lat="66.19495555639435" lon="13.733388878466103" id="-18587">
		<tag k="name" v="Djupdalsbekken" />
		<tag k="ssr:stedsnr" v="43440" />
		<tag k="waterway" v="stream" />
	</node>
	<node lat="66.14426666769369" lon="14.036352788380091" id="-18613">
		<tag k="name" v="Utløpet" />
		<tag k="natural" v="bay" />
		<tag k="ssr:stedsnr" v="58059" />
	</node>
	<node lat="66.14731111068721" lon="14.03973888579942" id="-18614">
		<tag k="name" v="Langmyrbekken" />
		<tag k="ssr:stedsnr" v="58060" />
		<tag k="waterway" v="stream" />
	</node>
	<node lat="65.80626388592712" lon="13.921972226298871" id="-18622">
		<tag k="name" v="Mørkholbekken" />
		<tag k="ssr:stedsnr" v="58492" />
		<tag k="waterway" v="stream" />
	</node>
	<node lat="66.16263888716975" lon="13.978549990782886" id="-18625">
		<tag k="name" v="Moholman" />
		<tag k="place" v="islet" />
		<tag k="ssr:stedsnr" v="58543" />
	</node>
	<node lat="66.21300833361981" lon="13.563166665384136" id="-18629">
		<tag k="name" v="Gammeljordbekken" />
		<tag k="ssr:stedsnr" v="58865" />
		<tag k="waterway" v="stream" />
	</node>
	<node lat="66.08621944360875" lon="13.912616671564262" id="-18630">
		<tag k="name" v="Sagbekken" />
		<tag k="ssr:stedsnr" v="76025" />
		<tag k="waterway" v="stream" />
	</node>
	<node lat="65.83754166788113" lon="13.930405560678345" id="-18633">
		<tag k="name" v="Kothaugvatnet" />
		<tag k="natural" v="water" />
		<tag k="ssr:stedsnr" v="76178" />
	</node>
	<node lat="65.88005000340848" lon="14.165752787542917" id="-18637">
		<tag k="name" v="Prøysholmen" />
		<tag k="place" v="islet" />
		<tag k="ssr:stedsnr" v="76228" />
	</node>
	<node lat="65.89347777937229" lon="14.19352221314019" id="-18638">
		<tag k="name" v="Finnvika" />
		<tag k="natural" v="bay" />
		<tag k="ssr:stedsnr" v="76238" />
	</node>
	<node lat="65.89039999915242" lon="14.086252770519224" id="-18639">
		<tag k="fixme" v="multiple name tags, choose one and add the other to alt_name" />
		<tag k="name" v="Elvneset;Elvbakkneset" />
		<tag k="natural" v="cape" />
		<tag k="ssr:stedsnr" v="76241" />
	</node>
	<node lat="66.17258332979452" lon="13.474822217959465" id="-18640">
		<tag k="alt_name" v="Bjønndragvatnet" />
		<tag k="name" v="Bjørndragvatnet" />
		<tag k="natural" v="water" />
		<tag k="ssr:stedsnr" v="76408" />
	</node>
	<node lat="66.16377221810632" lon="13.434538883036257" id="-18641">
		<tag k="name" v="Middagselva" />
		<tag k="ssr:stedsnr" v="76415" />
		<tag k="waterway" v="stream" />
	</node>
	<node lat="65.87035833362027" lon="14.012766666061705" id="-18643">
		<tag k="name" v="Gardsbekken" />
		<tag k="ssr:stedsnr" v="76418" />
		<tag k="waterway" v="stream" />
	</node>
	<node lat="66.15096110896629" lon="13.409608333306691" id="-18646">
		<tag k="name" v="Sørbuktelva" />
		<tag k="ssr:stedsnr" v="76486" />
		<tag k="waterway" v="stream" />
	</node>
	<node lat="66.14066944638571" lon="13.926344455478612" id="-18647">
		<tag k="name" v="Kvanndalsbekken" />
		<tag k="ssr:stedsnr" v="76582" />
		<tag k="waterway" v="stream" />
	</node>
	<node lat="66.13686666660305" lon="13.774258335459482" id="-18648">
		<tag k="name" v="Jordbekken" />
		<tag k="ssr:stedsnr" v="76587" />
		<tag k="waterway" v="stream" />
	</node>
	<node lat="66.16535278142" lon="13.852352770566517" id="-18658">
		<tag k="fixme" v="multiple name tags, choose one and add the other to alt_name" />
		<tag k="name" v="Innerelva;Indre Breivikelva" />
		<tag k="ssr:stedsnr" v="76517" />
		<tag k="waterway" v="stream" />
	</node>
	<node lat="66.18709166952708" lon="13.821108340277625" id="-18662">
		<tag k="alt_name" v="Heimgårdsbekken" />
		<tag k="name" v="Heimgardsbekken" />
		<tag k="ssr:stedsnr" v="76540" />
		<tag k="waterway" v="stream" />
	</node>
	<node lat="65.96667222012383" lon="13.89316110613229" id="-18666">
		<tag k="name" v="Storbekken" />
		<tag k="ssr:stedsnr" v="76636" />
		<tag k="waterway" v="stream" />
	</node>
	<node lat="65.97055277785829" lon="14.015627784959296" id="-18667">
		<tag k="name" v="Innerelva" />
		<tag k="ssr:stedsnr" v="76642" />
		<tag k="waterway" v="stream" />
	</node>
	<node lat="65.95846389347234" lon="13.815152769868934" id="-18668">
		<tag k="alt_name" v="Bjynnholmen" />
		<tag k="name" v="Bjørnholmen" />
		<tag k="place" v="islet" />
		<tag k="ssr:stedsnr" v="76645" />
	</node>
	<node lat="65.94200555275404" lon="13.952697228753397" id="-18670">
		<tag k="name" v="Bleikvatnet" />
		<tag k="natural" v="water" />
		<tag k="ssr:stedsnr" v="76730" />
		<tag k="water" v="lake" />
	</node>
	<node lat="65.9520166625558" lon="13.861969441002655" id="-18672">
		<tag k="name" v="Skardtjønna" />
		<tag k="natural" v="water" />
		<tag k="ssr:stedsnr" v="76743" />
	</node>
	<node lat="66.09930277861382" lon="13.751580547934767" id="-18677">
		<tag k="name" v="Bukkhågbekken" />
		<tag k="ssr:stedsnr" v="76895" />
		<tag k="waterway" v="stream" />
	</node>
	<node lat="66.05611388530873" lon="13.948902767653093" id="-18680">
		<tag k="name" v="Durmålsbekken" />
		<tag k="ssr:stedsnr" v="76986" />
		<tag k="waterway" v="stream" />
	</node>
	<node lat="66.04802222439757" lon="14.026594441129845" id="-18681">
		<tag k="name" v="Killingbekken" />
		<tag k="ssr:stedsnr" v="76987" />
		<tag k="waterway" v="stream" />
	</node>
	<node lat="65.89424721837968" lon="13.704975006334612" id="-18682">
		<tag k="name" v="Gamtjønna" />
		<tag k="natural" v="water" />
		<tag k="ssr:stedsnr" v="76988" />
	</node>
	<node lat="66.08014722048149" lon="13.93630554925299" id="-18686">
		<tag k="name" v="Almlibekken" />
		<tag k="ssr:stedsnr" v="76934" />
		<tag k="waterway" v="stream" />
	</node>
	<node lat="65.99370000291178" lon="13.83050833916518" id="-18693">
		<tag k="name" v="Stabbforsbukta" />
		<tag k="natural" v="bay" />
		<tag k="ssr:stedsnr" v="103350" />
	</node>
	<node lat="65.91218889086623" lon="13.881322223921664" id="-18701">
		<tag k="name" v="Innerlibekken" />
		<tag k="ssr:stedsnr" v="104595" />
		<tag k="waterway" v="stream" />
	</node>
	<node lat="66.01356666922159" lon="13.871613886086486" id="-18703">
		<tag k="name" v="Bruneset" />
		<tag k="natural" v="cape" />
		<tag k="ssr:stedsnr" v="104698" />
	</node>
	<node lat="66.12746111267748" lon="13.850233323771283" id="-18704">
		<tag k="name" v="Svartbekken" />
		<tag k="ssr:stedsnr" v="104820" />
		<tag k="waterway" v="stream" />
	</node>
	<node lat="66.07697222481681" lon="13.836413882292792" id="-18706">
		<tag k="name" v="Haganeset" />
		<tag k="natural" v="cape" />
		<tag k="ssr:stedsnr" v="104738" />
	</node>
	<node lat="66.15338888991589" lon="13.920827771101907" id="-18707">
		<tag k="name" v="Langforsen" />
		<tag k="natural" v="waterfall" />
		<tag k="ssr:stedsnr" v="104764" />
	</node>
	<node lat="65.80028333441044" lon="13.883738896082567" id="-18721">
		<tag k="name" v="Storneset" />
		<tag k="natural" v="cape" />
		<tag k="ssr:stedsnr" v="118420" />
	</node>
	<node lat="65.81520278160097" lon="13.898252781312744" id="-18722">
		<tag k="name" v="Langnesbukta" />
		<tag k="natural" v="bay" />
		<tag k="ssr:stedsnr" v="118421" />
	</node>
	<node lat="65.82154999940362" lon="14.090088883241116" id="-18728">
		<tag k="name" v="Hamnbukta" />
		<tag k="natural" v="bay" />
		<tag k="ssr:stedsnr" v="119037" />
	</node>
	<node lat="65.8745750015322" lon="14.095775002304451" id="-18729">
		<tag k="name" v="Slåttvikbekken" />
		<tag k="ssr:stedsnr" v="119038" />
		<tag k="waterway" v="stream" />
	</node>
	<node lat="66.09105555492145" lon="14.232738886287247" id="-18739">
		<tag k="name" v="Vasshovudet" />
		<tag k="natural" v="bay" />
		<tag k="ssr:stedsnr" v="136144" />
	</node>
	<node lat="65.8782861107508" lon="14.15641389457763" id="-18743">
		<tag k="name" v="Sørsundet" />
		<tag k="natural" v="strait" />
		<tag k="ssr:stedsnr" v="136224" />
	</node>
	<node lat="65.87254166627106" lon="13.926324989533668" id="-18744">
		<tag k="name" v="Gullaugeforsen" />
		<tag k="natural" v="waterfall" />
		<tag k="ssr:stedsnr" v="136229" />
	</node>
	<node lat="65.8860138868386" lon="14.207100003856917" id="-18747">
		<tag k="name" v="Storholmen" />
		<tag k="place" v="islet" />
		<tag k="ssr:stedsnr" v="136242" />
	</node>
	<node lat="65.85906666234506" lon="14.131097224728276" id="-18753">
		<tag k="name" v="Åstjønna" />
		<tag k="natural" v="water" />
		<tag k="ssr:stedsnr" v="136191" />
	</node>
	<node lat="65.84319722253385" lon="13.869875001179444" id="-18754">
		<tag k="alt_name" v="Ytterlillevatn" />
		<tag k="name" v="Ytterlitlvatnet" />
		<tag k="natural" v="water" />
		<tag k="ssr:stedsnr" v="136194" />
	</node>
	<node lat="66.03811666818942" lon="13.80129998933914" id="-18756">
		<tag k="name" v="Trollbekken" />
		<tag k="ssr:stedsnr" v="136787" />
		<tag k="waterway" v="stream" />
	</node>
	<node lat="66.17800000189746" lon="13.450697220527424" id="-18761">
		<tag k="fixme" v="multiple name tags, choose one and add the other to alt_name" />
		<tag k="name" v="Leirvikelva;Neverlielva" />
		<tag k="ssr:stedsnr" v="136432" />
		<tag k="waterway" v="river" />
	</node>
	<node lat="66.17696666898975" lon="13.425913882394228" id="-18762">
		<tag k="alt_name" v="Nonsvatnet, store" />
		<tag k="fixme" v="multiple name tags, choose one and add the other to alt_name" />
		<tag k="name" v="Store Nonsvatnet;Lille Nonsvatn" />
		<tag k="natural" v="water" />
		<tag k="ssr:stedsnr" v="136433" />
	</node>
	<node lat="66.17531944448902" lon="13.905400000303258" id="-18766">
		<tag k="name" v="Finnlikkista" />
		<tag k="natural" v="water" />
		<tag k="ssr:stedsnr" v="136534" />
	</node>
	<node lat="66.14373333264183" lon="14.041361120032482" id="-18769">
		<tag k="alt_name" v="Fiskerneset" />
		<tag k="name" v="Fiskarneset" />
		<tag k="natural" v="cape" />
		<tag k="ssr:stedsnr" v="136639" />
	</node>
	<node lat="66.16932500254052" lon="14.02067222861586" id="-18771">
		<tag k="name" v="Storbekken" />
		<tag k="ssr:stedsnr" v="136573" />
		<tag k="waterway" v="stream" />
	</node>
	<node lat="65.89255555893187" lon="14.344688890107793" id="-18777">
		<tag k="alt_name" v="Hjartfjellneset, austre" />
		<tag k="name" v="Austre Hjartfjellneset" />
		<tag k="natural" v="cape" />
		<tag k="ssr:stedsnr" v="137036" />
	</node>
	<node lat="66.15195555385831" lon="14.246783336040128" id="-18778">
		<tag k="name" v="Rempbekken" />
		<tag k="ssr:stedsnr" v="137071" />
		<tag k="waterway" v="stream" />
	</node>
	<node lat="65.94098333029507" lon="14.069083323471215" id="-18781">
		<tag k="name" v="Hitterelva" />
		<tag k="ssr:stedsnr" v="136734" />
		<tag k="waterway" v="stream" />
	</node>
	<node lat="66.09922500179925" lon="13.788972229082912" id="-18782">
		<tag k="alt_name" v="Helbekken" />
		<tag k="name" v="Hellbekken" />
		<tag k="ssr:stedsnr" v="136908" />
		<tag k="waterway" v="stream" />
	</node>
	<node lat="65.81768611203367" lon="13.900936111248122" id="-18783">
		<tag k="name" v="Langneset" />
		<tag k="natural" v="cape" />
		<tag k="ssr:stedsnr" v="137390" />
	</node>
	<node lat="66.19025833397086" lon="13.431458329872138" id="-18790">
		<tag k="fixme" v="multiple name tags, choose one and add the other to alt_name" />
		<tag k="name" v="Svartvatnet;Lille Tenvatn" />
		<tag k="natural" v="water" />
		<tag k="ssr:stedsnr" v="137409" />
	</node>
	<node lat="65.9087361144954" lon="13.721525004999503" id="-18791">
		<tag k="name" v="Storholetjønna" />
		<tag k="natural" v="water" />
		<tag k="ssr:stedsnr" v="137659" />
	</node>
	<node lat="65.91819722147586" lon="13.684530559544738" id="-18793">
		<tag k="name" v="Jenstjønna" />
		<tag k="natural" v="water" />
		<tag k="ssr:stedsnr" v="137875" />
	</node>
	<node lat="66.03725277761977" lon="13.833427766847551" id="-18812">
		<tag k="name" v="Stormyraven" />
		<tag k="natural" v="water" />
		<tag k="ssr:stedsnr" v="164628" />
		<tag k="water" v="lake" />
	</node>
	<node lat="66.01608888523079" lon="13.83287499354566" id="-18816">
		<tag k="name" v="Rundselbukta" />
		<tag k="place" v="locality" />
		<tag k="ssr:stedsnr" v="164750" />
	</node>
	<node lat="66.07151111071856" lon="13.99031945472616" id="-18820">
		<tag k="name" v="Flaugbekken" />
		<tag k="ssr:stedsnr" v="164817" />
		<tag k="waterway" v="stream" />
	</node>
	<node lat="65.88465000164553" lon="14.187022212574858" id="-18829">
		<tag k="name" v="Fisketjønna" />
		<tag k="natural" v="water" />
		<tag k="ssr:stedsnr" v="179081" />
	</node>
	<node lat="66.17264444544325" lon="14.066822229876921" id="-18833">
		<tag k="name" v="Holmneset" />
		<tag k="natural" v="cape" />
		<tag k="ssr:stedsnr" v="179033" />
	</node>
	<node lat="65.82105555773965" lon="14.07658332447373" id="-18834">
		<tag k="name" v="Bekkenesbekken" />
		<tag k="ssr:stedsnr" v="179040" />
		<tag k="waterway" v="stream" />
	</node>
	<node lat="65.89869722373491" lon="13.908694452995485" id="-18845">
		<tag k="name" v="Nordtjønna" />
		<tag k="natural" v="water" />
		<tag k="ssr:stedsnr" v="179499" />
	</node>
	<node lat="65.83421666532688" lon="13.883252786101961" id="-18847">
		<tag k="name" v="Dalbekkosen" />
		<tag k="natural" v="bay" />
		<tag k="ssr:stedsnr" v="179446" />
	</node>
	<node lat="66.16486111094035" lon="14.011463881471235" id="-18852">
		<tag k="name" v="Bjurbekken" />
		<tag k="ssr:stedsnr" v="197583" />
		<tag k="waterway" v="river" />
	</node>
	<node lat="65.94279444065829" lon="14.390841663081087" id="-18854">
		<tag k="name" v="Holbekken" />
		<tag k="ssr:stedsnr" v="197085" />
		<tag k="waterway" v="stream" />
	</node>
	<node lat="66.04639999974474" lon="14.458930548770313" id="-18856">
		<tag k="name" v="Spjeltfjelldalsbukta" />
		<tag k="natural" v="bay" />
		<tag k="ssr:stedsnr" v="197090" />
	</node>
	<node lat="65.8197222219251" lon="14.063633340635814" id="-18861">
		<tag k="name" v="Mølnelva" />
		<tag k="ssr:stedsnr" v="197143" />
		<tag k="waterway" v="stream" />
	</node>
	<node lat="65.87093889213048" lon="13.812538887350174" id="-18862">
		<tag k="name" v="Bergdalstjønna" />
		<tag k="natural" v="water" />
		<tag k="ssr:stedsnr" v="197237" />
	</node>
	<node lat="65.8819805553043" lon="14.161480553626319" id="-18863">
		<tag k="name" v="Nordsundet" />
		<tag k="natural" v="strait" />
		<tag k="ssr:stedsnr" v="197239" />
	</node>
	<node lat="66.16055000289587" lon="13.992538883730301" id="-18870">
		<tag k="name" v="Reinforsen" />
		<tag k="natural" v="waterfall" />
		<tag k="ssr:stedsnr" v="197579" />
	</node>
	<node lat="66.14802500251423" lon="13.778152777349119" id="-18871">
		<tag k="name" v="Skredbekken" />
		<tag k="ssr:stedsnr" v="197623" />
		<tag k="waterway" v="stream" />
	</node>
	<node lat="65.9337361080972" lon="13.948099991453306" id="-18881">
		<tag k="name" v="Kotabekken" />
		<tag k="ssr:stedsnr" v="197741" />
		<tag k="waterway" v="stream" />
	</node>
	<node lat="66.03785555449336" lon="14.064563881081337" id="-18884">
		<tag k="name" v="Skredabekken" />
		<tag k="ssr:stedsnr" v="197796" />
		<tag k="waterway" v="stream" />
	</node>
	<node lat="65.84245833106718" lon="13.857205550212495" id="-18888">
		<tag k="name" v="Fornesbukta" />
		<tag k="natural" v="bay" />
		<tag k="ssr:stedsnr" v="198135" />
	</node>
	<node lat="65.83773611350716" lon="13.869033342418836" id="-18891">
		<tag k="name" v="Forneset" />
		<tag k="natural" v="cape" />
		<tag k="ssr:stedsnr" v="198377" />
	</node>
	<node lat="65.89203611555853" lon="13.980949995031091" id="-18892">
		<tag k="name" v="Merkebekken" />
		<tag k="ssr:stedsnr" v="198389" />
		<tag k="waterway" v="stream" />
	</node>
	<node lat="66.1178805593628" lon="14.06630833805921" id="-18893">
		<tag k="name" v="Storholmen" />
		<tag k="place" v="islet" />
		<tag k="ssr:stedsnr" v="198881" />
	</node>
	<node lat="66.17469166757022" lon="14.04781944919312" id="-18895">
		<tag k="name" v="Bjerkbekken" />
		<tag k="ssr:stedsnr" v="198538" />
		<tag k="waterway" v="stream" />
	</node>
	<node lat="65.90493333720521" lon="13.992577777384763" id="-18896">
		<tag k="name" v="Midtre Skredtjønna" />
		<tag k="natural" v="water" />
		<tag k="ssr:stedsnr" v="198673" />
	</node>
	<node lat="65.93295833318567" lon="13.717827785338748" id="-18901">
		<tag k="name" v="Langtjønna" />
		<tag k="natural" v="water" />
		<tag k="ssr:stedsnr" v="198888" />
	</node>
	<node lat="66.07989722225881" lon="14.258705546438161" id="-18905">
		<tag k="name" v="Kjennsvatnan" />
		<tag k="natural" v="water" />
		<tag k="ssr:stedsnr" v="208077" />
		<tag k="water" v="lake" />
	</node>
	<node lat="66.05641110702085" lon="13.846780552750038" id="-18906">
		<tag k="name" v="Kvilstøbekken" />
		<tag k="ssr:stedsnr" v="224643" />
		<tag k="waterway" v="stream" />
	</node>
	<node lat="66.06772777933924" lon="13.751061113617508" id="-18911">
		<tag k="name" v="Gabrielforsen" />
		<tag k="natural" v="waterfall" />
		<tag k="ssr:stedsnr" v="225445" />
	</node>
	<node lat="66.00195277764212" lon="13.887033339488951" id="-18912">
		<tag k="name" v="Skillebekken" />
		<tag k="ssr:stedsnr" v="225564" />
		<tag k="waterway" v="stream" />
	</node>
	<node lat="65.92213055971446" lon="13.907049993886803" id="-18917">
		<tag k="name" v="Sørtjønna" />
		<tag k="natural" v="water" />
		<tag k="ssr:stedsnr" v="225652" />
	</node>
	<node lat="65.90526944611727" lon="13.807063892084617" id="-18918">
		<tag k="name" v="Stormyraven" />
		<tag k="ssr:stedsnr" v="225653" />
		<tag k="waterway" v="stream" />
	</node>
	<node lat="66.05786944703023" lon="13.833988892915414" id="-18923">
		<tag k="name" v="Merkebekken" />
		<tag k="ssr:stedsnr" v="226675" />
		<tag k="waterway" v="stream" />
	</node>
	<node lat="66.13864166750447" lon="13.79809167034059" id="-18926">
		<tag k="name" v="Merratneset" />
		<tag k="natural" v="cape" />
		<tag k="ssr:stedsnr" v="285646" />
	</node>
	<node lat="66.05641666487145" lon="13.820577778347113" id="-18927">
		<tag k="name" v="Vallbotnaven" />
		<tag k="natural" v="bay" />
		<tag k="ssr:stedsnr" v="285663" />
	</node>
	<node lat="66.06812499961335" lon="13.742299989327785" id="-18931">
		<tag k="name" v="Langnesbekken" />
		<tag k="ssr:stedsnr" v="286423" />
		<tag k="waterway" v="stream" />
	</node>
	<node lat="66.06518610724369" lon="13.799430550693147" id="-18935">
		<tag k="name" v="Sagneset" />
		<tag k="natural" v="cape" />
		<tag k="ssr:stedsnr" v="286667" />
	</node>
	<node lat="66.14663610956069" lon="13.845324992249289" id="-18937">
		<tag k="name" v="Mørnbekken" />
		<tag k="ssr:stedsnr" v="286899" />
		<tag k="waterway" v="stream" />
	</node>
	<node lat="66.1481305534911" lon="13.846491674247618" id="-18944">
		<tag k="name" v="Teibærholmen" />
		<tag k="natural" v="cape" />
		<tag k="ssr:stedsnr" v="286870" />
	</node>
	<node lat="66.13901388879631" lon="13.730130562588235" id="-18945">
		<tag k="name" v="Beretlitjønna" />
		<tag k="natural" v="water" />
		<tag k="ssr:stedsnr" v="299044" />
	</node>
	<node lat="66.03119444300263" lon="13.771069434008904" id="-18946">
		<tag k="name" v="Trollbekken" />
		<tag k="ssr:stedsnr" v="299238" />
		<tag k="waterway" v="stream" />
	</node>
	<node lat="65.92219444090907" lon="14.44383611140535" id="-18952">
		<tag k="name" v="Artfjelltjønnen" />
		<tag k="natural" v="water" />
		<tag k="ssr:stedsnr" v="300159" />
		<tag k="water" v="lake" />
	</node>
	<node lat="66.1253111137342" lon="14.054213884932048" id="-18955">
		<tag k="name" v="Vasshauet" />
		<tag k="natural" v="cape" />
		<tag k="ssr:stedsnr" v="300499" />
	</node>
	<node lat="66.14628888467992" lon="14.0253500077701" id="-18957">
		<tag k="name" v="Sagforsen" />
		<tag k="natural" v="waterfall" />
		<tag k="ssr:stedsnr" v="301041" />
	</node>
	<node lat="66.04358610986763" lon="14.077025006279893" id="-18967">
		<tag k="name" v="Holman" />
		<tag k="place" v="islet" />
		<tag k="ssr:stedsnr" v="301059" />
	</node>
	<node lat="66.04592222404438" lon="14.077933343353052" id="-18968">
		<tag k="name" v="Merkebekken" />
		<tag k="ssr:stedsnr" v="301060" />
		<tag k="waterway" v="stream" />
	</node>
	<node lat="66.05606389284905" lon="14.021297231210928" id="-18971">
		<tag k="name" v="Bjynnbekken" />
		<tag k="ssr:stedsnr" v="301481" />
		<tag k="waterway" v="stream" />
	</node>
	<node lat="65.80066666945812" lon="13.955133328213131" id="-18983">
		<tag k="name" v="Orrhaugelva" />
		<tag k="ssr:stedsnr" v="318109" />
		<tag k="waterway" v="stream" />
	</node>
	<node lat="65.8742694484677" lon="13.9494750065483" id="-18986">
		<tag k="name" v="Innernesforsen" />
		<tag k="natural" v="waterfall" />
		<tag k="ssr:stedsnr" v="318169" />
	</node>
	<node lat="65.88219167097445" lon="14.06260556073255" id="-18987">
		<tag k="fixme" v="multiple name tags, choose one and add the other to alt_name" />
		<tag k="name" v="Fiskarkråbekken;Fiskartjønnbekken" />
		<tag k="ssr:stedsnr" v="318186" />
		<tag k="waterway" v="stream" />
	</node>
	<node lat="65.88591667087323" lon="14.104916661302465" id="-18988">
		<tag k="alt_name" v="Røsvassbukta" />
		<tag k="name" v="Røssvassbukta" />
		<tag k="natural" v="bay" />
		<tag k="ssr:stedsnr" v="318187" />
	</node>
	<node lat="66.18198888710613" lon="13.438008337507167" id="-18991">
		<tag k="name" v="Storlibekken" />
		<tag k="ssr:stedsnr" v="318374" />
		<tag k="waterway" v="stream" />
	</node>
	<node lat="65.9616000026488" lon="13.834413884221354" id="-18992">
		<tag k="name" v="Fjellaven" />
		<tag k="natural" v="bay" />
		<tag k="ssr:stedsnr" v="318655" />
	</node>
	<node lat="65.83337777567084" lon="13.778597213235553" id="-18998">
		<tag k="alt_name" v="Bleriksvatnet, øvre" />
		<tag k="name" v="Øvre Bleriksvatnet" />
		<tag k="natural" v="water" />
		<tag k="ssr:stedsnr" v="319158" />
	</node>
	<node lat="65.93619722428383" lon="14.375011110519589" id="-19007">
		<tag k="name" v="Steikvatnet" />
		<tag k="natural" v="water" />
		<tag k="ssr:stedsnr" v="319061" />
		<tag k="water" v="lake" />
	</node>
	<node lat="66.1280305527116" lon="14.027269442609395" id="-19013">
		<tag k="name" v="Storpølbekken" />
		<tag k="ssr:stedsnr" v="319585" />
		<tag k="waterway" v="stream" />
	</node>
	<node lat="66.15792222050031" lon="13.914286109023413" id="-19016">
		<tag k="name" v="Bordmobekken" />
		<tag k="ssr:stedsnr" v="319523" />
		<tag k="waterway" v="stream" />
	</node>
	<node lat="65.91096111304957" lon="13.867305549273812" id="-19023">
		<tag k="name" v="Bleikvassforsen" />
		<tag k="natural" v="waterfall" />
		<tag k="ssr:stedsnr" v="319679" />
	</node>
	<node lat="66.1941055582718" lon="13.454775004399533" id="-19030">
		<tag k="name" v="Nordbekken" />
		<tag k="ssr:stedsnr" v="345400" />
		<tag k="waterway" v="stream" />
	</node>
	<node lat="66.06541110841029" lon="13.965183329785848" id="-19033">
		<tag k="name" v="Libakkbekken" />
		<tag k="ssr:stedsnr" v="345941" />
		<tag k="waterway" v="stream" />
	</node>
	<node lat="65.97659166263317" lon="13.785938890825369" id="-19035">
		<tag k="name" v="Storskogaven" />
		<tag k="natural" v="bay" />
		<tag k="ssr:stedsnr" v="346543" />
	</node>
	<node lat="65.91026666714866" lon="13.880000007673779" id="-19037">
		<tag k="name" v="Rønningsbekken" />
		<tag k="ssr:stedsnr" v="346622" />
		<tag k="waterway" v="stream" />
	</node>
	<node lat="65.90646111208937" lon="13.834808329688714" id="-19038">
		<tag k="name" v="Stornesbekken" />
		<tag k="ssr:stedsnr" v="346636" />
		<tag k="waterway" v="stream" />
	</node>
	<node lat="66.02795278004706" lon="13.841066673861791" id="-19041">
		<tag k="name" v="Jørnbukta" />
		<tag k="natural" v="bay" />
		<tag k="ssr:stedsnr" v="346571" />
	</node>
	<node lat="65.95496388431216" lon="13.807991671025187" id="-19052">
		<tag k="name" v="Kjeldbakkholmen" />
		<tag k="place" v="islet" />
		<tag k="ssr:stedsnr" v="360457" />
	</node>
	<node lat="66.14055833620091" lon="14.063680554882168" id="-19056">
		<tag k="name" v="Slettbakkbekken" />
		<tag k="ssr:stedsnr" v="361060" />
		<tag k="waterway" v="stream" />
	</node>
	<node lat="65.83500000115163" lon="14.123941675263149" id="-19061">
		<tag k="name" v="Lanesbekken" />
		<tag k="ssr:stedsnr" v="361038" />
		<tag k="waterway" v="stream" />
	</node>
	<node lat="65.961652777093" lon="13.748600004890477" id="-19073">
		<tag k="name" v="Treingsbekken" />
		<tag k="ssr:stedsnr" v="361239" />
		<tag k="waterway" v="stream" />
	</node>
	<node lat="65.8793694406553" lon="13.949716657136202" id="-19077">
		<tag k="name" v="Tjærebrennbekken" />
		<tag k="ssr:stedsnr" v="361479" />
		<tag k="waterway" v="stream" />
	</node>
	<node lat="65.89475000168163" lon="13.796874997294335" id="-19088">
		<tag k="name" v="Granskogtjønna" />
		<tag k="natural" v="water" />
		<tag k="ssr:stedsnr" v="361547" />
	</node>
	<node lat="66.04589444354221" lon="14.02797777832724" id="-19098">
		<tag k="name" v="Ragnabekken" />
		<tag k="ssr:stedsnr" v="379732" />
		<tag k="waterway" v="stream" />
	</node>
	<node lat="66.1022611085854" lon="13.754358324328091" id="-19107">
		<tag k="alt_name" v="Bjønnbekken" />
		<tag k="name" v="Bjørnbekken" />
		<tag k="ssr:stedsnr" v="379026" />
		<tag k="waterway" v="stream" />
	</node>
	<node lat="65.91387222560093" lon="14.415927782161717" id="-19109">
		<tag k="name" v="Bursholmen" />
		<tag k="place" v="islet" />
		<tag k="ssr:stedsnr" v="379051" />
	</node>
	<node lat="65.87161944405206" lon="13.956061111270783" id="-19112">
		<tag k="name" v="Granholmtjønnen" />
		<tag k="natural" v="water" />
		<tag k="ssr:stedsnr" v="379195" />
		<tag k="water" v="lake" />
	</node>
	<node lat="66.02916666781135" lon="14.161947223596421" id="-19117">
		<tag k="name" v="Leirbotnelva" />
		<tag k="ssr:stedsnr" v="379077" />
		<tag k="waterway" v="river" />
	</node>
	<node lat="66.0608055600143" lon="14.500663882217362" id="-19118">
		<tag k="name" v="Paradisbukta" />
		<tag k="natural" v="bay" />
		<tag k="ssr:stedsnr" v="379085" />
	</node>
	<node lat="66.12240000345504" lon="13.696219439043528" id="-19126">
		<tag k="name" v="Sandvatnet" />
		<tag k="natural" v="water" />
		<tag k="ssr:stedsnr" v="379435" />
	</node>
	<node lat="65.99644722333163" lon="13.730836116839352" id="-19134">
		<tag k="name" v="Storanderstjønna" />
		<tag k="natural" v="water" />
		<tag k="ssr:stedsnr" v="379664" />
	</node>
	<node lat="65.93165000257758" lon="14.029183335516805" id="-19138">
		<tag k="name" v="Middagsbekken" />
		<tag k="ssr:stedsnr" v="379693" />
		<tag k="waterway" v="stream" />
	</node>
	<node lat="65.93688610824432" lon="13.950011099949679" id="-19140">
		<tag k="alt_name" v="Sandvikneset, in" />
		<tag k="name" v="Indre Sandvikneset" />
		<tag k="natural" v="cape" />
		<tag k="ssr:stedsnr" v="379695" />
	</node>
	<node lat="66.04861388682136" lon="14.020744453319162" id="-19150">
		<tag k="alt_name" v="Bjynnbekken" />
		<tag k="name" v="Bjørnbekken" />
		<tag k="ssr:stedsnr" v="379989" />
		<tag k="waterway" v="stream" />
	</node>
	<node lat="65.93337777740769" lon="13.748422222832101" id="-19151">
		<tag k="fixme" v="multiple name tags, choose one and add the other to alt_name" />
		<tag k="name" v="Langtjønna;Øvre Murtjønna" />
		<tag k="natural" v="water" />
		<tag k="ssr:stedsnr" v="379701" />
	</node>
	<node lat="66.07179999606328" lon="13.989113890796476" id="-19153">
		<tag k="name" v="Tomasbekken" />
		<tag k="ssr:stedsnr" v="379949" />
		<tag k="waterway" v="stream" />
	</node>
	<node lat="66.06244999649547" lon="13.76022223040653" id="-19164">
		<tag k="name" v="Dammen" />
		<tag k="ssr:stedsnr" v="407434" />
		<tag k="waterway" v="dam" />
	</node>
	<node lat="65.98601666474342" lon="13.782372228071152" id="-19171">
		<tag k="name" v="Merradalsbekken" />
		<tag k="ssr:stedsnr" v="407564" />
		<tag k="waterway" v="stream" />
	</node>
	<node lat="65.90482222159508" lon="13.813591659039718" id="-19173">
		<tag k="name" v="Omfløddaven" />
		<tag k="natural" v="water" />
		<tag k="ssr:stedsnr" v="407677" />
	</node>
	<node lat="66.14863055416218" lon="13.85332776970313" id="-19181">
		<tag k="name" v="Sagfossen" />
		<tag k="natural" v="waterfall" />
		<tag k="ssr:stedsnr" v="407884" />
	</node>
	<node lat="65.93988888753054" lon="13.800911113232573" id="-19187">
		<tag k="name" v="Hølet" />
		<tag k="place" v="locality" />
		<tag k="ssr:stedsnr" v="421235" />
	</node>
	<node lat="66.15204167096836" lon="14.010099998444005" id="-19194">
		<tag k="name" v="Fløtasæla" />
		<tag k="natural" v="water" />
		<tag k="ssr:stedsnr" v="422063" />
		<tag k="water" v="lake" />
	</node>
	<node lat="66.1548027800824" lon="14.033980545563908" id="-19195">
		<tag k="name" v="Lomtjønna" />
		<tag k="natural" v="water" />
		<tag k="ssr:stedsnr" v="422068" />
	</node>
	<node lat="65.80926388730433" lon="13.897327768323677" id="-19201">
		<tag k="name" v="Kjørevika" />
		<tag k="natural" v="bay" />
		<tag k="ssr:stedsnr" v="422460" />
	</node>
	<node lat="65.88185555642652" lon="14.016272213984196" id="-19202">
		<tag k="name" v="Per Jensavika" />
		<tag k="natural" v="bay" />
		<tag k="ssr:stedsnr" v="422461" />
	</node>
	<node lat="65.87186666808219" lon="13.939038889989867" id="-19203">
		<tag k="name" v="Innernesan" />
		<tag k="natural" v="cape" />
		<tag k="ssr:stedsnr" v="422465" />
	</node>
	<node lat="65.82848333021592" lon="13.894533341653457" id="-19204">
		<tag k="name" v="Laneset" />
		<tag k="natural" v="cape" />
		<tag k="ssr:stedsnr" v="422471" />
	</node>
	<node lat="66.2247166655438" lon="13.537019443449068" id="-19205">
		<tag k="name" v="Oselva" />
		<tag k="ssr:stedsnr" v="422781" />
		<tag k="waterway" v="stream" />
	</node>
	<node lat="66.19696388661154" lon="13.507800007582123" id="-19206">
		<tag k="loc_name" v="Mølnbekken" />
		<tag k="name" v="Mørnbekken" />
		<tag k="ssr:stedsnr" v="422882" />
		<tag k="waterway" v="stream" />
	</node>
	<node lat="65.91496666699761" lon="14.35896110100633" id="-19210">
		<tag k="name" v="Kråbekken" />
		<tag k="ssr:stedsnr" v="423119" />
		<tag k="waterway" v="stream" />
	</node>
	<node lat="65.91635555332898" lon="14.365208337772273" id="-19211">
		<tag k="name" v="Fagerlibekken" />
		<tag k="ssr:stedsnr" v="423089" />
		<tag k="waterway" v="stream" />
	</node>
	<node lat="66.21552499594016" lon="13.781358338937087" id="-19212">
		<tag k="name" v="Mølnbekken" />
		<tag k="ssr:stedsnr" v="440675" />
		<tag k="waterway" v="stream" />
	</node>
	<node lat="65.78260833725155" lon="13.92029444629454" id="-19216">
		<tag k="name" v="Eggeholmen" />
		<tag k="place" v="islet" />
		<tag k="ssr:stedsnr" v="440135" />
	</node>
	<node lat="65.89342778077344" lon="13.781838893678497" id="-19218">
		<tag k="alt_name" v="Sørtjørna" />
		<tag k="name" v="Sørtjønna" />
		<tag k="natural" v="water" />
		<tag k="ssr:stedsnr" v="440264" />
	</node>
	<node lat="65.89603333080314" lon="14.495358342177347" id="-19222">
		<tag k="alt_name" v="Tverrbekken, austre" />
		<tag k="name" v="Austre Tverrbekken" />
		<tag k="ssr:stedsnr" v="440080" />
		<tag k="waterway" v="stream" />
	</node>
	<node lat="65.86728333277668" lon="13.9980694385347" id="-19224">
		<tag k="name" v="Innerbekken" />
		<tag k="ssr:stedsnr" v="440227" />
		<tag k="waterway" v="stream" />
	</node>
	<node lat="65.87775833550121" lon="14.171669442896606" id="-19225">
		<tag k="name" v="Garnholmen" />
		<tag k="place" v="islet" />
		<tag k="ssr:stedsnr" v="440235" />
	</node>
	<node lat="65.89684166430908" lon="14.454194449049728" id="-19226">
		<tag k="name" v="Storelva - Stuhpeljohke" />
		<tag k="name:no" v="Storelva" />
		<tag k="name:sma" v="Stuhpeljohke" />
		<tag k="ssr:stedsnr" v="440427" />
		<tag k="waterway" v="river" />
	</node>
	<node lat="65.96196666417354" lon="13.808544436580375" id="-19230">
		<tag k="alt_name" v="Furuhatten" />
		<tag k="name" v="Forahatten" />
		<tag k="place" v="islet" />
		<tag k="ssr:stedsnr" v="440624" />
	</node>
	<node lat="65.96681666748975" lon="13.75317499631271" id="-19232">
		<tag k="name" v="Norddalsbekken" />
		<tag k="ssr:stedsnr" v="440637" />
		<tag k="waterway" v="stream" />
	</node>
	<node lat="66.19281944304143" lon="13.80847499251696" id="-19234">
		<tag k="fixme" v="multiple name tags, choose one and add the other to alt_name" />
		<tag k="name" v="Urddalsbekken;Olabekken" />
		<tag k="ssr:stedsnr" v="440708" />
		<tag k="waterway" v="stream" />
	</node>
	<node lat="65.9343194434358" lon="13.773122230716849" id="-19235">
		<tag k="name" v="Kvanndalsbekken" />
		<tag k="ssr:stedsnr" v="440709" />
		<tag k="waterway" v="stream" />
	</node>
	<node lat="65.9534194449214" lon="13.906847226515518" id="-19238">
		<tag k="name" v="Grindgongneset" />
		<tag k="natural" v="cape" />
		<tag k="ssr:stedsnr" v="440723" />
	</node>
	<node lat="66.14911110972032" lon="13.38048332807644" id="-19241">
		<tag k="name" v="Bukttjønna" />
		<tag k="natural" v="water" />
		<tag k="ssr:stedsnr" v="440479" />
	</node>
	<node lat="66.01898055646133" lon="14.0692249981145" id="-19248">
		<tag k="alt_name" v="Fagerlielva" />
		<tag k="name" v="Fagerlibekken" />
		<tag k="ssr:stedsnr" v="440762" />
		<tag k="waterway" v="stream" />
	</node>
	<node lat="66.10597777821836" lon="13.772586114339985" id="-19252">
		<tag k="name" v="Storbekken" />
		<tag k="ssr:stedsnr" v="440875" />
		<tag k="waterway" v="stream" />
	</node>
	<node lat="66.08785833019148" lon="13.893375002152407" id="-19255">
		<tag k="name" v="Gardsbekken" />
		<tag k="ssr:stedsnr" v="440922" />
		<tag k="waterway" v="stream" />
	</node>
	<node lat="66.09077499564893" lon="13.891488889848096" id="-19256">
		<tag k="name" v="Gardsbekken, yt" />
		<tag k="ssr:stedsnr" v="440923" />
		<tag k="waterway" v="stream" />
	</node>
	<node lat="66.05819166497417" lon="13.827169454039305" id="-19259">
		<tag k="name" v="Langforsen" />
		<tag k="natural" v="waterfall" />
		<tag k="ssr:stedsnr" v="440974" />
	</node>
	<node lat="65.85065000225347" lon="14.107416658720217" id="-19268">
		<tag k="fixme" v="multiple name tags, choose one and add the other to alt_name" />
		<tag k="name" v="Vestertjønna;Litltjønna" />
		<tag k="natural" v="water" />
		<tag k="ssr:stedsnr" v="501161" />
	</node>
	<node lat="65.95833333746862" lon="13.757519455412536" id="-19269">
		<tag k="name" v="Mølnbekken" />
		<tag k="ssr:stedsnr" v="500707" />
		<tag k="waterway" v="stream" />
	</node>
	<node lat="66.07079166786822" lon="13.902027782160783" id="-19271">
		<tag k="name" v="Sagbekken" />
		<tag k="ssr:stedsnr" v="500022" />
		<tag k="waterway" v="stream" />
	</node>
	<node lat="65.82930555925834" lon="14.125236120189848" id="-19273">
		<tag k="name" v="Litlengtangen" />
		<tag k="natural" v="cape" />
		<tag k="ssr:stedsnr" v="500158" />
	</node>
	<node lat="65.80329722137661" lon="13.815280551065163" id="-19276">
		<tag k="name" v="Sørbuktelva" />
		<tag k="ssr:stedsnr" v="500124" />
		<tag k="waterway" v="stream" />
	</node>
	<node lat="66.06191389046076" lon="14.242855546428641" id="-19278">
		<tag k="name" v="Klemetneset" />
		<tag k="natural" v="cape" />
		<tag k="ssr:stedsnr" v="500127" />
	</node>
	<node lat="66.0675166681826" lon="13.995669451409087" id="-19295">
		<tag k="name" v="Erikbekken" />
		<tag k="ssr:stedsnr" v="500979" />
		<tag k="waterway" v="stream" />
	</node>
	<node lat="65.91766666798615" lon="14.57149165606578" id="-19300">
		<tag k="name" v="Rykkjedørelva" />
		<tag k="ssr:stedsnr" v="501041" />
		<tag k="waterway" v="river" />
	</node>
	<node lat="65.91268610771992" lon="14.454405548842603" id="-19301">
		<tag k="alt_name" v="Rødlibekken" />
		<tag k="name" v="Raudlibekken" />
		<tag k="ssr:stedsnr" v="501045" />
		<tag k="waterway" v="stream" />
	</node>
	<node lat="65.8935694466853" lon="14.464577777643951" id="-19303">
		<tag k="alt_name" v="Tverrbekken, vestre" />
		<tag k="name" v="Vestre Tverrbekken" />
		<tag k="ssr:stedsnr" v="501058" />
		<tag k="waterway" v="stream" />
	</node>
	<node lat="66.03807499645772" lon="13.714680557674807" id="-19306">
		<tag k="name" v="Villmogulltjønna" />
		<tag k="natural" v="water" />
		<tag k="ssr:stedsnr" v="501295" />
	</node>
	<node lat="65.85509444534036" lon="13.75291388933753" id="-19309">
		<tag k="name" v="Anders-Persatjønna" />
		<tag k="natural" v="water" />
		<tag k="ssr:stedsnr" v="501170" />
	</node>
	<node lat="66.09085833206579" lon="14.061949990196405" id="-19319">
		<tag k="name" v="Kjelbekken" />
		<tag k="ssr:stedsnr" v="501922" />
		<tag k="waterway" v="stream" />
	</node>
	<node lat="66.19873888790539" lon="13.691688899300592" id="-19322">
		<tag k="name" v="Krokbekken" />
		<tag k="ssr:stedsnr" v="528491" />
		<tag k="waterway" v="stream" />
	</node>
	<node lat="66.18701944668747" lon="13.46673610396821" id="-19323">
		<tag k="name" v="Gulbrandbekken" />
		<tag k="ssr:stedsnr" v="527432" />
		<tag k="waterway" v="stream" />
	</node>
	<node lat="66.06693611061813" lon="13.940405546658688" id="-19327">
		<tag k="name" v="Smalrennbekken" />
		<tag k="ssr:stedsnr" v="528800" />
		<tag k="waterway" v="stream" />
	</node>
	<node lat="66.0590277737462" lon="13.986608338678568" id="-19328">
		<tag k="name" v="Monsbekken" />
		<tag k="ssr:stedsnr" v="528926" />
		<tag k="waterway" v="stream" />
	</node>
	<node lat="66.06490833481517" lon="13.811061109613807" id="-19340">
		<tag k="name" v="Matiasforsen" />
		<tag k="natural" v="waterfall" />
		<tag k="ssr:stedsnr" v="529634" />
	</node>
	<node lat="66.07890832919252" lon="13.847641662472425" id="-19342">
		<tag k="name" v="Korgneset" />
		<tag k="natural" v="cape" />
		<tag k="ssr:stedsnr" v="529744" />
	</node>
	<node lat="65.93666666530419" lon="13.8684777771535" id="-19349">
		<tag k="name" v="Langnesbukta" />
		<tag k="natural" v="bay" />
		<tag k="ssr:stedsnr" v="542259" />
	</node>
	<node lat="66.16171389076327" lon="13.941022217985058" id="-19352">
		<tag k="name" v="Sjåhaugtjønna" />
		<tag k="natural" v="water" />
		<tag k="ssr:stedsnr" v="543500" />
	</node>
	<node lat="66.17209999831279" lon="14.062980557200985" id="-19353">
		<tag k="name" v="Storholmen" />
		<tag k="place" v="islet" />
		<tag k="ssr:stedsnr" v="543021" />
	</node>
	<node lat="65.88481666552813" lon="13.76996110440571" id="-19360">
		<tag k="name" v="Sørpunforsen" />
		<tag k="natural" v="waterfall" />
		<tag k="ssr:stedsnr" v="543243" />
	</node>
	<node lat="65.80165277440396" lon="13.927083322395122" id="-19362">
		<tag k="name" v="Kåtrabbbekken" />
		<tag k="ssr:stedsnr" v="543441" />
		<tag k="waterway" v="stream" />
	</node>
	<node lat="66.14970277947987" lon="13.774925003317279" id="-19369">
		<tag k="name" v="Merkebekken" />
		<tag k="ssr:stedsnr" v="560604" />
		<tag k="waterway" v="stream" />
	</node>
	<node lat="65.83646388969333" lon="14.01039722007022" id="-19370">
		<tag k="name" v="Storfinntjønna" />
		<tag k="natural" v="water" />
		<tag k="ssr:stedsnr" v="561161" />
	</node>
	<node lat="65.89485000189799" lon="13.999008342765931" id="-19373">
		<tag k="alt_name" v="Skred-elva" />
		<tag k="name" v="Skredelva" />
		<tag k="ssr:stedsnr" v="560220" />
		<tag k="waterway" v="stream" />
	</node>
	<node lat="65.83072222359417" lon="13.934166671480213" id="-19377">
		<tag k="name" v="Klemettjønna" />
		<tag k="natural" v="water" />
		<tag k="ssr:stedsnr" v="561153" />
	</node>
	<node lat="65.83506111420901" lon="13.791266668973506" id="-19378">
		<tag k="name" v="Steintjønna" />
		<tag k="natural" v="water" />
		<tag k="ssr:stedsnr" v="561155" />
	</node>
	<node lat="65.90381666824005" lon="14.386147230544848" id="-19381">
		<tag k="name" v="Nordbukta" />
		<tag k="natural" v="bay" />
		<tag k="ssr:stedsnr" v="561057" />
	</node>
	<node lat="65.80988888659931" lon="13.91048888772595" id="-19384">
		<tag k="alt_name" v="Indre Lillevatn" />
		<tag k="name" v="Innerlitlvatnet" />
		<tag k="natural" v="water" />
		<tag k="ssr:stedsnr" v="561121" />
	</node>
	<node lat="65.80119444182577" lon="14.00116110589321" id="-19385">
		<tag k="name" v="Utøya" />
		<tag k="place" v="islet" />
		<tag k="ssr:stedsnr" v="561127" />
	</node>
	<node lat="65.86103611162584" lon="14.151902780661258" id="-19387">
		<tag k="name" v="Nordengbekken" />
		<tag k="ssr:stedsnr" v="561188" />
		<tag k="waterway" v="stream" />
	</node>
	<node lat="65.86307500431114" lon="13.726988882625331" id="-19388">
		<tag k="name" v="Hanstjønna" />
		<tag k="natural" v="water" />
		<tag k="ssr:stedsnr" v="561195" />
	</node>
	<node lat="65.86908055247794" lon="13.833305559343483" id="-19389">
		<tag k="name" v="Blanktjønna" />
		<tag k="natural" v="water" />
		<tag k="ssr:stedsnr" v="561201" />
	</node>
	<node lat="66.08688611244355" lon="13.683466675823512" id="-19390">
		<tag k="name" v="Krokvatnet" />
		<tag k="natural" v="water" />
		<tag k="ssr:stedsnr" v="561313" />
		<tag k="water" v="lake" />
	</node>
	<node lat="66.19579166727651" lon="13.702586113337873" id="-19391">
		<tag k="alt_name" v="Sæterelva" />
		<tag k="name" v="Sæterbekken" />
		<tag k="ssr:stedsnr" v="561430" />
		<tag k="waterway" v="stream" />
	</node>
	<node lat="66.13422777648803" lon="13.710055551082643" id="-19392">
		<tag k="name" v="Selhornvatnet" />
		<tag k="natural" v="water" />
		<tag k="ssr:stedsnr" v="561449" />
	</node>
	<node lat="66.18723333390028" lon="13.514922211726798" id="-19393">
		<tag k="name" v="Lomtjønna" />
		<tag k="natural" v="water" />
		<tag k="ssr:stedsnr" v="561378" />
	</node>
	<node lat="65.80931111198062" lon="14.007691671700826" id="-19396">
		<tag k="name" v="Dalbekken" />
		<tag k="ssr:stedsnr" v="561407" />
		<tag k="waterway" v="stream" />
	</node>
	<node lat="65.92561389344567" lon="14.04581388064626" id="-19399">
		<tag k="name" v="Kotabekken" />
		<tag k="ssr:stedsnr" v="561419" />
		<tag k="waterway" v="stream" />
	</node>
	<node lat="66.19479999887307" lon="13.436794451679598" id="-19400">
		<tag k="fixme" v="multiple name tags, choose one and add the other to alt_name" />
		<tag k="name" v="Mobekken;Svartvassbekken" />
		<tag k="ssr:stedsnr" v="561424" />
		<tag k="waterway" v="stream" />
	</node>
	<node lat="66.18798055176136" lon="13.924219445972179" id="-19406">
		<tag k="name" v="Kvitsteindalstjørna" />
		<tag k="natural" v="water" />
		<tag k="ssr:stedsnr" v="561530" />
	</node>
	<node lat="65.97160000294699" lon="13.979955555860025" id="-19410">
		<tag k="name" v="Fiolneset" />
		<tag k="natural" v="cape" />
		<tag k="ssr:stedsnr" v="561645" />
	</node>
	<node lat="65.97861666583934" lon="13.732847232096468" id="-19411">
		<tag k="name" v="Antontjønna" />
		<tag k="natural" v="water" />
		<tag k="ssr:stedsnr" v="561659" />
	</node>
	<node lat="66.13592222228333" lon="14.127319443154517" id="-19418">
		<tag k="name" v="Storelva" />
		<tag k="ssr:stedsnr" v="561616" />
		<tag k="waterway" v="stream" />
	</node>
	<node lat="65.9067777761964" lon="13.985780551655798" id="-19422">
		<tag k="name" v="Store Skredtjønna" />
		<tag k="natural" v="water" />
		<tag k="ssr:stedsnr" v="561702" />
	</node>
	<node lat="65.9318083366033" lon="14.079138899484485" id="-19425">
		<tag k="name" v="Midtielva" />
		<tag k="ssr:stedsnr" v="561717" />
		<tag k="waterway" v="stream" />
	</node>
	<node lat="65.93099722462604" lon="13.885958343261926" id="-19427">
		<tag k="name" v="Huarneset" />
		<tag k="natural" v="cape" />
		<tag k="ssr:stedsnr" v="561722" />
	</node>
	<node lat="66.08551666584323" lon="13.874594451648408" id="-19441">
		<tag k="name" v="Brulibekken" />
		<tag k="ssr:stedsnr" v="561913" />
		<tag k="waterway" v="stream" />
	</node>
	<node lat="66.04601111097355" lon="13.913733335457147" id="-19446">
		<tag k="name" v="Eidet" />
		<tag k="place" v="locality" />
		<tag k="ssr:stedsnr" v="561997" />
	</node>
	<node lat="66.03997778194586" lon="13.822797212571306" id="-19448">
		<tag k="name" v="Leiraven" />
		<tag k="place" v="locality" />
		<tag k="ssr:stedsnr" v="562000" />
	</node>
	<node lat="66.0702083307454" lon="13.996866675459513" id="-19456">
		<tag k="name" v="Hestbekken" />
		<tag k="ssr:stedsnr" v="561954" />
		<tag k="waterway" v="stream" />
	</node>
	<node lat="66.14048610639198" lon="13.83387778639777" id="-19466">
		<tag k="name" v="Litjstrandbekken" />
		<tag k="ssr:stedsnr" v="710862" />
		<tag k="waterway" v="stream" />
	</node>
	<node lat="66.0578666624469" lon="13.77034722633592" id="-19474">
		<tag k="name" v="Vargnesbekken" />
		<tag k="ssr:stedsnr" v="589397" />
		<tag k="waterway" v="stream" />
	</node>
	<node lat="65.93845833307232" lon="13.871652766904567" id="-19491">
		<tag k="name" v="Køtneset" />
		<tag k="natural" v="cape" />
		<tag k="ssr:stedsnr" v="602279" />
	</node>
	<node lat="65.93481944816126" lon="13.87601111446063" id="-19492">
		<tag k="name" v="Nils-Olsavika" />
		<tag k="natural" v="bay" />
		<tag k="ssr:stedsnr" v="602280" />
	</node>
	<node lat="66.13481110670674" lon="14.054191676456924" id="-19500">
		<tag k="name" v="Åsengpøla" />
		<tag k="place" v="locality" />
		<tag k="ssr:stedsnr" v="603472" />
	</node>
	<node lat="66.175311112212" lon="14.102022219335744" id="-19503">
		<tag k="name" v="Ytre Svarttjern" />
		<tag k="natural" v="water" />
		<tag k="ssr:stedsnr" v="604077" />
	</node>
	<node lat="66.03318610789931" lon="14.096905558692091" id="-19504">
		<tag k="name" v="Krokan" />
		<tag k="natural" v="bay" />
		<tag k="ssr:stedsnr" v="604080" />
	</node>
	<node lat="65.89714166742881" lon="13.780433337829976" id="-19506">
		<tag k="name" v="Kongsdalaven" />
		<tag k="ssr:stedsnr" v="603509" />
		<tag k="waterway" v="stream" />
	</node>
	<node lat="66.22447778202856" lon="13.54777223032773" id="-19508">
		<tag k="name" v="Reinforsen" />
		<tag k="natural" v="waterfall" />
		<tag k="ssr:stedsnr" v="603745" />
	</node>
	<node lat="65.91491389239022" lon="14.538994434393787" id="-19519">
		<tag k="name" v="Tverrelva - Dåeriesjohke" />
		<tag k="name:no" v="Tverrelva" />
		<tag k="name:sma" v="Dåeriesjohke" />
		<tag k="ssr:stedsnr" v="622394" />
		<tag k="waterway" v="river" />
	</node>
	<node lat="66.16990000402848" lon="13.835352782551237" id="-19522">
		<tag k="fixme" v="multiple name tags, choose one and add the other to alt_name" />
		<tag k="name" v="Ytterelva;Ytre Breivikelva" />
		<tag k="ssr:stedsnr" v="622497" />
		<tag k="waterway" v="stream" />
	</node>
	<node lat="66.17692777605137" lon="14.062891656178843" id="-19523">
		<tag k="name" v="Skredbekken" />
		<tag k="ssr:stedsnr" v="622508" />
		<tag k="waterway" v="stream" />
	</node>
	<node lat="66.06696944166053" lon="14.272900008581573" id="-19525">
		<tag k="name" v="Smalsundet" />
		<tag k="natural" v="strait" />
		<tag k="ssr:stedsnr" v="621109" />
	</node>
	<node lat="66.06321111133421" lon="14.23251388690339" id="-19526">
		<tag k="name" v="Sørskardbekken" />
		<tag k="ssr:stedsnr" v="621111" />
		<tag k="waterway" v="stream" />
	</node>
	<node lat="65.91134444270428" lon="13.740383328645942" id="-19529">
		<tag k="name" v="Jordbruelva" />
		<tag k="ssr:stedsnr" v="621452" />
		<tag k="waterway" v="river" />
	</node>
	<node lat="66.13360000326207" lon="14.05430278319808" id="-19533">
		<tag k="alt_name" v="Damhøla" />
		<tag k="name" v="Dampøla" />
		<tag k="place" v="locality" />
		<tag k="ssr:stedsnr" v="622599" />
	</node>
	<node lat="65.96860184411493" lon="13.818118985590157" id="-19537">
		<tag k="alt_name" v="Krokselmoholmen" />
		<tag k="name" v="Kroksælmoholmen" />
		<tag k="place" v="islet" />
		<tag k="ssr:stedsnr" v="621684" />
	</node>
	<node lat="65.98650277684683" lon="14.01028609987845" id="-19540">
		<tag k="name" v="Merraskardvatnet" />
		<tag k="natural" v="water" />
		<tag k="ssr:stedsnr" v="621703" />
	</node>
	<node lat="65.91801111201066" lon="13.890519450800838" id="-19543">
		<tag k="alt_name" v="Krålitjørnan" />
		<tag k="name" v="Krålitjønna" />
		<tag k="natural" v="water" />
		<tag k="ssr:stedsnr" v="621740" />
	</node>
	<node lat="65.92968611499558" lon="13.731230559919751" id="-19545">
		<tag k="name" v="Hestmyrlitjønna" />
		<tag k="natural" v="water" />
		<tag k="ssr:stedsnr" v="621749" />
	</node>
	<node lat="66.05473055344461" lon="14.011919435400618" id="-19549">
		<tag k="name" v="Steinbekken" />
		<tag k="ssr:stedsnr" v="621992" />
		<tag k="waterway" v="stream" />
	</node>
	<node lat="65.82576110836695" lon="13.863419436579845" id="-19551">
		<tag k="name" v="Tustervatnet" />
		<tag k="natural" v="water" />
		<tag k="ssr:stedsnr" v="622142" />
		<tag k="water" v="lake" />
	</node>
	<node lat="65.82494722053436" lon="13.926177786178519" id="-19552">
		<tag k="name" v="Storbekken" />
		<tag k="ssr:stedsnr" v="622144" />
		<tag k="waterway" v="stream" />
	</node>
	<node lat="65.8485166675222" lon="13.911897230249075" id="-19555">
		<tag k="name" v="Langvatnet" />
		<tag k="natural" v="water" />
		<tag k="ssr:stedsnr" v="622163" />
	</node>
	<node lat="65.89460277354014" lon="14.131774993891009" id="-19558">
		<tag k="name" v="Mølnbekken" />
		<tag k="ssr:stedsnr" v="622254" />
		<tag k="waterway" v="stream" />
	</node>
	<node lat="66.04943055232303" lon="13.928094439243242" id="-19570">
		<tag k="name" v="Middagsvatnet" />
		<tag k="natural" v="water" />
		<tag k="ssr:stedsnr" v="622994" />
		<tag k="water" v="lake" />
	</node>
	<node lat="65.90736944089888" lon="13.863205545862279" id="-19592">
		<tag k="name" v="Bleikvasslineset" />
		<tag k="natural" v="cape" />
		<tag k="ssr:stedsnr" v="649619" />
	</node>
	<node lat="65.98982777513964" lon="13.91521388344492" id="-19596">
		<tag k="name" v="Durmålstjønna" />
		<tag k="natural" v="water" />
		<tag k="ssr:stedsnr" v="649565" />
	</node>
	<node lat="66.02099166453341" lon="13.838744447416364" id="-19598">
		<tag k="name" v="Hoppholmbukta" />
		<tag k="natural" v="bay" />
		<tag k="ssr:stedsnr" v="649575" />
	</node>
	<node lat="65.93605278226767" lon="13.868944444094366" id="-19608">
		<tag k="name" v="Langneset" />
		<tag k="natural" v="cape" />
		<tag k="ssr:stedsnr" v="663257" />
	</node>
	<node lat="65.93373888987232" lon="13.877749998034526" id="-19609">
		<tag k="name" v="Nesan" />
		<tag k="natural" v="cape" />
		<tag k="ssr:stedsnr" v="663259" />
	</node>
	<node lat="65.96510555796215" lon="13.83064722178904" id="-19610">
		<tag k="name" v="Sveltarneset" />
		<tag k="place" v="islet" />
		<tag k="ssr:stedsnr" v="663475" />
	</node>
	<node lat="66.16379721881175" lon="13.42358055486975" id="-19611">
		<tag k="name" v="Rundelva" />
		<tag k="ssr:stedsnr" v="663769" />
		<tag k="waterway" v="stream" />
	</node>
	<node lat="66.16348611101671" lon="13.426638893488438" id="-19612">
		<tag k="name" v="Hestelva" />
		<tag k="ssr:stedsnr" v="663771" />
		<tag k="waterway" v="stream" />
	</node>
	<node lat="65.83545555926457" lon="13.867763888069131" id="-19622">
		<tag k="name" v="Revhågenholmen" />
		<tag k="place" v="islet" />
		<tag k="ssr:stedsnr" v="664419" />
	</node>
	<node lat="66.16078333277666" lon="13.965297222563668" id="-19630">
		<tag k="name" v="Stupforsen" />
		<tag k="natural" v="waterfall" />
		<tag k="ssr:stedsnr" v="665002" />
	</node>
	<node lat="66.04292221992402" lon="14.086275009192049" id="-19633">
		<tag k="name" v="Smygarforsen" />
		<tag k="natural" v="waterfall" />
		<tag k="ssr:stedsnr" v="665078" />
	</node>
	<node lat="66.08614722298543" lon="13.798999991852554" id="-19634">
		<tag k="name" v="Kjørdalsbekken" />
		<tag k="ssr:stedsnr" v="711767" />
		<tag k="waterway" v="stream" />
	</node>
	<node lat="65.87248611279483" lon="14.167411103184769" id="-19641">
		<tag k="name" v="Mortenvika" />
		<tag k="natural" v="bay" />
		<tag k="ssr:stedsnr" v="725071" />
	</node>
	<node lat="66.12947499952972" lon="13.73665278186432" id="-19645">
		<tag k="name" v="Tverrelva" />
		<tag k="ssr:stedsnr" v="725102" />
		<tag k="waterway" v="stream" />
	</node>
	<node lat="65.87116111405194" lon="13.767744448893133" id="-19650">
		<tag k="name" v="Odden" />
		<tag k="natural" v="cape" />
		<tag k="ssr:stedsnr" v="725158" />
	</node>
	<node lat="66.1445555575214" lon="14.033905549589006" id="-19651">
		<tag k="name" v="Aven" />
		<tag k="place" v="locality" />
		<tag k="ssr:stedsnr" v="725046" />
	</node>
	<node lat="66.14119999973173" lon="14.032305554909039" id="-19652">
		<tag k="name" v="Målvassliaven" />
		<tag k="natural" v="bay" />
		<tag k="ssr:stedsnr" v="725048" />
	</node>
	<node lat="66.16230832935295" lon="13.932061100781015" id="-19656">
		<tag k="alt_name" v="Ytter-Bulibekken" />
		<tag k="name" v="Ytre Bulibekken" />
		<tag k="ssr:stedsnr" v="725352" />
		<tag k="waterway" v="stream" />
	</node>
	<node lat="66.23408333021449" lon="13.788669450457707" id="-19657">
		<tag k="name" v="Holmvatnan" />
		<tag k="natural" v="water" />
		<tag k="ssr:stedsnr" v="725389" />
		<tag k="water" v="lake" />
	</node>
	<node lat="66.09364166951751" lon="13.835530562392897" id="-19676">
		<tag k="name" v="Leirelva" />
		<tag k="ssr:stedsnr" v="743024" />
		<tag k="waterway" v="river" />
	</node>
	<node lat="65.91062499994827" lon="14.43642499191225" id="-19680">
		<tag k="name" v="Spjeltfjellelvneset" />
		<tag k="natural" v="cape" />
		<tag k="ssr:stedsnr" v="743071" />
	</node>
	<node lat="65.82737777982123" lon="14.055430551725555" id="-19681">
		<tag k="name" v="Leirvatnet" />
		<tag k="natural" v="water" />
		<tag k="ssr:stedsnr" v="743151" />
	</node>
	<node lat="65.8366111092666" lon="13.883366670705248" id="-19684">
		<tag k="name" v="Dalbekken" />
		<tag k="ssr:stedsnr" v="743168" />
		<tag k="waterway" v="stream" />
	</node>
	<node lat="66.04215833376641" lon="14.36695277759557" id="-19688">
		<tag k="name" v="Oksfjellelva" />
		<tag k="ssr:stedsnr" v="743254" />
		<tag k="waterway" v="river" />
	</node>
	<node lat="65.89438889215303" lon="13.972761107342754" id="-19689">
		<tag k="name" v="Johanteigbekken" />
		<tag k="ssr:stedsnr" v="743256" />
		<tag k="waterway" v="stream" />
	</node>
	<node lat="65.9716805538538" lon="13.921347230747546" id="-19699">
		<tag k="name" v="Grønvatnet" />
		<tag k="natural" v="water" />
		<tag k="ssr:stedsnr" v="743654" />
	</node>
	<node lat="65.98057778092907" lon="13.728399996821851" id="-19700">
		<tag k="name" v="Bakketjønna" />
		<tag k="natural" v="water" />
		<tag k="ssr:stedsnr" v="743660" />
	</node>
	<node lat="65.93925000233935" lon="13.934402768092985" id="-19704">
		<tag k="name" v="Sandvikneset" />
		<tag k="natural" v="cape" />
		<tag k="ssr:stedsnr" v="743718" />
	</node>
	<node lat="66.07337499911364" lon="14.030300005044502" id="-19712">
		<tag k="name" v="Kråbekken" />
		<tag k="ssr:stedsnr" v="743950" />
		<tag k="waterway" v="stream" />
	</node>
	<node lat="65.8784611137114" lon="13.827752778222372" id="-19716">
		<tag k="name" v="Storbekken" />
		<tag k="ssr:stedsnr" v="744362" />
		<tag k="waterway" v="stream" />
	</node>
	<node lat="65.90480000025542" lon="14.55162222987894" id="-19717">
		<tag k="name" v="Stillelva" />
		<tag k="ssr:stedsnr" v="744367" />
		<tag k="waterway" v="river" />
	</node>
	<node lat="65.90967778034334" lon="13.904405563684495" id="-19720">
		<tag k="name" v="Gardsbekken" />
		<tag k="ssr:stedsnr" v="744657" />
		<tag k="waterway" v="stream" />
	</node>
	<node lat="66.11301666270231" lon="14.076402778134492" id="-19721">
		<tag k="name" v="Likneset" />
		<tag k="natural" v="cape" />
		<tag k="ssr:stedsnr" v="744885" />
	</node>
	<node lat="66.06670833065012" lon="13.94269444680314" id="-19731">
		<tag k="name" v="Hesthagelibekken" />
		<tag k="ssr:stedsnr" v="770792" />
		<tag k="waterway" v="stream" />
	</node>
	<node lat="66.19823333707518" lon="13.486738884438138" id="-19733">
		<tag k="name" v="Kalvikbekken" />
		<tag k="ssr:stedsnr" v="770393" />
		<tag k="waterway" v="stream" />
	</node>
	<node lat="66.23076388846034" lon="13.70824165870514" id="-19747">
		<tag k="name" v="Vannverksdammen" />
		<tag k="natural" v="water" />
		<tag k="ssr:stedsnr" v="771595" />
		<tag k="water" v="lake" />
	</node>
	<node lat="66.15067778187955" lon="13.870305565351565" id="-19749">
		<tag k="name" v="Dammen" />
		<tag k="natural" v="water" />
		<tag k="ssr:stedsnr" v="771775" />
		<tag k="water" v="lake" />
	</node>
	<node lat="66.07814722161636" lon="13.890172211362954" id="-19751">
		<tag k="name" v="Forsneset" />
		<tag k="natural" v="cape" />
		<tag k="ssr:stedsnr" v="771675" />
	</node>
	<node lat="65.93505000006034" lon="13.805313880396977" id="-19764">
		<tag k="name" v="Kalvhagtangen" />
		<tag k="natural" v="cape" />
		<tag k="ssr:stedsnr" v="784272" />
	</node>
	<node lat="65.94289166515063" lon="13.875633334024426" id="-19765">
		<tag k="name" v="Merraneset" />
		<tag k="natural" v="cape" />
		<tag k="ssr:stedsnr" v="784278" />
	</node>
	<node lat="65.93014999828809" lon="13.877752786385692" id="-19773">
		<tag k="name" v="Nersundet" />
		<tag k="natural" v="strait" />
		<tag k="ssr:stedsnr" v="784286" />
	</node>
	<node lat="66.17474721973599" lon="14.080766673068338" id="-19774">
		<tag k="name" v="Gammelmørnbekken" />
		<tag k="ssr:stedsnr" v="786080" />
		<tag k="waterway" v="stream" />
	</node>
	<node lat="65.83680278004071" lon="13.872500008513873" id="-19778">
		<tag k="name" v="Lillevassosen" />
		<tag k="natural" v="bay" />
		<tag k="ssr:stedsnr" v="786480" />
	</node>
	<node lat="65.83458055150665" lon="13.875552777355571" id="-19782">
		<tag k="name" v="Vallavika" />
		<tag k="natural" v="bay" />
		<tag k="ssr:stedsnr" v="786485" />
	</node>
	<node lat="66.2222722225928" lon="13.567397228399056" id="-19788">
		<tag k="name" v="Mørnhusbekken" />
		<tag k="ssr:stedsnr" v="786845" />
		<tag k="waterway" v="stream" />
	</node>
	<node lat="65.85289444166077" lon="13.906127771508055" id="-19791">
		<tag k="name" v="Øvre Røynestjønna" />
		<tag k="natural" v="water" />
		<tag k="ssr:stedsnr" v="804213" />
	</node>
	<node lat="65.89554166886501" lon="14.417708339426209" id="-19794">
		<tag k="name" v="Tjuvosen" />
		<tag k="natural" v="bay" />
		<tag k="ssr:stedsnr" v="804084" />
	</node>
	<node lat="65.80145277464958" lon="13.912966659024127" id="-19797">
		<tag k="alt_name" v="Lillevassbukta" />
		<tag k="name" v="Litlvassbukta" />
		<tag k="natural" v="bay" />
		<tag k="ssr:stedsnr" v="804151" />
	</node>
	<node lat="66.12984722515779" lon="14.100352784418241" id="-19798">
		<tag k="name" v="Gråvatnet" />
		<tag k="natural" v="water" />
		<tag k="ssr:stedsnr" v="804868" />
		<tag k="water" v="lake" />
	</node>
	<node lat="66.04643055194158" lon="14.473727771746455" id="-19804">
		<tag k="name" v="Mana" />
		<tag k="natural" v="cape" />
		<tag k="ssr:stedsnr" v="804096" />
	</node>
	<node lat="65.82725555425041" lon="13.937647230251587" id="-19808">
		<tag k="name" v="Fisktjønna" />
		<tag k="natural" v="water" />
		<tag k="ssr:stedsnr" v="804179" />
	</node>
	<node lat="65.88738888838135" lon="13.930038891642207" id="-19810">
		<tag k="name" v="Libekken" />
		<tag k="ssr:stedsnr" v="804261" />
		<tag k="waterway" v="stream" />
	</node>
	<node lat="65.8984444452517" lon="13.917397213319642" id="-19811">
		<tag k="name" v="Tindhaugtjønnen" />
		<tag k="natural" v="water" />
		<tag k="ssr:stedsnr" v="804274" />
		<tag k="water" v="lake" />
	</node>
	<node lat="65.86324999994333" lon="13.919449998891128" id="-19814">
		<tag k="name" v="Røynesbekken" />
		<tag k="ssr:stedsnr" v="804220" />
		<tag k="waterway" v="stream" />
	</node>
	<node lat="65.87451389331395" lon="14.028547221983182" id="-19815">
		<tag k="name" v="Leirbekken" />
		<tag k="ssr:stedsnr" v="804235" />
		<tag k="waterway" v="stream" />
	</node>
	<node lat="65.9051250000108" lon="13.856169438774268" id="-19818">
		<tag k="name" v="Bleikvasselva" />
		<tag k="ssr:stedsnr" v="804715" />
		<tag k="waterway" v="river" />
	</node>
	<node lat="66.15757222544576" lon="13.401919437308802" id="-19823">
		<tag k="name" v="Vesterbuktelva" />
		<tag k="ssr:stedsnr" v="804494" />
		<tag k="waterway" v="stream" />
	</node>
	<node lat="65.8670666630073" lon="13.691377775341797" id="-19825">
		<tag k="name" v="Storbakktjønna" />
		<tag k="natural" v="water" />
		<tag k="ssr:stedsnr" v="804575" />
	</node>
	<node lat="65.86333055881164" lon="13.706199990797824" id="-19826">
		<tag k="name" v="Tverrelva" />
		<tag k="ssr:stedsnr" v="804578" />
		<tag k="waterway" v="stream" />
	</node>
	<node lat="66.14103611511194" lon="14.019283323428606" id="-19830">
		<tag k="name" v="Målvasslibekken" />
		<tag k="ssr:stedsnr" v="804651" />
		<tag k="waterway" v="stream" />
	</node>
	<node lat="65.98531667066698" lon="13.751052786263516" id="-19831">
		<tag k="alt_name" v="Svarttjørna" />
		<tag k="name" v="Svarttjønna" />
		<tag k="natural" v="water" />
		<tag k="ssr:stedsnr" v="804682" />
	</node>
	<node lat="65.9936388907423" lon="13.847141673974471" id="-19834">
		<tag k="name" v="Sagbekken" />
		<tag k="ssr:stedsnr" v="804691" />
		<tag k="waterway" v="stream" />
	</node>
	<node lat="65.9485111125901" lon="13.980455559778212" id="-19836">
		<tag k="name" v="Finneset" />
		<tag k="natural" v="cape" />
		<tag k="ssr:stedsnr" v="804743" />
	</node>
	<node lat="66.21332500455378" lon="13.83250832528931" id="-19837">
		<tag k="name" v="Midtengsbekken" />
		<tag k="ssr:stedsnr" v="804744" />
		<tag k="waterway" v="stream" />
	</node>
	<node lat="66.20873611557106" lon="13.766999994655109" id="-19839">
		<tag k="name" v="Storbekken" />
		<tag k="ssr:stedsnr" v="804749" />
		<tag k="waterway" v="stream" />
	</node>
	<node lat="66.07778888621854" lon="13.97499443513113" id="-19849">
		<tag k="name" v="Haugbakkbekken" />
		<tag k="ssr:stedsnr" v="804938" />
		<tag k="waterway" v="stream" />
	</node>
	<node lat="66.07048611346183" lon="13.951880566900588" id="-19857">
		<tag k="name" v="Storengholmen" />
		<tag k="natural" v="cape" />
		<tag k="ssr:stedsnr" v="832809" />
	</node>
	<node lat="66.12180833471243" lon="13.79049443448294" id="-19859">
		<tag k="name" v="Mølnbekken" />
		<tag k="ssr:stedsnr" v="832823" />
		<tag k="waterway" v="stream" />
	</node>
	<node lat="66.13220833700477" lon="13.864705553531726" id="-19864">
		<tag k="name" v="Kroken" />
		<tag k="natural" v="bay" />
		<tag k="ssr:stedsnr" v="832552" />
	</node>
	<node lat="65.90660555360657" lon="13.860858334361586" id="-19866">
		<tag k="name" v="Storholmen" />
		<tag k="place" v="islet" />
		<tag k="ssr:stedsnr" v="832644" />
	</node>
	<node lat="65.9052777809324" lon="13.8235861165692" id="-19869">
		<tag k="name" v="Storneset" />
		<tag k="natural" v="cape" />
		<tag k="ssr:stedsnr" v="832661" />
	</node>
	<node lat="66.06694166466333" lon="13.841627772256306" id="-19884">
		<tag k="name" v="Langdalsbekken" />
		<tag k="ssr:stedsnr" v="833653" />
		<tag k="waterway" v="stream" />
	</node>
	<node lat="66.06058611476273" lon="13.794380557501066" id="-19887">
		<tag k="name" v="Jensstibekken" />
		<tag k="ssr:stedsnr" v="833694" />
		<tag k="waterway" v="stream" />
	</node>
	<node lat="65.89610832920661" lon="13.77350278151607" id="-19897">
		<tag k="name" v="Sørneset" />
		<tag k="natural" v="cape" />
		<tag k="ssr:stedsnr" v="847247" />
	</node>
	<node lat="65.83935833325098" lon="13.750369453038688" id="-19905">
		<tag k="name" v="Holmtjønna" />
		<tag k="natural" v="water" />
		<tag k="ssr:stedsnr" v="865194" />
	</node>
	<node lat="65.89913888873724" lon="14.434349989660594" id="-19909">
		<tag k="name" v="Storelvneset" />
		<tag k="natural" v="cape" />
		<tag k="ssr:stedsnr" v="865070" />
	</node>
	<node lat="66.0560361106477" lon="14.513699995739465" id="-19915">
		<tag k="name" v="Tjiripsjaurebekken" />
		<tag k="ssr:stedsnr" v="865108" />
		<tag k="waterway" v="river" />
	</node>
	<node lat="65.81218333762757" lon="13.838938889105385" id="-19919">
		<tag k="name" v="Lomtjønna" />
		<tag k="natural" v="water" />
		<tag k="ssr:stedsnr" v="865165" />
	</node>
	<node lat="65.82318888510206" lon="13.914399988920811" id="-19920">
		<tag k="name" v="Gardsbekken" />
		<tag k="ssr:stedsnr" v="865175" />
		<tag k="waterway" v="stream" />
	</node>
	<node lat="65.83933888863585" lon="13.803516656904913" id="-19921">
		<tag k="name" v="Bjørkåstjønnen" />
		<tag k="natural" v="water" />
		<tag k="ssr:stedsnr" v="865180" />
		<tag k="water" v="lake" />
	</node>
	<node lat="65.88797777539152" lon="14.044908322285965" id="-19922">
		<tag k="alt_name" v="Langtjørna" />
		<tag k="name" v="Langtjønna" />
		<tag k="natural" v="water" />
		<tag k="ssr:stedsnr" v="865239" />
	</node>
	<node lat="65.87785277541953" lon="13.86412777112641" id="-19923">
		<tag k="name" v="Akseltjønna" />
		<tag k="natural" v="water" />
		<tag k="ssr:stedsnr" v="865250" />
	</node>
	<node lat="65.89697777670038" lon="14.172516669710113" id="-19924">
		<tag k="name" v="Lomtjønna" />
		<tag k="natural" v="water" />
		<tag k="ssr:stedsnr" v="865258" />
	</node>
	<node lat="66.0602444422102" lon="14.491413877605307" id="-19925">
		<tag k="name" v="Storneset" />
		<tag k="natural" v="cape" />
		<tag k="ssr:stedsnr" v="865264" />
	</node>
	<node lat="65.90507777901723" lon="13.91227778378885" id="-19928">
		<tag k="name" v="Lapptjønna" />
		<tag k="natural" v="water" />
		<tag k="ssr:stedsnr" v="865279" />
	</node>
	<node lat="65.90023055413593" lon="13.779655555094696" id="-19931">
		<tag k="name" v="Bygdåssæla" />
		<tag k="place" v="locality" />
		<tag k="ssr:stedsnr" v="865287" />
	</node>
	<node lat="65.90694443994508" lon="14.196722223541155" id="-19932">
		<tag k="alt_name" v="Skardelva" />
		<tag k="name" v="Skarelva" />
		<tag k="ssr:stedsnr" v="865289" />
		<tag k="waterway" v="stream" />
	</node>
	<node lat="65.8489611109703" lon="13.781169438337823" id="-19936">
		<tag k="fixme" v="multiple name tags, choose one and add the other to alt_name" />
		<tag k="name" v="Sævervikelva;Bjørkåselva" />
		<tag k="ssr:stedsnr" v="865203" />
		<tag k="waterway" v="stream" />
	</node>
	<node lat="65.85654999996999" lon="14.037999999775407" id="-19937">
		<tag k="name" v="Storbakktjønnen" />
		<tag k="natural" v="water" />
		<tag k="ssr:stedsnr" v="865208" />
	</node>
	<node lat="65.85548333183888" lon="14.099141672231763" id="-19939">
		<tag k="name" v="Sundsåselva" />
		<tag k="ssr:stedsnr" v="865213" />
		<tag k="waterway" v="stream" />
	</node>
	<node lat="65.85866111038355" lon="13.832375008585567" id="-19940">
		<tag k="name" v="Plukkarengbekken" />
		<tag k="ssr:stedsnr" v="865222" />
		<tag k="waterway" v="stream" />
	</node>
	<node lat="65.78082778163427" lon="13.891180554292758" id="-19944">
		<tag k="name" v="Storbekken" />
		<tag k="ssr:stedsnr" v="865451" />
		<tag k="waterway" v="stream" />
	</node>
	<node lat="66.16124166343883" lon="13.958738898769372" id="-19949">
		<tag k="name" v="Bjerkaelva" />
		<tag k="ssr:stedsnr" v="865557" />
		<tag k="waterway" v="river" />
	</node>
	<node lat="65.96485833736628" lon="13.790169454672302" id="-19960">
		<tag k="fixme" v="multiple name tags, choose one and add the other to alt_name" />
		<tag k="name" v="Avan;Stormyrbassenget;Stormyraven" />
		<tag k="natural" v="water" />
		<tag k="ssr:stedsnr" v="865658" />
		<tag k="water" v="lake" />
	</node>
	<node lat="65.9814722228631" lon="13.731744433739843" id="-19962">
		<tag k="name" v="Holmtjønna" />
		<tag k="natural" v="water" />
		<tag k="ssr:stedsnr" v="865678" />
	</node>
	<node lat="65.99004166794388" lon="13.74421388989362" id="-19964">
		<tag k="name" v="Storskogbekken" />
		<tag k="ssr:stedsnr" v="865686" />
		<tag k="waterway" v="stream" />
	</node>
	<node lat="65.9858388860322" lon="13.886091655213557" id="-19965">
		<tag k="name" v="Keiptjønna" />
		<tag k="natural" v="water" />
		<tag k="ssr:stedsnr" v="865689" />
	</node>
	<node lat="65.92974166372822" lon="14.056519450453212" id="-19973">
		<tag k="name" v="Borterelva" />
		<tag k="ssr:stedsnr" v="865722" />
		<tag k="waterway" v="stream" />
	</node>
	<node lat="65.93360555159629" lon="13.900525005219604" id="-19974">
		<tag k="name" v="Kjøkkenbukta" />
		<tag k="natural" v="bay" />
		<tag k="ssr:stedsnr" v="865730" />
	</node>
	<node lat="65.94619721985579" lon="13.944077781841589" id="-19981">
		<tag k="name" v="Litlholmen" />
		<tag k="place" v="islet" />
		<tag k="ssr:stedsnr" v="865740" />
	</node>
	<node lat="65.94816944239578" lon="13.839424997703606" id="-19983">
		<tag k="alt_name" v="Trongetjørna" />
		<tag k="name" v="Trongentjønna" />
		<tag k="natural" v="water" />
		<tag k="ssr:stedsnr" v="865743" />
	</node>
	<node lat="66.05303055615735" lon="13.86432778518564" id="-19993">
		<tag k="fixme" v="multiple name tags, choose one and add the other to alt_name" />
		<tag k="name" v="Klubbekken;Brubekken" />
		<tag k="ssr:stedsnr" v="865988" />
		<tag k="waterway" v="stream" />
	</node>
	<node lat="66.07106666388835" lon="14.003505555171547" id="-20001">
		<tag k="name" v="Finnbakkbekken" />
		<tag k="ssr:stedsnr" v="865954" />
		<tag k="waterway" v="stream" />
	</node>
	<node lat="66.22755833703101" lon="13.697425000683916" id="-20014">
		<tag k="name" v="Øverlomtjønna" />
		<tag k="natural" v="water" />
		<tag k="ssr:stedsnr" v="953623" />
		<tag k="water" v="lake" />
	</node>
	<node lat="66.0099416623724" lon="13.889655561296152" id="-20019">
		<tag k="name" v="Holmen" />
		<tag k="natural" v="cape" />
		<tag k="ssr:stedsnr" v="953583" />
	</node>
	<node lat="65.90929166882849" lon="13.791572219185655" id="-20025">
		<tag k="name" v="Kvannhøltjønna" />
		<tag k="natural" v="water" />
		<tag k="ssr:stedsnr" v="953662" />
	</node>
	<node lat="66.08369721823153" lon="13.825308336116686" id="-20026">
		<tag k="name" v="Seljebakkneset" />
		<tag k="natural" v="cape" />
		<tag k="ssr:stedsnr" v="953763" />
	</node>
	<node lat="66.06409999641875" lon="14.003233338522566" id="-20030">
		<tag k="name" v="Hans Berntsa-bekken" />
		<tag k="ssr:stedsnr" v="953957" />
		<tag k="waterway" v="stream" />
	</node>
	<node lat="66.06533611066361" lon="13.950694453431042" id="-20031">
		<tag k="name" v="Skredbekken" />
		<tag k="ssr:stedsnr" v="953934" />
		<tag k="waterway" v="stream" />
	</node>
	<node lat="66.08042500127951" lon="13.87156389496082" id="-20034">
		<tag k="name" v="Roghellneset" />
		<tag k="natural" v="cape" />
		<tag k="ssr:stedsnr" v="954635" />
	</node>
	<node lat="65.95305833702595" lon="13.853500001998947" id="-20036">
		<tag k="name" v="Småtjønnen" />
		<tag k="natural" v="water" />
		<tag k="ssr:stedsnr" v="966242" />
		<tag k="water" v="lake" />
	</node>
	<node lat="66.1222111117186" lon="13.773991659719252" id="-20048">
		<tag k="name" v="Sagbekken" />
		<tag k="ssr:stedsnr" v="968131" />
		<tag k="waterway" v="stream" />
	</node>
	<node lat="65.89157777596081" lon="13.773741674945533" id="-20051">
		<tag k="name" v="Bjynnholmen" />
		<tag k="place" v="islet" />
		<tag k="ssr:stedsnr" v="968244" />
	</node>
	<node lat="65.81298333727968" lon="13.899180557922909" id="-20060">
		<tag k="name" v="Langneset" />
		<tag k="natural" v="cape" />
		<tag k="ssr:stedsnr" v="968498" />
	</node>
	<node lat="65.9025277733482" lon="13.8698750086691" id="-20067">
		<tag k="name" v="Verbekken" />
		<tag k="ssr:stedsnr" v="968536" />
		<tag k="waterway" v="stream" />
	</node>
</osm>
