<?xml version="1.0" encoding="UTF-8"?>
<osm version="0.6" generator="osmapis">
	<node lat="66.1781611090681" lon="13.70499722364249" id="-9366">
		<tag k="name" v="Grindvikneset" />
		<tag k="natural" v="cape" />
		<tag k="ssr:stedsnr" v="286495" />
	</node>
	<node lat="66.1522083325654" lon="13.807411110867863" id="-9383">
		<tag k="name" v="Tømmervika" />
		<tag k="natural" v="bay" />
		<tag k="ssr:stedsnr" v="15615" />
	</node>
	<node lat="66.16228332958288" lon="13.792280560880029" id="-9411">
		<tag k="name" v="Auretangen" />
		<tag k="natural" v="cape" />
		<tag k="ssr:stedsnr" v="25716" />
	</node>
	<node lat="66.19479167108493" lon="13.501397224196142" id="-9474">
		<tag k="name" v="Ingervika" />
		<tag k="natural" v="bay" />
		<tag k="ssr:stedsnr" v="58889" />
	</node>
	<node lat="66.20191944229394" lon="13.534386101146623" id="-9475">
		<tag k="name" v="Lassvikodden" />
		<tag k="natural" v="cape" />
		<tag k="ssr:stedsnr" v="58890" />
	</node>
	<node lat="66.21840278066831" lon="13.675902780098438" id="-9489">
		<tag k="alt_name" v="Hemnesøya" />
		<tag k="name" v="Hemneshalvøya" />
		<tag k="natural" v="cape" />
		<tag k="ssr:stedsnr" v="76113" />
	</node>
	<node lat="66.19385833320611" lon="13.491127781537566" id="-9559">
		<tag k="name" v="Leirvika" />
		<tag k="natural" v="bay" />
		<tag k="ssr:stedsnr" v="136002" />
	</node>
	<node lat="66.17938333355143" lon="13.713947215583495" id="-9604">
		<tag k="name" v="Brenneset" />
		<tag k="natural" v="cape" />
		<tag k="ssr:stedsnr" v="153409" />
	</node>
	<node lat="66.24300000377286" lon="13.787197214929995" id="-9625">
		<tag k="name" v="Galtvika" />
		<tag k="natural" v="bay" />
		<tag k="ssr:stedsnr" v="258683" />
	</node>
	<node lat="66.23509999776076" lon="13.673624994352165" id="-9676">
		<tag k="name" v="Revhalsvika" />
		<tag k="natural" v="bay" />
		<tag k="ssr:stedsnr" v="164658" />
	</node>
	<node lat="66.23398889054658" lon="13.5788083376482" id="-9704">
		<tag k="name" v="Osmoodden" />
		<tag k="natural" v="cape" />
		<tag k="ssr:stedsnr" v="197119" />
	</node>
	<node lat="66.16027222365337" lon="13.681305549736214" id="-9710">
		<tag k="name" v="Selhornvika" />
		<tag k="natural" v="bay" />
		<tag k="ssr:stedsnr" v="197510" />
	</node>
	<node lat="66.18389166408393" lon="13.772958322265191" id="-9731">
		<tag k="name" v="Lysinggrunna" />
		<tag k="natural" v="shoal" />
		<tag k="place" v="locality" />
		<tag k="ssr:stedsnr" v="268750" />
	</node>
	<node lat="66.15446667054152" lon="13.808105559393722" id="-9732">
		<tag k="name" v="Tømmerneset" />
		<tag k="natural" v="cape" />
		<tag k="ssr:stedsnr" v="207680" />
	</node>
	<node lat="66.24057222639489" lon="13.70907778190905" id="-9749">
		<tag k="name" v="Sagbukta" />
		<tag k="natural" v="bay" />
		<tag k="ssr:stedsnr" v="225625" />
	</node>
	<node lat="66.2010944414628" lon="13.582555548699709" id="-9758">
		<tag k="fixme" v="consider seamark:type=rock or natural=shoal" />
		<tag k="name" v="Storskjæret" />
		<tag k="place" v="islet" />
		<tag k="ssr:stedsnr" v="450047" />
	</node>
	<node lat="66.21697777967239" lon="13.798625007172745" id="-9769">
		<tag k="name" v="Kalvhagestranda" />
		<tag k="natural" v="beach" />
		<tag k="ssr:stedsnr" v="240478" />
	</node>
	<node lat="66.23317222545761" lon="13.821805565841961" id="-9771">
		<tag k="name" v="Gammelkaiet" />
		<tag k="natural" v="cape" />
		<tag k="ssr:stedsnr" v="240495" />
	</node>
	<node lat="66.23004444587353" lon="13.580122220856351" id="-9780">
		<tag k="name" v="Hestneset" />
		<tag k="natural" v="cape" />
		<tag k="ssr:stedsnr" v="258107" />
	</node>
	<node lat="66.20280555452382" lon="13.770663899717604" id="-9807">
		<tag k="name" v="Hysvika" />
		<tag k="natural" v="bay" />
		<tag k="ssr:stedsnr" v="258754" />
	</node>
	<node lat="66.23140555793276" lon="13.621727775217346" id="-9814">
		<tag k="name" v="Kastan" />
		<tag k="natural" v="bay" />
		<tag k="ssr:stedsnr" v="285383" />
	</node>
	<node lat="66.22235555919401" lon="13.632694442627198" id="-9815">
		<tag k="name" v="Oldervika" />
		<tag k="natural" v="bay" />
		<tag k="ssr:stedsnr" v="285430" />
	</node>
	<node lat="66.1969000027116" lon="13.782591676582225" id="-9832">
		<tag k="name" v="Grautsteinneset" />
		<tag k="natural" v="cape" />
		<tag k="ssr:stedsnr" v="286481" />
	</node>
	<node lat="66.18164166583584" lon="13.627847214242733" id="-9859">
		<tag k="fixme" v="consider seamark:type=rock or natural=shoal" />
		<tag k="name" v="Sundsdalskjæret" />
		<tag k="place" v="islet" />
		<tag k="ssr:stedsnr" v="300785" />
	</node>
	<node lat="66.19450555388029" lon="13.537258323583073" id="-9860">
		<tag k="name" v="Storsteinvikodden" />
		<tag k="natural" v="cape" />
		<tag k="ssr:stedsnr" v="300824" />
	</node>
	<node lat="66.1924055561677" lon="13.484933343314545" id="-9868">
		<tag k="name" v="Auren" />
		<tag k="natural" v="cape" />
		<tag k="ssr:stedsnr" v="467460" />
	</node>
	<node lat="66.18024166214157" lon="13.716541673121235" id="-9875">
		<tag k="name" v="Finneidbukta" />
		<tag k="natural" v="bay" />
		<tag k="ssr:stedsnr" v="318402" />
	</node>
	<node lat="66.16111666444841" lon="13.678974994122266" id="-9876">
		<tag k="name" v="Lauvvikneset" />
		<tag k="natural" v="cape" />
		<tag k="ssr:stedsnr" v="318489" />
	</node>
	<node lat="66.2095583351311" lon="13.801197214676517" id="-9882">
		<tag k="name" v="Kattstranda" />
		<tag k="natural" v="beach" />
		<tag k="ssr:stedsnr" v="318708" />
	</node>
	<node lat="66.19456111367008" lon="13.541119445880277" id="-9899">
		<tag k="name" v="Storsteinvika" />
		<tag k="natural" v="bay" />
		<tag k="ssr:stedsnr" v="319389" />
	</node>
	<node lat="66.23229444858805" lon="13.65474999622675" id="-9924">
		<tag k="alt_name" v="Juvika" />
		<tag k="name" v="Juvikbukta" />
		<tag k="natural" v="bay" />
		<tag k="ssr:stedsnr" v="468545" />
	</node>
	<node lat="66.2339055578769" lon="13.665247218145062" id="-9925">
		<tag k="alt_name" v="Rævhalsen" />
		<tag k="name" v="Revhalsodden" />
		<tag k="natural" v="cape" />
		<tag k="ssr:stedsnr" v="468548" />
	</node>
	<node lat="66.21858611228" lon="13.617775002914563" id="-9930">
		<tag k="fixme" v="multiple name tags, choose one and add the other to alt_name" />
		<tag k="name" v="Hemnesbukta;Hundnesbukta" />
		<tag k="natural" v="bay" />
		<tag k="ssr:stedsnr" v="345412" />
	</node>
	<node lat="66.1832222182864" lon="13.730108332540192" id="-9973">
		<tag k="fixme" v="multiple name tags, choose one and add the other to alt_name" />
		<tag k="name" v="Kvalneset;Sæterkarneset" />
		<tag k="natural" v="cape" />
		<tag k="ssr:stedsnr" v="379504" />
	</node>
	<node lat="66.16950555141976" lon="13.761477784565765" id="-9980">
		<tag k="name" v="Buneset" />
		<tag k="natural" v="cape" />
		<tag k="ssr:stedsnr" v="379475" />
	</node>
	<node lat="66.1914611115826" lon="13.66328056618898" id="-10053">
		<tag k="fixme" v="consider seamark:type=rock or natural=shoal" />
		<tag k="name" v="Ane-Monsstedtskjæret" />
		<tag k="place" v="islet" />
		<tag k="ssr:stedsnr" v="407490" />
	</node>
	<node lat="66.17681111047754" lon="13.750380550675686" id="-10082">
		<tag k="bay" v="fjord" />
		<tag k="name" v="Sørfjorden" />
		<tag k="natural" v="bay" />
		<tag k="ssr:stedsnr" v="440002" />
	</node>
	<node lat="66.21493333147748" lon="13.63011943667875" id="-10093">
		<tag k="name" v="Kråkvikodden" />
		<tag k="natural" v="cape" />
		<tag k="ssr:stedsnr" v="440096" />
	</node>
	<node lat="66.17615278032737" lon="13.59559722543523" id="-10099">
		<tag k="name" v="Kvalvika" />
		<tag k="natural" v="bay" />
		<tag k="ssr:stedsnr" v="440421" />
	</node>
	<node lat="66.20028055218505" lon="13.5762638903032" id="-10101">
		<tag k="name" v="Lauvurdneset" />
		<tag k="natural" v="cape" />
		<tag k="ssr:stedsnr" v="440423" />
	</node>
	<node lat="66.22623055609323" lon="13.581136116535395" id="-10133">
		<tag k="fixme" v="consider seamark:type=rock or natural=shoal" />
		<tag k="name" v="Jektvikskjæret" />
		<tag k="place" v="islet" />
		<tag k="ssr:stedsnr" v="467464" />
	</node>
	<node lat="66.23007222246032" lon="13.653955554941644" id="-10142">
		<tag k="name" v="Lyhaugodden" />
		<tag k="natural" v="cape" />
		<tag k="ssr:stedsnr" v="468544" />
	</node>
	<node lat="66.22475000353865" lon="13.853455564227419" id="-10159">
		<tag k="name" v="Otergreina" />
		<tag k="natural" v="bay" />
		<tag k="ssr:stedsnr" v="483478" />
	</node>
	<node lat="66.17987499586975" lon="13.614894441410488" id="-10200">
		<tag k="name" v="Skarpneset" />
		<tag k="natural" v="cape" />
		<tag k="ssr:stedsnr" v="682446" />
	</node>
	<node lat="66.24435833261374" lon="13.75523611764736" id="-10207">
		<tag k="name" v="Innerbukta" />
		<tag k="natural" v="bay" />
		<tag k="ssr:stedsnr" v="682733" />
	</node>
	<node lat="66.1918361086464" lon="13.601830553246012" id="-10234">
		<tag k="name" v="Espervika" />
		<tag k="natural" v="bay" />
		<tag k="ssr:stedsnr" v="683387" />
	</node>
	<node lat="66.24078611251748" lon="13.691561118996102" id="-10261">
		<tag k="name" v="Jektvikodden" />
		<tag k="natural" v="cape" />
		<tag k="ssr:stedsnr" v="528604" />
	</node>
	<node lat="66.17019999585831" lon="13.73850554825294" id="-10298">
		<tag k="name" v="Ivarvika" />
		<tag k="natural" v="bay" />
		<tag k="ssr:stedsnr" v="543403" />
	</node>
	<node lat="66.23263611540513" lon="13.6380666720222" id="-10316">
		<tag k="fixme" v="multiple name tags, choose one and add the other to alt_name" />
		<tag k="name" v="Juvika;Langnesbukta" />
		<tag k="natural" v="bay" />
		<tag k="ssr:stedsnr" v="561090" />
	</node>
	<node lat="66.23681388798603" lon="13.820500000777981" id="-10366">
		<tag k="name" v="Nesodden" />
		<tag k="natural" v="cape" />
		<tag k="ssr:stedsnr" v="621725" />
	</node>
	<node lat="66.19260000344089" lon="13.77865832957633" id="-10398">
		<tag k="name" v="Kabelvåg" />
		<tag k="natural" v="bay" />
		<tag k="ssr:stedsnr" v="649510" />
	</node>
	<node lat="66.21122500270911" lon="13.649858324930342" id="-10399">
		<tag k="name" v="Langneset" />
		<tag k="natural" v="cape" />
		<tag k="ssr:stedsnr" v="649539" />
	</node>
	<node lat="66.24079722007662" lon="13.536022226144738" id="-10427">
		<tag k="name" v="Sandvika" />
		<tag k="natural" v="bay" />
		<tag k="ssr:stedsnr" v="664142" />
	</node>
	<node lat="66.21835278202185" lon="13.801402770351787" id="-10428">
		<tag k="name" v="Naustneset" />
		<tag k="natural" v="cape" />
		<tag k="ssr:stedsnr" v="664412" />
	</node>
	<node lat="66.16491666993214" lon="13.724372223240039" id="-10434">
		<tag k="name" v="Svinvika" />
		<tag k="natural" v="bay" />
		<tag k="ssr:stedsnr" v="664386" />
	</node>
	<node lat="66.194672217865" lon="13.620902775079358" id="-10435">
		<tag k="name" v="Storurneset" />
		<tag k="natural" v="cape" />
		<tag k="ssr:stedsnr" v="664844" />
	</node>
	<node lat="66.24183888701191" lon="13.703736106488853" id="-10454">
		<tag k="name" v="Rognholmen" />
		<tag k="place" v="islet" />
		<tag k="ssr:stedsnr" v="682103" />
	</node>
	<node lat="66.21423611014984" lon="13.630097218348176" id="-10504">
		<tag k="name" v="Kråkvika" />
		<tag k="natural" v="bay" />
		<tag k="ssr:stedsnr" v="710427" />
	</node>
	<node lat="66.23007777989311" lon="13.66204723250339" id="-10511">
		<tag k="fixme" v="consider seamark:type=rock or natural=shoal" />
		<tag k="name" v="Juvikskjæret" />
		<tag k="place" v="islet" />
		<tag k="ssr:stedsnr" v="710598" />
	</node>
	<node lat="66.13827500222772" lon="13.823327779693706" id="-10517">
		<tag k="name" v="Bordneset" />
		<tag k="natural" v="cape" />
		<tag k="ssr:stedsnr" v="710685" />
	</node>
	<node lat="66.18540833277729" lon="13.747047223200044" id="-10552">
		<tag k="name" v="Kleivneset" />
		<tag k="natural" v="cape" />
		<tag k="ssr:stedsnr" v="743032" />
	</node>
	<node lat="66.22966111551885" lon="13.649788882914015" id="-10555">
		<tag k="name" v="Jektvika" />
		<tag k="natural" v="bay" />
		<tag k="ssr:stedsnr" v="743109" />
	</node>
	<node lat="66.16678332999707" lon="13.766625009259528" id="-10569">
		<tag k="name" v="Sagneset" />
		<tag k="natural" v="cape" />
		<tag k="ssr:stedsnr" v="743511" />
	</node>
	<node lat="66.2336583316437" lon="13.644216676611839" id="-10606">
		<tag k="fixme" v="multiple name tags, choose one and add the other to alt_name" />
		<tag k="name" v="Juvikodden;Langnesodden" />
		<tag k="natural" v="cape" />
		<tag k="ssr:stedsnr" v="770366" />
	</node>
	<node lat="66.20366944643561" lon="13.611447218813161" id="-10664">
		<tag k="name" v="Sundsholmen" />
		<tag k="place" v="islet" />
		<tag k="ssr:stedsnr" v="804432" />
	</node>
	<node lat="66.1803027756286" lon="13.797191662703282" id="-10706">
		<tag k="name" v="Størkeneset" />
		<tag k="natural" v="cape" />
		<tag k="ssr:stedsnr" v="832685" />
	</node>
	<node lat="66.18855277413813" lon="13.61486388342617" id="-10762">
		<tag k="name" v="Merraføa" />
		<tag k="natural" v="bay" />
		<tag k="ssr:stedsnr" v="847852" />
	</node>
	<node lat="66.20434999536137" lon="13.540152787622496" id="-10809">
		<tag k="name" v="Lassevika" />
		<tag k="natural" v="bay" />
		<tag k="ssr:stedsnr" v="935012" />
	</node>
	<node lat="66.21201666727627" lon="13.58137777508012" id="-10812">
		<tag k="name" v="Stomvika" />
		<tag k="natural" v="bay" />
		<tag k="ssr:stedsnr" v="892379" />
	</node>
	<node lat="66.1875111138446" lon="13.652572225215048" id="-10855">
		<tag k="name" v="Tømmerhaugvika" />
		<tag k="natural" v="bay" />
		<tag k="ssr:stedsnr" v="925426" />
	</node>
	<node lat="66.20908055308394" lon="13.57012222600764" id="-10871">
		<tag k="fixme" v="multiple name tags, choose one and add the other to alt_name" />
		<tag k="name" v="Brennesvika;Gammeljordbukta" />
		<tag k="natural" v="bay" />
		<tag k="ssr:stedsnr" v="926074" />
	</node>
	<node lat="66.1355972232911" lon="12.842216661912873" id="-10881">
		<tag k="bay" v="fjord" />
		<tag k="name" v="Ranfjorden" />
		<tag k="natural" v="bay" />
		<tag k="ssr:stedsnr" v="926804" />
	</node>
	<node lat="66.2430055531139" lon="13.792647223052592" id="-10882">
		<tag k="fixme" v="multiple name tags, choose one and add the other to alt_name" />
		<tag k="name" v="Galten;Holmgalten" />
		<tag k="place" v="islet" />
		<tag k="ssr:stedsnr" v="936736" />
	</node>
	<node lat="66.2164638916412" lon="13.584594451730421" id="-10911">
		<tag k="name" v="Stemnesvika" />
		<tag k="natural" v="bay" />
		<tag k="ssr:stedsnr" v="15085" />
	</node>
	<node lat="66.21511389189868" lon="13.584005566305832" id="-10912">
		<tag k="name" v="Blåbærvika" />
		<tag k="natural" v="bay" />
		<tag k="ssr:stedsnr" v="15086" />
	</node>
	<node lat="66.1720305512001" lon="13.589066668707309" id="-10929">
		<tag k="name" v="Aspvika" />
		<tag k="natural" v="bay" />
		<tag k="ssr:stedsnr" v="15497" />
	</node>
	<node lat="66.17668333209551" lon="13.684947213551517" id="-10932">
		<tag k="name" v="Grønvikneset" />
		<tag k="natural" v="cape" />
		<tag k="ssr:stedsnr" v="15450" />
	</node>
	<node lat="66.1839111072787" lon="13.724194448119105" id="-10937">
		<tag k="name" v="Sæterbukta" />
		<tag k="natural" v="bay" />
		<tag k="ssr:stedsnr" v="15751" />
	</node>
	<node lat="66.19292499761006" lon="13.52378055963981" id="-10964">
		<tag k="name" v="Forvika" />
		<tag k="natural" v="bay" />
		<tag k="ssr:stedsnr" v="16390" />
	</node>
	<node lat="66.19279166589696" lon="13.773247218958614" id="-10983">
		<tag k="name" v="Keggvika" />
		<tag k="natural" v="bay" />
		<tag k="ssr:stedsnr" v="43443" />
	</node>
	<node lat="66.17781666960451" lon="13.676466667729047" id="-10985">
		<tag k="fixme" v="consider seamark:type=rock or natural=shoal" />
		<tag k="name" v="Grønvikskjæran" />
		<tag k="place" v="islet" />
		<tag k="ssr:stedsnr" v="43461" />
	</node>
	<node lat="66.16979167079573" lon="13.743361111077538" id="-11014">
		<tag k="name" v="Mulvika" />
		<tag k="natural" v="bay" />
		<tag k="ssr:stedsnr" v="58430" />
	</node>
	<node lat="66.24566111292677" lon="13.699111120749837" id="-11015">
		<tag k="fixme" v="consider seamark:type=rock or natural=shoal" />
		<tag k="name" v="Ranskjæret" />
		<tag k="place" v="islet" />
		<tag k="ssr:stedsnr" v="58458" />
	</node>
	<node lat="66.1966583341558" lon="13.547638883300111" id="-11021">
		<tag k="name" v="Toniodden" />
		<tag k="natural" v="cape" />
		<tag k="ssr:stedsnr" v="58834" />
	</node>
	<node lat="66.2358194406471" lon="13.51259998911462" id="-11030">
		<tag k="alt_name" v="Robergan" />
		<tag k="name" v="Roberget" />
		<tag k="natural" v="cape" />
		<tag k="ssr:stedsnr" v="76129" />
	</node>
	<node lat="66.17762222443437" lon="13.693550010543147" id="-11037">
		<tag k="name" v="Grønvika" />
		<tag k="natural" v="bay" />
		<tag k="ssr:stedsnr" v="76416" />
	</node>
	<node lat="66.2012416693775" lon="13.608755556989541" id="-11039">
		<tag k="name" v="Koksneset" />
		<tag k="natural" v="cape" />
		<tag k="ssr:stedsnr" v="76420" />
	</node>
	<node lat="66.18948888851293" lon="13.608455559890443" id="-11050">
		<tag k="name" v="Skarpsundet" />
		<tag k="natural" v="strait" />
		<tag k="ssr:stedsnr" v="76438" />
	</node>
	<node lat="66.19336944748834" lon="13.496430550340166" id="-11082">
		<tag k="name" v="Nesodden" />
		<tag k="natural" v="cape" />
		<tag k="ssr:stedsnr" v="103428" />
	</node>
	<node lat="66.22072222661944" lon="13.639288893200165" id="-11084">
		<tag k="name" v="Dalabukta" />
		<tag k="natural" v="bay" />
		<tag k="ssr:stedsnr" v="103441" />
	</node>
	<node lat="66.22698055765373" lon="13.581694445293632" id="-11085">
		<tag k="fixme" v="consider seamark:type=rock or natural=shoal" />
		<tag k="name" v="Storskjæret" />
		<tag k="place" v="islet" />
		<tag k="ssr:stedsnr" v="103445" />
	</node>
	<node lat="66.19601111505284" lon="13.545433323123273" id="-11121">
		<tag k="name" v="Tonivika" />
		<tag k="natural" v="bay" />
		<tag k="ssr:stedsnr" v="118811" />
	</node>
	<node lat="66.23110000382367" lon="13.576880561817337" id="-11131">
		<tag k="name" v="Osvågen" />
		<tag k="natural" v="bay" />
		<tag k="ssr:stedsnr" v="136120" />
	</node>
	<node lat="66.20958333168261" lon="13.640041665595684" id="-11144">
		<tag k="name" v="Sundsbukta" />
		<tag k="natural" v="bay" />
		<tag k="ssr:stedsnr" v="136082" />
	</node>
	<node lat="66.20968610882433" lon="13.792302781307612" id="-11174">
		<tag k="bay" v="fjord" />
		<tag k="name" v="Finneidfjorden" />
		<tag k="natural" v="bay" />
		<tag k="ssr:stedsnr" v="136730" />
	</node>
	<node lat="66.17875833616547" lon="13.709952778937632" id="-11200">
		<tag k="name" v="Oldervika" />
		<tag k="natural" v="bay" />
		<tag k="ssr:stedsnr" v="164565" />
	</node>
	<node lat="66.18421666621585" lon="13.672608339650502" id="-11203">
		<tag k="name" v="Marenvika" />
		<tag k="natural" v="bay" />
		<tag k="ssr:stedsnr" v="164553" />
	</node>
	<node lat="66.24059999715362" lon="13.697158324361743" id="-11210">
		<tag k="name" v="Lavika" />
		<tag k="natural" v="bay" />
		<tag k="ssr:stedsnr" v="164652" />
	</node>
	<node lat="66.23964721902078" lon="13.544519438708878" id="-11230">
		<tag k="fixme" v="consider seamark:type=rock or natural=shoal" />
		<tag k="name" v="Varvikskjæret" />
		<tag k="place" v="islet" />
		<tag k="ssr:stedsnr" v="179160" />
	</node>
	<node lat="66.19446666473982" lon="13.51050000646152" id="-11245">
		<tag k="name" v="Mastervikodden" />
		<tag k="natural" v="cape" />
		<tag k="ssr:stedsnr" v="179890" />
	</node>
	<node lat="66.21005555329064" lon="13.57921667496948" id="-11252">
		<tag k="name" v="Påskevika" />
		<tag k="natural" v="bay" />
		<tag k="ssr:stedsnr" v="197093" />
	</node>
	<node lat="66.2341388905715" lon="13.821561121936371" id="-11349">
		<tag k="name" v="Gangstøa" />
		<tag k="natural" v="bay" />
		<tag k="ssr:stedsnr" v="300455" />
	</node>
	<node lat="66.20468055588447" lon="13.641461108205306" id="-11355">
		<tag k="name" v="Kjeldbukta" />
		<tag k="natural" v="bay" />
		<tag k="ssr:stedsnr" v="300841" />
	</node>
	<node lat="66.19217777824606" lon="13.617752776936022" id="-11357">
		<tag k="name" v="Svinvika" />
		<tag k="natural" v="bay" />
		<tag k="ssr:stedsnr" v="300848" />
	</node>
	<node lat="66.22312499906857" lon="13.580041674729754" id="-11406">
		<tag k="name" v="Mølnhusvika" />
		<tag k="natural" v="bay" />
		<tag k="ssr:stedsnr" v="319085" />
	</node>
	<node lat="66.20147500202224" lon="13.635147211730256" id="-11409">
		<tag k="name" v="Kalkvika" />
		<tag k="natural" v="bay" />
		<tag k="ssr:stedsnr" v="319383" />
	</node>
	<node lat="66.16116944309566" lon="13.77949443448558" id="-11412">
		<tag k="name" v="Kivika" />
		<tag k="natural" v="bay" />
		<tag k="ssr:stedsnr" v="319530" />
	</node>
	<node lat="66.18432500343238" lon="13.613652780748565" id="-11467">
		<tag k="name" v="Bukkvika" />
		<tag k="natural" v="bay" />
		<tag k="ssr:stedsnr" v="361163" />
	</node>
	<node lat="66.2195333350509" lon="13.802969442327402" id="-11471">
		<tag k="name" v="Bekkvika" />
		<tag k="natural" v="bay" />
		<tag k="ssr:stedsnr" v="361475" />
	</node>
	<node lat="66.19453055577128" lon="13.487516674007392" id="-11552">
		<tag k="name" v="Kalvika" />
		<tag k="natural" v="bay" />
		<tag k="ssr:stedsnr" v="406434" />
	</node>
	<node lat="66.23641110939148" lon="13.554338897038273" id="-11587">
		<tag k="name" v="Tømmervika" />
		<tag k="natural" v="bay" />
		<tag k="ssr:stedsnr" v="422132" />
	</node>
	<node lat="66.20863889163665" lon="13.778713889539805" id="-11632">
		<tag k="name" v="Kalabukta" />
		<tag k="natural" v="bay" />
		<tag k="ssr:stedsnr" v="440722" />
	</node>
	<node lat="66.24507777416173" lon="13.76279999179134" id="-11639">
		<tag k="alt_name" v="Skardnesodden" />
		<tag k="name" v="Skarnesodden" />
		<tag k="natural" v="cape" />
		<tag k="ssr:stedsnr" v="440661" />
	</node>
	<node lat="66.23149166498217" lon="13.504344438229328" id="-11669">
		<tag k="name" v="Brattflogbukta" />
		<tag k="natural" v="bay" />
		<tag k="ssr:stedsnr" v="500117" />
	</node>
	<node lat="66.21234166327618" lon="13.63016111417093" id="-11699">
		<tag k="name" v="Hundneset" />
		<tag k="natural" v="cape" />
		<tag k="ssr:stedsnr" v="501071" />
	</node>
	<node lat="66.20073333483697" lon="13.604055557912062" id="-11702">
		<tag k="name" v="Varpen" />
		<tag k="natural" v="bay" />
		<tag k="ssr:stedsnr" v="501382" />
	</node>
	<node lat="66.21713611120693" lon="13.586116672458433" id="-11720">
		<tag k="name" v="Stemnesvikodden" />
		<tag k="natural" v="cape" />
		<tag k="ssr:stedsnr" v="527438" />
	</node>
	<node lat="66.19453333523602" lon="13.50434445232815" id="-11761">
		<tag k="name" v="Tjeldbærvika" />
		<tag k="natural" v="bay" />
		<tag k="ssr:stedsnr" v="543858" />
	</node>
	<node lat="66.18886944727794" lon="13.665422230851819" id="-11789">
		<tag k="name" v="Gangvika" />
		<tag k="natural" v="bay" />
		<tag k="ssr:stedsnr" v="561393" />
	</node>
	<node lat="66.16341944416807" lon="13.799644450227401" id="-11797">
		<tag k="name" v="Røssågauren" />
		<tag k="natural" v="cape" />
		<tag k="ssr:stedsnr" v="561508" />
	</node>
	<node lat="66.22679444319179" lon="13.813741675109968" id="-11809">
		<tag k="name" v="Gomundvika" />
		<tag k="natural" v="bay" />
		<tag k="ssr:stedsnr" v="561726" />
	</node>
	<node lat="66.23960278225185" lon="13.813163879596427" id="-11816">
		<tag k="name" v="Holmen" />
		<tag k="place" v="islet" />
		<tag k="ssr:stedsnr" v="561697" />
	</node>
	<node lat="66.1822805546797" lon="13.636225005070722" id="-11859">
		<tag k="name" v="Kobbskjærodden" />
		<tag k="natural" v="cape" />
		<tag k="ssr:stedsnr" v="570094" />
	</node>
	<node lat="66.1907611069786" lon="13.61705276757835" id="-11906">
		<tag k="name" v="Skavvika" />
		<tag k="natural" v="bay" />
		<tag k="ssr:stedsnr" v="603836" />
	</node>
	<node lat="66.19631666759875" lon="13.522738879559666" id="-11915">
		<tag k="alt_name" v="Grytnesodden" />
		<tag k="name" v="Grytneset" />
		<tag k="natural" v="cape" />
		<tag k="ssr:stedsnr" v="622407" />
	</node>
	<node lat="66.2204083363839" lon="13.583286104249433" id="-11945">
		<tag k="alt_name" v="Berntvik" />
		<tag k="name" v="Berntvika" />
		<tag k="natural" v="bay" />
		<tag k="ssr:stedsnr" v="622092" />
	</node>
	<node lat="66.1641250007006" lon="13.774005553845177" id="-12013">
		<tag k="name" v="Hella" />
		<tag k="natural" v="bay" />
		<tag k="ssr:stedsnr" v="664372" />
	</node>
	<node lat="66.19399444690188" lon="13.534444440952266" id="-12023">
		<tag k="name" v="Siritunga" />
		<tag k="natural" v="cape" />
		<tag k="ssr:stedsnr" v="664826" />
	</node>
	<node lat="66.23146389133291" lon="13.880747220721714" id="-12053">
		<tag k="name" v="Bordvika" />
		<tag k="natural" v="bay" />
		<tag k="ssr:stedsnr" v="725390" />
	</node>
	<node lat="66.24539444338416" lon="13.749788895502876" id="-12054">
		<tag k="name" v="Naustodden" />
		<tag k="natural" v="cape" />
		<tag k="ssr:stedsnr" v="725392" />
	</node>
	<node lat="66.23812777372888" lon="13.548122228513037" id="-12063">
		<tag k="name" v="Rørvika" />
		<tag k="natural" v="bay" />
		<tag k="ssr:stedsnr" v="743123" />
	</node>
	<node lat="66.18239166645068" lon="13.632313897037054" id="-12069">
		<tag k="name" v="Storsundvika" />
		<tag k="natural" v="bay" />
		<tag k="ssr:stedsnr" v="743420" />
	</node>
	<node lat="66.13979999992951" lon="13.822863877961469" id="-12091">
		<tag k="name" v="Vallabotnet" />
		<tag k="natural" v="bay" />
		<tag k="ssr:stedsnr" v="743568" />
	</node>
	<node lat="66.23426666468504" lon="13.583574989540125" id="-12121">
		<tag k="name" v="Osmogrunna" />
		<tag k="natural" v="shoal" />
		<tag k="place" v="locality" />
		<tag k="ssr:stedsnr" v="753041" />
	</node>
	<node lat="66.21551944026724" lon="13.795647220153661" id="-12171">
		<tag k="name" v="Innervika" />
		<tag k="natural" v="bay" />
		<tag k="ssr:stedsnr" v="786472" />
	</node>
	<node lat="66.23598333728474" lon="13.812844446692596" id="-12178">
		<tag k="name" v="Kråka" />
		<tag k="natural" v="cape" />
		<tag k="ssr:stedsnr" v="786490" />
	</node>
	<node lat="66.23723969417507" lon="13.683336107601033" id="-12190">
		<tag k="name" v="Geitvika" />
		<tag k="natural" v="bay" />
		<tag k="ssr:stedsnr" v="804138" />
	</node>
	<node lat="66.22497499743994" lon="13.600138881587984" id="-12246">
		<tag k="name" v="Hemnesodden" />
		<tag k="natural" v="cape" />
		<tag k="ssr:stedsnr" v="831426" />
	</node>
	<node lat="66.15725277342621" lon="13.802369447049507" id="-12274">
		<tag k="name" v="Røssågvika" />
		<tag k="natural" v="bay" />
		<tag k="ssr:stedsnr" v="832860" />
	</node>
	<node lat="66.24361110817445" lon="13.72578054829366" id="-12296">
		<tag k="name" v="Gjeskebukta" />
		<tag k="natural" v="bay" />
		<tag k="ssr:stedsnr" v="847460" />
	</node>
	<node lat="66.2211111073212" lon="13.804005559353" id="-12297">
		<tag k="name" v="Kveitvika" />
		<tag k="natural" v="bay" />
		<tag k="ssr:stedsnr" v="847468" />
	</node>
	<node lat="66.2240222204937" lon="13.80671388919746" id="-12303">
		<tag k="name" v="Storvika" />
		<tag k="natural" v="bay" />
		<tag k="ssr:stedsnr" v="865037" />
	</node>
	<node lat="66.20802222560694" lon="13.57406944644817" id="-12338">
		<tag k="name" v="Brennesvikodden" />
		<tag k="natural" v="cape" />
		<tag k="ssr:stedsnr" v="865448" />
	</node>
	<node lat="66.24380278034208" lon="13.741597218680022" id="-12363">
		<tag k="name" v="Ytterbukta" />
		<tag k="natural" v="bay" />
		<tag k="ssr:stedsnr" v="865704" />
	</node>
	<node lat="66.20114166706014" lon="13.771233330235154" id="-12377">
		<tag k="name" v="Lauvliodden" />
		<tag k="natural" v="cape" />
		<tag k="ssr:stedsnr" v="865741" />
	</node>
	<node lat="66.19492778185769" lon="13.491097230462989" id="-12403">
		<tag k="name" v="Oldervika" />
		<tag k="natural" v="bay" />
		<tag k="ssr:stedsnr" v="952422" />
	</node>
	<node lat="66.20036389143132" lon="13.771769440479305" id="-12407">
		<tag k="fixme" v="consider seamark:type=rock or natural=shoal" />
		<tag k="name" v="Kobbskjæret" />
		<tag k="place" v="islet" />
		<tag k="ssr:stedsnr" v="953512" />
	</node>
	<node lat="66.14606944196615" lon="13.82335833667693" id="-12419">
		<tag k="name" v="Aspneset" />
		<tag k="natural" v="cape" />
		<tag k="ssr:stedsnr" v="953872" />
	</node>
	<node lat="66.24015287498723" lon="13.517381120719142" id="-12438">
		<tag k="name" v="Nebbstøvika" />
		<tag k="natural" v="bay" />
		<tag k="ssr:stedsnr" v="968164" />
	</node>
	<node lat="66.16431111448695" lon="13.82483055085755" id="-12462">
		<tag k="name" v="Breivikbukta" />
		<tag k="natural" v="bay" />
		<tag k="ssr:stedsnr" v="968380" />
	</node>
	<node lat="66.19548055358564" lon="13.62183611520068" id="-12464">
		<tag k="fixme" v="consider seamark:type=rock or natural=shoal" />
		<tag k="name" v="Seisteinen" />
		<tag k="place" v="islet" />
		<tag k="ssr:stedsnr" v="968859" />
	</node>
</osm>
