<?xml version="1.0" encoding="UTF-8"?>
<osm generator="osmapis" version="0.6">
	<node id="-141184" lat="66.0698805567" lon="13.9201472176">
		<tag k="highway" v="path" />
		<tag k="name" v="Nevervegen" />
		<tag k="ssr:stedsnr" v="528694" />
	</node>
	<node id="-140448" lat="66.2161416668" lon="13.7687722231">
		<tag k="highway" v="path" />
		<tag k="name" v="Geitstien" />
		<tag k="ssr:stedsnr" v="43489" />
	</node>
	<node id="-141212" lat="65.9148555558" lon="13.7318638967">
		<tag k="ford" v="yes" />
		<tag k="name" v="Jordbrua" />
		<tag k="place" v="locality" />
		<tag k="ssr:stedsnr" v="543204" />
	</node>
	<node id="-139850" lat="66.1935277813" lon="13.6514527792">
		<tag k="highway" v="path" />
		<tag k="name" v="Tømmerhaugstien" />
		<tag k="ssr:stedsnr" v="710486" />
	</node>
	<node id="-138899" lat="66.2045666692" lon="13.6789722305">
		<tag k="highway" v="path" />
		<tag k="name" v="Fjellvegen" />
		<tag k="ssr:stedsnr" v="225523" />
	</node>
	<node id="-141330" lat="66.1289694463" lon="13.7685499895">
		<tag k="highway" v="path" />
		<tag k="name" v="Stien" />
		<tag k="ssr:stedsnr" v="603090" />
	</node>
	<node id="-140208" lat="66.1483055555" lon="13.8303305514">
		<tag k="name" v="Bjerka stasjon" />
		<tag k="railway" v="station" />
		<tag k="ssr:stedsnr" v="925622" />
		<tag k="train" v="yes" />
	</node>
	<node id="-140655" lat="66.222258337" lon="13.5542361227">
		<tag k="highway" v="path" />
		<tag k="name" v="Libuvegen" />
		<tag k="ssr:stedsnr" v="118841" />
	</node>
	<node id="-140172" lat="65.901388892" lon="13.7507277763">
		<tag k="ford" v="yes" />
		<tag k="name" v="Jordbrua" />
		<tag k="place" v="locality" />
		<tag k="ssr:stedsnr" v="786158" />
	</node>
	<node id="-139410" lat="66.2226666683" lon="13.5615277714">
		<tag k="highway" v="path" />
		<tag k="name" v="Finnstien" />
		<tag k="ssr:stedsnr" v="300863" />
	</node>
	<node id="-139082" lat="66.1408166675" lon="14.0604361119">
		<tag k="highway" v="path" />
		<tag k="name" v="Vargvegen" />
		<tag k="ssr:stedsnr" v="119054" />
	</node>
	<node id="-140492" lat="66.1709777774" lon="13.8403611055">
		<tag k="ford" v="yes" />
		<tag k="name" v="Februa" />
		<tag k="place" v="locality" />
		<tag k="ssr:stedsnr" v="58386" />
	</node>
	<node id="-138920" lat="66.1046972208" lon="13.8372833302">
		<tag k="highway" v="path" />
		<tag k="name" v="Livegen" />
		<tag k="ssr:stedsnr" v="225833" />
	</node>
	<node id="-141223" lat="66.2170083323" lon="13.8683861071">
		<tag k="ford" v="yes" />
		<tag k="name" v="Tverråvadet" />
		<tag k="place" v="locality" />
		<tag k="ssr:stedsnr" v="543429" />
	</node>
	<node id="-140164" lat="66.2057416634" lon="13.6762333244">
		<tag k="highway" v="path" />
		<tag k="name" v="Melkvegen" />
		<tag k="ssr:stedsnr" v="771520" />
	</node>
	<node id="-141603" lat="66.0116722181" lon="13.7603666594">
		<tag k="ford" v="yes" />
		<tag k="name" v="Jordbrua" />
		<tag k="place" v="locality" />
		<tag k="ssr:stedsnr" v="784234" />
	</node>
	<node id="-139148" lat="66.1659833321" lon="13.4251083364">
		<tag k="highway" v="path" />
		<tag k="name" v="Kvanlivegen" />
		<tag k="ssr:stedsnr" v="178819" />
	</node>
	<node id="-140481" lat="66.0069888932" lon="13.7748777705">
		<tag k="ford" v="yes" />
		<tag k="name" v="Jordbrua" />
		<tag k="place" v="locality" />
		<tag k="ssr:stedsnr" v="56179" />
	</node>
</osm>
