<?xml version="1.0" encoding="UTF-8"?>
<osm generator="osmapis" version="0.6">
	<node id="-185214" lat="60.0006611142" lon="10.0716277746">
		<tag k="name" v="Tomassvingen" />
		<tag k="place" v="locality" />
		<tag k="ssr:stedsnr" v="783865" />
	</node>
	<node id="-184442" lat="60.0015999991" lon="10.13970555">
		<tag k="name" v="Delesteinsmoen" />
		<tag k="place" v="locality" />
		<tag k="ssr:stedsnr" v="237987" />
	</node>
	<node id="-184439" lat="59.988930555" lon="10.0609777776">
		<tag k="name" v="Lortsøla" />
		<tag k="place" v="locality" />
		<tag k="ssr:stedsnr" v="237845" />
	</node>
	<node id="-185325" lat="59.970419446" lon="9.867277778">
		<tag k="name" v="Utsikten" />
		<tag k="ssr:stedsnr" v="831796" />
		<tag k="tourism" v="museum" />
	</node>
	<node id="-184935" lat="59.8885250005" lon="9.78970832485">
		<tag k="amenity" v="community_centre" />
		<tag k="name" v="Bergheim" />
		<tag k="ssr:stedsnr" v="642983" />
	</node>
	<node id="-185188" lat="59.9741138858" lon="9.85535277813">
		<tag k="name" v="Hansedammen" />
		<tag k="place" v="locality" />
		<tag k="ssr:stedsnr" v="769811" />
	</node>
	<node id="-184035" lat="60.038658331" lon="9.93404722871">
		<tag k="name" v="Jordbruksstein" />
		<tag k="place" v="locality" />
		<tag k="ssr:stedsnr" v="55285" />
	</node>
	<node id="-185053" lat="60.0828638881" lon="9.78954165874">
		<tag k="name" v="Hallerdalshovet" />
		<tag k="place" v="locality" />
		<tag k="ssr:stedsnr" v="704121" />
	</node>
	<node id="-185308" lat="59.9578611081" lon="10.077391672">
		<tag k="name" v="Nyseterstubben" />
		<tag k="place" v="locality" />
		<tag k="ssr:stedsnr" v="829666" />
	</node>
	<node id="-184410" lat="59.9654694401" lon="10.0447888921">
		<tag k="name" v="Offerstein" />
		<tag k="place" v="locality" />
		<tag k="ssr:stedsnr" v="224983" />
	</node>
	<node id="-184660" lat="59.9792388855" lon="10.2565749928">
		<tag k="name" v="Kovahaugen" />
		<tag k="place" v="locality" />
		<tag k="ssr:stedsnr" v="483222" />
	</node>
	<node id="-183761" lat="59.9507444434" lon="10.1293111142">
		<tag k="name" v="Karlsborg" />
		<tag k="place" v="locality" />
		<tag k="ssr:stedsnr" v="360026" />
	</node>
	<node id="-184016" lat="60.052486109" lon="9.90985277472">
		<tag k="name" v="Kølabonn" />
		<tag k="place" v="locality" />
		<tag k="ssr:stedsnr" v="42140" />
	</node>
	<node id="-184588" lat="60.0159305529" lon="10.0135833385">
		<tag k="alt_name" v="Rud;Rud kapell" />
		<tag k="amenity" v="place_of_worship" />
		<tag k="denomination" v="lutheran" />
		<tag k="name" v="Rud kirke" />
		<tag k="religion" v="christian" />
		<tag k="ssr:stedsnr" v="430404" />
	</node>
	<node id="-184505" lat="60.0253916635" lon="9.86822777919">
		<tag k="alt_name" v="Snarum" />
		<tag k="amenity" v="place_of_worship" />
		<tag k="denomination" v="lutheran" />
		<tag k="name" v="Snarum kirke" />
		<tag k="religion" v="christian" />
		<tag k="ssr:stedsnr" v="247942" />
	</node>
	<node id="-184247" lat="59.895191669" lon="9.92929721878">
		<tag k="alt_name" v="Åmot" />
		<tag k="amenity" v="place_of_worship" />
		<tag k="denomination" v="lutheran" />
		<tag k="name" v="Åmot kirke" />
		<tag k="old_name" v="Åmot kapell" />
		<tag k="religion" v="christian" />
		<tag k="ssr:stedsnr" v="155833" />
	</node>
	<node id="-183855" lat="59.9567666647" lon="10.0427249946">
		<tag k="name" v="Skomakerstein" />
		<tag k="place" v="locality" />
		<tag k="ssr:stedsnr" v="404622" />
	</node>
	<node id="-183980" lat="60.0144749984" lon="10.1253805612">
		<tag k="alt_name" v="Gulsrud" />
		<tag k="amenity" v="place_of_worship" />
		<tag k="denomination" v="lutheran" />
		<tag k="name" v="Gulsrud kirke" />
		<tag k="old_name" v="Gulsrud kapell" />
		<tag k="religion" v="christian" />
		<tag k="ssr:stedsnr" v="5397" />
	</node>
	<node id="-183815" lat="59.9525888894" lon="9.90505277049">
		<tag k="alt_name" v="Vestre Spone;Vestre Spone kapell" />
		<tag k="amenity" v="place_of_worship" />
		<tag k="denomination" v="lutheran" />
		<tag k="name" v="Vestre Spone kirke" />
		<tag k="religion" v="christian" />
		<tag k="ssr:stedsnr" v="368785" />
	</node>
	<node id="-183720" lat="59.9450999961" lon="10.0775305471">
		<tag k="name" v="Gladbergfurua" />
		<tag k="place" v="locality" />
		<tag k="ssr:stedsnr" v="343687" />
	</node>
	<node id="-185255" lat="59.8871416625" lon="9.87973611524">
		<tag k="alt_name" v="Nykirke" />
		<tag k="amenity" v="place_of_worship" />
		<tag k="denomination" v="lutheran" />
		<tag k="name" v="Nykirke kirke" />
		<tag k="religion" v="christian" />
		<tag k="ssr:stedsnr" v="792661" />
	</node>
	<node id="-183713" lat="59.9809583311" lon="10.1120638956">
		<tag k="name" v="Yla" />
		<tag k="place" v="locality" />
		<tag k="ssr:stedsnr" v="343074" />
	</node>
	<node id="-183708" lat="60.0442527747" lon="9.79320000278">
		<tag k="name" v="Glorud" />
		<tag k="place" v="locality" />
		<tag k="ssr:stedsnr" v="339062" />
	</node>
	<node id="-184472" lat="59.9408027754" lon="10.0015166676">
		<tag k="alt_name" v="Heggen" />
		<tag k="amenity" v="place_of_worship" />
		<tag k="denomination" v="lutheran" />
		<tag k="name" v="Heggen kirke" />
		<tag k="religion" v="christian" />
		<tag k="ssr:stedsnr" v="246371" />
	</node>
	<node id="-184980" lat="59.9510722242" lon="10.024283341">
		<tag k="name" v="Storsvevet" />
		<tag k="place" v="locality" />
		<tag k="ssr:stedsnr" v="663552" />
	</node>
	<node id="-185484" lat="59.9126305556" lon="9.88758611858">
		<tag k="name" v="Blaafarveværket" />
		<tag k="old_name" v="Blåfargeverket;Modum Blåfarveverk;Blåfarveverket;Modums Blaafarveværk" />
		<tag k="ssr:stedsnr" v="914831" />
		<tag k="tourism" v="attraction" />
	</node>
	<node id="-184620" lat="59.959899999" lon="9.84714445242">
		<tag k="name" v="Skjerpet" />
		<tag k="place" v="locality" />
		<tag k="ssr:stedsnr" v="466318" />
	</node>
</osm>
