<?xml version="1.0" encoding="UTF-8"?>
<osm generator="osmapis" version="0.6">
	<node id="-184318" lat="60.0332694405" lon="9.79282499389">
		<tag k="name" v="Dylletjerndalen" />
		<tag k="natural" v="valley" />
		<tag k="place" v="locality" />
		<tag k="ssr:stedsnr" v="97064" />
	</node>
	<node id="-184313" lat="60.0813750003" lon="9.87985000341">
		<tag k="fixme" v="consider natural=peak for the most distinct mountains in the district" />
		<tag k="name" v="Femtjernshøgda" />
		<tag k="natural" v="hill" />
		<tag k="place" v="locality" />
		<tag k="ssr:stedsnr" v="66858" />
	</node>
	<node id="-184309" lat="60.0699277735" lon="9.94412221817">
		<tag k="alt_name" v="Tretjernsåsen" />
		<tag k="fixme" v="consider natural=peak for the most distinct mountains in the district" />
		<tag k="name" v="Tretjernåsen" />
		<tag k="natural" v="hill" />
		<tag k="place" v="locality" />
		<tag k="ssr:stedsnr" v="65895" />
	</node>
	<node id="-184299" lat="59.9749138914" lon="10.1108916631">
		<tag k="fixme" v="consider natural=peak for the most distinct mountains in the district" />
		<tag k="name" v="Sjutjernflaka" />
		<tag k="natural" v="hill" />
		<tag k="place" v="locality" />
		<tag k="ssr:stedsnr" v="65479" />
	</node>
	<node id="-184294" lat="59.9935666656" lon="10.0841750038">
		<tag k="fixme" v="consider natural=peak for the most distinct mountains in the district" />
		<tag k="name" v="Skrubbåsen" />
		<tag k="natural" v="hill" />
		<tag k="place" v="locality" />
		<tag k="ssr:stedsnr" v="65448" />
	</node>
	<node id="-184270" lat="59.9748166623" lon="10.2127638946">
		<tag k="name" v="Lillemyrbrenna" />
		<tag k="natural" v="slope" />
		<tag k="place" v="locality" />
		<tag k="ssr:stedsnr" v="59161" />
	</node>
	<node id="-184269" lat="59.9338861099" lon="9.88631111183">
		<tag k="name" v="Dullebråteåsen" />
		<tag k="natural" v="hill" />
		<tag k="place" v="locality" />
		<tag k="ssr:stedsnr" v="59140" />
	</node>
	<node id="-184251" lat="59.9016583353" lon="9.96684443955">
		<tag k="fixme" v="consider natural=peak for the most distinct mountains in the district" />
		<tag k="name" v="Holotjernsåsen" />
		<tag k="natural" v="hill" />
		<tag k="place" v="locality" />
		<tag k="ssr:stedsnr" v="57908" />
	</node>
	<node id="-184243" lat="59.9763472191" lon="10.1656249998">
		<tag k="name" v="Innertandbergsbrenna" />
		<tag k="natural" v="hill" />
		<tag k="place" v="locality" />
		<tag k="ssr:stedsnr" v="57104" />
	</node>
	<node id="-184241" lat="59.9453555541" lon="10.1200888859">
		<tag k="name" v="Bjønnestillinga" />
		<tag k="natural" v="hill" />
		<tag k="place" v="locality" />
		<tag k="ssr:stedsnr" v="57034" />
	</node>
	<node id="-184239" lat="59.9985166653" lon="10.0779944405">
		<tag k="name" v="Karjolsletta" />
		<tag k="place" v="locality" />
		<tag k="ssr:stedsnr" v="55850" />
	</node>
	<node id="-184235" lat="60.0215194415" lon="9.95751388897">
		<tag k="fixme" v="consider natural=peak for the most distinct mountains in the district" />
		<tag k="name" v="Kølamoåsen" />
		<tag k="natural" v="hill" />
		<tag k="place" v="locality" />
		<tag k="ssr:stedsnr" v="55292" />
	</node>
	<node id="-184232" lat="60.0431111111" lon="9.88988333473">
		<tag k="fixme" v="consider natural=peak for the most distinct mountains in the district" />
		<tag k="name" v="Skansen" />
		<tag k="natural" v="hill" />
		<tag k="place" v="locality" />
		<tag k="ssr:stedsnr" v="55283" />
	</node>
	<node id="-184217" lat="59.9962861071" lon="10.1732833319">
		<tag k="fixme" v="consider natural=peak for the most distinct mountains in the district" />
		<tag k="name" v="Svartåsen" />
		<tag k="natural" v="hill" />
		<tag k="place" v="locality" />
		<tag k="ssr:stedsnr" v="42271" />
	</node>
	<node id="-184215" lat="60.0597472233" lon="9.8916944383">
		<tag k="name" v="Makrelldalen" />
		<tag k="natural" v="valley" />
		<tag k="place" v="locality" />
		<tag k="ssr:stedsnr" v="42146" />
	</node>
	<node id="-184205" lat="59.8855055529" lon="10.0440833263">
		<tag k="name" v="Kroktjerndalen" />
		<tag k="natural" v="valley" />
		<tag k="place" v="locality" />
		<tag k="ssr:stedsnr" v="40715" />
	</node>
	<node id="-184203" lat="60.0817694451" lon="9.813188896">
		<tag k="name" v="Ramfosslaupet" />
		<tag k="natural" v="slope" />
		<tag k="place" v="locality" />
		<tag k="ssr:stedsnr" v="40707" />
	</node>
	<node id="-184199" lat="59.9496138904" lon="10.0612083412">
		<tag k="name" v="Ludviksdalen" />
		<tag k="natural" v="valley" />
		<tag k="place" v="locality" />
		<tag k="ssr:stedsnr" v="40679" />
	</node>
	<node id="-184192" lat="59.9764000022" lon="10.1179472148">
		<tag k="name" v="Svartdal" />
		<tag k="natural" v="valley" />
		<tag k="place" v="locality" />
		<tag k="ssr:stedsnr" v="40078" />
	</node>
	<node id="-184183" lat="60.0803250012" lon="9.80119999923">
		<tag k="fixme" v="consider natural=peak for the most distinct mountains in the district" />
		<tag k="name" v="Hallerdalsåsen" />
		<tag k="natural" v="hill" />
		<tag k="place" v="locality" />
		<tag k="ssr:stedsnr" v="5848" />
	</node>
	<node id="-184177" lat="60.0158638849" lon="9.98541666946">
		<tag k="fixme" v="consider natural=peak for the most distinct mountains in the district" />
		<tag k="name" v="Tonsåsen" />
		<tag k="natural" v="hill" />
		<tag k="place" v="locality" />
		<tag k="ssr:stedsnr" v="5326" />
	</node>
	<node id="-184168" lat="59.9197805589" lon="9.79756110598">
		<tag k="fixme" v="consider natural=peak for the most distinct mountains in the district" />
		<tag k="name" v="Heggåsen" />
		<tag k="natural" v="hill" />
		<tag k="place" v="locality" />
		<tag k="ssr:stedsnr" v="4874" />
	</node>
	<node id="-184166" lat="59.9255666657" lon="9.76394167497">
		<tag k="name" v="Blådalen" />
		<tag k="natural" v="valley" />
		<tag k="place" v="locality" />
		<tag k="ssr:stedsnr" v="4871" />
	</node>
	<node id="-184155" lat="59.8929611083" lon="9.96319167248">
		<tag k="name" v="Kudalen" />
		<tag k="natural" v="valley" />
		<tag k="place" v="locality" />
		<tag k="ssr:stedsnr" v="4665" />
	</node>
	<node id="-184125" lat="60.0266305597" lon="9.79534167433">
		<tag k="fixme" v="consider natural=peak for the most distinct mountains in the district" />
		<tag k="name" v="Skutåsen" />
		<tag k="natural" v="hill" />
		<tag k="place" v="locality" />
		<tag k="ssr:stedsnr" v="517786" />
	</node>
	<node id="-184108" lat="60.0591555512" lon="9.80021944708">
		<tag k="fixme" v="consider natural=peak for the most distinct mountains in the district" />
		<tag k="name" v="Viermyråsen" />
		<tag k="natural" v="hill" />
		<tag k="place" v="locality" />
		<tag k="ssr:stedsnr" v="892691" />
	</node>
	<node id="-184105" lat="59.9870777795" lon="10.1978861103">
		<tag k="name" v="Bjellehaugen" />
		<tag k="natural" v="hill" />
		<tag k="place" v="locality" />
		<tag k="ssr:stedsnr" v="892269" />
	</node>
	<node id="-184104" lat="60.0575888845" lon="9.88558334168">
		<tag k="fixme" v="consider natural=peak for the most distinct mountains in the district" />
		<tag k="name" v="Vrangsåsen" />
		<tag k="natural" v="hill" />
		<tag k="place" v="locality" />
		<tag k="ssr:stedsnr" v="892129" />
	</node>
	<node id="-184098" lat="59.9770999982" lon="9.8755138973">
		<tag k="fixme" v="consider natural=peak for the most distinct mountains in the district" />
		<tag k="name" v="Fjaskestuåsen" />
		<tag k="natural" v="hill" />
		<tag k="place" v="locality" />
		<tag k="ssr:stedsnr" v="891843" />
	</node>
	<node id="-184097" lat="59.9838833312" lon="9.93239445302">
		<tag k="name" v="Holemoen" />
		<tag k="place" v="locality" />
		<tag k="ssr:stedsnr" v="891102" />
	</node>
	<node id="-184096" lat="59.9689638856" lon="9.89133333064">
		<tag k="fixme" v="consider natural=peak for the most distinct mountains in the district" />
		<tag k="name" v="Tjernsåsen" />
		<tag k="natural" v="hill" />
		<tag k="place" v="locality" />
		<tag k="ssr:stedsnr" v="890924" />
	</node>
	<node id="-184092" lat="59.8872861153" lon="10.0796611072">
		<tag k="fixme" v="consider natural=peak for the most distinct mountains in the district" />
		<tag k="name" v="Nokkebråtaåsen" />
		<tag k="natural" v="hill" />
		<tag k="place" v="locality" />
		<tag k="ssr:stedsnr" v="890721" />
	</node>
	<node id="-184090" lat="59.8903250032" lon="10.0388722178">
		<tag k="fixme" v="consider natural=peak for the most distinct mountains in the district" />
		<tag k="name" v="Høgåsen" />
		<tag k="natural" v="hill" />
		<tag k="place" v="locality" />
		<tag k="ssr:stedsnr" v="890713" />
	</node>
	<node id="-184089" lat="59.9212777754" lon="10.0549722283">
		<tag k="name" v="Rolighetsholet" />
		<tag k="natural" v="valley" />
		<tag k="place" v="locality" />
		<tag k="ssr:stedsnr" v="890709" />
	</node>
	<node id="-184087" lat="59.9441638846" lon="10.049791664">
		<tag k="name" v="Heggesjøbrenna" />
		<tag k="natural" v="hill" />
		<tag k="place" v="locality" />
		<tag k="ssr:stedsnr" v="890698" />
	</node>
	<node id="-184086" lat="59.9512500004" lon="10.0542055509">
		<tag k="name" v="Tjuruhjellen" />
		<tag k="natural" v="hill" />
		<tag k="place" v="locality" />
		<tag k="ssr:stedsnr" v="890694" />
	</node>
	<node id="-184085" lat="59.95598889" lon="10.0713138894">
		<tag k="name" v="Heståsvarden" />
		<tag k="natural" v="hill" />
		<tag k="place" v="locality" />
		<tag k="ssr:stedsnr" v="890690" />
	</node>
	<node id="-184077" lat="60.0609527818" lon="9.79046389531">
		<tag k="name" v="Styggdalen" />
		<tag k="natural" v="valley" />
		<tag k="place" v="locality" />
		<tag k="ssr:stedsnr" v="886101" />
	</node>
	<node id="-184071" lat="59.9770166672" lon="10.0705416635">
		<tag k="name" v="Svartputthaugane" />
		<tag k="natural" v="hill" />
		<tag k="place" v="locality" />
		<tag k="ssr:stedsnr" v="406995" />
	</node>
	<node id="-184068" lat="60.0480944438" lon="9.82494721921">
		<tag k="name" v="Kløyva" />
		<tag k="natural" v="slope" />
		<tag k="place" v="locality" />
		<tag k="ssr:stedsnr" v="406707" />
	</node>
	<node id="-184060" lat="60.0619555562" lon="9.87600278049">
		<tag k="name" v="Dypningsdalen" />
		<tag k="natural" v="valley" />
		<tag k="place" v="locality" />
		<tag k="ssr:stedsnr" v="406139" />
	</node>
	<node id="-184055" lat="59.8778777769" lon="9.95080832671">
		<tag k="name" v="Bjørndalskollen" />
		<tag k="natural" v="hill" />
		<tag k="place" v="locality" />
		<tag k="ssr:stedsnr" v="405901" />
	</node>
	<node id="-184054" lat="59.88897222" lon="9.9629555532">
		<tag k="name" v="Barlinddalen" />
		<tag k="natural" v="valley" />
		<tag k="place" v="locality" />
		<tag k="ssr:stedsnr" v="405893" />
	</node>
	<node id="-184050" lat="59.9395777761" lon="9.95744166102">
		<tag k="name" v="Hesjedalen" />
		<tag k="natural" v="valley" />
		<tag k="place" v="locality" />
		<tag k="ssr:stedsnr" v="404849" />
	</node>
	<node id="-184049" lat="59.9531305571" lon="9.84412499727">
		<tag k="name" v="Trugulaupdokka" />
		<tag k="natural" v="valley" />
		<tag k="place" v="locality" />
		<tag k="ssr:stedsnr" v="404789" />
	</node>
	<node id="-184043" lat="59.888508336" lon="9.97689722896">
		<tag k="name" v="Åstjernhøgda" />
		<tag k="natural" v="hill" />
		<tag k="place" v="locality" />
		<tag k="ssr:stedsnr" v="404599" />
	</node>
	<node id="-184038" lat="59.9734999987" lon="10.0888444376">
		<tag k="name" v="Søkktjernputten" />
		<tag k="natural" v="slope" />
		<tag k="place" v="locality" />
		<tag k="ssr:stedsnr" v="404068" />
	</node>
	<node id="-184036" lat="59.8938416658" lon="9.87600555656">
		<tag k="fixme" v="consider natural=peak for the most distinct mountains in the district" />
		<tag k="name" v="Rypåsåsen" />
		<tag k="natural" v="hill" />
		<tag k="place" v="locality" />
		<tag k="ssr:stedsnr" v="237441" />
	</node>
	<node id="-184034" lat="59.9246666661" lon="9.79002221721">
		<tag k="name" v="Rådalen" />
		<tag k="natural" v="valley" />
		<tag k="place" v="locality" />
		<tag k="ssr:stedsnr" v="400241" />
	</node>
	<node id="-184032" lat="60.0510833322" lon="9.783886118">
		<tag k="fixme" v="consider natural=peak for the most distinct mountains in the district" />
		<tag k="name" v="Stormyrhøgda" />
		<tag k="natural" v="hill" />
		<tag k="place" v="locality" />
		<tag k="ssr:stedsnr" v="400069" />
	</node>
	<node id="-184018" lat="60.0322083295" lon="9.92332221987">
		<tag k="alt_name" v="Gamlevollåsen" />
		<tag k="name" v="Gammelvollåsen" />
		<tag k="natural" v="hill" />
		<tag k="place" v="locality" />
		<tag k="ssr:stedsnr" v="368958" />
	</node>
	<node id="-184015" lat="59.9257277757" lon="9.79140556349">
		<tag k="fixme" v="consider natural=peak for the most distinct mountains in the district" />
		<tag k="name" v="Røysa" />
		<tag k="natural" v="hill" />
		<tag k="place" v="locality" />
		<tag k="ssr:stedsnr" v="368879" />
	</node>
	<node id="-184010" lat="60.1440500007" lon="9.8812861159">
		<tag k="name" v="Kluftåsen" />
		<tag k="natural" v="hill" />
		<tag k="place" v="locality" />
		<tag k="ssr:stedsnr" v="368829" />
	</node>
	<node id="-184008" lat="59.9554305563" lon="9.94274722632">
		<tag k="name" v="Brunesmoen" />
		<tag k="place" v="locality" />
		<tag k="ssr:stedsnr" v="368803" />
	</node>
	<node id="-184003" lat="59.8789305561" lon="9.84406389116">
		<tag k="name" v="Oredalen" />
		<tag k="natural" v="valley" />
		<tag k="place" v="locality" />
		<tag k="ssr:stedsnr" v="368712" />
	</node>
	<node id="-184002" lat="59.8952499983" lon="9.83127500623">
		<tag k="name" v="Stordalen" />
		<tag k="natural" v="valley" />
		<tag k="place" v="locality" />
		<tag k="ssr:stedsnr" v="368705" />
	</node>
	<node id="-183999" lat="59.971158335" lon="10.2251805619">
		<tag k="name" v="Svartputthaugen" />
		<tag k="natural" v="hill" />
		<tag k="place" v="locality" />
		<tag k="ssr:stedsnr" v="368529" />
	</node>
	<node id="-183998" lat="59.9925361144" lon="10.1176638972">
		<tag k="fixme" v="consider natural=peak for the most distinct mountains in the district" />
		<tag k="name" v="Rognåsen" />
		<tag k="natural" v="hill" />
		<tag k="place" v="locality" />
		<tag k="ssr:stedsnr" v="368497" />
	</node>
	<node id="-183995" lat="59.9802166711" lon="10.2210944451">
		<tag k="alt_name" v="Kjeiåsen" />
		<tag k="fixme" v="consider natural=peak for the most distinct mountains in the district" />
		<tag k="name" v="Keiåsen" />
		<tag k="natural" v="hill" />
		<tag k="place" v="locality" />
		<tag k="ssr:stedsnr" v="368478" />
	</node>
	<node id="-183988" lat="59.9050833353" lon="10.0598055541">
		<tag k="fixme" v="consider natural=peak for the most distinct mountains in the district" />
		<tag k="name" v="Buråsen" />
		<tag k="natural" v="hill" />
		<tag k="place" v="locality" />
		<tag k="ssr:stedsnr" v="368351" />
	</node>
	<node id="-183979" lat="59.948875002" lon="10.0426666607">
		<tag k="fixme" v="consider natural=peak for the most distinct mountains in the district" />
		<tag k="name" v="Disenåsen" />
		<tag k="natural" v="hill" />
		<tag k="place" v="locality" />
		<tag k="ssr:stedsnr" v="367333" />
	</node>
	<node id="-183975" lat="60.0111805532" lon="9.95791388124">
		<tag k="name" v="Fugleleikåsen" />
		<tag k="natural" v="hill" />
		<tag k="place" v="locality" />
		<tag k="ssr:stedsnr" v="369941" />
	</node>
	<node id="-183970" lat="59.973377782" lon="10.2561749981">
		<tag k="alt_name" v="Sververudkollen" />
		<tag k="name" v="Svarverudkollen" />
		<tag k="natural" v="hill" />
		<tag k="place" v="locality" />
		<tag k="ssr:stedsnr" v="362188" />
	</node>
	<node id="-183962" lat="59.9056833317" lon="9.95934445305">
		<tag k="name" v="Lindbråtan" />
		<tag k="natural" v="slope" />
		<tag k="place" v="locality" />
		<tag k="ssr:stedsnr" v="360896" />
	</node>
	<node id="-183959" lat="59.9037916711" lon="9.99974722931">
		<tag k="name" v="Langebruhovet" />
		<tag k="natural" v="slope" />
		<tag k="place" v="locality" />
		<tag k="ssr:stedsnr" v="360603" />
	</node>
	<node id="-183958" lat="59.9399805539" lon="10.0153333351">
		<tag k="fixme" v="consider natural=peak for the most distinct mountains in the district" />
		<tag k="name" v="Kirkeåsen" />
		<tag k="natural" v="hill" />
		<tag k="place" v="locality" />
		<tag k="ssr:stedsnr" v="360523" />
	</node>
	<node id="-183955" lat="59.9420111112" lon="9.99024721936">
		<tag k="name" v="Prestberget" />
		<tag k="natural" v="hill" />
		<tag k="place" v="locality" />
		<tag k="ssr:stedsnr" v="360511" />
	</node>
	<node id="-183952" lat="59.9913888909" lon="9.98962500892">
		<tag k="fixme" v="consider natural=peak for the most distinct mountains in the district" />
		<tag k="name" v="Østengåsen" />
		<tag k="natural" v="hill" />
		<tag k="place" v="locality" />
		<tag k="ssr:stedsnr" v="360433" />
	</node>
	<node id="-183948" lat="60.0021305572" lon="10.1230472144">
		<tag k="name" v="Slettene" />
		<tag k="place" v="locality" />
		<tag k="ssr:stedsnr" v="358982" />
	</node>
	<node id="-183945" lat="59.9885777773" lon="10.096402786">
		<tag k="name" v="Bergsbrenna" />
		<tag k="natural" v="slope" />
		<tag k="place" v="locality" />
		<tag k="ssr:stedsnr" v="358926" />
	</node>
	<node id="-183944" lat="59.9906444408" lon="10.0964361074">
		<tag k="name" v="Åbbortjernåsen" />
		<tag k="natural" v="slope" />
		<tag k="place" v="locality" />
		<tag k="ssr:stedsnr" v="358923" />
	</node>
	<node id="-183932" lat="59.9631138897" lon="10.0850111106">
		<tag k="name" v="Godbekkdalen" />
		<tag k="natural" v="valley" />
		<tag k="place" v="locality" />
		<tag k="ssr:stedsnr" v="345985" />
	</node>
	<node id="-183931" lat="59.9627944465" lon="10.0422499966">
		<tag k="name" v="Hytteåsen" />
		<tag k="natural" v="slope" />
		<tag k="place" v="locality" />
		<tag k="ssr:stedsnr" v="345943" />
	</node>
	<node id="-183926" lat="60.0475111087" lon="9.83654999177">
		<tag k="name" v="Skolehaugen" />
		<tag k="natural" v="hill" />
		<tag k="place" v="locality" />
		<tag k="ssr:stedsnr" v="345678" />
	</node>
	<node id="-183923" lat="60.0125166655" lon="10.1649611053">
		<tag k="fixme" v="consider natural=peak for the most distinct mountains in the district" />
		<tag k="name" v="Dignesåsen" />
		<tag k="natural" v="hill" />
		<tag k="place" v="locality" />
		<tag k="ssr:stedsnr" v="345284" />
	</node>
	<node id="-183912" lat="59.9052055516" lon="10.0376388933">
		<tag k="name" v="Ospelundsbakken" />
		<tag k="natural" v="slope" />
		<tag k="place" v="locality" />
		<tag k="ssr:stedsnr" v="343734" />
	</node>
	<node id="-183910" lat="60.082449998" lon="9.81782500145">
		<tag k="name" v="Tjuvespranget" />
		<tag k="natural" v="gorge" />
		<tag k="ssr:stedsnr" v="343726" />
	</node>
	<node id="-183908" lat="59.9592083327" lon="10.0392916666">
		<tag k="name" v="Bjønnekollen" />
		<tag k="natural" v="hill" />
		<tag k="place" v="locality" />
		<tag k="ssr:stedsnr" v="343669" />
	</node>
	<node id="-183907" lat="59.8627000021" lon="10.0368499968">
		<tag k="name" v="Hundviksdalen" />
		<tag k="natural" v="valley" />
		<tag k="place" v="locality" />
		<tag k="ssr:stedsnr" v="343574" />
	</node>
	<node id="-183904" lat="59.9676416626" lon="10.1064055589">
		<tag k="fixme" v="consider natural=peak for the most distinct mountains in the district" />
		<tag k="name" v="Hesteskotjernåsen" />
		<tag k="natural" v="hill" />
		<tag k="place" v="locality" />
		<tag k="ssr:stedsnr" v="343094" />
	</node>
	<node id="-183898" lat="60.058119444" lon="9.77296111047">
		<tag k="name" v="Baldemyrhaugane" />
		<tag k="natural" v="hill" />
		<tag k="place" v="locality" />
		<tag k="ssr:stedsnr" v="339130" />
	</node>
	<node id="-183890" lat="60.0090388922" lon="10.0105027776">
		<tag k="name" v="Drolsumhaugen" />
		<tag k="natural" v="hill" />
		<tag k="place" v="locality" />
		<tag k="ssr:stedsnr" v="309479" />
	</node>
	<node id="-183883" lat="60.1610833328" lon="9.94490555554">
		<tag k="fixme" v="consider natural=peak for the most distinct mountains in the district" />
		<tag k="name" v="Spira" />
		<tag k="natural" v="hill" />
		<tag k="place" v="locality" />
		<tag k="ssr:stedsnr" v="308764" />
	</node>
	<node id="-183882" lat="59.8679916624" lon="9.88503888264">
		<tag k="alt_name" v="Gruvåsen" />
		<tag k="fixme" v="consider natural=peak for the most distinct mountains in the district" />
		<tag k="name" v="Gruveåsen" />
		<tag k="natural" v="hill" />
		<tag k="place" v="locality" />
		<tag k="ssr:stedsnr" v="308459" />
	</node>
	<node id="-183873" lat="59.9526222241" lon="9.93627222367">
		<tag k="name" v="Kista" />
		<tag k="natural" v="gorge" />
		<tag k="ssr:stedsnr" v="307781" />
	</node>
	<node id="-183865" lat="59.9475222213" lon="10.1059638877">
		<tag k="alt_name" v="Bjønnekollen" />
		<tag k="fixme" v="consider natural=peak for the most distinct mountains in the district" />
		<tag k="name" v="Bjørnkollen" />
		<tag k="natural" v="hill" />
		<tag k="place" v="locality" />
		<tag k="ssr:stedsnr" v="307410" />
	</node>
	<node id="-183853" lat="60.0215388883" lon="9.82087500674">
		<tag k="name" v="Gåsehalsen" />
		<tag k="natural" v="valley" />
		<tag k="place" v="locality" />
		<tag k="ssr:stedsnr" v="301526" />
	</node>
	<node id="-183852" lat="59.9829083348" lon="10.2128250051">
		<tag k="name" v="Stulardalen" />
		<tag k="natural" v="valley" />
		<tag k="place" v="locality" />
		<tag k="ssr:stedsnr" v="301183" />
	</node>
	<node id="-183845" lat="59.978774998" lon="10.0970111088">
		<tag k="name" v="Dronninga" />
		<tag k="natural" v="hill" />
		<tag k="place" v="locality" />
		<tag k="ssr:stedsnr" v="300085" />
	</node>
	<node id="-183843" lat="59.9319750011" lon="10.098541675">
		<tag k="name" v="Lykollen" />
		<tag k="natural" v="hill" />
		<tag k="place" v="locality" />
		<tag k="ssr:stedsnr" v="300037" />
	</node>
	<node id="-183841" lat="60.0468361112" lon="9.98535832751">
		<tag k="name" v="Steinbråtahallen" />
		<tag k="natural" v="slope" />
		<tag k="place" v="locality" />
		<tag k="ssr:stedsnr" v="299195" />
	</node>
	<node id="-183840" lat="59.9867861124" lon="10.1120083336">
		<tag k="name" v="Auretjernsåsen" />
		<tag k="natural" v="slope" />
		<tag k="place" v="locality" />
		<tag k="ssr:stedsnr" v="298964" />
	</node>
	<node id="-183839" lat="59.9967055556" lon="10.0951111141">
		<tag k="name" v="Solberghovet" />
		<tag k="natural" v="hill" />
		<tag k="place" v="locality" />
		<tag k="ssr:stedsnr" v="298933" />
	</node>
	<node id="-183836" lat="60.0073388883" lon="9.96144445269">
		<tag k="fixme" v="consider natural=peak for the most distinct mountains in the district" />
		<tag k="name" v="Høgås" />
		<tag k="natural" v="hill" />
		<tag k="place" v="locality" />
		<tag k="ssr:stedsnr" v="298335" />
	</node>
	<node id="-183835" lat="60.001336109" lon="9.92289999238">
		<tag k="name" v="Fugledokka" />
		<tag k="natural" v="valley" />
		<tag k="place" v="locality" />
		<tag k="ssr:stedsnr" v="298319" />
	</node>
	<node id="-183833" lat="60.1129111111" lon="9.86120000841">
		<tag k="name" v="Bakkevoll" />
		<tag k="natural" v="hill" />
		<tag k="place" v="locality" />
		<tag k="ssr:stedsnr" v="298054" />
	</node>
	<node id="-183829" lat="59.9783111079" lon="10.0747749934">
		<tag k="name" v="Djupengrop" />
		<tag k="natural" v="valley" />
		<tag k="place" v="locality" />
		<tag k="ssr:stedsnr" v="285999" />
	</node>
	<node id="-183827" lat="60.0524833313" lon="9.96478611654">
		<tag k="fixme" v="consider natural=peak for the most distinct mountains in the district" />
		<tag k="name" v="Justadåsen" />
		<tag k="natural" v="hill" />
		<tag k="place" v="locality" />
		<tag k="ssr:stedsnr" v="285724" />
	</node>
	<node id="-183826" lat="60.0768361131" lon="9.92976945095">
		<tag k="name" v="Bukkedalen" />
		<tag k="natural" v="valley" />
		<tag k="place" v="locality" />
		<tag k="ssr:stedsnr" v="285633" />
	</node>
	<node id="-183821" lat="60.0021805568" lon="10.1768611078">
		<tag k="name" v="Slettåsen" />
		<tag k="natural" v="slope" />
		<tag k="place" v="locality" />
		<tag k="ssr:stedsnr" v="285266" />
	</node>
	<node id="-183820" lat="60.0710722256" lon="9.8645111132">
		<tag k="name" v="Brattkleiv" />
		<tag k="natural" v="slope" />
		<tag k="place" v="locality" />
		<tag k="ssr:stedsnr" v="285124" />
	</node>
	<node id="-183819" lat="59.9542805592" lon="9.75496945159">
		<tag k="name" v="Orehølet" />
		<tag k="place" v="locality" />
		<tag k="ssr:stedsnr" v="285065" />
	</node>
	<node id="-183817" lat="59.9948222197" lon="10.2002111113">
		<tag k="name" v="Korpefjell" />
		<tag k="natural" v="slope" />
		<tag k="place" v="locality" />
		<tag k="ssr:stedsnr" v="285265" />
	</node>
	<node id="-183813" lat="60.0859888846" lon="9.83214999684">
		<tag k="name" v="Ramfossdalen" />
		<tag k="natural" v="valley" />
		<tag k="place" v="locality" />
		<tag k="ssr:stedsnr" v="283682" />
	</node>
	<node id="-183812" lat="60.0842166657" lon="9.80228333048">
		<tag k="name" v="Rognedalene" />
		<tag k="natural" v="valley" />
		<tag k="place" v="locality" />
		<tag k="ssr:stedsnr" v="283680" />
	</node>
	<node id="-183806" lat="59.8890583339" lon="9.82698888177">
		<tag k="name" v="Tømmerdalen" />
		<tag k="natural" v="valley" />
		<tag k="place" v="locality" />
		<tag k="ssr:stedsnr" v="283283" />
	</node>
	<node id="-183801" lat="59.9952416668" lon="9.83903055664">
		<tag k="name" v="Småmyrbakken" />
		<tag k="natural" v="slope" />
		<tag k="place" v="locality" />
		<tag k="ssr:stedsnr" v="282489" />
	</node>
	<node id="-183797" lat="60.0660305545" lon="9.76242778609">
		<tag k="fixme" v="consider natural=peak for the most distinct mountains in the district" />
		<tag k="name" v="Lønndalsåsen" />
		<tag k="natural" v="hill" />
		<tag k="place" v="locality" />
		<tag k="ssr:stedsnr" v="279110" />
	</node>
	<node id="-185798" lat="59.9670567528" lon="10.1330838577">
		<tag k="fixme" v="consider natural=peak for the most distinct mountains in the district" />
		<tag k="name" v="Lauvkollen" />
		<tag k="natural" v="hill" />
		<tag k="ssr:stedsnr" v="978178" />
	</node>
	<node id="-185774" lat="60.0459999984" lon="9.89164721337">
		<tag k="name" v="Grandalen" />
		<tag k="natural" v="valley" />
		<tag k="place" v="locality" />
		<tag k="ssr:stedsnr" v="969071" />
	</node>
	<node id="-185763" lat="59.8978916647" lon="10.0231638949">
		<tag k="name" v="Gundhusdal" />
		<tag k="natural" v="valley" />
		<tag k="place" v="locality" />
		<tag k="ssr:stedsnr" v="967586" />
	</node>
	<node id="-185762" lat="59.8846583358" lon="9.99222221634">
		<tag k="name" v="Bukkekleiva" />
		<tag k="natural" v="slope" />
		<tag k="place" v="locality" />
		<tag k="ssr:stedsnr" v="967577" />
	</node>
	<node id="-185756" lat="59.9703388882" lon="10.1586055603">
		<tag k="name" v="Andtjernflaket" />
		<tag k="place" v="locality" />
		<tag k="ssr:stedsnr" v="967092" />
	</node>
	<node id="-185746" lat="60.1190416653" lon="9.87938889112">
		<tag k="fixme" v="consider natural=peak for the most distinct mountains in the district" />
		<tag k="name" v="Skolandsåsen" />
		<tag k="natural" v="hill" />
		<tag k="place" v="locality" />
		<tag k="ssr:stedsnr" v="965061" />
	</node>
	<node id="-185739" lat="59.9436944427" lon="9.89151389322">
		<tag k="name" v="Postkummoen" />
		<tag k="place" v="locality" />
		<tag k="ssr:stedsnr" v="952856" />
	</node>
	<node id="-185738" lat="59.9409611143" lon="9.8893805525">
		<tag k="name" v="Kolbergmoen" />
		<tag k="place" v="locality" />
		<tag k="ssr:stedsnr" v="952854" />
	</node>
	<node id="-185737" lat="59.9531138877" lon="9.82526945286">
		<tag k="name" v="Gunnarsbråten" />
		<tag k="natural" v="slope" />
		<tag k="place" v="locality" />
		<tag k="ssr:stedsnr" v="952844" />
	</node>
	<node id="-185736" lat="59.9787916628" lon="9.86953888394">
		<tag k="name" v="Raukollen" />
		<tag k="natural" v="hill" />
		<tag k="place" v="locality" />
		<tag k="ssr:stedsnr" v="952806" />
	</node>
	<node id="-185733" lat="60.0534249968" lon="9.82543888368">
		<tag k="name" v="Heggebekk-kollen" />
		<tag k="place" v="locality" />
		<tag k="ssr:stedsnr" v="952682" />
	</node>
	<node id="-185732" lat="60.0517694403" lon="9.83333334212">
		<tag k="name" v="Fjøshaugen" />
		<tag k="natural" v="hill" />
		<tag k="place" v="locality" />
		<tag k="ssr:stedsnr" v="952672" />
	</node>
	<node id="-185730" lat="60.065600002" lon="9.89210554686">
		<tag k="fixme" v="consider natural=peak for the most distinct mountains in the district" />
		<tag k="name" v="Geitåskollen" />
		<tag k="natural" v="hill" />
		<tag k="place" v="locality" />
		<tag k="ssr:stedsnr" v="952150" />
	</node>
	<node id="-185725" lat="59.9729222245" lon="9.89686667347">
		<tag k="fixme" v="consider natural=peak for the most distinct mountains in the district" />
		<tag k="name" v="Sulusåsen" />
		<tag k="natural" v="hill" />
		<tag k="place" v="locality" />
		<tag k="ssr:stedsnr" v="950912" />
	</node>
	<node id="-185720" lat="59.9460250025" lon="10.0427805516">
		<tag k="name" v="Stormyrhaugane" />
		<tag k="natural" v="hill" />
		<tag k="place" v="locality" />
		<tag k="ssr:stedsnr" v="950648" />
	</node>
	<node id="-185719" lat="59.9413499983" lon="10.081366673">
		<tag k="name" v="Disenkollen" />
		<tag k="natural" v="hill" />
		<tag k="place" v="locality" />
		<tag k="ssr:stedsnr" v="950638" />
	</node>
	<node id="-185718" lat="59.9265861111" lon="10.0659111119">
		<tag k="name" v="Hovlandsvarden" />
		<tag k="natural" v="hill" />
		<tag k="place" v="locality" />
		<tag k="ssr:stedsnr" v="950634" />
	</node>
	<node id="-185717" lat="59.953008335" lon="10.0465083247">
		<tag k="name" v="Heggesjødalen" />
		<tag k="natural" v="valley" />
		<tag k="place" v="locality" />
		<tag k="ssr:stedsnr" v="950612" />
	</node>
	<node id="-185715" lat="59.9933305582" lon="9.83426666678">
		<tag k="name" v="Grevlinghiet" />
		<tag k="natural" v="hill" />
		<tag k="place" v="locality" />
		<tag k="ssr:stedsnr" v="950498" />
	</node>
	<node id="-185710" lat="59.9707000022" lon="10.2685944384">
		<tag k="fixme" v="consider natural=peak for the most distinct mountains in the district" />
		<tag k="name" v="Kusandåsen" />
		<tag k="natural" v="hill" />
		<tag k="place" v="locality" />
		<tag k="ssr:stedsnr" v="937344" />
	</node>
	<node id="-185704" lat="60.0128500017" lon="9.83580278413">
		<tag k="name" v="Høgås" />
		<tag k="natural" v="hill" />
		<tag k="place" v="locality" />
		<tag k="ssr:stedsnr" v="915959" />
	</node>
	<node id="-185702" lat="60.0235749969" lon="9.84172499325">
		<tag k="name" v="Knatten" />
		<tag k="natural" v="hill" />
		<tag k="place" v="locality" />
		<tag k="ssr:stedsnr" v="915939" />
	</node>
	<node id="-185698" lat="60.141925001" lon="9.92680556387">
		<tag k="name" v="Gørbuåsen" />
		<tag k="natural" v="hill" />
		<tag k="place" v="locality" />
		<tag k="ssr:stedsnr" v="915797" />
	</node>
	<node id="-185686" lat="59.9308555525" lon="9.72704443628">
		<tag k="name" v="Stortjernhaugen" />
		<tag k="natural" v="hill" />
		<tag k="place" v="locality" />
		<tag k="ssr:stedsnr" v="914870" />
	</node>
	<node id="-185677" lat="59.9604722235" lon="9.86250554951">
		<tag k="fixme" v="consider natural=peak for the most distinct mountains in the district" />
		<tag k="name" v="Hoggvarden" />
		<tag k="natural" v="hill" />
		<tag k="place" v="locality" />
		<tag k="ssr:stedsnr" v="914772" />
	</node>
	<node id="-185670" lat="59.9724527791" lon="10.1776805494">
		<tag k="fixme" v="consider natural=peak for the most distinct mountains in the district" />
		<tag k="name" v="Korpåsen" />
		<tag k="natural" v="hill" />
		<tag k="place" v="locality" />
		<tag k="ssr:stedsnr" v="914514" />
	</node>
	<node id="-185667" lat="59.9626611141" lon="10.1965194519">
		<tag k="fixme" v="consider natural=peak for the most distinct mountains in the district" />
		<tag k="name" v="Hyttesteinåsen" />
		<tag k="natural" v="hill" />
		<tag k="place" v="locality" />
		<tag k="ssr:stedsnr" v="914492" />
	</node>
	<node id="-185662" lat="59.9131999987" lon="10.013755557">
		<tag k="name" v="Digerhaug" />
		<tag k="natural" v="hill" />
		<tag k="place" v="locality" />
		<tag k="ssr:stedsnr" v="914417" />
	</node>
	<node id="-185645" lat="59.9866083354" lon="9.87270277383">
		<tag k="fixme" v="consider natural=peak for the most distinct mountains in the district" />
		<tag k="name" v="Knatten" />
		<tag k="natural" v="hill" />
		<tag k="place" v="locality" />
		<tag k="ssr:stedsnr" v="908369" />
	</node>
	<node id="-185642" lat="59.9769027744" lon="10.2165472259">
		<tag k="name" v="Brentåslyst" />
		<tag k="natural" v="hill" />
		<tag k="place" v="locality" />
		<tag k="ssr:stedsnr" v="908184" />
	</node>
	<node id="-185636" lat="59.9669861116" lon="9.96074167236">
		<tag k="name" v="Haraldsrudmoen" />
		<tag k="place" v="locality" />
		<tag k="ssr:stedsnr" v="907823" />
	</node>
	<node id="-185621" lat="60.0025055524" lon="9.95549445189">
		<tag k="fixme" v="consider natural=peak for the most distinct mountains in the district" />
		<tag k="name" v="Feåsen" />
		<tag k="natural" v="hill" />
		<tag k="place" v="locality" />
		<tag k="ssr:stedsnr" v="905353" />
	</node>
	<node id="-185619" lat="60.0118250014" lon="9.95450833078">
		<tag k="name" v="Fugleleikmyra" />
		<tag k="natural" v="valley" />
		<tag k="place" v="locality" />
		<tag k="ssr:stedsnr" v="905299" />
	</node>
	<node id="-185613" lat="60.0735111132" lon="9.77830277107">
		<tag k="name" v="Brennåsen" />
		<tag k="natural" v="hill" />
		<tag k="place" v="locality" />
		<tag k="ssr:stedsnr" v="855885" />
	</node>
	<node id="-185611" lat="60.0933750013" lon="9.90560554934">
		<tag k="name" v="Padderud" />
		<tag k="place" v="locality" />
		<tag k="ssr:stedsnr" v="855868" />
	</node>
	<node id="-185608" lat="60.030497218" lon="9.93623889585">
		<tag k="alt_name" v="Seteråsen" />
		<tag k="fixme" v="consider natural=peak for the most distinct mountains in the district" />
		<tag k="name" v="Sæteråsen" />
		<tag k="natural" v="hill" />
		<tag k="place" v="locality" />
		<tag k="ssr:stedsnr" v="855415" />
	</node>
	<node id="-185598" lat="60.0638250021" lon="9.95098611304">
		<tag k="name" v="Gravermofjellet" />
		<tag k="natural" v="hill" />
		<tag k="place" v="locality" />
		<tag k="ssr:stedsnr" v="854877" />
	</node>
	<node id="-185594" lat="60.1024583338" lon="9.84596388709">
		<tag k="name" v="Høgfjell" />
		<tag k="natural" v="hill" />
		<tag k="place" v="locality" />
		<tag k="ssr:stedsnr" v="854827" />
	</node>
	<node id="-185587" lat="59.8806194487" lon="9.88501666032">
		<tag k="alt_name" v="Bakkåsen" />
		<tag k="fixme" v="consider natural=peak for the most distinct mountains in the district" />
		<tag k="name" v="Bakåsen" />
		<tag k="natural" v="hill" />
		<tag k="place" v="locality" />
		<tag k="ssr:stedsnr" v="854614" />
	</node>
	<node id="-185582" lat="59.922449999" lon="10.0445888917">
		<tag k="name" v="Flaget" />
		<tag k="natural" v="hill" />
		<tag k="place" v="locality" />
		<tag k="ssr:stedsnr" v="854418" />
	</node>
	<node id="-185581" lat="59.9153861115" lon="10.0289333398">
		<tag k="name" v="Haugane" />
		<tag k="natural" v="hill" />
		<tag k="place" v="locality" />
		<tag k="ssr:stedsnr" v="854404" />
	</node>
	<node id="-185578" lat="59.8847611088" lon="10.0487027715">
		<tag k="name" v="Finnemarka" />
		<tag k="natural" v="wood" />
		<tag k="ssr:stedsnr" v="854346" />
	</node>
	<node id="-185570" lat="59.9187777821" lon="9.75618610964">
		<tag k="fixme" v="consider natural=peak for the most distinct mountains in the district" />
		<tag k="name" v="Libergsknatten" />
		<tag k="natural" v="hill" />
		<tag k="place" v="locality" />
		<tag k="ssr:stedsnr" v="853831" />
	</node>
	<node id="-185556" lat="59.9321999981" lon="9.87946666037">
		<tag k="name" v="Brustigåsen" />
		<tag k="natural" v="hill" />
		<tag k="place" v="locality" />
		<tag k="ssr:stedsnr" v="848150" />
	</node>
	<node id="-185554" lat="59.9740444427" lon="10.2397888913">
		<tag k="name" v="Mårhyttedalen" />
		<tag k="natural" v="slope" />
		<tag k="place" v="locality" />
		<tag k="ssr:stedsnr" v="848206" />
	</node>
	<node id="-185550" lat="59.9291166648" lon="9.93078611913">
		<tag k="name" v="Jelstaddalen" />
		<tag k="natural" v="valley" />
		<tag k="place" v="locality" />
		<tag k="ssr:stedsnr" v="846744" />
	</node>
	<node id="-185548" lat="59.8861250042" lon="10.0211944436">
		<tag k="name" v="Mørkomberga" />
		<tag k="natural" v="hill" />
		<tag k="place" v="locality" />
		<tag k="ssr:stedsnr" v="846605" />
	</node>
	<node id="-185546" lat="59.9302916629" lon="10.0056805579">
		<tag k="name" v="Kalvedalen" />
		<tag k="natural" v="valley" />
		<tag k="place" v="locality" />
		<tag k="ssr:stedsnr" v="846537" />
	</node>
	<node id="-185542" lat="59.9783416701" lon="10.1554083265">
		<tag k="name" v="Bergskorta" />
		<tag k="place" v="locality" />
		<tag k="ssr:stedsnr" v="846102" />
	</node>
	<node id="-185540" lat="59.9911083298" lon="10.0812499977">
		<tag k="name" v="Brumyrhaugen" />
		<tag k="natural" v="hill" />
		<tag k="place" v="locality" />
		<tag k="ssr:stedsnr" v="844855" />
	</node>
	<node id="-185539" lat="59.8919333294" lon="9.86321110637">
		<tag k="name" v="Djupdal" />
		<tag k="natural" v="valley" />
		<tag k="place" v="locality" />
		<tag k="ssr:stedsnr" v="844422" />
	</node>
	<node id="-185538" lat="60.020433336" lon="9.9436694379">
		<tag k="fixme" v="consider natural=peak for the most distinct mountains in the district" />
		<tag k="name" v="Mosemyråsen" />
		<tag k="natural" v="hill" />
		<tag k="place" v="locality" />
		<tag k="ssr:stedsnr" v="844289" />
	</node>
	<node id="-185534" lat="59.9462611089" lon="9.85211111135">
		<tag k="fixme" v="consider natural=peak for the most distinct mountains in the district" />
		<tag k="name" v="Engåsen" />
		<tag k="natural" v="hill" />
		<tag k="place" v="locality" />
		<tag k="ssr:stedsnr" v="847809" />
	</node>
	<node id="-185528" lat="59.9513777785" lon="9.91295277582">
		<tag k="name" v="Amundrudåsen" />
		<tag k="natural" v="hill" />
		<tag k="place" v="locality" />
		<tag k="ssr:stedsnr" v="831862" />
	</node>
	<node id="-185527" lat="59.9391027809" lon="9.88412500208">
		<tag k="name" v="Skreibråtan" />
		<tag k="natural" v="slope" />
		<tag k="place" v="locality" />
		<tag k="ssr:stedsnr" v="831853" />
	</node>
	<node id="-185525" lat="59.9551111098" lon="9.87916111521">
		<tag k="name" v="Trehjørningen" />
		<tag k="natural" v="hill" />
		<tag k="place" v="locality" />
		<tag k="ssr:stedsnr" v="831845" />
	</node>
	<node id="-185521" lat="59.9989055531" lon="10.1469833268">
		<tag k="fixme" v="consider natural=peak for the most distinct mountains in the district" />
		<tag k="name" v="Dompåsen" />
		<tag k="natural" v="hill" />
		<tag k="place" v="locality" />
		<tag k="ssr:stedsnr" v="831264" />
	</node>
	<node id="-185520" lat="59.9977638929" lon="10.1666277854">
		<tag k="name" v="Fossberget" />
		<tag k="natural" v="slope" />
		<tag k="place" v="locality" />
		<tag k="ssr:stedsnr" v="831263" />
	</node>
	<node id="-185508" lat="59.9439944449" lon="10.0360750001">
		<tag k="name" v="Lindebergsåsen" />
		<tag k="natural" v="slope" />
		<tag k="place" v="locality" />
		<tag k="ssr:stedsnr" v="829675" />
	</node>
	<node id="-185504" lat="60.0536888889" lon="9.82048889568">
		<tag k="fixme" v="consider natural=peak for the most distinct mountains in the district" />
		<tag k="name" v="Steinbrøttåsen" />
		<tag k="natural" v="hill" />
		<tag k="place" v="locality" />
		<tag k="ssr:stedsnr" v="831662" />
	</node>
	<node id="-185502" lat="60.0061416645" lon="10.1082472293">
		<tag k="name" v="Svendsbråtamoen" />
		<tag k="place" v="locality" />
		<tag k="ssr:stedsnr" v="829613" />
	</node>
	<node id="-185501" lat="59.8906888882" lon="9.9014416653">
		<tag k="fixme" v="consider natural=peak for the most distinct mountains in the district" />
		<tag k="name" v="Ebbesåsen" />
		<tag k="natural" v="hill" />
		<tag k="place" v="locality" />
		<tag k="ssr:stedsnr" v="829105" />
	</node>
	<node id="-185495" lat="60.06662778" lon="9.7919611105">
		<tag k="name" v="Bråtan" />
		<tag k="natural" v="slope" />
		<tag k="place" v="locality" />
		<tag k="ssr:stedsnr" v="825069" />
	</node>
	<node id="-185491" lat="60.074963885" lon="9.80576110729">
		<tag k="alt_name" v="Ødegårdsåsen" />
		<tag k="fixme" v="consider natural=peak for the most distinct mountains in the district" />
		<tag k="name" v="Øgardsåsen" />
		<tag k="natural" v="hill" />
		<tag k="place" v="locality" />
		<tag k="ssr:stedsnr" v="794868" />
	</node>
	<node id="-185480" lat="60.0301749999" lon="9.82514999971">
		<tag k="fixme" v="consider natural=peak for the most distinct mountains in the district" />
		<tag k="name" v="Døviken" />
		<tag k="natural" v="hill" />
		<tag k="place" v="locality" />
		<tag k="ssr:stedsnr" v="793940" />
	</node>
	<node id="-185476" lat="60.051002779" lon="9.94762500066">
		<tag k="name" v="Brennåsen" />
		<tag k="natural" v="hill" />
		<tag k="place" v="locality" />
		<tag k="ssr:stedsnr" v="793922" />
	</node>
	<node id="-185475" lat="60.0397361094" lon="9.91878333592">
		<tag k="alt_name" v="Horntjernsåsen" />
		<tag k="fixme" v="consider natural=peak for the most distinct mountains in the district" />
		<tag k="name" v="Hornetjernåsen" />
		<tag k="natural" v="hill" />
		<tag k="place" v="locality" />
		<tag k="ssr:stedsnr" v="793921" />
	</node>
	<node id="-185472" lat="60.0740305543" lon="9.92680277728">
		<tag k="alt_name" v="Stupella" />
		<tag k="name" v="Stuphella" />
		<tag k="natural" v="hill" />
		<tag k="place" v="locality" />
		<tag k="ssr:stedsnr" v="793877" />
	</node>
	<node id="-185463" lat="60.1521749997" lon="9.88870556407">
		<tag k="fixme" v="consider natural=peak for the most distinct mountains in the district" />
		<tag k="name" v="Kartås" />
		<tag k="natural" v="hill" />
		<tag k="place" v="locality" />
		<tag k="ssr:stedsnr" v="793801" />
	</node>
	<node id="-185462" lat="59.9454250012" lon="9.94702221492">
		<tag k="name" v="Kjølstadmoen" />
		<tag k="place" v="locality" />
		<tag k="ssr:stedsnr" v="793785" />
	</node>
	<node id="-185437" lat="59.9688083335" lon="9.9497055509">
		<tag k="name" v="Kaggestadmoen" />
		<tag k="place" v="locality" />
		<tag k="ssr:stedsnr" v="786890" />
	</node>
	<node id="-185434" lat="59.9398583299" lon="9.85500832576">
		<tag k="name" v="Brudalen" />
		<tag k="natural" v="valley" />
		<tag k="place" v="locality" />
		<tag k="ssr:stedsnr" v="786804" />
	</node>
	<node id="-185433" lat="60.0134861068" lon="9.82632499899">
		<tag k="fixme" v="consider natural=peak for the most distinct mountains in the district" />
		<tag k="name" v="Heståsen" />
		<tag k="natural" v="hill" />
		<tag k="place" v="locality" />
		<tag k="ssr:stedsnr" v="786540" />
	</node>
	<node id="-185429" lat="59.9031749967" lon="9.96434999194">
		<tag k="name" v="Brattfjell" />
		<tag k="natural" v="slope" />
		<tag k="place" v="locality" />
		<tag k="ssr:stedsnr" v="785920" />
	</node>
	<node id="-185421" lat="60.0551222253" lon="9.99282499769">
		<tag k="fixme" v="consider natural=peak for the most distinct mountains in the district" />
		<tag k="name" v="Evjesåsen" />
		<tag k="natural" v="hill" />
		<tag k="place" v="locality" />
		<tag k="ssr:stedsnr" v="785182" />
	</node>
	<node id="-185418" lat="59.9491194423" lon="10.127161112">
		<tag k="fixme" v="consider natural=peak for the most distinct mountains in the district" />
		<tag k="name" v="Bomleåsen" />
		<tag k="natural" v="hill" />
		<tag k="place" v="locality" />
		<tag k="ssr:stedsnr" v="785046" />
	</node>
	<node id="-185415" lat="59.905947223" lon="10.1032416594">
		<tag k="fixme" v="consider natural=peak for the most distinct mountains in the district" />
		<tag k="name" v="Høgbrenna" />
		<tag k="natural" v="hill" />
		<tag k="place" v="locality" />
		<tag k="ssr:stedsnr" v="785009" />
	</node>
	<node id="-185414" lat="59.9955361124" lon="10.1180194375">
		<tag k="name" v="Rognåskollen" />
		<tag k="natural" v="hill" />
		<tag k="place" v="locality" />
		<tag k="ssr:stedsnr" v="783957" />
	</node>
	<node id="-185413" lat="59.9858583343" lon="10.0810416579">
		<tag k="name" v="Kleiva" />
		<tag k="natural" v="slope" />
		<tag k="place" v="locality" />
		<tag k="ssr:stedsnr" v="783870" />
	</node>
	<node id="-185410" lat="60.1562222227" lon="9.94137777337">
		<tag k="fixme" v="consider natural=peak for the most distinct mountains in the district" />
		<tag k="name" v="Kluftåsen" />
		<tag k="natural" v="hill" />
		<tag k="place" v="locality" />
		<tag k="ssr:stedsnr" v="783540" />
	</node>
	<node id="-185403" lat="59.9262138878" lon="10.0138833309">
		<tag k="fixme" v="consider natural=peak for the most distinct mountains in the district" />
		<tag k="name" v="Taraldåsen" />
		<tag k="natural" v="hill" />
		<tag k="place" v="locality" />
		<tag k="ssr:stedsnr" v="793462" />
	</node>
	<node id="-185396" lat="60.0615888886" lon="9.81511666205">
		<tag k="name" v="Kvernhusmoen" />
		<tag k="place" v="locality" />
		<tag k="ssr:stedsnr" v="770693" />
	</node>
	<node id="-185393" lat="59.9924777821" lon="10.1540749949">
		<tag k="fixme" v="consider natural=peak for the most distinct mountains in the district" />
		<tag k="name" v="Seteråsen" />
		<tag k="natural" v="hill" />
		<tag k="place" v="locality" />
		<tag k="ssr:stedsnr" v="770260" />
	</node>
	<node id="-185392" lat="59.999144442" lon="10.1750694441">
		<tag k="name" v="Kastbråtan" />
		<tag k="natural" v="slope" />
		<tag k="place" v="locality" />
		<tag k="ssr:stedsnr" v="770258" />
	</node>
	<node id="-185390" lat="60.0733194409" lon="9.90437221625">
		<tag k="fixme" v="consider natural=peak for the most distinct mountains in the district" />
		<tag k="name" v="Stillingsåsen" />
		<tag k="natural" v="hill" />
		<tag k="place" v="locality" />
		<tag k="ssr:stedsnr" v="770108" />
	</node>
	<node id="-185387" lat="59.9560555587" lon="9.89746667203">
		<tag k="fixme" v="consider natural=peak for the most distinct mountains in the district" />
		<tag k="name" v="Høgåsen" />
		<tag k="natural" v="hill" />
		<tag k="place" v="locality" />
		<tag k="ssr:stedsnr" v="769854" />
	</node>
	<node id="-185381" lat="59.9105444446" lon="10.0427750027">
		<tag k="name" v="Midttjernbakkene" />
		<tag k="natural" v="slope" />
		<tag k="place" v="locality" />
		<tag k="ssr:stedsnr" v="768686" />
	</node>
	<node id="-185380" lat="59.9548555566" lon="10.0559499961">
		<tag k="name" v="Seterkollen" />
		<tag k="natural" v="hill" />
		<tag k="place" v="locality" />
		<tag k="ssr:stedsnr" v="768667" />
	</node>
	<node id="-185370" lat="59.9717777771" lon="10.0895777779">
		<tag k="name" v="Gamlevollshullet" />
		<tag k="natural" v="valley" />
		<tag k="place" v="locality" />
		<tag k="ssr:stedsnr" v="768081" />
	</node>
	<node id="-185368" lat="60.0486583305" lon="9.77807778272">
		<tag k="name" v="Hukåsen" />
		<tag k="natural" v="hill" />
		<tag k="place" v="locality" />
		<tag k="ssr:stedsnr" v="764106" />
	</node>
	<node id="-185366" lat="60.0525805577" lon="9.79490833581">
		<tag k="fixme" v="consider natural=peak for the most distinct mountains in the district" />
		<tag k="name" v="Stillingsåsen" />
		<tag k="natural" v="hill" />
		<tag k="place" v="locality" />
		<tag k="ssr:stedsnr" v="764067" />
	</node>
	<node id="-185364" lat="59.8513138886" lon="9.89066388399">
		<tag k="fixme" v="consider natural=peak for the most distinct mountains in the district" />
		<tag k="name" v="Kopperudåsen" />
		<tag k="natural" v="hill" />
		<tag k="place" v="locality" />
		<tag k="ssr:stedsnr" v="754595" />
	</node>
	<node id="-185358" lat="60.0811638901" lon="9.78085556208">
		<tag k="alt_name" v="Grasås" />
		<tag k="name" v="Grasåsen" />
		<tag k="natural" v="hill" />
		<tag k="place" v="locality" />
		<tag k="ssr:stedsnr" v="733869" />
	</node>
	<node id="-185357" lat="60.0997500017" lon="9.92085277018">
		<tag k="fixme" v="consider natural=peak for the most distinct mountains in the district" />
		<tag k="name" v="Moingshauken" />
		<tag k="natural" v="hill" />
		<tag k="place" v="locality" />
		<tag k="ssr:stedsnr" v="733843" />
	</node>
	<node id="-185356" lat="60.0991611113" lon="9.89968333785">
		<tag k="fixme" v="consider natural=peak for the most distinct mountains in the district" />
		<tag k="name" v="Snarumshauken" />
		<tag k="natural" v="hill" />
		<tag k="place" v="locality" />
		<tag k="ssr:stedsnr" v="733842" />
	</node>
	<node id="-185354" lat="60.1128083316" lon="9.89309443849">
		<tag k="name" v="Tutholåsen" />
		<tag k="natural" v="hill" />
		<tag k="place" v="locality" />
		<tag k="ssr:stedsnr" v="733812" />
	</node>
	<node id="-185349" lat="60.0365916628" lon="10.0398361163">
		<tag k="fixme" v="consider natural=peak for the most distinct mountains in the district" />
		<tag k="name" v="Fjellsåsen" />
		<tag k="natural" v="hill" />
		<tag k="place" v="locality" />
		<tag k="ssr:stedsnr" v="733303" />
	</node>
	<node id="-185331" lat="59.9769416636" lon="10.2441083383">
		<tag k="name" v="Eikværingen" />
		<tag k="natural" v="hill" />
		<tag k="place" v="locality" />
		<tag k="ssr:stedsnr" v="732534" />
	</node>
	<node id="-185327" lat="59.8870777734" lon="9.99892221972">
		<tag k="fixme" v="consider natural=peak for the most distinct mountains in the district" />
		<tag k="name" v="Finnebrenna" />
		<tag k="natural" v="hill" />
		<tag k="place" v="locality" />
		<tag k="ssr:stedsnr" v="732374" />
	</node>
	<node id="-185317" lat="59.9998249971" lon="10.0493499913">
		<tag k="name" v="Ullhaugtoppen" />
		<tag k="natural" v="hill" />
		<tag k="place" v="locality" />
		<tag k="ssr:stedsnr" v="726812" />
	</node>
	<node id="-185314" lat="59.9907444469" lon="9.86646389328">
		<tag k="fixme" v="consider natural=peak for the most distinct mountains in the district" />
		<tag k="name" v="Middagskollen" />
		<tag k="natural" v="hill" />
		<tag k="place" v="locality" />
		<tag k="ssr:stedsnr" v="726385" />
	</node>
	<node id="-185312" lat="59.9762361116" lon="10.214605563">
		<tag k="name" v="Tømmermyrdalen" />
		<tag k="natural" v="valley" />
		<tag k="place" v="locality" />
		<tag k="ssr:stedsnr" v="726196" />
	</node>
	<node id="-185304" lat="59.9583999967" lon="9.86246944172">
		<tag k="name" v="Hoggbrekka" />
		<tag k="natural" v="slope" />
		<tag k="place" v="locality" />
		<tag k="ssr:stedsnr" v="725785" />
	</node>
	<node id="-185303" lat="59.9560222235" lon="9.86904999898">
		<tag k="name" v="Hogghaugen" />
		<tag k="natural" v="hill" />
		<tag k="place" v="locality" />
		<tag k="ssr:stedsnr" v="725780" />
	</node>
	<node id="-185302" lat="59.8743361079" lon="10.0258333262">
		<tag k="name" v="Jøslia" />
		<tag k="natural" v="slope" />
		<tag k="place" v="locality" />
		<tag k="ssr:stedsnr" v="725561" />
	</node>
	<node id="-185299" lat="59.9765444459" lon="10.1596277853">
		<tag k="name" v="Plommetjerndalen" />
		<tag k="natural" v="valley" />
		<tag k="place" v="locality" />
		<tag k="ssr:stedsnr" v="725109" />
	</node>
	<node id="-185298" lat="59.9618499978" lon="10.1678722133">
		<tag k="fixme" v="consider natural=peak for the most distinct mountains in the district" />
		<tag k="name" v="Snøkollen" />
		<tag k="natural" v="hill" />
		<tag k="place" v="locality" />
		<tag k="ssr:stedsnr" v="725106" />
	</node>
	<node id="-185287" lat="60.1152833339" lon="9.87059999169">
		<tag k="fixme" v="consider natural=peak for the most distinct mountains in the district" />
		<tag k="name" v="Lysvannsåsen" />
		<tag k="natural" v="hill" />
		<tag k="place" v="locality" />
		<tag k="ssr:stedsnr" v="723050" />
	</node>
	<node id="-185284" lat="59.9819944486" lon="10.1390500023">
		<tag k="fixme" v="consider natural=peak for the most distinct mountains in the district" />
		<tag k="name" v="Sandtjernåsen" />
		<tag k="natural" v="hill" />
		<tag k="place" v="locality" />
		<tag k="ssr:stedsnr" v="722983" />
	</node>
	<node id="-185281" lat="60.0007805523" lon="10.097613892">
		<tag k="name" v="Lyarhaugen" />
		<tag k="natural" v="slope" />
		<tag k="place" v="locality" />
		<tag k="ssr:stedsnr" v="722958" />
	</node>
	<node id="-185271" lat="59.945644441" lon="9.86303332749">
		<tag k="fixme" v="consider natural=peak for the most distinct mountains in the district" />
		<tag k="name" v="Vestre Tingelstadtjernås" />
		<tag k="natural" v="hill" />
		<tag k="place" v="locality" />
		<tag k="ssr:stedsnr" v="709872" />
	</node>
	<node id="-185270" lat="59.9615805569" lon="9.86049166929">
		<tag k="name" v="Vesle Bjønnejota" />
		<tag k="natural" v="valley" />
		<tag k="place" v="locality" />
		<tag k="ssr:stedsnr" v="709832" />
	</node>
	<node id="-185264" lat="59.9080222198" lon="10.0289472278">
		<tag k="name" v="Damåsen" />
		<tag k="natural" v="hill" />
		<tag k="place" v="locality" />
		<tag k="ssr:stedsnr" v="708673" />
	</node>
	<node id="-185257" lat="60.1141722197" lon="9.92857499468">
		<tag k="name" v="Kopåshaugen" />
		<tag k="natural" v="hill" />
		<tag k="place" v="locality" />
		<tag k="ssr:stedsnr" v="707679" />
	</node>
	<node id="-185250" lat="60.070330554" lon="9.7913638909">
		<tag k="name" v="Kringlemoen" />
		<tag k="place" v="locality" />
		<tag k="ssr:stedsnr" v="704115" />
	</node>
	<node id="-185248" lat="60.0779805595" lon="9.94224999987">
		<tag k="alt_name" v="Ulhogget" />
		<tag k="fixme" v="consider natural=peak for the most distinct mountains in the district" />
		<tag k="name" v="Urdhogget" />
		<tag k="natural" v="hill" />
		<tag k="place" v="locality" />
		<tag k="ssr:stedsnr" v="672896" />
	</node>
	<node id="-185238" lat="60.053049996" lon="9.98442499933">
		<tag k="fixme" v="consider natural=peak for the most distinct mountains in the district" />
		<tag k="name" v="Bjørnåsen" />
		<tag k="natural" v="hill" />
		<tag k="place" v="locality" />
		<tag k="ssr:stedsnr" v="672323" />
	</node>
	<node id="-185235" lat="60.0463805556" lon="9.80605556137">
		<tag k="fixme" v="consider natural=peak for the most distinct mountains in the district" />
		<tag k="name" v="Høgtidsåsen" />
		<tag k="natural" v="hill" />
		<tag k="place" v="locality" />
		<tag k="ssr:stedsnr" v="671899" />
	</node>
	<node id="-185232" lat="59.9392111136" lon="9.87168889322">
		<tag k="name" v="Trekasthøgda" />
		<tag k="natural" v="hill" />
		<tag k="place" v="locality" />
		<tag k="ssr:stedsnr" v="671869" />
	</node>
	<node id="-185230" lat="59.9103972221" lon="9.75002222836">
		<tag k="alt_name" v="Tolerudbråtan" />
		<tag k="fixme" v="consider natural=peak for the most distinct mountains in the district" />
		<tag k="name" v="Torudhøgda" />
		<tag k="natural" v="hill" />
		<tag k="place" v="locality" />
		<tag k="ssr:stedsnr" v="671831" />
	</node>
	<node id="-185225" lat="59.945600003" lon="9.76673055173">
		<tag k="alt_name" v="Kleivåsen" />
		<tag k="fixme" v="consider natural=peak for the most distinct mountains in the district" />
		<tag k="name" v="Kløvåsen" />
		<tag k="natural" v="hill" />
		<tag k="old_name" v="Kløvaasen" />
		<tag k="place" v="locality" />
		<tag k="ssr:stedsnr" v="671756" />
	</node>
	<node id="-185216" lat="59.9659277751" lon="10.1339138893">
		<tag k="fixme" v="consider natural=peak for the most distinct mountains in the district" />
		<tag k="name" v="Brennåsen" />
		<tag k="natural" v="hill" />
		<tag k="place" v="locality" />
		<tag k="ssr:stedsnr" v="671469" />
	</node>
	<node id="-185207" lat="59.9046749995" lon="10.0403833341">
		<tag k="name" v="Venehaug" />
		<tag k="natural" v="hill" />
		<tag k="place" v="locality" />
		<tag k="ssr:stedsnr" v="671333" />
	</node>
	<node id="-185198" lat="59.9840888858" lon="9.86811944109">
		<tag k="fixme" v="consider natural=peak for the most distinct mountains in the district" />
		<tag k="name" v="Bjønnåsen" />
		<tag k="natural" v="hill" />
		<tag k="place" v="locality" />
		<tag k="ssr:stedsnr" v="665402" />
	</node>
	<node id="-185193" lat="59.9789472258" lon="10.22470555">
		<tag k="name" v="Spadokka" />
		<tag k="natural" v="valley" />
		<tag k="place" v="locality" />
		<tag k="ssr:stedsnr" v="665192" />
	</node>
	<node id="-185192" lat="60.1503361144" lon="9.91133056119">
		<tag k="name" v="Søndre Kvitås" />
		<tag k="natural" v="hill" />
		<tag k="place" v="locality" />
		<tag k="ssr:stedsnr" v="665147" />
	</node>
	<node id="-185187" lat="59.8843527766" lon="10.0006638958">
		<tag k="fixme" v="consider natural=peak for the most distinct mountains in the district" />
		<tag k="name" v="Seteråsen" />
		<tag k="natural" v="hill" />
		<tag k="place" v="locality" />
		<tag k="ssr:stedsnr" v="664591" />
	</node>
	<node id="-185183" lat="60.033305559" lon="10.0064944464">
		<tag k="fixme" v="consider natural=peak for the most distinct mountains in the district" />
		<tag k="name" v="Hellumåsen" />
		<tag k="natural" v="hill" />
		<tag k="place" v="locality" />
		<tag k="ssr:stedsnr" v="664173" />
	</node>
	<node id="-185172" lat="60.0109138918" lon="9.91956111809">
		<tag k="fixme" v="consider natural=peak for the most distinct mountains in the district" />
		<tag k="name" v="Delingsdalsåsen" />
		<tag k="natural" v="hill" />
		<tag k="place" v="locality" />
		<tag k="ssr:stedsnr" v="662311" />
	</node>
	<node id="-185168" lat="60.1639500002" lon="9.91905834023">
		<tag k="name" v="Stakemyrdalen" />
		<tag k="natural" v="valley" />
		<tag k="place" v="locality" />
		<tag k="ssr:stedsnr" v="661514" />
	</node>
	<node id="-185160" lat="59.9454750012" lon="9.87093888667">
		<tag k="fixme" v="consider natural=peak for the most distinct mountains in the district" />
		<tag k="name" v="Østre Tingelstadtjernås" />
		<tag k="natural" v="hill" />
		<tag k="place" v="locality" />
		<tag k="ssr:stedsnr" v="648875" />
	</node>
	<node id="-185138" lat="59.8761111112" lon="9.82973889779">
		<tag k="fixme" v="consider natural=peak for the most distinct mountains in the district" />
		<tag k="name" v="Brennåsen" />
		<tag k="natural" v="hill" />
		<tag k="place" v="locality" />
		<tag k="ssr:stedsnr" v="646321" />
	</node>
	<node id="-185135" lat="59.9732611114" lon="10.1079888806">
		<tag k="fixme" v="consider natural=peak for the most distinct mountains in the district" />
		<tag k="name" v="Sjutjernflaket" />
		<tag k="natural" v="hill" />
		<tag k="place" v="locality" />
		<tag k="ssr:stedsnr" v="646061" />
	</node>
	<node id="-185134" lat="60.0717361067" lon="9.7739999917">
		<tag k="fixme" v="consider natural=peak for the most distinct mountains in the district" />
		<tag k="name" v="Damåsen" />
		<tag k="natural" v="hill" />
		<tag k="place" v="locality" />
		<tag k="ssr:stedsnr" v="643143" />
	</node>
	<node id="-185129" lat="60.0122277782" lon="9.90385277929">
		<tag k="name" v="Sæterstååsen" />
		<tag k="natural" v="hill" />
		<tag k="place" v="locality" />
		<tag k="ssr:stedsnr" v="611964" />
	</node>
	<node id="-185128" lat="60.04320556" lon="9.82582222763">
		<tag k="alt_name" v="Svartfjell" />
		<tag k="fixme" v="consider natural=peak for the most distinct mountains in the district" />
		<tag k="name" v="Svartfjellet" />
		<tag k="natural" v="hill" />
		<tag k="place" v="locality" />
		<tag k="ssr:stedsnr" v="611925" />
	</node>
	<node id="-185127" lat="60.0791583377" lon="9.90469722813">
		<tag k="name" v="Grautåsen" />
		<tag k="natural" v="hill" />
		<tag k="place" v="locality" />
		<tag k="ssr:stedsnr" v="611886" />
	</node>
	<node id="-185125" lat="60.0988805515" lon="9.87078055888">
		<tag k="fixme" v="consider natural=peak for the most distinct mountains in the district" />
		<tag k="name" v="Lauvåsen" />
		<tag k="natural" v="hill" />
		<tag k="place" v="locality" />
		<tag k="ssr:stedsnr" v="611856" />
	</node>
	<node id="-185124" lat="60.1247027778" lon="9.9164222292">
		<tag k="fixme" v="consider natural=peak for the most distinct mountains in the district" />
		<tag k="name" v="Steinsvollåsen" />
		<tag k="natural" v="hill" />
		<tag k="place" v="locality" />
		<tag k="ssr:stedsnr" v="611837" />
	</node>
	<node id="-185113" lat="59.9003000041" lon="9.86623611114">
		<tag k="alt_name" v="Setersbergåsen" />
		<tag k="fixme" v="consider natural=peak for the most distinct mountains in the district" />
		<tag k="name" v="Sætersbergåsen" />
		<tag k="natural" v="hill" />
		<tag k="place" v="locality" />
		<tag k="ssr:stedsnr" v="610834" />
	</node>
	<node id="-185112" lat="59.90762778" lon="9.81421943878">
		<tag k="fixme" v="consider natural=peak for the most distinct mountains in the district" />
		<tag k="name" v="Hengeråsen" />
		<tag k="natural" v="hill" />
		<tag k="place" v="locality" />
		<tag k="ssr:stedsnr" v="610832" />
	</node>
	<node id="-185092" lat="59.9830361134" lon="9.86147777663">
		<tag k="fixme" v="consider natural=peak for the most distinct mountains in the district" />
		<tag k="name" v="Nordgruvetjernåsen" />
		<tag k="natural" v="hill" />
		<tag k="place" v="locality" />
		<tag k="ssr:stedsnr" v="604355" />
	</node>
	<node id="-185090" lat="59.9798166711" lon="10.2304888958">
		<tag k="name" v="Storbråtalia" />
		<tag k="natural" v="slope" />
		<tag k="place" v="locality" />
		<tag k="ssr:stedsnr" v="604196" />
	</node>
	<node id="-185087" lat="59.9099638854" lon="9.80403056411">
		<tag k="fixme" v="consider natural=peak for the most distinct mountains in the district" />
		<tag k="name" v="Tjernsåsen" />
		<tag k="natural" v="hill" />
		<tag k="place" v="locality" />
		<tag k="ssr:stedsnr" v="603977" />
	</node>
	<node id="-185085" lat="59.883055553" lon="10.0176166661">
		<tag k="fixme" v="consider natural=peak for the most distinct mountains in the district" />
		<tag k="name" v="Vollmyråsen" />
		<tag k="natural" v="hill" />
		<tag k="place" v="locality" />
		<tag k="ssr:stedsnr" v="603592" />
	</node>
	<node id="-185084" lat="59.8774138903" lon="10.027108332">
		<tag k="name" v="Maristusletta" />
		<tag k="place" v="locality" />
		<tag k="ssr:stedsnr" v="603588" />
	</node>
	<node id="-185081" lat="59.8967083331" lon="10.1041166618">
		<tag k="fixme" v="consider natural=peak for the most distinct mountains in the district" />
		<tag k="name" v="Volleåsen" />
		<tag k="natural" v="hill" />
		<tag k="place" v="locality" />
		<tag k="ssr:stedsnr" v="603002" />
	</node>
	<node id="-185078" lat="59.9294083335" lon="10.0271750061">
		<tag k="name" v="Dammyrhallen" />
		<tag k="natural" v="slope" />
		<tag k="place" v="locality" />
		<tag k="ssr:stedsnr" v="602557" />
	</node>
	<node id="-185074" lat="60.0278500009" lon="9.8243694496">
		<tag k="name" v="Ødegårdslia" />
		<tag k="natural" v="slope" />
		<tag k="place" v="locality" />
		<tag k="ssr:stedsnr" v="601728" />
	</node>
	<node id="-185073" lat="60.0284666672" lon="9.81729722688">
		<tag k="fixme" v="consider natural=peak for the most distinct mountains in the district" />
		<tag k="name" v="Seteråsen" />
		<tag k="natural" v="hill" />
		<tag k="place" v="locality" />
		<tag k="ssr:stedsnr" v="601725" />
	</node>
	<node id="-185066" lat="59.9740416648" lon="10.0766249925">
		<tag k="fixme" v="consider natural=peak for the most distinct mountains in the district" />
		<tag k="name" v="Vestre Gulbrandstjernås" />
		<tag k="natural" v="hill" />
		<tag k="place" v="locality" />
		<tag k="ssr:stedsnr" v="588995" />
	</node>
	<node id="-185061" lat="59.9980083347" lon="10.1817527749">
		<tag k="name" v="Leina" />
		<tag k="natural" v="slope" />
		<tag k="place" v="locality" />
		<tag k="ssr:stedsnr" v="588249" />
	</node>
	<node id="-185060" lat="60.0671222184" lon="9.88355832513">
		<tag k="name" v="Søledikdalen" />
		<tag k="natural" v="valley" />
		<tag k="place" v="locality" />
		<tag k="ssr:stedsnr" v="588113" />
	</node>
	<node id="-185057" lat="59.959211111" lon="9.87695833655">
		<tag k="name" v="Hogglia" />
		<tag k="natural" v="slope" />
		<tag k="place" v="locality" />
		<tag k="ssr:stedsnr" v="587921" />
	</node>
	<node id="-185055" lat="59.9415277755" lon="9.87844443561">
		<tag k="name" v="Århanahallen" />
		<tag k="natural" v="slope" />
		<tag k="place" v="locality" />
		<tag k="ssr:stedsnr" v="587882" />
	</node>
	<node id="-185053" lat="59.9624861081" lon="9.86513611871">
		<tag k="name" v="Store Bjønnejota" />
		<tag k="natural" v="valley" />
		<tag k="place" v="locality" />
		<tag k="ssr:stedsnr" v="587852" />
	</node>
	<node id="-185048" lat="59.92560278" lon="9.84456944195">
		<tag k="name" v="Ole Einars standplass" />
		<tag k="place" v="locality" />
		<tag k="ssr:stedsnr" v="586929" />
	</node>
	<node id="-185044" lat="59.9101416695" lon="10.0770972191">
		<tag k="name" v="Skreia" />
		<tag k="natural" v="slope" />
		<tag k="place" v="locality" />
		<tag k="ssr:stedsnr" v="586677" />
	</node>
	<node id="-185042" lat="59.9535916623" lon="10.0853444499">
		<tag k="name" v="Stordalen" />
		<tag k="natural" v="valley" />
		<tag k="place" v="locality" />
		<tag k="ssr:stedsnr" v="586657" />
	</node>
	<node id="-185041" lat="59.9527944416" lon="10.0350805597">
		<tag k="name" v="Furuvollen" />
		<tag k="natural" v="hill" />
		<tag k="place" v="locality" />
		<tag k="ssr:stedsnr" v="586636" />
	</node>
	<node id="-185033" lat="60.0670416711" lon="9.78159721387">
		<tag k="name" v="Lauvstadflåa" />
		<tag k="natural" v="ridge" />
		<tag k="place" v="locality" />
		<tag k="ssr:stedsnr" v="582115" />
	</node>
	<node id="-185028" lat="60.0777194484" lon="9.81776111648">
		<tag k="name" v="Markmoen" />
		<tag k="place" v="locality" />
		<tag k="ssr:stedsnr" v="551882" />
	</node>
	<node id="-185019" lat="60.1043583353" lon="9.88155554789">
		<tag k="alt_name" v="Vilsamknatten" />
		<tag k="name" v="Villsamknatten" />
		<tag k="natural" v="hill" />
		<tag k="place" v="locality" />
		<tag k="ssr:stedsnr" v="550839" />
	</node>
	<node id="-185013" lat="59.8991194462" lon="9.75933055216">
		<tag k="alt_name" v="Tolerudåsen" />
		<tag k="fixme" v="consider natural=peak for the most distinct mountains in the district" />
		<tag k="name" v="Torudåsen" />
		<tag k="natural" v="hill" />
		<tag k="place" v="locality" />
		<tag k="ssr:stedsnr" v="550646" />
	</node>
	<node id="-185001" lat="59.8780361145" lon="10.0362638969">
		<tag k="alt_name" v="Glitrehagen" />
		<tag k="fixme" v="multiple name tags, choose one and add the other to alt_name; consider natural=peak for the most distinct mountains in the district" />
		<tag k="name" v="Glitrehagan;Grytåsen" />
		<tag k="natural" v="hill" />
		<tag k="place" v="locality" />
		<tag k="ssr:stedsnr" v="550333" />
	</node>
	<node id="-184995" lat="59.8934853313" lon="10.0685215638">
		<tag k="alt_name" v="Svartåsspira" />
		<tag k="fixme" v="consider natural=peak for the most distinct mountains in the district" />
		<tag k="name" v="Svartåsen" />
		<tag k="natural" v="hill" />
		<tag k="place" v="locality" />
		<tag k="ssr:stedsnr" v="549329" />
	</node>
	<node id="-184994" lat="59.8913749995" lon="9.98440832904">
		<tag k="fixme" v="consider natural=peak for the most distinct mountains in the district" />
		<tag k="name" v="Glomsrudkollen" />
		<tag k="natural" v="hill" />
		<tag k="place" v="locality" />
		<tag k="ssr:stedsnr" v="549326" />
	</node>
	<node id="-184986" lat="60.0453333329" lon="9.81559445062">
		<tag k="name" v="Tømmerdalen" />
		<tag k="natural" v="valley" />
		<tag k="place" v="locality" />
		<tag k="ssr:stedsnr" v="544752" />
	</node>
	<node id="-184964" lat="59.9815027803" lon="10.1696055544">
		<tag k="name" v="Tandbergsberget" />
		<tag k="natural" v="hill" />
		<tag k="place" v="locality" />
		<tag k="ssr:stedsnr" v="542118" />
	</node>
	<node id="-184963" lat="59.9458972187" lon="10.1196416658">
		<tag k="name" v="Bomlekollene" />
		<tag k="natural" v="hill" />
		<tag k="place" v="locality" />
		<tag k="ssr:stedsnr" v="542037" />
	</node>
	<node id="-184960" lat="59.9875750017" lon="10.0883944464">
		<tag k="name" v="Høllhaugdalen" />
		<tag k="natural" v="valley" />
		<tag k="place" v="locality" />
		<tag k="ssr:stedsnr" v="540931" />
	</node>
	<node id="-184959" lat="59.995238888" lon="10.0747861152">
		<tag k="name" v="Seterhaugen" />
		<tag k="natural" v="hill" />
		<tag k="place" v="locality" />
		<tag k="ssr:stedsnr" v="540841" />
	</node>
	<node id="-184956" lat="60.0392250028" lon="9.94275000469">
		<tag k="name" v="Djupdal" />
		<tag k="natural" v="valley" />
		<tag k="place" v="locality" />
		<tag k="ssr:stedsnr" v="540290" />
	</node>
	<node id="-184955" lat="60.0355388861" lon="9.93451388439">
		<tag k="fixme" v="consider natural=peak for the most distinct mountains in the district" />
		<tag k="name" v="Hytteåsen" />
		<tag k="natural" v="hill" />
		<tag k="place" v="locality" />
		<tag k="ssr:stedsnr" v="540289" />
	</node>
	<node id="-184949" lat="59.9676388856" lon="10.0688416689">
		<tag k="name" v="Heimsetermottaket" />
		<tag k="natural" v="slope" />
		<tag k="place" v="locality" />
		<tag k="ssr:stedsnr" v="527950" />
	</node>
	<node id="-184947" lat="59.9654527782" lon="9.88760277014">
		<tag k="name" v="Stordalen" />
		<tag k="natural" v="valley" />
		<tag k="place" v="locality" />
		<tag k="ssr:stedsnr" v="527868" />
	</node>
	<node id="-184945" lat="59.9381583365" lon="9.88003611407">
		<tag k="name" v="Skreia" />
		<tag k="natural" v="hill" />
		<tag k="place" v="locality" />
		<tag k="ssr:stedsnr" v="527863" />
	</node>
	<node id="-184944" lat="59.9473222195" lon="9.84227499592">
		<tag k="name" v="Bulderikastlia" />
		<tag k="natural" v="slope" />
		<tag k="place" v="locality" />
		<tag k="ssr:stedsnr" v="527816" />
	</node>
	<node id="-184940" lat="60.0586027786" lon="9.90579999852">
		<tag k="name" v="Postmyrdalen" />
		<tag k="natural" v="valley" />
		<tag k="place" v="locality" />
		<tag k="ssr:stedsnr" v="527158" />
	</node>
	<node id="-184938" lat="59.9770222262" lon="9.89373333971">
		<tag k="name" v="Struten" />
		<tag k="natural" v="hill" />
		<tag k="place" v="locality" />
		<tag k="ssr:stedsnr" v="525917" />
	</node>
	<node id="-184933" lat="59.8884555541" lon="10.0366527778">
		<tag k="alt_name" v="Bjørnestillinga" />
		<tag k="name" v="Stillingsdalen" />
		<tag k="natural" v="valley" />
		<tag k="place" v="locality" />
		<tag k="ssr:stedsnr" v="525676" />
	</node>
	<node id="-184928" lat="59.8862555573" lon="9.81144444077">
		<tag k="name" v="Nordre Hagaskar" />
		<tag k="natural" v="valley" />
		<tag k="place" v="locality" />
		<tag k="ssr:stedsnr" v="525328" />
	</node>
	<node id="-184925" lat="59.9707638861" lon="10.1282194525">
		<tag k="name" v="Breilihovet" />
		<tag k="natural" v="slope" />
		<tag k="place" v="locality" />
		<tag k="ssr:stedsnr" v="525066" />
	</node>
	<node id="-184924" lat="60.062691671" lon="9.76999165933">
		<tag k="name" v="Busteløkdalen" />
		<tag k="natural" v="valley" />
		<tag k="place" v="locality" />
		<tag k="ssr:stedsnr" v="522132" />
	</node>
	<node id="-184923" lat="60.0523055524" lon="9.77435277856">
		<tag k="name" v="Hunstadlia" />
		<tag k="natural" v="slope" />
		<tag k="place" v="locality" />
		<tag k="ssr:stedsnr" v="522128" />
	</node>
	<node id="-184922" lat="59.9356333291" lon="9.71570832936">
		<tag k="name" v="Svadal" />
		<tag k="natural" v="valley" />
		<tag k="place" v="locality" />
		<tag k="ssr:stedsnr" v="522094" />
	</node>
	<node id="-184921" lat="60.0299555549" lon="9.7955000052">
		<tag k="fixme" v="consider natural=peak for the most distinct mountains in the district" />
		<tag k="name" v="Dylletjernåsen" />
		<tag k="natural" v="hill" />
		<tag k="place" v="locality" />
		<tag k="ssr:stedsnr" v="522088" />
	</node>
	<node id="-184916" lat="59.971652782" lon="10.2747527711">
		<tag k="name" v="Skrubbefjell" />
		<tag k="natural" v="slope" />
		<tag k="place" v="locality" />
		<tag k="ssr:stedsnr" v="512310" />
	</node>
	<node id="-184910" lat="60.0159499972" lon="9.89168333807">
		<tag k="name" v="Hilsenåsen" />
		<tag k="natural" v="hill" />
		<tag k="place" v="locality" />
		<tag k="ssr:stedsnr" v="490962" />
	</node>
	<node id="-184901" lat="59.9945083357" lon="9.92927499846">
		<tag k="alt_name" v="Bleikeren" />
		<tag k="name" v="Bleikern" />
		<tag k="natural" v="hill" />
		<tag k="place" v="locality" />
		<tag k="ssr:stedsnr" v="489968" />
	</node>
	<node id="-184896" lat="60.0384833348" lon="9.8825055468">
		<tag k="fixme" v="consider natural=peak for the most distinct mountains in the district" />
		<tag k="name" v="Fotstå" />
		<tag k="natural" v="hill" />
		<tag k="place" v="locality" />
		<tag k="ssr:stedsnr" v="489904" />
	</node>
	<node id="-184890" lat="59.9033999997" lon="9.85442222649">
		<tag k="fixme" v="consider natural=peak for the most distinct mountains in the district" />
		<tag k="name" v="Fossumåsane" />
		<tag k="natural" v="hill" />
		<tag k="place" v="locality" />
		<tag k="ssr:stedsnr" v="489828" />
	</node>
	<node id="-184889" lat="59.9021611099" lon="9.88350000839">
		<tag k="alt_name" v="Mørkås" />
		<tag k="fixme" v="consider natural=peak for the most distinct mountains in the district" />
		<tag k="name" v="Mørkåsen" />
		<tag k="natural" v="hill" />
		<tag k="place" v="locality" />
		<tag k="ssr:stedsnr" v="489825" />
	</node>
	<node id="-184885" lat="60.1503000014" lon="9.91147500244">
		<tag k="fixme" v="consider natural=peak for the most distinct mountains in the district" />
		<tag k="name" v="Kvitåsen" />
		<tag k="natural" v="hill" />
		<tag k="place" v="locality" />
		<tag k="ssr:stedsnr" v="489793" />
	</node>
	<node id="-184869" lat="59.9005250028" lon="10.0805500073">
		<tag k="fixme" v="consider natural=peak for the most distinct mountains in the district" />
		<tag k="name" v="Lauvåsen" />
		<tag k="natural" v="hill" />
		<tag k="place" v="locality" />
		<tag k="ssr:stedsnr" v="489349" />
	</node>
	<node id="-184861" lat="60.0092944441" lon="9.81605278292">
		<tag k="fixme" v="consider natural=peak for the most distinct mountains in the district" />
		<tag k="name" v="Svartåsen" />
		<tag k="natural" v="hill" />
		<tag k="place" v="locality" />
		<tag k="ssr:stedsnr" v="483542" />
	</node>
	<node id="-184857" lat="59.9948305553" lon="9.94254444359">
		<tag k="name" v="Kudalen" />
		<tag k="natural" v="valley" />
		<tag k="place" v="locality" />
		<tag k="ssr:stedsnr" v="483220" />
	</node>
	<node id="-184855" lat="60.1550861108" lon="9.88479999445">
		<tag k="name" v="Nordre Kartås" />
		<tag k="natural" v="hill" />
		<tag k="place" v="locality" />
		<tag k="ssr:stedsnr" v="483143" />
	</node>
	<node id="-184854" lat="60.0860500027" lon="9.78551943608">
		<tag k="name" v="Stordalen" />
		<tag k="natural" v="valley" />
		<tag k="place" v="locality" />
		<tag k="ssr:stedsnr" v="483062" />
	</node>
	<node id="-184848" lat="59.9658083337" lon="10.187358329">
		<tag k="fixme" v="consider natural=peak for the most distinct mountains in the district" />
		<tag k="name" v="Brennåsen" />
		<tag k="natural" v="hill" />
		<tag k="place" v="locality" />
		<tag k="ssr:stedsnr" v="482104" />
	</node>
	<node id="-184847" lat="59.9107083325" lon="10.0944250043">
		<tag k="name" v="Flagvannskollen" />
		<tag k="natural" v="hill" />
		<tag k="place" v="locality" />
		<tag k="ssr:stedsnr" v="482007" />
	</node>
	<node id="-184842" lat="59.9337388861" lon="10.0257888807">
		<tag k="name" v="Sauebrenna" />
		<tag k="natural" v="slope" />
		<tag k="place" v="locality" />
		<tag k="ssr:stedsnr" v="481551" />
	</node>
	<node id="-184837" lat="60.0340333351" lon="9.95292221823">
		<tag k="fixme" v="consider natural=peak for the most distinct mountains in the district" />
		<tag k="name" v="Fellesmarkåsen" />
		<tag k="natural" v="hill" />
		<tag k="place" v="locality" />
		<tag k="ssr:stedsnr" v="480266" />
	</node>
	<node id="-184830" lat="59.9701249967" lon="10.0843638908">
		<tag k="fixme" v="consider natural=peak for the most distinct mountains in the district" />
		<tag k="name" v="Indre Gulbrandstjernås" />
		<tag k="natural" v="hill" />
		<tag k="place" v="locality" />
		<tag k="ssr:stedsnr" v="467999" />
	</node>
	<node id="-184821" lat="59.9885999989" lon="10.1911861039">
		<tag k="name" v="Langerudsdalen" />
		<tag k="natural" v="valley" />
		<tag k="place" v="locality" />
		<tag k="ssr:stedsnr" v="467281" />
	</node>
	<node id="-184815" lat="59.9661749994" lon="9.98444999151">
		<tag k="fixme" v="consider natural=peak for the most distinct mountains in the district" />
		<tag k="name" v="Løkkeveien" />
		<tag k="natural" v="hill" />
		<tag k="place" v="locality" />
		<tag k="ssr:stedsnr" v="465918" />
	</node>
	<node id="-184811" lat="60.081788891" lon="9.80691666012">
		<tag k="fixme" v="consider natural=peak for the most distinct mountains in the district" />
		<tag k="name" v="Hubroåsen" />
		<tag k="natural" v="hill" />
		<tag k="place" v="locality" />
		<tag k="ssr:stedsnr" v="465690" />
	</node>
	<node id="-184809" lat="59.9797972223" lon="10.1207694532">
		<tag k="name" v="Svartdalsbrenna" />
		<tag k="natural" v="hill" />
		<tag k="place" v="locality" />
		<tag k="ssr:stedsnr" v="465072" />
	</node>
	<node id="-184802" lat="60.0231861095" lon="9.79887221915">
		<tag k="name" v="Skaret" />
		<tag k="natural" v="valley" />
		<tag k="place" v="locality" />
		<tag k="ssr:stedsnr" v="461075" />
	</node>
	<node id="-184796" lat="60.0095250017" lon="9.9168722308">
		<tag k="name" v="Smørkollåsen" />
		<tag k="natural" v="hill" />
		<tag k="place" v="locality" />
		<tag k="ssr:stedsnr" v="430954" />
	</node>
	<node id="-184791" lat="60.0929972212" lon="9.94243333176">
		<tag k="alt_name" v="Hauken" />
		<tag k="name" v="Åmotshauken" />
		<tag k="natural" v="hill" />
		<tag k="place" v="locality" />
		<tag k="ssr:stedsnr" v="430848" />
	</node>
	<node id="-184789" lat="60.1191750016" lon="9.93591666194">
		<tag k="fixme" v="consider natural=peak for the most distinct mountains in the district" />
		<tag k="name" v="Brunåsen" />
		<tag k="natural" v="hill" />
		<tag k="place" v="locality" />
		<tag k="ssr:stedsnr" v="430815" />
	</node>
	<node id="-184787" lat="60.003775001" lon="10.1492416689">
		<tag k="fixme" v="consider natural=peak for the most distinct mountains in the district" />
		<tag k="name" v="Vindfallåsen" />
		<tag k="natural" v="hill" />
		<tag k="place" v="locality" />
		<tag k="ssr:stedsnr" v="430414" />
	</node>
	<node id="-184774" lat="60.0332250036" lon="9.80947499476">
		<tag k="fixme" v="consider natural=peak for the most distinct mountains in the district" />
		<tag k="name" v="Sperråsen" />
		<tag k="natural" v="hill" />
		<tag k="place" v="locality" />
		<tag k="ssr:stedsnr" v="429934" />
	</node>
	<node id="-184767" lat="60.1634042493" lon="9.87803596189">
		<tag k="name" v="Holleia" />
		<tag k="natural" v="wood" />
		<tag k="ssr:stedsnr" v="429786" />
	</node>
	<node id="-184756" lat="59.8799611098" lon="9.9559194366">
		<tag k="fixme" v="consider natural=peak for the most distinct mountains in the district" />
		<tag k="name" v="Bjørndalskollen" />
		<tag k="natural" v="hill" />
		<tag k="place" v="locality" />
		<tag k="ssr:stedsnr" v="429617" />
	</node>
	<node id="-184751" lat="59.9296570708" lon="10.0588779067">
		<tag k="alt_name" v="Hovlandsfjell" />
		<tag k="fixme" v="consider natural=peak for the most distinct mountains in the district" />
		<tag k="name" v="Hovlandsfjellet" />
		<tag k="natural" v="hill" />
		<tag k="place" v="locality" />
		<tag k="ssr:stedsnr" v="429422" />
	</node>
	<node id="-184750" lat="59.9603166645" lon="9.8819861196">
		<tag k="fixme" v="consider natural=peak for the most distinct mountains in the district" />
		<tag k="name" v="Hundåsen" />
		<tag k="natural" v="hill" />
		<tag k="place" v="locality" />
		<tag k="ssr:stedsnr" v="428756" />
	</node>
	<node id="-184749" lat="59.9673000018" lon="10.0477055505">
		<tag k="fixme" v="consider natural=peak for the most distinct mountains in the district" />
		<tag k="name" v="Hvalsknatten" />
		<tag k="natural" v="hill" />
		<tag k="place" v="locality" />
		<tag k="ssr:stedsnr" v="428450" />
	</node>
	<node id="-184726" lat="59.9672694454" lon="10.1684944506">
		<tag k="name" v="Smiukollen" />
		<tag k="natural" v="hill" />
		<tag k="place" v="locality" />
		<tag k="ssr:stedsnr" v="421109" />
	</node>
	<node id="-184710" lat="59.9993111076" lon="10.1229527745">
		<tag k="name" v="Labbedal" />
		<tag k="natural" v="valley" />
		<tag k="place" v="locality" />
		<tag k="ssr:stedsnr" v="479986" />
	</node>
	<node id="-184709" lat="59.9943972262" lon="10.0599166666">
		<tag k="name" v="Ramberget" />
		<tag k="natural" v="hill" />
		<tag k="place" v="locality" />
		<tag k="ssr:stedsnr" v="479875" />
	</node>
	<node id="-184707" lat="60.0647416712" lon="9.87266110282">
		<tag k="alt_name" v="Seteråsen" />
		<tag k="fixme" v="consider natural=peak for the most distinct mountains in the district" />
		<tag k="name" v="Sæteråsen" />
		<tag k="natural" v="hill" />
		<tag k="place" v="locality" />
		<tag k="ssr:stedsnr" v="248418" />
	</node>
	<node id="-184704" lat="60.0240027768" lon="9.93579999922">
		<tag k="name" v="Månen" />
		<tag k="natural" v="hill" />
		<tag k="place" v="locality" />
		<tag k="ssr:stedsnr" v="247941" />
	</node>
	<node id="-184702" lat="60.0201499963" lon="9.93767499615">
		<tag k="fixme" v="consider natural=peak for the most distinct mountains in the district" />
		<tag k="name" v="Lønjakleivåsen" />
		<tag k="natural" v="hill" />
		<tag k="place" v="locality" />
		<tag k="ssr:stedsnr" v="247940" />
	</node>
	<node id="-184701" lat="60.0531749975" lon="9.90480832638">
		<tag k="fixme" v="consider natural=peak for the most distinct mountains in the district" />
		<tag k="name" v="Sandungsåsen" />
		<tag k="natural" v="hill" />
		<tag k="place" v="locality" />
		<tag k="ssr:stedsnr" v="247893" />
	</node>
	<node id="-184695" lat="60.0906250035" lon="9.81990277537">
		<tag k="name" v="Slettmoen" />
		<tag k="place" v="locality" />
		<tag k="ssr:stedsnr" v="247826" />
	</node>
	<node id="-184690" lat="59.9731249975" lon="10.0612361067">
		<tag k="name" v="Lortlaupdalen" />
		<tag k="natural" v="valley" />
		<tag k="place" v="locality" />
		<tag k="ssr:stedsnr" v="247454" />
	</node>
	<node id="-184677" lat="59.95417778" lon="9.92947499987">
		<tag k="fixme" v="consider natural=peak for the most distinct mountains in the district" />
		<tag k="name" v="Fossnesåsen" />
		<tag k="natural" v="hill" />
		<tag k="place" v="locality" />
		<tag k="ssr:stedsnr" v="246732" />
	</node>
	<node id="-184673" lat="59.9536499997" lon="10.0749527797">
		<tag k="fixme" v="consider natural=peak for the most distinct mountains in the district" />
		<tag k="name" v="Heståsfjellet" />
		<tag k="natural" v="hill" />
		<tag k="place" v="locality" />
		<tag k="ssr:stedsnr" v="246452" />
	</node>
	<node id="-184671" lat="59.9656611132" lon="10.1545888807">
		<tag k="fixme" v="consider natural=peak for the most distinct mountains in the district" />
		<tag k="name" v="Tandbergbrennene" />
		<tag k="natural" v="hill" />
		<tag k="place" v="locality" />
		<tag k="ssr:stedsnr" v="246428" />
	</node>
	<node id="-184658" lat="59.9970444445" lon="9.90194721847">
		<tag k="fixme" v="consider natural=peak for the most distinct mountains in the district" />
		<tag k="name" v="Krokåsen" />
		<tag k="natural" v="hill" />
		<tag k="place" v="locality" />
		<tag k="ssr:stedsnr" v="240403" />
	</node>
	<node id="-184654" lat="59.9812944482" lon="10.2096861133">
		<tag k="name" v="Bjelkehaugen" />
		<tag k="natural" v="hill" />
		<tag k="place" v="locality" />
		<tag k="ssr:stedsnr" v="240207" />
	</node>
	<node id="-184653" lat="59.8949166652" lon="9.92255555624">
		<tag k="fixme" v="consider natural=peak for the most distinct mountains in the district" />
		<tag k="name" v="Bålrudåsen" />
		<tag k="natural" v="hill" />
		<tag k="place" v="locality" />
		<tag k="ssr:stedsnr" v="239980" />
	</node>
	<node id="-184641" lat="59.9223555559" lon="10.0968833348">
		<tag k="name" v="Gladberga" />
		<tag k="natural" v="hill" />
		<tag k="place" v="locality" />
		<tag k="ssr:stedsnr" v="239040" />
	</node>
	<node id="-184639" lat="59.9817333377" lon="10.1094194511">
		<tag k="name" v="Geitehaugen" />
		<tag k="natural" v="hill" />
		<tag k="place" v="locality" />
		<tag k="ssr:stedsnr" v="237981" />
	</node>
	<node id="-184636" lat="59.9926861129" lon="10.0629805643">
		<tag k="name" v="Elvedalen" />
		<tag k="natural" v="valley" />
		<tag k="place" v="locality" />
		<tag k="ssr:stedsnr" v="237843" />
	</node>
	<node id="-184633" lat="60.0128583375" lon="9.94687777158">
		<tag k="name" v="Moltemyrmoen" />
		<tag k="place" v="locality" />
		<tag k="ssr:stedsnr" v="237304" />
	</node>
	<node id="-184631" lat="60.0344972186" lon="9.92578055983">
		<tag k="name" v="Askedalen" />
		<tag k="natural" v="valley" />
		<tag k="place" v="locality" />
		<tag k="ssr:stedsnr" v="237291" />
	</node>
	<node id="-184620" lat="59.9781388877" lon="9.87174443731">
		<tag k="name" v="Orelund" />
		<tag k="natural" v="slope" />
		<tag k="place" v="locality" />
		<tag k="ssr:stedsnr" v="224834" />
	</node>
	<node id="-184605" lat="60.088780556" lon="9.90071388118">
		<tag k="name" v="Padderuddalen" />
		<tag k="natural" v="valley" />
		<tag k="place" v="locality" />
		<tag k="ssr:stedsnr" v="224121" />
	</node>
	<node id="-184604" lat="60.0837194454" lon="9.87742500888">
		<tag k="fixme" v="consider natural=peak for the most distinct mountains in the district" />
		<tag k="name" v="Ese" />
		<tag k="natural" v="hill" />
		<tag k="place" v="locality" />
		<tag k="ssr:stedsnr" v="224119" />
	</node>
	<node id="-184602" lat="60.1049444406" lon="9.90723334001">
		<tag k="alt_name" v="Bjortjernhaugen" />
		<tag k="name" v="Bjoretjernshaugen" />
		<tag k="natural" v="hill" />
		<tag k="place" v="locality" />
		<tag k="ssr:stedsnr" v="224050" />
	</node>
	<node id="-184600" lat="59.9454888851" lon="9.78591666005">
		<tag k="fixme" v="consider natural=peak for the most distinct mountains in the district" />
		<tag k="name" v="Løkkeåsen" />
		<tag k="natural" v="hill" />
		<tag k="place" v="locality" />
		<tag k="ssr:stedsnr" v="223455" />
	</node>
	<node id="-184598" lat="59.9487500035" lon="9.84633888082">
		<tag k="name" v="Revedokka" />
		<tag k="natural" v="valley" />
		<tag k="place" v="locality" />
		<tag k="ssr:stedsnr" v="222787" />
	</node>
	<node id="-184597" lat="59.9560277771" lon="9.85017778401">
		<tag k="name" v="Husmannsåsen" />
		<tag k="natural" v="hill" />
		<tag k="place" v="locality" />
		<tag k="ssr:stedsnr" v="222775" />
	</node>
	<node id="-184594" lat="59.8838361117" lon="10.0521583259">
		<tag k="fixme" v="consider natural=peak for the most distinct mountains in the district" />
		<tag k="name" v="Bottolvsåsen" />
		<tag k="natural" v="hill" />
		<tag k="place" v="locality" />
		<tag k="ssr:stedsnr" v="222675" />
	</node>
	<node id="-184590" lat="59.9368111111" lon="10.0873750057">
		<tag k="fixme" v="consider natural=peak for the most distinct mountains in the district" />
		<tag k="name" v="Hammersås" />
		<tag k="natural" v="hill" />
		<tag k="place" v="locality" />
		<tag k="ssr:stedsnr" v="222622" />
	</node>
	<node id="-184589" lat="59.9574666682" lon="10.0368361108">
		<tag k="name" v="Navneberget" />
		<tag k="natural" v="hill" />
		<tag k="place" v="locality" />
		<tag k="ssr:stedsnr" v="222608" />
	</node>
	<node id="-184586" lat="59.9906999969" lon="9.85554722805">
		<tag k="name" v="Steindalen" />
		<tag k="natural" v="valley" />
		<tag k="place" v="locality" />
		<tag k="ssr:stedsnr" v="222476" />
	</node>
	<node id="-184585" lat="59.9938611129" lon="9.84148611262">
		<tag k="fixme" v="consider natural=peak for the most distinct mountains in the district" />
		<tag k="name" v="Lyaråsen" />
		<tag k="natural" v="hill" />
		<tag k="place" v="locality" />
		<tag k="ssr:stedsnr" v="222475" />
	</node>
	<node id="-184583" lat="59.8913722229" lon="9.82606111723">
		<tag k="name" v="Tegemyråsen" />
		<tag k="natural" v="valley" />
		<tag k="place" v="locality" />
		<tag k="ssr:stedsnr" v="222310" />
	</node>
	<node id="-184578" lat="59.9799527812" lon="10.1391777838">
		<tag k="name" v="Breilidalen" />
		<tag k="natural" v="valley" />
		<tag k="place" v="locality" />
		<tag k="ssr:stedsnr" v="222055" />
	</node>
	<node id="-184572" lat="60.0619944471" lon="9.78170833133">
		<tag k="name" v="Bårdsbråtalia" />
		<tag k="natural" v="slope" />
		<tag k="place" v="locality" />
		<tag k="ssr:stedsnr" v="218124" />
	</node>
	<node id="-184570" lat="60.0092750005" lon="9.84010555511">
		<tag k="fixme" v="consider natural=peak for the most distinct mountains in the district" />
		<tag k="name" v="Hovdekollen" />
		<tag k="natural" v="hill" />
		<tag k="place" v="locality" />
		<tag k="ssr:stedsnr" v="187946" />
	</node>
	<node id="-184562" lat="60.0596666652" lon="9.79304722309">
		<tag k="fixme" v="consider natural=peak for the most distinct mountains in the district" />
		<tag k="name" v="Bentehyttåsen" />
		<tag k="natural" v="hill" />
		<tag k="place" v="locality" />
		<tag k="ssr:stedsnr" v="186879" />
	</node>
	<node id="-184559" lat="59.9812305553" lon="9.85240833148">
		<tag k="fixme" v="consider natural=peak for the most distinct mountains in the district" />
		<tag k="name" v="Skuterudseteråsen" />
		<tag k="natural" v="hill" />
		<tag k="place" v="locality" />
		<tag k="ssr:stedsnr" v="186951" />
	</node>
	<node id="-184553" lat="59.9617944412" lon="9.92446667059">
		<tag k="name" v="Mastedalen" />
		<tag k="natural" v="valley" />
		<tag k="place" v="locality" />
		<tag k="ssr:stedsnr" v="186785" />
	</node>
	<node id="-184548" lat="59.9009111129" lon="9.80676111016">
		<tag k="fixme" v="consider natural=peak for the most distinct mountains in the district" />
		<tag k="name" v="Hovengkollen" />
		<tag k="natural" v="hill" />
		<tag k="place" v="locality" />
		<tag k="ssr:stedsnr" v="186698" />
	</node>
	<node id="-184542" lat="59.9319749968" lon="10.0319166594">
		<tag k="alt_name" v="Brentebuås" />
		<tag k="fixme" v="consider natural=peak for the most distinct mountains in the district" />
		<tag k="name" v="Brentebuåsen" />
		<tag k="natural" v="hill" />
		<tag k="place" v="locality" />
		<tag k="ssr:stedsnr" v="186469" />
	</node>
	<node id="-184525" lat="60.0227666688" lon="9.80671388307">
		<tag k="name" v="Steindalen" />
		<tag k="natural" v="valley" />
		<tag k="place" v="locality" />
		<tag k="ssr:stedsnr" v="180507" />
	</node>
	<node id="-184524" lat="60.1446277788" lon="9.89129167009">
		<tag k="fixme" v="consider natural=peak for the most distinct mountains in the district" />
		<tag k="name" v="Søndre Kartås" />
		<tag k="natural" v="hill" />
		<tag k="place" v="locality" />
		<tag k="ssr:stedsnr" v="180255" />
	</node>
	<node id="-184523" lat="59.9211777753" lon="9.86631389693">
		<tag k="name" v="Gruvås" />
		<tag k="natural" v="hill" />
		<tag k="place" v="locality" />
		<tag k="ssr:stedsnr" v="180234" />
	</node>
	<node id="-184518" lat="60.0096249996" lon="9.98505833995">
		<tag k="fixme" v="consider natural=peak for the most distinct mountains in the district" />
		<tag k="name" v="Langsrudåsen" />
		<tag k="natural" v="hill" />
		<tag k="place" v="locality" />
		<tag k="ssr:stedsnr" v="180017" />
	</node>
	<node id="-184515" lat="59.9606916672" lon="10.0287722311">
		<tag k="name" v="Stillingsåsen" />
		<tag k="natural" v="slope" />
		<tag k="place" v="locality" />
		<tag k="ssr:stedsnr" v="178977" />
	</node>
	<node id="-184510" lat="59.908163891" lon="9.99183334203">
		<tag k="name" v="Slettbekkhovet" />
		<tag k="natural" v="slope" />
		<tag k="place" v="locality" />
		<tag k="ssr:stedsnr" v="178597" />
	</node>
	<node id="-184509" lat="59.8814500038" lon="10.0046138845">
		<tag k="name" v="Svarttjerndalen" />
		<tag k="natural" v="valley" />
		<tag k="place" v="locality" />
		<tag k="ssr:stedsnr" v="178594" />
	</node>
	<node id="-184503" lat="59.9214888887" lon="10.0061111029">
		<tag k="fixme" v="consider natural=peak for the most distinct mountains in the district" />
		<tag k="name" v="Bjønnmyråsen" />
		<tag k="natural" v="hill" />
		<tag k="place" v="locality" />
		<tag k="ssr:stedsnr" v="178521" />
	</node>
	<node id="-184496" lat="59.9010277786" lon="10.1118388942">
		<tag k="name" v="Justavdalen" />
		<tag k="natural" v="valley" />
		<tag k="place" v="locality" />
		<tag k="ssr:stedsnr" v="178004" />
	</node>
	<node id="-184495" lat="60.032808333" lon="9.82537221837">
		<tag k="name" v="Jonsokdalen" />
		<tag k="natural" v="valley" />
		<tag k="place" v="locality" />
		<tag k="ssr:stedsnr" v="177771" />
	</node>
	<node id="-184490" lat="60.1534722199" lon="9.91226389436">
		<tag k="name" v="Nordre Kvitås" />
		<tag k="natural" v="hill" />
		<tag k="place" v="locality" />
		<tag k="ssr:stedsnr" v="176507" />
	</node>
	<node id="-184489" lat="60.0221944407" lon="9.94490277964">
		<tag k="fixme" v="consider natural=peak for the most distinct mountains in the district" />
		<tag k="name" v="Løkmyråsen" />
		<tag k="natural" v="hill" />
		<tag k="place" v="locality" />
		<tag k="ssr:stedsnr" v="176281" />
	</node>
	<node id="-184486" lat="59.9063305587" lon="9.90558332801">
		<tag k="name" v="St. Hans-berget" />
		<tag k="natural" v="hill" />
		<tag k="place" v="locality" />
		<tag k="ssr:stedsnr" v="176062" />
	</node>
	<node id="-184479" lat="60.0647416685" lon="9.8001027786">
		<tag k="name" v="Haukelihallen" />
		<tag k="natural" v="slope" />
		<tag k="place" v="locality" />
		<tag k="ssr:stedsnr" v="163695" />
	</node>
	<node id="-184475" lat="60.0048916632" lon="10.1628805488">
		<tag k="name" v="Langedal" />
		<tag k="natural" v="valley" />
		<tag k="place" v="locality" />
		<tag k="ssr:stedsnr" v="163269" />
	</node>
	<node id="-184474" lat="59.9980916674" lon="10.1915083389">
		<tag k="name" v="Myråsen" />
		<tag k="natural" v="slope" />
		<tag k="place" v="locality" />
		<tag k="ssr:stedsnr" v="163257" />
	</node>
	<node id="-184473" lat="60.0718916699" lon="9.88722500619">
		<tag k="fixme" v="consider natural=peak for the most distinct mountains in the district" />
		<tag k="name" v="Hestemyrbrenna" />
		<tag k="natural" v="hill" />
		<tag k="place" v="locality" />
		<tag k="ssr:stedsnr" v="163107" />
	</node>
	<node id="-184472" lat="60.0906777785" lon="9.87480277239">
		<tag k="name" v="Femtjernhøgda" />
		<tag k="natural" v="hill" />
		<tag k="place" v="locality" />
		<tag k="ssr:stedsnr" v="163100" />
	</node>
	<node id="-184471" lat="60.1010055598" lon="9.86374722791">
		<tag k="fixme" v="consider natural=peak for the most distinct mountains in the district" />
		<tag k="name" v="Mohyttåsen" />
		<tag k="natural" v="hill" />
		<tag k="place" v="locality" />
		<tag k="ssr:stedsnr" v="163097" />
	</node>
	<node id="-184467" lat="59.949963891" lon="9.92900833649">
		<tag k="name" v="Mastedalen" />
		<tag k="natural" v="valley" />
		<tag k="place" v="locality" />
		<tag k="ssr:stedsnr" v="161845" />
	</node>
	<node id="-184458" lat="59.9053694462" lon="9.87638054944">
		<tag k="name" v="Kapralåsen" />
		<tag k="natural" v="hill" />
		<tag k="place" v="locality" />
		<tag k="ssr:stedsnr" v="161071" />
	</node>
	<node id="-184453" lat="60.1053499963" lon="9.84028055014">
		<tag k="fixme" v="consider natural=peak for the most distinct mountains in the district" />
		<tag k="name" v="Tangeåsen" />
		<tag k="natural" v="hill" />
		<tag k="place" v="locality" />
		<tag k="ssr:stedsnr" v="161608" />
	</node>
	<node id="-184452" lat="60.0603777741" lon="9.78709723011">
		<tag k="name" v="Bjønnemyrdalen" />
		<tag k="natural" v="valley" />
		<tag k="place" v="locality" />
		<tag k="ssr:stedsnr" v="158155" />
	</node>
	<node id="-184438" lat="60.124519443" lon="9.89026111732">
		<tag k="alt_name" v="Prestegårdsåsen" />
		<tag k="fixme" v="consider natural=peak for the most distinct mountains in the district" />
		<tag k="name" v="Prestgardsåsen" />
		<tag k="natural" v="hill" />
		<tag k="place" v="locality" />
		<tag k="ssr:stedsnr" v="126804" />
	</node>
	<node id="-184436" lat="59.9287250025" lon="9.8711999977">
		<tag k="alt_name" v="Høgås" />
		<tag k="fixme" v="consider natural=peak for the most distinct mountains in the district" />
		<tag k="name" v="Høgåsen" />
		<tag k="natural" v="hill" />
		<tag k="place" v="locality" />
		<tag k="ssr:stedsnr" v="126603" />
	</node>
	<node id="-184431" lat="60.0383166687" lon="9.90960556267">
		<tag k="fixme" v="consider natural=peak for the most distinct mountains in the district" />
		<tag k="name" v="Tjuvåsen" />
		<tag k="natural" v="hill" />
		<tag k="place" v="locality" />
		<tag k="ssr:stedsnr" v="125920" />
	</node>
	<node id="-184408" lat="59.8765472266" lon="9.84441389202">
		<tag k="alt_name" v="Søndre Skibrekås" />
		<tag k="fixme" v="consider natural=peak for the most distinct mountains in the district" />
		<tag k="name" v="Søndre Skibrekkåsen" />
		<tag k="natural" v="hill" />
		<tag k="place" v="locality" />
		<tag k="ssr:stedsnr" v="125695" />
	</node>
	<node id="-184403" lat="59.8901666633" lon="9.83800556056">
		<tag k="alt_name" v="Nordre Skibrekås" />
		<tag k="fixme" v="consider natural=peak for the most distinct mountains in the district" />
		<tag k="name" v="Nordre Skibrekkåsen" />
		<tag k="natural" v="hill" />
		<tag k="place" v="locality" />
		<tag k="ssr:stedsnr" v="125674" />
	</node>
	<node id="-184396" lat="59.9749916639" lon="10.1335055528">
		<tag k="alt_name" v="Breiliflaket" />
		<tag k="name" v="Breiliflaka" />
		<tag k="natural" v="hill" />
		<tag k="place" v="locality" />
		<tag k="ssr:stedsnr" v="125509" />
	</node>
	<node id="-184380" lat="60.0053166664" lon="9.8375083286">
		<tag k="fixme" v="consider natural=peak for the most distinct mountains in the district" />
		<tag k="name" v="Flaåsen" />
		<tag k="natural" v="hill" />
		<tag k="place" v="locality" />
		<tag k="ssr:stedsnr" v="119765" />
	</node>
	<node id="-184379" lat="60.0211777809" lon="9.81571665904">
		<tag k="fixme" v="consider natural=peak for the most distinct mountains in the district" />
		<tag k="name" v="Damåsen" />
		<tag k="natural" v="hill" />
		<tag k="place" v="locality" />
		<tag k="ssr:stedsnr" v="119550" />
	</node>
	<node id="-184377" lat="59.9813083325" lon="9.87317222605">
		<tag k="fixme" v="consider natural=peak for the most distinct mountains in the district" />
		<tag k="name" v="Skuterudåsen" />
		<tag k="natural" v="hill" />
		<tag k="place" v="locality" />
		<tag k="ssr:stedsnr" v="119363" />
	</node>
	<node id="-184374" lat="59.9017916647" lon="9.84827222846">
		<tag k="name" v="Rangseterdalen" />
		<tag k="natural" v="valley" />
		<tag k="place" v="locality" />
		<tag k="ssr:stedsnr" v="118971" />
	</node>
	<node id="-184359" lat="59.9834277768" lon="10.0616638847">
		<tag k="name" v="Sandlaupåsen" />
		<tag k="natural" v="slope" />
		<tag k="place" v="locality" />
		<tag k="ssr:stedsnr" v="116855" />
	</node>
	<node id="-184358" lat="59.999855557" lon="10.0767833279">
		<tag k="name" v="Grasbråtan" />
		<tag k="natural" v="slope" />
		<tag k="place" v="locality" />
		<tag k="ssr:stedsnr" v="116848" />
	</node>
	<node id="-184357" lat="60.0018111103" lon="10.0759333275">
		<tag k="name" v="Sjulsfjellet" />
		<tag k="natural" v="slope" />
		<tag k="place" v="locality" />
		<tag k="ssr:stedsnr" v="116847" />
	</node>
	<node id="-184356" lat="60.1640222251" lon="9.92547499891">
		<tag k="fixme" v="consider natural=peak for the most distinct mountains in the district" />
		<tag k="name" v="Bjønnestillingsåsen" />
		<tag k="natural" v="hill" />
		<tag k="place" v="locality" />
		<tag k="ssr:stedsnr" v="116550" />
	</node>
	<node id="-184352" lat="60.1124777775" lon="9.86706944696">
		<tag k="fixme" v="consider natural=peak for the most distinct mountains in the district" />
		<tag k="name" v="Damtjernåsen" />
		<tag k="natural" v="hill" />
		<tag k="place" v="locality" />
		<tag k="ssr:stedsnr" v="116062" />
	</node>
	<node id="-184351" lat="59.9927138923" lon="10.1034777784">
		<tag k="name" v="Myssmørkleiva" />
		<tag k="natural" v="slope" />
		<tag k="place" v="locality" />
		<tag k="ssr:stedsnr" v="116958" />
	</node>
	<node id="-184350" lat="59.9955444457" lon="10.0901444445">
		<tag k="name" v="Nilslihovet" />
		<tag k="natural" v="hill" />
		<tag k="place" v="locality" />
		<tag k="ssr:stedsnr" v="116930" />
	</node>
	<node id="-184343" lat="59.9667416648" lon="10.0403694502">
		<tag k="fixme" v="consider natural=peak for the most distinct mountains in the district" />
		<tag k="name" v="Slettåsen" />
		<tag k="natural" v="hill" />
		<tag k="place" v="locality" />
		<tag k="ssr:stedsnr" v="103942" />
	</node>
	<node id="-184339" lat="60.0001972202" lon="10.1737250026">
		<tag k="name" v="Smiudokka" />
		<tag k="place" v="locality" />
		<tag k="ssr:stedsnr" v="103263" />
	</node>
	<node id="-184338" lat="60.0690416681" lon="9.89841389316">
		<tag k="fixme" v="consider natural=peak for the most distinct mountains in the district" />
		<tag k="name" v="Gubberudseteråsen" />
		<tag k="natural" v="hill" />
		<tag k="place" v="locality" />
		<tag k="ssr:stedsnr" v="103123" />
	</node>
	<node id="-184337" lat="59.9449805515" lon="9.88456667068">
		<tag k="name" v="Helleåsen" />
		<tag k="natural" v="hill" />
		<tag k="place" v="locality" />
		<tag k="ssr:stedsnr" v="102881" />
	</node>
	<node id="-184325" lat="59.8839666666" lon="9.81396110941">
		<tag k="name" v="Søndre Hagaskar" />
		<tag k="natural" v="valley" />
		<tag k="place" v="locality" />
		<tag k="ssr:stedsnr" v="101311" />
	</node>
</osm>
