<?xml version="1.0" encoding="UTF-8"?>
<osm generator="osmapis" version="0.6">
	<node id="-184318" lat="60.0470972195" lon="9.91498334182">
		<tag k="name" v="Kroktjern" />
		<tag k="natural" v="water" />
		<tag k="ssr:stedsnr" v="179243" />
	</node>
	<node id="-184302" lat="59.9732250029" lon="10.1612138924">
		<tag k="name" v="De utgravne tjerna" />
		<tag k="natural" v="water" />
		<tag k="ssr:stedsnr" v="178121" />
		<tag k="water" v="lake" />
	</node>
	<node id="-184300" lat="59.9183638849" lon="10.092833333">
		<tag k="name" v="Vesle Rotoa" />
		<tag k="natural" v="water" />
		<tag k="ssr:stedsnr" v="178046" />
	</node>
	<node id="-184299" lat="59.9544055538" lon="10.0913888901">
		<tag k="name" v="Vesle Åsvannet" />
		<tag k="natural" v="water" />
		<tag k="ssr:stedsnr" v="178039" />
		<tag k="water" v="lake" />
	</node>
	<node id="-184295" lat="59.985691666" lon="10.1360416665">
		<tag k="loc_name" v="Askerudputten" />
		<tag k="name" v="Storaskerudmyrputten" />
		<tag k="natural" v="water" />
		<tag k="ssr:stedsnr" v="176980" />
		<tag k="water" v="pond" />
	</node>
	<node id="-184290" lat="60.0423472235" lon="9.93926666743">
		<tag k="name" v="Rakletjern" />
		<tag k="natural" v="water" />
		<tag k="ssr:stedsnr" v="176271" />
	</node>
	<node id="-184283" lat="59.9756777814" lon="10.0707499948">
		<tag k="name" v="Svartputt" />
		<tag k="natural" v="water" />
		<tag k="ssr:stedsnr" v="163996" />
		<tag k="water" v="pond" />
	</node>
	<node id="-184282" lat="60.0554055548" lon="9.93035276958">
		<tag k="name" v="Okseaua" />
		<tag k="natural" v="water" />
		<tag k="ssr:stedsnr" v="163734" />
		<tag k="water" v="pond" />
	</node>
	<node id="-184280" lat="60.0519777761" lon="9.84553334151">
		<tag k="name" v="Øvre Uløya" />
		<tag k="place" v="island" />
		<tag k="ssr:stedsnr" v="163672" />
	</node>
	<node id="-184278" lat="60.0557583331" lon="9.9662833341">
		<tag k="name" v="Svartpytt" />
		<tag k="natural" v="water" />
		<tag k="ssr:stedsnr" v="163609" />
		<tag k="water" v="pond" />
	</node>
	<node id="-184272" lat="60.0969222227" lon="9.88115555034">
		<tag k="name" v="Grøterudputten" />
		<tag k="natural" v="water" />
		<tag k="ssr:stedsnr" v="163026" />
		<tag k="water" v="pond" />
	</node>
	<node id="-184271" lat="59.8758027774" lon="10.0569444451">
		<tag k="name" v="Guritjernsbekken" />
		<tag k="ssr:stedsnr" v="162714" />
		<tag k="waterway" v="stream" />
	</node>
	<node id="-184265" lat="59.8684472208" lon="10.0332972229">
		<tag k="name" v="Jøssjøbekken" />
		<tag k="ssr:stedsnr" v="161539" />
		<tag k="waterway" v="stream" />
	</node>
	<node id="-184262" lat="59.9691388896" lon="10.1079777861">
		<tag k="name" v="Hesteskotjern" />
		<tag k="natural" v="water" />
		<tag k="ssr:stedsnr" v="161105" />
	</node>
	<node id="-184256" lat="59.9406305549" lon="10.0770833282">
		<tag k="name" v="Svarttjern" />
		<tag k="natural" v="water" />
		<tag k="ssr:stedsnr" v="161627" />
	</node>
	<node id="-184253" lat="60.0707083313" lon="9.7940555643">
		<tag k="name" v="Sandbekk" />
		<tag k="ssr:stedsnr" v="158149" />
		<tag k="waterway" v="stream" />
	</node>
	<node id="-184251" lat="60.0395527801" lon="9.78505277659">
		<tag k="name" v="Værtjern" />
		<tag k="natural" v="water" />
		<tag k="ssr:stedsnr" v="158094" />
	</node>
	<node id="-184244" lat="59.9138027767" lon="9.88311110407">
		<tag k="name" v="Haugfoss" />
		<tag k="natural" v="waterfall" />
		<tag k="ssr:stedsnr" v="145042" />
	</node>
	<node id="-184242" lat="60.0058861072" lon="10.0533027845">
		<tag k="name" v="Furetangen" />
		<tag k="natural" v="cape" />
		<tag k="ssr:stedsnr" v="127467" />
	</node>
	<node id="-184239" lat="60.1261527794" lon="9.94624444323">
		<tag k="name" v="Løken" />
		<tag k="natural" v="water" />
		<tag k="ssr:stedsnr" v="126800" />
	</node>
	<node id="-184229" lat="60.0559361153" lon="9.92175277142">
		<tag k="name" v="Langsjø" />
		<tag k="natural" v="water" />
		<tag k="ssr:stedsnr" v="125907" />
		<tag k="water" v="lake" />
	</node>
	<node id="-184228" lat="60.1603361138" lon="9.89004999514">
		<tag k="name" v="Svartputten" />
		<tag k="natural" v="water" />
		<tag k="ssr:stedsnr" v="125797" />
	</node>
	<node id="-184225" lat="59.9519027782" lon="9.87119722892">
		<tag k="name" v="Overntjern" />
		<tag k="natural" v="water" />
		<tag k="ssr:stedsnr" v="125768" />
	</node>
	<node id="-184224" lat="59.9369611141" lon="9.73399722619">
		<tag k="name" v="Igletjern" />
		<tag k="natural" v="water" />
		<tag k="ssr:stedsnr" v="125880" />
	</node>
	<node id="-184223" lat="59.9294361122" lon="9.73524445335">
		<tag k="name" v="Stortjern" />
		<tag k="natural" v="water" />
		<tag k="ssr:stedsnr" v="125877" />
	</node>
	<node id="-184218" lat="59.9169055561" lon="9.78908611538">
		<tag k="name" v="Kjerringtjern" />
		<tag k="natural" v="water" />
		<tag k="ssr:stedsnr" v="125849" />
	</node>
	<node id="-184216" lat="59.9196805553" lon="9.88837222">
		<tag k="name" v="Overnbekken" />
		<tag k="ssr:stedsnr" v="125842" />
		<tag k="waterway" v="stream" />
	</node>
	<node id="-184215" lat="59.9064500043" lon="9.781811117">
		<tag k="name" v="Tuvtjern" />
		<tag k="natural" v="water" />
		<tag k="ssr:stedsnr" v="125830" />
	</node>
	<node id="-184209" lat="59.8984972198" lon="9.8197694508">
		<tag k="alt_name" v="Dammene" />
		<tag k="name" v="Dammane" />
		<tag k="natural" v="water" />
		<tag k="ssr:stedsnr" v="125691" />
	</node>
	<node id="-184200" lat="59.9882833294" lon="10.1070861083">
		<tag k="name" v="Auretjern" />
		<tag k="natural" v="water" />
		<tag k="ssr:stedsnr" v="125464" />
	</node>
	<node id="-184199" lat="59.9171527751" lon="10.0427472248">
		<tag k="alt_name" v="Urvannet" />
		<tag k="name" v="Urdvatnet" />
		<tag k="natural" v="water" />
		<tag k="ssr:stedsnr" v="125452" />
		<tag k="water" v="lake" />
	</node>
	<node id="-184197" lat="59.9547416644" lon="10.108175008">
		<tag k="alt_name" v="Vesle Bomla" />
		<tag k="name" v="Vesle Bumla" />
		<tag k="natural" v="water" />
		<tag k="ssr:stedsnr" v="125507" />
		<tag k="water" v="lake" />
	</node>
	<node id="-184193" lat="59.9710611128" lon="10.0795472143">
		<tag k="alt_name" v="Gulbrandstjern" />
		<tag k="name" v="Gudbrandstjern" />
		<tag k="natural" v="water" />
		<tag k="ssr:stedsnr" v="124433" />
	</node>
	<node id="-184192" lat="59.9659750035" lon="10.0984416732">
		<tag k="name" v="Lårvika" />
		<tag k="natural" v="water" />
		<tag k="ssr:stedsnr" v="124409" />
	</node>
	<node id="-184191" lat="59.89131111" lon="10.0841861071">
		<tag k="name" v="Elgstjerna" />
		<tag k="natural" v="water" />
		<tag k="ssr:stedsnr" v="124275" />
		<tag k="water" v="lake" />
	</node>
	<node id="-184174" lat="59.9685111087" lon="9.96718054981">
		<tag k="name" v="Råenbekken" />
		<tag k="ssr:stedsnr" v="118839" />
		<tag k="waterway" v="stream" />
	</node>
	<node id="-184172" lat="59.8858888865" lon="10.0159527742">
		<tag k="name" v="Fosstjern" />
		<tag k="natural" v="water" />
		<tag k="ssr:stedsnr" v="118580" />
	</node>
	<node id="-184164" lat="59.959925003" lon="10.167441675">
		<tag k="name" v="Snøkolltjern" />
		<tag k="natural" v="water" />
		<tag k="ssr:stedsnr" v="125411" />
	</node>
	<node id="-184162" lat="59.9813416658" lon="10.0873833419">
		<tag k="name" v="Damtjern" />
		<tag k="natural" v="water" />
		<tag k="ssr:stedsnr" v="116858" />
	</node>
	<node id="-184157" lat="60.0324611093" lon="9.89521388253">
		<tag k="name" v="Svartputt" />
		<tag k="natural" v="water" />
		<tag k="ssr:stedsnr" v="116277" />
		<tag k="water" v="pond" />
	</node>
	<node id="-184146" lat="59.9797749998" lon="10.0791944362">
		<tag k="name" v="Kroktjernbekken" />
		<tag k="ssr:stedsnr" v="103999" />
		<tag k="waterway" v="stream" />
	</node>
	<node id="-184143" lat="59.9910666684" lon="10.1511194503">
		<tag k="name" v="Ringeputt" />
		<tag k="natural" v="water" />
		<tag k="ssr:stedsnr" v="103271" />
		<tag k="water" v="pond" />
	</node>
	<node id="-184133" lat="59.9154361087" lon="10.0678972187">
		<tag k="name" v="Fjelldammen" />
		<tag k="natural" v="water" />
		<tag k="ssr:stedsnr" v="101682" />
	</node>
	<node id="-184131" lat="59.9481305548" lon="10.0668166579">
		<tag k="name" v="Snelletjern" />
		<tag k="natural" v="water" />
		<tag k="ssr:stedsnr" v="101662" />
	</node>
	<node id="-184130" lat="59.9390055514" lon="10.0702638823">
		<tag k="name" v="Butjern" />
		<tag k="natural" v="water" />
		<tag k="ssr:stedsnr" v="101653" />
	</node>
	<node id="-184121" lat="60.0209444447" lon="9.88951943666">
		<tag k="name" v="Vesletjern" />
		<tag k="natural" v="water" />
		<tag k="ssr:stedsnr" v="100226" />
	</node>
	<node id="-184118" lat="59.9113583352" lon="9.78297221711">
		<tag k="name" v="Jønntjern" />
		<tag k="natural" v="water" />
		<tag k="ssr:stedsnr" v="97010" />
	</node>
	<node id="-184112" lat="60.059899996" lon="9.87518055778">
		<tag k="name" v="Dypingen" />
		<tag k="natural" v="water" />
		<tag k="ssr:stedsnr" v="65919" />
	</node>
	<node id="-184109" lat="60.0795055524" lon="9.92325277757">
		<tag k="alt_name" v="Nordre Stupellatjern" />
		<tag k="name" v="Nordre Stuphelltjernet" />
		<tag k="natural" v="water" />
		<tag k="ssr:stedsnr" v="65884" />
	</node>
	<node id="-184103" lat="60.1334249959" lon="9.91952500601">
		<tag k="alt_name" v="Steinstjern" />
		<tag k="name" v="Steintjern" />
		<tag k="natural" v="water" />
		<tag k="ssr:stedsnr" v="65820" />
	</node>
	<node id="-184100" lat="59.979325001" lon="10.1132749931">
		<tag k="name" v="Svarttjern" />
		<tag k="natural" v="water" />
		<tag k="ssr:stedsnr" v="65477" />
	</node>
	<node id="-184099" lat="59.9747027736" lon="10.1706166638">
		<tag k="alt_name" v="Kimerud Ventjern" />
		<tag k="name" v="Ventjern" />
		<tag k="natural" v="water" />
		<tag k="ssr:stedsnr" v="65476" />
	</node>
	<node id="-184093" lat="59.9848861087" lon="10.1658694488">
		<tag k="name" v="Rokketjern" />
		<tag k="natural" v="water" />
		<tag k="ssr:stedsnr" v="65435" />
	</node>
	<node id="-184089" lat="59.8813702895" lon="9.98727560261">
		<tag k="name" v="Store Vindsjø" />
		<tag k="natural" v="water" />
		<tag k="ssr:stedsnr" v="65346" />
	</node>
	<node id="-184088" lat="59.8784999956" lon="9.99438888141">
		<tag k="name" v="Vesle Vindsjø" />
		<tag k="natural" v="water" />
		<tag k="ssr:stedsnr" v="65344" />
	</node>
	<node id="-184087" lat="59.8763416658" lon="10.0057027783">
		<tag k="name" v="Svarttjern" />
		<tag k="natural" v="water" />
		<tag k="ssr:stedsnr" v="65342" />
	</node>
	<node id="-184086" lat="60.0975833351" lon="9.94097222946">
		<tag k="alt_name" v="Haukvann" />
		<tag k="name" v="Haukevatnet" />
		<tag k="natural" v="water" />
		<tag k="ssr:stedsnr" v="66846" />
	</node>
	<node id="-184082" lat="59.9554444485" lon="9.87324166333">
		<tag k="name" v="Igletjern" />
		<tag k="natural" v="water" />
		<tag k="ssr:stedsnr" v="64763" />
	</node>
	<node id="-184081" lat="59.9578416656" lon="10.0874000006">
		<tag k="name" v="Åsvanna" />
		<tag k="natural" v="water" />
		<tag k="ssr:stedsnr" v="64472" />
		<tag k="water" v="lake" />
	</node>
	<node id="-184080" lat="59.9481555594" lon="10.1338972262">
		<tag k="name" v="De pene tjerna" />
		<tag k="natural" v="water" />
		<tag k="ssr:stedsnr" v="64396" />
		<tag k="water" v="lake" />
	</node>
	<node id="-184067" lat="60.0466888874" lon="9.88139722619">
		<tag k="name" v="Asketjernmyra" />
		<tag k="natural" v="water" />
		<tag k="ssr:stedsnr" v="59059" />
	</node>
	<node id="-184061" lat="60.0192000025" lon="9.82620000151">
		<tag k="name" v="Verensbekken" />
		<tag k="ssr:stedsnr" v="58549" />
		<tag k="waterway" v="stream" />
	</node>
	<node id="-184052" lat="59.9077222195" lon="10.0085194469">
		<tag k="name" v="Sønstebybekken" />
		<tag k="ssr:stedsnr" v="57594" />
		<tag k="waterway" v="stream" />
	</node>
	<node id="-184051" lat="59.9012472196" lon="10.0062138878">
		<tag k="name" v="Paddeputt" />
		<tag k="natural" v="water" />
		<tag k="ssr:stedsnr" v="57592" />
		<tag k="water" v="pond" />
	</node>
	<node id="-184036" lat="60.0359944452" lon="9.89713889447">
		<tag k="name" v="Løken" />
		<tag k="ssr:stedsnr" v="55286" />
		<tag k="waterway" v="stream" />
	</node>
	<node id="-184027" lat="59.9668055518" lon="10.0607555493">
		<tag k="name" v="Hundtjern" />
		<tag k="natural" v="water" />
		<tag k="ssr:stedsnr" v="42979" />
	</node>
	<node id="-184022" lat="60.0576694432" lon="9.80275276969">
		<tag k="name" v="Fillebakkbekken" />
		<tag k="ssr:stedsnr" v="42668" />
		<tag k="waterway" v="stream" />
	</node>
	<node id="-184006" lat="59.8911638889" lon="10.0675277819">
		<tag k="name" v="Okseøye" />
		<tag k="natural" v="water" />
		<tag k="ssr:stedsnr" v="40711" />
		<tag k="water" v="pond" />
	</node>
	<node id="-184004" lat="60.0954694485" lon="9.95101111302">
		<tag k="name" v="Sørlielva" />
		<tag k="ssr:stedsnr" v="40705" />
		<tag k="waterway" v="river" />
	</node>
	<node id="-184003" lat="59.9205361122" lon="10.0678277709">
		<tag k="name" v="Fjelldammen" />
		<tag k="natural" v="water" />
		<tag k="ssr:stedsnr" v="40704" />
	</node>
	<node id="-184000" lat="59.9387805583" lon="10.0625249961">
		<tag k="name" v="Vesle Kroktjern" />
		<tag k="natural" v="water" />
		<tag k="ssr:stedsnr" v="40668" />
	</node>
	<node id="-183995" lat="59.9681194401" lon="10.0934861172">
		<tag k="name" v="Tretjerna" />
		<tag k="natural" v="water" />
		<tag k="ssr:stedsnr" v="40089" />
		<tag k="water" v="lake" />
	</node>
	<node id="-183993" lat="59.96666944" lon="10.122672227">
		<tag k="name" v="Gunhildbakktjern" />
		<tag k="natural" v="water" />
		<tag k="ssr:stedsnr" v="40070" />
	</node>
	<node id="-183989" lat="59.9754611072" lon="10.2651916636">
		<tag k="name" v="Kusandvika" />
		<tag k="natural" v="bay" />
		<tag k="ssr:stedsnr" v="26323" />
	</node>
	<node id="-183981" lat="60.0059277766" lon="10.1297111051">
		<tag k="fixme" v="multiple name tags, choose one and add the other to alt_name" />
		<tag k="name" v="Askerudbekken;Askerudelva" />
		<tag k="ssr:stedsnr" v="5408" />
		<tag k="waterway" v="stream" />
	</node>
	<node id="-183969" lat="59.921074997" lon="9.77891666738">
		<tag k="alt_name" v="Holmetjern" />
		<tag k="name" v="Holmentjern" />
		<tag k="natural" v="water" />
		<tag k="ssr:stedsnr" v="4873" />
	</node>
	<node id="-183967" lat="59.9270666648" lon="9.71567500587">
		<tag k="alt_name" v="Løkeelva" />
		<tag k="name" v="Løken" />
		<tag k="ssr:stedsnr" v="4868" />
		<tag k="waterway" v="river" />
	</node>
	<node id="-183965" lat="59.9301712394" lon="9.87126101597">
		<tag k="name" v="Koplandtjern" />
		<tag k="natural" v="water" />
		<tag k="ssr:stedsnr" v="4855" />
	</node>
	<node id="-183963" lat="60.1297027741" lon="9.93072499555">
		<tag k="name" v="Kroktjern" />
		<tag k="natural" v="water" />
		<tag k="ssr:stedsnr" v="4839" />
	</node>
	<node id="-183962" lat="59.9626500004" lon="9.87351111669">
		<tag k="name" v="Butjern" />
		<tag k="natural" v="water" />
		<tag k="ssr:stedsnr" v="4788" />
	</node>
	<node id="-183956" lat="59.9817250006" lon="10.1532138879">
		<tag k="alt_name" v="Dignes Kroktjern;Dignes-Kroktjern" />
		<tag k="name" v="Kroktjern" />
		<tag k="natural" v="water" />
		<tag k="ssr:stedsnr" v="4442" />
	</node>
	<node id="-183955" lat="59.9128361102" lon="10.03915555">
		<tag k="name" v="Midttjern" />
		<tag k="natural" v="water" />
		<tag k="ssr:stedsnr" v="4410" />
	</node>
	<node id="-183931" lat="60.1595867347" lon="9.96217835038">
		<tag k="name" v="Nordre Tjuventjern" />
		<tag k="natural" v="water" />
		<tag k="ssr:stedsnr" v="211375" />
	</node>
	<node id="-183930" lat="60.1577457306" lon="9.95890527795">
		<tag k="name" v="Søndre Tjuventjern" />
		<tag k="natural" v="water" />
		<tag k="ssr:stedsnr" v="429789" />
	</node>
	<node id="-183929" lat="60.1589440722" lon="9.96083994279">
		<tag k="alt_name" v="Tjuentjerna;Tjuventjern" />
		<tag k="name" v="Tjuventjerna" />
		<tag k="natural" v="water" />
		<tag k="ssr:stedsnr" v="405284" />
		<tag k="water" v="lake" />
	</node>
	<node id="-183925" lat="60.160863885" lon="9.87779444532">
		<tag k="name" v="Mortenvatna" />
		<tag k="natural" v="water" />
		<tag k="ssr:stedsnr" v="672763" />
	</node>
	<node id="-183918" lat="59.91855104" lon="9.9697792846">
		<tag k="alt_name" v="Vassbotn" />
		<tag k="name" v="Vassbonn" />
		<tag k="natural" v="bay" />
		<tag k="ssr:stedsnr" v="892582" />
	</node>
	<node id="-183906" lat="59.9570805529" lon="9.9359222169">
		<tag k="name" v="Kistefoss" />
		<tag k="ssr:stedsnr" v="890884" />
		<tag k="waterway" v="rapids" />
	</node>
	<node id="-183905" lat="59.8802277773" lon="10.0762888953">
		<tag k="name" v="Gørrbuvika" />
		<tag k="natural" v="bay" />
		<tag k="ssr:stedsnr" v="890725" />
	</node>
	<node id="-183904" lat="59.8763444405" lon="10.0669277821">
		<tag k="name" v="Kattøya" />
		<tag k="place" v="island" />
		<tag k="ssr:stedsnr" v="890723" />
	</node>
	<node id="-183902" lat="60.1145611082" lon="9.96192499343">
		<tag k="name" v="Haugfoss" />
		<tag k="natural" v="waterfall" />
		<tag k="ssr:stedsnr" v="890715" />
	</node>
	<node id="-183895" lat="59.9581472255" lon="10.0850638861">
		<tag k="name" v="Åsvannputten" />
		<tag k="natural" v="water" />
		<tag k="ssr:stedsnr" v="890689" />
		<tag k="water" v="pond" />
	</node>
	<node id="-183886" lat="60.0434055597" lon="9.88481111989">
		<tag k="name" v="Kattjern" />
		<tag k="natural" v="water" />
		<tag k="ssr:stedsnr" v="479280" />
	</node>
	<node id="-183878" lat="60.0798333331" lon="9.95379444388">
		<tag k="name" v="Ulmyrvika" />
		<tag k="natural" v="water" />
		<tag k="ssr:stedsnr" v="406633" />
		<tag k="water" v="lake" />
	</node>
	<node id="-183873" lat="59.9890305525" lon="10.2101638907">
		<tag k="name" v="Kimerudelva" />
		<tag k="ssr:stedsnr" v="406297" />
		<tag k="waterway" v="stream" />
	</node>
	<node id="-183872" lat="59.9831277763" lon="10.1684444467">
		<tag k="name" v="Rokketjernputten" />
		<tag k="natural" v="water" />
		<tag k="ssr:stedsnr" v="406291" />
		<tag k="water" v="pond" />
	</node>
	<node id="-183840" lat="60.1042249975" lon="9.94820000224">
		<tag k="name" v="Sørlitjern" />
		<tag k="natural" v="water" />
		<tag k="ssr:stedsnr" v="369835" />
	</node>
	<node id="-183839" lat="60.0991888924" lon="9.88483056197">
		<tag k="alt_name" v="Kroktjerna" />
		<tag k="name" v="Kroktjern" />
		<tag k="natural" v="water" />
		<tag k="ssr:stedsnr" v="369821" />
	</node>
	<node id="-183837" lat="60.0128055547" lon="10.03450833">
		<tag k="name" v="Drolsumtangen" />
		<tag k="natural" v="cape" />
		<tag k="ssr:stedsnr" v="369375" />
	</node>
	<node id="-183831" lat="60.0096611117" lon="9.81305555459">
		<tag k="name" v="Purketjern" />
		<tag k="natural" v="water" />
		<tag k="ssr:stedsnr" v="368968" />
	</node>
	<node id="-183828" lat="60.0194083301" lon="9.91632499755">
		<tag k="name" v="Grunna" />
		<tag k="natural" v="water" />
		<tag k="ssr:stedsnr" v="368948" />
	</node>
	<node id="-183825" lat="59.9261666683" lon="9.767177772">
		<tag k="name" v="Blådalstjern" />
		<tag k="natural" v="water" />
		<tag k="ssr:stedsnr" v="368875" />
	</node>
	<node id="-183818" lat="59.9379972206" lon="9.74751389572">
		<tag k="name" v="Mjovann" />
		<tag k="natural" v="water" />
		<tag k="ssr:stedsnr" v="368795" />
	</node>
	<node id="-183816" lat="59.9491694402" lon="9.85116667227">
		<tag k="name" v="Krabbetjern" />
		<tag k="natural" v="water" />
		<tag k="ssr:stedsnr" v="368787" />
	</node>
	<node id="-183812" lat="59.8740000002" lon="9.93905833109">
		<tag k="name" v="Heståstjern" />
		<tag k="natural" v="water" />
		<tag k="ssr:stedsnr" v="368677" />
	</node>
	<node id="-183795" lat="59.9624777758" lon="10.0654999926">
		<tag k="name" v="Sandtjern" />
		<tag k="natural" v="water" />
		<tag k="ssr:stedsnr" v="367415" />
	</node>
	<node id="-183794" lat="59.9530611114" lon="10.1198666625">
		<tag k="alt_name" v="Bumla;Store Bomla" />
		<tag k="name" v="Store Bumla" />
		<tag k="natural" v="water" />
		<tag k="ssr:stedsnr" v="367410" />
		<tag k="water" v="lake" />
	</node>
	<node id="-183791" lat="59.966150002" lon="10.1598027842">
		<tag k="alt_name" v="Reva hass bjønn" />
		<tag k="name" v="Rævassbjørn" />
		<tag k="natural" v="water" />
		<tag k="ssr:stedsnr" v="367399" />
	</node>
	<node id="-183789" lat="59.9500444463" lon="10.171519453">
		<tag k="name" v="Tverrelva" />
		<tag k="ssr:stedsnr" v="367323" />
		<tag k="waterway" v="stream" />
	</node>
	<node id="-183788" lat="59.8991749964" lon="10.0693749983">
		<tag k="name" v="Butjern" />
		<tag k="natural" v="water" />
		<tag k="ssr:stedsnr" v="367269" />
	</node>
	<node id="-183778" lat="60.0092833318" lon="9.97760556417">
		<tag k="name" v="Langsrudbekken" />
		<tag k="ssr:stedsnr" v="362011" />
		<tag k="waterway" v="stream" />
	</node>
	<node id="-183760" lat="59.9310694474" lon="10.0963638876">
		<tag k="name" v="Fjellrosa" />
		<tag k="natural" v="water" />
		<tag k="ssr:stedsnr" v="360025" />
	</node>
	<node id="-183753" lat="59.9900916629" lon="10.0749777823">
		<tag k="name" v="Kneet" />
		<tag k="place" v="locality" />
		<tag k="ssr:stedsnr" v="358845" />
	</node>
	<node id="-183752" lat="60.0412611151" lon="9.96794166507">
		<tag k="name" v="Vesleelva" />
		<tag k="ssr:stedsnr" v="358285" />
		<tag k="waterway" v="stream" />
	</node>
	<node id="-183751" lat="60.0346916653" lon="9.87739722993">
		<tag k="name" v="Harpentjern" />
		<tag k="natural" v="water" />
		<tag k="ssr:stedsnr" v="358276" />
	</node>
	<node id="-183750" lat="59.8961333319" lon="9.91177500711">
		<tag k="name" v="Kongsfoss" />
		<tag k="natural" v="waterfall" />
		<tag k="ssr:stedsnr" v="358061" />
	</node>
	<node id="-183749" lat="60.1125277821" lon="9.9119055512">
		<tag k="name" v="Igleputten" />
		<tag k="natural" v="water" />
		<tag k="ssr:stedsnr" v="358057" />
		<tag k="water" v="pond" />
	</node>
	<node id="-183740" lat="60.0456222225" lon="9.96727777033">
		<tag k="name" v="Justadtjern" />
		<tag k="natural" v="water" />
		<tag k="ssr:stedsnr" v="345727" />
	</node>
	<node id="-183736" lat="60.0605999978" lon="9.83815555667">
		<tag k="name" v="Korsbøentjern" />
		<tag k="natural" v="water" />
		<tag k="ssr:stedsnr" v="345674" />
		<tag k="water" v="lake" />
	</node>
	<node id="-183732" lat="60.0536861119" lon="9.89693889559">
		<tag k="name" v="Sandungsputten" />
		<tag k="natural" v="water" />
		<tag k="ssr:stedsnr" v="345137" />
		<tag k="water" v="pond" />
	</node>
	<node id="-183728" lat="60.1051499973" lon="9.88633889638">
		<tag k="name" v="Vilsamtjern" />
		<tag k="natural" v="water" />
		<tag k="ssr:stedsnr" v="345044" />
	</node>
	<node id="-183722" lat="60.0674555538" lon="9.83355000645">
		<tag k="name" v="Vesleelva" />
		<tag k="ssr:stedsnr" v="343732" />
		<tag k="waterway" v="river" />
	</node>
	<node id="-183712" lat="59.9711388931" lon="10.1101944441">
		<tag k="name" v="Karusstjern" />
		<tag k="natural" v="water" />
		<tag k="ssr:stedsnr" v="343066" />
	</node>
	<node id="-183711" lat="59.8929305557" lon="9.76689722214">
		<tag k="name" v="Hanseløkkbekken" />
		<tag k="ssr:stedsnr" v="339988" />
		<tag k="waterway" v="stream" />
	</node>
	<node id="-183707" lat="59.9556861138" lon="9.82894999136">
		<tag k="name" v="Vestbekken" />
		<tag k="ssr:stedsnr" v="336609" />
		<tag k="waterway" v="stream" />
	</node>
	<node id="-183706" lat="59.9546972228" lon="9.75295833834">
		<tag k="name" v="Åsterudbekken" />
		<tag k="ssr:stedsnr" v="335617" />
		<tag k="waterway" v="stream" />
	</node>
	<node id="-183697" lat="60.0262611098" lon="9.90574999866">
		<tag k="name" v="Sysletjern" />
		<tag k="natural" v="water" />
		<tag k="ssr:stedsnr" v="308928" />
	</node>
	<node id="-183692" lat="59.887519444" lon="9.97688610835">
		<tag k="name" v="Åstjern" />
		<tag k="natural" v="water" />
		<tag k="ssr:stedsnr" v="308281" />
	</node>
	<node id="-183689" lat="59.9116749991" lon="9.80834999394">
		<tag k="alt_name" v="Sterkebytjern" />
		<tag k="name" v="Sterkabytjern" />
		<tag k="natural" v="water" />
		<tag k="ssr:stedsnr" v="307842" />
	</node>
	<node id="-183687" lat="59.9106916643" lon="9.76896389712">
		<tag k="name" v="Dipletjern" />
		<tag k="natural" v="water" />
		<tag k="ssr:stedsnr" v="307815" />
	</node>
	<node id="-183685" lat="59.966558336" lon="9.88986945294">
		<tag k="name" v="Bergandammen" />
		<tag k="natural" v="water" />
		<tag k="ssr:stedsnr" v="307785" />
	</node>
	<node id="-183683" lat="59.9382083359" lon="9.76577222406">
		<tag k="alt_name" v="Ildalstjern" />
		<tag k="name" v="Illdalstjerna" />
		<tag k="natural" v="water" />
		<tag k="ssr:stedsnr" v="307765" />
	</node>
	<node id="-183680" lat="59.9929277754" lon="10.1684999938">
		<tag k="name" v="Vesledammen" />
		<tag k="natural" v="water" />
		<tag k="ssr:stedsnr" v="307475" />
	</node>
	<node id="-183679" lat="59.9891243032" lon="10.0763866575">
		<tag k="alt_name" v="Askimelva" />
		<tag k="fixme" v="multiple name tags, choose one and add the other to alt_name" />
		<tag k="name" v="Askjumbekken;Askjumelva" />
		<tag k="ssr:stedsnr" v="307470" />
		<tag k="waterway" v="stream" />
	</node>
	<node id="-183677" lat="59.946036114" lon="10.0550000048">
		<tag k="alt_name" v="Dam-Heggesjø" />
		<tag k="name" v="Damheggesjø" />
		<tag k="natural" v="water" />
		<tag k="ssr:stedsnr" v="307409" />
		<tag k="water" v="lake" />
	</node>
	<node id="-183674" lat="59.8603388932" lon="10.0422833375">
		<tag k="alt_name" v="Hundvikene" />
		<tag k="name" v="Hundvika" />
		<tag k="natural" v="bay" />
		<tag k="ssr:stedsnr" v="307301" />
	</node>
	<node id="-183655" lat="59.9562055546" lon="10.1664027839">
		<tag k="name" v="Seterputten" />
		<tag k="natural" v="water" />
		<tag k="ssr:stedsnr" v="300083" />
		<tag k="water" v="pond" />
	</node>
	<node id="-183645" lat="60.0394999981" lon="9.89669721715">
		<tag k="name" v="Vesle Sandungen" />
		<tag k="natural" v="water" />
		<tag k="ssr:stedsnr" v="298276" />
	</node>
	<node id="-183643" lat="60.129986109" lon="9.89712222626">
		<tag k="name" v="Østre Silnakken" />
		<tag k="natural" v="water" />
		<tag k="ssr:stedsnr" v="298050" />
	</node>
	<node id="-183636" lat="60.0732027753" lon="9.95680278511">
		<tag k="name" v="Skåhølen" />
		<tag k="place" v="locality" />
		<tag k="ssr:stedsnr" v="285624" />
	</node>
	<node id="-183633" lat="59.9832222253" lon="10.1730166735">
		<tag k="name" v="Kroktjernputten" />
		<tag k="natural" v="water" />
		<tag k="ssr:stedsnr" v="285269" />
		<tag k="water" v="pond" />
	</node>
	<node id="-183622" lat="60.1035972189" lon="9.94214444926">
		<tag k="name" v="Knutsbekk" />
		<tag k="ssr:stedsnr" v="283678" />
		<tag k="waterway" v="stream" />
	</node>
	<node id="-183616" lat="59.9624166651" lon="10.1266472141">
		<tag k="name" v="Strandvollputten" />
		<tag k="natural" v="water" />
		<tag k="ssr:stedsnr" v="283060" />
		<tag k="water" v="pond" />
	</node>
	<node id="-183610" lat="60.0063555581" lon="9.89961944842">
		<tag k="name" v="Gunnhusbekken" />
		<tag k="ssr:stedsnr" v="282328" />
		<tag k="waterway" v="stream" />
	</node>
	<node id="-183607" lat="60.1340694464" lon="9.9480499976">
		<tag k="name" v="Grønnmyrfossen" />
		<tag k="natural" v="waterfall" />
		<tag k="ssr:stedsnr" v="272334" />
	</node>
	<node id="-185584" lat="60.14566111" lon="9.94430000643">
		<tag k="name" v="Tjuventjernbekken" />
		<tag k="ssr:stedsnr" v="969533" />
		<tag k="waterway" v="stream" />
	</node>
	<node id="-185574" lat="60.0144249988" lon="9.82986667541">
		<tag k="name" v="Hesteåstjern" />
		<tag k="natural" v="water" />
		<tag k="ssr:stedsnr" v="968550" />
	</node>
	<node id="-185573" lat="60.0219194405" lon="9.81313333221">
		<tag k="name" v="Vesle Damtjern" />
		<tag k="natural" v="water" />
		<tag k="ssr:stedsnr" v="968548" />
	</node>
	<node id="-185572" lat="59.9744166674" lon="10.2536527712">
		<tag k="alt_name" v="Sververudelva" />
		<tag k="name" v="Svarverudelva" />
		<tag k="ssr:stedsnr" v="968195" />
		<tag k="waterway" v="stream" />
	</node>
	<node id="-185562" lat="59.9499555599" lon="9.97999444415">
		<tag k="name" v="Skinnesvika" />
		<tag k="natural" v="bay" />
		<tag k="ssr:stedsnr" v="967505" />
	</node>
	<node id="-185558" lat="59.9587388881" lon="10.1865138835">
		<tag k="name" v="Hanaviktjern" />
		<tag k="natural" v="water" />
		<tag k="ssr:stedsnr" v="967089" />
	</node>
	<node id="-185557" lat="59.9974222184" lon="10.1115388804">
		<tag k="name" v="Kjellerbekken" />
		<tag k="ssr:stedsnr" v="965966" />
		<tag k="waterway" v="stream" />
	</node>
	<node id="-185554" lat="60.02717778" lon="9.81394444078">
		<tag k="name" v="Puttene" />
		<tag k="natural" v="water" />
		<tag k="ssr:stedsnr" v="965733" />
		<tag k="water" v="lake" />
	</node>
	<node id="-185553" lat="60.1584138912" lon="9.91310277276">
		<tag k="name" v="Styggdalsdammen" />
		<tag k="natural" v="water" />
		<tag k="ssr:stedsnr" v="965561" />
		<tag k="water" v="pond" />
	</node>
	<node id="-185551" lat="60.0416444459" lon="9.91156388641">
		<tag k="name" v="Frysihjelmyra" />
		<tag k="natural" v="water" />
		<tag k="ssr:stedsnr" v="965317" />
	</node>
	<node id="-185545" lat="59.9808249997" lon="10.08050278">
		<tag k="name" v="Damtjernbekken" />
		<tag k="ssr:stedsnr" v="953000" />
		<tag k="waterway" v="stream" />
	</node>
	<node id="-185544" lat="59.9620222201" lon="10.0602083258">
		<tag k="name" v="Puttane" />
		<tag k="natural" v="water" />
		<tag k="ssr:stedsnr" v="952994" />
	</node>
	<node id="-185534" lat="60.0622944425" lon="9.83895277913">
		<tag k="name" v="Lorttjern" />
		<tag k="natural" v="water" />
		<tag k="ssr:stedsnr" v="952666" />
	</node>
	<node id="-185529" lat="60.109988891" lon="9.87839166923">
		<tag k="alt_name" v="Asketjerna" />
		<tag k="name" v="Asketjern" />
		<tag k="natural" v="water" />
		<tag k="ssr:stedsnr" v="952047" />
	</node>
	<node id="-185517" lat="60.0052055565" lon="9.87704722907">
		<tag k="name" v="Gunnhusevja" />
		<tag k="natural" v="water" />
		<tag k="ssr:stedsnr" v="950358" />
		<tag k="water" v="lake" />
	</node>
	<node id="-185514" lat="59.9756277737" lon="10.1188194441">
		<tag k="name" v="Dritarudtangen" />
		<tag k="place" v="locality" />
		<tag k="ssr:stedsnr" v="950069" />
	</node>
	<node id="-185505" lat="60.0172000004" lon="9.89685000586">
		<tag k="alt_name" v="Gunnhustjern" />
		<tag k="name" v="Gunnhustjernet" />
		<tag k="natural" v="water" />
		<tag k="ssr:stedsnr" v="915955" />
	</node>
	<node id="-185503" lat="60.0284805567" lon="9.89897500661">
		<tag k="alt_name" v="Okseaue" />
		<tag k="name" v="Oksauge" />
		<tag k="natural" v="water" />
		<tag k="ssr:stedsnr" v="915923" />
	</node>
	<node id="-185497" lat="60.0380888897" lon="9.9757250015">
		<tag k="name" v="Damtjern" />
		<tag k="natural" v="water" />
		<tag k="ssr:stedsnr" v="915348" />
	</node>
	<node id="-185489" lat="60.0535888931" lon="9.86978055044">
		<tag k="name" v="Svarttjern" />
		<tag k="natural" v="water" />
		<tag k="ssr:stedsnr" v="914894" />
	</node>
	<node id="-185481" lat="59.9707249989" lon="9.93199721834">
		<tag k="name" v="Kaggefoss" />
		<tag k="natural" v="waterfall" />
		<tag k="ssr:stedsnr" v="914787" />
	</node>
	<node id="-185476" lat="59.8931999966" lon="9.83047500685">
		<tag k="name" v="Goplerudtjern" />
		<tag k="natural" v="water" />
		<tag k="ssr:stedsnr" v="914691" />
	</node>
	<node id="-185463" lat="59.9097888926" lon="10.1175499953">
		<tag k="alt_name" v="Åsvatna" />
		<tag k="name" v="Åsvanna" />
		<tag k="natural" v="water" />
		<tag k="ssr:stedsnr" v="914414" />
		<tag k="water" v="lake" />
	</node>
	<node id="-185462" lat="59.9431750013" lon="10.1377999992">
		<tag k="name" v="Kroktjern" />
		<tag k="natural" v="water" />
		<tag k="ssr:stedsnr" v="914375" />
	</node>
	<node id="-185461" lat="59.9033888906" lon="10.0851833292">
		<tag k="alt_name" v="Langvann" />
		<tag k="name" v="Langevann" />
		<tag k="natural" v="water" />
		<tag k="ssr:stedsnr" v="914334" />
		<tag k="water" v="lake" />
	</node>
	<node id="-185458" lat="60.1443972182" lon="9.94761388885">
		<tag k="name" v="Svarttjernputten" />
		<tag k="natural" v="water" />
		<tag k="ssr:stedsnr" v="909520" />
		<tag k="water" v="pond" />
	</node>
	<node id="-185451" lat="60.1433305579" lon="9.9051388905">
		<tag k="name" v="Skrettebergbekken" />
		<tag k="ssr:stedsnr" v="909159" />
		<tag k="waterway" v="stream" />
	</node>
	<node id="-185434" lat="60.0501722246" lon="9.91320000539">
		<tag k="name" v="Kroktjern" />
		<tag k="natural" v="water" />
		<tag k="ssr:stedsnr" v="907199" />
	</node>
	<node id="-185432" lat="59.9745194427" lon="10.0905638886">
		<tag k="name" v="Søkktjernputten" />
		<tag k="natural" v="water" />
		<tag k="ssr:stedsnr" v="907074" />
		<tag k="water" v="pond" />
	</node>
	<node id="-185429" lat="59.9038555526" lon="10.0988277713">
		<tag k="name" v="Livsfaretjernet" />
		<tag k="natural" v="water" />
		<tag k="ssr:stedsnr" v="907008" />
	</node>
	<node id="-185428" lat="59.9592916675" lon="9.98859723011">
		<tag k="name" v="Øya" />
		<tag k="place" v="island" />
		<tag k="ssr:stedsnr" v="906564" />
	</node>
	<node id="-185424" lat="59.9939333368" lon="10.1068333351">
		<tag k="name" v="Auretjernbekken" />
		<tag k="ssr:stedsnr" v="905965" />
		<tag k="waterway" v="stream" />
	</node>
	<node id="-185420" lat="60.018266669" lon="9.95271944382">
		<tag k="name" v="Askeløken" />
		<tag k="ssr:stedsnr" v="905298" />
		<tag k="waterway" v="stream" />
	</node>
	<node id="-185411" lat="60.005113885" lon="10.1023444389">
		<tag k="alt_name" v="Melåelva" />
		<tag k="name" v="Melåa" />
		<tag k="ssr:stedsnr" v="855413" />
		<tag k="waterway" v="stream" />
	</node>
	<node id="-185402" lat="60.0713777782" lon="9.76817222307">
		<tag k="alt_name" v="Håvardrudtjernet" />
		<tag k="name" v="Håvardsrudtjern" />
		<tag k="natural" v="water" />
		<tag k="ssr:stedsnr" v="854891" />
	</node>
	<node id="-185399" lat="59.9334194442" lon="9.7521361137">
		<tag k="name" v="Svarthøl" />
		<tag k="natural" v="water" />
		<tag k="ssr:stedsnr" v="854868" />
	</node>
	<node id="-185395" lat="60.1190861104" lon="9.92315278606">
		<tag k="name" v="Totjerna" />
		<tag k="natural" v="water" />
		<tag k="ssr:stedsnr" v="854816" />
	</node>
	<node id="-185394" lat="59.9806027761" lon="9.86250000888">
		<tag k="alt_name" v="Nordgruvetjern" />
		<tag k="name" v="Nordgruvtjern" />
		<tag k="natural" v="water" />
		<tag k="ssr:stedsnr" v="854781" />
	</node>
	<node id="-185382" lat="59.912930552" lon="10.0884250078">
		<tag k="alt_name" v="Flagvannet" />
		<tag k="name" v="Flagervatnet" />
		<tag k="natural" v="water" />
		<tag k="ssr:stedsnr" v="854402" />
	</node>
	<node id="-185381" lat="59.9089119743" lon="10.1232211847">
		<tag k="alt_name" v="Lillesneisa" />
		<tag k="fixme" v="multiple name tags, choose one and add the other to alt_name" />
		<tag k="loc_name" v="Midtsneisa;Veslesneisa" />
		<tag k="name" v="Lille Sneisa;Mellomsneisa" />
		<tag k="natural" v="water" />
		<tag k="old_name" v="L Snejsa" />
		<tag k="ssr:stedsnr" v="854400" />
		<tag k="water" v="lake" />
	</node>
	<node id="-185379" lat="59.8644388909" lon="10.0554250069">
		<tag k="alt_name" v="Glitrevann;Glitrevatnet" />
		<tag k="name" v="Glitre" />
		<tag k="natural" v="water" />
		<tag k="ssr:stedsnr" v="854319" />
		<tag k="water" v="lake" />
	</node>
	<node id="-185369" lat="59.8973527819" lon="9.76647500361">
		<tag k="name" v="Branntjern" />
		<tag k="natural" v="water" />
		<tag k="ssr:stedsnr" v="853653" />
	</node>
	<node id="-185368" lat="59.8960027797" lon="9.87064999476">
		<tag k="name" v="Postvannet" />
		<tag k="natural" v="water" />
		<tag k="ssr:stedsnr" v="853648" />
	</node>
	<node id="-185366" lat="59.9638611131" lon="10.176108327">
		<tag k="alt_name" v="Kimerud Langtjern" />
		<tag k="name" v="Langtjern" />
		<tag k="natural" v="water" />
		<tag k="ssr:stedsnr" v="853457" />
	</node>
	<node id="-185365" lat="59.9564916692" lon="10.1441916636">
		<tag k="name" v="Store Elgstjern" />
		<tag k="natural" v="water" />
		<tag k="ssr:stedsnr" v="853394" />
	</node>
	<node id="-185363" lat="59.892430552" lon="10.0442388894">
		<tag k="name" v="Kroktjern" />
		<tag k="natural" v="water" />
		<tag k="ssr:stedsnr" v="853308" />
	</node>
	<node id="-185360" lat="59.9928138849" lon="10.0365277774">
		<tag k="name" v="Kråkeholmen" />
		<tag k="natural" v="cape" />
		<tag k="ssr:stedsnr" v="848814" />
	</node>
	<node id="-185355" lat="59.9711472227" lon="10.2547638891">
		<tag k="name" v="Torgerbekk" />
		<tag k="ssr:stedsnr" v="848204" />
		<tag k="waterway" v="stream" />
	</node>
	<node id="-185347" lat="59.9291305514" lon="10.0109055534">
		<tag k="name" v="Ørenbekken" />
		<tag k="ssr:stedsnr" v="846535" />
		<tag k="waterway" v="stream" />
	</node>
	<node id="-185321" lat="60.0660833334" lon="9.9121305628">
		<tag k="name" v="Gubberudløken" />
		<tag k="ssr:stedsnr" v="831139" />
		<tag k="waterway" v="stream" />
	</node>
	<node id="-185319" lat="60.1040972182" lon="9.85794721601">
		<tag k="name" v="Damtjernputten" />
		<tag k="natural" v="water" />
		<tag k="ssr:stedsnr" v="831121" />
		<tag k="water" v="pond" />
	</node>
	<node id="-185317" lat="59.8920888885" lon="9.94663888017">
		<tag k="name" v="Kudalsbekken" />
		<tag k="ssr:stedsnr" v="830899" />
		<tag k="waterway" v="stream" />
	</node>
	<node id="-185309" lat="59.9523972204" lon="10.0646805568">
		<tag k="name" v="Snelletjern" />
		<tag k="natural" v="water" />
		<tag k="ssr:stedsnr" v="829668" />
	</node>
	<node id="-185307" lat="60.0354777739" lon="9.83805833622">
		<tag k="name" v="Langerudevja" />
		<tag k="natural" v="water" />
		<tag k="ssr:stedsnr" v="831693" />
		<tag k="water" v="lake" />
	</node>
	<node id="-185301" lat="59.9697611087" lon="10.1246749954">
		<tag k="name" v="Ingeborgsputt" />
		<tag k="natural" v="water" />
		<tag k="ssr:stedsnr" v="829078" />
		<tag k="water" v="pond" />
	</node>
	<node id="-185290" lat="60.0056972242" lon="10.1683055564">
		<tag k="fixme" v="multiple name tags, choose one and add the other to alt_name" />
		<tag k="name" v="Dyrbakkbekken;Dyrbakkelva" />
		<tag k="ssr:stedsnr" v="794412" />
		<tag k="waterway" v="stream" />
	</node>
	<node id="-185281" lat="60.0503277792" lon="9.95750000024">
		<tag k="fixme" v="multiple name tags, choose one and add the other to alt_name" />
		<tag k="name" v="Bråtatjern;Ørvannet" />
		<tag k="natural" v="water" />
		<tag k="ssr:stedsnr" v="793931" />
	</node>
	<node id="-185280" lat="60.0488999999" lon="9.89867499685">
		<tag k="name" v="Sandungen" />
		<tag k="natural" v="water" />
		<tag k="ssr:stedsnr" v="793928" />
	</node>
	<node id="-185279" lat="60.0452638882" lon="9.93074999863">
		<tag k="name" v="Arnestjern" />
		<tag k="natural" v="water" />
		<tag k="ssr:stedsnr" v="793925" />
	</node>
	<node id="-185273" lat="60.0781249985" lon="9.89032499102">
		<tag k="name" v="Låvetjern" />
		<tag k="natural" v="water" />
		<tag k="ssr:stedsnr" v="793875" />
	</node>
	<node id="-185271" lat="59.9246777753" lon="9.78681943549">
		<tag k="name" v="Brødtjern" />
		<tag k="natural" v="water" />
		<tag k="ssr:stedsnr" v="793860" />
	</node>
	<node id="-185267" lat="60.117755554" lon="9.90294999325">
		<tag k="alt_name" v="Bråtavollstjern" />
		<tag k="name" v="Bråtavolltjern" />
		<tag k="natural" v="water" />
		<tag k="ssr:stedsnr" v="793831" />
	</node>
	<node id="-185266" lat="60.1286750016" lon="9.89305000342">
		<tag k="name" v="Silnakken" />
		<tag k="natural" v="water" />
		<tag k="ssr:stedsnr" v="793829" />
		<tag k="water" v="lake" />
	</node>
	<node id="-185258" lat="59.8901694482" lon="10.0584138931">
		<tag k="name" v="Kutjern" />
		<tag k="natural" v="water" />
		<tag k="ssr:stedsnr" v="793381" />
	</node>
	<node id="-185252" lat="59.9391999989" lon="10.0864249919">
		<tag k="alt_name" v="Hvals Broktjern" />
		<tag k="name" v="Hvals-Broktjern" />
		<tag k="natural" v="water" />
		<tag k="ssr:stedsnr" v="792362" />
	</node>
	<node id="-185228" lat="59.961411108" lon="9.98848054853">
		<tag k="name" v="Kanalen" />
		<tag k="ssr:stedsnr" v="785539" />
		<tag k="waterway" v="river" />
	</node>
	<node id="-185227" lat="59.9393194438" lon="10.0066138862">
		<tag k="name" v="Sponebekken" />
		<tag k="ssr:stedsnr" v="785533" />
		<tag k="waterway" v="stream" />
	</node>
	<node id="-185219" lat="59.9238805598" lon="10.094677774">
		<tag k="name" v="Krokputten" />
		<tag k="natural" v="water" />
		<tag k="ssr:stedsnr" v="785040" />
		<tag k="water" v="pond" />
	</node>
	<node id="-185218" lat="59.9336527743" lon="10.0891500053">
		<tag k="name" v="Ormtjern" />
		<tag k="natural" v="water" />
		<tag k="ssr:stedsnr" v="785033" />
	</node>
	<node id="-185208" lat="60.0318111078" lon="9.89844444363">
		<tag k="name" v="Vesle Okseaue" />
		<tag k="natural" v="water" />
		<tag k="ssr:stedsnr" v="783262" />
	</node>
	<node id="-185204" lat="59.9348499991" lon="10.0649000009">
		<tag k="fixme" v="multiple name tags, choose one and add the other to alt_name" />
		<tag k="name" v="Kroktjern;Store Kroktjern" />
		<tag k="natural" v="water" />
		<tag k="ssr:stedsnr" v="793447" />
	</node>
	<node id="-185197" lat="60.053700003" lon="9.84744445081">
		<tag k="name" v="Grønnvoll" />
		<tag k="natural" v="cape" />
		<tag k="ssr:stedsnr" v="770677" />
	</node>
	<node id="-185190" lat="59.8872361108" lon="9.95318332769">
		<tag k="name" v="Vadbekk" />
		<tag k="ssr:stedsnr" v="769877" />
		<tag k="waterway" v="stream" />
	</node>
	<node id="-185181" lat="59.9439472245" lon="10.0779583337">
		<tag k="name" v="Ingeborgputt" />
		<tag k="natural" v="water" />
		<tag k="ssr:stedsnr" v="768664" />
	</node>
	<node id="-185180" lat="59.9461277744" lon="10.0780666625">
		<tag k="name" v="Vakkertjern" />
		<tag k="natural" v="water" />
		<tag k="ssr:stedsnr" v="768661" />
	</node>
	<node id="-185162" lat="60.0177333305" lon="9.81579999127">
		<tag k="name" v="Damtjern" />
		<tag k="natural" v="water" />
		<tag k="ssr:stedsnr" v="733952" />
	</node>
	<node id="-185157" lat="60.1024055539" lon="9.90023889089">
		<tag k="alt_name" v="Driterdalselva" />
		<tag k="name" v="Dritardalselva" />
		<tag k="ssr:stedsnr" v="733815" />
		<tag k="waterway" v="river" />
	</node>
	<node id="-185155" lat="59.9659638881" lon="10.1162833289">
		<tag k="name" v="Sandtjern" />
		<tag k="natural" v="water" />
		<tag k="ssr:stedsnr" v="733473" />
	</node>
	<node id="-185154" lat="59.9796111088" lon="10.1719555492">
		<tag k="alt_name" v="Kimerud Kroktjern" />
		<tag k="name" v="Kroktjern" />
		<tag k="natural" v="water" />
		<tag k="ssr:stedsnr" v="733471" />
	</node>
	<node id="-185150" lat="60.0394749976" lon="10.0468027788">
		<tag k="alt_name" v="Henoa" />
		<tag k="name" v="Henåa" />
		<tag k="ssr:stedsnr" v="733300" />
		<tag k="waterway" v="river" />
	</node>
	<node id="-185149" lat="59.9910249986" lon="9.84063056002">
		<tag k="alt_name" v="Skarstjern" />
		<tag k="name" v="Skardtjern" />
		<tag k="natural" v="water" />
		<tag k="ssr:stedsnr" v="732947" />
	</node>
	<node id="-185145" lat="60.0478333317" lon="9.91530834054">
		<tag k="name" v="Kroktjerna" />
		<tag k="natural" v="water" />
		<tag k="ssr:stedsnr" v="732910" />
		<tag k="water" v="lake" />
	</node>
	<node id="-185144" lat="59.9311333293" lon="9.77011944794">
		<tag k="name" v="Kroktjern" />
		<tag k="natural" v="water" />
		<tag k="ssr:stedsnr" v="732862" />
	</node>
	<node id="-185138" lat="59.9793861078" lon="9.92196389306">
		<tag k="name" v="Snarumselva" />
		<tag k="ssr:stedsnr" v="732800" />
		<tag k="waterway" v="river" />
	</node>
	<node id="-185130" lat="59.9366888872" lon="10.0682916669">
		<tag k="name" v="Lang-Heggesjø" />
		<tag k="natural" v="water" />
		<tag k="ssr:stedsnr" v="732381" />
	</node>
	<node id="-185128" lat="59.9095749992" lon="10.026650006">
		<tag k="name" v="Damtjern" />
		<tag k="natural" v="water" />
		<tag k="ssr:stedsnr" v="732340" />
	</node>
	<node id="-185127" lat="59.8894555531" lon="9.98857499686">
		<tag k="name" v="Maurtjern" />
		<tag k="natural" v="water" />
		<tag k="ssr:stedsnr" v="732329" />
	</node>
	<node id="-185125" lat="59.9704999971" lon="10.1653777791">
		<tag k="name" v="Andtjern" />
		<tag k="natural" v="water" />
		<tag k="ssr:stedsnr" v="731436" />
	</node>
	<node id="-185115" lat="59.9823277815" lon="10.2501166703">
		<tag k="name" v="Badstuvika" />
		<tag k="natural" v="bay" />
		<tag k="ssr:stedsnr" v="726216" />
	</node>
	<node id="-185096" lat="59.9475722178" lon="10.0183222265">
		<tag k="name" v="Dølbekken" />
		<tag k="ssr:stedsnr" v="724540" />
		<tag k="waterway" v="stream" />
	</node>
	<node id="-185094" lat="59.9481499999" lon="9.979797221">
		<tag k="name" v="Tomasvika" />
		<tag k="natural" v="bay" />
		<tag k="ssr:stedsnr" v="724519" />
	</node>
	<node id="-185093" lat="59.9187805584" lon="10.0113055511">
		<tag k="name" v="Helletjern" />
		<tag k="natural" v="water" />
		<tag k="ssr:stedsnr" v="724513" />
	</node>
	<node id="-185088" lat="60.1288138924" lon="9.89251945344">
		<tag k="name" v="Vestre Silnakken" />
		<tag k="natural" v="water" />
		<tag k="ssr:stedsnr" v="723041" />
	</node>
	<node id="-185087" lat="59.9831694441" lon="10.1359361174">
		<tag k="name" v="Sandtjernputten" />
		<tag k="natural" v="water" />
		<tag k="ssr:stedsnr" v="722984" />
		<tag k="water" v="pond" />
	</node>
	<node id="-185085" lat="59.9844027786" lon="10.1103500014">
		<tag k="name" v="Svartdalsbekken" />
		<tag k="ssr:stedsnr" v="722977" />
		<tag k="waterway" v="stream" />
	</node>
	<node id="-185082" lat="59.9820083378" lon="10.0982277804">
		<tag k="name" v="Hundtjern" />
		<tag k="natural" v="water" />
		<tag k="ssr:stedsnr" v="722949" />
	</node>
	<node id="-185081" lat="60.0249194458" lon="9.90051945263">
		<tag k="name" v="Vesle Sysletjern" />
		<tag k="natural" v="water" />
		<tag k="ssr:stedsnr" v="722297" />
	</node>
	<node id="-185071" lat="59.9757249978" lon="9.87395556119">
		<tag k="name" v="5-pottingen" />
		<tag k="natural" v="water" />
		<tag k="ssr:stedsnr" v="709826" />
		<tag k="water" v="pond" />
	</node>
	<node id="-185070" lat="60.0481222197" lon="9.84600834136">
		<tag k="name" v="Nedre Uløya" />
		<tag k="place" v="island" />
		<tag k="ssr:stedsnr" v="709682" />
	</node>
	<node id="-185062" lat="60.1162555556" lon="9.92704999658">
		<tag k="name" v="Svarttjern" />
		<tag k="natural" v="water" />
		<tag k="ssr:stedsnr" v="707681" />
	</node>
	<node id="-185060" lat="60.0887750041" lon="9.9529194476">
		<tag k="name" v="Grastjern" />
		<tag k="natural" v="water" />
		<tag k="ssr:stedsnr" v="707678" />
	</node>
	<node id="-185058" lat="59.8710555598" lon="10.0510944533">
		<tag k="name" v="Karusstjern" />
		<tag k="natural" v="water" />
		<tag k="ssr:stedsnr" v="707575" />
	</node>
	<node id="-185054" lat="60.0410027742" lon="9.78733888469">
		<tag k="name" v="Seterbekken" />
		<tag k="ssr:stedsnr" v="704058" />
		<tag k="waterway" v="stream" />
	</node>
	<node id="-185051" lat="60.053924997" lon="9.884149991">
		<tag k="name" v="Vrangen" />
		<tag k="natural" v="water" />
		<tag k="ssr:stedsnr" v="672911" />
	</node>
	<node id="-185049" lat="60.0869277763" lon="9.89237222146">
		<tag k="alt_name" v="Uletjern" />
		<tag k="name" v="Urdetjern" />
		<tag k="natural" v="water" />
		<tag k="ssr:stedsnr" v="672867" />
	</node>
	<node id="-185048" lat="60.1151250039" lon="9.86632500239">
		<tag k="alt_name" v="Lysvannet" />
		<tag k="name" v="Lysevatnet" />
		<tag k="natural" v="water" />
		<tag k="ssr:stedsnr" v="672836" />
	</node>
	<node id="-185042" lat="60.0136388921" lon="10.1659249989">
		<tag k="name" v="Dignestangen" />
		<tag k="natural" v="cape" />
		<tag k="ssr:stedsnr" v="672387" />
	</node>
	<node id="-185039" lat="60.0201916704" lon="10.1301583329">
		<tag k="name" v="Gulsrudtangen" />
		<tag k="natural" v="cape" />
		<tag k="ssr:stedsnr" v="672300" />
	</node>
	<node id="-185036" lat="60.0473027753" lon="9.87907500102">
		<tag k="name" v="Asketjern" />
		<tag k="natural" v="water" />
		<tag k="ssr:stedsnr" v="671894" />
	</node>
	<node id="-185026" lat="59.8855916683" lon="9.91018333184">
		<tag k="name" v="Døvikfossen" />
		<tag k="natural" v="waterfall" />
		<tag k="ssr:stedsnr" v="671690" />
	</node>
	<node id="-185024" lat="59.9006333334" lon="9.84273888579">
		<tag k="name" v="Brennåstjern" />
		<tag k="natural" v="water" />
		<tag k="ssr:stedsnr" v="671673" />
	</node>
	<node id="-185022" lat="59.873952782" lon="9.96391111703">
		<tag k="fixme" v="multiple name tags, choose one and add the other to alt_name" />
		<tag k="name" v="Damtjern;Melumdamtjern" />
		<tag k="natural" v="water" />
		<tag k="ssr:stedsnr" v="671645" />
	</node>
	<node id="-185020" lat="59.9705422784" lon="10.1429176235">
		<tag k="alt_name" v="Breilitjern" />
		<tag k="name" v="Breilivatnet" />
		<tag k="natural" v="water" />
		<tag k="ssr:stedsnr" v="671490" />
		<tag k="water" v="lake" />
	</node>
	<node id="-185013" lat="59.9892138863" lon="10.1475000011">
		<tag k="name" v="Kutjern" />
		<tag k="natural" v="water" />
		<tag k="ssr:stedsnr" v="671433" />
	</node>
	<node id="-185012" lat="59.9842777802" lon="10.0690833261">
		<tag k="name" v="Brenntjern" />
		<tag k="natural" v="water" />
		<tag k="ssr:stedsnr" v="671430" />
	</node>
	<node id="-185010" lat="59.9062500034" lon="10.0717972235">
		<tag k="fixme" v="multiple name tags, choose one and add the other to alt_name" />
		<tag k="name" v="Storrtjern;Svarttjern" />
		<tag k="natural" v="water" />
		<tag k="ssr:stedsnr" v="671342" />
	</node>
	<node id="-185002" lat="60.0065416711" lon="10.0516250003">
		<tag k="name" v="Stallvika" />
		<tag k="natural" v="bay" />
		<tag k="ssr:stedsnr" v="665797" />
	</node>
	<node id="-184998" lat="59.9799555575" lon="10.2548638953">
		<tag k="name" v="Kovavika" />
		<tag k="natural" v="bay" />
		<tag k="ssr:stedsnr" v="665203" />
	</node>
	<node id="-184996" lat="59.9748555532" lon="10.2271527727">
		<tag k="name" v="Svartputt" />
		<tag k="natural" v="water" />
		<tag k="ssr:stedsnr" v="665193" />
	</node>
	<node id="-184991" lat="59.9504361069" lon="9.85515555365">
		<tag k="name" v="Langemyrsputten" />
		<tag k="natural" v="water" />
		<tag k="ssr:stedsnr" v="664800" />
		<tag k="water" v="pond" />
	</node>
	<node id="-184983" lat="59.9220611146" lon="10.092311115">
		<tag k="name" v="Rototjern" />
		<tag k="natural" v="water" />
		<tag k="ssr:stedsnr" v="664039" />
	</node>
	<node id="-184979" lat="59.9550750026" lon="9.98322500727">
		<tag k="name" v="Bjølgerudvika" />
		<tag k="natural" v="bay" />
		<tag k="ssr:stedsnr" v="663539" />
	</node>
	<node id="-184973" lat="60.0252138917" lon="9.9203722156">
		<tag k="name" v="Kimetjern" />
		<tag k="natural" v="water" />
		<tag k="ssr:stedsnr" v="662277" />
	</node>
	<node id="-184968" lat="59.9309472251" lon="9.94742499508">
		<tag k="name" v="Gravfoss" />
		<tag k="natural" v="waterfall" />
		<tag k="ssr:stedsnr" v="658746" />
	</node>
	<node id="-184955" lat="59.9860750017" lon="10.1468444371">
		<tag k="name" v="Oksetjern" />
		<tag k="natural" v="water" />
		<tag k="ssr:stedsnr" v="648308" />
	</node>
	<node id="-184952" lat="60.1036527787" lon="9.86842221819">
		<tag k="name" v="Lauvåstjern" />
		<tag k="natural" v="water" />
		<tag k="ssr:stedsnr" v="648117" />
	</node>
	<node id="-184950" lat="59.9060805558" lon="10.0475361044">
		<tag k="name" v="Gamlevollsputten" />
		<tag k="natural" v="water" />
		<tag k="ssr:stedsnr" v="647712" />
		<tag k="water" v="pond" />
	</node>
	<node id="-184947" lat="59.9530666659" lon="10.060477784">
		<tag k="name" v="Låga" />
		<tag k="natural" v="water" />
		<tag k="ssr:stedsnr" v="647667" />
		<tag k="water" v="pond" />
	</node>
	<node id="-184944" lat="60.0928166647" lon="9.83723054734">
		<tag k="name" v="Høymyrløken" />
		<tag k="ssr:stedsnr" v="646627" />
		<tag k="waterway" v="stream" />
	</node>
	<node id="-184939" lat="59.96560278" lon="10.1289055531">
		<tag k="name" v="Brennåsputtene" />
		<tag k="natural" v="water" />
		<tag k="ssr:stedsnr" v="646066" />
		<tag k="water" v="lake" />
	</node>
	<node id="-184938" lat="59.9761055517" lon="10.1302999946">
		<tag k="name" v="Breiliputten" />
		<tag k="natural" v="water" />
		<tag k="ssr:stedsnr" v="646065" />
		<tag k="water" v="pond" />
	</node>
	<node id="-184925" lat="60.1431416705" lon="9.94714166716">
		<tag k="name" v="Granavollelva" />
		<tag k="ssr:stedsnr" v="611821" />
		<tag k="waterway" v="stream" />
	</node>
	<node id="-184924" lat="59.9628361101" lon="10.0776166598">
		<tag k="name" v="Svarttjern" />
		<tag k="natural" v="water" />
		<tag k="ssr:stedsnr" v="611514" />
	</node>
	<node id="-184919" lat="59.9796527819" lon="9.93714721427">
		<tag k="alt_name" v="Gråbekk" />
		<tag k="name" v="Gråbekken" />
		<tag k="ssr:stedsnr" v="610952" />
		<tag k="waterway" v="stream" />
	</node>
	<node id="-184905" lat="59.9289000535" lon="10.084049381">
		<tag k="name" v="Disen Broktjern" />
		<tag k="natural" v="water" />
		<tag k="ssr:stedsnr" v="610458" />
	</node>
	<node id="-184900" lat="59.9502305513" lon="10.0785138927">
		<tag k="name" v="Sandvika" />
		<tag k="natural" v="water" />
		<tag k="ssr:stedsnr" v="610435" />
	</node>
	<node id="-184896" lat="60.0063305543" lon="10.0622888975">
		<tag k="name" v="Hofsengvika" />
		<tag k="natural" v="bay" />
		<tag k="ssr:stedsnr" v="605747" />
	</node>
	<node id="-184884" lat="59.948600004" lon="10.1581333246">
		<tag k="name" v="Kutjern" />
		<tag k="natural" v="water" />
		<tag k="ssr:stedsnr" v="603088" />
	</node>
	<node id="-184879" lat="59.9261361129" lon="9.98050833244">
		<tag k="name" v="Hervika" />
		<tag k="natural" v="bay" />
		<tag k="ssr:stedsnr" v="602542" />
	</node>
	<node id="-184866" lat="60.0495672814" lon="9.92345818531">
		<tag k="name" v="Søndre Langsjø" />
		<tag k="natural" v="water" />
		<tag k="ssr:stedsnr" v="588741" />
		<tag k="water" v="lake" />
	</node>
	<node id="-184860" lat="60.1052916694" lon="9.90400554689">
		<tag k="name" v="Seterputten" />
		<tag k="natural" v="water" />
		<tag k="ssr:stedsnr" v="588032" />
		<tag k="water" v="pond" />
	</node>
	<node id="-184853" lat="59.9783249985" lon="9.85144722608">
		<tag k="name" v="Ilene" />
		<tag k="natural" v="spring" />
		<tag k="ssr:stedsnr" v="587837" />
	</node>
	<node id="-184849" lat="59.8928749973" lon="10.0878138907">
		<tag k="name" v="Vesle Elgtjern" />
		<tag k="natural" v="water" />
		<tag k="ssr:stedsnr" v="586705" />
	</node>
	<node id="-184848" lat="59.8920222196" lon="10.0844444497">
		<tag k="name" v="Store Elgtjern" />
		<tag k="natural" v="water" />
		<tag k="ssr:stedsnr" v="586703" />
	</node>
	<node id="-184845" lat="59.9488638902" lon="10.0684888938">
		<tag k="name" v="Blitjern" />
		<tag k="natural" v="water" />
		<tag k="ssr:stedsnr" v="586662" />
	</node>
	<node id="-184840" lat="59.9338166636" lon="10.1104833355">
		<tag k="name" v="Grukkedøla" />
		<tag k="ssr:stedsnr" v="586159" />
		<tag k="waterway" v="stream" />
	</node>
	<node id="-184833" lat="59.9090709378" lon="9.73098626705">
		<tag k="name" v="Hestebråtafossen" />
		<tag k="natural" v="waterfall" />
		<tag k="ssr:stedsnr" v="578526" />
	</node>
	<node id="-184832" lat="60.0615694412" lon="9.99207223019">
		<tag k="name" v="Skimyrdammen" />
		<tag k="ssr:stedsnr" v="574085" />
		<tag k="waterway" v="dam" />
	</node>
	<node id="-184831" lat="59.8965694435" lon="9.74152777707">
		<tag k="name" v="Hammerfoss" />
		<tag k="natural" v="waterfall" />
		<tag k="ssr:stedsnr" v="571389" />
	</node>
	<node id="-184825" lat="60.0691333304" lon="9.92574721732">
		<tag k="alt_name" v="Søndre Stupellatjern" />
		<tag k="name" v="Søndre Stuphelltjern" />
		<tag k="natural" v="water" />
		<tag k="ssr:stedsnr" v="550875" />
	</node>
	<node id="-184824" lat="59.9440749999" lon="9.86763333747">
		<tag k="alt_name" v="Tingelstadtjernet" />
		<tag k="name" v="Tingelstadtjern" />
		<tag k="natural" v="water" />
		<tag k="ssr:stedsnr" v="550859" />
	</node>
	<node id="-184813" lat="59.9732527748" lon="10.0937611079">
		<tag k="alt_name" v="Søkktjern" />
		<tag k="name" v="Søktjern" />
		<tag k="natural" v="water" />
		<tag k="ssr:stedsnr" v="550475" />
	</node>
	<node id="-184812" lat="59.9800666629" lon="10.1611472259">
		<tag k="alt_name" v="Plommetjern" />
		<tag k="name" v="Plometjern" />
		<tag k="natural" v="water" />
		<tag k="ssr:stedsnr" v="550474" />
	</node>
	<node id="-184810" lat="59.9893111102" lon="10.1866027787">
		<tag k="name" v="Kimmerudbekken" />
		<tag k="ssr:stedsnr" v="550433" />
		<tag k="waterway" v="stream" />
	</node>
	<node id="-184806" lat="59.9435583369" lon="10.142558337">
		<tag k="name" v="Ormtjern" />
		<tag k="natural" v="water" />
		<tag k="ssr:stedsnr" v="550378" />
	</node>
	<node id="-184804" lat="59.878305556" lon="10.0499999921">
		<tag k="name" v="Guritjern" />
		<tag k="natural" v="water" />
		<tag k="ssr:stedsnr" v="550342" />
	</node>
	<node id="-184801" lat="60.0408249969" lon="9.97914166535">
		<tag k="name" v="Bemle" />
		<tag k="natural" v="water" />
		<tag k="ssr:stedsnr" v="550295" />
	</node>
	<node id="-184787" lat="60.0065527735" lon="9.82810834">
		<tag k="name" v="Svarttjernbekken" />
		<tag k="ssr:stedsnr" v="544517" />
		<tag k="waterway" v="stream" />
	</node>
	<node id="-184773" lat="59.8873583297" lon="10.0091694374">
		<tag k="name" v="Prestfuruputt" />
		<tag k="natural" v="water" />
		<tag k="ssr:stedsnr" v="542603" />
		<tag k="water" v="pond" />
	</node>
	<node id="-184771" lat="59.9413888903" lon="10.0071777737">
		<tag k="name" v="Heggenbekken" />
		<tag k="ssr:stedsnr" v="542550" />
		<tag k="waterway" v="stream" />
	</node>
	<node id="-184770" lat="59.9390722237" lon="9.97985277534">
		<tag k="name" v="Skinnerudtangen" />
		<tag k="natural" v="cape" />
		<tag k="ssr:stedsnr" v="542536" />
	</node>
	<node id="-184768" lat="59.9252444482" lon="10.0106444377">
		<tag k="name" v="Esebekken" />
		<tag k="ssr:stedsnr" v="542526" />
		<tag k="waterway" v="stream" />
	</node>
	<node id="-184764" lat="60.0171611082" lon="9.96280556212">
		<tag k="name" v="Rudsbekken" />
		<tag k="ssr:stedsnr" v="541324" />
		<tag k="waterway" v="stream" />
	</node>
	<node id="-184752" lat="59.9765750035" lon="10.0829805635">
		<tag k="name" v="Kroktjern" />
		<tag k="natural" v="water" />
		<tag k="ssr:stedsnr" v="527995" />
	</node>
	<node id="-184748" lat="59.9402555569" lon="9.88617777735">
		<tag k="name" v="Hellebekken" />
		<tag k="ssr:stedsnr" v="527866" />
		<tag k="waterway" v="stream" />
	</node>
	<node id="-184733" lat="59.8672555559" lon="10.0388138947">
		<tag k="name" v="Saglandvika" />
		<tag k="natural" v="bay" />
		<tag k="ssr:stedsnr" v="525573" />
	</node>
	<node id="-184731" lat="60.0080694471" lon="9.91130555793">
		<tag k="name" v="Syslebekken" />
		<tag k="ssr:stedsnr" v="525368" />
		<tag k="waterway" v="stream" />
	</node>
	<node id="-184729" lat="59.9666888857" lon="10.088155554">
		<tag k="name" v="Gørrputt" />
		<tag k="natural" v="water" />
		<tag k="ssr:stedsnr" v="525079" />
		<tag k="water" v="pond" />
	</node>
	<node id="-184713" lat="60.0098250014" lon="9.82473055886">
		<tag k="name" v="Svarttjern" />
		<tag k="natural" v="water" />
		<tag k="ssr:stedsnr" v="490964" />
	</node>
	<node id="-184711" lat="60.0337499969" lon="9.96725000244">
		<tag k="alt_name" v="Svarterudtjern" />
		<tag k="name" v="Svarterudtjernet" />
		<tag k="natural" v="water" />
		<tag k="ssr:stedsnr" v="490958" />
	</node>
	<node id="-184708" lat="60.0573499981" lon="9.94472499798">
		<tag k="name" v="Langsjøbekken" />
		<tag k="ssr:stedsnr" v="490892" />
		<tag k="waterway" v="stream" />
	</node>
	<node id="-184707" lat="60.1098277792" lon="9.86309721789">
		<tag k="name" v="Damtjern" />
		<tag k="natural" v="water" />
		<tag k="ssr:stedsnr" v="490827" />
	</node>
	<node id="-184696" lat="59.934333332" lon="9.74404444091">
		<tag k="alt_name" v="Lauvtjern" />
		<tag k="name" v="Løvtjern" />
		<tag k="natural" v="water" />
		<tag k="ssr:stedsnr" v="489867" />
	</node>
	<node id="-184685" lat="59.9730444483" lon="9.87470833103">
		<tag k="name" v="Stulldammen" />
		<tag k="natural" v="water" />
		<tag k="ssr:stedsnr" v="489781" />
	</node>
	<node id="-184679" lat="59.9639861146" lon="10.0333249966">
		<tag k="name" v="Hvalsbekken" />
		<tag k="ssr:stedsnr" v="489517" />
		<tag k="waterway" v="stream" />
	</node>
	<node id="-184678" lat="59.9751194421" lon="10.2031333342">
		<tag k="alt_name" v="Allerbekk" />
		<tag k="name" v="Alerbekken" />
		<tag k="ssr:stedsnr" v="489515" />
		<tag k="waterway" v="stream" />
	</node>
	<node id="-184674" lat="59.947875004" lon="10.1429027863">
		<tag k="name" v="Bjelketjern" />
		<tag k="natural" v="water" />
		<tag k="ssr:stedsnr" v="489411" />
	</node>
	<node id="-184673" lat="59.95833611" lon="10.1301944482">
		<tag k="alt_name" v="Ultjern" />
		<tag k="name" v="Urdtjern" />
		<tag k="natural" v="water" />
		<tag k="ssr:stedsnr" v="489407" />
	</node>
	<node id="-184672" lat="59.9591333321" lon="10.1358055586">
		<tag k="name" v="Vesle Elgstjern" />
		<tag k="natural" v="water" />
		<tag k="ssr:stedsnr" v="489406" />
	</node>
	<node id="-184654" lat="59.9108361092" lon="9.81224166706">
		<tag k="name" v="Vesle Sterkebytjern" />
		<tag k="natural" v="water" />
		<tag k="ssr:stedsnr" v="482977" />
	</node>
	<node id="-184645" lat="59.9479777784" lon="9.98740000507">
		<tag k="name" v="Kråkeholmen" />
		<tag k="place" v="island" />
		<tag k="ssr:stedsnr" v="481549" />
	</node>
	<node id="-184638" lat="60.0385138845" lon="9.92390000866">
		<tag k="name" v="Hornetjern" />
		<tag k="natural" v="water" />
		<tag k="ssr:stedsnr" v="480257" />
	</node>
	<node id="-184631" lat="59.9660305596" lon="10.0720861111">
		<tag k="name" v="Luseputt" />
		<tag k="natural" v="water" />
		<tag k="ssr:stedsnr" v="467995" />
		<tag k="water" v="pond" />
	</node>
	<node id="-184630" lat="60.0613916683" lon="9.94203611393">
		<tag k="name" v="Småtjern" />
		<tag k="natural" v="water" />
		<tag k="ssr:stedsnr" v="467755" />
	</node>
	<node id="-184627" lat="60.0583249974" lon="9.84158332813">
		<tag k="name" v="Kalvetreøya" />
		<tag k="place" v="island" />
		<tag k="ssr:stedsnr" v="467698" />
	</node>
	<node id="-184621" lat="60.0927833332" lon="9.88264445101">
		<tag k="name" v="Femtjerna" />
		<tag k="natural" v="water" />
		<tag k="ssr:stedsnr" v="467026" />
	</node>
	<node id="-184615" lat="59.9454722205" lon="9.93437778652">
		<tag k="name" v="Sjulselva" />
		<tag k="ssr:stedsnr" v="465875" />
		<tag k="waterway" v="stream" />
	</node>
	<node id="-184610" lat="59.9625111128" lon="10.1133972295">
		<tag k="name" v="Vesle Sandtjern" />
		<tag k="natural" v="water" />
		<tag k="ssr:stedsnr" v="465067" />
	</node>
	<node id="-184596" lat="60.0876249986" lon="9.94332777058">
		<tag k="name" v="Gørtjern" />
		<tag k="natural" v="water" />
		<tag k="ssr:stedsnr" v="430862" />
	</node>
	<node id="-184595" lat="60.0831249957" lon="9.81487778538">
		<tag k="name" v="Ramfoss" />
		<tag k="natural" v="waterfall" />
		<tag k="ssr:stedsnr" v="430860" />
	</node>
	<node id="-184592" lat="60.1066833338" lon="9.91075555111">
		<tag k="alt_name" v="Bjortjern" />
		<tag k="name" v="Bjoretjern" />
		<tag k="natural" v="water" />
		<tag k="ssr:stedsnr" v="430831" />
	</node>
	<node id="-184580" lat="60.0349055566" lon="9.97284721421">
		<tag k="name" v="Midttjern" />
		<tag k="natural" v="water" />
		<tag k="ssr:stedsnr" v="430321" />
	</node>
	<node id="-184579" lat="60.0385750005" lon="10.0506611151">
		<tag k="name" v="Henovika" />
		<tag k="natural" v="bay" />
		<tag k="ssr:stedsnr" v="430314" />
	</node>
	<node id="-184577" lat="60.0343999985" lon="9.91827500638">
		<tag k="name" v="Lorta" />
		<tag k="natural" v="water" />
		<tag k="ssr:stedsnr" v="429939" />
	</node>
	<node id="-184574" lat="60.0922694436" lon="9.85118611065">
		<tag k="name" v="Kvernelva" />
		<tag k="ssr:stedsnr" v="429881" />
		<tag k="waterway" v="stream" />
	</node>
	<node id="-184572" lat="59.9367499971" lon="9.78012500767">
		<tag k="alt_name" v="Tryttjern" />
		<tag k="name" v="Trytetjern" />
		<tag k="natural" v="water" />
		<tag k="ssr:stedsnr" v="429872" />
	</node>
	<node id="-184567" lat="60.159874996" lon="9.90297499504">
		<tag k="alt_name" v="Mortensvatna" />
		<tag k="name" v="Hundetjern" />
		<tag k="natural" v="water" />
		<tag k="ssr:stedsnr" v="429782" />
	</node>
	<node id="-184562" lat="59.9002250025" lon="9.96755833676">
		<tag k="name" v="Holotjern" />
		<tag k="natural" v="water" />
		<tag k="ssr:stedsnr" v="429645" />
	</node>
	<node id="-184559" lat="59.8999361078" lon="9.99021110918">
		<tag k="fixme" v="multiple name tags, choose one and add the other to alt_name" />
		<tag k="name" v="Kollebekken;Maurtjernbekk" />
		<tag k="ssr:stedsnr" v="429306" />
		<tag k="waterway" v="stream" />
	</node>
	<node id="-184557" lat="59.9278250012" lon="10.1667972285">
		<tag k="fixme" v="multiple name tags, choose one and add the other to alt_name" />
		<tag k="name" v="Elgstjernelva;Fallsbekken;Tverrelva" />
		<tag k="ssr:stedsnr" v="429488" />
		<tag k="waterway" v="stream" />
	</node>
	<node id="-184539" lat="60.0095611083" lon="9.83101665854">
		<tag k="name" v="Glømmetjern" />
		<tag k="natural" v="water" />
		<tag k="ssr:stedsnr" v="423556" />
	</node>
	<node id="-184531" lat="59.9586249971" lon="9.98764443711">
		<tag k="name" v="Møllefoss" />
		<tag k="place" v="island" />
		<tag k="ssr:stedsnr" v="421539" />
	</node>
	<node id="-184527" lat="59.9648027735" lon="10.1518222294">
		<tag k="name" v="Gampedalstjern" />
		<tag k="natural" v="water" />
		<tag k="ssr:stedsnr" v="421107" />
	</node>
	<node id="-184525" lat="59.9525083319" lon="10.1477250034">
		<tag k="name" v="Kutjernåsen" />
		<tag k="natural" v="water" />
		<tag k="ssr:stedsnr" v="421069" />
	</node>
	<node id="-184524" lat="59.9519000025" lon="10.1350083296">
		<tag k="name" v="Drammenstjerna" />
		<tag k="natural" v="water" />
		<tag k="ssr:stedsnr" v="421037" />
		<tag k="water" v="lake" />
	</node>
	<node id="-184523" lat="59.899597222" lon="10.0979916679">
		<tag k="name" v="Karussputten" />
		<tag k="natural" v="water" />
		<tag k="ssr:stedsnr" v="421005" />
		<tag k="water" v="pond" />
	</node>
	<node id="-184520" lat="60.1616277785" lon="9.93535277829">
		<tag k="name" v="Tomtelaupsbekken" />
		<tag k="ssr:stedsnr" v="419537" />
		<tag k="waterway" v="stream" />
	</node>
	<node id="-184515" lat="60.0427388874" lon="9.87999999237">
		<tag k="name" v="Gjøramyrputten" />
		<tag k="natural" v="water" />
		<tag k="ssr:stedsnr" v="419289" />
		<tag k="water" v="pond" />
	</node>
	<node id="-184513" lat="60.1202027748" lon="9.88717500184">
		<tag k="name" v="Svartdalsputten" />
		<tag k="natural" v="water" />
		<tag k="ssr:stedsnr" v="480048" />
		<tag k="water" v="pond" />
	</node>
	<node id="-184502" lat="60.0673333376" lon="9.83732221944">
		<tag k="name" v="Øyene" />
		<tag k="place" v="islet" />
		<tag k="ssr:stedsnr" v="247873" />
	</node>
	<node id="-184501" lat="59.9367749993" lon="9.77420277778">
		<tag k="name" v="Slåttjern" />
		<tag k="natural" v="water" />
		<tag k="ssr:stedsnr" v="247861" />
	</node>
	<node id="-184498" lat="59.9223500021" lon="9.75601388218">
		<tag k="alt_name" v="Gulmosatjern" />
		<tag k="name" v="Gulmosetjern" />
		<tag k="natural" v="water" />
		<tag k="ssr:stedsnr" v="247846" />
	</node>
	<node id="-184496" lat="60.1478749958" lon="9.92268333581">
		<tag k="name" v="Tretjerna" />
		<tag k="natural" v="water" />
		<tag k="ssr:stedsnr" v="247789" />
		<tag k="water" v="lake" />
	</node>
	<node id="-184491" lat="59.9939111135" lon="10.0982083352">
		<tag k="alt_name" v="Åbortjern" />
		<tag k="name" v="Abbortjern" />
		<tag k="natural" v="water" />
		<tag k="ssr:stedsnr" v="247432" />
	</node>
	<node id="-184487" lat="59.9449111151" lon="9.9853944392">
		<tag k="alt_name" v="Bergsjø" />
		<tag k="name" v="Bergsjøen" />
		<tag k="natural" v="water" />
		<tag k="old_name" v="Bergsøen" />
		<tag k="ssr:stedsnr" v="247405" />
		<tag k="water" v="lake" />
	</node>
	<node id="-184485" lat="59.9208027797" lon="10.0288722235">
		<tag k="name" v="Skittjern" />
		<tag k="natural" v="water" />
		<tag k="ssr:stedsnr" v="247404" />
	</node>
	<node id="-184481" lat="59.9121361118" lon="9.77518332521">
		<tag k="name" v="Mortenstjern" />
		<tag k="natural" v="water" />
		<tag k="ssr:stedsnr" v="246821" />
	</node>
	<node id="-184476" lat="59.9574750024" lon="10.0613444419">
		<tag k="name" v="Gamledammen" />
		<tag k="natural" v="water" />
		<tag k="ssr:stedsnr" v="246454" />
	</node>
	<node id="-184474" lat="59.964124997" lon="10.0496277743">
		<tag k="name" v="Hvalsdammen" />
		<tag k="natural" v="water" />
		<tag k="ssr:stedsnr" v="246439" />
	</node>
	<node id="-184467" lat="60.0032916708" lon="10.031061107">
		<tag k="name" v="Jarentangen" />
		<tag k="natural" v="cape" />
		<tag k="ssr:stedsnr" v="241760" />
	</node>
	<node id="-184458" lat="59.9819638919" lon="9.87153889732">
		<tag k="name" v="Postdammen" />
		<tag k="natural" v="water" />
		<tag k="ssr:stedsnr" v="240364" />
		<tag k="water" v="pond" />
	</node>
	<node id="-184452" lat="59.9150583302" lon="10.0214222144">
		<tag k="name" v="Barlindtjern" />
		<tag k="natural" v="water" />
		<tag k="ssr:stedsnr" v="239622" />
	</node>
	<node id="-184449" lat="59.9347027739" lon="9.98999444438">
		<tag k="name" v="Sponevika" />
		<tag k="natural" v="bay" />
		<tag k="ssr:stedsnr" v="239532" />
	</node>
	<node id="-184444" lat="59.9776194447" lon="10.0936027846">
		<tag k="name" v="Ventjern" />
		<tag k="natural" v="water" />
		<tag k="ssr:stedsnr" v="239077" />
	</node>
	<node id="-184431" lat="59.9296111125" lon="9.96093055878">
		<tag k="name" v="Katfoss" />
		<tag k="natural" v="waterfall" />
		<tag k="ssr:stedsnr" v="235356" />
	</node>
	<node id="-184420" lat="60.0661111134" lon="9.94508056379">
		<tag k="name" v="Tretjern" />
		<tag k="natural" v="water" />
		<tag k="ssr:stedsnr" v="224740" />
	</node>
	<node id="-184418" lat="60.0586055513" lon="9.9207250001">
		<tag k="name" v="Nordre Langsjø" />
		<tag k="natural" v="water" />
		<tag k="ssr:stedsnr" v="224721" />
		<tag k="water" v="lake" />
	</node>
	<node id="-184415" lat="60.0573555562" lon="9.84428611147">
		<tag k="name" v="Gåsøya" />
		<tag k="place" v="island" />
		<tag k="ssr:stedsnr" v="224659" />
	</node>
	<node id="-184409" lat="59.9996944458" lon="10.169708329">
		<tag k="name" v="Gullgodtbekken" />
		<tag k="ssr:stedsnr" v="224267" />
		<tag k="waterway" v="stream" />
	</node>
	<node id="-184405" lat="59.9433111152" lon="9.76223889575">
		<tag k="name" v="Ildalstjern" />
		<tag k="natural" v="water" />
		<tag k="ssr:stedsnr" v="224082" />
	</node>
	<node id="-184395" lat="60.10778333" lon="9.91763611362">
		<tag k="alt_name" v="Bjortjernbekken" />
		<tag k="name" v="Bjoretjernsbekken" />
		<tag k="ssr:stedsnr" v="222661" />
		<tag k="waterway" v="stream" />
	</node>
	<node id="-184393" lat="59.9471944466" lon="10.0571194493">
		<tag k="name" v="Trollholmen" />
		<tag k="place" v="islet" />
		<tag k="ssr:stedsnr" v="222638" />
	</node>
	<node id="-184389" lat="60.000574996" lon="9.82475000215">
		<tag k="name" v="Ilartjern" />
		<tag k="natural" v="water" />
		<tag k="ssr:stedsnr" v="222485" />
	</node>
	<node id="-184381" lat="59.979913889" lon="10.1239083381">
		<tag k="name" v="Ingeborgsputt" />
		<tag k="natural" v="water" />
		<tag k="ssr:stedsnr" v="222063" />
		<tag k="water" v="pond" />
	</node>
	<node id="-184378" lat="59.9731694475" lon="10.1241638824">
		<tag k="name" v="Uletjern" />
		<tag k="natural" v="water" />
		<tag k="ssr:stedsnr" v="222051" />
	</node>
	<node id="-184371" lat="60.0157749957" lon="9.92212221442">
		<tag k="alt_name" v="Tarmstjern" />
		<tag k="name" v="Tarmtjern" />
		<tag k="natural" v="water" />
		<tag k="ssr:stedsnr" v="187941" />
	</node>
	<node id="-184370" lat="60.0843750026" lon="9.9354250041">
		<tag k="alt_name" v="Elgshorntjern" />
		<tag k="name" v="Elgshorntjernet" />
		<tag k="natural" v="water" />
		<tag k="ssr:stedsnr" v="187848" />
	</node>
	<node id="-184369" lat="60.1059750026" lon="9.93265000601">
		<tag k="alt_name" v="Øyvann" />
		<tag k="name" v="Øyvatnet" />
		<tag k="natural" v="water" />
		<tag k="ssr:stedsnr" v="187839" />
	</node>
	<node id="-184365" lat="60.06857778" lon="9.78823611494">
		<tag k="alt_name" v="Kverneelva" />
		<tag k="name" v="Kvernelva" />
		<tag k="ssr:stedsnr" v="186890" />
		<tag k="waterway" v="stream" />
	</node>
	<node id="-184351" lat="59.8906111132" lon="9.78998888787">
		<tag k="name" v="Bjøra" />
		<tag k="ssr:stedsnr" v="186701" />
		<tag k="waterway" v="stream" />
	</node>
	<node id="-184348" lat="59.9819916629" lon="10.1308777858">
		<tag k="fixme" v="multiple name tags, choose one and add the other to alt_name" />
		<tag k="name" v="Damtjern;Gulsrud Damtjern" />
		<tag k="natural" v="water" />
		<tag k="ssr:stedsnr" v="186495" />
	</node>
	<node id="-184347" lat="59.9832694407" lon="10.1410805514">
		<tag k="fixme" v="multiple name tags, choose one and add the other to alt_name" />
		<tag k="name" v="Askerud Sandtjern;Sandtjern" />
		<tag k="natural" v="water" />
		<tag k="ssr:stedsnr" v="186494" />
	</node>
	<node id="-184342" lat="59.947958336" lon="10.0976111035">
		<tag k="fixme" v="multiple name tags, choose one and add the other to alt_name" />
		<tag k="name" v="Store Nykjua;Åsvannet" />
		<tag k="natural" v="water" />
		<tag k="ssr:stedsnr" v="186448" />
		<tag k="water" v="lake" />
	</node>
	<node id="-184338" lat="59.9415472199" lon="10.0513750074">
		<tag k="name" v="Heggesjøbekken" />
		<tag k="ssr:stedsnr" v="186396" />
		<tag k="waterway" v="stream" />
	</node>
	<node id="-184336" lat="59.9848999965" lon="10.2119638923">
		<tag k="name" v="Pilterudelva" />
		<tag k="ssr:stedsnr" v="186502" />
		<tag k="waterway" v="stream" />
	</node>
	<node id="-184335" lat="59.8934638869" lon="10.0585916736">
		<tag k="name" v="Gampetjern" />
		<tag k="natural" v="water" />
		<tag k="ssr:stedsnr" v="185310" />
	</node>
</osm>
