<?xml version="1.0" encoding="UTF-8"?>
<osm generator="osmapis" version="0.6">
	<node id="-184319" lat="59.9310388932" lon="9.99231944481">
		<tag k="name" v="Nedre Øren" />
		<tag k="place" v="farm" />
		<tag k="ssr:stedsnr" v="179548" />
	</node>
	<node id="-184316" lat="59.9804805568" lon="10.0246722311">
		<tag k="name" v="Engelstad" />
		<tag k="place" v="farm" />
		<tag k="ssr:stedsnr" v="178976" />
	</node>
	<node id="-184315" lat="59.8856332555" lon="9.79553455815">
		<tag k="name" v="Kleggstad" />
		<tag k="place" v="farm" />
		<tag k="ssr:stedsnr" v="178913" />
	</node>
	<node id="-184314" lat="59.9239333339" lon="9.91842499272">
		<tag k="name" v="Høybakk" />
		<tag k="place" v="farm" />
		<tag k="ssr:stedsnr" v="178714" />
	</node>
	<node id="-184310" lat="59.9613888892" lon="9.97716111512">
		<tag k="name" v="Bjølgerud" />
		<tag k="place" v="farm" />
		<tag k="ssr:stedsnr" v="178553" />
	</node>
	<node id="-184308" lat="59.9539138893" lon="10.0109777846">
		<tag k="name" v="Hvit-Disen" />
		<tag k="place" v="farm" />
		<tag k="ssr:stedsnr" v="178535" />
	</node>
	<node id="-184307" lat="59.9370500023" lon="9.978969439">
		<tag k="name" v="Skinnerud" />
		<tag k="place" v="farm" />
		<tag k="ssr:stedsnr" v="178526" />
	</node>
	<node id="-184306" lat="59.9348444428" lon="9.99737221408">
		<tag k="alt_name" v="Hovland Nordre" />
		<tag k="name" v="Nordre Hovland" />
		<tag k="place" v="farm" />
		<tag k="ssr:stedsnr" v="178524" />
	</node>
	<node id="-184304" lat="60.0251833296" lon="9.99499721418">
		<tag k="name" v="Løkka" />
		<tag k="place" v="farm" />
		<tag k="ssr:stedsnr" v="178203" />
	</node>
	<node id="-184303" lat="60.0308361141" lon="10.010977777">
		<tag k="name" v="Hellumsenga" />
		<tag k="place" v="farm" />
		<tag k="ssr:stedsnr" v="178178" />
	</node>
	<node id="-184301" lat="59.9723999989" lon="10.1883805614">
		<tag k="historic" v="shieling" />
		<tag k="name" v="Høgåshytta" />
		<tag k="place" v="locality" />
		<tag k="ssr:stedsnr" v="178119" />
	</node>
	<node id="-184294" lat="59.9824611116" lon="10.0625444505">
		<tag k="name" v="Kompanihytta" />
		<tag k="place" v="isolated_dwelling" />
		<tag k="ssr:stedsnr" v="176847" />
	</node>
	<node id="-184287" lat="59.9069583333" lon="9.93835278087">
		<tag k="name" v="Sporpind" />
		<tag k="place" v="isolated_dwelling" />
		<tag k="ssr:stedsnr" v="173930" />
	</node>
	<node id="-184286" lat="59.9337194423" lon="9.94780833719">
		<tag k="fixme" v="multiple name tags, choose one and add the other to alt_name" />
		<tag k="name" v="Dyregrav;Grava" />
		<tag k="place" v="locality" />
		<tag k="ssr:stedsnr" v="173544" />
	</node>
	<node id="-184284" lat="59.9620583357" lon="10.0004277777">
		<tag k="name" v="Tangen" />
		<tag k="place" v="isolated_dwelling" />
		<tag k="ssr:stedsnr" v="163997" />
	</node>
	<node id="-184270" lat="59.901180559" lon="10.0626833257">
		<tag k="historic" v="shieling" />
		<tag k="name" v="Langemyrsetra" />
		<tag k="place" v="locality" />
		<tag k="ssr:stedsnr" v="162689" />
	</node>
	<node id="-184267" lat="60.0154861152" lon="10.1162555534">
		<tag k="name" v="Søstua" />
		<tag k="place" v="locality" />
		<tag k="ssr:stedsnr" v="161578" />
	</node>
	<node id="-184266" lat="60.0151194474" lon="10.1191833364">
		<tag k="name" v="Mellomstua" />
		<tag k="place" v="farm" />
		<tag k="ssr:stedsnr" v="161577" />
	</node>
	<node id="-184264" lat="59.9381777789" lon="9.80965278491">
		<tag k="name" v="Lobben" />
		<tag k="place" v="farm" />
		<tag k="ssr:stedsnr" v="161339" />
	</node>
	<node id="-184259" lat="59.8974555558" lon="9.88632221816">
		<tag k="name" v="Solvang" />
		<tag k="place" v="farm" />
		<tag k="ssr:stedsnr" v="161063" />
	</node>
	<node id="-184250" lat="59.8920472236" lon="9.77874722472">
		<tag k="name" v="Bjørkeli" />
		<tag k="place" v="isolated_dwelling" />
		<tag k="ssr:stedsnr" v="157991" />
	</node>
	<node id="-184249" lat="60.0023222201" lon="10.0516694528">
		<tag k="name" v="Søndre Fure" />
		<tag k="place" v="farm" />
		<tag k="ssr:stedsnr" v="157185" />
	</node>
	<node id="-184246" lat="59.9313722217" lon="9.83206389174">
		<tag k="fixme" v="consider place=hamlet" />
		<tag k="name" v="Simostranda" />
		<tag k="place" v="village" />
		<tag k="ssr:stedsnr" v="268588" />
	</node>
	<node id="-184245" lat="60.0244972184" lon="10.0318833244">
		<tag k="name" v="Ås" />
		<tag k="place" v="farm" />
		<tag k="ssr:stedsnr" v="146896" />
	</node>
	<node id="-184243" lat="60.0061722248" lon="9.98063332601">
		<tag k="name" v="Langsrud" />
		<tag k="place" v="farm" />
		<tag k="ssr:stedsnr" v="127469" />
	</node>
	<node id="-184241" lat="60.0784140919" lon="9.83453540162">
		<tag k="fixme" v="multiple name tags, choose one and add the other to alt_name" />
		<tag k="name" v="Holmen;Laslette" />
		<tag k="place" v="farm" />
		<tag k="ssr:stedsnr" v="126862" />
	</node>
	<node id="-184237" lat="60.0098555578" lon="10.0841750022">
		<tag k="name" v="Karlsrud" />
		<tag k="place" v="farm" />
		<tag k="ssr:stedsnr" v="126417" />
	</node>
	<node id="-184236" lat="60.0104861101" lon="10.1131749972">
		<tag k="name" v="Kampeplassen" />
		<tag k="place" v="farm" />
		<tag k="ssr:stedsnr" v="126414" />
	</node>
	<node id="-184235" lat="60.0402666666" lon="9.99937499534">
		<tag k="name" v="Åmot" />
		<tag k="place" v="farm" />
		<tag k="ssr:stedsnr" v="126303" />
	</node>
	<node id="-184234" lat="60.0659861088" lon="9.87418611592">
		<tag k="name" v="Lieset" />
		<tag k="place" v="locality" />
		<tag k="ssr:stedsnr" v="125891" />
	</node>
	<node id="-184232" lat="60.0445138904" lon="9.96505555761">
		<tag k="name" v="Justad" />
		<tag k="place" v="farm" />
		<tag k="ssr:stedsnr" v="125919" />
	</node>
	<node id="-184231" lat="60.0358805586" lon="9.84494166222">
		<tag k="name" v="Sydhagen" />
		<tag k="place" v="farm" />
		<tag k="ssr:stedsnr" v="125918" />
	</node>
	<node id="-184230" lat="60.0532250038" lon="9.83953333144">
		<tag k="fixme" v="consider place=hamlet" />
		<tag k="name" v="Korsbøen" />
		<tag k="place" v="farm" />
		<tag k="ssr:stedsnr" v="125906" />
	</node>
	<node id="-184227" lat="59.9369949382" lon="9.965890813">
		<tag k="name" v="Kjemperud" />
		<tag k="place" v="farm" />
		<tag k="ssr:stedsnr" v="125783" />
	</node>
	<node id="-184226" lat="59.95300278" lon="9.83597499462">
		<tag k="name" v="Solberg" />
		<tag k="place" v="farm" />
		<tag k="ssr:stedsnr" v="125770" />
	</node>
	<node id="-184222" lat="59.9389916654" lon="9.83179167342">
		<tag k="name" v="Engemoen" />
		<tag k="place" v="farm" />
		<tag k="ssr:stedsnr" v="125870" />
	</node>
	<node id="-184221" lat="59.929183332" lon="9.90207221328">
		<tag k="alt_name" v="Rustand" />
		<tag k="name" v="Rustaden" />
		<tag k="place" v="farm" />
		<tag k="ssr:stedsnr" v="125857" />
	</node>
	<node id="-184220" lat="59.936094446" lon="9.83839444634">
		<tag k="alt_name" v="Eikebråten" />
		<tag k="name" v="Eikebråtan" />
		<tag k="place" v="farm" />
		<tag k="ssr:stedsnr" v="125855" />
	</node>
	<node id="-184219" lat="59.9132000024" lon="9.91725555204">
		<tag k="name" v="Veslehaug" />
		<tag k="place" v="farm" />
		<tag k="ssr:stedsnr" v="125852" />
	</node>
	<node id="-184217" lat="59.9157472218" lon="9.90766389447">
		<tag k="name" v="Brua" />
		<tag k="place" v="farm" />
		<tag k="ssr:stedsnr" v="125846" />
	</node>
	<node id="-184214" lat="59.9739861152" lon="9.9081638831">
		<tag k="name" v="Kroksrud" />
		<tag k="place" v="isolated_dwelling" />
		<tag k="ssr:stedsnr" v="125818" />
	</node>
	<node id="-184211" lat="59.8872305513" lon="9.90066666875">
		<tag k="name" v="Grorud" />
		<tag k="place" v="farm" />
		<tag k="ssr:stedsnr" v="125706" />
	</node>
	<node id="-184208" lat="59.8928250006" lon="9.88492499172">
		<tag k="fixme" v="consider place=hamlet" />
		<tag k="name" v="Rypås" />
		<tag k="place" v="farm" />
		<tag k="ssr:stedsnr" v="125689" />
	</node>
	<node id="-184207" lat="59.8949111067" lon="9.89807500816">
		<tag k="fixme" v="consider place=hamlet" />
		<tag k="name" v="Bråtan" />
		<tag k="place" v="farm" />
		<tag k="ssr:stedsnr" v="125687" />
	</node>
	<node id="-184206" lat="59.8920437954" lon="9.77383452956">
		<tag k="alt_name" v="Tolerud" />
		<tag k="fixme" v="consider place=hamlet" />
		<tag k="name" v="Torud" />
		<tag k="place" v="farm" />
		<tag k="ssr:stedsnr" v="125679" />
	</node>
	<node id="-184203" lat="59.988769441" lon="9.97943888028">
		<tag k="name" v="Tveføtrud" />
		<tag k="place" v="farm" />
		<tag k="ssr:stedsnr" v="125494" />
	</node>
	<node id="-184202" lat="59.9776277776" lon="9.97648333648">
		<tag k="alt_name" v="Sververud" />
		<tag k="name" v="Svarverud" />
		<tag k="place" v="farm" />
		<tag k="ssr:stedsnr" v="125474" />
	</node>
	<node id="-184201" lat="59.9768416709" lon="9.98128333037">
		<tag k="name" v="Svenskerud" />
		<tag k="place" v="farm" />
		<tag k="ssr:stedsnr" v="125470" />
	</node>
	<node id="-184196" lat="59.9764999977" lon="10.0211361145">
		<tag k="name" v="Stein" />
		<tag k="place" v="farm" />
		<tag k="ssr:stedsnr" v="125508" />
	</node>
	<node id="-184195" lat="59.9578083375" lon="9.9742527744">
		<tag k="name" v="Fossen" />
		<tag k="place" v="farm" />
		<tag k="ssr:stedsnr" v="125506" />
	</node>
	<node id="-184194" lat="59.9571166634" lon="10.0115361132">
		<tag k="name" v="Austad" />
		<tag k="place" v="farm" />
		<tag k="ssr:stedsnr" v="125503" />
	</node>
	<node id="-184187" lat="60.1397277774" lon="9.93354444378">
		<tag k="name" v="Gørbu" />
		<tag k="place" v="locality" />
		<tag k="ssr:stedsnr" v="120493" />
	</node>
	<node id="-184180" lat="59.9883972229" lon="9.88995556295">
		<tag k="name" v="Ødeneshagen" />
		<tag k="place" v="isolated_dwelling" />
		<tag k="ssr:stedsnr" v="119398" />
	</node>
	<node id="-184178" lat="60.0054583364" lon="9.99567778549">
		<tag k="alt_name" v="Sjulsrud søndre" />
		<tag k="name" v="Søndre Sjulsrud" />
		<tag k="place" v="farm" />
		<tag k="ssr:stedsnr" v="119105" />
	</node>
	<node id="-184175" lat="59.9688166684" lon="9.97223888161">
		<tag k="name" v="Mellom-Råen" />
		<tag k="place" v="farm" />
		<tag k="ssr:stedsnr" v="118842" />
	</node>
	<node id="-184173" lat="59.9203416667" lon="9.93626389253">
		<tag k="name" v="Støa" />
		<tag k="place" v="farm" />
		<tag k="ssr:stedsnr" v="118708" />
	</node>
	<node id="-184171" lat="59.9479249964" lon="9.80045555383">
		<tag k="name" v="Nedre Bakke" />
		<tag k="place" v="farm" />
		<tag k="ssr:stedsnr" v="118371" />
	</node>
	<node id="-184170" lat="60.0276527756" lon="9.9976000016">
		<tag k="name" v="Tufte" />
		<tag k="place" v="farm" />
		<tag k="ssr:stedsnr" v="118192" />
	</node>
	<node id="-184169" lat="60.025916668" lon="10.0179861153">
		<tag k="name" v="Svendby" />
		<tag k="place" v="farm" />
		<tag k="ssr:stedsnr" v="118167" />
	</node>
	<node id="-184167" lat="59.8965777737" lon="9.93051944299">
		<tag k="amenity" v="nursing_home" />
		<tag k="name" v="Modumheimen" />
		<tag k="ssr:stedsnr" v="117971" />
	</node>
	<node id="-184165" lat="59.965761115" lon="9.98563610902">
		<tag k="name" v="Solberg" />
		<tag k="place" v="farm" />
		<tag k="ssr:stedsnr" v="117578" />
	</node>
	<node id="-184163" lat="59.9526499997" lon="9.96935833499">
		<tag k="name" v="Kjølstad" />
		<tag k="place" v="farm" />
		<tag k="ssr:stedsnr" v="125409" />
	</node>
	<node id="-184156" lat="60.0277472201" lon="9.86273333268">
		<tag k="name" v="Bråten" />
		<tag k="place" v="farm" />
		<tag k="ssr:stedsnr" v="116267" />
	</node>
	<node id="-184155" lat="60.029336111" lon="9.86988056384">
		<tag k="name" v="Roa" />
		<tag k="place" v="farm" />
		<tag k="ssr:stedsnr" v="116204" />
	</node>
	<node id="-184150" lat="59.9356787021" lon="9.94714413395">
		<tag k="fixme" v="multiple name tags, choose one and add the other to alt_name" />
		<tag k="name" v="Graven;Gravbroten og Dyregrav;Gravbråten og Dyregrav" />
		<tag k="old_name" v="Gravbraaten og Dyregrav" />
		<tag k="place" v="farm" />
		<tag k="ssr:stedsnr" v="113843" />
	</node>
	<node id="-184138" lat="59.9782805541" lon="9.88285554688">
		<tag k="name" v="Bråten" />
		<tag k="place" v="isolated_dwelling" />
		<tag k="ssr:stedsnr" v="102848" />
	</node>
	<node id="-184136" lat="60.0067861112" lon="10.0275833375">
		<tag k="fixme" v="multiple name tags, choose one and add the other to alt_name" />
		<tag k="name" v="Jarenhaugen;Haugen" />
		<tag k="place" v="farm" />
		<tag k="ssr:stedsnr" v="102090" />
	</node>
	<node id="-184135" lat="60.0689277742" lon="9.84332499132">
		<tag k="name" v="Struterud" />
		<tag k="place" v="farm" />
		<tag k="ssr:stedsnr" v="101707" />
	</node>
	<node id="-184134" lat="60.1041250022" lon="9.91672499262">
		<tag k="name" v="Finnsrudhytta" />
		<tag k="place" v="isolated_dwelling" />
		<tag k="ssr:stedsnr" v="101686" />
	</node>
	<node id="-184132" lat="59.9453138876" lon="10.0621611137">
		<tag k="historic" v="shieling" />
		<tag k="name" v="Fjellstua" />
		<tag k="place" v="locality" />
		<tag k="ssr:stedsnr" v="101664" />
	</node>
	<node id="-184126" lat="59.9056416668" lon="9.88173333399">
		<tag k="name" v="Sørli" />
		<tag k="place" v="isolated_dwelling" />
		<tag k="ssr:stedsnr" v="101057" />
	</node>
	<node id="-184125" lat="59.9153555571" lon="9.86301665784">
		<tag k="name" v="Varhusbakken" />
		<tag k="place" v="farm" />
		<tag k="ssr:stedsnr" v="101004" />
	</node>
	<node id="-184123" lat="60.0129611117" lon="9.86769167466">
		<tag k="name" v="Skolt" />
		<tag k="place" v="farm" />
		<tag k="ssr:stedsnr" v="100344" />
	</node>
	<node id="-184122" lat="60.0073138873" lon="9.89582500381">
		<tag k="name" v="Nyhus" />
		<tag k="place" v="farm" />
		<tag k="ssr:stedsnr" v="100336" />
	</node>
	<node id="-184117" lat="59.8671861101" lon="9.85899999647">
		<tag k="name" v="Østre Skibrek" />
		<tag k="place" v="farm" />
		<tag k="ssr:stedsnr" v="87965" />
	</node>
	<node id="-184116" lat="60.0295138855" lon="10.0435444461">
		<tag k="name" v="Strandbråten" />
		<tag k="place" v="farm" />
		<tag k="ssr:stedsnr" v="86917" />
	</node>
	<node id="-184114" lat="59.9939333331" lon="9.84513332511">
		<tag k="name" v="Hovdesetra" />
		<tag k="place" v="isolated_dwelling" />
		<tag k="ssr:stedsnr" v="65967" />
	</node>
	<node id="-184113" lat="60.013563887" lon="9.91143889465">
		<tag k="name" v="Sysledalen" />
		<tag k="place" v="farm" />
		<tag k="ssr:stedsnr" v="65962" />
	</node>
	<node id="-184110" lat="59.9347916709" lon="9.82313333469">
		<tag k="name" v="Gunnerud" />
		<tag k="place" v="farm" />
		<tag k="ssr:stedsnr" v="65892" />
	</node>
	<node id="-184108" lat="59.9414500006" lon="9.83919167304">
		<tag k="alt_name" v="Nordengen" />
		<tag k="name" v="Nordenga" />
		<tag k="place" v="farm" />
		<tag k="ssr:stedsnr" v="65877" />
	</node>
	<node id="-184106" lat="59.94279812" lon="9.80327467383">
		<tag k="fixme" v="consider place=hamlet" />
		<tag k="name" v="Bendiksby" />
		<tag k="place" v="farm" />
		<tag k="ssr:stedsnr" v="65872" />
	</node>
	<node id="-184105" lat="59.9382472245" lon="9.89593611938">
		<tag k="fixme" v="consider place=hamlet" />
		<tag k="name" v="Overn" />
		<tag k="place" v="farm" />
		<tag k="ssr:stedsnr" v="65851" />
	</node>
	<node id="-184104" lat="59.9258833323" lon="9.92918054823">
		<tag k="name" v="Komperud" />
		<tag k="place" v="farm" />
		<tag k="ssr:stedsnr" v="65841" />
	</node>
	<node id="-184102" lat="59.9790750034" lon="9.8890055568">
		<tag k="name" v="Bergan" />
		<tag k="place" v="farm" />
		<tag k="ssr:stedsnr" v="65802" />
	</node>
	<node id="-184098" lat="59.9727138911" lon="10.0151083254">
		<tag k="name" v="Frydenberg" />
		<tag k="place" v="farm" />
		<tag k="ssr:stedsnr" v="65474" />
	</node>
	<node id="-184097" lat="59.9793250012" lon="10.0215305546">
		<tag k="alt_name" v="Natveit;Natvedt" />
		<tag k="name" v="Natvet" />
		<tag k="place" v="farm" />
		<tag k="ssr:stedsnr" v="65472" />
	</node>
	<node id="-184095" lat="59.9970333372" lon="10.0469972141">
		<tag k="name" v="Vassenga" />
		<tag k="place" v="farm" />
		<tag k="ssr:stedsnr" v="65444" />
	</node>
	<node id="-184094" lat="59.981186108" lon="9.97283611901">
		<tag k="alt_name" v="Grøterud" />
		<tag k="name" v="Grøtterud" />
		<tag k="place" v="farm" />
		<tag k="ssr:stedsnr" v="65441" />
	</node>
	<node id="-184092" lat="60.0161861153" lon="10.1280749912">
		<tag k="fixme" v="consider place=hamlet" />
		<tag k="name" v="Gulsrud" />
		<tag k="place" v="farm" />
		<tag k="ssr:stedsnr" v="65401" />
	</node>
	<node id="-184091" lat="60.0137639943" lon="10.0973962434">
		<tag k="fixme" v="multiple name tags, choose one and add the other to alt_name" />
		<tag k="name" v="Gåserudsand;Melåtangen" />
		<tag k="place" v="farm" />
		<tag k="ssr:stedsnr" v="65402" />
	</node>
	<node id="-184090" lat="60.0089055569" lon="10.1518055638">
		<tag k="name" v="Hanseløkka" />
		<tag k="place" v="isolated_dwelling" />
		<tag k="ssr:stedsnr" v="65397" />
	</node>
	<node id="-184085" lat="60.0966694486" lon="9.8316805527">
		<tag k="alt_name" v="Tangene" />
		<tag k="name" v="Tangane" />
		<tag k="place" v="farm" />
		<tag k="ssr:stedsnr" v="66833" />
	</node>
	<node id="-184084" lat="59.9716777785" lon="9.94989999165">
		<tag k="name" v="Åsen" />
		<tag k="place" v="farm" />
		<tag k="ssr:stedsnr" v="64792" />
	</node>
	<node id="-184083" lat="59.9696777798" lon="9.9025277849">
		<tag k="name" v="Jarmoen" />
		<tag k="place" v="farm" />
		<tag k="ssr:stedsnr" v="64789" />
	</node>
	<node id="-184079" lat="59.948308335" lon="9.99934999228">
		<tag k="name" v="Voll" />
		<tag k="place" v="farm" />
		<tag k="ssr:stedsnr" v="64386" />
	</node>
	<node id="-184078" lat="59.9520750013" lon="9.97573333242">
		<tag k="name" v="Hamremoen" />
		<tag k="place" v="isolated_dwelling" />
		<tag k="ssr:stedsnr" v="64385" />
	</node>
	<node id="-184076" lat="60.0039694449" lon="10.073386104">
		<tag k="alt_name" v="Sjuls øvre" />
		<tag k="name" v="Øvre Sjuls" />
		<tag k="place" v="farm" />
		<tag k="ssr:stedsnr" v="59768" />
	</node>
	<node id="-184075" lat="60.0049305596" lon="10.0635722272">
		<tag k="name" v="Hofsenga" />
		<tag k="place" v="farm" />
		<tag k="ssr:stedsnr" v="59752" />
	</node>
	<node id="-184073" lat="59.9891555548" lon="9.94485832693">
		<tag k="name" v="Hære" />
		<tag k="place" v="farm" />
		<tag k="ssr:stedsnr" v="59196" />
	</node>
	<node id="-184070" lat="60.0178611099" lon="10.0086083264">
		<tag k="name" v="Drolsummyra" />
		<tag k="place" v="farm" />
		<tag k="ssr:stedsnr" v="59087" />
	</node>
	<node id="-184069" lat="60.004552781" lon="9.99796388435">
		<tag k="name" v="Bråten" />
		<tag k="place" v="farm" />
		<tag k="ssr:stedsnr" v="59076" />
	</node>
	<node id="-184068" lat="60.0206416644" lon="10.0171416612">
		<tag k="name" v="Svenby" />
		<tag k="place" v="farm" />
		<tag k="ssr:stedsnr" v="59071" />
	</node>
	<node id="-184066" lat="60.0050305558" lon="9.97491666056">
		<tag k="name" v="Skredderud" />
		<tag k="place" v="farm" />
		<tag k="ssr:stedsnr" v="59045" />
	</node>
	<node id="-184062" lat="59.9480861139" lon="9.85878333482">
		<tag k="name" v="Sullandhytta" />
		<tag k="place" v="isolated_dwelling" />
		<tag k="ssr:stedsnr" v="58810" />
	</node>
	<node id="-184060" lat="60.023333332" lon="10.0167527742">
		<tag k="name" v="Svenby" />
		<tag k="place" v="farm" />
		<tag k="ssr:stedsnr" v="65316" />
	</node>
	<node id="-184059" lat="60.0205749986" lon="10.0048861162">
		<tag k="name" v="London" />
		<tag k="place" v="farm" />
		<tag k="ssr:stedsnr" v="65315" />
	</node>
	<node id="-184058" lat="59.9435861153" lon="9.80217778423">
		<tag k="name" v="Øvre Bendiksby" />
		<tag k="place" v="farm" />
		<tag k="ssr:stedsnr" v="58445" />
	</node>
	<node id="-184057" lat="59.9997222187" lon="9.89495554943">
		<tag k="name" v="Grinda" />
		<tag k="place" v="farm" />
		<tag k="ssr:stedsnr" v="58406" />
	</node>
	<node id="-184055" lat="60.0092750035" lon="10.0768555473">
		<tag k="name" v="Nord-Tangerud" />
		<tag k="place" v="farm" />
		<tag k="ssr:stedsnr" v="57765" />
	</node>
	<node id="-184054" lat="60.0082277761" lon="10.0808944454">
		<tag k="name" v="Øvre Påls" />
		<tag k="place" v="farm" />
		<tag k="ssr:stedsnr" v="57764" />
	</node>
	<node id="-184050" lat="59.9455861112" lon="10.0161861121">
		<tag k="historic" v="shieling" />
		<tag k="name" v="Dølen" />
		<tag k="place" v="locality" />
		<tag k="ssr:stedsnr" v="57515" />
	</node>
	<node id="-184049" lat="59.9482138853" lon="10.0026250062">
		<tag k="alt_name" v="Dalen Nordre" />
		<tag k="name" v="Nordre Dalen" />
		<tag k="place" v="farm" />
		<tag k="ssr:stedsnr" v="57512" />
	</node>
	<node id="-184048" lat="59.9588666695" lon="10.0197777808">
		<tag k="name" v="Austadbråten" />
		<tag k="place" v="isolated_dwelling" />
		<tag k="ssr:stedsnr" v="57510" />
	</node>
	<node id="-184047" lat="59.9357777776" lon="9.99401666984">
		<tag k="name" v="Spone" />
		<tag k="place" v="farm" />
		<tag k="ssr:stedsnr" v="57495" />
	</node>
	<node id="-184046" lat="60.0282277816" lon="9.99489167408">
		<tag k="name" v="Sandhaugen" />
		<tag k="place" v="farm" />
		<tag k="ssr:stedsnr" v="57167" />
	</node>
	<node id="-184044" lat="59.9753388908" lon="10.1496250003">
		<tag k="historic" v="shieling" />
		<tag k="name" v="Breilihytta" />
		<tag k="place" v="locality" />
		<tag k="ssr:stedsnr" v="57101" />
	</node>
	<node id="-184042" lat="59.9845083364" lon="10.1050861061">
		<tag k="historic" v="shieling" />
		<tag k="name" v="Bergsvollen" />
		<tag k="place" v="locality" />
		<tag k="ssr:stedsnr" v="55972" />
	</node>
	<node id="-184040" lat="59.93391944" lon="9.89627778578">
		<tag k="name" v="Sør-Overn" />
		<tag k="place" v="farm" />
		<tag k="ssr:stedsnr" v="55766" />
	</node>
	<node id="-184039" lat="60.0543194468" lon="9.86401944503">
		<tag k="building" v="industrial" />
		<tag k="industrial" v="factory" />
		<tag k="name" v="Morud bruk" />
		<tag k="ssr:stedsnr" v="55407" />
	</node>
	<node id="-184038" lat="60.0043055592" lon="9.9307638915">
		<tag k="name" v="Fjellhaug" />
		<tag k="place" v="farm" />
		<tag k="ssr:stedsnr" v="55310" />
	</node>
	<node id="-184033" lat="60.0264888859" lon="9.86709443858">
		<tag k="name" v="Prestegården" />
		<tag k="place" v="farm" />
		<tag k="ssr:stedsnr" v="55276" />
	</node>
	<node id="-184032" lat="59.8958277761" lon="9.90656667171">
		<tag k="name" v="Kongshaug" />
		<tag k="place" v="isolated_dwelling" />
		<tag k="ssr:stedsnr" v="55059" />
	</node>
	<node id="-184031" lat="59.9320722253" lon="9.94210555353">
		<tag k="name" v="Grava" />
		<tag k="place" v="quarter" />
		<tag k="ssr:stedsnr" v="52476" />
	</node>
	<node id="-184025" lat="60.0624500039" lon="9.9634416636">
		<tag k="name" v="Gravermoen" />
		<tag k="place" v="farm" />
		<tag k="ssr:stedsnr" v="42597" />
	</node>
	<node id="-184024" lat="60.0329416693" lon="9.83984166927">
		<tag k="name" v="Haugen" />
		<tag k="place" v="locality" />
		<tag k="ssr:stedsnr" v="42685" />
	</node>
	<node id="-184018" lat="59.9987638903" lon="9.97241945168">
		<tag k="name" v="Torsby" />
		<tag k="place" v="farm" />
		<tag k="ssr:stedsnr" v="42026" />
	</node>
	<node id="-184015" lat="59.9380249975" lon="9.90374444862">
		<tag k="name" v="Jar" />
		<tag k="place" v="farm" />
		<tag k="ssr:stedsnr" v="41868" />
	</node>
	<node id="-184012" lat="59.9605833353" lon="9.85643611264">
		<tag k="name" v="Hasselmoen" />
		<tag k="place" v="locality" />
		<tag k="ssr:stedsnr" v="41281" />
	</node>
	<node id="-184011" lat="59.9787222221" lon="9.89587777272">
		<tag k="name" v="Bråten" />
		<tag k="place" v="farm" />
		<tag k="ssr:stedsnr" v="40939" />
	</node>
	<node id="-184009" lat="60.068233336" lon="9.84377500183">
		<tag k="name" v="Solbakken" />
		<tag k="place" v="farm" />
		<tag k="ssr:stedsnr" v="40719" />
	</node>
	<node id="-184008" lat="60.0722722178" lon="9.8470944461">
		<tag k="name" v="Kvernrud" />
		<tag k="place" v="isolated_dwelling" />
		<tag k="ssr:stedsnr" v="40717" />
	</node>
	<node id="-183999" lat="60.0161722179" lon="10.1285666691">
		<tag k="name" v="Taraldsrud" />
		<tag k="place" v="farm" />
		<tag k="ssr:stedsnr" v="40623" />
	</node>
	<node id="-183998" lat="59.8783666652" lon="9.81777222537">
		<tag k="name" v="Øvre Hovenga" />
		<tag k="place" v="farm" />
		<tag k="ssr:stedsnr" v="40332" />
	</node>
	<node id="-183997" lat="60.0155194403" lon="10.1176916611">
		<tag k="name" v="Gulsrud" />
		<tag k="place" v="farm" />
		<tag k="ssr:stedsnr" v="40199" />
	</node>
	<node id="-183996" lat="59.8923027762" lon="9.88734721669">
		<tag k="name" v="Moflaten" />
		<tag k="place" v="isolated_dwelling" />
		<tag k="ssr:stedsnr" v="40100" />
	</node>
	<node id="-183992" lat="59.892699999" lon="9.75729166147">
		<tag k="name" v="Kinnesmyra" />
		<tag k="place" v="locality" />
		<tag k="ssr:stedsnr" v="36998" />
	</node>
	<node id="-183990" lat="59.8937388866" lon="9.89015556437">
		<tag k="name" v="Moen" />
		<tag k="place" v="farm" />
		<tag k="ssr:stedsnr" v="40101" />
	</node>
	<node id="-183988" lat="59.8653611147" lon="9.89020277468">
		<tag k="name" v="Borkholm" />
		<tag k="place" v="farm" />
		<tag k="ssr:stedsnr" v="26066" />
	</node>
	<node id="-183987" lat="59.8628638894" lon="9.89318333066">
		<tag k="name" v="Rypås" />
		<tag k="place" v="isolated_dwelling" />
		<tag k="ssr:stedsnr" v="26058" />
	</node>
	<node id="-183984" lat="60.1058500034" lon="9.94670000099">
		<tag k="name" v="Sørli" />
		<tag k="place" v="isolated_dwelling" />
		<tag k="ssr:stedsnr" v="5822" />
	</node>
	<node id="-183983" lat="60.0051111101" lon="10.0020833266">
		<tag k="alt_name" v="Flattom" />
		<tag k="name" v="Flattum" />
		<tag k="place" v="farm" />
		<tag k="ssr:stedsnr" v="5415" />
	</node>
	<node id="-183982" lat="60.0065444403" lon="10.1820027829">
		<tag k="alt_name" v="Tandberg" />
		<tag k="name" v="Tanberg" />
		<tag k="place" v="farm" />
		<tag k="ssr:stedsnr" v="5411" />
	</node>
	<node id="-183978" lat="60.0087138844" lon="10.0012750024">
		<tag k="name" v="Rud" />
		<tag k="place" v="farm" />
		<tag k="ssr:stedsnr" v="5325" />
	</node>
	<node id="-183977" lat="60.0228250014" lon="10.0030277845">
		<tag k="name" v="Hovet" />
		<tag k="place" v="farm" />
		<tag k="ssr:stedsnr" v="5319" />
	</node>
	<node id="-183976" lat="60.0231500035" lon="9.98780555892">
		<tag k="name" v="Hestebråtan" />
		<tag k="place" v="farm" />
		<tag k="ssr:stedsnr" v="5320" />
	</node>
	<node id="-183975" lat="60.0297472233" lon="10.0322638847">
		<tag k="alt_name" v="Koppås" />
		<tag k="name" v="Koppåsen" />
		<tag k="place" v="farm" />
		<tag k="ssr:stedsnr" v="5314" />
	</node>
	<node id="-183974" lat="60.0322555559" lon="9.98981666625">
		<tag k="name" v="Bakkestua" />
		<tag k="place" v="farm" />
		<tag k="ssr:stedsnr" v="5311" />
	</node>
	<node id="-183973" lat="60.0366749997" lon="9.86516110601">
		<tag k="name" v="Bakken" />
		<tag k="place" v="farm" />
		<tag k="ssr:stedsnr" v="4928" />
	</node>
	<node id="-183972" lat="60.0603166644" lon="9.85021944652">
		<tag k="name" v="Morud" />
		<tag k="place" v="farm" />
		<tag k="ssr:stedsnr" v="4914" />
	</node>
	<node id="-183971" lat="60.0461638878" lon="9.84633611062">
		<tag k="name" v="Åker" />
		<tag k="place" v="farm" />
		<tag k="ssr:stedsnr" v="4904" />
	</node>
	<node id="-183966" lat="59.9361499999" lon="9.92556110634">
		<tag k="alt_name" v="Nedre Bakken" />
		<tag k="name" v="Bakken" />
		<tag k="place" v="farm" />
		<tag k="ssr:stedsnr" v="4858" />
	</node>
	<node id="-183964" lat="59.8938444439" lon="9.75347221708">
		<tag k="alt_name" v="Smedløkken" />
		<tag k="name" v="Smedløkka" />
		<tag k="old_name" v="Tolerud" />
		<tag k="place" v="farm" />
		<tag k="ssr:stedsnr" v="4850" />
	</node>
	<node id="-183961" lat="59.88851944" lon="9.87327222733">
		<tag k="name" v="Gudmundrud" />
		<tag k="place" v="farm" />
		<tag k="ssr:stedsnr" v="4687" />
	</node>
	<node id="-183960" lat="59.8845750035" lon="9.92707221754">
		<tag k="name" v="Bjørndalen" />
		<tag k="place" v="isolated_dwelling" />
		<tag k="ssr:stedsnr" v="4684" />
	</node>
	<node id="-183959" lat="59.9012444435" lon="9.88263333925">
		<tag k="alt_name" v="Setersberg" />
		<tag k="name" v="Sætersberg" />
		<tag k="place" v="farm" />
		<tag k="ssr:stedsnr" v="4669" />
	</node>
	<node id="-183958" lat="59.8977111149" lon="9.8925333365">
		<tag k="alt_name" v="Nordbråten" />
		<tag k="name" v="Nordbråtan" />
		<tag k="place" v="farm" />
		<tag k="ssr:stedsnr" v="4666" />
	</node>
	<node id="-183954" lat="59.9179555519" lon="9.99362221681">
		<tag k="alt_name" v="Tørkop" />
		<tag k="name" v="Tørkopp" />
		<tag k="place" v="isolated_dwelling" />
		<tag k="ssr:stedsnr" v="4411" />
	</node>
	<node id="-183953" lat="59.8780833343" lon="9.97553888948">
		<tag k="historic" v="shieling" />
		<tag k="name" v="Engersetra" />
		<tag k="place" v="locality" />
		<tag k="ssr:stedsnr" v="4348" />
	</node>
	<node id="-183952" lat="59.8682416626" lon="10.0551416587">
		<tag k="name" v="Glitre" />
		<tag k="place" v="isolated_dwelling" />
		<tag k="ssr:stedsnr" v="4333" />
	</node>
	<node id="-183951" lat="59.9050750044" lon="10.0687916581">
		<tag k="name" v="Sponevollen" />
		<tag k="place" v="isolated_dwelling" />
		<tag k="ssr:stedsnr" v="4328" />
	</node>
	<node id="-183950" lat="59.9163333319" lon="9.95669999528">
		<tag k="alt_name" v="Kaldaker;Kalaker" />
		<tag k="name" v="Kaldåker" />
		<tag k="old_name" v="Kaldaaker" />
		<tag k="place" v="farm" />
		<tag k="ssr:stedsnr" v="3840" />
	</node>
	<node id="-183949" lat="59.9742749973" lon="9.94442500776">
		<tag k="name" v="Kaggestad" />
		<tag k="place" v="farm" />
		<tag k="ssr:stedsnr" v="3804" />
	</node>
	<node id="-183948" lat="59.9740749979" lon="9.93064722005">
		<tag k="name" v="Fossen" />
		<tag k="place" v="farm" />
		<tag k="ssr:stedsnr" v="3790" />
	</node>
	<node id="-183947" lat="59.9666944431" lon="9.94404721795">
		<tag k="amenity" v="nursing_home" />
		<tag k="name" v="Modum Bad" />
		<tag k="old_name" v="Modum Bads Nervesanatorium" />
		<tag k="ssr:stedsnr" v="3768" />
	</node>
	<node id="-183946" lat="59.9646249975" lon="9.9779833346">
		<tag k="name" v="Bjølgerud" />
		<tag k="place" v="farm" />
		<tag k="ssr:stedsnr" v="3442" />
	</node>
	<node id="-183928" lat="59.8920787868" lon="9.92841846297">
		<tag k="name" v="Solhøi" />
		<tag k="place" v="farm" />
		<tag k="ssr:stedsnr" v="984198" />
	</node>
	<node id="-183926" lat="59.9455559003" lon="9.97523332399">
		<tag k="name" v="Nedmarken industriområde" />
		<tag k="place" v="quarter" />
		<tag k="ssr:stedsnr" v="982623" />
	</node>
	<node id="-183912" lat="59.9655777737" lon="10.0157388801">
		<tag k="name" v="Bakke-Hval" />
		<tag k="place" v="farm" />
		<tag k="ssr:stedsnr" v="891995" />
	</node>
	<node id="-183910" lat="59.9423500043" lon="9.83344999753">
		<tag k="name" v="Tandberghaugen" />
		<tag k="place" v="farm" />
		<tag k="ssr:stedsnr" v="891870" />
	</node>
	<node id="-183899" lat="60.1122194416" lon="9.91477500867">
		<tag k="historic" v="shieling" />
		<tag k="name" v="Tørrfurumyrstua" />
		<tag k="place" v="locality" />
		<tag k="ssr:stedsnr" v="890710" />
	</node>
	<node id="-183894" lat="59.8688083373" lon="9.8330388844">
		<tag k="name" v="Steinsrud" />
		<tag k="place" v="farm" />
		<tag k="ssr:stedsnr" v="889880" />
	</node>
	<node id="-183893" lat="60.0064999967" lon="9.87390833281">
		<tag k="name" v="Taraldhaugen" />
		<tag k="place" v="farm" />
		<tag k="ssr:stedsnr" v="889360" />
	</node>
	<node id="-183892" lat="59.8847999979" lon="9.90124444896">
		<tag k="name" v="Granvold" />
		<tag k="place" v="farm" />
		<tag k="ssr:stedsnr" v="889111" />
	</node>
	<node id="-183890" lat="59.9637722217" lon="10.0448611074">
		<tag k="name" v="Turisten" />
		<tag k="place" v="isolated_dwelling" />
		<tag k="ssr:stedsnr" v="892932" />
	</node>
	<node id="-183889" lat="59.8885611105" lon="9.7972222307">
		<tag k="name" v="Østre Klegstad" />
		<tag k="place" v="farm" />
		<tag k="ssr:stedsnr" v="886988" />
	</node>
	<node id="-183883" lat="59.9673555575" lon="10.0726472198">
		<tag k="name" v="Englestadhytta" />
		<tag k="place" v="isolated_dwelling" />
		<tag k="ssr:stedsnr" v="406997" />
	</node>
	<node id="-183880" lat="60.0295749977" lon="9.83695556015">
		<tag k="building" v="industrial" />
		<tag k="name" v="Snarum verk sag" />
		<tag k="ssr:stedsnr" v="406722" />
	</node>
	<node id="-183877" lat="59.9219694461" lon="9.96568056388">
		<tag k="name" v="Østre Skredsvik" />
		<tag k="place" v="locality" />
		<tag k="ssr:stedsnr" v="406611" />
	</node>
	<node id="-183876" lat="59.9548611105" lon="9.77385556367">
		<tag k="name" v="Åsen" />
		<tag k="place" v="locality" />
		<tag k="ssr:stedsnr" v="406444" />
	</node>
	<node id="-183875" lat="59.8818444444" lon="9.87499165865">
		<tag k="name" v="Bråten-Bakke" />
		<tag k="place" v="farm" />
		<tag k="ssr:stedsnr" v="406436" />
	</node>
	<node id="-183874" lat="60.0038249997" lon="10.1850805514">
		<tag k="name" v="Inner-Tandberg" />
		<tag k="place" v="farm" />
		<tag k="ssr:stedsnr" v="406300" />
	</node>
	<node id="-183869" lat="59.9820944476" lon="9.9237083405">
		<tag k="name" v="Fossjordet" />
		<tag k="place" v="farm" />
		<tag k="ssr:stedsnr" v="406087" />
	</node>
	<node id="-183864" lat="59.9480999962" lon="9.83141111305">
		<tag k="name" v="Nord-Tandberg" />
		<tag k="place" v="farm" />
		<tag k="ssr:stedsnr" v="405849" />
	</node>
	<node id="-183863" lat="59.9579888848" lon="9.7798722288">
		<tag k="name" v="Strandheim" />
		<tag k="place" v="farm" />
		<tag k="ssr:stedsnr" v="405446" />
	</node>
	<node id="-183859" lat="59.9263472218" lon="9.83898888471">
		<tag k="name" v="Tangen" />
		<tag k="place" v="farm" />
		<tag k="ssr:stedsnr" v="404765" />
	</node>
	<node id="-183857" lat="59.9394527743" lon="10.0404277804">
		<tag k="historic" v="shieling" />
		<tag k="name" v="Hagaenhytta" />
		<tag k="place" v="locality" />
		<tag k="ssr:stedsnr" v="404651" />
	</node>
	<node id="-183856" lat="59.9150000038" lon="9.93988889656">
		<tag k="alt_name" v="Holsrud" />
		<tag k="name" v="Linnerud" />
		<tag k="place" v="farm" />
		<tag k="ssr:stedsnr" v="404638" />
	</node>
	<node id="-183853" lat="60.0105916638" lon="10.0928805559">
		<tag k="name" v="Melåen" />
		<tag k="place" v="farm" />
		<tag k="ssr:stedsnr" v="404583" />
	</node>
	<node id="-183852" lat="59.9390388924" lon="9.81722499513">
		<tag k="name" v="Lobben" />
		<tag k="place" v="farm" />
		<tag k="ssr:stedsnr" v="404321" />
	</node>
	<node id="-183851" lat="60.0107861081" lon="9.88847500799">
		<tag k="name" v="Gunnhusplassen" />
		<tag k="place" v="farm" />
		<tag k="ssr:stedsnr" v="404260" />
	</node>
	<node id="-183850" lat="60.0153916684" lon="10.1265472169">
		<tag k="name" v="Gulsrud" />
		<tag k="place" v="farm" />
		<tag k="ssr:stedsnr" v="404174" />
	</node>
	<node id="-183848" lat="60.0453972228" lon="9.86606666964">
		<tag k="name" v="Nordre Gubberud" />
		<tag k="place" v="isolated_dwelling" />
		<tag k="ssr:stedsnr" v="237444" />
	</node>
	<node id="-183846" lat="59.8883861148" lon="9.79648054875">
		<tag k="name" v="Vestre Klegstad" />
		<tag k="place" v="farm" />
		<tag k="ssr:stedsnr" v="400990" />
	</node>
	<node id="-183844" lat="60.087461115" lon="9.78952221468">
		<tag k="name" v="Hallerdalen" />
		<tag k="place" v="isolated_dwelling" />
		<tag k="ssr:stedsnr" v="400108" />
	</node>
	<node id="-183841" lat="59.8565555572" lon="9.89389444988">
		<tag k="name" v="Støa" />
		<tag k="place" v="farm" />
		<tag k="ssr:stedsnr" v="390051" />
	</node>
	<node id="-183838" lat="60.0037037074" lon="9.97851814404">
		<tag k="name" v="Haugen" />
		<tag k="place" v="farm" />
		<tag k="ssr:stedsnr" v="369386" />
	</node>
	<node id="-183836" lat="60.0340999962" lon="10.0174055556">
		<tag k="name" v="Hellum" />
		<tag k="place" v="farm" />
		<tag k="ssr:stedsnr" v="369310" />
	</node>
	<node id="-183835" lat="60.0309638861" lon="9.99568334059">
		<tag k="name" v="Tomasrud" />
		<tag k="place" v="farm" />
		<tag k="ssr:stedsnr" v="369309" />
	</node>
	<node id="-183834" lat="60.0380861142" lon="10.0072250009">
		<tag k="name" v="Holmen" />
		<tag k="place" v="farm" />
		<tag k="ssr:stedsnr" v="369300" />
	</node>
	<node id="-183833" lat="59.996074996" lon="9.8923277766">
		<tag k="name" v="Skretteberg" />
		<tag k="place" v="farm" />
		<tag k="ssr:stedsnr" v="368978" />
	</node>
	<node id="-183832" lat="59.9918666633" lon="9.9094611075">
		<tag k="name" v="Røste" />
		<tag k="place" v="farm" />
		<tag k="ssr:stedsnr" v="368976" />
	</node>
	<node id="-183830" lat="60.0175944431" lon="9.84580277767">
		<tag k="alt_name" v="Kleven" />
		<tag k="name" v="Kleiva" />
		<tag k="place" v="farm" />
		<tag k="ssr:stedsnr" v="368967" />
	</node>
	<node id="-183827" lat="60.0469166704" lon="9.79311945084">
		<tag k="alt_name" v="Svendsbysetra" />
		<tag k="name" v="Svensbysetra" />
		<tag k="place" v="locality" />
		<tag k="ssr:stedsnr" v="368902" />
	</node>
	<node id="-183824" lat="59.9251583309" lon="9.9404000081">
		<tag k="name" v="Hallingstua" />
		<tag k="place" v="farm" />
		<tag k="ssr:stedsnr" v="368860" />
	</node>
	<node id="-183823" lat="59.9263694455" lon="9.85124444971">
		<tag k="alt_name" v="Moen" />
		<tag k="name" v="Tingelstadmoen" />
		<tag k="place" v="farm" />
		<tag k="ssr:stedsnr" v="368859" />
	</node>
	<node id="-183822" lat="59.9273638918" lon="9.8870666663">
		<tag k="name" v="Brustigen" />
		<tag k="place" v="farm" />
		<tag k="ssr:stedsnr" v="368858" />
	</node>
	<node id="-183820" lat="59.9558111156" lon="9.76843333302">
		<tag k="name" v="Høgåsen" />
		<tag k="place" v="farm" />
		<tag k="ssr:stedsnr" v="368807" />
	</node>
	<node id="-183817" lat="59.9487555564" lon="9.79620277416">
		<tag k="name" v="Bakke" />
		<tag k="place" v="farm" />
		<tag k="ssr:stedsnr" v="368792" />
	</node>
	<node id="-183811" lat="59.9922111074" lon="9.98322499563">
		<tag k="alt_name" v="Østensengen;Østengen" />
		<tag k="fixme" v="consider place=hamlet" />
		<tag k="name" v="Østensenga" />
		<tag k="place" v="farm" />
		<tag k="ssr:stedsnr" v="368631" />
	</node>
	<node id="-183808" lat="59.9985000008" lon="10.0630749939">
		<tag k="name" v="Nyhus" />
		<tag k="place" v="farm" />
		<tag k="ssr:stedsnr" v="368494" />
	</node>
	<node id="-183807" lat="59.993841668" lon="10.0026750037">
		<tag k="name" v="Øverby" />
		<tag k="place" v="farm" />
		<tag k="ssr:stedsnr" v="368484" />
	</node>
	<node id="-183805" lat="59.986675108" lon="10.2311193267">
		<tag k="fixme" v="consider place=hamlet" />
		<tag k="name" v="Pilterud" />
		<tag k="place" v="farm" />
		<tag k="ssr:stedsnr" v="368477" />
	</node>
	<node id="-183804" lat="59.9863888866" lon="10.0359027774">
		<tag k="name" v="Brekke" />
		<tag k="place" v="farm" />
		<tag k="ssr:stedsnr" v="368467" />
	</node>
	<node id="-183803" lat="59.9309750036" lon="9.99381110462">
		<tag k="fixme" v="consider place=hamlet" />
		<tag k="name" v="Øren" />
		<tag k="place" v="farm" />
		<tag k="ssr:stedsnr" v="368454" />
	</node>
	<node id="-183802" lat="59.9169000024" lon="9.96970833516">
		<tag k="name" v="Stalsberg" />
		<tag k="place" v="farm" />
		<tag k="ssr:stedsnr" v="368435" />
	</node>
	<node id="-183801" lat="59.8827638879" lon="9.98748334109">
		<tag k="alt_name" v="Melumvollen" />
		<tag k="name" v="Mælumvollen" />
		<tag k="place" v="isolated_dwelling" />
		<tag k="ssr:stedsnr" v="368394" />
	</node>
	<node id="-183798" lat="59.912036113" lon="9.87319443839">
		<tag k="name" v="Fossum" />
		<tag k="place" v="farm" />
		<tag k="ssr:stedsnr" v="367817" />
	</node>
	<node id="-183797" lat="59.9086722209" lon="9.94187221792">
		<tag k="alt_name" v="Sporpind" />
		<tag k="name" v="Sporpin" />
		<tag k="place" v="quarter" />
		<tag k="ssr:stedsnr" v="367798" />
	</node>
	<node id="-183796" lat="59.9068111144" lon="9.885230563">
		<tag k="alt_name" v="Skogly" />
		<tag k="name" v="Skogli" />
		<tag k="place" v="farm" />
		<tag k="ssr:stedsnr" v="367796" />
	</node>
	<node id="-183793" lat="59.9605305575" lon="10.017124994">
		<tag k="name" v="Møller" />
		<tag k="place" v="isolated_dwelling" />
		<tag k="ssr:stedsnr" v="367407" />
	</node>
	<node id="-183792" lat="59.962355556" lon="10.0072861147">
		<tag k="alt_name" v="Viker" />
		<tag k="fixme" v="consider place=hamlet" />
		<tag k="name" v="Østre Vike" />
		<tag k="place" v="farm" />
		<tag k="ssr:stedsnr" v="367408" />
	</node>
	<node id="-183787" lat="60.0059583366" lon="9.88764721803">
		<tag k="name" v="Gunnhus" />
		<tag k="place" v="farm" />
		<tag k="ssr:stedsnr" v="369965" />
	</node>
	<node id="-183785" lat="60.0100805571" lon="9.93227222143">
		<tag k="name" v="Nordenden" />
		<tag k="place" v="locality" />
		<tag k="ssr:stedsnr" v="369939" />
	</node>
	<node id="-183782" lat="59.9366324017" lon="9.94902320729">
		<tag k="alt_name" v="Gravbråtan;Gravbroten og Dyregrav;Gravbråten og Dyregrav" />
		<tag k="name" v="Gravbråten" />
		<tag k="old_name" v="Gravbraaten og Dyregrav" />
		<tag k="place" v="farm" />
		<tag k="ssr:stedsnr" v="362503" />
	</node>
	<node id="-183780" lat="60.0171222189" lon="10.0277249948">
		<tag k="name" v="Hval" />
		<tag k="place" v="farm" />
		<tag k="ssr:stedsnr" v="362172" />
	</node>
	<node id="-183779" lat="60.0215499985" lon="9.99928332853">
		<tag k="name" v="Sauemyr" />
		<tag k="place" v="isolated_dwelling" />
		<tag k="ssr:stedsnr" v="362110" />
	</node>
	<node id="-183777" lat="59.9459472227" lon="9.79453610737">
		<tag k="historic" v="shieling" />
		<tag k="name" v="Bakkeløkka" />
		<tag k="place" v="locality" />
		<tag k="ssr:stedsnr" v="361443" />
	</node>
	<node id="-183776" lat="59.9811305518" lon="9.89441943985">
		<tag k="name" v="Bøen" />
		<tag k="place" v="farm" />
		<tag k="ssr:stedsnr" v="361411" />
	</node>
	<node id="-183775" lat="60.0142777741" lon="10.1368611143">
		<tag k="name" v="Askerud" />
		<tag k="place" v="farm" />
		<tag k="ssr:stedsnr" v="360986" />
	</node>
	<node id="-183774" lat="59.9030944475" lon="9.93842499776">
		<tag k="name" v="Steinbru" />
		<tag k="place" v="quarter" />
		<tag k="ssr:stedsnr" v="360969" />
	</node>
	<node id="-183772" lat="59.9166138872" lon="9.85158334052">
		<tag k="name" v="Linderuddalen" />
		<tag k="place" v="farm" />
		<tag k="ssr:stedsnr" v="360767" />
	</node>
	<node id="-183771" lat="60.0100027772" lon="10.0847722258">
		<tag k="name" v="Nedre Karlsrud" />
		<tag k="place" v="farm" />
		<tag k="ssr:stedsnr" v="360752" />
	</node>
	<node id="-183768" lat="59.9524694438" lon="10.0084111159">
		<tag k="name" v="Rød-Disen" />
		<tag k="place" v="isolated_dwelling" />
		<tag k="ssr:stedsnr" v="360514" />
	</node>
	<node id="-183767" lat="59.9515833337" lon="9.99522499712">
		<tag k="name" v="Mo" />
		<tag k="place" v="farm" />
		<tag k="ssr:stedsnr" v="360515" />
	</node>
	<node id="-183764" lat="59.9890000039" lon="10.0132305641">
		<tag k="name" v="Hervik" />
		<tag k="place" v="farm" />
		<tag k="ssr:stedsnr" v="360438" />
	</node>
	<node id="-183762" lat="60.0300361138" lon="10.0192444405">
		<tag k="name" v="Fagernes" />
		<tag k="place" v="farm" />
		<tag k="ssr:stedsnr" v="360154" />
	</node>
	<node id="-183744" lat="59.9618472228" lon="10.0687638901">
		<tag k="historic" v="shieling" />
		<tag k="name" v="Sandtjernsetra" />
		<tag k="place" v="locality" />
		<tag k="ssr:stedsnr" v="345986" />
	</node>
	<node id="-183741" lat="59.9441222189" lon="9.83129444578">
		<tag k="name" v="Tandbergengen" />
		<tag k="place" v="farm" />
		<tag k="ssr:stedsnr" v="345818" />
	</node>
	<node id="-183739" lat="60.0479249976" lon="9.97013055891">
		<tag k="name" v="Pålerud" />
		<tag k="place" v="locality" />
		<tag k="ssr:stedsnr" v="345725" />
	</node>
	<node id="-183738" lat="60.0634472239" lon="9.80663056436">
		<tag k="historic" v="shieling" />
		<tag k="name" v="Føykjemoen" />
		<tag k="place" v="locality" />
		<tag k="ssr:stedsnr" v="345690" />
	</node>
	<node id="-183735" lat="59.9537666626" lon="9.7934722218">
		<tag k="name" v="Nedre Grefstad" />
		<tag k="place" v="farm" />
		<tag k="ssr:stedsnr" v="345419" />
	</node>
	<node id="-183731" lat="60.0933249977" lon="9.87393888526">
		<tag k="name" v="Skjelbredhytta" />
		<tag k="place" v="locality" />
		<tag k="ssr:stedsnr" v="345119" />
	</node>
	<node id="-183729" lat="60.0796416645" lon="9.89926110715">
		<tag k="name" v="Grautåsen" />
		<tag k="place" v="locality" />
		<tag k="ssr:stedsnr" v="345112" />
	</node>
	<node id="-183726" lat="59.9424694436" lon="9.82151666118">
		<tag k="name" v="Nestedokk" />
		<tag k="place" v="farm" />
		<tag k="ssr:stedsnr" v="343889" />
	</node>
	<node id="-183725" lat="59.9438527799" lon="9.81870277156">
		<tag k="name" v="Solstad" />
		<tag k="place" v="farm" />
		<tag k="ssr:stedsnr" v="343887" />
	</node>
	<node id="-183724" lat="59.9415718222" lon="10.0006412838">
		<tag k="fixme" v="multiple name tags, choose one and add the other to alt_name; consider place=hamlet" />
		<tag k="name" v="Heggen prestegård;Modum prestegård" />
		<tag k="old_name" v="Heggen Pgd;Modum Præstegaard" />
		<tag k="place" v="farm" />
		<tag k="ssr:stedsnr" v="343790" />
	</node>
	<node id="-183717" lat="60.0115333333" lon="9.90793889105">
		<tag k="name" v="Seterstø" />
		<tag k="place" v="locality" />
		<tag k="ssr:stedsnr" v="343321" />
	</node>
	<node id="-183716" lat="59.9919083345" lon="9.98263333508">
		<tag k="name" v="Østengen" />
		<tag k="place" v="farm" />
		<tag k="ssr:stedsnr" v="343155" />
	</node>
	<node id="-183714" lat="59.8946944407" lon="9.89770555924">
		<tag k="name" v="Østre Bråten" />
		<tag k="place" v="farm" />
		<tag k="ssr:stedsnr" v="343085" />
	</node>
	<node id="-183710" lat="60.0515500044" lon="9.99772499494">
		<tag k="alt_name" v="Evjen" />
		<tag k="name" v="Evjua" />
		<tag k="place" v="farm" />
		<tag k="ssr:stedsnr" v="126361" />
	</node>
	<node id="-183705" lat="59.9594999967" lon="9.78694722917">
		<tag k="name" v="Solumshengslet" />
		<tag k="place" v="farm" />
		<tag k="ssr:stedsnr" v="335459" />
	</node>
	<node id="-183704" lat="60.0342333336" lon="9.93489166361">
		<tag k="name" v="Abelone" />
		<tag k="place" v="isolated_dwelling" />
		<tag k="ssr:stedsnr" v="329709" />
	</node>
	<node id="-183703" lat="60.0262527766" lon="10.0327611134">
		<tag k="name" v="Ås" />
		<tag k="place" v="isolated_dwelling" />
		<tag k="ssr:stedsnr" v="328903" />
	</node>
	<node id="-183702" lat="59.9271500045" lon="9.99014443771">
		<tag k="alt_name" v="Øren Søndre" />
		<tag k="fixme" v="multiple name tags, choose one and add the other to alt_name" />
		<tag k="name" v="Søndre Øren;Øren" />
		<tag k="place" v="farm" />
		<tag k="ssr:stedsnr" v="422537" />
	</node>
	<node id="-183700" lat="60.0075999959" lon="9.86075832563">
		<tag k="name" v="Hovde" />
		<tag k="place" v="farm" />
		<tag k="ssr:stedsnr" v="308971" />
	</node>
	<node id="-183699" lat="60.0161166708" lon="9.86040277237">
		<tag k="name" v="Nes" />
		<tag k="place" v="farm" />
		<tag k="ssr:stedsnr" v="308953" />
	</node>
	<node id="-183698" lat="60.0216378863" lon="9.8554493815">
		<tag k="alt_name" v="Hjermundrud" />
		<tag k="name" v="Gjermundrud" />
		<tag k="place" v="locality" />
		<tag k="ssr:stedsnr" v="308942" />
	</node>
	<node id="-183696" lat="60.0583027796" lon="9.96441666582">
		<tag k="name" v="Gravermoen" />
		<tag k="place" v="farm" />
		<tag k="ssr:stedsnr" v="308898" />
	</node>
	<node id="-183695" lat="60.1325222253" lon="9.88457222726">
		<tag k="name" v="Gunnhusvollen" />
		<tag k="place" v="isolated_dwelling" />
		<tag k="ssr:stedsnr" v="308814" />
	</node>
	<node id="-183691" lat="59.9885472219" lon="9.93976665788">
		<tag k="name" v="Hære" />
		<tag k="place" v="farm" />
		<tag k="ssr:stedsnr" v="307937" />
	</node>
	<node id="-183690" lat="59.9342750033" lon="9.93247500435">
		<tag k="fixme" v="consider place=hamlet" />
		<tag k="name" v="Formo" />
		<tag k="place" v="farm" />
		<tag k="ssr:stedsnr" v="307850" />
	</node>
	<node id="-183688" lat="59.9203527788" lon="9.9052666626">
		<tag k="name" v="Stigerplassen" />
		<tag k="place" v="farm" />
		<tag k="ssr:stedsnr" v="307830" />
	</node>
	<node id="-183686" lat="59.9657777742" lon="9.92974999446">
		<tag k="name" v="Fossnes" />
		<tag k="place" v="farm" />
		<tag k="ssr:stedsnr" v="307786" />
	</node>
	<node id="-183682" lat="59.9992333305" lon="10.1945249973">
		<tag k="name" v="Myra" />
		<tag k="place" v="farm" />
		<tag k="ssr:stedsnr" v="307477" />
	</node>
	<node id="-183681" lat="59.9902618376" lon="10.1525793327">
		<tag k="fixme" v="multiple name tags, choose one and add the other to alt_name" />
		<tag k="historic" v="shieling" />
		<tag k="name" v="Bjertnessetra;Bjertnesvollen" />
		<tag k="place" v="locality" />
		<tag k="ssr:stedsnr" v="307476" />
	</node>
	<node id="-183678" lat="59.9157277781" lon="9.98642499413">
		<tag k="name" v="Hagan" />
		<tag k="place" v="isolated_dwelling" />
		<tag k="ssr:stedsnr" v="307412" />
	</node>
	<node id="-183675" lat="59.9448741639" lon="10.0039131263">
		<tag k="alt_name" v="Dalen Søndre" />
		<tag k="fixme" v="multiple name tags, choose one and add the other to alt_name" />
		<tag k="name" v="Dalen;Søndre Dalen" />
		<tag k="place" v="farm" />
		<tag k="ssr:stedsnr" v="307384" />
	</node>
	<node id="-183665" lat="59.9960611082" lon="9.93851110915">
		<tag k="name" v="Teigen" />
		<tag k="place" v="farm" />
		<tag k="ssr:stedsnr" v="302218" />
	</node>
	<node id="-183661" lat="60.029408333" lon="9.99332778214">
		<tag k="name" v="Tufte" />
		<tag k="place" v="farm" />
		<tag k="ssr:stedsnr" v="301141" />
	</node>
	<node id="-183660" lat="60.0170666643" lon="10.1332416621">
		<tag k="name" v="Lunn" />
		<tag k="place" v="farm" />
		<tag k="ssr:stedsnr" v="300986" />
	</node>
	<node id="-183658" lat="60.0295333305" lon="9.99945278493">
		<tag k="name" v="Haugen" />
		<tag k="place" v="farm" />
		<tag k="ssr:stedsnr" v="300223" />
	</node>
	<node id="-183639" lat="60.0620999994" lon="9.93355832812">
		<tag k="name" v="Langsjøhytta" />
		<tag k="place" v="isolated_dwelling" />
		<tag k="ssr:stedsnr" v="285735" />
	</node>
	<node id="-183634" lat="60.0103305521" lon="10.161277771">
		<tag k="name" v="Flabergsbråten" />
		<tag k="place" v="isolated_dwelling" />
		<tag k="ssr:stedsnr" v="285279" />
	</node>
	<node id="-183627" lat="59.9937444448" lon="9.91582221949">
		<tag k="building" v="industrial" />
		<tag k="industrial" v="factory" />
		<tag k="name" v="Elart" />
		<tag k="ssr:stedsnr" v="284057" />
	</node>
	<node id="-183626" lat="59.987869442" lon="9.92754166611">
		<tag k="name" v="Hole" />
		<tag k="place" v="farm" />
		<tag k="ssr:stedsnr" v="284046" />
	</node>
	<node id="-183621" lat="60.1054499959" lon="9.91981944858">
		<tag k="name" v="Solbu" />
		<tag k="place" v="isolated_dwelling" />
		<tag k="ssr:stedsnr" v="283675" />
	</node>
	<node id="-183620" lat="59.9597222265" lon="10.0561222179">
		<tag k="name" v="Fjellbu" />
		<tag k="place" v="isolated_dwelling" />
		<tag k="ssr:stedsnr" v="283644" />
	</node>
	<node id="-183615" lat="59.9039694474" lon="9.8806499951">
		<tag k="name" v="Svarstad" />
		<tag k="place" v="farm" />
		<tag k="ssr:stedsnr" v="283048" />
	</node>
	<node id="-183613" lat="59.9298888872" lon="9.82141945182">
		<tag k="name" v="Søndre Gunnerud" />
		<tag k="place" v="farm" />
		<tag k="ssr:stedsnr" v="282719" />
	</node>
	<node id="-183611" lat="60.0070833355" lon="9.91120556434">
		<tag k="name" v="Kvernløkka" />
		<tag k="place" v="locality" />
		<tag k="ssr:stedsnr" v="282330" />
	</node>
	<node id="-183609" lat="59.8915083339" lon="9.77979999166">
		<tag k="name" v="Skogly" />
		<tag k="place" v="isolated_dwelling" />
		<tag k="ssr:stedsnr" v="279987" />
	</node>
	<node id="-183606" lat="59.8672916705" lon="9.83307222589">
		<tag k="name" v="Steinsrud" />
		<tag k="place" v="farm" />
		<tag k="ssr:stedsnr" v="269968" />
	</node>
	<node id="-185592" lat="60.0054174962" lon="9.97613315188">
		<tag k="name" v="Finnsrud" />
		<tag k="place" v="locality" />
		<tag k="ssr:stedsnr" v="976891" />
	</node>
	<node id="-185591" lat="60.0706649387" lon="9.80318227473">
		<tag k="name" v="Ødegården" />
		<tag k="place" v="locality" />
		<tag k="ssr:stedsnr" v="976757" />
	</node>
	<node id="-185585" lat="60.0062388866" lon="10.0694583411">
		<tag k="alt_name" v="Sjuls nedre" />
		<tag k="name" v="Nedre Sjuls" />
		<tag k="place" v="farm" />
		<tag k="ssr:stedsnr" v="969775" />
	</node>
	<node id="-185583" lat="59.9800833376" lon="9.85289166934">
		<tag k="historic" v="shieling" />
		<tag k="name" v="Skuterudsetra" />
		<tag k="place" v="locality" />
		<tag k="ssr:stedsnr" v="969507" />
	</node>
	<node id="-185578" lat="60.0197861096" lon="9.99982222631">
		<tag k="name" v="Skolt" />
		<tag k="place" v="farm" />
		<tag k="ssr:stedsnr" v="969104" />
	</node>
	<node id="-185575" lat="59.9781694437" lon="9.93273611626">
		<tag k="name" v="Høgda" />
		<tag k="place" v="farm" />
		<tag k="ssr:stedsnr" v="968885" />
	</node>
	<node id="-185570" lat="59.9276527806" lon="9.88816667294">
		<tag k="name" v="Trollhaug" />
		<tag k="place" v="farm" />
		<tag k="ssr:stedsnr" v="968140" />
	</node>
	<node id="-185569" lat="59.962624996" lon="10.0179611125">
		<tag k="name" v="Gunnerud" />
		<tag k="place" v="farm" />
		<tag k="ssr:stedsnr" v="967977" />
	</node>
	<node id="-185568" lat="59.9099999977" lon="9.96091666909">
		<tag k="leisure" v="pitch" />
		<tag k="name" v="Gustadbakken" />
		<tag k="ssr:stedsnr" v="967885" />
	</node>
	<node id="-185567" lat="59.936333334" lon="9.9391305596">
		<tag k="name" v="Plassen" />
		<tag k="place" v="farm" />
		<tag k="ssr:stedsnr" v="967698" />
	</node>
	<node id="-185564" lat="59.8782750002" lon="9.99796389153">
		<tag k="historic" v="shieling" />
		<tag k="name" v="Knusleby" />
		<tag k="place" v="locality" />
		<tag k="ssr:stedsnr" v="967578" />
	</node>
	<node id="-185563" lat="59.97612222" lon="9.9921083323">
		<tag k="name" v="Vestre Viker" />
		<tag k="place" v="quarter" />
		<tag k="ssr:stedsnr" v="967533" />
	</node>
	<node id="-185561" lat="59.9211583355" lon="9.99404443604">
		<tag k="name" v="Nyhus" />
		<tag k="place" v="isolated_dwelling" />
		<tag k="ssr:stedsnr" v="967500" />
	</node>
	<node id="-185560" lat="59.982166666" lon="9.98472777286">
		<tag k="name" v="Kongsrud" />
		<tag k="place" v="farm" />
		<tag k="ssr:stedsnr" v="967381" />
	</node>
	<node id="-185552" lat="60.0452527813" lon="9.94638888305">
		<tag k="name" v="Søndre Presterud" />
		<tag k="place" v="farm" />
		<tag k="ssr:stedsnr" v="965318" />
	</node>
	<node id="-185550" lat="60.0252749963" lon="9.87154999483">
		<tag k="name" v="Lofthus" />
		<tag k="place" v="farm" />
		<tag k="ssr:stedsnr" v="965300" />
	</node>
	<node id="-185548" lat="59.8963666625" lon="9.9169111188">
		<tag k="building" v="industrial" />
		<tag k="name" v="Wassend sag" />
		<tag k="ssr:stedsnr" v="965059" />
	</node>
	<node id="-185538" lat="59.9445222181" lon="9.83658333962">
		<tag k="name" v="Sør-Tandberg" />
		<tag k="place" v="farm" />
		<tag k="ssr:stedsnr" v="952798" />
	</node>
	<node id="-185537" lat="60.0368638848" lon="9.85415833148">
		<tag k="name" v="Svarterud" />
		<tag k="place" v="farm" />
		<tag k="ssr:stedsnr" v="952713" />
	</node>
	<node id="-185530" lat="59.9921000019" lon="9.91595554733">
		<tag k="amenity" v="school" />
		<tag k="name" v="Sysle" />
		<tag k="ssr:stedsnr" v="952063" />
	</node>
	<node id="-185527" lat="59.9727111104" lon="9.90807499666">
		<tag k="name" v="Lundgård" />
		<tag k="place" v="isolated_dwelling" />
		<tag k="ssr:stedsnr" v="950910" />
	</node>
	<node id="-185525" lat="59.9572444422" lon="9.96676111766">
		<tag k="name" v="Nedre Brunes" />
		<tag k="place" v="farm" />
		<tag k="ssr:stedsnr" v="950843" />
	</node>
	<node id="-185524" lat="60.1153194466" lon="9.93663056201">
		<tag k="name" v="Bronesvollen" />
		<tag k="place" v="locality" />
		<tag k="ssr:stedsnr" v="950667" />
	</node>
	<node id="-185512" lat="59.8527222211" lon="9.88823888099">
		<tag k="name" v="Haugen" />
		<tag k="place" v="farm" />
		<tag k="ssr:stedsnr" v="937065" />
	</node>
	<node id="-185510" lat="60.0391777814" lon="10.0347333342">
		<tag k="name" v="Fjellsårenga" />
		<tag k="place" v="farm" />
		<tag k="ssr:stedsnr" v="935920" />
	</node>
	<node id="-185509" lat="60.013933336" lon="10.02543889">
		<tag k="fixme" v="consider place=hamlet" />
		<tag k="name" v="Drolsum" />
		<tag k="place" v="village" />
		<tag k="ssr:stedsnr" v="934486" />
	</node>
	<node id="-185508" lat="60.0058749964" lon="10.069205554">
		<tag k="fixme" v="consider place=hamlet" />
		<tag k="name" v="Sjuls" />
		<tag k="place" v="farm" />
		<tag k="ssr:stedsnr" v="916457" />
	</node>
	<node id="-185507" lat="60.0055388845" lon="9.85903333156">
		<tag k="name" v="Løken" />
		<tag k="place" v="farm" />
		<tag k="ssr:stedsnr" v="915977" />
	</node>
	<node id="-185502" lat="60.0441856064" lon="9.95270074191">
		<tag k="fixme" v="consider place=hamlet" />
		<tag k="name" v="Presterud" />
		<tag k="place" v="farm" />
		<tag k="ssr:stedsnr" v="915909" />
	</node>
	<node id="-185501" lat="60.0968888934" lon="9.92560555387">
		<tag k="alt_name" v="Kaggevollbråten" />
		<tag k="name" v="Kaggevollbråtan" />
		<tag k="old_name" v="Kongevollbråtan" />
		<tag k="place" v="isolated_dwelling" />
		<tag k="ssr:stedsnr" v="915852" />
	</node>
	<node id="-185499" lat="60.1445722189" lon="9.94088332613">
		<tag k="name" v="Slottet" />
		<tag k="place" v="locality" />
		<tag k="ssr:stedsnr" v="915787" />
	</node>
	<node id="-185498" lat="60.0136166701" lon="10.156525004">
		<tag k="name" v="Dignes" />
		<tag k="place" v="farm" />
		<tag k="ssr:stedsnr" v="915393" />
	</node>
	<node id="-185496" lat="60.0464111083" lon="10.0000805569">
		<tag k="name" v="Moen" />
		<tag k="place" v="farm" />
		<tag k="ssr:stedsnr" v="915337" />
	</node>
	<node id="-185495" lat="60.0177916708" lon="10.0025750075">
		<tag k="name" v="Erlandstua" />
		<tag k="place" v="farm" />
		<tag k="ssr:stedsnr" v="915313" />
	</node>
	<node id="-185494" lat="60.0365083308" lon="10.0359750034">
		<tag k="name" v="Berger" />
		<tag k="place" v="farm" />
		<tag k="ssr:stedsnr" v="915299" />
	</node>
	<node id="-185493" lat="60.0424805588" lon="9.9830138905">
		<tag k="alt_name" v="Myrbråten" />
		<tag k="name" v="Myrbråtan" />
		<tag k="place" v="farm" />
		<tag k="ssr:stedsnr" v="915296" />
	</node>
	<node id="-185492" lat="59.9984138908" lon="9.93601389709">
		<tag k="alt_name" v="Åsheim" />
		<tag k="name" v="Tarmen" />
		<tag k="place" v="farm" />
		<tag k="ssr:stedsnr" v="914962" />
	</node>
	<node id="-185491" lat="59.9839277822" lon="9.88907499727">
		<tag k="name" v="Aslaksby" />
		<tag k="place" v="farm" />
		<tag k="ssr:stedsnr" v="914956" />
	</node>
	<node id="-185490" lat="60.0487999971" lon="9.85080000875">
		<tag k="alt_name" v="Urda" />
		<tag k="name" v="Ulen" />
		<tag k="place" v="farm" />
		<tag k="ssr:stedsnr" v="914897" />
	</node>
	<node id="-185486" lat="59.926811109" lon="9.74684999521">
		<tag k="historic" v="shieling" />
		<tag k="name" v="Bakkesetra" />
		<tag k="place" v="locality" />
		<tag k="ssr:stedsnr" v="914854" />
	</node>
	<node id="-185485" lat="59.9336277806" lon="9.95570554841">
		<tag k="alt_name" v="Katfoss" />
		<tag k="building" v="industrial" />
		<tag k="industrial" v="factory" />
		<tag k="name" v="Kattfoss" />
		<tag k="old_name" v="Katfos;Katfoss cellulosefabr" />
		<tag k="ssr:stedsnr" v="914846" />
	</node>
	<node id="-185483" lat="59.909649999" lon="9.9546250019">
		<tag k="alt_name" v="Gusstad" />
		<tag k="name" v="Gustad" />
		<tag k="place" v="farm" />
		<tag k="ssr:stedsnr" v="914823" />
	</node>
	<node id="-185482" lat="59.9045972192" lon="9.79435277881">
		<tag k="historic" v="shieling" />
		<tag k="name" v="Klegstadsetra" />
		<tag k="place" v="locality" />
		<tag k="ssr:stedsnr" v="914818" />
	</node>
	<node id="-185480" lat="59.9552277748" lon="9.96621945288">
		<tag k="name" v="Brunes" />
		<tag k="place" v="farm" />
		<tag k="ssr:stedsnr" v="914785" />
	</node>
	<node id="-185478" lat="59.9619027741" lon="9.94050556383">
		<tag k="name" v="Myra" />
		<tag k="place" v="farm" />
		<tag k="ssr:stedsnr" v="914768" />
	</node>
	<node id="-185477" lat="59.9378944479" lon="9.73392778194">
		<tag k="name" v="Åsterudsetra" />
		<tag k="place" v="isolated_dwelling" />
		<tag k="ssr:stedsnr" v="914763" />
	</node>
	<node id="-185475" lat="59.9004749988" lon="9.92644999881">
		<tag k="building" v="industrial" />
		<tag k="industrial" v="factory" />
		<tag k="name" v="Embretsfoss" />
		<tag k="ssr:stedsnr" v="914688" />
	</node>
	<node id="-185474" lat="59.8685666641" lon="9.83287222128">
		<tag k="fixme" v="consider place=hamlet" />
		<tag k="name" v="Steinsrud" />
		<tag k="place" v="farm" />
		<tag k="ssr:stedsnr" v="914643" />
	</node>
	<node id="-185473" lat="59.9938305564" lon="9.97655278037">
		<tag k="name" v="Helgedalen" />
		<tag k="place" v="farm" />
		<tag k="ssr:stedsnr" v="914604" />
	</node>
	<node id="-185471" lat="59.9740999977" lon="9.99039166477">
		<tag k="alt_name" v="Vestre Viker" />
		<tag k="fixme" v="consider place=hamlet" />
		<tag k="name" v="Vestre Vike" />
		<tag k="place" v="farm" />
		<tag k="ssr:stedsnr" v="914511" />
	</node>
	<node id="-185470" lat="59.9788043545" lon="10.0933791416">
		<tag k="historic" v="shieling" />
		<tag k="name" v="Rødsetra" />
		<tag k="place" v="locality" />
		<tag k="ssr:stedsnr" v="914509" />
	</node>
	<node id="-185468" lat="59.982580553" lon="9.9895249987">
		<tag k="name" v="Slottet" />
		<tag k="place" v="farm" />
		<tag k="ssr:stedsnr" v="914490" />
	</node>
	<node id="-185467" lat="59.992198657" lon="10.2137845034">
		<tag k="alt_name" v="Kimerud" />
		<tag k="fixme" v="consider place=hamlet" />
		<tag k="name" v="Kimmerud" />
		<tag k="place" v="farm" />
		<tag k="ssr:stedsnr" v="914480" />
	</node>
	<node id="-185466" lat="60.0019027798" lon="10.0536472164">
		<tag k="name" v="Øvre Fure" />
		<tag k="place" v="farm" />
		<tag k="ssr:stedsnr" v="914470" />
	</node>
	<node id="-185465" lat="59.9346500033" lon="10.0028305558">
		<tag k="name" v="Granli" />
		<tag k="place" v="isolated_dwelling" />
		<tag k="ssr:stedsnr" v="914421" />
	</node>
	<node id="-185453" lat="59.9879000031" lon="9.95980554776">
		<tag k="name" v="Haugerud" />
		<tag k="place" v="farm" />
		<tag k="ssr:stedsnr" v="909221" />
	</node>
	<node id="-185452" lat="59.985038886" lon="9.94689166102">
		<tag k="name" v="Hære" />
		<tag k="place" v="farm" />
		<tag k="ssr:stedsnr" v="909218" />
	</node>
	<node id="-185450" lat="60.0066972216" lon="9.85626667472">
		<tag k="name" v="Vestre Hovde" />
		<tag k="place" v="farm" />
		<tag k="ssr:stedsnr" v="908793" />
	</node>
	<node id="-185449" lat="59.9985555576" lon="9.89904722954">
		<tag k="name" v="Roa" />
		<tag k="place" v="farm" />
		<tag k="ssr:stedsnr" v="908418" />
	</node>
	<node id="-185448" lat="59.9944999973" lon="9.87572500588">
		<tag k="name" v="Storhaug" />
		<tag k="place" v="farm" />
		<tag k="ssr:stedsnr" v="908387" />
	</node>
	<node id="-185446" lat="59.988258336" lon="10.2324527807">
		<tag k="name" v="Nedre Pilterud" />
		<tag k="place" v="farm" />
		<tag k="ssr:stedsnr" v="908277" />
	</node>
	<node id="-185445" lat="59.9173027759" lon="9.86052500348">
		<tag k="name" v="Søndre Kopland" />
		<tag k="place" v="farm" />
		<tag k="ssr:stedsnr" v="908259" />
	</node>
	<node id="-185443" lat="60.0299805589" lon="9.98634722541">
		<tag k="name" v="Nordre Laupet" />
		<tag k="place" v="farm" />
		<tag k="ssr:stedsnr" v="908158" />
	</node>
	<node id="-185442" lat="60.0264444424" lon="9.98871667328">
		<tag k="name" v="Svingen" />
		<tag k="place" v="farm" />
		<tag k="ssr:stedsnr" v="908155" />
	</node>
	<node id="-185440" lat="59.996069449" lon="10.0530333297">
		<tag k="alt_name" v="Rød;Rød, nedre" />
		<tag k="name" v="Nedre Rød" />
		<tag k="place" v="farm" />
		<tag k="ssr:stedsnr" v="907953" />
	</node>
	<node id="-185439" lat="59.9632405453" lon="9.97082781122">
		<tag k="name" v="Ødegården" />
		<tag k="place" v="farm" />
		<tag k="ssr:stedsnr" v="907849" />
	</node>
	<node id="-185436" lat="59.9156166695" lon="9.85865834009">
		<tag k="name" v="Taraldshus" />
		<tag k="place" v="farm" />
		<tag k="ssr:stedsnr" v="907731" />
	</node>
	<node id="-185435" lat="59.9964805531" lon="9.97374999964">
		<tag k="name" v="Torsby" />
		<tag k="place" v="farm" />
		<tag k="ssr:stedsnr" v="907375" />
	</node>
	<node id="-185425" lat="59.9361555577" lon="9.97593610312">
		<tag k="name" v="Rolighetsmoen" />
		<tag k="place" v="quarter" />
		<tag k="ssr:stedsnr" v="906555" />
	</node>
	<node id="-185418" lat="59.8599749986" lon="9.88352777756">
		<tag k="name" v="Kvislebråten" />
		<tag k="place" v="farm" />
		<tag k="ssr:stedsnr" v="876261" />
	</node>
	<node id="-185414" lat="60.0884305556" lon="9.83343332824">
		<tag k="name" v="Kløftefoss" />
		<tag k="place" v="hamlet" />
		<tag k="ssr:stedsnr" v="855880" />
	</node>
	<node id="-185412" lat="60.0070456365" lon="9.97410361691">
		<tag k="loc_name" v="Finsrud" />
		<tag k="name" v="Finnsrudtajet" />
		<tag k="old_name" v="Finnsrud" />
		<tag k="place" v="farm" />
		<tag k="ssr:stedsnr" v="855417" />
	</node>
	<node id="-185409" lat="60.0017499984" lon="10.0640333246">
		<tag k="fixme" v="consider place=hamlet" />
		<tag k="name" v="Berg" />
		<tag k="place" v="farm" />
		<tag k="ssr:stedsnr" v="855412" />
	</node>
	<node id="-185408" lat="60.0024555545" lon="9.8905472228">
		<tag k="name" v="Skjelbred" />
		<tag k="place" v="farm" />
		<tag k="ssr:stedsnr" v="854966" />
	</node>
	<node id="-185407" lat="60.0110000037" lon="9.88593611513">
		<tag k="name" v="Haugen" />
		<tag k="place" v="farm" />
		<tag k="ssr:stedsnr" v="854952" />
	</node>
	<node id="-185406" lat="59.9845638852" lon="9.88026388401">
		<tag k="name" v="Skuterud" />
		<tag k="old_name" v="Skuteryd" />
		<tag k="place" v="farm" />
		<tag k="ssr:stedsnr" v="854949" />
	</node>
	<node id="-185405" lat="59.9866500008" lon="9.90968055501">
		<tag k="name" v="Bøenstøa" />
		<tag k="place" v="farm" />
		<tag k="ssr:stedsnr" v="854947" />
	</node>
	<node id="-185404" lat="60.0215750035" lon="9.87485000444">
		<tag k="name" v="Gullhaugen" />
		<tag k="place" v="farm" />
		<tag k="ssr:stedsnr" v="854941" />
	</node>
	<node id="-185403" lat="59.9890861077" lon="9.95853055051">
		<tag k="name" v="Haugerud" />
		<tag k="place" v="farm" />
		<tag k="ssr:stedsnr" v="854938" />
	</node>
	<node id="-185401" lat="60.0655083347" lon="9.85293889559">
		<tag k="name" v="Torgersrud" />
		<tag k="place" v="farm" />
		<tag k="ssr:stedsnr" v="854880" />
	</node>
	<node id="-185398" lat="59.9413749977" lon="9.94937500456">
		<tag k="name" v="Holgersmoen" />
		<tag k="place" v="farm" />
		<tag k="ssr:stedsnr" v="854863" />
	</node>
	<node id="-185397" lat="59.9366416688" lon="9.9050138974">
		<tag k="name" v="Jar" />
		<tag k="place" v="farm" />
		<tag k="ssr:stedsnr" v="854837" />
	</node>
	<node id="-185393" lat="59.9549305575" lon="9.90708888159">
		<tag k="name" v="Amundrud" />
		<tag k="place" v="farm" />
		<tag k="ssr:stedsnr" v="854732" />
	</node>
	<node id="-185392" lat="59.8882305562" lon="9.88068610413">
		<tag k="fixme" v="consider place=hamlet" />
		<tag k="name" v="Nyhus" />
		<tag k="place" v="farm" />
		<tag k="ssr:stedsnr" v="854667" />
	</node>
	<node id="-185391" lat="59.8788999998" lon="9.81621943998">
		<tag k="name" v="Hovenga" />
		<tag k="place" v="farm" />
		<tag k="ssr:stedsnr" v="854649" />
	</node>
	<node id="-185390" lat="59.8911638865" lon="9.78595276996">
		<tag k="name" v="Bergan" />
		<tag k="place" v="farm" />
		<tag k="ssr:stedsnr" v="854622" />
	</node>
	<node id="-185388" lat="59.9847694434" lon="9.99088054774">
		<tag k="name" v="Vinåsen" />
		<tag k="place" v="farm" />
		<tag k="ssr:stedsnr" v="854457" />
	</node>
	<node id="-185387" lat="59.9860250012" lon="9.97877778333">
		<tag k="name" v="Jonsrud" />
		<tag k="place" v="farm" />
		<tag k="ssr:stedsnr" v="854453" />
	</node>
	<node id="-185386" lat="59.9917944452" lon="10.0094444386">
		<tag k="name" v="Nygård" />
		<tag k="place" v="farm" />
		<tag k="ssr:stedsnr" v="854443" />
	</node>
	<node id="-185385" lat="59.9861972219" lon="10.1189583359">
		<tag k="alt_name" v="Gåserudsætra;Gåserudvollen" />
		<tag k="historic" v="shieling" />
		<tag k="name" v="Gåserudsetra" />
		<tag k="place" v="locality" />
		<tag k="ssr:stedsnr" v="854431" />
	</node>
	<node id="-185377" lat="60.0128916636" lon="10.0056000088">
		<tag k="alt_name" v="Rudsmyra" />
		<tag k="name" v="Myra" />
		<tag k="place" v="farm" />
		<tag k="ssr:stedsnr" v="854309" />
	</node>
	<node id="-185376" lat="60.044088892" lon="9.97568333392">
		<tag k="name" v="Finnerud" />
		<tag k="place" v="farm" />
		<tag k="ssr:stedsnr" v="854289" />
	</node>
	<node id="-185375" lat="59.9359555575" lon="9.85177500506">
		<tag k="name" v="Kleven" />
		<tag k="place" v="farm" />
		<tag k="ssr:stedsnr" v="853920" />
	</node>
	<node id="-185374" lat="59.9093999987" lon="9.90879444021">
		<tag k="alt_name" v="Sandhaug" />
		<tag k="name" v="Haug" />
		<tag k="place" v="farm" />
		<tag k="ssr:stedsnr" v="853841" />
	</node>
	<node id="-185373" lat="59.9172222198" lon="9.86033334084">
		<tag k="fixme" v="consider place=hamlet" />
		<tag k="name" v="Kopland" />
		<tag k="place" v="farm" />
		<tag k="ssr:stedsnr" v="853837" />
	</node>
	<node id="-185371" lat="59.9106305574" lon="9.88020000436">
		<tag k="name" v="Nymoen" />
		<tag k="place" v="quarter" />
		<tag k="ssr:stedsnr" v="853815" />
	</node>
	<node id="-185367" lat="59.9771611097" lon="10.2653250071">
		<tag k="alt_name" v="Sververud" />
		<tag k="name" v="Svarverud" />
		<tag k="place" v="farm" />
		<tag k="ssr:stedsnr" v="853477" />
	</node>
	<node id="-185364" lat="59.946805559" lon="10.0032249984">
		<tag k="name" v="Bakken" />
		<tag k="place" v="farm" />
		<tag k="ssr:stedsnr" v="853391" />
	</node>
	<node id="-185359" lat="60.0264416647" lon="9.98672500679">
		<tag k="name" v="Hestebråten" />
		<tag k="place" v="farm" />
		<tag k="ssr:stedsnr" v="848186" />
	</node>
	<node id="-185357" lat="60.0153527819" lon="10.0114555479">
		<tag k="name" v="Drolsummyra" />
		<tag k="place" v="farm" />
		<tag k="ssr:stedsnr" v="848108" />
	</node>
	<node id="-185354" lat="59.942347223" lon="9.80202221505">
		<tag k="name" v="Nedre Bendiksby" />
		<tag k="place" v="farm" />
		<tag k="ssr:stedsnr" v="847443" />
	</node>
	<node id="-185353" lat="59.891205554" lon="9.92663334061">
		<tag k="amenity" v="school" />
		<tag k="name" v="Enger skole" />
		<tag k="ssr:stedsnr" v="846900" />
	</node>
	<node id="-185349" lat="59.9467833328" lon="9.99459722269">
		<tag k="name" v="Norddal" />
		<tag k="place" v="farm" />
		<tag k="ssr:stedsnr" v="846548" />
	</node>
	<node id="-185345" lat="60.039505559" lon="9.99266389497">
		<tag k="name" v="Kongstellen" />
		<tag k="place" v="farm" />
		<tag k="ssr:stedsnr" v="846158" />
	</node>
	<node id="-185338" lat="59.8982722227" lon="9.89969723031">
		<tag k="name" v="Bjerknes" />
		<tag k="place" v="farm" />
		<tag k="ssr:stedsnr" v="844063" />
	</node>
	<node id="-185337" lat="59.9681805515" lon="9.97556944812">
		<tag k="name" v="Nedre Råen" />
		<tag k="place" v="farm" />
		<tag k="ssr:stedsnr" v="847855" />
	</node>
	<node id="-185335" lat="59.9327805596" lon="9.94243055866">
		<tag k="name" v="Grava" />
		<tag k="place" v="farm" />
		<tag k="ssr:stedsnr" v="842259" />
	</node>
	<node id="-185333" lat="59.9653750019" lon="10.0107361115">
		<tag k="name" v="Nedre Hval" />
		<tag k="place" v="farm" />
		<tag k="ssr:stedsnr" v="832000" />
	</node>
	<node id="-185332" lat="59.9771444466" lon="10.0781611164">
		<tag k="historic" v="shieling" />
		<tag k="name" v="Nysetra" />
		<tag k="place" v="locality" />
		<tag k="ssr:stedsnr" v="831989" />
	</node>
	<node id="-185331" lat="59.9388305535" lon="9.90570000186">
		<tag k="name" v="Veslejordet" />
		<tag k="place" v="farm" />
		<tag k="ssr:stedsnr" v="831861" />
	</node>
	<node id="-185326" lat="59.9767972262" lon="9.8802916669">
		<tag k="name" v="Hugsted" />
		<tag k="place" v="farm" />
		<tag k="ssr:stedsnr" v="831798" />
	</node>
	<node id="-185318" lat="59.9996416709" lon="9.97235554871">
		<tag k="name" v="Solberg" />
		<tag k="place" v="farm" />
		<tag k="ssr:stedsnr" v="831031" />
	</node>
	<node id="-185316" lat="59.9155222248" lon="10.0504083332">
		<tag k="historic" v="shieling" />
		<tag k="name" v="Gulliksvollen" />
		<tag k="place" v="locality" />
		<tag k="ssr:stedsnr" v="830685" />
	</node>
	<node id="-185314" lat="59.8657638893" lon="9.83580277856">
		<tag k="name" v="Steinsrud" />
		<tag k="place" v="farm" />
		<tag k="ssr:stedsnr" v="829889" />
	</node>
	<node id="-185313" lat="59.9625055527" lon="9.90106111717">
		<tag k="name" v="Lyngmo" />
		<tag k="place" v="isolated_dwelling" />
		<tag k="ssr:stedsnr" v="829887" />
	</node>
	<node id="-185305" lat="60.0535305568" lon="9.84135277798">
		<tag k="name" v="Nedre Korsbøen" />
		<tag k="place" v="farm" />
		<tag k="ssr:stedsnr" v="831649" />
	</node>
	<node id="-185300" lat="59.9081305601" lon="9.87984999289">
		<tag k="name" v="Åsgård" />
		<tag k="place" v="farm" />
		<tag k="ssr:stedsnr" v="829071" />
	</node>
	<node id="-185299" lat="60.0060638851" lon="9.97596944602">
		<tag k="name" v="Store Finnsrud" />
		<tag k="place" v="farm" />
		<tag k="ssr:stedsnr" v="829010" />
	</node>
	<node id="-185295" lat="60.0273833371" lon="10.0303944361">
		<tag k="name" v="Åsløkka" />
		<tag k="place" v="isolated_dwelling" />
		<tag k="ssr:stedsnr" v="814915" />
	</node>
	<node id="-185291" lat="60.0006666666" lon="9.9354805473">
		<tag k="alt_name" v="Mellem Tarmen" />
		<tag k="name" v="Tarmen" />
		<tag k="place" v="farm" />
		<tag k="ssr:stedsnr" v="794418" />
	</node>
	<node id="-185289" lat="60.0124861099" lon="10.0166694385">
		<tag k="alt_name" v="Drolsum" />
		<tag k="name" v="Drolsumenga" />
		<tag k="place" v="farm" />
		<tag k="ssr:stedsnr" v="794407" />
	</node>
	<node id="-185288" lat="60.0140333335" lon="10.1140638945">
		<tag k="name" v="Kampen" />
		<tag k="place" v="farm" />
		<tag k="ssr:stedsnr" v="794399" />
	</node>
	<node id="-185287" lat="60.0145833336" lon="10.1330055599">
		<tag k="fixme" v="multiple name tags, choose one and add the other to alt_name" />
		<tag k="name" v="Askerud;Fram-Askerud" />
		<tag k="place" v="farm" />
		<tag k="ssr:stedsnr" v="794397" />
	</node>
	<node id="-185286" lat="60.0103500041" lon="10.1658249912">
		<tag k="alt_name" v="Digneshaugen" />
		<tag k="name" v="Haugen" />
		<tag k="place" v="farm" />
		<tag k="ssr:stedsnr" v="794391" />
	</node>
	<node id="-185285" lat="60.0245944423" lon="9.99585834133">
		<tag k="name" v="Ton" />
		<tag k="place" v="farm" />
		<tag k="ssr:stedsnr" v="794308" />
	</node>
	<node id="-185284" lat="59.9930194486" lon="9.96658332549">
		<tag k="name" v="Flannum" />
		<tag k="place" v="farm" />
		<tag k="ssr:stedsnr" v="793967" />
	</node>
	<node id="-185283" lat="60.0344499997" lon="9.86451110815">
		<tag k="name" v="Enden" />
		<tag k="place" v="farm" />
		<tag k="ssr:stedsnr" v="793941" />
	</node>
	<node id="-185276" lat="60.0431750023" lon="9.86755555818">
		<tag k="fixme" v="consider place=hamlet" />
		<tag k="name" v="Gubberud" />
		<tag k="place" v="farm" />
		<tag k="ssr:stedsnr" v="793918" />
	</node>
	<node id="-185275" lat="60.0423699699" lon="9.8382996685">
		<tag k="fixme" v="consider place=hamlet" />
		<tag k="name" v="Langerud" />
		<tag k="place" v="farm" />
		<tag k="ssr:stedsnr" v="793917" />
	</node>
	<node id="-185272" lat="59.9397250014" lon="9.91682499929">
		<tag k="alt_name" v="Kleven" />
		<tag k="name" v="Kleiva" />
		<tag k="place" v="farm" />
		<tag k="ssr:stedsnr" v="793870" />
	</node>
	<node id="-185270" lat="60.1039361148" lon="9.89578610881">
		<tag k="alt_name" v="Tuthol" />
		<tag k="name" v="Tutholsetra" />
		<tag k="place" v="locality" />
		<tag k="ssr:stedsnr" v="793841" />
	</node>
	<node id="-185269" lat="59.9321083337" lon="9.96789999286">
		<tag k="name" v="Geithus" />
		<tag k="place" v="village" />
		<tag k="ssr:stedsnr" v="793840" />
	</node>
	<node id="-185268" lat="59.9291138848" lon="9.84895278152">
		<tag k="name" v="Bergli" />
		<tag k="place" v="farm" />
		<tag k="ssr:stedsnr" v="793838" />
	</node>
	<node id="-185263" lat="59.9464500028" lon="9.9229972147">
		<tag k="name" v="Formodalen" />
		<tag k="place" v="farm" />
		<tag k="ssr:stedsnr" v="793775" />
	</node>
	<node id="-185262" lat="59.8728583317" lon="9.87829445124">
		<tag k="alt_name" v="Refshald" />
		<tag k="name" v="Refsal" />
		<tag k="place" v="farm" />
		<tag k="ssr:stedsnr" v="793654" />
	</node>
	<node id="-185261" lat="59.8865250006" lon="9.87792500858">
		<tag k="name" v="Nyhus" />
		<tag k="place" v="farm" />
		<tag k="ssr:stedsnr" v="793532" />
	</node>
	<node id="-185260" lat="59.9765250001" lon="10.0074499952">
		<tag k="name" v="Vestre Vikersund" />
		<tag k="place" v="farm" />
		<tag k="ssr:stedsnr" v="793522" />
	</node>
	<node id="-185259" lat="59.8833694489" lon="10.0326888908">
		<tag k="fixme" v="consider tourism=alpine_hut or tourism=chalet" />
		<tag k="name" v="Svarvestolen" />
		<tag k="old_name" v="Svarvestola" />
		<tag k="ssr:stedsnr" v="793385" />
		<tag k="tourism" v="wilderness_hut" />
	</node>
	<node id="-185257" lat="60.0307972241" lon="9.9693749968">
		<tag k="fixme" v="multiple name tags, choose one and add the other to alt_name" />
		<tag k="name" v="Kaldholet;Nordengen" />
		<tag k="place" v="farm" />
		<tag k="ssr:stedsnr" v="793339" />
	</node>
	<node id="-185256" lat="59.9111249994" lon="9.94410556204">
		<tag k="name" v="Skalstad" />
		<tag k="place" v="farm" />
		<tag k="ssr:stedsnr" v="792824" />
	</node>
	<node id="-185254" lat="59.9689749978" lon="9.97732500117">
		<tag k="name" v="Hovde" />
		<tag k="place" v="farm" />
		<tag k="ssr:stedsnr" v="792490" />
	</node>
	<node id="-185253" lat="59.9547111118" lon="10.1022416589">
		<tag k="name" v="Lundås" />
		<tag k="place" v="isolated_dwelling" />
		<tag k="ssr:stedsnr" v="792470" />
	</node>
	<node id="-185251" lat="59.8984277815" lon="10.0082194416">
		<tag k="alt_name" v="Ilenvollen" />
		<tag k="name" v="Ilevollen" />
		<tag k="place" v="isolated_dwelling" />
		<tag k="ssr:stedsnr" v="792301" />
	</node>
	<node id="-185250" lat="59.8931138915" lon="9.98116388697">
		<tag k="name" v="Holosetra" />
		<tag k="place" v="isolated_dwelling" />
		<tag k="ssr:stedsnr" v="792298" />
	</node>
	<node id="-185249" lat="59.892217652" lon="9.77385163609">
		<tag k="alt_name" v="Torud" />
		<tag k="name" v="Tolerud" />
		<tag k="place" v="farm" />
		<tag k="ssr:stedsnr" v="788749" />
	</node>
	<node id="-185246" lat="59.9904333321" lon="10.0481388944">
		<tag k="name" v="Haugløkka" />
		<tag k="place" v="isolated_dwelling" />
		<tag k="ssr:stedsnr" v="787804" />
	</node>
	<node id="-185244" lat="60.043322221" lon="9.97595556096">
		<tag k="name" v="Finnerud" />
		<tag k="place" v="farm" />
		<tag k="ssr:stedsnr" v="787167" />
	</node>
	<node id="-185243" lat="60.0279388886" lon="9.98583610505">
		<tag k="name" v="Søndre Laupet" />
		<tag k="place" v="farm" />
		<tag k="ssr:stedsnr" v="787146" />
	</node>
	<node id="-185242" lat="60.0118500036" lon="10.0043694384">
		<tag k="name" v="Rud" />
		<tag k="place" v="farm" />
		<tag k="ssr:stedsnr" v="787095" />
	</node>
	<node id="-185241" lat="60.0085166633" lon="9.98083055606">
		<tag k="alt_name" v="Langsrud Nordre" />
		<tag k="name" v="Nordre Langsrud" />
		<tag k="place" v="farm" />
		<tag k="ssr:stedsnr" v="787026" />
	</node>
	<node id="-185240" lat="59.9656777818" lon="9.94941943835">
		<tag k="amenity" v="nursing_home" />
		<tag k="name" v="Tomtebo" />
		<tag k="ssr:stedsnr" v="786894" />
	</node>
	<node id="-185234" lat="60.0077888879" lon="10.0743861062">
		<tag k="alt_name" v="Sør-Tangerud" />
		<tag k="name" v="Søndre Tangerud" />
		<tag k="place" v="farm" />
		<tag k="ssr:stedsnr" v="786405" />
	</node>
	<node id="-185233" lat="59.986858333" lon="9.91299722749">
		<tag k="building" v="commercial" />
		<tag k="name" v="Sysle bruk" />
		<tag k="ssr:stedsnr" v="786389" />
	</node>
	<node id="-185232" lat="59.9919666651" lon="10.2141972136">
		<tag k="name" v="Nedre Kimerud" />
		<tag k="place" v="farm" />
		<tag k="ssr:stedsnr" v="786246" />
	</node>
	<node id="-185230" lat="60.0096166678" lon="10.0779444489">
		<tag k="name" v="Nedre Påls" />
		<tag k="place" v="farm" />
		<tag k="ssr:stedsnr" v="785763" />
	</node>
	<node id="-185226" lat="59.9202916652" lon="9.97650833253">
		<tag k="alt_name" v="Sønsteby Mellom" />
		<tag k="name" v="Mellom-Sønsteby" />
		<tag k="place" v="farm" />
		<tag k="ssr:stedsnr" v="785509" />
	</node>
	<node id="-185225" lat="60.0009694465" lon="10.0073222199">
		<tag k="name" v="Flattumsgrinda" />
		<tag k="place" v="farm" />
		<tag k="ssr:stedsnr" v="785446" />
	</node>
	<node id="-185222" lat="60.0287027744" lon="10.0279250044">
		<tag k="name" v="Åsløkka" />
		<tag k="place" v="farm" />
		<tag k="ssr:stedsnr" v="785177" />
	</node>
	<node id="-185213" lat="59.9944638895" lon="10.0664083417">
		<tag k="name" v="Urp" />
		<tag k="place" v="locality" />
		<tag k="ssr:stedsnr" v="783851" />
	</node>
	<node id="-185211" lat="60.0473499992" lon="9.86713889424">
		<tag k="name" v="Ødegård" />
		<tag k="place" v="farm" />
		<tag k="ssr:stedsnr" v="783429" />
	</node>
	<node id="-185210" lat="60.0019138889" lon="9.91597500891">
		<tag k="name" v="Smørkollen" />
		<tag k="place" v="farm" />
		<tag k="ssr:stedsnr" v="783319" />
	</node>
	<node id="-185209" lat="60.0438722209" lon="9.95094444246">
		<tag k="alt_name" v="Mellom Presterud" />
		<tag k="name" v="Mellom-Presterud" />
		<tag k="place" v="farm" />
		<tag k="ssr:stedsnr" v="783265" />
	</node>
	<node id="-185207" lat="60.0431888922" lon="9.86748055686">
		<tag k="name" v="Øvre Gubberud" />
		<tag k="place" v="farm" />
		<tag k="ssr:stedsnr" v="783253" />
	</node>
	<node id="-185206" lat="60.0443722216" lon="9.86914443746">
		<tag k="name" v="Berg" />
		<tag k="place" v="farm" />
		<tag k="ssr:stedsnr" v="783231" />
	</node>
	<node id="-185199" lat="60.042569445" lon="9.83960000405">
		<tag k="name" v="Nordre Langerud" />
		<tag k="place" v="farm" />
		<tag k="ssr:stedsnr" v="770723" />
	</node>
	<node id="-185191" lat="59.9789" lon="10.0070638894">
		<tag k="name" v="Olslund" />
		<tag k="place" v="farm" />
		<tag k="ssr:stedsnr" v="769951" />
	</node>
	<node id="-185187" lat="59.9791821381" lon="9.86592535095">
		<tag k="fixme" v="consider tourism=alpine_hut or tourism=chalet" />
		<tag k="name" v="Koboltkoia" />
		<tag k="ssr:stedsnr" v="769007" />
		<tag k="tourism" v="wilderness_hut" />
	</node>
	<node id="-185186" lat="59.8786611127" lon="10.0534083247">
		<tag k="name" v="Svenseløkka" />
		<tag k="place" v="locality" />
		<tag k="ssr:stedsnr" v="768710" />
	</node>
	<node id="-185184" lat="60.0982194489" lon="9.94051389318">
		<tag k="name" v="Haukly" />
		<tag k="place" v="isolated_dwelling" />
		<tag k="ssr:stedsnr" v="768691" />
	</node>
	<node id="-185176" lat="60.0116138878" lon="9.88254443684">
		<tag k="name" v="Asbjørnhus" />
		<tag k="place" v="farm" />
		<tag k="ssr:stedsnr" v="768322" />
	</node>
	<node id="-185175" lat="60.0081249985" lon="9.88872777774">
		<tag k="name" v="Nordre Gunnhus" />
		<tag k="place" v="farm" />
		<tag k="ssr:stedsnr" v="768323" />
	</node>
	<node id="-185174" lat="59.9441944438" lon="9.80992500036">
		<tag k="name" v="Granheim" />
		<tag k="place" v="farm" />
		<tag k="ssr:stedsnr" v="768294" />
	</node>
	<node id="-185171" lat="59.966936108" lon="9.99665278594">
		<tag k="leisure" v="park" />
		<tag k="name" v="Strandparken" />
		<tag k="ssr:stedsnr" v="767885" />
	</node>
	<node id="-185169" lat="59.8930250032" lon="9.75976667364">
		<tag k="leisure" v="pitch" />
		<tag k="name" v="Moløkka" />
		<tag k="ssr:stedsnr" v="764069" />
	</node>
	<node id="-185167" lat="59.994008337" lon="9.96428333787">
		<tag k="name" v="Flannum" />
		<tag k="place" v="farm" />
		<tag k="ssr:stedsnr" v="755243" />
	</node>
	<node id="-185165" lat="59.9406777774" lon="9.97709444661">
		<tag k="name" v="Utrimark" />
		<tag k="place" v="farm" />
		<tag k="ssr:stedsnr" v="751099" />
	</node>
	<node id="-185164" lat="60.0056749983" lon="10.0230055516">
		<tag k="name" v="Jaren" />
		<tag k="place" v="farm" />
		<tag k="ssr:stedsnr" v="734465" />
	</node>
	<node id="-185163" lat="60.0040138924" lon="10.1756499935">
		<tag k="name" v="Myrbråtan" />
		<tag k="place" v="isolated_dwelling" />
		<tag k="ssr:stedsnr" v="734460" />
	</node>
	<node id="-185161" lat="60.0171138854" lon="9.87630278033">
		<tag k="alt_name" v="Hilsen" />
		<tag k="name" v="Helsen" />
		<tag k="place" v="hamlet" />
		<tag k="ssr:stedsnr" v="733947" />
	</node>
	<node id="-185153" lat="59.9695388853" lon="9.97286110585">
		<tag k="name" v="Råen" />
		<tag k="place" v="farm" />
		<tag k="ssr:stedsnr" v="733470" />
	</node>
	<node id="-185152" lat="60.0132749963" lon="10.146827781">
		<tag k="name" v="Bjertnes" />
		<tag k="place" v="farm" />
		<tag k="ssr:stedsnr" v="733390" />
	</node>
	<node id="-185148" lat="59.9825611095" lon="9.92013611369">
		<tag k="name" v="Haugen" />
		<tag k="place" v="farm" />
		<tag k="ssr:stedsnr" v="732942" />
	</node>
	<node id="-185146" lat="60.0317999998" lon="9.86325555227">
		<tag k="name" v="Olavsby" />
		<tag k="place" v="farm" />
		<tag k="ssr:stedsnr" v="732929" />
	</node>
	<node id="-185143" lat="59.9467666702" lon="9.81634167312">
		<tag k="name" v="Fagernes" />
		<tag k="place" v="farm" />
		<tag k="ssr:stedsnr" v="732851" />
	</node>
	<node id="-185142" lat="59.9152999986" lon="9.96176666227">
		<tag k="name" v="Holsrud" />
		<tag k="place" v="farm" />
		<tag k="ssr:stedsnr" v="732835" />
	</node>
	<node id="-185141" lat="59.920158336" lon="9.83233889409">
		<tag k="alt_name" v="Sterkeby" />
		<tag k="name" v="Sterkaby" />
		<tag k="place" v="farm" />
		<tag k="ssr:stedsnr" v="732830" />
	</node>
	<node id="-185139" lat="59.9786333378" lon="9.94484443645">
		<tag k="name" v="Skinstad" />
		<tag k="place" v="farm" />
		<tag k="ssr:stedsnr" v="732810" />
	</node>
	<node id="-185137" lat="59.9592472183" lon="9.77014444289">
		<tag k="name" v="Åsterud" />
		<tag k="place" v="farm" />
		<tag k="ssr:stedsnr" v="732792" />
	</node>
	<node id="-185136" lat="59.963972218" lon="9.8555472258">
		<tag k="name" v="Retrum" />
		<tag k="place" v="isolated_dwelling" />
		<tag k="ssr:stedsnr" v="732788" />
	</node>
	<node id="-185135" lat="59.8592202339" lon="9.89172360979">
		<tag k="fixme" v="consider place=hamlet" />
		<tag k="name" v="Hassel" />
		<tag k="place" v="farm" />
		<tag k="ssr:stedsnr" v="732671" />
	</node>
	<node id="-185134" lat="59.8826249966" lon="9.92568610986">
		<tag k="name" v="Bjørndalen" />
		<tag k="place" v="farm" />
		<tag k="ssr:stedsnr" v="732662" />
	</node>
	<node id="-185132" lat="59.997150003" lon="10.0609500075">
		<tag k="name" v="Åsen" />
		<tag k="place" v="farm" />
		<tag k="ssr:stedsnr" v="732480" />
	</node>
	<node id="-185131" lat="59.9825027765" lon="10.1630277851">
		<tag k="alt_name" v="Natvedtvollen" />
		<tag k="name" v="Natveitvollen" />
		<tag k="place" v="isolated_dwelling" />
		<tag k="ssr:stedsnr" v="732468" />
	</node>
	<node id="-185126" lat="59.9678999967" lon="10.0208361045">
		<tag k="name" v="Hval" />
		<tag k="place" v="farm" />
		<tag k="ssr:stedsnr" v="731459" />
	</node>
	<node id="-185118" lat="59.9949333292" lon="9.89818055062">
		<tag k="name" v="Skretteberg" />
		<tag k="place" v="farm" />
		<tag k="ssr:stedsnr" v="726405" />
	</node>
	<node id="-185117" lat="59.9892722184" lon="9.89992500836">
		<tag k="name" v="Bjørnetangen" />
		<tag k="place" v="farm" />
		<tag k="ssr:stedsnr" v="726400" />
	</node>
	<node id="-185112" lat="59.9877444442" lon="9.9462694484">
		<tag k="name" v="Hære" />
		<tag k="place" v="farm" />
		<tag k="ssr:stedsnr" v="726162" />
	</node>
	<node id="-185111" lat="59.9200444459" lon="9.87757222051">
		<tag k="name" v="Skredderud" />
		<tag k="place" v="farm" />
		<tag k="ssr:stedsnr" v="726153" />
	</node>
	<node id="-185110" lat="59.9225555549" lon="9.88345000044">
		<tag k="name" v="Løkka" />
		<tag k="place" v="isolated_dwelling" />
		<tag k="ssr:stedsnr" v="726150" />
	</node>
	<node id="-185108" lat="60.0143694416" lon="10.0118555623">
		<tag k="name" v="Myra" />
		<tag k="place" v="farm" />
		<tag k="ssr:stedsnr" v="726097" />
	</node>
	<node id="-185107" lat="59.9670277734" lon="9.96864166247">
		<tag k="name" v="Vestre Råen" />
		<tag k="place" v="farm" />
		<tag k="ssr:stedsnr" v="725832" />
	</node>
	<node id="-185103" lat="59.9308444403" lon="9.99433334114">
		<tag k="name" v="Øvre Øren" />
		<tag k="place" v="farm" />
		<tag k="ssr:stedsnr" v="725500" />
	</node>
	<node id="-185102" lat="59.9944055586" lon="10.0259111139">
		<tag k="name" v="Tørrhaug" />
		<tag k="place" v="farm" />
		<tag k="ssr:stedsnr" v="725444" />
	</node>
	<node id="-185098" lat="59.8856527762" lon="9.79549166013">
		<tag k="name" v="Klegstad" />
		<tag k="place" v="farm" />
		<tag k="ssr:stedsnr" v="724939" />
	</node>
	<node id="-185097" lat="59.9500555576" lon="10.0118472297">
		<tag k="name" v="Disenhagen" />
		<tag k="place" v="isolated_dwelling" />
		<tag k="ssr:stedsnr" v="724542" />
	</node>
	<node id="-185095" lat="59.9506611095" lon="10.0031638921">
		<tag k="name" v="Disenbråten" />
		<tag k="place" v="farm" />
		<tag k="ssr:stedsnr" v="724537" />
	</node>
	<node id="-185090" lat="60.0435472255" lon="9.95488333912">
		<tag k="name" v="Østre Presterud" />
		<tag k="place" v="isolated_dwelling" />
		<tag k="ssr:stedsnr" v="723302" />
	</node>
	<node id="-185084" lat="59.9951333378" lon="10.1187583327">
		<tag k="name" v="Harestua" />
		<tag k="place" v="isolated_dwelling" />
		<tag k="ssr:stedsnr" v="722963" />
	</node>
	<node id="-185069" lat="59.8884638878" lon="9.88024166936">
		<tag k="name" v="Nordre Nyhus" />
		<tag k="place" v="farm" />
		<tag k="ssr:stedsnr" v="709428" />
	</node>
	<node id="-185068" lat="59.8864888909" lon="9.87733056433">
		<tag k="name" v="Vestre Nyhus" />
		<tag k="place" v="farm" />
		<tag k="ssr:stedsnr" v="709414" />
	</node>
	<node id="-185065" lat="59.9498611111" lon="10.0516388972">
		<tag k="historic" v="shieling" />
		<tag k="name" v="Jonsbu" />
		<tag k="place" v="locality" />
		<tag k="ssr:stedsnr" v="708663" />
	</node>
	<node id="-185064" lat="59.9741361134" lon="9.88215556001">
		<tag k="name" v="Pukkverket" />
		<tag k="place" v="isolated_dwelling" />
		<tag k="ssr:stedsnr" v="707912" />
	</node>
	<node id="-185063" lat="60.0677972262" lon="9.84482222826">
		<tag k="name" v="Elvely" />
		<tag k="place" v="farm" />
		<tag k="ssr:stedsnr" v="707686" />
	</node>
	<node id="-185061" lat="60.1285027755" lon="9.94505000515">
		<tag k="historic" v="shieling" />
		<tag k="name" v="Grønmyrhytta" />
		<tag k="place" v="locality" />
		<tag k="ssr:stedsnr" v="707680" />
	</node>
	<node id="-185057" lat="60.0165388919" lon="9.87663056126">
		<tag k="name" v="Nordre Hilsen" />
		<tag k="place" v="farm" />
		<tag k="ssr:stedsnr" v="707374" />
	</node>
	<node id="-185056" lat="59.8947722266" lon="9.89524167484">
		<tag k="name" v="Vestre Bråten" />
		<tag k="place" v="farm" />
		<tag k="ssr:stedsnr" v="707096" />
	</node>
	<node id="-185055" lat="60.0053888851" lon="10.0522333351">
		<tag k="alt_name" v="Nordre Fure" />
		<tag k="name" v="Nord-Fure" />
		<tag k="place" v="farm" />
		<tag k="ssr:stedsnr" v="704208" />
	</node>
	<node id="-185047" lat="60.1550944457" lon="9.92037777">
		<tag k="name" v="Granavollen" />
		<tag k="place" v="isolated_dwelling" />
		<tag k="ssr:stedsnr" v="672779" />
	</node>
	<node id="-185046" lat="59.9965444411" lon="10.0556472262">
		<tag k="alt_name" v="Rød;Rød, øvre" />
		<tag k="name" v="Øvre Rød" />
		<tag k="place" v="farm" />
		<tag k="ssr:stedsnr" v="672471" />
	</node>
	<node id="-185045" lat="60.0003027783" lon="9.97540554912">
		<tag k="name" v="Torsby" />
		<tag k="place" v="farm" />
		<tag k="ssr:stedsnr" v="672408" />
	</node>
	<node id="-185044" lat="60.0086418094" lon="10.0750377">
		<tag k="fixme" v="consider place=hamlet" />
		<tag k="name" v="Tangerud" />
		<tag k="place" v="farm" />
		<tag k="ssr:stedsnr" v="672403" />
	</node>
	<node id="-185043" lat="60.0121999981" lon="10.1390055548">
		<tag k="name" v="Bråtan" />
		<tag k="place" v="farm" />
		<tag k="ssr:stedsnr" v="672395" />
	</node>
	<node id="-185041" lat="60.0113749998" lon="10.1700416594">
		<tag k="alt_name" v="Åsen" />
		<tag k="name" v="Dignesåsen" />
		<tag k="place" v="farm" />
		<tag k="ssr:stedsnr" v="672386" />
	</node>
	<node id="-185038" lat="59.9841888847" lon="9.91837222687">
		<tag k="name" v="Gåsevja" />
		<tag k="place" v="farm" />
		<tag k="ssr:stedsnr" v="671940" />
	</node>
	<node id="-185035" lat="59.9345416696" lon="9.84406389136">
		<tag k="fixme" v="consider place=hamlet" />
		<tag k="name" v="Tingelstad" />
		<tag k="place" v="farm" />
		<tag k="ssr:stedsnr" v="671875" />
	</node>
	<node id="-185033" lat="59.9405888931" lon="9.82223888198">
		<tag k="name" v="Hauge" />
		<tag k="old_name" v="Braaten" />
		<tag k="place" v="farm" />
		<tag k="ssr:stedsnr" v="671864" />
	</node>
	<node id="-185031" lat="59.9046083365" lon="9.94762221834">
		<tag k="name" v="Holo" />
		<tag k="place" v="farm" />
		<tag k="ssr:stedsnr" v="671821" />
	</node>
	<node id="-185030" lat="59.972802779" lon="9.96010277896">
		<tag k="name" v="Haraldsrud" />
		<tag k="place" v="farm" />
		<tag k="ssr:stedsnr" v="671808" />
	</node>
	<node id="-185029" lat="59.9800305589" lon="9.91726945134">
		<tag k="name" v="Hvelven" />
		<tag k="place" v="farm" />
		<tag k="ssr:stedsnr" v="671791" />
	</node>
	<node id="-185028" lat="59.9558777817" lon="9.75744999136">
		<tag k="name" v="Bekken" />
		<tag k="place" v="farm" />
		<tag k="ssr:stedsnr" v="671771" />
	</node>
	<node id="-185025" lat="59.8829000026" lon="9.80633055294">
		<tag k="name" v="Hovengplassen" />
		<tag k="place" v="farm" />
		<tag k="ssr:stedsnr" v="671679" />
	</node>
	<node id="-185023" lat="59.8859372771" lon="9.79520130148">
		<tag k="fixme" v="consider place=hamlet" />
		<tag k="name" v="Klegstad" />
		<tag k="place" v="farm" />
		<tag k="ssr:stedsnr" v="671667" />
	</node>
	<node id="-185021" lat="59.8715249997" lon="9.83760833608">
		<tag k="alt_name" v="Steinsrudhaugen" />
		<tag k="name" v="Haugen" />
		<tag k="place" v="farm" />
		<tag k="ssr:stedsnr" v="671630" />
	</node>
	<node id="-185017" lat="59.9840194408" lon="9.98440554852">
		<tag k="name" v="Kongsrud" />
		<tag k="place" v="farm" />
		<tag k="ssr:stedsnr" v="671465" />
	</node>
	<node id="-185016" lat="59.9909666662" lon="10.221977779">
		<tag k="alt_name" v="Bjørnsrudtangen" />
		<tag k="name" v="Bjørnsrud" />
		<tag k="place" v="isolated_dwelling" />
		<tag k="ssr:stedsnr" v="671456" />
	</node>
	<node id="-185015" lat="59.9964362609" lon="10.0518528528">
		<tag k="fixme" v="consider place=hamlet" />
		<tag k="name" v="Rød" />
		<tag k="old_name" v="Rud" />
		<tag k="place" v="farm" />
		<tag k="ssr:stedsnr" v="671451" />
	</node>
	<node id="-185014" lat="59.9917027807" lon="10.0454555562">
		<tag k="alt_name" v="Askim" />
		<tag k="fixme" v="consider place=hamlet" />
		<tag k="name" v="Askjum" />
		<tag k="place" v="farm" />
		<tag k="ssr:stedsnr" v="671449" />
	</node>
	<node id="-185011" lat="59.9434750034" lon="10.0047472244">
		<tag k="name" v="Briskerud" />
		<tag k="place" v="farm" />
		<tag k="ssr:stedsnr" v="671371" />
	</node>
	<node id="-185003" lat="60.0153000005" lon="10.0298222209">
		<tag k="name" v="Drolsum" />
		<tag k="place" v="farm" />
		<tag k="ssr:stedsnr" v="665803" />
	</node>
	<node id="-185001" lat="60.0022527792" lon="9.86703611244">
		<tag k="name" v="Såstad" />
		<tag k="place" v="farm" />
		<tag k="ssr:stedsnr" v="665410" />
	</node>
	<node id="-184999" lat="59.9867694482" lon="9.95106110877">
		<tag k="name" v="Fjellstad" />
		<tag k="place" v="farm" />
		<tag k="ssr:stedsnr" v="665217" />
	</node>
	<node id="-184997" lat="59.9211500003" lon="9.91598611695">
		<tag k="name" v="Øvre Høybakk" />
		<tag k="place" v="isolated_dwelling" />
		<tag k="ssr:stedsnr" v="665197" />
	</node>
	<node id="-184993" lat="60.0220805575" lon="9.98968055187">
		<tag k="name" v="Hestebråten" />
		<tag k="place" v="farm" />
		<tag k="ssr:stedsnr" v="665124" />
	</node>
	<node id="-184992" lat="59.9599583348" lon="9.94542222531">
		<tag k="name" v="Brunesmoen" />
		<tag k="place" v="isolated_dwelling" />
		<tag k="ssr:stedsnr" v="664888" />
	</node>
	<node id="-184988" lat="59.9850305593" lon="9.99665832656">
		<tag k="name" v="Borgenstua" />
		<tag k="place" v="isolated_dwelling" />
		<tag k="ssr:stedsnr" v="664464" />
	</node>
	<node id="-184987" lat="59.9489027753" lon="9.79613056298">
		<tag k="name" v="Øvre Bakke" />
		<tag k="place" v="farm" />
		<tag k="ssr:stedsnr" v="664380" />
	</node>
	<node id="-184986" lat="60.0270833353" lon="10.0039722299">
		<tag k="name" v="Nordgården" />
		<tag k="place" v="farm" />
		<tag k="ssr:stedsnr" v="664198" />
	</node>
	<node id="-184982" lat="59.9087055517" lon="9.9521888937">
		<tag k="name" v="Gustadhøgda" />
		<tag k="place" v="quarter" />
		<tag k="ssr:stedsnr" v="663967" />
	</node>
	<node id="-184978" lat="59.9225749985" lon="9.9944805544">
		<tag k="name" v="Bjønnmyr" />
		<tag k="place" v="isolated_dwelling" />
		<tag k="ssr:stedsnr" v="663520" />
	</node>
	<node id="-184977" lat="59.9345749979" lon="9.9107194474">
		<tag k="name" v="Pungen" />
		<tag k="place" v="farm" />
		<tag k="ssr:stedsnr" v="662788" />
	</node>
	<node id="-184976" lat="59.8805722229" lon="9.87315278531">
		<tag k="name" v="Nedre Lerskallen" />
		<tag k="place" v="farm" />
		<tag k="ssr:stedsnr" v="662450" />
	</node>
	<node id="-184975" lat="59.9969444434" lon="9.9228833247">
		<tag k="name" v="Svendsrud" />
		<tag k="place" v="farm" />
		<tag k="ssr:stedsnr" v="662335" />
	</node>
	<node id="-184971" lat="59.986508331" lon="10.0335694364">
		<tag k="name" v="Brekke" />
		<tag k="place" v="farm" />
		<tag k="ssr:stedsnr" v="661835" />
	</node>
	<node id="-184961" lat="60.0487638897" lon="9.92599999816">
		<tag k="name" v="Skarpli" />
		<tag k="place" v="isolated_dwelling" />
		<tag k="ssr:stedsnr" v="648730" />
	</node>
	<node id="-184960" lat="60.0595833329" lon="9.82124444727">
		<tag k="historic" v="shieling" />
		<tag k="name" v="Kvernelva" />
		<tag k="place" v="locality" />
		<tag k="ssr:stedsnr" v="648690" />
	</node>
	<node id="-184959" lat="60.0840055588" lon="9.95425555069">
		<tag k="name" v="Ulmyrbakken" />
		<tag k="place" v="isolated_dwelling" />
		<tag k="ssr:stedsnr" v="648650" />
	</node>
	<node id="-184958" lat="59.9244111111" lon="9.96825833979">
		<tag k="name" v="Tomta" />
		<tag k="place" v="locality" />
		<tag k="ssr:stedsnr" v="648629" />
	</node>
	<node id="-184957" lat="59.9183083295" lon="9.9654861196">
		<tag k="name" v="Sevals" />
		<tag k="ssr:stedsnr" v="648619" />
		<tag k="tourism" v="guest_house" />
	</node>
	<node id="-184954" lat="60.0010444418" lon="10.1614000009">
		<tag k="historic" v="shieling" />
		<tag k="name" v="Badstubråten" />
		<tag k="place" v="locality" />
		<tag k="ssr:stedsnr" v="648298" />
	</node>
	<node id="-184951" lat="59.980963887" lon="9.94270556045">
		<tag k="name" v="Skinstad" />
		<tag k="place" v="farm" />
		<tag k="ssr:stedsnr" v="648084" />
	</node>
	<node id="-184948" lat="59.9197361129" lon="10.0364638812">
		<tag k="name" v="Urbo" />
		<tag k="place" v="isolated_dwelling" />
		<tag k="ssr:stedsnr" v="647698" />
	</node>
	<node id="-184946" lat="59.9284861083" lon="10.0541638936">
		<tag k="name" v="Fjellhvil" />
		<tag k="place" v="isolated_dwelling" />
		<tag k="ssr:stedsnr" v="647661" />
	</node>
	<node id="-184943" lat="60.0152055548" lon="10.1217694467">
		<tag k="name" v="Nordstua" />
		<tag k="place" v="farm" />
		<tag k="ssr:stedsnr" v="646600" />
	</node>
	<node id="-184942" lat="60.0128694482" lon="9.87068610848">
		<tag k="name" v="Tranvold" />
		<tag k="place" v="farm" />
		<tag k="ssr:stedsnr" v="646352" />
	</node>
	<node id="-184941" lat="60.0190249982" lon="9.87134999233">
		<tag k="name" v="Søndre Hilsen" />
		<tag k="place" v="farm" />
		<tag k="ssr:stedsnr" v="646350" />
	</node>
	<node id="-184934" lat="59.869847221" lon="9.83787778592">
		<tag k="name" v="Haugløkbråten" />
		<tag k="place" v="farm" />
		<tag k="ssr:stedsnr" v="633978" />
	</node>
	<node id="-184933" lat="60.0069408506" lon="10.0735353542">
		<tag k="name" v="Orholt" />
		<tag k="place" v="farm" />
		<tag k="ssr:stedsnr" v="612456" />
	</node>
	<node id="-184932" lat="60.0027222236" lon="9.86676111084">
		<tag k="name" v="Såstad" />
		<tag k="place" v="farm" />
		<tag k="ssr:stedsnr" v="611977" />
	</node>
	<node id="-184928" lat="60.0954194483" lon="9.85009722464">
		<tag k="name" v="Mohyttene" />
		<tag k="place" v="farm" />
		<tag k="ssr:stedsnr" v="611865" />
	</node>
	<node id="-184923" lat="59.900705559" lon="9.94797499275">
		<tag k="name" v="Holo" />
		<tag k="place" v="farm" />
		<tag k="ssr:stedsnr" v="611495" />
	</node>
	<node id="-184921" lat="60.0275305535" lon="10.0332722148">
		<tag k="name" v="Lerskallen" />
		<tag k="place" v="farm" />
		<tag k="ssr:stedsnr" v="611332" />
	</node>
	<node id="-184920" lat="60.0382833361" lon="10.0473722293">
		<tag k="alt_name" v="Henoa" />
		<tag k="name" v="Henåen" />
		<tag k="place" v="farm" />
		<tag k="ssr:stedsnr" v="611313" />
	</node>
	<node id="-184918" lat="59.9326972194" lon="9.91474722774">
		<tag k="name" v="Bakken" />
		<tag k="place" v="farm" />
		<tag k="ssr:stedsnr" v="610861" />
	</node>
	<node id="-184917" lat="59.9208166677" lon="9.91590556297">
		<tag k="name" v="Høybakk" />
		<tag k="place" v="isolated_dwelling" />
		<tag k="ssr:stedsnr" v="610847" />
	</node>
	<node id="-184916" lat="59.8991944425" lon="9.7368638944">
		<tag k="name" v="Brutangen" />
		<tag k="place" v="farm" />
		<tag k="ssr:stedsnr" v="610842" />
	</node>
	<node id="-184913" lat="59.9794361099" lon="9.96616110398">
		<tag k="name" v="Grøterud" />
		<tag k="place" v="farm" />
		<tag k="ssr:stedsnr" v="610825" />
	</node>
	<node id="-184912" lat="59.8919555563" lon="9.9256055584">
		<tag k="name" v="Åmot" />
		<tag k="place" v="village" />
		<tag k="ssr:stedsnr" v="610706" />
	</node>
	<node id="-184911" lat="59.8877333294" lon="9.93870555751">
		<tag k="alt_name" v="Jellum" />
		<tag k="name" v="Gjellum" />
		<tag k="place" v="farm" />
		<tag k="ssr:stedsnr" v="610703" />
	</node>
	<node id="-184910" lat="59.8784694466" lon="9.87729722436">
		<tag k="name" v="Bakke" />
		<tag k="place" v="farm" />
		<tag k="ssr:stedsnr" v="610692" />
	</node>
	<node id="-184909" lat="59.8951138867" lon="9.74679999418">
		<tag k="fixme" v="multiple name tags, choose one and add the other to alt_name" />
		<tag k="name" v="Klabu;Kristofferplassen" />
		<tag k="place" v="farm" />
		<tag k="ssr:stedsnr" v="610690" />
	</node>
	<node id="-184908" lat="59.8988861123" lon="9.91215555814">
		<tag k="name" v="Breivik" />
		<tag k="place" v="farm" />
		<tag k="ssr:stedsnr" v="610686" />
	</node>
	<node id="-184907" lat="59.8729555542" lon="9.88688610742">
		<tag k="alt_name" v="Alvheim" />
		<tag k="name" v="Alfheim" />
		<tag k="place" v="farm" />
		<tag k="ssr:stedsnr" v="610646" />
	</node>
	<node id="-184906" lat="59.9789500029" lon="9.99340277636">
		<tag k="alt_name" v="Bottegård" />
		<tag k="name" v="Bottegarden" />
		<tag k="place" v="farm" />
		<tag k="ssr:stedsnr" v="610531" />
	</node>
	<node id="-184904" lat="59.9152664067" lon="9.97550642898">
		<tag k="alt_name" v="Ødegården" />
		<tag k="name" v="Øgarden" />
		<tag k="place" v="locality" />
		<tag k="ssr:stedsnr" v="610437" />
	</node>
	<node id="-184903" lat="59.8787333329" lon="10.0660750041">
		<tag k="name" v="Støa" />
		<tag k="place" v="locality" />
		<tag k="ssr:stedsnr" v="610392" />
	</node>
	<node id="-184902" lat="59.8806833322" lon="10.058025003">
		<tag k="name" v="Bottolvs" />
		<tag k="place" v="locality" />
		<tag k="ssr:stedsnr" v="610391" />
	</node>
	<node id="-184901" lat="59.8999611092" lon="10.0912611192">
		<tag k="alt_name" v="Heggenvollen" />
		<tag k="name" v="Heggevollen" />
		<tag k="place" v="isolated_dwelling" />
		<tag k="ssr:stedsnr" v="610385" />
	</node>
	<node id="-184899" lat="59.945752775" lon="9.99461667173">
		<tag k="name" v="Dæli" />
		<tag k="place" v="farm" />
		<tag k="ssr:stedsnr" v="610422" />
	</node>
	<node id="-184898" lat="59.9091083341" lon="9.89346388203">
		<tag k="loc_name" v="Kjøraplassen" />
		<tag k="name" v="Kjøreplassen" />
		<tag k="place" v="isolated_dwelling" />
		<tag k="ssr:stedsnr" v="606744" />
	</node>
	<node id="-184893" lat="59.9917722182" lon="10.2107305577">
		<tag k="name" v="Øvre Kimerud" />
		<tag k="place" v="farm" />
		<tag k="ssr:stedsnr" v="604269" />
	</node>
	<node id="-184891" lat="60.0235000033" lon="9.98238610425">
		<tag k="name" v="Syversbråten" />
		<tag k="place" v="farm" />
		<tag k="ssr:stedsnr" v="604138" />
	</node>
	<node id="-184890" lat="60.0147277788" lon="10.0247277769">
		<tag k="name" v="Drolsum" />
		<tag k="place" v="farm" />
		<tag k="ssr:stedsnr" v="604094" />
	</node>
	<node id="-184888" lat="59.9695249974" lon="9.97243888008">
		<tag k="name" v="Nord-Råen" />
		<tag k="place" v="isolated_dwelling" />
		<tag k="ssr:stedsnr" v="603838" />
	</node>
	<node id="-184885" lat="59.9813944467" lon="10.0246277734">
		<tag k="name" v="Framnes" />
		<tag k="place" v="farm" />
		<tag k="ssr:stedsnr" v="603480" />
	</node>
	<node id="-184882" lat="59.9050583313" lon="9.9411805523">
		<tag k="name" v="Midtskogen" />
		<tag k="place" v="farm" />
		<tag k="ssr:stedsnr" v="602970" />
	</node>
	<node id="-184881" lat="59.9518916665" lon="9.9995833321">
		<tag k="name" v="Holmen" />
		<tag k="place" v="farm" />
		<tag k="ssr:stedsnr" v="602562" />
	</node>
	<node id="-184878" lat="59.9195722256" lon="9.98897221686">
		<tag k="alt_name" v="Sønsteby Øvre" />
		<tag k="name" v="Øvre Sønsteby" />
		<tag k="place" v="farm" />
		<tag k="ssr:stedsnr" v="602539" />
	</node>
	<node id="-184874" lat="59.9354555575" lon="9.90388888613">
		<tag k="name" v="Jar" />
		<tag k="place" v="farm" />
		<tag k="ssr:stedsnr" v="601545" />
	</node>
	<node id="-184873" lat="59.9969055517" lon="9.93091388499">
		<tag k="name" v="Jemterud" />
		<tag k="place" v="farm" />
		<tag k="ssr:stedsnr" v="601319" />
	</node>
	<node id="-184870" lat="60.0289888866" lon="9.8636444521">
		<tag k="name" v="Nordheim" />
		<tag k="place" v="farm" />
		<tag k="ssr:stedsnr" v="600285" />
	</node>
	<node id="-184865" lat="60.0320611072" lon="9.83570833607">
		<tag k="name" v="Elistua" />
		<tag k="place" v="locality" />
		<tag k="ssr:stedsnr" v="588731" />
	</node>
	<node id="-184858" lat="59.8925166651" lon="9.94445277227">
		<tag k="name" v="Laupet" />
		<tag k="place" v="isolated_dwelling" />
		<tag k="ssr:stedsnr" v="587901" />
	</node>
	<node id="-184852" lat="59.9484138889" lon="9.83442778667">
		<tag k="name" v="Tandberghagen" />
		<tag k="place" v="farm" />
		<tag k="ssr:stedsnr" v="587828" />
	</node>
	<node id="-184851" lat="59.9542972233" lon="9.79337500638">
		<tag k="name" v="Øvre Grefstad" />
		<tag k="place" v="farm" />
		<tag k="ssr:stedsnr" v="587459" />
	</node>
	<node id="-184842" lat="59.8662694406" lon="9.85208055284">
		<tag k="name" v="Vestre Skibrek" />
		<tag k="place" v="farm" />
		<tag k="ssr:stedsnr" v="586362" />
	</node>
	<node id="-184841" lat="59.9298777798" lon="9.93649721864">
		<tag k="name" v="Formo" />
		<tag k="place" v="farm" />
		<tag k="ssr:stedsnr" v="586160" />
	</node>
	<node id="-184839" lat="59.927524999" lon="9.83034166608">
		<tag k="name" v="Nordby" />
		<tag k="place" v="farm" />
		<tag k="ssr:stedsnr" v="585719" />
	</node>
	<node id="-184837" lat="59.8898694469" lon="9.89652221733">
		<tag k="name" v="Nylende" />
		<tag k="place" v="isolated_dwelling" />
		<tag k="ssr:stedsnr" v="585098" />
	</node>
	<node id="-184829" lat="60.1645027801" lon="9.90572499726">
		<tag k="name" v="Skinnstad" />
		<tag k="place" v="locality" />
		<tag k="ssr:stedsnr" v="551782" />
	</node>
	<node id="-184828" lat="60.0128833357" lon="10.1067416623">
		<tag k="name" v="Gåserud" />
		<tag k="place" v="farm" />
		<tag k="ssr:stedsnr" v="551401" />
	</node>
	<node id="-184827" lat="59.9937777811" lon="9.88445277418">
		<tag k="name" v="Pedersbråtan" />
		<tag k="place" v="isolated_dwelling" />
		<tag k="ssr:stedsnr" v="550972" />
	</node>
	<node id="-184826" lat="60.0699527816" lon="9.83174443577">
		<tag k="name" v="Flatli" />
		<tag k="place" v="farm" />
		<tag k="ssr:stedsnr" v="550886" />
	</node>
	<node id="-184823" lat="59.9451735086" lon="9.83588161338">
		<tag k="fixme" v="consider place=hamlet" />
		<tag k="name" v="Tanberg" />
		<tag k="place" v="farm" />
		<tag k="ssr:stedsnr" v="550857" />
	</node>
	<node id="-184822" lat="59.9314972209" lon="9.91151111391">
		<tag k="alt_name" v="Jelstad" />
		<tag k="name" v="Jellstad" />
		<tag k="place" v="farm" />
		<tag k="ssr:stedsnr" v="550847" />
	</node>
	<node id="-184820" lat="59.9218000043" lon="9.84313610995">
		<tag k="name" v="Kollerud" />
		<tag k="place" v="farm" />
		<tag k="ssr:stedsnr" v="550837" />
	</node>
	<node id="-184819" lat="60.124963886" lon="9.87316110397">
		<tag k="name" v="Hesjevollen" />
		<tag k="place" v="isolated_dwelling" />
		<tag k="ssr:stedsnr" v="550828" />
	</node>
	<node id="-184818" lat="59.9579805521" lon="9.91248889457">
		<tag k="alt_name" v="Sandaker" />
		<tag k="name" v="Sandåker" />
		<tag k="place" v="farm" />
		<tag k="ssr:stedsnr" v="550768" />
	</node>
	<node id="-184817" lat="59.8824833376" lon="9.88960554788">
		<tag k="alt_name" v="Buskerud" />
		<tag k="amenity" v="school" />
		<tag k="name" v="Buskerud landbruksskole" />
		<tag k="ssr:stedsnr" v="550664" />
	</node>
	<node id="-184814" lat="59.8953916636" lon="9.93645554875">
		<tag k="name" v="Melum" />
		<tag k="place" v="farm" />
		<tag k="ssr:stedsnr" v="550638" />
	</node>
	<node id="-184811" lat="59.9831861099" lon="10.2423861198">
		<tag k="alt_name" v="Jota" />
		<tag k="name" v="Gjota" />
		<tag k="place" v="farm" />
		<tag k="ssr:stedsnr" v="550437" />
	</node>
	<node id="-184809" lat="59.9833361096" lon="10.1047027711">
		<tag k="name" v="Bergsetra" />
		<tag k="place" v="isolated_dwelling" />
		<tag k="ssr:stedsnr" v="550429" />
	</node>
	<node id="-184808" lat="59.9861194446" lon="10.0118166709">
		<tag k="name" v="Hervik" />
		<tag k="place" v="farm" />
		<tag k="ssr:stedsnr" v="550424" />
	</node>
	<node id="-184807" lat="59.9116249956" lon="9.971849996">
		<tag k="alt_name" v="Bottolfs" />
		<tag k="name" v="Bottolvs" />
		<tag k="place" v="isolated_dwelling" />
		<tag k="ssr:stedsnr" v="550394" />
	</node>
	<node id="-184805" lat="59.9381861141" lon="10.0055499997">
		<tag k="leisure" v="pitch" />
		<tag k="name" v="Vikersundbakken" />
		<tag k="ssr:stedsnr" v="550364" />
	</node>
	<node id="-184802" lat="60.0355277809" lon="9.9967250088">
		<tag k="name" v="Øderud" />
		<tag k="place" v="farm" />
		<tag k="ssr:stedsnr" v="550299" />
	</node>
	<node id="-184800" lat="59.9112638887" lon="9.93100277776">
		<tag k="name" v="Gausdal" />
		<tag k="place" v="isolated_dwelling" />
		<tag k="ssr:stedsnr" v="549831" />
	</node>
	<node id="-184799" lat="59.910288239" lon="9.86249977281">
		<tag k="alt_name" v="Nord-Ødegården" />
		<tag k="fixme" v="multiple name tags, choose one and add the other to alt_name" />
		<tag k="name" v="Øgarden;Nord-Øgarden" />
		<tag k="old_name" v="Ødegården" />
		<tag k="place" v="farm" />
		<tag k="ssr:stedsnr" v="549807" />
	</node>
	<node id="-184798" lat="59.9546361151" lon="10.0518250059">
		<tag k="historic" v="shieling" />
		<tag k="name" v="Austadsetra" />
		<tag k="place" v="locality" />
		<tag k="ssr:stedsnr" v="549451" />
	</node>
	<node id="-184791" lat="59.992561112" lon="10.0469333301">
		<tag k="alt_name" v="Askheim nordre" />
		<tag k="name" v="Nordre Askheim" />
		<tag k="place" v="farm" />
		<tag k="ssr:stedsnr" v="544819" />
	</node>
	<node id="-184790" lat="59.9984305564" lon="10.0608694521">
		<tag k="name" v="Gjeitebakken" />
		<tag k="place" v="farm" />
		<tag k="ssr:stedsnr" v="544790" />
	</node>
	<node id="-184789" lat="60.0029833312" lon="10.0631861189">
		<tag k="alt_name" v="Berg nedre" />
		<tag k="name" v="Nedre Berg" />
		<tag k="place" v="farm" />
		<tag k="ssr:stedsnr" v="544785" />
	</node>
	<node id="-184786" lat="59.9810750004" lon="9.90362777576">
		<tag k="name" v="Bøen" />
		<tag k="place" v="farm" />
		<tag k="ssr:stedsnr" v="544377" />
	</node>
	<node id="-184785" lat="59.9983611145" lon="9.87320832648">
		<tag k="name" v="Såstadbråten" />
		<tag k="place" v="farm" />
		<tag k="ssr:stedsnr" v="544346" />
	</node>
	<node id="-184784" lat="60.0170750041" lon="10.0151305571">
		<tag k="name" v="Bjørkerud" />
		<tag k="place" v="farm" />
		<tag k="ssr:stedsnr" v="544095" />
	</node>
	<node id="-184782" lat="59.9186472254" lon="9.85651945326">
		<tag k="name" v="Nordre Kopland" />
		<tag k="place" v="farm" />
		<tag k="ssr:stedsnr" v="543976" />
	</node>
	<node id="-184781" lat="59.9755555539" lon="9.96665000813">
		<tag k="name" v="Søndre Grøterud" />
		<tag k="place" v="farm" />
		<tag k="ssr:stedsnr" v="543835" />
	</node>
	<node id="-184779" lat="59.9658194435" lon="10.0195638837">
		<tag k="name" v="Øde-Hval" />
		<tag k="place" v="farm" />
		<tag k="ssr:stedsnr" v="542982" />
	</node>
	<node id="-184778" lat="59.9076888927" lon="9.9512666727">
		<tag k="name" v="Holo" />
		<tag k="place" v="farm" />
		<tag k="ssr:stedsnr" v="542974" />
	</node>
	<node id="-184777" lat="59.8884805593" lon="9.92729166976">
		<tag k="name" v="Engerhagen" />
		<tag k="place" v="quarter" />
		<tag k="ssr:stedsnr" v="542908" />
	</node>
	<node id="-184775" lat="60.0091694483" lon="10.0865388866">
		<tag k="name" v="Melåen" />
		<tag k="place" v="farm" />
		<tag k="ssr:stedsnr" v="542771" />
	</node>
	<node id="-184772" lat="59.9680888868" lon="9.98176667314">
		<tag k="name" v="Hovde" />
		<tag k="place" v="farm" />
		<tag k="ssr:stedsnr" v="542556" />
	</node>
	<node id="-184769" lat="59.9531027817" lon="9.9804999961">
		<tag k="name" v="Haslerud" />
		<tag k="place" v="isolated_dwelling" />
		<tag k="ssr:stedsnr" v="542533" />
	</node>
	<node id="-184767" lat="59.9797999987" lon="10.1639361199">
		<tag k="historic" v="shieling" />
		<tag k="name" v="Gamlevollen" />
		<tag k="place" v="locality" />
		<tag k="ssr:stedsnr" v="542116" />
	</node>
	<node id="-184760" lat="59.9391888865" lon="9.97113889387">
		<tag k="name" v="Bråten" />
		<tag k="place" v="farm" />
		<tag k="ssr:stedsnr" v="540631" />
	</node>
	<node id="-184756" lat="60.0246944469" lon="9.87781389473">
		<tag k="name" v="Honerud" />
		<tag k="place" v="farm" />
		<tag k="ssr:stedsnr" v="540268" />
	</node>
	<node id="-184753" lat="59.9770021464" lon="10.0045398377">
		<tag k="name" v="Sand" />
		<tag k="place" v="farm" />
		<tag k="ssr:stedsnr" v="527998" />
	</node>
	<node id="-184750" lat="59.9608777753" lon="9.87465833662">
		<tag k="historic" v="shieling" />
		<tag k="name" v="Berganstua" />
		<tag k="place" v="locality" />
		<tag k="ssr:stedsnr" v="527920" />
	</node>
	<node id="-184745" lat="60.0288642569" lon="9.83155646539">
		<tag k="name" v="Ødegården" />
		<tag k="place" v="locality" />
		<tag k="ssr:stedsnr" v="527734" />
	</node>
	<node id="-184744" lat="60.0499277746" lon="9.83763333122">
		<tag k="name" v="Øvre Korsbøen" />
		<tag k="place" v="farm" />
		<tag k="ssr:stedsnr" v="527694" />
	</node>
	<node id="-184743" lat="60.0132777765" lon="10.15286111">
		<tag k="name" v="Dignes" />
		<tag k="place" v="farm" />
		<tag k="ssr:stedsnr" v="527286" />
	</node>
	<node id="-184739" lat="59.937655553" lon="9.82175554829">
		<tag k="name" v="Lobbenstøa" />
		<tag k="place" v="farm" />
		<tag k="ssr:stedsnr" v="525851" />
	</node>
	<node id="-184736" lat="60.0685361145" lon="9.83988332869">
		<tag k="name" v="Øyvolla" />
		<tag k="place" v="farm" />
		<tag k="ssr:stedsnr" v="525686" />
	</node>
	<node id="-184732" lat="59.9984972202" lon="9.85343610861">
		<tag k="name" v="Hovdehagen" />
		<tag k="place" v="farm" />
		<tag k="ssr:stedsnr" v="525520" />
	</node>
	<node id="-184722" lat="59.8912555535" lon="9.77480554813">
		<tag k="name" v="Elvenes" />
		<tag k="place" v="isolated_dwelling" />
		<tag k="ssr:stedsnr" v="521988" />
	</node>
	<node id="-184721" lat="60.0032416695" lon="10.0531500061">
		<tag k="fixme" v="consider place=hamlet" />
		<tag k="name" v="Fure" />
		<tag k="place" v="farm" />
		<tag k="ssr:stedsnr" v="521149" />
	</node>
	<node id="-184720" lat="59.8999361111" lon="9.77121667163">
		<tag k="name" v="Elisplassen" />
		<tag k="place" v="locality" />
		<tag k="ssr:stedsnr" v="521006" />
	</node>
	<node id="-184717" lat="59.8564805543" lon="9.88894722047">
		<tag k="name" v="Vestre Hassel" />
		<tag k="place" v="farm" />
		<tag k="ssr:stedsnr" v="512050" />
	</node>
	<node id="-184716" lat="59.9490361152" lon="10.0048499945">
		<tag k="name" v="Jonsrud" />
		<tag k="place" v="farm" />
		<tag k="ssr:stedsnr" v="509688" />
	</node>
	<node id="-184715" lat="60.004263892" lon="10.0501722193">
		<tag k="alt_name" v="Fure nedre" />
		<tag k="name" v="Nedre Fure" />
		<tag k="place" v="farm" />
		<tag k="ssr:stedsnr" v="491456" />
	</node>
	<node id="-184714" lat="60.0031583338" lon="9.90365554904">
		<tag k="name" v="Bekken" />
		<tag k="place" v="farm" />
		<tag k="ssr:stedsnr" v="490971" />
	</node>
	<node id="-184710" lat="60.0359527822" lon="9.96451944462">
		<tag k="name" v="Svarterud" />
		<tag k="place" v="farm" />
		<tag k="ssr:stedsnr" v="490924" />
	</node>
	<node id="-184709" lat="60.0306249957" lon="9.8159500042">
		<tag k="name" v="Langerudsetra" />
		<tag k="place" v="isolated_dwelling" />
		<tag k="ssr:stedsnr" v="490915" />
	</node>
	<node id="-184706" lat="60.1322500045" lon="9.90876110527">
		<tag k="name" v="Steinsvollen" />
		<tag k="place" v="isolated_dwelling" />
		<tag k="ssr:stedsnr" v="490814" />
	</node>
	<node id="-184705" lat="59.987199997" lon="9.94265554843">
		<tag k="name" v="Hære" />
		<tag k="place" v="farm" />
		<tag k="ssr:stedsnr" v="490596" />
	</node>
	<node id="-184704" lat="60.0077055569" lon="10.1144999936">
		<tag k="alt_name" v="Slåttebråten" />
		<tag k="name" v="Slåttebråtan" />
		<tag k="place" v="locality" />
		<tag k="ssr:stedsnr" v="490398" />
	</node>
	<node id="-184702" lat="59.9906055593" lon="9.91704999125">
		<tag k="fixme" v="consider place=hamlet" />
		<tag k="name" v="Sysle" />
		<tag k="place" v="village" />
		<tag k="ssr:stedsnr" v="489969" />
	</node>
	<node id="-184701" lat="59.9884111111" lon="9.84899999394">
		<tag k="name" v="Såstadsetra" />
		<tag k="place" v="isolated_dwelling" />
		<tag k="ssr:stedsnr" v="489954" />
	</node>
	<node id="-184700" lat="59.9818000038" lon="9.89944721952">
		<tag k="name" v="Bøen" />
		<tag k="place" v="farm" />
		<tag k="ssr:stedsnr" v="489951" />
	</node>
	<node id="-184699" lat="59.9894083338" lon="9.92544723048">
		<tag k="name" v="Hole" />
		<tag k="place" v="farm" />
		<tag k="ssr:stedsnr" v="489932" />
	</node>
	<node id="-184697" lat="60.0455166702" lon="9.84348332448">
		<tag k="alt_name" v="Svendsby" />
		<tag k="name" v="Svendby" />
		<tag k="place" v="farm" />
		<tag k="ssr:stedsnr" v="489902" />
	</node>
	<node id="-184695" lat="59.9397750029" lon="9.92422222309">
		<tag k="name" v="Moen" />
		<tag k="place" v="farm" />
		<tag k="ssr:stedsnr" v="489862" />
	</node>
	<node id="-184694" lat="59.9267583306" lon="9.72437777651">
		<tag k="historic" v="shieling" />
		<tag k="name" v="Grefstadsetra" />
		<tag k="place" v="locality" />
		<tag k="ssr:stedsnr" v="489855" />
	</node>
	<node id="-184693" lat="59.8973916666" lon="9.74252499361">
		<tag k="fixme" v="multiple name tags, choose one and add the other to alt_name" />
		<tag k="name" v="Klabu;Hammarplass" />
		<tag k="old_name" v="Tolerud" />
		<tag k="place" v="farm" />
		<tag k="ssr:stedsnr" v="489834" />
	</node>
	<node id="-184690" lat="59.9071555558" lon="9.73532222831">
		<tag k="name" v="Svarverud" />
		<tag k="place" v="farm" />
		<tag k="ssr:stedsnr" v="489821" />
	</node>
	<node id="-184686" lat="59.9712000043" lon="9.94627499595">
		<tag k="alt_name" v="Engen" />
		<tag k="name" v="Enga" />
		<tag k="place" v="farm" />
		<tag k="ssr:stedsnr" v="489786" />
	</node>
	<node id="-184684" lat="59.9451833307" lon="9.90621388459">
		<tag k="alt_name" v="Wærsted" />
		<tag k="name" v="Verksted" />
		<tag k="place" v="farm" />
		<tag k="ssr:stedsnr" v="489762" />
	</node>
	<node id="-184683" lat="59.8784805538" lon="9.87417223051">
		<tag k="name" v="Lerskallen" />
		<tag k="place" v="farm" />
		<tag k="ssr:stedsnr" v="489705" />
	</node>
	<node id="-184682" lat="59.8640138869" lon="9.87359167024">
		<tag k="name" v="Kvisle" />
		<tag k="place" v="farm" />
		<tag k="ssr:stedsnr" v="489673" />
	</node>
	<node id="-184681" lat="59.8662694406" lon="9.85208055284">
		<tag k="fixme" v="consider place=hamlet" />
		<tag k="name" v="Skibrekk" />
		<tag k="place" v="farm" />
		<tag k="ssr:stedsnr" v="489659" />
	</node>
	<node id="-184680" lat="59.9708027809" lon="10.0204222152">
		<tag k="name" v="Hvalshaugen" />
		<tag k="place" v="farm" />
		<tag k="ssr:stedsnr" v="489519" />
	</node>
	<node id="-184677" lat="59.9822000042" lon="9.99907500399">
		<tag k="alt_name" v="Borgen" />
		<tag k="name" v="Børgen" />
		<tag k="place" v="farm" />
		<tag k="ssr:stedsnr" v="489460" />
	</node>
	<node id="-184676" lat="59.9271916702" lon="10.0408583377">
		<tag k="name" v="Hovlandsetra" />
		<tag k="place" v="isolated_dwelling" />
		<tag k="ssr:stedsnr" v="489442" />
	</node>
	<node id="-184675" lat="59.9532499986" lon="10.0091250087">
		<tag k="name" v="Disen" />
		<tag k="place" v="farm" />
		<tag k="ssr:stedsnr" v="489415" />
	</node>
	<node id="-184670" lat="59.9084999991" lon="9.97425555649">
		<tag k="name" v="Nordås" />
		<tag k="place" v="farm" />
		<tag k="ssr:stedsnr" v="489343" />
	</node>
	<node id="-184667" lat="60.001994443" lon="10.0635305562">
		<tag k="alt_name" v="Berg Øvre" />
		<tag k="name" v="Øvre Berg" />
		<tag k="place" v="farm" />
		<tag k="ssr:stedsnr" v="483840" />
	</node>
	<node id="-184666" lat="60.018555559" lon="10.0313583305">
		<tag k="name" v="Enga" />
		<tag k="place" v="farm" />
		<tag k="ssr:stedsnr" v="483819" />
	</node>
	<node id="-184665" lat="60.0096527757" lon="9.85743610554">
		<tag k="name" v="Hovde" />
		<tag k="place" v="farm" />
		<tag k="ssr:stedsnr" v="483787" />
	</node>
	<node id="-184664" lat="60.0163944445" lon="9.84510834022">
		<tag k="name" v="Helgebråten" />
		<tag k="place" v="farm" />
		<tag k="ssr:stedsnr" v="483785" />
	</node>
	<node id="-184662" lat="59.994474998" lon="9.91139721795">
		<tag k="name" v="Røste" />
		<tag k="place" v="farm" />
		<tag k="ssr:stedsnr" v="483418" />
	</node>
	<node id="-184658" lat="59.9159777793" lon="9.88300833376">
		<tag k="name" v="Nordre Dalen" />
		<tag k="place" v="isolated_dwelling" />
		<tag k="ssr:stedsnr" v="483182" />
	</node>
	<node id="-184655" lat="60.0027861128" lon="9.97961944713">
		<tag k="fixme" v="multiple name tags, choose one and add the other to alt_name" />
		<tag k="name" v="Lille Finnsrud;Løkkebakken" />
		<tag k="place" v="locality" />
		<tag k="ssr:stedsnr" v="483037" />
	</node>
	<node id="-184652" lat="59.9919527746" lon="10.0205111141">
		<tag k="name" v="Bjerke" />
		<tag k="place" v="farm" />
		<tag k="ssr:stedsnr" v="482481" />
	</node>
	<node id="-184651" lat="59.9986027746" lon="10.0046499981">
		<tag k="name" v="Monsroa" />
		<tag k="place" v="farm" />
		<tag k="ssr:stedsnr" v="482477" />
	</node>
	<node id="-184648" lat="59.9771611125" lon="10.0183694398">
		<tag k="name" v="Campingen" />
		<tag k="ssr:stedsnr" v="481985" />
		<tag k="tourism" v="camp_site" />
	</node>
	<node id="-184647" lat="59.9134138876" lon="9.9445999933">
		<tag k="name" v="Torud" />
		<tag k="place" v="farm" />
		<tag k="ssr:stedsnr" v="481975" />
	</node>
	<node id="-184646" lat="60.0081194468" lon="10.0854999929">
		<tag k="name" v="Øvre Karlsrud" />
		<tag k="place" v="farm" />
		<tag k="ssr:stedsnr" v="481758" />
	</node>
	<node id="-184643" lat="60.0503694486" lon="9.9965972279">
		<tag k="name" v="Holte" />
		<tag k="place" v="farm" />
		<tag k="ssr:stedsnr" v="481201" />
	</node>
	<node id="-184641" lat="59.8571000032" lon="9.89049721684">
		<tag k="name" v="Østre Hassel" />
		<tag k="place" v="farm" />
		<tag k="ssr:stedsnr" v="480449" />
	</node>
	<node id="-184640" lat="59.9979972187" lon="9.92628332913">
		<tag k="name" v="Hagen" />
		<tag k="place" v="farm" />
		<tag k="ssr:stedsnr" v="480307" />
	</node>
	<node id="-184629" lat="60.0298972245" lon="9.85665000418">
		<tag k="name" v="Rundtom" />
		<tag k="place" v="farm" />
		<tag k="ssr:stedsnr" v="467723" />
	</node>
	<node id="-184628" lat="60.0535861152" lon="9.83979167305">
		<tag k="name" v="Midtre Korsbøen" />
		<tag k="place" v="farm" />
		<tag k="ssr:stedsnr" v="467701" />
	</node>
	<node id="-184626" lat="60.0506999957" lon="9.95552221502">
		<tag k="name" v="Ørvannet" />
		<tag k="place" v="farm" />
		<tag k="ssr:stedsnr" v="467647" />
	</node>
	<node id="-184625" lat="59.9259861153" lon="9.96179166816">
		<tag k="name" v="Vestre Skredsvik" />
		<tag k="place" v="farm" />
		<tag k="ssr:stedsnr" v="467630" />
	</node>
	<node id="-184624" lat="59.917227781" lon="9.97439722355">
		<tag k="name" v="Sønsteby" />
		<tag k="place" v="farm" />
		<tag k="ssr:stedsnr" v="467625" />
	</node>
	<node id="-184619" lat="59.8909833374" lon="9.78563055594">
		<tag k="name" v="Bergan" />
		<tag k="place" v="farm" />
		<tag k="ssr:stedsnr" v="466306" />
	</node>
	<node id="-184616" lat="59.9397666701" lon="9.92456944273">
		<tag k="name" v="Formo" />
		<tag k="place" v="farm" />
		<tag k="ssr:stedsnr" v="465877" />
	</node>
	<node id="-184612" lat="59.8788111077" lon="9.81588888619">
		<tag k="name" v="Nedre Hovenga" />
		<tag k="place" v="farm" />
		<tag k="ssr:stedsnr" v="465318" />
	</node>
	<node id="-184609" lat="59.9066805562" lon="9.86981666593">
		<tag k="alt_name" v="Sør-Ødegården" />
		<tag k="name" v="Sør-Øgarden" />
		<tag k="place" v="farm" />
		<tag k="ssr:stedsnr" v="465057" />
	</node>
	<node id="-184608" lat="59.8926999968" lon="9.88442776965">
		<tag k="name" v="Søndre Rypås" />
		<tag k="place" v="farm" />
		<tag k="ssr:stedsnr" v="465051" />
	</node>
	<node id="-184606" lat="59.9844500033" lon="10.0267833414">
		<tag k="name" v="Nordre Engelstad" />
		<tag k="place" v="farm" />
		<tag k="ssr:stedsnr" v="464635" />
	</node>
	<node id="-184603" lat="60.0495249964" lon="9.789105564">
		<tag k="name" v="Stormyrhytta" />
		<tag k="place" v="isolated_dwelling" />
		<tag k="ssr:stedsnr" v="461068" />
	</node>
	<node id="-184601" lat="59.8959277822" lon="9.78301388565">
		<tag k="name" v="Langebru" />
		<tag k="place" v="isolated_dwelling" />
		<tag k="ssr:stedsnr" v="461007" />
	</node>
	<node id="-184600" lat="60.0082972186" lon="9.84888333629">
		<tag k="name" v="Kollen" />
		<tag k="place" v="farm" />
		<tag k="ssr:stedsnr" v="430978" />
	</node>
	<node id="-184599" lat="60.0025861087" lon="9.93145277611">
		<tag k="name" v="Nygård" />
		<tag k="place" v="farm" />
		<tag k="ssr:stedsnr" v="430973" />
	</node>
	<node id="-184597" lat="60.0780611145" lon="9.85714443773">
		<tag k="alt_name" v="Lien" />
		<tag k="name" v="Lia" />
		<tag k="place" v="farm" />
		<tag k="ssr:stedsnr" v="430863" />
	</node>
	<node id="-184594" lat="60.0940277775" lon="9.9302194462">
		<tag k="name" v="Kaggevollen" />
		<tag k="place" v="isolated_dwelling" />
		<tag k="ssr:stedsnr" v="430850" />
	</node>
	<node id="-184590" lat="60.0065527791" lon="9.99511110474">
		<tag k="alt_name" v="Sjulsrud" />
		<tag k="name" v="Sjurdsrud" />
		<tag k="place" v="farm" />
		<tag k="ssr:stedsnr" v="430418" />
	</node>
	<node id="-184587" lat="60.0097111135" lon="10.0919500033">
		<tag k="name" v="Melåa" />
		<tag k="place" v="farm" />
		<tag k="ssr:stedsnr" v="430400" />
	</node>
	<node id="-184586" lat="60.0102750015" lon="10.1087749971">
		<tag k="alt_name" v="Skårra" />
		<tag k="name" v="Skåra" />
		<tag k="place" v="farm" />
		<tag k="ssr:stedsnr" v="430399" />
	</node>
	<node id="-184585" lat="60.0224138876" lon="10.0309166736">
		<tag k="name" v="Ås" />
		<tag k="place" v="farm" />
		<tag k="ssr:stedsnr" v="430333" />
	</node>
	<node id="-184584" lat="60.0309111104" lon="10.049724994">
		<tag k="name" v="Fjellstangen" />
		<tag k="place" v="farm" />
		<tag k="ssr:stedsnr" v="430331" />
	</node>
	<node id="-184583" lat="60.031163889" lon="10.0440916659">
		<tag k="fixme" v="multiple name tags, choose one and add the other to alt_name" />
		<tag k="name" v="Fjellsnaret;Snaret" />
		<tag k="place" v="farm" />
		<tag k="ssr:stedsnr" v="430330" />
	</node>
	<node id="-184582" lat="60.0344861141" lon="10.0361611133">
		<tag k="name" v="Fjell" />
		<tag k="place" v="farm" />
		<tag k="ssr:stedsnr" v="430327" />
	</node>
	<node id="-184581" lat="60.0340111099" lon="10.0117027769">
		<tag k="name" v="Vestenga" />
		<tag k="place" v="farm" />
		<tag k="ssr:stedsnr" v="430324" />
	</node>
	<node id="-184578" lat="60.0140277815" lon="9.85144999426">
		<tag k="name" v="Glømme" />
		<tag k="place" v="farm" />
		<tag k="ssr:stedsnr" v="429965" />
	</node>
	<node id="-184575" lat="60.070314405" lon="9.80367847389">
		<tag k="alt_name" v="Øydegardane;Ødegården" />
		<tag k="loc_name" v="Øgarden;Øgardane" />
		<tag k="name" v="Øgard" />
		<tag k="place" v="locality" />
		<tag k="ssr:stedsnr" v="429888" />
	</node>
	<node id="-184573" lat="59.9353944469" lon="9.83155833819">
		<tag k="name" v="Sulland" />
		<tag k="place" v="farm" />
		<tag k="ssr:stedsnr" v="429875" />
	</node>
	<node id="-184571" lat="59.9286277748" lon="9.8503000073">
		<tag k="alt_name" v="Skogli" />
		<tag k="name" v="Skogly" />
		<tag k="place" v="farm" />
		<tag k="ssr:stedsnr" v="429844" />
	</node>
	<node id="-184568" lat="60.1611083328" lon="9.91173610653">
		<tag k="name" v="Styggdalshytta" />
		<tag k="place" v="isolated_dwelling" />
		<tag k="ssr:stedsnr" v="429784" />
	</node>
	<node id="-184566" lat="59.9542591924" lon="9.79340961988">
		<tag k="name" v="Grefstad" />
		<tag k="place" v="farm" />
		<tag k="ssr:stedsnr" v="429751" />
	</node>
	<node id="-184565" lat="59.9509727952" lon="9.82070314014">
		<tag k="fixme" v="consider place=hamlet" />
		<tag k="name" v="Hulbak" />
		<tag k="old_name" v="Hulbakk;Hulebak;Hulebakk" />
		<tag k="place" v="farm" />
		<tag k="ssr:stedsnr" v="429748" />
	</node>
	<node id="-184563" lat="59.889000002" lon="9.92305833003">
		<tag k="name" v="Enger" />
		<tag k="place" v="farm" />
		<tag k="ssr:stedsnr" v="429670" />
	</node>
	<node id="-184561" lat="59.9122138882" lon="9.97885555779">
		<tag k="name" v="Snoterud" />
		<tag k="place" v="farm" />
		<tag k="ssr:stedsnr" v="429392" />
	</node>
	<node id="-184560" lat="59.8766916665" lon="10.0184861069">
		<tag k="name" v="Borkebu" />
		<tag k="place" v="isolated_dwelling" />
		<tag k="ssr:stedsnr" v="429326" />
	</node>
	<node id="-184556" lat="59.9897777759" lon="9.97057777398">
		<tag k="name" v="Åsmundrud" />
		<tag k="place" v="farm" />
		<tag k="ssr:stedsnr" v="429451" />
	</node>
	<node id="-184555" lat="59.981761112" lon="10.2506666656">
		<tag k="name" v="Badstuvika" />
		<tag k="place" v="isolated_dwelling" />
		<tag k="ssr:stedsnr" v="429436" />
	</node>
	<node id="-184554" lat="59.9870337695" lon="10.1195925691">
		<tag k="alt_name" v="Gulsrudsætra;Gulsrudvollen" />
		<tag k="historic" v="shieling" />
		<tag k="name" v="Gulsrudsetra" />
		<tag k="place" v="locality" />
		<tag k="ssr:stedsnr" v="429430" />
	</node>
	<node id="-184550" lat="59.9683777762" lon="9.99106943627">
		<tag k="name" v="Vikersund" />
		<tag k="place" v="village" />
		<tag k="ssr:stedsnr" v="428451" />
	</node>
	<node id="-184549" lat="59.9578250042" lon="10.0103888817">
		<tag k="name" v="Disenmoen" />
		<tag k="place" v="farm" />
		<tag k="ssr:stedsnr" v="428438" />
	</node>
	<node id="-184548" lat="59.9679499994" lon="10.1190750027">
		<tag k="name" v="Sandvollen" />
		<tag k="place" v="isolated_dwelling" />
		<tag k="ssr:stedsnr" v="428431" />
	</node>
	<node id="-184543" lat="59.9784083309" lon="9.93066388382">
		<tag k="name" v="Fossheim" />
		<tag k="place" v="farm" />
		<tag k="ssr:stedsnr" v="423881" />
	</node>
	<node id="-184542" lat="59.9911833347" lon="10.0441305538">
		<tag k="name" v="Askheim" />
		<tag k="place" v="farm" />
		<tag k="ssr:stedsnr" v="423846" />
	</node>
	<node id="-184538" lat="59.9813916625" lon="9.88363888366">
		<tag k="name" v="Vestre Aslaksby" />
		<tag k="place" v="farm" />
		<tag k="ssr:stedsnr" v="423392" />
	</node>
	<node id="-184536" lat="60.0031111108" lon="10.0266638968">
		<tag k="name" v="Brevik" />
		<tag k="place" v="farm" />
		<tag k="ssr:stedsnr" v="423080" />
	</node>
	<node id="-184535" lat="59.9593888861" lon="9.96575000545">
		<tag k="name" v="Nord-Brunes" />
		<tag k="place" v="farm" />
		<tag k="ssr:stedsnr" v="422880" />
	</node>
	<node id="-184533" lat="60.0195694474" lon="10.1323777721">
		<tag k="name" v="Tangehagen" />
		<tag k="place" v="farm" />
		<tag k="ssr:stedsnr" v="421988" />
	</node>
	<node id="-184532" lat="59.9584805515" lon="10.0023083281">
		<tag k="name" v="Disenmoen" />
		<tag k="place" v="farm" />
		<tag k="ssr:stedsnr" v="421545" />
	</node>
	<node id="-184530" lat="59.9221083376" lon="9.98224999576">
		<tag k="name" v="Sønsteby" />
		<tag k="place" v="farm" />
		<tag k="ssr:stedsnr" v="421530" />
	</node>
	<node id="-184529" lat="60.0321888906" lon="10.0242277777">
		<tag k="name" v="Østby" />
		<tag k="place" v="farm" />
		<tag k="ssr:stedsnr" v="421165" />
	</node>
	<node id="-184526" lat="59.9579305556" lon="10.1540000079">
		<tag k="name" v="Elgtjernstua" />
		<tag k="place" v="locality" />
		<tag k="ssr:stedsnr" v="421071" />
	</node>
	<node id="-184522" lat="59.9910499966" lon="10.0699555616">
		<tag k="name" v="Tobruk" />
		<tag k="place" v="isolated_dwelling" />
		<tag k="ssr:stedsnr" v="419848" />
	</node>
	<node id="-184521" lat="59.938900004" lon="9.96535000589">
		<tag k="leisure" v="pitch" />
		<tag k="name" v="Furumo" />
		<tag k="ssr:stedsnr" v="419630" />
	</node>
	<node id="-184519" lat="59.875391669" lon="9.87846667288">
		<tag k="name" v="Refsal" />
		<tag k="place" v="farm" />
		<tag k="ssr:stedsnr" v="419433" />
	</node>
	<node id="-184518" lat="59.882811113" lon="9.86999721795">
		<tag k="name" v="Øvre Lerskallen" />
		<tag k="place" v="farm" />
		<tag k="ssr:stedsnr" v="419422" />
	</node>
	<node id="-184516" lat="60.0346472259" lon="9.96986666688">
		<tag k="name" v="Holmen" />
		<tag k="place" v="isolated_dwelling" />
		<tag k="ssr:stedsnr" v="419299" />
	</node>
	<node id="-184514" lat="59.9344222194" lon="9.93995277141">
		<tag k="name" v="Grava" />
		<tag k="place" v="hamlet" />
		<tag k="ssr:stedsnr" v="416462" />
	</node>
	<node id="-184510" lat="59.9876999999" lon="10.034841675">
		<tag k="name" v="Brekke" />
		<tag k="place" v="farm" />
		<tag k="ssr:stedsnr" v="479844" />
	</node>
	<node id="-184508" lat="59.9927111101" lon="9.93861389084">
		<tag k="name" v="Nordli" />
		<tag k="place" v="farm" />
		<tag k="ssr:stedsnr" v="247956" />
	</node>
	<node id="-184507" lat="60.0237222242" lon="9.85089444494">
		<tag k="name" v="Stryken" />
		<tag k="place" v="farm" />
		<tag k="ssr:stedsnr" v="247943" />
	</node>
	<node id="-184500" lat="59.939149996" lon="9.81681666702">
		<tag k="name" v="Lobben" />
		<tag k="place" v="farm" />
		<tag k="ssr:stedsnr" v="247860" />
	</node>
	<node id="-184499" lat="59.9423250024" lon="9.7727638974">
		<tag k="name" v="Kaståssetra" />
		<tag k="place" v="isolated_dwelling" />
		<tag k="ssr:stedsnr" v="247851" />
	</node>
	<node id="-184495" lat="59.8626666706" lon="9.88373610773">
		<tag k="name" v="Oksrud" />
		<tag k="place" v="farm" />
		<tag k="ssr:stedsnr" v="247621" />
	</node>
	<node id="-184494" lat="59.8817833365" lon="9.92160833756">
		<tag k="name" v="Skreppen" />
		<tag k="place" v="farm" />
		<tag k="ssr:stedsnr" v="247612" />
	</node>
	<node id="-184493" lat="59.9287055552" lon="9.91800000091">
		<tag k="alt_name" v="Jelstad" />
		<tag k="name" v="Jellstad" />
		<tag k="place" v="farm" />
		<tag k="ssr:stedsnr" v="247597" />
	</node>
	<node id="-184490" lat="59.9812416652" lon="10.2426861068">
		<tag k="name" v="Ringen" />
		<tag k="place" v="farm" />
		<tag k="ssr:stedsnr" v="247424" />
	</node>
	<node id="-184489" lat="59.9835083315" lon="10.0259055543">
		<tag k="fixme" v="consider place=hamlet" />
		<tag k="name" v="Engelstad" />
		<tag k="place" v="farm" />
		<tag k="ssr:stedsnr" v="247415" />
	</node>
	<node id="-184488" lat="59.9829249987" lon="10.0399250024">
		<tag k="name" v="Brekkeplassen" />
		<tag k="place" v="farm" />
		<tag k="ssr:stedsnr" v="247413" />
	</node>
	<node id="-184486" lat="59.9251249988" lon="9.98305000356">
		<tag k="fixme" v="consider place=suburb, village or hamlet" />
		<tag k="name" v="Sønsteby" />
		<tag k="place" v="quarter" />
		<tag k="ssr:stedsnr" v="247406" />
	</node>
	<node id="-184484" lat="60.0090027796" lon="10.1540749971">
		<tag k="name" v="Snadden" />
		<tag k="place" v="isolated_dwelling" />
		<tag k="ssr:stedsnr" v="247395" />
	</node>
	<node id="-184483" lat="60.0265500038" lon="10.0046500027">
		<tag k="alt_name" v="Østgården" />
		<tag k="name" v="Østgarden" />
		<tag k="place" v="farm" />
		<tag k="ssr:stedsnr" v="247314" />
	</node>
	<node id="-184482" lat="59.9143388932" lon="9.84090277136">
		<tag k="name" v="Linderud" />
		<tag k="place" v="farm" />
		<tag k="ssr:stedsnr" v="246820" />
	</node>
	<node id="-184480" lat="59.9671499972" lon="9.96395000178">
		<tag k="name" v="Råen" />
		<tag k="place" v="farm" />
		<tag k="ssr:stedsnr" v="246759" />
	</node>
	<node id="-184477" lat="59.964377781" lon="10.0176638963">
		<tag k="name" v="Dokka" />
		<tag k="place" v="farm" />
		<tag k="ssr:stedsnr" v="246466" />
	</node>
	<node id="-184464" lat="59.9248694403" lon="9.8904722191">
		<tag k="name" v="Slåtta" />
		<tag k="place" v="farm" />
		<tag k="ssr:stedsnr" v="241185" />
	</node>
	<node id="-184463" lat="59.9234111109" lon="9.90561944865">
		<tag k="name" v="Rustanddalen" />
		<tag k="place" v="farm" />
		<tag k="ssr:stedsnr" v="241186" />
	</node>
	<node id="-184462" lat="60.0169138874" lon="10.0081472162">
		<tag k="name" v="Myrvang" />
		<tag k="place" v="farm" />
		<tag k="ssr:stedsnr" v="241098" />
	</node>
	<node id="-184461" lat="60.0028666706" lon="10.007219441">
		<tag k="name" v="Grinda" />
		<tag k="place" v="farm" />
		<tag k="ssr:stedsnr" v="241086" />
	</node>
	<node id="-184459" lat="59.9908805551" lon="9.91425554794">
		<tag k="name" v="Røstvang" />
		<tag k="place" v="farm" />
		<tag k="ssr:stedsnr" v="240397" />
	</node>
	<node id="-184457" lat="59.9864555515" lon="10.2312027772">
		<tag k="name" v="Øvre Pilterud" />
		<tag k="place" v="farm" />
		<tag k="ssr:stedsnr" v="240271" />
	</node>
	<node id="-184454" lat="59.980058332" lon="9.96481111503">
		<tag k="name" v="Nord-Grøterud" />
		<tag k="place" v="farm" />
		<tag k="ssr:stedsnr" v="239885" />
	</node>
	<node id="-184453" lat="59.9248583294" lon="9.92628332729">
		<tag k="name" v="Nygård" />
		<tag k="place" v="farm" />
		<tag k="ssr:stedsnr" v="239763" />
	</node>
	<node id="-184451" lat="59.9115444435" lon="9.97530278038">
		<tag k="name" v="Bottolfs" />
		<tag k="place" v="farm" />
		<tag k="ssr:stedsnr" v="239616" />
	</node>
	<node id="-184450" lat="59.9593138923" lon="10.0141888893">
		<tag k="name" v="Austad" />
		<tag k="place" v="farm" />
		<tag k="ssr:stedsnr" v="239544" />
	</node>
	<node id="-184448" lat="60.0409805584" lon="10.018558333">
		<tag k="name" v="Kvernbakken" />
		<tag k="place" v="farm" />
		<tag k="ssr:stedsnr" v="239184" />
	</node>
	<node id="-184447" lat="60.036524996" lon="10.0162138818">
		<tag k="name" v="Hellum" />
		<tag k="place" v="farm" />
		<tag k="ssr:stedsnr" v="239182" />
	</node>
	<node id="-184445" lat="59.9744916711" lon="10.1984166723">
		<tag k="historic" v="shieling" />
		<tag k="name" v="Kalvehytta" />
		<tag k="place" v="locality" />
		<tag k="ssr:stedsnr" v="239113" />
	</node>
	<node id="-184440" lat="59.9825777809" lon="10.0836777808">
		<tag k="name" v="Kleivhytta" />
		<tag k="place" v="isolated_dwelling" />
		<tag k="ssr:stedsnr" v="237857" />
	</node>
	<node id="-184436" lat="59.9989305513" lon="9.92898333905">
		<tag k="name" v="Vestengen" />
		<tag k="place" v="farm" />
		<tag k="ssr:stedsnr" v="237347" />
	</node>
	<node id="-184432" lat="60.0397055555" lon="9.86182221778">
		<tag k="name" v="Nedre Gubberud" />
		<tag k="place" v="farm" />
		<tag k="ssr:stedsnr" v="237283" />
	</node>
	<node id="-184430" lat="59.932522225" lon="9.95468055111">
		<tag k="alt_name" v="Katfoss" />
		<tag k="name" v="Kattfoss" />
		<tag k="place" v="quarter" />
		<tag k="ssr:stedsnr" v="234551" />
	</node>
	<node id="-184424" lat="59.8601277814" lon="9.89133055846">
		<tag k="name" v="Solheim" />
		<tag k="place" v="farm" />
		<tag k="ssr:stedsnr" v="269050" />
	</node>
	<node id="-184423" lat="59.9381777795" lon="9.89589167156">
		<tag k="name" v="Nord-Overn" />
		<tag k="place" v="farm" />
		<tag k="ssr:stedsnr" v="224866" />
	</node>
	<node id="-184421" lat="60.0606444417" lon="9.91961388472">
		<tag k="name" v="Knaldrevangen" />
		<tag k="place" v="isolated_dwelling" />
		<tag k="ssr:stedsnr" v="224747" />
	</node>
	<node id="-184419" lat="60.0531972202" lon="9.95794722695">
		<tag k="name" v="Ørvassbråten" />
		<tag k="place" v="farm" />
		<tag k="ssr:stedsnr" v="224732" />
	</node>
	<node id="-184417" lat="60.0414944459" lon="9.8379222142">
		<tag k="name" v="Søndre Langerud" />
		<tag k="place" v="farm" />
		<tag k="ssr:stedsnr" v="224720" />
	</node>
	<node id="-184416" lat="60.0281055515" lon="9.84908610577">
		<tag k="name" v="Solli" />
		<tag k="place" v="farm" />
		<tag k="ssr:stedsnr" v="224687" />
	</node>
	<node id="-184413" lat="59.9736333338" lon="10.0549000055">
		<tag k="historic" v="shieling" />
		<tag k="name" v="Vardebu" />
		<tag k="place" v="locality" />
		<tag k="ssr:stedsnr" v="225000" />
	</node>
	<node id="-184412" lat="59.9655222248" lon="10.0090583348">
		<tag k="name" v="Liengjordet" />
		<tag k="place" v="quarter" />
		<tag k="ssr:stedsnr" v="224998" />
	</node>
	<node id="-184411" lat="59.9630749998" lon="10.0556194402">
		<tag k="name" v="Bjarnebu" />
		<tag k="place" v="isolated_dwelling" />
		<tag k="ssr:stedsnr" v="224982" />
	</node>
	<node id="-184408" lat="60.0747277774" lon="9.8575083392">
		<tag k="name" v="Latås" />
		<tag k="place" v="isolated_dwelling" />
		<tag k="ssr:stedsnr" v="224142" />
	</node>
	<node id="-184403" lat="59.9975388858" lon="9.96784721902">
		<tag k="name" v="Flannumshaugen" />
		<tag k="place" v="farm" />
		<tag k="ssr:stedsnr" v="224015" />
	</node>
	<node id="-184401" lat="59.9502361151" lon="9.81594444092">
		<tag k="name" v="Honerud" />
		<tag k="place" v="farm" />
		<tag k="ssr:stedsnr" v="222853" />
	</node>
	<node id="-184398" lat="59.930630553" lon="9.81766389054">
		<tag k="name" v="Nordre Gunnerud" />
		<tag k="place" v="farm" />
		<tag k="ssr:stedsnr" v="222739" />
	</node>
	<node id="-184384" lat="59.9344972216" lon="10.0524583281">
		<tag k="name" v="Fjellheimen" />
		<tag k="place" v="isolated_dwelling" />
		<tag k="ssr:stedsnr" v="222662" />
	</node>
	<node id="-184383" lat="59.9344222195" lon="9.93249166248">
		<tag k="name" v="Formo" />
		<tag k="place" v="farm" />
		<tag k="ssr:stedsnr" v="222139" />
	</node>
	<node id="-184377" lat="59.8680527781" lon="9.8385388866">
		<tag k="name" v="Steinsrud" />
		<tag k="place" v="farm" />
		<tag k="ssr:stedsnr" v="221855" />
	</node>
	<node id="-184376" lat="59.9775222251" lon="9.89783332905">
		<tag k="name" v="Åsen" />
		<tag k="place" v="farm" />
		<tag k="ssr:stedsnr" v="222921" />
	</node>
	<node id="-184368" lat="59.9463481613" lon="9.97094470755">
		<tag k="name" v="Kjemperud" />
		<tag k="place" v="farm" />
		<tag k="ssr:stedsnr" v="187481" />
	</node>
	<node id="-184367" lat="60.0087166684" lon="10.177108331">
		<tag k="name" v="Dyrbakk" />
		<tag k="place" v="isolated_dwelling" />
		<tag k="ssr:stedsnr" v="187379" />
	</node>
	<node id="-184366" lat="60.037775001" lon="9.98811666243">
		<tag k="name" v="Elverud" />
		<tag k="place" v="farm" />
		<tag k="ssr:stedsnr" v="187306" />
	</node>
	<node id="-184363" lat="59.9308111101" lon="9.83549999182">
		<tag k="name" v="Fagernes" />
		<tag k="place" v="farm" />
		<tag k="ssr:stedsnr" v="186873" />
	</node>
	<node id="-184360" lat="59.9851221321" lon="9.89264514984">
		<tag k="alt_name" v="Ødegården" />
		<tag k="fixme" v="consider place=hamlet" />
		<tag k="name" v="Øgarden" />
		<tag k="place" v="farm" />
		<tag k="ssr:stedsnr" v="186948" />
	</node>
	<node id="-184359" lat="59.9902499997" lon="9.88127221483">
		<tag k="name" v="Skuterudflata" />
		<tag k="place" v="isolated_dwelling" />
		<tag k="ssr:stedsnr" v="186949" />
	</node>
	<node id="-184358" lat="60.047438893" lon="9.86290555625">
		<tag k="name" v="Moen" />
		<tag k="place" v="isolated_dwelling" />
		<tag k="ssr:stedsnr" v="186903" />
	</node>
	<node id="-184357" lat="59.9332805571" lon="9.92104444373">
		<tag k="alt_name" v="Bråten" />
		<tag k="name" v="Bråtan" />
		<tag k="place" v="farm" />
		<tag k="ssr:stedsnr" v="186849" />
	</node>
	<node id="-184356" lat="59.9579444456" lon="9.87678333314">
		<tag k="name" v="Lia" />
		<tag k="place" v="isolated_dwelling" />
		<tag k="ssr:stedsnr" v="186787" />
	</node>
	<node id="-184354" lat="59.9212222184" lon="9.92204999671">
		<tag k="name" v="Nygård" />
		<tag k="place" v="farm" />
		<tag k="ssr:stedsnr" v="186841" />
	</node>
	<node id="-184353" lat="60.1179027761" lon="9.89819722818">
		<tag k="name" v="Bråtavollen" />
		<tag k="place" v="isolated_dwelling" />
		<tag k="ssr:stedsnr" v="186837" />
	</node>
	<node id="-184352" lat="59.9972361078" lon="9.97600278336">
		<tag k="name" v="Torsby" />
		<tag k="place" v="farm" />
		<tag k="ssr:stedsnr" v="186645" />
	</node>
	<node id="-184349" lat="59.8872000018" lon="9.78913056237">
		<tag k="name" v="Bergan" />
		<tag k="place" v="farm" />
		<tag k="ssr:stedsnr" v="186687" />
	</node>
	<node id="-184346" lat="59.9901333305" lon="9.9966499924">
		<tag k="name" v="Skåka" />
		<tag k="place" v="farm" />
		<tag k="ssr:stedsnr" v="186483" />
	</node>
	<node id="-184345" lat="59.9888305577" lon="9.99507777721">
		<tag k="alt_name" v="Åsengen" />
		<tag k="name" v="Åsenga" />
		<tag k="place" v="farm" />
		<tag k="ssr:stedsnr" v="186481" />
	</node>
	<node id="-184343" lat="59.9329583302" lon="9.99880833534">
		<tag k="name" v="Hovland" />
		<tag k="place" v="farm" />
		<tag k="ssr:stedsnr" v="186468" />
	</node>
	<node id="-184341" lat="59.9490749982" lon="10.0015583338">
		<tag k="name" v="Gråten" />
		<tag k="place" v="farm" />
		<tag k="ssr:stedsnr" v="186440" />
	</node>
	<node id="-184340" lat="59.9487027734" lon="10.1759111192">
		<tag k="fixme" v="multiple name tags, choose one and add the other to alt_name" />
		<tag k="historic" v="shieling" />
		<tag k="name" v="Skjeggerudsetra;Skjeggerudvollen" />
		<tag k="place" v="locality" />
		<tag k="ssr:stedsnr" v="186434" />
	</node>
	<node id="-184339" lat="59.9370361142" lon="9.99753888146">
		<tag k="name" v="Spone" />
		<tag k="place" v="farm" />
		<tag k="ssr:stedsnr" v="186407" />
	</node>
	<node id="-184337" lat="59.9980305589" lon="10.0252861034">
		<tag k="name" v="Tveiten" />
		<tag k="place" v="farm" />
		<tag k="ssr:stedsnr" v="186509" />
	</node>
	<node id="-184329" lat="59.9770138874" lon="9.93241667347">
		<tag k="name" v="Fosshagen" />
		<tag k="place" v="farm" />
		<tag k="ssr:stedsnr" v="180867" />
	</node>
	<node id="-184328" lat="60.0219166672" lon="10.0334194415">
		<tag k="name" v="Ås" />
		<tag k="place" v="farm" />
		<tag k="ssr:stedsnr" v="180771" />
	</node>
	<node id="-184324" lat="59.9253083314" lon="9.89069721703">
		<tag k="name" v="Mollerud" />
		<tag k="place" v="isolated_dwelling" />
		<tag k="ssr:stedsnr" v="180182" />
	</node>
	<node id="-184323" lat="60.0256138855" lon="9.98327500121">
		<tag k="name" v="Laupdalen" />
		<tag k="place" v="isolated_dwelling" />
		<tag k="ssr:stedsnr" v="180175" />
	</node>
	<node id="-184322" lat="60.0248472224" lon="9.98601388405">
		<tag k="name" v="Hestebråten" />
		<tag k="place" v="farm" />
		<tag k="ssr:stedsnr" v="180174" />
	</node>
	<node id="-184321" lat="60.0049194424" lon="10.0086611074">
		<tag k="name" v="Flattum" />
		<tag k="place" v="farm" />
		<tag k="ssr:stedsnr" v="180081" />
	</node>
</osm>
