<?xml version="1.0" encoding="UTF-8"?>
<osm generator="osmapis" version="0.6">
	<node id="-546815" lat="61.6417222219" lon="5.80531943725">
		<tag k="name" v="Kråna" />
		<tag k="natural" v="bay" />
		<tag k="ssr:stedsnr" v="518722" />
	</node>
	<node id="-547326" lat="61.7331805587" lon="5.91649999622">
		<tag k="name" v="Åvågen" />
		<tag k="natural" v="bay" />
		<tag k="ssr:stedsnr" v="700276" />
	</node>
	<node id="-546813" lat="61.6296666672" lon="5.71885276982">
		<tag k="name" v="Øyra" />
		<tag k="natural" v="cape" />
		<tag k="ssr:stedsnr" v="518711" />
	</node>
	<node id="-546300" lat="61.8110694482" lon="6.13335554779">
		<tag k="name" v="Brynesteinen" />
		<tag k="natural" v="cape" />
		<tag k="ssr:stedsnr" v="192738" />
	</node>
	<node id="-547319" lat="61.664280557" lon="6.06137777149">
		<tag k="name" v="Kreklingneset" />
		<tag k="natural" v="cape" />
		<tag k="ssr:stedsnr" v="700108" />
	</node>
	<node id="-547317" lat="61.6674722234" lon="6.06484722076">
		<tag k="name" v="Dalestøa" />
		<tag k="natural" v="bay" />
		<tag k="ssr:stedsnr" v="700103" />
	</node>
	<node id="-546814" lat="61.6238472263" lon="5.70765000385">
		<tag k="name" v="Kjerevika" />
		<tag k="natural" v="bay" />
		<tag k="ssr:stedsnr" v="518710" />
	</node>
	<node id="-547312" lat="61.8230222238" lon="6.06251944923">
		<tag k="name" v="Salbuneset" />
		<tag k="natural" v="cape" />
		<tag k="ssr:stedsnr" v="700013" />
	</node>
	<node id="-546301" lat="61.8050999989" lon="5.98659166226">
		<tag k="fixme" v="consider seamark:type=rock or natural=shoal" />
		<tag k="name" v="Fløga" />
		<tag k="place" v="islet" />
		<tag k="ssr:stedsnr" v="192742" />
	</node>
	<node id="-546796" lat="61.6178888851" lon="5.6901222248">
		<tag k="name" v="Solheimsvassenden" />
		<tag k="natural" v="bay" />
		<tag k="ssr:stedsnr" v="518503" />
	</node>
	<node id="-546386" lat="61.843749996" lon="6.23693054754">
		<tag k="name" v="Sageneset" />
		<tag k="natural" v="cape" />
		<tag k="ssr:stedsnr" v="215260" />
	</node>
	<node id="-545761" lat="61.8430861077" lon="6.09238333827">
		<tag k="name" v="Verpingsneset" />
		<tag k="natural" v="cape" />
		<tag k="ssr:stedsnr" v="10846" />
	</node>
	<node id="-545760" lat="61.8249690179" lon="6.10021890252">
		<tag k="name" v="Galten" />
		<tag k="natural" v="cape" />
		<tag k="ssr:stedsnr" v="10692" />
	</node>
	<node id="-547805" lat="61.7625671139" lon="5.96494705675">
		<tag k="name" v="Sessabøen" />
		<tag k="natural" v="cape" />
		<tag k="ssr:stedsnr" v="859749" />
	</node>
	<node id="-545754" lat="61.8588361103" lon="5.9089555505">
		<tag k="name" v="Kabuneset" />
		<tag k="natural" v="cape" />
		<tag k="ssr:stedsnr" v="10643" />
	</node>
	<node id="-547797" lat="61.8306249992" lon="6.09158888611">
		<tag k="name" v="Kleberget" />
		<tag k="natural" v="cape" />
		<tag k="ssr:stedsnr" v="859647" />
	</node>
	<node id="-545236" lat="61.8413611097" lon="6.04099722649">
		<tag k="name" v="Lavika" />
		<tag k="natural" v="bay" />
		<tag k="ssr:stedsnr" v="276496" />
	</node>
	<node id="-547795" lat="61.8445833351" lon="6.02277500758">
		<tag k="name" v="Horvasteinen" />
		<tag k="natural" v="cape" />
		<tag k="ssr:stedsnr" v="859633" />
	</node>
	<node id="-547277" lat="61.8026611126" lon="6.11158610546">
		<tag k="bay" v="fjord" />
		<tag k="name" v="Gloppefjorden" />
		<tag k="natural" v="bay" />
		<tag k="ssr:stedsnr" v="677698" />
	</node>
	<node id="-547276" lat="61.8101138921" lon="5.97014444275">
		<tag k="name" v="Seieneset" />
		<tag k="natural" v="cape" />
		<tag k="ssr:stedsnr" v="677695" />
	</node>
	<node id="-547275" lat="61.8134388924" lon="6.08095000517">
		<tag k="name" v="Bjørga" />
		<tag k="natural" v="cape" />
		<tag k="ssr:stedsnr" v="677681" />
	</node>
	<node id="-546759" lat="61.774536108" lon="6.1435305487">
		<tag k="name" v="Brokeneset" />
		<tag k="natural" v="cape" />
		<tag k="ssr:stedsnr" v="518111" />
	</node>
	<node id="-545217" lat="61.6925944457" lon="6.4044222205">
		<tag k="name" v="Årdalsstranda" />
		<tag k="natural" v="beach" />
		<tag k="place" v="locality" />
		<tag k="ssr:stedsnr" v="276173" />
	</node>
	<node id="-547773" lat="61.7795027798" lon="6.18095000337">
		<tag k="name" v="Skallen" />
		<tag k="natural" v="shoal" />
		<tag k="place" v="locality" />
		<tag k="ssr:stedsnr" v="828971" />
	</node>
	<node id="-547772" lat="61.7319861098" lon="5.91343054932">
		<tag k="name" v="Vika" />
		<tag k="natural" v="bay" />
		<tag k="ssr:stedsnr" v="828060" />
	</node>
	<node id="-546207" lat="61.8390999992" lon="6.04513332543">
		<tag k="name" v="Skreneset" />
		<tag k="natural" v="cape" />
		<tag k="ssr:stedsnr" v="154481" />
	</node>
	<node id="-546889" lat="61.8514249982" lon="5.96036110627">
		<tag k="name" v="Bratteneset" />
		<tag k="natural" v="cape" />
		<tag k="ssr:stedsnr" v="555615" />
	</node>
	<node id="-547246" lat="61.8483933327" lon="5.98209555466">
		<tag k="name" v="Hyeneset" />
		<tag k="natural" v="cape" />
		<tag k="ssr:stedsnr" v="677640" />
	</node>
	<node id="-546728" lat="61.779641665" lon="5.95033611258">
		<tag k="name" v="Selvågen" />
		<tag k="natural" v="bay" />
		<tag k="ssr:stedsnr" v="495749" />
	</node>
	<node id="-545190" lat="61.6333500024" lon="5.72464444921">
		<tag k="name" v="Bukketåa" />
		<tag k="natural" v="cape" />
		<tag k="ssr:stedsnr" v="275701" />
	</node>
	<node id="-546209" lat="61.8401833304" lon="5.98116389263">
		<tag k="name" v="Hatlen" />
		<tag k="natural" v="bay" />
		<tag k="ssr:stedsnr" v="154487" />
	</node>
	<node id="-545184" lat="61.6676166659" lon="5.79399999422">
		<tag k="name" v="Joholmen" />
		<tag k="place" v="islet" />
		<tag k="ssr:stedsnr" v="275661" />
	</node>
	<node id="-546719" lat="61.8458777776" lon="6.03600277717">
		<tag k="name" v="Kviteneset" />
		<tag k="natural" v="cape" />
		<tag k="ssr:stedsnr" v="495674" />
	</node>
	<node id="-547230" lat="61.7746249986" lon="6.20897222122">
		<tag k="name" v="Sandebukta" />
		<tag k="natural" v="bay" />
		<tag k="ssr:stedsnr" v="645146" />
	</node>
	<node id="-546204" lat="61.8000027765" lon="5.96516389769">
		<tag k="name" v="Kjevika" />
		<tag k="natural" v="bay" />
		<tag k="ssr:stedsnr" v="154467" />
	</node>
	<node id="-547737" lat="61.8414472248" lon="6.23058054725">
		<tag k="name" v="Djupevikane" />
		<tag k="natural" v="bay" />
		<tag k="ssr:stedsnr" v="822274" />
	</node>
	<node id="-547735" lat="61.8457805516" lon="6.26679721425">
		<tag k="name" v="Skårsvika" />
		<tag k="natural" v="bay" />
		<tag k="ssr:stedsnr" v="822257" />
	</node>
	<node id="-546194" lat="61.6714777773" lon="6.08020277565">
		<tag k="name" v="Karisanden" />
		<tag k="natural" v="bay" />
		<tag k="ssr:stedsnr" v="154095" />
	</node>
	<node id="-547728" lat="61.7729166667" lon="6.20231945058">
		<tag k="name" v="Selvågane" />
		<tag k="natural" v="bay" />
		<tag k="ssr:stedsnr" v="822230" />
	</node>
	<node id="-546199" lat="61.7910249999" lon="6.11088055635">
		<tag k="name" v="Sandnesvika" />
		<tag k="natural" v="bay" />
		<tag k="ssr:stedsnr" v="154131" />
	</node>
	<node id="-546369" lat="61.8132305576" lon="6.08134999413">
		<tag k="name" v="Bjørgasvaet" />
		<tag k="natural" v="cape" />
		<tag k="ssr:stedsnr" v="215053" />
	</node>
	<node id="-545152" lat="61.8483499999" lon="5.83963610467">
		<tag k="alt_name" v="Sælebotneset" />
		<tag k="name" v="Fremsteneset" />
		<tag k="natural" v="cape" />
		<tag k="ssr:stedsnr" v="275271" />
	</node>
	<node id="-545151" lat="61.8549972263" lon="5.85661666423">
		<tag k="name" v="Slettebakkneset" />
		<tag k="natural" v="cape" />
		<tag k="ssr:stedsnr" v="275266" />
	</node>
	<node id="-547710" lat="61.8263499996" lon="6.05634443835">
		<tag k="name" v="Devika" />
		<tag k="natural" v="bay" />
		<tag k="ssr:stedsnr" v="822008" />
	</node>
	<node id="-545147" lat="61.7333972266" lon="5.91631666918">
		<tag k="name" v="Åvågen" />
		<tag k="natural" v="bay" />
		<tag k="ssr:stedsnr" v="270810" />
	</node>
	<node id="-545658" lat="61.7853194403" lon="6.18068610881">
		<tag k="name" v="Skrivarvik" />
		<tag k="natural" v="bay" />
		<tag k="ssr:stedsnr" v="883260" />
	</node>
	<node id="-545655" lat="61.7825055514" lon="6.19459445203">
		<tag k="name" v="Kattahamrane" />
		<tag k="place" v="locality" />
		<tag k="ssr:stedsnr" v="883244" />
	</node>
	<node id="-547702" lat="61.6767472242" lon="5.79786387947">
		<tag k="name" v="Elvaneset" />
		<tag k="natural" v="cape" />
		<tag k="ssr:stedsnr" v="821701" />
	</node>
	<node id="-547701" lat="61.6632083299" lon="5.7934777813">
		<tag k="name" v="Øykevikholmen" />
		<tag k="place" v="islet" />
		<tag k="ssr:stedsnr" v="821698" />
	</node>
	<node id="-546676" lat="61.7521055514" lon="5.94971944144">
		<tag k="name" v="Gjærvika" />
		<tag k="natural" v="bay" />
		<tag k="ssr:stedsnr" v="464074" />
	</node>
	<node id="-547184" lat="61.8281777794" lon="5.97849167337">
		<tag k="name" v="Hamreneset" />
		<tag k="natural" v="cape" />
		<tag k="ssr:stedsnr" v="639517" />
	</node>
	<node id="-545341" lat="61.7369138907" lon="5.92265833855">
		<tag k="name" v="Åreneset" />
		<tag k="natural" v="cape" />
		<tag k="ssr:stedsnr" v="336250" />
	</node>
	<node id="-545170" lat="61.6182499993" lon="5.69605833596">
		<tag k="name" v="Vassendeholmen" />
		<tag k="place" v="islet" />
		<tag k="ssr:stedsnr" v="275471" />
	</node>
	<node id="-545641" lat="61.7822277781" lon="6.11731667579">
		<tag k="name" v="Sandsvika" />
		<tag k="natural" v="bay" />
		<tag k="ssr:stedsnr" v="883098" />
	</node>
	<node id="-545638" lat="61.7486277751" lon="6.06601667168">
		<tag k="name" v="Høyneset" />
		<tag k="natural" v="cape" />
		<tag k="ssr:stedsnr" v="883063" />
	</node>
	<node id="-546651" lat="61.7926888891" lon="5.97988889425">
		<tag k="name" v="Gjølsvorneset" />
		<tag k="natural" v="cape" />
		<tag k="ssr:stedsnr" v="458495" />
	</node>
	<node id="-546650" lat="61.7989416705" lon="5.98040278595">
		<tag k="name" v="Lindeneset" />
		<tag k="natural" v="cape" />
		<tag k="ssr:stedsnr" v="458493" />
	</node>
	<node id="-546649" lat="61.8383888881" lon="5.97945276971">
		<tag k="name" v="Steinvika" />
		<tag k="natural" v="bay" />
		<tag k="ssr:stedsnr" v="458490" />
	</node>
	<node id="-547159" lat="61.8513305588" lon="5.84932500718">
		<tag k="name" v="Hamnen" />
		<tag k="natural" v="bay" />
		<tag k="ssr:stedsnr" v="639306" />
	</node>
	<node id="-546132" lat="61.7730972223" lon="6.19679167115">
		<tag k="name" v="Elvaneset" />
		<tag k="natural" v="cape" />
		<tag k="ssr:stedsnr" v="141587" />
	</node>
	<node id="-547640" lat="61.8560944491" lon="5.86751111781">
		<tag k="name" v="Metteneset" />
		<tag k="natural" v="cape" />
		<tag k="ssr:stedsnr" v="799646" />
	</node>
	<node id="-547150" lat="61.7680666688" lon="6.19452499928">
		<tag k="name" v="Fitjefjøra" />
		<tag k="natural" v="beach" />
		<tag k="place" v="locality" />
		<tag k="ssr:stedsnr" v="639221" />
	</node>
	<node id="-547659" lat="61.8440000021" lon="6.23784166409">
		<tag k="name" v="Sageneset" />
		<tag k="natural" v="cape" />
		<tag k="ssr:stedsnr" v="817939" />
	</node>
	<node id="-547654" lat="61.8203861073" lon="5.97024444522">
		<tag k="name" v="Breivika" />
		<tag k="natural" v="bay" />
		<tag k="ssr:stedsnr" v="809601" />
	</node>
	<node id="-545249" lat="61.7445861103" lon="5.91235833924">
		<tag k="name" v="Kalleklova" />
		<tag k="natural" v="bay" />
		<tag k="ssr:stedsnr" v="282082" />
	</node>
	<node id="-546113" lat="61.8338333348" lon="6.08653332646">
		<tag k="name" v="Skytbåsvika" />
		<tag k="natural" v="bay" />
		<tag k="ssr:stedsnr" v="131700" />
	</node>
	<node id="-547648" lat="61.7921888868" lon="6.11088055367">
		<tag k="alt_name" v="Sandnesodden" />
		<tag k="name" v="Sandneset" />
		<tag k="natural" v="cape" />
		<tag k="ssr:stedsnr" v="799750" />
	</node>
	<node id="-547133" lat="61.7750888934" lon="6.13997223059">
		<tag k="fixme" v="consider seamark:type=rock or natural=shoal" />
		<tag k="name" v="Langeskjeret" />
		<tag k="place" v="islet" />
		<tag k="ssr:stedsnr" v="639114" />
	</node>
	<node id="-545594" lat="61.7805583343" lon="6.20706944874">
		<tag k="name" v="Øyravika" />
		<tag k="natural" v="shoal" />
		<tag k="place" v="locality" />
		<tag k="ssr:stedsnr" v="403981" />
	</node>
	<node id="-547641" lat="61.8191805577" lon="6.07248332488">
		<tag k="name" v="Digreneset" />
		<tag k="natural" v="cape" />
		<tag k="ssr:stedsnr" v="799723" />
	</node>
	<node id="-546616" lat="61.8411305574" lon="6.09148889067">
		<tag k="name" v="Røssvika" />
		<tag k="natural" v="bay" />
		<tag k="ssr:stedsnr" v="458040" />
	</node>
	<node id="-547122" lat="61.8268861068" lon="6.10019999554">
		<tag k="name" v="Sandvika" />
		<tag k="natural" v="bay" />
		<tag k="ssr:stedsnr" v="639021" />
	</node>
	<node id="-545757" lat="61.8460833304" lon="6.08066110772">
		<tag k="name" v="Anda" />
		<tag k="natural" v="cape" />
		<tag k="ssr:stedsnr" v="10681" />
	</node>
	<node id="-545330" lat="61.7356472249" lon="6.34454444134">
		<tag k="name" v="Restranda" />
		<tag k="natural" v="beach" />
		<tag k="place" v="locality" />
		<tag k="ssr:stedsnr" v="336191" />
	</node>
	<node id="-547108" lat="61.7902777807" lon="5.96319999228">
		<tag k="name" v="Halvrø" />
		<tag k="natural" v="cape" />
		<tag k="ssr:stedsnr" v="617732" />
	</node>
	<node id="-545571" lat="61.8432888854" lon="6.03910555176">
		<tag k="name" v="Naustneset" />
		<tag k="natural" v="cape" />
		<tag k="ssr:stedsnr" v="397471" />
	</node>
	<node id="-545569" lat="61.836772222" lon="5.99526666938">
		<tag k="name" v="Garneset" />
		<tag k="natural" v="cape" />
		<tag k="ssr:stedsnr" v="397463" />
	</node>
	<node id="-545561" lat="61.8199249976" lon="5.99118889547">
		<tag k="alt_name" v="Vårstølneset" />
		<tag k="name" v="Vårstøylneset" />
		<tag k="natural" v="cape" />
		<tag k="ssr:stedsnr" v="397426" />
	</node>
	<node id="-545551" lat="61.6755749981" lon="6.05540000737">
		<tag k="name" v="Vika" />
		<tag k="natural" v="bay" />
		<tag k="ssr:stedsnr" v="397100" />
	</node>
	<node id="-547086" lat="61.8207527785" lon="6.06661389446">
		<tag k="name" v="Djupevika" />
		<tag k="natural" v="bay" />
		<tag k="ssr:stedsnr" v="616689" />
	</node>
	<node id="-547085" lat="61.8371055514" lon="6.10443055444">
		<tag k="name" v="Holmen" />
		<tag k="natural" v="cape" />
		<tag k="ssr:stedsnr" v="616682" />
	</node>
	<node id="-547084" lat="61.8354333369" lon="6.20053332901">
		<tag k="name" v="Flatestranda" />
		<tag k="natural" v="beach" />
		<tag k="place" v="locality" />
		<tag k="ssr:stedsnr" v="616677" />
	</node>
	<node id="-547593" lat="61.7682750027" lon="5.9691277738">
		<tag k="name" v="Jonsokberg" />
		<tag k="natural" v="cape" />
		<tag k="ssr:stedsnr" v="767160" />
	</node>
	<node id="-545544" lat="61.8455694458" lon="6.0850222313">
		<tag k="name" v="Bondevika" />
		<tag k="natural" v="bay" />
		<tag k="ssr:stedsnr" v="397034" />
	</node>
	<node id="-546047" lat="61.7496805535" lon="5.94406666555">
		<tag k="name" v="Holmesund" />
		<tag k="natural" v="strait" />
		<tag k="ssr:stedsnr" v="100055" />
	</node>
	<node id="-546558" lat="61.7556027816" lon="5.92543888867">
		<tag k="name" v="Seltufta" />
		<tag k="natural" v="cape" />
		<tag k="ssr:stedsnr" v="445601" />
	</node>
	<node id="-546044" lat="61.7393333325" lon="6.56174166598">
		<tag k="name" v="Tjørnaholmen" />
		<tag k="natural" v="cape" />
		<tag k="ssr:stedsnr" v="94944" />
	</node>
	<node id="-546550" lat="61.833516665" lon="6.18355278282">
		<tag k="name" v="Ryssfjæra" />
		<tag k="natural" v="cape" />
		<tag k="ssr:stedsnr" v="435709" />
	</node>
	<node id="-547569" lat="61.8510527759" lon="5.95499722761">
		<tag k="name" v="Ramsevika" />
		<tag k="natural" v="bay" />
		<tag k="ssr:stedsnr" v="761472" />
	</node>
	<node id="-546020" lat="61.7535777808" lon="6.25151389302">
		<tag k="name" v="Jørnholmen" />
		<tag k="place" v="islet" />
		<tag k="ssr:stedsnr" v="94237" />
	</node>
	<node id="-547040" lat="61.8247083351" lon="6.09996111186">
		<tag k="name" v="Hjelmneset" />
		<tag k="natural" v="cape" />
		<tag k="ssr:stedsnr" v="586206" />
	</node>
	<node id="-547039" lat="61.7722305592" lon="6.15755277177">
		<tag k="name" v="Arnestadneset" />
		<tag k="natural" v="cape" />
		<tag k="ssr:stedsnr" v="585861" />
	</node>
	<node id="-547548" lat="61.6739694487" lon="6.05819722453">
		<tag k="name" v="Neset" />
		<tag k="natural" v="cape" />
		<tag k="ssr:stedsnr" v="761096" />
	</node>
	<node id="-546006" lat="61.8013222257" lon="6.09774167405">
		<tag k="name" v="Fløsteinneset" />
		<tag k="natural" v="cape" />
		<tag k="ssr:stedsnr" v="94053" />
	</node>
	<node id="-545493" lat="61.7433166686" lon="5.9278499966">
		<tag k="name" v="Klubben" />
		<tag k="natural" v="cape" />
		<tag k="ssr:stedsnr" v="396203" />
	</node>
	<node id="-547016" lat="61.8387111071" lon="5.99993056221">
		<tag k="alt_name" v="Flua" />
		<tag k="name" v="Fluna" />
		<tag k="natural" v="shoal" />
		<tag k="place" v="locality" />
		<tag k="ssr:stedsnr" v="579500" />
	</node>
	<node id="-547015" lat="61.8503055546" lon="5.96594445227">
		<tag k="name" v="Gulsteinvika" />
		<tag k="natural" v="bay" />
		<tag k="ssr:stedsnr" v="579474" />
	</node>
	<node id="-546678" lat="61.8414861153" lon="6.09352777673">
		<tag k="name" v="Verpingsvika" />
		<tag k="natural" v="bay" />
		<tag k="ssr:stedsnr" v="464957" />
	</node>
	<node id="-545471" lat="61.8074166707" lon="6.08537499059">
		<tag k="name" v="Sandstranda" />
		<tag k="natural" v="beach" />
		<tag k="place" v="locality" />
		<tag k="ssr:stedsnr" v="374703" />
	</node>
	<node id="-546494" lat="61.7579000004" lon="5.95964166824">
		<tag k="name" v="Almen" />
		<tag k="natural" v="cape" />
		<tag k="ssr:stedsnr" v="253851" />
	</node>
	<node id="-546677" lat="61.8248638848" lon="5.97555000124">
		<tag k="name" v="Skjerdalshamrane" />
		<tag k="natural" v="cape" />
		<tag k="ssr:stedsnr" v="464158" />
	</node>
	<node id="-547004" lat="61.7821861121" lon="6.20239445258">
		<tag k="name" v="Øyrane" />
		<tag k="natural" v="cape" />
		<tag k="ssr:stedsnr" v="579212" />
	</node>
	<node id="-547003" lat="61.7561722267" lon="6.23812777942">
		<tag k="name" v="Øyna" />
		<tag k="natural" v="cape" />
		<tag k="ssr:stedsnr" v="579204" />
	</node>
	<node id="-546490" lat="61.7923944443" lon="5.96348333671">
		<tag k="name" v="Uraneset" />
		<tag k="natural" v="cape" />
		<tag k="ssr:stedsnr" v="253724" />
	</node>
	<node id="-546487" lat="61.8200249988" lon="6.11312500255">
		<tag k="name" v="Jørenvika" />
		<tag k="natural" v="bay" />
		<tag k="ssr:stedsnr" v="253698" />
	</node>
	<node id="-546991" lat="61.7873000027" lon="6.11082221638">
		<tag k="alt_name" v="Gjeilvika" />
		<tag k="name" v="Hjellvika" />
		<tag k="natural" v="bay" />
		<tag k="ssr:stedsnr" v="579110" />
	</node>
	<node id="-547500" lat="61.8551861093" lon="5.874113889">
		<tag k="name" v="Årevik" />
		<tag k="natural" v="bay" />
		<tag k="ssr:stedsnr" v="760304" />
	</node>
	<node id="-547498" lat="61.852047218" lon="5.84988055337">
		<tag k="name" v="Vikane" />
		<tag k="natural" v="bay" />
		<tag k="ssr:stedsnr" v="760295" />
	</node>
	<node id="-545952" lat="61.8574000039" lon="5.91758888665">
		<tag k="name" v="Sauhammarvika" />
		<tag k="natural" v="bay" />
		<tag k="ssr:stedsnr" v="93235" />
	</node>
	<node id="-547997" lat="61.7194555523" lon="6.36970554753">
		<tag k="name" v="Restranda" />
		<tag k="natural" v="beach" />
		<tag k="place" v="locality" />
		<tag k="ssr:stedsnr" v="944174" />
	</node>
	<node id="-547484" lat="61.7991833307" lon="6.10169999091">
		<tag k="name" v="Skorgesaga" />
		<tag k="natural" v="cape" />
		<tag k="ssr:stedsnr" v="738742" />
	</node>
	<node id="-546971" lat="61.6647305591" lon="5.78110555339">
		<tag k="name" v="Høgeholmen" />
		<tag k="place" v="islet" />
		<tag k="ssr:stedsnr" v="578653" />
	</node>
	<node id="-545939" lat="61.8102527769" lon="5.98378333467">
		<tag k="name" v="Helleneset" />
		<tag k="natural" v="cape" />
		<tag k="ssr:stedsnr" v="71742" />
	</node>
	<node id="-545424" lat="61.8432916692" lon="5.82236388564">
		<tag k="name" v="Vikastranda" />
		<tag k="natural" v="beach" />
		<tag k="place" v="locality" />
		<tag k="ssr:stedsnr" v="353759" />
	</node>
	<node id="-546956" lat="61.7470833299" lon="5.93380556374">
		<tag k="name" v="Furuholmen" />
		<tag k="place" v="islet" />
		<tag k="ssr:stedsnr" v="578426" />
	</node>
	<node id="-545418" lat="61.8306500025" lon="6.12704445256">
		<tag k="name" v="Finnvika" />
		<tag k="natural" v="bay" />
		<tag k="ssr:stedsnr" v="342947" />
	</node>
	<node id="-546938" lat="61.8535249959" lon="5.85222499378">
		<tag k="name" v="Sælebota" />
		<tag k="natural" v="bay" />
		<tag k="ssr:stedsnr" v="578275" />
	</node>
	<node id="-547960" lat="61.7694777802" lon="5.94571944641">
		<tag k="name" v="Svinevika" />
		<tag k="natural" v="bay" />
		<tag k="ssr:stedsnr" v="943513" />
	</node>
	<node id="-547447" lat="61.8470472197" lon="6.25513610997">
		<tag k="name" v="Jarbarneset" />
		<tag k="natural" v="cape" />
		<tag k="ssr:stedsnr" v="738025" />
	</node>
	<node id="-546934" lat="61.7321749997" lon="5.91659166101">
		<tag k="alt_name" v="Måse Øya" />
		<tag k="name" v="Måseøya" />
		<tag k="place" v="island" />
		<tag k="ssr:stedsnr" v="578223" />
	</node>
	<node id="-546418" lat="61.7374361085" lon="5.9160861079">
		<tag k="name" v="Straumsholmen" />
		<tag k="place" v="islet" />
		<tag k="ssr:stedsnr" v="221060" />
	</node>
	<node id="-545905" lat="61.8356583331" lon="6.07898610291">
		<tag k="name" v="Staveneset" />
		<tag k="natural" v="cape" />
		<tag k="ssr:stedsnr" v="70691" />
	</node>
	<node id="-547951" lat="61.8442527798" lon="6.0213833392">
		<tag k="name" v="Fantevika" />
		<tag k="natural" v="bay" />
		<tag k="ssr:stedsnr" v="943444" />
	</node>
	<node id="-545469" lat="61.812761109" lon="6.131808329">
		<tag k="alt_name" v="Brynesteinvika" />
		<tag k="name" v="Brynesteinsvika" />
		<tag k="natural" v="bay" />
		<tag k="ssr:stedsnr" v="374701" />
	</node>
	<node id="-546046" lat="61.7646083366" lon="6.1817833386">
		<tag k="name" v="Fitjeleira" />
		<tag k="natural" v="beach" />
		<tag k="place" v="locality" />
		<tag k="ssr:stedsnr" v="99184" />
	</node>
	<node id="-547428" lat="61.7411722233" lon="6.57090832485">
		<tag k="name" v="Sandalsodden" />
		<tag k="natural" v="cape" />
		<tag k="ssr:stedsnr" v="701927" />
	</node>
	<node id="-545467" lat="61.872383337" lon="5.85218333337">
		<tag k="alt_name" v="Hunvikfjorden" />
		<tag k="bay" v="fjord" />
		<tag k="name" v="Hundvikfjorden" />
		<tag k="natural" v="bay" />
		<tag k="ssr:stedsnr" v="374616" />
	</node>
	<node id="-545376" lat="61.6110277752" lon="5.7104749933">
		<tag k="name" v="Eimhjellevassenden" />
		<tag k="natural" v="bay" />
		<tag k="ssr:stedsnr" v="336505" />
	</node>
	<node id="-545881" lat="61.8507500035" lon="5.81719999288">
		<tag k="bay" v="fjord" />
		<tag k="name" v="Elvafjorden" />
		<tag k="natural" v="bay" />
		<tag k="ssr:stedsnr" v="50707" />
	</node>
	<node id="-547927" lat="61.8576083331" lon="5.89505833879">
		<tag k="name" v="Joøyrastranda" />
		<tag k="natural" v="beach" />
		<tag k="place" v="locality" />
		<tag k="ssr:stedsnr" v="943306" />
	</node>
	<node id="-545877" lat="61.8473027806" lon="6.25171110578">
		<tag k="name" v="Gjeddegrovvika" />
		<tag k="natural" v="bay" />
		<tag k="ssr:stedsnr" v="39964" />
	</node>
	<node id="-547598" lat="61.746688887" lon="5.92448334235">
		<tag k="bay" v="fjord" />
		<tag k="name" v="Hyefjorden" />
		<tag k="natural" v="bay" />
		<tag k="ssr:stedsnr" v="797384" />
	</node>
	<node id="-547922" lat="61.7833944424" lon="6.18316667506">
		<tag k="name" v="Døsaneset" />
		<tag k="natural" v="cape" />
		<tag k="ssr:stedsnr" v="943223" />
	</node>
	<node id="-547408" lat="61.7531111117" lon="6.25773888307">
		<tag k="name" v="Aniasvalen" />
		<tag k="natural" v="cape" />
		<tag k="ssr:stedsnr" v="701301" />
	</node>
	<node id="-547913" lat="61.7484999985" lon="6.06187777083">
		<tag k="name" v="Grovaneset" />
		<tag k="natural" v="cape" />
		<tag k="ssr:stedsnr" v="943072" />
	</node>
	<node id="-545377" lat="61.6142472264" lon="5.70599721853">
		<tag k="name" v="Grønevika" />
		<tag k="natural" v="bay" />
		<tag k="ssr:stedsnr" v="336507" />
	</node>
	<node id="-547393" lat="61.7490944462" lon="6.30106666078">
		<tag k="name" v="Neset" />
		<tag k="natural" v="cape" />
		<tag k="ssr:stedsnr" v="701168" />
	</node>
	<node id="-545853" lat="61.7957305516" lon="5.98094165802">
		<tag k="name" v="Vetleneset" />
		<tag k="natural" v="cape" />
		<tag k="ssr:stedsnr" v="33479" />
	</node>
	<node id="-547894" lat="61.7827388907" lon="6.19197777851">
		<tag k="name" v="Kattahamrane" />
		<tag k="natural" v="cape" />
		<tag k="ssr:stedsnr" v="920731" />
	</node>
	<node id="-546869" lat="61.7651638882" lon="6.17951389257">
		<tag k="name" v="Fitjevika" />
		<tag k="natural" v="bay" />
		<tag k="ssr:stedsnr" v="524145" />
	</node>
	<node id="-547380" lat="61.8041999968" lon="6.09242778068">
		<tag k="name" v="Moseurneset" />
		<tag k="natural" v="cape" />
		<tag k="ssr:stedsnr" v="701054" />
	</node>
	<node id="-546354" lat="61.6715444407" lon="5.79229999183">
		<tag k="name" v="Sundet" />
		<tag k="natural" v="strait" />
		<tag k="ssr:stedsnr" v="214710" />
	</node>
	<node id="-547889" lat="61.8163083379" lon="6.11848889323">
		<tag k="name" v="Giljeneset" />
		<tag k="natural" v="cape" />
		<tag k="ssr:stedsnr" v="920695" />
	</node>
	<node id="-547373" lat="61.6500888925" lon="5.80745833105">
		<tag k="name" v="Ormeneset" />
		<tag k="natural" v="cape" />
		<tag k="ssr:stedsnr" v="700733" />
	</node>
	<node id="-545362" lat="61.8448194461" lon="5.98523889295">
		<tag k="name" v="Jektehammaren" />
		<tag k="place" v="locality" />
		<tag k="ssr:stedsnr" v="336406" />
	</node>
	<node id="-546340" lat="61.8322055514" lon="5.99817777839">
		<tag k="name" v="Langenesvika" />
		<tag k="natural" v="bay" />
		<tag k="ssr:stedsnr" v="214390" />
	</node>
	<node id="-545313" lat="61.8480833357" lon="5.83936665961">
		<tag k="name" v="Fremsteneset" />
		<tag k="natural" v="cape" />
		<tag k="ssr:stedsnr" v="323533" />
	</node>
	<node id="-545821" lat="61.713291664" lon="5.78242500448">
		<tag k="name" v="Storevika" />
		<tag k="natural" v="bay" />
		<tag k="ssr:stedsnr" v="32645" />
	</node>
	<node id="-546842" lat="61.6579166666" lon="6.41108054979">
		<tag k="name" v="Langeneset" />
		<tag k="natural" v="cape" />
		<tag k="ssr:stedsnr" v="519164" />
	</node>
	<node id="-547345" lat="61.8425472196" lon="5.98482500127">
		<tag k="name" v="Atterekeneset" />
		<tag k="natural" v="cape" />
		<tag k="ssr:stedsnr" v="700438" />
	</node>
	<node id="-547344" lat="61.8338499996" lon="5.995647224">
		<tag k="name" v="Langeneset" />
		<tag k="natural" v="cape" />
		<tag k="ssr:stedsnr" v="700427" />
	</node>
	<node id="-547343" lat="61.8289027797" lon="5.99430278489">
		<tag k="name" v="Rundeeikeneset" />
		<tag k="natural" v="cape" />
		<tag k="ssr:stedsnr" v="700424" />
	</node>
	<node id="-545294" lat="61.8368194411" lon="5.99654999393">
		<tag k="name" v="Eikenes" />
		<tag k="natural" v="cape" />
		<tag k="ssr:stedsnr" v="313657" />
	</node>
	<node id="-546391" lat="61.8007444441" lon="5.98296388506">
		<tag k="fixme" v="consider seamark:type=rock or natural=shoal" />
		<tag k="name" v="Vetlefløga" />
		<tag k="place" v="islet" />
		<tag k="ssr:stedsnr" v="215453" />
	</node>
	<node id="-546309" lat="61.750358329" lon="5.93995834055">
		<tag k="name" v="Holmen" />
		<tag k="place" v="islet" />
		<tag k="ssr:stedsnr" v="192797" />
	</node>
</osm>
