<?xml version="1.0" encoding="UTF-8"?>
<osm generator="osmapis" version="0.6">
	<node id="-547199" lat="61.754049997" lon="6.22336388131">
		<tag k="fixme" v="consider highway=path" />
		<tag k="highway" v="track" />
		<tag k="name" v="Jardalsvegen" />
		<tag k="ssr:stedsnr" v="215229" />
	</node>
	<node id="-546410" lat="61.748327776" lon="5.94468333937">
		<tag k="bridge" v="yes" />
		<tag k="layer" v="1" />
		<tag k="name" v="Holme" />
		<tag k="ssr:stedsnr" v="411699" />
	</node>
	<node id="-547583" lat="61.7132833329" lon="5.81038055201">
		<tag k="highway" v="path" />
		<tag k="name" v="Rømmestien" />
		<tag k="ssr:stedsnr" v="518257" />
	</node>
	<node id="-547960" lat="61.7534944447" lon="6.2102083422">
		<tag k="highway" v="path" />
		<tag k="name" v="Mardalstølsvegen" />
		<tag k="ssr:stedsnr" v="639213" />
	</node>
	<node id="-547049" lat="61.7558027733" lon="6.32092777089">
		<tag k="layer" v="-1" />
		<tag k="name" v="Breimsfjell I" />
		<tag k="ssr:stedsnr" v="165110" />
		<tag k="tunnel" v="yes" />
	</node>
	<node id="-547443" lat="61.6963694423" lon="6.33439444364">
		<tag k="fixme" v="consider highway=path" />
		<tag k="highway" v="track" />
		<tag k="name" v="Stølsvegen" />
		<tag k="ssr:stedsnr" v="458175" />
	</node>
	<node id="-547054" lat="61.7042166677" lon="6.53338055442">
		<tag k="bridge" v="yes" />
		<tag k="layer" v="1" />
		<tag k="name" v="Strand" />
		<tag k="ssr:stedsnr" v="169727" />
	</node>
	<node id="-548589" lat="61.7614888896" lon="6.25488611212">
		<tag k="bridge" v="yes" />
		<tag k="layer" v="1" />
		<tag k="name" v="Grasdalen" />
		<tag k="ssr:stedsnr" v="836709" />
	</node>
	<node id="-548588" lat="61.8399583318" lon="6.00508611462">
		<tag k="bridge" v="yes" />
		<tag k="layer" v="1" />
		<tag k="name" v="Hestenes" />
		<tag k="ssr:stedsnr" v="836706" />
	</node>
	<node id="-548587" lat="61.8227444429" lon="6.11195555522">
		<tag k="bridge" v="yes" />
		<tag k="layer" v="1" />
		<tag k="name" v="Andenes" />
		<tag k="ssr:stedsnr" v="836695" />
	</node>
	<node id="-547050" lat="61.7385138892" lon="5.91434166056">
		<tag k="bridge" v="yes" />
		<tag k="layer" v="1" />
		<tag k="name" v="Straume" />
		<tag k="ssr:stedsnr" v="168737" />
	</node>
	<node id="-546409" lat="61.7971166653" lon="5.98188888867">
		<tag k="layer" v="-1" />
		<tag k="name" v="Fløga" />
		<tag k="ssr:stedsnr" v="408449" />
		<tag k="tunnel" v="yes" />
	</node>
	<node id="-547686" lat="61.7046861136" lon="6.37833332666">
		<tag k="bridge" v="yes" />
		<tag k="layer" v="1" />
		<tag k="name" v="Nes" />
		<tag k="ssr:stedsnr" v="533733" />
	</node>
	<node id="-547685" lat="61.774013892" lon="6.22764722063">
		<tag k="bridge" v="yes" />
		<tag k="layer" v="1" />
		<tag k="name" v="Holvik" />
		<tag k="ssr:stedsnr" v="533729" />
	</node>
	<node id="-547684" lat="61.7514833345" lon="6.30688611399">
		<tag k="layer" v="-1" />
		<tag k="name" v="Breimsfjell II" />
		<tag k="ssr:stedsnr" v="529109" />
		<tag k="tunnel" v="yes" />
	</node>
	<node id="-547555" lat="61.614761108" lon="5.67815555563">
		<tag k="landuse" v="industrial" />
		<tag k="name" v="Sagefossen kraftverk" />
		<tag k="power" v="plant" />
		<tag k="ssr:stedsnr" v="512604" />
	</node>
	<node id="-546402" lat="61.7139555568" lon="6.41889999611">
		<tag k="highway" v="path" />
		<tag k="name" v="Gjøttestien" />
		<tag k="ssr:stedsnr" v="397891" />
	</node>
	<node id="-547805" lat="61.7885027788" lon="6.10937499824">
		<tag k="highway" v="path" />
		<tag k="name" v="Flotevegen" />
		<tag k="ssr:stedsnr" v="579109" />
	</node>
	<node id="-548824" lat="61.7198138845" lon="5.82437777674">
		<tag k="bridge" v="yes" />
		<tag k="layer" v="1" />
		<tag k="name" v="Listøylgrova" />
		<tag k="ssr:stedsnr" v="957736" />
	</node>
	<node id="-548823" lat="61.8464441599" lon="6.08194921367">
		<tag k="amenity" v="ferry_terminal" />
		<tag k="name" v="Anda ferjekai" />
		<tag k="ssr:stedsnr" v="957708" />
	</node>
	<node id="-548822" lat="61.8381027751" lon="6.04584999973">
		<tag k="layer" v="-1" />
		<tag k="name" v="Omnen" />
		<tag k="ssr:stedsnr" v="954363" />
		<tag k="tunnel" v="yes" />
	</node>
	<node id="-547854" lat="61.7469083346" lon="6.27239443978">
		<tag k="bridge" v="yes" />
		<tag k="layer" v="1" />
		<tag k="name" v="Ryssdal" />
		<tag k="ssr:stedsnr" v="593662" />
	</node>
	<node id="-548050" lat="61.749777781" lon="6.2766861108">
		<tag k="bridge" v="yes" />
		<tag k="layer" v="1" />
		<tag k="name" v="Trysilfoss" />
		<tag k="ssr:stedsnr" v="654747" />
	</node>
	<node id="-548049" lat="61.7324277822" lon="6.50690277878">
		<tag k="bridge" v="yes" />
		<tag k="layer" v="1" />
		<tag k="name" v="Byrkjelo" />
		<tag k="ssr:stedsnr" v="654727" />
	</node>
	<node id="-548048" lat="61.7742388911" lon="6.22973888775">
		<tag k="bridge" v="yes" />
		<tag k="layer" v="1" />
		<tag k="name" v="Holvikelva" />
		<tag k="ssr:stedsnr" v="654718" />
	</node>
	<node id="-548047" lat="61.7337527748" lon="6.4339194418">
		<tag k="bridge" v="yes" />
		<tag k="layer" v="1" />
		<tag k="name" v="Jordanger" />
		<tag k="ssr:stedsnr" v="654716" />
	</node>
	<node id="-548046" lat="61.7633166662" lon="5.96523333004">
		<tag k="layer" v="-1" />
		<tag k="name" v="Skasvora" />
		<tag k="ssr:stedsnr" v="650731" />
		<tag k="tunnel" v="yes" />
	</node>
	<node id="-546504" lat="61.7740666677" lon="5.97209166936">
		<tag k="bridge" v="yes" />
		<tag k="layer" v="1" />
		<tag k="name" v="Osmundsnes" />
		<tag k="ssr:stedsnr" v="897694" />
	</node>
	<node id="-546503" lat="61.7764472202" lon="6.21620833356">
		<tag k="bridge" v="yes" />
		<tag k="layer" v="1" />
		<tag k="name" v="Farger" />
		<tag k="ssr:stedsnr" v="897692" />
	</node>
	<node id="-547492" lat="61.8135944403" lon="5.99033610343">
		<tag k="layer" v="-1" />
		<tag k="name" v="Skavstø" />
		<tag k="ssr:stedsnr" v="469756" />
		<tag k="tunnel" v="yes" />
	</node>
	<node id="-546412" lat="61.7842805516" lon="6.11528888636">
		<tag k="bridge" v="yes" />
		<tag k="layer" v="1" />
		<tag k="name" v="Kvitefella" />
		<tag k="ssr:stedsnr" v="411710" />
	</node>
	<node id="-548032" lat="61.7196472192" lon="6.51116111279">
		<tag k="highway" v="path" />
		<tag k="name" v="Gamlevegen" />
		<tag k="ssr:stedsnr" v="639868" />
	</node>
	<node id="-546238" lat="61.7362027782" lon="5.92415833257">
		<tag k="bridge" v="yes" />
		<tag k="layer" v="1" />
		<tag k="name" v="Åreneset" />
		<tag k="ssr:stedsnr" v="350716" />
	</node>
	<node id="-546237" lat="61.7498166625" lon="6.27955277623">
		<tag k="bridge" v="yes" />
		<tag k="layer" v="1" />
		<tag k="name" v="Kjørvik" />
		<tag k="ssr:stedsnr" v="350709" />
	</node>
	<node id="-546236" lat="61.6832416644" lon="6.51956388175">
		<tag k="bridge" v="yes" />
		<tag k="layer" v="1" />
		<tag k="name" v="Egge Store" />
		<tag k="ssr:stedsnr" v="350702" />
	</node>
	<node id="-546235" lat="61.7641083371" lon="6.21189722364">
		<tag k="bridge" v="yes" />
		<tag k="layer" v="1" />
		<tag k="name" v="Evebøfoss" />
		<tag k="ssr:stedsnr" v="350700" />
	</node>
	<node id="-546234" lat="61.7933861156" lon="5.9811388884">
		<tag k="layer" v="-1" />
		<tag k="name" v="Gjølsvora" />
		<tag k="ssr:stedsnr" v="347466" />
		<tag k="tunnel" v="yes" />
	</node>
	<node id="-548409" lat="61.7780083304" lon="6.49628334185">
		<tag k="bridge" v="yes" />
		<tag k="layer" v="1" />
		<tag k="name" v="Steffåstøylen" />
		<tag k="ssr:stedsnr" v="775722" />
	</node>
	<node id="-548408" lat="61.6665777764" lon="5.91901111733">
		<tag k="bridge" v="yes" />
		<tag k="layer" v="1" />
		<tag k="name" v="Mjellem" />
		<tag k="ssr:stedsnr" v="775716" />
	</node>
	<node id="-548407" lat="61.8207277811" lon="5.99201110365">
		<tag k="layer" v="-1" />
		<tag k="name" v="Eikenes" />
		<tag k="ssr:stedsnr" v="772418" />
		<tag k="tunnel" v="yes" />
	</node>
	<node id="-546356" lat="61.7597555577" lon="6.16952778599">
		<tag k="fixme" v="consider highway=path" />
		<tag k="highway" v="track" />
		<tag k="name" v="Snelivegen" />
		<tag k="ssr:stedsnr" v="397022" />
	</node>
	<node id="-546865" lat="61.7263166658" lon="5.92053610808">
		<tag k="bridge" v="yes" />
		<tag k="layer" v="1" />
		<tag k="name" v="Tverrelva" />
		<tag k="ssr:stedsnr" v="108733" />
	</node>
	<node id="-546864" lat="61.7308972203" lon="5.91643333041">
		<tag k="bridge" v="yes" />
		<tag k="layer" v="1" />
		<tag k="name" v="Å bru" />
		<tag k="ssr:stedsnr" v="108731" />
	</node>
	<node id="-546863" lat="61.7308638874" lon="5.91809999311">
		<tag k="bridge" v="yes" />
		<tag k="layer" v="1" />
		<tag k="name" v="Veslebrua" />
		<tag k="ssr:stedsnr" v="108730" />
	</node>
	<node id="-547374" lat="61.815488885" lon="5.99208611901">
		<tag k="layer" v="-1" />
		<tag k="name" v="Skavstøtunnelen" />
		<tag k="ssr:stedsnr" v="451480" />
		<tag k="tunnel" v="yes" />
	</node>
	<node id="-546411" lat="61.7460805593" lon="6.37494443942">
		<tag k="bridge" v="yes" />
		<tag k="layer" v="1" />
		<tag k="name" v="Sageflåten" />
		<tag k="ssr:stedsnr" v="411705" />
	</node>
	<node id="-547238" lat="61.7986000023" lon="6.16412778497">
		<tag k="bridge" v="yes" />
		<tag k="layer" v="1" />
		<tag k="name" v="Slagstad" />
		<tag k="ssr:stedsnr" v="229740" />
	</node>
	<node id="-547237" lat="61.6952083321" lon="6.36933611144">
		<tag k="bridge" v="yes" />
		<tag k="layer" v="1" />
		<tag k="name" v="Kandal Ytre" />
		<tag k="ssr:stedsnr" v="229729" />
	</node>
	<node id="-547236" lat="61.7841527748" lon="6.18386110425">
		<tag k="bridge" v="yes" />
		<tag k="layer" v="1" />
		<tag k="name" v="Haugselva" />
		<tag k="ssr:stedsnr" v="229719" />
	</node>
	<node id="-547235" lat="61.8128472224" lon="6.08108333461">
		<tag k="bridge" v="yes" />
		<tag k="layer" v="1" />
		<tag k="name" v="Jupevik" />
		<tag k="ssr:stedsnr" v="229717" />
	</node>
	<node id="-547234" lat="61.7836944481" lon="5.97606111137">
		<tag k="layer" v="-1" />
		<tag k="name" v="Kleppenes" />
		<tag k="ssr:stedsnr" v="226302" />
		<tag k="tunnel" v="yes" />
	</node>
	<node id="-547741" lat="61.8297805544" lon="6.10753888609">
		<tag k="aeroway" v="aerodrome" />
		<tag k="alt_name" v="Anda" />
		<tag k="name" v="Sandane lufthamn, Anda" />
		<tag k="old_name" v="Sandane lufthavn" />
		<tag k="ssr:stedsnr" v="570681" />
	</node>
	<node id="-547480" lat="61.7893361125" lon="6.51776944482">
		<tag k="fixme" v="consider highway=path" />
		<tag k="highway" v="track" />
		<tag k="name" v="Gamlevegen" />
		<tag k="ssr:stedsnr" v="458891" />
	</node>
	<node id="-548246" lat="61.7561972241" lon="6.23314166839">
		<tag k="bridge" v="yes" />
		<tag k="layer" v="1" />
		<tag k="name" v="Søreide" />
		<tag k="ssr:stedsnr" v="715744" />
	</node>
	<node id="-548245" lat="61.7789972248" lon="6.12421110225">
		<tag k="bridge" v="yes" />
		<tag k="layer" v="1" />
		<tag k="name" v="Rygg" />
		<tag k="ssr:stedsnr" v="715722" />
	</node>
	<node id="-548244" lat="61.7445055585" lon="6.5817305582">
		<tag k="bridge" v="yes" />
		<tag k="layer" v="1" />
		<tag k="name" v="Fossheim" />
		<tag k="ssr:stedsnr" v="715718" />
	</node>
	<node id="-546065" lat="61.7719111145" lon="6.10950000035">
		<tag k="bridge" v="yes" />
		<tag k="layer" v="1" />
		<tag k="name" v="Gjeregrova" />
		<tag k="ssr:stedsnr" v="290667" />
	</node>
	<node id="-547856" lat="61.8053694435" lon="6.14606667395">
		<tag k="bridge" v="yes" />
		<tag k="layer" v="1" />
		<tag k="name" v="Vereide" />
		<tag k="ssr:stedsnr" v="593669" />
	</node>
	<node id="-547855" lat="61.7990361083" lon="6.10140833527">
		<tag k="bridge" v="yes" />
		<tag k="layer" v="1" />
		<tag k="name" v="Skorge" />
		<tag k="ssr:stedsnr" v="593665" />
	</node>
	<node id="-548494" lat="61.8344305513" lon="5.99742500535">
		<tag k="landuse" v="harbour" />
		<tag k="name" v="Eikeneshamna" />
		<tag k="seamark:type" v="harbour" />
		<tag k="ssr:stedsnr" v="821402" />
	</node>
	<node id="-547053" lat="61.7441527787" lon="6.4914583315">
		<tag k="bridge" v="yes" />
		<tag k="layer" v="1" />
		<tag k="name" v="Moldestad" />
		<tag k="ssr:stedsnr" v="169720" />
	</node>
	<node id="-546690" lat="61.7947500004" lon="5.98456944835">
		<tag k="highway" v="path" />
		<tag k="name" v="Ulvestegane" />
		<tag k="ssr:stedsnr" v="39144" />
	</node>
	<node id="-546696" lat="61.8014611153" lon="5.98778334132">
		<tag k="layer" v="-1" />
		<tag k="loc_name" v="Fløgetunnelen" />
		<tag k="name" v="Fløgatunnelen" />
		<tag k="ssr:stedsnr" v="54477" />
		<tag k="tunnel" v="yes" />
	</node>
	<node id="-547052" lat="61.7286333379" lon="6.4836388907">
		<tag k="bridge" v="yes" />
		<tag k="layer" v="1" />
		<tag k="name" v="Skarveelva" />
		<tag k="ssr:stedsnr" v="169716" />
	</node>
	<node id="-546694" lat="61.7362305516" lon="5.91454444298">
		<tag k="bridge" v="yes" />
		<tag k="layer" v="1" />
		<tag k="name" v="Løkja" />
		<tag k="ssr:stedsnr" v="47731" />
	</node>
	<node id="-546693" lat="61.7545555576" lon="5.95473888675">
		<tag k="bridge" v="yes" />
		<tag k="layer" v="1" />
		<tag k="name" v="Sesselva" />
		<tag k="ssr:stedsnr" v="47730" />
	</node>
	<node id="-546665" lat="61.8465305572" lon="5.97523610806">
		<tag k="name" v="Rotekleiva" />
		<tag k="place" v="locality" />
		<tag k="ssr:stedsnr" v="33461" />
	</node>
	<node id="-547458" lat="61.8309333368" lon="6.19812499292">
		<tag k="highway" v="path" />
		<tag k="name" v="Langeskorvegen" />
		<tag k="ssr:stedsnr" v="458287" />
	</node>
	<node id="-547051" lat="61.6998888897" lon="6.5317583264">
		<tag k="bridge" v="yes" />
		<tag k="layer" v="1" />
		<tag k="name" v="Gåsemyr" />
		<tag k="ssr:stedsnr" v="169708" />
	</node>
</osm>
