<?xml version="1.0" encoding="UTF-8"?>
<osm generator="osmapis" version="0.6">
	<node id="-548351" lat="61.644394442" lon="5.73527221408">
		<tag k="name" v="Klipemyrane" />
		<tag k="natural" v="wetland" />
		<tag k="ssr:stedsnr" v="760734" />
	</node>
	<node id="-546810" lat="61.6831083336" lon="6.11517222786">
		<tag k="name" v="Måsevassøyna" />
		<tag k="natural" v="wetland" />
		<tag k="ssr:stedsnr" v="94112" />
	</node>
	<node id="-547839" lat="61.7522694482" lon="6.42571666974">
		<tag k="name" v="Skitnediket" />
		<tag k="natural" v="wetland" />
		<tag k="ssr:stedsnr" v="579843" />
	</node>
	<node id="-548344" lat="61.6313972219" lon="5.76048611946">
		<tag k="name" v="Piksteinen" />
		<tag k="natural" v="stone" />
		<tag k="ssr:stedsnr" v="760705" />
	</node>
	<node id="-548342" lat="61.670005559" lon="5.79577499367">
		<tag k="name" v="Sundsmyrane" />
		<tag k="natural" v="wetland" />
		<tag k="ssr:stedsnr" v="760689" />
	</node>
	<node id="-547826" lat="61.8263666671" lon="5.99925832614">
		<tag k="name" v="Sloka" />
		<tag k="natural" v="scree" />
		<tag k="ssr:stedsnr" v="579455" />
	</node>
	<node id="-547822" lat="61.801722218" lon="6.19488888833">
		<tag k="name" v="Breimyra" />
		<tag k="natural" v="wetland" />
		<tag k="ssr:stedsnr" v="579246" />
	</node>
	<node id="-546797" lat="61.7080555597" lon="5.77931944526">
		<tag k="name" v="Storenesmyra" />
		<tag k="natural" v="wetland" />
		<tag k="ssr:stedsnr" v="93592" />
	</node>
	<node id="-546471" lat="61.7443166678" lon="6.28415832675">
		<tag k="name" v="Åshjellmyra" />
		<tag k="natural" v="wetland" />
		<tag k="ssr:stedsnr" v="883254" />
	</node>
	<node id="-547300" lat="61.6791388887" lon="5.88126944663">
		<tag k="name" v="Pøylene" />
		<tag k="natural" v="wetland" />
		<tag k="ssr:stedsnr" v="253400" />
	</node>
	<node id="-546274" lat="61.756183337" lon="6.47604999636">
		<tag k="name" v="Langemyra" />
		<tag k="natural" v="wetland" />
		<tag k="ssr:stedsnr" v="374253" />
	</node>
	<node id="-547807" lat="61.7713222209" lon="6.09848333745">
		<tag k="name" v="Skjørsteinen" />
		<tag k="natural" v="stone" />
		<tag k="ssr:stedsnr" v="579119" />
	</node>
	<node id="-546782" lat="61.6864166682" lon="5.93510278094">
		<tag k="name" v="Kvitura" />
		<tag k="natural" v="scree" />
		<tag k="ssr:stedsnr" v="93395" />
	</node>
	<node id="-548314" lat="61.6451722179" lon="5.97779444321">
		<tag k="name" v="Sæteura" />
		<tag k="natural" v="scree" />
		<tag k="ssr:stedsnr" v="760305" />
	</node>
	<node id="-548816" lat="61.7451388849" lon="6.51492500347">
		<tag k="name" v="Orresteinen" />
		<tag k="natural" v="stone" />
		<tag k="ssr:stedsnr" v="944847" />
	</node>
	<node id="-546767" lat="61.8591138924" lon="5.9043083263">
		<tag k="name" v="Rundesteinen" />
		<tag k="natural" v="stone" />
		<tag k="ssr:stedsnr" v="93237" />
	</node>
	<node id="-547275" lat="61.76279167" lon="6.07434167025">
		<tag k="name" v="Hestesteinen" />
		<tag k="natural" v="stone" />
		<tag k="ssr:stedsnr" v="252761" />
	</node>
	<node id="-547786" lat="61.6812833336" lon="5.78670833554">
		<tag k="name" v="Liamyra" />
		<tag k="natural" v="wetland" />
		<tag k="ssr:stedsnr" v="578666" />
	</node>
	<node id="-547575" lat="61.7580972253" lon="6.09994444341">
		<tag k="name" v="Raudemyra" />
		<tag k="natural" v="wetland" />
		<tag k="ssr:stedsnr" v="518117" />
	</node>
	<node id="-547271" lat="61.7587222214" lon="6.15086110559">
		<tag k="name" v="Ospedalsmyra" />
		<tag k="natural" v="wetland" />
		<tag k="ssr:stedsnr" v="252729" />
	</node>
	<node id="-547780" lat="61.6528666682" lon="5.81719166779">
		<tag k="name" v="Kvitura" />
		<tag k="natural" v="scree" />
		<tag k="ssr:stedsnr" v="578639" />
	</node>
	<node id="-546806" lat="61.6581361146" lon="5.77149444542">
		<tag k="name" v="Svoramyra" />
		<tag k="natural" v="wetland" />
		<tag k="ssr:stedsnr" v="93672" />
	</node>
	<node id="-548802" lat="61.7558833338" lon="6.25522777523">
		<tag k="name" v="Kloppemyrane" />
		<tag k="natural" v="wetland" />
		<tag k="ssr:stedsnr" v="944207" />
	</node>
	<node id="-548800" lat="61.692861109" lon="6.62197500151">
		<tag k="name" v="Furemyra" />
		<tag k="natural" v="wetland" />
		<tag k="ssr:stedsnr" v="943901" />
	</node>
	<node id="-548281" lat="61.7572805553" lon="6.45573889615">
		<tag k="alt_name" v="Hesjemyrane" />
		<tag k="name" v="Hesjemyra" />
		<tag k="natural" v="wetland" />
		<tag k="ssr:stedsnr" v="738240" />
	</node>
	<node id="-548277" lat="61.7880496267" lon="6.4674866726">
		<tag k="alt_name" v="Stellemyra" />
		<tag k="name" v="Stillemyra" />
		<tag k="natural" v="wetland" />
		<tag k="ssr:stedsnr" v="738161" />
	</node>
	<node id="-548784" lat="61.6744472234" lon="5.77592222114">
		<tag k="name" v="Ospekupa" />
		<tag k="place" v="locality" />
		<tag k="ssr:stedsnr" v="943676" />
	</node>
	<node id="-548783" lat="61.6677361094" lon="5.76996388342">
		<tag k="name" v="Høgalmemyra" />
		<tag k="natural" v="wetland" />
		<tag k="ssr:stedsnr" v="943674" />
	</node>
	<node id="-548776" lat="61.6115527771" lon="5.70652222981">
		<tag k="name" v="Kveldsbeitemyra" />
		<tag k="natural" v="wetland" />
		<tag k="ssr:stedsnr" v="943523" />
	</node>
	<node id="-546215" lat="61.7528833325" lon="6.40714444766">
		<tag k="name" v="Langemyra" />
		<tag k="natural" v="wetland" />
		<tag k="ssr:stedsnr" v="336769" />
	</node>
	<node id="-546723" lat="61.7313888877" lon="6.68507499987">
		<tag k="name" v="Myklebustbreen" />
		<tag k="natural" v="glacier" />
		<tag k="ssr:stedsnr" v="70897" />
	</node>
	<node id="-548765" lat="61.6533499996" lon="5.99966943767">
		<tag k="name" v="Storemyra" />
		<tag k="natural" v="wetland" />
		<tag k="ssr:stedsnr" v="943455" />
	</node>
	<node id="-546710" lat="61.8173527749" lon="6.28188889092">
		<tag k="name" v="Grønmyr" />
		<tag k="natural" v="wetland" />
		<tag k="ssr:stedsnr" v="70064" />
	</node>
	<node id="-548757" lat="61.8209750044" lon="6.0448166752">
		<tag k="name" v="Høgemyra" />
		<tag k="natural" v="wetland" />
		<tag k="ssr:stedsnr" v="943397" />
	</node>
	<node id="-548750" lat="61.6839527776" lon="5.86586667292">
		<tag k="name" v="Pøylene" />
		<tag k="natural" v="wetland" />
		<tag k="ssr:stedsnr" v="943359" />
	</node>
	<node id="-548747" lat="61.6885444416" lon="5.91976111697">
		<tag k="name" v="Kjellarura" />
		<tag k="natural" v="scree" />
		<tag k="ssr:stedsnr" v="943340" />
	</node>
	<node id="-547210" lat="61.6951305594" lon="6.53319722731">
		<tag k="name" v="Storesteinen" />
		<tag k="natural" v="stone" />
		<tag k="ssr:stedsnr" v="215792" />
	</node>
	<node id="-548233" lat="61.7599527741" lon="6.48027499622">
		<tag k="name" v="Sildesteinen" />
		<tag k="natural" v="stone" />
		<tag k="ssr:stedsnr" v="701849" />
	</node>
	<node id="-546181" lat="61.6919138857" lon="6.03573056381">
		<tag k="name" v="Vamyrane" />
		<tag k="natural" v="wetland" />
		<tag k="ssr:stedsnr" v="336442" />
	</node>
	<node id="-548226" lat="61.752077775" lon="6.39985278107">
		<tag k="name" v="Alskorsteinen" />
		<tag k="natural" v="stone" />
		<tag k="ssr:stedsnr" v="701803" />
	</node>
	<node id="-548224" lat="61.6594889968" lon="6.43063633261">
		<tag k="name" v="Grøneskreda" />
		<tag k="natural" v="scree" />
		<tag k="place" v="locality" />
		<tag k="ssr:stedsnr" v="701800" />
	</node>
	<node id="-546687" lat="61.7369555521" lon="6.55044165852">
		<tag k="name" v="Hattarsteinen" />
		<tag k="natural" v="stone" />
		<tag k="ssr:stedsnr" v="33921" />
	</node>
	<node id="-546172" lat="61.6821694464" lon="5.91598054996">
		<tag k="name" v="Veslefrogden" />
		<tag k="natural" v="wetland" />
		<tag k="ssr:stedsnr" v="336360" />
	</node>
	<node id="-546683" lat="61.7321861152" lon="6.47754444695">
		<tag k="name" v="Høylomyrane" />
		<tag k="natural" v="wetland" />
		<tag k="ssr:stedsnr" v="33862" />
	</node>
	<node id="-546682" lat="61.7395888929" lon="6.52176389404">
		<tag k="name" v="Bygdevadet" />
		<tag k="natural" v="wetland" />
		<tag k="ssr:stedsnr" v="33860" />
	</node>
	<node id="-548216" lat="61.7164416701" lon="6.17727221567">
		<tag k="name" v="Storura" />
		<tag k="natural" v="scree" />
		<tag k="ssr:stedsnr" v="701258" />
	</node>
	<node id="-547190" lat="61.7558388865" lon="6.10261111867">
		<tag k="name" v="Steffamyra" />
		<tag k="natural" v="wetland" />
		<tag k="ssr:stedsnr" v="215112" />
	</node>
	<node id="-547178" lat="61.7668111086" lon="6.12091111943">
		<tag k="name" v="Kattemyra" />
		<tag k="natural" v="wetland" />
		<tag k="ssr:stedsnr" v="215016" />
	</node>
	<node id="-546661" lat="61.7403472199" lon="6.30524444457">
		<tag k="name" v="Kuskreda" />
		<tag k="natural" v="scree" />
		<tag k="place" v="locality" />
		<tag k="ssr:stedsnr" v="33201" />
	</node>
	<node id="-546144" lat="61.6485527755" lon="6.3739333383">
		<tag k="name" v="Klypeura" />
		<tag k="natural" v="scree" />
		<tag k="ssr:stedsnr" v="336159" />
	</node>
	<node id="-547679" lat="61.7493944402" lon="6.39133888117">
		<tag k="name" v="Gausmyra" />
		<tag k="natural" v="wetland" />
		<tag k="ssr:stedsnr" v="519792" />
	</node>
	<node id="-546652" lat="61.7660222241" lon="6.09122500336">
		<tag k="name" v="Hestesteinen" />
		<tag k="natural" v="stone" />
		<tag k="ssr:stedsnr" v="33122" />
	</node>
	<node id="-546134" lat="61.7619722182" lon="6.16853612041">
		<tag k="name" v="Seljelimyrane" />
		<tag k="natural" v="wetland" />
		<tag k="ssr:stedsnr" v="336025" />
	</node>
	<node id="-548181" lat="61.629494444" lon="5.75413334015">
		<tag k="name" v="Sandsteinen" />
		<tag k="natural" v="stone" />
		<tag k="ssr:stedsnr" v="700716" />
	</node>
	<node id="-546643" lat="61.837397222" lon="6.08301111563">
		<tag k="name" v="Kiura" />
		<tag k="natural" v="scree" />
		<tag k="ssr:stedsnr" v="33051" />
	</node>
	<node id="-546637" lat="61.6276166656" lon="5.75837777285">
		<tag k="name" v="Sandsteinurene" />
		<tag k="natural" v="scree" />
		<tag k="ssr:stedsnr" v="32670" />
	</node>
	<node id="-548171" lat="61.7231944484" lon="5.75976111244">
		<tag k="name" v="Myrane" />
		<tag k="natural" v="wetland" />
		<tag k="ssr:stedsnr" v="700672" />
	</node>
	<node id="-547141" lat="61.6548694475" lon="5.94183610471">
		<tag k="name" v="Vesleforbakksteinen" />
		<tag k="natural" v="stone" />
		<tag k="ssr:stedsnr" v="214285" />
	</node>
	<node id="-546116" lat="61.6508361069" lon="6.2875361171">
		<tag k="fixme" v="multiple name tags, choose one and add the other to alt_name" />
		<tag k="name" v="Blåbreen;Sørsendalsbreen" />
		<tag k="natural" v="glacier" />
		<tag k="ssr:stedsnr" v="313721" />
	</node>
	<node id="-546625" lat="61.6402916634" lon="5.87745277457">
		<tag k="name" v="Revaskarmyra" />
		<tag k="natural" v="wetland" />
		<tag k="ssr:stedsnr" v="32600" />
	</node>
	<node id="-547646" lat="61.7419416669" lon="6.54192221612">
		<tag k="name" v="Klovsteinen" />
		<tag k="natural" v="stone" />
		<tag k="ssr:stedsnr" v="518907" />
	</node>
	<node id="-547640" lat="61.7224305564" lon="6.52989722424">
		<tag k="name" v="Storesteinen" />
		<tag k="natural" v="stone" />
		<tag k="ssr:stedsnr" v="518847" />
	</node>
	<node id="-548745" lat="61.6900194467" lon="5.83357778536">
		<tag k="name" v="Diket" />
		<tag k="natural" v="wetland" />
		<tag k="ssr:stedsnr" v="943332" />
	</node>
	<node id="-547635" lat="61.6593610648" lon="6.60354474826">
		<tag k="name" v="Storefonna" />
		<tag k="place" v="locality" />
		<tag k="ssr:stedsnr" v="518814" />
	</node>
	<node id="-546093" lat="61.7554555521" lon="6.43582221971">
		<tag k="name" v="Futediket" />
		<tag k="natural" v="wetland" />
		<tag k="ssr:stedsnr" v="313166" />
	</node>
	<node id="-546604" lat="61.6808694476" lon="5.81097777615">
		<tag k="name" v="Einamyra" />
		<tag k="natural" v="wetland" />
		<tag k="ssr:stedsnr" v="32298" />
	</node>
	<node id="-546602" lat="61.6899861122" lon="5.84745277851">
		<tag k="name" v="Øykjelimyra" />
		<tag k="natural" v="wetland" />
		<tag k="ssr:stedsnr" v="32283" />
	</node>
	<node id="-546438" lat="61.6113972254" lon="5.69459444554">
		<tag k="name" v="Storemyra" />
		<tag k="natural" v="wetland" />
		<tag k="ssr:stedsnr" v="882446" />
	</node>
	<node id="-546592" lat="61.7199666695" lon="5.82578611594">
		<tag k="name" v="Rakelsteinen" />
		<tag k="natural" v="stone" />
		<tag k="ssr:stedsnr" v="32212" />
	</node>
	<node id="-547610" lat="61.6236972192" lon="5.67788334057">
		<tag k="name" v="Tuft-Ola-myra" />
		<tag k="natural" v="wetland" />
		<tag k="ssr:stedsnr" v="518515" />
	</node>
	<node id="-547608" lat="61.829944445" lon="5.95744722172">
		<tag k="name" v="Kræsteinen" />
		<tag k="natural" v="stone" />
		<tag k="ssr:stedsnr" v="518484" />
	</node>
	<node id="-548119" lat="61.7788083313" lon="6.12792221835">
		<tag k="name" v="Ryggøyra" />
		<tag k="place" v="locality" />
		<tag k="ssr:stedsnr" v="694441" />
	</node>
	<node id="-547599" lat="61.8262666654" lon="5.99618888607">
		<tag k="name" v="Urene" />
		<tag k="natural" v="scree" />
		<tag k="ssr:stedsnr" v="518401" />
	</node>
	<node id="-547592" lat="61.6449138852" lon="5.93648611493">
		<tag k="name" v="Småskredene" />
		<tag k="natural" v="scree" />
		<tag k="ssr:stedsnr" v="518315" />
	</node>
	<node id="-547589" lat="61.8482222178" lon="5.92702777304">
		<tag k="name" v="Skredene" />
		<tag k="natural" v="scree" />
		<tag k="place" v="locality" />
		<tag k="ssr:stedsnr" v="518302" />
	</node>
	<node id="-547580" lat="61.7377694456" lon="6.27951666594">
		<tag k="name" v="Skarsteinmyra" />
		<tag k="natural" v="wetland" />
		<tag k="ssr:stedsnr" v="518216" />
	</node>
	<node id="-546431" lat="61.8247499997" lon="5.95112500645">
		<tag k="name" v="Brokeskarmyrane" />
		<tag k="natural" v="wetland" />
		<tag k="ssr:stedsnr" v="882347" />
	</node>
	<node id="-548599" lat="61.6248249969" lon="5.65173611043">
		<tag k="name" v="Dalemyrane" />
		<tag k="natural" v="wetland" />
		<tag k="ssr:stedsnr" v="858758" />
	</node>
	<node id="-546035" lat="61.6298166698" lon="6.37362778465">
		<tag k="name" v="Storesteinane" />
		<tag k="natural" v="scree" />
		<tag k="ssr:stedsnr" v="276186" />
	</node>
	<node id="-546003" lat="61.6405472208" lon="5.71714444578">
		<tag k="name" v="Kristenlimyrane" />
		<tag k="natural" v="wetland" />
		<tag k="ssr:stedsnr" v="275692" />
	</node>
	<node id="-547565" lat="61.7598638885" lon="6.13156666511">
		<tag k="name" v="Bruamyrane" />
		<tag k="natural" v="wetland" />
		<tag k="ssr:stedsnr" v="518029" />
	</node>
	<node id="-547561" lat="61.8295" lon="6.10654167144">
		<tag k="name" v="Storemyra" />
		<tag k="natural" v="wetland" />
		<tag k="ssr:stedsnr" v="518010" />
	</node>
	<node id="-546024" lat="61.7649972226" lon="6.09455000765">
		<tag k="name" v="Orremyra" />
		<tag k="natural" v="wetland" />
		<tag k="ssr:stedsnr" v="276124" />
	</node>
	<node id="-548582" lat="61.7436722256" lon="6.56312499811">
		<tag k="name" v="Badesteinen" />
		<tag k="natural" v="stone" />
		<tag k="ssr:stedsnr" v="822935" />
	</node>
	<node id="-547045" lat="61.6174083306" lon="5.68021665934">
		<tag k="name" v="Storemyra" />
		<tag k="natural" v="wetland" />
		<tag k="ssr:stedsnr" v="154893" />
	</node>
	<node id="-546020" lat="61.7413861132" lon="6.17995834048">
		<tag k="name" v="Vassmyrane" />
		<tag k="natural" v="wetland" />
		<tag k="ssr:stedsnr" v="276061" />
	</node>
	<node id="-547030" lat="61.6604305589" lon="6.43744165915">
		<tag k="name" v="Pikasteinen" />
		<tag k="natural" v="stone" />
		<tag k="ssr:stedsnr" v="154811" />
	</node>
	<node id="-548565" lat="61.6571861108" lon="6.44980832596">
		<tag k="name" v="Fonnmyra" />
		<tag k="natural" v="wetland" />
		<tag k="ssr:stedsnr" v="822825" />
	</node>
	<node id="-548563" lat="61.6566888887" lon="6.52412777709">
		<tag k="name" v="Langevadskreda" />
		<tag k="natural" v="scree" />
		<tag k="place" v="locality" />
		<tag k="ssr:stedsnr" v="822816" />
	</node>
	<node id="-547022" lat="61.8511333333" lon="5.94234721999">
		<tag k="name" v="Glomsura" />
		<tag k="natural" v="scree" />
		<tag k="ssr:stedsnr" v="154483" />
	</node>
	<node id="-546629" lat="61.6221166699" lon="5.84390833778">
		<tag k="name" v="Hyskredene" />
		<tag k="natural" v="scree" />
		<tag k="place" v="locality" />
		<tag k="ssr:stedsnr" v="32615" />
	</node>
	<node id="-547529" lat="61.8500388881" lon="5.97304445397">
		<tag k="alt_name" v="Gulsteinen" />
		<tag k="name" v="Gullsteinen" />
		<tag k="natural" v="stone" />
		<tag k="ssr:stedsnr" v="495650" />
	</node>
	<node id="-548040" lat="61.7382805551" lon="6.60243054639">
		<tag k="name" v="Ussteinen" />
		<tag k="natural" v="stone" />
		<tag k="ssr:stedsnr" v="639943" />
	</node>
	<node id="-545991" lat="61.6430972204" lon="5.90193056161">
		<tag k="name" v="Blåura" />
		<tag k="natural" v="scree" />
		<tag k="ssr:stedsnr" v="275622" />
	</node>
	<node id="-548037" lat="61.6162055525" lon="5.66889999135">
		<tag k="name" v="Høysteinen" />
		<tag k="natural" v="stone" />
		<tag k="ssr:stedsnr" v="639908" />
	</node>
	<node id="-545986" lat="61.750891665" lon="6.54894165955">
		<tag k="name" v="Langemyra" />
		<tag k="natural" v="wetland" />
		<tag k="ssr:stedsnr" v="275479" />
	</node>
	<node id="-545995" lat="61.6431444442" lon="5.83614722501">
		<tag k="name" v="Piskemyra" />
		<tag k="natural" v="wetland" />
		<tag k="ssr:stedsnr" v="275631" />
	</node>
	<node id="-546496" lat="61.7384888844" lon="6.51737222198">
		<tag k="name" v="Olamyra" />
		<tag k="natural" v="wetland" />
		<tag k="ssr:stedsnr" v="883905" />
	</node>
	<node id="-546494" lat="61.7568027742" lon="6.43933888778">
		<tag k="name" v="Futediket" />
		<tag k="natural" v="wetland" />
		<tag k="ssr:stedsnr" v="883880" />
	</node>
	<node id="-546762" lat="61.759549999" lon="6.37431111733">
		<tag k="name" v="Kålsmyrane" />
		<tag k="natural" v="wetland" />
		<tag k="ssr:stedsnr" v="88571" />
	</node>
	<node id="-546998" lat="61.8055027821" lon="6.06378610558">
		<tag k="name" v="Korsbakkmyra" />
		<tag k="natural" v="wetland" />
		<tag k="ssr:stedsnr" v="154056" />
	</node>
	<node id="-548021" lat="61.7545472264" lon="6.39440277214">
		<tag k="name" v="Verslemyra" />
		<tag k="natural" v="wetland" />
		<tag k="ssr:stedsnr" v="639788" />
	</node>
	<node id="-548017" lat="61.6928305548" lon="6.52937500339">
		<tag k="name" v="Maggemyra" />
		<tag k="natural" v="wetland" />
		<tag k="ssr:stedsnr" v="639756" />
	</node>
	<node id="-546983" lat="61.7170055576" lon="5.77075555152">
		<tag k="name" v="Kupemyra" />
		<tag k="natural" v="wetland" />
		<tag k="ssr:stedsnr" v="153690" />
	</node>
	<node id="-546981" lat="61.660466664" lon="5.90174999305">
		<tag k="name" v="Blomamyra" />
		<tag k="natural" v="wetland" />
		<tag k="ssr:stedsnr" v="153673" />
	</node>
	<node id="-548516" lat="61.6808083374" lon="5.79127777126">
		<tag k="name" v="Snøbakkemyra" />
		<tag k="natural" v="wetland" />
		<tag k="ssr:stedsnr" v="821703" />
	</node>
	<node id="-546464" lat="61.6280250045" lon="6.36995000153">
		<tag k="name" v="Rokkstølura" />
		<tag k="natural" v="scree" />
		<tag k="ssr:stedsnr" v="883177" />
	</node>
	<node id="-546461" lat="61.6988361083" lon="6.40687777259">
		<tag k="name" v="Hattesteinen" />
		<tag k="natural" v="stone" />
		<tag k="ssr:stedsnr" v="883153" />
	</node>
	<node id="-546972" lat="61.6694472206" lon="5.95065278095">
		<tag k="name" v="Kvitura" />
		<tag k="natural" v="scree" />
		<tag k="ssr:stedsnr" v="153481" />
	</node>
	<node id="-546971" lat="61.6406749988" lon="6.01141110473">
		<tag k="name" v="Maristeinen" />
		<tag k="natural" v="stone" />
		<tag k="ssr:stedsnr" v="153468" />
	</node>
	<node id="-547994" lat="61.6997222218" lon="5.93774999667">
		<tag k="name" v="Grøneskredene" />
		<tag k="natural" v="scree" />
		<tag k="place" v="locality" />
		<tag k="ssr:stedsnr" v="639485" />
	</node>
	<node id="-547479" lat="61.7213611111" lon="6.52645833128">
		<tag k="name" v="Steinrøysa" />
		<tag k="natural" v="stone" />
		<tag k="ssr:stedsnr" v="458887" />
	</node>
	<node id="-546453" lat="61.6801972242" lon="6.06325000848">
		<tag k="name" v="Urakupane" />
		<tag k="natural" v="scree" />
		<tag k="ssr:stedsnr" v="883082" />
	</node>
	<node id="-547473" lat="61.6504777771" lon="6.51200832967">
		<tag k="name" v="Blåura" />
		<tag k="natural" v="scree" />
		<tag k="ssr:stedsnr" v="458823" />
	</node>
	<node id="-546190" lat="61.6144444467" lon="5.7620111044">
		<tag k="name" v="Storesteinane" />
		<tag k="natural" v="stone" />
		<tag k="ssr:stedsnr" v="336503" />
	</node>
	<node id="-547979" lat="61.6683722191" lon="5.91074722521">
		<tag k="name" v="Tjørnmyra" />
		<tag k="natural" v="wetland" />
		<tag k="ssr:stedsnr" v="639373" />
	</node>
	<node id="-547466" lat="61.6635305564" lon="6.44175832963">
		<tag k="name" v="Storemyra" />
		<tag k="natural" v="wetland" />
		<tag k="ssr:stedsnr" v="458767" />
	</node>
	<node id="-548489" lat="61.7302361142" lon="5.83717221536">
		<tag k="name" v="Småglennene" />
		<tag k="natural" v="scree" />
		<tag k="place" v="locality" />
		<tag k="ssr:stedsnr" v="821366" />
	</node>
	<node id="-546952" lat="61.6581499974" lon="5.97314166501">
		<tag k="name" v="Myrgjølet" />
		<tag k="natural" v="wetland" />
		<tag k="ssr:stedsnr" v="153288" />
	</node>
	<node id="-547974" lat="61.8503138851" lon="5.87174167209">
		<tag k="name" v="Bjørnasteinen" />
		<tag k="natural" v="stone" />
		<tag k="ssr:stedsnr" v="639317" />
	</node>
	<node id="-547455" lat="61.7541972215" lon="6.18556944548">
		<tag k="name" v="Sperremyra" />
		<tag k="natural" v="wetland" />
		<tag k="ssr:stedsnr" v="458243" />
	</node>
	<node id="-547961" lat="61.7596555554" lon="6.28312776846">
		<tag k="name" v="Bjørnalomyra" />
		<tag k="natural" v="wetland" />
		<tag k="ssr:stedsnr" v="639216" />
	</node>
	<node id="-547949" lat="61.7728499974" lon="6.0993555498">
		<tag k="name" v="Andersmyra" />
		<tag k="natural" v="wetland" />
		<tag k="ssr:stedsnr" v="639137" />
	</node>
	<node id="-546322" lat="61.6860861146" lon="6.04380556191">
		<tag k="name" v="Storemyrane" />
		<tag k="natural" v="wetland" />
		<tag k="ssr:stedsnr" v="396435" />
	</node>
	<node id="-546405" lat="61.616555558" lon="5.6586750024">
		<tag k="name" v="Griseryggmyra" />
		<tag k="natural" v="wetland" />
		<tag k="ssr:stedsnr" v="397903" />
	</node>
	<node id="-547937" lat="61.7579277777" lon="6.12135555567">
		<tag k="name" v="Fossdalsmyra" />
		<tag k="natural" v="wetland" />
		<tag k="ssr:stedsnr" v="639040" />
	</node>
	<node id="-546399" lat="61.7575305578" lon="6.49260278637">
		<tag k="name" v="Kjerringesteinen" />
		<tag k="natural" v="stone" />
		<tag k="ssr:stedsnr" v="397860" />
	</node>
	<node id="-547408" lat="61.658388886" lon="5.9275583306">
		<tag k="name" v="Langemyra" />
		<tag k="natural" v="wetland" />
		<tag k="ssr:stedsnr" v="457629" />
	</node>
	<node id="-546377" lat="61.8116722243" lon="5.93668611399">
		<tag k="name" v="Akslemyra" />
		<tag k="natural" v="wetland" />
		<tag k="ssr:stedsnr" v="397425" />
	</node>
	<node id="-546374" lat="61.8069250037" lon="6.18036111208">
		<tag k="name" v="Løpsura" />
		<tag k="natural" v="scree" />
		<tag k="ssr:stedsnr" v="397263" />
	</node>
	<node id="-547394" lat="61.6505555595" lon="5.95287778667">
		<tag k="name" v="Grønskredene" />
		<tag k="natural" v="scree" />
		<tag k="place" v="locality" />
		<tag k="ssr:stedsnr" v="457429" />
	</node>
	<node id="-547391" lat="61.8297055581" lon="6.04465278244">
		<tag k="name" v="Storemyra" />
		<tag k="natural" v="wetland" />
		<tag k="ssr:stedsnr" v="457364" />
	</node>
	<node id="-546354" lat="61.7521749982" lon="6.10323055498">
		<tag k="name" v="Langemyra" />
		<tag k="natural" v="wetland" />
		<tag k="ssr:stedsnr" v="397021" />
	</node>
	<node id="-546481" lat="61.8514527763" lon="5.94904999972">
		<tag k="name" v="Storesteinane" />
		<tag k="natural" v="stone" />
		<tag k="ssr:stedsnr" v="883524" />
	</node>
	<node id="-546336" lat="61.6338277786" lon="5.83051110483">
		<tag k="name" v="Tjernmyra" />
		<tag k="natural" v="wetland" />
		<tag k="ssr:stedsnr" v="396610" />
	</node>
	<node id="-546846" lat="61.7288138896" lon="6.52101388699">
		<tag k="name" v="Revsteinen" />
		<tag k="natural" v="stone" />
		<tag k="ssr:stedsnr" v="94884" />
	</node>
	<node id="-546845" lat="61.7535666651" lon="6.50970556502">
		<tag k="name" v="Merkingssteinen" />
		<tag k="natural" v="stone" />
		<tag k="ssr:stedsnr" v="94881" />
	</node>
	<node id="-546837" lat="61.6582500025" lon="6.40501667085">
		<tag k="name" v="Steinskreda" />
		<tag k="natural" v="scree" />
		<tag k="ssr:stedsnr" v="94274" />
	</node>
	<node id="-547858" lat="61.7431777763" lon="6.01642499336">
		<tag k="name" v="Storbreen" />
		<tag k="natural" v="glacier" />
		<tag k="ssr:stedsnr" v="614399" />
	</node>
	<node id="-548355" lat="61.7651055573" lon="6.12040277833">
		<tag k="name" v="Brennemyra" />
		<tag k="natural" v="wetland" />
		<tag k="ssr:stedsnr" v="761020" />
	</node>
	<node id="-547851" lat="61.7514555534" lon="5.9201777789">
		<tag k="name" v="Blomholura" />
		<tag k="natural" v="scree" />
		<tag k="ssr:stedsnr" v="585087" />
	</node>
	<node id="-548360" lat="61.7376777795" lon="6.12842777582">
		<tag k="name" v="Blåurene" />
		<tag k="natural" v="scree" />
		<tag k="ssr:stedsnr" v="761088" />
	</node>
	<node id="-548356" lat="61.7658333302" lon="6.1699138892">
		<tag k="name" v="Porsemyra" />
		<tag k="natural" v="wetland" />
		<tag k="ssr:stedsnr" v="761031" />
	</node>
	<node id="-547843" lat="61.7094972191" lon="6.53622221502">
		<tag k="name" v="Strandura" />
		<tag k="natural" v="scree" />
		<tag k="ssr:stedsnr" v="579887" />
	</node>
	<node id="-547842" lat="61.7154944436" lon="6.53150278172">
		<tag k="name" v="Hageura" />
		<tag k="natural" v="scree" />
		<tag k="ssr:stedsnr" v="579883" />
	</node>
</osm>
