<?xml version="1.0" encoding="UTF-8"?>
<osm generator="osmapis" version="0.6">
	<node id="-546315" lat="61.683252778" lon="5.91073055173">
		<tag k="name" v="Fjellgrova" />
		<tag k="ssr:stedsnr" v="396304" />
		<tag k="waterway" v="stream" />
	</node>
	<node id="-546801" lat="61.6814444462" lon="5.72786666521">
		<tag k="name" v="Storevasstranda" />
		<tag k="natural" v="beach" />
		<tag k="ssr:stedsnr" v="93628" />
	</node>
	<node id="-548821" lat="61.7880444422" lon="6.18788889313">
		<tag k="name" v="Haugselva" />
		<tag k="ssr:stedsnr" v="949967" />
		<tag k="waterway" v="river" />
	</node>
	<node id="-548819" lat="61.7501583322" lon="5.91409166922">
		<tag k="name" v="Svarsåta" />
		<tag k="old_name" v="Svartsåta" />
		<tag k="ssr:stedsnr" v="949052" />
		<tag k="waterway" v="stream" />
	</node>
	<node id="-548817" lat="61.7290888878" lon="6.49438055256">
		<tag k="name" v="Stokkeneset" />
		<tag k="natural" v="cape" />
		<tag k="ssr:stedsnr" v="944851" />
	</node>
	<node id="-546765" lat="61.7104444487" lon="5.91047499184">
		<tag k="name" v="Sikjegrova" />
		<tag k="ssr:stedsnr" v="93230" />
		<tag k="waterway" v="stream" />
	</node>
	<node id="-548811" lat="61.7259777744" lon="6.43431111387">
		<tag k="name" v="Orselva" />
		<tag k="ssr:stedsnr" v="944840" />
		<tag k="waterway" v="stream" />
	</node>
	<node id="-546760" lat="61.666258334" lon="5.81243611436">
		<tag k="name" v="Gytta" />
		<tag k="ssr:stedsnr" v="80744" />
		<tag k="waterway" v="stream" />
	</node>
	<node id="-546759" lat="61.7082388855" lon="5.81194166441">
		<tag k="name" v="Osefossen" />
		<tag k="natural" v="waterfall" />
		<tag k="ssr:stedsnr" v="80741" />
	</node>
	<node id="-546754" lat="61.7988638873" lon="6.08235000886">
		<tag k="name" v="Skorgeelva" />
		<tag k="ssr:stedsnr" v="71750" />
		<tag k="waterway" v="stream" />
	</node>
	<node id="-548801" lat="61.7390861155" lon="6.54924166581">
		<tag k="name" v="Fossane" />
		<tag k="natural" v="waterfall" />
		<tag k="ssr:stedsnr" v="943918" />
	</node>
	<node id="-546748" lat="61.7092333318" lon="6.13267778135">
		<tag k="name" v="Jørångevatnet" />
		<tag k="natural" v="water" />
		<tag k="ssr:stedsnr" v="71397" />
	</node>
	<node id="-548794" lat="61.7219861089" lon="6.54099723181">
		<tag k="name" v="Svoragrova" />
		<tag k="ssr:stedsnr" v="943868" />
		<tag k="waterway" v="stream" />
	</node>
	<node id="-546742" lat="61.7854527784" lon="6.33761665999">
		<tag k="name" v="Blånibbetjønna" />
		<tag k="natural" v="water" />
		<tag k="ssr:stedsnr" v="71198" />
	</node>
	<node id="-546740" lat="61.7534194421" lon="6.25827222428">
		<tag k="alt_name" v="Karavadet" />
		<tag k="name" v="Karvadet" />
		<tag k="place" v="locality" />
		<tag k="ssr:stedsnr" v="71166" />
	</node>
	<node id="-546737" lat="61.7585555553" lon="6.33715278665">
		<tag k="fixme" v="multiple name tags, choose one and add the other to alt_name" />
		<tag k="name" v="Ytre Ulva;Ytre Ulveelva" />
		<tag k="ssr:stedsnr" v="71147" />
		<tag k="waterway" v="stream" />
	</node>
	<node id="-546736" lat="61.7567388893" lon="6.34858611827">
		<tag k="fixme" v="multiple name tags, choose one and add the other to alt_name" />
		<tag k="name" v="Indre Ulva;Indre Ulveelva" />
		<tag k="ssr:stedsnr" v="71143" />
		<tag k="waterway" v="stream" />
	</node>
	<node id="-546735" lat="61.7445611151" lon="6.57538055113">
		<tag k="name" v="Sanddalselva" />
		<tag k="ssr:stedsnr" v="71135" />
		<tag k="waterway" v="stream" />
	</node>
	<node id="-546733" lat="61.7517138893" lon="6.51069443717">
		<tag k="name" v="Støyvaelva" />
		<tag k="ssr:stedsnr" v="71253" />
		<tag k="waterway" v="stream" />
	</node>
	<node id="-546721" lat="61.7542833331" lon="5.92054721964">
		<tag k="name" v="Skarsvora" />
		<tag k="ssr:stedsnr" v="70764" />
		<tag k="waterway" v="stream" />
	</node>
	<node id="-548768" lat="61.7365083334" lon="5.94052777222">
		<tag k="name" v="Einegjølfossen" />
		<tag k="natural" v="waterfall" />
		<tag k="ssr:stedsnr" v="943485" />
	</node>
	<node id="-546715" lat="61.6690277771" lon="6.17734444535">
		<tag k="name" v="Måsevatnet" />
		<tag k="natural" v="water" />
		<tag k="ssr:stedsnr" v="70259" />
		<tag k="water" v="lake" />
	</node>
	<node id="-546713" lat="61.6741999989" lon="6.33882777719">
		<tag k="name" v="Øykjeheivatnet" />
		<tag k="natural" v="water" />
		<tag k="ssr:stedsnr" v="70069" />
	</node>
	<node id="-548759" lat="61.8041555535" lon="5.98854721541">
		<tag k="alt_name" v="Flugegrova" />
		<tag k="name" v="Fløgegrova" />
		<tag k="ssr:stedsnr" v="943418" />
		<tag k="waterway" v="stream" />
	</node>
	<node id="-548758" lat="61.7957055525" lon="5.96192222954">
		<tag k="name" v="Kyrkjesvora" />
		<tag k="ssr:stedsnr" v="943412" />
		<tag k="waterway" v="stream" />
	</node>
	<node id="-548755" lat="61.7358638849" lon="5.84696944759">
		<tag k="name" v="Glennefossen" />
		<tag k="natural" v="waterfall" />
		<tag k="ssr:stedsnr" v="943376" />
	</node>
	<node id="-546705" lat="61.7171388889" lon="5.82225277692">
		<tag k="name" v="Hopselva" />
		<tag k="ssr:stedsnr" v="69689" />
		<tag k="waterway" v="river" />
	</node>
	<node id="-546703" lat="61.7299194423" lon="5.75105555965">
		<tag k="name" v="Kvannbotnelva" />
		<tag k="ssr:stedsnr" v="69678" />
		<tag k="waterway" v="stream" />
	</node>
	<node id="-546700" lat="61.7385222183" lon="5.87598055811">
		<tag k="name" v="Skordalselva" />
		<tag k="ssr:stedsnr" v="69415" />
		<tag k="waterway" v="stream" />
	</node>
	<node id="-546698" lat="61.7438166665" lon="5.96056944852">
		<tag k="name" v="Kyra" />
		<tag k="ssr:stedsnr" v="69407" />
		<tag k="waterway" v="stream" />
	</node>
	<node id="-546516" lat="61.6666138848" lon="6.01981110761">
		<tag k="name" v="Stølselva" />
		<tag k="ssr:stedsnr" v="9253" />
		<tag k="waterway" v="stream" />
	</node>
	<node id="-548743" lat="61.6588361073" lon="5.9696750074">
		<tag k="name" v="Gjengedalselva" />
		<tag k="ssr:stedsnr" v="943324" />
		<tag k="waterway" v="river" />
	</node>
	<node id="-548732" lat="61.7359500025" lon="6.0597277683">
		<tag k="name" v="Geitsvorelva" />
		<tag k="ssr:stedsnr" v="943102" />
		<tag k="waterway" v="stream" />
	</node>
	<node id="-548728" lat="61.7326749991" lon="6.15957777405">
		<tag k="name" v="Somet" />
		<tag k="natural" v="cape" />
		<tag k="ssr:stedsnr" v="943078" />
	</node>
	<node id="-548725" lat="61.7442972192" lon="6.1870250014">
		<tag k="name" v="Bjørnaalsgrova" />
		<tag k="ssr:stedsnr" v="943055" />
		<tag k="waterway" v="stream" />
	</node>
	<node id="-546668" lat="61.6454277816" lon="6.05633611687">
		<tag k="name" v="Vesledalselva" />
		<tag k="ssr:stedsnr" v="33481" />
		<tag k="waterway" v="river" />
	</node>
	<node id="-548714" lat="61.667536114" lon="5.7860277752">
		<tag k="name" v="Langeneset" />
		<tag k="natural" v="cape" />
		<tag k="ssr:stedsnr" v="930766" />
	</node>
	<node id="-548713" lat="61.637655552" lon="5.69385555343">
		<tag k="name" v="Løkjeelva" />
		<tag k="ssr:stedsnr" v="930765" />
		<tag k="waterway" v="river" />
	</node>
	<node id="-548712" lat="61.7237416713" lon="5.83916111698">
		<tag k="name" v="Brekkefossen" />
		<tag k="natural" v="waterfall" />
		<tag k="ssr:stedsnr" v="930762" />
	</node>
	<node id="-548710" lat="61.8110111077" lon="5.9338166716">
		<tag k="name" v="Storelva" />
		<tag k="ssr:stedsnr" v="920854" />
		<tag k="waterway" v="river" />
	</node>
	<node id="-546656" lat="61.6761444426" lon="6.37770834225">
		<tag k="name" v="Vetleneset" />
		<tag k="natural" v="cape" />
		<tag k="ssr:stedsnr" v="33154" />
	</node>
	<node id="-546654" lat="61.7652666647" lon="6.10009723174">
		<tag k="name" v="Trongsteggrova" />
		<tag k="ssr:stedsnr" v="33124" />
		<tag k="waterway" v="stream" />
	</node>
	<node id="-548699" lat="61.8267972228" lon="6.04075278601">
		<tag k="name" v="Tunelva" />
		<tag k="ssr:stedsnr" v="920679" />
		<tag k="waterway" v="stream" />
	</node>
	<node id="-546650" lat="61.7710777753" lon="6.10619167102">
		<tag k="name" v="Gjerdgrova" />
		<tag k="ssr:stedsnr" v="33116" />
		<tag k="waterway" v="stream" />
	</node>
	<node id="-548697" lat="61.8215444399" lon="6.03523888175">
		<tag k="name" v="Støylsvatnet" />
		<tag k="natural" v="water" />
		<tag k="ssr:stedsnr" v="920677" />
	</node>
	<node id="-546647" lat="61.7336194441" lon="6.1204694393">
		<tag k="name" v="Vetledalselva" />
		<tag k="ssr:stedsnr" v="33086" />
		<tag k="waterway" v="river" />
	</node>
	<node id="-546646" lat="61.7339499965" lon="6.15584721787">
		<tag k="name" v="Kvianeset" />
		<tag k="natural" v="cape" />
		<tag k="ssr:stedsnr" v="33079" />
	</node>
	<node id="-548690" lat="61.691155556" lon="6.16266945118">
		<tag k="name" v="Langelvfjellvatna" />
		<tag k="natural" v="water" />
		<tag k="ssr:stedsnr" v="920324" />
	</node>
	<node id="-548688" lat="61.6882305586" lon="6.08762777905">
		<tag k="name" v="Vesleneset" />
		<tag k="natural" v="cape" />
		<tag k="ssr:stedsnr" v="920306" />
	</node>
	<node id="-548687" lat="61.6269666698" lon="5.91854166464">
		<tag k="name" v="Varlivatnet" />
		<tag k="natural" v="water" />
		<tag k="ssr:stedsnr" v="920244" />
	</node>
	<node id="-548685" lat="61.7765277786" lon="6.32623333908">
		<tag k="name" v="Vardevatnet" />
		<tag k="natural" v="water" />
		<tag k="ssr:stedsnr" v="920170" />
	</node>
	<node id="-546636" lat="61.7212277814" lon="5.72135833001">
		<tag k="name" v="Steinen" />
		<tag k="place" v="islet" />
		<tag k="ssr:stedsnr" v="32653" />
	</node>
	<node id="-548683" lat="61.761224996" lon="6.54650555821">
		<tag k="name" v="Geitavatnet" />
		<tag k="natural" v="water" />
		<tag k="ssr:stedsnr" v="920149" />
	</node>
	<node id="-548678" lat="61.7908500032" lon="6.31912500631">
		<tag k="name" v="Svinestrandvatnet" />
		<tag k="natural" v="water" />
		<tag k="ssr:stedsnr" v="920105" />
	</node>
	<node id="-548677" lat="61.71116944" lon="6.38442776916">
		<tag k="name" v="Lyngneset" />
		<tag k="natural" v="cape" />
		<tag k="ssr:stedsnr" v="920098" />
	</node>
	<node id="-548675" lat="61.6795999971" lon="6.51555555763">
		<tag k="name" v="Gravarvatnet" />
		<tag k="natural" v="water" />
		<tag k="ssr:stedsnr" v="920080" />
	</node>
	<node id="-548674" lat="61.6755666674" lon="6.23515834011">
		<tag k="name" v="Fagerdalsvatnet" />
		<tag k="natural" v="water" />
		<tag k="ssr:stedsnr" v="920078" />
	</node>
	<node id="-548672" lat="61.6601777769" lon="6.22754167364">
		<tag k="name" v="Blådalsvatnet" />
		<tag k="natural" v="water" />
		<tag k="ssr:stedsnr" v="920073" />
	</node>
	<node id="-548668" lat="61.6346500016" lon="5.82725278034">
		<tag k="name" v="Daleelva" />
		<tag k="ssr:stedsnr" v="919711" />
		<tag k="waterway" v="stream" />
	</node>
	<node id="-548667" lat="61.6353277814" lon="5.72802500572">
		<tag k="name" v="Juvikneset" />
		<tag k="natural" v="cape" />
		<tag k="ssr:stedsnr" v="919695" />
	</node>
	<node id="-548663" lat="61.7297166681" lon="5.86020556369">
		<tag k="name" v="Svofossen" />
		<tag k="natural" v="waterfall" />
		<tag k="ssr:stedsnr" v="918453" />
	</node>
	<node id="-548661" lat="61.8282459776" lon="6.27359182526">
		<tag k="name" v="Åsebøvatnet" />
		<tag k="natural" v="water" />
		<tag k="ssr:stedsnr" v="877727" />
		<tag k="water" v="pond" />
	</node>
	<node id="-546104" lat="61.734008335" lon="5.94917777071">
		<tag k="name" v="Støylselva" />
		<tag k="ssr:stedsnr" v="313353" />
		<tag k="waterway" v="stream" />
	</node>
	<node id="-546611" lat="61.8209444431" lon="5.93556389398">
		<tag k="name" v="Gardstølsvora" />
		<tag k="ssr:stedsnr" v="32356" />
		<tag k="waterway" v="stream" />
	</node>
	<node id="-548656" lat="61.8506944418" lon="5.9305805622">
		<tag k="name" v="Storelva" />
		<tag k="ssr:stedsnr" v="860865" />
		<tag k="waterway" v="stream" />
	</node>
	<node id="-548647" lat="61.8499861125" lon="5.86152221483">
		<tag k="name" v="Sælebotselva" />
		<tag k="ssr:stedsnr" v="860689" />
		<tag k="waterway" v="stream" />
	</node>
	<node id="-548639" lat="61.6935083296" lon="6.09174165905">
		<tag k="name" v="Byrkjeneselva" />
		<tag k="ssr:stedsnr" v="860388" />
		<tag k="waterway" v="stream" />
	</node>
	<node id="-548637" lat="61.6633361155" lon="5.91030833588">
		<tag k="alt_name" v="Rønnekleivelva" />
		<tag k="name" v="Rongkleivelva" />
		<tag k="ssr:stedsnr" v="860343" />
		<tag k="waterway" v="stream" />
	</node>
	<node id="-548636" lat="61.7546527782" lon="6.58916943533">
		<tag k="name" v="Sanddalsfossen" />
		<tag k="natural" v="waterfall" />
		<tag k="ssr:stedsnr" v="860268" />
	</node>
	<node id="-546584" lat="61.7066750019" lon="6.51810556474">
		<tag k="name" v="Svoragrova" />
		<tag k="ssr:stedsnr" v="20481" />
		<tag k="waterway" v="stream" />
	</node>
	<node id="-546582" lat="61.7569361082" lon="5.96670832623">
		<tag k="name" v="Bukollesvora" />
		<tag k="ssr:stedsnr" v="10775" />
		<tag k="waterway" v="stream" />
	</node>
	<node id="-546578" lat="61.7989555594" lon="6.04679166845">
		<tag k="name" v="Breielva" />
		<tag k="ssr:stedsnr" v="10736" />
		<tag k="waterway" v="stream" />
	</node>
	<node id="-548625" lat="61.6990444422" lon="6.4307638799">
		<tag k="fixme" v="multiple name tags, choose one and add the other to alt_name" />
		<tag k="name" v="Støylsvatnet;Tvillingvatnet" />
		<tag k="natural" v="water" />
		<tag k="ssr:stedsnr" v="860104" />
	</node>
	<node id="-548622" lat="61.7068388875" lon="6.62978333283">
		<tag k="alt_name" v="Insteelva" />
		<tag k="name" v="Strupen" />
		<tag k="ssr:stedsnr" v="859887" />
		<tag k="waterway" v="stream" />
	</node>
	<node id="-546569" lat="61.8539083316" lon="5.88533888308">
		<tag k="name" v="Merkeselva" />
		<tag k="ssr:stedsnr" v="10666" />
		<tag k="waterway" v="stream" />
	</node>
	<node id="-548616" lat="61.7522861152" lon="6.13211110423">
		<tag k="name" v="Langedalselva" />
		<tag k="ssr:stedsnr" v="859728" />
		<tag k="waterway" v="stream" />
	</node>
	<node id="-548615" lat="61.7578722181" lon="6.20864999903">
		<tag k="name" v="Jardøla" />
		<tag k="ssr:stedsnr" v="859726" />
		<tag k="waterway" v="stream" />
	</node>
	<node id="-546566" lat="61.7524722248" lon="6.59857222026">
		<tag k="name" v="Vesleelva" />
		<tag k="ssr:stedsnr" v="10412" />
		<tag k="waterway" v="stream" />
	</node>
	<node id="-548606" lat="61.6354083335" lon="5.87514166283">
		<tag k="name" v="Rambergvatnet" />
		<tag k="natural" v="water" />
		<tag k="ssr:stedsnr" v="859265" />
		<tag k="water" v="lake" />
	</node>
	<node id="-548605" lat="61.6679305557" lon="6.14140278705">
		<tag k="name" v="Rantebotnvatnet" />
		<tag k="natural" v="water" />
		<tag k="ssr:stedsnr" v="859254" />
	</node>
	<node id="-548602" lat="61.6791888927" lon="6.50689444248">
		<tag k="name" v="Nonselva" />
		<tag k="ssr:stedsnr" v="859067" />
		<tag k="waterway" v="stream" />
	</node>
	<node id="-546551" lat="61.7708666654" lon="6.24181388087">
		<tag k="name" v="Kleivedammen" />
		<tag k="natural" v="water" />
		<tag k="ssr:stedsnr" v="10181" />
	</node>
	<node id="-546549" lat="61.7597222194" lon="6.53229722724">
		<tag k="name" v="Fløtratjønna" />
		<tag k="natural" v="water" />
		<tag k="ssr:stedsnr" v="10162" />
	</node>
	<node id="-546548" lat="61.7552472239" lon="6.4212111184">
		<tag k="name" v="Djupegrova" />
		<tag k="ssr:stedsnr" v="10157" />
		<tag k="waterway" v="stream" />
	</node>
	<node id="-548595" lat="61.7093611129" lon="5.75646388283">
		<tag k="name" v="Kaldeelva" />
		<tag k="ssr:stedsnr" v="858682" />
		<tag k="waterway" v="stream" />
	</node>
	<node id="-546546" lat="61.7464166657" lon="6.27602222055">
		<tag k="name" v="Ryssdalsvatnet" />
		<tag k="natural" v="water" />
		<tag k="ssr:stedsnr" v="10147" />
	</node>
	<node id="-548593" lat="61.7473416697" lon="6.06318888737">
		<tag k="name" v="Traudalsvatnet" />
		<tag k="natural" v="water" />
		<tag k="ssr:stedsnr" v="858416" />
		<tag k="water" v="lake" />
	</node>
	<node id="-546542" lat="61.7431444479" lon="6.27995278305">
		<tag k="alt_name" v="Stølselva" />
		<tag k="name" v="Ryssdalselva" />
		<tag k="ssr:stedsnr" v="10144" />
		<tag k="waterway" v="stream" />
	</node>
	<node id="-546538" lat="61.8253916649" lon="6.27853332737">
		<tag k="name" v="Kaldevatnet" />
		<tag k="natural" v="water" />
		<tag k="ssr:stedsnr" v="10131" />
	</node>
	<node id="-546536" lat="61.7164194429" lon="6.31348056436">
		<tag k="fixme" v="multiple name tags, choose one and add the other to alt_name" />
		<tag k="name" v="Dalevatnet;Dalevatnet;Dalevatnet, inste" />
		<tag k="natural" v="water" />
		<tag k="ssr:stedsnr" v="10113" />
		<tag k="water" v="lake" />
	</node>
	<node id="-546535" lat="61.7071111076" lon="6.37230278644">
		<tag k="name" v="Rokkelva" />
		<tag k="ssr:stedsnr" v="10109" />
		<tag k="waterway" v="stream" />
	</node>
	<node id="-548581" lat="61.703180554" lon="6.61785555572">
		<tag k="name" v="Leirelva" />
		<tag k="ssr:stedsnr" v="822931" />
		<tag k="waterway" v="river" />
	</node>
	<node id="-546532" lat="61.7102000044" lon="6.48211666838">
		<tag k="name" v="Skorvevatnet" />
		<tag k="natural" v="water" />
		<tag k="ssr:stedsnr" v="10093" />
	</node>
	<node id="-548578" lat="61.7152833322" lon="6.62094445153">
		<tag k="name" v="Inste Svoragrova" />
		<tag k="ssr:stedsnr" v="822909" />
		<tag k="waterway" v="stream" />
	</node>
	<node id="-548577" lat="61.7147722188" lon="6.53922499575">
		<tag k="name" v="Hagegjølsgrova" />
		<tag k="ssr:stedsnr" v="822907" />
		<tag k="waterway" v="stream" />
	</node>
	<node id="-546528" lat="61.6496638864" lon="6.35427499435">
		<tag k="name" v="Blomskredvatnet" />
		<tag k="natural" v="water" />
		<tag k="ssr:stedsnr" v="10056" />
	</node>
	<node id="-546527" lat="61.645694444" lon="6.34645555872">
		<tag k="name" v="Tverrelva" />
		<tag k="ssr:stedsnr" v="10051" />
		<tag k="waterway" v="stream" />
	</node>
	<node id="-546522" lat="61.6536694424" lon="5.83613056053">
		<tag k="name" v="Fjellvatnet" />
		<tag k="natural" v="water" />
		<tag k="ssr:stedsnr" v="9704" />
	</node>
	<node id="-548569" lat="61.750291663" lon="6.44415833493">
		<tag k="name" v="Fossen" />
		<tag k="natural" v="waterfall" />
		<tag k="ssr:stedsnr" v="822845" />
	</node>
	<node id="-546520" lat="61.6643749973" lon="5.79588610348">
		<tag k="name" v="Øykjevika" />
		<tag k="natural" v="bay" />
		<tag k="ssr:stedsnr" v="9696" />
	</node>
	<node id="-546519" lat="61.6901583368" lon="5.72318333785">
		<tag k="name" v="Kvanngrøvatnet" />
		<tag k="natural" v="water" />
		<tag k="ssr:stedsnr" v="9666" />
	</node>
	<node id="-546518" lat="61.6574999987" lon="6.05615555291">
		<tag k="alt_name" v="Veslevasstranda" />
		<tag k="name" v="Veslevasstronda" />
		<tag k="natural" v="beach" />
		<tag k="ssr:stedsnr" v="9271" />
	</node>
	<node id="-548564" lat="61.6509416664" lon="6.42013056073">
		<tag k="name" v="Hestenesvika" />
		<tag k="natural" v="bay" />
		<tag k="ssr:stedsnr" v="822819" />
	</node>
	<node id="-548559" lat="61.7617277767" lon="6.38669165997">
		<tag k="name" v="Rotevadelva" />
		<tag k="ssr:stedsnr" v="822798" />
		<tag k="waterway" v="stream" />
	</node>
	<node id="-546508" lat="61.7971972196" lon="6.50774721367">
		<tag k="name" v="Brulandselva" />
		<tag k="ssr:stedsnr" v="154515" />
		<tag k="waterway" v="river" />
	</node>
	<node id="-546507" lat="61.7885861075" lon="6.53571110217">
		<tag k="name" v="Tverrelva" />
		<tag k="ssr:stedsnr" v="131209" />
		<tag k="waterway" v="stream" />
	</node>
	<node id="-548543" lat="61.760749997" lon="6.18948888297">
		<tag k="name" v="Fitjeelva" />
		<tag k="ssr:stedsnr" v="822237" />
		<tag k="waterway" v="river" />
	</node>
	<node id="-548542" lat="61.7865722248" lon="6.24199999794">
		<tag k="name" v="Åsgrova" />
		<tag k="ssr:stedsnr" v="822235" />
		<tag k="waterway" v="stream" />
	</node>
	<node id="-548539" lat="61.7643000004" lon="6.2116916675">
		<tag k="name" v="Evebøfossen" />
		<tag k="natural" v="waterfall" />
		<tag k="ssr:stedsnr" v="822219" />
	</node>
	<node id="-548537" lat="61.7151750016" lon="6.37812499405">
		<tag k="name" v="Ospevika" />
		<tag k="natural" v="bay" />
		<tag k="ssr:stedsnr" v="822178" />
	</node>
	<node id="-548531" lat="61.6898888909" lon="6.40288332701">
		<tag k="name" v="Gangstø" />
		<tag k="natural" v="bay" />
		<tag k="ssr:stedsnr" v="822145" />
	</node>
	<node id="-548529" lat="61.6716194408" lon="6.38213611125">
		<tag k="name" v="Klubben" />
		<tag k="natural" v="strait" />
		<tag k="ssr:stedsnr" v="822138" />
	</node>
	<node id="-548528" lat="61.7737277775" lon="6.0766583247">
		<tag k="name" v="Inste Tungeelva" />
		<tag k="ssr:stedsnr" v="822128" />
		<tag k="waterway" v="stream" />
	</node>
	<node id="-548526" lat="61.7173333361" lon="6.16936945209">
		<tag k="name" v="Sletteneset" />
		<tag k="natural" v="cape" />
		<tag k="ssr:stedsnr" v="822080" />
	</node>
	<node id="-546473" lat="61.6443111071" lon="6.36651388709">
		<tag k="name" v="Tverrelva" />
		<tag k="ssr:stedsnr" v="883266" />
		<tag k="waterway" v="river" />
	</node>
	<node id="-548520" lat="61.6381888885" lon="5.78991388632">
		<tag k="name" v="Vika" />
		<tag k="natural" v="bay" />
		<tag k="ssr:stedsnr" v="821723" />
	</node>
	<node id="-546468" lat="61.7470777798" lon="6.31188333864">
		<tag k="name" v="Ebbvika" />
		<tag k="natural" v="bay" />
		<tag k="ssr:stedsnr" v="883213" />
	</node>
	<node id="-546463" lat="61.6994555544" lon="6.31928332928">
		<tag k="name" v="Smalebruelva" />
		<tag k="ssr:stedsnr" v="883165" />
		<tag k="waterway" v="river" />
	</node>
	<node id="-548504" lat="61.6127638854" lon="5.71590555909">
		<tag k="name" v="Vassendeneset" />
		<tag k="natural" v="cape" />
		<tag k="ssr:stedsnr" v="821488" />
	</node>
	<node id="-548502" lat="61.7628583352" lon="5.97222777511">
		<tag k="name" v="Skasvora" />
		<tag k="ssr:stedsnr" v="821479" />
		<tag k="waterway" v="stream" />
	</node>
	<node id="-548501" lat="61.834586107" lon="5.96949721901">
		<tag k="name" v="Skjerdalselva" />
		<tag k="ssr:stedsnr" v="821473" />
		<tag k="waterway" v="river" />
	</node>
	<node id="-548500" lat="61.8347083326" lon="5.95772499959">
		<tag k="name" v="Kloppegrova" />
		<tag k="ssr:stedsnr" v="821474" />
		<tag k="waterway" v="stream" />
	</node>
	<node id="-546449" lat="61.6665611088" lon="6.21250278453">
		<tag k="name" v="Fagredalselva" />
		<tag k="ssr:stedsnr" v="883042" />
		<tag k="waterway" v="river" />
	</node>
	<node id="-546443" lat="61.6718027789" lon="5.77276666611">
		<tag k="name" v="Myraftefossen" />
		<tag k="natural" v="waterfall" />
		<tag k="ssr:stedsnr" v="882610" />
	</node>
	<node id="-546430" lat="61.8279416654" lon="6.02222222304">
		<tag k="name" v="Storelva" />
		<tag k="ssr:stedsnr" v="882337" />
		<tag k="waterway" v="river" />
	</node>
	<node id="-548474" lat="61.7227722233" lon="5.91655000851">
		<tag k="name" v="Vassenden" />
		<tag k="ssr:stedsnr" v="821256" />
		<tag k="waterway" v="rapids" />
	</node>
	<node id="-546425" lat="61.6565833313" lon="5.93578610852">
		<tag k="name" v="Hellegrova" />
		<tag k="ssr:stedsnr" v="882273" />
		<tag k="waterway" v="stream" />
	</node>
	<node id="-546419" lat="61.846008333" lon="5.83499166218">
		<tag k="name" v="Merkingsgrova" />
		<tag k="ssr:stedsnr" v="882240" />
		<tag k="waterway" v="stream" />
	</node>
	<node id="-548466" lat="61.7055444453" lon="6.42152221467">
		<tag k="name" v="Støylsgrova" />
		<tag k="ssr:stedsnr" v="809509" />
		<tag k="waterway" v="stream" />
	</node>
	<node id="-548463" lat="61.7951638861" lon="6.07989444898">
		<tag k="alt_name" v="Lomtjønna" />
		<tag k="name" v="Lometjønna" />
		<tag k="natural" v="water" />
		<tag k="ssr:stedsnr" v="799763" />
	</node>
	<node id="-548462" lat="61.7868305551" lon="6.0598527864">
		<tag k="name" v="Daudfosselva" />
		<tag k="ssr:stedsnr" v="799751" />
		<tag k="waterway" v="stream" />
	</node>
	<node id="-548416" lat="61.6951388848" lon="5.7421805469">
		<tag k="name" v="Kvanndalsvatnet" />
		<tag k="natural" v="water" />
		<tag k="ssr:stedsnr" v="797681" />
	</node>
	<node id="-548458" lat="61.8083327891" lon="6.04438086943">
		<tag k="name" v="Hestedalsvatnet" />
		<tag k="natural" v="water" />
		<tag k="ssr:stedsnr" v="799745" />
	</node>
	<node id="-548455" lat="61.6873222262" lon="5.93204165876">
		<tag k="name" v="Tverrelva" />
		<tag k="ssr:stedsnr" v="799736" />
		<tag k="waterway" v="stream" />
	</node>
	<node id="-548452" lat="61.7769777741" lon="6.70537222834">
		<tag k="name" v="Svartebotnvatnet" />
		<tag k="natural" v="water" />
		<tag k="ssr:stedsnr" v="799440" />
		<tag k="water" v="lake" />
	</node>
	<node id="-548450" lat="61.7326805574" lon="6.05392222998">
		<tag k="name" v="Instevatnet" />
		<tag k="natural" v="water" />
		<tag k="ssr:stedsnr" v="799361" />
	</node>
	<node id="-546400" lat="61.7415638871" lon="6.50181111184">
		<tag k="name" v="Kleppselva" />
		<tag k="ssr:stedsnr" v="397864" />
		<tag k="waterway" v="stream" />
	</node>
	<node id="-548446" lat="61.6646000042" lon="5.99435833584">
		<tag k="name" v="Hjellagrova" />
		<tag k="ssr:stedsnr" v="799307" />
		<tag k="waterway" v="stream" />
	</node>
	<node id="-548445" lat="61.757608333" lon="6.54366666066">
		<tag k="name" v="Støylstjønnene" />
		<tag k="natural" v="water" />
		<tag k="ssr:stedsnr" v="799239" />
	</node>
	<node id="-548443" lat="61.7872388877" lon="6.40181389027">
		<tag k="name" v="Skarvatnet" />
		<tag k="natural" v="water" />
		<tag k="ssr:stedsnr" v="799178" />
	</node>
	<node id="-548437" lat="61.7479944404" lon="6.55046112047">
		<tag k="name" v="Tverrelva" />
		<tag k="ssr:stedsnr" v="799129" />
		<tag k="waterway" v="stream" />
	</node>
	<node id="-548436" lat="61.7029583337" lon="6.5451305565">
		<tag k="name" v="Strandaelva" />
		<tag k="ssr:stedsnr" v="799085" />
		<tag k="waterway" v="stream" />
	</node>
	<node id="-548435" lat="61.6945333322" lon="6.46752500899">
		<tag k="name" v="Blåfjellvatnet" />
		<tag k="natural" v="water" />
		<tag k="ssr:stedsnr" v="799086" />
	</node>
	<node id="-548434" lat="61.6983249994" lon="6.54766111991">
		<tag k="name" v="Gåsemyrelva" />
		<tag k="ssr:stedsnr" v="799084" />
		<tag k="waterway" v="stream" />
	</node>
	<node id="-546385" lat="61.6609666644" lon="6.07282499738">
		<tag k="name" v="Hølen" />
		<tag k="place" v="locality" />
		<tag k="ssr:stedsnr" v="397466" />
	</node>
	<node id="-548432" lat="61.647725" lon="6.59012500161">
		<tag k="name" v="Svartebottsvatnet" />
		<tag k="natural" v="water" />
		<tag k="ssr:stedsnr" v="799038" />
	</node>
	<node id="-546383" lat="61.6848583374" lon="6.10463333996">
		<tag k="name" v="Holmen" />
		<tag k="place" v="islet" />
		<tag k="ssr:stedsnr" v="397459" />
	</node>
	<node id="-548427" lat="61.7737222245" lon="5.97746110872">
		<tag k="name" v="Storesvora" />
		<tag k="ssr:stedsnr" v="798700" />
		<tag k="waterway" v="stream" />
	</node>
	<node id="-548426" lat="61.6212611128" lon="5.71091944223">
		<tag k="name" v="Langeneset" />
		<tag k="natural" v="cape" />
		<tag k="ssr:stedsnr" v="798692" />
	</node>
	<node id="-548422" lat="61.6521749966" lon="6.1226083346">
		<tag k="alt_name" v="Blåvatnet, yt" />
		<tag k="name" v="Ytste Blåvatnet" />
		<tag k="natural" v="water" />
		<tag k="ssr:stedsnr" v="798261" />
	</node>
	<node id="-548421" lat="61.6613611121" lon="6.0561277699">
		<tag k="fixme" v="multiple name tags, choose one and add the other to alt_name" />
		<tag k="name" v="Dalevatnet;Veslevatnet" />
		<tag k="natural" v="water" />
		<tag k="ssr:stedsnr" v="798256" />
		<tag k="water" v="lake" />
	</node>
	<node id="-546372" lat="61.6564361108" lon="6.36322778455">
		<tag k="name" v="Storegrova" />
		<tag k="ssr:stedsnr" v="397252" />
		<tag k="waterway" v="stream" />
	</node>
	<node id="-548418" lat="61.6497277808" lon="5.8219666739">
		<tag k="name" v="Holteelva" />
		<tag k="ssr:stedsnr" v="797727" />
		<tag k="waterway" v="stream" />
	</node>
	<node id="-548417" lat="61.6757055591" lon="5.72637500131">
		<tag k="name" v="Storevatnet" />
		<tag k="natural" v="water" />
		<tag k="ssr:stedsnr" v="797698" />
		<tag k="water" v="lake" />
	</node>
	<node id="-546368" lat="61.6795111103" lon="6.37619444117">
		<tag k="name" v="Gjeraneset" />
		<tag k="natural" v="cape" />
		<tag k="ssr:stedsnr" v="397168" />
	</node>
	<node id="-546367" lat="61.7865222225" lon="6.06720832722">
		<tag k="name" v="Daufossen" />
		<tag k="natural" v="waterfall" />
		<tag k="ssr:stedsnr" v="397114" />
	</node>
	<node id="-546365" lat="61.7245666692" lon="6.16550278276">
		<tag k="name" v="Ångsdalsneset" />
		<tag k="natural" v="cape" />
		<tag k="ssr:stedsnr" v="397094" />
	</node>
	<node id="-548412" lat="61.7526666632" lon="5.96037222429">
		<tag k="name" v="Tjøtaelva" />
		<tag k="ssr:stedsnr" v="797385" />
		<tag k="waterway" v="stream" />
	</node>
	<node id="-546363" lat="61.7415194414" lon="6.14398333246">
		<tag k="name" v="Osen" />
		<tag k="natural" v="bay" />
		<tag k="ssr:stedsnr" v="397080" />
	</node>
	<node id="-546358" lat="61.6596916643" lon="6.23381388274">
		<tag k="name" v="Steinbotnelva" />
		<tag k="ssr:stedsnr" v="397033" />
		<tag k="waterway" v="river" />
	</node>
	<node id="-548399" lat="61.6102527792" lon="5.66438333214">
		<tag k="name" v="Sørevika" />
		<tag k="natural" v="bay" />
		<tag k="ssr:stedsnr" v="761920" />
	</node>
	<node id="-546349" lat="61.6559138858" lon="5.79683610915">
		<tag k="name" v="Sandhamnen" />
		<tag k="natural" v="bay" />
		<tag k="ssr:stedsnr" v="396698" />
	</node>
	<node id="-546348" lat="61.6392805539" lon="5.73356387968">
		<tag k="name" v="Vikane" />
		<tag k="natural" v="bay" />
		<tag k="ssr:stedsnr" v="396693" />
	</node>
	<node id="-548395" lat="61.7407194473" lon="6.49101667403">
		<tag k="name" v="Fløtreelva" />
		<tag k="ssr:stedsnr" v="761868" />
		<tag k="waterway" v="stream" />
	</node>
	<node id="-548390" lat="61.6525055563" lon="6.51700833242">
		<tag k="name" v="Langevadsanden" />
		<tag k="natural" v="shoal" />
		<tag k="place" v="locality" />
		<tag k="ssr:stedsnr" v="761828" />
	</node>
	<node id="-546328" lat="61.7880305599" lon="5.98643611629">
		<tag k="alt_name" v="Gjølsvora" />
		<tag k="name" v="Gjølasvora" />
		<tag k="ssr:stedsnr" v="396457" />
		<tag k="waterway" v="stream" />
	</node>
	<node id="-548374" lat="61.7544138869" lon="6.24646110325">
		<tag k="name" v="Bjorsdiket" />
		<tag k="natural" v="water" />
		<tag k="ssr:stedsnr" v="761218" />
		<tag k="water" v="pond" />
	</node>
	<node id="-546325" lat="61.6920055554" lon="5.96887499834">
		<tag k="name" v="Breidalselva" />
		<tag k="ssr:stedsnr" v="396451" />
		<tag k="waterway" v="river" />
	</node>
	<node id="-548372" lat="61.6250333898" lon="6.3729638805">
		<tag k="name" v="Leirevatnet" />
		<tag k="natural" v="water" />
		<tag k="ssr:stedsnr" v="761179" />
		<tag k="water" v="lake" />
	</node>
	<node id="-548371" lat="61.6948694479" lon="6.36262499834">
		<tag k="name" v="Neselva" />
		<tag k="ssr:stedsnr" v="761171" />
		<tag k="waterway" v="river" />
	</node>
	<node id="-548370" lat="61.6917750031" lon="6.37234165769">
		<tag k="name" v="Antonsvika" />
		<tag k="natural" v="bay" />
		<tag k="ssr:stedsnr" v="761172" />
	</node>
	<node id="-548369" lat="61.6936222229" lon="6.40384443726">
		<tag k="name" v="Kloneset" />
		<tag k="natural" v="cape" />
		<tag k="ssr:stedsnr" v="761166" />
	</node>
	<node id="-546320" lat="61.8312277814" lon="6.00130000253">
		<tag k="name" v="Høgeligrova" />
		<tag k="ssr:stedsnr" v="396377" />
		<tag k="waterway" v="stream" />
	</node>
	<node id="-546319" lat="61.8188388884" lon="5.94608056301">
		<tag k="name" v="Gardstølskora" />
		<tag k="ssr:stedsnr" v="396356" />
		<tag k="waterway" v="stream" />
	</node>
	<node id="-548363" lat="61.7786666683" lon="6.12032500612">
		<tag k="name" v="Ryggelva" />
		<tag k="ssr:stedsnr" v="761123" />
		<tag k="waterway" v="river" />
	</node>
	<node id="-546312" lat="61.7015999979" lon="5.9136555633">
		<tag k="name" v="Rekevika" />
		<tag k="natural" v="bay" />
		<tag k="ssr:stedsnr" v="396285" />
	</node>
	<node id="-546306" lat="61.7625944408" lon="6.25462499837">
		<tag k="name" v="Grasdalfossen" />
		<tag k="natural" v="waterfall" />
		<tag k="ssr:stedsnr" v="391722" />
	</node>
	<node id="-546303" lat="61.7189888876" lon="5.81823334186">
		<tag k="name" v="Skredelva" />
		<tag k="ssr:stedsnr" v="383736" />
		<tag k="waterway" v="stream" />
	</node>
	<node id="-548348" lat="61.6585333366" lon="5.79506110224">
		<tag k="name" v="Trollehamnen" />
		<tag k="natural" v="bay" />
		<tag k="ssr:stedsnr" v="760721" />
	</node>
	<node id="-548340" lat="61.7159138919" lon="5.77213333328">
		<tag k="name" v="Osen" />
		<tag k="natural" v="bay" />
		<tag k="ssr:stedsnr" v="760675" />
	</node>
	<node id="-548333" lat="61.6640861137" lon="5.93615554913">
		<tag k="name" v="Kvitegrova" />
		<tag k="ssr:stedsnr" v="760469" />
		<tag k="waterway" v="stream" />
	</node>
	<node id="-546280" lat="61.7120500038" lon="6.01809166784">
		<tag k="name" v="Styggvatna" />
		<tag k="natural" v="water" />
		<tag k="ssr:stedsnr" v="374376" />
		<tag k="water" v="lake" />
	</node>
	<node id="-546279" lat="61.6820444453" lon="6.13243888148">
		<tag k="name" v="Måsevasselva" />
		<tag k="ssr:stedsnr" v="374356" />
		<tag k="waterway" v="stream" />
	</node>
	<node id="-548325" lat="61.7373444429" lon="5.897027777">
		<tag k="name" v="Åreneset" />
		<tag k="natural" v="cape" />
		<tag k="ssr:stedsnr" v="760374" />
	</node>
	<node id="-546276" lat="61.6641416635" lon="5.89702500678">
		<tag k="name" v="Breivadelva" />
		<tag k="ssr:stedsnr" v="374315" />
		<tag k="waterway" v="stream" />
	</node>
	<node id="-548323" lat="61.7277277822" lon="5.84810556067">
		<tag k="name" v="Øyene" />
		<tag k="place" v="islet" />
		<tag k="ssr:stedsnr" v="760361" />
	</node>
	<node id="-546270" lat="61.7334500044" lon="6.27837778317">
		<tag k="name" v="Tverrlielva" />
		<tag k="ssr:stedsnr" v="374140" />
		<tag k="waterway" v="stream" />
	</node>
	<node id="-546266" lat="61.7968194464" lon="6.31991388014">
		<tag k="name" v="Skarshammarvatnet" />
		<tag k="natural" v="water" />
		<tag k="ssr:stedsnr" v="374100" />
	</node>
	<node id="-546265" lat="61.7099666688" lon="6.45986389747">
		<tag k="name" v="Bøavatnet" />
		<tag k="natural" v="water" />
		<tag k="ssr:stedsnr" v="374096" />
	</node>
	<node id="-546263" lat="61.6848138845" lon="6.63462777753">
		<tag k="name" v="Støylselvane" />
		<tag k="ssr:stedsnr" v="373924" />
		<tag k="waterway" v="stream" />
	</node>
	<node id="-548310" lat="61.7145972221" lon="5.91742778283">
		<tag k="name" v="Osen" />
		<tag k="natural" v="bay" />
		<tag k="ssr:stedsnr" v="760280" />
	</node>
	<node id="-546261" lat="61.6261250027" lon="5.74785832498">
		<tag k="name" v="Fureneset" />
		<tag k="natural" v="cape" />
		<tag k="ssr:stedsnr" v="373794" />
	</node>
	<node id="-546259" lat="61.6819111085" lon="6.04800555837">
		<tag k="name" v="Støylselva" />
		<tag k="ssr:stedsnr" v="373719" />
		<tag k="waterway" v="stream" />
	</node>
	<node id="-546258" lat="61.8368388894" lon="5.87340832743">
		<tag k="name" v="Prestevatnet" />
		<tag k="natural" v="water" />
		<tag k="ssr:stedsnr" v="373677" />
	</node>
	<node id="-546256" lat="61.6493138856" lon="5.91148055425">
		<tag k="name" v="Mjelleimsstøylsvatnet" />
		<tag k="natural" v="water" />
		<tag k="ssr:stedsnr" v="373288" />
	</node>
	<node id="-548302" lat="61.7531527758" lon="6.05917222339">
		<tag k="name" v="Berdalselva" />
		<tag k="ssr:stedsnr" v="738763" />
		<tag k="waterway" v="stream" />
	</node>
	<node id="-548301" lat="61.7519527803" lon="6.07733888776">
		<tag k="name" v="Røyrvika" />
		<tag k="natural" v="bay" />
		<tag k="ssr:stedsnr" v="738762" />
	</node>
	<node id="-548300" lat="61.758263887" lon="6.10553332924">
		<tag k="name" v="Traudalselva" />
		<tag k="ssr:stedsnr" v="738757" />
		<tag k="waterway" v="river" />
	</node>
	<node id="-548298" lat="61.7828055545" lon="6.08598333618">
		<tag k="alt_name" v="Kvanndalselva" />
		<tag k="name" v="Kvitefella" />
		<tag k="ssr:stedsnr" v="738750" />
		<tag k="waterway" v="stream" />
	</node>
	<node id="-548296" lat="61.7968861112" lon="5.99329165903">
		<tag k="name" v="Gjølsvora" />
		<tag k="ssr:stedsnr" v="738738" />
		<tag k="waterway" v="stream" />
	</node>
	<node id="-546245" lat="61.6114444416" lon="5.71115554958">
		<tag k="name" v="Vassenden" />
		<tag k="natural" v="beach" />
		<tag k="ssr:stedsnr" v="372711" />
	</node>
	<node id="-548290" lat="61.8521194456" lon="5.86957500264">
		<tag k="name" v="Storelva" />
		<tag k="ssr:stedsnr" v="738648" />
		<tag k="waterway" v="stream" />
	</node>
	<node id="-546720" lat="61.8491194486" lon="5.95009165968">
		<tag k="name" v="Skjerdalssvora" />
		<tag k="ssr:stedsnr" v="70643" />
		<tag k="waterway" v="stream" />
	</node>
	<node id="-548286" lat="61.688561107" lon="6.12214723191">
		<tag k="name" v="Langelva" />
		<tag k="ssr:stedsnr" v="738341" />
		<tag k="waterway" v="stream" />
	</node>
	<node id="-548285" lat="61.6782666693" lon="6.08715000511">
		<tag k="name" v="Storevatnet" />
		<tag k="natural" v="water" />
		<tag k="ssr:stedsnr" v="738340" />
		<tag k="water" v="lake" />
	</node>
	<node id="-548284" lat="61.6866083302" lon="5.84923333914">
		<tag k="name" v="Øyravatnet" />
		<tag k="natural" v="water" />
		<tag k="ssr:stedsnr" v="738333" />
	</node>
	<node id="-548283" lat="61.6911388915" lon="5.92356667498">
		<tag k="name" v="Åelva" />
		<tag k="ssr:stedsnr" v="738324" />
		<tag k="waterway" v="river" />
	</node>
	<node id="-548278" lat="61.7735527814" lon="6.22255278475">
		<tag k="alt_name" v="Austrheimselva;Sandeelva" />
		<tag k="name" v="Holvikelva" />
		<tag k="ssr:stedsnr" v="738164" />
		<tag k="waterway" v="stream" />
	</node>
	<node id="-546227" lat="61.6115833291" lon="5.66209443858">
		<tag k="name" v="Sørevikneset" />
		<tag k="natural" v="cape" />
		<tag k="ssr:stedsnr" v="336894" />
	</node>
	<node id="-548274" lat="61.7710111132" lon="6.52731667018">
		<tag k="name" v="Kopphaugtjønna" />
		<tag k="natural" v="water" />
		<tag k="ssr:stedsnr" v="738149" />
	</node>
	<node id="-546225" lat="61.6142527801" lon="5.66023611415">
		<tag k="name" v="Griseryggen" />
		<tag k="natural" v="cape" />
		<tag k="ssr:stedsnr" v="336881" />
	</node>
	<node id="-546224" lat="61.7231361154" lon="6.61657221683">
		<tag k="name" v="Spirefossen" />
		<tag k="natural" v="waterfall" />
		<tag k="ssr:stedsnr" v="336871" />
	</node>
	<node id="-546773" lat="61.6584888904" lon="5.94732222794">
		<tag k="name" v="Gjengedalsfossen" />
		<tag k="natural" v="waterfall" />
		<tag k="ssr:stedsnr" v="93267" />
	</node>
	<node id="-548270" lat="61.8205277811" lon="6.28480000842">
		<tag k="name" v="Grønmyrvatnet" />
		<tag k="natural" v="water" />
		<tag k="ssr:stedsnr" v="738133" />
	</node>
	<node id="-546220" lat="61.6891055588" lon="6.62596389495">
		<tag k="name" v="Ytste Stølselva" />
		<tag k="ssr:stedsnr" v="336823" />
		<tag k="waterway" v="stream" />
	</node>
	<node id="-548266" lat="61.7072000021" lon="6.5293805497">
		<tag k="name" v="Bergheimsvatnet" />
		<tag k="natural" v="water" />
		<tag k="ssr:stedsnr" v="738099" />
		<tag k="water" v="lake" />
	</node>
	<node id="-548263" lat="61.8060555541" lon="6.28755834252">
		<tag k="name" v="Blåvatna" />
		<tag k="natural" v="water" />
		<tag k="ssr:stedsnr" v="738087" />
	</node>
	<node id="-548259" lat="61.7118083371" lon="6.62520000909">
		<tag k="name" v="Høgegrova" />
		<tag k="ssr:stedsnr" v="737901" />
		<tag k="waterway" v="stream" />
	</node>
	<node id="-548258" lat="61.6120249979" lon="5.65629444726">
		<tag k="name" v="Krokstadholmen" />
		<tag k="place" v="islet" />
		<tag k="ssr:stedsnr" v="737732" />
	</node>
	<node id="-548257" lat="61.6233305573" lon="5.76510000127">
		<tag k="name" v="Fureneselva" />
		<tag k="ssr:stedsnr" v="737722" />
		<tag k="waterway" v="stream" />
	</node>
	<node id="-548256" lat="61.6271083358" lon="5.68328333277">
		<tag k="name" v="Litlevatnet" />
		<tag k="natural" v="water" />
		<tag k="ssr:stedsnr" v="737713" />
	</node>
	<node id="-548255" lat="61.6858777802" lon="5.82369443634">
		<tag k="name" v="Røyrvikvatnet" />
		<tag k="natural" v="water" />
		<tag k="ssr:stedsnr" v="737663" />
		<tag k="water" v="lake" />
	</node>
	<node id="-548249" lat="61.6935444457" lon="5.71700000841">
		<tag k="name" v="Skorvatna" />
		<tag k="natural" v="water" />
		<tag k="ssr:stedsnr" v="736684" />
		<tag k="water" v="lake" />
	</node>
	<node id="-548239" lat="61.6788666622" lon="6.55316666501">
		<tag k="name" v="Selebotsgrova" />
		<tag k="ssr:stedsnr" v="701917" />
		<tag k="waterway" v="stream" />
	</node>
	<node id="-546370" lat="61.7344555572" lon="6.35028888695">
		<tag k="name" v="Hetleteigneset" />
		<tag k="natural" v="cape" />
		<tag k="ssr:stedsnr" v="397222" />
	</node>
	<node id="-546711" lat="61.8095611112" lon="6.25423333852">
		<tag k="name" v="Moldatjønna" />
		<tag k="natural" v="water" />
		<tag k="ssr:stedsnr" v="70066" />
	</node>
	<node id="-548272" lat="61.7544527742" lon="6.35755555035">
		<tag k="name" v="Hunskorelva" />
		<tag k="ssr:stedsnr" v="738144" />
		<tag k="waterway" v="stream" />
	</node>
	<node id="-548223" lat="61.6796694479" lon="6.50798611593">
		<tag k="name" v="Andaråna" />
		<tag k="ssr:stedsnr" v="701788" />
		<tag k="waterway" v="stream" />
	</node>
	<node id="-548218" lat="61.8443155801" lon="6.26816243269">
		<tag k="name" v="Skårsvikgrova" />
		<tag k="ssr:stedsnr" v="701282" />
		<tag k="waterway" v="stream" />
	</node>
	<node id="-548217" lat="61.6556472264" lon="6.40744444571">
		<tag k="name" v="Langenesgrova" />
		<tag k="ssr:stedsnr" v="701272" />
		<tag k="waterway" v="stream" />
	</node>
	<node id="-548210" lat="61.7370749986" lon="6.33964443523">
		<tag k="name" v="Trollebørja" />
		<tag k="ssr:stedsnr" v="701210" />
		<tag k="waterway" v="stream" />
	</node>
	<node id="-546707" lat="61.6764666679" lon="5.78666666945">
		<tag k="name" v="Ytsteelva" />
		<tag k="ssr:stedsnr" v="69717" />
		<tag k="waterway" v="stream" />
	</node>
	<node id="-546160" lat="61.7085888893" lon="5.81158889113">
		<tag k="name" v="Osefossen" />
		<tag k="natural" v="waterfall" />
		<tag k="ssr:stedsnr" v="336258" />
	</node>
	<node id="-546158" lat="61.7077138905" lon="5.80988055442">
		<tag k="name" v="Osen" />
		<tag k="natural" v="bay" />
		<tag k="ssr:stedsnr" v="336257" />
	</node>
	<node id="-548201" lat="61.6371527745" lon="6.37337776956">
		<tag k="name" v="Høgelielva" />
		<tag k="ssr:stedsnr" v="701157" />
		<tag k="waterway" v="river" />
	</node>
	<node id="-546151" lat="61.659947218" lon="6.39902777829">
		<tag k="name" v="Fossagrova" />
		<tag k="ssr:stedsnr" v="336227" />
		<tag k="waterway" v="stream" />
	</node>
	<node id="-548195" lat="61.7380749967" lon="6.15396389603">
		<tag k="name" v="Sletteneset" />
		<tag k="natural" v="cape" />
		<tag k="ssr:stedsnr" v="701078" />
	</node>
	<node id="-548191" lat="61.6671083367" lon="6.18583888042">
		<tag k="name" v="Neset" />
		<tag k="natural" v="cape" />
		<tag k="ssr:stedsnr" v="701035" />
	</node>
	<node id="-546142" lat="61.676091671" lon="6.40303334081">
		<tag k="name" v="Naustneset" />
		<tag k="natural" v="cape" />
		<tag k="ssr:stedsnr" v="336142" />
	</node>
	<node id="-546141" lat="61.7920083364" lon="6.0724388806">
		<tag k="name" v="Geitavadgrova" />
		<tag k="ssr:stedsnr" v="336103" />
		<tag k="waterway" v="stream" />
	</node>
	<node id="-546139" lat="61.7422055513" lon="6.05739166529">
		<tag k="name" v="Kaldeelva" />
		<tag k="ssr:stedsnr" v="336065" />
		<tag k="waterway" v="river" />
	</node>
	<node id="-548179" lat="61.6329638913" lon="5.7663888881">
		<tag k="name" v="Stølstadvika" />
		<tag k="natural" v="bay" />
		<tag k="ssr:stedsnr" v="700709" />
	</node>
	<node id="-548178" lat="61.7043444403" lon="5.78150554729">
		<tag k="name" v="Tyskeneset" />
		<tag k="natural" v="cape" />
		<tag k="ssr:stedsnr" v="700710" />
	</node>
	<node id="-546125" lat="61.6639777756" lon="5.86146111073">
		<tag k="name" v="Skorvatnet" />
		<tag k="natural" v="water" />
		<tag k="ssr:stedsnr" v="314320" />
	</node>
	<node id="-546122" lat="61.7039166687" lon="6.48740000926">
		<tag k="name" v="Ytrevatnet" />
		<tag k="natural" v="water" />
		<tag k="ssr:stedsnr" v="314079" />
	</node>
	<node id="-546118" lat="61.7711888877" lon="5.93667499145">
		<tag k="alt_name" v="Røysskreda" />
		<tag k="name" v="Røysskredsvora" />
		<tag k="ssr:stedsnr" v="313747" />
		<tag k="waterway" v="stream" />
	</node>
	<node id="-548065" lat="61.6747416707" lon="6.27324999621">
		<tag k="name" v="Sørsendalsvatna" />
		<tag k="natural" v="water" />
		<tag k="ssr:stedsnr" v="677077" />
		<tag k="water" v="lake" />
	</node>
	<node id="-548161" lat="61.6405444417" lon="5.99550832773">
		<tag k="name" v="Skargrova" />
		<tag k="ssr:stedsnr" v="700485" />
		<tag k="waterway" v="stream" />
	</node>
	<node id="-546112" lat="61.8107499962" lon="6.062274994">
		<tag k="name" v="Salomonstjønna" />
		<tag k="natural" v="water" />
		<tag k="ssr:stedsnr" v="313710" />
	</node>
	<node id="-546106" lat="61.7182083311" lon="5.91885833664">
		<tag k="name" v="Åvatnet" />
		<tag k="natural" v="water" />
		<tag k="ssr:stedsnr" v="313368" />
		<tag k="water" v="lake" />
	</node>
	<node id="-548152" lat="61.8327972256" lon="6.03569443972">
		<tag k="name" v="Høydøla" />
		<tag k="ssr:stedsnr" v="700400" />
		<tag k="waterway" v="stream" />
	</node>
	<node id="-546101" lat="61.6908944424" lon="5.87508889159">
		<tag k="name" v="Nipeelva" />
		<tag k="ssr:stedsnr" v="313321" />
		<tag k="waterway" v="stream" />
	</node>
	<node id="-546099" lat="61.6923222236" lon="6.10851944986">
		<tag k="fixme" v="multiple name tags, choose one and add the other to alt_name" />
		<tag k="name" v="Hjellagrova;Sameignegrova" />
		<tag k="ssr:stedsnr" v="313318" />
		<tag k="waterway" v="stream" />
	</node>
	<node id="-546098" lat="61.6908111155" lon="6.02125833742">
		<tag k="name" v="Skvetten" />
		<tag k="natural" v="water" />
		<tag k="ssr:stedsnr" v="313312" />
	</node>
	<node id="-548144" lat="61.6409083345" lon="5.87509445007">
		<tag k="name" v="Sundet" />
		<tag k="natural" v="strait" />
		<tag k="ssr:stedsnr" v="700332" />
	</node>
	<node id="-548143" lat="61.7135916691" lon="5.92038888683">
		<tag k="name" v="Inste Meronvika" />
		<tag k="natural" v="bay" />
		<tag k="ssr:stedsnr" v="700300" />
	</node>
	<node id="-546092" lat="61.7512361111" lon="6.28385833103">
		<tag k="name" v="Ryssdalsnes" />
		<tag k="natural" v="cape" />
		<tag k="ssr:stedsnr" v="313162" />
	</node>
	<node id="-548136" lat="61.776138888" lon="6.07687499597">
		<tag k="name" v="Ytste Tungeelva" />
		<tag k="ssr:stedsnr" v="700141" />
		<tag k="waterway" v="stream" />
	</node>
	<node id="-546085" lat="61.7105000039" lon="6.27536667001">
		<tag k="name" v="Trollevatnet" />
		<tag k="natural" v="water" />
		<tag k="ssr:stedsnr" v="313107" />
	</node>
	<node id="-546081" lat="61.6394333351" lon="5.649422229">
		<tag k="name" v="Bogefossen" />
		<tag k="natural" v="waterfall" />
		<tag k="ssr:stedsnr" v="312694" />
	</node>
	<node id="-546079" lat="61.6917750024" lon="5.80363610711">
		<tag k="name" v="Fullskjeggevatnet" />
		<tag k="natural" v="water" />
		<tag k="ssr:stedsnr" v="312649" />
	</node>
	<node id="-548126" lat="61.7551777754" lon="6.07425000341">
		<tag k="name" v="Gjelsvika" />
		<tag k="natural" v="bay" />
		<tag k="ssr:stedsnr" v="700032" />
	</node>
	<node id="-546077" lat="61.7042416625" lon="5.79316945145">
		<tag k="name" v="Skilbreivatnet" />
		<tag k="natural" v="water" />
		<tag k="ssr:stedsnr" v="312642" />
		<tag k="water" v="lake" />
	</node>
	<node id="-548120" lat="61.76068611" lon="6.58270832558">
		<tag k="name" v="Bjørnagrova" />
		<tag k="ssr:stedsnr" v="695641" />
		<tag k="waterway" v="stream" />
	</node>
	<node id="-546069" lat="61.7388083319" lon="6.54128054995">
		<tag k="name" v="Gamleseta" />
		<tag k="ssr:stedsnr" v="71126" />
		<tag k="waterway" v="stream" />
	</node>
	<node id="-548115" lat="61.6689527774" lon="6.51617500375">
		<tag k="name" v="Votedalselva" />
		<tag k="ssr:stedsnr" v="688634" />
		<tag k="waterway" v="river" />
	</node>
	<node id="-546061" lat="61.7024166662" lon="6.62913333626">
		<tag k="name" v="Ingarsfjellelvane" />
		<tag k="ssr:stedsnr" v="276937" />
		<tag k="waterway" v="river" />
	</node>
	<node id="-546058" lat="61.7084888887" lon="6.41539999126">
		<tag k="name" v="Instegrova" />
		<tag k="ssr:stedsnr" v="276903" />
		<tag k="waterway" v="stream" />
	</node>
	<node id="-548103" lat="61.6589888858" lon="6.6442527711">
		<tag k="name" v="Sandgrova" />
		<tag k="ssr:stedsnr" v="677945" />
		<tag k="waterway" v="stream" />
	</node>
	<node id="-548101" lat="61.7587916673" lon="5.91487499088">
		<tag k="name" v="Seltufta" />
		<tag k="ssr:stedsnr" v="677779" />
		<tag k="waterway" v="stream" />
	</node>
	<node id="-548099" lat="61.779202779" lon="5.94029443738">
		<tag k="name" v="Selvågssvora" />
		<tag k="ssr:stedsnr" v="677746" />
		<tag k="waterway" v="stream" />
	</node>
	<node id="-548096" lat="61.8147888905" lon="6.2044500075">
		<tag k="name" v="Lomvatnet" />
		<tag k="natural" v="water" />
		<tag k="ssr:stedsnr" v="677722" />
	</node>
	<node id="-548093" lat="61.7322499994" lon="6.48838334254">
		<tag k="name" v="Storelva" />
		<tag k="ssr:stedsnr" v="677710" />
		<tag k="waterway" v="river" />
	</node>
	<node id="-548092" lat="61.7133638896" lon="6.60823055811">
		<tag k="name" v="Storelva" />
		<tag k="ssr:stedsnr" v="677706" />
		<tag k="waterway" v="river" />
	</node>
	<node id="-546041" lat="61.7514083366" lon="6.18815277429">
		<tag k="name" v="Seljebakkøyane" />
		<tag k="natural" v="water" />
		<tag k="ssr:stedsnr" v="276256" />
		<tag k="water" v="lake" />
	</node>
	<node id="-546040" lat="61.7596583343" lon="6.22649999727">
		<tag k="name" v="Bryggjagrova" />
		<tag k="ssr:stedsnr" v="276254" />
		<tag k="waterway" v="stream" />
	</node>
	<node id="-548086" lat="61.8303638927" lon="5.87271667152">
		<tag k="name" v="Middagsvatnet" />
		<tag k="natural" v="water" />
		<tag k="ssr:stedsnr" v="677651" />
	</node>
	<node id="-548084" lat="61.6753527783" lon="6.03509444194">
		<tag k="name" v="Storetjønna" />
		<tag k="natural" v="water" />
		<tag k="ssr:stedsnr" v="678359" />
	</node>
	<node id="-546033" lat="61.6910833302" lon="6.33066110678">
		<tag k="name" v="Stølselva" />
		<tag k="ssr:stedsnr" v="276181" />
		<tag k="waterway" v="river" />
	</node>
	<node id="-548080" lat="61.7188972197" lon="6.05851388015">
		<tag k="name" v="Raudeholtvatnet" />
		<tag k="natural" v="water" />
		<tag k="ssr:stedsnr" v="677346" />
	</node>
	<node id="-546031" lat="61.6698027776" lon="6.38178056261">
		<tag k="name" v="Smedvika" />
		<tag k="natural" v="bay" />
		<tag k="ssr:stedsnr" v="276161" />
	</node>
	<node id="-546027" lat="61.7812416681" lon="6.09673333195">
		<tag k="name" v="Matgrova" />
		<tag k="ssr:stedsnr" v="276140" />
		<tag k="waterway" v="stream" />
	</node>
	<node id="-546026" lat="61.7200888877" lon="6.16613610316">
		<tag k="name" v="Kråna" />
		<tag k="natural" v="bay" />
		<tag k="ssr:stedsnr" v="276138" />
	</node>
	<node id="-548072" lat="61.7652388865" lon="6.49231111232">
		<tag k="name" v="Vesletjønna" />
		<tag k="natural" v="water" />
		<tag k="ssr:stedsnr" v="677152" />
	</node>
	<node id="-546684" lat="61.7054805514" lon="6.60321111233">
		<tag k="name" v="Simagrova" />
		<tag k="ssr:stedsnr" v="33887" />
		<tag k="waterway" v="stream" />
	</node>
	<node id="-548069" lat="61.7516972269" lon="6.26863889555">
		<tag k="name" v="Trøselen" />
		<tag k="place" v="locality" />
		<tag k="ssr:stedsnr" v="677141" />
	</node>
	<node id="-546019" lat="61.7297083302" lon="6.17710278612">
		<tag k="name" v="Vårstølselva" />
		<tag k="ssr:stedsnr" v="276058" />
		<tag k="waterway" v="stream" />
	</node>
	<node id="-546017" lat="61.6642027746" lon="6.18460000843">
		<tag k="name" v="Rundetjørna" />
		<tag k="natural" v="water" />
		<tag k="ssr:stedsnr" v="276048" />
	</node>
	<node id="-546016" lat="61.7526083316" lon="6.0743000089">
		<tag k="name" v="Røyrvikneset" />
		<tag k="natural" v="cape" />
		<tag k="ssr:stedsnr" v="276030" />
	</node>
	<node id="-548063" lat="61.661858335" lon="6.34480277053">
		<tag k="name" v="Blådalselva" />
		<tag k="ssr:stedsnr" v="677072" />
		<tag k="waterway" v="stream" />
	</node>
	<node id="-548061" lat="61.653694442" lon="6.4860194481">
		<tag k="name" v="Svartevatnet" />
		<tag k="natural" v="water" />
		<tag k="ssr:stedsnr" v="677056" />
	</node>
	<node id="-548060" lat="61.6548166641" lon="6.55600278446">
		<tag k="name" v="Øvredalsvatnet" />
		<tag k="natural" v="water" />
		<tag k="ssr:stedsnr" v="677051" />
	</node>
	<node id="-548056" lat="61.6557611128" lon="5.78871389174">
		<tag k="name" v="Brendeholmen" />
		<tag k="place" v="island" />
		<tag k="ssr:stedsnr" v="676690" />
	</node>
	<node id="-546007" lat="61.6540972236" lon="5.79953333627">
		<tag k="name" v="Svåodden" />
		<tag k="place" v="islet" />
		<tag k="ssr:stedsnr" v="275709" />
	</node>
	<node id="-546001" lat="61.686938891" lon="5.80461666696">
		<tag k="name" v="Paulvatnet" />
		<tag k="natural" v="water" />
		<tag k="ssr:stedsnr" v="275673" />
		<tag k="water" v="lake" />
	</node>
	<node id="-545998" lat="61.6674666696" lon="5.78704443922">
		<tag k="name" v="Langeneset" />
		<tag k="natural" v="cape" />
		<tag k="ssr:stedsnr" v="275654" />
	</node>
	<node id="-545997" lat="61.7231694469" lon="5.80366388386">
		<tag k="name" v="Skredeelva" />
		<tag k="ssr:stedsnr" v="275641" />
		<tag k="waterway" v="stream" />
	</node>
	<node id="-548044" lat="61.7610861154" lon="5.96695555437">
		<tag k="name" v="Sessaelva" />
		<tag k="ssr:stedsnr" v="645159" />
		<tag k="waterway" v="stream" />
	</node>
	<node id="-548042" lat="61.6598972224" lon="5.85974165759">
		<tag k="name" v="Høgste Skorvatnet" />
		<tag k="natural" v="water" />
		<tag k="old_name" v="Høgste Skårevatnet" />
		<tag k="ssr:stedsnr" v="642843" />
	</node>
	<node id="-548039" lat="61.7299944472" lon="6.59216389773">
		<tag k="name" v="Kvannevika" />
		<tag k="natural" v="bay" />
		<tag k="ssr:stedsnr" v="639944" />
	</node>
	<node id="-548035" lat="61.7323916712" lon="6.60636945305">
		<tag k="name" v="Blåfjellgrova" />
		<tag k="ssr:stedsnr" v="639894" />
		<tag k="waterway" v="stream" />
	</node>
	<node id="-548029" lat="61.7259638868" lon="6.42587778556">
		<tag k="name" v="Lysegrova" />
		<tag k="ssr:stedsnr" v="639858" />
		<tag k="waterway" v="stream" />
	</node>
	<node id="-545979" lat="61.6530416656" lon="6.01071944617">
		<tag k="name" v="Greina" />
		<tag k="place" v="islet" />
		<tag k="ssr:stedsnr" v="275409" />
	</node>
	<node id="-545974" lat="61.6811027745" lon="5.84633332477">
		<tag k="name" v="Langevassgrova" />
		<tag k="ssr:stedsnr" v="275322" />
		<tag k="waterway" v="river" />
	</node>
	<node id="-545970" lat="61.6850805572" lon="5.81257500222">
		<tag k="name" v="Vasstranda" />
		<tag k="natural" v="beach" />
		<tag k="ssr:stedsnr" v="275295" />
	</node>
	<node id="-545968" lat="61.8525999987" lon="5.92721945357">
		<tag k="name" v="Kvernhuselva" />
		<tag k="ssr:stedsnr" v="275276" />
		<tag k="waterway" v="stream" />
	</node>
	<node id="-548014" lat="61.695250004" lon="5.79591388488">
		<tag k="name" v="Betnatjørna" />
		<tag k="natural" v="water" />
		<tag k="ssr:stedsnr" v="639715" />
	</node>
	<node id="-548013" lat="61.7112805522" lon="5.77679722436">
		<tag k="name" v="Kaldeelvneset" />
		<tag k="natural" v="cape" />
		<tag k="ssr:stedsnr" v="639698" />
	</node>
	<node id="-548011" lat="61.6459833291" lon="5.89676389174">
		<tag k="name" v="Fagredalselva" />
		<tag k="ssr:stedsnr" v="639672" />
		<tag k="waterway" v="river" />
	</node>
	<node id="-548010" lat="61.6459611116" lon="5.9146055609">
		<tag k="name" v="Medalselva" />
		<tag k="ssr:stedsnr" v="639670" />
		<tag k="waterway" v="stream" />
	</node>
	<node id="-548009" lat="61.6454999994" lon="5.88496388021">
		<tag k="name" v="Holmen" />
		<tag k="place" v="islet" />
		<tag k="ssr:stedsnr" v="639663" />
	</node>
	<node id="-547993" lat="61.6553138892" lon="5.96688332785">
		<tag k="name" v="Skargrova" />
		<tag k="ssr:stedsnr" v="639474" />
		<tag k="waterway" v="river" />
	</node>
	<node id="-547992" lat="61.6457972215" lon="6.07900277077">
		<tag k="name" v="Dyrkjørnelva" />
		<tag k="ssr:stedsnr" v="639456" />
		<tag k="waterway" v="river" />
	</node>
	<node id="-547990" lat="61.8441666642" lon="5.9609555568">
		<tag k="name" v="Blåfjellelva" />
		<tag k="ssr:stedsnr" v="639442" />
		<tag k="waterway" v="stream" />
	</node>
	<node id="-547987" lat="61.8244722241" lon="5.94369723099">
		<tag k="name" v="Svarthammargrova" />
		<tag k="ssr:stedsnr" v="639410" />
		<tag k="waterway" v="stream" />
	</node>
	<node id="-547986" lat="61.8226611128" lon="5.93971388755">
		<tag k="name" v="Stølsfonna" />
		<tag k="ssr:stedsnr" v="639407" />
		<tag k="waterway" v="stream" />
	</node>
	<node id="-547971" lat="61.7211444425" lon="5.9212888831">
		<tag k="name" v="Vassvika" />
		<tag k="natural" v="bay" />
		<tag k="ssr:stedsnr" v="639294" />
	</node>
	<node id="-547967" lat="61.6509555594" lon="6.37270833542">
		<tag k="name" v="Benkegrova" />
		<tag k="ssr:stedsnr" v="639245" />
		<tag k="waterway" v="stream" />
	</node>
	<node id="-547966" lat="61.6547861107" lon="6.36387500152">
		<tag k="name" v="Vetlegrova" />
		<tag k="ssr:stedsnr" v="639243" />
		<tag k="waterway" v="stream" />
	</node>
	<node id="-547952" lat="61.7042472179" lon="6.4084888875">
		<tag k="name" v="Strenda" />
		<tag k="natural" v="bay" />
		<tag k="ssr:stedsnr" v="639162" />
	</node>
	<node id="-547951" lat="61.6740861074" lon="6.37784166962">
		<tag k="name" v="Sirivika" />
		<tag k="natural" v="bay" />
		<tag k="ssr:stedsnr" v="639145" />
	</node>
	<node id="-546662" lat="61.6582166686" lon="6.40131944587">
		<tag k="name" v="Hamnagrova" />
		<tag k="ssr:stedsnr" v="33255" />
		<tag k="waterway" v="stream" />
	</node>
	<node id="-548027" lat="61.7271166674" lon="6.49770833436">
		<tag k="name" v="Langøya" />
		<tag k="place" v="island" />
		<tag k="ssr:stedsnr" v="639853" />
	</node>
	<node id="-547931" lat="61.6361722186" lon="5.77853056456">
		<tag k="name" v="Svorteigneset" />
		<tag k="natural" v="cape" />
		<tag k="ssr:stedsnr" v="638705" />
	</node>
	<node id="-547928" lat="61.6364565646" lon="5.81350872434">
		<tag k="alt_name" v="Hogafossen" />
		<tag k="name" v="Haugafossen" />
		<tag k="natural" v="waterfall" />
		<tag k="ssr:stedsnr" v="633411" />
	</node>
	<node id="-547925" lat="61.6361499992" lon="5.77948888015">
		<tag k="name" v="Svorteigneset" />
		<tag k="natural" v="cape" />
		<tag k="ssr:stedsnr" v="626752" />
	</node>
	<node id="-547922" lat="61.7854833305" lon="5.94423611688">
		<tag k="name" v="Sandsvora" />
		<tag k="ssr:stedsnr" v="617731" />
		<tag k="waterway" v="stream" />
	</node>
	<node id="-547919" lat="61.8542638849" lon="5.88059166838">
		<tag k="name" v="Kvernhuselva" />
		<tag k="ssr:stedsnr" v="617656" />
		<tag k="waterway" v="stream" />
	</node>
	<node id="-547918" lat="61.6819722188" lon="5.99745278076">
		<tag k="name" v="Vasslivatnet" />
		<tag k="natural" v="water" />
		<tag k="ssr:stedsnr" v="617365" />
		<tag k="water" v="lake" />
	</node>
	<node id="-547916" lat="61.6740027777" lon="5.89479444095">
		<tag k="name" v="Svartetjønna" />
		<tag k="natural" v="water" />
		<tag k="ssr:stedsnr" v="617364" />
	</node>
	<node id="-547908" lat="61.7220833336" lon="6.53418888921">
		<tag k="name" v="Skargrova" />
		<tag k="ssr:stedsnr" v="617131" />
		<tag k="waterway" v="stream" />
	</node>
	<node id="-547905" lat="61.6914305518" lon="6.43536666182">
		<tag k="name" v="Nigardsvatnet" />
		<tag k="natural" v="water" />
		<tag k="ssr:stedsnr" v="617092" />
	</node>
	<node id="-547893" lat="61.8476222208" lon="5.9623194406">
		<tag k="name" v="Kakelva" />
		<tag k="ssr:stedsnr" v="616648" />
		<tag k="waterway" v="stream" />
	</node>
	<node id="-547892" lat="61.7199777785" lon="6.14784444673">
		<tag k="name" v="Ångsdalsvatnet" />
		<tag k="natural" v="water" />
		<tag k="ssr:stedsnr" v="616358" />
	</node>
	<node id="-547891" lat="61.7028388845" lon="5.88394722545">
		<tag k="name" v="Røyrvikstøylsvatnet" />
		<tag k="natural" v="water" />
		<tag k="ssr:stedsnr" v="616355" />
		<tag k="water" v="lake" />
	</node>
	<node id="-547883" lat="61.7545694424" lon="6.48798889474">
		<tag k="name" v="Fløtra" />
		<tag k="ssr:stedsnr" v="616212" />
		<tag k="waterway" v="stream" />
	</node>
	<node id="-547876" lat="61.724224996" lon="6.30208332543">
		<tag k="fixme" v="multiple name tags, choose one and add the other to alt_name" />
		<tag k="name" v="Fremstevatnet;Fremstevatnet;Dalevatnet, fremste" />
		<tag k="natural" v="water" />
		<tag k="ssr:stedsnr" v="616098" />
		<tag k="water" v="lake" />
	</node>
	<node id="-547870" lat="61.6141250006" lon="5.67716388971">
		<tag k="name" v="Lonene" />
		<tag k="natural" v="water" />
		<tag k="ssr:stedsnr" v="615730" />
	</node>
	<node id="-547869" lat="61.6189518381" lon="5.6591718737">
		<tag k="alt_name" v="Svarttjørn" />
		<tag k="name" v="Svarttjørna" />
		<tag k="natural" v="water" />
		<tag k="ssr:stedsnr" v="615722" />
	</node>
	<node id="-547867" lat="61.6321916659" lon="5.68728888821">
		<tag k="name" v="Solheimsvatnet" />
		<tag k="natural" v="water" />
		<tag k="ssr:stedsnr" v="615689" />
	</node>
	<node id="-547863" lat="61.6607916628" lon="6.09835833716">
		<tag k="name" v="Risbotnvatnet" />
		<tag k="natural" v="water" />
		<tag k="ssr:stedsnr" v="615281" />
	</node>
	<node id="-547860" lat="61.7436388898" lon="6.12278888475">
		<tag k="alt_name" v="Stølselva" />
		<tag k="name" v="Breidalselva" />
		<tag k="ssr:stedsnr" v="614401" />
		<tag k="waterway" v="stream" />
	</node>
	<node id="-547857" lat="61.7470055535" lon="5.96114443699">
		<tag k="alt_name" v="Oksen" />
		<tag k="name" v="Uksen" />
		<tag k="ssr:stedsnr" v="614388" />
		<tag k="waterway" v="stream" />
	</node>
	<node id="-547844" lat="61.7234972245" lon="6.59742221495">
		<tag k="name" v="Utrøna" />
		<tag k="ssr:stedsnr" v="579890" />
		<tag k="waterway" v="stream" />
	</node>
	<node id="-545963" lat="61.7231527767" lon="5.83769166311">
		<tag k="name" v="Brekkefossen" />
		<tag k="natural" v="waterfall" />
		<tag k="ssr:stedsnr" v="275212" />
	</node>
	<node id="-547836" lat="61.6520194457" lon="6.41524999822">
		<tag k="name" v="Rotegrova" />
		<tag k="ssr:stedsnr" v="579820" />
		<tag k="waterway" v="stream" />
	</node>
	<node id="-547835" lat="61.6569194442" lon="6.51575000639">
		<tag k="name" v="Langevadet" />
		<tag k="ssr:stedsnr" v="579818" />
		<tag k="waterway" v="river" />
	</node>
	<node id="-547818" lat="61.7860000001" lon="6.20228889011">
		<tag k="name" v="Øyraelva" />
		<tag k="ssr:stedsnr" v="579214" />
		<tag k="waterway" v="river" />
	</node>
	<node id="-547815" lat="61.7501472226" lon="6.25927777996">
		<tag k="name" v="Ryssdalselva" />
		<tag k="ssr:stedsnr" v="579201" />
		<tag k="waterway" v="river" />
	</node>
	<node id="-547813" lat="61.7482388907" lon="6.32343334095">
		<tag k="alt_name" v="Kyrkjteigvika" />
		<tag k="name" v="Kyrkjeteigvika" />
		<tag k="natural" v="bay" />
		<tag k="ssr:stedsnr" v="579198" />
	</node>
	<node id="-547809" lat="61.6698972245" lon="6.40491387925">
		<tag k="name" v="Stavneset" />
		<tag k="natural" v="cape" />
		<tag k="ssr:stedsnr" v="579139" />
	</node>
	<node id="-547808" lat="61.6657861103" lon="6.36002221905">
		<tag k="name" v="Blådalselva" />
		<tag k="ssr:stedsnr" v="579131" />
		<tag k="waterway" v="stream" />
	</node>
	<node id="-547799" lat="61.6665166647" lon="6.05517500302">
		<tag k="name" v="Osen" />
		<tag k="natural" v="bay" />
		<tag k="ssr:stedsnr" v="579086" />
	</node>
	<node id="-547797" lat="61.7237861122" lon="6.16367499089">
		<tag k="name" v="Ångsdalselva" />
		<tag k="ssr:stedsnr" v="579076" />
		<tag k="waterway" v="river" />
	</node>
	<node id="-547789" lat="61.7547055556" lon="6.08963056319">
		<tag k="name" v="Rygg-Kjørdalselva" />
		<tag k="ssr:stedsnr" v="579019" />
		<tag k="waterway" v="river" />
	</node>
	<node id="-547787" lat="61.7011388904" lon="5.79559444742">
		<tag k="name" v="Sprengkleivneset" />
		<tag k="natural" v="cape" />
		<tag k="ssr:stedsnr" v="578681" />
	</node>
	<node id="-547781" lat="61.7087666674" lon="5.76798055899">
		<tag k="name" v="Kaldeelva" />
		<tag k="ssr:stedsnr" v="578642" />
		<tag k="waterway" v="stream" />
	</node>
	<node id="-547774" lat="61.7645000045" lon="5.97507778054">
		<tag k="name" v="Blomasvora" />
		<tag k="ssr:stedsnr" v="578452" />
		<tag k="waterway" v="stream" />
	</node>
	<node id="-546620" lat="61.7506361092" lon="5.96099999642">
		<tag k="name" v="Kvernhuselva" />
		<tag k="ssr:stedsnr" v="32469" />
		<tag k="waterway" v="stream" />
	</node>
	<node id="-547754" lat="61.6647277806" lon="5.9165333299">
		<tag k="name" v="Rønnekleivfossen" />
		<tag k="natural" v="waterfall" />
		<tag k="ssr:stedsnr" v="578317" />
	</node>
	<node id="-547749" lat="61.7168399025" lon="5.82200233141">
		<tag k="name" v="Sagøya" />
		<tag k="place" v="island" />
		<tag k="ssr:stedsnr" v="578240" />
	</node>
	<node id="-547746" lat="61.7953527745" lon="6.23082500273">
		<tag k="name" v="Kvitfella" />
		<tag k="ssr:stedsnr" v="573690" />
		<tag k="waterway" v="stream" />
	</node>
	<node id="-547739" lat="61.791669449" lon="5.95343889344">
		<tag k="name" v="Skjerdalssvora" />
		<tag k="ssr:stedsnr" v="556849" />
		<tag k="waterway" v="stream" />
	</node>
	<node id="-547734" lat="61.6930722222" lon="5.90810556156">
		<tag k="name" v="Klumptjønna" />
		<tag k="natural" v="water" />
		<tag k="ssr:stedsnr" v="556425" />
	</node>
	<node id="-547733" lat="61.6782277749" lon="5.92795277807">
		<tag k="name" v="Fjellgrova" />
		<tag k="ssr:stedsnr" v="556405" />
		<tag k="waterway" v="stream" />
	</node>
	<node id="-547732" lat="61.6915777806" lon="6.09546389258">
		<tag k="name" v="Byrkjeneset" />
		<tag k="natural" v="cape" />
		<tag k="ssr:stedsnr" v="556380" />
	</node>
	<node id="-547724" lat="61.7722555514" lon="6.44617777756">
		<tag k="name" v="Rjupeskartjønna" />
		<tag k="natural" v="water" />
		<tag k="ssr:stedsnr" v="556157" />
	</node>
	<node id="-547718" lat="61.706202782" lon="6.51162222946">
		<tag k="alt_name" v="Svåragrova" />
		<tag k="name" v="Svørarova" />
		<tag k="ssr:stedsnr" v="556101" />
		<tag k="waterway" v="stream" />
	</node>
	<node id="-547717" lat="61.6944777742" lon="6.22449999697">
		<tag k="name" v="Jardalsvatna" />
		<tag k="natural" v="water" />
		<tag k="ssr:stedsnr" v="556096" />
		<tag k="water" v="lake" />
	</node>
	<node id="-547711" lat="61.6334944485" lon="5.70326667133">
		<tag k="name" v="Storelva" />
		<tag k="ssr:stedsnr" v="555785" />
		<tag k="waterway" v="stream" />
	</node>
	<node id="-547707" lat="61.7587750024" lon="5.97544444106">
		<tag k="name" v="Reddasvora" />
		<tag k="ssr:stedsnr" v="555740" />
		<tag k="waterway" v="stream" />
	</node>
	<node id="-547693" lat="61.6384388883" lon="5.75002500052">
		<tag k="alt_name" v="Storfjorden" />
		<tag k="name" v="Emhjellevatnet" />
		<tag k="natural" v="water" />
		<tag k="ssr:stedsnr" v="554746" />
		<tag k="water" v="lake" />
	</node>
	<node id="-547689" lat="61.6818111078" lon="5.70288611794">
		<tag k="name" v="Hestefjellvatnet" />
		<tag k="natural" v="water" />
		<tag k="ssr:stedsnr" v="554714" />
	</node>
	<node id="-547687" lat="61.7455249996" lon="6.18337499647">
		<tag k="name" v="Veslevatnet" />
		<tag k="natural" v="water" />
		<tag k="ssr:stedsnr" v="554413" />
	</node>
	<node id="-547680" lat="61.7001722245" lon="6.52355832477">
		<tag k="name" v="Votedalselva" />
		<tag k="ssr:stedsnr" v="519800" />
		<tag k="waterway" v="river" />
	</node>
	<node id="-546277" lat="61.688683336" lon="6.0155833262">
		<tag k="name" v="Blåsevatnet" />
		<tag k="natural" v="water" />
		<tag k="ssr:stedsnr" v="374341" />
	</node>
	<node id="-547668" lat="61.7923555533" lon="6.22299444584">
		<tag k="name" v="Kvitefella" />
		<tag k="ssr:stedsnr" v="519256" />
		<tag k="waterway" v="river" />
	</node>
	<node id="-547667" lat="61.8022194453" lon="6.20662778411">
		<tag k="name" v="Haugselva" />
		<tag k="ssr:stedsnr" v="519252" />
		<tag k="waterway" v="stream" />
	</node>
	<node id="-547663" lat="61.6622694429" lon="6.39546944029">
		<tag k="name" v="Svøvika" />
		<tag k="natural" v="bay" />
		<tag k="ssr:stedsnr" v="519235" />
	</node>
	<node id="-547661" lat="61.7630111086" lon="6.25474443617">
		<tag k="name" v="Grasdalfossen" />
		<tag k="natural" v="waterfall" />
		<tag k="ssr:stedsnr" v="519199" />
	</node>
	<node id="-547657" lat="61.7125527767" lon="6.38113056444">
		<tag k="name" v="Lyngnesvika" />
		<tag k="natural" v="bay" />
		<tag k="ssr:stedsnr" v="519175" />
	</node>
	<node id="-547654" lat="61.6966722256" lon="6.40551666049">
		<tag k="name" v="Seljestø" />
		<tag k="natural" v="bay" />
		<tag k="ssr:stedsnr" v="519146" />
	</node>
	<node id="-547653" lat="61.7387805563" lon="6.57102499281">
		<tag k="name" v="Bjørkeloneset" />
		<tag k="natural" v="cape" />
		<tag k="ssr:stedsnr" v="518932" />
	</node>
	<node id="-547652" lat="61.7367166642" lon="6.57731666728">
		<tag k="name" v="Øya" />
		<tag k="place" v="island" />
		<tag k="ssr:stedsnr" v="518928" />
	</node>
	<node id="-547643" lat="61.6140333311" lon="5.67502500607">
		<tag k="name" v="Sagelva" />
		<tag k="ssr:stedsnr" v="518885" />
		<tag k="waterway" v="river" />
	</node>
	<node id="-547641" lat="61.6146999997" lon="5.6710916583">
		<tag k="name" v="Krokstadnausta" />
		<tag k="natural" v="cape" />
		<tag k="ssr:stedsnr" v="518867" />
	</node>
	<node id="-547630" lat="61.6435138891" lon="5.69953056225">
		<tag k="name" v="Løkjaelva" />
		<tag k="ssr:stedsnr" v="518730" />
		<tag k="waterway" v="river" />
	</node>
	<node id="-547623" lat="61.6286305528" lon="5.7764916757">
		<tag k="name" v="Kvangrefossen" />
		<tag k="natural" v="waterfall" />
		<tag k="ssr:stedsnr" v="518691" />
	</node>
	<node id="-547621" lat="61.6999777812" lon="5.79724721746">
		<tag k="name" v="Kjerringvika" />
		<tag k="natural" v="bay" />
		<tag k="ssr:stedsnr" v="518687" />
	</node>
	<node id="-547605" lat="61.7435638866" lon="6.04731943651">
		<tag k="name" v="Johillelva" />
		<tag k="ssr:stedsnr" v="518467" />
		<tag k="waterway" v="stream" />
	</node>
	<node id="-547593" lat="61.7032129223" lon="5.84412719491">
		<tag k="name" v="Småvatnet" />
		<tag k="natural" v="water" />
		<tag k="ssr:stedsnr" v="518330" />
		<tag k="water" v="lake" />
	</node>
	<node id="-547591" lat="61.6554222185" lon="5.93926666651">
		<tag k="name" v="Djupegrova" />
		<tag k="ssr:stedsnr" v="518313" />
		<tag k="waterway" v="stream" />
	</node>
	<node id="-547587" lat="61.7081666698" lon="5.89590554766">
		<tag k="name" v="Vassenden" />
		<tag k="natural" v="bay" />
		<tag k="ssr:stedsnr" v="518284" />
	</node>
	<node id="-547586" lat="61.7165416712" lon="5.91952223098">
		<tag k="name" v="Fremste Meronvika" />
		<tag k="natural" v="bay" />
		<tag k="ssr:stedsnr" v="518275" />
	</node>
	<node id="-547576" lat="61.7169444402" lon="6.16551388346">
		<tag k="name" v="Slettenesgrova" />
		<tag k="ssr:stedsnr" v="518122" />
		<tag k="waterway" v="stream" />
	</node>
	<node id="-547559" lat="61.7766694471" lon="6.23989167096">
		<tag k="name" v="Holvikefossen" />
		<tag k="natural" v="waterfall" />
		<tag k="ssr:stedsnr" v="513724" />
	</node>
	<node id="-547554" lat="61.7630138866" lon="5.97589165753">
		<tag k="name" v="Skadsvora" />
		<tag k="ssr:stedsnr" v="506571" />
		<tag k="waterway" v="stream" />
	</node>
	<node id="-547549" lat="61.6100277822" lon="5.66397222576">
		<tag k="name" v="Sørevika" />
		<tag k="natural" v="bay" />
		<tag k="ssr:stedsnr" v="505737" />
	</node>
	<node id="-547544" lat="61.7543527798" lon="6.1070611031">
		<tag k="name" v="Gimmestadkjørdalselva" />
		<tag k="ssr:stedsnr" v="495765" />
		<tag k="waterway" v="stream" />
	</node>
	<node id="-547543" lat="61.7825055532" lon="5.99209999204">
		<tag k="name" v="Kvernhuselva" />
		<tag k="ssr:stedsnr" v="495759" />
		<tag k="waterway" v="stream" />
	</node>
	<node id="-547539" lat="61.7685750006" lon="5.97449722045">
		<tag k="name" v="Seljesvora" />
		<tag k="ssr:stedsnr" v="495741" />
		<tag k="waterway" v="stream" />
	</node>
	<node id="-547535" lat="61.8218611075" lon="5.90827499396">
		<tag k="name" v="Svartevatnet" />
		<tag k="natural" v="water" />
		<tag k="ssr:stedsnr" v="495691" />
	</node>
	<node id="-547531" lat="61.8285611069" lon="5.87998888231">
		<tag k="name" v="Gullsmedvatnet" />
		<tag k="natural" v="water" />
		<tag k="ssr:stedsnr" v="495667" />
	</node>
	<node id="-547530" lat="61.8308916657" lon="5.91918054753">
		<tag k="name" v="Svarthammarvatna" />
		<tag k="natural" v="water" />
		<tag k="ssr:stedsnr" v="495663" />
	</node>
	<node id="-547521" lat="61.6754999993" lon="5.880427771">
		<tag k="name" v="Langetjønna" />
		<tag k="natural" v="water" />
		<tag k="ssr:stedsnr" v="495341" />
	</node>
	<node id="-547515" lat="61.7671194435" lon="6.2587194404">
		<tag k="name" v="Leirelva" />
		<tag k="ssr:stedsnr" v="495193" />
		<tag k="waterway" v="stream" />
	</node>
	<node id="-547511" lat="61.7624055513" lon="6.34880277215">
		<tag k="name" v="Matelva" />
		<tag k="ssr:stedsnr" v="495154" />
		<tag k="waterway" v="stream" />
	</node>
	<node id="-547508" lat="61.7373277816" lon="6.51446666664">
		<tag k="name" v="Myklebustdalselva" />
		<tag k="ssr:stedsnr" v="495140" />
		<tag k="waterway" v="river" />
	</node>
	<node id="-547506" lat="61.7056277773" lon="6.58655000634">
		<tag k="name" v="Nonselvvatnet" />
		<tag k="natural" v="water" />
		<tag k="ssr:stedsnr" v="495108" />
	</node>
	<node id="-547504" lat="61.6840250029" lon="6.52529999845">
		<tag k="name" v="Eggjeelva" />
		<tag k="ssr:stedsnr" v="495096" />
		<tag k="waterway" v="stream" />
	</node>
	<node id="-547502" lat="61.6427499997" lon="6.33441388835">
		<tag k="name" v="Kvanndalsvatnet" />
		<tag k="natural" v="water" />
		<tag k="ssr:stedsnr" v="495068" />
	</node>
	<node id="-547501" lat="61.6902361086" lon="6.62468054891">
		<tag k="name" v="Dalelva" />
		<tag k="ssr:stedsnr" v="494910" />
		<tag k="waterway" v="stream" />
	</node>
	<node id="-547499" lat="61.6216444415" lon="5.74784722079">
		<tag k="name" v="Storeteigelva" />
		<tag k="ssr:stedsnr" v="494704" />
		<tag k="waterway" v="stream" />
	</node>
	<node id="-547486" lat="61.7414416635" lon="6.55300834113">
		<tag k="name" v="Uraneset" />
		<tag k="natural" v="cape" />
		<tag k="ssr:stedsnr" v="458929" />
	</node>
	<node id="-547482" lat="61.7256416693" lon="6.60924721258">
		<tag k="name" v="Kobberstadneset" />
		<tag k="natural" v="cape" />
		<tag k="ssr:stedsnr" v="458904" />
	</node>
	<node id="-545996" lat="61.6501833332" lon="5.91826944534">
		<tag k="name" v="Stølselva" />
		<tag k="ssr:stedsnr" v="275634" />
		<tag k="waterway" v="stream" />
	</node>
	<node id="-547461" lat="61.8433277817" lon="5.97927777058">
		<tag k="name" v="Løypeelva" />
		<tag k="ssr:stedsnr" v="458475" />
		<tag k="waterway" v="stream" />
	</node>
	<node id="-547459" lat="61.792716665" lon="5.96235278738">
		<tag k="name" v="Bøasvora" />
		<tag k="ssr:stedsnr" v="458451" />
		<tag k="waterway" v="stream" />
	</node>
	<node id="-547456" lat="61.7423666659" lon="6.27583610666">
		<tag k="name" v="Sageelva" />
		<tag k="ssr:stedsnr" v="458253" />
		<tag k="waterway" v="stream" />
	</node>
	<node id="-547453" lat="61.7524694484" lon="6.25247776948">
		<tag k="name" v="Kvitegrova" />
		<tag k="ssr:stedsnr" v="458236" />
		<tag k="waterway" v="stream" />
	</node>
	<node id="-547446" lat="61.7202722266" lon="6.36089167242">
		<tag k="name" v="Retelgrova" />
		<tag k="ssr:stedsnr" v="458200" />
		<tag k="waterway" v="stream" />
	</node>
	<node id="-547444" lat="61.7553666633" lon="6.32146389212">
		<tag k="name" v="Bergheimsvika" />
		<tag k="natural" v="bay" />
		<tag k="ssr:stedsnr" v="458187" />
	</node>
	<node id="-547441" lat="61.6725916662" lon="6.40795555578">
		<tag k="name" v="Årdalselva" />
		<tag k="ssr:stedsnr" v="458144" />
		<tag k="waterway" v="river" />
	</node>
	<node id="-547440" lat="61.783633332" lon="6.06688056486">
		<tag k="name" v="Knausegrova" />
		<tag k="ssr:stedsnr" v="458137" />
		<tag k="waterway" v="stream" />
	</node>
	<node id="-546677" lat="61.7669444481" lon="6.40128611822">
		<tag k="name" v="Skjerdøla" />
		<tag k="ssr:stedsnr" v="33812" />
		<tag k="waterway" v="stream" />
	</node>
	<node id="-547435" lat="61.7471361123" lon="6.1363138812">
		<tag k="name" v="Dammen" />
		<tag k="place" v="locality" />
		<tag k="ssr:stedsnr" v="458086" />
	</node>
	<node id="-547434" lat="61.798108334" lon="6.09908610498">
		<tag k="name" v="Skorgeelva" />
		<tag k="ssr:stedsnr" v="458077" />
		<tag k="waterway" v="river" />
	</node>
	<node id="-547431" lat="61.6638111113" lon="6.20860000745">
		<tag k="name" v="Blådalselva" />
		<tag k="ssr:stedsnr" v="458052" />
		<tag k="waterway" v="river" />
	</node>
	<node id="-546577" lat="61.7074083358" lon="6.60250555927">
		<tag k="name" v="Nonselva" />
		<tag k="ssr:stedsnr" v="10724" />
		<tag k="waterway" v="stream" />
	</node>
	<node id="-547424" lat="61.7669722192" lon="6.12567778044">
		<tag k="name" v="Vetleelva" />
		<tag k="ssr:stedsnr" v="458012" />
		<tag k="waterway" v="river" />
	</node>
	<node id="-547418" lat="61.6740833335" lon="5.80408055794">
		<tag k="name" v="Bruravika" />
		<tag k="natural" v="bay" />
		<tag k="ssr:stedsnr" v="457666" />
	</node>
	<node id="-547414" lat="61.665688891" lon="5.77677500015">
		<tag k="name" v="Grønevika" />
		<tag k="natural" v="bay" />
		<tag k="ssr:stedsnr" v="457657" />
	</node>
	<node id="-547413" lat="61.7081138883" lon="5.78178889743">
		<tag k="name" v="Storeneset" />
		<tag k="natural" v="cape" />
		<tag k="ssr:stedsnr" v="457655" />
	</node>
	<node id="-547406" lat="61.6587222243" lon="5.89264165872">
		<tag k="name" v="Botnagrova" />
		<tag k="ssr:stedsnr" v="457621" />
		<tag k="waterway" v="stream" />
	</node>
	<node id="-547396" lat="61.6960777806" lon="6.04364443671">
		<tag k="name" v="Vistølelva" />
		<tag k="ssr:stedsnr" v="457457" />
		<tag k="waterway" v="river" />
	</node>
	<node id="-547395" lat="61.6471666652" lon="5.96880276941">
		<tag k="name" v="Storegrova" />
		<tag k="ssr:stedsnr" v="457430" />
		<tag k="waterway" v="stream" />
	</node>
	<node id="-547386" lat="61.7036444465" lon="5.91778889809">
		<tag k="name" v="Trollkåreneset" />
		<tag k="natural" v="cape" />
		<tag k="ssr:stedsnr" v="457310" />
	</node>
	<node id="-546226" lat="61.713963893" lon="6.62597500913">
		<tag k="name" v="Svartegrova" />
		<tag k="ssr:stedsnr" v="336883" />
		<tag k="waterway" v="stream" />
	</node>
	<node id="-547370" lat="61.6107944429" lon="6.34635833123">
		<tag k="name" v="Vetledalsvatnet" />
		<tag k="natural" v="water" />
		<tag k="ssr:stedsnr" v="445513" />
		<tag k="water" v="lake" />
	</node>
	<node id="-547369" lat="61.7547527821" lon="6.07460832521">
		<tag k="name" v="Gjelsvikneset" />
		<tag k="natural" v="cape" />
		<tag k="ssr:stedsnr" v="435766" />
	</node>
	<node id="-547365" lat="61.8119750012" lon="5.92413611112">
		<tag k="name" v="Tverrelva" />
		<tag k="ssr:stedsnr" v="435722" />
		<tag k="waterway" v="stream" />
	</node>
	<node id="-547361" lat="61.7072583367" lon="5.91412221927">
		<tag k="name" v="Ommedalsvatnet" />
		<tag k="natural" v="water" />
		<tag k="ssr:stedsnr" v="435417" />
		<tag k="water" v="lake" />
	</node>
	<node id="-547359" lat="61.6957777789" lon="5.93681111243">
		<tag k="name" v="Breidalsgrova" />
		<tag k="ssr:stedsnr" v="435411" />
		<tag k="waterway" v="stream" />
	</node>
	<node id="-547357" lat="61.7310416676" lon="5.98439722016">
		<tag k="name" v="Tverrelvevatnet" />
		<tag k="natural" v="water" />
		<tag k="ssr:stedsnr" v="435400" />
	</node>
	<node id="-547355" lat="61.6939111113" lon="6.11897222933">
		<tag k="name" v="Fosselva" />
		<tag k="ssr:stedsnr" v="435385" />
		<tag k="waterway" v="stream" />
	</node>
	<node id="-547354" lat="61.6702166643" lon="5.86710277027">
		<tag k="name" v="Langevatnet" />
		<tag k="natural" v="water" />
		<tag k="ssr:stedsnr" v="435379" />
	</node>
	<node id="-547350" lat="61.6600555554" lon="5.87796388316">
		<tag k="name" v="Botnagrova" />
		<tag k="ssr:stedsnr" v="435324" />
		<tag k="waterway" v="stream" />
	</node>
	<node id="-547349" lat="61.6638972241" lon="5.96818889772">
		<tag k="name" v="Gardsstøylgrova" />
		<tag k="ssr:stedsnr" v="435318" />
		<tag k="waterway" v="stream" />
	</node>
	<node id="-547346" lat="61.7665527755" lon="6.49393056398">
		<tag k="name" v="Storetjønna" />
		<tag k="natural" v="water" />
		<tag k="ssr:stedsnr" v="435187" />
	</node>
	<node id="-547345" lat="61.7546694403" lon="6.38094723094">
		<tag k="alt_name" v="Hjelltunelva" />
		<tag k="name" v="Kålselva" />
		<tag k="ssr:stedsnr" v="435182" />
		<tag k="waterway" v="stream" />
	</node>
	<node id="-547344" lat="61.7557111115" lon="6.24656389062">
		<tag k="name" v="Eidsfossen" />
		<tag k="natural" v="waterfall" />
		<tag k="ssr:stedsnr" v="435163" />
	</node>
	<node id="-547341" lat="61.7263277806" lon="6.52896389684">
		<tag k="name" v="Fuglaskredgrova" />
		<tag k="ssr:stedsnr" v="435142" />
		<tag k="waterway" v="stream" />
	</node>
	<node id="-547338" lat="61.7210166651" lon="6.48096945119">
		<tag k="alt_name" v="Skarveelva" />
		<tag k="name" v="Skorva" />
		<tag k="ssr:stedsnr" v="435124" />
		<tag k="waterway" v="stream" />
	</node>
	<node id="-547332" lat="61.616994447" lon="5.80654999368">
		<tag k="name" v="Dyttingedalsvatnet" />
		<tag k="natural" v="water" />
		<tag k="ssr:stedsnr" v="434703" />
	</node>
	<node id="-547321" lat="61.7300388851" lon="5.79215277906">
		<tag k="name" v="Langevatnet" />
		<tag k="natural" v="water" />
		<tag k="ssr:stedsnr" v="433626" />
	</node>
	<node id="-547320" lat="61.7363888862" lon="5.93727221859">
		<tag k="alt_name" v="Årnesgrova" />
		<tag k="name" v="Årneselva" />
		<tag k="ssr:stedsnr" v="433339" />
		<tag k="waterway" v="stream" />
	</node>
	<node id="-546558" lat="61.6731722205" lon="6.01043888151">
		<tag k="name" v="Skjenstogrova" />
		<tag k="ssr:stedsnr" v="10318" />
		<tag k="waterway" v="stream" />
	</node>
	<node id="-546557" lat="61.6865861095" lon="6.06353888023">
		<tag k="name" v="Skartjønna" />
		<tag k="natural" v="water" />
		<tag k="ssr:stedsnr" v="10299" />
	</node>
	<node id="-547303" lat="61.8015916655" lon="5.92623889271">
		<tag k="name" v="Skjerdalsvatnet" />
		<tag k="natural" v="water" />
		<tag k="ssr:stedsnr" v="253722" />
	</node>
	<node id="-547298" lat="61.7027611092" lon="6.02298332591">
		<tag k="name" v="Styggelivatnet" />
		<tag k="natural" v="water" />
		<tag k="ssr:stedsnr" v="253379" />
	</node>
	<node id="-547288" lat="61.7338277821" lon="6.36156389033">
		<tag k="name" v="Breimsvatnet" />
		<tag k="natural" v="water" />
		<tag k="ssr:stedsnr" v="253123" />
		<tag k="water" v="lake" />
	</node>
	<node id="-547286" lat="61.7187361149" lon="6.27488611671">
		<tag k="name" v="Vardevatnet" />
		<tag k="natural" v="water" />
		<tag k="ssr:stedsnr" v="253114" />
	</node>
	<node id="-547285" lat="61.7351611146" lon="6.58556665771">
		<tag k="name" v="Sanddalsvatnet" />
		<tag k="natural" v="water" />
		<tag k="ssr:stedsnr" v="253108" />
		<tag k="water" v="lake" />
	</node>
	<node id="-547278" lat="61.6932861082" lon="6.61503332983">
		<tag k="name" v="Middagselva" />
		<tag k="ssr:stedsnr" v="252897" />
		<tag k="waterway" v="stream" />
	</node>
	<node id="-547277" lat="61.7202777791" lon="6.63028054761">
		<tag k="name" v="Svoragrova" />
		<tag k="ssr:stedsnr" v="252885" />
		<tag k="waterway" v="stream" />
	</node>
	<node id="-547276" lat="61.7272361084" lon="6.61619165909">
		<tag k="name" v="Joelva" />
		<tag k="ssr:stedsnr" v="252877" />
		<tag k="waterway" v="stream" />
	</node>
	<node id="-547270" lat="61.7658861131" lon="5.97741388555">
		<tag k="name" v="Jonsoksvora" />
		<tag k="ssr:stedsnr" v="252714" />
		<tag k="waterway" v="stream" />
	</node>
	<node id="-546208" lat="61.6524194429" lon="5.80820277448">
		<tag k="name" v="Svartegrova" />
		<tag k="ssr:stedsnr" v="336703" />
		<tag k="waterway" v="stream" />
	</node>
	<node id="-547261" lat="61.7387305586" lon="6.10051388479">
		<tag k="name" v="Kyrrdalsvatna" />
		<tag k="natural" v="water" />
		<tag k="ssr:stedsnr" v="252329" />
	</node>
	<node id="-546207" lat="61.6381555582" lon="5.79078889178">
		<tag k="name" v="Eimhjellestranda" />
		<tag k="natural" v="beach" />
		<tag k="ssr:stedsnr" v="336689" />
	</node>
	<node id="-547255" lat="61.6479194416" lon="6.05518888074">
		<tag k="name" v="Tverrelva" />
		<tag k="ssr:stedsnr" v="252270" />
		<tag k="waterway" v="stream" />
	</node>
	<node id="-547252" lat="61.8347000023" lon="6.25282777163">
		<tag k="name" v="Grønlielva" />
		<tag k="ssr:stedsnr" v="252093" />
		<tag k="waterway" v="stream" />
	</node>
	<node id="-546547" lat="61.7538944412" lon="6.25257778658">
		<tag k="fixme" v="multiple name tags, choose one and add the other to alt_name" />
		<tag k="name" v="Gloppeelva;Storelva" />
		<tag k="ssr:stedsnr" v="10152" />
		<tag k="waterway" v="river" />
	</node>
	<node id="-547248" lat="61.6188500037" lon="5.73105000534">
		<tag k="name" v="Bjørkeneset" />
		<tag k="natural" v="cape" />
		<tag k="ssr:stedsnr" v="251761" />
	</node>
	<node id="-547245" lat="61.6876000014" lon="5.78891944581">
		<tag k="name" v="Slåttestøylsvatnet" />
		<tag k="natural" v="water" />
		<tag k="ssr:stedsnr" v="251702" />
	</node>
	<node id="-547240" lat="61.7373666645" lon="5.90423333312">
		<tag k="name" v="Hopsvatnet" />
		<tag k="natural" v="water" />
		<tag k="ssr:stedsnr" v="251414" />
		<tag k="water" v="lake" />
	</node>
	<node id="-547239" lat="61.7351555528" lon="5.84900554818">
		<tag k="name" v="Lyselva" />
		<tag k="ssr:stedsnr" v="251411" />
		<tag k="waterway" v="stream" />
	</node>
	<node id="-547231" lat="61.7416749993" lon="6.58165556382">
		<tag k="name" v="Fossheimselva" />
		<tag k="ssr:stedsnr" v="215950" />
		<tag k="waterway" v="river" />
	</node>
	<node id="-547229" lat="61.7390916648" lon="6.53650833785">
		<tag k="name" v="Krekebærøya" />
		<tag k="place" v="island" />
		<tag k="ssr:stedsnr" v="215941" />
	</node>
	<node id="-547228" lat="61.7401333331" lon="6.55235555174">
		<tag k="name" v="Osen" />
		<tag k="natural" v="bay" />
		<tag k="ssr:stedsnr" v="215939" />
	</node>
	<node id="-547227" lat="61.7386944441" lon="6.55931110348">
		<tag k="name" v="Svartekaritjørn" />
		<tag k="natural" v="water" />
		<tag k="ssr:stedsnr" v="215935" />
	</node>
	<node id="-547225" lat="61.6140666675" lon="5.68021111249">
		<tag k="name" v="Øyane" />
		<tag k="place" v="island" />
		<tag k="ssr:stedsnr" v="215905" />
	</node>
	<node id="-547223" lat="61.7132944479" lon="6.50580833377">
		<tag k="name" v="Svåragrova" />
		<tag k="ssr:stedsnr" v="215894" />
		<tag k="waterway" v="stream" />
	</node>
	<node id="-547217" lat="61.6596999959" lon="6.51593889821">
		<tag k="name" v="Fessene" />
		<tag k="natural" v="strait" />
		<tag k="ssr:stedsnr" v="215837" />
	</node>
	<node id="-547208" lat="61.6941777771" lon="6.52228888698">
		<tag k="name" v="Gåsemyrfossen" />
		<tag k="natural" v="waterfall" />
		<tag k="ssr:stedsnr" v="215786" />
	</node>
	<node id="-547207" lat="61.6563222179" lon="6.09259999555">
		<tag k="name" v="Risbotnelva" />
		<tag k="ssr:stedsnr" v="215498" />
		<tag k="waterway" v="river" />
	</node>
	<node id="-547198" lat="61.7572000009" lon="6.17781111565">
		<tag k="name" v="Nilsgjølgrova" />
		<tag k="ssr:stedsnr" v="215225" />
		<tag k="waterway" v="stream" />
	</node>
	<node id="-547187" lat="61.7301861079" lon="6.15663611078">
		<tag k="name" v="Smalekvigrova" />
		<tag k="ssr:stedsnr" v="215073" />
		<tag k="waterway" v="stream" />
	</node>
	<node id="-547181" lat="61.6644000032" lon="6.18078333094">
		<tag k="name" v="Strandaelva" />
		<tag k="ssr:stedsnr" v="215045" />
		<tag k="waterway" v="river" />
	</node>
	<node id="-547179" lat="61.7535527756" lon="6.08380277405">
		<tag k="name" v="Hellevika" />
		<tag k="natural" v="bay" />
		<tag k="ssr:stedsnr" v="215021" />
	</node>
	<node id="-546096" lat="61.7746972213" lon="6.40260555205">
		<tag k="name" v="Skjerdøla" />
		<tag k="ssr:stedsnr" v="313196" />
		<tag k="waterway" v="stream" />
	</node>
	<node id="-547170" lat="61.6665277748" lon="5.80441667504">
		<tag k="name" v="Gjøtta" />
		<tag k="ssr:stedsnr" v="214717" />
		<tag k="waterway" v="river" />
	</node>
	<node id="-547167" lat="61.7196583318" lon="5.76606111094">
		<tag k="name" v="Storelva" />
		<tag k="ssr:stedsnr" v="214696" />
		<tag k="waterway" v="river" />
	</node>
	<node id="-547158" lat="61.6902611114" lon="6.02416943751">
		<tag k="name" v="Veslefjellgrova" />
		<tag k="ssr:stedsnr" v="214444" />
		<tag k="waterway" v="river" />
	</node>
	<node id="-547142" lat="61.686086114" lon="5.83610277786">
		<tag k="name" v="Fureneset" />
		<tag k="natural" v="cape" />
		<tag k="ssr:stedsnr" v="214286" />
	</node>
	<node id="-547126" lat="61.7639527742" lon="5.97769721658">
		<tag k="name" v="Blomasvora" />
		<tag k="ssr:stedsnr" v="203580" />
		<tag k="waterway" v="stream" />
	</node>
	<node id="-547122" lat="61.7567555526" lon="6.0440888811">
		<tag k="name" v="Berdalsvatnet" />
		<tag k="natural" v="water" />
		<tag k="ssr:stedsnr" v="192781" />
	</node>
	<node id="-547119" lat="61.7957388926" lon="6.04966110192">
		<tag k="name" v="Skotfosselva" />
		<tag k="ssr:stedsnr" v="192756" />
		<tag k="waterway" v="stream" />
	</node>
	<node id="-547118" lat="61.7889500001" lon="6.01268610216">
		<tag k="name" v="Juruvatnet" />
		<tag k="natural" v="water" />
		<tag k="ssr:stedsnr" v="192753" />
	</node>
	<node id="-547108" lat="61.7705888912" lon="6.72353612036">
		<tag k="name" v="Trollebotnen" />
		<tag k="natural" v="water" />
		<tag k="ssr:stedsnr" v="192456" />
	</node>
	<node id="-547104" lat="61.7260944409" lon="5.93623611085">
		<tag k="name" v="Tverrelva" />
		<tag k="ssr:stedsnr" v="192372" />
		<tag k="waterway" v="stream" />
	</node>
	<node id="-547103" lat="61.6822194464" lon="5.96185833325">
		<tag k="name" v="Vesleelva" />
		<tag k="ssr:stedsnr" v="192370" />
		<tag k="waterway" v="stream" />
	</node>
	<node id="-547098" lat="61.6854916659" lon="5.90385277833">
		<tag k="name" v="Nautskorvatnet" />
		<tag k="natural" v="water" />
		<tag k="ssr:stedsnr" v="192337" />
	</node>
	<node id="-547092" lat="61.7579638875" lon="6.41311389092">
		<tag k="name" v="Lometjønna" />
		<tag k="natural" v="water" />
		<tag k="ssr:stedsnr" v="192177" />
	</node>
	<node id="-547088" lat="61.7597166648" lon="6.31630000389">
		<tag k="name" v="Saggrova" />
		<tag k="ssr:stedsnr" v="192153" />
		<tag k="waterway" v="stream" />
	</node>
	<node id="-547084" lat="61.7221694418" lon="6.44803054977">
		<tag k="name" v="Bøaelva" />
		<tag k="ssr:stedsnr" v="192116" />
		<tag k="waterway" v="stream" />
	</node>
	<node id="-547079" lat="61.6571888865" lon="6.33012778229">
		<tag k="name" v="Blådalsvatnet" />
		<tag k="natural" v="water" />
		<tag k="ssr:stedsnr" v="192074" />
	</node>
	<node id="-547076" lat="61.6684416687" lon="6.4870305461">
		<tag k="name" v="Botnevatnet" />
		<tag k="natural" v="water" />
		<tag k="ssr:stedsnr" v="192068" />
	</node>
	<node id="-547072" lat="61.8399611154" lon="6.24406388907">
		<tag k="name" v="Sagelva" />
		<tag k="ssr:stedsnr" v="192033" />
		<tag k="waterway" v="stream" />
	</node>
	<node id="-547070" lat="61.7122277769" lon="6.65739167334">
		<tag k="name" v="Høgegrovvatnet" />
		<tag k="natural" v="water" />
		<tag k="ssr:stedsnr" v="191874" />
	</node>
	<node id="-547069" lat="61.724588887" lon="6.62665554688">
		<tag k="name" v="Spirefossa" />
		<tag k="ssr:stedsnr" v="191864" />
		<tag k="waterway" v="river" />
	</node>
	<node id="-547067" lat="61.6533000029" lon="6.10905277295">
		<tag k="name" v="Dalelva" />
		<tag k="ssr:stedsnr" v="191262" />
		<tag k="waterway" v="stream" />
	</node>
	<node id="-547066" lat="61.6537166662" lon="6.13916666107">
		<tag k="alt_name" v="Blåvatnet, in" />
		<tag k="name" v="Inste Blåvatnet" />
		<tag k="natural" v="water" />
		<tag k="ssr:stedsnr" v="191260" />
	</node>
	<node id="-546175" lat="61.8148222258" lon="5.96366110717">
		<tag k="name" v="Breisvora" />
		<tag k="ssr:stedsnr" v="336391" />
		<tag k="waterway" v="stream" />
	</node>
	<node id="-547063" lat="61.6456416625" lon="5.94514721345">
		<tag k="name" v="Nobbedalsvatnet" />
		<tag k="natural" v="water" />
		<tag k="ssr:stedsnr" v="191253" />
	</node>
	<node id="-547062" lat="61.6907749957" lon="5.74254444813">
		<tag k="name" v="Uravatnet" />
		<tag k="natural" v="water" />
		<tag k="ssr:stedsnr" v="190687" />
	</node>
	<node id="-547059" lat="61.7259888897" lon="5.79804999847">
		<tag k="name" v="Skarvatnet" />
		<tag k="natural" v="water" />
		<tag k="ssr:stedsnr" v="190646" />
	</node>
	<node id="-547041" lat="61.7254972233" lon="6.4444611193">
		<tag k="name" v="Tungebakkgrova" />
		<tag k="ssr:stedsnr" v="154863" />
		<tag k="waterway" v="stream" />
	</node>
	<node id="-547033" lat="61.6503861136" lon="6.51731110448">
		<tag k="name" v="Fonnagråa" />
		<tag k="ssr:stedsnr" v="154828" />
		<tag k="waterway" v="river" />
	</node>
	<node id="-546254" lat="61.652908335" lon="6.01421666776">
		<tag k="name" v="Slettelva" />
		<tag k="ssr:stedsnr" v="373284" />
		<tag k="waterway" v="river" />
	</node>
	<node id="-547019" lat="61.8206277753" lon="5.99924443889">
		<tag k="name" v="Vårstølgrova" />
		<tag k="ssr:stedsnr" v="154472" />
		<tag k="waterway" v="stream" />
	</node>
	<node id="-547015" lat="61.6678777742" lon="6.38707777182">
		<tag k="name" v="Vetleneset" />
		<tag k="natural" v="cape" />
		<tag k="ssr:stedsnr" v="154167" />
	</node>
	<node id="-547010" lat="61.6766027803" lon="6.12974721368">
		<tag k="name" v="Rantebotngrova" />
		<tag k="ssr:stedsnr" v="154098" />
		<tag k="waterway" v="river" />
	</node>
	<node id="-547006" lat="61.7248638851" lon="6.16910554859">
		<tag k="name" v="Troppestranda" />
		<tag k="natural" v="beach" />
		<tag k="ssr:stedsnr" v="154082" />
	</node>
	<node id="-546996" lat="61.7220111088" lon="6.40245277372">
		<tag k="name" v="Varden" />
		<tag k="natural" v="cape" />
		<tag k="ssr:stedsnr" v="154220" />
	</node>
	<node id="-546994" lat="61.7552888912" lon="6.31749722542">
		<tag k="name" v="Sandvika" />
		<tag k="natural" v="bay" />
		<tag k="ssr:stedsnr" v="154203" />
	</node>
	<node id="-546992" lat="61.6421999976" lon="5.72773888529">
		<tag k="name" v="Merkeelva" />
		<tag k="ssr:stedsnr" v="153760" />
		<tag k="waterway" v="stream" />
	</node>
	<node id="-546991" lat="61.6608250023" lon="5.7774583339">
		<tag k="name" v="Nordvikane" />
		<tag k="natural" v="bay" />
		<tag k="ssr:stedsnr" v="153752" />
	</node>
	<node id="-546988" lat="61.6787000001" lon="5.79658056419">
		<tag k="name" v="Heimeelva" />
		<tag k="ssr:stedsnr" v="153706" />
		<tag k="waterway" v="river" />
	</node>
	<node id="-546162" lat="61.7207916692" lon="5.82765555477">
		<tag k="name" v="Løkane" />
		<tag k="natural" v="strait" />
		<tag k="ssr:stedsnr" v="336266" />
	</node>
	<node id="-546984" lat="61.6749499998" lon="5.79665277911">
		<tag k="name" v="Heimsetvatnet" />
		<tag k="natural" v="water" />
		<tag k="ssr:stedsnr" v="153695" />
		<tag k="water" v="lake" />
	</node>
	<node id="-546975" lat="61.7667805546" lon="5.94106667597">
		<tag k="name" v="Teinegrova" />
		<tag k="ssr:stedsnr" v="153502" />
		<tag k="waterway" v="stream" />
	</node>
	<node id="-546974" lat="61.8338583364" lon="5.95400833334">
		<tag k="name" v="Merkegrova" />
		<tag k="ssr:stedsnr" v="153488" />
		<tag k="waterway" v="stream" />
	</node>
	<node id="-546953" lat="61.6521944403" lon="5.93749167429">
		<tag k="name" v="Sældskredvatn" />
		<tag k="natural" v="water" />
		<tag k="ssr:stedsnr" v="153292" />
		<tag k="water" v="lake" />
	</node>
	<node id="-548154" lat="61.8230388923" lon="5.94984443901">
		<tag k="name" v="Geitholmen" />
		<tag k="place" v="islet" />
		<tag k="ssr:stedsnr" v="700412" />
	</node>
	<node id="-546948" lat="61.7557824593" lon="6.51767492569">
		<tag k="name" v="Kvitefossen" />
		<tag k="natural" v="waterfall" />
		<tag k="ssr:stedsnr" v="149631" />
	</node>
	<node id="-546941" lat="61.6184944483" lon="5.69660000782">
		<tag k="name" v="Vassendeholmen" />
		<tag k="place" v="islet" />
		<tag k="ssr:stedsnr" v="141690" />
	</node>
	<node id="-546940" lat="61.7641680026" lon="5.92690041386">
		<tag k="name" v="Bjørnesvora" />
		<tag k="ssr:stedsnr" v="131790" />
		<tag k="waterway" v="stream" />
	</node>
	<node id="-546939" lat="61.7505833359" lon="6.04242777152">
		<tag k="name" v="Veslevatnet" />
		<tag k="natural" v="water" />
		<tag k="ssr:stedsnr" v="131764" />
	</node>
	<node id="-546937" lat="61.7720194403" lon="5.89761389638">
		<tag k="name" v="Namnlausvatnet" />
		<tag k="natural" v="water" />
		<tag k="ssr:stedsnr" v="131747" />
	</node>
	<node id="-546153" lat="61.8024361134" lon="6.18856944914">
		<tag k="name" v="Almselva" />
		<tag k="ssr:stedsnr" v="336236" />
		<tag k="waterway" v="stream" />
	</node>
	<node id="-546931" lat="61.808811112" lon="6.03851389166">
		<tag k="alt_name" v="Vetlevatnet" />
		<tag k="name" v="Litlevatnet" />
		<tag k="natural" v="water" />
		<tag k="ssr:stedsnr" v="131729" />
	</node>
	<node id="-546928" lat="61.8277833364" lon="6.1849861062">
		<tag k="alt_name" v="Raudalselva" />
		<tag k="name" v="Raudelva" />
		<tag k="ssr:stedsnr" v="131709" />
		<tag k="waterway" v="stream" />
	</node>
	<node id="-546922" lat="61.833658329" lon="5.86514165866">
		<tag k="name" v="Skarvevatnet" />
		<tag k="natural" v="water" />
		<tag k="ssr:stedsnr" v="131675" />
	</node>
	<node id="-546918" lat="61.7651277786" lon="6.62639722921">
		<tag k="name" v="Sandalselva" />
		<tag k="ssr:stedsnr" v="131398" />
		<tag k="waterway" v="river" />
	</node>
	<node id="-546913" lat="61.7270750026" lon="6.12160555956">
		<tag k="name" v="Breidalsvatna" />
		<tag k="natural" v="water" />
		<tag k="ssr:stedsnr" v="131336" />
		<tag k="water" v="lake" />
	</node>
	<node id="-546912" lat="61.7259444474" lon="6.16518889539">
		<tag k="name" v="Langedalsvatnet" />
		<tag k="natural" v="water" />
		<tag k="ssr:stedsnr" v="131333" />
		<tag k="water" v="lake" />
	</node>
	<node id="-546911" lat="61.7265388865" lon="5.9199833294">
		<tag k="alt_name" v="Ommedalselva" />
		<tag k="name" v="Åelva" />
		<tag k="ssr:stedsnr" v="131332" />
		<tag k="waterway" v="river" />
	</node>
	<node id="-546910" lat="61.6770777741" lon="5.90199443566">
		<tag k="name" v="Vesle Rongkleivvatnet" />
		<tag k="natural" v="water" />
		<tag k="ssr:stedsnr" v="131326" />
	</node>
	<node id="-546908" lat="61.7878444478" lon="6.6796194352">
		<tag k="name" v="Nørdrebotnen" />
		<tag k="natural" v="water" />
		<tag k="ssr:stedsnr" v="131314" />
	</node>
	<node id="-546907" lat="61.7926527783" lon="6.71461944843">
		<tag k="name" v="Blekkhuset" />
		<tag k="natural" v="water" />
		<tag k="ssr:stedsnr" v="131307" />
	</node>
	<node id="-546905" lat="61.6784055567" lon="6.09405555535">
		<tag k="name" v="Storevika" />
		<tag k="natural" v="bay" />
		<tag k="ssr:stedsnr" v="131280" />
	</node>
	<node id="-546903" lat="61.6195000016" lon="5.89071111033">
		<tag k="name" v="Vinddalsvatnet" />
		<tag k="natural" v="water" />
		<tag k="ssr:stedsnr" v="131243" />
	</node>
	<node id="-546900" lat="61.764574999" lon="6.29568610553">
		<tag k="name" v="Røsskleivvatnet" />
		<tag k="natural" v="water" />
		<tag k="ssr:stedsnr" v="131173" />
	</node>
	<node id="-546898" lat="61.7863138882" lon="6.23800000715">
		<tag k="name" v="Åstjønna" />
		<tag k="natural" v="water" />
		<tag k="ssr:stedsnr" v="131161" />
	</node>
	<node id="-546889" lat="61.7384500024" lon="6.53058888356">
		<tag k="name" v="Lonevatnet" />
		<tag k="natural" v="water" />
		<tag k="ssr:stedsnr" v="131120" />
	</node>
	<node id="-546878" lat="61.8437250025" lon="6.25033332861">
		<tag k="name" v="Røssegjølsgrova" />
		<tag k="ssr:stedsnr" v="131038" />
		<tag k="waterway" v="stream" />
	</node>
	<node id="-546875" lat="61.6402083335" lon="5.79446111735">
		<tag k="name" v="Karineset" />
		<tag k="natural" v="cape" />
		<tag k="ssr:stedsnr" v="130680" />
	</node>
	<node id="-546869" lat="61.7045805596" lon="5.70791110355">
		<tag k="name" v="Kaldevatnet" />
		<tag k="natural" v="water" />
		<tag k="ssr:stedsnr" v="129650" />
		<tag k="water" v="lake" />
	</node>
	<node id="-546859" lat="61.7393583348" lon="6.54218334031">
		<tag k="name" v="Sameigna" />
		<tag k="ssr:stedsnr" v="94946" />
		<tag k="waterway" v="river" />
	</node>
	<node id="-546044" lat="61.7446611126" lon="6.27453889395">
		<tag k="name" v="Klypegrova" />
		<tag k="ssr:stedsnr" v="276268" />
		<tag k="waterway" v="stream" />
	</node>
	<node id="-546857" lat="61.7176361104" lon="6.61860555805">
		<tag k="name" v="Yste Svoragrova" />
		<tag k="ssr:stedsnr" v="94915" />
		<tag k="waterway" v="stream" />
	</node>
	<node id="-546847" lat="61.7886361146" lon="6.45570555959">
		<tag k="name" v="Liaelva" />
		<tag k="ssr:stedsnr" v="94901" />
		<tag k="waterway" v="stream" />
	</node>
	<node id="-546841" lat="61.6549972216" lon="6.44679999649">
		<tag k="name" v="Djupedammen" />
		<tag k="natural" v="water" />
		<tag k="ssr:stedsnr" v="94855" />
	</node>
	<node id="-546830" lat="61.7152222238" lon="6.3675722141">
		<tag k="name" v="Fjøselva" />
		<tag k="ssr:stedsnr" v="94199" />
		<tag k="waterway" v="stream" />
	</node>
	<node id="-546829" lat="61.7164027773" lon="6.37618056295">
		<tag k="name" v="Djupevika" />
		<tag k="natural" v="bay" />
		<tag k="ssr:stedsnr" v="94195" />
	</node>
	<node id="-546825" lat="61.7033888888" lon="6.3789000012">
		<tag k="name" v="Friarvika" />
		<tag k="natural" v="bay" />
		<tag k="ssr:stedsnr" v="94173" />
	</node>
	<node id="-546824" lat="61.6715916649" lon="6.37817499928">
		<tag k="alt_name" v="Myklandalselva" />
		<tag k="name" v="Kandalselva" />
		<tag k="ssr:stedsnr" v="94152" />
		<tag k="waterway" v="river" />
	</node>
	<node id="-546823" lat="61.7309638924" lon="6.11793611335">
		<tag k="name" v="Steingardselva" />
		<tag k="ssr:stedsnr" v="94089" />
		<tag k="waterway" v="river" />
	</node>
	<node id="-546818" lat="61.648474997" lon="6.23364167359">
		<tag k="name" v="Indre Blådalsvatnet" />
		<tag k="natural" v="water" />
		<tag k="ssr:stedsnr" v="94040" />
		<tag k="water" v="lake" />
	</node>
</osm>
