<?xml version="1.0" encoding="UTF-8"?>
<osm generator="osmapis" version="0.6">
	<node id="-929791" lat="64.8060861119" lon="11.5829916678">
		<tag k="name" v="Kjeøya" />
		<tag k="ssr:date" v="2018-01-09" />
		<tag k="ssr:gruppe" v="navigasjon" />
		<tag k="ssr:hovedgruppe" v="infrastruktur" />
		<tag k="ssr:stedsnr" v="803332" />
		<tag k="ssr:type" v="fyrlykt" />
	</node>
	<node id="-926702" lat="64.863689751" lon="11.6583910656">
		<tag k="name" v="Korsneset" />
		<tag k="ssr:date" v="2018-01-09" />
		<tag k="ssr:gruppe" v="navigasjon" />
		<tag k="ssr:hovedgruppe" v="infrastruktur" />
		<tag k="ssr:stedsnr" v="539561" />
		<tag k="ssr:type" v="lanterne" />
	</node>
	<node id="-929404" lat="64.80035556" lon="11.2533750034">
		<tag k="name" v="Arnøysteinskjæret" />
		<tag k="ssr:date" v="2018-01-09" />
		<tag k="ssr:gruppe" v="navigasjon" />
		<tag k="ssr:hovedgruppe" v="infrastruktur" />
		<tag k="ssr:stedsnr" v="651422" />
		<tag k="ssr:type" v="fyrlykt" />
	</node>
	<node id="-931195" lat="64.8118138909" lon="11.596919437">
		<tag k="name" v="Buøy vestre" />
		<tag k="ssr:date" v="2018-01-09" />
		<tag k="ssr:gruppe" v="navigasjon" />
		<tag k="ssr:hovedgruppe" v="infrastruktur" />
		<tag k="ssr:stedsnr" v="650048" />
		<tag k="ssr:type" v="lanterne" />
	</node>
	<node id="-928631" lat="64.7881916641" lon="11.0973027687">
		<tag k="name" v="Prestøygalten" />
		<tag k="ssr:date" v="2018-01-09" />
		<tag k="ssr:gruppe" v="navigasjon" />
		<tag k="ssr:hovedgruppe" v="infrastruktur" />
		<tag k="ssr:stedsnr" v="634773" />
		<tag k="ssr:type" v="fyrlykt" />
	</node>
	<node id="-929526" lat="64.9125444447" lon="11.3674138786">
		<tag k="name" v="Hummulråsa" />
		<tag k="ssr:date" v="2018-01-09" />
		<tag k="ssr:gruppe" v="navigasjon" />
		<tag k="ssr:hovedgruppe" v="infrastruktur" />
		<tag k="ssr:stedsnr" v="743053" />
		<tag k="ssr:type" v="fyrlykt" />
	</node>
	<node id="-931701" lat="64.9188249956" lon="11.3926361135">
		<tag k="name" v="Svinøya" />
		<tag k="ssr:date" v="2018-01-09" />
		<tag k="ssr:gruppe" v="navigasjon" />
		<tag k="ssr:hovedgruppe" v="infrastruktur" />
		<tag k="ssr:stedsnr" v="893213" />
		<tag k="ssr:type" v="lanterne" />
	</node>
	<node id="-928500" lat="64.7355638884" lon="11.1780083296">
		<tag k="name" v="Litlkalvøya nordre" />
		<tag k="ssr:date" v="2018-01-09" />
		<tag k="ssr:gruppe" v="navigasjon" />
		<tag k="ssr:hovedgruppe" v="infrastruktur" />
		<tag k="ssr:stedsnr" v="105108" />
		<tag k="ssr:type" v="lanterne" />
	</node>
	<node id="-929651" lat="64.7958372461" lon="11.1368305957">
		<tag k="name" v="Tennholmen" />
		<tag k="ssr:date" v="2019-04-10" />
		<tag k="ssr:gruppe" v="navigasjon" />
		<tag k="ssr:hovedgruppe" v="infrastruktur" />
		<tag k="ssr:stedsnr" v="15875" />
		<tag k="ssr:type" v="fyrlykt" />
	</node>
	<node id="-930542" lat="64.8641138889" lon="11.2746416572">
		<tag k="name" v="Strømøya" />
		<tag k="ssr:date" v="2018-01-09" />
		<tag k="ssr:gruppe" v="navigasjon" />
		<tag k="ssr:hovedgruppe" v="infrastruktur" />
		<tag k="ssr:stedsnr" v="772214" />
		<tag k="ssr:type" v="lanterne" />
	</node>
	<node id="-931180" lat="64.9545611136" lon="11.3938333257">
		<tag k="name" v="Gjerdinga nedre" />
		<tag k="ssr:date" v="2018-01-09" />
		<tag k="ssr:gruppe" v="navigasjon" />
		<tag k="ssr:hovedgruppe" v="infrastruktur" />
		<tag k="ssr:stedsnr" v="621166" />
		<tag k="ssr:type" v="fyrlykt" />
	</node>
	<node id="-926403" lat="64.8659478438" lon="11.6071254843">
		<tag k="name" v="Paradisvegen" />
		<tag k="ssr:date" v="2019-05-31" />
		<tag k="ssr:gruppe" v="veg" />
		<tag k="ssr:hovedgruppe" v="infrastruktur" />
		<tag k="ssr:stedsnr" v="1045308" />
		<tag k="ssr:type" v="adressenavn" />
	</node>
	<node id="-928807" lat="64.7330249965" lon="11.1760000086">
		<tag k="name" v="Krokøya, søre" />
		<tag k="ssr:date" v="2018-01-09" />
		<tag k="ssr:gruppe" v="navigasjon" />
		<tag k="ssr:hovedgruppe" v="infrastruktur" />
		<tag k="ssr:stedsnr" v="469102" />
		<tag k="ssr:type" v="lanterne" />
	</node>
	<node id="-928764" lat="64.8722083306" lon="11.6878222229">
		<tag k="name" v="Kvalbakkskjæret" />
		<tag k="ssr:date" v="2018-01-09" />
		<tag k="ssr:gruppe" v="navigasjon" />
		<tag k="ssr:hovedgruppe" v="infrastruktur" />
		<tag k="ssr:stedsnr" v="938050" />
		<tag k="ssr:type" v="lanterne" />
	</node>
	<node id="-931804" lat="63.5169210211" lon="10.4860505232">
		<tag k="name" v="Trøndelag fylke - Trööndelagen fylhke" />
		<tag k="name:no" v="Trøndelag fylke" />
		<tag k="name:sma" v="Trööndelagen fylhke" />
		<tag k="ssr:date" v="2018-06-27" />
		<tag k="ssr:gruppe" v="administrativeIndelinger" />
		<tag k="ssr:hovedgruppe" v="offentligAdministrasjon" />
		<tag k="ssr:stedsnr" v="980645" />
		<tag k="ssr:type" v="fylke" />
	</node>
	<node id="-931419" lat="64.7209499969" lon="11.1625555503">
		<tag k="name" v="Abelværholmen" />
		<tag k="ssr:date" v="2018-01-09" />
		<tag k="ssr:gruppe" v="navigasjon" />
		<tag k="ssr:hovedgruppe" v="infrastruktur" />
		<tag k="ssr:stedsnr" v="478802" />
		<tag k="ssr:type" v="lanterne" />
	</node>
	<node id="-926937" lat="64.7905249963" lon="11.7740361122">
		<tag k="name" v="Storbrandsøya" />
		<tag k="ssr:date" v="2018-01-09" />
		<tag k="ssr:gruppe" v="navigasjon" />
		<tag k="ssr:hovedgruppe" v="infrastruktur" />
		<tag k="ssr:stedsnr" v="44050" />
		<tag k="ssr:type" v="lanterne" />
	</node>
	<node id="-931672" lat="64.7809749973" lon="11.4466194404">
		<tag k="name" v="Torlandssundet" />
		<tag k="ssr:date" v="2018-01-09" />
		<tag k="ssr:gruppe" v="navigasjon" />
		<tag k="ssr:hovedgruppe" v="infrastruktur" />
		<tag k="ssr:stedsnr" v="621777" />
		<tag k="ssr:type" v="fyrlykt" />
	</node>
	<node id="-929621" lat="64.7905888898" lon="11.2170361177">
		<tag k="name" v="Tranøyholmen" />
		<tag k="ssr:date" v="2018-01-09" />
		<tag k="ssr:gruppe" v="navigasjon" />
		<tag k="ssr:hovedgruppe" v="infrastruktur" />
		<tag k="ssr:stedsnr" v="660761" />
		<tag k="ssr:type" v="lanterne" />
	</node>
	<node id="-929620" lat="64.8629750045" lon="11.6050472237">
		<tag k="name" v="Nærøy kommune" />
		<tag k="ssr:date" v="2018-01-09" />
		<tag k="ssr:gruppe" v="administrativeIndelinger" />
		<tag k="ssr:hovedgruppe" v="offentligAdministrasjon" />
		<tag k="ssr:stedsnr" v="693267" />
		<tag k="ssr:type" v="kommune" />
	</node>
	<node id="-927059" lat="65.002744443" lon="11.5836444474">
		<tag k="name" v="Langøyskjæret" />
		<tag k="ssr:date" v="2018-01-09" />
		<tag k="ssr:gruppe" v="navigasjon" />
		<tag k="ssr:hovedgruppe" v="infrastruktur" />
		<tag k="ssr:stedsnr" v="296558" />
		<tag k="ssr:type" v="lanterne" />
	</node>
	<node id="-928336" lat="64.7911583366" lon="11.1138638963">
		<tag k="name" v="Nordøya" />
		<tag k="ssr:date" v="2018-01-09" />
		<tag k="ssr:gruppe" v="navigasjon" />
		<tag k="ssr:hovedgruppe" v="infrastruktur" />
		<tag k="ssr:stedsnr" v="722793" />
		<tag k="ssr:type" v="lanterne" />
	</node>
	<node id="-928463" lat="65.0031833358" lon="11.7421361114">
		<tag k="name" v="Sjøliodden" />
		<tag k="ssr:date" v="2018-01-09" />
		<tag k="ssr:gruppe" v="navigasjon" />
		<tag k="ssr:hovedgruppe" v="infrastruktur" />
		<tag k="ssr:stedsnr" v="682213" />
		<tag k="ssr:type" v="fyrlykt" />
	</node>
	<node id="-930766" lat="64.9813527811" lon="11.4345055569">
		<tag k="name" v="Ytterflesan" />
		<tag k="ssr:date" v="2018-01-09" />
		<tag k="ssr:gruppe" v="navigasjon" />
		<tag k="ssr:hovedgruppe" v="infrastruktur" />
		<tag k="ssr:stedsnr" v="772223" />
		<tag k="ssr:type" v="lanterne" />
	</node>
	<node id="-930250" lat="64.9823416646" lon="11.5948361067">
		<tag k="name" v="Rypån" />
		<tag k="ssr:date" v="2018-01-09" />
		<tag k="ssr:gruppe" v="navigasjon" />
		<tag k="ssr:hovedgruppe" v="infrastruktur" />
		<tag k="ssr:stedsnr" v="499104" />
		<tag k="ssr:type" v="fyrlykt" />
	</node>
	<node id="-927607" lat="64.8603111153" lon="11.2695499911">
		<tag k="name" v="Rørvik" />
		<tag k="ssr:date" v="2018-01-09" />
		<tag k="ssr:gruppe" v="navigasjon" />
		<tag k="ssr:hovedgruppe" v="infrastruktur" />
		<tag k="ssr:stedsnr" v="864458" />
		<tag k="ssr:type" v="fyrlykt" />
	</node>
	<node id="-926535" lat="64.829033329" lon="11.2366222177">
		<tag k="name" v="Kjerringholmen" />
		<tag k="ssr:date" v="2018-01-09" />
		<tag k="ssr:gruppe" v="navigasjon" />
		<tag k="ssr:hovedgruppe" v="infrastruktur" />
		<tag k="ssr:stedsnr" v="590109" />
		<tag k="ssr:type" v="lanterne" />
	</node>
	<node id="-930501" lat="64.8779083331" lon="11.7027138849">
		<tag k="name" v="Ørholman" />
		<tag k="ssr:date" v="2018-01-09" />
		<tag k="ssr:gruppe" v="navigasjon" />
		<tag k="ssr:hovedgruppe" v="infrastruktur" />
		<tag k="ssr:stedsnr" v="721568" />
		<tag k="ssr:type" v="lanterne" />
	</node>
	<node id="-926710" lat="64.7502583368" lon="11.5233277784">
		<tag k="name" v="Kvalholmen" />
		<tag k="ssr:date" v="2018-01-09" />
		<tag k="ssr:gruppe" v="navigasjon" />
		<tag k="ssr:hovedgruppe" v="infrastruktur" />
		<tag k="ssr:stedsnr" v="924669" />
		<tag k="ssr:type" v="fyrlykt" />
	</node>
	<node id="-926402" lat="64.9649073851" lon="11.9560383761">
		<tag k="name" v="Svarttjønna" />
		<tag k="ssr:date" v="2019-05-31" />
		<tag k="ssr:gruppe" v="veg" />
		<tag k="ssr:hovedgruppe" v="infrastruktur" />
		<tag k="ssr:stedsnr" v="1045022" />
		<tag k="ssr:type" v="adressenavn" />
	</node>
	<node id="-926401" lat="64.9660301899" lon="11.9378481441">
		<tag k="name" v="Årforvatnet" />
		<tag k="ssr:date" v="2019-05-31" />
		<tag k="ssr:gruppe" v="veg" />
		<tag k="ssr:hovedgruppe" v="infrastruktur" />
		<tag k="ssr:stedsnr" v="1045021" />
		<tag k="ssr:type" v="adressenavn" />
	</node>
	<node id="-927168" lat="64.9673416652" lon="12.0976416707">
		<tag k="name" v="Østre Skjølstad" />
		<tag k="ssr:date" v="2018-01-09" />
		<tag k="ssr:gruppe" v="navigasjon" />
		<tag k="ssr:hovedgruppe" v="infrastruktur" />
		<tag k="ssr:stedsnr" v="946305" />
		<tag k="ssr:type" v="fyrlykt" />
	</node>
	<node id="-931518" lat="64.8548583292" lon="11.6629555517">
		<tag k="name" v="Bjørnhammaren" />
		<tag k="ssr:date" v="2018-01-09" />
		<tag k="ssr:gruppe" v="navigasjon" />
		<tag k="ssr:hovedgruppe" v="infrastruktur" />
		<tag k="ssr:stedsnr" v="650090" />
		<tag k="ssr:type" v="lanterne" />
	</node>
	<node id="-931658" lat="64.8779472219" lon="11.7026111156">
		<tag k="name" v="Ørnholmen" />
		<tag k="ssr:date" v="2018-01-09" />
		<tag k="ssr:gruppe" v="navigasjon" />
		<tag k="ssr:hovedgruppe" v="infrastruktur" />
		<tag k="ssr:stedsnr" v="590096" />
		<tag k="ssr:type" v="lanterne" />
	</node>
	<node id="-930234" lat="64.7800305538" lon="11.178644452">
		<tag k="name" v="Bertillen" />
		<tag k="ssr:date" v="2018-01-09" />
		<tag k="ssr:gruppe" v="navigasjon" />
		<tag k="ssr:hovedgruppe" v="infrastruktur" />
		<tag k="ssr:stedsnr" v="600756" />
		<tag k="ssr:type" v="fyrlykt" />
	</node>
	<node id="-927545" lat="64.9443861136" lon="12.1947749985">
		<tag k="name" v="Bergsodden" />
		<tag k="ssr:date" v="2018-01-09" />
		<tag k="ssr:gruppe" v="navigasjon" />
		<tag k="ssr:hovedgruppe" v="infrastruktur" />
		<tag k="ssr:stedsnr" v="257616" />
		<tag k="ssr:type" v="fyrlykt" />
	</node>
	<node id="-930101" lat="64.8747916635" lon="11.2914472262">
		<tag k="name" v="Haganes" />
		<tag k="ssr:date" v="2018-01-09" />
		<tag k="ssr:gruppe" v="navigasjon" />
		<tag k="ssr:hovedgruppe" v="infrastruktur" />
		<tag k="ssr:stedsnr" v="28090" />
		<tag k="ssr:type" v="fyrlykt" />
	</node>
	<node id="-929972" lat="64.9729583342" lon="11.5280888917">
		<tag k="name" v="Risværet" />
		<tag k="ssr:date" v="2018-01-09" />
		<tag k="ssr:gruppe" v="navigasjon" />
		<tag k="ssr:hovedgruppe" v="infrastruktur" />
		<tag k="ssr:stedsnr" v="439098" />
		<tag k="ssr:type" v="fyrlykt" />
	</node>
	<node id="-931249" lat="64.7426555566" lon="11.1114416728">
		<tag k="name" v="Oterholmsund" />
		<tag k="old_name" v="Oterholmssundet" />
		<tag k="ssr:date" v="2018-01-09" />
		<tag k="ssr:gruppe" v="navigasjon" />
		<tag k="ssr:hovedgruppe" v="infrastruktur" />
		<tag k="ssr:stedsnr" v="681937" />
		<tag k="ssr:type" v="fyrlykt" />
	</node>
	<node id="-928560" lat="64.7224888873" lon="11.1566944354">
		<tag k="name" v="Fremstholmen" />
		<tag k="ssr:date" v="2018-01-09" />
		<tag k="ssr:gruppe" v="navigasjon" />
		<tag k="ssr:hovedgruppe" v="infrastruktur" />
		<tag k="ssr:stedsnr" v="357787" />
		<tag k="ssr:type" v="lanterne" />
	</node>
	<node id="-930607" lat="64.941200001" lon="11.4686499958">
		<tag k="name" v="Stongholmgalten" />
		<tag k="ssr:date" v="2018-01-09" />
		<tag k="ssr:gruppe" v="navigasjon" />
		<tag k="ssr:hovedgruppe" v="infrastruktur" />
		<tag k="ssr:stedsnr" v="500233" />
		<tag k="ssr:type" v="fyrlykt" />
	</node>
	<node id="-930094" lat="64.7898944409" lon="11.1218694497">
		<tag k="name" v="Stikkelholmen øst" />
		<tag k="ssr:date" v="2018-01-09" />
		<tag k="ssr:gruppe" v="navigasjon" />
		<tag k="ssr:hovedgruppe" v="infrastruktur" />
		<tag k="ssr:stedsnr" v="783771" />
		<tag k="ssr:type" v="lanterne" />
	</node>
	<node id="-926600" lat="64.9176305557" lon="11.390416677">
		<tag k="name" v="Svinøy Østpynt" />
		<tag k="ssr:date" v="2018-01-09" />
		<tag k="ssr:gruppe" v="navigasjon" />
		<tag k="ssr:hovedgruppe" v="infrastruktur" />
		<tag k="ssr:stedsnr" v="453088" />
		<tag k="ssr:type" v="fyrlykt" />
	</node>
	<node id="-926631" lat="64.7972027784" lon="11.8228722145">
		<tag k="name" v="Bursvikodden" />
		<tag k="ssr:date" v="2018-01-09" />
		<tag k="ssr:gruppe" v="navigasjon" />
		<tag k="ssr:hovedgruppe" v="infrastruktur" />
		<tag k="ssr:stedsnr" v="695089" />
		<tag k="ssr:type" v="fyrlykt" />
	</node>
	<node id="-929703" lat="64.8297166625" lon="11.2383861081">
		<tag k="name" v="Nærøyskjæra" />
		<tag k="ssr:date" v="2018-01-09" />
		<tag k="ssr:gruppe" v="navigasjon" />
		<tag k="ssr:hovedgruppe" v="infrastruktur" />
		<tag k="ssr:stedsnr" v="271101" />
		<tag k="ssr:type" v="fyrlykt" />
	</node>
	<node id="-927267" lat="64.9781111097" lon="11.5551416668">
		<tag k="name" v="Ivarholmen" />
		<tag k="ssr:date" v="2018-01-09" />
		<tag k="ssr:gruppe" v="navigasjon" />
		<tag k="ssr:hovedgruppe" v="infrastruktur" />
		<tag k="ssr:stedsnr" v="560125" />
		<tag k="ssr:type" v="fyrlykt" />
	</node>
	<node id="-931163" lat="64.7236583292" lon="11.1646833311">
		<tag k="name" v="Abelvær" />
		<tag k="ssr:date" v="2018-01-09" />
		<tag k="ssr:gruppe" v="navigasjon" />
		<tag k="ssr:hovedgruppe" v="infrastruktur" />
		<tag k="ssr:stedsnr" v="378968" />
		<tag k="ssr:type" v="fyrlykt" />
	</node>
	<node id="-928799" lat="64.8625222192" lon="11.2772944412">
		<tag k="name" v="Haverskjæret" />
		<tag k="ssr:date" v="2018-01-09" />
		<tag k="ssr:gruppe" v="navigasjon" />
		<tag k="ssr:hovedgruppe" v="infrastruktur" />
		<tag k="ssr:stedsnr" v="392089" />
		<tag k="ssr:type" v="fyrlykt" />
	</node>
	<node id="-928285" lat="64.7563583297" lon="11.1573777861">
		<tag k="name" v="Tikholmtaren" />
		<tag k="ssr:date" v="2018-01-09" />
		<tag k="ssr:gruppe" v="navigasjon" />
		<tag k="ssr:hovedgruppe" v="infrastruktur" />
		<tag k="ssr:stedsnr" v="782770" />
		<tag k="ssr:type" v="lanterne" />
	</node>
	<node id="-929176" lat="64.8010249968" lon="11.2761861134">
		<tag k="name" v="Litlarnøya" />
		<tag k="ssr:date" v="2018-01-09" />
		<tag k="ssr:gruppe" v="navigasjon" />
		<tag k="ssr:hovedgruppe" v="infrastruktur" />
		<tag k="ssr:stedsnr" v="877227" />
		<tag k="ssr:type" v="fyrlykt" />
	</node>
	<node id="-926809" lat="64.7356083297" lon="11.1773611134">
		<tag k="name" v="Krokøya, nordre" />
		<tag k="ssr:date" v="2018-01-09" />
		<tag k="ssr:gruppe" v="navigasjon" />
		<tag k="ssr:hovedgruppe" v="infrastruktur" />
		<tag k="ssr:stedsnr" v="894118" />
		<tag k="ssr:type" v="lanterne" />
	</node>
	<node id="-927726" lat="65.0165416693" lon="11.5997555566">
		<tag k="name" v="Storkvitholmen" />
		<tag k="ssr:date" v="2018-01-09" />
		<tag k="ssr:gruppe" v="navigasjon" />
		<tag k="ssr:hovedgruppe" v="infrastruktur" />
		<tag k="ssr:stedsnr" v="742863" />
		<tag k="ssr:type" v="fyrlykt" />
	</node>
	<node id="-928401" lat="64.9166555516" lon="11.3944500025">
		<tag k="name" v="Svinstien" />
		<tag k="ssr:date" v="2018-01-09" />
		<tag k="ssr:gruppe" v="navigasjon" />
		<tag k="ssr:hovedgruppe" v="infrastruktur" />
		<tag k="ssr:stedsnr" v="864005" />
		<tag k="ssr:type" v="fyrlykt" />
	</node>
	<node id="-926839" lat="64.9479972225" lon="11.4038138846">
		<tag k="name" v="Øvre Gjerdinga" />
		<tag k="ssr:date" v="2018-01-09" />
		<tag k="ssr:gruppe" v="navigasjon" />
		<tag k="ssr:hovedgruppe" v="infrastruktur" />
		<tag k="ssr:stedsnr" v="925232" />
		<tag k="ssr:type" v="fyrlykt" />
	</node>
	<node id="-927375" lat="64.8556222208" lon="11.2396944356">
		<tag k="name" v="Marøyskjæret" />
		<tag k="ssr:date" v="2018-01-09" />
		<tag k="ssr:gruppe" v="navigasjon" />
		<tag k="ssr:hovedgruppe" v="infrastruktur" />
		<tag k="ssr:stedsnr" v="513078" />
		<tag k="ssr:type" v="lanterne" />
	</node>
	<node id="-926478" lat="64.7532138933" lon="11.1740250017">
		<tag k="name" v="Ormtunga" />
		<tag k="ssr:date" v="2018-01-09" />
		<tag k="ssr:gruppe" v="navigasjon" />
		<tag k="ssr:hovedgruppe" v="infrastruktur" />
		<tag k="ssr:stedsnr" v="924121" />
		<tag k="ssr:type" v="fyrlykt" />
	</node>
	<node id="-930826" lat="64.7805250027" lon="11.2850805619">
		<tag k="name" v="Pundsøya" />
		<tag k="ssr:date" v="2018-01-09" />
		<tag k="ssr:gruppe" v="navigasjon" />
		<tag k="ssr:hovedgruppe" v="infrastruktur" />
		<tag k="ssr:stedsnr" v="743743" />
		<tag k="ssr:type" v="fyrlykt" />
	</node>
	<node id="-929673" lat="64.7607638927" lon="11.1521361154">
		<tag k="name" v="Haltaren" />
		<tag k="ssr:date" v="2018-01-09" />
		<tag k="ssr:gruppe" v="navigasjon" />
		<tag k="ssr:hovedgruppe" v="infrastruktur" />
		<tag k="ssr:stedsnr" v="418729" />
		<tag k="ssr:type" v="lanterne" />
	</node>
	<node id="-929544" lat="64.9465944418" lon="12.0084750064">
		<tag k="name" v="Skaftnes" />
		<tag k="ssr:date" v="2018-01-09" />
		<tag k="ssr:gruppe" v="navigasjon" />
		<tag k="ssr:hovedgruppe" v="infrastruktur" />
		<tag k="ssr:stedsnr" v="75613" />
		<tag k="ssr:type" v="fyrlykt" />
	</node>
	<node id="-926727" lat="65.0076722197" lon="11.6457611061">
		<tag k="name" v="Dolmsundet" />
		<tag k="ssr:date" v="2018-01-09" />
		<tag k="ssr:gruppe" v="navigasjon" />
		<tag k="ssr:hovedgruppe" v="infrastruktur" />
		<tag k="ssr:stedsnr" v="196843" />
		<tag k="ssr:type" v="fyrlykt" />
	</node>
	<node id="-930948" lat="64.7909666665" lon="11.7335444419">
		<tag k="name" v="Galtnesskjæret" />
		<tag k="ssr:date" v="2018-01-09" />
		<tag k="ssr:gruppe" v="navigasjon" />
		<tag k="ssr:hovedgruppe" v="infrastruktur" />
		<tag k="ssr:stedsnr" v="865872" />
		<tag k="ssr:type" v="fyrlykt" />
	</node>
	<node id="-926593" lat="64.8253111091" lon="11.2229027686">
		<tag k="name" v="Sandvikodden" />
		<tag k="ssr:date" v="2018-01-09" />
		<tag k="ssr:gruppe" v="navigasjon" />
		<tag k="ssr:hovedgruppe" v="infrastruktur" />
		<tag k="ssr:stedsnr" v="318264" />
		<tag k="ssr:type" v="fyrlykt" />
	</node>
</osm>
