<?xml version="1.0" encoding="UTF-8"?>
<<<<<<< HEAD
<osm version="0.6" generator="osmapis">
	<node lat="58.96464999628319" lon="8.683944439564522" id="-30454">
		<tag k="historic" v="boundary_stone" />
		<tag k="man_made" v="cairn" />
		<tag k="name" v="Vondeheirøysa" />
		<tag k="place" v="locality" />
		<tag k="ssr:stedsnr" v="156476" />
	</node>
	<node lat="58.996105553965414" lon="8.617236107790964" id="-30672">
		<tag k="historic" v="boundary_stone" />
		<tag k="man_made" v="cairn" />
		<tag k="name" v="Krossen" />
		<tag k="place" v="locality" />
		<tag k="ssr:stedsnr" v="459484" />
	</node>
	<node lat="58.91746944374255" lon="8.814522219996292" id="-30977">
=======
<osm generator="osmapis" version="0.6">
	<node id="-465023" lat="59.1676888885" lon="8.68969999552">
		<tag k="historic" v="boundary_stone" />
		<tag k="man_made" v="cairn" />
		<tag k="name" v="Vigelandsteinen" />
		<tag k="place" v="locality" />
		<tag k="ssr:stedsnr" v="654504" />
	</node>
	<node id="-463805" lat="59.0762972227" lon="8.6681305603">
		<tag k="historic" v="boundary_stone" />
		<tag k="man_made" v="cairn" />
		<tag k="name" v="Dyplemyrdeilda" />
		<tag k="place" v="locality" />
		<tag k="ssr:stedsnr" v="229090" />
	</node>
	<node id="-464796" lat="58.9713250033" lon="8.65234445235">
		<tag k="historic" v="boundary_stone" />
		<tag k="man_made" v="cairn" />
		<tag k="name" v="Vøylrøysa" />
		<tag k="place" v="locality" />
		<tag k="ssr:stedsnr" v="703879" />
	</node>
	<node id="-466939" lat="59.1635194411" lon="8.65576666152">
		<tag k="historic" v="boundary_stone" />
		<tag k="man_made" v="cairn" />
		<tag k="name" v="Kjerrkleivdeilda" />
		<tag k="place" v="locality" />
		<tag k="ssr:stedsnr" v="412679" />
	</node>
	<node id="-468063" lat="59.1269388899" lon="8.31468611701">
		<tag k="historic" v="boundary_stone" />
		<tag k="man_made" v="cairn" />
		<tag k="name" v="Kjerringa" />
		<tag k="place" v="locality" />
		<tag k="ssr:stedsnr" v="957781" />
	</node>
	<node id="-467511" lat="58.9692083307" lon="8.61309444984">
>>>>>>> e1d4bc35ff8a6074a6f2e91616a996b547c36f15
		<tag k="historic" v="boundary_stone" />
		<tag k="man_made" v="cairn" />
		<tag k="name" v="Trettesteinen" />
		<tag k="place" v="locality" />
		<tag k="ssr:stedsnr" v="400109" />
	</node>
<<<<<<< HEAD
	<node lat="58.99048611285999" lon="8.49102221632929" id="-31249">
=======
	<node id="-467062" lat="58.9904861129" lon="8.49102221633">
>>>>>>> e1d4bc35ff8a6074a6f2e91616a996b547c36f15
		<tag k="historic" v="boundary_stone" />
		<tag k="man_made" v="cairn" />
		<tag k="name" v="Den blakke geita" />
		<tag k="place" v="locality" />
		<tag k="ssr:stedsnr" v="530078" />
	</node>
<<<<<<< HEAD
	<node lat="58.9713250033322" lon="8.652344452348933" id="-31477">
=======
	<node id="-465429" lat="59.1774833321" lon="8.65757221523">
		<tag k="historic" v="boundary_stone" />
		<tag k="man_made" v="cairn" />
		<tag k="name" v="Ørnesteinen" />
		<tag k="place" v="locality" />
		<tag k="ssr:stedsnr" v="836670" />
	</node>
	<node id="-466612" lat="58.9484861087" lon="8.37625277416">
		<tag k="historic" v="boundary_stone" />
		<tag k="man_made" v="cairn" />
		<tag k="name" v="Reinfossøksa" />
		<tag k="place" v="locality" />
		<tag k="ssr:stedsnr" v="348943" />
	</node>
	<node id="-466834" lat="58.9174694437" lon="8.81452222">
>>>>>>> e1d4bc35ff8a6074a6f2e91616a996b547c36f15
		<tag k="historic" v="boundary_stone" />
		<tag k="man_made" v="cairn" />
		<tag k="name" v="Vøylrøysa" />
		<tag k="place" v="locality" />
		<tag k="ssr:stedsnr" v="703879" />
	</node>
<<<<<<< HEAD
	<node lat="59.16768888853007" lon="8.689699995521371" id="-31558">
=======
	<node id="-466254" lat="58.9646499963" lon="8.68394443956">
>>>>>>> e1d4bc35ff8a6074a6f2e91616a996b547c36f15
		<tag k="historic" v="boundary_stone" />
		<tag k="man_made" v="cairn" />
		<tag k="name" v="Vigelandsteinen" />
		<tag k="place" v="locality" />
		<tag k="ssr:stedsnr" v="654504" />
	</node>
<<<<<<< HEAD
	<node lat="59.076297222728385" lon="8.668130560297856" id="-32197">
=======
	<node id="-464202" lat="59.0482333312" lon="8.50481945153">
>>>>>>> e1d4bc35ff8a6074a6f2e91616a996b547c36f15
		<tag k="historic" v="boundary_stone" />
		<tag k="man_made" v="cairn" />
		<tag k="name" v="Bytefurua" />
		<tag k="place" v="locality" />
		<tag k="ssr:stedsnr" v="519525" />
	</node>
<<<<<<< HEAD
=======
	<node id="-464261" lat="58.996105554" lon="8.61723610779">
		<tag k="historic" v="boundary_stone" />
		<tag k="man_made" v="cairn" />
		<tag k="name" v="Krossen" />
		<tag k="place" v="locality" />
		<tag k="ssr:stedsnr" v="459484" />
	</node>
	<node id="-468002" lat="59.1405583358" lon="8.33576111497">
		<tag k="historic" v="boundary_stone" />
		<tag k="man_made" v="cairn" />
		<tag k="name" v="Napedelda" />
		<tag k="place" v="locality" />
		<tag k="ssr:stedsnr" v="955599" />
	</node>
>>>>>>> e1d4bc35ff8a6074a6f2e91616a996b547c36f15
</osm>
