<?xml version="1.0" encoding="UTF-8"?>
<osm version="0.6" generator="osmapis">
	<node lat="58.99383611299224" lon="8.720083334278025" id="-25668">
		<tag k="name" v="Solkors" />
		<tag k="place" v="locality" />
		<tag k="ssr:stedsnr" v="230476" />
	</node>
	<node lat="59.04490833097824" lon="8.666219436531566" id="-25670">
		<tag k="name" v="Bjønnhiet" />
		<tag k="place" v="locality" />
		<tag k="ssr:stedsnr" v="230943" />
	</node>
	<node lat="59.14865833100418" lon="8.383644440730313" id="-25720">
		<tag k="name" v="Dalanskotet" />
		<tag k="place" v="locality" />
		<tag k="ssr:stedsnr" v="47601" />
	</node>
	<node lat="59.07034722586344" lon="8.651047228592063" id="-25871">
		<tag k="name" v="Bjønnehiet" />
		<tag k="place" v="locality" />
		<tag k="ssr:stedsnr" v="108130" />
	</node>
	<node lat="59.04779721875663" lon="8.421936108286632" id="-25876">
		<tag k="name" v="Sundagsbeitet" />
		<tag k="place" v="locality" />
		<tag k="ssr:stedsnr" v="108090" />
	</node>
	<node lat="58.982283330038705" lon="8.615911108733851" id="-25931">
		<tag k="name" v="Nordheiheftet" />
		<tag k="place" v="locality" />
		<tag k="ssr:stedsnr" v="156148" />
	</node>
	<node lat="58.97781111532343" lon="8.466016666793093" id="-25948">
		<tag k="name" v="Åpåldalsskotet" />
		<tag k="place" v="locality" />
		<tag k="ssr:stedsnr" v="159067" />
	</node>
	<node lat="59.214613886439494" lon="8.450952774862245" id="-25962">
		<tag k="name" v="Lindefjellskotet" />
		<tag k="place" v="locality" />
		<tag k="ssr:stedsnr" v="168202" />
	</node>
	<node lat="59.196974996556534" lon="8.56130555603275" id="-26159">
		<tag k="name" v="Bjønntjønnheftet" />
		<tag k="place" v="locality" />
		<tag k="ssr:stedsnr" v="275569" />
	</node>
	<node lat="59.06316110687234" lon="8.592877775132985" id="-26168">
		<tag k="name" v="Tjæreodden" />
		<tag k="place" v="locality" />
		<tag k="ssr:stedsnr" v="276623" />
	</node>
	<node lat="58.893688888670276" lon="8.774091667417403" id="-26215">
		<tag k="name" v="Kvennhuset" />
		<tag k="place" v="locality" />
		<tag k="ssr:stedsnr" v="461698" />
	</node>
	<node lat="58.88046110851138" lon="8.734202780023578" id="-26325">
		<tag k="name" v="Sinderhaugane" />
		<tag k="place" v="locality" />
		<tag k="ssr:stedsnr" v="339247" />
	</node>
	<node lat="59.04373055359574" lon="8.667586107340014" id="-26352">
		<tag k="name" v="Det djupe såtet" />
		<tag k="place" v="locality" />
		<tag k="ssr:stedsnr" v="472938" />
	</node>
	<node lat="58.9886055529095" lon="8.474094437651228" id="-26355">
		<tag k="name" v="Homlegarden" />
		<tag k="place" v="locality" />
		<tag k="ssr:stedsnr" v="348058" />
	</node>
	<node lat="59.15873333303423" lon="8.663769438186092" id="-26391">
		<tag k="name" v="Jorunvollen" />
		<tag k="place" v="locality" />
		<tag k="ssr:stedsnr" v="351711" />
	</node>
	<node lat="59.058486109531636" lon="8.603133341712995" id="-26431">
		<tag k="name" v="Bjønnehiet" />
		<tag k="place" v="locality" />
		<tag k="ssr:stedsnr" v="397585" />
	</node>
	<node lat="59.012080556295714" lon="8.690077782328691" id="-26450">
		<tag k="name" v="Holger danske" />
		<tag k="place" v="locality" />
		<tag k="ssr:stedsnr" v="399331" />
	</node>
	<node lat="59.03836388971944" lon="8.418950000927563" id="-26515">
		<tag k="name" v="Rustedalsbua" />
		<tag k="place" v="locality" />
		<tag k="ssr:stedsnr" v="411118" />
	</node>
	<node lat="58.981455555012744" lon="8.650858325792784" id="-26614">
		<tag k="name" v="Rautjønn-dammen" />
		<tag k="place" v="locality" />
		<tag k="ssr:stedsnr" v="460767" />
	</node>
	<node lat="59.058511108265286" lon="8.473972220003114" id="-26765">
		<tag k="name" v="Fiskeholken" />
		<tag k="place" v="locality" />
		<tag k="ssr:stedsnr" v="532806" />
	</node>
	<node lat="59.10829722213904" lon="8.392150007641808" id="-26771">
		<tag k="name" v="Ørnekro" />
		<tag k="place" v="locality" />
		<tag k="ssr:stedsnr" v="532891" />
	</node>
	<node lat="58.99488333311714" lon="8.732288891227622" id="-26784">
		<tag k="name" v="Londammen" />
		<tag k="place" v="locality" />
		<tag k="ssr:stedsnr" v="533503" />
	</node>
	<node lat="59.054032132965105" lon="8.37424963755904" id="-26796">
		<tag k="alt_name" v="Nuvassbu" />
		<tag k="name" v="Nuvvassbui" />
		<tag k="place" v="locality" />
		<tag k="ssr:stedsnr" v="547265" />
	</node>
	<node lat="59.06400278100963" lon="8.593911113897665" id="-26827">
		<tag k="name" v="Saga" />
		<tag k="place" v="locality" />
		<tag k="ssr:stedsnr" v="579618" />
	</node>
	<node lat="58.90262221958832" lon="8.749416674232133" id="-26853">
		<tag k="amenity" v="place_of_worship" />
		<tag k="denomination" v="lutheran" />
		<tag k="name" v="Felle  kapell" />
		<tag k="religion" v="christian" />
		<tag k="ssr:stedsnr" v="581342" />
	</node>
	<node lat="58.891361108895055" lon="8.78955555489475" id="-26860">
		<tag k="name" v="Bjønnhiet" />
		<tag k="place" v="locality" />
		<tag k="ssr:stedsnr" v="582692" />
	</node>
	<node lat="58.980544447499305" lon="8.507616664918249" id="-26926">
		<tag k="name" v="Svarthølbua" />
		<tag k="place" v="locality" />
		<tag k="ssr:stedsnr" v="701429" />
	</node>
	<node lat="59.03789999563933" lon="8.516524996585256" id="-26987">
		<tag k="name" v="Tvåttvadet" />
		<tag k="place" v="locality" />
		<tag k="ssr:stedsnr" v="640513" />
	</node>
	<node lat="59.02708611339724" lon="8.536736111393395" id="-26989">
		<tag k="cemetery" v="grave" />
		<tag k="name" v="Tveit gamle kirkegard" />
		<tag k="place" v="locality" />
		<tag k="ssr:stedsnr" v="640815" />
	</node>
	<node lat="59.08329999649405" lon="8.502863894956759" id="-27089">
		<tag k="name" v="Munkeskrifta" />
		<tag k="place" v="locality" />
		<tag k="ssr:stedsnr" v="700582" />
	</node>
	<node lat="59.043697224056764" lon="8.604366663315833" id="-27098">
		<tag k="name" v="Lauhomheftet" />
		<tag k="place" v="locality" />
		<tag k="ssr:stedsnr" v="701570" />
	</node>
	<node lat="59.15583889005784" lon="8.460127785753873" id="-27132">
		<tag k="name" v="Kjempehaugane" />
		<tag k="place" v="locality" />
		<tag k="ssr:stedsnr" v="897034" />
	</node>
	<node lat="59.04534999770724" lon="8.37763054743902" id="-27147">
		<tag k="name" v="Det brendte såtet" />
		<tag k="place" v="locality" />
		<tag k="ssr:stedsnr" v="897483" />
	</node>
	<node lat="58.97281110745728" lon="8.356633339248567" id="-27158">
		<tag k="name" v="Kolbotn" />
		<tag k="place" v="locality" />
		<tag k="ssr:stedsnr" v="897943" />
	</node>
	<node lat="59.02226388745579" lon="8.627577775728666" id="-27179">
		<tag k="name" v="Eileivstjønnskotet" />
		<tag k="place" v="locality" />
		<tag k="ssr:stedsnr" v="714132" />
	</node>
	<node lat="59.16189472570523" lon="8.505817868760236" id="-27231">
		<tag k="alt_name" v="Nissedal" />
		<tag k="amenity" v="place_of_worship" />
		<tag k="denomination" v="lutheran" />
		<tag k="name" v="Nissedal kyrkje" />
		<tag k="religion" v="christian" />
		<tag k="ssr:stedsnr" v="730808" />
	</node>
	<node lat="58.9909555539443" lon="8.635972221602275" id="-27253">
		<tag k="name" v="Londammen" />
		<tag k="place" v="locality" />
		<tag k="ssr:stedsnr" v="763756" />
	</node>
	<node lat="58.99837777420314" lon="8.626594450643509" id="-27433">
		<tag k="name" v="Skiphomheftet" />
		<tag k="place" v="locality" />
		<tag k="ssr:stedsnr" v="824322" />
	</node>
	<node lat="59.14544167115904" lon="8.36781388490965" id="-27455">
		<tag k="name" v="Leirgrova" />
		<tag k="place" v="locality" />
		<tag k="ssr:stedsnr" v="228691" />
	</node>
	<node lat="58.981883335040735" lon="8.400569446330696" id="-27553">
		<tag k="name" v="Bjønntona" />
		<tag k="place" v="locality" />
		<tag k="ssr:stedsnr" v="894409" />
	</node>
	<node lat="58.93725833475657" lon="8.319847220202842" id="-27558">
		<tag k="name" v="Likkista" />
		<tag k="place" v="locality" />
		<tag k="ssr:stedsnr" v="895969" />
	</node>
	<node lat="58.95638888579619" lon="8.553652771148135" id="-27617">
		<tag k="name" v="Klubbestaddammen" />
		<tag k="place" v="locality" />
		<tag k="ssr:stedsnr" v="944255" />
	</node>
	<node lat="58.99338055707138" lon="8.644861111635828" id="-27627">
		<tag k="name" v="Lonvassheftet" />
		<tag k="place" v="locality" />
		<tag k="ssr:stedsnr" v="945200" />
	</node>
	<node lat="58.98101944586733" lon="8.41156111727769" id="-27641">
		<tag k="name" v="Persståga" />
		<tag k="place" v="locality" />
		<tag k="ssr:stedsnr" v="955349" />
	</node>
	<node lat="59.154483334790555" lon="8.383941669424383" id="-27643">
		<tag k="name" v="Syngjarsteinen" />
		<tag k="place" v="locality" />
		<tag k="ssr:stedsnr" v="955593" />
	</node>
	<node lat="59.007697223667925" lon="8.55903055711506" id="-27730">
		<tag k="alt_name" v="Treungen kyrkje" />
		<tag k="amenity" v="place_of_worship" />
		<tag k="denomination" v="lutheran" />
		<tag k="name" v="Treungen kirke" />
		<tag k="religion" v="christian" />
		<tag k="ssr:stedsnr" v="2514" />
	</node>
	<node lat="58.94683333412031" lon="8.510263883126436" id="-27762">
		<tag k="name" v="Blekesåte" />
		<tag k="place" v="locality" />
		<tag k="ssr:stedsnr" v="33825" />
	</node>
	<node lat="58.996613891675466" lon="8.685072218590136" id="-27773">
		<tag k="name" v="Nils Brunåsens såt" />
		<tag k="place" v="locality" />
		<tag k="ssr:stedsnr" v="34071" />
	</node>
	<node lat="59.01398333271199" lon="8.588375004134711" id="-27774">
		<tag k="name" v="Bjortjønnhefti" />
		<tag k="place" v="locality" />
		<tag k="ssr:stedsnr" v="34178" />
	</node>
	<node lat="58.98392222311262" lon="8.692005547113586" id="-27792">
		<tag k="name" v="Bårekvile" />
		<tag k="place" v="locality" />
		<tag k="ssr:stedsnr" v="35026" />
	</node>
	<node lat="58.876241667673206" lon="8.747580559868535" id="-27798">
		<tag k="name" v="Bånmonbua" />
		<tag k="place" v="locality" />
		<tag k="ssr:stedsnr" v="35425" />
	</node>
	<node lat="59.06222777735035" lon="8.402011114504239" id="-27822">
		<tag k="name" v="Ånondsbu" />
		<tag k="place" v="locality" />
		<tag k="ssr:stedsnr" v="46451" />
	</node>
	<node lat="59.02550833751478" lon="8.675205548968716" id="-27839">
		<tag k="name" v="Kulten" />
		<tag k="place" v="locality" />
		<tag k="ssr:stedsnr" v="47251" />
	</node>
	<node lat="59.18974166337096" lon="8.463574998543585" id="-27848">
		<tag k="name" v="Hellemålingane" />
		<tag k="place" v="locality" />
		<tag k="ssr:stedsnr" v="47695" />
	</node>
	<node lat="58.95644999935178" lon="8.68601388197295" id="-27924">
		<tag k="name" v="Ormvasslidammen" />
		<tag k="place" v="locality" />
		<tag k="ssr:stedsnr" v="96507" />
	</node>
	<node lat="59.166469448755294" lon="8.555502782380369" id="-27934">
		<tag k="name" v="Mannen" />
		<tag k="place" v="locality" />
		<tag k="ssr:stedsnr" v="93632" />
	</node>
	<node lat="59.011594448706354" lon="8.582461106009118" id="-28102">
		<tag k="name" v="Fiskodden" />
		<tag k="place" v="locality" />
		<tag k="ssr:stedsnr" v="155848" />
	</node>
	<node lat="58.99899999987382" lon="8.674408339097534" id="-28105">
		<tag k="name" v="Annessåt" />
		<tag k="place" v="locality" />
		<tag k="ssr:stedsnr" v="155058" />
	</node>
	<node lat="59.16372499739255" lon="8.62652500022452" id="-28198">
		<tag k="name" v="Huvtjønnleiken" />
		<tag k="place" v="locality" />
		<tag k="ssr:stedsnr" v="169293" />
	</node>
	<node lat="58.93584444755865" lon="8.489922227470352" id="-28333">
		<tag k="name" v="Den brente moen" />
		<tag k="place" v="locality" />
		<tag k="ssr:stedsnr" v="228417" />
	</node>
	<node lat="59.049224999408686" lon="8.511166672137472" id="-28384">
		<tag k="name" v="Ligruva" />
		<tag k="place" v="locality" />
		<tag k="ssr:stedsnr" v="277466" />
	</node>
	<node lat="58.97980833455206" lon="8.400030563594955" id="-28414">
		<tag k="name" v="Gampestille" />
		<tag k="place" v="locality" />
		<tag k="ssr:stedsnr" v="287395" />
	</node>
	<node lat="59.01058888561998" lon="8.48874999306071" id="-28425">
		<tag k="name" v="Likring" />
		<tag k="place" v="locality" />
		<tag k="ssr:stedsnr" v="289247" />
	</node>
	<node lat="58.92071944446688" lon="8.407197230387064" id="-28435">
		<tag k="name" v="Silverspring" />
		<tag k="place" v="locality" />
		<tag k="ssr:stedsnr" v="289748" />
	</node>
	<node lat="58.99443611321032" lon="8.688444451387333" id="-28532">
		<tag k="name" v="Teilagsvassbua" />
		<tag k="place" v="locality" />
		<tag k="ssr:stedsnr" v="337060" />
	</node>
	<node lat="59.04619444895017" lon="8.39975555983373" id="-28583">
		<tag k="name" v="Finnholbua" />
		<tag k="place" v="locality" />
		<tag k="ssr:stedsnr" v="349126" />
	</node>
	<node lat="58.997180558982755" lon="8.57392500097466" id="-28705">
		<tag k="cemetery" v="grave" />
		<tag k="name" v="Gravhaugane" />
		<tag k="place" v="locality" />
		<tag k="ssr:stedsnr" v="397766" />
	</node>
</osm>
