<?xml version="1.0" encoding="UTF-8"?>
<osm version="0.6" generator="osmapis">
	<node lat="59.181647218533755" lon="8.682405562749704" id="-22294">
		<tag k="name" v="Dei grøne oddane" />
		<tag k="natural" v="cape" />
		<tag k="ssr:stedsnr" v="229616" />
	</node>
	<node lat="58.98454722388096" lon="8.786324997087789" id="-22297">
		<tag k="alt_name" v="Kverntjørnane" />
		<tag k="name" v="Kvenntjønnane" />
		<tag k="natural" v="water" />
		<tag k="ssr:stedsnr" v="270" />
	</node>
	<node lat="58.92326110926867" lon="8.624233333982518" id="-22298">
		<tag k="alt_name" v="Midvatnet" />
		<tag k="name" v="Midtvatn" />
		<tag k="natural" v="water" />
		<tag k="ssr:stedsnr" v="403" />
	</node>
	<node lat="58.93308333756821" lon="8.566066670618191" id="-22303">
		<tag k="alt_name" v="Lundantjørnane" />
		<tag k="name" v="Øvre Lundantjønn" />
		<tag k="natural" v="water" />
		<tag k="ssr:stedsnr" v="446" />
	</node>
	<node lat="58.894383329563034" lon="8.75393610802631" id="-22304">
		<tag k="name" v="Fiskeløys" />
		<tag k="natural" v="water" />
		<tag k="ssr:stedsnr" v="453" />
	</node>
	<node lat="58.89068610944641" lon="8.775202775950659" id="-22305">
		<tag k="alt_name" v="Blektjørn" />
		<tag k="name" v="Blekktjønn" />
		<tag k="natural" v="water" />
		<tag k="ssr:stedsnr" v="455" />
	</node>
	<node lat="58.877963889756906" lon="8.73166388048634" id="-22308">
		<tag k="name" v="Mjåvatn" />
		<tag k="natural" v="water" />
		<tag k="ssr:stedsnr" v="714" />
	</node>
	<node lat="59.20776111125511" lon="8.31559999188555" id="-22309">
		<tag k="alt_name" v="Øytjørn" />
		<tag k="name" v="Øytjønn" />
		<tag k="natural" v="water" />
		<tag k="ssr:stedsnr" v="1047" />
	</node>
	<node lat="59.10649999997284" lon="8.348116658961981" id="-22311">
		<tag k="alt_name" v="Meselvatn" />
		<tag k="name" v="Meselvatnet" />
		<tag k="natural" v="water" />
		<tag k="ssr:stedsnr" v="1198" />
	</node>
	<node lat="58.99505277675337" lon="8.557211103491193" id="-22313">
		<tag k="name" v="Heimdøl" />
		<tag k="ssr:stedsnr" v="1300" />
		<tag k="waterway" v="river" />
	</node>
	<node lat="59.08495277811211" lon="8.582508334866311" id="-22314">
		<tag k="alt_name" v="Øyvatn nordre;Øyvatnet, nordre" />
		<tag k="name" v="Nordre Øyvatnet" />
		<tag k="natural" v="water" />
		<tag k="ssr:stedsnr" v="1610" />
		<tag k="water" v="lake" />
	</node>
	<node lat="59.080052775034034" lon="8.584563892863214" id="-22315">
		<tag k="alt_name" v="Øyvatn øvre;Øyvatnet, midtre" />
		<tag k="name" v="Midtre Øyvatnet" />
		<tag k="natural" v="water" />
		<tag k="ssr:stedsnr" v="1611" />
		<tag k="water" v="lake" />
	</node>
	<node lat="58.9190388872972" lon="8.816694438376127" id="-22318">
		<tag k="name" v="Trettestebekken" />
		<tag k="ssr:stedsnr" v="1384" />
		<tag k="waterway" v="stream" />
	</node>
	<node lat="59.04472222016834" lon="8.559838897397412" id="-22322">
		<tag k="alt_name" v="Skådamtjørna" />
		<tag k="name" v="Skådamstjønn" />
		<tag k="natural" v="water" />
		<tag k="ssr:stedsnr" v="1566" />
	</node>
	<node lat="59.071589062902774" lon="8.637831677218452" id="-22323">
		<tag k="alt_name" v="Torsvatn heimre;Torsvatnet, heimre" />
		<tag k="name" v="Heimre Torsvatnet" />
		<tag k="natural" v="water" />
		<tag k="ssr:stedsnr" v="1582" />
	</node>
	<node lat="59.22251388518204" lon="8.61432499246486" id="-22328">
		<tag k="name" v="Haglitjørni" />
		<tag k="natural" v="water" />
		<tag k="ssr:stedsnr" v="1935" />
	</node>
	<node lat="59.233630558009715" lon="8.59011944366106" id="-22329">
		<tag k="alt_name" v="Bliktjørnane" />
		<tag k="name" v="Bliktjønn" />
		<tag k="natural" v="water" />
		<tag k="ssr:stedsnr" v="1943" />
	</node>
	<node lat="59.17746388631132" lon="8.549052774555442" id="-22330">
		<tag k="alt_name" v="Vevreistjørni" />
		<tag k="name" v="Vevreistjønna" />
		<tag k="natural" v="water" />
		<tag k="ssr:stedsnr" v="1814" />
	</node>
	<node lat="59.122738888971035" lon="8.338355561487852" id="-22333">
		<tag k="name" v="Ingerhomtjørnane" />
		<tag k="natural" v="water" />
		<tag k="ssr:stedsnr" v="2131" />
	</node>
	<node lat="59.157452780571624" lon="8.600291663026743" id="-22337">
		<tag k="alt_name" v="Austtjørn" />
		<tag k="name" v="Austtjønn" />
		<tag k="natural" v="water" />
		<tag k="ssr:stedsnr" v="2708" />
	</node>
	<node lat="58.98149722261122" lon="8.32153333453459" id="-22338">
		<tag k="name" v="Ronmovikja" />
		<tag k="natural" v="bay" />
		<tag k="ssr:stedsnr" v="230061" />
	</node>
	<node lat="59.208369446510964" lon="8.632852784913311" id="-22339">
		<tag k="alt_name" v="Kressbutjørni" />
		<tag k="name" v="Krisbutjønna" />
		<tag k="natural" v="water" />
		<tag k="ssr:stedsnr" v="2877" />
	</node>
	<node lat="59.17595832921732" lon="8.504816669341746" id="-22340">
		<tag k="alt_name" v="Skeidmobukti" />
		<tag k="name" v="Skeimobuka" />
		<tag k="natural" v="bay" />
		<tag k="ssr:stedsnr" v="2785" />
	</node>
	<node lat="59.12452222359269" lon="8.53031110260104" id="-22347">
		<tag k="name" v="Vehusåna" />
		<tag k="ssr:stedsnr" v="32389" />
		<tag k="waterway" v="river" />
	</node>
	<node lat="59.203816670861734" lon="8.501463891199917" id="-22349">
		<tag k="name" v="Treskoberget" />
		<tag k="natural" v="cape" />
		<tag k="ssr:stedsnr" v="32417" />
	</node>
	<node lat="59.195416663776115" lon="8.510202782667369" id="-22350">
		<tag k="name" v="Sauodden" />
		<tag k="natural" v="cape" />
		<tag k="ssr:stedsnr" v="32426" />
	</node>
	<node lat="59.11641388729549" lon="8.472683336197912" id="-22380">
		<tag k="name" v="Vikkilen" />
		<tag k="natural" v="bay" />
		<tag k="ssr:stedsnr" v="47074" />
	</node>
	<node lat="59.16630000371552" lon="8.466966658876748" id="-22395">
		<tag k="name" v="Kosodden" />
		<tag k="natural" v="cape" />
		<tag k="ssr:stedsnr" v="47614" />
	</node>
	<node lat="59.11766944253651" lon="8.320744447609018" id="-22401">
		<tag k="name" v="Osvassbekken" />
		<tag k="ssr:stedsnr" v="47779" />
		<tag k="waterway" v="stream" />
	</node>
	<node lat="59.12852222455134" lon="8.319222218463322" id="-22402">
		<tag k="name" v="Firesteintjønna" />
		<tag k="natural" v="water" />
		<tag k="ssr:stedsnr" v="47786" />
	</node>
	<node lat="59.05057222527915" lon="8.463027782907986" id="-22405">
		<tag k="name" v="Naurakåna" />
		<tag k="ssr:stedsnr" v="47825" />
		<tag k="waterway" v="river" />
	</node>
	<node lat="58.93999444797885" lon="8.534658326567035" id="-22409">
		<tag k="alt_name" v="Lauvreistjørna" />
		<tag k="name" v="Lauvreistjønn" />
		<tag k="natural" v="water" />
		<tag k="ssr:stedsnr" v="61424" />
	</node>
	<node lat="58.95497777631207" lon="8.489094439827708" id="-22410">
		<tag k="alt_name" v="Austigardstemtjørn" />
		<tag k="name" v="Austigard Stemtjønn" />
		<tag k="natural" v="water" />
		<tag k="ssr:stedsnr" v="61327" />
	</node>
	<node lat="58.98009999836329" lon="8.326719439140277" id="-22412">
		<tag k="name" v="Ronmoviki" />
		<tag k="natural" v="bay" />
		<tag k="ssr:stedsnr" v="61893" />
	</node>
	<node lat="59.17394999810331" lon="8.341883340571535" id="-22418">
		<tag k="alt_name" v="Gryteåna" />
		<tag k="name" v="Grytåi" />
		<tag k="ssr:stedsnr" v="62119" />
		<tag k="waterway" v="stream" />
	</node>
	<node lat="59.10654444339545" lon="8.428369437948" id="-22419">
		<tag k="name" v="Gråstakktjørni" />
		<tag k="natural" v="water" />
		<tag k="ssr:stedsnr" v="62169" />
	</node>
	<node lat="58.99596111260972" lon="8.626075000872895" id="-22423">
		<tag k="alt_name" v="Skiphomvatn" />
		<tag k="name" v="Skiphomvatnet" />
		<tag k="natural" v="water" />
		<tag k="ssr:stedsnr" v="62275" />
	</node>
	<node lat="59.02815832901846" lon="8.587900006590633" id="-22425">
		<tag k="name" v="Bergåna" />
		<tag k="place" v="locality" />
		<tag k="ssr:stedsnr" v="62518" />
	</node>
	<node lat="59.12315555886244" lon="8.480294439040643" id="-22428">
		<tag k="name" v="Låvodden" />
		<tag k="natural" v="cape" />
		<tag k="ssr:stedsnr" v="62723" />
	</node>
	<node lat="59.12408055731704" lon="8.553444443395993" id="-22429">
		<tag k="name" v="Løkane" />
		<tag k="place" v="locality" />
		<tag k="ssr:stedsnr" v="62726" />
	</node>
	<node lat="58.9049333370994" lon="8.657727777644698" id="-22431">
		<tag k="alt_name" v="Øytjørn" />
		<tag k="name" v="Øytjønn" />
		<tag k="natural" v="water" />
		<tag k="ssr:stedsnr" v="62477" />
	</node>
	<node lat="59.12116666832899" lon="8.589747217410375" id="-22435">
		<tag k="alt_name" v="Rapvatnet, austre" />
		<tag k="name" v="Østre Rapvatn" />
		<tag k="natural" v="water" />
		<tag k="ssr:stedsnr" v="62671" />
		<tag k="water" v="lake" />
	</node>
	<node lat="59.120755558785376" lon="8.56290277776017" id="-22436">
		<tag k="alt_name" v="Rapvatnet, heimre" />
		<tag k="name" v="Heimre Rapvatn" />
		<tag k="natural" v="water" />
		<tag k="ssr:stedsnr" v="62672" />
		<tag k="water" v="lake" />
	</node>
	<node lat="59.116116668971614" lon="8.562608338737897" id="-22437">
		<tag k="alt_name" v="Tryttjørn" />
		<tag k="name" v="Tryttjønn" />
		<tag k="natural" v="water" />
		<tag k="ssr:stedsnr" v="62673" />
	</node>
	<node lat="59.19531111336238" lon="8.563588893002045" id="-22439">
		<tag k="alt_name" v="Bjørntjørn" />
		<tag k="name" v="Bjønntjønn" />
		<tag k="natural" v="water" />
		<tag k="ssr:stedsnr" v="62872" />
	</node>
	<node lat="58.99045277367434" lon="8.420961103886688" id="-22440">
		<tag k="alt_name" v="Nuvasstjørn" />
		<tag k="name" v="Nuvasstjønna" />
		<tag k="natural" v="water" />
		<tag k="ssr:stedsnr" v="62890" />
	</node>
	<node lat="58.95008055205186" lon="8.37027500730116" id="-22444">
		<tag k="alt_name" v="Reinfoss" />
		<tag k="name" v="Reinfossen" />
		<tag k="natural" v="waterfall" />
		<tag k="ssr:stedsnr" v="62965" />
	</node>
	<node lat="58.925794440587836" lon="8.378930561087316" id="-22445">
		<tag k="alt_name" v="Leirbekk" />
		<tag k="name" v="Leirbekken" />
		<tag k="ssr:stedsnr" v="62986" />
		<tag k="waterway" v="stream" />
	</node>
	<node lat="59.09224444344701" lon="8.462697226615141" id="-22446">
		<tag k="alt_name" v="Trontveitåna" />
		<tag k="name" v="Trontveitåni" />
		<tag k="ssr:stedsnr" v="63171" />
		<tag k="waterway" v="river" />
	</node>
	<node lat="58.892802778446175" lon="8.728933329070363" id="-22447">
		<tag k="alt_name" v="Taraldstjørn" />
		<tag k="name" v="Tårånstjønn" />
		<tag k="natural" v="water" />
		<tag k="ssr:stedsnr" v="243443" />
	</node>
	<node lat="58.879027773530375" lon="8.789516674235223" id="-22448">
		<tag k="alt_name" v="Øytjørn" />
		<tag k="name" v="Øytjønn" />
		<tag k="natural" v="water" />
		<tag k="ssr:stedsnr" v="243185" />
	</node>
	<node lat="58.975966671150175" lon="8.505341661724822" id="-22449">
		<tag k="alt_name" v="Stusstjørna" />
		<tag k="name" v="Stusstjønn" />
		<tag k="natural" v="water" />
		<tag k="ssr:stedsnr" v="243239" />
	</node>
	<node lat="58.97695000402181" lon="8.636402778045332" id="-22451">
		<tag k="alt_name" v="Terleikmyra" />
		<tag k="name" v="Mjåvatn" />
		<tag k="natural" v="water" />
		<tag k="ssr:stedsnr" v="243245" />
		<tag k="water" v="lake" />
	</node>
	<node lat="58.921933333213964" lon="8.772219439901377" id="-22452">
		<tag k="name" v="Vehustjørna" />
		<tag k="natural" v="water" />
		<tag k="ssr:stedsnr" v="243391" />
	</node>
	<node lat="58.968219445905284" lon="8.653449995569646" id="-22453">
		<tag k="name" v="Vøylen" />
		<tag k="natural" v="water" />
		<tag k="ssr:stedsnr" v="243342" />
	</node>
	<node lat="58.96959166610649" lon="8.533383337088281" id="-22454">
		<tag k="alt_name" v="Svorttjørn" />
		<tag k="name" v="Svarttjønn" />
		<tag k="natural" v="water" />
		<tag k="ssr:stedsnr" v="243348" />
	</node>
	<node lat="58.96279444815331" lon="8.538483326479438" id="-22455">
		<tag k="name" v="Svåfossen" />
		<tag k="natural" v="waterfall" />
		<tag k="ssr:stedsnr" v="243352" />
	</node>
	<node lat="58.97339166784742" lon="8.720694444419037" id="-22458">
		<tag k="alt_name" v="Steinstjørna" />
		<tag k="name" v="Steinstjønn" />
		<tag k="natural" v="water" />
		<tag k="ssr:stedsnr" v="243361" />
	</node>
	<node lat="58.92403055178713" lon="8.549991663042666" id="-22460">
		<tag k="name" v="Øyheilitjørn" />
		<tag k="natural" v="water" />
		<tag k="ssr:stedsnr" v="243404" />
	</node>
	<node lat="58.97029444692479" lon="8.351330554052572" id="-22463">
		<tag k="alt_name" v="Dalsbekk" />
		<tag k="name" v="Dalsbekken" />
		<tag k="ssr:stedsnr" v="243871" />
		<tag k="waterway" v="stream" />
	</node>
	<node lat="58.9777666696045" lon="8.395933335132996" id="-22464">
		<tag k="name" v="Støyldalsbekken" />
		<tag k="ssr:stedsnr" v="243874" />
		<tag k="waterway" v="stream" />
	</node>
	<node lat="58.96728888551912" lon="8.325600002985905" id="-22466">
		<tag k="name" v="Kanalen" />
		<tag k="place" v="locality" />
		<tag k="ssr:stedsnr" v="243918" />
	</node>
	<node lat="59.19550278031826" lon="8.321130554110786" id="-22468">
		<tag k="alt_name" v="Storkvævtjørnane" />
		<tag k="name" v="Storkvævtjønnane" />
		<tag k="natural" v="water" />
		<tag k="ssr:stedsnr" v="244100" />
	</node>
	<node lat="58.987997218024184" lon="8.522477776174586" id="-22470">
		<tag k="alt_name" v="Einangtjørnane" />
		<tag k="name" v="Einangtjønnane" />
		<tag k="natural" v="water" />
		<tag k="ssr:stedsnr" v="244275" />
	</node>
	<node lat="58.9465861107878" lon="8.71713888592034" id="-22473">
		<tag k="name" v="Løytedalstjørnane" />
		<tag k="natural" v="water" />
		<tag k="ssr:stedsnr" v="244440" />
	</node>
	<node lat="58.8939888906562" lon="8.471577773632708" id="-22477">
		<tag k="alt_name" v="Tybertjørna" />
		<tag k="name" v="Tybergstjønna" />
		<tag k="natural" v="water" />
		<tag k="ssr:stedsnr" v="244468" />
	</node>
	<node lat="58.9140416636696" lon="8.786016672043075" id="-22478">
		<tag k="alt_name" v="Ormetjørn" />
		<tag k="name" v="Ormtjønn" />
		<tag k="natural" v="water" />
		<tag k="ssr:stedsnr" v="244528" />
	</node>
	<node lat="59.04170278034072" lon="8.686230561076398" id="-22480">
		<tag k="alt_name" v="Feletjørn, nedre" />
		<tag k="name" v="Nedre Feletjønn" />
		<tag k="natural" v="water" />
		<tag k="ssr:stedsnr" v="244533" />
	</node>
	<node lat="59.22045555282287" lon="8.554733332747208" id="-22487">
		<tag k="alt_name" v="Steitjørn" />
		<tag k="name" v="Steitjønn" />
		<tag k="natural" v="water" />
		<tag k="ssr:stedsnr" v="244922" />
	</node>
	<node lat="59.24158889158041" lon="8.475394443295809" id="-22488">
		<tag k="name" v="Horgevikfjorden" />
		<tag k="natural" v="water" />
		<tag k="ssr:stedsnr" v="244948" />
		<tag k="water" v="lake" />
	</node>
	<node lat="58.946994445195855" lon="8.403177773530713" id="-22489">
		<tag k="alt_name" v="Skarvetjørn" />
		<tag k="name" v="Skarvetjønn" />
		<tag k="natural" v="water" />
		<tag k="ssr:stedsnr" v="244968" />
	</node>
	<node lat="59.00979444374572" lon="8.420166669859604" id="-22490">
		<tag k="alt_name" v="Ervedalsvatnet" />
		<tag k="name" v="Ervedalsvatn" />
		<tag k="natural" v="water" />
		<tag k="ssr:stedsnr" v="244972" />
		<tag k="water" v="lake" />
	</node>
	<node lat="59.25676110737239" lon="8.424741669572974" id="-22491">
		<tag k="name" v="Horgevikåi" />
		<tag k="ssr:stedsnr" v="245058" />
		<tag k="waterway" v="river" />
	</node>
	<node lat="59.09389444561302" lon="8.454549997245108" id="-22493">
		<tag k="alt_name" v="Åkretjørni" />
		<tag k="name" v="Åkretjønna" />
		<tag k="natural" v="water" />
		<tag k="ssr:stedsnr" v="245152" />
	</node>
	<node lat="59.17358055739257" lon="8.65288888131228" id="-22499">
		<tag k="alt_name" v="Nutstøyltjørni" />
		<tag k="name" v="Nutstøyltjønna" />
		<tag k="natural" v="water" />
		<tag k="ssr:stedsnr" v="245778" />
	</node>
	<node lat="59.174769446957434" lon="8.594908326648511" id="-22502">
		<tag k="name" v="Helvetspytt" />
		<tag k="natural" v="water" />
		<tag k="ssr:stedsnr" v="93786" />
		<tag k="water" v="pond" />
	</node>
	<node lat="59.20907500147067" lon="8.60264445000424" id="-22504">
		<tag k="name" v="Hovstøyltjønna" />
		<tag k="natural" v="water" />
		<tag k="ssr:stedsnr" v="93864" />
	</node>
	<node lat="58.928238891907725" lon="8.511638882403822" id="-22507">
		<tag k="name" v="Sundsmyrholet" />
		<tag k="place" v="locality" />
		<tag k="ssr:stedsnr" v="94818" />
	</node>
	<node lat="59.00790555763714" lon="8.625111111762196" id="-22512">
		<tag k="name" v="Øvre Husådammen" />
		<tag k="ssr:stedsnr" v="95204" />
		<tag k="waterway" v="dam" />
	</node>
	<node lat="59.01079166837573" lon="8.62257222851466" id="-22515">
		<tag k="name" v="Nedre Husådammen" />
		<tag k="ssr:stedsnr" v="95123" />
		<tag k="waterway" v="dam" />
	</node>
	<node lat="58.98940277552825" lon="8.639908341330706" id="-22519">
		<tag k="name" v="Myhanktjønn" />
		<tag k="natural" v="water" />
		<tag k="ssr:stedsnr" v="96177" />
	</node>
	<node lat="58.98664166824007" lon="8.62809723022237" id="-22520">
		<tag k="name" v="Presthylbroa" />
		<tag k="ssr:stedsnr" v="96183" />
		<tag k="waterway" v="dam" />
	</node>
	<node lat="58.86000833704625" lon="8.760686119092775" id="-22522">
		<tag k="name" v="Saufossen" />
		<tag k="natural" v="waterfall" />
		<tag k="ssr:stedsnr" v="96322" />
	</node>
	<node lat="58.99026828434169" lon="8.71583508064085" id="-22524">
		<tag k="name" v="Golitjønnane" />
		<tag k="natural" v="water" />
		<tag k="ssr:stedsnr" v="96968" />
	</node>
	<node lat="58.91772500003582" lon="8.778908335465651" id="-22526">
		<tag k="name" v="Svårtjønn" />
		<tag k="natural" v="water" />
		<tag k="ssr:stedsnr" v="97109" />
	</node>
	<node lat="59.12383055962746" lon="8.349963883891785" id="-22532">
		<tag k="name" v="Lisle Ingerhomtjønna" />
		<tag k="natural" v="water" />
		<tag k="ssr:stedsnr" v="105546" />
	</node>
	<node lat="59.088180554954214" lon="8.43418610335336" id="-22542">
		<tag k="name" v="Stemtjønn" />
		<tag k="natural" v="water" />
		<tag k="ssr:stedsnr" v="107510" />
	</node>
	<node lat="59.20780555365309" lon="8.367916663131782" id="-22547">
		<tag k="name" v="Fiskeufsa" />
		<tag k="natural" v="cape" />
		<tag k="ssr:stedsnr" v="108009" />
	</node>
	<node lat="59.14607777790122" lon="8.448783334659607" id="-22550">
		<tag k="name" v="Den store holmen" />
		<tag k="place" v="island" />
		<tag k="ssr:stedsnr" v="108369" />
	</node>
	<node lat="59.20347777375135" lon="8.334313889193695" id="-22552">
		<tag k="name" v="Klyvsteintjønn" />
		<tag k="natural" v="water" />
		<tag k="ssr:stedsnr" v="108284" />
	</node>
	<node lat="59.13470278205957" lon="8.327349992501052" id="-22559">
		<tag k="name" v="Lisle Flottetjønn" />
		<tag k="natural" v="water" />
		<tag k="ssr:stedsnr" v="108775" />
	</node>
	<node lat="59.10683055913029" lon="8.350419450378098" id="-22560">
		<tag k="name" v="Fiskodden" />
		<tag k="natural" v="cape" />
		<tag k="ssr:stedsnr" v="108686" />
	</node>
	<node lat="59.102847225274566" lon="8.610741665721426" id="-22563">
		<tag k="name" v="Nedre Lisletjønn" />
		<tag k="natural" v="water" />
		<tag k="ssr:stedsnr" v="109375" />
	</node>
	<node lat="59.04563889151825" lon="8.381202773612912" id="-22564">
		<tag k="name" v="Åraksbukta" />
		<tag k="natural" v="bay" />
		<tag k="ssr:stedsnr" v="109469" />
	</node>
	<node lat="58.890588886297614" lon="8.724933332314055" id="-22566">
		<tag k="alt_name" v="Livstjørn" />
		<tag k="name" v="Livstjønn" />
		<tag k="natural" v="water" />
		<tag k="ssr:stedsnr" v="121423" />
	</node>
	<node lat="59.11591111105651" lon="8.414552785324972" id="-22567">
		<tag k="alt_name" v="Håtveitåna" />
		<tag k="name" v="Håtveitåi" />
		<tag k="ssr:stedsnr" v="122124" />
		<tag k="waterway" v="river" />
	</node>
	<node lat="59.18607777389083" lon="8.286383339880862" id="-22569">
		<tag k="alt_name" v="Grytvatnet" />
		<tag k="name" v="Grytevatn" />
		<tag k="natural" v="water" />
		<tag k="ssr:stedsnr" v="122083" />
		<tag k="water" v="lake" />
	</node>
	<node lat="58.91471388711522" lon="8.77258055364445" id="-22572">
		<tag k="name" v="Grimustjørna" />
		<tag k="natural" v="water" />
		<tag k="ssr:stedsnr" v="122477" />
	</node>
	<node lat="58.94381389300785" lon="8.642016665261544" id="-22574">
		<tag k="name" v="Snørstjørn" />
		<tag k="natural" v="water" />
		<tag k="ssr:stedsnr" v="122425" />
	</node>
	<node lat="59.22527500163548" lon="8.350936112875454" id="-22576">
		<tag k="alt_name" v="Kilsåna" />
		<tag k="name" v="Kilsåi" />
		<tag k="ssr:stedsnr" v="123066" />
		<tag k="waterway" v="stream" />
	</node>
	<node lat="59.25782652762671" lon="8.405949585389761" id="-22577">
		<tag k="name" v="Landtakdammen" />
		<tag k="natural" v="water" />
		<tag k="ssr:stedsnr" v="123218" />
	</node>
	<node lat="59.06556389160747" lon="8.586205557427048" id="-22582">
		<tag k="alt_name" v="Øyvasstjørna" />
		<tag k="name" v="Øyvasstjønna" />
		<tag k="natural" v="water" />
		<tag k="ssr:stedsnr" v="123613" />
	</node>
	<node lat="59.06144548520396" lon="8.643007410978782" id="-22583">
		<tag k="alt_name" v="Holmevatn" />
		<tag k="name" v="Holmevatnet" />
		<tag k="natural" v="water" />
		<tag k="ssr:stedsnr" v="123631" />
	</node>
	<node lat="59.09092222337957" lon="8.551647227137046" id="-22587">
		<tag k="name" v="Tjønna" />
		<tag k="natural" v="water" />
		<tag k="ssr:stedsnr" v="153619" />
	</node>
	<node lat="59.12711667041862" lon="8.553913881219689" id="-22588">
		<tag k="name" v="Rundthyl" />
		<tag k="place" v="locality" />
		<tag k="ssr:stedsnr" v="153855" />
	</node>
	<node lat="59.18805555358487" lon="8.605958332424878" id="-22593">
		<tag k="name" v="Lille Hyljelandstjønn" />
		<tag k="natural" v="water" />
		<tag k="ssr:stedsnr" v="154678" />
	</node>
	<node lat="59.19221111111275" lon="8.535438885064217" id="-22594">
		<tag k="name" v="Breidalsåna" />
		<tag k="ssr:stedsnr" v="154513" />
		<tag k="waterway" v="stream" />
	</node>
	<node lat="59.00122499887127" lon="8.682972229673181" id="-22595">
		<tag k="name" v="Øytjønnbekken" />
		<tag k="ssr:stedsnr" v="155052" />
		<tag k="waterway" v="stream" />
	</node>
	<node lat="59.00424999901877" lon="8.636658328970208" id="-22605">
		<tag k="name" v="Lisle Kvenntjønn" />
		<tag k="natural" v="water" />
		<tag k="ssr:stedsnr" v="156213" />
	</node>
	<node lat="58.97382222582583" lon="8.800022216701782" id="-22614">
		<tag k="name" v="Svintjønnbukta" />
		<tag k="natural" v="bay" />
		<tag k="ssr:stedsnr" v="157162" />
	</node>
	<node lat="58.92190277947271" lon="8.616380562601822" id="-22615">
		<tag k="name" v="Pyttane" />
		<tag k="natural" v="water" />
		<tag k="ssr:stedsnr" v="157298" />
		<tag k="water" v="pond" />
	</node>
	<node lat="58.94603611486896" lon="8.472755558869872" id="-22629">
		<tag k="name" v="Kjellarfoss" />
		<tag k="natural" v="waterfall" />
		<tag k="ssr:stedsnr" v="167413" />
	</node>
	<node lat="59.15158611349732" lon="8.471983324925267" id="-22637">
		<tag k="name" v="Frostdølgapet" />
		<tag k="natural" v="bay" />
		<tag k="ssr:stedsnr" v="168414" />
	</node>
	<node lat="59.12291944524623" lon="8.475547226062119" id="-22640">
		<tag k="name" v="Sauodden" />
		<tag k="natural" v="cape" />
		<tag k="ssr:stedsnr" v="168362" />
	</node>
	<node lat="58.93896944062474" lon="8.657499999571323" id="-22652">
		<tag k="alt_name" v="Stemtjørn, l" />
		<tag k="name" v="Lisle Stemtjønn" />
		<tag k="natural" v="water" />
		<tag k="ssr:stedsnr" v="182405" />
	</node>
	<node lat="58.89518055731156" lon="8.805280561091353" id="-22656">
		<tag k="alt_name" v="Venlitjørna" />
		<tag k="name" v="Venlitjønna" />
		<tag k="natural" v="water" />
		<tag k="ssr:stedsnr" v="182430" />
	</node>
	<node lat="58.90969166705978" lon="8.741333330737543" id="-22664">
		<tag k="alt_name" v="Hustjørn" />
		<tag k="name" v="Hustjønn" />
		<tag k="natural" v="water" />
		<tag k="ssr:stedsnr" v="183448" />
	</node>
	<node lat="59.09462710280576" lon="8.577177053519883" id="-22667">
		<tag k="alt_name" v="Svartetjørn" />
		<tag k="name" v="Svarttjønn" />
		<tag k="natural" v="water" />
		<tag k="ssr:stedsnr" v="183646" />
	</node>
	<node lat="59.135063892656376" lon="8.650394435820106" id="-22669">
		<tag k="alt_name" v="Holmevatnet" />
		<tag k="name" v="Holmvatn" />
		<tag k="natural" v="water" />
		<tag k="ssr:stedsnr" v="183703" />
		<tag k="water" v="lake" />
	</node>
	<node lat="59.12626110728111" lon="8.623841660234786" id="-22671">
		<tag k="name" v="Bjørkholttjørni" />
		<tag k="natural" v="water" />
		<tag k="ssr:stedsnr" v="183725" />
	</node>
	<node lat="59.16515278059317" lon="8.654583337762768" id="-22674">
		<tag k="alt_name" v="Kjerrkleivtjørni" />
		<tag k="name" v="Kjerrkleivtjønna" />
		<tag k="natural" v="water" />
		<tag k="ssr:stedsnr" v="183789" />
	</node>
	<node lat="59.1629583303439" lon="8.338305548843422" id="-22676">
		<tag k="name" v="Frostdøl" />
		<tag k="ssr:stedsnr" v="184101" />
		<tag k="waterway" v="river" />
	</node>
	<node lat="59.010550001333804" lon="8.521533327682805" id="-22679">
		<tag k="name" v="Evja" />
		<tag k="natural" v="water" />
		<tag k="ssr:stedsnr" v="184461" />
	</node>
	<node lat="59.00753610694465" lon="8.709755560458639" id="-22680">
		<tag k="alt_name" v="Rjupetjørnane" />
		<tag k="name" v="Rupetjønn" />
		<tag k="natural" v="water" />
		<tag k="ssr:stedsnr" v="184502" />
	</node>
	<node lat="59.010186109320614" lon="8.732866661851352" id="-22681">
		<tag k="alt_name" v="Grautedalstjørn" />
		<tag k="name" v="Grautedalstjønn" />
		<tag k="natural" v="water" />
		<tag k="ssr:stedsnr" v="184507" />
	</node>
	<node lat="59.169352776942354" lon="8.65403334070769" id="-22683">
		<tag k="alt_name" v="Homtjørn" />
		<tag k="name" v="Homtjønna" />
		<tag k="natural" v="water" />
		<tag k="ssr:stedsnr" v="184781" />
	</node>
	<node lat="59.16943055373411" lon="8.632780548828475" id="-22684">
		<tag k="name" v="Øytjønn" />
		<tag k="natural" v="water" />
		<tag k="ssr:stedsnr" v="184782" />
	</node>
	<node lat="59.16987500416198" lon="8.485902778571111" id="-22686">
		<tag k="name" v="Småøyane" />
		<tag k="place" v="islet" />
		<tag k="ssr:stedsnr" v="184786" />
	</node>
	<node lat="59.16326389102045" lon="8.55634444681064" id="-22690">
		<tag k="name" v="Dampedalsåna" />
		<tag k="ssr:stedsnr" v="214577" />
		<tag k="waterway" v="river" />
	</node>
	<node lat="59.12394722197371" lon="8.547055561189985" id="-22694">
		<tag k="name" v="Gullbrå" />
		<tag k="natural" v="water" />
		<tag k="ssr:stedsnr" v="214782" />
	</node>
	<node lat="59.164769441252346" lon="8.527716666437858" id="-22695">
		<tag k="name" v="Nygårdsdalen" />
		<tag k="natural" v="cape" />
		<tag k="ssr:stedsnr" v="214974" />
	</node>
	<node lat="58.95608888608771" lon="8.60555555563747" id="-22700">
		<tag k="name" v="Bjørdammane" />
		<tag k="natural" v="water" />
		<tag k="ssr:stedsnr" v="216104" />
		<tag k="water" v="pond" />
	</node>
	<node lat="58.97224444174276" lon="8.537994439718995" id="-22704">
		<tag k="name" v="Dei små Motjønnane" />
		<tag k="natural" v="water" />
		<tag k="ssr:stedsnr" v="216328" />
	</node>
	<node lat="59.01555555666396" lon="8.540305561403443" id="-22712">
		<tag k="name" v="Homstoberg" />
		<tag k="natural" v="beach" />
		<tag k="ssr:stedsnr" v="216989" />
	</node>
	<node lat="58.981033335561214" lon="8.650872217139893" id="-22716">
		<tag k="name" v="Rautjønnbekken" />
		<tag k="ssr:stedsnr" v="217724" />
		<tag k="waterway" v="stream" />
	</node>
	<node lat="58.98359722374686" lon="8.629552783517665" id="-22718">
		<tag k="name" v="Fiskebekk" />
		<tag k="ssr:stedsnr" v="217893" />
		<tag k="waterway" v="stream" />
	</node>
	<node lat="58.895277775054105" lon="8.71166389499205" id="-22719">
		<tag k="name" v="Murtåna" />
		<tag k="ssr:stedsnr" v="218031" />
		<tag k="waterway" v="river" />
	</node>
	<node lat="58.892586106664275" lon="8.700413891362025" id="-22721">
		<tag k="name" v="Tollodden" />
		<tag k="natural" v="cape" />
		<tag k="ssr:stedsnr" v="218092" />
	</node>
	<node lat="58.884741666440036" lon="8.757813887365307" id="-22724">
		<tag k="name" v="Vrangbekk" />
		<tag k="ssr:stedsnr" v="218313" />
		<tag k="waterway" v="stream" />
	</node>
	<node lat="58.89451389233498" lon="8.752974999536905" id="-22725">
		<tag k="name" v="Monken" />
		<tag k="place" v="islet" />
		<tag k="ssr:stedsnr" v="218316" />
	</node>
	<node lat="58.9684111071547" lon="8.425336115734497" id="-22736">
		<tag k="name" v="Blomtjønn" />
		<tag k="natural" v="water" />
		<tag k="ssr:stedsnr" v="228135" />
	</node>
	<node lat="59.003933333892036" lon="8.467763888340974" id="-22743">
		<tag k="name" v="Gamasåna" />
		<tag k="ssr:stedsnr" v="228389" />
		<tag k="waterway" v="river" />
	</node>
	<node lat="59.22803610993138" lon="8.421361119698387" id="-22745">
		<tag k="name" v="Tjønnstøylbekken" />
		<tag k="ssr:stedsnr" v="229192" />
		<tag k="waterway" v="stream" />
	</node>
	<node lat="59.132061112867916" lon="8.431188892993948" id="-22751">
		<tag k="name" v="Åmotet" />
		<tag k="place" v="locality" />
		<tag k="ssr:stedsnr" v="229493" />
	</node>
	<node lat="59.03257777887229" lon="8.381919445709089" id="-22756">
		<tag k="name" v="Grunntjønnosen" />
		<tag k="natural" v="bay" />
		<tag k="ssr:stedsnr" v="229695" />
	</node>
	<node lat="58.894047226144735" lon="8.749949997920854" id="-22764">
		<tag k="name" v="Ausa" />
		<tag k="natural" v="water" />
		<tag k="ssr:stedsnr" v="243440" />
	</node>
	<node lat="58.9958166686217" lon="8.64073056361566" id="-22772">
		<tag k="name" v="Lonvatn" />
		<tag k="natural" v="water" />
		<tag k="ssr:stedsnr" v="244280" />
	</node>
	<node lat="58.993550003608405" lon="8.536694444670763" id="-22773">
		<tag k="alt_name" v="Trytetjørn" />
		<tag k="name" v="Trytetjønn" />
		<tag k="natural" v="water" />
		<tag k="ssr:stedsnr" v="244286" />
	</node>
	<node lat="58.9979249989776" lon="8.68227500644783" id="-22775">
		<tag k="name" v="Berghyl" />
		<tag k="natural" v="water" />
		<tag k="ssr:stedsnr" v="244291" />
	</node>
	<node lat="59.075911126256294" lon="8.639796785780746" id="-22778">
		<tag k="alt_name" v="Steintjørn" />
		<tag k="name" v="Steintjønn" />
		<tag k="natural" v="water" />
		<tag k="ssr:stedsnr" v="244609" />
	</node>
	<node lat="59.06191944852959" lon="8.627941666641831" id="-22779">
		<tag k="alt_name" v="Tjørnstranda" />
		<tag k="name" v="Tjønnstrånda" />
		<tag k="natural" v="water" />
		<tag k="ssr:stedsnr" v="244625" />
	</node>
	<node lat="59.085991665675174" lon="8.502841661809898" id="-22780">
		<tag k="name" v="Ljosnesodden" />
		<tag k="natural" v="cape" />
		<tag k="ssr:stedsnr" v="244633" />
	</node>
	<node lat="59.11802222104738" lon="8.477775000729102" id="-22781">
		<tag k="alt_name" v="Vikodden" />
		<tag k="name" v="Odden" />
		<tag k="natural" v="cape" />
		<tag k="ssr:stedsnr" v="244688" />
	</node>
	<node lat="59.11925555504181" lon="8.728686114859096" id="-22782">
		<tag k="alt_name" v="Vølstadtjørni" />
		<tag k="name" v="Vølstadtjønna" />
		<tag k="natural" v="water" />
		<tag k="ssr:stedsnr" v="244695" />
	</node>
	<node lat="59.211997225515844" lon="8.63016944705667" id="-22786">
		<tag k="alt_name" v="Mjøltjørn" />
		<tag k="name" v="Mjøltjønn" />
		<tag k="natural" v="water" />
		<tag k="ssr:stedsnr" v="244887" />
	</node>
	<node lat="59.217949999193145" lon="8.488316662370288" id="-22788">
		<tag k="name" v="Lomkilen" />
		<tag k="place" v="locality" />
		<tag k="ssr:stedsnr" v="244927" />
	</node>
	<node lat="59.01050000027635" lon="8.45677500139547" id="-22789">
		<tag k="alt_name" v="Fjellstøylvatn" />
		<tag k="name" v="Fjellstølvatnet" />
		<tag k="natural" v="water" />
		<tag k="ssr:stedsnr" v="244985" />
		<tag k="water" v="lake" />
	</node>
	<node lat="59.10175000303473" lon="8.604397225817051" id="-22790">
		<tag k="alt_name" v="Kitletjørnane" />
		<tag k="name" v="Kitletjønnane" />
		<tag k="natural" v="water" />
		<tag k="ssr:stedsnr" v="245621" />
	</node>
	<node lat="59.20795833226996" lon="8.649669447980175" id="-22792">
		<tag k="alt_name" v="Krisbuløken" />
		<tag k="name" v="Kressbuløken" />
		<tag k="place" v="locality" />
		<tag k="ssr:stedsnr" v="245882" />
	</node>
	<node lat="59.22784444339485" lon="8.496586119674497" id="-22793">
		<tag k="name" v="Sandnesodden" />
		<tag k="natural" v="cape" />
		<tag k="ssr:stedsnr" v="457567" />
	</node>
	<node lat="59.20414721801871" lon="8.502777772985704" id="-22794">
		<tag k="name" v="Vormvik" />
		<tag k="natural" v="bay" />
		<tag k="ssr:stedsnr" v="457432" />
	</node>
	<node lat="59.088322217826246" lon="8.499652780178689" id="-22796">
		<tag k="name" v="Vidrik" />
		<tag k="place" v="island" />
		<tag k="ssr:stedsnr" v="457538" />
	</node>
	<node lat="59.22264444423781" lon="8.550349997643927" id="-22799">
		<tag k="name" v="Svarttjønn" />
		<tag k="natural" v="water" />
		<tag k="ssr:stedsnr" v="457585" />
	</node>
	<node lat="59.224377781696674" lon="8.599744445956468" id="-22801">
		<tag k="name" v="Tarjeistjønn" />
		<tag k="natural" v="water" />
		<tag k="ssr:stedsnr" v="457900" />
	</node>
	<node lat="58.96333889199563" lon="8.578105562437512" id="-22804">
		<tag k="name" v="Klovfjellslåtta" />
		<tag k="natural" v="bay" />
		<tag k="ssr:stedsnr" v="458149" />
	</node>
	<node lat="58.9687555551768" lon="8.517188888075172" id="-22808">
		<tag k="name" v="Trytetjønn" />
		<tag k="natural" v="water" />
		<tag k="ssr:stedsnr" v="458542" />
	</node>
	<node lat="58.959613893319776" lon="8.53861666171401" id="-22809">
		<tag k="name" v="Klubbestatjønna" />
		<tag k="natural" v="water" />
		<tag k="ssr:stedsnr" v="458552" />
	</node>
	<node lat="59.00806389266963" lon="8.611641663824821" id="-22823">
		<tag k="name" v="Makkebekk" />
		<tag k="ssr:stedsnr" v="459239" />
		<tag k="waterway" v="stream" />
	</node>
	<node lat="58.906416667855176" lon="8.498755556873235" id="-22825">
		<tag k="name" v="Maurtjønn" />
		<tag k="natural" v="water" />
		<tag k="ssr:stedsnr" v="459339" />
	</node>
	<node lat="59.20388611294413" lon="8.495758329776075" id="-22828">
		<tag k="name" v="Båthusbukta" />
		<tag k="natural" v="bay" />
		<tag k="ssr:stedsnr" v="275419" />
	</node>
	<node lat="59.14395000311639" lon="8.520449996581327" id="-22829">
		<tag k="name" v="Århusåna" />
		<tag k="ssr:stedsnr" v="275490" />
		<tag k="waterway" v="river" />
	</node>
	<node lat="59.189100001249855" lon="8.574422226961808" id="-22834">
		<tag k="name" v="Syltjønn" />
		<tag k="natural" v="water" />
		<tag k="ssr:stedsnr" v="275578" />
	</node>
	<node lat="59.21989444752855" lon="8.536152775616722" id="-22835">
		<tag k="name" v="Fjellstøylbekken" />
		<tag k="ssr:stedsnr" v="275579" />
		<tag k="waterway" v="stream" />
	</node>
	<node lat="59.21639444062829" lon="8.545224991570935" id="-22836">
		<tag k="name" v="Sauhyl" />
		<tag k="natural" v="water" />
		<tag k="ssr:stedsnr" v="275585" />
		<tag k="water" v="pond" />
	</node>
	<node lat="59.008861111427166" lon="8.586186109236367" id="-22843">
		<tag k="name" v="Lona" />
		<tag k="natural" v="water" />
		<tag k="ssr:stedsnr" v="276824" />
		<tag k="water" v="lake" />
	</node>
	<node lat="58.98723611223295" lon="8.627475003665758" id="-22856">
		<tag k="name" v="Presthylåna" />
		<tag k="ssr:stedsnr" v="278181" />
		<tag k="waterway" v="river" />
	</node>
	<node lat="58.97976111532368" lon="8.649141672837104" id="-22862">
		<tag k="name" v="Grotåna" />
		<tag k="ssr:stedsnr" v="278768" />
		<tag k="waterway" v="river" />
	</node>
	<node lat="58.94648055997548" lon="8.716588891459192" id="-22873">
		<tag k="name" v="Løytestjønna" />
		<tag k="natural" v="water" />
		<tag k="ssr:stedsnr" v="460537" />
	</node>
	<node lat="58.88770278176821" lon="8.711436119298448" id="-22878">
		<tag k="name" v="Baldruptjønna" />
		<tag k="natural" v="water" />
		<tag k="ssr:stedsnr" v="460837" />
	</node>
	<node lat="58.905288887448755" lon="8.63936666459738" id="-22881">
		<tag k="name" v="Sagtjønna" />
		<tag k="natural" v="water" />
		<tag k="ssr:stedsnr" v="460857" />
	</node>
	<node lat="58.89025277737804" lon="8.779622223681287" id="-22889">
		<tag k="name" v="Nutbekken" />
		<tag k="ssr:stedsnr" v="461700" />
		<tag k="waterway" v="stream" />
	</node>
	<node lat="59.091936112393036" lon="8.352233330842727" id="-22899">
		<tag k="name" v="Lisle Gråstakktjønna" />
		<tag k="natural" v="water" />
		<tag k="ssr:stedsnr" v="290410" />
	</node>
	<node lat="59.122961110148374" lon="8.480049996127518" id="-22902">
		<tag k="name" v="Smeitsundøya" />
		<tag k="place" v="island" />
		<tag k="ssr:stedsnr" v="290333" />
	</node>
	<node lat="59.15818055697777" lon="8.358911105612322" id="-22903">
		<tag k="name" v="Lensmannsbekken" />
		<tag k="ssr:stedsnr" v="290525" />
		<tag k="waterway" v="stream" />
	</node>
	<node lat="59.15076111502027" lon="8.348816666212945" id="-22905">
		<tag k="name" v="Vehusbekken" />
		<tag k="ssr:stedsnr" v="290528" />
		<tag k="waterway" v="stream" />
	</node>
	<node lat="59.171319440434964" lon="8.63762499991006" id="-22906">
		<tag k="name" v="Krokbekk" />
		<tag k="ssr:stedsnr" v="290529" />
		<tag k="waterway" v="stream" />
	</node>
	<node lat="59.14938611293713" lon="8.377125008254023" id="-22907">
		<tag k="name" v="Holmen" />
		<tag k="place" v="islet" />
		<tag k="ssr:stedsnr" v="290531" />
	</node>
	<node lat="58.92348055775126" lon="8.351941662522028" id="-22909">
		<tag k="name" v="Gamle Telleivsbekk" />
		<tag k="ssr:stedsnr" v="290996" />
		<tag k="waterway" v="stream" />
	</node>
	<node lat="58.94054722057836" lon="8.733936103980461" id="-22910">
		<tag k="name" v="Bjørkkjerra" />
		<tag k="ssr:stedsnr" v="461921" />
		<tag k="waterway" v="river" />
	</node>
	<node lat="58.9482694469829" lon="8.583477776479429" id="-22915">
		<tag k="name" v="Leirkilen" />
		<tag k="natural" v="bay" />
		<tag k="ssr:stedsnr" v="304304" />
	</node>
	<node lat="58.95788055894612" lon="8.76038889482838" id="-22917">
		<tag k="name" v="Langvatn" />
		<tag k="natural" v="water" />
		<tag k="ssr:stedsnr" v="304314" />
	</node>
	<node lat="58.95495277958012" lon="8.345933331913018" id="-22924">
		<tag k="alt_name" v="Hønetjønn" />
		<tag k="name" v="Hønevatn" />
		<tag k="natural" v="water" />
		<tag k="ssr:stedsnr" v="304908" />
		<tag k="water" v="lake" />
	</node>
	<node lat="58.9638916654209" lon="8.413808333941887" id="-22925">
		<tag k="alt_name" v="Trolltjørnbekken" />
		<tag k="name" v="Trolltjønnbekken" />
		<tag k="ssr:stedsnr" v="304917" />
		<tag k="waterway" v="stream" />
	</node>
	<node lat="58.98643055377635" lon="8.350783331246632" id="-22926">
		<tag k="name" v="Stemvatn" />
		<tag k="natural" v="water" />
		<tag k="ssr:stedsnr" v="304869" />
		<tag k="water" v="lake" />
	</node>
	<node lat="59.017399997634435" lon="8.657280547667932" id="-22928">
		<tag k="alt_name" v="Lomstjørn" />
		<tag k="name" v="Lomstjønn" />
		<tag k="natural" v="water" />
		<tag k="ssr:stedsnr" v="305464" />
	</node>
	<node lat="59.08206110920857" lon="8.643569437838828" id="-22929">
		<tag k="name" v="Grandalstjørnane" />
		<tag k="natural" v="water" />
		<tag k="ssr:stedsnr" v="305664" />
	</node>
	<node lat="59.165480559252345" lon="8.563627778490963" id="-22931">
		<tag k="name" v="Sundhylåni" />
		<tag k="place" v="locality" />
		<tag k="ssr:stedsnr" v="305805" />
	</node>
	<node lat="59.183047218887296" lon="8.588294442217816" id="-22932">
		<tag k="alt_name" v="Hegnvatnet" />
		<tag k="name" v="Hegnvatn" />
		<tag k="natural" v="water" />
		<tag k="ssr:stedsnr" v="305823" />
	</node>
	<node lat="58.952302779758156" lon="8.436872224745505" id="-22941">
		<tag k="name" v="Halsteinstryket" />
		<tag k="ssr:stedsnr" v="471134" />
		<tag k="waterway" v="rapids" />
	</node>
	<node lat="59.02213611546381" lon="8.48575554724061" id="-22942">
		<tag k="name" v="Ånundsbubukta" />
		<tag k="natural" v="bay" />
		<tag k="ssr:stedsnr" v="471143" />
	</node>
	<node lat="59.09398332957508" lon="8.49295555226737" id="-22948">
		<tag k="name" v="Holmanland" />
		<tag k="natural" v="beach" />
		<tag k="ssr:stedsnr" v="471330" />
	</node>
	<node lat="59.15702777811664" lon="8.352741666061107" id="-22960">
		<tag k="name" v="Linnerfossen" />
		<tag k="natural" v="waterfall" />
		<tag k="ssr:stedsnr" v="471619" />
	</node>
	<node lat="59.19970555851521" lon="8.510375007899968" id="-22962">
		<tag k="name" v="Dølhusbukta" />
		<tag k="natural" v="bay" />
		<tag k="ssr:stedsnr" v="336440" />
	</node>
	<node lat="59.19599999786119" lon="8.551027786401463" id="-22963">
		<tag k="name" v="Sauetjønn" />
		<tag k="natural" v="water" />
		<tag k="ssr:stedsnr" v="336455" />
	</node>
	<node lat="59.113547223430906" lon="8.589461109532838" id="-22965">
		<tag k="name" v="Rapstøyltjønna" />
		<tag k="natural" v="water" />
		<tag k="ssr:stedsnr" v="336460" />
	</node>
	<node lat="59.24026388891903" lon="8.511536109996996" id="-22969">
		<tag k="name" v="Låven" />
		<tag k="natural" v="bay" />
		<tag k="ssr:stedsnr" v="336696" />
	</node>
	<node lat="58.99620277936008" lon="8.689225003275405" id="-22971">
		<tag k="name" v="Molen" />
		<tag k="place" v="locality" />
		<tag k="ssr:stedsnr" v="337058" />
	</node>
	<node lat="58.94726944237185" lon="8.512175006507373" id="-22980">
		<tag k="name" v="Motjønn" />
		<tag k="natural" v="water" />
		<tag k="ssr:stedsnr" v="337809" />
	</node>
	<node lat="59.18059722242539" lon="8.437002778477908" id="-22982">
		<tag k="name" v="Siljarodden" />
		<tag k="natural" v="cape" />
		<tag k="ssr:stedsnr" v="471900" />
	</node>
	<node lat="58.95307221893153" lon="8.68210833929124" id="-22990">
		<tag k="name" v="Rossåna" />
		<tag k="ssr:stedsnr" v="339021" />
		<tag k="waterway" v="river" />
	</node>
	<node lat="58.902338889051386" lon="8.683466672527512" id="-22994">
		<tag k="name" v="Fossbrekk" />
		<tag k="natural" v="waterfall" />
		<tag k="ssr:stedsnr" v="339119" />
	</node>
	<node lat="58.89887778110821" lon="8.745594442027343" id="-22999">
		<tag k="name" v="Kaldtjønna" />
		<tag k="natural" v="water" />
		<tag k="ssr:stedsnr" v="339405" />
	</node>
	<node lat="59.261619440600285" lon="8.362783341434481" id="-23002">
		<tag k="name" v="Raudhelleåi" />
		<tag k="ssr:stedsnr" v="472153" />
		<tag k="waterway" v="river" />
	</node>
	<node lat="58.90853333112908" lon="8.62188056305986" id="-23006">
		<tag k="name" v="Stokksvatn" />
		<tag k="natural" v="water" />
		<tag k="ssr:stedsnr" v="339311" />
		<tag k="water" v="lake" />
	</node>
	<node lat="58.90786666711012" lon="8.761183334685505" id="-23015">
		<tag k="name" v="Stuttjønn" />
		<tag k="natural" v="water" />
		<tag k="ssr:stedsnr" v="339998" />
	</node>
	<node lat="59.19758333388118" lon="8.452358335577845" id="-23021">
		<tag k="name" v="Svarttjønnbekken" />
		<tag k="ssr:stedsnr" v="472676" />
		<tag k="waterway" v="stream" />
	</node>
	<node lat="58.961169441657624" lon="8.331811104700181" id="-23031">
		<tag k="name" v="Framnes" />
		<tag k="natural" v="cape" />
		<tag k="ssr:stedsnr" v="348860" />
	</node>
	<node lat="58.95784444356674" lon="8.467936112663812" id="-23033">
		<tag k="name" v="Torkilsteinen" />
		<tag k="place" v="locality" />
		<tag k="ssr:stedsnr" v="349003" />
	</node>
	<node lat="58.985027780838486" lon="8.480397228216503" id="-23036">
		<tag k="name" v="Fiskåheitjønna" />
		<tag k="natural" v="water" />
		<tag k="ssr:stedsnr" v="349069" />
	</node>
	<node lat="58.9577249979759" lon="8.457333332529624" id="-23039">
		<tag k="name" v="Kvennhusbukta" />
		<tag k="natural" v="bay" />
		<tag k="ssr:stedsnr" v="349267" />
	</node>
	<node lat="59.03190277593519" lon="8.689416665153793" id="-23041">
		<tag k="name" v="Mjåvassåna" />
		<tag k="ssr:stedsnr" v="350204" />
		<tag k="waterway" v="stream" />
	</node>
	<node lat="59.234413885030925" lon="8.401169443581711" id="-23042">
		<tag k="name" v="Fisketjønnløken" />
		<tag k="natural" v="water" />
		<tag k="ssr:stedsnr" v="350120" />
	</node>
	<node lat="58.97996944097878" lon="8.3333277737533" id="-23053">
		<tag k="name" v="Fiskoddane" />
		<tag k="natural" v="cape" />
		<tag k="ssr:stedsnr" v="350935" />
	</node>
	<node lat="59.185502781634135" lon="8.430819448482199" id="-23059">
		<tag k="name" v="Tjørhjellodden" />
		<tag k="natural" v="cape" />
		<tag k="ssr:stedsnr" v="350873" />
	</node>
	<node lat="59.028902775863365" lon="8.609880564091517" id="-23062">
		<tag k="name" v="Svabekken" />
		<tag k="ssr:stedsnr" v="351053" />
		<tag k="waterway" v="stream" />
	</node>
	<node lat="58.86610277639636" lon="8.748933339330888" id="-23066">
		<tag k="name" v="Ljosvatn" />
		<tag k="natural" v="water" />
		<tag k="ssr:stedsnr" v="364746" />
		<tag k="water" v="lake" />
	</node>
	<node lat="59.11414166979138" lon="8.325580563305417" id="-23067">
		<tag k="alt_name" v="Krokbekk" />
		<tag k="name" v="Krokbekken" />
		<tag k="ssr:stedsnr" v="365142" />
		<tag k="waterway" v="stream" />
	</node>
	<node lat="59.07910277381338" lon="8.629275005595389" id="-23078">
		<tag k="alt_name" v="Heitjørnane" />
		<tag k="name" v="Heitjønnane" />
		<tag k="natural" v="water" />
		<tag k="ssr:stedsnr" v="365637" />
	</node>
	<node lat="59.16260555813461" lon="8.566305558430475" id="-23081">
		<tag k="name" v="Dampedalsåni" />
		<tag k="place" v="locality" />
		<tag k="ssr:stedsnr" v="365798" />
	</node>
	<node lat="58.9946305551056" lon="8.450338897083094" id="-23082">
		<tag k="alt_name" v="Gloppevatn" />
		<tag k="name" v="Gloppevatnet" />
		<tag k="natural" v="water" />
		<tag k="ssr:stedsnr" v="365911" />
		<tag k="water" v="lake" />
	</node>
	<node lat="59.05628055343555" lon="8.507019444466149" id="-23083">
		<tag k="name" v="Vikodden" />
		<tag k="natural" v="cape" />
		<tag k="ssr:stedsnr" v="366594" />
	</node>
	<node lat="59.11240832982476" lon="8.701130552359333" id="-23085">
		<tag k="alt_name" v="Hesthomtjørnane" />
		<tag k="name" v="Hesthomtjønnane" />
		<tag k="natural" v="water" />
		<tag k="ssr:stedsnr" v="366691" />
	</node>
	<node lat="59.138336113547936" lon="8.540536115268893" id="-23089">
		<tag k="name" v="Åbogåna" />
		<tag k="ssr:stedsnr" v="396400" />
		<tag k="waterway" v="river" />
	</node>
	<node lat="59.19808611357337" lon="8.561730552298542" id="-23093">
		<tag k="name" v="Bjønntjønnbekken" />
		<tag k="ssr:stedsnr" v="396592" />
		<tag k="waterway" v="stream" />
	</node>
	<node lat="59.12279444265645" lon="8.549686119004814" id="-23094">
		<tag k="name" v="Askilshyl" />
		<tag k="place" v="locality" />
		<tag k="ssr:stedsnr" v="396844" />
	</node>
	<node lat="58.959969441787315" lon="8.562358329360709" id="-23100">
		<tag k="name" v="Kolmila" />
		<tag k="natural" v="cape" />
		<tag k="ssr:stedsnr" v="397188" />
	</node>
	<node lat="59.060566662565606" lon="8.59345554885574" id="-23103">
		<tag k="name" v="Den lange odden" />
		<tag k="natural" v="cape" />
		<tag k="ssr:stedsnr" v="397582" />
	</node>
	<node lat="59.00141666517564" lon="8.568136117658097" id="-23107">
		<tag k="name" v="Huhylsteinen" />
		<tag k="place" v="locality" />
		<tag k="ssr:stedsnr" v="397935" />
	</node>
	<node lat="59.0517361091423" lon="8.512619437045055" id="-23111">
		<tag k="name" v="Eikhombukta" />
		<tag k="natural" v="bay" />
		<tag k="ssr:stedsnr" v="398536" />
	</node>
	<node lat="59.01211666623307" lon="8.549827774758775" id="-23116">
		<tag k="name" v="Lisleå" />
		<tag k="ssr:stedsnr" v="398990" />
		<tag k="waterway" v="river" />
	</node>
	<node lat="58.9922416664877" lon="8.541891660633226" id="-23117">
		<tag k="name" v="Fiskåna" />
		<tag k="ssr:stedsnr" v="398993" />
		<tag k="waterway" v="river" />
	</node>
	<node lat="58.879277774755415" lon="8.733497218836417" id="-23126">
		<tag k="name" v="Meumsundet" />
		<tag k="natural" v="strait" />
		<tag k="ssr:stedsnr" v="399292" />
	</node>
	<node lat="58.968233334588085" lon="8.64528056083162" id="-23128">
		<tag k="name" v="Nybutjønn" />
		<tag k="natural" v="water" />
		<tag k="ssr:stedsnr" v="399629" />
	</node>
	<node lat="58.989413891445025" lon="8.678244443778995" id="-23130">
		<tag k="name" v="Teilagvasstjønna" />
		<tag k="natural" v="water" />
		<tag k="ssr:stedsnr" v="399984" />
	</node>
	<node lat="59.11658333521231" lon="8.42815000560688" id="-23136">
		<tag k="alt_name" v="Rubbutjørni" />
		<tag k="name" v="Rubbutjønna" />
		<tag k="natural" v="water" />
		<tag k="ssr:stedsnr" v="486159" />
	</node>
	<node lat="59.10891389287455" lon="8.315030561340606" id="-23138">
		<tag k="alt_name" v="Hågstøylvatn" />
		<tag k="name" v="Hågstølvatnet" />
		<tag k="natural" v="water" />
		<tag k="ssr:stedsnr" v="486173" />
		<tag k="water" v="lake" />
	</node>
	<node lat="59.071736110122465" lon="8.399550003515207" id="-23139">
		<tag k="alt_name" v="Myrbutjørnane" />
		<tag k="name" v="Myrbutjønna" />
		<tag k="natural" v="water" />
		<tag k="ssr:stedsnr" v="486175" />
	</node>
	<node lat="58.96242500217352" lon="8.567888893653416" id="-23141">
		<tag k="name" v="Kjørull" />
		<tag k="natural" v="water" />
		<tag k="ssr:stedsnr" v="486358" />
		<tag k="water" v="lake" />
	</node>
	<node lat="58.9576388875185" lon="8.558527770730565" id="-23142">
		<tag k="name" v="Øyna" />
		<tag k="place" v="island" />
		<tag k="ssr:stedsnr" v="486364" />
	</node>
	<node lat="58.964308331566954" lon="8.645808327132093" id="-23143">
		<tag k="alt_name" v="Annestjørn" />
		<tag k="name" v="Annestjønn" />
		<tag k="natural" v="water" />
		<tag k="ssr:stedsnr" v="486366" />
	</node>
	<node lat="58.99156110926492" lon="8.685950001549527" id="-23146">
		<tag k="name" v="Teilagsvatn" />
		<tag k="natural" v="water" />
		<tag k="ssr:stedsnr" v="486288" />
	</node>
	<node lat="58.96078888833953" lon="8.775130550519151" id="-23148">
		<tag k="name" v="Nordtjørna" />
		<tag k="natural" v="water" />
		<tag k="ssr:stedsnr" v="486349" />
	</node>
	<node lat="58.88689999799869" lon="8.681102779475943" id="-23150">
		<tag k="name" v="Vestretjørn" />
		<tag k="natural" v="water" />
		<tag k="ssr:stedsnr" v="486464" />
	</node>
	<node lat="58.90434166728022" lon="8.634733324968773" id="-23153">
		<tag k="name" v="Sagbukta" />
		<tag k="natural" v="bay" />
		<tag k="ssr:stedsnr" v="486487" />
	</node>
	<node lat="58.97561944039258" lon="8.804447216619751" id="-23156">
		<tag k="name" v="Uvdalsvatn" />
		<tag k="natural" v="water" />
		<tag k="ssr:stedsnr" v="486384" />
	</node>
	<node lat="58.917077779470894" lon="8.473449994783444" id="-23158">
		<tag k="alt_name" v="Svort-Lauvhomtjørn" />
		<tag k="name" v="Svart Lauvhomtjønna" />
		<tag k="natural" v="water" />
		<tag k="ssr:stedsnr" v="486425" />
	</node>
	<node lat="58.932538892433485" lon="8.522055558813763" id="-23160">
		<tag k="alt_name" v="Trytetjørn" />
		<tag k="name" v="Trytetjønn" />
		<tag k="natural" v="water" />
		<tag k="ssr:stedsnr" v="486443" />
	</node>
	<node lat="59.092111110708586" lon="8.56410833116556" id="-23161">
		<tag k="alt_name" v="Steintjørn" />
		<tag k="name" v="Steinbrutjønn" />
		<tag k="natural" v="water" />
		<tag k="ssr:stedsnr" v="486669" />
	</node>
	<node lat="58.841616667672845" lon="8.766700000443059" id="-23163">
		<tag k="name" v="Blekkvatn" />
		<tag k="natural" v="water" />
		<tag k="ssr:stedsnr" v="486676" />
	</node>
	<node lat="58.86185833410286" lon="8.71264166099192" id="-23164">
		<tag k="name" v="Orrevatn" />
		<tag k="natural" v="water" />
		<tag k="ssr:stedsnr" v="486738" />
		<tag k="water" v="lake" />
	</node>
	<node lat="58.98480277539099" lon="8.449661104301985" id="-23165">
		<tag k="alt_name" v="Kortjørnane" />
		<tag k="name" v="Kortjønnane" />
		<tag k="natural" v="water" />
		<tag k="ssr:stedsnr" v="486881" />
	</node>
	<node lat="58.978194441568384" lon="8.383869440411384" id="-23167">
		<tag k="alt_name" v="Siklebekk" />
		<tag k="name" v="Siklebekken" />
		<tag k="ssr:stedsnr" v="486890" />
		<tag k="waterway" v="stream" />
	</node>
	<node lat="59.1338027741501" lon="8.394005557938689" id="-23169">
		<tag k="name" v="Tjønnstøyltjønna" />
		<tag k="natural" v="water" />
		<tag k="ssr:stedsnr" v="409539" />
	</node>
	<node lat="59.2398611143458" lon="8.56443056224946" id="-23176">
		<tag k="alt_name" v="Øyfjellormetjørni" />
		<tag k="name" v="Ormetjønn" />
		<tag k="natural" v="water" />
		<tag k="ssr:stedsnr" v="486943" />
	</node>
	<node lat="59.263461109798065" lon="8.431330550207779" id="-23182">
		<tag k="name" v="Bergbekken" />
		<tag k="ssr:stedsnr" v="487194" />
		<tag k="waterway" v="stream" />
	</node>
	<node lat="59.02999444507463" lon="8.699361112243468" id="-23190">
		<tag k="name" v="Reinvassløkjene" />
		<tag k="natural" v="water" />
		<tag k="ssr:stedsnr" v="411212" />
		<tag k="water" v="lake" />
	</node>
	<node lat="59.09706666739803" lon="8.369572222604704" id="-23197">
		<tag k="name" v="Børshaktjønna" />
		<tag k="natural" v="water" />
		<tag k="ssr:stedsnr" v="411390" />
	</node>
	<node lat="59.13760555750562" lon="8.631422219142163" id="-23210">
		<tag k="name" v="Raundalskilen" />
		<tag k="natural" v="bay" />
		<tag k="ssr:stedsnr" v="412313" />
	</node>
	<node lat="59.021136115014116" lon="8.692355550233978" id="-23211">
		<tag k="alt_name" v="Kråkhomtjørna, øvre;Øvre Kråkhomtjørna" />
		<tag k="name" v="Øvre Kråkhomtjønn" />
		<tag k="natural" v="water" />
		<tag k="ssr:stedsnr" v="487467" />
	</node>
	<node lat="59.06984722155133" lon="8.582788882910323" id="-23219">
		<tag k="alt_name" v="Øyvatnet, heimre;Heimre Øyvatn" />
		<tag k="name" v="Heimre Øyvatnet" />
		<tag k="natural" v="water" />
		<tag k="ssr:stedsnr" v="487664" />
	</node>
	<node lat="59.128152779693266" lon="8.588427782646987" id="-23220">
		<tag k="alt_name" v="Sigridbuvatnet" />
		<tag k="name" v="Sigridbutjønna" />
		<tag k="natural" v="water" />
		<tag k="ssr:stedsnr" v="487747" />
	</node>
	<node lat="59.17662500064552" lon="8.47341389063094" id="-23225">
		<tag k="alt_name" v="Vetterei" />
		<tag k="name" v="Vetreeidet" />
		<tag k="place" v="locality" />
		<tag k="ssr:stedsnr" v="487837" />
	</node>
	<node lat="59.189638886153894" lon="8.604061113905761" id="-23226">
		<tag k="alt_name" v="Skåltjørn" />
		<tag k="name" v="Skolstjønn" />
		<tag k="natural" v="water" />
		<tag k="ssr:stedsnr" v="487840" />
	</node>
	<node lat="58.98691788743554" lon="8.679233238758194" id="-23232">
		<tag k="alt_name" v="Øytjørnane" />
		<tag k="name" v="Øytjønnane" />
		<tag k="natural" v="water" />
		<tag k="ssr:stedsnr" v="425260" />
	</node>
	<node lat="58.93769166980101" lon="8.667772214738429" id="-23233">
		<tag k="alt_name" v="Stemtjørn, store" />
		<tag k="name" v="Store Stemtjønn" />
		<tag k="natural" v="water" />
		<tag k="ssr:stedsnr" v="425403" />
	</node>
	<node lat="58.89364166851825" lon="8.671388891612139" id="-23235">
		<tag k="alt_name" v="Stuttjørn" />
		<tag k="name" v="Stuttjønn" />
		<tag k="natural" v="water" />
		<tag k="ssr:stedsnr" v="425454" />
	</node>
	<node lat="58.963866664638125" lon="8.713727784644279" id="-23240">
		<tag k="name" v="Ormvatn" />
		<tag k="natural" v="water" />
		<tag k="ssr:stedsnr" v="426332" />
		<tag k="water" v="lake" />
	</node>
	<node lat="58.96900833721783" lon="8.591286108568541" id="-23242">
		<tag k="alt_name" v="Svartvatn" />
		<tag k="name" v="Svortvatn" />
		<tag k="natural" v="water" />
		<tag k="ssr:stedsnr" v="426339" />
	</node>
	<node lat="59.036036115194705" lon="8.494972217117164" id="-23245">
		<tag k="name" v="Røyrodden" />
		<tag k="natural" v="cape" />
		<tag k="ssr:stedsnr" v="426494" />
	</node>
	<node lat="59.026711106680224" lon="8.577061115609288" id="-23247">
		<tag k="alt_name" v="Standartjørn" />
		<tag k="name" v="Standartjønn" />
		<tag k="natural" v="water" />
		<tag k="ssr:stedsnr" v="426505" />
	</node>
	<node lat="58.862305555727055" lon="8.780099992760052" id="-23249">
		<tag k="name" v="Trælvatn" />
		<tag k="natural" v="water" />
		<tag k="ssr:stedsnr" v="426728" />
		<tag k="water" v="lake" />
	</node>
	<node lat="59.18550833493615" lon="8.599713895357274" id="-23250">
		<tag k="alt_name" v="Leirtjørn" />
		<tag k="name" v="Leirtjønn" />
		<tag k="natural" v="water" />
		<tag k="ssr:stedsnr" v="426835" />
	</node>
	<node lat="59.20310833616003" lon="8.496261104422434" id="-23251">
		<tag k="name" v="Flesjeodden" />
		<tag k="natural" v="cape" />
		<tag k="ssr:stedsnr" v="426873" />
	</node>
	<node lat="59.16130000001413" lon="8.61936666350041" id="-23252">
		<tag k="name" v="Huvtjønn" />
		<tag k="natural" v="water" />
		<tag k="ssr:stedsnr" v="426783" />
	</node>
	<node lat="59.16528888483526" lon="8.66939722555734" id="-23253">
		<tag k="alt_name" v="Saltjørn" />
		<tag k="name" v="Saltjønna" />
		<tag k="natural" v="water" />
		<tag k="ssr:stedsnr" v="426784" />
	</node>
	<node lat="59.161700000668475" lon="8.60493333169674" id="-23254">
		<tag k="alt_name" v="Langtjørn" />
		<tag k="name" v="Langtjønn" />
		<tag k="natural" v="water" />
		<tag k="ssr:stedsnr" v="426787" />
	</node>
	<node lat="59.23275176400999" lon="8.4237059485102" id="-23256">
		<tag k="name" v="Umaketjørnane" />
		<tag k="natural" v="water" />
		<tag k="ssr:stedsnr" v="427003" />
	</node>
	<node lat="59.01033888781386" lon="8.62381388135732" id="-23257">
		<tag k="name" v="Husåhylen" />
		<tag k="place" v="locality" />
		<tag k="ssr:stedsnr" v="427493" />
	</node>
	<node lat="59.05118055509123" lon="8.46859999215947" id="-23258">
		<tag k="name" v="Naurak" />
		<tag k="natural" v="cape" />
		<tag k="ssr:stedsnr" v="427592" />
	</node>
	<node lat="59.062280552153766" lon="8.594494446085506" id="-23259">
		<tag k="alt_name" v="Heimre Hakjosvatn" />
		<tag k="name" v="Hakjorsvatnet" />
		<tag k="natural" v="water" />
		<tag k="ssr:stedsnr" v="427596" />
		<tag k="water" v="lake" />
	</node>
	<node lat="59.00026666284728" lon="8.380377776234637" id="-23261">
		<tag k="name" v="Øvre Grottjønn" />
		<tag k="natural" v="water" />
		<tag k="ssr:stedsnr" v="443040" />
	</node>
	<node lat="59.2285111107059" lon="8.522038893990002" id="-23262">
		<tag k="name" v="Dyplane" />
		<tag k="natural" v="water" />
		<tag k="ssr:stedsnr" v="457561" />
	</node>
	<node lat="58.86109166829094" lon="8.770991660067773" id="-23283">
		<tag k="name" v="Trælvatn" />
		<tag k="natural" v="water" />
		<tag k="ssr:stedsnr" v="460358" />
		<tag k="water" v="lake" />
	</node>
	<node lat="58.917911115554155" lon="8.794341672246663" id="-23289">
		<tag k="name" v="Hundetjønn" />
		<tag k="natural" v="water" />
		<tag k="ssr:stedsnr" v="461122" />
	</node>
	<node lat="58.945844441693886" lon="8.357388896998161" id="-23299">
		<tag k="name" v="Kotsahylen" />
		<tag k="place" v="locality" />
		<tag k="ssr:stedsnr" v="470963" />
	</node>
	<node lat="58.943038891992856" lon="8.337883325544475" id="-23300">
		<tag k="name" v="Hurvehylen" />
		<tag k="place" v="locality" />
		<tag k="ssr:stedsnr" v="470966" />
	</node>
	<node lat="59.09097221994582" lon="8.494794444952595" id="-23304">
		<tag k="name" v="Kåvsanden" />
		<tag k="natural" v="beach" />
		<tag k="ssr:stedsnr" v="471312" />
	</node>
	<node lat="59.209725001902264" lon="8.489877775197645" id="-23314">
		<tag k="name" v="Flesjeoddane" />
		<tag k="natural" v="cape" />
		<tag k="ssr:stedsnr" v="472202" />
	</node>
	<node lat="59.24928889013521" lon="8.456799999755994" id="-23317">
		<tag k="name" v="Horgevikosen" />
		<tag k="natural" v="bay" />
		<tag k="ssr:stedsnr" v="472221" />
	</node>
	<node lat="58.89162499910764" lon="8.697197228692005" id="-23326">
		<tag k="alt_name" v="Haugstøyltjørna" />
		<tag k="name" v="Haugstøyltjønna" />
		<tag k="natural" v="water" />
		<tag k="ssr:stedsnr" v="485405" />
	</node>
	<node lat="59.07743610691924" lon="8.451141663558493" id="-23327">
		<tag k="name" v="Flostadbekken" />
		<tag k="ssr:stedsnr" v="486202" />
		<tag k="waterway" v="stream" />
	</node>
	<node lat="59.12024166265254" lon="8.321969438819794" id="-23328">
		<tag k="alt_name" v="Feittjørnane" />
		<tag k="name" v="Feittjønnane" />
		<tag k="natural" v="water" />
		<tag k="ssr:stedsnr" v="486109" />
	</node>
	<node lat="58.93337777393191" lon="8.697050007076964" id="-23332">
		<tag k="alt_name" v="Ormtjørn" />
		<tag k="name" v="Ormtjønn" />
		<tag k="natural" v="water" />
		<tag k="ssr:stedsnr" v="486413" />
	</node>
	<node lat="58.92846389016743" lon="8.578666673886762" id="-23333">
		<tag k="name" v="Stemmevatn" />
		<tag k="natural" v="water" />
		<tag k="ssr:stedsnr" v="486417" />
	</node>
	<node lat="59.047574997880375" lon="8.633833338383841" id="-23338">
		<tag k="alt_name" v="Skogbutjørna" />
		<tag k="name" v="Skogbutjønna" />
		<tag k="natural" v="water" />
		<tag k="ssr:stedsnr" v="486558" />
	</node>
	<node lat="58.9694027766158" lon="8.328269448998935" id="-23339">
		<tag k="name" v="Øyni" />
		<tag k="place" v="islet" />
		<tag k="ssr:stedsnr" v="486922" />
	</node>
	<node lat="58.93423888506167" lon="8.449230557175634" id="-23340">
		<tag k="name" v="Stumpemyrtjørn" />
		<tag k="natural" v="water" />
		<tag k="ssr:stedsnr" v="486957" />
	</node>
	<node lat="59.19621110866253" lon="8.638102771310994" id="-23342">
		<tag k="alt_name" v="Fyslitjørni" />
		<tag k="name" v="Fyslitjønn" />
		<tag k="natural" v="water" />
		<tag k="ssr:stedsnr" v="486854" />
	</node>
	<node lat="59.2052305538171" lon="8.558727776638833" id="-23343">
		<tag k="name" v="Halmevassbekken" />
		<tag k="ssr:stedsnr" v="486857" />
		<tag k="waterway" v="stream" />
	</node>
	<node lat="59.160975002512686" lon="8.30258888013104" id="-23344">
		<tag k="alt_name" v="Russvatn" />
		<tag k="name" v="Russvatnet" />
		<tag k="natural" v="water" />
		<tag k="ssr:stedsnr" v="487104" />
		<tag k="water" v="lake" />
	</node>
	<node lat="59.175338885084805" lon="8.337694445120034" id="-23345">
		<tag k="alt_name" v="Rosstjørn" />
		<tag k="name" v="Rosstjønn" />
		<tag k="natural" v="water" />
		<tag k="ssr:stedsnr" v="487107" />
	</node>
	<node lat="59.087634723449916" lon="8.389947598910416" id="-23349">
		<tag k="name" v="Mjådalstjørnane" />
		<tag k="natural" v="water" />
		<tag k="ssr:stedsnr" v="487164" />
	</node>
	<node lat="59.027905558949996" lon="8.656583325217738" id="-23351">
		<tag k="alt_name" v="Bjørntjørnhylen" />
		<tag k="name" v="Bjønntjønnhylen" />
		<tag k="place" v="locality" />
		<tag k="ssr:stedsnr" v="487557" />
	</node>
	<node lat="59.120324996737935" lon="8.4732111039562" id="-23353">
		<tag k="alt_name" v="Viktjørni" />
		<tag k="name" v="Viktjønna" />
		<tag k="natural" v="water" />
		<tag k="ssr:stedsnr" v="487704" />
	</node>
	<node lat="59.11629722549335" lon="8.613086117208278" id="-23354">
		<tag k="alt_name" v="Djupvatn" />
		<tag k="name" v="Djupvatnet" />
		<tag k="natural" v="water" />
		<tag k="ssr:stedsnr" v="487711" />
		<tag k="water" v="lake" />
	</node>
	<node lat="59.06828458238829" lon="8.6497477225915" id="-23357">
		<tag k="alt_name" v="Torsvatnet, austre;Torsvatn austre" />
		<tag k="name" v="Austre Torsvatnet" />
		<tag k="natural" v="water" />
		<tag k="ssr:stedsnr" v="487614" />
	</node>
	<node lat="59.09892500047179" lon="8.553105556903096" id="-23358">
		<tag k="name" v="Stemtjørn" />
		<tag k="natural" v="water" />
		<tag k="ssr:stedsnr" v="487674" />
	</node>
	<node lat="59.215322218204875" lon="8.598113883421941" id="-23360">
		<tag k="alt_name" v="Bjørndalstjørni" />
		<tag k="name" v="Bjønndalstjønn" />
		<tag k="natural" v="water" />
		<tag k="ssr:stedsnr" v="487908" />
	</node>
	<node lat="59.19254444831762" lon="8.506919448655438" id="-23362">
		<tag k="name" v="Dølhusbukti" />
		<tag k="natural" v="bay" />
		<tag k="ssr:stedsnr" v="487849" />
	</node>
	<node lat="58.99195277585035" lon="8.682838891551139" id="-23370">
		<tag k="name" v="Sundet" />
		<tag k="natural" v="strait" />
		<tag k="ssr:stedsnr" v="519067" />
	</node>
	<node lat="58.980452774428755" lon="8.509963882616312" id="-23373">
		<tag k="name" v="Møretjønn" />
		<tag k="natural" v="water" />
		<tag k="ssr:stedsnr" v="519381" />
	</node>
	<node lat="58.96376111383466" lon="8.528747217550935" id="-23376">
		<tag k="name" v="Svafoss" />
		<tag k="natural" v="waterfall" />
		<tag k="ssr:stedsnr" v="519478" />
	</node>
	<node lat="59.065111111553165" lon="8.591600003611392" id="-23377">
		<tag k="name" v="Øyvassåna" />
		<tag k="ssr:stedsnr" v="519565" />
		<tag k="waterway" v="river" />
	</node>
	<node lat="59.033827779203705" lon="8.503552777958538" id="-23379">
		<tag k="name" v="Årakodden" />
		<tag k="natural" v="cape" />
		<tag k="ssr:stedsnr" v="519861" />
	</node>
	<node lat="59.00514999718638" lon="8.58162222073487" id="-23381">
		<tag k="name" v="Bjorhyl" />
		<tag k="place" v="locality" />
		<tag k="ssr:stedsnr" v="519878" />
	</node>
	<node lat="59.018158332679164" lon="8.498277784185655" id="-23382">
		<tag k="name" v="Gauraksbukta" />
		<tag k="natural" v="bay" />
		<tag k="ssr:stedsnr" v="519969" />
	</node>
	<node lat="58.8635972201101" lon="8.755941671133332" id="-23390">
		<tag k="name" v="Lisle Ljosvatn" />
		<tag k="natural" v="water" />
		<tag k="ssr:stedsnr" v="521202" />
		<tag k="water" v="lake" />
	</node>
	<node lat="58.95820832989232" lon="8.69327500322064" id="-23395">
		<tag k="name" v="Lonine" />
		<tag k="natural" v="water" />
		<tag k="ssr:stedsnr" v="521473" />
		<tag k="water" v="lake" />
	</node>
	<node lat="58.896505552010694" lon="8.635261109042093" id="-23398">
		<tag k="name" v="Fiskebekkbukta" />
		<tag k="natural" v="bay" />
		<tag k="ssr:stedsnr" v="521824" />
	</node>
	<node lat="58.96925833622842" lon="8.33278889265756" id="-23408">
		<tag k="name" v="Asjersia" />
		<tag k="place" v="locality" />
		<tag k="ssr:stedsnr" v="530886" />
	</node>
	<node lat="59.21481944683931" lon="8.340530563326553" id="-23418">
		<tag k="name" v="Stråndåna" />
		<tag k="ssr:stedsnr" v="532073" />
		<tag k="waterway" v="river" />
	</node>
	<node lat="59.19771666574263" lon="8.382850003801632" id="-23426">
		<tag k="name" v="Myrbubukta" />
		<tag k="natural" v="bay" />
		<tag k="ssr:stedsnr" v="532397" />
	</node>
	<node lat="59.12001944757722" lon="8.316150002517128" id="-23434">
		<tag k="name" v="Osvassosen" />
		<tag k="natural" v="bay" />
		<tag k="ssr:stedsnr" v="532769" />
	</node>
	<node lat="59.17648055557768" lon="8.43229444777961" id="-23442">
		<tag k="name" v="Dei lange hylane" />
		<tag k="natural" v="water" />
		<tag k="ssr:stedsnr" v="532877" />
		<tag k="water" v="lake" />
	</node>
	<node lat="59.159900002604275" lon="8.343666670586998" id="-23443">
		<tag k="name" v="Kvålshyl" />
		<tag k="place" v="locality" />
		<tag k="ssr:stedsnr" v="532882" />
	</node>
	<node lat="59.12723055225622" lon="8.629288893654591" id="-23447">
		<tag k="name" v="Bjørkholttjønna" />
		<tag k="natural" v="water" />
		<tag k="ssr:stedsnr" v="533331" />
	</node>
	<node lat="59.03127500074109" lon="8.652213891965639" id="-23451">
		<tag k="name" v="Bjønntjønndammen" />
		<tag k="ssr:stedsnr" v="533093" />
		<tag k="waterway" v="dam" />
	</node>
	<node lat="59.00455833684812" lon="8.761897220593886" id="-23452">
		<tag k="name" v="Stolsvassåna" />
		<tag k="ssr:stedsnr" v="533480" />
		<tag k="waterway" v="stream" />
	</node>
	<node lat="59.172394441090404" lon="8.618850008111634" id="-23454">
		<tag k="name" v="Frovassbekken" />
		<tag k="ssr:stedsnr" v="533614" />
		<tag k="waterway" v="stream" />
	</node>
	<node lat="58.92066388691373" lon="8.364963887826455" id="-23461">
		<tag k="name" v="Futjønn" />
		<tag k="natural" v="water" />
		<tag k="ssr:stedsnr" v="533977" />
	</node>
	<node lat="58.9368027761646" lon="8.626988892216731" id="-23463">
		<tag k="name" v="Holmvika" />
		<tag k="natural" v="bay" />
		<tag k="ssr:stedsnr" v="546384" />
	</node>
	<node lat="58.91732499682676" lon="8.626438890792603" id="-23471">
		<tag k="name" v="Vøylen" />
		<tag k="natural" v="water" />
		<tag k="ssr:stedsnr" v="547410" />
	</node>
	<node lat="59.03380833605153" lon="8.696774995742732" id="-23475">
		<tag k="alt_name" v="Sagtjørn" />
		<tag k="name" v="Sagtjønn" />
		<tag k="natural" v="water" />
		<tag k="ssr:stedsnr" v="547545" />
	</node>
	<node lat="59.02635833195197" lon="8.507655547621665" id="-23476">
		<tag k="name" v="Smeitsund" />
		<tag k="natural" v="strait" />
		<tag k="ssr:stedsnr" v="547565" />
	</node>
	<node lat="59.04466110886779" lon="8.690544447463633" id="-23478">
		<tag k="alt_name" v="Feletjørn, øvre" />
		<tag k="name" v="Øvre Feletjørn" />
		<tag k="natural" v="water" />
		<tag k="ssr:stedsnr" v="547586" />
	</node>
	<node lat="59.02421944469181" lon="8.65759445311944" id="-23479">
		<tag k="name" v="Mjåvasslonene" />
		<tag k="place" v="locality" />
		<tag k="ssr:stedsnr" v="547469" />
	</node>
	<node lat="59.08598888988854" lon="8.61908056227715" id="-23484">
		<tag k="alt_name" v="Nærtjørn" />
		<tag k="name" v="Nærtjønn" />
		<tag k="natural" v="water" />
		<tag k="ssr:stedsnr" v="547672" />
	</node>
	<node lat="58.98938055744428" lon="8.408102778687653" id="-23486">
		<tag k="alt_name" v="Paulstjørn" />
		<tag k="name" v="Paulstjønna" />
		<tag k="natural" v="water" />
		<tag k="ssr:stedsnr" v="547910" />
	</node>
	<node lat="58.94408055435254" lon="8.420208325640667" id="-23487">
		<tag k="alt_name" v="Torunntjørna" />
		<tag k="name" v="Tåråntjønn" />
		<tag k="natural" v="water" />
		<tag k="ssr:stedsnr" v="547967" />
	</node>
	<node lat="59.18496388959415" lon="8.503588887578822" id="-23489">
		<tag k="alt_name" v="Lindøyni" />
		<tag k="name" v="Lindøya" />
		<tag k="place" v="island" />
		<tag k="ssr:stedsnr" v="547866" />
	</node>
	<node lat="59.234975002753224" lon="8.396325007626709" id="-23491">
		<tag k="alt_name" v="Fisketjørn" />
		<tag k="name" v="Fisketjønn" />
		<tag k="natural" v="water" />
		<tag k="ssr:stedsnr" v="548003" />
	</node>
	<node lat="59.138875004504776" lon="8.56200834025512" id="-23499">
		<tag k="name" v="Krokbekk" />
		<tag k="ssr:stedsnr" v="578823" />
		<tag k="waterway" v="stream" />
	</node>
	<node lat="59.0737944477711" lon="8.55977778435742" id="-23501">
		<tag k="name" v="Svartetjønn" />
		<tag k="natural" v="water" />
		<tag k="ssr:stedsnr" v="579623" />
	</node>
	<node lat="59.058583331514875" lon="8.53380278363323" id="-23506">
		<tag k="name" v="Fossen" />
		<tag k="natural" v="waterfall" />
		<tag k="ssr:stedsnr" v="579990" />
	</node>
	<node lat="59.01132500180334" lon="8.645027769116894" id="-23512">
		<tag k="name" v="Laulikjelda" />
		<tag k="natural" v="spring" />
		<tag k="ssr:stedsnr" v="580197" />
	</node>
	<node lat="59.04723055254034" lon="8.511072218852402" id="-23515">
		<tag k="name" v="Nordbekken" />
		<tag k="ssr:stedsnr" v="580498" />
		<tag k="waterway" v="stream" />
	</node>
	<node lat="58.87596111053177" lon="8.710616658792002" id="-23517">
		<tag k="name" v="Dypilen" />
		<tag k="natural" v="water" />
		<tag k="ssr:stedsnr" v="581148" />
		<tag k="water" v="pond" />
	</node>
	<node lat="58.88468889325025" lon="8.717719450643523" id="-23522">
		<tag k="name" v="Øvre Grundestjønn" />
		<tag k="natural" v="water" />
		<tag k="ssr:stedsnr" v="581052" />
	</node>
	<node lat="58.98946388532586" lon="8.62630555603547" id="-23524">
		<tag k="name" v="Lonine" />
		<tag k="natural" v="water" />
		<tag k="ssr:stedsnr" v="581191" />
		<tag k="water" v="lake" />
	</node>
	<node lat="58.91467500109796" lon="8.772086106360346" id="-23535">
		<tag k="name" v="Grimustjønn" />
		<tag k="natural" v="water" />
		<tag k="ssr:stedsnr" v="582993" />
	</node>
	<node lat="58.90648055219794" lon="8.755736117479984" id="-23536">
		<tag k="name" v="Lystjønn" />
		<tag k="natural" v="water" />
		<tag k="ssr:stedsnr" v="582998" />
	</node>
	<node lat="59.02519722372789" lon="8.665677770884793" id="-23544">
		<tag k="name" v="Lonåna" />
		<tag k="ssr:stedsnr" v="592255" />
		<tag k="waterway" v="stream" />
	</node>
	<node lat="58.991502774225204" lon="8.49438055095578" id="-23566">
		<tag k="name" v="Fiskåna" />
		<tag k="ssr:stedsnr" v="607298" />
		<tag k="waterway" v="river" />
	</node>
	<node lat="58.99669166808845" lon="8.73828332852818" id="-23570">
		<tag k="alt_name" v="Stolsvatnet" />
		<tag k="name" v="Stolsvatn" />
		<tag k="natural" v="water" />
		<tag k="ssr:stedsnr" v="607303" />
		<tag k="water" v="lake" />
	</node>
	<node lat="58.959758335602544" lon="8.553336103723145" id="-23571">
		<tag k="name" v="Øyntjørna" />
		<tag k="natural" v="water" />
		<tag k="ssr:stedsnr" v="607357" />
	</node>
	<node lat="58.89038055891201" lon="8.76640554764221" id="-23573">
		<tag k="alt_name" v="Glistjørn" />
		<tag k="name" v="Glistjønn" />
		<tag k="natural" v="water" />
		<tag k="ssr:stedsnr" v="607449" />
	</node>
	<node lat="58.98469444679071" lon="8.353983328830079" id="-23575">
		<tag k="alt_name" v="Blakktjørna" />
		<tag k="name" v="Blakktjønn" />
		<tag k="natural" v="water" />
		<tag k="ssr:stedsnr" v="607892" />
	</node>
	<node lat="59.11569999851764" lon="8.475341673025877" id="-23586">
		<tag k="name" v="Liodden" />
		<tag k="natural" v="cape" />
		<tag k="ssr:stedsnr" v="608693" />
	</node>
	<node lat="59.12018333374242" lon="8.52290832690046" id="-23587">
		<tag k="name" v="Nesåni" />
		<tag k="place" v="locality" />
		<tag k="ssr:stedsnr" v="608698" />
	</node>
	<node lat="59.122366665348444" lon="8.510894439228638" id="-23588">
		<tag k="name" v="Nesodden" />
		<tag k="natural" v="cape" />
		<tag k="ssr:stedsnr" v="608701" />
	</node>
	<node lat="59.18368611505528" lon="8.5068888911515" id="-23589">
		<tag k="alt_name" v="Vikbukta" />
		<tag k="name" v="Vikbukti" />
		<tag k="natural" v="bay" />
		<tag k="ssr:stedsnr" v="608838" />
	</node>
	<node lat="59.1606805574742" lon="8.597952784046173" id="-23591">
		<tag k="alt_name" v="Ervetjørn" />
		<tag k="name" v="Ervetjønn" />
		<tag k="natural" v="water" />
		<tag k="ssr:stedsnr" v="608816" />
	</node>
	<node lat="59.210133334616295" lon="8.55122222352278" id="-23592">
		<tag k="alt_name" v="Nordbøåna" />
		<tag k="name" v="Nordbøåni" />
		<tag k="ssr:stedsnr" v="608908" />
		<tag k="waterway" v="river" />
	</node>
	<node lat="59.19860555111551" lon="8.568891661916386" id="-23596">
		<tag k="name" v="Holmevassbekken" />
		<tag k="ssr:stedsnr" v="700896" />
		<tag k="waterway" v="stream" />
	</node>
	<node lat="59.03563888737612" lon="8.51566389719676" id="-23602">
		<tag k="name" v="Saghylen" />
		<tag k="place" v="locality" />
		<tag k="ssr:stedsnr" v="701541" />
	</node>
	<node lat="58.99845832949589" lon="8.544213883267618" id="-23608">
		<tag k="name" v="Langemyrkilen" />
		<tag k="natural" v="bay" />
		<tag k="ssr:stedsnr" v="701951" />
	</node>
	<node lat="59.00400000451402" lon="8.666811116314936" id="-23616">
		<tag k="name" v="Heimre Breivatn" />
		<tag k="natural" v="water" />
		<tag k="ssr:stedsnr" v="702258" />
		<tag k="water" v="lake" />
	</node>
	<node lat="58.98542222447225" lon="8.623530549471695" id="-23622">
		<tag k="name" v="Øygardstjønn" />
		<tag k="natural" v="water" />
		<tag k="ssr:stedsnr" v="703181" />
	</node>
	<node lat="58.92177500433472" lon="8.772236112155287" id="-23638">
		<tag k="name" v="Vehustjønna" />
		<tag k="natural" v="water" />
		<tag k="ssr:stedsnr" v="703972" />
	</node>
	<node lat="59.088230559952976" lon="8.54507499952252" id="-23645">
		<tag k="name" v="Bytebekken" />
		<tag k="ssr:stedsnr" v="638582" />
		<tag k="waterway" v="stream" />
	</node>
	<node lat="59.02170555540332" lon="8.496652769523699" id="-23657">
		<tag k="name" v="Ånonsbuoddane" />
		<tag k="natural" v="cape" />
		<tag k="ssr:stedsnr" v="640225" />
	</node>
	<node lat="58.98256666378039" lon="8.703194438763687" id="-23668">
		<tag k="name" v="Tjovtjønnbekken" />
		<tag k="ssr:stedsnr" v="642024" />
		<tag k="waterway" v="stream" />
	</node>
	<node lat="59.20082500391359" lon="8.63360277903999" id="-23672">
		<tag k="name" v="Fysliosen" />
		<tag k="natural" v="bay" />
		<tag k="ssr:stedsnr" v="642114" />
	</node>
	<node lat="59.155286106875515" lon="8.469250003356715" id="-23692">
		<tag k="name" v="Fjalestadneset" />
		<tag k="natural" v="cape" />
		<tag k="ssr:stedsnr" v="653407" />
	</node>
	<node lat="59.172080551168996" lon="8.430416674516785" id="-23705">
		<tag k="name" v="Den store skådammen" />
		<tag k="place" v="locality" />
		<tag k="ssr:stedsnr" v="653898" />
	</node>
	<node lat="59.10116944405922" lon="8.648336111236699" id="-23707">
		<tag k="name" v="Djupvasstjønna" />
		<tag k="natural" v="water" />
		<tag k="ssr:stedsnr" v="654408" />
	</node>
	<node lat="58.97290832979685" lon="8.642255552518632" id="-23720">
		<tag k="alt_name" v="Perstjørn" />
		<tag k="name" v="Perstjønn" />
		<tag k="natural" v="water" />
		<tag k="ssr:stedsnr" v="668404" />
	</node>
	<node lat="58.9078111144477" lon="8.475777770370904" id="-23721">
		<tag k="alt_name" v="Ugledalstjørna" />
		<tag k="name" v="Ugledalstjønn" />
		<tag k="natural" v="water" />
		<tag k="ssr:stedsnr" v="668412" />
	</node>
	<node lat="58.98055278137251" lon="8.722980558846993" id="-23725">
		<tag k="alt_name" v="Lustjørn" />
		<tag k="name" v="Lustjønn" />
		<tag k="natural" v="water" />
		<tag k="ssr:stedsnr" v="668396" />
	</node>
	<node lat="58.97555555342903" lon="8.651716659422204" id="-23726">
		<tag k="alt_name" v="Lomstjørn" />
		<tag k="name" v="Lomstjønn" />
		<tag k="natural" v="water" />
		<tag k="ssr:stedsnr" v="668402" />
	</node>
	<node lat="58.91394444584535" lon="8.676794437221591" id="-23727">
		<tag k="alt_name" v="Grimustjørna" />
		<tag k="name" v="Grimustjønn" />
		<tag k="natural" v="water" />
		<tag k="ssr:stedsnr" v="668503" />
	</node>
	<node lat="58.88840833604245" lon="8.768499996096816" id="-23729">
		<tag k="alt_name" v="Rektjørn" />
		<tag k="name" v="Rektjønn" />
		<tag k="natural" v="water" />
		<tag k="ssr:stedsnr" v="668731" />
	</node>
	<node lat="58.88658611089467" lon="8.759186103808329" id="-23730">
		<tag k="alt_name" v="Svorttjørn" />
		<tag k="name" v="Svarttjønn" />
		<tag k="natural" v="water" />
		<tag k="ssr:stedsnr" v="668732" />
	</node>
	<node lat="58.951886111384205" lon="8.346722228313102" id="-23731">
		<tag k="alt_name" v="Dynjanfoss" />
		<tag k="name" v="Dynjanfossen" />
		<tag k="natural" v="waterfall" />
		<tag k="ssr:stedsnr" v="668904" />
	</node>
	<node lat="59.233561737207836" lon="8.548275734392806" id="-23733">
		<tag k="alt_name" v="Steintjørni" />
		<tag k="name" v="Stemtjønn" />
		<tag k="natural" v="water" />
		<tag k="ssr:stedsnr" v="668932" />
	</node>
	<node lat="59.01975555682419" lon="8.49999999920132" id="-23740">
		<tag k="name" v="Gauraksøya" />
		<tag k="place" v="island" />
		<tag k="ssr:stedsnr" v="669487" />
	</node>
	<node lat="59.00567499609829" lon="8.658266664046359" id="-23741">
		<tag k="alt_name" v="Breidvatnet, heimre;Heimre Breivatn" />
		<tag k="name" v="Heimre Breidvatnet" />
		<tag k="natural" v="water" />
		<tag k="ssr:stedsnr" v="669499" />
		<tag k="water" v="lake" />
	</node>
	<node lat="59.0095111083844" lon="8.608136111137558" id="-23743">
		<tag k="name" v="Makkbekk" />
		<tag k="ssr:stedsnr" v="669504" />
		<tag k="waterway" v="stream" />
	</node>
	<node lat="59.110134561390616" lon="8.726983211990563" id="-23744">
		<tag k="alt_name" v="Hantarmane" />
		<tag k="name" v="Hanetarmen" />
		<tag k="natural" v="water" />
		<tag k="ssr:stedsnr" v="669679" />
	</node>
	<node lat="59.18016666474901" lon="8.573883335128906" id="-23746">
		<tag k="alt_name" v="Molandshomtjørni" />
		<tag k="name" v="Molandshomtjønna" />
		<tag k="natural" v="water" />
		<tag k="ssr:stedsnr" v="669812" />
	</node>
	<node lat="59.2041611154065" lon="8.644444440423952" id="-23748">
		<tag k="alt_name" v="Ortjørn" />
		<tag k="name" v="Ortjønnane" />
		<tag k="natural" v="water" />
		<tag k="ssr:stedsnr" v="669878" />
	</node>
	<node lat="59.21461388930249" lon="8.621452779787576" id="-23750">
		<tag k="alt_name" v="Nystøyltjørni" />
		<tag k="name" v="Nystøyltjønna" />
		<tag k="natural" v="water" />
		<tag k="ssr:stedsnr" v="669889" />
	</node>
	<node lat="58.96494166712443" lon="8.338494449413597" id="-23754">
		<tag k="name" v="Dalsbukta" />
		<tag k="natural" v="bay" />
		<tag k="ssr:stedsnr" v="895892" />
	</node>
	<node lat="58.94157499888577" lon="8.37684721681958" id="-23756">
		<tag k="name" v="Korantjønn" />
		<tag k="natural" v="water" />
		<tag k="ssr:stedsnr" v="895953" />
	</node>
	<node lat="59.18725555954634" lon="8.606372217895355" id="-23758">
		<tag k="name" v="Store Hyljelandstjønn" />
		<tag k="natural" v="water" />
		<tag k="ssr:stedsnr" v="700624" />
	</node>
	<node lat="59.02570833270076" lon="8.507547223246485" id="-23764">
		<tag k="name" v="Smeitsund" />
		<tag k="natural" v="strait" />
		<tag k="ssr:stedsnr" v="701280" />
	</node>
	<node lat="59.02386111546741" lon="8.504824997284969" id="-23765">
		<tag k="name" v="Grimsholmen" />
		<tag k="place" v="island" />
		<tag k="ssr:stedsnr" v="701285" />
	</node>
	<node lat="58.9630305535748" lon="8.54056110924614" id="-23769">
		<tag k="name" v="Sandarhyldammen" />
		<tag k="ssr:stedsnr" v="701524" />
		<tag k="waterway" v="dam" />
	</node>
	<node lat="59.00014722398191" lon="8.589649999767135" id="-23774">
		<tag k="name" v="Gautefallsbekken" />
		<tag k="ssr:stedsnr" v="701785" />
		<tag k="waterway" v="stream" />
	</node>
	<node lat="58.93308333756821" lon="8.566066670618191" id="-23775">
		<tag k="name" v="Nedre Lundantjønn" />
		<tag k="natural" v="water" />
		<tag k="ssr:stedsnr" v="701907" />
	</node>
	<node lat="59.09349722466461" lon="8.494924994065864" id="-23778">
		<tag k="name" v="Osen" />
		<tag k="natural" v="bay" />
		<tag k="ssr:stedsnr" v="896350" />
	</node>
	<node lat="59.003311112311565" lon="8.624749999222972" id="-23781">
		<tag k="name" v="Sjengen" />
		<tag k="natural" v="cape" />
		<tag k="ssr:stedsnr" v="702510" />
	</node>
	<node lat="58.98235277698761" lon="8.703225000562208" id="-23784">
		<tag k="name" v="Tjovtjønndammen" />
		<tag k="ssr:stedsnr" v="703022" />
		<tag k="waterway" v="dam" />
	</node>
	<node lat="58.88421388636354" lon="8.68015554887874" id="-23791">
		<tag k="name" v="Bjorhyl" />
		<tag k="natural" v="water" />
		<tag k="ssr:stedsnr" v="703108" />
		<tag k="water" v="lake" />
	</node>
	<node lat="59.065855558813965" lon="8.431525000891433" id="-23795">
		<tag k="name" v="Syd-tjønnane" />
		<tag k="natural" v="water" />
		<tag k="ssr:stedsnr" v="896452" />
	</node>
	<node lat="58.987350000418154" lon="8.704733340508202" id="-23799">
		<tag k="name" v="Tjønna i myra" />
		<tag k="natural" v="water" />
		<tag k="ssr:stedsnr" v="703919" />
	</node>
	<node lat="59.234791663520554" lon="8.396963885155536" id="-23807">
		<tag k="name" v="Fiskeodden" />
		<tag k="natural" v="cape" />
		<tag k="ssr:stedsnr" v="897136" />
	</node>
	<node lat="59.237091670596726" lon="8.345019442794579" id="-23810">
		<tag k="name" v="Øyvassosen" />
		<tag k="natural" v="bay" />
		<tag k="ssr:stedsnr" v="897150" />
	</node>
	<node lat="59.14425000428726" lon="8.393988880673062" id="-23812">
		<tag k="name" v="Hefttjønn" />
		<tag k="natural" v="water" />
		<tag k="ssr:stedsnr" v="897190" />
	</node>
	<node lat="59.1881222239444" lon="8.43222221708475" id="-23814">
		<tag k="name" v="Barstadøya" />
		<tag k="place" v="island" />
		<tag k="ssr:stedsnr" v="897289" />
	</node>
	<node lat="59.18977500365389" lon="8.342980548975152" id="-23815">
		<tag k="name" v="Sandtjønnbekken" />
		<tag k="ssr:stedsnr" v="897381" />
		<tag k="waterway" v="stream" />
	</node>
	<node lat="59.1950416694651" lon="8.37529167409128" id="-23816">
		<tag k="name" v="Reinkilen" />
		<tag k="natural" v="bay" />
		<tag k="ssr:stedsnr" v="897395" />
	</node>
	<node lat="59.13556944312205" lon="8.435211103226601" id="-23817">
		<tag k="name" v="Åkroken" />
		<tag k="place" v="locality" />
		<tag k="ssr:stedsnr" v="897462" />
	</node>
	<node lat="59.20944167055092" lon="8.620308326957732" id="-23819">
		<tag k="name" v="Svarttjønn" />
		<tag k="natural" v="water" />
		<tag k="ssr:stedsnr" v="897476" />
	</node>
	<node lat="59.106722220432076" lon="8.49150832492951" id="-23833">
		<tag k="name" v="Raudnesoddane" />
		<tag k="natural" v="cape" />
		<tag k="ssr:stedsnr" v="897895" />
	</node>
	<node lat="58.985413886684235" lon="8.467338889544054" id="-23837">
		<tag k="name" v="Bjørknattjønnane" />
		<tag k="natural" v="water" />
		<tag k="ssr:stedsnr" v="712065" />
	</node>
	<node lat="58.99029444692425" lon="8.485508333782045" id="-23838">
		<tag k="name" v="Solegladhylane" />
		<tag k="place" v="locality" />
		<tag k="ssr:stedsnr" v="712078" />
	</node>
	<node lat="59.11265277780221" lon="8.380366660473506" id="-23841">
		<tag k="name" v="Fjellstøylfossen" />
		<tag k="natural" v="waterfall" />
		<tag k="ssr:stedsnr" v="712627" />
	</node>
	<node lat="58.994191668773226" lon="8.456016664982817" id="-23854">
		<tag k="name" v="Gloppedammen" />
		<tag k="ssr:stedsnr" v="714215" />
		<tag k="waterway" v="dam" />
	</node>
	<node lat="59.12977778018212" lon="8.473694439368325" id="-23857">
		<tag k="name" v="Veirhonni" />
		<tag k="natural" v="cape" />
		<tag k="ssr:stedsnr" v="714319" />
	</node>
	<node lat="59.144297220210106" lon="8.455316671402413" id="-23858">
		<tag k="name" v="Motjønn" />
		<tag k="natural" v="water" />
		<tag k="ssr:stedsnr" v="714321" />
	</node>
	<node lat="59.10735555387282" lon="8.639463896994783" id="-23872">
		<tag k="name" v="Svarttjønnane" />
		<tag k="natural" v="water" />
		<tag k="ssr:stedsnr" v="715425" />
	</node>
	<node lat="59.16813055170773" lon="8.61882221817032" id="-23874">
		<tag k="name" v="Langmyrtjønna" />
		<tag k="natural" v="water" />
		<tag k="ssr:stedsnr" v="715672" />
	</node>
	<node lat="59.20234721913471" lon="8.45847499522093" id="-23876">
		<tag k="name" v="Sandvikosen" />
		<tag k="natural" v="bay" />
		<tag k="ssr:stedsnr" v="715694" />
	</node>
	<node lat="58.98270277965884" lon="8.659491663629671" id="-23877">
		<tag k="alt_name" v="Raudtjørna" />
		<tag k="name" v="Øvre Rautjønn" />
		<tag k="natural" v="water" />
		<tag k="ssr:stedsnr" v="728229" />
	</node>
	<node lat="58.89498333457053" lon="8.735805549158087" id="-23878">
		<tag k="alt_name" v="Øksetjørn" />
		<tag k="name" v="Økstjønn" />
		<tag k="natural" v="water" />
		<tag k="ssr:stedsnr" v="728414" />
	</node>
	<node lat="58.99663611050639" lon="8.706036107765799" id="-23879">
		<tag k="alt_name" v="Jambogtjørna" />
		<tag k="name" v="Jamboktjønna" />
		<tag k="natural" v="water" />
		<tag k="ssr:stedsnr" v="729309" />
	</node>
	<node lat="59.04306388576255" lon="8.530044451624066" id="-23886">
		<tag k="alt_name" v="Bjåråna" />
		<tag k="name" v="Bjøråna" />
		<tag k="place" v="locality" />
		<tag k="ssr:stedsnr" v="729506" />
	</node>
	<node lat="59.14511667075291" lon="8.559400001331875" id="-23891">
		<tag k="alt_name" v="Stemtjørn" />
		<tag k="name" v="Stemtjønn" />
		<tag k="natural" v="water" />
		<tag k="ssr:stedsnr" v="729764" />
	</node>
	<node lat="59.24757499679476" lon="8.386758327506001" id="-23894">
		<tag k="alt_name" v="Langlitjørni" />
		<tag k="name" v="Langlitjønna" />
		<tag k="natural" v="water" />
		<tag k="ssr:stedsnr" v="730017" />
	</node>
	<node lat="59.07473055738225" lon="8.611127772649589" id="-23898">
		<tag k="alt_name" v="Sigridtjørn" />
		<tag k="name" v="Sigridtjønn" />
		<tag k="natural" v="water" />
		<tag k="ssr:stedsnr" v="730618" />
	</node>
	<node lat="59.01467499967097" lon="8.676652779643797" id="-23899">
		<tag k="alt_name" v="Breidvatnet, austre;Østre Breivatn" />
		<tag k="name" v="Austre Breidvatnet" />
		<tag k="natural" v="water" />
		<tag k="ssr:stedsnr" v="730518" />
		<tag k="water" v="lake" />
	</node>
	<node lat="59.12480555110956" lon="8.68818055642393" id="-23900">
		<tag k="alt_name" v="Holmevassåna" />
		<tag k="name" v="Holmevasselvi" />
		<tag k="ssr:stedsnr" v="730704" />
		<tag k="waterway" v="river" />
	</node>
	<node lat="59.1114277807466" lon="8.68536945085206" id="-23902">
		<tag k="alt_name" v="Grunntjørn" />
		<tag k="name" v="Grunntjønn" />
		<tag k="natural" v="water" />
		<tag k="ssr:stedsnr" v="730724" />
	</node>
	<node lat="59.174544444697915" lon="8.600819445063136" id="-23905">
		<tag k="alt_name" v="Frovatnet" />
		<tag k="name" v="Frovatn" />
		<tag k="natural" v="water" />
		<tag k="ssr:stedsnr" v="730822" />
	</node>
	<node lat="59.219833335757805" lon="8.494525007710763" id="-23909">
		<tag k="alt_name" v="Lomkiltjørni" />
		<tag k="name" v="Lomkiltjønna" />
		<tag k="natural" v="water" />
		<tag k="ssr:stedsnr" v="730924" />
	</node>
	<node lat="59.221006542173214" lon="8.60798123469828" id="-23913">
		<tag k="name" v="Haglitjønn" />
		<tag k="natural" v="water" />
		<tag k="ssr:stedsnr" v="760901" />
	</node>
	<node lat="59.191316666047356" lon="8.497783341242455" id="-23914">
		<tag k="name" v="Kistevika" />
		<tag k="natural" v="bay" />
		<tag k="ssr:stedsnr" v="761510" />
	</node>
	<node lat="58.975380555357475" lon="8.526811104650072" id="-23916">
		<tag k="name" v="Åsodden" />
		<tag k="natural" v="cape" />
		<tag k="ssr:stedsnr" v="761443" />
	</node>
	<node lat="59.0318416623171" lon="8.54656110477985" id="-23920">
		<tag k="name" v="Kistetjønn" />
		<tag k="natural" v="water" />
		<tag k="ssr:stedsnr" v="762810" />
	</node>
	<node lat="59.03422777674562" lon="8.50740277997626" id="-23921">
		<tag k="name" v="Bjåråna" />
		<tag k="ssr:stedsnr" v="762850" />
		<tag k="waterway" v="stream" />
	</node>
	<node lat="59.026991665886754" lon="8.540686117898785" id="-23922">
		<tag k="name" v="Smibergåna" />
		<tag k="ssr:stedsnr" v="762800" />
		<tag k="waterway" v="stream" />
	</node>
	<node lat="59.00651388770838" lon="8.64941389520648" id="-23923">
		<tag k="name" v="Fossane" />
		<tag k="natural" v="waterfall" />
		<tag k="ssr:stedsnr" v="763212" />
	</node>
	<node lat="58.988452777436166" lon="8.725702772325898" id="-23927">
		<tag k="name" v="Sigurdstjønnhylen" />
		<tag k="natural" v="water" />
		<tag k="ssr:stedsnr" v="764146" />
		<tag k="water" v="lake" />
	</node>
	<node lat="58.92623332971283" lon="8.455986110739579" id="-23942">
		<tag k="name" v="Åstjønna" />
		<tag k="natural" v="water" />
		<tag k="ssr:stedsnr" v="774670" />
	</node>
	<node lat="59.117552776836234" lon="8.455280548754848" id="-23945">
		<tag k="name" v="Store Dypletjønn" />
		<tag k="natural" v="water" />
		<tag k="ssr:stedsnr" v="775056" />
	</node>
	<node lat="59.17845277415713" lon="8.470299994390432" id="-23952">
		<tag k="name" v="Munkesteinbukta" />
		<tag k="natural" v="bay" />
		<tag k="ssr:stedsnr" v="775556" />
	</node>
	<node lat="59.07478332945559" lon="8.616872227975554" id="-23963">
		<tag k="name" v="Blidtjønn" />
		<tag k="natural" v="water" />
		<tag k="ssr:stedsnr" v="776203" />
	</node>
	<node lat="59.115330556355" lon="8.62342499825514" id="-23965">
		<tag k="name" v="Djupvasstjønna" />
		<tag k="natural" v="water" />
		<tag k="ssr:stedsnr" v="776369" />
	</node>
	<node lat="59.197188892015475" lon="8.373091671757653" id="-23970">
		<tag k="alt_name" v="Lytingsosen" />
		<tag k="name" v="Osen" />
		<tag k="natural" v="bay" />
		<tag k="ssr:stedsnr" v="911096" />
	</node>
	<node lat="58.97962500098226" lon="8.489999996798973" id="-23973">
		<tag k="alt_name" v="Murtetjørn" />
		<tag k="name" v="Murtetjønn" />
		<tag k="natural" v="water" />
		<tag k="ssr:stedsnr" v="911287" />
	</node>
	<node lat="59.08436827707917" lon="8.43958448917932" id="-23974">
		<tag k="alt_name" v="Vardtjørnane" />
		<tag k="name" v="Vardetjønn" />
		<tag k="natural" v="water" />
		<tag k="ssr:stedsnr" v="911220" />
	</node>
	<node lat="58.97808611524277" lon="8.50414721600284" id="-23975">
		<tag k="alt_name" v="Søyletjørna" />
		<tag k="name" v="Søyletjønn" />
		<tag k="natural" v="water" />
		<tag k="ssr:stedsnr" v="911288" />
	</node>
	<node lat="58.95872778027113" lon="8.518474998302189" id="-23981">
		<tag k="alt_name" v="Ilekleivfossen" />
		<tag k="name" v="Illekleivfossen" />
		<tag k="natural" v="waterfall" />
		<tag k="ssr:stedsnr" v="789364" />
	</node>
	<node lat="58.96708611169973" lon="8.678594452780972" id="-23982">
		<tag k="alt_name" v="Koppartjørnane" />
		<tag k="name" v="Kopartjønnane" />
		<tag k="natural" v="water" />
		<tag k="ssr:stedsnr" v="789370" />
	</node>
	<node lat="58.965805557748915" lon="8.74311666139865" id="-23983">
		<tag k="name" v="Jamvågtjørna" />
		<tag k="natural" v="water" />
		<tag k="ssr:stedsnr" v="789374" />
	</node>
	<node lat="58.9811777813376" lon="8.73730000020668" id="-23989">
		<tag k="name" v="Skåktjørna" />
		<tag k="natural" v="water" />
		<tag k="ssr:stedsnr" v="789263" />
	</node>
	<node lat="58.98677499763326" lon="8.732641671289661" id="-23990">
		<tag k="alt_name" v="Sigurdstjørna" />
		<tag k="name" v="Sigurdstjønn" />
		<tag k="natural" v="water" />
		<tag k="ssr:stedsnr" v="789264" />
	</node>
	<node lat="58.98291111563094" lon="8.712108338304384" id="-23991">
		<tag k="name" v="Hanetarmane" />
		<tag k="natural" v="water" />
		<tag k="ssr:stedsnr" v="789266" />
	</node>
	<node lat="58.92142500097725" lon="8.74436945290346" id="-23994">
		<tag k="alt_name" v="Grestjørna" />
		<tag k="name" v="Grestjønn" />
		<tag k="natural" v="water" />
		<tag k="ssr:stedsnr" v="789410" />
	</node>
	<node lat="58.87731666877896" lon="8.686288881374377" id="-23995">
		<tag k="name" v="Sandvatn" />
		<tag k="natural" v="water" />
		<tag k="ssr:stedsnr" v="789699" />
	</node>
	<node lat="58.887461110221764" lon="8.796430556314354" id="-23999">
		<tag k="alt_name" v="Tangetjørna" />
		<tag k="name" v="Tangetjønn" />
		<tag k="natural" v="water" />
		<tag k="ssr:stedsnr" v="789716" />
	</node>
	<node lat="58.97897499617771" lon="8.315574991527473" id="-24000">
		<tag k="name" v="Bunosodden" />
		<tag k="natural" v="cape" />
		<tag k="ssr:stedsnr" v="789905" />
	</node>
	<node lat="59.19274999961504" lon="8.384850005885367" id="-24003">
		<tag k="alt_name" v="Reinvatn" />
		<tag k="name" v="Reinevatnet" />
		<tag k="natural" v="water" />
		<tag k="ssr:stedsnr" v="790062" />
		<tag k="water" v="lake" />
	</node>
	<node lat="58.91736944423058" lon="8.528563889107758" id="-24008">
		<tag k="alt_name" v="Såget;Såge" />
		<tag k="name" v="Soget" />
		<tag k="natural" v="strait" />
		<tag k="ssr:stedsnr" v="911418" />
	</node>
	<node lat="58.9362138892322" lon="8.743630550102017" id="-24011">
		<tag k="name" v="Spjotvatn" />
		<tag k="natural" v="water" />
		<tag k="ssr:stedsnr" v="911425" />
		<tag k="water" v="lake" />
	</node>
	<node lat="58.931958332981424" lon="8.600158339821705" id="-24012">
		<tag k="alt_name" v="Bergstøylbukta" />
		<tag k="name" v="Bergstølbukta" />
		<tag k="natural" v="bay" />
		<tag k="ssr:stedsnr" v="911427" />
	</node>
	<node lat="59.11832721378762" lon="8.333381273484756" id="-24013">
		<tag k="alt_name" v="Bjørkholmtjørnane" />
		<tag k="name" v="Bjørkhomtjønnane" />
		<tag k="natural" v="water" />
		<tag k="ssr:stedsnr" v="790110" />
	</node>
	<node lat="59.019116663217034" lon="8.63092778130437" id="-24020">
		<tag k="alt_name" v="Eilevstjørna" />
		<tag k="name" v="Eileivstjønn" />
		<tag k="natural" v="water" />
		<tag k="ssr:stedsnr" v="790451" />
	</node>
	<node lat="58.86848888989096" lon="8.721083327210112" id="-24022">
		<tag k="name" v="Orrevatn, l" />
		<tag k="natural" v="water" />
		<tag k="ssr:stedsnr" v="911756" />
	</node>
	<node lat="59.0462051883162" lon="8.65755331464067" id="-24023">
		<tag k="alt_name" v="Tellevstjørna" />
		<tag k="name" v="Tellefstjønn" />
		<tag k="natural" v="water" />
		<tag k="ssr:stedsnr" v="790573" />
	</node>
	<node lat="59.106466666530444" lon="8.491180560999064" id="-24024">
		<tag k="name" v="Raudnesodden" />
		<tag k="natural" v="cape" />
		<tag k="ssr:stedsnr" v="790708" />
	</node>
	<node lat="58.95088055481311" lon="8.436416667211791" id="-24027">
		<tag k="name" v="Nybusanden" />
		<tag k="natural" v="cape" />
		<tag k="ssr:stedsnr" v="790944" />
	</node>
	<node lat="58.95245555431543" lon="8.42930000288646" id="-24028">
		<tag k="alt_name" v="Halsteinkilen" />
		<tag k="name" v="Hallsteinkilen" />
		<tag k="natural" v="bay" />
		<tag k="ssr:stedsnr" v="790952" />
	</node>
	<node lat="59.11523332956354" lon="8.645769448383083" id="-24030">
		<tag k="alt_name" v="Beritsvatnet" />
		<tag k="name" v="Berisvatn" />
		<tag k="natural" v="water" />
		<tag k="ssr:stedsnr" v="790700" />
		<tag k="water" v="lake" />
	</node>
	<node lat="59.18718888869123" lon="8.607019437141458" id="-24031">
		<tag k="name" v="Skardtjørn" />
		<tag k="natural" v="water" />
		<tag k="ssr:stedsnr" v="790846" />
	</node>
	<node lat="59.18749166752495" lon="8.656424996092024" id="-24032">
		<tag k="name" v="Diplane" />
		<tag k="natural" v="water" />
		<tag k="ssr:stedsnr" v="790850" />
	</node>
	<node lat="58.95613055677965" lon="8.450463882533821" id="-24033">
		<tag k="alt_name" v="Vestigard-Stemtjørn" />
		<tag k="name" v="Vestigard Stemtjønn" />
		<tag k="natural" v="water" />
		<tag k="ssr:stedsnr" v="911904" />
	</node>
	<node lat="58.953711109064265" lon="8.458411114934805" id="-24034">
		<tag k="alt_name" v="Bjønnsond" />
		<tag k="name" v="Bjørnsund" />
		<tag k="natural" v="strait" />
		<tag k="ssr:stedsnr" v="911909" />
	</node>
	<node lat="59.09858610905898" lon="8.567422220932228" id="-24035">
		<tag k="alt_name" v="Tjovetjørn" />
		<tag k="name" v="Tjovtjønn" />
		<tag k="natural" v="water" />
		<tag k="ssr:stedsnr" v="791609" />
	</node>
	<node lat="59.09897222181204" lon="8.489980559794176" id="-24037">
		<tag k="alt_name" v="Surtevika" />
		<tag k="name" v="Surtviki" />
		<tag k="natural" v="bay" />
		<tag k="ssr:stedsnr" v="791617" />
	</node>
	<node lat="58.97842778136338" lon="8.340113892213552" id="-24038">
		<tag k="alt_name" v="Dåstjørna" />
		<tag k="name" v="Dåstjønn" />
		<tag k="natural" v="water" />
		<tag k="ssr:stedsnr" v="911888" />
	</node>
	<node lat="59.15766110697731" lon="8.658033325166452" id="-24040">
		<tag k="alt_name" v="Svinsundvatn" />
		<tag k="name" v="Svinsundvatnet" />
		<tag k="natural" v="water" />
		<tag k="ssr:stedsnr" v="791708" />
	</node>
	<node lat="59.153975003133" lon="8.639641665185506" id="-24041">
		<tag k="name" v="Stokkosen" />
		<tag k="natural" v="bay" />
		<tag k="ssr:stedsnr" v="791710" />
	</node>
	<node lat="58.91218888976769" lon="8.379330554866675" id="-24042">
		<tag k="alt_name" v="Uvdalsvatn" />
		<tag k="name" v="Uvdalsvatnet" />
		<tag k="natural" v="water" />
		<tag k="ssr:stedsnr" v="911974" />
		<tag k="water" v="lake" />
	</node>
	<node lat="59.20575833465716" lon="8.615055557976104" id="-24043">
		<tag k="alt_name" v="Måvatnet" />
		<tag k="name" v="Måvatn" />
		<tag k="natural" v="water" />
		<tag k="ssr:stedsnr" v="791883" />
		<tag k="water" v="lake" />
	</node>
	<node lat="59.217186112985644" lon="8.426661104975047" id="-24044">
		<tag k="alt_name" v="Lindefjellåna" />
		<tag k="name" v="Lindefjellåi" />
		<tag k="ssr:stedsnr" v="912037" />
		<tag k="waterway" v="river" />
	</node>
	<node lat="59.18364523759016" lon="8.317889887357303" id="-24045">
		<tag k="alt_name" v="Tonetjørn" />
		<tag k="name" v="Tonetjønn" />
		<tag k="natural" v="water" />
		<tag k="ssr:stedsnr" v="912059" />
	</node>
	<node lat="58.96916111134021" lon="8.411577780443245" id="-24046">
		<tag k="alt_name" v="Trolltjørn" />
		<tag k="name" v="Trolltjønn" />
		<tag k="natural" v="water" />
		<tag k="ssr:stedsnr" v="911914" />
	</node>
	<node lat="59.047211115223156" lon="8.363549997217707" id="-24049">
		<tag k="name" v="Midvatn" />
		<tag k="natural" v="water" />
		<tag k="ssr:stedsnr" v="912255" />
		<tag k="water" v="lake" />
	</node>
	<node lat="59.03382777472963" lon="8.679297214453204" id="-24050">
		<tag k="alt_name" v="Eivindslitjørnane" />
		<tag k="name" v="Eivindstjønnane" />
		<tag k="natural" v="water" />
		<tag k="ssr:stedsnr" v="912534" />
	</node>
	<node lat="59.03269722161774" lon="8.531261104262997" id="-24051">
		<tag k="name" v="Gjuvåna" />
		<tag k="place" v="locality" />
		<tag k="ssr:stedsnr" v="912540" />
	</node>
	<node lat="59.026883331989204" lon="8.54008611627208" id="-24053">
		<tag k="name" v="Tveitåna" />
		<tag k="place" v="locality" />
		<tag k="ssr:stedsnr" v="912555" />
	</node>
	<node lat="59.02636110988318" lon="8.715461108470025" id="-24055">
		<tag k="alt_name" v="Reinsvatn" />
		<tag k="name" v="Reinsvatnet" />
		<tag k="natural" v="water" />
		<tag k="ssr:stedsnr" v="912481" />
		<tag k="water" v="lake" />
	</node>
	<node lat="59.0179166640168" lon="8.55577500579835" id="-24056">
		<tag k="name" v="Dalsåna" />
		<tag k="place" v="locality" />
		<tag k="ssr:stedsnr" v="912483" />
	</node>
	<node lat="59.053691665400265" lon="8.53984722895817" id="-24057">
		<tag k="alt_name" v="Klypetjørn" />
		<tag k="name" v="Klypetjønn" />
		<tag k="natural" v="water" />
		<tag k="ssr:stedsnr" v="912575" />
	</node>
	<node lat="59.10248055163994" lon="8.50622500042379" id="-24058">
		<tag k="alt_name" v="Trontveitøyni" />
		<tag k="name" v="Trontveitøya" />
		<tag k="place" v="island" />
		<tag k="ssr:stedsnr" v="912643" />
	</node>
	<node lat="59.098324996259315" lon="8.624808328777727" id="-24059">
		<tag k="name" v="Hellersvatnet" />
		<tag k="natural" v="water" />
		<tag k="ssr:stedsnr" v="912651" />
	</node>
	<node lat="59.101207587817164" lon="8.575187124485936" id="-24060">
		<tag k="alt_name" v="Øysandvatn" />
		<tag k="name" v="Øysandvatnet" />
		<tag k="natural" v="water" />
		<tag k="ssr:stedsnr" v="912653" />
		<tag k="water" v="lake" />
	</node>
	<node lat="59.113902775436145" lon="8.669716671767068" id="-24061">
		<tag k="alt_name" v="Svarttjørn" />
		<tag k="name" v="Svarttjønnane" />
		<tag k="natural" v="water" />
		<tag k="ssr:stedsnr" v="912700" />
	</node>
	<node lat="59.09095833707307" lon="8.542599998752587" id="-24063">
		<tag k="name" v="Kraune" />
		<tag k="place" v="locality" />
		<tag k="ssr:stedsnr" v="912668" />
	</node>
	<node lat="59.22685277651491" lon="8.56562499685137" id="-24067">
		<tag k="alt_name" v="Norddalstjørni" />
		<tag k="name" v="Noradaltjønna" />
		<tag k="natural" v="water" />
		<tag k="ssr:stedsnr" v="912935" />
	</node>
	<node lat="59.16084166794675" lon="8.573305556700717" id="-24074">
		<tag k="name" v="Øksåna" />
		<tag k="ssr:stedsnr" v="821511" />
		<tag k="waterway" v="river" />
	</node>
	<node lat="59.164591667449926" lon="8.587172228058382" id="-24084">
		<tag k="name" v="Igletjønn" />
		<tag k="natural" v="water" />
		<tag k="ssr:stedsnr" v="821980" />
	</node>
	<node lat="59.0775027761353" lon="8.578577775541401" id="-24086">
		<tag k="name" v="Øyvasslona" />
		<tag k="natural" v="water" />
		<tag k="ssr:stedsnr" v="822608" />
		<tag k="water" v="lake" />
	</node>
	<node lat="58.952902776127104" lon="8.60419721536622" id="-24093">
		<tag k="name" v="Bjønndalsbukta" />
		<tag k="natural" v="bay" />
		<tag k="ssr:stedsnr" v="823121" />
	</node>
	<node lat="59.0109833375986" lon="8.544027781611383" id="-24095">
		<tag k="name" v="Nisserdammen" />
		<tag k="ssr:stedsnr" v="823503" />
		<tag k="waterway" v="dam" />
	</node>
	<node lat="58.93970555530243" lon="8.499036112439637" id="-24100">
		<tag k="name" v="Jorundsholmen" />
		<tag k="place" v="islet" />
		<tag k="ssr:stedsnr" v="823764" />
	</node>
	<node lat="59.017413891115154" lon="8.532219444871185" id="-24103">
		<tag k="name" v="Skålestronda" />
		<tag k="natural" v="beach" />
		<tag k="ssr:stedsnr" v="823914" />
	</node>
	<node lat="58.86963888557937" lon="8.722361109271901" id="-24119">
		<tag k="name" v="Lisle Orrevatn" />
		<tag k="natural" v="water" />
		<tag k="ssr:stedsnr" v="825213" />
		<tag k="water" v="lake" />
	</node>
	<node lat="59.03324444425589" lon="8.69228332988752" id="-24136">
		<tag k="name" v="Kothylen" />
		<tag k="place" v="locality" />
		<tag k="ssr:stedsnr" v="836186" />
	</node>
	<node lat="59.12349166636151" lon="8.479477772248115" id="-24137">
		<tag k="name" v="Smeitsund" />
		<tag k="natural" v="strait" />
		<tag k="ssr:stedsnr" v="836307" />
	</node>
	<node lat="59.130416665999945" lon="8.473555554233517" id="-24138">
		<tag k="name" v="Fugløy" />
		<tag k="place" v="islet" />
		<tag k="ssr:stedsnr" v="836308" />
	</node>
	<node lat="59.17948888626466" lon="8.467172221847564" id="-24141">
		<tag k="name" v="Osvikøya" />
		<tag k="place" v="island" />
		<tag k="ssr:stedsnr" v="836529" />
	</node>
	<node lat="59.057333333822385" lon="8.476094447408677" id="-24148">
		<tag k="name" v="Nauraksskjæra" />
		<tag k="place" v="islet" />
		<tag k="ssr:stedsnr" v="836807" />
	</node>
	<node lat="59.1081111074306" lon="8.32381944431445" id="-24150">
		<tag k="name" v="Hågstøylvassosen" />
		<tag k="natural" v="bay" />
		<tag k="ssr:stedsnr" v="836780" />
	</node>
	<node lat="58.99908888477815" lon="8.72342222041333" id="-24153">
		<tag k="name" v="Tjønna under nuten" />
		<tag k="natural" v="water" />
		<tag k="ssr:stedsnr" v="837448" />
	</node>
	<node lat="58.92211714096485" lon="8.636217291649292" id="-24156">
		<tag k="name" v="Fåtjørn" />
		<tag k="natural" v="water" />
		<tag k="ssr:stedsnr" v="850390" />
	</node>
	<node lat="58.92625278211949" lon="8.609888892867817" id="-24157">
		<tag k="alt_name" v="Kåptjørna" />
		<tag k="name" v="Kåptjønn" />
		<tag k="natural" v="water" />
		<tag k="ssr:stedsnr" v="850396" />
	</node>
	<node lat="58.92294444806072" lon="8.749680560783906" id="-24159">
		<tag k="alt_name" v="Kyrtjørna" />
		<tag k="name" v="Kyrtjønn" />
		<tag k="natural" v="water" />
		<tag k="ssr:stedsnr" v="850408" />
	</node>
	<node lat="59.04087778052375" lon="8.5951444375791" id="-24174">
		<tag k="alt_name" v="Perletjørn" />
		<tag k="name" v="Perletjønnane" />
		<tag k="natural" v="water" />
		<tag k="ssr:stedsnr" v="851481" />
	</node>
	<node lat="59.213188891054024" lon="8.558708333340379" id="-24179">
		<tag k="alt_name" v="Sauhylbekken" />
		<tag k="name" v="Sauhølbekken" />
		<tag k="ssr:stedsnr" v="851914" />
		<tag k="waterway" v="stream" />
	</node>
	<node lat="58.95325833745926" lon="8.379463889418439" id="-24181">
		<tag k="alt_name" v="Revstjørn" />
		<tag k="name" v="Refstjønn" />
		<tag k="natural" v="water" />
		<tag k="ssr:stedsnr" v="851921" />
	</node>
	<node lat="58.94385792404642" lon="8.395841161720671" id="-24187">
		<tag k="name" v="Motjørn" />
		<tag k="natural" v="water" />
		<tag k="ssr:stedsnr" v="851971" />
	</node>
	<node lat="59.101702776069594" lon="8.621491672485945" id="-24189">
		<tag k="alt_name" v="Sandvatn" />
		<tag k="name" v="Sandvatnet" />
		<tag k="natural" v="water" />
		<tag k="ssr:stedsnr" v="852616" />
		<tag k="water" v="lake" />
	</node>
	<node lat="59.214141667833275" lon="8.58989444223563" id="-24199">
		<tag k="name" v="Jamtveitbekken" />
		<tag k="ssr:stedsnr" v="882922" />
		<tag k="waterway" v="stream" />
	</node>
	<node lat="58.959747219100834" lon="8.553302779994025" id="-24200">
		<tag k="name" v="Ørnetjønna" />
		<tag k="natural" v="water" />
		<tag k="ssr:stedsnr" v="883297" />
	</node>
	<node lat="58.94366388994348" lon="8.508949996860016" id="-24204">
		<tag k="name" v="Strandodden" />
		<tag k="natural" v="cape" />
		<tag k="ssr:stedsnr" v="883862" />
	</node>
	<node lat="58.89815278068329" lon="8.754919446844678" id="-24210">
		<tag k="name" v="Den runde tjønna" />
		<tag k="natural" v="water" />
		<tag k="ssr:stedsnr" v="885320" />
	</node>
	<node lat="58.87880555406789" lon="8.739650004146325" id="-24212">
		<tag k="name" v="Mjåvassfossen" />
		<tag k="natural" v="waterfall" />
		<tag k="ssr:stedsnr" v="885266" />
	</node>
	<node lat="58.95240234954749" lon="8.721110758747313" id="-24217">
		<tag k="name" v="Skartjønn" />
		<tag k="natural" v="water" />
		<tag k="ssr:stedsnr" v="885499" />
	</node>
	<node lat="59.09011944882736" lon="8.396300001868815" id="-24239">
		<tag k="name" v="Den lisle  Mjådalstjønna" />
		<tag k="natural" v="water" />
		<tag k="ssr:stedsnr" v="896506" />
	</node>
	<node lat="59.094324998686815" lon="8.42166944736267" id="-24240">
		<tag k="name" v="Hågstøylbekken" />
		<tag k="ssr:stedsnr" v="896507" />
		<tag k="waterway" v="stream" />
	</node>
	<node lat="59.198713885916085" lon="8.404655560579931" id="-24246">
		<tag k="name" v="Finnrobekken" />
		<tag k="ssr:stedsnr" v="897256" />
		<tag k="waterway" v="stream" />
	</node>
	<node lat="59.04569721963735" lon="8.62700832929413" id="-24249">
		<tag k="name" v="Helvete" />
		<tag k="place" v="locality" />
		<tag k="ssr:stedsnr" v="897557" />
	</node>
	<node lat="59.17866111086128" lon="8.49492777347972" id="-24252">
		<tag k="name" v="Sondtjønn" />
		<tag k="natural" v="water" />
		<tag k="ssr:stedsnr" v="897654" />
	</node>
	<node lat="59.1841277770467" lon="8.30864999242135" id="-24254">
		<tag k="name" v="Gryteosen" />
		<tag k="natural" v="bay" />
		<tag k="ssr:stedsnr" v="897809" />
	</node>
	<node lat="58.98959999870174" lon="8.545277773617382" id="-24257">
		<tag k="name" v="Nisserelva" />
		<tag k="ssr:stedsnr" v="911306" />
		<tag k="waterway" v="river" />
	</node>
	<node lat="58.94885000063698" lon="8.568008333052864" id="-24258">
		<tag k="alt_name" v="Gørrkilen" />
		<tag k="name" v="Gorkilen" />
		<tag k="natural" v="bay" />
		<tag k="ssr:stedsnr" v="911328" />
	</node>
	<node lat="58.94670278199448" lon="8.654500002063358" id="-24260">
		<tag k="name" v="Stigtjørn" />
		<tag k="natural" v="water" />
		<tag k="ssr:stedsnr" v="911331" />
	</node>
	<node lat="58.95275000156246" lon="8.721138892718248" id="-24261">
		<tag k="name" v="Skardtjørna" />
		<tag k="natural" v="water" />
		<tag k="ssr:stedsnr" v="911336" />
	</node>
	<node lat="58.94607499909948" lon="8.486305563237389" id="-24263">
		<tag k="name" v="Dal-ia" />
		<tag k="place" v="locality" />
		<tag k="ssr:stedsnr" v="911339" />
	</node>
	<node lat="58.89544964186978" lon="8.775338741814984" id="-24266">
		<tag k="alt_name" v="Skålitjørna" />
		<tag k="name" v="Skålitjønna" />
		<tag k="natural" v="water" />
		<tag k="ssr:stedsnr" v="911454" />
	</node>
	<node lat="58.89320277965833" lon="8.78055556276879" id="-24267">
		<tag k="alt_name" v="Øytjørn" />
		<tag k="name" v="Øytjønn" />
		<tag k="natural" v="water" />
		<tag k="ssr:stedsnr" v="911455" />
	</node>
	<node lat="58.89039444551293" lon="8.739441674614934" id="-24269">
		<tag k="name" v="Bråvatn" />
		<tag k="natural" v="water" />
		<tag k="ssr:stedsnr" v="911724" />
	</node>
	<node lat="58.944794441096036" lon="8.36524166292377" id="-24270">
		<tag k="alt_name" v="Tuvtjørn" />
		<tag k="name" v="Tuvtjønn" />
		<tag k="natural" v="water" />
		<tag k="ssr:stedsnr" v="911954" />
	</node>
	<node lat="59.16626388903702" lon="8.43860277123131" id="-24271">
		<tag k="alt_name" v="Borstadåna" />
		<tag k="name" v="Borstadåi" />
		<tag k="ssr:stedsnr" v="912107" />
		<tag k="waterway" v="river" />
	</node>
	<node lat="59.12667499725383" lon="8.40924999404051" id="-24273">
		<tag k="name" v="Hagbubekken" />
		<tag k="ssr:stedsnr" v="912136" />
		<tag k="waterway" v="stream" />
	</node>
	<node lat="59.244149997879994" lon="8.341638885470347" id="-24274">
		<tag k="alt_name" v="Øyvatn" />
		<tag k="name" v="Øyvatnet" />
		<tag k="natural" v="water" />
		<tag k="ssr:stedsnr" v="912012" />
		<tag k="water" v="lake" />
	</node>
	<node lat="59.00123333256463" lon="8.636794447394129" id="-24278">
		<tag k="alt_name" v="Husvatn" />
		<tag k="name" v="Husvatnet" />
		<tag k="natural" v="water" />
		<tag k="ssr:stedsnr" v="912502" />
	</node>
	<node lat="59.05242778197716" lon="8.497852775946088" id="-24280">
		<tag k="name" v="Åraksøya" />
		<tag k="place" v="island" />
		<tag k="ssr:stedsnr" v="912613" />
	</node>
	<node lat="59.15516944720041" lon="8.687836112806837" id="-24283">
		<tag k="alt_name" v="Buvassåna;Buvasselva" />
		<tag k="name" v="Buvasselvi" />
		<tag k="ssr:stedsnr" v="912726" />
		<tag k="waterway" v="river" />
	</node>
	<node lat="59.19509091943057" lon="8.645541282276877" id="-24287">
		<tag k="name" v="Fysliløkane" />
		<tag k="place" v="locality" />
		<tag k="ssr:stedsnr" v="912846" />
	</node>
	<node lat="59.0255305586792" lon="8.505699994759775" id="-24289">
		<tag k="name" v="Smeitoddane" />
		<tag k="natural" v="cape" />
		<tag k="ssr:stedsnr" v="944251" />
	</node>
	<node lat="58.94996111111088" lon="8.513211109010037" id="-24293">
		<tag k="name" v="Nidelva" />
		<tag k="ssr:stedsnr" v="944442" />
		<tag k="waterway" v="river" />
	</node>
	<node lat="59.00313611442623" lon="8.62673056160887" id="-24297">
		<tag k="name" v="Skiphomsundet" />
		<tag k="natural" v="strait" />
		<tag k="ssr:stedsnr" v="945108" />
	</node>
	<node lat="58.98249444075798" lon="8.696705552789478" id="-24306">
		<tag k="name" v="Halvfartjønna" />
		<tag k="natural" v="water" />
		<tag k="ssr:stedsnr" v="946015" />
	</node>
	<node lat="58.955063892614454" lon="8.66252499734081" id="-24309">
		<tag k="name" v="Hesslihylen" />
		<tag k="natural" v="water" />
		<tag k="ssr:stedsnr" v="946597" />
		<tag k="water" v="lake" />
	</node>
	<node lat="58.92021666968248" lon="8.66999165965714" id="-24312">
		<tag k="name" v="Onstadåna" />
		<tag k="ssr:stedsnr" v="946980" />
		<tag k="waterway" v="river" />
	</node>
	<node lat="58.95157222165568" lon="8.442588883899614" id="-24318">
		<tag k="name" v="Øvre Sondodden" />
		<tag k="place" v="locality" />
		<tag k="ssr:stedsnr" v="956254" />
	</node>
	<node lat="59.149527780272905" lon="8.410938887108824" id="-24322">
		<tag k="name" v="Mosurens kjelde" />
		<tag k="natural" v="spring" />
		<tag k="ssr:stedsnr" v="957206" />
	</node>
	<node lat="59.195791664114374" lon="8.349655553197973" id="-24324">
		<tag k="name" v="Tarjeistjønn" />
		<tag k="natural" v="water" />
		<tag k="ssr:stedsnr" v="957286" />
	</node>
	<node lat="59.205230554513676" lon="8.377177771671368" id="-24326">
		<tag k="name" v="Myrbubekken" />
		<tag k="ssr:stedsnr" v="957407" />
		<tag k="waterway" v="stream" />
	</node>
	<node lat="59.11563333551279" lon="8.434136116446355" id="-24335">
		<tag k="name" v="Vestre Dyplane" />
		<tag k="natural" v="water" />
		<tag k="ssr:stedsnr" v="957940" />
	</node>
	<node lat="59.24792222315211" lon="8.45853333082557" id="-24340">
		<tag k="name" v="Horgevika" />
		<tag k="natural" v="bay" />
		<tag k="ssr:stedsnr" v="958234" />
	</node>
	<node lat="59.16833333007815" lon="8.654300006530532" id="-24342">
		<tag k="name" v="Skrubbøya" />
		<tag k="natural" v="cape" />
		<tag k="ssr:stedsnr" v="958616" />
	</node>
	<node lat="58.972613891937065" lon="8.649747218999263" id="-24359">
		<tag k="alt_name" v="Litlevøylen" />
		<tag k="name" v="Lisle Vøyl" />
		<tag k="natural" v="water" />
		<tag k="ssr:stedsnr" v="376" />
	</node>
	<node lat="58.894188891241896" lon="8.667280557041687" id="-24360">
		<tag k="alt_name" v="Sautjørn" />
		<tag k="name" v="Sautjønn" />
		<tag k="natural" v="water" />
		<tag k="ssr:stedsnr" v="473" />
	</node>
	<node lat="58.92075833267491" lon="8.327613885816454" id="-24362">
		<tag k="alt_name" v="Litjørna" />
		<tag k="name" v="Litjønn" />
		<tag k="natural" v="water" />
		<tag k="ssr:stedsnr" v="980" />
	</node>
	<node lat="58.96078333309648" lon="8.33721667243203" id="-24367">
		<tag k="name" v="Drangstveitkilen" />
		<tag k="natural" v="bay" />
		<tag k="ssr:stedsnr" v="935" />
	</node>
	<node lat="59.08250000217016" lon="8.437352777013514" id="-24369">
		<tag k="alt_name" v="Djuptjørn" />
		<tag k="name" v="Djuptjønn" />
		<tag k="natural" v="water" />
		<tag k="ssr:stedsnr" v="1225" />
	</node>
	<node lat="58.95326111119758" lon="8.582063896267906" id="-24371">
		<tag k="alt_name" v="Gryttjørna" />
		<tag k="name" v="Trytetjønna" />
		<tag k="natural" v="water" />
		<tag k="ssr:stedsnr" v="1330" />
	</node>
	<node lat="59.0361055527769" lon="8.501330562832056" id="-24372">
		<tag k="alt_name" v="Nussevika" />
		<tag k="name" v="Nussvika" />
		<tag k="natural" v="bay" />
		<tag k="ssr:stedsnr" v="1521" />
	</node>
	<node lat="59.033211115217426" lon="8.395536114049223" id="-24375">
		<tag k="alt_name" v="Grunntjørn" />
		<tag k="name" v="Grunntjønn" />
		<tag k="natural" v="water" />
		<tag k="ssr:stedsnr" v="1247" />
	</node>
	<node lat="58.90038333338009" lon="8.795263886454697" id="-24378">
		<tag k="alt_name" v="Kaldstadtjørna" />
		<tag k="name" v="Kaldstadtjønna" />
		<tag k="natural" v="water" />
		<tag k="ssr:stedsnr" v="1468" />
	</node>
	<node lat="59.024888891585626" lon="8.505622229565443" id="-24379">
		<tag k="name" v="Gunnarsøya" />
		<tag k="place" v="island" />
		<tag k="ssr:stedsnr" v="1541" />
	</node>
	<node lat="59.16610278051162" lon="8.499708340433424" id="-24380">
		<tag k="alt_name" v="Jasbergodden" />
		<tag k="name" v="Hjasbergodden" />
		<tag k="natural" v="cape" />
		<tag k="ssr:stedsnr" v="2764" />
	</node>
	<node lat="59.141124999353416" lon="8.56357500861563" id="-24384">
		<tag k="alt_name" v="Stemtjørn, litle" />
		<tag k="name" v="Lislestemtjønn" />
		<tag k="natural" v="water" />
		<tag k="ssr:stedsnr" v="1748" />
	</node>
	<node lat="59.155297223861055" lon="8.469597221043376" id="-24385">
		<tag k="name" v="Bomodden" />
		<tag k="natural" v="cape" />
		<tag k="ssr:stedsnr" v="1756" />
	</node>
	<node lat="59.2155583316629" lon="8.331469438093267" id="-24393">
		<tag k="alt_name" v="Strondtjørn" />
		<tag k="name" v="Stråndtjønn" />
		<tag k="natural" v="water" />
		<tag k="ssr:stedsnr" v="2050" />
	</node>
	<node lat="59.11564722393644" lon="8.478163881622356" id="-24394">
		<tag k="name" v="Lomsholmen" />
		<tag k="place" v="islet" />
		<tag k="ssr:stedsnr" v="229077" />
	</node>
	<node lat="59.112505559211876" lon="8.474402776277612" id="-24395">
		<tag k="name" v="Sandvikland" />
		<tag k="natural" v="beach" />
		<tag k="ssr:stedsnr" v="229078" />
	</node>
	<node lat="59.058802781757805" lon="8.671566660821963" id="-24400">
		<tag k="alt_name" v="Rapstøltjørna" />
		<tag k="name" v="Rapstøyltjønna" />
		<tag k="natural" v="water" />
		<tag k="ssr:stedsnr" v="2562" />
	</node>
	<node lat="59.05463611470573" lon="8.612836108171452" id="-24401">
		<tag k="alt_name" v="Tveit Øverlandsvatn" />
		<tag k="name" v="Tveit-Øverlandsvatnet" />
		<tag k="natural" v="water" />
		<tag k="ssr:stedsnr" v="2565" />
		<tag k="water" v="lake" />
	</node>
	<node lat="59.10280833385626" lon="8.56566388414204" id="-24405">
		<tag k="alt_name" v="Nuttjørn" />
		<tag k="name" v="Nuttjønn" />
		<tag k="natural" v="water" />
		<tag k="ssr:stedsnr" v="2640" />
	</node>
	<node lat="59.170958333574596" lon="8.478205558442625" id="-24406">
		<tag k="name" v="Kyraugodden" />
		<tag k="natural" v="cape" />
		<tag k="ssr:stedsnr" v="2787" />
	</node>
	<node lat="59.10881666884703" lon="8.721869439515835" id="-24408">
		<tag k="name" v="Kaklomsvatnet" />
		<tag k="natural" v="water" />
		<tag k="ssr:stedsnr" v="2685" />
	</node>
	<node lat="59.11078888556015" lon="8.585394446984637" id="-24415">
		<tag k="name" v="Askottjønna" />
		<tag k="natural" v="water" />
		<tag k="ssr:stedsnr" v="32446" />
	</node>
	<node lat="58.98191666941872" lon="8.507499995442569" id="-24434">
		<tag k="name" v="Svarthøl" />
		<tag k="place" v="locality" />
		<tag k="ssr:stedsnr" v="33406" />
	</node>
	<node lat="58.9391416652974" lon="8.49757500246051" id="-24437">
		<tag k="name" v="Fyrisåna" />
		<tag k="ssr:stedsnr" v="33829" />
		<tag k="waterway" v="river" />
	</node>
	<node lat="59.00887777458334" lon="8.555574992150879" id="-24439">
		<tag k="name" v="Djuphyl" />
		<tag k="natural" v="water" />
		<tag k="ssr:stedsnr" v="33848" />
		<tag k="water" v="lake" />
	</node>
	<node lat="59.05898610822931" lon="8.506633339879812" id="-24445">
		<tag k="name" v="Skuta" />
		<tag k="natural" v="beach" />
		<tag k="ssr:stedsnr" v="33941" />
	</node>
	<node lat="58.979466669570314" lon="8.71198056103125" id="-24464">
		<tag k="name" v="Olavstjønn" />
		<tag k="natural" v="water" />
		<tag k="ssr:stedsnr" v="35023" />
	</node>
	<node lat="58.876261113656305" lon="8.727591664631612" id="-24470">
		<tag k="name" v="Pylsevika" />
		<tag k="natural" v="bay" />
		<tag k="ssr:stedsnr" v="35322" />
	</node>
	<node lat="58.92427777660656" lon="8.646397221353952" id="-24472">
		<tag k="name" v="Onstadelva" />
		<tag k="ssr:stedsnr" v="35438" />
		<tag k="waterway" v="river" />
	</node>
	<node lat="58.859069441477615" lon="8.743797216070053" id="-24473">
		<tag k="name" v="Trælvassbekken" />
		<tag k="ssr:stedsnr" v="35253" />
		<tag k="waterway" v="stream" />
	</node>
	<node lat="58.990458330582705" lon="8.468202783631146" id="-24482">
		<tag k="name" v="Pylsevika" />
		<tag k="place" v="locality" />
		<tag k="ssr:stedsnr" v="45056" />
	</node>
	<node lat="59.02195833470768" lon="8.45361388606575" id="-24485">
		<tag k="name" v="Svartufsbekken" />
		<tag k="ssr:stedsnr" v="46232" />
		<tag k="waterway" v="stream" />
	</node>
	<node lat="58.94841666417976" lon="8.379572226777" id="-24488">
		<tag k="name" v="Reinfossia" />
		<tag k="place" v="locality" />
		<tag k="ssr:stedsnr" v="45941" />
	</node>
	<node lat="58.94654722237164" lon="8.48609722434944" id="-24491">
		<tag k="name" v="Dalsevja" />
		<tag k="natural" v="water" />
		<tag k="ssr:stedsnr" v="46418" />
		<tag k="water" v="lake" />
	</node>
	<node lat="59.15613055662539" lon="8.46488056417741" id="-24497">
		<tag k="name" v="Holer" />
		<tag k="natural" v="bay" />
		<tag k="ssr:stedsnr" v="47010" />
	</node>
	<node lat="59.156911112744986" lon="8.449344439396246" id="-24498">
		<tag k="name" v="Borstadåna" />
		<tag k="ssr:stedsnr" v="47034" />
		<tag k="waterway" v="river" />
	</node>
	<node lat="59.23037222052768" lon="8.41284999854799" id="-24500">
		<tag k="name" v="Tjønnstøylfossen" />
		<tag k="natural" v="waterfall" />
		<tag k="ssr:stedsnr" v="47137" />
	</node>
	<node lat="59.03061944685448" lon="8.652783325296442" id="-24502">
		<tag k="name" v="Bjønntjønnfossen" />
		<tag k="natural" v="waterfall" />
		<tag k="ssr:stedsnr" v="47100" />
	</node>
</osm>
