<?xml version="1.0" encoding="UTF-8"?>
<osm version="0.6" generator="osmapis">
	<node lat="58.92988610857722" lon="8.55521389613293" id="-24173">
		<tag k="name" v="Heftemyrane" />
		<tag k="natural" v="wetland" />
		<tag k="ssr:stedsnr" v="424" />
	</node>
	<node lat="59.184763887110684" lon="8.3777083373484" id="-24189">
		<tag k="name" v="Ortjønnhommen" />
		<tag k="place" v="locality" />
		<tag k="ssr:stedsnr" v="229821" />
	</node>
	<node lat="59.05482221957465" lon="8.45510555848367" id="-24197">
		<tag k="name" v="Svivsvoa" />
		<tag k="place" v="locality" />
		<tag k="ssr:stedsnr" v="229841" />
	</node>
	<node lat="59.157463890808" lon="8.408024999913085" id="-24199">
		<tag k="name" v="Furumoen" />
		<tag k="place" v="locality" />
		<tag k="ssr:stedsnr" v="229866" />
	</node>
	<node lat="59.16966388755523" lon="8.581186113676052" id="-24225">
		<tag k="name" v="Fitjehøtten" />
		<tag k="place" v="locality" />
		<tag k="ssr:stedsnr" v="32976" />
	</node>
	<node lat="58.91218333643866" lon="8.657030553615135" id="-24235">
		<tag k="name" v="Hattemyra" />
		<tag k="natural" v="wetland" />
		<tag k="ssr:stedsnr" v="35383" />
	</node>
	<node lat="58.971711108394494" lon="8.609583340445965" id="-24238">
		<tag k="name" v="Margitsmyrholet" />
		<tag k="natural" v="wetland" />
		<tag k="ssr:stedsnr" v="35921" />
	</node>
	<node lat="58.87963888544418" lon="8.65728055659551" id="-24239">
		<tag k="name" v="Stormyrane" />
		<tag k="natural" v="wetland" />
		<tag k="ssr:stedsnr" v="36111" />
	</node>
	<node lat="58.942794448159404" lon="8.726575001630609" id="-24240">
		<tag k="name" v="Bjørkkjerra" />
		<tag k="natural" v="wetland" />
		<tag k="ssr:stedsnr" v="36918" />
	</node>
	<node lat="58.94179444476316" lon="8.354544448010266" id="-24241">
		<tag k="name" v="Steinmyra" />
		<tag k="natural" v="wetland" />
		<tag k="ssr:stedsnr" v="45928" />
	</node>
	<node lat="58.96509722094979" lon="8.493241659419262" id="-24243">
		<tag k="name" v="Spangskjerr" />
		<tag k="natural" v="wetland" />
		<tag k="ssr:stedsnr" v="46006" />
	</node>
	<node lat="59.03228055976503" lon="8.696749994834127" id="-24254">
		<tag k="name" v="Hellerslåtta" />
		<tag k="natural" v="wetland" />
		<tag k="ssr:stedsnr" v="47213" />
	</node>
	<node lat="59.1539444451293" lon="8.414211104735498" id="-24256">
		<tag k="name" v="Holmane" />
		<tag k="place" v="locality" />
		<tag k="ssr:stedsnr" v="47221" />
	</node>
	<node lat="59.04461667113269" lon="8.455261103609601" id="-24258">
		<tag k="name" v="Dalsvåune" />
		<tag k="place" v="locality" />
		<tag k="ssr:stedsnr" v="47103" />
	</node>
	<node lat="59.03032222059907" lon="8.644647217377312" id="-24259">
		<tag k="name" v="Groskjarr" />
		<tag k="natural" v="wetland" />
		<tag k="ssr:stedsnr" v="47105" />
	</node>
	<node lat="59.002400004384604" lon="8.419769449861354" id="-24262">
		<tag k="name" v="Helleslåtta" />
		<tag k="natural" v="wetland" />
		<tag k="ssr:stedsnr" v="47319" />
	</node>
	<node lat="59.00329722091862" lon="8.423041663091903" id="-24263">
		<tag k="name" v="Viken" />
		<tag k="natural" v="wetland" />
		<tag k="ssr:stedsnr" v="47323" />
	</node>
	<node lat="59.13524722327821" lon="8.387769449708303" id="-24271">
		<tag k="name" v="Kasine" />
		<tag k="place" v="locality" />
		<tag k="ssr:stedsnr" v="47727" />
	</node>
	<node lat="58.91387500008836" lon="8.759319437664889" id="-24351">
		<tag k="name" v="Fjellmyra" />
		<tag k="natural" v="wetland" />
		<tag k="ssr:stedsnr" v="244520" />
	</node>
	<node lat="59.140602745806234" lon="8.661574762672391" id="-24354">
		<tag k="name" v="Storhomslåtten" />
		<tag k="natural" v="wetland" />
		<tag k="ssr:stedsnr" v="244759" />
	</node>
	<node lat="59.161688886877236" lon="8.578241669901594" id="-24372">
		<tag k="name" v="Grasmyrlia" />
		<tag k="place" v="locality" />
		<tag k="ssr:stedsnr" v="93396" />
	</node>
	<node lat="58.972986107605045" lon="8.506616672594536" id="-24377">
		<tag k="name" v="Floghommarmyrane" />
		<tag k="natural" v="wetland" />
		<tag k="ssr:stedsnr" v="94474" />
	</node>
	<node lat="59.01115000190715" lon="8.607658338433263" id="-24381">
		<tag k="name" v="Steinsmyrsteinen" />
		<tag k="natural" v="stone" />
		<tag k="ssr:stedsnr" v="94824" />
	</node>
	<node lat="58.94321944434721" lon="8.514419446300684" id="-24382">
		<tag k="name" v="Rølende" />
		<tag k="place" v="locality" />
		<tag k="ssr:stedsnr" v="94845" />
	</node>
	<node lat="59.03391388945589" lon="8.569908332336315" id="-24385">
		<tag k="name" v="Huskleivslåtta" />
		<tag k="natural" v="wetland" />
		<tag k="ssr:stedsnr" v="95113" />
	</node>
	<node lat="58.9988694438659" lon="8.64187221392796" id="-24388">
		<tag k="name" v="Lonvassundet" />
		<tag k="place" v="locality" />
		<tag k="ssr:stedsnr" v="95169" />
	</node>
	<node lat="59.04014721780597" lon="8.512980557731533" id="-24389">
		<tag k="name" v="Bakåker" />
		<tag k="place" v="locality" />
		<tag k="ssr:stedsnr" v="95531" />
	</node>
	<node lat="58.87216111329063" lon="8.719422229409725" id="-24390">
		<tag k="name" v="Ørnefjellmyra" />
		<tag k="natural" v="wetland" />
		<tag k="ssr:stedsnr" v="96275" />
	</node>
	<node lat="58.92326944062164" lon="8.78598333538068" id="-24395">
		<tag k="name" v="Linmyr" />
		<tag k="natural" v="wetland" />
		<tag k="ssr:stedsnr" v="97065" />
	</node>
	<node lat="59.07165277799741" lon="8.407383339677992" id="-24412">
		<tag k="name" v="Gyrislåttene" />
		<tag k="natural" v="wetland" />
		<tag k="ssr:stedsnr" v="107434" />
	</node>
	<node lat="58.942266664192154" lon="8.455202770392889" id="-24413">
		<tag k="name" v="Ytrehei" />
		<tag k="place" v="locality" />
		<tag k="ssr:stedsnr" v="107509" />
	</node>
	<node lat="58.91759999974926" lon="8.43054167342955" id="-24415">
		<tag k="name" v="Dugnasmyra" />
		<tag k="natural" v="wetland" />
		<tag k="ssr:stedsnr" v="107707" />
	</node>
	<node lat="59.035605558742844" lon="8.429972218837799" id="-24418">
		<tag k="historic" v="shieling" />
		<tag k="name" v="Sønjanstøylen" />
		<tag k="place" v="locality" />
		<tag k="ssr:stedsnr" v="108115" />
	</node>
	<node lat="59.17744166343575" lon="8.44735278371788" id="-24423">
		<tag k="name" v="Heftemyra" />
		<tag k="natural" v="wetland" />
		<tag k="ssr:stedsnr" v="108509" />
	</node>
	<node lat="59.018694442684456" lon="8.720097228087516" id="-24425">
		<tag k="name" v="Slåtta under nuten" />
		<tag k="natural" v="wetland" />
		<tag k="ssr:stedsnr" v="108288" />
	</node>
	<node lat="59.1275333305158" lon="8.41005278139493" id="-24429">
		<tag k="name" v="Lauvbumyra" />
		<tag k="natural" v="wetland" />
		<tag k="ssr:stedsnr" v="108703" />
	</node>
	<node lat="58.985597220040695" lon="8.570800000363354" id="-24471">
		<tag k="name" v="Ikornmyra" />
		<tag k="natural" v="wetland" />
		<tag k="ssr:stedsnr" v="155303" />
	</node>
	<node lat="59.02119722076819" lon="8.55147222585774" id="-24474">
		<tag k="name" v="Raumyr" />
		<tag k="natural" v="wetland" />
		<tag k="ssr:stedsnr" v="155997" />
	</node>
	<node lat="58.88888610813013" lon="8.726380551001636" id="-24478">
		<tag k="name" v="Knutshol" />
		<tag k="natural" v="wetland" />
		<tag k="ssr:stedsnr" v="156369" />
	</node>
	<node lat="58.88225833013308" lon="8.727388882559806" id="-24484">
		<tag k="name" v="Bergslåtta" />
		<tag k="natural" v="wetland" />
		<tag k="ssr:stedsnr" v="157217" />
	</node>
	<node lat="58.95789722493715" lon="8.660322219230169" id="-24488">
		<tag k="name" v="Hesslimyrane" />
		<tag k="natural" v="wetland" />
		<tag k="ssr:stedsnr" v="157603" />
	</node>
	<node lat="58.88466111415954" lon="8.711044445672105" id="-24490">
		<tag k="name" v="Hellerkjerra" />
		<tag k="natural" v="wetland" />
		<tag k="ssr:stedsnr" v="157811" />
	</node>
	<node lat="58.975072217985996" lon="8.482283337567782" id="-24492">
		<tag k="name" v="Raudåsteane" />
		<tag k="natural" v="wetland" />
		<tag k="ssr:stedsnr" v="159063" />
	</node>
	<node lat="58.97987500086884" lon="8.452788896702527" id="-24494">
		<tag k="name" v="Nedre Kormyra" />
		<tag k="natural" v="wetland" />
		<tag k="ssr:stedsnr" v="159071" />
	</node>
	<node lat="59.10521666294583" lon="8.474069447671775" id="-24503">
		<tag k="name" v="Lisle Løyningsmyr" />
		<tag k="natural" v="wetland" />
		<tag k="ssr:stedsnr" v="168009" />
	</node>
	<node lat="59.01787221991047" lon="8.60888610655385" id="-24505">
		<tag k="name" v="Stebuskjerra" />
		<tag k="natural" v="wetland" />
		<tag k="ssr:stedsnr" v="168166" />
	</node>
	<node lat="59.021436109718536" lon="8.401994437516173" id="-24506">
		<tag k="name" v="Skulhomberga" />
		<tag k="place" v="locality" />
		<tag k="ssr:stedsnr" v="168170" />
	</node>
	<node lat="59.159644440270114" lon="8.39881665859427" id="-24516">
		<tag k="name" v="Haugane" />
		<tag k="place" v="locality" />
		<tag k="ssr:stedsnr" v="168807" />
	</node>
	<node lat="59.16669722427339" lon="8.642136106592266" id="-24519">
		<tag k="name" v="Tjovhommen" />
		<tag k="place" v="locality" />
		<tag k="ssr:stedsnr" v="169584" />
	</node>
	<node lat="58.92149999974256" lon="8.369041668081222" id="-24522">
		<tag k="name" v="Fuglemyr" />
		<tag k="natural" v="wetland" />
		<tag k="ssr:stedsnr" v="169966" />
	</node>
	<node lat="58.90790555389898" lon="8.63475000076771" id="-24534">
		<tag k="name" v="Langmyr" />
		<tag k="natural" v="wetland" />
		<tag k="ssr:stedsnr" v="183445" />
	</node>
	<node lat="58.91156944136313" lon="8.737430549554102" id="-24535">
		<tag k="alt_name" v="Eilevsmyra" />
		<tag k="name" v="Eilevsmyr" />
		<tag k="natural" v="wetland" />
		<tag k="ssr:stedsnr" v="183447" />
	</node>
	<node lat="58.85318610819736" lon="8.748211114020728" id="-24544">
		<tag k="name" v="Biskopmyra" />
		<tag k="natural" v="wetland" />
		<tag k="ssr:stedsnr" v="183735" />
	</node>
	<node lat="59.163347221708925" lon="8.638302780331596" id="-24545">
		<tag k="alt_name" v="Nordmannmyrane" />
		<tag k="name" v="Nordmannsmyrane" />
		<tag k="natural" v="wetland" />
		<tag k="ssr:stedsnr" v="183786" />
	</node>
	<node lat="59.08959166529302" lon="8.579341667032573" id="-24569">
		<tag k="name" v="Sandvikslåtten" />
		<tag k="natural" v="wetland" />
		<tag k="ssr:stedsnr" v="215917" />
	</node>
	<node lat="58.99401944219162" lon="8.575472220366219" id="-24581">
		<tag k="name" v="Rupeberga" />
		<tag k="place" v="locality" />
		<tag k="ssr:stedsnr" v="216723" />
	</node>
	<node lat="58.97509999657936" lon="8.622208326313599" id="-24587">
		<tag k="name" v="Moltekartslåtta" />
		<tag k="natural" v="wetland" />
		<tag k="ssr:stedsnr" v="217283" />
	</node>
	<node lat="58.8932527749502" lon="8.703700005404741" id="-24592">
		<tag k="name" v="Ringstea" />
		<tag k="natural" v="wetland" />
		<tag k="ssr:stedsnr" v="218089" />
	</node>
	<node lat="58.882552776668675" lon="8.79313055191948" id="-24599">
		<tag k="name" v="Øytjønndekkane" />
		<tag k="natural" v="wetland" />
		<tag k="ssr:stedsnr" v="218926" />
	</node>
	<node lat="59.12450277564672" lon="8.34345000757021" id="-24603">
		<tag k="name" v="Ingerhommen" />
		<tag k="place" v="locality" />
		<tag k="ssr:stedsnr" v="227538" />
	</node>
	<node lat="59.153397225791416" lon="8.380516674731986" id="-24605">
		<tag k="name" v="Såvisberg" />
		<tag k="place" v="locality" />
		<tag k="ssr:stedsnr" v="227583" />
	</node>
	<node lat="58.934644440640604" lon="8.370094448810514" id="-24606">
		<tag k="name" v="Rustemyr" />
		<tag k="place" v="locality" />
		<tag k="ssr:stedsnr" v="227799" />
	</node>
	<node lat="59.05848333031215" lon="8.437161115747188" id="-24613">
		<tag k="name" v="Laurdagsslåtta" />
		<tag k="place" v="locality" />
		<tag k="ssr:stedsnr" v="228492" />
	</node>
	<node lat="58.92167499653151" lon="8.453722218551617" id="-24614">
		<tag k="name" v="Storemyr" />
		<tag k="natural" v="wetland" />
		<tag k="ssr:stedsnr" v="228639" />
	</node>
	<node lat="59.22292222356904" lon="8.438955562819563" id="-24618">
		<tag k="name" v="Lindefjellslåttune" />
		<tag k="natural" v="wetland" />
		<tag k="ssr:stedsnr" v="229194" />
	</node>
	<node lat="59.12929444796856" lon="8.455494442202713" id="-24621">
		<tag k="name" v="Dølhus" />
		<tag k="place" v="locality" />
		<tag k="ssr:stedsnr" v="229581" />
	</node>
	<node lat="59.16686111259298" lon="8.671527780325478" id="-24624">
		<tag k="name" v="Saltjønnheia" />
		<tag k="natural" v="wetland" />
		<tag k="ssr:stedsnr" v="229607" />
	</node>
	<node lat="59.14180278012103" lon="8.467244439401469" id="-24625">
		<tag k="name" v="Kroknessteinen" />
		<tag k="natural" v="stone" />
		<tag k="ssr:stedsnr" v="229608" />
	</node>
	<node lat="58.919736109040024" lon="8.347169436698382" id="-24629">
		<tag k="name" v="Mannfallmyrane" />
		<tag k="natural" v="wetland" />
		<tag k="ssr:stedsnr" v="229985" />
	</node>
	<node lat="59.173811115560255" lon="8.438619443512284" id="-24632">
		<tag k="name" v="Badstogdalen" />
		<tag k="place" v="locality" />
		<tag k="ssr:stedsnr" v="229999" />
	</node>
	<node lat="58.9745277753365" lon="8.575888894311584" id="-24677">
		<tag k="name" v="Svartvassheia" />
		<tag k="place" v="locality" />
		<tag k="ssr:stedsnr" v="458371" />
	</node>
	<node lat="58.95567222560258" lon="8.50162222925931" id="-24679">
		<tag k="name" v="Lomreirskro" />
		<tag k="natural" v="wetland" />
		<tag k="ssr:stedsnr" v="458456" />
	</node>
	<node lat="58.99281944700916" lon="8.56744722567657" id="-24683">
		<tag k="name" v="Haugbekkheia" />
		<tag k="place" v="locality" />
		<tag k="ssr:stedsnr" v="458776" />
	</node>
	<node lat="58.972344446149705" lon="8.60124165893382" id="-24688">
		<tag k="name" v="Dyplemyrkollane" />
		<tag k="place" v="locality" />
		<tag k="ssr:stedsnr" v="458757" />
	</node>
	<node lat="58.93073888971898" lon="8.534672221919234" id="-24689">
		<tag k="name" v="Kringlemyr" />
		<tag k="natural" v="wetland" />
		<tag k="ssr:stedsnr" v="458880" />
	</node>
	<node lat="58.995072221029744" lon="8.632972215972742" id="-24692">
		<tag k="name" v="Helleren" />
		<tag k="natural" v="stone" />
		<tag k="ssr:stedsnr" v="459200" />
	</node>
	<node lat="59.04081944156198" lon="8.574386103988246" id="-24702">
		<tag k="name" v="Rjupa" />
		<tag k="natural" v="stone" />
		<tag k="ssr:stedsnr" v="459524" />
	</node>
	<node lat="59.03891944744372" lon="8.520586118246346" id="-24710">
		<tag k="name" v="Rusli" />
		<tag k="place" v="locality" />
		<tag k="ssr:stedsnr" v="276570" />
	</node>
	<node lat="59.03779444004739" lon="8.51467777655884" id="-24711">
		<tag k="name" v="Gamle Søgard" />
		<tag k="place" v="locality" />
		<tag k="ssr:stedsnr" v="276574" />
	</node>
	<node lat="58.98175555759725" lon="8.557041661089729" id="-24717">
		<tag k="name" v="Ikorndalsmyrane" />
		<tag k="natural" v="wetland" />
		<tag k="ssr:stedsnr" v="276783" />
	</node>
	<node lat="59.026091663748154" lon="8.550661102683469" id="-24722">
		<tag k="name" v="Hestemyr" />
		<tag k="natural" v="wetland" />
		<tag k="ssr:stedsnr" v="459813" />
	</node>
	<node lat="59.028330556229925" lon="8.541286112646981" id="-24723">
		<tag k="name" v="Gjermundsplass" />
		<tag k="place" v="locality" />
		<tag k="ssr:stedsnr" v="459814" />
	</node>
	<node lat="58.92369444156882" lon="8.523202784375986" id="-24725">
		<tag k="historic" v="shieling" />
		<tag k="name" v="Knivstekollen" />
		<tag k="place" v="locality" />
		<tag k="ssr:stedsnr" v="277328" />
	</node>
	<node lat="58.9660472248071" lon="8.665566673851268" id="-24729">
		<tag k="name" v="Gråmannshusholtet" />
		<tag k="place" v="locality" />
		<tag k="ssr:stedsnr" v="460047" />
	</node>
	<node lat="58.89811666727957" lon="8.714897229342547" id="-24730">
		<tag k="name" v="Fellsbondstea" />
		<tag k="natural" v="wetland" />
		<tag k="ssr:stedsnr" v="460048" />
	</node>
	<node lat="58.86448333612638" lon="8.67950277465664" id="-24736">
		<tag k="name" v="Langemyr" />
		<tag k="natural" v="wetland" />
		<tag k="ssr:stedsnr" v="460164" />
	</node>
	<node lat="58.87014722431303" lon="8.666913883160285" id="-24737">
		<tag k="name" v="Katteråsmyrane" />
		<tag k="natural" v="wetland" />
		<tag k="ssr:stedsnr" v="460172" />
	</node>
	<node lat="58.88246389013653" lon="8.66696111553846" id="-24739">
		<tag k="name" v="Bjørkholslåttune" />
		<tag k="natural" v="wetland" />
		<tag k="ssr:stedsnr" v="460176" />
	</node>
	<node lat="58.908186110612974" lon="8.774808324740604" id="-24741">
		<tag k="name" v="Håvårskjerr" />
		<tag k="natural" v="wetland" />
		<tag k="ssr:stedsnr" v="461067" />
	</node>
	<node lat="58.87618055551948" lon="8.753769441309947" id="-24742">
		<tag k="name" v="Mossvegkilen" />
		<tag k="natural" v="wetland" />
		<tag k="ssr:stedsnr" v="460338" />
	</node>
	<node lat="58.957341665594896" lon="8.702841660093162" id="-24747">
		<tag k="name" v="Traneskogen" />
		<tag k="place" v="locality" />
		<tag k="ssr:stedsnr" v="460549" />
	</node>
	<node lat="58.95433055296614" lon="8.624813889033252" id="-24748">
		<tag k="name" v="Hagbakkane" />
		<tag k="place" v="locality" />
		<tag k="ssr:stedsnr" v="460645" />
	</node>
	<node lat="58.95153055542799" lon="8.661194436031755" id="-24749">
		<tag k="name" v="Almlisteane" />
		<tag k="natural" v="wetland" />
		<tag k="ssr:stedsnr" v="460651" />
	</node>
	<node lat="58.88946666479177" lon="8.654080552041433" id="-24752">
		<tag k="name" v="Slettebergmyra" />
		<tag k="natural" v="wetland" />
		<tag k="ssr:stedsnr" v="460853" />
	</node>
	<node lat="58.89542778222979" lon="8.65875833911221" id="-24754">
		<tag k="name" v="Ljågrasmyra" />
		<tag k="natural" v="wetland" />
		<tag k="ssr:stedsnr" v="460945" />
	</node>
	<node lat="59.000855553332855" lon="8.426955547752979" id="-24763">
		<tag k="name" v="Steane" />
		<tag k="natural" v="wetland" />
		<tag k="ssr:stedsnr" v="289315" />
	</node>
	<node lat="58.91424444651989" lon="8.417241658324233" id="-24766">
		<tag k="name" v="Bjørkeholtet" />
		<tag k="natural" v="wetland" />
		<tag k="ssr:stedsnr" v="289805" />
	</node>
	<node lat="59.16045833290296" lon="8.466744447793817" id="-24768">
		<tag k="name" v="Skrikrud" />
		<tag k="place" v="locality" />
		<tag k="ssr:stedsnr" v="290035" />
	</node>
	<node lat="59.04945277853844" lon="8.45622778473774" id="-24769">
		<tag k="name" v="Åmellom" />
		<tag k="place" v="locality" />
		<tag k="ssr:stedsnr" v="290111" />
	</node>
	<node lat="59.17280833582639" lon="8.655891668214416" id="-24776">
		<tag k="name" v="Skarkeslåttene" />
		<tag k="natural" v="wetland" />
		<tag k="ssr:stedsnr" v="290526" />
	</node>
	<node lat="58.97756388746626" lon="8.598074998485135" id="-24791">
		<tag k="name" v="Dyplemyr" />
		<tag k="natural" v="wetland" />
		<tag k="ssr:stedsnr" v="304372" />
	</node>
	<node lat="59.03381111350153" lon="8.687500007115828" id="-24817">
		<tag k="name" v="Kaddemyra" />
		<tag k="natural" v="wetland" />
		<tag k="ssr:stedsnr" v="471222" />
	</node>
	<node lat="58.90757777395423" lon="8.457599993190577" id="-24828">
		<tag k="name" v="Moslåttheia" />
		<tag k="place" v="locality" />
		<tag k="ssr:stedsnr" v="471529" />
	</node>
	<node lat="59.156913891996155" lon="8.41484166863993" id="-24845">
		<tag k="name" v="Storemyr" />
		<tag k="natural" v="wetland" />
		<tag k="ssr:stedsnr" v="471787" />
	</node>
	<node lat="59.02197500037387" lon="8.603411102532647" id="-24847">
		<tag k="name" v="Bjønnåskjerra" />
		<tag k="natural" v="wetland" />
		<tag k="ssr:stedsnr" v="337149" />
	</node>
	<node lat="58.8973222222172" lon="8.463077771267281" id="-24857">
		<tag k="name" v="Dei vie myrane" />
		<tag k="natural" v="wetland" />
		<tag k="ssr:stedsnr" v="471846" />
	</node>
	<node lat="58.916102777208756" lon="8.78133611029985" id="-24867">
		<tag k="name" v="Høgmyr" />
		<tag k="natural" v="wetland" />
		<tag k="ssr:stedsnr" v="339129" />
	</node>
	<node lat="59.256847225495086" lon="8.40275555516367" id="-24869">
		<tag k="name" v="Landtakmyrane" />
		<tag k="natural" v="wetland" />
		<tag k="ssr:stedsnr" v="472135" />
	</node>
	<node lat="58.90350555466267" lon="8.778783330444753" id="-24879">
		<tag k="name" v="Høymyr" />
		<tag k="natural" v="wetland" />
		<tag k="ssr:stedsnr" v="339642" />
	</node>
	<node lat="58.898361109617404" lon="8.78441389737235" id="-24882">
		<tag k="name" v="Knutsgrunn" />
		<tag k="natural" v="wetland" />
		<tag k="ssr:stedsnr" v="339651" />
	</node>
	<node lat="59.1445444448406" lon="8.417452770865443" id="-24884">
		<tag k="name" v="Kloppmyra" />
		<tag k="natural" v="wetland" />
		<tag k="ssr:stedsnr" v="472196" />
	</node>
	<node lat="59.16048610920185" lon="8.413674998936644" id="-24894">
		<tag k="name" v="Askedalane" />
		<tag k="place" v="locality" />
		<tag k="ssr:stedsnr" v="472800" />
	</node>
	<node lat="58.958152773410816" lon="8.487519448254869" id="-24904">
		<tag k="name" v="Hellestadmyra" />
		<tag k="natural" v="wetland" />
		<tag k="ssr:stedsnr" v="349002" />
	</node>
	<node lat="58.95048055233037" lon="8.454800008627076" id="-24910">
		<tag k="name" v="Sondsmyr" />
		<tag k="natural" v="wetland" />
		<tag k="ssr:stedsnr" v="349259" />
	</node>
	<node lat="59.21099167043732" lon="8.458475007234842" id="-24915">
		<tag k="name" v="Lindefjellurine" />
		<tag k="natural" v="scree" />
		<tag k="ssr:stedsnr" v="350200" />
	</node>
	<node lat="59.172113892587184" lon="8.456997230257095" id="-24919">
		<tag k="name" v="Vollslettene" />
		<tag k="place" v="locality" />
		<tag k="ssr:stedsnr" v="350564" />
	</node>
	<node lat="59.120174998559655" lon="8.43754722773808" id="-24922">
		<tag k="name" v="Krakkemyr" />
		<tag k="natural" v="wetland" />
		<tag k="ssr:stedsnr" v="350922" />
	</node>
	<node lat="59.16614999993239" lon="8.419150003922642" id="-24927">
		<tag k="name" v="Svaune" />
		<tag k="place" v="locality" />
		<tag k="ssr:stedsnr" v="350940" />
	</node>
	<node lat="59.13372499606958" lon="8.52895278482222" id="-24946">
		<tag k="alt_name" v="Bjønnsmyr" />
		<tag k="name" v="Bjørnsmyr" />
		<tag k="natural" v="wetland" />
		<tag k="ssr:stedsnr" v="365706" />
	</node>
	<node lat="59.16187777778118" lon="8.583572223562912" id="-24963">
		<tag k="name" v="Rekkjarmyra" />
		<tag k="natural" v="wetland" />
		<tag k="ssr:stedsnr" v="396433" />
	</node>
	<node lat="59.20906666312335" lon="8.538783326187536" id="-24964">
		<tag k="name" v="Lunnemyr" />
		<tag k="natural" v="wetland" />
		<tag k="ssr:stedsnr" v="396587" />
	</node>
	<node lat="58.93228611140688" lon="8.502155552030036" id="-24978">
		<tag k="name" v="Tobaksstykke" />
		<tag k="place" v="locality" />
		<tag k="ssr:stedsnr" v="397785" />
	</node>
	<node lat="59.006305557812325" lon="8.59503055468676" id="-24980">
		<tag k="name" v="Smådalane" />
		<tag k="place" v="locality" />
		<tag k="ssr:stedsnr" v="397887" />
	</node>
	<node lat="58.939194439997415" lon="8.556469436160073" id="-24984">
		<tag k="name" v="Heftemyrane" />
		<tag k="natural" v="wetland" />
		<tag k="ssr:stedsnr" v="398582" />
	</node>
	<node lat="59.0036611089033" lon="8.4947333291235" id="-24985">
		<tag k="name" v="Øvre Hestehomhola" />
		<tag k="natural" v="wetland" />
		<tag k="ssr:stedsnr" v="398934" />
	</node>
	<node lat="59.021647220226406" lon="8.521113881223513" id="-24986">
		<tag k="name" v="Osemyr" />
		<tag k="natural" v="wetland" />
		<tag k="ssr:stedsnr" v="398935" />
	</node>
	<node lat="58.979988884658916" lon="8.623633338910414" id="-24994">
		<tag k="name" v="Lauåsmyra" />
		<tag k="natural" v="wetland" />
		<tag k="ssr:stedsnr" v="399310" />
	</node>
	<node lat="58.98660000376664" lon="8.679733338506319" id="-25003">
		<tag k="historic" v="shieling" />
		<tag k="name" v="Øytjønnbua" />
		<tag k="place" v="locality" />
		<tag k="ssr:stedsnr" v="399986" />
	</node>
	<node lat="58.9262499969711" lon="8.742716664853264" id="-25005">
		<tag k="name" v="Rysfarslåtta" />
		<tag k="natural" v="wetland" />
		<tag k="ssr:stedsnr" v="400977" />
	</node>
	<node lat="58.94655278103159" lon="8.596225003454535" id="-25019">
		<tag k="name" v="Eilivsmyr" />
		<tag k="natural" v="wetland" />
		<tag k="ssr:stedsnr" v="486341" />
	</node>
	<node lat="58.965455553874236" lon="8.351802784964901" id="-25045">
		<tag k="alt_name" v="Dyplemyr" />
		<tag k="name" v="Diplemyr" />
		<tag k="natural" v="wetland" />
		<tag k="ssr:stedsnr" v="486929" />
	</node>
	<node lat="58.97410000095583" lon="8.397511114925777" id="-25046">
		<tag k="alt_name" v="Storejarbryn" />
		<tag k="name" v="Storjabryn" />
		<tag k="natural" v="wetland" />
		<tag k="ssr:stedsnr" v="486934" />
	</node>
	<node lat="59.01742499714997" lon="8.646797229825689" id="-25061">
		<tag k="name" v="Kleivtjønnheftet" />
		<tag k="place" v="locality" />
		<tag k="ssr:stedsnr" v="411164" />
	</node>
	<node lat="59.004099996963525" lon="8.458330562228213" id="-25063">
		<tag k="name" v="St. Olavs myr" />
		<tag k="natural" v="wetland" />
		<tag k="ssr:stedsnr" v="411250" />
	</node>
	<node lat="59.02034166506787" lon="8.668580553527544" id="-25064">
		<tag k="name" v="Nystøyl" />
		<tag k="place" v="locality" />
		<tag k="ssr:stedsnr" v="411289" />
	</node>
	<node lat="59.01535555876535" lon="8.611186105808379" id="-25065">
		<tag k="name" v="Husåøyren" />
		<tag k="place" v="locality" />
		<tag k="ssr:stedsnr" v="411188" />
	</node>
	<node lat="59.125711115253836" lon="8.461636113266138" id="-25067">
		<tag k="name" v="Uppå Raunåsen" />
		<tag k="place" v="locality" />
		<tag k="ssr:stedsnr" v="411347" />
	</node>
	<node lat="59.168325002322696" lon="8.338008328025627" id="-25071">
		<tag k="name" v="Grytstøylmyra" />
		<tag k="natural" v="wetland" />
		<tag k="ssr:stedsnr" v="411808" />
	</node>
	<node lat="59.03958332899147" lon="8.462130556670948" id="-25072">
		<tag k="name" v="Dalekåsa" />
		<tag k="place" v="locality" />
		<tag k="ssr:stedsnr" v="411817" />
	</node>
	<node lat="59.16908055480773" lon="8.391263884177649" id="-25077">
		<tag k="name" v="Buliberget" />
		<tag k="place" v="locality" />
		<tag k="ssr:stedsnr" v="411907" />
	</node>
	<node lat="59.11331388941258" lon="8.414144435987883" id="-25080">
		<tag k="name" v="Rubbumyra" />
		<tag k="natural" v="wetland" />
		<tag k="ssr:stedsnr" v="411996" />
	</node>
	<node lat="59.16479722483711" lon="8.64507499154614" id="-25084">
		<tag k="name" v="Flatekasine" />
		<tag k="place" v="locality" />
		<tag k="ssr:stedsnr" v="412550" />
	</node>
	<node lat="58.92115555497621" lon="8.354511115569625" id="-25090">
		<tag k="name" v="Dyplemyrane" />
		<tag k="natural" v="wetland" />
		<tag k="ssr:stedsnr" v="412995" />
	</node>
	<node lat="59.176497224898576" lon="8.593013887021678" id="-25135">
		<tag k="name" v="Frovasshaddane" />
		<tag k="natural" v="wetland" />
		<tag k="ssr:stedsnr" v="457818" />
	</node>
	<node lat="58.99818055188533" lon="8.559052785013394" id="-25139">
		<tag k="name" v="Slaktarhola" />
		<tag k="natural" v="wetland" />
		<tag k="ssr:stedsnr" v="458806" />
	</node>
	<node lat="59.071783332466005" lon="8.530197218527245" id="-25144">
		<tag k="name" v="Strandine søndre" />
		<tag k="place" v="locality" />
		<tag k="ssr:stedsnr" v="458985" />
	</node>
	<node lat="58.99941944487061" lon="8.667541671520691" id="-25145">
		<tag k="name" v="Jonmoenshoved" />
		<tag k="natural" v="wetland" />
		<tag k="ssr:stedsnr" v="459059" />
	</node>
	<node lat="59.02388611534015" lon="8.58691666690629" id="-25147">
		<tag k="landuse" v="meadow" />
		<tag k="name" v="Hallingjorån" />
		<tag k="ssr:stedsnr" v="459176" />
	</node>
	<node lat="59.02762500451736" lon="8.558555558112525" id="-25148">
		<tag k="name" v="Bergåsteinen" />
		<tag k="natural" v="stone" />
		<tag k="ssr:stedsnr" v="459409" />
	</node>
	<node lat="59.02681666927761" lon="8.537952780111441" id="-25149">
		<tag k="name" v="Brurevoll" />
		<tag k="place" v="locality" />
		<tag k="ssr:stedsnr" v="459809" />
	</node>
	<node lat="59.025802773710915" lon="8.53777499475154" id="-25150">
		<tag k="name" v="Nedre Åsen" />
		<tag k="place" v="locality" />
		<tag k="ssr:stedsnr" v="459872" />
	</node>
	<node lat="58.965255555173655" lon="8.712491664115117" id="-25151">
		<tag k="name" v="Ormvasslistea" />
		<tag k="place" v="locality" />
		<tag k="ssr:stedsnr" v="460059" />
	</node>
	<node lat="58.99987777448091" lon="8.543733327264682" id="-25152">
		<tag k="name" v="Lislehei" />
		<tag k="place" v="locality" />
		<tag k="ssr:stedsnr" v="459970" />
	</node>
	<node lat="58.998566669837665" lon="8.551419452328409" id="-25153">
		<tag k="name" v="Trollmyr" />
		<tag k="natural" v="wetland" />
		<tag k="ssr:stedsnr" v="459971" />
	</node>
	<node lat="58.89593333115695" lon="8.701313886322666" id="-25154">
		<tag k="name" v="Standaren" />
		<tag k="natural" v="wetland" />
		<tag k="ssr:stedsnr" v="460126" />
	</node>
	<node lat="58.90055000010372" lon="8.748716664715968" id="-25156">
		<tag k="name" v="Kvennmyra" />
		<tag k="natural" v="wetland" />
		<tag k="ssr:stedsnr" v="460360" />
	</node>
	<node lat="58.95383888508782" lon="8.472338881276144" id="-25165">
		<tag k="name" v="Furudalsmyra" />
		<tag k="natural" v="wetland" />
		<tag k="ssr:stedsnr" v="470213" />
	</node>
	<node lat="59.02112778153165" lon="8.610752773147075" id="-25174">
		<tag k="name" v="Den ronde myra" />
		<tag k="natural" v="wetland" />
		<tag k="ssr:stedsnr" v="471177" />
	</node>
	<node lat="59.11493055783627" lon="8.393074996552627" id="-25180">
		<tag k="name" v="Trøyborg" />
		<tag k="natural" v="wetland" />
		<tag k="ssr:stedsnr" v="471908" />
	</node>
	<node lat="59.16574166563249" lon="8.396841671049756" id="-25181">
		<tag k="name" v="Øygarden" />
		<tag k="place" v="locality" />
		<tag k="ssr:stedsnr" v="471918" />
	</node>
	<node lat="59.11739166649162" lon="8.40657222196856" id="-25183">
		<tag k="name" v="Sjavskotmyra" />
		<tag k="natural" v="wetland" />
		<tag k="ssr:stedsnr" v="471976" />
	</node>
	<node lat="59.153469440488806" lon="8.409683337698008" id="-25188">
		<tag k="name" v="Heggeholta" />
		<tag k="place" v="locality" />
		<tag k="ssr:stedsnr" v="472215" />
	</node>
	<node lat="59.19999444303432" lon="8.355602781220377" id="-25192">
		<tag k="name" v="Kjeddingvikurine" />
		<tag k="natural" v="scree" />
		<tag k="ssr:stedsnr" v="472362" />
	</node>
	<node lat="59.17350833201132" lon="8.647869451411017" id="-25193">
		<tag k="name" v="Fyllsgrån" />
		<tag k="place" v="locality" />
		<tag k="ssr:stedsnr" v="472578" />
	</node>
	<node lat="58.91499444254629" lon="8.801474995185625" id="-25208">
		<tag k="name" v="Stormyrane" />
		<tag k="natural" v="wetland" />
		<tag k="ssr:stedsnr" v="486506" />
	</node>
	<node lat="59.179830556815276" lon="8.537238890795233" id="-25240">
		<tag k="name" v="Skaremyr" />
		<tag k="natural" v="wetland" />
		<tag k="ssr:stedsnr" v="517983" />
	</node>
	<node lat="58.89946388622645" lon="8.681047228791305" id="-25241">
		<tag k="name" v="Ramsefjellmyra" />
		<tag k="natural" v="wetland" />
		<tag k="ssr:stedsnr" v="519122" />
	</node>
	<node lat="58.987713885087274" lon="8.501813890998962" id="-25244">
		<tag k="name" v="Sigridsslåtta" />
		<tag k="natural" v="wetland" />
		<tag k="ssr:stedsnr" v="519374" />
	</node>
	<node lat="59.035722222396494" lon="8.511500006388884" id="-25246">
		<tag k="name" v="Sutarjordet" />
		<tag k="place" v="locality" />
		<tag k="ssr:stedsnr" v="519508" />
	</node>
	<node lat="58.87296944131486" lon="8.689455550004611" id="-25255">
		<tag k="name" v="Heftemyra" />
		<tag k="natural" v="wetland" />
		<tag k="ssr:stedsnr" v="520112" />
	</node>
	<node lat="58.897205551210895" lon="8.719988887102822" id="-25261">
		<tag k="name" v="Sjølskotkilen" />
		<tag k="natural" v="wetland" />
		<tag k="ssr:stedsnr" v="520371" />
	</node>
	<node lat="58.89658333238244" lon="8.781930548503983" id="-25269">
		<tag k="name" v="Diplemyr" />
		<tag k="natural" v="wetland" />
		<tag k="ssr:stedsnr" v="521676" />
	</node>
	<node lat="58.938063888981254" lon="8.37035278557876" id="-25277">
		<tag k="name" v="Knutsmyr" />
		<tag k="natural" v="wetland" />
		<tag k="ssr:stedsnr" v="530912" />
	</node>
	<node lat="58.941080553654785" lon="8.363647220073593" id="-25278">
		<tag k="name" v="Morskjerr" />
		<tag k="place" v="locality" />
		<tag k="ssr:stedsnr" v="530923" />
	</node>
	<node lat="58.940183337301775" lon="8.376463896015682" id="-25279">
		<tag k="name" v="Gyrismyr" />
		<tag k="natural" v="wetland" />
		<tag k="ssr:stedsnr" v="530928" />
	</node>
	<node lat="59.08279444863266" lon="8.471205557572095" id="-25282">
		<tag k="name" v="Heftet" />
		<tag k="place" v="locality" />
		<tag k="ssr:stedsnr" v="531318" />
	</node>
	<node lat="58.94250555346687" lon="8.447369450644393" id="-25285">
		<tag k="name" v="Nybuberga" />
		<tag k="place" v="locality" />
		<tag k="ssr:stedsnr" v="531505" />
	</node>
	<node lat="58.9135638926884" lon="8.445530548549511" id="-25287">
		<tag k="name" v="Samlogheia" />
		<tag k="natural" v="wetland" />
		<tag k="ssr:stedsnr" v="531578" />
	</node>
	<node lat="59.21701388624265" lon="8.333802783016498" id="-25291">
		<tag k="name" v="Stråndholet" />
		<tag k="natural" v="scree" />
		<tag k="ssr:stedsnr" v="532074" />
	</node>
	<node lat="59.2436166653261" lon="8.437461113005273" id="-25293">
		<tag k="name" v="Eldsmyr" />
		<tag k="natural" v="wetland" />
		<tag k="ssr:stedsnr" v="532120" />
	</node>
	<node lat="59.24953055236199" lon="8.382877781960541" id="-25294">
		<tag k="name" v="Bjørkhommen" />
		<tag k="place" v="locality" />
		<tag k="ssr:stedsnr" v="532121" />
	</node>
	<node lat="59.207205553232576" lon="8.383391664163735" id="-25297">
		<tag k="name" v="Ljågrasslåtta" />
		<tag k="place" v="locality" />
		<tag k="ssr:stedsnr" v="532389" />
	</node>
	<node lat="59.06406667009366" lon="8.399136116620966" id="-25299">
		<tag k="name" v="Jons-slåtta" />
		<tag k="natural" v="wetland" />
		<tag k="ssr:stedsnr" v="532398" />
	</node>
	<node lat="59.07659721923103" lon="8.48972778464171" id="-25300">
		<tag k="name" v="Raset" />
		<tag k="place" v="locality" />
		<tag k="ssr:stedsnr" v="532514" />
	</node>
	<node lat="59.02825833579974" lon="8.62420555844193" id="-25318">
		<tag k="name" v="Rislandsberga" />
		<tag k="place" v="locality" />
		<tag k="ssr:stedsnr" v="533007" />
	</node>
	<node lat="59.03369166316166" lon="8.63763610573241" id="-25322">
		<tag k="name" v="Limyrholane" />
		<tag k="natural" v="wetland" />
		<tag k="ssr:stedsnr" v="533089" />
	</node>
	<node lat="59.16864166838641" lon="8.643147216478589" id="-25325">
		<tag k="name" v="Skjensmyr" />
		<tag k="natural" v="wetland" />
		<tag k="ssr:stedsnr" v="533609" />
	</node>
	<node lat="58.88128610728667" lon="8.70533610654839" id="-25337">
		<tag k="name" v="Tereleikmyrane" />
		<tag k="natural" v="wetland" />
		<tag k="ssr:stedsnr" v="546672" />
	</node>
	<node lat="58.98851944482674" lon="8.575863885223526" id="-25340">
		<tag k="name" v="Stigmyra" />
		<tag k="natural" v="wetland" />
		<tag k="ssr:stedsnr" v="547312" />
	</node>
	<node lat="59.04590833378008" lon="8.509155550112158" id="-25349">
		<tag k="name" v="Liland" />
		<tag k="place" v="locality" />
		<tag k="ssr:stedsnr" v="547577" />
	</node>
	<node lat="59.15404166485582" lon="8.577952777335964" id="-25368">
		<tag k="name" v="Brøta" />
		<tag k="place" v="locality" />
		<tag k="ssr:stedsnr" v="578401" />
	</node>
	<node lat="59.02100833533387" lon="8.552463895140244" id="-25375">
		<tag k="name" v="Raumyra" />
		<tag k="natural" v="wetland" />
		<tag k="ssr:stedsnr" v="580024" />
	</node>
	<node lat="58.944944448535004" lon="8.601888894346052" id="-25377">
		<tag k="name" v="Eilifsmyra" />
		<tag k="natural" v="wetland" />
		<tag k="ssr:stedsnr" v="579910" />
	</node>
	<node lat="59.058450003539235" lon="8.522719451235611" id="-25380">
		<tag k="name" v="Vikbakkane" />
		<tag k="place" v="locality" />
		<tag k="ssr:stedsnr" v="579997" />
	</node>
	<node lat="58.97401389276727" lon="8.536402772638306" id="-25382">
		<tag k="name" v="Bomslåtta" />
		<tag k="place" v="locality" />
		<tag k="ssr:stedsnr" v="580242" />
	</node>
	<node lat="58.96916944747115" lon="8.661158330250451" id="-25401">
		<tag k="name" v="Kveinmyr" />
		<tag k="natural" v="wetland" />
		<tag k="ssr:stedsnr" v="581654" />
	</node>
	<node lat="58.91241666760036" lon="8.788741659625549" id="-25404">
		<tag k="name" v="Dalslåtta" />
		<tag k="natural" v="wetland" />
		<tag k="ssr:stedsnr" v="582112" />
	</node>
	<node lat="58.889166662987414" lon="8.788472223450237" id="-25406">
		<tag k="name" v="Hågmyr" />
		<tag k="natural" v="wetland" />
		<tag k="ssr:stedsnr" v="582697" />
	</node>
	<node lat="58.908452778249554" lon="8.766552776244529" id="-25409">
		<tag k="name" v="Åsesmyr" />
		<tag k="natural" v="wetland" />
		<tag k="ssr:stedsnr" v="583000" />
	</node>
	<node lat="59.1285944400743" lon="8.379419439157907" id="-25410">
		<tag k="name" v="Modølslåttune" />
		<tag k="place" v="locality" />
		<tag k="ssr:stedsnr" v="590528" />
	</node>
	<node lat="58.9434055514652" lon="8.373372227583252" id="-25412">
		<tag k="name" v="Korane" />
		<tag k="natural" v="wetland" />
		<tag k="ssr:stedsnr" v="591954" />
	</node>
	<node lat="59.098422225179625" lon="8.40896944237608" id="-25419">
		<tag k="name" v="Tverrslåtta" />
		<tag k="natural" v="wetland" />
		<tag k="ssr:stedsnr" v="592508" />
	</node>
	<node lat="59.15006111404208" lon="8.34568888177479" id="-25429">
		<tag k="landuse" v="quarry" />
		<tag k="name" v="Dalsgruvene" />
		<tag k="ssr:stedsnr" v="593552" />
	</node>
	<node lat="59.16249722597578" lon="8.419041673268422" id="-25431">
		<tag k="name" v="Lauvsteinane" />
		<tag k="natural" v="stone" />
		<tag k="ssr:stedsnr" v="593704" />
	</node>
	<node lat="59.17979999620098" lon="8.430619447933896" id="-25432">
		<tag k="name" v="Dammyrane" />
		<tag k="natural" v="wetland" />
		<tag k="ssr:stedsnr" v="593852" />
	</node>
	<node lat="58.9735777754728" lon="8.368594443687506" id="-25433">
		<tag k="name" v="Steane" />
		<tag k="natural" v="wetland" />
		<tag k="ssr:stedsnr" v="593964" />
	</node>
	<node lat="59.175569444218205" lon="8.556141660943318" id="-25434">
		<tag k="name" v="Hjuringhefte" />
		<tag k="place" v="locality" />
		<tag k="ssr:stedsnr" v="699658" />
	</node>
	<node lat="59.151013892000755" lon="8.584961107018437" id="-25466">
		<tag k="name" v="Feråskvevane" />
		<tag k="place" v="locality" />
		<tag k="ssr:stedsnr" v="700453" />
	</node>
	<node lat="58.990263888262426" lon="8.499458333312976" id="-25469">
		<tag k="name" v="Baunåsmyra" />
		<tag k="natural" v="wetland" />
		<tag k="ssr:stedsnr" v="701427" />
	</node>
	<node lat="59.07602222589686" lon="8.600036107909427" id="-25475">
		<tag k="name" v="Austre Dalane" />
		<tag k="natural" v="wetland" />
		<tag k="ssr:stedsnr" v="701590" />
	</node>
	<node lat="58.99559722176621" lon="8.526475008556385" id="-25478">
		<tag k="name" v="Nausgangmyra" />
		<tag k="natural" v="wetland" />
		<tag k="ssr:stedsnr" v="701938" />
	</node>
	<node lat="58.996102777666955" lon="8.547230549308" id="-25481">
		<tag k="name" v="Jasesto" />
		<tag k="natural" v="beach" />
		<tag k="ssr:stedsnr" v="701952" />
		<tag k="surface" v="sand" />
	</node>
	<node lat="58.85920277650806" lon="8.741011103651482" id="-25487">
		<tag k="name" v="Ljosvass-stea" />
		<tag k="natural" v="wetland" />
		<tag k="ssr:stedsnr" v="702197" />
	</node>
	<node lat="58.9149805539197" lon="8.72410000693433" id="-25493">
		<tag k="name" v="Grautdalsmyra" />
		<tag k="natural" v="wetland" />
		<tag k="ssr:stedsnr" v="703091" />
	</node>
	<node lat="58.92835555549298" lon="8.743936112962867" id="-25507">
		<tag k="name" v="Sandtjønnstea" />
		<tag k="natural" v="wetland" />
		<tag k="ssr:stedsnr" v="703962" />
	</node>
	<node lat="58.93800278198397" lon="8.721838893460633" id="-25509">
		<tag k="name" v="Benkslåtta" />
		<tag k="natural" v="wetland" />
		<tag k="ssr:stedsnr" v="703969" />
	</node>
	<node lat="59.17570833333336" lon="8.531013891891027" id="-25519">
		<tag k="name" v="Moltemyra" />
		<tag k="natural" v="wetland" />
		<tag k="ssr:stedsnr" v="638982" />
	</node>
	<node lat="59.219708329013464" lon="8.52644999707039" id="-25522">
		<tag k="name" v="To" />
		<tag k="natural" v="wetland" />
		<tag k="ssr:stedsnr" v="639604" />
	</node>
	<node lat="59.19877221935987" lon="8.578936115676717" id="-25523">
		<tag k="name" v="Våtmyr" />
		<tag k="natural" v="wetland" />
		<tag k="ssr:stedsnr" v="639605" />
	</node>
	<node lat="59.201913889698176" lon="8.558180551178033" id="-25524">
		<tag k="name" v="Krogbergsteane" />
		<tag k="natural" v="wetland" />
		<tag k="ssr:stedsnr" v="639608" />
	</node>
	<node lat="59.088702781501965" lon="8.574680548410747" id="-25527">
		<tag k="name" v="Grånhommen" />
		<tag k="place" v="locality" />
		<tag k="ssr:stedsnr" v="639914" />
	</node>
	<node lat="59.02924444386149" lon="8.55598611338637" id="-25530">
		<tag k="name" v="Prekestolmyra" />
		<tag k="natural" v="wetland" />
		<tag k="ssr:stedsnr" v="640473" />
	</node>
	<node lat="59.03931666487742" lon="8.516983324696502" id="-25533">
		<tag k="name" v="Skilmyra" />
		<tag k="place" v="locality" />
		<tag k="ssr:stedsnr" v="640514" />
	</node>
	<node lat="59.022016667800266" lon="8.52645833512234" id="-25536">
		<tag k="name" v="Brekkene" />
		<tag k="place" v="locality" />
		<tag k="ssr:stedsnr" v="640924" />
	</node>
	<node lat="58.87767500088409" lon="8.72847222415321" id="-25538">
		<tag k="name" v="Merrholet" />
		<tag k="natural" v="wetland" />
		<tag k="ssr:stedsnr" v="641225" />
	</node>
	<node lat="58.911847224607364" lon="8.809941659791038" id="-25543">
		<tag k="name" v="Einerstea" />
		<tag k="natural" v="wetland" />
		<tag k="ssr:stedsnr" v="642112" />
	</node>
	<node lat="58.95481944530042" lon="8.62326944121534" id="-25548">
		<tag k="name" v="Avslimoen" />
		<tag k="place" v="locality" />
		<tag k="ssr:stedsnr" v="642617" />
	</node>
	<node lat="58.88750278118501" lon="8.648688888484982" id="-25551">
		<tag k="name" v="Bjønngrånmyra" />
		<tag k="natural" v="wetland" />
		<tag k="ssr:stedsnr" v="642803" />
	</node>
	<node lat="58.91169167014327" lon="8.772816666529591" id="-25554">
		<tag k="name" v="Den runde slåtta" />
		<tag k="natural" v="wetland" />
		<tag k="ssr:stedsnr" v="642994" />
	</node>
	<node lat="58.96727499965184" lon="8.334494443793764" id="-25557">
		<tag k="name" v="Skiftingsmyrane" />
		<tag k="natural" v="wetland" />
		<tag k="ssr:stedsnr" v="651903" />
	</node>
	<node lat="58.96441111319048" lon="8.367313894160676" id="-25558">
		<tag k="name" v="Østrømsmyr" />
		<tag k="natural" v="wetland" />
		<tag k="ssr:stedsnr" v="651912" />
	</node>
	<node lat="59.11317778175671" lon="8.4465777700091" id="-25561">
		<tag k="name" v="Håbergmyra" />
		<tag k="natural" v="wetland" />
		<tag k="ssr:stedsnr" v="653002" />
	</node>
	<node lat="59.152308329352685" lon="8.44411111878222" id="-25565">
		<tag k="name" v="Lirusholune" />
		<tag k="natural" v="wetland" />
		<tag k="ssr:stedsnr" v="653414" />
	</node>
	<node lat="59.180308335960504" lon="8.460738893169701" id="-25568">
		<tag k="name" v="Revdalsheftet" />
		<tag k="place" v="locality" />
		<tag k="ssr:stedsnr" v="653603" />
	</node>
	<node lat="59.150058337427794" lon="8.336200005689648" id="-25569">
		<tag k="name" v="Hommen" />
		<tag k="place" v="locality" />
		<tag k="ssr:stedsnr" v="653607" />
	</node>
	<node lat="59.022788885875954" lon="8.640430562323653" id="-25578">
		<tag k="name" v="Juvmyra" />
		<tag k="natural" v="wetland" />
		<tag k="ssr:stedsnr" v="654083" />
	</node>
	<node lat="59.02018888841199" lon="8.689591666616655" id="-25580">
		<tag k="name" v="Breivasstrånda" />
		<tag k="place" v="locality" />
		<tag k="ssr:stedsnr" v="654310" />
	</node>
	<node lat="59.1295861142645" lon="8.618405553474075" id="-25581">
		<tag k="name" v="Loftsteinen" />
		<tag k="natural" v="stone" />
		<tag k="ssr:stedsnr" v="654334" />
	</node>
	<node lat="59.001941665772485" lon="8.559230549294144" id="-25595">
		<tag k="name" v="Vidmyr" />
		<tag k="natural" v="wetland" />
		<tag k="ssr:stedsnr" v="668493" />
	</node>
	<node lat="59.25590000294647" lon="8.400855563937604" id="-25623">
		<tag k="alt_name" v="Landtakmyrane" />
		<tag k="name" v="Landtakmyran" />
		<tag k="natural" v="wetland" />
		<tag k="ssr:stedsnr" v="670072" />
	</node>
	<node lat="59.12318055377144" lon="8.723533338576049" id="-25624">
		<tag k="name" v="Uvdalsmark" />
		<tag k="place" v="locality" />
		<tag k="ssr:stedsnr" v="890816" />
	</node>
	<node lat="58.97275555876249" lon="8.53001666915876" id="-25640">
		<tag k="name" v="Berge" />
		<tag k="place" v="locality" />
		<tag k="ssr:stedsnr" v="701378" />
	</node>
	<node lat="59.098222218277506" lon="8.444897213682388" id="-25642">
		<tag k="name" v="Fosshefti" />
		<tag k="place" v="locality" />
		<tag k="ssr:stedsnr" v="896253" />
	</node>
	<node lat="59.076569441149545" lon="8.535797218503525" id="-25651">
		<tag k="name" v="Strandine nordre" />
		<tag k="place" v="locality" />
		<tag k="ssr:stedsnr" v="701981" />
	</node>
	<node lat="58.880586113439016" lon="8.731344446193257" id="-25664">
		<tag k="name" v="Meumslåtta" />
		<tag k="natural" v="wetland" />
		<tag k="ssr:stedsnr" v="703305" />
	</node>
	<node lat="58.93509999576069" lon="8.686661115859685" id="-25666">
		<tag k="name" v="Brekkune" />
		<tag k="place" v="locality" />
		<tag k="ssr:stedsnr" v="703518" />
	</node>
	<node lat="58.89075278027231" lon="8.708586102847603" id="-25668">
		<tag k="name" v="Pålskjerr" />
		<tag k="natural" v="wetland" />
		<tag k="ssr:stedsnr" v="703811" />
	</node>
	<node lat="58.98416389071616" lon="8.646966659017817" id="-25669">
		<tag k="name" v="Raustøylmyra" />
		<tag k="natural" v="wetland" />
		<tag k="ssr:stedsnr" v="703912" />
	</node>
	<node lat="58.98049166685902" lon="8.634399991502631" id="-25670">
		<tag k="name" v="Mjåvasstrånda" />
		<tag k="place" v="locality" />
		<tag k="ssr:stedsnr" v="703915" />
	</node>
	<node lat="59.05950277623495" lon="8.447238895213754" id="-25673">
		<tag k="name" v="Bukkeskogen" />
		<tag k="place" v="locality" />
		<tag k="ssr:stedsnr" v="896597" />
	</node>
	<node lat="59.2125055566558" lon="8.493613880626455" id="-25685">
		<tag k="name" v="Kveldsmyrane" />
		<tag k="place" v="locality" />
		<tag k="ssr:stedsnr" v="897200" />
	</node>
	<node lat="59.178097218733235" lon="8.448894446576272" id="-25690">
		<tag k="name" v="Heiheftet" />
		<tag k="place" v="locality" />
		<tag k="ssr:stedsnr" v="897463" />
	</node>
	<node lat="58.92436944401128" lon="8.34872778565407" id="-25699">
		<tag k="name" v="Porsmyra" />
		<tag k="natural" v="wetland" />
		<tag k="ssr:stedsnr" v="897916" />
	</node>
	<node lat="58.926030553340205" lon="8.352319443636768" id="-25700">
		<tag k="name" v="Småmyrane" />
		<tag k="natural" v="wetland" />
		<tag k="ssr:stedsnr" v="897920" />
	</node>
	<node lat="58.92494721943189" lon="8.359230548763378" id="-25707">
		<tag k="name" v="Åsmyra" />
		<tag k="natural" v="wetland" />
		<tag k="ssr:stedsnr" v="897996" />
	</node>
	<node lat="58.939299996199836" lon="8.356108336768651" id="-25716">
		<tag k="name" v="Tørfurkleivmyra" />
		<tag k="natural" v="wetland" />
		<tag k="ssr:stedsnr" v="712940" />
	</node>
	<node lat="58.94282222392311" lon="8.389475000239543" id="-25718">
		<tag k="name" v="Måfjellmyra" />
		<tag k="natural" v="wetland" />
		<tag k="ssr:stedsnr" v="713324" />
	</node>
	<node lat="59.108341667206375" lon="8.457061106594114" id="-25720">
		<tag k="name" v="Hesmyrane" />
		<tag k="natural" v="wetland" />
		<tag k="ssr:stedsnr" v="714012" />
	</node>
	<node lat="59.026502779728354" lon="8.622783330215109" id="-25741">
		<tag k="name" v="Tverrmyra" />
		<tag k="natural" v="wetland" />
		<tag k="ssr:stedsnr" v="715023" />
	</node>
	<node lat="59.227411113143994" lon="8.41391666451182" id="-25742">
		<tag k="name" v="Tjønnstøylsteane" />
		<tag k="natural" v="wetland" />
		<tag k="ssr:stedsnr" v="715203" />
	</node>
	<node lat="59.19533611447883" lon="8.36622778528256" id="-25743">
		<tag k="name" v="Lytingshommen" />
		<tag k="place" v="locality" />
		<tag k="ssr:stedsnr" v="715406" />
	</node>
	<node lat="59.025849996907276" lon="8.72007778410312" id="-25745">
		<tag k="name" v="Steslåtta" />
		<tag k="natural" v="wetland" />
		<tag k="ssr:stedsnr" v="715327" />
	</node>
	<node lat="59.19135000283002" lon="8.444244443443894" id="-25747">
		<tag k="name" v="Sandvikmyrane" />
		<tag k="natural" v="wetland" />
		<tag k="ssr:stedsnr" v="715691" />
	</node>
	<node lat="58.93161944765988" lon="8.515166669937658" id="-25754">
		<tag k="name" v="Sundsmyr" />
		<tag k="natural" v="wetland" />
		<tag k="ssr:stedsnr" v="729415" />
	</node>
	<node lat="59.20753055232622" lon="8.548263888231329" id="-25780">
		<tag k="alt_name" v="Vardane" />
		<tag k="name" v="Varane" />
		<tag k="natural" v="wetland" />
		<tag k="ssr:stedsnr" v="730896" />
	</node>
	<node lat="59.03726111244447" lon="8.52730277067305" id="-25789">
		<tag k="name" v="Den vonde dalen" />
		<tag k="place" v="locality" />
		<tag k="ssr:stedsnr" v="761653" />
	</node>
	<node lat="59.00621944032533" lon="8.700347214910634" id="-25797">
		<tag k="name" v="Grasbrota" />
		<tag k="natural" v="wetland" />
		<tag k="ssr:stedsnr" v="763309" />
	</node>
	<node lat="58.88888889131197" lon="8.757372224218503" id="-25800">
		<tag k="name" v="Kalvåsslåttune" />
		<tag k="natural" v="wetland" />
		<tag k="ssr:stedsnr" v="764306" />
	</node>
	<node lat="59.13342499735974" lon="8.401322222120418" id="-25805">
		<tag k="name" v="Karismyr" />
		<tag k="natural" v="wetland" />
		<tag k="ssr:stedsnr" v="773527" />
	</node>
	<node lat="59.15268888631643" lon="8.37490554826074" id="-25806">
		<tag k="name" v="Vettmyr" />
		<tag k="natural" v="wetland" />
		<tag k="ssr:stedsnr" v="773572" />
	</node>
	<node lat="59.225322225710386" lon="8.308694447947081" id="-25820">
		<tag k="name" v="Laurdagsslåttune" />
		<tag k="natural" v="wetland" />
		<tag k="ssr:stedsnr" v="775163" />
	</node>
	<node lat="59.18223055314933" lon="8.367758340551916" id="-25821">
		<tag k="name" v="Tverrfjellmyrane" />
		<tag k="natural" v="wetland" />
		<tag k="ssr:stedsnr" v="775817" />
	</node>
	<node lat="59.12597221846561" lon="8.443316674831" id="-25823">
		<tag k="name" v="Kasine" />
		<tag k="place" v="locality" />
		<tag k="ssr:stedsnr" v="775555" />
	</node>
	<node lat="58.9750750010864" lon="8.362561111139668" id="-25834">
		<tag k="name" v="Dåstjønnmyra" />
		<tag k="natural" v="wetland" />
		<tag k="ssr:stedsnr" v="775973" />
	</node>
	<node lat="59.16923055408297" lon="8.612149997527434" id="-25838">
		<tag k="name" v="Langmyr" />
		<tag k="natural" v="wetland" />
		<tag k="ssr:stedsnr" v="776553" />
	</node>
	<node lat="59.164744446411014" lon="8.639130553414473" id="-25840">
		<tag k="name" v="Homsmyra" />
		<tag k="natural" v="wetland" />
		<tag k="ssr:stedsnr" v="776560" />
	</node>
	<node lat="58.899461114396225" lon="8.652733330593215" id="-25850">
		<tag k="alt_name" v="Porsmyr" />
		<tag k="name" v="Porsmyra" />
		<tag k="natural" v="wetland" />
		<tag k="ssr:stedsnr" v="911477" />
	</node>
	<node lat="58.922116670873756" lon="8.727150004740192" id="-25865">
		<tag k="name" v="Røyrmyr" />
		<tag k="natural" v="wetland" />
		<tag k="ssr:stedsnr" v="789408" />
	</node>
	<node lat="58.884680555188666" lon="8.693802781611282" id="-25870">
		<tag k="name" v="Stormyr" />
		<tag k="natural" v="wetland" />
		<tag k="ssr:stedsnr" v="789715" />
	</node>
	<node lat="59.02448611037545" lon="8.723599991906122" id="-25891">
		<tag k="alt_name" v="Dei lange steinane" />
		<tag k="name" v="Langsteinane" />
		<tag k="natural" v="stone" />
		<tag k="ssr:stedsnr" v="790446" />
	</node>
	<node lat="59.14920000133221" lon="8.531530559223684" id="-25947">
		<tag k="name" v="Timmeråsen" />
		<tag k="place" v="locality" />
		<tag k="ssr:stedsnr" v="821566" />
	</node>
	<node lat="59.21162777772694" lon="8.50106944270922" id="-25949">
		<tag k="name" v="Kveldsmyrane" />
		<tag k="natural" v="wetland" />
		<tag k="ssr:stedsnr" v="821578" />
	</node>
	<node lat="59.17098888502039" lon="8.565283324695459" id="-25951">
		<tag k="name" v="Beinmyr" />
		<tag k="natural" v="wetland" />
		<tag k="ssr:stedsnr" v="821829" />
	</node>
	<node lat="59.17431944686637" lon="8.552149993389682" id="-25955">
		<tag k="name" v="Hjuringheftmyra" />
		<tag k="natural" v="wetland" />
		<tag k="ssr:stedsnr" v="821976" />
	</node>
	<node lat="58.985016671148585" lon="8.554050001939357" id="-25957">
		<tag k="name" v="Tjønnsandmyrane" />
		<tag k="natural" v="wetland" />
		<tag k="ssr:stedsnr" v="822416" />
	</node>
	<node lat="59.00462500004911" lon="8.584230555896994" id="-25961">
		<tag k="name" v="Rennune" />
		<tag k="place" v="locality" />
		<tag k="ssr:stedsnr" v="822818" />
	</node>
	<node lat="58.99989999646268" lon="8.593322226463085" id="-25962">
		<tag k="name" v="Myr-myra" />
		<tag k="natural" v="wetland" />
		<tag k="ssr:stedsnr" v="822826" />
	</node>
	<node lat="59.02995277767696" lon="8.551200007047562" id="-25970">
		<tag k="name" v="Bergåmyra" />
		<tag k="natural" v="wetland" />
		<tag k="ssr:stedsnr" v="823822" />
	</node>
	<node lat="59.01083055427534" lon="8.528205556069864" id="-25976">
		<tag k="name" v="Torvmyrane" />
		<tag k="natural" v="wetland" />
		<tag k="ssr:stedsnr" v="823921" />
	</node>
	<node lat="58.99583055214064" lon="8.611494436361953" id="-25980">
		<tag k="name" v="Kvilebokmyra" />
		<tag k="natural" v="wetland" />
		<tag k="ssr:stedsnr" v="824327" />
	</node>
	<node lat="59.00949444221151" lon="8.693605551732203" id="-25981">
		<tag k="name" v="Dalmyra" />
		<tag k="natural" v="wetland" />
		<tag k="ssr:stedsnr" v="824332" />
	</node>
	<node lat="59.01027222336145" lon="8.640844453114097" id="-25982">
		<tag k="name" v="Laulimyra" />
		<tag k="natural" v="wetland" />
		<tag k="ssr:stedsnr" v="824284" />
	</node>
	<node lat="58.983527781781035" lon="8.651324998180684" id="-25986">
		<tag k="name" v="Rautjønn" />
		<tag k="natural" v="wetland" />
		<tag k="ssr:stedsnr" v="824983" />
	</node>
	<node lat="58.898888887463535" lon="8.770002775661252" id="-25993">
		<tag k="name" v="Skålimyrane" />
		<tag k="natural" v="wetland" />
		<tag k="ssr:stedsnr" v="825264" />
	</node>
	<node lat="58.94191388539919" lon="8.736727782814528" id="-25998">
		<tag k="name" v="Grånslåtta" />
		<tag k="natural" v="wetland" />
		<tag k="ssr:stedsnr" v="825974" />
	</node>
	<node lat="58.982319442304735" lon="8.447211113860952" id="-26002">
		<tag k="name" v="Øvre Kormyra" />
		<tag k="natural" v="wetland" />
		<tag k="ssr:stedsnr" v="827074" />
	</node>
	<node lat="59.02496667007446" lon="8.618333340308451" id="-26005">
		<tag k="name" v="Vimyr" />
		<tag k="natural" v="wetland" />
		<tag k="ssr:stedsnr" v="836017" />
	</node>
	<node lat="59.031494448447" lon="8.616566668352505" id="-26006">
		<tag k="name" v="Karisbuberget" />
		<tag k="place" v="locality" />
		<tag k="ssr:stedsnr" v="836035" />
	</node>
	<node lat="59.11943889279266" lon="8.390405558296871" id="-26023">
		<tag k="name" v="Trøyborg" />
		<tag k="natural" v="wetland" />
		<tag k="ssr:stedsnr" v="836988" />
	</node>
	<node lat="59.1730916634431" lon="8.63074721583314" id="-26026">
		<tag k="name" v="Krokbekksteane" />
		<tag k="natural" v="wetland" />
		<tag k="ssr:stedsnr" v="837590" />
	</node>
	<node lat="59.03632500077313" lon="8.698947224760806" id="-26027">
		<tag k="name" v="Jonsmyr" />
		<tag k="natural" v="wetland" />
		<tag k="ssr:stedsnr" v="837983" />
	</node>
	<node lat="58.95651944857642" lon="8.653813889561615" id="-26043">
		<tag k="alt_name" v="Krikkemyrane" />
		<tag k="name" v="Krikkmyrane" />
		<tag k="natural" v="wetland" />
		<tag k="ssr:stedsnr" v="851318" />
	</node>
	<node lat="59.07301110960283" lon="8.479236104480655" id="-26049">
		<tag k="name" v="Ufshommen" />
		<tag k="place" v="locality" />
		<tag k="ssr:stedsnr" v="851611" />
	</node>
	<node lat="59.157613890322835" lon="8.576941658205572" id="-26066">
		<tag k="name" v="Bjønndalshefte" />
		<tag k="place" v="locality" />
		<tag k="ssr:stedsnr" v="882405" />
	</node>
	<node lat="59.166077773690965" lon="8.558805552337235" id="-26068">
		<tag k="name" v="Mannmyrane" />
		<tag k="natural" v="wetland" />
		<tag k="ssr:stedsnr" v="882623" />
	</node>
	<node lat="59.040619444749424" lon="8.548202770835747" id="-26073">
		<tag k="name" v="Løkjene" />
		<tag k="natural" v="wetland" />
		<tag k="ssr:stedsnr" v="883664" />
	</node>
	<node lat="58.94523055579733" lon="8.523388895158195" id="-26075">
		<tag k="name" v="Høgfossmyrane" />
		<tag k="natural" v="wetland" />
		<tag k="ssr:stedsnr" v="883858" />
	</node>
	<node lat="59.038422224386274" lon="8.50551944855241" id="-26080">
		<tag k="name" v="Myra" />
		<tag k="place" v="locality" />
		<tag k="ssr:stedsnr" v="884503" />
	</node>
	<node lat="58.855808328882325" lon="8.72766944056803" id="-26081">
		<tag k="historic" v="shieling" />
		<tag k="name" v="Loppestad" />
		<tag k="place" v="locality" />
		<tag k="ssr:stedsnr" v="885310" />
	</node>
	<node lat="58.86577221897829" lon="8.74221944825876" id="-26083">
		<tag k="name" v="Langufs" />
		<tag k="natural" v="wetland" />
		<tag k="ssr:stedsnr" v="885261" />
	</node>
	<node lat="58.887194445202134" lon="8.720605551105844" id="-26086">
		<tag k="name" v="Lusestakksneis" />
		<tag k="natural" v="wetland" />
		<tag k="ssr:stedsnr" v="885419" />
	</node>
	<node lat="58.891858334881434" lon="8.742347215028708" id="-26087">
		<tag k="name" v="Bråvassmyrane" />
		<tag k="natural" v="wetland" />
		<tag k="ssr:stedsnr" v="885423" />
	</node>
	<node lat="58.95291944378301" lon="8.63003333510567" id="-26090">
		<tag k="name" v="Rølenda" />
		<tag k="place" v="locality" />
		<tag k="ssr:stedsnr" v="885606" />
	</node>
	<node lat="58.93333889161738" lon="8.716133329398382" id="-26094">
		<tag k="name" v="Barlindseten" />
		<tag k="natural" v="wetland" />
		<tag k="ssr:stedsnr" v="885957" />
	</node>
	<node lat="58.97709722046588" lon="8.472933325478275" id="-26097">
		<tag k="name" v="Krokåstea" />
		<tag k="natural" v="wetland" />
		<tag k="ssr:stedsnr" v="888052" />
	</node>
	<node lat="58.98693055265264" lon="8.427999993327093" id="-26101">
		<tag k="name" v="Støylsdalsslåtten" />
		<tag k="natural" v="wetland" />
		<tag k="ssr:stedsnr" v="895319" />
	</node>
	<node lat="59.02198055410455" lon="8.6115250078906" id="-26105">
		<tag k="name" v="Stea" />
		<tag k="natural" v="wetland" />
		<tag k="ssr:stedsnr" v="896175" />
	</node>
	<node lat="59.0040027771131" lon="8.48422499768434" id="-26107">
		<tag k="name" v="Langemyr" />
		<tag k="natural" v="wetland" />
		<tag k="ssr:stedsnr" v="896264" />
	</node>
	<node lat="59.20095833219904" lon="8.401366663843207" id="-26119">
		<tag k="name" v="Finnroa" />
		<tag k="place" v="locality" />
		<tag k="ssr:stedsnr" v="897264" />
	</node>
	<node lat="59.1351638844743" lon="8.441236109867383" id="-26123">
		<tag k="name" v="Lauvbumyra" />
		<tag k="natural" v="wetland" />
		<tag k="ssr:stedsnr" v="897568" />
	</node>
	<node lat="58.95002499747031" lon="8.656952784075555" id="-26131">
		<tag k="name" v="Elgmyrane" />
		<tag k="natural" v="wetland" />
		<tag k="ssr:stedsnr" v="911329" />
	</node>
	<node lat="59.00502777879366" lon="8.613588893756921" id="-26149">
		<tag k="name" v="Vatningsmyrane" />
		<tag k="natural" v="wetland" />
		<tag k="ssr:stedsnr" v="912496" />
	</node>
	<node lat="59.025569440064935" lon="8.60719443679248" id="-26163">
		<tag k="name" v="Det lange jordet" />
		<tag k="place" v="locality" />
		<tag k="ssr:stedsnr" v="944292" />
	</node>
	<node lat="58.984994441875045" lon="8.51098611530869" id="-26164">
		<tag k="name" v="Floghammarmyrane" />
		<tag k="natural" v="wetland" />
		<tag k="ssr:stedsnr" v="944432" />
	</node>
	<node lat="59.05371389244886" lon="8.577330560131518" id="-26166">
		<tag k="name" v="Høyskogmyrane" />
		<tag k="natural" v="wetland" />
		<tag k="ssr:stedsnr" v="944609" />
	</node>
	<node lat="59.037386108510894" lon="8.508422230899267" id="-26167">
		<tag k="name" v="Reinane" />
		<tag k="place" v="locality" />
		<tag k="ssr:stedsnr" v="944375" />
	</node>
	<node lat="59.01093333440468" lon="8.609016668927179" id="-26168">
		<tag k="name" v="Steinsmyr" />
		<tag k="natural" v="wetland" />
		<tag k="ssr:stedsnr" v="944796" />
	</node>
	<node lat="59.00546111531162" lon="8.654677780912118" id="-26170">
		<tag k="name" v="Breivasskavelen" />
		<tag k="place" v="locality" />
		<tag k="ssr:stedsnr" v="945179" />
	</node>
	<node lat="59.0062361146211" lon="8.693663893067349" id="-26174">
		<tag k="name" v="Nistogslåtten" />
		<tag k="natural" v="wetland" />
		<tag k="ssr:stedsnr" v="945283" />
	</node>
	<node lat="58.925886112871936" lon="8.502549991916316" id="-26175">
		<tag k="name" v="Røyrmyr" />
		<tag k="natural" v="wetland" />
		<tag k="ssr:stedsnr" v="945380" />
	</node>
	<node lat="58.91590555947807" lon="8.730636106380857" id="-26179">
		<tag k="name" v="Rundhol" />
		<tag k="natural" v="wetland" />
		<tag k="ssr:stedsnr" v="946080" />
	</node>
	<node lat="59.07216666361756" lon="8.454583334705436" id="-26183">
		<tag k="name" v="Flostadsvåune" />
		<tag k="place" v="locality" />
		<tag k="ssr:stedsnr" v="229516" />
	</node>
	<node lat="59.13121944293413" lon="8.346322219132816" id="-26187">
		<tag k="name" v="Tobakkhommen" />
		<tag k="place" v="locality" />
		<tag k="ssr:stedsnr" v="955515" />
	</node>
	<node lat="58.944400000186235" lon="8.360377770067583" id="-26189">
		<tag k="name" v="Bjønnmyra" />
		<tag k="natural" v="wetland" />
		<tag k="ssr:stedsnr" v="955947" />
	</node>
	<node lat="58.94266944466753" lon="8.409275007508027" id="-26191">
		<tag k="name" v="Høymyr" />
		<tag k="natural" v="wetland" />
		<tag k="ssr:stedsnr" v="956301" />
	</node>
	<node lat="59.035524998514624" lon="8.425477785957922" id="-26193">
		<tag k="name" v="Sønjansmyra" />
		<tag k="natural" v="wetland" />
		<tag k="ssr:stedsnr" v="957111" />
	</node>
	<node lat="59.07073611098132" lon="8.4028694387174" id="-26199">
		<tag k="name" v="Oddeslåtta" />
		<tag k="natural" v="wetland" />
		<tag k="ssr:stedsnr" v="957411" />
	</node>
	<node lat="59.06596666524818" lon="8.423052772824972" id="-26200">
		<tag k="name" v="Gardskarten" />
		<tag k="natural" v="wetland" />
		<tag k="ssr:stedsnr" v="957413" />
	</node>
	<node lat="59.02769722130219" lon="8.631777771142575" id="-26209">
		<tag k="name" v="Negards Kvarvåsmyr" />
		<tag k="natural" v="wetland" />
		<tag k="ssr:stedsnr" v="958009" />
	</node>
	<node lat="59.03329166429765" lon="8.65419722765808" id="-26210">
		<tag k="name" v="Bjønntjønnmyra" />
		<tag k="natural" v="wetland" />
		<tag k="ssr:stedsnr" v="958087" />
	</node>
	<node lat="59.10334167018359" lon="8.459719441723587" id="-26223">
		<tag k="name" v="Store Løyningsmyr" />
		<tag k="natural" v="wetland" />
		<tag k="ssr:stedsnr" v="229021" />
	</node>
	<node lat="59.05192778184407" lon="8.46118333091642" id="-26225">
		<tag k="name" v="Kasine" />
		<tag k="place" v="locality" />
		<tag k="ssr:stedsnr" v="229096" />
	</node>
	<node lat="59.120158329110986" lon="8.468222226119282" id="-26226">
		<tag k="name" v="Teigjen" />
		<tag k="place" v="locality" />
		<tag k="ssr:stedsnr" v="229044" />
	</node>
	<node lat="59.0284000044024" lon="8.66234167101826" id="-26228">
		<tag k="name" v="Slåtta under støylen" />
		<tag k="natural" v="wetland" />
		<tag k="ssr:stedsnr" v="229061" />
	</node>
	<node lat="59.03035277575953" lon="8.65596665849021" id="-26229">
		<tag k="name" v="Bjønntjønnsteane" />
		<tag k="natural" v="wetland" />
		<tag k="ssr:stedsnr" v="229071" />
	</node>
	<node lat="58.98103888984936" lon="8.570616669441067" id="-26230">
		<tag k="name" v="Rikreismyr" />
		<tag k="natural" v="wetland" />
		<tag k="ssr:stedsnr" v="280" />
	</node>
	<node lat="58.95154444082763" lon="8.679038890150114" id="-26249">
		<tag k="alt_name" v="Stormyr" />
		<tag k="name" v="Stormyrsteane" />
		<tag k="natural" v="wetland" />
		<tag k="ssr:stedsnr" v="1433" />
	</node>
	<node lat="59.189655559322084" lon="8.556544450343615" id="-26260">
		<tag k="name" v="Tomyr" />
		<tag k="natural" v="wetland" />
		<tag k="ssr:stedsnr" v="1851" />
	</node>
	<node lat="59.034661107240744" lon="8.552947230323593" id="-26295">
		<tag k="name" v="Steinen i tona" />
		<tag k="natural" v="stone" />
		<tag k="ssr:stedsnr" v="34390" />
	</node>
	<node lat="59.21106388896114" lon="8.563563885096173" id="-26299">
		<tag k="name" v="Bjønnehagane" />
		<tag k="natural" v="wetland" />
		<tag k="ssr:stedsnr" v="32936" />
	</node>
	<node lat="59.217652774965565" lon="8.56389722211607" id="-26300">
		<tag k="name" v="Bronmyrane" />
		<tag k="natural" v="wetland" />
		<tag k="ssr:stedsnr" v="32939" />
	</node>
	<node lat="59.22266389164413" lon="8.576372217292112" id="-26301">
		<tag k="name" v="Dalslåttune" />
		<tag k="natural" v="wetland" />
		<tag k="ssr:stedsnr" v="32940" />
	</node>
	<node lat="59.05760000070831" lon="8.601822228055024" id="-26305">
		<tag k="name" v="Bjønnhislåtta" />
		<tag k="natural" v="wetland" />
		<tag k="ssr:stedsnr" v="33610" />
	</node>
	<node lat="58.945383336801555" lon="8.504455549295413" id="-26308">
		<tag k="name" v="Avondssteinen" />
		<tag k="natural" v="stone" />
		<tag k="ssr:stedsnr" v="33828" />
	</node>
	<node lat="58.93648888798919" lon="8.528983338276774" id="-26310">
		<tag k="name" v="Tjønnslåtta" />
		<tag k="natural" v="wetland" />
		<tag k="ssr:stedsnr" v="33844" />
	</node>
	<node lat="58.99961944721786" lon="8.569900001404799" id="-26313">
		<tag k="name" v="Dølestea" />
		<tag k="place" v="locality" />
		<tag k="ssr:stedsnr" v="33781" />
	</node>
	<node lat="58.9291805575779" lon="8.501727782810525" id="-26314">
		<tag k="name" v="Ugledalsmyra" />
		<tag k="natural" v="wetland" />
		<tag k="ssr:stedsnr" v="33796" />
	</node>
	<node lat="58.93455833221704" lon="8.584336102557272" id="-26316">
		<tag k="name" v="Venermyr" />
		<tag k="natural" v="wetland" />
		<tag k="ssr:stedsnr" v="33896" />
	</node>
	<node lat="59.004580554579185" lon="8.631788882976247" id="-26322">
		<tag k="name" v="Kvenntjønnøyna" />
		<tag k="place" v="locality" />
		<tag k="ssr:stedsnr" v="34225" />
	</node>
	<node lat="58.95046944508118" lon="8.682155556607166" id="-26325">
		<tag k="name" v="Bekkhus" />
		<tag k="natural" v="wetland" />
		<tag k="ssr:stedsnr" v="35080" />
	</node>
	<node lat="59.05564444450548" lon="8.543566667202153" id="-26329">
		<tag k="name" v="Kåparslåtten" />
		<tag k="natural" v="wetland" />
		<tag k="ssr:stedsnr" v="34537" />
	</node>
	<node lat="59.02586944878369" lon="8.533369442704743" id="-26331">
		<tag k="historic" v="shieling" />
		<tag k="name" v="Lislestøyl" />
		<tag k="place" v="locality" />
		<tag k="ssr:stedsnr" v="34842" />
	</node>
	<node lat="58.98159722077874" lon="8.613819439245209" id="-26332">
		<tag k="name" v="Løstadmyrane" />
		<tag k="natural" v="wetland" />
		<tag k="ssr:stedsnr" v="35190" />
	</node>
	<node lat="58.90548888559876" lon="8.770147229477871" id="-26347">
		<tag k="name" v="Godøl" />
		<tag k="natural" v="wetland" />
		<tag k="ssr:stedsnr" v="36084" />
	</node>
	<node lat="58.91614721855008" lon="8.763322215958611" id="-26349">
		<tag k="name" v="Langmyrane" />
		<tag k="natural" v="wetland" />
		<tag k="ssr:stedsnr" v="36990" />
	</node>
	<node lat="58.89689721882273" lon="8.799108334183353" id="-26351">
		<tag k="name" v="Storkjerra" />
		<tag k="natural" v="wetland" />
		<tag k="ssr:stedsnr" v="36627" />
	</node>
	<node lat="58.89200833124447" lon="8.79270277520733" id="-26352">
		<tag k="name" v="Ljågrasmyra" />
		<tag k="natural" v="wetland" />
		<tag k="ssr:stedsnr" v="36629" />
	</node>
	<node lat="58.98429444216593" lon="8.475699998394775" id="-26355">
		<tag k="name" v="Øykjemyra" />
		<tag k="natural" v="wetland" />
		<tag k="ssr:stedsnr" v="45071" />
	</node>
	<node lat="59.06950277456017" lon="8.633102769612373" id="-26373">
		<tag k="name" v="Skuta" />
		<tag k="place" v="locality" />
		<tag k="ssr:stedsnr" v="47094" />
	</node>
</osm>
