<?xml version="1.0" encoding="UTF-8"?>
<<<<<<< HEAD
<osm version="0.6" generator="osmapis">
	<node lat="59.0369333350974" lon="8.667705562926818" id="-30189">
		<tag k="highway" v="path" />
		<tag k="name" v="Rosstjønnstigen" />
		<tag k="ssr:stedsnr" v="230971" />
	</node>
	<node lat="59.16448611164061" lon="8.562208336241746" id="-30196">
		<tag k="ford" v="yes" />
		<tag k="name" v="Uvdalsvadet" />
		<tag k="place" v="locality" />
		<tag k="ssr:stedsnr" v="32667" />
	</node>
	<node lat="59.157305556585776" lon="8.504386114898045" id="-30219">
		<tag k="bridge" v="yes" />
		<tag k="layer" v="1" />
		<tag k="name" v="Tingstå" />
		<tag k="ssr:stedsnr" v="46473" />
	</node>
	<node lat="59.071322223563456" lon="8.437266672225618" id="-30221">
		<tag k="man_made" v="cairn" />
		<tag k="name" v="Steinar i skaret" />
		<tag k="place" v="locality" />
		<tag k="ssr:stedsnr" v="46488" />
	</node>
	<node lat="59.21041388965585" lon="8.491138893787706" id="-30228">
		<tag k="name" v="Flesjekastet" />
		<tag k="place" v="locality" />
		<tag k="ssr:stedsnr" v="47220" />
	</node>
	<node lat="59.12603888957908" lon="8.4315666694194" id="-30237">
		<tag k="ford" v="yes" />
		<tag k="name" v="Vettervadet" />
		<tag k="place" v="locality" />
		<tag k="ssr:stedsnr" v="47475" />
	</node>
	<node lat="59.142138891380796" lon="8.40396388490581" id="-30243">
		<tag k="highway" v="path" />
		<tag k="name" v="Kvålstigen" />
		<tag k="ssr:stedsnr" v="47724" />
	</node>
	<node lat="59.15691389210661" lon="8.421816662190212" id="-30245">
		<tag k="highway" v="path" />
		<tag k="name" v="Hoppadaua" />
		<tag k="ssr:stedsnr" v="47777" />
	</node>
	<node lat="58.97926666910449" lon="8.444561104036632" id="-30375">
		<tag k="highway" v="path" />
		<tag k="name" v="Korstigane" />
		<tag k="ssr:stedsnr" v="99071" />
	</node>
	<node lat="59.15206944479567" lon="8.37487222638977" id="-30470">
		<tag k="highway" v="path" />
		<tag k="name" v="Vettmyrbakken" />
		<tag k="ssr:stedsnr" v="166575" />
	</node>
	<node lat="59.20191666603632" lon="8.517349995220188" id="-30541">
		<tag k="junction" v="yes" />
		<tag k="name" v="Gardkrik" />
		<tag k="place" v="locality" />
		<tag k="ssr:stedsnr" v="215588" />
	</node>
	<node lat="58.97782222178503" lon="8.445602786376748" id="-30575">
		<tag k="highway" v="path" />
		<tag k="name" v="Bjønnestigen" />
		<tag k="ssr:stedsnr" v="220095" />
	</node>
	<node lat="59.224913887071565" lon="8.497972224473791" id="-30584">
=======
<osm generator="osmapis" version="0.6">
	<node id="-464384" lat="59.1491083311" lon="8.51227778171">
		<tag k="bridge" v="yes" />
		<tag k="layer" v="1" />
		<tag k="name" v="Århus" />
		<tag k="ssr:stedsnr" v="471449" />
	</node>
	<node id="-464383" lat="59.0081861076" lon="8.58831110345">
>>>>>>> e1d4bc35ff8a6074a6f2e91616a996b547c36f15
		<tag k="bridge" v="yes" />
		<tag k="layer" v="1" />
		<tag k="name" v="Sandnes" />
		<tag k="ssr:stedsnr" v="228482" />
	</node>
<<<<<<< HEAD
	<node lat="59.05366667088969" lon="8.513883336462158" id="-30585">
=======
	<node id="-464382" lat="59.0923944423" lon="8.49295833438">
>>>>>>> e1d4bc35ff8a6074a6f2e91616a996b547c36f15
		<tag k="bridge" v="yes" />
		<tag k="layer" v="1" />
		<tag k="name" v="Vik" />
		<tag k="ssr:stedsnr" v="228488" />
	</node>
<<<<<<< HEAD
	<node lat="59.150172221119355" lon="8.460483333847618" id="-30592">
=======
	<node id="-464893" lat="59.1565472226" lon="8.40288610687">
>>>>>>> e1d4bc35ff8a6074a6f2e91616a996b547c36f15
		<tag k="bridge" v="yes" />
		<tag k="layer" v="1" />
		<tag k="name" v="Frostdølbrua" />
		<tag k="ssr:stedsnr" v="229409" />
	</node>
<<<<<<< HEAD
	<node lat="58.98572222353114" lon="8.476972224579905" id="-30731">
=======
	<node id="-464379" lat="59.0022111149" lon="8.46746389293">
>>>>>>> e1d4bc35ff8a6074a6f2e91616a996b547c36f15
		<tag k="highway" v="path" />
		<tag k="name" v="Juvekleiva" />
		<tag k="ssr:stedsnr" v="288081" />
	</node>
<<<<<<< HEAD
	<node lat="58.95142222586874" lon="8.39489445202423" id="-30735">
		<tag k="landuse" v="industrial" />
		<tag k="name" v="Dynjanfoss kraftverk" />
		<tag k="power" v="plant" />
		<tag k="ssr:stedsnr" v="289177" />
	</node>
	<node lat="59.07637222429917" lon="8.442349997508357" id="-30738">
		<tag k="highway" v="path" />
		<tag k="name" v="Ingrid stigen" />
		<tag k="ssr:stedsnr" v="289596" />
	</node>
	<node lat="59.193200000331174" lon="8.399174998596367" id="-30746">
=======
	<node id="-465400" lat="58.9493916709" lon="8.64833888281">
		<tag k="highway" v="path" />
		<tag k="name" v="Stigen" />
		<tag k="ssr:stedsnr" v="824656" />
	</node>
	<node id="-464374" lat="59.0924333348" lon="8.45837221836">
		<tag k="name" v="Stolpestaden" />
		<tag k="place" v="locality" />
		<tag k="ssr:stedsnr" v="471243" />
	</node>
	<node id="-466931" lat="59.0693999961" lon="8.64408333249">
>>>>>>> e1d4bc35ff8a6074a6f2e91616a996b547c36f15
		<tag k="ford" v="yes" />
		<tag k="name" v="Reinstøylvadet" />
		<tag k="place" v="locality" />
		<tag k="ssr:stedsnr" v="290328" />
	</node>
<<<<<<< HEAD
	<node lat="59.11539444285108" lon="8.445972218719406" id="-30785">
		<tag k="highway" v="path" />
		<tag k="name" v="Hågbakk" />
		<tag k="ssr:stedsnr" v="471051" />
	</node>
	<node lat="59.092433334795885" lon="8.458372218361518" id="-30791">
		<tag k="name" v="Stolpestaden" />
		<tag k="place" v="locality" />
		<tag k="ssr:stedsnr" v="471243" />
	</node>
	<node lat="59.00221111493079" lon="8.467463892925142" id="-30794">
=======
	<node id="-464876" lat="58.8963305595" lon="8.71037222171">
		<tag k="bridge" v="yes" />
		<tag k="layer" v="1" />
		<tag k="name" v="Brekke" />
		<tag k="ssr:stedsnr" v="714392" />
	</node>
	<node id="-467685" lat="59.1736833308" lon="8.67095277208">
		<tag k="ford" v="yes" />
		<tag k="name" v="Bergvad" />
		<tag k="place" v="locality" />
		<tag k="ssr:stedsnr" v="775577" />
	</node>
	<node id="-464871" lat="58.9735972186" lon="8.3651944496">
		<tag k="bridge" v="yes" />
		<tag k="layer" v="1" />
		<tag k="name" v="Dalsbekk" />
		<tag k="ssr:stedsnr" v="714380" />
	</node>
	<node id="-466918" lat="59.0504527751" lon="8.45328610615">
		<tag k="ford" v="yes" />
		<tag k="name" v="Vadet" />
		<tag k="place" v="locality" />
		<tag k="ssr:stedsnr" v="411834" />
	</node>
	<node id="-464869" lat="59.1554055515" lon="8.45171110683">
		<tag k="bridge" v="yes" />
		<tag k="layer" v="1" />
		<tag k="name" v="Krokan" />
		<tag k="ssr:stedsnr" v="714377" />
	</node>
	<node id="-464866" lat="59.0147583316" lon="8.6083083335">
		<tag k="name" v="Kasti" />
		<tag k="place" v="locality" />
		<tag k="ssr:stedsnr" v="714133" />
	</node>
	<node id="-465375" lat="59.0362666676" lon="8.52453056364">
		<tag k="highway" v="path" />
		<tag k="name" v="Nordgardsrusli" />
		<tag k="ssr:stedsnr" v="822656" />
	</node>
	<node id="-465873" lat="59.1147972229" lon="8.40396943912">
		<tag k="ford" v="yes" />
		<tag k="name" v="Barlinvadet" />
		<tag k="place" v="locality" />
		<tag k="ssr:stedsnr" v="47999" />
	</node>
	<node id="-464848" lat="59.1459527766" lon="8.44570832968">
		<tag k="name" v="Bjalkekastet" />
		<tag k="place" v="locality" />
		<tag k="ssr:stedsnr" v="592409" />
	</node>
	<node id="-466886" lat="58.9972638907" lon="8.46785278082">
		<tag k="highway" v="path" />
		<tag k="name" v="Lusebakkjen" />
		<tag k="ssr:stedsnr" v="411260" />
	</node>
	<node id="-465860" lat="59.1569138921" lon="8.42181666219">
>>>>>>> e1d4bc35ff8a6074a6f2e91616a996b547c36f15
		<tag k="highway" v="path" />
		<tag k="name" v="Gamakleivane" />
		<tag k="ssr:stedsnr" v="471358" />
	</node>
<<<<<<< HEAD
	<node lat="59.09239444233847" lon="8.492958334381203" id="-30795">
		<tag k="bridge" v="yes" />
		<tag k="layer" v="1" />
		<tag k="name" v="Trontveit bru" />
		<tag k="ssr:stedsnr" v="471444" />
	</node>
	<node lat="59.008186107597574" lon="8.58831110344774" id="-30796">
=======
	<node id="-464323" lat="59.1599666628" lon="8.44468332726">
		<tag k="bridge" v="yes" />
		<tag k="layer" v="1" />
		<tag k="name" v="Bergvadbrua" />
		<tag k="ssr:stedsnr" v="290373" />
	</node>
	<node id="-466881" lat="59.2124666623" lon="8.43542221414">
		<tag k="ford" v="yes" />
		<tag k="name" v="Lindefjellvadet" />
		<tag k="place" v="locality" />
		<tag k="ssr:stedsnr" v="411196" />
	</node>
	<node id="-465856" lat="59.1421388914" lon="8.40396388491">
		<tag k="highway" v="path" />
		<tag k="name" v="Kvålstigen" />
		<tag k="ssr:stedsnr" v="47724" />
	</node>
	<node id="-467901" lat="58.9650972257" lon="8.51664444471">
>>>>>>> e1d4bc35ff8a6074a6f2e91616a996b547c36f15
		<tag k="bridge" v="yes" />
		<tag k="layer" v="1" />
		<tag k="name" v="Støyl" />
		<tag k="ssr:stedsnr" v="471446" />
	</node>
<<<<<<< HEAD
	<node lat="59.14910833106071" lon="8.51227778171027" id="-30797">
		<tag k="bridge" v="yes" />
		<tag k="layer" v="1" />
		<tag k="name" v="Århus" />
		<tag k="ssr:stedsnr" v="471449" />
	</node>
	<node lat="59.1514361148605" lon="8.352608341213148" id="-30806">
		<tag k="name" v="Vehuskastet" />
		<tag k="place" v="locality" />
		<tag k="ssr:stedsnr" v="471622" />
	</node>
	<node lat="59.14660278041795" lon="8.372025002396516" id="-30811">
		<tag k="bridge" v="yes" />
		<tag k="layer" v="1" />
		<tag k="name" v="Åbøbrua" />
		<tag k="ssr:stedsnr" v="471636" />
	</node>
	<node lat="59.03740833218959" lon="8.651233334049914" id="-30865">
		<tag k="name" v="Neslaghylen" />
		<tag k="place" v="locality" />
		<tag k="ssr:stedsnr" v="472660" />
	</node>
	<node lat="59.15593888693621" lon="8.386458330122176" id="-30901">
		<tag k="highway" v="path" />
		<tag k="name" v="Bjønnkleiv" />
		<tag k="ssr:stedsnr" v="350968" />
	</node>
	<node lat="59.139383337306235" lon="8.690394450398014" id="-30906">
=======
	<node id="-467900" lat="59.1390722207" lon="8.45559722615">
		<tag k="bridge" v="yes" />
		<tag k="layer" v="1" />
		<tag k="name" v="Håtveit" />
		<tag k="ssr:stedsnr" v="836395" />
	</node>
	<node id="-464314" lat="59.0175916675" lon="8.61527221947">
		<tag k="name" v="Fuglliskotet" />
		<tag k="place" v="locality" />
		<tag k="ssr:stedsnr" v="289159" />
	</node>
	<node id="-465337" lat="59.062341671" lon="8.41307777356">
		<tag k="highway" v="path" />
		<tag k="name" v="Låja" />
		<tag k="ssr:stedsnr" v="774493" />
	</node>
	<node id="-467895" lat="59.0444583305" lon="8.44358889313">
		<tag k="highway" v="path" />
		<tag k="name" v="Grunntjønnkleivane" />
		<tag k="ssr:stedsnr" v="836079" />
	</node>
	<node id="-465846" lat="59.1260388896" lon="8.43156666942">
		<tag k="ford" v="yes" />
		<tag k="name" v="Vettervadet" />
		<tag k="place" v="locality" />
		<tag k="ssr:stedsnr" v="47475" />
	</node>
	<node id="-467892" lat="58.9292833337" lon="8.46019444537">
		<tag k="highway" v="path" />
		<tag k="name" v="Stigspranget" />
		<tag k="ssr:stedsnr" v="835487" />
	</node>
	<node id="-463794" lat="59.0536666709" lon="8.51388333646">
		<tag k="bridge" v="yes" />
		<tag k="layer" v="1" />
		<tag k="name" v="Vik" />
		<tag k="ssr:stedsnr" v="228488" />
	</node>
	<node id="-463793" lat="59.2249138871" lon="8.49797222447">
		<tag k="bridge" v="yes" />
		<tag k="layer" v="1" />
		<tag k="name" v="Sandnes" />
		<tag k="ssr:stedsnr" v="228482" />
	</node>
	<node id="-467888" lat="58.9505694432" lon="8.48605555301">
		<tag k="highway" v="path" />
		<tag k="name" v="Jenstigen" />
		<tag k="ssr:stedsnr" v="835237" />
	</node>
	<node id="-466855" lat="58.9673833348" lon="8.47551945144">
		<tag k="highway" v="path" />
		<tag k="name" v="Jeitekleiv" />
		<tag k="ssr:stedsnr" v="410019" />
	</node>
	<node id="-465830" lat="59.2104138897" lon="8.49113889379">
		<tag k="name" v="Flesjekastet" />
		<tag k="place" v="locality" />
		<tag k="ssr:stedsnr" v="47220" />
	</node>
	<node id="-466852" lat="59.1311500015" lon="8.3624444468">
		<tag k="highway" v="path" />
		<tag k="name" v="Primkleiv" />
		<tag k="ssr:stedsnr" v="409551" />
	</node>
	<node id="-463776" lat="58.9778222218" lon="8.44560278638">
		<tag k="highway" v="path" />
		<tag k="name" v="Bjønnestigen" />
		<tag k="ssr:stedsnr" v="220095" />
	</node>
	<node id="-467358" lat="59.0387083352" lon="8.66543889723">
		<tag k="highway" v="path" />
		<tag k="name" v="Rosstjønnvrengen" />
		<tag k="ssr:stedsnr" v="593941" />
	</node>
	<node id="-466844" lat="59.1000388863" lon="8.37915000477">
>>>>>>> e1d4bc35ff8a6074a6f2e91616a996b547c36f15
		<tag k="highway" v="path" />
		<tag k="name" v="Uvdalsstigen" />
		<tag k="ssr:stedsnr" v="351325" />
	</node>
<<<<<<< HEAD
	<node lat="59.13115000152116" lon="8.36244444679694" id="-31015">
=======
	<node id="-466843" lat="58.9786111084" lon="8.46228056358">
>>>>>>> e1d4bc35ff8a6074a6f2e91616a996b547c36f15
		<tag k="highway" v="path" />
		<tag k="name" v="Primkleiv" />
		<tag k="ssr:stedsnr" v="409551" />
	</node>
<<<<<<< HEAD
	<node lat="58.96738333478982" lon="8.47551945143703" id="-31016">
		<tag k="highway" v="path" />
		<tag k="name" v="Jeitekleiv" />
		<tag k="ssr:stedsnr" v="410019" />
	</node>
	<node lat="59.21246666228275" lon="8.435422214139303" id="-31039">
		<tag k="ford" v="yes" />
		<tag k="name" v="Lindefjellvadet" />
		<tag k="place" v="locality" />
		<tag k="ssr:stedsnr" v="411196" />
	</node>
	<node lat="59.05045277505058" lon="8.45328610614712" id="-31047">
		<tag k="ford" v="yes" />
		<tag k="name" v="Vadet" />
		<tag k="place" v="locality" />
		<tag k="ssr:stedsnr" v="411834" />
	</node>
	<node lat="59.2111944435078" lon="8.539002778146319" id="-31072">
		<tag k="alt_name" v="Ufsvad" />
		<tag k="ford" v="yes" />
		<tag k="name" v="Ufsevad" />
		<tag k="place" v="locality" />
		<tag k="ssr:stedsnr" v="487888" />
	</node>
	<node lat="59.14960277412504" lon="8.432188888852686" id="-31160">
		<tag k="name" v="Sigurdstøyl" />
=======
	<node id="-466328" lat="59.0392472192" lon="8.67277499179">
		<tag k="highway" v="path" />
		<tag k="name" v="Kolbjørnstigen" />
		<tag k="ssr:stedsnr" v="169949" />
	</node>
	<node id="-465812" lat="59.0713222236" lon="8.43726667223">
		<tag k="man_made" v="cairn" />
		<tag k="name" v="Steinar i skaret" />
		<tag k="place" v="locality" />
		<tag k="ssr:stedsnr" v="46488" />
	</node>
	<node id="-465810" lat="59.1573055566" lon="8.5043861149">
		<tag k="bridge" v="yes" />
		<tag k="layer" v="1" />
		<tag k="name" v="Tingstå" />
		<tag k="ssr:stedsnr" v="46473" />
	</node>
	<node id="-467267" lat="59.0447972225" lon="8.51365833675">
		<tag k="highway" v="path" />
		<tag k="name" v="Lilandskleiva" />
		<tag k="ssr:stedsnr" v="580278" />
	</node>
	<node id="-464784" lat="58.9640333357" lon="8.705249996">
		<tag k="name" v="Leet" />
		<tag k="place" v="locality" />
		<tag k="ssr:stedsnr" v="703025" />
	</node>
	<node id="-466319" lat="59.1596138854" lon="8.3481944482">
		<tag k="bridge" v="yes" />
		<tag k="layer" v="1" />
		<tag k="name" v="Grytebrua" />
		<tag k="ssr:stedsnr" v="168886" />
	</node>
	<node id="-464779" lat="58.9013750037" lon="8.7254083386">
		<tag k="highway" v="path" />
		<tag k="name" v="Honnekleiv" />
		<tag k="ssr:stedsnr" v="702352" />
	</node>
	<node id="-464364" lat="59.1153944429" lon="8.44597221872">
		<tag k="highway" v="path" />
		<tag k="name" v="Hågbakk" />
		<tag k="ssr:stedsnr" v="471051" />
	</node>
	<node id="-466310" lat="59.0961888903" lon="8.38721110799">
		<tag k="man_made" v="cairn" />
		<tag k="name" v="Jamndokk" />
		<tag k="place" v="locality" />
		<tag k="ssr:stedsnr" v="168450" />
	</node>
	<node id="-465797" lat="58.9371638872" lon="8.36062778032">
		<tag k="highway" v="path" />
		<tag k="name" v="Tørfurkleiva" />
		<tag k="ssr:stedsnr" v="45918" />
	</node>
	<node id="-464769" lat="59.0181472235" lon="8.52014167361">
		<tag k="man_made" v="quay" />
		<tag k="name" v="Brygga" />
		<tag k="place" v="locality" />
		<tag k="ssr:stedsnr" v="701939" />
	</node>
	<node id="-467837" lat="59.0202999992" lon="8.51973332749">
		<tag k="leisure" v="marina" />
		<tag k="name" v="Tvitsto" />
		<tag k="ssr:stedsnr" v="823786" />
	</node>
	<node id="-467317" lat="58.9791972235" lon="8.32929999151">
		<tag k="bridge" v="yes" />
		<tag k="layer" v="1" />
		<tag k="name" v="Rone" />
		<tag k="ssr:stedsnr" v="592470" />
	</node>
	<node id="-466804" lat="59.0178277757" lon="8.52445832625">
		<tag k="alt_name" v="Tveitsund" />
		<tag k="bridge" v="yes" />
		<tag k="layer" v="1" />
		<tag k="name" v="Tveitsund bru" />
		<tag k="ssr:stedsnr" v="398938" />
	</node>
	<node id="-467315" lat="59.1481722201" lon="8.47456110436">
		<tag k="name" v="Det store rullekastet" />
>>>>>>> e1d4bc35ff8a6074a6f2e91616a996b547c36f15
		<tag k="place" v="locality" />
		<tag k="ssr:stedsnr" v="472204" />
	</node>
<<<<<<< HEAD
	<node lat="59.0343388855626" lon="8.504755552695212" id="-31225">
		<tag k="fixme" v="verify maritime location" />
		<tag k="mooring" v="yes" />
		<tag k="name" v="Åkrokane" />
		<tag k="old_name" v="Åkokane" />
		<tag k="place" v="locality" />
		<tag k="ssr:stedsnr" v="519864" />
	</node>
	<node lat="58.9026666644266" lon="8.813786105837059" id="-31241">
		<tag k="highway" v="path" />
		<tag k="name" v="Klomra" />
		<tag k="ssr:stedsnr" v="521661" />
	</node>
	<node lat="58.945833330047684" lon="8.482463890890108" id="-31257">
		<tag k="landuse" v="industrial" />
		<tag k="name" v="Berli kraftstasjon" />
		<tag k="power" v="plant" />
		<tag k="ssr:stedsnr" v="531400" />
	</node>
	<node lat="59.03425278146995" lon="8.509708332911698" id="-31276">
=======
	<node id="-464870" lat="58.9777083303" lon="8.52187221443">
		<tag k="bridge" v="yes" />
		<tag k="layer" v="1" />
		<tag k="name" v="Eidstjønn" />
		<tag k="ssr:stedsnr" v="714379" />
	</node>
	<node id="-465757" lat="59.0489388852" lon="8.50891667404">
		<tag k="fixme" v="verify maritime location" />
		<tag k="mooring" v="yes" />
		<tag k="name" v="Harpestø" />
		<tag k="place" v="locality" />
		<tag k="ssr:stedsnr" v="34525" />
	</node>
	<node id="-464732" lat="59.0342527815" lon="8.50970833291">
>>>>>>> e1d4bc35ff8a6074a6f2e91616a996b547c36f15
		<tag k="bridge" v="yes" />
		<tag k="layer" v="1" />
		<tag k="name" v="Årak" />
		<tag k="ssr:stedsnr" v="532415" />
	</node>
<<<<<<< HEAD
	<node lat="58.94259166300585" lon="8.505650003933578" id="-31277">
		<tag k="bridge" v="yes" />
		<tag k="layer" v="1" />
		<tag k="name" v="Haugsjåsund" />
		<tag k="ssr:stedsnr" v="532421" />
	</node>
	<node lat="58.91382222511968" lon="8.626533339748011" id="-31372">
=======
	<node id="-464725" lat="58.9173638903" lon="8.45590000455">
		<tag k="highway" v="path" />
		<tag k="name" v="Tverrfjellkleiva" />
		<tag k="ssr:stedsnr" v="531652" />
	</node>
	<node id="-464724" lat="58.9168555526" lon="8.45100556206">
		<tag k="highway" v="path" />
		<tag k="name" v="Norstigen" />
		<tag k="ssr:stedsnr" v="531641" />
	</node>
	<node id="-467282" lat="58.9138222251" lon="8.62653333975">
>>>>>>> e1d4bc35ff8a6074a6f2e91616a996b547c36f15
		<tag k="ford" v="yes" />
		<tag k="name" v="Onstadvøylen" />
		<tag k="place" v="locality" />
		<tag k="ssr:stedsnr" v="581348" />
	</node>
<<<<<<< HEAD
	<node lat="59.14817222007687" lon="8.474561104357306" id="-31390">
		<tag k="name" v="Det store rullekastet" />
=======
	<node id="-467278" lat="58.9588194415" lon="8.75205278278">
		<tag k="highway" v="path" />
		<tag k="name" v="Fellsstien" />
		<tag k="ssr:stedsnr" v="581188" />
	</node>
	<node id="-466662" lat="59.1559388869" lon="8.38645833012">
		<tag k="highway" v="path" />
		<tag k="name" v="Bjønnkleiv" />
		<tag k="ssr:stedsnr" v="350968" />
	</node>
	<node id="-466755" lat="59.0962916676" lon="8.53576111967">
		<tag k="name" v="Nordstrånd" />
		<tag k="place" v="locality" />
		<tag k="ssr:stedsnr" v="396562" />
	</node>
	<node id="-467083" lat="58.94583333" lon="8.48246389089">
		<tag k="landuse" v="industrial" />
		<tag k="name" v="Berli kraftstasjon" />
		<tag k="power" v="plant" />
		<tag k="ssr:stedsnr" v="531400" />
	</node>
	<node id="-465208" lat="59.1190833307" lon="8.42829166697">
		<tag k="ford" v="yes" />
		<tag k="name" v="Rubbuvadet" />
>>>>>>> e1d4bc35ff8a6074a6f2e91616a996b547c36f15
		<tag k="place" v="locality" />
		<tag k="ssr:stedsnr" v="592452" />
	</node>
<<<<<<< HEAD
	<node lat="59.01814722346638" lon="8.520141673611647" id="-31452">
		<tag k="man_made" v="quay" />
		<tag k="name" v="Brygga" />
=======
	<node id="-465713" lat="59.1644861116" lon="8.56220833624">
		<tag k="ford" v="yes" />
		<tag k="name" v="Uvdalsvadet" />
>>>>>>> e1d4bc35ff8a6074a6f2e91616a996b547c36f15
		<tag k="place" v="locality" />
		<tag k="ssr:stedsnr" v="701939" />
	</node>
<<<<<<< HEAD
	<node lat="58.901375003677046" lon="8.725408338595003" id="-31465">
		<tag k="highway" v="path" />
		<tag k="name" v="Honnekleiv" />
		<tag k="ssr:stedsnr" v="702352" />
	</node>
	<node lat="59.17129999594806" lon="8.574166663652736" id="-31494">
		<tag k="name" v="Rullarplassen" />
		<tag k="place" v="locality" />
		<tag k="ssr:stedsnr" v="638831" />
	</node>
	<node lat="59.00983889213714" lon="8.623713897035175" id="-31510">
		<tag k="ford" v="yes" />
		<tag k="name" v="Husåvadet" />
		<tag k="place" v="locality" />
		<tag k="ssr:stedsnr" v="641174" />
	</node>
	<node lat="59.21708889039485" lon="8.452400007565943" id="-31581">
=======
	<node id="-464162" lat="59.0369333351" lon="8.66770556293">
		<tag k="highway" v="path" />
		<tag k="name" v="Rosstjønnstigen" />
		<tag k="ssr:stedsnr" v="230971" />
	</node>
	<node id="-465180" lat="59.1194194487" lon="8.51952500249">
		<tag k="bridge" v="yes" />
		<tag k="layer" v="1" />
		<tag k="name" v="Løvik" />
		<tag k="ssr:stedsnr" v="896475" />
	</node>
	<node id="-466713" lat="58.9679916669" lon="8.56356389139">
		<tag k="alt_name" v="Veststø" />
		<tag k="fixme" v="verify maritime location" />
		<tag k="mooring" v="yes" />
		<tag k="name" v="Vestå" />
		<tag k="place" v="locality" />
		<tag k="ssr:stedsnr" v="365371" />
	</node>
	<node id="-465176" lat="59.2438805593" lon="8.51478054907">
		<tag k="bridge" v="yes" />
		<tag k="layer" v="1" />
		<tag k="name" v="Funnemark" />
		<tag k="ssr:stedsnr" v="896467" />
	</node>
	<node id="-464151" lat="59.1501722211" lon="8.46048333385">
		<tag k="bridge" v="yes" />
		<tag k="layer" v="1" />
		<tag k="name" v="Frostdølbrua" />
		<tag k="ssr:stedsnr" v="229409" />
	</node>
	<node id="-464145" lat="59.114786115" lon="8.44109999855">
		<tag k="highway" v="path" />
		<tag k="name" v="Torborstadholet" />
		<tag k="ssr:stedsnr" v="229056" />
	</node>
	<node id="-464653" lat="59.2170888904" lon="8.45240000757">
>>>>>>> e1d4bc35ff8a6074a6f2e91616a996b547c36f15
		<tag k="landuse" v="industrial" />
		<tag k="name" v="Fjone kraftstasjon" />
		<tag k="power" v="plant" />
		<tag k="ssr:stedsnr" v="669035" />
	</node>
<<<<<<< HEAD
	<node lat="59.00885278165958" lon="8.591286104387338" id="-31621">
		<tag k="ford" v="yes" />
		<tag k="name" v="Støylsvad" />
=======
	<node id="-464136" lat="59.0965861098" lon="8.49099166358">
		<tag k="man_made" v="quay" />
		<tag k="name" v="Trontveitbryggja" />
>>>>>>> e1d4bc35ff8a6074a6f2e91616a996b547c36f15
		<tag k="place" v="locality" />
		<tag k="ssr:stedsnr" v="701868" />
	</node>
<<<<<<< HEAD
	<node lat="58.96403333573822" lon="8.705249995999255" id="-31630">
		<tag k="name" v="Leet" />
		<tag k="place" v="locality" />
		<tag k="ssr:stedsnr" v="703025" />
	</node>
	<node lat="59.24388055925261" lon="8.514780549071867" id="-31631">
		<tag k="bridge" v="yes" />
		<tag k="layer" v="1" />
		<tag k="name" v="Funnemark" />
		<tag k="ssr:stedsnr" v="896467" />
	</node>
	<node lat="59.15022221860212" lon="8.460544451892186" id="-31632">
=======
	<node id="-464121" lat="58.9691999969" lon="8.64723610734">
		<tag k="bridge" v="yes" />
		<tag k="layer" v="1" />
		<tag k="name" v="Vøylbrona" />
		<tag k="ssr:stedsnr" v="217619" />
	</node>
	<node id="-465143" lat="59.1535083324" lon="8.42796388606">
		<tag k="ford" v="yes" />
		<tag k="name" v="Rustøylvadet" />
		<tag k="place" v="locality" />
		<tag k="ssr:stedsnr" v="714757" />
	</node>
	<node id="-463913" lat="58.9792666691" lon="8.44456110404">
		<tag k="highway" v="path" />
		<tag k="name" v="Korstigane" />
		<tag k="ssr:stedsnr" v="99071" />
	</node>
	<node id="-466673" lat="59.1393833373" lon="8.6903944504">
		<tag k="highway" v="path" />
		<tag k="name" v="Uvdalsstigen" />
		<tag k="ssr:stedsnr" v="351325" />
	</node>
	<node id="-467688" lat="59.0263694454" lon="8.51951666376">
>>>>>>> e1d4bc35ff8a6074a6f2e91616a996b547c36f15
		<tag k="bridge" v="yes" />
		<tag k="layer" v="1" />
		<tag k="name" v="Frostdøla" />
		<tag k="ssr:stedsnr" v="896469" />
	</node>
<<<<<<< HEAD
	<node lat="59.11941944871593" lon="8.51952500248916" id="-31635">
		<tag k="bridge" v="yes" />
		<tag k="layer" v="1" />
		<tag k="name" v="Løvik" />
		<tag k="ssr:stedsnr" v="896475" />
	</node>
	<node lat="59.11908333074606" lon="8.428291666965968" id="-31675">
		<tag k="ford" v="yes" />
		<tag k="name" v="Rubbuvadet" />
		<tag k="place" v="locality" />
		<tag k="ssr:stedsnr" v="897930" />
	</node>
	<node lat="58.96335555362" lon="8.482025004026308" id="-31692">
=======
	<node id="-467687" lat="58.9524777754" lon="8.4236861055">
		<tag k="bridge" v="yes" />
		<tag k="layer" v="1" />
		<tag k="name" v="Timmernes" />
		<tag k="ssr:stedsnr" v="775404" />
	</node>
	<node id="-465126" lat="59.1561305598" lon="8.46455000409">
		<tag k="bridge" v="yes" />
		<tag k="layer" v="1" />
		<tag k="name" v="Holerbrua" />
		<tag k="ssr:stedsnr" v="714014" />
	</node>
	<node id="-464101" lat="58.9918583357" lon="8.52367777517">
		<tag k="alt_name" v="Fiskå" />
		<tag k="bridge" v="yes" />
		<tag k="layer" v="1" />
		<tag k="name" v="Fiskånbrua" />
		<tag k="ssr:stedsnr" v="216321" />
	</node>
	<node id="-465124" lat="58.9633555536" lon="8.48202500403">
>>>>>>> e1d4bc35ff8a6074a6f2e91616a996b547c36f15
		<tag k="highway" v="path" />
		<tag k="name" v="Dåskleivane" />
		<tag k="ssr:stedsnr" v="714010" />
	</node>
<<<<<<< HEAD
	<node lat="59.15613055981977" lon="8.464550004089903" id="-31694">
		<tag k="bridge" v="yes" />
		<tag k="layer" v="1" />
		<tag k="name" v="Holerbrua" />
		<tag k="ssr:stedsnr" v="714014" />
	</node>
	<node lat="59.01475833161361" lon="8.608308333499702" id="-31698">
		<tag k="name" v="Kasti" />
		<tag k="place" v="locality" />
		<tag k="ssr:stedsnr" v="714133" />
	</node>
	<node lat="59.15540555147108" lon="8.451711106827668" id="-31704">
=======
	<node id="-466655" lat="59.1377611135" lon="8.39510555823">
		<tag k="highway" v="path" />
		<tag k="name" v="Meselstigen" />
		<tag k="ssr:stedsnr" v="350701" />
	</node>
	<node id="-466141" lat="58.951430555" lon="8.5175583418">
		<tag k="alt_name" v="Høgefoss kraftverk" />
		<tag k="landuse" v="industrial" />
		<tag k="name" v="Høgfoss" />
		<tag k="power" v="plant" />
		<tag k="ssr:stedsnr" v="122339" />
	</node>
	<node id="-465628" lat="58.975475001" lon="8.47968888712">
>>>>>>> e1d4bc35ff8a6074a6f2e91616a996b547c36f15
		<tag k="bridge" v="yes" />
		<tag k="layer" v="1" />
		<tag k="name" v="Krokan" />
		<tag k="ssr:stedsnr" v="714377" />
	</node>
<<<<<<< HEAD
	<node lat="58.97770833026319" lon="8.521872214433259" id="-31705">
		<tag k="bridge" v="yes" />
		<tag k="layer" v="1" />
		<tag k="name" v="Eidstjønn" />
		<tag k="ssr:stedsnr" v="714379" />
	</node>
	<node lat="58.97359721860632" lon="8.365194449603155" id="-31706">
=======
	<node id="-465627" lat="58.9930194474" lon="8.52429166138">
		<tag k="bridge" v="yes" />
		<tag k="layer" v="1" />
		<tag k="name" v="Skuggen" />
		<tag k="ssr:stedsnr" v="957421" />
	</node>
	<node id="-465617" lat="59.1756555554" lon="8.52249722813">
		<tag k="ford" v="yes" />
		<tag k="name" v="Ordalsvadet" />
		<tag k="place" v="locality" />
		<tag k="ssr:stedsnr" v="942979" />
	</node>
	<node id="-465101" lat="59.0088527817" lon="8.59128610439">
		<tag k="ford" v="yes" />
		<tag k="name" v="Støylsvad" />
		<tag k="place" v="locality" />
		<tag k="ssr:stedsnr" v="701868" />
	</node>
	<node id="-466633" lat="58.9271805562" lon="8.7822666648">
>>>>>>> e1d4bc35ff8a6074a6f2e91616a996b547c36f15
		<tag k="bridge" v="yes" />
		<tag k="layer" v="1" />
		<tag k="name" v="Dalsbekk" />
		<tag k="ssr:stedsnr" v="714380" />
	</node>
<<<<<<< HEAD
	<node lat="59.20652500233414" lon="8.55634722039576" id="-31752">
		<tag k="ford" v="yes" />
		<tag k="name" v="Fitjevad" />
=======
	<node id="-464072" lat="59.1932000003" lon="8.3991749986">
		<tag k="ford" v="yes" />
		<tag k="name" v="Reinstøylvadet" />
		<tag k="place" v="locality" />
		<tag k="ssr:stedsnr" v="290328" />
	</node>
	<node id="-468001" lat="59.1511611102" lon="8.37398055275">
		<tag k="highway" v="path" />
		<tag k="name" v="Dalskleiva" />
		<tag k="ssr:stedsnr" v="955597" />
	</node>
	<node id="-465603" lat="59.1589194441" lon="8.39211944676">
		<tag k="junction" v="yes" />
		<tag k="name" v="Sandbekk" />
>>>>>>> e1d4bc35ff8a6074a6f2e91616a996b547c36f15
		<tag k="place" v="locality" />
		<tag k="ssr:stedsnr" v="730894" />
	</node>
<<<<<<< HEAD
	<node lat="58.92768611113639" lon="8.366033335961957" id="-31781">
		<tag k="highway" v="path" />
		<tag k="name" v="Vristekleiv" />
		<tag k="ssr:stedsnr" v="773765" />
	</node>
	<node lat="58.95247777543742" lon="8.423686105501309" id="-31791">
		<tag k="bridge" v="yes" />
		<tag k="layer" v="1" />
		<tag k="name" v="Timmernes" />
		<tag k="ssr:stedsnr" v="775404" />
	</node>
	<node lat="59.02636944541998" lon="8.519516663756706" id="-31792">
=======
	<node id="-464063" lat="59.0763722243" lon="8.44234999751">
		<tag k="highway" v="path" />
		<tag k="name" v="Ingrid stigen" />
		<tag k="ssr:stedsnr" v="289596" />
	</node>
	<node id="-465594" lat="59.17647778" lon="8.45639167293">
		<tag k="highway" v="path" />
		<tag k="name" v="Den bratte støyten" />
		<tag k="ssr:stedsnr" v="897561" />
	</node>
	<node id="-466617" lat="59.0787722215" lon="8.45960000174">
		<tag k="highway" v="path" />
		<tag k="name" v="Bjørkhomstigen" />
		<tag k="ssr:stedsnr" v="349286" />
	</node>
	<node id="-464056" lat="59.2015916692" lon="8.50874721386">
>>>>>>> e1d4bc35ff8a6074a6f2e91616a996b547c36f15
		<tag k="bridge" v="yes" />
		<tag k="layer" v="1" />
		<tag k="name" v="Landvik" />
		<tag k="ssr:stedsnr" v="775411" />
	</node>
<<<<<<< HEAD
	<node lat="59.02029999920771" lon="8.519733327493011" id="-31947">
		<tag k="leisure" v="marina" />
		<tag k="name" v="Tvitsto" />
		<tag k="ssr:stedsnr" v="823786" />
	</node>
	<node lat="59.044458330461765" lon="8.44358889312899" id="-31984">
		<tag k="highway" v="path" />
		<tag k="name" v="Grunntjønnkleivane" />
		<tag k="ssr:stedsnr" v="836079" />
	</node>
	<node lat="59.046772222858614" lon="8.468505548454623" id="-32086">
=======
	<node id="-464053" lat="59.0116583349" lon="8.48831944898">
		<tag k="highway" v="path" />
		<tag k="name" v="Gaurakskleivane" />
		<tag k="ssr:stedsnr" v="289249" />
	</node>
	<node id="-465076" lat="58.9914555537" lon="8.65935277791">
		<tag k="highway" v="path" />
		<tag k="name" v="Beinstigen" />
		<tag k="ssr:stedsnr" v="885188" />
	</node>
	<node id="-464050" lat="58.9514222259" lon="8.39489445202">
		<tag k="landuse" v="industrial" />
		<tag k="name" v="Dynjanfoss kraftverk" />
		<tag k="power" v="plant" />
		<tag k="ssr:stedsnr" v="289177" />
	</node>
	<node id="-465584" lat="59.0467722229" lon="8.46850554845">
>>>>>>> e1d4bc35ff8a6074a6f2e91616a996b547c36f15
		<tag k="man_made" v="quay" />
		<tag k="name" v="Nauraksbrygga" />
		<tag k="place" v="locality" />
		<tag k="ssr:stedsnr" v="896864" />
	</node>
<<<<<<< HEAD
	<node lat="59.176477780037956" lon="8.456391672928214" id="-32095">
		<tag k="highway" v="path" />
		<tag k="name" v="Den bratte støyten" />
		<tag k="ssr:stedsnr" v="897561" />
	</node>
	<node lat="59.15891944411908" lon="8.39211944676044" id="-32101">
		<tag k="junction" v="yes" />
		<tag k="name" v="Sandbekk" />
=======
	<node id="-464047" lat="58.9857222235" lon="8.47697222458">
		<tag k="highway" v="path" />
		<tag k="name" v="Juvekleiva" />
		<tag k="ssr:stedsnr" v="288081" />
	</node>
	<node id="-467115" lat="59.1528944478" lon="8.43600277629">
		<tag k="highway" v="path" />
		<tag k="name" v="Skavgrånslepa" />
		<tag k="ssr:stedsnr" v="532767" />
	</node>
	<node id="-466090" lat="59.2225333323" lon="8.42559443928">
		<tag k="ford" v="yes" />
		<tag k="name" v="Tjønnstøylvadet" />
		<tag k="place" v="locality" />
		<tag k="ssr:stedsnr" v="108190" />
	</node>
	<node id="-466088" lat="59.0211499987" lon="8.62805833821">
		<tag k="name" v="Eileivstjønnrullet" />
>>>>>>> e1d4bc35ff8a6074a6f2e91616a996b547c36f15
		<tag k="place" v="locality" />
		<tag k="ssr:stedsnr" v="897957" />
	</node>
<<<<<<< HEAD
	<node lat="58.99489444528016" lon="8.621994446673797" id="-32144">
		<tag k="highway" v="path" />
		<tag k="name" v="Uvdalsvegen" />
		<tag k="ssr:stedsnr" v="945192" />
	</node>
	<node lat="59.07955555363135" lon="8.467536111327668" id="-32168">
=======
	<node id="-467108" lat="58.942591663" lon="8.50565000393">
		<tag k="bridge" v="yes" />
		<tag k="layer" v="1" />
		<tag k="name" v="Haugsjåsund" />
		<tag k="ssr:stedsnr" v="532421" />
	</node>
	<node id="-464032" lat="59.0312583299" lon="8.51338610914">
		<tag k="bridge" v="yes" />
		<tag k="layer" v="1" />
		<tag k="name" v="Skjeggestad" />
		<tag k="ssr:stedsnr" v="168426" />
	</node>
	<node id="-464540" lat="59.12463889" lon="8.47919999206">
		<tag k="man_made" v="quay" />
		<tag k="name" v="Nygårdsbryggja" />
		<tag k="place" v="locality" />
		<tag k="ssr:stedsnr" v="350319" />
	</node>
	<node id="-464538" lat="59.1195694418" lon="8.44589166115">
		<tag k="ford" v="yes" />
		<tag k="name" v="Bergvad" />
		<tag k="place" v="locality" />
		<tag k="ssr:stedsnr" v="350047" />
	</node>
	<node id="-468079" lat="59.0038527739" lon="8.754441667">
		<tag k="highway" v="path" />
		<tag k="name" v="Stigen" />
		<tag k="ssr:stedsnr" v="958497" />
	</node>
	<node id="-465177" lat="59.1502222186" lon="8.46054445189">
		<tag k="bridge" v="yes" />
		<tag k="layer" v="1" />
		<tag k="name" v="Frostdøla" />
		<tag k="ssr:stedsnr" v="896469" />
	</node>
	<node id="-466068" lat="59.0612555577" lon="8.41679167048">
>>>>>>> e1d4bc35ff8a6074a6f2e91616a996b547c36f15
		<tag k="highway" v="path" />
		<tag k="name" v="Heivegen" />
		<tag k="ssr:stedsnr" v="957244" />
	</node>
<<<<<<< HEAD
	<node lat="59.00385277388297" lon="8.754441666996037" id="-32186">
=======
	<node id="-467600" lat="59.1753666644" lon="8.53241110729">
>>>>>>> e1d4bc35ff8a6074a6f2e91616a996b547c36f15
		<tag k="highway" v="path" />
		<tag k="name" v="Stigen" />
		<tag k="ssr:stedsnr" v="958497" />
	</node>
<<<<<<< HEAD
	<node lat="59.11478611501077" lon="8.441099998549243" id="-32200">
		<tag k="highway" v="path" />
		<tag k="name" v="Torborstadholet" />
		<tag k="ssr:stedsnr" v="229056" />
	</node>
	<node lat="59.04893888522469" lon="8.508916674042776" id="-32301">
		<tag k="fixme" v="verify maritime location" />
		<tag k="mooring" v="yes" />
		<tag k="name" v="Harpestø" />
		<tag k="place" v="locality" />
		<tag k="ssr:stedsnr" v="34525" />
	</node>
	<node lat="58.93716388715129" lon="8.360627780321403" id="-32334">
		<tag k="highway" v="path" />
		<tag k="name" v="Tørfurkleiva" />
		<tag k="ssr:stedsnr" v="45918" />
=======
	<node id="-464014" lat="59.1520694448" lon="8.37487222639">
		<tag k="highway" v="path" />
		<tag k="name" v="Vettmyrbakken" />
		<tag k="ssr:stedsnr" v="166575" />
	</node>
	<node id="-464523" lat="59.2111944435" lon="8.53900277815">
		<tag k="alt_name" v="Ufsvad" />
		<tag k="ford" v="yes" />
		<tag k="name" v="Ufsevad" />
		<tag k="place" v="locality" />
		<tag k="ssr:stedsnr" v="487888" />
	</node>
	<node id="-468105" lat="58.9440068917" lon="9.63791772882">
		<tag k="name" v="Tonerhavn" />
		<tag k="place" v="locality" />
		<tag k="ssr:stedsnr" v="1074516" />
	</node>
	<node id="-467073" lat="58.9524833329" lon="8.45223333951">
		<tag k="ford" v="yes" />
		<tag k="name" v="Vestigardsond" />
		<tag k="place" v="locality" />
		<tag k="ssr:stedsnr" v="531236" />
	</node>
	<node id="-467582" lat="59.2592749967" lon="8.4255805622">
		<tag k="highway" v="path" />
		<tag k="name" v="Skompen" />
		<tag k="ssr:stedsnr" v="654163" />
	</node>
	<node id="-465021" lat="59.1556861125" lon="8.40968611038">
		<tag k="name" v="Stormyrkastet" />
		<tag k="place" v="locality" />
		<tag k="ssr:stedsnr" v="653875" />
	</node>
	<node id="-467647" lat="58.9276861111" lon="8.36603333596">
		<tag k="highway" v="path" />
		<tag k="name" v="Vristekleiv" />
		<tag k="ssr:stedsnr" v="773765" />
	</node>
	<node id="-465519" lat="58.9948944453" lon="8.62199444667">
		<tag k="highway" v="path" />
		<tag k="name" v="Uvdalsvegen" />
		<tag k="ssr:stedsnr" v="945192" />
	</node>
	<node id="-467052" lat="58.9026666644" lon="8.81378610584">
		<tag k="highway" v="path" />
		<tag k="name" v="Klomra" />
		<tag k="ssr:stedsnr" v="521661" />
	</node>
	<node id="-465003" lat="59.2065250023" lon="8.5563472204">
		<tag k="ford" v="yes" />
		<tag k="name" v="Fitjevad" />
		<tag k="place" v="locality" />
		<tag k="ssr:stedsnr" v="730894" />
	</node>
	<node id="-466026" lat="59.1958027755" lon="8.62145833267">
		<tag k="man_made" v="cairn" />
		<tag k="name" v="Gluggvarden" />
		<tag k="place" v="locality" />
		<tag k="ssr:stedsnr" v="96143" />
>>>>>>> e1d4bc35ff8a6074a6f2e91616a996b547c36f15
	</node>
	<node id="-467555" lat="59.0186777772" lon="8.60931943642">
		<tag k="bridge" v="yes" />
		<tag k="layer" v="1" />
		<tag k="name" v="Bjørnevannsbekken" />
		<tag k="ssr:stedsnr" v="653436" />
	</node>
	<node id="-467553" lat="59.1231611137" lon="8.51762222145">
		<tag k="bridge" v="yes" />
		<tag k="layer" v="1" />
		<tag k="name" v="Nes søndre" />
		<tag k="ssr:stedsnr" v="653433" />
	</node>
	<node id="-467552" lat="59.1602944423" lon="8.52558610708">
		<tag k="bridge" v="yes" />
		<tag k="layer" v="1" />
		<tag k="name" v="Døla" />
		<tag k="ssr:stedsnr" v="653432" />
	</node>
	<node id="-466520" lat="59.1317638892" lon="8.58083333057">
		<tag k="highway" v="path" />
		<tag k="name" v="Sigridbustigen" />
		<tag k="ssr:stedsnr" v="335848" />
	</node>
	<node id="-466069" lat="59.0505055542" lon="8.46489444363">
		<tag k="bridge" v="yes" />
		<tag k="layer" v="1" />
		<tag k="name" v="Naurak" />
		<tag k="ssr:stedsnr" v="107464" />
	</node>
	<node id="-465490" lat="59.0417166644" lon="8.51528332751">
		<tag k="fixme" v="consider highway=path" />
		<tag k="highway" v="track" />
		<tag k="name" v="Napevegen" />
		<tag k="ssr:stedsnr" v="944111" />
	</node>
	<node id="-464057" lat="59.1468555568" lon="8.51281111628">
		<tag k="bridge" v="yes" />
		<tag k="layer" v="1" />
		<tag k="name" v="Meinstad" />
		<tag k="ssr:stedsnr" v="289460" />
	</node>
	<node id="-465484" lat="59.240138886" lon="8.55828333853">
		<tag k="man_made" v="cairn" />
		<tag k="name" v="Blikavarden" />
		<tag k="place" v="locality" />
		<tag k="ssr:stedsnr" v="943613" />
	</node>
	<node id="-467019" lat="59.0343388856" lon="8.5047555527">
		<tag k="fixme" v="verify maritime location" />
		<tag k="mooring" v="yes" />
		<tag k="name" v="Åkrokane" />
		<tag k="old_name" v="Åkokane" />
		<tag k="place" v="locality" />
		<tag k="ssr:stedsnr" v="519864" />
	</node>
	<node id="-468042" lat="59.0795555536" lon="8.46753611133">
		<tag k="highway" v="path" />
		<tag k="name" v="Heivegen" />
		<tag k="ssr:stedsnr" v="957244" />
	</node>
	<node id="-468037" lat="59.260652779" lon="8.39605833683">
		<tag k="fixme" v="verify maritime location" />
		<tag k="mooring" v="yes" />
		<tag k="name" v="Stømoen" />
		<tag k="place" v="locality" />
		<tag k="ssr:stedsnr" v="957157" />
	</node>
	<node id="-465476" lat="59.0452666632" lon="8.49979443673">
		<tag k="alt_name" v="Nordstø" />
		<tag k="fixme" v="verify maritime location" />
		<tag k="mooring" v="yes" />
		<tag k="name" v="Nordstå" />
		<tag k="place" v="locality" />
		<tag k="ssr:stedsnr" v="852528" />
	</node>
	<node id="-464963" lat="59.1712999959" lon="8.57416666365">
		<tag k="name" v="Rullarplassen" />
		<tag k="place" v="locality" />
		<tag k="ssr:stedsnr" v="638831" />
	</node>
	<node id="-468034" lat="59.2629055598" lon="8.37049721539">
		<tag k="ford" v="yes" />
		<tag k="name" v="Krossen" />
		<tag k="place" v="locality" />
		<tag k="ssr:stedsnr" v="957147" />
	</node>
	<node id="-464441" lat="59.2157166696" lon="8.52524444641">
		<tag k="highway" v="path" />
		<tag k="name" v="Skogskoti" />
		<tag k="ssr:stedsnr" v="336585" />
	</node>
	<node id="-464438" lat="59.1613777818" lon="8.57056388309">
		<tag k="ford" v="yes" />
		<tag k="name" v="Øksånvadet" />
		<tag k="place" v="locality" />
		<tag k="ssr:stedsnr" v="335526" />
	</node>
	<node id="-463924" lat="59.2067555523" lon="8.52648610749">
		<tag k="junction" v="yes" />
		<tag k="name" v="Skilet" />
		<tag k="place" v="locality" />
		<tag k="ssr:stedsnr" v="275497" />
	</node>
	<node id="-468015" lat="59.0142166704" lon="8.44204166685">
		<tag k="highway" v="path" />
		<tag k="name" v="Stigen" />
		<tag k="ssr:stedsnr" v="956246" />
	</node>
	<node id="-464733" lat="59.19445556" lon="8.51321389214">
		<tag k="bridge" v="yes" />
		<tag k="layer" v="1" />
		<tag k="name" v="Vik" />
		<tag k="ssr:stedsnr" v="532417" />
	</node>
	<node id="-464425" lat="59.0374083322" lon="8.65123333405">
		<tag k="name" v="Neslaghylen" />
		<tag k="place" v="locality" />
		<tag k="ssr:stedsnr" v="472660" />
	</node>
	<node id="-464417" lat="59.1496027741" lon="8.43218888885">
		<tag k="name" v="Sigurdstøyl" />
		<tag k="place" v="locality" />
		<tag k="ssr:stedsnr" v="472204" />
	</node>
	<node id="-467486" lat="59.0098388921" lon="8.62371389704">
		<tag k="ford" v="yes" />
		<tag k="name" v="Husåvadet" />
		<tag k="place" v="locality" />
		<tag k="ssr:stedsnr" v="641174" />
	</node>
	<node id="-467567" lat="59.1575972242" lon="8.41743055778">
		<tag k="bridge" v="yes" />
		<tag k="layer" v="1" />
		<tag k="name" v="Lisleåbrua" />
		<tag k="ssr:stedsnr" v="653795" />
	</node>
	<node id="-466446" lat="59.201916666" lon="8.51734999522">
		<tag k="junction" v="yes" />
		<tag k="name" v="Gardkrik" />
		<tag k="place" v="locality" />
		<tag k="ssr:stedsnr" v="215588" />
	</node>
	<node id="-464393" lat="59.1466027804" lon="8.3720250024">
		<tag k="bridge" v="yes" />
		<tag k="layer" v="1" />
		<tag k="name" v="Åbøbrua" />
		<tag k="ssr:stedsnr" v="471636" />
	</node>
	<node id="-464392" lat="59.1514361149" lon="8.35260834121">
		<tag k="name" v="Vehuskastet" />
		<tag k="place" v="locality" />
		<tag k="ssr:stedsnr" v="471622" />
	</node>
	<node id="-467686" lat="58.9809944483" lon="8.38191111455">
		<tag k="highway" v="path" />
		<tag k="name" v="Friarvegen" />
		<tag k="ssr:stedsnr" v="775350" />
	</node>
	<node id="-464897" lat="59.2480777819" lon="8.45336389275">
		<tag k="man_made" v="quay" />
		<tag k="name" v="Horgevikbrygga" />
		<tag k="place" v="locality" />
		<tag k="ssr:stedsnr" v="715241" />
	</node>
</osm>
