<?xml version="1.0" encoding="UTF-8"?>
<osm version="0.6" generator="osmapis">
	<node lat="58.97291666917305" lon="8.817055557570676" id="-24167">
		<tag k="name" v="Øygardslia" />
		<tag k="natural" v="slope" />
		<tag k="place" v="locality" />
		<tag k="ssr:stedsnr" v="365" />
	</node>
	<node lat="58.98466944562844" lon="8.809633341246663" id="-24168">
		<tag k="name" v="Avsøldalen" />
		<tag k="natural" v="valley" />
		<tag k="place" v="locality" />
		<tag k="ssr:stedsnr" v="267" />
	</node>
	<node lat="58.92840555598413" lon="8.561124993427692" id="-24171">
		<tag k="fixme" v="consider natural=peak for the most distinct mountains in the district" />
		<tag k="name" v="Lundanknatten" />
		<tag k="natural" v="hill" />
		<tag k="place" v="locality" />
		<tag k="ssr:stedsnr" v="406" />
	</node>
	<node lat="58.922841664811344" lon="8.479613897216334" id="-24172">
		<tag k="alt_name" v="Reinbuheia" />
		<tag k="name" v="Regnbogeheia" />
		<tag k="natural" v="hill" />
		<tag k="place" v="locality" />
		<tag k="ssr:stedsnr" v="412" />
	</node>
	<node lat="58.93950833415379" lon="8.583674995387666" id="-24174">
		<tag k="name" v="Den vonde dalen" />
		<tag k="natural" v="valley" />
		<tag k="place" v="locality" />
		<tag k="ssr:stedsnr" v="445" />
	</node>
	<node lat="58.91479721784591" lon="8.429652786341668" id="-24178">
		<tag k="name" v="Osmundsdalsberga" />
		<tag k="natural" v="ridge" />
		<tag k="place" v="locality" />
		<tag k="ssr:stedsnr" v="229677" />
	</node>
	<node lat="58.87924999975213" lon="8.77943611650304" id="-24179">
		<tag k="fixme" v="consider natural=peak for the most distinct mountains in the district" />
		<tag k="name" v="Vedlausfjell" />
		<tag k="natural" v="hill" />
		<tag k="place" v="locality" />
		<tag k="ssr:stedsnr" v="713" />
	</node>
	<node lat="59.18347777999071" lon="8.448825005958138" id="-24182">
		<tag k="alt_name" v="Sandvikkollane" />
		<tag k="fixme" v="consider natural=peak for the most distinct mountains in the district" />
		<tag k="name" v="Sandvikskollane" />
		<tag k="natural" v="hill" />
		<tag k="place" v="locality" />
		<tag k="ssr:stedsnr" v="1095" />
	</node>
	<node lat="59.176511111464976" lon="8.330597226927697" id="-24184">
		<tag k="name" v="Kjellaren" />
		<tag k="natural" v="valley" />
		<tag k="place" v="locality" />
		<tag k="ssr:stedsnr" v="229789" />
	</node>
	<node lat="59.0941111147567" lon="8.595419436735762" id="-24188">
		<tag k="fixme" v="consider natural=peak for the most distinct mountains in the district" />
		<tag k="name" v="Middagsvarden" />
		<tag k="natural" v="hill" />
		<tag k="place" v="locality" />
		<tag k="ssr:stedsnr" v="1615" />
	</node>
	<node lat="58.91836666363712" lon="8.50901389031104" id="-24191">
		<tag k="alt_name" v="Sågdalsheia" />
		<tag k="name" v="Sogdalsheia" />
		<tag k="natural" v="hill" />
		<tag k="place" v="locality" />
		<tag k="ssr:stedsnr" v="1399" />
	</node>
	<node lat="58.898025002081766" lon="8.45948888444482" id="-24196">
		<tag k="name" v="Sveipekjerrlia" />
		<tag k="natural" v="slope" />
		<tag k="place" v="locality" />
		<tag k="ssr:stedsnr" v="229839" />
	</node>
	<node lat="58.98188889334867" lon="8.330333334685713" id="-24203">
		<tag k="name" v="Ronmonen" />
		<tag k="place" v="locality" />
		<tag k="ssr:stedsnr" v="229944" />
	</node>
	<node lat="59.16690555767698" lon="8.411474993657453" id="-24204">
		<tag k="name" v="Huvnutane" />
		<tag k="place" v="locality" />
		<tag k="ssr:stedsnr" v="229945" />
	</node>
	<node lat="58.91803610933645" lon="8.369061112702443" id="-24207">
		<tag k="name" v="Brugomdalen" />
		<tag k="natural" v="valley" />
		<tag k="place" v="locality" />
		<tag k="ssr:stedsnr" v="229966" />
	</node>
	<node lat="59.03602777584832" lon="8.631558336467439" id="-24214">
		<tag k="name" v="Kåvtona" />
		<tag k="place" v="locality" />
		<tag k="ssr:stedsnr" v="230656" />
	</node>
	<node lat="59.14416944616599" lon="8.383819447432135" id="-24217">
		<tag k="name" v="Svarthola" />
		<tag k="natural" v="valley" />
		<tag k="place" v="locality" />
		<tag k="ssr:stedsnr" v="232573" />
	</node>
	<node lat="59.23449922142809" lon="8.552190217934466" id="-24218">
		<tag k="name" v="Stemtjønndalen" />
		<tag k="natural" v="valley" />
		<tag k="place" v="locality" />
		<tag k="ssr:stedsnr" v="32201" />
	</node>
	<node lat="59.153933333484595" lon="8.559199992087581" id="-24220">
		<tag k="fixme" v="consider natural=peak for the most distinct mountains in the district" />
		<tag k="name" v="Bronane" />
		<tag k="natural" v="hill" />
		<tag k="place" v="locality" />
		<tag k="ssr:stedsnr" v="32412" />
	</node>
	<node lat="59.21300277379711" lon="8.6061166677711" id="-24224">
		<tag k="name" v="Måvassdalen" />
		<tag k="natural" v="valley" />
		<tag k="place" v="locality" />
		<tag k="ssr:stedsnr" v="32907" />
	</node>
	<node lat="58.983780554745344" lon="8.528322228614659" id="-24227">
		<tag k="fixme" v="consider natural=peak for the most distinct mountains in the district" />
		<tag k="name" v="Lisleåsen" />
		<tag k="natural" v="hill" />
		<tag k="place" v="locality" />
		<tag k="ssr:stedsnr" v="33414" />
	</node>
	<node lat="59.037211113262245" lon="8.514641668729848" id="-24228">
		<tag k="name" v="Søgardshaugen" />
		<tag k="natural" v="hill" />
		<tag k="place" v="locality" />
		<tag k="ssr:stedsnr" v="33574" />
	</node>
	<node lat="59.06563333488918" lon="8.57934722681317" id="-24229">
		<tag k="name" v="Nipa" />
		<tag k="natural" v="hill" />
		<tag k="place" v="locality" />
		<tag k="ssr:stedsnr" v="33615" />
	</node>
	<node lat="59.06493611454819" lon="8.534649999420113" id="-24231">
		<tag k="name" v="Skidalsklova" />
		<tag k="place" v="locality" />
		<tag k="ssr:stedsnr" v="33980" />
	</node>
	<node lat="58.921027780565396" lon="8.522027770429062" id="-24232">
		<tag k="name" v="Vestå" />
		<tag k="place" v="locality" />
		<tag k="ssr:stedsnr" v="34417" />
	</node>
	<node lat="58.89525555922233" lon="8.706527784193382" id="-24233">
		<tag k="name" v="Ringen" />
		<tag k="place" v="locality" />
		<tag k="ssr:stedsnr" v="35112" />
	</node>
	<node lat="59.008655551469374" lon="8.672472228344956" id="-24234">
		<tag k="name" v="Fiskebudalen" />
		<tag k="natural" v="valley" />
		<tag k="place" v="locality" />
		<tag k="ssr:stedsnr" v="35361" />
	</node>
	<node lat="58.89852222116217" lon="8.72418332512611" id="-24236">
		<tag k="fixme" v="consider natural=peak for the most distinct mountains in the district" />
		<tag k="name" v="Murtedalsfjellet" />
		<tag k="natural" v="hill" />
		<tag k="place" v="locality" />
		<tag k="ssr:stedsnr" v="35474" />
	</node>
	<node lat="58.962544443307216" lon="8.48609167009366" id="-24242">
		<tag k="name" v="Gråndalane" />
		<tag k="natural" v="valley" />
		<tag k="place" v="locality" />
		<tag k="ssr:stedsnr" v="46005" />
	</node>
	<node lat="59.01277222528211" lon="8.40033611915459" id="-24245">
		<tag k="name" v="Botn" />
		<tag k="natural" v="valley" />
		<tag k="place" v="locality" />
		<tag k="ssr:stedsnr" v="46372" />
	</node>
	<node lat="59.059330551574504" lon="8.434025001078671" id="-24247">
		<tag k="name" v="Saupnoshelleren" />
		<tag k="place" v="locality" />
		<tag k="ssr:stedsnr" v="46484" />
	</node>
	<node lat="58.92170555908812" lon="8.441586105369002" id="-24249">
		<tag k="name" v="Kruskefurheia" />
		<tag k="natural" v="ridge" />
		<tag k="place" v="locality" />
		<tag k="ssr:stedsnr" v="46691" />
	</node>
	<node lat="59.11184722006208" lon="8.451063892816194" id="-24250">
		<tag k="name" v="Lokufsrista" />
		<tag k="natural" v="ridge" />
		<tag k="place" v="locality" />
		<tag k="ssr:stedsnr" v="47002" />
	</node>
	<node lat="59.02363055515632" lon="8.612491663700936" id="-24251">
		<tag k="name" v="Negardskollen" />
		<tag k="natural" v="hill" />
		<tag k="place" v="locality" />
		<tag k="ssr:stedsnr" v="47022" />
	</node>
	<node lat="59.04325555455074" lon="8.42513888369807" id="-24253">
		<tag k="name" v="Osmundsholet" />
		<tag k="natural" v="valley" />
		<tag k="place" v="locality" />
		<tag k="ssr:stedsnr" v="47087" />
	</node>
	<node lat="59.16113610682674" lon="8.455522226869997" id="-24261">
		<tag k="name" v="Torsteinsfjell" />
		<tag k="natural" v="hill" />
		<tag k="place" v="locality" />
		<tag k="ssr:stedsnr" v="47114" />
	</node>
	<node lat="58.91315555855165" lon="8.432791661209215" id="-24269">
		<tag k="name" v="Osmundsdal" />
		<tag k="natural" v="valley" />
		<tag k="place" v="locality" />
		<tag k="ssr:stedsnr" v="47627" />
	</node>
	<node lat="59.166627777715384" lon="8.336488896077487" id="-24275">
		<tag k="name" v="Dambronane" />
		<tag k="natural" v="slope" />
		<tag k="place" v="locality" />
		<tag k="ssr:stedsnr" v="47802" />
	</node>
	<node lat="59.0380111138869" lon="8.449847228409078" id="-24276">
		<tag k="name" v="Lukkershus" />
		<tag k="natural" v="hill" />
		<tag k="place" v="locality" />
		<tag k="ssr:stedsnr" v="47813" />
	</node>
	<node lat="59.1573749957686" lon="8.387244446912828" id="-24278">
		<tag k="name" v="Græni" />
		<tag k="natural" v="valley" />
		<tag k="place" v="locality" />
		<tag k="ssr:stedsnr" v="47971" />
	</node>
	<node lat="58.99974166431763" lon="8.721113897266434" id="-24279">
		<tag k="name" v="Stolsvasslia" />
		<tag k="natural" v="slope" />
		<tag k="place" v="locality" />
		<tag k="ssr:stedsnr" v="48413" />
	</node>
	<node lat="58.932758329743585" lon="8.773711110791565" id="-24283">
		<tag k="name" v="Samlogheia" />
		<tag k="natural" v="hill" />
		<tag k="place" v="locality" />
		<tag k="ssr:stedsnr" v="61394" />
	</node>
	<node lat="58.98416111542063" lon="8.384616660687598" id="-24285">
		<tag k="alt_name" v="Djupdal" />
		<tag k="name" v="Djupdalen" />
		<tag k="natural" v="valley" />
		<tag k="place" v="locality" />
		<tag k="ssr:stedsnr" v="61896" />
	</node>
	<node lat="59.17201388934823" lon="8.33290000660202" id="-24289">
		<tag k="alt_name" v="Molteskarnuten" />
		<tag k="fixme" v="consider natural=peak for the most distinct mountains in the district" />
		<tag k="name" v="Molteskardnuten" />
		<tag k="natural" v="hill" />
		<tag k="place" v="locality" />
		<tag k="ssr:stedsnr" v="62112" />
	</node>
	<node lat="58.959274999545656" lon="8.769802776801766" id="-24292">
		<tag k="fixme" v="consider natural=peak for the most distinct mountains in the district" />
		<tag k="name" v="Solhomfjell" />
		<tag k="natural" v="hill" />
		<tag k="place" v="locality" />
		<tag k="ssr:stedsnr" v="62307" />
	</node>
	<node lat="58.95831666310113" lon="8.61683056047193" id="-24293">
		<tag k="fixme" v="consider natural=peak for the most distinct mountains in the district" />
		<tag k="name" v="Lifjell" />
		<tag k="natural" v="hill" />
		<tag k="place" v="locality" />
		<tag k="ssr:stedsnr" v="62318" />
	</node>
	<node lat="59.19924999764788" lon="8.416788896346729" id="-24294">
		<tag k="alt_name" v="Myrbufjell" />
		<tag k="fixme" v="consider natural=peak for the most distinct mountains in the district" />
		<tag k="name" v="Myrbufjellet" />
		<tag k="natural" v="hill" />
		<tag k="place" v="locality" />
		<tag k="ssr:stedsnr" v="62087" />
	</node>
	<node lat="59.026850002788144" lon="8.601161102986069" id="-24296">
		<tag k="fixme" v="consider natural=peak for the most distinct mountains in the district" />
		<tag k="name" v="Støylsfjell" />
		<tag k="natural" v="hill" />
		<tag k="place" v="locality" />
		<tag k="ssr:stedsnr" v="62514" />
	</node>
	<node lat="59.0768361111047" lon="8.631741664194463" id="-24299">
		<tag k="alt_name" v="Heitjørnfjellet" />
		<tag k="fixme" v="consider natural=peak for the most distinct mountains in the district" />
		<tag k="name" v="Heitjønnfjell" />
		<tag k="natural" v="hill" />
		<tag k="place" v="locality" />
		<tag k="ssr:stedsnr" v="62570" />
	</node>
	<node lat="58.90024999594825" lon="8.719336113218974" id="-24304">
		<tag k="alt_name" v="Brandåsen" />
		<tag k="fixme" v="consider natural=peak for the most distinct mountains in the district" />
		<tag k="name" v="Brannåsen" />
		<tag k="natural" v="hill" />
		<tag k="place" v="locality" />
		<tag k="ssr:stedsnr" v="62488" />
	</node>
	<node lat="59.077191669084904" lon="8.496633336929337" id="-24305">
		<tag k="alt_name" v="Kåvetona" />
		<tag k="name" v="Kalvtoni" />
		<tag k="place" v="locality" />
		<tag k="ssr:stedsnr" v="62601" />
	</node>
	<node lat="59.07748333622583" lon="8.472730547740946" id="-24306">
		<tag k="fixme" v="consider natural=peak for the most distinct mountains in the district" />
		<tag k="name" v="Ufshomfjellet" />
		<tag k="natural" v="hill" />
		<tag k="place" v="locality" />
		<tag k="ssr:stedsnr" v="62621" />
	</node>
	<node lat="58.95566666249367" lon="8.411197220631507" id="-24314">
		<tag k="alt_name" v="Furunusteren, lisle;Lille Nusteren" />
		<tag k="fixme" v="consider natural=peak for the most distinct mountains in the district" />
		<tag k="name" v="Lisle Furunusteren" />
		<tag k="natural" v="hill" />
		<tag k="place" v="locality" />
		<tag k="ssr:stedsnr" v="62921" />
	</node>
	<node lat="58.98173333656854" lon="8.674175002414547" id="-24322">
		<tag k="name" v="Åkerdalen" />
		<tag k="natural" v="valley" />
		<tag k="place" v="locality" />
		<tag k="ssr:stedsnr" v="243242" />
	</node>
	<node lat="58.96663889251556" lon="8.612722227471162" id="-24328">
		<tag k="fixme" v="consider natural=peak for the most distinct mountains in the district" />
		<tag k="name" v="Øyvassknatten" />
		<tag k="natural" v="hill" />
		<tag k="place" v="locality" />
		<tag k="ssr:stedsnr" v="243357" />
	</node>
	<node lat="58.97813888933782" lon="8.669924998264317" id="-24329">
		<tag k="alt_name" v="Venelikollen" />
		<tag k="fixme" v="consider natural=peak for the most distinct mountains in the district" />
		<tag k="name" v="Venlikollen" />
		<tag k="natural" v="hill" />
		<tag k="place" v="locality" />
		<tag k="ssr:stedsnr" v="243359" />
	</node>
	<node lat="58.918174998550704" lon="8.596725004877205" id="-24331">
		<tag k="name" v="Rolandsknatten" />
		<tag k="natural" v="hill" />
		<tag k="place" v="locality" />
		<tag k="ssr:stedsnr" v="243376" />
	</node>
	<node lat="58.881427776032936" lon="8.720461103257831" id="-24334">
		<tag k="fixme" v="consider natural=peak for the most distinct mountains in the district" />
		<tag k="name" v="Ørnefjellnuten" />
		<tag k="natural" v="hill" />
		<tag k="place" v="locality" />
		<tag k="ssr:stedsnr" v="243713" />
	</node>
	<node lat="59.24512499815064" lon="8.444583335901731" id="-24337">
		<tag k="fixme" v="consider natural=peak for the most distinct mountains in the district" />
		<tag k="name" v="Middagsnuten" />
		<tag k="natural" v="hill" />
		<tag k="place" v="locality" />
		<tag k="ssr:stedsnr" v="244012" />
	</node>
	<node lat="58.96732777978655" lon="8.458894442908255" id="-24339">
		<tag k="fixme" v="consider natural=peak for the most distinct mountains in the district" />
		<tag k="name" v="Dalsnipen" />
		<tag k="natural" v="hill" />
		<tag k="place" v="locality" />
		<tag k="ssr:stedsnr" v="243927" />
	</node>
	<node lat="58.98141388588513" lon="8.516888894222593" id="-24341">
		<tag k="alt_name" v="Åsnebbet" />
		<tag k="name" v="Åsenebba" />
		<tag k="natural" v="hill" />
		<tag k="place" v="locality" />
		<tag k="ssr:stedsnr" v="244270" />
	</node>
	<node lat="59.07733889130219" lon="8.414825005258916" id="-24343">
		<tag k="fixme" v="consider natural=peak for the most distinct mountains in the district" />
		<tag k="name" v="Kronfjell" />
		<tag k="natural" v="hill" />
		<tag k="place" v="locality" />
		<tag k="ssr:stedsnr" v="244198" />
	</node>
	<node lat="58.991474998745474" lon="8.70654444590657" id="-24344">
		<tag k="alt_name" v="Godliknatten" />
		<tag k="name" v="Goliknatten" />
		<tag k="natural" v="hill" />
		<tag k="place" v="locality" />
		<tag k="ssr:stedsnr" v="244279" />
	</node>
	<node lat="58.93670000100423" lon="8.496733332206286" id="-24346">
		<tag k="name" v="Fita" />
		<tag k="place" v="locality" />
		<tag k="ssr:stedsnr" v="244442" />
	</node>
	<node lat="59.00739999656969" lon="8.4750555606624" id="-24347">
		<tag k="fixme" v="consider natural=peak for the most distinct mountains in the district" />
		<tag k="name" v="Svarfjell" />
		<tag k="natural" v="hill" />
		<tag k="place" v="locality" />
		<tag k="ssr:stedsnr" v="244454" />
	</node>
	<node lat="59.02083611449823" lon="8.736074996231519" id="-24348">
		<tag k="alt_name" v="Kveinmyrberga" />
		<tag k="fixme" v="consider natural=peak for the most distinct mountains in the district" />
		<tag k="name" v="Kveinmyrberget" />
		<tag k="natural" v="hill" />
		<tag k="place" v="locality" />
		<tag k="ssr:stedsnr" v="244461" />
	</node>
	<node lat="59.034288890836216" lon="8.628988891245983" id="-24353">
		<tag k="fixme" v="consider natural=peak for the most distinct mountains in the district" />
		<tag k="name" v="Kvarvåsen" />
		<tag k="natural" v="hill" />
		<tag k="place" v="locality" />
		<tag k="ssr:stedsnr" v="244536" />
	</node>
	<node lat="59.14449166535093" lon="8.69585277450646" id="-24355">
		<tag k="alt_name" v="Svåheia" />
		<tag k="fixme" v="consider natural=peak for the most distinct mountains in the district" />
		<tag k="name" v="Svåheii" />
		<tag k="natural" v="hill" />
		<tag k="place" v="locality" />
		<tag k="ssr:stedsnr" v="244760" />
	</node>
	<node lat="59.18575555188255" lon="8.57317777519627" id="-24357">
		<tag k="fixme" v="consider natural=peak for the most distinct mountains in the district" />
		<tag k="name" v="Hæsnetten" />
		<tag k="natural" v="hill" />
		<tag k="place" v="locality" />
		<tag k="ssr:stedsnr" v="244839" />
	</node>
	<node lat="59.265836115498985" lon="8.404258341846486" id="-24366">
		<tag k="fixme" v="consider natural=peak for the most distinct mountains in the district" />
		<tag k="name" v="Hægefjell" />
		<tag k="natural" v="hill" />
		<tag k="place" v="locality" />
		<tag k="ssr:stedsnr" v="245207" />
	</node>
	<node lat="59.01231943997883" lon="8.672030548117993" id="-24368">
		<tag k="alt_name" v="Breidvassåsen" />
		<tag k="fixme" v="consider natural=peak for the most distinct mountains in the district" />
		<tag k="name" v="Breivassåsen" />
		<tag k="natural" v="hill" />
		<tag k="place" v="locality" />
		<tag k="ssr:stedsnr" v="245466" />
	</node>
	<node lat="59.17216944152882" lon="8.568786104139598" id="-24373">
		<tag k="name" v="Sitjudalsholet" />
		<tag k="natural" v="valley" />
		<tag k="place" v="locality" />
		<tag k="ssr:stedsnr" v="93784" />
	</node>
	<node lat="59.224877778972" lon="8.605736110528479" id="-24375">
		<tag k="fixme" v="consider natural=peak for the most distinct mountains in the district" />
		<tag k="name" v="Hagliheia" />
		<tag k="natural" v="hill" />
		<tag k="place" v="locality" />
		<tag k="ssr:stedsnr" v="93861" />
	</node>
	<node lat="59.00875555321266" lon="8.607069453113535" id="-24380">
		<tag k="name" v="Steinsmyrlia" />
		<tag k="natural" v="slope" />
		<tag k="place" v="locality" />
		<tag k="ssr:stedsnr" v="94823" />
	</node>
	<node lat="58.98223333689716" lon="8.593286117927935" id="-24383">
		<tag k="name" v="Storerustedalen" />
		<tag k="natural" v="valley" />
		<tag k="place" v="locality" />
		<tag k="ssr:stedsnr" v="94765" />
	</node>
	<node lat="59.00510555743606" lon="8.61999443736707" id="-24386">
		<tag k="name" v="Vatningsholet" />
		<tag k="natural" v="gorge" />
		<tag k="ssr:stedsnr" v="95122" />
	</node>
	<node lat="58.85486388564266" lon="8.721299994324406" id="-24393">
		<tag k="name" v="Den høge heia" />
		<tag k="natural" v="hill" />
		<tag k="place" v="locality" />
		<tag k="ssr:stedsnr" v="96314" />
	</node>
	<node lat="58.91676666891146" lon="8.666822227614137" id="-24397">
		<tag k="name" v="Jamvåga" />
		<tag k="natural" v="valley" />
		<tag k="place" v="locality" />
		<tag k="ssr:stedsnr" v="96971" />
	</node>
	<node lat="58.89899166719434" lon="8.812161103207949" id="-24399">
		<tag k="name" v="Venliane" />
		<tag k="natural" v="slope" />
		<tag k="place" v="locality" />
		<tag k="ssr:stedsnr" v="97678" />
	</node>
	<node lat="58.894905557891946" lon="8.781252773662759" id="-24400">
		<tag k="fixme" v="consider natural=peak for the most distinct mountains in the district" />
		<tag k="name" v="Storbakk" />
		<tag k="natural" v="hill" />
		<tag k="place" v="locality" />
		<tag k="ssr:stedsnr" v="97685" />
	</node>
	<node lat="58.989375002414874" lon="8.463449992484534" id="-24401">
		<tag k="name" v="Flismoen" />
		<tag k="place" v="locality" />
		<tag k="ssr:stedsnr" v="98056" />
	</node>
	<node lat="59.137802778043564" lon="8.359872224082206" id="-24405">
		<tag k="name" v="Bjønnto" />
		<tag k="natural" v="valley" />
		<tag k="place" v="locality" />
		<tag k="ssr:stedsnr" v="105579" />
	</node>
	<node lat="58.96474167069905" lon="8.359388885574848" id="-24406">
		<tag k="name" v="Hønetjønnheia" />
		<tag k="natural" v="hill" />
		<tag k="place" v="locality" />
		<tag k="ssr:stedsnr" v="105910" />
	</node>
	<node lat="58.98610278139112" lon="8.472297223662892" id="-24407">
		<tag k="name" v="Gråndalen" />
		<tag k="natural" v="valley" />
		<tag k="place" v="locality" />
		<tag k="ssr:stedsnr" v="106054" />
	</node>
	<node lat="58.989127779395716" lon="8.483400005864244" id="-24408">
		<tag k="name" v="Sauehola" />
		<tag k="natural" v="slope" />
		<tag k="place" v="locality" />
		<tag k="ssr:stedsnr" v="106071" />
	</node>
	<node lat="58.928875003752104" lon="8.344138885044789" id="-24409">
		<tag k="name" v="Vinterrugkåsa" />
		<tag k="natural" v="slope" />
		<tag k="place" v="locality" />
		<tag k="ssr:stedsnr" v="106794" />
	</node>
	<node lat="59.09690277389735" lon="8.490661119413334" id="-24411">
		<tag k="name" v="Svartufs" />
		<tag k="natural" v="cliff" />
		<tag k="ssr:stedsnr" v="107321" />
	</node>
	<node lat="59.13497221801347" lon="8.448869447840755" id="-24427">
		<tag k="name" v="Klova" />
		<tag k="natural" v="gorge" />
		<tag k="ssr:stedsnr" v="108602" />
	</node>
	<node lat="59.12874444398634" lon="8.414227776289207" id="-24430">
		<tag k="name" v="Kloppmyrhaugen" />
		<tag k="natural" v="hill" />
		<tag k="place" v="locality" />
		<tag k="ssr:stedsnr" v="108709" />
	</node>
	<node lat="59.10752222521249" lon="8.3553055515018" id="-24433">
		<tag k="name" v="Meselskaret" />
		<tag k="natural" v="valley" />
		<tag k="place" v="locality" />
		<tag k="ssr:stedsnr" v="108691" />
	</node>
	<node lat="59.18053055902898" lon="8.388252782666854" id="-24440">
		<tag k="alt_name" v="Skaret" />
		<tag k="name" v="Skardet" />
		<tag k="natural" v="valley" />
		<tag k="place" v="locality" />
		<tag k="ssr:stedsnr" v="122067" />
	</node>
	<node lat="59.20324444511857" lon="8.331255562864959" id="-24442">
		<tag k="alt_name" v="Øytjørnheii" />
		<tag k="fixme" v="consider natural=peak for the most distinct mountains in the district" />
		<tag k="name" v="Øytjønnheia" />
		<tag k="natural" v="hill" />
		<tag k="place" v="locality" />
		<tag k="ssr:stedsnr" v="122089" />
	</node>
	<node lat="58.99751111075021" lon="8.513475007808001" id="-24443">
		<tag k="alt_name" v="Skarknatten" />
		<tag k="fixme" v="consider natural=peak for the most distinct mountains in the district" />
		<tag k="name" v="Skardknatten" />
		<tag k="natural" v="hill" />
		<tag k="place" v="locality" />
		<tag k="ssr:stedsnr" v="122306" />
	</node>
	<node lat="58.909408331362194" lon="8.806077771290505" id="-24445">
		<tag k="name" v="Kaldstaddalen" />
		<tag k="natural" v="valley" />
		<tag k="place" v="locality" />
		<tag k="ssr:stedsnr" v="122479" />
	</node>
	<node lat="59.22108888938476" lon="8.444502774199375" id="-24447">
		<tag k="alt_name" v="Lindefjellet" />
		<tag k="fixme" v="consider natural=peak for the most distinct mountains in the district" />
		<tag k="name" v="Lindefjell" />
		<tag k="natural" v="hill" />
		<tag k="place" v="locality" />
		<tag k="ssr:stedsnr" v="123064" />
	</node>
	<node lat="59.2598416625631" lon="8.465938889614561" id="-24450">
		<tag k="alt_name" v="Horgevikrista" />
		<tag k="fixme" v="consider natural=peak for the most distinct mountains in the district" />
		<tag k="name" v="Horgevikristi" />
		<tag k="natural" v="hill" />
		<tag k="place" v="locality" />
		<tag k="ssr:stedsnr" v="123221" />
	</node>
	<node lat="59.09150000215728" lon="8.436661110731919" id="-24452">
		<tag k="fixme" v="consider natural=peak for the most distinct mountains in the district" />
		<tag k="name" v="Rotfjell" />
		<tag k="natural" v="hill" />
		<tag k="place" v="locality" />
		<tag k="ssr:stedsnr" v="123179" />
	</node>
	<node lat="59.0732583295398" lon="8.58959166844552" id="-24461">
		<tag k="name" v="Samlågheia" />
		<tag k="natural" v="hill" />
		<tag k="place" v="locality" />
		<tag k="ssr:stedsnr" v="154633" />
	</node>
	<node lat="59.20474167008553" lon="8.56536944442699" id="-24462">
		<tag k="name" v="Birkebulia" />
		<tag k="natural" v="slope" />
		<tag k="place" v="locality" />
		<tag k="ssr:stedsnr" v="154669" />
	</node>
	<node lat="59.19288055838441" lon="8.554652772977137" id="-24463">
		<tag k="name" v="Gysjefjellhommen" />
		<tag k="natural" v="slope" />
		<tag k="place" v="locality" />
		<tag k="ssr:stedsnr" v="154674" />
	</node>
	<node lat="59.1938472194031" lon="8.594569452448631" id="-24464">
		<tag k="name" v="Kjarrknattane" />
		<tag k="natural" v="hill" />
		<tag k="place" v="locality" />
		<tag k="ssr:stedsnr" v="154676" />
	</node>
	<node lat="59.093705554223796" lon="8.565319442982593" id="-24468">
		<tag k="name" v="Årakskvæven" />
		<tag k="natural" v="hill" />
		<tag k="place" v="locality" />
		<tag k="ssr:stedsnr" v="154915" />
	</node>
	<node lat="58.898941666910204" lon="8.689369440326168" id="-24469">
		<tag k="fixme" v="consider natural=peak for the most distinct mountains in the district" />
		<tag k="name" v="Åsen" />
		<tag k="natural" v="hill" />
		<tag k="place" v="locality" />
		<tag k="ssr:stedsnr" v="155114" />
	</node>
	<node lat="58.95404721816537" lon="8.52973055668546" id="-24470">
		<tag k="name" v="Ilekleivdalen" />
		<tag k="natural" v="valley" />
		<tag k="place" v="locality" />
		<tag k="ssr:stedsnr" v="155437" />
	</node>
	<node lat="59.03026666895001" lon="8.543088886407565" id="-24473">
		<tag k="name" v="Trommeknatten" />
		<tag k="natural" v="ridge" />
		<tag k="place" v="locality" />
		<tag k="ssr:stedsnr" v="155808" />
	</node>
	<node lat="58.99216111053494" lon="8.506891675006374" id="-24475">
		<tag k="name" v="Fiskånjuvet" />
		<tag k="natural" v="gorge" />
		<tag k="ssr:stedsnr" v="155999" />
	</node>
	<node lat="59.00234444202882" lon="8.617191666313298" id="-24479">
		<tag k="name" v="Mikelsdalen" />
		<tag k="natural" v="valley" />
		<tag k="place" v="locality" />
		<tag k="ssr:stedsnr" v="156516" />
	</node>
	<node lat="58.97478610799644" lon="8.616852775357128" id="-24480">
		<tag k="fixme" v="consider natural=peak for the most distinct mountains in the district" />
		<tag k="name" v="Lauvåsen" />
		<tag k="natural" v="hill" />
		<tag k="place" v="locality" />
		<tag k="ssr:stedsnr" v="156250" />
	</node>
	<node lat="58.89079999960694" lon="8.673655548940365" id="-24482">
		<tag k="name" v="Djupedal" />
		<tag k="natural" v="valley" />
		<tag k="place" v="locality" />
		<tag k="ssr:stedsnr" v="157099" />
	</node>
	<node lat="58.88854722216006" lon="8.668208328439897" id="-24483">
		<tag k="name" v="Bastedalen" />
		<tag k="natural" v="valley" />
		<tag k="place" v="locality" />
		<tag k="ssr:stedsnr" v="157101" />
	</node>
	<node lat="58.88299722545416" lon="8.647649999215924" id="-24485">
		<tag k="name" v="Bomslåttmoen" />
		<tag k="place" v="locality" />
		<tag k="ssr:stedsnr" v="157116" />
	</node>
	<node lat="58.90353333259844" lon="8.804513881901517" id="-24489">
		<tag k="name" v="Einerheia" />
		<tag k="natural" v="hill" />
		<tag k="place" v="locality" />
		<tag k="ssr:stedsnr" v="157647" />
	</node>
	<node lat="58.90965555437462" lon="8.71382778342366" id="-24491">
		<tag k="fixme" v="consider natural=peak for the most distinct mountains in the district" />
		<tag k="name" v="Almelifjellet" />
		<tag k="natural" v="hill" />
		<tag k="place" v="locality" />
		<tag k="ssr:stedsnr" v="157964" />
	</node>
	<node lat="59.10955277582139" lon="8.36781944069811" id="-24495">
		<tag k="name" v="Hestetona" />
		<tag k="place" v="locality" />
		<tag k="ssr:stedsnr" v="166630" />
	</node>
	<node lat="59.13066111338757" lon="8.34262221764784" id="-24496">
		<tag k="name" v="Flotteskaret" />
		<tag k="natural" v="valley" />
		<tag k="place" v="locality" />
		<tag k="ssr:stedsnr" v="166508" />
	</node>
	<node lat="58.9537111137855" lon="8.369405555103295" id="-24498">
		<tag k="name" v="Neråsdalen" />
		<tag k="natural" v="valley" />
		<tag k="place" v="locality" />
		<tag k="ssr:stedsnr" v="166878" />
	</node>
	<node lat="58.92933333036997" lon="8.310558338027441" id="-24500">
		<tag k="fixme" v="consider natural=peak for the most distinct mountains in the district" />
		<tag k="name" v="Furvassheii" />
		<tag k="natural" v="hill" />
		<tag k="place" v="locality" />
		<tag k="ssr:stedsnr" v="166973" />
	</node>
	<node lat="59.223936106778964" lon="8.371602780092498" id="-24504">
		<tag k="name" v="Langlibrota" />
		<tag k="place" v="locality" />
		<tag k="ssr:stedsnr" v="168010" />
	</node>
	<node lat="59.19019166412683" lon="8.4154805596512" id="-24508">
		<tag k="name" v="Trælskar" />
		<tag k="natural" v="valley" />
		<tag k="place" v="locality" />
		<tag k="ssr:stedsnr" v="168274" />
	</node>
	<node lat="59.20363332968968" lon="8.376880557691901" id="-24510">
		<tag k="name" v="Heggedalane" />
		<tag k="natural" v="valley" />
		<tag k="place" v="locality" />
		<tag k="ssr:stedsnr" v="168415" />
	</node>
	<node lat="59.088833332181004" lon="8.417911117904799" id="-24511">
		<tag k="fixme" v="consider natural=peak for the most distinct mountains in the district" />
		<tag k="name" v="Ljosvassnutane" />
		<tag k="natural" v="hill" />
		<tag k="place" v="locality" />
		<tag k="ssr:stedsnr" v="168458" />
	</node>
	<node lat="59.122605558201485" lon="8.472716667377671" id="-24513">
		<tag k="name" v="Vikholune" />
		<tag k="place" v="locality" />
		<tag k="ssr:stedsnr" v="168364" />
	</node>
	<node lat="59.0749722221293" lon="8.47849444347747" id="-24514">
		<tag k="name" v="Skresteinen" />
		<tag k="place" v="locality" />
		<tag k="ssr:stedsnr" v="168503" />
	</node>
	<node lat="59.14242499706546" lon="8.460988889896749" id="-24515">
		<tag k="name" v="Fjonemøane" />
		<tag k="place" v="locality" />
		<tag k="ssr:stedsnr" v="168605" />
	</node>
	<node lat="59.157997222030744" lon="8.425925003019579" id="-24517">
		<tag k="name" v="Bronen" />
		<tag k="place" v="locality" />
		<tag k="ssr:stedsnr" v="168777" />
	</node>
	<node lat="59.166363892563886" lon="8.646766658750776" id="-24520">
		<tag k="name" v="Tjovhomsfjellet" />
		<tag k="natural" v="ridge" />
		<tag k="place" v="locality" />
		<tag k="ssr:stedsnr" v="169587" />
	</node>
	<node lat="59.14687777394652" lon="8.612180560585806" id="-24521">
		<tag k="fixme" v="consider natural=peak for the most distinct mountains in the district" />
		<tag k="name" v="Breilihommen" />
		<tag k="natural" v="hill" />
		<tag k="place" v="locality" />
		<tag k="ssr:stedsnr" v="169719" />
	</node>
	<node lat="58.92820000446748" lon="8.5155444423343" id="-24525">
		<tag k="alt_name" v="Store Sundsmyrkollen" />
		<tag k="name" v="Sundsmyrkollane" />
		<tag k="natural" v="hill" />
		<tag k="place" v="locality" />
		<tag k="ssr:stedsnr" v="182406" />
	</node>
	<node lat="58.92864167009832" lon="8.49050554996117" id="-24526">
		<tag k="name" v="Åmotsliklovet" />
		<tag k="natural" v="valley" />
		<tag k="place" v="locality" />
		<tag k="ssr:stedsnr" v="182408" />
	</node>
	<node lat="58.941930557035754" lon="8.54343888920039" id="-24527">
		<tag k="name" v="Øyvasskollen" />
		<tag k="natural" v="hill" />
		<tag k="place" v="locality" />
		<tag k="ssr:stedsnr" v="182422" />
	</node>
	<node lat="58.889324996857944" lon="8.670894449823455" id="-24529">
		<tag k="name" v="Bastedalsheia" />
		<tag k="natural" v="hill" />
		<tag k="place" v="locality" />
		<tag k="ssr:stedsnr" v="182464" />
	</node>
	<node lat="59.04800555747054" lon="8.412325007286325" id="-24530">
		<tag k="alt_name" v="Ånondsbufjellet" />
		<tag k="fixme" v="consider natural=peak for the most distinct mountains in the district" />
		<tag k="name" v="Ånundsbufjellet" />
		<tag k="natural" v="hill" />
		<tag k="place" v="locality" />
		<tag k="ssr:stedsnr" v="183212" />
	</node>
	<node lat="59.05034397340437" lon="8.42606240074096" id="-24531">
		<tag k="alt_name" v="Allambergknatten" />
		<tag k="fixme" v="consider natural=peak for the most distinct mountains in the district" />
		<tag k="name" v="Allambergnatten" />
		<tag k="natural" v="hill" />
		<tag k="place" v="locality" />
		<tag k="ssr:stedsnr" v="183222" />
	</node>
	<node lat="59.07764166406307" lon="8.37959722542043" id="-24532">
		<tag k="name" v="Mjådalen" />
		<tag k="natural" v="valley" />
		<tag k="place" v="locality" />
		<tag k="ssr:stedsnr" v="183191" />
	</node>
	<node lat="58.91799444341667" lon="8.784863897313095" id="-24533">
		<tag k="name" v="Galtedalen" />
		<tag k="natural" v="valley" />
		<tag k="place" v="locality" />
		<tag k="ssr:stedsnr" v="183348" />
	</node>
	<node lat="59.13544722018207" lon="8.529447225118066" id="-24540">
		<tag k="fixme" v="consider natural=peak for the most distinct mountains in the district" />
		<tag k="name" v="Nystøylåsen" />
		<tag k="natural" v="hill" />
		<tag k="place" v="locality" />
		<tag k="ssr:stedsnr" v="183697" />
	</node>
	<node lat="59.13649721807748" lon="8.703402781709489" id="-24542">
		<tag k="name" v="Uvdalen" />
		<tag k="natural" v="valley" />
		<tag k="place" v="locality" />
		<tag k="ssr:stedsnr" v="183717" />
	</node>
	<node lat="58.92461944434479" lon="8.381574996598777" id="-24549">
		<tag k="name" v="Leirbekkdalen" />
		<tag k="natural" v="valley" />
		<tag k="place" v="locality" />
		<tag k="ssr:stedsnr" v="183985" />
	</node>
	<node lat="59.17444999927925" lon="8.445869449622334" id="-24550">
		<tag k="name" v="Nordskogklova" />
		<tag k="natural" v="valley" />
		<tag k="place" v="locality" />
		<tag k="ssr:stedsnr" v="184115" />
	</node>
	<node lat="59.10316111104205" lon="8.587602775206044" id="-24559">
		<tag k="alt_name" v="Øktdagsvarden" />
		<tag k="fixme" v="consider natural=peak for the most distinct mountains in the district" />
		<tag k="name" v="Øktdragsvarden" />
		<tag k="natural" v="hill" />
		<tag k="place" v="locality" />
		<tag k="ssr:stedsnr" v="184632" />
	</node>
	<node lat="59.21813611363659" lon="8.520438883522734" id="-24560">
		<tag k="fixme" v="consider natural=peak for the most distinct mountains in the district" />
		<tag k="name" v="Grasnetten" />
		<tag k="natural" v="hill" />
		<tag k="place" v="locality" />
		<tag k="ssr:stedsnr" v="184894" />
	</node>
	<node lat="59.21610555804037" lon="8.511991673119777" id="-24561">
		<tag k="alt_name" v="Nordabergfjellet" />
		<tag k="fixme" v="consider natural=peak for the most distinct mountains in the district" />
		<tag k="name" v="Nordabøfjellet" />
		<tag k="natural" v="hill" />
		<tag k="place" v="locality" />
		<tag k="ssr:stedsnr" v="184897" />
	</node>
	<node lat="59.10928332982366" lon="8.5713527836694" id="-24563">
		<tag k="name" v="Rapkvæven" />
		<tag k="natural" v="valley" />
		<tag k="place" v="locality" />
		<tag k="ssr:stedsnr" v="214477" />
	</node>
	<node lat="59.11575555212523" lon="8.58341665886676" id="-24564">
		<tag k="fixme" v="consider natural=peak for the most distinct mountains in the district" />
		<tag k="name" v="Rapnuten" />
		<tag k="natural" v="hill" />
		<tag k="place" v="locality" />
		<tag k="ssr:stedsnr" v="214498" />
	</node>
	<node lat="59.11527222527494" lon="8.540783340143557" id="-24565">
		<tag k="fixme" v="consider natural=peak for the most distinct mountains in the district" />
		<tag k="name" v="Ørnefjell" />
		<tag k="natural" v="hill" />
		<tag k="place" v="locality" />
		<tag k="ssr:stedsnr" v="214712" />
	</node>
	<node lat="59.058738886389435" lon="8.529097216216417" id="-24571">
		<tag k="name" v="Vrengjen" />
		<tag k="place" v="locality" />
		<tag k="ssr:stedsnr" v="215992" />
	</node>
	<node lat="58.98723055499509" lon="8.571138897177947" id="-24575">
		<tag k="name" v="Solipalane" />
		<tag k="natural" v="slope" />
		<tag k="place" v="locality" />
		<tag k="ssr:stedsnr" v="216280" />
	</node>
	<node lat="59.04626388548183" lon="8.534675000311093" id="-24577">
		<tag k="name" v="Bringebærjuvet" />
		<tag k="natural" v="gorge" />
		<tag k="ssr:stedsnr" v="216330" />
	</node>
	<node lat="59.03399999641995" lon="8.528927778835463" id="-24579">
		<tag k="fixme" v="consider natural=peak for the most distinct mountains in the district" />
		<tag k="name" v="Sollifjell" />
		<tag k="natural" v="hill" />
		<tag k="place" v="locality" />
		<tag k="ssr:stedsnr" v="216827" />
	</node>
	<node lat="58.98624722056231" lon="8.579552778135998" id="-24580">
		<tag k="name" v="Geitestigen" />
		<tag k="natural" v="slope" />
		<tag k="place" v="locality" />
		<tag k="ssr:stedsnr" v="216704" />
	</node>
	<node lat="58.995305558863855" lon="8.578924997818653" id="-24582">
		<tag k="name" v="Paddeberga" />
		<tag k="place" v="locality" />
		<tag k="ssr:stedsnr" v="216725" />
	</node>
	<node lat="58.941294448979235" lon="8.582344451481594" id="-24583">
		<tag k="fixme" v="consider natural=peak for the most distinct mountains in the district" />
		<tag k="name" v="Hellesliknatten" />
		<tag k="natural" v="hill" />
		<tag k="place" v="locality" />
		<tag k="ssr:stedsnr" v="216902" />
	</node>
	<node lat="58.97370277620327" lon="8.639602769275173" id="-24585">
		<tag k="name" v="Perstjønndalen" />
		<tag k="natural" v="valley" />
		<tag k="place" v="locality" />
		<tag k="ssr:stedsnr" v="217304" />
	</node>
	<node lat="58.89122499633571" lon="8.720505561263781" id="-24586">
		<tag k="name" v="Navreheia" />
		<tag k="natural" v="hill" />
		<tag k="place" v="locality" />
		<tag k="ssr:stedsnr" v="217385" />
	</node>
	<node lat="58.98277777928804" lon="8.615827770610954" id="-24589">
		<tag k="name" v="Løstadlia" />
		<tag k="natural" v="slope" />
		<tag k="place" v="locality" />
		<tag k="ssr:stedsnr" v="217731" />
	</node>
	<node lat="58.97488611221079" lon="8.756744448316997" id="-24594">
		<tag k="name" v="Stordalane" />
		<tag k="natural" v="valley" />
		<tag k="place" v="locality" />
		<tag k="ssr:stedsnr" v="218209" />
	</node>
	<node lat="58.89927500311685" lon="8.696277775605534" id="-24595">
		<tag k="name" v="Hågmyrheia" />
		<tag k="natural" v="hill" />
		<tag k="place" v="locality" />
		<tag k="ssr:stedsnr" v="218103" />
	</node>
	<node lat="58.88686111339197" lon="8.65555000722295" id="-24598">
		<tag k="name" v="Tonsmyrdalen" />
		<tag k="natural" v="valley" />
		<tag k="place" v="locality" />
		<tag k="ssr:stedsnr" v="218834" />
	</node>
	<node lat="58.91631944150073" lon="8.768547215564178" id="-24600">
		<tag k="name" v="Grimustjønnheia" />
		<tag k="natural" v="hill" />
		<tag k="place" v="locality" />
		<tag k="ssr:stedsnr" v="218974" />
	</node>
	<node lat="58.9789833314254" lon="8.472191674869956" id="-24601">
		<tag k="name" v="Primtjønndalen" />
		<tag k="natural" v="valley" />
		<tag k="place" v="locality" />
		<tag k="ssr:stedsnr" v="220091" />
	</node>
	<node lat="58.95482222334288" lon="8.477311119300312" id="-24607">
		<tag k="name" v="Haugsjåkollen" />
		<tag k="natural" v="hill" />
		<tag k="place" v="locality" />
		<tag k="ssr:stedsnr" v="228004" />
	</node>
	<node lat="58.95293333427358" lon="8.433641663383415" id="-24609">
		<tag k="name" v="Halstein" />
		<tag k="place" v="locality" />
		<tag k="ssr:stedsnr" v="228138" />
	</node>
	<node lat="58.96308610946155" lon="8.45588611096377" id="-24610">
		<tag k="name" v="Abaklia" />
		<tag k="natural" v="slope" />
		<tag k="place" v="locality" />
		<tag k="ssr:stedsnr" v="228040" />
	</node>
	<node lat="59.15268055111123" lon="8.458216658603561" id="-24620">
		<tag k="name" v="Den store hola" />
		<tag k="place" v="locality" />
		<tag k="ssr:stedsnr" v="229412" />
	</node>
	<node lat="59.169341664648655" lon="8.457427783969797" id="-24626">
		<tag k="name" v="Kiddingnetten" />
		<tag k="natural" v="hill" />
		<tag k="place" v="locality" />
		<tag k="ssr:stedsnr" v="229613" />
	</node>
	<node lat="58.92383333023733" lon="8.359005548383658" id="-24631">
		<tag k="name" v="Åskollen" />
		<tag k="natural" v="hill" />
		<tag k="place" v="locality" />
		<tag k="ssr:stedsnr" v="229995" />
	</node>
	<node lat="59.14177778070058" lon="8.626786114015696" id="-24633">
		<tag k="fixme" v="consider natural=peak for the most distinct mountains in the district" />
		<tag k="name" v="Raundalsfenta" />
		<tag k="natural" v="hill" />
		<tag k="place" v="locality" />
		<tag k="ssr:stedsnr" v="230336" />
	</node>
	<node lat="58.919899995922435" lon="8.311427779385218" id="-24634">
		<tag k="name" v="Klova" />
		<tag k="natural" v="valley" />
		<tag k="place" v="locality" />
		<tag k="ssr:stedsnr" v="230930" />
	</node>
	<node lat="59.017091667837214" lon="8.522897228624448" id="-24635">
		<tag k="name" v="Sommarsletta" />
		<tag k="place" v="locality" />
		<tag k="ssr:stedsnr" v="242187" />
	</node>
	<node lat="58.837541664971724" lon="8.699705557299533" id="-24637">
		<tag k="name" v="Tjovheia" />
		<tag k="natural" v="hill" />
		<tag k="place" v="locality" />
		<tag k="ssr:stedsnr" v="243736" />
	</node>
	<node lat="58.98550277533958" lon="8.375858327335623" id="-24638">
		<tag k="alt_name" v="Geitknatten" />
		<tag k="fixme" v="consider natural=peak for the most distinct mountains in the district" />
		<tag k="name" v="Geitknuten" />
		<tag k="natural" v="hill" />
		<tag k="place" v="locality" />
		<tag k="ssr:stedsnr" v="243896" />
	</node>
	<node lat="59.2319888861532" lon="8.302074998943022" id="-24639">
		<tag k="alt_name" v="Sveigen" />
		<tag k="name" v="Lytingskardet" />
		<tag k="natural" v="valley" />
		<tag k="place" v="locality" />
		<tag k="ssr:stedsnr" v="244002" />
	</node>
	<node lat="59.16886111041561" lon="8.450138885754603" id="-24643">
		<tag k="alt_name" v="Husfjell" />
		<tag k="fixme" v="consider natural=peak for the most distinct mountains in the district" />
		<tag k="name" v="Husfjellet" />
		<tag k="natural" v="hill" />
		<tag k="place" v="locality" />
		<tag k="ssr:stedsnr" v="244114" />
	</node>
	<node lat="58.98883333486831" lon="8.512708340451109" id="-24646">
		<tag k="fixme" v="consider natural=peak for the most distinct mountains in the district" />
		<tag k="name" v="Einangfjellet" />
		<tag k="natural" v="hill" />
		<tag k="place" v="locality" />
		<tag k="ssr:stedsnr" v="244288" />
	</node>
	<node lat="59.00275000351772" lon="8.760288887459748" id="-24649">
		<tag k="name" v="Osbudalen" />
		<tag k="natural" v="valley" />
		<tag k="place" v="locality" />
		<tag k="ssr:stedsnr" v="244497" />
	</node>
	<node lat="59.13725523863102" lon="8.514958230016521" id="-24656">
		<tag k="name" v="Storli" />
		<tag k="natural" v="slope" />
		<tag k="place" v="locality" />
		<tag k="ssr:stedsnr" v="244715" />
	</node>
	<node lat="59.19990278024355" lon="8.545069445805705" id="-24657">
		<tag k="alt_name" v="Vardefjellnuten" />
		<tag k="fixme" v="consider natural=peak for the most distinct mountains in the district" />
		<tag k="name" v="Vardefjell" />
		<tag k="natural" v="hill" />
		<tag k="place" v="locality" />
		<tag k="ssr:stedsnr" v="244878" />
	</node>
	<node lat="59.19420555328098" lon="8.599330559078812" id="-24670">
		<tag k="fixme" v="consider natural=peak for the most distinct mountains in the district" />
		<tag k="name" v="Den brende åsen" />
		<tag k="natural" v="hill" />
		<tag k="place" v="locality" />
		<tag k="ssr:stedsnr" v="457584" />
	</node>
	<node lat="59.217761112499545" lon="8.525847222120426" id="-24672">
		<tag k="fixme" v="consider natural=peak for the most distinct mountains in the district" />
		<tag k="name" v="Det brende fjellet" />
		<tag k="natural" v="hill" />
		<tag k="place" v="locality" />
		<tag k="ssr:stedsnr" v="457586" />
	</node>
	<node lat="59.1765833367321" lon="8.519752777044378" id="-24674">
		<tag k="name" v="Venli" />
		<tag k="natural" v="slope" />
		<tag k="place" v="locality" />
		<tag k="ssr:stedsnr" v="457980" />
	</node>
	<node lat="59.16733888461705" lon="8.540699991418379" id="-24675">
		<tag k="name" v="Åsmellom" />
		<tag k="natural" v="valley" />
		<tag k="place" v="locality" />
		<tag k="ssr:stedsnr" v="457989" />
	</node>
	<node lat="58.979399996583986" lon="8.53046111383809" id="-24678">
		<tag k="name" v="Åsmonen" />
		<tag k="place" v="locality" />
		<tag k="ssr:stedsnr" v="458444" />
	</node>
	<node lat="58.99684721959576" lon="8.568269441086263" id="-24686">
		<tag k="name" v="Smedalsgapet" />
		<tag k="place" v="locality" />
		<tag k="ssr:stedsnr" v="458788" />
	</node>
	<node lat="58.98650277817585" lon="8.582927778772888" id="-24687">
		<tag k="name" v="Geitefjellskarene" />
		<tag k="natural" v="valley" />
		<tag k="place" v="locality" />
		<tag k="ssr:stedsnr" v="458755" />
	</node>
	<node lat="59.02052777630466" lon="8.556744440791029" id="-24690">
		<tag k="name" v="Øverlandslia" />
		<tag k="natural" v="slope" />
		<tag k="place" v="locality" />
		<tag k="ssr:stedsnr" v="459032" />
	</node>
	<node lat="58.99677221846617" lon="8.713222227907377" id="-24691">
		<tag k="name" v="Jambokdalen" />
		<tag k="natural" v="valley" />
		<tag k="place" v="locality" />
		<tag k="ssr:stedsnr" v="459033" />
	</node>
	<node lat="58.92146389094796" lon="8.589088894868036" id="-24696">
		<tag k="name" v="Bjønntona" />
		<tag k="place" v="locality" />
		<tag k="ssr:stedsnr" v="459242" />
	</node>
	<node lat="59.0446611097277" lon="8.504197218144965" id="-24698">
		<tag k="name" v="Smådalane" />
		<tag k="natural" v="valley" />
		<tag k="place" v="locality" />
		<tag k="ssr:stedsnr" v="459450" />
	</node>
	<node lat="59.05438611106692" lon="8.572749994004214" id="-24703">
		<tag k="name" v="Gjermonsdal" />
		<tag k="natural" v="valley" />
		<tag k="place" v="locality" />
		<tag k="ssr:stedsnr" v="459528" />
	</node>
	<node lat="59.19141111554188" lon="8.572719448418548" id="-24705">
		<tag k="name" v="Holmevasshaddane" />
		<tag k="natural" v="slope" />
		<tag k="place" v="locality" />
		<tag k="ssr:stedsnr" v="275576" />
	</node>
	<node lat="58.954405556864984" lon="8.58523054692566" id="-24709">
		<tag k="name" v="Grytene" />
		<tag k="place" v="locality" />
		<tag k="ssr:stedsnr" v="276169" />
	</node>
	<node lat="59.05561388891861" lon="8.58135832882286" id="-24712">
		<tag k="name" v="Nordre Hakjosdalen" />
		<tag k="natural" v="valley" />
		<tag k="place" v="locality" />
		<tag k="ssr:stedsnr" v="276613" />
	</node>
	<node lat="58.987313887054796" lon="8.580844451977184" id="-24716">
		<tag k="name" v="Lislerustedalen" />
		<tag k="natural" v="valley" />
		<tag k="place" v="locality" />
		<tag k="ssr:stedsnr" v="276778" />
	</node>
	<node lat="59.01960555230385" lon="8.5544083278434" id="-24718">
		<tag k="name" v="Rauskre" />
		<tag k="natural" v="slope" />
		<tag k="place" v="locality" />
		<tag k="ssr:stedsnr" v="277022" />
	</node>
	<node lat="58.9185666710863" lon="8.602750003475338" id="-24721">
		<tag k="name" v="Sørliane" />
		<tag k="natural" v="slope" />
		<tag k="place" v="locality" />
		<tag k="ssr:stedsnr" v="277218" />
	</node>
	<node lat="59.04796944741704" lon="8.52851389424372" id="-24724">
		<tag k="name" v="Napefjellet" />
		<tag k="natural" v="hill" />
		<tag k="place" v="locality" />
		<tag k="ssr:stedsnr" v="277314" />
	</node>
	<node lat="59.0456250016712" lon="8.606799992903284" id="-24726">
		<tag k="name" v="Smørklepphelleren" />
		<tag k="place" v="locality" />
		<tag k="ssr:stedsnr" v="277491" />
	</node>
	<node lat="59.015552780715915" lon="8.499836104350662" id="-24727">
		<tag k="fixme" v="consider natural=peak for the most distinct mountains in the district" />
		<tag k="name" v="Klyvstoåsen" />
		<tag k="natural" v="hill" />
		<tag k="place" v="locality" />
		<tag k="ssr:stedsnr" v="459948" />
	</node>
	<node lat="58.929716666629254" lon="8.707416670913954" id="-24731">
		<tag k="name" v="Torjusheller" />
		<tag k="place" v="locality" />
		<tag k="ssr:stedsnr" v="278476" />
	</node>
	<node lat="58.894649995990854" lon="8.678144436486996" id="-24735">
		<tag k="name" v="Fjosdalen" />
		<tag k="natural" v="valley" />
		<tag k="place" v="locality" />
		<tag k="ssr:stedsnr" v="460149" />
	</node>
	<node lat="58.904794441038256" lon="8.722700004309376" id="-24743">
		<tag k="name" v="Røydalen" />
		<tag k="natural" v="valley" />
		<tag k="place" v="locality" />
		<tag k="ssr:stedsnr" v="460448" />
	</node>
	<node lat="58.90395833296025" lon="8.729719452651535" id="-24744">
		<tag k="fixme" v="consider natural=peak for the most distinct mountains in the district" />
		<tag k="name" v="Killingsfjellet" />
		<tag k="natural" v="hill" />
		<tag k="place" v="locality" />
		<tag k="ssr:stedsnr" v="460450" />
	</node>
	<node lat="58.95124166283465" lon="8.69727777441505" id="-24746">
		<tag k="name" v="Løytesdalen" />
		<tag k="natural" v="valley" />
		<tag k="place" v="locality" />
		<tag k="ssr:stedsnr" v="460547" />
	</node>
	<node lat="58.892497218444504" lon="8.642672216463854" id="-24751">
		<tag k="name" v="Gårrkillia" />
		<tag k="natural" v="slope" />
		<tag k="place" v="locality" />
		<tag k="ssr:stedsnr" v="460852" />
	</node>
	<node lat="58.97554166615927" lon="8.759652784625763" id="-24755">
		<tag k="name" v="Harehol" />
		<tag k="natural" v="valley" />
		<tag k="place" v="locality" />
		<tag k="ssr:stedsnr" v="461191" />
	</node>
	<node lat="58.99144722291297" lon="8.423202771492564" id="-24756">
		<tag k="name" v="Gråndalen" />
		<tag k="natural" v="valley" />
		<tag k="place" v="locality" />
		<tag k="ssr:stedsnr" v="287379" />
	</node>
	<node lat="59.10283889067223" lon="8.37853889344022" id="-24757">
		<tag k="name" v="Skarnuten" />
		<tag k="natural" v="hill" />
		<tag k="place" v="locality" />
		<tag k="ssr:stedsnr" v="287685" />
	</node>
	<node lat="58.90167777505156" lon="8.806486110355864" id="-24759">
		<tag k="name" v="Heiarberget" />
		<tag k="natural" v="hill" />
		<tag k="place" v="locality" />
		<tag k="ssr:stedsnr" v="461695" />
	</node>
	<node lat="59.095072224817564" lon="8.406977777614067" id="-24764">
		<tag k="name" v="Hyttedalen" />
		<tag k="natural" v="valley" />
		<tag k="place" v="locality" />
		<tag k="ssr:stedsnr" v="289488" />
	</node>
	<node lat="59.11064444038636" lon="8.46544444117853" id="-24767">
		<tag k="name" v="Sandvikliane" />
		<tag k="natural" v="slope" />
		<tag k="place" v="locality" />
		<tag k="ssr:stedsnr" v="290012" />
	</node>
	<node lat="59.022605552422796" lon="8.717400008076282" id="-24770">
		<tag k="name" v="Gråndalen" />
		<tag k="natural" v="valley" />
		<tag k="place" v="locality" />
		<tag k="ssr:stedsnr" v="290212" />
	</node>
	<node lat="58.9257361142931" lon="8.314055561801217" id="-24780">
		<tag k="name" v="Svelltjønnheia" />
		<tag k="natural" v="hill" />
		<tag k="place" v="locality" />
		<tag k="ssr:stedsnr" v="290926" />
	</node>
	<node lat="58.981688884819974" lon="8.49296110896806" id="-24783">
		<tag k="name" v="Godtholdalen" />
		<tag k="natural" v="valley" />
		<tag k="place" v="locality" />
		<tag k="ssr:stedsnr" v="463045" />
	</node>
	<node lat="58.94445833728995" lon="8.721363896241746" id="-24785">
		<tag k="name" v="Løytesdalen" />
		<tag k="natural" v="valley" />
		<tag k="place" v="locality" />
		<tag k="ssr:stedsnr" v="304407" />
	</node>
	<node lat="58.92792500185151" lon="8.479363890391552" id="-24786">
		<tag k="name" v="Haganlia" />
		<tag k="natural" v="slope" />
		<tag k="place" v="locality" />
		<tag k="ssr:stedsnr" v="304414" />
	</node>
	<node lat="58.94911944267428" lon="8.638519440084051" id="-24788">
		<tag k="fixme" v="consider natural=peak for the most distinct mountains in the district" />
		<tag k="name" v="Nuten" />
		<tag k="natural" v="hill" />
		<tag k="place" v="locality" />
		<tag k="ssr:stedsnr" v="304308" />
	</node>
	<node lat="58.95861666362715" lon="8.596866661857325" id="-24790">
		<tag k="name" v="Svåune" />
		<tag k="natural" v="slope" />
		<tag k="place" v="locality" />
		<tag k="ssr:stedsnr" v="304325" />
	</node>
	<node lat="58.924908336594875" lon="8.698622216143171" id="-24792">
		<tag k="name" v="Gråndalen" />
		<tag k="natural" v="valley" />
		<tag k="place" v="locality" />
		<tag k="ssr:stedsnr" v="304379" />
	</node>
	<node lat="58.87567500216903" lon="8.689911112588744" id="-24793">
		<tag k="name" v="Stålesberg" />
		<tag k="natural" v="hill" />
		<tag k="place" v="locality" />
		<tag k="ssr:stedsnr" v="304703" />
	</node>
	<node lat="58.90232777363496" lon="8.733536111186163" id="-24794">
		<tag k="name" v="Kollen" />
		<tag k="natural" v="hill" />
		<tag k="place" v="locality" />
		<tag k="ssr:stedsnr" v="304471" />
	</node>
	<node lat="58.91494444687742" lon="8.650041666586946" id="-24795">
		<tag k="alt_name" v="Noheia" />
		<tag k="fixme" v="consider natural=peak for the most distinct mountains in the district" />
		<tag k="name" v="Nonheia" />
		<tag k="natural" v="hill" />
		<tag k="place" v="locality" />
		<tag k="ssr:stedsnr" v="304477" />
	</node>
	<node lat="59.00006389069191" lon="8.61312222897839" id="-24799">
		<tag k="fixme" v="consider natural=peak for the most distinct mountains in the district" />
		<tag k="name" v="Beindalsåsen" />
		<tag k="natural" v="hill" />
		<tag k="place" v="locality" />
		<tag k="ssr:stedsnr" v="305505" />
	</node>
	<node lat="59.16939999641208" lon="8.52584721435413" id="-24802">
		<tag k="name" v="Hønufsstigen" />
		<tag k="place" v="locality" />
		<tag k="ssr:stedsnr" v="305803" />
	</node>
	<node lat="58.97729999663407" lon="8.422458335997655" id="-24805">
		<tag k="name" v="Prekestolen" />
		<tag k="natural" v="hill" />
		<tag k="place" v="locality" />
		<tag k="ssr:stedsnr" v="469328" />
	</node>
	<node lat="59.11455278211927" lon="8.373105547801947" id="-24806">
		<tag k="name" v="Fjellstøylskarine" />
		<tag k="natural" v="hill" />
		<tag k="place" v="locality" />
		<tag k="ssr:stedsnr" v="469686" />
	</node>
	<node lat="58.98810833049817" lon="8.49118888909047" id="-24808">
		<tag k="name" v="Elkomdalen" />
		<tag k="natural" v="valley" />
		<tag k="place" v="locality" />
		<tag k="ssr:stedsnr" v="470046" />
	</node>
	<node lat="58.932636112201244" lon="8.451344449496679" id="-24809">
		<tag k="name" v="Stompemyrhelleren" />
		<tag k="place" v="locality" />
		<tag k="ssr:stedsnr" v="470488" />
	</node>
	<node lat="58.94985000018881" lon="8.357505547871702" id="-24810">
		<tag k="name" v="Store Sete" />
		<tag k="natural" v="hill" />
		<tag k="place" v="locality" />
		<tag k="ssr:stedsnr" v="470891" />
	</node>
	<node lat="59.04850000194642" lon="8.44357777067914" id="-24811">
		<tag k="name" v="Allamberg" />
		<tag k="place" v="locality" />
		<tag k="ssr:stedsnr" v="471099" />
	</node>
	<node lat="58.96188055683813" lon="8.409688896376231" id="-24815">
		<tag k="name" v="Skarkedalen" />
		<tag k="natural" v="valley" />
		<tag k="place" v="locality" />
		<tag k="ssr:stedsnr" v="471152" />
	</node>
	<node lat="59.0301694460339" lon="8.461172228132915" id="-24816">
		<tag k="name" v="Svallto" />
		<tag k="place" v="locality" />
		<tag k="ssr:stedsnr" v="471218" />
	</node>
	<node lat="59.09146111307437" lon="8.544636116247778" id="-24825">
		<tag k="name" v="Kraune" />
		<tag k="natural" v="slope" />
		<tag k="place" v="locality" />
		<tag k="ssr:stedsnr" v="335554" />
	</node>
	<node lat="59.15412499607747" lon="8.524230553379265" id="-24827">
		<tag k="name" v="Kjukesteinen" />
		<tag k="place" v="locality" />
		<tag k="ssr:stedsnr" v="335556" />
	</node>
	<node lat="59.06236389048492" lon="8.45625278190095" id="-24830">
		<tag k="name" v="Heibrynene" />
		<tag k="place" v="locality" />
		<tag k="ssr:stedsnr" v="471554" />
	</node>
	<node lat="59.14592777439668" lon="8.378052773994392" id="-24839">
		<tag k="name" v="Smørkrolia" />
		<tag k="natural" v="slope" />
		<tag k="place" v="locality" />
		<tag k="ssr:stedsnr" v="471637" />
	</node>
	<node lat="59.11727222425253" lon="8.536566662961814" id="-24840">
		<tag k="name" v="Bjønndalen" />
		<tag k="natural" v="valley" />
		<tag k="place" v="locality" />
		<tag k="ssr:stedsnr" v="336660" />
	</node>
	<node lat="59.085230555667046" lon="8.58578888112468" id="-24842">
		<tag k="name" v="Samlågheia" />
		<tag k="natural" v="hill" />
		<tag k="place" v="locality" />
		<tag k="ssr:stedsnr" v="336902" />
	</node>
	<node lat="59.03141667022492" lon="8.50878610780952" id="-24844">
		<tag k="name" v="Skavangsgrova" />
		<tag k="place" v="locality" />
		<tag k="ssr:stedsnr" v="337245" />
	</node>
	<node lat="59.02218333025503" lon="8.597458329180302" id="-24846">
		<tag k="fixme" v="consider natural=peak for the most distinct mountains in the district" />
		<tag k="name" v="Bergånuten" />
		<tag k="natural" v="hill" />
		<tag k="place" v="locality" />
		<tag k="ssr:stedsnr" v="337192" />
	</node>
	<node lat="59.037024996769695" lon="8.519080561419967" id="-24848">
		<tag k="name" v="Geithaugen" />
		<tag k="natural" v="hill" />
		<tag k="place" v="locality" />
		<tag k="ssr:stedsnr" v="337499" />
	</node>
	<node lat="59.129669448067844" lon="8.420725002456445" id="-24849">
		<tag k="name" v="Hagbujuvet" />
		<tag k="natural" v="gorge" />
		<tag k="ssr:stedsnr" v="471737" />
	</node>
	<node lat="59.051005556866684" lon="8.515666667182648" id="-24850">
		<tag k="name" v="Sandvikliane" />
		<tag k="natural" v="slope" />
		<tag k="place" v="locality" />
		<tag k="ssr:stedsnr" v="337518" />
	</node>
	<node lat="58.94605555736531" lon="8.515991662722204" id="-24851">
		<tag k="fixme" v="consider natural=peak for the most distinct mountains in the district" />
		<tag k="name" v="Slukåsen" />
		<tag k="natural" v="hill" />
		<tag k="place" v="locality" />
		<tag k="ssr:stedsnr" v="337807" />
	</node>
	<node lat="58.92778055656545" lon="8.537436106183605" id="-24853">
		<tag k="name" v="Veirhylskaret" />
		<tag k="natural" v="valley" />
		<tag k="place" v="locality" />
		<tag k="ssr:stedsnr" v="337849" />
	</node>
	<node lat="59.182030554969984" lon="8.417836108227442" id="-24855">
		<tag k="name" v="Røtune" />
		<tag k="natural" v="slope" />
		<tag k="place" v="locality" />
		<tag k="ssr:stedsnr" v="471901" />
	</node>
	<node lat="59.007238888202124" lon="8.621191666612715" id="-24856">
		<tag k="name" v="Husådalane" />
		<tag k="natural" v="valley" />
		<tag k="place" v="locality" />
		<tag k="ssr:stedsnr" v="338204" />
	</node>
	<node lat="58.886766671049955" lon="8.742869448401297" id="-24858">
		<tag k="name" v="Fellskleiv" />
		<tag k="natural" v="slope" />
		<tag k="place" v="locality" />
		<tag k="ssr:stedsnr" v="338345" />
	</node>
	<node lat="59.024800003295695" lon="8.616261119469854" id="-24860">
		<tag k="name" v="Vimyrmoen" />
		<tag k="place" v="locality" />
		<tag k="ssr:stedsnr" v="472024" />
	</node>
	<node lat="59.22589999741461" lon="8.331547226518238" id="-24861">
		<tag k="name" v="Kilskar" />
		<tag k="natural" v="valley" />
		<tag k="place" v="locality" />
		<tag k="ssr:stedsnr" v="472055" />
	</node>
	<node lat="58.919122222368046" lon="8.71924444069433" id="-24863">
		<tag k="fixme" v="consider natural=peak for the most distinct mountains in the district" />
		<tag k="name" v="Tilsteinfjellet" />
		<tag k="natural" v="hill" />
		<tag k="place" v="locality" />
		<tag k="ssr:stedsnr" v="339108" />
	</node>
	<node lat="58.90901110969365" lon="8.753058337109357" id="-24864">
		<tag k="name" v="Bakkane" />
		<tag k="natural" v="slope" />
		<tag k="place" v="locality" />
		<tag k="ssr:stedsnr" v="339109" />
	</node>
	<node lat="58.90314166852898" lon="8.712047224078908" id="-24865">
		<tag k="name" v="Honnetjosene" />
		<tag k="natural" v="slope" />
		<tag k="place" v="locality" />
		<tag k="ssr:stedsnr" v="339116" />
	</node>
	<node lat="58.89987499911386" lon="8.73887499350046" id="-24872">
		<tag k="name" v="Staurdalen" />
		<tag k="natural" v="valley" />
		<tag k="place" v="locality" />
		<tag k="ssr:stedsnr" v="339408" />
	</node>
	<node lat="58.91444999563109" lon="8.622422226417012" id="-24876">
		<tag k="name" v="Stokkvassmoen" />
		<tag k="place" v="locality" />
		<tag k="ssr:stedsnr" v="339309" />
	</node>
	<node lat="58.90233333532526" lon="8.733572222391125" id="-24877">
		<tag k="fixme" v="consider natural=peak for the most distinct mountains in the district" />
		<tag k="name" v="Kollen" />
		<tag k="natural" v="hill" />
		<tag k="place" v="locality" />
		<tag k="ssr:stedsnr" v="339310" />
	</node>
	<node lat="58.89395555357636" lon="8.78968888275351" id="-24880">
		<tag k="name" v="Gråndalen" />
		<tag k="natural" v="valley" />
		<tag k="place" v="locality" />
		<tag k="ssr:stedsnr" v="339646" />
	</node>
	<node lat="58.885425001828985" lon="8.776030559794496" id="-24881">
		<tag k="fixme" v="consider natural=peak for the most distinct mountains in the district" />
		<tag k="name" v="Den lisle nuten" />
		<tag k="natural" v="hill" />
		<tag k="place" v="locality" />
		<tag k="ssr:stedsnr" v="339647" />
	</node>
	<node lat="58.96162221881401" lon="8.656077783544132" id="-24883">
		<tag k="name" v="Ormdalen" />
		<tag k="natural" v="valley" />
		<tag k="place" v="locality" />
		<tag k="ssr:stedsnr" v="339846" />
	</node>
	<node lat="59.147313889003996" lon="8.434755560627561" id="-24885">
		<tag k="name" v="Listøylliane" />
		<tag k="natural" v="slope" />
		<tag k="place" v="locality" />
		<tag k="ssr:stedsnr" v="472198" />
	</node>
	<node lat="58.927841664871785" lon="8.741519443676726" id="-24886">
		<tag k="name" v="Botredalen" />
		<tag k="natural" v="valley" />
		<tag k="place" v="locality" />
		<tag k="ssr:stedsnr" v="339950" />
	</node>
	<node lat="59.007625004457665" lon="8.766422226848329" id="-24888">
		<tag k="name" v="Tellevsli" />
		<tag k="natural" v="slope" />
		<tag k="place" v="locality" />
		<tag k="ssr:stedsnr" v="472431" />
	</node>
	<node lat="59.00546666310456" lon="8.751675005288543" id="-24889">
		<tag k="name" v="Osen" />
		<tag k="natural" v="hill" />
		<tag k="place" v="locality" />
		<tag k="ssr:stedsnr" v="472452" />
	</node>
	<node lat="58.918938888195186" lon="8.35534721982344" id="-24898">
		<tag k="name" v="Fenriksdal" />
		<tag k="natural" v="valley" />
		<tag k="place" v="locality" />
		<tag k="ssr:stedsnr" v="472995" />
	</node>
	<node lat="58.988641664732455" lon="8.403025005257817" id="-24899">
		<tag k="name" v="Stordalsheia" />
		<tag k="natural" v="hill" />
		<tag k="place" v="locality" />
		<tag k="ssr:stedsnr" v="348358" />
	</node>
	<node lat="58.95170833041119" lon="8.361936112319405" id="-24902">
		<tag k="name" v="Øvre Vondeberg" />
		<tag k="natural" v="cliff" />
		<tag k="ssr:stedsnr" v="348856" />
	</node>
	<node lat="58.961672220580226" lon="8.489024995452649" id="-24906">
		<tag k="name" v="Møystadlia" />
		<tag k="natural" v="slope" />
		<tag k="place" v="locality" />
		<tag k="ssr:stedsnr" v="349013" />
	</node>
	<node lat="58.94881388965463" lon="8.461705554147393" id="-24909">
		<tag k="name" v="Sågdalen" />
		<tag k="natural" v="valley" />
		<tag k="place" v="locality" />
		<tag k="ssr:stedsnr" v="349257" />
	</node>
	<node lat="59.08566389082282" lon="8.476761113775853" id="-24912">
		<tag k="name" v="Solås" />
		<tag k="natural" v="hill" />
		<tag k="place" v="locality" />
		<tag k="ssr:stedsnr" v="349354" />
	</node>
	<node lat="59.0930333296681" lon="8.358041668291314" id="-24916">
		<tag k="name" v="Gråstakken" />
		<tag k="natural" v="hill" />
		<tag k="place" v="locality" />
		<tag k="ssr:stedsnr" v="350414" />
	</node>
	<node lat="59.127194444576986" lon="8.393619445377377" id="-24917">
		<tag k="name" v="Hagbuåsen" />
		<tag k="natural" v="hill" />
		<tag k="place" v="locality" />
		<tag k="ssr:stedsnr" v="350612" />
	</node>
	<node lat="59.130077781674416" lon="8.451638891322128" id="-24920">
		<tag k="name" v="Torjusbukollen" />
		<tag k="natural" v="hill" />
		<tag k="place" v="locality" />
		<tag k="ssr:stedsnr" v="350570" />
	</node>
	<node lat="59.11679722399698" lon="8.417116659399813" id="-24923">
		<tag k="name" v="Rubbujuvet" />
		<tag k="natural" v="gorge" />
		<tag k="ssr:stedsnr" v="350927" />
	</node>
	<node lat="58.97829722299806" lon="8.351777780327295" id="-24926">
		<tag k="name" v="Kvenhusdalen" />
		<tag k="natural" v="valley" />
		<tag k="place" v="locality" />
		<tag k="ssr:stedsnr" v="350937" />
	</node>
	<node lat="59.16639722376328" lon="8.625191665818958" id="-24929">
		<tag k="name" v="Homsnynne" />
		<tag k="natural" v="valley" />
		<tag k="place" v="locality" />
		<tag k="ssr:stedsnr" v="350663" />
	</node>
	<node lat="58.89787500365913" lon="8.481380549803038" id="-24930">
		<tag k="name" v="Kvassålia" />
		<tag k="natural" v="slope" />
		<tag k="place" v="locality" />
		<tag k="ssr:stedsnr" v="350665" />
	</node>
	<node lat="59.03045277902925" lon="8.641583330622467" id="-24932">
		<tag k="name" v="Groskjarrkollen" />
		<tag k="natural" v="hill" />
		<tag k="place" v="locality" />
		<tag k="ssr:stedsnr" v="351106" />
	</node>
	<node lat="58.99684999800175" lon="8.47463332805784" id="-24940">
		<tag k="name" v="Hågstøyllia" />
		<tag k="natural" v="slope" />
		<tag k="place" v="locality" />
		<tag k="ssr:stedsnr" v="365304" />
	</node>
	<node lat="58.94917499963732" lon="8.640638890006088" id="-24941">
		<tag k="name" v="Barlinddalen" />
		<tag k="natural" v="valley" />
		<tag k="place" v="locality" />
		<tag k="ssr:stedsnr" v="365329" />
	</node>
	<node lat="58.9391805571735" lon="8.505780551291124" id="-24943">
		<tag k="name" v="Moen" />
		<tag k="place" v="locality" />
		<tag k="ssr:stedsnr" v="365448" />
	</node>
	<node lat="59.03449166354208" lon="8.551466661984668" id="-24945">
		<tag k="fixme" v="consider natural=peak for the most distinct mountains in the district" />
		<tag k="name" v="Rotfjell" />
		<tag k="natural" v="hill" />
		<tag k="place" v="locality" />
		<tag k="ssr:stedsnr" v="365515" />
	</node>
	<node lat="59.00303055794046" lon="8.766294436564174" id="-24947">
		<tag k="alt_name" v="Hellervassheia" />
		<tag k="fixme" v="consider natural=peak for the most distinct mountains in the district" />
		<tag k="name" v="Hellersvassheia" />
		<tag k="natural" v="hill" />
		<tag k="place" v="locality" />
		<tag k="ssr:stedsnr" v="365496" />
	</node>
	<node lat="58.90776666782807" lon="8.715736116895382" id="-24948">
		<tag k="fixme" v="consider natural=peak for the most distinct mountains in the district" />
		<tag k="name" v="Geiteryggen" />
		<tag k="natural" v="hill" />
		<tag k="place" v="locality" />
		<tag k="ssr:stedsnr" v="365499" />
	</node>
	<node lat="58.905702781468726" lon="8.725005561014788" id="-24949">
		<tag k="name" v="Trolldalen" />
		<tag k="natural" v="valley" />
		<tag k="place" v="locality" />
		<tag k="ssr:stedsnr" v="365501" />
	</node>
	<node lat="59.085541668540536" lon="8.65930833893892" id="-24951">
		<tag k="name" v="Treungskvæven" />
		<tag k="natural" v="valley" />
		<tag k="place" v="locality" />
		<tag k="ssr:stedsnr" v="365641" />
	</node>
	<node lat="59.17831111134886" lon="8.582308336598631" id="-24952">
		<tag k="alt_name" v="Spelaren" />
		<tag k="fixme" v="consider natural=peak for the most distinct mountains in the district" />
		<tag k="name" v="Spilarvarden" />
		<tag k="natural" v="hill" />
		<tag k="place" v="locality" />
		<tag k="ssr:stedsnr" v="365840" />
	</node>
	<node lat="59.01406110915273" lon="8.397299994806112" id="-24958">
		<tag k="name" v="Botnen" />
		<tag k="natural" v="valley" />
		<tag k="place" v="locality" />
		<tag k="ssr:stedsnr" v="366989" />
	</node>
	<node lat="59.045608331656375" lon="8.691297227792852" id="-24959">
		<tag k="name" v="Felehovet" />
		<tag k="natural" v="hill" />
		<tag k="place" v="locality" />
		<tag k="ssr:stedsnr" v="391389" />
	</node>
	<node lat="59.240647315208015" lon="8.546858849724961" id="-24960">
		<tag k="name" v="Øyfjellrapane" />
		<tag k="natural" v="hill" />
		<tag k="place" v="locality" />
		<tag k="ssr:stedsnr" v="396231" />
	</node>
	<node lat="59.189091670575415" lon="8.533291661094633" id="-24962">
		<tag k="name" v="Nordliane" />
		<tag k="natural" v="slope" />
		<tag k="place" v="locality" />
		<tag k="ssr:stedsnr" v="396505" />
	</node>
	<node lat="59.167800001309296" lon="8.546994447187537" id="-24967">
		<tag k="name" v="Tjørhjellsfjell" />
		<tag k="natural" v="hill" />
		<tag k="place" v="locality" />
		<tag k="ssr:stedsnr" v="396977" />
	</node>
	<node lat="59.16832221937573" lon="8.536244451032267" id="-24969">
		<tag k="name" v="Sandbakken" />
		<tag k="natural" v="slope" />
		<tag k="place" v="locality" />
		<tag k="ssr:stedsnr" v="396988" />
	</node>
	<node lat="59.05746666457127" lon="8.589255555786556" id="-24973">
		<tag k="name" v="Mellomdalen" />
		<tag k="natural" v="valley" />
		<tag k="place" v="locality" />
		<tag k="ssr:stedsnr" v="397576" />
	</node>
	<node lat="59.05790277827733" lon="8.554627777553089" id="-24974">
		<tag k="name" v="Krossdalen" />
		<tag k="natural" v="valley" />
		<tag k="place" v="locality" />
		<tag k="ssr:stedsnr" v="397579" />
	</node>
	<node lat="59.04798333298951" lon="8.514141668513474" id="-24981">
		<tag k="name" v="Liknatten" />
		<tag k="natural" v="hill" />
		<tag k="place" v="locality" />
		<tag k="ssr:stedsnr" v="398509" />
	</node>
	<node lat="58.92170000444273" lon="8.506477770917918" id="-24982">
		<tag k="name" v="Ugledalen" />
		<tag k="natural" v="valley" />
		<tag k="place" v="locality" />
		<tag k="ssr:stedsnr" v="398514" />
	</node>
	<node lat="58.889352782239456" lon="8.696830563389698" id="-24990">
		<tag k="name" v="Breisåslia" />
		<tag k="natural" v="slope" />
		<tag k="place" v="locality" />
		<tag k="ssr:stedsnr" v="399038" />
	</node>
	<node lat="58.996930552843395" lon="8.71073611769771" id="-24991">
		<tag k="name" v="Jambokhelleren" />
		<tag k="place" v="locality" />
		<tag k="ssr:stedsnr" v="399090" />
	</node>
	<node lat="58.984333329199" lon="8.614133336520108" id="-24992">
		<tag k="name" v="Linddalskaret" />
		<tag k="natural" v="valley" />
		<tag k="place" v="locality" />
		<tag k="ssr:stedsnr" v="399189" />
	</node>
	<node lat="58.98226666530486" lon="8.625544451557774" id="-24993">
		<tag k="fixme" v="consider natural=peak for the most distinct mountains in the district" />
		<tag k="name" v="Lisle Lauås" />
		<tag k="natural" v="hill" />
		<tag k="place" v="locality" />
		<tag k="ssr:stedsnr" v="399309" />
	</node>
	<node lat="58.9476888933255" lon="8.71114445105146" id="-24997">
		<tag k="name" v="Øvre Løytesdal" />
		<tag k="natural" v="valley" />
		<tag k="place" v="locality" />
		<tag k="ssr:stedsnr" v="399508" />
	</node>
	<node lat="58.88563333476616" lon="8.747297224926092" id="-24999">
		<tag k="name" v="Kalvåsdalen" />
		<tag k="natural" v="valley" />
		<tag k="place" v="locality" />
		<tag k="ssr:stedsnr" v="399409" />
	</node>
	<node lat="58.97008611487172" lon="8.624763884228681" id="-25001">
		<tag k="name" v="Persskot" />
		<tag k="natural" v="gorge" />
		<tag k="ssr:stedsnr" v="399631" />
	</node>
	<node lat="58.94095277958813" lon="8.64007778419752" id="-25006">
		<tag k="alt_name" v="Bjørnhiheia" />
		<tag k="name" v="Bjønnehiheia" />
		<tag k="natural" v="hill" />
		<tag k="place" v="locality" />
		<tag k="ssr:stedsnr" v="485349" />
	</node>
	<node lat="59.21158611514564" lon="8.456375004068123" id="-25007">
		<tag k="fixme" v="consider natural=peak for the most distinct mountains in the district" />
		<tag k="name" v="Urdaråsen" />
		<tag k="natural" v="hill" />
		<tag k="place" v="locality" />
		<tag k="ssr:stedsnr" v="486033" />
	</node>
	<node lat="58.95849444189055" lon="8.63421388106898" id="-25012">
		<tag k="fixme" v="consider natural=peak for the most distinct mountains in the district" />
		<tag k="name" v="Høgfjell" />
		<tag k="natural" v="hill" />
		<tag k="place" v="locality" />
		<tag k="ssr:stedsnr" v="486357" />
	</node>
	<node lat="58.986194447293194" lon="8.484699998375916" id="-25017">
		<tag k="name" v="Fiskåheia" />
		<tag k="natural" v="hill" />
		<tag k="place" v="locality" />
		<tag k="ssr:stedsnr" v="486284" />
	</node>
	<node lat="58.99624166932453" lon="8.500991672204822" id="-25021">
		<tag k="name" v="Torshommen" />
		<tag k="natural" v="slope" />
		<tag k="place" v="locality" />
		<tag k="ssr:stedsnr" v="486296" />
	</node>
	<node lat="59.04170277541485" lon="8.543869446681727" id="-25026">
		<tag k="alt_name" v="Ruslikollen" />
		<tag k="fixme" v="consider natural=peak for the most distinct mountains in the district" />
		<tag k="name" v="Russlikollen" />
		<tag k="natural" v="hill" />
		<tag k="place" v="locality" />
		<tag k="ssr:stedsnr" v="486571" />
	</node>
	<node lat="58.96335555420427" lon="8.613300003102502" id="-25027">
		<tag k="fixme" v="consider natural=peak for the most distinct mountains in the district" />
		<tag k="name" v="Grustfjell" />
		<tag k="natural" v="hill" />
		<tag k="place" v="locality" />
		<tag k="ssr:stedsnr" v="486378" />
	</node>
	<node lat="58.91811944390202" lon="8.53160833026106" id="-25029">
		<tag k="name" v="Krosskollen" />
		<tag k="natural" v="hill" />
		<tag k="place" v="locality" />
		<tag k="ssr:stedsnr" v="486419" />
	</node>
	<node lat="58.93538888847373" lon="8.693594449697658" id="-25031">
		<tag k="alt_name" v="Ormtjørnfjellet" />
		<tag k="fixme" v="consider natural=peak for the most distinct mountains in the district" />
		<tag k="name" v="Ormtjønnfjellet" />
		<tag k="natural" v="hill" />
		<tag k="place" v="locality" />
		<tag k="ssr:stedsnr" v="486438" />
	</node>
	<node lat="58.97394444092279" lon="8.343208326961156" id="-25038">
		<tag k="alt_name" v="Dåstjørnheia" />
		<tag k="fixme" v="consider natural=peak for the most distinct mountains in the district" />
		<tag k="name" v="Dåstjønnheia" />
		<tag k="natural" v="hill" />
		<tag k="place" v="locality" />
		<tag k="ssr:stedsnr" v="486888" />
	</node>
	<node lat="59.1285944400743" lon="8.379419439157907" id="-25040">
		<tag k="name" v="Halvfarheia" />
		<tag k="natural" v="hill" />
		<tag k="place" v="locality" />
		<tag k="ssr:stedsnr" v="409505" />
	</node>
	<node lat="59.238930556005066" lon="8.574447226995945" id="-25049">
		<tag k="fixme" v="consider natural=peak for the most distinct mountains in the district" />
		<tag k="name" v="Blikafjell" />
		<tag k="natural" v="hill" />
		<tag k="place" v="locality" />
		<tag k="ssr:stedsnr" v="486946" />
	</node>
	<node lat="59.18372500239477" lon="8.370327781814842" id="-25051">
		<tag k="alt_name" v="Tverrfjell" />
		<tag k="fixme" v="consider natural=peak for the most distinct mountains in the district" />
		<tag k="name" v="Tverrfjellet" />
		<tag k="natural" v="hill" />
		<tag k="place" v="locality" />
		<tag k="ssr:stedsnr" v="487053" />
	</node>
	<node lat="58.9402444477897" lon="8.486705548307928" id="-25052">
		<tag k="name" v="Vrångvadlia" />
		<tag k="natural" v="slope" />
		<tag k="place" v="locality" />
		<tag k="ssr:stedsnr" v="410397" />
	</node>
	<node lat="59.15388055751646" lon="8.325483332391421" id="-25053">
		<tag k="fixme" v="consider natural=peak for the most distinct mountains in the district" />
		<tag k="name" v="Russnuten" />
		<tag k="natural" v="hill" />
		<tag k="place" v="locality" />
		<tag k="ssr:stedsnr" v="487087" />
	</node>
	<node lat="58.94155555121974" lon="8.459177769688388" id="-25055">
		<tag k="name" v="Lislehei" />
		<tag k="natural" v="hill" />
		<tag k="place" v="locality" />
		<tag k="ssr:stedsnr" v="410499" />
	</node>
	<node lat="58.91878333463092" lon="8.451702784862048" id="-25056">
		<tag k="name" v="Kruskefursteane" />
		<tag k="place" v="locality" />
		<tag k="ssr:stedsnr" v="410639" />
	</node>
	<node lat="59.11974722390524" lon="8.44983889228014" id="-25057">
		<tag k="name" v="Bergvadskollen" />
		<tag k="natural" v="hill" />
		<tag k="place" v="locality" />
		<tag k="ssr:stedsnr" v="411052" />
	</node>
	<node lat="59.04674722618759" lon="8.422058336879982" id="-25058">
		<tag k="name" v="Svibuholet" />
		<tag k="natural" v="valley" />
		<tag k="place" v="locality" />
		<tag k="ssr:stedsnr" v="411103" />
	</node>
	<node lat="59.033777774995066" lon="8.644255561867878" id="-25059">
		<tag k="name" v="Bjønntjønnlia" />
		<tag k="natural" v="slope" />
		<tag k="place" v="locality" />
		<tag k="ssr:stedsnr" v="411108" />
	</node>
	<node lat="59.12411388663864" lon="8.459066672250154" id="-25068">
		<tag k="fixme" v="consider natural=peak for the most distinct mountains in the district" />
		<tag k="name" v="Bronen" />
		<tag k="natural" v="hill" />
		<tag k="place" v="locality" />
		<tag k="ssr:stedsnr" v="411348" />
	</node>
	<node lat="59.04985555508897" lon="8.457797229648124" id="-25073">
		<tag k="name" v="Kvennhusjuvet" />
		<tag k="natural" v="gorge" />
		<tag k="ssr:stedsnr" v="411830" />
	</node>
	<node lat="59.17341110859159" lon="8.30932222841162" id="-25076">
		<tag k="name" v="Tussegruva" />
		<tag k="place" v="locality" />
		<tag k="ssr:stedsnr" v="411838" />
	</node>
	<node lat="59.161516669712604" lon="8.350675005103701" id="-25078">
		<tag k="name" v="Lindelia" />
		<tag k="natural" v="slope" />
		<tag k="place" v="locality" />
		<tag k="ssr:stedsnr" v="411891" />
	</node>
	<node lat="58.970674995818186" lon="8.35808054798232" id="-25079">
		<tag k="name" v="Jerpedal" />
		<tag k="natural" v="valley" />
		<tag k="place" v="locality" />
		<tag k="ssr:stedsnr" v="411987" />
	</node>
	<node lat="59.133600004181304" lon="8.637122226108149" id="-25081">
		<tag k="name" v="Skollen" />
		<tag k="natural" v="ridge" />
		<tag k="place" v="locality" />
		<tag k="ssr:stedsnr" v="412311" />
	</node>
	<node lat="59.02270833251068" lon="8.734633325940502" id="-25085">
		<tag k="name" v="Reinsvassdalen" />
		<tag k="natural" v="valley" />
		<tag k="place" v="locality" />
		<tag k="ssr:stedsnr" v="487495" />
	</node>
	<node lat="59.02823611494039" lon="8.691108327980507" id="-25086">
		<tag k="alt_name" v="Tollbulia" />
		<tag k="name" v="Tolvbulia" />
		<tag k="natural" v="slope" />
		<tag k="place" v="locality" />
		<tag k="ssr:stedsnr" v="487499" />
	</node>
	<node lat="59.049672220799415" lon="8.536452776493064" id="-25088">
		<tag k="fixme" v="consider natural=peak for the most distinct mountains in the district" />
		<tag k="name" v="Gjerulvsknatten" />
		<tag k="natural" v="hill" />
		<tag k="place" v="locality" />
		<tag k="ssr:stedsnr" v="487591" />
	</node>
	<node lat="59.012138889530064" lon="8.757944447934618" id="-25089">
		<tag k="alt_name" v="Sylvbergnuten" />
		<tag k="fixme" v="consider natural=peak for the most distinct mountains in the district" />
		<tag k="name" v="Sølvbergnuten" />
		<tag k="natural" v="hill" />
		<tag k="place" v="locality" />
		<tag k="ssr:stedsnr" v="487541" />
	</node>
	<node lat="59.172811113473315" lon="8.693502779064978" id="-25093">
		<tag k="fixme" v="consider natural=peak for the most distinct mountains in the district" />
		<tag k="name" v="Stutåsen" />
		<tag k="natural" v="hill" />
		<tag k="place" v="locality" />
		<tag k="ssr:stedsnr" v="487804" />
	</node>
	<node lat="59.169013890833924" lon="8.584488895077689" id="-25094">
		<tag k="fixme" v="consider natural=peak for the most distinct mountains in the district" />
		<tag k="name" v="Tingstøåsen" />
		<tag k="natural" v="hill" />
		<tag k="place" v="locality" />
		<tag k="ssr:stedsnr" v="487808" />
	</node>
	<node lat="59.171391669435465" lon="8.520888882448265" id="-25095">
		<tag k="alt_name" v="Lauvdalsfjellet" />
		<tag k="fixme" v="consider natural=peak for the most distinct mountains in the district" />
		<tag k="name" v="Lauvdalsfjell" />
		<tag k="natural" v="hill" />
		<tag k="place" v="locality" />
		<tag k="ssr:stedsnr" v="487812" />
	</node>
	<node lat="59.17840277435163" lon="8.582361107930845" id="-25096">
		<tag k="fixme" v="consider natural=peak for the most distinct mountains in the district" />
		<tag k="name" v="Stemmefjell" />
		<tag k="natural" v="hill" />
		<tag k="place" v="locality" />
		<tag k="ssr:stedsnr" v="487827" />
	</node>
	<node lat="59.21076111517622" lon="8.621461117067888" id="-25100">
		<tag k="alt_name" v="Mjøltjørnnuten" />
		<tag k="fixme" v="consider natural=peak for the most distinct mountains in the district" />
		<tag k="name" v="Mjøltjønnuten" />
		<tag k="natural" v="hill" />
		<tag k="place" v="locality" />
		<tag k="ssr:stedsnr" v="487892" />
	</node>
	<node lat="59.02341111521119" lon="8.417130558134852" id="-25101">
		<tag k="fixme" v="consider natural=peak for the most distinct mountains in the district" />
		<tag k="name" v="Ervedalsfjellet" />
		<tag k="natural" v="hill" />
		<tag k="place" v="locality" />
		<tag k="ssr:stedsnr" v="487993" />
	</node>
	<node lat="58.93894722413068" lon="8.663961111497775" id="-25106">
		<tag k="alt_name" v="Stemtjørnkollen" />
		<tag k="name" v="Stemtjønnkollen" />
		<tag k="natural" v="hill" />
		<tag k="place" v="locality" />
		<tag k="ssr:stedsnr" v="425405" />
	</node>
	<node lat="59.082886114734876" lon="8.370099991792019" id="-25108">
		<tag k="fixme" v="consider natural=peak for the most distinct mountains in the district" />
		<tag k="name" v="Stakkhomfjellet" />
		<tag k="natural" v="hill" />
		<tag k="place" v="locality" />
		<tag k="ssr:stedsnr" v="426208" />
	</node>
	<node lat="59.15950833229186" lon="8.438099996584862" id="-25109">
		<tag k="fixme" v="consider natural=peak for the most distinct mountains in the district" />
		<tag k="name" v="Kjøbergnatten" />
		<tag k="natural" v="hill" />
		<tag k="place" v="locality" />
		<tag k="ssr:stedsnr" v="426111" />
	</node>
	<node lat="59.066366665171635" lon="8.443838892762319" id="-25110">
		<tag k="alt_name" v="Høgefjell" />
		<tag k="fixme" v="consider natural=peak for the most distinct mountains in the district" />
		<tag k="name" v="Høgfjellet" />
		<tag k="natural" v="hill" />
		<tag k="place" v="locality" />
		<tag k="ssr:stedsnr" v="426195" />
	</node>
	<node lat="58.96891944803821" lon="8.700763881056295" id="-25111">
		<tag k="fixme" v="consider natural=peak for the most distinct mountains in the district" />
		<tag k="name" v="Ormvasslinuten" />
		<tag k="natural" v="hill" />
		<tag k="place" v="locality" />
		<tag k="ssr:stedsnr" v="426330" />
	</node>
	<node lat="58.96767499713856" lon="8.768075008376131" id="-25113">
		<tag k="name" v="Takhommen" />
		<tag k="natural" v="slope" />
		<tag k="place" v="locality" />
		<tag k="ssr:stedsnr" v="426335" />
	</node>
	<node lat="58.9981722248446" lon="8.698622213664898" id="-25115">
		<tag k="alt_name" v="Jambogheia" />
		<tag k="name" v="Jambokheia" />
		<tag k="natural" v="hill" />
		<tag k="place" v="locality" />
		<tag k="ssr:stedsnr" v="426290" />
	</node>
	<node lat="59.02988333012528" lon="8.657469447164031" id="-25118">
		<tag k="alt_name" v="Bjørntjørndalen" />
		<tag k="name" v="Bjønntjønndalen" />
		<tag k="natural" v="valley" />
		<tag k="place" v="locality" />
		<tag k="ssr:stedsnr" v="426499" />
	</node>
	<node lat="58.96041944452734" lon="8.515297215761317" id="-25137">
		<tag k="fixme" v="consider natural=peak for the most distinct mountains in the district" />
		<tag k="name" v="Stegaråsen" />
		<tag k="natural" v="hill" />
		<tag k="place" v="locality" />
		<tag k="ssr:stedsnr" v="458467" />
	</node>
	<node lat="58.96533888854732" lon="8.453369450303777" id="-25138">
		<tag k="name" v="Langfjell" />
		<tag k="place" v="locality" />
		<tag k="ssr:stedsnr" v="673046" />
	</node>
	<node lat="59.008222222565124" lon="8.560913886129475" id="-25140">
		<tag k="name" v="Homskleiva" />
		<tag k="natural" v="slope" />
		<tag k="place" v="locality" />
		<tag k="ssr:stedsnr" v="458858" />
	</node>
	<node lat="58.93466944053201" lon="8.527777776712297" id="-25141">
		<tag k="name" v="Espebumonen" />
		<tag k="place" v="locality" />
		<tag k="ssr:stedsnr" v="458860" />
	</node>
	<node lat="58.93165833431304" lon="8.544591658114465" id="-25142">
		<tag k="name" v="Espebulia" />
		<tag k="natural" v="slope" />
		<tag k="place" v="locality" />
		<tag k="ssr:stedsnr" v="458877" />
	</node>
	<node lat="59.01600277478941" lon="8.557383326542462" id="-25146">
		<tag k="name" v="Jammerdal" />
		<tag k="natural" v="valley" />
		<tag k="place" v="locality" />
		<tag k="ssr:stedsnr" v="459165" />
	</node>
	<node lat="58.92581944710327" lon="8.653038895665759" id="-25157">
		<tag k="fixme" v="consider natural=peak for the most distinct mountains in the district" />
		<tag k="name" v="Onstadfjellet" />
		<tag k="natural" v="hill" />
		<tag k="place" v="locality" />
		<tag k="ssr:stedsnr" v="460371" />
	</node>
	<node lat="58.94676111016519" lon="8.639372220162134" id="-25158">
		<tag k="name" v="Hestedekkane" />
		<tag k="natural" v="slope" />
		<tag k="place" v="locality" />
		<tag k="ssr:stedsnr" v="460459" />
	</node>
	<node lat="58.98374721895604" lon="8.636163886425228" id="-25160">
		<tag k="name" v="Fela og Bogen" />
		<tag k="natural" v="valley" />
		<tag k="place" v="locality" />
		<tag k="ssr:stedsnr" v="460921" />
	</node>
	<node lat="58.91226666723659" lon="8.80231111948088" id="-25162">
		<tag k="name" v="Storliane" />
		<tag k="natural" v="slope" />
		<tag k="place" v="locality" />
		<tag k="ssr:stedsnr" v="461124" />
	</node>
	<node lat="58.97873055656397" lon="8.399283340990335" id="-25163">
		<tag k="name" v="Lislestøyldalen" />
		<tag k="natural" v="valley" />
		<tag k="place" v="locality" />
		<tag k="ssr:stedsnr" v="469372" />
	</node>
	<node lat="58.98410555581239" lon="8.421091671730492" id="-25166">
		<tag k="name" v="Støylsdalstona" />
		<tag k="natural" v="slope" />
		<tag k="place" v="locality" />
		<tag k="ssr:stedsnr" v="470317" />
	</node>
	<node lat="58.93203889332324" lon="8.361272228305786" id="-25167">
		<tag k="name" v="Tusseknatten" />
		<tag k="natural" v="hill" />
		<tag k="place" v="locality" />
		<tag k="ssr:stedsnr" v="470784" />
	</node>
	<node lat="58.965527776509255" lon="8.347358325038178" id="-25168">
		<tag k="name" v="Dyplemyrmonen" />
		<tag k="place" v="locality" />
		<tag k="ssr:stedsnr" v="470902" />
	</node>
	<node lat="59.04440833619659" lon="8.397875007004936" id="-25170">
		<tag k="name" v="Midtvassdalen" />
		<tag k="natural" v="valley" />
		<tag k="place" v="locality" />
		<tag k="ssr:stedsnr" v="471071" />
	</node>
	<node lat="59.079005551505574" lon="8.495141660814879" id="-25175">
		<tag k="name" v="Ringtona" />
		<tag k="place" v="locality" />
		<tag k="ssr:stedsnr" v="471304" />
	</node>
	<node lat="59.05924999618217" lon="8.427402784117891" id="-25177">
		<tag k="name" v="Svivtona" />
		<tag k="place" v="locality" />
		<tag k="ssr:stedsnr" v="471464" />
	</node>
	<node lat="59.072641670100076" lon="8.469141667088453" id="-25179">
		<tag k="name" v="Styggedal" />
		<tag k="natural" v="valley" />
		<tag k="place" v="locality" />
		<tag k="ssr:stedsnr" v="471568" />
	</node>
	<node lat="58.98133333002733" lon="8.33422777666545" id="-25182">
		<tag k="name" v="Hestelegune" />
		<tag k="natural" v="valley" />
		<tag k="place" v="locality" />
		<tag k="ssr:stedsnr" v="471959" />
	</node>
	<node lat="59.10060000115899" lon="8.427344442274503" id="-25184">
		<tag k="name" v="Bjønnliane" />
		<tag k="natural" v="slope" />
		<tag k="place" v="locality" />
		<tag k="ssr:stedsnr" v="471807" />
	</node>
	<node lat="59.20882777921764" lon="8.333852771398815" id="-25185">
		<tag k="name" v="Stråndedalen" />
		<tag k="natural" v="valley" />
		<tag k="place" v="locality" />
		<tag k="ssr:stedsnr" v="472073" />
	</node>
	<node lat="59.06729166532778" lon="8.657213892135315" id="-25191">
		<tag k="name" v="Torsvassdalen" />
		<tag k="natural" v="valley" />
		<tag k="place" v="locality" />
		<tag k="ssr:stedsnr" v="472175" />
	</node>
	<node lat="58.923844443810026" lon="8.36525554908652" id="-25195">
		<tag k="name" v="Sveiane" />
		<tag k="natural" v="valley" />
		<tag k="place" v="locality" />
		<tag k="ssr:stedsnr" v="472960" />
	</node>
	<node lat="58.938124999088274" lon="8.545605557829106" id="-25196">
		<tag k="alt_name" v="Øykedalen" />
		<tag k="name" v="Øykjedalen" />
		<tag k="natural" v="valley" />
		<tag k="place" v="locality" />
		<tag k="ssr:stedsnr" v="485368" />
	</node>
	<node lat="58.99748055753844" lon="8.484788895765485" id="-25201">
		<tag k="fixme" v="consider natural=peak for the most distinct mountains in the district" />
		<tag k="name" v="Solegladfjell" />
		<tag k="natural" v="hill" />
		<tag k="place" v="locality" />
		<tag k="ssr:stedsnr" v="486302" />
	</node>
	<node lat="58.99701388903809" lon="8.662944449711073" id="-25203">
		<tag k="name" v="Teilagsvassheia" />
		<tag k="natural" v="hill" />
		<tag k="place" v="locality" />
		<tag k="ssr:stedsnr" v="486307" />
	</node>
	<node lat="58.91135833074624" lon="8.722894447398323" id="-25206">
		<tag k="name" v="Grautedalen" />
		<tag k="natural" v="valley" />
		<tag k="place" v="locality" />
		<tag k="ssr:stedsnr" v="486502" />
	</node>
	<node lat="58.91144166828713" lon="8.751366675288038" id="-25207">
		<tag k="fixme" v="consider natural=peak for the most distinct mountains in the district" />
		<tag k="name" v="Kjetilåsen" />
		<tag k="natural" v="hill" />
		<tag k="place" v="locality" />
		<tag k="ssr:stedsnr" v="486503" />
	</node>
	<node lat="59.03975555550062" lon="8.498327770997976" id="-25209">
		<tag k="fixme" v="consider natural=peak for the most distinct mountains in the district" />
		<tag k="name" v="Røyråsen" />
		<tag k="natural" v="hill" />
		<tag k="place" v="locality" />
		<tag k="ssr:stedsnr" v="486523" />
	</node>
	<node lat="58.945483329580014" lon="8.350352785175682" id="-25213">
		<tag k="alt_name" v="Hurvefjell" />
		<tag k="fixme" v="consider natural=peak for the most distinct mountains in the district" />
		<tag k="name" v="Hurvefjellet" />
		<tag k="natural" v="hill" />
		<tag k="place" v="locality" />
		<tag k="ssr:stedsnr" v="486970" />
	</node>
	<node lat="59.173938885551415" lon="8.37148610729839" id="-25218">
		<tag k="alt_name" v="Baklifjell" />
		<tag k="fixme" v="consider natural=peak for the most distinct mountains in the district" />
		<tag k="name" v="Baklifjellet" />
		<tag k="natural" v="hill" />
		<tag k="place" v="locality" />
		<tag k="ssr:stedsnr" v="487112" />
	</node>
	<node lat="59.09882499956763" lon="8.430205549124876" id="-25220">
		<tag k="alt_name" v="Bjørnlifjellet" />
		<tag k="fixme" v="consider natural=peak for the most distinct mountains in the district" />
		<tag k="name" v="Bjønnlifjell" />
		<tag k="natural" v="hill" />
		<tag k="place" v="locality" />
		<tag k="ssr:stedsnr" v="487160" />
	</node>
	<node lat="59.11277777795411" lon="8.554283331886305" id="-25227">
		<tag k="fixme" v="consider natural=peak for the most distinct mountains in the district" />
		<tag k="name" v="Rapfjell" />
		<tag k="natural" v="hill" />
		<tag k="place" v="locality" />
		<tag k="ssr:stedsnr" v="487715" />
	</node>
	<node lat="59.13891389046846" lon="8.616886106509916" id="-25228">
		<tag k="fixme" v="consider natural=peak for the most distinct mountains in the district" />
		<tag k="name" v="Nipa" />
		<tag k="natural" v="hill" />
		<tag k="place" v="locality" />
		<tag k="ssr:stedsnr" v="487738" />
	</node>
	<node lat="59.19352500176658" lon="8.555041664851434" id="-25235">
		<tag k="alt_name" v="Gysjefjell" />
		<tag k="fixme" v="consider natural=peak for the most distinct mountains in the district" />
		<tag k="name" v="Gysjefjellet" />
		<tag k="natural" v="hill" />
		<tag k="place" v="locality" />
		<tag k="ssr:stedsnr" v="487854" />
	</node>
	<node lat="59.14959999901467" lon="8.576897220022405" id="-25237">
		<tag k="fixme" v="consider natural=peak for the most distinct mountains in the district" />
		<tag k="name" v="Skornetten heimre" />
		<tag k="natural" v="hill" />
		<tag k="place" v="locality" />
		<tag k="ssr:stedsnr" v="517462" />
	</node>
	<node lat="59.12004722610949" lon="8.599433335701942" id="-25238">
		<tag k="fixme" v="consider natural=peak for the most distinct mountains in the district" />
		<tag k="name" v="Svarttjønnåsen" />
		<tag k="natural" v="hill" />
		<tag k="place" v="locality" />
		<tag k="ssr:stedsnr" v="517504" />
	</node>
	<node lat="58.996711113584205" lon="8.674130558045231" id="-25243">
		<tag k="name" v="Berghyllia" />
		<tag k="natural" v="slope" />
		<tag k="place" v="locality" />
		<tag k="ssr:stedsnr" v="519069" />
	</node>
	<node lat="58.99879444779529" lon="8.593974995675097" id="-25250">
		<tag k="name" v="Kristofferskos" />
		<tag k="natural" v="slope" />
		<tag k="place" v="locality" />
		<tag k="ssr:stedsnr" v="519803" />
	</node>
	<node lat="58.86521944082857" lon="8.709908328193833" id="-25256">
		<tag k="name" v="Vestre Halvfardalen" />
		<tag k="natural" v="valley" />
		<tag k="place" v="locality" />
		<tag k="ssr:stedsnr" v="520114" />
	</node>
	<node lat="58.974094444327704" lon="8.622583327910949" id="-25259">
		<tag k="name" v="Den bratte slåtta" />
		<tag k="natural" v="slope" />
		<tag k="place" v="locality" />
		<tag k="ssr:stedsnr" v="520276" />
	</node>
	<node lat="58.91385833640611" lon="8.500688896134278" id="-25260">
		<tag k="name" v="Blekedalen" />
		<tag k="natural" v="valley" />
		<tag k="place" v="locality" />
		<tag k="ssr:stedsnr" v="520418" />
	</node>
	<node lat="58.8916888884408" lon="8.668977769723691" id="-25263">
		<tag k="name" v="Dekkanheia" />
		<tag k="natural" v="hill" />
		<tag k="place" v="locality" />
		<tag k="ssr:stedsnr" v="521108" />
	</node>
	<node lat="58.89582222062174" lon="8.671908327643601" id="-25264">
		<tag k="name" v="Sautjønnheia" />
		<tag k="natural" v="hill" />
		<tag k="place" v="locality" />
		<tag k="ssr:stedsnr" v="521112" />
	</node>
	<node lat="58.88511388964519" lon="8.752772228841945" id="-25265">
		<tag k="name" v="Kalvåstjønnane" />
		<tag k="natural" v="slope" />
		<tag k="place" v="locality" />
		<tag k="ssr:stedsnr" v="521317" />
	</node>
	<node lat="58.92452499682367" lon="8.635322219108458" id="-25266">
		<tag k="name" v="Kattedalen" />
		<tag k="natural" v="valley" />
		<tag k="place" v="locality" />
		<tag k="ssr:stedsnr" v="521325" />
	</node>
	<node lat="58.92975833024542" lon="8.739872226119848" id="-25271">
		<tag k="fixme" v="consider natural=peak for the most distinct mountains in the district" />
		<tag k="name" v="Sandtjønnfjellet" />
		<tag k="natural" v="hill" />
		<tag k="place" v="locality" />
		<tag k="ssr:stedsnr" v="521960" />
	</node>
	<node lat="58.91420277363354" lon="8.68190000756456" id="-25272">
		<tag k="name" v="Blautholsfjellet" />
		<tag k="natural" v="hill" />
		<tag k="place" v="locality" />
		<tag k="ssr:stedsnr" v="521972" />
	</node>
	<node lat="58.9082277758227" lon="8.738177782822937" id="-25273">
		<tag k="fixme" v="consider natural=peak for the most distinct mountains in the district" />
		<tag k="name" v="Surtemyrkollen" />
		<tag k="natural" v="hill" />
		<tag k="place" v="locality" />
		<tag k="ssr:stedsnr" v="521977" />
	</node>
	<node lat="58.90918333330058" lon="8.736016665375375" id="-25274">
		<tag k="name" v="Hustjønndalen" />
		<tag k="natural" v="valley" />
		<tag k="place" v="locality" />
		<tag k="ssr:stedsnr" v="521980" />
	</node>
	<node lat="58.94584721881504" lon="8.401530548107617" id="-25275">
		<tag k="name" v="Skarvetjønnmoen" />
		<tag k="place" v="locality" />
		<tag k="ssr:stedsnr" v="530314" />
	</node>
	<node lat="58.96961944837201" lon="8.368127780327915" id="-25281">
		<tag k="name" v="Vilsonkollen" />
		<tag k="natural" v="hill" />
		<tag k="place" v="locality" />
		<tag k="ssr:stedsnr" v="530891" />
	</node>
	<node lat="59.07892777438275" lon="8.480194449796954" id="-25283">
		<tag k="name" v="Gunnarsdal" />
		<tag k="natural" v="valley" />
		<tag k="place" v="locality" />
		<tag k="ssr:stedsnr" v="531334" />
	</node>
	<node lat="58.911402777698044" lon="8.453719452060136" id="-25286">
		<tag k="name" v="Migmaurheia" />
		<tag k="natural" v="hill" />
		<tag k="place" v="locality" />
		<tag k="ssr:stedsnr" v="531576" />
	</node>
	<node lat="58.968000001186056" lon="8.479691671755118" id="-25289">
		<tag k="name" v="Hagstalia" />
		<tag k="natural" v="slope" />
		<tag k="place" v="locality" />
		<tag k="ssr:stedsnr" v="532020" />
	</node>
	<node lat="59.04047222198928" lon="8.424472222189388" id="-25292">
		<tag k="name" v="Slettheiknatten" />
		<tag k="natural" v="hill" />
		<tag k="place" v="locality" />
		<tag k="ssr:stedsnr" v="532085" />
	</node>
	<node lat="59.15143055642636" lon="8.405069436698382" id="-25295">
		<tag k="name" v="Kasine" />
		<tag k="natural" v="slope" />
		<tag k="place" v="locality" />
		<tag k="ssr:stedsnr" v="532131" />
	</node>
	<node lat="59.07415833625948" lon="8.402713895874756" id="-25301">
		<tag k="name" v="Krona" />
		<tag k="natural" v="hill" />
		<tag k="place" v="locality" />
		<tag k="ssr:stedsnr" v="532403" />
	</node>
	<node lat="59.153538888723595" lon="8.446072225451486" id="-25302">
		<tag k="name" v="Hesmyrknattane" />
		<tag k="natural" v="hill" />
		<tag k="place" v="locality" />
		<tag k="ssr:stedsnr" v="532409" />
	</node>
	<node lat="59.16836111245321" lon="8.45807222365005" id="-25305">
		<tag k="name" v="Stutufs" />
		<tag k="natural" v="cliff" />
		<tag k="ssr:stedsnr" v="532605" />
	</node>
	<node lat="59.13393055867669" lon="8.326022223742672" id="-25307">
		<tag k="name" v="Den grøne bakken" />
		<tag k="natural" v="slope" />
		<tag k="place" v="locality" />
		<tag k="ssr:stedsnr" v="532775" />
	</node>
	<node lat="59.114236109423864" lon="8.41774166110524" id="-25308">
		<tag k="name" v="Rubbukollen" />
		<tag k="natural" v="hill" />
		<tag k="place" v="locality" />
		<tag k="ssr:stedsnr" v="532934" />
	</node>
	<node lat="58.92355000240124" lon="8.431016667826487" id="-25309">
		<tag k="name" v="Storrdalen" />
		<tag k="natural" v="valley" />
		<tag k="place" v="locality" />
		<tag k="ssr:stedsnr" v="532680" />
	</node>
	<node lat="58.90046666288931" lon="8.46065555464621" id="-25312">
		<tag k="name" v="Sveipekjerrfjellet" />
		<tag k="natural" v="cliff" />
		<tag k="ssr:stedsnr" v="532858" />
	</node>
	<node lat="58.89701388505058" lon="8.452130559170211" id="-25313">
		<tag k="name" v="Skarene" />
		<tag k="natural" v="slope" />
		<tag k="place" v="locality" />
		<tag k="ssr:stedsnr" v="532863" />
	</node>
	<node lat="59.18563889045361" lon="8.426269450252377" id="-25317">
		<tag k="name" v="Langmyråsen" />
		<tag k="natural" v="hill" />
		<tag k="place" v="locality" />
		<tag k="ssr:stedsnr" v="532892" />
	</node>
	<node lat="59.032802782042154" lon="8.65640555481568" id="-25321">
		<tag k="name" v="Bronane" />
		<tag k="natural" v="hill" />
		<tag k="place" v="locality" />
		<tag k="ssr:stedsnr" v="533083" />
	</node>
	<node lat="59.17142499887891" lon="8.613649994153134" id="-25327">
		<tag k="name" v="Langmyrrista" />
		<tag k="natural" v="ridge" />
		<tag k="place" v="locality" />
		<tag k="ssr:stedsnr" v="533615" />
	</node>
	<node lat="59.04031110694856" lon="8.659250003540386" id="-25328">
		<tag k="name" v="Gamahelleren" />
		<tag k="place" v="locality" />
		<tag k="ssr:stedsnr" v="533670" />
	</node>
	<node lat="58.92683610865675" lon="8.345686118880852" id="-25332">
		<tag k="name" v="Sommerheia" />
		<tag k="natural" v="hill" />
		<tag k="place" v="locality" />
		<tag k="ssr:stedsnr" v="533967" />
	</node>
	<node lat="58.93718888656852" lon="8.591747218195957" id="-25334">
		<tag k="name" v="Trosnesheia" />
		<tag k="natural" v="hill" />
		<tag k="place" v="locality" />
		<tag k="ssr:stedsnr" v="546380" />
	</node>
	<node lat="58.92552221946949" lon="8.534702785521032" id="-25336">
		<tag k="name" v="Gaukås" />
		<tag k="natural" v="hill" />
		<tag k="place" v="locality" />
		<tag k="ssr:stedsnr" v="546388" />
	</node>
	<node lat="58.910536108581574" lon="8.464283326363736" id="-25338">
		<tag k="alt_name" v="Fyglefjell" />
		<tag k="fixme" v="consider natural=peak for the most distinct mountains in the district" />
		<tag k="name" v="Fyglfjell" />
		<tag k="natural" v="hill" />
		<tag k="place" v="locality" />
		<tag k="ssr:stedsnr" v="546968" />
	</node>
	<node lat="58.980516668884974" lon="8.479755550858403" id="-25339">
		<tag k="alt_name" v="Storehei" />
		<tag k="name" v="Storheia" />
		<tag k="natural" v="hill" />
		<tag k="place" v="locality" />
		<tag k="ssr:stedsnr" v="547306" />
	</node>
	<node lat="58.92360278173364" lon="8.792494442341201" id="-25344">
		<tag k="name" v="Vehusheia" />
		<tag k="natural" v="hill" />
		<tag k="place" v="locality" />
		<tag k="ssr:stedsnr" v="547413" />
	</node>
	<node lat="59.00668611359946" lon="8.55633610728301" id="-25345">
		<tag k="name" v="Djupedalen" />
		<tag k="natural" v="valley" />
		<tag k="place" v="locality" />
		<tag k="ssr:stedsnr" v="547516" />
	</node>
	<node lat="59.01830555656008" lon="8.548088881603785" id="-25346">
		<tag k="alt_name" v="Skålefjell" />
		<tag k="fixme" v="consider natural=peak for the most distinct mountains in the district" />
		<tag k="name" v="Skålfjell" />
		<tag k="natural" v="hill" />
		<tag k="place" v="locality" />
		<tag k="ssr:stedsnr" v="547502" />
	</node>
	<node lat="59.02065555178461" lon="8.632080563032613" id="-25352">
		<tag k="alt_name" v="Eileivsli" />
		<tag k="name" v="Eilevslia" />
		<tag k="natural" v="slope" />
		<tag k="place" v="locality" />
		<tag k="ssr:stedsnr" v="547473" />
	</node>
	<node lat="59.02202499693954" lon="8.620916667569409" id="-25353">
		<tag k="name" v="Fugllia" />
		<tag k="natural" v="slope" />
		<tag k="place" v="locality" />
		<tag k="ssr:stedsnr" v="547475" />
	</node>
	<node lat="59.07131666701373" lon="8.595922226707565" id="-25354">
		<tag k="alt_name" v="Hakjosvassfjellet" />
		<tag k="fixme" v="consider natural=peak for the most distinct mountains in the district" />
		<tag k="name" v="Hakjorsvassfjellet" />
		<tag k="natural" v="hill" />
		<tag k="place" v="locality" />
		<tag k="ssr:stedsnr" v="547621" />
	</node>
	<node lat="59.08494167084932" lon="8.652758339387166" id="-25355">
		<tag k="alt_name" v="Grandalsfjellet" />
		<tag k="fixme" v="consider natural=peak for the most distinct mountains in the district" />
		<tag k="name" v="Gråndalsfjell" />
		<tag k="natural" v="hill" />
		<tag k="place" v="locality" />
		<tag k="ssr:stedsnr" v="547668" />
	</node>
	<node lat="59.08420060613839" lon="8.480160515033516" id="-25357">
		<tag k="alt_name" v="Bjørndalen" />
		<tag k="name" v="Bjønndalen" />
		<tag k="natural" v="valley" />
		<tag k="place" v="locality" />
		<tag k="ssr:stedsnr" v="547689" />
	</node>
	<node lat="58.99459444595875" lon="8.387736104414172" id="-25362">
		<tag k="fixme" v="consider natural=peak for the most distinct mountains in the district" />
		<tag k="name" v="Stordalsheia" />
		<tag k="natural" v="hill" />
		<tag k="place" v="locality" />
		<tag k="ssr:stedsnr" v="547869" />
	</node>
	<node lat="59.253827778731804" lon="8.376813888434512" id="-25364">
		<tag k="name" v="Lofthusheii" />
		<tag k="natural" v="hill" />
		<tag k="place" v="locality" />
		<tag k="ssr:stedsnr" v="548212" />
	</node>
	<node lat="59.055797222400564" lon="8.58222500020081" id="-25365">
		<tag k="alt_name" v="Hakjorsdalen, nordre" />
		<tag k="name" v="Nordre Hakjorsdalen" />
		<tag k="natural" v="valley" />
		<tag k="place" v="locality" />
		<tag k="ssr:stedsnr" v="548554" />
	</node>
	<node lat="59.00652499689102" lon="8.41595278613036" id="-25366">
		<tag k="name" v="Ribba" />
		<tag k="natural" v="ridge" />
		<tag k="place" v="locality" />
		<tag k="ssr:stedsnr" v="548968" />
	</node>
	<node lat="59.14872500347509" lon="8.56588332795323" id="-25367">
		<tag k="name" v="Geiteryggen" />
		<tag k="natural" v="ridge" />
		<tag k="place" v="locality" />
		<tag k="ssr:stedsnr" v="578395" />
	</node>
	<node lat="59.18964444582568" lon="8.543947219293248" id="-25369">
		<tag k="name" v="Rindejuvet" />
		<tag k="natural" v="gorge" />
		<tag k="ssr:stedsnr" v="578430" />
	</node>
	<node lat="59.17038610914709" lon="8.59750555924594" id="-25370">
		<tag k="name" v="Leiråsdalen" />
		<tag k="natural" v="valley" />
		<tag k="place" v="locality" />
		<tag k="ssr:stedsnr" v="578810" />
	</node>
	<node lat="58.94897499856976" lon="8.521494453016203" id="-25374">
		<tag k="name" v="Høgefossdalen" />
		<tag k="natural" v="valley" />
		<tag k="place" v="locality" />
		<tag k="ssr:stedsnr" v="579553" />
	</node>
	<node lat="59.064924995539116" lon="8.537630553889297" id="-25379">
		<tag k="name" v="Skidalsknatten" />
		<tag k="natural" v="hill" />
		<tag k="place" v="locality" />
		<tag k="ssr:stedsnr" v="579992" />
	</node>
	<node lat="59.00668610820694" lon="8.639461107955228" id="-25381">
		<tag k="name" v="Kvenntjønnbakken" />
		<tag k="natural" v="slope" />
		<tag k="place" v="locality" />
		<tag k="ssr:stedsnr" v="580205" />
	</node>
	<node lat="58.939833335133635" lon="8.569186105810925" id="-25386">
		<tag k="fixme" v="consider natural=peak for the most distinct mountains in the district" />
		<tag k="name" v="Hellesli Valefjell" />
		<tag k="natural" v="hill" />
		<tag k="place" v="locality" />
		<tag k="ssr:stedsnr" v="580546" />
	</node>
	<node lat="58.985161107298744" lon="8.69584443638079" id="-25391">
		<tag k="name" v="Hanetarmdalen" />
		<tag k="natural" v="valley" />
		<tag k="place" v="locality" />
		<tag k="ssr:stedsnr" v="581003" />
	</node>
	<node lat="58.90184444048253" lon="8.7098333299522" id="-25392">
		<tag k="name" v="Bjønndalen" />
		<tag k="natural" v="valley" />
		<tag k="place" v="locality" />
		<tag k="ssr:stedsnr" v="581040" />
	</node>
	<node lat="58.89621666650461" lon="8.717205549050817" id="-25393">
		<tag k="name" v="Gunnleiksfjell" />
		<tag k="natural" v="hill" />
		<tag k="place" v="locality" />
		<tag k="ssr:stedsnr" v="581050" />
	</node>
	<node lat="58.96083333484826" lon="8.725275004550141" id="-25395">
		<tag k="name" v="Berrtjønnheia" />
		<tag k="natural" v="hill" />
		<tag k="place" v="locality" />
		<tag k="ssr:stedsnr" v="581189" />
	</node>
	<node lat="58.867563891058495" lon="8.722549992352365" id="-25397">
		<tag k="name" v="Orrevassdalen" />
		<tag k="natural" v="valley" />
		<tag k="place" v="locality" />
		<tag k="ssr:stedsnr" v="581303" />
	</node>
	<node lat="58.91363888610014" lon="8.651436103108274" id="-25400">
		<tag k="name" v="Nonheihelleren" />
		<tag k="place" v="locality" />
		<tag k="ssr:stedsnr" v="581354" />
	</node>
	<node lat="58.979830552001815" lon="8.738188891175586" id="-25403">
		<tag k="name" v="Skåkheia" />
		<tag k="natural" v="hill" />
		<tag k="place" v="locality" />
		<tag k="ssr:stedsnr" v="582215" />
	</node>
	<node lat="59.115838885892266" lon="8.372930553534658" id="-25411">
		<tag k="name" v="Finnstefjell" />
		<tag k="natural" v="hill" />
		<tag k="place" v="locality" />
		<tag k="ssr:stedsnr" v="591658" />
	</node>
	<node lat="58.95672222609847" lon="8.491963884617427" id="-25413">
		<tag k="name" v="Stemtjønnlia" />
		<tag k="natural" v="slope" />
		<tag k="place" v="locality" />
		<tag k="ssr:stedsnr" v="592002" />
	</node>
	<node lat="58.97037777576395" lon="8.480497224404045" id="-25414">
		<tag k="name" v="Trengsle" />
		<tag k="place" v="locality" />
		<tag k="ssr:stedsnr" v="592021" />
	</node>
	<node lat="59.04466666741414" lon="8.405591658099347" id="-25415">
		<tag k="name" v="Revholet" />
		<tag k="natural" v="slope" />
		<tag k="place" v="locality" />
		<tag k="ssr:stedsnr" v="592110" />
	</node>
	<node lat="58.90878333466291" lon="8.469644446112333" id="-25420">
		<tag k="name" v="Lyngdalen" />
		<tag k="natural" v="valley" />
		<tag k="place" v="locality" />
		<tag k="ssr:stedsnr" v="592554" />
	</node>
	<node lat="59.064886108032006" lon="8.628694445136944" id="-25421">
		<tag k="name" v="Grasdalane" />
		<tag k="natural" v="valley" />
		<tag k="place" v="locality" />
		<tag k="ssr:stedsnr" v="593107" />
	</node>
	<node lat="59.03419166784068" lon="8.634436112951658" id="-25422">
		<tag k="name" v="Kvarvåslia" />
		<tag k="natural" v="slope" />
		<tag k="place" v="locality" />
		<tag k="ssr:stedsnr" v="593110" />
	</node>
	<node lat="59.05799166434002" lon="8.61416388137456" id="-25423">
		<tag k="name" v="Grautedalen" />
		<tag k="natural" v="valley" />
		<tag k="place" v="locality" />
		<tag k="ssr:stedsnr" v="593112" />
	</node>
	<node lat="59.20455555300789" lon="8.333597215139834" id="-25426">
		<tag k="name" v="Småkvævane" />
		<tag k="natural" v="valley" />
		<tag k="place" v="locality" />
		<tag k="ssr:stedsnr" v="593260" />
	</node>
	<node lat="59.019091663425016" lon="8.704780548172671" id="-25427">
		<tag k="name" v="Samlogheia" />
		<tag k="natural" v="hill" />
		<tag k="place" v="locality" />
		<tag k="ssr:stedsnr" v="593272" />
	</node>
	<node lat="59.172288892024454" lon="8.612258341484967" id="-25428">
		<tag k="name" v="Frovassristene" />
		<tag k="natural" v="ridge" />
		<tag k="place" v="locality" />
		<tag k="ssr:stedsnr" v="593625" />
	</node>
	<node lat="59.1756694413144" lon="8.370525007931223" id="-25430">
		<tag k="name" v="Dyrskar" />
		<tag k="natural" v="valley" />
		<tag k="place" v="locality" />
		<tag k="ssr:stedsnr" v="593702" />
	</node>
	<node lat="59.17393333473234" lon="8.595288883988633" id="-25435">
		<tag k="name" v="Treskoslit" />
		<tag k="natural" v="hill" />
		<tag k="place" v="locality" />
		<tag k="ssr:stedsnr" v="699831" />
	</node>
	<node lat="59.17296944350802" lon="8.602680558177774" id="-25436">
		<tag k="fixme" v="consider natural=peak for the most distinct mountains in the district" />
		<tag k="name" v="Frovassåsen" />
		<tag k="natural" v="hill" />
		<tag k="place" v="locality" />
		<tag k="ssr:stedsnr" v="699836" />
	</node>
	<node lat="58.98610833703394" lon="8.593916673289" id="-25437">
		<tag k="fixme" v="consider natural=peak for the most distinct mountains in the district" />
		<tag k="name" v="Heimdalsnuten" />
		<tag k="natural" v="hill" />
		<tag k="old_name" v="Heimdals-nuten" />
		<tag k="place" v="locality" />
		<tag k="ssr:stedsnr" v="607295" />
	</node>
	<node lat="58.93454999890254" lon="8.649874999799616" id="-25439">
		<tag k="alt_name" v="Skuggerosdalen" />
		<tag k="name" v="Skogrosdalen" />
		<tag k="natural" v="valley" />
		<tag k="place" v="locality" />
		<tag k="ssr:stedsnr" v="607405" />
	</node>
	<node lat="58.92844166470095" lon="8.646291667833308" id="-25440">
		<tag k="name" v="Hardalen" />
		<tag k="natural" v="valley" />
		<tag k="place" v="locality" />
		<tag k="ssr:stedsnr" v="607407" />
	</node>
	<node lat="58.929944440111015" lon="8.60967500351506" id="-25441">
		<tag k="alt_name" v="Teinbekkåsen" />
		<tag k="fixme" v="consider natural=peak for the most distinct mountains in the district" />
		<tag k="name" v="Teinebekkåsen" />
		<tag k="natural" v="hill" />
		<tag k="place" v="locality" />
		<tag k="ssr:stedsnr" v="607201" />
	</node>
	<node lat="58.972211115024656" lon="8.76603333354177" id="-25444">
		<tag k="fixme" v="consider natural=peak for the most distinct mountains in the district" />
		<tag k="name" v="Storlinuten" />
		<tag k="natural" v="hill" />
		<tag k="place" v="locality" />
		<tag k="ssr:stedsnr" v="607362" />
	</node>
	<node lat="59.19785277483744" lon="8.64261388722817" id="-25446">
		<tag k="name" v="Fyslii" />
		<tag k="natural" v="slope" />
		<tag k="place" v="locality" />
		<tag k="ssr:stedsnr" v="607843" />
	</node>
	<node lat="58.980013885320496" lon="8.434566668628177" id="-25448">
		<tag k="alt_name" v="Brunfjellet" />
		<tag k="fixme" v="consider natural=peak for the most distinct mountains in the district" />
		<tag k="name" v="Bronfjell" />
		<tag k="natural" v="hill" />
		<tag k="place" v="locality" />
		<tag k="ssr:stedsnr" v="607895" />
	</node>
	<node lat="58.920313892450835" lon="8.310983336747197" id="-25450">
		<tag k="alt_name" v="Stavfjell" />
		<tag k="fixme" v="consider natural=peak for the most distinct mountains in the district" />
		<tag k="name" v="Stavfjellet" />
		<tag k="natural" v="hill" />
		<tag k="place" v="locality" />
		<tag k="ssr:stedsnr" v="607991" />
	</node>
	<node lat="59.14045555202177" lon="8.38395000363016" id="-25452">
		<tag k="alt_name" v="Smørkrokkollen" />
		<tag k="fixme" v="consider natural=peak for the most distinct mountains in the district" />
		<tag k="name" v="Smørkrokollen" />
		<tag k="natural" v="hill" />
		<tag k="place" v="locality" />
		<tag k="ssr:stedsnr" v="608139" />
	</node>
	<node lat="59.14590555221969" lon="8.396752782938522" id="-25453">
		<tag k="fixme" v="consider natural=peak for the most distinct mountains in the district" />
		<tag k="name" v="Frostliåsen" />
		<tag k="natural" v="hill" />
		<tag k="place" v="locality" />
		<tag k="ssr:stedsnr" v="608140" />
	</node>
	<node lat="59.00096111236497" lon="8.718169451640165" id="-25454">
		<tag k="fixme" v="consider natural=peak for the most distinct mountains in the district" />
		<tag k="name" v="Stolsvassnuten" />
		<tag k="natural" v="hill" />
		<tag k="old_name" v="Stolvassnuten" />
		<tag k="place" v="locality" />
		<tag k="ssr:stedsnr" v="608504" />
	</node>
	<node lat="59.093838889476416" lon="8.470927780588214" id="-25456">
		<tag k="alt_name" v="Vedalsfjellet" />
		<tag k="fixme" v="consider natural=peak for the most distinct mountains in the district" />
		<tag k="name" v="Skotfjell" />
		<tag k="natural" v="hill" />
		<tag k="place" v="locality" />
		<tag k="ssr:stedsnr" v="608688" />
	</node>
	<node lat="59.164033335353174" lon="8.68081389521557" id="-25462">
		<tag k="alt_name" v="Bjørndalen" />
		<tag k="name" v="Bjønndalen" />
		<tag k="natural" v="valley" />
		<tag k="place" v="locality" />
		<tag k="ssr:stedsnr" v="608804" />
	</node>
	<node lat="59.22600832959018" lon="8.537475006033034" id="-25465">
		<tag k="alt_name" v="Håvenut" />
		<tag k="fixme" v="consider natural=peak for the most distinct mountains in the district" />
		<tag k="name" v="Håvenuten" />
		<tag k="natural" v="hill" />
		<tag k="place" v="locality" />
		<tag k="ssr:stedsnr" v="608953" />
	</node>
	<node lat="58.984966669267955" lon="8.510797213689209" id="-25472">
		<tag k="name" v="Trengsle" />
		<tag k="natural" v="valley" />
		<tag k="place" v="locality" />
		<tag k="ssr:stedsnr" v="701430" />
	</node>
	<node lat="58.98920555558922" lon="8.549808333006547" id="-25473">
		<tag k="name" v="Krosskleivdalen" />
		<tag k="natural" v="valley" />
		<tag k="place" v="locality" />
		<tag k="ssr:stedsnr" v="701434" />
	</node>
	<node lat="58.98592777592413" lon="8.588594437018685" id="-25476">
		<tag k="name" v="Uppålia" />
		<tag k="natural" v="slope" />
		<tag k="place" v="locality" />
		<tag k="ssr:stedsnr" v="701756" />
	</node>
	<node lat="59.00176388649516" lon="8.595611108098137" id="-25477">
		<tag k="fixme" v="consider natural=peak for the most distinct mountains in the district" />
		<tag k="name" v="Solhallåsen" />
		<tag k="natural" v="hill" />
		<tag k="place" v="locality" />
		<tag k="ssr:stedsnr" v="701821" />
	</node>
	<node lat="59.05943610915217" lon="8.523419448476318" id="-25482">
		<tag k="name" v="Vikliane" />
		<tag k="natural" v="slope" />
		<tag k="place" v="locality" />
		<tag k="ssr:stedsnr" v="701998" />
	</node>
	<node lat="59.05865833587095" lon="8.520313888322875" id="-25483">
		<tag k="name" v="Gråndalen" />
		<tag k="natural" v="valley" />
		<tag k="place" v="locality" />
		<tag k="ssr:stedsnr" v="701999" />
	</node>
	<node lat="58.99765555981528" lon="8.6899361046513" id="-25484">
		<tag k="fixme" v="consider natural=peak for the most distinct mountains in the district" />
		<tag k="name" v="Berghylufsene" />
		<tag k="natural" v="hill" />
		<tag k="place" v="locality" />
		<tag k="ssr:stedsnr" v="702058" />
	</node>
	<node lat="58.87355833728955" lon="8.713124993602046" id="-25485">
		<tag k="name" v="Ørnefjelldalen" />
		<tag k="natural" v="valley" />
		<tag k="place" v="locality" />
		<tag k="ssr:stedsnr" v="702131" />
	</node>
	<node lat="58.88083888727931" lon="8.67587777133012" id="-25486">
		<tag k="name" v="Drangsliane" />
		<tag k="natural" v="slope" />
		<tag k="place" v="locality" />
		<tag k="ssr:stedsnr" v="702141" />
	</node>
	<node lat="58.92691388770498" lon="8.49703334182036" id="-25489">
		<tag k="name" v="Svalldalen" />
		<tag k="natural" v="valley" />
		<tag k="place" v="locality" />
		<tag k="ssr:stedsnr" v="702391" />
	</node>
	<node lat="58.92345833763308" lon="8.54971111967943" id="-25490">
		<tag k="name" v="Øyeheilia" />
		<tag k="natural" v="valley" />
		<tag k="place" v="locality" />
		<tag k="ssr:stedsnr" v="702326" />
	</node>
	<node lat="58.891413892209" lon="8.763019447850299" id="-25495">
		<tag k="name" v="Risefaret" />
		<tag k="natural" v="slope" />
		<tag k="place" v="locality" />
		<tag k="ssr:stedsnr" v="703357" />
	</node>
	<node lat="58.910969441000724" lon="8.657091662742507" id="-25496">
		<tag k="name" v="Krokanheia" />
		<tag k="natural" v="hill" />
		<tag k="place" v="locality" />
		<tag k="ssr:stedsnr" v="703364" />
	</node>
	<node lat="58.90168888761623" lon="8.770399999223514" id="-25497">
		<tag k="fixme" v="consider natural=peak for the most distinct mountains in the district" />
		<tag k="name" v="Beinvegåsen" />
		<tag k="natural" v="hill" />
		<tag k="place" v="locality" />
		<tag k="ssr:stedsnr" v="703366" />
	</node>
	<node lat="58.93223055830201" lon="8.656630547438978" id="-25498">
		<tag k="name" v="Haredalen" />
		<tag k="natural" v="valley" />
		<tag k="place" v="locality" />
		<tag k="ssr:stedsnr" v="703446" />
	</node>
	<node lat="58.9568361118974" lon="8.629747214021897" id="-25499">
		<tag k="name" v="Kåsliane" />
		<tag k="natural" v="slope" />
		<tag k="place" v="locality" />
		<tag k="ssr:stedsnr" v="703633" />
	</node>
	<node lat="58.9593611122072" lon="8.663949996380433" id="-25500">
		<tag k="name" v="Hessli" />
		<tag k="natural" v="slope" />
		<tag k="place" v="locality" />
		<tag k="ssr:stedsnr" v="703644" />
	</node>
	<node lat="58.93416110784504" lon="8.755286115908447" id="-25505">
		<tag k="name" v="Tjovhellerdalen" />
		<tag k="natural" v="valley" />
		<tag k="place" v="locality" />
		<tag k="ssr:stedsnr" v="703956" />
	</node>
	<node lat="58.93298889212815" lon="8.740200004484905" id="-25506">
		<tag k="name" v="Spjotvassdalen" />
		<tag k="natural" v="valley" />
		<tag k="place" v="locality" />
		<tag k="ssr:stedsnr" v="703960" />
	</node>
	<node lat="58.90656111343621" lon="8.674147218805238" id="-25511">
		<tag k="name" v="Ratbudalen" />
		<tag k="natural" v="valley" />
		<tag k="place" v="locality" />
		<tag k="ssr:stedsnr" v="703975" />
	</node>
	<node lat="58.97499444199225" lon="8.81200000462364" id="-25512">
		<tag k="name" v="Øygardslia" />
		<tag k="natural" v="slope" />
		<tag k="place" v="locality" />
		<tag k="ssr:stedsnr" v="704178" />
	</node>
	<node lat="58.981847222194375" lon="8.800413888699184" id="-25513">
		<tag k="fixme" v="consider natural=peak for the most distinct mountains in the district" />
		<tag k="name" v="Seten" />
		<tag k="natural" v="hill" />
		<tag k="place" v="locality" />
		<tag k="ssr:stedsnr" v="704182" />
	</node>
	<node lat="58.98905555682556" lon="8.758894450215193" id="-25514">
		<tag k="name" v="Mjeltenattheia" />
		<tag k="natural" v="hill" />
		<tag k="place" v="locality" />
		<tag k="ssr:stedsnr" v="704199" />
	</node>
	<node lat="59.14791944705576" lon="8.535877780000332" id="-25515">
		<tag k="name" v="Sløkdalen" />
		<tag k="natural" v="valley" />
		<tag k="place" v="locality" />
		<tag k="ssr:stedsnr" v="638478" />
	</node>
	<node lat="59.15891944586546" lon="8.505911117181213" id="-25516">
		<tag k="fixme" v="consider natural=peak for the most distinct mountains in the district" />
		<tag k="name" v="Tingstøåsen" />
		<tag k="natural" v="hill" />
		<tag k="place" v="locality" />
		<tag k="ssr:stedsnr" v="638526" />
	</node>
	<node lat="59.175858335792356" lon="8.54196111633854" id="-25518">
		<tag k="fixme" v="consider natural=peak for the most distinct mountains in the district" />
		<tag k="name" v="Bakkebufjellet" />
		<tag k="natural" v="hill" />
		<tag k="place" v="locality" />
		<tag k="ssr:stedsnr" v="638980" />
	</node>
	<node lat="59.16996666542694" lon="8.536863893420149" id="-25520">
		<tag k="name" v="Tempelhaugen" />
		<tag k="natural" v="hill" />
		<tag k="place" v="locality" />
		<tag k="ssr:stedsnr" v="638991" />
	</node>
	<node lat="59.191205557110464" lon="8.557672223049407" id="-25525">
		<tag k="name" v="Tomyrbrotet" />
		<tag k="natural" v="cliff" />
		<tag k="ssr:stedsnr" v="639613" />
	</node>
	<node lat="59.242569448363845" lon="8.591130558742735" id="-25526">
		<tag k="name" v="Dei sju prestane" />
		<tag k="natural" v="hill" />
		<tag k="place" v="locality" />
		<tag k="ssr:stedsnr" v="639631" />
	</node>
	<node lat="59.020188889822066" lon="8.574605548585833" id="-25528">
		<tag k="name" v="Grimsvadalen" />
		<tag k="natural" v="valley" />
		<tag k="place" v="locality" />
		<tag k="ssr:stedsnr" v="640030" />
	</node>
	<node lat="58.950661112071934" lon="8.50638334112177" id="-25531">
		<tag k="name" v="Lillemo" />
		<tag k="place" v="locality" />
		<tag k="ssr:stedsnr" v="640387" />
	</node>
	<node lat="59.027422222592406" lon="8.550544437569378" id="-25535">
		<tag k="fixme" v="consider natural=peak for the most distinct mountains in the district" />
		<tag k="name" v="Hestefjell" />
		<tag k="natural" v="hill" />
		<tag k="place" v="locality" />
		<tag k="ssr:stedsnr" v="640823" />
	</node>
	<node lat="58.972983335466786" lon="8.635269444219558" id="-25539">
		<tag k="name" v="Mjåvassdalen" />
		<tag k="natural" v="valley" />
		<tag k="place" v="locality" />
		<tag k="ssr:stedsnr" v="641246" />
	</node>
	<node lat="58.98219444203105" lon="8.716388882003416" id="-25541">
		<tag k="name" v="Lustjønndalen" />
		<tag k="natural" v="valley" />
		<tag k="place" v="locality" />
		<tag k="ssr:stedsnr" v="642027" />
	</node>
	<node lat="58.89348610776954" lon="8.680736113393888" id="-25542">
		<tag k="name" v="Bjørkedalsheia" />
		<tag k="natural" v="hill" />
		<tag k="place" v="locality" />
		<tag k="ssr:stedsnr" v="642109" />
	</node>
	<node lat="58.9786277787929" lon="8.478886110527833" id="-25545">
		<tag k="name" v="Lindefjell" />
		<tag k="place" v="locality" />
		<tag k="ssr:stedsnr" v="706061" />
	</node>
	<node lat="58.935163893110754" lon="8.638661110131554" id="-25546">
		<tag k="name" v="Rossånjuvene" />
		<tag k="natural" v="gorge" />
		<tag k="ssr:stedsnr" v="642406" />
	</node>
	<node lat="58.90089722445327" lon="8.74332499329404" id="-25547">
		<tag k="name" v="Orholta" />
		<tag k="natural" v="slope" />
		<tag k="place" v="locality" />
		<tag k="ssr:stedsnr" v="642408" />
	</node>
	<node lat="58.950677775645076" lon="8.639122216931327" id="-25549">
		<tag k="name" v="Barlinddalen" />
		<tag k="natural" v="valley" />
		<tag k="place" v="locality" />
		<tag k="ssr:stedsnr" v="642626" />
	</node>
	<node lat="58.94955833626305" lon="8.633050005343726" id="-25550">
		<tag k="name" v="Nuten" />
		<tag k="natural" v="hill" />
		<tag k="place" v="locality" />
		<tag k="ssr:stedsnr" v="642629" />
	</node>
	<node lat="58.90607777377907" lon="8.732688892973368" id="-25552">
		<tag k="name" v="Skarskot" />
		<tag k="natural" v="ridge" />
		<tag k="place" v="locality" />
		<tag k="ssr:stedsnr" v="642977" />
	</node>
	<node lat="58.91692778008029" lon="8.743577783310538" id="-25553">
		<tag k="name" v="Kjørkesteinlia" />
		<tag k="natural" v="slope" />
		<tag k="place" v="locality" />
		<tag k="ssr:stedsnr" v="642978" />
	</node>
	<node lat="58.91636666427754" lon="8.456836117507631" id="-25559">
		<tag k="name" v="Tverrkleivfjella" />
		<tag k="natural" v="ridge" />
		<tag k="place" v="locality" />
		<tag k="ssr:stedsnr" v="652602" />
	</node>
	<node lat="58.96285833567658" lon="8.488627777565343" id="-25560">
		<tag k="name" v="Lauvbrøkane" />
		<tag k="natural" v="valley" />
		<tag k="place" v="locality" />
		<tag k="ssr:stedsnr" v="653008" />
	</node>
	<node lat="59.00139722315687" lon="8.460430552977353" id="-25563">
		<tag k="fixme" v="consider natural=peak for the most distinct mountains in the district" />
		<tag k="name" v="Gloppeknatten" />
		<tag k="natural" v="hill" />
		<tag k="place" v="locality" />
		<tag k="ssr:stedsnr" v="653233" />
	</node>
	<node lat="59.141302781732946" lon="8.447116658952588" id="-25571">
		<tag k="name" v="Modølsfjellet" />
		<tag k="natural" v="hill" />
		<tag k="place" v="locality" />
		<tag k="ssr:stedsnr" v="653629" />
	</node>
	<node lat="59.15755555665303" lon="8.430066675135174" id="-25572">
		<tag k="name" v="Rustøylvafjellet" />
		<tag k="natural" v="hill" />
		<tag k="place" v="locality" />
		<tag k="ssr:stedsnr" v="653783" />
	</node>
	<node lat="59.160680554607886" lon="8.432063892236611" id="-25574">
		<tag k="name" v="Finnhola" />
		<tag k="natural" v="valley" />
		<tag k="place" v="locality" />
		<tag k="ssr:stedsnr" v="653789" />
	</node>
	<node lat="58.975938888195635" lon="8.371166668556196" id="-25575">
		<tag k="name" v="Vårfjøsbakkane" />
		<tag k="natural" v="slope" />
		<tag k="place" v="locality" />
		<tag k="ssr:stedsnr" v="653993" />
	</node>
	<node lat="59.10534166639254" lon="8.622030553257138" id="-25582">
		<tag k="name" v="Sandvasskleivane" />
		<tag k="natural" v="slope" />
		<tag k="place" v="locality" />
		<tag k="ssr:stedsnr" v="654387" />
	</node>
	<node lat="59.11898888754095" lon="8.652852777553028" id="-25583">
		<tag k="name" v="Berisvassristene" />
		<tag k="natural" v="ridge" />
		<tag k="place" v="locality" />
		<tag k="ssr:stedsnr" v="654390" />
	</node>
	<node lat="59.066838892319836" lon="8.39292500083408" id="-25587">
		<tag k="alt_name" v="Ånondsbuknatten" />
		<tag k="fixme" v="consider natural=peak for the most distinct mountains in the district" />
		<tag k="name" v="Ånundsbuknatten" />
		<tag k="natural" v="hill" />
		<tag k="place" v="locality" />
		<tag k="ssr:stedsnr" v="668203" />
	</node>
	<node lat="58.924983337808555" lon="8.678486118855867" id="-25588">
		<tag k="name" v="Budalen" />
		<tag k="natural" v="valley" />
		<tag k="place" v="locality" />
		<tag k="ssr:stedsnr" v="668213" />
	</node>
	<node lat="58.99245833603267" lon="8.592197217561313" id="-25589">
		<tag k="fixme" v="consider natural=peak for the most distinct mountains in the district" />
		<tag k="name" v="Nutfjell" />
		<tag k="natural" v="hill" />
		<tag k="place" v="locality" />
		<tag k="ssr:stedsnr" v="668309" />
	</node>
	<node lat="58.983866666549154" lon="8.590225000679556" id="-25590">
		<tag k="name" v="Geitberget" />
		<tag k="natural" v="hill" />
		<tag k="place" v="locality" />
		<tag k="ssr:stedsnr" v="668291" />
	</node>
	<node lat="58.98562777861012" lon="8.53139166280503" id="-25591">
		<tag k="alt_name" v="Åsfjellet" />
		<tag k="fixme" v="consider natural=peak for the most distinct mountains in the district" />
		<tag k="name" v="Åsefjellet" />
		<tag k="natural" v="hill" />
		<tag k="place" v="locality" />
		<tag k="ssr:stedsnr" v="668295" />
	</node>
	<node lat="58.89716944337114" lon="8.670497217288382" id="-25594">
		<tag k="alt_name" v="Persdalen" />
		<tag k="name" v="Pærsdal" />
		<tag k="natural" v="valley" />
		<tag k="place" v="locality" />
		<tag k="ssr:stedsnr" v="668482" />
	</node>
	<node lat="58.88616666649663" lon="8.770991658923082" id="-25600">
		<tag k="alt_name" v="Nutane" />
		<tag k="fixme" v="consider natural=peak for the most distinct mountains in the district" />
		<tag k="name" v="Den store nuten" />
		<tag k="natural" v="hill" />
		<tag k="place" v="locality" />
		<tag k="ssr:stedsnr" v="668728" />
	</node>
	<node lat="58.95898055350018" lon="8.446838880786881" id="-25604">
		<tag k="alt_name" v="Homfjell" />
		<tag k="fixme" v="consider natural=peak for the most distinct mountains in the district" />
		<tag k="name" v="Homfjellet" />
		<tag k="natural" v="hill" />
		<tag k="place" v="locality" />
		<tag k="ssr:stedsnr" v="668912" />
	</node>
	<node lat="59.232527778319515" lon="8.347311116785768" id="-25606">
		<tag k="alt_name" v="Øyvassheia" />
		<tag k="name" v="Øyvassheii" />
		<tag k="natural" v="hill" />
		<tag k="place" v="locality" />
		<tag k="ssr:stedsnr" v="669003" />
	</node>
	<node lat="59.238977781347394" lon="8.329836103358332" id="-25607">
		<tag k="fixme" v="consider natural=peak for the most distinct mountains in the district" />
		<tag k="name" v="Førheinutane" />
		<tag k="natural" v="hill" />
		<tag k="place" v="locality" />
		<tag k="ssr:stedsnr" v="669005" />
	</node>
	<node lat="59.03913889160556" lon="8.38457500766478" id="-25610">
		<tag k="alt_name" v="Hestehovudet" />
		<tag k="fixme" v="consider natural=peak for the most distinct mountains in the district" />
		<tag k="name" v="Hesthovudet" />
		<tag k="natural" v="hill" />
		<tag k="place" v="locality" />
		<tag k="ssr:stedsnr" v="669196" />
	</node>
	<node lat="59.02160555293498" lon="8.574925006587529" id="-25611">
		<tag k="alt_name" v="Grimsvakleiva" />
		<tag k="name" v="Grimsvadkleiva" />
		<tag k="natural" v="slope" />
		<tag k="place" v="locality" />
		<tag k="ssr:stedsnr" v="669479" />
	</node>
	<node lat="59.082713893269585" lon="8.552827773351625" id="-25614">
		<tag k="alt_name" v="Stråndefjell" />
		<tag k="fixme" v="consider natural=peak for the most distinct mountains in the district" />
		<tag k="name" v="Strondefjell" />
		<tag k="natural" v="hill" />
		<tag k="place" v="locality" />
		<tag k="ssr:stedsnr" v="669606" />
	</node>
	<node lat="59.16937778188482" lon="8.533713885067543" id="-25627">
		<tag k="name" v="Helvetsdalen" />
		<tag k="natural" v="valley" />
		<tag k="place" v="locality" />
		<tag k="ssr:stedsnr" v="699986" />
	</node>
	<node lat="58.96717499625777" lon="8.477794436416401" id="-25629">
		<tag k="name" v="Hagstalifjellet" />
		<tag k="natural" v="hill" />
		<tag k="place" v="locality" />
		<tag k="ssr:stedsnr" v="896018" />
	</node>
	<node lat="59.01610832997784" lon="8.41687499221862" id="-25631">
		<tag k="name" v="Drakdalen" />
		<tag k="natural" v="valley" />
		<tag k="place" v="locality" />
		<tag k="ssr:stedsnr" v="896056" />
	</node>
	<node lat="58.9516027807506" lon="8.435377782416928" id="-25632">
		<tag k="name" v="Stormonen" />
		<tag k="place" v="locality" />
		<tag k="ssr:stedsnr" v="896131" />
	</node>
	<node lat="58.95333611129998" lon="8.438144443446562" id="-25633">
		<tag k="name" v="Halsteinberga" />
		<tag k="place" v="locality" />
		<tag k="ssr:stedsnr" v="896133" />
	</node>
	<node lat="58.985944446140145" lon="8.606369444547443" id="-25638">
		<tag k="name" v="Klomri" />
		<tag k="natural" v="gorge" />
		<tag k="ssr:stedsnr" v="701404" />
	</node>
	<node lat="59.015694444163124" lon="8.632475008192067" id="-25639">
		<tag k="name" v="Hungersbukollen" />
		<tag k="natural" v="hill" />
		<tag k="place" v="locality" />
		<tag k="ssr:stedsnr" v="896151" />
	</node>
	<node lat="59.06141666786215" lon="8.564405553348381" id="-25644">
		<tag k="name" v="Krossdalen" />
		<tag k="natural" v="valley" />
		<tag k="place" v="locality" />
		<tag k="ssr:stedsnr" v="701573" />
	</node>
	<node lat="59.00971944388951" lon="8.643972230786625" id="-25652">
		<tag k="name" v="Lauli" />
		<tag k="natural" v="slope" />
		<tag k="place" v="locality" />
		<tag k="ssr:stedsnr" v="702176" />
	</node>
	<node lat="59.09201944363683" lon="8.477769441718436" id="-25654">
		<tag k="name" v="Svartufs" />
		<tag k="natural" v="cliff" />
		<tag k="ssr:stedsnr" v="896299" />
	</node>
	<node lat="58.97253055967914" lon="8.71481943992346" id="-25655">
		<tag k="fixme" v="consider natural=peak for the most distinct mountains in the district" />
		<tag k="name" v="Heitefjell" />
		<tag k="natural" v="hill" />
		<tag k="place" v="locality" />
		<tag k="ssr:stedsnr" v="703017" />
	</node>
	<node lat="58.932352780104964" lon="8.46026943800922" id="-25660">
		<tag k="name" v="Netten" />
		<tag k="natural" v="hill" />
		<tag k="place" v="locality" />
		<tag k="ssr:stedsnr" v="896471" />
	</node>
	<node lat="58.92777221997784" lon="8.44579721391953" id="-25661">
		<tag k="name" v="Daltona" />
		<tag k="place" v="locality" />
		<tag k="ssr:stedsnr" v="896474" />
	</node>
	<node lat="58.88064166706648" lon="8.76011111670805" id="-25665">
		<tag k="name" v="Langvasslia" />
		<tag k="natural" v="slope" />
		<tag k="place" v="locality" />
		<tag k="ssr:stedsnr" v="703320" />
	</node>
	<node lat="58.89809999905173" lon="8.647224993670681" id="-25672">
		<tag k="name" v="Fiskebekkdalen" />
		<tag k="natural" v="valley" />
		<tag k="place" v="locality" />
		<tag k="ssr:stedsnr" v="703931" />
	</node>
	<node lat="58.90670277912928" lon="8.792699998935166" id="-25675">
		<tag k="name" v="Busetheia" />
		<tag k="natural" v="hill" />
		<tag k="place" v="locality" />
		<tag k="ssr:stedsnr" v="704065" />
	</node>
	<node lat="59.21154722003114" lon="8.331658329128881" id="-25678">
		<tag k="name" v="Stråndlia" />
		<tag k="natural" v="slope" />
		<tag k="place" v="locality" />
		<tag k="ssr:stedsnr" v="897071" />
	</node>
	<node lat="59.074311115019306" lon="8.648480558047398" id="-25680">
		<tag k="name" v="Grønnlifjell" />
		<tag k="natural" v="hill" />
		<tag k="place" v="locality" />
		<tag k="ssr:stedsnr" v="897138" />
	</node>
	<node lat="59.026622226709854" lon="8.666630558495592" id="-25683">
		<tag k="name" v="Støyls Mjåvassnuten" />
		<tag k="natural" v="hill" />
		<tag k="place" v="locality" />
		<tag k="ssr:stedsnr" v="897223" />
	</node>
	<node lat="59.068408337012485" lon="8.4478111074712" id="-25693">
		<tag k="name" v="Sibylla" />
		<tag k="place" v="locality" />
		<tag k="ssr:stedsnr" v="897488" />
	</node>
	<node lat="59.17336944188763" lon="8.477474993114114" id="-25694">
		<tag k="name" v="Sondekollen" />
		<tag k="natural" v="hill" />
		<tag k="place" v="locality" />
		<tag k="ssr:stedsnr" v="897551" />
	</node>
	<node lat="59.146138885998994" lon="8.347825003624429" id="-25695">
		<tag k="name" v="Bjønndalen" />
		<tag k="natural" v="valley" />
		<tag k="place" v="locality" />
		<tag k="ssr:stedsnr" v="897553" />
	</node>
	<node lat="59.114669441456236" lon="8.439702785738614" id="-25701">
		<tag k="name" v="Geiteknatten" />
		<tag k="natural" v="hill" />
		<tag k="place" v="locality" />
		<tag k="ssr:stedsnr" v="897926" />
	</node>
	<node lat="59.16601944866203" lon="8.398747229311262" id="-25704">
		<tag k="name" v="Røyufs" />
		<tag k="natural" v="cliff" />
		<tag k="ssr:stedsnr" v="897877" />
	</node>
	<node lat="58.97388888671157" lon="8.360649997415765" id="-25706">
		<tag k="name" v="Bobekkåsen" />
		<tag k="natural" v="hill" />
		<tag k="place" v="locality" />
		<tag k="ssr:stedsnr" v="897976" />
	</node>
	<node lat="58.971599998948435" lon="8.424888888430594" id="-25711">
		<tag k="name" v="Den vonde dalen" />
		<tag k="natural" v="valley" />
		<tag k="place" v="locality" />
		<tag k="ssr:stedsnr" v="712136" />
	</node>
	<node lat="59.10530277508633" lon="8.618086113982661" id="-25712">
		<tag k="name" v="Tjøredonken" />
		<tag k="natural" v="hill" />
		<tag k="place" v="locality" />
		<tag k="ssr:stedsnr" v="898384" />
	</node>
	<node lat="58.93260555740879" lon="8.367333329864145" id="-25715">
		<tag k="name" v="Grimspelmoen" />
		<tag k="place" v="locality" />
		<tag k="ssr:stedsnr" v="712779" />
	</node>
	<node lat="58.92793055346539" lon="8.323791661795314" id="-25717">
		<tag k="fixme" v="consider natural=peak for the most distinct mountains in the district" />
		<tag k="name" v="Veitstefjell" />
		<tag k="natural" v="hill" />
		<tag k="place" v="locality" />
		<tag k="ssr:stedsnr" v="712980" />
	</node>
	<node lat="59.24178333109714" lon="8.396947224988585" id="-25723">
		<tag k="name" v="Oppå Bronen" />
		<tag k="natural" v="hill" />
		<tag k="place" v="locality" />
		<tag k="ssr:stedsnr" v="714108" />
	</node>
	<node lat="59.01224444010863" lon="8.493855556524263" id="-25728">
		<tag k="name" v="Den vonde dalen" />
		<tag k="natural" v="valley" />
		<tag k="place" v="locality" />
		<tag k="ssr:stedsnr" v="714230" />
	</node>
	<node lat="59.09596388535479" lon="8.43350000128814" id="-25734">
		<tag k="name" v="Bjønnlifjell" />
		<tag k="place" v="locality" />
		<tag k="ssr:stedsnr" v="714431" />
	</node>
	<node lat="59.067302777145464" lon="8.448749993737858" id="-25735">
		<tag k="name" v="Tor på nuten" />
		<tag k="natural" v="hill" />
		<tag k="place" v="locality" />
		<tag k="ssr:stedsnr" v="714484" />
	</node>
	<node lat="59.0764333321474" lon="8.4505805623785" id="-25736">
		<tag k="name" v="Brattberg" />
		<tag k="natural" v="cliff" />
		<tag k="ssr:stedsnr" v="714488" />
	</node>
	<node lat="59.1238555580812" lon="8.388658329120556" id="-25737">
		<tag k="name" v="Hagbudalen" />
		<tag k="natural" v="valley" />
		<tag k="place" v="locality" />
		<tag k="ssr:stedsnr" v="714613" />
	</node>
	<node lat="59.13531111056975" lon="8.455141658783383" id="-25739">
		<tag k="name" v="Kvennhuskollen" />
		<tag k="natural" v="hill" />
		<tag k="place" v="locality" />
		<tag k="ssr:stedsnr" v="714576" />
	</node>
	<node lat="59.035955554116114" lon="8.45021111057573" id="-25740">
		<tag k="fixme" v="consider natural=peak for the most distinct mountains in the district" />
		<tag k="name" v="Varden" />
		<tag k="natural" v="hill" />
		<tag k="place" v="locality" />
		<tag k="ssr:stedsnr" v="714881" />
	</node>
	<node lat="58.98078610700346" lon="8.799999995998691" id="-25752">
		<tag k="fixme" v="consider natural=peak for the most distinct mountains in the district" />
		<tag k="name" v="Seten" />
		<tag k="natural" v="hill" />
		<tag k="place" v="locality" />
		<tag k="ssr:stedsnr" v="729281" />
	</node>
	<node lat="58.942044448793276" lon="8.754727777542481" id="-25753">
		<tag k="name" v="Heimellomdalen" />
		<tag k="natural" v="valley" />
		<tag k="place" v="locality" />
		<tag k="ssr:stedsnr" v="729409" />
	</node>
	<node lat="58.95081666718602" lon="8.67523055300209" id="-25755">
		<tag k="name" v="Eilevsmyrheia" />
		<tag k="natural" v="hill" />
		<tag k="place" v="locality" />
		<tag k="ssr:stedsnr" v="729427" />
	</node>
	<node lat="58.9055944475898" lon="8.71531944037546" id="-25757">
		<tag k="name" v="Røydalen" />
		<tag k="natural" v="valley" />
		<tag k="place" v="locality" />
		<tag k="ssr:stedsnr" v="729474" />
	</node>
	<node lat="59.0428638865427" lon="8.581458336738498" id="-25759">
		<tag k="alt_name" v="Stemmetibrota" />
		<tag k="name" v="Stemtjørnbrotet" />
		<tag k="natural" v="slope" />
		<tag k="place" v="locality" />
		<tag k="ssr:stedsnr" v="729552" />
	</node>
	<node lat="59.20132777469683" lon="8.613633333388101" id="-25760">
		<tag k="name" v="Hongli" />
		<tag k="natural" v="slope" />
		<tag k="place" v="locality" />
		<tag k="ssr:stedsnr" v="729853" />
	</node>
	<node lat="58.870866669418675" lon="8.729702780238291" id="-25761">
		<tag k="name" v="Mjåvassheia" />
		<tag k="natural" v="hill" />
		<tag k="place" v="locality" />
		<tag k="ssr:stedsnr" v="729715" />
	</node>
	<node lat="58.87691944321049" lon="8.712399995764253" id="-25762">
		<tag k="fixme" v="consider natural=peak for the most distinct mountains in the district" />
		<tag k="name" v="Ørnefjell" />
		<tag k="natural" v="hill" />
		<tag k="place" v="locality" />
		<tag k="ssr:stedsnr" v="729716" />
	</node>
	<node lat="58.96243888637416" lon="8.451180556629293" id="-25764">
		<tag k="name" v="Lia" />
		<tag k="natural" v="slope" />
		<tag k="place" v="locality" />
		<tag k="ssr:stedsnr" v="729928" />
	</node>
	<node lat="58.946127782203405" lon="8.370174996136265" id="-25765">
		<tag k="fixme" v="consider natural=peak for the most distinct mountains in the district" />
		<tag k="name" v="Reinfossheia" />
		<tag k="natural" v="hill" />
		<tag k="place" v="locality" />
		<tag k="ssr:stedsnr" v="729970" />
	</node>
	<node lat="59.06041110939337" lon="8.514127780437255" id="-25769">
		<tag k="fixme" v="consider natural=peak for the most distinct mountains in the district" />
		<tag k="name" v="Vikfjellet" />
		<tag k="natural" v="hill" />
		<tag k="place" v="locality" />
		<tag k="ssr:stedsnr" v="730609" />
	</node>
	<node lat="59.1122861144021" lon="8.617061116210792" id="-25773">
		<tag k="fixme" v="consider natural=peak for the most distinct mountains in the district" />
		<tag k="name" v="Skurven" />
		<tag k="natural" v="hill" />
		<tag k="place" v="locality" />
		<tag k="ssr:stedsnr" v="730722" />
	</node>
	<node lat="59.07968610940703" lon="8.662366663249067" id="-25775">
		<tag k="alt_name" v="Grandalen" />
		<tag k="name" v="Gråndalen" />
		<tag k="natural" v="valley" />
		<tag k="place" v="locality" />
		<tag k="ssr:stedsnr" v="730675" />
	</node>
	<node lat="59.01258610882574" lon="8.42253888336644" id="-25782">
		<tag k="name" v="Ervedalen" />
		<tag k="natural" v="valley" />
		<tag k="place" v="locality" />
		<tag k="ssr:stedsnr" v="730974" />
	</node>
	<node lat="59.24573055547735" lon="8.572661112172481" id="-25783">
		<tag k="fixme" v="consider natural=peak for the most distinct mountains in the district" />
		<tag k="name" v="Bliktoppen" />
		<tag k="natural" v="hill" />
		<tag k="place" v="locality" />
		<tag k="ssr:stedsnr" v="730979" />
	</node>
	<node lat="59.08073888775965" lon="8.548511116385814" id="-25784">
		<tag k="name" v="Klyvstøylbakkane" />
		<tag k="natural" v="slope" />
		<tag k="place" v="locality" />
		<tag k="ssr:stedsnr" v="760544" />
	</node>
	<node lat="59.05538055719929" lon="8.530025003620748" id="-25790">
		<tag k="name" v="Grubbeskarine" />
		<tag k="natural" v="slope" />
		<tag k="place" v="locality" />
		<tag k="ssr:stedsnr" v="761992" />
	</node>
	<node lat="59.03174166448087" lon="8.555355563238429" id="-25791">
		<tag k="name" v="Dei svarte berga" />
		<tag k="natural" v="hill" />
		<tag k="place" v="locality" />
		<tag k="ssr:stedsnr" v="762407" />
	</node>
	<node lat="59.00147500198579" lon="8.512316662350585" id="-25796">
		<tag k="name" v="Solhola" />
		<tag k="natural" v="valley" />
		<tag k="place" v="locality" />
		<tag k="ssr:stedsnr" v="762941" />
	</node>
	<node lat="58.88726944200499" lon="8.697088891085208" id="-25801">
		<tag k="fixme" v="consider natural=peak for the most distinct mountains in the district" />
		<tag k="name" v="Heimre Breisås" />
		<tag k="natural" v="hill" />
		<tag k="place" v="locality" />
		<tag k="ssr:stedsnr" v="764041" />
	</node>
	<node lat="58.90047222466693" lon="8.737111118070962" id="-25802">
		<tag k="name" v="Trollbuheia" />
		<tag k="natural" v="hill" />
		<tag k="place" v="locality" />
		<tag k="ssr:stedsnr" v="764299" />
	</node>
	<node lat="58.91261389108603" lon="8.643097216697782" id="-25803">
		<tag k="name" v="Nonheidalen" />
		<tag k="natural" v="valley" />
		<tag k="place" v="locality" />
		<tag k="ssr:stedsnr" v="764302" />
	</node>
	<node lat="58.991227777589565" lon="8.471752782439717" id="-25804">
		<tag k="name" v="Kvenhusknatten" />
		<tag k="natural" v="hill" />
		<tag k="place" v="locality" />
		<tag k="ssr:stedsnr" v="773073" />
	</node>
	<node lat="58.92915833206425" lon="8.370877785089178" id="-25807">
		<tag k="name" v="Løklid" />
		<tag k="natural" v="slope" />
		<tag k="place" v="locality" />
		<tag k="ssr:stedsnr" v="773760" />
	</node>
	<node lat="58.959952778310225" lon="8.483788888812406" id="-25809">
		<tag k="name" v="Hellestasteinen" />
		<tag k="place" v="locality" />
		<tag k="ssr:stedsnr" v="774011" />
	</node>
	<node lat="59.01532499987234" lon="8.49356945121264" id="-25810">
		<tag k="name" v="Grishylen" />
		<tag k="place" v="locality" />
		<tag k="ssr:stedsnr" v="774154" />
	</node>
	<node lat="58.94057777463905" lon="8.401147215763618" id="-25811">
		<tag k="name" v="Trolldalen" />
		<tag k="natural" v="valley" />
		<tag k="place" v="locality" />
		<tag k="ssr:stedsnr" v="774304" />
	</node>
	<node lat="58.98682500385577" lon="8.47673333550767" id="-25812">
		<tag k="name" v="Dukane" />
		<tag k="place" v="locality" />
		<tag k="ssr:stedsnr" v="774056" />
	</node>
	<node lat="59.24653332923383" lon="8.43485555636132" id="-25815">
		<tag k="name" v="Lofthusmoen" />
		<tag k="place" v="locality" />
		<tag k="ssr:stedsnr" v="775119" />
	</node>
	<node lat="59.184916670557215" lon="8.340205559291151" id="-25822">
		<tag k="name" v="Myrbuheia" />
		<tag k="natural" v="hill" />
		<tag k="place" v="locality" />
		<tag k="ssr:stedsnr" v="775818" />
	</node>
	<node lat="59.17867221960917" lon="8.463952774568305" id="-25825">
		<tag k="name" v="Reinsmosåsen" />
		<tag k="natural" v="hill" />
		<tag k="place" v="locality" />
		<tag k="ssr:stedsnr" v="775557" />
	</node>
	<node lat="59.15508889123838" lon="8.349125007708109" id="-25826">
		<tag k="name" v="Vehuskollen" />
		<tag k="place" v="locality" />
		<tag k="ssr:stedsnr" v="775559" />
	</node>
	<node lat="59.17521666575463" lon="8.448975002678543" id="-25827">
		<tag k="name" v="Geiteryggen" />
		<tag k="natural" v="ridge" />
		<tag k="place" v="locality" />
		<tag k="ssr:stedsnr" v="775560" />
	</node>
	<node lat="59.148005556132766" lon="8.348994450417862" id="-25828">
		<tag k="name" v="Vehuslia" />
		<tag k="natural" v="slope" />
		<tag k="place" v="locality" />
		<tag k="ssr:stedsnr" v="775561" />
	</node>
	<node lat="59.111430559678894" lon="8.319483324667036" id="-25831">
		<tag k="name" v="Hågstøylhelleren" />
		<tag k="place" v="locality" />
		<tag k="ssr:stedsnr" v="775769" />
	</node>
	<node lat="59.10921667003845" lon="8.425224999473059" id="-25832">
		<tag k="name" v="Grønstemoen" />
		<tag k="place" v="locality" />
		<tag k="ssr:stedsnr" v="775960" />
	</node>
	<node lat="59.11747221956653" lon="8.389655556515768" id="-25833">
		<tag k="name" v="Trøyborgkollen" />
		<tag k="natural" v="hill" />
		<tag k="place" v="locality" />
		<tag k="ssr:stedsnr" v="775969" />
	</node>
	<node lat="59.239886110464354" lon="8.445672218365848" id="-25836">
		<tag k="name" v="Eldsmyrdalen" />
		<tag k="natural" v="valley" />
		<tag k="place" v="locality" />
		<tag k="ssr:stedsnr" v="776206" />
	</node>
	<node lat="59.04857778048274" lon="8.631472224962264" id="-25839">
		<tag k="name" v="Skogbulia" />
		<tag k="natural" v="slope" />
		<tag k="place" v="locality" />
		<tag k="ssr:stedsnr" v="776556" />
	</node>
	<node lat="59.12329444231751" lon="8.645430564072822" id="-25841">
		<tag k="name" v="Bjønndalen" />
		<tag k="natural" v="valley" />
		<tag k="place" v="locality" />
		<tag k="ssr:stedsnr" v="776301" />
	</node>
	<node lat="59.1148055561745" lon="8.438986116976299" id="-25843">
		<tag k="fixme" v="consider natural=peak for the most distinct mountains in the district" />
		<tag k="name" v="Krakkemyrkollane" />
		<tag k="natural" v="hill" />
		<tag k="place" v="locality" />
		<tag k="ssr:stedsnr" v="911185" />
	</node>
	<node lat="58.986480557331426" lon="8.655975007077833" id="-25844">
		<tag k="alt_name" v="Raudstøylknatten" />
		<tag k="name" v="Raustøylknatten" />
		<tag k="natural" v="hill" />
		<tag k="place" v="locality" />
		<tag k="ssr:stedsnr" v="911279" />
	</node>
	<node lat="58.965449998266784" lon="8.48859166255092" id="-25848">
		<tag k="fixme" v="consider natural=peak for the most distinct mountains in the district" />
		<tag k="name" v="Espekorheia" />
		<tag k="natural" v="hill" />
		<tag k="place" v="locality" />
		<tag k="ssr:stedsnr" v="911381" />
	</node>
	<node lat="58.92467222153637" lon="8.722024999961754" id="-25849">
		<tag k="alt_name" v="Havrefjellet" />
		<tag k="fixme" v="consider natural=peak for the most distinct mountains in the district" />
		<tag k="name" v="Havrefjell" />
		<tag k="natural" v="hill" />
		<tag k="old_name" v="Havre-fjellet" />
		<tag k="place" v="locality" />
		<tag k="ssr:stedsnr" v="911394" />
	</node>
	<node lat="58.90173888517841" lon="8.667549996471294" id="-25851">
		<tag k="alt_name" v="Ramsefjell" />
		<tag k="fixme" v="consider natural=peak for the most distinct mountains in the district" />
		<tag k="name" v="Ramsefjellet" />
		<tag k="natural" v="hill" />
		<tag k="place" v="locality" />
		<tag k="ssr:stedsnr" v="911479" />
	</node>
	<node lat="58.90809166360024" lon="8.674399992461401" id="-25857">
		<tag k="alt_name" v="Ratebuknatten" />
		<tag k="name" v="Ratbuknatten" />
		<tag k="natural" v="hill" />
		<tag k="place" v="locality" />
		<tag k="ssr:stedsnr" v="911494" />
	</node>
	<node lat="58.907105559351855" lon="8.817261117229107" id="-25859">
		<tag k="fixme" v="consider natural=peak for the most distinct mountains in the district" />
		<tag k="name" v="Moskam" />
		<tag k="natural" v="hill" />
		<tag k="place" v="locality" />
		<tag k="ssr:stedsnr" v="911499" />
	</node>
	<node lat="58.96891944694125" lon="8.47239999947645" id="-25860">
		<tag k="name" v="Merrdalen" />
		<tag k="natural" v="valley" />
		<tag k="place" v="locality" />
		<tag k="ssr:stedsnr" v="789257" />
	</node>
	<node lat="59.05238333343468" lon="8.565577780065416" id="-25868">
		<tag k="alt_name" v="Løkjelifjell" />
		<tag k="fixme" v="consider natural=peak for the most distinct mountains in the district" />
		<tag k="name" v="Løkjelifjellet" />
		<tag k="natural" v="hill" />
		<tag k="place" v="locality" />
		<tag k="ssr:stedsnr" v="911573" />
	</node>
	<node lat="58.88816389192145" lon="8.75203610986749" id="-25869">
		<tag k="fixme" v="consider natural=peak for the most distinct mountains in the district" />
		<tag k="name" v="Kalvåsen" />
		<tag k="natural" v="hill" />
		<tag k="place" v="locality" />
		<tag k="ssr:stedsnr" v="789712" />
	</node>
	<node lat="58.95387499799403" lon="8.393655547934332" id="-25873">
		<tag k="name" v="Ulvsdalen" />
		<tag k="natural" v="valley" />
		<tag k="place" v="locality" />
		<tag k="ssr:stedsnr" v="789918" />
	</node>
	<node lat="59.22268888466042" lon="8.313316675114962" id="-25874">
		<tag k="name" v="Lytingsdalen" />
		<tag k="natural" v="valley" />
		<tag k="place" v="locality" />
		<tag k="ssr:stedsnr" v="790049" />
	</node>
	<node lat="59.16970278051606" lon="8.410450007895783" id="-25876">
		<tag k="fixme" v="consider natural=peak for the most distinct mountains in the district" />
		<tag k="name" v="Golten" />
		<tag k="natural" v="hill" />
		<tag k="place" v="locality" />
		<tag k="ssr:stedsnr" v="790098" />
	</node>
	<node lat="58.99848888796408" lon="8.724055563824917" id="-25877">
		<tag k="name" v="Seten" />
		<tag k="place" v="locality" />
		<tag k="ssr:stedsnr" v="790251" />
	</node>
	<node lat="59.11453611340854" lon="8.533169450653283" id="-25878">
		<tag k="name" v="Bjørndalen" />
		<tag k="natural" v="valley" />
		<tag k="place" v="locality" />
		<tag k="ssr:stedsnr" v="790254" />
	</node>
	<node lat="58.918524996318666" lon="8.481677786374826" id="-25881">
		<tag k="alt_name" v="Bjønneknatten" />
		<tag k="fixme" v="consider natural=peak for the most distinct mountains in the district" />
		<tag k="name" v="Bjørnhiknatten" />
		<tag k="natural" v="hill" />
		<tag k="place" v="locality" />
		<tag k="ssr:stedsnr" v="911419" />
	</node>
	<node lat="58.94080555146826" lon="8.684036112676822" id="-25882">
		<tag k="alt_name" v="Bjørnli" />
		<tag k="name" v="Bjønnli" />
		<tag k="natural" v="slope" />
		<tag k="place" v="locality" />
		<tag k="ssr:stedsnr" v="911423" />
	</node>
	<node lat="59.1151166705255" lon="8.371494448753904" id="-25886">
		<tag k="alt_name" v="Fjellstøylheia" />
		<tag k="name" v="Fjellstølheii" />
		<tag k="natural" v="hill" />
		<tag k="place" v="locality" />
		<tag k="ssr:stedsnr" v="790111" />
	</node>
	<node lat="58.950666668257064" lon="8.732124996604446" id="-25887">
		<tag k="fixme" v="consider natural=peak for the most distinct mountains in the district" />
		<tag k="name" v="Nyslåttheia" />
		<tag k="natural" v="hill" />
		<tag k="place" v="locality" />
		<tag k="ssr:stedsnr" v="911441" />
	</node>
	<node lat="58.939869447649144" lon="8.515916664990888" id="-25889">
		<tag k="alt_name" v="Strandkollen" />
		<tag k="name" v="Strondkollen" />
		<tag k="natural" v="hill" />
		<tag k="place" v="locality" />
		<tag k="ssr:stedsnr" v="911447" />
	</node>
	<node lat="58.94814166496157" lon="8.541891659939196" id="-25890">
		<tag k="name" v="Nesheia" />
		<tag k="natural" v="hill" />
		<tag k="place" v="locality" />
		<tag k="ssr:stedsnr" v="790297" />
	</node>
	<node lat="58.904700002353366" lon="8.791636117395168" id="-25893">
		<tag k="name" v="Busetheia" />
		<tag k="natural" v="hill" />
		<tag k="place" v="locality" />
		<tag k="ssr:stedsnr" v="790459" />
	</node>
	<node lat="58.97730000075195" lon="8.36074999764916" id="-25911">
		<tag k="alt_name" v="Hakkorn" />
		<tag k="name" v="Hakkekoren" />
		<tag k="place" v="locality" />
		<tag k="ssr:stedsnr" v="911892" />
	</node>
	<node lat="59.042691668644366" lon="8.43928889010012" id="-25920">
		<tag k="name" v="Svibudalen" />
		<tag k="natural" v="valley" />
		<tag k="place" v="locality" />
		<tag k="ssr:stedsnr" v="912252" />
	</node>
	<node lat="59.03235833194307" lon="8.542433325209112" id="-25924">
		<tag k="fixme" v="consider natural=peak for the most distinct mountains in the district" />
		<tag k="name" v="Husfjell" />
		<tag k="natural" v="hill" />
		<tag k="place" v="locality" />
		<tag k="ssr:stedsnr" v="912552" />
	</node>
	<node lat="59.11391666697257" lon="8.525674998302296" id="-25936">
		<tag k="name" v="Mjågeto" />
		<tag k="natural" v="valley" />
		<tag k="place" v="locality" />
		<tag k="ssr:stedsnr" v="912685" />
	</node>
	<node lat="59.22258333505662" lon="8.52514999490005" id="-25940">
		<tag k="alt_name" v="Tafjell" />
		<tag k="fixme" v="consider natural=peak for the most distinct mountains in the district" />
		<tag k="name" v="Tofjell" />
		<tag k="natural" v="hill" />
		<tag k="place" v="locality" />
		<tag k="ssr:stedsnr" v="912940" />
	</node>
	<node lat="59.25255277365236" lon="8.46625555425727" id="-25943">
		<tag k="alt_name" v="Skaggjen" />
		<tag k="fixme" v="consider natural=peak for the most distinct mountains in the district" />
		<tag k="name" v="Skaggen" />
		<tag k="natural" v="hill" />
		<tag k="place" v="locality" />
		<tag k="ssr:stedsnr" v="913065" />
	</node>
	<node lat="59.22064722477832" lon="8.531411117565048" id="-25944">
		<tag k="name" v="Langtodalen" />
		<tag k="natural" v="valley" />
		<tag k="place" v="locality" />
		<tag k="ssr:stedsnr" v="821603" />
	</node>
	<node lat="59.16718333767144" lon="8.558619449873454" id="-25950">
		<tag k="name" v="Krokstein" />
		<tag k="place" v="locality" />
		<tag k="ssr:stedsnr" v="821715" />
	</node>
	<node lat="59.17385000292655" lon="8.573691673599338" id="-25952">
		<tag k="name" v="Bukkto" />
		<tag k="natural" v="slope" />
		<tag k="place" v="locality" />
		<tag k="ssr:stedsnr" v="821840" />
	</node>
	<node lat="59.209844441759685" lon="8.593405554953058" id="-25953">
		<tag k="name" v="Jåmtveitlia" />
		<tag k="natural" v="slope" />
		<tag k="place" v="locality" />
		<tag k="ssr:stedsnr" v="821921" />
	</node>
	<node lat="59.1674722201283" lon="8.550402776275874" id="-25954">
		<tag k="name" v="Stormyrbakken" />
		<tag k="natural" v="slope" />
		<tag k="place" v="locality" />
		<tag k="ssr:stedsnr" v="821974" />
	</node>
	<node lat="59.20677222381369" lon="8.535202772168006" id="-25959">
		<tag k="name" v="Høykleiv" />
		<tag k="natural" v="slope" />
		<tag k="place" v="locality" />
		<tag k="ssr:stedsnr" v="822578" />
	</node>
	<node lat="58.99929999990186" lon="8.602502777566748" id="-25963">
		<tag k="name" v="Trongslidalen" />
		<tag k="natural" v="gorge" />
		<tag k="ssr:stedsnr" v="822884" />
	</node>
	<node lat="58.98812777836555" lon="8.594902782418151" id="-25964">
		<tag k="fixme" v="consider natural=peak for the most distinct mountains in the district" />
		<tag k="name" v="Nutkollen" />
		<tag k="natural" v="hill" />
		<tag k="place" v="locality" />
		<tag k="ssr:stedsnr" v="823268" />
	</node>
	<node lat="59.03224167083587" lon="8.510669438704927" id="-25969">
		<tag k="name" v="Åkrok-kollen" />
		<tag k="natural" v="hill" />
		<tag k="place" v="locality" />
		<tag k="ssr:stedsnr" v="823813" />
	</node>
	<node lat="58.983361113732236" lon="8.690400001742141" id="-25971">
		<tag k="name" v="Halvfarkleiva" />
		<tag k="natural" v="slope" />
		<tag k="place" v="locality" />
		<tag k="ssr:stedsnr" v="824025" />
	</node>
	<node lat="59.02691944106992" lon="8.54263610772834" id="-25973">
		<tag k="name" v="Hestedalen" />
		<tag k="natural" v="valley" />
		<tag k="place" v="locality" />
		<tag k="ssr:stedsnr" v="823772" />
	</node>
	<node lat="59.01024444757007" lon="8.676747214164822" id="-25977">
		<tag k="name" v="Breivasslia" />
		<tag k="natural" v="slope" />
		<tag k="place" v="locality" />
		<tag k="ssr:stedsnr" v="824315" />
	</node>
	<node lat="58.99999444889259" lon="8.621872215406931" id="-25979">
		<tag k="name" v="Skiphomlia" />
		<tag k="natural" v="slope" />
		<tag k="place" v="locality" />
		<tag k="ssr:stedsnr" v="824324" />
	</node>
	<node lat="58.88178610926497" lon="8.73562222026096" id="-25983">
		<tag k="name" v="Mjåvasskleiva" />
		<tag k="natural" v="slope" />
		<tag k="place" v="locality" />
		<tag k="ssr:stedsnr" v="824299" />
	</node>
	<node lat="58.90498888967771" lon="8.730699998828278" id="-25984">
		<tag k="name" v="Urdalen" />
		<tag k="natural" v="gorge" />
		<tag k="ssr:stedsnr" v="824414" />
	</node>
	<node lat="58.9523777799169" lon="8.655466669892268" id="-25985">
		<tag k="name" v="Ertekneppliane" />
		<tag k="natural" v="slope" />
		<tag k="place" v="locality" />
		<tag k="ssr:stedsnr" v="824618" />
	</node>
	<node lat="58.91737222652442" lon="8.75816110620578" id="-25987">
		<tag k="fixme" v="consider natural=peak for the most distinct mountains in the district" />
		<tag k="name" v="Feleknatten" />
		<tag k="natural" v="hill" />
		<tag k="place" v="locality" />
		<tag k="ssr:stedsnr" v="825064" />
	</node>
	<node lat="58.918841669143475" lon="8.786836115296962" id="-25988">
		<tag k="name" v="Galtedalstona" />
		<tag k="natural" v="slope" />
		<tag k="place" v="locality" />
		<tag k="ssr:stedsnr" v="825075" />
	</node>
	<node lat="58.889408337524536" lon="8.673383335015178" id="-25989">
		<tag k="name" v="Djupedalsheia" />
		<tag k="natural" v="hill" />
		<tag k="place" v="locality" />
		<tag k="ssr:stedsnr" v="825076" />
	</node>
	<node lat="58.94311666897988" lon="8.670488891348812" id="-25990">
		<tag k="name" v="Eilevsmyrheia" />
		<tag k="natural" v="hill" />
		<tag k="place" v="locality" />
		<tag k="ssr:stedsnr" v="825380" />
	</node>
	<node lat="58.871411110965184" lon="8.731513882986924" id="-25992">
		<tag k="name" v="Den turre eikelia" />
		<tag k="natural" v="slope" />
		<tag k="place" v="locality" />
		<tag k="ssr:stedsnr" v="825215" />
	</node>
	<node lat="58.90007221974989" lon="8.765280558577722" id="-25994">
		<tag k="fixme" v="consider natural=peak for the most distinct mountains in the district" />
		<tag k="name" v="Brunåsane" />
		<tag k="natural" v="hill" />
		<tag k="place" v="locality" />
		<tag k="ssr:stedsnr" v="825270" />
	</node>
	<node lat="58.89213889085098" lon="8.646330554842955" id="-25996">
		<tag k="name" v="Lonneleiklia" />
		<tag k="natural" v="slope" />
		<tag k="place" v="locality" />
		<tag k="ssr:stedsnr" v="825819" />
	</node>
	<node lat="58.94699721878681" lon="8.725105558124854" id="-25997">
		<tag k="name" v="Lisle Skomdalen" />
		<tag k="natural" v="valley" />
		<tag k="place" v="locality" />
		<tag k="ssr:stedsnr" v="825969" />
	</node>
	<node lat="58.91907778114826" lon="8.732872224697333" id="-25999">
		<tag k="name" v="Tempelen" />
		<tag k="place" v="locality" />
		<tag k="ssr:stedsnr" v="825978" />
	</node>
	<node lat="58.919388888443216" lon="8.44599166310432" id="-26001">
		<tag k="name" v="Kruskefurdalen" />
		<tag k="natural" v="valley" />
		<tag k="place" v="locality" />
		<tag k="ssr:stedsnr" v="228692" />
	</node>
	<node lat="58.982563888875596" lon="8.45672222712089" id="-26003">
		<tag k="name" v="Lyngstadlifjell" />
		<tag k="natural" v="hill" />
		<tag k="place" v="locality" />
		<tag k="ssr:stedsnr" v="827075" />
	</node>
	<node lat="59.03066666387978" lon="8.450986105145457" id="-26004">
		<tag k="name" v="Spikelive" />
		<tag k="place" v="locality" />
		<tag k="ssr:stedsnr" v="835225" />
	</node>
	<node lat="59.22244722440299" lon="8.290155562147598" id="-26007">
		<tag k="name" v="Flåttefjellet" />
		<tag k="natural" v="hill" />
		<tag k="place" v="locality" />
		<tag k="ssr:stedsnr" v="836131" />
	</node>
	<node lat="59.169986110723144" lon="8.674141669803344" id="-26014">
		<tag k="name" v="Kåvdalen" />
		<tag k="natural" v="valley" />
		<tag k="place" v="locality" />
		<tag k="ssr:stedsnr" v="836576" />
	</node>
	<node lat="59.16599722653906" lon="8.683827774815812" id="-26015">
		<tag k="name" v="Grønli" />
		<tag k="natural" v="slope" />
		<tag k="place" v="locality" />
		<tag k="ssr:stedsnr" v="836578" />
	</node>
	<node lat="59.169480556806924" lon="8.684363885409544" id="-26016">
		<tag k="name" v="Grønlihovet" />
		<tag k="natural" v="ridge" />
		<tag k="place" v="locality" />
		<tag k="ssr:stedsnr" v="836580" />
	</node>
	<node lat="59.144230552638064" lon="8.37033055843112" id="-26018">
		<tag k="name" v="Åbølia" />
		<tag k="natural" v="slope" />
		<tag k="place" v="locality" />
		<tag k="ssr:stedsnr" v="836590" />
	</node>
	<node lat="59.03635277354878" lon="8.445072228418802" id="-26021">
		<tag k="name" v="Spranget" />
		<tag k="natural" v="cliff" />
		<tag k="ssr:stedsnr" v="836826" />
	</node>
	<node lat="58.91968610739309" lon="8.798336114083883" id="-26030">
		<tag k="fixme" v="consider natural=peak for the most distinct mountains in the district" />
		<tag k="name" v="Hundefjell" />
		<tag k="natural" v="hill" />
		<tag k="place" v="locality" />
		<tag k="ssr:stedsnr" v="850405" />
	</node>
	<node lat="58.895255559117025" lon="8.645969449205971" id="-26034">
		<tag k="name" v="Fiskebekkheia" />
		<tag k="natural" v="hill" />
		<tag k="place" v="locality" />
		<tag k="ssr:stedsnr" v="850483" />
	</node>
	<node lat="58.980633335279656" lon="8.416325006643875" id="-26035">
		<tag k="name" v="Støyldalen" />
		<tag k="natural" v="valley" />
		<tag k="place" v="locality" />
		<tag k="ssr:stedsnr" v="850903" />
	</node>
	<node lat="58.91141111203652" lon="8.39887777504932" id="-26036">
		<tag k="alt_name" v="Uvdalsfjell" />
		<tag k="fixme" v="consider natural=peak for the most distinct mountains in the district" />
		<tag k="name" v="Uvdalsfjella" />
		<tag k="natural" v="hill" />
		<tag k="place" v="locality" />
		<tag k="ssr:stedsnr" v="850985" />
	</node>
	<node lat="59.189663890512676" lon="8.461638888300131" id="-26037">
		<tag k="fixme" v="consider natural=peak for the most distinct mountains in the district" />
		<tag k="name" v="Kvithammar" />
		<tag k="natural" v="hill" />
		<tag k="place" v="locality" />
		<tag k="ssr:stedsnr" v="851074" />
	</node>
	<node lat="59.02743888450465" lon="8.392655554935935" id="-26040">
		<tag k="alt_name" v="Skulhomfjellet" />
		<tag k="fixme" v="consider natural=peak for the most distinct mountains in the district" />
		<tag k="name" v="Skulehomfjellet" />
		<tag k="natural" v="hill" />
		<tag k="place" v="locality" />
		<tag k="ssr:stedsnr" v="851218" />
	</node>
	<node lat="58.95705000048622" lon="8.618913894906843" id="-26041">
		<tag k="name" v="Bjørndalen" />
		<tag k="natural" v="valley" />
		<tag k="place" v="locality" />
		<tag k="ssr:stedsnr" v="851309" />
	</node>
	<node lat="58.95754444511549" lon="8.665500006376565" id="-26042">
		<tag k="fixme" v="consider natural=peak for the most distinct mountains in the district" />
		<tag k="name" v="Steanfjell" />
		<tag k="natural" v="hill" />
		<tag k="place" v="locality" />
		<tag k="ssr:stedsnr" v="851312" />
	</node>
	<node lat="58.98744999828369" lon="8.635508341739966" id="-26044">
		<tag k="name" v="Myhankdalen" />
		<tag k="natural" v="valley" />
		<tag k="place" v="locality" />
		<tag k="ssr:stedsnr" v="851273" />
	</node>
	<node lat="58.91489444357107" lon="8.821763890263716" id="-26045">
		<tag k="alt_name" v="Matnappdalen" />
		<tag k="name" v="Matknappdalen" />
		<tag k="natural" v="valley" />
		<tag k="place" v="locality" />
		<tag k="ssr:stedsnr" v="851472" />
	</node>
	<node lat="59.033025001366184" lon="8.670036114418842" id="-26048">
		<tag k="fixme" v="consider natural=peak for the most distinct mountains in the district" />
		<tag k="name" v="Eivindsli" />
		<tag k="natural" v="hill" />
		<tag k="place" v="locality" />
		<tag k="ssr:stedsnr" v="851490" />
	</node>
	<node lat="58.95215000393688" lon="8.379899991574273" id="-26052">
		<tag k="alt_name" v="Ulvsdalsheia" />
		<tag k="fixme" v="consider natural=peak for the most distinct mountains in the district" />
		<tag k="name" v="Ulvsdalsfjellet" />
		<tag k="natural" v="hill" />
		<tag k="place" v="locality" />
		<tag k="ssr:stedsnr" v="851920" />
	</node>
	<node lat="59.11150278050534" lon="8.645238889255785" id="-26055">
		<tag k="alt_name" v="Novarden" />
		<tag k="fixme" v="consider natural=peak for the most distinct mountains in the district" />
		<tag k="name" v="Nåvarden" />
		<tag k="natural" v="hill" />
		<tag k="place" v="locality" />
		<tag k="ssr:stedsnr" v="851674" />
	</node>
	<node lat="58.98958333431185" lon="8.44422500141616" id="-26056">
		<tag k="fixme" v="consider natural=peak for the most distinct mountains in the district" />
		<tag k="name" v="Sprangheia" />
		<tag k="natural" v="hill" />
		<tag k="place" v="locality" />
		<tag k="ssr:stedsnr" v="851885" />
	</node>
	<node lat="59.21961389245171" lon="8.62094444901199" id="-26058">
		<tag k="fixme" v="consider natural=peak for the most distinct mountains in the district" />
		<tag k="name" v="Flokliknattane" />
		<tag k="natural" v="hill" />
		<tag k="place" v="locality" />
		<tag k="ssr:stedsnr" v="851892" />
	</node>
	<node lat="59.175866663575434" lon="8.613027777507833" id="-26064">
		<tag k="fixme" v="consider natural=peak for the most distinct mountains in the district" />
		<tag k="name" v="Nystøylkleivane" />
		<tag k="natural" v="hill" />
		<tag k="place" v="locality" />
		<tag k="ssr:stedsnr" v="852772" />
	</node>
	<node lat="59.16558055280582" lon="8.592597218161172" id="-26069">
		<tag k="name" v="Sylvtjønnristene" />
		<tag k="natural" v="hill" />
		<tag k="place" v="locality" />
		<tag k="ssr:stedsnr" v="882798" />
	</node>
	<node lat="59.228661110782554" lon="8.575213882420254" id="-26070">
		<tag k="name" v="Rykkjeli" />
		<tag k="natural" v="slope" />
		<tag k="place" v="locality" />
		<tag k="ssr:stedsnr" v="882914" />
	</node>
	<node lat="58.99790555376232" lon="8.620572225253293" id="-26078">
		<tag k="name" v="Skiphomdalen" />
		<tag k="natural" v="valley" />
		<tag k="place" v="locality" />
		<tag k="ssr:stedsnr" v="884249" />
	</node>
	<node lat="58.898424999113395" lon="8.727408334040689" id="-26088">
		<tag k="name" v="Murtedalen" />
		<tag k="natural" v="valley" />
		<tag k="place" v="locality" />
		<tag k="ssr:stedsnr" v="885398" />
	</node>
	<node lat="58.9628833355309" lon="8.620719441656" id="-26091">
		<tag k="name" v="Vondedalen" />
		<tag k="natural" v="valley" />
		<tag k="place" v="locality" />
		<tag k="ssr:stedsnr" v="885625" />
	</node>
	<node lat="58.90377777972349" lon="8.653391673100618" id="-26092">
		<tag k="fixme" v="consider natural=peak for the most distinct mountains in the district" />
		<tag k="name" v="Eikeliknatten" />
		<tag k="natural" v="hill" />
		<tag k="place" v="locality" />
		<tag k="ssr:stedsnr" v="885809" />
	</node>
	<node lat="58.908099998911986" lon="8.70756667314453" id="-26093">
		<tag k="name" v="Sondagshola" />
		<tag k="natural" v="valley" />
		<tag k="place" v="locality" />
		<tag k="ssr:stedsnr" v="885951" />
	</node>
	<node lat="58.9141416677751" lon="8.77605554919018" id="-26095">
		<tag k="name" v="Grimustjønn-heia" />
		<tag k="natural" v="hill" />
		<tag k="place" v="locality" />
		<tag k="ssr:stedsnr" v="886059" />
	</node>
	<node lat="58.98794444873968" lon="8.450733332090316" id="-26096">
		<tag k="name" v="Støyldalsmoen" />
		<tag k="place" v="locality" />
		<tag k="ssr:stedsnr" v="887061" />
	</node>
	<node lat="59.13351111428957" lon="8.363663896922189" id="-26099">
		<tag k="name" v="Fjellmellom" />
		<tag k="natural" v="valley" />
		<tag k="place" v="locality" />
		<tag k="ssr:stedsnr" v="894580" />
	</node>
	<node lat="59.10199722615279" lon="8.382725001413364" id="-26100">
		<tag k="name" v="Skardalen" />
		<tag k="natural" v="valley" />
		<tag k="place" v="locality" />
		<tag k="ssr:stedsnr" v="894681" />
	</node>
	<node lat="58.934088886713525" lon="8.342136108505063" id="-26102">
		<tag k="name" v="Hanekamskotet" />
		<tag k="place" v="locality" />
		<tag k="ssr:stedsnr" v="895769" />
	</node>
	<node lat="59.018675001182324" lon="8.62661388924417" id="-26104">
		<tag k="name" v="Eileivstjønnkollen" />
		<tag k="natural" v="hill" />
		<tag k="place" v="locality" />
		<tag k="ssr:stedsnr" v="896164" />
	</node>
	<node lat="59.01488332982585" lon="8.613688886255412" id="-26106">
		<tag k="name" v="Klovet" />
		<tag k="natural" v="gorge" />
		<tag k="ssr:stedsnr" v="896182" />
	</node>
	<node lat="59.011138885646815" lon="8.474113884561392" id="-26108">
		<tag k="fixme" v="consider natural=peak for the most distinct mountains in the district" />
		<tag k="name" v="Øyufshaugane" />
		<tag k="natural" v="hill" />
		<tag k="place" v="locality" />
		<tag k="ssr:stedsnr" v="896270" />
	</node>
	<node lat="59.00834167043169" lon="8.481763892685573" id="-26109">
		<tag k="name" v="Svarfjelldalen" />
		<tag k="natural" v="valley" />
		<tag k="place" v="locality" />
		<tag k="ssr:stedsnr" v="896272" />
	</node>
	<node lat="59.145774997926516" lon="8.458794451038234" id="-26110">
		<tag k="name" v="Den ronde hola" />
		<tag k="place" v="locality" />
		<tag k="ssr:stedsnr" v="896409" />
	</node>
	<node lat="59.068555558742254" lon="8.472811104446507" id="-26120">
		<tag k="name" v="Klova" />
		<tag k="place" v="locality" />
		<tag k="ssr:stedsnr" v="897520" />
	</node>
	<node lat="59.19848889253947" lon="8.455455550071493" id="-26125">
		<tag k="name" v="Sandvikliane" />
		<tag k="natural" v="slope" />
		<tag k="place" v="locality" />
		<tag k="ssr:stedsnr" v="897670" />
	</node>
	<node lat="59.173366665807414" lon="8.312750007280936" id="-26127">
		<tag k="name" v="Roleghola" />
		<tag k="natural" v="valley" />
		<tag k="place" v="locality" />
		<tag k="ssr:stedsnr" v="897813" />
	</node>
	<node lat="58.94708888462533" lon="8.531180556667174" id="-26134">
		<tag k="name" v="Lauvdalen" />
		<tag k="natural" v="valley" />
		<tag k="place" v="locality" />
		<tag k="ssr:stedsnr" v="911337" />
	</node>
	<node lat="58.97071388944557" lon="8.50339999890066" id="-26137">
		<tag k="name" v="Flåkhammar" />
		<tag k="natural" v="hill" />
		<tag k="place" v="locality" />
		<tag k="ssr:stedsnr" v="911273" />
	</node>
	<node lat="59.16528055643581" lon="8.37083888109326" id="-26144">
		<tag k="fixme" v="consider natural=peak for the most distinct mountains in the district" />
		<tag k="name" v="Storfjell" />
		<tag k="natural" v="hill" />
		<tag k="place" v="locality" />
		<tag k="ssr:stedsnr" v="912117" />
	</node>
	<node lat="59.0147444469648" lon="8.483686114314427" id="-26147">
		<tag k="name" v="Branes" />
		<tag k="place" v="locality" />
		<tag k="ssr:stedsnr" v="912490" />
	</node>
	<node lat="59.1293444460848" lon="8.521283335459811" id="-26153">
		<tag k="alt_name" v="Storefjell" />
		<tag k="fixme" v="consider natural=peak for the most distinct mountains in the district" />
		<tag k="name" v="Storfjell" />
		<tag k="natural" v="hill" />
		<tag k="place" v="locality" />
		<tag k="ssr:stedsnr" v="912716" />
	</node>
	<node lat="59.15018611535412" lon="8.65613334165752" id="-26154">
		<tag k="alt_name" v="Espeliheia" />
		<tag k="fixme" v="consider natural=peak for the most distinct mountains in the district" />
		<tag k="name" v="Espeliheii" />
		<tag k="natural" v="hill" />
		<tag k="place" v="locality" />
		<tag k="ssr:stedsnr" v="912723" />
	</node>
	<node lat="59.14677777909599" lon="8.589319452497808" id="-26157">
		<tag k="alt_name" v="Skornetten austre" />
		<tag k="fixme" v="consider natural=peak for the most distinct mountains in the district" />
		<tag k="name" v="Skornetten" />
		<tag k="natural" v="hill" />
		<tag k="place" v="locality" />
		<tag k="ssr:stedsnr" v="912747" />
	</node>
	<node lat="59.11057499865687" lon="8.583602776681277" id="-26158">
		<tag k="name" v="Askorsslåtter" />
		<tag k="place" v="locality" />
		<tag k="ssr:stedsnr" v="912691" />
	</node>
	<node lat="59.18955000358161" lon="8.66133888218396" id="-26160">
		<tag k="name" v="Kalvedalane" />
		<tag k="natural" v="valley" />
		<tag k="place" v="locality" />
		<tag k="ssr:stedsnr" v="912848" />
	</node>
	<node lat="58.98832500448612" lon="8.610713890417129" id="-26173">
		<tag k="fixme" v="consider natural=peak for the most distinct mountains in the district" />
		<tag k="name" v="Heimdalsnuten" />
		<tag k="natural" v="hill" />
		<tag k="place" v="locality" />
		<tag k="ssr:stedsnr" v="945237" />
	</node>
	<node lat="58.98176944876903" lon="8.679588889591477" id="-26176">
		<tag k="name" v="Åkerdalen" />
		<tag k="natural" v="valley" />
		<tag k="place" v="locality" />
		<tag k="ssr:stedsnr" v="945990" />
	</node>
	<node lat="58.97822222074319" lon="8.632227780640902" id="-26182">
		<tag k="name" v="Det mørke holet" />
		<tag k="natural" v="slope" />
		<tag k="place" v="locality" />
		<tag k="ssr:stedsnr" v="946883" />
	</node>
	<node lat="58.918111110233305" lon="8.738016661845" id="-26185">
		<tag k="name" v="Ribbune" />
		<tag k="natural" v="ridge" />
		<tag k="place" v="locality" />
		<tag k="ssr:stedsnr" v="946982" />
	</node>
	<node lat="58.91948333445361" lon="8.494700000787486" id="-26192">
		<tag k="name" v="Ugledalen" />
		<tag k="natural" v="valley" />
		<tag k="place" v="locality" />
		<tag k="ssr:stedsnr" v="956624" />
	</node>
	<node lat="59.08767500346868" lon="8.363836113003506" id="-26201">
		<tag k="name" v="Helleren" />
		<tag k="place" v="locality" />
		<tag k="ssr:stedsnr" v="957441" />
	</node>
	<node lat="59.1247833320517" lon="8.467588884226043" id="-26202">
		<tag k="name" v="Bjønndalen" />
		<tag k="natural" v="valley" />
		<tag k="place" v="locality" />
		<tag k="ssr:stedsnr" v="957303" />
	</node>
	<node lat="59.08220833763171" lon="8.445636118930127" id="-26205">
		<tag k="name" v="Vardeheia" />
		<tag k="natural" v="hill" />
		<tag k="place" v="locality" />
		<tag k="ssr:stedsnr" v="957487" />
	</node>
	<node lat="59.16903055716199" lon="8.324997215990054" id="-26206">
		<tag k="name" v="Hytta" />
		<tag k="natural" v="slope" />
		<tag k="place" v="locality" />
		<tag k="ssr:stedsnr" v="957851" />
	</node>
	<node lat="59.029725003145835" lon="8.646594451324319" id="-26208">
		<tag k="name" v="Bjønntjønnkollen" />
		<tag k="natural" v="hill" />
		<tag k="place" v="locality" />
		<tag k="ssr:stedsnr" v="958104" />
	</node>
	<node lat="59.065913891344685" lon="8.63577777769347" id="-26211">
		<tag k="name" v="Lofthushelleren" />
		<tag k="place" v="locality" />
		<tag k="ssr:stedsnr" v="958097" />
	</node>
	<node lat="58.92699722521539" lon="8.378344438028263" id="-26215">
		<tag k="name" v="Bjønnhiknatten" />
		<tag k="natural" v="ridge" />
		<tag k="place" v="locality" />
		<tag k="ssr:stedsnr" v="958984" />
	</node>
	<node lat="59.109019446487004" lon="8.4470249936904" id="-26222">
		<tag k="name" v="Storli" />
		<tag k="natural" v="slope" />
		<tag k="place" v="locality" />
		<tag k="ssr:stedsnr" v="229001" />
	</node>
	<node lat="58.98532500406422" lon="8.446725006598403" id="-26236">
		<tag k="name" v="Koren" />
		<tag k="natural" v="valley" />
		<tag k="place" v="locality" />
		<tag k="ssr:stedsnr" v="877" />
	</node>
	<node lat="58.973702780594635" lon="8.355894443229747" id="-26237">
		<tag k="fixme" v="consider natural=peak for the most distinct mountains in the district" />
		<tag k="name" v="Godlifjellet" />
		<tag k="natural" v="hill" />
		<tag k="place" v="locality" />
		<tag k="ssr:stedsnr" v="886" />
	</node>
	<node lat="58.94742499645175" lon="8.475299998155634" id="-26242">
		<tag k="alt_name" v="Øyfjell" />
		<tag k="fixme" v="consider natural=peak for the most distinct mountains in the district" />
		<tag k="name" v="Øyfjellet" />
		<tag k="natural" v="hill" />
		<tag k="place" v="locality" />
		<tag k="ssr:stedsnr" v="1329" />
	</node>
	<node lat="59.0769527746402" lon="8.545930556341359" id="-26246">
		<tag k="alt_name" v="Klyvstøylbakkane" />
		<tag k="name" v="Klyvstøbakkane" />
		<tag k="natural" v="slope" />
		<tag k="place" v="locality" />
		<tag k="ssr:stedsnr" v="1632" />
	</node>
	<node lat="59.094287588403795" lon="8.54801817608795" id="-26253">
		<tag k="fixme" v="consider natural=peak for the most distinct mountains in the district" />
		<tag k="name" v="Sandlinuten" />
		<tag k="natural" v="hill" />
		<tag k="place" v="locality" />
		<tag k="ssr:stedsnr" v="1659" />
	</node>
	<node lat="59.1284361115051" lon="8.678469448286462" id="-26255">
		<tag k="alt_name" v="Trongane" />
		<tag k="name" v="Trongene" />
		<tag k="natural" v="valley" />
		<tag k="place" v="locality" />
		<tag k="ssr:stedsnr" v="1667" />
	</node>
	<node lat="59.19253333373585" lon="8.52846667306386" id="-26259">
		<tag k="name" v="Breiddalen" />
		<tag k="natural" v="valley" />
		<tag k="place" v="locality" />
		<tag k="ssr:stedsnr" v="1848" />
	</node>
	<node lat="59.21413888764906" lon="8.57355833637862" id="-26263">
		<tag k="fixme" v="consider natural=peak for the most distinct mountains in the district" />
		<tag k="name" v="Skarvås" />
		<tag k="natural" v="hill" />
		<tag k="place" v="locality" />
		<tag k="ssr:stedsnr" v="1909" />
	</node>
	<node lat="59.26095833163604" lon="8.388572222372664" id="-26268">
		<tag k="name" v="Grålyngmoen" />
		<tag k="place" v="locality" />
		<tag k="ssr:stedsnr" v="229149" />
	</node>
	<node lat="59.09607627087519" lon="8.387418298619902" id="-26271">
		<tag k="name" v="Jamndokk" />
		<tag k="natural" v="hill" />
		<tag k="place" v="locality" />
		<tag k="ssr:stedsnr" v="2169" />
	</node>
	<node lat="59.01353333419606" lon="8.641697217866623" id="-26274">
		<tag k="name" v="Lauvli" />
		<tag k="natural" v="slope" />
		<tag k="place" v="locality" />
		<tag k="ssr:stedsnr" v="2513" />
	</node>
	<node lat="59.103527775039005" lon="8.594358329542215" id="-26276">
		<tag k="fixme" v="consider natural=peak for the most distinct mountains in the district" />
		<tag k="name" v="Nesdalsnuten" />
		<tag k="natural" v="hill" />
		<tag k="place" v="locality" />
		<tag k="ssr:stedsnr" v="2638" />
	</node>
	<node lat="59.01040555200818" lon="8.395275003765448" id="-26282">
		<tag k="name" v="Kileskre" />
		<tag k="natural" v="valley" />
		<tag k="place" v="locality" />
		<tag k="ssr:stedsnr" v="2966" />
	</node>
	<node lat="58.960280552738126" lon="8.445366670460547" id="-26283">
		<tag k="name" v="Kostuvskare" />
		<tag k="natural" v="valley" />
		<tag k="place" v="locality" />
		<tag k="ssr:stedsnr" v="6048" />
	</node>
	<node lat="58.93978333226413" lon="8.713727769717135" id="-26284">
		<tag k="fixme" v="consider natural=peak for the most distinct mountains in the district" />
		<tag k="name" v="Løytesdalsfjellet" />
		<tag k="natural" v="hill" />
		<tag k="place" v="locality" />
		<tag k="ssr:stedsnr" v="35550" />
	</node>
	<node lat="59.18849999590359" lon="8.574644450303564" id="-26288">
		<tag k="name" v="Syltjønndalane" />
		<tag k="natural" v="valley" />
		<tag k="place" v="locality" />
		<tag k="ssr:stedsnr" v="32573" />
	</node>
	<node lat="59.219402773698015" lon="8.550072219434707" id="-26289">
		<tag k="name" v="Hønestein" />
		<tag k="place" v="locality" />
		<tag k="ssr:stedsnr" v="32580" />
	</node>
	<node lat="59.215388892157016" lon="8.527852769632128" id="-26290">
		<tag k="fixme" v="consider natural=peak for the most distinct mountains in the district" />
		<tag k="name" v="Skogfjellet" />
		<tag k="natural" v="hill" />
		<tag k="place" v="locality" />
		<tag k="ssr:stedsnr" v="32584" />
	</node>
	<node lat="58.964627779031005" lon="8.5076499930367" id="-26292">
		<tag k="fixme" v="consider natural=peak for the most distinct mountains in the district" />
		<tag k="name" v="Espelandsfjellet" />
		<tag k="natural" v="hill" />
		<tag k="place" v="locality" />
		<tag k="ssr:stedsnr" v="33543" />
	</node>
	<node lat="58.96566389239059" lon="8.50318610486512" id="-26294">
		<tag k="name" v="Gonleiksdalen" />
		<tag k="natural" v="valley" />
		<tag k="place" v="locality" />
		<tag k="ssr:stedsnr" v="33546" />
	</node>
	<node lat="59.13126388571678" lon="8.597230548860415" id="-26296">
		<tag k="name" v="Sigridburistene" />
		<tag k="natural" v="ridge" />
		<tag k="place" v="locality" />
		<tag k="ssr:stedsnr" v="32820" />
	</node>
	<node lat="59.13873889100746" lon="8.525722222670131" id="-26297">
		<tag k="name" v="Syftestadliane" />
		<tag k="natural" v="slope" />
		<tag k="place" v="locality" />
		<tag k="ssr:stedsnr" v="32848" />
	</node>
	<node lat="58.975775001561814" lon="8.498488890006119" id="-26302">
		<tag k="name" v="Smådalane" />
		<tag k="natural" v="valley" />
		<tag k="place" v="locality" />
		<tag k="ssr:stedsnr" v="33189" />
	</node>
	<node lat="58.9588722190691" lon="8.599333335989053" id="-26303">
		<tag k="name" v="Eiketona" />
		<tag k="place" v="locality" />
		<tag k="ssr:stedsnr" v="33146" />
	</node>
	<node lat="59.03449166354208" lon="8.551466661984668" id="-26304">
		<tag k="name" v="Klypetjønndalen" />
		<tag k="natural" v="valley" />
		<tag k="place" v="locality" />
		<tag k="ssr:stedsnr" v="33598" />
	</node>
	<node lat="59.00804721879988" lon="8.64481389573161" id="-26320">
		<tag k="name" v="Laulihelleren" />
		<tag k="place" v="locality" />
		<tag k="ssr:stedsnr" v="34191" />
	</node>
	<node lat="59.03366388741318" lon="8.56720556057667" id="-26321">
		<tag k="name" v="Småtjønnheikollen" />
		<tag k="natural" v="hill" />
		<tag k="place" v="locality" />
		<tag k="ssr:stedsnr" v="34151" />
	</node>
	<node lat="59.00749444434914" lon="8.619469441672882" id="-26323">
		<tag k="fixme" v="consider natural=peak for the most distinct mountains in the district" />
		<tag k="name" v="Vatningsnuten" />
		<tag k="natural" v="hill" />
		<tag k="place" v="locality" />
		<tag k="ssr:stedsnr" v="34229" />
	</node>
	<node lat="58.925777773688125" lon="8.585608324950712" id="-26324">
		<tag k="name" v="Valefjell" />
		<tag k="natural" v="hill" />
		<tag k="place" v="locality" />
		<tag k="ssr:stedsnr" v="34233" />
	</node>
	<node lat="58.87144722009928" lon="8.713744449221412" id="-26326">
		<tag k="name" v="Østre Halvfardalen" />
		<tag k="natural" v="valley" />
		<tag k="place" v="locality" />
		<tag k="ssr:stedsnr" v="35137" />
	</node>
	<node lat="58.92485555601061" lon="8.537441666386647" id="-26327">
		<tag k="name" v="Langmodalen" />
		<tag k="natural" v="valley" />
		<tag k="place" v="locality" />
		<tag k="ssr:stedsnr" v="34323" />
	</node>
	<node lat="59.028661112405004" lon="8.533955560290485" id="-26330">
		<tag k="name" v="Holen" />
		<tag k="natural" v="valley" />
		<tag k="place" v="locality" />
		<tag k="ssr:stedsnr" v="34837" />
	</node>
	<node lat="58.98898611153553" lon="8.618216674173581" id="-26333">
		<tag k="name" v="Seten" />
		<tag k="place" v="locality" />
		<tag k="ssr:stedsnr" v="35193" />
	</node>
	<node lat="58.9865916632127" lon="8.65900277340517" id="-26334">
		<tag k="name" v="Ormdalen" />
		<tag k="natural" v="valley" />
		<tag k="place" v="locality" />
		<tag k="ssr:stedsnr" v="35199" />
	</node>
	<node lat="58.89850000150004" lon="8.76534999652773" id="-26338">
		<tag k="name" v="Trogdalen" />
		<tag k="natural" v="valley" />
		<tag k="place" v="locality" />
		<tag k="ssr:stedsnr" v="35388" />
	</node>
	<node lat="58.90057777934539" lon="8.764141662692165" id="-26339">
		<tag k="name" v="Slokdalen" />
		<tag k="natural" v="valley" />
		<tag k="place" v="locality" />
		<tag k="ssr:stedsnr" v="35389" />
	</node>
	<node lat="58.90031666912623" lon="8.760772223343317" id="-26340">
		<tag k="name" v="Bråta" />
		<tag k="natural" v="slope" />
		<tag k="place" v="locality" />
		<tag k="ssr:stedsnr" v="35391" />
	</node>
	<node lat="58.877255558482055" lon="8.72413333428388" id="-26341">
		<tag k="name" v="Ørnefjellet" />
		<tag k="natural" v="hill" />
		<tag k="place" v="locality" />
		<tag k="ssr:stedsnr" v="35309" />
	</node>
	<node lat="58.92025555552263" lon="8.676102777706674" id="-26346">
		<tag k="name" v="Styggedal" />
		<tag k="natural" v="valley" />
		<tag k="place" v="locality" />
		<tag k="ssr:stedsnr" v="35976" />
	</node>
	<node lat="59.19415833687086" lon="8.611683326299696" id="-26348">
		<tag k="name" v="Krosskjarr" />
		<tag k="natural" v="valley" />
		<tag k="place" v="locality" />
		<tag k="ssr:stedsnr" v="36100" />
	</node>
	<node lat="58.8536777780803" lon="8.712125001652126" id="-26350">
		<tag k="name" v="Solhallane" />
		<tag k="natural" v="hill" />
		<tag k="place" v="locality" />
		<tag k="ssr:stedsnr" v="36338" />
	</node>
	<node lat="58.98906666298168" lon="8.42781110625016" id="-26353">
		<tag k="name" v="Gloppheia" />
		<tag k="natural" v="hill" />
		<tag k="place" v="locality" />
		<tag k="ssr:stedsnr" v="44350" />
	</node>
	<node lat="59.13035277916738" lon="8.3719277777823" id="-26358">
		<tag k="name" v="Nipedalen" />
		<tag k="natural" v="valley" />
		<tag k="place" v="locality" />
		<tag k="ssr:stedsnr" v="45534" />
	</node>
	<node lat="59.15214999735095" lon="8.383433331140969" id="-26359">
		<tag k="name" v="Fjalestaddalane" />
		<tag k="natural" v="valley" />
		<tag k="place" v="locality" />
		<tag k="ssr:stedsnr" v="45569" />
	</node>
	<node lat="59.01943888626652" lon="8.444366663537638" id="-26365">
		<tag k="name" v="Varane" />
		<tag k="natural" v="slope" />
		<tag k="place" v="locality" />
		<tag k="ssr:stedsnr" v="46238" />
	</node>
	<node lat="59.07878611056474" lon="8.463402778941239" id="-26366">
		<tag k="name" v="Svåhombrotet" />
		<tag k="natural" v="cliff" />
		<tag k="ssr:stedsnr" v="46255" />
	</node>
	<node lat="59.11444722482538" lon="8.457247225351677" id="-26368">
		<tag k="name" v="Rauhoggja" />
		<tag k="natural" v="ridge" />
		<tag k="place" v="locality" />
		<tag k="ssr:stedsnr" v="47009" />
	</node>
</osm>
