<?xml version="1.0" encoding="UTF-8"?>
<osm generator="osmapis" version="0.6">
	<node changeset="58497758" id="4485470289" lat="58.9149552" lon="7.7831637" timestamp="2018-04-28T08:07:17Z" uid="3497659" user="NKA" version="4">
		<tag k="historic" v="shieling" />
		<tag k="name" v="Hyvrestøyl" />
		<tag k="place" v="locality" />
		<tag k="ssr:stedsnr" v="387831" />
		<tag k="ssr:type" v="seterStøl" />
	</node>
	<node changeset="57982147" id="4485470290" lat="58.7489046" lon="7.7819132" timestamp="2018-04-10T18:52:35Z" uid="3497659" user="NKA" version="3">
		<tag k="name" v="Hågebakk" />
		<tag k="place" v="locality" />
		<tag k="ssr:stedsnr" v="751087" />
		<tag k="ssr:type" v="bruk" />
	</node>
	<node changeset="57982147" id="4485470291" lat="58.8580536" lon="7.8206116" timestamp="2018-04-10T18:52:36Z" uid="3497659" user="NKA" version="3">
		<tag k="historic" v="ruins" />
		<tag k="name" v="Hågetveit" />
		<tag k="place" v="locality" />
		<tag k="ssr:stedsnr" v="873122" />
		<tag k="ssr:type" v="gammelBosettingsplass" />
	</node>
	<node changeset="58497758" id="4485470292" lat="58.9564462" lon="7.5000066" timestamp="2018-04-28T08:07:17Z" uid="3497659" user="NKA" version="4">
		<tag k="historic" v="shieling" />
		<tag k="name" v="Håvestøyl" />
		<tag k="place" v="locality" />
		<tag k="ssr:stedsnr" v="508071" />
		<tag k="ssr:type" v="seterStøl" />
	</node>
	<node changeset="58497758" id="4485470293" lat="58.9022105" lon="7.7022885" timestamp="2018-04-28T08:07:18Z" uid="3497659" user="NKA" version="4">
		<tag k="historic" v="shieling" />
		<tag k="name" v="Hægustøyl" />
		<tag k="place" v="locality" />
		<tag k="ssr:stedsnr" v="304437" />
		<tag k="ssr:type" v="seterStøl" />
	</node>
	<node changeset="57982147" id="4485470294" lat="59.0180314" lon="7.5542347" timestamp="2018-04-10T18:52:36Z" uid="3497659" user="NKA" version="3">
		<tag k="historic" v="ruins" />
		<tag k="name" v="Hækni" />
		<tag k="place" v="locality" />
		<tag k="ssr:stedsnr" v="326088" />
		<tag k="ssr:type" v="gammelBosettingsplass" />
	</node>
	<node changeset="58497758" id="4485470295" lat="59.0085751" lon="7.7760836" timestamp="2018-04-28T08:07:18Z" uid="3497659" user="NKA" version="4">
		<tag k="alt_name" v="Hæringstøl" />
		<tag k="building" v="cabin" />
		<tag k="historic" v="shieling" />
		<tag k="name" v="Hæringsstøylen" />
		<tag k="place" v="isolated_dwelling" />
		<tag k="ssr:stedsnr" v="608027" />
		<tag k="ssr:type" v="seterStøl" />
	</node>
	<node changeset="58497758" id="4485470296" lat="58.8831316" lon="7.6820495" timestamp="2018-04-28T08:07:18Z" uid="3497659" user="NKA" version="4">
		<tag k="historic" v="shieling" />
		<tag k="name" v="Høystøyl" />
		<tag k="place" v="locality" />
		<tag k="ssr:stedsnr" v="486458" />
		<tag k="ssr:type" v="fritidsbolig" />
	</node>
	<node changeset="58497758" id="4485470297" lat="58.962557" lon="7.7318991" timestamp="2018-04-28T08:07:18Z" uid="3497659" user="NKA" version="4">
		<tag k="historic" v="shieling" />
		<tag k="name" v="Høyvegen" />
		<tag k="place" v="locality" />
		<tag k="ssr:stedsnr" v="387436" />
		<tag k="ssr:type" v="seterStøl" />
	</node>
	<node changeset="58497758" id="4485470298" lat="58.9109629" lon="7.787364" timestamp="2018-04-28T08:07:18Z" uid="3497659" user="NKA" version="4">
		<tag k="building" v="cabin" />
		<tag k="historic" v="shieling" />
		<tag k="name" v="Igdestøyl" />
		<tag k="place" v="isolated_dwelling" />
		<tag k="ssr:stedsnr" v="629856" />
		<tag k="ssr:type" v="seterStøl" />
	</node>
	<node changeset="57982147" id="4485470299" lat="58.7497079" lon="7.8479604" timestamp="2018-04-10T18:52:37Z" uid="3497659" user="NKA" version="3">
		<tag k="name" v="Innistog" />
		<tag k="place" v="farm" />
		<tag k="ssr:stedsnr" v="23280" />
		<tag k="ssr:type" v="bruk" />
	</node>
	<node changeset="58497758" id="4485470300" lat="59.0892651" lon="7.8269804" timestamp="2018-04-28T08:07:18Z" uid="3497659" user="NKA" version="4">
		<tag k="historic" v="shieling" />
		<tag k="name" v="Ivarsstøyl" />
		<tag k="place" v="locality" />
		<tag k="ssr:stedsnr" v="305465" />
		<tag k="ssr:type" v="seterStøl" />
	</node>
	<node changeset="57982147" id="4485470301" lat="58.9782864" lon="7.8641925" timestamp="2018-04-10T18:52:37Z" uid="3497659" user="NKA" version="3">
		<tag k="building" v="cabin" />
		<tag k="name" v="Jarnverk" />
		<tag k="place" v="isolated_dwelling" />
		<tag k="ssr:stedsnr" v="62632" />
		<tag k="ssr:type" v="fritidsbolig" />
	</node>
	<node changeset="57982147" id="4485470302" lat="59.0414382" lon="7.8217096" timestamp="2018-04-10T18:52:37Z" uid="3497659" user="NKA" version="3">
		<tag k="building" v="cabin" />
		<tag k="name" v="Jeddevasshytta" />
		<tag k="place" v="isolated_dwelling" />
		<tag k="ssr:stedsnr" v="94758" />
		<tag k="ssr:type" v="fritidsbolig" />
	</node>
	<node changeset="57982147" id="4485470303" lat="58.7181263" lon="7.8415298" timestamp="2018-04-10T18:52:37Z" uid="3497659" user="NKA" version="3">
		<tag k="name" v="Jernbergi" />
		<tag k="place" v="locality" />
		<tag k="ssr:stedsnr" v="811008" />
		<tag k="ssr:type" v="fritidsbolig" />
	</node>
	<node changeset="57982147" id="4485470304" lat="58.8886792" lon="7.7260608" timestamp="2018-04-10T18:52:37Z" uid="3497659" user="NKA" version="3">
		<tag k="historic" v="ruins" />
		<tag k="name" v="Jonsplass" />
		<tag k="place" v="locality" />
		<tag k="ssr:stedsnr" v="933273" />
		<tag k="ssr:type" v="gammelBosettingsplass" />
	</node>
	<node changeset="57982147" id="4485470305" lat="58.8486156" lon="7.8232613" timestamp="2018-04-10T18:52:37Z" uid="3497659" user="NKA" version="3">
		<tag k="name" v="Jørundli" />
		<tag k="place" v="farm" />
		<tag k="ssr:stedsnr" v="387139" />
		<tag k="ssr:type" v="bruk" />
	</node>
	<node changeset="57982147" id="4485470306" lat="58.870107" lon="7.645513" timestamp="2018-04-10T18:52:37Z" uid="3497659" user="NKA" version="3">
		<tag k="building" v="cabin" />
		<tag k="name" v="Jørundli" />
		<tag k="place" v="isolated_dwelling" />
		<tag k="ssr:stedsnr" v="729413" />
		<tag k="ssr:type" v="fritidsbolig" />
	</node>
	<node changeset="57982147" id="4485470307" lat="58.9318592" lon="7.8283832" timestamp="2018-04-10T18:52:38Z" uid="3497659" user="NKA" version="3">
		<tag k="building" v="cabin" />
		<tag k="name" v="Kaldås" />
		<tag k="place" v="isolated_dwelling" />
		<tag k="ssr:stedsnr" v="364667" />
		<tag k="ssr:type" v="fritidsbolig" />
	</node>
	<node changeset="58497758" id="4485470308" lat="58.8170942" lon="7.8344927" timestamp="2018-04-28T08:07:18Z" uid="3497659" user="NKA" version="4">
		<tag k="historic" v="shieling" />
		<tag k="name" v="Kjekkjustveit" />
		<tag k="place" v="locality" />
		<tag k="ssr:stedsnr" v="387167" />
		<tag k="ssr:type" v="seterStøl" />
	</node>
	<node changeset="57982147" id="4485470309" lat="58.8371683" lon="7.8006908" timestamp="2018-04-10T18:52:38Z" uid="3497659" user="NKA" version="3">
		<tag k="name" v="Kjømle" />
		<tag k="place" v="farm" />
		<tag k="ssr:stedsnr" v="508098" />
		<tag k="ssr:type" v="eneboligMindreBoligbygg" />
	</node>
	<node changeset="57982147" id="4485470310" lat="58.965493" lon="7.6610384" timestamp="2018-04-10T18:52:38Z" uid="3497659" user="NKA" version="3">
		<tag k="name" v="Kleivbu" />
		<tag k="place" v="farm" />
		<tag k="ssr:stedsnr" v="387462" />
		<tag k="ssr:type" v="bruk" />
	</node>
	<node changeset="57982147" id="4485470311" lat="58.9249559" lon="7.7553278" timestamp="2018-04-10T18:52:38Z" uid="3497659" user="NKA" version="3">
		<tag k="alt_name" v="Kleivgrend;Kleivagrend" />
		<tag k="name" v="Kleivegrend" />
		<tag k="place" v="hamlet" />
		<tag k="ssr:stedsnr" v="607665" />
		<tag k="ssr:type" v="grend" />
	</node>
	<node changeset="57982147" id="4485470312" lat="58.6579101" lon="7.8209214" timestamp="2018-04-10T18:52:38Z" uid="3497659" user="NKA" version="3">
		<tag k="name" v="Kleivevollen" />
		<tag k="place" v="farm" />
		<tag k="ssr:stedsnr" v="812391" />
		<tag k="ssr:type" v="bruk" />
	</node>
	<node changeset="58497758" id="4485470313" lat="58.9616587" lon="7.5695139" timestamp="2018-04-28T08:07:18Z" uid="3497659" user="NKA" version="4">
		<tag k="historic" v="shieling" />
		<tag k="name" v="Kleivstøyl" />
		<tag k="place" v="locality" />
		<tag k="ssr:stedsnr" v="326103" />
		<tag k="ssr:type" v="seterStøl" />
	</node>
	<node changeset="57982147" id="4485470314" lat="58.689663" lon="7.7639041" timestamp="2018-04-10T18:52:38Z" uid="3497659" user="NKA" version="3">
		<tag k="building" v="cabin" />
		<tag k="name" v="Klepp" />
		<tag k="place" v="isolated_dwelling" />
		<tag k="ssr:stedsnr" v="668583" />
		<tag k="ssr:type" v="fritidsbolig" />
	</node>
	<node changeset="57982147" id="4485470315" lat="58.8974038" lon="7.7572247" timestamp="2018-04-10T18:52:39Z" uid="3497659" user="NKA" version="3">
		<tag k="building" v="cabin" />
		<tag k="name" v="Klepp" />
		<tag k="place" v="isolated_dwelling" />
		<tag k="ssr:stedsnr" v="789693" />
		<tag k="ssr:type" v="fritidsbolig" />
	</node>
	<node changeset="57982147" id="4485470316" lat="59.0069871" lon="7.7722574" timestamp="2018-04-10T18:52:39Z" uid="3497659" user="NKA" version="3">
		<tag k="building" v="cabin" />
		<tag k="name" v="Klingenberghytta" />
		<tag k="place" v="isolated_dwelling" />
		<tag k="ssr:stedsnr" v="266305" />
		<tag k="ssr:type" v="fritidsbolig" />
	</node>
	<node changeset="57982147" id="4485470317" lat="58.7506613" lon="7.8507858" timestamp="2018-04-10T18:52:39Z" uid="3497659" user="NKA" version="3">
		<tag k="name" v="Knutsstog" />
		<tag k="place" v="farm" />
		<tag k="ssr:stedsnr" v="569236" />
		<tag k="ssr:type" v="bruk" />
	</node>
	<node changeset="57982147" id="4485470318" lat="58.8425541" lon="7.8205311" timestamp="2018-04-10T18:52:39Z" uid="3497659" user="NKA" version="3">
		<tag k="name" v="Kollehagen" />
		<tag k="place" v="farm" />
		<tag k="ssr:stedsnr" v="850769" />
		<tag k="ssr:type" v="bruk" />
	</node>
	<node changeset="57982147" id="4485470319" lat="58.7675687" lon="7.8988368" timestamp="2018-04-10T18:52:39Z" uid="3497659" user="NKA" version="3">
		<tag k="building" v="cabin" />
		<tag k="name" v="Kolsvik" />
		<tag k="place" v="isolated_dwelling" />
		<tag k="ssr:stedsnr" v="276956" />
		<tag k="ssr:type" v="fritidsbolig" />
	</node>
	<node changeset="57982147" id="4485470320" lat="58.8446367" lon="7.9959362" timestamp="2018-04-10T18:52:39Z" uid="3497659" user="NKA" version="3">
		<tag k="building" v="cabin" />
		<tag k="name" v="Kraftverkshytta" />
		<tag k="place" v="isolated_dwelling" />
		<tag k="ssr:stedsnr" v="508529" />
		<tag k="ssr:type" v="fritidsbolig" />
	</node>
	<node changeset="58497758" id="4485470321" lat="58.9844872" lon="7.4989523" timestamp="2018-04-28T08:07:19Z" uid="3497659" user="NKA" version="4">
		<tag k="historic" v="shieling" />
		<tag k="name" v="Krakefjellstøylene" />
		<tag k="place" v="locality" />
		<tag k="ssr:stedsnr" v="23218" />
		<tag k="ssr:type" v="seterStøl" />
	</node>
	<node changeset="57982147" id="4485470322" lat="58.9421849" lon="7.7749202" timestamp="2018-04-10T18:52:39Z" uid="3497659" user="NKA" version="3">
		<tag k="name" v="Krokan" />
		<tag k="place" v="farm" />
		<tag k="ssr:stedsnr" v="243646" />
		<tag k="ssr:type" v="bruk" />
	</node>
	<node changeset="58497758" id="4485470323" lat="59.0100113" lon="7.7813791" timestamp="2018-04-28T08:07:19Z" uid="3497659" user="NKA" version="4">
		<tag k="historic" v="shieling" />
		<tag k="name" v="Krokstøyl" />
		<tag k="place" v="locality" />
		<tag k="ssr:stedsnr" v="873834" />
		<tag k="ssr:type" v="seterStøl" />
	</node>
	<node changeset="57982147" id="4485470324" lat="58.9826711" lon="7.5435333" timestamp="2018-04-10T18:52:40Z" uid="3497659" user="NKA" version="3">
		<tag k="name" v="Krokå" />
		<tag k="place" v="farm" />
		<tag k="ssr:stedsnr" v="789318" />
		<tag k="ssr:type" v="bruk" />
	</node>
	<node changeset="57982147" id="4485470325" lat="58.8515206" lon="7.8250324" timestamp="2018-04-10T18:52:40Z" uid="3497659" user="NKA" version="3">
		<tag k="name" v="Krosstog" />
		<tag k="place" v="farm" />
		<tag k="ssr:stedsnr" v="266133" />
		<tag k="ssr:type" v="bruk" />
	</node>
	<node changeset="58497758" id="4485470326" lat="58.9068448" lon="7.5298156" timestamp="2018-04-28T08:07:19Z" uid="3497659" user="NKA" version="4">
		<tag k="historic" v="shieling" />
		<tag k="name" v="Krostøyl" />
		<tag k="place" v="locality" />
		<tag k="ssr:stedsnr" v="634265" />
		<tag k="ssr:type" v="seterStøl" />
	</node>
	<node changeset="58497758" id="4485470327" lat="58.964543" lon="7.4780527" timestamp="2018-04-28T08:07:19Z" uid="3497659" user="NKA" version="4">
		<tag k="building" v="cabin" />
		<tag k="historic" v="shieling" />
		<tag k="name" v="Krostøyl" />
		<tag k="place" v="isolated_dwelling" />
		<tag k="ssr:stedsnr" v="877253" />
		<tag k="ssr:type" v="seterStøl" />
	</node>
	<node changeset="57982147" id="4485470328" lat="58.701672" lon="7.7304055" timestamp="2018-04-10T18:52:40Z" uid="3497659" user="NKA" version="3">
		<tag k="building" v="cabin" />
		<tag k="name" v="Kråkehommen" />
		<tag k="place" v="isolated_dwelling" />
		<tag k="ssr:stedsnr" v="122567" />
		<tag k="ssr:type" v="fritidsbolig" />
	</node>
	<node changeset="57982147" id="4485470329" lat="58.8864018" lon="7.9329748" timestamp="2018-04-10T18:52:40Z" uid="3497659" user="NKA" version="3">
		<tag k="building" v="cabin" />
		<tag k="name" v="Kråkehommen" />
		<tag k="place" v="isolated_dwelling" />
		<tag k="ssr:stedsnr" v="122696" />
		<tag k="ssr:type" v="fritidsbolig" />
	</node>
	<node changeset="58497758" id="4485470330" lat="59.0125228" lon="7.7384518" timestamp="2018-04-28T08:07:19Z" uid="3497659" user="NKA" version="4">
		<tag k="building" v="cabin" />
		<tag k="historic" v="shieling" />
		<tag k="name" v="Kråkestøyl" />
		<tag k="place" v="isolated_dwelling" />
		<tag k="ssr:stedsnr" v="790515" />
		<tag k="ssr:type" v="fritidsbolig" />
	</node>
	<node changeset="58497758" id="4485470331" lat="58.9250676" lon="7.6468128" timestamp="2018-04-28T08:07:19Z" uid="3497659" user="NKA" version="4">
		<tag k="building" v="cabin" />
		<tag k="historic" v="shieling" />
		<tag k="name" v="Kvislestøyl" />
		<tag k="place" v="isolated_dwelling" />
		<tag k="ssr:stedsnr" v="933061" />
		<tag k="ssr:type" v="seterStøl" />
	</node>
	<node changeset="58497758" id="4485470332" lat="58.9276878" lon="7.97417" timestamp="2018-04-28T08:07:19Z" uid="3497659" user="NKA" version="4">
		<tag k="historic" v="shieling" />
		<tag k="name" v="Kvislestøyl" />
		<tag k="place" v="locality" />
		<tag k="ssr:stedsnr" v="751806" />
		<tag k="ssr:type" v="seterStøl" />
	</node>
	<node changeset="57982147" id="4485470333" lat="58.8359892" lon="7.7960062" timestamp="2018-04-10T18:52:41Z" uid="3497659" user="NKA" version="3">
		<tag k="name" v="Kvåle" />
		<tag k="place" v="farm" />
		<tag k="ssr:stedsnr" v="546733" />
		<tag k="ssr:type" v="bruk" />
	</node>
	<node changeset="57982147" id="4485470334" lat="58.9241991" lon="7.7422375" timestamp="2018-04-10T18:52:41Z" uid="3497659" user="NKA" version="3">
		<tag k="name" v="Kåsi" />
		<tag k="place" v="farm" />
		<tag k="ssr:stedsnr" v="182662" />
		<tag k="ssr:type" v="bruk" />
	</node>
	<node changeset="57982147" id="4485470335" lat="58.706917" lon="7.8299363" timestamp="2018-04-10T18:52:41Z" uid="3497659" user="NKA" version="3">
		<tag k="name" v="Lande" />
		<tag k="place" v="farm" />
		<tag k="ssr:stedsnr" v="183565" />
		<tag k="ssr:type" v="bruk" />
	</node>
	<node changeset="58497758" id="4485470336" lat="59.0140955" lon="7.7253385" timestamp="2018-04-28T08:07:19Z" uid="3497659" user="NKA" version="4">
		<tag k="alt_name" v="Langeberg" />
		<tag k="building" v="cabin" />
		<tag k="historic" v="shieling" />
		<tag k="name" v="Langebergstøylen" />
		<tag k="place" v="isolated_dwelling" />
		<tag k="ssr:stedsnr" v="812430" />
		<tag k="ssr:type" v="seterStøl" />
	</node>
	<node changeset="57982147" id="4485470337" lat="58.785356" lon="7.7862031" timestamp="2018-04-10T18:52:41Z" uid="3497659" user="NKA" version="3">
		<tag k="historic" v="ruins" />
		<tag k="name" v="Lauvli" />
		<tag k="place" v="locality" />
		<tag k="ssr:stedsnr" v="449054" />
		<tag k="ssr:type" v="gammelBosettingsplass" />
	</node>
	<node changeset="57982147" id="4485470338" lat="58.8797171" lon="7.8539998" timestamp="2018-04-10T18:52:41Z" uid="3497659" user="NKA" version="3">
		<tag k="historic" v="ruins" />
		<tag k="name" v="Lauvåsstøyl" />
		<tag k="place" v="locality" />
		<tag k="ssr:stedsnr" v="668735" />
		<tag k="ssr:type" v="gammelBosettingsplass" />
	</node>
	<node changeset="57982147" id="4485470339" lat="58.7065478" lon="7.8401102" timestamp="2018-04-10T18:52:42Z" uid="3497659" user="NKA" version="3">
		<tag k="name" v="Leikvollen" />
		<tag k="place" v="farm" />
		<tag k="ssr:stedsnr" v="144053" />
		<tag k="ssr:type" v="bruk" />
	</node>
	<node changeset="58497758" id="4485470340" lat="59.0652166" lon="7.8177353" timestamp="2018-04-28T08:07:20Z" uid="3497659" user="NKA" version="4">
		<tag k="historic" v="shieling" />
		<tag k="name" v="Leivsstøyl" />
		<tag k="place" v="locality" />
		<tag k="ssr:stedsnr" v="304450" />
		<tag k="ssr:type" v="seterStøl" />
	</node>
	<node changeset="57982147" id="4485470341" lat="58.9385382" lon="7.7647074" timestamp="2018-04-10T18:52:42Z" uid="3497659" user="NKA" version="3">
		<tag k="alt_name" v="Litveit" />
		<tag k="name" v="Lidtveit" />
		<tag k="place" v="farm" />
		<tag k="ssr:stedsnr" v="629" />
		<tag k="ssr:type" v="bruk" />
	</node>
	<node changeset="57982147" id="4485470342" lat="58.8452845" lon="7.8258957" timestamp="2018-04-10T18:52:42Z" uid="3497659" user="NKA" version="3">
		<tag k="name" v="Lien" />
		<tag k="place" v="farm" />
		<tag k="ssr:stedsnr" v="266134" />
		<tag k="ssr:type" v="bruk" />
	</node>
	<node changeset="58497758" id="4485470343" lat="58.9754797" lon="7.8144653" timestamp="2018-04-28T08:07:20Z" uid="3497659" user="NKA" version="4">
		<tag k="alt_name" v="Liastøl" />
		<tag k="historic" v="shieling" />
		<tag k="name" v="Liestøyl" />
		<tag k="place" v="locality" />
		<tag k="ssr:stedsnr" v="62631" />
		<tag k="ssr:type" v="fritidsbolig" />
	</node>
	<node changeset="57982147" id="4485470344" lat="58.7563289" lon="7.7296221" timestamp="2018-04-10T18:52:42Z" uid="3497659" user="NKA" version="3">
		<tag k="building" v="cabin" />
		<tag k="name" v="Lii" />
		<tag k="place" v="isolated_dwelling" />
		<tag k="ssr:stedsnr" v="815" />
		<tag k="ssr:type" v="fritidsbolig" />
	</node>
	<node changeset="57982147" id="4485470345" lat="58.7734671" lon="7.9270268" timestamp="2018-04-10T18:52:42Z" uid="3497659" user="NKA" version="3">
		<tag k="building" v="cabin" />
		<tag k="name" v="Lii" />
		<tag k="place" v="isolated_dwelling" />
		<tag k="ssr:stedsnr" v="365846" />
		<tag k="ssr:type" v="fritidsbolig" />
	</node>
	<node changeset="57982147" id="4485470346" lat="58.8477214" lon="7.8210195" timestamp="2018-04-10T18:52:42Z" uid="3497659" user="NKA" version="3">
		<tag k="name" v="Lii" />
		<tag k="place" v="farm" />
		<tag k="ssr:stedsnr" v="61852" />
		<tag k="ssr:type" v="bruk" />
	</node>
	<node changeset="57982147" id="4485470347" lat="58.8086498" lon="7.9229234" timestamp="2018-04-10T18:52:43Z" uid="3497659" user="NKA" version="3">
		<tag k="alt_name" v="Linddalen" />
		<tag k="building" v="cabin" />
		<tag k="name" v="Lindal" />
		<tag k="place" v="isolated_dwelling" />
		<tag k="ssr:stedsnr" v="911814" />
		<tag k="ssr:type" v="fritidsbolig" />
	</node>
	<node changeset="58497758" id="4485470348" lat="58.8059558" lon="7.893258" timestamp="2018-04-28T08:07:20Z" uid="3497659" user="NKA" version="4">
		<tag k="historic" v="shieling" />
		<tag k="name" v="Lislehom" />
		<tag k="place" v="locality" />
		<tag k="ssr:stedsnr" v="633355" />
		<tag k="ssr:type" v="seterStøl" />
	</node>
	<node changeset="58497758" id="4485470349" lat="58.9529089" lon="7.8829795" timestamp="2018-04-28T08:07:20Z" uid="3497659" user="NKA" version="4">
		<tag k="historic" v="shieling" />
		<tag k="name" v="Lislestøyl" />
		<tag k="place" v="locality" />
		<tag k="ssr:stedsnr" v="873810" />
		<tag k="ssr:type" v="seterStøl" />
	</node>
	<node changeset="57982147" id="4485470350" lat="58.9654497" lon="7.4835615" timestamp="2018-04-10T18:52:43Z" uid="3497659" user="NKA" version="3">
		<tag k="building" v="cabin" />
		<tag k="name" v="Lislestøyl" />
		<tag k="place" v="isolated_dwelling" />
		<tag k="ssr:stedsnr" v="668313" />
		<tag k="ssr:type" v="fritidsbolig" />
	</node>
	<node changeset="58497758" id="4485470351" lat="59.0049705" lon="7.5047057" timestamp="2018-04-28T08:07:20Z" uid="3497659" user="NKA" version="4">
		<tag k="historic" v="shieling" />
		<tag k="name" v="Lislestøyl" />
		<tag k="place" v="locality" />
		<tag k="ssr:stedsnr" v="205021" />
		<tag k="ssr:type" v="seterStøl" />
	</node>
	<node changeset="57982147" id="4485470352" lat="58.9075018" lon="7.7335501" timestamp="2018-04-10T18:52:43Z" uid="3497659" user="NKA" version="3">
		<tag k="historic" v="ruins" />
		<tag k="name" v="Lislevik" />
		<tag k="place" v="locality" />
		<tag k="ssr:stedsnr" v="448324" />
		<tag k="ssr:type" v="gammelBosettingsplass" />
	</node>
	<node changeset="57982147" id="4485470353" lat="58.8968803" lon="7.7661354" timestamp="2018-04-10T18:52:43Z" uid="3497659" user="NKA" version="3">
		<tag k="historic" v="ruins" />
		<tag k="name" v="Lisleøygard" />
		<tag k="place" v="locality" />
		<tag k="ssr:stedsnr" v="448278" />
		<tag k="ssr:type" v="gammelBosettingsplass" />
	</node>
	<node changeset="58497758" id="4485470354" lat="58.7423673" lon="7.9387916" timestamp="2018-04-28T08:07:20Z" uid="3497659" user="NKA" version="4">
		<tag k="historic" v="shieling" />
		<tag k="name" v="Lisløygard" />
		<tag k="place" v="locality" />
		<tag k="ssr:stedsnr" v="387170" />
		<tag k="ssr:type" v="seterStøl" />
	</node>
	<node changeset="58497758" id="4485470355" lat="58.962771" lon="7.940126" timestamp="2018-04-28T08:07:20Z" uid="3497659" user="NKA" version="4">
		<tag k="alt_name" v="Listøl" />
		<tag k="building" v="cabin" />
		<tag k="historic" v="shieling" />
		<tag k="name" v="Listøyl" />
		<tag k="place" v="isolated_dwelling" />
		<tag k="ssr:stedsnr" v="790674" />
		<tag k="ssr:type" v="fritidsbolig" />
	</node>
	<node changeset="57982147" id="4485470356" lat="58.8689887" lon="7.7062994" timestamp="2018-04-10T18:52:44Z" uid="3497659" user="NKA" version="3">
		<tag k="name" v="Ljostog" />
		<tag k="place" v="farm" />
		<tag k="ssr:stedsnr" v="326308" />
		<tag k="ssr:type" v="bruk" />
	</node>
	<node changeset="57982147" id="4485470357" lat="58.8056876" lon="7.9204837" timestamp="2018-04-10T18:52:44Z" uid="3497659" user="NKA" version="3">
		<tag k="building" v="cabin" />
		<tag k="name" v="Lonebu (aust)" />
		<tag k="place" v="isolated_dwelling" />
		<tag k="ssr:stedsnr" v="944946" />
		<tag k="ssr:type" v="fritidsbolig" />
	</node>
	<node changeset="57982147" id="4485470358" lat="58.805799" lon="7.9100254" timestamp="2018-04-10T18:52:44Z" uid="3497659" user="NKA" version="3">
		<tag k="building" v="cabin" />
		<tag k="name" v="Lonebu vest" />
		<tag k="place" v="isolated_dwelling" />
		<tag k="ssr:stedsnr" v="216933" />
		<tag k="ssr:type" v="fritidsbolig" />
	</node>
	<node changeset="58497758" id="4485470359" lat="58.7458719" lon="7.8834732" timestamp="2018-04-28T08:07:20Z" uid="3497659" user="NKA" version="4">
		<tag k="building" v="cabin" />
		<tag k="historic" v="shieling" />
		<tag k="name" v="Longebu" />
		<tag k="place" v="isolated_dwelling" />
		<tag k="ssr:stedsnr" v="448249" />
		<tag k="ssr:type" v="seterStøl" />
	</node>
	<node changeset="57982147" id="4485470360" lat="58.8749866" lon="7.6648636" timestamp="2018-04-10T18:52:44Z" uid="3497659" user="NKA" version="3">
		<tag k="building" v="cabin" />
		<tag k="name" v="Longeli" />
		<tag k="place" v="isolated_dwelling" />
		<tag k="ssr:stedsnr" v="607426" />
		<tag k="ssr:type" v="fritidsbolig" />
	</node>
	<node changeset="57982147" id="4485470361" lat="58.737636" lon="7.8386355" timestamp="2018-04-10T18:52:44Z" uid="3497659" user="NKA" version="3">
		<tag k="name" v="Longeraksstrandi hyttefelt" />
		<tag k="place" v="neighbourhood" />
		<tag k="ssr:stedsnr" v="237570" />
		<tag k="ssr:type" v="hyttefelt" />
	</node>
	<node changeset="57982147" id="4485470362" lat="58.828649" lon="7.8157554" timestamp="2018-04-10T18:52:44Z" uid="3497659" user="NKA" version="3">
		<tag k="name" v="Lundebrekka" />
		<tag k="place" v="farm" />
		<tag k="ssr:stedsnr" v="387022" />
		<tag k="ssr:type" v="bruk" />
	</node>
	<node changeset="58497758" id="4485470363" lat="58.806571" lon="7.9040579" timestamp="2018-04-28T08:07:20Z" uid="3497659" user="NKA" version="4">
		<tag k="historic" v="shieling" />
		<tag k="name" v="Lundehaug" />
		<tag k="place" v="locality" />
		<tag k="ssr:stedsnr" v="640933" />
		<tag k="ssr:type" v="fritidsbolig" />
	</node>
	<node changeset="57982147" id="4485470364" lat="58.6632241" lon="7.8228077" timestamp="2018-04-10T18:52:45Z" uid="3497659" user="NKA" version="3">
		<tag k="name" v="Lunden" />
		<tag k="place" v="farm" />
		<tag k="ssr:stedsnr" v="508413" />
		<tag k="ssr:type" v="bruk" />
	</node>
	<node changeset="57982147" id="4485470365" lat="58.7075177" lon="7.8380114" timestamp="2018-04-10T18:52:45Z" uid="3497659" user="NKA" version="3">
		<tag k="name" v="Lunden" />
		<tag k="place" v="farm" />
		<tag k="ssr:stedsnr" v="812049" />
		<tag k="ssr:type" v="bruk" />
	</node>
	<node changeset="57982147" id="4485470366" lat="58.7850762" lon="7.7629785" timestamp="2018-04-10T18:52:45Z" uid="3497659" user="NKA" version="3">
		<tag k="historic" v="ruins" />
		<tag k="name" v="Lunden" />
		<tag k="place" v="locality" />
		<tag k="ssr:stedsnr" v="23401" />
		<tag k="ssr:type" v="gammelBosettingsplass" />
	</node>
	<node changeset="58497758" id="4485470367" lat="58.8939655" lon="7.8602326" timestamp="2018-04-28T08:07:21Z" uid="3497659" user="NKA" version="4">
		<tag k="alt_name" v="Lyngstøl" />
		<tag k="historic" v="shieling" />
		<tag k="name" v="Lyngstøyl" />
		<tag k="place" v="locality" />
		<tag k="ssr:stedsnr" v="729724" />
		<tag k="ssr:type" v="fritidsbolig" />
	</node>
	<node changeset="58497758" id="4485470368" lat="58.8343698" lon="7.857735" timestamp="2018-04-28T08:07:21Z" uid="3497659" user="NKA" version="4">
		<tag k="historic" v="shieling" />
		<tag k="name" v="Lysestøyl" />
		<tag k="place" v="locality" />
		<tag k="ssr:stedsnr" v="873138" />
		<tag k="ssr:type" v="seterStøl" />
	</node>
	<node changeset="58497758" id="4485470369" lat="58.8379139" lon="7.8572802" timestamp="2018-04-28T08:07:21Z" uid="3497659" user="NKA" version="4">
		<tag k="historic" v="shieling" />
		<tag k="name" v="Lysestøyl" />
		<tag k="place" v="locality" />
		<tag k="ssr:stedsnr" v="23152" />
		<tag k="ssr:type" v="seterStøl" />
	</node>
	<node changeset="57982147" id="4485470370" lat="58.9604709" lon="7.5051676" timestamp="2018-04-10T18:52:45Z" uid="3497659" user="NKA" version="3">
		<tag k="name" v="Låtevadbui" />
		<tag k="place" v="locality" />
		<tag k="ssr:stedsnr" v="873084" />
		<tag k="ssr:type" v="fritidsbolig" />
	</node>
	<node changeset="57982147" id="4485470371" lat="58.860392" lon="7.8604725" timestamp="2018-04-10T18:52:45Z" uid="3497659" user="NKA" version="3">
		<tag k="building" v="cabin" />
		<tag k="name" v="Løtveit" />
		<tag k="place" v="isolated_dwelling" />
		<tag k="ssr:stedsnr" v="729746" />
		<tag k="ssr:type" v="fritidsbolig" />
	</node>
	<node changeset="58497758" id="4485470372" lat="58.8583772" lon="7.8628392" timestamp="2018-04-28T08:07:21Z" uid="3497659" user="NKA" version="4">
		<tag k="historic" v="shieling" />
		<tag k="name" v="Løtveitstøylen" />
		<tag k="place" v="locality" />
		<tag k="ssr:stedsnr" v="205488" />
		<tag k="ssr:type" v="seterStøl" />
	</node>
	<node changeset="58497758" id="4485470373" lat="58.9693502" lon="7.9188089" timestamp="2018-04-28T08:07:21Z" uid="3497659" user="NKA" version="4">
		<tag k="building" v="cabin" />
		<tag k="historic" v="shieling" />
		<tag k="name" v="Løyningsli nedre" />
		<tag k="place" v="isolated_dwelling" />
		<tag k="ssr:stedsnr" v="508839" />
		<tag k="ssr:type" v="seterStøl" />
	</node>
	<node changeset="58497758" id="4485470374" lat="58.9689356" lon="7.912908" timestamp="2018-04-28T08:07:21Z" uid="3497659" user="NKA" version="4">
		<tag k="building" v="cabin" />
		<tag k="historic" v="shieling" />
		<tag k="name" v="Løyningsli øvre" />
		<tag k="place" v="isolated_dwelling" />
		<tag k="ssr:stedsnr" v="629831" />
		<tag k="ssr:type" v="seterStøl" />
	</node>
	<node changeset="58497758" id="4485470375" lat="58.8850866" lon="7.8203498" timestamp="2018-04-28T08:07:21Z" uid="3497659" user="NKA" version="4">
		<tag k="alt_name" v="Midtstøl" />
		<tag k="building" v="cabin" />
		<tag k="historic" v="shieling" />
		<tag k="name" v="Midtstøyl" />
		<tag k="place" v="isolated_dwelling" />
		<tag k="ssr:stedsnr" v="911727" />
		<tag k="ssr:type" v="fritidsbolig" />
	</node>
	<node changeset="57982147" id="4485470376" lat="58.7100283" lon="7.7103597" timestamp="2018-04-10T18:52:46Z" uid="3497659" user="NKA" version="3">
		<tag k="building" v="cabin" />
		<tag k="name" v="Mjaltehommen" />
		<tag k="place" v="isolated_dwelling" />
		<tag k="ssr:stedsnr" v="762798" />
		<tag k="ssr:type" v="fritidsbolig" />
	</node>
	<node changeset="58497758" id="4485470377" lat="59.0083659" lon="7.6160707" timestamp="2018-04-28T08:07:22Z" uid="3497659" user="NKA" version="4">
		<tag k="alt_name" v="Mjelthommen" />
		<tag k="building" v="cabin" />
		<tag k="historic" v="shieling" />
		<tag k="name" v="Mjaltehommstøylen" />
		<tag k="place" v="isolated_dwelling" />
		<tag k="ssr:stedsnr" v="729332" />
		<tag k="ssr:type" v="fritidsbolig" />
	</node>
	<node changeset="57982147" id="4485470378" lat="58.9267308" lon="7.8465046" timestamp="2018-04-10T18:52:46Z" uid="3497659" user="NKA" version="3">
		<tag k="building" v="cabin" />
		<tag k="name" v="Mjåvatshytta" />
		<tag k="place" v="isolated_dwelling" />
		<tag k="ssr:stedsnr" v="751841" />
		<tag k="ssr:type" v="fritidsbolig" />
	</node>
	<node changeset="57982147" id="4485470379" lat="58.9855047" lon="7.6092072" timestamp="2018-04-10T18:52:47Z" uid="3497659" user="NKA" version="3">
		<tag k="name" v="Moen" />
		<tag k="place" v="farm" />
		<tag k="ssr:stedsnr" v="182292" />
		<tag k="ssr:type" v="bruk" />
	</node>
	<node changeset="57982147" id="4485470380" lat="58.7519012" lon="7.8465021" timestamp="2018-04-10T18:52:47Z" uid="3497659" user="NKA" version="3">
		<tag k="name" v="Monen" />
		<tag k="place" v="farm" />
		<tag k="ssr:stedsnr" v="873236" />
		<tag k="ssr:type" v="bruk" />
	</node>
	<node changeset="57982147" id="4485470381" lat="58.8853972" lon="7.7231837" timestamp="2018-04-10T18:52:47Z" uid="3497659" user="NKA" version="3">
		<tag k="historic" v="ruins" />
		<tag k="name" v="Monen" />
		<tag k="place" v="locality" />
		<tag k="ssr:stedsnr" v="691287" />
		<tag k="ssr:type" v="gammelBosettingsplass" />
	</node>
	<node changeset="57982147" id="4485470382" lat="58.9465245" lon="7.9472008" timestamp="2018-04-10T18:52:47Z" uid="3497659" user="NKA" version="3">
		<tag k="building" v="cabin" />
		<tag k="name" v="Monen" />
		<tag k="place" v="isolated_dwelling" />
		<tag k="ssr:stedsnr" v="873733" />
		<tag k="ssr:type" v="fritidsbolig" />
	</node>
	<node changeset="57982147" id="4485470383" lat="58.9790941" lon="7.6009476" timestamp="2018-04-10T18:52:47Z" uid="3497659" user="NKA" version="3">
		<tag k="name" v="Monå" />
		<tag k="place" v="farm" />
		<tag k="ssr:stedsnr" v="290" />
		<tag k="ssr:type" v="bruk" />
	</node>
	<node changeset="58497758" id="4485470384" lat="58.8998685" lon="7.672324" timestamp="2018-04-28T08:07:22Z" uid="3497659" user="NKA" version="4">
		<tag k="building" v="cabin" />
		<tag k="historic" v="shieling" />
		<tag k="name" v="Morstøyl" />
		<tag k="place" v="isolated_dwelling" />
		<tag k="ssr:stedsnr" v="789460" />
		<tag k="ssr:type" v="seterStøl" />
	</node>
	<node changeset="57982147" id="4485470385" lat="58.8678275" lon="7.547584" timestamp="2018-04-10T18:52:47Z" uid="3497659" user="NKA" version="3">
		<tag k="building" v="cabin" />
		<tag k="name" v="Myhola" />
		<tag k="place" v="isolated_dwelling" />
		<tag k="ssr:stedsnr" v="607437" />
		<tag k="ssr:type" v="fritidsbolig" />
	</node>
	<node changeset="58497758" id="4485470386" lat="58.8786888" lon="7.7511157" timestamp="2018-04-28T08:07:22Z" uid="3497659" user="NKA" version="4">
		<tag k="alt_name" v="Myklestøl" />
		<tag k="building" v="cabin" />
		<tag k="historic" v="shieling" />
		<tag k="name" v="Myklestøyl" />
		<tag k="place" v="isolated_dwelling" />
		<tag k="ssr:stedsnr" v="244730" />
		<tag k="ssr:type" v="fritidsbolig" />
	</node>
	<node changeset="58497758" id="4485470387" lat="58.9960981" lon="7.7690907" timestamp="2018-04-28T08:07:22Z" uid="3497659" user="NKA" version="4">
		<tag k="building" v="cabin" />
		<tag k="historic" v="shieling" />
		<tag k="name" v="Myran" />
		<tag k="place" v="isolated_dwelling" />
		<tag k="ssr:stedsnr" v="751331" />
		<tag k="ssr:type" v="seterStøl" />
	</node>
	<node changeset="58497758" id="4485470388" lat="58.929752" lon="7.7922471" timestamp="2018-04-28T08:07:22Z" uid="3497659" user="NKA" version="4">
		<tag k="historic" v="shieling" />
		<tag k="name" v="Myrbu" />
		<tag k="place" v="locality" />
		<tag k="ssr:stedsnr" v="691193" />
		<tag k="ssr:type" v="seterStøl" />
	</node>
	<node changeset="58497758" id="4485470389" lat="58.8802851" lon="7.862604" timestamp="2018-04-28T08:07:22Z" uid="3497659" user="NKA" version="4">
		<tag k="historic" v="shieling" />
		<tag k="name" v="Myrstøyl" />
		<tag k="place" v="locality" />
		<tag k="ssr:stedsnr" v="816340" />
		<tag k="ssr:type" v="seterStøl" />
	</node>
	<node changeset="58497758" id="4485470390" lat="58.890825" lon="7.6645173" timestamp="2018-04-28T08:07:22Z" uid="3497659" user="NKA" version="4">
		<tag k="building" v="cabin" />
		<tag k="historic" v="shieling" />
		<tag k="name" v="Myrstøyl" />
		<tag k="place" v="isolated_dwelling" />
		<tag k="ssr:stedsnr" v="486459" />
		<tag k="ssr:type" v="seterStøl" />
	</node>
	<node changeset="58497758" id="4485470391" lat="58.9766334" lon="7.8062404" timestamp="2018-04-28T08:07:22Z" uid="3497659" user="NKA" version="4">
		<tag k="historic" v="shieling" />
		<tag k="name" v="Myrstøyl" />
		<tag k="place" v="locality" />
		<tag k="ssr:stedsnr" v="387850" />
		<tag k="ssr:type" v="seterStøl" />
	</node>
	<node changeset="57982147" id="4485470392" lat="58.9148047" lon="7.7150588" timestamp="2018-04-10T18:52:48Z" uid="3497659" user="NKA" version="3">
		<tag k="name" v="Nedgarden" />
		<tag k="place" v="farm" />
		<tag k="ssr:stedsnr" v="326032" />
		<tag k="ssr:type" v="bruk" />
	</node>
	<node changeset="57982147" id="4485470393" lat="58.7475752" lon="7.8483377" timestamp="2018-04-10T18:52:48Z" uid="3497659" user="NKA" version="3">
		<tag k="name" v="Nedre Søbø" />
		<tag k="place" v="farm" />
		<tag k="ssr:stedsnr" v="326228" />
		<tag k="ssr:type" v="bruk" />
	</node>
	<node changeset="57982147" id="4485470394" lat="58.8540743" lon="7.82279" timestamp="2018-04-10T18:52:48Z" uid="3497659" user="NKA" version="3">
		<tag k="name" v="Nerhus" />
		<tag k="place" v="farm" />
		<tag k="ssr:stedsnr" v="789742" />
		<tag k="ssr:type" v="bruk" />
	</node>
	<node changeset="58497758" id="4485470395" lat="58.8725601" lon="7.8066285" timestamp="2018-04-28T08:07:23Z" uid="3497659" user="NKA" version="4">
		<tag k="building" v="cabin" />
		<tag k="historic" v="shieling" />
		<tag k="name" v="Nesestøylane" />
		<tag k="place" v="isolated_dwelling" />
		<tag k="ssr:stedsnr" v="84038" />
		<tag k="ssr:type" v="seterStøl" />
	</node>
	<node changeset="57982147" id="4485470396" lat="58.8450459" lon="7.7681448" timestamp="2018-04-10T18:52:49Z" uid="3497659" user="NKA" version="3">
		<tag k="name" v="Nesmoen" />
		<tag k="place" v="neighbourhood" />
		<tag k="ssr:stedsnr" v="209421" />
		<tag k="ssr:type" v="industriområde" />
	</node>
	<node changeset="58497758" id="4485470397" lat="58.8319082" lon="7.7628506" timestamp="2018-04-28T08:07:23Z" uid="3497659" user="NKA" version="4">
		<tag k="historic" v="shieling" />
		<tag k="name" v="Nesstøylen" />
		<tag k="place" v="locality" />
		<tag k="ssr:stedsnr" v="812269" />
		<tag k="ssr:type" v="seterStøl" />
	</node>
	<node changeset="57982147" id="4485470398" lat="58.7066683" lon="7.8506444" timestamp="2018-04-10T18:52:49Z" uid="3497659" user="NKA" version="3">
		<tag k="name" v="Nevesjordet" />
		<tag k="place" v="farm" />
		<tag k="ssr:stedsnr" v="933056" />
		<tag k="ssr:type" v="bruk" />
	</node>
	<node changeset="58497758" id="4485470399" lat="58.8857753" lon="7.753822" timestamp="2018-04-28T08:07:23Z" uid="3497659" user="NKA" version="4">
		<tag k="historic" v="shieling" />
		<tag k="name" v="Nevrestøyl" />
		<tag k="place" v="locality" />
		<tag k="ssr:stedsnr" v="629250" />
		<tag k="ssr:type" v="seterStøl" />
	</node>
	<node changeset="58497758" id="4485470400" lat="58.9482843" lon="7.5052433" timestamp="2018-04-28T08:07:23Z" uid="3497659" user="NKA" version="4">
		<tag k="building" v="cabin" />
		<tag k="historic" v="shieling" />
		<tag k="name" v="Njukstøyl" />
		<tag k="place" v="isolated_dwelling" />
		<tag k="ssr:stedsnr" v="205122" />
		<tag k="ssr:type" v="seterStøl" />
	</node>
	<node changeset="57982147" id="4485470401" lat="58.9246324" lon="7.7475405" timestamp="2018-04-10T18:52:49Z" uid="3497659" user="NKA" version="3">
		<tag k="name" v="Nordenå" />
		<tag k="place" v="farm" />
		<tag k="ssr:stedsnr" v="691308" />
		<tag k="ssr:type" v="bruk" />
	</node>
	<node changeset="57982147" id="4485470402" lat="58.9261557" lon="7.7483543" timestamp="2018-04-10T18:52:49Z" uid="3497659" user="NKA" version="3">
		<tag k="name" v="Nordenå" />
		<tag k="place" v="farm" />
		<tag k="ssr:stedsnr" v="873401" />
		<tag k="ssr:type" v="bruk" />
	</node>
	<node changeset="57982147" id="4485470403" lat="58.8761372" lon="7.7051466" timestamp="2018-04-10T18:52:50Z" uid="3497659" user="NKA" version="3">
		<tag k="name" v="Nordgarden" />
		<tag k="place" v="farm" />
		<tag k="ssr:stedsnr" v="812302" />
		<tag k="ssr:type" v="bruk" />
	</node>
	<node changeset="57982147" id="4485470404" lat="58.9192651" lon="7.7464202" timestamp="2018-04-10T18:52:50Z" uid="3497659" user="NKA" version="3">
		<tag k="name" v="Nordgarden" />
		<tag k="place" v="farm" />
		<tag k="ssr:stedsnr" v="508306" />
		<tag k="ssr:type" v="bruk" />
	</node>
	<node changeset="57982147" id="4485470405" lat="58.9661616" lon="7.6783261" timestamp="2018-04-10T18:52:50Z" uid="3497659" user="NKA" version="3">
		<tag k="name" v="Nordgarden" />
		<tag k="place" v="farm" />
		<tag k="ssr:stedsnr" v="243258" />
		<tag k="ssr:type" v="bruk" />
	</node>
	<node changeset="57982147" id="4485470406" lat="58.7721612" lon="7.8727077" timestamp="2018-04-10T18:52:50Z" uid="3497659" user="NKA" version="3">
		<tag k="building" v="cabin" />
		<tag k="name" v="Nordheihytta" />
		<tag k="place" v="isolated_dwelling" />
		<tag k="ssr:stedsnr" v="205207" />
		<tag k="ssr:type" v="fritidsbolig" />
	</node>
	<node changeset="57982147" id="4485470407" lat="58.9164011" lon="7.7144507" timestamp="2018-04-10T18:52:50Z" uid="3497659" user="NKA" version="3">
		<tag k="name" v="Nordigarden" />
		<tag k="place" v="farm" />
		<tag k="ssr:stedsnr" v="144038" />
		<tag k="ssr:type" v="bruk" />
	</node>
	<node changeset="57982147" id="4485470408" lat="58.9808144" lon="7.6692223" timestamp="2018-04-10T18:52:50Z" uid="3497659" user="NKA" version="3">
		<tag k="alt_name" v="Heistad nordre" />
		<tag k="name" v="Nordre Heistad" />
		<tag k="place" v="farm" />
		<tag k="ssr:stedsnr" v="751479" />
		<tag k="ssr:type" v="bruk" />
	</node>
	<node changeset="57982147" id="4485470409" lat="58.799178" lon="7.8144587" timestamp="2018-04-10T18:52:50Z" uid="3497659" user="NKA" version="3">
		<tag k="alt_name" v="Lauvdal nordre" />
		<tag k="name" v="Nordre Lauvdal" />
		<tag k="place" v="farm" />
		<tag k="ssr:stedsnr" v="668815" />
		<tag k="ssr:type" v="bruk" />
	</node>
	<node changeset="57982147" id="4485470410" lat="58.7979295" lon="7.7674419" timestamp="2018-04-10T18:52:50Z" uid="3497659" user="NKA" version="3">
		<tag k="name" v="Nordre Skjevrak" />
		<tag k="place" v="farm" />
		<tag k="ssr:stedsnr" v="812336" />
		<tag k="ssr:type" v="bruk" />
	</node>
	<node changeset="57982147" id="4485470411" lat="58.9833255" lon="7.6011532" timestamp="2018-04-10T18:52:50Z" uid="3497659" user="NKA" version="3">
		<tag k="name" v="Nordre Sordal" />
		<tag k="place" v="farm" />
		<tag k="ssr:stedsnr" v="23181" />
		<tag k="ssr:type" v="bruk" />
	</node>
	<node changeset="57982147" id="4485470412" lat="58.8758814" lon="7.8431549" timestamp="2018-04-10T18:52:51Z" uid="3497659" user="NKA" version="3">
		<tag k="building" v="cabin" />
		<tag k="name" v="Nordstemmen" />
		<tag k="place" v="isolated_dwelling" />
		<tag k="ssr:stedsnr" v="270357" />
		<tag k="ssr:type" v="fritidsbolig" />
	</node>
	<node changeset="57982147" id="4485470413" lat="58.8561395" lon="7.8244521" timestamp="2018-04-10T18:52:51Z" uid="3497659" user="NKA" version="3">
		<tag k="alt_name" v="Nørdstebø" />
		<tag k="name" v="Norstebø" />
		<tag k="place" v="farm" />
		<tag k="ssr:stedsnr" v="364747" />
		<tag k="ssr:type" v="bruk" />
	</node>
	<node changeset="57982147" id="4485470414" lat="58.9301327" lon="7.9774091" timestamp="2018-04-10T18:52:51Z" uid="3497659" user="NKA" version="3">
		<tag k="name" v="Nuten" />
		<tag k="place" v="locality" />
		<tag k="ssr:stedsnr" v="668691" />
		<tag k="ssr:type" v="fritidsbolig" />
	</node>
	<node changeset="57982147" id="4485470415" lat="59.0207313" lon="7.7499546" timestamp="2018-04-10T18:52:51Z" uid="3497659" user="NKA" version="3">
		<tag k="building" v="cabin" />
		<tag k="name" v="Nyestøyl" />
		<tag k="place" v="isolated_dwelling" />
		<tag k="ssr:stedsnr" v="365503" />
		<tag k="ssr:type" v="fritidsbolig" />
	</node>
	<node changeset="58497758" id="4485470416" lat="59.0227577" lon="7.6780595" timestamp="2018-04-28T08:07:23Z" uid="3497659" user="NKA" version="4">
		<tag k="historic" v="shieling" />
		<tag k="name" v="Nyestøyl" />
		<tag k="place" v="locality" />
		<tag k="ssr:stedsnr" v="790272" />
		<tag k="ssr:type" v="seterStøl" />
	</node>
	<node changeset="58497758" id="4485470417" lat="58.8072128" lon="7.9005041" timestamp="2018-04-28T08:07:23Z" uid="3497659" user="NKA" version="4">
		<tag k="historic" v="shieling" />
		<tag k="name" v="Nygardshom" />
		<tag k="place" v="locality" />
		<tag k="ssr:stedsnr" v="944944" />
		<tag k="ssr:type" v="fritidsbolig" />
	</node>
	<node changeset="57982147" id="4485470418" lat="58.7059989" lon="7.8457657" timestamp="2018-04-10T18:52:51Z" uid="3497659" user="NKA" version="3">
		<tag k="name" v="Nygård" />
		<tag k="place" v="farm" />
		<tag k="ssr:stedsnr" v="569060" />
		<tag k="ssr:type" v="bruk" />
	</node>
	<node changeset="58497758" id="4485470419" lat="59.0222564" lon="7.6149192" timestamp="2018-04-28T08:07:23Z" uid="3497659" user="NKA" version="4">
		<tag k="building" v="cabin" />
		<tag k="historic" v="shieling" />
		<tag k="name" v="Nystøl" />
		<tag k="place" v="isolated_dwelling" />
		<tag k="ssr:stedsnr" v="547327" />
		<tag k="ssr:type" v="seterStøl" />
	</node>
	<node changeset="58497758" id="4485470420" lat="58.842171" lon="7.7407161" timestamp="2018-04-28T08:07:23Z" uid="3497659" user="NKA" version="4">
		<tag k="historic" v="shieling" />
		<tag k="name" v="Nystøyl" />
		<tag k="place" v="locality" />
		<tag k="ssr:stedsnr" v="448269" />
		<tag k="ssr:type" v="seterStøl" />
	</node>
	<node changeset="58497758" id="4485470421" lat="58.9318611" lon="7.5462247" timestamp="2018-04-28T08:07:24Z" uid="3497659" user="NKA" version="4">
		<tag k="historic" v="shieling" />
		<tag k="name" v="Nystøyl" />
		<tag k="place" v="locality" />
		<tag k="ssr:stedsnr" v="546457" />
		<tag k="ssr:type" v="fritidsbolig" />
	</node>
	<node changeset="58497758" id="4485470422" lat="58.9741281" lon="7.4993743" timestamp="2018-04-28T08:07:24Z" uid="3497659" user="NKA" version="4">
		<tag k="historic" v="shieling" />
		<tag k="name" v="Nystøyl" />
		<tag k="place" v="locality" />
		<tag k="ssr:stedsnr" v="569187" />
		<tag k="ssr:type" v="seterStøl" />
	</node>
	<node changeset="58497758" id="4485470423" lat="59.0280153" lon="7.6365961" timestamp="2018-04-28T08:07:24Z" uid="3497659" user="NKA" version="4">
		<tag k="alt_name" v="Nyestøyl" />
		<tag k="fixme" v="check position" />
		<tag k="historic" v="shieling" />
		<tag k="name" v="Nystøyl" />
		<tag k="place" v="locality" />
		<tag k="ssr:stedsnr" v="669245" />
		<tag k="ssr:type" v="seterStøl" />
	</node>
	<node changeset="58497758" id="4485470424" lat="58.7629713" lon="7.7185385" timestamp="2018-04-28T08:07:24Z" uid="3497659" user="NKA" version="4">
		<tag k="historic" v="shieling" />
		<tag k="name" v="Nyøygard" />
		<tag k="place" v="locality" />
		<tag k="ssr:stedsnr" v="182805" />
		<tag k="ssr:type" v="fritidsbolig" />
	</node>
	<node changeset="57982147" id="4485470425" lat="58.7853089" lon="7.7906241" timestamp="2018-04-10T18:52:52Z" uid="3497659" user="NKA" version="3">
		<tag k="name" v="Nånes" />
		<tag k="place" v="farm" />
		<tag k="ssr:stedsnr" v="789790" />
		<tag k="ssr:type" v="fritidsbolig" />
	</node>
	<node changeset="57982147" id="4485470426" lat="58.8922591" lon="7.730328" timestamp="2018-04-10T18:52:52Z" uid="3497659" user="NKA" version="3">
		<tag k="name" v="Nørdstegard" />
		<tag k="place" v="farm" />
		<tag k="ssr:stedsnr" v="183687" />
		<tag k="ssr:type" v="bruk" />
	</node>
	<node changeset="57982147" id="4485470427" lat="58.8792872" lon="7.7040934" timestamp="2018-04-10T18:52:52Z" uid="3497659" user="NKA" version="3">
		<tag k="name" v="Nørstevoll" />
		<tag k="place" v="farm" />
		<tag k="ssr:stedsnr" v="629289" />
		<tag k="ssr:type" v="bruk" />
	</node>
	<node changeset="57982147" id="4485470428" lat="58.8938174" lon="7.733232" timestamp="2018-04-10T18:52:52Z" uid="3497659" user="NKA" version="3">
		<tag k="historic" v="ruins" />
		<tag k="name" v="Odden" />
		<tag k="place" v="locality" />
		<tag k="ssr:stedsnr" v="266253" />
		<tag k="ssr:type" v="gammelBosettingsplass" />
	</node>
	<node changeset="57982147" id="4485470429" lat="58.8576279" lon="7.2671397" timestamp="2018-04-10T18:52:53Z" uid="3497659" user="NKA" version="3">
		<tag k="building" v="cabin" />
		<tag k="name" v="Olavshovd" />
		<tag k="place" v="isolated_dwelling" />
		<tag k="ssr:stedsnr" v="122119" />
		<tag k="ssr:type" v="fritidsbolig" />
	</node>
	<node changeset="57982147" id="4485470430" lat="58.92605" lon="7.7342704" timestamp="2018-04-10T18:52:53Z" uid="3497659" user="NKA" version="3">
		<tag k="historic" v="yes" />
		<tag k="name" v="Olavsstø" />
		<tag k="place" v="locality" />
		<tag k="ssr:stedsnr" v="327375" />
		<tag k="ssr:type" v="stø" />
	</node>
	<node changeset="57982147" id="4485470431" lat="58.8477603" lon="7.8231799" timestamp="2018-04-10T18:52:53Z" uid="3497659" user="NKA" version="3">
		<tag k="name" v="Olstad" />
		<tag k="place" v="farm" />
		<tag k="ssr:stedsnr" v="776" />
		<tag k="ssr:type" v="bruk" />
	</node>
	<node changeset="57982147" id="4485470432" lat="58.7492892" lon="7.849988" timestamp="2018-04-10T18:52:53Z" uid="3497659" user="NKA" version="3">
		<tag k="name" v="Oppistog" />
		<tag k="place" v="farm" />
		<tag k="ssr:stedsnr" v="204191" />
		<tag k="ssr:type" v="bruk" />
	</node>
	<node changeset="58497758" id="4485470433" lat="58.7930843" lon="7.8432701" timestamp="2018-04-28T08:07:24Z" uid="3497659" user="NKA" version="4">
		<tag k="historic" v="shieling" />
		<tag k="name" v="Ospehomm" />
		<tag k="place" v="locality" />
		<tag k="ssr:stedsnr" v="812152" />
		<tag k="ssr:type" v="seterStøl" />
	</node>
	<node changeset="58497758" id="4485470434" lat="58.9636181" lon="7.642405" timestamp="2018-04-28T08:07:24Z" uid="3497659" user="NKA" version="4">
		<tag k="historic" v="shieling" />
		<tag k="name" v="Overdalen" />
		<tag k="place" v="locality" />
		<tag k="ssr:stedsnr" v="873463" />
		<tag k="ssr:type" v="seterStøl" />
	</node>
	<node changeset="57982147" id="4485470435" lat="58.9698943" lon="7.6785933" timestamp="2018-04-10T18:52:53Z" uid="3497659" user="NKA" version="3">
		<tag k="alt_name" v="Plasset" />
		<tag k="name" v="Plassen" />
		<tag k="place" v="farm" />
		<tag k="ssr:stedsnr" v="668299" />
		<tag k="ssr:type" v="bruk" />
	</node>
	<node changeset="58497758" id="4485470436" lat="58.8920479" lon="7.8377876" timestamp="2018-04-28T08:07:24Z" uid="3497659" user="NKA" version="4">
		<tag k="building" v="cabin" />
		<tag k="historic" v="shieling" />
		<tag k="name" v="Plassestøylen" />
		<tag k="place" v="isolated_dwelling" />
		<tag k="ssr:stedsnr" v="452348" />
		<tag k="ssr:type" v="seterStøl" />
	</node>
	<node changeset="57982147" id="4485470437" lat="58.8273845" lon="7.7954164" timestamp="2018-04-10T18:52:54Z" uid="3497659" user="NKA" version="3">
		<tag k="name" v="Prestegarden" />
		<tag k="place" v="farm" />
		<tag k="ssr:stedsnr" v="933023" />
		<tag k="ssr:type" v="bruk" />
	</node>
	<node changeset="57982147" id="4485470438" lat="58.9122999" lon="7.7311953" timestamp="2018-04-10T18:52:54Z" uid="3497659" user="NKA" version="3">
		<tag k="historic" v="ruins" />
		<tag k="name" v="Prestegardplassen" />
		<tag k="place" v="locality" />
		<tag k="ssr:stedsnr" v="873300" />
		<tag k="ssr:type" v="gammelBosettingsplass" />
	</node>
	<node changeset="57982147" id="4485470439" lat="58.8232039" lon="7.787757" timestamp="2018-04-10T18:52:54Z" uid="3497659" user="NKA" version="3">
		<tag k="historic" v="ruins" />
		<tag k="name" v="Prestegardsplass" />
		<tag k="place" v="locality" />
		<tag k="ssr:stedsnr" v="512410" />
		<tag k="ssr:type" v="gammelBosettingsplass" />
	</node>
	<node changeset="57982147" id="4485470440" lat="58.8251123" lon="7.7992448" timestamp="2018-04-10T18:52:54Z" uid="3497659" user="NKA" version="3">
		<tag k="name" v="Prestelidi" />
		<tag k="place" v="neighbourhood" />
		<tag k="ssr:stedsnr" v="873016" />
		<tag k="ssr:type" v="boligfelt" />
	</node>
	<node changeset="57982147" id="4485470441" lat="58.9648766" lon="7.7392464" timestamp="2018-04-10T18:52:54Z" uid="3497659" user="NKA" version="3">
		<tag k="alt_name" v="Presthammaren" />
		<tag k="historic" v="ruins" />
		<tag k="name" v="Presthomman" />
		<tag k="place" v="locality" />
		<tag k="ssr:stedsnr" v="1627" />
		<tag k="ssr:type" v="fritidsbolig" />
	</node>
	<node changeset="57982147" id="4485470442" lat="58.7176264" lon="7.7942002" timestamp="2018-04-10T18:52:54Z" uid="3497659" user="NKA" version="3">
		<tag k="building" v="cabin" />
		<tag k="name" v="Prestnes" />
		<tag k="place" v="isolated_dwelling" />
		<tag k="ssr:stedsnr" v="607927" />
		<tag k="ssr:type" v="fritidsbolig" />
	</node>
	<node changeset="57982147" id="4485470443" lat="58.8447252" lon="7.943535" timestamp="2018-04-10T18:52:54Z" uid="3497659" user="NKA" version="3">
		<tag k="building" v="cabin" />
		<tag k="name" v="Prestøy" />
		<tag k="place" v="isolated_dwelling" />
		<tag k="ssr:stedsnr" v="933821" />
		<tag k="ssr:type" v="fritidsbolig" />
	</node>
	<node changeset="58497758" id="4485470445" lat="59.0146533" lon="7.6059938" timestamp="2018-04-28T08:07:24Z" uid="3497659" user="NKA" version="4">
		<tag k="building" v="cabin" />
		<tag k="historic" v="shieling" />
		<tag k="name" v="Pålstjønnstøylen" />
		<tag k="place" v="isolated_dwelling" />
		<tag k="ssr:stedsnr" v="762675" />
		<tag k="ssr:type" v="seterStøl" />
	</node>
	<node changeset="57982147" id="4485470446" lat="58.9247706" lon="7.5373962" timestamp="2018-04-10T18:52:55Z" uid="3497659" user="NKA" version="3">
		<tag k="name" v="Rangastøyl" />
		<tag k="place" v="locality" />
		<tag k="ssr:stedsnr" v="911486" />
		<tag k="ssr:type" v="fritidsbolig" />
	</node>
	<node changeset="57982147" id="4485470448" lat="58.7265822" lon="7.7250787" timestamp="2018-04-10T18:52:55Z" uid="3497659" user="NKA" version="3">
		<tag k="historic" v="ruins" />
		<tag k="name" v="Ratøygard" />
		<tag k="place" v="locality" />
		<tag k="ssr:stedsnr" v="84313" />
		<tag k="ssr:type" v="gammelBosettingsplass" />
	</node>
	<node changeset="57982147" id="4485470449" lat="58.8428123" lon="7.8269293" timestamp="2018-04-10T18:52:55Z" uid="3497659" user="NKA" version="3">
		<tag k="name" v="Raustad" />
		<tag k="place" v="farm" />
		<tag k="ssr:stedsnr" v="84126" />
		<tag k="ssr:type" v="bruk" />
	</node>
	<node changeset="57982147" id="4485470450" lat="58.8212292" lon="7.7946521" timestamp="2018-04-10T18:52:55Z" uid="3497659" user="NKA" version="3">
		<tag k="name" v="Reisi" />
		<tag k="place" v="farm" />
		<tag k="ssr:stedsnr" v="850743" />
		<tag k="ssr:type" v="eneboligMindreBoligbygg" />
	</node>
	<node changeset="57982147" id="4485470451" lat="58.9245345" lon="7.6824589" timestamp="2018-04-10T18:52:55Z" uid="3497659" user="NKA" version="3">
		<tag k="name" v="Reiårsvatnet 1" />
		<tag k="place" v="neighbourhood" />
		<tag k="ssr:stedsnr" v="116565" />
		<tag k="ssr:type" v="hyttefelt" />
	</node>
	<node changeset="57982147" id="4485470452" lat="58.9199371" lon="7.680263" timestamp="2018-04-10T18:52:55Z" uid="3497659" user="NKA" version="3">
		<tag k="name" v="Reiårsvatnet 2" />
		<tag k="place" v="neighbourhood" />
		<tag k="ssr:stedsnr" v="419948" />
		<tag k="ssr:type" v="hyttefelt" />
	</node>
	<node changeset="58497758" id="4485470453" lat="59.002673" lon="7.9313353" timestamp="2018-04-28T08:07:25Z" uid="3497659" user="NKA" version="4">
		<tag k="historic" v="shieling" />
		<tag k="name" v="Rekedalsstøylen" />
		<tag k="place" v="locality" />
		<tag k="ssr:stedsnr" v="244034" />
		<tag k="ssr:type" v="seterStøl" />
	</node>
	<node changeset="58497758" id="4485470454" lat="58.9713171" lon="7.7631539" timestamp="2018-04-28T08:07:25Z" uid="3497659" user="NKA" version="4">
		<tag k="historic" v="shieling" />
		<tag k="name" v="Replestøyl" />
		<tag k="place" v="locality" />
		<tag k="ssr:stedsnr" v="509362" />
		<tag k="ssr:type" v="seterStøl" />
	</node>
	<node changeset="58497758" id="4485470455" lat="59.0235259" lon="7.5976504" timestamp="2018-04-28T08:07:25Z" uid="3497659" user="NKA" version="4">
		<tag k="historic" v="shieling" />
		<tag k="name" v="Reppan" />
		<tag k="place" v="locality" />
		<tag k="ssr:stedsnr" v="629096" />
		<tag k="ssr:type" v="seterStøl" />
	</node>
	<node changeset="57982147" id="4485470456" lat="58.6732705" lon="7.8089125" timestamp="2018-04-10T18:52:56Z" uid="3497659" user="NKA" version="3">
		<tag k="name" v="Revsnes" />
		<tag k="place" v="farm" />
		<tag k="ssr:stedsnr" v="595" />
		<tag k="ssr:type" v="eneboligMindreBoligbygg" />
	</node>
	<node changeset="58497758" id="4485470457" lat="58.7115019" lon="7.7094131" timestamp="2018-04-28T08:07:25Z" uid="3497659" user="NKA" version="4">
		<tag k="alt_name" v="Revestøyl" />
		<tag k="building" v="cabin" />
		<tag k="historic" v="shieling" />
		<tag k="name" v="Revstøyl" />
		<tag k="place" v="isolated_dwelling" />
		<tag k="ssr:stedsnr" v="365224" />
		<tag k="ssr:type" v="fritidsbolig" />
	</node>
	<node changeset="57982147" id="4485470458" lat="58.7931514" lon="7.7898512" timestamp="2018-04-10T18:52:56Z" uid="3497659" user="NKA" version="3">
		<tag k="name" v="Rindeberg" />
		<tag k="place" v="farm" />
		<tag k="ssr:stedsnr" v="145097" />
		<tag k="ssr:type" v="bruk" />
	</node>
	<node changeset="58497758" id="4485470459" lat="58.7477372" lon="7.7032924" timestamp="2018-04-28T08:07:25Z" uid="3497659" user="NKA" version="4">
		<tag k="historic" v="shieling" />
		<tag k="name" v="Rjupestøyl" />
		<tag k="place" v="locality" />
		<tag k="ssr:stedsnr" v="762825" />
		<tag k="ssr:type" v="seterStøl" />
	</node>
	<node changeset="58497758" id="4485470460" lat="58.946642" lon="7.9469793" timestamp="2018-04-28T08:07:25Z" uid="3497659" user="NKA" version="4">
		<tag k="historic" v="shieling" />
		<tag k="name" v="Rosevallmonen" />
		<tag k="place" v="locality" />
		<tag k="ssr:stedsnr" v="27368" />
		<tag k="ssr:type" v="seterStøl" />
	</node>
	<node changeset="57982147" id="4485470461" lat="58.9132421" lon="7.7578571" timestamp="2018-04-10T18:52:56Z" uid="3497659" user="NKA" version="3">
		<tag k="alt_name" v="Rosevall" />
		<tag k="name" v="Rosevoll" />
		<tag k="place" v="farm" />
		<tag k="ssr:stedsnr" v="789679" />
		<tag k="ssr:type" v="bruk" />
	</node>
	<node changeset="58497758" id="4485470462" lat="58.9670779" lon="7.8734853" timestamp="2018-04-28T08:07:25Z" uid="3497659" user="NKA" version="4">
		<tag k="alt_name" v="Rossetjørnstøl" />
		<tag k="building" v="cabin" />
		<tag k="historic" v="shieling" />
		<tag k="name" v="Rossetjørnstøyl" />
		<tag k="place" v="isolated_dwelling" />
		<tag k="ssr:stedsnr" v="244656" />
		<tag k="ssr:type" v="seterStøl" />
	</node>
	<node changeset="57982147" id="4485470463" lat="58.8579968" lon="7.9196084" timestamp="2018-04-10T18:52:57Z" uid="3497659" user="NKA" version="3">
		<tag k="alt_name" v="Ratøydgard" />
		<tag k="building" v="cabin" />
		<tag k="name" v="Rutøygard" />
		<tag k="place" v="isolated_dwelling" />
		<tag k="ssr:stedsnr" v="426743" />
		<tag k="ssr:type" v="fritidsbolig" />
	</node>
	<node changeset="57982147" id="4485470464" lat="58.7539074" lon="7.7825534" timestamp="2018-04-10T18:52:57Z" uid="3497659" user="NKA" version="3">
		<tag k="historic" v="ruins" />
		<tag k="name" v="Ryningen" />
		<tag k="place" v="locality" />
		<tag k="ssr:stedsnr" v="629432" />
		<tag k="ssr:type" v="gammelBosettingsplass" />
	</node>
	<node changeset="57982147" id="4485470465" lat="58.8894533" lon="7.7246549" timestamp="2018-04-10T18:52:57Z" uid="3497659" user="NKA" version="3">
		<tag k="name" v="Rynningen" />
		<tag k="place" v="farm" />
		<tag k="ssr:stedsnr" v="911730" />
		<tag k="ssr:type" v="bruk" />
	</node>
	<node changeset="58497758" id="4485470466" lat="58.8549486" lon="7.8143537" timestamp="2018-04-28T08:07:25Z" uid="3497659" user="NKA" version="4">
		<tag k="building" v="cabin" />
		<tag k="historic" v="shieling" />
		<tag k="name" v="Ryssli" />
		<tag k="place" v="isolated_dwelling" />
		<tag k="ssr:stedsnr" v="448120" />
		<tag k="ssr:type" v="seterStøl" />
	</node>
	<node changeset="57982147" id="4485470467" lat="58.9883471" lon="7.5401859" timestamp="2018-04-10T18:52:57Z" uid="3497659" user="NKA" version="3">
		<tag k="name" v="Råtun" />
		<tag k="place" v="farm" />
		<tag k="ssr:stedsnr" v="304288" />
		<tag k="ssr:type" v="bruk" />
	</node>
	<node changeset="57982147" id="4485470468" lat="58.6851209" lon="7.927561" timestamp="2018-04-10T18:52:57Z" uid="3497659" user="NKA" version="3">
		<tag k="building" v="cabin" />
		<tag k="name" v="Røyneskleiv" />
		<tag k="place" v="isolated_dwelling" />
		<tag k="ssr:stedsnr" v="823882" />
		<tag k="ssr:type" v="fritidsbolig" />
	</node>
	<node changeset="58497758" id="4485470469" lat="58.7742491" lon="7.7030665" timestamp="2018-04-28T08:07:26Z" uid="3497659" user="NKA" version="4">
		<tag k="historic" v="shieling" />
		<tag k="name" v="Røyneskleiv" />
		<tag k="place" v="locality" />
		<tag k="ssr:stedsnr" v="938255" />
		<tag k="ssr:type" v="seterStøl" />
	</node>
	<node changeset="58497758" id="4485470470" lat="59.0007148" lon="7.7711428" timestamp="2018-04-28T08:07:26Z" uid="3497659" user="NKA" version="4">
		<tag k="building" v="cabin" />
		<tag k="historic" v="shieling" />
		<tag k="name" v="Røynestøyl" />
		<tag k="place" v="isolated_dwelling" />
		<tag k="ssr:stedsnr" v="751330" />
		<tag k="ssr:type" v="seterStøl" />
	</node>
	<node changeset="57982147" id="4485470471" lat="58.9681682" lon="7.3942669" timestamp="2018-04-10T18:52:58Z" uid="3497659" user="NKA" version="3">
		<tag k="building" v="cabin" />
		<tag k="name" v="Røynlikvæven" />
		<tag k="place" v="isolated_dwelling" />
		<tag k="ssr:stedsnr" v="607300" />
		<tag k="ssr:type" v="fritidsbolig" />
	</node>
	<node changeset="57982147" id="4485470472" lat="58.859815" lon="7.648173" timestamp="2018-04-10T18:52:58Z" uid="3497659" user="NKA" version="3">
		<tag k="name" v="Røysland" />
		<tag k="place" v="locality" />
		<tag k="ssr:stedsnr" v="122411" />
		<tag k="ssr:type" v="fritidsbolig" />
	</node>
	<node changeset="58497758" id="4485470473" lat="58.8126193" lon="7.9521265" timestamp="2018-04-28T08:07:26Z" uid="3497659" user="NKA" version="4">
		<tag k="alt_name" v="Sande" />
		<tag k="building" v="cabin" />
		<tag k="historic" v="shieling" />
		<tag k="name" v="Sandestøyl" />
		<tag k="place" v="isolated_dwelling" />
		<tag k="ssr:stedsnr" v="365832" />
		<tag k="ssr:type" v="fritidsbolig" />
	</node>
	<node changeset="57982147" id="4485470474" lat="58.8905774" lon="7.7280635" timestamp="2018-04-10T18:52:58Z" uid="3497659" user="NKA" version="3">
		<tag k="name" v="Sandnes søndre" />
		<tag k="place" v="farm" />
		<tag k="ssr:stedsnr" v="448819" />
		<tag k="ssr:type" v="bruk" />
	</node>
	<node changeset="57982147" id="4485470475" lat="58.7946224" lon="7.6512881" timestamp="2018-04-10T18:52:58Z" uid="3497659" user="NKA" version="3">
		<tag k="building" v="cabin" />
		<tag k="name" v="Sandvassbui" />
		<tag k="place" v="isolated_dwelling" />
		<tag k="ssr:stedsnr" v="365540" />
		<tag k="ssr:type" v="fritidsbolig" />
	</node>
	<node changeset="57982147" id="4485470476" lat="58.9340429" lon="7.899107" timestamp="2018-04-10T18:52:58Z" uid="3497659" user="NKA" version="3">
		<tag k="name" v="Sandvassheii" />
		<tag k="place" v="locality" />
		<tag k="ssr:stedsnr" v="873781" />
		<tag k="ssr:type" v="fritidsbolig" />
	</node>
	<node changeset="58497758" id="4485470477" lat="58.7051881" lon="7.7250426" timestamp="2018-04-28T08:07:26Z" uid="3497659" user="NKA" version="4">
		<tag k="building" v="cabin" />
		<tag k="historic" v="shieling" />
		<tag k="name" v="Sandvasstøyl" />
		<tag k="place" v="isolated_dwelling" />
		<tag k="ssr:stedsnr" v="873369" />
		<tag k="ssr:type" v="seterStøl" />
	</node>
	<node changeset="57982147" id="4485470478" lat="58.706618" lon="7.7080352" timestamp="2018-04-10T18:52:59Z" uid="3497659" user="NKA" version="3">
		<tag k="building" v="cabin" />
		<tag k="name" v="Sandvasstøylen" />
		<tag k="place" v="isolated_dwelling" />
		<tag k="ssr:stedsnr" v="365227" />
		<tag k="ssr:type" v="fritidsbolig" />
	</node>
	<node changeset="58497758" id="4485470479" lat="58.8885539" lon="7.8887542" timestamp="2018-04-28T08:07:26Z" uid="3497659" user="NKA" version="4">
		<tag k="alt_name" v="Sandvasstølen" />
		<tag k="building" v="cabin" />
		<tag k="historic" v="shieling" />
		<tag k="name" v="Sandvasstøylen" />
		<tag k="place" v="isolated_dwelling" />
		<tag k="ssr:stedsnr" v="365721" />
		<tag k="ssr:type" v="seterStøl" />
	</node>
	<node changeset="58497758" id="4485470480" lat="59.0298417" lon="7.7160512" timestamp="2018-04-28T08:07:26Z" uid="3497659" user="NKA" version="4">
		<tag k="building" v="cabin" />
		<tag k="historic" v="shieling" />
		<tag k="name" v="Sandvasstøylen" />
		<tag k="place" v="isolated_dwelling" />
		<tag k="ssr:stedsnr" v="145407" />
		<tag k="ssr:type" v="seterStøl" />
	</node>
	<node changeset="58497758" id="4485470483" lat="58.9154797" lon="7.5101803" timestamp="2018-04-28T08:07:27Z" uid="3497659" user="NKA" version="4">
		<tag k="building" v="cabin" />
		<tag k="historic" v="shieling" />
		<tag k="name" v="Saurbu" />
		<tag k="place" v="isolated_dwelling" />
		<tag k="ssr:stedsnr" v="243472" />
		<tag k="ssr:type" v="seterStøl" />
	</node>
	<node changeset="58497758" id="4485470484" lat="59.0164946" lon="7.6023859" timestamp="2018-04-28T08:07:27Z" uid="3497659" user="NKA" version="4">
		<tag k="alt_name" v="Setberg" />
		<tag k="historic" v="shieling" />
		<tag k="name" v="Sedberg" />
		<tag k="place" v="locality" />
		<tag k="ssr:stedsnr" v="851276" />
		<tag k="ssr:type" v="seterStøl" />
	</node>
	<node changeset="57982147" id="4485470485" lat="58.9181594" lon="7.7540464" timestamp="2018-04-10T18:53:00Z" uid="3497659" user="NKA" version="3">
		<tag k="name" v="Segberg" />
		<tag k="place" v="farm" />
		<tag k="ssr:stedsnr" v="161419" />
		<tag k="ssr:type" v="bruk" />
	</node>
	<node changeset="57982147" id="4485470486" lat="58.9168699" lon="7.7540219" timestamp="2018-04-10T18:53:00Z" uid="3497659" user="NKA" version="3">
		<tag k="alt_name" v="Seberg" />
		<tag k="name" v="Setberg" />
		<tag k="place" v="farm" />
		<tag k="ssr:stedsnr" v="911689" />
		<tag k="ssr:type" v="bruk" />
	</node>
	<node changeset="57982147" id="4485470487" lat="58.9762416" lon="7.5320013" timestamp="2018-04-10T18:53:00Z" uid="3497659" user="NKA" version="3">
		<tag k="building" v="cabin" />
		<tag k="name" v="Simdalen" />
		<tag k="place" v="isolated_dwelling" />
		<tag k="ssr:stedsnr" v="425285" />
		<tag k="ssr:type" v="fritidsbolig" />
	</node>
	<node changeset="58497758" id="4485470488" lat="58.8700026" lon="7.8869098" timestamp="2018-04-28T08:07:27Z" uid="3497659" user="NKA" version="4">
		<tag k="alt_name" v="Sivårstøl" />
		<tag k="building" v="cabin" />
		<tag k="historic" v="shieling" />
		<tag k="name" v="Sivårstøyl" />
		<tag k="place" v="isolated_dwelling" />
		<tag k="ssr:stedsnr" v="486735" />
		<tag k="ssr:type" v="fritidsbolig" />
	</node>
	<node changeset="58497758" id="4485470489" lat="58.9130327" lon="7.6787499" timestamp="2018-04-28T08:07:27Z" uid="3497659" user="NKA" version="4">
		<tag k="alt_name" v="Skagestøyl" />
		<tag k="building" v="cabin" />
		<tag k="historic" v="shieling" />
		<tag k="name" v="Skakstøyl" />
		<tag k="place" v="isolated_dwelling" />
		<tag k="ssr:stedsnr" v="122451" />
		<tag k="ssr:type" v="seterStøl" />
	</node>
	<node changeset="57982147" id="4485470490" lat="58.961057" lon="7.6020059" timestamp="2018-04-10T18:53:00Z" uid="3497659" user="NKA" version="3">
		<tag k="building" v="cabin" />
		<tag k="name" v="Skardstøyl" />
		<tag k="place" v="isolated_dwelling" />
		<tag k="ssr:stedsnr" v="365291" />
		<tag k="ssr:type" v="fritidsbolig" />
	</node>
	<node changeset="58497758" id="4485470491" lat="59.012356" lon="7.5180558" timestamp="2018-04-28T08:07:27Z" uid="3497659" user="NKA" version="4">
		<tag k="historic" v="shieling" />
		<tag k="name" v="Skarenstøyl" />
		<tag k="place" v="locality" />
		<tag k="ssr:stedsnr" v="144110" />
		<tag k="ssr:type" v="seterStøl" />
	</node>
	<node changeset="57982147" id="4485470492" lat="58.7447331" lon="7.6728972" timestamp="2018-04-10T18:53:01Z" uid="3497659" user="NKA" version="3">
		<tag k="building" v="cabin" />
		<tag k="name" v="Skeie" />
		<tag k="place" v="isolated_dwelling" />
		<tag k="ssr:stedsnr" v="667051" />
		<tag k="ssr:type" v="fritidsbolig" />
	</node>
	<node changeset="57982147" id="4485470493" lat="58.9313162" lon="7.7590698" timestamp="2018-04-10T18:53:01Z" uid="3497659" user="NKA" version="3">
		<tag k="alt_name" v="Skei" />
		<tag k="name" v="Skeie" />
		<tag k="place" v="locality" />
		<tag k="ssr:stedsnr" v="304667" />
		<tag k="ssr:type" v="eneboligMindreBoligbygg" />
	</node>
	<node changeset="57982147" id="4485470494" lat="58.7703266" lon="7.7689019" timestamp="2018-04-10T18:53:01Z" uid="3497659" user="NKA" version="3">
		<tag k="building" v="cabin" />
		<tag k="name" v="Skjemmingtveit" />
		<tag k="place" v="isolated_dwelling" />
		<tag k="ssr:stedsnr" v="183836" />
		<tag k="ssr:type" v="fritidsbolig" />
	</node>
	<node changeset="58497758" id="4485470495" lat="58.8765051" lon="7.9852276" timestamp="2018-04-28T08:07:27Z" uid="3497659" user="NKA" version="4">
		<tag k="historic" v="shieling" />
		<tag k="name" v="Skjevlevatsstøyl" />
		<tag k="place" v="locality" />
		<tag k="ssr:stedsnr" v="337892" />
		<tag k="ssr:type" v="seterStøl" />
	</node>
	<node changeset="57982147" id="4485470496" lat="58.8607286" lon="7.8957215" timestamp="2018-04-10T18:53:01Z" uid="3497659" user="NKA" version="3">
		<tag k="building" v="cabin" />
		<tag k="name" v="Skogskolehytta" />
		<tag k="place" v="isolated_dwelling" />
		<tag k="ssr:stedsnr" v="812457" />
		<tag k="ssr:type" v="fritidsbolig" />
	</node>
	<node changeset="57982147" id="4485470497" lat="58.941239" lon="7.7178222" timestamp="2018-04-10T18:53:01Z" uid="3497659" user="NKA" version="3">
		<tag k="name" v="Skore" />
		<tag k="place" v="farm" />
		<tag k="ssr:stedsnr" v="486501" />
		<tag k="ssr:type" v="bruk" />
	</node>
	<node changeset="58497758" id="4485470498" lat="59.0346348" lon="7.6437607" timestamp="2018-04-28T08:07:27Z" uid="3497659" user="NKA" version="4">
		<tag k="alt_name" v="Skuggestøl" />
		<tag k="historic" v="shieling" />
		<tag k="name" v="Skuggestøyl" />
		<tag k="place" v="locality" />
		<tag k="ssr:stedsnr" v="790245" />
		<tag k="ssr:type" v="seterStøl" />
	</node>
	<node changeset="58497758" id="4485470499" lat="58.883953" lon="7.6504186" timestamp="2018-04-28T08:07:28Z" uid="3497659" user="NKA" version="4">
		<tag k="historic" v="shieling" />
		<tag k="name" v="Skåmestøyl" />
		<tag k="place" v="locality" />
		<tag k="ssr:stedsnr" v="426421" />
		<tag k="ssr:type" v="seterStøl" />
	</node>
	<node changeset="57982147" id="4485470500" lat="58.9141792" lon="7.6065378" timestamp="2018-04-10T18:53:02Z" uid="3497659" user="NKA" version="3">
		<tag k="building" v="cabin" />
		<tag k="name" v="Skåvatn" />
		<tag k="place" v="isolated_dwelling" />
		<tag k="ssr:stedsnr" v="364467" />
		<tag k="ssr:type" v="fritidsbolig" />
	</node>
	<node changeset="58497758" id="4485470501" lat="58.8539743" lon="7.7995756" timestamp="2018-04-28T08:07:28Z" uid="3497659" user="NKA" version="4">
		<tag k="historic" v="shieling" />
		<tag k="name" v="Sletteskor" />
		<tag k="place" v="locality" />
		<tag k="ssr:stedsnr" v="448126" />
		<tag k="ssr:type" v="seterStøl" />
	</node>
	<node changeset="57982147" id="4485470502" lat="58.7086003" lon="7.8405246" timestamp="2018-04-10T18:53:02Z" uid="3497659" user="NKA" version="3">
		<tag k="name" v="Smidjan" />
		<tag k="place" v="farm" />
		<tag k="ssr:stedsnr" v="691066" />
		<tag k="ssr:type" v="bruk" />
	</node>
	<node changeset="58497758" id="4485470503" lat="58.6936258" lon="7.8584275" timestamp="2018-04-28T08:07:28Z" uid="3497659" user="NKA" version="4">
		<tag k="historic" v="shieling" />
		<tag k="name" v="Smørstøyl" />
		<tag k="place" v="locality" />
		<tag k="ssr:stedsnr" v="873042" />
		<tag k="ssr:type" v="seterStøl" />
	</node>
	<node changeset="57982147" id="4485470504" lat="58.9745236" lon="7.5024487" timestamp="2018-04-10T18:53:02Z" uid="3497659" user="NKA" version="3">
		<tag k="historic" v="ruins" />
		<tag k="name" v="Snik" />
		<tag k="place" v="locality" />
		<tag k="ssr:stedsnr" v="61303" />
		<tag k="ssr:type" v="gammelBosettingsplass" />
	</node>
	<node changeset="57982147" id="4485470505" lat="58.7902269" lon="7.8992113" timestamp="2018-04-10T18:53:02Z" uid="3497659" user="NKA" version="3">
		<tag k="building" v="cabin" />
		<tag k="name" v="Solbu" />
		<tag k="place" v="isolated_dwelling" />
		<tag k="ssr:stedsnr" v="1784" />
		<tag k="ssr:type" v="fritidsbolig" />
	</node>
	<node changeset="57982147" id="4485470506" lat="58.7514742" lon="7.8093675" timestamp="2018-04-10T18:53:02Z" uid="3497659" user="NKA" version="3">
		<tag k="name" v="Solli" />
		<tag k="place" v="farm" />
		<tag k="ssr:stedsnr" v="364888" />
		<tag k="ssr:type" v="bruk" />
	</node>
	<node changeset="57982147" id="4485470507" lat="58.8226452" lon="7.7955573" timestamp="2018-04-10T18:53:02Z" uid="3497659" user="NKA" version="3">
		<tag k="name" v="Solli" />
		<tag k="place" v="farm" />
		<tag k="ssr:stedsnr" v="911782" />
		<tag k="ssr:type" v="bruk" />
	</node>
	<node changeset="57982147" id="4485470508" lat="58.9241204" lon="7.6076682" timestamp="2018-04-10T18:53:02Z" uid="3497659" user="NKA" version="3">
		<tag k="building" v="cabin" />
		<tag k="name" v="Solli" />
		<tag k="place" v="isolated_dwelling" />
		<tag k="ssr:stedsnr" v="728461" />
		<tag k="ssr:type" v="fritidsbolig" />
	</node>
	<node changeset="58497758" id="4485470509" lat="59.0121066" lon="7.5219913" timestamp="2018-04-28T08:07:28Z" uid="3497659" user="NKA" version="4">
		<tag k="alt_name" v="Solli" />
		<tag k="historic" v="shieling" />
		<tag k="name" v="Sollid" />
		<tag k="place" v="locality" />
		<tag k="ssr:stedsnr" v="851279" />
		<tag k="ssr:type" v="seterStøl" />
	</node>
	<node changeset="57982147" id="4485470510" lat="58.9843806" lon="7.5998736" timestamp="2018-04-10T18:53:03Z" uid="3497659" user="NKA" version="3">
		<tag k="name" v="Sordal" />
		<tag k="place" v="hamlet" />
		<tag k="ssr:stedsnr" v="243290" />
		<tag k="ssr:type" v="grend" />
	</node>
	<node changeset="57982147" id="4485470511" lat="58.985995" lon="7.5400509" timestamp="2018-04-10T18:53:03Z" uid="3497659" user="NKA" version="3">
		<tag k="name" v="Sprelin" />
		<tag k="place" v="farm" />
		<tag k="ssr:stedsnr" v="304287" />
		<tag k="ssr:type" v="bruk" />
	</node>
	<node changeset="57982147" id="4485470512" lat="58.8043881" lon="7.7686299" timestamp="2018-04-10T18:53:03Z" uid="3497659" user="NKA" version="3">
		<tag k="name" v="Stallemo" />
		<tag k="place" v="farm" />
		<tag k="ssr:stedsnr" v="691355" />
		<tag k="ssr:type" v="bruk" />
	</node>
	<node changeset="57982147" id="4485470513" lat="58.8368531" lon="7.966207" timestamp="2018-04-10T18:53:03Z" uid="3497659" user="NKA" version="3">
		<tag k="building" v="cabin" />
		<tag k="name" v="Stallen" />
		<tag k="place" v="isolated_dwelling" />
		<tag k="ssr:stedsnr" v="573333" />
		<tag k="ssr:type" v="fritidsbolig" />
	</node>
	<node changeset="57982147" id="4485470514" lat="58.6995625" lon="7.8354374" timestamp="2018-04-10T18:53:03Z" uid="3497659" user="NKA" version="3">
		<tag k="name" v="Stareholtet" />
		<tag k="place" v="farm" />
		<tag k="ssr:stedsnr" v="569037" />
		<tag k="ssr:type" v="bruk" />
	</node>
	<node changeset="57982147" id="4485470515" lat="58.7211741" lon="7.8687345" timestamp="2018-04-10T18:53:03Z" uid="3497659" user="NKA" version="3">
		<tag k="building" v="cabin" />
		<tag k="name" v="Stean" />
		<tag k="place" v="isolated_dwelling" />
		<tag k="ssr:stedsnr" v="62942" />
		<tag k="ssr:type" v="fritidsbolig" />
	</node>
	<node changeset="57982147" id="4485470516" lat="58.7437551" lon="7.9349961" timestamp="2018-04-10T18:53:03Z" uid="3497659" user="NKA" version="3">
		<tag k="building" v="cabin" />
		<tag k="name" v="Stedjan" />
		<tag k="place" v="isolated_dwelling" />
		<tag k="ssr:stedsnr" v="486906" />
		<tag k="ssr:type" v="fritidsbolig" />
	</node>
	<node changeset="57982147" id="4485470517" lat="58.876941" lon="7.9378565" timestamp="2018-04-10T18:53:04Z" uid="3497659" user="NKA" version="3">
		<tag k="building" v="cabin" />
		<tag k="name" v="Steinbudalen" />
		<tag k="place" v="isolated_dwelling" />
		<tag k="ssr:stedsnr" v="851713" />
		<tag k="ssr:type" v="fritidsbolig" />
	</node>
	<node changeset="58497758" id="4485470518" lat="58.9952388" lon="7.4427883" timestamp="2018-04-28T08:07:28Z" uid="3497659" user="NKA" version="4">
		<tag k="historic" v="shieling" />
		<tag k="name" v="Steinetjønnstøyl" />
		<tag k="place" v="locality" />
		<tag k="ssr:stedsnr" v="580787" />
		<tag k="ssr:type" v="seterStøl" />
	</node>
	<node changeset="58497758" id="4485470519" lat="58.7144987" lon="7.8619457" timestamp="2018-04-28T08:07:28Z" uid="3497659" user="NKA" version="4">
		<tag k="historic" v="shieling" />
		<tag k="name" v="Steinkleiv" />
		<tag k="place" v="locality" />
		<tag k="ssr:stedsnr" v="266013" />
		<tag k="ssr:type" v="seterStøl" />
	</node>
	<node changeset="57982147" id="4485470520" lat="58.699841" lon="7.8338984" timestamp="2018-04-10T18:53:04Z" uid="3497659" user="NKA" version="3">
		<tag k="name" v="Steinli" />
		<tag k="place" v="farm" />
		<tag k="ssr:stedsnr" v="812027" />
		<tag k="ssr:type" v="bruk" />
	</node>
	<node changeset="58497758" id="4485470521" lat="59.0332106" lon="7.7556516" timestamp="2018-04-28T08:07:28Z" uid="3497659" user="NKA" version="4">
		<tag k="building" v="cabin" />
		<tag k="historic" v="shieling" />
		<tag k="name" v="Steinsvasstøylen nordre" />
		<tag k="place" v="isolated_dwelling" />
		<tag k="ssr:stedsnr" v="752381" />
		<tag k="ssr:type" v="seterStøl" />
	</node>
	<node changeset="58497758" id="4485470522" lat="59.030967" lon="7.7585964" timestamp="2018-04-28T08:07:29Z" uid="3497659" user="NKA" version="4">
		<tag k="historic" v="shieling" />
		<tag k="name" v="Steinsvasstøylen søndre" />
		<tag k="place" v="locality" />
		<tag k="ssr:stedsnr" v="813359" />
		<tag k="ssr:type" v="seterStøl" />
	</node>
	<node changeset="57982147" id="4485470523" lat="59.0471762" lon="7.8217271" timestamp="2018-04-10T18:53:04Z" uid="3497659" user="NKA" version="3">
		<tag k="name" v="Stemmhytta" />
		<tag k="place" v="locality" />
		<tag k="ssr:stedsnr" v="519730" />
		<tag k="ssr:type" v="fritidsbolig" />
	</node>
	<node changeset="57982147" id="4485470524" lat="58.8447777" lon="7.7551643" timestamp="2018-04-10T18:53:04Z" uid="3497659" user="NKA" version="3">
		<tag k="building" v="cabin" />
		<tag k="name" v="Stigemo" />
		<tag k="place" v="isolated_dwelling" />
		<tag k="ssr:stedsnr" v="364754" />
		<tag k="ssr:type" v="fritidsbolig" />
	</node>
	<node changeset="57982147" id="4485470525" lat="58.8693871" lon="7.8953763" timestamp="2018-04-10T18:53:04Z" uid="3497659" user="NKA" version="3">
		<tag k="building" v="cabin" />
		<tag k="name" v="Stigen" />
		<tag k="place" v="isolated_dwelling" />
		<tag k="ssr:stedsnr" v="304742" />
		<tag k="ssr:type" v="fritidsbolig" />
	</node>
	<node changeset="58497758" id="4485470526" lat="58.8409831" lon="7.7472963" timestamp="2018-04-28T08:07:29Z" uid="3497659" user="NKA" version="4">
		<tag k="historic" v="shieling" />
		<tag k="name" v="Stigestøyl" />
		<tag k="place" v="locality" />
		<tag k="ssr:stedsnr" v="933251" />
		<tag k="ssr:type" v="seterStøl" />
	</node>
	<node changeset="57982147" id="4485470527" lat="58.7854156" lon="7.7965733" timestamp="2018-04-10T18:53:05Z" uid="3497659" user="NKA" version="3">
		<tag k="historic" v="ruins" />
		<tag k="name" v="Stoga" />
		<tag k="place" v="locality" />
		<tag k="ssr:stedsnr" v="327072" />
		<tag k="ssr:type" v="gammelBosettingsplass" />
	</node>
	<node changeset="58497758" id="4485470528" lat="58.8658287" lon="7.6861011" timestamp="2018-04-28T08:07:29Z" uid="3497659" user="NKA" version="4">
		<tag k="building" v="cabin" />
		<tag k="historic" v="shieling" />
		<tag k="name" v="Stoi" />
		<tag k="place" v="isolated_dwelling" />
		<tag k="ssr:stedsnr" v="304402" />
		<tag k="ssr:type" v="seterStøl" />
	</node>
	<node changeset="57982147" id="4485470529" lat="58.9189718" lon="7.743469" timestamp="2018-04-10T18:53:05Z" uid="3497659" user="NKA" version="3">
		<tag k="name" v="Stoplestog" />
		<tag k="place" v="farm" />
		<tag k="ssr:stedsnr" v="751317" />
		<tag k="ssr:type" v="bruk" />
	</node>
	<node changeset="58497758" id="4485470530" lat="58.8071803" lon="7.8984679" timestamp="2018-04-28T08:07:29Z" uid="3497659" user="NKA" version="4">
		<tag k="alt_name" v="Homme" />
		<tag k="building" v="cabin" />
		<tag k="historic" v="shieling" />
		<tag k="name" v="Storehom" />
		<tag k="place" v="isolated_dwelling" />
		<tag k="ssr:stedsnr" v="633354" />
		<tag k="ssr:type" v="seterStøl" />
	</node>
	<node changeset="58497758" id="4485470531" lat="58.9163425" lon="7.7796396" timestamp="2018-04-28T08:07:29Z" uid="3497659" user="NKA" version="4">
		<tag k="alt_name" v="Storestøl" />
		<tag k="building" v="cabin" />
		<tag k="historic" v="shieling" />
		<tag k="name" v="Storestøyl" />
		<tag k="place" v="isolated_dwelling" />
		<tag k="ssr:stedsnr" v="681" />
		<tag k="ssr:type" v="fritidsbolig" />
	</node>
	<node changeset="57982147" id="4485470532" lat="58.9125227" lon="7.7134471" timestamp="2018-04-10T18:53:05Z" uid="3497659" user="NKA" version="3">
		<tag k="name" v="Storrvollen" />
		<tag k="place" v="farm" />
		<tag k="ssr:stedsnr" v="387045" />
		<tag k="ssr:type" v="bruk" />
	</node>
	<node changeset="57982147" id="4485470533" lat="58.9082363" lon="7.387801" timestamp="2018-04-10T18:53:06Z" uid="3497659" user="NKA" version="3">
		<tag k="building" v="cabin" />
		<tag k="name" v="Strandelega" />
		<tag k="place" v="isolated_dwelling" />
		<tag k="ssr:stedsnr" v="182472" />
		<tag k="ssr:type" v="fritidsbolig" />
	</node>
	<node changeset="57982147" id="4485470534" lat="58.7583406" lon="7.8534741" timestamp="2018-04-10T18:53:06Z" uid="3497659" user="NKA" version="3">
		<tag k="name" v="Strandheim" />
		<tag k="place" v="farm" />
		<tag k="ssr:stedsnr" v="326241" />
		<tag k="ssr:type" v="eneboligMindreBoligbygg" />
	</node>
	<node changeset="57982147" id="4485470535" lat="58.8522598" lon="7.7476053" timestamp="2018-04-10T18:53:06Z" uid="3497659" user="NKA" version="3">
		<tag k="historic" v="ruins" />
		<tag k="name" v="Straumen" />
		<tag k="place" v="locality" />
		<tag k="ssr:stedsnr" v="508392" />
		<tag k="ssr:type" v="gammelBosettingsplass" />
	</node>
	<node changeset="57982147" id="4485470536" lat="58.8509277" lon="7.7431709" timestamp="2018-04-10T18:53:06Z" uid="3497659" user="NKA" version="3">
		<tag k="historic" v="ruins" />
		<tag k="name" v="Straumsland" />
		<tag k="place" v="locality" />
		<tag k="ssr:stedsnr" v="812370" />
		<tag k="ssr:type" v="gammelBosettingsplass" />
	</node>
	<node changeset="57982147" id="4485470537" lat="59.0075113" lon="7.8613003" timestamp="2018-04-10T18:53:06Z" uid="3497659" user="NKA" version="3">
		<tag k="building" v="cabin" />
		<tag k="name" v="Stretet" />
		<tag k="place" v="isolated_dwelling" />
		<tag k="ssr:stedsnr" v="1033" />
		<tag k="ssr:type" v="fritidsbolig" />
	</node>
	<node changeset="57982147" id="4485470538" lat="58.9052999" lon="7.8137957" timestamp="2018-04-10T18:53:06Z" uid="3497659" user="NKA" version="3">
		<tag k="building" v="cabin" />
		<tag k="name" v="Strondi" />
		<tag k="place" v="isolated_dwelling" />
		<tag k="ssr:stedsnr" v="700" />
		<tag k="ssr:type" v="fritidsbolig" />
	</node>
	<node changeset="58497758" id="4485470539" lat="58.8463737" lon="7.9463109" timestamp="2018-04-28T08:07:30Z" uid="3497659" user="NKA" version="4">
		<tag k="historic" v="shieling" />
		<tag k="name" v="Stutehommen" />
		<tag k="place" v="locality" />
		<tag k="ssr:stedsnr" v="933515" />
		<tag k="ssr:type" v="seterStøl" />
	</node>
	<node changeset="57982147" id="4485470540" lat="58.8520372" lon="7.8308741" timestamp="2018-04-10T18:53:06Z" uid="3497659" user="NKA" version="3">
		<tag k="name" v="Stuttstog" />
		<tag k="place" v="farm" />
		<tag k="ssr:stedsnr" v="668771" />
		<tag k="ssr:type" v="bruk" />
	</node>
	<node changeset="58497758" id="4485470541" lat="58.9156219" lon="7.669318" timestamp="2018-04-28T08:07:30Z" uid="3497659" user="NKA" version="4">
		<tag k="building" v="cabin" />
		<tag k="historic" v="shieling" />
		<tag k="name" v="Sundstøyl" />
		<tag k="place" v="isolated_dwelling" />
		<tag k="ssr:stedsnr" v="182471" />
		<tag k="ssr:type" v="seterStøl" />
	</node>
	<node changeset="57982147" id="4485470542" lat="58.9013149" lon="7.6123595" timestamp="2018-04-10T18:53:07Z" uid="3497659" user="NKA" version="3">
		<tag k="building" v="cabin" />
		<tag k="name" v="Sunndalen" />
		<tag k="place" v="isolated_dwelling" />
		<tag k="ssr:stedsnr" v="122441" />
		<tag k="ssr:type" v="fritidsbolig" />
	</node>
	<node changeset="58497758" id="4485470543" lat="59.0112147" lon="7.7693986" timestamp="2018-04-28T08:07:30Z" uid="3497659" user="NKA" version="4">
		<tag k="historic" v="shieling" />
		<tag k="name" v="Sveestøyl" />
		<tag k="place" v="locality" />
		<tag k="ssr:stedsnr" v="873307" />
		<tag k="ssr:type" v="seterStøl" />
	</node>
	<node changeset="57982147" id="4485470544" lat="58.9571543" lon="7.9429271" timestamp="2018-04-10T18:53:07Z" uid="3497659" user="NKA" version="3">
		<tag k="building" v="cabin" />
		<tag k="name" v="Sveigi" />
		<tag k="place" v="isolated_dwelling" />
		<tag k="ssr:stedsnr" v="62641" />
		<tag k="ssr:type" v="fritidsbolig" />
	</node>
	<node changeset="57982147" id="4485470545" lat="58.950537" lon="7.8668411" timestamp="2018-04-10T18:53:07Z" uid="3497659" user="NKA" version="3">
		<tag k="building" v="cabin" />
		<tag k="name" v="Sveling" />
		<tag k="place" v="isolated_dwelling" />
		<tag k="ssr:stedsnr" v="790682" />
		<tag k="ssr:type" v="fritidsbolig" />
	</node>
	<node changeset="58497758" id="4485470546" lat="58.9540151" lon="7.5285498" timestamp="2018-04-28T08:07:30Z" uid="3497659" user="NKA" version="4">
		<tag k="historic" v="shieling" />
		<tag k="name" v="Svåletjønnstøylane" />
		<tag k="place" v="locality" />
		<tag k="ssr:stedsnr" v="122270" />
		<tag k="ssr:type" v="seterStøl" />
	</node>
	<node changeset="57982147" id="4485470547" lat="58.935771" lon="7.8340796" timestamp="2018-04-10T18:53:07Z" uid="3497659" user="NKA" version="3">
		<tag k="building" v="cabin" />
		<tag k="name" v="Syrdalen" />
		<tag k="place" v="isolated_dwelling" />
		<tag k="ssr:stedsnr" v="304678" />
		<tag k="ssr:type" v="fritidsbolig" />
	</node>
	<node changeset="57982147" id="4485470548" lat="58.853591" lon="7.8275418" timestamp="2018-04-10T18:53:07Z" uid="3497659" user="NKA" version="3">
		<tag k="name" v="Såghus" />
		<tag k="place" v="farm" />
		<tag k="ssr:stedsnr" v="121732" />
		<tag k="ssr:type" v="bruk" />
	</node>
	<node changeset="57982147" id="4485470549" lat="58.8095812" lon="7.7628679" timestamp="2018-04-10T18:53:08Z" uid="3497659" user="NKA" version="3">
		<tag k="alt_name" v="Søejordet" />
		<tag k="building" v="cabin" />
		<tag k="name" v="Søjordet" />
		<tag k="place" v="isolated_dwelling" />
		<tag k="ssr:stedsnr" v="607794" />
		<tag k="ssr:type" v="fritidsbolig" />
	</node>
	<node changeset="57982147" id="4485470550" lat="58.9781857" lon="7.672972" timestamp="2018-04-10T18:53:08Z" uid="3497659" user="NKA" version="3">
		<tag k="alt_name" v="Heistad søndre" />
		<tag k="name" v="Søndre Heistad" />
		<tag k="place" v="farm" />
		<tag k="ssr:stedsnr" v="569452" />
		<tag k="ssr:type" v="bruk" />
	</node>
	<node changeset="57982147" id="4485470551" lat="58.7981963" lon="7.8220709" timestamp="2018-04-10T18:53:08Z" uid="3497659" user="NKA" version="3">
		<tag k="alt_name" v="Lauvdal søndre;Lauvdal, s" />
		<tag k="name" v="Søndre Lauvdal" />
		<tag k="place" v="farm" />
		<tag k="ssr:stedsnr" v="61791" />
		<tag k="ssr:type" v="bruk" />
	</node>
	<node changeset="57982147" id="4485470552" lat="58.6601175" lon="7.8214972" timestamp="2018-04-10T18:53:08Z" uid="3497659" user="NKA" version="3">
		<tag k="name" v="Søndre Vassenden" />
		<tag k="place" v="farm" />
		<tag k="ssr:stedsnr" v="205419" />
		<tag k="ssr:type" v="bruk" />
	</node>
	<node changeset="57982147" id="4485470553" lat="58.7942813" lon="7.7693499" timestamp="2018-04-10T18:53:08Z" uid="3497659" user="NKA" version="3">
		<tag k="name" v="Søre Skjevrak" />
		<tag k="place" v="farm" />
		<tag k="ssr:stedsnr" v="61792" />
		<tag k="ssr:type" v="bruk" />
	</node>
	<node changeset="57982147" id="4485470554" lat="58.9601162" lon="7.6836287" timestamp="2018-04-10T18:53:08Z" uid="3497659" user="NKA" version="3">
		<tag k="name" v="Sørgarden" />
		<tag k="place" v="farm" />
		<tag k="ssr:stedsnr" v="790223" />
		<tag k="ssr:type" v="bruk" />
	</node>
	<node changeset="58497758" id="4485470555" lat="59.0193316" lon="7.7783945" timestamp="2018-04-28T08:07:30Z" uid="3497659" user="NKA" version="4">
		<tag k="building" v="cabin" />
		<tag k="historic" v="shieling" />
		<tag k="name" v="Søtefjellstøylen" />
		<tag k="place" v="isolated_dwelling" />
		<tag k="ssr:stedsnr" v="608538" />
		<tag k="ssr:type" v="fritidsbolig" />
	</node>
	<node changeset="58497758" id="4485470556" lat="58.9962302" lon="7.5814797" timestamp="2018-04-28T08:07:31Z" uid="3497659" user="NKA" version="4">
		<tag k="historic" v="shieling" />
		<tag k="name" v="Tagdal" />
		<tag k="place" v="locality" />
		<tag k="ssr:stedsnr" v="751010" />
		<tag k="ssr:type" v="seterStøl" />
	</node>
	<node changeset="57982147" id="4485470557" lat="58.6853069" lon="7.8433653" timestamp="2018-04-10T18:53:09Z" uid="3497659" user="NKA" version="3">
		<tag k="building" v="cabin" />
		<tag k="name" v="Takli" />
		<tag k="place" v="isolated_dwelling" />
		<tag k="ssr:stedsnr" v="911630" />
		<tag k="ssr:type" v="fritidsbolig" />
	</node>
	<node changeset="57982147" id="4485470558" lat="58.990402" lon="7.5378347" timestamp="2018-04-10T18:53:09Z" uid="3497659" user="NKA" version="3">
		<tag k="name" v="Teigen" />
		<tag k="place" v="farm" />
		<tag k="ssr:stedsnr" v="364336" />
		<tag k="ssr:type" v="bruk" />
	</node>
	<node changeset="58497758" id="4485470559" lat="58.9171245" lon="7.9497689" timestamp="2018-04-28T08:07:31Z" uid="3497659" user="NKA" version="4">
		<tag k="alt_name" v="Teosstøl" />
		<tag k="historic" v="shieling" />
		<tag k="name" v="Teosstøyl" />
		<tag k="place" v="locality" />
		<tag k="ssr:stedsnr" v="546650" />
		<tag k="ssr:type" v="seterStøl" />
	</node>
	<node changeset="58497758" id="4485470560" lat="59.0540589" lon="7.8018371" timestamp="2018-04-28T08:07:31Z" uid="3497659" user="NKA" version="4">
		<tag k="building" v="cabin" />
		<tag k="historic" v="shieling" />
		<tag k="name" v="Teushommen" />
		<tag k="place" v="isolated_dwelling" />
		<tag k="ssr:stedsnr" v="244472" />
		<tag k="ssr:type" v="seterStøl" />
	</node>
	<node changeset="57982147" id="4485470561" lat="58.961201" lon="7.4713076" timestamp="2018-04-10T18:53:09Z" uid="3497659" user="NKA" version="3">
		<tag k="building" v="cabin" />
		<tag k="name" v="Tjønndalen" />
		<tag k="place" v="isolated_dwelling" />
		<tag k="ssr:stedsnr" v="486311" />
		<tag k="ssr:type" v="fritidsbolig" />
	</node>
	<node changeset="58497758" id="4485470562" lat="58.7344082" lon="7.8954231" timestamp="2018-04-28T08:07:31Z" uid="3497659" user="NKA" version="4">
		<tag k="building" v="cabin" />
		<tag k="historic" v="shieling" />
		<tag k="name" v="Tjørnstøyl" />
		<tag k="place" v="isolated_dwelling" />
		<tag k="ssr:stedsnr" v="508144" />
		<tag k="ssr:type" v="seterStøl" />
	</node>
	<node changeset="58497758" id="4485470563" lat="58.8752196" lon="7.875978" timestamp="2018-04-28T08:07:32Z" uid="3497659" user="NKA" version="4">
		<tag k="alt_name" v="Tolhamstøl" />
		<tag k="building" v="cabin" />
		<tag k="historic" v="shieling" />
		<tag k="name" v="Tollhomstøyl" />
		<tag k="place" v="isolated_dwelling" />
		<tag k="ssr:stedsnr" v="426725" />
		<tag k="ssr:type" v="fritidsbolig" />
	</node>
	<node changeset="57982147" id="4485470564" lat="58.9963013" lon="7.8688972" timestamp="2018-04-10T18:53:09Z" uid="3497659" user="NKA" version="3">
		<tag k="building" v="cabin" />
		<tag k="name" v="Topsælii" />
		<tag k="place" v="isolated_dwelling" />
		<tag k="ssr:stedsnr" v="668629" />
		<tag k="ssr:type" v="fritidsbolig" />
	</node>
	<node changeset="58497758" id="4485470566" lat="58.8123844" lon="7.8794976" timestamp="2018-04-28T08:07:32Z" uid="3497659" user="NKA" version="4">
		<tag k="historic" v="shieling" />
		<tag k="name" v="Tritjørnstøyl" />
		<tag k="place" v="locality" />
		<tag k="ssr:stedsnr" v="326135" />
		<tag k="ssr:type" v="seterStøl" />
	</node>
	<node changeset="57982147" id="4485470567" lat="58.8523262" lon="7.9336669" timestamp="2018-04-10T18:53:10Z" uid="3497659" user="NKA" version="3">
		<tag k="building" v="cabin" />
		<tag k="name" v="Trodverk" />
		<tag k="place" v="isolated_dwelling" />
		<tag k="ssr:stedsnr" v="364751" />
		<tag k="ssr:type" v="fritidsbolig" />
	</node>
	<node changeset="73273415" id="4485470568" lat="58.889359" lon="7.3839399" timestamp="2019-08-12T15:11:53Z" uid="300002" user="neic" version="4">
		<tag k="name" v="Trogsvassbui" />
		<tag k="place" v="isolated_dwelling" />
		<tag k="ssr:stedsnr" v="465" />
		<tag k="ssr:type" v="fritidsbolig" />
	</node>
	<node changeset="58497758" id="4485470569" lat="59.0134752" lon="7.7737976" timestamp="2018-04-28T08:07:32Z" uid="3497659" user="NKA" version="4">
		<tag k="historic" v="shieling" />
		<tag k="name" v="Trosehommen" />
		<tag k="place" v="locality" />
		<tag k="ssr:stedsnr" v="459721" />
		<tag k="ssr:type" v="seterStøl" />
	</node>
	<node changeset="57982147" id="4485470570" lat="58.8019336" lon="7.8261443" timestamp="2018-04-10T18:53:10Z" uid="3497659" user="NKA" version="3">
		<tag k="name" v="Tveit" />
		<tag k="place" v="farm" />
		<tag k="ssr:stedsnr" v="1793" />
		<tag k="ssr:type" v="bruk" />
	</node>
	<node changeset="57982147" id="4485470571" lat="58.9421429" lon="7.5416409" timestamp="2018-04-10T18:53:10Z" uid="3497659" user="NKA" version="3">
		<tag k="building" v="cabin" />
		<tag k="name" v="Tveit-Tjønndalen" />
		<tag k="place" v="isolated_dwelling" />
		<tag k="ssr:stedsnr" v="486269" />
		<tag k="ssr:type" v="fritidsbolig" />
	</node>
	<node changeset="58497758" id="4485470572" lat="58.9428747" lon="7.713281" timestamp="2018-04-28T08:07:32Z" uid="3497659" user="NKA" version="4">
		<tag k="building" v="cabin" />
		<tag k="historic" v="shieling" />
		<tag k="name" v="Tveitan" />
		<tag k="place" v="isolated_dwelling" />
		<tag k="ssr:stedsnr" v="751062" />
		<tag k="ssr:type" v="seterStøl" />
	</node>
	<node changeset="57982147" id="4485470573" lat="58.9791137" lon="7.6101158" timestamp="2018-04-10T18:53:10Z" uid="3497659" user="NKA" version="3">
		<tag k="name" v="Tveitmoen" />
		<tag k="place" v="farm" />
		<tag k="ssr:stedsnr" v="850276" />
		<tag k="ssr:type" v="bruk" />
	</node>
	<node changeset="57982147" id="4485470574" lat="58.7098558" lon="7.762266" timestamp="2018-04-10T18:53:11Z" uid="3497659" user="NKA" version="3">
		<tag k="name" v="Tveitå" />
		<tag k="place" v="farm" />
		<tag k="ssr:stedsnr" v="729588" />
		<tag k="ssr:type" v="bruk" />
	</node>
	<node changeset="57982147" id="4485470575" lat="58.6746051" lon="7.9056027" timestamp="2018-04-10T18:53:11Z" uid="3497659" user="NKA" version="3">
		<tag k="building" v="cabin" />
		<tag k="name" v="Tveitøygard" />
		<tag k="place" v="isolated_dwelling" />
		<tag k="ssr:stedsnr" v="94943" />
		<tag k="ssr:type" v="fritidsbolig" />
	</node>
	<node changeset="58497758" id="4485470576" lat="58.8074017" lon="7.9038878" timestamp="2018-04-28T08:07:32Z" uid="3497659" user="NKA" version="4">
		<tag k="alt_name" v="Tverrstøl" />
		<tag k="building" v="cabin" />
		<tag k="historic" v="shieling" />
		<tag k="name" v="Tverrstøyl" />
		<tag k="place" v="isolated_dwelling" />
		<tag k="ssr:stedsnr" v="850803" />
		<tag k="ssr:type" v="fritidsbolig" />
	</node>
	<node changeset="58497758" id="4485470577" lat="59.0298762" lon="7.8273623" timestamp="2018-04-28T08:07:32Z" uid="3497659" user="NKA" version="4">
		<tag k="historic" v="shieling" />
		<tag k="name" v="Tyskeplassen" />
		<tag k="place" v="locality" />
		<tag k="ssr:stedsnr" v="912510" />
		<tag k="ssr:type" v="seterStøl" />
	</node>
	<node changeset="58497758" id="4485470578" lat="58.9811356" lon="7.4468466" timestamp="2018-04-28T08:07:32Z" uid="3497659" user="NKA" version="4">
		<tag k="building" v="cabin" />
		<tag k="historic" v="shieling" />
		<tag k="name" v="Uhomsstøylen" />
		<tag k="place" v="isolated_dwelling" />
		<tag k="ssr:stedsnr" v="149210" />
		<tag k="ssr:type" v="seterStøl" />
	</node>
	<node changeset="58497758" id="4485470579" lat="58.8364909" lon="7.8485507" timestamp="2018-04-28T08:07:32Z" uid="3497659" user="NKA" version="4">
		<tag k="historic" v="shieling" />
		<tag k="name" v="Under liane" />
		<tag k="place" v="locality" />
		<tag k="ssr:stedsnr" v="691158" />
		<tag k="ssr:type" v="seterStøl" />
	</node>
	<node changeset="57982147" id="4485470580" lat="58.8552368" lon="7.8339577" timestamp="2018-04-10T18:53:11Z" uid="3497659" user="NKA" version="3">
		<tag k="name" v="Uppsal" />
		<tag k="place" v="farm" />
		<tag k="ssr:stedsnr" v="569425" />
		<tag k="ssr:type" v="bruk" />
	</node>
	<node changeset="57982147" id="4485470581" lat="58.9208072" lon="7.7455227" timestamp="2018-04-10T18:53:12Z" uid="3497659" user="NKA" version="3">
		<tag k="name" v="Urdi" />
		<tag k="place" v="farm" />
		<tag k="ssr:stedsnr" v="326295" />
		<tag k="ssr:type" v="bruk" />
	</node>
	<node changeset="57982147" id="4485470582" lat="58.7028769" lon="7.895981" timestamp="2018-04-10T18:53:12Z" uid="3497659" user="NKA" version="3">
		<tag k="building" v="cabin" />
		<tag k="name" v="Valebjørg" />
		<tag k="place" v="isolated_dwelling" />
		<tag k="ssr:stedsnr" v="425557" />
		<tag k="ssr:type" v="fritidsbolig" />
	</node>
	<node changeset="57982147" id="4485470583" lat="58.665047" lon="7.8207523" timestamp="2018-04-10T18:53:12Z" uid="3497659" user="NKA" version="3">
		<tag k="name" v="Vassend" />
		<tag k="place" v="hamlet" />
		<tag k="ssr:stedsnr" v="605444" />
		<tag k="ssr:type" v="grend" />
	</node>
	<node changeset="57982147" id="4485470584" lat="58.6651683" lon="7.8237204" timestamp="2018-04-10T18:53:12Z" uid="3497659" user="NKA" version="3">
		<tag k="name" v="Vassenden" />
		<tag k="place" v="farm" />
		<tag k="ssr:stedsnr" v="911604" />
		<tag k="ssr:type" v="gard" />
	</node>
	<node changeset="57982147" id="4485470585" lat="58.6649833" lon="7.8109202" timestamp="2018-04-10T18:53:12Z" uid="3497659" user="NKA" version="3">
		<tag k="name" v="Vassendfeltet" />
		<tag k="place" v="neighbourhood" />
		<tag k="ssr:stedsnr" v="905576" />
		<tag k="ssr:type" v="boligfelt" />
	</node>
	<node changeset="58497758" id="4485470586" lat="59.0636627" lon="7.802152" timestamp="2018-04-28T08:07:33Z" uid="3497659" user="NKA" version="4">
		<tag k="historic" v="shieling" />
		<tag k="name" v="Vassli" />
		<tag k="place" v="locality" />
		<tag k="ssr:stedsnr" v="34688" />
		<tag k="ssr:type" v="seterStøl" />
	</node>
	<node changeset="57982147" id="4485470587" lat="58.8560898" lon="7.9119953" timestamp="2018-04-10T18:53:12Z" uid="3497659" user="NKA" version="3">
		<tag k="building" v="cabin" />
		<tag k="name" v="Vasstrand" />
		<tag k="place" v="isolated_dwelling" />
		<tag k="ssr:stedsnr" v="729774" />
		<tag k="ssr:type" v="fritidsbolig" />
	</node>
	<node changeset="57982147" id="4485470588" lat="58.9542173" lon="7.5027621" timestamp="2018-04-10T18:53:12Z" uid="3497659" user="NKA" version="3">
		<tag k="building" v="cabin" />
		<tag k="name" v="Vatnebui" />
		<tag k="place" v="isolated_dwelling" />
		<tag k="ssr:stedsnr" v="266073" />
		<tag k="ssr:type" v="fritidsbolig" />
	</node>
	<node changeset="73961366" id="6762899856" lat="58.6631529" lon="7.8133178" timestamp="2019-09-01T02:09:10Z" uid="103253" user="gormur" version="1" />
	<node changeset="73961366" id="6762899857" lat="58.6630762" lon="7.8135619" timestamp="2019-09-01T02:09:10Z" uid="103253" user="gormur" version="1" />
	<node changeset="759234" id="330338212" lat="58.66016" lon="7.8113036" timestamp="2009-01-08T22:04:41Z" uid="89168" user="GSvenningsen" version="1" />
	<node changeset="57982147" id="4485470789" lat="58.9608357" lon="7.7235294" timestamp="2018-04-10T18:53:12Z" uid="3497659" user="NKA" version="3">
		<tag k="name" v="Vatnebui" />
		<tag k="place" v="locality" />
		<tag k="ssr:stedsnr" v="85341" />
		<tag k="ssr:type" v="fritidsbolig" />
	</node>
	<node changeset="57982147" id="4485470790" lat="58.7088169" lon="7.9053502" timestamp="2018-04-10T18:53:13Z" uid="3497659" user="NKA" version="3">
		<tag k="building" v="cabin" />
		<tag k="name" v="Vatneøygard" />
		<tag k="place" v="isolated_dwelling" />
		<tag k="ssr:stedsnr" v="547633" />
		<tag k="ssr:type" v="fritidsbolig" />
	</node>
	<node changeset="58497758" id="4485470791" lat="58.8160938" lon="7.6889061" timestamp="2018-04-28T08:07:33Z" uid="3497659" user="NKA" version="4">
		<tag k="historic" v="shieling" />
		<tag k="name" v="Veneli" />
		<tag k="place" v="locality" />
		<tag k="ssr:stedsnr" v="34822" />
		<tag k="ssr:type" v="seterStøl" />
	</node>
	<node changeset="58497758" id="4485470792" lat="59.0510903" lon="7.8622643" timestamp="2018-04-28T08:07:33Z" uid="3497659" user="NKA" version="4">
		<tag k="alt_name" v="Venelistøyl" />
		<tag k="historic" v="shieling" />
		<tag k="name" v="Venelistøylen" />
		<tag k="place" v="locality" />
		<tag k="ssr:stedsnr" v="817057" />
		<tag k="ssr:type" v="seterStøl" />
	</node>
	<node changeset="57982147" id="4485470793" lat="59.0292846" lon="7.8532666" timestamp="2018-04-10T18:53:13Z" uid="3497659" user="NKA" version="4">
		<tag k="alt_name" v="Kile, vestre" />
		<tag k="name" v="Vestre Kile" />
		<tag k="place" v="farm" />
		<tag k="source" v="N50 map" />
		<tag k="ssr:stedsnr" v="487528" />
		<tag k="ssr:type" v="bruk" />
	</node>
	<node changeset="57982147" id="4485470794" lat="58.704663" lon="7.7830934" timestamp="2018-04-10T18:53:13Z" uid="3497659" user="NKA" version="3">
		<tag k="building" v="cabin" />
		<tag k="name" v="Vik" />
		<tag k="place" v="isolated_dwelling" />
		<tag k="ssr:stedsnr" v="122575" />
		<tag k="ssr:type" v="fritidsbolig" />
	</node>
	<node changeset="57982147" id="4485470795" lat="58.9498459" lon="7.6980457" timestamp="2018-04-10T18:53:13Z" uid="3497659" user="NKA" version="3">
		<tag k="name" v="Viki" />
		<tag k="place" v="farm" />
		<tag k="ssr:stedsnr" v="426256" />
		<tag k="ssr:type" v="bruk" />
	</node>
	<node changeset="57982147" id="4485470796" lat="58.9563772" lon="7.6651866" timestamp="2018-04-10T18:53:13Z" uid="3497659" user="NKA" version="3">
		<tag k="name" v="Viki" />
		<tag k="place" v="farm" />
		<tag k="ssr:stedsnr" v="607260" />
		<tag k="ssr:type" v="eneboligMindreBoligbygg" />
	</node>
	<node changeset="57982147" id="4485470797" lat="58.8950531" lon="7.7358353" timestamp="2018-04-10T18:53:13Z" uid="3497659" user="NKA" version="3">
		<tag k="name" v="Vikli" />
		<tag k="place" v="farm" />
		<tag k="ssr:stedsnr" v="144273" />
		<tag k="ssr:type" v="eneboligMindreBoligbygg" />
	</node>
	<node changeset="57982147" id="4485470798" lat="58.7453015" lon="7.846431" timestamp="2018-04-10T18:53:14Z" uid="3497659" user="NKA" version="3">
		<tag k="name" v="Vittenberg" />
		<tag k="place" v="farm" />
		<tag k="ssr:stedsnr" v="508230" />
		<tag k="ssr:type" v="eneboligMindreBoligbygg" />
	</node>
	<node changeset="57982147" id="4485470799" lat="58.8900694" lon="7.7287675" timestamp="2018-04-10T18:53:14Z" uid="3497659" user="NKA" version="3">
		<tag k="alt_name" v="Vollen" />
		<tag k="name" v="Vodden" />
		<tag k="place" v="farm" />
		<tag k="ssr:stedsnr" v="244726" />
		<tag k="ssr:type" v="bruk" />
	</node>
	<node changeset="57982147" id="4485470800" lat="58.9932753" lon="7.5340471" timestamp="2018-04-10T18:53:14Z" uid="3497659" user="NKA" version="3">
		<tag k="name" v="Voddo" />
		<tag k="place" v="farm" />
		<tag k="ssr:stedsnr" v="546289" />
		<tag k="ssr:type" v="bruk" />
	</node>
	<node changeset="57982147" id="4485470801" lat="58.7505453" lon="7.8549969" timestamp="2018-04-10T18:53:14Z" uid="3497659" user="NKA" version="3">
		<tag k="name" v="Vollen" />
		<tag k="place" v="farm" />
		<tag k="ssr:stedsnr" v="448247" />
		<tag k="ssr:type" v="bruk" />
	</node>
	<node changeset="57982147" id="4485470802" lat="58.980101" lon="7.6724892" timestamp="2018-04-10T18:53:14Z" uid="3497659" user="NKA" version="3">
		<tag k="name" v="Vollen" />
		<tag k="place" v="farm" />
		<tag k="ssr:stedsnr" v="911307" />
		<tag k="ssr:type" v="bruk" />
	</node>
	<node changeset="58497758" id="4485470803" lat="58.9674003" lon="7.5086177" timestamp="2018-04-28T08:07:33Z" uid="3497659" user="NKA" version="4">
		<tag k="alt_name" v="Vonaros" />
		<tag k="building" v="cabin" />
		<tag k="historic" v="shieling" />
		<tag k="name" v="Vonarosstøylen" />
		<tag k="place" v="isolated_dwelling" />
		<tag k="ssr:stedsnr" v="61281" />
		<tag k="ssr:type" v="seterStøl" />
	</node>
	<node changeset="58497758" id="4485470804" lat="58.9672339" lon="7.8917949" timestamp="2018-04-28T08:07:33Z" uid="3497659" user="NKA" version="4">
		<tag k="building" v="cabin" />
		<tag k="historic" v="shieling" />
		<tag k="name" v="Vormeviki" />
		<tag k="place" v="isolated_dwelling" />
		<tag k="ssr:stedsnr" v="812842" />
		<tag k="ssr:type" v="seterStøl" />
	</node>
	<node changeset="57982147" id="4485470805" lat="58.8990076" lon="7.8696863" timestamp="2018-04-10T18:53:14Z" uid="3497659" user="NKA" version="3">
		<tag k="building" v="cabin" />
		<tag k="name" v="Vøylehytta" />
		<tag k="place" v="isolated_dwelling" />
		<tag k="ssr:stedsnr" v="850686" />
		<tag k="ssr:type" v="fritidsbolig" />
	</node>
	<node changeset="57982147" id="4485470806" lat="58.6789048" lon="7.7842415" timestamp="2018-04-10T18:53:14Z" uid="3497659" user="NKA" version="3">
		<tag k="name" v="Ystejordet" />
		<tag k="place" v="farm" />
		<tag k="ssr:stedsnr" v="849638" />
		<tag k="ssr:type" v="bruk" />
	</node>
	<node changeset="58497758" id="4485470807" lat="58.7610262" lon="7.8659952" timestamp="2018-04-28T08:07:33Z" uid="3497659" user="NKA" version="4">
		<tag k="historic" v="shieling" />
		<tag k="name" v="Ytrestøyl" />
		<tag k="place" v="locality" />
		<tag k="ssr:stedsnr" v="84248" />
		<tag k="ssr:type" v="seterStøl" />
	</node>
	<node changeset="56035354" id="4485470808" lat="58.7070595" lon="7.8238859" timestamp="2018-02-03T17:50:06Z" uid="2114448" user="FredrikLindseth_import" version="2" />
	<node changeset="56035354" id="4485470809" lat="58.7070677" lon="7.8237711" timestamp="2018-02-03T17:50:06Z" uid="2114448" user="FredrikLindseth_import" version="2" />
	<node changeset="56035354" id="4485470810" lat="58.7070776" lon="7.823965" timestamp="2018-02-03T17:50:06Z" uid="2114448" user="FredrikLindseth_import" version="2" />
	<node changeset="56035354" id="4485470811" lat="58.7070827" lon="7.8240135" timestamp="2018-02-03T17:50:06Z" uid="2114448" user="FredrikLindseth_import" version="2" />
	<node changeset="56035354" id="4485470812" lat="58.7070861" lon="7.8239669" timestamp="2018-02-03T17:50:06Z" uid="2114448" user="FredrikLindseth_import" version="2" />
	<node changeset="56035354" id="4485470813" lat="58.7070947" lon="7.8237112" timestamp="2018-02-03T17:50:06Z" uid="2114448" user="FredrikLindseth_import" version="2" />
	<node changeset="56035354" id="4485470814" lat="58.7071001" lon="7.823635" timestamp="2018-02-03T17:50:06Z" uid="2114448" user="FredrikLindseth_import" version="2" />
	<node changeset="56035354" id="4485470815" lat="58.7071143" lon="7.8240208" timestamp="2018-02-03T17:50:06Z" uid="2114448" user="FredrikLindseth_import" version="2" />
	<node changeset="56035354" id="4485470816" lat="58.7071168" lon="7.823973" timestamp="2018-02-03T17:50:06Z" uid="2114448" user="FredrikLindseth_import" version="2" />
	<node changeset="56035354" id="4485470817" lat="58.707124" lon="7.8239748" timestamp="2018-02-03T17:50:06Z" uid="2114448" user="FredrikLindseth_import" version="2" />
	<node changeset="56035354" id="4485470818" lat="58.7071437" lon="7.8237211" timestamp="2018-02-03T17:50:06Z" uid="2114448" user="FredrikLindseth_import" version="2" />
	<node changeset="56035354" id="4485470819" lat="58.707149" lon="7.823648" timestamp="2018-02-03T17:50:06Z" uid="2114448" user="FredrikLindseth_import" version="2" />
	<node changeset="56035354" id="4485470820" lat="58.7071535" lon="7.8239072" timestamp="2018-02-03T17:50:06Z" uid="2114448" user="FredrikLindseth_import" version="2" />
	<node changeset="57982147" id="459463276" lat="58.8912224" lon="7.7270946" timestamp="2018-04-10T18:40:01Z" uid="3497659" user="NKA" version="5">
		<tag k="name" v="Sandnes" />
		<tag k="place" v="hamlet" />
		<tag k="ssr:stedsnr" v="607687" />
		<tag k="ssr:type" v="grend" />
	</node>
	<node changeset="56035354" id="4485470886" lat="58.9176297" lon="7.7382282" timestamp="2018-02-03T17:50:07Z" uid="2114448" user="FredrikLindseth_import" version="2" />
	<node changeset="56035354" id="4485470887" lat="58.9176369" lon="7.738375" timestamp="2018-02-03T17:50:07Z" uid="2114448" user="FredrikLindseth_import" version="2" />
	<node changeset="56035354" id="4485470888" lat="58.9176397" lon="7.7383163" timestamp="2018-02-03T17:50:07Z" uid="2114448" user="FredrikLindseth_import" version="2" />
	<node changeset="56035354" id="4485470889" lat="58.917644" lon="7.7383198" timestamp="2018-02-03T17:50:07Z" uid="2114448" user="FredrikLindseth_import" version="2" />
	<node changeset="56035354" id="4485470890" lat="58.9176466" lon="7.7381007" timestamp="2018-02-03T17:50:07Z" uid="2114448" user="FredrikLindseth_import" version="2" />
	<node changeset="56035354" id="4485470891" lat="58.917672" lon="7.7383908" timestamp="2018-02-03T17:50:07Z" uid="2114448" user="FredrikLindseth_import" version="2" />
	<node changeset="56035354" id="4485470892" lat="58.9176776" lon="7.7380303" timestamp="2018-02-03T17:50:07Z" uid="2114448" user="FredrikLindseth_import" version="2" />
	<node changeset="56035354" id="4485470893" lat="58.9176809" lon="7.738033" timestamp="2018-02-03T17:50:07Z" uid="2114448" user="FredrikLindseth_import" version="2" />
	<node changeset="56035354" id="4485470894" lat="58.9176817" lon="7.738346" timestamp="2018-02-03T17:50:07Z" uid="2114448" user="FredrikLindseth_import" version="2" />
	<node changeset="56035354" id="4485470895" lat="58.9176846" lon="7.7383484" timestamp="2018-02-03T17:50:07Z" uid="2114448" user="FredrikLindseth_import" version="2" />
	<node changeset="56035354" id="4485470896" lat="58.9176889" lon="7.7379962" timestamp="2018-02-03T17:50:07Z" uid="2114448" user="FredrikLindseth_import" version="2" />
	<node changeset="56035354" id="4485470897" lat="58.9177197" lon="7.7382784" timestamp="2018-02-03T17:50:07Z" uid="2114448" user="FredrikLindseth_import" version="2" />
	<node changeset="56035354" id="4485470898" lat="58.9177198" lon="7.7380575" timestamp="2018-02-03T17:50:07Z" uid="2114448" user="FredrikLindseth_import" version="2" />
	<node changeset="56035354" id="4485470899" lat="58.9177274" lon="7.7380636" timestamp="2018-02-03T17:50:07Z" uid="2114448" user="FredrikLindseth_import" version="2" />
	<node changeset="56035354" id="4485470900" lat="58.9177284" lon="7.7380177" timestamp="2018-02-03T17:50:07Z" uid="2114448" user="FredrikLindseth_import" version="2" />
	<node changeset="56035354" id="4485470901" lat="58.9176384" lon="7.7383633" timestamp="2018-02-03T17:50:07Z" uid="2114448" user="FredrikLindseth_import" version="2" />
	<node changeset="58497758" id="4485469984" lat="58.9498669" lon="7.5034537" timestamp="2018-04-28T08:07:17Z" uid="3497659" user="NKA" version="4">
		<tag k="alt_name" v="Hovstøyl" />
		<tag k="building" v="cabin" />
		<tag k="historic" v="shieling" />
		<tag k="name" v="Hovestøyl" />
		<tag k="place" v="isolated_dwelling" />
		<tag k="ssr:stedsnr" v="911276" />
		<tag k="ssr:type" v="fritidsbolig" />
	</node>
	<node changeset="56035354" id="4485470917" lat="58.9807487" lon="7.6081455" timestamp="2018-02-03T17:50:07Z" uid="2114448" user="FredrikLindseth_import" version="2" />
	<node changeset="56035354" id="4485470918" lat="58.9807505" lon="7.6080878" timestamp="2018-02-03T17:50:07Z" uid="2114448" user="FredrikLindseth_import" version="2" />
	<node changeset="56035354" id="4485470919" lat="58.9807641" lon="7.6077859" timestamp="2018-02-03T17:50:07Z" uid="2114448" user="FredrikLindseth_import" version="2" />
	<node changeset="56035354" id="4485470920" lat="58.9807661" lon="7.6077282" timestamp="2018-02-03T17:50:07Z" uid="2114448" user="FredrikLindseth_import" version="2" />
	<node changeset="56035354" id="4485470921" lat="58.9808001" lon="7.6081506" timestamp="2018-02-03T17:50:07Z" uid="2114448" user="FredrikLindseth_import" version="2" />
	<node changeset="56035354" id="4485470922" lat="58.9808017" lon="7.6080946" timestamp="2018-02-03T17:50:07Z" uid="2114448" user="FredrikLindseth_import" version="2" />
	<node changeset="56035354" id="4485470923" lat="58.9808113" lon="7.6077876" timestamp="2018-02-03T17:50:07Z" uid="2114448" user="FredrikLindseth_import" version="2" />
	<node changeset="56035354" id="4485470924" lat="58.9808132" lon="7.607733" timestamp="2018-02-03T17:50:07Z" uid="2114448" user="FredrikLindseth_import" version="2" />
	<node changeset="58497758" id="4485469988" lat="58.9289283" lon="7.6615817" timestamp="2018-04-28T08:07:17Z" uid="3497659" user="NKA" version="4">
		<tag k="building" v="cabin" />
		<tag k="historic" v="shieling" />
		<tag k="name" v="Huset" />
		<tag k="place" v="isolated_dwelling" />
		<tag k="ssr:stedsnr" v="243478" />
		<tag k="ssr:type" v="seterStøl" />
	</node>
	<node changeset="57982147" id="4485470946" lat="58.8292707" lon="7.801823" timestamp="2018-04-10T18:53:15Z" uid="3497659" user="NKA" version="3">
		<tag k="name" v="Åkhus nedre" />
		<tag k="place" v="farm" />
		<tag k="ssr:stedsnr" v="23024" />
		<tag k="ssr:type" v="bruk" />
	</node>
	<node changeset="57982147" id="4485470947" lat="58.8289824" lon="7.8086072" timestamp="2018-04-10T18:53:15Z" uid="3497659" user="NKA" version="3">
		<tag k="name" v="Åkhus øvre" />
		<tag k="place" v="farm" />
		<tag k="ssr:stedsnr" v="691022" />
		<tag k="ssr:type" v="bruk" />
	</node>
	<node changeset="57982147" id="4485470948" lat="58.8436483" lon="7.940213" timestamp="2018-04-10T18:53:15Z" uid="3497659" user="NKA" version="3">
		<tag k="alt_name" v="Øy" />
		<tag k="building" v="cabin" />
		<tag k="name" v="Åkhusøy" />
		<tag k="place" v="isolated_dwelling" />
		<tag k="ssr:stedsnr" v="668795" />
		<tag k="ssr:type" v="fritidsbolig" />
	</node>
	<node changeset="57982147" id="4485470949" lat="58.9221674" lon="7.7424073" timestamp="2018-04-10T18:53:15Z" uid="3497659" user="NKA" version="3">
		<tag k="name" v="Åland" />
		<tag k="place" v="farm" />
		<tag k="ssr:stedsnr" v="23334" />
		<tag k="ssr:type" v="bruk" />
	</node>
	<node changeset="58497758" id="4485470950" lat="58.7213846" lon="7.8612913" timestamp="2018-04-28T08:07:33Z" uid="3497659" user="NKA" version="4">
		<tag k="building" v="cabin" />
		<tag k="historic" v="shieling" />
		<tag k="name" v="Ålslått" />
		<tag k="place" v="isolated_dwelling" />
		<tag k="ssr:stedsnr" v="22004" />
		<tag k="ssr:type" v="seterStøl" />
	</node>
	<node changeset="57982147" id="4485470951" lat="58.7266625" lon="7.6985941" timestamp="2018-04-10T18:53:15Z" uid="3497659" user="NKA" version="3">
		<tag k="building" v="cabin" />
		<tag k="name" v="Åmdal" />
		<tag k="place" v="isolated_dwelling" />
		<tag k="ssr:stedsnr" v="728007" />
		<tag k="ssr:type" v="fritidsbolig" />
	</node>
	<node changeset="58497758" id="4485470952" lat="58.900226" lon="7.8216667" timestamp="2018-04-28T08:07:34Z" uid="3497659" user="NKA" version="4">
		<tag k="historic" v="shieling" />
		<tag k="name" v="Åmostøyl" />
		<tag k="place" v="locality" />
		<tag k="ssr:stedsnr" v="459979" />
		<tag k="ssr:type" v="seterStøl" />
	</node>
	<node changeset="57982147" id="4485470953" lat="58.8997155" lon="7.4997879" timestamp="2018-04-10T18:53:16Z" uid="3497659" user="NKA" version="3">
		<tag k="name" v="Ånebjør" />
		<tag k="place" v="hamlet" />
		<tag k="ssr:stedsnr" v="789469" />
		<tag k="ssr:type" v="gard" />
	</node>
	<node changeset="58497758" id="4485470954" lat="58.9697766" lon="7.9334807" timestamp="2018-04-28T08:07:34Z" uid="3497659" user="NKA" version="4">
		<tag k="alt_name" v="Årdalstøl" />
		<tag k="building" v="cabin" />
		<tag k="historic" v="shieling" />
		<tag k="name" v="Årdalsstøyl" />
		<tag k="place" v="isolated_dwelling" />
		<tag k="ssr:stedsnr" v="547659" />
		<tag k="ssr:type" v="fritidsbolig" />
	</node>
	<node changeset="58497758" id="4485470955" lat="58.658512" lon="7.8572162" timestamp="2018-04-28T08:07:34Z" uid="3497659" user="NKA" version="4">
		<tag k="alt_name" v="Årekleppstølen" />
		<tag k="building" v="cabin" />
		<tag k="historic" v="shieling" />
		<tag k="name" v="Åreklepp" />
		<tag k="place" v="isolated_dwelling" />
		<tag k="ssr:stedsnr" v="850522" />
		<tag k="ssr:type" v="fritidsbolig" />
	</node>
	<node changeset="57982147" id="4485470956" lat="58.6981259" lon="7.8371651" timestamp="2018-04-10T18:53:16Z" uid="3497659" user="NKA" version="3">
		<tag k="name" v="Åsen" />
		<tag k="place" v="farm" />
		<tag k="ssr:stedsnr" v="244614" />
		<tag k="ssr:type" v="bruk" />
	</node>
	<node changeset="57982147" id="4485470957" lat="58.8074846" lon="7.9250439" timestamp="2018-04-10T18:53:16Z" uid="3497659" user="NKA" version="3">
		<tag k="building" v="cabin" />
		<tag k="name" v="Åsland" />
		<tag k="place" v="isolated_dwelling" />
		<tag k="ssr:stedsnr" v="452340" />
		<tag k="ssr:type" v="fritidsbolig" />
	</node>
	<node changeset="58497758" id="4485470958" lat="58.8848645" lon="7.8059055" timestamp="2018-04-28T08:07:34Z" uid="3497659" user="NKA" version="4">
		<tag k="building" v="cabin" />
		<tag k="historic" v="shieling" />
		<tag k="name" v="Øverstøl" />
		<tag k="place" v="isolated_dwelling" />
		<tag k="ssr:stedsnr" v="607704" />
		<tag k="ssr:type" v="fritidsbolig" />
	</node>
	<node changeset="58497758" id="4485470959" lat="58.8851432" lon="7.8005367" timestamp="2018-04-28T08:07:34Z" uid="3497659" user="NKA" version="4">
		<tag k="building" v="cabin" />
		<tag k="historic" v="shieling" />
		<tag k="name" v="Øverstøyl" />
		<tag k="place" v="isolated_dwelling" />
		<tag k="ssr:stedsnr" v="55829" />
		<tag k="ssr:type" v="seterStøl" />
	</node>
	<node changeset="58497758" id="4485470960" lat="58.9298998" lon="7.833175" timestamp="2018-04-28T08:07:34Z" uid="3497659" user="NKA" version="4">
		<tag k="building" v="cabin" />
		<tag k="historic" v="shieling" />
		<tag k="name" v="Øvre Kaldås" />
		<tag k="place" v="isolated_dwelling" />
		<tag k="ssr:stedsnr" v="23837" />
		<tag k="ssr:type" v="seterStøl" />
	</node>
	<node changeset="57982147" id="4485470961" lat="58.8435109" lon="7.8264803" timestamp="2018-04-10T18:53:17Z" uid="3497659" user="NKA" version="3">
		<tag k="name" v="Øvre Lii" />
		<tag k="place" v="farm" />
		<tag k="ssr:stedsnr" v="27392" />
		<tag k="ssr:type" v="bruk" />
	</node>
	<node changeset="58497758" id="4485470962" lat="58.8756845" lon="7.6670262" timestamp="2018-04-28T08:07:34Z" uid="3497659" user="NKA" version="4">
		<tag k="historic" v="shieling" />
		<tag k="name" v="Øvre Longeli" />
		<tag k="place" v="locality" />
		<tag k="ssr:stedsnr" v="387309" />
		<tag k="ssr:type" v="seterStøl" />
	</node>
	<node changeset="58497758" id="4485470963" lat="58.9063003" lon="7.8082552" timestamp="2018-04-28T08:07:35Z" uid="3497659" user="NKA" version="4">
		<tag k="historic" v="shieling" />
		<tag k="name" v="Øvre Strondi" />
		<tag k="place" v="locality" />
		<tag k="ssr:stedsnr" v="629869" />
		<tag k="ssr:type" v="seterStøl" />
	</node>
	<node changeset="58497758" id="4485470964" lat="58.8476458" lon="7.9460467" timestamp="2018-04-28T08:07:35Z" uid="3497659" user="NKA" version="4">
		<tag k="historic" v="shieling" />
		<tag k="name" v="Øvre Stutehommen" />
		<tag k="place" v="locality" />
		<tag k="ssr:stedsnr" v="23543" />
		<tag k="ssr:type" v="seterStøl" />
	</node>
	<node changeset="57982147" id="4485470965" lat="58.7465164" lon="7.8503889" timestamp="2018-04-10T18:53:17Z" uid="3497659" user="NKA" version="3">
		<tag k="name" v="Øvre Søbø" />
		<tag k="place" v="farm" />
		<tag k="ssr:stedsnr" v="508229" />
		<tag k="ssr:type" v="bruk" />
	</node>
	<node changeset="57982147" id="4485470966" lat="59.0343166" lon="7.824544" timestamp="2018-04-10T18:53:17Z" uid="3497659" user="NKA" version="3">
		<tag k="historic" v="ruins" />
		<tag k="name" v="Øvre Tyskeplassen" />
		<tag k="place" v="locality" />
		<tag k="ssr:stedsnr" v="459705" />
		<tag k="ssr:type" v="gammelBosettingsplass" />
	</node>
	<node changeset="58497758" id="4485470967" lat="58.848091" lon="7.9597163" timestamp="2018-04-28T08:07:35Z" uid="3497659" user="NKA" version="4">
		<tag k="historic" v="shieling" />
		<tag k="name" v="Øyerdalstøyl" />
		<tag k="place" v="locality" />
		<tag k="ssr:stedsnr" v="751495" />
		<tag k="ssr:type" v="seterStøl" />
	</node>
	<node changeset="57982147" id="4485470968" lat="58.9852876" lon="7.540292" timestamp="2018-04-10T18:53:18Z" uid="3497659" user="NKA" version="3">
		<tag k="name" v="Øyrik" />
		<tag k="place" v="farm" />
		<tag k="ssr:stedsnr" v="304292" />
		<tag k="ssr:type" v="bruk" />
	</node>
	<node changeset="57982147" id="4485469660" lat="58.8885879" lon="7.8469392" timestamp="2018-04-10T18:52:19Z" uid="3497659" user="NKA" version="3">
		<tag k="building" v="cabin" />
		<tag k="name" v="Austlii" />
		<tag k="place" v="isolated_dwelling" />
		<tag k="ssr:stedsnr" v="426714" />
		<tag k="ssr:type" v="fritidsbolig" />
	</node>
	<node changeset="58497758" id="4485469661" lat="58.9493703" lon="7.9158616" timestamp="2018-04-28T08:07:11Z" uid="3497659" user="NKA" version="4">
		<tag k="alt_name" v="Grunnevasstøl, austre" />
		<tag k="building" v="cabin" />
		<tag k="historic" v="shieling" />
		<tag k="name" v="Austre Grunnevasstøyl" />
		<tag k="place" v="isolated_dwelling" />
		<tag k="ssr:stedsnr" v="365654" />
		<tag k="ssr:type" v="fritidsbolig" />
	</node>
	<node changeset="58497758" id="4485469662" lat="58.9440379" lon="7.7643274" timestamp="2018-04-28T08:07:12Z" uid="3497659" user="NKA" version="4">
		<tag k="historic" v="shieling" />
		<tag k="name" v="Bakkan" />
		<tag k="place" v="locality" />
		<tag k="ssr:stedsnr" v="205430" />
		<tag k="ssr:type" v="seterStøl" />
	</node>
	<node changeset="57982147" id="4485469663" lat="58.7011867" lon="7.821" timestamp="2018-04-10T18:52:19Z" uid="3497659" user="NKA" version="3">
		<tag k="name" v="Bakkane" />
		<tag k="place" v="neighbourhood" />
		<tag k="ssr:stedsnr" v="691407" />
		<tag k="ssr:type" v="boligfelt" />
	</node>
	<node changeset="57982147" id="829498466" lat="58.8550969" lon="7.8216451" timestamp="2018-04-10T18:40:02Z" uid="3497659" user="NKA" version="4">
		<tag k="name" v="Jordalsbø" />
		<tag k="place" v="hamlet" />
		<tag k="ssr:stedsnr" v="61733" />
		<tag k="ssr:type" v="grend" />
	</node>
	<node changeset="56035354" id="332506225" lat="58.7071613" lon="7.8237984" timestamp="2018-02-03T17:49:38Z" uid="2114448" user="FredrikLindseth_import" version="4" />
	<node changeset="57982147" id="829498490" lat="58.8535794" lon="7.8342144" timestamp="2018-04-10T18:40:02Z" uid="3497659" user="NKA" version="4">
		<tag k="name" v="Steinstog" />
		<tag k="place" v="farm" />
		<tag k="ssr:stedsnr" v="873435" />
		<tag k="ssr:type" v="bruk" />
	</node>
	<node changeset="57982147" id="829498538" lat="58.8327398" lon="7.7806924" timestamp="2018-04-10T18:40:02Z" uid="3497659" user="NKA" version="4">
		<tag k="name" v="Nese" />
		<tag k="place" v="farm" />
		<tag k="ssr:stedsnr" v="789787" />
		<tag k="ssr:type" v="bruk" />
	</node>
	<node changeset="57982147" id="829498546" lat="58.8733892" lon="7.8147286" timestamp="2018-04-10T18:40:02Z" uid="3497659" user="NKA" version="4">
		<tag k="name" v="Skreland" />
		<tag k="place" v="farm" />
		<tag k="ssr:stedsnr" v="304738" />
		<tag k="ssr:type" v="bruk" />
	</node>
	<node changeset="57982147" id="456864977" lat="58.7515545" lon="7.7803516" timestamp="2018-04-10T18:40:01Z" uid="3497659" user="NKA" version="4">
		<tag k="name" v="Dale" />
		<tag k="place" v="farm" />
		<tag k="ssr:stedsnr" v="304887" />
		<tag k="ssr:type" v="bruk" />
	</node>
	<node changeset="759234" id="330338189" lat="58.6630141" lon="7.8118141" timestamp="2009-01-08T22:04:37Z" uid="89168" user="GSvenningsen" version="1" />
	<node changeset="56035354" id="5383646547" lat="58.8304281" lon="7.7958773" timestamp="2018-02-03T17:48:50Z" uid="2114448" user="FredrikLindseth_import" version="1" />
	<node changeset="56035354" id="5383646548" lat="58.8304016" lon="7.7958746" timestamp="2018-02-03T17:48:50Z" uid="2114448" user="FredrikLindseth_import" version="1" />
	<node changeset="56035354" id="5383646549" lat="58.8303979" lon="7.796023" timestamp="2018-02-03T17:48:50Z" uid="2114448" user="FredrikLindseth_import" version="1" />
	<node changeset="56035354" id="5383646550" lat="58.8304237" lon="7.7960254" timestamp="2018-02-03T17:48:50Z" uid="2114448" user="FredrikLindseth_import" version="1" />
	<node changeset="56035354" id="5383646551" lat="58.8304381" lon="7.7961203" timestamp="2018-02-03T17:48:50Z" uid="2114448" user="FredrikLindseth_import" version="1" />
	<node changeset="56035354" id="5383646552" lat="58.8304368" lon="7.796171" timestamp="2018-02-03T17:48:50Z" uid="2114448" user="FredrikLindseth_import" version="1" />
	<node changeset="56035354" id="5383646553" lat="58.8304791" lon="7.7961749" timestamp="2018-02-03T17:48:50Z" uid="2114448" user="FredrikLindseth_import" version="1" />
	<node changeset="56035354" id="5383646554" lat="58.8304803" lon="7.7961244" timestamp="2018-02-03T17:48:50Z" uid="2114448" user="FredrikLindseth_import" version="1" />
	<node changeset="56035354" id="5383646555" lat="58.830499" lon="7.7960287" timestamp="2018-02-03T17:48:50Z" uid="2114448" user="FredrikLindseth_import" version="1" />
	<node changeset="56035354" id="5383646556" lat="58.8305265" lon="7.7960314" timestamp="2018-02-03T17:48:50Z" uid="2114448" user="FredrikLindseth_import" version="1" />
	<node changeset="56035354" id="5383646557" lat="58.8305302" lon="7.7958869" timestamp="2018-02-03T17:48:50Z" uid="2114448" user="FredrikLindseth_import" version="1" />
	<node changeset="56035354" id="5383646558" lat="58.8304902" lon="7.7957838" timestamp="2018-02-03T17:48:50Z" uid="2114448" user="FredrikLindseth_import" version="1" />
	<node changeset="56035354" id="5383646559" lat="58.8304916" lon="7.795731" timestamp="2018-02-03T17:48:50Z" uid="2114448" user="FredrikLindseth_import" version="1" />
	<node changeset="56035354" id="5383646560" lat="58.8304461" lon="7.7957269" timestamp="2018-02-03T17:48:50Z" uid="2114448" user="FredrikLindseth_import" version="1" />
	<node changeset="56035354" id="5383646561" lat="58.8304448" lon="7.7957794" timestamp="2018-02-03T17:48:50Z" uid="2114448" user="FredrikLindseth_import" version="1" />
	<node changeset="57982147" id="459464103" lat="58.9204489" lon="7.7441422" timestamp="2018-04-10T18:40:01Z" uid="3497659" user="NKA" version="6">
		<tag k="name" v="Åraksbø" />
		<tag k="place" v="village" />
		<tag k="ssr:stedsnr" v="911676" />
		<tag k="ssr:type" v="bygdelagBygd" />
	</node>
	<node changeset="58497758" id="4485469651" lat="58.9134565" lon="7.6992717" timestamp="2018-04-28T08:07:11Z" uid="3497659" user="NKA" version="4">
		<tag k="building" v="cabin" />
		<tag k="historic" v="shieling" />
		<tag k="name" v="Andvor" />
		<tag k="place" v="isolated_dwelling" />
		<tag k="ssr:stedsnr" v="607466" />
		<tag k="ssr:type" v="seterStøl" />
	</node>
	<node changeset="57982147" id="4485469652" lat="58.7478487" lon="7.7863734" timestamp="2018-04-10T18:52:18Z" uid="3497659" user="NKA" version="3">
		<tag k="name" v="Apledokk" />
		<tag k="place" v="locality" />
		<tag k="ssr:stedsnr" v="243895" />
		<tag k="ssr:type" v="fritidsbolig" />
	</node>
	<node changeset="58497758" id="4485469653" lat="58.8996568" lon="7.8175237" timestamp="2018-04-28T08:07:11Z" uid="3497659" user="NKA" version="4">
		<tag k="alt_name" v="Asbjørnstøl" />
		<tag k="building" v="cabin" />
		<tag k="historic" v="shieling" />
		<tag k="name" v="Asbjørnstøyl" />
		<tag k="place" v="isolated_dwelling" />
		<tag k="ssr:stedsnr" v="547732" />
		<tag k="ssr:type" v="fritidsbolig" />
	</node>
	<node changeset="57982147" id="4485469654" lat="58.8524625" lon="7.8213748" timestamp="2018-04-10T18:52:18Z" uid="3497659" user="NKA" version="3">
		<tag k="name" v="Attestog" />
		<tag k="place" v="farm" />
		<tag k="ssr:stedsnr" v="816381" />
		<tag k="ssr:type" v="bruk" />
	</node>
	<node changeset="56035354" id="4485469655" lat="58.9807322" lon="7.6077828" timestamp="2018-02-03T17:50:06Z" uid="2114448" user="FredrikLindseth_import" version="4" />
	<node changeset="57982147" id="4485469656" lat="58.9626074" lon="7.6773383" timestamp="2018-04-10T18:52:18Z" uid="3497659" user="NKA" version="3">
		<tag k="name" v="Austad nordre" />
		<tag k="place" v="farm" />
		<tag k="ssr:stedsnr" v="23563" />
		<tag k="ssr:type" v="bruk" />
	</node>
	<node changeset="57982147" id="4485469657" lat="58.958435" lon="7.6814911" timestamp="2018-04-10T18:52:18Z" uid="3497659" user="NKA" version="3">
		<tag k="name" v="Austad søndre" />
		<tag k="place" v="farm" />
		<tag k="ssr:stedsnr" v="812524" />
		<tag k="ssr:type" v="bruk" />
	</node>
	<node changeset="57982147" id="4485469658" lat="58.9610128" lon="7.6789144" timestamp="2018-04-10T18:52:19Z" uid="3497659" user="NKA" version="3">
		<tag k="name" v="Austad" />
		<tag k="place" v="hamlet" />
		<tag k="ssr:stedsnr" v="729296" />
		<tag k="ssr:type" v="bygdelagBygd" />
	</node>
	<node changeset="58497758" id="4485469659" lat="58.8925119" lon="7.859057" timestamp="2018-04-28T08:07:11Z" uid="3497659" user="NKA" version="4">
		<tag k="alt_name" v="Austdalstøl" />
		<tag k="building" v="cabin" />
		<tag k="historic" v="shieling" />
		<tag k="name" v="Austdalsstøyl" />
		<tag k="place" v="isolated_dwelling" />
		<tag k="ssr:stedsnr" v="486723" />
		<tag k="ssr:type" v="fritidsbolig" />
	</node>
	<node changeset="72955977" id="6677773788" lat="58.8669211" lon="7.3505225" timestamp="2019-08-02T20:27:50Z" uid="300002" user="neic" version="1" />
	<node changeset="72955977" id="6677773789" lat="58.8669789" lon="7.3506107" timestamp="2019-08-02T20:27:50Z" uid="300002" user="neic" version="1" />
	<node changeset="72955977" id="6677773790" lat="58.8670436" lon="7.3504521" timestamp="2019-08-02T20:27:50Z" uid="300002" user="neic" version="1" />
	<node changeset="72955977" id="6677773791" lat="58.8669858" lon="7.3503639" timestamp="2019-08-02T20:27:50Z" uid="300002" user="neic" version="1" />
	<node changeset="57982147" id="4485469664" lat="58.7054761" lon="7.8278958" timestamp="2018-04-10T18:52:19Z" uid="3497659" user="NKA" version="3">
		<tag k="name" v="Bakke" />
		<tag k="place" v="farm" />
		<tag k="ssr:stedsnr" v="183546" />
		<tag k="ssr:type" v="bruk" />
	</node>
	<node changeset="57982147" id="4485469665" lat="58.9843775" lon="7.5390575" timestamp="2018-04-10T18:52:20Z" uid="3497659" user="NKA" version="3">
		<tag k="name" v="Bakken" />
		<tag k="place" v="farm" />
		<tag k="ssr:stedsnr" v="182285" />
		<tag k="ssr:type" v="bruk" />
	</node>
	<node changeset="57982147" id="4485469666" lat="58.8347994" lon="7.7872888" timestamp="2018-04-10T18:52:20Z" uid="3497659" user="NKA" version="3">
		<tag k="name" v="Bergland" />
		<tag k="place" v="farm" />
		<tag k="ssr:stedsnr" v="691127" />
		<tag k="ssr:type" v="eneboligMindreBoligbygg" />
	</node>
	<node changeset="58497758" id="4485469667" lat="58.9966478" lon="7.619736" timestamp="2018-04-28T08:07:12Z" uid="3497659" user="NKA" version="4">
		<tag k="alt_name" v="Berget" />
		<tag k="building" v="cabin" />
		<tag k="historic" v="shieling" />
		<tag k="name" v="Bergstøylen" />
		<tag k="place" v="isolated_dwelling" />
		<tag k="ssr:stedsnr" v="789342" />
		<tag k="ssr:type" v="fritidsbolig" />
	</node>
	<node changeset="57982147" id="4485469668" lat="59.0002795" lon="7.5445946" timestamp="2018-04-10T18:52:20Z" uid="3497659" user="NKA" version="3">
		<tag k="name" v="Birkeland" />
		<tag k="place" v="farm" />
		<tag k="ssr:stedsnr" v="873026" />
		<tag k="ssr:type" v="bruk" />
	</node>
	<node changeset="58497758" id="4485469669" lat="59.0241015" lon="7.6464534" timestamp="2018-04-28T08:07:12Z" uid="3497659" user="NKA" version="4">
		<tag k="historic" v="shieling" />
		<tag k="name" v="Birkenesstøylen" />
		<tag k="place" v="locality" />
		<tag k="ssr:stedsnr" v="762677" />
		<tag k="ssr:type" v="seterStøl" />
	</node>
	<node changeset="58497758" id="4485469670" lat="58.9470655" lon="7.9491119" timestamp="2018-04-28T08:07:12Z" uid="3497659" user="NKA" version="4">
		<tag k="alt_name" v="Bjoruvstøl" />
		<tag k="historic" v="shieling" />
		<tag k="name" v="Bjoruvstøyl" />
		<tag k="place" v="locality" />
		<tag k="ssr:stedsnr" v="911665" />
		<tag k="ssr:type" v="fritidsbolig" />
	</node>
	<node changeset="57982147" id="4485469671" lat="58.8705428" lon="7.7051471" timestamp="2018-04-10T18:52:20Z" uid="3497659" user="NKA" version="3">
		<tag k="name" v="Bjørkevollen" />
		<tag k="place" v="farm" />
		<tag k="ssr:stedsnr" v="205341" />
		<tag k="ssr:type" v="bruk" />
	</node>
	<node changeset="57982147" id="4485469672" lat="58.6685767" lon="7.8775673" timestamp="2018-04-10T18:52:20Z" uid="3497659" user="NKA" version="3">
		<tag k="alt_name" v="Bjørnstølen" />
		<tag k="name" v="Bjørnstøyl" />
		<tag k="place" v="locality" />
		<tag k="ssr:stedsnr" v="304523" />
		<tag k="ssr:type" v="fritidsbolig" />
	</node>
	<node changeset="58497758" id="4485469673" lat="58.9717307" lon="7.8294538" timestamp="2018-04-28T08:07:12Z" uid="3497659" user="NKA" version="4">
		<tag k="historic" v="shieling" />
		<tag k="name" v="Bleili" />
		<tag k="place" v="locality" />
		<tag k="ssr:stedsnr" v="883836" />
		<tag k="ssr:type" v="seterStøl" />
	</node>
	<node changeset="58497758" id="4485469674" lat="58.9705894" lon="7.8284827" timestamp="2018-04-28T08:07:12Z" uid="3497659" user="NKA" version="4">
		<tag k="alt_name" v="Bleilistøl" />
		<tag k="building" v="cabin" />
		<tag k="historic" v="shieling" />
		<tag k="name" v="Bleilistøyl" />
		<tag k="place" v="isolated_dwelling" />
		<tag k="ssr:stedsnr" v="304633" />
		<tag k="ssr:type" v="fritidsbolig" />
	</node>
	<node changeset="57982147" id="4485469675" lat="58.9190925" lon="7.7739827" timestamp="2018-04-10T18:52:21Z" uid="3497659" user="NKA" version="3">
		<tag k="name" v="Blesbu" />
		<tag k="place" v="locality" />
		<tag k="ssr:stedsnr" v="911678" />
		<tag k="ssr:type" v="fritidsbolig" />
	</node>
	<node changeset="57982147" id="4485469676" lat="58.9383635" lon="7.7548099" timestamp="2018-04-10T18:52:21Z" uid="3497659" user="NKA" version="3">
		<tag k="building" v="cabin" />
		<tag k="name" v="Borgaråsen" />
		<tag k="place" v="isolated_dwelling" />
		<tag k="ssr:stedsnr" v="508439" />
		<tag k="ssr:type" v="fritidsbolig" />
	</node>
	<node changeset="58497758" id="4485469677" lat="58.9662318" lon="7.7770013" timestamp="2018-04-28T08:07:12Z" uid="3497659" user="NKA" version="4">
		<tag k="building" v="cabin" />
		<tag k="historic" v="shieling" />
		<tag k="name" v="Brasstøyl" />
		<tag k="place" v="isolated_dwelling" />
		<tag k="ssr:stedsnr" v="304629" />
		<tag k="ssr:type" v="fritidsbolig" />
	</node>
	<node changeset="57982147" id="4485469678" lat="58.9289992" lon="7.7777933" timestamp="2018-04-10T18:52:21Z" uid="3497659" user="NKA" version="3">
		<tag k="building" v="cabin" />
		<tag k="name" v="Brastveit" />
		<tag k="place" v="isolated_dwelling" />
		<tag k="ssr:stedsnr" v="911671" />
		<tag k="ssr:type" v="fritidsbolig" />
	</node>
	<node changeset="58497758" id="4485469679" lat="58.9530558" lon="7.9031158" timestamp="2018-04-28T08:07:12Z" uid="3497659" user="NKA" version="4">
		<tag k="historic" v="shieling" />
		<tag k="name" v="Brokka" />
		<tag k="place" v="locality" />
		<tag k="ssr:stedsnr" v="387821" />
		<tag k="ssr:type" v="seterStøl" />
	</node>
	<node changeset="57982147" id="4485469680" lat="58.7557604" lon="7.8534882" timestamp="2018-04-10T18:52:21Z" uid="3497659" user="NKA" version="3">
		<tag k="name" v="Bruflot" />
		<tag k="place" v="farm" />
		<tag k="ssr:stedsnr" v="205269" />
		<tag k="ssr:type" v="eneboligMindreBoligbygg" />
	</node>
	<node changeset="57982147" id="4485469681" lat="58.8495406" lon="7.8214107" timestamp="2018-04-10T18:52:21Z" uid="3497659" user="NKA" version="3">
		<tag k="name" v="Bubakk" />
		<tag k="place" v="farm" />
		<tag k="ssr:stedsnr" v="873130" />
		<tag k="ssr:type" v="bruk" />
	</node>
	<node changeset="57982147" id="4485469682" lat="58.8269857" lon="7.803895" timestamp="2018-04-10T18:52:22Z" uid="3497659" user="NKA" version="3">
		<tag k="alt_name" v="Bygland" />
		<tag k="name" v="Byglandsgardane" />
		<tag k="place" v="farm" />
		<tag k="ssr:stedsnr" v="850766" />
		<tag k="ssr:type" v="bruk" />
	</node>
	<node changeset="58497758" id="4485469683" lat="58.827805" lon="7.8110523" timestamp="2018-04-28T08:07:13Z" uid="3497659" user="NKA" version="4">
		<tag k="alt_name" v="Båstøl" />
		<tag k="historic" v="shieling" />
		<tag k="name" v="Bås" />
		<tag k="place" v="farm" />
		<tag k="ssr:stedsnr" v="425784" />
		<tag k="ssr:type" v="bruk" />
	</node>
	<node changeset="58497758" id="4485469684" lat="58.9825008" lon="7.7991262" timestamp="2018-04-28T08:07:13Z" uid="3497659" user="NKA" version="4">
		<tag k="historic" v="shieling" />
		<tag k="name" v="Båse" />
		<tag k="place" v="locality" />
		<tag k="ssr:stedsnr" v="266863" />
		<tag k="ssr:type" v="seterStøl" />
	</node>
	<node changeset="58497758" id="4485469685" lat="58.9478753" lon="7.736156" timestamp="2018-04-28T08:07:13Z" uid="3497659" user="NKA" version="4">
		<tag k="alt_name" v="Båsstøl" />
		<tag k="historic" v="shieling" />
		<tag k="name" v="Båsstøyl" />
		<tag k="place" v="locality" />
		<tag k="ssr:stedsnr" v="851633" />
		<tag k="ssr:type" v="fritidsbolig" />
	</node>
	<node changeset="57982147" id="4485469686" lat="58.6871653" lon="7.7768634" timestamp="2018-04-10T18:52:22Z" uid="3497659" user="NKA" version="3">
		<tag k="name" v="Bø" />
		<tag k="place" v="farm" />
		<tag k="ssr:stedsnr" v="485519" />
		<tag k="ssr:type" v="bruk" />
	</node>
	<node changeset="57982147" id="4485469687" lat="58.9948353" lon="7.5952812" timestamp="2018-04-10T18:52:22Z" uid="3497659" user="NKA" version="3">
		<tag k="historic" v="ruins" />
		<tag k="name" v="Dale" />
		<tag k="place" v="locality" />
		<tag k="ssr:stedsnr" v="789344" />
		<tag k="ssr:type" v="gammelBosettingsplass" />
	</node>
	<node changeset="57982147" id="4485469688" lat="58.9628074" lon="7.6647896" timestamp="2018-04-10T18:52:22Z" uid="3497659" user="NKA" version="3">
		<tag k="name" v="Dalen" />
		<tag k="place" v="farm" />
		<tag k="ssr:stedsnr" v="1287" />
		<tag k="ssr:type" v="bruk" />
	</node>
	<node changeset="57982147" id="331218495" lat="58.668201" lon="7.8136641" timestamp="2018-04-10T18:39:59Z" uid="3497659" user="NKA" version="5">
		<tag k="name" v="Frøyraksmoen" />
		<tag k="place" v="farm" />
		<tag k="ssr:stedsnr" v="508537" />
		<tag k="ssr:type" v="bruk" />
	</node>
	<node changeset="57982147" id="331218498" lat="58.6694259" lon="7.8175714" timestamp="2018-04-10T18:39:59Z" uid="3497659" user="NKA" version="5">
		<tag k="name" v="Kleveland" />
		<tag k="place" v="farm" />
		<tag k="ssr:stedsnr" v="933519" />
		<tag k="ssr:type" v="bruk" />
	</node>
	<node changeset="57982147" id="331218502" lat="58.654303" lon="7.8203055" timestamp="2018-04-10T18:39:59Z" uid="3497659" user="NKA" version="4">
		<tag k="alt_name" v="Hjuringhuset" />
		<tag k="name" v="Skogly" />
		<tag k="place" v="farm" />
		<tag k="ssr:stedsnr" v="547556" />
		<tag k="ssr:type" v="bruk" />
	</node>
	<node changeset="57982147" id="331218505" lat="58.666105" lon="7.8227496" timestamp="2018-04-10T18:40:00Z" uid="3497659" user="NKA" version="5">
		<tag k="name" v="Solbakken" />
		<tag k="place" v="farm" />
		<tag k="ssr:stedsnr" v="812517" />
		<tag k="ssr:type" v="bruk" />
	</node>
	<node changeset="79869835" id="330712695" lat="58.6675708" lon="7.8076569" timestamp="2020-01-21T17:48:54Z" uid="3497659" user="NKA" version="5">
		<tag k="name" v="Byglandsfjord" />
		<tag k="place" v="village" />
		<tag k="population" v="365" />
		<tag k="population:date" v="2019-01-01" />
		<tag k="ref:ssb_tettsted" v="3612" />
		<tag k="ssr:stedsnr" v="304617" />
		<tag k="ssr:type" v="tettsted" />
	</node>
	<node changeset="57982147" id="330712697" lat="58.7070246" lon="7.8259877" timestamp="2018-04-10T18:39:59Z" uid="3497659" user="NKA" version="5">
		<tag k="name" v="Grendi" />
		<tag k="place" v="hamlet" />
		<tag k="ssr:stedsnr" v="729573" />
		<tag k="ssr:type" v="bygdelagBygd" />
	</node>
	<node changeset="57982147" id="330712699" lat="58.7513436" lon="7.8524857" timestamp="2018-04-10T18:39:59Z" uid="3497659" user="NKA" version="5">
		<tag k="name" v="Longerak" />
		<tag k="place" v="hamlet" />
		<tag k="ssr:stedsnr" v="850907" />
		<tag k="ssr:type" v="bygdelagBygd" />
	</node>
	<node changeset="57982147" id="330712721" lat="58.7978493" lon="7.8187521" timestamp="2018-04-10T18:39:59Z" uid="3497659" user="NKA" version="6">
		<tag k="name" v="Lauvdal" />
		<tag k="place" v="hamlet" />
		<tag k="ssr:stedsnr" v="206113" />
		<tag k="ssr:type" v="bygdelagBygd" />
	</node>
	<node changeset="79869835" id="330712723" lat="58.82951" lon="7.7979206" timestamp="2020-01-21T17:48:54Z" uid="3497659" user="NKA" version="6">
		<tag k="name" v="Bygland" />
		<tag k="place" v="village" />
		<tag k="population" v="242" />
		<tag k="population:date" v="2019-01-01" />
		<tag k="ref:ssb_tettsted" v="3613" />
		<tag k="ssr:stedsnr" v="774" />
		<tag k="ssr:type" v="bygdelagBygd" />
	</node>
	<node changeset="57982147" id="459464358" lat="58.9143712" lon="7.7145608" timestamp="2018-04-10T18:40:01Z" uid="3497659" user="NKA" version="6">
		<tag k="name" v="Frøysnes" />
		<tag k="place" v="hamlet" />
		<tag k="ssr:stedsnr" v="607464" />
		<tag k="ssr:type" v="grend" />
	</node>
	<node changeset="58497758" id="4485469889" lat="58.9147536" lon="7.9167971" timestamp="2018-04-28T08:07:13Z" uid="3497659" user="NKA" version="4">
		<tag k="historic" v="shieling" />
		<tag k="name" v="Dalestølen" />
		<tag k="place" v="locality" />
		<tag k="ssr:stedsnr" v="61665" />
		<tag k="ssr:type" v="seterStøl" />
	</node>
	<node changeset="57982147" id="4485469890" lat="58.7467401" lon="7.7886249" timestamp="2018-04-10T18:52:23Z" uid="3497659" user="NKA" version="3">
		<tag k="name" v="Dalskilen hyttefelt" />
		<tag k="place" v="neighbourhood" />
		<tag k="ssr:stedsnr" v="605338" />
		<tag k="ssr:type" v="hyttefelt" />
	</node>
	<node changeset="57982147" id="4485469891" lat="58.849572" lon="7.9535185" timestamp="2018-04-10T18:52:23Z" uid="3497659" user="NKA" version="3">
		<tag k="name" v="Dramdristjørn" />
		<tag k="place" v="locality" />
		<tag k="ssr:stedsnr" v="84492" />
		<tag k="ssr:type" v="fritidsbolig" />
	</node>
	<node changeset="58497758" id="4485469892" lat="59.0277097" lon="7.808615" timestamp="2018-04-28T08:07:13Z" uid="3497659" user="NKA" version="4">
		<tag k="alt_name" v="Driftsli" />
		<tag k="building" v="cabin" />
		<tag k="historic" v="shieling" />
		<tag k="name" v="Drivslistøylen" />
		<tag k="place" v="isolated_dwelling" />
		<tag k="ssr:stedsnr" v="487533" />
		<tag k="ssr:type" v="fritidsbolig" />
	</node>
	<node changeset="57982147" id="4485469893" lat="58.9409315" lon="7.7866329" timestamp="2018-04-10T18:52:23Z" uid="3497659" user="NKA" version="3">
		<tag k="building" v="cabin" />
		<tag k="name" v="Ekron" />
		<tag k="place" v="isolated_dwelling" />
		<tag k="ssr:stedsnr" v="364659" />
		<tag k="ssr:type" v="fritidsbolig" />
	</node>
	<node changeset="57982147" id="4485469894" lat="58.8504145" lon="7.9693993" timestamp="2018-04-10T18:52:23Z" uid="3497659" user="NKA" version="3">
		<tag k="building" v="cabin" />
		<tag k="name" v="Eksæhytta" />
		<tag k="place" v="isolated_dwelling" />
		<tag k="ssr:stedsnr" v="84503" />
		<tag k="ssr:type" v="fritidsbolig" />
	</node>
	<node changeset="57982147" id="4485469895" lat="58.9178997" lon="7.742351" timestamp="2018-04-10T18:52:23Z" uid="3497659" user="NKA" version="3">
		<tag k="name" v="Eldhuset" />
		<tag k="place" v="farm" />
		<tag k="ssr:stedsnr" v="387313" />
		<tag k="ssr:type" v="bruk" />
	</node>
	<node changeset="57982147" id="4485469896" lat="58.9729208" lon="7.4916576" timestamp="2018-04-10T18:52:23Z" uid="3497659" user="NKA" version="3">
		<tag k="building" v="cabin" />
		<tag k="name" v="Elgli" />
		<tag k="place" v="isolated_dwelling" />
		<tag k="ssr:stedsnr" v="607325" />
		<tag k="ssr:type" v="fritidsbolig" />
	</node>
	<node changeset="57982147" id="4485469897" lat="58.8604903" lon="7.7451637" timestamp="2018-04-10T18:52:23Z" uid="3497659" user="NKA" version="3">
		<tag k="name" v="Ellingstjønn" />
		<tag k="place" v="farm" />
		<tag k="ssr:stedsnr" v="365744" />
		<tag k="ssr:type" v="eneboligMindreBoligbygg" />
	</node>
	<node changeset="57982147" id="4485469898" lat="58.8458402" lon="7.8250323" timestamp="2018-04-10T18:52:24Z" uid="3497659" user="NKA" version="3">
		<tag k="name" v="Enkjesæte" />
		<tag k="place" v="farm" />
		<tag k="ssr:stedsnr" v="425786" />
		<tag k="ssr:type" v="bruk" />
	</node>
	<node changeset="58497758" id="4485469899" lat="58.973562" lon="7.7191757" timestamp="2018-04-28T08:07:13Z" uid="3497659" user="NKA" version="4">
		<tag k="historic" v="shieling" />
		<tag k="name" v="Espelistøylen" />
		<tag k="place" v="locality" />
		<tag k="ssr:stedsnr" v="24372" />
		<tag k="ssr:type" v="seterStøl" />
	</node>
	<node changeset="58497758" id="4485469900" lat="58.7936694" lon="7.8477856" timestamp="2018-04-28T08:07:13Z" uid="3497659" user="NKA" version="4">
		<tag k="historic" v="shieling" />
		<tag k="name" v="Finnstøyl" />
		<tag k="place" v="locality" />
		<tag k="ssr:stedsnr" v="387151" />
		<tag k="ssr:type" v="seterStøl" />
	</node>
	<node changeset="58497758" id="4485469901" lat="58.9233217" lon="7.666983" timestamp="2018-04-28T08:07:13Z" uid="3497659" user="NKA" version="4">
		<tag k="building" v="cabin" />
		<tag k="historic" v="shieling" />
		<tag k="name" v="Fisstøyl" />
		<tag k="place" v="isolated_dwelling" />
		<tag k="ssr:stedsnr" v="304467" />
		<tag k="ssr:type" v="seterStøl" />
	</node>
	<node changeset="57982147" id="4485469902" lat="58.8505972" lon="7.6716347" timestamp="2018-04-10T18:52:24Z" uid="3497659" user="NKA" version="3">
		<tag k="building" v="cabin" />
		<tag k="name" v="Fitjebakken" />
		<tag k="place" v="isolated_dwelling" />
		<tag k="ssr:stedsnr" v="182382" />
		<tag k="ssr:type" v="fritidsbolig" />
	</node>
	<node changeset="57982147" id="4485469903" lat="59.0347484" lon="7.8481423" timestamp="2018-04-10T18:52:24Z" uid="3497659" user="NKA" version="3">
		<tag k="building" v="cabin" />
		<tag k="name" v="Fjalskå" />
		<tag k="place" v="isolated_dwelling" />
		<tag k="ssr:stedsnr" v="816469" />
		<tag k="ssr:type" v="fritidsbolig" />
	</node>
	<node changeset="57982147" id="4485469904" lat="58.6754785" lon="7.9181582" timestamp="2018-04-10T18:52:24Z" uid="3497659" user="NKA" version="3">
		<tag k="building" v="cabin" />
		<tag k="name" v="Fjelltun" />
		<tag k="place" v="isolated_dwelling" />
		<tag k="ssr:stedsnr" v="426601" />
		<tag k="ssr:type" v="fritidsbolig" />
	</node>
	<node changeset="58497758" id="4485469905" lat="58.8942652" lon="7.9641156" timestamp="2018-04-28T08:07:14Z" uid="3497659" user="NKA" version="4">
		<tag k="building" v="cabin" />
		<tag k="historic" v="shieling" />
		<tag k="name" v="Fjøddestøyl" />
		<tag k="place" v="isolated_dwelling" />
		<tag k="ssr:stedsnr" v="458909" />
		<tag k="ssr:type" v="seterStøl" />
	</node>
	<node changeset="58497758" id="4485469906" lat="58.9534383" lon="7.4127345" timestamp="2018-04-28T08:07:14Z" uid="3497659" user="NKA" version="4">
		<tag k="historic" v="shieling" />
		<tag k="name" v="Fjøddestøylen" />
		<tag k="place" v="locality" />
		<tag k="ssr:stedsnr" v="243265" />
		<tag k="ssr:type" v="seterStøl" />
	</node>
	<node changeset="58497758" id="4485469907" lat="58.7463655" lon="7.7552656" timestamp="2018-04-28T08:07:14Z" uid="3497659" user="NKA" version="4">
		<tag k="historic" v="shieling" />
		<tag k="name" v="Fossheim" />
		<tag k="place" v="locality" />
		<tag k="ssr:stedsnr" v="873312" />
		<tag k="ssr:type" v="seterStøl" />
	</node>
	<node changeset="57982147" id="4485469908" lat="58.8435151" lon="7.7632093" timestamp="2018-04-10T18:52:25Z" uid="3497659" user="NKA" version="3">
		<tag k="building" v="cabin" />
		<tag k="name" v="Fosskarhytta" />
		<tag k="place" v="isolated_dwelling" />
		<tag k="ssr:stedsnr" v="84364" />
		<tag k="ssr:type" v="fritidsbolig" />
	</node>
	<node changeset="57982147" id="4485469909" lat="58.9142384" lon="7.7619191" timestamp="2018-04-10T18:52:25Z" uid="3497659" user="NKA" version="3">
		<tag k="name" v="Fossli" />
		<tag k="place" v="farm" />
		<tag k="ssr:stedsnr" v="122662" />
		<tag k="ssr:type" v="bruk" />
	</node>
	<node changeset="57982147" id="4485469910" lat="58.9454835" lon="7.6867383" timestamp="2018-04-10T18:52:25Z" uid="3497659" user="NKA" version="3">
		<tag k="name" v="Fossli" />
		<tag k="place" v="isolated_dwelling" />
		<tag k="ssr:stedsnr" v="513259" />
		<tag k="ssr:type" v="seterStøl" />
	</node>
	<node changeset="57982147" id="4485469911" lat="58.9740567" lon="7.7077015" timestamp="2018-04-10T18:52:25Z" uid="3497659" user="NKA" version="3">
		<tag k="alt_name" v="Freimdalen" />
		<tag k="building" v="cabin" />
		<tag k="name" v="Freimedalen" />
		<tag k="place" v="isolated_dwelling" />
		<tag k="ssr:stedsnr" v="61278" />
		<tag k="ssr:type" v="fritidsbolig" />
	</node>
	<node changeset="57982147" id="4485469912" lat="58.9776426" lon="7.5038632" timestamp="2018-04-10T18:52:25Z" uid="3497659" user="NKA" version="3">
		<tag k="alt_name" v="Frikstad" />
		<tag k="building" v="cabin" />
		<tag k="name" v="Frigstad" />
		<tag k="place" v="isolated_dwelling" />
		<tag k="ssr:stedsnr" v="546286" />
		<tag k="ssr:type" v="fritidsbolig" />
	</node>
	<node changeset="58497758" id="4485469913" lat="58.945862" lon="7.85614" timestamp="2018-04-28T08:07:14Z" uid="3497659" user="NKA" version="4">
		<tag k="building" v="cabin" />
		<tag k="historic" v="shieling" />
		<tag k="name" v="Frydenlund" />
		<tag k="place" v="isolated_dwelling" />
		<tag k="ssr:stedsnr" v="447844" />
		<tag k="ssr:type" v="seterStøl" />
	</node>
	<node changeset="57982147" id="4485469914" lat="58.7546519" lon="7.8161828" timestamp="2018-04-10T18:52:26Z" uid="3497659" user="NKA" version="3">
		<tag k="name" v="Frøyrak" />
		<tag k="place" v="farm" />
		<tag k="ssr:stedsnr" v="789873" />
		<tag k="ssr:type" v="bruk" />
	</node>
	<node changeset="58497758" id="4485469915" lat="58.8560011" lon="7.879271" timestamp="2018-04-28T08:07:14Z" uid="3497659" user="NKA" version="4">
		<tag k="alt_name" v="Furestøl" />
		<tag k="historic" v="shieling" />
		<tag k="name" v="Furestøyl" />
		<tag k="place" v="locality" />
		<tag k="ssr:stedsnr" v="751" />
		<tag k="ssr:type" v="seterStøl" />
	</node>
	<node changeset="57982147" id="4485469916" lat="58.7924511" lon="7.7998664" timestamp="2018-04-10T18:52:26Z" uid="3497659" user="NKA" version="3">
		<tag k="building" v="cabin" />
		<tag k="name" v="Furodden" />
		<tag k="place" v="isolated_dwelling" />
		<tag k="ssr:stedsnr" v="752075" />
		<tag k="ssr:type" v="fritidsbolig" />
	</node>
	<node changeset="57982147" id="4485469917" lat="58.927261" lon="7.7525479" timestamp="2018-04-10T18:52:26Z" uid="3497659" user="NKA" version="3">
		<tag k="name" v="Gakkestad nedre" />
		<tag k="place" v="farm" />
		<tag k="ssr:stedsnr" v="508458" />
		<tag k="ssr:type" v="bruk" />
	</node>
	<node changeset="57982147" id="4485469918" lat="58.9293231" lon="7.7571524" timestamp="2018-04-10T18:52:26Z" uid="3497659" user="NKA" version="3">
		<tag k="name" v="Gakkestad øvre" />
		<tag k="place" v="farm" />
		<tag k="ssr:stedsnr" v="873402" />
		<tag k="ssr:type" v="bruk" />
	</node>
	<node changeset="57982147" id="4485469919" lat="58.9282754" lon="7.755535" timestamp="2018-04-10T18:52:26Z" uid="3497659" user="NKA" version="3">
		<tag k="name" v="Gakkestad" />
		<tag k="place" v="hamlet" />
		<tag k="ssr:stedsnr" v="850638" />
		<tag k="ssr:type" v="bruk" />
	</node>
	<node changeset="57982147" id="4485469920" lat="58.8732593" lon="7.7048144" timestamp="2018-04-10T18:52:26Z" uid="3497659" user="NKA" version="3">
		<tag k="name" v="Gamelstog" />
		<tag k="place" v="farm" />
		<tag k="ssr:stedsnr" v="144326" />
		<tag k="ssr:type" v="bruk" />
	</node>
	<node changeset="58497758" id="4485469921" lat="58.9754868" lon="7.9549518" timestamp="2018-04-28T08:07:14Z" uid="3497659" user="NKA" version="4">
		<tag k="historic" v="shieling" />
		<tag k="name" v="Gamlestøyl" />
		<tag k="place" v="locality" />
		<tag k="ssr:stedsnr" v="209375" />
		<tag k="ssr:type" v="seterStøl" />
	</node>
	<node changeset="58497758" id="4485469922" lat="58.9993" lon="7.9256698" timestamp="2018-04-28T08:07:14Z" uid="3497659" user="NKA" version="4">
		<tag k="historic" v="shieling" />
		<tag k="name" v="Gamlestøyl" />
		<tag k="place" v="locality" />
		<tag k="ssr:stedsnr" v="94809" />
		<tag k="ssr:type" v="seterStøl" />
	</node>
	<node changeset="58497758" id="4485469923" lat="59.017799" lon="7.8149413" timestamp="2018-04-28T08:07:14Z" uid="3497659" user="NKA" version="4">
		<tag k="historic" v="shieling" />
		<tag k="name" v="Gamlestøylen" />
		<tag k="place" v="locality" />
		<tag k="ssr:stedsnr" v="1508" />
		<tag k="ssr:type" v="seterStøl" />
	</node>
	<node changeset="57982147" id="4485469924" lat="58.7737955" lon="7.8913832" timestamp="2018-04-10T18:52:27Z" uid="3497659" user="NKA" version="3">
		<tag k="alt_name" v="Gammen" />
		<tag k="building" v="cabin" />
		<tag k="name" v="Gamma" />
		<tag k="place" v="isolated_dwelling" />
		<tag k="ssr:stedsnr" v="426839" />
		<tag k="ssr:type" v="fritidsbolig" />
	</node>
	<node changeset="58497758" id="4485469925" lat="58.6834381" lon="7.8528565" timestamp="2018-04-28T08:07:14Z" uid="3497659" user="NKA" version="4">
		<tag k="building" v="cabin" />
		<tag k="historic" v="shieling" />
		<tag k="name" v="Gaukshei" />
		<tag k="place" v="isolated_dwelling" />
		<tag k="ssr:stedsnr" v="459911" />
		<tag k="ssr:type" v="seterStøl" />
	</node>
	<node changeset="57982147" id="4485469926" lat="58.9255199" lon="7.7605333" timestamp="2018-04-10T18:52:27Z" uid="3497659" user="NKA" version="3">
		<tag k="name" v="Gausi" />
		<tag k="place" v="farm" />
		<tag k="ssr:stedsnr" v="850655" />
		<tag k="ssr:type" v="bruk" />
	</node>
	<node changeset="58497758" id="4485469927" lat="58.9713146" lon="7.6904784" timestamp="2018-04-28T08:07:15Z" uid="3497659" user="NKA" version="4">
		<tag k="alt_name" v="Gjermundstøyl" />
		<tag k="historic" v="shieling" />
		<tag k="name" v="Gjermundstøylii" />
		<tag k="place" v="locality" />
		<tag k="ssr:stedsnr" v="873446" />
		<tag k="ssr:type" v="seterStøl" />
	</node>
	<node changeset="58497758" id="4485469928" lat="58.9335151" lon="7.9248576" timestamp="2018-04-28T08:07:15Z" uid="3497659" user="NKA" version="4">
		<tag k="alt_name" v="Gjuvasstølen" />
		<tag k="historic" v="shieling" />
		<tag k="name" v="Gjuvasstøyl" />
		<tag k="place" v="locality" />
		<tag k="ssr:stedsnr" v="654" />
		<tag k="ssr:type" v="fritidsbolig" />
	</node>
	<node changeset="58497758" id="4485469929" lat="59.0220732" lon="7.7358163" timestamp="2018-04-28T08:07:15Z" uid="3497659" user="NKA" version="4">
		<tag k="alt_name" v="Gjuvvatn" />
		<tag k="building" v="cabin" />
		<tag k="historic" v="shieling" />
		<tag k="name" v="Gjuvasstøylen" />
		<tag k="place" v="isolated_dwelling" />
		<tag k="ssr:stedsnr" v="912518" />
		<tag k="ssr:type" v="fritidsbolig" />
	</node>
	<node changeset="58497758" id="4485469930" lat="58.9334696" lon="7.6414618" timestamp="2018-04-28T08:07:15Z" uid="3497659" user="NKA" version="4">
		<tag k="historic" v="shieling" />
		<tag k="name" v="Glypsehommen" />
		<tag k="place" v="locality" />
		<tag k="ssr:stedsnr" v="812015" />
		<tag k="ssr:type" v="seterStøl" />
	</node>
	<node changeset="57982147" id="4485469931" lat="58.8459976" lon="7.8169528" timestamp="2018-04-10T18:52:28Z" uid="3497659" user="NKA" version="3">
		<tag k="name" v="Granholtet" />
		<tag k="place" v="farm" />
		<tag k="ssr:stedsnr" v="387142" />
		<tag k="ssr:type" v="bruk" />
	</node>
	<node changeset="57982147" id="4485469932" lat="58.7064595" lon="7.8365947" timestamp="2018-04-10T18:52:28Z" uid="3497659" user="NKA" version="3">
		<tag k="name" v="Greibrokk" />
		<tag k="place" v="hamlet" />
		<tag k="ssr:stedsnr" v="183547" />
		<tag k="ssr:type" v="gard" />
	</node>
	<node changeset="57982147" id="4485469933" lat="58.7498292" lon="7.9586696" timestamp="2018-04-10T18:52:28Z" uid="3497659" user="NKA" version="3">
		<tag k="building" v="cabin" />
		<tag k="name" v="Grimsdalen" />
		<tag k="place" v="isolated_dwelling" />
		<tag k="ssr:stedsnr" v="607854" />
		<tag k="ssr:type" v="fritidsbolig" />
	</node>
	<node changeset="58497758" id="4485469934" lat="59.0026076" lon="7.4335956" timestamp="2018-04-28T08:07:15Z" uid="3497659" user="NKA" version="4">
		<tag k="historic" v="shieling" />
		<tag k="name" v="Grjobudalstøyl" />
		<tag k="place" v="locality" />
		<tag k="ssr:stedsnr" v="337798" />
		<tag k="ssr:type" v="seterStøl" />
	</node>
	<node changeset="58497758" id="4485469935" lat="58.9516252" lon="7.4765306" timestamp="2018-04-28T08:07:15Z" uid="3497659" user="NKA" version="4">
		<tag k="building" v="cabin" />
		<tag k="historic" v="shieling" />
		<tag k="name" v="Grostøyl" />
		<tag k="place" v="isolated_dwelling" />
		<tag k="ssr:stedsnr" v="668283" />
		<tag k="ssr:type" v="seterStøl" />
	</node>
	<node changeset="57982147" id="4485469936" lat="58.7736541" lon="7.8832013" timestamp="2018-04-10T18:52:29Z" uid="3497659" user="NKA" version="3">
		<tag k="building" v="cabin" />
		<tag k="name" v="Gruddefjellhytta" />
		<tag k="place" v="isolated_dwelling" />
		<tag k="ssr:stedsnr" v="691231" />
		<tag k="ssr:type" v="fritidsbolig" />
	</node>
	<node changeset="58497758" id="4485469937" lat="58.9390318" lon="7.8881008" timestamp="2018-04-28T08:07:15Z" uid="3497659" user="NKA" version="4">
		<tag k="historic" v="shieling" />
		<tag k="name" v="Grunnetjørn" />
		<tag k="place" v="locality" />
		<tag k="ssr:stedsnr" v="23833" />
		<tag k="ssr:type" v="seterStøl" />
	</node>
	<node changeset="58497758" id="4485469938" lat="58.9482495" lon="7.8529975" timestamp="2018-04-28T08:07:15Z" uid="3497659" user="NKA" version="4">
		<tag k="building" v="cabin" />
		<tag k="historic" v="shieling" />
		<tag k="name" v="Grunnevasstøyl" />
		<tag k="place" v="isolated_dwelling" />
		<tag k="ssr:stedsnr" v="933851" />
		<tag k="ssr:type" v="seterStøl" />
	</node>
	<node changeset="58497758" id="4485469939" lat="58.9538328" lon="7.8854788" timestamp="2018-04-28T08:07:16Z" uid="3497659" user="NKA" version="4">
		<tag k="alt_name" v="Grytingskaret" />
		<tag k="building" v="cabin" />
		<tag k="historic" v="shieling" />
		<tag k="name" v="Grytingskardet" />
		<tag k="place" v="isolated_dwelling" />
		<tag k="ssr:stedsnr" v="607641" />
		<tag k="ssr:type" v="fritidsbolig" />
	</node>
	<node changeset="57982147" id="4485469940" lat="58.7852266" lon="7.8905487" timestamp="2018-04-10T18:52:29Z" uid="3497659" user="NKA" version="3">
		<tag k="building" v="cabin" />
		<tag k="name" v="Gråbu" />
		<tag k="place" v="isolated_dwelling" />
		<tag k="ssr:stedsnr" v="633358" />
		<tag k="ssr:type" v="fritidsbolig" />
	</node>
	<node changeset="58497758" id="4485469941" lat="58.7791183" lon="7.9534948" timestamp="2018-04-28T08:07:16Z" uid="3497659" user="NKA" version="4">
		<tag k="building" v="cabin" />
		<tag k="historic" v="shieling" />
		<tag k="name" v="Guddalstøyl" />
		<tag k="place" v="isolated_dwelling" />
		<tag k="ssr:stedsnr" v="883922" />
		<tag k="ssr:type" v="seterStøl" />
	</node>
	<node changeset="57982147" id="4485469942" lat="58.6721093" lon="7.9051222" timestamp="2018-04-10T18:52:29Z" uid="3497659" user="NKA" version="3">
		<tag k="historic" v="ruins" />
		<tag k="name" v="Guddalsøygard" />
		<tag k="place" v="locality" />
		<tag k="ssr:stedsnr" v="701916" />
		<tag k="ssr:type" v="gammelBosettingsplass" />
	</node>
	<node changeset="57982147" id="4485469943" lat="58.8055098" lon="7.8576004" timestamp="2018-04-10T18:52:30Z" uid="3497659" user="NKA" version="3">
		<tag k="historic" v="yes" />
		<tag k="name" v="Gunhildsto" />
		<tag k="place" v="locality" />
		<tag k="ssr:stedsnr" v="326134" />
		<tag k="ssr:type" v="stø" />
	</node>
	<node changeset="57982147" id="4485469944" lat="58.9334762" lon="7.5260717" timestamp="2018-04-10T18:52:30Z" uid="3497659" user="NKA" version="3">
		<tag k="building" v="cabin" />
		<tag k="name" v="Gunnarsdalen" />
		<tag k="place" v="isolated_dwelling" />
		<tag k="ssr:stedsnr" v="182486" />
		<tag k="ssr:type" v="fritidsbolig" />
	</node>
	<node changeset="57982147" id="4485469945" lat="58.7797947" lon="7.6740962" timestamp="2018-04-10T18:52:30Z" uid="3497659" user="NKA" version="3">
		<tag k="alt_name" v="Gybui" />
		<tag k="building" v="cabin" />
		<tag k="name" v="Gy" />
		<tag k="place" v="isolated_dwelling" />
		<tag k="ssr:stedsnr" v="546511" />
		<tag k="ssr:type" v="fritidsbolig" />
	</node>
	<node changeset="57982147" id="4485469946" lat="58.9796725" lon="7.6160516" timestamp="2018-04-10T18:52:30Z" uid="3497659" user="NKA" version="3">
		<tag k="name" v="Hagan" />
		<tag k="place" v="farm" />
		<tag k="ssr:stedsnr" v="183259" />
		<tag k="ssr:type" v="bruk" />
	</node>
	<node changeset="57982147" id="4485469947" lat="58.9855739" lon="7.6032536" timestamp="2018-04-10T18:52:30Z" uid="3497659" user="NKA" version="3">
		<tag k="name" v="Hagan" />
		<tag k="place" v="farm" />
		<tag k="ssr:stedsnr" v="23178" />
		<tag k="ssr:type" v="bruk" />
	</node>
	<node changeset="57982147" id="4485469948" lat="58.7938188" lon="7.8214617" timestamp="2018-04-10T18:52:30Z" uid="3497659" user="NKA" version="3">
		<tag k="name" v="Hage" />
		<tag k="place" v="farm" />
		<tag k="ssr:stedsnr" v="729794" />
		<tag k="ssr:type" v="bruk" />
	</node>
	<node changeset="57982147" id="4485469949" lat="58.7047627" lon="7.9117313" timestamp="2018-04-10T18:52:30Z" uid="3497659" user="NKA" version="3">
		<tag k="alt_name" v="Hagedalsstølen" />
		<tag k="building" v="cabin" />
		<tag k="name" v="Hagedalen" />
		<tag k="place" v="isolated_dwelling" />
		<tag k="ssr:stedsnr" v="61553" />
		<tag k="ssr:type" v="fritidsbolig" />
	</node>
	<node changeset="57982147" id="4485469950" lat="58.7986656" lon="7.8095262" timestamp="2018-04-10T18:52:30Z" uid="3497659" user="NKA" version="3">
		<tag k="name" v="Hagen" />
		<tag k="place" v="farm" />
		<tag k="ssr:stedsnr" v="205101" />
		<tag k="ssr:type" v="eneboligMindreBoligbygg" />
	</node>
	<node changeset="57982147" id="4485469951" lat="58.7429385" lon="7.7936281" timestamp="2018-04-10T18:52:31Z" uid="3497659" user="NKA" version="3">
		<tag k="name" v="Hagenesodden hyttefelt" />
		<tag k="place" v="neighbourhood" />
		<tag k="ssr:stedsnr" v="362325" />
		<tag k="ssr:type" v="hyttefelt" />
	</node>
	<node changeset="57982147" id="4485469952" lat="58.8129164" lon="7.7633438" timestamp="2018-04-10T18:52:31Z" uid="3497659" user="NKA" version="3">
		<tag k="name" v="Hamre" />
		<tag k="place" v="farm" />
		<tag k="ssr:stedsnr" v="425776" />
		<tag k="ssr:type" v="fritidsbolig" />
	</node>
	<node changeset="57982147" id="4485469953" lat="58.8178703" lon="7.7916186" timestamp="2018-04-10T18:52:31Z" uid="3497659" user="NKA" version="3">
		<tag k="name" v="Hamre" />
		<tag k="place" v="farm" />
		<tag k="ssr:stedsnr" v="911775" />
		<tag k="ssr:type" v="eneboligMindreBoligbygg" />
	</node>
	<node changeset="57982147" id="4485469954" lat="58.9161635" lon="7.7390824" timestamp="2018-04-10T18:52:31Z" uid="3497659" user="NKA" version="3">
		<tag k="name" v="Haugen" />
		<tag k="place" v="farm" />
		<tag k="ssr:stedsnr" v="387315" />
		<tag k="ssr:type" v="bruk" />
	</node>
	<node changeset="57982147" id="4485469955" lat="58.9780489" lon="7.5854908" timestamp="2018-04-10T18:52:31Z" uid="3497659" user="NKA" version="3">
		<tag k="name" v="Haugen" />
		<tag k="place" v="farm" />
		<tag k="ssr:stedsnr" v="546267" />
		<tag k="ssr:type" v="bruk" />
	</node>
	<node changeset="57982147" id="4485469956" lat="58.9389403" lon="7.7883008" timestamp="2018-04-10T18:52:31Z" uid="3497659" user="NKA" version="3">
		<tag k="name" v="Haugetveit" />
		<tag k="place" v="farm" />
		<tag k="ssr:stedsnr" v="364658" />
		<tag k="ssr:type" v="bruk" />
	</node>
	<node changeset="57982147" id="4485469957" lat="58.8600898" lon="7.6452673" timestamp="2018-04-10T18:52:31Z" uid="3497659" user="NKA" version="3">
		<tag k="building" v="cabin" />
		<tag k="name" v="Haugland" />
		<tag k="place" v="isolated_dwelling" />
		<tag k="ssr:stedsnr" v="1410" />
		<tag k="ssr:type" v="fritidsbolig" />
	</node>
	<node changeset="57982147" id="4485469958" lat="58.8344002" lon="7.79118" timestamp="2018-04-10T18:52:31Z" uid="3497659" user="NKA" version="3">
		<tag k="name" v="Haugå" />
		<tag k="place" v="farm" />
		<tag k="ssr:stedsnr" v="569019" />
		<tag k="ssr:type" v="bruk" />
	</node>
	<node changeset="57982147" id="4485469959" lat="58.6956803" lon="7.9065992" timestamp="2018-04-10T18:52:32Z" uid="3497659" user="NKA" version="3">
		<tag k="building" v="cabin" />
		<tag k="name" v="Haugøygard" />
		<tag k="place" v="isolated_dwelling" />
		<tag k="ssr:stedsnr" v="61536" />
		<tag k="ssr:type" v="fritidsbolig" />
	</node>
	<node changeset="57982147" id="4485469960" lat="58.8108309" lon="7.8275731" timestamp="2018-04-10T18:52:32Z" uid="3497659" user="NKA" version="3">
		<tag k="historic" v="ruins" />
		<tag k="name" v="Heddemoen" />
		<tag k="place" v="locality" />
		<tag k="ssr:stedsnr" v="508085" />
		<tag k="ssr:type" v="gammelBosettingsplass" />
	</node>
	<node changeset="58497758" id="4485469961" lat="58.9337502" lon="7.7168355" timestamp="2018-04-28T08:07:16Z" uid="3497659" user="NKA" version="4">
		<tag k="building" v="cabin" />
		<tag k="historic" v="shieling" />
		<tag k="name" v="Heddeneset" />
		<tag k="place" v="isolated_dwelling" />
		<tag k="ssr:stedsnr" v="873057" />
		<tag k="ssr:type" v="seterStøl" />
	</node>
	<node changeset="58497758" id="4485469962" lat="58.9328209" lon="7.4772696" timestamp="2018-04-28T08:07:16Z" uid="3497659" user="NKA" version="4">
		<tag k="historic" v="shieling" />
		<tag k="name" v="Hegestøyl" />
		<tag k="place" v="locality" />
		<tag k="ssr:stedsnr" v="183444" />
		<tag k="ssr:type" v="seterStøl" />
	</node>
	<node changeset="57982147" id="4485469963" lat="58.9261677" lon="7.757468" timestamp="2018-04-10T18:52:32Z" uid="3497659" user="NKA" version="3">
		<tag k="name" v="Heggtveit" />
		<tag k="place" v="farm" />
		<tag k="ssr:stedsnr" v="205427" />
		<tag k="ssr:type" v="bruk" />
	</node>
	<node changeset="57982147" id="4485469964" lat="58.7953758" lon="7.7939953" timestamp="2018-04-10T18:52:32Z" uid="3497659" user="NKA" version="3">
		<tag k="historic" v="ruins" />
		<tag k="name" v="Hegni" />
		<tag k="place" v="locality" />
		<tag k="ssr:stedsnr" v="145093" />
		<tag k="ssr:type" v="gammelBosettingsplass" />
	</node>
	<node changeset="57982147" id="4485469965" lat="58.7784193" lon="7.7292523" timestamp="2018-04-10T18:52:32Z" uid="3497659" user="NKA" version="3">
		<tag k="name" v="Heimheibu" />
		<tag k="place" v="locality" />
		<tag k="ssr:stedsnr" v="691373" />
		<tag k="ssr:type" v="fritidsbolig" />
	</node>
	<node changeset="57982147" id="4485469966" lat="58.9896263" lon="7.5362738" timestamp="2018-04-10T18:52:32Z" uid="3497659" user="NKA" version="3">
		<tag k="name" v="Heimigard" />
		<tag k="place" v="farm" />
		<tag k="ssr:stedsnr" v="850302" />
		<tag k="ssr:type" v="bruk" />
	</node>
	<node changeset="58497758" id="4485469967" lat="58.9632157" lon="7.6374908" timestamp="2018-04-28T08:07:16Z" uid="3497659" user="NKA" version="4">
		<tag k="historic" v="shieling" />
		<tag k="name" v="Heimstehomm" />
		<tag k="place" v="locality" />
		<tag k="ssr:stedsnr" v="812507" />
		<tag k="ssr:type" v="seterStøl" />
	</node>
	<node changeset="57982147" id="4485469968" lat="58.9764864" lon="7.6758275" timestamp="2018-04-10T18:52:33Z" uid="3497659" user="NKA" version="3">
		<tag k="name" v="Heistad" />
		<tag k="place" v="farm" />
		<tag k="ssr:stedsnr" v="297" />
		<tag k="ssr:type" v="bruk" />
	</node>
	<node changeset="57982147" id="4485469969" lat="58.9795192" lon="7.6711311" timestamp="2018-04-10T18:52:33Z" uid="3497659" user="NKA" version="3">
		<tag k="name" v="Heistad" />
		<tag k="place" v="hamlet" />
		<tag k="ssr:stedsnr" v="425290" />
		<tag k="ssr:type" v="grend" />
	</node>
	<node changeset="58497758" id="4485469970" lat="58.9995535" lon="7.6555596" timestamp="2018-04-28T08:07:16Z" uid="3497659" user="NKA" version="4">
		<tag k="alt_name" v="Heisvasstøl" />
		<tag k="building" v="cabin" />
		<tag k="historic" v="shieling" />
		<tag k="name" v="Heisvasstøylen" />
		<tag k="place" v="isolated_dwelling" />
		<tag k="ssr:stedsnr" v="789340" />
		<tag k="ssr:type" v="fritidsbolig" />
	</node>
	<node changeset="58497758" id="4485469971" lat="58.8561658" lon="7.9853677" timestamp="2018-04-28T08:07:16Z" uid="3497659" user="NKA" version="4">
		<tag k="building" v="cabin" />
		<tag k="historic" v="shieling" />
		<tag k="name" v="Hemsedal" />
		<tag k="place" v="isolated_dwelling" />
		<tag k="ssr:stedsnr" v="326502" />
		<tag k="ssr:type" v="seterStøl" />
	</node>
	<node changeset="57982147" id="4485469972" lat="58.9733041" lon="7.7518317" timestamp="2018-04-10T18:52:33Z" uid="3497659" user="NKA" version="3">
		<tag k="name" v="Hillesgrø" />
		<tag k="place" v="locality" />
		<tag k="ssr:stedsnr" v="729602" />
		<tag k="ssr:type" v="fritidsbolig" />
	</node>
	<node changeset="58497758" id="4485469973" lat="58.9237748" lon="7.6274424" timestamp="2018-04-28T08:07:17Z" uid="3497659" user="NKA" version="4">
		<tag k="building" v="cabin" />
		<tag k="historic" v="shieling" />
		<tag k="name" v="Histribu" />
		<tag k="place" v="isolated_dwelling" />
		<tag k="ssr:stedsnr" v="629069" />
		<tag k="ssr:type" v="seterStøl" />
	</node>
	<node changeset="58497758" id="4485469974" lat="58.6872407" lon="7.9313356" timestamp="2018-04-28T08:07:17Z" uid="3497659" user="NKA" version="4">
		<tag k="building" v="cabin" />
		<tag k="historic" v="shieling" />
		<tag k="name" v="Hisvatn" />
		<tag k="place" v="isolated_dwelling" />
		<tag k="ssr:stedsnr" v="34918" />
		<tag k="ssr:type" v="seterStøl" />
	</node>
	<node changeset="57982147" id="4485469975" lat="58.7076798" lon="7.8544574" timestamp="2018-04-10T18:52:34Z" uid="3497659" user="NKA" version="3">
		<tag k="name" v="Hjarpedokk" />
		<tag k="place" v="farm" />
		<tag k="ssr:stedsnr" v="23069" />
		<tag k="ssr:type" v="bruk" />
	</node>
	<node changeset="58497758" id="4485469976" lat="58.8046826" lon="7.8555305" timestamp="2018-04-28T08:07:17Z" uid="3497659" user="NKA" version="4">
		<tag k="historic" v="shieling" />
		<tag k="name" v="Holestøyl" />
		<tag k="place" v="locality" />
		<tag k="ssr:stedsnr" v="508137" />
		<tag k="ssr:type" v="seterStøl" />
	</node>
	<node changeset="57982147" id="4485469977" lat="58.7539331" lon="7.8513492" timestamp="2018-04-10T18:52:34Z" uid="3497659" user="NKA" version="3">
		<tag k="name" v="Holte" />
		<tag k="place" v="farm" />
		<tag k="ssr:stedsnr" v="205268" />
		<tag k="ssr:type" v="bruk" />
	</node>
	<node changeset="57982147" id="4485469978" lat="58.7322825" lon="7.8700273" timestamp="2018-04-10T18:52:34Z" uid="3497659" user="NKA" version="3">
		<tag k="building" v="cabin" />
		<tag k="name" v="Homman" />
		<tag k="place" v="isolated_dwelling" />
		<tag k="ssr:stedsnr" v="486924" />
		<tag k="ssr:type" v="fritidsbolig" />
	</node>
	<node changeset="58497758" id="4485469979" lat="58.9627233" lon="7.6110378" timestamp="2018-04-28T08:07:17Z" uid="3497659" user="NKA" version="4">
		<tag k="historic" v="shieling" />
		<tag k="name" v="Hommen" />
		<tag k="place" v="locality" />
		<tag k="ssr:stedsnr" v="629495" />
		<tag k="ssr:type" v="seterStøl" />
	</node>
	<node changeset="57982147" id="4485469980" lat="58.6826903" lon="7.78089" timestamp="2018-04-10T18:52:34Z" uid="3497659" user="NKA" version="3">
		<tag k="name" v="Horverak" />
		<tag k="place" v="farm" />
		<tag k="ssr:stedsnr" v="122619" />
		<tag k="ssr:type" v="bruk" />
	</node>
	<node changeset="57982147" id="4485469981" lat="58.9661542" lon="7.8075442" timestamp="2018-04-10T18:52:34Z" uid="3497659" user="NKA" version="3">
		<tag k="building" v="cabin" />
		<tag k="name" v="Hovassheii" />
		<tag k="place" v="isolated_dwelling" />
		<tag k="ssr:stedsnr" v="729626" />
		<tag k="ssr:type" v="fritidsbolig" />
	</node>
	<node changeset="57982147" id="4485469982" lat="58.9889461" lon="7.7438571" timestamp="2018-04-10T18:52:34Z" uid="3497659" user="NKA" version="3">
		<tag k="building" v="cabin" />
		<tag k="name" v="Hovasslihytta" />
		<tag k="place" v="isolated_dwelling" />
		<tag k="ssr:stedsnr" v="449376" />
		<tag k="ssr:type" v="fritidsbolig" />
	</node>
	<node changeset="57982147" id="4485469983" lat="58.9668836" lon="7.6637191" timestamp="2018-04-10T18:52:35Z" uid="3497659" user="NKA" version="3">
		<tag k="name" v="Hove" />
		<tag k="place" v="farm" />
		<tag k="ssr:stedsnr" v="607279" />
		<tag k="ssr:type" v="bruk" />
	</node>
	<node changeset="56035354" id="2506198816" lat="58.9807235" lon="7.6080858" timestamp="2018-02-03T17:49:48Z" uid="2114448" user="FredrikLindseth_import" version="3" />
	<node changeset="57982147" id="4485469985" lat="58.7085382" lon="7.8525499" timestamp="2018-04-10T18:52:35Z" uid="3497659" user="NKA" version="3">
		<tag k="name" v="Hovstad" />
		<tag k="place" v="farm" />
		<tag k="ssr:stedsnr" v="244622" />
		<tag k="ssr:type" v="bruk" />
	</node>
	<node changeset="57982147" id="4485469986" lat="58.7474919" lon="7.8520379" timestamp="2018-04-10T18:52:35Z" uid="3497659" user="NKA" version="3">
		<tag k="name" v="Huset" />
		<tag k="place" v="farm" />
		<tag k="ssr:stedsnr" v="629221" />
		<tag k="ssr:type" v="bruk" />
	</node>
	<node changeset="57982147" id="4485469987" lat="58.8328323" lon="7.8059197" timestamp="2018-04-10T18:52:35Z" uid="3497659" user="NKA" version="3">
		<tag k="name" v="Huset" />
		<tag k="place" v="farm" />
		<tag k="ssr:stedsnr" v="872097" />
		<tag k="ssr:type" v="bruk" />
	</node>
	<node changeset="56035354" id="2506198820" lat="58.9808321" lon="7.6080973" timestamp="2018-02-03T17:49:48Z" uid="2114448" user="FredrikLindseth_import" version="3" />
	<node changeset="56035354" id="2506198821" lat="58.980841" lon="7.6077906" timestamp="2018-02-03T17:49:49Z" uid="2114448" user="FredrikLindseth_import" version="3" />
	<node changeset="57982147" id="2506198822" lat="58.9795214" lon="7.6094746" timestamp="2018-04-10T18:40:06Z" uid="3497659" user="NKA" version="4">
		<tag k="name" v="Tveit" />
		<tag k="place" v="hamlet" />
		<tag k="ssr:stedsnr" v="729312" />
		<tag k="ssr:type" v="grend" />
	</node>
	<node changeset="57982147" id="333774664" lat="58.9505395" lon="7.6790154" timestamp="2018-04-10T18:40:00Z" uid="3497659" user="NKA" version="4">
		<tag k="name" v="Ose" />
		<tag k="place" v="village" />
		<tag k="ssr:stedsnr" v="1269" />
		<tag k="ssr:type" v="grend" />
	</node>
	<node changeset="57982147" id="2525069145" lat="58.9772033" lon="7.586567" timestamp="2018-04-10T18:40:06Z" uid="3497659" user="NKA" version="4">
		<tag k="name" v="Heggland" />
		<tag k="place" v="hamlet" />
		<tag k="ssr:stedsnr" v="850274" />
		<tag k="ssr:type" v="grend" />
	</node>
	<node changeset="57982147" id="2525069148" lat="58.9871317" lon="7.5407122" timestamp="2018-04-10T18:40:07Z" uid="3497659" user="NKA" version="4">
		<tag k="name" v="Langeid" />
		<tag k="place" v="hamlet" />
		<tag k="ssr:stedsnr" v="122315" />
		<tag k="ssr:type" v="grend" />
	</node>
	<node changeset="57982147" id="2525069149" lat="58.9647721" lon="7.6648164" timestamp="2018-04-10T18:40:07Z" uid="3497659" user="NKA" version="4">
		<tag k="name" v="Moi" />
		<tag k="place" v="hamlet" />
		<tag k="ssr:stedsnr" v="668298" />
		<tag k="ssr:type" v="bygdelagBygd" />
	</node>
	<node changeset="65605583" id="2525069151" lat="58.8722228" lon="7.7035435" timestamp="2018-12-19T09:55:13Z" uid="3497659" user="NKA" version="6">
		<tag k="name" v="Skomedal" />
		<tag k="place" v="hamlet" />
		<tag k="ssr:stedsnr" v="607434" />
		<tag k="ssr:type" v="bygdelagBygd" />
	</node>
	<node changeset="759234" id="330338174" lat="58.6629742" lon="7.8076155" timestamp="2009-01-08T22:04:33Z" uid="89168" user="GSvenningsen" version="1" />
	<node changeset="759234" id="330338175" lat="58.6630207" lon="7.8078196" timestamp="2009-01-08T22:04:33Z" uid="89168" user="GSvenningsen" version="1" />
	<node changeset="759234" id="330338176" lat="58.6630406" lon="7.8081132" timestamp="2009-01-08T22:04:33Z" uid="89168" user="GSvenningsen" version="1" />
	<node changeset="759234" id="330338177" lat="58.6630605" lon="7.8083939" timestamp="2009-01-08T22:04:33Z" uid="89168" user="GSvenningsen" version="1" />
	<node changeset="759234" id="330338178" lat="58.6630672" lon="7.8086874" timestamp="2009-01-08T22:04:34Z" uid="89168" user="GSvenningsen" version="1" />
	<node changeset="759234" id="330338179" lat="58.6630406" lon="7.8090065" timestamp="2009-01-08T22:04:34Z" uid="89168" user="GSvenningsen" version="1" />
	<node changeset="759234" id="330338180" lat="58.6630273" lon="7.8092872" timestamp="2009-01-08T22:04:34Z" uid="89168" user="GSvenningsen" version="1" />
	<node changeset="759234" id="330338181" lat="58.6630008" lon="7.8095042" timestamp="2009-01-08T22:04:35Z" uid="89168" user="GSvenningsen" version="1" />
	<node changeset="759234" id="330338182" lat="58.6630141" lon="7.8097977" timestamp="2009-01-08T22:04:35Z" uid="89168" user="GSvenningsen" version="1" />
	<node changeset="759234" id="330338183" lat="58.6630074" lon="7.8101678" timestamp="2009-01-08T22:04:35Z" uid="89168" user="GSvenningsen" version="1" />
	<node changeset="759234" id="330338184" lat="58.6632198" lon="7.8106528" timestamp="2009-01-08T22:04:35Z" uid="89168" user="GSvenningsen" version="1" />
	<node changeset="759234" id="330338185" lat="58.6633526" lon="7.8109463" timestamp="2009-01-08T22:04:36Z" uid="89168" user="GSvenningsen" version="1" />
	<node changeset="759234" id="330338186" lat="58.6633459" lon="7.811176" timestamp="2009-01-08T22:04:36Z" uid="89168" user="GSvenningsen" version="1" />
	<node changeset="759234" id="330338187" lat="58.6632331" lon="7.8113674" timestamp="2009-01-08T22:04:36Z" uid="89168" user="GSvenningsen" version="1" />
	<node changeset="759234" id="330338188" lat="58.6630804" lon="7.811444" timestamp="2009-01-08T22:04:37Z" uid="89168" user="GSvenningsen" version="1" />
	<node changeset="56035354" id="459464589" lat="58.9177377" lon="7.7381515" timestamp="2018-02-03T17:49:39Z" uid="2114448" user="FredrikLindseth_import" version="5" />
	<node changeset="759234" id="330338190" lat="58.6630141" lon="7.8123373" timestamp="2009-01-08T22:04:37Z" uid="89168" user="GSvenningsen" version="1" />
	<node changeset="73961366" id="330338192" lat="58.6628028" lon="7.8128564" timestamp="2019-09-01T02:09:10Z" uid="103253" user="gormur" version="2" />
	<node changeset="759234" id="330338193" lat="58.6625959" lon="7.8129881" timestamp="2009-01-08T22:04:38Z" uid="89168" user="GSvenningsen" version="1" />
	<node changeset="759234" id="330338194" lat="58.6624035" lon="7.8132817" timestamp="2009-01-08T22:04:38Z" uid="89168" user="GSvenningsen" version="1" />
	<node changeset="759234" id="330338195" lat="58.6622906" lon="7.8137028" timestamp="2009-01-08T22:04:39Z" uid="89168" user="GSvenningsen" version="1" />
	<node changeset="759234" id="330338196" lat="58.662138" lon="7.8138432" timestamp="2009-01-08T22:04:39Z" uid="89168" user="GSvenningsen" version="1" />
	<node changeset="759234" id="330338197" lat="58.6620517" lon="7.8140601" timestamp="2009-01-08T22:04:39Z" uid="89168" user="GSvenningsen" version="1" />
	<node changeset="759234" id="330338198" lat="58.6618592" lon="7.8143154" timestamp="2009-01-08T22:04:39Z" uid="89168" user="GSvenningsen" version="1" />
	<node changeset="759234" id="330338202" lat="58.6616269" lon="7.8144685" timestamp="2009-01-08T22:04:39Z" uid="89168" user="GSvenningsen" version="1" />
	<node changeset="759234" id="330338205" lat="58.6614278" lon="7.8145323" timestamp="2009-01-08T22:04:40Z" uid="89168" user="GSvenningsen" version="1" />
	<node changeset="759234" id="330338206" lat="58.6612486" lon="7.8144813" timestamp="2009-01-08T22:04:40Z" uid="89168" user="GSvenningsen" version="1" />
	<node changeset="759234" id="330338207" lat="58.660545" lon="7.8134731" timestamp="2009-01-08T22:04:40Z" uid="89168" user="GSvenningsen" version="1" />
	<node changeset="759234" id="330338210" lat="58.6603193" lon="7.813052" timestamp="2009-01-08T22:04:41Z" uid="89168" user="GSvenningsen" version="1" />
	<node changeset="759234" id="330338211" lat="58.6602928" lon="7.8126946" timestamp="2009-01-08T22:04:41Z" uid="89168" user="GSvenningsen" version="1" />
	<node changeset="56035354" id="3656611748" lat="58.8304214" lon="7.7961187" timestamp="2018-02-03T17:49:54Z" uid="2114448" user="FredrikLindseth_import" version="3" />
	<node changeset="56035354" id="3656611749" lat="58.8304306" lon="7.7957782" timestamp="2018-02-03T17:49:54Z" uid="2114448" user="FredrikLindseth_import" version="3" />
	<node changeset="759234" id="330338214" lat="58.6601733" lon="7.8108314" timestamp="2009-01-08T22:04:42Z" uid="89168" user="GSvenningsen" version="1" />
	<node changeset="759234" id="330338215" lat="58.6602596" lon="7.8102571" timestamp="2009-01-08T22:04:42Z" uid="89168" user="GSvenningsen" version="1" />
	<node changeset="759234" id="330338216" lat="58.6604255" lon="7.8099126" timestamp="2009-01-08T22:04:42Z" uid="89168" user="GSvenningsen" version="1" />
	<node changeset="759234" id="330338217" lat="58.6606512" lon="7.809785" timestamp="2009-01-08T22:04:43Z" uid="89168" user="GSvenningsen" version="1" />
	<node changeset="759234" id="330338218" lat="58.6609101" lon="7.8098232" timestamp="2009-01-08T22:04:43Z" uid="89168" user="GSvenningsen" version="1" />
	<node changeset="56035354" id="3656611755" lat="58.8304965" lon="7.7961258" timestamp="2018-02-03T17:49:54Z" uid="2114448" user="FredrikLindseth_import" version="3" />
	<node changeset="56035354" id="3656611756" lat="58.8305054" lon="7.7957852" timestamp="2018-02-03T17:49:54Z" uid="2114448" user="FredrikLindseth_import" version="3" />
	<node changeset="759234" id="330338221" lat="58.6611026" lon="7.8098743" timestamp="2009-01-08T22:04:43Z" uid="89168" user="GSvenningsen" version="1" />
	<node changeset="759234" id="330338225" lat="58.6613481" lon="7.809785" timestamp="2009-01-08T22:04:44Z" uid="89168" user="GSvenningsen" version="1" />
	<node changeset="759234" id="330338228" lat="58.6616335" lon="7.8096829" timestamp="2009-01-08T22:04:44Z" uid="89168" user="GSvenningsen" version="1" />
	<node changeset="759234" id="330338230" lat="58.6617862" lon="7.8096573" timestamp="2009-01-08T22:04:44Z" uid="89168" user="GSvenningsen" version="1" />
	<node changeset="759234" id="330338233" lat="58.6618718" lon="7.8095406" timestamp="2009-01-08T22:04:45Z" uid="89168" user="GSvenningsen" version="1" />
	<node changeset="759234" id="330338236" lat="58.6623172" lon="7.8085598" timestamp="2009-01-08T22:04:45Z" uid="89168" user="GSvenningsen" version="1" />
	<node changeset="759234" id="330338238" lat="58.6624632" lon="7.8083046" timestamp="2009-01-08T22:04:46Z" uid="89168" user="GSvenningsen" version="1" />
	<node changeset="759234" id="330338241" lat="58.6625627" lon="7.8080621" timestamp="2009-01-08T22:04:46Z" uid="89168" user="GSvenningsen" version="1" />
	<node changeset="759234" id="330338243" lat="58.6627021" lon="7.8077558" timestamp="2009-01-08T22:04:46Z" uid="89168" user="GSvenningsen" version="1" />
	<node changeset="759234" id="330338245" lat="58.6627818" lon="7.8076793" timestamp="2009-01-08T22:04:47Z" uid="89168" user="GSvenningsen" version="1" />
	<node changeset="759234" id="330338252" lat="58.6608172" lon="7.8139836" timestamp="2009-01-08T22:04:47Z" uid="89168" user="GSvenningsen" version="1" />
	<node changeset="759234" id="330338255" lat="58.6621356" lon="7.8090456" timestamp="2009-01-08T22:04:48Z" uid="89168" user="GSvenningsen" version="1" />
	<node changeset="56035354" id="452042733" lat="58.8305029" lon="7.7958841" timestamp="2018-02-03T17:49:39Z" uid="2114448" user="FredrikLindseth_import" version="5" />
	<way changeset="57983805" id="361144034" timestamp="2018-04-10T19:47:54Z" uid="3497659" user="NKA" version="4">
		<tag k="amenity" v="place_of_worship" />
		<tag k="architect" v="Linstow type / Anders Thorsen Syrtveit" />
		<tag k="building" v="church" />
		<tag k="capacity" v="250" />
		<tag k="deanery" v="Otredal" />
		<tag k="denomination" v="lutheran" />
		<tag k="diocese" v="Agder og Telemark" />
		<tag k="image" v="https://www.kirkebyggdatabasen.no/KBDBweb/getPublicImage.aspx?vedleggId=F5AD4C95-5ACA-469B-B7A9-48972D136D37" />
		<tag k="name" v="Bygland kyrkje" />
		<tag k="operator" v="Bygland kirkelige fellesråd" />
		<tag k="parish" v="Bygland" />
		<tag k="religion" v="christian" />
		<tag k="ssr:stedsnr" v="508164" />
		<tag k="ssr:type" v="kirke" />
		<tag k="start_date" v="1838" />
		<tag k="wikidata" v="Q12156480" />
		<nd ref="5383646561" />
		<nd ref="5383646560" />
		<nd ref="5383646559" />
		<nd ref="5383646558" />
		<nd ref="3656611756" />
		<nd ref="452042733" />
		<nd ref="5383646557" />
		<nd ref="5383646556" />
		<nd ref="5383646555" />
		<nd ref="3656611755" />
		<nd ref="5383646554" />
		<nd ref="5383646553" />
		<nd ref="5383646552" />
		<nd ref="5383646551" />
		<nd ref="3656611748" />
		<nd ref="5383646550" />
		<nd ref="5383646549" />
		<nd ref="5383646548" />
		<nd ref="5383646547" />
		<nd ref="3656611749" />
		<nd ref="5383646561" />
	</way>
	<way changeset="57983805" id="451727014" timestamp="2018-04-10T19:48:01Z" uid="3497659" user="NKA" version="4">
		<tag k="amenity" v="place_of_worship" />
		<tag k="architect" v="Anders Thorsen Syrtveit" />
		<tag k="building" v="church" />
		<tag k="capacity" v="200" />
		<tag k="deanery" v="Otredal" />
		<tag k="denomination" v="lutheran" />
		<tag k="diocese" v="Agder og Telemark" />
		<tag k="image" v="https://www.kirkebyggdatabasen.no/KBDBweb/getPublicImage.aspx?vedleggId=1492F0C1-3764-4B36-B9A5-BC7E3C367023" />
		<tag k="name" v="Årdal kyrkje" />
		<tag k="operator" v="Bygland kirkelige fellesråd" />
		<tag k="parish" v="Årdal" />
		<tag k="religion" v="christian" />
		<tag k="ssr:stedsnr" v="1593" />
		<tag k="ssr:type" v="kirke" />
		<tag k="start_date" v="1828" />
		<tag k="wikidata" v="Q12011564" />
		<nd ref="4485470811" />
		<nd ref="4485470812" />
		<nd ref="4485470810" />
		<nd ref="4485470808" />
		<nd ref="4485470809" />
		<nd ref="4485470813" />
		<nd ref="4485470814" />
		<nd ref="4485470819" />
		<nd ref="4485470818" />
		<nd ref="332506225" />
		<nd ref="4485470820" />
		<nd ref="4485470817" />
		<nd ref="4485470816" />
		<nd ref="4485470815" />
		<nd ref="4485470811" />
	</way>
	<way changeset="57983805" id="451727015" timestamp="2018-04-10T19:48:02Z" uid="3497659" user="NKA" version="4">
		<tag k="amenity" v="place_of_worship" />
		<tag k="architect" v="Linstow type / Anders Thorsen Syrtveit" />
		<tag k="building" v="church" />
		<tag k="capacity" v="200" />
		<tag k="deanery" v="Otredal" />
		<tag k="denomination" v="lutheran" />
		<tag k="diocese" v="Agder og Telemark" />
		<tag k="image" v="https://www.kirkebyggdatabasen.no/KBDBweb/getPublicImage.aspx?vedleggId=64BAB863-AE7E-4D19-A68A-95054E47AB7F" />
		<tag k="name" v="Sandnes kyrkje" />
		<tag k="operator" v="Bygland kirkelige fellesråd" />
		<tag k="parish" v="Bygland" />
		<tag k="religion" v="christian" />
		<tag k="ssr:stedsnr" v="668703" />
		<tag k="ssr:type" v="kirke" />
		<tag k="start_date" v="1844" />
		<tag k="wikidata" v="Q5070249" />
		<nd ref="4485470893" />
		<nd ref="4485470896" />
		<nd ref="4485470900" />
		<nd ref="4485470898" />
		<nd ref="4485470899" />
		<nd ref="459464589" />
		<nd ref="4485470897" />
		<nd ref="4485470895" />
		<nd ref="4485470894" />
		<nd ref="4485470891" />
		<nd ref="4485470887" />
		<nd ref="4485470901" />
		<nd ref="4485470889" />
		<nd ref="4485470888" />
		<nd ref="4485470886" />
		<nd ref="4485470890" />
		<nd ref="4485470892" />
		<nd ref="4485470893" />
	</way>
	<way changeset="72955977" id="710345257" timestamp="2019-08-02T20:27:50Z" uid="300002" user="neic" version="1">
		<tag k="building" v="cabin" />
		<tag k="name" v="Pytten" />
		<tag k="place" v="isolated_dwelling" />
		<tag k="ssr:stedsnr" v="304423" />
		<tag k="ssr:type" v="bruk" />
		<nd ref="6677773791" />
		<nd ref="6677773790" />
		<nd ref="6677773789" />
		<nd ref="6677773788" />
		<nd ref="6677773791" />
	</way>
	<way changeset="73961366" id="30007731" timestamp="2019-09-01T02:09:10Z" uid="103253" user="gormur" version="13">
		<tag k="name" v="Vassendøya" />
		<tag k="ssr:stedsnr" v="662576" />
		<tag k="ssr:type" v="industriområde" />
		<nd ref="330338174" />
		<nd ref="330338245" />
		<nd ref="330338243" />
		<nd ref="330338241" />
		<nd ref="330338238" />
		<nd ref="330338236" />
		<nd ref="330338255" />
		<nd ref="330338233" />
		<nd ref="330338230" />
		<nd ref="330338228" />
		<nd ref="330338225" />
		<nd ref="330338221" />
		<nd ref="330338218" />
		<nd ref="330338217" />
		<nd ref="330338216" />
		<nd ref="330338215" />
		<nd ref="330338214" />
		<nd ref="330338212" />
		<nd ref="330338211" />
		<nd ref="330338210" />
		<nd ref="330338207" />
		<nd ref="330338252" />
		<nd ref="330338206" />
		<nd ref="330338205" />
		<nd ref="330338202" />
		<nd ref="330338198" />
		<nd ref="330338197" />
		<nd ref="330338196" />
		<nd ref="330338195" />
		<nd ref="330338194" />
		<nd ref="330338193" />
		<nd ref="6762899857" />
		<nd ref="6762899856" />
		<nd ref="330338192" />
		<nd ref="330338190" />
		<nd ref="330338189" />
		<nd ref="330338188" />
		<nd ref="330338187" />
		<nd ref="330338186" />
		<nd ref="330338185" />
		<nd ref="330338184" />
		<nd ref="330338183" />
		<nd ref="330338182" />
		<nd ref="330338181" />
		<nd ref="330338180" />
		<nd ref="330338179" />
		<nd ref="330338178" />
		<nd ref="330338177" />
		<nd ref="330338176" />
		<nd ref="330338175" />
		<nd ref="330338174" />
	</way>
	<way changeset="57983805" id="243198460" timestamp="2018-04-10T19:47:53Z" uid="3497659" user="NKA" version="6">
		<tag k="amenity" v="place_of_worship" />
		<tag k="architect" v="Grønn/Oskar Fabricius" />
		<tag k="building" v="church" />
		<tag k="capacity" v="250" />
		<tag k="deanery" v="Otredal" />
		<tag k="denomination" v="lutheran" />
		<tag k="diocese" v="Agder og Telemark" />
		<tag k="image" v="https://www.kirkebyggdatabasen.no/KBDBweb/getPublicImage.aspx?vedleggId=D9D3F36D-DDD2-4269-9E53-08487AB983AC" />
		<tag k="name" v="Austad kyrkje" />
		<tag k="operator" v="Bygland kirkelige fellesråd" />
		<tag k="parish" v="Bygland" />
		<tag k="religion" v="christian" />
		<tag k="ssr:stedsnr" v="182291" />
		<tag k="ssr:type" v="kirke" />
		<tag k="start_date" v="1880" />
		<tag k="wikidata" v="Q11959698" />
		<nd ref="2506198820" />
		<nd ref="4485470922" />
		<nd ref="4485470921" />
		<nd ref="4485470917" />
		<nd ref="4485470918" />
		<nd ref="2506198816" />
		<nd ref="4485469655" />
		<nd ref="4485470919" />
		<nd ref="4485470920" />
		<nd ref="4485470924" />
		<nd ref="4485470923" />
		<nd ref="2506198821" />
		<nd ref="2506198820" />
	</way>
</osm>
