<?xml version="1.0" encoding="UTF-8"?>
<osm generator="osmapis" version="0.6">
	<node id="-645631" lat="60.6986888888" lon="5.66530277013">
		<tag k="name" v="Elvikhammaren" />
		<tag k="natural" v="cape" />
		<tag k="ssr:stedsnr" v="288375" />
	</node>
	<node id="-645630" lat="60.5620140385" lon="5.44404851918">
		<tag k="loc_name" v="Grønvikane" />
		<tag k="name" v="Grønnvikane" />
		<tag k="natural" v="bay" />
		<tag k="ssr:stedsnr" v="288361" />
	</node>
	<node id="-646134" lat="60.6090722187" lon="5.50054166932">
		<tag k="name" v="Bernestangen" />
		<tag k="natural" v="cape" />
		<tag k="ssr:stedsnr" v="954714" />
	</node>
	<node id="-646131" lat="60.4748861147" lon="5.69841666557">
		<tag k="name" v="Kløvvika" />
		<tag k="natural" v="bay" />
		<tag k="ssr:stedsnr" v="916959" />
	</node>
	<node id="-645616" lat="60.5692194417" lon="5.44128888551">
		<tag k="fixme" v="consider seamark:type=rock or natural=shoal" />
		<tag k="name" v="Kuskjeret" />
		<tag k="place" v="islet" />
		<tag k="ssr:stedsnr" v="227819" />
	</node>
	<node id="-646125" lat="60.6148388914" lon="5.54750833588">
		<tag k="name" v="Øyatangen" />
		<tag k="natural" v="cape" />
		<tag k="ssr:stedsnr" v="916756" />
	</node>
	<node id="-646629" lat="60.6103194489" lon="5.50359167155">
		<tag k="name" v="Apavika" />
		<tag k="natural" v="bay" />
		<tag k="ssr:stedsnr" v="530540" />
	</node>
	<node id="-646627" lat="60.4503222254" lon="5.49503611368">
		<tag k="name" v="Leikneset" />
		<tag k="natural" v="cape" />
		<tag k="ssr:stedsnr" v="530523" />
	</node>
	<node id="-645595" lat="60.5570888891" lon="5.4059166736">
		<tag k="bay" v="fjord" />
		<tag k="name" v="Svartvågen" />
		<tag k="natural" v="bay" />
		<tag k="ssr:stedsnr" v="288823" />
	</node>
	<node id="-645594" lat="60.5219694465" lon="5.3629166733">
		<tag k="name" v="Ramnbergneset" />
		<tag k="natural" v="cape" />
		<tag k="ssr:stedsnr" v="288780" />
	</node>
	<node id="-646609" lat="60.5906194439" lon="5.47447222774">
		<tag k="name" v="Kjørneset" />
		<tag k="natural" v="cape" />
		<tag k="ssr:stedsnr" v="529910" />
	</node>
	<node id="-645579" lat="60.4331527807" lon="5.55341944498">
		<tag k="name" v="Vikaneset" />
		<tag k="natural" v="cape" />
		<tag k="ssr:stedsnr" v="287836" />
	</node>
	<node id="-646391" lat="60.4300111125" lon="5.53873056135">
		<tag k="name" v="Sarevika" />
		<tag k="natural" v="bay" />
		<tag k="ssr:stedsnr" v="187031" />
	</node>
	<node id="-645964" lat="60.601738887" lon="5.50650277247">
		<tag k="name" v="Bernesvika" />
		<tag k="natural" v="bay" />
		<tag k="ssr:stedsnr" v="674508" />
	</node>
	<node id="-646220" lat="60.5187027786" lon="5.38243334078">
		<tag k="name" v="Kvernvika" />
		<tag k="natural" v="bay" />
		<tag k="ssr:stedsnr" v="45834" />
	</node>
	<node id="-645622" lat="60.5377472179" lon="5.32167777161">
		<tag k="name" v="Sørfjordskallen" />
		<tag k="natural" v="shoal" />
		<tag k="place" v="locality" />
		<tag k="ssr:stedsnr" v="267457" />
	</node>
	<node id="-646592" lat="60.5610305551" lon="5.42738332666">
		<tag k="alt_name" v="Kakevågen" />
		<tag k="name" v="Kokevågen" />
		<tag k="natural" v="bay" />
		<tag k="ssr:stedsnr" v="431458" />
	</node>
	<node id="-646588" lat="60.5680027753" lon="5.44094443607">
		<tag k="name" v="Fjellskålneset" />
		<tag k="natural" v="cape" />
		<tag k="ssr:stedsnr" v="431093" />
	</node>
	<node id="-646587" lat="60.4537829989" lon="5.50130752154">
		<tag k="name" v="Mjeldavågen" />
		<tag k="natural" v="bay" />
		<tag k="ssr:stedsnr" v="430001" />
	</node>
	<node id="-646074" lat="60.6578833374" lon="5.61579444788">
		<tag k="name" v="Hetlevika" />
		<tag k="natural" v="bay" />
		<tag k="ssr:stedsnr" v="916676" />
	</node>
	<node id="-645674" lat="60.5491166648" lon="5.38012499572">
		<tag k="name" v="Kolhovdvika" />
		<tag k="natural" v="bay" />
		<tag k="ssr:stedsnr" v="469833" />
	</node>
	<node id="-645559" lat="60.5377194488" lon="5.34215833691">
		<tag k="name" v="Øyjordvika" />
		<tag k="natural" v="bay" />
		<tag k="ssr:stedsnr" v="166752" />
	</node>
	<node id="-646069" lat="60.5661999954" lon="5.43862499156">
		<tag k="name" v="Klungerholmen" />
		<tag k="place" v="islet" />
		<tag k="ssr:stedsnr" v="916086" />
	</node>
	<node id="-645552" lat="60.527850003" lon="5.4842444449">
		<tag k="name" v="Berdalsvika" />
		<tag k="natural" v="bay" />
		<tag k="ssr:stedsnr" v="166672" />
	</node>
	<node id="-646575" lat="60.4978944418" lon="5.42224166559">
		<tag k="name" v="Storaneset" />
		<tag k="natural" v="cape" />
		<tag k="ssr:stedsnr" v="409800" />
	</node>
	<node id="-646574" lat="60.4945361092" lon="5.42388888637">
		<tag k="name" v="Innegardsvika" />
		<tag k="natural" v="bay" />
		<tag k="ssr:stedsnr" v="409797" />
	</node>
	<node id="-645702" lat="60.6684916655" lon="5.61671111099">
		<tag k="name" v="Djuvika" />
		<tag k="natural" v="bay" />
		<tag k="ssr:stedsnr" v="348405" />
	</node>
	<node id="-645538" lat="60.4299625313" lon="5.54139778346">
		<tag k="name" v="Nautneset" />
		<tag k="natural" v="cape" />
		<tag k="ssr:stedsnr" v="165479" />
	</node>
	<node id="-645537" lat="60.4301875015" lon="5.54213896139">
		<tag k="name" v="Vassaholet" />
		<tag k="natural" v="bay" />
		<tag k="ssr:stedsnr" v="165469" />
	</node>
	<node id="-646047" lat="60.6108055541" lon="5.54288056161">
		<tag k="name" v="Drangøyna" />
		<tag k="place" v="island" />
		<tag k="ssr:stedsnr" v="734748" />
	</node>
	<node id="-645530" lat="60.5404416629" lon="5.32742777398">
		<tag k="name" v="Hamarsflua" />
		<tag k="natural" v="shoal" />
		<tag k="place" v="locality" />
		<tag k="ssr:stedsnr" v="145504" />
	</node>
	<node id="-646041" lat="60.6412583376" lon="5.60172777679">
		<tag k="name" v="Naustvika" />
		<tag k="natural" v="bay" />
		<tag k="ssr:stedsnr" v="734711" />
	</node>
	<node id="-645528" lat="60.4644416641" lon="5.63683332926">
		<tag k="name" v="Juvika" />
		<tag k="natural" v="bay" />
		<tag k="old_name" v="Juviki" />
		<tag k="ssr:stedsnr" v="127944" />
	</node>
	<node id="-645527" lat="60.4678055572" lon="5.70186944386">
		<tag k="name" v="Olsnesøyna" />
		<tag k="place" v="island" />
		<tag k="ssr:stedsnr" v="127943" />
	</node>
	<node id="-646546" lat="60.5033527765" lon="5.41283333679">
		<tag k="name" v="Almeneset" />
		<tag k="natural" v="cape" />
		<tag k="ssr:stedsnr" v="409498" />
	</node>
	<node id="-645514" lat="60.5246694481" lon="5.71151110525">
		<tag k="bay" v="fjord" />
		<tag k="name" v="Sørfjorden" />
		<tag k="natural" v="bay" />
		<tag k="ssr:stedsnr" v="263791" />
	</node>
	<node id="-646025" lat="60.5423555529" lon="5.46878056301">
		<tag k="name" v="Geitrheimsholmane" />
		<tag k="place" v="islet" />
		<tag k="ssr:stedsnr" v="895770" />
	</node>
	<node id="-646535" lat="60.6484222266" lon="5.60333888996">
		<tag k="name" v="Havnen" />
		<tag k="natural" v="bay" />
		<tag k="ssr:stedsnr" v="409398" />
	</node>
	<node id="-646532" lat="60.5604247786" lon="5.44643289334">
		<tag k="name" v="Langtroneset" />
		<tag k="natural" v="cape" />
		<tag k="ssr:stedsnr" v="409375" />
	</node>
	<node id="-645501" lat="60.5991694452" lon="5.72635555177">
		<tag k="alt_name" v="Vedåfjorden" />
		<tag k="bay" v="fjord" />
		<tag k="name" v="Veafjorden" />
		<tag k="natural" v="bay" />
		<tag k="ssr:stedsnr" v="249642" />
	</node>
	<node id="-646012" lat="60.4544694464" lon="5.49399444334">
		<tag k="name" v="Straumen" />
		<tag k="natural" v="bay" />
		<tag k="ssr:stedsnr" v="895483" />
	</node>
	<node id="-645496" lat="60.708369443" lon="5.65169999795">
		<tag k="alt_name" v="Vossaneset" />
		<tag k="name" v="Vassneset" />
		<tag k="natural" v="cape" />
		<tag k="ssr:stedsnr" v="249270" />
	</node>
	<node id="-646519" lat="60.6110250017" lon="5.51266666774">
		<tag k="name" v="Osterhavna" />
		<tag k="natural" v="bay" />
		<tag k="ssr:stedsnr" v="370741" />
	</node>
	<node id="-646518" lat="60.6204583306" lon="5.5748333414">
		<tag k="alt_name" v="Tysseneset" />
		<tag k="name" v="Ytstaneset" />
		<tag k="natural" v="cape" />
		<tag k="ssr:stedsnr" v="370740" />
	</node>
	<node id="-646005" lat="60.6520000033" lon="5.6097222261">
		<tag k="name" v="Smedvika" />
		<tag k="natural" v="bay" />
		<tag k="ssr:stedsnr" v="895398" />
	</node>
	<node id="-646004" lat="60.4742277787" lon="5.70827222619">
		<tag k="name" v="Olsneset" />
		<tag k="natural" v="cape" />
		<tag k="ssr:stedsnr" v="895378" />
	</node>
	<node id="-646000" lat="60.5735923716" lon="5.45492969098">
		<tag k="name" v="Sauvikneset" />
		<tag k="natural" v="cape" />
		<tag k="ssr:stedsnr" v="894843" />
	</node>
	<node id="-646507" lat="60.5040777797" lon="5.4276249936">
		<tag k="name" v="Valestrandsvågen" />
		<tag k="natural" v="bay" />
		<tag k="ssr:stedsnr" v="370512" />
	</node>
	<node id="-646506" lat="60.5590138852" lon="5.41128333195">
		<tag k="name" v="Eldsneset" />
		<tag k="natural" v="cape" />
		<tag k="ssr:stedsnr" v="370480" />
	</node>
	<node id="-646505" lat="60.556330555" lon="5.4198138976">
		<tag k="name" v="Raknesvågen" />
		<tag k="natural" v="bay" />
		<tag k="ssr:stedsnr" v="370477" />
	</node>
	<node id="-645436" lat="60.6325555593" lon="5.58702221341">
		<tag k="name" v="Eikjaneset" />
		<tag k="natural" v="cape" />
		<tag k="ssr:stedsnr" v="227401" />
	</node>
	<node id="-646501" lat="60.5698388903" lon="5.4376361098">
		<tag k="name" v="Fjellskålholmen" />
		<tag k="place" v="islet" />
		<tag k="ssr:stedsnr" v="370101" />
	</node>
	<node id="-646500" lat="60.5766111115" lon="5.45996389199">
		<tag k="name" v="Helldalsholmen" />
		<tag k="place" v="islet" />
		<tag k="ssr:stedsnr" v="370091" />
	</node>
	<node id="-647011" lat="60.5754353748" lon="5.47536316131">
		<tag k="name" v="Lusavågen" />
		<tag k="natural" v="bay" />
		<tag k="ssr:stedsnr" v="1072184" />
	</node>
	<node id="-647010" lat="60.5568833316" lon="5.44208209953">
		<tag k="name" v="Grisen" />
		<tag k="natural" v="shoal" />
		<tag k="place" v="locality" />
		<tag k="ssr:stedsnr" v="1072181" />
	</node>
	<node id="-645472" lat="60.5954277809" lon="5.50946944465">
		<tag k="alt_name" v="Fureholmen" />
		<tag k="name" v="Holmen" />
		<tag k="place" v="islet" />
		<tag k="ssr:stedsnr" v="67550" />
	</node>
	<node id="-646495" lat="60.5309202478" lon="5.53033657336">
		<tag k="name" v="Osterøy" />
		<tag k="place" v="island" />
		<tag k="ssr:stedsnr" v="369377" />
	</node>
	<node id="-645470" lat="60.4393583348" lon="5.60750277064">
		<tag k="alt_name" v="Stokkeneset" />
		<tag k="name" v="Stokkaneset" />
		<tag k="natural" v="cape" />
		<tag k="ssr:stedsnr" v="66025" />
	</node>
	<node id="-645980" lat="60.5314027748" lon="5.49257500838">
		<tag k="name" v="Svennevika" />
		<tag k="natural" v="bay" />
		<tag k="old_name" v="Svenneviki" />
		<tag k="ssr:stedsnr" v="711631" />
	</node>
	<node id="-645979" lat="60.6968444477" lon="5.62097221696">
		<tag k="name" v="Lyngneset" />
		<tag k="natural" v="cape" />
		<tag k="ssr:stedsnr" v="894482" />
	</node>
	<node id="-645976" lat="60.6035777781" lon="5.54879167548">
		<tag k="name" v="Gamstøvågen" />
		<tag k="natural" v="bay" />
		<tag k="ssr:stedsnr" v="893712" />
	</node>
	<node id="-646996" lat="60.5736340627" lon="5.45226256361">
		<tag k="name" v="Krossneset" />
		<tag k="natural" v="cape" />
		<tag k="ssr:stedsnr" v="970915" />
	</node>
	<node id="-646483" lat="60.5485305525" lon="5.37242777391">
		<tag k="name" v="Klubbatrynet" />
		<tag k="natural" v="cape" />
		<tag k="ssr:stedsnr" v="348800" />
	</node>
	<node id="-645729" lat="60.5607777754" lon="5.43761388106">
		<tag k="name" v="Storeholmen" />
		<tag k="place" v="islet" />
		<tag k="ssr:stedsnr" v="491453" />
	</node>
	<node id="-646988" lat="60.5042861133" lon="5.40731943844">
		<tag k="name" v="Vindpollen" />
		<tag k="natural" v="cape" />
		<tag k="ssr:stedsnr" v="955836" />
	</node>
	<node id="-646987" lat="60.51452778" lon="5.39639166763">
		<tag k="name" v="Fusastøa" />
		<tag k="natural" v="bay" />
		<tag k="ssr:stedsnr" v="955835" />
	</node>
	<node id="-646986" lat="60.5759722192" lon="5.46160554694">
		<tag k="name" v="Havnen" />
		<tag k="natural" v="bay" />
		<tag k="ssr:stedsnr" v="955830" />
	</node>
	<node id="-646983" lat="60.4917861141" lon="5.42290555053">
		<tag k="name" v="Rosshaganeset" />
		<tag k="natural" v="cape" />
		<tag k="ssr:stedsnr" v="955814" />
	</node>
	<node id="-646980" lat="60.4804527753" lon="5.44696945211">
		<tag k="name" v="Litletveithola" />
		<tag k="natural" v="bay" />
		<tag k="ssr:stedsnr" v="955764" />
	</node>
	<node id="-645442" lat="60.4758472249" lon="5.68305554626">
		<tag k="name" v="Olsneset" />
		<tag k="natural" v="cape" />
		<tag k="ssr:stedsnr" v="227584" />
	</node>
	<node id="-646465" lat="60.6629277747" lon="5.61414443807">
		<tag k="name" v="Kleilandsbugen" />
		<tag k="natural" v="bay" />
		<tag k="ssr:stedsnr" v="348398" />
	</node>
	<node id="-645952" lat="60.5017222228" lon="5.42313055041">
		<tag k="name" v="Kaltræneset" />
		<tag k="natural" v="cape" />
		<tag k="ssr:stedsnr" v="651526" />
	</node>
	<node id="-646463" lat="60.4798111079" lon="5.44956945352">
		<tag k="name" v="Litletveitane" />
		<tag k="natural" v="cape" />
		<tag k="ssr:stedsnr" v="347790" />
	</node>
	<node id="-645705" lat="60.5628944483" lon="5.59625277671">
		<tag k="name" v="Skjelingasund" />
		<tag k="natural" v="strait" />
		<tag k="ssr:stedsnr" v="348423" />
	</node>
	<node id="-646460" lat="60.6999083341" lon="5.62923055674">
		<tag k="name" v="Toa" />
		<tag k="natural" v="cape" />
		<tag k="ssr:stedsnr" v="347396" />
	</node>
	<node id="-646455" lat="60.5320000009" lon="5.34410555813">
		<tag k="name" v="Drageneset" />
		<tag k="natural" v="cape" />
		<tag k="ssr:stedsnr" v="310389" />
	</node>
	<node id="-645426" lat="60.431980554" lon="5.54484051188">
		<tag k="alt_name" v="Hundhammerneset" />
		<tag k="name" v="Hundhamarneset" />
		<tag k="natural" v="cape" />
		<tag k="ssr:stedsnr" v="226509" />
	</node>
	<node id="-645423" lat="60.6855944463" lon="5.6257249989">
		<tag k="name" v="Leirvikneset" />
		<tag k="natural" v="cape" />
		<tag k="ssr:stedsnr" v="226433" />
	</node>
	<node id="-646958" lat="60.4776638913" lon="5.67823333434">
		<tag k="name" v="Stoholmen" />
		<tag k="place" v="islet" />
		<tag k="ssr:stedsnr" v="955594" />
	</node>
	<node id="-645418" lat="60.5296833315" lon="5.69656111476">
		<tag k="name" v="Ormstunga" />
		<tag k="natural" v="cape" />
		<tag k="ssr:stedsnr" v="225688" />
	</node>
	<node id="-646949" lat="60.446119448" lon="5.61263887979">
		<tag k="name" v="Vikaneset" />
		<tag k="natural" v="cape" />
		<tag k="ssr:stedsnr" v="955554" />
	</node>
	<node id="-646436" lat="60.7035388886" lon="5.64104167461">
		<tag k="name" v="Trollsvika" />
		<tag k="natural" v="bay" />
		<tag k="ssr:stedsnr" v="309302" />
	</node>
	<node id="-646435" lat="60.5690277744" lon="5.44713610908">
		<tag k="name" v="Fjellskålvika" />
		<tag k="natural" v="bay" />
		<tag k="ssr:stedsnr" v="309084" />
	</node>
	<node id="-646434" lat="60.5733555553" lon="5.45631667329">
		<tag k="name" v="Sauvika" />
		<tag k="natural" v="bay" />
		<tag k="ssr:stedsnr" v="309083" />
	</node>
	<node id="-645921" lat="60.4608277782" lon="5.63202778526">
		<tag k="name" v="Grønevika" />
		<tag k="natural" v="bay" />
		<tag k="ssr:stedsnr" v="734019" />
	</node>
	<node id="-646944" lat="60.4539749976" lon="5.50852222431">
		<tag k="name" v="Øyrane" />
		<tag k="place" v="island" />
		<tag k="ssr:stedsnr" v="955494" />
	</node>
	<node id="-646428" lat="60.5625777739" lon="5.42812499836">
		<tag k="name" v="Lammaneset" />
		<tag k="natural" v="cape" />
		<tag k="ssr:stedsnr" v="189041" />
	</node>
	<node id="-645915" lat="60.4328903646" lon="5.54659803276">
		<tag k="name" v="Steffavika" />
		<tag k="natural" v="bay" />
		<tag k="ssr:stedsnr" v="733037" />
	</node>
	<node id="-646959" lat="60.4727500001" lon="5.69943333815">
		<tag k="name" v="Klubben" />
		<tag k="natural" v="cape" />
		<tag k="ssr:stedsnr" v="955596" />
	</node>
	<node id="-645849" lat="60.5235083309" lon="5.69979721986">
		<tag k="name" v="Slåtteskallen" />
		<tag k="natural" v="cape" />
		<tag k="ssr:stedsnr" v="711681" />
	</node>
	<node id="-646931" lat="60.5264777772" lon="5.69893056311">
		<tag k="name" v="Krossaneset" />
		<tag k="natural" v="cape" />
		<tag k="ssr:stedsnr" v="953712" />
	</node>
	<node id="-645898" lat="60.6244527783" lon="5.58699443831">
		<tag k="name" v="Apalneset" />
		<tag k="natural" v="cape" />
		<tag k="ssr:stedsnr" v="612722" />
	</node>
	<node id="-646920" lat="60.5618500033" lon="5.42091666768">
		<tag k="name" v="Steinaneset" />
		<tag k="natural" v="cape" />
		<tag k="ssr:stedsnr" v="856493" />
	</node>
	<node id="-646406" lat="60.6003500032" lon="5.48256388874">
		<tag k="name" v="Kvernaneset" />
		<tag k="natural" v="cape" />
		<tag k="ssr:stedsnr" v="188566" />
	</node>
	<node id="-646403" lat="60.5414888915" lon="5.34090000545">
		<tag k="alt_name" v="Hamarsneset" />
		<tag k="name" v="Klokkarneset" />
		<tag k="natural" v="cape" />
		<tag k="ssr:stedsnr" v="188452" />
	</node>
	<node id="-645888" lat="60.5482472226" lon="5.37493055999">
		<tag k="name" v="Klubbavik" />
		<tag k="natural" v="bay" />
		<tag k="ssr:stedsnr" v="712816" />
	</node>
	<node id="-645887" lat="60.5090583322" lon="5.40669721807">
		<tag k="name" v="Juviknes" />
		<tag k="natural" v="cape" />
		<tag k="ssr:stedsnr" v="712815" />
	</node>
	<node id="-645845" lat="60.4292049925" lon="5.53707703393">
		<tag k="name" v="Gloppeneset" />
		<tag k="natural" v="cape" />
		<tag k="ssr:stedsnr" v="589455" />
	</node>
	<node id="-646186" lat="60.6816305558" lon="5.61426665984">
		<tag k="name" v="Eiketobukta" />
		<tag k="natural" v="bay" />
		<tag k="ssr:stedsnr" v="45402" />
	</node>
	<node id="-646905" lat="60.5550999999" lon="5.40834444671">
		<tag k="name" v="Holmen" />
		<tag k="place" v="islet" />
		<tag k="ssr:stedsnr" v="834830" />
	</node>
	<node id="-646903" lat="60.5481833318" lon="5.3714694415">
		<tag k="name" v="Klenvågen" />
		<tag k="natural" v="bay" />
		<tag k="ssr:stedsnr" v="834826" />
	</node>
	<node id="-646385" lat="60.5174555588" lon="5.38817499825">
		<tag k="name" v="Utleneset" />
		<tag k="natural" v="cape" />
		<tag k="ssr:stedsnr" v="166835" />
	</node>
	<node id="-646384" lat="60.5176527762" lon="5.38609444172">
		<tag k="name" v="Utlevika" />
		<tag k="natural" v="bay" />
		<tag k="ssr:stedsnr" v="166833" />
	</node>
	<node id="-645865" lat="60.4364321001" lon="5.55852375916">
		<tag k="name" v="Litlavika" />
		<tag k="natural" v="bay" />
		<tag k="ssr:stedsnr" v="712452" />
	</node>
	<node id="-645859" lat="60.530924996" lon="5.47747221911">
		<tag k="name" v="Merkesvika" />
		<tag k="natural" v="bay" />
		<tag k="ssr:stedsnr" v="712659" />
	</node>
	<node id="-645856" lat="60.5588982365" lon="5.43628296442">
		<tag k="name" v="Sunneset" />
		<tag k="natural" v="cape" />
		<tag k="ssr:stedsnr" v="712361" />
	</node>
	<node id="-645925" lat="60.5627388922" lon="5.43551943856">
		<tag k="name" v="Litleholmen" />
		<tag k="place" v="islet" />
		<tag k="ssr:stedsnr" v="734462" />
	</node>
	<node id="-646362" lat="60.5501583312" lon="5.60361389312">
		<tag k="name" v="Grønevik" />
		<tag k="natural" v="bay" />
		<tag k="ssr:stedsnr" v="166441" />
	</node>
	<node id="-646361" lat="60.5586611081" lon="5.59166388413">
		<tag k="name" v="Merkjesvik" />
		<tag k="natural" v="bay" />
		<tag k="ssr:stedsnr" v="166437" />
	</node>
	<node id="-645924" lat="60.5432444434" lon="5.45811945102">
		<tag k="name" v="Dalsholmen" />
		<tag k="place" v="islet" />
		<tag k="ssr:stedsnr" v="734436" />
	</node>
	<node id="-646358" lat="60.7053333327" lon="5.65736665829">
		<tag k="name" v="Laksagilja" />
		<tag k="natural" v="cape" />
		<tag k="ssr:stedsnr" v="166410" />
	</node>
	<node id="-646357" lat="60.6887194461" lon="5.63610278625">
		<tag k="name" v="Heimvika" />
		<tag k="natural" v="bay" />
		<tag k="ssr:stedsnr" v="166407" />
	</node>
	<node id="-646868" lat="60.4387611103" lon="5.6023277842">
		<tag k="name" v="Breivika" />
		<tag k="natural" v="bay" />
		<tag k="old_name" v="Breiviki" />
		<tag k="ssr:stedsnr" v="833789" />
	</node>
	<node id="-646867" lat="60.4737361143" lon="5.70789721703">
		<tag k="name" v="Olsnestangen" />
		<tag k="natural" v="cape" />
		<tag k="ssr:stedsnr" v="833549" />
	</node>
	<node id="-646866" lat="60.4286666695" lon="5.53202777745">
		<tag k="name" v="Kvisteinhella" />
		<tag k="natural" v="cape" />
		<tag k="ssr:stedsnr" v="833482" />
	</node>
	<node id="-645841" lat="60.4328999962" lon="5.52878054772">
		<tag k="name" v="Trollshavn" />
		<tag k="natural" v="bay" />
		<tag k="ssr:stedsnr" v="711459" />
	</node>
	<node id="-646352" lat="60.4369846129" lon="5.59798867694">
		<tag k="name" v="Kolgroneset" />
		<tag k="natural" v="cape" />
		<tag k="ssr:stedsnr" v="166547" />
	</node>
	<node id="-646351" lat="60.6061888863" lon="5.55346666763">
		<tag k="name" v="Årvangstangen" />
		<tag k="natural" v="cape" />
		<tag k="ssr:stedsnr" v="166542" />
	</node>
	<node id="-645837" lat="60.6059805542" lon="5.55730277863">
		<tag k="name" v="Naustvågen" />
		<tag k="natural" v="bay" />
		<tag k="ssr:stedsnr" v="711331" />
	</node>
	<node id="-645834" lat="60.4654611087" lon="5.4683555551">
		<tag k="name" v="Votlavika" />
		<tag k="natural" v="bay" />
		<tag k="old_name" v="Votleviki" />
		<tag k="ssr:stedsnr" v="589510" />
	</node>
	<node id="-646007" lat="60.5651833354" lon="5.58856388158">
		<tag k="name" v="Kjørvikbrot" />
		<tag k="natural" v="cape" />
		<tag k="ssr:stedsnr" v="895415" />
	</node>
	<node id="-646856" lat="60.5056888894" lon="5.40523056357">
		<tag k="name" v="Torskavikneset" />
		<tag k="natural" v="cape" />
		<tag k="ssr:stedsnr" v="795521" />
	</node>
	<node id="-646854" lat="60.548036115" lon="5.36219165883">
		<tag k="name" v="Jovika" />
		<tag k="natural" v="bay" />
		<tag k="ssr:stedsnr" v="795480" />
	</node>
	<node id="-646851" lat="60.5540277764" lon="5.45843610441">
		<tag k="name" v="Grunnevågen" />
		<tag k="natural" v="bay" />
		<tag k="ssr:stedsnr" v="795467" />
	</node>
	<node id="-646336" lat="60.6663249965" lon="5.61228333916">
		<tag k="name" v="Askjelneset" />
		<tag k="natural" v="cape" />
		<tag k="ssr:stedsnr" v="127680" />
	</node>
	<node id="-646335" lat="60.6083611106" lon="5.53547778417">
		<tag k="alt_name" v="Drangevåg" />
		<tag k="name" v="Drangevågen" />
		<tag k="natural" v="bay" />
		<tag k="ssr:stedsnr" v="127757" />
	</node>
	<node id="-646843" lat="60.5445861126" lon="5.31805277039">
		<tag k="bay" v="fjord" />
		<tag k="name" v="Osterfjorden" />
		<tag k="natural" v="bay" />
		<tag k="ssr:stedsnr" v="795102" />
	</node>
	<node id="-646330" lat="60.5599557389" lon="5.43077984954">
		<tag k="name" v="Johamnen" />
		<tag k="natural" v="bay" />
		<tag k="ssr:stedsnr" v="127465" />
	</node>
	<node id="-646328" lat="60.5497611139" lon="5.38323611621">
		<tag k="name" v="Ranen" />
		<tag k="natural" v="cape" />
		<tag k="ssr:stedsnr" v="127446" />
	</node>
	<node id="-645492" lat="60.529508334" lon="5.48728610655">
		<tag k="name" v="Storholmen" />
		<tag k="place" v="islet" />
		<tag k="ssr:stedsnr" v="248942" />
	</node>
	<node id="-646089" lat="60.4588555536" lon="5.62637499479">
		<tag k="alt_name" v="Einhammeren" />
		<tag k="name" v="Einhammaren" />
		<tag k="natural" v="cape" />
		<tag k="ssr:stedsnr" v="833419" />
	</node>
	<node id="-645809" lat="60.5222222247" lon="5.36521666411">
		<tag k="name" v="Ramnbergneset" />
		<tag k="natural" v="cape" />
		<tag k="ssr:stedsnr" v="529788" />
	</node>
	<node id="-646344" lat="60.6926777802" lon="5.61261110571">
		<tag k="name" v="Havgulneset" />
		<tag k="natural" v="cape" />
		<tag k="ssr:stedsnr" v="165396" />
	</node>
	<node id="-646830" lat="60.4561444482" lon="5.48749443615">
		<tag k="name" v="Eidsvika" />
		<tag k="natural" v="bay" />
		<tag k="ssr:stedsnr" v="773820" />
	</node>
	<node id="-646828" lat="60.5148194451" lon="5.39409167264">
		<tag k="name" v="Nerdalshøla" />
		<tag k="natural" v="bay" />
		<tag k="ssr:stedsnr" v="773816" />
	</node>
	<node id="-646777" lat="60.5293111105" lon="5.34959166131">
		<tag k="name" v="Kvammen" />
		<tag k="natural" v="cape" />
		<tag k="ssr:stedsnr" v="651769" />
	</node>
	<node id="-646313" lat="60.5094777791" lon="5.40626943702">
		<tag k="name" v="Juvika" />
		<tag k="natural" v="bay" />
		<tag k="ssr:stedsnr" v="106830" />
	</node>
	<node id="-645799" lat="60.6813361112" lon="5.61806944144">
		<tag k="name" v="Langeneset" />
		<tag k="natural" v="cape" />
		<tag k="ssr:stedsnr" v="492016" />
	</node>
	<node id="-645791" lat="60.4685249984" lon="5.64930000464">
		<tag k="name" v="Furneset" />
		<tag k="natural" v="cape" />
		<tag k="ssr:stedsnr" v="673945" />
	</node>
	<node id="-645658" lat="60.682355559" lon="5.61305555351">
		<tag k="name" v="Eiketoneset" />
		<tag k="natural" v="cape" />
		<tag k="ssr:stedsnr" v="469405" />
	</node>
	<node id="-646937" lat="60.4705666651" lon="5.70325000894">
		<tag k="name" v="Olsnessundet" />
		<tag k="natural" v="strait" />
		<tag k="ssr:stedsnr" v="954526" />
	</node>
	<node id="-646804" lat="60.6125472238" lon="5.5128861051">
		<tag k="name" v="Osterhavnneset" />
		<tag k="natural" v="cape" />
		<tag k="ssr:stedsnr" v="773502" />
	</node>
	<node id="-645773" lat="60.5721360963" lon="5.44984494194">
		<tag k="name" v="Gardvika" />
		<tag k="natural" v="bay" />
		<tag k="ssr:stedsnr" v="673107" />
	</node>
	<node id="-646278" lat="60.5563861138" lon="5.59825832427">
		<tag k="name" v="Ottervik" />
		<tag k="natural" v="bay" />
		<tag k="ssr:stedsnr" v="106419" />
	</node>
	<node id="-646277" lat="60.5571138844" lon="5.60380832968">
		<tag k="name" v="Austervik" />
		<tag k="natural" v="bay" />
		<tag k="ssr:stedsnr" v="106417" />
	</node>
	<node id="-646788" lat="60.5517527773" lon="5.39023888304">
		<tag k="name" v="Purkegilet" />
		<tag k="natural" v="cape" />
		<tag k="ssr:stedsnr" v="651836" />
	</node>
	<node id="-645654" lat="60.5030333374" lon="5.41553332657">
		<tag k="name" v="Botlabenken" />
		<tag k="natural" v="bay" />
		<tag k="ssr:stedsnr" v="469536" />
	</node>
	<node id="-645756" lat="60.5096499955" lon="5.40686944397">
		<tag k="alt_name" v="Vikane" />
		<tag k="name" v="Runnhovdvikane" />
		<tag k="natural" v="bay" />
		<tag k="ssr:stedsnr" v="431505" />
	</node>
	<node id="-645755" lat="60.5483055558" lon="5.36469167372">
		<tag k="name" v="Sanddalsneset" />
		<tag k="natural" v="cape" />
		<tag k="ssr:stedsnr" v="431449" />
	</node>
	<node id="-645753" lat="60.4385722265" lon="5.52839722991">
		<tag k="name" v="Viknabukta" />
		<tag k="natural" v="bay" />
		<tag k="old_name" v="Viknabukti" />
		<tag k="ssr:stedsnr" v="430028" />
	</node>
	<node id="-645752" lat="60.4508688274" lon="5.49660832825">
		<tag k="name" v="Hausvika" />
		<tag k="natural" v="bay" />
		<tag k="ssr:stedsnr" v="430002" />
	</node>
	<node id="-645652" lat="60.428922219" lon="5.53512777539">
		<tag k="name" v="Gloppa" />
		<tag k="natural" v="bay" />
		<tag k="ssr:stedsnr" v="468432" />
	</node>
	<node id="-646260" lat="60.4378194477" lon="5.56327221984">
		<tag k="name" v="Storavika" />
		<tag k="natural" v="bay" />
		<tag k="ssr:stedsnr" v="105481" />
	</node>
	<node id="-646259" lat="60.5533472218" lon="5.44434167235">
		<tag k="name" v="Trollhavn" />
		<tag k="natural" v="bay" />
		<tag k="ssr:stedsnr" v="105411" />
	</node>
	<node id="-646254" lat="60.482694444" lon="5.71154166202">
		<tag k="name" v="Hesttona" />
		<tag k="natural" v="cape" />
		<tag k="ssr:stedsnr" v="104576" />
	</node>
	<node id="-646763" lat="60.5468972182" lon="5.59226943647">
		<tag k="name" v="Hukulten" />
		<tag k="natural" v="cape" />
		<tag k="ssr:stedsnr" v="651438" />
	</node>
	<node id="-646246" lat="60.5395555549" lon="5.47525277766">
		<tag k="name" v="Ringaneset" />
		<tag k="natural" v="cape" />
		<tag k="ssr:stedsnr" v="67887" />
	</node>
	<node id="-646757" lat="60.4918444475" lon="5.42540556021">
		<tag k="name" v="Rosshagneset" />
		<tag k="natural" v="cape" />
		<tag k="ssr:stedsnr" v="650769" />
	</node>
	<node id="-646331" lat="60.5984694456" lon="5.50729444438">
		<tag k="name" v="Fotlandsvågen" />
		<tag k="natural" v="bay" />
		<tag k="ssr:stedsnr" v="127562" />
	</node>
	<node id="-646752" lat="60.4701972183" lon="5.46014166041">
		<tag k="alt_name" v="Steganeset" />
		<tag k="name" v="Stiganeset" />
		<tag k="natural" v="cape" />
		<tag k="ssr:stedsnr" v="650483" />
	</node>
	<node id="-645727" lat="60.6835555593" lon="5.63225555191">
		<tag k="name" v="Heimvikvågen" />
		<tag k="natural" v="bay" />
		<tag k="ssr:stedsnr" v="491382" />
	</node>
	<node id="-646746" lat="60.5494666649" lon="5.45380832629">
		<tag k="name" v="Lonevågen" />
		<tag k="natural" v="bay" />
		<tag k="ssr:stedsnr" v="613426" />
	</node>
	<node id="-646736" lat="60.6974361083" lon="5.61111666783">
		<tag k="bay" v="fjord" />
		<tag k="name" v="Romarheimsfjorden" />
		<tag k="natural" v="bay" />
		<tag k="ssr:stedsnr" v="612284" />
	</node>
	<node id="-646735" lat="60.5832611148" lon="5.46707221978">
		<tag k="name" v="Mjøsvågen" />
		<tag k="natural" v="bay" />
		<tag k="ssr:stedsnr" v="612140" />
	</node>
	<node id="-646732" lat="60.5853277795" lon="5.45928332923">
		<tag k="name" v="Hoshovdknappen" />
		<tag k="natural" v="cape" />
		<tag k="ssr:stedsnr" v="612075" />
	</node>
	<node id="-645707" lat="60.5433472221" lon="5.4574833325">
		<tag k="name" v="Dalsvågen" />
		<tag k="natural" v="bay" />
		<tag k="ssr:stedsnr" v="348371" />
	</node>
	<node id="-646729" lat="60.5808944446" lon="5.47511388201">
		<tag k="name" v="Skålvika" />
		<tag k="natural" v="bay" />
		<tag k="ssr:stedsnr" v="596786" />
	</node>
	<node id="-646726" lat="60.4672277791" lon="5.46759722121">
		<tag k="name" v="Urane" />
		<tag k="natural" v="bay" />
		<tag k="ssr:stedsnr" v="591801" />
	</node>
	<node id="-645701" lat="60.6126083365" lon="5.52826111504">
		<tag k="name" v="Drangeneset" />
		<tag k="natural" v="cape" />
		<tag k="ssr:stedsnr" v="347728" />
	</node>
	<node id="-646211" lat="60.5357861155" lon="5.47951944407">
		<tag k="name" v="Ervik" />
		<tag k="natural" v="bay" />
		<tag k="ssr:stedsnr" v="45674" />
	</node>
	<node id="-646210" lat="60.5313500039" lon="5.49154166856">
		<tag k="name" v="Svenevika" />
		<tag k="natural" v="bay" />
		<tag k="ssr:stedsnr" v="45639" />
	</node>
	<node id="-646940" lat="60.6149333337" lon="5.55553056312">
		<tag k="fixme" v="consider seamark:type=rock or natural=shoal" />
		<tag k="name" v="Kleppeskjera" />
		<tag k="place" v="islet" />
		<tag k="ssr:stedsnr" v="954828" />
	</node>
	<node id="-645983" lat="60.5274749966" lon="5.48779166955">
		<tag k="name" v="Litleholmen" />
		<tag k="place" v="islet" />
		<tag k="ssr:stedsnr" v="894706" />
	</node>
	<node id="-645685" lat="60.4738527787" lon="5.69225832857">
		<tag k="name" v="Eidsvika" />
		<tag k="natural" v="bay" />
		<tag k="ssr:stedsnr" v="470585" />
	</node>
	<node id="-646192" lat="60.4383997805" lon="5.56691956954">
		<tag k="name" v="Blomavika" />
		<tag k="natural" v="bay" />
		<tag k="ssr:stedsnr" v="45479" />
	</node>
	<node id="-645679" lat="60.6097194422" lon="5.50156667292">
		<tag k="name" v="Bernesvika" />
		<tag k="natural" v="bay" />
		<tag k="ssr:stedsnr" v="470515" />
	</node>
	<node id="-646700" lat="60.4419166695" lon="5.61138888561">
		<tag k="name" v="Udjerneset" />
		<tag k="natural" v="cape" />
		<tag k="ssr:stedsnr" v="591538" />
	</node>
	<node id="-646187" lat="60.6425833301" lon="5.5987944389">
		<tag k="name" v="Sjubbeneset" />
		<tag k="natural" v="cape" />
		<tag k="ssr:stedsnr" v="45407" />
	</node>
	<node id="-646698" lat="60.5980916677" lon="5.51170276887">
		<tag k="name" v="Hanstveitholmen" />
		<tag k="place" v="islet" />
		<tag k="ssr:stedsnr" v="591518" />
	</node>
	<node id="-646696" lat="60.6142361148" lon="5.54768056273">
		<tag k="name" v="Drangøen" />
		<tag k="natural" v="cape" />
		<tag k="ssr:stedsnr" v="591511" />
	</node>
	<node id="-646183" lat="60.5610694451" lon="5.41969167545">
		<tag k="name" v="Holmen" />
		<tag k="place" v="islet" />
		<tag k="ssr:stedsnr" v="45391" />
	</node>
	<node id="-645667" lat="60.570349998" lon="5.58524166259">
		<tag k="name" v="Straumen" />
		<tag k="natural" v="bay" />
		<tag k="ssr:stedsnr" v="469481" />
	</node>
	<node id="-645666" lat="60.5715027805" lon="5.58611944392">
		<tag k="name" v="Båtsvik" />
		<tag k="natural" v="bay" />
		<tag k="ssr:stedsnr" v="469478" />
	</node>
	<node id="-645665" lat="60.621647218" lon="5.58624999234">
		<tag k="name" v="Tyssevika" />
		<tag k="natural" v="bay" />
		<tag k="ssr:stedsnr" v="469462" />
	</node>
	<node id="-646175" lat="60.4769333379" lon="5.68568888993">
		<tag k="name" v="Hamnevika" />
		<tag k="natural" v="bay" />
		<tag k="old_name" v="Hamneviki" />
		<tag k="ssr:stedsnr" v="43517" />
	</node>
	<node id="-646173" lat="60.5525777755" lon="5.39206388499">
		<tag k="name" v="Birkelandsstø" />
		<tag k="natural" v="bay" />
		<tag k="ssr:stedsnr" v="43282" />
	</node>
	<node id="-646234" lat="60.5601416708" lon="5.4216777729">
		<tag k="name" v="Ingridvika" />
		<tag k="natural" v="bay" />
		<tag k="ssr:stedsnr" v="67450" />
	</node>
	<node id="-646682" lat="60.5844861097" lon="5.46551388664">
		<tag k="name" v="Langeflua" />
		<tag k="natural" v="shoal" />
		<tag k="place" v="locality" />
		<tag k="ssr:stedsnr" v="590812" />
	</node>
	<node id="-646681" lat="60.5454138857" lon="5.4635583253">
		<tag k="name" v="Myraholmen" />
		<tag k="place" v="islet" />
		<tag k="ssr:stedsnr" v="590811" />
	</node>
	<node id="-646167" lat="60.6061527735" lon="5.55264166163">
		<tag k="alt_name" v="Kleppsvåg" />
		<tag k="name" v="Kleppsvågen" />
		<tag k="natural" v="bay" />
		<tag k="ssr:stedsnr" v="6738" />
	</node>
	<node id="-646166" lat="60.6159861147" lon="5.56192777864">
		<tag k="alt_name" v="Sætrevika" />
		<tag k="name" v="Sætevika" />
		<tag k="natural" v="bay" />
		<tag k="ssr:stedsnr" v="6730" />
	</node>
	<node id="-646676" lat="60.5292083291" lon="5.49082500014">
		<tag k="name" v="Barkavika" />
		<tag k="natural" v="bay" />
		<tag k="ssr:stedsnr" v="590667" />
	</node>
	<node id="-646673" lat="60.4369611109" lon="5.56006110474">
		<tag k="name" v="Kløvneset" />
		<tag k="natural" v="cape" />
		<tag k="ssr:stedsnr" v="590490" />
	</node>
	<node id="-646153" lat="60.5532444434" lon="5.40735833641">
		<tag k="name" v="Hjellvikvågen" />
		<tag k="natural" v="bay" />
		<tag k="ssr:stedsnr" v="6466" />
	</node>
	<node id="-646659" lat="60.611286109" lon="5.50664167537">
		<tag k="name" v="Kvalsida" />
		<tag k="natural" v="cape" />
		<tag k="ssr:stedsnr" v="552755" />
	</node>
	<node id="-646146" lat="60.4649749968" lon="5.45883611938">
		<tag k="name" v="Votløyna" />
		<tag k="place" v="islet" />
		<tag k="ssr:stedsnr" v="5549" />
	</node>
</osm>
