<?xml version="1.0" encoding="UTF-8"?>
<osm version="0.6" generator="osmapis">
	<node lat="60.56138888522655" lon="5.4839027713502215" id="-73175">
		<tag k="name" v="Buskaret" />
		<tag k="natural" v="valley" />
		<tag k="place" v="locality" />
		<tag k="ssr:stedsnr" v="6607" />
	</node>
	<node lat="60.505633330079654" lon="5.408827772047718" id="-73176">
		<tag k="name" v="Nappen" />
		<tag k="natural" v="hill" />
		<tag k="place" v="locality" />
		<tag k="ssr:stedsnr" v="6504" />
	</node>
	<node lat="60.569300002937744" lon="5.523886119673101" id="-73178">
		<tag k="fixme" v="consider natural=peak for the most distinct mountains in the district" />
		<tag k="name" v="Settnipa" />
		<tag k="natural" v="hill" />
		<tag k="place" v="locality" />
		<tag k="ssr:stedsnr" v="6587" />
	</node>
	<node lat="60.62859444231966" lon="5.635199992633575" id="-73182">
		<tag k="name" v="Merkesbotnen" />
		<tag k="natural" v="valley" />
		<tag k="place" v="locality" />
		<tag k="ssr:stedsnr" v="6711" />
	</node>
	<node lat="60.61987500182212" lon="5.618880546512849" id="-73183">
		<tag k="fixme" v="consider natural=peak for the most distinct mountains in the district" />
		<tag k="name" v="Preikestolen" />
		<tag k="natural" v="hill" />
		<tag k="place" v="locality" />
		<tag k="ssr:stedsnr" v="6725" />
	</node>
	<node lat="60.615830557251925" lon="5.620105563251009" id="-73184">
		<tag k="name" v="Kupene" />
		<tag k="natural" v="valley" />
		<tag k="place" v="locality" />
		<tag k="ssr:stedsnr" v="6726" />
	</node>
	<node lat="60.545169443159715" lon="5.474550003510214" id="-73187">
		<tag k="fixme" v="consider natural=peak for the most distinct mountains in the district" />
		<tag k="name" v="Vetrehovden" />
		<tag k="natural" v="hill" />
		<tag k="place" v="locality" />
		<tag k="ssr:stedsnr" v="6911" />
	</node>
	<node lat="60.59873333660201" lon="5.553636112550814" id="-73197">
		<tag k="fixme" v="consider natural=peak for the most distinct mountains in the district" />
		<tag k="name" v="Kletten" />
		<tag k="natural" v="hill" />
		<tag k="place" v="locality" />
		<tag k="ssr:stedsnr" v="45524" />
	</node>
	<node lat="60.47977222536132" lon="5.6591138859694015" id="-73198">
		<tag k="name" v="Navena" />
		<tag k="natural" v="hill" />
		<tag k="place" v="locality" />
		<tag k="ssr:stedsnr" v="45552" />
	</node>
	<node lat="60.52808055116721" lon="5.639852772658903" id="-73199">
		<tag k="name" v="Storhaugen" />
		<tag k="natural" v="hill" />
		<tag k="place" v="locality" />
		<tag k="ssr:stedsnr" v="45579" />
	</node>
	<node lat="60.52216666661751" lon="5.693227778246017" id="-73201">
		<tag k="name" v="Kjerringstallane" />
		<tag k="natural" v="hill" />
		<tag k="place" v="locality" />
		<tag k="ssr:stedsnr" v="45583" />
	</node>
	<node lat="60.51435000142064" lon="5.640247227067544" id="-73202">
		<tag k="fixme" v="consider natural=peak for the most distinct mountains in the district" />
		<tag k="name" v="Høgåsen" />
		<tag k="natural" v="hill" />
		<tag k="place" v="locality" />
		<tag k="ssr:stedsnr" v="45586" />
	</node>
	<node lat="60.49005000085847" lon="5.5405472237161035" id="-73203">
		<tag k="name" v="Mykelia" />
		<tag k="natural" v="hill" />
		<tag k="place" v="locality" />
		<tag k="ssr:stedsnr" v="45594" />
	</node>
	<node lat="60.46723333546756" lon="5.564594452744132" id="-73205">
		<tag k="name" v="Osphovden" />
		<tag k="natural" v="hill" />
		<tag k="place" v="locality" />
		<tag k="ssr:stedsnr" v="45614" />
	</node>
	<node lat="60.49640277870012" lon="5.549833335891719" id="-73206">
		<tag k="name" v="Fitjane" />
		<tag k="natural" v="hill" />
		<tag k="place" v="locality" />
		<tag k="ssr:stedsnr" v="45620" />
	</node>
	<node lat="60.52130555211999" lon="5.476463890826133" id="-73208">
		<tag k="name" v="Turrkletten" />
		<tag k="place" v="locality" />
		<tag k="ssr:stedsnr" v="45678" />
	</node>
	<node lat="60.531194447532734" lon="5.426508331136374" id="-73210">
		<tag k="name" v="Geithaugen" />
		<tag k="natural" v="hill" />
		<tag k="place" v="locality" />
		<tag k="ssr:stedsnr" v="45828" />
	</node>
	<node lat="60.45362500170316" lon="5.60358611606523" id="-73215">
		<tag k="fixme" v="consider natural=peak for the most distinct mountains in the district" />
		<tag k="name" v="Nipene" />
		<tag k="natural" v="hill" />
		<tag k="place" v="locality" />
		<tag k="ssr:stedsnr" v="66017" />
	</node>
	<node lat="60.56225277384661" lon="5.449719448602863" id="-73221">
		<tag k="name" v="Langtørna" />
		<tag k="natural" v="hill" />
		<tag k="place" v="locality" />
		<tag k="ssr:stedsnr" v="67446" />
	</node>
	<node lat="60.561169442594405" lon="5.527011109239122" id="-73222">
		<tag k="name" v="Bukkaskaret" />
		<tag k="natural" v="valley" />
		<tag k="place" v="locality" />
		<tag k="ssr:stedsnr" v="67595" />
	</node>
	<node lat="60.616833336757615" lon="5.5740305506918455" id="-73226">
		<tag k="name" v="Raudberget" />
		<tag k="natural" v="hill" />
		<tag k="place" v="locality" />
		<tag k="ssr:stedsnr" v="67728" />
	</node>
	<node lat="60.50406111433703" lon="5.683330563491928" id="-73228">
		<tag k="name" v="Øvstebotnen" />
		<tag k="natural" v="valley" />
		<tag k="place" v="locality" />
		<tag k="ssr:stedsnr" v="67992" />
	</node>
	<node lat="60.50385278007913" lon="5.529975003979252" id="-73229">
		<tag k="fixme" v="consider natural=peak for the most distinct mountains in the district" />
		<tag k="name" v="Møsåsen" />
		<tag k="natural" v="hill" />
		<tag k="place" v="locality" />
		<tag k="ssr:stedsnr" v="67998" />
	</node>
	<node lat="60.59398055646421" lon="5.566769441870104" id="-73232">
		<tag k="name" v="Budalen" />
		<tag k="natural" v="valley" />
		<tag k="place" v="locality" />
		<tag k="ssr:stedsnr" v="248534" />
	</node>
	<node lat="60.58211667104954" lon="5.485499999126628" id="-73233">
		<tag k="name" v="Åsheimdalen" />
		<tag k="natural" v="valley" />
		<tag k="place" v="locality" />
		<tag k="ssr:stedsnr" v="248541" />
	</node>
	<node lat="60.52623611491726" lon="5.59331667058375" id="-73235">
		<tag k="alt_name" v="Olshovden, austre" />
		<tag k="name" v="Austre Olshovden" />
		<tag k="natural" v="hill" />
		<tag k="place" v="locality" />
		<tag k="ssr:stedsnr" v="248935" />
	</node>
	<node lat="60.51484167099406" lon="5.417122222684902" id="-73241">
		<tag k="name" v="Tverdalane" />
		<tag k="natural" v="valley" />
		<tag k="place" v="locality" />
		<tag k="ssr:stedsnr" v="105409" />
	</node>
	<node lat="60.44738055752433" lon="5.543297217568899" id="-73244">
		<tag k="fixme" v="consider natural=peak for the most distinct mountains in the district" />
		<tag k="name" v="Vegliåsen" />
		<tag k="natural" v="hill" />
		<tag k="place" v="locality" />
		<tag k="ssr:stedsnr" v="105495" />
	</node>
	<node lat="60.44720555271495" lon="5.525766671456651" id="-73245">
		<tag k="name" v="Lyngåsdalen" />
		<tag k="natural" v="valley" />
		<tag k="place" v="locality" />
		<tag k="ssr:stedsnr" v="105505" />
	</node>
	<node lat="60.529094444214515" lon="5.494719445763035" id="-73246">
		<tag k="name" v="Apalbakken" />
		<tag k="natural" v="slope" />
		<tag k="place" v="locality" />
		<tag k="ssr:stedsnr" v="105672" />
	</node>
	<node lat="60.45688889105797" lon="5.532625005663863" id="-73247">
		<tag k="name" v="Turrhaugane" />
		<tag k="natural" v="hill" />
		<tag k="place" v="locality" />
		<tag k="ssr:stedsnr" v="105676" />
	</node>
	<node lat="60.522541668517405" lon="5.553722223144337" id="-73248">
		<tag k="name" v="Fugledalen" />
		<tag k="natural" v="valley" />
		<tag k="place" v="locality" />
		<tag k="ssr:stedsnr" v="105685" />
	</node>
	<node lat="60.54462500156246" lon="5.392933341533229" id="-73249">
		<tag k="name" v="Teppstadnuken" />
		<tag k="natural" v="hill" />
		<tag k="place" v="locality" />
		<tag k="ssr:stedsnr" v="249402" />
	</node>
	<node lat="60.67802777721042" lon="5.646983339553872" id="-73251">
		<tag k="name" v="Kjempeskaret" />
		<tag k="natural" v="ridge" />
		<tag k="place" v="locality" />
		<tag k="ssr:stedsnr" v="106384" />
	</node>
	<node lat="60.637049996585546" lon="5.616197226479391" id="-73252">
		<tag k="fixme" v="consider natural=peak for the most distinct mountains in the district" />
		<tag k="name" v="Litlafjellet" />
		<tag k="natural" v="hill" />
		<tag k="place" v="locality" />
		<tag k="ssr:stedsnr" v="106390" />
	</node>
	<node lat="60.556411113622524" lon="5.511016669656893" id="-73253">
		<tag k="name" v="Ernipa" />
		<tag k="natural" v="hill" />
		<tag k="place" v="locality" />
		<tag k="ssr:stedsnr" v="106503" />
	</node>
	<node lat="60.618741668424484" lon="5.574238896311511" id="-73256">
		<tag k="name" v="Vetlebotnen" />
		<tag k="natural" v="valley" />
		<tag k="place" v="locality" />
		<tag k="ssr:stedsnr" v="106515" />
	</node>
	<node lat="60.47516111022983" lon="5.597950003073079" id="-73257">
		<tag k="name" v="Turtnaliane" />
		<tag k="natural" v="slope" />
		<tag k="place" v="locality" />
		<tag k="ssr:stedsnr" v="106572" />
	</node>
	<node lat="60.49052777909981" lon="5.645938882479244" id="-73258">
		<tag k="name" v="Nonjela" />
		<tag k="natural" v="gorge" />
		<tag k="ssr:stedsnr" v="106574" />
	</node>
	<node lat="60.4925861149064" lon="5.6704555463595465" id="-73259">
		<tag k="fixme" v="consider natural=peak for the most distinct mountains in the district" />
		<tag k="name" v="Skitnakleiv" />
		<tag k="natural" v="hill" />
		<tag k="place" v="locality" />
		<tag k="ssr:stedsnr" v="106576" />
	</node>
	<node lat="60.5284000003148" lon="5.650249992444077" id="-73260">
		<tag k="fixme" v="consider natural=peak for the most distinct mountains in the district" />
		<tag k="name" v="Kammen" />
		<tag k="natural" v="hill" />
		<tag k="place" v="locality" />
		<tag k="ssr:stedsnr" v="106586" />
	</node>
	<node lat="60.53348055389714" lon="5.642097223134983" id="-73261">
		<tag k="name" v="Bashaugen" />
		<tag k="natural" v="hill" />
		<tag k="place" v="locality" />
		<tag k="ssr:stedsnr" v="106593" />
	</node>
	<node lat="60.532338890351895" lon="5.624752776430487" id="-73262">
		<tag k="fixme" v="consider natural=peak for the most distinct mountains in the district" />
		<tag k="name" v="Kluråsen" />
		<tag k="natural" v="hill" />
		<tag k="place" v="locality" />
		<tag k="ssr:stedsnr" v="106595" />
	</node>
	<node lat="60.51560555190757" lon="5.614688888451499" id="-73263">
		<tag k="name" v="Løtveitbruna" />
		<tag k="place" v="locality" />
		<tag k="ssr:stedsnr" v="106602" />
	</node>
	<node lat="60.51961944826595" lon="5.655274995414061" id="-73264">
		<tag k="name" v="Storlia" />
		<tag k="natural" v="slope" />
		<tag k="place" v="locality" />
		<tag k="ssr:stedsnr" v="106610" />
	</node>
	<node lat="60.503636107402784" lon="5.5452250050136875" id="-73265">
		<tag k="name" v="Losthaugen" />
		<tag k="natural" v="hill" />
		<tag k="place" v="locality" />
		<tag k="ssr:stedsnr" v="106723" />
	</node>
	<node lat="60.497419440949784" lon="5.457238888166759" id="-73266">
		<tag k="name" v="Rosshaugen" />
		<tag k="natural" v="hill" />
		<tag k="place" v="locality" />
		<tag k="ssr:stedsnr" v="106778" />
	</node>
	<node lat="60.47281944854221" lon="5.486711106303061" id="-73270">
		<tag k="name" v="Storbotnen" />
		<tag k="natural" v="hill" />
		<tag k="place" v="locality" />
		<tag k="ssr:stedsnr" v="106878" />
	</node>
	<node lat="60.53148332899837" lon="5.570863893084517" id="-73282">
		<tag k="name" v="Njåstadleitet" />
		<tag k="natural" v="hill" />
		<tag k="place" v="locality" />
		<tag k="ssr:stedsnr" v="249869" />
	</node>
	<node lat="60.53443333060195" lon="5.494833337371341" id="-73283">
		<tag k="fixme" v="consider natural=peak for the most distinct mountains in the district" />
		<tag k="name" v="Nunnåsfjellet" />
		<tag k="natural" v="hill" />
		<tag k="place" v="locality" />
		<tag k="ssr:stedsnr" v="249879" />
	</node>
	<node lat="60.52487777671716" lon="5.627155557401127" id="-73286">
		<tag k="name" v="Storhaugen" />
		<tag k="natural" v="hill" />
		<tag k="place" v="locality" />
		<tag k="ssr:stedsnr" v="249968" />
	</node>
	<node lat="60.52012500219107" lon="5.576402771764947" id="-73287">
		<tag k="fixme" v="consider natural=peak for the most distinct mountains in the district" />
		<tag k="name" v="Skolmen" />
		<tag k="natural" v="hill" />
		<tag k="place" v="locality" />
		<tag k="ssr:stedsnr" v="249973" />
	</node>
	<node lat="60.455138891259054" lon="5.514141672212304" id="-73288">
		<tag k="name" v="Mjelddalen" />
		<tag k="natural" v="valley" />
		<tag k="place" v="locality" />
		<tag k="ssr:stedsnr" v="127002" />
	</node>
	<node lat="60.54127777711225" lon="5.581574991347299" id="-73293">
		<tag k="fixme" v="consider natural=peak for the most distinct mountains in the district" />
		<tag k="name" v="Kammen" />
		<tag k="natural" v="hill" />
		<tag k="place" v="locality" />
		<tag k="ssr:stedsnr" v="127894" />
	</node>
	<node lat="60.528552777670825" lon="5.576733325027113" id="-73294">
		<tag k="name" v="Fagerdalen" />
		<tag k="natural" v="valley" />
		<tag k="place" v="locality" />
		<tag k="ssr:stedsnr" v="128011" />
	</node>
	<node lat="60.5164138873075" lon="5.469563884704794" id="-73297">
		<tag k="name" v="Haugadalen" />
		<tag k="natural" v="valley" />
		<tag k="place" v="locality" />
		<tag k="ssr:stedsnr" v="127923" />
	</node>
	<node lat="60.66271944155252" lon="5.630844441470182" id="-73304">
		<tag k="name" v="Gullbergdalen" />
		<tag k="natural" v="valley" />
		<tag k="place" v="locality" />
		<tag k="ssr:stedsnr" v="165307" />
	</node>
	<node lat="60.49095833592287" lon="5.471713886915513" id="-73306">
		<tag k="fixme" v="consider natural=peak for the most distinct mountains in the district" />
		<tag k="name" v="Åsen" />
		<tag k="natural" v="hill" />
		<tag k="place" v="locality" />
		<tag k="ssr:stedsnr" v="165460" />
	</node>
	<node lat="60.48625555667745" lon="5.484474997202228" id="-73307">
		<tag k="name" v="Såta" />
		<tag k="natural" v="hill" />
		<tag k="place" v="locality" />
		<tag k="ssr:stedsnr" v="165465" />
	</node>
	<node lat="60.485169447301324" lon="5.484111116832169" id="-73308">
		<tag k="name" v="Dalen" />
		<tag k="natural" v="valley" />
		<tag k="place" v="locality" />
		<tag k="ssr:stedsnr" v="165468" />
	</node>
	<node lat="60.50928888971059" lon="5.661500009015306" id="-73314">
		<tag k="name" v="Stadsberget" />
		<tag k="natural" v="hill" />
		<tag k="place" v="locality" />
		<tag k="ssr:stedsnr" v="166604" />
	</node>
	<node lat="60.49160555833505" lon="5.534936103998355" id="-73318">
		<tag k="name" v="Storhaugen" />
		<tag k="natural" v="hill" />
		<tag k="place" v="locality" />
		<tag k="ssr:stedsnr" v="166616" />
	</node>
	<node lat="60.469025003025486" lon="5.561133328459325" id="-73319">
		<tag k="name" v="Ørnanipa" />
		<tag k="natural" v="hill" />
		<tag k="place" v="locality" />
		<tag k="ssr:stedsnr" v="166625" />
	</node>
	<node lat="60.46836666513583" lon="5.563013885058067" id="-73320">
		<tag k="name" v="Bjørnskaret" />
		<tag k="natural" v="hill" />
		<tag k="place" v="locality" />
		<tag k="ssr:stedsnr" v="166626" />
	</node>
	<node lat="60.46550000425059" lon="5.566586118217824" id="-73321">
		<tag k="name" v="Snedgotena" />
		<tag k="natural" v="hill" />
		<tag k="place" v="locality" />
		<tag k="ssr:stedsnr" v="166631" />
	</node>
	<node lat="60.48705555770494" lon="5.541958338748611" id="-73322">
		<tag k="fixme" v="consider natural=peak for the most distinct mountains in the district" />
		<tag k="name" v="Krossåsen" />
		<tag k="natural" v="hill" />
		<tag k="place" v="locality" />
		<tag k="ssr:stedsnr" v="166638" />
	</node>
	<node lat="60.46493055559258" lon="5.5753916730783395" id="-73323">
		<tag k="name" v="Geitursrinden" />
		<tag k="place" v="locality" />
		<tag k="ssr:stedsnr" v="166643" />
	</node>
	<node lat="60.476024996169265" lon="5.542169450598847" id="-73325">
		<tag k="name" v="Halvardshaugen" />
		<tag k="natural" v="hill" />
		<tag k="place" v="locality" />
		<tag k="ssr:stedsnr" v="166650" />
	</node>
	<node lat="60.54682222551174" lon="5.535177768928596" id="-73329">
		<tag k="name" v="Øykhaugen" />
		<tag k="natural" v="hill" />
		<tag k="place" v="locality" />
		<tag k="ssr:stedsnr" v="166516" />
	</node>
	<node lat="60.491472225813105" lon="5.5886416698195305" id="-73331">
		<tag k="name" v="Klumpen" />
		<tag k="place" v="locality" />
		<tag k="ssr:stedsnr" v="166559" />
	</node>
	<node lat="60.49598611057606" lon="5.682713882578073" id="-73332">
		<tag k="name" v="Tausahaugen" />
		<tag k="natural" v="hill" />
		<tag k="place" v="locality" />
		<tag k="ssr:stedsnr" v="166561" />
	</node>
	<node lat="60.47474444695928" lon="5.589027773648399" id="-73333">
		<tag k="name" v="Kjerringahaugen" />
		<tag k="natural" v="hill" />
		<tag k="place" v="locality" />
		<tag k="ssr:stedsnr" v="166572" />
	</node>
	<node lat="60.47528448310326" lon="5.459337805360461" id="-73335">
		<tag k="name" v="Jonsokhaugen" />
		<tag k="natural" v="hill" />
		<tag k="place" v="locality" />
		<tag k="ssr:stedsnr" v="166805" />
	</node>
	<node lat="60.57071389339661" lon="5.463763888794162" id="-73336">
		<tag k="name" v="Vindegga" />
		<tag k="natural" v="hill" />
		<tag k="place" v="locality" />
		<tag k="ssr:stedsnr" v="166818" />
	</node>
	<node lat="60.553530552723764" lon="5.399680561635773" id="-73337">
		<tag k="name" v="Bergsdalen" />
		<tag k="natural" v="valley" />
		<tag k="place" v="locality" />
		<tag k="ssr:stedsnr" v="166820" />
	</node>
	<node lat="60.4570472181374" lon="5.507541658026719" id="-73339">
		<tag k="name" v="Grasdalane" />
		<tag k="natural" v="valley" />
		<tag k="place" v="locality" />
		<tag k="ssr:stedsnr" v="166859" />
	</node>
	<node lat="60.461436114421204" lon="5.498816673478989" id="-73340">
		<tag k="fixme" v="consider natural=peak for the most distinct mountains in the district" />
		<tag k="name" v="Hausbergfjellet" />
		<tag k="natural" v="hill" />
		<tag k="place" v="locality" />
		<tag k="ssr:stedsnr" v="166870" />
	</node>
	<node lat="60.48128055697214" lon="5.479466675289038" id="-73342">
		<tag k="fixme" v="consider natural=peak for the most distinct mountains in the district" />
		<tag k="name" v="Erstadfjellet" />
		<tag k="natural" v="hill" />
		<tag k="place" v="locality" />
		<tag k="ssr:stedsnr" v="187974" />
	</node>
	<node lat="60.57411944267039" lon="5.537119436987127" id="-73344">
		<tag k="fixme" v="consider natural=peak for the most distinct mountains in the district" />
		<tag k="name" v="Storfjellet" />
		<tag k="natural" v="hill" />
		<tag k="place" v="locality" />
		<tag k="ssr:stedsnr" v="188609" />
	</node>
	<node lat="60.593805555958035" lon="5.591858339802447" id="-73348">
		<tag k="fixme" v="consider natural=peak for the most distinct mountains in the district" />
		<tag k="name" v="Anorkletten" />
		<tag k="natural" v="hill" />
		<tag k="place" v="locality" />
		<tag k="ssr:stedsnr" v="188578" />
	</node>
	<node lat="60.58268888778131" lon="5.631794448394876" id="-73349">
		<tag k="name" v="Øvsthusdalen" />
		<tag k="natural" v="valley" />
		<tag k="place" v="locality" />
		<tag k="ssr:stedsnr" v="188594" />
	</node>
	<node lat="60.4646892417462" lon="5.627595911940423" id="-73352">
		<tag k="alt_name" v="Hauane" />
		<tag k="name" v="Haugane" />
		<tag k="natural" v="hill" />
		<tag k="place" v="locality" />
		<tag k="ssr:stedsnr" v="188952" />
	</node>
	<node lat="60.46815555913794" lon="5.589980551176314" id="-73353">
		<tag k="name" v="Flonsdalen" />
		<tag k="natural" v="valley" />
		<tag k="place" v="locality" />
		<tag k="ssr:stedsnr" v="188954" />
	</node>
	<node lat="60.48508889035002" lon="5.490497227531481" id="-73360">
		<tag k="name" v="Midtskaret" />
		<tag k="natural" v="hill" />
		<tag k="place" v="locality" />
		<tag k="ssr:stedsnr" v="226505" />
	</node>
	<node lat="60.51348332906687" lon="5.4218805482980414" id="-73361">
		<tag k="name" v="Gråberget" />
		<tag k="natural" v="hill" />
		<tag k="place" v="locality" />
		<tag k="ssr:stedsnr" v="227375" />
	</node>
	<node lat="60.561841670435" lon="5.4612083249758925" id="-73362">
		<tag k="fixme" v="consider natural=peak for the most distinct mountains in the district" />
		<tag k="name" v="Fjellskafjellet" />
		<tag k="natural" v="hill" />
		<tag k="place" v="locality" />
		<tag k="ssr:stedsnr" v="227379" />
	</node>
	<node lat="60.440863890252736" lon="5.605372226720545" id="-73366">
		<tag k="name" v="Kjindalen" />
		<tag k="natural" v="valley" />
		<tag k="place" v="locality" />
		<tag k="ssr:stedsnr" v="227548" />
	</node>
	<node lat="60.54374166715443" lon="5.59834722091459" id="-73367">
		<tag k="name" v="Bukkaberget" />
		<tag k="natural" v="hill" />
		<tag k="place" v="locality" />
		<tag k="ssr:stedsnr" v="227437" />
	</node>
	<node lat="60.440327773863" lon="5.542127772733061" id="-73369">
		<tag k="fixme" v="consider natural=peak for the most distinct mountains in the district" />
		<tag k="name" v="Egga" />
		<tag k="natural" v="hill" />
		<tag k="place" v="locality" />
		<tag k="ssr:stedsnr" v="227486" />
	</node>
	<node lat="60.447183331621325" lon="5.538738892523052" id="-73370">
		<tag k="fixme" v="consider natural=peak for the most distinct mountains in the district" />
		<tag k="loc_name" v="Tirsåsen" />
		<tag k="name" v="Tiråsen" />
		<tag k="natural" v="hill" />
		<tag k="place" v="locality" />
		<tag k="ssr:stedsnr" v="227492" />
	</node>
	<node lat="60.52461944459964" lon="5.668052774737712" id="-73371">
		<tag k="name" v="Kvernhusdalen" />
		<tag k="natural" v="valley" />
		<tag k="place" v="locality" />
		<tag k="ssr:stedsnr" v="227603" />
	</node>
	<node lat="60.5020999973506" lon="5.58659999201805" id="-73372">
		<tag k="name" v="Storlia" />
		<tag k="natural" v="slope" />
		<tag k="place" v="locality" />
		<tag k="ssr:stedsnr" v="227610" />
	</node>
	<node lat="60.490055557773296" lon="5.557208338062993" id="-73373">
		<tag k="name" v="Krossen" />
		<tag k="natural" v="hill" />
		<tag k="place" v="locality" />
		<tag k="ssr:stedsnr" v="227617" />
	</node>
	<node lat="60.50834722344857" lon="5.5310083404343295" id="-73376">
		<tag k="name" v="Hesthaugane" />
		<tag k="natural" v="hill" />
		<tag k="place" v="locality" />
		<tag k="ssr:stedsnr" v="227740" />
	</node>
	<node lat="60.536163892362445" lon="5.38159722887863" id="-73377">
		<tag k="name" v="Storskaret" />
		<tag k="natural" v="hill" />
		<tag k="place" v="locality" />
		<tag k="ssr:stedsnr" v="227788" />
	</node>
	<node lat="60.537627779573626" lon="5.360669450037496" id="-73378">
		<tag k="name" v="Hammarskaret" />
		<tag k="natural" v="valley" />
		<tag k="place" v="locality" />
		<tag k="ssr:stedsnr" v="227801" />
	</node>
	<node lat="60.49150555370526" lon="5.435955550356658" id="-73380">
		<tag k="name" v="Varden" />
		<tag k="natural" v="hill" />
		<tag k="place" v="locality" />
		<tag k="ssr:stedsnr" v="227806" />
	</node>
	<node lat="60.484669448170386" lon="5.440233334029217" id="-73381">
		<tag k="name" v="Yksnaberget" />
		<tag k="natural" v="hill" />
		<tag k="place" v="locality" />
		<tag k="ssr:stedsnr" v="227809" />
	</node>
	<node lat="60.46045833416458" lon="5.571152786353485" id="-73387">
		<tag k="fixme" v="consider natural=peak for the most distinct mountains in the district" />
		<tag k="name" v="Heståsen" />
		<tag k="natural" v="hill" />
		<tag k="place" v="locality" />
		<tag k="ssr:stedsnr" v="248014" />
	</node>
	<node lat="60.44569166644571" lon="5.590736107984041" id="-73389">
		<tag k="fixme" v="consider natural=peak for the most distinct mountains in the district" />
		<tag k="name" v="Kjeringhaugen" />
		<tag k="natural" v="hill" />
		<tag k="place" v="locality" />
		<tag k="ssr:stedsnr" v="248016" />
	</node>
	<node lat="60.46098055788466" lon="5.541049992733834" id="-73391">
		<tag k="fixme" v="consider natural=peak for the most distinct mountains in the district" />
		<tag k="name" v="Vindåsen" />
		<tag k="natural" v="hill" />
		<tag k="place" v="locality" />
		<tag k="ssr:stedsnr" v="248958" />
	</node>
	<node lat="60.47643611080282" lon="5.4876750033562445" id="-73392">
		<tag k="name" v="Askelandsdalen" />
		<tag k="natural" v="valley" />
		<tag k="place" v="locality" />
		<tag k="ssr:stedsnr" v="248968" />
	</node>
	<node lat="60.491627773620515" lon="5.509250006923337" id="-73394">
		<tag k="name" v="Rytet" />
		<tag k="natural" v="hill" />
		<tag k="place" v="locality" />
		<tag k="ssr:stedsnr" v="286459" />
	</node>
	<node lat="60.538058329810426" lon="5.538888890578881" id="-73396">
		<tag k="name" v="Fifjaliane" />
		<tag k="natural" v="slope" />
		<tag k="place" v="locality" />
		<tag k="ssr:stedsnr" v="286732" />
	</node>
	<node lat="60.4924972242716" lon="5.5042500046885765" id="-73398">
		<tag k="name" v="Tjoberget" />
		<tag k="natural" v="hill" />
		<tag k="place" v="locality" />
		<tag k="ssr:stedsnr" v="287492" />
	</node>
	<node lat="60.4897194461727" lon="5.525672213847528" id="-73399">
		<tag k="name" v="Ormhaugen" />
		<tag k="natural" v="hill" />
		<tag k="place" v="locality" />
		<tag k="ssr:stedsnr" v="287493" />
	</node>
	<node lat="60.48081389099204" lon="5.510700003250159" id="-73400">
		<tag k="name" v="Midtlia" />
		<tag k="natural" v="slope" />
		<tag k="place" v="locality" />
		<tag k="ssr:stedsnr" v="287498" />
	</node>
	<node lat="60.44989999943461" lon="5.5088083416960565" id="-73401">
		<tag k="name" v="Skulebotn" />
		<tag k="natural" v="valley" />
		<tag k="place" v="locality" />
		<tag k="ssr:stedsnr" v="287531" />
	</node>
	<node lat="60.486666663698685" lon="5.532125009138027" id="-73405">
		<tag k="fixme" v="consider natural=peak for the most distinct mountains in the district" />
		<tag k="name" v="Troppsåsen" />
		<tag k="natural" v="hill" />
		<tag k="place" v="locality" />
		<tag k="ssr:stedsnr" v="287690" />
	</node>
	<node lat="60.49192500163977" lon="5.545519436394593" id="-73406">
		<tag k="name" v="Seljerinden" />
		<tag k="place" v="locality" />
		<tag k="ssr:stedsnr" v="287693" />
	</node>
	<node lat="60.43824444806262" lon="5.579747217627218" id="-73409">
		<tag k="name" v="Grjothaugen" />
		<tag k="natural" v="hill" />
		<tag k="place" v="locality" />
		<tag k="ssr:stedsnr" v="288438" />
	</node>
	<node lat="60.590627780269955" lon="5.48821666502583" id="-73411">
		<tag k="name" v="Sæterskaret" />
		<tag k="natural" v="hill" />
		<tag k="place" v="locality" />
		<tag k="ssr:stedsnr" v="288491" />
	</node>
	<node lat="60.5129111078314" lon="5.4698972222927855" id="-73415">
		<tag k="fixme" v="consider natural=peak for the most distinct mountains in the district" />
		<tag k="name" v="Fjellet" />
		<tag k="natural" v="hill" />
		<tag k="place" v="locality" />
		<tag k="ssr:stedsnr" v="288679" />
	</node>
	<node lat="60.50984721971005" lon="5.569427773191806" id="-73416">
		<tag k="name" v="Nipena" />
		<tag k="natural" v="hill" />
		<tag k="place" v="locality" />
		<tag k="ssr:stedsnr" v="288698" />
	</node>
	<node lat="60.51887221856906" lon="5.387800000155357" id="-73417">
		<tag k="name" v="Haugen" />
		<tag k="natural" v="hill" />
		<tag k="place" v="locality" />
		<tag k="ssr:stedsnr" v="288813" />
	</node>
	<node lat="60.68674444855663" lon="5.660019449983366" id="-73425">
		<tag k="name" v="Storaskaret" />
		<tag k="natural" v="valley" />
		<tag k="place" v="locality" />
		<tag k="ssr:stedsnr" v="309394" />
	</node>
	<node lat="60.55562778088462" lon="5.527458326298875" id="-73428">
		<tag k="name" v="Drevheia" />
		<tag k="natural" v="hill" />
		<tag k="place" v="locality" />
		<tag k="ssr:stedsnr" v="309631" />
	</node>
	<node lat="60.63327499667786" lon="5.624444450509637" id="-73430">
		<tag k="fixme" v="consider natural=peak for the most distinct mountains in the district" />
		<tag k="name" v="Flærne" />
		<tag k="natural" v="hill" />
		<tag k="place" v="locality" />
		<tag k="ssr:stedsnr" v="309715" />
	</node>
	<node lat="60.52576389296558" lon="5.589938893266932" id="-73432">
		<tag k="alt_name" v="Olshovden, vestre" />
		<tag k="name" v="Vestre Olshovden" />
		<tag k="natural" v="hill" />
		<tag k="place" v="locality" />
		<tag k="ssr:stedsnr" v="309920" />
	</node>
	<node lat="60.50312500219547" lon="5.5101583307846385" id="-73434">
		<tag k="name" v="Torvelia" />
		<tag k="natural" v="slope" />
		<tag k="place" v="locality" />
		<tag k="ssr:stedsnr" v="309999" />
	</node>
	<node lat="60.54030555836244" lon="5.365211108074271" id="-73435">
		<tag k="name" v="Jordarinden" />
		<tag k="natural" v="slope" />
		<tag k="place" v="locality" />
		<tag k="ssr:stedsnr" v="310405" />
	</node>
	<node lat="60.49347499894752" lon="5.500138887450428" id="-73438">
		<tag k="fixme" v="consider natural=peak for the most distinct mountains in the district" />
		<tag k="name" v="Rindakletten" />
		<tag k="natural" v="hill" />
		<tag k="place" v="locality" />
		<tag k="ssr:stedsnr" v="468410" />
	</node>
	<node lat="60.51943055339387" lon="5.495633328409859" id="-73439">
		<tag k="name" v="Leitet" />
		<tag k="place" v="locality" />
		<tag k="ssr:stedsnr" v="468721" />
	</node>
	<node lat="60.5060305554314" lon="5.521872226477371" id="-73440">
		<tag k="name" v="Nepegardstangen" />
		<tag k="natural" v="hill" />
		<tag k="place" v="locality" />
		<tag k="ssr:stedsnr" v="468696" />
	</node>
	<node lat="60.6358166687089" lon="5.601027772767153" id="-73441">
		<tag k="name" v="Halsane" />
		<tag k="place" v="locality" />
		<tag k="ssr:stedsnr" v="469432" />
	</node>
	<node lat="60.641944443699956" lon="5.611616666191095" id="-73442">
		<tag k="name" v="Kleivelandsdalen" />
		<tag k="natural" v="valley" />
		<tag k="place" v="locality" />
		<tag k="ssr:stedsnr" v="469434" />
	</node>
	<node lat="60.44887499905643" lon="5.554155547042019" id="-73448">
		<tag k="fixme" v="consider natural=peak for the most distinct mountains in the district" />
		<tag k="name" v="Stegane" />
		<tag k="natural" v="hill" />
		<tag k="place" v="locality" />
		<tag k="ssr:stedsnr" v="469519" />
	</node>
	<node lat="60.50158055531173" lon="5.446588883377706" id="-73449">
		<tag k="name" v="Trossdalen" />
		<tag k="natural" v="valley" />
		<tag k="place" v="locality" />
		<tag k="ssr:stedsnr" v="469535" />
	</node>
	<node lat="60.482622225043926" lon="5.5373555593596056" id="-73451">
		<tag k="fixme" v="consider natural=peak for the most distinct mountains in the district" />
		<tag k="name" v="Troppsåsen" />
		<tag k="natural" v="hill" />
		<tag k="place" v="locality" />
		<tag k="ssr:stedsnr" v="469649" />
	</node>
	<node lat="60.525897218815075" lon="5.555672225367712" id="-73452">
		<tag k="name" v="Stemmeleitet" />
		<tag k="place" v="locality" />
		<tag k="ssr:stedsnr" v="469694" />
	</node>
	<node lat="60.52768888719334" lon="5.362944452163502" id="-73454">
		<tag k="name" v="Nobba" />
		<tag k="natural" v="hill" />
		<tag k="place" v="locality" />
		<tag k="ssr:stedsnr" v="469801" />
	</node>
	<node lat="60.52625277665644" lon="5.450405549487458" id="-73457">
		<tag k="name" v="Svena" />
		<tag k="natural" v="hill" />
		<tag k="place" v="locality" />
		<tag k="ssr:stedsnr" v="469839" />
	</node>
	<node lat="60.472327778594554" lon="5.625952784574005" id="-73460">
		<tag k="fixme" v="consider natural=peak for the most distinct mountains in the district" />
		<tag k="name" v="Hovden" />
		<tag k="natural" v="hill" />
		<tag k="place" v="locality" />
		<tag k="ssr:stedsnr" v="470575" />
	</node>
	<node lat="60.47140277649431" lon="5.629108327524552" id="-73461">
		<tag k="name" v="Skrubbedalen" />
		<tag k="natural" v="valley" />
		<tag k="place" v="locality" />
		<tag k="ssr:stedsnr" v="470576" />
	</node>
	<node lat="60.458888893396285" lon="5.617352778887148" id="-73463">
		<tag k="name" v="Trollskaret" />
		<tag k="natural" v="hill" />
		<tag k="place" v="locality" />
		<tag k="ssr:stedsnr" v="470586" />
	</node>
	<node lat="60.52574722123094" lon="5.634347214359206" id="-73464">
		<tag k="fixme" v="consider natural=peak for the most distinct mountains in the district" />
		<tag k="name" v="Åsane" />
		<tag k="natural" v="hill" />
		<tag k="place" v="locality" />
		<tag k="ssr:stedsnr" v="470589" />
	</node>
	<node lat="60.483825002165155" lon="5.5468472139682685" id="-73470">
		<tag k="name" v="Mjådalen" />
		<tag k="natural" v="valley" />
		<tag k="place" v="locality" />
		<tag k="ssr:stedsnr" v="470759" />
	</node>
	<node lat="60.534630556504695" lon="5.420191660265153" id="-73471">
		<tag k="name" v="Burhaugen" />
		<tag k="natural" v="hill" />
		<tag k="place" v="locality" />
		<tag k="ssr:stedsnr" v="470838" />
	</node>
	<node lat="60.647208335306885" lon="5.632180560305858" id="-73474">
		<tag k="name" v="Kalvedalen" />
		<tag k="natural" v="valley" />
		<tag k="place" v="locality" />
		<tag k="ssr:stedsnr" v="347309" />
	</node>
	<node lat="60.48071666282863" lon="5.5009777802767825" id="-73475">
		<tag k="name" v="Slettebrekkena" />
		<tag k="natural" v="slope" />
		<tag k="place" v="locality" />
		<tag k="ssr:stedsnr" v="347462" />
	</node>
	<node lat="60.50588056010797" lon="5.511758341869802" id="-73476">
		<tag k="name" v="Vassheia" />
		<tag k="place" v="locality" />
		<tag k="ssr:stedsnr" v="347705" />
	</node>
	<node lat="60.50347222491318" lon="5.515255558904427" id="-73477">
		<tag k="name" v="Geilane" />
		<tag k="natural" v="hill" />
		<tag k="place" v="locality" />
		<tag k="ssr:stedsnr" v="347709" />
	</node>
	<node lat="60.51605555830683" lon="5.411780564187269" id="-73478">
		<tag k="fixme" v="consider natural=peak for the most distinct mountains in the district" />
		<tag k="name" v="Austrefjell" />
		<tag k="natural" v="hill" />
		<tag k="place" v="locality" />
		<tag k="ssr:stedsnr" v="348364" />
	</node>
	<node lat="60.54658333401502" lon="5.437344449375278" id="-73480">
		<tag k="fixme" v="consider natural=peak for the most distinct mountains in the district" />
		<tag k="name" v="Vasskletten" />
		<tag k="natural" v="hill" />
		<tag k="place" v="locality" />
		<tag k="ssr:stedsnr" v="348375" />
	</node>
	<node lat="60.627052777128974" lon="5.589513896984841" id="-73482">
		<tag k="name" v="Lutane" />
		<tag k="natural" v="hill" />
		<tag k="place" v="locality" />
		<tag k="ssr:stedsnr" v="348412" />
	</node>
	<node lat="60.49745277881061" lon="5.671724996912275" id="-73484">
		<tag k="name" v="Sethaugen" />
		<tag k="natural" v="hill" />
		<tag k="place" v="locality" />
		<tag k="ssr:stedsnr" v="348557" />
	</node>
	<node lat="60.52498333211461" lon="5.611683326011265" id="-73485">
		<tag k="name" v="Svartahammaren" />
		<tag k="natural" v="hill" />
		<tag k="place" v="locality" />
		<tag k="ssr:stedsnr" v="348577" />
	</node>
	<node lat="60.49308332884324" lon="5.4530999974429655" id="-73487">
		<tag k="fixme" v="consider natural=peak for the most distinct mountains in the district" />
		<tag k="name" v="Høgaasen" />
		<tag k="natural" v="hill" />
		<tag k="place" v="locality" />
		<tag k="ssr:stedsnr" v="348757" />
	</node>
	<node lat="60.44789999659782" lon="5.536258342731591" id="-73488">
		<tag k="fixme" v="consider natural=peak for the most distinct mountains in the district" />
		<tag k="name" v="Seteråsen" />
		<tag k="natural" v="hill" />
		<tag k="place" v="locality" />
		<tag k="ssr:stedsnr" v="348459" />
	</node>
	<node lat="60.45088611456775" lon="5.510319437683906" id="-73489">
		<tag k="name" v="Raunevollen" />
		<tag k="place" v="locality" />
		<tag k="ssr:stedsnr" v="348469" />
	</node>
	<node lat="60.49803333745139" lon="5.551627780093946" id="-73490">
		<tag k="name" v="Varhaugen" />
		<tag k="natural" v="hill" />
		<tag k="place" v="locality" />
		<tag k="ssr:stedsnr" v="348613" />
	</node>
	<node lat="60.49820555357823" lon="5.557319442205092" id="-73491">
		<tag k="name" v="Rishaugen" />
		<tag k="natural" v="hill" />
		<tag k="place" v="locality" />
		<tag k="ssr:stedsnr" v="348614" />
	</node>
	<node lat="60.482555552051195" lon="5.560233335278258" id="-73492">
		<tag k="name" v="Gotena" />
		<tag k="natural" v="hill" />
		<tag k="place" v="locality" />
		<tag k="ssr:stedsnr" v="348619" />
	</node>
	<node lat="60.689541668505505" lon="5.620194448723322" id="-73500">
		<tag k="fixme" v="consider natural=peak for the most distinct mountains in the district" />
		<tag k="name" v="Verafjellet" />
		<tag k="natural" v="hill" />
		<tag k="place" v="locality" />
		<tag k="ssr:stedsnr" v="370419" />
	</node>
	<node lat="60.624124999365655" lon="5.620755564038205" id="-73507">
		<tag k="name" v="Utløgjelet" />
		<tag k="natural" v="valley" />
		<tag k="place" v="locality" />
		<tag k="ssr:stedsnr" v="370720" />
	</node>
	<node lat="60.522849998933545" lon="5.661208337855743" id="-73513">
		<tag k="fixme" v="consider natural=peak for the most distinct mountains in the district" />
		<tag k="name" v="Husfjellet" />
		<tag k="natural" v="hill" />
		<tag k="place" v="locality" />
		<tag k="ssr:stedsnr" v="370971" />
	</node>
	<node lat="60.51585000049168" lon="5.617050005112937" id="-73514">
		<tag k="name" v="Brunene" />
		<tag k="natural" v="hill" />
		<tag k="place" v="locality" />
		<tag k="ssr:stedsnr" v="370973" />
	</node>
	<node lat="60.43226111483705" lon="5.540013894762623" id="-73515">
		<tag k="name" v="Kolabakken" />
		<tag k="natural" v="slope" />
		<tag k="place" v="locality" />
		<tag k="ssr:stedsnr" v="408504" />
	</node>
	<node lat="60.654008335639574" lon="5.617355553906545" id="-73519">
		<tag k="name" v="Brunane" />
		<tag k="natural" v="hill" />
		<tag k="place" v="locality" />
		<tag k="ssr:stedsnr" v="409413" />
	</node>
	<node lat="60.49247500417346" lon="5.6921777847094575" id="-73525">
		<tag k="name" v="Såtebotnen" />
		<tag k="natural" v="valley" />
		<tag k="place" v="locality" />
		<tag k="ssr:stedsnr" v="409555" />
	</node>
	<node lat="60.490180558121715" lon="5.693622228232882" id="-73526">
		<tag k="name" v="Olsnessåta" />
		<tag k="natural" v="hill" />
		<tag k="place" v="locality" />
		<tag k="ssr:stedsnr" v="409556" />
	</node>
	<node lat="60.47686388527356" lon="5.4647111184146135" id="-73527">
		<tag k="name" v="Votladalen" />
		<tag k="natural" v="valley" />
		<tag k="place" v="locality" />
		<tag k="ssr:stedsnr" v="409807" />
	</node>
	<node lat="60.52834444836836" lon="5.399261118628632" id="-73528">
		<tag k="name" v="Nonhaugen" />
		<tag k="natural" v="hill" />
		<tag k="place" v="locality" />
		<tag k="ssr:stedsnr" v="409810" />
	</node>
	<node lat="60.54314444257373" lon="5.39032500544861" id="-73529">
		<tag k="name" v="Skokhamrane" />
		<tag k="natural" v="hill" />
		<tag k="place" v="locality" />
		<tag k="ssr:stedsnr" v="409819" />
	</node>
	<node lat="60.54209680697854" lon="5.433774493954423" id="-73530">
		<tag k="fixme" v="consider natural=peak for the most distinct mountains in the district" />
		<tag k="name" v="Tirevollsfjellet" />
		<tag k="natural" v="hill" />
		<tag k="place" v="locality" />
		<tag k="ssr:stedsnr" v="409824" />
	</node>
	<node lat="60.5170388868923" lon="5.394355553180131" id="-73531">
		<tag k="name" v="Nerdalen" />
		<tag k="natural" v="valley" />
		<tag k="place" v="locality" />
		<tag k="ssr:stedsnr" v="409830" />
	</node>
	<node lat="60.48514722440723" lon="5.5574111164357545" id="-73532">
		<tag k="name" v="Kollhaugen" />
		<tag k="natural" v="hill" />
		<tag k="place" v="locality" />
		<tag k="ssr:stedsnr" v="409842" />
	</node>
	<node lat="60.546305555375284" lon="5.379636110892865" id="-73533">
		<tag k="fixme" v="consider natural=peak for the most distinct mountains in the district" />
		<tag k="name" v="Rundåsen" />
		<tag k="natural" v="hill" />
		<tag k="place" v="locality" />
		<tag k="ssr:stedsnr" v="409846" />
	</node>
	<node lat="60.5482083309416" lon="5.379777784981433" id="-73534">
		<tag k="name" v="Kolhovden" />
		<tag k="natural" v="hill" />
		<tag k="place" v="locality" />
		<tag k="ssr:stedsnr" v="409848" />
	</node>
	<node lat="60.467661111276165" lon="5.491294446382273" id="-73535">
		<tag k="name" v="Fossadalane" />
		<tag k="natural" v="valley" />
		<tag k="place" v="locality" />
		<tag k="ssr:stedsnr" v="409849" />
	</node>
	<node lat="60.450161109235786" lon="5.558758331832322" id="-73538">
		<tag k="alt_name" v="Haklene" />
		<tag k="fixme" v="consider natural=peak for the most distinct mountains in the district" />
		<tag k="name" v="Hoklane" />
		<tag k="natural" v="hill" />
		<tag k="place" v="locality" />
		<tag k="ssr:stedsnr" v="490024" />
	</node>
	<node lat="60.48225555132624" lon="5.516911112668413" id="-73539">
		<tag k="fixme" v="consider natural=peak for the most distinct mountains in the district" />
		<tag k="name" v="Hjertåsen" />
		<tag k="natural" v="hill" />
		<tag k="place" v="locality" />
		<tag k="ssr:stedsnr" v="490976" />
	</node>
	<node lat="60.48424189087916" lon="5.651593587337527" id="-73544">
		<tag k="fixme" v="consider natural=peak for the most distinct mountains in the district" />
		<tag k="name" v="Brøknipa" />
		<tag k="natural" v="hill" />
		<tag k="place" v="locality" />
		<tag k="ssr:stedsnr" v="490974" />
	</node>
	<node lat="60.53372499842645" lon="5.549852776531403" id="-73553">
		<tag k="fixme" v="consider natural=peak for the most distinct mountains in the district" />
		<tag k="name" v="Fitjabruna" />
		<tag k="natural" v="hill" />
		<tag k="place" v="locality" />
		<tag k="ssr:stedsnr" v="431895" />
	</node>
	<node lat="60.534800250844086" lon="5.564564675416022" id="-73554">
		<tag k="fixme" v="consider natural=peak for the most distinct mountains in the district" />
		<tag k="name" v="Rotten" />
		<tag k="natural" v="hill" />
		<tag k="place" v="locality" />
		<tag k="ssr:stedsnr" v="431896" />
	</node>
	<node lat="60.507286112408394" lon="5.531616672396416" id="-73566">
		<tag k="fixme" v="consider natural=peak for the most distinct mountains in the district" />
		<tag k="name" v="Heggelia" />
		<tag k="natural" v="hill" />
		<tag k="place" v="locality" />
		<tag k="ssr:stedsnr" v="491947" />
	</node>
	<node lat="60.513577780200606" lon="5.505619446648182" id="-73567">
		<tag k="fixme" v="consider natural=peak for the most distinct mountains in the district" />
		<tag k="name" v="Heiane" />
		<tag k="natural" v="hill" />
		<tag k="place" v="locality" />
		<tag k="ssr:stedsnr" v="491952" />
	</node>
	<node lat="60.47003332986671" lon="5.512872223608165" id="-73570">
		<tag k="fixme" v="consider natural=peak for the most distinct mountains in the district" />
		<tag k="name" v="Rødlandsfjellet" />
		<tag k="natural" v="hill" />
		<tag k="place" v="locality" />
		<tag k="ssr:stedsnr" v="491961" />
	</node>
	<node lat="60.519025004007375" lon="5.568225007595221" id="-73572">
		<tag k="fixme" v="consider natural=peak for the most distinct mountains in the district" />
		<tag k="name" v="Bjørnsfjellet" />
		<tag k="natural" v="hill" />
		<tag k="place" v="locality" />
		<tag k="ssr:stedsnr" v="491965" />
	</node>
	<node lat="60.49043889014439" lon="5.696433327036111" id="-73573">
		<tag k="fixme" v="consider natural=peak for the most distinct mountains in the district" />
		<tag k="name" v="Olsnesnipa" />
		<tag k="natural" v="hill" />
		<tag k="place" v="locality" />
		<tag k="ssr:stedsnr" v="491967" />
	</node>
	<node lat="60.54011944571609" lon="5.55331110948356" id="-73575">
		<tag k="name" v="Rudalen" />
		<tag k="natural" v="valley" />
		<tag k="place" v="locality" />
		<tag k="ssr:stedsnr" v="492878" />
	</node>
	<node lat="60.66498888660046" lon="5.64267777425269" id="-73579">
		<tag k="alt_name" v="Barlindbotten" />
		<tag k="name" v="Barlindbotnen" />
		<tag k="natural" v="valley" />
		<tag k="place" v="locality" />
		<tag k="ssr:stedsnr" v="673656" />
	</node>
	<node lat="60.5317750035931" lon="5.648688887286122" id="-73585">
		<tag k="alt_name" v="Rispingadalen" />
		<tag k="name" v="Rispingdalen" />
		<tag k="natural" v="valley" />
		<tag k="place" v="locality" />
		<tag k="ssr:stedsnr" v="673932" />
	</node>
	<node lat="60.51145000217256" lon="5.540030561148725" id="-73588">
		<tag k="name" v="Skaret" />
		<tag k="natural" v="valley" />
		<tag k="place" v="locality" />
		<tag k="ssr:stedsnr" v="673952" />
	</node>
	<node lat="60.556338891249105" lon="5.463186112148314" id="-73592">
		<tag k="name" v="Krosshaugen" />
		<tag k="natural" v="hill" />
		<tag k="place" v="locality" />
		<tag k="ssr:stedsnr" v="674390" />
	</node>
	<node lat="60.49506389123293" lon="5.497874998731387" id="-73593">
		<tag k="name" v="Einliskaret" />
		<tag k="natural" v="hill" />
		<tag k="place" v="locality" />
		<tag k="ssr:stedsnr" v="468414" />
	</node>
	<node lat="60.48287222504391" lon="5.475858339783989" id="-73594">
		<tag k="fixme" v="consider natural=peak for the most distinct mountains in the district" />
		<tag k="name" v="Erstad" />
		<tag k="natural" v="hill" />
		<tag k="place" v="locality" />
		<tag k="ssr:stedsnr" v="468425" />
	</node>
	<node lat="60.51888333232485" lon="5.489088887279715" id="-73596">
		<tag k="name" v="Klyvet" />
		<tag k="natural" v="hill" />
		<tag k="place" v="locality" />
		<tag k="ssr:stedsnr" v="468716" />
	</node>
	<node lat="60.49356110938426" lon="5.707652780610345" id="-73597">
		<tag k="name" v="Lasken" />
		<tag k="place" v="locality" />
		<tag k="ssr:stedsnr" v="468666" />
	</node>
	<node lat="60.52346944817088" lon="5.549738891719897" id="-73598">
		<tag k="name" v="Skreppa" />
		<tag k="place" v="locality" />
		<tag k="ssr:stedsnr" v="468680" />
	</node>
	<node lat="60.50175555410678" lon="5.64514167522345" id="-73602">
		<tag k="name" v="Settleite" />
		<tag k="place" v="locality" />
		<tag k="ssr:stedsnr" v="469485" />
	</node>
	<node lat="60.44535278135294" lon="5.536788884966889" id="-73603">
		<tag k="name" v="Setleitet" />
		<tag k="place" v="locality" />
		<tag k="ssr:stedsnr" v="469514" />
	</node>
	<node lat="60.52362221878568" lon="5.375519442832432" id="-73604">
		<tag k="name" v="Sædalen" />
		<tag k="natural" v="valley" />
		<tag k="place" v="locality" />
		<tag k="ssr:stedsnr" v="469804" />
	</node>
	<node lat="60.47463055168664" lon="5.49734722186335" id="-73606">
		<tag k="name" v="Setlia" />
		<tag k="natural" v="slope" />
		<tag k="place" v="locality" />
		<tag k="ssr:stedsnr" v="469877" />
	</node>
	<node lat="60.610850004278426" lon="5.537380546303274" id="-73608">
		<tag k="name" v="Drangeberget" />
		<tag k="natural" v="hill" />
		<tag k="place" v="locality" />
		<tag k="ssr:stedsnr" v="470523" />
	</node>
	<node lat="60.51585277959855" lon="5.524027772610675" id="-73610">
		<tag k="name" v="Rymla" />
		<tag k="place" v="locality" />
		<tag k="ssr:stedsnr" v="485014" />
	</node>
	<node lat="60.53223610917497" lon="5.417083334787666" id="-73612">
		<tag k="name" v="Tveitaskaret" />
		<tag k="natural" v="valley" />
		<tag k="place" v="locality" />
		<tag k="ssr:stedsnr" v="491403" />
	</node>
	<node lat="60.51302500156148" lon="5.674322226406037" id="-73619">
		<tag k="name" v="Djupedalen" />
		<tag k="natural" v="valley" />
		<tag k="place" v="locality" />
		<tag k="ssr:stedsnr" v="492023" />
	</node>
	<node lat="60.50597777446401" lon="5.413855555090577" id="-73621">
		<tag k="name" v="Heiæ" />
		<tag k="place" v="locality" />
		<tag k="ssr:stedsnr" v="530517" />
	</node>
	<node lat="60.50275555588618" lon="5.425147216916785" id="-73622">
		<tag k="name" v="Tingstadbakken" />
		<tag k="natural" v="slope" />
		<tag k="place" v="locality" />
		<tag k="ssr:stedsnr" v="530521" />
	</node>
	<node lat="60.49082500147674" lon="5.604038892151794" id="-73625">
		<tag k="name" v="Vokhaugane" />
		<tag k="natural" v="hill" />
		<tag k="place" v="locality" />
		<tag k="ssr:stedsnr" v="530589" />
	</node>
	<node lat="60.5128666622984" lon="5.506411104237264" id="-73627">
		<tag k="name" v="Egga" />
		<tag k="place" v="locality" />
		<tag k="ssr:stedsnr" v="530728" />
	</node>
	<node lat="60.44143333495455" lon="5.5734888826648685" id="-73628">
		<tag k="name" v="Smørdalen" />
		<tag k="natural" v="valley" />
		<tag k="place" v="locality" />
		<tag k="ssr:stedsnr" v="530496" />
	</node>
	<node lat="60.47666389244732" lon="5.690011115271574" id="-73629">
		<tag k="name" v="Håhaugen" />
		<tag k="natural" v="hill" />
		<tag k="place" v="locality" />
		<tag k="ssr:stedsnr" v="530605" />
	</node>
	<node lat="60.529055555484504" lon="5.624649998052743" id="-73631">
		<tag k="name" v="Dragebotnane" />
		<tag k="natural" v="valley" />
		<tag k="place" v="locality" />
		<tag k="ssr:stedsnr" v="530617" />
	</node>
	<node lat="60.52611388725284" lon="5.639422223892116" id="-73632">
		<tag k="name" v="Mitlihauane" />
		<tag k="natural" v="hill" />
		<tag k="place" v="locality" />
		<tag k="ssr:stedsnr" v="530621" />
	</node>
	<node lat="60.52196389053447" lon="5.697619441700311" id="-73633">
		<tag k="name" v="Blekastallen" />
		<tag k="natural" v="hill" />
		<tag k="place" v="locality" />
		<tag k="ssr:stedsnr" v="530625" />
	</node>
	<node lat="60.513030554571515" lon="5.618291668214867" id="-73634">
		<tag k="name" v="Kjeipen" />
		<tag k="natural" v="hill" />
		<tag k="place" v="locality" />
		<tag k="ssr:stedsnr" v="530628" />
	</node>
	<node lat="60.51955555829893" lon="5.384416663172678" id="-73635">
		<tag k="name" v="Hylgjane" />
		<tag k="place" v="locality" />
		<tag k="ssr:stedsnr" v="530821" />
	</node>
	<node lat="60.54237500072335" lon="5.370863885049108" id="-73636">
		<tag k="name" v="Rinden" />
		<tag k="place" v="locality" />
		<tag k="ssr:stedsnr" v="530826" />
	</node>
	<node lat="60.45282222264161" lon="5.568536102722881" id="-73638">
		<tag k="name" v="Haverdalen" />
		<tag k="natural" v="valley" />
		<tag k="place" v="locality" />
		<tag k="ssr:stedsnr" v="551012" />
	</node>
	<node lat="60.59084166334607" lon="5.581008326298252" id="-73639">
		<tag k="fixme" v="consider natural=peak for the most distinct mountains in the district" />
		<tag k="name" v="Klubben" />
		<tag k="natural" v="hill" />
		<tag k="place" v="locality" />
		<tag k="ssr:stedsnr" v="551514" />
	</node>
	<node lat="60.58034166417564" lon="5.501783326326275" id="-73640">
		<tag k="fixme" v="consider natural=peak for the most distinct mountains in the district" />
		<tag k="name" v="Åsheimveten" />
		<tag k="natural" v="hill" />
		<tag k="place" v="locality" />
		<tag k="ssr:stedsnr" v="551521" />
	</node>
	<node lat="60.53252500039614" lon="5.510525001092389" id="-73647">
		<tag k="fixme" v="consider natural=peak for the most distinct mountains in the district" />
		<tag k="name" v="Åsen" />
		<tag k="natural" v="hill" />
		<tag k="place" v="locality" />
		<tag k="ssr:stedsnr" v="552903" />
	</node>
	<node lat="60.54197499891684" lon="5.58870555078352" id="-73648">
		<tag k="name" v="Raudberget" />
		<tag k="natural" v="hill" />
		<tag k="place" v="locality" />
		<tag k="ssr:stedsnr" v="552909" />
	</node>
	<node lat="60.533775002822374" lon="5.671808329636416" id="-73649">
		<tag k="fixme" v="consider natural=peak for the most distinct mountains in the district" />
		<tag k="name" v="Rispingen" />
		<tag k="natural" v="hill" />
		<tag k="place" v="locality" />
		<tag k="ssr:stedsnr" v="552937" />
	</node>
	<node lat="60.51394444201" lon="5.4132611083893245" id="-73651">
		<tag k="name" v="Molsteindalen" />
		<tag k="natural" v="valley" />
		<tag k="place" v="locality" />
		<tag k="ssr:stedsnr" v="589309" />
	</node>
	<node lat="60.491883333948046" lon="5.459669441862057" id="-73652">
		<tag k="name" v="Kleivelandsrinden" />
		<tag k="natural" v="hill" />
		<tag k="place" v="locality" />
		<tag k="ssr:stedsnr" v="589310" />
	</node>
	<node lat="60.516483337013916" lon="5.481775000056071" id="-73654">
		<tag k="name" v="Lindhamrane" />
		<tag k="natural" v="hill" />
		<tag k="place" v="locality" />
		<tag k="ssr:stedsnr" v="589716" />
	</node>
	<node lat="60.45814444895703" lon="5.545977785440687" id="-73657">
		<tag k="name" v="Kvernhushola" />
		<tag k="place" v="locality" />
		<tag k="ssr:stedsnr" v="590653" />
	</node>
	<node lat="60.46360277336211" lon="5.555816668388414" id="-73658">
		<tag k="name" v="Viddalen" />
		<tag k="natural" v="valley" />
		<tag k="place" v="locality" />
		<tag k="ssr:stedsnr" v="590654" />
	</node>
	<node lat="60.506294441311034" lon="5.64484721548091" id="-73662">
		<tag k="name" v="Sjunarhaugen" />
		<tag k="natural" v="hill" />
		<tag k="place" v="locality" />
		<tag k="ssr:stedsnr" v="591419" />
	</node>
	<node lat="60.611838885391414" lon="5.561394450064162" id="-73663">
		<tag k="name" v="Høgehaugen" />
		<tag k="natural" v="hill" />
		<tag k="place" v="locality" />
		<tag k="ssr:stedsnr" v="591508" />
	</node>
	<node lat="60.587433337450555" lon="5.493199996408773" id="-73665">
		<tag k="name" v="Svarteberget" />
		<tag k="natural" v="hill" />
		<tag k="place" v="locality" />
		<tag k="ssr:stedsnr" v="591515" />
	</node>
	<node lat="60.4638666706384" lon="5.589547229461935" id="-73667">
		<tag k="name" v="Såtabrekkena" />
		<tag k="natural" v="slope" />
		<tag k="place" v="locality" />
		<tag k="ssr:stedsnr" v="591555" />
	</node>
	<node lat="60.489486113941254" lon="5.682169449450265" id="-73668">
		<tag k="name" v="Langedalen" />
		<tag k="natural" v="valley" />
		<tag k="place" v="locality" />
		<tag k="ssr:stedsnr" v="591556" />
	</node>
	<node lat="60.460800001828765" lon="5.628122220594909" id="-73669">
		<tag k="name" v="Merkjesura" />
		<tag k="natural" v="hill" />
		<tag k="place" v="locality" />
		<tag k="ssr:stedsnr" v="591565" />
	</node>
	<node lat="60.52816389068915" lon="5.6048833303450865" id="-73670">
		<tag k="fixme" v="consider natural=peak for the most distinct mountains in the district" />
		<tag k="name" v="Sakslikleiva" />
		<tag k="natural" v="hill" />
		<tag k="place" v="locality" />
		<tag k="ssr:stedsnr" v="591569" />
	</node>
	<node lat="60.5349611129006" lon="5.654047227959494" id="-73671">
		<tag k="fixme" v="consider natural=peak for the most distinct mountains in the district" />
		<tag k="name" v="Stolfjellet" />
		<tag k="natural" v="hill" />
		<tag k="place" v="locality" />
		<tag k="ssr:stedsnr" v="591572" />
	</node>
	<node lat="60.52350277520292" lon="5.6757138908725455" id="-73672">
		<tag k="name" v="Kvernhushaug" />
		<tag k="natural" v="hill" />
		<tag k="place" v="locality" />
		<tag k="ssr:stedsnr" v="591578" />
	</node>
	<node lat="60.50071944194806" lon="5.635436104549962" id="-73673">
		<tag k="name" v="Kollhaugane" />
		<tag k="natural" v="hill" />
		<tag k="place" v="locality" />
		<tag k="ssr:stedsnr" v="591579" />
	</node>
	<node lat="60.495072221468774" lon="5.55216389555253" id="-73674">
		<tag k="name" v="Varland" />
		<tag k="place" v="locality" />
		<tag k="ssr:stedsnr" v="591615" />
	</node>
	<node lat="60.53215000291231" lon="5.392080547814272" id="-73675">
		<tag k="name" v="Varden" />
		<tag k="natural" v="hill" />
		<tag k="place" v="locality" />
		<tag k="ssr:stedsnr" v="591803" />
	</node>
	<node lat="60.566100003973375" lon="5.4598361154354595" id="-73676">
		<tag k="fixme" v="consider natural=peak for the most distinct mountains in the district" />
		<tag k="name" v="Litleåsen" />
		<tag k="natural" v="hill" />
		<tag k="place" v="locality" />
		<tag k="ssr:stedsnr" v="591807" />
	</node>
	<node lat="60.53128055360749" lon="5.434847229569874" id="-73677">
		<tag k="name" v="Hasane" />
		<tag k="place" v="locality" />
		<tag k="ssr:stedsnr" v="591823" />
	</node>
	<node lat="60.5086750029718" lon="5.546091663223388" id="-73678">
		<tag k="fixme" v="consider natural=peak for the most distinct mountains in the district" />
		<tag k="name" v="Furuåsen" />
		<tag k="natural" v="hill" />
		<tag k="place" v="locality" />
		<tag k="ssr:stedsnr" v="591702" />
	</node>
	<node lat="60.50755000202166" lon="5.543161103914586" id="-73679">
		<tag k="name" v="Sessane" />
		<tag k="natural" v="hill" />
		<tag k="place" v="locality" />
		<tag k="ssr:stedsnr" v="591703" />
	</node>
	<node lat="60.53832777738303" lon="5.376249992138391" id="-73680">
		<tag k="name" v="Sandalsrinden" />
		<tag k="natural" v="hill" />
		<tag k="place" v="locality" />
		<tag k="ssr:stedsnr" v="591776" />
	</node>
	<node lat="60.49228333750432" lon="5.567108340046631" id="-73681">
		<tag k="name" v="Klypet" />
		<tag k="natural" v="hill" />
		<tag k="place" v="locality" />
		<tag k="ssr:stedsnr" v="591852" />
	</node>
	<node lat="60.54640345423306" lon="5.427386601876891" id="-73692">
		<tag k="name" v="Orratuva" />
		<tag k="natural" v="hill" />
		<tag k="place" v="locality" />
		<tag k="ssr:stedsnr" v="613411" />
	</node>
	<node lat="60.51420277650824" lon="5.5029499932023365" id="-73695">
		<tag k="name" v="Fatnaplasset" />
		<tag k="natural" v="hill" />
		<tag k="place" v="locality" />
		<tag k="ssr:stedsnr" v="650714" />
	</node>
	<node lat="60.518050002149124" lon="5.502102774698071" id="-73696">
		<tag k="name" v="Hestahjellen" />
		<tag k="place" v="locality" />
		<tag k="ssr:stedsnr" v="650721" />
	</node>
	<node lat="60.501247220844064" lon="5.506302779205507" id="-73697">
		<tag k="name" v="Storhammaren" />
		<tag k="natural" v="hill" />
		<tag k="place" v="locality" />
		<tag k="ssr:stedsnr" v="650684" />
	</node>
	<node lat="60.52430555994749" lon="5.531241668551779" id="-73698">
		<tag k="name" v="Vassbotnane" />
		<tag k="natural" v="valley" />
		<tag k="place" v="locality" />
		<tag k="ssr:stedsnr" v="650692" />
	</node>
	<node lat="60.52243333454267" lon="5.543436108531228" id="-73699">
		<tag k="name" v="Jonsdalen" />
		<tag k="natural" v="valley" />
		<tag k="place" v="locality" />
		<tag k="ssr:stedsnr" v="650699" />
	</node>
	<node lat="60.51285833739201" lon="5.416833337943876" id="-73700">
		<tag k="name" v="Eikhaugen" />
		<tag k="natural" v="hill" />
		<tag k="place" v="locality" />
		<tag k="ssr:stedsnr" v="651393" />
	</node>
	<node lat="60.49676111271146" lon="5.668002778243506" id="-73703">
		<tag k="name" v="Båtaleitshaugen" />
		<tag k="natural" v="hill" />
		<tag k="place" v="locality" />
		<tag k="ssr:stedsnr" v="651603" />
	</node>
	<node lat="60.51506110811325" lon="5.618263881949176" id="-73705">
		<tag k="name" v="Revurstallane" />
		<tag k="natural" v="hill" />
		<tag k="place" v="locality" />
		<tag k="ssr:stedsnr" v="651620" />
	</node>
	<node lat="60.52034166635988" lon="5.606266662863453" id="-73706">
		<tag k="fixme" v="consider natural=peak for the most distinct mountains in the district" />
		<tag k="name" v="Geitnipa" />
		<tag k="natural" v="hill" />
		<tag k="place" v="locality" />
		<tag k="ssr:stedsnr" v="651634" />
	</node>
	<node lat="60.493924999677745" lon="5.531077780537882" id="-73707">
		<tag k="fixme" v="consider natural=peak for the most distinct mountains in the district" />
		<tag k="name" v="Åsen" />
		<tag k="natural" v="hill" />
		<tag k="place" v="locality" />
		<tag k="ssr:stedsnr" v="651641" />
	</node>
	<node lat="60.47526666629501" lon="5.568813882452041" id="-73708">
		<tag k="fixme" v="consider natural=peak for the most distinct mountains in the district" />
		<tag k="name" v="Garlia" />
		<tag k="natural" v="hill" />
		<tag k="place" v="locality" />
		<tag k="ssr:stedsnr" v="651648" />
	</node>
	<node lat="60.47424721809513" lon="5.565525008743597" id="-73709">
		<tag k="name" v="Rishaugen" />
		<tag k="natural" v="hill" />
		<tag k="place" v="locality" />
		<tag k="ssr:stedsnr" v="651649" />
	</node>
	<node lat="60.51663888517873" lon="5.479316664934237" id="-73712">
		<tag k="name" v="Gjela" />
		<tag k="natural" v="gorge" />
		<tag k="ssr:stedsnr" v="651707" />
	</node>
	<node lat="60.57999999868624" lon="5.510091672492471" id="-73713">
		<tag k="name" v="Fitjadalen" />
		<tag k="natural" v="valley" />
		<tag k="place" v="locality" />
		<tag k="ssr:stedsnr" v="651748" />
	</node>
	<node lat="60.490886113748324" lon="5.433891662856182" id="-73715">
		<tag k="fixme" v="consider natural=peak for the most distinct mountains in the district" />
		<tag k="name" v="Nedre Fjellet" />
		<tag k="natural" v="hill" />
		<tag k="place" v="locality" />
		<tag k="ssr:stedsnr" v="651809" />
	</node>
	<node lat="60.44707499977702" lon="5.511738896171588" id="-73717">
		<tag k="alt_name" v="Åseimfjellet" />
		<tag k="fixme" v="consider natural=peak for the most distinct mountains in the district" />
		<tag k="name" v="Åsheimfjellet" />
		<tag k="natural" v="hill" />
		<tag k="place" v="locality" />
		<tag k="ssr:stedsnr" v="672025" />
	</node>
	<node lat="60.52607222064655" lon="5.451136116239128" id="-73722">
		<tag k="name" v="Høgheia" />
		<tag k="natural" v="hill" />
		<tag k="place" v="locality" />
		<tag k="ssr:stedsnr" v="673508" />
	</node>
	<node lat="60.575011113117895" lon="5.48820833874923" id="-73724">
		<tag k="name" v="Fløyen" />
		<tag k="natural" v="slope" />
		<tag k="place" v="locality" />
		<tag k="ssr:stedsnr" v="673567" />
	</node>
	<node lat="60.607850001114755" lon="5.5917666744701515" id="-73726">
		<tag k="fixme" v="consider natural=peak for the most distinct mountains in the district" />
		<tag k="name" v="Sørkletten" />
		<tag k="natural" v="hill" />
		<tag k="place" v="locality" />
		<tag k="ssr:stedsnr" v="673731" />
	</node>
	<node lat="60.490026120488714" lon="5.67370672116703" id="-73731">
		<tag k="name" v="Trollskaret" />
		<tag k="natural" v="valley" />
		<tag k="place" v="locality" />
		<tag k="ssr:stedsnr" v="673970" />
	</node>
	<node lat="60.487641669503304" lon="5.522030560792461" id="-73733">
		<tag k="fixme" v="consider natural=peak for the most distinct mountains in the district" />
		<tag k="name" v="Midtrinden" />
		<tag k="natural" v="hill" />
		<tag k="place" v="locality" />
		<tag k="ssr:stedsnr" v="893433" />
	</node>
	<node lat="60.47736944096604" lon="5.505436120311388" id="-73736">
		<tag k="name" v="Skorvenden" />
		<tag k="natural" v="valley" />
		<tag k="place" v="locality" />
		<tag k="ssr:stedsnr" v="893450" />
	</node>
	<node lat="60.50325555958805" lon="5.5028555567863355" id="-73737">
		<tag k="name" v="Vevleheiane" />
		<tag k="natural" v="hill" />
		<tag k="place" v="locality" />
		<tag k="ssr:stedsnr" v="893688" />
	</node>
	<node lat="60.452036109498025" lon="5.578888883433123" id="-73739">
		<tag k="name" v="Eggene" />
		<tag k="natural" v="hill" />
		<tag k="place" v="locality" />
		<tag k="ssr:stedsnr" v="894532" />
	</node>
	<node lat="60.64143888466121" lon="5.633802778442378" id="-73744">
		<tag k="name" v="Fuglakammen" />
		<tag k="place" v="locality" />
		<tag k="ssr:stedsnr" v="894861" />
	</node>
	<node lat="60.52901944714177" lon="5.636124993871795" id="-73749">
		<tag k="name" v="Vasslia" />
		<tag k="natural" v="slope" />
		<tag k="place" v="locality" />
		<tag k="ssr:stedsnr" v="895564" />
	</node>
	<node lat="60.51860555432971" lon="5.470266674021886" id="-73750">
		<tag k="name" v="Heidi" />
		<tag k="place" v="locality" />
		<tag k="ssr:stedsnr" v="895695" />
	</node>
	<node lat="60.51808610799967" lon="5.545088890341454" id="-73752">
		<tag k="name" v="Meskadalen" />
		<tag k="natural" v="valley" />
		<tag k="place" v="locality" />
		<tag k="ssr:stedsnr" v="895738" />
	</node>
	<node lat="60.516333333289225" lon="5.542586115457248" id="-73753">
		<tag k="name" v="Hamrane" />
		<tag k="natural" v="hill" />
		<tag k="place" v="locality" />
		<tag k="ssr:stedsnr" v="895739" />
	</node>
	<node lat="60.470363889013" lon="5.483011102481625" id="-73755">
		<tag k="name" v="Rindane" />
		<tag k="place" v="locality" />
		<tag k="ssr:stedsnr" v="895846" />
	</node>
	<node lat="60.47855555534298" lon="5.563858339184866" id="-73756">
		<tag k="name" v="Gjela" />
		<tag k="natural" v="gorge" />
		<tag k="ssr:stedsnr" v="895851" />
	</node>
	<node lat="60.530422225618146" lon="5.549008335024099" id="-73763">
		<tag k="name" v="Marihjellane" />
		<tag k="natural" v="gorge" />
		<tag k="ssr:stedsnr" v="711695" />
	</node>
	<node lat="60.49916944415464" lon="5.475530552016751" id="-73765">
		<tag k="name" v="Gloppeskaret" />
		<tag k="natural" v="hill" />
		<tag k="place" v="locality" />
		<tag k="ssr:stedsnr" v="711734" />
	</node>
	<node lat="60.66629166899134" lon="5.619458339566528" id="-73766">
		<tag k="name" v="Kurova" />
		<tag k="natural" v="hill" />
		<tag k="place" v="locality" />
		<tag k="ssr:stedsnr" v="712404" />
	</node>
	<node lat="60.44340000314112" lon="5.523797230913373" id="-73767">
		<tag k="name" v="Tveitadalen" />
		<tag k="natural" v="valley" />
		<tag k="place" v="locality" />
		<tag k="ssr:stedsnr" v="712471" />
	</node>
	<node lat="60.44921389246138" lon="5.525861106491943" id="-73768">
		<tag k="fixme" v="consider natural=peak for the most distinct mountains in the district" />
		<tag k="name" v="Lyngåsen" />
		<tag k="natural" v="hill" />
		<tag k="place" v="locality" />
		<tag k="ssr:stedsnr" v="712472" />
	</node>
	<node lat="60.45004166505727" lon="5.51678333202261" id="-73769">
		<tag k="name" v="Kyrkjerinden" />
		<tag k="place" v="locality" />
		<tag k="ssr:stedsnr" v="712474" />
	</node>
	<node lat="60.455280557584764" lon="5.525363894496611" id="-73770">
		<tag k="name" v="Grjothaugen" />
		<tag k="natural" v="hill" />
		<tag k="place" v="locality" />
		<tag k="ssr:stedsnr" v="712476" />
	</node>
	<node lat="60.69541666387201" lon="5.660674997912791" id="-73771">
		<tag k="name" v="Vassliskaret" />
		<tag k="natural" v="hill" />
		<tag k="place" v="locality" />
		<tag k="ssr:stedsnr" v="712384" />
	</node>
	<node lat="60.536941665542294" lon="5.584322217276515" id="-73772">
		<tag k="name" v="Espevold" />
		<tag k="natural" v="hill" />
		<tag k="place" v="locality" />
		<tag k="ssr:stedsnr" v="712535" />
	</node>
	<node lat="60.52865278107627" lon="5.597991674022938" id="-73773">
		<tag k="name" v="Klalheldrane" />
		<tag k="place" v="locality" />
		<tag k="ssr:stedsnr" v="712574" />
	</node>
	<node lat="60.469238890957875" lon="5.575308338331689" id="-73777">
		<tag k="name" v="Slåttena" />
		<tag k="place" v="locality" />
		<tag k="ssr:stedsnr" v="712633" />
	</node>
	<node lat="60.508911107136996" lon="5.470513887697399" id="-73778">
		<tag k="name" v="Krossen" />
		<tag k="place" v="locality" />
		<tag k="ssr:stedsnr" v="712689" />
	</node>
	<node lat="60.53629166796491" lon="5.400266665697156" id="-73781">
		<tag k="name" v="Heiane" />
		<tag k="place" v="locality" />
		<tag k="ssr:stedsnr" v="712787" />
	</node>
	<node lat="60.52740555299515" lon="5.410900000822722" id="-73782">
		<tag k="name" v="Stallane" />
		<tag k="place" v="locality" />
		<tag k="ssr:stedsnr" v="712798" />
	</node>
	<node lat="60.53913055478797" lon="5.3547888972182225" id="-73783">
		<tag k="name" v="Skjenet" />
		<tag k="natural" v="hill" />
		<tag k="place" v="locality" />
		<tag k="ssr:stedsnr" v="712800" />
	</node>
	<node lat="60.48999444892894" lon="5.439222224579692" id="-73784">
		<tag k="fixme" v="consider natural=peak for the most distinct mountains in the district" />
		<tag k="name" v="Reigstadfjellet" />
		<tag k="natural" v="hill" />
		<tag k="place" v="locality" />
		<tag k="ssr:stedsnr" v="712802" />
	</node>
	<node lat="60.45173888474737" lon="5.589336118118007" id="-73790">
		<tag k="name" v="Vindstallane" />
		<tag k="natural" v="hill" />
		<tag k="place" v="locality" />
		<tag k="ssr:stedsnr" v="733024" />
	</node>
	<node lat="60.487697219821705" lon="5.660725002075632" id="-73791">
		<tag k="fixme" v="consider natural=peak for the most distinct mountains in the district" />
		<tag k="name" v="Hæddena" />
		<tag k="natural" v="hill" />
		<tag k="place" v="locality" />
		<tag k="ssr:stedsnr" v="733965" />
	</node>
	<node lat="60.492700002071345" lon="5.631283325016624" id="-73792">
		<tag k="fixme" v="consider natural=peak for the most distinct mountains in the district" />
		<tag k="name" v="Flatafjellet" />
		<tag k="natural" v="hill" />
		<tag k="place" v="locality" />
		<tag k="ssr:stedsnr" v="733973" />
	</node>
	<node lat="60.701961110547145" lon="5.659155553500099" id="-73794">
		<tag k="alt_name" v="Vossalia" />
		<tag k="name" v="Vasslia" />
		<tag k="natural" v="slope" />
		<tag k="place" v="locality" />
		<tag k="ssr:stedsnr" v="734305" />
	</node>
	<node lat="60.584127773827525" lon="5.557566660794092" id="-73796">
		<tag k="fixme" v="consider natural=peak for the most distinct mountains in the district" />
		<tag k="name" v="Løtveitfjellet" />
		<tag k="natural" v="hill" />
		<tag k="place" v="locality" />
		<tag k="ssr:stedsnr" v="734588" />
	</node>
	<node lat="60.63005555958609" lon="5.588597228324939" id="-73799">
		<tag k="name" v="Eike" />
		<tag k="natural" v="slope" />
		<tag k="place" v="locality" />
		<tag k="ssr:stedsnr" v="734720" />
	</node>
	<node lat="60.629277779202425" lon="5.625849992049316" id="-73800">
		<tag k="name" v="Stange" />
		<tag k="place" v="locality" />
		<tag k="ssr:stedsnr" v="734723" />
	</node>
	<node lat="60.598600002505115" lon="5.5951916606231595" id="-73801">
		<tag k="name" v="Tyssedalen" />
		<tag k="natural" v="valley" />
		<tag k="place" v="locality" />
		<tag k="ssr:stedsnr" v="734742" />
	</node>
	<node lat="60.60784999813384" lon="5.615000002278713" id="-73802">
		<tag k="name" v="Botnabrekka" />
		<tag k="natural" v="slope" />
		<tag k="place" v="locality" />
		<tag k="ssr:stedsnr" v="734744" />
	</node>
	<node lat="60.60809444244681" lon="5.560902779709841" id="-73803">
		<tag k="name" v="Vassenden" />
		<tag k="place" v="locality" />
		<tag k="ssr:stedsnr" v="734747" />
	</node>
	<node lat="60.48951110827003" lon="5.511849996141726" id="-73804">
		<tag k="name" v="Bjørnhei" />
		<tag k="place" v="locality" />
		<tag k="ssr:stedsnr" v="772456" />
	</node>
	<node lat="60.49715555242339" lon="5.479316673068613" id="-73805">
		<tag k="name" v="Sveigane" />
		<tag k="natural" v="valley" />
		<tag k="place" v="locality" />
		<tag k="ssr:stedsnr" v="772469" />
	</node>
	<node lat="60.446472224749265" lon="5.607511103053155" id="-73809">
		<tag k="name" v="Lebakken" />
		<tag k="natural" v="slope" />
		<tag k="place" v="locality" />
		<tag k="ssr:stedsnr" v="773521" />
	</node>
	<node lat="60.655966665080825" lon="5.61517222768979" id="-73811">
		<tag k="name" v="Furneshaugane" />
		<tag k="natural" v="hill" />
		<tag k="place" v="locality" />
		<tag k="ssr:stedsnr" v="773418" />
	</node>
	<node lat="60.45429657368574" lon="5.541989783292926" id="-73812">
		<tag k="name" v="Kvanndalshaugen" />
		<tag k="natural" v="hill" />
		<tag k="place" v="locality" />
		<tag k="ssr:stedsnr" v="773469" />
	</node>
	<node lat="60.451711113928766" lon="5.506858333611678" id="-73813">
		<tag k="name" v="Råka" />
		<tag k="place" v="locality" />
		<tag k="ssr:stedsnr" v="773472" />
	</node>
	<node lat="60.50232777900356" lon="5.4413527735090765" id="-73814">
		<tag k="name" v="Nedsterinden" />
		<tag k="natural" v="ridge" />
		<tag k="place" v="locality" />
		<tag k="ssr:stedsnr" v="773487" />
	</node>
	<node lat="60.549177779805724" lon="5.507219437943686" id="-73815">
		<tag k="name" v="Svenheimsnipa" />
		<tag k="natural" v="hill" />
		<tag k="place" v="locality" />
		<tag k="ssr:stedsnr" v="773493" />
	</node>
	<node lat="60.54505833366497" lon="5.538374993375105" id="-73816">
		<tag k="name" v="Ramberget" />
		<tag k="natural" v="hill" />
		<tag k="place" v="locality" />
		<tag k="ssr:stedsnr" v="773495" />
	</node>
	<node lat="60.51938888806655" lon="5.589566665796877" id="-73818">
		<tag k="name" v="Langedalen" />
		<tag k="natural" v="valley" />
		<tag k="place" v="locality" />
		<tag k="ssr:stedsnr" v="773603" />
	</node>
	<node lat="60.49098333111625" lon="5.55304721860348" id="-73820">
		<tag k="name" v="Kyrkjehaugen" />
		<tag k="natural" v="hill" />
		<tag k="place" v="locality" />
		<tag k="ssr:stedsnr" v="773612" />
	</node>
	<node lat="60.49866944163407" lon="5.558769442909695" id="-73821">
		<tag k="name" v="Gråberget" />
		<tag k="natural" v="hill" />
		<tag k="place" v="locality" />
		<tag k="ssr:stedsnr" v="773614" />
	</node>
	<node lat="60.49236110974213" lon="5.53330555064391" id="-73822">
		<tag k="name" v="Skredaberget" />
		<tag k="natural" v="hill" />
		<tag k="place" v="locality" />
		<tag k="ssr:stedsnr" v="773626" />
	</node>
	<node lat="60.53568333742038" lon="5.407711114108967" id="-73824">
		<tag k="name" v="Storlia" />
		<tag k="natural" v="slope" />
		<tag k="place" v="locality" />
		<tag k="ssr:stedsnr" v="773769" />
	</node>
	<node lat="60.524269447248656" lon="5.372500005997286" id="-73825">
		<tag k="fixme" v="consider natural=peak for the most distinct mountains in the district" />
		<tag k="name" v="Såta" />
		<tag k="natural" v="hill" />
		<tag k="place" v="locality" />
		<tag k="ssr:stedsnr" v="773777" />
	</node>
	<node lat="60.50424999662419" lon="5.568183326738635" id="-73826">
		<tag k="fixme" v="consider natural=peak for the most distinct mountains in the district" />
		<tag k="name" v="Bergsfjellet" />
		<tag k="natural" v="hill" />
		<tag k="place" v="locality" />
		<tag k="ssr:stedsnr" v="773702" />
	</node>
	<node lat="60.53225000016951" lon="5.441077777853448" id="-73828">
		<tag k="fixme" v="consider natural=peak for the most distinct mountains in the district" />
		<tag k="name" v="Stølsåsen" />
		<tag k="natural" v="hill" />
		<tag k="place" v="locality" />
		<tag k="ssr:stedsnr" v="773817" />
	</node>
	<node lat="60.470991663447975" lon="5.479350008451883" id="-73830">
		<tag k="name" v="Årsegga" />
		<tag k="natural" v="hill" />
		<tag k="place" v="locality" />
		<tag k="ssr:stedsnr" v="773825" />
	</node>
	<node lat="60.45875277855953" lon="5.596172229211427" id="-73832">
		<tag k="fixme" v="consider natural=peak for the most distinct mountains in the district" />
		<tag k="name" v="Såtefjellet" />
		<tag k="natural" v="hill" />
		<tag k="place" v="locality" />
		<tag k="ssr:stedsnr" v="794013" />
	</node>
	<node lat="60.472972221130824" lon="5.603599994548459" id="-73834">
		<tag k="fixme" v="consider natural=peak for the most distinct mountains in the district" />
		<tag k="name" v="Grønfjellet" />
		<tag k="natural" v="hill" />
		<tag k="place" v="locality" />
		<tag k="ssr:stedsnr" v="794971" />
	</node>
	<node lat="60.5929138875933" lon="5.6119055529964506" id="-73838">
		<tag k="fixme" v="consider natural=peak for the most distinct mountains in the district" />
		<tag k="name" v="Olgrøda" />
		<tag k="natural" v="hill" />
		<tag k="place" v="locality" />
		<tag k="ssr:stedsnr" v="795582" />
	</node>
	<node lat="60.63209166464934" lon="5.594711113220231" id="-73839">
		<tag k="fixme" v="consider natural=peak for the most distinct mountains in the district" />
		<tag k="name" v="Løtane" />
		<tag k="natural" v="hill" />
		<tag k="place" v="locality" />
		<tag k="ssr:stedsnr" v="795718" />
	</node>
	<node lat="60.52314999853463" lon="5.473408334874906" id="-73847">
		<tag k="fixme" v="consider natural=peak for the most distinct mountains in the district" />
		<tag k="name" v="Torkletten" />
		<tag k="natural" v="hill" />
		<tag k="place" v="locality" />
		<tag k="ssr:stedsnr" v="795929" />
	</node>
	<node lat="60.51719999627225" lon="5.501038886436165" id="-73848">
		<tag k="fixme" v="consider natural=peak for the most distinct mountains in the district" />
		<tag k="name" v="Trekarnenipa" />
		<tag k="natural" v="hill" />
		<tag k="place" v="locality" />
		<tag k="ssr:stedsnr" v="795981" />
	</node>
	<node lat="60.52902222632953" lon="5.597677774629582" id="-73853">
		<tag k="name" v="Sakslia" />
		<tag k="natural" v="slope" />
		<tag k="place" v="locality" />
		<tag k="ssr:stedsnr" v="916925" />
	</node>
	<node lat="60.46249721877175" lon="5.612830558427826" id="-73855">
		<tag k="name" v="Djupedalen" />
		<tag k="natural" v="valley" />
		<tag k="place" v="locality" />
		<tag k="ssr:stedsnr" v="916948" />
	</node>
	<node lat="60.58910000363918" lon="5.504324996440601" id="-73856">
		<tag k="fixme" v="consider natural=peak for the most distinct mountains in the district" />
		<tag k="name" v="Raudkletten" />
		<tag k="natural" v="hill" />
		<tag k="place" v="locality" />
		<tag k="ssr:stedsnr" v="916544" />
	</node>
	<node lat="60.49972222592632" lon="5.614338881503103" id="-73857">
		<tag k="name" v="Bjørndalen" />
		<tag k="natural" v="valley" />
		<tag k="place" v="locality" />
		<tag k="ssr:stedsnr" v="916994" />
	</node>
	<node lat="60.46160555812323" lon="5.531944440262348" id="-73859">
		<tag k="name" v="Norddalen" />
		<tag k="natural" v="valley" />
		<tag k="place" v="locality" />
		<tag k="ssr:stedsnr" v="916950" />
	</node>
	<node lat="60.512138892133564" lon="5.668488888513497" id="-73860">
		<tag k="name" v="Geitabotnen" />
		<tag k="natural" v="valley" />
		<tag k="place" v="locality" />
		<tag k="ssr:stedsnr" v="916951" />
	</node>
	<node lat="60.4310833319466" lon="5.536927772210147" id="-73864">
		<tag k="name" v="Trældalen" />
		<tag k="natural" v="valley" />
		<tag k="place" v="locality" />
		<tag k="ssr:stedsnr" v="833480" />
	</node>
	<node lat="60.522950004369754" lon="5.418000006384051" id="-73871">
		<tag k="name" v="Revskaret" />
		<tag k="natural" v="valley" />
		<tag k="place" v="locality" />
		<tag k="ssr:stedsnr" v="855479" />
	</node>
	<node lat="60.56000555203892" lon="5.487444448691633" id="-73872">
		<tag k="fixme" v="consider natural=peak for the most distinct mountains in the district" />
		<tag k="name" v="Røsslandsåsen" />
		<tag k="natural" v="hill" />
		<tag k="place" v="locality" />
		<tag k="ssr:stedsnr" v="855588" />
	</node>
	<node lat="60.49110832979381" lon="5.645947225438029" id="-73874">
		<tag k="name" v="Brøkbotnen" />
		<tag k="natural" v="valley" />
		<tag k="place" v="locality" />
		<tag k="ssr:stedsnr" v="855986" />
	</node>
	<node lat="60.57098333548708" lon="5.52295554682083" id="-73880">
		<tag k="fixme" v="consider natural=peak for the most distinct mountains in the district" />
		<tag k="name" v="Tveitafjellet" />
		<tag k="natural" v="hill" />
		<tag k="place" v="locality" />
		<tag k="ssr:stedsnr" v="856594" />
	</node>
	<node lat="60.51116666711493" lon="5.702547219363244" id="-73888">
		<tag k="name" v="Kringlene" />
		<tag k="place" v="locality" />
		<tag k="ssr:stedsnr" v="893663" />
	</node>
	<node lat="60.52322500098108" lon="5.5440777753718145" id="-73889">
		<tag k="name" v="Brotna" />
		<tag k="place" v="locality" />
		<tag k="ssr:stedsnr" v="893670" />
	</node>
	<node lat="60.59483055563577" lon="5.556616675075526" id="-73894">
		<tag k="name" v="Kleppsskaret" />
		<tag k="natural" v="hill" />
		<tag k="place" v="locality" />
		<tag k="ssr:stedsnr" v="895512" />
	</node>
	<node lat="60.48129721979158" lon="5.610847229534261" id="-73896">
		<tag k="name" v="Gallnanipa" />
		<tag k="natural" v="hill" />
		<tag k="place" v="locality" />
		<tag k="ssr:stedsnr" v="895527" />
	</node>
	<node lat="60.60016944529235" lon="5.610124998352705" id="-73897">
		<tag k="name" v="Dyrehjellen" />
		<tag k="natural" v="hill" />
		<tag k="place" v="locality" />
		<tag k="ssr:stedsnr" v="895403" />
	</node>
	<node lat="60.481652774854034" lon="5.544863896042723" id="-73899">
		<tag k="name" v="Skipskaret" />
		<tag k="natural" v="hill" />
		<tag k="place" v="locality" />
		<tag k="ssr:stedsnr" v="895608" />
	</node>
	<node lat="60.53471110783737" lon="5.374722226527391" id="-73902">
		<tag k="name" v="Skogarinden" />
		<tag k="place" v="locality" />
		<tag k="ssr:stedsnr" v="895778" />
	</node>
	<node lat="60.49061111391529" lon="5.426966666278564" id="-73904">
		<tag k="name" v="Rosshagen" />
		<tag k="natural" v="hill" />
		<tag k="place" v="locality" />
		<tag k="ssr:stedsnr" v="895795" />
	</node>
	<node lat="60.52731388924758" lon="5.4030694362814815" id="-73905">
		<tag k="name" v="Hovda" />
		<tag k="place" v="locality" />
		<tag k="ssr:stedsnr" v="895803" />
	</node>
	<node lat="60.495994441100365" lon="5.578113882074069" id="-73906">
		<tag k="name" v="Turdalen" />
		<tag k="natural" v="valley" />
		<tag k="place" v="locality" />
		<tag k="ssr:stedsnr" v="895840" />
	</node>
	<node lat="60.46800833134097" lon="5.5186999956083005" id="-73907">
		<tag k="name" v="Revskaret" />
		<tag k="natural" v="hill" />
		<tag k="place" v="locality" />
		<tag k="ssr:stedsnr" v="895859" />
	</node>
	<node lat="60.471058337590094" lon="5.51628611567851" id="-73908">
		<tag k="name" v="Kristianshaugen" />
		<tag k="natural" v="hill" />
		<tag k="place" v="locality" />
		<tag k="ssr:stedsnr" v="895862" />
	</node>
	<node lat="60.46539166324008" lon="5.5086000082959465" id="-73909">
		<tag k="name" v="Midtrinden" />
		<tag k="place" v="locality" />
		<tag k="ssr:stedsnr" v="895877" />
	</node>
	<node lat="60.48615555309598" lon="5.61828888048172" id="-73911">
		<tag k="fixme" v="consider natural=peak for the most distinct mountains in the district" />
		<tag k="name" v="Vindegga" />
		<tag k="natural" v="hill" />
		<tag k="place" v="locality" />
		<tag k="ssr:stedsnr" v="915969" />
	</node>
	<node lat="60.48659166633179" lon="5.582688893537892" id="-73912">
		<tag k="name" v="Vedaflærne" />
		<tag k="natural" v="hill" />
		<tag k="place" v="locality" />
		<tag k="ssr:stedsnr" v="915976" />
	</node>
	<node lat="60.48591388677799" lon="5.562013889885598" id="-73913">
		<tag k="name" v="Steinshovden" />
		<tag k="natural" v="hill" />
		<tag k="place" v="locality" />
		<tag k="ssr:stedsnr" v="915978" />
	</node>
	<node lat="60.528277779549086" lon="5.415075004733051" id="-73920">
		<tag k="name" v="Røskelandsdalen" />
		<tag k="natural" v="valley" />
		<tag k="place" v="locality" />
		<tag k="ssr:stedsnr" v="916520" />
	</node>
	<node lat="60.523655553857" lon="5.680363896300489" id="-73926">
		<tag k="fixme" v="consider natural=peak for the most distinct mountains in the district" />
		<tag k="name" v="Raudskredbruna" />
		<tag k="natural" v="hill" />
		<tag k="place" v="locality" />
		<tag k="ssr:stedsnr" v="916962" />
	</node>
	<node lat="60.49193610874413" lon="5.516283325022194" id="-73930">
		<tag k="fixme" v="consider natural=peak for the most distinct mountains in the district" />
		<tag k="name" v="Hovdane" />
		<tag k="natural" v="hill" />
		<tag k="place" v="locality" />
		<tag k="ssr:stedsnr" v="954445" />
	</node>
	<node lat="60.49447777524767" lon="5.5101833274871765" id="-73931">
		<tag k="name" v="Stemmehaugane" />
		<tag k="natural" v="hill" />
		<tag k="place" v="locality" />
		<tag k="ssr:stedsnr" v="954446" />
	</node>
	<node lat="60.493097222976374" lon="5.506150007281343" id="-73932">
		<tag k="name" v="Svarteberget" />
		<tag k="natural" v="hill" />
		<tag k="place" v="locality" />
		<tag k="ssr:stedsnr" v="954448" />
	</node>
	<node lat="60.488247222803444" lon="5.469941661398359" id="-73933">
		<tag k="name" v="Trolldalane" />
		<tag k="natural" v="valley" />
		<tag k="place" v="locality" />
		<tag k="ssr:stedsnr" v="954449" />
	</node>
	<node lat="60.493652779789905" lon="5.524024993842727" id="-73934">
		<tag k="name" v="Kyråsbotnen" />
		<tag k="natural" v="valley" />
		<tag k="place" v="locality" />
		<tag k="ssr:stedsnr" v="954454" />
	</node>
	<node lat="60.58621110974489" lon="5.560763884016636" id="-73937">
		<tag k="name" v="Høghaugen" />
		<tag k="natural" v="hill" />
		<tag k="place" v="locality" />
		<tag k="ssr:stedsnr" v="955547" />
	</node>
	<node lat="60.454080556052105" lon="5.607133331077876" id="-73938">
		<tag k="name" v="Kåpelia" />
		<tag k="natural" v="slope" />
		<tag k="place" v="locality" />
		<tag k="ssr:stedsnr" v="955552" />
	</node>
	<node lat="60.64411944120958" lon="5.609650004547001" id="-73940">
		<tag k="fixme" v="consider natural=peak for the most distinct mountains in the district" />
		<tag k="name" v="Åsen" />
		<tag k="natural" v="hill" />
		<tag k="place" v="locality" />
		<tag k="ssr:stedsnr" v="955404" />
	</node>
	<node lat="60.64933333375937" lon="5.609686107103466" id="-73941">
		<tag k="name" v="Høghaugen" />
		<tag k="natural" v="hill" />
		<tag k="place" v="locality" />
		<tag k="ssr:stedsnr" v="955407" />
	</node>
	<node lat="60.440502775752876" lon="5.581566673575345" id="-73942">
		<tag k="name" v="Novena" />
		<tag k="natural" v="hill" />
		<tag k="place" v="locality" />
		<tag k="ssr:stedsnr" v="955491" />
	</node>
	<node lat="60.44567222628455" lon="5.506155559783638" id="-73945">
		<tag k="name" v="Vindberget" />
		<tag k="natural" v="hill" />
		<tag k="place" v="locality" />
		<tag k="ssr:stedsnr" v="955501" />
	</node>
	<node lat="60.474924999769804" lon="5.615952782220339" id="-73948">
		<tag k="name" v="Raundalen" />
		<tag k="natural" v="valley" />
		<tag k="place" v="locality" />
		<tag k="ssr:stedsnr" v="955589" />
	</node>
	<node lat="60.46553056017687" lon="5.595705560800107" id="-73949">
		<tag k="name" v="Tindane" />
		<tag k="natural" v="hill" />
		<tag k="place" v="locality" />
		<tag k="ssr:stedsnr" v="955591" />
	</node>
	<node lat="60.481486110169634" lon="5.641350007278579" id="-73972">
		<tag k="fixme" v="consider natural=peak for the most distinct mountains in the district" />
		<tag k="name" v="Utegardsnipa" />
		<tag k="natural" v="hill" />
		<tag k="place" v="locality" />
		<tag k="ssr:stedsnr" v="5943" />
	</node>
	<node lat="60.49414722632729" lon="5.501133324976361" id="-73973">
		<tag k="name" v="Rindakletten" />
		<tag k="natural" v="hill" />
		<tag k="place" v="locality" />
		<tag k="ssr:stedsnr" v="5989" />
	</node>
	<node lat="60.66903889213034" lon="5.628188891738465" id="-73976">
		<tag k="fixme" v="consider natural=peak for the most distinct mountains in the district" />
		<tag k="name" v="Gullberget" />
		<tag k="natural" v="hill" />
		<tag k="place" v="locality" />
		<tag k="ssr:stedsnr" v="6657" />
	</node>
	<node lat="60.53293611442424" lon="5.34980276942321" id="-73978">
		<tag k="name" v="Tenndalshaugen" />
		<tag k="natural" v="hill" />
		<tag k="place" v="locality" />
		<tag k="ssr:stedsnr" v="6422" />
	</node>
	<node lat="60.53920832892785" lon="5.350666664282732" id="-73979">
		<tag k="name" v="Høgebrota" />
		<tag k="natural" v="slope" />
		<tag k="place" v="locality" />
		<tag k="ssr:stedsnr" v="6438" />
	</node>
	<node lat="60.51176666455595" lon="5.414933338327821" id="-73980">
		<tag k="fixme" v="consider natural=peak for the most distinct mountains in the district" />
		<tag k="name" v="Kjeringfjellet" />
		<tag k="natural" v="hill" />
		<tag k="place" v="locality" />
		<tag k="ssr:stedsnr" v="6524" />
	</node>
	<node lat="60.521447224689446" lon="5.479758340413545" id="-73983">
		<tag k="name" v="Torvhusdalen" />
		<tag k="natural" v="valley" />
		<tag k="place" v="locality" />
		<tag k="ssr:stedsnr" v="6937" />
	</node>
	<node lat="60.50177499833709" lon="5.478597221407377" id="-73990">
		<tag k="name" v="Klubbelia" />
		<tag k="natural" v="slope" />
		<tag k="place" v="locality" />
		<tag k="ssr:stedsnr" v="43721" />
	</node>
	<node lat="60.50615277732481" lon="5.496647213962884" id="-73996">
		<tag k="name" v="Apalabakkane" />
		<tag k="natural" v="slope" />
		<tag k="place" v="locality" />
		<tag k="ssr:stedsnr" v="44695" />
	</node>
	<node lat="60.503675002170745" lon="5.521038883243846" id="-73997">
		<tag k="name" v="Kolabakkane" />
		<tag k="natural" v="slope" />
		<tag k="place" v="locality" />
		<tag k="ssr:stedsnr" v="44702" />
	</node>
	<node lat="60.537016666349956" lon="5.565083340568927" id="-74000">
		<tag k="name" v="Leitet" />
		<tag k="natural" v="hill" />
		<tag k="place" v="locality" />
		<tag k="ssr:stedsnr" v="44714" />
	</node>
	<node lat="60.539411113722664" lon="5.56340277510586" id="-74001">
		<tag k="name" v="Døsa" />
		<tag k="natural" v="hill" />
		<tag k="place" v="locality" />
		<tag k="ssr:stedsnr" v="44715" />
	</node>
	<node lat="60.50658888906267" lon="5.647191668600572" id="-74002">
		<tag k="name" v="Lida" />
		<tag k="place" v="locality" />
		<tag k="ssr:stedsnr" v="45446" />
	</node>
	<node lat="60.571344441334155" lon="5.538305553137127" id="-74005">
		<tag k="fixme" v="consider natural=peak for the most distinct mountains in the district" />
		<tag k="name" v="Storfjell" />
		<tag k="natural" v="hill" />
		<tag k="place" v="locality" />
		<tag k="ssr:stedsnr" v="45398" />
	</node>
	<node lat="60.491400001718965" lon="5.612616664602158" id="-74010">
		<tag k="name" v="Kråbotnane" />
		<tag k="natural" v="valley" />
		<tag k="place" v="locality" />
		<tag k="ssr:stedsnr" v="45535" />
	</node>
	<node lat="60.48426110905292" lon="5.669424995418736" id="-74011">
		<tag k="fixme" v="consider natural=peak for the most distinct mountains in the district" />
		<tag k="name" v="Kletten" />
		<tag k="natural" v="hill" />
		<tag k="place" v="locality" />
		<tag k="ssr:stedsnr" v="45554" />
	</node>
	<node lat="60.47716666853354" lon="5.646216664651258" id="-74012">
		<tag k="name" v="Årtunga" />
		<tag k="place" v="locality" />
		<tag k="ssr:stedsnr" v="45564" />
	</node>
	<node lat="60.46686388880475" lon="5.542969452442334" id="-74013">
		<tag k="name" v="Haugen" />
		<tag k="natural" v="hill" />
		<tag k="place" v="locality" />
		<tag k="ssr:stedsnr" v="45618" />
	</node>
	<node lat="60.4469500023882" lon="5.553150004059787" id="-74017">
		<tag k="name" v="Vondhaugen" />
		<tag k="natural" v="hill" />
		<tag k="place" v="locality" />
		<tag k="ssr:stedsnr" v="45485" />
	</node>
	<node lat="60.505719448108" lon="5.435211103830462" id="-74018">
		<tag k="name" v="Furubakken" />
		<tag k="natural" v="slope" />
		<tag k="place" v="locality" />
		<tag k="ssr:stedsnr" v="45494" />
	</node>
	<node lat="60.47071110955279" lon="5.571013893662781" id="-74021">
		<tag k="name" v="Rinden" />
		<tag k="place" v="locality" />
		<tag k="ssr:stedsnr" v="45631" />
	</node>
	<node lat="60.52831944339773" lon="5.500908339050577" id="-74022">
		<tag k="name" v="Ramberget" />
		<tag k="natural" v="hill" />
		<tag k="place" v="locality" />
		<tag k="ssr:stedsnr" v="45638" />
	</node>
	<node lat="60.506780551862015" lon="5.565233334765935" id="-74024">
		<tag k="name" v="Bjørnaskaret" />
		<tag k="natural" v="hill" />
		<tag k="place" v="locality" />
		<tag k="ssr:stedsnr" v="45730" />
	</node>
	<node lat="60.50058888721827" lon="5.472011108025441" id="-74026">
		<tag k="name" v="Sætret" />
		<tag k="place" v="locality" />
		<tag k="ssr:stedsnr" v="45735" />
	</node>
	<node lat="60.56491177735578" lon="5.469011054526833" id="-74027">
		<tag k="name" v="Nonhøyen" />
		<tag k="natural" v="hill" />
		<tag k="place" v="locality" />
		<tag k="ssr:stedsnr" v="45741" />
	</node>
	<node lat="60.51401389070918" lon="5.572805547591803" id="-74028">
		<tag k="name" v="Svabotn" />
		<tag k="natural" v="valley" />
		<tag k="place" v="locality" />
		<tag k="ssr:stedsnr" v="45743" />
	</node>
	<node lat="60.49281666840167" lon="5.446100003304474" id="-74029">
		<tag k="name" v="Skofarhaugen" />
		<tag k="natural" v="hill" />
		<tag k="place" v="locality" />
		<tag k="ssr:stedsnr" v="45762" />
	</node>
	<node lat="60.4579472215898" lon="5.511925001028586" id="-74031">
		<tag k="name" v="Ranen" />
		<tag k="place" v="locality" />
		<tag k="ssr:stedsnr" v="45850" />
	</node>
	<node lat="60.45811110840865" lon="5.524116672730917" id="-74032">
		<tag k="name" v="Joarsrinden" />
		<tag k="place" v="locality" />
		<tag k="ssr:stedsnr" v="45860" />
	</node>
	<node lat="60.46840000103343" lon="5.513841661142433" id="-74033">
		<tag k="name" v="Smaleggena" />
		<tag k="place" v="locality" />
		<tag k="ssr:stedsnr" v="45861" />
	</node>
	<node lat="60.52326388962308" lon="5.456416670115244" id="-74037">
		<tag k="name" v="Austlidalen" />
		<tag k="natural" v="valley" />
		<tag k="place" v="locality" />
		<tag k="ssr:stedsnr" v="66460" />
	</node>
	<node lat="60.61070555949047" lon="5.581116673402171" id="-74048">
		<tag k="fixme" v="consider natural=peak for the most distinct mountains in the district" />
		<tag k="name" v="Nonkletten" />
		<tag k="natural" v="hill" />
		<tag k="place" v="locality" />
		<tag k="ssr:stedsnr" v="67737" />
	</node>
	<node lat="60.528136113141954" lon="5.582158333066037" id="-74053">
		<tag k="name" v="Langedalen" />
		<tag k="natural" v="valley" />
		<tag k="place" v="locality" />
		<tag k="ssr:stedsnr" v="67919" />
	</node>
	<node lat="60.530619445436514" lon="5.592200004681221" id="-74054">
		<tag k="name" v="Melkebakkane" />
		<tag k="natural" v="slope" />
		<tag k="place" v="locality" />
		<tag k="ssr:stedsnr" v="67921" />
	</node>
	<node lat="60.48163888953657" lon="5.504761108861538" id="-74059">
		<tag k="name" v="Setlii" />
		<tag k="natural" v="slope" />
		<tag k="place" v="locality" />
		<tag k="ssr:stedsnr" v="104441" />
	</node>
	<node lat="60.51899999913296" lon="5.515413891121362" id="-74062">
		<tag k="name" v="Rymledalen" />
		<tag k="natural" v="valley" />
		<tag k="place" v="locality" />
		<tag k="ssr:stedsnr" v="104700" />
	</node>
	<node lat="60.474313889746924" lon="5.554961108879095" id="-74064">
		<tag k="fixme" v="consider natural=peak for the most distinct mountains in the district" />
		<tag k="name" v="Melåsen" />
		<tag k="natural" v="hill" />
		<tag k="place" v="locality" />
		<tag k="ssr:stedsnr" v="105659" />
	</node>
	<node lat="60.525650002095276" lon="5.519622228481665" id="-74065">
		<tag k="name" v="Ikornskaret" />
		<tag k="natural" v="hill" />
		<tag k="place" v="locality" />
		<tag k="ssr:stedsnr" v="105669" />
	</node>
	<node lat="60.53117222363598" lon="5.502461108595231" id="-74067">
		<tag k="name" v="Kleivi" />
		<tag k="place" v="locality" />
		<tag k="ssr:stedsnr" v="105671" />
	</node>
	<node lat="60.52348332943165" lon="5.481852773827825" id="-74068">
		<tag k="name" v="Stoaliane" />
		<tag k="natural" v="slope" />
		<tag k="place" v="locality" />
		<tag k="ssr:stedsnr" v="105703" />
	</node>
	<node lat="60.66580833611148" lon="5.63365832638628" id="-74069">
		<tag k="fixme" v="consider natural=peak for the most distinct mountains in the district" />
		<tag k="name" v="Stavelifjellet" />
		<tag k="natural" v="hill" />
		<tag k="place" v="locality" />
		<tag k="ssr:stedsnr" v="106402" />
	</node>
	<node lat="60.59290833448831" lon="5.596266658062109" id="-74070">
		<tag k="fixme" v="consider natural=peak for the most distinct mountains in the district" />
		<tag k="name" v="Haldorkletten" />
		<tag k="natural" v="hill" />
		<tag k="place" v="locality" />
		<tag k="ssr:stedsnr" v="106408" />
	</node>
	<node lat="60.60500277597421" lon="5.603377774859209" id="-74071">
		<tag k="name" v="Sæterbotn" />
		<tag k="natural" v="valley" />
		<tag k="place" v="locality" />
		<tag k="ssr:stedsnr" v="106411" />
	</node>
	<node lat="60.618419448112014" lon="5.597711118419238" id="-74072">
		<tag k="fixme" v="consider natural=peak for the most distinct mountains in the district" />
		<tag k="name" v="Vassurkletten" />
		<tag k="natural" v="hill" />
		<tag k="place" v="locality" />
		<tag k="ssr:stedsnr" v="106414" />
	</node>
	<node lat="60.52676389197885" lon="5.68661944769522" id="-74075">
		<tag k="name" v="Steindalsnakken" />
		<tag k="natural" v="hill" />
		<tag k="place" v="locality" />
		<tag k="ssr:stedsnr" v="106601" />
	</node>
	<node lat="60.51760555874703" lon="5.4740694475208835" id="-74076">
		<tag k="name" v="Ålskaret" />
		<tag k="natural" v="hill" />
		<tag k="place" v="locality" />
		<tag k="ssr:stedsnr" v="106705" />
	</node>
	<node lat="60.53665000329288" lon="5.372969441947733" id="-74077">
		<tag k="name" v="Svearinden" />
		<tag k="place" v="locality" />
		<tag k="ssr:stedsnr" v="106812" />
	</node>
	<node lat="60.615641669430666" lon="5.560027771960796" id="-74078">
		<tag k="alt_name" v="Høgaberget" />
		<tag k="name" v="Høgaraudberget" />
		<tag k="natural" v="hill" />
		<tag k="place" v="locality" />
		<tag k="ssr:stedsnr" v="106521" />
	</node>
	<node lat="60.4536833358402" lon="5.595872226180946" id="-74080">
		<tag k="name" v="Nipelia" />
		<tag k="natural" v="slope" />
		<tag k="place" v="locality" />
		<tag k="ssr:stedsnr" v="106531" />
	</node>
	<node lat="60.486555558580015" lon="5.607833327756186" id="-74081">
		<tag k="name" v="Heggelia" />
		<tag k="natural" v="slope" />
		<tag k="place" v="locality" />
		<tag k="ssr:stedsnr" v="106542" />
	</node>
	<node lat="60.49123333658837" lon="5.6275749953142835" id="-74082">
		<tag k="name" v="Espevold" />
		<tag k="place" v="locality" />
		<tag k="ssr:stedsnr" v="106546" />
	</node>
	<node lat="60.480908335642035" lon="5.6930166656046" id="-74084">
		<tag k="name" v="Glettashaugen" />
		<tag k="natural" v="hill" />
		<tag k="place" v="locality" />
		<tag k="ssr:stedsnr" v="106556" />
	</node>
	<node lat="60.483286110827045" lon="5.679330551229005" id="-74085">
		<tag k="name" v="Kolhaugen" />
		<tag k="natural" v="hill" />
		<tag k="place" v="locality" />
		<tag k="ssr:stedsnr" v="106567" />
	</node>
	<node lat="60.51084166415187" lon="5.578822229329599" id="-74086">
		<tag k="fixme" v="consider natural=peak for the most distinct mountains in the district" />
		<tag k="name" v="Bysheimåsen" />
		<tag k="natural" v="hill" />
		<tag k="place" v="locality" />
		<tag k="ssr:stedsnr" v="106730" />
	</node>
	<node lat="60.4992944432253" lon="5.572297217420734" id="-74087">
		<tag k="name" v="Hovdabotn" />
		<tag k="natural" v="valley" />
		<tag k="place" v="locality" />
		<tag k="ssr:stedsnr" v="106737" />
	</node>
	<node lat="60.50446111354199" lon="5.574186115923922" id="-74088">
		<tag k="name" v="Grasdalen" />
		<tag k="natural" v="valley" />
		<tag k="place" v="locality" />
		<tag k="ssr:stedsnr" v="106740" />
	</node>
	<node lat="60.51296944203376" lon="5.53812499126178" id="-74090">
		<tag k="name" v="Kyrkjeskaret" />
		<tag k="natural" v="hill" />
		<tag k="place" v="locality" />
		<tag k="ssr:stedsnr" v="106757" />
	</node>
	<node lat="60.51286388818517" lon="5.543544437042212" id="-74091">
		<tag k="name" v="Skarlia" />
		<tag k="natural" v="slope" />
		<tag k="place" v="locality" />
		<tag k="ssr:stedsnr" v="106763" />
	</node>
	<node lat="60.509155559243055" lon="5.4084055492407845" id="-74092">
		<tag k="name" v="Vikedalen" />
		<tag k="natural" v="valley" />
		<tag k="place" v="locality" />
		<tag k="ssr:stedsnr" v="106829" />
	</node>
	<node lat="60.52796110791679" lon="5.442997220202996" id="-74094">
		<tag k="name" v="Høgheia" />
		<tag k="natural" v="hill" />
		<tag k="place" v="locality" />
		<tag k="ssr:stedsnr" v="106845" />
	</node>
	<node lat="60.53415277521988" lon="5.4649777824552235" id="-74095">
		<tag k="name" v="Dalsnjuken" />
		<tag k="natural" v="valley" />
		<tag k="place" v="locality" />
		<tag k="ssr:stedsnr" v="106851" />
	</node>
	<node lat="60.47832499848462" lon="5.554716662126845" id="-74096">
		<tag k="name" v="Kvitsteinleitet" />
		<tag k="natural" v="hill" />
		<tag k="place" v="locality" />
		<tag k="ssr:stedsnr" v="106864" />
	</node>
	<node lat="60.4562333353473" lon="5.497380554946417" id="-74097">
		<tag k="name" v="Gladsteinen" />
		<tag k="natural" v="hill" />
		<tag k="place" v="locality" />
		<tag k="ssr:stedsnr" v="106883" />
	</node>
	<node lat="60.44664167054512" lon="5.555533330304431" id="-74100">
		<tag k="name" v="Blomaskaret" />
		<tag k="natural" v="valley" />
		<tag k="place" v="locality" />
		<tag k="ssr:stedsnr" v="126017" />
	</node>
	<node lat="60.442950001406764" lon="5.541913889886984" id="-74101">
		<tag k="fixme" v="consider natural=peak for the most distinct mountains in the district" />
		<tag k="name" v="Snøya" />
		<tag k="natural" v="hill" />
		<tag k="place" v="locality" />
		<tag k="ssr:stedsnr" v="126029" />
	</node>
	<node lat="60.58464999805506" lon="5.573824994423119" id="-74111">
		<tag k="name" v="Bjørnshovdane" />
		<tag k="natural" v="hill" />
		<tag k="place" v="locality" />
		<tag k="ssr:stedsnr" v="127588" />
	</node>
	<node lat="60.51343055937848" lon="5.415350002983864" id="-74112">
		<tag k="name" v="Sædalen" />
		<tag k="natural" v="valley" />
		<tag k="place" v="locality" />
		<tag k="ssr:stedsnr" v="127526" />
	</node>
	<node lat="60.52030278080172" lon="5.425255552072255" id="-74113">
		<tag k="name" v="Ranen" />
		<tag k="natural" v="slope" />
		<tag k="place" v="locality" />
		<tag k="ssr:stedsnr" v="127529" />
	</node>
	<node lat="60.56333610920916" lon="5.504791664733502" id="-74115">
		<tag k="fixme" v="consider natural=peak for the most distinct mountains in the district" />
		<tag k="name" v="Nerafjellet" />
		<tag k="natural" v="hill" />
		<tag k="place" v="locality" />
		<tag k="ssr:stedsnr" v="127624" />
	</node>
	<node lat="60.52105144231139" lon="5.490748911396632" id="-74120">
		<tag k="name" v="Bjørnkletten" />
		<tag k="natural" v="hill" />
		<tag k="place" v="locality" />
		<tag k="ssr:stedsnr" v="127971" />
	</node>
	<node lat="60.5496305599007" lon="5.489319447389361" id="-74122">
		<tag k="fixme" v="consider natural=peak for the most distinct mountains in the district" />
		<tag k="name" v="Åsen" />
		<tag k="natural" v="hill" />
		<tag k="place" v="locality" />
		<tag k="ssr:stedsnr" v="128012" />
	</node>
	<node lat="60.50437222033658" lon="5.517713896377984" id="-74124">
		<tag k="name" v="Bruleitet" />
		<tag k="place" v="locality" />
		<tag k="ssr:stedsnr" v="165718" />
	</node>
	<node lat="60.52964999998892" lon="5.532433330957335" id="-74125">
		<tag k="name" v="Hårbrua" />
		<tag k="place" v="locality" />
		<tag k="ssr:stedsnr" v="165725" />
	</node>
	<node lat="60.63152222357589" lon="5.613530546427384" id="-74128">
		<tag k="name" v="Ilkjerhaugane" />
		<tag k="natural" v="hill" />
		<tag k="place" v="locality" />
		<tag k="ssr:stedsnr" v="166416" />
	</node>
	<node lat="60.45581388696688" lon="5.573619437468261" id="-74129">
		<tag k="name" v="Repdalsskaret" />
		<tag k="natural" v="hill" />
		<tag k="place" v="locality" />
		<tag k="ssr:stedsnr" v="166476" />
	</node>
	<node lat="60.4434388910463" lon="5.571841669142039" id="-74130">
		<tag k="name" v="Utgjerdet" />
		<tag k="place" v="locality" />
		<tag k="ssr:stedsnr" v="166483" />
	</node>
	<node lat="60.445791667923665" lon="5.55509443872105" id="-74131">
		<tag k="fixme" v="consider natural=peak for the most distinct mountains in the district" />
		<tag k="name" v="Stallane" />
		<tag k="natural" v="hill" />
		<tag k="place" v="locality" />
		<tag k="ssr:stedsnr" v="166486" />
	</node>
	<node lat="60.43784721942586" lon="5.549966662789274" id="-74132">
		<tag k="name" v="Hamrane" />
		<tag k="natural" v="hill" />
		<tag k="place" v="locality" />
		<tag k="ssr:stedsnr" v="166492" />
	</node>
	<node lat="60.52601110693744" lon="5.696755559637842" id="-74133">
		<tag k="name" v="Slåttestallen" />
		<tag k="natural" v="hill" />
		<tag k="place" v="locality" />
		<tag k="ssr:stedsnr" v="166595" />
	</node>
	<node lat="60.536802777516996" lon="5.518469436742724" id="-74134">
		<tag k="name" v="Rosshaugen" />
		<tag k="natural" v="hill" />
		<tag k="place" v="locality" />
		<tag k="ssr:stedsnr" v="166659" />
	</node>
	<node lat="60.52134444808864" lon="5.483583336462058" id="-74136">
		<tag k="name" v="Støldalen" />
		<tag k="natural" v="hill" />
		<tag k="place" v="locality" />
		<tag k="ssr:stedsnr" v="166678" />
	</node>
	<node lat="60.516222221255816" lon="5.6605055629227286" id="-74140">
		<tag k="name" v="Hovden" />
		<tag k="natural" v="hill" />
		<tag k="place" v="locality" />
		<tag k="ssr:stedsnr" v="166443" />
	</node>
	<node lat="60.4932555598102" lon="5.595491672095249" id="-74145">
		<tag k="name" v="Skistadslåttena" />
		<tag k="natural" v="hill" />
		<tag k="place" v="locality" />
		<tag k="ssr:stedsnr" v="166556" />
	</node>
	<node lat="60.56830000297393" lon="5.501608340398038" id="-74146">
		<tag k="fixme" v="consider natural=peak for the most distinct mountains in the district" />
		<tag k="name" v="Nedre Tveitafjell" />
		<tag k="natural" v="hill" />
		<tag k="place" v="locality" />
		<tag k="ssr:stedsnr" v="166734" />
	</node>
	<node lat="60.49513889007655" lon="5.458975001981491" id="-74150">
		<tag k="name" v="Austliane" />
		<tag k="natural" v="slope" />
		<tag k="place" v="locality" />
		<tag k="ssr:stedsnr" v="166758" />
	</node>
	<node lat="60.53856389241144" lon="5.391183327793002" id="-74151">
		<tag k="name" v="Bleiklidalen" />
		<tag k="natural" v="valley" />
		<tag k="place" v="locality" />
		<tag k="ssr:stedsnr" v="166780" />
	</node>
	<node lat="60.52846944832593" lon="5.584225001052461" id="-74152">
		<tag k="name" v="Espevold" />
		<tag k="natural" v="hill" />
		<tag k="place" v="locality" />
		<tag k="ssr:stedsnr" v="166782" />
	</node>
	<node lat="60.5340944416117" lon="5.369924995105231" id="-74153">
		<tag k="fixme" v="consider natural=peak for the most distinct mountains in the district" />
		<tag k="name" v="Storafjellet" />
		<tag k="natural" v="hill" />
		<tag k="place" v="locality" />
		<tag k="ssr:stedsnr" v="166794" />
	</node>
	<node lat="60.529422223730016" lon="5.41586943684361" id="-74154">
		<tag k="name" v="Ormhaugen" />
		<tag k="natural" v="hill" />
		<tag k="place" v="locality" />
		<tag k="ssr:stedsnr" v="166830" />
	</node>
	<node lat="60.53704722007976" lon="5.428452784730957" id="-74155">
		<tag k="name" v="Storhaugen" />
		<tag k="natural" v="hill" />
		<tag k="place" v="locality" />
		<tag k="ssr:stedsnr" v="166832" />
	</node>
	<node lat="60.53204722280646" lon="5.4474194509335145" id="-74158">
		<tag k="name" v="Krakkedalen" />
		<tag k="natural" v="valley" />
		<tag k="place" v="locality" />
		<tag k="ssr:stedsnr" v="166839" />
	</node>
	<node lat="60.46632500307603" lon="5.476472226427057" id="-74159">
		<tag k="name" v="Gloppa" />
		<tag k="place" v="locality" />
		<tag k="ssr:stedsnr" v="166847" />
	</node>
	<node lat="60.44499721822672" lon="5.5314749930875005" id="-74162">
		<tag k="name" v="Orrkleivhaugen" />
		<tag k="natural" v="hill" />
		<tag k="place" v="locality" />
		<tag k="ssr:stedsnr" v="187011" />
	</node>
	<node lat="60.49714722267998" lon="5.4942499958826705" id="-74163">
		<tag k="fixme" v="consider natural=peak for the most distinct mountains in the district" />
		<tag k="name" v="Kleivelandsåsen" />
		<tag k="natural" v="hill" />
		<tag k="place" v="locality" />
		<tag k="ssr:stedsnr" v="187988" />
	</node>
	<node lat="60.47968055985324" lon="5.552750005010171" id="-74166">
		<tag k="name" v="Nonhaugen" />
		<tag k="natural" v="hill" />
		<tag k="place" v="locality" />
		<tag k="ssr:stedsnr" v="187947" />
	</node>
	<node lat="60.48381666447183" lon="5.606052769917219" id="-74168">
		<tag k="name" v="Fanndalen" />
		<tag k="natural" v="valley" />
		<tag k="place" v="locality" />
		<tag k="ssr:stedsnr" v="187964" />
	</node>
	<node lat="60.6996138898382" lon="5.654519437429746" id="-74169">
		<tag k="fixme" v="consider natural=peak for the most distinct mountains in the district" />
		<tag k="name" v="Rossfjellet" />
		<tag k="natural" v="hill" />
		<tag k="place" v="locality" />
		<tag k="ssr:stedsnr" v="188288" />
	</node>
	<node lat="60.67386944137841" lon="5.639516659730329" id="-74170">
		<tag k="fixme" v="consider natural=peak for the most distinct mountains in the district" />
		<tag k="name" v="Raunelifjellet" />
		<tag k="natural" v="hill" />
		<tag k="place" v="locality" />
		<tag k="ssr:stedsnr" v="188339" />
	</node>
	<node lat="60.52598889018421" lon="5.438472217695293" id="-74174">
		<tag k="fixme" v="consider natural=peak for the most distinct mountains in the district" />
		<tag k="name" v="Burkelandsfjellet" />
		<tag k="natural" v="hill" />
		<tag k="old_name" v="Byrkjelandsfjellet" />
		<tag k="place" v="locality" />
		<tag k="ssr:stedsnr" v="188553" />
	</node>
	<node lat="60.507452778349986" lon="5.595586111961619" id="-74177">
		<tag k="alt_name" v="Kollhaugen" />
		<tag k="name" v="Lonkollen" />
		<tag k="natural" v="hill" />
		<tag k="place" v="locality" />
		<tag k="ssr:stedsnr" v="188963" />
	</node>
	<node lat="60.51236110980743" lon="5.535425005390578" id="-74178">
		<tag k="alt_name" v="Lofoten" />
		<tag k="fixme" v="consider natural=peak for the most distinct mountains in the district" />
		<tag k="name" v="Kletten" />
		<tag k="natural" v="hill" />
		<tag k="place" v="locality" />
		<tag k="ssr:stedsnr" v="188965" />
	</node>
	<node lat="60.551800001126026" lon="5.609424999727466" id="-74182">
		<tag k="fixme" v="consider natural=peak for the most distinct mountains in the district" />
		<tag k="name" v="Høgåsen" />
		<tag k="natural" v="hill" />
		<tag k="place" v="locality" />
		<tag k="ssr:stedsnr" v="189009" />
	</node>
	<node lat="60.515269442961866" lon="5.548208340558798" id="-74190">
		<tag k="name" v="Neverhjellane" />
		<tag k="natural" v="gorge" />
		<tag k="ssr:stedsnr" v="226319" />
	</node>
	<node lat="60.46869999681498" lon="5.508127782556174" id="-74191">
		<tag k="name" v="Kåperinden" />
		<tag k="place" v="locality" />
		<tag k="ssr:stedsnr" v="226329" />
	</node>
	<node lat="60.48421666935015" lon="5.5072833410155" id="-74192">
		<tag k="name" v="Kyrkjeledet" />
		<tag k="natural" v="valley" />
		<tag k="place" v="locality" />
		<tag k="ssr:stedsnr" v="226501" />
	</node>
	<node lat="60.519297220520116" lon="5.49120555836457" id="-74195">
		<tag k="name" v="Eikelia" />
		<tag k="natural" v="slope" />
		<tag k="place" v="locality" />
		<tag k="ssr:stedsnr" v="226769" />
	</node>
	<node lat="60.51486667090278" lon="5.498644446433325" id="-74196">
		<tag k="name" v="Floten" />
		<tag k="place" v="locality" />
		<tag k="ssr:stedsnr" v="226772" />
	</node>
	<node lat="60.47692222277143" lon="5.702697214538692" id="-74197">
		<tag k="fixme" v="consider natural=peak for the most distinct mountains in the district" />
		<tag k="name" v="Nipa" />
		<tag k="natural" v="hill" />
		<tag k="place" v="locality" />
		<tag k="ssr:stedsnr" v="227748" />
	</node>
	<node lat="60.65803889226814" lon="5.629150000287811" id="-74200">
		<tag k="name" v="Klendalen" />
		<tag k="natural" v="valley" />
		<tag k="place" v="locality" />
		<tag k="ssr:stedsnr" v="227427" />
	</node>
	<node lat="60.46851944288818" lon="5.538924994660559" id="-74201">
		<tag k="name" v="Gongerinden" />
		<tag k="natural" v="hill" />
		<tag k="place" v="locality" />
		<tag k="ssr:stedsnr" v="227655" />
	</node>
	<node lat="60.47737777464693" lon="5.584952769326761" id="-74202">
		<tag k="name" v="Urane" />
		<tag k="natural" v="hill" />
		<tag k="place" v="locality" />
		<tag k="ssr:stedsnr" v="227556" />
	</node>
	<node lat="60.49439722345775" lon="5.611958331603497" id="-74203">
		<tag k="name" v="Svartaberget" />
		<tag k="natural" v="hill" />
		<tag k="place" v="locality" />
		<tag k="ssr:stedsnr" v="227559" />
	</node>
	<node lat="60.48564999955428" lon="5.603666664054141" id="-74204">
		<tag k="name" v="Storelia" />
		<tag k="natural" v="slope" />
		<tag k="place" v="locality" />
		<tag k="ssr:stedsnr" v="227565" />
	</node>
	<node lat="60.48768611238083" lon="5.693413893027923" id="-74205">
		<tag k="name" v="Litlasåta" />
		<tag k="natural" v="hill" />
		<tag k="place" v="locality" />
		<tag k="ssr:stedsnr" v="227570" />
	</node>
	<node lat="60.49169167103772" lon="5.68803888757569" id="-74206">
		<tag k="name" v="Statsberget" />
		<tag k="natural" v="hill" />
		<tag k="place" v="locality" />
		<tag k="ssr:stedsnr" v="227576" />
	</node>
	<node lat="60.5370861103092" lon="5.641197223171602" id="-74207">
		<tag k="fixme" v="consider natural=peak for the most distinct mountains in the district" />
		<tag k="name" v="Olshovden" />
		<tag k="natural" v="hill" />
		<tag k="place" v="locality" />
		<tag k="ssr:stedsnr" v="227597" />
	</node>
	<node lat="60.514577778021874" lon="5.560125000449715" id="-74209">
		<tag k="name" v="Antunkvilet" />
		<tag k="place" v="locality" />
		<tag k="ssr:stedsnr" v="227719" />
	</node>
	<node lat="60.48802222132844" lon="5.5627166695303805" id="-74211">
		<tag k="name" v="Tjuvaholet" />
		<tag k="place" v="locality" />
		<tag k="ssr:stedsnr" v="227848" />
	</node>
	<node lat="60.491633331938715" lon="5.446413894568165" id="-74213">
		<tag k="name" v="Reigstaddalen" />
		<tag k="natural" v="valley" />
		<tag k="place" v="locality" />
		<tag k="ssr:stedsnr" v="227763" />
	</node>
	<node lat="60.510261108077984" lon="5.5314138857236985" id="-74214">
		<tag k="name" v="Solbjørgdalen" />
		<tag k="natural" v="valley" />
		<tag k="place" v="locality" />
		<tag k="ssr:stedsnr" v="286288" />
	</node>
	<node lat="60.45763055871261" lon="5.520472217303294" id="-74215">
		<tag k="name" v="Skifterinden" />
		<tag k="place" v="locality" />
		<tag k="ssr:stedsnr" v="286292" />
	</node>
	<node lat="60.4615722244117" lon="5.518608331642633" id="-74216">
		<tag k="name" v="Hermannsdalen" />
		<tag k="natural" v="valley" />
		<tag k="place" v="locality" />
		<tag k="ssr:stedsnr" v="286293" />
	</node>
	<node lat="60.50591110709213" lon="5.484019446431163" id="-74218">
		<tag k="name" v="Kletten" />
		<tag k="place" v="locality" />
		<tag k="ssr:stedsnr" v="286743" />
	</node>
	<node lat="60.53092222094391" lon="5.555394445055217" id="-74222">
		<tag k="alt_name" v="Klepsfjellet" />
		<tag k="fixme" v="consider natural=peak for the most distinct mountains in the district" />
		<tag k="name" v="Kleppsfjellet" />
		<tag k="natural" v="hill" />
		<tag k="place" v="locality" />
		<tag k="ssr:stedsnr" v="287710" />
	</node>
	<node lat="60.53334444066714" lon="5.470911111730484" id="-74223">
		<tag k="fixme" v="consider natural=peak for the most distinct mountains in the district" />
		<tag k="name" v="Dalslia" />
		<tag k="natural" v="hill" />
		<tag k="place" v="locality" />
		<tag k="ssr:stedsnr" v="287716" />
	</node>
	<node lat="60.52933888859009" lon="5.478852781558398" id="-74224">
		<tag k="name" v="Salbustallen" />
		<tag k="natural" v="hill" />
		<tag k="place" v="locality" />
		<tag k="ssr:stedsnr" v="287717" />
	</node>
	<node lat="60.52143611423224" lon="5.486149991476892" id="-74225">
		<tag k="name" v="Borgaskaret" />
		<tag k="natural" v="hill" />
		<tag k="place" v="locality" />
		<tag k="ssr:stedsnr" v="287719" />
	</node>
	<node lat="60.51914166408118" lon="5.418747229217299" id="-74226">
		<tag k="name" v="Unndal" />
		<tag k="natural" v="valley" />
		<tag k="place" v="locality" />
		<tag k="ssr:stedsnr" v="288355" />
	</node>
	<node lat="60.44230833216919" lon="5.579016666352212" id="-74229">
		<tag k="name" v="Slåttena" />
		<tag k="natural" v="hill" />
		<tag k="place" v="locality" />
		<tag k="ssr:stedsnr" v="288451" />
	</node>
	<node lat="60.49611667046347" lon="5.690863885065529" id="-74230">
		<tag k="fixme" v="consider natural=peak for the most distinct mountains in the district" />
		<tag k="name" v="Galnanipa" />
		<tag k="natural" v="hill" />
		<tag k="place" v="locality" />
		<tag k="ssr:stedsnr" v="288527" />
	</node>
	<node lat="60.48863442369331" lon="5.673697326078851" id="-74231">
		<tag k="name" v="Trollhaugen" />
		<tag k="natural" v="hill" />
		<tag k="place" v="locality" />
		<tag k="ssr:stedsnr" v="288534" />
	</node>
	<node lat="60.49306111251817" lon="5.530491669948567" id="-74232">
		<tag k="name" v="Mælerinden" />
		<tag k="natural" v="hill" />
		<tag k="place" v="locality" />
		<tag k="ssr:stedsnr" v="287672" />
	</node>
	<node lat="60.51752777423868" lon="5.596366671773164" id="-74233">
		<tag k="name" v="Hakenesstemma" />
		<tag k="place" v="locality" />
		<tag k="ssr:stedsnr" v="288577" />
	</node>
	<node lat="60.485944440632004" lon="5.551925008737628" id="-74235">
		<tag k="name" v="Ballhaugen" />
		<tag k="natural" v="hill" />
		<tag k="place" v="locality" />
		<tag k="ssr:stedsnr" v="288595" />
	</node>
	<node lat="60.56556389314711" lon="5.478772226756288" id="-74236">
		<tag k="fixme" v="consider natural=peak for the most distinct mountains in the district" />
		<tag k="name" v="Holaåsen" />
		<tag k="natural" v="hill" />
		<tag k="place" v="locality" />
		<tag k="ssr:stedsnr" v="288706" />
	</node>
	<node lat="60.50965833355445" lon="5.472741662870397" id="-74240">
		<tag k="name" v="Kledberget" />
		<tag k="natural" v="hill" />
		<tag k="place" v="locality" />
		<tag k="ssr:stedsnr" v="288674" />
	</node>
	<node lat="60.48989166463988" lon="5.4497388800224105" id="-74241">
		<tag k="name" v="Dalsrinden" />
		<tag k="natural" v="valley" />
		<tag k="place" v="locality" />
		<tag k="ssr:stedsnr" v="288742" />
	</node>
	<node lat="60.531113885565226" lon="5.376636105130249" id="-74244">
		<tag k="name" v="Seljerinden" />
		<tag k="place" v="locality" />
		<tag k="ssr:stedsnr" v="288774" />
	</node>
	<node lat="60.53280000102176" lon="5.451194436352483" id="-74245">
		<tag k="name" v="Snauhaugen" />
		<tag k="natural" v="hill" />
		<tag k="place" v="locality" />
		<tag k="ssr:stedsnr" v="288836" />
	</node>
	<node lat="60.47157499958892" lon="5.511005552191362" id="-74246">
		<tag k="name" v="Seilane" />
		<tag k="place" v="locality" />
		<tag k="ssr:stedsnr" v="288841" />
	</node>
	<node lat="60.46408888484904" lon="5.50658888975751" id="-74247">
		<tag k="name" v="Presten og Klokkaren" />
		<tag k="natural" v="hill" />
		<tag k="place" v="locality" />
		<tag k="ssr:stedsnr" v="288843" />
	</node>
	<node lat="60.46885555633927" lon="5.51941388580235" id="-74249">
		<tag k="name" v="Ålmenningi" />
		<tag k="place" v="locality" />
		<tag k="ssr:stedsnr" v="288868" />
	</node>
	<node lat="60.57886388813446" lon="5.522619452595654" id="-74253">
		<tag k="name" v="Brattlia" />
		<tag k="natural" v="slope" />
		<tag k="place" v="locality" />
		<tag k="ssr:stedsnr" v="294552" />
	</node>
	<node lat="60.56285555425587" lon="5.4922999913959005" id="-74257">
		<tag k="name" v="Kossdalen" />
		<tag k="natural" v="valley" />
		<tag k="place" v="locality" />
		<tag k="ssr:stedsnr" v="309619" />
	</node>
	<node lat="60.50527500242091" lon="5.677777778195248" id="-74261">
		<tag k="fixme" v="consider natural=peak for the most distinct mountains in the district" />
		<tag k="name" v="Olsnesnipa" />
		<tag k="natural" v="hill" />
		<tag k="place" v="locality" />
		<tag k="ssr:stedsnr" v="310026" />
	</node>
	<node lat="60.51522777609004" lon="5.522855560664018" id="-74265">
		<tag k="fixme" v="consider natural=peak for the most distinct mountains in the district" />
		<tag k="name" v="Flatevad" />
		<tag k="natural" v="hill" />
		<tag k="place" v="locality" />
		<tag k="ssr:stedsnr" v="309968" />
	</node>
	<node lat="60.5182499972533" lon="5.492194451658241" id="-74268">
		<tag k="name" v="Klyvebotnen" />
		<tag k="natural" v="valley" />
		<tag k="place" v="locality" />
		<tag k="ssr:stedsnr" v="347738" />
	</node>
	<node lat="60.55243055713727" lon="5.514383330394081" id="-74275">
		<tag k="name" v="Olderhaugen" />
		<tag k="natural" v="hill" />
		<tag k="place" v="locality" />
		<tag k="ssr:stedsnr" v="348479" />
	</node>
	<node lat="60.55428333357885" lon="5.538158330431595" id="-74277">
		<tag k="name" v="Heia" />
		<tag k="natural" v="hill" />
		<tag k="place" v="locality" />
		<tag k="ssr:stedsnr" v="348496" />
	</node>
	<node lat="60.521522218395056" lon="5.66461110801329" id="-74278">
		<tag k="name" v="Knåttråghaugane" />
		<tag k="natural" v="hill" />
		<tag k="place" v="locality" />
		<tag k="ssr:stedsnr" v="348591" />
	</node>
	<node lat="60.5289972179767" lon="5.66089722613614" id="-74279">
		<tag k="name" v="Kammarbrunæ" />
		<tag k="place" v="locality" />
		<tag k="ssr:stedsnr" v="348593" />
	</node>
	<node lat="60.51821110981215" lon="5.629911105928481" id="-74280">
		<tag k="name" v="Setleite" />
		<tag k="place" v="locality" />
		<tag k="ssr:stedsnr" v="348595" />
	</node>
	<node lat="60.51766389035491" lon="5.621216663199733" id="-74281">
		<tag k="name" v="Slåttna" />
		<tag k="natural" v="hill" />
		<tag k="place" v="locality" />
		<tag k="ssr:stedsnr" v="348596" />
	</node>
	<node lat="60.5147194402894" lon="5.4749972260417135" id="-74283">
		<tag k="name" v="Kolabakkane" />
		<tag k="natural" v="slope" />
		<tag k="place" v="locality" />
		<tag k="ssr:stedsnr" v="348689" />
	</node>
	<node lat="60.53635555829063" lon="5.521136104841757" id="-74284">
		<tag k="name" v="Svenheimsdalen" />
		<tag k="natural" v="valley" />
		<tag k="place" v="locality" />
		<tag k="ssr:stedsnr" v="348772" />
	</node>
	<node lat="60.51702777658207" lon="5.64427500392096" id="-74287">
		<tag k="name" v="Tangane" />
		<tag k="place" v="locality" />
		<tag k="ssr:stedsnr" v="348428" />
	</node>
	<node lat="60.49271388759285" lon="5.610436109456703" id="-74288">
		<tag k="name" v="Bjørkerinden" />
		<tag k="place" v="locality" />
		<tag k="ssr:stedsnr" v="348534" />
	</node>
	<node lat="60.495880556018" lon="5.686880563274393" id="-74290">
		<tag k="name" v="Storebotnen" />
		<tag k="natural" v="valley" />
		<tag k="place" v="locality" />
		<tag k="ssr:stedsnr" v="348551" />
	</node>
	<node lat="60.535388892414126" lon="5.497672224883236" id="-74291">
		<tag k="name" v="Store Varden" />
		<tag k="natural" v="hill" />
		<tag k="place" v="locality" />
		<tag k="ssr:stedsnr" v="348644" />
	</node>
	<node lat="60.4906083337763" lon="5.573152784063079" id="-74293">
		<tag k="name" v="Vatnaleitet" />
		<tag k="natural" v="hill" />
		<tag k="place" v="locality" />
		<tag k="ssr:stedsnr" v="348835" />
	</node>
	<node lat="60.49072778091632" lon="5.564255548104732" id="-74294">
		<tag k="name" v="Honkane" />
		<tag k="place" v="locality" />
		<tag k="ssr:stedsnr" v="348836" />
	</node>
	<node lat="60.54101388860741" lon="5.39483333603446" id="-74296">
		<tag k="name" v="Tyttebærrinden" />
		<tag k="place" v="locality" />
		<tag k="ssr:stedsnr" v="348775" />
	</node>
	<node lat="60.52170277450219" lon="5.366963888363374" id="-74297">
		<tag k="name" v="Ramberget" />
		<tag k="natural" v="hill" />
		<tag k="place" v="locality" />
		<tag k="ssr:stedsnr" v="348780" />
	</node>
	<node lat="60.53017777586847" lon="5.353505547818488" id="-74298">
		<tag k="name" v="Rinden" />
		<tag k="place" v="locality" />
		<tag k="ssr:stedsnr" v="348782" />
	</node>
	<node lat="60.58182500288455" lon="5.462247212970253" id="-74300">
		<tag k="name" v="Heia" />
		<tag k="natural" v="hill" />
		<tag k="place" v="locality" />
		<tag k="ssr:stedsnr" v="348798" />
	</node>
	<node lat="60.45018611085628" lon="5.595686108550298" id="-74303">
		<tag k="fixme" v="consider natural=peak for the most distinct mountains in the district" />
		<tag k="name" v="Stokkhella" />
		<tag k="natural" v="hill" />
		<tag k="place" v="locality" />
		<tag k="ssr:stedsnr" v="369009" />
	</node>
	<node lat="60.48024064841584" lon="5.455571514596109" id="-74304">
		<tag k="name" v="Rosshaugen" />
		<tag k="natural" v="hill" />
		<tag k="place" v="locality" />
		<tag k="ssr:stedsnr" v="369362" />
	</node>
	<node lat="60.47777222046031" lon="5.6479611034768835" id="-74307">
		<tag k="fixme" v="consider natural=peak for the most distinct mountains in the district" />
		<tag k="name" v="Svartaberget" />
		<tag k="natural" v="hill" />
		<tag k="place" v="locality" />
		<tag k="ssr:stedsnr" v="369944" />
	</node>
	<node lat="60.50610833077005" lon="5.586027775115568" id="-74317">
		<tag k="alt_name" v="Stangfjellet" />
		<tag k="fixme" v="consider natural=peak for the most distinct mountains in the district" />
		<tag k="name" v="Stongfjellet" />
		<tag k="natural" v="hill" />
		<tag k="place" v="locality" />
		<tag k="ssr:stedsnr" v="370998" />
	</node>
	<node lat="60.496688890358" lon="5.559563888723662" id="-74320">
		<tag k="name" v="Bukkedalen" />
		<tag k="natural" v="valley" />
		<tag k="place" v="locality" />
		<tag k="ssr:stedsnr" v="408310" />
	</node>
	<node lat="60.669436113256666" lon="5.647166665728552" id="-74321">
		<tag k="fixme" v="consider natural=peak for the most distinct mountains in the district" />
		<tag k="name" v="Mosafjellet" />
		<tag k="natural" v="hill" />
		<tag k="place" v="locality" />
		<tag k="ssr:stedsnr" v="408288" />
	</node>
	<node lat="60.47340278230299" lon="5.466544445497935" id="-74322">
		<tag k="alt_name" v="Hakstein" />
		<tag k="name" v="Hakkstein" />
		<tag k="natural" v="cliff" />
		<tag k="ssr:stedsnr" v="408551" />
	</node>
	<node lat="60.50209999803569" lon="5.512802783358553" id="-74323">
		<tag k="fixme" v="consider natural=peak for the most distinct mountains in the district" />
		<tag k="name" v="Øykåsen" />
		<tag k="natural" v="hill" />
		<tag k="place" v="locality" />
		<tag k="ssr:stedsnr" v="408714" />
	</node>
	<node lat="60.4483416699418" lon="5.529872225144813" id="-74325">
		<tag k="fixme" v="consider natural=peak for the most distinct mountains in the district" />
		<tag k="name" v="Hovåsen" />
		<tag k="natural" v="hill" />
		<tag k="place" v="locality" />
		<tag k="ssr:stedsnr" v="409478" />
	</node>
	<node lat="60.44618333265652" lon="5.533069451758626" id="-74326">
		<tag k="name" v="Breidalen" />
		<tag k="natural" v="valley" />
		<tag k="place" v="locality" />
		<tag k="ssr:stedsnr" v="409479" />
	</node>
	<node lat="60.454515655275685" lon="5.5204024420328786" id="-74327">
		<tag k="name" v="Teigen" />
		<tag k="place" v="locality" />
		<tag k="ssr:stedsnr" v="409480" />
	</node>
	<node lat="60.482416663286756" lon="5.657880549205937" id="-74329">
		<tag k="name" v="Herdalshaugen" />
		<tag k="natural" v="hill" />
		<tag k="place" v="locality" />
		<tag k="ssr:stedsnr" v="409563" />
	</node>
	<node lat="60.50960000386292" lon="5.418536109255101" id="-74330">
		<tag k="fixme" v="consider natural=peak for the most distinct mountains in the district" />
		<tag k="name" v="Eidefjell" />
		<tag k="natural" v="hill" />
		<tag k="place" v="locality" />
		<tag k="ssr:stedsnr" v="409373" />
	</node>
	<node lat="60.58366389277248" lon="5.5559861043579675" id="-74333">
		<tag k="name" v="Kleppsfjellet" />
		<tag k="natural" v="hill" />
		<tag k="place" v="locality" />
		<tag k="ssr:stedsnr" v="409386" />
	</node>
	<node lat="60.551338889984194" lon="5.589855562958595" id="-74336">
		<tag k="name" v="Nesjane" />
		<tag k="place" v="locality" />
		<tag k="ssr:stedsnr" v="409422" />
	</node>
	<node lat="60.58343611334457" lon="5.595705558290845" id="-74337">
		<tag k="name" v="Ålgroå" />
		<tag k="natural" v="hill" />
		<tag k="place" v="locality" />
		<tag k="ssr:stedsnr" v="409433" />
	</node>
	<node lat="60.58981111296937" lon="5.537497218425598" id="-74338">
		<tag k="name" v="Støldalen" />
		<tag k="natural" v="valley" />
		<tag k="place" v="locality" />
		<tag k="ssr:stedsnr" v="409521" />
	</node>
	<node lat="60.451138891602604" lon="5.615641669551435" id="-74341">
		<tag k="name" v="Skarphaugen" />
		<tag k="natural" v="hill" />
		<tag k="place" v="locality" />
		<tag k="ssr:stedsnr" v="409538" />
	</node>
	<node lat="60.540561114906005" lon="5.589938893943169" id="-74342">
		<tag k="alt_name" v="Kalleklauberget" />
		<tag k="name" v="Kalleklauvberget" />
		<tag k="natural" v="hill" />
		<tag k="place" v="locality" />
		<tag k="ssr:stedsnr" v="409590" />
	</node>
	<node lat="60.53734721811608" lon="5.650302786561702" id="-74343">
		<tag k="name" v="Skommabotnen" />
		<tag k="natural" v="valley" />
		<tag k="place" v="locality" />
		<tag k="ssr:stedsnr" v="409595" />
	</node>
	<node lat="60.533472223765536" lon="5.64473889763742" id="-74344">
		<tag k="name" v="Haugen" />
		<tag k="natural" v="hill" />
		<tag k="place" v="locality" />
		<tag k="ssr:stedsnr" v="409597" />
	</node>
	<node lat="60.47109166905654" lon="5.592224992634092" id="-74346">
		<tag k="name" v="Blomskaret" />
		<tag k="natural" v="hill" />
		<tag k="place" v="locality" />
		<tag k="ssr:stedsnr" v="409577" />
	</node>
	<node lat="60.45874166490922" lon="5.531538883126895" id="-74349">
		<tag k="name" v="Sverinden" />
		<tag k="natural" v="hill" />
		<tag k="place" v="locality" />
		<tag k="ssr:stedsnr" v="409659" />
	</node>
	<node lat="60.50859444106009" lon="5.562911115173283" id="-74353">
		<tag k="name" v="Oksli" />
		<tag k="natural" v="slope" />
		<tag k="place" v="locality" />
		<tag k="ssr:stedsnr" v="409737" />
	</node>
	<node lat="60.51461944295735" lon="5.576055550029924" id="-74354">
		<tag k="name" v="Svaena" />
		<tag k="natural" v="hill" />
		<tag k="place" v="locality" />
		<tag k="ssr:stedsnr" v="409738" />
	</node>
	<node lat="60.4852944441382" lon="5.455299993631926" id="-74355">
		<tag k="name" v="Geitryggen" />
		<tag k="natural" v="ridge" />
		<tag k="place" v="locality" />
		<tag k="ssr:stedsnr" v="409757" />
	</node>
	<node lat="60.54025555340579" lon="5.368975007715996" id="-74357">
		<tag k="name" v="Jovikleiv" />
		<tag k="natural" v="gorge" />
		<tag k="ssr:stedsnr" v="409784" />
	</node>
	<node lat="60.528647218530324" lon="5.364958328948378" id="-74358">
		<tag k="name" v="Treshaugen" />
		<tag k="natural" v="hill" />
		<tag k="place" v="locality" />
		<tag k="ssr:stedsnr" v="409787" />
	</node>
	<node lat="60.55111944096248" lon="5.4001861116899805" id="-74360">
		<tag k="name" v="Langheia" />
		<tag k="natural" v="slope" />
		<tag k="place" v="locality" />
		<tag k="ssr:stedsnr" v="415452" />
	</node>
	<node lat="60.5268444424913" lon="5.429130547381429" id="-74364">
		<tag k="fixme" v="consider natural=peak for the most distinct mountains in the district" />
		<tag k="name" v="Horsåsfjellet" />
		<tag k="natural" v="hill" />
		<tag k="place" v="locality" />
		<tag k="ssr:stedsnr" v="431536" />
	</node>
	<node lat="60.58963333508236" lon="5.493291667855585" id="-74367">
		<tag k="name" v="Nordlia" />
		<tag k="natural" v="slope" />
		<tag k="place" v="locality" />
		<tag k="ssr:stedsnr" v="431566" />
	</node>
	<node lat="60.60902499630214" lon="5.603891673002478" id="-74372">
		<tag k="name" v="Austerlii" />
		<tag k="natural" v="slope" />
		<tag k="place" v="locality" />
		<tag k="ssr:stedsnr" v="431757" />
	</node>
	<node lat="60.5190305525021" lon="5.594438897309231" id="-74374">
		<tag k="fixme" v="consider natural=peak for the most distinct mountains in the district" />
		<tag k="name" v="Nuken" />
		<tag k="natural" v="hill" />
		<tag k="place" v="locality" />
		<tag k="ssr:stedsnr" v="431970" />
	</node>
	<node lat="60.491805557064296" lon="5.456361116881885" id="-74379">
		<tag k="name" v="Stemedalen" />
		<tag k="natural" v="valley" />
		<tag k="place" v="locality" />
		<tag k="ssr:stedsnr" v="529279" />
	</node>
	<node lat="60.49603055132444" lon="5.4806277774433205" id="-74381">
		<tag k="name" v="Dyrbotsskaret" />
		<tag k="natural" v="hill" />
		<tag k="place" v="locality" />
		<tag k="ssr:stedsnr" v="529440" />
	</node>
	<node lat="60.49568888617901" lon="5.473827777102523" id="-74382">
		<tag k="name" v="Slåttedalen" />
		<tag k="natural" v="valley" />
		<tag k="place" v="locality" />
		<tag k="ssr:stedsnr" v="529454" />
	</node>
	<node lat="60.503883328678256" lon="5.508655547955638" id="-74384">
		<tag k="name" v="Kvitkleiva" />
		<tag k="place" v="locality" />
		<tag k="ssr:stedsnr" v="529712" />
	</node>
	<node lat="60.591977778348145" lon="5.562025001988845" id="-74389">
		<tag k="name" v="Budalsbråta" />
		<tag k="natural" v="hill" />
		<tag k="place" v="locality" />
		<tag k="ssr:stedsnr" v="530555" />
	</node>
	<node lat="60.455277780415926" lon="5.602519435899255" id="-74390">
		<tag k="name" v="Rivenes" />
		<tag k="place" v="locality" />
		<tag k="ssr:stedsnr" v="530568" />
	</node>
	<node lat="60.45057500064463" lon="5.543463889989444" id="-74391">
		<tag k="name" v="Årbitshaugen" />
		<tag k="natural" v="hill" />
		<tag k="place" v="locality" />
		<tag k="ssr:stedsnr" v="530501" />
	</node>
	<node lat="60.48575277834749" lon="5.682686111880793" id="-74392">
		<tag k="name" v="Utløhaugen" />
		<tag k="natural" v="hill" />
		<tag k="place" v="locality" />
		<tag k="ssr:stedsnr" v="530599" />
	</node>
	<node lat="60.47626111485799" lon="5.544599993458599" id="-74393">
		<tag k="name" v="Stemmelia" />
		<tag k="natural" v="slope" />
		<tag k="place" v="locality" />
		<tag k="ssr:stedsnr" v="530675" />
	</node>
	<node lat="60.53641388524296" lon="5.404636110279654" id="-74394">
		<tag k="name" v="Trodalen" />
		<tag k="natural" v="valley" />
		<tag k="place" v="locality" />
		<tag k="ssr:stedsnr" v="530784" />
	</node>
	<node lat="60.525775004080145" lon="5.375291672499772" id="-74395">
		<tag k="fixme" v="consider natural=peak for the most distinct mountains in the district" />
		<tag k="name" v="Eikelandsfjell" />
		<tag k="natural" v="hill" />
		<tag k="place" v="locality" />
		<tag k="ssr:stedsnr" v="530794" />
	</node>
	<node lat="60.53819444871793" lon="5.366141657835892" id="-74396">
		<tag k="name" v="Langedalen" />
		<tag k="natural" v="valley" />
		<tag k="place" v="locality" />
		<tag k="ssr:stedsnr" v="530801" />
	</node>
	<node lat="60.52061944133863" lon="5.400036115356765" id="-74398">
		<tag k="fixme" v="consider natural=peak for the most distinct mountains in the district" />
		<tag k="name" v="Brattfjellet" />
		<tag k="natural" v="hill" />
		<tag k="place" v="locality" />
		<tag k="ssr:stedsnr" v="530807" />
	</node>
	<node lat="60.48773889296377" lon="5.533397222578071" id="-74400">
		<tag k="name" v="Træena" />
		<tag k="place" v="locality" />
		<tag k="ssr:stedsnr" v="530637" />
	</node>
	<node lat="60.49324722006276" lon="5.527888884124721" id="-74401">
		<tag k="name" v="Storhovden" />
		<tag k="natural" v="hill" />
		<tag k="place" v="locality" />
		<tag k="ssr:stedsnr" v="530643" />
	</node>
	<node lat="60.48521389331985" lon="5.5463694415732885" id="-74402">
		<tag k="name" v="Grønskaret" />
		<tag k="natural" v="hill" />
		<tag k="place" v="locality" />
		<tag k="ssr:stedsnr" v="530651" />
	</node>
	<node lat="60.456336111785554" lon="5.566924997536299" id="-74403">
		<tag k="name" v="Havrådalen" />
		<tag k="natural" v="valley" />
		<tag k="place" v="locality" />
		<tag k="ssr:stedsnr" v="530655" />
	</node>
	<node lat="60.462658329304894" lon="5.548544449647099" id="-74404">
		<tag k="name" v="Tingtunteigen" />
		<tag k="place" v="locality" />
		<tag k="ssr:stedsnr" v="530656" />
	</node>
	<node lat="60.49095277349139" lon="5.5475361176500595" id="-74405">
		<tag k="name" v="Likskarvet" />
		<tag k="natural" v="hill" />
		<tag k="place" v="locality" />
		<tag k="ssr:stedsnr" v="530665" />
	</node>
	<node lat="60.48535000277851" lon="5.472069447731472" id="-74406">
		<tag k="name" v="Jædbærdalen" />
		<tag k="natural" v="valley" />
		<tag k="place" v="locality" />
		<tag k="ssr:stedsnr" v="530754" />
	</node>
	<node lat="60.491297222068255" lon="5.447438888251358" id="-74408">
		<tag k="name" v="Bjørnskaret" />
		<tag k="natural" v="hill" />
		<tag k="place" v="locality" />
		<tag k="ssr:stedsnr" v="530768" />
	</node>
	<node lat="60.46070555789296" lon="5.51276943779206" id="-74409">
		<tag k="name" v="Kleivadalane" />
		<tag k="natural" v="valley" />
		<tag k="place" v="locality" />
		<tag k="ssr:stedsnr" v="530861" />
	</node>
	<node lat="60.51191388932377" lon="5.598180564085049" id="-74413">
		<tag k="fixme" v="consider natural=peak for the most distinct mountains in the district" />
		<tag k="name" v="Låstadkletten" />
		<tag k="natural" v="hill" />
		<tag k="old_name" v="Litlandskollen" />
		<tag k="place" v="locality" />
		<tag k="ssr:stedsnr" v="533637" />
	</node>
	<node lat="60.52586944731846" lon="5.371880563967274" id="-74415">
		<tag k="fixme" v="consider natural=peak for the most distinct mountains in the district" />
		<tag k="name" v="Fårikken" />
		<tag k="natural" v="hill" />
		<tag k="place" v="locality" />
		<tag k="ssr:stedsnr" v="551362" />
	</node>
	<node lat="60.637238888314165" lon="5.630158332082" id="-74418">
		<tag k="alt_name" v="Knudsstien" />
		<tag k="name" v="Knutstigen" />
		<tag k="natural" v="hill" />
		<tag k="place" v="locality" />
		<tag k="ssr:stedsnr" v="551701" />
	</node>
	<node lat="60.52801944865946" lon="5.47853056345066" id="-74419">
		<tag k="fixme" v="consider natural=peak for the most distinct mountains in the district" />
		<tag k="name" v="Geitaryggen" />
		<tag k="natural" v="hill" />
		<tag k="place" v="locality" />
		<tag k="ssr:stedsnr" v="551927" />
	</node>
	<node lat="60.496655557415004" lon="5.523911104292074" id="-74420">
		<tag k="name" v="Kyrhovden" />
		<tag k="natural" v="hill" />
		<tag k="place" v="locality" />
		<tag k="ssr:stedsnr" v="551991" />
	</node>
	<node lat="60.55374722223601" lon="5.401558327718518" id="-74423">
		<tag k="name" v="Hjellvikknappen" />
		<tag k="natural" v="hill" />
		<tag k="place" v="locality" />
		<tag k="ssr:stedsnr" v="552470" />
	</node>
	<node lat="60.60009999632005" lon="5.627694451121383" id="-74426">
		<tag k="fixme" v="consider natural=peak for the most distinct mountains in the district" />
		<tag k="name" v="Helldalsfjellet" />
		<tag k="natural" v="hill" />
		<tag k="place" v="locality" />
		<tag k="ssr:stedsnr" v="552584" />
	</node>
	<node lat="60.52064999655883" lon="5.605755549313751" id="-74430">
		<tag k="fixme" v="consider natural=peak for the most distinct mountains in the district" />
		<tag k="name" v="Geitnipa" />
		<tag k="natural" v="hill" />
		<tag k="place" v="locality" />
		<tag k="ssr:stedsnr" v="552982" />
	</node>
	<node lat="60.51112499614931" lon="5.589144443209587" id="-74432">
		<tag k="name" v="Londalen" />
		<tag k="natural" v="valley" />
		<tag k="place" v="locality" />
		<tag k="ssr:stedsnr" v="552969" />
	</node>
	<node lat="60.5280694424571" lon="5.544019448041627" id="-74439">
		<tag k="name" v="Kletten" />
		<tag k="natural" v="hill" />
		<tag k="place" v="locality" />
		<tag k="ssr:stedsnr" v="589682" />
	</node>
	<node lat="60.521816668120984" lon="5.493280560872069" id="-74440">
		<tag k="name" v="Nauststallen" />
		<tag k="natural" v="hill" />
		<tag k="place" v="locality" />
		<tag k="ssr:stedsnr" v="590681" />
	</node>
	<node lat="60.531002775107304" lon="5.54089444830867" id="-74441">
		<tag k="name" v="Botnen" />
		<tag k="natural" v="valley" />
		<tag k="place" v="locality" />
		<tag k="ssr:stedsnr" v="590687" />
	</node>
	<node lat="60.523455555472054" lon="5.47266667396761" id="-74442">
		<tag k="name" v="Fløya Svena" />
		<tag k="place" v="locality" />
		<tag k="ssr:stedsnr" v="590694" />
	</node>
	<node lat="60.65409444209328" lon="5.653611116990895" id="-74445">
		<tag k="name" v="Høgenipo" />
		<tag k="natural" v="hill" />
		<tag k="place" v="locality" />
		<tag k="ssr:stedsnr" v="591392" />
	</node>
	<node lat="60.65282500129896" lon="5.628980553881648" id="-74446">
		<tag k="name" v="Grasdalen" />
		<tag k="natural" v="valley" />
		<tag k="place" v="locality" />
		<tag k="ssr:stedsnr" v="591394" />
	</node>
	<node lat="60.44821111113528" lon="5.601727777743806" id="-74448">
		<tag k="name" v="Stokkura" />
		<tag k="natural" v="hill" />
		<tag k="place" v="locality" />
		<tag k="ssr:stedsnr" v="591533" />
	</node>
	<node lat="60.48365555158004" lon="5.597155552850947" id="-74450">
		<tag k="name" v="Skoddberget" />
		<tag k="natural" v="hill" />
		<tag k="place" v="locality" />
		<tag k="ssr:stedsnr" v="591544" />
	</node>
	<node lat="60.48642777465802" lon="5.65761389046646" id="-74452">
		<tag k="name" v="Middagshaugen" />
		<tag k="natural" v="hill" />
		<tag k="place" v="locality" />
		<tag k="ssr:stedsnr" v="591548" />
	</node>
	<node lat="60.50590000333096" lon="5.638808332999231" id="-74453">
		<tag k="fixme" v="consider natural=peak for the most distinct mountains in the district" />
		<tag k="name" v="Lunnekleiva" />
		<tag k="natural" v="hill" />
		<tag k="place" v="locality" />
		<tag k="ssr:stedsnr" v="591581" />
	</node>
	<node lat="60.51497500133187" lon="5.47987222683066" id="-74456">
		<tag k="fixme" v="consider natural=peak for the most distinct mountains in the district" />
		<tag k="name" v="Stuttåsen" />
		<tag k="natural" v="hill" />
		<tag k="place" v="locality" />
		<tag k="ssr:stedsnr" v="591690" />
	</node>
	<node lat="60.53586667097043" lon="5.355388884495174" id="-74457">
		<tag k="fixme" v="consider natural=peak for the most distinct mountains in the district" />
		<tag k="name" v="Aasen" />
		<tag k="natural" v="hill" />
		<tag k="place" v="locality" />
		<tag k="ssr:stedsnr" v="591785" />
	</node>
	<node lat="60.46321666551529" lon="5.525597213365084" id="-74460">
		<tag k="name" v="Setstølen" />
		<tag k="natural" v="hill" />
		<tag k="place" v="locality" />
		<tag k="ssr:stedsnr" v="591861" />
	</node>
	<node lat="60.56150277620228" lon="5.501213885582643" id="-74461">
		<tag k="name" v="Tåna" />
		<tag k="place" v="locality" />
		<tag k="ssr:stedsnr" v="591497" />
	</node>
	<node lat="60.51117222423237" lon="5.542411105563531" id="-74462">
		<tag k="name" v="Varuskaret" />
		<tag k="natural" v="hill" />
		<tag k="place" v="locality" />
		<tag k="ssr:stedsnr" v="591706" />
	</node>
	<node lat="60.50946944255922" lon="5.545005550880209" id="-74463">
		<tag k="name" v="Nonskaret" />
		<tag k="natural" v="hill" />
		<tag k="place" v="locality" />
		<tag k="ssr:stedsnr" v="591708" />
	</node>
	<node lat="60.50243610939873" lon="5.473580548599003" id="-74464">
		<tag k="name" v="Skytjebakken" />
		<tag k="natural" v="slope" />
		<tag k="place" v="locality" />
		<tag k="ssr:stedsnr" v="591715" />
	</node>
	<node lat="60.50581666984222" lon="5.474575003018466" id="-74465">
		<tag k="name" v="Kollhaugen" />
		<tag k="natural" v="hill" />
		<tag k="place" v="locality" />
		<tag k="ssr:stedsnr" v="591718" />
	</node>
	<node lat="60.565394442643395" lon="5.487325000483851" id="-74466">
		<tag k="name" v="Trolshovden" />
		<tag k="place" v="locality" />
		<tag k="ssr:stedsnr" v="591721" />
	</node>
	<node lat="60.46188889220909" lon="5.476616668156049" id="-74468">
		<tag k="name" v="Nausthaugen" />
		<tag k="natural" v="hill" />
		<tag k="place" v="locality" />
		<tag k="ssr:stedsnr" v="591845" />
	</node>
	<node lat="60.46969999724208" lon="5.495619453422199" id="-74471">
		<tag k="name" v="Tjørnaleitet" />
		<tag k="place" v="locality" />
		<tag k="ssr:stedsnr" v="591868" />
	</node>
	<node lat="60.594111113667736" lon="5.655874994987548" id="-74478">
		<tag k="fixme" v="consider natural=peak for the most distinct mountains in the district" />
		<tag k="name" v="Litlafjellet" />
		<tag k="natural" v="hill" />
		<tag k="place" v="locality" />
		<tag k="ssr:stedsnr" v="612556" />
	</node>
	<node lat="60.49601389101013" lon="5.540030553012063" id="-74490">
		<tag k="name" v="Presttunåsen" />
		<tag k="natural" v="hill" />
		<tag k="place" v="locality" />
		<tag k="ssr:stedsnr" v="612980" />
	</node>
	<node lat="60.689588890977234" lon="5.656824994155383" id="-74492">
		<tag k="fixme" v="consider natural=peak for the most distinct mountains in the district" />
		<tag k="name" v="Fløyfjellet" />
		<tag k="natural" v="hill" />
		<tag k="place" v="locality" />
		<tag k="ssr:stedsnr" v="613380" />
	</node>
	<node lat="60.53470000355353" lon="5.3601277688324" id="-74493">
		<tag k="name" v="Sveivane" />
		<tag k="natural" v="hill" />
		<tag k="place" v="locality" />
		<tag k="ssr:stedsnr" v="613395" />
	</node>
	<node lat="60.53200833137696" lon="5.4714027853447655" id="-74494">
		<tag k="name" v="Randberget" />
		<tag k="natural" v="hill" />
		<tag k="place" v="locality" />
		<tag k="ssr:stedsnr" v="613888" />
	</node>
	<node lat="60.49683611383065" lon="5.5053944450038355" id="-74498">
		<tag k="name" v="Kletten" />
		<tag k="natural" v="hill" />
		<tag k="place" v="locality" />
		<tag k="ssr:stedsnr" v="650423" />
	</node>
	<node lat="60.49449722352086" lon="5.499922214493619" id="-74499">
		<tag k="name" v="Geitstigen" />
		<tag k="place" v="locality" />
		<tag k="ssr:stedsnr" v="650424" />
	</node>
	<node lat="60.43169166824389" lon="5.533702770098628" id="-74500">
		<tag k="name" v="Einhaugen" />
		<tag k="natural" v="hill" />
		<tag k="place" v="locality" />
		<tag k="ssr:stedsnr" v="650433" />
	</node>
	<node lat="60.445111106765864" lon="5.603025002354518" id="-74501">
		<tag k="name" v="Erdalen" />
		<tag k="natural" v="valley" />
		<tag k="place" v="locality" />
		<tag k="ssr:stedsnr" v="650255" />
	</node>
	<node lat="60.52428611203723" lon="5.63216389261849" id="-74502">
		<tag k="name" v="Kalltrehaugen" />
		<tag k="natural" v="hill" />
		<tag k="place" v="locality" />
		<tag k="ssr:stedsnr" v="650271" />
	</node>
	<node lat="60.51711094473275" lon="5.408511717897" id="-74503">
		<tag k="name" v="Sædalen" />
		<tag k="natural" v="valley" />
		<tag k="place" v="locality" />
		<tag k="ssr:stedsnr" v="650284" />
	</node>
	<node lat="60.517502779663474" lon="5.5132722291739515" id="-74505">
		<tag k="name" v="Støldalen" />
		<tag k="natural" v="valley" />
		<tag k="place" v="locality" />
		<tag k="ssr:stedsnr" v="650676" />
	</node>
	<node lat="60.58021944232405" lon="5.576161112346566" id="-74507">
		<tag k="fixme" v="consider natural=peak for the most distinct mountains in the district" />
		<tag k="name" v="Skarfjelllet" />
		<tag k="natural" v="hill" />
		<tag k="place" v="locality" />
		<tag k="ssr:stedsnr" v="651404" />
	</node>
	<node lat="60.44520555403231" lon="5.517608335613928" id="-74508">
		<tag k="name" v="Middagshaugen" />
		<tag k="natural" v="hill" />
		<tag k="place" v="locality" />
		<tag k="ssr:stedsnr" v="651506" />
	</node>
	<node lat="60.503713889916746" lon="5.652230546532796" id="-74511">
		<tag k="fixme" v="consider natural=peak for the most distinct mountains in the district" />
		<tag k="name" v="Kupena" />
		<tag k="natural" v="hill" />
		<tag k="place" v="locality" />
		<tag k="ssr:stedsnr" v="651453" />
	</node>
	<node lat="60.47665832902592" lon="5.555033336374525" id="-74513">
		<tag k="fixme" v="consider natural=peak for the most distinct mountains in the district" />
		<tag k="name" v="Litunåsen" />
		<tag k="natural" v="hill" />
		<tag k="place" v="locality" />
		<tag k="ssr:stedsnr" v="651657" />
	</node>
	<node lat="60.531980556768495" lon="5.506891658945359" id="-74514">
		<tag k="fixme" v="consider natural=peak for the most distinct mountains in the district" />
		<tag k="name" v="Åsdalskant" />
		<tag k="natural" v="hill" />
		<tag k="place" v="locality" />
		<tag k="ssr:stedsnr" v="651662" />
	</node>
	<node lat="60.530122225423646" lon="5.5701888916711795" id="-74515">
		<tag k="name" v="Kyrhovden" />
		<tag k="natural" v="hill" />
		<tag k="old_name" v="Kjyrhovden" />
		<tag k="place" v="locality" />
		<tag k="ssr:stedsnr" v="651675" />
	</node>
	<node lat="60.520461111658214" lon="5.640205563681303" id="-74516">
		<tag k="fixme" v="consider natural=peak for the most distinct mountains in the district" />
		<tag k="name" v="Høgåsen" />
		<tag k="natural" v="hill" />
		<tag k="place" v="locality" />
		<tag k="ssr:stedsnr" v="651624" />
	</node>
	<node lat="60.54050833703549" lon="5.427930558144109" id="-74521">
		<tag k="name" v="Hålandsdalen" />
		<tag k="natural" v="valley" />
		<tag k="place" v="locality" />
		<tag k="ssr:stedsnr" v="651838" />
	</node>
	<node lat="60.52470555801835" lon="5.424666663296302" id="-74522">
		<tag k="name" v="Røskelandsberget" />
		<tag k="natural" v="hill" />
		<tag k="place" v="locality" />
		<tag k="ssr:stedsnr" v="651842" />
	</node>
	<node lat="60.52839999689276" lon="5.427580557069254" id="-74523">
		<tag k="name" v="Horsåsnyta" />
		<tag k="place" v="locality" />
		<tag k="ssr:stedsnr" v="651845" />
	</node>
	<node lat="60.462619442814955" lon="5.51368332585796" id="-74525">
		<tag k="name" v="Skitnaskaret" />
		<tag k="natural" v="hill" />
		<tag k="place" v="locality" />
		<tag k="ssr:stedsnr" v="651871" />
	</node>
	<node lat="60.543672222711244" lon="5.391752780891292" id="-74526">
		<tag k="fixme" v="consider natural=peak for the most distinct mountains in the district" />
		<tag k="name" v="Snaufjellet" />
		<tag k="natural" v="hill" />
		<tag k="place" v="locality" />
		<tag k="ssr:stedsnr" v="651873" />
	</node>
	<node lat="60.49974999685232" lon="5.54277500384125" id="-74527">
		<tag k="name" v="Skohaugen" />
		<tag k="natural" v="hill" />
		<tag k="place" v="locality" />
		<tag k="ssr:stedsnr" v="651733" />
	</node>
	<node lat="60.53353055269823" lon="5.406405554299447" id="-74528">
		<tag k="name" v="Høgehjellane" />
		<tag k="natural" v="hill" />
		<tag k="place" v="locality" />
		<tag k="ssr:stedsnr" v="651793" />
	</node>
	<node lat="60.473741665079174" lon="5.455477783596928" id="-74531">
		<tag k="name" v="Grønbrekkena" />
		<tag k="natural" v="slope" />
		<tag k="place" v="locality" />
		<tag k="ssr:stedsnr" v="651814" />
	</node>
	<node lat="60.564177781301474" lon="5.46318888188572" id="-74532">
		<tag k="fixme" v="consider natural=peak for the most distinct mountains in the district" />
		<tag k="name" v="Fjellet" />
		<tag k="natural" v="hill" />
		<tag k="place" v="locality" />
		<tag k="ssr:stedsnr" v="651818" />
	</node>
	<node lat="60.5199138876746" lon="5.466091667466498" id="-74535">
		<tag k="name" v="Kollhaugane" />
		<tag k="natural" v="hill" />
		<tag k="place" v="locality" />
		<tag k="ssr:stedsnr" v="711302" />
	</node>
	<node lat="60.4904055584572" lon="5.452694436194262" id="-74536">
		<tag k="name" v="Larsdalsrinden" />
		<tag k="natural" v="valley" />
		<tag k="place" v="locality" />
		<tag k="ssr:stedsnr" v="711325" />
	</node>
	<node lat="60.490327779825634" lon="5.513983333070183" id="-74537">
		<tag k="name" v="Storhjellane" />
		<tag k="natural" v="gorge" />
		<tag k="ssr:stedsnr" v="711441" />
	</node>
	<node lat="60.4924277776064" lon="5.509252781454068" id="-74538">
		<tag k="fixme" v="consider natural=peak for the most distinct mountains in the district" />
		<tag k="name" v="Kolgarinden" />
		<tag k="natural" v="hill" />
		<tag k="place" v="locality" />
		<tag k="ssr:stedsnr" v="711445" />
	</node>
	<node lat="60.43160833043886" lon="5.528927785612434" id="-74543">
		<tag k="name" v="Kalvehagen" />
		<tag k="place" v="locality" />
		<tag k="ssr:stedsnr" v="711464" />
	</node>
	<node lat="60.47762222436306" lon="5.493191658277611" id="-74544">
		<tag k="name" v="Setleitet" />
		<tag k="place" v="locality" />
		<tag k="ssr:stedsnr" v="711466" />
	</node>
	<node lat="60.552455553701584" lon="5.465572220248795" id="-74546">
		<tag k="name" v="Ran" />
		<tag k="place" v="locality" />
		<tag k="ssr:stedsnr" v="712366" />
	</node>
	<node lat="60.52548611182102" lon="5.532952773910589" id="-74547">
		<tag k="name" v="Svelia" />
		<tag k="natural" v="hill" />
		<tag k="place" v="locality" />
		<tag k="ssr:stedsnr" v="711720" />
	</node>
	<node lat="60.516258333516824" lon="5.500858332030501" id="-74549">
		<tag k="name" v="Frausdalen" />
		<tag k="natural" v="valley" />
		<tag k="place" v="locality" />
		<tag k="ssr:stedsnr" v="711742" />
	</node>
	<node lat="60.60909722316654" lon="5.522947218388694" id="-74553">
		<tag k="fixme" v="consider natural=peak for the most distinct mountains in the district" />
		<tag k="name" v="Heståsen" />
		<tag k="natural" v="hill" />
		<tag k="place" v="locality" />
		<tag k="ssr:stedsnr" v="712492" />
	</node>
	<node lat="60.49514444423627" lon="5.535569441671904" id="-74554">
		<tag k="name" v="Torshaugen" />
		<tag k="natural" v="hill" />
		<tag k="place" v="locality" />
		<tag k="ssr:stedsnr" v="712636" />
	</node>
	<node lat="60.44727777721983" lon="5.561066669176525" id="-74557">
		<tag k="name" v="Hoklahaugen" />
		<tag k="natural" v="hill" />
		<tag k="place" v="locality" />
		<tag k="ssr:stedsnr" v="712457" />
	</node>
	<node lat="60.452827778262076" lon="5.567230563997937" id="-74558">
		<tag k="name" v="Varde" />
		<tag k="natural" v="hill" />
		<tag k="place" v="locality" />
		<tag k="ssr:stedsnr" v="712458" />
	</node>
	<node lat="60.49628611017426" lon="5.67748888222071" id="-74559">
		<tag k="name" v="Botnabrekkena" />
		<tag k="natural" v="slope" />
		<tag k="place" v="locality" />
		<tag k="ssr:stedsnr" v="712556" />
	</node>
	<node lat="60.49144166936435" lon="5.675088880271072" id="-74560">
		<tag k="name" v="Tjønhaugen" />
		<tag k="natural" v="hill" />
		<tag k="place" v="locality" />
		<tag k="ssr:stedsnr" v="712558" />
	</node>
	<node lat="60.51941111217586" lon="5.664272230878984" id="-74561">
		<tag k="name" v="Sætre" />
		<tag k="natural" v="hill" />
		<tag k="place" v="locality" />
		<tag k="ssr:stedsnr" v="712598" />
	</node>
	<node lat="60.49053333761145" lon="5.53629999345039" id="-74562">
		<tag k="name" v="Skyggehaugen" />
		<tag k="natural" v="hill" />
		<tag k="place" v="locality" />
		<tag k="ssr:stedsnr" v="712603" />
	</node>
	<node lat="60.485897223688944" lon="5.532899991123985" id="-74563">
		<tag k="name" v="Gjelsetet" />
		<tag k="natural" v="gorge" />
		<tag k="ssr:stedsnr" v="712607" />
	</node>
	<node lat="60.48985555488203" lon="5.534119448004544" id="-74565">
		<tag k="name" v="Nordaheia" />
		<tag k="place" v="locality" />
		<tag k="ssr:stedsnr" v="712611" />
	</node>
	<node lat="60.48805555849914" lon="5.556986117490532" id="-74566">
		<tag k="name" v="Ormahaugen" />
		<tag k="natural" v="hill" />
		<tag k="place" v="locality" />
		<tag k="ssr:stedsnr" v="712613" />
	</node>
	<node lat="60.50501944694274" lon="5.477083334412573" id="-74567">
		<tag k="name" v="Skarphaugen" />
		<tag k="natural" v="hill" />
		<tag k="place" v="locality" />
		<tag k="ssr:stedsnr" v="712728" />
	</node>
	<node lat="60.60761388633593" lon="5.531425000766152" id="-74569">
		<tag k="name" v="Rothaugen" />
		<tag k="natural" v="hill" />
		<tag k="place" v="locality" />
		<tag k="ssr:stedsnr" v="712502" />
	</node>
	<node lat="60.587044442013045" lon="5.574927775438075" id="-74570">
		<tag k="name" v="Budalsskaret" />
		<tag k="natural" v="hill" />
		<tag k="place" v="locality" />
		<tag k="ssr:stedsnr" v="712514" />
	</node>
	<node lat="60.476947221714504" lon="5.467327778939377" id="-74574">
		<tag k="name" v="Teigen" />
		<tag k="place" v="locality" />
		<tag k="ssr:stedsnr" v="712805" />
	</node>
	<node lat="60.539866662423734" lon="5.3951666747404206" id="-74575">
		<tag k="name" v="Mandalen" />
		<tag k="natural" v="valley" />
		<tag k="place" v="locality" />
		<tag k="ssr:stedsnr" v="712809" />
	</node>
	<node lat="60.53986111286064" lon="5.421583341868047" id="-74579">
		<tag k="name" v="Kletten" />
		<tag k="natural" v="hill" />
		<tag k="place" v="locality" />
		<tag k="ssr:stedsnr" v="712822" />
	</node>
	<node lat="60.44368888973133" lon="5.547238889082196" id="-74583">
		<tag k="alt_name" v="Hædna" />
		<tag k="fixme" v="consider natural=peak for the most distinct mountains in the district" />
		<tag k="name" v="Hæddena" />
		<tag k="natural" v="hill" />
		<tag k="place" v="locality" />
		<tag k="ssr:stedsnr" v="733030" />
	</node>
	<node lat="60.484969443116334" lon="5.444663897567748" id="-74585">
		<tag k="fixme" v="consider natural=peak for the most distinct mountains in the district" />
		<tag k="name" v="Hånipa" />
		<tag k="natural" v="hill" />
		<tag k="place" v="locality" />
		<tag k="ssr:stedsnr" v="733383" />
	</node>
	<node lat="60.48562221856556" lon="5.636388894162956" id="-74587">
		<tag k="fixme" v="consider natural=peak for the most distinct mountains in the district" />
		<tag k="name" v="Ørnatuva" />
		<tag k="natural" v="hill" />
		<tag k="place" v="locality" />
		<tag k="ssr:stedsnr" v="733959" />
	</node>
	<node lat="60.505669443869984" lon="5.451419435563038" id="-74591">
		<tag k="name" v="Hestdalen" />
		<tag k="natural" v="valley" />
		<tag k="place" v="locality" />
		<tag k="ssr:stedsnr" v="734508" />
	</node>
	<node lat="60.5233777743361" lon="5.501663889797478" id="-74596">
		<tag k="name" v="Fugledalen" />
		<tag k="natural" v="valley" />
		<tag k="place" v="locality" />
		<tag k="ssr:stedsnr" v="734925" />
	</node>
	<node lat="60.51455833012233" lon="5.687305561474925" id="-74599">
		<tag k="fixme" v="consider natural=peak for the most distinct mountains in the district" />
		<tag k="name" v="Skarvenipa" />
		<tag k="natural" v="hill" />
		<tag k="place" v="locality" />
		<tag k="ssr:stedsnr" v="734945" />
	</node>
	<node lat="60.46648333653405" lon="5.5041194450618285" id="-74600">
		<tag k="fixme" v="consider natural=peak for the most distinct mountains in the district" />
		<tag k="name" v="Stemmesegga" />
		<tag k="natural" v="hill" />
		<tag k="place" v="locality" />
		<tag k="ssr:stedsnr" v="734947" />
	</node>
	<node lat="60.4816277776367" lon="5.601255559649319" id="-74604">
		<tag k="fixme" v="consider natural=peak for the most distinct mountains in the district" />
		<tag k="name" v="Vedafjellet" />
		<tag k="natural" v="hill" />
		<tag k="place" v="locality" />
		<tag k="ssr:stedsnr" v="734967" />
	</node>
	<node lat="60.52041103808088" lon="5.490216514856895" id="-74607">
		<tag k="name" v="Særskarhaugen" />
		<tag k="natural" v="hill" />
		<tag k="place" v="locality" />
		<tag k="ssr:stedsnr" v="773666" />
	</node>
	<node lat="60.51831666506364" lon="5.497383326800594" id="-74611">
		<tag k="name" v="Byrkjehjellen" />
		<tag k="natural" v="gorge" />
		<tag k="ssr:stedsnr" v="772739" />
	</node>
	<node lat="60.52353541186828" lon="5.513694256979269" id="-74615">
		<tag k="name" v="Kjørrgrova" />
		<tag k="natural" v="hill" />
		<tag k="place" v="locality" />
		<tag k="ssr:stedsnr" v="773635" />
	</node>
	<node lat="60.53446666904203" lon="5.494208341760682" id="-74616">
		<tag k="fixme" v="consider natural=peak for the most distinct mountains in the district" />
		<tag k="name" v="Nonasfjellet" />
		<tag k="natural" v="hill" />
		<tag k="place" v="locality" />
		<tag k="ssr:stedsnr" v="773642" />
	</node>
	<node lat="60.536897218165656" lon="5.495986108546936" id="-74617">
		<tag k="name" v="Litle Varden" />
		<tag k="natural" v="hill" />
		<tag k="place" v="locality" />
		<tag k="ssr:stedsnr" v="773643" />
	</node>
	<node lat="60.4737888907977" lon="5.533574994130802" id="-74618">
		<tag k="name" v="Lonlia" />
		<tag k="natural" v="slope" />
		<tag k="place" v="locality" />
		<tag k="ssr:stedsnr" v="773648" />
	</node>
	<node lat="60.530869442557815" lon="5.520680563678391" id="-74619">
		<tag k="fixme" v="consider natural=peak for the most distinct mountains in the district" />
		<tag k="name" v="Fjellbruåsen" />
		<tag k="natural" v="hill" />
		<tag k="place" v="locality" />
		<tag k="ssr:stedsnr" v="773650" />
	</node>
	<node lat="60.49083610789617" lon="5.42310556467223" id="-74620">
		<tag k="name" v="Skiphammaren" />
		<tag k="natural" v="hill" />
		<tag k="place" v="locality" />
		<tag k="ssr:stedsnr" v="773785" />
	</node>
	<node lat="60.4549611097834" lon="5.544775003621723" id="-74622">
		<tag k="name" v="Sandbrekkena" />
		<tag k="natural" v="slope" />
		<tag k="place" v="locality" />
		<tag k="ssr:stedsnr" v="773456" />
	</node>
	<node lat="60.441519445047796" lon="5.529869450477146" id="-74623">
		<tag k="name" v="Geila" />
		<tag k="natural" v="gorge" />
		<tag k="ssr:stedsnr" v="773468" />
	</node>
	<node lat="60.52206111531589" lon="5.649363890696693" id="-74624">
		<tag k="name" v="Heggebotnen" />
		<tag k="natural" v="valley" />
		<tag k="place" v="locality" />
		<tag k="ssr:stedsnr" v="773583" />
	</node>
	<node lat="60.50337500004786" lon="5.627122216743061" id="-74625">
		<tag k="name" v="Fredriksberg" />
		<tag k="natural" v="hill" />
		<tag k="place" v="locality" />
		<tag k="ssr:stedsnr" v="773588" />
	</node>
	<node lat="60.56827777492585" lon="5.473636119366171" id="-74627">
		<tag k="alt_name" v="Heldalsåsen" />
		<tag k="fixme" v="consider natural=peak for the most distinct mountains in the district" />
		<tag k="name" v="Helldalsåsen" />
		<tag k="natural" v="hill" />
		<tag k="place" v="locality" />
		<tag k="ssr:stedsnr" v="773720" />
	</node>
	<node lat="60.57429999871908" lon="5.469497226061438" id="-74628">
		<tag k="fixme" v="consider natural=peak for the most distinct mountains in the district" />
		<tag k="name" v="Hoshovdåsen" />
		<tag k="natural" v="hill" />
		<tag k="place" v="locality" />
		<tag k="ssr:stedsnr" v="773723" />
	</node>
	<node lat="60.51408055361905" lon="5.5468611145835665" id="-74630">
		<tag k="name" v="Grønli" />
		<tag k="natural" v="slope" />
		<tag k="place" v="locality" />
		<tag k="ssr:stedsnr" v="773737" />
	</node>
	<node lat="60.516361114712815" lon="5.554363888829801" id="-74631">
		<tag k="name" v="Vallfosshaugen" />
		<tag k="natural" v="hill" />
		<tag k="place" v="locality" />
		<tag k="ssr:stedsnr" v="773739" />
	</node>
	<node lat="60.53502778053489" lon="5.351141662250728" id="-74632">
		<tag k="name" v="Ranen" />
		<tag k="place" v="locality" />
		<tag k="ssr:stedsnr" v="773748" />
	</node>
	<node lat="60.45846111313619" lon="5.515080562843143" id="-74633">
		<tag k="name" v="Stolen" />
		<tag k="place" v="locality" />
		<tag k="ssr:stedsnr" v="773836" />
	</node>
	<node lat="60.47130000075908" lon="5.500944447483152" id="-74634">
		<tag k="name" v="Blomdalsegga" />
		<tag k="natural" v="hill" />
		<tag k="place" v="locality" />
		<tag k="ssr:stedsnr" v="773847" />
	</node>
	<node lat="60.47514166357935" lon="5.490325003642669" id="-74635">
		<tag k="name" v="Turtendalen" />
		<tag k="natural" v="valley" />
		<tag k="place" v="locality" />
		<tag k="ssr:stedsnr" v="773849" />
	</node>
	<node lat="60.53388611402544" lon="5.387344450943213" id="-74636">
		<tag k="name" v="Klompane" />
		<tag k="place" v="locality" />
		<tag k="ssr:stedsnr" v="773793" />
	</node>
	<node lat="60.49535555853095" lon="5.598599995318634" id="-74638">
		<tag k="name" v="Innsetberget" />
		<tag k="natural" v="hill" />
		<tag k="place" v="locality" />
		<tag k="ssr:stedsnr" v="794991" />
	</node>
	<node lat="60.69513333753358" lon="5.635241673274687" id="-74643">
		<tag k="fixme" v="consider natural=peak for the most distinct mountains in the district" />
		<tag k="name" v="Bjørnakanten" />
		<tag k="natural" v="hill" />
		<tag k="place" v="locality" />
		<tag k="ssr:stedsnr" v="795422" />
	</node>
	<node lat="60.526641667370946" lon="5.394374993823474" id="-74644">
		<tag k="fixme" v="consider natural=peak for the most distinct mountains in the district" />
		<tag k="name" v="Iseggene" />
		<tag k="natural" v="hill" />
		<tag k="place" v="locality" />
		<tag k="ssr:stedsnr" v="795432" />
	</node>
	<node lat="60.501961109861824" lon="5.435369437171504" id="-74647">
		<tag k="name" v="Reigstadåsen" />
		<tag k="natural" v="hill" />
		<tag k="place" v="locality" />
		<tag k="ssr:stedsnr" v="795524" />
	</node>
	<node lat="60.58160555509418" lon="5.510347224968017" id="-74649">
		<tag k="name" v="Vetaskaret" />
		<tag k="natural" v="valley" />
		<tag k="place" v="locality" />
		<tag k="ssr:stedsnr" v="795587" />
	</node>
	<node lat="60.619400001076315" lon="5.647275008440069" id="-74651">
		<tag k="fixme" v="consider natural=peak for the most distinct mountains in the district" />
		<tag k="name" v="Kvamsfjellet" />
		<tag k="natural" v="hill" />
		<tag k="place" v="locality" />
		<tag k="ssr:stedsnr" v="795730" />
	</node>
	<node lat="60.5183444447154" lon="5.495355561115735" id="-74653">
		<tag k="name" v="Kløvbotnen" />
		<tag k="natural" v="valley" />
		<tag k="place" v="locality" />
		<tag k="ssr:stedsnr" v="795982" />
	</node>
	<node lat="60.495686107920626" lon="5.504849995578714" id="-74658">
		<tag k="fixme" v="consider natural=peak for the most distinct mountains in the district" />
		<tag k="name" v="Dalaplasset" />
		<tag k="natural" v="hill" />
		<tag k="place" v="locality" />
		<tag k="ssr:stedsnr" v="833456" />
	</node>
	<node lat="60.51156110805169" lon="5.644052774916941" id="-74661">
		<tag k="name" v="Storseilhaugen" />
		<tag k="natural" v="hill" />
		<tag k="place" v="locality" />
		<tag k="ssr:stedsnr" v="834430" />
	</node>
	<node lat="60.64003333357536" lon="5.625586103216305" id="-74663">
		<tag k="name" v="Svartavassbotn" />
		<tag k="natural" v="valley" />
		<tag k="place" v="locality" />
		<tag k="ssr:stedsnr" v="834406" />
	</node>
	<node lat="60.54829166461186" lon="5.60693888340216" id="-74664">
		<tag k="fixme" v="consider natural=peak for the most distinct mountains in the district" />
		<tag k="name" v="Ospevikåsen" />
		<tag k="natural" v="hill" />
		<tag k="place" v="locality" />
		<tag k="ssr:stedsnr" v="834421" />
	</node>
	<node lat="60.50530833613864" lon="5.453508326720842" id="-74665">
		<tag k="name" v="Malmskaret" />
		<tag k="natural" v="hill" />
		<tag k="place" v="locality" />
		<tag k="ssr:stedsnr" v="834489" />
	</node>
	<node lat="60.50068333542207" lon="5.460508339938914" id="-74666">
		<tag k="name" v="Ranenkammen" />
		<tag k="natural" v="hill" />
		<tag k="place" v="locality" />
		<tag k="ssr:stedsnr" v="834491" />
	</node>
	<node lat="60.50379586377218" lon="5.43251840142096" id="-74667">
		<tag k="alt_name" v="Fossaasen" />
		<tag k="fixme" v="consider natural=peak for the most distinct mountains in the district" />
		<tag k="name" v="Fossåsen" />
		<tag k="natural" v="hill" />
		<tag k="place" v="locality" />
		<tag k="ssr:stedsnr" v="834493" />
	</node>
	<node lat="60.55211837278532" lon="5.512483869523485" id="-74668">
		<tag k="name" v="Søranipa" />
		<tag k="natural" v="hill" />
		<tag k="place" v="locality" />
		<tag k="ssr:stedsnr" v="834502" />
	</node>
	<node lat="60.49029999594523" lon="5.687436104431795" id="-74669">
		<tag k="fixme" v="consider natural=peak for the most distinct mountains in the district" />
		<tag k="name" v="Varen" />
		<tag k="natural" v="hill" />
		<tag k="place" v="locality" />
		<tag k="ssr:stedsnr" v="834595" />
	</node>
	<node lat="60.44524999796253" lon="5.575919444922341" id="-74670">
		<tag k="name" v="Såta" />
		<tag k="natural" v="hill" />
		<tag k="place" v="locality" />
		<tag k="ssr:stedsnr" v="834459" />
	</node>
	<node lat="60.45214167068037" lon="5.546599994103158" id="-74671">
		<tag k="name" v="Skarpebrekkena" />
		<tag k="natural" v="slope" />
		<tag k="place" v="locality" />
		<tag k="ssr:stedsnr" v="834466" />
	</node>
	<node lat="60.61359444699137" lon="5.537411115248156" id="-74673">
		<tag k="name" v="Drangskollen" />
		<tag k="natural" v="hill" />
		<tag k="place" v="locality" />
		<tag k="ssr:stedsnr" v="834534" />
	</node>
	<node lat="60.59570000257222" lon="5.52161666209868" id="-74674">
		<tag k="name" v="Heia" />
		<tag k="natural" v="hill" />
		<tag k="place" v="locality" />
		<tag k="ssr:stedsnr" v="834536" />
	</node>
	<node lat="60.45139999942973" lon="5.594469450506055" id="-74678">
		<tag k="name" v="Slettebrekka" />
		<tag k="natural" v="slope" />
		<tag k="place" v="locality" />
		<tag k="ssr:stedsnr" v="834556" />
	</node>
	<node lat="60.448230552634755" lon="5.609702775376729" id="-74679">
		<tag k="name" v="Norhaug" />
		<tag k="natural" v="hill" />
		<tag k="place" v="locality" />
		<tag k="ssr:stedsnr" v="834561" />
	</node>
	<node lat="60.485980557102906" lon="5.594049992151685" id="-74680">
		<tag k="name" v="Vesetlidane" />
		<tag k="natural" v="slope" />
		<tag k="place" v="locality" />
		<tag k="ssr:stedsnr" v="834570" />
	</node>
	<node lat="60.49297222008329" lon="5.538280554160541" id="-74681">
		<tag k="name" v="Gardshaugane" />
		<tag k="natural" v="hill" />
		<tag k="place" v="locality" />
		<tag k="ssr:stedsnr" v="834639" />
	</node>
	<node lat="60.467280554793426" lon="5.622783329722505" id="-74682">
		<tag k="name" v="Hallgjenge" />
		<tag k="natural" v="hill" />
		<tag k="place" v="locality" />
		<tag k="ssr:stedsnr" v="834602" />
	</node>
	<node lat="60.53688611295301" lon="5.589080547404934" id="-74683">
		<tag k="name" v="Ullbotnen" />
		<tag k="natural" v="valley" />
		<tag k="place" v="locality" />
		<tag k="ssr:stedsnr" v="834608" />
	</node>
	<node lat="60.526744442718936" lon="5.620822223474632" id="-74684">
		<tag k="name" v="Andersgjelen" />
		<tag k="natural" v="gorge" />
		<tag k="ssr:stedsnr" v="834613" />
	</node>
	<node lat="60.535541667466134" lon="5.649777771337951" id="-74685">
		<tag k="name" v="Botnabrekkena" />
		<tag k="natural" v="slope" />
		<tag k="place" v="locality" />
		<tag k="ssr:stedsnr" v="834618" />
	</node>
	<node lat="60.4931777764611" lon="5.432394438960223" id="-74687">
		<tag k="name" v="Ropeleitet" />
		<tag k="natural" v="hill" />
		<tag k="place" v="locality" />
		<tag k="ssr:stedsnr" v="834816" />
	</node>
	<node lat="60.48083611002736" lon="5.537438882676299" id="-74689">
		<tag k="name" v="Gjeljabrekkena" />
		<tag k="natural" v="slope" />
		<tag k="place" v="locality" />
		<tag k="ssr:stedsnr" v="834647" />
	</node>
	<node lat="60.48763611457023" lon="5.546041661159345" id="-74690">
		<tag k="fixme" v="consider natural=peak for the most distinct mountains in the district" />
		<tag k="name" v="Hartveitåsen" />
		<tag k="natural" v="hill" />
		<tag k="place" v="locality" />
		<tag k="ssr:stedsnr" v="834648" />
	</node>
	<node lat="60.48375277554413" lon="5.5497416591484505" id="-74692">
		<tag k="name" v="Litunlia" />
		<tag k="natural" v="slope" />
		<tag k="place" v="locality" />
		<tag k="ssr:stedsnr" v="834652" />
	</node>
	<node lat="60.463080558168045" lon="5.572583338941647" id="-74693">
		<tag k="name" v="Tungen" />
		<tag k="place" v="locality" />
		<tag k="ssr:stedsnr" v="834660" />
	</node>
	<node lat="60.47481111187378" lon="5.546372228313175" id="-74694">
		<tag k="name" v="Erhaugen" />
		<tag k="natural" v="hill" />
		<tag k="place" v="locality" />
		<tag k="ssr:stedsnr" v="834670" />
	</node>
	<node lat="60.47639722191482" lon="5.547783326162714" id="-74695">
		<tag k="name" v="Håhaugen" />
		<tag k="natural" v="hill" />
		<tag k="place" v="locality" />
		<tag k="ssr:stedsnr" v="834672" />
	</node>
	<node lat="60.46462500119543" lon="5.535375006560263" id="-74696">
		<tag k="name" v="Brotalia" />
		<tag k="natural" v="slope" />
		<tag k="place" v="locality" />
		<tag k="ssr:stedsnr" v="834673" />
	</node>
	<node lat="60.458041664247965" lon="5.540838895127967" id="-74697">
		<tag k="name" v="Halsbotnen" />
		<tag k="natural" v="valley" />
		<tag k="place" v="locality" />
		<tag k="ssr:stedsnr" v="834675" />
	</node>
	<node lat="60.47217777391927" lon="5.538430547595978" id="-74698">
		<tag k="name" v="Krossen" />
		<tag k="place" v="locality" />
		<tag k="ssr:stedsnr" v="834680" />
	</node>
	<node lat="60.514280556658385" lon="5.471091669009336" id="-74699">
		<tag k="name" v="Haugadalen" />
		<tag k="natural" v="valley" />
		<tag k="place" v="locality" />
		<tag k="ssr:stedsnr" v="834709" />
	</node>
	<node lat="60.519888885129454" lon="5.571077777269204" id="-74701">
		<tag k="name" v="Skolmhjellen" />
		<tag k="natural" v="gorge" />
		<tag k="ssr:stedsnr" v="834729" />
	</node>
	<node lat="60.51433611556423" lon="5.565063893654676" id="-74702">
		<tag k="name" v="Steindalen" />
		<tag k="natural" v="valley" />
		<tag k="place" v="locality" />
		<tag k="ssr:stedsnr" v="834730" />
	</node>
	<node lat="60.502338890901186" lon="5.553724999225401" id="-74704">
		<tag k="name" v="Vellene" />
		<tag k="natural" v="hill" />
		<tag k="place" v="locality" />
		<tag k="ssr:stedsnr" v="834733" />
	</node>
	<node lat="60.51004444402976" lon="5.517547229627087" id="-74705">
		<tag k="name" v="Timberkleiv" />
		<tag k="place" v="locality" />
		<tag k="ssr:stedsnr" v="834741" />
	</node>
	<node lat="60.57096944681907" lon="5.49643888784067" id="-74706">
		<tag k="name" v="Erkletten" />
		<tag k="natural" v="hill" />
		<tag k="place" v="locality" />
		<tag k="ssr:stedsnr" v="834748" />
	</node>
	<node lat="60.51756111242294" lon="5.553761103026255" id="-74707">
		<tag k="name" v="Hådyret" />
		<tag k="place" v="locality" />
		<tag k="ssr:stedsnr" v="834752" />
	</node>
	<node lat="60.52962222425929" lon="5.639449998797549" id="-74708">
		<tag k="name" v="Blaudalen" />
		<tag k="natural" v="valley" />
		<tag k="place" v="locality" />
		<tag k="ssr:stedsnr" v="834757" />
	</node>
	<node lat="60.49399444077868" lon="5.457958330751416" id="-74709">
		<tag k="name" v="Austlirinden" />
		<tag k="natural" v="slope" />
		<tag k="place" v="locality" />
		<tag k="ssr:stedsnr" v="834767" />
	</node>
	<node lat="60.54484444893228" lon="5.364194452274735" id="-74710">
		<tag k="name" v="Jordarinden" />
		<tag k="place" v="locality" />
		<tag k="ssr:stedsnr" v="834829" />
	</node>
	<node lat="60.51654444140406" lon="5.396205562298137" id="-74712">
		<tag k="name" v="Utlehaugen" />
		<tag k="natural" v="hill" />
		<tag k="place" v="locality" />
		<tag k="ssr:stedsnr" v="834838" />
	</node>
	<node lat="60.46868611231871" lon="5.470969443357932" id="-74714">
		<tag k="name" v="Hovdane" />
		<tag k="natural" v="hill" />
		<tag k="place" v="locality" />
		<tag k="ssr:stedsnr" v="834848" />
	</node>
	<node lat="60.49526944217855" lon="5.576141663997182" id="-74715">
		<tag k="name" v="Bukkshovden" />
		<tag k="place" v="locality" />
		<tag k="ssr:stedsnr" v="834857" />
	</node>
	<node lat="60.46719722656614" lon="5.520297222330994" id="-74716">
		<tag k="fixme" v="consider natural=peak for the most distinct mountains in the district" />
		<tag k="name" v="Åsrinden" />
		<tag k="natural" v="hill" />
		<tag k="place" v="locality" />
		<tag k="ssr:stedsnr" v="834859" />
	</node>
	<node lat="60.46958888939059" lon="5.52551110277959" id="-74717">
		<tag k="name" v="Middagshaugen" />
		<tag k="natural" v="hill" />
		<tag k="place" v="locality" />
		<tag k="ssr:stedsnr" v="834860" />
	</node>
	<node lat="60.58708889273019" lon="5.617486115674151" id="-74721">
		<tag k="name" v="Fagerdalen" />
		<tag k="natural" v="valley" />
		<tag k="place" v="locality" />
		<tag k="ssr:stedsnr" v="855521" />
	</node>
	<node lat="60.63778055892425" lon="5.6071027731598" id="-74725">
		<tag k="fixme" v="consider natural=peak for the most distinct mountains in the district" />
		<tag k="name" v="Myrbærstøfjellet" />
		<tag k="natural" v="hill" />
		<tag k="place" v="locality" />
		<tag k="ssr:stedsnr" v="855720" />
	</node>
	<node lat="60.470652773613196" lon="5.623430550268038" id="-74726">
		<tag k="name" v="Skaftådalen" />
		<tag k="natural" v="valley" />
		<tag k="place" v="locality" />
		<tag k="ssr:stedsnr" v="855963" />
	</node>
	<node lat="60.546688891855844" lon="5.408747230368656" id="-74727">
		<tag k="name" v="Heiane" />
		<tag k="natural" v="slope" />
		<tag k="place" v="locality" />
		<tag k="ssr:stedsnr" v="856447" />
	</node>
	<node lat="60.48334166332739" lon="5.593063891146404" id="-74729">
		<tag k="fixme" v="consider natural=peak for the most distinct mountains in the district" />
		<tag k="name" v="Setevarden" />
		<tag k="natural" v="hill" />
		<tag k="place" v="locality" />
		<tag k="ssr:stedsnr" v="855979" />
	</node>
	<node lat="60.647325001565214" lon="5.62586667110984" id="-74730">
		<tag k="fixme" v="consider natural=peak for the most distinct mountains in the district" />
		<tag k="name" v="Kvernhusfjellet" />
		<tag k="natural" v="hill" />
		<tag k="place" v="locality" />
		<tag k="ssr:stedsnr" v="856692" />
	</node>
	<node lat="60.5072555585554" lon="5.67917777062417" id="-74733">
		<tag k="fixme" v="consider natural=peak for the most distinct mountains in the district" />
		<tag k="name" v="Flærne" />
		<tag k="natural" v="hill" />
		<tag k="place" v="locality" />
		<tag k="ssr:stedsnr" v="856997" />
	</node>
	<node lat="60.52616111299521" lon="5.53980555012381" id="-74735">
		<tag k="name" v="Geithaugen" />
		<tag k="natural" v="hill" />
		<tag k="place" v="locality" />
		<tag k="ssr:stedsnr" v="954719" />
	</node>
	<node lat="60.543637527969764" lon="5.614875161751373" id="-74741">
		<tag k="fixme" v="consider natural=peak for the most distinct mountains in the district" />
		<tag k="name" v="Ormanipa" />
		<tag k="natural" v="hill" />
		<tag k="place" v="locality" />
		<tag k="ssr:stedsnr" v="955437" />
	</node>
	<node lat="60.46662500336283" lon="5.62753610393288" id="-74743">
		<tag k="fixme" v="consider natural=peak for the most distinct mountains in the district" />
		<tag k="name" v="Nåvæ" />
		<tag k="natural" v="hill" />
		<tag k="place" v="locality" />
		<tag k="ssr:stedsnr" v="955602" />
	</node>
	<node lat="60.51799722270773" lon="5.638744447735745" id="-74744">
		<tag k="name" v="Kvernhushaug" />
		<tag k="natural" v="hill" />
		<tag k="place" v="locality" />
		<tag k="ssr:stedsnr" v="955625" />
	</node>
	<node lat="60.50069166520772" lon="5.607741659986485" id="-74746">
		<tag k="name" v="Meleberget" />
		<tag k="natural" v="hill" />
		<tag k="place" v="locality" />
		<tag k="ssr:stedsnr" v="955628" />
	</node>
	<node lat="60.488800001497715" lon="5.535691669454338" id="-74748">
		<tag k="name" v="Søraheii" />
		<tag k="place" v="locality" />
		<tag k="ssr:stedsnr" v="955634" />
	</node>
	<node lat="60.4973972193679" lon="5.631930551300835" id="-74749">
		<tag k="name" v="Aurtua" />
		<tag k="place" v="locality" />
		<tag k="ssr:stedsnr" v="955565" />
	</node>
	<node lat="60.48856666915552" lon="5.594958328926561" id="-74750">
		<tag k="name" v="Hermannsrinden" />
		<tag k="place" v="locality" />
		<tag k="ssr:stedsnr" v="955569" />
	</node>
	<node lat="60.48901944832987" lon="5.590544445920385" id="-74751">
		<tag k="fixme" v="consider natural=peak for the most distinct mountains in the district" />
		<tag k="name" v="Ljomakleiva" />
		<tag k="natural" v="hill" />
		<tag k="place" v="locality" />
		<tag k="ssr:stedsnr" v="955573" />
	</node>
	<node lat="60.48387777742132" lon="5.615030558034328" id="-74752">
		<tag k="name" v="Varden" />
		<tag k="natural" v="hill" />
		<tag k="place" v="locality" />
		<tag k="ssr:stedsnr" v="955574" />
	</node>
	<node lat="60.486561111717826" lon="5.672744447197403" id="-74754">
		<tag k="alt_name" v="Bjøndalen" />
		<tag k="name" v="Bjørndalen" />
		<tag k="natural" v="valley" />
		<tag k="place" v="locality" />
		<tag k="ssr:stedsnr" v="955583" />
	</node>
	<node lat="60.46231389073217" lon="5.569105554234552" id="-74755">
		<tag k="name" v="Ruken" />
		<tag k="place" v="locality" />
		<tag k="ssr:stedsnr" v="955648" />
	</node>
	<node lat="60.484441670176565" lon="5.530122220455495" id="-74756">
		<tag k="name" v="Krakhaugen" />
		<tag k="natural" v="hill" />
		<tag k="place" v="locality" />
		<tag k="ssr:stedsnr" v="955659" />
	</node>
	<node lat="60.47326111190616" lon="5.578394436031576" id="-74757">
		<tag k="name" v="Rinden" />
		<tag k="natural" v="ridge" />
		<tag k="place" v="locality" />
		<tag k="ssr:stedsnr" v="955664" />
	</node>
	<node lat="60.532650003263434" lon="5.542416674472722" id="-74758">
		<tag k="fixme" v="consider natural=peak for the most distinct mountains in the district" />
		<tag k="name" v="Nordgaardsfjellet" />
		<tag k="natural" v="hill" />
		<tag k="place" v="locality" />
		<tag k="ssr:stedsnr" v="955684" />
	</node>
	<node lat="60.526186108376024" lon="5.471625000097765" id="-74759">
		<tag k="name" v="Bjorkleften" />
		<tag k="natural" v="hill" />
		<tag k="place" v="locality" />
		<tag k="ssr:stedsnr" v="955687" />
	</node>
	<node lat="60.51934999900488" lon="5.549438883059005" id="-74760">
		<tag k="name" v="Håliane" />
		<tag k="natural" v="slope" />
		<tag k="place" v="locality" />
		<tag k="ssr:stedsnr" v="955748" />
	</node>
	<node lat="60.51378333052745" lon="5.402322230408437" id="-74761">
		<tag k="name" v="Geilane" />
		<tag k="natural" v="hill" />
		<tag k="place" v="locality" />
		<tag k="ssr:stedsnr" v="955749" />
	</node>
	<node lat="60.54056111228775" lon="5.341913895901603" id="-74762">
		<tag k="name" v="Kleiva" />
		<tag k="place" v="locality" />
		<tag k="ssr:stedsnr" v="955761" />
	</node>
	<node lat="60.4855138901693" lon="5.454350007286134" id="-74765">
		<tag k="name" v="Revskaret" />
		<tag k="natural" v="hill" />
		<tag k="place" v="locality" />
		<tag k="ssr:stedsnr" v="955765" />
	</node>
	<node lat="60.547719447405036" lon="5.438233341320771" id="-74766">
		<tag k="name" v="Blaudalen" />
		<tag k="natural" v="valley" />
		<tag k="place" v="locality" />
		<tag k="ssr:stedsnr" v="955797" />
	</node>
	<node lat="60.52554444300501" lon="5.390450002131393" id="-74767">
		<tag k="name" v="Senabrekkene" />
		<tag k="natural" v="slope" />
		<tag k="place" v="locality" />
		<tag k="ssr:stedsnr" v="955823" />
	</node>
	<node lat="60.523402776756214" lon="5.396266665897192" id="-74768">
		<tag k="name" v="Vardane" />
		<tag k="natural" v="hill" />
		<tag k="place" v="locality" />
		<tag k="ssr:stedsnr" v="955828" />
	</node>
	<node lat="60.53927222489399" lon="5.418863882274966" id="-74772">
		<tag k="name" v="Djupedalen" />
		<tag k="natural" v="valley" />
		<tag k="place" v="locality" />
		<tag k="ssr:stedsnr" v="955848" />
	</node>
	<node lat="60.459783330789655" lon="5.47538333262158" id="-74773">
		<tag k="name" v="Mannablodet" />
		<tag k="place" v="locality" />
		<tag k="ssr:stedsnr" v="955859" />
	</node>
	<node lat="60.468005559625766" lon="5.500722213662197" id="-74775">
		<tag k="name" v="Varden" />
		<tag k="natural" v="hill" />
		<tag k="place" v="locality" />
		<tag k="ssr:stedsnr" v="955873" />
	</node>
	<node lat="60.504347225413674" lon="5.471216668501552" id="-74776">
		<tag k="name" v="Årinden" />
		<tag k="place" v="locality" />
		<tag k="ssr:stedsnr" v="955733" />
	</node>
</osm>
