<?xml version="1.0" encoding="UTF-8"?>
<<<<<<< HEAD
<osm version="0.6" generator="osmapis">
	<node lat="60.453745614770106" lon="5.493850915151782" id="-26206">
		<tag k="alt_name" v="Haus" />
		<tag k="amenity" v="place_of_worship" />
		<tag k="denomination" v="lutheran" />
		<tag k="name" v="Haus kyrkje" />
		<tag k="religion" v="christian" />
		<tag k="ssr:stedsnr" v="66004" />
	</node>
	<node lat="60.582277779194975" lon="5.542824999569701" id="-26420">
		<tag k="name" v="Herlandsfossen kraftverk" />
		<tag k="ssr:stedsnr" v="309581" />
		<tag k="tourism" v="museum" />
	</node>
	<node lat="60.577304144993946" lon="5.474687087869626" id="-26716">
		<tag k="alt_name" v="Hosanger" />
		<tag k="amenity" v="place_of_worship" />
		<tag k="denomination" v="lutheran" />
		<tag k="name" v="Hosanger kyrkje" />
		<tag k="religion" v="christian" />
		<tag k="ssr:stedsnr" v="673569" />
	</node>
	<node lat="60.55138004358114" lon="5.479346185537854" id="-26739">
=======
<osm generator="osmapis" version="0.6">
	<node id="-646013" lat="60.5513800436" lon="5.47934618554">
>>>>>>> e1d4bc35ff8a6074a6f2e91616a996b547c36f15
		<tag k="name" v="Litlandsgruva" />
		<tag k="place" v="locality" />
		<tag k="ssr:stedsnr" v="895488" />
	</node>
<<<<<<< HEAD
	<node lat="60.4995907009336" lon="5.548313046163854" id="-27163">
=======
	<node id="-646427" lat="60.4999611091" lon="5.54740833788">
>>>>>>> e1d4bc35ff8a6074a6f2e91616a996b547c36f15
		<tag k="alt_name" v="Gjerstad" />
		<tag k="amenity" v="place_of_worship" />
		<tag k="denomination" v="lutheran" />
		<tag k="name" v="Gjerstad kyrkje" />
		<tag k="religion" v="christian" />
		<tag k="ssr:stedsnr" v="188999" />
	</node>
<<<<<<< HEAD
	<node lat="60.544674238175524" lon="5.352012081119893" id="-27344">
=======
	<node id="-645754" lat="60.5448000023" lon="5.35209443805">
>>>>>>> e1d4bc35ff8a6074a6f2e91616a996b547c36f15
		<tag k="alt_name" v="Hamre" />
		<tag k="amenity" v="place_of_worship" />
		<tag k="denomination" v="lutheran" />
		<tag k="name" v="Hamre kyrkje" />
		<tag k="religion" v="christian" />
		<tag k="ssr:stedsnr" v="431431" />
	</node>
<<<<<<< HEAD
	<node lat="60.4791045159759" lon="5.677631684318096" id="-27415">
		<tag k="alt_name" v="Bruvik" />
=======
	<node id="-645783" lat="60.577304145" lon="5.47468708787">
		<tag k="alt_name" v="Hosanger" />
>>>>>>> e1d4bc35ff8a6074a6f2e91616a996b547c36f15
		<tag k="amenity" v="place_of_worship" />
		<tag k="denomination" v="lutheran" />
		<tag k="name" v="Bruvik kyrkje" />
		<tag k="religion" v="christian" />
		<tag k="ssr:stedsnr" v="570964" />
	</node>
<<<<<<< HEAD
	<node lat="60.497091670168814" lon="5.667452780690739" id="-27759">
=======
	<node id="-646995" lat="60.4970916702" lon="5.66745278069">
>>>>>>> e1d4bc35ff8a6074a6f2e91616a996b547c36f15
		<tag k="name" v="BÃ¥taleitet" />
		<tag k="ssr:stedsnr" v="970332" />
		<tag k="tourism" v="viewpoint" />
	</node>
	<node id="-646668" lat="60.479104516" lon="5.67763168432">
		<tag k="alt_name" v="Bruvik" />
		<tag k="amenity" v="place_of_worship" />
		<tag k="denomination" v="lutheran" />
		<tag k="name" v="Bruvik kyrkje" />
		<tag k="religion" v="christian" />
		<tag k="ssr:stedsnr" v="570964" />
	</node>
	<node id="-646442" lat="60.5822777792" lon="5.54282499957">
		<tag k="name" v="Herlandsfossen kraftverk" />
		<tag k="ssr:stedsnr" v="309581" />
		<tag k="tourism" v="museum" />
	</node>
	<node id="-645467" lat="60.4537456148" lon="5.49385091515">
		<tag k="alt_name" v="Haus" />
		<tag k="amenity" v="place_of_worship" />
		<tag k="denomination" v="lutheran" />
		<tag k="name" v="Haus kyrkje" />
		<tag k="religion" v="christian" />
		<tag k="ssr:stedsnr" v="66004" />
	</node>
</osm>
