<?xml version="1.0" encoding="UTF-8"?>
<<<<<<< HEAD
<osm version="0.6" generator="osmapis">
	<node lat="60.63675555516598" lon="5.624305548337358" id="-26174">
		<tag k="alt_name" v="Svartavatnet" />
		<tag k="name" v="Svartatjørna" />
		<tag k="natural" v="water" />
		<tag k="ssr:stedsnr" v="6701" />
	</node>
	<node lat="60.520191663671845" lon="5.501647228098454" id="-26182">
		<tag k="name" v="Lonelva" />
		<tag k="ssr:stedsnr" v="6977" />
		<tag k="waterway" v="river" />
	</node>
	<node lat="60.542149273943984" lon="5.619417382175669" id="-26184">
		<tag k="name" v="Haukavik" />
		<tag k="natural" v="bay" />
		<tag k="ssr:stedsnr" v="43308" />
	</node>
	<node lat="60.51263055628683" lon="5.498536114484067" id="-26185">
		<tag k="name" v="Neset" />
		<tag k="natural" v="cape" />
		<tag k="ssr:stedsnr" v="43724" />
	</node>
	<node lat="60.49392222027924" lon="5.491108339423426" id="-26187">
		<tag k="name" v="Sjogotena" />
		<tag k="ssr:stedsnr" v="44454" />
		<tag k="waterway" v="stream" />
	</node>
	<node lat="60.61926172670519" lon="5.608750287257005" id="-26188">
		<tag k="name" v="Storatjønna" />
		<tag k="natural" v="water" />
		<tag k="ssr:stedsnr" v="45429" />
	</node>
	<node lat="60.5430783157649" lon="5.590070918241291" id="-26189">
		<tag k="name" v="Bruraneset" />
		<tag k="natural" v="cape" />
		<tag k="ssr:stedsnr" v="45434" />
	</node>
	<node lat="60.54263962957001" lon="5.4458877551509435" id="-26211">
		<tag k="name" v="Dalsvatnet" />
		<tag k="natural" v="water" />
		<tag k="ssr:stedsnr" v="67414" />
	</node>
	<node lat="60.565238888569155" lon="5.593663888691209" id="-26217">
		<tag k="name" v="Kjeholmen" />
		<tag k="place" v="islet" />
		<tag k="ssr:stedsnr" v="67598" />
	</node>
	<node lat="60.61881389085007" lon="5.607874991334485" id="-26218">
		<tag k="name" v="Kleivelandselva" />
		<tag k="ssr:stedsnr" v="67725" />
		<tag k="waterway" v="stream" />
	</node>
	<node lat="60.56119722175365" lon="5.4599888884896375" id="-26242">
		<tag k="name" v="Litlandselvi" />
		<tag k="ssr:stedsnr" v="249444" />
		<tag k="waterway" v="stream" />
	</node>
	<node lat="60.54997222071306" lon="5.542252782428267" id="-26246">
		<tag k="name" v="Mykingelva" />
		<tag k="ssr:stedsnr" v="106505" />
		<tag k="waterway" v="river" />
	</node>
	<node lat="60.56378070379983" lon="5.570918607362278" id="-26259">
		<tag k="name" v="Oksatjern" />
		<tag k="natural" v="water" />
		<tag k="ssr:stedsnr" v="106795" />
	</node>
	<node lat="60.548122219125986" lon="5.373619439404688" id="-26261">
		<tag k="name" v="Klubben" />
		<tag k="natural" v="water" />
		<tag k="ssr:stedsnr" v="106873" />
		<tag k="water" v="lake" />
	</node>
	<node lat="60.597644442820965" lon="5.593541675157569" id="-26264">
		<tag k="name" v="Anortjørna" />
		<tag k="natural" v="water" />
		<tag k="ssr:stedsnr" v="249520" />
	</node>
	<node lat="60.63215277970931" lon="5.629944451963275" id="-26268">
		<tag k="name" v="Vaultjørna" />
		<tag k="natural" v="water" />
		<tag k="ssr:stedsnr" v="249690" />
	</node>
	<node lat="60.60961318106985" lon="5.632957607456197" id="-26269">
		<tag k="alt_name" v="Botnavatnet, nedre" />
		<tag k="name" v="Nedra Botnavatnet" />
		<tag k="natural" v="water" />
		<tag k="ssr:stedsnr" v="249719" />
	</node>
	<node lat="60.60747831365083" lon="5.652466956329993" id="-26270">
		<tag k="name" v="Øvrebotnen" />
		<tag k="natural" v="water" />
		<tag k="ssr:stedsnr" v="249720" />
	</node>
	<node lat="60.60447306486408" lon="5.527307916001262" id="-26272">
		<tag k="name" v="Øvrevatnet" />
		<tag k="natural" v="water" />
		<tag k="ssr:stedsnr" v="249725" />
	</node>
	<node lat="60.55051944423311" lon="5.58492499915921" id="-26276">
		<tag k="name" v="Rongveneset" />
		<tag k="natural" v="cape" />
		<tag k="ssr:stedsnr" v="249887" />
	</node>
	<node lat="60.510299997031275" lon="5.489625001648088" id="-26277">
		<tag k="name" v="Øyåsneset" />
		<tag k="natural" v="cape" />
		<tag k="ssr:stedsnr" v="249956" />
	</node>
	<node lat="60.5775472237648" lon="5.5969555465926" id="-26284">
		<tag k="name" v="Grytsåvågen" />
		<tag k="natural" v="bay" />
		<tag k="ssr:stedsnr" v="127617" />
	</node>
	<node lat="60.46800192989501" lon="5.6147728356082105" id="-26292">
		<tag k="name" v="Stokkatjørna" />
		<tag k="natural" v="water" />
		<tag k="ssr:stedsnr" v="127945" />
	</node>
	<node lat="60.518719154816665" lon="5.608290440513738" id="-26307">
		<tag k="name" v="Svartatjørn" />
		<tag k="natural" v="water" />
		<tag k="ssr:stedsnr" v="166607" />
	</node>
	<node lat="60.50977067460235" lon="5.6156824264476075" id="-26308">
		<tag k="name" v="Litlatjørna" />
		<tag k="natural" v="water" />
		<tag k="ssr:stedsnr" v="166608" />
	</node>
	<node lat="60.48508888658787" lon="5.537297220634431" id="-26309">
		<tag k="name" v="Austadbekken" />
		<tag k="ssr:stedsnr" v="166613" />
		<tag k="waterway" v="stream" />
	</node>
	<node lat="60.54482028879181" lon="5.532971466604515" id="-26322">
		<tag k="alt_name" v="Haugstveitjønna" />
		<tag k="name" v="Haustveittjørna" />
		<tag k="natural" v="water" />
		<tag k="ssr:stedsnr" v="166519" />
	</node>
	<node lat="60.49138935000237" lon="5.651288862796886" id="-26335">
		<tag k="name" v="Iglatjørna" />
		<tag k="natural" v="water" />
		<tag k="ssr:stedsnr" v="187979" />
	</node>
	<node lat="60.602115284239446" lon="5.523748561100021" id="-26338">
		<tag k="name" v="Nedrevatnet" />
		<tag k="natural" v="water" />
		<tag k="ssr:stedsnr" v="188569" />
	</node>
	<node lat="60.566161455861305" lon="5.568741769224245" id="-26355">
		<tag k="name" v="Oksatjørna" />
		<tag k="natural" v="water" />
		<tag k="ssr:stedsnr" v="227381" />
	</node>
	<node lat="60.51038122152195" lon="5.65124319185431" id="-26360">
		<tag k="name" v="Rinnane" />
		<tag k="natural" v="water" />
		<tag k="ssr:stedsnr" v="227441" />
		<tag k="water" v="lake" />
	</node>
	<node lat="60.66997106433691" lon="5.62850372512262" id="-26398">
		<tag k="name" v="Gullbergtjørna" />
		<tag k="natural" v="water" />
		<tag k="ssr:stedsnr" v="288391" />
	</node>
	<node lat="60.542927278532964" lon="5.543093214862229" id="-26401">
		<tag k="name" v="Midtvatnet" />
		<tag k="natural" v="water" />
		<tag k="ssr:stedsnr" v="288477" />
		<tag k="water" v="lake" />
	</node>
	<node lat="60.59004324957474" lon="5.525762854836951" id="-26403">
		<tag k="name" v="Osavatn" />
		<tag k="natural" v="water" />
		<tag k="ssr:stedsnr" v="288497" />
		<tag k="water" v="lake" />
	</node>
	<node lat="60.507183334521656" lon="5.5276249909651805" id="-26404">
		<tag k="name" v="Fossen" />
		<tag k="natural" v="waterfall" />
		<tag k="ssr:stedsnr" v="288727" />
	</node>
	<node lat="60.561913892739426" lon="5.586077778719944" id="-26411">
		<tag k="name" v="Langetjørna" />
		<tag k="natural" v="water" />
		<tag k="ssr:stedsnr" v="303818" />
		<tag k="water" v="lake" />
	</node>
	<node lat="60.50145466270432" lon="5.692397939169121" id="-26424">
		<tag k="name" v="Grøntovatnet" />
		<tag k="natural" v="water" />
		<tag k="ssr:stedsnr" v="309995" />
	</node>
	<node lat="60.599311021197714" lon="5.597020479158771" id="-26435">
		<tag k="name" v="Trønsketjønna" />
		<tag k="natural" v="water" />
		<tag k="ssr:stedsnr" v="469454" />
	</node>
	<node lat="60.57405061224634" lon="5.559056637663989" id="-26438">
		<tag k="name" v="Sætretjørna" />
		<tag k="natural" v="water" />
		<tag k="ssr:stedsnr" v="469410" />
	</node>
	<node lat="60.56763055385676" lon="5.450727783749309" id="-26446">
		<tag k="name" v="Litlandselva" />
		<tag k="ssr:stedsnr" v="469826" />
		<tag k="waterway" v="river" />
	</node>
	<node lat="60.53406944318733" lon="5.629102773768756" id="-26458">
		<tag k="name" v="Vassdalholmane" />
		<tag k="place" v="islet" />
		<tag k="ssr:stedsnr" v="470594" />
	</node>
	<node lat="60.53681944243204" lon="5.627700006214266" id="-26459">
		<tag k="name" v="Teinholmen" />
		<tag k="place" v="islet" />
		<tag k="ssr:stedsnr" v="470595" />
	</node>
	<node lat="60.627980390484" lon="5.609844893136373" id="-26460">
		<tag k="name" v="Vikatjørna" />
		<tag k="natural" v="water" />
		<tag k="ssr:stedsnr" v="470788" />
	</node>
	<node lat="60.49477051693807" lon="5.658151922145754" id="-26474">
		<tag k="name" v="Varmavatnet" />
		<tag k="natural" v="water" />
		<tag k="ssr:stedsnr" v="348554" />
		<tag k="water" v="lake" />
	</node>
	<node lat="60.490434540798034" lon="5.601225206319885" id="-26488">
		<tag k="name" v="Sildatjørna" />
		<tag k="natural" v="water" />
		<tag k="ssr:stedsnr" v="369978" />
	</node>
	<node lat="60.58789122037062" lon="5.59029036095233" id="-26496">
=======
<osm generator="osmapis" version="0.6">
	<node id="-646656" lat="60.6540140636" lon="5.62542657995">
		<tag k="name" v="Nordravatnet" />
		<tag k="natural" v="water" />
		<tag k="ssr:stedsnr" v="552685" />
	</node>
	<node id="-645632" lat="60.5429272785" lon="5.54309321486">
		<tag k="name" v="Midtvatnet" />
		<tag k="natural" v="water" />
		<tag k="ssr:stedsnr" v="288477" />
		<tag k="water" v="lake" />
	</node>
	<node id="-646650" lat="60.549816669" lon="5.43131944431">
		<tag k="name" v="Lonane" />
		<tag k="ssr:stedsnr" v="552459" />
		<tag k="waterway" v="stream" />
	</node>
	<node id="-645625" lat="60.5188750036" lon="5.50401943728">
		<tag k="name" v="Giljafossen" />
		<tag k="natural" v="waterfall" />
		<tag k="ssr:stedsnr" v="286720" />
	</node>
	<node id="-646648" lat="60.4877833363" lon="5.47914721866">
		<tag k="name" v="Daltveitelva" />
		<tag k="ssr:stedsnr" v="551997" />
		<tag k="waterway" v="stream" />
	</node>
	<node id="-646644" lat="60.5848133589" lon="5.53204868645">
		<tag k="name" v="Herlandsvatnet" />
		<tag k="natural" v="water" />
		<tag k="ssr:stedsnr" v="551533" />
	</node>
	<node id="-646643" lat="60.5826277784" lon="5.58219166291">
		<tag k="name" v="Budalsvika" />
		<tag k="natural" v="bay" />
		<tag k="ssr:stedsnr" v="551528" />
	</node>
	<node id="-646130" lat="60.506821498" lon="5.51953891792">
		<tag k="name" v="Eltervatnet" />
		<tag k="natural" v="water" />
		<tag k="ssr:stedsnr" v="916956" />
	</node>
	<node id="-646129" lat="60.532519445" lon="5.61915555087">
		<tag k="name" v="Drageidet" />
		<tag k="natural" v="strait" />
		<tag k="ssr:stedsnr" v="916928" />
	</node>
	<node id="-646615" lat="60.5170174216" lon="5.68424836078">
		<tag k="name" v="Svartetjørna" />
		<tag k="natural" v="water" />
		<tag k="ssr:stedsnr" v="530634" />
	</node>
	<node id="-646612" lat="60.6126736269" lon="5.62038288407">
		<tag k="name" v="Kupetjønna" />
		<tag k="natural" v="water" />
		<tag k="ssr:stedsnr" v="530454" />
	</node>
	<node id="-646611" lat="60.6169166637" lon="5.58881943911">
		<tag k="name" v="Tysseelva" />
		<tag k="ssr:stedsnr" v="530451" />
		<tag k="waterway" v="river" />
	</node>
	<node id="-646608" lat="60.5619138927" lon="5.58607777872">
		<tag k="fixme" v="multiple name tags, choose one and add the other to alt_name" />
		<tag k="name" v="Langetjørna;Langevatnet" />
		<tag k="natural" v="water" />
		<tag k="ssr:stedsnr" v="529299" />
		<tag k="water" v="lake" />
	</node>
	<node id="-646136" lat="60.5094586839" lon="5.48562170622">
		<tag k="name" v="Haugvik" />
		<tag k="natural" v="bay" />
		<tag k="ssr:stedsnr" v="954733" />
	</node>
	<node id="-645582" lat="60.6699710643" lon="5.62850372512">
		<tag k="name" v="Gullbergtjørna" />
		<tag k="natural" v="water" />
		<tag k="ssr:stedsnr" v="288391" />
	</node>
	<node id="-646602" lat="60.5739079021" lon="5.5740808866">
		<tag k="name" v="Løtveitvatnet" />
		<tag k="natural" v="water" />
		<tag k="ssr:stedsnr" v="431585" />
	</node>
	<node id="-646086" lat="60.5077390293" lon="5.62350202187">
		<tag k="name" v="Kyrkjeskartjørna" />
		<tag k="natural" v="water" />
		<tag k="ssr:stedsnr" v="795953" />
	</node>
	<node id="-646085" lat="60.511549996" lon="5.48511667534">
		<tag k="name" v="Storneset" />
		<tag k="natural" v="cape" />
		<tag k="ssr:stedsnr" v="796014" />
	</node>
	<node id="-646237" lat="60.5554777747" lon="5.50053056462">
		<tag k="name" v="Kossdalsvatnet" />
		<tag k="natural" v="water" />
		<tag k="ssr:stedsnr" v="67623" />
		<tag k="water" v="lake" />
	</node>
	<node id="-646077" lat="60.6277492966" lon="5.61815248688">
		<tag k="name" v="Kleivelandsvatnet" />
		<tag k="natural" v="water" />
		<tag k="ssr:stedsnr" v="916744" />
		<tag k="water" v="lake" />
	</node>
	<node id="-646071" lat="60.508916663" lon="5.44318611901">
		<tag k="name" v="Kringastemma" />
		<tag k="natural" v="water" />
		<tag k="ssr:stedsnr" v="916484" />
	</node>
	<node id="-645448" lat="60.4976583328" lon="5.55938333007">
		<tag k="alt_name" v="Gjerståfossen" />
		<tag k="name" v="Gjerstadfossen" />
		<tag k="natural" v="waterfall" />
		<tag k="ssr:stedsnr" v="227847" />
	</node>
	<node id="-646571" lat="60.5477055563" lon="5.54081111098">
		<tag k="name" v="Dalaelva" />
		<tag k="ssr:stedsnr" v="409778" />
		<tag k="waterway" v="river" />
	</node>
	<node id="-646567" lat="60.5134110037" lon="5.48592858318">
		<tag k="name" v="Stuttåsvika" />
		<tag k="natural" v="bay" />
		<tag k="ssr:stedsnr" v="409699" />
	</node>
	<node id="-646566" lat="60.5409928751" lon="5.51637772168">
		<tag k="alt_name" v="Svendheimsjøen" />
		<tag k="name" v="Svenheimssjøen" />
		<tag k="natural" v="water" />
		<tag k="ssr:stedsnr" v="409666" />
		<tag k="water" v="lake" />
	</node>
	<node id="-646052" lat="60.4963027787" lon="5.65378889007">
		<tag k="name" v="Botnavatnet" />
		<tag k="natural" v="water" />
		<tag k="ssr:stedsnr" v="915984" />
	</node>
	<node id="-646050" lat="60.5071136104" lon="5.50866150074">
		<tag k="name" v="Sundet" />
		<tag k="natural" v="strait" />
		<tag k="ssr:stedsnr" v="772702" />
	</node>
	<node id="-646558" lat="60.5370333363" lon="5.61603889097">
		<tag k="name" v="Skarvika" />
		<tag k="natural" v="bay" />
		<tag k="ssr:stedsnr" v="409588" />
	</node>
	<node id="-645529" lat="60.4680019299" lon="5.61477283561">
		<tag k="name" v="Stokkatjørna" />
		<tag k="natural" v="water" />
		<tag k="ssr:stedsnr" v="127945" />
	</node>
	<node id="-646549" lat="60.6019355915" lon="5.54090550969">
		<tag k="name" v="Nordretjønna" />
		<tag k="natural" v="water" />
		<tag k="ssr:stedsnr" v="409524" />
	</node>
	<node id="-646036" lat="60.5556805587" lon="5.49171389412">
		<tag k="name" v="Kvernhuselva" />
		<tag k="ssr:stedsnr" v="718617" />
		<tag k="waterway" v="stream" />
	</node>
	<node id="-645518" lat="60.5775472238" lon="5.59695554659">
		<tag k="name" v="Grytsåvågen" />
		<tag k="natural" v="bay" />
		<tag k="ssr:stedsnr" v="127617" />
	</node>
	<node id="-646538" lat="60.6170541821" lon="5.60302866845">
		<tag k="name" v="Munkeneset" />
		<tag k="natural" v="cape" />
		<tag k="ssr:stedsnr" v="409415" />
	</node>
	<node id="-645511" lat="60.510299997" lon="5.48962500165">
		<tag k="name" v="Øyåsneset" />
		<tag k="natural" v="cape" />
		<tag k="ssr:stedsnr" v="249956" />
	</node>
	<node id="-646022" lat="60.5151527822" lon="5.55499999863">
		<tag k="name" v="Vallfossen" />
		<tag k="natural" v="waterfall" />
		<tag k="ssr:stedsnr" v="895728" />
	</node>
	<node id="-646533" lat="60.5755583334" lon="5.56822222851">
		<tag k="name" v="Sponvik" />
		<tag k="natural" v="bay" />
		<tag k="ssr:stedsnr" v="409385" />
	</node>
	<node id="-646530" lat="60.5007277787" lon="5.52401111284">
		<tag k="name" v="Skjeråa" />
		<tag k="ssr:stedsnr" v="408715" />
		<tag k="waterway" v="stream" />
	</node>
	<node id="-645504" lat="60.6074783137" lon="5.65246695633">
		<tag k="name" v="Øvrebotnen" />
		<tag k="natural" v="water" />
		<tag k="ssr:stedsnr" v="249720" />
	</node>
	<node id="-645503" lat="60.6096131811" lon="5.63295760746">
		<tag k="alt_name" v="Botnavatnet, nedre" />
		<tag k="name" v="Nedra Botnavatnet" />
		<tag k="natural" v="water" />
		<tag k="ssr:stedsnr" v="249719" />
	</node>
	<node id="-645502" lat="60.6321527797" lon="5.62994445196">
		<tag k="name" v="Vaultjørna" />
		<tag k="natural" v="water" />
		<tag k="ssr:stedsnr" v="249690" />
	</node>
	<node id="-645499" lat="60.5976444428" lon="5.59354167516">
		<tag k="name" v="Anortjørna" />
		<tag k="natural" v="water" />
		<tag k="ssr:stedsnr" v="249520" />
	</node>
	<node id="-645497" lat="60.5611972218" lon="5.45998888849">
		<tag k="name" v="Litlandselvi" />
		<tag k="ssr:stedsnr" v="249444" />
		<tag k="waterway" v="stream" />
	</node>
	<node id="-646520" lat="60.5380833356" lon="5.59548054762">
		<tag k="name" v="Peraneset" />
		<tag k="natural" v="cape" />
		<tag k="ssr:stedsnr" v="370891" />
	</node>
	<node id="-646515" lat="60.5566166705" lon="5.59691388875">
		<tag k="name" v="Symjinga" />
		<tag k="natural" v="strait" />
		<tag k="ssr:stedsnr" v="370629" />
	</node>
	<node id="-646514" lat="60.5600833877" lon="5.48096393162">
		<tag k="alt_name" v="Røslandstjønna" />
		<tag k="name" v="Røsslandsvatnet" />
		<tag k="natural" v="water" />
		<tag k="ssr:stedsnr" v="370603" />
	</node>
	<node id="-646513" lat="60.5632194449" lon="5.55738333066">
		<tag k="name" v="Mykingaholmen" />
		<tag k="place" v="islet" />
		<tag k="ssr:stedsnr" v="370602" />
	</node>
	<node id="-646511" lat="60.5878912204" lon="5.59029036095">
>>>>>>> e1d4bc35ff8a6074a6f2e91616a996b547c36f15
		<tag k="name" v="Gardstjørna" />
		<tag k="natural" v="water" />
		<tag k="ssr:stedsnr" v="370572" />
	</node>
<<<<<<< HEAD
	<node lat="60.52797605291891" lon="5.671965253913619" id="-26503">
		<tag k="name" v="Stemmetjørna" />
		<tag k="natural" v="water" />
		<tag k="ssr:stedsnr" v="370969" />
	</node>
	<node lat="60.47852012042017" lon="5.496430464524269" id="-26532">
		<tag k="name" v="Askelandsvatnet" />
		<tag k="natural" v="water" />
		<tag k="ssr:stedsnr" v="490979" />
		<tag k="water" v="lake" />
	</node>
	<node lat="60.57962066100992" lon="5.6168004273531364" id="-26551">
=======
	<node id="-646508" lat="60.5033969709" lon="5.45460222397">
		<tag k="name" v="Svidatjørna" />
		<tag k="natural" v="water" />
		<tag k="ssr:stedsnr" v="370515" />
	</node>
	<node id="-647019" lat="60.5595339854" lon="5.61051201111">
		<tag k="alt_name" v="Austervatnet" />
		<tag k="name" v="Austrevatnet" />
		<tag k="natural" v="water" />
		<tag k="ssr:stedsnr" v="795604" />
	</node>
	<node id="-647018" lat="60.579620661" lon="5.61680042735">
>>>>>>> e1d4bc35ff8a6074a6f2e91616a996b547c36f15
		<tag k="name" v="Stemmetjørnane" />
		<tag k="natural" v="water" />
		<tag k="ssr:stedsnr" v="491570" />
		<tag k="water" v="lake" />
	</node>
<<<<<<< HEAD
	<node lat="60.52719756900534" lon="5.52400343737491" id="-26552">
		<tag k="name" v="Barsvatnet" />
		<tag k="natural" v="water" />
		<tag k="ssr:stedsnr" v="491931" />
	</node>
	<node lat="60.52667499851964" lon="5.561559389660357" id="-26554">
		<tag k="name" v="Kleppstjørna" />
		<tag k="natural" v="water" />
		<tag k="ssr:stedsnr" v="491933" />
	</node>
	<node lat="60.52063219101285" lon="5.532361266746289" id="-26555">
		<tag k="alt_name" v="Loståvatnet" />
		<tag k="name" v="Låstadvatnet" />
		<tag k="natural" v="water" />
		<tag k="ssr:stedsnr" v="491935" />
		<tag k="water" v="lake" />
	</node>
	<node lat="60.518653434264344" lon="5.6421066429339" id="-26556">
		<tag k="name" v="Vassdalstjørna" />
		<tag k="natural" v="water" />
		<tag k="old_name" v="Vassdalsfj." />
		<tag k="ssr:stedsnr" v="491946" />
	</node>
	<node lat="60.59655151612769" lon="5.64932198148117" id="-26574">
		<tag k="name" v="Dyrekuptjørni" />
		<tag k="natural" v="water" />
		<tag k="ssr:stedsnr" v="673544" />
	</node>
	<node lat="60.56574462617639" lon="5.489552650311672" id="-26575">
		<tag k="alt_name" v="Holavatnet" />
		<tag k="name" v="Holevatnet" />
		<tag k="natural" v="water" />
		<tag k="ssr:stedsnr" v="673600" />
	</node>
	<node lat="60.490412478106315" lon="5.587409564137831" id="-26580">
		<tag k="name" v="Storavatnet" />
		<tag k="natural" v="water" />
		<tag k="ssr:stedsnr" v="673988" />
		<tag k="water" v="lake" />
	</node>
	<node lat="60.50020555590479" lon="5.655247216901521" id="-26581">
		<tag k="name" v="Kupelva" />
		<tag k="ssr:stedsnr" v="673995" />
		<tag k="waterway" v="stream" />
	</node>
	<node lat="60.493427777535246" lon="5.570133334386041" id="-26596">
		<tag k="name" v="Hovdaelva" />
		<tag k="ssr:stedsnr" v="469861" />
		<tag k="waterway" v="river" />
	</node>
	<node lat="60.49120472962707" lon="5.58748790860621" id="-26617">
		<tag k="name" v="Håninganeset" />
		<tag k="natural" v="cape" />
		<tag k="ssr:stedsnr" v="530591" />
	</node>
	<node lat="60.58262777838626" lon="5.582191662910334" id="-26632">
		<tag k="name" v="Budalsvika" />
		<tag k="natural" v="bay" />
		<tag k="ssr:stedsnr" v="551528" />
	</node>
	<node lat="60.58481335894256" lon="5.5320486864475615" id="-26633">
		<tag k="name" v="Herlandsvatnet" />
		<tag k="natural" v="water" />
		<tag k="ssr:stedsnr" v="551533" />
	</node>
	<node lat="60.48778333626163" lon="5.479147218664506" id="-26634">
		<tag k="name" v="Daltveitelva" />
		<tag k="ssr:stedsnr" v="551997" />
		<tag k="waterway" v="stream" />
	</node>
	<node lat="60.544727777007324" lon="5.37916388903375" id="-26673">
		<tag k="name" v="Klubbelva" />
		<tag k="ssr:stedsnr" v="597407" />
		<tag k="waterway" v="river" />
	</node>
	<node lat="60.55348210074357" lon="5.475821550360122" id="-26679">
		<tag k="name" v="Litlandsvatnet" />
		<tag k="natural" v="water" />
		<tag k="ssr:stedsnr" v="612623" />
	</node>
	<node lat="60.54446722284674" lon="5.5446277985020656" id="-26701">
		<tag k="name" v="Fossdalsvatnet" />
		<tag k="natural" v="water" />
		<tag k="ssr:stedsnr" v="651537" />
		<tag k="water" v="lake" />
	</node>
	<node lat="60.55762499986134" lon="5.5616499942315" id="-26711">
		<tag k="name" v="Settangen" />
		<tag k="natural" v="cape" />
		<tag k="ssr:stedsnr" v="673619" />
	</node>
	<node lat="60.55485575421354" lon="5.5578176076848065" id="-26712">
		<tag k="name" v="Mykingatjørn" />
=======
	<node id="-645480" lat="60.5277388886" lon="5.61238055401">
		<tag k="name" v="Sandane" />
		<tag k="natural" v="beach" />
		<tag k="ssr:stedsnr" v="67924" />
	</node>
	<node id="-645991" lat="60.5199599372" lon="5.63850597405">
		<tag k="name" v="Holmetjørna" />
		<tag k="natural" v="water" />
		<tag k="old_name" v="Holmefj." />
		<tag k="ssr:stedsnr" v="712593" />
	</node>
	<node id="-645990" lat="60.5122305512" lon="5.63414167056">
		<tag k="name" v="Fossen" />
		<tag k="natural" v="waterfall" />
		<tag k="ssr:stedsnr" v="712592" />
	</node>
	<node id="-645474" lat="60.5426396296" lon="5.44588775515">
		<tag k="name" v="Dalsvatnet" />
		<tag k="natural" v="water" />
		<tag k="ssr:stedsnr" v="67414" />
	</node>
	<node id="-646497" lat="60.4904345408" lon="5.60122520632">
		<tag k="name" v="Sildatjørna" />
		<tag k="natural" v="water" />
		<tag k="ssr:stedsnr" v="369978" />
	</node>
	<node id="-645978" lat="60.5673944445" lon="5.55425000812">
		<tag k="name" v="Langaneset" />
		<tag k="natural" v="cape" />
		<tag k="ssr:stedsnr" v="894437" />
	</node>
	<node id="-647000" lat="60.5802703932" lon="5.54634519573">
		<tag k="name" v="Herlandsfossen" />
		<tag k="natural" v="waterfall" />
		<tag k="ssr:stedsnr" v="984331" />
	</node>
	<node id="-645973" lat="60.5095749992" lon="5.4994444439">
		<tag k="name" v="Mjåsundet" />
		<tag k="natural" v="strait" />
		<tag k="ssr:stedsnr" v="893684" />
	</node>
	<node id="-646477" lat="60.5062842612" lon="5.61938647261">
		<tag k="name" v="Bjørketjørnane" />
		<tag k="natural" v="water" />
		<tag k="ssr:stedsnr" v="348598" />
		<tag k="water" v="lake" />
	</node>
	<node id="-645961" lat="60.523483688" lon="5.59932892928">
		<tag k="name" v="Sagatjørna" />
		<tag k="natural" v="water" />
		<tag k="ssr:stedsnr" v="673963" />
	</node>
	<node id="-645960" lat="60.5235681275" lon="5.68298569135">
		<tag k="name" v="Brunatjørna" />
		<tag k="natural" v="water" />
		<tag k="ssr:stedsnr" v="673959" />
	</node>
	<node id="-645956" lat="60.4908776021" lon="5.57554527259">
		<tag k="name" v="Litlavatnet" />
		<tag k="natural" v="water" />
		<tag k="ssr:stedsnr" v="651865" />
		<tag k="water" v="lake" />
	</node>
	<node id="-646966" lat="60.5079694433" lon="5.60443610859">
		<tag k="name" v="Svartatjørn" />
>>>>>>> e1d4bc35ff8a6074a6f2e91616a996b547c36f15
		<tag k="natural" v="water" />
		<tag k="ssr:stedsnr" v="673625" />
	</node>
<<<<<<< HEAD
	<node lat="60.57793888779356" lon="5.601336111570586" id="-26714">
		<tag k="alt_name" v="Grylså" />
		<tag k="fixme" v="multiple name tags, choose one and add the other to alt_name" />
		<tag k="name" v="Grytså;Grøvelselva" />
		<tag k="ssr:stedsnr" v="673559" />
		<tag k="waterway" v="stream" />
	</node>
	<node lat="60.52356812752265" lon="5.682985691354612" id="-26718">
		<tag k="name" v="Brunatjørna" />
		<tag k="natural" v="water" />
		<tag k="ssr:stedsnr" v="673959" />
	</node>
	<node lat="60.52348368798985" lon="5.599328929278449" id="-26719">
		<tag k="name" v="Sagatjørna" />
		<tag k="natural" v="water" />
		<tag k="ssr:stedsnr" v="673963" />
	</node>
	<node lat="60.514968025421034" lon="5.5545716751707195" id="-26742">
		<tag k="name" v="Vallfossen" />
		<tag k="natural" v="waterfall" />
		<tag k="ssr:stedsnr" v="895728" />
	</node>
	<node lat="60.50835278023349" lon="5.52602221394093" id="-26755">
		<tag k="name" v="Bruaneset" />
		<tag k="natural" v="cape" />
		<tag k="ssr:stedsnr" v="711711" />
	</node>
	<node lat="60.51223055124271" lon="5.634141670557084" id="-26766">
		<tag k="name" v="Fossen" />
		<tag k="natural" v="waterfall" />
		<tag k="ssr:stedsnr" v="712592" />
	</node>
	<node lat="60.5199599371988" lon="5.638505974054553" id="-26767">
		<tag k="name" v="Holmetjørna" />
		<tag k="natural" v="water" />
		<tag k="old_name" v="Holmefj." />
		<tag k="ssr:stedsnr" v="712593" />
	</node>
	<node lat="60.55568055868018" lon="5.4917138941208385" id="-26780">
		<tag k="name" v="Kvernhuselva" />
		<tag k="ssr:stedsnr" v="718617" />
		<tag k="waterway" v="stream" />
	</node>
	<node lat="60.495211641723735" lon="5.694574380256041" id="-26784">
		<tag k="name" v="Såtevatnet" />
		<tag k="natural" v="water" />
		<tag k="ssr:stedsnr" v="733975" />
	</node>
	<node lat="60.48680555222498" lon="5.67224166154933" id="-26826">
		<tag k="name" v="Storelva" />
		<tag k="ssr:stedsnr" v="794977" />
		<tag k="waterway" v="stream" />
	</node>
	<node lat="60.55953398543321" lon="5.610512011112887" id="-26835">
		<tag k="alt_name" v="Austervatnet" />
		<tag k="name" v="Austrevatnet" />
		<tag k="natural" v="water" />
		<tag k="ssr:stedsnr" v="795604" />
	</node>
	<node lat="60.66125643797963" lon="5.651745825626669" id="-26836">
		<tag k="alt_name" v="Surrebotntjørna" />
		<tag k="name" v="Nedsta Sørebotnvatn" />
		<tag k="natural" v="water" />
		<tag k="ssr:stedsnr" v="795667" />
	</node>
	<node lat="60.51154999602674" lon="5.485116675344691" id="-26837">
		<tag k="name" v="Storneset" />
=======
	<node id="-645954" lat="60.5880638905" lon="5.48291388375">
		<tag k="name" v="Sæterbekken" />
		<tag k="ssr:stedsnr" v="651554" />
		<tag k="waterway" v="stream" />
	</node>
	<node id="-645953" lat="60.5444672228" lon="5.5446277985">
		<tag k="name" v="Fossdalsvatnet" />
		<tag k="natural" v="water" />
		<tag k="ssr:stedsnr" v="651537" />
		<tag k="water" v="lake" />
	</node>
	<node id="-646464" lat="60.6322722355" lon="5.61121488061">
		<tag k="name" v="Svartatjønna" />
		<tag k="natural" v="water" />
		<tag k="ssr:stedsnr" v="348390" />
	</node>
	<node id="-646974" lat="60.5717416646" lon="5.4942750045">
		<tag k="name" v="Fagerdalselva" />
		<tag k="ssr:stedsnr" v="955737" />
		<tag k="waterway" v="river" />
	</node>
	<node id="-646461" lat="60.5084083317" lon="5.5017388929">
		<tag k="name" v="Risneset" />
		<tag k="natural" v="cape" />
		<tag k="ssr:stedsnr" v="347699" />
	</node>
	<node id="-645433" lat="60.5103812215" lon="5.65124319185">
		<tag k="name" v="Rinnane" />
		<tag k="natural" v="water" />
		<tag k="ssr:stedsnr" v="227441" />
		<tag k="water" v="lake" />
	</node>
	<node id="-646454" lat="60.6959579195" lon="5.65083731096">
		<tag k="name" v="Heimvikvatnet" />
		<tag k="natural" v="water" />
		<tag k="ssr:stedsnr" v="310372" />
	</node>
	<node id="-646451" lat="60.5014546627" lon="5.69239793917">
		<tag k="name" v="Grøntovatnet" />
		<tag k="natural" v="water" />
		<tag k="ssr:stedsnr" v="309995" />
	</node>
	<node id="-646961" lat="60.5364416704" lon="5.63350000801">
		<tag k="name" v="Breivika" />
		<tag k="natural" v="bay" />
		<tag k="ssr:stedsnr" v="955609" />
	</node>
	<node id="-646447" lat="60.527083336" lon="5.63147222048">
		<tag k="name" v="Storåna" />
		<tag k="ssr:stedsnr" v="309957" />
		<tag k="waterway" v="stream" />
	</node>
	<node id="-645422" lat="60.5530735755" lon="5.574106059">
		<tag k="name" v="Vestrevatnet" />
		<tag k="natural" v="water" />
		<tag k="ssr:stedsnr" v="226358" />
	</node>
	<node id="-646954" lat="60.483091669" lon="5.6773333257">
		<tag k="name" v="Tverbekken" />
		<tag k="ssr:stedsnr" v="955582" />
		<tag k="waterway" v="stream" />
	</node>
	<node id="-645417" lat="60.5228179258" lon="5.5166240485">
		<tag k="name" v="Husavatnet" />
		<tag k="natural" v="water" />
		<tag k="ssr:stedsnr" v="6942" />
	</node>
	<node id="-645928" lat="60.6047777775" lon="5.60009999142">
		<tag k="name" v="Sætertjørna" />
		<tag k="natural" v="water" />
		<tag k="ssr:stedsnr" v="734567" />
	</node>
	<node id="-645927" lat="60.6153695476" lon="5.67215771122">
		<tag k="name" v="Ljosavatnet" />
		<tag k="natural" v="water" />
		<tag k="ssr:stedsnr" v="734556" />
	</node>
	<node id="-646449" lat="60.5184495804" lon="5.58601734803">
		<tag k="name" v="Fagerstølsvatnet" />
		<tag k="natural" v="water" />
		<tag k="ssr:stedsnr" v="309959" />
	</node>
	<node id="-645411" lat="60.5661614559" lon="5.56874176922">
		<tag k="name" v="Oksatjørna" />
		<tag k="natural" v="water" />
		<tag k="ssr:stedsnr" v="227381" />
	</node>
	<node id="-645920" lat="60.4952116417" lon="5.69457438026">
		<tag k="name" v="Såtevatnet" />
		<tag k="natural" v="water" />
		<tag k="ssr:stedsnr" v="733975" />
	</node>
	<node id="-646942" lat="60.5775375843" lon="5.57652474457">
		<tag k="name" v="Varetjørna" />
		<tag k="natural" v="water" />
		<tag k="ssr:stedsnr" v="955389" />
	</node>
	<node id="-645509" lat="60.5505194442" lon="5.58492499916">
		<tag k="name" v="Rongveneset" />
>>>>>>> e1d4bc35ff8a6074a6f2e91616a996b547c36f15
		<tag k="natural" v="cape" />
		<tag k="ssr:stedsnr" v="249887" />
	</node>
<<<<<<< HEAD
	<node lat="60.627749296561824" lon="5.61815248688475" id="-26841">
		<tag k="name" v="Kleivelandsvatnet" />
=======
	<node id="-646426" lat="60.502138588" lon="5.66227956595">
		<tag k="name" v="Sluppatjørna" />
>>>>>>> e1d4bc35ff8a6074a6f2e91616a996b547c36f15
		<tag k="natural" v="water" />
		<tag k="ssr:stedsnr" v="188997" />
	</node>
	<node id="-645430" lat="60.6571953176" lon="5.62238196705">
		<tag k="name" v="Furnestjørna" />
		<tag k="natural" v="water" />
		<tag k="ssr:stedsnr" v="227425" />
	</node>
	<node id="-646702" lat="60.4969253765" lon="5.69375737818">
		<tag k="name" v="Langavatnet" />
		<tag k="natural" v="water" />
		<tag k="ssr:stedsnr" v="591547" />
		<tag k="water" v="lake" />
	</node>
<<<<<<< HEAD
	<node lat="60.53251944498114" lon="5.619155550866456" id="-26845">
		<tag k="name" v="Drageidet" />
		<tag k="place" v="locality" />
		<tag k="ssr:stedsnr" v="916928" />
	</node>
	<node lat="60.506821498018965" lon="5.51953891792286" id="-26852">
		<tag k="name" v="Eltervatnet" />
		<tag k="natural" v="water" />
		<tag k="ssr:stedsnr" v="916956" />
	</node>
	<node lat="60.502597225410256" lon="5.507863890138003" id="-26853">
		<tag k="name" v="Vevleelva" />
		<tag k="ssr:stedsnr" v="833290" />
		<tag k="waterway" v="river" />
	</node>
	<node lat="60.50822778025393" lon="5.5191611033996075" id="-26854">
		<tag k="name" v="Skistadneset" />
		<tag k="natural" v="cape" />
		<tag k="ssr:stedsnr" v="833709" />
	</node>
	<node lat="60.497757148888674" lon="5.453104680623813" id="-26860">
		<tag k="name" v="Brakvatnet" />
		<tag k="natural" v="water" />
		<tag k="ssr:stedsnr" v="855398" />
	</node>
	<node lat="60.614100094781215" lon="5.646968288070787" id="-26872">
		<tag k="name" v="Vassbotnen" />
		<tag k="natural" v="water" />
		<tag k="ssr:stedsnr" v="856741" />
	</node>
	<node lat="60.52854722587997" lon="5.635386109564863" id="-26873">
		<tag k="name" v="Blautavika" />
		<tag k="natural" v="bay" />
		<tag k="ssr:stedsnr" v="856935" />
	</node>
	<node lat="60.50957499920443" lon="5.499444443904418" id="-26881">
		<tag k="name" v="Mjåsundet" />
		<tag k="natural" v="strait" />
		<tag k="ssr:stedsnr" v="893684" />
	</node>
	<node lat="60.567394444455644" lon="5.554250008118818" id="-26883">
		<tag k="name" v="Langaneset" />
		<tag k="natural" v="cape" />
		<tag k="ssr:stedsnr" v="894437" />
	</node>
	<node lat="60.49630277871198" lon="5.65378889007152" id="-26904">
		<tag k="name" v="Botnavatnet" />
		<tag k="natural" v="water" />
		<tag k="ssr:stedsnr" v="915984" />
	</node>
	<node lat="60.508916662967096" lon="5.443186119006154" id="-26909">
		<tag k="name" v="Kringastemma" />
		<tag k="natural" v="water" />
		<tag k="ssr:stedsnr" v="916484" />
	</node>
	<node lat="60.57753758429124" lon="5.5765247445665125" id="-26925">
		<tag k="name" v="Varetjørna" />
		<tag k="natural" v="water" />
		<tag k="ssr:stedsnr" v="955389" />
	</node>
	<node lat="60.53644167044172" lon="5.633500008006258" id="-26936">
		<tag k="name" v="Breivika" />
		<tag k="natural" v="bay" />
		<tag k="ssr:stedsnr" v="955609" />
	</node>
	<node lat="60.53328774429128" lon="5.6388178911366165" id="-26966">
		<tag k="name" v="Sagatjørna" />
		<tag k="natural" v="water" />
		<tag k="ssr:stedsnr" v="6932" />
	</node>
	<node lat="60.52281792577568" lon="5.516624048504403" id="-26968">
		<tag k="name" v="Husavatnet" />
		<tag k="natural" v="water" />
		<tag k="ssr:stedsnr" v="6942" />
	</node>
	<node lat="60.50648162610185" lon="5.430668377416319" id="-26977">
		<tag k="name" v="Valestrandvatnet" />
		<tag k="natural" v="water" />
		<tag k="ssr:stedsnr" v="44298" />
		<tag k="water" v="lake" />
	</node>
	<node lat="60.57203889127791" lon="5.580075006362489" id="-26987">
		<tag k="name" v="Varestraumen" />
		<tag k="ssr:stedsnr" v="45392" />
		<tag k="waterway" v="river" />
	</node>
	<node lat="60.49586568695488" lon="5.451733861386069" id="-26999">
		<tag k="name" v="Bønes" />
		<tag k="natural" v="cape" />
		<tag k="ssr:stedsnr" v="45802" />
	</node>
	<node lat="60.50871001952778" lon="5.435074417421662" id="-27002">
		<tag k="alt_name" v="Lille Osterøy" />
		<tag k="name" v="Litle Osterøy" />
		<tag k="place" v="islet" />
		<tag k="ssr:stedsnr" v="45496" />
	</node>
	<node lat="60.461416668462796" lon="5.508941672772228" id="-27017">
		<tag k="name" v="Randabekken" />
		<tag k="ssr:stedsnr" v="45864" />
		<tag k="waterway" v="stream" />
	</node>
	<node lat="60.55936286452014" lon="5.595000191191241" id="-27026">
		<tag k="name" v="Storavatnet" />
		<tag k="natural" v="water" />
		<tag k="ssr:stedsnr" v="67620" />
		<tag k="water" v="lake" />
	</node>
	<node lat="60.55547777468918" lon="5.5005305646165015" id="-27028">
		<tag k="name" v="Kossdalsvatnet" />
		<tag k="natural" v="water" />
		<tag k="ssr:stedsnr" v="67623" />
		<tag k="water" v="lake" />
	</node>
	<node lat="60.603721425697664" lon="5.569149144441972" id="-27030">
		<tag k="name" v="Kleppsvatnet" />
		<tag k="natural" v="water" />
		<tag k="ssr:stedsnr" v="67552" />
		<tag k="water" v="lake" />
	</node>
	<node lat="60.52773888860071" lon="5.61238055401198" id="-27038">
		<tag k="name" v="Sandane" />
		<tag k="natural" v="beach" />
		<tag k="ssr:stedsnr" v="67924" />
	</node>
	<node lat="60.50938458489963" lon="5.614348010283303" id="-27039">
		<tag k="name" v="Langtjørna" />
		<tag k="natural" v="water" />
		<tag k="ssr:stedsnr" v="67953" />
	</node>
	<node lat="60.491925000902455" lon="5.481883326209649" id="-27041">
		<tag k="name" v="Skeisedalsbekken" />
		<tag k="ssr:stedsnr" v="104440" />
		<tag k="waterway" v="stream" />
	</node>
	<node lat="60.5939207690204" lon="5.525647763130657" id="-27043">
		<tag k="name" v="Hanstveittjørna" />
		<tag k="natural" v="water" />
		<tag k="ssr:stedsnr" v="104311" />
	</node>
	<node lat="60.54069182703734" lon="5.50711752467532" id="-27049">
		<tag k="name" v="Grønåstjern" />
		<tag k="natural" v="water" />
		<tag k="ssr:stedsnr" v="105670" />
	</node>
	<node lat="60.566620554863874" lon="5.564812577193033" id="-27109">
		<tag k="name" v="Holmatjørna" />
		<tag k="natural" v="water" />
		<tag k="ssr:stedsnr" v="166400" />
	</node>
	<node lat="60.66346150001522" lon="5.656189929209091" id="-27119">
		<tag k="name" v="Øvsta Sørebotnvatn" />
		<tag k="natural" v="water" />
		<tag k="ssr:stedsnr" v="166419" />
	</node>
	<node lat="60.58529721881688" lon="5.534961107496106" id="-27123">
		<tag k="name" v="Herlandsneset" />
		<tag k="natural" v="cape" />
		<tag k="ssr:stedsnr" v="166539" />
	</node>
	<node lat="60.615844447972414" lon="5.60986945294731" id="-27158">
		<tag k="name" v="Kupelva" />
		<tag k="ssr:stedsnr" v="188749" />
		<tag k="waterway" v="stream" />
	</node>
	<node lat="60.5021385880082" lon="5.662279565951612" id="-27162">
		<tag k="name" v="Sluppatjørna" />
		<tag k="natural" v="water" />
		<tag k="ssr:stedsnr" v="188997" />
	</node>
	<node lat="60.55307357548076" lon="5.574106059003556" id="-27170">
		<tag k="name" v="Vestrevatnet" />
		<tag k="natural" v="water" />
		<tag k="ssr:stedsnr" v="226358" />
	</node>
	<node lat="60.510012821892275" lon="5.485507822209992" id="-27176">
		<tag k="name" v="Kristneset" />
		<tag k="natural" v="cape" />
		<tag k="ssr:stedsnr" v="226768" />
	</node>
	<node lat="60.65719531757366" lon="5.622381967052978" id="-27181">
		<tag k="name" v="Furnestjørna" />
		<tag k="natural" v="water" />
		<tag k="ssr:stedsnr" v="227425" />
	</node>
	<node lat="60.49765833281363" lon="5.559383330072628" id="-27192">
		<tag k="alt_name" v="Gjerståfossen" />
		<tag k="name" v="Gjerstadfossen" />
		<tag k="natural" v="waterfall" />
		<tag k="ssr:stedsnr" v="227847" />
	</node>
	<node lat="60.50797777984677" lon="5.444158327341574" id="-27199">
		<tag k="name" v="Hestdalsneset" />
		<tag k="natural" v="cape" />
		<tag k="ssr:stedsnr" v="286295" />
	</node>
	<node lat="60.51887500360784" lon="5.504019437284067" id="-27201">
		<tag k="name" v="Giljafossen" />
		<tag k="natural" v="waterfall" />
		<tag k="ssr:stedsnr" v="286720" />
	</node>
	<node lat="60.51958038427451" lon="5.531123495748708" id="-27219">
		<tag k="name" v="Lostholmen" />
		<tag k="place" v="islet" />
		<tag k="ssr:stedsnr" v="288713" />
	</node>
	<node lat="60.52282500048769" lon="5.6937305507279525" id="-27220">
		<tag k="name" v="Klavarenen" />
		<tag k="ssr:stedsnr" v="288560" />
		<tag k="waterway" v="stream" />
	</node>
	<node lat="60.52708333597156" lon="5.631472220484409" id="-27243">
		<tag k="name" v="Storåna" />
		<tag k="ssr:stedsnr" v="309957" />
		<tag k="waterway" v="stream" />
	</node>
	<node lat="60.51844958037683" lon="5.586017348034151" id="-27245">
		<tag k="name" v="Fagerstølsvatnet" />
		<tag k="natural" v="water" />
		<tag k="ssr:stedsnr" v="309959" />
	</node>
	<node lat="60.69595791954577" lon="5.6508373109592975" id="-27247">
		<tag k="name" v="Heimvikvatnet" />
		<tag k="natural" v="water" />
		<tag k="ssr:stedsnr" v="310372" />
	</node>
	<node lat="60.50840833167933" lon="5.501738892898661" id="-27251">
		<tag k="name" v="Risneset" />
		<tag k="natural" v="cape" />
		<tag k="ssr:stedsnr" v="347699" />
	</node>
	<node lat="60.63227223545665" lon="5.611214880607606" id="-27253">
		<tag k="name" v="Svartatjønna" />
		<tag k="natural" v="water" />
		<tag k="ssr:stedsnr" v="348390" />
	</node>
	<node lat="60.50628426119391" lon="5.619386472610437" id="-27263">
		<tag k="name" v="Bjørketjørnane" />
		<tag k="natural" v="water" />
		<tag k="ssr:stedsnr" v="348598" />
		<tag k="water" v="lake" />
	</node>
	<node lat="60.545228931938546" lon="5.618159874732461" id="-27266">
		<tag k="name" v="Røstjørn" />
		<tag k="natural" v="water" />
		<tag k="ssr:stedsnr" v="348422" />
	</node>
	<node lat="60.56321944490545" lon="5.557383330663667" id="-27286">
		<tag k="name" v="Mykingaholmen" />
		<tag k="place" v="islet" />
		<tag k="ssr:stedsnr" v="370602" />
	</node>
	<node lat="60.560083387681814" lon="5.480963931615492" id="-27287">
		<tag k="alt_name" v="Røslandstjønna" />
		<tag k="name" v="Røsslandsvatnet" />
		<tag k="natural" v="water" />
		<tag k="ssr:stedsnr" v="370603" />
	</node>
	<node lat="60.50339697094123" lon="5.454602223969206" id="-27292">
		<tag k="name" v="Svidatjørna" />
		<tag k="natural" v="water" />
		<tag k="ssr:stedsnr" v="370515" />
	</node>
	<node lat="60.55661667052042" lon="5.596913888749356" id="-27295">
		<tag k="name" v="Symjinga" />
		<tag k="natural" v="strait" />
		<tag k="ssr:stedsnr" v="370629" />
	</node>
	<node lat="60.538083335623455" lon="5.595480547619819" id="-27296">
		<tag k="name" v="Peraneset" />
		<tag k="natural" v="cape" />
		<tag k="ssr:stedsnr" v="370891" />
	</node>
	<node lat="60.500727778689146" lon="5.524011112838189" id="-27305">
		<tag k="name" v="Skjeråa" />
		<tag k="ssr:stedsnr" v="408715" />
		<tag k="waterway" v="stream" />
	</node>
	<node lat="60.57555833342506" lon="5.568222228507131" id="-27313">
		<tag k="name" v="Sponvik" />
		<tag k="natural" v="bay" />
		<tag k="ssr:stedsnr" v="409385" />
	</node>
	<node lat="60.61705418206942" lon="5.603028668451951" id="-27315">
		<tag k="name" v="Munkeneset" />
		<tag k="natural" v="cape" />
		<tag k="ssr:stedsnr" v="409415" />
	</node>
	<node lat="60.601935591485564" lon="5.540905509691316" id="-27320">
		<tag k="name" v="Nordretjønna" />
		<tag k="natural" v="water" />
		<tag k="ssr:stedsnr" v="409524" />
	</node>
	<node lat="60.537033336251355" lon="5.616038890969701" id="-27328">
		<tag k="name" v="Skarvika" />
		<tag k="natural" v="bay" />
		<tag k="ssr:stedsnr" v="409588" />
	</node>
	<node lat="60.540992875069676" lon="5.516377721678254" id="-27332">
		<tag k="alt_name" v="Svendheimsjøen" />
		<tag k="name" v="Svenheimssjøen" />
		<tag k="natural" v="water" />
		<tag k="ssr:stedsnr" v="409666" />
		<tag k="water" v="lake" />
	</node>
	<node lat="60.51341100367604" lon="5.485928583177736" id="-27333">
		<tag k="name" v="Stuttåsvika" />
		<tag k="natural" v="bay" />
		<tag k="ssr:stedsnr" v="409699" />
	</node>
	<node lat="60.5477055562959" lon="5.540811110977179" id="-27337">
		<tag k="name" v="Dalaelva" />
		<tag k="ssr:stedsnr" v="409778" />
		<tag k="waterway" v="river" />
	</node>
	<node lat="60.57390790211753" lon="5.574080886598446" id="-27351">
		<tag k="name" v="Løtveitvatnet" />
		<tag k="natural" v="water" />
		<tag k="ssr:stedsnr" v="431585" />
	</node>
	<node lat="60.544748140940754" lon="5.491829357838767" id="-27356">
		<tag k="alt_name" v="Nordåstjønna" />
		<tag k="name" v="Nunnåstjørni" />
		<tag k="natural" v="water" />
		<tag k="ssr:stedsnr" v="431913" />
	</node>
	<node lat="60.55125833647098" lon="5.55610555007573" id="-27357">
		<tag k="name" v="Bjørndalselva" />
		<tag k="ssr:stedsnr" v="431916" />
		<tag k="waterway" v="stream" />
	</node>
	<node lat="60.561913892739426" lon="5.586077778719944" id="-27361">
		<tag k="fixme" v="multiple name tags, choose one and add the other to alt_name" />
		<tag k="name" v="Langevatnet;Langetjørna" />
		<tag k="natural" v="water" />
		<tag k="ssr:stedsnr" v="529299" />
		<tag k="water" v="lake" />
	</node>
	<node lat="60.61691666369613" lon="5.588819439107429" id="-27366">
		<tag k="name" v="Tysseelva" />
		<tag k="ssr:stedsnr" v="530451" />
		<tag k="waterway" v="river" />
	</node>
	<node lat="60.61267362688306" lon="5.620382884069557" id="-27367">
		<tag k="name" v="Kupetjønna" />
		<tag k="natural" v="water" />
		<tag k="ssr:stedsnr" v="530454" />
	</node>
	<node lat="60.49686301144616" lon="5.452072958869783" id="-27378">
		<tag k="name" v="Langanes" />
		<tag k="natural" v="cape" />
		<tag k="ssr:stedsnr" v="530805" />
	</node>
	<node lat="60.517017421649264" lon="5.68424836077527" id="-27380">
		<tag k="name" v="Svartetjørna" />
		<tag k="natural" v="water" />
		<tag k="ssr:stedsnr" v="530634" />
	</node>
	<node lat="60.473125003135344" lon="5.623141658161525" id="-27388">
		<tag k="name" v="Buldrå" />
		<tag k="ssr:stedsnr" v="530756" />
		<tag k="waterway" v="stream" />
	</node>
	<node lat="60.54981666904313" lon="5.431319444307193" id="-27403">
		<tag k="name" v="Lonane" />
		<tag k="ssr:stedsnr" v="552459" />
		<tag k="waterway" v="stream" />
	</node>
	<node lat="60.65401406357562" lon="5.625426579952755" id="-27408">
		<tag k="name" v="Nordravatnet" />
		<tag k="natural" v="water" />
		<tag k="ssr:stedsnr" v="552685" />
	</node>
	<node lat="60.51423563869847" lon="5.581718586687016" id="-27412">
		<tag k="name" v="Bysheimvatnet" />
		<tag k="natural" v="water" />
		<tag k="ssr:stedsnr" v="552983" />
	</node>
	<node lat="60.512869448867164" lon="5.494686113880071" id="-27414">
		<tag k="alt_name" v="Revheimneset" />
		<tag k="name" v="Revheimsneset" />
=======
	<node id="-646929" lat="60.5285472259" lon="5.63538610956">
		<tag k="name" v="Blautavika" />
		<tag k="natural" v="bay" />
		<tag k="ssr:stedsnr" v="856935" />
	</node>
	<node id="-646926" lat="60.6141000948" lon="5.64696828807">
		<tag k="name" v="Vassbotnen" />
		<tag k="natural" v="water" />
		<tag k="ssr:stedsnr" v="856741" />
	</node>
	<node id="-645899" lat="60.6150746557" lon="5.60280599147">
		<tag k="alt_name" v="Osavatnet" />
		<tag k="name" v="Osvatnet" />
		<tag k="natural" v="water" />
		<tag k="ssr:stedsnr" v="612734" />
	</node>
	<node id="-645897" lat="60.5619000035" lon="5.56564999808">
		<tag k="name" v="Herlandsholmen" />
		<tag k="place" v="islet" />
		<tag k="ssr:stedsnr" v="612597" />
	</node>
	<node id="-646407" lat="60.6021152842" lon="5.5237485611">
		<tag k="name" v="Nedrevatnet" />
		<tag k="natural" v="water" />
		<tag k="ssr:stedsnr" v="188569" />
	</node>
	<node id="-646911" lat="60.4977571489" lon="5.45310468062">
		<tag k="name" v="Brakvatnet" />
		<tag k="natural" v="water" />
		<tag k="ssr:stedsnr" v="855398" />
	</node>
	<node id="-646398" lat="60.49138935" lon="5.6512888628">
		<tag k="name" v="Iglatjørna" />
		<tag k="natural" v="water" />
		<tag k="ssr:stedsnr" v="187979" />
	</node>
	<node id="-645588" lat="60.5900432496" lon="5.52576285484">
		<tag k="name" v="Osavatn" />
		<tag k="natural" v="water" />
		<tag k="ssr:stedsnr" v="288497" />
		<tag k="water" v="lake" />
	</node>
	<node id="-645877" lat="60.5978551795" lon="5.560985324">
		<tag k="name" v="Ækretjønna" />
		<tag k="natural" v="water" />
		<tag k="ssr:stedsnr" v="712522" />
	</node>
	<node id="-645873" lat="60.5427590298" lon="5.53987214816">
		<tag k="name" v="Ramvikavatnet" />
		<tag k="natural" v="water" />
		<tag k="ssr:stedsnr" v="712487" />
		<tag k="water" v="lake" />
	</node>
	<node id="-645415" lat="60.5332877443" lon="5.63881789114">
		<tag k="name" v="Sagatjørna" />
		<tag k="natural" v="water" />
		<tag k="ssr:stedsnr" v="6932" />
	</node>
	<node id="-645864" lat="60.6493233192" lon="5.62772160875">
		<tag k="name" v="Krekjebærtjønna" />
		<tag k="natural" v="water" />
		<tag k="ssr:stedsnr" v="712401" />
	</node>
	<node id="-646368" lat="60.4850888866" lon="5.53729722063">
		<tag k="name" v="Austadbekken" />
		<tag k="ssr:stedsnr" v="166613" />
		<tag k="waterway" v="stream" />
	</node>
	<node id="-646367" lat="60.5097706746" lon="5.61568242645">
		<tag k="name" v="Litlatjørna" />
		<tag k="natural" v="water" />
		<tag k="ssr:stedsnr" v="166608" />
	</node>
	<node id="-646366" lat="60.5187191548" lon="5.60829044051">
		<tag k="name" v="Svartatjørn" />
		<tag k="natural" v="water" />
		<tag k="ssr:stedsnr" v="166607" />
	</node>
	<node id="-645851" lat="60.5083527802" lon="5.52602221394">
		<tag k="name" v="Bruaneset" />
		<tag k="natural" v="cape" />
		<tag k="ssr:stedsnr" v="711711" />
	</node>
	<node id="-646360" lat="60.6634615" lon="5.65618992921">
		<tag k="name" v="Øvsta Sørebotnvatn" />
		<tag k="natural" v="water" />
		<tag k="ssr:stedsnr" v="166419" />
	</node>
	<node id="-646870" lat="60.5799305513" lon="5.55170277139">
		<tag k="name" v="Herlandselva" />
		<tag k="ssr:stedsnr" v="834391" />
		<tag k="waterway" v="river" />
	</node>
	<node id="-646869" lat="60.5082277803" lon="5.5191611034">
		<tag k="name" v="Skistadneset" />
		<tag k="natural" v="cape" />
		<tag k="ssr:stedsnr" v="833709" />
	</node>
	<node id="-646356" lat="60.5666205549" lon="5.56481257719">
		<tag k="name" v="Holmatjørna" />
		<tag k="natural" v="water" />
		<tag k="ssr:stedsnr" v="166400" />
	</node>
	<node id="-646350" lat="60.5852972188" lon="5.5349611075">
		<tag k="name" v="Herlandsneset" />
		<tag k="natural" v="cape" />
		<tag k="ssr:stedsnr" v="166539" />
	</node>
	<node id="-646864" lat="60.5025972254" lon="5.50786389014">
		<tag k="name" v="Vevleelva" />
		<tag k="ssr:stedsnr" v="833290" />
		<tag k="waterway" v="river" />
	</node>
	<node id="-646862" lat="60.5030760952" lon="5.51833149612">
		<tag k="name" v="Kråkevatnet" />
		<tag k="natural" v="water" />
		<tag k="ssr:stedsnr" v="795999" />
	</node>
	<node id="-646349" lat="60.5448202888" lon="5.5329714666">
		<tag k="alt_name" v="Haugstveitjønna" />
		<tag k="name" v="Haustveittjørna" />
		<tag k="natural" v="water" />
		<tag k="ssr:stedsnr" v="166519" />
	</node>
	<node id="-646849" lat="60.661256438" lon="5.65174582563">
		<tag k="alt_name" v="Surrebotntjørna" />
		<tag k="name" v="Nedsta Sørebotnvatn" />
		<tag k="natural" v="water" />
		<tag k="ssr:stedsnr" v="795667" />
	</node>
	<node id="-645824" lat="60.4731250031" lon="5.62314165816">
		<tag k="name" v="Buldrå" />
		<tag k="ssr:stedsnr" v="530756" />
		<tag k="waterway" v="stream" />
	</node>
	<node id="-645427" lat="60.5100128219" lon="5.48550782221">
		<tag k="name" v="Kristneset" />
		<tag k="natural" v="cape" />
		<tag k="ssr:stedsnr" v="226768" />
	</node>
	<node id="-645820" lat="60.4968630114" lon="5.45207295887">
		<tag k="name" v="Langanes" />
		<tag k="natural" v="cape" />
		<tag k="ssr:stedsnr" v="530805" />
	</node>
	<node id="-645818" lat="60.4912047296" lon="5.58748790861">
		<tag k="name" v="Håninganeset" />
		<tag k="natural" v="cape" />
		<tag k="ssr:stedsnr" v="530591" />
	</node>
	<node id="-646839" lat="60.4868055522" lon="5.67224166155">
		<tag k="name" v="Storelva" />
		<tag k="ssr:stedsnr" v="794977" />
		<tag k="waterway" v="stream" />
	</node>
	<node id="-645806" lat="60.520632191" lon="5.53236126675">
		<tag k="alt_name" v="Loståvatnet" />
		<tag k="name" v="Låstadvatnet" />
		<tag k="natural" v="water" />
		<tag k="ssr:stedsnr" v="491935" />
		<tag k="water" v="lake" />
	</node>
	<node id="-646317" lat="60.5481222191" lon="5.3736194394">
		<tag k="name" v="Klubben" />
		<tag k="natural" v="water" />
		<tag k="ssr:stedsnr" v="106873" />
		<tag k="water" v="lake" />
	</node>
	<node id="-645803" lat="60.527197569" lon="5.52400343737">
		<tag k="name" v="Barsvatnet" />
		<tag k="natural" v="water" />
		<tag k="ssr:stedsnr" v="491931" />
	</node>
	<node id="-645704" lat="60.5452289319" lon="5.61815987473">
		<tag k="name" v="Røstjørn" />
		<tag k="natural" v="water" />
		<tag k="ssr:stedsnr" v="348422" />
	</node>
	<node id="-646309" lat="60.5637807038" lon="5.57091860736">
		<tag k="name" v="Oksatjern" />
		<tag k="natural" v="water" />
		<tag k="ssr:stedsnr" v="106795" />
	</node>
	<node id="-645795" lat="60.5002055559" lon="5.6552472169">
		<tag k="name" v="Kupelva" />
		<tag k="ssr:stedsnr" v="673995" />
		<tag k="waterway" v="stream" />
	</node>
	<node id="-645794" lat="60.4904124781" lon="5.58740956414">
		<tag k="name" v="Storavatnet" />
		<tag k="natural" v="water" />
		<tag k="ssr:stedsnr" v="673988" />
		<tag k="water" v="lake" />
	</node>
	<node id="-646816" lat="60.5208832718" lon="5.68109446892">
		<tag k="name" v="Raudskredtjørn" />
		<tag k="natural" v="water" />
		<tag k="ssr:stedsnr" v="773599" />
	</node>
	<node id="-645854" lat="60.5152476345" lon="5.48481458575">
		<tag k="name" v="Hansavika" />
		<tag k="natural" v="bay" />
		<tag k="ssr:stedsnr" v="711736" />
	</node>
	<node id="-646938" lat="60.6514942937" lon="5.63578893172">
		<tag k="name" v="Grasdalstjørna" />
		<tag k="natural" v="water" />
		<tag k="ssr:stedsnr" v="955420" />
	</node>
	<node id="-645786" lat="60.5548557542" lon="5.55781760768">
		<tag k="name" v="Mykingatjørn" />
		<tag k="natural" v="water" />
		<tag k="ssr:stedsnr" v="673625" />
	</node>
	<node id="-645785" lat="60.5576249999" lon="5.56164999423">
		<tag k="name" v="Settangen" />
		<tag k="natural" v="cape" />
		<tag k="ssr:stedsnr" v="673619" />
	</node>
	<node id="-645784" lat="60.5657446262" lon="5.48955265031">
		<tag k="alt_name" v="Holavatnet" />
		<tag k="name" v="Holevatnet" />
		<tag k="natural" v="water" />
		<tag k="ssr:stedsnr" v="673600" />
	</node>
	<node id="-646806" lat="60.4888749976" lon="5.6086499953">
		<tag k="name" v="Tverrelvane" />
		<tag k="ssr:stedsnr" v="773545" />
		<tag k="waterway" v="river" />
	</node>
	<node id="-645781" lat="60.5779388878" lon="5.60133611157">
		<tag k="alt_name" v="Grylså" />
		<tag k="fixme" v="multiple name tags, choose one and add the other to alt_name" />
		<tag k="name" v="Grytså;Grøvelselva" />
		<tag k="ssr:stedsnr" v="673559" />
		<tag k="waterway" v="stream" />
	</node>
	<node id="-645780" lat="60.5965515161" lon="5.64932198148">
		<tag k="name" v="Dyrekuptjørni" />
		<tag k="natural" v="water" />
		<tag k="ssr:stedsnr" v="673544" />
	</node>
	<node id="-646799" lat="60.5768033297" lon="5.58313903084">
		<tag k="name" v="Gangstøtjørna" />
		<tag k="natural" v="water" />
		<tag k="ssr:stedsnr" v="773394" />
	</node>
	<node id="-646796" lat="60.5154555544" lon="5.49544999494">
		<tag k="name" v="Skitvika" />
		<tag k="natural" v="bay" />
		<tag k="ssr:stedsnr" v="772738" />
	</node>
	<node id="-646795" lat="60.5177952955" lon="5.48819795706">
		<tag k="name" v="Sandvika" />
		<tag k="natural" v="bay" />
		<tag k="ssr:stedsnr" v="772732" />
	</node>
	<node id="-646280" lat="60.5499722207" lon="5.54225278243">
		<tag k="name" v="Mykingelva" />
		<tag k="ssr:stedsnr" v="106505" />
		<tag k="waterway" v="river" />
	</node>
	<node id="-646414" lat="60.615844448" lon="5.60986945295">
		<tag k="name" v="Kupelva" />
		<tag k="ssr:stedsnr" v="188749" />
		<tag k="waterway" v="stream" />
	</node>
	<node id="-646787" lat="60.5454555521" lon="5.36465554955">
		<tag k="name" v="Jovikelva" />
		<tag k="ssr:stedsnr" v="651835" />
		<tag k="waterway" v="river" />
	</node>
	<node id="-645760" lat="60.5512583365" lon="5.55610555008">
		<tag k="name" v="Bjørndalselva" />
		<tag k="ssr:stedsnr" v="431916" />
		<tag k="waterway" v="stream" />
	</node>
	<node id="-645759" lat="60.5447481409" lon="5.49182935784">
		<tag k="alt_name" v="Nordåstjønna" />
		<tag k="name" v="Nunnåstjørni" />
		<tag k="natural" v="water" />
		<tag k="ssr:stedsnr" v="431913" />
	</node>
	<node id="-645482" lat="60.5093845849" lon="5.61434801028">
		<tag k="name" v="Langtjørna" />
		<tag k="natural" v="water" />
		<tag k="ssr:stedsnr" v="67953" />
	</node>
	<node id="-646265" lat="60.540691827" lon="5.50711752468">
		<tag k="name" v="Grønåstjern" />
		<tag k="natural" v="water" />
		<tag k="ssr:stedsnr" v="105670" />
	</node>
	<node id="-645902" lat="60.5168249984" lon="5.5604583368">
		<tag k="name" v="Kupetjørna" />
		<tag k="natural" v="water" />
		<tag k="ssr:stedsnr" v="612962" />
	</node>
	<node id="-645746" lat="60.5279760529" lon="5.67196525391">
		<tag k="name" v="Stemmetjørna" />
		<tag k="natural" v="water" />
		<tag k="ssr:stedsnr" v="370969" />
	</node>
	<node id="-645565" lat="60.5079777798" lon="5.44415832734">
		<tag k="name" v="Hestdalsneset" />
		<tag k="natural" v="cape" />
		<tag k="ssr:stedsnr" v="286295" />
	</node>
	<node id="-646252" lat="60.4919250009" lon="5.48188332621">
		<tag k="name" v="Skeisedalsbekken" />
		<tag k="ssr:stedsnr" v="104440" />
		<tag k="waterway" v="stream" />
	</node>
	<node id="-646251" lat="60.593920769" lon="5.52564776313">
		<tag k="name" v="Hanstveittjørna" />
		<tag k="natural" v="water" />
		<tag k="ssr:stedsnr" v="104311" />
	</node>
	<node id="-645734" lat="60.5186534343" lon="5.64210664293">
		<tag k="name" v="Vassdalstjørna" />
		<tag k="natural" v="water" />
		<tag k="old_name" v="Vassdalsfj." />
		<tag k="ssr:stedsnr" v="491946" />
	</node>
	<node id="-646241" lat="60.6188138909" lon="5.60787499133">
		<tag k="name" v="Kleivelandselva" />
		<tag k="ssr:stedsnr" v="67725" />
		<tag k="waterway" v="stream" />
	</node>
	<node id="-646240" lat="60.5652388886" lon="5.59366388869">
		<tag k="name" v="Kjeholmen" />
		<tag k="place" v="islet" />
		<tag k="ssr:stedsnr" v="67598" />
	</node>
	<node id="-645725" lat="60.4785201204" lon="5.49643046452">
		<tag k="name" v="Askelandsvatnet" />
		<tag k="natural" v="water" />
		<tag k="ssr:stedsnr" v="490979" />
		<tag k="water" v="lake" />
	</node>
	<node id="-646235" lat="60.5593628645" lon="5.59500019119">
		<tag k="name" v="Storavatnet" />
		<tag k="natural" v="water" />
		<tag k="ssr:stedsnr" v="67620" />
		<tag k="water" v="lake" />
	</node>
	<node id="-646741" lat="60.5141894325" lon="5.48962906428">
		<tag k="alt_name" v="Borgovatnet" />
		<tag k="name" v="Borgavatnet" />
		<tag k="natural" v="water" />
		<tag k="ssr:stedsnr" v="612926" />
	</node>
	<node id="-646739" lat="60.5534821007" lon="5.47582155036">
		<tag k="name" v="Litlandsvatnet" />
		<tag k="natural" v="water" />
		<tag k="ssr:stedsnr" v="612623" />
	</node>
	<node id="-645714" lat="60.4947705169" lon="5.65815192215">
		<tag k="name" v="Varmavatnet" />
		<tag k="natural" v="water" />
		<tag k="ssr:stedsnr" v="348554" />
		<tag k="water" v="lake" />
	</node>
	<node id="-646225" lat="60.4614166685" lon="5.50894167277">
		<tag k="name" v="Randabekken" />
		<tag k="ssr:stedsnr" v="45864" />
		<tag k="waterway" v="stream" />
	</node>
	<node id="-646730" lat="60.544727777" lon="5.37916388903">
		<tag k="name" v="Klubbelva" />
		<tag k="ssr:stedsnr" v="597407" />
		<tag k="waterway" v="river" />
	</node>
	<node id="-646216" lat="60.495865687" lon="5.45173386139">
		<tag k="name" v="Bønes" />
		<tag k="natural" v="cape" />
		<tag k="ssr:stedsnr" v="45802" />
	</node>
	<node id="-645473" lat="60.6037214257" lon="5.56914914444">
		<tag k="name" v="Kleppsvatnet" />
		<tag k="natural" v="water" />
		<tag k="ssr:stedsnr" v="67552" />
		<tag k="water" v="lake" />
	</node>
	<node id="-646190" lat="60.5430783158" lon="5.59007091824">
		<tag k="name" v="Bruraneset" />
>>>>>>> e1d4bc35ff8a6074a6f2e91616a996b547c36f15
		<tag k="natural" v="cape" />
		<tag k="ssr:stedsnr" v="552973" />
	</node>
<<<<<<< HEAD
	<node lat="60.45423511444564" lon="5.500541767237262" id="-27427">
		<tag k="name" v="Tuftaholmen" />
		<tag k="place" v="islet" />
		<tag k="ssr:stedsnr" v="591476" />
	</node>
	<node lat="60.496925376486054" lon="5.693757378182345" id="-27431">
		<tag k="name" v="Langavatnet" />
		<tag k="natural" v="water" />
		<tag k="ssr:stedsnr" v="591547" />
		<tag k="water" v="lake" />
	</node>
	<node lat="60.47079444628821" lon="5.4746027805892785" id="-27449">
		<tag k="name" v="Urteigfossen" />
		<tag k="natural" v="waterfall" />
		<tag k="ssr:stedsnr" v="591849" />
	</node>
	<node lat="60.56190000349799" lon="5.565649998080084" id="-27460">
		<tag k="name" v="Herlandsholmen" />
=======
	<node id="-645692" lat="60.6279803905" lon="5.60984489314">
		<tag k="name" v="Vikatjørna" />
		<tag k="natural" v="water" />
		<tag k="ssr:stedsnr" v="470788" />
	</node>
	<node id="-645689" lat="60.5368194424" lon="5.62770000621">
		<tag k="name" v="Teinholmen" />
>>>>>>> e1d4bc35ff8a6074a6f2e91616a996b547c36f15
		<tag k="place" v="islet" />
		<tag k="ssr:stedsnr" v="470595" />
	</node>
<<<<<<< HEAD
	<node lat="60.514189432534955" lon="5.489629064277019" id="-27462">
		<tag k="alt_name" v="Borgovatnet" />
		<tag k="name" v="Borgavatnet" />
=======
	<node id="-645688" lat="60.5340694432" lon="5.62910277377">
		<tag k="name" v="Vassdalholmane" />
		<tag k="place" v="islet" />
		<tag k="ssr:stedsnr" v="470594" />
	</node>
	<node id="-646195" lat="60.5087100195" lon="5.43507441742">
		<tag k="alt_name" v="Lille Osterøy" />
		<tag k="name" v="Litle Osterøy" />
		<tag k="place" v="islet" />
		<tag k="ssr:stedsnr" v="45496" />
	</node>
	<node id="-645678" lat="60.5619138927" lon="5.58607777872">
		<tag k="name" v="Langetjørna" />
>>>>>>> e1d4bc35ff8a6074a6f2e91616a996b547c36f15
		<tag k="natural" v="water" />
		<tag k="ssr:stedsnr" v="612926" />
	</node>
<<<<<<< HEAD
	<node lat="60.61507465574385" lon="5.602805991469212" id="-27465">
		<tag k="alt_name" v="Osavatnet" />
		<tag k="name" v="Osvatnet" />
		<tag k="natural" v="water" />
		<tag k="ssr:stedsnr" v="612734" />
	</node>
	<node lat="60.51682499844265" lon="5.560458336802894" id="-27467">
		<tag k="name" v="Kupetjørna" />
		<tag k="natural" v="water" />
		<tag k="ssr:stedsnr" v="612962" />
	</node>
	<node lat="60.58806389049045" lon="5.482913883745771" id="-27492">
		<tag k="name" v="Sæterbekken" />
		<tag k="ssr:stedsnr" v="651554" />
		<tag k="waterway" v="stream" />
	</node>
	<node lat="60.545455552076135" lon="5.364655549546828" id="-27499">
		<tag k="name" v="Jovikelva" />
		<tag k="ssr:stedsnr" v="651835" />
		<tag k="waterway" v="river" />
	</node>
	<node lat="60.490877602108526" lon="5.575545272588167" id="-27504">
		<tag k="name" v="Litlavatnet" />
		<tag k="natural" v="water" />
		<tag k="ssr:stedsnr" v="651865" />
		<tag k="water" v="lake" />
	</node>
	<node lat="60.51524763446685" lon="5.484814585754037" id="-27528">
		<tag k="name" v="Hansavika" />
		<tag k="natural" v="bay" />
		<tag k="ssr:stedsnr" v="711736" />
	</node>
	<node lat="60.649323319191346" lon="5.6277216087472635" id="-27530">
		<tag k="name" v="Krekjebærtjønna" />
		<tag k="natural" v="water" />
		<tag k="ssr:stedsnr" v="712401" />
	</node>
	<node lat="60.54275902978966" lon="5.5398721481628055" id="-27532">
		<tag k="name" v="Ramvikavatnet" />
		<tag k="natural" v="water" />
		<tag k="ssr:stedsnr" v="712487" />
		<tag k="water" v="lake" />
	</node>
	<node lat="60.597855179490736" lon="5.56098532400104" id="-27551">
		<tag k="name" v="Ækretjønna" />
		<tag k="natural" v="water" />
		<tag k="ssr:stedsnr" v="712522" />
	</node>
	<node lat="60.61536954756617" lon="5.6721577112195956" id="-27573">
		<tag k="name" v="Ljosavatnet" />
		<tag k="natural" v="water" />
		<tag k="ssr:stedsnr" v="734556" />
	</node>
	<node lat="60.604777777458445" lon="5.600099991424407" id="-27574">
		<tag k="name" v="Sætertjørna" />
		<tag k="natural" v="water" />
		<tag k="ssr:stedsnr" v="734567" />
	</node>
	<node lat="60.507113610389524" lon="5.508661500737078" id="-27588">
		<tag k="name" v="Sundet" />
		<tag k="natural" v="strait" />
		<tag k="ssr:stedsnr" v="772702" />
	</node>
	<node lat="60.517795295504456" lon="5.488197957057752" id="-27589">
		<tag k="name" v="Sandvika" />
		<tag k="natural" v="bay" />
		<tag k="ssr:stedsnr" v="772732" />
	</node>
	<node lat="60.51545555436429" lon="5.4954499949363855" id="-27590">
		<tag k="name" v="Skitvika" />
		<tag k="natural" v="bay" />
		<tag k="ssr:stedsnr" v="772738" />
	</node>
	<node lat="60.48887499761719" lon="5.608649995303224" id="-27593">
		<tag k="name" v="Tverrelvane" />
		<tag k="ssr:stedsnr" v="773545" />
		<tag k="waterway" v="river" />
	</node>
	<node lat="60.576803329694236" lon="5.583139030844772" id="-27601">
		<tag k="name" v="Gangstøtjørna" />
		<tag k="natural" v="water" />
		<tag k="ssr:stedsnr" v="773394" />
	</node>
	<node lat="60.5208832718476" lon="5.681094468920776" id="-27606">
		<tag k="name" v="Raudskredtjørn" />
		<tag k="natural" v="water" />
		<tag k="ssr:stedsnr" v="773599" />
	</node>
	<node lat="60.50773902930304" lon="5.623502021872251" id="-27632">
		<tag k="name" v="Kyrkjeskartjørna" />
		<tag k="natural" v="water" />
		<tag k="ssr:stedsnr" v="795953" />
	</node>
	<node lat="60.50307609520604" lon="5.518331496119345" id="-27635">
		<tag k="name" v="Kråkevatnet" />
		<tag k="natural" v="water" />
		<tag k="ssr:stedsnr" v="795999" />
	</node>
	<node lat="60.57993055133343" lon="5.551702771388576" id="-27642">
		<tag k="name" v="Herlandselva" />
		<tag k="ssr:stedsnr" v="834391" />
		<tag k="waterway" v="river" />
	</node>
	<node lat="60.50945868391846" lon="5.485621706215655" id="-27719">
		<tag k="name" v="Haugvik" />
		<tag k="natural" v="bay" />
		<tag k="ssr:stedsnr" v="954733" />
	</node>
	<node lat="60.65149429368015" lon="5.635788931721503" id="-27720">
		<tag k="name" v="Grasdalstjørna" />
		<tag k="natural" v="water" />
		<tag k="ssr:stedsnr" v="955420" />
	</node>
	<node lat="60.50796944334255" lon="5.604436108586306" id="-27727">
		<tag k="name" v="Svartatjørn" />
		<tag k="natural" v="water" />
		<tag k="ssr:stedsnr" v="955632" />
	</node>
	<node lat="60.48309166904202" lon="5.677333325696924" id="-27733">
		<tag k="name" v="Tverbekken" />
		<tag k="ssr:stedsnr" v="955582" />
		<tag k="waterway" v="stream" />
	</node>
	<node lat="60.57174166462009" lon="5.494275004504623" id="-27757">
		<tag k="name" v="Fagerdalselva" />
		<tag k="ssr:stedsnr" v="955737" />
		<tag k="waterway" v="river" />
	</node>
	<node lat="60.5802703931837" lon="5.546345195734112" id="-27760">
		<tag k="name" v="Herlandsfossen" />
		<tag k="natural" v="waterfall" />
		<tag k="ssr:stedsnr" v="984331" />
=======
	<node id="-646189" lat="60.6192617267" lon="5.60875028726">
		<tag k="name" v="Storatjønna" />
		<tag k="natural" v="water" />
		<tag k="ssr:stedsnr" v="45429" />
	</node>
	<node id="-645676" lat="60.4934277775" lon="5.57013333439">
		<tag k="name" v="Hovdaelva" />
		<tag k="ssr:stedsnr" v="469861" />
		<tag k="waterway" v="river" />
	</node>
	<node id="-645673" lat="60.5676305539" lon="5.45072778375">
		<tag k="name" v="Litlandselva" />
		<tag k="ssr:stedsnr" v="469826" />
		<tag k="waterway" v="river" />
	</node>
	<node id="-646184" lat="60.5720388913" lon="5.58007500636">
		<tag k="name" v="Varestraumen" />
		<tag k="ssr:stedsnr" v="45392" />
		<tag k="waterway" v="river" />
	</node>
	<node id="-646693" lat="60.4542351144" lon="5.50054176724">
		<tag k="name" v="Tuftaholmen" />
		<tag k="place" v="islet" />
		<tag k="ssr:stedsnr" v="591476" />
	</node>
	<node id="-646180" lat="60.4939222203" lon="5.49110833942">
		<tag k="name" v="Sjogotena" />
		<tag k="ssr:stedsnr" v="44454" />
		<tag k="waterway" v="stream" />
	</node>
	<node id="-646178" lat="60.5064816261" lon="5.43066837742">
		<tag k="name" v="Valestrandvatnet" />
		<tag k="natural" v="water" />
		<tag k="ssr:stedsnr" v="44298" />
		<tag k="water" v="lake" />
	</node>
	<node id="-646177" lat="60.5126305563" lon="5.49853611448">
		<tag k="name" v="Neset" />
		<tag k="natural" v="cape" />
		<tag k="ssr:stedsnr" v="43724" />
	</node>
	<node id="-645664" lat="60.5993110212" lon="5.59702047916">
		<tag k="name" v="Trønsketjønna" />
		<tag k="natural" v="water" />
		<tag k="ssr:stedsnr" v="469454" />
	</node>
	<node id="-646174" lat="60.5421492739" lon="5.61941738218">
		<tag k="name" v="Haukavik" />
		<tag k="natural" v="bay" />
		<tag k="ssr:stedsnr" v="43308" />
	</node>
	<node id="-646685" lat="60.4707944463" lon="5.47460278059">
		<tag k="name" v="Urteigfossen" />
		<tag k="natural" v="waterfall" />
		<tag k="ssr:stedsnr" v="591849" />
	</node>
	<node id="-645660" lat="60.5740506122" lon="5.55905663766">
		<tag k="name" v="Sætretjørna" />
		<tag k="natural" v="water" />
		<tag k="ssr:stedsnr" v="469410" />
	</node>
	<node id="-646169" lat="60.5201916637" lon="5.5016472281">
		<tag k="name" v="Lonelva" />
		<tag k="ssr:stedsnr" v="6977" />
		<tag k="waterway" v="river" />
	</node>
	<node id="-646162" lat="60.6367555552" lon="5.62430554834">
		<tag k="alt_name" v="Svartavatnet" />
		<tag k="name" v="Svartatjørna" />
		<tag k="natural" v="water" />
		<tag k="ssr:stedsnr" v="6701" />
	</node>
	<node id="-645805" lat="60.5266749985" lon="5.56155938966">
		<tag k="name" v="Kleppstjørna" />
		<tag k="natural" v="water" />
		<tag k="ssr:stedsnr" v="491933" />
	</node>
	<node id="-646666" lat="60.5142356387" lon="5.58171858669">
		<tag k="name" v="Bysheimvatnet" />
		<tag k="natural" v="water" />
		<tag k="ssr:stedsnr" v="552983" />
	</node>
	<node id="-646664" lat="60.5128694489" lon="5.49468611388">
		<tag k="alt_name" v="Revheimneset" />
		<tag k="name" v="Revheimsneset" />
		<tag k="natural" v="cape" />
		<tag k="ssr:stedsnr" v="552973" />
	</node>
	<node id="-645639" lat="60.5071833345" lon="5.52762499097">
		<tag k="name" v="Fossen" />
		<tag k="natural" v="waterfall" />
		<tag k="ssr:stedsnr" v="288727" />
	</node>
	<node id="-645637" lat="60.5195803843" lon="5.53112349575">
		<tag k="name" v="Lostholmen" />
		<tag k="place" v="islet" />
		<tag k="ssr:stedsnr" v="288713" />
	</node>
	<node id="-645506" lat="60.6044730649" lon="5.527307916">
		<tag k="name" v="Øvrevatnet" />
		<tag k="natural" v="water" />
		<tag k="ssr:stedsnr" v="249725" />
	</node>
	<node id="-645633" lat="60.5228250005" lon="5.69373055073">
		<tag k="name" v="Klavarenen" />
		<tag k="ssr:stedsnr" v="288560" />
		<tag k="waterway" v="stream" />
>>>>>>> e1d4bc35ff8a6074a6f2e91616a996b547c36f15
	</node>
</osm>
