<?xml version="1.0" encoding="UTF-8"?>
<osm version="0.6" generator="osmapis">
	<node lat="60.50570278157276" lon="5.432755554944982" id="-72429">
		<tag k="loc_name" v="Valestrandfossen" />
		<tag k="name" v="Valestrandsfossen" />
		<tag k="place" v="village" />
		<tag k="ssr:stedsnr" v="6507" />
	</node>
	<node lat="60.5751555526472" lon="5.477638896097959" id="-72431">
		<tag k="fixme" v="consider place=suburb, village or hamlet" />
		<tag k="name" v="Hosanger" />
		<tag k="place" v="quarter" />
		<tag k="ssr:stedsnr" v="6590" />
	</node>
	<node lat="60.576416666340506" lon="5.585858324363007" id="-72432">
		<tag k="name" v="Gangstø" />
		<tag k="place" v="locality" />
		<tag k="ssr:stedsnr" v="6591" />
	</node>
	<node lat="60.54348143382042" lon="5.612173916311849" id="-72438">
		<tag k="alt_name" v="Hagenes" />
		<tag k="fixme" v="consider place=hamlet" />
		<tag k="name" v="Hakanes" />
		<tag k="place" v="farm" />
		<tag k="ssr:stedsnr" v="6904" />
	</node>
	<node lat="60.54640278113128" lon="5.5184083240635955" id="-72440">
		<tag k="fixme" v="consider place=hamlet" />
		<tag k="name" v="Grimstad" />
		<tag k="place" v="farm" />
		<tag k="ssr:stedsnr" v="6915" />
	</node>
	<node lat="60.488961107751955" lon="5.526519443690654" id="-72445">
		<tag k="name" v="Rongve" />
		<tag k="place" v="farm" />
		<tag k="ssr:stedsnr" v="44451" />
	</node>
	<node lat="60.52021944007809" lon="5.442397221997837" id="-72461">
		<tag k="name" v="Burkeland" />
		<tag k="place" v="farm" />
		<tag k="ssr:stedsnr" v="45824" />
	</node>
	<node lat="60.45644679628751" lon="5.622327654406015" id="-72466">
		<tag k="fixme" v="consider place=hamlet" />
		<tag k="name" v="Skaftå" />
		<tag k="place" v="farm" />
		<tag k="ssr:stedsnr" v="66012" />
	</node>
	<node lat="60.57004616763398" lon="5.451352687456689" id="-72469">
		<tag k="fixme" v="consider place=hamlet" />
		<tag k="name" v="Fjellskålnes" />
		<tag k="place" v="farm" />
		<tag k="ssr:stedsnr" v="67101" />
	</node>
	<node lat="60.541272167958546" lon="5.406734322225524" id="-72471">
		<tag k="name" v="Mjelstad" />
		<tag k="place" v="hamlet" />
		<tag k="ssr:stedsnr" v="67419" />
	</node>
	<node lat="60.55265879749137" lon="5.461192642401192" id="-72472">
		<tag k="alt_name" v="Byseim, nordre;Nordre Byseim" />
		<tag k="fixme" v="consider place=hamlet" />
		<tag k="name" v="Nordre Bysheim" />
		<tag k="place" v="farm" />
		<tag k="ssr:stedsnr" v="67432" />
	</node>
	<node lat="60.56523055846164" lon="5.5426166725309916" id="-72475">
		<tag k="name" v="Mykingatræet" />
		<tag k="place" v="farm" />
		<tag k="ssr:stedsnr" v="67596" />
	</node>
	<node lat="60.53645583158944" lon="5.394443356039931" id="-72483">
		<tag k="fixme" v="consider place=hamlet" />
		<tag k="name" v="Bleiklii" />
		<tag k="place" v="farm" />
		<tag k="ssr:stedsnr" v="248375" />
	</node>
	<node lat="60.5793498669906" lon="5.565886552855783" id="-72486">
		<tag k="fixme" v="consider place=hamlet" />
		<tag k="name" v="Løtveit" />
		<tag k="old_name" v="Løiveit" />
		<tag k="place" v="farm" />
		<tag k="ssr:stedsnr" v="248544" />
	</node>
	<node lat="60.48502499593941" lon="5.5554249977370125" id="-72489">
		<tag k="fixme" v="consider place=hamlet" />
		<tag k="name" v="Austbygdi" />
		<tag k="place" v="village" />
		<tag k="ssr:stedsnr" v="248987" />
	</node>
	<node lat="60.549349996129834" lon="5.539108325188763" id="-72507">
		<tag k="name" v="Dalen" />
		<tag k="place" v="farm" />
		<tag k="ssr:stedsnr" v="106512" />
	</node>
	<node lat="60.540069447214215" lon="5.408991667054925" id="-72520">
		<tag k="name" v="Mjeldstad" />
		<tag k="place" v="farm" />
		<tag k="ssr:stedsnr" v="106809" />
	</node>
	<node lat="60.6018092707241" lon="5.517889950685942" id="-72523">
		<tag k="alt_name" v="Byrkeland" />
		<tag k="fixme" v="consider place=hamlet" />
		<tag k="name" v="Byrkjeland" />
		<tag k="place" v="farm" />
		<tag k="ssr:stedsnr" v="249517" />
	</node>
	<node lat="60.57665417523164" lon="5.5766397342511125" id="-72525">
		<tag k="fixme" v="consider place=hamlet" />
		<tag k="name" v="Vare" />
		<tag k="place" v="farm" />
		<tag k="ssr:stedsnr" v="249561" />
	</node>
	<node lat="60.60545277872949" lon="5.515241661670419" id="-72531">
		<tag k="alt_name" v="Bernes, indre;Bernes" />
		<tag k="name" v="Indre Bernes" />
		<tag k="place" v="farm" />
		<tag k="ssr:stedsnr" v="249723" />
	</node>
	<node lat="60.5448371420584" lon="5.484299779909967" id="-72533">
		<tag k="fixme" v="consider place=hamlet" />
		<tag k="name" v="Nordås" />
		<tag k="place" v="farm" />
		<tag k="ssr:stedsnr" v="249893" />
	</node>
	<node lat="60.4882916622717" lon="5.464463881682607" id="-72543">
		<tag k="fixme" v="consider place=hamlet" />
		<tag k="name" v="Erstad" />
		<tag k="place" v="farm" />
		<tag k="ssr:stedsnr" v="127451" />
	</node>
	<node lat="60.54697875141505" lon="5.510946994850351" id="-72548">
		<tag k="fixme" v="consider place=hamlet" />
		<tag k="name" v="Svenheim" />
		<tag k="place" v="farm" />
		<tag k="ssr:stedsnr" v="127912" />
	</node>
	<node lat="60.51100555109954" lon="5.593227774781649" id="-72553">
		<tag k="historic" v="shieling" />
		<tag k="name" v="Lonasætra" />
		<tag k="place" v="isolated_dwelling" />
		<tag k="ssr:stedsnr" v="127951" />
	</node>
	<node lat="60.494116665054115" lon="5.520650008195089" id="-72555">
		<tag k="name" v="Kollii" />
		<tag k="place" v="farm" />
		<tag k="ssr:stedsnr" v="165302" />
	</node>
	<node lat="60.51508055589936" lon="5.403080564550896" id="-72563">
		<tag k="name" v="Øyjordi" />
		<tag k="place" v="farm" />
		<tag k="ssr:stedsnr" v="165805" />
	</node>
	<node lat="60.52609444350983" lon="5.507136112757869" id="-72576">
		<tag k="name" v="Hatland" />
		<tag k="place" v="farm" />
		<tag k="ssr:stedsnr" v="166647" />
	</node>
	<node lat="60.54484722193912" lon="5.482511115919193" id="-72579">
		<tag k="name" v="Nordås" />
		<tag k="place" v="farm" />
		<tag k="ssr:stedsnr" v="166507" />
	</node>
	<node lat="60.607224996895766" lon="5.512899998190939" id="-72580">
		<tag k="name" v="Bernes" />
		<tag k="place" v="hamlet" />
		<tag k="ssr:stedsnr" v="166514" />
	</node>
	<node lat="60.50687500400232" lon="5.544699995673969" id="-72586">
		<tag k="name" v="Øvstebøen" />
		<tag k="place" v="farm" />
		<tag k="ssr:stedsnr" v="166719" />
	</node>
	<node lat="60.462150003693026" lon="5.51216110308459" id="-72590">
		<tag k="historic" v="shieling" />
		<tag k="name" v="Kronasætra" />
		<tag k="place" v="isolated_dwelling" />
		<tag k="ssr:stedsnr" v="166858" />
	</node>
	<node lat="60.55698385005614" lon="5.480983716966162" id="-72602">
		<tag k="name" v="Røssland" />
		<tag k="place" v="hamlet" />
		<tag k="ssr:stedsnr" v="188653" />
	</node>
	<node lat="60.46562006472075" lon="5.563300489885232" id="-72606">
		<tag k="fixme" v="consider place=hamlet" />
		<tag k="name" v="Austad" />
		<tag k="place" v="farm" />
		<tag k="ssr:stedsnr" v="188955" />
	</node>
	<node lat="60.46228552207545" lon="5.482672763995538" id="-72608">
		<tag k="fixme" v="consider place=hamlet" />
		<tag k="name" v="Sundland" />
		<tag k="place" v="farm" />
		<tag k="ssr:stedsnr" v="188962" />
	</node>
	<node lat="60.48936111158289" lon="5.432338896277087" id="-72631">
		<tag k="name" v="Øydegarden" />
		<tag k="place" v="farm" />
		<tag k="ssr:stedsnr" v="227803" />
	</node>
	<node lat="60.46388333111868" lon="5.474399998259082" id="-72635">
		<tag k="historic" v="shieling" />
		<tag k="name" v="Gloppestølen" />
		<tag k="place" v="isolated_dwelling" />
		<tag k="ssr:stedsnr" v="227845" />
	</node>
	<node lat="60.44518611162484" lon="5.510916669574828" id="-72642">
		<tag k="name" v="Tveiti" />
		<tag k="place" v="farm" />
		<tag k="ssr:stedsnr" v="248018" />
	</node>
	<node lat="60.61498333441008" lon="5.564886102480105" id="-72654">
		<tag k="name" v="Raudberg" />
		<tag k="place" v="farm" />
		<tag k="ssr:stedsnr" v="287827" />
	</node>
	<node lat="60.461180558157935" lon="5.5514027818516105" id="-72656">
		<tag k="historic" v="shieling" />
		<tag k="name" v="Høgstallen" />
		<tag k="place" v="isolated_dwelling" />
		<tag k="ssr:stedsnr" v="287686" />
	</node>
	<node lat="60.45286223977324" lon="5.5364371682628475" id="-72660">
		<tag k="name" v="Kalvtræet" />
		<tag k="place" v="farm" />
		<tag k="ssr:stedsnr" v="288430" />
	</node>
	<node lat="60.44841110811182" lon="5.57311389370737" id="-72673">
		<tag k="historic" v="shieling" />
		<tag k="name" v="Steinsætret" />
		<tag k="place" v="isolated_dwelling" />
		<tag k="ssr:stedsnr" v="308009" />
	</node>
	<node lat="60.51613498514949" lon="5.451127953018442" id="-72678">
		<tag k="fixme" v="consider place=hamlet" />
		<tag k="name" v="Småland" />
		<tag k="place" v="farm" />
		<tag k="ssr:stedsnr" v="309516" />
	</node>
	<node lat="60.55841666865883" lon="5.422191658664768" id="-72679">
		<tag k="name" v="Myrane" />
		<tag k="place" v="farm" />
		<tag k="ssr:stedsnr" v="309480" />
	</node>
	<node lat="60.54239864710921" lon="5.5621768531042965" id="-72683">
		<tag k="fixme" v="consider place=hamlet" />
		<tag k="name" v="Kalleklauv" />
		<tag k="place" v="farm" />
		<tag k="ssr:stedsnr" v="309909" />
	</node>
	<node lat="60.611107691399916" lon="5.641555789023826" id="-72689">
		<tag k="fixme" v="consider place=hamlet" />
		<tag k="name" v="Tyssebotnen" />
		<tag k="place" v="farm" />
		<tag k="ssr:stedsnr" v="310737" />
	</node>
	<node lat="60.66697222076237" lon="5.613358333399373" id="-72695">
		<tag k="name" v="Indre Askjellneset" />
		<tag k="place" v="farm" />
		<tag k="ssr:stedsnr" v="469450" />
	</node>
	<node lat="60.56642500039183" lon="5.540572218221637" id="-72698">
		<tag k="historic" v="shieling" />
		<tag k="name" v="Holasæter" />
		<tag k="place" v="isolated_dwelling" />
		<tag k="ssr:stedsnr" v="469409" />
	</node>
	<node lat="60.544927781713135" lon="5.485344447263196" id="-72705">
		<tag k="name" v="Nordås" />
		<tag k="place" v="farm" />
		<tag k="ssr:stedsnr" v="469779" />
	</node>
	<node lat="60.59281111160752" lon="5.537924991112048" id="-72710">
		<tag k="name" v="Vestre Kleppe" />
		<tag k="place" v="farm" />
		<tag k="ssr:stedsnr" v="470538" />
	</node>
	<node lat="60.485666663862716" lon="5.665061110992272" id="-72711">
		<tag k="historic" v="shieling" />
		<tag k="name" v="Øverstølen" />
		<tag k="place" v="isolated_dwelling" />
		<tag k="ssr:stedsnr" v="470572" />
	</node>
	<node lat="60.48632500329532" lon="5.548172222456118" id="-72745">
		<tag k="name" v="Hartveit" />
		<tag k="place" v="farm" />
		<tag k="ssr:stedsnr" v="348628" />
	</node>
	<node lat="60.43758115076705" lon="5.532168225832453" id="-72747">
		<tag k="fixme" v="consider place=hamlet" />
		<tag k="name" v="Vikno" />
		<tag k="place" v="farm" />
		<tag k="ssr:stedsnr" v="369019" />
	</node>
	<node lat="60.498450000506416" lon="5.675666663088048" id="-72750">
		<tag k="historic" v="shieling" />
		<tag k="name" v="Øyasætret" />
		<tag k="place" v="isolated_dwelling" />
		<tag k="ssr:stedsnr" v="369979" />
	</node>
	<node lat="60.49492903088432" lon="5.549203937324507" id="-72751">
		<tag k="fixme" v="consider place=hamlet" />
		<tag k="name" v="Presttun" />
		<tag k="place" v="farm" />
		<tag k="ssr:stedsnr" v="369981" />
	</node>
	<node lat="60.54662222100019" lon="5.358516671336627" id="-72753">
		<tag k="fixme" v="consider place=hamlet" />
		<tag k="name" v="Hamre" />
		<tag k="place" v="village" />
		<tag k="ssr:stedsnr" v="370464" />
	</node>
	<node lat="60.57726142505937" lon="5.4827540991965265" id="-72758">
		<tag k="name" v="Øvsthus" />
		<tag k="place" v="hamlet" />
		<tag k="ssr:stedsnr" v="370583" />
	</node>
	<node lat="60.64685555990936" lon="5.6303500044949715" id="-72762">
		<tag k="historic" v="shieling" />
		<tag k="name" v="Kleivelandssætra" />
		<tag k="place" v="isolated_dwelling" />
		<tag k="ssr:stedsnr" v="370685" />
	</node>
	<node lat="60.521199876410975" lon="5.47199326381219" id="-72763">
		<tag k="fixme" v="consider place=hamlet" />
		<tag k="name" v="Greve" />
		<tag k="place" v="farm" />
		<tag k="ssr:stedsnr" v="370921" />
	</node>
	<node lat="60.508261473626725" lon="5.428867314321865" id="-72769">
		<tag k="fixme" v="consider place=hamlet" />
		<tag k="name" v="Eide" />
		<tag k="place" v="farm" />
		<tag k="ssr:stedsnr" v="408790" />
	</node>
	<node lat="60.50882500021504" lon="5.635750002423874" id="-72773">
		<tag k="name" v="Setertufta" />
		<tag k="place" v="farm" />
		<tag k="ssr:stedsnr" v="409610" />
	</node>
	<node lat="60.497163885442106" lon="5.6175083348968045" id="-72776">
		<tag k="historic" v="shieling" />
		<tag k="name" v="Espevollsetra" />
		<tag k="place" v="isolated_dwelling" />
		<tag k="ssr:stedsnr" v="409549" />
	</node>
	<node lat="60.49569574211321" lon="5.511303468906463" id="-72794">
		<tag k="name" v="Lii" />
		<tag k="place" v="locality" />
		<tag k="ssr:stedsnr" v="490990" />
	</node>
	<node lat="60.462289669581885" lon="5.5483577319303" id="-72797">
		<tag k="name" v="Veset" />
		<tag k="place" v="hamlet" />
		<tag k="ssr:stedsnr" v="430942" />
	</node>
	<node lat="60.478563890542205" lon="5.686188893005196" id="-72798">
		<tag k="name" v="Bruvik" />
		<tag k="place" v="village" />
		<tag k="ssr:stedsnr" v="430956" />
	</node>
	<node lat="60.47954166706263" lon="5.566786102475877" id="-72799">
		<tag k="name" v="Midttun" />
		<tag k="place" v="farm" />
		<tag k="ssr:stedsnr" v="430963" />
	</node>
	<node lat="60.50996388610743" lon="5.431624999160796" id="-72802">
		<tag k="name" v="Bakken" />
		<tag k="place" v="farm" />
		<tag k="ssr:stedsnr" v="431507" />
	</node>
	<node lat="60.56631247839566" lon="5.485631046473825" id="-72804">
		<tag k="alt_name" v="Hola" />
		<tag k="fixme" v="consider place=hamlet" />
		<tag k="name" v="Holo" />
		<tag k="place" v="farm" />
		<tag k="ssr:stedsnr" v="431612" />
	</node>
	<node lat="60.53842588430544" lon="5.491848077809265" id="-72807">
		<tag k="alt_name" v="Nonås" />
		<tag k="fixme" v="consider place=hamlet" />
		<tag k="name" v="Nunnås" />
		<tag k="place" v="farm" />
		<tag k="ssr:stedsnr" v="431903" />
	</node>
	<node lat="60.52395115489851" lon="5.509486453560028" id="-72808">
		<tag k="fixme" v="consider place=hamlet" />
		<tag k="name" v="Hatland" />
		<tag k="place" v="farm" />
		<tag k="ssr:stedsnr" v="431937" />
	</node>
	<node lat="60.5261899440264" lon="5.553199525762155" id="-72814">
		<tag k="name" v="Kleppe" />
		<tag k="place" v="hamlet" />
		<tag k="ssr:stedsnr" v="491932" />
	</node>
	<node lat="60.47607787321662" lon="5.70427082223914" id="-72820">
		<tag k="fixme" v="consider place=hamlet" />
		<tag k="name" v="Olsneset" />
		<tag k="place" v="farm" />
		<tag k="ssr:stedsnr" v="491953" />
	</node>
	<node lat="60.47503888615694" lon="5.621680563678363" id="-72821">
		<tag k="historic" v="shieling" />
		<tag k="name" v="Stølane" />
		<tag k="place" v="isolated_dwelling" />
		<tag k="ssr:stedsnr" v="491956" />
	</node>
	<node lat="60.5212527779403" lon="5.583247219453873" id="-72823">
		<tag k="historic" v="shieling" />
		<tag k="name" v="Fagerstølen" />
		<tag k="place" v="isolated_dwelling" />
		<tag k="ssr:stedsnr" v="491964" />
	</node>
	<node lat="60.646387912106704" lon="5.60621535454698" id="-72826">
		<tag k="fixme" v="consider place=hamlet" />
		<tag k="name" v="Kleiveland" />
		<tag k="place" v="farm" />
		<tag k="ssr:stedsnr" v="492655" />
	</node>
	<node lat="60.434087590992384" lon="5.554188345212323" id="-72828">
		<tag k="alt_name" v="Hundhammer" />
		<tag k="fixme" v="consider place=hamlet" />
		<tag k="name" v="Hundhamar" />
		<tag k="place" v="farm" />
		<tag k="ssr:stedsnr" v="672043" />
	</node>
	<node lat="60.49781111019141" lon="5.524847223773136" id="-72829">
		<tag k="name" v="Kleivi" />
		<tag k="place" v="farm" />
		<tag k="ssr:stedsnr" v="672994" />
	</node>
	<node lat="60.49328249105463" lon="5.46915479049805" id="-72830">
		<tag k="fixme" v="consider place=hamlet" />
		<tag k="name" v="Daltveit" />
		<tag k="place" v="farm" />
		<tag k="ssr:stedsnr" v="672995" />
	</node>
	<node lat="60.53859444591261" lon="5.456383339122491" id="-72833">
		<tag k="fixme" v="consider place=hamlet" />
		<tag k="name" v="Fugledal" />
		<tag k="place" v="farm" />
		<tag k="ssr:stedsnr" v="673393" />
	</node>
	<node lat="60.5967253730805" lon="5.486016301394194" id="-72834">
		<tag k="fixme" v="consider place=hamlet" />
		<tag k="loc_name" v="Gatland" />
		<tag k="name" v="Galteland" />
		<tag k="place" v="farm" />
		<tag k="ssr:stedsnr" v="673539" />
	</node>
	<node lat="60.5216249965997" lon="5.522949999578573" id="-72838">
		<tag k="name" v="Solheim" />
		<tag k="place" v="farm" />
		<tag k="ssr:stedsnr" v="673936" />
	</node>
	<node lat="60.55679166450092" lon="5.43407499900061" id="-72843">
		<tag k="alt_name" v="Raknes, nedre" />
		<tag k="fixme" v="consider place=hamlet" />
		<tag k="name" v="Nedre Raknes" />
		<tag k="place" v="farm" />
		<tag k="ssr:stedsnr" v="674389" />
	</node>
	<node lat="60.50498611126905" lon="5.4695500067746154" id="-72861">
		<tag k="name" v="Oksadrepet" />
		<tag k="place" v="farm" />
		<tag k="ssr:stedsnr" v="470705" />
	</node>
	<node lat="60.45920471446979" lon="5.496124124328384" id="-72863">
		<tag k="fixme" v="consider place=hamlet" />
		<tag k="name" v="Hausberg" />
		<tag k="place" v="farm" />
		<tag k="ssr:stedsnr" v="491004" />
	</node>
	<node lat="60.517232742332354" lon="5.4831299575280115" id="-72868">
		<tag k="name" v="Borgo" />
		<tag k="place" v="hamlet" />
		<tag k="ssr:stedsnr" v="491918" />
	</node>
	<node lat="60.50213503655903" lon="5.546364415179124" id="-72870">
		<tag k="fixme" v="consider place=hamlet" />
		<tag k="name" v="Gjerstad" />
		<tag k="place" v="farm" />
		<tag k="ssr:stedsnr" v="492022" />
	</node>
	<node lat="60.48716944762482" lon="5.625427781615547" id="-72876">
		<tag k="historic" v="shieling" />
		<tag k="name" v="Mjeldstadsetri" />
		<tag k="place" v="isolated_dwelling" />
		<tag k="ssr:stedsnr" v="530584" />
	</node>
	<node lat="60.53010833668223" lon="5.590577772978037" id="-72882">
		<tag k="name" v="Sakslibruna" />
		<tag k="place" v="farm" />
		<tag k="ssr:stedsnr" v="530614" />
	</node>
	<node lat="60.459897273482035" lon="5.509488653835544" id="-72889">
		<tag k="historic" v="shieling" />
		<tag k="name" v="Kausstølen" />
		<tag k="place" v="isolated_dwelling" />
		<tag k="ssr:stedsnr" v="551002" />
	</node>
	<node lat="60.54275631978874" lon="5.36109986961035" id="-72896">
		<tag k="fixme" v="consider place=hamlet" />
		<tag k="name" v="Sanddalen" />
		<tag k="place" v="farm" />
		<tag k="ssr:stedsnr" v="552443" />
	</node>
	<node lat="60.51979157823134" lon="5.386570946062795" id="-72898">
		<tag k="fixme" v="consider place=hamlet" />
		<tag k="name" v="Kvamme" />
		<tag k="place" v="farm" />
		<tag k="ssr:stedsnr" v="552552" />
	</node>
	<node lat="60.52667777470805" lon="5.500972222490356" id="-72912">
		<tag k="name" v="Fossen" />
		<tag k="place" v="farm" />
		<tag k="ssr:stedsnr" v="590679" />
	</node>
	<node lat="60.53664704749446" lon="5.416190637816467" id="-72937">
		<tag k="fixme" v="consider place=hamlet" />
		<tag k="name" v="Mosevoll" />
		<tag k="place" v="farm" />
		<tag k="ssr:stedsnr" v="612404" />
	</node>
	<node lat="60.52116038909365" lon="5.416499936983693" id="-72938">
		<tag k="fixme" v="consider place=hamlet" />
		<tag k="name" v="Eversdalen" />
		<tag k="place" v="farm" />
		<tag k="ssr:stedsnr" v="612523" />
	</node>
	<node lat="60.55574999738766" lon="5.474272218944139" id="-72942">
		<tag k="name" v="Litland" />
		<tag k="place" v="farm" />
		<tag k="ssr:stedsnr" v="613024" />
	</node>
	<node lat="60.543894445006906" lon="5.4465000017891025" id="-72943">
		<tag k="name" v="Kolbakken" />
		<tag k="place" v="farm" />
		<tag k="ssr:stedsnr" v="613404" />
	</node>
	<node lat="60.55339754979821" lon="5.432236699909421" id="-72946">
		<tag k="alt_name" v="Raknes, øvre;Raknes" />
		<tag k="fixme" v="consider place=hamlet" />
		<tag k="name" v="Øvre Raknes" />
		<tag k="place" v="farm" />
		<tag k="ssr:stedsnr" v="613428" />
	</node>
	<node lat="60.50628993710236" lon="5.421114161837243" id="-72953">
		<tag k="alt_name" v="Runhovda" />
		<tag k="fixme" v="consider place=hamlet" />
		<tag k="name" v="Runnhovda" />
		<tag k="place" v="farm" />
		<tag k="ssr:stedsnr" v="651395" />
	</node>
	<node lat="60.50271389045734" lon="5.622563897764277" id="-72956">
		<tag k="historic" v="shieling" />
		<tag k="name" v="Prestettunsetret" />
		<tag k="place" v="isolated_dwelling" />
		<tag k="ssr:stedsnr" v="651617" />
	</node>
	<node lat="60.469849996735284" lon="5.628983334694627" id="-72963">
		<tag k="historic" v="shieling" />
		<tag k="name" v="Heklandsseter" />
		<tag k="place" v="isolated_dwelling" />
		<tag k="ssr:stedsnr" v="651596" />
	</node>
	<node lat="60.53223333648849" lon="5.360402783990319" id="-72966">
		<tag k="historic" v="shieling" />
		<tag k="name" v="Stølen" />
		<tag k="place" v="isolated_dwelling" />
		<tag k="ssr:stedsnr" v="651803" />
	</node>
	<node lat="60.50981389118427" lon="5.44923055586686" id="-72971">
		<tag k="fixme" v="consider place=hamlet" />
		<tag k="name" v="Loftås" />
		<tag k="place" v="farm" />
		<tag k="ssr:stedsnr" v="673465" />
	</node>
	<node lat="60.46932777608872" lon="5.466733334746092" id="-72982">
		<tag k="fixme" v="consider place=hamlet" />
		<tag k="name" v="Votlo" />
		<tag k="place" v="village" />
		<tag k="ssr:stedsnr" v="673966" />
	</node>
	<node lat="60.494711107429396" lon="5.517255563540253" id="-72986">
		<tag k="name" v="Håhaugen" />
		<tag k="place" v="farm" />
		<tag k="ssr:stedsnr" v="893436" />
	</node>
	<node lat="60.49199166368309" lon="5.521577769412023" id="-72987">
		<tag k="name" v="Oppetræ" />
		<tag k="place" v="farm" />
		<tag k="ssr:stedsnr" v="893448" />
	</node>
	<node lat="60.546313884613845" lon="5.370925001596444" id="-72992">
		<tag k="name" v="Sanddal" />
		<tag k="place" v="farm" />
		<tag k="ssr:stedsnr" v="894774" />
	</node>
	<node lat="60.5262222242993" lon="5.551133332442979" id="-72993">
		<tag k="name" v="Kleppe" />
		<tag k="place" v="farm" />
		<tag k="ssr:stedsnr" v="894704" />
	</node>
	<node lat="60.49787778086329" lon="5.675869435104684" id="-72997">
		<tag k="historic" v="shieling" />
		<tag k="name" v="Ulfnessetra" />
		<tag k="place" v="isolated_dwelling" />
		<tag k="ssr:stedsnr" v="895545" />
	</node>
	<node lat="60.50290832904471" lon="5.602069450302692" id="-73006">
		<tag k="historic" v="shieling" />
		<tag k="name" v="Hatlandsetre" />
		<tag k="place" v="isolated_dwelling" />
		<tag k="ssr:stedsnr" v="895589" />
	</node>
	<node lat="60.45943333098565" lon="5.483638896265453" id="-73031">
		<tag k="name" v="Bakkane" />
		<tag k="place" v="farm" />
		<tag k="ssr:stedsnr" v="712846" />
	</node>
	<node lat="60.50769444061618" lon="5.574372215244542" id="-73032">
		<tag k="historic" v="shieling" />
		<tag k="name" v="Framstølen" />
		<tag k="place" v="isolated_dwelling" />
		<tag k="ssr:stedsnr" v="712726" />
	</node>
	<node lat="60.573458781576974" lon="5.50209330232847" id="-73049">
		<tag k="fixme" v="consider place=hamlet" />
		<tag k="name" v="Tveiten" />
		<tag k="place" v="farm" />
		<tag k="ssr:stedsnr" v="734602" />
	</node>
	<node lat="60.54295744059799" lon="5.3435894179156715" id="-73059">
		<tag k="name" v="Skjerven" />
		<tag k="place" v="farm" />
		<tag k="ssr:stedsnr" v="772771" />
	</node>
	<node lat="60.60956110848258" lon="5.536452775053033" id="-73060">
		<tag k="name" v="Drangen" />
		<tag k="place" v="farm" />
		<tag k="ssr:stedsnr" v="773504" />
	</node>
	<node lat="60.45545555600748" lon="5.618236108904778" id="-73062">
		<tag k="name" v="Bruflåten" />
		<tag k="place" v="farm" />
		<tag k="ssr:stedsnr" v="773529" />
	</node>
	<node lat="60.50816944857869" lon="5.577077781529686" id="-73075">
		<tag k="historic" v="shieling" />
		<tag k="name" v="Midtstølen" />
		<tag k="place" v="isolated_dwelling" />
		<tag k="ssr:stedsnr" v="773705" />
	</node>
	<node lat="60.45316388855927" lon="5.495013887226867" id="-73083">
		<tag k="name" v="Haus" />
		<tag k="place" v="village" />
		<tag k="ssr:stedsnr" v="794004" />
	</node>
	<node lat="60.450274999387744" lon="5.6158722269014465" id="-73085">
		<tag k="name" v="Vik" />
		<tag k="place" v="village" />
		<tag k="ssr:stedsnr" v="794019" />
	</node>
	<node lat="60.59154281919748" lon="5.524159966413884" id="-73089">
		<tag k="fixme" v="consider place=hamlet" />
		<tag k="name" v="Hanstveit" />
		<tag k="place" v="farm" />
		<tag k="ssr:stedsnr" v="795579" />
	</node>
	<node lat="60.54896920389366" lon="5.464526182175814" id="-73093">
		<tag k="alt_name" v="Byseim, s;Søre Byseim" />
		<tag k="fixme" v="consider place=hamlet" />
		<tag k="name" v="Søre Bysheim" />
		<tag k="place" v="farm" />
		<tag k="ssr:stedsnr" v="795468" />
	</node>
	<node lat="60.5511027785185" lon="5.395916671952071" id="-73094">
		<tag k="name" v="Byrkjelandsstøi" />
		<tag k="place" v="farm" />
		<tag k="ssr:stedsnr" v="795477" />
	</node>
	<node lat="60.499249997588656" lon="5.549566661772146" id="-73101">
		<tag k="name" v="Gjerstad" />
		<tag k="place" v="farm" />
		<tag k="ssr:stedsnr" v="915996" />
	</node>
	<node lat="60.548984678683325" lon="5.535253191065096" id="-73104">
		<tag k="fixme" v="consider place=hamlet" />
		<tag k="name" v="Langeland" />
		<tag k="place" v="farm" />
		<tag k="ssr:stedsnr" v="916920" />
	</node>
	<node lat="60.50361388957075" lon="5.666580559423831" id="-73110">
		<tag k="historic" v="shieling" />
		<tag k="name" v="Olsnessætra" />
		<tag k="place" v="isolated_dwelling" />
		<tag k="ssr:stedsnr" v="916995" />
	</node>
	<node lat="60.539199708179545" lon="5.441470222862432" id="-73120">
		<tag k="fixme" v="consider place=hamlet" />
		<tag k="name" v="Tirevoll" />
		<tag k="place" v="farm" />
		<tag k="ssr:stedsnr" v="855378" />
	</node>
	<node lat="60.58963611141602" lon="5.524061116755205" id="-73122">
		<tag k="name" v="Fotlandsvåg" />
		<tag k="place" v="village" />
		<tag k="ssr:stedsnr" v="855512" />
	</node>
	<node lat="60.496294447070504" lon="5.608888890422524" id="-73125">
		<tag k="historic" v="shieling" />
		<tag k="name" v="Rongvesætra" />
		<tag k="place" v="isolated_dwelling" />
		<tag k="ssr:stedsnr" v="855983" />
	</node>
	<node lat="60.49649465216669" lon="5.569418170680822" id="-73127">
		<tag k="fixme" v="consider place=hamlet" />
		<tag k="name" v="Hovdo" />
		<tag k="place" v="farm" />
		<tag k="ssr:stedsnr" v="855992" />
	</node>
	<node lat="60.49769647520417" lon="5.512017100701575" id="-73128">
		<tag k="name" v="Vevle" />
		<tag k="place" v="hamlet" />
		<tag k="ssr:stedsnr" v="855999" />
	</node>
	<node lat="60.552756720192136" lon="5.543997360881521" id="-73130">
		<tag k="alt_name" v="Myking" />
		<tag k="fixme" v="consider place=hamlet" />
		<tag k="name" v="Nordmyking" />
		<tag k="place" v="farm" />
		<tag k="ssr:stedsnr" v="856633" />
	</node>
	<node lat="60.52675277805797" lon="5.49510556379312" id="-73136">
		<tag k="name" v="Nausthaugen" />
		<tag k="place" v="farm" />
		<tag k="ssr:stedsnr" v="893279" />
	</node>
	<node lat="60.504149998784825" lon="5.483522223401946" id="-73137">
		<tag k="fixme" v="consider place=hamlet" />
		<tag k="name" v="Kleiveland" />
		<tag k="place" v="farm" />
		<tag k="ssr:stedsnr" v="893710" />
	</node>
	<node lat="60.485427779003004" lon="5.481452773550429" id="-73139">
		<tag k="historic" v="shieling" />
		<tag k="name" v="Fjellstølen" />
		<tag k="place" v="isolated_dwelling" />
		<tag k="ssr:stedsnr" v="893460" />
	</node>
	<node lat="60.45407222405475" lon="5.617927775024598" id="-73147">
		<tag k="name" v="Tødna" />
		<tag k="place" v="farm" />
		<tag k="ssr:stedsnr" v="895518" />
	</node>
	<node lat="60.52317221963713" lon="5.384433332877471" id="-73155">
		<tag k="name" v="Kleiva" />
		<tag k="place" v="farm" />
		<tag k="ssr:stedsnr" v="895784" />
	</node>
	<node lat="60.46617777397381" lon="5.471886120128451" id="-73162">
		<tag k="name" v="Tveitane" />
		<tag k="place" v="farm" />
		<tag k="ssr:stedsnr" v="897820" />
	</node>
	<node lat="60.488842564621336" lon="5.5540784223558175" id="-73167">
		<tag k="fixme" v="consider place=hamlet" />
		<tag k="name" v="Hartveit" />
		<tag k="place" v="farm" />
		<tag k="ssr:stedsnr" v="915988" />
	</node>
	<node lat="60.49100330406028" lon="5.504466090592681" id="-73168">
		<tag k="fixme" v="consider place=hamlet" />
		<tag k="name" v="Koppen" />
		<tag k="place" v="farm" />
		<tag k="ssr:stedsnr" v="915990" />
	</node>
	<node lat="60.5107499993859" lon="5.432124995247455" id="-73170">
		<tag k="alt_name" v="Valestrand, nordre" />
		<tag k="name" v="Nordre Valestrand" />
		<tag k="place" v="farm" />
		<tag k="ssr:stedsnr" v="916483" />
	</node>
	<node lat="60.60577499896274" lon="5.5047694363605855" id="-73173">
		<tag k="alt_name" v="Bernes, ytre" />
		<tag k="name" v="Ytre Bernes" />
		<tag k="place" v="farm" />
		<tag k="ssr:stedsnr" v="916763" />
	</node>
	<node lat="60.65635000313515" lon="5.613513896376548" id="-73174">
		<tag k="name" v="Stokken" />
		<tag k="place" v="farm" />
		<tag k="ssr:stedsnr" v="916675" />
	</node>
	<node lat="60.50068610810533" lon="5.505788888463029" id="-73176">
		<tag k="name" v="Vevle" />
		<tag k="place" v="farm" />
		<tag k="ssr:stedsnr" v="917016" />
	</node>
	<node lat="60.481474627935505" lon="5.536070460178876" id="-73179">
		<tag k="fixme" v="consider place=hamlet" />
		<tag k="name" v="Espevoll" />
		<tag k="place" v="farm" />
		<tag k="ssr:stedsnr" v="916964" />
	</node>
	<node lat="60.53901811974932" lon="5.5016554806408395" id="-73180">
		<tag k="fixme" v="consider place=hamlet" />
		<tag k="name" v="Grønås" />
		<tag k="place" v="farm" />
		<tag k="ssr:stedsnr" v="917878" />
	</node>
	<node lat="60.545213892709135" lon="5.5489055471915725" id="-73188">
		<tag k="name" v="Kletten" />
		<tag k="place" v="farm" />
		<tag k="ssr:stedsnr" v="955517" />
	</node>
	<node lat="60.45193520425938" lon="5.5162680831817905" id="-73196">
		<tag k="name" v="Storatræet" />
		<tag k="place" v="farm" />
		<tag k="ssr:stedsnr" v="955497" />
	</node>
	<node lat="60.57640000055029" lon="5.481461111032796" id="-73203">
		<tag k="name" v="Øvsthus" />
		<tag k="place" v="farm" />
		<tag k="ssr:stedsnr" v="955740" />
	</node>
	<node lat="60.48010570861444" lon="5.673842329946294" id="-73215">
		<tag k="fixme" v="consider place=hamlet" />
		<tag k="name" v="Kyrkjebruvik" />
		<tag k="place" v="farm" />
		<tag k="ssr:stedsnr" v="973454" />
	</node>
	<node lat="60.55433144942299" lon="5.433300075319168" id="-73216">
		<tag k="name" v="Raknes" />
		<tag k="place" v="hamlet" />
		<tag k="ssr:stedsnr" v="979093" />
	</node>
	<node lat="60.539227135998125" lon="5.347070360592134" id="-73218">
		<tag k="fixme" v="consider place=hamlet" />
		<tag k="name" v="Lille Hamre" />
		<tag k="place" v="farm" />
		<tag k="ssr:stedsnr" v="989693" />
	</node>
	<node lat="60.45478077892167" lon="5.492266606410958" id="-73219">
		<tag k="fixme" v="consider place=hamlet" />
		<tag k="name" v="Haus prestegard" />
		<tag k="place" v="farm" />
		<tag k="ssr:stedsnr" v="989694" />
	</node>
	<node lat="60.57800726703104" lon="5.47506671480121" id="-73220">
		<tag k="fixme" v="consider place=hamlet" />
		<tag k="name" v="Hosanger prestegard" />
		<tag k="place" v="farm" />
		<tag k="ssr:stedsnr" v="989695" />
	</node>
	<node lat="60.45181729044429" lon="5.616630286974679" id="-73221">
		<tag k="fixme" v="consider place=hamlet" />
		<tag k="name" v="Vik" />
		<tag k="place" v="farm" />
		<tag k="ssr:stedsnr" v="989696" />
	</node>
	<node lat="60.47997624368716" lon="5.682724190501756" id="-73222">
		<tag k="fixme" v="consider place=hamlet" />
		<tag k="name" v="Indre Bruvik" />
		<tag k="place" v="farm" />
		<tag k="ssr:stedsnr" v="989697" />
	</node>
	<node lat="60.48823333579216" lon="5.524574998887362" id="-73226">
		<tag k="fixme" v="consider place=hamlet" />
		<tag k="name" v="Vestbygdi" />
		<tag k="place" v="village" />
		<tag k="ssr:stedsnr" v="5990" />
	</node>
	<node lat="60.53637500159481" lon="5.438183336143161" id="-73229">
		<tag k="fixme" v="consider place=hamlet" />
		<tag k="name" v="Børtveit" />
		<tag k="place" v="farm" />
		<tag k="ssr:stedsnr" v="6415" />
	</node>
	<node lat="60.51087267097395" lon="5.553731352857092" id="-73237">
		<tag k="fixme" v="consider place=hamlet" />
		<tag k="loc_name" v="Kupo" />
		<tag k="name" v="Hagebø" />
		<tag k="place" v="farm" />
		<tag k="ssr:stedsnr" v="6962" />
	</node>
	<node lat="60.59816389176397" lon="5.5016499997466095" id="-73250">
		<tag k="name" v="Strand" />
		<tag k="place" v="isolated_dwelling" />
		<tag k="ssr:stedsnr" v="44706" />
	</node>
	<node lat="60.525647222815465" lon="5.537063895582979" id="-73251">
		<tag k="name" v="Langheii" />
		<tag k="place" v="farm" />
		<tag k="ssr:stedsnr" v="44707" />
	</node>
	<node lat="60.64341666304234" lon="5.6034444508171655" id="-73260">
		<tag k="name" v="Kleiveland" />
		<tag k="place" v="farm" />
		<tag k="ssr:stedsnr" v="45408" />
	</node>
	<node lat="60.447486114229456" lon="5.613038887652705" id="-73261">
		<tag k="name" v="Heiæ" />
		<tag k="place" v="farm" />
		<tag k="ssr:stedsnr" v="45530" />
	</node>
	<node lat="60.54109166862057" lon="5.389019440906567" id="-73266">
		<tag k="name" v="Hustrulid" />
		<tag k="place" v="farm" />
		<tag k="ssr:stedsnr" v="45783" />
	</node>
	<node lat="60.5206805576441" lon="5.384722225772342" id="-73267">
		<tag k="name" v="Kvamme" />
		<tag k="place" v="farm" />
		<tag k="ssr:stedsnr" v="45787" />
	</node>
	<node lat="60.61176666445802" lon="5.566600007202828" id="-73272">
		<tag k="name" v="Nyland" />
		<tag k="place" v="farm" />
		<tag k="ssr:stedsnr" v="45513" />
	</node>
	<node lat="60.50770832975299" lon="5.578922227066275" id="-73277">
		<tag k="historic" v="shieling" />
		<tag k="name" v="Storsåtstølane" />
		<tag k="place" v="isolated_dwelling" />
		<tag k="ssr:stedsnr" v="45733" />
	</node>
	<node lat="60.49573319191458" lon="5.456392708732423" id="-73288">
		<tag k="alt_name" v="Brakvatn" />
		<tag k="fixme" v="consider place=hamlet" />
		<tag k="name" v="Brakvatne" />
		<tag k="place" v="farm" />
		<tag k="ssr:stedsnr" v="66385" />
	</node>
	<node lat="60.470774996842934" lon="5.469500002441629" id="-73291">
		<tag k="name" v="Trådi" />
		<tag k="place" v="farm" />
		<tag k="ssr:stedsnr" v="66953" />
	</node>
	<node lat="60.49718055897121" lon="5.589461111896747" id="-73292">
		<tag k="historic" v="shieling" />
		<tag k="name" v="Gamlestølen" />
		<tag k="place" v="isolated_dwelling" />
		<tag k="ssr:stedsnr" v="66987" />
	</node>
	<node lat="60.473055558081" lon="5.6563000048568295" id="-73293">
		<tag k="alt_name" v="Bruvik, midtre" />
		<tag k="name" v="Midtre Bruvik" />
		<tag k="place" v="farm" />
		<tag k="ssr:stedsnr" v="66929" />
	</node>
	<node lat="60.54824284987719" lon="5.55278257338223" id="-73296">
		<tag k="fixme" v="consider place=hamlet" />
		<tag k="name" v="Sørmyking" />
		<tag k="place" v="farm" />
		<tag k="ssr:stedsnr" v="67622" />
	</node>
	<node lat="60.50597707095002" lon="5.477803967353153" id="-73301">
		<tag k="fixme" v="consider place=hamlet" />
		<tag k="name" v="Haugo" />
		<tag k="place" v="farm" />
		<tag k="ssr:stedsnr" v="67946" />
	</node>
	<node lat="60.54047500288374" lon="5.539002769284924" id="-73302">
		<tag k="name" v="Åsen" />
		<tag k="place" v="farm" />
		<tag k="ssr:stedsnr" v="67882" />
	</node>
	<node lat="60.54343333115859" lon="5.517250007991723" id="-73304">
		<tag k="name" v="Halvalii" />
		<tag k="place" v="farm" />
		<tag k="ssr:stedsnr" v="67907" />
	</node>
	<node lat="60.505886964111255" lon="5.494071243558647" id="-73309">
		<tag k="fixme" v="consider place=hamlet" />
		<tag k="name" v="Vevletveit" />
		<tag k="place" v="farm" />
		<tag k="ssr:stedsnr" v="67960" />
	</node>
	<node lat="60.51130555695545" lon="5.525955546742434" id="-73313">
		<tag k="name" v="Haukelii" />
		<tag k="place" v="farm" />
		<tag k="ssr:stedsnr" v="104699" />
	</node>
	<node lat="60.59030555604659" lon="5.5171444427099" id="-73331">
		<tag k="fixme" v="consider place=hamlet" />
		<tag k="name" v="Fotland" />
		<tag k="place" v="farm" />
		<tag k="ssr:stedsnr" v="106522" />
	</node>
	<node lat="60.47842222230431" lon="5.632216672376544" id="-73335">
		<tag k="historic" v="shieling" />
		<tag k="name" v="Brøksetri" />
		<tag k="place" v="isolated_dwelling" />
		<tag k="ssr:stedsnr" v="106547" />
	</node>
	<node lat="60.50606667058923" lon="5.539908340596747" id="-73341">
		<tag k="name" v="Solbjørg" />
		<tag k="place" v="hamlet" />
		<tag k="ssr:stedsnr" v="106756" />
	</node>
	<node lat="60.479046550534626" lon="5.543719063871943" id="-73354">
		<tag k="fixme" v="consider place=hamlet" />
		<tag k="name" v="Mele" />
		<tag k="place" v="farm" />
		<tag k="ssr:stedsnr" v="126968" />
	</node>
	<node lat="60.5449410013042" lon="5.381906961295293" id="-73355">
		<tag k="fixme" v="consider place=hamlet" />
		<tag k="name" v="Hustrelii" />
		<tag k="place" v="farm" />
		<tag k="ssr:stedsnr" v="127417" />
	</node>
	<node lat="60.5424556157996" lon="5.412653930177511" id="-73356">
		<tag k="alt_name" v="Birkeland" />
		<tag k="fixme" v="consider place=hamlet" />
		<tag k="name" v="Byrkjeland" />
		<tag k="place" v="farm" />
		<tag k="ssr:stedsnr" v="127423" />
	</node>
	<node lat="60.5390333355848" lon="5.346049995326067" id="-73357">
		<tag k="name" v="Øyjordi" />
		<tag k="place" v="farm" />
		<tag k="ssr:stedsnr" v="127431" />
	</node>
	<node lat="60.58448055124379" lon="5.475630550204634" id="-73361">
		<tag k="name" v="Børo" />
		<tag k="place" v="isolated_dwelling" />
		<tag k="ssr:stedsnr" v="127569" />
	</node>
	<node lat="60.50784847101879" lon="5.509492033687623" id="-73369">
		<tag k="name" v="Revheim" />
		<tag k="place" v="hamlet" />
		<tag k="ssr:stedsnr" v="127956" />
	</node>
	<node lat="60.518911109172805" lon="5.524352772263963" id="-73370">
		<tag k="name" v="Åsen" />
		<tag k="place" v="farm" />
		<tag k="ssr:stedsnr" v="127966" />
	</node>
	<node lat="60.51308539247503" lon="5.516924840143607" id="-73371">
		<tag k="fixme" v="consider place=hamlet" />
		<tag k="name" v="Lono" />
		<tag k="place" v="farm" />
		<tag k="ssr:stedsnr" v="127968" />
	</node>
	<node lat="60.59290555636852" lon="5.522247227773756" id="-73378">
		<tag k="name" v="Hella" />
		<tag k="place" v="isolated_dwelling" />
		<tag k="ssr:stedsnr" v="165729" />
	</node>
	<node lat="60.518841669699526" lon="5.540980564257334" id="-73399">
		<tag k="historic" v="shieling" />
		<tag k="name" v="Kjerringastøleitet" />
		<tag k="place" v="isolated_dwelling" />
		<tag k="ssr:stedsnr" v="166742" />
	</node>
	<node lat="60.54396191318459" lon="5.347105771654842" id="-73400">
		<tag k="alt_name" v="Hamre prestegård" />
		<tag k="fixme" v="consider place=hamlet" />
		<tag k="name" v="Hamre prestegard" />
		<tag k="place" v="farm" />
		<tag k="ssr:stedsnr" v="166751" />
	</node>
	<node lat="60.47969274724427" lon="5.670942412453948" id="-73416">
		<tag k="name" v="Kløve" />
		<tag k="place" v="farm" />
		<tag k="ssr:stedsnr" v="187942" />
	</node>
	<node lat="60.47722288340499" lon="5.573577833817876" id="-73417">
		<tag k="fixme" v="consider place=hamlet" />
		<tag k="name" v="Tveitaråsen" />
		<tag k="place" v="farm" />
		<tag k="ssr:stedsnr" v="187944" />
	</node>
	<node lat="60.47607876055284" lon="5.469890203900755" id="-73419">
		<tag k="name" v="Askeland" />
		<tag k="place" v="hamlet" />
		<tag k="ssr:stedsnr" v="187957" />
	</node>
	<node lat="60.54094622301046" lon="5.454550448350846" id="-73423">
		<tag k="fixme" v="consider place=hamlet" />
		<tag k="name" v="Dale" />
		<tag k="place" v="farm" />
		<tag k="ssr:stedsnr" v="188440" />
	</node>
	<node lat="60.54907021959803" lon="5.393100171753595" id="-73425">
		<tag k="fixme" v="consider place=hamlet" />
		<tag k="name" v="Teppstad" />
		<tag k="place" v="farm" />
		<tag k="ssr:stedsnr" v="188467" />
	</node>
	<node lat="60.500244444638405" lon="5.605399993323218" id="-73431">
		<tag k="historic" v="shieling" />
		<tag k="name" v="Melesætra" />
		<tag k="place" v="isolated_dwelling" />
		<tag k="ssr:stedsnr" v="188996" />
	</node>
	<node lat="60.53971743646628" lon="5.494403704440323" id="-73435">
		<tag k="fixme" v="consider place=hamlet" />
		<tag k="name" v="Flatås" />
		<tag k="place" v="farm" />
		<tag k="ssr:stedsnr" v="188909" />
	</node>
	<node lat="60.543327779887214" lon="5.549175000989272" id="-73436">
		<tag k="fixme" v="consider place=hamlet" />
		<tag k="name" v="Fossdal" />
		<tag k="place" v="farm" />
		<tag k="ssr:stedsnr" v="188914" />
	</node>
	<node lat="60.49947221862796" lon="5.590230550641063" id="-73441">
		<tag k="historic" v="shieling" />
		<tag k="name" v="Solbjørgsetra" />
		<tag k="place" v="isolated_dwelling" />
		<tag k="ssr:stedsnr" v="226318" />
	</node>
	<node lat="60.44005832948752" lon="5.537111120024725" id="-73450">
		<tag k="name" v="Setri" />
		<tag k="place" v="farm" />
		<tag k="ssr:stedsnr" v="227477" />
	</node>
	<node lat="60.46456110868627" lon="5.546386116932909" id="-73460">
		<tag k="name" v="Veset" />
		<tag k="place" v="farm" />
		<tag k="ssr:stedsnr" v="227626" />
	</node>
	<node lat="60.45885277780693" lon="5.487991674879095" id="-73464">
		<tag k="name" v="Verkane" />
		<tag k="place" v="farm" />
		<tag k="ssr:stedsnr" v="227860" />
	</node>
	<node lat="60.52620833616142" lon="5.504422218162195" id="-73473">
		<tag k="name" v="Træet" />
		<tag k="place" v="farm" />
		<tag k="ssr:stedsnr" v="287704" />
	</node>
	<node lat="60.49065555124146" lon="5.554088884854594" id="-73486">
		<tag k="historic" v="shieling" />
		<tag k="name" v="Stølen" />
		<tag k="place" v="isolated_dwelling" />
		<tag k="ssr:stedsnr" v="288590" />
	</node>
	<node lat="60.57247499813748" lon="5.478849992457969" id="-73489">
		<tag k="name" v="Hole" />
		<tag k="place" v="farm" />
		<tag k="ssr:stedsnr" v="288710" />
	</node>
	<node lat="60.50569444293826" lon="5.531905564678013" id="-73494">
		<tag k="name" v="Moldkvilet" />
		<tag k="place" v="farm" />
		<tag k="ssr:stedsnr" v="288723" />
	</node>
	<node lat="60.481005558291905" lon="5.560949992101092" id="-73500">
		<tag k="name" v="Sprengjakvilet" />
		<tag k="place" v="farm" />
		<tag k="ssr:stedsnr" v="288859" />
	</node>
	<node lat="60.58751666974955" lon="5.514805550840991" id="-73506">
		<tag k="historic" v="shieling" />
		<tag k="name" v="Fotlandssætra" />
		<tag k="place" v="isolated_dwelling" />
		<tag k="ssr:stedsnr" v="309562" />
	</node>
	<node lat="60.48091015607217" lon="5.557024082834972" id="-73507">
		<tag k="fixme" v="consider place=hamlet" />
		<tag k="name" v="Litun" />
		<tag k="place" v="farm" />
		<tag k="ssr:stedsnr" v="308967" />
	</node>
	<node lat="60.50535833625149" lon="5.428947227193154" id="-73511">
		<tag k="fixme" v="consider place=suburb, village or hamlet" />
		<tag k="name" v="Valestrand" />
		<tag k="place" v="quarter" />
		<tag k="ssr:stedsnr" v="309500" />
	</node>
	<node lat="60.618441671069725" lon="5.586227775891597" id="-73512">
		<tag k="name" v="Tysso" />
		<tag k="place" v="village" />
		<tag k="ssr:stedsnr" v="309724" />
	</node>
	<node lat="60.46979166724344" lon="5.478016670749344" id="-73515">
		<tag k="name" v="Hushammaren" />
		<tag k="place" v="farm" />
		<tag k="ssr:stedsnr" v="309958" />
	</node>
	<node lat="60.519037301106025" lon="5.4326332030958815" id="-73526">
		<tag k="name" v="Røskeland" />
		<tag k="place" v="farm" />
		<tag k="ssr:stedsnr" v="348471" />
	</node>
	<node lat="60.488230551742056" lon="5.588361118220708" id="-73541">
		<tag k="historic" v="shieling" />
		<tag k="name" v="Vesetsetra" />
		<tag k="place" v="isolated_dwelling" />
		<tag k="ssr:stedsnr" v="348546" />
	</node>
	<node lat="60.520086110390345" lon="5.42126111021771" id="-73544">
		<tag k="name" v="Stykke" />
		<tag k="place" v="farm" />
		<tag k="ssr:stedsnr" v="348810" />
	</node>
	<node lat="60.471380557679645" lon="5.465119452513361" id="-73551">
		<tag k="name" v="Midtteigen" />
		<tag k="place" v="farm" />
		<tag k="ssr:stedsnr" v="348794" />
	</node>
	<node lat="60.52001202247372" lon="5.4460396575986625" id="-73564">
		<tag k="fixme" v="consider place=hamlet" />
		<tag k="name" v="Burkeland" />
		<tag k="place" v="farm" />
		<tag k="ssr:stedsnr" v="370531" />
	</node>
	<node lat="60.600419445107676" lon="5.4941999979211165" id="-73565">
		<tag k="building" v="industrial" />
		<tag k="industrial" v="factory" />
		<tag k="name" v="Saltverket" />
		<tag k="ssr:stedsnr" v="370555" />
	</node>
	<node lat="60.50124435702894" lon="5.543954804772487" id="-73568">
		<tag k="fixme" v="consider place=hamlet" />
		<tag k="name" v="Skistad" />
		<tag k="place" v="farm" />
		<tag k="ssr:stedsnr" v="370997" />
	</node>
	<node lat="60.45056110776018" lon="5.523750002030848" id="-73580">
		<tag k="name" v="Hola" />
		<tag k="place" v="farm" />
		<tag k="ssr:stedsnr" v="409482" />
	</node>
	<node lat="60.61851110750084" lon="5.5875750056283655" id="-73587">
		<tag k="name" v="Tysse" />
		<tag k="place" v="farm" />
		<tag k="ssr:stedsnr" v="409417" />
	</node>
	<node lat="60.45061666767334" lon="5.618191666068784" id="-73592">
		<tag k="name" v="Skare" />
		<tag k="place" v="farm" />
		<tag k="ssr:stedsnr" v="409537" />
	</node>
	<node lat="60.52212222278354" lon="5.5236111167872775" id="-73600">
		<tag k="name" v="Åstun" />
		<tag k="old_name" v="Aastun" />
		<tag k="place" v="farm" />
		<tag k="ssr:stedsnr" v="409646" />
	</node>
	<node lat="60.47525833106809" lon="5.5389999947157085" id="-73602">
		<tag k="name" v="Orrheii" />
		<tag k="place" v="farm" />
		<tag k="ssr:stedsnr" v="409662" />
	</node>
	<node lat="60.60719444347513" lon="5.669855558633816" id="-73618">
		<tag k="name" v="Høgaheimshytta" />
		<tag k="place" v="isolated_dwelling" />
		<tag k="ssr:stedsnr" v="431560" />
	</node>
	<node lat="60.58592777838076" lon="5.615072227313113" id="-73620">
		<tag k="historic" v="shieling" />
		<tag k="name" v="Bernessætra" />
		<tag k="place" v="isolated_dwelling" />
		<tag k="ssr:stedsnr" v="431579" />
	</node>
	<node lat="60.57499279168528" lon="5.495945429684552" id="-73621">
		<tag k="fixme" v="consider place=hamlet" />
		<tag k="name" v="Åsheim" />
		<tag k="place" v="farm" />
		<tag k="ssr:stedsnr" v="431582" />
	</node>
	<node lat="60.664175000863814" lon="5.618552772343476" id="-73623">
		<tag k="name" v="Bogen" />
		<tag k="place" v="farm" />
		<tag k="ssr:stedsnr" v="431660" />
	</node>
	<node lat="60.51878076820407" lon="5.653422892469462" id="-73625">
		<tag k="fixme" v="consider place=hamlet" />
		<tag k="name" v="Vassdal" />
		<tag k="place" v="farm" />
		<tag k="ssr:stedsnr" v="431966" />
	</node>
	<node lat="60.525561108562556" lon="5.4956333262841355" id="-73629">
		<tag k="name" v="Lonevåg" />
		<tag k="place" v="village" />
		<tag k="ssr:stedsnr" v="431934" />
	</node>
	<node lat="60.55007500127186" lon="5.487849996493738" id="-73639">
		<tag k="historic" v="shieling" />
		<tag k="name" v="Gamlesætre" />
		<tag k="place" v="isolated_dwelling" />
		<tag k="ssr:stedsnr" v="530530" />
	</node>
	<node lat="60.698938890963504" lon="5.627913893506525" id="-73669">
		<tag k="name" v="Toni" />
		<tag k="place" v="farm" />
		<tag k="ssr:stedsnr" v="552296" />
	</node>
	<node lat="60.48658604350018" lon="5.500222727444416" id="-73673">
		<tag k="alt_name" v="Hannisdalen" />
		<tag k="fixme" v="consider place=hamlet" />
		<tag k="name" v="Hansdalen" />
		<tag k="place" v="farm" />
		<tag k="ssr:stedsnr" v="551978" />
	</node>
	<node lat="60.519034787844205" lon="5.433547243653335" id="-73676">
		<tag k="fixme" v="consider place=hamlet" />
		<tag k="name" v="Røskeland" />
		<tag k="place" v="farm" />
		<tag k="ssr:stedsnr" v="552560" />
	</node>
	<node lat="60.55721389187829" lon="5.537105556209229" id="-73677">
		<tag k="name" v="Turdalen" />
		<tag k="place" v="farm" />
		<tag k="ssr:stedsnr" v="552659" />
	</node>
	<node lat="60.48573610980524" lon="5.475972213484561" id="-73688">
		<tag k="historic" v="shieling" />
		<tag k="name" v="Flakstølen" />
		<tag k="place" v="isolated_dwelling" />
		<tag k="ssr:stedsnr" v="589440" />
	</node>
	<node lat="60.48170000074013" lon="5.481100003784284" id="-73690">
		<tag k="historic" v="shieling" />
		<tag k="name" v="Merkjedalsstølen" />
		<tag k="place" v="isolated_dwelling" />
		<tag k="ssr:stedsnr" v="589444" />
	</node>
	<node lat="60.49549166284253" lon="5.443866673512291" id="-73710">
		<tag k="name" v="Haugland" />
		<tag k="place" v="farm" />
		<tag k="ssr:stedsnr" v="591793" />
	</node>
	<node lat="60.516375004091394" lon="5.392422223314483" id="-73719">
		<tag k="historic" v="shieling" />
		<tag k="name" v="Nerdalsstølen" />
		<tag k="place" v="isolated_dwelling" />
		<tag k="ssr:stedsnr" v="591833" />
	</node>
	<node lat="60.47519999630233" lon="5.4702333377717824" id="-73722">
		<tag k="name" v="Utegarden" />
		<tag k="place" v="farm" />
		<tag k="ssr:stedsnr" v="591850" />
	</node>
	<node lat="60.56463983127556" lon="5.4563473793446535" id="-73729">
		<tag k="fixme" v="consider place=hamlet" />
		<tag k="name" v="Fjellskål" />
		<tag k="place" v="farm" />
		<tag k="ssr:stedsnr" v="612454" />
	</node>
	<node lat="60.57175555354107" lon="5.583027768998114" id="-73731">
		<tag k="name" v="Haugen" />
		<tag k="place" v="isolated_dwelling" />
		<tag k="ssr:stedsnr" v="612579" />
	</node>
	<node lat="60.65365000030836" lon="5.613158331708162" id="-73733">
		<tag k="alt_name" v="Furnes" />
		<tag k="name" v="Fornes" />
		<tag k="place" v="farm" />
		<tag k="ssr:stedsnr" v="612642" />
	</node>
	<node lat="60.53119474544315" lon="5.575365888154842" id="-73735">
		<tag k="fixme" v="consider place=hamlet" />
		<tag k="name" v="Njåstad" />
		<tag k="place" v="farm" />
		<tag k="ssr:stedsnr" v="612928" />
	</node>
	<node lat="60.52492068683969" lon="5.545839954533064" id="-73736">
		<tag k="fixme" v="consider place=hamlet" />
		<tag k="name" v="Låstad" />
		<tag k="place" v="farm" />
		<tag k="ssr:stedsnr" v="612939" />
	</node>
	<node lat="60.52013918842333" lon="5.633704384496594" id="-73738">
		<tag k="fixme" v="consider place=hamlet" />
		<tag k="name" v="Løtveit" />
		<tag k="place" v="farm" />
		<tag k="ssr:stedsnr" v="612961" />
	</node>
	<node lat="60.487858329202886" lon="5.606855548648442" id="-73740">
		<tag k="alt_name" v="Reveimssætra" />
		<tag k="historic" v="shieling" />
		<tag k="name" v="Revheimssætra" />
		<tag k="place" v="isolated_dwelling" />
		<tag k="ssr:stedsnr" v="612967" />
	</node>
	<node lat="60.480884764191096" lon="5.563570626748782" id="-73741">
		<tag k="fixme" v="consider place=hamlet" />
		<tag k="name" v="Vedo" />
		<tag k="place" v="farm" />
		<tag k="ssr:stedsnr" v="612976" />
	</node>
	<node lat="60.48722010861742" lon="5.529963773930984" id="-73743">
		<tag k="fixme" v="consider place=hamlet" />
		<tag k="name" v="Rongve" />
		<tag k="place" v="farm" />
		<tag k="ssr:stedsnr" v="612990" />
	</node>
	<node lat="60.50310000335042" lon="5.633616674872305" id="-73747">
		<tag k="historic" v="shieling" />
		<tag k="name" v="Borgasætra" />
		<tag k="place" v="isolated_dwelling" />
		<tag k="ssr:stedsnr" v="613994" />
	</node>
	<node lat="60.50397155104787" lon="5.5589309277460295" id="-73748">
		<tag k="alt_name" v="Byrkeland" />
		<tag k="fixme" v="consider place=hamlet" />
		<tag k="name" v="Byrkjeland" />
		<tag k="place" v="farm" />
		<tag k="ssr:stedsnr" v="614000" />
	</node>
	<node lat="60.53801111490224" lon="5.4121472155514745" id="-73781">
		<tag k="name" v="Mjelstad" />
		<tag k="place" v="farm" />
		<tag k="ssr:stedsnr" v="651802" />
	</node>
	<node lat="60.54580000116697" lon="5.408074992965748" id="-73785">
		<tag k="name" v="Birkeland" />
		<tag k="place" v="farm" />
		<tag k="ssr:stedsnr" v="651830" />
	</node>
	<node lat="60.54595000309138" lon="5.369930551739289" id="-73786">
		<tag k="name" v="Sandal" />
		<tag k="place" v="farm" />
		<tag k="ssr:stedsnr" v="651832" />
	</node>
	<node lat="60.4973157815795" lon="5.485380660720165" id="-73791">
		<tag k="alt_name" v="Kleivelandslii" />
		<tag k="name" v="Kleivelandslia" />
		<tag k="place" v="farm" />
		<tag k="ssr:stedsnr" v="711447" />
	</node>
	<node lat="60.48490000113848" lon="5.525858337208922" id="-73792">
		<tag k="name" v="Grønstølen" />
		<tag k="place" v="farm" />
		<tag k="ssr:stedsnr" v="711455" />
	</node>
	<node lat="60.57878055262441" lon="5.475966664362147" id="-73803">
		<tag k="name" v="Holme" />
		<tag k="place" v="farm" />
		<tag k="ssr:stedsnr" v="712484" />
	</node>
	<node lat="60.54306666765192" lon="5.346869452663444" id="-73820">
		<tag k="name" v="Nydal" />
		<tag k="place" v="farm" />
		<tag k="ssr:stedsnr" v="712760" />
	</node>
	<node lat="60.51348888866797" lon="5.549419444330129" id="-73824">
		<tag k="historic" v="shieling" />
		<tag k="name" v="Tropstølen" />
		<tag k="place" v="isolated_dwelling" />
		<tag k="ssr:stedsnr" v="712720" />
	</node>
	<node lat="60.54243610927207" lon="5.403074994872857" id="-73830">
		<tag k="name" v="Mjeldstad" />
		<tag k="place" v="farm" />
		<tag k="ssr:stedsnr" v="712817" />
	</node>
	<node lat="60.46804999741844" lon="5.643494444918542" id="-73834">
		<tag k="fixme" v="consider place=hamlet" />
		<tag k="name" v="Hekland" />
		<tag k="place" v="farm" />
		<tag k="ssr:stedsnr" v="728194" />
	</node>
	<node lat="60.53186614290624" lon="5.424765006074485" id="-73840">
		<tag k="fixme" v="consider place=hamlet" />
		<tag k="name" v="Horsås" />
		<tag k="place" v="farm" />
		<tag k="ssr:stedsnr" v="734420" />
	</node>
	<node lat="60.59665395473299" lon="5.552453442379763" id="-73847">
		<tag k="name" v="Kleppe" />
		<tag k="place" v="hamlet" />
		<tag k="ssr:stedsnr" v="734577" />
	</node>
	<node lat="60.53399730858529" lon="5.539674147632708" id="-73849">
		<tag k="fixme" v="consider place=hamlet" />
		<tag k="name" v="Fitje" />
		<tag k="place" v="farm" />
		<tag k="ssr:stedsnr" v="734870" />
	</node>
	<node lat="60.4619549631522" lon="5.474750778052848" id="-73853">
		<tag k="fixme" v="consider place=hamlet" />
		<tag k="name" v="Rivenes" />
		<tag k="place" v="farm" />
		<tag k="ssr:stedsnr" v="734948" />
	</node>
	<node lat="60.515319446654836" lon="5.594233328443035" id="-73854">
		<tag k="historic" v="shieling" />
		<tag k="name" v="Låstadsætra" />
		<tag k="place" v="isolated_dwelling" />
		<tag k="ssr:stedsnr" v="734949" />
	</node>
	<node lat="60.47518610766442" lon="5.685533333867309" id="-73855">
		<tag k="alt_name" v="Ulsnes" />
		<tag k="name" v="Neset" />
		<tag k="place" v="farm" />
		<tag k="ssr:stedsnr" v="734959" />
	</node>
	<node lat="60.4722950629566" lon="5.564479411171592" id="-73857">
		<tag k="fixme" v="consider place=hamlet" />
		<tag k="loc_name" v="Teigland" />
		<tag k="name" v="Tjelland" />
		<tag k="place" v="farm" />
		<tag k="ssr:stedsnr" v="734972" />
	</node>
	<node lat="60.507983334489374" lon="5.648283326629882" id="-73864">
		<tag k="name" v="Seilen" />
		<tag k="place" v="farm" />
		<tag k="ssr:stedsnr" v="773434" />
	</node>
	<node lat="60.494094448827305" lon="5.519927782079647" id="-73891">
		<tag k="name" v="Kollitræd" />
		<tag k="place" v="farm" />
		<tag k="ssr:stedsnr" v="794994" />
	</node>
	<node lat="60.4707758126013" lon="5.652201503613633" id="-73894">
		<tag k="alt_name" v="Bruvik, yt" />
		<tag k="fixme" v="consider place=hamlet" />
		<tag k="name" v="Ytre Bruvik" />
		<tag k="place" v="farm" />
		<tag k="ssr:stedsnr" v="794950" />
	</node>
	<node lat="60.530318064768586" lon="5.355517523143054" id="-73897">
		<tag k="fixme" v="consider place=hamlet" />
		<tag k="name" v="Eikeland" />
		<tag k="place" v="farm" />
		<tag k="ssr:stedsnr" v="795440" />
	</node>
	<node lat="60.537592133355616" lon="5.426954825731925" id="-73898">
		<tag k="name" v="Håland" />
		<tag k="place" v="hamlet" />
		<tag k="ssr:stedsnr" v="795442" />
	</node>
	<node lat="60.55928323487891" lon="5.467152796750089" id="-73900">
		<tag k="fixme" v="consider place=hamlet" />
		<tag k="name" v="Litland" />
		<tag k="place" v="farm" />
		<tag k="ssr:stedsnr" v="795490" />
	</node>
	<node lat="60.50817500243059" lon="5.6496333277628015" id="-73906">
		<tag k="name" v="Storsøyli" />
		<tag k="place" v="farm" />
		<tag k="ssr:stedsnr" v="795996" />
	</node>
	<node lat="60.59681388850649" lon="5.535597218175189" id="-73927">
		<tag k="name" v="Byrkjeland" />
		<tag k="place" v="farm" />
		<tag k="ssr:stedsnr" v="834541" />
	</node>
	<node lat="60.59647777324894" lon="5.550605550326048" id="-73928">
		<tag k="name" v="Austre Kleppe" />
		<tag k="place" v="farm" />
		<tag k="ssr:stedsnr" v="834544" />
	</node>
	<node lat="60.445436106759644" lon="5.606908325361068" id="-73929">
		<tag k="name" v="Garsenden" />
		<tag k="place" v="farm" />
		<tag k="ssr:stedsnr" v="834553" />
	</node>
	<node lat="60.533077779628485" lon="5.403683341944958" id="-73938">
		<tag k="fixme" v="consider place=hamlet" />
		<tag k="name" v="Tveiten" />
		<tag k="place" v="farm" />
		<tag k="ssr:stedsnr" v="834795" />
	</node>
	<node lat="60.48060277835251" lon="5.556444441345368" id="-73943">
		<tag k="name" v="Litun" />
		<tag k="place" v="farm" />
		<tag k="ssr:stedsnr" v="834651" />
	</node>
	<node lat="60.51154166986592" lon="5.549924999644862" id="-73952">
		<tag k="fixme" v="consider place=hamlet" />
		<tag k="name" v="Anntun" />
		<tag k="place" v="farm" />
		<tag k="ssr:stedsnr" v="834728" />
	</node>
	<node lat="60.516819441178676" lon="5.578933329139377" id="-73955">
		<tag k="historic" v="shieling" />
		<tag k="name" v="Svastølen" />
		<tag k="place" v="isolated_dwelling" />
		<tag k="ssr:stedsnr" v="834731" />
	</node>
	<node lat="60.522800003032266" lon="5.467313891501879" id="-73965">
		<tag k="name" v="Grøve" />
		<tag k="place" v="farm" />
		<tag k="ssr:stedsnr" v="834841" />
	</node>
	<node lat="60.44742350713022" lon="5.507279213782954" id="-73970">
		<tag k="alt_name" v="Åseim" />
		<tag k="fixme" v="consider place=hamlet" />
		<tag k="name" v="Åsheim" />
		<tag k="place" v="farm" />
		<tag k="ssr:stedsnr" v="855016" />
	</node>
	<node lat="60.44408062704551" lon="5.610280837346222" id="-73971">
		<tag k="alt_name" v="Stokke" />
		<tag k="fixme" v="consider place=hamlet" />
		<tag k="name" v="Stokko" />
		<tag k="place" v="farm" />
		<tag k="ssr:stedsnr" v="855027" />
	</node>
	<node lat="60.43986876130677" lon="5.564952745422138" id="-73972">
		<tag k="fixme" v="consider place=hamlet" />
		<tag k="name" v="Blom" />
		<tag k="place" v="farm" />
		<tag k="ssr:stedsnr" v="855032" />
	</node>
	<node lat="60.52417726263884" lon="5.3646908207954" id="-73974">
		<tag k="fixme" v="consider place=hamlet" />
		<tag k="name" v="Angskori" />
		<tag k="place" v="farm" />
		<tag k="ssr:stedsnr" v="855372" />
	</node>
	<node lat="60.57931212962852" lon="5.462381762986581" id="-73976">
		<tag k="fixme" v="consider place=hamlet" />
		<tag k="name" v="Hoshovde" />
		<tag k="place" v="farm" />
		<tag k="ssr:stedsnr" v="856068" />
	</node>
	<node lat="60.548281237558236" lon="5.527020990784168" id="-73983">
		<tag k="alt_name" v="Haugstveit" />
		<tag k="fixme" v="consider place=hamlet" />
		<tag k="name" v="Haustveit" />
		<tag k="place" v="farm" />
		<tag k="ssr:stedsnr" v="856923" />
	</node>
	<node lat="60.60476111151242" lon="5.543980548214925" id="-73984">
		<tag k="name" v="Haugo" />
		<tag k="place" v="farm" />
		<tag k="ssr:stedsnr" v="856746" />
	</node>
	<node lat="60.56977435065249" lon="5.468596939261901" id="-73990">
		<tag k="alt_name" v="Heldal" />
		<tag k="fixme" v="consider place=hamlet" />
		<tag k="name" v="Helldal" />
		<tag k="place" v="farm" />
		<tag k="ssr:stedsnr" v="954835" />
	</node>
	<node lat="60.51051944317376" lon="5.632213883136564" id="-73997">
		<tag k="historic" v="shieling" />
		<tag k="name" v="Tverrastøl" />
		<tag k="place" v="isolated_dwelling" />
		<tag k="ssr:stedsnr" v="955626" />
	</node>
	<node lat="60.480678039468735" lon="5.559968900737187" id="-74026">
		<tag k="fixme" v="consider place=hamlet" />
		<tag k="name" v="Skjerping" />
		<tag k="place" v="farm" />
		<tag k="ssr:stedsnr" v="955864" />
	</node>
	<node lat="60.57415070672491" lon="5.47971722399316" id="-74033">
		<tag k="fixme" v="consider place=hamlet" />
		<tag k="name" v="Mjøs" />
		<tag k="place" v="farm" />
		<tag k="ssr:stedsnr" v="984336" />
	</node>
	<node lat="60.51488068630329" lon="5.459867353963673" id="-74035">
		<tag k="fixme" v="consider place=hamlet" />
		<tag k="name" v="Halland" />
		<tag k="place" v="farm" />
		<tag k="ssr:stedsnr" v="989595" />
	</node>
	<node lat="60.55067663035534" lon="5.461962619776311" id="-74181">
		<tag k="alt_name" v="Byseim" />
		<tag k="name" v="Bysheim" />
		<tag k="place" v="hamlet" />
		<tag k="ssr:stedsnr" v="1075655" />
	</node>
</osm>
