<?xml version="1.0" encoding="UTF-8"?>
<osm generator="osmapis" version="0.6">
	<node id="-637311" lat="60.5345805536" lon="5.5307833389">
		<tag k="name" v="Myrane" />
		<tag k="natural" v="wetland" />
		<tag k="ssr:stedsnr" v="772715" />
	</node>
	<node id="-636925" lat="60.5912500039" lon="5.49466388066">
		<tag k="name" v="Stormyri" />
		<tag k="natural" v="wetland" />
		<tag k="ssr:stedsnr" v="188577" />
	</node>
	<node id="-637175" lat="60.5669888876" lon="5.57531388475">
		<tag k="name" v="Herlandsnesjane" />
		<tag k="natural" v="wetland" />
		<tag k="ssr:stedsnr" v="552620" />
	</node>
	<node id="-637053" lat="60.6414111071" lon="5.63245833694">
		<tag k="name" v="Fuglakammen" />
		<tag k="natural" v="stone" />
		<tag k="ssr:stedsnr" v="409406" />
	</node>
	<node id="-636774" lat="60.512736113" lon="5.49490554929">
		<tag k="name" v="Naustmyra" />
		<tag k="natural" v="wetland" />
		<tag k="ssr:stedsnr" v="104720" />
	</node>
	<node id="-636512" lat="60.4920305548" lon="5.53098055477">
		<tag k="name" v="Stormyra" />
		<tag k="natural" v="wetland" />
		<tag k="ssr:stedsnr" v="712610" />
	</node>
	<node id="-636637" lat="60.5912750034" lon="5.47832500742">
		<tag k="name" v="Tjukkskogen" />
		<tag k="place" v="locality" />
		<tag k="ssr:stedsnr" v="856564" />
	</node>
	<node id="-637020" lat="60.5293805571" lon="5.38455000293">
		<tag k="name" v="Tjørnmyra" />
		<tag k="natural" v="wetland" />
		<tag k="ssr:stedsnr" v="370439" />
	</node>
	<node id="-636249" lat="60.5599333356" lon="5.51207778457">
		<tag k="name" v="Haustveitmyrane" />
		<tag k="natural" v="wetland" />
		<tag k="ssr:stedsnr" v="491599" />
	</node>
	<node id="-637008" lat="60.4922527756" lon="5.57846110886">
		<tag k="name" v="Jakobsteinen" />
		<tag k="natural" v="stone" />
		<tag k="ssr:stedsnr" v="348843" />
	</node>
	<node id="-636744" lat="60.5318555518" lon="5.37044722212">
		<tag k="name" v="Storemyra" />
		<tag k="natural" v="wetland" />
		<tag k="ssr:stedsnr" v="66369" />
	</node>
	<node id="-637255" lat="60.5516527758" lon="5.56043889393">
		<tag k="name" v="Venafitjane" />
		<tag k="natural" v="wetland" />
		<tag k="ssr:stedsnr" v="612618" />
	</node>
	<node id="-636738" lat="60.4940083321" lon="5.56191111728">
		<tag k="name" v="Bjoamyra" />
		<tag k="natural" v="wetland" />
		<tag k="ssr:stedsnr" v="45843" />
	</node>
	<node id="-636736" lat="60.5289250023" lon="5.4597916598">
		<tag k="name" v="Flåmyra" />
		<tag k="natural" v="wetland" />
		<tag k="ssr:stedsnr" v="45833" />
	</node>
	<node id="-636860" lat="60.5038500037" lon="5.6059277769">
		<tag k="name" v="Melemyrane" />
		<tag k="natural" v="wetland" />
		<tag k="ssr:stedsnr" v="127999" />
	</node>
	<node id="-636986" lat="60.5525694416" lon="5.50891111379">
		<tag k="name" v="Gråura" />
		<tag k="natural" v="scree" />
		<tag k="ssr:stedsnr" v="348480" />
	</node>
	<node id="-637496" lat="60.48463611" lon="5.45858610982">
		<tag k="name" v="Stormyrshædna" />
		<tag k="natural" v="wetland" />
		<tag k="ssr:stedsnr" v="955762" />
	</node>
	<node id="-636468" lat="60.454083332" lon="5.51168055838">
		<tag k="name" v="Futamyra" />
		<tag k="natural" v="wetland" />
		<tag k="ssr:stedsnr" v="651515" />
	</node>
	<node id="-636850" lat="60.5785277774" lon="5.48934443831">
		<tag k="name" v="Øvsthusmarki" />
		<tag k="place" v="locality" />
		<tag k="ssr:stedsnr" v="127584" />
	</node>
	<node id="-635951" lat="60.5858749966" lon="5.49804167293">
		<tag k="name" v="Furmyrnipa" />
		<tag k="natural" v="wetland" />
		<tag k="ssr:stedsnr" v="227536" />
	</node>
	<node id="-637355" lat="60.4761333294" lon="5.454116659">
		<tag k="name" v="Votlatveitane" />
		<tag k="place" v="locality" />
		<tag k="ssr:stedsnr" v="794527" />
	</node>
	<node id="-636359" lat="60.4978527764" lon="5.47450000179">
		<tag k="name" v="Gloppemyra" />
		<tag k="natural" v="wetland" />
		<tag k="ssr:stedsnr" v="711462" />
	</node>
	<node id="-636072" lat="60.4886666697" lon="5.58061943737">
		<tag k="name" v="Storura" />
		<tag k="natural" v="scree" />
		<tag k="ssr:stedsnr" v="166856" />
	</node>
	<node id="-636582" lat="60.505044442" lon="5.53548334084">
		<tag k="name" v="Steinløfitjane" />
		<tag k="natural" v="stone" />
		<tag k="ssr:stedsnr" v="773734" />
	</node>
	<node id="-636452" lat="60.4669249997" lon="5.59599167541">
		<tag k="historic" v="shieling" />
		<tag k="name" v="Hartveitsætra" />
		<tag k="place" v="locality" />
		<tag k="ssr:stedsnr" v="734944" />
	</node>
	<node id="-636067" lat="60.4708416667" lon="5.53529167414">
		<tag k="name" v="Kloppamyra" />
		<tag k="natural" v="wetland" />
		<tag k="ssr:stedsnr" v="166658" />
	</node>
	<node id="-637339" lat="60.4656027784" lon="5.57274444727">
		<tag k="name" v="Halvardsuri" />
		<tag k="natural" v="scree" />
		<tag k="ssr:stedsnr" v="773629" />
	</node>
	<node id="-637335" lat="60.4859749999" lon="5.54139444392">
		<tag k="name" v="Kloppamyra" />
		<tag k="natural" v="wetland" />
		<tag k="ssr:stedsnr" v="773606" />
	</node>
	<node id="-636141" lat="60.4975944462" lon="5.50113333972">
		<tag k="name" v="Stormyra" />
		<tag k="natural" v="wetland" />
		<tag k="ssr:stedsnr" v="286466" />
	</node>
	<node id="-636938" lat="60.4657555595" lon="5.48597777997">
		<tag k="name" v="Årsmyra" />
		<tag k="natural" v="wetland" />
		<tag k="ssr:stedsnr" v="188961" />
	</node>
	<node id="-637189" lat="60.4969555587" lon="5.51469165863">
		<tag k="name" v="Austmyrane" />
		<tag k="natural" v="wetland" />
		<tag k="ssr:stedsnr" v="590457" />
	</node>
</osm>
