<?xml version="1.0" encoding="UTF-8"?>
<osm generator="osmapis" version="0.6">
	<node id="-845056" lat="63.8876888875" lon="9.92583333774">
		<tag k="name" v="Tiltremsveien" />
		<tag k="ssr:date" v="2019-05-30" />
		<tag k="ssr:gruppe" v="veg" />
		<tag k="ssr:hovedgruppe" v="infrastruktur" />
		<tag k="ssr:stedsnr" v="967824" />
		<tag k="ssr:type" v="adressenavn" />
	</node>
	<node id="-845183" lat="63.8442777792" lon="9.70645556161">
		<tag k="name" v="Halvardvegen" />
		<tag k="ssr:date" v="2018-01-09" />
		<tag k="ssr:gruppe" v="veg" />
		<tag k="ssr:hovedgruppe" v="infrastruktur" />
		<tag k="ssr:stedsnr" v="394745" />
		<tag k="ssr:type" v="vegstrekning" />
	</node>
	<node id="-844158" lat="63.8845339238" lon="9.87765430715">
		<tag k="name" v="Stubben" />
		<tag k="ssr:date" v="2019-05-30" />
		<tag k="ssr:gruppe" v="veg" />
		<tag k="ssr:hovedgruppe" v="infrastruktur" />
		<tag k="ssr:stedsnr" v="1020308" />
		<tag k="ssr:type" v="adressenavn" />
	</node>
	<node id="-844157" lat="63.8364816944" lon="9.50200374406">
		<tag k="name" v="Tryggholmen" />
		<tag k="ssr:date" v="2019-05-30" />
		<tag k="ssr:gruppe" v="veg" />
		<tag k="ssr:hovedgruppe" v="infrastruktur" />
		<tag k="ssr:stedsnr" v="1020317" />
		<tag k="ssr:type" v="adressenavn" />
	</node>
	<node id="-844156" lat="63.7565489515" lon="9.95219072568">
		<tag k="name" v="Steggakleiva" />
		<tag k="ssr:date" v="2019-05-30" />
		<tag k="ssr:gruppe" v="veg" />
		<tag k="ssr:hovedgruppe" v="infrastruktur" />
		<tag k="ssr:stedsnr" v="1020286" />
		<tag k="ssr:type" v="adressenavn" />
	</node>
	<node id="-844155" lat="63.8875412018" lon="9.79875104847">
		<tag k="name" v="Skjørøya" />
		<tag k="ssr:date" v="2019-05-30" />
		<tag k="ssr:gruppe" v="veg" />
		<tag k="ssr:hovedgruppe" v="infrastruktur" />
		<tag k="ssr:stedsnr" v="1020270" />
		<tag k="ssr:type" v="adressenavn" />
	</node>
	<node id="-845690" lat="63.8693833306" lon="9.74840000977">
		<tag k="name" v="Valsøya" />
		<tag k="ssr:date" v="2018-01-09" />
		<tag k="ssr:gruppe" v="veg" />
		<tag k="ssr:hovedgruppe" v="infrastruktur" />
		<tag k="ssr:stedsnr" v="181636" />
		<tag k="ssr:type" v="adressetilleggsnavn" />
	</node>
	<node id="-844159" lat="63.8700234155" lon="9.77637227305">
		<tag k="name" v="Tranøya" />
		<tag k="ssr:date" v="2019-05-30" />
		<tag k="ssr:gruppe" v="veg" />
		<tag k="ssr:hovedgruppe" v="infrastruktur" />
		<tag k="ssr:stedsnr" v="1020315" />
		<tag k="ssr:type" v="adressenavn" />
	</node>
	<node id="-844280" lat="63.8748305582" lon="9.75723888166">
		<tag k="alt_name" v="Valsøyøra lykt" />
		<tag k="loc_name" v="Valsøyråsa" />
		<tag k="name" v="Valsøyøra" />
		<tag k="ssr:date" v="2018-01-09" />
		<tag k="ssr:gruppe" v="navigasjon" />
		<tag k="ssr:hovedgruppe" v="infrastruktur" />
		<tag k="ssr:stedsnr" v="394614" />
		<tag k="ssr:type" v="fyrlykt" />
	</node>
	<node id="-844168" lat="63.7601366905" lon="9.8107018125">
		<tag k="name" v="Rasmus Ekkerskards vei" />
		<tag k="ssr:date" v="2019-05-30" />
		<tag k="ssr:gruppe" v="veg" />
		<tag k="ssr:hovedgruppe" v="infrastruktur" />
		<tag k="ssr:stedsnr" v="1020630" />
		<tag k="ssr:type" v="adressenavn" />
	</node>
	<node id="-845299" lat="63.862588885" lon="9.74970556495">
		<tag k="name" v="Vallersund gård" />
		<tag k="ssr:date" v="2018-01-09" />
		<tag k="ssr:gruppe" v="veg" />
		<tag k="ssr:hovedgruppe" v="infrastruktur" />
		<tag k="ssr:stedsnr" v="667593" />
		<tag k="ssr:type" v="adressetilleggsnavn" />
	</node>
	<node id="-845554" lat="63.7509305566" lon="9.71764166631">
		<tag k="name" v="Johan Persas vei" />
		<tag k="ssr:date" v="2019-05-30" />
		<tag k="ssr:gruppe" v="veg" />
		<tag k="ssr:hovedgruppe" v="infrastruktur" />
		<tag k="ssr:stedsnr" v="55845" />
		<tag k="ssr:type" v="adressenavn" />
	</node>
	<node id="-846691" lat="63.768655553" lon="9.80743888576">
		<tag k="name" v="Elglausfaret" />
		<tag k="ssr:date" v="2018-01-09" />
		<tag k="ssr:gruppe" v="veg" />
		<tag k="ssr:hovedgruppe" v="infrastruktur" />
		<tag k="ssr:stedsnr" v="880483" />
		<tag k="ssr:type" v="vegstrekning" />
	</node>
	<node id="-844654" lat="63.7556361076" lon="9.73340555026">
		<tag k="name" v="Høgvegen" />
		<tag k="ssr:date" v="2018-01-09" />
		<tag k="ssr:gruppe" v="veg" />
		<tag k="ssr:hovedgruppe" v="infrastruktur" />
		<tag k="ssr:stedsnr" v="576322" />
		<tag k="ssr:type" v="vegstrekning" />
	</node>
	<node id="-845677" lat="63.8964694478" lon="9.77663889339">
		<tag k="name" v="Treholmen" />
		<tag k="old_name" v="Treholmen lykt" />
		<tag k="ssr:date" v="2018-01-09" />
		<tag k="ssr:gruppe" v="navigasjon" />
		<tag k="ssr:hovedgruppe" v="infrastruktur" />
		<tag k="ssr:stedsnr" v="758682" />
		<tag k="ssr:type" v="fyrlykt" />
	</node>
	<node id="-846315" lat="63.903705555" lon="9.84862500856">
		<tag k="name" v="Skjelholmen" />
		<tag k="ssr:date" v="2018-01-09" />
		<tag k="ssr:gruppe" v="navigasjon" />
		<tag k="ssr:hovedgruppe" v="infrastruktur" />
		<tag k="ssr:stedsnr" v="455073" />
		<tag k="ssr:type" v="fyrlykt" />
	</node>
	<node id="-844264" lat="63.8762222245" lon="9.76280832334">
		<tag k="name" v="Svinøyflua" />
		<tag k="ssr:date" v="2018-01-09" />
		<tag k="ssr:gruppe" v="navigasjon" />
		<tag k="ssr:hovedgruppe" v="infrastruktur" />
		<tag k="ssr:stedsnr" v="394613" />
		<tag k="ssr:type" v="fyrlykt" />
	</node>
	<node id="-846439" lat="63.7596500038" lon="9.55106944653">
		<tag k="name" v="Bjugnskjæret" />
		<tag k="ssr:date" v="2018-01-09" />
		<tag k="ssr:gruppe" v="navigasjon" />
		<tag k="ssr:hovedgruppe" v="infrastruktur" />
		<tag k="ssr:stedsnr" v="74722" />
		<tag k="ssr:type" v="fyrlykt" />
	</node>
	<node id="-844753" lat="63.7652138847" lon="9.80940276944">
		<tag k="name" v="Bjugn kommune" />
		<tag k="ssr:date" v="2018-01-09" />
		<tag k="ssr:gruppe" v="administrativeIndelinger" />
		<tag k="ssr:hovedgruppe" v="offentligAdministrasjon" />
		<tag k="ssr:stedsnr" v="450119" />
		<tag k="ssr:type" v="kommune" />
	</node>
	<node id="-846563" lat="63.8122777759" lon="9.5826833313">
		<tag k="name" v="Valsholmflua" />
		<tag k="ssr:date" v="2018-01-09" />
		<tag k="ssr:gruppe" v="navigasjon" />
		<tag k="ssr:hovedgruppe" v="infrastruktur" />
		<tag k="ssr:stedsnr" v="406082" />
		<tag k="ssr:type" v="fyrlykt" />
	</node>
	<node id="-846050" lat="63.8568055548" lon="9.76804166786">
		<tag k="name" v="Fauskaskjæret" />
		<tag k="ssr:date" v="2018-01-09" />
		<tag k="ssr:gruppe" v="navigasjon" />
		<tag k="ssr:hovedgruppe" v="infrastruktur" />
		<tag k="ssr:stedsnr" v="394086" />
		<tag k="ssr:type" v="fyrlykt" />
	</node>
	<node id="-845382" lat="63.7524138889" lon="9.69494166607">
		<tag k="name" v="Nervikhammeren" />
		<tag k="old_name" v="Nerviklykta" />
		<tag k="ssr:date" v="2018-01-09" />
		<tag k="ssr:gruppe" v="navigasjon" />
		<tag k="ssr:hovedgruppe" v="infrastruktur" />
		<tag k="ssr:stedsnr" v="91411" />
		<tag k="ssr:type" v="fyrlykt" />
	</node>
	<node id="-846686" lat="63.9587888924" lon="9.54285278145">
		<tag k="name" v="Store Flatholmen" />
		<tag k="ssr:date" v="2018-01-09" />
		<tag k="ssr:gruppe" v="navigasjon" />
		<tag k="ssr:hovedgruppe" v="infrastruktur" />
		<tag k="ssr:stedsnr" v="819979" />
		<tag k="ssr:type" v="fyrlykt" />
	</node>
	<node id="-845405" lat="63.8866166627" lon="9.66518610788">
		<tag k="name" v="Rødgjæsingen" />
		<tag k="ssr:date" v="2018-01-09" />
		<tag k="ssr:gruppe" v="navigasjon" />
		<tag k="ssr:hovedgruppe" v="infrastruktur" />
		<tag k="ssr:stedsnr" v="576442" />
		<tag k="ssr:type" v="fyrlykt" />
	</node>
	<node id="-844378" lat="63.9104749965" lon="9.76948612053">
		<tag k="name" v="Oddtaren" />
		<tag k="ssr:date" v="2018-01-09" />
		<tag k="ssr:gruppe" v="navigasjon" />
		<tag k="ssr:hovedgruppe" v="infrastruktur" />
		<tag k="ssr:stedsnr" v="619634" />
		<tag k="ssr:type" v="fyrlykt" />
	</node>
	<node id="-844889" lat="63.8634472186" lon="9.96201667251">
		<tag k="name" v="Storvassvegen" />
		<tag k="ssr:date" v="2018-01-09" />
		<tag k="ssr:gruppe" v="veg" />
		<tag k="ssr:hovedgruppe" v="infrastruktur" />
		<tag k="ssr:stedsnr" v="151560" />
		<tag k="ssr:type" v="vegstrekning" />
	</node>
	<node id="-846423" lat="63.7580583341" lon="9.78744444377">
		<tag k="name" v="Sjøvegen" />
		<tag k="ssr:date" v="2018-01-09" />
		<tag k="ssr:gruppe" v="veg" />
		<tag k="ssr:hovedgruppe" v="infrastruktur" />
		<tag k="ssr:stedsnr" v="819482" />
		<tag k="ssr:type" v="vegstrekning" />
	</node>
	<node id="-844160" lat="63.8889376436" lon="9.86567571758">
		<tag k="name" v="Valvikveien" />
		<tag k="ssr:date" v="2019-05-30" />
		<tag k="ssr:gruppe" v="veg" />
		<tag k="ssr:hovedgruppe" v="infrastruktur" />
		<tag k="ssr:stedsnr" v="1020346" />
		<tag k="ssr:type" v="adressenavn" />
	</node>
	<node id="-846676" lat="63.9304111105" lon="9.78057778172">
		<tag k="name" v="Nauteflua" />
		<tag k="ssr:date" v="2018-01-09" />
		<tag k="ssr:gruppe" v="navigasjon" />
		<tag k="ssr:hovedgruppe" v="infrastruktur" />
		<tag k="ssr:stedsnr" v="758012" />
		<tag k="ssr:type" v="lanterne" />
	</node>
	<node id="-844229" lat="63.8885611106" lon="9.81053334204">
		<tag k="name" v="Skjørøya" />
		<tag k="ssr:date" v="2018-01-09" />
		<tag k="ssr:gruppe" v="navigasjon" />
		<tag k="ssr:hovedgruppe" v="infrastruktur" />
		<tag k="ssr:stedsnr" v="636519" />
		<tag k="ssr:type" v="fyrlykt" />
	</node>
	<node id="-845266" lat="63.8446750011" lon="9.73666111591">
		<tag k="name" v="Kvenngjerdet" />
		<tag k="ssr:date" v="2018-01-09" />
		<tag k="ssr:gruppe" v="veg" />
		<tag k="ssr:hovedgruppe" v="infrastruktur" />
		<tag k="ssr:stedsnr" v="667590" />
		<tag k="ssr:type" v="adressetilleggsnavn" />
	</node>
	<node id="-846627" lat="63.8100638907" lon="9.85020000944">
		<tag k="name" v="Nordskogvegen" />
		<tag k="ssr:date" v="2018-01-09" />
		<tag k="ssr:gruppe" v="veg" />
		<tag k="ssr:hovedgruppe" v="infrastruktur" />
		<tag k="ssr:stedsnr" v="758006" />
		<tag k="ssr:type" v="vegstrekning" />
	</node>
	<node id="-844752" lat="63.7666833366" lon="9.84932777743">
		<tag k="name" v="Steinvegen" />
		<tag k="ssr:date" v="2018-01-09" />
		<tag k="ssr:gruppe" v="veg" />
		<tag k="ssr:hovedgruppe" v="infrastruktur" />
		<tag k="ssr:stedsnr" v="576332" />
		<tag k="ssr:type" v="vegstrekning" />
	</node>
	<node id="-844258" lat="63.9323388909" lon="9.77094443958">
		<tag k="name" v="Nautsundet" />
		<tag k="ssr:date" v="2018-01-09" />
		<tag k="ssr:gruppe" v="navigasjon" />
		<tag k="ssr:hovedgruppe" v="infrastruktur" />
		<tag k="ssr:stedsnr" v="151028" />
		<tag k="ssr:type" v="lanterne" />
	</node>
	<node id="-846025" lat="63.769225003" lon="9.7772444517">
		<tag k="name" v="Valheivegen" />
		<tag k="ssr:date" v="2018-01-09" />
		<tag k="ssr:gruppe" v="veg" />
		<tag k="ssr:hovedgruppe" v="infrastruktur" />
		<tag k="ssr:stedsnr" v="394469" />
		<tag k="ssr:type" v="vegstrekning" />
	</node>
	<node id="-845411" lat="63.8650944429" lon="9.95143611735">
		<tag k="name" v="Melvassvegen" />
		<tag k="ssr:date" v="2018-01-09" />
		<tag k="ssr:gruppe" v="veg" />
		<tag k="ssr:hovedgruppe" v="infrastruktur" />
		<tag k="ssr:stedsnr" v="212552" />
		<tag k="ssr:type" v="vegstrekning" />
	</node>
	<node id="-846278" lat="63.7970361156" lon="9.57908055506">
		<tag k="name" v="Vettabåen" />
		<tag k="ssr:date" v="2018-01-09" />
		<tag k="ssr:gruppe" v="navigasjon" />
		<tag k="ssr:hovedgruppe" v="infrastruktur" />
		<tag k="ssr:stedsnr" v="334146" />
		<tag k="ssr:type" v="fyrlykt" />
	</node>
	<node id="-845153" lat="63.8718277808" lon="9.71913334019">
		<tag k="name" v="Kvaløya" />
		<tag k="ssr:date" v="2018-01-09" />
		<tag k="ssr:gruppe" v="navigasjon" />
		<tag k="ssr:hovedgruppe" v="infrastruktur" />
		<tag k="ssr:stedsnr" v="273675" />
		<tag k="ssr:type" v="fyrlykt" />
	</node>
	<node id="-844162" lat="63.8864189871" lon="9.83481948012">
		<tag k="name" v="Eidsbuktveien" />
		<tag k="ssr:date" v="2019-05-30" />
		<tag k="ssr:gruppe" v="veg" />
		<tag k="ssr:hovedgruppe" v="infrastruktur" />
		<tag k="ssr:stedsnr" v="1020431" />
		<tag k="ssr:type" v="adressenavn" />
	</node>
	<node id="-845121" lat="63.8136416658" lon="9.65474723183">
		<tag k="name" v="Valsfjorden" />
		<tag k="old_name" v="Valsfjorden lykt" />
		<tag k="ssr:date" v="2018-01-09" />
		<tag k="ssr:gruppe" v="navigasjon" />
		<tag k="ssr:hovedgruppe" v="infrastruktur" />
		<tag k="ssr:stedsnr" v="91791" />
		<tag k="ssr:type" v="fyrlykt" />
	</node>
	<node id="-846602" lat="63.830405557" lon="9.46441666302">
		<tag k="name" v="Kløvholmen" />
		<tag k="old_name" v="Klovhholmen lykt" />
		<tag k="ssr:date" v="2018-01-09" />
		<tag k="ssr:gruppe" v="navigasjon" />
		<tag k="ssr:hovedgruppe" v="infrastruktur" />
		<tag k="ssr:stedsnr" v="558715" />
		<tag k="ssr:type" v="fyrlykt" />
	</node>
	<node id="-846008" lat="63.8910888856" lon="9.87392778566">
		<tag k="fixme" v="multiple name tags, choose one and add the other to alt_name" />
		<tag k="name" v="Lysøysundet lykt;Lysøysundet" />
		<tag k="ssr:date" v="2018-01-09" />
		<tag k="ssr:gruppe" v="navigasjon" />
		<tag k="ssr:hovedgruppe" v="infrastruktur" />
		<tag k="ssr:stedsnr" v="576522" />
		<tag k="ssr:type" v="fyrlykt" />
	</node>
	<node id="-844170" lat="63.8435828848" lon="10.211674742">
		<tag k="name" v="Austdalsveien" />
		<tag k="ssr:date" v="2019-05-30" />
		<tag k="ssr:gruppe" v="veg" />
		<tag k="ssr:hovedgruppe" v="infrastruktur" />
		<tag k="ssr:stedsnr" v="1020925" />
		<tag k="ssr:type" v="adressenavn" />
	</node>
	<node id="-846767" lat="64.0144468016" lon="11.4818866293">
		<tag k="fixme" v="multiple name tags, choose one and add the other to alt_name" />
		<tag k="name" v="Trøndelag fylke - Trööndelage;Trööndelagen fylhke" />
		<tag k="name:no" v="Trøndelag fylke" />
		<tag k="name:sma" v="Trööndelage;Trööndelagen fylhke" />
		<tag k="ssr:date" v="2019-11-14" />
		<tag k="ssr:gruppe" v="administrativeIndelinger" />
		<tag k="ssr:hovedgruppe" v="offentligAdministrasjon" />
		<tag k="ssr:stedsnr" v="980645" />
		<tag k="ssr:type" v="fylke" />
	</node>
	<node id="-845101" lat="63.8104083301" lon="9.37428333013">
		<tag k="name" v="Tarva" />
		<tag k="ssr:date" v="2018-01-09" />
		<tag k="ssr:gruppe" v="navigasjon" />
		<tag k="ssr:hovedgruppe" v="infrastruktur" />
		<tag k="ssr:stedsnr" v="619690" />
		<tag k="ssr:type" v="fyrlykt" />
	</node>
	<node id="-846507" lat="63.7838166633" lon="9.54614999418">
		<tag k="name" v="Flutaren" />
		<tag k="ssr:date" v="2018-01-09" />
		<tag k="ssr:gruppe" v="navigasjon" />
		<tag k="ssr:hovedgruppe" v="infrastruktur" />
		<tag k="ssr:stedsnr" v="942226" />
		<tag k="ssr:type" v="fyrlykt" />
	</node>
	<node id="-844455" lat="63.7617777753" lon="9.76377500117">
		<tag k="name" v="Fabrikkvegen" />
		<tag k="ssr:date" v="2018-01-09" />
		<tag k="ssr:gruppe" v="veg" />
		<tag k="ssr:hovedgruppe" v="infrastruktur" />
		<tag k="ssr:stedsnr" v="151483" />
		<tag k="ssr:type" v="vegstrekning" />
	</node>
	<node id="-845859" lat="63.8432361153" lon="9.64716388639">
		<tag k="name" v="Kråktaren" />
		<tag k="ssr:date" v="2018-01-09" />
		<tag k="ssr:gruppe" v="navigasjon" />
		<tag k="ssr:hovedgruppe" v="infrastruktur" />
		<tag k="ssr:stedsnr" v="862661" />
		<tag k="ssr:type" v="fyrlykt" />
	</node>
	<node id="-845600" lat="63.7613388888" lon="9.45762221467">
		<tag k="name" v="Tørrskjæret" />
		<tag k="ssr:date" v="2018-01-09" />
		<tag k="ssr:gruppe" v="navigasjon" />
		<tag k="ssr:hovedgruppe" v="infrastruktur" />
		<tag k="ssr:stedsnr" v="680792" />
		<tag k="ssr:type" v="fyrlykt" />
	</node>
	<node id="-844831" lat="63.7699222227" lon="9.79315555261">
		<tag k="name" v="Ratdalsvegen" />
		<tag k="ssr:date" v="2018-01-09" />
		<tag k="ssr:gruppe" v="veg" />
		<tag k="ssr:hovedgruppe" v="infrastruktur" />
		<tag k="ssr:stedsnr" v="576348" />
		<tag k="ssr:type" v="vegstrekning" />
	</node>
	<node id="-845469" lat="63.9418987845" lon="9.77159101569">
		<tag k="name" v="Asenvågsøya fyr" />
		<tag k="ssr:date" v="2019-02-12" />
		<tag k="ssr:gruppe" v="navigasjon" />
		<tag k="ssr:hovedgruppe" v="infrastruktur" />
		<tag k="ssr:stedsnr" v="377533" />
		<tag k="ssr:type" v="fyrstasjon" />
	</node>
	<node id="-846484" lat="63.8402333313" lon="9.86050277557">
		<tag k="name" v="Audalsvegen" />
		<tag k="ssr:date" v="2018-01-09" />
		<tag k="ssr:gruppe" v="veg" />
		<tag k="ssr:hovedgruppe" v="infrastruktur" />
		<tag k="ssr:stedsnr" v="940552" />
		<tag k="ssr:type" v="vegstrekning" />
	</node>
	<node id="-844526" lat="63.7597944415" lon="9.76021667642">
		<tag k="name" v="Gammelvegen" />
		<tag k="ssr:date" v="2018-01-09" />
		<tag k="ssr:gruppe" v="veg" />
		<tag k="ssr:hovedgruppe" v="infrastruktur" />
		<tag k="ssr:stedsnr" v="30463" />
		<tag k="ssr:type" v="vegstrekning" />
	</node>
	<node id="-845327" lat="63.7954194469" lon="9.43361666053">
		<tag k="name" v="Fårøya" />
		<tag k="old_name" v="Farøy lykt;Fårøy" />
		<tag k="ssr:date" v="2018-01-09" />
		<tag k="ssr:gruppe" v="navigasjon" />
		<tag k="ssr:hovedgruppe" v="infrastruktur" />
		<tag k="ssr:stedsnr" v="515178" />
		<tag k="ssr:type" v="fyrlykt" />
	</node>
	<node id="-845710" lat="63.7523416625" lon="9.78003611811">
		<tag k="name" v="Frødalvegen" />
		<tag k="ssr:date" v="2018-01-09" />
		<tag k="ssr:gruppe" v="veg" />
		<tag k="ssr:hovedgruppe" v="infrastruktur" />
		<tag k="ssr:stedsnr" v="576469" />
		<tag k="ssr:type" v="vegstrekning" />
	</node>
	<node id="-844173" lat="63.7224252934" lon="9.80448120892">
		<tag k="name" v="Karlsengveien" />
		<tag k="ssr:date" v="2019-05-30" />
		<tag k="ssr:gruppe" v="veg" />
		<tag k="ssr:hovedgruppe" v="infrastruktur" />
		<tag k="ssr:stedsnr" v="1022623" />
		<tag k="ssr:type" v="adressenavn" />
	</node>
	<node id="-844172" lat="63.742231053" lon="9.69895420736">
		<tag k="name" v="Døsvikveien" />
		<tag k="ssr:date" v="2019-05-30" />
		<tag k="ssr:gruppe" v="veg" />
		<tag k="ssr:hovedgruppe" v="infrastruktur" />
		<tag k="ssr:stedsnr" v="1021580" />
		<tag k="ssr:type" v="adressenavn" />
	</node>
	<node id="-844171" lat="63.7559690228" lon="9.67223583316">
		<tag k="name" v="Bjugnholmen" />
		<tag k="ssr:date" v="2019-05-30" />
		<tag k="ssr:gruppe" v="veg" />
		<tag k="ssr:hovedgruppe" v="infrastruktur" />
		<tag k="ssr:stedsnr" v="1020940" />
		<tag k="ssr:type" v="adressenavn" />
	</node>
	<node id="-845834" lat="63.7596527804" lon="9.68576388795">
		<tag k="name" v="Skorven" />
		<tag k="ssr:date" v="2018-01-09" />
		<tag k="ssr:gruppe" v="navigasjon" />
		<tag k="ssr:hovedgruppe" v="infrastruktur" />
		<tag k="ssr:stedsnr" v="880366" />
		<tag k="ssr:type" v="fyrlykt" />
	</node>
	<node id="-844169" lat="63.938900599" lon="9.76856102338">
		<tag k="name" v="Asen" />
		<tag k="ssr:date" v="2019-05-30" />
		<tag k="ssr:gruppe" v="veg" />
		<tag k="ssr:hovedgruppe" v="infrastruktur" />
		<tag k="ssr:stedsnr" v="1020885" />
		<tag k="ssr:type" v="adressenavn" />
	</node>
	<node id="-846600" lat="63.8499111085" lon="9.69364721408">
		<tag k="name" v="Haldorhamn" />
		<tag k="ssr:date" v="2018-01-09" />
		<tag k="ssr:gruppe" v="navigasjon" />
		<tag k="ssr:hovedgruppe" v="infrastruktur" />
		<tag k="ssr:stedsnr" v="212747" />
		<tag k="ssr:type" v="fyrlykt" />
	</node>
	<node id="-844167" lat="63.8783809403" lon="9.80966508537">
		<tag k="name" v="Madsøya" />
		<tag k="ssr:date" v="2019-05-30" />
		<tag k="ssr:gruppe" v="veg" />
		<tag k="ssr:hovedgruppe" v="infrastruktur" />
		<tag k="ssr:stedsnr" v="1020591" />
		<tag k="ssr:type" v="adressenavn" />
	</node>
	<node id="-844166" lat="63.8136127051" lon="9.71180005681">
		<tag k="name" v="Karendamman" />
		<tag k="ssr:date" v="2019-05-30" />
		<tag k="ssr:gruppe" v="veg" />
		<tag k="ssr:hovedgruppe" v="infrastruktur" />
		<tag k="ssr:stedsnr" v="1020574" />
		<tag k="ssr:type" v="adressenavn" />
	</node>
	<node id="-844165" lat="63.8305521224" lon="9.8009959542">
		<tag k="name" v="Josopvikveien" />
		<tag k="ssr:date" v="2019-05-30" />
		<tag k="ssr:gruppe" v="veg" />
		<tag k="ssr:hovedgruppe" v="infrastruktur" />
		<tag k="ssr:stedsnr" v="1020544" />
		<tag k="ssr:type" v="adressenavn" />
	</node>
	<node id="-844164" lat="63.8528975411" lon="9.77727030176">
		<tag k="name" v="Hvilebergveien" />
		<tag k="ssr:date" v="2019-05-30" />
		<tag k="ssr:gruppe" v="veg" />
		<tag k="ssr:hovedgruppe" v="infrastruktur" />
		<tag k="ssr:stedsnr" v="1020533" />
		<tag k="ssr:type" v="adressenavn" />
	</node>
	<node id="-844163" lat="63.8043444047" lon="10.1644673417">
		<tag k="name" v="Høgsetåsstien" />
		<tag k="ssr:date" v="2019-05-30" />
		<tag k="ssr:gruppe" v="veg" />
		<tag k="ssr:hovedgruppe" v="infrastruktur" />
		<tag k="ssr:stedsnr" v="1020514" />
		<tag k="ssr:type" v="adressenavn" />
	</node>
	<node id="-845570" lat="63.8569638901" lon="9.85950276958">
		<tag k="name" v="Valen" />
		<tag k="ssr:date" v="2018-01-09" />
		<tag k="ssr:gruppe" v="veg" />
		<tag k="ssr:hovedgruppe" v="infrastruktur" />
		<tag k="ssr:stedsnr" v="545614" />
		<tag k="ssr:type" v="adressetilleggsnavn" />
	</node>
	<node id="-844161" lat="63.8841487184" lon="9.87159477016">
		<tag k="name" v="Flatabøenga" />
		<tag k="ssr:date" v="2019-05-30" />
		<tag k="ssr:gruppe" v="veg" />
		<tag k="ssr:hovedgruppe" v="infrastruktur" />
		<tag k="ssr:stedsnr" v="1020370" />
		<tag k="ssr:type" v="adressenavn" />
	</node>
</osm>
