<?xml version="1.0" encoding="UTF-8"?>
<osm version="0.6" generator="osmapis">
	<node lat="58.02951694010077" lon="7.700279885502321" id="-28849">
		<tag k="name" v="Nordre Vassøy" />
		<tag k="ssr:date" v="2021-06-08" />
		<tag k="ssr:gruppe" v="navigasjon" />
		<tag k="ssr:hovedgruppe" v="infrastruktur" />
		<tag k="ssr:stedsnr" v="61933" />
		<tag k="ssr:type" v="fyrlykt" />
	</node>
	<node lat="58.073936571401525" lon="7.803990760463768" id="-29050">
		<tag k="name" v="Nodeholmen" />
		<tag k="ssr:date" v="2021-06-08" />
		<tag k="ssr:gruppe" v="navigasjon" />
		<tag k="ssr:hovedgruppe" v="infrastruktur" />
		<tag k="ssr:stedsnr" v="105228" />
		<tag k="ssr:type" v="lanterne" />
	</node>
	<node lat="58.081380552722656" lon="8.08788611550547" id="-29298">
		<tag k="alt_name" v="Grønningen fyr" />
		<tag k="name" v="Grønningen" />
		<tag k="old_name" v="Grønningen Fyr" />
		<tag k="ssr:date" v="2019-12-27" />
		<tag k="ssr:gruppe" v="navigasjon" />
		<tag k="ssr:hovedgruppe" v="infrastruktur" />
		<tag k="ssr:stedsnr" v="182166" />
		<tag k="ssr:type" v="fyrstasjon" />
	</node>
	<node lat="58.10949999763933" lon="8.114083341404525" id="-29354">
		<tag k="name" v="Mannevikodden" />
		<tag k="old_name" v="Mannevigodden" />
		<tag k="ssr:date" v="2019-12-27" />
		<tag k="ssr:gruppe" v="navigasjon" />
		<tag k="ssr:hovedgruppe" v="infrastruktur" />
		<tag k="ssr:stedsnr" v="267165" />
		<tag k="ssr:type" v="fyrlykt" />
	</node>
	<node lat="58.114924997201385" lon="8.1022194462939" id="-29355">
		<tag k="name" v="Stokken" />
		<tag k="ssr:date" v="2019-12-27" />
		<tag k="ssr:gruppe" v="navigasjon" />
		<tag k="ssr:hovedgruppe" v="infrastruktur" />
		<tag k="ssr:stedsnr" v="267173" />
		<tag k="ssr:type" v="fyrlykt" />
	</node>
	<node lat="58.05077500423988" lon="7.832316669716469" id="-29957">
		<tag k="name" v="Ny-Hellesund" />
		<tag k="old_name" v="Ny Hellesund" />
		<tag k="ssr:date" v="2019-12-27" />
		<tag k="ssr:gruppe" v="navigasjon" />
		<tag k="ssr:hovedgruppe" v="infrastruktur" />
		<tag k="ssr:stedsnr" v="303321" />
		<tag k="ssr:type" v="fyrlykt" />
	</node>
	<node lat="58.09704557661051" lon="8.03443656251948" id="-30312">
		<tag k="name" v="Kinn" />
		<tag k="ssr:date" v="2020-09-03" />
		<tag k="ssr:gruppe" v="navigasjon" />
		<tag k="ssr:hovedgruppe" v="infrastruktur" />
		<tag k="ssr:stedsnr" v="364160" />
		<tag k="ssr:type" v="fyrlykt" />
	</node>
	<node lat="58.0722777810624" lon="8.052822223453655" id="-30313">
		<tag k="alt_name" v="Oksøy fyr" />
		<tag k="name" v="Oksøy" />
		<tag k="old_name" v="Oksøy Fyr" />
		<tag k="ssr:date" v="2019-12-27" />
		<tag k="ssr:gruppe" v="navigasjon" />
		<tag k="ssr:hovedgruppe" v="infrastruktur" />
		<tag k="ssr:stedsnr" v="364204" />
		<tag k="ssr:type" v="fyrstasjon" />
	</node>
	<node lat="58.12691090569893" lon="8.001395419998616" id="-30372">
		<tag k="name" v="Dybingen" />
		<tag k="ssr:date" v="2020-09-01" />
		<tag k="ssr:gruppe" v="navigasjon" />
		<tag k="ssr:hovedgruppe" v="infrastruktur" />
		<tag k="ssr:stedsnr" v="389395" />
		<tag k="ssr:type" v="lanterne" />
	</node>
	<node lat="58.11967499869206" lon="7.639794450872599" id="-31133">
		<tag k="name" v="Sløngane" />
		<tag k="ssr:date" v="2019-12-27" />
		<tag k="ssr:gruppe" v="veg" />
		<tag k="ssr:hovedgruppe" v="infrastruktur" />
		<tag k="ssr:stedsnr" v="688077" />
		<tag k="ssr:type" v="vegstrekning" />
	</node>
	<node lat="58.06322318499901" lon="7.866266424088939" id="-31845">
		<tag k="name" v="Herøya" />
		<tag k="old_name" v="Herøy;Herøya lykt" />
		<tag k="ssr:date" v="2020-09-03" />
		<tag k="ssr:gruppe" v="navigasjon" />
		<tag k="ssr:hovedgruppe" v="infrastruktur" />
		<tag k="ssr:stedsnr" v="667335" />
		<tag k="ssr:type" v="fyrlykt" />
	</node>
	<node lat="58.26534721997146" lon="8.121430561860356" id="-31991">
		<tag k="alt_name" v="Gaml.postvei" />
		<tag k="name" v="Gammel postvei" />
		<tag k="ssr:date" v="2019-12-27" />
		<tag k="ssr:gruppe" v="veg" />
		<tag k="ssr:hovedgruppe" v="infrastruktur" />
		<tag k="ssr:stedsnr" v="896193" />
		<tag k="ssr:type" v="vegstrekning" />
	</node>
	<node lat="58.015016528576055" lon="7.809772344076696" id="-32199">
		<tag k="alt_name" v="Songvår Fyr;Songvår fyr" />
		<tag k="name" v="Songvår" />
		<tag k="ssr:date" v="2019-12-27" />
		<tag k="ssr:gruppe" v="navigasjon" />
		<tag k="ssr:hovedgruppe" v="infrastruktur" />
		<tag k="ssr:stedsnr" v="728325" />
		<tag k="ssr:type" v="fyrstasjon" />
	</node>
	<node lat="58.07704939053175" lon="8.031400268452554" id="-32450">
		<tag k="loc_name" v="Senskjer lykt" />
		<tag k="name" v="Senskjer" />
		<tag k="ssr:date" v="2019-12-27" />
		<tag k="ssr:gruppe" v="navigasjon" />
		<tag k="ssr:hovedgruppe" v="infrastruktur" />
		<tag k="ssr:stedsnr" v="910185" />
		<tag k="ssr:type" v="fyrlykt" />
	</node>
	<node lat="58.131261947229646" lon="8.002157748564075" id="-32740">
		<tag k="name" v="Odderøya" />
		<tag k="old_name" v="Odderøya Fyr" />
		<tag k="ssr:date" v="2019-12-27" />
		<tag k="ssr:gruppe" v="navigasjon" />
		<tag k="ssr:hovedgruppe" v="infrastruktur" />
		<tag k="ssr:stedsnr" v="850237" />
		<tag k="ssr:type" v="fyrlykt" />
	</node>
	<node lat="58.11420735627004" lon="8.002216187368434" id="-33257">
		<tag k="name" v="Hestehaue" />
		<tag k="ssr:date" v="2019-12-27" />
		<tag k="ssr:gruppe" v="veg" />
		<tag k="ssr:hovedgruppe" v="infrastruktur" />
		<tag k="ssr:stedsnr" v="986000" />
		<tag k="ssr:type" v="adressenavn" />
	</node>
	<node lat="58.14060733569885" lon="8.043313261927395" id="-33258">
		<tag k="name" v="Hestholmen" />
		<tag k="ssr:date" v="2019-12-27" />
		<tag k="ssr:gruppe" v="veg" />
		<tag k="ssr:hovedgruppe" v="infrastruktur" />
		<tag k="ssr:stedsnr" v="986002" />
		<tag k="ssr:type" v="adressenavn" />
	</node>
	<node lat="58.09169887191406" lon="7.933654918038247" id="-33259">
		<tag k="name" v="Holskogkilen" />
		<tag k="ssr:date" v="2019-12-27" />
		<tag k="ssr:gruppe" v="veg" />
		<tag k="ssr:hovedgruppe" v="infrastruktur" />
		<tag k="ssr:stedsnr" v="986003" />
		<tag k="ssr:type" v="adressenavn" />
	</node>
	<node lat="58.123420386025074" lon="7.959141468578618" id="-33260">
		<tag k="name" v="Hovedgårdsstien" />
		<tag k="ssr:date" v="2019-12-27" />
		<tag k="ssr:gruppe" v="veg" />
		<tag k="ssr:hovedgruppe" v="infrastruktur" />
		<tag k="ssr:stedsnr" v="986004" />
		<tag k="ssr:type" v="adressenavn" />
	</node>
	<node lat="58.215179007629295" lon="8.06026974273572" id="-33261">
		<tag k="name" v="Hvalviga" />
		<tag k="ssr:date" v="2019-12-27" />
		<tag k="ssr:gruppe" v="veg" />
		<tag k="ssr:hovedgruppe" v="infrastruktur" />
		<tag k="ssr:stedsnr" v="986005" />
		<tag k="ssr:type" v="adressenavn" />
	</node>
	<node lat="58.134267764813686" lon="8.08646583150082" id="-33262">
		<tag k="name" v="Indre Fidjekilen" />
		<tag k="ssr:date" v="2019-12-27" />
		<tag k="ssr:gruppe" v="veg" />
		<tag k="ssr:hovedgruppe" v="infrastruktur" />
		<tag k="ssr:stedsnr" v="986007" />
		<tag k="ssr:type" v="adressenavn" />
	</node>
	<node lat="58.1009518402257" lon="8.106710645783386" id="-33263">
		<tag k="name" v="Indre Kalvøy" />
		<tag k="ssr:date" v="2019-12-27" />
		<tag k="ssr:gruppe" v="veg" />
		<tag k="ssr:hovedgruppe" v="infrastruktur" />
		<tag k="ssr:stedsnr" v="986008" />
		<tag k="ssr:type" v="adressenavn" />
	</node>
	<node lat="58.17417101280687" lon="8.108581699899933" id="-33264">
		<tag k="name" v="Juraveien" />
		<tag k="ssr:date" v="2019-12-27" />
		<tag k="ssr:gruppe" v="veg" />
		<tag k="ssr:hovedgruppe" v="infrastruktur" />
		<tag k="ssr:stedsnr" v="986017" />
		<tag k="ssr:type" v="adressenavn" />
	</node>
	<node lat="58.08400255476199" lon="8.028226029266493" id="-33265">
		<tag k="name" v="Langeskjær" />
		<tag k="ssr:date" v="2019-12-27" />
		<tag k="ssr:gruppe" v="veg" />
		<tag k="ssr:hovedgruppe" v="infrastruktur" />
		<tag k="ssr:stedsnr" v="986036" />
		<tag k="ssr:type" v="adressenavn" />
	</node>
	<node lat="58.121370108323035" lon="7.9935447328707205" id="-33266">
		<tag k="name" v="Langøya" />
		<tag k="ssr:date" v="2019-12-27" />
		<tag k="ssr:gruppe" v="veg" />
		<tag k="ssr:hovedgruppe" v="infrastruktur" />
		<tag k="ssr:stedsnr" v="986037" />
		<tag k="ssr:type" v="adressenavn" />
	</node>
	<node lat="58.19508422145254" lon="8.051580096195272" id="-33267">
		<tag k="name" v="Justnesøya" />
		<tag k="ssr:date" v="2019-12-27" />
		<tag k="ssr:gruppe" v="veg" />
		<tag k="ssr:hovedgruppe" v="infrastruktur" />
		<tag k="ssr:stedsnr" v="986020" />
		<tag k="ssr:type" v="adressenavn" />
	</node>
	<node lat="58.188342868293056" lon="8.050960289006625" id="-33268">
		<tag k="name" v="Kristofferholmen" />
		<tag k="ssr:date" v="2019-12-27" />
		<tag k="ssr:gruppe" v="veg" />
		<tag k="ssr:hovedgruppe" v="infrastruktur" />
		<tag k="ssr:stedsnr" v="986025" />
		<tag k="ssr:type" v="adressenavn" />
	</node>
	<node lat="58.07587141029737" lon="8.025615547364701" id="-33269">
		<tag k="name" v="Krossholmen" />
		<tag k="ssr:date" v="2019-12-27" />
		<tag k="ssr:gruppe" v="veg" />
		<tag k="ssr:hovedgruppe" v="infrastruktur" />
		<tag k="ssr:stedsnr" v="986028" />
		<tag k="ssr:type" v="adressenavn" />
	</node>
	<node lat="58.14231306706722" lon="8.050401765538878" id="-33270">
		<tag k="name" v="Fugleviksundet" />
		<tag k="ssr:date" v="2019-12-27" />
		<tag k="ssr:gruppe" v="veg" />
		<tag k="ssr:hovedgruppe" v="infrastruktur" />
		<tag k="ssr:stedsnr" v="985988" />
		<tag k="ssr:type" v="adressenavn" />
	</node>
	<node lat="58.084358855418905" lon="7.961788383515045" id="-33271">
		<tag k="name" v="Fosseholmane" />
		<tag k="ssr:date" v="2019-12-27" />
		<tag k="ssr:gruppe" v="veg" />
		<tag k="ssr:hovedgruppe" v="infrastruktur" />
		<tag k="ssr:stedsnr" v="985990" />
		<tag k="ssr:type" v="adressenavn" />
	</node>
	<node lat="58.122567158580445" lon="8.084439465542335" id="-33272">
		<tag k="name" v="Rabbersviga-Lamholmen" />
		<tag k="ssr:date" v="2019-12-27" />
		<tag k="ssr:gruppe" v="veg" />
		<tag k="ssr:hovedgruppe" v="infrastruktur" />
		<tag k="ssr:stedsnr" v="986033" />
		<tag k="ssr:type" v="adressenavn" />
	</node>
	<node lat="58.193375140283024" lon="8.058531960137836" id="-33273">
		<tag k="name" v="Børresholmen" />
		<tag k="ssr:date" v="2019-12-27" />
		<tag k="ssr:gruppe" v="veg" />
		<tag k="ssr:hovedgruppe" v="infrastruktur" />
		<tag k="ssr:stedsnr" v="985994" />
		<tag k="ssr:type" v="adressenavn" />
	</node>
	<node lat="58.11318086639333" lon="7.9363571057542375" id="-33274">
		<tag k="name" v="Bråvannsåsen" />
		<tag k="ssr:date" v="2019-12-27" />
		<tag k="ssr:gruppe" v="veg" />
		<tag k="ssr:hovedgruppe" v="infrastruktur" />
		<tag k="ssr:stedsnr" v="985995" />
		<tag k="ssr:type" v="adressenavn" />
	</node>
	<node lat="58.07227684958697" lon="8.052804464394585" id="-33275">
		<tag k="name" v="Oksøy" />
		<tag k="ssr:date" v="2019-12-27" />
		<tag k="ssr:gruppe" v="veg" />
		<tag k="ssr:hovedgruppe" v="infrastruktur" />
		<tag k="ssr:stedsnr" v="986054" />
		<tag k="ssr:type" v="adressenavn" />
	</node>
	<node lat="58.12051072433403" lon="7.983722839349802" id="-33276">
		<tag k="name" v="Bragdøya" />
		<tag k="ssr:date" v="2019-12-27" />
		<tag k="ssr:gruppe" v="veg" />
		<tag k="ssr:hovedgruppe" v="infrastruktur" />
		<tag k="ssr:stedsnr" v="985949" />
		<tag k="ssr:type" v="adressenavn" />
	</node>
	<node lat="58.102805894015404" lon="8.131945675798338" id="-33277">
		<tag k="name" v="Brattholmen" />
		<tag k="ssr:date" v="2019-12-27" />
		<tag k="ssr:gruppe" v="veg" />
		<tag k="ssr:hovedgruppe" v="infrastruktur" />
		<tag k="ssr:stedsnr" v="985950" />
		<tag k="ssr:type" v="adressenavn" />
	</node>
	<node lat="58.10614238466725" lon="8.060306281953318" id="-33278">
		<tag k="name" v="Dvergsøya" />
		<tag k="ssr:date" v="2019-12-27" />
		<tag k="ssr:gruppe" v="veg" />
		<tag k="ssr:hovedgruppe" v="infrastruktur" />
		<tag k="ssr:stedsnr" v="985968" />
		<tag k="ssr:type" v="adressenavn" />
	</node>
	<node lat="58.078577644158116" lon="7.808229421473977" id="-33279">
		<tag k="name" v="Verven" />
		<tag k="ssr:date" v="2019-12-27" />
		<tag k="ssr:gruppe" v="veg" />
		<tag k="ssr:hovedgruppe" v="infrastruktur" />
		<tag k="ssr:stedsnr" v="986846" />
		<tag k="ssr:type" v="adressenavn" />
	</node>
	<node lat="58.07257481710393" lon="7.6891076956232025" id="-33280">
		<tag k="name" v="Røsstad-Nodholmen" />
		<tag k="ssr:date" v="2019-12-27" />
		<tag k="ssr:gruppe" v="veg" />
		<tag k="ssr:hovedgruppe" v="infrastruktur" />
		<tag k="ssr:stedsnr" v="986946" />
		<tag k="ssr:type" v="adressenavn" />
	</node>
	<node lat="58.07038037667161" lon="7.691476790882944" id="-33281">
		<tag k="name" v="Røsstad-Urholmen" />
		<tag k="ssr:date" v="2019-12-27" />
		<tag k="ssr:gruppe" v="veg" />
		<tag k="ssr:hovedgruppe" v="infrastruktur" />
		<tag k="ssr:stedsnr" v="986947" />
		<tag k="ssr:type" v="adressenavn" />
	</node>
	<node lat="58.050003607030455" lon="7.715857782861559" id="-33282">
		<tag k="name" v="Salvesholmen" />
		<tag k="ssr:date" v="2019-12-27" />
		<tag k="ssr:gruppe" v="veg" />
		<tag k="ssr:hovedgruppe" v="infrastruktur" />
		<tag k="ssr:stedsnr" v="986951" />
		<tag k="ssr:type" v="adressenavn" />
	</node>
	<node lat="58.06202406547822" lon="7.797899752836999" id="-33283">
		<tag k="name" v="Sanketeinholmen" />
		<tag k="ssr:date" v="2019-12-27" />
		<tag k="ssr:gruppe" v="veg" />
		<tag k="ssr:hovedgruppe" v="infrastruktur" />
		<tag k="ssr:stedsnr" v="986952" />
		<tag k="ssr:type" v="adressenavn" />
	</node>
	<node lat="58.06388181758214" lon="7.792023590609125" id="-33284">
		<tag k="name" v="Simonsholmen" />
		<tag k="ssr:date" v="2019-12-27" />
		<tag k="ssr:gruppe" v="veg" />
		<tag k="ssr:hovedgruppe" v="infrastruktur" />
		<tag k="ssr:stedsnr" v="986953" />
		<tag k="ssr:type" v="adressenavn" />
	</node>
	<node lat="58.05446267826737" lon="7.814421121206533" id="-33285">
		<tag k="name" v="Skarpøya" />
		<tag k="ssr:date" v="2019-12-27" />
		<tag k="ssr:gruppe" v="veg" />
		<tag k="ssr:hovedgruppe" v="infrastruktur" />
		<tag k="ssr:stedsnr" v="986954" />
		<tag k="ssr:type" v="adressenavn" />
	</node>
	<node lat="58.0633061001185" lon="7.84124699043978" id="-33286">
		<tag k="name" v="Slåttholmen" />
		<tag k="ssr:date" v="2019-12-27" />
		<tag k="ssr:gruppe" v="veg" />
		<tag k="ssr:hovedgruppe" v="infrastruktur" />
		<tag k="ssr:stedsnr" v="986955" />
		<tag k="ssr:type" v="adressenavn" />
	</node>
	<node lat="58.06503037387706" lon="7.8206475858327495" id="-33287">
		<tag k="name" v="Stolkilen" />
		<tag k="ssr:date" v="2019-12-27" />
		<tag k="ssr:gruppe" v="veg" />
		<tag k="ssr:hovedgruppe" v="infrastruktur" />
		<tag k="ssr:stedsnr" v="986956" />
		<tag k="ssr:type" v="adressenavn" />
	</node>
	<node lat="58.071571717449046" lon="7.6893987678331825" id="-33288">
		<tag k="name" v="Storholmen" />
		<tag k="ssr:date" v="2019-12-27" />
		<tag k="ssr:gruppe" v="veg" />
		<tag k="ssr:hovedgruppe" v="infrastruktur" />
		<tag k="ssr:stedsnr" v="986957" />
		<tag k="ssr:type" v="adressenavn" />
	</node>
	<node lat="58.050049457414886" lon="7.713280747723724" id="-33289">
		<tag k="name" v="Stompesteinen" />
		<tag k="ssr:date" v="2019-12-27" />
		<tag k="ssr:gruppe" v="veg" />
		<tag k="ssr:hovedgruppe" v="infrastruktur" />
		<tag k="ssr:stedsnr" v="986958" />
		<tag k="ssr:type" v="adressenavn" />
	</node>
	<node lat="58.070645868363165" lon="7.753786639572753" id="-33290">
		<tag k="name" v="Støleholmen" />
		<tag k="ssr:date" v="2019-12-27" />
		<tag k="ssr:gruppe" v="veg" />
		<tag k="ssr:hovedgruppe" v="infrastruktur" />
		<tag k="ssr:stedsnr" v="986959" />
		<tag k="ssr:type" v="adressenavn" />
	</node>
	<node lat="58.070645868363165" lon="7.753786639572753" id="-33291">
		<tag k="name" v="Søndre Bastholmen" />
		<tag k="ssr:date" v="2019-12-27" />
		<tag k="ssr:gruppe" v="veg" />
		<tag k="ssr:hovedgruppe" v="infrastruktur" />
		<tag k="ssr:stedsnr" v="986960" />
		<tag k="ssr:type" v="adressenavn" />
	</node>
	<node lat="58.02543365633649" lon="7.68753125233768" id="-33292">
		<tag k="name" v="Søndre Vassøy" />
		<tag k="ssr:date" v="2019-12-27" />
		<tag k="ssr:gruppe" v="veg" />
		<tag k="ssr:hovedgruppe" v="infrastruktur" />
		<tag k="ssr:stedsnr" v="986961" />
		<tag k="ssr:type" v="adressenavn" />
	</node>
	<node lat="58.056836928585795" lon="7.788939921825539" id="-33293">
		<tag k="name" v="Sådøya" />
		<tag k="ssr:date" v="2019-12-27" />
		<tag k="ssr:gruppe" v="veg" />
		<tag k="ssr:hovedgruppe" v="infrastruktur" />
		<tag k="ssr:stedsnr" v="986962" />
		<tag k="ssr:type" v="adressenavn" />
	</node>
	<node lat="58.05113728606729" lon="7.767868442893232" id="-33294">
		<tag k="name" v="Torkelsholmen" />
		<tag k="ssr:date" v="2019-12-27" />
		<tag k="ssr:gruppe" v="veg" />
		<tag k="ssr:hovedgruppe" v="infrastruktur" />
		<tag k="ssr:stedsnr" v="986963" />
		<tag k="ssr:type" v="adressenavn" />
	</node>
	<node lat="58.05259330484142" lon="7.7670219317585" id="-33295">
		<tag k="name" v="Torvskjerholmen" />
		<tag k="ssr:date" v="2019-12-27" />
		<tag k="ssr:gruppe" v="veg" />
		<tag k="ssr:hovedgruppe" v="infrastruktur" />
		<tag k="ssr:stedsnr" v="986964" />
		<tag k="ssr:type" v="adressenavn" />
	</node>
	<node lat="58.05070514791684" lon="7.713274120331227" id="-33296">
		<tag k="name" v="Trysnes-Kjerkeholmen" />
		<tag k="ssr:date" v="2019-12-27" />
		<tag k="ssr:gruppe" v="veg" />
		<tag k="ssr:hovedgruppe" v="infrastruktur" />
		<tag k="ssr:stedsnr" v="986965" />
		<tag k="ssr:type" v="adressenavn" />
	</node>
	<node lat="58.05768829648816" lon="7.799163892044254" id="-33297">
		<tag k="name" v="Tyddeberholmen" />
		<tag k="ssr:date" v="2019-12-27" />
		<tag k="ssr:gruppe" v="veg" />
		<tag k="ssr:hovedgruppe" v="infrastruktur" />
		<tag k="ssr:stedsnr" v="986966" />
		<tag k="ssr:type" v="adressenavn" />
	</node>
	<node lat="58.0542337916005" lon="7.765745361498774" id="-33298">
		<tag k="name" v="Urholmen" />
		<tag k="ssr:date" v="2019-12-27" />
		<tag k="ssr:gruppe" v="veg" />
		<tag k="ssr:hovedgruppe" v="infrastruktur" />
		<tag k="ssr:stedsnr" v="986967" />
		<tag k="ssr:type" v="adressenavn" />
	</node>
	<node lat="58.01297947035056" lon="7.728761652378052" id="-33299">
		<tag k="name" v="Uvår" />
		<tag k="ssr:date" v="2019-12-27" />
		<tag k="ssr:gruppe" v="veg" />
		<tag k="ssr:hovedgruppe" v="infrastruktur" />
		<tag k="ssr:stedsnr" v="986968" />
		<tag k="ssr:type" v="adressenavn" />
	</node>
	<node lat="58.046063089063935" lon="7.778241749766964" id="-33300">
		<tag k="name" v="Vestre Brendøya" />
		<tag k="ssr:date" v="2019-12-27" />
		<tag k="ssr:gruppe" v="veg" />
		<tag k="ssr:hovedgruppe" v="infrastruktur" />
		<tag k="ssr:stedsnr" v="986969" />
		<tag k="ssr:type" v="adressenavn" />
	</node>
	<node lat="58.05814593010396" lon="7.739613602687949" id="-33301">
		<tag k="name" v="Vestre Kuholmen" />
		<tag k="ssr:date" v="2019-12-27" />
		<tag k="ssr:gruppe" v="veg" />
		<tag k="ssr:hovedgruppe" v="infrastruktur" />
		<tag k="ssr:stedsnr" v="986970" />
		<tag k="ssr:type" v="adressenavn" />
	</node>
	<node lat="58.057834125042945" lon="7.801294295333373" id="-33302">
		<tag k="name" v="Ydre Kjeøya" />
		<tag k="ssr:date" v="2019-12-27" />
		<tag k="ssr:gruppe" v="veg" />
		<tag k="ssr:hovedgruppe" v="infrastruktur" />
		<tag k="ssr:stedsnr" v="986971" />
		<tag k="ssr:type" v="adressenavn" />
	</node>
	<node lat="58.06776852050417" lon="7.757175503853706" id="-33303">
		<tag k="name" v="Hallandvik-Fladholmen" />
		<tag k="ssr:date" v="2019-12-27" />
		<tag k="ssr:gruppe" v="veg" />
		<tag k="ssr:hovedgruppe" v="infrastruktur" />
		<tag k="ssr:stedsnr" v="986906" />
		<tag k="ssr:type" v="adressenavn" />
	</node>
	<node lat="58.0608767020456" lon="7.743246057770663" id="-33304">
		<tag k="name" v="Greleholmen" />
		<tag k="ssr:date" v="2019-12-27" />
		<tag k="ssr:gruppe" v="veg" />
		<tag k="ssr:hovedgruppe" v="infrastruktur" />
		<tag k="ssr:stedsnr" v="986907" />
		<tag k="ssr:type" v="adressenavn" />
	</node>
	<node lat="58.106492420061755" lon="7.750618502229374" id="-33305">
		<tag k="name" v="Grønnvoll" />
		<tag k="ssr:date" v="2019-12-27" />
		<tag k="ssr:gruppe" v="veg" />
		<tag k="ssr:hovedgruppe" v="infrastruktur" />
		<tag k="ssr:stedsnr" v="986908" />
		<tag k="ssr:type" v="adressenavn" />
	</node>
	<node lat="58.05393451882078" lon="7.846904993508483" id="-33306">
		<tag k="name" v="Helgøya" />
		<tag k="ssr:date" v="2019-12-27" />
		<tag k="ssr:gruppe" v="veg" />
		<tag k="ssr:hovedgruppe" v="infrastruktur" />
		<tag k="ssr:stedsnr" v="986909" />
		<tag k="ssr:type" v="adressenavn" />
	</node>
	<node lat="58.057666964531535" lon="7.845428997250262" id="-33307">
		<tag k="name" v="Hellesunds-Nettholmen" />
		<tag k="ssr:date" v="2019-12-27" />
		<tag k="ssr:gruppe" v="veg" />
		<tag k="ssr:hovedgruppe" v="infrastruktur" />
		<tag k="ssr:stedsnr" v="986910" />
		<tag k="ssr:type" v="adressenavn" />
	</node>
	<node lat="58.059962963410236" lon="7.845032906652917" id="-33308">
		<tag k="name" v="Hellesunds-Urholmen" />
		<tag k="ssr:date" v="2019-12-27" />
		<tag k="ssr:gruppe" v="veg" />
		<tag k="ssr:hovedgruppe" v="infrastruktur" />
		<tag k="ssr:stedsnr" v="986911" />
		<tag k="ssr:type" v="adressenavn" />
	</node>
	<node lat="58.09149162803292" lon="7.6863613195901035" id="-33309">
		<tag k="name" v="Holmen-Salbustø" />
		<tag k="ssr:date" v="2019-12-27" />
		<tag k="ssr:gruppe" v="veg" />
		<tag k="ssr:hovedgruppe" v="infrastruktur" />
		<tag k="ssr:stedsnr" v="986912" />
		<tag k="ssr:type" v="adressenavn" />
	</node>
	<node lat="58.06384348720856" lon="7.687376706549477" id="-33310">
		<tag k="name" v="Hummervigholmen" />
		<tag k="ssr:date" v="2019-12-27" />
		<tag k="ssr:gruppe" v="veg" />
		<tag k="ssr:hovedgruppe" v="infrastruktur" />
		<tag k="ssr:stedsnr" v="986913" />
		<tag k="ssr:type" v="adressenavn" />
	</node>
	<node lat="58.0524361811079" lon="7.725513575446964" id="-33311">
		<tag k="name" v="Indre Tydille" />
		<tag k="ssr:date" v="2019-12-27" />
		<tag k="ssr:gruppe" v="veg" />
		<tag k="ssr:hovedgruppe" v="infrastruktur" />
		<tag k="ssr:stedsnr" v="986916" />
		<tag k="ssr:type" v="adressenavn" />
	</node>
	<node lat="58.16283254982667" lon="8.018837170472308" id="-33312">
		<tag k="name" v="Bjørndalsjordet" />
		<tag k="ssr:date" v="2019-12-27" />
		<tag k="ssr:gruppe" v="veg" />
		<tag k="ssr:hovedgruppe" v="infrastruktur" />
		<tag k="ssr:stedsnr" v="987359" />
		<tag k="ssr:type" v="adressenavn" />
	</node>
	<node lat="58.17739131921753" lon="8.119604006012382" id="-33313">
		<tag k="name" v="Barselheia" />
		<tag k="ssr:date" v="2019-12-27" />
		<tag k="ssr:gruppe" v="veg" />
		<tag k="ssr:hovedgruppe" v="infrastruktur" />
		<tag k="ssr:stedsnr" v="987374" />
		<tag k="ssr:type" v="adressenavn" />
	</node>
	<node lat="58.05157489520819" lon="7.838322767791471" id="-33314">
		<tag k="name" v="Kapelløya" />
		<tag k="ssr:date" v="2019-12-27" />
		<tag k="ssr:gruppe" v="veg" />
		<tag k="ssr:hovedgruppe" v="infrastruktur" />
		<tag k="ssr:stedsnr" v="988425" />
		<tag k="ssr:type" v="adressenavn" />
	</node>
	<node lat="58.070551858521" lon="7.863813621167946" id="-33315">
		<tag k="name" v="Dybingholmen" />
		<tag k="ssr:date" v="2019-12-27" />
		<tag k="ssr:gruppe" v="veg" />
		<tag k="ssr:hovedgruppe" v="infrastruktur" />
		<tag k="ssr:stedsnr" v="988471" />
		<tag k="ssr:type" v="adressenavn" />
	</node>
	<node lat="58.05767425733593" lon="7.866239159307195" id="-33316">
		<tag k="name" v="Indre Hellersøya" />
		<tag k="ssr:date" v="2019-12-27" />
		<tag k="ssr:gruppe" v="veg" />
		<tag k="ssr:hovedgruppe" v="infrastruktur" />
		<tag k="ssr:stedsnr" v="988472" />
		<tag k="ssr:type" v="adressenavn" />
	</node>
	<node lat="58.04866629777745" lon="7.786505559652783" id="-33317">
		<tag k="name" v="Østre Brendøya" />
		<tag k="ssr:date" v="2019-12-27" />
		<tag k="ssr:gruppe" v="veg" />
		<tag k="ssr:hovedgruppe" v="infrastruktur" />
		<tag k="ssr:stedsnr" v="988473" />
		<tag k="ssr:type" v="adressenavn" />
	</node>
	<node lat="58.060079268734604" lon="7.739816669086023" id="-33318">
		<tag k="name" v="Massesholmen" />
		<tag k="ssr:date" v="2019-12-27" />
		<tag k="ssr:gruppe" v="veg" />
		<tag k="ssr:hovedgruppe" v="infrastruktur" />
		<tag k="ssr:stedsnr" v="988474" />
		<tag k="ssr:type" v="adressenavn" />
	</node>
</osm>
