<?xml version="1.0" encoding="UTF-8"?>
<osm generator="osmapis" version="0.6">
	<node id="-81920" lat="63.0180138858" lon="9.04131666763">
		<tag k="name" v="Storbekken" />
		<tag k="ssr:stedsnr" v="217674" />
		<tag k="waterway" v="stream" />
	</node>
	<node id="-83967" lat="63.013280558" lon="9.01492778643">
		<tag k="name" v="Kvennabekken" />
		<tag k="ssr:stedsnr" v="884515" />
		<tag k="waterway" v="stream" />
	</node>
	<node id="-81918" lat="62.9934111105" lon="8.34567500895">
		<tag k="name" v="Stakkstilibekken" />
		<tag k="ssr:stedsnr" v="217656" />
		<tag k="waterway" v="stream" />
	</node>
	<node id="-81915" lat="62.9844388921" lon="8.54987499765">
		<tag k="name" v="Fåtjønnmyra" />
		<tag k="natural" v="bay" />
		<tag k="ssr:stedsnr" v="217440" />
	</node>
	<node id="-83962" lat="63.0138305582" lon="9.06085832818">
		<tag k="name" v="Kaldgrova" />
		<tag k="ssr:stedsnr" v="884656" />
		<tag k="waterway" v="stream" />
	</node>
	<node id="-83955" lat="62.8308499986" lon="8.70847499279">
		<tag k="name" v="Seterbekken" />
		<tag k="ssr:stedsnr" v="884406" />
		<tag k="waterway" v="stream" />
	</node>
	<node id="-83945" lat="62.8056861149" lon="8.75858056339">
		<tag k="name" v="Skrøåbekken" />
		<tag k="ssr:stedsnr" v="884211" />
		<tag k="waterway" v="stream" />
	</node>
	<node id="-83941" lat="63.0372027804" lon="8.64154445263">
		<tag k="name" v="Sæterbøøyane" />
		<tag k="place" v="island" />
		<tag k="ssr:stedsnr" v="884125" />
	</node>
	<node id="-83963" lat="63.0157805544" lon="9.05094722883">
		<tag k="name" v="Kritbekken" />
		<tag k="ssr:stedsnr" v="884657" />
		<tag k="waterway" v="stream" />
	</node>
	<node id="-83936" lat="63.027949999" lon="8.64276666725">
		<tag k="name" v="Skjørkleivfossen" />
		<tag k="natural" v="waterfall" />
		<tag k="ssr:stedsnr" v="884110" />
	</node>
	<node id="-83935" lat="63.0823861082" lon="8.74708611695">
		<tag k="name" v="Reinvassbekken" />
		<tag k="ssr:stedsnr" v="884108" />
		<tag k="waterway" v="stream" />
	</node>
	<node id="-83934" lat="63.0659138901" lon="8.73402777003">
		<tag k="name" v="Storbekken" />
		<tag k="ssr:stedsnr" v="884105" />
		<tag k="waterway" v="river" />
	</node>
	<node id="-83933" lat="62.84592778" lon="9.11039167189">
		<tag k="name" v="Snotvatnet" />
		<tag k="natural" v="water" />
		<tag k="ssr:stedsnr" v="874313" />
	</node>
	<node id="-83928" lat="62.9242444437" lon="8.92454166293">
		<tag k="name" v="Langøydalsvatnet" />
		<tag k="natural" v="water" />
		<tag k="ssr:stedsnr" v="874076" />
		<tag k="water" v="lake" />
	</node>
	<node id="-83920" lat="63.0876666649" lon="8.79818333747">
		<tag k="name" v="Tverrdalsbekken" />
		<tag k="ssr:stedsnr" v="945994" />
		<tag k="waterway" v="stream" />
	</node>
	<node id="-83919" lat="63.1100499974" lon="8.83978611475">
		<tag k="name" v="Skjortbekken" />
		<tag k="ssr:stedsnr" v="945993" />
		<tag k="waterway" v="stream" />
	</node>
	<node id="-83907" lat="62.9735722215" lon="8.66887777741">
		<tag k="name" v="Omfløddøra" />
		<tag k="place" v="island" />
		<tag k="ssr:stedsnr" v="945910" />
	</node>
	<node id="-83905" lat="63.0972222267" lon="8.94420555755">
		<tag k="name" v="Botnbekken" />
		<tag k="ssr:stedsnr" v="945906" />
		<tag k="waterway" v="stream" />
	</node>
	<node id="-83904" lat="63.0746361074" lon="8.91152500953">
		<tag k="name" v="Kroktjønnbekken" />
		<tag k="ssr:stedsnr" v="945904" />
		<tag k="waterway" v="stream" />
	</node>
	<node id="-83901" lat="63.0520416682" lon="8.9444861149">
		<tag k="name" v="Rundtjønna" />
		<tag k="natural" v="water" />
		<tag k="ssr:stedsnr" v="945888" />
	</node>
	<node id="-83900" lat="63.0494833299" lon="8.95533333735">
		<tag k="name" v="Vaulhaugbukta" />
		<tag k="natural" v="bay" />
		<tag k="ssr:stedsnr" v="945881" />
	</node>
	<node id="-83899" lat="63.0471861073" lon="8.96707778615">
		<tag k="name" v="Svartvatnet" />
		<tag k="natural" v="water" />
		<tag k="ssr:stedsnr" v="945878" />
		<tag k="water" v="lake" />
	</node>
	<node id="-83893" lat="62.9907499983" lon="8.86550000979">
		<tag k="name" v="Nygardshølen" />
		<tag k="place" v="locality" />
		<tag k="ssr:stedsnr" v="945852" />
	</node>
	<node id="-83885" lat="62.9403694448" lon="8.79247222968">
		<tag k="name" v="Tågbekken" />
		<tag k="ssr:stedsnr" v="945809" />
		<tag k="waterway" v="stream" />
	</node>
	<node id="-83881" lat="62.9362333313" lon="8.97631111583">
		<tag k="name" v="Korporalbekken" />
		<tag k="ssr:stedsnr" v="945781" />
		<tag k="waterway" v="stream" />
	</node>
	<node id="-83878" lat="63.036191664" lon="8.88437777918">
		<tag k="name" v="Andersbekken" />
		<tag k="ssr:stedsnr" v="945769" />
		<tag k="waterway" v="stream" />
	</node>
	<node id="-83870" lat="62.9529666666" lon="8.48830277355">
		<tag k="name" v="Tunga" />
		<tag k="natural" v="cape" />
		<tag k="ssr:stedsnr" v="945719" />
	</node>
	<node id="-82650" lat="62.9748999959" lon="8.47299721284">
		<tag k="name" v="Vikabekken" />
		<tag k="ssr:stedsnr" v="460351" />
		<tag k="waterway" v="stream" />
	</node>
	<node id="-83862" lat="63.0104499988" lon="9.02357778291">
		<tag k="name" v="Omkløvhølen" />
		<tag k="place" v="locality" />
		<tag k="ssr:stedsnr" v="945663" />
	</node>
	<node id="-83858" lat="63.0134666628" lon="8.308497221">
		<tag k="name" v="Nessabekken" />
		<tag k="ssr:stedsnr" v="945621" />
		<tag k="waterway" v="stream" />
	</node>
	<node id="-83854" lat="62.9963527817" lon="8.93235555415">
		<tag k="name" v="Gardshølen" />
		<tag k="place" v="locality" />
		<tag k="ssr:stedsnr" v="945556" />
	</node>
	<node id="-83845" lat="63.0166916666" lon="9.09652777115">
		<tag k="name" v="Leirbekken" />
		<tag k="ssr:stedsnr" v="945482" />
		<tag k="waterway" v="stream" />
	</node>
	<node id="-83844" lat="62.8710555549" lon="9.20368889838">
		<tag k="name" v="Seterbekken" />
		<tag k="ssr:stedsnr" v="945466" />
		<tag k="waterway" v="stream" />
	</node>
	<node id="-83843" lat="62.9884666674" lon="9.03138889702">
		<tag k="name" v="Lomtjønna" />
		<tag k="natural" v="water" />
		<tag k="ssr:stedsnr" v="945462" />
	</node>
	<node id="-83841" lat="62.9308277762" lon="9.12493055061">
		<tag k="name" v="Gråsjødammen" />
		<tag k="ssr:stedsnr" v="945433" />
		<tag k="waterway" v="dam" />
	</node>
	<node id="-83832" lat="62.9245388884" lon="8.6632305525">
		<tag k="name" v="Grytbekken" />
		<tag k="ssr:stedsnr" v="945389" />
		<tag k="waterway" v="stream" />
	</node>
	<node id="-83831" lat="62.9134138914" lon="8.61389167036">
		<tag k="name" v="Kvennabekken" />
		<tag k="ssr:stedsnr" v="945382" />
		<tag k="waterway" v="stream" />
	</node>
	<node id="-83824" lat="63.0601027794" lon="8.74736666304">
		<tag k="name" v="Ratøya" />
		<tag k="place" v="island" />
		<tag k="ssr:stedsnr" v="945357" />
	</node>
	<node id="-83813" lat="62.7463583378" lon="8.90995278693">
		<tag k="name" v="Nør Fallbekken" />
		<tag k="ssr:stedsnr" v="945288" />
		<tag k="waterway" v="river" />
	</node>
	<node id="-83807" lat="62.9404138922" lon="8.48929444437">
		<tag k="name" v="Kistevatnet" />
		<tag k="natural" v="water" />
		<tag k="ssr:stedsnr" v="945270" />
	</node>
	<node id="-83805" lat="62.7823861088" lon="8.8591138837">
		<tag k="name" v="Berauholmen" />
		<tag k="place" v="islet" />
		<tag k="ssr:stedsnr" v="945265" />
	</node>
	<node id="-83795" lat="63.0566333357" lon="8.9511361035">
		<tag k="name" v="Øya" />
		<tag k="natural" v="cape" />
		<tag k="ssr:stedsnr" v="945177" />
	</node>
	<node id="-83786" lat="62.9795027747" lon="8.93274167421">
		<tag k="name" v="Sprenå" />
		<tag k="ssr:stedsnr" v="945138" />
		<tag k="waterway" v="stream" />
	</node>
	<node id="-83784" lat="63.0176055549" lon="8.29037778477">
		<tag k="name" v="Tunga" />
		<tag k="natural" v="cape" />
		<tag k="ssr:stedsnr" v="945124" />
	</node>
	<node id="-83937" lat="63.0262416685" lon="8.6628027682">
		<tag k="name" v="Hopslættbekken" />
		<tag k="ssr:stedsnr" v="884114" />
		<tag k="waterway" v="stream" />
	</node>
	<node id="-83780" lat="63.0236611067" lon="8.68380833114">
		<tag k="name" v="Dalabekken" />
		<tag k="ssr:stedsnr" v="945098" />
		<tag k="waterway" v="stream" />
	</node>
	<node id="-83776" lat="62.9019805518" lon="8.62434999559">
		<tag k="name" v="Hauafossen" />
		<tag k="natural" v="waterfall" />
		<tag k="ssr:stedsnr" v="945066" />
	</node>
	<node id="-83774" lat="62.8122749973" lon="8.70501111252">
		<tag k="name" v="Gunnøya" />
		<tag k="place" v="island" />
		<tag k="ssr:stedsnr" v="945063" />
	</node>
	<node id="-83768" lat="62.8960555566" lon="9.24037777639">
		<tag k="name" v="Støggubekken" />
		<tag k="ssr:stedsnr" v="862218" />
		<tag k="waterway" v="river" />
	</node>
	<node id="-83754" lat="62.8939416666" lon="8.57292776799">
		<tag k="name" v="Farlleghølen" />
		<tag k="place" v="locality" />
		<tag k="ssr:stedsnr" v="944068" />
	</node>
	<node id="-83750" lat="63.0976027821" lon="8.89338055459">
		<tag k="name" v="Ytrebekken" />
		<tag k="ssr:stedsnr" v="216964" />
		<tag k="waterway" v="river" />
	</node>
	<node id="-83747" lat="63.044944444" lon="8.91102222913">
		<tag k="name" v="Austre Damtjønna" />
		<tag k="natural" v="water" />
		<tag k="ssr:stedsnr" v="935847" />
	</node>
	<node id="-83746" lat="62.921844445" lon="9.21658610326">
		<tag k="name" v="Ringbekkvatnet" />
		<tag k="natural" v="water" />
		<tag k="ssr:stedsnr" v="935333" />
		<tag k="water" v="lake" />
	</node>
	<node id="-83744" lat="63.0213611079" lon="8.73991944825">
		<tag k="name" v="Svartvatnet" />
		<tag k="natural" v="water" />
		<tag k="ssr:stedsnr" v="935245" />
	</node>
	<node id="-83740" lat="62.9034194487" lon="8.94085000285">
		<tag k="name" v="Litlfauskåvatnet" />
		<tag k="natural" v="water" />
		<tag k="ssr:stedsnr" v="934072" />
	</node>
	<node id="-83738" lat="62.818483331" lon="8.77797222235">
		<tag k="name" v="Litlvatnet" />
		<tag k="natural" v="water" />
		<tag k="ssr:stedsnr" v="934046" />
	</node>
	<node id="-83731" lat="62.9697305531" lon="8.68713611802">
		<tag k="name" v="Husabekken" />
		<tag k="ssr:stedsnr" v="824919" />
		<tag k="waterway" v="stream" />
	</node>
	<node id="-83717" lat="62.9458694408" lon="8.47698888461">
		<tag k="name" v="Osplibekken" />
		<tag k="ssr:stedsnr" v="824313" />
		<tag k="waterway" v="stream" />
	</node>
	<node id="-83712" lat="62.9865777799" lon="9.07033611431">
		<tag k="name" v="Småvatna" />
		<tag k="natural" v="water" />
		<tag k="ssr:stedsnr" v="824205" />
	</node>
	<node id="-83710" lat="62.9950500028" lon="8.76617499429">
		<tag k="name" v="Bergåa" />
		<tag k="ssr:stedsnr" v="824017" />
		<tag k="waterway" v="stream" />
	</node>
	<node id="-83708" lat="63.1008361131" lon="8.89980555163">
		<tag k="name" v="Austrebekken" />
		<tag k="ssr:stedsnr" v="823968" />
		<tag k="waterway" v="river" />
	</node>
	<node id="-83707" lat="63.1059749978" lon="8.92484166663">
		<tag k="name" v="Storslættbekken" />
		<tag k="ssr:stedsnr" v="823964" />
		<tag k="waterway" v="stream" />
	</node>
	<node id="-83706" lat="63.1134694452" lon="8.82571111772">
		<tag k="name" v="Vassdalsbekken" />
		<tag k="ssr:stedsnr" v="823956" />
		<tag k="waterway" v="stream" />
	</node>
	<node id="-83705" lat="63.1000722197" lon="8.87761944271">
		<tag k="name" v="Lomtjønna" />
		<tag k="natural" v="water" />
		<tag k="ssr:stedsnr" v="823926" />
	</node>
	<node id="-83699" lat="62.9358250007" lon="8.97590834288">
		<tag k="name" v="Korporalkilen" />
		<tag k="natural" v="cape" />
		<tag k="ssr:stedsnr" v="823765" />
	</node>
	<node id="-83697" lat="63.0442944418" lon="9.0809722313">
		<tag k="name" v="Litl-Svorkavatnet" />
		<tag k="natural" v="water" />
		<tag k="ssr:stedsnr" v="823708" />
	</node>
	<node id="-83695" lat="62.9839527799" lon="8.82881388204">
		<tag k="name" v="Honnstadfossen" />
		<tag k="natural" v="waterfall" />
		<tag k="ssr:stedsnr" v="823820" />
	</node>
	<node id="-83694" lat="62.9885277777" lon="8.87608333111">
		<tag k="name" v="Sagbekken" />
		<tag k="ssr:stedsnr" v="823815" />
		<tag k="waterway" v="stream" />
	</node>
	<node id="-83691" lat="62.9709166646" lon="8.95607500957">
		<tag k="name" v="Velterbekken" />
		<tag k="ssr:stedsnr" v="823457" />
		<tag k="waterway" v="stream" />
	</node>
	<node id="-83690" lat="62.9936722196" lon="8.93992777397">
		<tag k="name" v="Fergemannshølen" />
		<tag k="place" v="locality" />
		<tag k="ssr:stedsnr" v="823570" />
	</node>
	<node id="-83687" lat="63.0134916672" lon="8.95995000886">
		<tag k="name" v="Grytsættbekken" />
		<tag k="ssr:stedsnr" v="823520" />
		<tag k="waterway" v="stream" />
	</node>
	<node id="-83683" lat="62.8148388919" lon="8.83465833884">
		<tag k="name" v="Tjørhjellivatnet" />
		<tag k="natural" v="water" />
		<tag k="ssr:stedsnr" v="823264" />
	</node>
	<node id="-83670" lat="62.9008777767" lon="8.50336666315">
		<tag k="name" v="Reitbekken" />
		<tag k="ssr:stedsnr" v="823077" />
		<tag k="waterway" v="stream" />
	</node>
	<node id="-83667" lat="63.0629000003" lon="8.9669444396">
		<tag k="name" v="Vaultjønna" />
		<tag k="natural" v="water" />
		<tag k="ssr:stedsnr" v="216900" />
	</node>
	<node id="-83663" lat="62.9828722217" lon="8.68334445262">
		<tag k="name" v="Gammelelva" />
		<tag k="ssr:stedsnr" v="811915" />
		<tag k="waterway" v="stream" />
	</node>
	<node id="-83662" lat="63.0245222224" lon="8.52878610957">
		<tag k="name" v="Beleelva" />
		<tag k="ssr:stedsnr" v="801840" />
		<tag k="waterway" v="stream" />
	</node>
	<node id="-83659" lat="63.0336388893" lon="8.36478056331">
		<tag k="name" v="Skrøvsetvatnet" />
		<tag k="natural" v="water" />
		<tag k="ssr:stedsnr" v="801814" />
	</node>
	<node id="-83658" lat="62.9820722243" lon="9.05354723097">
		<tag k="name" v="Svartvatnet" />
		<tag k="natural" v="water" />
		<tag k="old_name" v="Råslettjørna;Råslettjønna" />
		<tag k="ssr:stedsnr" v="801429" />
	</node>
	<node id="-83657" lat="62.8149916693" lon="8.66848889049">
		<tag k="name" v="Ytteråa" />
		<tag k="ssr:stedsnr" v="801420" />
		<tag k="waterway" v="stream" />
	</node>
	<node id="-83656" lat="62.7727499997" lon="8.85622221567">
		<tag k="alt_name" v="Inner Myrøkja" />
		<tag k="name" v="Myrøkja" />
		<tag k="ssr:stedsnr" v="801155" />
		<tag k="waterway" v="stream" />
	</node>
	<node id="-83653" lat="62.8546111121" lon="8.90359999712">
		<tag k="name" v="Nordåbotnvatna" />
		<tag k="natural" v="water" />
		<tag k="ssr:stedsnr" v="801020" />
		<tag k="water" v="lake" />
	</node>
	<node id="-83642" lat="62.8707555539" lon="9.00079999829">
		<tag k="name" v="Fagerlidalsbekken" />
		<tag k="ssr:stedsnr" v="923023" />
		<tag k="waterway" v="river" />
	</node>
	<node id="-83636" lat="63.0241999963" lon="8.32125833649">
		<tag k="name" v="Heggemselva" />
		<tag k="ssr:stedsnr" v="922818" />
		<tag k="waterway" v="stream" />
	</node>
	<node id="-82206" lat="63.0835527819" lon="8.78341945382">
		<tag k="name" v="Høgfjelltjønna" />
		<tag k="natural" v="water" />
		<tag k="ssr:stedsnr" v="277947" />
	</node>
	<node id="-83633" lat="63.0430722262" lon="8.48921944919">
		<tag k="name" v="Almbekkvatnet" />
		<tag k="natural" v="water" />
		<tag k="ssr:stedsnr" v="922788" />
	</node>
	<node id="-83625" lat="63.0193750033" lon="8.8266833402">
		<tag k="name" v="Hommelstadvatnet" />
		<tag k="natural" v="water" />
		<tag k="ssr:stedsnr" v="922659" />
	</node>
	<node id="-83619" lat="63.062049999" lon="9.08956112035">
		<tag k="name" v="Litlgrytvatnet" />
		<tag k="natural" v="water" />
		<tag k="ssr:stedsnr" v="922627" />
	</node>
	<node id="-83616" lat="62.9584027805" lon="9.00139999092">
		<tag k="name" v="Harangsdalbekken" />
		<tag k="ssr:stedsnr" v="922412" />
		<tag k="waterway" v="stream" />
	</node>
	<node id="-83611" lat="62.7889305523" lon="8.8620222312">
		<tag k="name" v="Kvernåa" />
		<tag k="ssr:stedsnr" v="922094" />
		<tag k="waterway" v="stream" />
	</node>
	<node id="-83609" lat="62.7808250031" lon="8.83617500852">
		<tag k="name" v="Vassosvatnet" />
		<tag k="natural" v="water" />
		<tag k="ssr:stedsnr" v="922084" />
	</node>
	<node id="-83605" lat="62.91592778" lon="8.74485000459">
		<tag k="name" v="Heimre Skarfjellvatnet" />
		<tag k="natural" v="water" />
		<tag k="ssr:stedsnr" v="922052" />
	</node>
	<node id="-83604" lat="63.104113893" lon="8.94754723113">
		<tag k="name" v="Rørslættbekken" />
		<tag k="ssr:stedsnr" v="216891" />
		<tag k="waterway" v="stream" />
	</node>
	<node id="-83603" lat="63.0540388891" lon="8.92013054811">
		<tag k="name" v="Litl-Solåsvatnet" />
		<tag k="natural" v="water" />
		<tag k="ssr:stedsnr" v="216874" />
		<tag k="water" v="lake" />
	</node>
	<node id="-83602" lat="62.9874611105" lon="8.78419444002">
		<tag k="name" v="Hommelstadbekken" />
		<tag k="ssr:stedsnr" v="216861" />
		<tag k="waterway" v="stream" />
	</node>
	<node id="-83599" lat="62.9949027744" lon="8.69759444273">
		<tag k="name" v="Heggsetelva" />
		<tag k="ssr:stedsnr" v="763905" />
		<tag k="waterway" v="river" />
	</node>
	<node id="-83595" lat="62.9910500043" lon="8.52242221506">
		<tag k="name" v="kringlebekken" />
		<tag k="ssr:stedsnr" v="763498" />
		<tag k="waterway" v="stream" />
	</node>
	<node id="-83590" lat="62.9407972197" lon="8.57960555523">
		<tag k="name" v="Altertjønna" />
		<tag k="natural" v="water" />
		<tag k="ssr:stedsnr" v="763460" />
	</node>
	<node id="-83589" lat="62.9517694431" lon="8.58725278745">
		<tag k="name" v="Tverrlibekken" />
		<tag k="ssr:stedsnr" v="763458" />
		<tag k="waterway" v="stream" />
	</node>
	<node id="-83587" lat="63.060575001" lon="8.45275554878">
		<tag k="name" v="Merkesbekken" />
		<tag k="ssr:stedsnr" v="763351" />
		<tag k="waterway" v="stream" />
	</node>
	<node id="-83574" lat="62.8079666638" lon="8.71030000806">
		<tag k="name" v="Haukåa" />
		<tag k="ssr:stedsnr" v="763076" />
		<tag k="waterway" v="river" />
	</node>
	<node id="-83568" lat="62.9433777761" lon="8.78345277659">
		<tag k="name" v="Grytå" />
		<tag k="ssr:stedsnr" v="763054" />
		<tag k="waterway" v="stream" />
	</node>
	<node id="-82194" lat="62.9968666694" lon="9.1302333383">
		<tag k="name" v="Skjørbekken" />
		<tag k="ssr:stedsnr" v="277498" />
		<tag k="waterway" v="stream" />
	</node>
	<node id="-83562" lat="63.0149111072" lon="9.11525000247">
		<tag k="name" v="Tronghølen" />
		<tag k="place" v="locality" />
		<tag k="ssr:stedsnr" v="762664" />
	</node>
	<node id="-83547" lat="63.0681472256" lon="8.6412666578">
		<tag k="name" v="Godmatlitjønna" />
		<tag k="natural" v="water" />
		<tag k="ssr:stedsnr" v="762106" />
	</node>
	<node id="-83546" lat="63.0418527752" lon="8.6674805609">
		<tag k="name" v="Vollaholmen" />
		<tag k="place" v="islet" />
		<tag k="ssr:stedsnr" v="762103" />
	</node>
	<node id="-83534" lat="63.0494250026" lon="9.08113611534">
		<tag k="name" v="Svartvatnet" />
		<tag k="natural" v="water" />
		<tag k="ssr:stedsnr" v="752228" />
	</node>
	<node id="-83529" lat="63.0470083329" lon="8.41376944206">
		<tag k="name" v="Fjellslættvatnet" />
		<tag k="natural" v="water" />
		<tag k="ssr:stedsnr" v="740806" />
	</node>
	<node id="-83524" lat="62.9583333361" lon="8.97173333607">
		<tag k="alt_name" v="Vindøla" />
		<tag k="name" v="Vinddøla" />
		<tag k="old_name" v="Vindølva" />
		<tag k="ssr:stedsnr" v="740423" />
		<tag k="waterway" v="river" />
	</node>
	<node id="-83522" lat="62.9688444455" lon="8.90178611032">
		<tag k="name" v="Lomtjønna" />
		<tag k="natural" v="water" />
		<tag k="ssr:stedsnr" v="740414" />
	</node>
	<node id="-83520" lat="62.8333250013" lon="8.6107638861">
		<tag k="alt_name" v="Rammåa" />
		<tag k="name" v="Ramåa" />
		<tag k="ssr:stedsnr" v="740316" />
		<tag k="waterway" v="stream" />
	</node>
	<node id="-83518" lat="62.7638277805" lon="8.72904999486">
		<tag k="name" v="Haukåa" />
		<tag k="ssr:stedsnr" v="740153" />
		<tag k="waterway" v="stream" />
	</node>
	<node id="-83516" lat="62.7876361111" lon="8.78533888397">
		<tag k="name" v="Geilbekken" />
		<tag k="ssr:stedsnr" v="740088" />
		<tag k="waterway" v="stream" />
	</node>
	<node id="-83515" lat="62.77698611" lon="8.99123611788">
		<tag k="alt_name" v="Neådalsvatnet, øvre" />
		<tag k="name" v="Øvre Neådalsvatnet" />
		<tag k="natural" v="water" />
		<tag k="ssr:stedsnr" v="740081" />
		<tag k="water" v="lake" />
	</node>
	<node id="-83512" lat="62.7966666701" lon="8.7811749933">
		<tag k="name" v="Kufallfossen" />
		<tag k="natural" v="waterfall" />
		<tag k="ssr:stedsnr" v="740058" />
	</node>
	<node id="-83495" lat="62.9392861096" lon="9.09729166759">
		<tag k="name" v="Saudreparen" />
		<tag k="ssr:stedsnr" v="702473" />
		<tag k="waterway" v="stream" />
	</node>
	<node id="-83487" lat="62.9859722242" lon="8.49022500877">
		<tag k="name" v="Nessabekken" />
		<tag k="ssr:stedsnr" v="702260" />
		<tag k="waterway" v="stream" />
	</node>
	<node id="-83205" lat="62.876077775" lon="8.62711388463">
		<tag k="name" v="Husbekken" />
		<tag k="ssr:stedsnr" v="580055" />
		<tag k="waterway" v="stream" />
	</node>
	<node id="-83471" lat="62.7832222204" lon="8.88933054819">
		<tag k="name" v="Krokbekken" />
		<tag k="ssr:stedsnr" v="702310" />
		<tag k="waterway" v="stream" />
	</node>
	<node id="-83462" lat="63.0525555598" lon="8.67066944464">
		<tag k="name" v="Gammeljohola" />
		<tag k="natural" v="water" />
		<tag k="ssr:stedsnr" v="702104" />
	</node>
	<node id="-83456" lat="62.7286583358" lon="8.9405750084">
		<tag k="name" v="Tjønna" />
		<tag k="natural" v="bay" />
		<tag k="ssr:stedsnr" v="692421" />
	</node>
	<node id="-82176" lat="62.8054583352" lon="8.78284167611">
		<tag k="name" v="Romåfossen" />
		<tag k="natural" v="waterfall" />
		<tag k="ssr:stedsnr" v="277276" />
	</node>
	<node id="-83454" lat="62.9819805563" lon="8.65907777581">
		<tag k="name" v="Sautangen" />
		<tag k="natural" v="cape" />
		<tag k="ssr:stedsnr" v="690858" />
	</node>
	<node id="-83451" lat="62.9712833296" lon="8.70337777286">
		<tag k="name" v="Vassendøya" />
		<tag k="natural" v="cape" />
		<tag k="ssr:stedsnr" v="885866" />
	</node>
	<node id="-83435" lat="62.9553805533" lon="8.529913881">
		<tag k="name" v="Hundsprangbekken" />
		<tag k="ssr:stedsnr" v="885468" />
		<tag k="waterway" v="stream" />
	</node>
	<node id="-83428" lat="62.997747222" lon="8.79417500628">
		<tag k="name" v="Dammen" />
		<tag k="ssr:stedsnr" v="885232" />
		<tag k="waterway" v="dam" />
	</node>
	<node id="-83416" lat="63.0092083332" lon="9.02452500832">
		<tag k="name" v="Kalvøya" />
		<tag k="natural" v="cape" />
		<tag k="ssr:stedsnr" v="885192" />
	</node>
	<node id="-82169" lat="62.9225888855" lon="8.71400000063">
		<tag k="name" v="Skarfjellbekken" />
		<tag k="ssr:stedsnr" v="277044" />
		<tag k="waterway" v="stream" />
	</node>
	<node id="-82089" lat="62.973222223" lon="8.69064165935">
		<tag k="name" v="Høgøya" />
		<tag k="natural" v="cape" />
		<tag k="ssr:stedsnr" v="96919" />
	</node>
	<node id="-83397" lat="63.0916999978" lon="8.92248611145">
		<tag k="name" v="Svartåbekken" />
		<tag k="ssr:stedsnr" v="884978" />
		<tag k="waterway" v="stream" />
	</node>
	<node id="-83395" lat="63.0207527812" lon="8.99393611908">
		<tag k="name" v="Tjønnslættvatnet" />
		<tag k="natural" v="water" />
		<tag k="ssr:stedsnr" v="884897" />
	</node>
	<node id="-83385" lat="63.0039888851" lon="9.05460000226">
		<tag k="name" v="Rishauggrova" />
		<tag k="ssr:stedsnr" v="884667" />
		<tag k="waterway" v="stream" />
	</node>
	<node id="-82164" lat="62.7465694433" lon="8.89066667559">
		<tag k="name" v="Vestre Fallbekken" />
		<tag k="ssr:stedsnr" v="145452" />
		<tag k="waterway" v="stream" />
	</node>
	<node id="-83381" lat="63.0077111078" lon="9.02000000269">
		<tag k="name" v="Harangshølen" />
		<tag k="place" v="locality" />
		<tag k="ssr:stedsnr" v="884649" />
	</node>
	<node id="-83380" lat="63.0140694476" lon="9.13799999387">
		<tag k="name" v="Ormslættfossen" />
		<tag k="natural" v="waterfall" />
		<tag k="ssr:stedsnr" v="884648" />
	</node>
	<node id="-82429" lat="62.7998305528" lon="9.1565527725">
		<tag k="name" v="Storbekken" />
		<tag k="ssr:stedsnr" v="449285" />
		<tag k="waterway" v="stream" />
	</node>
	<node id="-83371" lat="62.9904499971" lon="8.98301110556">
		<tag k="name" v="Lomtjønna" />
		<tag k="natural" v="water" />
		<tag k="ssr:stedsnr" v="884438" />
	</node>
	<node id="-83370" lat="62.8393805579" lon="8.66457221503">
		<tag k="name" v="Seterbekken" />
		<tag k="ssr:stedsnr" v="884422" />
		<tag k="waterway" v="stream" />
	</node>
	<node id="-83367" lat="63.0354694471" lon="8.75777221405">
		<tag k="name" v="Fallstoin" />
		<tag k="natural" v="waterfall" />
		<tag k="ssr:stedsnr" v="884328" />
	</node>
	<node id="-82161" lat="62.9021361155" lon="9.19086110765">
		<tag k="name" v="Straumsbekken" />
		<tag k="ssr:stedsnr" v="268786" />
		<tag k="waterway" v="stream" />
	</node>
	<node id="-83360" lat="62.885900003" lon="8.65802777245">
		<tag k="name" v="Stormyrbekken" />
		<tag k="ssr:stedsnr" v="884383" />
		<tag k="waterway" v="stream" />
	</node>
	<node id="-83358" lat="62.9216749983" lon="8.83506111516">
		<tag k="name" v="Utgardsbekken" />
		<tag k="ssr:stedsnr" v="884294" />
		<tag k="waterway" v="stream" />
	</node>
	<node id="-83349" lat="63.0358861104" lon="8.65023333933">
		<tag k="name" v="Trøbekken" />
		<tag k="ssr:stedsnr" v="884128" />
		<tag k="waterway" v="stream" />
	</node>
	<node id="-83346" lat="62.8937944442" lon="8.57548333288">
		<tag k="name" v="Farkberghølen" />
		<tag k="place" v="locality" />
		<tag k="ssr:stedsnr" v="884074" />
	</node>
	<node id="-83343" lat="63.0438305575" lon="8.53774722475">
		<tag k="name" v="Belevatna" />
		<tag k="natural" v="water" />
		<tag k="ssr:stedsnr" v="680867" />
		<tag k="water" v="lake" />
	</node>
	<node id="-83342" lat="63.0616611135" lon="8.67536111761">
		<tag k="name" v="Holtaelva" />
		<tag k="ssr:stedsnr" v="680965" />
		<tag k="waterway" v="stream" />
	</node>
	<node id="-82157" lat="62.9199222196" lon="8.49276110799">
		<tag k="name" v="Prestelva" />
		<tag k="ssr:stedsnr" v="133716" />
		<tag k="waterway" v="stream" />
	</node>
	<node id="-83340" lat="63.0696972219" lon="8.70998332571">
		<tag k="name" v="Gravvollvatnet" />
		<tag k="natural" v="water" />
		<tag k="ssr:stedsnr" v="680954" />
	</node>
	<node id="-83327" lat="63.1181027806" lon="8.88835833517">
		<tag k="name" v="Jensslættvatnet" />
		<tag k="natural" v="water" />
		<tag k="ssr:stedsnr" v="679675" />
	</node>
	<node id="-83321" lat="62.7975083308" lon="8.69750554703">
		<tag k="name" v="Indre Haukåa" />
		<tag k="ssr:stedsnr" v="679355" />
		<tag k="waterway" v="stream" />
	</node>
	<node id="-83310" lat="62.9962138848" lon="8.84515833639">
		<tag k="name" v="Sollibekken" />
		<tag k="ssr:stedsnr" v="641823" />
		<tag k="waterway" v="stream" />
	</node>
	<node id="-83305" lat="62.9451277761" lon="8.86535834311">
		<tag k="name" v="Knykbekken" />
		<tag k="ssr:stedsnr" v="641803" />
		<tag k="waterway" v="stream" />
	</node>
	<node id="-83290" lat="63.0047972224" lon="8.55139721432">
		<tag k="name" v="Baklibekken" />
		<tag k="ssr:stedsnr" v="619903" />
		<tag k="waterway" v="stream" />
	</node>
	<node id="-83289" lat="62.9903500041" lon="8.75461666822">
		<tag k="name" v="Bergåa" />
		<tag k="ssr:stedsnr" v="619520" />
		<tag k="waterway" v="stream" />
	</node>
	<node id="-83288" lat="62.8893888887" lon="9.29141945121">
		<tag k="name" v="Kvernabekkvatnet" />
		<tag k="natural" v="water" />
		<tag k="ssr:stedsnr" v="619224" />
		<tag k="water" v="lake" />
	</node>
	<node id="-83285" lat="62.8456916632" lon="8.80128889473">
		<tag k="name" v="Nordåbotnelva" />
		<tag k="ssr:stedsnr" v="619116" />
		<tag k="waterway" v="river" />
	</node>
	<node id="-83283" lat="62.8340111118" lon="9.16931666001">
		<tag k="name" v="Leirtjønnbekken" />
		<tag k="ssr:stedsnr" v="619108" />
		<tag k="waterway" v="stream" />
	</node>
	<node id="-83282" lat="62.8869138896" lon="8.87043055046">
		<tag k="name" v="Blånebbvatnet" />
		<tag k="natural" v="water" />
		<tag k="ssr:stedsnr" v="619027" />
		<tag k="water" v="lake" />
	</node>
	<node id="-83281" lat="62.9063416675" lon="9.21061944358">
		<tag k="name" v="Ringbekken" />
		<tag k="ssr:stedsnr" v="619010" />
		<tag k="waterway" v="stream" />
	</node>
	<node id="-83280" lat="63.0278833361" lon="8.35866111741">
		<tag k="name" v="Skrøvsetelva" />
		<tag k="ssr:stedsnr" v="618818" />
		<tag k="waterway" v="stream" />
	</node>
	<node id="-83278" lat="63.0294388866" lon="8.4944166745">
		<tag k="name" v="Gammelsagelva" />
		<tag k="ssr:stedsnr" v="618802" />
		<tag k="waterway" v="stream" />
	</node>
	<node id="-83272" lat="62.8012694489" lon="8.69346666065">
		<tag k="name" v="Ytre Haukåa" />
		<tag k="ssr:stedsnr" v="618370" />
		<tag k="waterway" v="stream" />
	</node>
	<node id="-82144" lat="63.0409388851" lon="9.01264999303">
		<tag k="name" v="Austergardskvernavatnet" />
		<tag k="natural" v="water" />
		<tag k="ssr:stedsnr" v="267236" />
	</node>
	<node id="-83245" lat="63.0152583294" lon="8.57950555697">
		<tag k="name" v="Hyllbekken" />
		<tag k="ssr:stedsnr" v="581503" />
		<tag k="waterway" v="stream" />
	</node>
	<node id="-83227" lat="63.0016194478" lon="9.0224722144">
		<tag k="name" v="Geitabekken" />
		<tag k="ssr:stedsnr" v="580664" />
		<tag k="waterway" v="stream" />
	</node>
	<node id="-83222" lat="62.8891388917" lon="9.19033888556">
		<tag k="name" v="Langøybekken" />
		<tag k="ssr:stedsnr" v="580466" />
		<tag k="waterway" v="stream" />
	</node>
	<node id="-83220" lat="62.9861333324" lon="8.95994721585">
		<tag k="name" v="Lomtjønna" />
		<tag k="natural" v="water" />
		<tag k="ssr:stedsnr" v="580548" />
	</node>
	<node id="-83217" lat="63.0022111108" lon="8.9953527753">
		<tag k="name" v="Måsholmen" />
		<tag k="place" v="islet" />
		<tag k="ssr:stedsnr" v="580536" />
	</node>
	<node id="-83207" lat="63.043413891" lon="8.64042500538">
		<tag k="name" v="Liabekken" />
		<tag k="ssr:stedsnr" v="580079" />
		<tag k="waterway" v="stream" />
	</node>
	<node id="-82817" lat="62.8979388931" lon="8.8473250078">
		<tag k="name" v="Styggåa" />
		<tag k="ssr:stedsnr" v="376009" />
		<tag k="waterway" v="stream" />
	</node>
	<node id="-83199" lat="63.123474318" lon="8.79962896389">
		<tag k="name" v="Dyrstoltjønna" />
		<tag k="natural" v="water" />
		<tag k="ssr:stedsnr" v="570105" />
	</node>
	<node id="-83197" lat="62.9089444431" lon="8.99686945099">
		<tag k="name" v="Nilsøya" />
		<tag k="place" v="islet" />
		<tag k="ssr:stedsnr" v="570075" />
	</node>
	<node id="-83195" lat="63.0683472207" lon="9.04590833308">
		<tag k="name" v="Frosta" />
		<tag k="natural" v="strait" />
		<tag k="ssr:stedsnr" v="570058" />
	</node>
	<node id="-83189" lat="63.0730777746" lon="8.45881388881">
		<tag k="name" v="Blåfjelltjønnene" />
		<tag k="natural" v="water" />
		<tag k="ssr:stedsnr" v="703398" />
	</node>
	<node id="-83188" lat="63.0440583371" lon="8.44630554647">
		<tag k="name" v="Sommarfjøsbekken" />
		<tag k="ssr:stedsnr" v="703392" />
		<tag k="waterway" v="stream" />
	</node>
	<node id="-82814" lat="62.9049666669" lon="8.63061388686">
		<tag k="name" v="Søya" />
		<tag k="ssr:stedsnr" v="375258" />
		<tag k="waterway" v="river" />
	</node>
	<node id="-83181" lat="63.0017222218" lon="9.00052499951">
		<tag k="name" v="Nyhølen" />
		<tag k="place" v="locality" />
		<tag k="ssr:stedsnr" v="703249" />
	</node>
	<node id="-83174" lat="63.0080111085" lon="9.10735555345">
		<tag k="name" v="Råbekken" />
		<tag k="ssr:stedsnr" v="703205" />
		<tag k="waterway" v="stream" />
	</node>
	<node id="-83169" lat="62.9942583374" lon="8.94797777327">
		<tag k="name" v="Småøyan" />
		<tag k="place" v="islet" />
		<tag k="ssr:stedsnr" v="703164" />
	</node>
	<node id="-83163" lat="63.1059250007" lon="8.97069167415">
		<tag k="name" v="Drøggutjønna" />
		<tag k="natural" v="water" />
		<tag k="ssr:stedsnr" v="702975" />
	</node>
	<node id="-83160" lat="63.0849305564" lon="8.86218056485">
		<tag k="name" v="Husbekken" />
		<tag k="ssr:stedsnr" v="702956" />
		<tag k="waterway" v="stream" />
	</node>
	<node id="-83159" lat="63.0785638876" lon="8.81431388994">
		<tag k="name" v="Lomtjønnbekken" />
		<tag k="ssr:stedsnr" v="702951" />
		<tag k="waterway" v="stream" />
	</node>
	<node id="-83158" lat="63.0788527791" lon="8.81746944157">
		<tag k="name" v="Sollibekken" />
		<tag k="ssr:stedsnr" v="702949" />
		<tag k="waterway" v="stream" />
	</node>
	<node id="-83156" lat="63.0387888908" lon="8.96531387922">
		<tag k="name" v="Solmyrtjønna" />
		<tag k="natural" v="water" />
		<tag k="ssr:stedsnr" v="702939" />
	</node>
	<node id="-83153" lat="63.066469442" lon="8.95588334114">
		<tag k="name" v="Øverlibekken" />
		<tag k="ssr:stedsnr" v="702910" />
		<tag k="waterway" v="stream" />
	</node>
	<node id="-83150" lat="63.0446055541" lon="8.9810055523">
		<tag k="name" v="Svennslettvika" />
		<tag k="natural" v="bay" />
		<tag k="ssr:stedsnr" v="702893" />
	</node>
	<node id="-83149" lat="63.0436111112" lon="8.99882223092">
		<tag k="name" v="Andungebukta" />
		<tag k="natural" v="bay" />
		<tag k="ssr:stedsnr" v="702891" />
	</node>
	<node id="-83147" lat="63.0541805565" lon="8.91132499567">
		<tag k="name" v="Langholmen" />
		<tag k="place" v="islet" />
		<tag k="ssr:stedsnr" v="702882" />
	</node>
	<node id="-83144" lat="62.9786416635" lon="8.7829777784">
		<tag k="name" v="Faksneshølen" />
		<tag k="place" v="locality" />
		<tag k="ssr:stedsnr" v="702796" />
	</node>
	<node id="-83138" lat="63.0233805515" lon="8.80188611885">
		<tag k="name" v="Lomtjønna" />
		<tag k="natural" v="water" />
		<tag k="ssr:stedsnr" v="702769" />
	</node>
	<node id="-83136" lat="63.0754611112" lon="8.8746388959">
		<tag k="name" v="Bæverosen" />
		<tag k="natural" v="bay" />
		<tag k="ssr:stedsnr" v="702763" />
	</node>
	<node id="-83125" lat="63.027194445" lon="9.02929165934">
		<tag k="name" v="Auster Grytvatnet" />
		<tag k="natural" v="water" />
		<tag k="ssr:stedsnr" v="702683" />
	</node>
	<node id="-82216" lat="63.0454805518" lon="9.08688333618">
		<tag k="name" v="Otertjønna" />
		<tag k="natural" v="water" />
		<tag k="ssr:stedsnr" v="277741" />
	</node>
	<node id="-83110" lat="62.99493889" lon="8.94706111047">
		<tag k="name" v="Haustgarden" />
		<tag k="place" v="locality" />
		<tag k="ssr:stedsnr" v="702585" />
	</node>
	<node id="-82459" lat="62.8801111087" lon="8.62007221494">
		<tag k="name" v="Hagabekken" />
		<tag k="ssr:stedsnr" v="277062" />
		<tag k="waterway" v="stream" />
	</node>
	<node id="-83104" lat="63.0157638922" lon="8.97394167346">
		<tag k="name" v="Grytslættjønna" />
		<tag k="natural" v="water" />
		<tag k="ssr:stedsnr" v="702551" />
	</node>
	<node id="-83097" lat="62.9753777751" lon="9.0650083371">
		<tag k="name" v="Bollvatnet" />
		<tag k="natural" v="water" />
		<tag k="ssr:stedsnr" v="702517" />
		<tag k="water" v="lake" />
	</node>
	<node id="-83095" lat="62.954433337" lon="8.90680277153">
		<tag k="name" v="Kudalsvatnet" />
		<tag k="natural" v="water" />
		<tag k="ssr:stedsnr" v="702443" />
	</node>
	<node id="-83088" lat="62.9199861073" lon="8.70513332573">
		<tag k="name" v="Djupgrova" />
		<tag k="ssr:stedsnr" v="702398" />
		<tag k="waterway" v="stream" />
	</node>
	<node id="-83082" lat="62.940594442" lon="8.68827221843">
		<tag k="name" v="Åsbekken" />
		<tag k="ssr:stedsnr" v="702344" />
		<tag k="waterway" v="stream" />
	</node>
	<node id="-83077" lat="62.9301111122" lon="8.71766389769">
		<tag k="name" v="Kustiøya" />
		<tag k="place" v="island" />
		<tag k="ssr:stedsnr" v="702329" />
	</node>
	<node id="-83069" lat="62.7859277735" lon="8.87592778507">
		<tag k="name" v="Svabekken" />
		<tag k="ssr:stedsnr" v="702249" />
		<tag k="waterway" v="stream" />
	</node>
	<node id="-83068" lat="62.8036583295" lon="8.77852778456">
		<tag k="name" v="Aspgjelbekken" />
		<tag k="ssr:stedsnr" v="702245" />
		<tag k="waterway" v="stream" />
	</node>
	<node id="-83067" lat="62.810738891" lon="8.71447222521">
		<tag k="name" v="Slåttaøya" />
		<tag k="place" v="island" />
		<tag k="ssr:stedsnr" v="702238" />
	</node>
	<node id="-83065" lat="63.0396111082" lon="8.53496388938">
		<tag k="name" v="Lomtjønna" />
		<tag k="natural" v="water" />
		<tag k="ssr:stedsnr" v="702235" />
	</node>
	<node id="-83063" lat="63.0354777806" lon="8.56733610405">
		<tag k="name" v="Ørabekken" />
		<tag k="ssr:stedsnr" v="702229" />
		<tag k="waterway" v="stream" />
	</node>
	<node id="-83058" lat="63.0208472212" lon="8.6024027822">
		<tag k="name" v="Skivedvollbekken" />
		<tag k="ssr:stedsnr" v="702217" />
		<tag k="waterway" v="stream" />
	</node>
	<node id="-83057" lat="63.0161027787" lon="8.49585833375">
		<tag k="name" v="Trøbekken" />
		<tag k="ssr:stedsnr" v="702272" />
		<tag k="waterway" v="stream" />
	</node>
	<node id="-83054" lat="63.0249027793" lon="9.07579721322">
		<tag k="name" v="Grytå" />
		<tag k="ssr:stedsnr" v="702145" />
		<tag k="waterway" v="stream" />
	</node>
	<node id="-82009" lat="63.0315277784" lon="8.57547222523">
		<tag k="name" v="Ørabekken" />
		<tag k="ssr:stedsnr" v="254816" />
		<tag k="waterway" v="stream" />
	</node>
	<node id="-83043" lat="63.0713305585" lon="8.90899999969">
		<tag k="name" v="Kroktjønna" />
		<tag k="natural" v="water" />
		<tag k="ssr:stedsnr" v="558662" />
	</node>
	<node id="-83042" lat="63.0710611092" lon="9.00971666165">
		<tag k="name" v="Holmvatnet" />
		<tag k="natural" v="water" />
		<tag k="ssr:stedsnr" v="558661" />
	</node>
	<node id="-83036" lat="62.9200583322" lon="8.79393333434">
		<tag k="name" v="Indre Skarfjellvatnet" />
		<tag k="natural" v="water" />
		<tag k="ssr:stedsnr" v="558053" />
	</node>
	<node id="-83030" lat="63.0317194455" lon="8.4485638877">
		<tag k="name" v="Liavatnet" />
		<tag k="natural" v="water" />
		<tag k="ssr:stedsnr" v="557812" />
	</node>
	<node id="-82104" lat="63.0022888886" lon="8.6256916608">
		<tag k="name" v="Ivasmyrbekken" />
		<tag k="ssr:stedsnr" v="97822" />
		<tag k="waterway" v="stream" />
	</node>
	<node id="-83017" lat="63.0422611123" lon="8.81067223199">
		<tag k="name" v="Øverstorslættjønna" />
		<tag k="natural" v="water" />
		<tag k="ssr:stedsnr" v="692444" />
	</node>
	<node id="-83010" lat="63.0452749959" lon="9.06975554645">
		<tag k="name" v="Flåstjønna" />
		<tag k="natural" v="water" />
		<tag k="ssr:stedsnr" v="692152" />
	</node>
	<node id="-83007" lat="62.7841472195" lon="8.89709166871">
		<tag k="name" v="Nauståfossen" />
		<tag k="natural" v="waterfall" />
		<tag k="ssr:stedsnr" v="692071" />
	</node>
	<node id="-82997" lat="62.9934055591" lon="8.64201667204">
		<tag k="name" v="Trøbekken" />
		<tag k="ssr:stedsnr" v="690556" />
		<tag k="waterway" v="stream" />
	</node>
	<node id="-82995" lat="62.9903138861" lon="8.61308888672">
		<tag k="name" v="Badestrand" />
		<tag k="natural" v="beach" />
		<tag k="ssr:stedsnr" v="690459" />
	</node>
	<node id="-82348" lat="62.9108138857" lon="8.64119166024">
		<tag k="name" v="Brubekken" />
		<tag k="ssr:stedsnr" v="216407" />
		<tag k="waterway" v="stream" />
	</node>
	<node id="-82990" lat="63.0667305551" lon="9.07150833515">
		<tag k="name" v="Storgrytvatnet" />
		<tag k="natural" v="water" />
		<tag k="ssr:stedsnr" v="688672" />
	</node>
	<node id="-82989" lat="63.0359777736" lon="8.97032500756">
		<tag k="name" v="Sæterslættjønna" />
		<tag k="natural" v="water" />
		<tag k="ssr:stedsnr" v="688647" />
	</node>
	<node id="-82985" lat="63.016744445" lon="8.96215833457">
		<tag k="name" v="Førbakkbekken" />
		<tag k="ssr:stedsnr" v="520535" />
		<tag k="waterway" v="stream" />
	</node>
	<node id="-82982" lat="63.0161944487" lon="9.08564721626">
		<tag k="name" v="Trollbekken" />
		<tag k="ssr:stedsnr" v="520516" />
		<tag k="waterway" v="stream" />
	</node>
	<node id="-82981" lat="62.9079472245" lon="9.14441944697">
		<tag k="name" v="Breiskarbekken" />
		<tag k="ssr:stedsnr" v="520509" />
		<tag k="waterway" v="stream" />
	</node>
	<node id="-82964" lat="62.8288555593" lon="9.04822500965">
		<tag k="name" v="Fagerlidalsvatnet" />
		<tag k="natural" v="water" />
		<tag k="ssr:stedsnr" v="509143" />
		<tag k="water" v="lake" />
	</node>
	<node id="-82434" lat="62.9970111123" lon="8.41561944338">
		<tag k="name" v="Tjørnråa" />
		<tag k="natural" v="water" />
		<tag k="ssr:stedsnr" v="254614" />
	</node>
	<node id="-82953" lat="62.8329305547" lon="8.84801665765">
		<tag k="name" v="Litlbotnelva" />
		<tag k="ssr:stedsnr" v="498105" />
		<tag k="waterway" v="stream" />
	</node>
	<node id="-82947" lat="62.9468805564" lon="8.61024165969">
		<tag k="name" v="Sjøasetervatnet" />
		<tag k="natural" v="water" />
		<tag k="ssr:stedsnr" v="497674" />
	</node>
	<node id="-82942" lat="63.0724916649" lon="8.95346944648">
		<tag k="name" v="Bårdsvatnet" />
		<tag k="natural" v="water" />
		<tag k="ssr:stedsnr" v="680784" />
	</node>
	<node id="-82941" lat="62.8535500039" lon="9.16783054721">
		<tag k="name" v="Bossvatnet" />
		<tag k="natural" v="water" />
		<tag k="ssr:stedsnr" v="497106" />
		<tag k="water" v="lake" />
	</node>
	<node id="-82936" lat="62.7690916704" lon="8.81322500763">
		<tag k="name" v="Litlbotnvatnet" />
		<tag k="natural" v="water" />
		<tag k="ssr:stedsnr" v="497088" />
	</node>
	<node id="-82933" lat="62.8120138885" lon="8.92129166644">
		<tag k="name" v="Tverråbotnvatnet" />
		<tag k="natural" v="water" />
		<tag k="ssr:stedsnr" v="497069" />
		<tag k="water" v="lake" />
	</node>
	<node id="-82932" lat="62.8021694444" lon="8.87694721924">
		<tag k="name" v="Ruglbekken" />
		<tag k="ssr:stedsnr" v="497058" />
		<tag k="waterway" v="stream" />
	</node>
	<node id="-82073" lat="63.0215166704" lon="8.61778332498">
		<tag k="name" v="Trøbekken" />
		<tag k="ssr:stedsnr" v="96273" />
		<tag k="waterway" v="stream" />
	</node>
	<node id="-82927" lat="62.8506444401" lon="9.24263610259">
		<tag k="name" v="Mobekken" />
		<tag k="ssr:stedsnr" v="680241" />
		<tag k="waterway" v="stream" />
	</node>
	<node id="-82925" lat="62.822774997" lon="8.79795554682">
		<tag k="name" v="Lauvåvatnet" />
		<tag k="natural" v="water" />
		<tag k="ssr:stedsnr" v="680139" />
		<tag k="water" v="lake" />
	</node>
	<node id="-82923" lat="63.0247944472" lon="8.49831111435">
		<tag k="name" v="Fossbekken" />
		<tag k="ssr:stedsnr" v="679838" />
		<tag k="waterway" v="stream" />
	</node>
	<node id="-82921" lat="62.9175222234" lon="8.62970833504">
		<tag k="name" v="Kvernhusbekken" />
		<tag k="ssr:stedsnr" v="679728" />
		<tag k="waterway" v="stream" />
	</node>
	<node id="-82916" lat="63.0236361072" lon="8.85635556197">
		<tag k="name" v="Krokbekken" />
		<tag k="ssr:stedsnr" v="679650" />
		<tag k="waterway" v="stream" />
	</node>
	<node id="-82912" lat="63.0368055546" lon="8.77467221367">
		<tag k="name" v="Dalabekken" />
		<tag k="ssr:stedsnr" v="679595" />
		<tag k="waterway" v="stream" />
	</node>
	<node id="-82907" lat="62.9529305523" lon="8.91463334127">
		<tag k="name" v="Litlkudalsvatnet" />
		<tag k="natural" v="water" />
		<tag k="ssr:stedsnr" v="679052" />
	</node>
	<node id="-82906" lat="62.9306083358" lon="8.74119167113">
		<tag k="name" v="Nonsbekken" />
		<tag k="ssr:stedsnr" v="679045" />
		<tag k="waterway" v="stream" />
	</node>
	<node id="-82905" lat="62.9379611136" lon="8.83862500535">
		<tag k="name" v="Tverråa" />
		<tag k="ssr:stedsnr" v="679042" />
		<tag k="waterway" v="stream" />
	</node>
	<node id="-82898" lat="63.0087888913" lon="8.89647777508">
		<tag k="name" v="Brøskjåvatnet" />
		<tag k="natural" v="water" />
		<tag k="ssr:stedsnr" v="449219" />
	</node>
	<node id="-82897" lat="62.7464500022" lon="8.9474083275">
		<tag k="name" v="Fallbekktjønnin" />
		<tag k="natural" v="water" />
		<tag k="ssr:stedsnr" v="449136" />
	</node>
	<node id="-82888" lat="63.0415277772" lon="8.4817722133">
		<tag k="name" v="Tindavatnet" />
		<tag k="natural" v="water" />
		<tag k="ssr:stedsnr" v="437809" />
	</node>
	<node id="-82887" lat="63.0414416629" lon="8.41789444914">
		<tag k="name" v="Tosdalsbekken" />
		<tag k="ssr:stedsnr" v="437808" />
		<tag k="waterway" v="stream" />
	</node>
	<node id="-82886" lat="63.0454333304" lon="8.73438333032">
		<tag k="name" v="Bjørvollhølen" />
		<tag k="place" v="locality" />
		<tag k="ssr:stedsnr" v="519134" />
	</node>
	<node id="-84927" lat="62.781400003" lon="8.86776389089">
		<tag k="name" v="Løvhjelløya" />
		<tag k="place" v="island" />
		<tag k="ssr:stedsnr" v="337046" />
	</node>
	<node id="-84926" lat="62.8779916671" lon="8.89972778366">
		<tag k="name" v="Eiterdalsvatnet" />
		<tag k="natural" v="water" />
		<tag k="ssr:stedsnr" v="331500" />
		<tag k="water" v="lake" />
	</node>
	<node id="-84925" lat="63.0431444413" lon="8.90114167046">
		<tag k="name" v="Ytre Damtjønna" />
		<tag k="natural" v="water" />
		<tag k="ssr:stedsnr" v="328849" />
	</node>
	<node id="-84924" lat="62.8689416691" lon="9.17885277927">
		<tag k="name" v="Seterbekken" />
		<tag k="ssr:stedsnr" v="328778" />
		<tag k="waterway" v="stream" />
	</node>
	<node id="-82874" lat="63.0300722199" lon="8.78648055209">
		<tag k="name" v="Tjønnslættjønna" />
		<tag k="natural" v="water" />
		<tag k="ssr:stedsnr" v="510417" />
	</node>
	<node id="-84920" lat="62.9064250038" lon="8.82949722531">
		<tag k="name" v="Bytbekken" />
		<tag k="ssr:stedsnr" v="327223" />
		<tag k="waterway" v="stream" />
	</node>
	<node id="-82869" lat="63.0316944405" lon="8.88068610413">
		<tag k="name" v="Sagøya" />
		<tag k="natural" v="cape" />
		<tag k="ssr:stedsnr" v="510212" />
	</node>
	<node id="-82867" lat="62.8336861129" lon="8.93107777872">
		<tag k="name" v="Rognbekken" />
		<tag k="ssr:stedsnr" v="510205" />
		<tag k="waterway" v="stream" />
	</node>
	<node id="-84913" lat="62.9915277742" lon="8.63884443996">
		<tag k="name" v="Myrabekken" />
		<tag k="ssr:stedsnr" v="326366" />
		<tag k="waterway" v="stream" />
	</node>
	<node id="-84911" lat="62.7713999993" lon="8.95029999484">
		<tag k="name" v="Tverråa" />
		<tag k="ssr:stedsnr" v="316919" />
		<tag k="waterway" v="stream" />
	</node>
	<node id="-84909" lat="62.8291611074" lon="8.71213888432">
		<tag k="name" v="Husbekken" />
		<tag k="ssr:stedsnr" v="316483" />
		<tag k="waterway" v="stream" />
	</node>
	<node id="-84906" lat="62.8654194404" lon="9.26201944836">
		<tag k="name" v="Raudbekken" />
		<tag k="ssr:stedsnr" v="316230" />
		<tag k="waterway" v="stream" />
	</node>
	<node id="-82075" lat="62.9655166683" lon="9.11928055713">
		<tag k="name" v="Foldsjøen" />
		<tag k="natural" v="water" />
		<tag k="ssr:stedsnr" v="255437" />
		<tag k="water" v="lake" />
	</node>
	<node id="-84894" lat="62.95852222" lon="8.67433610593">
		<tag k="name" v="Litlgryta" />
		<tag k="ssr:stedsnr" v="315690" />
		<tag k="waterway" v="stream" />
	</node>
	<node id="-82844" lat="63.0022555567" lon="8.93444443953">
		<tag k="name" v="Sveakleivbekken" />
		<tag k="ssr:stedsnr" v="398905" />
		<tag k="waterway" v="stream" />
	</node>
	<node id="-82843" lat="63.0620111111" lon="8.67906667644">
		<tag k="name" v="Lomtjønnbekken" />
		<tag k="ssr:stedsnr" v="398114" />
		<tag k="waterway" v="stream" />
	</node>
	<node id="-82840" lat="62.8014444469" lon="9.28865000506">
		<tag k="name" v="Årin" />
		<tag k="ssr:stedsnr" v="389276" />
		<tag k="waterway" v="stream" />
	</node>
	<node id="-82837" lat="62.8297583347" lon="8.72769721939">
		<tag k="name" v="Ytre Tverrelva" />
		<tag k="ssr:stedsnr" v="388423" />
		<tag k="waterway" v="stream" />
	</node>
	<node id="-84877" lat="62.9980972249" lon="9.14525000338">
		<tag k="name" v="Folda" />
		<tag k="ssr:stedsnr" v="315325" />
		<tag k="waterway" v="river" />
	</node>
	<node id="-82828" lat="63.0606194464" lon="8.44416111628">
		<tag k="name" v="Sørentjørna" />
		<tag k="natural" v="water" />
		<tag k="ssr:stedsnr" v="498962" />
	</node>
	<node id="-84874" lat="62.9131027762" lon="8.75700000824">
		<tag k="name" v="Rotslættbekken" />
		<tag k="ssr:stedsnr" v="315048" />
		<tag k="waterway" v="stream" />
	</node>
	<node id="-82825" lat="62.9705277757" lon="8.92286388565">
		<tag k="name" v="Tellibekken" />
		<tag k="ssr:stedsnr" v="498497" />
		<tag k="waterway" v="stream" />
	</node>
	<node id="-84871" lat="62.9371861096" lon="8.77763889731">
		<tag k="alt_name" v="Søya" />
		<tag k="name" v="Søyåa" />
		<tag k="ssr:stedsnr" v="315028" />
		<tag k="waterway" v="river" />
	</node>
	<node id="-82822" lat="62.8302916652" lon="8.95137777238">
		<tag k="name" v="Romåa" />
		<tag k="ssr:stedsnr" v="376120" />
		<tag k="waterway" v="river" />
	</node>
	<node id="-82820" lat="62.812227781" lon="8.90093055846">
		<tag k="name" v="Revholbotnvatnet" />
		<tag k="natural" v="water" />
		<tag k="ssr:stedsnr" v="376115" />
	</node>
	<node id="-84867" lat="62.9259111067" lon="8.97606110846">
		<tag k="name" v="Langøyfjellbekken" />
		<tag k="ssr:stedsnr" v="216797" />
		<tag k="waterway" v="river" />
	</node>
	<node id="-82818" lat="62.8996916646" lon="8.99231944499">
		<tag k="alt_name" v="Eiteråa" />
		<tag k="name" v="Eitra" />
		<tag k="ssr:stedsnr" v="376011" />
		<tag k="waterway" v="river" />
	</node>
	<node id="-84865" lat="63.0647194424" lon="9.04791944321">
		<tag k="name" v="Litl-Salvatnet" />
		<tag k="natural" v="water" />
		<tag k="ssr:stedsnr" v="216585" />
		<tag k="water" v="lake" />
	</node>
	<node id="-84862" lat="62.8935416648" lon="9.01923889166">
		<tag k="name" v="Kløftslættbekken" />
		<tag k="ssr:stedsnr" v="216487" />
		<tag k="waterway" v="stream" />
	</node>
	<node id="-82813" lat="62.7489666665" lon="8.77823889258">
		<tag k="name" v="Bjøråskarsvatnet" />
		<tag k="natural" v="water" />
		<tag k="ssr:stedsnr" v="497891" />
		<tag k="water" v="lake" />
	</node>
	<node id="-84860" lat="62.9323833299" lon="9.11117500927">
		<tag k="name" v="Gråhaugbekken" />
		<tag k="ssr:stedsnr" v="216476" />
		<tag k="waterway" v="stream" />
	</node>
	<node id="-84859" lat="62.9826138878" lon="9.01278334231">
		<tag k="name" v="Skarpdalsbekken" />
		<tag k="ssr:stedsnr" v="216469" />
		<tag k="waterway" v="stream" />
	</node>
	<node id="-84855" lat="62.9570500009" lon="8.91254444936">
		<tag k="name" v="Hundtjønna" />
		<tag k="natural" v="water" />
		<tag k="ssr:stedsnr" v="216450" />
	</node>
	<node id="-82805" lat="63.0099333292" lon="9.11067222414">
		<tag k="name" v="Råbekken" />
		<tag k="ssr:stedsnr" v="497637" />
		<tag k="waterway" v="stream" />
	</node>
	<node id="-82803" lat="63.0553833365" lon="8.94688889761">
		<tag k="name" v="Vaulavatnet" />
		<tag k="natural" v="water" />
		<tag k="ssr:stedsnr" v="497629" />
	</node>
	<node id="-82798" lat="62.996172226" lon="8.73609166327">
		<tag k="name" v="Damvassbekken" />
		<tag k="ssr:stedsnr" v="497444" />
		<tag k="waterway" v="stream" />
	</node>
	<node id="-82797" lat="62.8105388932" lon="8.67620832672">
		<tag k="name" v="Inneråa" />
		<tag k="ssr:stedsnr" v="497402" />
		<tag k="waterway" v="stream" />
	</node>
	<node id="-84841" lat="62.796727778" lon="8.781574997">
		<tag k="name" v="Storfossen" />
		<tag k="natural" v="waterfall" />
		<tag k="ssr:stedsnr" v="216297" />
	</node>
	<node id="-84839" lat="62.7912750009" lon="8.80798056223">
		<tag k="name" v="Trøbekken" />
		<tag k="ssr:stedsnr" v="216290" />
		<tag k="waterway" v="stream" />
	</node>
	<node id="-82790" lat="62.909357351" lon="8.56240547584">
		<tag k="name" v="Røssåa" />
		<tag k="ssr:stedsnr" v="497292" />
		<tag k="waterway" v="stream" />
	</node>
	<node id="-82789" lat="62.9064722258" lon="8.57509722506">
		<tag k="name" v="Grytåa" />
		<tag k="ssr:stedsnr" v="497289" />
		<tag k="waterway" v="stream" />
	</node>
	<node id="-82785" lat="62.9424500014" lon="8.94825278517">
		<tag k="name" v="Bjørkøybekken" />
		<tag k="ssr:stedsnr" v="497037" />
		<tag k="waterway" v="stream" />
	</node>
	<node id="-82784" lat="62.9421416632" lon="8.9857555576">
		<tag k="name" v="Mårkusøya" />
		<tag k="place" v="islet" />
		<tag k="ssr:stedsnr" v="497036" />
	</node>
	<node id="-84829" lat="63.1286583324" lon="9.04445556396">
		<tag k="name" v="Snotbekken" />
		<tag k="ssr:stedsnr" v="207729" />
		<tag k="waterway" v="stream" />
	</node>
	<node id="-82778" lat="62.903027776" lon="8.98670833608">
		<tag k="name" v="Fauskåa" />
		<tag k="ssr:stedsnr" v="497011" />
		<tag k="waterway" v="river" />
	</node>
	<node id="-84824" lat="62.8982944469" lon="9.20451111698">
		<tag k="name" v="Reinsvika" />
		<tag k="natural" v="bay" />
		<tag k="ssr:stedsnr" v="206305" />
	</node>
	<node id="-82771" lat="62.9309416665" lon="9.00200832459">
		<tag k="name" v="Røstabekken" />
		<tag k="ssr:stedsnr" v="338811" />
		<tag k="waterway" v="stream" />
	</node>
	<node id="-82770" lat="62.9377055537" lon="8.80744999126">
		<tag k="name" v="Sagbekken" />
		<tag k="ssr:stedsnr" v="338805" />
		<tag k="waterway" v="stream" />
	</node>
	<node id="-82766" lat="62.9855499971" lon="8.55115555832">
		<tag k="name" v="Bekken" />
		<tag k="ssr:stedsnr" v="338767" />
		<tag k="waterway" v="stream" />
	</node>
	<node id="-84813" lat="63.0166361078" lon="8.73389999223">
		<tag k="name" v="Lomtjønna" />
		<tag k="natural" v="water" />
		<tag k="ssr:stedsnr" v="206078" />
	</node>
	<node id="-84811" lat="62.9218472194" lon="8.83043332617">
		<tag k="name" v="Ihelsveltbekken" />
		<tag k="ssr:stedsnr" v="206004" />
		<tag k="waterway" v="stream" />
	</node>
	<node id="-84810" lat="62.9909194472" lon="8.62690277607">
		<tag k="name" v="Gløna" />
		<tag k="ssr:stedsnr" v="205941" />
		<tag k="waterway" v="river" />
	</node>
	<node id="-82743" lat="62.8705250037" lon="8.78964166584">
		<tag k="name" v="Kløftinn" />
		<tag k="natural" v="cape" />
		<tag k="ssr:stedsnr" v="338055" />
	</node>
	<node id="-84803" lat="62.9819944484" lon="8.73461388835">
		<tag k="name" v="Bergemsbekken" />
		<tag k="ssr:stedsnr" v="204870" />
		<tag k="waterway" v="stream" />
	</node>
	<node id="-84802" lat="63.0583861138" lon="9.09690555946">
		<tag k="name" v="Langvatnet" />
		<tag k="natural" v="water" />
		<tag k="ssr:stedsnr" v="203095" />
		<tag k="water" v="lake" />
	</node>
	<node id="-84799" lat="62.9763083317" lon="8.84455000814">
		<tag k="name" v="Stygglibekken" />
		<tag k="ssr:stedsnr" v="195489" />
		<tag k="waterway" v="stream" />
	</node>
	<node id="-84798" lat="62.8239026188" lon="8.71258013064">
		<tag k="name" v="Rossåa" />
		<tag k="ssr:stedsnr" v="195452" />
		<tag k="waterway" v="river" />
	</node>
	<node id="-82746" lat="62.7816611098" lon="8.85987222833">
		<tag k="name" v="Berauøya" />
		<tag k="place" v="islet" />
		<tag k="ssr:stedsnr" v="338074" />
	</node>
	<node id="-82745" lat="62.7974055561" lon="8.76310832623">
		<tag k="name" v="Småøyan" />
		<tag k="natural" v="beach" />
		<tag k="ssr:stedsnr" v="338068" />
	</node>
	<node id="-84792" lat="62.9322249976" lon="8.47466388401">
		<tag k="name" v="Yttergardselva" />
		<tag k="ssr:stedsnr" v="194695" />
		<tag k="waterway" v="stream" />
	</node>
	<node id="-84791" lat="62.9337527751" lon="8.51759721823">
		<tag k="name" v="Ytre" />
		<tag k="ssr:stedsnr" v="194692" />
		<tag k="waterway" v="stream" />
	</node>
	<node id="-84785" lat="62.950158334" lon="8.67458610326">
		<tag k="name" v="Gryta" />
		<tag k="ssr:stedsnr" v="194660" />
		<tag k="waterway" v="stream" />
	</node>
	<node id="-84784" lat="63.0213166681" lon="8.80788333171">
		<tag k="name" v="Gammelsetervatnet" />
		<tag k="natural" v="water" />
		<tag k="ssr:stedsnr" v="194636" />
	</node>
	<node id="-84783" lat="63.0003555535" lon="9.07065833244">
		<tag k="name" v="Damvatnet" />
		<tag k="natural" v="water" />
		<tag k="ssr:stedsnr" v="194631" />
	</node>
	<node id="-82734" lat="62.9057666702" lon="8.7596222245">
		<tag k="name" v="Tverråa" />
		<tag k="ssr:stedsnr" v="327412" />
		<tag k="waterway" v="stream" />
	</node>
	<node id="-84776" lat="62.959427776" lon="8.95134165976">
		<tag k="name" v="Styggbekkin" />
		<tag k="ssr:stedsnr" v="194397" />
		<tag k="waterway" v="stream" />
	</node>
	<node id="-84770" lat="62.9264500016" lon="9.14965832497">
		<tag k="alt_name" v="Kvennabekken" />
		<tag k="name" v="Kvernabekken" />
		<tag k="ssr:stedsnr" v="194054" />
		<tag k="waterway" v="stream" />
	</node>
	<node id="-84769" lat="62.9205277811" lon="9.19772777301">
		<tag k="name" v="Storvatnet" />
		<tag k="natural" v="water" />
		<tag k="ssr:stedsnr" v="194051" />
		<tag k="water" v="lake" />
	</node>
	<node id="-84768" lat="62.7600750001" lon="8.81046111887">
		<tag k="name" v="Storbotnvatnet" />
		<tag k="natural" v="water" />
		<tag k="ssr:stedsnr" v="194160" />
	</node>
	<node id="-82719" lat="62.8413888896" lon="8.87779999976">
		<tag k="name" v="Botnelva" />
		<tag k="ssr:stedsnr" v="316116" />
		<tag k="waterway" v="river" />
	</node>
	<node id="-82717" lat="63.0128666649" lon="8.6429777826">
		<tag k="name" v="Glønavatnet" />
		<tag k="natural" v="water" />
		<tag k="ssr:stedsnr" v="315866" />
	</node>
	<node id="-82710" lat="63.0019027742" lon="8.74941110156">
		<tag k="name" v="Damvatnet" />
		<tag k="natural" v="water" />
		<tag k="ssr:stedsnr" v="315656" />
	</node>
	<node id="-84757" lat="62.9808888907" lon="8.69290832436">
		<tag k="name" v="Smedbekken" />
		<tag k="ssr:stedsnr" v="156930" />
		<tag k="waterway" v="stream" />
	</node>
	<node id="-82708" lat="62.7636833309" lon="8.94672499818">
		<tag k="name" v="Tverrdalsvatnet" />
		<tag k="natural" v="water" />
		<tag k="ssr:stedsnr" v="315166" />
	</node>
	<node id="-82707" lat="62.7721083338" lon="8.84735555683">
		<tag k="name" v="Ytre Myrøkja" />
		<tag k="ssr:stedsnr" v="315158" />
		<tag k="waterway" v="stream" />
	</node>
	<node id="-82706" lat="62.8189222202" lon="9.06470832952">
		<tag k="name" v="Salstjønna" />
		<tag k="natural" v="water" />
		<tag k="ssr:stedsnr" v="315116" />
	</node>
	<node id="-84753" lat="62.9983027774" lon="8.92240277855">
		<tag k="name" v="Labranasen" />
		<tag k="natural" v="cape" />
		<tag k="ssr:stedsnr" v="156917" />
	</node>
	<node id="-82703" lat="62.8020638873" lon="8.89776666194">
		<tag k="name" v="Rismobotnvatnet" />
		<tag k="natural" v="water" />
		<tag k="ssr:stedsnr" v="315070" />
	</node>
	<node id="-82686" lat="63.0222833378" lon="8.59735555246">
		<tag k="name" v="Holmen" />
		<tag k="place" v="islet" />
		<tag k="ssr:stedsnr" v="460840" />
	</node>
	<node id="-84725" lat="62.9882305586" lon="8.34918334213">
		<tag k="name" v="Brattstilibekken" />
		<tag k="ssr:stedsnr" v="156656" />
		<tag k="waterway" v="stream" />
	</node>
	<node id="-84720" lat="62.9820444466" lon="8.94477500068">
		<tag k="name" v="Bjønnabekken" />
		<tag k="ssr:stedsnr" v="156599" />
		<tag k="waterway" v="stream" />
	</node>
	<node id="-84719" lat="63.0013222253" lon="9.01027222686">
		<tag k="name" v="Solemshølen" />
		<tag k="place" v="locality" />
		<tag k="ssr:stedsnr" v="156574" />
	</node>
	<node id="-84711" lat="62.973588885" lon="9.08838334047">
		<tag k="name" v="Inner Bollåsfjellbekken" />
		<tag k="ssr:stedsnr" v="156519" />
		<tag k="waterway" v="stream" />
	</node>
	<node id="-82659" lat="62.9149027796" lon="8.66189444719">
		<tag k="name" v="Trettøya" />
		<tag k="place" v="island" />
		<tag k="ssr:stedsnr" v="460430" />
	</node>
	<node id="-84706" lat="63.0008611118" lon="8.54219722854">
		<tag k="name" v="Skivedvollbekken" />
		<tag k="ssr:stedsnr" v="156458" />
		<tag k="waterway" v="stream" />
	</node>
	<node id="-82655" lat="62.9995666649" lon="8.48087499917">
		<tag k="name" v="Skjylbekken" />
		<tag k="ssr:stedsnr" v="460374" />
		<tag k="waterway" v="stream" />
	</node>
	<node id="-82651" lat="62.9557472234" lon="8.4840805466">
		<tag k="name" v="Naustelva" />
		<tag k="ssr:stedsnr" v="460352" />
		<tag k="waterway" v="stream" />
	</node>
	<node id="-84698" lat="62.9187166627" lon="8.60298889462">
		<tag k="name" v="Tverrliveita" />
		<tag k="ssr:stedsnr" v="156407" />
		<tag k="waterway" v="stream" />
	</node>
	<node id="-84697" lat="62.9153027791" lon="8.58338610275">
		<tag k="name" v="Raudklevbekken" />
		<tag k="ssr:stedsnr" v="156404" />
		<tag k="waterway" v="stream" />
	</node>
	<node id="-84693" lat="62.9521638852" lon="8.69637221399">
		<tag k="name" v="Jordbekken" />
		<tag k="ssr:stedsnr" v="156391" />
		<tag k="waterway" v="stream" />
	</node>
	<node id="-82644" lat="63.0361027814" lon="8.53177777771">
		<tag k="name" v="Storbelevatnet" />
		<tag k="natural" v="water" />
		<tag k="ssr:stedsnr" v="460327" />
		<tag k="water" v="lake" />
	</node>
	<node id="-82640" lat="63.0294750015" lon="8.61723055524">
		<tag k="name" v="Husflomøya" />
		<tag k="place" v="island" />
		<tag k="ssr:stedsnr" v="460306" />
	</node>
	<node id="-84684" lat="63.044916668" lon="8.73566389679">
		<tag k="name" v="Snella" />
		<tag k="place" v="islet" />
		<tag k="ssr:stedsnr" v="156366" />
	</node>
	<node id="-84683" lat="62.9440944446" lon="8.72274721345">
		<tag k="name" v="Staverbekken" />
		<tag k="ssr:stedsnr" v="156362" />
		<tag k="waterway" v="stream" />
	</node>
	<node id="-84677" lat="63.0391555593" lon="8.45449443588">
		<tag k="name" v="Skitneskarbekken" />
		<tag k="ssr:stedsnr" v="156309" />
		<tag k="waterway" v="stream" />
	</node>
	<node id="-84676" lat="63.0336361157" lon="8.45884167464">
		<tag k="name" v="Skrøåbekken" />
		<tag k="ssr:stedsnr" v="156307" />
		<tag k="waterway" v="stream" />
	</node>
	<node id="-84674" lat="63.0316194468" lon="8.49803611263">
		<tag k="name" v="Lomtjønna" />
		<tag k="natural" v="water" />
		<tag k="ssr:stedsnr" v="156302" />
	</node>
	<node id="-82625" lat="63.027472221" lon="8.34760277161">
		<tag k="name" v="Litlåa" />
		<tag k="ssr:stedsnr" v="460180" />
		<tag k="waterway" v="stream" />
	</node>
	<node id="-82622" lat="62.906788889" lon="8.75957223047">
		<tag k="name" v="Tverråa" />
		<tag k="ssr:stedsnr" v="460128" />
		<tag k="waterway" v="river" />
	</node>
	<node id="-82620" lat="62.7815583316" lon="8.83897778598">
		<tag k="name" v="Tuvøya" />
		<tag k="natural" v="cape" />
		<tag k="ssr:stedsnr" v="460109" />
	</node>
	<node id="-82619" lat="62.7811444479" lon="8.85802777545">
		<tag k="name" v="Kuholmen" />
		<tag k="place" v="islet" />
		<tag k="ssr:stedsnr" v="460105" />
	</node>
	<node id="-82617" lat="62.9315333371" lon="8.87063055111">
		<tag k="name" v="Tveråa" />
		<tag k="ssr:stedsnr" v="460076" />
		<tag k="waterway" v="stream" />
	</node>
	<node id="-84664" lat="62.7817444421" lon="8.85709165815">
		<tag k="name" v="Nordholmen" />
		<tag k="place" v="islet" />
		<tag k="ssr:stedsnr" v="156261" />
	</node>
	<node id="-84663" lat="62.7803249995" lon="8.86211944893">
		<tag k="name" v="Kjekkelholmen" />
		<tag k="place" v="islet" />
		<tag k="ssr:stedsnr" v="156259" />
	</node>
	<node id="-84662" lat="62.9475777761" lon="8.46841388842">
		<tag k="name" v="Ljøsterbekken" />
		<tag k="ssr:stedsnr" v="156252" />
		<tag k="waterway" v="stream" />
	</node>
	<node id="-84661" lat="62.9526972216" lon="8.4983055617">
		<tag k="name" v="Steinneselva" />
		<tag k="ssr:stedsnr" v="156249" />
		<tag k="waterway" v="stream" />
	</node>
	<node id="-84659" lat="63.0447861071" lon="8.59758055592">
		<tag k="name" v="Gammelseterholmen" />
		<tag k="place" v="islet" />
		<tag k="ssr:stedsnr" v="156246" />
	</node>
	<node id="-84657" lat="62.8168277771" lon="8.72724722192">
		<tag k="name" v="Fallbekken" />
		<tag k="ssr:stedsnr" v="156243" />
		<tag k="waterway" v="stream" />
	</node>
	<node id="-82602" lat="63.0913472258" lon="8.83550556484">
		<tag k="name" v="Aspalibekken" />
		<tag k="ssr:stedsnr" v="459953" />
		<tag k="waterway" v="stream" />
	</node>
	<node id="-82600" lat="63.0540305596" lon="8.89693333938">
		<tag k="name" v="Gardsbekkneset" />
		<tag k="natural" v="cape" />
		<tag k="ssr:stedsnr" v="459910" />
	</node>
	<node id="-82599" lat="63.0473833342" lon="8.93157499579">
		<tag k="name" v="Munktjønna" />
		<tag k="natural" v="water" />
		<tag k="ssr:stedsnr" v="459904" />
	</node>
	<node id="-84645" lat="63.0257388917" lon="8.72270277078">
		<tag k="name" v="Orrenlitjønna" />
		<tag k="natural" v="water" />
		<tag k="ssr:stedsnr" v="156105" />
	</node>
	<node id="-82594" lat="62.9890666661" lon="8.8220000009">
		<tag k="name" v="Mogstadhølen" />
		<tag k="place" v="locality" />
		<tag k="ssr:stedsnr" v="459875" />
	</node>
	<node id="-84638" lat="62.9366972241" lon="8.82660556418">
		<tag k="name" v="Storøya" />
		<tag k="place" v="island" />
		<tag k="ssr:stedsnr" v="156052" />
	</node>
	<node id="-82587" lat="62.973555552" lon="8.78934165975">
		<tag k="name" v="Trøbekken" />
		<tag k="ssr:stedsnr" v="459851" />
		<tag k="waterway" v="stream" />
	</node>
	<node id="-82198" lat="62.9966111073" lon="8.91337778765">
		<tag k="alt_name" v="Holtahølen" />
		<tag k="name" v="Sveahølen" />
		<tag k="place" v="locality" />
		<tag k="ssr:stedsnr" v="277581" />
	</node>
	<node id="-84629" lat="63.1248527777" lon="8.9571388984">
		<tag k="name" v="Fossdalsfjellbekken" />
		<tag k="ssr:stedsnr" v="155975" />
		<tag k="waterway" v="stream" />
	</node>
	<node id="-84625" lat="63.078608329" lon="8.80918888868">
		<tag k="name" v="Lomtjønna" />
		<tag k="natural" v="water" />
		<tag k="ssr:stedsnr" v="155937" />
	</node>
	<node id="-84623" lat="63.0728083303" lon="8.79067222759">
		<tag k="name" v="Litlbekken" />
		<tag k="ssr:stedsnr" v="155929" />
		<tag k="waterway" v="stream" />
	</node>
	<node id="-84620" lat="63.0468250018" lon="8.99522777758">
		<tag k="name" v="Måkeholmen" />
		<tag k="place" v="islet" />
		<tag k="ssr:stedsnr" v="155875" />
	</node>
	<node id="-82571" lat="63.0249583347" lon="9.10036111786">
		<tag k="name" v="Kvamshølen" />
		<tag k="place" v="locality" />
		<tag k="ssr:stedsnr" v="459699" />
	</node>
	<node id="-82569" lat="63.0107083301" lon="9.07061388623">
		<tag k="name" v="Fjellbekken" />
		<tag k="ssr:stedsnr" v="459687" />
		<tag k="waterway" v="stream" />
	</node>
	<node id="-82567" lat="63.01585278" lon="9.10280278195">
		<tag k="name" v="Øysteinkleivbekken" />
		<tag k="ssr:stedsnr" v="459666" />
		<tag k="waterway" v="stream" />
	</node>
	<node id="-82564" lat="63.0182249996" lon="8.28036944483">
		<tag k="name" v="Rørbekken" />
		<tag k="ssr:stedsnr" v="459638" />
		<tag k="waterway" v="stream" />
	</node>
	<node id="-82563" lat="63.026113889" lon="8.30707778357">
		<tag k="name" v="Tverrelva" />
		<tag k="ssr:stedsnr" v="459636" />
		<tag k="waterway" v="stream" />
	</node>
	<node id="-82559" lat="62.9807555553" lon="8.93744722631">
		<tag k="name" v="Bjønnastoen" />
		<tag k="place" v="locality" />
		<tag k="ssr:stedsnr" v="459583" />
	</node>
	<node id="-84606" lat="62.9643722264" lon="8.80376388394">
		<tag k="name" v="Knykbekken" />
		<tag k="ssr:stedsnr" v="155750" />
		<tag k="waterway" v="stream" />
	</node>
	<node id="-82556" lat="62.9963611114" lon="8.95232499945">
		<tag k="name" v="Bekkerholmen" />
		<tag k="place" v="islet" />
		<tag k="ssr:stedsnr" v="459562" />
	</node>
	<node id="-84601" lat="63.0583805528" lon="9.05603054805">
		<tag k="name" v="Salttjønna" />
		<tag k="natural" v="water" />
		<tag k="ssr:stedsnr" v="155600" />
	</node>
	<node id="-82025" lat="63.006158329" lon="8.36194721257">
		<tag k="name" v="Ilabekken" />
		<tag k="ssr:stedsnr" v="95624" />
		<tag k="waterway" v="stream" />
	</node>
	<node id="-82544" lat="62.8815138905" lon="9.02614723034">
		<tag k="name" v="Vassdalsbekken" />
		<tag k="ssr:stedsnr" v="459447" />
		<tag k="waterway" v="river" />
	</node>
	<node id="-84589" lat="62.8033305525" lon="8.75790555705">
		<tag k="name" v="Brusetneset" />
		<tag k="natural" v="cape" />
		<tag k="ssr:stedsnr" v="155292" />
	</node>
	<node id="-82540" lat="62.8053777762" lon="8.69123333562">
		<tag k="name" v="Brenndalsbekken" />
		<tag k="ssr:stedsnr" v="459414" />
		<tag k="waterway" v="stream" />
	</node>
	<node id="-82539" lat="62.8171527793" lon="8.64819722514">
		<tag k="name" v="Rambjørbekken" />
		<tag k="ssr:stedsnr" v="459411" />
		<tag k="waterway" v="stream" />
	</node>
	<node id="-84584" lat="62.9367805581" lon="9.10601389585">
		<tag k="name" v="Botnbekken" />
		<tag k="ssr:stedsnr" v="146739" />
		<tag k="waterway" v="stream" />
	</node>
	<node id="-84583" lat="62.7780444427" lon="8.98267777237">
		<tag k="name" v="Neådalsvatna" />
		<tag k="natural" v="water" />
		<tag k="ssr:stedsnr" v="146737" />
		<tag k="water" v="lake" />
	</node>
	<node id="-84581" lat="62.994613888" lon="8.81802777848">
		<tag k="name" v="Storbekken" />
		<tag k="ssr:stedsnr" v="145273" />
		<tag k="waterway" v="stream" />
	</node>
	<node id="-84580" lat="63.0318277755" lon="8.74191945024">
		<tag k="name" v="Austre Orrenlitjønna" />
		<tag k="natural" v="water" />
		<tag k="ssr:stedsnr" v="145251" />
	</node>
	<node id="-84575" lat="63.0473805594" lon="8.79298054996">
		<tag k="name" v="Fagerfjelltjønna" />
		<tag k="natural" v="water" />
		<tag k="ssr:stedsnr" v="145148" />
	</node>
	<node id="-82525" lat="62.7831333328" lon="8.79917223054">
		<tag k="name" v="Gammelseterbekken" />
		<tag k="ssr:stedsnr" v="459312" />
		<tag k="waterway" v="stream" />
	</node>
	<node id="-84572" lat="62.9564666667" lon="8.75729444546">
		<tag k="name" v="Ranessetervatnet" />
		<tag k="natural" v="water" />
		<tag k="ssr:stedsnr" v="145119" />
	</node>
	<node id="-82521" lat="62.8248111085" lon="8.84081110718">
		<tag k="name" v="Ådalsbekken" />
		<tag k="ssr:stedsnr" v="459299" />
		<tag k="waterway" v="river" />
	</node>
	<node id="-82519" lat="63.0343666698" lon="8.88168055932">
		<tag k="name" v="Nesset" />
		<tag k="natural" v="cape" />
		<tag k="ssr:stedsnr" v="278238" />
	</node>
	<node id="-82517" lat="63.0004888874" lon="8.97703889822">
		<tag k="name" v="Talgøya" />
		<tag k="place" v="island" />
		<tag k="ssr:stedsnr" v="278220" />
	</node>
	<node id="-84562" lat="62.9874361076" lon="8.71031666503">
		<tag k="name" v="Øyagardsbekken" />
		<tag k="ssr:stedsnr" v="143062" />
		<tag k="waterway" v="stream" />
	</node>
	<node id="-84560" lat="62.7456500017" lon="9.03334722048">
		<tag k="name" v="Fallbekkvatnet" />
		<tag k="natural" v="water" />
		<tag k="ssr:stedsnr" v="133898" />
	</node>
	<node id="-82507" lat="62.7918083295" lon="8.73561111117">
		<tag k="name" v="Svartvassbekken" />
		<tag k="ssr:stedsnr" v="459282" />
		<tag k="waterway" v="stream" />
	</node>
	<node id="-84554" lat="62.944816666" lon="8.59720277539">
		<tag k="name" v="Bollåthaugtjørna" />
		<tag k="natural" v="water" />
		<tag k="ssr:stedsnr" v="133682" />
	</node>
	<node id="-82505" lat="62.7812944416" lon="8.86140554729">
		<tag k="name" v="Innerholmen" />
		<tag k="place" v="islet" />
		<tag k="ssr:stedsnr" v="459271" />
	</node>
	<node id="-82503" lat="62.8695472201" lon="8.65537223113">
		<tag k="name" v="Botnelva" />
		<tag k="ssr:stedsnr" v="278106" />
		<tag k="waterway" v="stream" />
	</node>
	<node id="-84550" lat="62.9616666648" lon="8.67161945007">
		<tag k="name" v="Skavlibekken" />
		<tag k="ssr:stedsnr" v="133657" />
		<tag k="waterway" v="stream" />
	</node>
	<node id="-84547" lat="63.0358333334" lon="8.84450833336">
		<tag k="name" v="Nordsvorka" />
		<tag k="ssr:stedsnr" v="133650" />
		<tag k="waterway" v="stream" />
	</node>
	<node id="-84542" lat="63.048130557" lon="8.99272222199">
		<tag k="name" v="Krokvatnet" />
		<tag k="natural" v="water" />
		<tag k="ssr:stedsnr" v="133596" />
		<tag k="water" v="lake" />
	</node>
	<node id="-84541" lat="62.8227750038" lon="8.65397778526">
		<tag k="name" v="Sagelva" />
		<tag k="ssr:stedsnr" v="133278" />
		<tag k="waterway" v="stream" />
	</node>
	<node id="-84538" lat="62.8076555515" lon="8.62471389875">
		<tag k="name" v="Blåvatnet" />
		<tag k="natural" v="water" />
		<tag k="ssr:stedsnr" v="133376" />
	</node>
	<node id="-84534" lat="62.7888916662" lon="8.975516671">
		<tag k="name" v="Kvennjulfjellvatnet" />
		<tag k="natural" v="water" />
		<tag k="ssr:stedsnr" v="133088" />
		<tag k="water" v="lake" />
	</node>
	<node id="-84530" lat="62.9290416699" lon="8.99392777548">
		<tag k="name" v="Åkerøya" />
		<tag k="place" v="islet" />
		<tag k="ssr:stedsnr" v="133050" />
	</node>
	<node id="-84529" lat="62.9194777772" lon="9.0166166653">
		<tag k="name" v="Stølseterbekken" />
		<tag k="ssr:stedsnr" v="133037" />
		<tag k="waterway" v="stream" />
	</node>
	<node id="-82478" lat="62.9914805542" lon="9.12630278474">
		<tag k="name" v="Kjølbekken" />
		<tag k="ssr:stedsnr" v="277508" />
		<tag k="waterway" v="stream" />
	</node>
	<node id="-82471" lat="62.9458333349" lon="9.09339444299">
		<tag k="name" v="Freksbakkbekken" />
		<tag k="ssr:stedsnr" v="277463" />
		<tag k="waterway" v="stream" />
	</node>
	<node id="-84515" lat="62.9797250045" lon="8.38901944539">
		<tag k="name" v="Tjuvåa" />
		<tag k="ssr:stedsnr" v="96744" />
		<tag k="waterway" v="stream" />
	</node>
	<node id="-82465" lat="63.0577944416" lon="8.66816111399">
		<tag k="name" v="Skrøåbekken" />
		<tag k="ssr:stedsnr" v="277102" />
		<tag k="waterway" v="stream" />
	</node>
	<node id="-84507" lat="63.0221472182" lon="8.49803054626">
		<tag k="name" v="Trøbekken" />
		<tag k="ssr:stedsnr" v="96350" />
		<tag k="waterway" v="stream" />
	</node>
	<node id="-82456" lat="63.0256249977" lon="8.72225556175">
		<tag k="name" v="Ytre Orrenlitjønna" />
		<tag k="natural" v="water" />
		<tag k="ssr:stedsnr" v="267407" />
	</node>
	<node id="-84501" lat="62.9556250035" lon="8.51700832784">
		<tag k="alt_name" v="Kobbskjærbekken" />
		<tag k="name" v="Skjærbekken" />
		<tag k="ssr:stedsnr" v="96478" />
		<tag k="waterway" v="stream" />
	</node>
	<node id="-82350" lat="62.8295388893" lon="8.74248888666">
		<tag k="name" v="Inner Tverrelva" />
		<tag k="ssr:stedsnr" v="216419" />
		<tag k="waterway" v="river" />
	</node>
	<node id="-84498" lat="62.9790777778" lon="8.74188054586">
		<tag k="name" v="Skeisøya" />
		<tag k="place" v="island" />
		<tag k="ssr:stedsnr" v="96388" />
	</node>
	<node id="-84492" lat="63.033047226" lon="8.52483611611">
		<tag k="name" v="Kriaberget" />
		<tag k="natural" v="cape" />
		<tag k="ssr:stedsnr" v="96287" />
	</node>
	<node id="-82442" lat="62.8382833294" lon="8.76191944246">
		<tag k="name" v="Svartbekktjønnin" />
		<tag k="natural" v="water" />
		<tag k="ssr:stedsnr" v="255112" />
	</node>
	<node id="-82441" lat="62.7895388892" lon="8.90467500144">
		<tag k="name" v="Nauståa" />
		<tag k="ssr:stedsnr" v="255109" />
		<tag k="waterway" v="river" />
	</node>
	<node id="-82440" lat="62.8648027736" lon="9.20466111946">
		<tag k="name" v="Bossvassbekken" />
		<tag k="ssr:stedsnr" v="255022" />
		<tag k="waterway" v="stream" />
	</node>
	<node id="-82439" lat="63.027505557" lon="8.41003056328">
		<tag k="alt_name" v="Settemsdalselva" />
		<tag k="name" v="Settemselva" />
		<tag k="ssr:stedsnr" v="254813" />
		<tag k="waterway" v="river" />
	</node>
	<node id="-82438" lat="62.9133361122" lon="8.48582778458">
		<tag k="name" v="Øygardsbekken" />
		<tag k="ssr:stedsnr" v="254716" />
		<tag k="waterway" v="stream" />
	</node>
	<node id="-82437" lat="62.9102166703" lon="8.53642778594">
		<tag k="name" v="Lykkjebekken" />
		<tag k="ssr:stedsnr" v="254714" />
		<tag k="waterway" v="stream" />
	</node>
	<node id="-84482" lat="63.0981249958" lon="8.82107222961">
		<tag k="name" v="Starrneset" />
		<tag k="natural" v="cape" />
		<tag k="ssr:stedsnr" v="95984" />
	</node>
	<node id="-84480" lat="63.0947694481" lon="8.74860000461">
		<tag k="name" v="Skaftskålbekken" />
		<tag k="ssr:stedsnr" v="95972" />
		<tag k="waterway" v="stream" />
	</node>
	<node id="-84477" lat="63.040830558" lon="8.97627221464">
		<tag k="name" v="Fjøstjønna" />
		<tag k="natural" v="water" />
		<tag k="ssr:stedsnr" v="95887" />
	</node>
	<node id="-84476" lat="63.0494666645" lon="8.96354999583">
		<tag k="name" v="Bortistuholman" />
		<tag k="place" v="islet" />
		<tag k="ssr:stedsnr" v="95876" />
	</node>
	<node id="-84474" lat="63.0380111079" lon="8.34662499738">
		<tag k="name" v="Kjelen" />
		<tag k="natural" v="water" />
		<tag k="ssr:stedsnr" v="96151" />
	</node>
	<node id="-82424" lat="63.0339611095" lon="8.72110834195">
		<tag k="name" v="Lomtjønna" />
		<tag k="natural" v="water" />
		<tag k="ssr:stedsnr" v="449069" />
	</node>
	<node id="-82423" lat="63.0741027764" lon="8.86410278762">
		<tag k="name" v="Lomtjønna" />
		<tag k="natural" v="water" />
		<tag k="ssr:stedsnr" v="449062" />
	</node>
	<node id="-84469" lat="63.0187944465" lon="8.96660556188">
		<tag k="name" v="Storslættjønna" />
		<tag k="natural" v="water" />
		<tag k="ssr:stedsnr" v="95931" />
	</node>
	<node id="-84467" lat="62.9250944482" lon="8.99614722026">
		<tag k="name" v="Langøybekken" />
		<tag k="ssr:stedsnr" v="95799" />
		<tag k="waterway" v="stream" />
	</node>
	<node id="-84464" lat="63.0305527786" lon="9.0930638829">
		<tag k="name" v="Stallbekken" />
		<tag k="ssr:stedsnr" v="95676" />
		<tag k="waterway" v="stream" />
	</node>
	<node id="-84462" lat="63.047147219" lon="9.05693610828">
		<tag k="name" v="Rørøybekken" />
		<tag k="ssr:stedsnr" v="95578" />
		<tag k="waterway" v="stream" />
	</node>
	<node id="-82410" lat="62.9801750022" lon="8.66487778232">
		<tag k="name" v="Hesthølen" />
		<tag k="place" v="locality" />
		<tag k="ssr:stedsnr" v="447180" />
	</node>
	<node id="-82409" lat="62.8076416682" lon="8.62469444224">
		<tag k="name" v="Vassnebbvatnet" />
		<tag k="natural" v="water" />
		<tag k="ssr:stedsnr" v="445631" />
		<tag k="water" v="lake" />
	</node>
	<node id="-84445" lat="62.7468333358" lon="8.90208610568">
		<tag k="name" v="Sør Fallbekken" />
		<tag k="ssr:stedsnr" v="95260" />
		<tag k="waterway" v="river" />
	</node>
	<node id="-82395" lat="62.9590777762" lon="8.55778610179">
		<tag k="name" v="Bytbekken" />
		<tag k="ssr:stedsnr" v="217428" />
		<tag k="waterway" v="stream" />
	</node>
	<node id="-82393" lat="62.9164638893" lon="8.59972222366">
		<tag k="name" v="Tverrlibekken" />
		<tag k="ssr:stedsnr" v="217409" />
		<tag k="waterway" v="stream" />
	</node>
	<node id="-82392" lat="62.9126916645" lon="8.5893249919">
		<tag k="name" v="Høglibekken" />
		<tag k="ssr:stedsnr" v="217408" />
		<tag k="waterway" v="stream" />
	</node>
	<node id="-82389" lat="62.9948083354" lon="8.90385832366">
		<tag k="name" v="Flønet" />
		<tag k="natural" v="beach" />
		<tag k="ssr:stedsnr" v="217216" />
	</node>
	<node id="-82388" lat="63.0005666685" lon="8.99352778244">
		<tag k="name" v="Kaninøra" />
		<tag k="place" v="islet" />
		<tag k="ssr:stedsnr" v="217203" />
	</node>
	<node id="-84433" lat="62.8884861095" lon="8.59876666397">
		<tag k="name" v="Trøbekken" />
		<tag k="ssr:stedsnr" v="95051" />
		<tag k="waterway" v="stream" />
	</node>
	<node id="-82384" lat="63.0188083293" lon="8.44115833837">
		<tag k="name" v="Moldbergbekken" />
		<tag k="ssr:stedsnr" v="217325" />
		<tag k="waterway" v="stream" />
	</node>
	<node id="-84431" lat="62.9897638932" lon="8.9209416647">
		<tag k="name" v="Vindølstoen" />
		<tag k="place" v="locality" />
		<tag k="ssr:stedsnr" v="95527" />
	</node>
	<node id="-82377" lat="62.8313222244" lon="8.69627777934">
		<tag k="name" v="Utloppet" />
		<tag k="ssr:stedsnr" v="217114" />
		<tag k="waterway" v="stream" />
	</node>
	<node id="-84688" lat="62.9435722227" lon="8.73480833949">
		<tag k="name" v="Lomtjønna" />
		<tag k="natural" v="water" />
		<tag k="ssr:stedsnr" v="156376" />
	</node>
	<node id="-84422" lat="62.9525055559" lon="8.92115832707">
		<tag k="name" v="Langvatnet" />
		<tag k="natural" v="water" />
		<tag k="ssr:stedsnr" v="86841" />
	</node>
	<node id="-82336" lat="63.0750222213" lon="9.07010555392">
		<tag k="name" v="Mongvatnet" />
		<tag k="natural" v="water" />
		<tag k="ssr:stedsnr" v="195745" />
	</node>
	<node id="-82361" lat="62.9671055557" lon="8.79707777977">
		<tag k="name" v="Reinvassbekken" />
		<tag k="ssr:stedsnr" v="216744" />
		<tag k="waterway" v="stream" />
	</node>
	<node id="-82360" lat="62.9724472262" lon="8.8641611116">
		<tag k="name" v="Litleå-vatnet" />
		<tag k="natural" v="water" />
		<tag k="ssr:stedsnr" v="216732" />
	</node>
	<node id="-84404" lat="62.9924166669" lon="9.00402222856">
		<tag k="alt_name" v="Grytå" />
		<tag k="name" v="Grytbekken" />
		<tag k="ssr:stedsnr" v="73495" />
		<tag k="waterway" v="stream" />
	</node>
	<node id="-84402" lat="63.0428916688" lon="8.75231667142">
		<tag k="name" v="Svorka" />
		<tag k="ssr:stedsnr" v="73483" />
		<tag k="waterway" v="river" />
	</node>
	<node id="-84398" lat="62.8008916705" lon="9.06446945288">
		<tag k="alt_name" v="Salsvatnet, øvre" />
		<tag k="name" v="Øvre Salsvatnet" />
		<tag k="natural" v="water" />
		<tag k="ssr:stedsnr" v="73096" />
		<tag k="water" v="lake" />
	</node>
	<node id="-84396" lat="62.7626250018" lon="9.02169166219">
		<tag k="name" v="Neåa" />
		<tag k="ssr:stedsnr" v="73159" />
		<tag k="waterway" v="river" />
	</node>
	<node id="-84395" lat="62.7994333295" lon="9.00124443746">
		<tag k="name" v="Naustådalsvatnet" />
		<tag k="natural" v="water" />
		<tag k="ssr:stedsnr" v="73072" />
		<tag k="water" v="lake" />
	</node>
	<node id="-82345" lat="62.763661108" lon="8.90758888436">
		<tag k="name" v="Gammelseterbekken" />
		<tag k="ssr:stedsnr" v="216332" />
		<tag k="waterway" v="stream" />
	</node>
	<node id="-82344" lat="62.7902166657" lon="8.89460278267">
		<tag k="name" v="Bronabekken" />
		<tag k="ssr:stedsnr" v="216322" />
		<tag k="waterway" v="stream" />
	</node>
	<node id="-84388" lat="62.8662472249" lon="8.87121111755">
		<tag k="name" v="Botnvatnet" />
		<tag k="natural" v="water" />
		<tag k="ssr:stedsnr" v="73028" />
		<tag k="water" v="lake" />
	</node>
	<node id="-84387" lat="62.9115722255" lon="9.15899721567">
		<tag k="name" v="Gråsjøen" />
		<tag k="natural" v="water" />
		<tag k="ssr:stedsnr" v="73017" />
		<tag k="water" v="lake" />
	</node>
	<node id="-84386" lat="62.9085555539" lon="8.90503334093">
		<tag k="name" v="Fauskåvatnet" />
		<tag k="natural" v="water" />
		<tag k="ssr:stedsnr" v="73013" />
	</node>
	<node id="-84384" lat="62.9316944451" lon="8.58174444539">
		<tag k="name" v="Grønurvatnet" />
		<tag k="natural" v="water" />
		<tag k="ssr:stedsnr" v="72693" />
	</node>
	<node id="-82335" lat="63.0805972257" lon="8.7543777761">
		<tag k="name" v="Nedre Myrholtvatnet" />
		<tag k="natural" v="water" />
		<tag k="ssr:stedsnr" v="195728" />
	</node>
	<node id="-82671" lat="62.9560444484" lon="8.53563888761">
		<tag k="alt_name" v="Alvikbekken" />
		<tag k="name" v="Ålvikbekken" />
		<tag k="ssr:stedsnr" v="460519" />
		<tag k="waterway" v="stream" />
	</node>
	<node id="-84376" lat="62.9566055592" lon="8.58586389861">
		<tag k="name" v="Holtaelva" />
		<tag k="ssr:stedsnr" v="72657" />
		<tag k="waterway" v="stream" />
	</node>
	<node id="-82326" lat="62.8991666674" lon="9.01949722448">
		<tag k="name" v="Breiskarbekken" />
		<tag k="ssr:stedsnr" v="194006" />
		<tag k="waterway" v="stream" />
	</node>
	<node id="-82328" lat="62.9238861141" lon="8.51163611934">
		<tag k="name" v="Raudmælbekken" />
		<tag k="ssr:stedsnr" v="194706" />
		<tag k="waterway" v="stream" />
	</node>
	<node id="-82318" lat="62.9664722264" lon="8.69613055526">
		<tag k="name" v="Gryta" />
		<tag k="ssr:stedsnr" v="278934" />
		<tag k="waterway" v="stream" />
	</node>
	<node id="-84361" lat="63.0096444411" lon="8.6217250001">
		<tag k="name" v="Dalabekken" />
		<tag k="ssr:stedsnr" v="36834" />
		<tag k="waterway" v="stream" />
	</node>
	<node id="-84357" lat="62.9589722235" lon="8.75955000875">
		<tag k="name" v="Seterbekken" />
		<tag k="ssr:stedsnr" v="35928" />
		<tag k="waterway" v="stream" />
	</node>
	<node id="-82305" lat="63.0143777756" lon="8.58906944555">
		<tag k="name" v="Sagelva" />
		<tag k="ssr:stedsnr" v="278822" />
		<tag k="waterway" v="stream" />
	</node>
	<node id="-82294" lat="62.9567749986" lon="8.54151943581">
		<tag k="name" v="Grønskjærbekken" />
		<tag k="ssr:stedsnr" v="278511" />
		<tag k="waterway" v="stream" />
	</node>
	<node id="-84336" lat="62.941102779" lon="8.56290277832">
		<tag k="name" v="Grøntjønna" />
		<tag k="natural" v="water" />
		<tag k="ssr:stedsnr" v="35512" />
	</node>
	<node id="-84334" lat="62.917436108" lon="8.59217500143">
		<tag k="name" v="Seterbekken" />
		<tag k="ssr:stedsnr" v="35502" />
		<tag k="waterway" v="stream" />
	</node>
	<node id="-82280" lat="62.9805388916" lon="8.72666944065">
		<tag k="name" v="Prestøya" />
		<tag k="place" v="island" />
		<tag k="ssr:stedsnr" v="278430" />
	</node>
	<node id="-82279" lat="62.9292666679" lon="8.7131888905">
		<tag k="name" v="Øyan" />
		<tag k="place" v="island" />
		<tag k="ssr:stedsnr" v="278415" />
	</node>
	<node id="-84326" lat="63.0054972196" lon="8.49488889654">
		<tag k="name" v="Sagbekken" />
		<tag k="ssr:stedsnr" v="35380" />
		<tag k="waterway" v="stream" />
	</node>
	<node id="-84321" lat="63.0475249971" lon="8.54304999072">
		<tag k="name" v="Hjelmkånåbekken" />
		<tag k="ssr:stedsnr" v="35334" />
		<tag k="waterway" v="stream" />
	</node>
	<node id="-84318" lat="63.0468138852" lon="8.515222226">
		<tag k="name" v="Hjelmbekken" />
		<tag k="ssr:stedsnr" v="35323" />
		<tag k="waterway" v="stream" />
	</node>
	<node id="-84317" lat="63.0575250001" lon="8.62318611721">
		<tag k="name" v="Litlvassbekken" />
		<tag k="ssr:stedsnr" v="35315" />
		<tag k="waterway" v="stream" />
	</node>
	<node id="-84316" lat="63.0408638932" lon="8.5455249998">
		<tag k="name" v="Midtvasselva" />
		<tag k="ssr:stedsnr" v="35311" />
		<tag k="waterway" v="river" />
	</node>
	<node id="-84312" lat="63.0949083356" lon="8.81965000936">
		<tag k="name" v="Osen" />
		<tag k="natural" v="bay" />
		<tag k="ssr:stedsnr" v="35276" />
	</node>
	<node id="-82262" lat="63.037125003" lon="8.51856110222">
		<tag k="name" v="Hjelmbekken" />
		<tag k="ssr:stedsnr" v="278303" />
		<tag k="waterway" v="stream" />
	</node>
	<node id="-82260" lat="63.0226333336" lon="8.54638610708">
		<tag k="name" v="Hakstadbekken" />
		<tag k="ssr:stedsnr" v="278287" />
		<tag k="waterway" v="stream" />
	</node>
	<node id="-84307" lat="63.008541671" lon="8.97533889423">
		<tag k="name" v="Mogryta" />
		<tag k="ssr:stedsnr" v="35234" />
		<tag k="waterway" v="river" />
	</node>
	<node id="-84302" lat="63.0199861143" lon="9.09770000678">
		<tag k="name" v="Haugsøya" />
		<tag k="place" v="island" />
		<tag k="ssr:stedsnr" v="35142" />
	</node>
	<node id="-82251" lat="63.0344027805" lon="8.53185278158">
		<tag k="name" v="Storvassholmen" />
		<tag k="place" v="islet" />
		<tag k="ssr:stedsnr" v="156237" />
	</node>
	<node id="-82250" lat="63.0408472208" lon="8.53924443975">
		<tag k="name" v="Midtivatnet" />
		<tag k="natural" v="water" />
		<tag k="ssr:stedsnr" v="156235" />
		<tag k="water" v="lake" />
	</node>
	<node id="-82245" lat="62.7873611107" lon="8.69488333753">
		<tag k="name" v="Haukåøyan" />
		<tag k="place" v="island" />
		<tag k="ssr:stedsnr" v="156224" />
	</node>
	<node id="-84292" lat="62.9373694403" lon="8.7942416667">
		<tag k="name" v="Langøya" />
		<tag k="place" v="island" />
		<tag k="ssr:stedsnr" v="35065" />
	</node>
	<node id="-83968" lat="62.9994472252" lon="8.9759611139">
		<tag k="name" v="Talgøypollen" />
		<tag k="place" v="locality" />
		<tag k="ssr:stedsnr" v="884517" />
	</node>
	<node id="-82239" lat="62.7772833327" lon="8.8700638903">
		<tag k="name" v="Flakkjem" />
		<tag k="ssr:stedsnr" v="278085" />
		<tag k="waterway" v="stream" />
	</node>
	<node id="-84284" lat="63.1071499989" lon="8.82305554836">
		<tag k="name" v="Karihavet" />
		<tag k="natural" v="bay" />
		<tag k="ssr:stedsnr" v="34997" />
	</node>
	<node id="-84282" lat="63.0594277763" lon="8.87601666778">
		<tag k="name" v="Fagermyrtjønnan" />
		<tag k="natural" v="water" />
		<tag k="ssr:stedsnr" v="34965" />
	</node>
	<node id="-84279" lat="63.0760000009" lon="8.82634166601">
		<tag k="name" v="Toreseterelva" />
		<tag k="ssr:stedsnr" v="34924" />
		<tag k="waterway" v="river" />
	</node>
	<node id="-82313" lat="62.9660416684" lon="8.71656666904">
		<tag k="name" v="Monåbekken" />
		<tag k="ssr:stedsnr" v="278900" />
		<tag k="waterway" v="stream" />
	</node>
	<node id="-84274" lat="63.001152776" lon="8.93779167461">
		<tag k="name" v="Djupdalsbekken" />
		<tag k="ssr:stedsnr" v="34904" />
		<tag k="waterway" v="stream" />
	</node>
	<node id="-84268" lat="63.0489499959" lon="8.96400278757">
		<tag k="name" v="Rørsundet" />
		<tag k="natural" v="strait" />
		<tag k="ssr:stedsnr" v="34851" />
	</node>
	<node id="-84267" lat="62.9800138896" lon="8.78967222241">
		<tag k="name" v="Krangnesøya" />
		<tag k="place" v="island" />
		<tag k="ssr:stedsnr" v="34848" />
	</node>
	<node id="-84264" lat="62.9781694402" lon="8.88239445136">
		<tag k="name" v="Seterbekken" />
		<tag k="ssr:stedsnr" v="34812" />
		<tag k="waterway" v="stream" />
	</node>
	<node id="-82211" lat="63.0126055531" lon="9.05271111309">
		<tag k="name" v="Sandhølen" />
		<tag k="place" v="locality" />
		<tag k="ssr:stedsnr" v="277699" />
	</node>
	<node id="-82210" lat="63.0151611097" lon="9.02660833298">
		<tag k="name" v="Kløvsteinbekken" />
		<tag k="ssr:stedsnr" v="277694" />
		<tag k="waterway" v="stream" />
	</node>
	<node id="-84254" lat="63.0221166673" lon="9.01787777857">
		<tag k="name" v="Kløvsteinbekken" />
		<tag k="ssr:stedsnr" v="34698" />
		<tag k="waterway" v="stream" />
	</node>
	<node id="-84253" lat="63.0318361118" lon="9.09351667328">
		<tag k="name" v="Dalseggbekken" />
		<tag k="ssr:stedsnr" v="34695" />
		<tag k="waterway" v="stream" />
	</node>
	<node id="-84251" lat="63.038338887" lon="9.09876112037">
		<tag k="name" v="Storbekken" />
		<tag k="ssr:stedsnr" v="34691" />
		<tag k="waterway" v="stream" />
	</node>
	<node id="-84248" lat="63.0183305576" lon="8.27510000727">
		<tag k="name" v="Kallsetelva" />
		<tag k="ssr:stedsnr" v="34625" />
		<tag k="waterway" v="stream" />
	</node>
	<node id="-82199" lat="63.0421166624" lon="9.07458611842">
		<tag k="name" v="Svorkakrokan" />
		<tag k="ssr:stedsnr" v="277600" />
		<tag k="waterway" v="stream" />
	</node>
	<node id="-84246" lat="63.0666638921" lon="9.04821389158">
		<tag k="name" v="Stor-Salvatnet" />
		<tag k="natural" v="water" />
		<tag k="ssr:stedsnr" v="34588" />
		<tag k="water" v="lake" />
	</node>
	<node id="-84242" lat="62.9993805545" lon="8.98456388942">
		<tag k="name" v="Seterhølen" />
		<tag k="place" v="locality" />
		<tag k="ssr:stedsnr" v="34549" />
	</node>
	<node id="-84236" lat="62.9552138866" lon="8.96780000755">
		<tag k="name" v="Kumelbekken" />
		<tag k="ssr:stedsnr" v="34452" />
		<tag k="waterway" v="stream" />
	</node>
	<node id="-82182" lat="62.9775722247" lon="9.08916666628">
		<tag k="name" v="Heimer Bollåfjellbekken" />
		<tag k="ssr:stedsnr" v="277478" />
		<tag k="waterway" v="stream" />
	</node>
	<node id="-82179" lat="62.9223666664" lon="8.8179333356">
		<tag k="name" v="Helsveltbekken" />
		<tag k="ssr:stedsnr" v="277296" />
		<tag k="waterway" v="stream" />
	</node>
	<node id="-82178" lat="62.795655556" lon="8.80598888557">
		<tag k="name" v="Fjøslibekken" />
		<tag k="ssr:stedsnr" v="277283" />
		<tag k="waterway" v="stream" />
	</node>
	<node id="-84224" lat="63.0318277742" lon="8.74180555044">
		<tag k="name" v="Auster Orrenlitjønna" />
		<tag k="natural" v="water" />
		<tag k="ssr:stedsnr" v="34334" />
	</node>
	<node id="-84222" lat="62.7654611155" lon="8.90140000547">
		<tag k="name" v="Smekkerfossen" />
		<tag k="natural" v="waterfall" />
		<tag k="ssr:stedsnr" v="34315" />
	</node>
	<node id="-82173" lat="62.977294443" lon="8.7486638871">
		<tag k="name" v="Hopholmen" />
		<tag k="place" v="island" />
		<tag k="ssr:stedsnr" v="277364" />
	</node>
	<node id="-84220" lat="62.8825861123" lon="8.7945638865">
		<tag k="name" v="Skarbekken" />
		<tag k="ssr:stedsnr" v="34297" />
		<tag k="waterway" v="stream" />
	</node>
	<node id="-84217" lat="62.7826833347" lon="8.81010278474">
		<tag k="name" v="Bekkefalla" />
		<tag k="ssr:stedsnr" v="34292" />
		<tag k="waterway" v="rapids" />
	</node>
	<node id="-84212" lat="62.7798333294" lon="8.7897861132">
		<tag k="name" v="Geitbekken" />
		<tag k="ssr:stedsnr" v="34264" />
		<tag k="waterway" v="stream" />
	</node>
	<node id="-84209" lat="62.7811277822" lon="8.86298055925">
		<tag k="name" v="Kjerringøya" />
		<tag k="place" v="islet" />
		<tag k="ssr:stedsnr" v="34253" />
	</node>
	<node id="-82160" lat="62.9151055593" lon="8.62292776929">
		<tag k="name" v="Brubekken" />
		<tag k="ssr:stedsnr" v="133733" />
		<tag k="waterway" v="stream" />
	</node>
	<node id="-82159" lat="63.0964999983" lon="8.79409721287">
		<tag k="name" v="Neverholttjønna" />
		<tag k="natural" v="water" />
		<tag k="ssr:stedsnr" v="133726" />
	</node>
	<node id="-84205" lat="62.8031166641" lon="8.68406945188">
		<tag k="name" v="Brenndalsbekken" />
		<tag k="ssr:stedsnr" v="34235" />
		<tag k="waterway" v="stream" />
	</node>
	<node id="-84203" lat="63.0668472266" lon="8.72802778668">
		<tag k="name" v="Midtslættbekken" />
		<tag k="ssr:stedsnr" v="34123" />
		<tag k="waterway" v="stream" />
	</node>
	<node id="-81979" lat="62.7786944417" lon="8.68833334084">
		<tag k="name" v="Kjerringelva" />
		<tag k="ssr:stedsnr" v="242100" />
		<tag k="waterway" v="stream" />
	</node>
	<node id="-82148" lat="63.0613694475" lon="8.92933055368">
		<tag k="name" v="Gardsbekken" />
		<tag k="ssr:stedsnr" v="133612" />
		<tag k="waterway" v="stream" />
	</node>
	<node id="-84195" lat="63.1169233936" lon="8.82043643797">
		<tag k="name" v="Litlvatnet" />
		<tag k="natural" v="water" />
		<tag k="ssr:stedsnr" v="25863" />
		<tag k="water" v="lake" />
	</node>
	<node id="-84192" lat="62.9001750026" lon="9.28922500247">
		<tag k="name" v="Rundtjønna" />
		<tag k="natural" v="water" />
		<tag k="ssr:stedsnr" v="25748" />
	</node>
	<node id="-84191" lat="62.8931666698" lon="9.18686945249">
		<tag k="name" v="Reinsvika" />
		<tag k="natural" v="bay" />
		<tag k="ssr:stedsnr" v="25383" />
	</node>
	<node id="-84190" lat="62.9189972234" lon="8.9954277819">
		<tag k="name" v="Storøya" />
		<tag k="place" v="islet" />
		<tag k="ssr:stedsnr" v="25039" />
	</node>
	<node id="-82137" lat="62.9824277764" lon="8.85296667601">
		<tag k="name" v="Vettavatnet" />
		<tag k="natural" v="water" />
		<tag k="ssr:stedsnr" v="133403" />
	</node>
	<node id="-82135" lat="62.82666389" lon="8.81902778309">
		<tag k="name" v="Ådalstjønna" />
		<tag k="natural" v="water" />
		<tag k="ssr:stedsnr" v="133118" />
	</node>
	<node id="-82134" lat="62.8259722181" lon="8.80537221647">
		<tag k="name" v="Steintelvatnet" />
		<tag k="natural" v="water" />
		<tag k="ssr:stedsnr" v="133117" />
	</node>
	<node id="-82133" lat="62.8667555521" lon="8.92028055848">
		<tag k="name" v="Fruhøttvatnet" />
		<tag k="natural" v="water" />
		<tag k="ssr:stedsnr" v="133023" />
		<tag k="water" v="lake" />
	</node>
	<node id="-82132" lat="62.8626361119" lon="9.0399416726">
		<tag k="name" v="Vassdalsvatnet" />
		<tag k="natural" v="water" />
		<tag k="ssr:stedsnr" v="133013" />
		<tag k="water" v="lake" />
	</node>
	<node id="-84178" lat="62.9014833295" lon="9.00617777245">
		<tag k="name" v="Krokbekken" />
		<tag k="ssr:stedsnr" v="24039" />
		<tag k="waterway" v="stream" />
	</node>
	<node id="-84173" lat="62.8314666692" lon="8.7435027872">
		<tag k="name" v="Indre Tverrelva" />
		<tag k="ssr:stedsnr" v="24022" />
		<tag k="waterway" v="stream" />
	</node>
	<node id="-82120" lat="62.9931583337" lon="9.07214166039">
		<tag k="alt_name" v="Bjørnavatnet" />
		<tag k="name" v="Solliråvatnet" />
		<tag k="natural" v="water" />
		<tag k="ssr:stedsnr" v="266208" />
	</node>
	<node id="-84167" lat="62.9901222225" lon="8.61555276976">
		<tag k="name" v="Neråbekken" />
		<tag k="ssr:stedsnr" v="23479" />
		<tag k="waterway" v="stream" />
	</node>
	<node id="-82728" lat="63.0755111142" lon="8.75620278584">
		<tag k="name" v="Neverholtelva" />
		<tag k="ssr:stedsnr" v="316767" />
		<tag k="waterway" v="stream" />
	</node>
	<node id="-84163" lat="62.8364472201" lon="9.29715832576">
		<tag k="name" v="Svartåa" />
		<tag k="ssr:stedsnr" v="12866" />
		<tag k="waterway" v="river" />
	</node>
	<node id="-82114" lat="62.7882361083" lon="9.26703610353">
		<tag k="name" v="Mellomfjelltjønnin" />
		<tag k="natural" v="water" />
		<tag k="ssr:stedsnr" v="255895" />
		<tag k="water" v="lake" />
	</node>
	<node id="-84161" lat="62.8720111151" lon="8.64571110642">
		<tag k="name" v="Sagelva" />
		<tag k="ssr:stedsnr" v="12860" />
		<tag k="waterway" v="river" />
	</node>
	<node id="-82112" lat="63.0242416654" lon="8.42149722272">
		<tag k="name" v="Svartvatnet" />
		<tag k="natural" v="water" />
		<tag k="ssr:stedsnr" v="255881" />
	</node>
	<node id="-82111" lat="63.0205499985" lon="8.4339583376">
		<tag k="name" v="Svarttjørna" />
		<tag k="natural" v="water" />
		<tag k="ssr:stedsnr" v="255878" />
	</node>
	<node id="-84158" lat="63.003530552" lon="8.8446416759">
		<tag k="name" v="Brøskjåa" />
		<tag k="ssr:stedsnr" v="12663" />
		<tag k="waterway" v="stream" />
	</node>
	<node id="-82106" lat="63.043658337" lon="9.10629167255">
		<tag k="name" v="Svorka" />
		<tag k="ssr:stedsnr" v="255642" />
		<tag k="waterway" v="stream" />
	</node>
	<node id="-84152" lat="63.0871888909" lon="8.81675555144">
		<tag k="name" v="Hardbakkelva" />
		<tag k="ssr:stedsnr" v="12718" />
		<tag k="waterway" v="stream" />
	</node>
	<node id="-84149" lat="63.0246722254" lon="8.73392222512">
		<tag k="name" v="Langvatnet" />
		<tag k="natural" v="water" />
		<tag k="ssr:stedsnr" v="12461" />
		<tag k="water" v="lake" />
	</node>
	<node id="-82099" lat="62.9819222251" lon="8.83375278654">
		<tag k="name" v="Honnstadvatnet" />
		<tag k="natural" v="water" />
		<tag k="ssr:stedsnr" v="255459" />
	</node>
	<node id="-84146" lat="62.9585388925" lon="9.09501944435">
		<tag k="name" v="Eldjønnbubekken" />
		<tag k="ssr:stedsnr" v="12433" />
		<tag k="waterway" v="stream" />
	</node>
	<node id="-82090" lat="62.9756111071" lon="8.68139721559">
		<tag k="name" v="Midtgardsøran" />
		<tag k="natural" v="beach" />
		<tag k="ssr:stedsnr" v="96922" />
	</node>
	<node id="-84137" lat="62.7789250034" lon="8.75503056387">
		<tag k="name" v="Lomtjønna" />
		<tag k="natural" v="water" />
		<tag k="ssr:stedsnr" v="12085" />
	</node>
	<node id="-82088" lat="62.9733111069" lon="8.74500277817">
		<tag k="name" v="Rostigbekken" />
		<tag k="ssr:stedsnr" v="96912" />
		<tag k="waterway" v="stream" />
	</node>
	<node id="-84133" lat="62.8049472228" lon="8.87679167571">
		<tag k="name" v="Rognskogbotnvatnet" />
		<tag k="natural" v="water" />
		<tag k="ssr:stedsnr" v="12078" />
	</node>
	<node id="-84132" lat="62.9238750039" lon="8.92497221397">
		<tag k="name" v="Kudalsvatnet" />
		<tag k="natural" v="water" />
		<tag k="ssr:stedsnr" v="12064" />
	</node>
	<node id="-82082" lat="62.9593444475" lon="8.56917499379">
		<tag k="name" v="Naustbekken" />
		<tag k="ssr:stedsnr" v="96460" />
		<tag k="waterway" v="stream" />
	</node>
	<node id="-84128" lat="62.8718861122" lon="9.11348888519">
		<tag k="name" v="Svartvatnet" />
		<tag k="natural" v="water" />
		<tag k="ssr:stedsnr" v="12026" />
		<tag k="water" v="lake" />
	</node>
	<node id="-84123" lat="62.8494888877" lon="8.74113888839">
		<tag k="name" v="Sulvatnet" />
		<tag k="natural" v="water" />
		<tag k="ssr:stedsnr" v="12116" />
		<tag k="water" v="lake" />
	</node>
	<node id="-84121" lat="62.8971361105" lon="8.7263138955">
		<tag k="name" v="Gardsbekken" />
		<tag k="ssr:stedsnr" v="12014" />
		<tag k="waterway" v="stream" />
	</node>
	<node id="-82072" lat="63.0253555575" lon="8.61767500541">
		<tag k="name" v="Kvennabekken" />
		<tag k="ssr:stedsnr" v="96272" />
		<tag k="waterway" v="river" />
	</node>
	<node id="-82071" lat="63.0216555545" lon="8.58677500098">
		<tag k="name" v="Einholmen" />
		<tag k="place" v="islet" />
		<tag k="ssr:stedsnr" v="96271" />
	</node>
	<node id="-82068" lat="63.0479055551" lon="8.98260278578">
		<tag k="name" v="Bjørkøya" />
		<tag k="place" v="island" />
		<tag k="ssr:stedsnr" v="96212" />
	</node>
	<node id="-84113" lat="62.9792305565" lon="8.72945278055">
		<tag k="name" v="Storøra" />
		<tag k="natural" v="beach" />
		<tag k="ssr:stedsnr" v="217373" />
	</node>
	<node id="-82059" lat="62.9749416646" lon="8.37132777966">
		<tag k="name" v="Tjuvåa" />
		<tag k="ssr:stedsnr" v="96163" />
		<tag k="waterway" v="stream" />
	</node>
	<node id="-81943" lat="63.0400499963" lon="9.05928611255">
		<tag k="name" v="Storsvorkavatnet" />
		<tag k="natural" v="water" />
		<tag k="ssr:stedsnr" v="12632" />
	</node>
	<node id="-82054" lat="63.0450750038" lon="8.86721943837">
		<tag k="name" v="Nordsvorka" />
		<tag k="ssr:stedsnr" v="95965" />
		<tag k="waterway" v="river" />
	</node>
	<node id="-84101" lat="63.0506750021" lon="8.96009999501">
		<tag k="name" v="Halsan" />
		<tag k="natural" v="strait" />
		<tag k="ssr:stedsnr" v="217184" />
	</node>
	<node id="-84097" lat="62.9455138856" lon="8.71801665781">
		<tag k="name" v="Bjønnåa" />
		<tag k="ssr:stedsnr" v="945345" />
		<tag k="waterway" v="stream" />
	</node>
	<node id="-82048" lat="62.9915055537" lon="8.8217333366">
		<tag k="name" v="Storbekken" />
		<tag k="ssr:stedsnr" v="95869" />
		<tag k="waterway" v="stream" />
	</node>
	<node id="-82038" lat="63.0796277764" lon="8.86858610155">
		<tag k="name" v="Litlbævra" />
		<tag k="ssr:stedsnr" v="95755" />
		<tag k="waterway" v="river" />
	</node>
	<node id="-84082" lat="63.0332222243" lon="8.4999472267">
		<tag k="name" v="Tinnabekken" />
		<tag k="ssr:stedsnr" v="945304" />
		<tag k="waterway" v="stream" />
	</node>
	<node id="-82033" lat="62.8503222198" lon="9.2304611184">
		<tag k="name" v="Storholmen" />
		<tag k="place" v="islet" />
		<tag k="ssr:stedsnr" v="95456" />
	</node>
	<node id="-84079" lat="63.0514805571" lon="8.88568611856">
		<tag k="name" v="Grip" />
		<tag k="place" v="islet" />
		<tag k="ssr:stedsnr" v="945217" />
	</node>
	<node id="-82028" lat="63.0107999975" lon="9.05411389229">
		<tag k="name" v="Bytbekken" />
		<tag k="ssr:stedsnr" v="95665" />
		<tag k="waterway" v="stream" />
	</node>
	<node id="-84075" lat="63.0290111088" lon="8.83761666277">
		<tag k="name" v="Setertjønna" />
		<tag k="natural" v="water" />
		<tag k="ssr:stedsnr" v="935121" />
	</node>
	<node id="-84073" lat="62.8287277801" lon="9.0525027786">
		<tag k="name" v="Storvatnet" />
		<tag k="natural" v="water" />
		<tag k="ssr:stedsnr" v="935234" />
		<tag k="water" v="lake" />
	</node>
	<node id="-82023" lat="63.0247499991" lon="8.37816944448">
		<tag k="name" v="Huslibekken" />
		<tag k="ssr:stedsnr" v="95603" />
		<tag k="waterway" v="stream" />
	</node>
	<node id="-84070" lat="62.7455444444" lon="9.00176110478">
		<tag k="name" v="Øvre Tverrdalsvatnet" />
		<tag k="natural" v="water" />
		<tag k="ssr:stedsnr" v="934424" />
		<tag k="water" v="lake" />
	</node>
	<node id="-82020" lat="62.908374999" lon="8.75341111691">
		<tag k="name" v="Rotslættbekken" />
		<tag k="ssr:stedsnr" v="95360" />
		<tag k="waterway" v="stream" />
	</node>
	<node id="-82015" lat="62.8808944428" lon="9.2555499977">
		<tag k="name" v="Kvernabekken" />
		<tag k="ssr:stedsnr" v="255197" />
		<tag k="waterway" v="river" />
	</node>
	<node id="-82014" lat="62.7584416676" lon="8.86541389085">
		<tag k="name" v="Grinarvatnet" />
		<tag k="natural" v="water" />
		<tag k="ssr:stedsnr" v="255175" />
	</node>
	<node id="-82012" lat="62.8083972221" lon="9.11346389449">
		<tag k="name" v="Naustådalsvatnet" />
		<tag k="natural" v="water" />
		<tag k="ssr:stedsnr" v="255084" />
	</node>
	<node id="-84057" lat="63.0146666639" lon="8.69087500674">
		<tag k="fixme" v="multiple name tags, choose one and add the other to alt_name" />
		<tag k="name" v="Måvatnet;Langvatnet" />
		<tag k="natural" v="water" />
		<tag k="ssr:stedsnr" v="922857" />
		<tag k="water" v="lake" />
	</node>
	<node id="-82003" lat="62.974991666" lon="9.05329721462">
		<tag k="name" v="Svartvatnet" />
		<tag k="natural" v="water" />
		<tag k="ssr:stedsnr" v="85212" />
	</node>
	<node id="-82000" lat="62.9965111083" lon="8.70459444198">
		<tag k="name" v="Bersetbekken" />
		<tag k="ssr:stedsnr" v="84409" />
		<tag k="waterway" v="stream" />
	</node>
	<node id="-84045" lat="63.0323111143" lon="8.61981389781">
		<tag k="name" v="Henrikholmen" />
		<tag k="place" v="islet" />
		<tag k="ssr:stedsnr" v="217256" />
	</node>
	<node id="-81995" lat="63.0068194483" lon="8.73957499451">
		<tag k="name" v="Toreseterbekken" />
		<tag k="ssr:stedsnr" v="73663" />
		<tag k="waterway" v="stream" />
	</node>
	<node id="-81994" lat="63.0663333371" lon="9.04794443604">
		<tag k="name" v="Salvatna" />
		<tag k="natural" v="water" />
		<tag k="ssr:stedsnr" v="73657" />
	</node>
	<node id="-81993" lat="63.1002388918" lon="8.82283610522">
		<tag k="name" v="Vassdalsvatnet" />
		<tag k="natural" v="water" />
		<tag k="ssr:stedsnr" v="73741" />
		<tag k="water" v="lake" />
	</node>
	<node id="-81990" lat="62.8186888847" lon="9.16677500202">
		<tag k="name" v="Nedre Lortkeila" />
		<tag k="ssr:stedsnr" v="73128" />
		<tag k="waterway" v="stream" />
	</node>
	<node id="-84027" lat="63.0186416683" lon="9.10766388137">
		<tag k="name" v="Oksbåsen" />
		<tag k="place" v="locality" />
		<tag k="ssr:stedsnr" v="217138" />
	</node>
	<node id="-84024" lat="63.1134472205" lon="8.7941833327">
		<tag k="name" v="Hardbakkbekken" />
		<tag k="ssr:stedsnr" v="216994" />
		<tag k="waterway" v="stream" />
	</node>
	<node id="-84014" lat="62.9768194456" lon="8.36377222326">
		<tag k="name" v="Trodalselva" />
		<tag k="ssr:stedsnr" v="885654" />
		<tag k="waterway" v="stream" />
	</node>
	<node id="-81965" lat="63.0069194457" lon="8.83307500746">
		<tag k="name" v="Storbekken" />
		<tag k="ssr:stedsnr" v="34736" />
		<tag k="waterway" v="stream" />
	</node>
	<node id="-84011" lat="62.9683583346" lon="8.65502778596">
		<tag k="name" v="Seterbekken" />
		<tag k="ssr:stedsnr" v="885853" />
		<tag k="waterway" v="stream" />
	</node>
	<node id="-84004" lat="63.0436694418" lon="8.53838055183">
		<tag k="name" v="Midtvatnet" />
		<tag k="natural" v="water" />
		<tag k="ssr:stedsnr" v="885264" />
		<tag k="water" v="lake" />
	</node>
	<node id="-81955" lat="62.9418111082" lon="8.55590833727">
		<tag k="name" v="Grøntjørna" />
		<tag k="natural" v="water" />
		<tag k="ssr:stedsnr" v="12702" />
	</node>
	<node id="-83996" lat="63.0633166626" lon="8.47943056409">
		<tag k="name" v="Tunga" />
		<tag k="natural" v="cape" />
		<tag k="ssr:stedsnr" v="885158" />
	</node>
	<node id="-81946" lat="63.0371333367" lon="8.35199443771">
		<tag k="alt_name" v="Skredåvatnet" />
		<tag k="name" v="Skreåvatnet" />
		<tag k="natural" v="water" />
		<tag k="ssr:stedsnr" v="12808" />
	</node>
	<node id="-83991" lat="63.1050666654" lon="8.96792777068">
		<tag k="name" v="Skarbekken" />
		<tag k="ssr:stedsnr" v="884962" />
		<tag k="waterway" v="stream" />
	</node>
	<node id="-83990" lat="63.0917888915" lon="8.76148056393">
		<tag k="name" v="Holtbekken" />
		<tag k="ssr:stedsnr" v="884959" />
		<tag k="waterway" v="stream" />
	</node>
	<node id="-83987" lat="62.9978805515" lon="8.91968332394">
		<tag k="name" v="Førskottet" />
		<tag k="natural" v="cape" />
		<tag k="ssr:stedsnr" v="884905" />
	</node>
	<node id="-83985" lat="62.9502638855" lon="8.97069166678">
		<tag k="name" v="Brønnbekken" />
		<tag k="ssr:stedsnr" v="884772" />
		<tag k="waterway" v="stream" />
	</node>
	<node id="-81935" lat="63.0205305599" lon="8.59551389155">
		<tag k="name" v="Onøyan" />
		<tag k="natural" v="beach" />
		<tag k="ssr:stedsnr" v="217784" />
	</node>
	<node id="-83980" lat="62.9950611155" lon="8.88410277399">
		<tag k="name" v="Tjuvevja" />
		<tag k="natural" v="water" />
		<tag k="ssr:stedsnr" v="885004" />
		<tag k="water" v="lake" />
	</node>
	<node id="-83979" lat="63.0465166681" lon="9.01253610184">
		<tag k="name" v="Kjeholmen" />
		<tag k="place" v="islet" />
		<tag k="ssr:stedsnr" v="884872" />
	</node>
	<node id="-83978" lat="63.053008334" lon="8.91353889487">
		<tag k="name" v="Svealunden" />
		<tag k="place" v="islet" />
		<tag k="ssr:stedsnr" v="884859" />
	</node>
	<node id="-83976" lat="63.052152776" lon="8.95547499095">
		<tag k="name" v="Litl-Vaulavatnet" />
		<tag k="natural" v="water" />
		<tag k="ssr:stedsnr" v="884853" />
		<tag k="water" v="lake" />
	</node>
	<node id="-83975" lat="62.9944416639" lon="8.8876694499">
		<tag k="name" v="Mausetøya" />
		<tag k="place" v="island" />
		<tag k="ssr:stedsnr" v="884815" />
	</node>
</osm>
