<?xml version="1.0" encoding="UTF-8"?>
<osm generator="osmapis" version="0.6">
	<node id="-9984" lat="62.9599194408" lon="8.55370277799">
		<tag k="fixme" v="verify maritime location" />
		<tag k="mooring" v="yes" />
		<tag k="name" v="Ovastøa" />
		<tag k="place" v="locality" />
		<tag k="ssr:stedsnr" v="460829" />
	</node>
	<node id="-9462" lat="62.8123916633" lon="9.18243334311">
		<tag k="ford" v="yes" />
		<tag k="name" v="Bjørkøyvadet" />
		<tag k="place" v="locality" />
		<tag k="ssr:stedsnr" v="268790" />
	</node>
	<node id="-9513" lat="63.0300500009" lon="9.0680361205">
		<tag k="highway" v="path" />
		<tag k="name" v="Gammelsetervegen" />
		<tag k="ssr:stedsnr" v="277734" />
	</node>
	<node id="-10996" lat="63.0239416687" lon="9.06156389262">
		<tag k="highway" v="path" />
		<tag k="name" v="Kneppvegen" />
		<tag k="ssr:stedsnr" v="823703" />
	</node>
	<node id="-11760" lat="63.0726500015" lon="9.02437500493">
		<tag k="highway" v="path" />
		<tag k="name" v="Bøverdalsvegen" />
		<tag k="ssr:stedsnr" v="95573" />
	</node>
	<node id="-11629" lat="62.979163889" lon="8.72144444998">
		<tag k="bridge" v="yes" />
		<tag k="layer" v="1" />
		<tag k="name" v="Øyabrua" />
		<tag k="ssr:stedsnr" v="35463" />
	</node>
	<node id="-11624" lat="62.9723444407" lon="8.49438056225">
		<tag k="highway" v="path" />
		<tag k="name" v="Trappurene" />
		<tag k="ssr:stedsnr" v="35352" />
	</node>
	<node id="-12005" lat="62.9903416653" lon="8.60407776993">
		<tag k="man_made" v="quay" />
		<tag k="name" v="Glærem kalksteingruve" />
		<tag k="place" v="locality" />
		<tag k="ssr:stedsnr" v="156453" />
	</node>
	<node id="-9694" lat="62.9691749999" lon="8.62505555564">
		<tag k="man_made" v="quay" />
		<tag k="name" v="Surna kai" />
		<tag k="place" v="locality" />
		<tag k="ssr:stedsnr" v="217423" />
	</node>
	<node id="-9818" lat="63.0085916666" lon="8.99946944634">
		<tag k="highway" v="path" />
		<tag k="name" v="Liavegen" />
		<tag k="ssr:stedsnr" v="278234" />
	</node>
	<node id="-11470" lat="62.9884416673" lon="8.63349165875">
		<tag k="man_made" v="quay" />
		<tag k="name" v="Glæremskaia" />
		<tag k="place" v="locality" />
		<tag k="ssr:stedsnr" v="23933" />
	</node>
	<node id="-12106" lat="62.988763893" lon="8.67630276917">
		<tag k="bridge" v="yes" />
		<tag k="layer" v="1" />
		<tag k="name" v="Storbrua" />
		<tag k="ssr:stedsnr" v="205080" />
	</node>
	<node id="-11975" lat="63.028291663" lon="8.47478611841">
		<tag k="highway" v="path" />
		<tag k="name" v="Ytrehøybuvegen" />
		<tag k="ssr:stedsnr" v="156304" />
	</node>
	<node id="-10437" lat="62.9701888915" lon="8.51598610726">
		<tag k="man_made" v="quay" />
		<tag k="name" v="Blekkan" />
		<tag k="place" v="locality" />
		<tag k="ssr:stedsnr" v="702765" />
	</node>
	<node id="-11587" lat="62.7939444462" lon="8.79962499986">
		<tag k="highway" v="path" />
		<tag k="name" v="Slovegen" />
		<tag k="ssr:stedsnr" v="35041" />
	</node>
	<node id="-10562" lat="62.9723888851" lon="8.71844443549">
		<tag k="highway" v="path" />
		<tag k="name" v="Svartvassmelen" />
		<tag k="ssr:stedsnr" v="709494" />
	</node>
	<node id="-9664" lat="62.9828722189" lon="8.8826833279">
		<tag k="highway" v="path" />
		<tag k="name" v="Rotåstigen" />
		<tag k="ssr:stedsnr" v="216834" />
	</node>
	<node id="-12223" lat="62.7969444449" lon="9.29409444679">
		<tag k="highway" v="path" />
		<tag k="name" v="Skåvegen" />
		<tag k="ssr:stedsnr" v="328776" />
	</node>
	<node id="-12222" lat="62.7970027787" lon="9.26468610498">
		<tag k="highway" v="path" />
		<tag k="name" v="Skåvegen" />
		<tag k="ssr:stedsnr" v="328275" />
	</node>
	<node id="-12219" lat="62.991891663" lon="8.7426888937">
		<tag k="highway" v="path" />
		<tag k="name" v="Brattstien" />
		<tag k="ssr:stedsnr" v="327215" />
	</node>
	<node id="-9477" lat="62.7868249961" lon="8.81836945237">
		<tag k="bridge" v="yes" />
		<tag k="layer" v="1" />
		<tag k="name" v="Ytterbrua" />
		<tag k="ssr:stedsnr" v="277281" />
	</node>
	<node id="-11252" lat="62.7697083339" lon="8.8973055583">
		<tag k="highway" v="path" />
		<tag k="name" v="Skittenstigen" />
		<tag k="ssr:stedsnr" v="884304" />
	</node>
	<node id="-10038" lat="62.7992305531" lon="8.76553055492">
		<tag k="fixme" v="consider highway=path" />
		<tag k="highway" v="track" />
		<tag k="name" v="Røyskattvegen" />
		<tag k="ssr:stedsnr" v="328203" />
	</node>
	<node id="-9651" lat="62.8285749957" lon="8.71795556404">
		<tag k="highway" v="path" />
		<tag k="name" v="Steinvegen" />
		<tag k="ssr:stedsnr" v="216421" />
	</node>
	<node id="-10409" lat="62.9843027764" lon="8.93562499109">
		<tag k="highway" v="path" />
		<tag k="name" v="Fagervegen" />
		<tag k="ssr:stedsnr" v="702579" />
	</node>
	<node id="-10408" lat="62.9916527736" lon="8.92289444073">
		<tag k="bridge" v="yes" />
		<tag k="layer" v="1" />
		<tag k="name" v="Vindølbrua" />
		<tag k="ssr:stedsnr" v="702574" />
	</node>
	<node id="-11803" lat="62.9794666622" lon="8.52175833125">
		<tag k="highway" v="path" />
		<tag k="name" v="Bonstigen" />
		<tag k="ssr:stedsnr" v="96493" />
	</node>
	<node id="-9888" lat="62.9844555593" lon="8.86071111535">
		<tag k="highway" v="path" />
		<tag k="name" v="Snasalivegen" />
		<tag k="ssr:stedsnr" v="459854" />
	</node>
	<node id="-9503" lat="63.0536722212" lon="8.9782916721">
		<tag k="highway" v="path" />
		<tag k="name" v="Vaulavegen" />
		<tag k="ssr:stedsnr" v="277898" />
	</node>
	<node id="-11037" lat="62.9943583327" lon="8.66017778097">
		<tag k="ford" v="yes" />
		<tag k="name" v="Geitakloppa" />
		<tag k="place" v="locality" />
		<tag k="ssr:stedsnr" v="933769" />
	</node>
	<node id="-11163" lat="63.0233555574" lon="9.08724167593">
		<tag k="bridge" v="yes" />
		<tag k="layer" v="1" />
		<tag k="name" v="Dønnem bru" />
		<tag k="ssr:stedsnr" v="945683" />
	</node>
	<node id="-10266" lat="63.0132416645" lon="8.74147499834">
		<tag k="highway" v="path" />
		<tag k="name" v="Skjettenstien" />
		<tag k="ssr:stedsnr" v="509287" />
	</node>
	<node id="-11153" lat="62.9763027738" lon="8.91040833077">
		<tag k="highway" v="path" />
		<tag k="name" v="Kløvvegen" />
		<tag k="ssr:stedsnr" v="945524" />
	</node>
	<node id="-10051" lat="62.8266472183" lon="8.72609722529">
		<tag k="highway" v="path" />
		<tag k="name" v="Liavegen" />
		<tag k="ssr:stedsnr" v="338088" />
	</node>
	<node id="-11270" lat="62.9934527744" lon="8.94411110587">
		<tag k="bridge" v="yes" />
		<tag k="layer" v="1" />
		<tag k="name" v="Røv bru" />
		<tag k="ssr:stedsnr" v="884554" />
	</node>
	<node id="-11909" lat="63.0354222247" lon="8.84202221807">
		<tag k="highway" v="path" />
		<tag k="name" v="Støttstigan" />
		<tag k="ssr:stedsnr" v="155777" />
	</node>
	<node id="-10881" lat="62.9923277797" lon="8.45307499192">
		<tag k="barrier" v="toll_booth" />
		<tag k="name" v="Mjølkleet" />
		<tag k="ssr:stedsnr" v="763313" />
	</node>
</osm>
