<?xml version="1.0" encoding="UTF-8"?>
<osm generator="osmapis" version="0.6">
	<node id="-83956" lat="62.8598277757" lon="8.64058889788">
		<tag k="name" v="Gammelsetra" />
		<tag k="place" v="locality" />
		<tag k="ssr:stedsnr" v="884412" />
	</node>
	<node id="-83940" lat="63.0467833372" lon="8.73779722139">
		<tag k="name" v="Bjørvolløa" />
		<tag k="place" v="locality" />
		<tag k="ssr:stedsnr" v="884123" />
	</node>
	<node id="-83925" lat="62.9907666687" lon="8.63089444816">
		<tag k="name" v="Glæremsrønningan bustadfelt" />
		<tag k="place" v="quarter" />
		<tag k="ssr:stedsnr" v="872464" />
	</node>
	<node id="-83923" lat="62.9792722178" lon="8.66782777482">
		<tag k="name" v="Teigan" />
		<tag k="place" v="farm" />
		<tag k="ssr:stedsnr" v="872213" />
	</node>
	<node id="-83897" lat="63.047219445" lon="9.00969167483">
		<tag k="historic" v="shieling" />
		<tag k="name" v="Austergarden" />
		<tag k="place" v="locality" />
		<tag k="ssr:stedsnr" v="945876" />
	</node>
	<node id="-83896" lat="62.9905527748" lon="8.94465834093">
		<tag k="name" v="Auster Nyvegtrøa" />
		<tag k="place" v="farm" />
		<tag k="ssr:stedsnr" v="945867" />
	</node>
	<node id="-83895" lat="62.9933305598" lon="8.83455555051">
		<tag k="name" v="Pellen" />
		<tag k="place" v="farm" />
		<tag k="ssr:stedsnr" v="945855" />
	</node>
	<node id="-83894" lat="63.0577944456" lon="8.45961111141">
		<tag k="name" v="Hjelmset" />
		<tag k="place" v="farm" />
		<tag k="ssr:stedsnr" v="945853" />
	</node>
	<node id="-83891" lat="63.0219361155" lon="9.0697388984">
		<tag k="name" v="Grytlia" />
		<tag k="place" v="farm" />
		<tag k="ssr:stedsnr" v="945841" />
	</node>
	<node id="-83889" lat="63.0214694404" lon="9.0758749961">
		<tag k="name" v="Grytneset" />
		<tag k="place" v="farm" />
		<tag k="ssr:stedsnr" v="945828" />
	</node>
	<node id="-83876" lat="62.9635027806" lon="8.57228054799">
		<tag k="fixme" v="consider place=hamlet" />
		<tag k="name" v="Follerø" />
		<tag k="place" v="farm" />
		<tag k="ssr:stedsnr" v="945763" />
	</node>
	<node id="-83847" lat="62.9866972205" lon="9.12357500532">
		<tag k="name" v="Utistusetra" />
		<tag k="place" v="locality" />
		<tag k="ssr:stedsnr" v="945490" />
	</node>
	<node id="-83829" lat="62.9113250003" lon="8.4600638853">
		<tag k="name" v="Bukta" />
		<tag k="place" v="farm" />
		<tag k="ssr:stedsnr" v="945374" />
	</node>
	<node id="-83812" lat="62.9820972242" lon="8.43377778403">
		<tag k="name" v="Båtskjelvika" />
		<tag k="place" v="farm" />
		<tag k="ssr:stedsnr" v="945286" />
	</node>
	<node id="-83808" lat="62.7812083353" lon="8.83022778531">
		<tag k="name" v="Gammelsetra" />
		<tag k="place" v="isolated_dwelling" />
		<tag k="ssr:stedsnr" v="945275" />
	</node>
	<node id="-83801" lat="62.8037555533" lon="8.74623611894">
		<tag k="name" v="Brusethaugen" />
		<tag k="place" v="farm" />
		<tag k="ssr:stedsnr" v="945247" />
	</node>
	<node id="-83797" lat="62.9917805571" lon="8.90508611763">
		<tag k="name" v="Mauset" />
		<tag k="place" v="hamlet" />
		<tag k="ssr:stedsnr" v="945197" />
	</node>
	<node id="-83773" lat="62.902136109" lon="8.57734722016">
		<tag k="name" v="Bortigarden" />
		<tag k="place" v="farm" />
		<tag k="ssr:stedsnr" v="945056" />
	</node>
	<node id="-83770" lat="62.8333888883" lon="8.87856944638">
		<tag k="name" v="Øyasetra" />
		<tag k="place" v="isolated_dwelling" />
		<tag k="ssr:stedsnr" v="945030" />
	</node>
	<node id="-83769" lat="62.9949861083" lon="8.84866667428">
		<tag k="name" v="Liatrøa" />
		<tag k="place" v="locality" />
		<tag k="ssr:stedsnr" v="945021" />
	</node>
	<node id="-83763" lat="62.9203527795" lon="8.47328056347">
		<tag k="name" v="Vollen" />
		<tag k="place" v="farm" />
		<tag k="ssr:stedsnr" v="861711" />
	</node>
	<node id="-83762" lat="62.9220531496" lon="8.69628307041">
		<tag k="fixme" v="consider place=hamlet" />
		<tag k="name" v="Kvennbøen" />
		<tag k="place" v="farm" />
		<tag k="ssr:stedsnr" v="861710" />
	</node>
	<node id="-83761" lat="62.9809242959" lon="8.42578860733">
		<tag k="fixme" v="consider place=hamlet" />
		<tag k="name" v="Bergesvika" />
		<tag k="place" v="farm" />
		<tag k="ssr:stedsnr" v="861622" />
	</node>
	<node id="-83758" lat="62.9922000023" lon="8.43940000308">
		<tag k="name" v="Solemssetra" />
		<tag k="place" v="isolated_dwelling" />
		<tag k="ssr:stedsnr" v="861606" />
	</node>
	<node id="-83756" lat="62.9031616528" lon="8.59265940984">
		<tag k="fixme" v="consider place=hamlet" />
		<tag k="name" v="Melhus" />
		<tag k="place" v="farm" />
		<tag k="ssr:stedsnr" v="861256" />
	</node>
	<node id="-83742" lat="62.9935222225" lon="8.67536111099">
		<tag k="name" v="Jostua" />
		<tag k="place" v="farm" />
		<tag k="ssr:stedsnr" v="934947" />
	</node>
	<node id="-83736" lat="62.9892194479" lon="8.62363334269">
		<tag k="name" v="Austigard Glærem" />
		<tag k="place" v="farm" />
		<tag k="ssr:stedsnr" v="933465" />
	</node>
	<node id="-83735" lat="62.9766249995" lon="8.66809722803">
		<tag k="name" v="Øyskog" />
		<tag k="place" v="farm" />
		<tag k="ssr:stedsnr" v="933196" />
	</node>
	<node id="-83734" lat="62.9833999962" lon="8.70997777103">
		<tag k="name" v="Øyagardsgeilen" />
		<tag k="place" v="farm" />
		<tag k="ssr:stedsnr" v="933075" />
	</node>
	<node id="-83730" lat="63.0078111139" lon="8.55794444086">
		<tag k="name" v="Baklisetra" />
		<tag k="place" v="locality" />
		<tag k="ssr:stedsnr" v="824917" />
	</node>
	<node id="-83727" lat="62.9074499983" lon="8.62441667587">
		<tag k="name" v="Oppistua" />
		<tag k="place" v="farm" />
		<tag k="ssr:stedsnr" v="824826" />
	</node>
	<node id="-83721" lat="62.9372138892" lon="8.69315000803">
		<tag k="name" v="Åshaugen bustadfelt" />
		<tag k="place" v="quarter" />
		<tag k="ssr:stedsnr" v="824405" />
	</node>
	<node id="-83698" lat="63.0061361075" lon="8.82350555039">
		<tag k="name" v="Gammelsetra" />
		<tag k="place" v="locality" />
		<tag k="ssr:stedsnr" v="823760" />
	</node>
	<node id="-83664" lat="62.9848722201" lon="8.69233888716">
		<tag k="name" v="Austigard" />
		<tag k="place" v="farm" />
		<tag k="ssr:stedsnr" v="811924" />
	</node>
	<node id="-83661" lat="63.0079583354" lon="8.36666388682">
		<tag k="fixme" v="consider place=hamlet" />
		<tag k="name" v="Bølandet" />
		<tag k="place" v="village" />
		<tag k="ssr:stedsnr" v="801818" />
	</node>
	<node id="-83660" lat="63.0170333334" lon="8.38266667476">
		<tag k="fixme" v="consider place=hamlet" />
		<tag k="name" v="Settemsøran" />
		<tag k="place" v="village" />
		<tag k="ssr:stedsnr" v="801817" />
	</node>
	<node id="-83652" lat="62.9052085429" lon="8.8395515197">
		<tag k="name" v="Klokkargardssetra" />
		<tag k="place" v="isolated_dwelling" />
		<tag k="ssr:stedsnr" v="801013" />
	</node>
	<node id="-83646" lat="62.9778716839" lon="8.77617821317">
		<tag k="fixme" v="consider place=hamlet" />
		<tag k="name" v="Øyan" />
		<tag k="place" v="farm" />
		<tag k="ssr:stedsnr" v="923506" />
	</node>
	<node id="-83645" lat="62.9927861085" lon="8.95447777159">
		<tag k="name" v="Røv" />
		<tag k="place" v="farm" />
		<tag k="ssr:stedsnr" v="923504" />
	</node>
	<node id="-83644" lat="62.9902777788" lon="9.01772221539">
		<tag k="historic" v="shieling" />
		<tag k="name" v="Harangssetra" />
		<tag k="place" v="locality" />
		<tag k="ssr:stedsnr" v="923497" />
	</node>
	<node id="-83640" lat="62.8922972249" lon="8.78378610774">
		<tag k="name" v="Haugasetra" />
		<tag k="old_name" v="Syltesætra;Syltesetra" />
		<tag k="place" v="isolated_dwelling" />
		<tag k="ssr:stedsnr" v="923001" />
	</node>
	<node id="-83639" lat="63.0141416708" lon="8.32194723004">
		<tag k="name" v="Teigen" />
		<tag k="place" v="farm" />
		<tag k="ssr:stedsnr" v="922831" />
	</node>
	<node id="-83638" lat="63.016278681" lon="8.27152787264">
		<tag k="fixme" v="consider place=hamlet" />
		<tag k="name" v="Kallset" />
		<tag k="place" v="farm" />
		<tag k="ssr:stedsnr" v="922830" />
	</node>
	<node id="-83635" lat="63.0291611119" lon="8.5100333417">
		<tag k="name" v="Åsskardsetra" />
		<tag k="place" v="isolated_dwelling" />
		<tag k="ssr:stedsnr" v="922814" />
	</node>
	<node id="-83634" lat="63.0307583289" lon="8.56496944862">
		<tag k="historic" v="shieling" />
		<tag k="name" v="Hakstadsetra" />
		<tag k="place" v="locality" />
		<tag k="ssr:stedsnr" v="922810" />
	</node>
	<node id="-83632" lat="62.9215513596" lon="8.66271289037">
		<tag k="fixme" v="consider place=hamlet" />
		<tag k="name" v="Pollen" />
		<tag k="place" v="farm" />
		<tag k="ssr:stedsnr" v="922717" />
	</node>
	<node id="-83631" lat="62.928497223" lon="8.49848334186">
		<tag k="name" v="Fonnsetra" />
		<tag k="place" v="isolated_dwelling" />
		<tag k="ssr:stedsnr" v="922708" />
	</node>
	<node id="-83630" lat="62.9394406414" lon="8.69512245948">
		<tag k="fixme" v="consider place=hamlet" />
		<tag k="name" v="Åsen" />
		<tag k="place" v="farm" />
		<tag k="ssr:stedsnr" v="922701" />
	</node>
	<node id="-83629" lat="63.0250982027" lon="9.10569108376">
		<tag k="fixme" v="consider place=hamlet" />
		<tag k="name" v="Kvammen" />
		<tag k="place" v="farm" />
		<tag k="ssr:stedsnr" v="922671" />
	</node>
	<node id="-83626" lat="63.010294445" lon="8.75561945077">
		<tag k="name" v="Prestsetra" />
		<tag k="place" v="isolated_dwelling" />
		<tag k="ssr:stedsnr" v="922667" />
	</node>
	<node id="-83624" lat="62.9696888922" lon="8.68519721339">
		<tag k="fixme" v="consider place=suburb, village or hamlet" />
		<tag k="name" v="Surnadalsøra" />
		<tag k="place" v="quarter" />
		<tag k="ssr:stedsnr" v="922654" />
	</node>
	<node id="-83621" lat="62.9792611068" lon="8.66153889456">
		<tag k="name" v="Tangen" />
		<tag k="place" v="farm" />
		<tag k="ssr:stedsnr" v="922642" />
	</node>
	<node id="-83620" lat="62.9779681983" lon="8.36444588004">
		<tag k="fixme" v="consider place=hamlet" />
		<tag k="name" v="Trodalen" />
		<tag k="place" v="farm" />
		<tag k="ssr:stedsnr" v="922637" />
	</node>
	<node id="-83618" lat="63.0572408696" lon="8.95790617104">
		<tag k="fixme" v="consider place=hamlet" />
		<tag k="name" v="Vaulen" />
		<tag k="place" v="farm" />
		<tag k="ssr:stedsnr" v="922626" />
	</node>
	<node id="-83614" lat="62.8412027739" lon="8.64726111927">
		<tag k="name" v="Gjengstøa" />
		<tag k="place" v="farm" />
		<tag k="ssr:stedsnr" v="922312" />
	</node>
	<node id="-83612" lat="62.9072978123" lon="8.60173635824">
		<tag k="fixme" v="consider place=hamlet" />
		<tag k="name" v="Hollen" />
		<tag k="place" v="farm" />
		<tag k="ssr:stedsnr" v="922281" />
	</node>
	<node id="-83610" lat="62.7915999043" lon="8.79561051138">
		<tag k="alt_name" v="Talgø" />
		<tag k="fixme" v="consider place=hamlet" />
		<tag k="name" v="Taløyan" />
		<tag k="place" v="farm" />
		<tag k="ssr:stedsnr" v="922091" />
	</node>
	<node id="-83598" lat="63.0308361125" lon="9.09705555045">
		<tag k="name" v="Slåa" />
		<tag k="place" v="farm" />
		<tag k="ssr:stedsnr" v="763835" />
	</node>
	<node id="-83597" lat="62.9040138852" lon="8.59628056499">
		<tag k="alt_name" v="Melhus indre" />
		<tag k="name" v="Indre Melhus" />
		<tag k="place" v="farm" />
		<tag k="ssr:stedsnr" v="763828" />
	</node>
	<node id="-83582" lat="62.9886583357" lon="8.4983972247">
		<tag k="name" v="Øversetra" />
		<tag k="place" v="locality" />
		<tag k="ssr:stedsnr" v="763314" />
	</node>
	<node id="-83561" lat="62.8267971814" lon="9.18723020614">
		<tag k="name" v="Dønheimsetra" />
		<tag k="place" v="locality" />
		<tag k="ssr:stedsnr" v="762487" />
	</node>
	<node id="-82094" lat="63.0612805515" lon="8.46827778068">
		<tag k="name" v="Solvang" />
		<tag k="place" v="farm" />
		<tag k="ssr:stedsnr" v="96852" />
	</node>
	<node id="-83545" lat="62.9039333291" lon="8.58276666421">
		<tag k="name" v="Steinbergsbakkan" />
		<tag k="place" v="farm" />
		<tag k="ssr:stedsnr" v="762093" />
	</node>
	<node id="-83541" lat="62.8899277766" lon="8.52180556433">
		<tag k="name" v="Skrivarstua" />
		<tag k="place" v="farm" />
		<tag k="ssr:stedsnr" v="762070" />
	</node>
	<node id="-83532" lat="62.9965389869" lon="8.68738341927">
		<tag k="fixme" v="consider place=hamlet" />
		<tag k="name" v="Aunet" />
		<tag k="place" v="farm" />
		<tag k="ssr:stedsnr" v="751004" />
	</node>
	<node id="-83527" lat="62.9269500968" lon="8.68562297644">
		<tag k="fixme" v="consider place=hamlet" />
		<tag k="name" v="Ellevset" />
		<tag k="place" v="farm" />
		<tag k="ssr:stedsnr" v="740723" />
	</node>
	<node id="-83514" lat="62.7813992783" lon="8.87511242751">
		<tag k="fixme" v="consider tourism=alpine_hut or tourism=chalet" />
		<tag k="name" v="Kårvatn" />
		<tag k="ssr:stedsnr" v="740078" />
		<tag k="tourism" v="wilderness_hut" />
	</node>
	<node id="-82527" lat="62.7643111133" lon="8.90377777664">
		<tag k="name" v="Gammelsetra" />
		<tag k="place" v="locality" />
		<tag k="ssr:stedsnr" v="459333" />
	</node>
	<node id="-83511" lat="62.802997218" lon="8.75473332914">
		<tag k="name" v="Ramsøya" />
		<tag k="place" v="farm" />
		<tag k="ssr:stedsnr" v="740056" />
	</node>
	<node id="-83508" lat="62.9922138903" lon="8.68073055304">
		<tag k="name" v="Bøvravollen" />
		<tag k="place" v="farm" />
		<tag k="ssr:stedsnr" v="739655" />
	</node>
	<node id="-83507" lat="62.9734472195" lon="8.72681111854">
		<tag k="name" v="Skei" />
		<tag k="place" v="quarter" />
		<tag k="ssr:stedsnr" v="901944" />
	</node>
	<node id="-83505" lat="63.0169583368" lon="8.70041388787">
		<tag k="name" v="Furuhaugen" />
		<tag k="place" v="isolated_dwelling" />
		<tag k="ssr:stedsnr" v="726027" />
	</node>
	<node id="-83504" lat="63.1099620625" lon="8.94761278536">
		<tag k="fixme" v="consider tourism=alpine_hut or tourism=chalet" />
		<tag k="name" v="Grytbakksetra" />
		<tag k="ssr:stedsnr" v="704016" />
		<tag k="tourism" v="wilderness_hut" />
	</node>
	<node id="-83503" lat="62.9921361079" lon="8.4944499996">
		<tag k="name" v="Sandneset" />
		<tag k="place" v="farm" />
		<tag k="ssr:stedsnr" v="702904" />
	</node>
	<node id="-83501" lat="63.0365555547" lon="8.36608054866">
		<tag k="historic" v="shieling" />
		<tag k="name" v="Gammelsetra" />
		<tag k="place" v="locality" />
		<tag k="ssr:stedsnr" v="702832" />
	</node>
	<node id="-84912" lat="62.9832722221" lon="8.74065278246">
		<tag k="name" v="Bergheim" />
		<tag k="place" v="farm" />
		<tag k="ssr:stedsnr" v="316901" />
	</node>
	<node id="-83459" lat="62.9194527812" lon="8.99685000003">
		<tag k="historic" v="shieling" />
		<tag k="name" v="Stølssetra" />
		<tag k="place" v="locality" />
		<tag k="ssr:stedsnr" v="692853" />
	</node>
	<node id="-83450" lat="62.957538886" lon="8.7229555575">
		<tag k="historic" v="shieling" />
		<tag k="name" v="Skeissetra" />
		<tag k="place" v="locality" />
		<tag k="ssr:stedsnr" v="885859" />
	</node>
	<node id="-83449" lat="62.8709305546" lon="8.6207083294">
		<tag k="name" v="Sagavoll" />
		<tag k="place" v="farm" />
		<tag k="ssr:stedsnr" v="885796" />
	</node>
	<node id="-83448" lat="62.9010972203" lon="8.5768666725">
		<tag k="name" v="Nestua" />
		<tag k="place" v="farm" />
		<tag k="ssr:stedsnr" v="885791" />
	</node>
	<node id="-83445" lat="63.0419388912" lon="8.97522222026">
		<tag k="historic" v="shieling" />
		<tag k="name" v="Skjermosetra" />
		<tag k="place" v="locality" />
		<tag k="ssr:stedsnr" v="885849" />
	</node>
	<node id="-83444" lat="63.0026027806" lon="9.01232221305">
		<tag k="name" v="Solemsøya" />
		<tag k="place" v="farm" />
		<tag k="ssr:stedsnr" v="885841" />
	</node>
	<node id="-83443" lat="63.0184888857" lon="8.49571389111">
		<tag k="name" v="Olastua" />
		<tag k="place" v="farm" />
		<tag k="ssr:stedsnr" v="885830" />
	</node>
	<node id="-83442" lat="63.0001388914" lon="8.49257221936">
		<tag k="name" v="Bergheim" />
		<tag k="place" v="farm" />
		<tag k="ssr:stedsnr" v="885828" />
	</node>
	<node id="-83441" lat="63.0380666673" lon="8.42585832436">
		<tag k="name" v="Dalebakken" />
		<tag k="place" v="farm" />
		<tag k="ssr:stedsnr" v="885827" />
	</node>
	<node id="-84904" lat="62.9973341138" lon="8.90676011187">
		<tag k="fixme" v="consider place=hamlet" />
		<tag k="name" v="Svean" />
		<tag k="place" v="farm" />
		<tag k="ssr:stedsnr" v="316528" />
	</node>
	<node id="-82854" lat="63.0254361155" lon="8.84350555279">
		<tag k="historic" v="shieling" />
		<tag k="name" v="Krangnessetra" />
		<tag k="place" v="locality" />
		<tag k="ssr:stedsnr" v="509036" />
	</node>
	<node id="-83420" lat="62.9403666636" lon="8.44929166127">
		<tag k="name" v="Storsetra" />
		<tag k="place" v="locality" />
		<tag k="ssr:stedsnr" v="885297" />
	</node>
	<node id="-82850" lat="62.9931722181" lon="8.67042500972">
		<tag k="name" v="Utigard" />
		<tag k="place" v="farm" />
		<tag k="ssr:stedsnr" v="508007" />
	</node>
	<node id="-83373" lat="62.9050361069" lon="9.03336387992">
		<tag k="name" v="Indre Breiskarsetra" />
		<tag k="place" v="isolated_dwelling" />
		<tag k="ssr:stedsnr" v="884452" />
	</node>
	<node id="-83348" lat="62.9301638848" lon="8.4437472151">
		<tag k="name" v="Geilberget" />
		<tag k="place" v="farm" />
		<tag k="ssr:stedsnr" v="884090" />
	</node>
	<node id="-83339" lat="62.9941472261" lon="9.15597221326">
		<tag k="name" v="Børsetsetra" />
		<tag k="place" v="isolated_dwelling" />
		<tag k="ssr:stedsnr" v="680525" />
	</node>
	<node id="-83338" lat="62.9933250015" lon="8.84341388328">
		<tag k="name" v="Mogstad" />
		<tag k="place" v="isolated_dwelling" />
		<tag k="ssr:stedsnr" v="680515" />
	</node>
	<node id="-83337" lat="62.9788854409" lon="8.88479647057">
		<tag k="name" v="Honnstadsetra" />
		<tag k="place" v="locality" />
		<tag k="ssr:stedsnr" v="680512" />
	</node>
	<node id="-83335" lat="62.9809419574" lon="8.80943523175">
		<tag k="fixme" v="consider place=hamlet" />
		<tag k="name" v="Sogge" />
		<tag k="place" v="farm" />
		<tag k="ssr:stedsnr" v="680507" />
	</node>
	<node id="-83334" lat="62.9755666629" lon="8.78409722605">
		<tag k="name" v="Sogge" />
		<tag k="place" v="farm" />
		<tag k="ssr:stedsnr" v="680505" />
	</node>
	<node id="-83332" lat="62.8899361122" lon="8.5991555512">
		<tag k="name" v="Ytterbøen" />
		<tag k="place" v="farm" />
		<tag k="ssr:stedsnr" v="680305" />
	</node>
	<node id="-82838" lat="62.9058527821" lon="9.0236138863">
		<tag k="name" v="Nedre Breiskaret" />
		<tag k="place" v="isolated_dwelling" />
		<tag k="ssr:stedsnr" v="389008" />
	</node>
	<node id="-83328" lat="63.0387472222" lon="8.65653889196">
		<tag k="building" v="industrial" />
		<tag k="industrial" v="factory" />
		<tag k="name" v="Svorka kraftverk" />
		<tag k="ssr:stedsnr" v="679814" />
	</node>
	<node id="-83324" lat="62.9905123445" lon="8.71029124754">
		<tag k="fixme" v="consider place=hamlet" />
		<tag k="name" v="Heggset" />
		<tag k="place" v="farm" />
		<tag k="ssr:stedsnr" v="679625" />
	</node>
	<node id="-83316" lat="62.8050583356" lon="8.73255277516">
		<tag k="name" v="Høyem" />
		<tag k="place" v="farm" />
		<tag k="ssr:stedsnr" v="679111" />
	</node>
	<node id="-83313" lat="63.0604750023" lon="8.46596943987">
		<tag k="name" v="Storli" />
		<tag k="place" v="farm" />
		<tag k="ssr:stedsnr" v="641830" />
	</node>
	<node id="-83312" lat="63.0200722184" lon="9.06224166209">
		<tag k="name" v="Flotten" />
		<tag k="place" v="farm" />
		<tag k="ssr:stedsnr" v="641826" />
	</node>
	<node id="-83309" lat="62.9026083306" lon="8.48394166242">
		<tag k="name" v="Torslett" />
		<tag k="place" v="farm" />
		<tag k="ssr:stedsnr" v="641810" />
	</node>
	<node id="-83306" lat="62.8853138855" lon="8.5850222132">
		<tag k="name" v="Skoglund" />
		<tag k="place" v="farm" />
		<tag k="ssr:stedsnr" v="641804" />
	</node>
	<node id="-83292" lat="62.9605640334" lon="8.69912225999">
		<tag k="name" v="Stormyra" />
		<tag k="place" v="quarter" />
		<tag k="ssr:stedsnr" v="727184" />
	</node>
	<node id="-83291" lat="63.0221583757" lon="8.60389875971">
		<tag k="name" v="Gjerdahaugen" />
		<tag k="old_name" v="Jerahaugen" />
		<tag k="place" v="quarter" />
		<tag k="ssr:stedsnr" v="727170" />
	</node>
	<node id="-83277" lat="63.0360002145" lon="8.4469625585">
		<tag k="fixme" v="consider place=hamlet" />
		<tag k="name" v="Lia" />
		<tag k="place" v="farm" />
		<tag k="ssr:stedsnr" v="618799" />
	</node>
	<node id="-83276" lat="62.9794811602" lon="8.71309286263">
		<tag k="name" v="Øye" />
		<tag k="place" v="hamlet" />
		<tag k="ssr:stedsnr" v="618643" />
	</node>
	<node id="-83274" lat="62.9879583332" lon="8.41842499525">
		<tag k="name" v="Bergesviksetra" />
		<tag k="place" v="isolated_dwelling" />
		<tag k="ssr:stedsnr" v="618629" />
	</node>
	<node id="-83267" lat="63.0197277741" lon="8.36508333959">
		<tag k="name" v="Bøfjorden" />
		<tag k="place" v="hamlet" />
		<tag k="ssr:stedsnr" v="595943" />
	</node>
	<node id="-83264" lat="63.0166555581" lon="9.05070833374">
		<tag k="alt_name" v="Fiskja" />
		<tag k="name" v="Alvstua" />
		<tag k="place" v="farm" />
		<tag k="ssr:stedsnr" v="585315" />
	</node>
	<node id="-83263" lat="63.0047318872" lon="8.99429077546">
		<tag k="name" v="Skjermoen" />
		<tag k="place" v="farm" />
		<tag k="ssr:stedsnr" v="585314" />
	</node>
	<node id="-83260" lat="62.9516694436" lon="8.6238388836">
		<tag k="name" v="Pappenheim" />
		<tag k="place" v="isolated_dwelling" />
		<tag k="ssr:stedsnr" v="581481" />
	</node>
	<node id="-83253" lat="62.8698888906" lon="8.62969721929">
		<tag k="name" v="Øygarn" />
		<tag k="place" v="farm" />
		<tag k="ssr:stedsnr" v="581841" />
	</node>
	<node id="-83252" lat="62.8891694432" lon="8.53379445038">
		<tag k="name" v="Leitet" />
		<tag k="place" v="farm" />
		<tag k="ssr:stedsnr" v="581837" />
	</node>
	<node id="-83251" lat="62.8898527779" lon="8.55072499043">
		<tag k="name" v="Fagerøya" />
		<tag k="place" v="farm" />
		<tag k="ssr:stedsnr" v="581832" />
	</node>
	<node id="-82824" lat="63.0669835346" lon="8.77260913104">
		<tag k="fixme" v="consider place=hamlet" />
		<tag k="name" v="Neverholten" />
		<tag k="place" v="farm" />
		<tag k="ssr:stedsnr" v="498677" />
	</node>
	<node id="-83239" lat="62.8029583365" lon="8.74268889032">
		<tag k="name" v="Høgtun" />
		<tag k="place" v="farm" />
		<tag k="ssr:stedsnr" v="581077" />
	</node>
	<node id="-83223" lat="62.8295027736" lon="9.23431666989">
		<tag k="alt_name" v="Fiskjasetra" />
		<tag k="name" v="Fiskjassetra" />
		<tag k="place" v="isolated_dwelling" />
		<tag k="ssr:stedsnr" v="580471" />
	</node>
	<node id="-83194" lat="62.9879444403" lon="9.00043056085">
		<tag k="alt_name" v="Setersetra" />
		<tag k="fixme" v="consider tourism=alpine_hut or tourism=chalet" />
		<tag k="name" v="Sætersetra" />
		<tag k="ssr:stedsnr" v="706416" />
		<tag k="tourism" v="wilderness_hut" />
	</node>
	<node id="-83193" lat="62.8918083298" lon="8.51469723211">
		<tag k="name" v="Overgeilen" />
		<tag k="place" v="farm" />
		<tag k="ssr:stedsnr" v="703850" />
	</node>
	<node id="-82472" lat="62.9784388873" lon="9.04461667376">
		<tag k="name" v="Skarpdalsetra" />
		<tag k="place" v="isolated_dwelling" />
		<tag k="ssr:stedsnr" v="277475" />
	</node>
	<node id="-82695" lat="63.010663888" lon="8.52560278307">
		<tag k="name" v="Skoglund" />
		<tag k="place" v="farm" />
		<tag k="ssr:stedsnr" v="460927" />
	</node>
	<node id="-82013" lat="62.8005833339" lon="8.75792223026">
		<tag k="fixme" v="multiple name tags, choose one and add the other to alt_name" />
		<tag k="name" v="Bruset;Øvre Bruset" />
		<tag k="place" v="farm" />
		<tag k="ssr:stedsnr" v="255086" />
	</node>
	<node id="-83152" lat="62.9907916622" lon="8.62933888735">
		<tag k="name" v="Rønningan" />
		<tag k="place" v="farm" />
		<tag k="ssr:stedsnr" v="702909" />
	</node>
	<node id="-83145" lat="62.880469441" lon="8.61480555153">
		<tag k="name" v="Hagan" />
		<tag k="place" v="farm" />
		<tag k="ssr:stedsnr" v="702797" />
	</node>
	<node id="-83132" lat="62.9750055601" lon="8.84114167101">
		<tag k="name" v="Knyksetra" />
		<tag k="place" v="locality" />
		<tag k="ssr:stedsnr" v="702735" />
	</node>
	<node id="-83126" lat="63.0072222226" lon="8.8550388888">
		<tag k="name" v="Jarslættet" />
		<tag k="place" v="locality" />
		<tag k="ssr:stedsnr" v="702708" />
	</node>
	<node id="-83115" lat="62.9901833312" lon="8.94120556536">
		<tag k="name" v="Vester Nyvegtrøa" />
		<tag k="place" v="farm" />
		<tag k="ssr:stedsnr" v="702870" />
	</node>
	<node id="-83112" lat="63.0623499972" lon="8.47157500201">
		<tag k="name" v="Fjellbu" />
		<tag k="place" v="farm" />
		<tag k="ssr:stedsnr" v="702857" />
	</node>
	<node id="-83111" lat="63.0470583364" lon="9.02371944337">
		<tag k="name" v="Austergarden" />
		<tag k="place" v="locality" />
		<tag k="ssr:stedsnr" v="702599" />
	</node>
	<node id="-83099" lat="62.984369446" lon="9.10918056028">
		<tag k="name" v="Trollhaughytta" />
		<tag k="place" v="isolated_dwelling" />
		<tag k="ssr:stedsnr" v="702521" />
	</node>
	<node id="-83083" lat="63.0692722253" lon="8.7515666569">
		<tag k="name" v="Bronaløa" />
		<tag k="place" v="locality" />
		<tag k="ssr:stedsnr" v="702349" />
	</node>
	<node id="-82796" lat="62.7750777736" lon="8.7012027854">
		<tag k="name" v="Øyasetra" />
		<tag k="place" v="isolated_dwelling" />
		<tag k="ssr:stedsnr" v="497383" />
	</node>
	<node id="-82451" lat="63.0045657841" lon="9.00881106011">
		<tag k="fixme" v="consider place=hamlet" />
		<tag k="name" v="Solem" />
		<tag k="place" v="farm" />
		<tag k="ssr:stedsnr" v="255668" />
	</node>
	<node id="-83049" lat="62.9284472193" lon="8.4464611135">
		<tag k="name" v="Solbakken" />
		<tag k="place" v="farm" />
		<tag k="ssr:stedsnr" v="702087" />
	</node>
	<node id="-82108" lat="63.0824069247" lon="8.84637435071">
		<tag k="fixme" v="consider place=hamlet" />
		<tag k="name" v="Toresetra" />
		<tag k="place" v="farm" />
		<tag k="ssr:stedsnr" v="255737" />
	</node>
	<node id="-83046" lat="63.0804222258" lon="8.94751666366">
		<tag k="name" v="Almbergsetra" />
		<tag k="place" v="isolated_dwelling" />
		<tag k="ssr:stedsnr" v="558764" />
	</node>
	<node id="-83044" lat="62.8288261042" lon="9.23487877899">
		<tag k="name" v="Langlisetra" />
		<tag k="place" v="locality" />
		<tag k="ssr:stedsnr" v="558853" />
	</node>
	<node id="-82107" lat="63.0327605648" lon="9.09728257973">
		<tag k="fixme" v="consider place=hamlet" />
		<tag k="name" v="Dalsegga" />
		<tag k="place" v="farm" />
		<tag k="ssr:stedsnr" v="255696" />
	</node>
	<node id="-83040" lat="62.8194516514" lon="8.65643790984">
		<tag k="name" v="Ansnessetra" />
		<tag k="place" v="locality" />
		<tag k="ssr:stedsnr" v="558457" />
	</node>
	<node id="-83031" lat="63.0334055562" lon="8.62068887971">
		<tag k="name" v="Saga" />
		<tag k="place" v="farm" />
		<tag k="ssr:stedsnr" v="557820" />
	</node>
	<node id="-83029" lat="63.0447333362" lon="8.60747221344">
		<tag k="historic" v="shieling" />
		<tag k="name" v="Bøverfjordsetra" />
		<tag k="place" v="locality" />
		<tag k="ssr:stedsnr" v="557807" />
	</node>
	<node id="-83026" lat="62.9512638932" lon="8.704138885">
		<tag k="alt_name" v="Nord-Holten" />
		<tag k="name" v="Nordhalten" />
		<tag k="place" v="farm" />
		<tag k="ssr:stedsnr" v="557654" />
	</node>
	<node id="-83025" lat="62.9824397302" lon="8.55174173166">
		<tag k="fixme" v="consider place=hamlet" />
		<tag k="name" v="Sjøflottan" />
		<tag k="place" v="farm" />
		<tag k="ssr:stedsnr" v="557622" />
	</node>
	<node id="-83023" lat="62.9865277785" lon="8.57016667388">
		<tag k="name" v="Øya" />
		<tag k="place" v="farm" />
		<tag k="ssr:stedsnr" v="557609" />
	</node>
	<node id="-83022" lat="62.9966392304" lon="8.68582290759">
		<tag k="name" v="Aunet" />
		<tag k="place" v="farm" />
		<tag k="ssr:stedsnr" v="557602" />
	</node>
	<node id="-83021" lat="62.8965472232" lon="8.55842222676">
		<tag k="name" v="Åsly" />
		<tag k="place" v="farm" />
		<tag k="ssr:stedsnr" v="557272" />
	</node>
	<node id="-83020" lat="63.0670777778" lon="8.62013889428">
		<tag k="fixme" v="consider tourism=alpine_hut or tourism=chalet" />
		<tag k="name" v="Tverrlihytta" />
		<tag k="ssr:stedsnr" v="700750" />
		<tag k="tourism" v="wilderness_hut" />
	</node>
	<node id="-83006" lat="62.7643861135" lon="8.90397500463">
		<tag k="historic" v="shieling" />
		<tag k="name" v="Gammelsetra" />
		<tag k="place" v="locality" />
		<tag k="ssr:stedsnr" v="692061" />
	</node>
	<node id="-83003" lat="62.9114694423" lon="9.16429166788">
		<tag k="name" v="Garden" />
		<tag k="place" v="isolated_dwelling" />
		<tag k="ssr:stedsnr" v="691439" />
	</node>
	<node id="-83000" lat="62.9361277759" lon="8.9855000052">
		<tag k="historic" v="shieling" />
		<tag k="name" v="Dompfjellsetra" />
		<tag k="place" v="locality" />
		<tag k="ssr:stedsnr" v="691160" />
	</node>
	<node id="-82999" lat="62.959094447" lon="8.48528333397">
		<tag k="name" v="Vollan" />
		<tag k="place" v="farm" />
		<tag k="ssr:stedsnr" v="534804" />
	</node>
	<node id="-82993" lat="62.9897111118" lon="8.67272778292">
		<tag k="name" v="Nergjerdet" />
		<tag k="place" v="hamlet" />
		<tag k="ssr:stedsnr" v="690065" />
	</node>
	<node id="-82096" lat="62.9877333292" lon="8.7694249931">
		<tag k="name" v="Øver Telstad" />
		<tag k="place" v="farm" />
		<tag k="ssr:stedsnr" v="96858" />
	</node>
	<node id="-82968" lat="62.9934388855" lon="8.67240278197">
		<tag k="name" v="Oppigard" />
		<tag k="place" v="farm" />
		<tag k="ssr:stedsnr" v="509917" />
	</node>
	<node id="-82967" lat="62.7717416679" lon="9.01531943594">
		<tag k="historic" v="shieling" />
		<tag k="name" v="Stangarvollen" />
		<tag k="place" v="locality" />
		<tag k="ssr:stedsnr" v="509294" />
	</node>
	<node id="-82963" lat="62.9554333355" lon="8.75682778133">
		<tag k="historic" v="shieling" />
		<tag k="name" v="Ranessetra" />
		<tag k="place" v="locality" />
		<tag k="ssr:stedsnr" v="509112" />
	</node>
	<node id="-82949" lat="62.944575004" lon="8.69861110349">
		<tag k="name" v="Fuglleiken" />
		<tag k="place" v="farm" />
		<tag k="ssr:stedsnr" v="497677" />
	</node>
	<node id="-82948" lat="62.9419361114" lon="8.69857777178">
		<tag k="name" v="Åsmyran" />
		<tag k="place" v="farm" />
		<tag k="ssr:stedsnr" v="497675" />
	</node>
	<node id="-82946" lat="62.9514694416" lon="8.56711388573">
		<tag k="name" v="Holtasetra" />
		<tag k="place" v="isolated_dwelling" />
		<tag k="ssr:stedsnr" v="497671" />
	</node>
	<node id="-82945" lat="63.0278526546" lon="9.09591335701">
		<tag k="fixme" v="consider place=hamlet" />
		<tag k="name" v="Fuglsøya" />
		<tag k="place" v="farm" />
		<tag k="ssr:stedsnr" v="497664" />
	</node>
	<node id="-82944" lat="62.9597166695" lon="8.62059721886">
		<tag k="name" v="Sjøasetersetra" />
		<tag k="place" v="isolated_dwelling" />
		<tag k="ssr:stedsnr" v="497659" />
	</node>
	<node id="-82940" lat="62.9881722228" lon="8.86806944037">
		<tag k="name" v="Honnstad" />
		<tag k="place" v="farm" />
		<tag k="ssr:stedsnr" v="680539" />
	</node>
	<node id="-82939" lat="62.9840548823" lon="8.79574293459">
		<tag k="fixme" v="consider place=hamlet" />
		<tag k="name" v="Krangnes" />
		<tag k="place" v="farm" />
		<tag k="ssr:stedsnr" v="680535" />
	</node>
	<node id="-82938" lat="62.987372226" lon="8.81119999615">
		<tag k="name" v="Krangnes" />
		<tag k="place" v="farm" />
		<tag k="ssr:stedsnr" v="680533" />
	</node>
	<node id="-82937" lat="62.9863066383" lon="8.76566516661">
		<tag k="fixme" v="consider place=hamlet" />
		<tag k="name" v="Telstad" />
		<tag k="place" v="farm" />
		<tag k="ssr:stedsnr" v="680529" />
	</node>
	<node id="-82935" lat="62.8038777781" lon="8.73348610456">
		<tag k="fixme" v="consider tourism=alpine_hut or tourism=chalet" />
		<tag k="name" v="Todalshytta" />
		<tag k="ssr:stedsnr" v="497077" />
		<tag k="tourism" v="wilderness_hut" />
	</node>
	<node id="-82934" lat="62.8031527754" lon="8.72235277257">
		<tag k="name" v="Reitan" />
		<tag k="place" v="farm" />
		<tag k="ssr:stedsnr" v="497075" />
	</node>
	<node id="-82930" lat="62.9738944467" lon="8.72633889274">
		<tag k="name" v="Surnadal" />
		<tag k="old_name" v="Skei" />
		<tag k="place" v="village" />
		<tag k="ssr:stedsnr" v="680483" />
	</node>
	<node id="-82929" lat="62.8254777815" lon="8.67029165958">
		<tag k="name" v="Hyllneset" />
		<tag k="place" v="farm" />
		<tag k="ssr:stedsnr" v="680465" />
	</node>
	<node id="-82919" lat="62.9374194433" lon="8.43191945087">
		<tag k="name" v="Skaråkeren" />
		<tag k="place" v="farm" />
		<tag k="ssr:stedsnr" v="679686" />
	</node>
	<node id="-82917" lat="63.0371111095" lon="8.87886389718">
		<tag k="historic" v="shieling" />
		<tag k="name" v="Andersgarden" />
		<tag k="place" v="locality" />
		<tag k="ssr:stedsnr" v="679651" />
	</node>
	<node id="-82915" lat="62.967861619" lon="8.69687055371">
		<tag k="fixme" v="consider place=hamlet" />
		<tag k="name" v="Vassenden" />
		<tag k="place" v="farm" />
		<tag k="ssr:stedsnr" v="679649" />
	</node>
	<node id="-82913" lat="62.9927284752" lon="8.33004953213">
		<tag k="fixme" v="consider place=hamlet" />
		<tag k="name" v="Bøkleppen" />
		<tag k="place" v="farm" />
		<tag k="ssr:stedsnr" v="679596" />
	</node>
	<node id="-82909" lat="62.9048250034" lon="8.54503332905">
		<tag k="name" v="Utheim" />
		<tag k="place" v="farm" />
		<tag k="ssr:stedsnr" v="679268" />
	</node>
	<node id="-82908" lat="62.9040249997" lon="8.69831945206">
		<tag k="name" v="Kvennbøsetra" />
		<tag k="place" v="isolated_dwelling" />
		<tag k="ssr:stedsnr" v="679262" />
	</node>
	<node id="-82332" lat="62.9956694446" lon="8.67834165809">
		<tag k="name" v="Hammaren" />
		<tag k="place" v="farm" />
		<tag k="ssr:stedsnr" v="194604" />
	</node>
	<node id="-82904" lat="62.9906054244" lon="8.9261331575">
		<tag k="alt_name" v="Høgmo bustadfelt" />
		<tag k="name" v="Høgmoen bustadfelt" />
		<tag k="place" v="quarter" />
		<tag k="ssr:stedsnr" v="484159" />
	</node>
	<node id="-82894" lat="62.9832611143" lon="8.69034999491">
		<tag k="name" v="Hemigard" />
		<tag k="place" v="farm" />
		<tag k="ssr:stedsnr" v="447924" />
	</node>
	<node id="-82891" lat="63.0542555555" lon="8.70372776938">
		<tag k="name" v="Merket" />
		<tag k="place" v="farm" />
		<tag k="ssr:stedsnr" v="437813" />
	</node>
	<node id="-82889" lat="63.0433888906" lon="8.52594999341">
		<tag k="name" v="Belesetra" />
		<tag k="place" v="isolated_dwelling" />
		<tag k="ssr:stedsnr" v="437810" />
	</node>
	<node id="-82100" lat="62.9972249962" lon="8.96084722978">
		<tag k="name" v="Moen" />
		<tag k="place" v="hamlet" />
		<tag k="ssr:stedsnr" v="255465" />
	</node>
	<node id="-82881" lat="62.9066819839" lon="8.59052232795">
		<tag k="alt_name" v="Stenberg ytre" />
		<tag k="fixme" v="consider place=hamlet" />
		<tag k="name" v="Ytre Stenberg" />
		<tag k="place" v="farm" />
		<tag k="ssr:stedsnr" v="519052" />
	</node>
	<node id="-82879" lat="62.8701194466" lon="8.65870000117">
		<tag k="historic" v="shieling" />
		<tag k="name" v="Nordviksetra" />
		<tag k="place" v="locality" />
		<tag k="ssr:stedsnr" v="437273" />
	</node>
	<node id="-82878" lat="62.8976408603" lon="8.50330637838">
		<tag k="fixme" v="consider place=hamlet" />
		<tag k="name" v="Grønneset" />
		<tag k="place" v="farm" />
		<tag k="ssr:stedsnr" v="437317" />
	</node>
	<node id="-84917" lat="62.9817694414" lon="8.74299722173">
		<tag k="name" v="Linsletta bustadfelt" />
		<tag k="place" v="quarter" />
		<tag k="ssr:stedsnr" v="326878" />
	</node>
	<node id="-84916" lat="62.9848249965" lon="8.69125000485">
		<tag k="name" v="Sylte" />
		<tag k="place" v="hamlet" />
		<tag k="ssr:stedsnr" v="326946" />
	</node>
	<node id="-84915" lat="62.981819442" lon="8.72658054924">
		<tag k="name" v="Nedre Buhagan" />
		<tag k="place" v="hamlet" />
		<tag k="ssr:stedsnr" v="326945" />
	</node>
	<node id="-84914" lat="62.9822527754" lon="8.70108888499">
		<tag k="name" v="Skogan" />
		<tag k="place" v="farm" />
		<tag k="ssr:stedsnr" v="326940" />
	</node>
	<node id="-82865" lat="62.9943805568" lon="8.67704721766">
		<tag k="name" v="Austigard" />
		<tag k="place" v="farm" />
		<tag k="ssr:stedsnr" v="509935" />
	</node>
	<node id="-82864" lat="63.0658416684" lon="8.83361111145">
		<tag k="alt_name" v="Bergemssetertjønna" />
		<tag k="historic" v="shieling" />
		<tag k="name" v="Stoltjønna" />
		<tag k="place" v="locality" />
		<tag k="ssr:stedsnr" v="510163" />
	</node>
	<node id="-82863" lat="63.0187694401" lon="8.78917499886">
		<tag k="historic" v="shieling" />
		<tag k="name" v="Bergemsgammelsetra" />
		<tag k="place" v="locality" />
		<tag k="ssr:stedsnr" v="510162" />
	</node>
	<node id="-84910" lat="63.0640647294" lon="8.75182658131">
		<tag k="fixme" v="consider place=hamlet" />
		<tag k="name" v="Myrholten" />
		<tag k="place" v="farm" />
		<tag k="ssr:stedsnr" v="316687" />
	</node>
	<node id="-84907" lat="62.8756353916" lon="8.61996827825">
		<tag k="fixme" v="consider place=hamlet" />
		<tag k="name" v="Nordvik" />
		<tag k="place" v="farm" />
		<tag k="ssr:stedsnr" v="316290" />
	</node>
	<node id="-82856" lat="63.0574277758" lon="8.79720277479">
		<tag k="historic" v="shieling" />
		<tag k="name" v="Øyagardssetra" />
		<tag k="place" v="locality" />
		<tag k="ssr:stedsnr" v="509413" />
	</node>
	<node id="-84902" lat="62.8969555519" lon="8.62878611518">
		<tag k="name" v="Åsbøsetra" />
		<tag k="place" v="locality" />
		<tag k="ssr:stedsnr" v="316319" />
	</node>
	<node id="-84898" lat="63.0217155283" lon="8.35803318305">
		<tag k="fixme" v="consider place=hamlet" />
		<tag k="name" v="Skrøvset" />
		<tag k="place" v="farm" />
		<tag k="ssr:stedsnr" v="315849" />
	</node>
	<node id="-84893" lat="63.0128000031" lon="8.92046111247">
		<tag k="name" v="Setra" />
		<tag k="place" v="farm" />
		<tag k="ssr:stedsnr" v="315687" />
	</node>
	<node id="-84891" lat="62.9170833295" lon="8.47264999982">
		<tag k="name" v="Bruvollen" />
		<tag k="place" v="farm" />
		<tag k="ssr:stedsnr" v="315737" />
	</node>
	<node id="-84890" lat="62.9217833377" lon="8.47106944368">
		<tag k="name" v="Trøin" />
		<tag k="place" v="farm" />
		<tag k="ssr:stedsnr" v="315734" />
	</node>
	<node id="-84887" lat="62.9919472234" lon="8.64070556375">
		<tag k="loc_name" v="Glæremstrøa" />
		<tag k="name" v="Trøa" />
		<tag k="place" v="farm" />
		<tag k="ssr:stedsnr" v="315645" />
	</node>
	<node id="-84886" lat="63.055808852" lon="8.90896528013">
		<tag k="fixme" v="consider place=hamlet" />
		<tag k="name" v="Solåsen" />
		<tag k="place" v="farm" />
		<tag k="ssr:stedsnr" v="315640" />
	</node>
	<node id="-84885" lat="62.9905727028" lon="8.45872460506">
		<tag k="fixme" v="consider place=hamlet" />
		<tag k="name" v="Solem" />
		<tag k="place" v="farm" />
		<tag k="ssr:stedsnr" v="315639" />
	</node>
	<node id="-84884" lat="62.9860222267" lon="8.35865278565">
		<tag k="name" v="Gravasetra" />
		<tag k="place" v="isolated_dwelling" />
		<tag k="ssr:stedsnr" v="315633" />
	</node>
	<node id="-84883" lat="62.9936555582" lon="8.67500832946">
		<tag k="name" v="Bøvra" />
		<tag k="place" v="farm" />
		<tag k="ssr:stedsnr" v="315627" />
	</node>
	<node id="-84881" lat="62.8096055558" lon="8.70876112064">
		<tag k="name" v="Sagtrøa" />
		<tag k="place" v="farm" />
		<tag k="ssr:stedsnr" v="315388" />
	</node>
	<node id="-82832" lat="62.9921972267" lon="8.68070833318">
		<tag k="name" v="Bøvrasvollen" />
		<tag k="place" v="farm" />
		<tag k="ssr:stedsnr" v="385622" />
	</node>
	<node id="-84879" lat="62.9021750005" lon="8.48690832541">
		<tag k="name" v="Heimdal" />
		<tag k="place" v="farm" />
		<tag k="ssr:stedsnr" v="315278" />
	</node>
	<node id="-84875" lat="62.7835027792" lon="8.79309167285">
		<tag k="name" v="Taløysetra" />
		<tag k="place" v="locality" />
		<tag k="ssr:stedsnr" v="315076" />
	</node>
	<node id="-84872" lat="62.9392722265" lon="8.81734166759">
		<tag k="name" v="Gammelseterdalen" />
		<tag k="place" v="isolated_dwelling" />
		<tag k="ssr:stedsnr" v="315029" />
	</node>
	<node id="-82815" lat="62.9069555534" lon="8.5959916633">
		<tag k="name" v="Steinberget" />
		<tag k="place" v="farm" />
		<tag k="ssr:stedsnr" v="375263" />
	</node>
	<node id="-82811" lat="62.8289864759" lon="9.2397229012">
		<tag k="fixme" v="consider tourism=alpine_hut or tourism=chalet" />
		<tag k="name" v="Trollheimshytta" />
		<tag k="ssr:stedsnr" v="497815" />
		<tag k="tourism" v="wilderness_hut" />
	</node>
	<node id="-82810" lat="62.9128611119" lon="8.58417777611">
		<tag k="name" v="Steinbergsetra" />
		<tag k="place" v="isolated_dwelling" />
		<tag k="ssr:stedsnr" v="497746" />
	</node>
	<node id="-82808" lat="62.9331250026" lon="8.69185278512">
		<tag k="name" v="Storsletta" />
		<tag k="place" v="farm" />
		<tag k="ssr:stedsnr" v="497700" />
	</node>
	<node id="-82807" lat="62.9728962086" lon="8.68105021398">
		<tag k="fixme" v="consider place=hamlet" />
		<tag k="name" v="Nedre Setra" />
		<tag k="place" v="farm" />
		<tag k="ssr:stedsnr" v="497648" />
	</node>
	<node id="-82806" lat="62.9674878749" lon="8.61660398277">
		<tag k="fixme" v="consider place=hamlet" />
		<tag k="name" v="Sjøasetra" />
		<tag k="place" v="farm" />
		<tag k="ssr:stedsnr" v="497645" />
	</node>
	<node id="-82801" lat="62.9886055562" lon="8.39686111344">
		<tag k="name" v="Flesasetra" />
		<tag k="place" v="isolated_dwelling" />
		<tag k="ssr:stedsnr" v="497621" />
	</node>
	<node id="-82800" lat="62.9988222184" lon="8.99982222738">
		<tag k="name" v="Seterøya" />
		<tag k="place" v="farm" />
		<tag k="ssr:stedsnr" v="497451" />
	</node>
	<node id="-82799" lat="62.9972000189" lon="8.92643331191">
		<tag k="fixme" v="consider place=hamlet" />
		<tag k="name" v="Holten" />
		<tag k="place" v="farm" />
		<tag k="ssr:stedsnr" v="497446" />
	</node>
	<node id="-84844" lat="62.9817388867" lon="8.71463054976">
		<tag k="amenity" v="school" />
		<tag k="name" v="Øye skule" />
		<tag k="ssr:stedsnr" v="216373" />
	</node>
	<node id="-82795" lat="62.8408361123" lon="8.63740833419">
		<tag k="name" v="Nausta" />
		<tag k="place" v="farm" />
		<tag k="ssr:stedsnr" v="497336" />
	</node>
	<node id="-82794" lat="62.8433583379" lon="8.66689167607">
		<tag k="name" v="Hjellnessetra" />
		<tag k="place" v="isolated_dwelling" />
		<tag k="ssr:stedsnr" v="497334" />
	</node>
	<node id="-82793" lat="62.8738027817" lon="8.61970278679">
		<tag k="name" v="Nistua" />
		<tag k="place" v="farm" />
		<tag k="ssr:stedsnr" v="497241" />
	</node>
	<node id="-82792" lat="62.906611109" lon="8.6043194365">
		<tag k="name" v="Holtan" />
		<tag k="place" v="farm" />
		<tag k="ssr:stedsnr" v="497299" />
	</node>
	<node id="-82791" lat="62.9076950911" lon="8.62468934173">
		<tag k="fixme" v="consider place=hamlet" />
		<tag k="name" v="Haugen" />
		<tag k="place" v="farm" />
		<tag k="ssr:stedsnr" v="497297" />
	</node>
	<node id="-84838" lat="62.8121166631" lon="8.8185333308">
		<tag k="name" v="Pestusetra" />
		<tag k="place" v="isolated_dwelling" />
		<tag k="ssr:stedsnr" v="216269" />
	</node>
	<node id="-82780" lat="62.9127679763" lon="8.83519792755">
		<tag k="name" v="Vassendsetra" />
		<tag k="place" v="isolated_dwelling" />
		<tag k="ssr:stedsnr" v="497018" />
	</node>
	<node id="-82776" lat="63.0255166699" lon="8.34320277525">
		<tag k="name" v="Faksvågen hyttefelt" />
		<tag k="place" v="neighbourhood" />
		<tag k="ssr:stedsnr" v="483312" />
	</node>
	<node id="-82775" lat="63.0083805534" lon="8.41570556366">
		<tag k="name" v="Osen" />
		<tag k="place" v="isolated_dwelling" />
		<tag k="ssr:stedsnr" v="338841" />
	</node>
	<node id="-82774" lat="62.9061837307" lon="8.59483397379">
		<tag k="alt_name" v="Stenberg indre" />
		<tag k="fixme" v="consider place=hamlet" />
		<tag k="name" v="Indre Stenberg" />
		<tag k="place" v="farm" />
		<tag k="ssr:stedsnr" v="338829" />
	</node>
	<node id="-82773" lat="62.8714166692" lon="8.62513055649">
		<tag k="name" v="Bakkan" />
		<tag k="place" v="farm" />
		<tag k="ssr:stedsnr" v="338823" />
	</node>
	<node id="-84814" lat="62.8286388896" lon="8.75773889535">
		<tag k="name" v="Markastua" />
		<tag k="place" v="isolated_dwelling" />
		<tag k="ssr:stedsnr" v="206093" />
	</node>
	<node id="-84809" lat="62.9985388902" lon="8.69968332926">
		<tag k="name" v="Ner-Berseten" />
		<tag k="place" v="farm" />
		<tag k="ssr:stedsnr" v="205555" />
	</node>
	<node id="-82758" lat="62.9896638932" lon="8.33685556367">
		<tag k="name" v="Naustan" />
		<tag k="place" v="locality" />
		<tag k="ssr:stedsnr" v="338116" />
	</node>
	<node id="-84804" lat="62.9847722213" lon="8.73652222589">
		<tag k="name" v="Oppestua Bergem" />
		<tag k="place" v="farm" />
		<tag k="ssr:stedsnr" v="204873" />
	</node>
	<node id="-84800" lat="63.0622000035" lon="8.74414722988">
		<tag k="fixme" v="multiple name tags, choose one and add the other to alt_name" />
		<tag k="name" v="Flotten;Nordheim" />
		<tag k="place" v="farm" />
		<tag k="ssr:stedsnr" v="195663" />
	</node>
	<node id="-84797" lat="62.8294972244" lon="8.76842778748">
		<tag k="name" v="Kvennsetsetrin" />
		<tag k="place" v="isolated_dwelling" />
		<tag k="ssr:stedsnr" v="195112" />
	</node>
	<node id="-84793" lat="63.0842916672" lon="8.8565722155">
		<tag k="name" v="Nergarden" />
		<tag k="place" v="farm" />
		<tag k="ssr:stedsnr" v="194696" />
	</node>
	<node id="-84790" lat="62.9177081085" lon="8.6524257907">
		<tag k="name" v="Tretta" />
		<tag k="place" v="farm" />
		<tag k="ssr:stedsnr" v="194728" />
	</node>
	<node id="-82741" lat="62.9053388878" lon="8.55112778447">
		<tag k="name" v="Røen" />
		<tag k="place" v="farm" />
		<tag k="ssr:stedsnr" v="481690" />
	</node>
	<node id="-82740" lat="62.979463889" lon="8.72028889012">
		<tag k="fixme" v="consider place=hamlet" />
		<tag k="name" v="Øye" />
		<tag k="place" v="village" />
		<tag k="ssr:stedsnr" v="328502" />
	</node>
	<node id="-84787" lat="63.0369945656" lon="8.90016355637">
		<tag k="historic" v="shieling" />
		<tag k="loc_name" v="Gullasetra" />
		<tag k="name" v="Erkgarden" />
		<tag k="place" v="locality" />
		<tag k="ssr:stedsnr" v="194595" />
	</node>
	<node id="-84782" lat="62.9838138854" lon="8.56379444218">
		<tag k="name" v="Øyan" />
		<tag k="place" v="farm" />
		<tag k="ssr:stedsnr" v="194623" />
	</node>
	<node id="-84780" lat="62.9842773785" lon="8.68957616585">
		<tag k="fixme" v="consider place=hamlet" />
		<tag k="name" v="Sylte" />
		<tag k="place" v="farm" />
		<tag k="ssr:stedsnr" v="194613" />
	</node>
	<node id="-84779" lat="62.9040138859" lon="8.5467388879">
		<tag k="name" v="Lyngstad" />
		<tag k="place" v="farm" />
		<tag k="ssr:stedsnr" v="194280" />
	</node>
	<node id="-84778" lat="62.9016428945" lon="8.57722774189">
		<tag k="fixme" v="consider place=hamlet" />
		<tag k="name" v="Grytskogan" />
		<tag k="place" v="farm" />
		<tag k="ssr:stedsnr" v="194260" />
	</node>
	<node id="-84777" lat="62.8934555573" lon="8.55402221439">
		<tag k="alt_name" v="Rønningen" />
		<tag k="name" v="Rønningan" />
		<tag k="place" v="farm" />
		<tag k="ssr:stedsnr" v="194258" />
	</node>
	<node id="-82727" lat="63.0879381637" lon="8.86446466674">
		<tag k="fixme" v="consider place=hamlet" />
		<tag k="name" v="Brattset" />
		<tag k="place" v="farm" />
		<tag k="ssr:stedsnr" v="316761" />
	</node>
	<node id="-84774" lat="62.8288519428" lon="8.66149621379">
		<tag k="fixme" v="consider place=hamlet" />
		<tag k="name" v="Ansneset" />
		<tag k="place" v="farm" />
		<tag k="ssr:stedsnr" v="194379" />
	</node>
	<node id="-82721" lat="62.885666663" lon="8.58464167288">
		<tag k="name" v="Haltbakkan" />
		<tag k="place" v="farm" />
		<tag k="ssr:stedsnr" v="316312" />
	</node>
	<node id="-82720" lat="62.8879111097" lon="8.60309722225">
		<tag k="name" v="Sjøledet" />
		<tag k="place" v="farm" />
		<tag k="ssr:stedsnr" v="316308" />
	</node>
	<node id="-82714" lat="62.9793027763" lon="8.66749444911">
		<tag k="name" v="Teigen" />
		<tag k="place" v="farm" />
		<tag k="ssr:stedsnr" v="315661" />
	</node>
	<node id="-82711" lat="62.976308329" lon="8.53210555554">
		<tag k="name" v="Tussvika" />
		<tag k="place" v="farm" />
		<tag k="ssr:stedsnr" v="315657" />
	</node>
	<node id="-82709" lat="62.8458318823" lon="8.64685437119">
		<tag k="fixme" v="consider place=hamlet" />
		<tag k="name" v="Hjellnes" />
		<tag k="place" v="farm" />
		<tag k="ssr:stedsnr" v="315306" />
	</node>
	<node id="-84754" lat="62.9597472191" lon="8.73407777041">
		<tag k="name" v="Kolbotnen" />
		<tag k="place" v="isolated_dwelling" />
		<tag k="ssr:stedsnr" v="156918" />
	</node>
	<node id="-82705" lat="62.8040529013" lon="8.73822098262">
		<tag k="fixme" v="consider place=hamlet" />
		<tag k="name" v="Bruset" />
		<tag k="place" v="farm" />
		<tag k="ssr:stedsnr" v="315115" />
	</node>
	<node id="-82704" lat="62.8060111086" lon="8.73148054883">
		<tag k="name" v="Haugabu" />
		<tag k="place" v="isolated_dwelling" />
		<tag k="ssr:stedsnr" v="315112" />
	</node>
	<node id="-84751" lat="62.9956583373" lon="8.47386110616">
		<tag k="name" v="Liset" />
		<tag k="place" v="farm" />
		<tag k="ssr:stedsnr" v="156900" />
	</node>
	<node id="-84750" lat="62.9908772251" lon="8.64566575811">
		<tag k="name" v="Nausta" />
		<tag k="place" v="locality" />
		<tag k="ssr:stedsnr" v="156889" />
	</node>
	<node id="-84749" lat="63.0740083378" lon="8.80537777464">
		<tag k="name" v="Bøvertun" />
		<tag k="place" v="farm" />
		<tag k="ssr:stedsnr" v="156869" />
	</node>
	<node id="-84748" lat="62.9884277808" lon="8.92339721385">
		<tag k="name" v="Sagatrøa" />
		<tag k="place" v="farm" />
		<tag k="ssr:stedsnr" v="156866" />
	</node>
	<node id="-84747" lat="62.9943305565" lon="8.92535832714">
		<tag k="name" v="Myrmo" />
		<tag k="place" v="farm" />
		<tag k="ssr:stedsnr" v="156865" />
	</node>
	<node id="-84746" lat="62.9963472262" lon="8.83418055696">
		<tag k="name" v="Leikaren" />
		<tag k="place" v="farm" />
		<tag k="ssr:stedsnr" v="156857" />
	</node>
	<node id="-84745" lat="63.0439694429" lon="8.39535554854">
		<tag k="name" v="Settemsetra" />
		<tag k="place" v="isolated_dwelling" />
		<tag k="ssr:stedsnr" v="156855" />
	</node>
	<node id="-82696" lat="62.9203027791" lon="8.46906945421">
		<tag k="name" v="Fredly" />
		<tag k="place" v="isolated_dwelling" />
		<tag k="ssr:stedsnr" v="466194" />
	</node>
	<node id="-84743" lat="63.0089333309" lon="8.37453889023">
		<tag k="name" v="Olastua" />
		<tag k="place" v="farm" />
		<tag k="ssr:stedsnr" v="156846" />
	</node>
	<node id="-84742" lat="62.8932722211" lon="8.5559166711">
		<tag k="name" v="Grinda" />
		<tag k="place" v="farm" />
		<tag k="ssr:stedsnr" v="156838" />
	</node>
	<node id="-84739" lat="62.8787194415" lon="8.61471388546">
		<tag k="name" v="Plassen" />
		<tag k="place" v="farm" />
		<tag k="ssr:stedsnr" v="156824" />
	</node>
	<node id="-84738" lat="62.889875004" lon="8.51891388689">
		<tag k="name" v="Vårtun" />
		<tag k="place" v="farm" />
		<tag k="ssr:stedsnr" v="156812" />
	</node>
	<node id="-82689" lat="62.8883305544" lon="8.54619445345">
		<tag k="name" v="Skogly" />
		<tag k="place" v="farm" />
		<tag k="ssr:stedsnr" v="460847" />
	</node>
	<node id="-82688" lat="62.8880138899" lon="8.54878889299">
		<tag k="name" v="Rabben" />
		<tag k="place" v="farm" />
		<tag k="ssr:stedsnr" v="460846" />
	</node>
	<node id="-82687" lat="62.9058277782" lon="8.60703333429">
		<tag k="name" v="Utigard" />
		<tag k="place" v="farm" />
		<tag k="ssr:stedsnr" v="460845" />
	</node>
	<node id="-84726" lat="62.9943027738" lon="8.34730000624">
		<tag k="name" v="Øvre Bøsetra" />
		<tag k="place" v="locality" />
		<tag k="ssr:stedsnr" v="156659" />
	</node>
	<node id="-84723" lat="63.0225027735" lon="8.26820000122">
		<tag k="historic" v="shieling" />
		<tag k="name" v="Kallsetsetra" />
		<tag k="place" v="locality" />
		<tag k="ssr:stedsnr" v="156631" />
	</node>
	<node id="-84709" lat="62.9902944459" lon="9.01772222549">
		<tag k="name" v="Harangssetrin" />
		<tag k="place" v="isolated_dwelling" />
		<tag k="ssr:stedsnr" v="156499" />
	</node>
	<node id="-84708" lat="62.9955305577" lon="8.52017221527">
		<tag k="historic" v="shieling" />
		<tag k="name" v="Hamnessetra" />
		<tag k="place" v="locality" />
		<tag k="ssr:stedsnr" v="156463" />
	</node>
	<node id="-82726" lat="62.9814833342" lon="8.98480000883">
		<tag k="name" v="Langslåa" />
		<tag k="place" v="locality" />
		<tag k="ssr:stedsnr" v="316523" />
	</node>
	<node id="-84668" lat="62.9860666704" lon="8.39131388274">
		<tag k="name" v="Båtviksetra" />
		<tag k="place" v="locality" />
		<tag k="ssr:stedsnr" v="156287" />
	</node>
	<node id="-84665" lat="62.7817250042" lon="8.84627499694">
		<tag k="name" v="Kokkhuset" />
		<tag k="place" v="isolated_dwelling" />
		<tag k="ssr:stedsnr" v="156263" />
	</node>
	<node id="-82615" lat="62.9357388932" lon="8.77128610651">
		<tag k="name" v="Vollen" />
		<tag k="place" v="farm" />
		<tag k="ssr:stedsnr" v="460056" />
	</node>
	<node id="-84744" lat="63.0368944456" lon="8.44149443508">
		<tag k="name" v="Asplia" />
		<tag k="place" v="farm" />
		<tag k="ssr:stedsnr" v="156851" />
	</node>
	<node id="-84630" lat="63.0955666626" lon="8.82047500017">
		<tag k="name" v="Hansnaustet" />
		<tag k="place" v="locality" />
		<tag k="ssr:stedsnr" v="155988" />
	</node>
	<node id="-82573" lat="63.0284805523" lon="9.09320278274">
		<tag k="name" v="Slettvoll" />
		<tag k="place" v="farm" />
		<tag k="ssr:stedsnr" v="459703" />
	</node>
	<node id="-82698" lat="63.0100388871" lon="8.84554166455">
		<tag k="historic" v="shieling" />
		<tag k="name" v="Mogstadsetra" />
		<tag k="place" v="locality" />
		<tag k="ssr:stedsnr" v="297905" />
	</node>
	<node id="-82570" lat="63.031941669" lon="9.09746944653">
		<tag k="name" v="Ner Dalsegga" />
		<tag k="place" v="farm" />
		<tag k="ssr:stedsnr" v="459688" />
	</node>
	<node id="-84617" lat="62.985055932" lon="8.78076794359">
		<tag k="fixme" v="consider place=hamlet" />
		<tag k="name" v="Hommelstad" />
		<tag k="place" v="farm" />
		<tag k="ssr:stedsnr" v="155847" />
	</node>
	<node id="-84612" lat="62.9384749998" lon="8.8158583273">
		<tag k="alt_name" v="Østbøen" />
		<tag k="name" v="Gammelsetra" />
		<tag k="place" v="isolated_dwelling" />
		<tag k="ssr:stedsnr" v="155802" />
	</node>
	<node id="-84603" lat="63.023486107" lon="9.0949194425">
		<tag k="name" v="Kvamsgjerdet" />
		<tag k="place" v="farm" />
		<tag k="ssr:stedsnr" v="155689" />
	</node>
	<node id="-84599" lat="62.9925249983" lon="8.93416389778">
		<tag k="building" v="industrial" />
		<tag k="industrial" v="factory" />
		<tag k="name" v="Røv mølle" />
		<tag k="ssr:stedsnr" v="155576" />
	</node>
	<node id="-82545" lat="62.9059111093" lon="9.02315000002">
		<tag k="name" v="Heimer Breiskarsetra" />
		<tag k="place" v="isolated_dwelling" />
		<tag k="ssr:stedsnr" v="459457" />
	</node>
	<node id="-82538" lat="62.8106888883" lon="8.66770554651">
		<tag k="name" v="Nestusetra" />
		<tag k="place" v="isolated_dwelling" />
		<tag k="ssr:stedsnr" v="459408" />
	</node>
	<node id="-84585" lat="62.9058527821" lon="9.0236138863">
		<tag k="historic" v="shieling" />
		<tag k="name" v="Breiskarsetran" />
		<tag k="place" v="locality" />
		<tag k="ssr:stedsnr" v="146825" />
	</node>
	<node id="-84582" lat="62.9668083346" lon="8.79325555449">
		<tag k="historic" v="shieling" />
		<tag k="name" v="Soggsetra" />
		<tag k="place" v="locality" />
		<tag k="ssr:stedsnr" v="145297" />
	</node>
	<node id="-84752" lat="62.9784305513" lon="8.52201111614">
		<tag k="name" v="Øvre Trøene" />
		<tag k="place" v="farm" />
		<tag k="ssr:stedsnr" v="156906" />
	</node>
	<node id="-84571" lat="62.9089083343" lon="8.83369445386">
		<tag k="historic" v="shieling" />
		<tag k="name" v="Grimsmosetra" />
		<tag k="place" v="locality" />
		<tag k="ssr:stedsnr" v="145107" />
	</node>
	<node id="-82522" lat="62.8246722178" lon="8.85139444137">
		<tag k="name" v="Husbygammelsetra" />
		<tag k="place" v="locality" />
		<tag k="ssr:stedsnr" v="459300" />
	</node>
	<node id="-84567" lat="62.9915055529" lon="8.6510749956">
		<tag k="name" v="Osen" />
		<tag k="place" v="farm" />
		<tag k="ssr:stedsnr" v="144936" />
	</node>
	<node id="-84564" lat="62.9850611095" lon="8.68839722278">
		<tag k="name" v="Oppigard" />
		<tag k="place" v="farm" />
		<tag k="ssr:stedsnr" v="143926" />
	</node>
	<node id="-84561" lat="63.0475055537" lon="9.0189555608">
		<tag k="historic" v="shieling" />
		<tag k="name" v="Austergarden" />
		<tag k="place" v="locality" />
		<tag k="ssr:stedsnr" v="141638" />
	</node>
	<node id="-82511" lat="62.8126777737" lon="8.82043333385">
		<tag k="name" v="Ramsøysetra" />
		<tag k="place" v="isolated_dwelling" />
		<tag k="ssr:stedsnr" v="459290" />
	</node>
	<node id="-84557" lat="63.0219250023" lon="8.49405277265">
		<tag k="name" v="Åsskardtrøa" />
		<tag k="place" v="farm" />
		<tag k="ssr:stedsnr" v="133849" />
	</node>
	<node id="-84556" lat="63.0217944465" lon="8.46797499174">
		<tag k="name" v="Setervika" />
		<tag k="place" v="farm" />
		<tag k="ssr:stedsnr" v="133839" />
	</node>
	<node id="-84553" lat="62.9475944445" lon="8.43138610609">
		<tag k="name" v="Gammelsetra" />
		<tag k="place" v="locality" />
		<tag k="ssr:stedsnr" v="133677" />
	</node>
	<node id="-84552" lat="62.9493666672" lon="8.50123889617">
		<tag k="name" v="Liabu" />
		<tag k="place" v="isolated_dwelling" />
		<tag k="ssr:stedsnr" v="133675" />
	</node>
	<node id="-82700" lat="62.9263444409" lon="8.98934443479">
		<tag k="name" v="Langøya" />
		<tag k="place" v="isolated_dwelling" />
		<tag k="ssr:stedsnr" v="315053" />
	</node>
	<node id="-84549" lat="62.9565999978" lon="8.59343334258">
		<tag k="name" v="Strandasetra" />
		<tag k="place" v="isolated_dwelling" />
		<tag k="ssr:stedsnr" v="133654" />
	</node>
	<node id="-84548" lat="62.9624666703" lon="8.57156389302">
		<tag k="name" v="Holten" />
		<tag k="place" v="farm" />
		<tag k="ssr:stedsnr" v="133653" />
	</node>
	<node id="-84546" lat="62.9704660551" lon="8.71549653965">
		<tag k="fixme" v="consider place=hamlet" />
		<tag k="name" v="Grimsmoen" />
		<tag k="place" v="farm" />
		<tag k="ssr:stedsnr" v="133645" />
	</node>
	<node id="-82699" lat="62.9044505507" lon="8.59674705603">
		<tag k="name" v="Stenbergsgeilin bustadfelt" />
		<tag k="place" v="quarter" />
		<tag k="ssr:stedsnr" v="302205" />
	</node>
	<node id="-84540" lat="62.9033083316" lon="8.48795276799">
		<tag k="name" v="Høgset" />
		<tag k="place" v="farm" />
		<tag k="ssr:stedsnr" v="133269" />
	</node>
	<node id="-84539" lat="62.8134388883" lon="8.65779444315">
		<tag k="name" v="Hallsetsetra" />
		<tag k="place" v="isolated_dwelling" />
		<tag k="ssr:stedsnr" v="133387" />
	</node>
	<node id="-84537" lat="62.8104985519" lon="8.7011748283">
		<tag k="fixme" v="consider place=hamlet" />
		<tag k="name" v="Ørsalen" />
		<tag k="place" v="farm" />
		<tag k="ssr:stedsnr" v="133370" />
	</node>
	<node id="-84527" lat="62.98897794" lon="8.58543406219">
		<tag k="fixme" v="consider place=hamlet" />
		<tag k="name" v="Garte" />
		<tag k="place" v="farm" />
		<tag k="ssr:stedsnr" v="132660" />
	</node>
	<node id="-84525" lat="63.0020626199" lon="8.96943456688">
		<tag k="fixme" v="consider place=hamlet" />
		<tag k="name" v="Moen" />
		<tag k="place" v="farm" />
		<tag k="ssr:stedsnr" v="101733" />
	</node>
	<node id="-82476" lat="62.890577779" lon="8.51742221248">
		<tag k="name" v="Nergeilen" />
		<tag k="place" v="farm" />
		<tag k="ssr:stedsnr" v="459085" />
	</node>
	<node id="-84521" lat="63.0205027762" lon="9.09060277436">
		<tag k="name" v="Follasaga" />
		<tag k="place" v="farm" />
		<tag k="ssr:stedsnr" v="96838" />
	</node>
	<node id="-84520" lat="62.903302777" lon="8.59009999644">
		<tag k="alt_name" v="Melhus ytre" />
		<tag k="name" v="Ytre Melhus" />
		<tag k="place" v="farm" />
		<tag k="ssr:stedsnr" v="96833" />
	</node>
	<node id="-84519" lat="62.927425001" lon="8.45019999529">
		<tag k="name" v="Rønnan" />
		<tag k="place" v="farm" />
		<tag k="ssr:stedsnr" v="96817" />
	</node>
	<node id="-84518" lat="62.8898222258" lon="8.52669999666">
		<tag k="name" v="Pestua" />
		<tag k="place" v="farm" />
		<tag k="ssr:stedsnr" v="96815" />
	</node>
	<node id="-84517" lat="62.8794666635" lon="8.61841666642">
		<tag k="name" v="Hagavoll" />
		<tag k="place" v="farm" />
		<tag k="ssr:stedsnr" v="96812" />
	</node>
	<node id="-84513" lat="62.9864388901" lon="8.6551222137">
		<tag k="name" v="Røtet" />
		<tag k="place" v="quarter" />
		<tag k="ssr:stedsnr" v="96878" />
	</node>
	<node id="-82460" lat="62.8529888871" lon="8.63119721517">
		<tag k="name" v="Gjengstøa" />
		<tag k="place" v="farm" />
		<tag k="ssr:stedsnr" v="277075" />
	</node>
	<node id="-84506" lat="63.0019666683" lon="8.46946667338">
		<tag k="name" v="Gammelsetra" />
		<tag k="place" v="locality" />
		<tag k="ssr:stedsnr" v="96338" />
	</node>
	<node id="-82457" lat="62.8891872597" lon="8.52584872054">
		<tag k="fixme" v="consider place=hamlet" />
		<tag k="name" v="Kvanne" />
		<tag k="place" v="farm" />
		<tag k="ssr:stedsnr" v="267421" />
	</node>
	<node id="-82454" lat="62.9845777756" lon="8.68296666917">
		<tag k="name" v="Stevret" />
		<tag k="place" v="farm" />
		<tag k="ssr:stedsnr" v="265921" />
	</node>
	<node id="-82453" lat="63.0143915506" lon="8.32307903819">
		<tag k="fixme" v="consider place=hamlet" />
		<tag k="name" v="Heggem" />
		<tag k="place" v="farm" />
		<tag k="ssr:stedsnr" v="255859" />
	</node>
	<node id="-82452" lat="63.0071545098" lon="9.02964645237">
		<tag k="fixme" v="consider place=hamlet" />
		<tag k="name" v="Harangen" />
		<tag k="place" v="farm" />
		<tag k="ssr:stedsnr" v="255670" />
	</node>
	<node id="-84499" lat="63.0697444488" lon="8.74303610904">
		<tag k="name" v="Nyløå" />
		<tag k="place" v="locality" />
		<tag k="ssr:stedsnr" v="96397" />
	</node>
	<node id="-82449" lat="62.992205557" lon="8.90553055975">
		<tag k="name" v="Mauset" />
		<tag k="place" v="farm" />
		<tag k="ssr:stedsnr" v="255456" />
	</node>
	<node id="-82446" lat="62.8137750027" lon="8.69371111035">
		<tag k="name" v="Holmen" />
		<tag k="place" v="farm" />
		<tag k="ssr:stedsnr" v="255406" />
	</node>
	<node id="-82690" lat="63.0563416679" lon="8.71537777628">
		<tag k="name" v="Bakkebu" />
		<tag k="place" v="farm" />
		<tag k="ssr:stedsnr" v="460854" />
	</node>
	<node id="-82435" lat="62.9871585461" lon="8.56540107584">
		<tag k="fixme" v="consider place=hamlet" />
		<tag k="name" v="Møkkelgjerdet" />
		<tag k="place" v="farm" />
		<tag k="ssr:stedsnr" v="254624" />
	</node>
	<node id="-82433" lat="62.8967666709" lon="8.57185554917">
		<tag k="name" v="Ranheim" />
		<tag k="place" v="farm" />
		<tag k="ssr:stedsnr" v="254268" />
	</node>
	<node id="-82432" lat="62.8969680529" lon="8.56306363505">
		<tag k="fixme" v="consider place=hamlet" />
		<tag k="name" v="Mo" />
		<tag k="place" v="farm" />
		<tag k="ssr:stedsnr" v="254266" />
	</node>
	<node id="-84479" lat="63.0537222258" lon="8.88444444599">
		<tag k="name" v="Solvassbo" />
		<tag k="place" v="isolated_dwelling" />
		<tag k="ssr:stedsnr" v="95969" />
	</node>
	<node id="-82426" lat="63.0507213069" lon="8.99974529638">
		<tag k="historic" v="shieling" />
		<tag k="name" v="Midtgarden" />
		<tag k="place" v="locality" />
		<tag k="ssr:stedsnr" v="449078" />
	</node>
	<node id="-82425" lat="62.8856138878" lon="9.02599721355">
		<tag k="historic" v="shieling" />
		<tag k="name" v="Nedre Kløftsetra" />
		<tag k="place" v="locality" />
		<tag k="ssr:stedsnr" v="449073" />
	</node>
	<node id="-82414" lat="62.9952527819" lon="8.70448333011">
		<tag k="name" v="Auster-Berseten" />
		<tag k="place" v="farm" />
		<tag k="ssr:stedsnr" v="448444" />
	</node>
	<node id="-82413" lat="62.9997166702" lon="8.69476388394">
		<tag k="name" v="Øver-Berseten" />
		<tag k="place" v="farm" />
		<tag k="ssr:stedsnr" v="448431" />
	</node>
	<node id="-82405" lat="63.0141036649" lon="8.62748341517">
		<tag k="name" v="Fokkstua" />
		<tag k="place" v="locality" />
		<tag k="ssr:stedsnr" v="218911" />
	</node>
	<node id="-82403" lat="63.0072777736" lon="9.00293333654">
		<tag k="name" v="Solemshaugen" />
		<tag k="place" v="farm" />
		<tag k="ssr:stedsnr" v="217843" />
	</node>
	<node id="-82402" lat="63.0568222236" lon="8.45704999965">
		<tag k="name" v="Bjørkås" />
		<tag k="place" v="farm" />
		<tag k="ssr:stedsnr" v="217834" />
	</node>
	<node id="-82401" lat="63.0074777751" lon="8.36871666973">
		<tag k="name" v="Sørgarden" />
		<tag k="place" v="farm" />
		<tag k="ssr:stedsnr" v="217820" />
	</node>
	<node id="-81999" lat="62.9949305595" lon="8.68830000745">
		<tag k="name" v="Råa" />
		<tag k="place" v="farm" />
		<tag k="ssr:stedsnr" v="84007" />
	</node>
	<node id="-82383" lat="63.0155555533" lon="8.49201110245">
		<tag k="name" v="Dreierstua" />
		<tag k="place" v="farm" />
		<tag k="ssr:stedsnr" v="217323" />
	</node>
	<node id="-84428" lat="62.9771277776" lon="8.72786665784">
		<tag k="amenity" v="school" />
		<tag k="name" v="Nordmøre Folkehøgskule" />
		<tag k="ssr:stedsnr" v="95344" />
	</node>
	<node id="-84417" lat="62.9912472237" lon="8.64525278566">
		<tag k="name" v="Naustan" />
		<tag k="place" v="farm" />
		<tag k="ssr:stedsnr" v="84343" />
	</node>
	<node id="-84414" lat="63.002786115" lon="8.49835277904">
		<tag k="alt_name" v="Saga" />
		<tag k="name" v="Snekkviksaga" />
		<tag k="place" v="farm" />
		<tag k="ssr:stedsnr" v="73865" />
	</node>
	<node id="-84373" lat="62.900163887" lon="8.49391110607">
		<tag k="name" v="Finnvikan" />
		<tag k="place" v="farm" />
		<tag k="ssr:stedsnr" v="72283" />
	</node>
	<node id="-84411" lat="63.0222416645" lon="8.57359167081">
		<tag k="name" v="Rønningen" />
		<tag k="place" v="farm" />
		<tag k="ssr:stedsnr" v="73845" />
	</node>
	<node id="-84409" lat="63.0160005452" lon="8.53021892879">
		<tag k="fixme" v="consider place=hamlet" />
		<tag k="name" v="Bele" />
		<tag k="place" v="farm" />
		<tag k="ssr:stedsnr" v="73839" />
	</node>
	<node id="-84405" lat="62.9990083638" lon="9.13239995572">
		<tag k="name" v="Sandsetra" />
		<tag k="place" v="locality" />
		<tag k="ssr:stedsnr" v="73499" />
	</node>
	<node id="-82356" lat="62.8442861104" lon="9.227744451">
		<tag k="name" v="Skjermosetra" />
		<tag k="place" v="isolated_dwelling" />
		<tag k="ssr:stedsnr" v="216509" />
	</node>
	<node id="-84403" lat="62.9757444464" lon="8.90929721803">
		<tag k="name" v="Mausetsetra" />
		<tag k="place" v="isolated_dwelling" />
		<tag k="ssr:stedsnr" v="73485" />
	</node>
	<node id="-84401" lat="62.9896333351" lon="9.12855555356">
		<tag k="name" v="Sandsetra" />
		<tag k="place" v="isolated_dwelling" />
		<tag k="ssr:stedsnr" v="73477" />
	</node>
	<node id="-84397" lat="62.8820472178" lon="9.24301388758">
		<tag k="name" v="Liagarden" />
		<tag k="place" v="isolated_dwelling" />
		<tag k="ssr:stedsnr" v="73189" />
	</node>
	<node id="-84393" lat="62.9148277775" lon="9.01285277727">
		<tag k="name" v="Kontrabakkan" />
		<tag k="place" v="isolated_dwelling" />
		<tag k="ssr:stedsnr" v="73050" />
	</node>
	<node id="-84391" lat="62.9473555543" lon="8.97916945303">
		<tag k="name" v="Bjørkøya" />
		<tag k="place" v="isolated_dwelling" />
		<tag k="ssr:stedsnr" v="73046" />
	</node>
	<node id="-82338" lat="62.9408138909" lon="8.44647223093">
		<tag k="name" v="Skaråkersetra" />
		<tag k="place" v="isolated_dwelling" />
		<tag k="ssr:stedsnr" v="202233" />
	</node>
	<node id="-84385" lat="62.8952138868" lon="8.96323055212">
		<tag k="name" v="Eiterdalssetrin" />
		<tag k="place" v="isolated_dwelling" />
		<tag k="ssr:stedsnr" v="73010" />
	</node>
	<node id="-82334" lat="62.8878571735" lon="8.55540171153">
		<tag k="fixme" v="consider place=hamlet" />
		<tag k="name" v="Søyset" />
		<tag k="place" v="farm" />
		<tag k="ssr:stedsnr" v="195315" />
	</node>
	<node id="-82333" lat="62.8907337818" lon="8.60549195559">
		<tag k="fixme" v="consider place=hamlet" />
		<tag k="name" v="Åsbøen" />
		<tag k="place" v="farm" />
		<tag k="ssr:stedsnr" v="195311" />
	</node>
	<node id="-84380" lat="62.9471194467" lon="8.42284167491">
		<tag k="name" v="Tromsen" />
		<tag k="place" v="isolated_dwelling" />
		<tag k="ssr:stedsnr" v="72668" />
	</node>
	<node id="-82331" lat="62.9123250012" lon="8.5724527791">
		<tag k="name" v="Grytskogsetra" />
		<tag k="place" v="isolated_dwelling" />
		<tag k="ssr:stedsnr" v="194712" />
	</node>
	<node id="-82330" lat="63.0992916674" lon="8.952355563">
		<tag k="historic" v="shieling" />
		<tag k="name" v="Kråkhaugen" />
		<tag k="place" v="locality" />
		<tag k="ssr:stedsnr" v="194711" />
	</node>
	<node id="-84377" lat="62.9618611067" lon="8.65142221317">
		<tag k="name" v="Setersetra" />
		<tag k="place" v="isolated_dwelling" />
		<tag k="ssr:stedsnr" v="72660" />
	</node>
	<node id="-84375" lat="62.9759694403" lon="8.40795277907">
		<tag k="name" v="Flesavika" />
		<tag k="place" v="farm" />
		<tag k="ssr:stedsnr" v="72638" />
	</node>
	<node id="-84374" lat="62.9055020151" lon="8.55074024843">
		<tag k="fixme" v="consider place=hamlet" />
		<tag k="name" v="Røen" />
		<tag k="place" v="farm" />
		<tag k="ssr:stedsnr" v="72299" />
	</node>
	<node id="-82329" lat="62.9198583299" lon="8.52087778041">
		<tag k="name" v="Fagerlia" />
		<tag k="place" v="isolated_dwelling" />
		<tag k="ssr:stedsnr" v="194709" />
	</node>
	<node id="-84372" lat="62.9770194435" lon="8.77276666705">
		<tag k="name" v="Ranesbakken" />
		<tag k="place" v="farm" />
		<tag k="ssr:stedsnr" v="60515" />
	</node>
	<node id="-84371" lat="63.0195611097" lon="9.05820000634">
		<tag k="name" v="Almlia bustadfelt" />
		<tag k="place" v="quarter" />
		<tag k="ssr:stedsnr" v="60178" />
	</node>
	<node id="-84370" lat="62.8089118803" lon="8.73389358241">
		<tag k="name" v="Flathauan bustadfelt" />
		<tag k="place" v="quarter" />
		<tag k="ssr:stedsnr" v="60175" />
	</node>
	<node id="-84369" lat="62.9054444436" lon="8.55030000348">
		<tag k="name" v="Røen" />
		<tag k="place" v="farm" />
		<tag k="ssr:stedsnr" v="57666" />
	</node>
	<node id="-82320" lat="62.9815055591" lon="8.69629723108">
		<tag k="name" v="Syltbakken bustadfelt" />
		<tag k="place" v="quarter" />
		<tag k="ssr:stedsnr" v="278941" />
	</node>
	<node id="-84366" lat="62.9908527782" lon="8.65483332728">
		<tag k="name" v="Naustbakkan" />
		<tag k="place" v="farm" />
		<tag k="ssr:stedsnr" v="49700" />
	</node>
	<node id="-82317" lat="62.9850833342" lon="8.55787222503">
		<tag k="name" v="Skiftet" />
		<tag k="place" v="farm" />
		<tag k="ssr:stedsnr" v="278930" />
	</node>
	<node id="-82316" lat="62.9728916694" lon="8.52354165941">
		<tag k="name" v="Lyngmo" />
		<tag k="place" v="farm" />
		<tag k="ssr:stedsnr" v="278927" />
	</node>
	<node id="-82315" lat="62.9830728294" lon="8.47457883691">
		<tag k="fixme" v="consider place=hamlet" />
		<tag k="name" v="Hamnes" />
		<tag k="place" v="farm" />
		<tag k="ssr:stedsnr" v="278920" />
	</node>
	<node id="-82314" lat="63.0333027796" lon="8.52959722114">
		<tag k="name" v="Navarhaugen" />
		<tag k="place" v="isolated_dwelling" />
		<tag k="ssr:stedsnr" v="278918" />
	</node>
	<node id="-82327" lat="62.9918423412" lon="8.8855280577">
		<tag k="fixme" v="consider place=hamlet" />
		<tag k="name" v="Mauset" />
		<tag k="place" v="farm" />
		<tag k="ssr:stedsnr" v="194423" />
	</node>
	<node id="-84360" lat="62.9826527803" lon="8.64912222251">
		<tag k="name" v="Syltøran" />
		<tag k="place" v="quarter" />
		<tag k="ssr:stedsnr" v="35941" />
	</node>
	<node id="-82311" lat="63.0670750017" lon="8.76728611918">
		<tag k="name" v="Bakken" />
		<tag k="place" v="farm" />
		<tag k="ssr:stedsnr" v="278878" />
	</node>
	<node id="-84358" lat="62.995944446" lon="8.67925278223">
		<tag k="name" v="Rønningen" />
		<tag k="place" v="farm" />
		<tag k="ssr:stedsnr" v="35929" />
	</node>
	<node id="-84356" lat="62.9125777795" lon="8.55489166527">
		<tag k="historic" v="shieling" />
		<tag k="name" v="Røsetra" />
		<tag k="place" v="locality" />
		<tag k="ssr:stedsnr" v="35909" />
	</node>
	<node id="-82306" lat="62.9250361131" lon="8.455550007">
		<tag k="name" v="Årvak" />
		<tag k="place" v="farm" />
		<tag k="ssr:stedsnr" v="278836" />
	</node>
	<node id="-84353" lat="63.0351388851" lon="9.09701387918">
		<tag k="name" v="Øver Dalsegga" />
		<tag k="place" v="farm" />
		<tag k="ssr:stedsnr" v="35864" />
	</node>
	<node id="-84352" lat="63.0213638932" lon="8.34944443535">
		<tag k="name" v="Solbakken" />
		<tag k="place" v="farm" />
		<tag k="ssr:stedsnr" v="35856" />
	</node>
	<node id="-84351" lat="62.9167249964" lon="8.46163056269">
		<tag k="name" v="Stangvik prestegard" />
		<tag k="place" v="farm" />
		<tag k="ssr:stedsnr" v="35851" />
	</node>
	<node id="-84350" lat="62.8950111134" lon="8.55665278639">
		<tag k="name" v="Øvrebø" />
		<tag k="place" v="farm" />
		<tag k="ssr:stedsnr" v="35850" />
	</node>
	<node id="-82325" lat="62.885849881" lon="8.7825494297">
		<tag k="name" v="Trettsetra" />
		<tag k="place" v="locality" />
		<tag k="ssr:stedsnr" v="194005" />
	</node>
	<node id="-82299" lat="62.9962888934" lon="8.34300834193">
		<tag k="name" v="Nedre Bøsetra" />
		<tag k="place" v="locality" />
		<tag k="ssr:stedsnr" v="278701" />
	</node>
	<node id="-82324" lat="62.9215286852" lon="9.009198072">
		<tag k="fixme" v="consider tourism=alpine_hut or tourism=chalet" />
		<tag k="name" v="Vindølbu" />
		<tag k="ssr:stedsnr" v="282433" />
		<tag k="tourism" v="wilderness_hut" />
	</node>
	<node id="-84338" lat="62.9507638891" lon="8.53681110852">
		<tag k="name" v="Strengeløa" />
		<tag k="place" v="locality" />
		<tag k="ssr:stedsnr" v="35520" />
	</node>
	<node id="-82323" lat="63.0161916673" lon="9.07918888833">
		<tag k="alt_name" v="Utigard" />
		<tag k="name" v="Sande" />
		<tag k="place" v="farm" />
		<tag k="ssr:stedsnr" v="161352" />
	</node>
	<node id="-84328" lat="62.9175488471" lon="8.65295088052">
		<tag k="alt_name" v="Tretta" />
		<tag k="fixme" v="consider place=hamlet" />
		<tag k="name" v="Holten" />
		<tag k="place" v="farm" />
		<tag k="ssr:stedsnr" v="35452" />
	</node>
	<node id="-82266" lat="62.9848166689" lon="8.41490555815">
		<tag k="name" v="Gammelsetra" />
		<tag k="place" v="locality" />
		<tag k="ssr:stedsnr" v="278340" />
	</node>
	<node id="-82264" lat="63.0467250003" lon="8.56735554875">
		<tag k="name" v="Slettfjellhytta" />
		<tag k="place" v="isolated_dwelling" />
		<tag k="ssr:stedsnr" v="278318" />
	</node>
	<node id="-84296" lat="62.8582166687" lon="8.68470833691">
		<tag k="name" v="Botnløa" />
		<tag k="place" v="locality" />
		<tag k="ssr:stedsnr" v="35108" />
	</node>
	<node id="-82240" lat="62.7991" lon="8.75949722895">
		<tag k="name" v="Liatun" />
		<tag k="place" v="farm" />
		<tag k="ssr:stedsnr" v="278095" />
	</node>
	<node id="-82236" lat="62.8041611124" lon="8.74528056342">
		<tag k="name" v="Høyem" />
		<tag k="place" v="farm" />
		<tag k="ssr:stedsnr" v="278071" />
	</node>
	<node id="-82232" lat="62.9755000021" lon="8.7840555636">
		<tag k="name" v="Einmoen" />
		<tag k="place" v="farm" />
		<tag k="ssr:stedsnr" v="278034" />
	</node>
	<node id="-82312" lat="62.9918277808" lon="8.89739443851">
		<tag k="name" v="Mausetvollen" />
		<tag k="place" v="farm" />
		<tag k="ssr:stedsnr" v="278888" />
	</node>
	<node id="-84265" lat="62.9891694442" lon="8.86834999536">
		<tag k="name" v="Honnstadøyan" />
		<tag k="place" v="farm" />
		<tag k="ssr:stedsnr" v="34819" />
	</node>
	<node id="-82215" lat="63.056816668" lon="9.08947500396">
		<tag k="name" v="Gammelsetra" />
		<tag k="place" v="locality" />
		<tag k="ssr:stedsnr" v="277739" />
	</node>
	<node id="-82310" lat="62.9038916665" lon="8.57222221464">
		<tag k="name" v="Grytskoggeilen" />
		<tag k="place" v="farm" />
		<tag k="ssr:stedsnr" v="278849" />
	</node>
	<node id="-82308" lat="62.8807944433" lon="8.6139249939">
		<tag k="name" v="Slettnes indre" />
		<tag k="place" v="farm" />
		<tag k="ssr:stedsnr" v="278840" />
	</node>
	<node id="-82193" lat="62.902861112" lon="9.21179166421">
		<tag k="name" v="Ringbekkhytta" />
		<tag k="place" v="isolated_dwelling" />
		<tag k="ssr:stedsnr" v="277488" />
	</node>
	<node id="-82189" lat="62.8436250032" lon="8.68130278356">
		<tag k="name" v="Karthaugløa" />
		<tag k="place" v="locality" />
		<tag k="ssr:stedsnr" v="277436" />
	</node>
	<node id="-82174" lat="62.9044694457" lon="8.73016666251">
		<tag k="historic" v="shieling" />
		<tag k="name" v="Gardsetrin" />
		<tag k="place" v="locality" />
		<tag k="ssr:stedsnr" v="277383" />
	</node>
	<node id="-82166" lat="63.0733777772" lon="8.75328611204">
		<tag k="name" v="Storslættløa" />
		<tag k="place" v="locality" />
		<tag k="ssr:stedsnr" v="277085" />
	</node>
	<node id="-84213" lat="62.7866749988" lon="8.71363332591">
		<tag k="name" v="Øver Gammelsetra" />
		<tag k="place" v="isolated_dwelling" />
		<tag k="ssr:stedsnr" v="34266" />
	</node>
	<node id="-82158" lat="62.9272555543" lon="8.47549999446">
		<tag k="name" v="Nistusetra" />
		<tag k="place" v="locality" />
		<tag k="ssr:stedsnr" v="133717" />
	</node>
	<node id="-84349" lat="62.8860249989" lon="8.54574999979">
		<tag k="name" v="Bergset" />
		<tag k="place" v="farm" />
		<tag k="ssr:stedsnr" v="35828" />
	</node>
	<node id="-82154" lat="63.0499536098" lon="8.6866872662">
		<tag k="fixme" v="consider place=hamlet" />
		<tag k="name" v="Holten" />
		<tag k="place" v="farm" />
		<tag k="ssr:stedsnr" v="133814" />
	</node>
	<node id="-84196" lat="63.0391083996" lon="8.38984547859">
		<tag k="fixme" v="consider tourism=alpine_hut or tourism=chalet" />
		<tag k="name" v="Jutulbu" />
		<tag k="ssr:stedsnr" v="32721" />
		<tag k="tourism" v="wilderness_hut" />
	</node>
	<node id="-82147" lat="63.0805138856" lon="9.07045555367">
		<tag k="historic" v="shieling" />
		<tag k="name" v="Dalseggsetra" />
		<tag k="place" v="locality" />
		<tag k="ssr:stedsnr" v="133611" />
	</node>
	<node id="-84194" lat="62.902661111" lon="9.16626944699">
		<tag k="historic" v="shieling" />
		<tag k="name" v="Aunsetra" />
		<tag k="place" v="locality" />
		<tag k="ssr:stedsnr" v="25454" />
	</node>
	<node id="-82143" lat="63.0468055595" lon="9.04524166464">
		<tag k="historic" v="shieling" />
		<tag k="name" v="Alfstusetra" />
		<tag k="place" v="locality" />
		<tag k="ssr:stedsnr" v="267231" />
	</node>
	<node id="-82142" lat="62.9887180657" lon="8.83558916115">
		<tag k="fixme" v="consider place=hamlet" />
		<tag k="name" v="Honnstad" />
		<tag k="place" v="farm" />
		<tag k="ssr:stedsnr" v="133427" />
	</node>
	<node id="-82141" lat="62.9958333368" lon="8.94495833625">
		<tag k="name" v="Moen" />
		<tag k="place" v="farm" />
		<tag k="ssr:stedsnr" v="133417" />
	</node>
	<node id="-82140" lat="62.9944719342" lon="8.9345820194">
		<tag k="fixme" v="consider place=hamlet" />
		<tag k="name" v="Røv" />
		<tag k="place" v="farm" />
		<tag k="ssr:stedsnr" v="133414" />
	</node>
	<node id="-82138" lat="62.9946037673" lon="8.86749221942">
		<tag k="fixme" v="consider place=hamlet" />
		<tag k="name" v="Gulla" />
		<tag k="place" v="farm" />
		<tag k="ssr:stedsnr" v="133411" />
	</node>
	<node id="-82131" lat="62.9042361098" lon="8.73672777135">
		<tag k="historic" v="shieling" />
		<tag k="name" v="Kvennbøsetrin" />
		<tag k="place" v="locality" />
		<tag k="ssr:stedsnr" v="133009" />
	</node>
	<node id="-82129" lat="62.8269361069" lon="9.18725556327">
		<tag k="historic" v="shieling" />
		<tag k="name" v="Dønnynsetra" />
		<tag k="place" v="locality" />
		<tag k="ssr:stedsnr" v="267096" />
	</node>
	<node id="-84174" lat="63.0993166679" lon="8.95223610937">
		<tag k="historic" v="shieling" />
		<tag k="name" v="Kråkhaugsetra" />
		<tag k="place" v="locality" />
		<tag k="ssr:stedsnr" v="24030" />
	</node>
	<node id="-84171" lat="63.0639555513" lon="8.83433056006">
		<tag k="historic" v="shieling" />
		<tag k="name" v="Bergemssetra" />
		<tag k="place" v="locality" />
		<tag k="ssr:stedsnr" v="24166" />
	</node>
	<node id="-82122" lat="62.9911194405" lon="8.66547500904">
		<tag k="name" v="Yttervollan" />
		<tag k="place" v="farm" />
		<tag k="ssr:stedsnr" v="266346" />
	</node>
	<node id="-84168" lat="62.9926500038" lon="8.66243056518">
		<tag k="name" v="Utistua Bøvra" />
		<tag k="place" v="farm" />
		<tag k="ssr:stedsnr" v="23653" />
	</node>
	<node id="-82117" lat="62.9782111094" lon="8.66427500058">
		<tag k="name" v="Syltøran" />
		<tag k="place" v="quarter" />
		<tag k="ssr:stedsnr" v="263500" />
	</node>
	<node id="-84162" lat="62.9922420176" lon="8.671578164">
		<tag k="fixme" v="consider place=hamlet" />
		<tag k="name" v="Bøvra" />
		<tag k="place" v="farm" />
		<tag k="ssr:stedsnr" v="12861" />
	</node>
	<node id="-82113" lat="63.0087729993" lon="8.37267782253">
		<tag k="fixme" v="consider place=hamlet" />
		<tag k="name" v="Bø" />
		<tag k="place" v="farm" />
		<tag k="ssr:stedsnr" v="255892" />
	</node>
	<node id="-84159" lat="62.9471027765" lon="8.69673055034">
		<tag k="name" v="Myrholten" />
		<tag k="place" v="farm" />
		<tag k="ssr:stedsnr" v="12700" />
	</node>
	<node id="-82110" lat="63.0186636172" lon="8.49709519482">
		<tag k="fixme" v="consider place=hamlet" />
		<tag k="name" v="Åsskard" />
		<tag k="place" v="farm" />
		<tag k="ssr:stedsnr" v="255876" />
	</node>
	<node id="-84156" lat="62.9982333299" lon="8.96128889061">
		<tag k="fixme" v="consider place=hamlet" />
		<tag k="name" v="Moen" />
		<tag k="place" v="village" />
		<tag k="ssr:stedsnr" v="12658" />
	</node>
	<node id="-84155" lat="63.0567007091" lon="8.72123300579">
		<tag k="fixme" v="consider place=hamlet" />
		<tag k="name" v="Gravvollen" />
		<tag k="place" v="farm" />
		<tag k="ssr:stedsnr" v="12652" />
	</node>
	<node id="-84153" lat="62.9192472227" lon="8.47954167478">
		<tag k="name" v="Myrledet" />
		<tag k="place" v="farm" />
		<tag k="ssr:stedsnr" v="12730" />
	</node>
	<node id="-84151" lat="62.9915702365" lon="8.82443614066">
		<tag k="fixme" v="consider place=hamlet" />
		<tag k="name" v="Mogstad" />
		<tag k="place" v="farm" />
		<tag k="ssr:stedsnr" v="12473" />
	</node>
	<node id="-84150" lat="62.9858305519" lon="8.73198610381">
		<tag k="name" v="Bergheim" />
		<tag k="place" v="farm" />
		<tag k="ssr:stedsnr" v="12469" />
	</node>
	<node id="-84148" lat="62.9988922034" lon="8.48646179883">
		<tag k="fixme" v="consider place=hamlet" />
		<tag k="name" v="Snekkvika" />
		<tag k="place" v="farm" />
		<tag k="ssr:stedsnr" v="12454" />
	</node>
	<node id="-84147" lat="62.9879803945" lon="9.00065221622">
		<tag k="historic" v="shieling" />
		<tag k="name" v="Setersetra" />
		<tag k="place" v="locality" />
		<tag k="ssr:stedsnr" v="12438" />
	</node>
	<node id="-82098" lat="62.9633916659" lon="8.97178332723">
		<tag k="name" v="Holtasetra" />
		<tag k="place" v="isolated_dwelling" />
		<tag k="ssr:stedsnr" v="255443" />
	</node>
	<node id="-82097" lat="63.0021499988" lon="8.98348332997">
		<tag k="name" v="Moøyan" />
		<tag k="place" v="farm" />
		<tag k="ssr:stedsnr" v="96867" />
	</node>
	<node id="-84144" lat="62.8179766971" lon="8.68882491187">
		<tag k="fixme" v="consider place=hamlet" />
		<tag k="name" v="Hallset" />
		<tag k="place" v="farm" />
		<tag k="ssr:stedsnr" v="12415" />
	</node>
	<node id="-82095" lat="62.9803638844" lon="8.71249444076">
		<tag k="name" v="Klokkargarden" />
		<tag k="place" v="farm" />
		<tag k="ssr:stedsnr" v="96856" />
	</node>
	<node id="-84142" lat="62.889922224" lon="8.52707222852">
		<tag k="name" v="Kvanne" />
		<tag k="place" v="hamlet" />
		<tag k="ssr:stedsnr" v="12277" />
	</node>
	<node id="-84141" lat="62.8792722196" lon="8.61827499423">
		<tag k="name" v="Myra" />
		<tag k="place" v="farm" />
		<tag k="ssr:stedsnr" v="12257" />
	</node>
	<node id="-84136" lat="62.8110472231" lon="9.19468334022">
		<tag k="name" v="Løsetsetra" />
		<tag k="place" v="isolated_dwelling" />
		<tag k="ssr:stedsnr" v="12082" />
	</node>
	<node id="-82087" lat="63.0137861122" lon="8.47415554601">
		<tag k="name" v="Nesset" />
		<tag k="place" v="isolated_dwelling" />
		<tag k="ssr:stedsnr" v="96774" />
	</node>
	<node id="-82079" lat="62.9332884186" lon="8.71744948314">
		<tag k="fixme" v="consider place=hamlet" />
		<tag k="name" v="Holten" />
		<tag k="place" v="farm" />
		<tag k="ssr:stedsnr" v="96372" />
	</node>
	<node id="-84126" lat="62.8271261055" lon="9.18615539467">
		<tag k="name" v="Fuglsøysetra" />
		<tag k="place" v="locality" />
		<tag k="ssr:stedsnr" v="12132" />
	</node>
	<node id="-84109" lat="62.9137000042" lon="8.64852222137">
		<tag k="fixme" v="consider place=hamlet" />
		<tag k="name" v="Lia" />
		<tag k="place" v="farm" />
		<tag k="ssr:stedsnr" v="217362" />
	</node>
	<node id="-84065" lat="62.9820777769" lon="8.69881944684">
		<tag k="name" v="Syltbakken" />
		<tag k="place" v="farm" />
		<tag k="ssr:stedsnr" v="933955" />
	</node>
	<node id="-84064" lat="62.9844194416" lon="8.69480000568">
		<tag k="name" v="Stuevold" />
		<tag k="place" v="farm" />
		<tag k="ssr:stedsnr" v="933954" />
	</node>
	<node id="-84062" lat="62.9829944466" lon="8.72611388044">
		<tag k="name" v="Øvre Buhagan bustadfelt" />
		<tag k="place" v="quarter" />
		<tag k="ssr:stedsnr" v="933950" />
	</node>
	<node id="-84061" lat="62.9911666692" lon="8.61250277472">
		<tag k="name" v="Utigard Glærem" />
		<tag k="place" v="farm" />
		<tag k="ssr:stedsnr" v="933455" />
	</node>
	<node id="-84060" lat="63.1091096264" lon="8.94787100123">
		<tag k="historic" v="shieling" />
		<tag k="name" v="Grytbakksetra" />
		<tag k="place" v="locality" />
		<tag k="ssr:stedsnr" v="923724" />
	</node>
	<node id="-82010" lat="63.0427400492" lon="8.65443609819">
		<tag k="fixme" v="consider place=hamlet" />
		<tag k="name" v="Seterbøen" />
		<tag k="place" v="farm" />
		<tag k="ssr:stedsnr" v="254821" />
	</node>
	<node id="-82008" lat="62.934102778" lon="8.48727778743">
		<tag k="name" v="Glenna" />
		<tag k="place" v="isolated_dwelling" />
		<tag k="ssr:stedsnr" v="254695" />
	</node>
	<node id="-82007" lat="62.9739498379" lon="8.40105152073">
		<tag k="fixme" v="consider place=hamlet" />
		<tag k="name" v="Flesa" />
		<tag k="place" v="farm" />
		<tag k="ssr:stedsnr" v="254637" />
	</node>
	<node id="-82005" lat="62.9052847819" lon="8.61406277494">
		<tag k="fixme" v="consider place=hamlet" />
		<tag k="name" v="Gjerstad" />
		<tag k="place" v="farm" />
		<tag k="ssr:stedsnr" v="254283" />
	</node>
	<node id="-84051" lat="62.9747638919" lon="8.50222500173">
		<tag k="name" v="Gjøristuløa" />
		<tag k="place" v="locality" />
		<tag k="ssr:stedsnr" v="217298" />
	</node>
	<node id="-82002" lat="62.9082166632" lon="8.8334222145">
		<tag k="fixme" v="multiple name tags, choose one and add the other to alt_name" />
		<tag k="historic" v="shieling" />
		<tag k="name" v="Mosetra;Østbøen" />
		<tag k="place" v="locality" />
		<tag k="ssr:stedsnr" v="85065" />
	</node>
	<node id="-84047" lat="63.0458916689" lon="8.59922777862">
		<tag k="name" v="Gammelsetra" />
		<tag k="place" v="locality" />
		<tag k="ssr:stedsnr" v="217268" />
	</node>
	<node id="-81997" lat="62.991069448" lon="8.71055554593">
		<tag k="name" v="Nyhusan" />
		<tag k="place" v="farm" />
		<tag k="ssr:stedsnr" v="83071" />
	</node>
	<node id="-81996" lat="63.0509325805" lon="8.44307154003">
		<tag k="fixme" v="consider place=hamlet" />
		<tag k="name" v="Sølå" />
		<tag k="place" v="farm" />
		<tag k="ssr:stedsnr" v="73820" />
	</node>
	<node id="-81992" lat="63.0739083307" lon="8.81183333796">
		<tag k="name" v="Furuhaugen" />
		<tag k="place" v="farm" />
		<tag k="ssr:stedsnr" v="73736" />
	</node>
	<node id="-81981" lat="62.9151805519" lon="8.6519611155">
		<tag k="name" v="Austre Lia" />
		<tag k="place" v="farm" />
		<tag k="ssr:stedsnr" v="72722" />
	</node>
	<node id="-81980" lat="62.9254055516" lon="8.45838333771">
		<tag k="name" v="Røslia" />
		<tag k="place" v="farm" />
		<tag k="ssr:stedsnr" v="72701" />
	</node>
	<node id="-81977" lat="62.990116665" lon="8.63658611881">
		<tag k="fixme" v="consider place=suburb, village or hamlet" />
		<tag k="name" v="Glærem" />
		<tag k="place" v="quarter" />
		<tag k="ssr:stedsnr" v="52899" />
	</node>
	<node id="-81976" lat="63.0217361147" lon="8.97843889395">
		<tag k="fixme" v="consider tourism=alpine_hut or tourism=chalet" />
		<tag k="name" v="Hermannhytta" />
		<tag k="ssr:stedsnr" v="237000" />
		<tag k="tourism" v="wilderness_hut" />
	</node>
	<node id="-84022" lat="62.9664416697" lon="8.75798889322">
		<tag k="historic" v="shieling" />
		<tag k="name" v="Gammelsetra" />
		<tag k="place" v="locality" />
		<tag k="ssr:stedsnr" v="885906" />
	</node>
	<node id="-81964" lat="63.0716000031" lon="8.70564722596">
		<tag k="name" v="Hallarløa" />
		<tag k="place" v="locality" />
		<tag k="ssr:stedsnr" v="34119" />
	</node>
	<node id="-84010" lat="62.8958805587" lon="8.55872222654">
		<tag k="name" v="Saghaugen" />
		<tag k="place" v="farm" />
		<tag k="ssr:stedsnr" v="885820" />
	</node>
	<node id="-84009" lat="62.9343750007" lon="8.43540832424">
		<tag k="name" v="Nestua" />
		<tag k="place" v="farm" />
		<tag k="ssr:stedsnr" v="885807" />
	</node>
	<node id="-81960" lat="63.0462277767" lon="8.73671388751">
		<tag k="historic" v="shieling" />
		<tag k="name" v="Bjonvollen" />
		<tag k="place" v="locality" />
		<tag k="ssr:stedsnr" v="23238" />
	</node>
	<node id="-81956" lat="62.9343637922" lon="8.43337195163">
		<tag k="fixme" v="consider place=hamlet" />
		<tag k="name" v="Brøskja" />
		<tag k="place" v="farm" />
		<tag k="ssr:stedsnr" v="12708" />
	</node>
	<node id="-81954" lat="63.0166656234" lon="8.54745013828">
		<tag k="fixme" v="consider place=hamlet" />
		<tag k="name" v="Hakstad" />
		<tag k="place" v="farm" />
		<tag k="ssr:stedsnr" v="12837" />
	</node>
	<node id="-81953" lat="63.0107250029" lon="8.52789999757">
		<tag k="name" v="Sjøheim" />
		<tag k="place" v="farm" />
		<tag k="ssr:stedsnr" v="12835" />
	</node>
	<node id="-81951" lat="63.0346333349" lon="8.36031110824">
		<tag k="historic" v="shieling" />
		<tag k="name" v="Skrøvsetsetra" />
		<tag k="place" v="locality" />
		<tag k="ssr:stedsnr" v="12828" />
	</node>
	<node id="-81949" lat="63.0512839319" lon="8.63953763342">
		<tag k="name" v="Seterbøsetrin" />
		<tag k="place" v="locality" />
		<tag k="ssr:stedsnr" v="12815" />
	</node>
	<node id="-81945" lat="63.0661555554" lon="8.72905276951">
		<tag k="historic" v="shieling" />
		<tag k="name" v="Flottasetra" />
		<tag k="place" v="locality" />
		<tag k="ssr:stedsnr" v="12644" />
	</node>
	<node id="-81937" lat="62.9354138905" lon="8.43390556205">
		<tag k="name" v="Oppistua" />
		<tag k="place" v="farm" />
		<tag k="ssr:stedsnr" v="217801" />
	</node>
	<node id="-81936" lat="62.8861944431" lon="8.59578055311">
		<tag k="name" v="Sjøtrøa" />
		<tag k="place" v="farm" />
		<tag k="ssr:stedsnr" v="217795" />
	</node>
	<node id="-81931" lat="63.0259861123" lon="8.40085277517">
		<tag k="name" v="Bytengen" />
		<tag k="place" v="farm" />
		<tag k="ssr:stedsnr" v="217757" />
	</node>
	<node id="-81928" lat="62.976066671" lon="8.6987166576">
		<tag k="name" v="Nistua" />
		<tag k="place" v="farm" />
		<tag k="ssr:stedsnr" v="217883" />
	</node>
	<node id="-81927" lat="62.9773888874" lon="8.70218056265">
		<tag k="name" v="Øye" />
		<tag k="place" v="hamlet" />
		<tag k="ssr:stedsnr" v="217882" />
	</node>
	<node id="-81921" lat="62.9911472237" lon="8.92542500976">
		<tag k="name" v="Høgmo" />
		<tag k="place" v="farm" />
		<tag k="ssr:stedsnr" v="217850" />
	</node>
</osm>
