<?xml version="1.0" encoding="UTF-8"?>
<osm generator="osmapis" version="0.6">
	<node id="-10233" lat="62.7834333299" lon="8.85135554786">
		<tag k="name" v="Innerdalsmerket" />
		<tag k="place" v="locality" />
		<tag k="ssr:stedsnr" v="145005" />
	</node>
	<node id="-12009" lat="62.9807805596" lon="8.7182555471">
		<tag k="amenity" v="place_of_worship" />
		<tag k="denomination" v="lutheran" />
		<tag k="name" v="Øye" />
		<tag k="religion" v="christian" />
		<tag k="ssr:stedsnr" v="862453" />
	</node>
	<node id="-8691" lat="62.9168305551" lon="8.46017500658">
		<tag k="alt_name" v="Stangvik kyrkje" />
		<tag k="amenity" v="place_of_worship" />
		<tag k="denomination" v="lutheran" />
		<tag k="name" v="Stangvik" />
		<tag k="religion" v="christian" />
		<tag k="ssr:stedsnr" v="557706" />
	</node>
	<node id="-8048" lat="62.9985333301" lon="8.99575555044">
		<tag k="amenity" v="community_centre" />
		<tag k="name" v="Sagatun" />
		<tag k="ssr:stedsnr" v="217202" />
	</node>
	<node id="-10345" lat="62.999083335" lon="8.68203334276">
		<tag k="name" v="Utsikta" />
		<tag k="ssr:stedsnr" v="156345" />
		<tag k="tourism" v="viewpoint" />
	</node>
	<node id="-11620" lat="62.976049997" lon="8.77195833576">
		<tag k="amenity" v="place_of_worship" />
		<tag k="denomination" v="lutheran" />
		<tag k="name" v="Ranes" />
		<tag k="religion" v="christian" />
		<tag k="ssr:stedsnr" v="740432" />
	</node>
	<node id="-8675" lat="62.8430166672" lon="9.237000003">
		<tag k="name" v="Uriasen" />
		<tag k="place" v="locality" />
		<tag k="ssr:stedsnr" v="692217" />
	</node>
	<node id="-8285" lat="62.8385694432" lon="8.69605832632">
		<tag k="name" v="Innerløa" />
		<tag k="place" v="locality" />
		<tag k="ssr:stedsnr" v="460147" />
	</node>
	<node id="-11852" lat="62.9879137878" lon="8.67735448728">
		<tag k="amenity" v="community_centre" />
		<tag k="name" v="Bøvrasmoen" />
		<tag k="ssr:stedsnr" v="810611" />
	</node>
	<node id="-7624" lat="63.0716000031" lon="8.70564722596">
		<tag k="name" v="Hallarløa" />
		<tag k="place" v="locality" />
		<tag k="ssr:stedsnr" v="34119" />
	</node>
	<node id="-9925" lat="63.0083833374" lon="8.86797500589">
		<tag k="name" v="Kornslættet" />
		<tag k="place" v="locality" />
		<tag k="ssr:stedsnr" v="34727" />
	</node>
	<node id="-9412" lat="63.0788277804" lon="8.79543055333">
		<tag k="name" v="Hesthøyløa" />
		<tag k="place" v="locality" />
		<tag k="ssr:stedsnr" v="216951" />
	</node>
	<node id="-8638" lat="62.8838166708" lon="8.64061665723">
		<tag k="name" v="Stormyrløa" />
		<tag k="place" v="locality" />
		<tag k="ssr:stedsnr" v="520413" />
	</node>
	<node id="-11064" lat="63.0755527741" lon="8.79926389042">
		<tag k="name" v="Solliløa" />
		<tag k="place" v="locality" />
		<tag k="ssr:stedsnr" v="520221" />
	</node>
	<node id="-8503" lat="62.8139027803" lon="8.71636944236">
		<tag k="alt_name" v="Todalen" />
		<tag k="amenity" v="place_of_worship" />
		<tag k="denomination" v="lutheran" />
		<tag k="name" v="Todalen kyrkje" />
		<tag k="religion" v="christian" />
		<tag k="ssr:stedsnr" v="505216" />
	</node>
	<node id="-7850" lat="62.8436250032" lon="8.68130278356">
		<tag k="name" v="Karthaugløa" />
		<tag k="place" v="locality" />
		<tag k="ssr:stedsnr" v="277436" />
	</node>
	<node id="-8489" lat="63.055033335" lon="8.71455833234">
		<tag k="amenity" v="community_centre" />
		<tag k="name" v="Bæverhall" />
		<tag k="ssr:stedsnr" v="498957" />
	</node>
	<node id="-11814" lat="62.8991138874" lon="8.5787277845">
		<tag k="amenity" v="community_centre" />
		<tag k="name" v="Myrvang" />
		<tag k="ssr:stedsnr" v="801269" />
	</node>
	<node id="-10531" lat="62.9367666623" lon="8.8036611084">
		<tag k="name" v="Sagdammen" />
		<tag k="place" v="locality" />
		<tag k="ssr:stedsnr" v="216789" />
	</node>
	<node id="-7714" lat="62.780994446" lon="8.89248889292">
		<tag k="name" v="Skrøåløa" />
		<tag k="place" v="locality" />
		<tag k="ssr:stedsnr" v="96054" />
	</node>
	<node id="-12064" lat="63.039828221" lon="8.40511603841">
		<tag k="name" v="Geitlia" />
		<tag k="place" v="locality" />
		<tag k="ssr:stedsnr" v="982296" />
	</node>
	<node id="-10780" lat="63.0000861124" lon="8.9661361186">
		<tag k="amenity" v="place_of_worship" />
		<tag k="denomination" v="lutheran" />
		<tag k="name" v="Mo" />
		<tag k="religion" v="christian" />
		<tag k="ssr:stedsnr" v="376685" />
	</node>
	<node id="-7817" lat="63.0168583334" lon="8.49753887968">
		<tag k="alt_name" v="Åsskard kyrkje" />
		<tag k="amenity" v="place_of_worship" />
		<tag k="denomination" v="lutheran" />
		<tag k="name" v="Åsskard" />
		<tag k="religion" v="christian" />
		<tag k="ssr:stedsnr" v="133832" />
	</node>
</osm>
