<?xml version="1.0" encoding="UTF-8"?>
<osm version="0.6" generator="osmapis">
	<node lat="62.95058116144292" lon="8.433329961436925" id="-13081">
		<tag k="fixme" v="consider boundary=protected_area and relevant protect_class if not nature reserve" />
		<tag k="leisure" v="nature_reserve" />
		<tag k="name" v="Brøskjahagan naturreservat" />
		<tag k="ssr:stedsnr" v="1083369" />
	</node>
	<node lat="62.94016157847949" lon="8.746787583199419" id="-13082">
		<tag k="fixme" v="consider boundary=protected_area and relevant protect_class if not nature reserve" />
		<tag k="leisure" v="nature_reserve" />
		<tag k="name" v="Almbekken naturreservat" />
		<tag k="ssr:stedsnr" v="1083373" />
	</node>
	<node lat="62.93378487655959" lon="8.439507814028472" id="-13083">
		<tag k="fixme" v="consider boundary=protected_area and relevant protect_class if not nature reserve" />
		<tag k="leisure" v="nature_reserve" />
		<tag k="name" v="Brøskjalia naturreservat" />
		<tag k="ssr:stedsnr" v="1083460" />
	</node>
	<node lat="63.01355917122051" lon="9.126991950274647" id="-13084">
		<tag k="fixme" v="consider boundary=protected_area and relevant protect_class if not nature reserve" />
		<tag k="leisure" v="nature_reserve" />
		<tag k="name" v="Skjoralia naturreservat" />
		<tag k="ssr:stedsnr" v="1083934" />
	</node>
</osm>
