<?xml version="1.0" encoding="UTF-8"?>
<<<<<<< HEAD
<osm version="0.6" generator="osmapis">
	<node lat="62.89086531084299" lon="8.781540236561138" id="-1212">
		<tag k="historic" v="shieling" />
		<tag k="name" v="Vollasetra" />
		<tag k="old_name" v="Gartsætra;Gartsetra" />
		<tag k="place" v="locality" />
		<tag k="ssr:stedsnr" v="12007" />
	</node>
	<node lat="63.03823888465597" lon="8.942413896177369" id="-1244">
		<tag k="landuse" v="meadow" />
		<tag k="name" v="Kråkslættet" />
		<tag k="ssr:stedsnr" v="24031" />
	</node>
	<node lat="62.976158329085365" lon="8.990747222550201" id="-1248">
		<tag k="name" v="Bollskavlen" />
		<tag k="place" v="locality" />
		<tag k="ssr:stedsnr" v="24191" />
	</node>
	<node lat="63.034469444600234" lon="8.944755557565646" id="-1250">
		<tag k="name" v="Solmyran" />
		<tag k="natural" v="wetland" />
		<tag k="ssr:stedsnr" v="24278" />
	</node>
	<node lat="62.90041944394213" lon="9.004330564382832" id="-1258">
		<tag k="name" v="Breiskarmyra" />
		<tag k="natural" v="wetland" />
		<tag k="ssr:stedsnr" v="34309" />
	</node>
	<node lat="63.02966111337795" lon="9.030769436393816" id="-1268">
		<tag k="name" v="Kaldmyran" />
		<tag k="natural" v="wetland" />
		<tag k="ssr:stedsnr" v="34701" />
	</node>
	<node lat="62.786211113115314" lon="8.709127775459375" id="-1285">
		<tag k="name" v="Bustmyra" />
		<tag k="natural" v="wetland" />
		<tag k="ssr:stedsnr" v="35102" />
	</node>
	<node lat="62.91096666776689" lon="8.653899994535356" id="-1291">
		<tag k="name" v="Engjan" />
		<tag k="natural" v="wetland" />
		<tag k="ssr:stedsnr" v="35118" />
	</node>
	<node lat="63.0299000031782" lon="8.41748332649043" id="-1300">
		<tag k="name" v="Kvilesteinen" />
		<tag k="natural" v="stone" />
		<tag k="ssr:stedsnr" v="35417" />
	</node>
	<node lat="62.799111107272545" lon="8.761027783980095" id="-1341">
		<tag k="name" v="Springarbrekkvollen" />
		<tag k="place" v="locality" />
		<tag k="ssr:stedsnr" v="95227" />
	</node>
	<node lat="62.99896666923575" lon="8.646047226590102" id="-1345">
		<tag k="name" v="Maslættet" />
		<tag k="natural" v="wetland" />
		<tag k="ssr:stedsnr" v="95321" />
	</node>
	<node lat="63.018133330260575" lon="8.94374443906748" id="-1347">
		<tag k="name" v="Ellingslættet" />
		<tag k="natural" v="wetland" />
		<tag k="ssr:stedsnr" v="95480" />
	</node>
	<node lat="63.011863888320235" lon="9.014183323484861" id="-1353">
		<tag k="name" v="Omkløvmyra" />
		<tag k="natural" v="wetland" />
		<tag k="ssr:stedsnr" v="95508" />
	</node>
	<node lat="63.045172219756665" lon="9.062491663839" id="-1356">
		<tag k="name" v="Honnmyran" />
		<tag k="natural" v="wetland" />
		<tag k="ssr:stedsnr" v="95561" />
	</node>
	<node lat="63.009288888391374" lon="9.072041658832173" id="-1365">
		<tag k="name" v="Berrmyran" />
		<tag k="natural" v="wetland" />
		<tag k="ssr:stedsnr" v="95670" />
	</node>
	<node lat="62.982638888447354" lon="8.857341658689334" id="-1367">
		<tag k="name" v="Storførumyra" />
		<tag k="natural" v="wetland" />
		<tag k="ssr:stedsnr" v="95862" />
	</node>
	<node lat="62.990802774093375" lon="8.782088894258177" id="-1368">
		<tag k="name" v="Bjønnamyra" />
		<tag k="natural" v="wetland" />
		<tag k="ssr:stedsnr" v="95867" />
	</node>
	<node lat="63.02543332906431" lon="8.766472227939962" id="-1374">
		<tag k="historic" v="shieling" />
		<tag k="name" v="Øyatrøsetra" />
		<tag k="place" v="locality" />
		<tag k="ssr:stedsnr" v="95767" />
	</node>
	<node lat="63.001411111988645" lon="8.939133333648613" id="-1377">
		<tag k="name" v="Porsmyran" />
		<tag k="natural" v="wetland" />
		<tag k="ssr:stedsnr" v="95912" />
	</node>
	<node lat="62.7922694424878" lon="8.804216676463765" id="-1384">
		<tag k="name" v="Skrøå" />
		<tag k="natural" v="wetland" />
		<tag k="ssr:stedsnr" v="96061" />
	</node>
	<node lat="62.93259166227056" lon="8.743597216776145" id="-1405">
		<tag k="name" v="Storøya" />
		<tag k="place" v="locality" />
		<tag k="ssr:stedsnr" v="96375" />
	</node>
	<node lat="62.92654444032668" lon="8.70500277418189" id="-1406">
		<tag k="name" v="Storøya" />
		<tag k="place" v="locality" />
		<tag k="ssr:stedsnr" v="96378" />
	</node>
	<node lat="62.95306110739623" lon="8.582361120990221" id="-1408">
		<tag k="name" v="Tjønnmyra" />
		<tag k="natural" v="wetland" />
		<tag k="ssr:stedsnr" v="96465" />
	</node>
	<node lat="63.05424722212635" lon="8.440841665984179" id="-1412">
		<tag k="name" v="Dikene" />
		<tag k="natural" v="wetland" />
		<tag k="ssr:stedsnr" v="96764" />
	</node>
	<node lat="63.01884166941227" lon="8.54747778531646" id="-1414">
		<tag k="name" v="Stormyra" />
		<tag k="natural" v="wetland" />
		<tag k="ssr:stedsnr" v="96805" />
	</node>
	<node lat="62.920830555134046" lon="8.468430564984471" id="-1421">
		<tag k="name" v="Steinbakkan" />
		<tag k="place" v="locality" />
		<tag k="ssr:stedsnr" v="102202" />
	</node>
	<node lat="62.94168889248261" lon="9.059916669429878" id="-1455">
		<tag k="name" v="Kringlåtfonna" />
		<tag k="natural" v="glacier" />
		<tag k="ssr:stedsnr" v="255047" />
	</node>
	<node lat="62.81246944549531" lon="8.79435833190152" id="-1478">
		<tag k="name" v="Finnskjeggura" />
		<tag k="natural" v="scree" />
		<tag k="ssr:stedsnr" v="145152" />
	</node>
	<node lat="62.77159444058244" lon="8.895061116684355" id="-1492">
		<tag k="name" v="Dikekloppen" />
		<tag k="natural" v="wetland" />
		<tag k="ssr:stedsnr" v="155349" />
	</node>
	<node lat="62.772802778875004" lon="8.892600005912634" id="-1494">
		<tag k="name" v="Kringlåtøya" />
		<tag k="natural" v="wetland" />
		<tag k="ssr:stedsnr" v="155350" />
	</node>
	<node lat="63.00390277339385" lon="8.66016110315856" id="-1495">
		<tag k="name" v="Fuggelmyra" />
		<tag k="natural" v="wetland" />
		<tag k="ssr:stedsnr" v="155378" />
	</node>
	<node lat="63.02753888915866" lon="8.679030563658156" id="-1498">
		<tag k="name" v="Tjønnmyran" />
		<tag k="natural" v="wetland" />
		<tag k="ssr:stedsnr" v="156103" />
	</node>
	<node lat="62.8466666667306" lon="8.66510276881908" id="-1501">
		<tag k="name" v="Myran" />
		<tag k="natural" v="wetland" />
		<tag k="ssr:stedsnr" v="156111" />
	</node>
	<node lat="63.01458055269231" lon="9.07068054628268" id="-1502">
		<tag k="name" v="Litltrøa" />
		<tag k="place" v="locality" />
		<tag k="ssr:stedsnr" v="156112" />
	</node>
	<node lat="63.01199166418356" lon="8.646811116843168" id="-1518">
		<tag k="name" v="Frelekmyran" />
		<tag k="natural" v="wetland" />
		<tag k="ssr:stedsnr" v="156353" />
	</node>
	<node lat="62.90384999605551" lon="8.749163882762529" id="-1529">
		<tag k="name" v="Staverøya" />
		<tag k="natural" v="wetland" />
		<tag k="ssr:stedsnr" v="156403" />
	</node>
	<node lat="62.9080861121557" lon="8.475008339305186" id="-1532">
		<tag k="name" v="Oramyran" />
		<tag k="natural" v="wetland" />
		<tag k="ssr:stedsnr" v="156417" />
	</node>
	<node lat="63.029349995815" lon="8.464416671782855" id="-1538">
		<tag k="name" v="Storløa" />
		<tag k="natural" v="stone" />
		<tag k="ssr:stedsnr" v="156754" />
	</node>
	<node lat="62.97351388622524" lon="8.720325005923032" id="-1544">
		<tag k="name" v="Svartvatnet" />
		<tag k="natural" v="wetland" />
		<tag k="ssr:stedsnr" v="156924" />
	</node>
	<node lat="62.937888890815096" lon="8.993163888204714" id="-1567">
		<tag k="landuse" v="meadow" />
		<tag k="name" v="Litlslættet" />
		<tag k="ssr:stedsnr" v="267044" />
	</node>
	<node lat="62.94298889325131" lon="8.734588893392838" id="-1569">
		<tag k="name" v="Dammyra" />
		<tag k="natural" v="wetland" />
		<tag k="ssr:stedsnr" v="267077" />
	</node>
	<node lat="62.9009583316486" lon="8.759433334206244" id="-1598">
		<tag k="name" v="Bjønnteigen" />
		<tag k="place" v="locality" />
		<tag k="ssr:stedsnr" v="216382" />
	</node>
	<node lat="62.88169722375253" lon="8.652244437433005" id="-1599">
		<tag k="name" v="Verendløa" />
		<tag k="natural" v="wetland" />
		<tag k="ssr:stedsnr" v="216388" />
	</node>
	<node lat="63.004244444051345" lon="8.843352781506436" id="-1623">
		<tag k="name" v="Seterøya" />
		<tag k="natural" v="wetland" />
		<tag k="ssr:stedsnr" v="217025" />
	</node>
	<node lat="62.98223611062374" lon="8.387969442870423" id="-1630">
		<tag k="name" v="Vabakmyran" />
		<tag k="natural" v="wetland" />
		<tag k="ssr:stedsnr" v="217312" />
	</node>
	<node lat="62.91002778017754" lon="9.016630563336891" id="-1695">
		<tag k="landuse" v="meadow" />
		<tag k="name" v="Kjerringenga" />
		<tag k="ssr:stedsnr" v="267010" />
	</node>
	<node lat="63.03925833304671" lon="8.800413889125082" id="-1697">
		<tag k="landuse" v="meadow" />
		<tag k="name" v="Skarpslættet" />
		<tag k="ssr:stedsnr" v="267093" />
	</node>
	<node lat="62.91890000155062" lon="8.496766665556088" id="-1709">
		<tag k="historic" v="shieling" />
		<tag k="name" v="Prestgardssetra" />
		<tag k="place" v="locality" />
		<tag k="ssr:stedsnr" v="459099" />
	</node>
	<node lat="62.79958333760372" lon="8.797158336967275" id="-1718">
		<tag k="name" v="Skrøåsvaet" />
		<tag k="place" v="locality" />
		<tag k="ssr:stedsnr" v="459297" />
	</node>
	<node lat="63.00329722080171" lon="8.849852768077827" id="-1758">
		<tag k="name" v="Setermyra" />
		<tag k="natural" v="wetland" />
		<tag k="ssr:stedsnr" v="459744" />
	</node>
	<node lat="62.9265111091806" lon="8.649463881612201" id="-1774">
		<tag k="historic" v="shieling" />
		<tag k="name" v="Hyllbakksetra" />
		<tag k="place" v="locality" />
		<tag k="ssr:stedsnr" v="277402" />
	</node>
	<node lat="62.83679722176676" lon="8.660688886081575" id="-1777">
		<tag k="name" v="Markussteinen" />
		<tag k="natural" v="stone" />
		<tag k="ssr:stedsnr" v="277419" />
	</node>
	<node lat="63.013474997478276" lon="8.924811113211904" id="-1790">
		<tag k="name" v="Jonslættet" />
		<tag k="natural" v="wetland" />
		<tag k="ssr:stedsnr" v="277516" />
	</node>
	<node lat="62.99975000387616" lon="8.937613880462546" id="-1791">
		<tag k="name" v="Sverkestykket" />
		<tag k="place" v="locality" />
		<tag k="ssr:stedsnr" v="277521" />
	</node>
	<node lat="63.032497218664275" lon="9.05955277099363" id="-1794">
		<tag k="name" v="Kaldmyran" />
		<tag k="natural" v="wetland" />
		<tag k="ssr:stedsnr" v="277731" />
	</node>
	<node lat="63.1040638891211" lon="8.95389167114314" id="-1796">
		<tag k="name" v="Rørslættøya" />
		<tag k="natural" v="wetland" />
		<tag k="ssr:stedsnr" v="459897" />
	</node>
	<node lat="63.006094442214625" lon="8.827197214829656" id="-1815">
		<tag k="name" v="Langmyra" />
		<tag k="natural" v="wetland" />
		<tag k="ssr:stedsnr" v="278021" />
	</node>
	<node lat="62.794349996657566" lon="8.7691027793921" id="-1818">
		<tag k="name" v="Storenga" />
		<tag k="place" v="locality" />
		<tag k="ssr:stedsnr" v="278081" />
	</node>
	<node lat="62.9989527812445" lon="8.950294452019632" id="-1821">
		<tag k="name" v="Fjellet" />
		<tag k="place" v="locality" />
		<tag k="ssr:stedsnr" v="278210" />
	</node>
	<node lat="62.81111666429548" lon="8.813583328089692" id="-1839">
		<tag k="name" v="Sanden" />
		<tag k="natural" v="wetland" />
		<tag k="ssr:stedsnr" v="460046" />
	</node>
	<node lat="63.01612221922749" lon="9.082422227559164" id="-1863">
		<tag k="name" v="Halttrøa" />
		<tag k="place" v="locality" />
		<tag k="ssr:stedsnr" v="460227" />
	</node>
	<node lat="63.00912221885675" lon="9.140333342185466" id="-1864">
		<tag k="name" v="Krokan" />
		<tag k="natural" v="wetland" />
		<tag k="ssr:stedsnr" v="460230" />
	</node>
	<node lat="62.88200555581419" lon="8.562730560416048" id="-1884">
		<tag k="name" v="Oterura" />
		<tag k="natural" v="scree" />
		<tag k="ssr:stedsnr" v="460462" />
	</node>
	<node lat="62.90171944545467" lon="8.550925007988905" id="-1916">
		<tag k="name" v="Stormyra" />
=======
<osm generator="osmapis" version="0.6">
	<node id="-88063" lat="63.0038333367" lon="8.34576667359">
		<tag k="name" v="Storholet" />
		<tag k="natural" v="wetland" />
		<tag k="ssr:stedsnr" v="702646" />
	</node>
	<node id="-90108" lat="62.7814388881" lon="8.85096944064">
		<tag k="name" v="Hardholten" />
		<tag k="natural" v="wetland" />
		<tag k="ssr:stedsnr" v="398262" />
	</node>
	<node id="-90107" lat="62.7808472191" lon="8.86535555785">
		<tag k="name" v="Storøyskogen" />
		<tag k="natural" v="wetland" />
		<tag k="ssr:stedsnr" v="398259" />
	</node>
	<node id="-88057" lat="62.9797833332" lon="8.84555278511">
		<tag k="name" v="Fuglleiken" />
		<tag k="natural" v="wetland" />
		<tag k="ssr:stedsnr" v="702865" />
	</node>
	<node id="-90101" lat="62.8013111068" lon="8.72841945213">
		<tag k="name" v="Brennmyra" />
		<tag k="natural" v="wetland" />
		<tag k="ssr:stedsnr" v="398238" />
	</node>
	<node id="-90091" lat="62.9722055596" lon="8.87045554786">
		<tag k="name" v="Raudmelen" />
		<tag k="place" v="locality" />
		<tag k="ssr:stedsnr" v="388185" />
	</node>
	<node id="-90081" lat="62.9889666624" lon="8.66535554601">
		<tag k="name" v="Stordiket" />
		<tag k="natural" v="wetland" />
		<tag k="ssr:stedsnr" v="387375" />
	</node>
	<node id="-88031" lat="62.9093916706" lon="8.46664999429">
		<tag k="name" v="Stortrøa" />
		<tag k="place" v="locality" />
		<tag k="ssr:stedsnr" v="702386" />
	</node>
	<node id="-88024" lat="63.0022916627" lon="8.73428610975">
		<tag k="name" v="Torva" />
		<tag k="natural" v="wetland" />
		<tag k="ssr:stedsnr" v="702341" />
	</node>
	<node id="-88020" lat="62.8742944456" lon="8.80098611651">
		<tag k="name" v="Trollhøttorin" />
		<tag k="natural" v="scree" />
		<tag k="ssr:stedsnr" v="702300" />
	</node>
	<node id="-88016" lat="62.797500002" lon="8.79354999068">
		<tag k="name" v="Slettskrøa" />
		<tag k="place" v="locality" />
		<tag k="ssr:stedsnr" v="702283" />
	</node>
	<node id="-88008" lat="62.8083361114" lon="8.75528611299">
		<tag k="name" v="Bjønnasletturin" />
		<tag k="natural" v="scree" />
		<tag k="ssr:stedsnr" v="702234" />
	</node>
	<node id="-88004" lat="63.024574997" lon="8.63122221452">
		<tag k="name" v="Sjølgjetlholet" />
		<tag k="natural" v="wetland" />
		<tag k="ssr:stedsnr" v="702221" />
	</node>
	<node id="-89675" lat="63.0293499958" lon="8.46441667178">
		<tag k="name" v="Storløa" />
		<tag k="natural" v="stone" />
		<tag k="ssr:stedsnr" v="156754" />
	</node>
	<node id="-87983" lat="62.8995111088" lon="8.58779167159">
		<tag k="name" v="Grønkeila" />
		<tag k="natural" v="wetland" />
		<tag k="ssr:stedsnr" v="702071" />
	</node>
	<node id="-90029" lat="62.9662888861" lon="8.85398055237">
		<tag k="name" v="Krokfonna" />
		<tag k="place" v="locality" />
		<tag k="ssr:stedsnr" v="519767" />
	</node>
	<node id="-90017" lat="63.0015499979" lon="8.63231666004">
		<tag k="name" v="Ivasmyra" />
		<tag k="natural" v="wetland" />
		<tag k="ssr:stedsnr" v="339834" />
	</node>
	<node id="-90015" lat="63.0967944436" lon="8.89164166124">
		<tag k="name" v="Gruvesteinan" />
		<tag k="natural" v="stone" />
		<tag k="ssr:stedsnr" v="338975" />
	</node>
	<node id="-87960" lat="62.9148305567" lon="8.856280553">
		<tag k="name" v="Storsteinura" />
		<tag k="natural" v="scree" />
		<tag k="ssr:stedsnr" v="692239" />
	</node>
	<node id="-90424" lat="63.0133750036" lon="9.04352500769">
		<tag k="name" v="Kjerkteigen" />
		<tag k="place" v="locality" />
		<tag k="ssr:stedsnr" v="520708" />
	</node>
	<node id="-87955" lat="63.0303694423" lon="8.7478055462">
		<tag k="landuse" v="meadow" />
		<tag k="name" v="Sagslættet" />
		<tag k="ssr:stedsnr" v="692200" />
	</node>
	<node id="-89999" lat="63.0205333335" lon="8.41908611665">
		<tag k="name" v="Langmyra" />
		<tag k="natural" v="wetland" />
		<tag k="ssr:stedsnr" v="338748" />
	</node>
	<node id="-89996" lat="63.0210388927" lon="9.03657777131">
		<tag k="name" v="Hundkammarvøttu" />
		<tag k="natural" v="wetland" />
		<tag k="ssr:stedsnr" v="338700" />
	</node>
	<node id="-89988" lat="63.0698333316" lon="9.044366667">
		<tag k="name" v="Fiskbekk-krokan" />
		<tag k="natural" v="wetland" />
		<tag k="ssr:stedsnr" v="338576" />
	</node>
	<node id="-89983" lat="63.005936113" lon="8.92484166518">
		<tag k="name" v="Litlslættet" />
		<tag k="natural" v="wetland" />
		<tag k="ssr:stedsnr" v="338491" />
	</node>
	<node id="-89981" lat="63.0005666671" lon="8.94460278155">
		<tag k="name" v="Sommarfjøstrøa" />
		<tag k="place" v="locality" />
		<tag k="ssr:stedsnr" v="338488" />
	</node>
	<node id="-87932" lat="62.9792555533" lon="8.66153611789">
		<tag k="name" v="Brattørskogen" />
		<tag k="place" v="locality" />
		<tag k="ssr:stedsnr" v="688476" />
	</node>
	<node id="-87930" lat="63.0129833347" lon="8.95607776854">
		<tag k="name" v="Fuglleiken" />
		<tag k="natural" v="wetland" />
		<tag k="ssr:stedsnr" v="520537" />
	</node>
	<node id="-89976" lat="63.0045000025" lon="9.12181666963">
		<tag k="name" v="Fjellmyran" />
		<tag k="natural" v="wetland" />
		<tag k="ssr:stedsnr" v="338470" />
	</node>
	<node id="-87923" lat="62.9579305585" lon="8.56656945318">
		<tag k="historic" v="shieling" />
		<tag k="name" v="Gammelsetra" />
		<tag k="place" v="locality" />
		<tag k="ssr:stedsnr" v="520428" />
	</node>
	<node id="-87917" lat="62.9489861093" lon="8.68024722016">
		<tag k="name" v="Grytslættet" />
		<tag k="natural" v="wetland" />
		<tag k="ssr:stedsnr" v="520403" />
	</node>
	<node id="-87913" lat="62.994158335" lon="8.79434443796">
		<tag k="name" v="Småmyran" />
		<tag k="natural" v="wetland" />
		<tag k="ssr:stedsnr" v="510303" />
	</node>
	<node id="-87909" lat="62.9341083359" lon="8.83258610236">
		<tag k="name" v="Fauskåmyran" />
		<tag k="natural" v="wetland" />
		<tag k="ssr:stedsnr" v="509146" />
	</node>
	<node id="-89954" lat="62.8830944486" lon="8.60564721243">
		<tag k="name" v="Rabbtrøa" />
		<tag k="place" v="locality" />
		<tag k="ssr:stedsnr" v="338340" />
	</node>
	<node id="-89950" lat="63.000563888" lon="8.66974721963">
		<tag k="name" v="Grovmyra" />
		<tag k="natural" v="wetland" />
		<tag k="ssr:stedsnr" v="338329" />
	</node>
	<node id="-87901" lat="63.0466638934" lon="8.84771110127">
		<tag k="landuse" v="meadow" />
		<tag k="name" v="Austerslættet" />
		<tag k="ssr:stedsnr" v="506077" />
	</node>
	<node id="-89947" lat="62.9422111092" lon="8.7137638812">
		<tag k="name" v="Angråmyra" />
		<tag k="natural" v="wetland" />
		<tag k="ssr:stedsnr" v="338319" />
	</node>
	<node id="-89946" lat="62.9393666692" lon="8.72600832349">
		<tag k="name" v="Korssteinskaret" />
		<tag k="natural" v="stone" />
		<tag k="ssr:stedsnr" v="338317" />
	</node>
	<node id="-89935" lat="63.0260611088" lon="8.4361444407">
		<tag k="name" v="Fagervollsteinen" />
		<tag k="natural" v="stone" />
		<tag k="ssr:stedsnr" v="338276" />
	</node>
	<node id="-89930" lat="62.7932249977" lon="8.78400278586">
		<tag k="name" v="Tjønnmyran" />
		<tag k="natural" v="wetland" />
		<tag k="ssr:stedsnr" v="338265" />
	</node>
	<node id="-89927" lat="63.009588888" lon="8.49769166916">
		<tag k="name" v="Kringlåtmyra" />
		<tag k="natural" v="wetland" />
		<tag k="ssr:stedsnr" v="338252" />
	</node>
	<node id="-89917" lat="62.9383611106" lon="8.77474167392">
		<tag k="name" v="Geilmyra" />
		<tag k="natural" v="wetland" />
		<tag k="ssr:stedsnr" v="338048" />
	</node>
	<node id="-89913" lat="62.9962083311" lon="8.87578332688">
		<tag k="name" v="Geilan" />
		<tag k="place" v="locality" />
		<tag k="ssr:stedsnr" v="338007" />
	</node>
	<node id="-89891" lat="62.7924333317" lon="8.68501944134">
		<tag k="historic" v="shieling" />
		<tag k="name" v="Drøppingsetra" />
		<tag k="place" v="locality" />
		<tag k="ssr:stedsnr" v="338207" />
	</node>
	<node id="-89890" lat="62.7937527777" lon="8.71458332853">
		<tag k="historic" v="shieling" />
		<tag k="name" v="Ner Gammelsetra" />
		<tag k="place" v="locality" />
		<tag k="ssr:stedsnr" v="338205" />
	</node>
	<node id="-89889" lat="63.1076611123" lon="8.82528888624">
		<tag k="historic" v="shieling" />
		<tag k="name" v="Hanstrøa" />
		<tag k="place" v="locality" />
		<tag k="ssr:stedsnr" v="338198" />
	</node>
	<node id="-89888" lat="63.0905055525" lon="8.8705055618">
		<tag k="name" v="Kartmyra" />
		<tag k="natural" v="wetland" />
		<tag k="ssr:stedsnr" v="338189" />
	</node>
	<node id="-89887" lat="62.9996611145" lon="8.99558611784">
		<tag k="name" v="Snippen" />
		<tag k="place" v="locality" />
		<tag k="ssr:stedsnr" v="338161" />
	</node>
	<node id="-89886" lat="63.0396277765" lon="8.9621833276">
		<tag k="name" v="Solmyran" />
		<tag k="natural" v="wetland" />
		<tag k="ssr:stedsnr" v="338159" />
	</node>
	<node id="-89885" lat="62.9977472243" lon="8.93500833778">
		<tag k="name" v="Moøya" />
		<tag k="place" v="locality" />
		<tag k="ssr:stedsnr" v="338156" />
	</node>
	<node id="-87826" lat="62.9067444477" lon="8.4955805579">
		<tag k="name" v="Finnvikmyra" />
		<tag k="natural" v="wetland" />
		<tag k="ssr:stedsnr" v="519085" />
	</node>
	<node id="-89873" lat="62.9356111134" lon="8.43932777064">
		<tag k="historic" v="shieling" />
		<tag k="name" v="Litlesetra" />
		<tag k="place" v="locality" />
		<tag k="ssr:stedsnr" v="337086" />
	</node>
	<node id="-89048" lat="62.9977555576" lon="8.9289694404">
		<tag k="name" v="Vidøra" />
		<tag k="place" v="locality" />
		<tag k="ssr:stedsnr" v="217194" />
	</node>
	<node id="-90413" lat="62.987730556" lon="8.90552500286">
		<tag k="name" v="Øver Ellingmyra" />
		<tag k="natural" v="wetland" />
		<tag k="ssr:stedsnr" v="520589" />
	</node>
	<node id="-87801" lat="62.9749250032" lon="8.96082499123">
		<tag k="landuse" v="meadow" />
		<tag k="name" v="Bjørnafellhaugen" />
		<tag k="ssr:stedsnr" v="509186" />
	</node>
	<node id="-87796" lat="62.9860250035" lon="8.71878333185">
		<tag k="name" v="Øvre Øyatrøa" />
		<tag k="place" v="locality" />
		<tag k="ssr:stedsnr" v="508940" />
	</node>
	<node id="-87795" lat="62.8798222264" lon="8.82884722076">
		<tag k="name" v="Ura" />
		<tag k="natural" v="scree" />
		<tag k="ssr:stedsnr" v="509099" />
	</node>
	<node id="-89840" lat="63.0394111126" lon="8.70373888762">
		<tag k="name" v="Løålikjølen" />
>>>>>>> e1d4bc35ff8a6074a6f2e91616a996b547c36f15
		<tag k="natural" v="wetland" />
		<tag k="ssr:stedsnr" v="315839" />
	</node>
<<<<<<< HEAD
	<node lat="63.00031272534632" lon="8.867551315192332" id="-1928">
		<tag k="historic" v="shieling" />
		<tag k="name" v="Gullassetra" />
		<tag k="place" v="locality" />
		<tag k="ssr:stedsnr" v="315668" />
	</node>
	<node lat="63.04423333359241" lon="9.024122221238931" id="-1962">
		<tag k="name" v="Rørøya" />
		<tag k="natural" v="wetland" />
		<tag k="ssr:stedsnr" v="338107" />
	</node>
	<node lat="62.938361110610835" lon="8.774741673921127" id="-1967">
		<tag k="name" v="Geilmyra" />
		<tag k="natural" v="wetland" />
		<tag k="ssr:stedsnr" v="338048" />
	</node>
	<node lat="62.8036305547028" lon="8.72772778753137" id="-1970">
		<tag k="name" v="Nylenna" />
		<tag k="place" v="locality" />
		<tag k="ssr:stedsnr" v="338060" />
	</node>
	<node lat="62.79375277772384" lon="8.714583328531516" id="-1973">
		<tag k="historic" v="shieling" />
		<tag k="name" v="Ner Gammelsetra" />
		<tag k="place" v="locality" />
		<tag k="ssr:stedsnr" v="338205" />
	</node>
	<node lat="62.79243333173635" lon="8.685019441342796" id="-1974">
		<tag k="historic" v="shieling" />
		<tag k="name" v="Drøppingsetra" />
		<tag k="place" v="locality" />
		<tag k="ssr:stedsnr" v="338207" />
	</node>
	<node lat="63.009588887955445" lon="8.497691669159789" id="-1979">
		<tag k="name" v="Kringlåtmyra" />
		<tag k="natural" v="wetland" />
		<tag k="ssr:stedsnr" v="338252" />
	</node>
	<node lat="63.10766111226005" lon="8.825288886243381" id="-1981">
		<tag k="historic" v="shieling" />
		<tag k="name" v="Hanstrøa" />
		<tag k="place" v="locality" />
		<tag k="ssr:stedsnr" v="338198" />
	</node>
	<node lat="62.939366669223936" lon="8.726008323492456" id="-1989">
		<tag k="name" v="Korssteinskaret" />
		<tag k="natural" v="stone" />
		<tag k="ssr:stedsnr" v="338317" />
	</node>
	<node lat="62.94221110915908" lon="8.713763881204367" id="-1990">
		<tag k="name" v="Angråmyra" />
=======
	<node id="-87790" lat="62.9678194468" lon="8.72315278067">
		<tag k="name" v="Skjertmyra" />
		<tag k="natural" v="wetland" />
		<tag k="ssr:stedsnr" v="399909" />
	</node>
	<node id="-89824" lat="62.8967527787" lon="8.5277277683">
		<tag k="name" v="Haugelimyra" />
		<tag k="natural" v="wetland" />
		<tag k="ssr:stedsnr" v="315279" />
	</node>
	<node id="-89820" lat="62.9017194455" lon="8.55092500799">
		<tag k="name" v="Stormyra" />
		<tag k="natural" v="wetland" />
		<tag k="ssr:stedsnr" v="315270" />
	</node>
	<node id="-86990" lat="62.9826388884" lon="8.85734165869">
		<tag k="name" v="Storførumyra" />
		<tag k="natural" v="wetland" />
		<tag k="ssr:stedsnr" v="95862" />
	</node>
	<node id="-87753" lat="62.9209083299" lon="8.61739722251">
		<tag k="alt_name" v="Litlslættmyra" />
		<tag k="name" v="Holdensetermyrane" />
		<tag k="natural" v="wetland" />
		<tag k="ssr:stedsnr" v="497720" />
	</node>
	<node id="-89797" lat="62.9843638848" lon="8.92793332358">
		<tag k="name" v="Ytter Gravvøttu" />
>>>>>>> e1d4bc35ff8a6074a6f2e91616a996b547c36f15
		<tag k="natural" v="wetland" />
		<tag k="ssr:stedsnr" v="338319" />
	</node>
<<<<<<< HEAD
	<node lat="63.02053333345996" lon="8.419086116651524" id="-1997">
		<tag k="name" v="Langmyra" />
=======
	<node id="-89796" lat="63.0136972256" lon="8.99191110927">
		<tag k="name" v="Seggamyra" />
>>>>>>> e1d4bc35ff8a6074a6f2e91616a996b547c36f15
		<tag k="natural" v="wetland" />
		<tag k="ssr:stedsnr" v="338748" />
	</node>
<<<<<<< HEAD
	<node lat="63.00959166355357" lon="8.695144451284706" id="-2048">
		<tag k="name" v="Flammamyran" />
=======
	<node id="-89795" lat="63.0048027817" lon="8.95872222808">
		<tag k="name" v="Vidslættet" />
>>>>>>> e1d4bc35ff8a6074a6f2e91616a996b547c36f15
		<tag k="natural" v="wetland" />
		<tag k="ssr:stedsnr" v="398332" />
	</node>
<<<<<<< HEAD
	<node lat="63.01113333570222" lon="8.947958337735189" id="-2065">
		<tag k="name" v="Fuglleiken" />
		<tag k="natural" v="wetland" />
		<tag k="ssr:stedsnr" v="398529" />
	</node>
	<node lat="63.0515583335667" lon="9.041002785302577" id="-2068">
		<tag k="landuse" v="meadow" />
		<tag k="name" v="Sverkeslættet" />
		<tag k="ssr:stedsnr" v="398588" />
	</node>
	<node lat="62.93780555135655" lon="8.803619437588178" id="-2079">
		<tag k="name" v="Sagholtmyra" />
=======
	<node id="-89792" lat="62.8816972238" lon="8.65224443743">
		<tag k="name" v="Verendløa" />
>>>>>>> e1d4bc35ff8a6074a6f2e91616a996b547c36f15
		<tag k="natural" v="wetland" />
		<tag k="ssr:stedsnr" v="398805" />
	</node>
<<<<<<< HEAD
	<node lat="63.0172805599954" lon="9.065311119411168" id="-2094">
		<tag k="name" v="Øyan" />
=======
	<node id="-89791" lat="62.9009583316" lon="8.75943333421">
		<tag k="name" v="Bjønnteigen" />
>>>>>>> e1d4bc35ff8a6074a6f2e91616a996b547c36f15
		<tag k="place" v="locality" />
		<tag k="ssr:stedsnr" v="399130" />
	</node>
<<<<<<< HEAD
	<node lat="62.802702776800444" lon="8.76345000861733" id="-2100">
		<tag k="name" v="Stormyra" />
		<tag k="natural" v="wetland" />
		<tag k="ssr:stedsnr" v="399083" />
	</node>
	<node lat="63.00940277654377" lon="9.03038332543255" id="-2105">
		<tag k="name" v="Øyan" />
		<tag k="place" v="locality" />
		<tag k="ssr:stedsnr" v="399212" />
	</node>
	<node lat="62.97816388691985" lon="8.51755834179669" id="-2119">
		<tag k="landuse" v="quarry" />
		<tag k="name" v="Årnes kalkgruve" />
		<tag k="ssr:stedsnr" v="399488" />
	</node>
	<node lat="62.99173055645139" lon="8.563869449172438" id="-2122">
		<tag k="name" v="Breimyra" />
		<tag k="natural" v="wetland" />
		<tag k="ssr:stedsnr" v="399781" />
	</node>
	<node lat="63.0523583342171" lon="8.587722217431855" id="-2125">
		<tag k="name" v="Ånslætta" />
		<tag k="natural" v="wetland" />
		<tag k="ssr:stedsnr" v="399796" />
	</node>
	<node lat="62.997341667139686" lon="8.693947231340777" id="-2155">
		<tag k="name" v="Rønningan" />
		<tag k="place" v="locality" />
		<tag k="ssr:stedsnr" v="448005" />
	</node>
	<node lat="62.79645277871524" lon="8.80792777424601" id="-2170">
		<tag k="name" v="Merrasvaet" />
		<tag k="place" v="locality" />
		<tag k="ssr:stedsnr" v="459306" />
	</node>
	<node lat="62.90844722567336" lon="8.738083343114814" id="-2173">
		<tag k="name" v="Dorditeigan" />
		<tag k="place" v="locality" />
		<tag k="ssr:stedsnr" v="459374" />
	</node>
	<node lat="62.90800000141865" lon="8.756791664177635" id="-2175">
		<tag k="name" v="Trollmyran" />
		<tag k="natural" v="wetland" />
		<tag k="ssr:stedsnr" v="459381" />
	</node>
	<node lat="63.00540278011472" lon="8.945147214172419" id="-2182">
		<tag k="historic" v="shieling" />
		<tag k="name" v="Gammelsetra" />
		<tag k="place" v="locality" />
		<tag k="ssr:stedsnr" v="459507" />
	</node>
	<node lat="62.97888055934475" lon="8.765530554484966" id="-2196">
		<tag k="name" v="Øya" />
		<tag k="place" v="locality" />
		<tag k="ssr:stedsnr" v="460020" />
	</node>
	<node lat="62.799886108615794" lon="8.757863893701868" id="-2204">
		<tag k="name" v="Myra" />
		<tag k="natural" v="wetland" />
		<tag k="ssr:stedsnr" v="460115" />
	</node>
	<node lat="62.93858055896475" lon="8.729538896776766" id="-2213">
		<tag k="name" v="Dammyra" />
		<tag k="natural" v="wetland" />
		<tag k="ssr:stedsnr" v="460424" />
	</node>
	<node lat="63.01950277563902" lon="8.41675000410754" id="-2225">
		<tag k="name" v="Langmyra" />
		<tag k="natural" v="wetland" />
		<tag k="ssr:stedsnr" v="460810" />
	</node>
	<node lat="62.97491388979471" lon="8.515958342561877" id="-2227">
		<tag k="name" v="Haugmyra" />
		<tag k="natural" v="wetland" />
		<tag k="ssr:stedsnr" v="460826" />
	</node>
	<node lat="62.973702780674905" lon="8.760111115249577" id="-2232">
		<tag k="name" v="Fagervollen" />
		<tag k="place" v="locality" />
		<tag k="ssr:stedsnr" v="460908" />
	</node>
	<node lat="62.92090832993982" lon="8.617397222506254" id="-2297">
		<tag k="alt_name" v="Litlslættmyra" />
		<tag k="name" v="Holdensetermyrane" />
		<tag k="natural" v="wetland" />
		<tag k="ssr:stedsnr" v="497720" />
	</node>
	<node lat="62.97492500324834" lon="8.960824991228536" id="-2314">
		<tag k="landuse" v="meadow" />
		<tag k="name" v="Bjørnafellhaugen" />
		<tag k="ssr:stedsnr" v="509186" />
	</node>
	<node lat="62.9941583349996" lon="8.79434443796199" id="-2327">
		<tag k="name" v="Småmyran" />
		<tag k="natural" v="wetland" />
		<tag k="ssr:stedsnr" v="510303" />
	</node>
	<node lat="62.96628888614115" lon="8.853980552368617" id="-2330">
		<tag k="name" v="Krokfonna" />
		<tag k="place" v="locality" />
		<tag k="ssr:stedsnr" v="519767" />
	</node>
	<node lat="62.979658330418665" lon="8.862841662739273" id="-2332">
		<tag k="name" v="Setermyran" />
		<tag k="natural" v="wetland" />
		<tag k="ssr:stedsnr" v="519871" />
	</node>
	<node lat="62.97484444073607" lon="8.77156667151091" id="-2334">
		<tag k="name" v="Futøya" />
		<tag k="place" v="locality" />
		<tag k="ssr:stedsnr" v="520019" />
	</node>
	<node lat="62.78075832929648" lon="8.8572138891525" id="-2338">
		<tag k="name" v="Storenga" />
		<tag k="natural" v="wetland" />
		<tag k="ssr:stedsnr" v="520071" />
	</node>
	<node lat="63.00804444620247" lon="8.478747229259874" id="-2346">
		<tag k="name" v="Bakliholet" />
		<tag k="natural" v="wetland" />
		<tag k="ssr:stedsnr" v="520305" />
	</node>
	<node lat="62.78345833468694" lon="8.865255553588161" id="-2351">
		<tag k="name" v="Svinvikmyran" />
		<tag k="natural" v="wetland" />
		<tag k="ssr:stedsnr" v="520279" />
	</node>
	<node lat="62.95793055854106" lon="8.56656945318023" id="-2360">
		<tag k="historic" v="shieling" />
		<tag k="name" v="Gammelsetra" />
		<tag k="place" v="locality" />
		<tag k="ssr:stedsnr" v="520428" />
	</node>
	<node lat="63.000516662242276" lon="8.646750003699061" id="-2364">
		<tag k="name" v="Øvre-Fuggelmyra" />
		<tag k="natural" v="wetland" />
		<tag k="ssr:stedsnr" v="520364" />
	</node>
	<node lat="63.03061388710505" lon="8.731422226053967" id="-2365">
		<tag k="name" v="Litlslættet" />
		<tag k="natural" v="wetland" />
		<tag k="ssr:stedsnr" v="520366" />
	</node>
	<node lat="62.94010555636691" lon="8.711361101517053" id="-2367">
		<tag k="name" v="Slåttøyan" />
		<tag k="natural" v="wetland" />
		<tag k="ssr:stedsnr" v="520369" />
	</node>
	<node lat="63.01614999660092" lon="8.590816667054153" id="-2375">
		<tag k="name" v="Slåa" />
		<tag k="natural" v="wetland" />
		<tag k="ssr:stedsnr" v="520825" />
	</node>
	<node lat="63.051888890871425" lon="8.868822219456097" id="-2395">
		<tag k="name" v="Klokkargjøta" />
		<tag k="natural" v="wetland" />
		<tag k="ssr:stedsnr" v="520978" />
	</node>
	<node lat="63.069861107797806" lon="8.790538896694752" id="-2396">
		<tag k="name" v="Brennmyra" />
		<tag k="natural" v="wetland" />
		<tag k="ssr:stedsnr" v="520979" />
	</node>
	<node lat="62.97925555333687" lon="8.661536117891755" id="-2401">
		<tag k="name" v="Brattørskogen" />
		<tag k="place" v="locality" />
		<tag k="ssr:stedsnr" v="688476" />
	</node>
	<node lat="63.03036944225297" lon="8.747805546200729" id="-2443">
		<tag k="landuse" v="meadow" />
		<tag k="name" v="Sagslættet" />
		<tag k="ssr:stedsnr" v="692200" />
	</node>
	<node lat="62.914830556651715" lon="8.856280552998445" id="-2451">
		<tag k="name" v="Storsteinura" />
		<tag k="natural" v="scree" />
		<tag k="ssr:stedsnr" v="692239" />
	</node>
	<node lat="62.993169444575734" lon="8.648822227677185" id="-2459">
		<tag k="name" v="Annsagura" />
		<tag k="natural" v="scree" />
		<tag k="ssr:stedsnr" v="568477" />
	</node>
	<node lat="62.82983333390954" lon="8.873058336149027" id="-2475">
		<tag k="name" v="Bekkekrokan" />
		<tag k="natural" v="wetland" />
		<tag k="ssr:stedsnr" v="580246" />
	</node>
	<node lat="62.946313888544545" lon="8.703836103633078" id="-2479">
		<tag k="name" v="Fuglleiken" />
		<tag k="natural" v="wetland" />
		<tag k="ssr:stedsnr" v="580314" />
	</node>
	<node lat="62.82858333203104" lon="8.75272499076583" id="-2482">
		<tag k="name" v="Tatersteinan" />
		<tag k="natural" v="stone" />
		<tag k="ssr:stedsnr" v="580396" />
	</node>
	<node lat="63.023811108589534" lon="9.0906083354639" id="-2503">
		<tag k="name" v="Kvamsøya" />
		<tag k="place" v="locality" />
		<tag k="ssr:stedsnr" v="581153" />
	</node>
	<node lat="62.993972218753406" lon="8.859919441283296" id="-2504">
		<tag k="name" v="Øran" />
		<tag k="place" v="locality" />
		<tag k="ssr:stedsnr" v="581005" />
	</node>
	<node lat="62.98291944866634" lon="8.79913889188842" id="-2507">
		<tag k="name" v="Kuøra" />
		<tag k="place" v="locality" />
		<tag k="ssr:stedsnr" v="581015" />
	</node>
	<node lat="63.01345277594028" lon="8.526669448562771" id="-2513">
		<tag k="name" v="Pestykket" />
		<tag k="place" v="locality" />
		<tag k="ssr:stedsnr" v="581293" />
	</node>
	<node lat="62.99763610791099" lon="8.63996110516393" id="-2526">
		<tag k="name" v="Sandsteinen" />
		<tag k="natural" v="wetland" />
		<tag k="ssr:stedsnr" v="581908" />
	</node>
	<node lat="62.79750000198829" lon="8.793549990675938" id="-2541">
		<tag k="name" v="Slettskrøa" />
		<tag k="place" v="locality" />
		<tag k="ssr:stedsnr" v="702283" />
	</node>
	<node lat="63.02457499701874" lon="8.631222214517969" id="-2576">
		<tag k="name" v="Sjølgjetlholet" />
		<tag k="natural" v="wetland" />
		<tag k="ssr:stedsnr" v="702221" />
	</node>
	<node lat="62.874294445560295" lon="8.800986116508824" id="-2580">
		<tag k="name" v="Trollhøttorin" />
		<tag k="natural" v="scree" />
		<tag k="ssr:stedsnr" v="702300" />
	</node>
	<node lat="62.808336111368114" lon="8.755286112985697" id="-2586">
		<tag k="name" v="Bjønnasletturin" />
		<tag k="natural" v="scree" />
		<tag k="ssr:stedsnr" v="702234" />
	</node>
	<node lat="62.909391670578714" lon="8.46664999428844" id="-2595">
		<tag k="name" v="Stortrøa" />
		<tag k="place" v="locality" />
		<tag k="ssr:stedsnr" v="702386" />
	</node>
	<node lat="63.01518611318717" lon="8.662449990143402" id="-2603">
		<tag k="name" v="Orrenlimyra" />
		<tag k="natural" v="wetland" />
		<tag k="ssr:stedsnr" v="702324" />
	</node>
	<node lat="63.00229166266577" lon="8.734286109745785" id="-2607">
		<tag k="name" v="Torva" />
		<tag k="natural" v="wetland" />
		<tag k="ssr:stedsnr" v="702341" />
	</node>
	<node lat="62.89979444337239" lon="8.570152773784363" id="-2612">
		<tag k="name" v="Klåppin" />
		<tag k="natural" v="wetland" />
		<tag k="ssr:stedsnr" v="702355" />
	</node>
	<node lat="63.0038333367396" lon="8.34576667359424" id="-2626">
		<tag k="name" v="Storholet" />
		<tag k="natural" v="wetland" />
		<tag k="ssr:stedsnr" v="702646" />
	</node>
	<node lat="62.9441527760143" lon="8.503349998177816" id="-2629">
		<tag k="name" v="Langmyra" />
		<tag k="natural" v="wetland" />
		<tag k="ssr:stedsnr" v="702720" />
	</node>
	<node lat="63.0521472186025" lon="8.876491663609077" id="-2638">
		<tag k="name" v="Gråtarmyran" />
		<tag k="natural" v="wetland" />
		<tag k="ssr:stedsnr" v="702966" />
	</node>
	<node lat="63.01428055666877" lon="8.596530559041906" id="-2640">
		<tag k="name" v="Langmyra" />
		<tag k="natural" v="wetland" />
		<tag k="ssr:stedsnr" v="702784" />
	</node>
	<node lat="62.979783333212616" lon="8.845552785109692" id="-2643">
		<tag k="name" v="Fuglleiken" />
		<tag k="natural" v="wetland" />
		<tag k="ssr:stedsnr" v="702865" />
	</node>
	<node lat="62.99010555940076" lon="9.012016669338687" id="-2667">
		<tag k="name" v="Floni" />
		<tag k="natural" v="wetland" />
		<tag k="ssr:stedsnr" v="703176" />
	</node>
	<node lat="62.97905833290314" lon="8.391274999657407" id="-2673">
		<tag k="name" v="Årleikmyran" />
		<tag k="natural" v="wetland" />
		<tag k="ssr:stedsnr" v="703354" />
	</node>
	<node lat="62.99373889127622" lon="8.656719443877563" id="-2683">
		<tag k="name" v="Kringelåsmyra" />
		<tag k="natural" v="wetland" />
		<tag k="ssr:stedsnr" v="629694" />
	</node>
	<node lat="63.11578611524205" lon="8.944938884256736" id="-2692">
		<tag k="landuse" v="meadow" />
		<tag k="name" v="Baklislættet" />
		<tag k="ssr:stedsnr" v="631240" />
	</node>
	<node lat="62.777561111843" lon="8.88734444773803" id="-2707">
		<tag k="name" v="Kvennhusmyran" />
		<tag k="natural" v="wetland" />
		<tag k="ssr:stedsnr" v="641306" />
	</node>
	<node lat="62.90776111232122" lon="8.643469447784357" id="-2713">
		<tag k="name" v="Snipvollen" />
		<tag k="place" v="locality" />
		<tag k="ssr:stedsnr" v="641384" />
	</node>
	<node lat="62.93921944283525" lon="8.834374998505137" id="-2726">
		<tag k="name" v="Larsslættmyra" />
		<tag k="natural" v="wetland" />
		<tag k="ssr:stedsnr" v="641280" />
	</node>
	<node lat="63.01260833509989" lon="8.297647217128732" id="-2737">
		<tag k="name" v="Bjønnatjønnmyra" />
		<tag k="natural" v="wetland" />
		<tag k="ssr:stedsnr" v="641606" />
	</node>
	<node lat="63.003216662454754" lon="8.998536102293587" id="-2742">
		<tag k="name" v="Skjermoøra" />
		<tag k="place" v="locality" />
		<tag k="ssr:stedsnr" v="641524" />
	</node>
	<node lat="62.998030559164064" lon="8.96868054971452" id="-2743">
		<tag k="name" v="Mogjerdet" />
		<tag k="place" v="locality" />
		<tag k="ssr:stedsnr" v="641525" />
	</node>
	<node lat="63.09857296181261" lon="8.916304581827234" id="-2794">
		<tag k="landuse" v="meadow" />
		<tag k="name" v="Tjukkslættet" />
		<tag k="ssr:stedsnr" v="692422" />
	</node>
	<node lat="62.89951110884786" lon="8.587791671594028" id="-2800">
		<tag k="name" v="Grønkeila" />
		<tag k="natural" v="wetland" />
		<tag k="ssr:stedsnr" v="702071" />
	</node>
	<node lat="62.9069749960204" lon="8.646908329130463" id="-2804">
		<tag k="name" v="Olderøya" />
		<tag k="natural" v="wetland" />
		<tag k="ssr:stedsnr" v="702108" />
	</node>
	<node lat="62.81916110876739" lon="8.674172227701371" id="-2807">
		<tag k="name" v="Råmyran" />
		<tag k="natural" v="wetland" />
		<tag k="ssr:stedsnr" v="702118" />
	</node>
	<node lat="62.81032777593201" lon="8.68380832391057" id="-2809">
		<tag k="name" v="Rørmyra" />
		<tag k="natural" v="wetland" />
		<tag k="ssr:stedsnr" v="702125" />
	</node>
	<node lat="62.95124444489883" lon="8.551191676346136" id="-2812">
		<tag k="historic" v="shieling" />
		<tag k="name" v="Engellisetra" />
		<tag k="old_name" v="Engelisetra" />
		<tag k="place" v="locality" />
		<tag k="ssr:stedsnr" v="702405" />
	</node>
	<node lat="62.98175277849322" lon="8.545658329814193" id="-2813">
		<tag k="name" v="Storvollen" />
		<tag k="place" v="locality" />
		<tag k="ssr:stedsnr" v="702414" />
	</node>
	<node lat="63.05595000424292" lon="8.47277778364891" id="-2828">
		<tag k="historic" v="shieling" />
		<tag k="name" v="Jensstusetra" />
		<tag k="place" v="locality" />
		<tag k="ssr:stedsnr" v="702311" />
	</node>
	<node lat="62.8975027817209" lon="8.581347218204773" id="-2831">
		<tag k="name" v="Barmelen" />
		<tag k="place" v="locality" />
		<tag k="ssr:stedsnr" v="702364" />
	</node>
	<node lat="63.020786114688526" lon="9.106580560450725" id="-2845">
		<tag k="name" v="Sommarfjøstrøa" />
		<tag k="natural" v="wetland" />
		<tag k="ssr:stedsnr" v="702678" />
	</node>
	<node lat="63.007251960864025" lon="8.854796856901308" id="-2850">
		<tag k="landuse" v="meadow" />
		<tag k="name" v="Jarslættet" />
		<tag k="ssr:stedsnr" v="702708" />
	</node>
	<node lat="63.03869166936908" lon="8.875747212538965" id="-2857">
		<tag k="name" v="Høglimyran" />
		<tag k="natural" v="wetland" />
		<tag k="ssr:stedsnr" v="702780" />
	</node>
	<node lat="63.01042499828624" lon="8.899216671755882" id="-2861">
		<tag k="historic" v="shieling" />
		<tag k="name" v="Gullasetra" />
		<tag k="place" v="locality" />
		<tag k="ssr:stedsnr" v="702919" />
	</node>
	<node lat="63.015380557180244" lon="8.779944450755254" id="-2863">
		<tag k="name" v="Stormyra" />
		<tag k="natural" v="wetland" />
		<tag k="ssr:stedsnr" v="703020" />
	</node>
	<node lat="63.00888611450513" lon="8.904708330408079" id="-2867">
		<tag k="name" v="Kausa" />
		<tag k="natural" v="wetland" />
		<tag k="ssr:stedsnr" v="703228" />
	</node>
	<node lat="63.01471666494783" lon="8.912466663031589" id="-2868">
		<tag k="name" v="Langmyra" />
		<tag k="natural" v="wetland" />
		<tag k="ssr:stedsnr" v="703236" />
	</node>
	<node lat="62.9931805569837" lon="8.892975007292922" id="-2870">
		<tag k="name" v="Storøra" />
=======
	<node id="-90740" lat="63.0103888926" lon="9.0405416647">
		<tag k="name" v="Kuøra" />
		<tag k="place" v="locality" />
		<tag k="ssr:stedsnr" v="641105" />
	</node>
	<node id="-89781" lat="62.7877361104" lon="8.75343332832">
		<tag k="name" v="Bjøråøyan" />
		<tag k="natural" v="wetland" />
		<tag k="ssr:stedsnr" v="216264" />
	</node>
	<node id="-87727" lat="62.8906499965" lon="9.01372778448">
		<tag k="name" v="Kløftseterøya" />
		<tag k="place" v="locality" />
		<tag k="ssr:stedsnr" v="497029" />
	</node>
	<node id="-89766" lat="63.0528638883" lon="8.93410000831">
		<tag k="landuse" v="meadow" />
		<tag k="name" v="Atterslættet" />
		<tag k="ssr:stedsnr" v="206260" />
	</node>
	<node id="-89763" lat="63.0006277819" lon="8.73951388886">
		<tag k="landuse" v="meadow" />
		<tag k="name" v="Grøslættet" />
		<tag k="ssr:stedsnr" v="206122" />
	</node>
	<node id="-87709" lat="62.9815222191" lon="8.54149999395">
		<tag k="name" v="Sjurekra" />
		<tag k="place" v="locality" />
		<tag k="ssr:stedsnr" v="338762" />
	</node>
	<node id="-87705" lat="62.9563249956" lon="8.98204722876">
		<tag k="name" v="Bakmyran" />
		<tag k="natural" v="wetland" />
		<tag k="ssr:stedsnr" v="338129" />
	</node>
	<node id="-87703" lat="62.9958944434" lon="8.93796111443">
		<tag k="name" v="Måsøra" />
		<tag k="place" v="locality" />
		<tag k="ssr:stedsnr" v="338123" />
	</node>
	<node id="-87699" lat="63.0442333336" lon="9.02412222124">
		<tag k="name" v="Rørøya" />
		<tag k="natural" v="wetland" />
		<tag k="ssr:stedsnr" v="338107" />
	</node>
	<node id="-87693" lat="62.9087583352" lon="8.63902777232">
		<tag k="name" v="Stormyra" />
		<tag k="natural" v="wetland" />
		<tag k="ssr:stedsnr" v="338086" />
	</node>
	<node id="-87688" lat="62.8036305547" lon="8.72772778753">
		<tag k="name" v="Nylenna" />
		<tag k="place" v="locality" />
		<tag k="ssr:stedsnr" v="338060" />
	</node>
	<node id="-91071" lat="63.0053611137" lon="8.63369166675">
		<tag k="name" v="Fagermyrane" />
		<tag k="natural" v="wetland" />
		<tag k="ssr:stedsnr" v="764852" />
	</node>
	<node id="-89715" lat="62.9377749978" lon="9.06721110535">
		<tag k="name" v="Dukfonna" />
		<tag k="natural" v="glacier" />
		<tag k="ssr:stedsnr" v="194059" />
	</node>
	<node id="-89704" lat="63.0573305582" lon="8.79644721496">
		<tag k="historic" v="shieling" />
		<tag k="name" v="Øyagardsetra" />
		<tag k="place" v="locality" />
		<tag k="ssr:stedsnr" v="156955" />
	</node>
	<node id="-89699" lat="62.9735138862" lon="8.72032500592">
		<tag k="name" v="Svartvatnet" />
		<tag k="natural" v="wetland" />
		<tag k="ssr:stedsnr" v="156924" />
	</node>
	<node id="-87311" lat="62.9920000025" lon="8.84844721746">
		<tag k="name" v="Fættan" />
		<tag k="place" v="locality" />
		<tag k="ssr:stedsnr" v="217027" />
	</node>
	<node id="-87638" lat="62.9737027807" lon="8.76011111525">
		<tag k="name" v="Fagervollen" />
		<tag k="place" v="locality" />
		<tag k="ssr:stedsnr" v="460908" />
	</node>
	<node id="-89678" lat="63.0292388914" lon="8.82328889738">
		<tag k="name" v="Svorkøyan" />
		<tag k="natural" v="wetland" />
		<tag k="ssr:stedsnr" v="156788" />
	</node>
	<node id="-89677" lat="62.9727888923" lon="8.51641943509">
		<tag k="name" v="Korntrøa" />
		<tag k="place" v="locality" />
		<tag k="ssr:stedsnr" v="156785" />
	</node>
	<node id="-87627" lat="62.9749138898" lon="8.51595834256">
		<tag k="name" v="Haugmyra" />
		<tag k="natural" v="wetland" />
		<tag k="ssr:stedsnr" v="460826" />
	</node>
	<node id="-87625" lat="63.0195027756" lon="8.41675000411">
		<tag k="name" v="Langmyra" />
		<tag k="natural" v="wetland" />
		<tag k="ssr:stedsnr" v="460810" />
	</node>
	<node id="-89666" lat="63.0408111088" lon="9.0218305467">
		<tag k="name" v="Bekkaslættet" />
		<tag k="natural" v="wetland" />
		<tag k="ssr:stedsnr" v="156608" />
	</node>
	<node id="-89662" lat="63.0017916669" lon="9.0077638947">
		<tag k="name" v="Solemsøra" />
		<tag k="place" v="locality" />
		<tag k="ssr:stedsnr" v="156572" />
	</node>
	<node id="-89661" lat="62.9899944466" lon="8.91081111377">
		<tag k="name" v="Ner Ellingmyra" />
		<tag k="natural" v="wetland" />
		<tag k="ssr:stedsnr" v="156568" />
	</node>
	<node id="-87609" lat="62.8820055558" lon="8.56273056042">
		<tag k="name" v="Oterura" />
		<tag k="natural" v="scree" />
		<tag k="ssr:stedsnr" v="460462" />
	</node>
	<node id="-87602" lat="62.938580559" lon="8.72953889678">
		<tag k="name" v="Dammyra" />
		<tag k="natural" v="wetland" />
		<tag k="ssr:stedsnr" v="460424" />
	</node>
	<node id="-89643" lat="62.9080861122" lon="8.47500833931">
		<tag k="name" v="Oramyran" />
		<tag k="natural" v="wetland" />
		<tag k="ssr:stedsnr" v="156417" />
	</node>
	<node id="-89640" lat="62.9038499961" lon="8.74916388276">
		<tag k="name" v="Staverøya" />
		<tag k="natural" v="wetland" />
		<tag k="ssr:stedsnr" v="156403" />
	</node>
	<node id="-89635" lat="62.9370972218" lon="8.74037778133">
		<tag k="name" v="Blekkamyran" />
		<tag k="natural" v="wetland" />
		<tag k="ssr:stedsnr" v="156379" />
	</node>
	<node id="-89634" lat="63.0065666678" lon="8.65205832984">
		<tag k="name" v="Dammyra" />
		<tag k="natural" v="wetland" />
		<tag k="ssr:stedsnr" v="156378" />
	</node>
	<node id="-90957" lat="62.9543305531" lon="8.71711110891">
		<tag k="historic" v="shieling" />
		<tag k="name" v="Skeisetra" />
		<tag k="place" v="locality" />
		<tag k="ssr:stedsnr" v="762365" />
	</node>
	<node id="-87577" lat="63.0091222189" lon="9.14033334219">
		<tag k="name" v="Krokan" />
		<tag k="natural" v="wetland" />
		<tag k="ssr:stedsnr" v="460230" />
	</node>
	<node id="-87576" lat="63.0161222192" lon="9.08242222756">
		<tag k="name" v="Halttrøa" />
		<tag k="place" v="locality" />
		<tag k="ssr:stedsnr" v="460227" />
	</node>
	<node id="-89614" lat="63.0058694478" lon="8.43203889659">
		<tag k="historic" v="shieling" />
		<tag k="name" v="Seterstølen" />
		<tag k="place" v="locality" />
		<tag k="ssr:stedsnr" v="156292" />
	</node>
	<node id="-87565" lat="62.7998861086" lon="8.7578638937">
		<tag k="name" v="Myra" />
		<tag k="natural" v="wetland" />
		<tag k="ssr:stedsnr" v="460115" />
	</node>
	<node id="-87558" lat="62.8111166643" lon="8.81358332809">
		<tag k="name" v="Sanden" />
		<tag k="natural" v="wetland" />
		<tag k="ssr:stedsnr" v="460046" />
	</node>
	<node id="-89604" lat="62.8167249975" lon="8.6726833337">
		<tag k="historic" v="shieling" />
		<tag k="name" v="Gammelsetra" />
		<tag k="place" v="locality" />
		<tag k="ssr:stedsnr" v="156247" />
	</node>
	<node id="-89602" lat="63.0444972209" lon="8.58221944016">
		<tag k="name" v="Mekveldssteinen" />
		<tag k="natural" v="stone" />
		<tag k="ssr:stedsnr" v="156244" />
	</node>
	<node id="-87553" lat="62.9788805593" lon="8.76553055448">
		<tag k="name" v="Øya" />
		<tag k="place" v="locality" />
		<tag k="ssr:stedsnr" v="460020" />
	</node>
	<node id="-89595" lat="62.9973361067" lon="8.9498861036">
		<tag k="name" v="Storekra" />
		<tag k="place" v="locality" />
		<tag k="ssr:stedsnr" v="156180" />
	</node>
	<node id="-89592" lat="63.0145805527" lon="9.07068054628">
		<tag k="name" v="Litltrøa" />
		<tag k="place" v="locality" />
		<tag k="ssr:stedsnr" v="156112" />
	</node>
	<node id="-89591" lat="62.8466666667" lon="8.66510276882">
		<tag k="name" v="Myran" />
		<tag k="natural" v="wetland" />
		<tag k="ssr:stedsnr" v="156111" />
	</node>
	<node id="-87542" lat="63.1040638891" lon="8.95389167114">
		<tag k="name" v="Rørslættøya" />
		<tag k="natural" v="wetland" />
		<tag k="ssr:stedsnr" v="459897" />
	</node>
	<node id="-89588" lat="63.0275388892" lon="8.67903056366">
		<tag k="name" v="Tjønnmyran" />
		<tag k="natural" v="wetland" />
		<tag k="ssr:stedsnr" v="156103" />
	</node>
	<node id="-87521" lat="63.0032972208" lon="8.84985276808">
		<tag k="name" v="Setermyra" />
		<tag k="natural" v="wetland" />
		<tag k="ssr:stedsnr" v="459744" />
	</node>
	<node id="-89560" lat="62.986833336" lon="8.84525833542">
		<tag k="name" v="Kvitsteinan" />
		<tag k="natural" v="stone" />
		<tag k="ssr:stedsnr" v="155844" />
	</node>
	<node id="-89541" lat="63.0039027734" lon="8.66016110316">
		<tag k="name" v="Fuggelmyra" />
		<tag k="natural" v="wetland" />
		<tag k="ssr:stedsnr" v="155378" />
	</node>
	<node id="-89540" lat="62.7728027789" lon="8.89260000591">
		<tag k="name" v="Kringlåtøya" />
		<tag k="natural" v="wetland" />
		<tag k="ssr:stedsnr" v="155350" />
	</node>
	<node id="-89539" lat="62.7715944406" lon="8.89506111668">
		<tag k="name" v="Dikekloppen" />
		<tag k="natural" v="wetland" />
		<tag k="ssr:stedsnr" v="155349" />
	</node>
	<node id="-89537" lat="62.7809361123" lon="8.93520555053">
		<tag k="name" v="Tortskrøå" />
		<tag k="natural" v="scree" />
		<tag k="ssr:stedsnr" v="155342" />
	</node>
	<node id="-87479" lat="62.9080000014" lon="8.75679166418">
		<tag k="name" v="Trollmyran" />
		<tag k="natural" v="wetland" />
		<tag k="ssr:stedsnr" v="459381" />
	</node>
	<node id="-87477" lat="62.9084472257" lon="8.73808334311">
		<tag k="name" v="Dorditeigan" />
		<tag k="place" v="locality" />
		<tag k="ssr:stedsnr" v="459374" />
	</node>
	<node id="-89521" lat="62.8124694455" lon="8.7943583319">
		<tag k="name" v="Finnskjeggura" />
		<tag k="natural" v="scree" />
		<tag k="ssr:stedsnr" v="145152" />
	</node>
	<node id="-87468" lat="62.7964527787" lon="8.80792777425">
		<tag k="name" v="Merrasvaet" />
		<tag k="place" v="locality" />
		<tag k="ssr:stedsnr" v="459306" />
	</node>
	<node id="-89509" lat="62.990113888" lon="8.65204999317">
		<tag k="name" v="Bøvrasrøtet" />
		<tag k="place" v="locality" />
		<tag k="ssr:stedsnr" v="144374" />
	</node>
	<node id="-87457" lat="62.9989527812" lon="8.95029445202">
		<tag k="name" v="Fjellet" />
		<tag k="place" v="locality" />
		<tag k="ssr:stedsnr" v="278210" />
	</node>
	<node id="-87456" lat="62.7995833376" lon="8.79715833697">
		<tag k="name" v="Skrøåsvaet" />
		<tag k="place" v="locality" />
		<tag k="ssr:stedsnr" v="459297" />
	</node>
	<node id="-89487" lat="63.0434222207" lon="8.93435554855">
		<tag k="name" v="Høgmyran" />
		<tag k="natural" v="wetland" />
		<tag k="ssr:stedsnr" v="133601" />
	</node>
	<node id="-87428" lat="62.9189000016" lon="8.49676666556">
		<tag k="historic" v="shieling" />
		<tag k="name" v="Prestgardssetra" />
		<tag k="place" v="locality" />
		<tag k="ssr:stedsnr" v="459099" />
	</node>
	<node id="-87424" lat="62.9997500039" lon="8.93761388046">
		<tag k="name" v="Sverkestykket" />
		<tag k="place" v="locality" />
		<tag k="ssr:stedsnr" v="277521" />
	</node>
	<node id="-87423" lat="63.0134749975" lon="8.92481111321">
		<tag k="name" v="Jonslættet" />
		<tag k="natural" v="wetland" />
		<tag k="ssr:stedsnr" v="277516" />
	</node>
	<node id="-89470" lat="62.9208305551" lon="8.46843056498">
		<tag k="name" v="Steinbakkan" />
		<tag k="place" v="locality" />
		<tag k="ssr:stedsnr" v="102202" />
	</node>
	<node id="-87414" lat="62.8367972218" lon="8.66068888608">
		<tag k="name" v="Markussteinen" />
		<tag k="natural" v="stone" />
		<tag k="ssr:stedsnr" v="277419" />
	</node>
	<node id="-87411" lat="62.9265111092" lon="8.64946388161">
		<tag k="historic" v="shieling" />
		<tag k="name" v="Hyllbakksetra" />
		<tag k="place" v="locality" />
		<tag k="ssr:stedsnr" v="277402" />
	</node>
	<node id="-89454" lat="62.914349997" lon="8.51747777686">
		<tag k="historic" v="shieling" />
		<tag k="name" v="Grønnessetra" />
		<tag k="place" v="locality" />
		<tag k="ssr:stedsnr" v="96437" />
	</node>
	<node id="-89452" lat="63.0293861091" lon="8.45465555486">
		<tag k="name" v="Isakteigen" />
		<tag k="place" v="locality" />
		<tag k="ssr:stedsnr" v="96351" />
	</node>
	<node id="-89449" lat="62.9868249978" lon="8.39614444097">
		<tag k="name" v="Setermyran" />
		<tag k="natural" v="wetland" />
		<tag k="ssr:stedsnr" v="96331" />
	</node>
	<node id="-89441" lat="62.9265444403" lon="8.70500277418">
		<tag k="name" v="Storøya" />
		<tag k="place" v="locality" />
		<tag k="ssr:stedsnr" v="96378" />
	</node>
	<node id="-89440" lat="62.9325916623" lon="8.74359721678">
		<tag k="name" v="Storøya" />
		<tag k="place" v="locality" />
		<tag k="ssr:stedsnr" v="96375" />
	</node>
	<node id="-89429" lat="62.7952361114" lon="8.74601389427">
		<tag k="name" v="Skarmyra" />
		<tag k="natural" v="wetland" />
		<tag k="ssr:stedsnr" v="96092" />
	</node>
	<node id="-90339" lat="63.0102861102" lon="8.98908610786">
		<tag k="name" v="Liamyra" />
		<tag k="natural" v="wetland" />
		<tag k="ssr:stedsnr" v="520187" />
	</node>
	<node id="-87371" lat="62.8296416634" lon="8.88219167396">
		<tag k="name" v="Moamyran" />
		<tag k="natural" v="wetland" />
		<tag k="ssr:stedsnr" v="449081" />
	</node>
	<node id="-88972" lat="62.9936361074" lon="8.99773888861">
		<tag k="name" v="Småøyan" />
		<tag k="natural" v="wetland" />
		<tag k="ssr:stedsnr" v="217157" />
	</node>
	<node id="-89414" lat="62.9896138869" lon="8.79943333382">
		<tag k="name" v="Langmyra" />
		<tag k="natural" v="wetland" />
		<tag k="ssr:stedsnr" v="96026" />
	</node>
	<node id="-89410" lat="63.0207083357" lon="9.05651944704">
		<tag k="name" v="Trollkjerringmyra" />
		<tag k="natural" v="wetland" />
		<tag k="ssr:stedsnr" v="95698" />
	</node>
	<node id="-87355" lat="62.9839638919" lon="8.71728055177">
		<tag k="name" v="Nedre Øyatrøa" />
		<tag k="place" v="locality" />
		<tag k="ssr:stedsnr" v="447858" />
	</node>
	<node id="-89399" lat="63.0064666623" lon="9.01276111323">
		<tag k="name" v="Morskogen" />
		<tag k="place" v="locality" />
		<tag k="ssr:stedsnr" v="95540" />
	</node>
	<node id="-89397" lat="63.0451722198" lon="9.06249166384">
		<tag k="name" v="Honnmyran" />
		<tag k="natural" v="wetland" />
		<tag k="ssr:stedsnr" v="95561" />
	</node>
	<node id="-89395" lat="63.0181333303" lon="8.94374443907">
		<tag k="name" v="Ellingslættet" />
		<tag k="natural" v="wetland" />
		<tag k="ssr:stedsnr" v="95480" />
	</node>
	<node id="-89392" lat="62.7683361082" lon="8.89616666727">
		<tag k="name" v="seterbakkmyra" />
		<tag k="natural" v="wetland" />
		<tag k="ssr:stedsnr" v="95291" />
	</node>
	<node id="-89385" lat="62.7991111073" lon="8.76102778398">
		<tag k="name" v="Springarbrekkvollen" />
		<tag k="place" v="locality" />
		<tag k="ssr:stedsnr" v="95227" />
	</node>
	<node id="-89379" lat="62.9250083319" lon="8.47048888394">
		<tag k="name" v="Asplimyra" />
		<tag k="natural" v="wetland" />
		<tag k="ssr:stedsnr" v="95066" />
	</node>
	<node id="-87326" lat="62.9822361106" lon="8.38796944287">
		<tag k="name" v="Vabakmyran" />
		<tag k="natural" v="wetland" />
		<tag k="ssr:stedsnr" v="217312" />
	</node>
	<node id="-89370" lat="62.9989666692" lon="8.64604722659">
		<tag k="name" v="Maslættet" />
		<tag k="natural" v="wetland" />
		<tag k="ssr:stedsnr" v="95321" />
	</node>
	<node id="-87317" lat="62.7871694436" lon="8.8209888895">
		<tag k="name" v="Myra" />
		<tag k="natural" v="wetland" />
		<tag k="ssr:stedsnr" v="217048" />
	</node>
	<node id="-87314" lat="62.8085416647" lon="8.78336387939">
		<tag k="name" v="Ura" />
		<tag k="natural" v="scree" />
		<tag k="ssr:stedsnr" v="217039" />
	</node>
	<node id="-88963" lat="62.9808805536" lon="8.53587777955">
		<tag k="name" v="Myrane" />
		<tag k="natural" v="wetland" />
		<tag k="ssr:stedsnr" v="885768" />
	</node>
	<node id="-89359" lat="63.0468416647" lon="8.83362223157">
		<tag k="landuse" v="meadow" />
		<tag k="name" v="Storslættet" />
		<tag k="ssr:stedsnr" v="81071" />
	</node>
	<node id="-87310" lat="63.0042444441" lon="8.84335278151">
		<tag k="name" v="Seterøya" />
		<tag k="natural" v="wetland" />
		<tag k="ssr:stedsnr" v="217025" />
	</node>
	<node id="-91008" lat="62.9977333306" lon="8.84994445376">
		<tag k="name" v="Brattlia" />
		<tag k="natural" v="wetland" />
		<tag k="ssr:stedsnr" v="763026" />
	</node>
	<node id="-87291" lat="63.0031472212" lon="8.74143612061">
		<tag k="name" v="Fagergjøta" />
		<tag k="natural" v="wetland" />
		<tag k="ssr:stedsnr" v="216344" />
	</node>
	<node id="-87286" lat="62.9363750028" lon="8.83035556199">
		<tag k="name" v="Storkurtholet" />
		<tag k="natural" v="wetland" />
		<tag k="ssr:stedsnr" v="216307" />
	</node>
	<node id="-87266" lat="62.9567111127" lon="8.67862777001">
		<tag k="name" v="Storslættet" />
		<tag k="place" v="locality" />
		<tag k="ssr:stedsnr" v="278949" />
	</node>
	<node id="-87248" lat="63.0502833341" lon="8.63401110684">
		<tag k="name" v="Myran" />
		<tag k="natural" v="wetland" />
		<tag k="ssr:stedsnr" v="278814" />
	</node>
	<node id="-87237" lat="62.9862583363" lon="8.53551389547">
		<tag k="name" v="Bollimyra" />
		<tag k="natural" v="wetland" />
		<tag k="ssr:stedsnr" v="278508" />
	</node>
	<node id="-89284" lat="63.0135666689" lon="8.5835805475">
		<tag k="name" v="Steinbakkmyra" />
		<tag k="natural" v="wetland" />
		<tag k="ssr:stedsnr" v="35539" />
	</node>
	<node id="-87230" lat="62.9165972264" lon="8.47910555433">
		<tag k="name" v="Nellane" />
		<tag k="place" v="locality" />
		<tag k="ssr:stedsnr" v="278462" />
	</node>
	<node id="-89277" lat="62.8634777776" lon="8.63111389828">
		<tag k="name" v="Skrøå" />
		<tag k="natural" v="scree" />
		<tag k="ssr:stedsnr" v="35498" />
	</node>
	<node id="-87227" lat="62.9082333372" lon="8.48344722916">
		<tag k="name" v="Tørmyra" />
		<tag k="natural" v="wetland" />
		<tag k="ssr:stedsnr" v="278452" />
	</node>
	<node id="-87226" lat="63.0037999975" lon="8.6710277727">
		<tag k="name" v="Langmyra" />
		<tag k="natural" v="wetland" />
		<tag k="ssr:stedsnr" v="278447" />
	</node>
	<node id="-87214" lat="63.0148000015" lon="8.50687223037">
		<tag k="name" v="Belemyran" />
		<tag k="natural" v="wetland" />
		<tag k="ssr:stedsnr" v="278355" />
	</node>
	<node id="-89257" lat="63.1092749985" lon="8.86399721396">
		<tag k="name" v="Skjorta" />
		<tag k="place" v="locality" />
		<tag k="ssr:stedsnr" v="35278" />
	</node>
	<node id="-87202" lat="63.0500805583" lon="8.99344999505">
		<tag k="name" v="Krokekra" />
		<tag k="place" v="locality" />
		<tag k="ssr:stedsnr" v="278200" />
	</node>
	<node id="-89285" lat="63.0183055557" lon="8.55219443509">
		<tag k="name" v="Sommarfjøsvollen" />
		<tag k="place" v="locality" />
		<tag k="ssr:stedsnr" v="35545" />
	</node>
	<node id="-89243" lat="62.9109666678" lon="8.65389999454">
		<tag k="name" v="Engjan" />
		<tag k="natural" v="wetland" />
		<tag k="ssr:stedsnr" v="35118" />
	</node>
	<node id="-89239" lat="62.7862111131" lon="8.70912777546">
		<tag k="name" v="Bustmyra" />
		<tag k="natural" v="wetland" />
		<tag k="ssr:stedsnr" v="35102" />
	</node>
	<node id="-89625" lat="63.0119916642" lon="8.64681111684">
		<tag k="name" v="Frelekmyran" />
		<tag k="natural" v="wetland" />
		<tag k="ssr:stedsnr" v="156353" />
	</node>
	<node id="-87188" lat="63.0136222197" lon="8.51982776956">
		<tag k="name" v="Svensvollenga" />
		<tag k="place" v="locality" />
		<tag k="ssr:stedsnr" v="156223" />
	</node>
	<node id="-89234" lat="62.7961944434" lon="8.78193610709">
		<tag k="name" v="Fallmyra" />
		<tag k="natural" v="wetland" />
		<tag k="ssr:stedsnr" v="35052" />
	</node>
	<node id="-89230" lat="62.9954277758" lon="8.8627250008">
		<tag k="name" v="Midttrøa" />
		<tag k="place" v="locality" />
		<tag k="ssr:stedsnr" v="35010" />
	</node>
	<node id="-87181" lat="62.7943499967" lon="8.76910277939">
		<tag k="name" v="Storenga" />
		<tag k="place" v="locality" />
		<tag k="ssr:stedsnr" v="278081" />
	</node>
	<node id="-89224" lat="63.0847305581" lon="8.83814722041">
		<tag k="name" v="Aspalimyra" />
		<tag k="natural" v="wetland" />
		<tag k="ssr:stedsnr" v="34936" />
	</node>
	<node id="-87175" lat="63.0060944422" lon="8.82719721483">
		<tag k="name" v="Langmyra" />
		<tag k="natural" v="wetland" />
		<tag k="ssr:stedsnr" v="278021" />
	</node>
	<node id="-89214" lat="63.0563055568" lon="8.90657777062">
		<tag k="name" v="Gardmyran" />
		<tag k="natural" v="wetland" />
		<tag k="ssr:stedsnr" v="34887" />
	</node>
	<node id="-87156" lat="63.0324972187" lon="9.05955277099">
		<tag k="name" v="Kaldmyran" />
		<tag k="natural" v="wetland" />
		<tag k="ssr:stedsnr" v="277731" />
	</node>
	<node id="-89199" lat="63.0296611134" lon="9.03076943639">
		<tag k="name" v="Kaldmyran" />
		<tag k="natural" v="wetland" />
		<tag k="ssr:stedsnr" v="34701" />
	</node>
	<node id="-87149" lat="63.0725166628" lon="8.78412777905">
		<tag k="historic" v="shieling" />
		<tag k="name" v="Ytre Gammelsetra" />
		<tag k="place" v="locality" />
		<tag k="ssr:stedsnr" v="277944" />
	</node>
	<node id="-89194" lat="63.014630555" lon="9.06245556028">
		<tag k="name" v="Sverkeøya" />
		<tag k="place" v="locality" />
		<tag k="ssr:stedsnr" v="34672" />
	</node>
	<node id="-91239" lat="63.0012916681" lon="8.7071833337">
		<tag k="name" v="Liamyra" />
		<tag k="natural" v="wetland" />
		<tag k="ssr:stedsnr" v="824395" />
	</node>
	<node id="-91238" lat="62.9320861116" lon="8.73688332427">
		<tag k="name" v="Kuøya" />
		<tag k="place" v="locality" />
		<tag k="ssr:stedsnr" v="824392" />
	</node>
	<node id="-89189" lat="63.0464388916" lon="9.07203889707">
		<tag k="name" v="Flåsmyran" />
		<tag k="natural" v="wetland" />
		<tag k="ssr:stedsnr" v="34582" />
	</node>
	<node id="-91234" lat="63.0464111088" lon="8.41638056294">
		<tag k="name" v="Stormyran" />
		<tag k="natural" v="wetland" />
		<tag k="ssr:stedsnr" v="824372" />
	</node>
	<node id="-87136" lat="62.9817138872" lon="8.89186389336">
		<tag k="name" v="Skavråsmyra" />
		<tag k="natural" v="wetland" />
		<tag k="ssr:stedsnr" v="277561" />
	</node>
	<node id="-91230" lat="63.0219805513" lon="8.43337500362">
		<tag k="name" v="Bjønnamyra" />
		<tag k="natural" v="wetland" />
		<tag k="ssr:stedsnr" v="824359" />
	</node>
	<node id="-91227" lat="62.9918638903" lon="8.91408054726">
		<tag k="name" v="Øvermoan" />
		<tag k="natural" v="wetland" />
		<tag k="ssr:stedsnr" v="824187" />
	</node>
	<node id="-91225" lat="62.9624138881" lon="8.77233334182">
		<tag k="name" v="Flamyra" />
		<tag k="natural" v="wetland" />
		<tag k="ssr:stedsnr" v="824033" />
	</node>
	<node id="-91217" lat="62.8082944405" lon="8.73540278192">
		<tag k="name" v="Øygarden" />
		<tag k="place" v="locality" />
		<tag k="ssr:stedsnr" v="824090" />
	</node>
	<node id="-91214" lat="62.9312611111" lon="8.83449999901">
		<tag k="name" v="Storøyan" />
		<tag k="natural" v="wetland" />
		<tag k="ssr:stedsnr" v="824078" />
	</node>
	<node id="-89165" lat="62.9004194439" lon="9.00433056438">
		<tag k="name" v="Breiskarmyra" />
		<tag k="natural" v="wetland" />
		<tag k="ssr:stedsnr" v="34309" />
	</node>
	<node id="-87906" lat="62.9870694489" lon="8.62282778446">
		<tag k="name" v="Kobbsteinen" />
		<tag k="natural" v="stone" />
		<tag k="ssr:stedsnr" v="508855" />
	</node>
	<node id="-91209" lat="63.0510333376" lon="8.85608888891">
		<tag k="name" v="Langgjøta" />
		<tag k="natural" v="wetland" />
		<tag k="ssr:stedsnr" v="823950" />
	</node>
	<node id="-91207" lat="63.0604138916" lon="8.80749444916">
		<tag k="historic" v="shieling" />
		<tag k="name" v="Fagerfjellsetra" />
		<tag k="place" v="locality" />
		<tag k="ssr:stedsnr" v="823937" />
	</node>
	<node id="-87107" lat="62.9926222195" lon="8.69725278343">
		<tag k="name" v="Arnøya" />
		<tag k="place" v="locality" />
		<tag k="ssr:stedsnr" v="144031" />
	</node>
	<node id="-89151" lat="62.8100611096" lon="8.70209444798">
		<tag k="name" v="Faurskottet" />
		<tag k="natural" v="wetland" />
		<tag k="ssr:stedsnr" v="34242" />
	</node>
	<node id="-91194" lat="63.0113555514" lon="9.00725277744">
		<tag k="name" v="Kvilstokkmyra" />
		<tag k="natural" v="wetland" />
		<tag k="ssr:stedsnr" v="823542" />
	</node>
	<node id="-89143" lat="62.9001250041" lon="8.49370833058">
		<tag k="name" v="Grønnesøya" />
		<tag k="place" v="locality" />
		<tag k="ssr:stedsnr" v="34080" />
	</node>
	<node id="-89142" lat="62.8975666657" lon="8.58612777446">
		<tag k="name" v="Holtatrøa" />
		<tag k="place" v="locality" />
		<tag k="ssr:stedsnr" v="34078" />
	</node>
	<node id="-87093" lat="63.0607944448" lon="8.87559999229">
		<tag k="name" v="Fagermyran" />
		<tag k="natural" v="wetland" />
		<tag k="ssr:stedsnr" v="133613" />
	</node>
	<node id="-91179" lat="62.9471250025" lon="8.72949165997">
		<tag k="historic" v="shieling" />
		<tag k="name" v="Gammelsetra" />
		<tag k="place" v="locality" />
		<tag k="ssr:stedsnr" v="823377" />
	</node>
	<node id="-89128" lat="63.0344694446" lon="8.94475555757">
		<tag k="name" v="Solmyran" />
		<tag k="natural" v="wetland" />
		<tag k="ssr:stedsnr" v="24278" />
	</node>
	<node id="-91175" lat="62.7948083316" lon="8.76694999777">
		<tag k="name" v="Bjøråvollen" />
		<tag k="place" v="locality" />
		<tag k="ssr:stedsnr" v="823233" />
	</node>
	<node id="-89126" lat="62.9761583291" lon="8.99074722255">
		<tag k="name" v="Bollskavlen" />
		<tag k="place" v="locality" />
		<tag k="ssr:stedsnr" v="24191" />
	</node>
	<node id="-87072" lat="63.039258333" lon="8.80041388913">
		<tag k="landuse" v="meadow" />
		<tag k="name" v="Skarpslættet" />
		<tag k="ssr:stedsnr" v="267093" />
	</node>
	<node id="-89119" lat="63.0382388847" lon="8.94241389618">
		<tag k="landuse" v="meadow" />
		<tag k="name" v="Kråkslættet" />
		<tag k="ssr:stedsnr" v="24031" />
	</node>
	<node id="-87070" lat="62.9429888933" lon="8.73458889339">
		<tag k="name" v="Dammyra" />
		<tag k="natural" v="wetland" />
		<tag k="ssr:stedsnr" v="267077" />
	</node>
	<node id="-87068" lat="62.9378888908" lon="8.9931638882">
		<tag k="landuse" v="meadow" />
		<tag k="name" v="Litlslættet" />
		<tag k="ssr:stedsnr" v="267044" />
	</node>
	<node id="-87067" lat="62.9100277802" lon="9.01663056334">
		<tag k="landuse" v="meadow" />
		<tag k="name" v="Kjerringenga" />
		<tag k="ssr:stedsnr" v="267010" />
	</node>
	<node id="-89109" lat="62.9902277763" lon="8.68489721254">
		<tag k="name" v="Bøvrasmyran" />
		<tag k="natural" v="wetland" />
		<tag k="ssr:stedsnr" v="22067" />
	</node>
	<node id="-89087" lat="62.7882388854" lon="8.68591944082">
		<tag k="name" v="Ørsalmyran" />
		<tag k="natural" v="wetland" />
		<tag k="ssr:stedsnr" v="12384" />
	</node>
	<node id="-87037" lat="63.0188416694" lon="8.54747778532">
		<tag k="name" v="Stormyra" />
		<tag k="natural" v="wetland" />
		<tag k="ssr:stedsnr" v="96805" />
	</node>
	<node id="-91131" lat="62.9909444449" lon="8.72544722144">
		<tag k="name" v="Svartåsmyra" />
		<tag k="natural" v="wetland" />
		<tag k="ssr:stedsnr" v="811813" />
	</node>
	<node id="-91127" lat="63.1077416643" lon="8.8949555494">
		<tag k="name" v="Stormyra" />
		<tag k="natural" v="wetland" />
		<tag k="ssr:stedsnr" v="809658" />
	</node>
	<node id="-87030" lat="63.0542472221" lon="8.44084166598">
		<tag k="name" v="Dikene" />
		<tag k="natural" v="wetland" />
		<tag k="ssr:stedsnr" v="96764" />
	</node>
	<node id="-87029" lat="62.9520805583" lon="8.46588334243">
		<tag k="name" v="Bærmyra" />
		<tag k="natural" v="wetland" />
		<tag k="ssr:stedsnr" v="96756" />
	</node>
	<node id="-87027" lat="62.9530611074" lon="8.58236112099">
		<tag k="name" v="Tjønnmyra" />
		<tag k="natural" v="wetland" />
		<tag k="ssr:stedsnr" v="96465" />
	</node>
	<node id="-87007" lat="62.7922694425" lon="8.80421667646">
		<tag k="name" v="Skrøå" />
		<tag k="natural" v="wetland" />
		<tag k="ssr:stedsnr" v="96061" />
	</node>
	<node id="-89052" lat="62.9445083299" lon="8.74713610566">
		<tag k="name" v="Svaen" />
		<tag k="place" v="locality" />
		<tag k="ssr:stedsnr" v="217361" />
	</node>
	<node id="-87000" lat="62.8825416663" lon="8.641575004">
		<tag k="name" v="Stormyra" />
		<tag k="natural" v="wetland" />
		<tag k="ssr:stedsnr" v="96112" />
	</node>
	<node id="-89047" lat="62.9998694408" lon="8.94990000282">
		<tag k="name" v="Fanøya" />
		<tag k="place" v="locality" />
		<tag k="ssr:stedsnr" v="217192" />
	</node>
	<node id="-86996" lat="62.9923305551" lon="8.81158333573">
		<tag k="name" v="Breimyra" />
		<tag k="natural" v="wetland" />
		<tag k="ssr:stedsnr" v="96023" />
	</node>
	<node id="-89040" lat="63.0142722243" lon="8.64198611146">
		<tag k="name" v="Nessamyran" />
		<tag k="natural" v="wetland" />
		<tag k="ssr:stedsnr" v="945344" />
	</node>
	<node id="-86991" lat="62.9908027741" lon="8.78208889426">
		<tag k="name" v="Bjønnamyra" />
		<tag k="natural" v="wetland" />
		<tag k="ssr:stedsnr" v="95867" />
	</node>
	<node id="-89038" lat="62.9415722208" lon="8.66798333154">
		<tag k="historic" v="shieling" />
		<tag k="name" v="Åssetra" />
		<tag k="place" v="locality" />
		<tag k="ssr:stedsnr" v="945340" />
	</node>
	<node id="-89037" lat="63.0191166664" lon="8.64996389816">
		<tag k="name" v="Kjekkelråene" />
		<tag k="natural" v="wetland" />
		<tag k="ssr:stedsnr" v="945337" />
	</node>
	<node id="-86987" lat="63.001411112" lon="8.93913333365">
		<tag k="name" v="Porsmyran" />
		<tag k="natural" v="wetland" />
		<tag k="ssr:stedsnr" v="95912" />
	</node>
	<node id="-86984" lat="63.0254333291" lon="8.76647222794">
		<tag k="historic" v="shieling" />
		<tag k="name" v="Øyatrøsetra" />
		<tag k="place" v="locality" />
		<tag k="ssr:stedsnr" v="95767" />
	</node>
	<node id="-89030" lat="62.8977888922" lon="8.99745555583">
		<tag k="name" v="Stygglimyran" />
		<tag k="natural" v="wetland" />
		<tag k="ssr:stedsnr" v="945316" />
	</node>
	<node id="-89028" lat="63.0277055585" lon="8.40106111463">
		<tag k="name" v="Bjønnamyra" />
		<tag k="natural" v="wetland" />
		<tag k="ssr:stedsnr" v="945313" />
	</node>
	<node id="-86979" lat="63.0118638883" lon="9.01418332348">
		<tag k="name" v="Omkløvmyra" />
		<tag k="natural" v="wetland" />
		<tag k="ssr:stedsnr" v="95508" />
	</node>
	<node id="-86975" lat="63.0092888884" lon="9.07204165883">
		<tag k="name" v="Berrmyran" />
		<tag k="natural" v="wetland" />
		<tag k="ssr:stedsnr" v="95670" />
	</node>
	<node id="-89021" lat="63.0291777777" lon="8.87740833192">
		<tag k="name" v="Krokan" />
		<tag k="natural" v="wetland" />
		<tag k="ssr:stedsnr" v="945205" />
	</node>
	<node id="-89015" lat="62.9002583308" lon="9.24397222199">
		<tag k="name" v="Årgrovkjølen" />
		<tag k="natural" v="wetland" />
		<tag k="ssr:stedsnr" v="935229" />
	</node>
	<node id="-89012" lat="63.0521222249" lon="8.966299998">
		<tag k="landuse" v="meadow" />
		<tag k="name" v="Blomslættet" />
		<tag k="ssr:stedsnr" v="934204" />
	</node>
	<node id="-86963" lat="62.9022277774" lon="8.74370833591">
		<tag k="name" v="Kariteigen" />
		<tag k="place" v="locality" />
		<tag k="ssr:stedsnr" v="95356" />
	</node>
	<node id="-86962" lat="62.9962027746" lon="8.73043610288">
		<tag k="name" v="Grøsslættet" />
		<tag k="natural" v="wetland" />
		<tag k="ssr:stedsnr" v="95354" />
	</node>
	<node id="-91056" lat="62.9812694444" lon="8.39798610637">
		<tag k="name" v="Skarmyra" />
		<tag k="natural" v="wetland" />
		<tag k="ssr:stedsnr" v="763751" />
	</node>
	<node id="-89007" lat="62.9920277764" lon="8.63537499986">
		<tag k="name" v="Glæremstrøa" />
		<tag k="place" v="locality" />
		<tag k="ssr:stedsnr" v="933953" />
	</node>
	<node id="-86955" lat="62.9416888925" lon="9.05991666943">
		<tag k="name" v="Kringlåtfonna" />
		<tag k="natural" v="glacier" />
		<tag k="ssr:stedsnr" v="255047" />
	</node>
	<node id="-91049" lat="63.0525055578" lon="8.71258054592">
		<tag k="alt_name" v="Rørøyane" />
		<tag k="name" v="Rørøyan" />
		<tag k="natural" v="wetland" />
		<tag k="ssr:stedsnr" v="763409" />
	</node>
	<node id="-88992" lat="63.0414944459" lon="8.61710277912">
		<tag k="name" v="Smørholslætta" />
		<tag k="natural" v="wetland" />
		<tag k="ssr:stedsnr" v="217270" />
	</node>
	<node id="-91039" lat="63.0484111086" lon="8.43490556411">
		<tag k="name" v="Snømyrane" />
		<tag k="natural" v="wetland" />
		<tag k="ssr:stedsnr" v="763358" />
	</node>
	<node id="-88987" lat="63.0838500017" lon="8.86036943887">
		<tag k="name" v="Liøya" />
		<tag k="natural" v="wetland" />
		<tag k="ssr:stedsnr" v="217236" />
	</node>
	<node id="-88985" lat="63.023472222" lon="8.76801943501">
		<tag k="name" v="Krokan" />
		<tag k="natural" v="wetland" />
		<tag k="ssr:stedsnr" v="217234" />
	</node>
	<node id="-91031" lat="63.0552388889" lon="8.62661389437">
		<tag k="name" v="Nasamyran" />
		<tag k="natural" v="wetland" />
		<tag k="ssr:stedsnr" v="763286" />
	</node>
	<node id="-91026" lat="63.0587277809" lon="8.9089083345">
		<tag k="name" v="Krokan" />
		<tag k="natural" v="wetland" />
		<tag k="ssr:stedsnr" v="763267" />
	</node>
	<node id="-88977" lat="62.7824249983" lon="8.89566945075">
		<tag k="name" v="Skrøå" />
		<tag k="natural" v="scree" />
		<tag k="ssr:stedsnr" v="217060" />
	</node>
	<node id="-91024" lat="63.0714777758" lon="8.81102223039">
		<tag k="name" v="Ratøya" />
		<tag k="natural" v="wetland" />
		<tag k="ssr:stedsnr" v="763260" />
	</node>
	<node id="-91021" lat="62.9979694447" lon="8.97523611787">
		<tag k="name" v="Kjeøra" />
		<tag k="place" v="locality" />
		<tag k="ssr:stedsnr" v="763229" />
	</node>
	<node id="-91020" lat="63.0149555563" lon="9.00616110407">
		<tag k="name" v="Kaldmyra" />
		<tag k="natural" v="wetland" />
		<tag k="ssr:stedsnr" v="763227" />
	</node>
	<node id="-91019" lat="63.0009472218" lon="8.89871387903">
		<tag k="name" v="Krokmyra" />
		<tag k="natural" v="wetland" />
		<tag k="ssr:stedsnr" v="763218" />
	</node>
	<node id="-91017" lat="62.9971500002" lon="9.14060277752">
		<tag k="name" v="Kukmyran" />
		<tag k="natural" v="wetland" />
		<tag k="ssr:stedsnr" v="763196" />
	</node>
	<node id="-88967" lat="62.9970749959" lon="8.65274443837">
		<tag k="name" v="Breimyra" />
		<tag k="natural" v="wetland" />
		<tag k="ssr:stedsnr" v="885915" />
	</node>
	<node id="-91013" lat="62.9859499985" lon="8.36406944058">
		<tag k="name" v="Krokan" />
		<tag k="natural" v="wetland" />
		<tag k="ssr:stedsnr" v="763169" />
	</node>
	<node id="-86915" lat="63.0299000032" lon="8.41748332649">
		<tag k="name" v="Kvilesteinen" />
		<tag k="natural" v="stone" />
		<tag k="ssr:stedsnr" v="35417" />
	</node>
	<node id="-88962" lat="62.9913333295" lon="8.52372778229">
		<tag k="name" v="Kringla" />
		<tag k="natural" v="wetland" />
		<tag k="ssr:stedsnr" v="885765" />
	</node>
	<node id="-86912" lat="63.0219944442" lon="8.79122222372">
		<tag k="historic" v="shieling" />
		<tag k="name" v="Gammelsetra" />
		<tag k="place" v="locality" />
		<tag k="ssr:stedsnr" v="34758" />
	</node>
	<node id="-88950" lat="62.8980277768" lon="8.59045554588">
		<tag k="name" v="Vargmyra" />
		<tag k="natural" v="wetland" />
		<tag k="ssr:stedsnr" v="885416" />
	</node>
	<node id="-90116" lat="63.0095916636" lon="8.69514445128">
		<tag k="name" v="Flammamyran" />
		<tag k="natural" v="wetland" />
		<tag k="ssr:stedsnr" v="398332" />
	</node>
	<node id="-90990" lat="63.0820055513" lon="8.95488055068">
		<tag k="historic" v="shieling" />
		<tag k="name" v="Gammelseterstølen" />
		<tag k="place" v="locality" />
		<tag k="ssr:stedsnr" v="762888" />
	</node>
	<node id="-90978" lat="63.045647221" lon="9.02519444635">
		<tag k="name" v="Larsholet" />
		<tag k="natural" v="wetland" />
		<tag k="ssr:stedsnr" v="762574" />
	</node>
	<node id="-86878" lat="62.9830138886" lon="8.51958333566">
		<tag k="name" v="Gråora" />
		<tag k="natural" v="scree" />
		<tag k="ssr:stedsnr" v="217769" />
	</node>
	<node id="-86866" lat="62.9729666655" lon="8.67583055787">
		<tag k="name" v="Naustmyra" />
		<tag k="place" v="locality" />
		<tag k="ssr:stedsnr" v="217857" />
	</node>
	<node id="-88910" lat="62.9452722204" lon="8.67517777761">
		<tag k="name" v="Grønkrokan" />
		<tag k="natural" v="wetland" />
		<tag k="ssr:stedsnr" v="884367" />
	</node>
	<node id="-88909" lat="62.9988333324" lon="8.75404722754">
		<tag k="name" v="Prestgjøta" />
		<tag k="natural" v="wetland" />
		<tag k="ssr:stedsnr" v="884365" />
	</node>
	<node id="-90956" lat="62.795077777" lon="8.70518056146">
		<tag k="name" v="Ospakrullura" />
		<tag k="natural" v="scree" />
		<tag k="ssr:stedsnr" v="762235" />
	</node>
	<node id="-90955" lat="62.9993249968" lon="8.64068055614">
		<tag k="name" v="Bjønnalaugen" />
		<tag k="natural" v="wetland" />
		<tag k="ssr:stedsnr" v="762357" />
	</node>
	<node id="-90950" lat="62.8074916693" lon="8.79103611174">
		<tag k="name" v="Haukarsteinen" />
		<tag k="natural" v="stone" />
		<tag k="ssr:stedsnr" v="762294" />
	</node>
	<node id="-90939" lat="62.9074805577" lon="9.21845000918">
		<tag k="name" v="Kufjellkjølen" />
		<tag k="natural" v="wetland" />
		<tag k="ssr:stedsnr" v="753777" />
	</node>
	<node id="-88887" lat="62.9111916674" lon="8.47306944807">
		<tag k="name" v="Blautevja" />
		<tag k="natural" v="wetland" />
		<tag k="ssr:stedsnr" v="884056" />
	</node>
	<node id="-90929" lat="62.9528944473" lon="9.00287778521">
		<tag k="landuse" v="meadow" />
		<tag k="name" v="Fjellslættet" />
		<tag k="ssr:stedsnr" v="752132" />
	</node>
	<node id="-88852" lat="63.05731111" lon="8.90658610145">
		<tag k="landuse" v="quarry" />
		<tag k="name" v="Berggruva" />
		<tag k="ssr:stedsnr" v="945913" />
	</node>
	<node id="-88842" lat="62.9584722185" lon="8.69886666338">
		<tag k="name" v="Stormyra" />
		<tag k="natural" v="wetland" />
		<tag k="ssr:stedsnr" v="945877" />
	</node>
	<node id="-88823" lat="63.0612166681" lon="8.61474722553">
		<tag k="name" v="Krokan" />
		<tag k="natural" v="wetland" />
		<tag k="ssr:stedsnr" v="945770" />
	</node>
	<node id="-90844" lat="63.0263916672" lon="8.82151666048">
		<tag k="historic" v="shieling" />
		<tag k="name" v="Karisetermarka" />
		<tag k="place" v="locality" />
		<tag k="ssr:stedsnr" v="641758" />
	</node>
	<node id="-88795" lat="63.0064861136" lon="8.96480000537">
		<tag k="name" v="Kvilstokken" />
		<tag k="natural" v="wetland" />
		<tag k="ssr:stedsnr" v="945518" />
	</node>
	<node id="-88793" lat="63.0105777736" lon="8.9677083237">
		<tag k="name" v="Lomtjønnmyran" />
		<tag k="natural" v="wetland" />
		<tag k="ssr:stedsnr" v="945496" />
	</node>
	<node id="-90838" lat="63.0381777784" lon="9.02316389657">
		<tag k="name" v="Blomslættet" />
		<tag k="natural" v="wetland" />
		<tag k="ssr:stedsnr" v="641699" />
	</node>
	<node id="-88784" lat="62.9759194404" lon="8.98841111703">
		<tag k="name" v="Bollsteinen" />
		<tag k="natural" v="stone" />
		<tag k="ssr:stedsnr" v="945430" />
	</node>
	<node id="-88782" lat="62.9961638922" lon="9.00473611888">
		<tag k="name" v="Øyalimyra" />
		<tag k="natural" v="wetland" />
		<tag k="ssr:stedsnr" v="945424" />
	</node>
	<node id="-90823" lat="62.9980305592" lon="8.96868054971">
		<tag k="name" v="Mogjerdet" />
>>>>>>> e1d4bc35ff8a6074a6f2e91616a996b547c36f15
		<tag k="place" v="locality" />
		<tag k="ssr:stedsnr" v="641525" />
	</node>
<<<<<<< HEAD
	<node lat="62.922853323175275" lon="8.846874484316627" id="-2889">
		<tag k="historic" v="shieling" />
		<tag k="name" v="Midtsetra" />
		<tag k="place" v="locality" />
		<tag k="ssr:stedsnr" v="740052" />
	</node>
	<node lat="62.9993249968244" lon="8.640680556143893" id="-2932">
		<tag k="name" v="Bjønnalaugen" />
		<tag k="natural" v="wetland" />
		<tag k="ssr:stedsnr" v="762357" />
	</node>
	<node lat="62.78977499929393" lon="8.775811113336294" id="-2936">
		<tag k="name" v="Brekkurdan" />
		<tag k="natural" v="scree" />
		<tag k="ssr:stedsnr" v="762256" />
	</node>
	<node lat="62.80749166927593" lon="8.791036111744212" id="-2937">
		<tag k="name" v="Haukarsteinen" />
		<tag k="natural" v="stone" />
		<tag k="ssr:stedsnr" v="762294" />
	</node>
	<node lat="63.00094722184486" lon="8.898713879033902" id="-2954">
		<tag k="name" v="Krokmyra" />
		<tag k="natural" v="wetland" />
		<tag k="ssr:stedsnr" v="763218" />
	</node>
	<node lat="63.01495555632617" lon="9.00616110406762" id="-2955">
		<tag k="name" v="Kaldmyra" />
		<tag k="natural" v="wetland" />
		<tag k="ssr:stedsnr" v="763227" />
	</node>
	<node lat="62.99796944471252" lon="8.975236117873873" id="-2956">
		<tag k="name" v="Kjeøra" />
		<tag k="place" v="locality" />
		<tag k="ssr:stedsnr" v="763229" />
	</node>
	<node lat="62.941733335327555" lon="8.480227779650836" id="-2964">
		<tag k="name" v="Middagssteinen" />
		<tag k="natural" v="stone" />
		<tag k="ssr:stedsnr" v="763307" />
	</node>
	<node lat="63.048411108626446" lon="8.434905564109636" id="-2969">
		<tag k="name" v="Snømyrane" />
		<tag k="natural" v="wetland" />
		<tag k="ssr:stedsnr" v="763358" />
	</node>
	<node lat="63.05250555779304" lon="8.712580545915374" id="-2974">
		<tag k="alt_name" v="Rørøyane" />
		<tag k="name" v="Rørøyan" />
		<tag k="natural" v="wetland" />
		<tag k="ssr:stedsnr" v="763409" />
	</node>
	<node lat="62.90036944335715" lon="8.562386110092534" id="-2976">
		<tag k="landuse" v="meadow" />
		<tag k="name" v="Mobøen" />
		<tag k="ssr:stedsnr" v="763422" />
	</node>
	<node lat="62.98126944435011" lon="8.397986106374566" id="-2980">
		<tag k="name" v="Skarmyra" />
		<tag k="natural" v="wetland" />
		<tag k="ssr:stedsnr" v="763751" />
	</node>
	<node lat="63.005361113660314" lon="8.633691666750464" id="-2991">
		<tag k="name" v="Fagermyrane" />
		<tag k="natural" v="wetland" />
		<tag k="ssr:stedsnr" v="764852" />
	</node>
	<node lat="62.99094444492569" lon="8.725447221435576" id="-3028">
		<tag k="name" v="Svartåsmyra" />
		<tag k="natural" v="wetland" />
		<tag k="ssr:stedsnr" v="811813" />
	</node>
	<node lat="62.79480833161471" lon="8.766949997769236" id="-3040">
		<tag k="name" v="Bjøråvollen" />
		<tag k="place" v="locality" />
		<tag k="ssr:stedsnr" v="823233" />
	</node>
	<node lat="62.78640555975494" lon="8.761319440515104" id="-3041">
		<tag k="name" v="Bjøråøyan" />
		<tag k="natural" v="wetland" />
		<tag k="ssr:stedsnr" v="823236" />
	</node>
	<node lat="62.913438885539996" lon="8.844244447820254" id="-3051">
		<tag k="name" v="Storskrøå" />
=======
	<node id="-90822" lat="63.0032166625" lon="8.99853610229">
		<tag k="name" v="Skjermoøra" />
		<tag k="place" v="locality" />
		<tag k="ssr:stedsnr" v="641524" />
	</node>
	<node id="-88772" lat="62.9913972267" lon="8.73779166616">
		<tag k="name" v="Kvennhusøyan" />
		<tag k="natural" v="wetland" />
		<tag k="ssr:stedsnr" v="945367" />
	</node>
	<node id="-88770" lat="62.9459055564" lon="8.68346111913">
		<tag k="name" v="Skarmyran" />
		<tag k="natural" v="wetland" />
		<tag k="ssr:stedsnr" v="945363" />
	</node>
	<node id="-88766" lat="63.0213555562" lon="8.75925277581">
		<tag k="name" v="Krokane" />
		<tag k="natural" v="wetland" />
		<tag k="ssr:stedsnr" v="945355" />
	</node>
	<node id="-90813" lat="62.9410555552" lon="9.07892500776">
		<tag k="name" v="Kringlotfonna" />
		<tag k="place" v="locality" />
		<tag k="ssr:stedsnr" v="641444" />
	</node>
	<node id="-87839" lat="62.9973416671" lon="8.69394723134">
		<tag k="name" v="Rønningan" />
		<tag k="place" v="locality" />
		<tag k="ssr:stedsnr" v="448005" />
	</node>
	<node id="-88759" lat="62.7970444442" lon="8.82201389109">
		<tag k="name" v="Storsvaet" />
		<tag k="place" v="locality" />
		<tag k="ssr:stedsnr" v="945295" />
	</node>
	<node id="-88754" lat="62.7909611134" lon="8.72988889425">
		<tag k="name" v="Sørliurden" />
		<tag k="natural" v="scree" />
		<tag k="ssr:stedsnr" v="945280" />
	</node>
	<node id="-90801" lat="62.9821750027" lon="8.55415000866">
		<tag k="name" v="Martageilen" />
		<tag k="place" v="locality" />
		<tag k="ssr:stedsnr" v="641392" />
	</node>
	<node id="-88750" lat="62.7884472203" lon="8.829852781">
		<tag k="name" v="Stakkmyra" />
		<tag k="natural" v="wetland" />
		<tag k="ssr:stedsnr" v="945267" />
	</node>
	<node id="-88746" lat="62.7960277805" lon="8.72621943683">
		<tag k="name" v="Kringlåsmyra" />
		<tag k="natural" v="wetland" />
		<tag k="ssr:stedsnr" v="945250" />
	</node>
	<node id="-90793" lat="62.9093999989" lon="8.74261110867">
		<tag k="name" v="Steinteigen" />
		<tag k="place" v="locality" />
		<tag k="ssr:stedsnr" v="641360" />
	</node>
	<node id="-90792" lat="62.9080555582" lon="8.72756110519">
		<tag k="name" v="Tjønnmyra" />
		<tag k="natural" v="wetland" />
		<tag k="ssr:stedsnr" v="641358" />
	</node>
	<node id="-88743" lat="63.0027250035" lon="9.00229445156">
		<tag k="name" v="Storøra" />
		<tag k="place" v="locality" />
		<tag k="ssr:stedsnr" v="945201" />
	</node>
	<node id="-88742" lat="63.0013527756" lon="8.99653334119">
		<tag k="name" v="Litløra" />
		<tag k="place" v="locality" />
		<tag k="ssr:stedsnr" v="945199" />
	</node>
	<node id="-90789" lat="63.0171444476" lon="8.65311666555">
		<tag k="name" v="Høggjøta" />
		<tag k="natural" v="wetland" />
		<tag k="ssr:stedsnr" v="641339" />
	</node>
	<node id="-88740" lat="63.0018944433" lon="8.90609722469">
		<tag k="name" v="Småmyra" />
		<tag k="natural" v="wetland" />
		<tag k="ssr:stedsnr" v="945181" />
	</node>
	<node id="-90787" lat="63.0265555562" lon="8.73645832735">
		<tag k="name" v="Orrenlimyran" />
		<tag k="natural" v="wetland" />
		<tag k="ssr:stedsnr" v="641321" />
	</node>
	<node id="-90786" lat="63.031569444" lon="8.7481055507">
		<tag k="name" v="Hallsteinslættet" />
		<tag k="natural" v="wetland" />
		<tag k="ssr:stedsnr" v="641317" />
	</node>
	<node id="-88737" lat="63.0120416675" lon="9.09609166434">
		<tag k="name" v="Langmyra" />
		<tag k="natural" v="wetland" />
		<tag k="ssr:stedsnr" v="945162" />
	</node>
	<node id="-90784" lat="62.7775611118" lon="8.88734444774">
		<tag k="name" v="Kvennhusmyran" />
		<tag k="natural" v="wetland" />
		<tag k="ssr:stedsnr" v="641306" />
	</node>
	<node id="-90224" lat="63.0094027765" lon="9.03038332543">
		<tag k="name" v="Øyan" />
>>>>>>> e1d4bc35ff8a6074a6f2e91616a996b547c36f15
		<tag k="place" v="locality" />
		<tag k="ssr:stedsnr" v="399212" />
	</node>
<<<<<<< HEAD
	<node lat="62.947125002503235" lon="8.729491659967806" id="-3062">
		<tag k="historic" v="shieling" />
		<tag k="name" v="Gammelsetra" />
		<tag k="place" v="locality" />
		<tag k="ssr:stedsnr" v="823377" />
	</node>
	<node lat="63.01713055683449" lon="9.091711118678068" id="-3065">
		<tag k="name" v="Tømmerskartrøa" />
		<tag k="place" v="locality" />
		<tag k="ssr:stedsnr" v="823509" />
	</node>
	<node lat="62.9878666673725" lon="8.942572214427821" id="-3068">
		<tag k="name" v="Middagsmyra" />
		<tag k="natural" v="wetland" />
		<tag k="ssr:stedsnr" v="823568" />
	</node>
	<node lat="62.986655552419265" lon="8.831877775130636" id="-3074">
		<tag k="name" v="Porten" />
		<tag k="place" v="locality" />
		<tag k="ssr:stedsnr" v="824005" />
	</node>
	<node lat="63.00387500032719" lon="8.859936116277344" id="-3076">
		<tag k="name" v="Dalamyra" />
		<tag k="natural" v="wetland" />
		<tag k="ssr:stedsnr" v="824026" />
	</node>
	<node lat="63.081449999280075" lon="8.817219437870941" id="-3081">
		<tag k="historic" v="shieling" />
		<tag k="name" v="Gammelsetra" />
		<tag k="place" v="locality" />
		<tag k="ssr:stedsnr" v="823915" />
	</node>
	<node lat="63.046411108808144" lon="8.416380562938715" id="-3094">
		<tag k="name" v="Stormyran" />
		<tag k="natural" v="wetland" />
		<tag k="ssr:stedsnr" v="824372" />
	</node>
	<node lat="62.99982222049906" lon="8.818833340202248" id="-3097">
		<tag k="name" v="Langmyra" />
		<tag k="natural" v="wetland" />
		<tag k="ssr:stedsnr" v="824265" />
	</node>
	<node lat="62.95998333632885" lon="8.872461105454438" id="-3177">
		<tag k="name" v="Rognholtet" />
		<tag k="place" v="locality" />
		<tag k="ssr:stedsnr" v="935194" />
	</node>
	<node lat="62.992027776418446" lon="8.635374999864709" id="-3179">
		<tag k="name" v="Glæremstrøa" />
		<tag k="place" v="locality" />
		<tag k="ssr:stedsnr" v="933953" />
	</node>
	<node lat="62.91119166736413" lon="8.473069448072447" id="-3188">
		<tag k="name" v="Blautevja" />
		<tag k="natural" v="wetland" />
		<tag k="ssr:stedsnr" v="884056" />
	</node>
	<node lat="62.99883333243042" lon="8.75404722754289" id="-3206">
		<tag k="name" v="Prestgjøta" />
		<tag k="natural" v="wetland" />
		<tag k="ssr:stedsnr" v="884365" />
	</node>
	<node lat="62.89707500421035" lon="9.016969454164464" id="-3216">
		<tag k="name" v="Kløftslættmyran" />
		<tag k="natural" v="wetland" />
		<tag k="ssr:stedsnr" v="884450" />
	</node>
	<node lat="63.01192500331157" lon="8.870088889455731" id="-3228">
		<tag k="name" v="Fjellmyra" />
		<tag k="natural" v="wetland" />
		<tag k="ssr:stedsnr" v="884705" />
	</node>
	<node lat="62.8980277768284" lon="8.590455545880143" id="-3258">
		<tag k="name" v="Vargmyra" />
		<tag k="natural" v="wetland" />
		<tag k="ssr:stedsnr" v="885416" />
	</node>
	<node lat="62.99707499585708" lon="8.652744438374018" id="-3266">
		<tag k="name" v="Breimyra" />
		<tag k="natural" v="wetland" />
		<tag k="ssr:stedsnr" v="885915" />
	</node>
	<node lat="62.90025833080823" lon="9.243972221986406" id="-3275">
		<tag k="name" v="Årgrovkjølen" />
		<tag k="natural" v="wetland" />
		<tag k="ssr:stedsnr" v="935229" />
	</node>
	<node lat="63.052122224890766" lon="8.966299997999979" id="-3297">
		<tag k="landuse" v="meadow" />
		<tag k="name" v="Blomslættet" />
		<tag k="ssr:stedsnr" v="934204" />
	</node>
	<node lat="62.941308333797046" lon="8.865330553582012" id="-3303">
		<tag k="historic" v="shieling" />
		<tag k="name" v="Tverrådalssetra" />
		<tag k="place" v="locality" />
		<tag k="ssr:stedsnr" v="936184" />
	</node>
	<node lat="63.001894443297104" lon="8.90609722469346" id="-3310">
		<tag k="name" v="Småmyra" />
		<tag k="natural" v="wetland" />
		<tag k="ssr:stedsnr" v="945181" />
	</node>
	<node lat="63.001352775581694" lon="8.996533341191846" id="-3312">
		<tag k="name" v="Litløra" />
		<tag k="place" v="locality" />
		<tag k="ssr:stedsnr" v="945199" />
	</node>
	<node lat="63.002725003463645" lon="9.002294451555155" id="-3313">
		<tag k="name" v="Storøra" />
		<tag k="place" v="locality" />
		<tag k="ssr:stedsnr" v="945201" />
	</node>
	<node lat="63.02770555853662" lon="8.401061114628286" id="-3316">
		<tag k="name" v="Bjønnamyra" />
		<tag k="natural" v="wetland" />
		<tag k="ssr:stedsnr" v="945313" />
	</node>
	<node lat="63.01911666636737" lon="8.649963898161852" id="-3320">
		<tag k="name" v="Kjekkelråene" />
		<tag k="natural" v="wetland" />
		<tag k="ssr:stedsnr" v="945337" />
	</node>
	<node lat="62.94157222083423" lon="8.667983331538933" id="-3321">
		<tag k="historic" v="shieling" />
		<tag k="name" v="Åssetra" />
		<tag k="place" v="locality" />
		<tag k="ssr:stedsnr" v="945340" />
	</node>
	<node lat="63.02917777772825" lon="8.87740833192136" id="-3323">
		<tag k="name" v="Krokan" />
		<tag k="natural" v="wetland" />
		<tag k="ssr:stedsnr" v="945205" />
	</node>
	<node lat="62.79096111335705" lon="8.729888894250612" id="-3326">
		<tag k="name" v="Sørliurden" />
		<tag k="natural" v="scree" />
		<tag k="ssr:stedsnr" v="945280" />
	</node>
	<node lat="62.79704444419916" lon="8.822013891085462" id="-3331">
		<tag k="name" v="Storsvaet" />
		<tag k="place" v="locality" />
		<tag k="ssr:stedsnr" v="945295" />
	</node>
	<node lat="62.97591944039681" lon="8.98841111702747" id="-3337">
		<tag k="name" v="Bollsteinen" />
		<tag k="natural" v="stone" />
		<tag k="ssr:stedsnr" v="945430" />
	</node>
	<node lat="63.057311110031506" lon="8.906586101446239" id="-3367">
		<tag k="landuse" v="quarry" />
		<tag k="name" v="Berggruva" />
		<tag k="ssr:stedsnr" v="945913" />
	</node>
	<node lat="62.78823888536212" lon="8.685919440820022" id="-3410">
		<tag k="name" v="Ørsalmyran" />
		<tag k="natural" v="wetland" />
		<tag k="ssr:stedsnr" v="12384" />
	</node>
	<node lat="62.99022777628192" lon="8.684897212536129" id="-3428">
		<tag k="name" v="Bøvrasmyran" />
		<tag k="natural" v="wetland" />
		<tag k="ssr:stedsnr" v="22067" />
	</node>
	<node lat="63.01356666885065" lon="8.583580547501553" id="-3447">
		<tag k="name" v="Steinbakkmyra" />
		<tag k="natural" v="wetland" />
		<tag k="ssr:stedsnr" v="35539" />
	</node>
	<node lat="63.01830555573429" lon="8.552194435089024" id="-3448">
		<tag k="name" v="Sommarfjøsvollen" />
		<tag k="place" v="locality" />
		<tag k="ssr:stedsnr" v="35545" />
	</node>
	<node lat="62.897566665690704" lon="8.586127774463113" id="-3453">
		<tag k="name" v="Holtatrøa" />
		<tag k="place" v="locality" />
		<tag k="ssr:stedsnr" v="34078" />
	</node>
	<node lat="62.90012500413003" lon="8.493708330583315" id="-3454">
		<tag k="name" v="Grønnesøya" />
		<tag k="place" v="locality" />
		<tag k="ssr:stedsnr" v="34080" />
	</node>
	<node lat="62.77493332917719" lon="8.803163881071077" id="-3459">
		<tag k="name" v="Tresteinan" />
		<tag k="natural" v="stone" />
		<tag k="ssr:stedsnr" v="34263" />
	</node>
	<node lat="62.810061109555974" lon="8.70209444798429" id="-3463">
		<tag k="name" v="Faurskottet" />
		<tag k="natural" v="wetland" />
		<tag k="ssr:stedsnr" v="34242" />
	</node>
	<node lat="63.017675001949456" lon="8.982283329666512" id="-3488">
		<tag k="name" v="Liaslættet" />
=======
	<node id="-87493" lat="63.0054027801" lon="8.94514721417">
		<tag k="historic" v="shieling" />
		<tag k="name" v="Gammelsetra" />
		<tag k="place" v="locality" />
		<tag k="ssr:stedsnr" v="459507" />
	</node>
	<node id="-90776" lat="62.9392194428" lon="8.83437499851">
		<tag k="name" v="Larsslættmyra" />
		<tag k="natural" v="wetland" />
		<tag k="ssr:stedsnr" v="641280" />
	</node>
	<node id="-88721" lat="62.9211944455" lon="8.46970278238">
		<tag k="name" v="Eppingstykket" />
		<tag k="place" v="locality" />
		<tag k="ssr:stedsnr" v="945074" />
	</node>
	<node id="-88716" lat="62.8961138847" lon="8.58593889251">
		<tag k="name" v="Svartpollen" />
		<tag k="natural" v="wetland" />
		<tag k="ssr:stedsnr" v="945055" />
	</node>
	<node id="-90760" lat="62.8030750009" lon="8.73973055334">
		<tag k="name" v="Arntstykket" />
		<tag k="place" v="locality" />
		<tag k="ssr:stedsnr" v="641214" />
	</node>
	<node id="-90748" lat="62.9862972257" lon="8.89388332841">
		<tag k="name" v="Orrmyra" />
		<tag k="natural" v="wetland" />
		<tag k="ssr:stedsnr" v="641170" />
	</node>
	<node id="-88699" lat="62.887816663" lon="8.59034721413">
		<tag k="name" v="Ytterbøen" />
		<tag k="place" v="locality" />
		<tag k="ssr:stedsnr" v="944071" />
	</node>
	<node id="-88692" lat="62.9413083338" lon="8.86533055358">
		<tag k="historic" v="shieling" />
		<tag k="name" v="Tverrådalssetra" />
		<tag k="place" v="locality" />
		<tag k="ssr:stedsnr" v="936184" />
	</node>
	<node id="-88689" lat="62.9599833363" lon="8.87246110545">
		<tag k="name" v="Rognholtet" />
		<tag k="place" v="locality" />
		<tag k="ssr:stedsnr" v="935194" />
	</node>
	<node id="-90729" lat="62.7792138899" lon="8.8936944464">
		<tag k="name" v="Skrøå" />
		<tag k="natural" v="scree" />
		<tag k="ssr:stedsnr" v="641043" />
	</node>
	<node id="-90715" lat="62.8159378827" lon="9.19628244299">
		<tag k="name" v="Stormyra" />
		<tag k="natural" v="wetland" />
		<tag k="ssr:stedsnr" v="632337" />
	</node>
	<node id="-88663" lat="62.9998222205" lon="8.8188333402">
		<tag k="name" v="Langmyra" />
		<tag k="natural" v="wetland" />
		<tag k="ssr:stedsnr" v="824265" />
	</node>
	<node id="-90708" lat="63.1157861152" lon="8.94493888426">
		<tag k="landuse" v="meadow" />
		<tag k="name" v="Baklislættet" />
		<tag k="ssr:stedsnr" v="631240" />
	</node>
	<node id="-88655" lat="63.0038750003" lon="8.85993611628">
		<tag k="name" v="Dalamyra" />
		<tag k="natural" v="wetland" />
		<tag k="ssr:stedsnr" v="824026" />
	</node>
	<node id="-88653" lat="62.9866555524" lon="8.83187777513">
		<tag k="name" v="Porten" />
		<tag k="place" v="locality" />
		<tag k="ssr:stedsnr" v="824005" />
	</node>
	<node id="-90698" lat="62.9937388913" lon="8.65671944388">
		<tag k="name" v="Kringelåsmyra" />
		<tag k="natural" v="wetland" />
		<tag k="ssr:stedsnr" v="629694" />
	</node>
	<node id="-88647" lat="63.0814499993" lon="8.81721943787">
		<tag k="historic" v="shieling" />
		<tag k="name" v="Gammelsetra" />
		<tag k="place" v="locality" />
		<tag k="ssr:stedsnr" v="823915" />
	</node>
	<node id="-90694" lat="62.9894805533" lon="8.69781111455">
		<tag k="name" v="Syltmyran" />
		<tag k="natural" v="wetland" />
		<tag k="ssr:stedsnr" v="629088" />
	</node>
	<node id="-89184" lat="63.0176750019" lon="8.98228332967">
		<tag k="name" v="Liaslættet" />
		<tag k="natural" v="wetland" />
		<tag k="ssr:stedsnr" v="34533" />
	</node>
	<node id="-88637" lat="62.9988388933" lon="9.02053889869">
		<tag k="name" v="Tristeinan" />
		<tag k="natural" v="stone" />
		<tag k="ssr:stedsnr" v="823659" />
	</node>
	<node id="-88633" lat="62.9878666674" lon="8.94257221443">
		<tag k="name" v="Middagsmyra" />
		<tag k="natural" v="wetland" />
		<tag k="ssr:stedsnr" v="823568" />
	</node>
	<node id="-88630" lat="63.0171305568" lon="9.09171111868">
		<tag k="name" v="Tømmerskartrøa" />
		<tag k="place" v="locality" />
		<tag k="ssr:stedsnr" v="823509" />
	</node>
	<node id="-90205" lat="62.8027027768" lon="8.76345000862">
		<tag k="name" v="Stormyra" />
		<tag k="natural" v="wetland" />
		<tag k="ssr:stedsnr" v="399083" />
	</node>
	<node id="-88617" lat="62.9134388855" lon="8.84424444782">
		<tag k="name" v="Storskrøå" />
		<tag k="place" v="locality" />
		<tag k="ssr:stedsnr" v="823308" />
	</node>
	<node id="-88610" lat="63.0576083366" lon="8.90331388809">
		<tag k="name" v="Ytre Krokan" />
		<tag k="natural" v="wetland" />
		<tag k="ssr:stedsnr" v="216897" />
	</node>
	<node id="-90646" lat="63.0213444454" lon="8.45552499919">
		<tag k="historic" v="shieling" />
		<tag k="name" v="Nysetra" />
		<tag k="place" v="locality" />
		<tag k="ssr:stedsnr" v="581787" />
	</node>
	<node id="-90641" lat="62.9976361079" lon="8.63996110516">
		<tag k="name" v="Sandsteinen" />
		<tag k="natural" v="wetland" />
		<tag k="ssr:stedsnr" v="581908" />
	</node>
	<node id="-90609" lat="63.0238111086" lon="9.09060833546">
		<tag k="name" v="Kvamsøya" />
		<tag k="place" v="locality" />
		<tag k="ssr:stedsnr" v="581153" />
	</node>
	<node id="-90607" lat="62.9735583343" lon="8.39411943891">
		<tag k="name" v="Sesvikmyra" />
		<tag k="natural" v="wetland" />
		<tag k="ssr:stedsnr" v="581338" />
	</node>
	<node id="-90604" lat="63.0134527759" lon="8.52666944856">
		<tag k="name" v="Pestykket" />
		<tag k="place" v="locality" />
		<tag k="ssr:stedsnr" v="581293" />
	</node>
	<node id="-90600" lat="62.9829194487" lon="8.79913889189">
		<tag k="name" v="Kuøra" />
		<tag k="place" v="locality" />
		<tag k="ssr:stedsnr" v="581015" />
	</node>
	<node id="-90597" lat="62.9939722188" lon="8.85991944128">
		<tag k="name" v="Øran" />
		<tag k="place" v="locality" />
		<tag k="ssr:stedsnr" v="581005" />
	</node>
	<node id="-90593" lat="62.9407083352" lon="8.79974445304">
		<tag k="name" v="Kringlåtmyra" />
>>>>>>> e1d4bc35ff8a6074a6f2e91616a996b547c36f15
		<tag k="natural" v="wetland" />
		<tag k="ssr:stedsnr" v="580819" />
	</node>
<<<<<<< HEAD
	<node lat="63.04643889156445" lon="9.072038897074234" id="-3494">
		<tag k="name" v="Flåsmyran" />
		<tag k="natural" v="wetland" />
		<tag k="ssr:stedsnr" v="34582" />
	</node>
	<node lat="63.01463055501463" lon="9.062455560281524" id="-3496">
		<tag k="name" v="Sverkeøya" />
		<tag k="place" v="locality" />
		<tag k="ssr:stedsnr" v="34672" />
	</node>
	<node lat="63.008383337386924" lon="8.867975005888695" id="-3505">
		<tag k="name" v="Kornslættet" />
		<tag k="natural" v="wetland" />
		<tag k="ssr:stedsnr" v="34727" />
	</node>
	<node lat="63.02199444420134" lon="8.791222223718723" id="-3509">
		<tag k="historic" v="shieling" />
		<tag k="name" v="Gammelsetra" />
		<tag k="place" v="locality" />
		<tag k="ssr:stedsnr" v="34758" />
	</node>
	<node lat="63.056305556848415" lon="8.906577770618314" id="-3517">
		<tag k="name" v="Gardmyran" />
		<tag k="natural" v="wetland" />
		<tag k="ssr:stedsnr" v="34887" />
	</node>
	<node lat="63.0847305581378" lon="8.8381472204063" id="-3525">
		<tag k="name" v="Aspalimyra" />
		<tag k="natural" v="wetland" />
		<tag k="ssr:stedsnr" v="34936" />
	</node>
	<node lat="62.99542777583906" lon="8.86272500080457" id="-3527">
		<tag k="name" v="Midttrøa" />
		<tag k="place" v="locality" />
		<tag k="ssr:stedsnr" v="35010" />
	</node>
	<node lat="62.796194443403714" lon="8.781936107094431" id="-3531">
		<tag k="name" v="Fallmyra" />
		<tag k="natural" v="wetland" />
		<tag k="ssr:stedsnr" v="35052" />
	</node>
	<node lat="63.109274998536186" lon="8.8639972139581" id="-3533">
		<tag k="name" v="Skjorta" />
		<tag k="place" v="locality" />
		<tag k="ssr:stedsnr" v="35278" />
	</node>
	<node lat="62.86347777762756" lon="8.631113898277395" id="-3554">
		<tag k="name" v="Skrøå" />
		<tag k="natural" v="scree" />
		<tag k="ssr:stedsnr" v="35498" />
	</node>
	<node lat="63.04684166469568" lon="8.833622231570805" id="-3617">
		<tag k="landuse" v="meadow" />
		<tag k="name" v="Storslættet" />
		<tag k="ssr:stedsnr" v="81071" />
	</node>
	<node lat="62.92500833188216" lon="8.470488883936119" id="-3637">
		<tag k="name" v="Asplimyra" />
		<tag k="natural" v="wetland" />
		<tag k="ssr:stedsnr" v="95066" />
	</node>
	<node lat="62.768336108213106" lon="8.896166667270316" id="-3648">
		<tag k="name" v="seterbakkmyra" />
		<tag k="natural" v="wetland" />
		<tag k="ssr:stedsnr" v="95291" />
	</node>
	<node lat="62.99620277461052" lon="8.73043610287832" id="-3652">
		<tag k="name" v="Grøsslættet" />
		<tag k="natural" v="wetland" />
		<tag k="ssr:stedsnr" v="95354" />
	</node>
	<node lat="62.90222777744291" lon="8.743708335914999" id="-3653">
		<tag k="name" v="Kariteigen" />
		<tag k="place" v="locality" />
		<tag k="ssr:stedsnr" v="95356" />
	</node>
	<node lat="63.006466662255036" lon="9.01276111323315" id="-3658">
		<tag k="name" v="Morskogen" />
		<tag k="place" v="locality" />
		<tag k="ssr:stedsnr" v="95540" />
	</node>
	<node lat="63.02070833571178" lon="9.05651944703716" id="-3666">
		<tag k="name" v="Trollkjerringmyra" />
		<tag k="natural" v="wetland" />
		<tag k="ssr:stedsnr" v="95698" />
	</node>
	<node lat="62.795236111427876" lon="8.746013894271513" id="-3673">
		<tag k="name" v="Skarmyra" />
		<tag k="natural" v="wetland" />
		<tag k="ssr:stedsnr" v="96092" />
	</node>
	<node lat="62.992330555132284" lon="8.81158333573162" id="-3676">
		<tag k="name" v="Breimyra" />
		<tag k="natural" v="wetland" />
		<tag k="ssr:stedsnr" v="96023" />
	</node>
	<node lat="62.989613886865776" lon="8.79943333382122" id="-3677">
		<tag k="name" v="Langmyra" />
		<tag k="natural" v="wetland" />
		<tag k="ssr:stedsnr" v="96026" />
	</node>
	<node lat="62.88254166632179" lon="8.641575004001195" id="-3683">
		<tag k="name" v="Stormyra" />
=======
	<node id="-90585" lat="63.0934083349" lon="8.90013612019">
		<tag k="name" v="Øygardsflata" />
		<tag k="natural" v="wetland" />
		<tag k="ssr:stedsnr" v="580973" />
	</node>
	<node id="-88524" lat="62.9417333353" lon="8.48022777965">
		<tag k="name" v="Middagssteinen" />
		<tag k="natural" v="stone" />
		<tag k="ssr:stedsnr" v="763307" />
	</node>
	<node id="-88521" lat="62.7805166636" lon="8.85910278169">
		<tag k="name" v="Endreøya" />
		<tag k="natural" v="wetland" />
		<tag k="ssr:stedsnr" v="763088" />
	</node>
	<node id="-88517" lat="62.8064083356" lon="8.74977222153">
		<tag k="name" v="Myran" />
		<tag k="natural" v="wetland" />
		<tag k="ssr:stedsnr" v="763069" />
	</node>
	<node id="-88516" lat="62.789047224" lon="8.69528332605">
		<tag k="name" v="Langmyra" />
		<tag k="natural" v="wetland" />
		<tag k="ssr:stedsnr" v="763067" />
	</node>
	<node id="-90562" lat="62.828583332" lon="8.75272499077">
		<tag k="name" v="Tatersteinan" />
		<tag k="natural" v="stone" />
		<tag k="ssr:stedsnr" v="580396" />
	</node>
	<node id="-90560" lat="62.9245222183" lon="8.64472221287">
		<tag k="historic" v="shieling" />
		<tag k="name" v="Trettsetra" />
		<tag k="place" v="locality" />
		<tag k="ssr:stedsnr" v="580376" />
	</node>
	<node id="-88511" lat="63.0745333336" lon="8.82150833701">
		<tag k="name" v="Slåtteøya" />
		<tag k="natural" v="wetland" />
		<tag k="ssr:stedsnr" v="762931" />
	</node>
	<node id="-90558" lat="62.9502333332" lon="8.67760833238">
		<tag k="name" v="Sørmyrane" />
		<tag k="natural" v="wetland" />
		<tag k="ssr:stedsnr" v="580350" />
	</node>
	<node id="-88507" lat="63.0164333344" lon="9.12413888685">
		<tag k="name" v="Gammelsetermyra" />
		<tag k="natural" v="wetland" />
		<tag k="ssr:stedsnr" v="762670" />
	</node>
	<node id="-90546" lat="62.8298333339" lon="8.87305833615">
		<tag k="name" v="Bekkekrokan" />
		<tag k="natural" v="wetland" />
		<tag k="ssr:stedsnr" v="580246" />
	</node>
	<node id="-88497" lat="62.7897749993" lon="8.77581111334">
		<tag k="name" v="Brekkurdan" />
		<tag k="natural" v="scree" />
		<tag k="ssr:stedsnr" v="762256" />
	</node>
	<node id="-90544" lat="62.8945972214" lon="9.00884721497">
		<tag k="name" v="Kløftslættmyran" />
		<tag k="natural" v="wetland" />
		<tag k="ssr:stedsnr" v="580274" />
	</node>
	<node id="-90542" lat="62.9285666633" lon="8.83936667533">
		<tag k="name" v="Kvennrotmyran" />
		<tag k="natural" v="wetland" />
		<tag k="ssr:stedsnr" v="580270" />
	</node>
	<node id="-88479" lat="62.893991671" lon="9.24565277621">
		<tag k="name" v="Årgrovkjølen" />
		<tag k="natural" v="wetland" />
		<tag k="ssr:stedsnr" v="752248" />
	</node>
	<node id="-88474" lat="63.0281166674" lon="8.69357778385">
		<tag k="name" v="Nordmarka" />
		<tag k="place" v="locality" />
		<tag k="ssr:stedsnr" v="740821" />
	</node>
	<node id="-90514" lat="62.9931694446" lon="8.64882222768">
		<tag k="name" v="Annsagura" />
		<tag k="natural" v="scree" />
		<tag k="ssr:stedsnr" v="568477" />
	</node>
	<node id="-89155" lat="62.7749333292" lon="8.80316388107">
		<tag k="name" v="Tresteinan" />
		<tag k="natural" v="stone" />
		<tag k="ssr:stedsnr" v="34263" />
	</node>
	<node id="-88434" lat="62.9817527785" lon="8.54565832981">
		<tag k="name" v="Storvollen" />
		<tag k="place" v="locality" />
		<tag k="ssr:stedsnr" v="702414" />
	</node>
	<node id="-88433" lat="62.9512444449" lon="8.55119167635">
		<tag k="historic" v="shieling" />
		<tag k="name" v="Engellisetra" />
		<tag k="old_name" v="Engelisetra" />
		<tag k="place" v="locality" />
		<tag k="ssr:stedsnr" v="702405" />
	</node>
	<node id="-90480" lat="62.9082305593" lon="8.63576945197">
		<tag k="name" v="Haugamyra" />
>>>>>>> e1d4bc35ff8a6074a6f2e91616a996b547c36f15
		<tag k="natural" v="wetland" />
		<tag k="ssr:stedsnr" v="557278" />
	</node>
<<<<<<< HEAD
	<node lat="62.986824997792816" lon="8.396144440974037" id="-3699">
		<tag k="name" v="Setermyran" />
		<tag k="natural" v="wetland" />
		<tag k="ssr:stedsnr" v="96331" />
	</node>
	<node lat="63.029386109142614" lon="8.45465555485679" id="-3702">
		<tag k="name" v="Isakteigen" />
		<tag k="place" v="locality" />
		<tag k="ssr:stedsnr" v="96351" />
	</node>
	<node lat="62.91434999697718" lon="8.517477776863238" id="-3707">
		<tag k="historic" v="shieling" />
		<tag k="name" v="Grønnessetra" />
		<tag k="place" v="locality" />
		<tag k="ssr:stedsnr" v="96437" />
	</node>
	<node lat="62.9520805583111" lon="8.46588334243371" id="-3712">
		<tag k="name" v="Bærmyra" />
		<tag k="natural" v="wetland" />
		<tag k="ssr:stedsnr" v="96756" />
	</node>
	<node lat="63.06079444481373" lon="8.875599992289652" id="-3741">
		<tag k="name" v="Fagermyran" />
		<tag k="natural" v="wetland" />
		<tag k="ssr:stedsnr" v="133613" />
	</node>
	<node lat="63.04342222071815" lon="8.934355548546254" id="-3752">
		<tag k="name" v="Høgmyran" />
		<tag k="natural" v="wetland" />
		<tag k="ssr:stedsnr" v="133601" />
	</node>
	<node lat="62.99262221951991" lon="8.697252783428874" id="-3766">
		<tag k="name" v="Arnøya" />
		<tag k="place" v="locality" />
		<tag k="ssr:stedsnr" v="144031" />
	</node>
	<node lat="62.99011388802513" lon="8.652049993169042" id="-3767">
		<tag k="name" v="Bøvrasrøtet" />
		<tag k="place" v="locality" />
		<tag k="ssr:stedsnr" v="144374" />
	</node>
	<node lat="62.780936112328945" lon="8.935205550534262" id="-3785">
		<tag k="name" v="Tortskrøå" />
		<tag k="natural" v="scree" />
		<tag k="ssr:stedsnr" v="155342" />
	</node>
	<node lat="62.986833335955446" lon="8.845258335423631" id="-3797">
		<tag k="name" v="Kvitsteinan" />
		<tag k="natural" v="stone" />
		<tag k="ssr:stedsnr" v="155844" />
	</node>
	<node lat="63.013622219671696" lon="8.519827769562188" id="-3801">
		<tag k="name" v="Svensvollenga" />
		<tag k="place" v="locality" />
		<tag k="ssr:stedsnr" v="156223" />
	</node>
	<node lat="62.997336106743894" lon="8.949886103600532" id="-3823">
		<tag k="name" v="Storekra" />
		<tag k="place" v="locality" />
		<tag k="ssr:stedsnr" v="156180" />
	</node>
	<node lat="63.005869447840645" lon="8.4320388965882" id="-3831">
		<tag k="historic" v="shieling" />
		<tag k="name" v="Seterstølen" />
		<tag k="place" v="locality" />
		<tag k="ssr:stedsnr" v="156292" />
	</node>
	<node lat="63.00656666776655" lon="8.652058329841394" id="-3839">
		<tag k="name" v="Dammyra" />
		<tag k="natural" v="wetland" />
		<tag k="ssr:stedsnr" v="156378" />
	</node>
	<node lat="62.937097221849086" lon="8.740377781326705" id="-3840">
		<tag k="name" v="Blekkamyran" />
		<tag k="natural" v="wetland" />
		<tag k="ssr:stedsnr" v="156379" />
	</node>
	<node lat="63.04449722093015" lon="8.582219440156544" id="-3853">
		<tag k="name" v="Mekveldssteinen" />
		<tag k="natural" v="stone" />
		<tag k="ssr:stedsnr" v="156244" />
	</node>
	<node lat="62.81672499750439" lon="8.672683333702016" id="-3855">
		<tag k="historic" v="shieling" />
		<tag k="name" v="Gammelsetra" />
		<tag k="place" v="locality" />
		<tag k="ssr:stedsnr" v="156247" />
	</node>
	<node lat="62.98999444664817" lon="8.91081111376604" id="-3872">
		<tag k="name" v="Ner Ellingmyra" />
		<tag k="natural" v="wetland" />
		<tag k="ssr:stedsnr" v="156568" />
	</node>
	<node lat="63.001791666866275" lon="9.007763894702686" id="-3873">
		<tag k="name" v="Solemsøra" />
		<tag k="place" v="locality" />
		<tag k="ssr:stedsnr" v="156572" />
	</node>
	<node lat="63.040811108758504" lon="9.021830546702063" id="-3875">
		<tag k="name" v="Bekkaslættet" />
		<tag k="natural" v="wetland" />
		<tag k="ssr:stedsnr" v="156608" />
	</node>
	<node lat="62.97278889234413" lon="8.516419435090556" id="-3880">
		<tag k="name" v="Korntrøa" />
		<tag k="place" v="locality" />
		<tag k="ssr:stedsnr" v="156785" />
	</node>
	<node lat="63.02923889135976" lon="8.823288897375358" id="-3881">
		<tag k="name" v="Svorkøyan" />
		<tag k="natural" v="wetland" />
		<tag k="ssr:stedsnr" v="156788" />
	</node>
	<node lat="63.057330558191744" lon="8.796447214959196" id="-3894">
		<tag k="historic" v="shieling" />
		<tag k="name" v="Øyagardsetra" />
		<tag k="place" v="locality" />
		<tag k="ssr:stedsnr" v="156955" />
	</node>
	<node lat="62.93777499783317" lon="9.06721110534876" id="-3907">
		<tag k="name" v="Dukfonna" />
		<tag k="natural" v="glacier" />
		<tag k="ssr:stedsnr" v="194059" />
	</node>
	<node lat="63.0006277818933" lon="8.739513888862112" id="-3956">
		<tag k="landuse" v="meadow" />
		<tag k="name" v="Grøslættet" />
		<tag k="ssr:stedsnr" v="206122" />
	</node>
	<node lat="63.05257874192879" lon="8.932266032135049" id="-3959">
		<tag k="landuse" v="meadow" />
		<tag k="name" v="Atterslættet" />
		<tag k="ssr:stedsnr" v="206260" />
	</node>
	<node lat="62.9363750027604" lon="8.830355561986295" id="-3971">
		<tag k="name" v="Storkurtholet" />
		<tag k="natural" v="wetland" />
		<tag k="ssr:stedsnr" v="216307" />
	</node>
	<node lat="62.78773611035641" lon="8.753433328323151" id="-3974">
		<tag k="name" v="Bjøråøyan" />
		<tag k="natural" v="wetland" />
		<tag k="ssr:stedsnr" v="216264" />
	</node>
	<node lat="63.00314722119285" lon="8.741436120610253" id="-3977">
		<tag k="name" v="Fagergjøta" />
		<tag k="natural" v="wetland" />
		<tag k="ssr:stedsnr" v="216344" />
	</node>
	<node lat="63.00480278168429" lon="8.958722228081834" id="-3996">
		<tag k="name" v="Vidslættet" />
		<tag k="natural" v="wetland" />
		<tag k="ssr:stedsnr" v="216541" />
	</node>
	<node lat="63.01369722557851" lon="8.991911109265725" id="-3997">
		<tag k="name" v="Seggamyra" />
		<tag k="natural" v="wetland" />
		<tag k="ssr:stedsnr" v="216544" />
	</node>
	<node lat="62.98436388479865" lon="8.927933323580435" id="-3998">
		<tag k="name" v="Ytter Gravvøttu" />
		<tag k="natural" v="wetland" />
		<tag k="ssr:stedsnr" v="216559" />
	</node>
	<node lat="63.0576083366472" lon="8.903313888087785" id="-4009">
		<tag k="name" v="Ytre Krokan" />
		<tag k="natural" v="wetland" />
		<tag k="ssr:stedsnr" v="216897" />
	</node>
	<node lat="62.993636107407625" lon="8.99773888860839" id="-4021">
		<tag k="name" v="Småøyan" />
		<tag k="natural" v="wetland" />
		<tag k="ssr:stedsnr" v="217157" />
	</node>
	<node lat="62.99200000248183" lon="8.848447217462374" id="-4022">
		<tag k="name" v="Fættan" />
		<tag k="place" v="locality" />
		<tag k="ssr:stedsnr" v="217027" />
	</node>
	<node lat="62.8085416647364" lon="8.783363879390444" id="-4025">
		<tag k="name" v="Ura" />
		<tag k="natural" v="scree" />
		<tag k="ssr:stedsnr" v="217039" />
	</node>
	<node lat="62.7871694436314" lon="8.820988889497265" id="-4028">
		<tag k="name" v="Myra" />
		<tag k="natural" v="wetland" />
		<tag k="ssr:stedsnr" v="217048" />
	</node>
	<node lat="62.78242499833998" lon="8.89566945074772" id="-4032">
		<tag k="name" v="Skrøå" />
		<tag k="natural" v="scree" />
		<tag k="ssr:stedsnr" v="217060" />
	</node>
	<node lat="62.999869440805035" lon="8.949900002824666" id="-4038">
		<tag k="name" v="Fanøya" />
		<tag k="place" v="locality" />
		<tag k="ssr:stedsnr" v="217192" />
	</node>
	<node lat="62.99775555755096" lon="8.928969440399683" id="-4039">
		<tag k="name" v="Vidøra" />
		<tag k="place" v="locality" />
		<tag k="ssr:stedsnr" v="217194" />
	</node>
	<node lat="63.023472222008095" lon="8.768019435014244" id="-4044">
		<tag k="name" v="Krokan" />
		<tag k="natural" v="wetland" />
		<tag k="ssr:stedsnr" v="217234" />
	</node>
	<node lat="63.08385000168459" lon="8.860369438873908" id="-4046">
		<tag k="name" v="Liøya" />
		<tag k="natural" v="wetland" />
		<tag k="ssr:stedsnr" v="217236" />
	</node>
	<node lat="63.04149444588794" lon="8.61710277911651" id="-4051">
		<tag k="name" v="Smørholslætta" />
		<tag k="natural" v="wetland" />
		<tag k="ssr:stedsnr" v="217270" />
	</node>
	<node lat="62.94450832985181" lon="8.74713610565911" id="-4055">
		<tag k="name" v="Svaen" />
		<tag k="place" v="locality" />
		<tag k="ssr:stedsnr" v="217361" />
	</node>
	<node lat="62.98301388856166" lon="8.519583335660986" id="-4075">
		<tag k="name" v="Gråora" />
		<tag k="natural" v="scree" />
		<tag k="ssr:stedsnr" v="217769" />
	</node>
	<node lat="62.97296666551277" lon="8.675830557866021" id="-4079">
		<tag k="name" v="Naustmyra" />
		<tag k="place" v="locality" />
		<tag k="ssr:stedsnr" v="217857" />
	</node>
	<node lat="63.00379999750692" lon="8.671027772699055" id="-4095">
		<tag k="name" v="Langmyra" />
		<tag k="natural" v="wetland" />
		<tag k="ssr:stedsnr" v="278447" />
	</node>
	<node lat="62.9082333371625" lon="8.483447229161886" id="-4096">
		<tag k="name" v="Tørmyra" />
		<tag k="natural" v="wetland" />
		<tag k="ssr:stedsnr" v="278452" />
	</node>
	<node lat="62.887011115580066" lon="8.546169445284301" id="-4098">
		<tag k="name" v="Midtiøra" />
		<tag k="place" v="locality" />
		<tag k="ssr:stedsnr" v="278458" />
	</node>
	<node lat="62.91659722637357" lon="8.479105554334193" id="-4099">
		<tag k="name" v="Nellane" />
		<tag k="place" v="locality" />
		<tag k="ssr:stedsnr" v="278462" />
	</node>
	<node lat="62.986258336269294" lon="8.53551389547441" id="-4101">
		<tag k="name" v="Bollimyra" />
		<tag k="natural" v="wetland" />
		<tag k="ssr:stedsnr" v="278508" />
	</node>
	<node lat="62.981713887189834" lon="8.891863893364798" id="-4125">
		<tag k="name" v="Skavråsmyra" />
		<tag k="natural" v="wetland" />
		<tag k="ssr:stedsnr" v="277561" />
	</node>
	<node lat="63.07251666280698" lon="8.78412777905334" id="-4150">
		<tag k="historic" v="shieling" />
		<tag k="name" v="Ytre Gammelsetra" />
		<tag k="place" v="locality" />
		<tag k="ssr:stedsnr" v="277944" />
	</node>
	<node lat="63.0500805582731" lon="8.993449995046962" id="-4165">
		<tag k="name" v="Krokekra" />
		<tag k="place" v="locality" />
		<tag k="ssr:stedsnr" v="278200" />
	</node>
	<node lat="63.01480000148543" lon="8.506872230366286" id="-4177">
		<tag k="name" v="Belemyran" />
		<tag k="natural" v="wetland" />
		<tag k="ssr:stedsnr" v="278355" />
	</node>
	<node lat="63.05028333406134" lon="8.634011106841536" id="-4185">
		<tag k="name" v="Myran" />
		<tag k="natural" v="wetland" />
		<tag k="ssr:stedsnr" v="278814" />
	</node>
	<node lat="62.95671111273767" lon="8.678627770007628" id="-4198">
		<tag k="name" v="Storslættet" />
		<tag k="place" v="locality" />
		<tag k="ssr:stedsnr" v="278949" />
	</node>
	<node lat="62.89675277865115" lon="8.52772776830245" id="-4213">
		<tag k="name" v="Haugelimyra" />
		<tag k="natural" v="wetland" />
		<tag k="ssr:stedsnr" v="315279" />
	</node>
	<node lat="63.03941111260948" lon="8.70373888762175" id="-4225">
		<tag k="name" v="Løålikjølen" />
		<tag k="natural" v="wetland" />
		<tag k="ssr:stedsnr" v="315839" />
	</node>
	<node lat="62.93561111341068" lon="8.439327770641867" id="-4260">
		<tag k="historic" v="shieling" />
		<tag k="name" v="Litlesetra" />
		<tag k="place" v="locality" />
		<tag k="ssr:stedsnr" v="337086" />
	</node>
	<node lat="62.99620833108349" lon="8.875783326882438" id="-4278">
		<tag k="name" v="Geilan" />
		<tag k="place" v="locality" />
		<tag k="ssr:stedsnr" v="338007" />
	</node>
	<node lat="62.99589444341159" lon="8.937961114426113" id="-4281">
		<tag k="name" v="Måsøra" />
		<tag k="place" v="locality" />
		<tag k="ssr:stedsnr" v="338123" />
	</node>
	<node lat="62.956324995642014" lon="8.982047228760024" id="-4283">
		<tag k="name" v="Bakmyran" />
		<tag k="natural" v="wetland" />
		<tag k="ssr:stedsnr" v="338129" />
	</node>
	<node lat="62.908758335203025" lon="8.639027772316958" id="-4296">
		<tag k="name" v="Stormyra" />
		<tag k="natural" v="wetland" />
		<tag k="ssr:stedsnr" v="338086" />
	</node>
	<node lat="63.000563888" lon="8.669747219634592" id="-4302">
		<tag k="name" v="Grovmyra" />
		<tag k="natural" v="wetland" />
		<tag k="ssr:stedsnr" v="338329" />
	</node>
	<node lat="62.88309444861602" lon="8.605647212425216" id="-4306">
		<tag k="name" v="Rabbtrøa" />
		<tag k="place" v="locality" />
		<tag k="ssr:stedsnr" v="338340" />
	</node>
	<node lat="62.997747224310764" lon="8.93500833778121" id="-4308">
		<tag k="name" v="Moøya" />
		<tag k="place" v="locality" />
		<tag k="ssr:stedsnr" v="338156" />
	</node>
	<node lat="63.03962777648816" lon="8.962183327598565" id="-4309">
		<tag k="name" v="Solmyran" />
		<tag k="natural" v="wetland" />
		<tag k="ssr:stedsnr" v="338159" />
	</node>
	<node lat="62.99966111451043" lon="8.995586117838636" id="-4310">
		<tag k="name" v="Snippen" />
		<tag k="place" v="locality" />
		<tag k="ssr:stedsnr" v="338161" />
	</node>
	<node lat="63.090505552544464" lon="8.870505561801027" id="-4311">
		<tag k="name" v="Kartmyra" />
		<tag k="natural" v="wetland" />
		<tag k="ssr:stedsnr" v="338189" />
	</node>
	<node lat="62.793224997694175" lon="8.784002785856888" id="-4313">
		<tag k="name" v="Tjønnmyran" />
		<tag k="natural" v="wetland" />
		<tag k="ssr:stedsnr" v="338265" />
	</node>
	<node lat="63.026061108758604" lon="8.436144440698657" id="-4318">
		<tag k="name" v="Fagervollsteinen" />
		<tag k="natural" v="stone" />
		<tag k="ssr:stedsnr" v="338276" />
	</node>
	<node lat="63.00450000246357" lon="9.121816669633233" id="-4336">
		<tag k="name" v="Fjellmyran" />
		<tag k="natural" v="wetland" />
		<tag k="ssr:stedsnr" v="338470" />
	</node>
	<node lat="63.000566667147005" lon="8.944602781554499" id="-4341">
		<tag k="name" v="Sommarfjøstrøa" />
		<tag k="place" v="locality" />
		<tag k="ssr:stedsnr" v="338488" />
	</node>
	<node lat="63.00593611295045" lon="8.924841665179278" id="-4343">
		<tag k="name" v="Litlslættet" />
		<tag k="natural" v="wetland" />
		<tag k="ssr:stedsnr" v="338491" />
	</node>
	<node lat="63.02103889274655" lon="9.03657777131094" id="-4346">
		<tag k="name" v="Hundkammarvøttu" />
		<tag k="natural" v="wetland" />
		<tag k="ssr:stedsnr" v="338700" />
	</node>
	<node lat="63.069833331564006" lon="9.044366666997075" id="-4355">
		<tag k="name" v="Fiskbekk-krokan" />
		<tag k="natural" v="wetland" />
		<tag k="ssr:stedsnr" v="338576" />
	</node>
	<node lat="62.98152221907294" lon="8.541499993949724" id="-4359">
		<tag k="name" v="Sjurekra" />
		<tag k="place" v="locality" />
		<tag k="ssr:stedsnr" v="338762" />
	</node>
	<node lat="63.09679444360255" lon="8.891641661241705" id="-4373">
		<tag k="name" v="Gruvesteinan" />
		<tag k="natural" v="stone" />
		<tag k="ssr:stedsnr" v="338975" />
	</node>
	<node lat="63.00154999791466" lon="8.632316660043392" id="-4374">
		<tag k="name" v="Ivasmyra" />
		<tag k="natural" v="wetland" />
		<tag k="ssr:stedsnr" v="339834" />
	</node>
	<node lat="62.964876775507605" lon="8.782155775113463" id="-4398">
		<tag k="historic" v="shieling" />
		<tag k="name" v="Øyasetra" />
		<tag k="place" v="locality" />
		<tag k="ssr:stedsnr" v="376460" />
	</node>
	<node lat="62.98896666243394" lon="8.665355546005225" id="-4427">
		<tag k="name" v="Stordiket" />
		<tag k="natural" v="wetland" />
		<tag k="ssr:stedsnr" v="387375" />
	</node>
	<node lat="62.972205559604774" lon="8.870455547856785" id="-4436">
		<tag k="name" v="Raudmelen" />
		<tag k="place" v="locality" />
		<tag k="ssr:stedsnr" v="388185" />
	</node>
	<node lat="62.80131110679438" lon="8.728419452134634" id="-4447">
		<tag k="name" v="Brennmyra" />
		<tag k="natural" v="wetland" />
		<tag k="ssr:stedsnr" v="398238" />
	</node>
	<node lat="62.7808472191071" lon="8.86535555785226" id="-4453">
		<tag k="name" v="Storøyskogen" />
		<tag k="natural" v="wetland" />
		<tag k="ssr:stedsnr" v="398259" />
	</node>
	<node lat="62.781438888137124" lon="8.850969440641439" id="-4454">
		<tag k="name" v="Hardholten" />
		<tag k="natural" v="wetland" />
		<tag k="ssr:stedsnr" v="398262" />
	</node>
	<node lat="62.90963888840052" lon="8.64736389521599" id="-4468">
		<tag k="name" v="Tuvvollen" />
		<tag k="place" v="locality" />
		<tag k="ssr:stedsnr" v="398397" />
	</node>
	<node lat="63.04119166787156" lon="8.924402785126578" id="-4490">
		<tag k="historic" v="shieling" />
		<tag k="name" v="Sveasetra" />
		<tag k="place" v="locality" />
		<tag k="ssr:stedsnr" v="398896" />
	</node>
	<node lat="63.00336666266739" lon="8.835727773855881" id="-4494">
		<tag k="name" v="Kringla" />
		<tag k="natural" v="wetland" />
		<tag k="ssr:stedsnr" v="399021" />
	</node>
	<node lat="63.04177499690339" lon="8.798941673934142" id="-4502">
		<tag k="name" v="Trekkmyra" />
		<tag k="natural" v="wetland" />
		<tag k="ssr:stedsnr" v="398943" />
	</node>
	<node lat="63.05065278006401" lon="9.021577770135256" id="-4509">
		<tag k="name" v="Åsmyran" />
		<tag k="natural" v="wetland" />
		<tag k="ssr:stedsnr" v="399147" />
	</node>
	<node lat="62.9678194468239" lon="8.723152780674413" id="-4534">
		<tag k="name" v="Skjertmyra" />
		<tag k="natural" v="wetland" />
		<tag k="ssr:stedsnr" v="399909" />
	</node>
	<node lat="62.983963891900224" lon="8.717280551771019" id="-4577">
		<tag k="name" v="Nedre Øyatrøa" />
		<tag k="place" v="locality" />
		<tag k="ssr:stedsnr" v="447858" />
	</node>
	<node lat="62.82964166341942" lon="8.882191673961927" id="-4582">
		<tag k="name" v="Moamyran" />
		<tag k="natural" v="wetland" />
		<tag k="ssr:stedsnr" v="449081" />
	</node>
	<node lat="62.890649996461725" lon="9.013727784480153" id="-4592">
		<tag k="name" v="Kløftseterøya" />
		<tag k="place" v="locality" />
		<tag k="ssr:stedsnr" v="497029" />
	</node>
	<node lat="63.04666389335211" lon="8.847711101267139" id="-4619">
		<tag k="landuse" v="meadow" />
		<tag k="name" v="Austerslættet" />
		<tag k="ssr:stedsnr" v="506077" />
	</node>
	<node lat="62.98602500353093" lon="8.718783331846375" id="-4625">
		<tag k="name" v="Øvre Øyatrøa" />
		<tag k="place" v="locality" />
		<tag k="ssr:stedsnr" v="508940" />
	</node>
	<node lat="62.98706944891239" lon="8.622827784457765" id="-4628">
		<tag k="name" v="Kobbsteinen" />
		<tag k="natural" v="stone" />
		<tag k="ssr:stedsnr" v="508855" />
	</node>
	<node lat="62.934108335946014" lon="8.832586102362187" id="-4630">
		<tag k="name" v="Fauskåmyran" />
		<tag k="natural" v="wetland" />
		<tag k="ssr:stedsnr" v="509146" />
	</node>
	<node lat="62.87982222638946" lon="8.828847220761562" id="-4631">
		<tag k="name" v="Ura" />
		<tag k="natural" v="scree" />
		<tag k="ssr:stedsnr" v="509099" />
	</node>
	<node lat="62.90674444769263" lon="8.495580557901972" id="-4642">
		<tag k="name" v="Finnvikmyra" />
		<tag k="natural" v="wetland" />
		<tag k="ssr:stedsnr" v="519085" />
	</node>
	<node lat="62.797047219757665" lon="8.793641663755322" id="-4651">
		<tag k="name" v="Tomasura" />
		<tag k="natural" v="scree" />
		<tag k="ssr:stedsnr" v="520036" />
	</node>
	<node lat="62.90712777640978" lon="8.643236119113457" id="-4660">
		<tag k="name" v="Snipen" />
		<tag k="place" v="locality" />
		<tag k="ssr:stedsnr" v="520087" />
	</node>
	<node lat="63.010286110235924" lon="8.989086107862681" id="-4664">
		<tag k="name" v="Liamyra" />
		<tag k="natural" v="wetland" />
		<tag k="ssr:stedsnr" v="520187" />
	</node>
	<node lat="62.948986109331884" lon="8.680247220161482" id="-4678">
		<tag k="name" v="Grytslættet" />
		<tag k="natural" v="wetland" />
		<tag k="ssr:stedsnr" v="520403" />
	</node>
	<node lat="62.80353889200841" lon="8.717680548776082" id="-4684">
		<tag k="name" v="Dakotamyran" />
		<tag k="natural" v="wetland" />
		<tag k="ssr:stedsnr" v="520242" />
	</node>
	<node lat="63.0129833346637" lon="8.956077768536918" id="-4721">
		<tag k="name" v="Fuglleiken" />
		<tag k="natural" v="wetland" />
		<tag k="ssr:stedsnr" v="520537" />
	</node>
	<node lat="63.007949996360644" lon="8.949500003716302" id="-4722">
		<tag k="name" v="Lomtjønnmyran" />
		<tag k="natural" v="wetland" />
		<tag k="ssr:stedsnr" v="520544" />
	</node>
	<node lat="62.976591669787915" lon="8.671252779664407" id="-4726">
		<tag k="name" v="Oløyskogen" />
		<tag k="place" v="locality" />
		<tag k="ssr:stedsnr" v="520936" />
	</node>
	<node lat="62.98773055597972" lon="8.905525002862317" id="-4733">
		<tag k="name" v="Øver Ellingmyra" />
		<tag k="natural" v="wetland" />
		<tag k="ssr:stedsnr" v="520589" />
	</node>
	<node lat="63.00767222543602" lon="9.01291389305739" id="-4734">
		<tag k="name" v="Sommarfjøsvollen" />
		<tag k="place" v="locality" />
		<tag k="ssr:stedsnr" v="520591" />
	</node>
	<node lat="63.01337500355436" lon="9.043525007687322" id="-4743">
		<tag k="name" v="Kjerkteigen" />
		<tag k="place" v="locality" />
		<tag k="ssr:stedsnr" v="520708" />
	</node>
	<node lat="62.90823055925712" lon="8.635769451968944" id="-4763">
		<tag k="name" v="Haugamyra" />
		<tag k="natural" v="wetland" />
		<tag k="ssr:stedsnr" v="557278" />
	</node>
	<node lat="62.92856666327813" lon="8.839366675332418" id="-4818">
		<tag k="name" v="Kvennrotmyran" />
		<tag k="natural" v="wetland" />
		<tag k="ssr:stedsnr" v="580270" />
	</node>
	<node lat="62.894597221441046" lon="9.008847214970663" id="-4820">
		<tag k="name" v="Kløftslættmyran" />
		<tag k="natural" v="wetland" />
		<tag k="ssr:stedsnr" v="580274" />
	</node>
	<node lat="62.950233333173735" lon="8.677608332376384" id="-4821">
		<tag k="name" v="Sørmyrane" />
		<tag k="natural" v="wetland" />
		<tag k="ssr:stedsnr" v="580350" />
	</node>
	<node lat="62.924522218260016" lon="8.644722212868984" id="-4823">
		<tag k="historic" v="shieling" />
		<tag k="name" v="Trettsetra" />
		<tag k="place" v="locality" />
		<tag k="ssr:stedsnr" v="580376" />
	</node>
	<node lat="63.03949999909663" lon="9.036713887557482" id="-4837">
		<tag k="name" v="Vargrompå" />
		<tag k="natural" v="wetland" />
		<tag k="ssr:stedsnr" v="580719" />
	</node>
	<node lat="62.940708335167315" lon="8.79974445303988" id="-4843">
		<tag k="name" v="Kringlåtmyra" />
		<tag k="natural" v="wetland" />
		<tag k="ssr:stedsnr" v="580819" />
	</node>
	<node lat="63.0934083348735" lon="8.900136120188" id="-4865">
		<tag k="name" v="Øygardsflata" />
		<tag k="natural" v="wetland" />
		<tag k="ssr:stedsnr" v="580973" />
	</node>
	<node lat="62.80848055895023" lon="8.742213883884299" id="-4870">
		<tag k="name" v="Almura" />
		<tag k="natural" v="scree" />
		<tag k="ssr:stedsnr" v="581080" />
	</node>
	<node lat="62.90872499863586" lon="8.652055561041651" id="-4880">
		<tag k="name" v="Bjønnøya" />
		<tag k="natural" v="wetland" />
		<tag k="ssr:stedsnr" v="581124" />
	</node>
	<node lat="62.97355833428626" lon="8.394119438911416" id="-4887">
		<tag k="name" v="Sesvikmyra" />
		<tag k="natural" v="wetland" />
		<tag k="ssr:stedsnr" v="581338" />
	</node>
	<node lat="63.02134444535083" lon="8.455524999194614" id="-4901">
		<tag k="historic" v="shieling" />
		<tag k="name" v="Nysetra" />
		<tag k="place" v="locality" />
		<tag k="ssr:stedsnr" v="581787" />
	</node>
	<node lat="62.989480553309185" lon="8.69781111454571" id="-4958">
		<tag k="name" v="Syltmyran" />
		<tag k="natural" v="wetland" />
		<tag k="ssr:stedsnr" v="629088" />
	</node>
	<node lat="62.98217500273785" lon="8.5541500086602" id="-4983">
		<tag k="name" v="Martageilen" />
		<tag k="place" v="locality" />
		<tag k="ssr:stedsnr" v="641392" />
	</node>
	<node lat="62.80307500086633" lon="8.739730553338598" id="-4991">
		<tag k="name" v="Arntstykket" />
		<tag k="place" v="locality" />
		<tag k="ssr:stedsnr" v="641214" />
	</node>
	<node lat="63.01714444760606" lon="8.653116665546957" id="-4994">
		<tag k="name" v="Høggjøta" />
		<tag k="natural" v="wetland" />
		<tag k="ssr:stedsnr" v="641339" />
	</node>
	<node lat="62.77921388988325" lon="8.893694446403886" id="-4997">
		<tag k="name" v="Skrøå" />
		<tag k="natural" v="scree" />
		<tag k="ssr:stedsnr" v="641043" />
	</node>
	<node lat="63.01038889262683" lon="9.040541664697013" id="-5008">
		<tag k="name" v="Kuøra" />
		<tag k="place" v="locality" />
		<tag k="ssr:stedsnr" v="641105" />
	</node>
	<node lat="62.98629722568725" lon="8.893883328411247" id="-5016">
		<tag k="name" v="Orrmyra" />
		<tag k="natural" v="wetland" />
		<tag k="ssr:stedsnr" v="641170" />
	</node>
	<node lat="63.03156944402265" lon="8.748105550695556" id="-5019">
		<tag k="name" v="Hallsteinslættet" />
		<tag k="natural" v="wetland" />
		<tag k="ssr:stedsnr" v="641317" />
	</node>
	<node lat="63.02655555623118" lon="8.736458327348902" id="-5020">
		<tag k="name" v="Orrenlimyran" />
		<tag k="natural" v="wetland" />
		<tag k="ssr:stedsnr" v="641321" />
	</node>
	<node lat="62.908055558200715" lon="8.727561105188501" id="-5023">
		<tag k="name" v="Tjønnmyra" />
		<tag k="natural" v="wetland" />
		<tag k="ssr:stedsnr" v="641358" />
	</node>
	<node lat="62.90939999888106" lon="8.742611108671214" id="-5024">
		<tag k="name" v="Steinteigen" />
		<tag k="place" v="locality" />
		<tag k="ssr:stedsnr" v="641360" />
	</node>
	<node lat="62.94105555519259" lon="9.078925007758619" id="-5028">
		<tag k="name" v="Kringlotfonna" />
		<tag k="place" v="locality" />
		<tag k="ssr:stedsnr" v="641444" />
	</node>
	<node lat="63.009155555046995" lon="8.934288884791963" id="-5041">
		<tag k="name" v="Skarpslættet" />
		<tag k="natural" v="wetland" />
		<tag k="ssr:stedsnr" v="641516" />
	</node>
	<node lat="63.03817777836435" lon="9.023163896567503" id="-5045">
		<tag k="name" v="Blomslættet" />
		<tag k="natural" v="wetland" />
		<tag k="ssr:stedsnr" v="641699" />
	</node>
	<node lat="62.98481666244574" lon="8.408563881648673" id="-5046">
		<tag k="name" v="Myran" />
		<tag k="natural" v="wetland" />
		<tag k="ssr:stedsnr" v="641719" />
	</node>
	<node lat="63.068647219012895" lon="8.868938894831981" id="-5056">
		<tag k="historic" v="shieling" />
		<tag k="name" v="Telstadsetra" />
		<tag k="place" v="locality" />
		<tag k="ssr:stedsnr" v="641757" />
	</node>
	<node lat="63.02639166716874" lon="8.821516660481873" id="-5057">
		<tag k="historic" v="shieling" />
		<tag k="name" v="Karisetermarka" />
		<tag k="place" v="locality" />
		<tag k="ssr:stedsnr" v="641758" />
	</node>
	<node lat="63.02811666743424" lon="8.693577783846155" id="-5114">
		<tag k="name" v="Nordmarka" />
		<tag k="place" v="locality" />
		<tag k="ssr:stedsnr" v="740821" />
	</node>
	<node lat="62.952894447268385" lon="9.002877785205111" id="-5119">
		<tag k="landuse" v="meadow" />
		<tag k="name" v="Fjellslættet" />
		<tag k="ssr:stedsnr" v="752132" />
	</node>
	<node lat="62.89399167103302" lon="9.245652776209338" id="-5123">
		<tag k="name" v="Årgrovkjølen" />
		<tag k="natural" v="wetland" />
		<tag k="ssr:stedsnr" v="752248" />
	</node>
	<node lat="62.90748055772814" lon="9.218450009180245" id="-5129">
		<tag k="name" v="Kufjellkjølen" />
		<tag k="natural" v="wetland" />
		<tag k="ssr:stedsnr" v="753777" />
	</node>
	<node lat="62.795077776968526" lon="8.70518056146173" id="-5135">
		<tag k="name" v="Ospakrullura" />
		<tag k="natural" v="scree" />
		<tag k="ssr:stedsnr" v="762235" />
	</node>
	<node lat="62.9543305531274" lon="8.71711110890724" id="-5148">
		<tag k="historic" v="shieling" />
		<tag k="name" v="Skeisetra" />
		<tag k="place" v="locality" />
		<tag k="ssr:stedsnr" v="762365" />
	</node>
	<node lat="63.045647220998475" lon="9.025194446345598" id="-5177">
		<tag k="name" v="Larsholet" />
		<tag k="natural" v="wetland" />
		<tag k="ssr:stedsnr" v="762574" />
	</node>
	<node lat="63.01643333439117" lon="9.124138886853393" id="-5180">
		<tag k="name" v="Gammelsetermyra" />
		<tag k="natural" v="wetland" />
		<tag k="ssr:stedsnr" v="762670" />
	</node>
	<node lat="62.99715000021428" lon="9.140602777524885" id="-5184">
		<tag k="name" v="Kukmyran" />
		<tag k="natural" v="wetland" />
		<tag k="ssr:stedsnr" v="763196" />
	</node>
	<node lat="63.071477775755895" lon="8.81102223039351" id="-5186">
		<tag k="name" v="Ratøya" />
		<tag k="natural" v="wetland" />
		<tag k="ssr:stedsnr" v="763260" />
	</node>
	<node lat="63.05872778086009" lon="8.908908334496287" id="-5188">
		<tag k="name" v="Krokan" />
		<tag k="natural" v="wetland" />
		<tag k="ssr:stedsnr" v="763267" />
	</node>
	<node lat="63.055238888853445" lon="8.62661389437184" id="-5193">
		<tag k="name" v="Nasamyran" />
		<tag k="natural" v="wetland" />
		<tag k="ssr:stedsnr" v="763286" />
	</node>
	<node lat="63.08200555126217" lon="8.954880550684498" id="-5202">
		<tag k="historic" v="shieling" />
		<tag k="name" v="Gammelseterstølen" />
		<tag k="place" v="locality" />
		<tag k="ssr:stedsnr" v="762888" />
	</node>
	<node lat="63.07453333357736" lon="8.821508337014606" id="-5205">
		<tag k="name" v="Slåtteøya" />
		<tag k="natural" v="wetland" />
		<tag k="ssr:stedsnr" v="762931" />
	</node>
	<node lat="62.997733330614544" lon="8.849944453761356" id="-5207">
		<tag k="name" v="Brattlia" />
		<tag k="natural" v="wetland" />
		<tag k="ssr:stedsnr" v="763026" />
	</node>
	<node lat="62.78904722404952" lon="8.695283326048036" id="-5215">
		<tag k="name" v="Langmyra" />
		<tag k="natural" v="wetland" />
		<tag k="ssr:stedsnr" v="763067" />
	</node>
	<node lat="62.80640833564074" lon="8.749772221528138" id="-5216">
		<tag k="name" v="Myran" />
		<tag k="natural" v="wetland" />
		<tag k="ssr:stedsnr" v="763069" />
	</node>
	<node lat="62.78051666361027" lon="8.859102781690966" id="-5220">
		<tag k="name" v="Endreøya" />
		<tag k="natural" v="wetland" />
		<tag k="ssr:stedsnr" v="763088" />
	</node>
	<node lat="62.985949998510065" lon="8.364069440579575" id="-5232">
		<tag k="name" v="Krokan" />
		<tag k="natural" v="wetland" />
		<tag k="ssr:stedsnr" v="763169" />
	</node>
	<node lat="63.10774166428681" lon="8.89495554940255" id="-5291">
		<tag k="name" v="Stormyra" />
		<tag k="natural" v="wetland" />
		<tag k="ssr:stedsnr" v="809658" />
	</node>
	<node lat="63.06041389158557" lon="8.807494449157796" id="-5334">
		<tag k="historic" v="shieling" />
		<tag k="name" v="Fagerfjellsetra" />
		<tag k="place" v="locality" />
		<tag k="ssr:stedsnr" v="823937" />
	</node>
	<node lat="63.05103333764295" lon="8.85608888891241" id="-5336">
		<tag k="name" v="Langgjøta" />
		<tag k="natural" v="wetland" />
		<tag k="ssr:stedsnr" v="823950" />
	</node>
	<node lat="63.01135555139806" lon="9.007252777441588" id="-5345">
		<tag k="name" v="Kvilstokkmyra" />
		<tag k="natural" v="wetland" />
		<tag k="ssr:stedsnr" v="823542" />
	</node>
	<node lat="62.99883889326518" lon="9.020538898694037" id="-5348">
		<tag k="name" v="Tristeinan" />
		<tag k="natural" v="stone" />
		<tag k="ssr:stedsnr" v="823659" />
	</node>
	<node lat="62.96241388809943" lon="8.77233334181887" id="-5369">
		<tag k="name" v="Flamyra" />
		<tag k="natural" v="wetland" />
		<tag k="ssr:stedsnr" v="824033" />
	</node>
	<node lat="62.931261111129984" lon="8.83449999900786" id="-5370">
		<tag k="name" v="Storøyan" />
		<tag k="natural" v="wetland" />
		<tag k="ssr:stedsnr" v="824078" />
	</node>
	<node lat="62.991863890327025" lon="8.914080547256408" id="-5375">
		<tag k="name" v="Øvermoan" />
		<tag k="natural" v="wetland" />
		<tag k="ssr:stedsnr" v="824187" />
	</node>
	<node lat="62.93208611159509" lon="8.73688332426775" id="-5380">
		<tag k="name" v="Kuøya" />
		<tag k="place" v="locality" />
		<tag k="ssr:stedsnr" v="824392" />
	</node>
	<node lat="63.00129166814286" lon="8.707183333704872" id="-5381">
		<tag k="name" v="Liamyra" />
		<tag k="natural" v="wetland" />
		<tag k="ssr:stedsnr" v="824395" />
	</node>
	<node lat="62.80829444046855" lon="8.735402781919708" id="-5384">
		<tag k="name" v="Øygarden" />
		<tag k="place" v="locality" />
		<tag k="ssr:stedsnr" v="824090" />
	</node>
	<node lat="63.021980551301894" lon="8.43337500362375" id="-5387">
		<tag k="name" v="Bjønnamyra" />
		<tag k="natural" v="wetland" />
		<tag k="ssr:stedsnr" v="824359" />
	</node>
	<node lat="62.886441666664865" lon="8.542294452421803" id="-5489">
=======
	<node id="-88424" lat="62.8975027817" lon="8.5813472182">
		<tag k="name" v="Barmelen" />
		<tag k="place" v="locality" />
		<tag k="ssr:stedsnr" v="702364" />
	</node>
	<node id="-90471" lat="63.0518888909" lon="8.86882221946">
		<tag k="name" v="Klokkargjøta" />
		<tag k="natural" v="wetland" />
		<tag k="ssr:stedsnr" v="520978" />
	</node>
	<node id="-88421" lat="62.8997944434" lon="8.57015277378">
		<tag k="name" v="Klåppin" />
		<tag k="natural" v="wetland" />
		<tag k="ssr:stedsnr" v="702355" />
	</node>
	<node id="-88420" lat="63.0151861132" lon="8.66244999014">
		<tag k="name" v="Orrenlimyra" />
		<tag k="natural" v="wetland" />
		<tag k="ssr:stedsnr" v="702324" />
	</node>
	<node id="-88416" lat="63.0559500042" lon="8.47277778365">
		<tag k="historic" v="shieling" />
		<tag k="name" v="Jensstusetra" />
		<tag k="place" v="locality" />
		<tag k="ssr:stedsnr" v="702311" />
	</node>
	<node id="-88413" lat="62.8103277759" lon="8.68380832391">
		<tag k="name" v="Rørmyra" />
		<tag k="natural" v="wetland" />
		<tag k="ssr:stedsnr" v="702125" />
	</node>
	<node id="-88411" lat="62.8191611088" lon="8.6741722277">
		<tag k="name" v="Råmyran" />
		<tag k="natural" v="wetland" />
		<tag k="ssr:stedsnr" v="702118" />
	</node>
	<node id="-88408" lat="62.906974996" lon="8.64690832913">
		<tag k="name" v="Olderøya" />
		<tag k="natural" v="wetland" />
		<tag k="ssr:stedsnr" v="702108" />
	</node>
	<node id="-88401" lat="63.0985729618" lon="8.91630458183">
		<tag k="landuse" v="meadow" />
		<tag k="name" v="Tjukkslættet" />
		<tag k="ssr:stedsnr" v="692422" />
	</node>
	<node id="-88391" lat="63.0340277814" lon="8.60882500385">
		<tag k="name" v="Småmyran" />
		<tag k="natural" v="wetland" />
		<tag k="ssr:stedsnr" v="885787" />
	</node>
	<node id="-90437" lat="63.0161499966" lon="8.59081666705">
		<tag k="name" v="Slåa" />
		<tag k="natural" v="wetland" />
		<tag k="ssr:stedsnr" v="520825" />
	</node>
	<node id="-88383" lat="62.9849472256" lon="8.49480000505">
		<tag k="name" v="Dammyra" />
		<tag k="natural" v="wetland" />
		<tag k="ssr:stedsnr" v="885743" />
	</node>
	<node id="-88376" lat="62.9186500004" lon="8.61039723137">
		<tag k="name" v="Litlslættmyran" />
		<tag k="natural" v="wetland" />
		<tag k="ssr:stedsnr" v="885430" />
	</node>
	<node id="-88374" lat="63.009061107" lon="8.49041943509">
		<tag k="name" v="Tjønnmyra" />
		<tag k="natural" v="wetland" />
		<tag k="ssr:stedsnr" v="885328" />
	</node>
	<node id="-88368" lat="63.0261249985" lon="9.09806110935">
		<tag k="name" v="Øyan" />
		<tag k="place" v="locality" />
		<tag k="ssr:stedsnr" v="885136" />
	</node>
	<node id="-90414" lat="63.0076722254" lon="9.01291389306">
		<tag k="name" v="Sommarfjøsvollen" />
		<tag k="place" v="locality" />
		<tag k="ssr:stedsnr" v="520591" />
	</node>
	<node id="-88365" lat="62.9395722213" lon="8.68443333859">
		<tag k="name" v="Aspamyra" />
		<tag k="natural" v="wetland" />
		<tag k="ssr:stedsnr" v="885387" />
	</node>
	<node id="-88363" lat="63.0426111143" lon="8.54840833392">
		<tag k="name" v="Jostuslættet" />
		<tag k="natural" v="wetland" />
		<tag k="ssr:stedsnr" v="885291" />
	</node>
	<node id="-90409" lat="63.0079499964" lon="8.94950000372">
		<tag k="name" v="Lomtjønnmyran" />
		<tag k="natural" v="wetland" />
		<tag k="ssr:stedsnr" v="520544" />
	</node>
	<node id="-88357" lat="62.9106500005" lon="8.65727499262">
		<tag k="name" v="Husøya" />
		<tag k="natural" v="wetland" />
		<tag k="ssr:stedsnr" v="885099" />
	</node>
	<node id="-91051" lat="62.9003694434" lon="8.56238611009">
		<tag k="landuse" v="meadow" />
		<tag k="name" v="Mobøen" />
		<tag k="ssr:stedsnr" v="763422" />
	</node>
	<node id="-88353" lat="63.0198777746" lon="9.09433888798">
		<tag k="name" v="Sagtrøa" />
		<tag k="place" v="locality" />
		<tag k="ssr:stedsnr" v="885126" />
	</node>
	<node id="-88348" lat="62.7753416686" lon="8.88757223048">
		<tag k="name" v="Neåmoen" />
		<tag k="natural" v="wetland" />
		<tag k="ssr:stedsnr" v="885049" />
	</node>
	<node id="-88347" lat="62.7968083296" lon="8.75906944323">
		<tag k="historic" v="shieling" />
		<tag k="name" v="Vårsetra" />
		<tag k="place" v="locality" />
		<tag k="ssr:stedsnr" v="885078" />
	</node>
	<node id="-88345" lat="62.7830638866" lon="8.88020832694">
		<tag k="name" v="Plassen" />
		<tag k="natural" v="wetland" />
		<tag k="ssr:stedsnr" v="885070" />
	</node>
	<node id="-88343" lat="63.0870666642" lon="8.81948889333">
		<tag k="name" v="Midtslættet" />
		<tag k="natural" v="wetland" />
		<tag k="ssr:stedsnr" v="884988" />
	</node>
	<node id="-90389" lat="62.9401055564" lon="8.71136110152">
		<tag k="name" v="Slåttøyan" />
		<tag k="natural" v="wetland" />
		<tag k="ssr:stedsnr" v="520369" />
	</node>
	<node id="-90387" lat="63.0306138871" lon="8.73142222605">
		<tag k="name" v="Litlslættet" />
		<tag k="natural" v="wetland" />
		<tag k="ssr:stedsnr" v="520366" />
	</node>
	<node id="-90386" lat="63.0005166622" lon="8.6467500037">
		<tag k="name" v="Øvre-Fuggelmyra" />
		<tag k="natural" v="wetland" />
		<tag k="ssr:stedsnr" v="520364" />
	</node>
	<node id="-88327" lat="63.0119250033" lon="8.87008888946">
		<tag k="name" v="Fjellmyra" />
		<tag k="natural" v="wetland" />
		<tag k="ssr:stedsnr" v="884705" />
	</node>
	<node id="-88321" lat="63.0073472266" lon="8.99545555295">
		<tag k="name" v="Bjønnamyra" />
		<tag k="natural" v="wetland" />
		<tag k="ssr:stedsnr" v="884544" />
	</node>
	<node id="-90367" lat="63.0080444462" lon="8.47874722926">
		<tag k="name" v="Bakliholet" />
		<tag k="natural" v="wetland" />
		<tag k="ssr:stedsnr" v="520305" />
	</node>
	<node id="-88318" lat="62.9899055563" lon="8.92476944309">
		<tag k="name" v="Aspaflotten" />
		<tag k="natural" v="wetland" />
		<tag k="ssr:stedsnr" v="884531" />
	</node>
	<node id="-88316" lat="62.8970750042" lon="9.01696945416">
		<tag k="name" v="Kløftslættmyran" />
		<tag k="natural" v="wetland" />
		<tag k="ssr:stedsnr" v="884450" />
	</node>
	<node id="-88308" lat="63.0152722236" lon="8.90854721348">
		<tag k="name" v="Fjellslættet" />
		<tag k="natural" v="wetland" />
		<tag k="ssr:stedsnr" v="884492" />
	</node>
	<node id="-90355" lat="62.7834583347" lon="8.86525555359">
		<tag k="name" v="Svinvikmyran" />
		<tag k="natural" v="wetland" />
		<tag k="ssr:stedsnr" v="520279" />
	</node>
	<node id="-91176" lat="62.7864055598" lon="8.76131944052">
		<tag k="name" v="Bjøråøyan" />
		<tag k="natural" v="wetland" />
		<tag k="ssr:stedsnr" v="823236" />
	</node>
	<node id="-88301" lat="62.9372166688" lon="8.83700000459">
		<tag k="name" v="Bjønnasøla" />
		<tag k="natural" v="wetland" />
		<tag k="ssr:stedsnr" v="884289" />
	</node>
	<node id="-90347" lat="62.803538892" lon="8.71768054878">
		<tag k="name" v="Dakotamyran" />
		<tag k="natural" v="wetland" />
		<tag k="ssr:stedsnr" v="520242" />
	</node>
	<node id="-88297" lat="62.780463892" lon="8.86702777246">
		<tag k="name" v="Hesthagen" />
		<tag k="natural" v="wetland" />
		<tag k="ssr:stedsnr" v="884242" />
	</node>
	<node id="-88296" lat="62.7945833345" lon="8.87543054656">
		<tag k="name" v="Litlsvaet" />
		<tag k="place" v="locality" />
		<tag k="ssr:stedsnr" v="884240" />
	</node>
	<node id="-88295" lat="62.7963166693" lon="8.7630472166">
		<tag k="name" v="Nylevollen" />
		<tag k="place" v="locality" />
		<tag k="ssr:stedsnr" v="884236" />
	</node>
	<node id="-88291" lat="62.9038638928" lon="8.50695834208">
		<tag k="name" v="Leikmyran" />
		<tag k="natural" v="wetland" />
		<tag k="ssr:stedsnr" v="884081" />
	</node>
	<node id="-88289" lat="62.8864416667" lon="8.54229445242">
>>>>>>> e1d4bc35ff8a6074a6f2e91616a996b547c36f15
		<tag k="name" v="Søysetøran" />
		<tag k="place" v="locality" />
		<tag k="ssr:stedsnr" v="884072" />
	</node>
<<<<<<< HEAD
	<node lat="62.9038638928234" lon="8.506958342082" id="-5491">
		<tag k="name" v="Leikmyran" />
		<tag k="natural" v="wetland" />
		<tag k="ssr:stedsnr" v="884081" />
	</node>
	<node lat="62.93721666879948" lon="8.837000004587116" id="-5495">
		<tag k="name" v="Bjønnasøla" />
		<tag k="natural" v="wetland" />
		<tag k="ssr:stedsnr" v="884289" />
	</node>
	<node lat="62.79631666926478" lon="8.763047216604072" id="-5501">
		<tag k="name" v="Nylevollen" />
		<tag k="place" v="locality" />
		<tag k="ssr:stedsnr" v="884236" />
	</node>
	<node lat="62.79458333447039" lon="8.875430546560725" id="-5502">
		<tag k="name" v="Litlsvaet" />
		<tag k="place" v="locality" />
		<tag k="ssr:stedsnr" v="884240" />
	</node>
	<node lat="62.78046389203279" lon="8.86702777245986" id="-5503">
		<tag k="name" v="Hesthagen" />
		<tag k="natural" v="wetland" />
		<tag k="ssr:stedsnr" v="884242" />
	</node>
	<node lat="62.9452722204353" lon="8.675177777607976" id="-5505">
		<tag k="name" v="Grønkrokan" />
		<tag k="natural" v="wetland" />
		<tag k="ssr:stedsnr" v="884367" />
	</node>
	<node lat="63.01527222361774" lon="8.9085472134839" id="-5508">
		<tag k="name" v="Fjellslættet" />
		<tag k="natural" v="wetland" />
		<tag k="ssr:stedsnr" v="884492" />
	</node>
	<node lat="62.98990555633213" lon="8.924769443091389" id="-5517">
		<tag k="name" v="Aspaflotten" />
		<tag k="natural" v="wetland" />
		<tag k="ssr:stedsnr" v="884531" />
	</node>
	<node lat="63.00734722655248" lon="8.995455552951684" id="-5520">
		<tag k="name" v="Bjønnamyra" />
		<tag k="natural" v="wetland" />
		<tag k="ssr:stedsnr" v="884544" />
	</node>
	<node lat="62.9106500004611" lon="8.657274992622671" id="-5535">
		<tag k="name" v="Husøya" />
		<tag k="natural" v="wetland" />
		<tag k="ssr:stedsnr" v="885099" />
	</node>
	<node lat="63.01987777463818" lon="9.094338887978177" id="-5537">
		<tag k="name" v="Sagtrøa" />
		<tag k="place" v="locality" />
		<tag k="ssr:stedsnr" v="885126" />
	</node>
	<node lat="63.026124998504955" lon="9.09806110934527" id="-5540">
		<tag k="name" v="Øyan" />
		<tag k="place" v="locality" />
		<tag k="ssr:stedsnr" v="885136" />
	</node>
	<node lat="63.08706666421023" lon="8.819488893326346" id="-5542">
		<tag k="name" v="Midtslættet" />
		<tag k="natural" v="wetland" />
		<tag k="ssr:stedsnr" v="884988" />
	</node>
	<node lat="62.775341668590606" lon="8.887572230481181" id="-5543">
		<tag k="name" v="Neåmoen" />
		<tag k="natural" v="wetland" />
		<tag k="ssr:stedsnr" v="885049" />
	</node>
	<node lat="62.7830638866482" lon="8.880208326937053" id="-5545">
		<tag k="name" v="Plassen" />
		<tag k="natural" v="wetland" />
		<tag k="ssr:stedsnr" v="885070" />
	</node>
	<node lat="62.796808329643554" lon="8.759069443230436" id="-5547">
		<tag k="historic" v="shieling" />
		<tag k="name" v="Vårsetra" />
		<tag k="place" v="locality" />
		<tag k="ssr:stedsnr" v="885078" />
	</node>
	<node lat="63.00906110702317" lon="8.490419435089102" id="-5553">
		<tag k="name" v="Tjønnmyra" />
		<tag k="natural" v="wetland" />
		<tag k="ssr:stedsnr" v="885328" />
	</node>
	<node lat="63.042611114343515" lon="8.548408333915596" id="-5561">
		<tag k="name" v="Jostuslættet" />
		<tag k="natural" v="wetland" />
		<tag k="ssr:stedsnr" v="885291" />
	</node>
	<node lat="62.93957222132382" lon="8.684433338587747" id="-5567">
		<tag k="name" v="Aspamyra" />
		<tag k="natural" v="wetland" />
		<tag k="ssr:stedsnr" v="885387" />
	</node>
	<node lat="62.91865000042894" lon="8.610397231365074" id="-5571">
		<tag k="name" v="Litlslættmyran" />
		<tag k="natural" v="wetland" />
		<tag k="ssr:stedsnr" v="885430" />
	</node>
	<node lat="62.98494722556285" lon="8.494800005054918" id="-5576">
		<tag k="name" v="Dammyra" />
		<tag k="natural" v="wetland" />
		<tag k="ssr:stedsnr" v="885743" />
	</node>
	<node lat="62.99133332947784" lon="8.523727782293982" id="-5580">
		<tag k="name" v="Kringla" />
		<tag k="natural" v="wetland" />
		<tag k="ssr:stedsnr" v="885765" />
	</node>
	<node lat="62.98088055355967" lon="8.535877779548235" id="-5581">
		<tag k="name" v="Myrane" />
		<tag k="natural" v="wetland" />
		<tag k="ssr:stedsnr" v="885768" />
	</node>
	<node lat="63.034027781376565" lon="8.60882500384629" id="-5588">
		<tag k="name" v="Småmyran" />
		<tag k="natural" v="wetland" />
		<tag k="ssr:stedsnr" v="885787" />
	</node>
	<node lat="62.887816662976554" lon="8.590347214129183" id="-5593">
		<tag k="name" v="Ytterbøen" />
		<tag k="place" v="locality" />
		<tag k="ssr:stedsnr" v="944071" />
	</node>
	<node lat="62.79602778053173" lon="8.726219436832455" id="-5596">
		<tag k="name" v="Kringlåsmyra" />
		<tag k="natural" v="wetland" />
		<tag k="ssr:stedsnr" v="945250" />
	</node>
	<node lat="62.788447220320094" lon="8.829852781004714" id="-5600">
		<tag k="name" v="Stakkmyra" />
		<tag k="natural" v="wetland" />
		<tag k="ssr:stedsnr" v="945267" />
	</node>
	<node lat="62.896113884723704" lon="8.585938892507658" id="-5605">
		<tag k="name" v="Svartpollen" />
		<tag k="natural" v="wetland" />
		<tag k="ssr:stedsnr" v="945055" />
	</node>
	<node lat="62.9211944455001" lon="8.469702782381935" id="-5610">
		<tag k="name" v="Eppingstykket" />
		<tag k="place" v="locality" />
		<tag k="ssr:stedsnr" v="945074" />
	</node>
	<node lat="63.012041667484056" lon="9.096091664336393" id="-5617">
		<tag k="name" v="Langmyra" />
		<tag k="natural" v="wetland" />
		<tag k="ssr:stedsnr" v="945162" />
	</node>
	<node lat="63.01427222429062" lon="8.64198611146319" id="-5621">
		<tag k="name" v="Nessamyran" />
		<tag k="natural" v="wetland" />
		<tag k="ssr:stedsnr" v="945344" />
	</node>
	<node lat="63.021355556228606" lon="8.759252775807552" id="-5627">
		<tag k="name" v="Krokane" />
		<tag k="natural" v="wetland" />
		<tag k="ssr:stedsnr" v="945355" />
	</node>
	<node lat="62.945905556426126" lon="8.683461119129062" id="-5631">
		<tag k="name" v="Skarmyran" />
		<tag k="natural" v="wetland" />
		<tag k="ssr:stedsnr" v="945363" />
	</node>
	<node lat="62.99139722673053" lon="8.737791666157785" id="-5633">
		<tag k="name" v="Kvennhusøyan" />
		<tag k="natural" v="wetland" />
		<tag k="ssr:stedsnr" v="945367" />
	</node>
	<node lat="62.89778889224935" lon="8.997455555826859" id="-5641">
		<tag k="name" v="Stygglimyran" />
		<tag k="natural" v="wetland" />
		<tag k="ssr:stedsnr" v="945316" />
	</node>
	<node lat="62.99616389218672" lon="9.004736118880192" id="-5650">
		<tag k="name" v="Øyalimyra" />
		<tag k="natural" v="wetland" />
		<tag k="ssr:stedsnr" v="945424" />
	</node>
	<node lat="63.01057777356921" lon="8.967708323697726" id="-5652">
		<tag k="name" v="Lomtjønnmyran" />
		<tag k="natural" v="wetland" />
		<tag k="ssr:stedsnr" v="945496" />
	</node>
	<node lat="63.00648611358246" lon="8.964800005368687" id="-5653">
		<tag k="name" v="Kvilstokken" />
		<tag k="natural" v="wetland" />
		<tag k="ssr:stedsnr" v="945518" />
	</node>
	<node lat="63.06121666811628" lon="8.614747225533803" id="-5682">
		<tag k="name" v="Krokan" />
		<tag k="natural" v="wetland" />
		<tag k="ssr:stedsnr" v="945770" />
	</node>
	<node lat="62.95847221845619" lon="8.698866663384704" id="-5690">
		<tag k="name" v="Stormyra" />
		<tag k="natural" v="wetland" />
		<tag k="ssr:stedsnr" v="945877" />
=======
	<node id="-90327" lat="62.9071277764" lon="8.64323611911">
		<tag k="name" v="Snipen" />
		<tag k="place" v="locality" />
		<tag k="ssr:stedsnr" v="520087" />
	</node>
	<node id="-90326" lat="62.7807583293" lon="8.85721388915">
		<tag k="name" v="Storenga" />
		<tag k="natural" v="wetland" />
		<tag k="ssr:stedsnr" v="520071" />
	</node>
	<node id="-90830" lat="63.0126083351" lon="8.29764721713">
		<tag k="name" v="Bjønnatjønnmyra" />
		<tag k="natural" v="wetland" />
		<tag k="ssr:stedsnr" v="641606" />
	</node>
	<node id="-90321" lat="62.7970472198" lon="8.79364166376">
		<tag k="name" v="Tomasura" />
		<tag k="natural" v="scree" />
		<tag k="ssr:stedsnr" v="520036" />
	</node>
	<node id="-90317" lat="62.9748444407" lon="8.77156667151">
		<tag k="name" v="Futøya" />
		<tag k="place" v="locality" />
		<tag k="ssr:stedsnr" v="520019" />
	</node>
	<node id="-90315" lat="62.9796583304" lon="8.86284166274">
		<tag k="name" v="Setermyran" />
		<tag k="natural" v="wetland" />
		<tag k="ssr:stedsnr" v="519871" />
	</node>
	<node id="-87229" lat="62.8870111156" lon="8.54616944528">
		<tag k="name" v="Midtiøra" />
		<tag k="place" v="locality" />
		<tag k="ssr:stedsnr" v="278458" />
	</node>
	<node id="-90843" lat="63.068647219" lon="8.86893889483">
		<tag k="historic" v="shieling" />
		<tag k="name" v="Telstadsetra" />
		<tag k="place" v="locality" />
		<tag k="ssr:stedsnr" v="641757" />
	</node>
	<node id="-88248" lat="62.9848166624" lon="8.40856388165">
		<tag k="name" v="Myran" />
		<tag k="natural" v="wetland" />
		<tag k="ssr:stedsnr" v="641719" />
	</node>
	<node id="-90820" lat="63.009155555" lon="8.93428888479">
		<tag k="name" v="Skarpslættet" />
		<tag k="natural" v="wetland" />
		<tag k="ssr:stedsnr" v="641516" />
	</node>
	<node id="-90257" lat="63.0523583342" lon="8.58772221743">
		<tag k="name" v="Ånslætta" />
		<tag k="natural" v="wetland" />
		<tag k="ssr:stedsnr" v="399796" />
	</node>
	<node id="-90254" lat="62.9917305565" lon="8.56386944917">
		<tag k="name" v="Breimyra" />
		<tag k="natural" v="wetland" />
		<tag k="ssr:stedsnr" v="399781" />
	</node>
	<node id="-90247" lat="62.9781638869" lon="8.5175583418">
		<tag k="landuse" v="quarry" />
		<tag k="name" v="Årnes kalkgruve" />
		<tag k="ssr:stedsnr" v="399488" />
	</node>
	<node id="-88187" lat="62.9087249986" lon="8.65205556104">
		<tag k="name" v="Bjønnøya" />
		<tag k="natural" v="wetland" />
		<tag k="ssr:stedsnr" v="581124" />
	</node>
	<node id="-88184" lat="62.808480559" lon="8.74221388388">
		<tag k="name" v="Almura" />
		<tag k="natural" v="scree" />
		<tag k="ssr:stedsnr" v="581080" />
	</node>
	<node id="-88176" lat="63.0394999991" lon="9.03671388756">
		<tag k="name" v="Vargrompå" />
		<tag k="natural" v="wetland" />
		<tag k="ssr:stedsnr" v="580719" />
	</node>
	<node id="-90472" lat="63.0698611078" lon="8.79053889669">
		<tag k="name" v="Brennmyra" />
		<tag k="natural" v="wetland" />
		<tag k="ssr:stedsnr" v="520979" />
	</node>
	<node id="-90216" lat="63.0506527801" lon="9.02157777014">
		<tag k="name" v="Åsmyran" />
		<tag k="natural" v="wetland" />
		<tag k="ssr:stedsnr" v="399147" />
	</node>
	<node id="-90214" lat="63.01728056" lon="9.06531111941">
		<tag k="name" v="Øyan" />
		<tag k="place" v="locality" />
		<tag k="ssr:stedsnr" v="399130" />
	</node>
	<node id="-88157" lat="62.9463138885" lon="8.70383610363">
		<tag k="name" v="Fuglleiken" />
		<tag k="natural" v="wetland" />
		<tag k="ssr:stedsnr" v="580314" />
	</node>
	<node id="-90196" lat="63.0033666627" lon="8.83572777386">
		<tag k="name" v="Kringla" />
		<tag k="natural" v="wetland" />
		<tag k="ssr:stedsnr" v="399021" />
	</node>
	<node id="-90192" lat="63.0417749969" lon="8.79894167393">
		<tag k="name" v="Trekkmyra" />
		<tag k="natural" v="wetland" />
		<tag k="ssr:stedsnr" v="398943" />
	</node>
	<node id="-90186" lat="63.0411916679" lon="8.92440278513">
		<tag k="historic" v="shieling" />
		<tag k="name" v="Sveasetra" />
		<tag k="place" v="locality" />
		<tag k="ssr:stedsnr" v="398896" />
	</node>
	<node id="-88129" lat="62.9790583329" lon="8.39127499966">
		<tag k="name" v="Årleikmyran" />
		<tag k="natural" v="wetland" />
		<tag k="ssr:stedsnr" v="703354" />
	</node>
	<node id="-90174" lat="62.9378055514" lon="8.80361943759">
		<tag k="name" v="Sagholtmyra" />
		<tag k="natural" v="wetland" />
		<tag k="ssr:stedsnr" v="398805" />
	</node>
	<node id="-88124" lat="62.993180557" lon="8.89297500729">
		<tag k="name" v="Storøra" />
		<tag k="place" v="locality" />
		<tag k="ssr:stedsnr" v="703247" />
	</node>
	<node id="-88122" lat="63.0147166649" lon="8.91246666303">
		<tag k="name" v="Langmyra" />
		<tag k="natural" v="wetland" />
		<tag k="ssr:stedsnr" v="703236" />
	</node>
	<node id="-88121" lat="63.0088861145" lon="8.90470833041">
		<tag k="name" v="Kausa" />
		<tag k="natural" v="wetland" />
		<tag k="ssr:stedsnr" v="703228" />
	</node>
	<node id="-88114" lat="62.9901055594" lon="9.01201666934">
		<tag k="name" v="Floni" />
		<tag k="natural" v="wetland" />
		<tag k="ssr:stedsnr" v="703176" />
	</node>
	<node id="-88111" lat="63.0153805572" lon="8.77994445076">
		<tag k="name" v="Stormyra" />
		<tag k="natural" v="wetland" />
		<tag k="ssr:stedsnr" v="703020" />
	</node>
	<node id="-90461" lat="62.9765916698" lon="8.67125277966">
		<tag k="name" v="Oløyskogen" />
		<tag k="place" v="locality" />
		<tag k="ssr:stedsnr" v="520936" />
	</node>
	<node id="-88105" lat="63.0521472186" lon="8.87649166361">
		<tag k="name" v="Gråtarmyran" />
		<tag k="natural" v="wetland" />
		<tag k="ssr:stedsnr" v="702966" />
	</node>
	<node id="-88098" lat="63.0104249983" lon="8.89921667176">
		<tag k="historic" v="shieling" />
		<tag k="name" v="Gullasetra" />
		<tag k="place" v="locality" />
		<tag k="ssr:stedsnr" v="702919" />
	</node>
	<node id="-90139" lat="63.0111333357" lon="8.94795833774">
		<tag k="name" v="Fuglleiken" />
		<tag k="natural" v="wetland" />
		<tag k="ssr:stedsnr" v="398529" />
	</node>
	<node id="-88087" lat="63.0142805567" lon="8.59653055904">
		<tag k="name" v="Langmyra" />
		<tag k="natural" v="wetland" />
		<tag k="ssr:stedsnr" v="702784" />
	</node>
	<node id="-88086" lat="63.0386916694" lon="8.87574721254">
		<tag k="name" v="Høglimyran" />
		<tag k="natural" v="wetland" />
		<tag k="ssr:stedsnr" v="702780" />
	</node>
	<node id="-90798" lat="62.9077611123" lon="8.64346944778">
		<tag k="name" v="Snipvollen" />
		<tag k="place" v="locality" />
		<tag k="ssr:stedsnr" v="641384" />
	</node>
	<node id="-90123" lat="62.9096388884" lon="8.64736389522">
		<tag k="name" v="Tuvvollen" />
		<tag k="place" v="locality" />
		<tag k="ssr:stedsnr" v="398397" />
	</node>
	<node id="-88072" lat="62.944152776" lon="8.50334999818">
		<tag k="name" v="Langmyra" />
		<tag k="natural" v="wetland" />
		<tag k="ssr:stedsnr" v="702720" />
	</node>
	<node id="-88068" lat="63.0207861147" lon="9.10658056045">
		<tag k="name" v="Sommarfjøstrøa" />
		<tag k="natural" v="wetland" />
		<tag k="ssr:stedsnr" v="702678" />
>>>>>>> e1d4bc35ff8a6074a6f2e91616a996b547c36f15
	</node>
</osm>
