<?xml version="1.0" encoding="UTF-8"?>
<osm generator="osmapis" version="0.6">
	<node id="-9216" lat="63.0018888922" lon="8.527497224">
		<tag k="name" v="Furuneset" />
		<tag k="natural" v="cape" />
		<tag k="ssr:stedsnr" v="217457" />
	</node>
	<node id="-11260" lat="63.0171749965" lon="8.37766943473">
		<tag k="name" v="Elvaneset" />
		<tag k="natural" v="cape" />
		<tag k="ssr:stedsnr" v="884609" />
	</node>
	<node id="-9721" lat="62.9881777817" lon="8.62993888917">
		<tag k="name" v="Litløra" />
		<tag k="natural" v="beach" />
		<tag k="place" v="locality" />
		<tag k="ssr:stedsnr" v="448939" />
	</node>
	<node id="-10738" lat="62.9714666699" lon="8.47802777555">
		<tag k="name" v="Småvikan" />
		<tag k="natural" v="bay" />
		<tag k="ssr:stedsnr" v="885742" />
	</node>
	<node id="-10736" lat="62.9565916656" lon="8.53285834181">
		<tag k="name" v="Hundsprangbukta" />
		<tag k="natural" v="bay" />
		<tag k="ssr:stedsnr" v="885470" />
	</node>
	<node id="-9708" lat="63.004899998" lon="8.34110000054">
		<tag k="name" v="Omnabukta" />
		<tag k="natural" v="bay" />
		<tag k="ssr:stedsnr" v="231965" />
	</node>
	<node id="-10731" lat="63.0175722213" lon="8.45597499813">
		<tag k="fixme" v="consider seamark:type=rock or natural=shoal" />
		<tag k="name" v="Flatskjæret" />
		<tag k="place" v="islet" />
		<tag k="ssr:stedsnr" v="885334" />
	</node>
	<node id="-9706" lat="62.8383138895" lon="8.64747222542">
		<tag k="name" v="Gjengstøskallen" />
		<tag k="natural" v="shoal" />
		<tag k="place" v="locality" />
		<tag k="ssr:stedsnr" v="231305" />
	</node>
	<node id="-10210" lat="63.1157694402" lon="8.14610278055">
		<tag k="bay" v="fjord" />
		<tag k="name" v="Halsafjorden" />
		<tag k="natural" v="bay" />
		<tag k="ssr:stedsnr" v="679286" />
	</node>
	<node id="-12197" lat="63.0085092897" lon="8.30716128844">
		<tag k="name" v="Heggemsneset" />
		<tag k="natural" v="cape" />
		<tag k="ssr:stedsnr" v="315843" />
	</node>
	<node id="-9691" lat="62.8439777744" lon="8.63424444411">
		<tag k="name" v="Vika" />
		<tag k="natural" v="bay" />
		<tag k="ssr:stedsnr" v="217404" />
	</node>
	<node id="-10575" lat="62.9805222189" lon="8.68198332548">
		<tag k="name" v="Seterøya" />
		<tag k="place" v="islet" />
		<tag k="ssr:stedsnr" v="618642" />
	</node>
	<node id="-11734" lat="62.8787999977" lon="8.54048610452">
		<tag k="name" v="Litlemulneset" />
		<tag k="natural" v="cape" />
		<tag k="ssr:stedsnr" v="95052" />
	</node>
	<node id="-9685" lat="63.0112944433" lon="8.39012777914">
		<tag k="name" v="Grasholmen" />
		<tag k="place" v="islet" />
		<tag k="ssr:stedsnr" v="217327" />
	</node>
	<node id="-10706" lat="62.8264833333" lon="8.67304721693">
		<tag k="name" v="Sundet" />
		<tag k="natural" v="strait" />
		<tag k="ssr:stedsnr" v="885113" />
	</node>
	<node id="-10193" lat="62.9525416624" lon="8.44497222525">
		<tag k="name" v="Fiskvikan" />
		<tag k="natural" v="bay" />
		<tag k="ssr:stedsnr" v="656825" />
	</node>
	<node id="-10192" lat="63.019608335" lon="8.48866111419">
		<tag k="name" v="Åsskardvågen" />
		<tag k="natural" v="bay" />
		<tag k="ssr:stedsnr" v="656822" />
	</node>
	<node id="-9675" lat="62.8254027804" lon="8.67353889551">
		<tag k="name" v="Bukta" />
		<tag k="natural" v="bay" />
		<tag k="ssr:stedsnr" v="217109" />
	</node>
	<node id="-10184" lat="62.9161805574" lon="8.45674999041">
		<tag k="name" v="Svissholmen" />
		<tag k="place" v="islet" />
		<tag k="ssr:stedsnr" v="519091" />
	</node>
	<node id="-11706" lat="63.0198583367" lon="8.26039445083">
		<tag k="name" v="Kråka" />
		<tag k="natural" v="cape" />
		<tag k="ssr:stedsnr" v="73826" />
	</node>
	<node id="-9649" lat="62.829344447" lon="8.66173333221">
		<tag k="name" v="Steingardneset" />
		<tag k="natural" v="cape" />
		<tag k="ssr:stedsnr" v="216416" />
	</node>
	<node id="-12208" lat="62.8800777787" lon="8.61053610948">
		<tag k="name" v="Nedre Slettneset" />
		<tag k="natural" v="cape" />
		<tag k="ssr:stedsnr" v="316292" />
	</node>
	<node id="-10149" lat="62.9685466086" lon="8.37202550174">
		<tag k="name" v="Surnadalsneset" />
		<tag k="natural" v="cape" />
		<tag k="ssr:stedsnr" v="506592" />
	</node>
	<node id="-10053" lat="62.8288972226" lon="8.64068888831">
		<tag k="name" v="Mjølbøra" />
		<tag k="natural" v="cape" />
		<tag k="ssr:stedsnr" v="338096" />
	</node>
	<node id="-11159" lat="63.0112555553" lon="8.38414445246">
		<tag k="name" v="Merrabukta" />
		<tag k="natural" v="bay" />
		<tag k="ssr:stedsnr" v="945634" />
	</node>
	<node id="-11668" lat="62.9900583375" lon="8.61197499875">
		<tag k="name" v="Vikavollbukta" />
		<tag k="natural" v="bay" />
		<tag k="ssr:stedsnr" v="49816" />
	</node>
	<node id="-11667" lat="62.9595250006" lon="8.49558610929">
		<tag k="name" v="Torvikflua" />
		<tag k="place" v="locality" />
		<tag k="seamark:type" v="rock" />
		<tag k="ssr:stedsnr" v="49808" />
	</node>
	<node id="-11665" lat="62.8847777791" lon="8.53521665793">
		<tag k="name" v="Mulnesbukta" />
		<tag k="natural" v="bay" />
		<tag k="ssr:stedsnr" v="49363" />
	</node>
	<node id="-9595" lat="62.9567833326" lon="8.52699999261">
		<tag k="name" v="Hundsprangnesset" />
		<tag k="natural" v="cape" />
		<tag k="ssr:stedsnr" v="278513" />
	</node>
	<node id="-9707" lat="62.8943805527" lon="8.50813610687">
		<tag k="name" v="Skjerrådalsbukta" />
		<tag k="natural" v="bay" />
		<tag k="ssr:stedsnr" v="231355" />
	</node>
	<node id="-11135" lat="62.9583249989" lon="8.54166388818">
		<tag k="fixme" v="consider seamark:type=rock or natural=shoal" />
		<tag k="name" v="Josteinen" />
		<tag k="place" v="islet" />
		<tag k="ssr:stedsnr" v="945398" />
	</node>
	<node id="-11643" lat="62.9752611128" lon="8.46961945278">
		<tag k="name" v="Olvika" />
		<tag k="natural" v="bay" />
		<tag k="ssr:stedsnr" v="35771" />
	</node>
	<node id="-9588" lat="62.8677472185" lon="8.62589165809">
		<tag k="name" v="Baugen" />
		<tag k="natural" v="bay" />
		<tag k="ssr:stedsnr" v="278470" />
	</node>
	<node id="-11118" lat="63.0153611139" lon="8.39710277821">
		<tag k="name" v="Mjølksandbukta" />
		<tag k="natural" v="bay" />
		<tag k="ssr:stedsnr" v="945302" />
	</node>
	<node id="-11114" lat="63.008952782" lon="8.38568056247">
		<tag k="alt_name" v="Hamna" />
		<tag k="name" v="Hamnabukta" />
		<tag k="natural" v="bay" />
		<tag k="ssr:stedsnr" v="945293" />
	</node>
	<node id="-11625" lat="62.9883416635" lon="8.48458333169">
		<tag k="name" v="Litlneset" />
		<tag k="natural" v="cape" />
		<tag k="ssr:stedsnr" v="35356" />
	</node>
	<node id="-11111" lat="62.9815083358" lon="8.47194444125">
		<tag k="name" v="Åkerbukta" />
		<tag k="natural" v="bay" />
		<tag k="ssr:stedsnr" v="945285" />
	</node>
	<node id="-11109" lat="62.9580916711" lon="8.48927777675">
		<tag k="name" v="Torvikbukta" />
		<tag k="natural" v="bay" />
		<tag k="ssr:stedsnr" v="945276" />
	</node>
	<node id="-9572" lat="63.0151472267" lon="8.40670278748">
		<tag k="fixme" v="consider seamark:type=rock or natural=shoal" />
		<tag k="name" v="Jesbåskjæret" />
		<tag k="place" v="islet" />
		<tag k="ssr:stedsnr" v="278362" />
	</node>
	<node id="-12131" lat="62.9200750016" lon="8.45223056505">
		<tag k="name" v="Stangvikbukta" />
		<tag k="natural" v="bay" />
		<tag k="ssr:stedsnr" v="216075" />
	</node>
	<node id="-11103" lat="63.0204222248" lon="8.56948889432">
		<tag k="fixme" v="consider seamark:type=rock or natural=shoal" />
		<tag k="name" v="Rønningskjæret" />
		<tag k="place" v="islet" />
		<tag k="ssr:stedsnr" v="945251" />
	</node>
	<node id="-9274" lat="62.9698694455" lon="8.36520000246">
		<tag k="name" v="Ytre Båtvikneset" />
		<tag k="natural" v="cape" />
		<tag k="ssr:stedsnr" v="231831" />
	</node>
	<node id="-9557" lat="63.008325004" lon="8.35381388157">
		<tag k="name" v="Ilaneset" />
		<tag k="natural" v="cape" />
		<tag k="ssr:stedsnr" v="278171" />
	</node>
	<node id="-11601" lat="62.8278138919" lon="8.66652777661">
		<tag k="name" v="Sagneset" />
		<tag k="natural" v="cape" />
		<tag k="ssr:stedsnr" v="35131" />
	</node>
	<node id="-10063" lat="63.0161888903" lon="8.48030555478">
		<tag k="name" v="Sjøneset" />
		<tag k="natural" v="cape" />
		<tag k="ssr:stedsnr" v="338756" />
	</node>
	<node id="-11085" lat="62.9686166707" lon="8.37314721819">
		<tag k="name" v="Båtholet" />
		<tag k="natural" v="bay" />
		<tag k="ssr:stedsnr" v="945135" />
	</node>
	<node id="-10571" lat="62.9014361124" lon="8.47633610679">
		<tag k="name" v="Hundneset" />
		<tag k="natural" v="cape" />
		<tag k="ssr:stedsnr" v="618249" />
	</node>
	<node id="-10570" lat="63.008255557" lon="8.43423610775">
		<tag k="name" v="Vedaberget" />
		<tag k="natural" v="cape" />
		<tag k="ssr:stedsnr" v="717943" />
	</node>
	<node id="-10569" lat="62.9504722237" lon="8.42372499205">
		<tag k="name" v="Soløyneset" />
		<tag k="natural" v="cape" />
		<tag k="ssr:stedsnr" v="717800" />
	</node>
	<node id="-10568" lat="62.8480555514" lon="8.63135000234">
		<tag k="name" v="Svinvika" />
		<tag k="natural" v="bay" />
		<tag k="ssr:stedsnr" v="717247" />
	</node>
	<node id="-10566" lat="63.0098361081" lon="8.45034166661">
		<tag k="name" v="Kvitneset" />
		<tag k="natural" v="cape" />
		<tag k="ssr:stedsnr" v="595939" />
	</node>
	<node id="-10565" lat="62.9675916658" lon="8.50227221802">
		<tag k="fixme" v="consider seamark:type=rock or natural=shoal" />
		<tag k="name" v="Bartskjæret" />
		<tag k="place" v="islet" />
		<tag k="ssr:stedsnr" v="595831" />
	</node>
	<node id="-10559" lat="62.9653833351" lon="8.59845556514">
		<tag k="name" v="Karlvikbukta" />
		<tag k="natural" v="bay" />
		<tag k="ssr:stedsnr" v="581478" />
	</node>
	<node id="-10546" lat="63.0115027776" lon="8.53381111979">
		<tag k="name" v="Langfjøra" />
		<tag k="natural" v="beach" />
		<tag k="place" v="locality" />
		<tag k="ssr:stedsnr" v="581506" />
	</node>
	<node id="-11057" lat="62.9957416707" lon="8.49123055505">
		<tag k="name" v="Snekkvikneset" />
		<tag k="natural" v="cape" />
		<tag k="ssr:stedsnr" v="861603" />
	</node>
	<node id="-10031" lat="62.9968194446" lon="8.48552777484">
		<tag k="name" v="Snekkvika" />
		<tag k="natural" v="bay" />
		<tag k="ssr:stedsnr" v="474944" />
	</node>
	<node id="-10030" lat="62.9700388927" lon="8.51431944882">
		<tag k="fixme" v="consider seamark:type=rock or natural=shoal" />
		<tag k="name" v="Blekkaneset" />
		<tag k="place" v="islet" />
		<tag k="ssr:stedsnr" v="474837" />
	</node>
	<node id="-11053" lat="62.8834388929" lon="8.54037222025">
		<tag k="name" v="Kattaholet" />
		<tag k="natural" v="bay" />
		<tag k="ssr:stedsnr" v="944062" />
	</node>
	<node id="-10023" lat="62.8508305516" lon="8.61819444471">
		<tag k="bay" v="fjord" />
		<tag k="name" v="Todalsfjorden" />
		<tag k="natural" v="bay" />
		<tag k="ssr:stedsnr" v="316373" />
	</node>
	<node id="-12081" lat="62.9902472214" lon="8.64258332851">
		<tag k="name" v="Osen" />
		<tag k="natural" v="bay" />
		<tag k="ssr:stedsnr" v="194615" />
	</node>
	<node id="-12064" lat="62.9812583364" lon="8.55783611325">
		<tag k="alt_name" v="Bavaneset" />
		<tag k="name" v="Bauganeset" />
		<tag k="natural" v="cape" />
		<tag k="ssr:stedsnr" v="170865" />
	</node>
	<node id="-12063" lat="62.964461113" lon="8.49051388386">
		<tag k="name" v="Hallaren" />
		<tag k="natural" v="shoal" />
		<tag k="place" v="locality" />
		<tag k="ssr:stedsnr" v="170825" />
	</node>
	<node id="-12062" lat="62.9718055597" lon="8.46198333026">
		<tag k="name" v="Vargøysundet" />
		<tag k="natural" v="strait" />
		<tag k="ssr:stedsnr" v="170814" />
	</node>
	<node id="-10013" lat="62.9752833362" lon="8.56504722321">
		<tag k="bay" v="fjord" />
		<tag k="name" v="Surnadalsfjorden" />
		<tag k="natural" v="bay" />
		<tag k="ssr:stedsnr" v="315659" />
	</node>
	<node id="-9497" lat="63.0088305536" lon="8.34747777224">
		<tag k="name" v="Tangneset" />
		<tag k="natural" v="cape" />
		<tag k="ssr:stedsnr" v="277665" />
	</node>
	<node id="-9496" lat="63.012980553" lon="8.32452499967">
		<tag k="name" v="Dragsetbukta" />
		<tag k="natural" v="bay" />
		<tag k="ssr:stedsnr" v="277656" />
	</node>
	<node id="-9495" lat="63.0150583317" lon="8.28346387912">
		<tag k="name" v="Sjølvgjetlbukta" />
		<tag k="natural" v="bay" />
		<tag k="ssr:stedsnr" v="277647" />
	</node>
	<node id="-11025" lat="62.9744388885" lon="8.53168333581">
		<tag k="name" v="Tussvikneset" />
		<tag k="natural" v="cape" />
		<tag k="ssr:stedsnr" v="824474" />
	</node>
	<node id="-11024" lat="62.9590388899" lon="8.54464166104">
		<tag k="name" v="Skivedberget" />
		<tag k="natural" v="cape" />
		<tag k="ssr:stedsnr" v="824470" />
	</node>
	<node id="-11532" lat="62.8302638907" lon="8.65379999281">
		<tag k="name" v="Vorpneset" />
		<tag k="natural" v="cape" />
		<tag k="ssr:stedsnr" v="34401" />
	</node>
	<node id="-11531" lat="62.8271500041" lon="8.6764944464">
		<tag k="alt_name" v="Ansholmen" />
		<tag k="name" v="Ansnesholmen" />
		<tag k="place" v="islet" />
		<tag k="ssr:stedsnr" v="34397" />
	</node>
	<node id="-12035" lat="62.9561472199" lon="8.51398334192">
		<tag k="fixme" v="consider seamark:type=rock or natural=shoal" />
		<tag k="name" v="Skjæret" />
		<tag k="place" v="islet" />
		<tag k="ssr:stedsnr" v="156791" />
	</node>
	<node id="-9978" lat="62.9583333337" lon="8.49505276955">
		<tag k="name" v="Øraneset" />
		<tag k="natural" v="cape" />
		<tag k="ssr:stedsnr" v="460785" />
	</node>
	<node id="-10623" lat="62.9875388856" lon="8.46646666165">
		<tag k="name" v="Solemsøya" />
		<tag k="place" v="islet" />
		<tag k="ssr:stedsnr" v="679623" />
	</node>
	<node id="-12024" lat="63.0187638857" lon="8.37818332902">
		<tag k="name" v="Settemsbukta" />
		<tag k="natural" v="bay" />
		<tag k="ssr:stedsnr" v="156642" />
	</node>
	<node id="-11502" lat="62.8478527799" lon="8.62494443778">
		<tag k="alt_name" v="Svinvikneset" />
		<tag k="name" v="Svinneset" />
		<tag k="natural" v="cape" />
		<tag k="ssr:stedsnr" v="34098" />
	</node>
	<node id="-11501" lat="62.8378222196" lon="8.62153611641">
		<tag k="name" v="Ingridvika" />
		<tag k="natural" v="bay" />
		<tag k="ssr:stedsnr" v="34096" />
	</node>
	<node id="-9681" lat="62.9854222204" lon="8.47049167009">
		<tag k="name" v="Hamnessundet" />
		<tag k="natural" v="strait" />
		<tag k="ssr:stedsnr" v="217306" />
	</node>
	<node id="-9956" lat="63.0083305532" lon="8.41153333376">
		<tag k="name" v="Hallfurubukta" />
		<tag k="natural" v="bay" />
		<tag k="ssr:stedsnr" v="460377" />
	</node>
	<node id="-9953" lat="62.9939055512" lon="8.4926166744">
		<tag k="name" v="Sandnessundet" />
		<tag k="natural" v="strait" />
		<tag k="ssr:stedsnr" v="460356" />
	</node>
	<node id="-9952" lat="62.9590638892" lon="8.47727499932">
		<tag k="name" v="Storsteinbukta" />
		<tag k="natural" v="bay" />
		<tag k="ssr:stedsnr" v="460353" />
	</node>
	<node id="-9680" lat="62.9883638924" lon="8.45947221272">
		<tag k="name" v="Ytre Solemsbukta" />
		<tag k="natural" v="bay" />
		<tag k="ssr:stedsnr" v="217303" />
	</node>
	<node id="-9948" lat="62.9566361135" lon="8.50218056408">
		<tag k="name" v="Vikaberget" />
		<tag k="natural" v="cape" />
		<tag k="ssr:stedsnr" v="460344" />
	</node>
	<node id="-11994" lat="62.9221361132" lon="8.45646667167">
		<tag k="fixme" v="consider seamark:type=rock or natural=shoal" />
		<tag k="name" v="Skjeret" />
		<tag k="place" v="islet" />
		<tag k="ssr:stedsnr" v="156394" />
	</node>
	<node id="-10969" lat="62.8985972195" lon="8.49602221808">
		<tag k="name" v="Grønnesbukta" />
		<tag k="natural" v="bay" />
		<tag k="ssr:stedsnr" v="823072" />
	</node>
	<node id="-9416" lat="62.8697416639" lon="8.62123055271">
		<tag k="name" v="Sagneset" />
		<tag k="natural" v="cape" />
		<tag k="ssr:stedsnr" v="110420" />
	</node>
	<node id="-9926" lat="63.0079999974" lon="8.35509445034">
		<tag k="name" v="Ilabukta" />
		<tag k="natural" v="bay" />
		<tag k="ssr:stedsnr" v="460189" />
	</node>
	<node id="-11973" lat="63.0149416658" lon="8.41561388904">
		<tag k="name" v="Purkvikneset" />
		<tag k="natural" v="cape" />
		<tag k="ssr:stedsnr" v="156300" />
	</node>
	<node id="-9409" lat="63.0109916652" lon="8.44129166741">
		<tag k="bay" v="fjord" />
		<tag k="name" v="Åsskardfjorden" />
		<tag k="natural" v="bay" />
		<tag k="ssr:stedsnr" v="255874" />
	</node>
	<node id="-11967" lat="62.9715444489" lon="8.48781111694">
		<tag k="name" v="Jevikbukta" />
		<tag k="natural" v="bay" />
		<tag k="ssr:stedsnr" v="156267" />
	</node>
	<node id="-10015" lat="62.9713888869" lon="8.45455278202">
		<tag k="name" v="Vargøya" />
		<tag k="place" v="islet" />
		<tag k="ssr:stedsnr" v="315670" />
	</node>
	<node id="-10420" lat="63.0110999967" lon="8.37930277162">
		<tag k="name" v="Sjøåkerneset" />
		<tag k="natural" v="cape" />
		<tag k="ssr:stedsnr" v="702649" />
	</node>
	<node id="-11440" lat="62.8823194468" lon="8.53558888267">
		<tag k="name" v="Mulneset" />
		<tag k="natural" v="cape" />
		<tag k="ssr:stedsnr" v="12256" />
	</node>
	<node id="-10922" lat="62.9713611114" lon="8.39631111361">
		<tag k="name" v="Flesaholmen" />
		<tag k="place" v="islet" />
		<tag k="ssr:stedsnr" v="922647" />
	</node>
	<node id="-11420" lat="62.9799527802" lon="8.45208610735">
		<tag k="bay" v="fjord" />
		<tag k="name" v="Hamnesfjorden" />
		<tag k="natural" v="bay" />
		<tag k="ssr:stedsnr" v="11644" />
	</node>
	<node id="-11419" lat="62.9818499975" lon="8.31320277739">
		<tag k="bay" v="fjord" />
		<tag k="name" v="Trongfjorden" />
		<tag k="natural" v="bay" />
		<tag k="ssr:stedsnr" v="11641" />
	</node>
	<node id="-9326" lat="63.0128694464" lon="8.37745278276">
		<tag k="fixme" v="consider seamark:type=rock or natural=shoal" />
		<tag k="name" v="Øraskjæra" />
		<tag k="place" v="islet" />
		<tag k="ssr:stedsnr" v="95625" />
	</node>
	<node id="-10490" lat="62.9679888877" lon="8.50296110941">
		<tag k="name" v="Øran" />
		<tag k="natural" v="cape" />
		<tag k="ssr:stedsnr" v="703777" />
	</node>
	<node id="-9865" lat="63.0148333319" lon="8.3473388793">
		<tag k="name" v="Dragsetholmen" />
		<tag k="place" v="islet" />
		<tag k="ssr:stedsnr" v="459648" />
	</node>
	<node id="-10375" lat="63.0209916669" lon="8.4861277773">
		<tag k="fixme" v="consider seamark:type=rock or natural=shoal" />
		<tag k="name" v="Sagskjæret" />
		<tag k="place" v="islet" />
		<tag k="ssr:stedsnr" v="702295" />
	</node>
	<node id="-10884" lat="62.9926861067" lon="8.46836110941">
		<tag k="fixme" v="consider seamark:type=rock or natural=shoal" />
		<tag k="name" v="Bryggeskjæret" />
		<tag k="place" v="islet" />
		<tag k="ssr:stedsnr" v="763319" />
	</node>
	<node id="-9637" lat="62.9700972223" lon="8.44958888214">
		<tag k="name" v="Vargen" />
		<tag k="place" v="locality" />
		<tag k="seamark:type" v="rock" />
		<tag k="ssr:stedsnr" v="292803" />
	</node>
	<node id="-11388" lat="62.9687333321" lon="8.37663055314">
		<tag k="name" v="Kolbeinvika" />
		<tag k="natural" v="bay" />
		<tag k="ssr:stedsnr" v="945322" />
	</node>
	<node id="-10350" lat="62.9350051895" lon="8.42978629034">
		<tag k="alt_name" v="Brøskeneset" />
		<tag k="name" v="Brøskjaneset" />
		<tag k="natural" v="cape" />
		<tag k="ssr:stedsnr" v="702091" />
	</node>
	<node id="-9575" lat="62.9690916631" lon="8.37091944418">
		<tag k="name" v="Båtvikbukta" />
		<tag k="natural" v="bay" />
		<tag k="ssr:stedsnr" v="278398" />
	</node>
	<node id="-11356" lat="63.0069972267" lon="8.34312499417">
		<tag k="name" v="Stakkneset" />
		<tag k="natural" v="cape" />
		<tag k="ssr:stedsnr" v="922855" />
	</node>
	<node id="-11355" lat="62.8740138931" lon="8.61484444848">
		<tag k="alt_name" v="Purkskjeret" />
		<tag k="name" v="Purkskjæret" />
		<tag k="natural" v="cape" />
		<tag k="ssr:stedsnr" v="922232" />
	</node>
	<node id="-10324" lat="62.9839083323" lon="8.4730444493">
		<tag k="alt_name" v="Hamnesneset" />
		<tag k="name" v="Hamnes" />
		<tag k="natural" v="cape" />
		<tag k="ssr:stedsnr" v="557612" />
	</node>
	<node id="-11346" lat="63.022275" lon="8.57857500832">
		<tag k="name" v="Lianaustbukta" />
		<tag k="natural" v="bay" />
		<tag k="ssr:stedsnr" v="217262" />
	</node>
	<node id="-10319" lat="62.8879916656" lon="8.52208888425">
		<tag k="name" v="Kvennaneset" />
		<tag k="natural" v="cape" />
		<tag k="ssr:stedsnr" v="695792" />
	</node>
	<node id="-11664" lat="62.8313388897" lon="8.67719723003">
		<tag k="name" v="Grunnegga" />
		<tag k="natural" v="shoal" />
		<tag k="place" v="locality" />
		<tag k="ssr:stedsnr" v="49314" />
	</node>
	<node id="-11845" lat="62.9699209595" lon="8.4653838416">
		<tag k="name" v="Kjergroneset" />
		<tag k="natural" v="cape" />
		<tag k="ssr:stedsnr" v="133640" />
	</node>
	<node id="-10298" lat="62.9883055587" lon="8.63457500256">
		<tag k="name" v="Glæremsvika" />
		<tag k="natural" v="bay" />
		<tag k="ssr:stedsnr" v="690932" />
	</node>
	<node id="-10294" lat="62.9889611096" lon="8.61840276905">
		<tag k="name" v="Glæremsanden" />
		<tag k="natural" v="beach" />
		<tag k="place" v="locality" />
		<tag k="ssr:stedsnr" v="690457" />
	</node>
	<node id="-11317" lat="63.0180527823" lon="8.45455834157">
		<tag k="name" v="Ramsvika" />
		<tag k="natural" v="bay" />
		<tag k="ssr:stedsnr" v="885754" />
	</node>
	<node id="-11315" lat="62.9817805536" lon="8.3510305645">
		<tag k="name" v="Mosesholet" />
		<tag k="natural" v="bay" />
		<tag k="ssr:stedsnr" v="885659" />
	</node>
	<node id="-9774" lat="62.9016694407" lon="8.47888333951">
		<tag k="name" v="Hunnesbukta" />
		<tag k="natural" v="bay" />
		<tag k="ssr:stedsnr" v="459074" />
	</node>
	<node id="-10280" lat="62.9620361135" lon="8.56802222489">
		<tag k="name" v="Holtabukta" />
		<tag k="natural" v="bay" />
		<tag k="ssr:stedsnr" v="520430" />
	</node>
	<node id="-11299" lat="62.9939777796" lon="8.47285833648">
		<tag k="fixme" v="consider seamark:type=rock or natural=shoal" />
		<tag k="name" v="Bekkaskjæret" />
		<tag k="place" v="islet" />
		<tag k="ssr:stedsnr" v="885314" />
	</node>
	<node id="-11298" lat="62.992305556" lon="8.49318611399">
		<tag k="name" v="Notkastet" />
		<tag k="natural" v="beach" />
		<tag k="place" v="locality" />
		<tag k="ssr:stedsnr" v="885311" />
	</node>
	<node id="-11295" lat="63.0091527768" lon="8.36288888279">
		<tag k="fixme" v="consider seamark:type=rock or natural=shoal" />
		<tag k="name" v="Kobben" />
		<tag k="place" v="islet" />
		<tag k="ssr:stedsnr" v="885155" />
	</node>
	<node id="-11804" lat="62.9897972214" lon="8.46306944283">
		<tag k="name" v="Indre Solemsbukta" />
		<tag k="natural" v="bay" />
		<tag k="ssr:stedsnr" v="96316" />
	</node>
	<node id="-11802" lat="63.0123833313" lon="8.53777778349">
		<tag k="name" v="Bratthammarbukta" />
		<tag k="natural" v="bay" />
		<tag k="ssr:stedsnr" v="96490" />
	</node>
	<node id="-11791" lat="63.0203694413" lon="8.56480000737">
		<tag k="name" v="Merramyrneset" />
		<tag k="natural" v="cape" />
		<tag k="ssr:stedsnr" v="96278" />
	</node>
	<node id="-9736" lat="62.8670055526" lon="8.53867500163">
		<tag k="bay" v="fjord" />
		<tag k="name" v="Stangvikfjorden" />
		<tag k="natural" v="bay" />
		<tag k="ssr:stedsnr" v="254713" />
	</node>
	<node id="-9217" lat="63.0154361143" lon="8.54866944406">
		<tag k="name" v="Hakstadneset" />
		<tag k="natural" v="cape" />
		<tag k="ssr:stedsnr" v="217459" />
	</node>
</osm>
