<?xml version="1.0" encoding="UTF-8"?>
<osm generator="osmapis" version="0.6">
	<node id="-288759" lat="58.6169666642" lon="9.08312222916">
		<tag k="highway" v="path" />
		<tag k="name" v="Skolevei vestre" />
		<tag k="ssr:stedsnr" v="818434" />
	</node>
	<node id="-287713" lat="58.5849972248" lon="9.02608610299">
		<tag k="man_made" v="quay" />
		<tag k="name" v="Hagefjordbrygga" />
		<tag k="place" v="locality" />
		<tag k="ssr:stedsnr" v="262998" />
	</node>
	<node id="-287192" lat="58.6499305534" lon="8.94081111638">
		<tag k="bridge" v="yes" />
		<tag k="layer" v="1" />
		<tag k="name" v="Ramleth" />
		<tag k="ssr:stedsnr" v="46253" />
	</node>
	<node id="-287191" lat="58.6484888919" lon="8.92819165895">
		<tag k="bridge" v="yes" />
		<tag k="layer" v="1" />
		<tag k="name" v="Sanvad" />
		<tag k="ssr:stedsnr" v="46240" />
	</node>
	<node id="-287190" lat="58.6275833332" lon="8.86719167262">
		<tag k="bridge" v="yes" />
		<tag k="layer" v="1" />
		<tag k="name" v="Stornes" />
		<tag k="ssr:stedsnr" v="45238" />
	</node>
	<node id="-287189" lat="58.6239694458" lon="8.93808888609">
		<tag k="bridge" v="yes" />
		<tag k="layer" v="1" />
		<tag k="name" v="Tangenbakken" />
		<tag k="ssr:stedsnr" v="45235" />
	</node>
	<node id="-288207" lat="58.6426305533" lon="8.86868888743">
		<tag k="bridge" v="yes" />
		<tag k="layer" v="1" />
		<tag k="name" v="Rosseland" />
		<tag k="ssr:stedsnr" v="592258" />
	</node>
	<node id="-288206" lat="58.6020055539" lon="8.87294722971">
		<tag k="bridge" v="yes" />
		<tag k="layer" v="1" />
		<tag k="name" v="Holt" />
		<tag k="ssr:stedsnr" v="592254" />
	</node>
	<node id="-288205" lat="58.6508416701" lon="8.93455554778">
		<tag k="bridge" v="yes" />
		<tag k="layer" v="1" />
		<tag k="name" v="Skjerka" />
		<tag k="ssr:stedsnr" v="592249" />
	</node>
	<node id="-288204" lat="58.6474333348" lon="9.10687777656">
		<tag k="bridge" v="yes" />
		<tag k="layer" v="1" />
		<tag k="name" v="Gjeving" />
		<tag k="ssr:stedsnr" v="592235" />
	</node>
	<node id="-288203" lat="58.624369448" lon="8.92695555367">
		<tag k="bridge" v="yes" />
		<tag k="layer" v="1" />
		<tag k="name" v="Fjæretjern" />
		<tag k="ssr:stedsnr" v="592233" />
	</node>
	<node id="-288714" lat="58.6193638866" lon="9.02181388966">
		<tag k="alt_name" v="Åstø" />
		<tag k="fixme" v="verify maritime location" />
		<tag k="mooring" v="yes" />
		<tag k="name" v="Åsstø" />
		<tag k="place" v="locality" />
		<tag k="ssr:stedsnr" v="790310" />
	</node>
	<node id="-287673" lat="58.6879416647" lon="9.00454443952">
		<tag k="bridge" v="yes" />
		<tag k="layer" v="1" />
		<tag k="name" v="Songedumpa" />
		<tag k="ssr:stedsnr" v="227249" />
	</node>
	<node id="-287672" lat="58.6517055573" lon="8.94155555168">
		<tag k="bridge" v="yes" />
		<tag k="layer" v="1" />
		<tag k="name" v="Storelva" />
		<tag k="ssr:stedsnr" v="227247" />
	</node>
	<node id="-287646" lat="58.679883329" lon="8.86124166189">
		<tag k="fixme" v="verify maritime location" />
		<tag k="mooring" v="yes" />
		<tag k="name" v="Djupekjerrstøa" />
		<tag k="place" v="locality" />
		<tag k="ssr:stedsnr" v="211844" />
	</node>
	<node id="-288127" lat="58.6342361094" lon="9.1292194421">
		<tag k="name" v="Dynga" />
		<tag k="place" v="locality" />
		<tag k="ssr:stedsnr" v="575437" />
	</node>
	<node id="-289145" lat="58.6419694459" lon="8.91867222357">
		<tag k="bridge" v="yes" />
		<tag k="layer" v="1" />
		<tag k="name" v="Oddersbekk" />
		<tag k="ssr:stedsnr" v="957237" />
	</node>
	<node id="-289144" lat="58.6306027733" lon="8.85462499625">
		<tag k="bridge" v="yes" />
		<tag k="layer" v="1" />
		<tag k="name" v="Hammeren vestre" />
		<tag k="ssr:stedsnr" v="957236" />
	</node>
	<node id="-289122" lat="58.6347805512" lon="8.92166944522">
		<tag k="highway" v="path" />
		<tag k="name" v="Brurstien" />
		<tag k="ssr:stedsnr" v="940878" />
	</node>
	<node id="-287577" lat="58.7018833323" lon="8.9838166667">
		<tag k="fixme" v="verify maritime location" />
		<tag k="mooring" v="yes" />
		<tag k="name" v="Støa" />
		<tag k="place" v="locality" />
		<tag k="ssr:stedsnr" v="211328" />
	</node>
	<node id="-286533" lat="58.6440805519" lon="9.1202750065">
		<tag k="man_made" v="quay" />
		<tag k="name" v="Nybrygga" />
		<tag k="place" v="locality" />
		<tag k="ssr:stedsnr" v="272441" />
	</node>
	<node id="-289089" lat="58.6832361087" lon="9.03819443834">
		<tag k="highway" v="path" />
		<tag k="name" v="Rødkleiv" />
		<tag k="ssr:stedsnr" v="940582" />
	</node>
	<node id="-286528" lat="58.6682250041" lon="9.08948333597">
		<tag k="fixme" v="verify maritime location" />
		<tag k="mooring" v="yes" />
		<tag k="name" v="Støa" />
		<tag k="place" v="locality" />
		<tag k="ssr:stedsnr" v="272388" />
	</node>
	<node id="-287032" lat="58.6298173878" lon="8.89769027406">
		<tag k="layer" v="-1" />
		<tag k="name" v="Fløyheitunnelen" />
		<tag k="ssr:stedsnr" v="990789" />
		<tag k="tunnel" v="yes" />
	</node>
	<node id="-287031" lat="58.621843832" lon="8.89326309932">
		<tag k="bridge" v="yes" />
		<tag k="layer" v="1" />
		<tag k="name" v="Nygårdsbrua" />
		<tag k="ssr:stedsnr" v="990784" />
	</node>
	<node id="-287030" lat="58.5969844264" lon="8.89872632689">
		<tag k="bridge" v="yes" />
		<tag k="layer" v="1" />
		<tag k="name" v="Kloppemyrbrua" />
		<tag k="ssr:stedsnr" v="990783" />
	</node>
	<node id="-287029" lat="58.5809664051" lon="8.90388469121">
		<tag k="bridge" v="yes" />
		<tag k="layer" v="1" />
		<tag k="name" v="Bråtenbrua" />
		<tag k="ssr:stedsnr" v="990782" />
	</node>
	<node id="-287028" lat="58.5650894224" lon="8.89498819286">
		<tag k="bridge" v="yes" />
		<tag k="layer" v="1" />
		<tag k="name" v="Årdalsbrua" />
		<tag k="ssr:stedsnr" v="990764" />
	</node>
	<node id="-287027" lat="58.5613210408" lon="8.88620522161">
		<tag k="bridge" v="yes" />
		<tag k="layer" v="1" />
		<tag k="name" v="Storemyrbrua" />
		<tag k="ssr:stedsnr" v="990762" />
	</node>
	<node id="-287026" lat="58.5567333907" lon="8.87564234346">
		<tag k="bridge" v="yes" />
		<tag k="layer" v="1" />
		<tag k="name" v="Kroktjennbrua" />
		<tag k="ssr:stedsnr" v="990761" />
	</node>
	<node id="-287025" lat="58.6140573812" lon="8.89841685944">
		<tag k="junction" v="yes" />
		<tag k="name" v="Grenstølkrysset" />
		<tag k="place" v="locality" />
		<tag k="ssr:stedsnr" v="989075" />
	</node>
	<node id="-287023" lat="58.609794446" lon="8.87839444903">
		<tag k="bridge" v="yes" />
		<tag k="layer" v="1" />
		<tag k="name" v="Langtveit" />
		<tag k="ssr:stedsnr" v="896237" />
	</node>
	<node id="-287022" lat="58.6462083323" lon="9.09784444421">
		<tag k="bridge" v="yes" />
		<tag k="layer" v="1" />
		<tag k="name" v="Bergendal" />
		<tag k="ssr:stedsnr" v="896222" />
	</node>
	<node id="-287021" lat="58.6708416628" lon="8.98066389107">
		<tag k="bridge" v="yes" />
		<tag k="layer" v="1" />
		<tag k="name" v="Sundsbekkdalen nedre" />
		<tag k="ssr:stedsnr" v="895224" />
	</node>
	<node id="-287020" lat="58.6269361152" lon="8.95592500074">
		<tag k="bridge" v="yes" />
		<tag k="layer" v="1" />
		<tag k="name" v="Østerå" />
		<tag k="ssr:stedsnr" v="895187" />
	</node>
	<node id="-287017" lat="58.6186722215" lon="8.79710555793">
		<tag k="bridge" v="yes" />
		<tag k="layer" v="1" />
		<tag k="name" v="Lindland" />
		<tag k="ssr:stedsnr" v="410243" />
	</node>
	<node id="-287016" lat="58.5923027816" lon="9.00526110516">
		<tag k="bridge" v="yes" />
		<tag k="layer" v="1" />
		<tag k="name" v="Sørsund" />
		<tag k="ssr:stedsnr" v="409256" />
	</node>
	<node id="-288029" lat="58.6271055568" lon="8.95530833114">
		<tag k="layer" v="-1" />
		<tag k="name" v="Østerå" />
		<tag k="ssr:stedsnr" v="529623" />
		<tag k="tunnel" v="yes" />
	</node>
	<node id="-289051" lat="58.6549805557" lon="9.00218888082">
		<tag k="fixme" v="verify maritime location" />
		<tag k="mooring" v="yes" />
		<tag k="name" v="Hofsdalstøa" />
		<tag k="place" v="locality" />
		<tag k="ssr:stedsnr" v="940337" />
	</node>
	<node id="-288538" lat="58.5936833351" lon="9.00438611868">
		<tag k="bridge" v="yes" />
		<tag k="layer" v="1" />
		<tag k="name" v="Snarsund" />
		<tag k="ssr:stedsnr" v="714189" />
	</node>
	<node id="-289045" lat="58.6928583361" lon="9.01845556227">
		<tag k="ford" v="yes" />
		<tag k="name" v="Marisva" />
		<tag k="place" v="locality" />
		<tag k="ssr:stedsnr" v="940285" />
	</node>
	<node id="-287508" lat="58.6060722263" lon="8.87773611064">
		<tag k="bridge" v="yes" />
		<tag k="layer" v="1" />
		<tag k="name" v="Godderstad" />
		<tag k="ssr:stedsnr" v="168223" />
	</node>
	<node id="-289034" lat="58.6458361147" lon="9.12454445245">
		<tag k="fixme" v="verify maritime location" />
		<tag k="mooring" v="yes" />
		<tag k="name" v="Vinterstø" />
		<tag k="place" v="locality" />
		<tag k="ssr:stedsnr" v="940075" />
	</node>
	<node id="-286979" lat="58.6314694485" lon="8.98857222413">
		<tag k="fixme" v="verify maritime location" />
		<tag k="mooring" v="yes" />
		<tag k="name" v="Vassendstøa" />
		<tag k="place" v="locality" />
		<tag k="ssr:stedsnr" v="393687" />
	</node>
	<node id="-287991" lat="58.628369448" lon="8.98680000207">
		<tag k="fixme" v="verify maritime location" />
		<tag k="mooring" v="yes" />
		<tag k="name" v="Ulevågstøa" />
		<tag k="place" v="locality" />
		<tag k="ssr:stedsnr" v="515709" />
	</node>
	<node id="-288472" lat="58.6735888891" lon="8.956050002">
		<tag k="name" v="Hestestenget" />
		<tag k="place" v="locality" />
		<tag k="ssr:stedsnr" v="697561" />
	</node>
	<node id="-286929" lat="58.6996277792" lon="8.96542500445">
		<tag k="ford" v="yes" />
		<tag k="name" v="Sauva" />
		<tag k="place" v="locality" />
		<tag k="ssr:stedsnr" v="393307" />
	</node>
	<node id="-286920" lat="58.5971388878" lon="8.74541945035">
		<tag k="fixme" v="verify maritime location" />
		<tag k="mooring" v="yes" />
		<tag k="name" v="Geitfjellstoet" />
		<tag k="place" v="locality" />
		<tag k="ssr:stedsnr" v="393201" />
	</node>
	<node id="-287428" lat="58.6245027741" lon="9.05725833821">
		<tag k="man_made" v="quay" />
		<tag k="name" v="Dypvåg brygge" />
		<tag k="place" v="locality" />
		<tag k="ssr:stedsnr" v="150479" />
	</node>
	<node id="-287423" lat="58.6131138896" lon="9.06873889407">
		<tag k="highway" v="path" />
		<tag k="name" v="Skolevei vestre" />
		<tag k="ssr:stedsnr" v="150423" />
	</node>
	<node id="-288202" lat="58.619824997" lon="8.82693611657">
		<tag k="bridge" v="yes" />
		<tag k="layer" v="1" />
		<tag k="name" v="Torvmoen" />
		<tag k="ssr:stedsnr" v="591210" />
	</node>
	<node id="-287418" lat="58.663305553" lon="8.96429722255">
		<tag k="highway" v="path" />
		<tag k="name" v="Ankelveien" />
		<tag k="ssr:stedsnr" v="150380" />
	</node>
	<node id="-287413" lat="58.6577694456" lon="9.02189167495">
		<tag k="fixme" v="consider highway=path" />
		<tag k="highway" v="track" />
		<tag k="name" v="Steinkleiva" />
		<tag k="ssr:stedsnr" v="150345" />
	</node>
	<node id="-287409" lat="58.6892750041" lon="9.01609999918">
		<tag k="alt_name" v="Stea" />
		<tag k="bridge" v="yes" />
		<tag k="layer" v="1" />
		<tag k="name" v="Stebrua" />
		<tag k="ssr:stedsnr" v="150288" />
	</node>
	<node id="-288539" lat="58.5850944471" lon="8.9395444515">
		<tag k="bridge" v="yes" />
		<tag k="layer" v="1" />
		<tag k="name" v="Skredderen" />
		<tag k="ssr:stedsnr" v="714191" />
	</node>
	<node id="-288831" lat="58.675138885" lon="8.98666111193">
		<tag k="bridge" v="yes" />
		<tag k="layer" v="1" />
		<tag k="name" v="Sundsbekkdalen" />
		<tag k="ssr:stedsnr" v="834255" />
	</node>
	<node id="-287342" lat="58.6232416678" lon="8.93091388747">
		<tag k="bridge" v="yes" />
		<tag k="layer" v="1" />
		<tag k="name" v="Østerklev" />
		<tag k="ssr:stedsnr" v="106196" />
	</node>
	<node id="-288913" lat="58.6556444401" lon="9.00682500113">
		<tag k="highway" v="path" />
		<tag k="name" v="Nils Løvdals vei" />
		<tag k="ssr:stedsnr" v="879328" />
	</node>
	<node id="-287851" lat="58.6215111154" lon="9.02744445188">
		<tag k="bridge" v="yes" />
		<tag k="layer" v="1" />
		<tag k="name" v="Krokvåg" />
		<tag k="ssr:stedsnr" v="471230" />
	</node>
	<node id="-288384" lat="58.6191333334" lon="8.8786111121">
		<tag k="junction" v="yes" />
		<tag k="name" v="Fiane" />
		<tag k="place" v="locality" />
		<tag k="ssr:stedsnr" v="668390" />
	</node>
	<node id="-287866" lat="58.6318527771" lon="8.91282221911">
		<tag k="junction" v="yes" />
		<tag k="name" v="Amtmannsvingen" />
		<tag k="place" v="locality" />
		<tag k="ssr:stedsnr" v="486380" />
	</node>
	<node id="-288887" lat="58.5983499963" lon="8.85615277861">
		<tag k="fixme" v="verify maritime location" />
		<tag k="mooring" v="yes" />
		<tag k="name" v="Holtstøa" />
		<tag k="place" v="locality" />
		<tag k="ssr:stedsnr" v="879086" />
	</node>
	<node id="-287348" lat="58.6519194453" lon="8.94229722774">
		<tag k="bridge" v="yes" />
		<tag k="layer" v="1" />
		<tag k="name" v="Lundetunet" />
		<tag k="ssr:stedsnr" v="107228" />
	</node>
	<node id="-287347" lat="58.6513388889" lon="9.13988333072">
		<tag k="bridge" v="yes" />
		<tag k="layer" v="1" />
		<tag k="name" v="Risøya" />
		<tag k="ssr:stedsnr" v="107225" />
	</node>
	<node id="-287346" lat="58.6306583296" lon="8.85501388977">
		<tag k="bridge" v="yes" />
		<tag k="layer" v="1" />
		<tag k="name" v="Hammeren østre" />
		<tag k="ssr:stedsnr" v="107222" />
	</node>
	<node id="-287345" lat="58.6055388895" lon="8.97151944704">
		<tag k="bridge" v="yes" />
		<tag k="layer" v="1" />
		<tag k="name" v="Sagesund" />
		<tag k="ssr:stedsnr" v="107215" />
	</node>
	<node id="-287344" lat="58.6380249986" lon="8.90956667237">
		<tag k="bridge" v="yes" />
		<tag k="layer" v="1" />
		<tag k="name" v="Bjørnstad" />
		<tag k="ssr:stedsnr" v="107201" />
	</node>
	<node id="-287343" lat="58.6853972207" lon="9.00534722335">
		<tag k="bridge" v="yes" />
		<tag k="layer" v="1" />
		<tag k="name" v="Songe" />
		<tag k="ssr:stedsnr" v="106237" />
	</node>
	<node id="-288366" lat="58.6585555562" lon="8.95793889562">
		<tag k="bridge" v="yes" />
		<tag k="layer" v="1" />
		<tag k="name" v="Lundevann" />
		<tag k="ssr:stedsnr" v="653228" />
	</node>
	<node id="-288365" lat="58.6246916694" lon="8.85584167077">
		<tag k="bridge" v="yes" />
		<tag k="layer" v="1" />
		<tag k="name" v="Liane" />
		<tag k="ssr:stedsnr" v="653229" />
	</node>
	<node id="-288364" lat="58.6684583376" lon="8.97554444402">
		<tag k="bridge" v="yes" />
		<tag k="layer" v="1" />
		<tag k="name" v="Klådvika" />
		<tag k="ssr:stedsnr" v="653222" />
	</node>
	<node id="-288363" lat="58.6341111113" lon="8.90453610636">
		<tag k="bridge" v="yes" />
		<tag k="layer" v="1" />
		<tag k="name" v="Rømyr" />
		<tag k="ssr:stedsnr" v="653213" />
	</node>
	<node id="-288362" lat="58.6402194411" lon="8.91237777277">
		<tag k="bridge" v="yes" />
		<tag k="layer" v="1" />
		<tag k="name" v="Tveitehallingene" />
		<tag k="ssr:stedsnr" v="652164" />
	</node>
	<node id="-287323" lat="58.5968416635" lon="8.88592223062">
		<tag k="man_made" v="cairn" />
		<tag k="name" v="Varden" />
		<tag k="place" v="locality" />
		<tag k="ssr:stedsnr" v="90869" />
	</node>
	<node id="-288344" lat="58.6775555591" lon="8.90316667134">
		<tag k="fixme" v="verify maritime location" />
		<tag k="mooring" v="yes" />
		<tag k="name" v="Sætanstøa" />
		<tag k="place" v="locality" />
		<tag k="ssr:stedsnr" v="636820" />
	</node>
	<node id="-287319" lat="58.6342638893" lon="8.88313333267">
		<tag k="ford" v="yes" />
		<tag k="name" v="Bergva" />
		<tag k="place" v="locality" />
		<tag k="ssr:stedsnr" v="90863" />
	</node>
	<node id="-288697" lat="58.6479222203" lon="8.93808611656">
		<tag k="bridge" v="yes" />
		<tag k="layer" v="1" />
		<tag k="name" v="Badstubakken" />
		<tag k="ssr:stedsnr" v="775204" />
	</node>
	<node id="-287828" lat="58.6559916698" lon="8.90063333664">
		<tag k="fixme" v="verify maritime location" />
		<tag k="mooring" v="yes" />
		<tag k="name" v="Sandvasstøa" />
		<tag k="place" v="locality" />
		<tag k="ssr:stedsnr" v="454789" />
	</node>
	<node id="-288696" lat="58.6772555538" lon="8.98973610977">
		<tag k="bridge" v="yes" />
		<tag k="layer" v="1" />
		<tag k="name" v="Fredvika" />
		<tag k="ssr:stedsnr" v="775200" />
	</node>
	<node id="-288833" lat="58.619005553" lon="8.87778055796">
		<tag k="bridge" v="yes" />
		<tag k="layer" v="1" />
		<tag k="name" v="Solberg" />
		<tag k="ssr:stedsnr" v="836194" />
	</node>
	<node id="-288832" lat="58.6306138865" lon="8.85469166686">
		<tag k="bridge" v="yes" />
		<tag k="layer" v="1" />
		<tag k="name" v="Hammeren midtre" />
		<tag k="ssr:stedsnr" v="835242" />
	</node>
	<node id="-286783" lat="58.6821250018" lon="9.07017777387">
		<tag k="bridge" v="yes" />
		<tag k="layer" v="1" />
		<tag k="name" v="Laget" />
		<tag k="ssr:stedsnr" v="350220" />
	</node>
	<node id="-287285" lat="58.6106416643" lon="8.99786110302">
		<tag k="fixme" v="verify maritime location" />
		<tag k="mooring" v="yes" />
		<tag k="name" v="Eriksstø" />
		<tag k="place" v="locality" />
		<tag k="ssr:stedsnr" v="90552" />
	</node>
	<node id="-287792" lat="58.6298055543" lon="9.1231749994">
		<tag k="name" v="Slengen" />
		<tag k="place" v="locality" />
		<tag k="ssr:stedsnr" v="454454" />
	</node>
	<node id="-287787" lat="58.6675138876" lon="9.08256111434">
		<tag k="fixme" v="verify maritime location" />
		<tag k="mooring" v="yes" />
		<tag k="name" v="Stølestøa" />
		<tag k="place" v="locality" />
		<tag k="ssr:stedsnr" v="454410" />
	</node>
	<node id="-287779" lat="58.6554666696" lon="8.99853889329">
		<tag k="fixme" v="verify maritime location" />
		<tag k="mooring" v="yes" />
		<tag k="name" v="Bjellandsvannstøa" />
		<tag k="place" v="locality" />
		<tag k="ssr:stedsnr" v="454341" />
	</node>
	<node id="-288281" lat="58.6995055563" lon="8.97063888139">
		<tag k="highway" v="path" />
		<tag k="name" v="Den røde kleiva" />
		<tag k="ssr:stedsnr" v="636312" />
	</node>
</osm>
