<?xml version="1.0" encoding="UTF-8"?>
<osm generator="osmapis" version="0.6">
	<node id="-286712" lat="58.6424249989" lon="9.07224721743">
		<tag k="name" v="Gaupholmen" />
		<tag k="place" v="islet" />
		<tag k="ssr:stedsnr" v="333495" />
	</node>
	<node id="-288756" lat="58.6786750041" lon="9.04925834098">
		<tag k="name" v="Baneodden" />
		<tag k="natural" v="cape" />
		<tag k="ssr:stedsnr" v="818418" />
	</node>
	<node id="-286702" lat="58.6812333298" lon="9.06589721858">
		<tag k="name" v="Lagelva" />
		<tag k="ssr:stedsnr" v="333425" />
		<tag k="waterway" v="river" />
	</node>
	<node id="-286699" lat="58.6605333365" lon="8.9661055491">
		<tag k="name" v="Sævtangen" />
		<tag k="natural" v="cape" />
		<tag k="ssr:stedsnr" v="333399" />
	</node>
	<node id="-288745" lat="58.6507388892" lon="8.99815555071">
		<tag k="name" v="Pøddehåla" />
		<tag k="natural" v="water" />
		<tag k="ssr:stedsnr" v="818329" />
	</node>
	<node id="-286693" lat="58.7028611083" lon="8.97550277054">
		<tag k="name" v="Kjerringtjenn" />
		<tag k="natural" v="water" />
		<tag k="ssr:stedsnr" v="333346" />
	</node>
	<node id="-288736" lat="58.64941667" lon="9.06165834132">
		<tag k="name" v="Holmen" />
		<tag k="natural" v="cape" />
		<tag k="ssr:stedsnr" v="818105" />
	</node>
	<node id="-288734" lat="58.6513361093" lon="9.07530000459">
		<tag k="name" v="Larsvika" />
		<tag k="natural" v="bay" />
		<tag k="ssr:stedsnr" v="818100" />
	</node>
	<node id="-288732" lat="58.6618500036" lon="9.09287500337">
		<tag k="name" v="Kveldodden" />
		<tag k="natural" v="cape" />
		<tag k="ssr:stedsnr" v="818091" />
	</node>
	<node id="-286682" lat="58.6627083325" lon="9.09840834172">
		<tag k="name" v="Folevannsholmen" />
		<tag k="place" v="islet" />
		<tag k="ssr:stedsnr" v="333118" />
	</node>
	<node id="-286680" lat="58.6590222253" lon="9.0749305511">
		<tag k="name" v="Reinsfjellstjenn" />
		<tag k="natural" v="water" />
		<tag k="ssr:stedsnr" v="333112" />
	</node>
	<node id="-286679" lat="58.6620361131" lon="9.0588305617">
		<tag k="name" v="Vassenden" />
		<tag k="natural" v="beach" />
		<tag k="ssr:stedsnr" v="333109" />
	</node>
	<node id="-288724" lat="58.6959666627" lon="9.06910556167">
		<tag k="name" v="Stokksbekk" />
		<tag k="ssr:stedsnr" v="818059" />
		<tag k="waterway" v="stream" />
	</node>
	<node id="-286674" lat="58.6934361067" lon="9.06707222823">
		<tag k="name" v="Vassbotn" />
		<tag k="natural" v="bay" />
		<tag k="ssr:stedsnr" v="333095" />
	</node>
	<node id="-286669" lat="58.5898444474" lon="8.77730000569">
		<tag k="name" v="Skrattereidneset" />
		<tag k="natural" v="cape" />
		<tag k="ssr:stedsnr" v="333061" />
	</node>
	<node id="-286668" lat="58.6040805596" lon="8.76166111695">
		<tag k="name" v="Glomstjenn" />
		<tag k="natural" v="water" />
		<tag k="ssr:stedsnr" v="333052" />
	</node>
	<node id="-288712" lat="58.6026348454" lon="8.73980550617">
		<tag k="name" v="Kroktjern" />
		<tag k="natural" v="water" />
		<tag k="ssr:stedsnr" v="789795" />
	</node>
	<node id="-288711" lat="58.6749749958" lon="8.93165833364">
		<tag k="alt_name" v="Nordtjenn" />
		<tag k="name" v="Nordtjern" />
		<tag k="natural" v="water" />
		<tag k="ssr:stedsnr" v="789452" />
	</node>
	<node id="-286659" lat="58.615002777" lon="8.79277778271">
		<tag k="name" v="Steindammen" />
		<tag k="ssr:stedsnr" v="333032" />
		<tag k="waterway" v="dam" />
	</node>
	<node id="-288704" lat="58.5848166672" lon="8.84877499908">
		<tag k="name" v="Jorstadvann" />
		<tag k="natural" v="water" />
		<tag k="ssr:stedsnr" v="789322" />
		<tag k="water" v="lake" />
	</node>
	<node id="-288702" lat="58.5769666637" lon="8.91731666162">
		<tag k="alt_name" v="Sagtjenn" />
		<tag k="name" v="Sagtjern" />
		<tag k="natural" v="water" />
		<tag k="ssr:stedsnr" v="789301" />
	</node>
	<node id="-286643" lat="58.608647219" lon="8.80294444747">
		<tag k="name" v="Vatnebuvann" />
		<tag k="natural" v="water" />
		<tag k="ssr:stedsnr" v="304799" />
	</node>
	<node id="-286641" lat="58.6348055512" lon="8.79983333449">
		<tag k="name" v="Glydalstjenn" />
		<tag k="natural" v="water" />
		<tag k="ssr:stedsnr" v="304784" />
	</node>
	<node id="-286638" lat="58.6557111153" lon="8.89965832627">
		<tag k="name" v="Sandvann" />
		<tag k="natural" v="water" />
		<tag k="ssr:stedsnr" v="304420" />
	</node>
	<node id="-286637" lat="58.6582194444" lon="9.06627221599">
		<tag k="alt_name" v="Mjåvann" />
		<tag k="name" v="Mjovann" />
		<tag k="natural" v="water" />
		<tag k="ssr:stedsnr" v="304416" />
		<tag k="water" v="lake" />
	</node>
	<node id="-286636" lat="58.6491444453" lon="8.90081388444">
		<tag k="alt_name" v="Langtjenn" />
		<tag k="name" v="Langtjern" />
		<tag k="natural" v="water" />
		<tag k="ssr:stedsnr" v="304412" />
	</node>
	<node id="-286634" lat="58.6554000044" lon="8.99799999326">
		<tag k="alt_name" v="Bjellandsvann" />
		<tag k="name" v="Bjellandsvannet" />
		<tag k="natural" v="water" />
		<tag k="ssr:stedsnr" v="304404" />
	</node>
	<node id="-288673" lat="58.6804499983" lon="8.90290555825">
		<tag k="name" v="Svarttjenn" />
		<tag k="natural" v="water" />
		<tag k="ssr:stedsnr" v="757787" />
	</node>
	<node id="-288670" lat="58.6519666692" lon="8.92140000279">
		<tag k="name" v="Kvittjenn" />
		<tag k="natural" v="water" />
		<tag k="ssr:stedsnr" v="757754" />
	</node>
	<node id="-288668" lat="58.6530916642" lon="8.88145277074">
		<tag k="name" v="Djuptjenn" />
		<tag k="natural" v="water" />
		<tag k="ssr:stedsnr" v="757751" />
	</node>
	<node id="-286618" lat="58.6099305572" lon="8.85746389488">
		<tag k="alt_name" v="Langetjenn" />
		<tag k="name" v="Langtjern" />
		<tag k="natural" v="water" />
		<tag k="ssr:stedsnr" v="304334" />
	</node>
	<node id="-286617" lat="58.60375" lon="8.90341944264">
		<tag k="name" v="Vennevann" />
		<tag k="natural" v="water" />
		<tag k="ssr:stedsnr" v="304331" />
	</node>
	<node id="-286615" lat="58.6127333294" lon="9.0">
		<tag k="name" v="Ulevågkilen" />
		<tag k="natural" v="water" />
		<tag k="ssr:stedsnr" v="304324" />
	</node>
	<node id="-286614" lat="58.6007527809" lon="8.88759999688">
		<tag k="alt_name" v="Butjenna" />
		<tag k="name" v="Butjerna" />
		<tag k="natural" v="water" />
		<tag k="ssr:stedsnr" v="304312" />
	</node>
	<node id="-286613" lat="58.5943499981" lon="8.92011665957">
		<tag k="alt_name" v="Rosstjenn" />
		<tag k="name" v="Rosstjern" />
		<tag k="natural" v="water" />
		<tag k="ssr:stedsnr" v="304311" />
	</node>
	<node id="-286609" lat="58.5746527804" lon="8.90941389679">
		<tag k="alt_name" v="Alfstjenn" />
		<tag k="name" v="Alfstjern" />
		<tag k="natural" v="water" />
		<tag k="ssr:stedsnr" v="304255" />
	</node>
	<node id="-288643" lat="58.5995972264" lon="8.99293055926">
		<tag k="name" v="Store Vassholmen" />
		<tag k="place" v="islet" />
		<tag k="ssr:stedsnr" v="757625" />
	</node>
	<node id="-286591" lat="58.6564166703" lon="8.85064722052">
		<tag k="name" v="Kolbutjenn" />
		<tag k="natural" v="water" />
		<tag k="ssr:stedsnr" v="272970" />
	</node>
	<node id="-288629" lat="58.5876083345" lon="9.05451667295">
		<tag k="name" v="Dalen" />
		<tag k="natural" v="water" />
		<tag k="ssr:stedsnr" v="757499" />
	</node>
	<node id="-286579" lat="58.5983305579" lon="8.90394721666">
		<tag k="name" v="Snarestjenn" />
		<tag k="natural" v="water" />
		<tag k="ssr:stedsnr" v="272867" />
	</node>
	<node id="-286570" lat="58.6510611119" lon="8.90066389074">
		<tag k="name" v="Lauvlandstjenn" />
		<tag k="natural" v="water" />
		<tag k="ssr:stedsnr" v="272750" />
	</node>
	<node id="-286567" lat="58.6549027778" lon="8.91739166857">
		<tag k="name" v="Igletjenn" />
		<tag k="natural" v="water" />
		<tag k="ssr:stedsnr" v="272722" />
	</node>
	<node id="-288612" lat="58.6516611132" lon="9.0232055485">
		<tag k="name" v="Skogbråtstjenn" />
		<tag k="natural" v="water" />
		<tag k="ssr:stedsnr" v="757322" />
	</node>
	<node id="-286563" lat="58.643280554" lon="9.02560555293">
		<tag k="name" v="Haukrotjenn" />
		<tag k="natural" v="water" />
		<tag k="ssr:stedsnr" v="272680" />
		<tag k="water" v="pond" />
	</node>
	<node id="-288608" lat="58.6973944431" lon="8.96282777794">
		<tag k="name" v="Store Sandvann" />
		<tag k="natural" v="water" />
		<tag k="ssr:stedsnr" v="757304" />
		<tag k="water" v="lake" />
	</node>
	<node id="-286555" lat="58.6105166626" lon="8.91249443762">
		<tag k="name" v="Heståsmyrtjenn" />
		<tag k="natural" v="water" />
		<tag k="ssr:stedsnr" v="272611" />
	</node>
	<node id="-286553" lat="58.6789805527" lon="9.02032500438">
		<tag k="name" v="Vika" />
		<tag k="natural" v="bay" />
		<tag k="ssr:stedsnr" v="272579" />
	</node>
	<node id="-286552" lat="58.67881389" lon="9.04319722223">
		<tag k="name" v="Vellingodden" />
		<tag k="natural" v="cape" />
		<tag k="ssr:stedsnr" v="272567" />
	</node>
	<node id="-286551" lat="58.6756222242" lon="9.02339166003">
		<tag k="name" v="Nævestadholmen" />
		<tag k="place" v="islet" />
		<tag k="ssr:stedsnr" v="272562" />
	</node>
	<node id="-286547" lat="58.6703416647" lon="8.98328055889">
		<tag k="name" v="Huodden" />
		<tag k="natural" v="cape" />
		<tag k="ssr:stedsnr" v="272529" />
	</node>
	<node id="-286545" lat="58.6060583299" lon="8.98178056327">
		<tag k="name" v="Eidbotjenn" />
		<tag k="natural" v="water" />
		<tag k="ssr:stedsnr" v="272518" />
	</node>
	<node id="-286531" lat="58.6780694442" lon="9.05377222307">
		<tag k="name" v="Strandene" />
		<tag k="natural" v="beach" />
		<tag k="ssr:stedsnr" v="272403" />
	</node>
	<node id="-288576" lat="58.6094833333" lon="8.82211389273">
		<tag k="name" v="Heirevann" />
		<tag k="natural" v="water" />
		<tag k="ssr:stedsnr" v="729796" />
		<tag k="water" v="lake" />
	</node>
	<node id="-286527" lat="58.6699694479" lon="9.09050278436">
		<tag k="name" v="Maurnes" />
		<tag k="natural" v="cape" />
		<tag k="ssr:stedsnr" v="272386" />
	</node>
	<node id="-286526" lat="58.6702027765" lon="9.08805555628">
		<tag k="name" v="Gulspettholmen" />
		<tag k="natural" v="cape" />
		<tag k="ssr:stedsnr" v="272387" />
	</node>
	<node id="-286525" lat="58.6676583344" lon="9.07553332919">
		<tag k="name" v="Igletjenn" />
		<tag k="natural" v="water" />
		<tag k="ssr:stedsnr" v="272382" />
	</node>
	<node id="-288570" lat="58.6787999989" lon="8.89562500833">
		<tag k="alt_name" v="Sjøstadvann" />
		<tag k="name" v="Sjøstadvatnet" />
		<tag k="natural" v="water" />
		<tag k="ssr:stedsnr" v="729455" />
		<tag k="water" v="lake" />
	</node>
	<node id="-288569" lat="58.6673055531" lon="8.94455555392">
		<tag k="alt_name" v="Morttjenn" />
		<tag k="name" v="Morttjern" />
		<tag k="natural" v="water" />
		<tag k="ssr:stedsnr" v="729445" />
	</node>
	<node id="-286519" lat="58.7004694448" lon="8.96393610698">
		<tag k="name" v="Vestre Sandvatjenn" />
		<tag k="natural" v="water" />
		<tag k="ssr:stedsnr" v="272300" />
	</node>
	<node id="-288566" lat="58.6608499964" lon="8.93239444436">
		<tag k="alt_name" v="Åsvann" />
		<tag k="name" v="Åsvannet" />
		<tag k="natural" v="water" />
		<tag k="ssr:stedsnr" v="729425" />
	</node>
	<node id="-286517" lat="58.6487638896" lon="9.02100277983">
		<tag k="name" v="Bærtjenn" />
		<tag k="natural" v="water" />
		<tag k="ssr:stedsnr" v="272296" />
	</node>
	<node id="-288564" lat="58.6498166704" lon="9.08783056082">
		<tag k="name" v="Svinebutjern" />
		<tag k="natural" v="water" />
		<tag k="ssr:stedsnr" v="729406" />
	</node>
	<node id="-288561" lat="58.6399638855" lon="9.03423055122">
		<tag k="name" v="Svartvann" />
		<tag k="natural" v="water" />
		<tag k="ssr:stedsnr" v="729395" />
	</node>
	<node id="-286503" lat="58.6858861152" lon="9.01068611">
		<tag k="name" v="Svinerbukta" />
		<tag k="natural" v="bay" />
		<tag k="ssr:stedsnr" v="272098" />
	</node>
	<node id="-286500" lat="58.5845138852" lon="8.87298888584">
		<tag k="name" v="Nordtjenn" />
		<tag k="natural" v="water" />
		<tag k="ssr:stedsnr" v="272077" />
	</node>
	<node id="-286494" lat="58.6675638852" lon="9.02241388577">
		<tag k="name" v="Stimyrtjenn" />
		<tag k="natural" v="water" />
		<tag k="ssr:stedsnr" v="272043" />
	</node>
	<node id="-288536" lat="58.6658083309" lon="8.89036666279">
		<tag k="name" v="Dalanskjerrene" />
		<tag k="natural" v="water" />
		<tag k="ssr:stedsnr" v="697991" />
	</node>
	<node id="-288535" lat="58.6633888923" lon="8.88435554859">
		<tag k="name" v="Ausel-Småtjennene" />
		<tag k="natural" v="water" />
		<tag k="ssr:stedsnr" v="697990" />
	</node>
	<node id="-288528" lat="58.612950003" lon="8.85046388852">
		<tag k="name" v="Grunnetjennene" />
		<tag k="natural" v="water" />
		<tag k="ssr:stedsnr" v="697915" />
	</node>
	<node id="-288728" lat="58.6005555552" lon="8.82760278415">
		<tag k="name" v="Badstutjenn" />
		<tag k="natural" v="water" />
		<tag k="ssr:stedsnr" v="818069" />
	</node>
	<node id="-288526" lat="58.6207583372" lon="8.83863888344">
		<tag k="name" v="Lillelv" />
		<tag k="ssr:stedsnr" v="697909" />
		<tag k="waterway" v="stream" />
	</node>
	<node id="-288510" lat="58.6740666669" lon="8.89483888162">
		<tag k="name" v="Østre Almedalstjenn" />
		<tag k="natural" v="water" />
		<tag k="ssr:stedsnr" v="697819" />
	</node>
	<node id="-288506" lat="58.6873249979" lon="8.9031305583">
		<tag k="name" v="Kvernfossen" />
		<tag k="natural" v="waterfall" />
		<tag k="ssr:stedsnr" v="697794" />
	</node>
	<node id="-288503" lat="58.6868944405" lon="8.92182778597">
		<tag k="name" v="Byttefoss" />
		<tag k="natural" v="waterfall" />
		<tag k="ssr:stedsnr" v="697786" />
	</node>
	<node id="-288498" lat="58.6562888917" lon="8.8863583278">
		<tag k="name" v="Heitjennene" />
		<tag k="natural" v="water" />
		<tag k="ssr:stedsnr" v="697747" />
	</node>
	<node id="-288496" lat="58.6563361142" lon="8.89299167044">
		<tag k="name" v="Ertetjenn" />
		<tag k="natural" v="water" />
		<tag k="ssr:stedsnr" v="697742" />
	</node>
	<node id="-288487" lat="58.6011805529" lon="8.99149443806">
		<tag k="name" v="Vasstølen" />
		<tag k="natural" v="beach" />
		<tag k="ssr:stedsnr" v="697623" />
	</node>
	<node id="-288481" lat="58.6788388873" lon="8.99535832523">
		<tag k="name" v="Nilsesvik" />
		<tag k="natural" v="bay" />
		<tag k="ssr:stedsnr" v="697594" />
	</node>
	<node id="-288477" lat="58.6765638928" lon="9.03395833976">
		<tag k="name" v="Brunodden" />
		<tag k="natural" v="cape" />
		<tag k="ssr:stedsnr" v="697581" />
	</node>
	<node id="-288475" lat="58.6817027751" lon="8.95922500721">
		<tag k="name" v="Sandvannselva" />
		<tag k="ssr:stedsnr" v="697573" />
		<tag k="waterway" v="stream" />
	</node>
	<node id="-288473" lat="58.6756527733" lon="8.9515916627">
		<tag k="name" v="Mårråstjenn" />
		<tag k="natural" v="water" />
		<tag k="ssr:stedsnr" v="697560" />
	</node>
	<node id="-288459" lat="58.5922444482" lon="9.05521667525">
		<tag k="name" v="Østertjenn" />
		<tag k="natural" v="water" />
		<tag k="ssr:stedsnr" v="697488" />
	</node>
	<node id="-288456" lat="58.6434027763" lon="9.06463055317">
		<tag k="name" v="Sautangen" />
		<tag k="natural" v="cape" />
		<tag k="ssr:stedsnr" v="697471" />
	</node>
	<node id="-288716" lat="58.6313888848" lon="9.01975277759">
		<tag k="name" v="Sagvann" />
		<tag k="natural" v="water" />
		<tag k="ssr:stedsnr" v="790357" />
	</node>
	<node id="-287009" lat="58.657544446" lon="8.86511666847">
		<tag k="name" v="Lisletjenn" />
		<tag k="natural" v="water" />
		<tag k="ssr:stedsnr" v="393970" />
	</node>
	<node id="-288436" lat="58.6998277802" lon="8.96714722803">
		<tag k="name" v="Østre Sandvatjenn" />
		<tag k="natural" v="water" />
		<tag k="ssr:stedsnr" v="697321" />
	</node>
	<node id="-288430" lat="58.6546055513" lon="9.08757500671">
		<tag k="name" v="Indre Svinebutjenn" />
		<tag k="natural" v="water" />
		<tag k="ssr:stedsnr" v="697145" />
	</node>
	<node id="-288707" lat="58.6507111125" lon="9.061658332">
		<tag k="name" v="Gjøseidvannet" />
		<tag k="natural" v="water" />
		<tag k="ssr:stedsnr" v="789418" />
	</node>
	<node id="-288396" lat="58.6140638871" lon="8.75505832802">
		<tag k="alt_name" v="Vålandstjenn" />
		<tag k="name" v="Vålandstjern" />
		<tag k="natural" v="water" />
		<tag k="ssr:stedsnr" v="668813" />
	</node>
	<node id="-288392" lat="58.6724166676" lon="9.06959445027">
		<tag k="alt_name" v="Litjenn" />
		<tag k="name" v="Litjern" />
		<tag k="natural" v="water" />
		<tag k="ssr:stedsnr" v="668446" />
	</node>
	<node id="-288390" lat="58.6538111155" lon="8.95696666057">
		<tag k="alt_name" v="Valletjenn" />
		<tag k="name" v="Valletjern" />
		<tag k="natural" v="water" />
		<tag k="ssr:stedsnr" v="668426" />
	</node>
	<node id="-288389" lat="58.635966667" lon="8.88997222127">
		<tag k="name" v="Storelva" />
		<tag k="ssr:stedsnr" v="668419" />
		<tag k="waterway" v="river" />
	</node>
	<node id="-288378" lat="58.5993277815" lon="8.85396110409">
		<tag k="alt_name" v="Stortjenn" />
		<tag k="name" v="Stortjern" />
		<tag k="natural" v="water" />
		<tag k="ssr:stedsnr" v="668349" />
	</node>
	<node id="-288351" lat="58.5917583337" lon="8.91064722175">
		<tag k="name" v="Lille Røyrvik" />
		<tag k="natural" v="bay" />
		<tag k="ssr:stedsnr" v="636888" />
	</node>
	<node id="-288338" lat="58.64401667" lon="9.00939999233">
		<tag k="name" v="Skotmyrtjenn" />
		<tag k="natural" v="water" />
		<tag k="ssr:stedsnr" v="636763" />
	</node>
	<node id="-288336" lat="58.6273166688" lon="8.96630833855">
		<tag k="name" v="Tvibolten" />
		<tag k="place" v="islet" />
		<tag k="ssr:stedsnr" v="636751" />
	</node>
	<node id="-288335" lat="58.6255638871" lon="8.96895556164">
		<tag k="name" v="Gruveholmen" />
		<tag k="place" v="islet" />
		<tag k="ssr:stedsnr" v="636748" />
	</node>
	<node id="-288325" lat="58.6004638863" lon="9.00812499656">
		<tag k="name" v="Hovdansstranda" />
		<tag k="natural" v="beach" />
		<tag k="ssr:stedsnr" v="636691" />
	</node>
	<node id="-288316" lat="58.6090944412" lon="8.92520000756">
		<tag k="name" v="Gladstadtjenn" />
		<tag k="natural" v="water" />
		<tag k="ssr:stedsnr" v="636654" />
	</node>
	<node id="-288314" lat="58.6816861071" lon="9.04433333966">
		<tag k="name" v="Styrtbekk" />
		<tag k="ssr:stedsnr" v="636624" />
		<tag k="waterway" v="stream" />
	</node>
	<node id="-288309" lat="58.6712249987" lon="8.96646666673">
		<tag k="name" v="Sundsmyrtjenn" />
		<tag k="natural" v="water" />
		<tag k="ssr:stedsnr" v="636584" />
	</node>
	<node id="-288689" lat="58.608474996" lon="8.83893055802">
		<tag k="name" v="Fjellstjenn" />
		<tag k="natural" v="water" />
		<tag k="ssr:stedsnr" v="757923" />
	</node>
	<node id="-288291" lat="58.6642194422" lon="9.01267222136">
		<tag k="name" v="Tvitjennene" />
		<tag k="natural" v="water" />
		<tag k="ssr:stedsnr" v="636358" />
	</node>
	<node id="-288290" lat="58.6639694425" lon="9.03996388348">
		<tag k="name" v="Kriskjærrtjenn" />
		<tag k="natural" v="water" />
		<tag k="ssr:stedsnr" v="636356" />
	</node>
	<node id="-288288" lat="58.6618388904" lon="9.00230555687">
		<tag k="name" v="Bjorhusdalstjenn" />
		<tag k="natural" v="water" />
		<tag k="ssr:stedsnr" v="636349" />
	</node>
	<node id="-288285" lat="58.65327222" lon="9.04189167433">
		<tag k="name" v="Sømodden" />
		<tag k="natural" v="cape" />
		<tag k="ssr:stedsnr" v="636338" />
	</node>
	<node id="-288276" lat="58.6238777738" lon="8.98031389473">
		<tag k="name" v="Bolletjenn" />
		<tag k="natural" v="water" />
		<tag k="ssr:stedsnr" v="636515" />
	</node>
	<node id="-288274" lat="58.6909027781" lon="8.97096944207">
		<tag k="name" v="Stormyrtjenn" />
		<tag k="natural" v="water" />
		<tag k="ssr:stedsnr" v="636299" />
	</node>
	<node id="-288264" lat="58.6569416646" lon="9.07950000666">
		<tag k="name" v="Løvdalstangen" />
		<tag k="natural" v="cape" />
		<tag k="ssr:stedsnr" v="636106" />
	</node>
	<node id="-288255" lat="58.6131666653" lon="8.76835832868">
		<tag k="name" v="Svinstjenn" />
		<tag k="natural" v="water" />
		<tag k="ssr:stedsnr" v="636057" />
	</node>
	<node id="-288239" lat="58.6033555561" lon="8.84050556047">
		<tag k="name" v="Åmbuvann" />
		<tag k="natural" v="water" />
		<tag k="ssr:stedsnr" v="607782" />
	</node>
	<node id="-288233" lat="58.6714083329" lon="8.85948888338">
		<tag k="alt_name" v="Lauvåstjenn" />
		<tag k="name" v="Lauvåstjern" />
		<tag k="natural" v="water" />
		<tag k="ssr:stedsnr" v="607447" />
	</node>
	<node id="-288231" lat="58.6651388883" lon="8.9728833417">
		<tag k="name" v="Lundevannet" />
		<tag k="natural" v="water" />
		<tag k="ssr:stedsnr" v="607441" />
		<tag k="water" v="lake" />
	</node>
	<node id="-288230" lat="58.6683194475" lon="9.0871555591">
		<tag k="name" v="Gulspettvannet" />
		<tag k="natural" v="water" />
		<tag k="ssr:stedsnr" v="607440" />
		<tag k="water" v="lake" />
	</node>
	<node id="-288195" lat="58.6526472253" lon="8.86936388827">
		<tag k="name" v="Saustedammen" />
		<tag k="ssr:stedsnr" v="575959" />
		<tag k="waterway" v="dam" />
	</node>
	<node id="-288194" lat="58.6516194432" lon="8.86903888955">
		<tag k="name" v="Hillbærstehølen" />
		<tag k="place" v="locality" />
		<tag k="ssr:stedsnr" v="575958" />
	</node>
	<node id="-288187" lat="58.6313527746" lon="8.84502222753">
		<tag k="name" v="Slettatjenn" />
		<tag k="natural" v="water" />
		<tag k="ssr:stedsnr" v="575921" />
	</node>
	<node id="-288185" lat="58.6399583299" lon="8.82790000622">
		<tag k="name" v="Pøddetjenn" />
		<tag k="natural" v="water" />
		<tag k="ssr:stedsnr" v="575911" />
	</node>
	<node id="-288176" lat="58.6682583351" lon="8.89646389152">
		<tag k="name" v="Østebø Småtjennene" />
		<tag k="natural" v="water" />
		<tag k="ssr:stedsnr" v="575786" />
	</node>
	<node id="-288175" lat="58.6823694457" lon="8.89242499212">
		<tag k="name" v="Kløvre" />
		<tag k="place" v="locality" />
		<tag k="ssr:stedsnr" v="575774" />
	</node>
	<node id="-288171" lat="58.6328333333" lon="9.01873610762">
		<tag k="name" v="Butangen" />
		<tag k="natural" v="cape" />
		<tag k="ssr:stedsnr" v="575703" />
	</node>
	<node id="-288159" lat="58.6715972243" lon="9.00364999601">
		<tag k="name" v="Lille Hesnes" />
		<tag k="natural" v="cape" />
		<tag k="ssr:stedsnr" v="575605" />
	</node>
	<node id="-288153" lat="58.672372223" lon="8.98422222">
		<tag k="name" v="Østerstrand" />
		<tag k="natural" v="beach" />
		<tag k="ssr:stedsnr" v="575563" />
	</node>
	<node id="-286958" lat="58.6215083366" lon="8.9740972277">
		<tag k="name" v="Løkreistjenn" />
		<tag k="natural" v="water" />
		<tag k="ssr:stedsnr" v="393525" />
	</node>
	<node id="-288663" lat="58.6481972195" lon="8.89345000467">
		<tag k="name" v="Kroktjenn" />
		<tag k="natural" v="water" />
		<tag k="ssr:stedsnr" v="757729" />
	</node>
	<node id="-288136" lat="58.6360222211" lon="9.05610278317">
		<tag k="name" v="Hollendersund" />
		<tag k="natural" v="strait" />
		<tag k="ssr:stedsnr" v="575472" />
	</node>
	<node id="-288135" lat="58.6344611146" lon="9.04766389281">
		<tag k="name" v="Ingjerdsstrand" />
		<tag k="natural" v="beach" />
		<tag k="ssr:stedsnr" v="575466" />
	</node>
	<node id="-288126" lat="58.6443583354" lon="9.10509722824">
		<tag k="name" v="Paddetjenn" />
		<tag k="natural" v="water" />
		<tag k="ssr:stedsnr" v="575431" />
	</node>
	<node id="-288108" lat="58.6611083346" lon="8.95931389609">
		<tag k="name" v="Vendalsbekken" />
		<tag k="ssr:stedsnr" v="575346" />
		<tag k="waterway" v="stream" />
	</node>
	<node id="-288095" lat="58.6309027759" lon="8.78263332919">
		<tag k="name" v="Heglandstjenn" />
		<tag k="natural" v="water" />
		<tag k="ssr:stedsnr" v="575111" />
	</node>
	<node id="-288084" lat="58.5998861139" lon="8.85758611152">
		<tag k="name" v="Paddetjenn" />
		<tag k="natural" v="water" />
		<tag k="ssr:stedsnr" v="575063" />
	</node>
	<node id="-288081" lat="58.5927083335" lon="8.84394721569">
		<tag k="name" v="Nedre Skålandstjenna" />
		<tag k="natural" v="water" />
		<tag k="ssr:stedsnr" v="575056" />
	</node>
	<node id="-288079" lat="58.5896277734" lon="8.78017500769">
		<tag k="name" v="Grimsåslona" />
		<tag k="natural" v="water" />
		<tag k="ssr:stedsnr" v="575047" />
		<tag k="water" v="lake" />
	</node>
	<node id="-288074" lat="58.6287249999" lon="8.78459443929">
		<tag k="name" v="Heglandstjenn" />
		<tag k="natural" v="water" />
		<tag k="ssr:stedsnr" v="575004" />
	</node>
	<node id="-288062" lat="58.6889750045" lon="8.85871389332">
		<tag k="alt_name" v="Solbutjennene" />
		<tag k="loc_name" v="Solbutjennane" />
		<tag k="name" v="Solbutjernane" />
		<tag k="natural" v="water" />
		<tag k="ssr:stedsnr" v="547520" />
	</node>
	<node id="-288054" lat="58.6495500023" lon="8.8691749935">
		<tag k="name" v="Røsbekken" />
		<tag k="ssr:stedsnr" v="547419" />
		<tag k="waterway" v="stream" />
	</node>
	<node id="-288051" lat="58.6141249963" lon="8.91993332868">
		<tag k="name" v="Mjåvann" />
		<tag k="natural" v="water" />
		<tag k="ssr:stedsnr" v="547389" />
	</node>
	<node id="-288045" lat="58.5565500032" lon="8.87812778346">
		<tag k="alt_name" v="Kroktjern" />
		<tag k="name" v="Kroktjenn" />
		<tag k="natural" v="water" />
		<tag k="ssr:stedsnr" v="547292" />
	</node>
	<node id="-288043" lat="58.5985416684" lon="8.80695833721">
		<tag k="alt_name" v="Grunnetjenn;Grunrtjern" />
		<tag k="name" v="Grunnetjern" />
		<tag k="natural" v="water" />
		<tag k="ssr:stedsnr" v="546813" />
	</node>
	<node id="-288039" lat="58.698202781" lon="8.95532499843">
		<tag k="name" v="Nattvann" />
		<tag k="natural" v="water" />
		<tag k="ssr:stedsnr" v="546460" />
	</node>
	<node id="-287997" lat="58.6453861098" lon="9.02597222706">
		<tag k="name" v="Hontjenn" />
		<tag k="natural" v="water" />
		<tag k="ssr:stedsnr" v="515757" />
	</node>
	<node id="-287996" lat="58.6414638908" lon="9.01408332604">
		<tag k="name" v="Øygardstjenn" />
		<tag k="natural" v="water" />
		<tag k="ssr:stedsnr" v="515755" />
	</node>
	<node id="-287989" lat="58.6394416693" lon="8.97670833142">
		<tag k="name" v="Fagermyrtjenn" />
		<tag k="natural" v="water" />
		<tag k="ssr:stedsnr" v="515702" />
	</node>
	<node id="-287984" lat="58.585544448" lon="9.00728610685">
		<tag k="name" v="Blodkiltjenn" />
		<tag k="natural" v="water" />
		<tag k="ssr:stedsnr" v="515667" />
	</node>
	<node id="-287980" lat="58.6784638932" lon="9.02490000365">
		<tag k="name" v="Kvitebergholmen" />
		<tag k="place" v="islet" />
		<tag k="ssr:stedsnr" v="515615" />
	</node>
	<node id="-287950" lat="58.6666166646" lon="9.05184721526">
		<tag k="name" v="Tussetjenn" />
		<tag k="natural" v="water" />
		<tag k="ssr:stedsnr" v="515412" />
	</node>
	<node id="-287943" lat="58.6509750033" lon="8.9368555558">
		<tag k="name" v="Reinene" />
		<tag k="natural" v="beach" />
		<tag k="ssr:stedsnr" v="515358" />
	</node>
	<node id="-287940" lat="58.6625833351" lon="8.99913333789">
		<tag k="name" v="Lona" />
		<tag k="natural" v="water" />
		<tag k="ssr:stedsnr" v="515342" />
		<tag k="water" v="lake" />
	</node>
	<node id="-287939" lat="58.6539166666" lon="8.99910554889">
		<tag k="name" v="Hellersheftet" />
		<tag k="natural" v="cape" />
		<tag k="ssr:stedsnr" v="515324" />
	</node>
	<node id="-287931" lat="58.5983111113" lon="8.79023611629">
		<tag k="name" v="Storneset" />
		<tag k="natural" v="cape" />
		<tag k="ssr:stedsnr" v="515213" />
	</node>
	<node id="-287912" lat="58.597594447" lon="8.85162778513">
		<tag k="name" v="Lilletjenn" />
		<tag k="natural" v="water" />
		<tag k="ssr:stedsnr" v="515080" />
	</node>
	<node id="-287909" lat="58.6016194404" lon="8.84936110996">
		<tag k="name" v="Skålands Langetjenn" />
		<tag k="natural" v="water" />
		<tag k="ssr:stedsnr" v="515076" />
	</node>
	<node id="-286918" lat="58.648274996" lon="9.06004444605">
		<tag k="name" v="Gjøseidholmen" />
		<tag k="place" v="islet" />
		<tag k="ssr:stedsnr" v="393133" />
	</node>
	<node id="-287904" lat="58.6458444473" lon="9.09422778303">
		<tag k="name" v="Ålekartjenn" />
		<tag k="natural" v="water" />
		<tag k="ssr:stedsnr" v="515063" />
	</node>
	<node id="-287900" lat="58.6153611146" lon="8.80017778532">
		<tag k="name" v="Lindlandstjenn" />
		<tag k="natural" v="water" />
		<tag k="ssr:stedsnr" v="515040" />
	</node>
	<node id="-287885" lat="58.6293277806" lon="8.76781667416">
		<tag k="name" v="Nedre Vølan" />
		<tag k="natural" v="water" />
		<tag k="ssr:stedsnr" v="486780" />
	</node>
	<node id="-287880" lat="58.685563892" lon="8.90066110968">
		<tag k="alt_name" v="Haukebekk" />
		<tag k="name" v="Haukbekken" />
		<tag k="ssr:stedsnr" v="486491" />
		<tag k="waterway" v="stream" />
	</node>
	<node id="-287865" lat="58.6255194486" lon="8.97429165971">
		<tag k="name" v="Østeråvannet" />
		<tag k="natural" v="water" />
		<tag k="ssr:stedsnr" v="486367" />
		<tag k="water" v="lake" />
	</node>
	<node id="-286910" lat="58.5742055538" lon="8.88731388574">
		<tag k="name" v="Grøvene" />
		<tag k="ssr:stedsnr" v="393105" />
		<tag k="waterway" v="stream" />
	</node>
	<node id="-287858" lat="58.5693555581" lon="8.85989444152">
		<tag k="name" v="Styggtjernane" />
		<tag k="natural" v="water" />
		<tag k="ssr:stedsnr" v="486281" />
	</node>
	<node id="-287855" lat="58.6549027821" lon="9.07955000096">
		<tag k="name" v="Løvdalsvannet" />
		<tag k="natural" v="water" />
		<tag k="ssr:stedsnr" v="486118" />
		<tag k="water" v="lake" />
	</node>
	<node id="-287854" lat="58.5791694465" lon="8.92699999838">
		<tag k="name" v="Kvastadkilen" />
		<tag k="natural" v="water" />
		<tag k="ssr:stedsnr" v="486310" />
		<tag k="water" v="lake" />
	</node>
	<node id="-287843" lat="58.5854583296" lon="8.92945832993">
		<tag k="name" v="Hantostranda" />
		<tag k="natural" v="beach" />
		<tag k="ssr:stedsnr" v="454912" />
	</node>
	<node id="-287838" lat="58.643622224" lon="8.88333333571">
		<tag k="name" v="Stebekk" />
		<tag k="ssr:stedsnr" v="454880" />
		<tag k="waterway" v="stream" />
	</node>
	<node id="-287832" lat="58.6767972253" lon="8.90568889128">
		<tag k="name" v="Eidet" />
		<tag k="natural" v="strait" />
		<tag k="ssr:stedsnr" v="454831" />
	</node>
	<node id="-287826" lat="58.6495861086" lon="8.89667777579">
		<tag k="name" v="Snaristjenn" />
		<tag k="natural" v="water" />
		<tag k="ssr:stedsnr" v="454778" />
	</node>
	<node id="-287825" lat="58.6261777752" lon="8.96717500599">
		<tag k="name" v="Vaskeholmen" />
		<tag k="place" v="islet" />
		<tag k="ssr:stedsnr" v="454757" />
	</node>
	<node id="-286904" lat="58.5963250008" lon="8.86601389662">
		<tag k="name" v="Strengselva" />
		<tag k="ssr:stedsnr" v="393076" />
		<tag k="waterway" v="stream" />
	</node>
	<node id="-287812" lat="58.5961972196" lon="8.9853777813">
		<tag k="name" v="Lona" />
		<tag k="natural" v="water" />
		<tag k="ssr:stedsnr" v="454655" />
		<tag k="water" v="lake" />
	</node>
	<node id="-287810" lat="58.6726277794" lon="8.9980000072">
		<tag k="name" v="Hessnesstranda" />
		<tag k="natural" v="beach" />
		<tag k="ssr:stedsnr" v="454636" />
	</node>
	<node id="-287799" lat="58.632155555" lon="9.04885278456">
		<tag k="name" v="Knutesund" />
		<tag k="natural" v="strait" />
		<tag k="ssr:stedsnr" v="454500" />
	</node>
	<node id="-287784" lat="58.6720916672" lon="9.04722221612">
		<tag k="name" v="Lilletjenn" />
		<tag k="natural" v="water" />
		<tag k="ssr:stedsnr" v="454398" />
	</node>
	<node id="-286897" lat="58.6466138928" lon="8.77754722319">
		<tag k="name" v="Sandvasstangen" />
		<tag k="natural" v="cape" />
		<tag k="ssr:stedsnr" v="393009" />
	</node>
	<node id="-287778" lat="58.6522138932" lon="9.04330000786">
		<tag k="name" v="Øysundet" />
		<tag k="natural" v="strait" />
		<tag k="ssr:stedsnr" v="454334" />
	</node>
	<node id="-287776" lat="58.6931611112" lon="9.02539165826">
		<tag k="name" v="Løvdalsdammen" />
		<tag k="ssr:stedsnr" v="454287" />
		<tag k="waterway" v="dam" />
	</node>
	<node id="-287769" lat="58.6623555561" lon="9.09142500055">
		<tag k="name" v="Folevannskilen" />
		<tag k="natural" v="bay" />
		<tag k="ssr:stedsnr" v="454106" />
	</node>
	<node id="-287761" lat="58.650338891" lon="9.08641945113">
		<tag k="name" v="Store Svinebutjenn" />
		<tag k="natural" v="water" />
		<tag k="ssr:stedsnr" v="454071" />
	</node>
	<node id="-287754" lat="58.6111611154" lon="8.74573055091">
		<tag k="name" v="Beindalstjenn" />
		<tag k="natural" v="water" />
		<tag k="ssr:stedsnr" v="454042" />
	</node>
	<node id="-287753" lat="58.6540555526" lon="9.04485555143">
		<tag k="name" v="Hofsdalsøya" />
		<tag k="place" v="island" />
		<tag k="ssr:stedsnr" v="454034" />
	</node>
	<node id="-287748" lat="58.6864805564" lon="9.06295833508">
		<tag k="alt_name" v="Lagtj" />
		<tag k="name" v="Lagtjenn" />
		<tag k="natural" v="water" />
		<tag k="ssr:stedsnr" v="453871" />
	</node>
	<node id="-287741" lat="58.592594447" lon="8.7888222165">
		<tag k="name" v="Øynesvann" />
		<tag k="natural" v="water" />
		<tag k="ssr:stedsnr" v="426817" />
		<tag k="water" v="lake" />
	</node>
	<node id="-287740" lat="58.6366166666" lon="8.80399166647">
		<tag k="alt_name" v="Støletjenn" />
		<tag k="name" v="Støletjern" />
		<tag k="natural" v="water" />
		<tag k="ssr:stedsnr" v="426785" />
	</node>
	<node id="-287724" lat="58.5943500041" lon="8.89410278627">
		<tag k="alt_name" v="Kroktjenn" />
		<tag k="name" v="Kroktjern" />
		<tag k="natural" v="water" />
		<tag k="ssr:stedsnr" v="425324" />
	</node>
	<node id="-287720" lat="58.5755499988" lon="8.89684166115">
		<tag k="alt_name" v="Foletjenn" />
		<tag k="name" v="Foletjern" />
		<tag k="natural" v="water" />
		<tag k="ssr:stedsnr" v="425296" />
	</node>
	<node id="-287712" lat="58.6433388893" lon="8.75774722402">
		<tag k="alt_name" v="Kyllandstjenn" />
		<tag k="name" v="Kyllandstjern" />
		<tag k="natural" v="water" />
		<tag k="ssr:stedsnr" v="244988" />
	</node>
	<node id="-287709" lat="58.6373055589" lon="8.76342778299">
		<tag k="name" v="Markvann" />
		<tag k="natural" v="water" />
		<tag k="ssr:stedsnr" v="244790" />
	</node>
	<node id="-287699" lat="58.6139305525" lon="8.97946110404">
		<tag k="name" v="Stokkebovannet" />
		<tag k="natural" v="water" />
		<tag k="ssr:stedsnr" v="244328" />
		<tag k="water" v="lake" />
	</node>
	<node id="-287697" lat="58.5981694445" lon="8.79811666655">
		<tag k="alt_name" v="Sortetjenn" />
		<tag k="name" v="Sortetjern" />
		<tag k="natural" v="water" />
		<tag k="ssr:stedsnr" v="243826" />
	</node>
	<node id="-287696" lat="58.6039333294" lon="8.80825277612">
		<tag k="name" v="Bleikvann" />
		<tag k="natural" v="water" />
		<tag k="ssr:stedsnr" v="243783" />
	</node>
	<node id="-287695" lat="58.6880444455" lon="8.99306666773">
		<tag k="alt_name" v="Tvitjennene" />
		<tag k="name" v="Tvitjørnane" />
		<tag k="natural" v="water" />
		<tag k="ssr:stedsnr" v="243465" />
	</node>
	<node id="-287690" lat="58.6634499963" lon="9.0993638895">
		<tag k="name" v="Folevann" />
		<tag k="natural" v="water" />
		<tag k="ssr:stedsnr" v="243418" />
		<tag k="water" v="lake" />
	</node>
	<node id="-287679" lat="58.5746194432" lon="8.91328333917">
		<tag k="alt_name" v="Midttjenn" />
		<tag k="name" v="Midttjern" />
		<tag k="natural" v="water" />
		<tag k="ssr:stedsnr" v="243250" />
	</node>
	<node id="-287659" lat="58.6675944408" lon="8.99984722024">
		<tag k="name" v="Kilbukta" />
		<tag k="natural" v="bay" />
		<tag k="ssr:stedsnr" v="212040" />
	</node>
	<node id="-287631" lat="58.6419694465" lon="8.94463332548">
		<tag k="name" v="Øvre Tungetjenn" />
		<tag k="natural" v="water" />
		<tag k="ssr:stedsnr" v="211707" />
	</node>
	<node id="-287630" lat="58.6303722179" lon="8.97315832778">
		<tag k="name" v="Høyåstjenn" />
		<tag k="natural" v="water" />
		<tag k="ssr:stedsnr" v="211692" />
	</node>
	<node id="-287628" lat="58.6314222229" lon="8.94688056268">
		<tag k="name" v="Øvre Svarttjenn" />
		<tag k="natural" v="water" />
		<tag k="ssr:stedsnr" v="211687" />
	</node>
	<node id="-287623" lat="58.6006250042" lon="9.00913611194">
		<tag k="name" v="Hovdansbukta" />
		<tag k="natural" v="bay" />
		<tag k="ssr:stedsnr" v="211673" />
	</node>
	<node id="-287615" lat="58.6728777803" lon="9.00235834035">
		<tag k="name" v="Hessnesodden" />
		<tag k="natural" v="cape" />
		<tag k="ssr:stedsnr" v="211621" />
	</node>
	<node id="-287613" lat="58.6797388878" lon="9.02757778187">
		<tag k="name" v="Kvernnes" />
		<tag k="natural" v="cape" />
		<tag k="ssr:stedsnr" v="211615" />
	</node>
	<node id="-287583" lat="58.665702776" lon="9.00014444509">
		<tag k="name" v="Kilbekken" />
		<tag k="ssr:stedsnr" v="211365" />
		<tag k="waterway" v="stream" />
	</node>
	<node id="-287582" lat="58.6658500037" lon="9.04271667409">
		<tag k="name" v="Orstjenn" />
		<tag k="natural" v="water" />
		<tag k="ssr:stedsnr" v="211361" />
	</node>
	<node id="-287573" lat="58.6899388865" lon="9.01580277893">
		<tag k="name" v="Nautvahølen" />
		<tag k="place" v="locality" />
		<tag k="ssr:stedsnr" v="211286" />
	</node>
	<node id="-287572" lat="58.600191665" lon="8.79845833797">
		<tag k="name" v="Øyneselva" />
		<tag k="ssr:stedsnr" v="211207" />
		<tag k="waterway" v="stream" />
	</node>
	<node id="-287570" lat="58.5713750043" lon="8.85675000133">
		<tag k="name" v="Lille Styggtjenn" />
		<tag k="natural" v="water" />
		<tag k="ssr:stedsnr" v="211116" />
	</node>
	<node id="-287568" lat="58.5690944476" lon="8.860763894">
		<tag k="name" v="Styggtjenn" />
		<tag k="natural" v="water" />
		<tag k="ssr:stedsnr" v="211108" />
	</node>
	<node id="-287566" lat="58.5795750023" lon="8.93233332841">
		<tag k="name" v="Mauren" />
		<tag k="place" v="islet" />
		<tag k="ssr:stedsnr" v="211102" />
	</node>
	<node id="-287555" lat="58.5935555543" lon="8.79211667411">
		<tag k="name" v="Skrovsneset" />
		<tag k="natural" v="cape" />
		<tag k="ssr:stedsnr" v="211067" />
	</node>
	<node id="-287551" lat="58.6328805519" lon="8.75964721646">
		<tag k="name" v="Marktangen" />
		<tag k="natural" v="cape" />
		<tag k="ssr:stedsnr" v="211026" />
	</node>
	<node id="-287549" lat="58.6373611114" lon="8.76729167279">
		<tag k="name" v="Foletjenn" />
		<tag k="natural" v="water" />
		<tag k="ssr:stedsnr" v="211022" />
	</node>
	<node id="-287534" lat="58.6432416626" lon="8.76462222371">
		<tag k="name" v="Sandvann" />
		<tag k="natural" v="water" />
		<tag k="ssr:stedsnr" v="183979" />
		<tag k="water" v="lake" />
	</node>
	<node id="-287532" lat="58.69625" lon="8.9628166601">
		<tag k="name" v="Sandvannet" />
		<tag k="natural" v="water" />
		<tag k="ssr:stedsnr" v="183454" />
		<tag k="water" v="lake" />
	</node>
	<node id="-287530" lat="58.6721527765" lon="8.91018055569">
		<tag k="name" v="Skjerkholtlonene" />
		<tag k="natural" v="water" />
		<tag k="ssr:stedsnr" v="183398" />
		<tag k="water" v="lake" />
	</node>
	<node id="-287529" lat="58.6547000008" lon="9.05268332522">
		<tag k="name" v="Hofsdalsvannet" />
		<tag k="natural" v="water" />
		<tag k="ssr:stedsnr" v="183368" />
		<tag k="water" v="lake" />
	</node>
	<node id="-287497" lat="58.60838056" lon="8.84778888285">
		<tag k="name" v="Finestjennene" />
		<tag k="natural" v="water" />
		<tag k="ssr:stedsnr" v="150909" />
	</node>
	<node id="-287495" lat="58.6225833296" lon="8.86238055435">
		<tag k="name" v="Skarkedalsbekken" />
		<tag k="ssr:stedsnr" v="150895" />
		<tag k="waterway" v="stream" />
	</node>
	<node id="-287492" lat="58.6197888931" lon="8.83026666266">
		<tag k="name" v="Marendalselva" />
		<tag k="ssr:stedsnr" v="150885" />
		<tag k="waterway" v="stream" />
	</node>
	<node id="-287490" lat="58.5915250036" lon="8.89429722877">
		<tag k="name" v="Rambergstjenn" />
		<tag k="natural" v="water" />
		<tag k="ssr:stedsnr" v="150878" />
	</node>
	<node id="-287487" lat="58.6333805523" lon="8.88325832531">
		<tag k="name" v="Leirnes" />
		<tag k="natural" v="cape" />
		<tag k="ssr:stedsnr" v="150851" />
	</node>
	<node id="-287474" lat="58.6702194445" lon="8.90082499588">
		<tag k="name" v="Småtjennene" />
		<tag k="natural" v="water" />
		<tag k="ssr:stedsnr" v="150777" />
	</node>
	<node id="-287467" lat="58.6878972223" lon="8.89156111201">
		<tag k="name" v="Tørkelsteinrata" />
		<tag k="place" v="locality" />
		<tag k="ssr:stedsnr" v="150747" />
	</node>
	<node id="-288551" lat="58.5894694415" lon="8.91056944035">
		<tag k="name" v="Vålevann" />
		<tag k="natural" v="water" />
		<tag k="ssr:stedsnr" v="729335" />
	</node>
	<node id="-287463" lat="58.6250694413" lon="8.96296111056">
		<tag k="name" v="Tranbærlona" />
		<tag k="natural" v="water" />
		<tag k="ssr:stedsnr" v="150711" />
		<tag k="water" v="lake" />
	</node>
	<node id="-287456" lat="58.6380666639" lon="8.98928333534">
		<tag k="name" v="Pøddetjenn" />
		<tag k="natural" v="water" />
		<tag k="ssr:stedsnr" v="150673" />
	</node>
	<node id="-287452" lat="58.6110027758" lon="8.90209721555">
		<tag k="name" v="Øygardstjenn" />
		<tag k="natural" v="water" />
		<tag k="ssr:stedsnr" v="150636" />
	</node>
	<node id="-287446" lat="58.6820499961" lon="9.00089444715">
		<tag k="name" v="Lindholmen" />
		<tag k="natural" v="cape" />
		<tag k="ssr:stedsnr" v="150607" />
	</node>
	<node id="-287445" lat="58.6781916635" lon="9.00990832981">
		<tag k="name" v="Nordstrand" />
		<tag k="natural" v="beach" />
		<tag k="ssr:stedsnr" v="150605" />
	</node>
	<node id="-287444" lat="58.6739694418" lon="9.010255562">
		<tag k="name" v="Dypbukt" />
		<tag k="natural" v="bay" />
		<tag k="ssr:stedsnr" v="150603" />
	</node>
	<node id="-287439" lat="58.6876166641" lon="8.9613944519">
		<tag k="name" v="Sandvann" />
		<tag k="natural" v="water" />
		<tag k="ssr:stedsnr" v="150547" />
		<tag k="water" v="lake" />
	</node>
	<node id="-287432" lat="58.6326749984" lon="9.0493472148">
		<tag k="name" v="Odden" />
		<tag k="natural" v="cape" />
		<tag k="ssr:stedsnr" v="150497" />
	</node>
	<node id="-287431" lat="58.6395055598" lon="9.04658611126">
		<tag k="name" v="Mellomhølen" />
		<tag k="place" v="locality" />
		<tag k="ssr:stedsnr" v="150494" />
	</node>
	<node id="-287430" lat="58.64528889" lon="9.07665556119">
		<tag k="name" v="Størdalstangen" />
		<tag k="natural" v="cape" />
		<tag k="ssr:stedsnr" v="150488" />
	</node>
	<node id="-287414" lat="58.6599888893" lon="8.99956666664">
		<tag k="name" v="Lontjenn" />
		<tag k="natural" v="water" />
		<tag k="ssr:stedsnr" v="150348" />
	</node>
	<node id="-287404" lat="58.595830559" lon="8.79283055481">
		<tag k="name" v="Bjorneset" />
		<tag k="natural" v="cape" />
		<tag k="ssr:stedsnr" v="150211" />
	</node>
	<node id="-287402" lat="58.547061108" lon="8.88289999237">
		<tag k="name" v="Vassøya" />
		<tag k="natural" v="cape" />
		<tag k="ssr:stedsnr" v="150115" />
	</node>
	<node id="-287395" lat="58.6939444482" lon="9.07353332591">
		<tag k="name" v="Bjørkholmen" />
		<tag k="place" v="islet" />
		<tag k="ssr:stedsnr" v="150083" />
	</node>
	<node id="-287388" lat="58.6177472199" lon="8.79722500449">
		<tag k="name" v="Lindlandstjenn" />
		<tag k="natural" v="water" />
		<tag k="ssr:stedsnr" v="150041" />
	</node>
	<node id="-287382" lat="58.6270750044" lon="8.81931388284">
		<tag k="name" v="Djupedalstjenn" />
		<tag k="natural" v="water" />
		<tag k="ssr:stedsnr" v="150001" />
	</node>
	<node id="-287362" lat="58.6087194439" lon="8.96763888655">
		<tag k="alt_name" v="Sagtjenn" />
		<tag k="name" v="Sagtjern" />
		<tag k="natural" v="water" />
		<tag k="ssr:stedsnr" v="122350" />
	</node>
	<node id="-287356" lat="58.5749777792" lon="8.93649722541">
		<tag k="alt_name" v="Åltjenn;Åltjern" />
		<tag k="name" v="Åltjønn" />
		<tag k="natural" v="water" />
		<tag k="ssr:stedsnr" v="122301" />
	</node>
	<node id="-287353" lat="58.5996388856" lon="8.92320277481">
		<tag k="name" v="Langvann" />
		<tag k="natural" v="water" />
		<tag k="ssr:stedsnr" v="121331" />
	</node>
	<node id="-287334" lat="58.6352972214" lon="8.87343333422">
		<tag k="name" v="Rossbekken" />
		<tag k="ssr:stedsnr" v="90931" />
		<tag k="waterway" v="stream" />
	</node>
	<node id="-287329" lat="58.6133361154" lon="8.86253332624">
		<tag k="name" v="Nordre Holtstjenn" />
		<tag k="natural" v="water" />
		<tag k="ssr:stedsnr" v="90899" />
	</node>
	<node id="-287324" lat="58.591149997" lon="8.89373610348">
		<tag k="name" v="Rambergsmyra" />
		<tag k="natural" v="water" />
		<tag k="ssr:stedsnr" v="90886" />
		<tag k="water" v="pond" />
	</node>
	<node id="-288527" lat="58.6103055517" lon="8.86370554739">
		<tag k="name" v="Søre Holtstjenn" />
		<tag k="natural" v="water" />
		<tag k="ssr:stedsnr" v="697912" />
	</node>
	<node id="-287320" lat="58.589863886" lon="8.84182222989">
		<tag k="name" v="Skålandsbekken" />
		<tag k="ssr:stedsnr" v="90865" />
		<tag k="waterway" v="stream" />
	</node>
	<node id="-287316" lat="58.6732111133" lon="8.89142499637">
		<tag k="name" v="Vestre Almedalstjenn" />
		<tag k="natural" v="water" />
		<tag k="ssr:stedsnr" v="90793" />
	</node>
	<node id="-287307" lat="58.6438305594" lon="9.01828333283">
		<tag k="name" v="Tretjennene" />
		<tag k="natural" v="water" />
		<tag k="ssr:stedsnr" v="90718" />
	</node>
	<node id="-287305" lat="58.6268638851" lon="8.97724999955">
		<tag k="name" v="Bærholmen" />
		<tag k="place" v="islet" />
		<tag k="ssr:stedsnr" v="90710" />
	</node>
	<node id="-287303" lat="58.6441138905" lon="9.03951110706">
		<tag k="name" v="Askedalstjenn" />
		<tag k="natural" v="water" />
		<tag k="ssr:stedsnr" v="90703" />
	</node>
	<node id="-287296" lat="58.6218083371" lon="8.92208333207">
		<tag k="name" v="Lisletjenn" />
		<tag k="natural" v="water" />
		<tag k="ssr:stedsnr" v="90631" />
	</node>
	<node id="-287293" lat="58.6845166637" lon="9.00730555577">
		<tag k="name" v="Nesbakkodden" />
		<tag k="natural" v="cape" />
		<tag k="ssr:stedsnr" v="90611" />
	</node>
	<node id="-287291" lat="58.6781305594" lon="9.02861944245">
		<tag k="name" v="Skrikerodden" />
		<tag k="natural" v="cape" />
		<tag k="ssr:stedsnr" v="90601" />
	</node>
	<node id="-287290" lat="58.6806388884" lon="9.02996665852">
		<tag k="name" v="Langbekk" />
		<tag k="ssr:stedsnr" v="90598" />
		<tag k="waterway" v="stream" />
	</node>
	<node id="-287269" lat="58.6703196706" lon="9.09666344825">
		<tag k="name" v="Maurnestjenn" />
		<tag k="natural" v="water" />
		<tag k="ssr:stedsnr" v="90385" />
	</node>
	<node id="-287265" lat="58.6656666697" lon="9.01851667221">
		<tag k="name" v="Kalvetjenn" />
		<tag k="natural" v="water" />
		<tag k="ssr:stedsnr" v="90332" />
	</node>
	<node id="-287264" lat="58.6637194441" lon="9.02191110556">
		<tag k="name" v="Dypdalstjenn" />
		<tag k="natural" v="water" />
		<tag k="ssr:stedsnr" v="90331" />
	</node>
	<node id="-287238" lat="58.6252305548" lon="8.92517499848">
		<tag k="name" v="Fjæretjenn" />
		<tag k="natural" v="water" />
		<tag k="ssr:stedsnr" v="90079" />
	</node>
	<node id="-287234" lat="58.6493083317" lon="9.11450834067">
		<tag k="name" v="Gjevingelva" />
		<tag k="ssr:stedsnr" v="90067" />
		<tag k="waterway" v="stream" />
	</node>
	<node id="-287231" lat="58.5903972239" lon="8.77380554728">
		<tag k="name" v="Gammeltjenn" />
		<tag k="natural" v="water" />
		<tag k="ssr:stedsnr" v="90054" />
	</node>
	<node id="-287218" lat="58.6183861103" lon="8.78637777842">
		<tag k="alt_name" v="Stortjenn" />
		<tag k="name" v="Stortjern" />
		<tag k="natural" v="water" />
		<tag k="ssr:stedsnr" v="62805" />
	</node>
	<node id="-287215" lat="58.637516665" lon="9.01350555913">
		<tag k="alt_name" v="Killingtjenn" />
		<tag k="name" v="Killingtjerna" />
		<tag k="natural" v="water" />
		<tag k="ssr:stedsnr" v="62366" />
	</node>
	<node id="-287213" lat="58.6059500004" lon="8.93110554724">
		<tag k="alt_name" v="Svennskottjenn" />
		<tag k="name" v="Skuggeviktjern" />
		<tag k="natural" v="water" />
		<tag k="ssr:stedsnr" v="62340" />
	</node>
	<node id="-287206" lat="58.5991111092" lon="8.83598334006">
		<tag k="alt_name" v="Mellomtjenn" />
		<tag k="name" v="Mellomtjern" />
		<tag k="natural" v="water" />
		<tag k="ssr:stedsnr" v="61822" />
	</node>
	<node id="-287201" lat="58.6697444437" lon="8.919808331">
		<tag k="alt_name" v="Kråketjenn" />
		<tag k="name" v="Kråketjern" />
		<tag k="natural" v="water" />
		<tag k="ssr:stedsnr" v="61435" />
	</node>
	<node id="-287194" lat="58.5692638887" lon="8.88635555">
		<tag k="alt_name" v="Jordtjenn" />
		<tag k="name" v="Jordtjern" />
		<tag k="natural" v="water" />
		<tag k="ssr:stedsnr" v="61253" />
	</node>
	<node id="-286798" lat="58.5533805514" lon="8.89142499643">
		<tag k="name" v="Langangselva" />
		<tag k="ssr:stedsnr" v="365269" />
		<tag k="waterway" v="stream" />
	</node>
	<node id="-287174" lat="58.617091671" lon="8.86350832534">
		<tag k="name" v="Meldalstjenn" />
		<tag k="natural" v="water" />
		<tag k="ssr:stedsnr" v="29904" />
	</node>
	<node id="-287173" lat="58.6204055575" lon="8.84872222396">
		<tag k="name" v="Kattjenn" />
		<tag k="natural" v="water" />
		<tag k="ssr:stedsnr" v="29898" />
		<tag k="water" v="pond" />
	</node>
	<node id="-287172" lat="58.594461112" lon="8.9121805608">
		<tag k="name" v="Pøddetjenn" />
		<tag k="natural" v="water" />
		<tag k="ssr:stedsnr" v="29888" />
	</node>
	<node id="-287170" lat="58.596163889" lon="8.92267222667">
		<tag k="name" v="Midttjenn" />
		<tag k="natural" v="water" />
		<tag k="ssr:stedsnr" v="29879" />
	</node>
	<node id="-287169" lat="58.5986555569" lon="8.90929722225">
		<tag k="name" v="Langtjenn" />
		<tag k="natural" v="water" />
		<tag k="ssr:stedsnr" v="29874" />
	</node>
	<node id="-287161" lat="58.6904861139" lon="8.8627638803">
		<tag k="name" v="Sandtjenn" />
		<tag k="natural" v="water" />
		<tag k="ssr:stedsnr" v="29846" />
	</node>
	<node id="-287160" lat="58.6387583301" lon="8.92864444511">
		<tag k="name" v="Pytten" />
		<tag k="natural" v="water" />
		<tag k="ssr:stedsnr" v="29838" />
		<tag k="water" v="pond" />
	</node>
	<node id="-287149" lat="58.637480552" lon="8.94552223081">
		<tag k="name" v="Pytten" />
		<tag k="natural" v="water" />
		<tag k="ssr:stedsnr" v="29705" />
		<tag k="water" v="pond" />
	</node>
	<node id="-287147" lat="58.6816999966" lon="8.97738610301">
		<tag k="name" v="Lille Balttjenn" />
		<tag k="natural" v="water" />
		<tag k="ssr:stedsnr" v="29593" />
	</node>
	<node id="-287134" lat="58.6796055525" lon="9.03750277448">
		<tag k="name" v="Øygardstranda" />
		<tag k="natural" v="beach" />
		<tag k="ssr:stedsnr" v="29617" />
	</node>
	<node id="-287133" lat="58.6787055524" lon="9.04210833693">
		<tag k="name" v="Grautskjær" />
		<tag k="place" v="islet" />
		<tag k="ssr:stedsnr" v="29613" />
	</node>
	<node id="-287117" lat="58.6574111074" lon="9.03258888238">
		<tag k="name" v="Vassbotnen" />
		<tag k="natural" v="beach" />
		<tag k="ssr:stedsnr" v="29346" />
	</node>
	<node id="-287115" lat="58.6971638922" lon="8.96416666043">
		<tag k="name" v="Sandvanns-strandene" />
		<tag k="natural" v="beach" />
		<tag k="ssr:stedsnr" v="29322" />
	</node>
	<node id="-287102" lat="58.6794861156" lon="9.06066111379">
		<tag k="name" v="Strømvollen" />
		<tag k="natural" v="beach" />
		<tag k="ssr:stedsnr" v="29429" />
	</node>
	<node id="-287092" lat="58.5726638908" lon="8.87939166995">
		<tag k="name" v="Paddetjenn" />
		<tag k="natural" v="water" />
		<tag k="ssr:stedsnr" v="29100" />
	</node>
	<node id="-287091" lat="58.5736305542" lon="8.87896388548">
		<tag k="name" v="Paddetjennknatten" />
		<tag k="natural" v="water" />
		<tag k="ssr:stedsnr" v="29099" />
	</node>
	<node id="-289138" lat="58.6556694478" lon="8.86996388591">
		<tag k="name" v="Svarthøl" />
		<tag k="place" v="locality" />
		<tag k="ssr:stedsnr" v="940986" />
	</node>
	<node id="-289137" lat="58.657194444" lon="8.86919166274">
		<tag k="name" v="Mønetjenn" />
		<tag k="natural" v="water" />
		<tag k="ssr:stedsnr" v="940984" />
	</node>
	<node id="-289128" lat="58.6128166675" lon="8.85643889213">
		<tag k="name" v="Holtjenn" />
		<tag k="natural" v="water" />
		<tag k="ssr:stedsnr" v="940922" />
	</node>
	<node id="-289127" lat="58.5943555535" lon="8.9063972208">
		<tag k="name" v="Vålevasslona" />
		<tag k="natural" v="water" />
		<tag k="ssr:stedsnr" v="940910" />
		<tag k="water" v="lake" />
	</node>
	<node id="-289124" lat="58.5989694441" lon="8.88873610756">
		<tag k="name" v="Lille Butjenn" />
		<tag k="natural" v="water" />
		<tag k="ssr:stedsnr" v="940889" />
	</node>
	<node id="-287073" lat="58.6052388889" lon="8.79557778314">
		<tag k="name" v="Hauktjenn" />
		<tag k="natural" v="water" />
		<tag k="ssr:stedsnr" v="29020" />
	</node>
	<node id="-289118" lat="58.6414694483" lon="8.91883054801">
		<tag k="name" v="Oddersbekk" />
		<tag k="ssr:stedsnr" v="940860" />
		<tag k="waterway" v="stream" />
	</node>
	<node id="-287062" lat="58.6477027768" lon="8.83229444346">
		<tag k="name" v="Musråvann" />
		<tag k="natural" v="water" />
		<tag k="ssr:stedsnr" v="2000" />
	</node>
	<node id="-287061" lat="58.6650583306" lon="8.83446944747">
		<tag k="name" v="Ubergsvann" />
		<tag k="natural" v="water" />
		<tag k="ssr:stedsnr" v="1966" />
		<tag k="water" v="lake" />
	</node>
	<node id="-287060" lat="58.6333083302" lon="8.83251667102">
		<tag k="alt_name" v="Svinbutjenn" />
		<tag k="name" v="Svinbutjern" />
		<tag k="natural" v="water" />
		<tag k="ssr:stedsnr" v="1766" />
	</node>
	<node id="-287059" lat="58.6773111089" lon="9.00450277288">
		<tag k="name" v="Songevannet" />
		<tag k="natural" v="water" />
		<tag k="ssr:stedsnr" v="1467" />
		<tag k="water" v="lake" />
	</node>
	<node id="-286776" lat="58.6537833346" lon="8.86949166601">
		<tag k="name" v="Saustehølen" />
		<tag k="place" v="locality" />
		<tag k="ssr:stedsnr" v="333962" />
	</node>
	<node id="-287054" lat="58.6419305536" lon="9.06853055838">
		<tag k="alt_name" v="Størdalsvann" />
		<tag k="name" v="Størdalsvannet" />
		<tag k="natural" v="water" />
		<tag k="ssr:stedsnr" v="1386" />
		<tag k="water" v="lake" />
	</node>
	<node id="-287047" lat="58.6261333338" lon="8.99094167494">
		<tag k="name" v="Røyvann" />
		<tag k="natural" v="water" />
		<tag k="ssr:stedsnr" v="1343" />
		<tag k="water" v="lake" />
	</node>
	<node id="-287044" lat="58.5614583326" lon="8.87400278631">
		<tag k="alt_name" v="Holtetjenn" />
		<tag k="name" v="Holtetjern" />
		<tag k="natural" v="water" />
		<tag k="ssr:stedsnr" v="1267" />
	</node>
	<node id="-289091" lat="58.6718222265" lon="8.99374444442">
		<tag k="name" v="Jønnvika" />
		<tag k="natural" v="bay" />
		<tag k="ssr:stedsnr" v="940600" />
	</node>
	<node id="-289090" lat="58.6788527743" lon="9.03504999344">
		<tag k="name" v="Tolltangen" />
		<tag k="natural" v="cape" />
		<tag k="ssr:stedsnr" v="940586" />
	</node>
	<node id="-287041" lat="58.6258111119" lon="8.80804722123">
		<tag k="alt_name" v="Glytjenn" />
		<tag k="name" v="Glytjern" />
		<tag k="natural" v="water" />
		<tag k="ssr:stedsnr" v="754" />
	</node>
	<node id="-289088" lat="58.6853638927" lon="8.96079722423">
		<tag k="name" v="Lona" />
		<tag k="natural" v="water" />
		<tag k="ssr:stedsnr" v="940575" />
		<tag k="water" v="lake" />
	</node>
	<node id="-287038" lat="58.5982916661" lon="8.99347777669">
		<tag k="name" v="Hovdansvannet" />
		<tag k="natural" v="water" />
		<tag k="ssr:stedsnr" v="311" />
		<tag k="water" v="lake" />
	</node>
	<node id="-286772" lat="58.634633334" lon="8.85005278262">
		<tag k="name" v="Båntjenn" />
		<tag k="natural" v="water" />
		<tag k="ssr:stedsnr" v="333936" />
	</node>
	<node id="-288137" lat="58.5895249992" lon="9.05044722461">
		<tag k="name" v="Innertj." />
		<tag k="natural" v="water" />
		<tag k="ssr:stedsnr" v="575485" />
	</node>
	<node id="-289069" lat="58.6415666706" lon="9.08636943959">
		<tag k="name" v="Halvorstjenn" />
		<tag k="natural" v="water" />
		<tag k="ssr:stedsnr" v="940455" />
	</node>
	<node id="-287010" lat="58.6624722249" lon="8.84873611054">
		<tag k="name" v="Lisbettjenn" />
		<tag k="natural" v="water" />
		<tag k="ssr:stedsnr" v="393975" />
	</node>
	<node id="-289057" lat="58.6661944448" lon="8.98439722873">
		<tag k="name" v="Hestnestjenn" />
		<tag k="natural" v="water" />
		<tag k="ssr:stedsnr" v="940374" />
	</node>
	<node id="-289052" lat="58.6607916646" lon="9.01068055713">
		<tag k="name" v="Rangleåstjenn" />
		<tag k="natural" v="water" />
		<tag k="ssr:stedsnr" v="940340" />
	</node>
	<node id="-289039" lat="58.653136111" lon="9.08306389275">
		<tag k="name" v="Svinebu-eidet" />
		<tag k="natural" v="strait" />
		<tag k="ssr:stedsnr" v="940121" />
	</node>
	<node id="-286988" lat="58.6862888891" lon="8.89335834168">
		<tag k="name" v="Ålekarhølen" />
		<tag k="place" v="locality" />
		<tag k="ssr:stedsnr" v="393752" />
	</node>
	<node id="-289031" lat="58.6452416633" lon="9.07019167138">
		<tag k="name" v="Pråmstøtjenn" />
		<tag k="natural" v="water" />
		<tag k="ssr:stedsnr" v="940048" />
	</node>
	<node id="-286982" lat="58.6258166682" lon="8.97138332666">
		<tag k="name" v="Kjeholmen" />
		<tag k="place" v="islet" />
		<tag k="ssr:stedsnr" v="393717" />
	</node>
	<node id="-289029" lat="58.6094888915" lon="8.80179722521">
		<tag k="name" v="Knausbekk" />
		<tag k="ssr:stedsnr" v="940038" />
		<tag k="waterway" v="stream" />
	</node>
	<node id="-289027" lat="58.6338666686" lon="8.77499999156">
		<tag k="name" v="Lauvåstjenn" />
		<tag k="natural" v="water" />
		<tag k="ssr:stedsnr" v="940011" />
	</node>
	<node id="-289026" lat="58.6789472224" lon="8.93626943653">
		<tag k="name" v="Øygardstjenn" />
		<tag k="natural" v="water" />
		<tag k="ssr:stedsnr" v="939786" />
	</node>
	<node id="-289025" lat="58.5956833374" lon="8.78374166623">
		<tag k="name" v="Ommundsholmen" />
		<tag k="place" v="islet" />
		<tag k="ssr:stedsnr" v="939220" />
	</node>
	<node id="-286970" lat="58.6045972205" lon="8.92281110732">
		<tag k="name" v="Eikåsdalstjenn" />
		<tag k="natural" v="water" />
		<tag k="ssr:stedsnr" v="393625" />
	</node>
	<node id="-289014" lat="58.6343583298" lon="8.76900556369">
		<tag k="name" v="Øvre Vølan" />
		<tag k="natural" v="water" />
		<tag k="ssr:stedsnr" v="911780" />
	</node>
	<node id="-289013" lat="58.6806055572" lon="8.96862777962">
		<tag k="alt_name" v="Store Balttjenn" />
		<tag k="name" v="Balttjern" />
		<tag k="natural" v="water" />
		<tag k="ssr:stedsnr" v="911466" />
	</node>
	<node id="-286959" lat="58.6251222242" lon="9.03713055012">
		<tag k="name" v="Størdalstjenn" />
		<tag k="natural" v="water" />
		<tag k="ssr:stedsnr" v="393531" />
	</node>
	<node id="-289006" lat="58.6399027764" lon="8.943252779">
		<tag k="fixme" v="multiple name tags, choose one and add the other to alt_name" />
		<tag k="name" v="Tungetjenn;Tungevann" />
		<tag k="natural" v="water" />
		<tag k="ssr:stedsnr" v="911413" />
	</node>
	<node id="-288998" lat="58.6279305577" lon="8.94471944067">
		<tag k="alt_name" v="Svarttjenn" />
		<tag k="name" v="Svarttjern" />
		<tag k="natural" v="water" />
		<tag k="ssr:stedsnr" v="911356" />
	</node>
	<node id="-286947" lat="58.6878333337" lon="9.07008610958">
		<tag k="name" v="Mollebekken" />
		<tag k="ssr:stedsnr" v="393404" />
		<tag k="waterway" v="stream" />
	</node>
	<node id="-288992" lat="58.5800888897" lon="8.91318333054">
		<tag k="alt_name" v="Revstjenn" />
		<tag k="name" v="Revstjern" />
		<tag k="natural" v="water" />
		<tag k="ssr:stedsnr" v="911302" />
	</node>
	<node id="-286939" lat="58.6490083323" lon="8.97408611394">
		<tag k="name" v="Steindammen" />
		<tag k="ssr:stedsnr" v="393363" />
		<tag k="waterway" v="dam" />
	</node>
	<node id="-286932" lat="58.7010111071" lon="8.98438056099">
		<tag k="name" v="Tritjennene" />
		<tag k="natural" v="water" />
		<tag k="ssr:stedsnr" v="393316" />
	</node>
	<node id="-286931" lat="58.6517000042" lon="9.00827222203">
		<tag k="name" v="Stumstjenn" />
		<tag k="natural" v="water" />
		<tag k="ssr:stedsnr" v="393317" />
	</node>
	<node id="-286925" lat="58.6936666623" lon="8.96274167093">
		<tag k="name" v="Sandvamellom" />
		<tag k="natural" v="strait" />
		<tag k="ssr:stedsnr" v="393292" />
	</node>
	<node id="-286923" lat="58.6891722218" lon="9.03535833796">
		<tag k="name" v="Eikedalsbekken" />
		<tag k="ssr:stedsnr" v="393271" />
		<tag k="waterway" v="stream" />
	</node>
	<node id="-288970" lat="58.6367000015" lon="8.9334027854">
		<tag k="name" v="Ytre Pytten" />
		<tag k="natural" v="water" />
		<tag k="ssr:stedsnr" v="879839" />
		<tag k="water" v="pond" />
	</node>
	<node id="-286919" lat="58.6458416679" lon="9.06305833392">
		<tag k="name" v="Gjøseid-eidet" />
		<tag k="natural" v="strait" />
		<tag k="ssr:stedsnr" v="393137" />
	</node>
	<node id="-288966" lat="58.6702250031" lon="8.88583056224">
		<tag k="name" v="Østebøtjenn" />
		<tag k="natural" v="water" />
		<tag k="ssr:stedsnr" v="879791" />
	</node>
	<node id="-288964" lat="58.6471333367" lon="8.88177221573">
		<tag k="name" v="Rosselandstjenn" />
		<tag k="natural" v="water" />
		<tag k="ssr:stedsnr" v="879746" />
	</node>
	<node id="-288960" lat="58.6260138854" lon="8.9818611125">
		<tag k="name" v="Vannimellomtjenn" />
		<tag k="natural" v="water" />
		<tag k="ssr:stedsnr" v="879735" />
	</node>
	<node id="-288958" lat="58.6265833304" lon="8.97576944526">
		<tag k="name" v="Brenteholmen" />
		<tag k="place" v="islet" />
		<tag k="ssr:stedsnr" v="879722" />
	</node>
	<node id="-288952" lat="58.6304000012" lon="8.98753611175">
		<tag k="name" v="Toriholmen" />
		<tag k="place" v="islet" />
		<tag k="ssr:stedsnr" v="879682" />
	</node>
	<node id="-288945" lat="58.6758027818" lon="9.01311666045">
		<tag k="name" v="Sørstrand" />
		<tag k="natural" v="beach" />
		<tag k="ssr:stedsnr" v="879590" />
	</node>
	<node id="-288943" lat="58.6734222231" lon="9.01926666947">
		<tag k="name" v="Fiskodden" />
		<tag k="natural" v="cape" />
		<tag k="ssr:stedsnr" v="879572" />
	</node>
	<node id="-288938" lat="58.634686108" lon="9.0356277725">
		<tag k="name" v="Hudalstjenn" />
		<tag k="natural" v="water" />
		<tag k="ssr:stedsnr" v="879504" />
	</node>
	<node id="-286889" lat="58.6534055555" lon="9.0394416633">
		<tag k="name" v="Granstøa" />
		<tag k="place" v="locality" />
		<tag k="ssr:stedsnr" v="384060" />
	</node>
	<node id="-288935" lat="58.58883611" lon="9.05140555714">
		<tag k="name" v="Mellemtjenn" />
		<tag k="natural" v="water" />
		<tag k="ssr:stedsnr" v="879478" />
	</node>
	<node id="-288919" lat="58.6575888906" lon="8.95755554716">
		<tag k="name" v="Butjenn" />
		<tag k="natural" v="water" />
		<tag k="ssr:stedsnr" v="879361" />
	</node>
	<node id="-288914" lat="58.6631722247" lon="9.00191110852">
		<tag k="name" v="Øygardstjenn" />
		<tag k="natural" v="water" />
		<tag k="ssr:stedsnr" v="879332" />
	</node>
	<node id="-288898" lat="58.6477305557" lon="9.07290277254">
		<tag k="name" v="Lona" />
		<tag k="natural" v="water" />
		<tag k="ssr:stedsnr" v="879118" />
		<tag k="water" v="lake" />
	</node>
	<node id="-288895" lat="58.65293056" lon="9.08753610479">
		<tag k="name" v="Mellom Svinebutjenn" />
		<tag k="natural" v="water" />
		<tag k="ssr:stedsnr" v="879108" />
	</node>
	<node id="-288892" lat="58.6933388881" lon="9.07069722509">
		<tag k="name" v="Maurtangen" />
		<tag k="natural" v="cape" />
		<tag k="ssr:stedsnr" v="879096" />
	</node>
	<node id="-288885" lat="58.5943750008" lon="8.78590277306">
		<tag k="name" v="Kalvesund" />
		<tag k="natural" v="strait" />
		<tag k="ssr:stedsnr" v="879076" />
	</node>
	<node id="-288882" lat="58.61396111" lon="8.82523056217">
		<tag k="name" v="Lona" />
		<tag k="natural" v="water" />
		<tag k="ssr:stedsnr" v="879047" />
		<tag k="water" v="lake" />
	</node>
	<node id="-288877" lat="58.6359333297" lon="8.75757777174">
		<tag k="name" v="Hessnes" />
		<tag k="natural" v="cape" />
		<tag k="ssr:stedsnr" v="879027" />
	</node>
	<node id="-288876" lat="58.6410916679" lon="8.77506389384">
		<tag k="name" v="Møbøvann" />
		<tag k="natural" v="water" />
		<tag k="ssr:stedsnr" v="879024" />
		<tag k="water" v="lake" />
	</node>
	<node id="-288862" lat="58.6152166667" lon="8.83738888991">
		<tag k="name" v="Båslandstjenn" />
		<tag k="natural" v="water" />
		<tag k="ssr:stedsnr" v="851801" />
	</node>
	<node id="-286812" lat="58.6717777796" lon="8.933344453">
		<tag k="alt_name" v="Skottjenn" />
		<tag k="name" v="Skottjern" />
		<tag k="natural" v="water" />
		<tag k="ssr:stedsnr" v="365467" />
	</node>
	<node id="-288856" lat="58.6183138921" lon="8.85417499826">
		<tag k="alt_name" v="Gangdalstjenna" />
		<tag k="name" v="Gangdalstjern" />
		<tag k="natural" v="water" />
		<tag k="ssr:stedsnr" v="851335" />
	</node>
	<node id="-286807" lat="58.6462750025" lon="8.95633889517">
		<tag k="alt_name" v="Feltstykktjenn" />
		<tag k="name" v="Feltstykktjerna" />
		<tag k="natural" v="water" />
		<tag k="ssr:stedsnr" v="365420" />
	</node>
	<node id="-288851" lat="58.5942277755" lon="8.8472888937">
		<tag k="alt_name" v="Øvre Skålandstjenna" />
		<tag k="name" v="Skålandtjerna" />
		<tag k="natural" v="water" />
		<tag k="ssr:stedsnr" v="851307" />
	</node>
	<node id="-288848" lat="58.6870416636" lon="8.92192500219">
		<tag k="name" v="Beindalselva" />
		<tag k="ssr:stedsnr" v="850496" />
		<tag k="waterway" v="stream" />
	</node>
	<node id="-288846" lat="58.6877388912" lon="8.98711388475">
		<tag k="alt_name" v="Gåstjenn" />
		<tag k="name" v="Gåstjern" />
		<tag k="natural" v="water" />
		<tag k="ssr:stedsnr" v="850485" />
	</node>
	<node id="-288844" lat="58.6654499957" lon="9.07814999504">
		<tag k="alt_name" v="Råbergtjenn" />
		<tag k="name" v="Råbergtjern" />
		<tag k="natural" v="water" />
		<tag k="ssr:stedsnr" v="850436" />
	</node>
	<node id="-286789" lat="58.6018749978" lon="8.74574722172">
		<tag k="name" v="Vålandsbekken" />
		<tag k="ssr:stedsnr" v="364804" />
		<tag k="waterway" v="stream" />
	</node>
	<node id="-288825" lat="58.6472055535" lon="8.86154167322">
		<tag k="name" v="Langtjenn" />
		<tag k="natural" v="water" />
		<tag k="ssr:stedsnr" v="818949" />
	</node>
	<node id="-288824" lat="58.644241669" lon="8.86387777382">
		<tag k="name" v="Tatertjenn" />
		<tag k="natural" v="water" />
		<tag k="ssr:stedsnr" v="818937" />
	</node>
	<node id="-288821" lat="58.6101416707" lon="8.83175000329">
		<tag k="name" v="Rambergtjenn" />
		<tag k="natural" v="water" />
		<tag k="ssr:stedsnr" v="818926" />
	</node>
	<node id="-288820" lat="58.608974996" lon="8.85222222101">
		<tag k="name" v="Bjortjenn" />
		<tag k="natural" v="water" />
		<tag k="ssr:stedsnr" v="818924" />
	</node>
	<node id="-288818" lat="58.5917277737" lon="8.88939722625">
		<tag k="name" v="Dibblen" />
		<tag k="natural" v="water" />
		<tag k="ssr:stedsnr" v="818906" />
		<tag k="water" v="pond" />
	</node>
	<node id="-286767" lat="58.5868194443" lon="8.91526944876">
		<tag k="name" v="Røyrvik" />
		<tag k="natural" v="bay" />
		<tag k="ssr:stedsnr" v="333905" />
	</node>
	<node id="-288811" lat="58.6452250041" lon="8.89213055933">
		<tag k="name" v="Sparbutjenn" />
		<tag k="natural" v="water" />
		<tag k="ssr:stedsnr" v="818866" />
	</node>
	<node id="-288803" lat="58.6603055545" lon="8.89877222284">
		<tag k="alt_name" v="Barlindbunnstj." />
		<tag k="name" v="Barlinbunntjenna" />
		<tag k="natural" v="water" />
		<tag k="ssr:stedsnr" v="818770" />
	</node>
	<node id="-286742" lat="58.5921666636" lon="9.0233388945">
		<tag k="name" v="Øygårdstjenn" />
		<tag k="natural" v="water" />
		<tag k="ssr:stedsnr" v="333667" />
	</node>
	<node id="-288787" lat="58.677972224" lon="9.01740277039">
		<tag k="name" v="Kyrsvika" />
		<tag k="natural" v="bay" />
		<tag k="ssr:stedsnr" v="818642" />
	</node>
	<node id="-286732" lat="58.6869277738" lon="9.00563888666">
		<tag k="name" v="Songebekken" />
		<tag k="ssr:stedsnr" v="333616" />
		<tag k="waterway" v="stream" />
	</node>
	<node id="-286730" lat="58.6843138878" lon="9.0037777711">
		<tag k="name" v="Songestranda" />
		<tag k="natural" v="beach" />
		<tag k="ssr:stedsnr" v="333612" />
	</node>
	<node id="-286729" lat="58.6751250036" lon="9.00840556052">
		<tag k="name" v="Nesodden" />
		<tag k="natural" v="cape" />
		<tag k="ssr:stedsnr" v="333610" />
	</node>
	<node id="-288770" lat="58.6427666697" lon="9.0509916682">
		<tag k="name" v="Reinsfjelltjenn" />
		<tag k="natural" v="water" />
		<tag k="ssr:stedsnr" v="818505" />
	</node>
</osm>
