<?xml version="1.0" encoding="UTF-8"?>
<<<<<<< HEAD
<osm version="0.6" generator="osmapis">
	<node lat="66.2694388919048" lon="13.240580556898847" id="-9376">
		<tag k="alt_name" v="Langsetelva" />
		<tag k="name" v="Longsetelva" />
		<tag k="ssr:stedsnr" v="16958" />
		<tag k="waterway" v="river" />
	</node>
	<node lat="66.19794167046548" lon="12.919124998358397" id="-9397">
		<tag k="name" v="Storvatnet" />
		<tag k="natural" v="water" />
		<tag k="ssr:stedsnr" v="76755" />
	</node>
	<node lat="66.24561667047824" lon="13.175472230969081" id="-9402">
		<tag k="name" v="Skogselva" />
		<tag k="ssr:stedsnr" v="76812" />
		<tag k="waterway" v="stream" />
	</node>
	<node lat="66.26383333065209" lon="13.164022228525658" id="-9413">
		<tag k="name" v="Kubekken" />
		<tag k="ssr:stedsnr" v="106009" />
		<tag k="waterway" v="stream" />
	</node>
	<node lat="66.26745555342855" lon="12.854608337013962" id="-9419">
		<tag k="name" v="Svartbekken" />
		<tag k="ssr:stedsnr" v="106920" />
		<tag k="waterway" v="stream" />
	</node>
	<node lat="66.26499166270973" lon="12.855202773503782" id="-9420">
		<tag k="name" v="Tinnvatnet" />
		<tag k="natural" v="water" />
		<tag k="ssr:stedsnr" v="106926" />
	</node>
	<node lat="66.27386944347298" lon="13.210441665584812" id="-9421">
		<tag k="name" v="Mølnhusbekken" />
		<tag k="ssr:stedsnr" v="106980" />
		<tag k="waterway" v="stream" />
	</node>
	<node lat="66.20026110950184" lon="13.052266655378212" id="-9430">
		<tag k="name" v="Geitmyrbassenget" />
		<tag k="natural" v="water" />
		<tag k="ssr:stedsnr" v="107828" />
	</node>
	<node lat="66.27422222654937" lon="12.823855545264676" id="-9452">
		<tag k="name" v="Øvredalsvatnet" />
		<tag k="natural" v="water" />
		<tag k="ssr:stedsnr" v="259682" />
	</node>
	<node lat="66.28036110989198" lon="13.160200005970777" id="-9454">
		<tag k="name" v="Skagavatnet" />
		<tag k="natural" v="water" />
		<tag k="ssr:stedsnr" v="259699" />
	</node>
	<node lat="66.2757388875007" lon="13.072772228653896" id="-9455">
		<tag k="name" v="Grønlitindvatnan" />
		<tag k="natural" v="water" />
		<tag k="ssr:stedsnr" v="259700" />
	</node>
	<node lat="66.28390833588149" lon="13.133352773220109" id="-9456">
		<tag k="alt_name" v="Djupvikelva" />
		<tag k="name" v="Juvikelva" />
		<tag k="ssr:stedsnr" v="259701" />
		<tag k="waterway" v="river" />
	</node>
	<node lat="66.27486944211032" lon="12.88963610666975" id="-9502">
		<tag k="name" v="Pissarbekken" />
		<tag k="ssr:stedsnr" v="227815" />
		<tag k="waterway" v="stream" />
	</node>
	<node lat="66.23400833629428" lon="12.799169437582773" id="-9509">
		<tag k="name" v="Ytterfjellkløvvatnet" />
=======
<osm generator="osmapis" version="0.6">
	<node id="-147962" lat="66.2193083343" lon="13.100211107">
		<tag k="name" v="Torvmyrbekken" />
		<tag k="ssr:stedsnr" v="348246" />
		<tag k="waterway" v="stream" />
	</node>
	<node id="-147959" lat="66.2614416627" lon="13.2088000049">
		<tag k="name" v="Svartflogelva" />
		<tag k="ssr:stedsnr" v="348050" />
		<tag k="waterway" v="stream" />
	</node>
	<node id="-147432" lat="66.2671638924" lon="13.0163555564">
		<tag k="name" v="Durmålskartjønna" />
		<tag k="natural" v="water" />
		<tag k="ssr:stedsnr" v="684725" />
	</node>
	<node id="-147412" lat="66.2478361093" lon="13.0161611149">
		<tag k="name" v="Riksaelva" />
		<tag k="ssr:stedsnr" v="500860" />
		<tag k="waterway" v="stream" />
	</node>
	<node id="-148301" lat="66.2644972258" lon="12.8642111061">
		<tag k="name" v="Dalavatnet" />
		<tag k="natural" v="water" />
		<tag k="ssr:stedsnr" v="805710" />
	</node>
	<node id="-147901" lat="66.194305552" lon="13.1387027669">
		<tag k="name" v="Stordalsbekken" />
		<tag k="ssr:stedsnr" v="197794" />
		<tag k="waterway" v="stream" />
	</node>
	<node id="-147387" lat="66.2689749957" lon="13.2802111202">
		<tag k="name" v="Storågvatnet" />
		<tag k="natural" v="water" />
		<tag k="ssr:stedsnr" v="501969" />
	</node>
	<node id="-147898" lat="66.2333583337" lon="12.8079388954">
		<tag k="alt_name" v="Fjellklauvvatnet" />
		<tag k="name" v="Innerfjellkløvvatnet" />
		<tag k="natural" v="water" />
		<tag k="ssr:stedsnr" v="197843" />
	</node>
	<node id="-147380" lat="66.1931805563" lon="12.9539999986">
		<tag k="name" v="Vikaelva" />
		<tag k="ssr:stedsnr" v="501746" />
		<tag k="waterway" v="stream" />
	</node>
	<node id="-147379" lat="66.1973999996" lon="12.9137638879">
		<tag k="fixme" v="multiple name tags, choose one and add the other to alt_name" />
		<tag k="name" v="Engvatnan;Litlevatnet" />
		<tag k="natural" v="water" />
		<tag k="ssr:stedsnr" v="501745" />
	</node>
	<node id="-147378" lat="66.2076666679" lon="13.1066666718">
		<tag k="name" v="Handvatnet" />
		<tag k="natural" v="water" />
		<tag k="ssr:stedsnr" v="501735" />
	</node>
	<node id="-147883" lat="66.2396083358" lon="12.8423416666">
		<tag k="name" v="Storelva" />
		<tag k="ssr:stedsnr" v="167238" />
		<tag k="waterway" v="stream" />
	</node>
	<node id="-148377" lat="66.2636666672" lon="12.9977833412">
		<tag k="name" v="Middagskogtjønna" />
		<tag k="natural" v="water" />
		<tag k="ssr:stedsnr" v="956091" />
	</node>
	<node id="-148371" lat="66.2731888908" lon="13.2445916697">
		<tag k="name" v="Gauplibekken" />
		<tag k="ssr:stedsnr" v="955937" />
		<tag k="waterway" v="stream" />
	</node>
	<node id="-147854" lat="66.2595333313" lon="13.0296027797">
		<tag k="name" v="Storvatnet" />
		<tag k="natural" v="water" />
		<tag k="ssr:stedsnr" v="137711" />
	</node>
	<node id="-147852" lat="66.2569749992" lon="12.7466999949">
		<tag k="name" v="Helgåga" />
		<tag k="ssr:stedsnr" v="137706" />
		<tag k="waterway" v="stream" />
	</node>
	<node id="-148359" lat="66.2605777772" lon="13.1897305458">
		<tag k="name" v="Engenelva" />
		<tag k="ssr:stedsnr" v="955083" />
		<tag k="waterway" v="stream" />
	</node>
	<node id="-148355" lat="66.2707083295" lon="13.0263694431">
		<tag k="alt_name" v="Kvannlivatnet" />
		<tag k="name" v="Litlkvannlivatnet" />
		<tag k="natural" v="water" />
		<tag k="ssr:stedsnr" v="866713" />
	</node>
	<node id="-147831" lat="66.2002611095" lon="13.0522666554">
		<tag k="name" v="Geitmyrbassenget" />
		<tag k="natural" v="water" />
		<tag k="ssr:stedsnr" v="107828" />
	</node>
	<node id="-147689" lat="66.1970749983" lon="13.0355083428">
		<tag k="loc_name" v="Mathildebekken" />
		<tag k="name" v="Nesnabekken" />
		<tag k="ssr:stedsnr" v="896863" />
		<tag k="waterway" v="stream" />
	</node>
	<node id="-147825" lat="66.2697444464" lon="13.0106166617">
		<tag k="name" v="Petrinakjelda" />
		<tag k="natural" v="spring" />
		<tag k="ssr:stedsnr" v="107058" />
	</node>
	<node id="-147312" lat="66.1826361113" lon="13.0765416749">
		<tag k="name" v="Næsrembekken" />
		<tag k="ssr:stedsnr" v="288761" />
		<tag k="waterway" v="stream" />
	</node>
	<node id="-147311" lat="66.2849388927" lon="13.0748583285">
		<tag k="name" v="Labekken" />
		<tag k="ssr:stedsnr" v="288760" />
		<tag k="waterway" v="stream" />
	</node>
	<node id="-148334" lat="66.2442249965" lon="13.2732638868">
		<tag k="name" v="Brynhildvatnet" />
		<tag k="natural" v="water" />
		<tag k="ssr:stedsnr" v="865150" />
	</node>
	<node id="-147819" lat="66.2738694435" lon="13.2104416656">
		<tag k="name" v="Mølnhusbekken" />
		<tag k="ssr:stedsnr" v="106980" />
		<tag k="waterway" v="stream" />
	</node>
	<node id="-147816" lat="66.2649916627" lon="12.8552027735">
		<tag k="name" v="Tinnvatnet" />
		<tag k="natural" v="water" />
		<tag k="ssr:stedsnr" v="106926" />
	</node>
	<node id="-147815" lat="66.2674555534" lon="12.854608337">
		<tag k="name" v="Svartbekken" />
		<tag k="ssr:stedsnr" v="106920" />
		<tag k="waterway" v="stream" />
	</node>
	<node id="-147299" lat="66.2312333364" lon="13.1360916666">
		<tag k="name" v="Hersetelva" />
		<tag k="ssr:stedsnr" v="258856" />
		<tag k="waterway" v="stream" />
	</node>
	<node id="-148317" lat="66.2651583329" lon="12.8614083348">
		<tag k="name" v="Laksneset" />
		<tag k="natural" v="cape" />
		<tag k="ssr:stedsnr" v="834901" />
	</node>
	<node id="-147802" lat="66.2371472217" lon="13.0046888933">
		<tag k="name" v="Seimbekken" />
		<tag k="ssr:stedsnr" v="106168" />
		<tag k="waterway" v="stream" />
	</node>
	<node id="-147799" lat="66.2638333307" lon="13.1640222285">
		<tag k="name" v="Kubekken" />
		<tag k="ssr:stedsnr" v="106009" />
		<tag k="waterway" v="stream" />
	</node>
	<node id="-148309" lat="66.2269416641" lon="13.1008638823">
		<tag k="alt_name" v="Skilsbekken" />
		<tag k="name" v="Skjellsbekken" />
		<tag k="ssr:stedsnr" v="834184" />
		<tag k="waterway" v="stream" />
	</node>
	<node id="-147796" lat="66.2778083309" lon="13.2538611187">
		<tag k="name" v="Mobekken" />
		<tag k="ssr:stedsnr" v="77967" />
		<tag k="waterway" v="stream" />
	</node>
	<node id="-147683" lat="66.2573694408" lon="13.0101194526">
		<tag k="name" v="Merraholmen" />
		<tag k="place" v="islet" />
		<tag k="ssr:stedsnr" v="835106" />
	</node>
	<node id="-147790" lat="66.2849249986" lon="13.2979055628">
		<tag k="name" v="Ytteråga" />
		<tag k="ssr:stedsnr" v="76945" />
		<tag k="waterway" v="stream" />
	</node>
	<node id="-147277" lat="66.2748694421" lon="12.8896361067">
		<tag k="name" v="Pissarbekken" />
		<tag k="ssr:stedsnr" v="227815" />
		<tag k="waterway" v="stream" />
	</node>
	<node id="-147511" lat="66.2903250004" lon="12.8636111189">
		<tag k="name" v="Oterbekken" />
		<tag k="ssr:stedsnr" v="713822" />
		<tag k="waterway" v="stream" />
	</node>
	<node id="-148296" lat="66.2806833366" lon="12.7917944359">
		<tag k="name" v="Finnvikelva" />
		<tag k="ssr:stedsnr" v="805684" />
		<tag k="waterway" v="river" />
	</node>
	<node id="-147783" lat="66.2456166705" lon="13.175472231">
		<tag k="name" v="Skogselva" />
		<tag k="ssr:stedsnr" v="76812" />
		<tag k="waterway" v="stream" />
	</node>
	<node id="-147270" lat="66.264113887" lon="12.9770499919">
		<tag k="alt_name" v="Bjønndalselva" />
		<tag k="name" v="Bjørndalselva" />
		<tag k="ssr:stedsnr" v="441735" />
		<tag k="waterway" v="stream" />
	</node>
	<node id="-147773" lat="66.1979416705" lon="12.9191249984">
		<tag k="name" v="Storvatnet" />
		<tag k="natural" v="water" />
		<tag k="ssr:stedsnr" v="76755" />
	</node>
	<node id="-147763" lat="66.2115916681" lon="13.0559194469">
		<tag k="name" v="Kvassnesbekken" />
		<tag k="ssr:stedsnr" v="46387" />
		<tag k="waterway" v="stream" />
	</node>
	<node id="-147247" lat="66.2577444482" lon="13.0803138994">
		<tag k="alt_name" v="Steiroelva" />
		<tag k="name" v="Steiraelva" />
		<tag k="ssr:stedsnr" v="440724" />
		<tag k="waterway" v="stream" />
	</node>
	<node id="-148264" lat="66.2731583364" lon="13.1919194499">
		<tag k="name" v="Sjøvollbekken" />
		<tag k="ssr:stedsnr" v="773970" />
		<tag k="waterway" v="stream" />
	</node>
	<node id="-147238" lat="66.2688472236" lon="12.9975805601">
		<tag k="name" v="Handsteinelva" />
		<tag k="ssr:stedsnr" v="198721" />
		<tag k="waterway" v="river" />
	</node>
	<node id="-147749" lat="66.2562611111" lon="13.0198972215">
		<tag k="name" v="Vasshøve" />
		<tag k="natural" v="cape" />
		<tag k="ssr:stedsnr" v="46113" />
	</node>
	<node id="-147236" lat="66.2643722257" lon="12.8629555483">
		<tag k="name" v="Forslandsvatnet" />
>>>>>>> e1d4bc35ff8a6074a6f2e91616a996b547c36f15
		<tag k="natural" v="water" />
		<tag k="ssr:stedsnr" v="228238" />
	</node>
<<<<<<< HEAD
	<node lat="66.19573888715783" lon="13.153547216474799" id="-9511">
		<tag k="name" v="Innersandabekken" />
		<tag k="ssr:stedsnr" v="228807" />
		<tag k="waterway" v="stream" />
	</node>
	<node lat="66.2312333363791" lon="13.136091666595926" id="-9526">
		<tag k="name" v="Hersetelva" />
		<tag k="ssr:stedsnr" v="258856" />
		<tag k="waterway" v="stream" />
	</node>
	<node lat="66.2701888925122" lon="13.247888897245794" id="-9538">
		<tag k="name" v="Kløvabekken" />
		<tag k="ssr:stedsnr" v="259961" />
		<tag k="waterway" v="stream" />
	</node>
	<node lat="66.20865555915634" lon="13.053141666807788" id="-9583">
		<tag k="name" v="Tungaelva" />
		<tag k="ssr:stedsnr" v="470334" />
		<tag k="waterway" v="stream" />
	</node>
	<node lat="66.21855833381437" lon="13.07409166132635" id="-9610">
		<tag k="name" v="Buktbekken" />
		<tag k="ssr:stedsnr" v="349425" />
		<tag k="waterway" v="stream" />
	</node>
	<node lat="66.22965278136802" lon="12.766286121252397" id="-9624">
		<tag k="name" v="Husbyelva" />
		<tag k="ssr:stedsnr" v="379808" />
		<tag k="waterway" v="stream" />
	</node>
	<node lat="66.26464444116807" lon="13.105600009960705" id="-9627">
		<tag k="alt_name" v="Litlsteiroelva" />
		<tag k="name" v="Litlsteiraelva" />
		<tag k="ssr:stedsnr" v="380673" />
		<tag k="waterway" v="stream" />
	</node>
	<node lat="66.28188055886895" lon="12.777186107289285" id="-9642">
		<tag k="name" v="Linesdalvatnet" />
		<tag k="natural" v="water" />
		<tag k="ssr:stedsnr" v="409791" />
	</node>
	<node lat="66.19135555398567" lon="13.12499999023441" id="-9651">
		<tag k="name" v="Mølnbekken" />
		<tag k="ssr:stedsnr" v="411840" />
		<tag k="waterway" v="stream" />
	</node>
	<node lat="66.26411388697981" lon="12.977049991902959" id="-9669">
		<tag k="alt_name" v="Bjønndalselva" />
		<tag k="name" v="Bjørndalselva" />
		<tag k="ssr:stedsnr" v="441735" />
		<tag k="waterway" v="stream" />
	</node>
	<node lat="66.20766666789734" lon="13.106666671790846" id="-9688">
		<tag k="name" v="Handvatnet" />
=======
	<node id="-147759" lat="66.2405666698" lon="12.8570916704">
		<tag k="name" v="Kvannvikelva" />
		<tag k="ssr:stedsnr" v="46247" />
		<tag k="waterway" v="stream" />
	</node>
	<node id="-148244" lat="66.2628111134" lon="12.8405194445">
		<tag k="name" v="Forslandselva" />
		<tag k="ssr:stedsnr" v="744702" />
		<tag k="waterway" v="stream" />
	</node>
	<node id="-148238" lat="66.2342555598" lon="12.8509305641">
		<tag k="name" v="Botntjønna" />
		<tag k="natural" v="water" />
		<tag k="ssr:stedsnr" v="743838" />
	</node>
	<node id="-148227" lat="66.1945611094" lon="13.147447231">
		<tag k="name" v="Finnremmbekken" />
		<tag k="ssr:stedsnr" v="652770" />
		<tag k="waterway" v="stream" />
	</node>
	<node id="-147714" lat="66.2694388919" lon="13.2405805569">
		<tag k="alt_name" v="Langsetelva" />
		<tag k="name" v="Longsetelva" />
		<tag k="ssr:stedsnr" v="16958" />
		<tag k="waterway" v="river" />
	</node>
	<node id="-147707" lat="66.2201194463" lon="13.1005999913">
		<tag k="name" v="Innerhandelva" />
		<tag k="ssr:stedsnr" v="15874" />
		<tag k="waterway" v="stream" />
	</node>
	<node id="-148212" lat="66.2528833328" lon="13.0687722322">
		<tag k="name" v="Finnolabekken" />
		<tag k="ssr:stedsnr" v="652082" />
		<tag k="waterway" v="stream" />
	</node>
	<node id="-147240" lat="66.2532972183" lon="12.8672833332">
		<tag k="name" v="Skeivstadvatnan" />
		<tag k="natural" v="water" />
		<tag k="ssr:stedsnr" v="198729" />
	</node>
	<node id="-147180" lat="66.2701888925" lon="13.2478888972">
		<tag k="name" v="Kløvabekken" />
		<tag k="ssr:stedsnr" v="259961" />
		<tag k="waterway" v="stream" />
	</node>
	<node id="-147179" lat="66.2839083359" lon="13.1333527732">
		<tag k="alt_name" v="Djupvikelva" />
		<tag k="name" v="Juvikelva" />
		<tag k="ssr:stedsnr" v="259701" />
		<tag k="waterway" v="river" />
	</node>
	<node id="-147178" lat="66.2757388875" lon="13.0727722287">
		<tag k="name" v="Grønlitindvatnan" />
>>>>>>> e1d4bc35ff8a6074a6f2e91616a996b547c36f15
		<tag k="natural" v="water" />
		<tag k="ssr:stedsnr" v="501735" />
	</node>
<<<<<<< HEAD
	<node lat="66.26716389237181" lon="13.016355556412648" id="-9705">
		<tag k="name" v="Durmålskartjønna" />
=======
	<node id="-147177" lat="66.2803611099" lon="13.160200006">
		<tag k="name" v="Skagavatnet" />
>>>>>>> e1d4bc35ff8a6074a6f2e91616a996b547c36f15
		<tag k="natural" v="water" />
		<tag k="ssr:stedsnr" v="684725" />
	</node>
<<<<<<< HEAD
	<node lat="66.24697777331602" lon="13.032336113010913" id="-9732">
		<tag k="name" v="Mellomhineselva" />
		<tag k="ssr:stedsnr" v="591158" />
		<tag k="waterway" v="stream" />
	</node>
	<node lat="66.19513610934588" lon="13.150863896265818" id="-9737">
		<tag k="name" v="Yttersandabekken" />
		<tag k="ssr:stedsnr" v="591759" />
		<tag k="waterway" v="stream" />
	</node>
	<node lat="66.26572222490518" lon="13.033797219308296" id="-9741">
		<tag k="name" v="Jakobtjønna" />
		<tag k="natural" v="water" />
		<tag k="ssr:stedsnr" v="592067" />
	</node>
	<node lat="66.26867222215034" lon="13.034333341835897" id="-9745">
		<tag k="name" v="Pessaren" />
		<tag k="ssr:stedsnr" v="592106" />
		<tag k="waterway" v="stream" />
	</node>
	<node lat="66.24317500358137" lon="13.010261100994544" id="-9760">
		<tag k="name" v="Bysekkerbekken" />
		<tag k="ssr:stedsnr" v="651207" />
		<tag k="waterway" v="stream" />
	</node>
	<node lat="66.26690000163563" lon="13.19027778043934" id="-9768">
		<tag k="name" v="Ellingfossen" />
		<tag k="natural" v="waterfall" />
		<tag k="ssr:stedsnr" v="652003" />
	</node>
	<node lat="66.20001944475153" lon="13.146066675519373" id="-9787">
		<tag k="name" v="Yttersandbekken" />
		<tag k="ssr:stedsnr" v="682817" />
		<tag k="waterway" v="stream" />
	</node>
	<node lat="66.22477777666529" lon="12.808900003161519" id="-9802">
		<tag k="name" v="Osbekken" />
		<tag k="ssr:stedsnr" v="894389" />
		<tag k="waterway" v="stream" />
	</node>
	<node lat="66.21512500384492" lon="13.095144442014597" id="-9805">
		<tag k="name" v="Skjåsletta" />
		<tag k="ssr:stedsnr" v="895231" />
		<tag k="waterway" v="stream" />
	</node>
	<node lat="66.20978889221095" lon="13.094861106801103" id="-9808">
		<tag k="name" v="Handådalsbekken" />
		<tag k="ssr:stedsnr" v="895245" />
		<tag k="waterway" v="stream" />
	</node>
	<node lat="66.18927500063789" lon="12.950936110473563" id="-9818">
		<tag k="name" v="Gårdselva" />
		<tag k="ssr:stedsnr" v="896430" />
		<tag k="waterway" v="stream" />
	</node>
	<node lat="66.23553333322722" lon="12.996811109476617" id="-9866">
=======
	<node id="-148200" lat="66.2431750036" lon="13.010261101">
		<tag k="name" v="Bysekkerbekken" />
		<tag k="ssr:stedsnr" v="651207" />
		<tag k="waterway" v="stream" />
	</node>
	<node id="-147175" lat="66.2742222265" lon="12.8238555453">
		<tag k="name" v="Øvredalsvatnet" />
		<tag k="natural" v="water" />
		<tag k="ssr:stedsnr" v="259682" />
	</node>
	<node id="-148195" lat="66.2170444404" lon="13.0831861211">
		<tag k="name" v="Føllbekken" />
		<tag k="ssr:stedsnr" v="651270" />
		<tag k="waterway" v="stream" />
	</node>
	<node id="-148193" lat="66.2545972226" lon="13.197147221">
		<tag k="name" v="Meåga" />
		<tag k="ssr:stedsnr" v="651050" />
		<tag k="waterway" v="stream" />
	</node>
	<node id="-148182" lat="66.219255552" lon="13.09123611">
		<tag k="name" v="Ytterelva" />
		<tag k="ssr:stedsnr" v="622854" />
		<tag k="waterway" v="stream" />
	</node>
	<node id="-147153" lat="66.2614777759" lon="13.2190138935">
		<tag k="name" v="Innerstaklibekken" />
		<tag k="ssr:stedsnr" v="44046" />
		<tag k="waterway" v="stream" />
	</node>
	<node id="-147147" lat="66.1957388872" lon="13.1535472165">
		<tag k="name" v="Innersandabekken" />
		<tag k="ssr:stedsnr" v="228807" />
		<tag k="waterway" v="stream" />
	</node>
	<node id="-147145" lat="66.2340083363" lon="12.7991694376">
		<tag k="name" v="Ytterfjellkløvvatnet" />
		<tag k="natural" v="water" />
		<tag k="ssr:stedsnr" v="228238" />
	</node>
	<node id="-148165" lat="66.2270888859" lon="13.227552767">
		<tag k="name" v="Bogelva" />
		<tag k="ssr:stedsnr" v="621092" />
		<tag k="waterway" v="stream" />
	</node>
	<node id="-147652" lat="66.2355333332" lon="12.9968111095">
>>>>>>> e1d4bc35ff8a6074a6f2e91616a996b547c36f15
		<tag k="name" v="Sauraelva" />
		<tag k="ssr:stedsnr" v="804823" />
		<tag k="waterway" v="stream" />
	</node>
<<<<<<< HEAD
	<node lat="66.19913611178994" lon="13.057822219741626" id="-9879">
		<tag k="name" v="Vannbasseng" />
		<tag k="natural" v="water" />
		<tag k="ssr:stedsnr" v="836830" />
	</node>
	<node lat="66.19707499828715" lon="13.035508342778497" id="-9918">
		<tag k="loc_name" v="Mathildebekken" />
		<tag k="name" v="Nesnabekken" />
		<tag k="ssr:stedsnr" v="896863" />
		<tag k="waterway" v="stream" />
	</node>
	<node lat="66.19676388434782" lon="12.909483338220333" id="-9924">
=======
	<node id="-147647" lat="66.2680750028" lon="13.2429805453">
		<tag k="name" v="Storåga" />
		<tag k="ssr:stedsnr" v="926956" />
		<tag k="waterway" v="stream" />
	</node>
	<node id="-147644" lat="66.1967638843" lon="12.9094833382">
>>>>>>> e1d4bc35ff8a6074a6f2e91616a996b547c36f15
		<tag k="name" v="Trolldalsvatnet" />
		<tag k="natural" v="water" />
		<tag k="ssr:stedsnr" v="926763" />
	</node>
<<<<<<< HEAD
	<node lat="66.2680750028426" lon="13.242980545265437" id="-9930">
		<tag k="name" v="Storåga" />
		<tag k="ssr:stedsnr" v="926956" />
		<tag k="waterway" v="stream" />
	</node>
	<node lat="66.22011944631736" lon="13.100599991313796" id="-9958">
		<tag k="name" v="Innerhandelva" />
		<tag k="ssr:stedsnr" v="15874" />
		<tag k="waterway" v="stream" />
	</node>
	<node lat="66.27145277504718" lon="13.051888895716015" id="-9967">
=======
	<node id="-148150" lat="66.2686722222" lon="13.0343333418">
		<tag k="name" v="Pessaren" />
		<tag k="ssr:stedsnr" v="592106" />
		<tag k="waterway" v="stream" />
	</node>
	<node id="-147124" lat="66.2539722204" lon="12.7955972128">
		<tag k="name" v="Tomsvikvatnet" />
		<tag k="natural" v="water" />
		<tag k="ssr:stedsnr" v="16721" />
	</node>
	<node id="-148147" lat="66.2657222249" lon="13.0337972193">
		<tag k="name" v="Jakobtjønna" />
		<tag k="natural" v="water" />
		<tag k="ssr:stedsnr" v="592067" />
	</node>
	<node id="-147121" lat="66.271452775" lon="13.0518888957">
>>>>>>> e1d4bc35ff8a6074a6f2e91616a996b547c36f15
		<tag k="name" v="Langvatnet" />
		<tag k="natural" v="water" />
		<tag k="ssr:stedsnr" v="16711" />
	</node>
<<<<<<< HEAD
	<node lat="66.25397222041126" lon="12.795597212813448" id="-9970">
		<tag k="name" v="Tomsvikvatnet" />
		<tag k="natural" v="water" />
		<tag k="ssr:stedsnr" v="16721" />
	</node>
	<node lat="66.26147777586353" lon="13.219013893518378" id="-9980">
		<tag k="name" v="Innerstaklibekken" />
		<tag k="ssr:stedsnr" v="44046" />
		<tag k="waterway" v="stream" />
	</node>
	<node lat="66.2562611111452" lon="13.019897221452062" id="-9987">
		<tag k="name" v="Vasshøve" />
		<tag k="natural" v="cape" />
		<tag k="ssr:stedsnr" v="46113" />
	</node>
	<node lat="66.21159166811793" lon="13.055919446859324" id="-10000">
		<tag k="name" v="Kvassnesbekken" />
		<tag k="ssr:stedsnr" v="46387" />
		<tag k="waterway" v="stream" />
	</node>
	<node lat="66.24056666979601" lon="12.85709167036493" id="-10004">
		<tag k="name" v="Kvannvikelva" />
		<tag k="ssr:stedsnr" v="46247" />
		<tag k="waterway" v="stream" />
	</node>
	<node lat="66.28492499859928" lon="13.297905562752257" id="-10021">
		<tag k="name" v="Ytteråga" />
		<tag k="ssr:stedsnr" v="76945" />
		<tag k="waterway" v="stream" />
	</node>
	<node lat="66.27780833091666" lon="13.25386111867949" id="-10023">
		<tag k="name" v="Mobekken" />
		<tag k="ssr:stedsnr" v="77967" />
		<tag k="waterway" v="stream" />
	</node>
	<node lat="66.23714722165276" lon="13.004688893316663" id="-10028">
		<tag k="name" v="Seimbekken" />
		<tag k="ssr:stedsnr" v="106168" />
		<tag k="waterway" v="stream" />
	</node>
	<node lat="66.26974444644189" lon="13.010616661721924" id="-10039">
		<tag k="name" v="Petrinakjelda" />
		<tag k="natural" v="spring" />
		<tag k="ssr:stedsnr" v="107058" />
	</node>
	<node lat="66.25697499920008" lon="12.746699994874563" id="-10058">
		<tag k="name" v="Helgåga" />
		<tag k="ssr:stedsnr" v="137706" />
		<tag k="waterway" v="stream" />
	</node>
	<node lat="66.25953333134397" lon="13.02960277974205" id="-10060">
		<tag k="name" v="Storvatnet" />
		<tag k="natural" v="water" />
		<tag k="ssr:stedsnr" v="137711" />
	</node>
	<node lat="66.24271111278694" lon="12.95420834055244" id="-10092">
=======
	<node id="-148136" lat="66.1951361093" lon="13.1508638963">
		<tag k="name" v="Yttersandabekken" />
		<tag k="ssr:stedsnr" v="591759" />
		<tag k="waterway" v="stream" />
	</node>
	<node id="-148130" lat="66.2486388864" lon="13.1787583306">
		<tag k="name" v="Skjåbekken" />
		<tag k="ssr:stedsnr" v="591287" />
		<tag k="waterway" v="stream" />
	</node>
	<node id="-148125" lat="66.2469777733" lon="13.032336113">
		<tag k="name" v="Mellomhineselva" />
		<tag k="ssr:stedsnr" v="591158" />
		<tag k="waterway" v="stream" />
	</node>
	<node id="-147612" lat="66.248261109" lon="13.1759555594">
		<tag k="name" v="Finnkjerringfossen" />
		<tag k="natural" v="waterfall" />
		<tag k="ssr:stedsnr" v="773333" />
	</node>
	<node id="-148121" lat="66.2615750029" lon="13.2214833291">
		<tag k="name" v="Kudalsbekken" />
		<tag k="ssr:stedsnr" v="590045" />
		<tag k="waterway" v="stream" />
	</node>
	<node id="-147599" lat="66.2402611146" lon="13.1497361085">
		<tag k="alt_name" v="Remmaelva" />
		<tag k="name" v="Remmåelva" />
		<tag k="ssr:stedsnr" v="743823" />
		<tag k="waterway" v="stream" />
	</node>
	<node id="-147595" lat="66.1892750006" lon="12.9509361105">
		<tag k="name" v="Gårdselva" />
		<tag k="ssr:stedsnr" v="896430" />
		<tag k="waterway" v="stream" />
	</node>
	<node id="-148331" lat="66.1991361118" lon="13.0578222197">
		<tag k="name" v="Vannbasseng" />
		<tag k="natural" v="water" />
		<tag k="ssr:stedsnr" v="836830" />
	</node>
	<node id="-147571" lat="66.2097888922" lon="13.0948611068">
		<tag k="name" v="Handådalsbekken" />
		<tag k="ssr:stedsnr" v="895245" />
		<tag k="waterway" v="stream" />
	</node>
	<node id="-148082" lat="66.2522250006" lon="13.0658861198">
		<tag k="name" v="Skogheimelva" />
		<tag k="ssr:stedsnr" v="531089" />
		<tag k="waterway" v="stream" />
	</node>
	<node id="-147568" lat="66.2151250038" lon="13.095144442">
		<tag k="name" v="Skjåsletta" />
		<tag k="ssr:stedsnr" v="895231" />
		<tag k="waterway" v="stream" />
	</node>
	<node id="-148070" lat="66.2635944486" lon="13.2220611053">
		<tag k="name" v="Svartflogbekken" />
		<tag k="ssr:stedsnr" v="530061" />
		<tag k="waterway" v="stream" />
	</node>
	<node id="-148068" lat="66.2460222244" lon="13.1582138913">
		<tag k="name" v="Brattåsbekken" />
		<tag k="ssr:stedsnr" v="530050" />
		<tag k="waterway" v="stream" />
	</node>
	<node id="-148065" lat="66.191355554" lon="13.1249999902">
>>>>>>> e1d4bc35ff8a6074a6f2e91616a996b547c36f15
		<tag k="name" v="Mølnbekken" />
		<tag k="ssr:stedsnr" v="167150" />
		<tag k="waterway" v="stream" />
	</node>
<<<<<<< HEAD
	<node lat="66.23960833584988" lon="12.842341666631581" id="-10097">
		<tag k="name" v="Storelva" />
		<tag k="ssr:stedsnr" v="167238" />
		<tag k="waterway" v="stream" />
	</node>
	<node lat="66.19430555202591" lon="13.138702766934381" id="-10106">
		<tag k="name" v="Stordalsbekken" />
		<tag k="ssr:stedsnr" v="197794" />
		<tag k="waterway" v="stream" />
	</node>
	<node lat="66.23335833366953" lon="12.807938895448068" id="-10109">
		<tag k="alt_name" v="Fjellklauvvatnet" />
		<tag k="name" v="Innerfjellkløvvatnet" />
		<tag k="natural" v="water" />
		<tag k="ssr:stedsnr" v="197843" />
	</node>
	<node lat="66.26884722362507" lon="12.997580560088227" id="-10113">
		<tag k="name" v="Handsteinelva" />
		<tag k="ssr:stedsnr" v="198721" />
		<tag k="waterway" v="river" />
	</node>
	<node lat="66.25329721833184" lon="12.867283333166224" id="-10115">
		<tag k="name" v="Skeivstadvatnan" />
		<tag k="natural" v="water" />
		<tag k="ssr:stedsnr" v="198729" />
	</node>
	<node lat="66.28493889274668" lon="13.074858328474813" id="-10143">
		<tag k="name" v="Labekken" />
		<tag k="ssr:stedsnr" v="288760" />
		<tag k="waterway" v="stream" />
	</node>
	<node lat="66.18263611127318" lon="13.076541674874417" id="-10144">
		<tag k="name" v="Næsrembekken" />
		<tag k="ssr:stedsnr" v="288761" />
		<tag k="waterway" v="stream" />
	</node>
	<node lat="66.26144166274666" lon="13.208800004916007" id="-10184">
		<tag k="name" v="Svartflogelva" />
		<tag k="ssr:stedsnr" v="348050" />
		<tag k="waterway" v="stream" />
	</node>
	<node lat="66.21930833434713" lon="13.100211106999193" id="-10185">
		<tag k="name" v="Torvmyrbekken" />
		<tag k="ssr:stedsnr" v="348246" />
		<tag k="waterway" v="stream" />
	</node>
	<node lat="66.27909444035383" lon="13.04367499507345" id="-10191">
		<tag k="name" v="Oterstibekken" />
		<tag k="ssr:stedsnr" v="348745" />
		<tag k="waterway" v="stream" />
	</node>
	<node lat="66.21495000246905" lon="13.188786119311432" id="-10229">
=======
	<node id="-147552" lat="66.2247777767" lon="12.8089000032">
		<tag k="name" v="Osbekken" />
		<tag k="ssr:stedsnr" v="894389" />
		<tag k="waterway" v="stream" />
	</node>
	<node id="-147340" lat="66.2086555592" lon="13.0531416668">
		<tag k="name" v="Tungaelva" />
		<tag k="ssr:stedsnr" v="470334" />
		<tag k="waterway" v="stream" />
	</node>
	<node id="-148060" lat="66.1880666653" lon="13.0301138776">
		<tag k="name" v="Bjønndalsbekken" />
		<tag k="ssr:stedsnr" v="410830" />
		<tag k="waterway" v="stream" />
	</node>
	<node id="-147386" lat="66.274500003" lon="13.267316668">
		<tag k="name" v="Gauklibekken" />
		<tag k="ssr:stedsnr" v="501966" />
		<tag k="waterway" v="stream" />
	</node>
	<node id="-147538" lat="66.2000194448" lon="13.1460666755">
		<tag k="name" v="Yttersandbekken" />
		<tag k="ssr:stedsnr" v="682817" />
		<tag k="waterway" v="stream" />
	</node>
	<node id="-148042" lat="66.2818805589" lon="12.7771861073">
		<tag k="name" v="Linesdalvatnet" />
		<tag k="natural" v="water" />
		<tag k="ssr:stedsnr" v="409791" />
	</node>
	<node id="-147527" lat="66.2669000016" lon="13.1902777804">
		<tag k="name" v="Ellingfossen" />
		<tag k="natural" v="waterfall" />
		<tag k="ssr:stedsnr" v="652003" />
	</node>
	<node id="-148038" lat="66.280130553" lon="13.2107500059">
		<tag k="name" v="Kalvhaugbekken" />
		<tag k="ssr:stedsnr" v="409773" />
		<tag k="waterway" v="stream" />
	</node>
	<node id="-147512" lat="66.2855027762" lon="12.8681555482">
		<tag k="name" v="Sandvikbekken" />
		<tag k="ssr:stedsnr" v="713823" />
		<tag k="waterway" v="stream" />
	</node>
	<node id="-148023" lat="66.272552777" lon="13.030519441">
		<tag k="name" v="Fagerlielva" />
		<tag k="ssr:stedsnr" v="380754" />
		<tag k="waterway" v="stream" />
	</node>
	<node id="-148020" lat="66.2646444412" lon="13.10560001">
		<tag k="alt_name" v="Litlsteiroelva" />
		<tag k="name" v="Litlsteiraelva" />
		<tag k="ssr:stedsnr" v="380673" />
		<tag k="waterway" v="stream" />
	</node>
	<node id="-148017" lat="66.2149500025" lon="13.1887861193">
>>>>>>> e1d4bc35ff8a6074a6f2e91616a996b547c36f15
		<tag k="name" v="Hinderåga" />
		<tag k="ssr:stedsnr" v="379848" />
		<tag k="waterway" v="stream" />
	</node>
<<<<<<< HEAD
	<node lat="66.27255277702046" lon="13.030519440991961" id="-10234">
		<tag k="name" v="Fagerlielva" />
		<tag k="ssr:stedsnr" v="380754" />
		<tag k="waterway" v="stream" />
	</node>
	<node lat="66.28013055301513" lon="13.210750005859294" id="-10242">
		<tag k="name" v="Kalvhaugbekken" />
		<tag k="ssr:stedsnr" v="409773" />
		<tag k="waterway" v="stream" />
	</node>
	<node lat="66.18806666534802" lon="13.030113877567489" id="-10255">
		<tag k="name" v="Bjønndalsbekken" />
		<tag k="ssr:stedsnr" v="410830" />
		<tag k="waterway" v="stream" />
	</node>
	<node lat="66.18106944081954" lon="13.037000003166714" id="-10258">
		<tag k="name" v="Storrennbekken" />
		<tag k="ssr:stedsnr" v="410660" />
		<tag k="waterway" v="stream" />
	</node>
	<node lat="66.25774444820752" lon="13.080313899393373" id="-10259">
		<tag k="alt_name" v="Steiroelva" />
		<tag k="name" v="Steiraelva" />
		<tag k="ssr:stedsnr" v="440724" />
		<tag k="waterway" v="stream" />
	</node>
	<node lat="66.24783610927406" lon="13.016161114855395" id="-10281">
		<tag k="name" v="Riksaelva" />
		<tag k="ssr:stedsnr" v="500860" />
		<tag k="waterway" v="stream" />
	</node>
	<node lat="66.19739999958375" lon="12.913763887942837" id="-10286">
		<tag k="fixme" v="multiple name tags, choose one and add the other to alt_name" />
		<tag k="name" v="Engvatnan;Litlevatnet" />
		<tag k="natural" v="water" />
		<tag k="ssr:stedsnr" v="501745" />
	</node>
	<node lat="66.19318055625617" lon="12.953999998642184" id="-10287">
		<tag k="name" v="Vikaelva" />
		<tag k="ssr:stedsnr" v="501746" />
		<tag k="waterway" v="stream" />
	</node>
	<node lat="66.27450000299822" lon="13.26731666797811" id="-10289">
		<tag k="name" v="Gauklibekken" />
		<tag k="ssr:stedsnr" v="501966" />
		<tag k="waterway" v="stream" />
	</node>
	<node lat="66.26897499570994" lon="13.280211120197677" id="-10290">
		<tag k="name" v="Storågvatnet" />
		<tag k="natural" v="water" />
		<tag k="ssr:stedsnr" v="501969" />
	</node>
	<node lat="66.24602222435054" lon="13.158213891260111" id="-10294">
		<tag k="name" v="Brattåsbekken" />
		<tag k="ssr:stedsnr" v="530050" />
		<tag k="waterway" v="stream" />
	</node>
	<node lat="66.26359444856618" lon="13.222061105270924" id="-10296">
		<tag k="name" v="Svartflogbekken" />
		<tag k="ssr:stedsnr" v="530061" />
		<tag k="waterway" v="stream" />
	</node>
	<node lat="66.25222500058946" lon="13.065886119819949" id="-10310">
		<tag k="name" v="Skogheimelva" />
		<tag k="ssr:stedsnr" v="531089" />
		<tag k="waterway" v="stream" />
	</node>
	<node lat="66.23810555359528" lon="12.812316667745355" id="-10348">
		<tag k="name" v="Rossmålsvatnet" />
		<tag k="natural" v="water" />
		<tag k="ssr:stedsnr" v="561810" />
	</node>
	<node lat="66.26157500288639" lon="13.22148332907592" id="-10362">
		<tag k="name" v="Kudalsbekken" />
		<tag k="ssr:stedsnr" v="590045" />
		<tag k="waterway" v="stream" />
	</node>
	<node lat="66.24863888642014" lon="13.178758330633121" id="-10371">
		<tag k="name" v="Skjåbekken" />
		<tag k="ssr:stedsnr" v="591287" />
		<tag k="waterway" v="stream" />
	</node>
	<node lat="66.22708888590762" lon="13.227552766989113" id="-10395">
		<tag k="name" v="Bogelva" />
		<tag k="ssr:stedsnr" v="621092" />
		<tag k="waterway" v="stream" />
	</node>
	<node lat="66.21925555195246" lon="13.091236109987246" id="-10407">
		<tag k="name" v="Ytterelva" />
		<tag k="ssr:stedsnr" v="622854" />
		<tag k="waterway" v="stream" />
	</node>
	<node lat="66.2545972225936" lon="13.197147220969317" id="-10416">
		<tag k="name" v="Meåga" />
		<tag k="ssr:stedsnr" v="651050" />
		<tag k="waterway" v="stream" />
	</node>
	<node lat="66.2170444404156" lon="13.08318612109196" id="-10420">
		<tag k="name" v="Føllbekken" />
		<tag k="ssr:stedsnr" v="651270" />
		<tag k="waterway" v="stream" />
	</node>
	<node lat="66.25288333280032" lon="13.06877223222279" id="-10426">
		<tag k="name" v="Finnolabekken" />
		<tag k="ssr:stedsnr" v="652082" />
		<tag k="waterway" v="stream" />
	</node>
	<node lat="66.19456110943256" lon="13.147447231011808" id="-10439">
		<tag k="name" v="Finnremmbekken" />
		<tag k="ssr:stedsnr" v="652770" />
		<tag k="waterway" v="stream" />
	</node>
	<node lat="66.1800249973937" lon="13.065774989587924" id="-10461">
		<tag k="name" v="Jensåga" />
		<tag k="ssr:stedsnr" v="713308" />
		<tag k="waterway" v="stream" />
	</node>
	<node lat="66.29032500037819" lon="12.863611118940268" id="-10472">
		<tag k="name" v="Oterbekken" />
		<tag k="ssr:stedsnr" v="713822" />
		<tag k="waterway" v="stream" />
	</node>
	<node lat="66.28550277624252" lon="12.868155548233336" id="-10473">
		<tag k="name" v="Sandvikbekken" />
		<tag k="ssr:stedsnr" v="713823" />
		<tag k="waterway" v="stream" />
	</node>
	<node lat="66.23425555978301" lon="12.850930564138498" id="-10481">
		<tag k="name" v="Botntjønna" />
		<tag k="natural" v="water" />
		<tag k="ssr:stedsnr" v="743838" />
	</node>
	<node lat="66.2402611146408" lon="13.1497361084869" id="-10485">
		<tag k="alt_name" v="Remmaelva" />
		<tag k="name" v="Remmåelva" />
		<tag k="ssr:stedsnr" v="743823" />
		<tag k="waterway" v="stream" />
	</node>
	<node lat="66.26281111341038" lon="12.840519444540814" id="-10490">
		<tag k="name" v="Forslandselva" />
		<tag k="ssr:stedsnr" v="744702" />
		<tag k="waterway" v="stream" />
	</node>
	<node lat="66.2482611089798" lon="13.175955559413769" id="-10500">
		<tag k="name" v="Finnkjerringfossen" />
		<tag k="natural" v="waterfall" />
		<tag k="ssr:stedsnr" v="773333" />
	</node>
	<node lat="66.27315833635836" lon="13.191919449850168" id="-10515">
		<tag k="name" v="Sjøvollbekken" />
		<tag k="ssr:stedsnr" v="773970" />
		<tag k="waterway" v="stream" />
	</node>
	<node lat="66.26449722577831" lon="12.864211106136397" id="-10548">
		<tag k="fixme" v="multiple name tags, choose one and add the other to alt_name" />
		<tag k="name" v="Dalavatnet;Forslandsvatnet" />
		<tag k="natural" v="water" />
		<tag k="ssr:stedsnr" v="805710" />
	</node>
	<node lat="66.28068333656441" lon="12.79179443587426" id="-10552">
		<tag k="name" v="Finnvikelva" />
		<tag k="ssr:stedsnr" v="805684" />
		<tag k="waterway" v="river" />
	</node>
	<node lat="66.2269416640611" lon="13.100863882312709" id="-10565">
		<tag k="alt_name" v="Skilsbekken" />
		<tag k="name" v="Skjellsbekken" />
		<tag k="ssr:stedsnr" v="834184" />
		<tag k="waterway" v="stream" />
	</node>
	<node lat="66.26515833292623" lon="12.861408334814968" id="-10575">
		<tag k="name" v="Laksneset" />
		<tag k="natural" v="cape" />
		<tag k="ssr:stedsnr" v="834901" />
	</node>
	<node lat="66.25736944075379" lon="13.010119452565517" id="-10584">
		<tag k="name" v="Merraholmen" />
		<tag k="place" v="islet" />
		<tag k="ssr:stedsnr" v="835106" />
	</node>
	<node lat="66.24422499652592" lon="13.273263886781008" id="-10596">
		<tag k="name" v="Brynhildvatnet" />
		<tag k="natural" v="water" />
		<tag k="ssr:stedsnr" v="865150" />
	</node>
	<node lat="66.27070832954678" lon="13.026369443117952" id="-10617">
		<tag k="alt_name" v="Kvannlivatnet" />
		<tag k="name" v="Litlkvannlivatnet" />
		<tag k="natural" v="water" />
		<tag k="ssr:stedsnr" v="866713" />
	</node>
	<node lat="66.26057777721743" lon="13.18973054580438" id="-10621">
		<tag k="name" v="Engenelva" />
		<tag k="ssr:stedsnr" v="955083" />
		<tag k="waterway" v="stream" />
	</node>
	<node lat="66.27318889082643" lon="13.244591669743938" id="-10627">
		<tag k="name" v="Gauplibekken" />
		<tag k="ssr:stedsnr" v="955937" />
		<tag k="waterway" v="stream" />
	</node>
	<node lat="66.26366666720287" lon="12.99778334121168" id="-10628">
		<tag k="name" v="Middagskogtjønna" />
		<tag k="natural" v="water" />
		<tag k="ssr:stedsnr" v="956091" />
	</node>
=======
	<node id="-147501" lat="66.1800249974" lon="13.0657749896">
		<tag k="name" v="Jensåga" />
		<tag k="ssr:stedsnr" v="713308" />
		<tag k="waterway" v="stream" />
	</node>
	<node id="-147890" lat="66.2427111128" lon="12.9542083406">
		<tag k="name" v="Mølnbekken" />
		<tag k="ssr:stedsnr" v="167150" />
		<tag k="waterway" v="stream" />
	</node>
	<node id="-148009" lat="66.2296527814" lon="12.7662861213">
		<tag k="name" v="Husbyelva" />
		<tag k="ssr:stedsnr" v="379808" />
		<tag k="waterway" v="stream" />
	</node>
	<node id="-148059" lat="66.1810694408" lon="13.0370000032">
		<tag k="name" v="Storrennbekken" />
		<tag k="ssr:stedsnr" v="410660" />
		<tag k="waterway" v="stream" />
	</node>
	<node id="-147989" lat="66.2185583338" lon="13.0740916613">
		<tag k="name" v="Buktbekken" />
		<tag k="ssr:stedsnr" v="349425" />
		<tag k="waterway" v="stream" />
	</node>
	<node id="-147463" lat="66.2381055536" lon="12.8123166677">
		<tag k="name" v="Rossmålsvatnet" />
		<tag k="natural" v="water" />
		<tag k="ssr:stedsnr" v="561810" />
	</node>
	<node id="-147969" lat="66.2790944404" lon="13.0436749951">
		<tag k="name" v="Oterstibekken" />
		<tag k="ssr:stedsnr" v="348745" />
		<tag k="waterway" v="stream" />
	</node>
>>>>>>> e1d4bc35ff8a6074a6f2e91616a996b547c36f15
</osm>
