<?xml version="1.0" encoding="UTF-8"?>
<<<<<<< HEAD
<osm version="0.6" generator="osmapis">
	<node lat="66.19120278178754" lon="13.162591674835648" id="-9367">
		<tag k="name" v="Ranen" />
		<tag k="natural" v="bay" />
		<tag k="ssr:stedsnr" v="229859" />
	</node>
	<node lat="66.17451111551179" lon="13.035386115117074" id="-9369">
		<tag k="name" v="Båtneset" />
		<tag k="natural" v="cape" />
		<tag k="ssr:stedsnr" v="15826" />
	</node>
	<node lat="66.24024167032164" lon="12.702347226602235" id="-9370">
		<tag k="alt_name" v="Hamnholman" />
		<tag k="name" v="Hamnholmen" />
		<tag k="place" v="islet" />
		<tag k="ssr:stedsnr" v="15754" />
	</node>
	<node lat="66.25111666871769" lon="12.696005550169586" id="-9371">
		<tag k="name" v="Lamholmen" />
		<tag k="place" v="islet" />
		<tag k="ssr:stedsnr" v="15764" />
	</node>
	<node lat="66.2406416651155" lon="12.680413882539927" id="-9372">
		<tag k="alt_name" v="Skalkholmen" />
		<tag k="name" v="Skolkholmen" />
		<tag k="place" v="islet" />
		<tag k="ssr:stedsnr" v="15770" />
	</node>
	<node lat="66.30601666713532" lon="12.77363888967646" id="-9374">
		<tag k="name" v="Lomøygalten" />
		<tag k="natural" v="shoal" />
		<tag k="place" v="locality" />
		<tag k="ssr:stedsnr" v="16514" />
	</node>
	<node lat="66.32774166491235" lon="12.874747223609456" id="-9375">
		<tag k="fixme" v="consider seamark:type=rock or natural=shoal" />
		<tag k="name" v="Kjerringskjæret" />
		<tag k="place" v="islet" />
		<tag k="ssr:stedsnr" v="16523" />
	</node>
	<node lat="66.21072499613517" lon="12.81235000140605" id="-9377">
		<tag k="name" v="Storøya" />
		<tag k="place" v="islet" />
		<tag k="ssr:stedsnr" v="16863" />
	</node>
	<node lat="66.2596361085775" lon="12.951744452066269" id="-9379">
		<tag k="name" v="Valgrunna" />
		<tag k="natural" v="shoal" />
		<tag k="place" v="locality" />
		<tag k="ssr:stedsnr" v="25375" />
	</node>
	<node lat="66.22922499987618" lon="12.971397216386823" id="-9393">
		<tag k="name" v="Dilraneset" />
=======
<osm generator="osmapis" version="0.6">
	<node id="-147456" lat="66.195722223" lon="12.8769527783">
		<tag k="name" v="Sjøgna" />
		<tag k="natural" v="cape" />
		<tag k="ssr:stedsnr" v="692734" />
	</node>
	<node id="-147968" lat="66.2719305525" lon="12.9832166639">
		<tag k="name" v="Oterhella" />
		<tag k="natural" v="beach" />
		<tag k="place" v="locality" />
		<tag k="ssr:stedsnr" v="348742" />
	</node>
	<node id="-147965" lat="66.293436111" lon="12.8518250024">
		<tag k="name" v="Vika" />
		<tag k="natural" v="bay" />
		<tag k="ssr:stedsnr" v="348789" />
	</node>
	<node id="-147462" lat="66.2994972257" lon="12.8009444424">
		<tag k="name" v="Kiløya" />
		<tag k="place" v="island" />
		<tag k="ssr:stedsnr" v="561558" />
	</node>
	<node id="-147449" lat="66.2421999981" lon="12.6896111083">
		<tag k="name" v="Nordhamnholmen" />
		<tag k="place" v="islet" />
		<tag k="ssr:stedsnr" v="531032" />
	</node>
	<node id="-147958" lat="66.2525499963" lon="13.1566638796">
		<tag k="name" v="Skjåberget" />
		<tag k="natural" v="cape" />
		<tag k="ssr:stedsnr" v="348035" />
	</node>
	<node id="-147445" lat="66.2761888931" lon="13.0069555621">
		<tag k="name" v="Heimerneset" />
		<tag k="natural" v="cape" />
		<tag k="ssr:stedsnr" v="530758" />
	</node>
	<node id="-147956" lat="66.2690527781" lon="13.1403722138">
		<tag k="name" v="Osgrunnen" />
		<tag k="natural" v="shoal" />
		<tag k="place" v="locality" />
		<tag k="ssr:stedsnr" v="320741" />
	</node>
	<node id="-147955" lat="66.2742777788" lon="12.9721861105">
		<tag k="name" v="Litlgrunnen" />
		<tag k="natural" v="shoal" />
		<tag k="place" v="locality" />
		<tag k="ssr:stedsnr" v="320729" />
	</node>
	<node id="-147954" lat="66.272972225" lon="12.964916664">
		<tag k="name" v="Storgrunnen" />
		<tag k="natural" v="shoal" />
		<tag k="place" v="locality" />
		<tag k="ssr:stedsnr" v="320727" />
	</node>
	<node id="-147441" lat="66.2296555589" lon="12.9881277675">
		<tag k="name" v="Smiegrunnen" />
		<tag k="natural" v="shoal" />
		<tag k="place" v="locality" />
		<tag k="ssr:stedsnr" v="530227" />
	</node>
	<node id="-147950" lat="66.2031666627" lon="12.8122250018">
		<tag k="name" v="Lamholman" />
		<tag k="place" v="islet" />
		<tag k="ssr:stedsnr" v="319860" />
	</node>
	<node id="-147435" lat="66.2500499989" lon="13.1107444385">
		<tag k="fixme" v="consider seamark:type=rock or natural=shoal" />
		<tag k="name" v="Øyskjæret" />
		<tag k="place" v="islet" />
		<tag k="ssr:stedsnr" v="688594" />
	</node>
	<node id="-147946" lat="66.2214972188" lon="12.8321777756">
		<tag k="name" v="Skjåvika" />
		<tag k="natural" v="bay" />
		<tag k="ssr:stedsnr" v="319831" />
	</node>
	<node id="-147879" lat="66.2320916693" lon="12.8388750106">
		<tag k="name" v="Kleivneset" />
>>>>>>> e1d4bc35ff8a6074a6f2e91616a996b547c36f15
		<tag k="natural" v="cape" />
		<tag k="ssr:stedsnr" v="167228" />
	</node>
<<<<<<< HEAD
	<node lat="66.21781666385431" lon="12.994747211392204" id="-9396">
		<tag k="name" v="Sauragrunnen" />
		<tag k="natural" v="shoal" />
		<tag k="place" v="locality" />
		<tag k="ssr:stedsnr" v="46375" />
	</node>
	<node lat="66.18229722083119" lon="12.87097500711926" id="-9399">
		<tag k="name" v="Nordsjøbukta" />
		<tag k="natural" v="bay" />
		<tag k="ssr:stedsnr" v="76762" />
	</node>
	<node lat="66.18725555460387" lon="12.997986100552447" id="-9401">
		<tag k="name" v="Slåttgrunna" />
		<tag k="natural" v="shoal" />
		<tag k="place" v="locality" />
		<tag k="ssr:stedsnr" v="76764" />
	</node>
	<node lat="66.16999444452512" lon="12.934555565874321" id="-9405">
		<tag k="fixme" v="multiple name tags, choose one and add the other to alt_name; consider seamark:type=rock or natural=shoal" />
		<tag k="name" v="Ytterhusskjæret;Hallandsskjæret" />
		<tag k="place" v="islet" />
		<tag k="ssr:stedsnr" v="76797" />
	</node>
	<node lat="66.30236110829024" lon="12.74792500757287" id="-9408">
		<tag k="bay" v="fjord" />
		<tag k="name" v="Tomfjorden" />
		<tag k="natural" v="bay" />
		<tag k="ssr:stedsnr" v="77257" />
	</node>
	<node lat="66.27944444820241" lon="12.76008333898154" id="-9409">
		<tag k="name" v="Kvitnesan" />
		<tag k="natural" v="cape" />
		<tag k="ssr:stedsnr" v="77700" />
	</node>
	<node lat="66.27786944788335" lon="13.02315277836632" id="-9415">
		<tag k="name" v="Rauvikneset" />
		<tag k="natural" v="cape" />
		<tag k="ssr:stedsnr" v="106773" />
	</node>
	<node lat="66.27992222122309" lon="13.203958343444855" id="-9418">
		<tag k="name" v="Hølan" />
		<tag k="natural" v="bay" />
		<tag k="ssr:stedsnr" v="106796" />
	</node>
	<node lat="66.24483888979293" lon="12.72826943686513" id="-9426">
		<tag k="name" v="Tråviknesan" />
		<tag k="natural" v="cape" />
		<tag k="ssr:stedsnr" v="107192" />
	</node>
	<node lat="66.22967500367076" lon="12.851113878763584" id="-9428">
		<tag k="name" v="Tverrvika" />
		<tag k="natural" v="bay" />
		<tag k="ssr:stedsnr" v="107202" />
	</node>
	<node lat="66.23616666787535" lon="12.836591677879568" id="-9429">
		<tag k="name" v="Litleinneskjosen" />
		<tag k="natural" v="bay" />
		<tag k="ssr:stedsnr" v="107211" />
	</node>
	<node lat="66.20560833740102" lon="13.039374995151636" id="-9431">
		<tag k="name" v="Kvithella" />
		<tag k="natural" v="cape" />
		<tag k="ssr:stedsnr" v="107908" />
	</node>
	<node lat="66.17734444693802" lon="13.064191673675122" id="-9434">
		<tag k="name" v="Seglneset" />
		<tag k="natural" v="cape" />
		<tag k="ssr:stedsnr" v="136802" />
	</node>
	<node lat="66.17042777496717" lon="12.851586108175242" id="-9436">
		<tag k="name" v="Skjåberget" />
		<tag k="natural" v="cape" />
		<tag k="ssr:stedsnr" v="136809" />
	</node>
	<node lat="66.16756388770834" lon="12.89744166132309" id="-9437">
		<tag k="name" v="Bjørnvika" />
		<tag k="natural" v="bay" />
		<tag k="ssr:stedsnr" v="136818" />
	</node>
	<node lat="66.19436666789115" lon="13.154283328206617" id="-9438">
		<tag k="alt_name" v="Hammerø-sanden" />
		<tag k="name" v="Hammarøysanden" />
		<tag k="natural" v="cape" />
		<tag k="ssr:stedsnr" v="136796" />
	</node>
	<node lat="66.32508333280626" lon="12.880730561889683" id="-9439">
		<tag k="name" v="Skjærskallen" />
		<tag k="natural" v="shoal" />
		<tag k="place" v="locality" />
		<tag k="ssr:stedsnr" v="137525" />
	</node>
	<node lat="66.2936638912762" lon="12.811005565697489" id="-9440">
		<tag k="name" v="Finnvikvågen" />
		<tag k="natural" v="bay" />
		<tag k="ssr:stedsnr" v="137653" />
	</node>
	<node lat="66.24564999794461" lon="12.684669447805717" id="-9442">
		<tag k="fixme" v="consider seamark:type=rock or natural=shoal" />
		<tag k="name" v="Lyaskjæran" />
=======
	<node id="-147430" lat="66.2589833375" lon="13.1230361187">
		<tag k="bay" v="fjord" />
		<tag k="name" v="Litlsjona" />
		<tag k="natural" v="bay" />
		<tag k="ssr:stedsnr" v="683734" />
	</node>
	<node id="-147429" lat="66.21025556" lon="12.9632361123">
		<tag k="name" v="Stiberget" />
		<tag k="natural" v="cape" />
		<tag k="ssr:stedsnr" v="683842" />
	</node>
	<node id="-147940" lat="66.1992833297" lon="12.9671888854">
		<tag k="name" v="Vikaneset" />
		<tag k="natural" v="cape" />
		<tag k="ssr:stedsnr" v="319758" />
	</node>
	<node id="-147427" lat="66.2868916625" lon="12.8751305475">
		<tag k="name" v="Sandvika" />
		<tag k="natural" v="bay" />
		<tag k="ssr:stedsnr" v="683688" />
	</node>
	<node id="-147426" lat="66.2970444484" lon="12.8063333229">
		<tag k="alt_name" v="Røssneset" />
		<tag k="name" v="Røstneset" />
		<tag k="natural" v="cape" />
		<tag k="ssr:stedsnr" v="683675" />
	</node>
	<node id="-147937" lat="66.2769027804" lon="12.8921694444">
		<tag k="name" v="Lastarplassen" />
		<tag k="natural" v="cape" />
		<tag k="ssr:stedsnr" v="319692" />
	</node>
	<node id="-147424" lat="66.3125055549" lon="12.8269944432">
		<tag k="name" v="Lyngøya" />
		<tag k="place" v="islet" />
		<tag k="ssr:stedsnr" v="683537" />
	</node>
	<node id="-147423" lat="66.3012833356" lon="12.8334333368">
		<tag k="fixme" v="consider seamark:type=rock or natural=shoal" />
		<tag k="name" v="Juldagen" />
		<tag k="place" v="islet" />
		<tag k="ssr:stedsnr" v="683528" />
	</node>
	<node id="-148287" lat="66.2994500027" lon="12.8204916715">
		<tag k="name" v="Langneset" />
		<tag k="natural" v="cape" />
		<tag k="ssr:stedsnr" v="804627" />
	</node>
	<node id="-147421" lat="66.2267611127" lon="12.7018305465">
		<tag k="fixme" v="consider seamark:type=rock or natural=shoal" />
		<tag k="name" v="Hjartøyskjeran" />
		<tag k="place" v="islet" />
		<tag k="ssr:stedsnr" v="682781" />
	</node>
	<node id="-147420" lat="66.2464611106" lon="12.715713885">
		<tag k="name" v="Tomma" />
		<tag k="place" v="island" />
		<tag k="ssr:stedsnr" v="682777" />
	</node>
	<node id="-147706" lat="66.2248677643" lon="12.8322289841">
		<tag k="alt_name" v="Alsøy" />
		<tag k="name" v="Alsøya" />
		<tag k="place" v="island" />
		<tag k="ssr:stedsnr" v="15865" />
	</node>
	<node id="-147418" lat="66.2639222238" lon="12.9670972176">
		<tag k="alt_name" v="Bjørndalsskjeret;Bjørndalsskjæret" />
		<tag k="name" v="Bjønndalsskjeret" />
		<tag k="natural" v="cape" />
		<tag k="ssr:stedsnr" v="502742" />
	</node>
	<node id="-148303" lat="66.254936113" lon="12.9564805495">
		<tag k="alt_name" v="Vallaholman" />
		<tag k="name" v="Vallaholmen" />
		<tag k="place" v="islet" />
		<tag k="ssr:stedsnr" v="805729" />
	</node>
	<node id="-147928" lat="66.2334499962" lon="12.8587500065">
		<tag k="name" v="Mjåsundneset" />
		<tag k="natural" v="cape" />
		<tag k="ssr:stedsnr" v="318850" />
	</node>
	<node id="-147927" lat="66.1698388913" lon="13.0121861106">
		<tag k="name" v="Leirholmgrunna" />
		<tag k="natural" v="shoal" />
		<tag k="place" v="locality" />
		<tag k="ssr:stedsnr" v="318824" />
	</node>
	<node id="-147414" lat="66.2872999979" lon="12.77556389">
		<tag k="name" v="Småholman" />
		<tag k="place" v="islet" />
		<tag k="ssr:stedsnr" v="501529" />
	</node>
	<node id="-147411" lat="66.2623666686" lon="13.0408944534">
		<tag k="name" v="Handnesøya" />
		<tag k="place" v="island" />
		<tag k="ssr:stedsnr" v="500859" />
	</node>
	<node id="-147919" lat="66.2412722182" lon="12.7103972135">
		<tag k="fixme" v="consider seamark:type=rock or natural=shoal" />
		<tag k="name" v="Siktene" />
		<tag k="place" v="islet" />
		<tag k="ssr:stedsnr" v="318738" />
	</node>
	<node id="-147918" lat="66.2386611069" lon="12.7096055535">
		<tag k="name" v="Oterholman" />
		<tag k="place" v="islet" />
		<tag k="ssr:stedsnr" v="318736" />
	</node>
	<node id="-147404" lat="66.2369777746" lon="12.8685694488">
		<tag k="alt_name" v="Skjevstadøya" />
		<tag k="name" v="Skeivstadøya" />
		<tag k="place" v="islet" />
		<tag k="ssr:stedsnr" v="440802" />
	</node>
	<node id="-147914" lat="66.3124805551" lon="12.8644166612">
		<tag k="name" v="Litlskallen" />
		<tag k="natural" v="shoal" />
		<tag k="place" v="locality" />
		<tag k="ssr:stedsnr" v="198559" />
	</node>
	<node id="-147913" lat="66.3001583356" lon="12.8315111034">
		<tag k="alt_name" v="Svinøya" />
		<tag k="name" v="Svinøy" />
		<tag k="place" v="islet" />
		<tag k="ssr:stedsnr" v="198545" />
	</node>
	<node id="-147912" lat="66.2876722244" lon="12.780402777">
		<tag k="name" v="Dalholman" />
>>>>>>> e1d4bc35ff8a6074a6f2e91616a996b547c36f15
		<tag k="place" v="islet" />
		<tag k="ssr:stedsnr" v="198540" />
	</node>
<<<<<<< HEAD
	<node lat="66.24297222097684" lon="12.71744166748459" id="-9443">
		<tag k="name" v="Brattholmen" />
		<tag k="place" v="islet" />
		<tag k="ssr:stedsnr" v="258745" />
	</node>
	<node lat="66.17983888944516" lon="12.966808335954838" id="-9445">
		<tag k="name" v="Bryggeberget" />
		<tag k="natural" v="cape" />
		<tag k="ssr:stedsnr" v="258794" />
	</node>
	<node lat="66.24543055599545" lon="12.69576944900685" id="-9447">
		<tag k="alt_name" v="Skardberget" />
		<tag k="name" v="Skarvberget" />
		<tag k="place" v="islet" />
		<tag k="ssr:stedsnr" v="258751" />
	</node>
	<node lat="66.22304166791909" lon="12.759933339707779" id="-9449">
		<tag k="name" v="Neset" />
		<tag k="natural" v="cape" />
		<tag k="ssr:stedsnr" v="258839" />
	</node>
	<node lat="66.2209888932391" lon="12.759019440925105" id="-9451">
		<tag k="name" v="Langnesholmen" />
		<tag k="place" v="islet" />
		<tag k="ssr:stedsnr" v="258848" />
	</node>
	<node lat="66.24034721925959" lon="12.691116657248617" id="-9474">
		<tag k="name" v="Sørhamnholmen" />
		<tag k="place" v="islet" />
		<tag k="ssr:stedsnr" v="167220" />
	</node>
	<node lat="66.21941110799784" lon="13.07377500632169" id="-9477">
		<tag k="name" v="Handåbukta" />
		<tag k="natural" v="bay" />
		<tag k="ssr:stedsnr" v="167367" />
	</node>
	<node lat="66.31047222665262" lon="12.846741661888462" id="-9480">
		<tag k="fixme" v="consider seamark:type=rock or natural=shoal" />
		<tag k="name" v="Kjerringskjæret" />
		<tag k="place" v="islet" />
		<tag k="ssr:stedsnr" v="172107" />
	</node>
	<node lat="66.23587499647945" lon="12.678805553234245" id="-9482">
		<tag k="alt_name" v="Daudmannsholmen" />
		<tag k="name" v="Daumannsholmen" />
		<tag k="place" v="islet" />
		<tag k="ssr:stedsnr" v="197764" />
	</node>
	<node lat="66.2435777818528" lon="12.875391663267028" id="-9483">
		<tag k="name" v="Klubbodden" />
		<tag k="natural" v="cape" />
		<tag k="ssr:stedsnr" v="197823" />
	</node>
	<node lat="66.22804999931591" lon="12.931369434153131" id="-9484">
		<tag k="name" v="Labukta" />
		<tag k="natural" v="bay" />
		<tag k="ssr:stedsnr" v="197862" />
	</node>
	<node lat="66.3124805551248" lon="12.864416661249214" id="-9489">
		<tag k="name" v="Litlskallen" />
		<tag k="natural" v="shoal" />
		<tag k="place" v="locality" />
		<tag k="ssr:stedsnr" v="198559" />
	</node>
	<node lat="66.22516110851583" lon="12.726158329105537" id="-9493">
		<tag k="fixme" v="consider seamark:type=rock or natural=shoal" />
		<tag k="name" v="Bøtskjæret" />
		<tag k="place" v="islet" />
		<tag k="ssr:stedsnr" v="268759" />
	</node>
	<node lat="66.28274722133457" lon="12.883272230691892" id="-9503">
		<tag k="name" v="Grindbekknakken" />
		<tag k="natural" v="cape" />
		<tag k="ssr:stedsnr" v="227817" />
	</node>
	<node lat="66.28507222623426" lon="13.233333335779633" id="-9505">
		<tag k="fixme" v="consider seamark:type=rock or natural=shoal" />
		<tag k="name" v="Havfruskjeret" />
		<tag k="old_name" v="Havtruskjeret" />
		<tag k="place" v="islet" />
		<tag k="ssr:stedsnr" v="227996" />
	</node>
	<node lat="66.23300833441412" lon="12.692347213512123" id="-9516">
		<tag k="name" v="Silsandholmen" />
		<tag k="place" v="islet" />
		<tag k="ssr:stedsnr" v="450752" />
	</node>
	<node lat="66.27829444489622" lon="13.019563891763783" id="-9517">
		<tag k="name" v="Storvika" />
		<tag k="natural" v="bay" />
		<tag k="ssr:stedsnr" v="257661" />
	</node>
	<node lat="66.26815000267275" lon="12.726858331285236" id="-9518">
		<tag k="name" v="Stavikneset" />
		<tag k="natural" v="cape" />
		<tag k="ssr:stedsnr" v="257662" />
	</node>
	<node lat="66.21512777465132" lon="13.222566670330353" id="-9519">
		<tag k="name" v="Ytre Bogneset" />
		<tag k="natural" v="cape" />
		<tag k="ssr:stedsnr" v="258099" />
	</node>
	<node lat="66.31289444487372" lon="12.767905559693489" id="-9520">
		<tag k="name" v="Sledholmgrunnen" />
=======
	<node id="-147532" lat="66.2249083332" lon="12.7657250011">
		<tag k="name" v="Vikfjæra" />
		<tag k="natural" v="bay" />
		<tag k="ssr:stedsnr" v="652281" />
	</node>
	<node id="-147398" lat="66.1838527751" lon="13.0030749947">
		<tag k="name" v="Ormtunga" />
		<tag k="natural" v="shoal" />
		<tag k="place" v="locality" />
		<tag k="ssr:stedsnr" v="440756" />
	</node>
	<node id="-147702" lat="66.2354027786" lon="12.8558499891">
		<tag k="name" v="Jekthaugneset" />
		<tag k="natural" v="cape" />
		<tag k="ssr:stedsnr" v="15833" />
	</node>
	<node id="-147904" lat="66.2280499993" lon="12.9313694342">
		<tag k="name" v="Labukta" />
		<tag k="natural" v="bay" />
		<tag k="ssr:stedsnr" v="197862" />
	</node>
	<node id="-147389" lat="66.2118861105" lon="12.7837277691">
		<tag k="name" v="Trælnesholmen" />
		<tag k="place" v="islet" />
		<tag k="ssr:stedsnr" v="501827" />
	</node>
	<node id="-147388" lat="66.2191694468" lon="12.7753361137">
		<tag k="alt_name" v="Ablunvika" />
		<tag k="name" v="Abelunvika" />
		<tag k="natural" v="bay" />
		<tag k="ssr:stedsnr" v="501816" />
	</node>
	<node id="-147897" lat="66.3104722267" lon="12.8467416619">
		<tag k="fixme" v="consider seamark:type=rock or natural=shoal" />
		<tag k="name" v="Kjerringskjæret" />
		<tag k="place" v="islet" />
		<tag k="ssr:stedsnr" v="172107" />
	</node>
	<node id="-147384" lat="66.2551416645" lon="13.1243888858">
		<tag k="name" v="Skarvskjæret" />
		<tag k="place" v="islet" />
		<tag k="ssr:stedsnr" v="501614" />
	</node>
	<node id="-147894" lat="66.3086694428" lon="12.7946611104">
		<tag k="name" v="Lomøyvågen" />
		<tag k="natural" v="bay" />
		<tag k="ssr:stedsnr" v="167849" />
	</node>
	<node id="-147377" lat="66.2044750002" lon="13.1954833429">
		<tag k="name" v="Hovneset" />
		<tag k="natural" v="cape" />
		<tag k="ssr:stedsnr" v="501728" />
	</node>
	<node id="-147376" lat="66.1624611094" lon="12.8799111064">
		<tag k="name" v="Vete" />
		<tag k="natural" v="cape" />
		<tag k="ssr:stedsnr" v="501171" />
	</node>
	<node id="-147784" lat="66.2276861133" lon="12.8479666678">
		<tag k="name" v="Hestvika" />
		<tag k="natural" v="bay" />
		<tag k="ssr:stedsnr" v="76816" />
	</node>
	<node id="-147374" lat="66.1853027763" lon="12.8754138846">
		<tag k="name" v="Pålberget" />
		<tag k="natural" v="cape" />
		<tag k="ssr:stedsnr" v="500811" />
	</node>
	<node id="-147372" lat="66.2940777781" lon="12.8728194489">
		<tag k="name" v="Kyrhovudet" />
		<tag k="natural" v="cape" />
		<tag k="ssr:stedsnr" v="380713" />
	</node>
	<node id="-147698" lat="66.2511166687" lon="12.6960055502">
		<tag k="name" v="Lamholmen" />
		<tag k="place" v="islet" />
		<tag k="ssr:stedsnr" v="15764" />
	</node>
	<node id="-148391" lat="66.1896944406" lon="13.1203027666">
		<tag k="name" v="Rothellberget" />
		<tag k="natural" v="cape" />
		<tag k="ssr:stedsnr" v="957855" />
	</node>
	<node id="-147877" lat="66.2403472193" lon="12.6911166572">
		<tag k="name" v="Sørhamnholmen" />
		<tag k="place" v="islet" />
		<tag k="ssr:stedsnr" v="167220" />
	</node>
	<node id="-147875" lat="66.2547666624" lon="12.962000004">
		<tag k="name" v="Valen" />
		<tag k="place" v="locality" />
		<tag k="ssr:stedsnr" v="167081" />
	</node>
	<node id="-147873" lat="66.2589333347" lon="12.9651166665">
		<tag k="name" v="Tangen" />
		<tag k="natural" v="cape" />
		<tag k="ssr:stedsnr" v="167079" />
	</node>
	<node id="-147781" lat="66.1699944445" lon="12.9345555659">
		<tag k="fixme" v="multiple name tags, choose one and add the other to alt_name; consider seamark:type=rock or natural=shoal" />
		<tag k="name" v="Ytterhusskjæret;Hallandsskjæret" />
		<tag k="place" v="islet" />
		<tag k="ssr:stedsnr" v="76797" />
	</node>
	<node id="-147355" lat="66.3104333295" lon="12.8465222181">
		<tag k="fixme" v="consider seamark:type=rock or natural=shoal" />
		<tag k="name" v="Tanskjæret" />
		<tag k="place" v="islet" />
		<tag k="ssr:stedsnr" v="329735" />
	</node>
	<node id="-147695" lat="66.2301638846" lon="12.9848083304">
		<tag k="name" v="Kobbskjæret" />
		<tag k="natural" v="cape" />
		<tag k="ssr:stedsnr" v="926842" />
	</node>
	<node id="-148292" lat="66.2485055536" lon="12.687697221">
		<tag k="alt_name" v="Lya" />
		<tag k="name" v="Lyen" />
		<tag k="place" v="islet" />
		<tag k="ssr:stedsnr" v="804745" />
	</node>
	<node id="-147858" lat="66.2708916654" lon="12.7278055636">
		<tag k="fixme" v="consider seamark:type=rock or natural=shoal" />
		<tag k="name" v="Stavikskjæret" />
		<tag k="place" v="islet" />
		<tag k="ssr:stedsnr" v="146746" />
	</node>
	<node id="-147857" lat="66.2294583297" lon="12.6786805598">
		<tag k="name" v="Hjartøybåan" />
>>>>>>> e1d4bc35ff8a6074a6f2e91616a996b547c36f15
		<tag k="natural" v="shoal" />
		<tag k="place" v="locality" />
		<tag k="ssr:stedsnr" v="146343" />
	</node>
<<<<<<< HEAD
	<node lat="66.16523611090639" lon="12.953875002044162" id="-9522">
		<tag k="name" v="Ytterkalven" />
		<tag k="natural" v="cape" />
		<tag k="ssr:stedsnr" v="258804" />
	</node>
	<node lat="66.24656388890259" lon="13.132038883215754" id="-9523">
		<tag k="alt_name" v="Remmaholmen" />
		<tag k="name" v="Remmåholmen" />
		<tag k="place" v="islet" />
		<tag k="ssr:stedsnr" v="258813" />
	</node>
	<node lat="66.21147777989394" lon="12.811894442535337" id="-9527">
		<tag k="name" v="Valen" />
		<tag k="natural" v="cape" />
		<tag k="ssr:stedsnr" v="258860" />
	</node>
	<node lat="66.24001666558016" lon="12.724980545400214" id="-9534">
		<tag k="name" v="Kalvholmen" />
		<tag k="place" v="islet" />
		<tag k="ssr:stedsnr" v="258922" />
	</node>
	<node lat="66.24560277477879" lon="12.88911389152947" id="-9536">
		<tag k="name" v="Leiskjæret" />
		<tag k="natural" v="cape" />
		<tag k="ssr:stedsnr" v="258925" />
	</node>
	<node lat="66.26252499738081" lon="12.699236118352372" id="-9537">
		<tag k="name" v="Nordskallen" />
		<tag k="natural" v="shoal" />
		<tag k="place" v="locality" />
		<tag k="ssr:stedsnr" v="259238" />
	</node>
	<node lat="66.187352780608" lon="13.13613889861229" id="-9557">
		<tag k="name" v="Hammarøygrunna" />
		<tag k="natural" v="shoal" />
		<tag k="place" v="locality" />
		<tag k="ssr:stedsnr" v="318808" />
	</node>
	<node lat="66.23344999620794" lon="12.858750006497306" id="-9558">
		<tag k="name" v="Mjåsundneset" />
		<tag k="natural" v="cape" />
		<tag k="ssr:stedsnr" v="318850" />
	</node>
	<node lat="66.24127221818405" lon="12.710397213546388" id="-9559">
		<tag k="fixme" v="consider seamark:type=rock or natural=shoal" />
		<tag k="name" v="Siktene" />
		<tag k="place" v="islet" />
		<tag k="ssr:stedsnr" v="318738" />
	</node>
	<node lat="66.1838861073002" lon="12.964755543977086" id="-9562">
		<tag k="name" v="Ørskaftet" />
		<tag k="natural" v="cape" />
		<tag k="ssr:stedsnr" v="318795" />
	</node>
	<node lat="66.25909721997259" lon="12.703983340579066" id="-9565">
		<tag k="alt_name" v="Medholmen" />
		<tag k="name" v="Meholmen" />
		<tag k="place" v="islet" />
		<tag k="ssr:stedsnr" v="319244" />
	</node>
	<node lat="66.27690278035418" lon="12.892169444436405" id="-9568">
		<tag k="name" v="Lastarplassen" />
		<tag k="natural" v="cape" />
		<tag k="ssr:stedsnr" v="319692" />
	</node>
	<node lat="66.2214972188382" lon="12.832177775602089" id="-9569">
		<tag k="name" v="Skjåvika" />
		<tag k="natural" v="bay" />
		<tag k="ssr:stedsnr" v="319831" />
	</node>
	<node lat="66.26905277806634" lon="13.14037221384411" id="-9570">
		<tag k="name" v="Osgrunnen" />
		<tag k="natural" v="shoal" />
		<tag k="place" v="locality" />
		<tag k="ssr:stedsnr" v="320741" />
	</node>
	<node lat="66.24573055280953" lon="12.727252783006346" id="-9578">
		<tag k="name" v="Sauvika" />
		<tag k="natural" v="bay" />
		<tag k="ssr:stedsnr" v="470195" />
	</node>
	<node lat="66.22405833524337" lon="12.766583336452857" id="-9581">
		<tag k="name" v="Hambrusen" />
		<tag k="natural" v="cape" />
		<tag k="ssr:stedsnr" v="470294" />
	</node>
	<node lat="66.27394721879223" lon="12.988986111448538" id="-9584">
		<tag k="name" v="Skutvika" />
		<tag k="natural" v="bay" />
		<tag k="ssr:stedsnr" v="470758" />
	</node>
	<node lat="66.22757778160387" lon="12.946569447221172" id="-9608">
		<tag k="name" v="Nils-Myre-støa" />
		<tag k="natural" v="bay" />
		<tag k="ssr:stedsnr" v="349414" />
	</node>
	<node lat="66.22315000065346" lon="13.081774994804533" id="-9611">
		<tag k="name" v="Innerosen" />
		<tag k="natural" v="bay" />
		<tag k="ssr:stedsnr" v="349428" />
	</node>
	<node lat="66.31673055239139" lon="12.810930560492748" id="-9614">
		<tag k="name" v="Småholman" />
		<tag k="place" v="islet" />
		<tag k="ssr:stedsnr" v="379520" />
	</node>
	<node lat="66.26096944707957" lon="12.96465278534325" id="-9618">
		<tag k="fixme" v="consider seamark:type=rock or natural=shoal" />
		<tag k="name" v="Storsteinauken" />
		<tag k="place" v="islet" />
		<tag k="ssr:stedsnr" v="379719" />
	</node>
	<node lat="66.16500000383274" lon="12.84826945192471" id="-9619">
		<tag k="alt_name" v="Huglneset" />
		<tag k="name" v="Hugelneset" />
		<tag k="natural" v="cape" />
		<tag k="ssr:stedsnr" v="379765" />
	</node>
	<node lat="66.24065555154066" lon="12.729708337972932" id="-9621">
		<tag k="alt_name" v="Slattholmen" />
		<tag k="name" v="Slåttholmen" />
		<tag k="place" v="islet" />
		<tag k="ssr:stedsnr" v="379914" />
	</node>
	<node lat="66.25208055777966" lon="13.119872231523184" id="-9633">
		<tag k="name" v="Øybukta" />
		<tag k="natural" v="bay" />
		<tag k="ssr:stedsnr" v="409080" />
	</node>
	<node lat="66.27314999977646" lon="12.996208332121467" id="-9639">
		<tag k="name" v="Bryggeberget" />
		<tag k="natural" v="cape" />
		<tag k="ssr:stedsnr" v="409808" />
	</node>
	<node lat="66.18878055467344" lon="13.109166662986894" id="-9652">
		<tag k="name" v="Raunesodden" />
		<tag k="natural" v="cape" />
		<tag k="ssr:stedsnr" v="411842" />
	</node>
	<node lat="66.23697777462912" lon="12.868569448762154" id="-9655">
		<tag k="alt_name" v="Skjevstadøya" />
		<tag k="name" v="Skeivstadøya" />
		<tag k="place" v="islet" />
		<tag k="ssr:stedsnr" v="440802" />
	</node>
	<node lat="66.23358888479231" lon="12.694369451640945" id="-9658">
		<tag k="name" v="Langdraget" />
		<tag k="place" v="islet" />
		<tag k="ssr:stedsnr" v="440706" />
	</node>
	<node lat="66.20024166992552" lon="12.97168611746708" id="-9660">
		<tag k="fixme" v="consider seamark:type=rock or natural=shoal" />
		<tag k="name" v="Grytla" />
		<tag k="place" v="islet" />
		<tag k="ssr:stedsnr" v="440742" />
	</node>
	<node lat="66.18730555323623" lon="12.917674995768934" id="-9661">
		<tag k="name" v="Hugla" />
		<tag k="place" v="island" />
		<tag k="ssr:stedsnr" v="440745" />
	</node>
	<node lat="66.18385277510474" lon="13.003074994669065" id="-9662">
		<tag k="name" v="Ormtunga" />
		<tag k="natural" v="shoal" />
		<tag k="place" v="locality" />
		<tag k="ssr:stedsnr" v="440756" />
	</node>
	<node lat="66.21513332950954" lon="12.826261115165524" id="-9665">
		<tag k="name" v="Skjåholmen" />
		<tag k="natural" v="cape" />
		<tag k="ssr:stedsnr" v="440838" />
	</node>
	<node lat="66.28093610861495" lon="12.749499995897454" id="-9666">
		<tag k="alt_name" v="Børøyholmen" />
		<tag k="name" v="Børriholmen" />
		<tag k="place" v="islet" />
		<tag k="ssr:stedsnr" v="441704" />
	</node>
	<node lat="66.28469999925431" lon="13.152791673057893" id="-9667">
		<tag k="name" v="Djupvika" />
		<tag k="natural" v="bay" />
		<tag k="ssr:stedsnr" v="441711" />
	</node>
	<node lat="66.27471666613553" lon="13.182744450159278" id="-9671">
		<tag k="alt_name" v="Langsetvågen" />
		<tag k="name" v="Longsetvågen" />
		<tag k="natural" v="bay" />
		<tag k="ssr:stedsnr" v="441741" />
	</node>
	<node lat="66.18530277625283" lon="12.875413884634824" id="-9681">
		<tag k="name" v="Pålberget" />
		<tag k="natural" v="cape" />
		<tag k="ssr:stedsnr" v="500811" />
	</node>
	<node lat="66.2551416645232" lon="13.124388885753516" id="-9683">
		<tag k="name" v="Skarvskjæret" />
		<tag k="place" v="islet" />
		<tag k="ssr:stedsnr" v="501614" />
	</node>
	<node lat="66.28729999792405" lon="12.775563889961019" id="-9684">
		<tag k="name" v="Småholman" />
		<tag k="place" v="islet" />
		<tag k="ssr:stedsnr" v="501529" />
	</node>
	<node lat="66.20447500021933" lon="13.195483342886526" id="-9687">
		<tag k="name" v="Hovneset" />
		<tag k="natural" v="cape" />
		<tag k="ssr:stedsnr" v="501728" />
	</node>
	<node lat="66.21916944682064" lon="12.77533611373997" id="-9689">
		<tag k="alt_name" v="Ablunvika" />
		<tag k="name" v="Abelunvika" />
		<tag k="natural" v="bay" />
		<tag k="ssr:stedsnr" v="501816" />
	</node>
	<node lat="66.21188611047158" lon="12.783727769077247" id="-9690">
		<tag k="name" v="Trælnesholmen" />
		<tag k="place" v="islet" />
		<tag k="ssr:stedsnr" v="501827" />
	</node>
	<node lat="66.16656666393149" lon="12.847694452509282" id="-9694">
		<tag k="name" v="Klubben" />
		<tag k="natural" v="cape" />
		<tag k="ssr:stedsnr" v="682018" />
	</node>
	<node lat="66.24646111057207" lon="12.71571388498228" id="-9695">
		<tag k="name" v="Tomma" />
		<tag k="place" v="island" />
		<tag k="ssr:stedsnr" v="682777" />
	</node>
	<node lat="66.22676111268977" lon="12.701830546495726" id="-9696">
		<tag k="fixme" v="consider seamark:type=rock or natural=shoal" />
		<tag k="name" v="Hjartøyskjeran" />
		<tag k="place" v="islet" />
		<tag k="ssr:stedsnr" v="682781" />
	</node>
	<node lat="66.30128333558484" lon="12.833433336846332" id="-9699">
		<tag k="fixme" v="consider seamark:type=rock or natural=shoal" />
		<tag k="name" v="Juldagen" />
		<tag k="place" v="islet" />
		<tag k="ssr:stedsnr" v="683528" />
	</node>
	<node lat="66.31250555485295" lon="12.82699444316395" id="-9700">
		<tag k="name" v="Lyngøya" />
		<tag k="place" v="islet" />
		<tag k="ssr:stedsnr" v="683537" />
	</node>
	<node lat="66.28689166250093" lon="12.875130547502108" id="-9701">
		<tag k="name" v="Sandvika" />
		<tag k="natural" v="bay" />
		<tag k="ssr:stedsnr" v="683688" />
	</node>
	<node lat="66.21025555995767" lon="12.963236112261947" id="-9704">
		<tag k="name" v="Stiberget" />
		<tag k="natural" v="cape" />
		<tag k="ssr:stedsnr" v="683842" />
	</node>
	<node lat="66.2296555589006" lon="12.988127767546871" id="-9713">
		<tag k="name" v="Smiegrunnen" />
		<tag k="natural" v="shoal" />
		<tag k="place" v="locality" />
		<tag k="ssr:stedsnr" v="530227" />
	</node>
	<node lat="66.2445250011988" lon="12.71435554643505" id="-9719">
		<tag k="name" v="Store Buholmen" />
		<tag k="natural" v="cape" />
		<tag k="ssr:stedsnr" v="531210" />
	</node>
	<node lat="66.22353055333483" lon="12.766727779823382" id="-9721">
		<tag k="name" v="Skarafjæra" />
		<tag k="natural" v="bay" />
		<tag k="ssr:stedsnr" v="531338" />
	</node>
	<node lat="66.25004999889423" lon="13.11074443852638" id="-9727">
		<tag k="fixme" v="consider seamark:type=rock or natural=shoal" />
		<tag k="name" v="Øyskjæret" />
		<tag k="place" v="islet" />
		<tag k="ssr:stedsnr" v="688594" />
	</node>
	<node lat="66.19572222300727" lon="12.876952778265414" id="-9728">
		<tag k="name" v="Sjøgna" />
		<tag k="natural" v="cape" />
		<tag k="ssr:stedsnr" v="692734" />
	</node>
	<node lat="66.17272221899894" lon="12.960752787119201" id="-9729">
		<tag k="name" v="Gløtten" />
		<tag k="natural" v="shoal" />
		<tag k="place" v="locality" />
		<tag k="ssr:stedsnr" v="692737" />
	</node>
	<node lat="66.22182221990369" lon="12.768224990335108" id="-9734">
		<tag k="name" v="Naustholmen" />
		<tag k="place" v="islet" />
		<tag k="ssr:stedsnr" v="591307" />
	</node>
	<node lat="66.23842499714007" lon="12.703116671553893" id="-9744">
		<tag k="name" v="Øver Steinsholmen" />
		<tag k="place" v="islet" />
		<tag k="ssr:stedsnr" v="592219" />
	</node>
	<node lat="66.28376111529407" lon="13.248477784441762" id="-9752">
		<tag k="name" v="Fransvika" />
		<tag k="natural" v="bay" />
		<tag k="ssr:stedsnr" v="623826" />
	</node>
	<node lat="66.2527222255512" lon="12.95139167184005" id="-9753">
		<tag k="fixme" v="consider seamark:type=rock or natural=shoal" />
		<tag k="name" v="Vallaskjæran" />
		<tag k="place" v="islet" />
		<tag k="ssr:stedsnr" v="632725" />
	</node>
	<node lat="66.2491499967509" lon="12.676222216155109" id="-9754">
		<tag k="name" v="Sørskallen" />
		<tag k="natural" v="shoal" />
		<tag k="place" v="locality" />
		<tag k="ssr:stedsnr" v="632728" />
	</node>
	<node lat="66.21481111153183" lon="12.790827773185232" id="-9767">
		<tag k="name" v="Vikran" />
		<tag k="natural" v="bay" />
		<tag k="ssr:stedsnr" v="651345" />
	</node>
	<node lat="66.22911944704406" lon="12.968000007866259" id="-9771">
		<tag k="name" v="Hundberget" />
		<tag k="natural" v="cape" />
		<tag k="ssr:stedsnr" v="652107" />
	</node>
	<node lat="66.28191944372168" lon="13.042786117395755" id="-9777">
		<tag k="name" v="Sandvikgrunnen" />
		<tag k="natural" v="shoal" />
		<tag k="place" v="locality" />
		<tag k="ssr:stedsnr" v="652740" />
	</node>
	<node lat="66.3042583296598" lon="12.839338896245009" id="-9778">
		<tag k="name" v="Valen" />
		<tag k="natural" v="strait" />
		<tag k="ssr:stedsnr" v="652832" />
	</node>
	<node lat="66.29704444836457" lon="12.806333322901516" id="-9789">
		<tag k="alt_name" v="Røssneset" />
		<tag k="name" v="Røstneset" />
		<tag k="natural" v="cape" />
		<tag k="ssr:stedsnr" v="683675" />
	</node>
	<node lat="66.25898333747651" lon="13.123036118693914" id="-9790">
		<tag k="bay" v="fjord" />
		<tag k="name" v="Litlsjona" />
		<tag k="natural" v="bay" />
		<tag k="ssr:stedsnr" v="683734" />
	</node>
	<node lat="66.22481389250586" lon="12.743083341042233" id="-9793">
		<tag k="name" v="Osholman" />
		<tag k="place" v="islet" />
		<tag k="ssr:stedsnr" v="683810" />
	</node>
	<node lat="66.23323333411444" lon="12.725833325591099" id="-9795">
		<tag k="name" v="Litle Hjartøya" />
		<tag k="place" v="island" />
		<tag k="ssr:stedsnr" v="683802" />
	</node>
	<node lat="66.28477222172319" lon="13.252130544577696" id="-9798">
		<tag k="name" v="Fransvikholmen" />
		<tag k="place" v="islet" />
		<tag k="ssr:stedsnr" v="684816" />
	</node>
	<node lat="66.2415027812644" lon="12.754505547893928" id="-9803">
		<tag k="name" v="Bursvika" />
		<tag k="natural" v="bay" />
		<tag k="ssr:stedsnr" v="895186" />
	</node>
	<node lat="66.24493055255158" lon="12.72110832304376" id="-9804">
		<tag k="name" v="Litle Buholmen" />
=======
	<node id="-148368" lat="66.2741833342" lon="12.9903194368">
		<tag k="fixme" v="consider seamark:type=rock or natural=shoal" />
		<tag k="name" v="Lukkusskjæret" />
		<tag k="place" v="islet" />
		<tag k="ssr:stedsnr" v="955750" />
	</node>
	<node id="-148366" lat="66.2107388866" lon="12.9385361191">
		<tag k="name" v="Laberget" />
		<tag k="natural" v="cape" />
		<tag k="ssr:stedsnr" v="956395" />
	</node>
	<node id="-147341" lat="66.2739472188" lon="12.9889861114">
		<tag k="name" v="Skutvika" />
		<tag k="natural" v="bay" />
		<tag k="ssr:stedsnr" v="470758" />
	</node>
	<node id="-147851" lat="66.270091666" lon="13.1823999974">
		<tag k="name" v="Engentjønna" />
		<tag k="natural" v="bay" />
		<tag k="ssr:stedsnr" v="137702" />
	</node>
	<node id="-147338" lat="66.2240583352" lon="12.7665833365">
		<tag k="name" v="Hambrusen" />
		<tag k="natural" v="cape" />
		<tag k="ssr:stedsnr" v="470294" />
	</node>
	<node id="-147849" lat="66.2792250042" lon="13.0175527804">
		<tag k="name" v="Storvikneset" />
		<tag k="natural" v="cape" />
		<tag k="ssr:stedsnr" v="137667" />
	</node>
	<node id="-147848" lat="66.2936638913" lon="12.8110055657">
		<tag k="name" v="Finnvikvågen" />
		<tag k="natural" v="bay" />
		<tag k="ssr:stedsnr" v="137653" />
	</node>
	<node id="-147692" lat="66.1740805523" lon="12.9650138982">
		<tag k="fixme" v="consider seamark:type=rock or natural=shoal" />
		<tag k="name" v="Kalvskjæret" />
		<tag k="place" v="islet" />
		<tag k="ssr:stedsnr" v="926806" />
	</node>
	<node id="-147846" lat="66.2120666653" lon="13.0511305624">
		<tag k="name" v="Kvassneset" />
		<tag k="natural" v="cape" />
		<tag k="ssr:stedsnr" v="136873" />
	</node>
	<node id="-147333" lat="66.2457305528" lon="12.727252783">
		<tag k="name" v="Sauvika" />
		<tag k="natural" v="bay" />
		<tag k="ssr:stedsnr" v="470195" />
	</node>
	<node id="-147843" lat="66.2391638848" lon="12.7426999892">
		<tag k="name" v="Litle Bukkøya" />
		<tag k="place" v="islet" />
		<tag k="ssr:stedsnr" v="136928" />
	</node>
	<node id="-148354" lat="66.2837555559" lon="13.1758722228">
		<tag k="name" v="Vassvika" />
		<tag k="natural" v="bay" />
		<tag k="ssr:stedsnr" v="866696" />
	</node>
	<node id="-148353" lat="66.2734888926" lon="12.9958416699">
		<tag k="name" v="Handsteinvika" />
		<tag k="natural" v="bay" />
		<tag k="ssr:stedsnr" v="866687" />
	</node>
	<node id="-148352" lat="66.2845083303" lon="13.1682944455">
		<tag k="name" v="Størkevika" />
		<tag k="natural" v="bay" />
		<tag k="ssr:stedsnr" v="866678" />
	</node>
	<node id="-147676" lat="66.2237305522" lon="12.7432583438">
		<tag k="fixme" v="consider seamark:type=rock or natural=shoal" />
		<tag k="name" v="Bøtskjeret" />
		<tag k="place" v="islet" />
		<tag k="ssr:stedsnr" v="834323" />
	</node>
	<node id="-147836" lat="66.2405138909" lon="12.8771499954">
		<tag k="name" v="Øyskallen" />
		<tag k="natural" v="shoal" />
		<tag k="place" v="locality" />
		<tag k="ssr:stedsnr" v="136826" />
	</node>
	<node id="-147835" lat="66.1675638877" lon="12.8974416613">
		<tag k="name" v="Bjørnvika" />
		<tag k="natural" v="bay" />
		<tag k="ssr:stedsnr" v="136818" />
	</node>
	<node id="-147834" lat="66.2277111093" lon="12.9093861031">
		<tag k="name" v="Handnesholmen" />
		<tag k="place" v="islet" />
		<tag k="ssr:stedsnr" v="115993" />
	</node>
	<node id="-148345" lat="66.2285361118" lon="12.7292555563">
		<tag k="name" v="Børøyholmen" />
		<tag k="place" v="islet" />
		<tag k="ssr:stedsnr" v="865827" />
	</node>
	<node id="-148344" lat="66.1750777767" lon="12.9509777768">
		<tag k="name" v="Buneset" />
		<tag k="natural" v="cape" />
		<tag k="ssr:stedsnr" v="865807" />
	</node>
	<node id="-148343" lat="66.1689388869" lon="12.9796666593">
		<tag k="name" v="Innerkalven" />
		<tag k="place" v="islet" />
		<tag k="ssr:stedsnr" v="865805" />
	</node>
	<node id="-148342" lat="66.1797833311" lon="13.0197527808">
		<tag k="alt_name" v="Leirholmen" />
		<tag k="name" v="Leirholman" />
		<tag k="natural" v="cape" />
		<tag k="ssr:stedsnr" v="865792" />
	</node>
	<node id="-148341" lat="66.1743583367" lon="12.8615277739">
		<tag k="fixme" v="consider seamark:type=rock or natural=shoal" />
		<tag k="name" v="Purken" />
		<tag k="place" v="islet" />
		<tag k="ssr:stedsnr" v="865782" />
	</node>
	<node id="-148338" lat="66.2041305563" lon="12.9698472266">
		<tag k="name" v="Vikholmen" />
		<tag k="place" v="islet" />
		<tag k="ssr:stedsnr" v="865762" />
	</node>
	<node id="-148335" lat="66.2640111105" lon="13.1810916628">
		<tag k="name" v="Stranda" />
		<tag k="natural" v="beach" />
		<tag k="place" v="locality" />
		<tag k="ssr:stedsnr" v="865647" />
	</node>
	<node id="-147513" lat="66.2656333345" lon="12.9705472171">
		<tag k="name" v="Ytterhalsen" />
		<tag k="natural" v="bay" />
		<tag k="ssr:stedsnr" v="713904" />
	</node>
	<node id="-148333" lat="66.2133083307" lon="12.8052694498">
		<tag k="name" v="Neset" />
		<tag k="natural" v="cape" />
		<tag k="ssr:stedsnr" v="865065" />
	</node>
	<node id="-147308" lat="66.2402472254" lon="13.0353444435">
		<tag k="name" v="Nessabergan" />
		<tag k="natural" v="cape" />
		<tag k="ssr:stedsnr" v="288172" />
	</node>
	<node id="-147305" lat="66.2251611085" lon="12.7261583291">
		<tag k="fixme" v="consider seamark:type=rock or natural=shoal" />
		<tag k="name" v="Bøtskjæret" />
		<tag k="place" v="islet" />
		<tag k="ssr:stedsnr" v="268759" />
	</node>
	<node id="-148328" lat="66.3029333317" lon="12.822863882">
		<tag k="name" v="Lyngøya" />
		<tag k="natural" v="cape" />
		<tag k="ssr:stedsnr" v="835841" />
	</node>
	<node id="-147670" lat="66.2734250026" lon="13.1807861113">
		<tag k="name" v="Botnneset" />
		<tag k="natural" v="cape" />
		<tag k="ssr:stedsnr" v="927731" />
	</node>
	<node id="-147300" lat="66.2114777799" lon="12.8118944425">
		<tag k="name" v="Valen" />
		<tag k="natural" v="cape" />
		<tag k="ssr:stedsnr" v="258860" />
	</node>
	<node id="-147810" lat="66.2799222212" lon="13.2039583434">
		<tag k="name" v="Hølan" />
		<tag k="natural" v="bay" />
		<tag k="ssr:stedsnr" v="106796" />
	</node>
	<node id="-147771" lat="66.232633336" lon="12.7124500055">
		<tag k="name" v="Store Hjartøya" />
		<tag k="place" v="island" />
		<tag k="ssr:stedsnr" v="76726" />
	</node>
	<node id="-147296" lat="66.2465638889" lon="13.1320388832">
		<tag k="alt_name" v="Remmaholmen" />
		<tag k="name" v="Remmåholmen" />
		<tag k="place" v="islet" />
		<tag k="ssr:stedsnr" v="258813" />
	</node>
	<node id="-147295" lat="66.1652361109" lon="12.953875002">
		<tag k="name" v="Ytterkalven" />
		<tag k="natural" v="cape" />
		<tag k="ssr:stedsnr" v="258804" />
	</node>
	<node id="-147941" lat="66.1991249964" lon="12.9913861104">
		<tag k="alt_name" v="Rognan" />
		<tag k="fixme" v="consider seamark:type=rock or natural=shoal" />
		<tag k="name" v="Rognklubben" />
		<tag k="place" v="islet" />
		<tag k="ssr:stedsnr" v="319764" />
	</node>
	<node id="-147291" lat="66.2681500027" lon="12.7268583313">
		<tag k="name" v="Stavikneset" />
		<tag k="natural" v="cape" />
		<tag k="ssr:stedsnr" v="257662" />
	</node>
	<node id="-147290" lat="66.2782944449" lon="13.0195638918">
		<tag k="name" v="Storvika" />
		<tag k="natural" v="bay" />
		<tag k="ssr:stedsnr" v="257661" />
	</node>
	<node id="-147289" lat="66.2330083344" lon="12.6923472135">
		<tag k="name" v="Silsandholmen" />
		<tag k="place" v="islet" />
		<tag k="ssr:stedsnr" v="450752" />
	</node>
	<node id="-147287" lat="66.1912027818" lon="13.1625916748">
		<tag k="name" v="Ranen" />
		<tag k="natural" v="bay" />
		<tag k="ssr:stedsnr" v="229859" />
	</node>
	<node id="-147286" lat="66.2497222205" lon="12.8884083227">
		<tag k="name" v="Peilen" />
		<tag k="natural" v="cape" />
		<tag k="ssr:stedsnr" v="228918" />
	</node>
	<node id="-147797" lat="66.2709611156" lon="12.980944445">
		<tag k="name" v="Breivika" />
		<tag k="natural" v="bay" />
		<tag k="ssr:stedsnr" v="86779" />
	</node>
	<node id="-148305" lat="66.3118388916" lon="12.8469833279">
		<tag k="fixme" v="consider seamark:type=rock or natural=shoal" />
		<tag k="name" v="Lyngøyskjæret" />
		<tag k="place" v="islet" />
		<tag k="ssr:stedsnr" v="814774" />
	</node>
	<node id="-147279" lat="66.2611861145" lon="12.7222777678">
		<tag k="name" v="Stranda" />
		<tag k="natural" v="beach" />
		<tag k="place" v="locality" />
		<tag k="ssr:stedsnr" v="227957" />
	</node>
	<node id="-147278" lat="66.2827472213" lon="12.8832722307">
		<tag k="name" v="Grindbekknakken" />
		<tag k="natural" v="cape" />
		<tag k="ssr:stedsnr" v="227817" />
	</node>
	<node id="-147485" lat="66.2078472246" lon="12.8058250102">
		<tag k="name" v="Valaholmen" />
		<tag k="place" v="islet" />
		<tag k="ssr:stedsnr" v="591338" />
	</node>
	<node id="-148300" lat="66.2768000011" lon="12.7487083368">
		<tag k="name" v="Rørholmen" />
		<tag k="place" v="islet" />
		<tag k="ssr:stedsnr" v="805695" />
	</node>
	<node id="-147274" lat="66.286402775" lon="13.0755861111">
		<tag k="name" v="Laberget" />
		<tag k="natural" v="cape" />
		<tag k="ssr:stedsnr" v="227762" />
	</node>
	<node id="-147785" lat="66.2083833343" lon="12.9170694387">
		<tag k="fixme" v="multiple name tags, choose one and add the other to alt_name" />
		<tag k="name" v="Djupa;Engadjupet" />
		<tag k="natural" v="bay" />
		<tag k="ssr:stedsnr" v="76844" />
	</node>
	<node id="-147272" lat="66.2747166661" lon="13.1827444502">
		<tag k="alt_name" v="Langsetvågen" />
		<tag k="name" v="Longsetvågen" />
		<tag k="natural" v="bay" />
		<tag k="ssr:stedsnr" v="441741" />
	</node>
	<node id="-147791" lat="66.2794444482" lon="12.760083339">
		<tag k="name" v="Kvitnesan" />
		<tag k="natural" v="cape" />
		<tag k="ssr:stedsnr" v="77700" />
	</node>
	<node id="-148294" lat="66.2928944409" lon="12.8329944513">
		<tag k="name" v="Breivika" />
		<tag k="natural" v="bay" />
		<tag k="ssr:stedsnr" v="805678" />
	</node>
	<node id="-148293" lat="66.2924666656" lon="12.8641999946">
		<tag k="name" v="Kyrhovudbukta" />
		<tag k="natural" v="bay" />
		<tag k="ssr:stedsnr" v="805677" />
	</node>
	<node id="-147268" lat="66.2846999993" lon="13.1527916731">
		<tag k="name" v="Djupvika" />
		<tag k="natural" v="bay" />
		<tag k="ssr:stedsnr" v="441711" />
	</node>
	<node id="-147267" lat="66.2809361086" lon="12.7494999959">
		<tag k="alt_name" v="Børøyholmen" />
		<tag k="name" v="Børriholmen" />
		<tag k="place" v="islet" />
		<tag k="ssr:stedsnr" v="441704" />
	</node>
	<node id="-147266" lat="66.2519777821" lon="13.1254611077">
		<tag k="name" v="Skogsøya" />
		<tag k="place" v="island" />
		<tag k="ssr:stedsnr" v="441644" />
	</node>
	<node id="-148289" lat="66.2066111089" lon="12.8411111149">
		<tag k="name" v="Medfjordholman" />
>>>>>>> e1d4bc35ff8a6074a6f2e91616a996b547c36f15
		<tag k="place" v="islet" />
		<tag k="ssr:stedsnr" v="804864" />
	</node>
<<<<<<< HEAD
	<node lat="66.27276666747248" lon="12.99155834329179" id="-9810">
		<tag k="name" v="Larsvika" />
		<tag k="natural" v="bay" />
		<tag k="ssr:stedsnr" v="895741" />
	</node>
	<node lat="66.23750000179191" lon="12.929630558181158" id="-9815">
		<tag k="name" v="Martinberget" />
		<tag k="natural" v="cape" />
		<tag k="ssr:stedsnr" v="896140" />
	</node>
	<node lat="66.25817777744577" lon="13.171511116265822" id="-9822">
		<tag k="name" v="Oksvika" />
		<tag k="natural" v="bay" />
		<tag k="ssr:stedsnr" v="712075" />
	</node>
	<node lat="66.17647500221942" lon="13.058436108933686" id="-9832">
		<tag k="name" v="Bukta" />
		<tag k="natural" v="bay" />
		<tag k="ssr:stedsnr" v="713785" />
	</node>
	<node lat="66.26563333451443" lon="12.970547217133037" id="-9833">
		<tag k="name" v="Ytterhalsen" />
		<tag k="natural" v="bay" />
		<tag k="ssr:stedsnr" v="713904" />
	</node>
	<node lat="66.30984166961142" lon="12.860347223031065" id="-9841">
		<tag k="name" v="Lysbotnet" />
		<tag k="natural" v="shoal" />
		<tag k="place" v="locality" />
		<tag k="ssr:stedsnr" v="744522" />
	</node>
	<node lat="66.2743138882861" lon="12.98804721284771" id="-9843">
		<tag k="name" v="Halsodden" />
		<tag k="natural" v="cape" />
		<tag k="ssr:stedsnr" v="744684" />
	</node>
	<node lat="66.26613055539042" lon="12.720663883943667" id="-9844">
		<tag k="name" v="Bursneset" />
		<tag k="natural" v="cape" />
		<tag k="ssr:stedsnr" v="744697" />
	</node>
	<node lat="66.26172500158205" lon="12.8865805664948" id="-9852">
		<tag k="name" v="Stegan" />
		<tag k="natural" v="bay" />
		<tag k="ssr:stedsnr" v="773915" />
	</node>
	<node lat="66.25420555984037" lon="12.964630564788544" id="-9855">
		<tag k="name" v="Vallastranda" />
		<tag k="natural" v="beach" />
		<tag k="ssr:stedsnr" v="774060" />
	</node>
	<node lat="66.2409749970921" lon="12.745866655197286" id="-9856">
		<tag k="name" v="Lyrvær" />
		<tag k="place" v="islet" />
		<tag k="ssr:stedsnr" v="774209" />
	</node>
	<node lat="66.24165555965355" lon="12.94116945362343" id="-9863">
		<tag k="name" v="Røytskjeret" />
		<tag k="natural" v="cape" />
		<tag k="ssr:stedsnr" v="804817" />
	</node>
	<node lat="66.24020833533484" lon="13.032630546594778" id="-9865">
		<tag k="alt_name" v="Hinesbukta" />
		<tag k="name" v="Hinesbukt" />
		<tag k="natural" v="bay" />
		<tag k="ssr:stedsnr" v="804822" />
	</node>
	<node lat="66.22073333576239" lon="13.07812222467997" id="-9867">
		<tag k="name" v="Ytterosen" />
		<tag k="natural" v="bay" />
		<tag k="ssr:stedsnr" v="804852" />
	</node>
	<node lat="66.20661110893063" lon="12.841111114936693" id="-9868">
		<tag k="name" v="Medfjordholman" />
		<tag k="place" v="islet" />
		<tag k="ssr:stedsnr" v="804864" />
	</node>
	<node lat="66.21016944071428" lon="13.03472777015667" id="-9869">
		<tag k="name" v="Tungegrunna" />
		<tag k="natural" v="shoal" />
		<tag k="place" v="locality" />
		<tag k="ssr:stedsnr" v="804761" />
	</node>
	<node lat="66.19598055920301" lon="12.98759723268879" id="-9870">
		<tag k="alt_name" v="Rognsanden" />
		<tag k="fixme" v="consider seamark:type=rock or natural=shoal" />
		<tag k="name" v="Rognsand" />
		<tag k="place" v="islet" />
		<tag k="ssr:stedsnr" v="804767" />
	</node>
	<node lat="66.17979166311494" lon="12.863861108662519" id="-9872">
		<tag k="name" v="Ytterskjærodden" />
		<tag k="natural" v="cape" />
		<tag k="ssr:stedsnr" v="804787" />
	</node>
	<node lat="66.25251389208654" lon="12.680049994817153" id="-9873">
		<tag k="name" v="Lybåen" />
		<tag k="natural" v="shoal" />
		<tag k="place" v="locality" />
		<tag k="ssr:stedsnr" v="805210" />
	</node>
	<node lat="66.26163055969222" lon="12.71330000657609" id="-9874">
		<tag k="name" v="Likholmen" />
		<tag k="place" v="islet" />
		<tag k="ssr:stedsnr" v="805225" />
	</node>
	<node lat="66.25965277772659" lon="13.136752776664167" id="-9876">
		<tag k="name" v="Oterstineset" />
		<tag k="natural" v="cape" />
		<tag k="ssr:stedsnr" v="836010" />
	</node>
	<node lat="66.31735833613205" lon="12.892563893018183" id="-9881">
		<tag k="name" v="Storskallen" />
		<tag k="natural" v="shoal" />
		<tag k="place" v="locality" />
		<tag k="ssr:stedsnr" v="925645" />
	</node>
	<node lat="66.28130555160651" lon="13.0461749888785" id="-9882">
		<tag k="name" v="Sandvika" />
		<tag k="natural" v="bay" />
		<tag k="ssr:stedsnr" v="925649" />
	</node>
	<node lat="66.17738055708837" lon="12.963711112170367" id="-9883">
		<tag k="name" v="Steinholmen" />
		<tag k="natural" v="cape" />
		<tag k="ssr:stedsnr" v="925842" />
	</node>
	<node lat="66.23995278025617" lon="12.936049991495096" id="-9885">
		<tag k="alt_name" v="Nordsjøen" />
		<tag k="name" v="Nordsjyen" />
		<tag k="natural" v="bay" />
		<tag k="ssr:stedsnr" v="925859" />
	</node>
	<node lat="66.21800555737585" lon="13.238344453632656" id="-9887">
		<tag k="name" v="Indre Bogneset" />
		<tag k="natural" v="cape" />
		<tag k="ssr:stedsnr" v="926093" />
	</node>
	<node lat="66.29634722151468" lon="12.797766660063784" id="-9888">
		<tag k="name" v="Kiløysundet" />
		<tag k="natural" v="strait" />
		<tag k="ssr:stedsnr" v="926533" />
	</node>
	<node lat="66.30888055259776" lon="12.818808337505368" id="-9889">
		<tag k="alt_name" v="Ternskjeret;Ternskjæret" />
		<tag k="fixme" v="consider seamark:type=rock or natural=shoal" />
		<tag k="name" v="Tennskjeret" />
		<tag k="place" v="islet" />
		<tag k="ssr:stedsnr" v="926548" />
	</node>
	<node lat="66.28042500135228" lon="12.887602774240092" id="-9894">
		<tag k="name" v="Nakken" />
		<tag k="natural" v="cape" />
		<tag k="ssr:stedsnr" v="926689" />
	</node>
	<node lat="66.23016388459767" lon="12.984808330446242" id="-9898">
		<tag k="name" v="Kobbskjæret" />
		<tag k="natural" v="cape" />
		<tag k="ssr:stedsnr" v="926842" />
	</node>
	<node lat="66.2734250025513" lon="13.18078611133769" id="-9902">
		<tag k="name" v="Botnneset" />
		<tag k="natural" v="cape" />
		<tag k="ssr:stedsnr" v="927731" />
	</node>
	<node lat="66.2193527788383" lon="12.743363891702154" id="-9905">
		<tag k="bay" v="fjord" />
		<tag k="name" v="Stifjorden" />
		<tag k="natural" v="bay" />
		<tag k="ssr:stedsnr" v="895304" />
	</node>
	<node lat="66.19758333152181" lon="13.169744439880263" id="-9908">
		<tag k="name" v="Storhøla" />
		<tag k="natural" v="bay" />
		<tag k="ssr:stedsnr" v="895760" />
	</node>
	<node lat="66.28231666284819" lon="12.88655278107925" id="-9909">
		<tag k="name" v="Litlnakken" />
		<tag k="natural" v="cape" />
		<tag k="ssr:stedsnr" v="895796" />
	</node>
	<node lat="66.24675000409935" lon="12.7015444491362" id="-9919">
		<tag k="alt_name" v="Skipneset" />
		<tag k="name" v="Skipsneset" />
		<tag k="natural" v="cape" />
		<tag k="ssr:stedsnr" v="925768" />
	</node>
	<node lat="66.22827777907267" lon="12.918466677014852" id="-9921">
		<tag k="name" v="Handnessundet" />
		<tag k="natural" v="strait" />
		<tag k="ssr:stedsnr" v="925869" />
	</node>
	<node lat="66.1355972232911" lon="12.842216661912873" id="-9925">
		<tag k="bay" v="fjord" />
		<tag k="name" v="Ranfjorden" />
		<tag k="natural" v="bay" />
		<tag k="ssr:stedsnr" v="926804" />
	</node>
	<node lat="66.1658972183373" lon="12.965850009443294" id="-9926">
		<tag k="name" v="Feøya" />
		<tag k="place" v="island" />
		<tag k="ssr:stedsnr" v="926805" />
	</node>
	<node lat="66.17408055232002" lon="12.965013898217922" id="-9927">
		<tag k="fixme" v="consider seamark:type=rock or natural=shoal" />
		<tag k="name" v="Kalvskjæret" />
		<tag k="place" v="islet" />
		<tag k="ssr:stedsnr" v="926806" />
	</node>
	<node lat="66.20956389005089" lon="12.829588883081582" id="-9928">
		<tag k="name" v="Skjågrunna" />
		<tag k="natural" v="shoal" />
		<tag k="place" v="locality" />
		<tag k="ssr:stedsnr" v="926856" />
	</node>
	<node lat="66.30664721999801" lon="12.846691670652218" id="-9931">
		<tag k="name" v="Sellåtøyan" />
		<tag k="place" v="island" />
		<tag k="ssr:stedsnr" v="931558" />
	</node>
	<node lat="66.24972222053026" lon="12.888408322693357" id="-9949">
		<tag k="name" v="Peilen" />
		<tag k="natural" v="cape" />
		<tag k="ssr:stedsnr" v="228918" />
	</node>
	<node lat="66.23540277855808" lon="12.855849989147217" id="-9951">
		<tag k="name" v="Jekthaugneset" />
		<tag k="natural" v="cape" />
		<tag k="ssr:stedsnr" v="15833" />
	</node>
	<node lat="66.23707777614304" lon="12.856630553999338" id="-9953">
		<tag k="name" v="Kvannvikstranda" />
		<tag k="natural" v="beach" />
		<tag k="ssr:stedsnr" v="15838" />
	</node>
	<node lat="66.23794444057505" lon="12.6939666600901" id="-9954">
		<tag k="alt_name" v="Steinsholman" />
		<tag k="name" v="Nedre Steinsholmen" />
		<tag k="place" v="islet" />
		<tag k="ssr:stedsnr" v="15752" />
	</node>
	<node lat="66.22486776432164" lon="12.8322289841023" id="-9957">
		<tag k="alt_name" v="Alsøy" />
		<tag k="name" v="Alsøya" />
		<tag k="place" v="island" />
		<tag k="ssr:stedsnr" v="15865" />
	</node>
	<node lat="66.28757221960055" lon="13.085080543990207" id="-9960">
		<tag k="alt_name" v="Indreskjeret" />
		<tag k="fixme" v="consider seamark:type=rock or natural=shoal" />
		<tag k="name" v="Innerskjeret" />
		<tag k="place" v="islet" />
		<tag k="ssr:stedsnr" v="16666" />
	</node>
	<node lat="66.28677777890611" lon="13.126791657440464" id="-9962">
		<tag k="alt_name" v="Innebrøkt" />
		<tag k="fixme" v="consider seamark:type=rock or natural=shoal" />
		<tag k="name" v="Ingebrekt" />
		<tag k="place" v="islet" />
		<tag k="ssr:stedsnr" v="16675" />
	</node>
	<node lat="66.1950472184531" lon="12.966033332727395" id="-9973">
		<tag k="name" v="Finnvika" />
		<tag k="natural" v="bay" />
		<tag k="ssr:stedsnr" v="16745" />
	</node>
	<node lat="66.28043888608812" lon="13.032761121638904" id="-9975">
		<tag k="name" v="Fagerlibukta" />
		<tag k="natural" v="bay" />
		<tag k="ssr:stedsnr" v="25790" />
	</node>
	<node lat="66.29526944779386" lon="12.870411104733234" id="-9976">
		<tag k="name" v="Kyrhovudodden" />
		<tag k="natural" v="cape" />
		<tag k="ssr:stedsnr" v="25770" />
	</node>
	<node lat="66.21603611042553" lon="12.79580554570806" id="-9982">
		<tag k="name" v="Offersøyvalen" />
		<tag k="place" v="locality" />
		<tag k="ssr:stedsnr" v="45359" />
	</node>
	<node lat="66.27761944604772" lon="12.759047229898" id="-9992">
		<tag k="name" v="Kvitnesfjæra" />
		<tag k="natural" v="beach" />
		<tag k="ssr:stedsnr" v="45785" />
	</node>
	<node lat="66.23018333405538" lon="12.824991675409326" id="-10002">
		<tag k="name" v="Porsneset" />
		<tag k="natural" v="cape" />
		<tag k="ssr:stedsnr" v="46243" />
	</node>
	<node lat="66.22768611325485" lon="12.84796666776313" id="-10011">
		<tag k="name" v="Hestvika" />
		<tag k="natural" v="bay" />
		<tag k="ssr:stedsnr" v="76816" />
	</node>
	<node lat="66.31458333477906" lon="12.865544441276104" id="-10012">
		<tag k="name" v="Risen" />
		<tag k="natural" v="shoal" />
		<tag k="place" v="locality" />
		<tag k="ssr:stedsnr" v="76578" />
	</node>
	<node lat="66.23263333597139" lon="12.712450005525826" id="-10013">
		<tag k="name" v="Store Hjartøya" />
		<tag k="place" v="island" />
		<tag k="ssr:stedsnr" v="76726" />
	</node>
	<node lat="66.18815555147634" lon="13.10353332741873" id="-10016">
		<tag k="name" v="Mehusbukta" />
		<tag k="natural" v="bay" />
		<tag k="ssr:stedsnr" v="76777" />
	</node>
	<node lat="66.20838333427004" lon="12.917069438737206" id="-10018">
		<tag k="fixme" v="multiple name tags, choose one and add the other to alt_name" />
		<tag k="name" v="Engadjupet;Djupa" />
		<tag k="natural" v="bay" />
		<tag k="ssr:stedsnr" v="76844" />
	</node>
	<node lat="66.27096111558654" lon="12.98094444495651" id="-10024">
		<tag k="name" v="Breivika" />
		<tag k="natural" v="bay" />
		<tag k="ssr:stedsnr" v="86779" />
	</node>
	<node lat="66.22107777872819" lon="13.013058334216353" id="-10025">
		<tag k="name" v="Sauragrunna" />
		<tag k="natural" v="shoal" />
		<tag k="place" v="locality" />
		<tag k="ssr:stedsnr" v="86787" />
	</node>
	<node lat="66.27125277449758" lon="13.169258336446463" id="-10030">
		<tag k="name" v="Botnvika" />
		<tag k="natural" v="bay" />
		<tag k="ssr:stedsnr" v="106983" />
	</node>
	<node lat="66.22771110927981" lon="12.90938610307125" id="-10043">
		<tag k="name" v="Handnesholmen" />
		<tag k="place" v="islet" />
		<tag k="ssr:stedsnr" v="115993" />
	</node>
	<node lat="66.18471666876798" lon="12.989069455180124" id="-10044">
		<tag k="name" v="Nesnakroken" />
		<tag k="natural" v="strait" />
		<tag k="ssr:stedsnr" v="136793" />
	</node>
	<node lat="66.22048611570749" lon="12.771002770097084" id="-10046">
		<tag k="name" v="Gåsvika" />
		<tag k="natural" v="bay" />
		<tag k="ssr:stedsnr" v="136855" />
	</node>
	<node lat="66.21206666528528" lon="13.051130562432093" id="-10049">
		<tag k="name" v="Kvassneset" />
		<tag k="natural" v="cape" />
		<tag k="ssr:stedsnr" v="136873" />
	</node>
	<node lat="66.24051389085201" lon="12.877149995426997" id="-10050">
		<tag k="name" v="Øyskallen" />
		<tag k="natural" v="shoal" />
		<tag k="place" v="locality" />
		<tag k="ssr:stedsnr" v="136826" />
	</node>
	<node lat="66.23916388484419" lon="12.742699989158266" id="-10053">
		<tag k="name" v="Litle Bukkøya" />
		<tag k="place" v="islet" />
		<tag k="ssr:stedsnr" v="136928" />
	</node>
	<node lat="66.27922500416113" lon="13.017552780440965" id="-10055">
		<tag k="name" v="Storvikneset" />
		<tag k="natural" v="cape" />
		<tag k="ssr:stedsnr" v="137667" />
	</node>
	<node lat="66.27009166597973" lon="13.182399997418784" id="-10057">
		<tag k="name" v="Engentjønna" />
		<tag k="natural" v="bay" />
		<tag k="ssr:stedsnr" v="137702" />
	</node>
	<node lat="66.22945832974335" lon="12.678680559760453" id="-10062">
		<tag k="name" v="Hjartøybåan" />
		<tag k="natural" v="shoal" />
		<tag k="place" v="locality" />
		<tag k="ssr:stedsnr" v="146343" />
	</node>
	<node lat="66.27089166537101" lon="12.727805563627609" id="-10063">
		<tag k="fixme" v="consider seamark:type=rock or natural=shoal" />
		<tag k="name" v="Stavikskjæret" />
		<tag k="place" v="islet" />
		<tag k="ssr:stedsnr" v="146746" />
	</node>
	<node lat="66.25893333469382" lon="12.965116666472008" id="-10072">
		<tag k="name" v="Tangen" />
		<tag k="natural" v="cape" />
		<tag k="ssr:stedsnr" v="167079" />
	</node>
	<node lat="66.28515555101296" lon="13.151277783067531" id="-10081">
		<tag k="fixme" v="consider seamark:type=rock or natural=shoal" />
		<tag k="name" v="Remskjæret" />
		<tag k="place" v="islet" />
		<tag k="ssr:stedsnr" v="166777" />
	</node>
	<node lat="66.28309166284062" lon="12.768480551540343" id="-10083">
		<tag k="fixme" v="consider seamark:type=rock or natural=shoal" />
		<tag k="name" v="Dalskjæran" />
		<tag k="place" v="islet" />
		<tag k="ssr:stedsnr" v="166792" />
	</node>
	<node lat="66.23209166930825" lon="12.838875010627705" id="-10093">
		<tag k="name" v="Kleivneset" />
		<tag k="natural" v="cape" />
		<tag k="ssr:stedsnr" v="167228" />
	</node>
	<node lat="66.2335277747092" lon="12.83507498974748" id="-10098">
		<tag k="name" v="Storeinneset" />
		<tag k="natural" v="cape" />
		<tag k="ssr:stedsnr" v="167240" />
	</node>
	<node lat="66.30866944283112" lon="12.794661110421687" id="-10103">
		<tag k="name" v="Lomøyvågen" />
		<tag k="natural" v="bay" />
		<tag k="ssr:stedsnr" v="167849" />
	</node>
	<node lat="66.267563893255" lon="13.158605556056125" id="-10114">
		<tag k="name" v="Meklevika" />
		<tag k="natural" v="bay" />
		<tag k="ssr:stedsnr" v="198725" />
	</node>
	<node lat="66.28767222435378" lon="12.780402776950856" id="-10118">
		<tag k="name" v="Dalholman" />
		<tag k="place" v="islet" />
		<tag k="ssr:stedsnr" v="198540" />
	</node>
	<node lat="66.30015833563456" lon="12.83151110340215" id="-10119">
		<tag k="alt_name" v="Svinøya" />
		<tag k="name" v="Svinøy" />
		<tag k="place" v="islet" />
		<tag k="ssr:stedsnr" v="198545" />
	</node>
	<node lat="66.2611861144797" lon="12.722277767821184" id="-10132">
		<tag k="name" v="Stranda" />
		<tag k="natural" v="beach" />
		<tag k="ssr:stedsnr" v="227957" />
	</node>
	<node lat="66.2864027750076" lon="13.075586111061021" id="-10133">
		<tag k="name" v="Laberget" />
		<tag k="natural" v="cape" />
		<tag k="ssr:stedsnr" v="227762" />
	</node>
	<node lat="66.24024722540119" lon="13.035344443528464" id="-10140">
		<tag k="name" v="Nessabergan" />
		<tag k="natural" v="cape" />
		<tag k="ssr:stedsnr" v="288172" />
	</node>
	<node lat="66.23866110692728" lon="12.709605553475047" id="-10156">
		<tag k="name" v="Oterholman" />
		<tag k="place" v="islet" />
		<tag k="ssr:stedsnr" v="318736" />
	</node>
	<node lat="66.16983889134116" lon="13.012186110573287" id="-10160">
		<tag k="name" v="Leirholmgrunna" />
		<tag k="natural" v="shoal" />
		<tag k="place" v="locality" />
		<tag k="ssr:stedsnr" v="318824" />
	</node>
	<node lat="66.23848610861617" lon="12.73561944601695" id="-10161">
		<tag k="name" v="Hysholmen" />
		<tag k="place" v="islet" />
		<tag k="ssr:stedsnr" v="318929" />
	</node>
	<node lat="66.26531944565329" lon="13.152669443961152" id="-10165">
		<tag k="name" v="Setningsvika" />
		<tag k="natural" v="bay" />
		<tag k="ssr:stedsnr" v="319623" />
	</node>
	<node lat="66.20316666265559" lon="12.81222500181466" id="-10169">
		<tag k="name" v="Lamholman" />
		<tag k="place" v="islet" />
		<tag k="ssr:stedsnr" v="319860" />
	</node>
	<node lat="66.19928332965274" lon="12.96718888542224" id="-10171">
		<tag k="name" v="Vikaneset" />
		<tag k="natural" v="cape" />
		<tag k="ssr:stedsnr" v="319758" />
	</node>
	<node lat="66.19912499637836" lon="12.991386110355048" id="-10172">
		<tag k="alt_name" v="Rognan" />
		<tag k="fixme" v="consider seamark:type=rock or natural=shoal" />
		<tag k="name" v="Rognklubben" />
		<tag k="place" v="islet" />
		<tag k="ssr:stedsnr" v="319764" />
	</node>
	<node lat="66.2729722249992" lon="12.964916664002226" id="-10179">
		<tag k="name" v="Storgrunnen" />
		<tag k="natural" v="shoal" />
		<tag k="place" v="locality" />
		<tag k="ssr:stedsnr" v="320727" />
	</node>
	<node lat="66.27427777879258" lon="12.972186110459315" id="-10180">
		<tag k="name" v="Litlgrunnen" />
		<tag k="natural" v="shoal" />
		<tag k="place" v="locality" />
		<tag k="ssr:stedsnr" v="320729" />
	</node>
	<node lat="66.2178694438401" lon="12.832472216250395" id="-10181">
		<tag k="name" v="Sørklauvodden" />
		<tag k="natural" v="cape" />
		<tag k="ssr:stedsnr" v="328740" />
	</node>
	<node lat="66.31043332945882" lon="12.846522218099036" id="-10182">
		<tag k="fixme" v="consider seamark:type=rock or natural=shoal" />
		<tag k="name" v="Tanskjæret" />
		<tag k="place" v="islet" />
		<tag k="ssr:stedsnr" v="329735" />
	</node>
	<node lat="66.25254999627143" lon="13.15666387960199" id="-10183">
		<tag k="name" v="Skjåberget" />
		<tag k="natural" v="cape" />
		<tag k="ssr:stedsnr" v="348035" />
	</node>
	<node lat="66.2719305525124" lon="12.983216663898544" id="-10190">
		<tag k="name" v="Oterhella" />
		<tag k="natural" v="beach" />
		<tag k="ssr:stedsnr" v="348742" />
	</node>
	<node lat="66.29343611097813" lon="12.85182500240531" id="-10199">
		<tag k="name" v="Vika" />
		<tag k="natural" v="bay" />
		<tag k="ssr:stedsnr" v="348789" />
	</node>
	<node lat="66.24191944435908" lon="12.694419434458268" id="-10203">
		<tag k="fixme" v="consider seamark:type=rock or natural=shoal" />
		<tag k="name" v="Hamnholmskjeret" />
		<tag k="place" v="islet" />
		<tag k="ssr:stedsnr" v="349048" />
	</node>
	<node lat="66.24281944425961" lon="12.733758339342252" id="-10211">
		<tag k="fixme" v="consider seamark:type=rock or natural=shoal" />
		<tag k="name" v="Kobbskjæret" />
		<tag k="place" v="islet" />
		<tag k="ssr:stedsnr" v="349232" />
	</node>
	<node lat="66.24517221918627" lon="12.738027767211289" id="-10212">
		<tag k="name" v="Klubbahaugen" />
		<tag k="natural" v="cape" />
		<tag k="ssr:stedsnr" v="349234" />
	</node>
	<node lat="66.24427777414924" lon="12.879497216201253" id="-10214">
		<tag k="name" v="Hysterbiten" />
		<tag k="natural" v="cape" />
		<tag k="ssr:stedsnr" v="349237" />
	</node>
	<node lat="66.18566388847528" lon="12.962866670563704" id="-10222">
		<tag k="name" v="Strandbukta" />
		<tag k="natural" v="bay" />
		<tag k="ssr:stedsnr" v="379751" />
	</node>
	<node lat="66.22114721886747" lon="13.07831945489252" id="-10226">
		<tag k="alt_name" v="Handbergan" />
		<tag k="name" v="Handåbergan" />
		<tag k="natural" v="cape" />
		<tag k="ssr:stedsnr" v="379837" />
	</node>
	<node lat="66.2142416685283" lon="12.795391661871435" id="-10227">
		<tag k="alt_name" v="Offersøya" />
		<tag k="name" v="Offersøy" />
		<tag k="natural" v="cape" />
		<tag k="ssr:stedsnr" v="379840" />
	</node>
	<node lat="66.3018972235054" lon="12.84772223128654" id="-10228">
		<tag k="alt_name" v="Øyskjeret" />
		<tag k="fixme" v="consider seamark:type=rock or natural=shoal" />
		<tag k="name" v="Øyskjeran" />
		<tag k="place" v="islet" />
		<tag k="ssr:stedsnr" v="379544" />
	</node>
	<node lat="66.29407777812014" lon="12.87281944887577" id="-10230">
		<tag k="name" v="Kyrhovudet" />
		<tag k="natural" v="cape" />
		<tag k="ssr:stedsnr" v="380713" />
	</node>
	<node lat="66.3052722245025" lon="12.837527771523366" id="-10256">
		<tag k="fixme" v="consider seamark:type=rock or natural=shoal" />
		<tag k="name" v="Tennskjeret" />
		<tag k="place" v="islet" />
		<tag k="ssr:stedsnr" v="410832" />
	</node>
	<node lat="66.21208889251253" lon="12.961508330934453" id="-10257">
		<tag k="name" v="Svalengbukta" />
		<tag k="natural" v="bay" />
		<tag k="ssr:stedsnr" v="410368" />
	</node>
	<node lat="66.30751666440099" lon="12.798938878013008" id="-10262">
		<tag k="name" v="Lomøya" />
		<tag k="place" v="island" />
		<tag k="ssr:stedsnr" v="440559" />
	</node>
	<node lat="66.21410000288472" lon="12.776713889746839" id="-10268">
		<tag k="name" v="Trælneset" />
		<tag k="natural" v="cape" />
		<tag k="ssr:stedsnr" v="440847" />
	</node>
	<node lat="66.21120000047294" lon="12.8212499901537" id="-10269">
		<tag k="name" v="Storvollflua" />
		<tag k="natural" v="shoal" />
		<tag k="place" v="locality" />
		<tag k="ssr:stedsnr" v="440852" />
	</node>
	<node lat="66.21686666753803" lon="12.987958326141193" id="-10270">
		<tag k="name" v="Sauraholmen" />
		<tag k="place" v="islet" />
		<tag k="ssr:stedsnr" v="440857" />
	</node>
	<node lat="66.20739166798975" lon="12.90859721622" id="-10271">
		<tag k="name" v="Ørnneset" />
		<tag k="natural" v="cape" />
		<tag k="ssr:stedsnr" v="440865" />
	</node>
	<node lat="66.23771944584327" lon="12.744744438362263" id="-10273">
		<tag k="name" v="Store Bukkøya" />
		<tag k="place" v="islet" />
		<tag k="ssr:stedsnr" v="440925" />
	</node>
	<node lat="66.24122777821349" lon="12.734102788684917" id="-10274">
		<tag k="name" v="Skogholmen" />
		<tag k="place" v="islet" />
		<tag k="ssr:stedsnr" v="440929" />
	</node>
	<node lat="66.25832500181272" lon="12.690069448221708" id="-10276">
		<tag k="alt_name" v="Vardholmen" />
		<tag k="name" v="Valholmen" />
		<tag k="place" v="islet" />
		<tag k="ssr:stedsnr" v="441234" />
	</node>
	<node lat="66.32499166541776" lon="12.873630560736364" id="-10277">
		<tag k="name" v="Litlkjerringa" />
		<tag k="natural" v="shoal" />
		<tag k="place" v="locality" />
		<tag k="ssr:stedsnr" v="441546" />
	</node>
	<node lat="66.25197778211403" lon="13.12546110770555" id="-10279">
		<tag k="name" v="Skogsøya" />
		<tag k="place" v="island" />
		<tag k="ssr:stedsnr" v="441644" />
	</node>
	<node lat="66.26236666862778" lon="13.040894453366121" id="-10280">
		<tag k="name" v="Handnesøya" />
		<tag k="place" v="island" />
		<tag k="ssr:stedsnr" v="500859" />
	</node>
	<node lat="66.16246110940479" lon="12.879911106379277" id="-10283">
		<tag k="name" v="Vete" />
		<tag k="natural" v="cape" />
		<tag k="ssr:stedsnr" v="501171" />
	</node>
	<node lat="66.26392222381499" lon="12.967097217609027" id="-10291">
		<tag k="alt_name" v="Bjørndalsskjeret;Bjørndalsskjæret" />
		<tag k="name" v="Bjønndalsskjeret" />
		<tag k="natural" v="cape" />
		<tag k="ssr:stedsnr" v="502742" />
	</node>
	<node lat="66.27618889307699" lon="13.0069555620702" id="-10302">
		<tag k="name" v="Heimerneset" />
		<tag k="natural" v="cape" />
		<tag k="ssr:stedsnr" v="530758" />
	</node>
	<node lat="66.24219999813491" lon="12.689611108301966" id="-10311">
		<tag k="name" v="Nordhamnholmen" />
		<tag k="place" v="islet" />
		<tag k="ssr:stedsnr" v="531032" />
	</node>
	<node lat="66.23554999579046" lon="12.840513882933788" id="-10316">
		<tag k="name" v="Kråkvikshanda" />
		<tag k="natural" v="bay" />
		<tag k="ssr:stedsnr" v="531233" />
	</node>
	<node lat="66.25019444156273" lon="12.88726944106835" id="-10320">
		<tag k="name" v="Nordbotnet" />
		<tag k="natural" v="bay" />
		<tag k="ssr:stedsnr" v="531913" />
	</node>
	<node lat="66.20993610907317" lon="12.935947230872305" id="-10325">
		<tag k="name" v="Labukta" />
		<tag k="natural" v="bay" />
		<tag k="ssr:stedsnr" v="561053" />
	</node>
	<node lat="66.22796111150318" lon="12.956588893629506" id="-10326">
		<tag k="name" v="Kuneset" />
		<tag k="natural" v="cape" />
		<tag k="ssr:stedsnr" v="561055" />
	</node>
	<node lat="66.16461667014848" lon="12.857230558896607" id="-10329">
		<tag k="name" v="Jektvika" />
		<tag k="natural" v="bay" />
		<tag k="ssr:stedsnr" v="561176" />
	</node>
	<node lat="66.30315000276835" lon="13.288125006014184" id="-10330">
		<tag k="bay" v="fjord" />
		<tag k="name" v="Sjona" />
		<tag k="natural" v="bay" />
		<tag k="ssr:stedsnr" v="561546" />
	</node>
	<node lat="66.30725555385942" lon="12.846438891373541" id="-10331">
		<tag k="alt_name" v="Sellotøy" />
		<tag k="name" v="Storsellåtøya" />
		<tag k="place" v="island" />
		<tag k="ssr:stedsnr" v="561553" />
	</node>
	<node lat="66.2994972256812" lon="12.80094444240603" id="-10332">
		<tag k="name" v="Kiløya" />
		<tag k="place" v="island" />
		<tag k="ssr:stedsnr" v="561558" />
	</node>
	<node lat="66.25549166294368" lon="13.154830559474664" id="-10334">
		<tag k="name" v="Skogsholmen" />
		<tag k="place" v="islet" />
		<tag k="ssr:stedsnr" v="561650" />
	</node>
	<node lat="66.1756416684252" lon="13.025127782075748" id="-10337">
		<tag k="name" v="Straumsteinneset" />
		<tag k="natural" v="cape" />
		<tag k="ssr:stedsnr" v="561788" />
	</node>
	<node lat="66.25577777365638" lon="12.886216676335968" id="-10341">
		<tag k="name" v="Krokvika" />
		<tag k="natural" v="bay" />
		<tag k="ssr:stedsnr" v="561743" />
	</node>
	<node lat="66.251661114054" lon="12.705758338759983" id="-10352">
		<tag k="alt_name" v="Ytrekleiva" />
		<tag k="name" v="Ytterkvervan" />
		<tag k="natural" v="cape" />
		<tag k="ssr:stedsnr" v="562225" />
	</node>
	<node lat="66.274613893205" lon="12.751800002458367" id="-10354">
		<tag k="alt_name" v="Kolblikbergan" />
		<tag k="name" v="Kølblekbergan" />
		<tag k="natural" v="cape" />
		<tag k="ssr:stedsnr" v="562683" />
	</node>
	<node lat="66.27706944037197" lon="12.989769436736204" id="-10355">
		<tag k="fixme" v="consider seamark:type=rock or natural=shoal" />
		<tag k="name" v="Handsteinskjæret" />
		<tag k="place" v="islet" />
		<tag k="ssr:stedsnr" v="562685" />
	</node>
	<node lat="66.20333332906097" lon="13.030000005140081" id="-10358">
		<tag k="name" v="Skjåberget" />
		<tag k="natural" v="cape" />
		<tag k="ssr:stedsnr" v="566595" />
	</node>
	<node lat="66.20784722461056" lon="12.805825010222629" id="-10366">
		<tag k="name" v="Valaholmen" />
		<tag k="place" v="islet" />
		<tag k="ssr:stedsnr" v="591338" />
	</node>
	<node lat="66.27895000041481" lon="13.01296666550055" id="-10376">
		<tag k="name" v="Fløskjærneset" />
		<tag k="natural" v="cape" />
		<tag k="ssr:stedsnr" v="591747" />
	</node>
	<node lat="66.28425277334877" lon="13.247030564166458" id="-10379">
		<tag k="name" v="Skjåbergtangen" />
		<tag k="natural" v="cape" />
		<tag k="ssr:stedsnr" v="591980" />
	</node>
	<node lat="66.22912500057535" lon="12.907283326774234" id="-10385">
		<tag k="name" v="Nordgrunnen" />
		<tag k="natural" v="cape" />
		<tag k="ssr:stedsnr" v="592147" />
	</node>
	<node lat="66.24258055255633" lon="12.740124993621949" id="-10394">
		<tag k="name" v="Tomsvikbukta" />
		<tag k="natural" v="strait" />
		<tag k="ssr:stedsnr" v="604961" />
	</node>
	<node lat="66.28508610881072" lon="13.185466668424324" id="-10396">
		<tag k="alt_name" v="Skagaskjeret;Skagaskjæret" />
		<tag k="fixme" v="consider seamark:type=rock or natural=shoal" />
		<tag k="name" v="Skagskjeret" />
		<tag k="place" v="islet" />
		<tag k="ssr:stedsnr" v="622700" />
	</node>
	<node lat="66.29468055149495" lon="12.782030564247956" id="-10398">
		<tag k="name" v="Tostenholmen" />
		<tag k="place" v="islet" />
		<tag k="ssr:stedsnr" v="622534" />
	</node>
	<node lat="66.28851111200123" lon="12.785591667481961" id="-10399">
		<tag k="name" v="Rødvika" />
		<tag k="natural" v="bay" />
		<tag k="ssr:stedsnr" v="622537" />
	</node>
	<node lat="66.3021027807982" lon="12.839919443195397" id="-10400">
		<tag k="alt_name" v="Litle Sellotøy" />
		<tag k="name" v="Litlsellåtøya" />
		<tag k="place" v="island" />
		<tag k="ssr:stedsnr" v="622539" />
	</node>
	<node lat="66.17221388576064" lon="12.994119447210608" id="-10402">
		<tag k="name" v="Feøygrunna" />
		<tag k="natural" v="shoal" />
		<tag k="place" v="locality" />
		<tag k="ssr:stedsnr" v="622788" />
	</node>
	<node lat="66.22982500070658" lon="12.828152770568465" id="-10403">
		<tag k="name" v="Alsøyvågen" />
		<tag k="natural" v="strait" />
		<tag k="ssr:stedsnr" v="622826" />
	</node>
	<node lat="66.21306666826426" lon="12.962341676416482" id="-10405">
		<tag k="name" v="Svalengneset" />
		<tag k="natural" v="cape" />
		<tag k="ssr:stedsnr" v="622847" />
	</node>
	<node lat="66.25745277372945" lon="13.134269452585407" id="-10409">
		<tag k="alt_name" v="Oterstigbukta" />
		<tag k="name" v="Oterstibukta" />
		<tag k="natural" v="bay" />
		<tag k="ssr:stedsnr" v="622741" />
	</node>
	<node lat="66.27005277634379" lon="12.974666666865835" id="-10413">
		<tag k="fixme" v="consider seamark:type=rock or natural=shoal" />
		<tag k="name" v="Breivikskjæret" />
		<tag k="place" v="islet" />
		<tag k="ssr:stedsnr" v="623746" />
	</node>
	<node lat="66.28439721922365" lon="13.166091667150692" id="-10414">
=======
	<node id="-147264" lat="66.3249916654" lon="12.8736305607">
		<tag k="name" v="Litlkjerringa" />
		<tag k="natural" v="shoal" />
		<tag k="place" v="locality" />
		<tag k="ssr:stedsnr" v="441546" />
	</node>
	<node id="-147775" lat="66.1822972208" lon="12.8709750071">
		<tag k="name" v="Nordsjøbukta" />
		<tag k="natural" v="bay" />
		<tag k="ssr:stedsnr" v="76762" />
	</node>
	<node id="-147263" lat="66.2583250018" lon="12.6900694482">
		<tag k="alt_name" v="Vardholmen" />
		<tag k="name" v="Valholmen" />
		<tag k="place" v="islet" />
		<tag k="ssr:stedsnr" v="441234" />
	</node>
	<node id="-147260" lat="66.2377194458" lon="12.7447444384">
		<tag k="name" v="Store Bukkøya" />
		<tag k="place" v="islet" />
		<tag k="ssr:stedsnr" v="440925" />
	</node>
	<node id="-147259" lat="66.207391668" lon="12.9085972162">
		<tag k="name" v="Ørnneset" />
		<tag k="natural" v="cape" />
		<tag k="ssr:stedsnr" v="440865" />
	</node>
	<node id="-147258" lat="66.2168666675" lon="12.9879583261">
		<tag k="name" v="Sauraholmen" />
		<tag k="place" v="islet" />
		<tag k="ssr:stedsnr" v="440857" />
	</node>
	<node id="-147257" lat="66.2112000005" lon="12.8212499902">
		<tag k="name" v="Storvollflua" />
		<tag k="natural" v="shoal" />
		<tag k="place" v="locality" />
		<tag k="ssr:stedsnr" v="440852" />
	</node>
	<node id="-147256" lat="66.2141000029" lon="12.7767138897">
		<tag k="name" v="Trælneset" />
		<tag k="natural" v="cape" />
		<tag k="ssr:stedsnr" v="440847" />
	</node>
	<node id="-148276" lat="66.2409749971" lon="12.7458666552">
		<tag k="name" v="Lyrvær" />
		<tag k="place" v="islet" />
		<tag k="ssr:stedsnr" v="774209" />
	</node>
	<node id="-147254" lat="66.2151333295" lon="12.8262611152">
		<tag k="name" v="Skjåholmen" />
		<tag k="natural" v="cape" />
		<tag k="ssr:stedsnr" v="440838" />
	</node>
	<node id="-147252" lat="66.1873055532" lon="12.9176749958">
		<tag k="name" v="Hugla" />
		<tag k="place" v="island" />
		<tag k="ssr:stedsnr" v="440745" />
	</node>
	<node id="-147251" lat="66.2002416699" lon="12.9716861175">
		<tag k="fixme" v="consider seamark:type=rock or natural=shoal" />
		<tag k="name" v="Grytla" />
		<tag k="place" v="islet" />
		<tag k="ssr:stedsnr" v="440742" />
	</node>
	<node id="-147762" lat="66.2178166639" lon="12.9947472114">
		<tag k="name" v="Sauragrunnen" />
		<tag k="natural" v="shoal" />
		<tag k="place" v="locality" />
		<tag k="ssr:stedsnr" v="46375" />
	</node>
	<node id="-147246" lat="66.2335888848" lon="12.6943694516">
		<tag k="name" v="Langdraget" />
		<tag k="place" v="islet" />
		<tag k="ssr:stedsnr" v="440706" />
	</node>
	<node id="-147757" lat="66.2301833341" lon="12.8249916754">
		<tag k="name" v="Porsneset" />
		<tag k="natural" v="cape" />
		<tag k="ssr:stedsnr" v="46243" />
	</node>
	<node id="-147244" lat="66.3075166644" lon="12.798938878">
		<tag k="name" v="Lomøya" />
		<tag k="place" v="island" />
		<tag k="ssr:stedsnr" v="440559" />
	</node>
	<node id="-147932" lat="66.25909722" lon="12.7039833406">
		<tag k="alt_name" v="Medholmen" />
		<tag k="name" v="Meholmen" />
		<tag k="place" v="islet" />
		<tag k="ssr:stedsnr" v="319244" />
	</node>
	<node id="-147750" lat="66.2292249999" lon="12.9713972164">
		<tag k="name" v="Dilraneset" />
		<tag k="natural" v="cape" />
		<tag k="ssr:stedsnr" v="46120" />
	</node>
	<node id="-147590" lat="66.2375000018" lon="12.9296305582">
		<tag k="name" v="Martinberget" />
		<tag k="natural" v="cape" />
		<tag k="ssr:stedsnr" v="896140" />
	</node>
	<node id="-147233" lat="66.2435777819" lon="12.8753916633">
		<tag k="name" v="Klubbodden" />
		<tag k="natural" v="cape" />
		<tag k="ssr:stedsnr" v="197823" />
	</node>
	<node id="-147504" lat="66.1762055572" lon="13.0262138987">
		<tag k="name" v="Finnsneset" />
		<tag k="natural" v="cape" />
		<tag k="ssr:stedsnr" v="713699" />
	</node>
	<node id="-147926" lat="66.1873527806" lon="13.1361388986">
		<tag k="name" v="Hammarøygrunna" />
		<tag k="natural" v="shoal" />
		<tag k="place" v="locality" />
		<tag k="ssr:stedsnr" v="318808" />
	</node>
	<node id="-147739" lat="66.277619446" lon="12.7590472299">
		<tag k="name" v="Kvitnesfjæra" />
		<tag k="natural" v="beach" />
		<tag k="place" v="locality" />
		<tag k="ssr:stedsnr" v="45785" />
	</node>
	<node id="-147261" lat="66.2412277782" lon="12.7341027887">
		<tag k="name" v="Skogholmen" />
		<tag k="place" v="islet" />
		<tag k="ssr:stedsnr" v="440929" />
	</node>
	<node id="-147503" lat="66.1764750022" lon="13.0584361089">
		<tag k="name" v="Bukta" />
		<tag k="natural" v="bay" />
		<tag k="ssr:stedsnr" v="713785" />
	</node>
	<node id="-147733" lat="66.2160361104" lon="12.7958055457">
		<tag k="name" v="Offersøyvalen" />
		<tag k="place" v="locality" />
		<tag k="ssr:stedsnr" v="45359" />
	</node>
	<node id="-148243" lat="66.2661305554" lon="12.7206638839">
		<tag k="name" v="Bursneset" />
		<tag k="natural" v="cape" />
		<tag k="ssr:stedsnr" v="744697" />
	</node>
	<node id="-148242" lat="66.2743138883" lon="12.9880472128">
		<tag k="name" v="Halsodden" />
		<tag k="natural" v="cape" />
		<tag k="ssr:stedsnr" v="744684" />
	</node>
	<node id="-147212" lat="66.219411108" lon="13.0737750063">
		<tag k="name" v="Handåbukta" />
		<tag k="natural" v="bay" />
		<tag k="ssr:stedsnr" v="167367" />
	</node>
	<node id="-147842" lat="66.1943666679" lon="13.1542833282">
		<tag k="alt_name" v="Hammerø-sanden" />
		<tag k="name" v="Hammarøysanden" />
		<tag k="natural" v="cape" />
		<tag k="ssr:stedsnr" v="136796" />
	</node>
	<node id="-147721" lat="66.2804388861" lon="13.0327611216">
		<tag k="name" v="Fagerlibukta" />
		<tag k="natural" v="bay" />
		<tag k="ssr:stedsnr" v="25790" />
	</node>
	<node id="-147720" lat="66.2952694478" lon="12.8704111047">
		<tag k="name" v="Kyrhovudodden" />
		<tag k="natural" v="cape" />
		<tag k="ssr:stedsnr" v="25770" />
	</node>
	<node id="-148231" lat="66.3042583297" lon="12.8393388962">
		<tag k="name" v="Valen" />
		<tag k="natural" v="strait" />
		<tag k="ssr:stedsnr" v="652832" />
	</node>
	<node id="-147841" lat="66.1847166688" lon="12.9890694552">
		<tag k="name" v="Nesnakroken" />
		<tag k="natural" v="strait" />
		<tag k="ssr:stedsnr" v="136793" />
	</node>
	<node id="-148228" lat="66.2839027795" lon="12.7759694451">
		<tag k="name" v="Elvsanden" />
		<tag k="natural" v="beach" />
		<tag k="place" v="locality" />
		<tag k="ssr:stedsnr" v="652775" />
	</node>
	<node id="-147715" lat="66.1950472185" lon="12.9660333327">
		<tag k="name" v="Finnvika" />
		<tag k="natural" v="bay" />
		<tag k="ssr:stedsnr" v="16745" />
	</node>
	<node id="-147202" lat="66.285155551" lon="13.1512777831">
		<tag k="fixme" v="consider seamark:type=rock or natural=shoal" />
		<tag k="name" v="Remskjæret" />
		<tag k="place" v="islet" />
		<tag k="ssr:stedsnr" v="166777" />
	</node>
	<node id="-147840" lat="66.2204861157" lon="12.7710027701">
		<tag k="name" v="Gåsvika" />
		<tag k="natural" v="bay" />
		<tag k="ssr:stedsnr" v="136855" />
	</node>
	<node id="-147709" lat="66.2875722196" lon="13.085080544">
		<tag k="alt_name" v="Indreskjeret" />
		<tag k="fixme" v="consider seamark:type=rock or natural=shoal" />
		<tag k="name" v="Innerskjeret" />
		<tag k="place" v="islet" />
		<tag k="ssr:stedsnr" v="16666" />
	</node>
	<node id="-148219" lat="66.2819194437" lon="13.0427861174">
		<tag k="name" v="Sandvikgrunnen" />
		<tag k="natural" v="shoal" />
		<tag k="place" v="locality" />
		<tag k="ssr:stedsnr" v="652740" />
	</node>
	<node id="-148218" lat="66.2350194428" lon="12.8361638955">
		<tag k="name" v="Litleinneset" />
		<tag k="natural" v="cape" />
		<tag k="ssr:stedsnr" v="652195" />
	</node>
	<node id="-147704" lat="66.2370777761" lon="12.856630554">
		<tag k="name" v="Kvannvikstranda" />
		<tag k="natural" v="beach" />
		<tag k="place" v="locality" />
		<tag k="ssr:stedsnr" v="15838" />
	</node>
	<node id="-148215" lat="66.2422444448" lon="12.7508249919">
		<tag k="name" v="Eggneset" />
		<tag k="natural" v="cape" />
		<tag k="ssr:stedsnr" v="652166" />
	</node>
	<node id="-147190" lat="66.2456499979" lon="12.6846694478">
		<tag k="fixme" v="consider seamark:type=rock or natural=shoal" />
		<tag k="name" v="Lyaskjæran" />
		<tag k="place" v="islet" />
		<tag k="ssr:stedsnr" v="146723" />
	</node>
	<node id="-147189" lat="66.3250833328" lon="12.8807305619">
		<tag k="name" v="Skjærskallen" />
		<tag k="natural" v="shoal" />
		<tag k="place" v="locality" />
		<tag k="ssr:stedsnr" v="137525" />
	</node>
	<node id="-147188" lat="66.170427775" lon="12.8515861082">
		<tag k="name" v="Skjåberget" />
		<tag k="natural" v="cape" />
		<tag k="ssr:stedsnr" v="136809" />
	</node>
	<node id="-147699" lat="66.2406416651" lon="12.6804138825">
		<tag k="alt_name" v="Skalkholmen" />
		<tag k="name" v="Skolkholmen" />
		<tag k="place" v="islet" />
		<tag k="ssr:stedsnr" v="15770" />
	</node>
	<node id="-147186" lat="66.1773444469" lon="13.0641916737">
		<tag k="name" v="Seglneset" />
		<tag k="natural" v="cape" />
		<tag k="ssr:stedsnr" v="136802" />
	</node>
	<node id="-147923" lat="66.1838861073" lon="12.964755544">
		<tag k="name" v="Ørskaftet" />
		<tag k="natural" v="cape" />
		<tag k="ssr:stedsnr" v="318795" />
	</node>
	<node id="-147696" lat="66.2379444406" lon="12.6939666601">
		<tag k="alt_name" v="Steinsholman" />
		<tag k="name" v="Nedre Steinsholmen" />
		<tag k="place" v="islet" />
		<tag k="ssr:stedsnr" v="15752" />
	</node>
	<node id="-147183" lat="66.2361666679" lon="12.8365916779">
		<tag k="name" v="Litleinneskjosen" />
		<tag k="natural" v="bay" />
		<tag k="ssr:stedsnr" v="107211" />
	</node>
	<node id="-147182" lat="66.2296750037" lon="12.8511138788">
		<tag k="name" v="Tverrvika" />
		<tag k="natural" v="bay" />
		<tag k="ssr:stedsnr" v="107202" />
	</node>
	<node id="-148204" lat="66.2148111115" lon="12.7908277732">
		<tag k="name" v="Vikran" />
		<tag k="natural" v="bay" />
		<tag k="ssr:stedsnr" v="651345" />
	</node>
	<node id="-147691" lat="66.1658972183" lon="12.9658500094">
		<tag k="name" v="Feøya" />
		<tag k="place" v="island" />
		<tag k="ssr:stedsnr" v="926805" />
	</node>
	<node id="-147690" lat="66.1355972233" lon="12.8422166619">
		<tag k="bay" v="fjord" />
		<tag k="name" v="Ranfjorden" />
		<tag k="natural" v="bay" />
		<tag k="ssr:stedsnr" v="926804" />
	</node>
	<node id="-147239" lat="66.2675638933" lon="13.1586055561">
		<tag k="name" v="Meklevika" />
		<tag k="natural" v="bay" />
		<tag k="ssr:stedsnr" v="198725" />
	</node>
	<node id="-147174" lat="66.2625249974" lon="12.6992361184">
		<tag k="name" v="Nordskallen" />
		<tag k="natural" v="shoal" />
		<tag k="place" v="locality" />
		<tag k="ssr:stedsnr" v="259238" />
	</node>
	<node id="-147173" lat="66.2456027748" lon="12.8891138915">
		<tag k="name" v="Leiskjæret" />
		<tag k="natural" v="cape" />
		<tag k="ssr:stedsnr" v="258925" />
	</node>
	<node id="-147684" lat="66.2596527777" lon="13.1367527767">
		<tag k="name" v="Oterstineset" />
		<tag k="natural" v="cape" />
		<tag k="ssr:stedsnr" v="836010" />
	</node>
	<node id="-147171" lat="66.2400166656" lon="12.7249805454">
		<tag k="name" v="Kalvholmen" />
		<tag k="place" v="islet" />
		<tag k="ssr:stedsnr" v="258922" />
	</node>
	<node id="-147170" lat="66.2209888932" lon="12.7590194409">
		<tag k="name" v="Langnesholmen" />
		<tag k="place" v="islet" />
		<tag k="ssr:stedsnr" v="258848" />
	</node>
	<node id="-147168" lat="66.2230416679" lon="12.7599333397">
		<tag k="name" v="Neset" />
		<tag k="natural" v="cape" />
		<tag k="ssr:stedsnr" v="258839" />
	</node>
	<node id="-147166" lat="66.245430556" lon="12.695769449">
		<tag k="alt_name" v="Skardberget" />
		<tag k="name" v="Skarvberget" />
		<tag k="place" v="islet" />
		<tag k="ssr:stedsnr" v="258751" />
	</node>
	<node id="-147165" lat="66.242972221" lon="12.7174416675">
		<tag k="name" v="Brattholmen" />
		<tag k="place" v="islet" />
		<tag k="ssr:stedsnr" v="258745" />
	</node>
	<node id="-148188" lat="66.2491499968" lon="12.6762222162">
		<tag k="name" v="Sørskallen" />
		<tag k="natural" v="shoal" />
		<tag k="place" v="locality" />
		<tag k="ssr:stedsnr" v="632728" />
	</node>
	<node id="-148187" lat="66.2837611153" lon="13.2484777844">
		<tag k="name" v="Fransvika" />
		<tag k="natural" v="bay" />
		<tag k="ssr:stedsnr" v="623826" />
	</node>
	<node id="-148186" lat="66.2700527763" lon="12.9746666669">
		<tag k="fixme" v="consider seamark:type=rock or natural=shoal" />
		<tag k="name" v="Breivikskjæret" />
		<tag k="place" v="islet" />
		<tag k="ssr:stedsnr" v="623746" />
	</node>
	<node id="-147672" lat="66.30664722" lon="12.8466916707">
		<tag k="name" v="Sellåtøyan" />
		<tag k="place" v="island" />
		<tag k="ssr:stedsnr" v="931558" />
	</node>
	<node id="-147158" lat="66.3128944449" lon="12.7679055597">
		<tag k="name" v="Sledholmgrunnen" />
		<tag k="natural" v="shoal" />
		<tag k="place" v="locality" />
		<tag k="ssr:stedsnr" v="258531" />
	</node>
	<node id="-147157" lat="66.2151277747" lon="13.2225666703">
		<tag k="name" v="Ytre Bogneset" />
		<tag k="natural" v="cape" />
		<tag k="ssr:stedsnr" v="258099" />
	</node>
	<node id="-148180" lat="66.2130666683" lon="12.9623416764">
		<tag k="name" v="Svalengneset" />
		<tag k="natural" v="cape" />
		<tag k="ssr:stedsnr" v="622847" />
	</node>
	<node id="-147155" lat="66.3023611083" lon="12.7479250076">
		<tag k="bay" v="fjord" />
		<tag k="name" v="Tomfjorden" />
		<tag k="natural" v="bay" />
		<tag k="ssr:stedsnr" v="77257" />
	</node>
	<node id="-148178" lat="66.2298250007" lon="12.8281527706">
		<tag k="name" v="Alsøyvågen" />
		<tag k="natural" v="strait" />
		<tag k="ssr:stedsnr" v="622826" />
	</node>
	<node id="-147665" lat="66.2526499974" lon="13.1394444359">
		<tag k="name" v="Skogsleira" />
		<tag k="natural" v="bay" />
		<tag k="ssr:stedsnr" v="805629" />
	</node>
	<node id="-148176" lat="66.1722138858" lon="12.9941194472">
		<tag k="name" v="Feøygrunna" />
		<tag k="natural" v="shoal" />
		<tag k="place" v="locality" />
		<tag k="ssr:stedsnr" v="622788" />
	</node>
	<node id="-147832" lat="66.2056083374" lon="13.0393749952">
		<tag k="name" v="Kvithella" />
		<tag k="natural" v="cape" />
		<tag k="ssr:stedsnr" v="107908" />
	</node>
	<node id="-147662" lat="66.2616305597" lon="12.7133000066">
		<tag k="name" v="Likholmen" />
		<tag k="place" v="islet" />
		<tag k="ssr:stedsnr" v="805225" />
	</node>
	<node id="-147661" lat="66.2525138921" lon="12.6800499948">
		<tag k="name" v="Lybåen" />
		<tag k="natural" v="shoal" />
		<tag k="place" v="locality" />
		<tag k="ssr:stedsnr" v="805210" />
	</node>
	<node id="-148172" lat="66.2574527737" lon="13.1342694526">
		<tag k="alt_name" v="Oterstigbukta" />
		<tag k="name" v="Oterstibukta" />
		<tag k="natural" v="bay" />
		<tag k="ssr:stedsnr" v="622741" />
	</node>
	<node id="-147658" lat="66.1959805592" lon="12.9875972327">
		<tag k="alt_name" v="Rognsanden" />
		<tag k="fixme" v="consider seamark:type=rock or natural=shoal" />
		<tag k="name" v="Rognsand" />
		<tag k="place" v="islet" />
		<tag k="ssr:stedsnr" v="804767" />
	</node>
	<node id="-147156" lat="66.2384861086" lon="12.735619446">
		<tag k="name" v="Hysholmen" />
		<tag k="place" v="islet" />
		<tag k="ssr:stedsnr" v="318929" />
	</node>
	<node id="-147656" lat="66.2207333358" lon="13.0781222247">
		<tag k="name" v="Ytterosen" />
		<tag k="natural" v="bay" />
		<tag k="ssr:stedsnr" v="804852" />
	</node>
	<node id="-148167" lat="66.288511112" lon="12.7855916675">
		<tag k="name" v="Rødvika" />
		<tag k="natural" v="bay" />
		<tag k="ssr:stedsnr" v="622537" />
	</node>
	<node id="-148166" lat="66.2946805515" lon="12.7820305642">
		<tag k="name" v="Tostenholmen" />
		<tag k="place" v="islet" />
		<tag k="ssr:stedsnr" v="622534" />
	</node>
	<node id="-147141" lat="66.2850722262" lon="13.2333333358">
		<tag k="fixme" v="consider seamark:type=rock or natural=shoal" />
		<tag k="name" v="Havfruskjeret" />
		<tag k="old_name" v="Havtruskjeret" />
		<tag k="place" v="islet" />
		<tag k="ssr:stedsnr" v="227996" />
	</node>
	<node id="-147651" lat="66.2402083353" lon="13.0326305466">
		<tag k="alt_name" v="Hinesbukta" />
		<tag k="name" v="Hinesbukt" />
		<tag k="natural" v="bay" />
		<tag k="ssr:stedsnr" v="804822" />
	</node>
	<node id="-147649" lat="66.2416555597" lon="12.9411694536">
		<tag k="name" v="Røytskjeret" />
		<tag k="natural" v="cape" />
		<tag k="ssr:stedsnr" v="804817" />
	</node>
	<node id="-147957" lat="66.2178694438" lon="12.8324722163">
		<tag k="name" v="Sørklauvodden" />
		<tag k="natural" v="cape" />
		<tag k="ssr:stedsnr" v="328740" />
	</node>
	<node id="-147777" lat="66.1872555546" lon="12.9979861006">
		<tag k="name" v="Slåttgrunna" />
		<tag k="natural" v="shoal" />
		<tag k="place" v="locality" />
		<tag k="ssr:stedsnr" v="76764" />
	</node>
	<node id="-147829" lat="66.2448388898" lon="12.7282694369">
		<tag k="name" v="Tråviknesan" />
		<tag k="natural" v="cape" />
		<tag k="ssr:stedsnr" v="107192" />
	</node>
	<node id="-148170" lat="66.2850861088" lon="13.1854666684">
		<tag k="alt_name" v="Skagaskjeret;Skagaskjæret" />
		<tag k="fixme" v="consider seamark:type=rock or natural=shoal" />
		<tag k="name" v="Skagskjeret" />
		<tag k="place" v="islet" />
		<tag k="ssr:stedsnr" v="622700" />
	</node>
	<node id="-147163" lat="66.1798388894" lon="12.966808336">
		<tag k="name" v="Bryggeberget" />
		<tag k="natural" v="cape" />
		<tag k="ssr:stedsnr" v="258794" />
	</node>
	<node id="-148152" lat="66.2291250006" lon="12.9072833268">
		<tag k="name" v="Nordgrunnen" />
		<tag k="natural" v="cape" />
		<tag k="ssr:stedsnr" v="592147" />
	</node>
	<node id="-147639" lat="66.2804250014" lon="12.8876027742">
		<tag k="name" v="Nakken" />
		<tag k="natural" v="cape" />
		<tag k="ssr:stedsnr" v="926689" />
	</node>
	<node id="-147657" lat="66.2101694407" lon="13.0347277702">
		<tag k="name" v="Tungegrunna" />
		<tag k="natural" v="shoal" />
		<tag k="place" v="locality" />
		<tag k="ssr:stedsnr" v="804761" />
	</node>
	<node id="-147635" lat="66.3088805526" lon="12.8188083375">
		<tag k="alt_name" v="Ternskjeret;Ternskjæret" />
		<tag k="fixme" v="consider seamark:type=rock or natural=shoal" />
		<tag k="name" v="Tennskjeret" />
		<tag k="place" v="islet" />
		<tag k="ssr:stedsnr" v="926548" />
	</node>
	<node id="-148285" lat="66.1902722184" lon="13.1261138885">
		<tag k="name" v="Kulhaugtjønna" />
		<tag k="natural" v="bay" />
		<tag k="ssr:stedsnr" v="775843" />
	</node>
	<node id="-147633" lat="66.2180055574" lon="13.2383444536">
		<tag k="name" v="Indre Bogneset" />
		<tag k="natural" v="cape" />
		<tag k="ssr:stedsnr" v="926093" />
	</node>
	<node id="-147632" lat="66.2282777791" lon="12.918466677">
		<tag k="name" v="Handnessundet" />
		<tag k="natural" v="strait" />
		<tag k="ssr:stedsnr" v="925869" />
	</node>
	<node id="-148168" lat="66.3021027808" lon="12.8399194432">
		<tag k="alt_name" v="Litle Sellotøy" />
		<tag k="name" v="Litlsellåtøya" />
		<tag k="place" v="island" />
		<tag k="ssr:stedsnr" v="622539" />
	</node>
	<node id="-147118" lat="66.3277416649" lon="12.8747472236">
		<tag k="fixme" v="consider seamark:type=rock or natural=shoal" />
		<tag k="name" v="Kjerringskjæret" />
		<tag k="place" v="islet" />
		<tag k="ssr:stedsnr" v="16523" />
	</node>
	<node id="-147117" lat="66.3060166671" lon="12.7736388897">
		<tag k="name" v="Lomøygalten" />
		<tag k="natural" v="shoal" />
		<tag k="place" v="locality" />
		<tag k="ssr:stedsnr" v="16514" />
	</node>
	<node id="-147628" lat="66.1773805571" lon="12.9637111122">
		<tag k="name" v="Steinholmen" />
		<tag k="natural" v="cape" />
		<tag k="ssr:stedsnr" v="925842" />
	</node>
	<node id="-147626" lat="66.2467500041" lon="12.7015444491">
		<tag k="alt_name" v="Skipneset" />
		<tag k="name" v="Skipsneset" />
		<tag k="natural" v="cape" />
		<tag k="ssr:stedsnr" v="925768" />
	</node>
	<node id="-147625" lat="66.2813055516" lon="13.0461749889">
		<tag k="name" v="Sandvika" />
		<tag k="natural" v="bay" />
		<tag k="ssr:stedsnr" v="925649" />
	</node>
	<node id="-147624" lat="66.3173583361" lon="12.892563893">
		<tag k="name" v="Storskallen" />
		<tag k="natural" v="shoal" />
		<tag k="place" v="locality" />
		<tag k="ssr:stedsnr" v="925645" />
	</node>
	<node id="-147623" lat="66.2049888849" lon="13.0389999929">
		<tag k="name" v="Kariholmen" />
		<tag k="place" v="islet" />
		<tag k="ssr:stedsnr" v="775878" />
	</node>
	<node id="-148134" lat="66.2789500004" lon="13.0129666655">
		<tag k="name" v="Fløskjærneset" />
		<tag k="natural" v="cape" />
		<tag k="ssr:stedsnr" v="591747" />
	</node>
	<node id="-147619" lat="66.2542055598" lon="12.9646305648">
		<tag k="name" v="Vallastranda" />
		<tag k="natural" v="beach" />
		<tag k="place" v="locality" />
		<tag k="ssr:stedsnr" v="774060" />
	</node>
	<node id="-147617" lat="66.2617250016" lon="12.8865805665">
		<tag k="name" v="Stegan" />
		<tag k="natural" v="bay" />
		<tag k="ssr:stedsnr" v="773915" />
	</node>
	<node id="-147770" lat="66.3145833348" lon="12.8655444413">
		<tag k="name" v="Risen" />
		<tag k="natural" v="shoal" />
		<tag k="place" v="locality" />
		<tag k="ssr:stedsnr" v="76578" />
	</node>
	<node id="-147567" lat="66.2449305526" lon="12.721108323">
		<tag k="name" v="Litle Buholmen" />
		<tag k="place" v="islet" />
		<tag k="ssr:stedsnr" v="895209" />
	</node>
	<node id="-147607" lat="66.204930554" lon="12.9066499964">
		<tag k="name" v="Storvika" />
		<tag k="natural" v="bay" />
		<tag k="ssr:stedsnr" v="744859" />
	</node>
	<node id="-148118" lat="66.2033333291" lon="13.0300000051">
		<tag k="name" v="Skjåberget" />
		<tag k="natural" v="cape" />
		<tag k="ssr:stedsnr" v="566595" />
	</node>
	<node id="-147605" lat="66.3098416696" lon="12.860347223">
		<tag k="name" v="Lysbotnet" />
		<tag k="natural" v="shoal" />
		<tag k="place" v="locality" />
		<tag k="ssr:stedsnr" v="744522" />
	</node>
	<node id="-148115" lat="66.2770694404" lon="12.9897694367">
		<tag k="fixme" v="consider seamark:type=rock or natural=shoal" />
		<tag k="name" v="Handsteinskjæret" />
		<tag k="place" v="islet" />
		<tag k="ssr:stedsnr" v="562685" />
	</node>
	<node id="-148114" lat="66.2746138932" lon="12.7518000025">
		<tag k="alt_name" v="Kolblikbergan" />
		<tag k="name" v="Kølblekbergan" />
		<tag k="natural" v="cape" />
		<tag k="ssr:stedsnr" v="562683" />
	</node>
	<node id="-147601" lat="66.2271083371" lon="12.9401972259">
		<tag k="fixme" v="consider seamark:type=rock or natural=shoal" />
		<tag k="name" v="Johella" />
		<tag k="place" v="islet" />
		<tag k="ssr:stedsnr" v="743858" />
	</node>
	<node id="-147660" lat="66.1797916631" lon="12.8638611087">
		<tag k="name" v="Ytterskjærodden" />
		<tag k="natural" v="cape" />
		<tag k="ssr:stedsnr" v="804787" />
	</node>
	<node id="-148211" lat="66.2579638859" lon="12.9591638794">
		<tag k="name" v="Nordholmen" />
		<tag k="place" v="islet" />
		<tag k="ssr:stedsnr" v="652074" />
	</node>
	<node id="-148106" lat="66.1756416684" lon="13.0251277821">
		<tag k="name" v="Straumsteinneset" />
		<tag k="natural" v="cape" />
		<tag k="ssr:stedsnr" v="561788" />
	</node>
	<node id="-148104" lat="66.2554916629" lon="13.1548305595">
		<tag k="name" v="Skogsholmen" />
		<tag k="place" v="islet" />
		<tag k="ssr:stedsnr" v="561650" />
	</node>
	<node id="-148102" lat="66.2557777737" lon="12.8862166763">
		<tag k="name" v="Krokvika" />
		<tag k="natural" v="bay" />
		<tag k="ssr:stedsnr" v="561743" />
	</node>
	<node id="-148101" lat="66.3031500028" lon="13.288125006">
		<tag k="bay" v="fjord" />
		<tag k="name" v="Sjona" />
		<tag k="natural" v="bay" />
		<tag k="ssr:stedsnr" v="561546" />
	</node>
	<node id="-147630" lat="66.2399527803" lon="12.9360499915">
		<tag k="alt_name" v="Nordsjøen" />
		<tag k="name" v="Nordsjyen" />
		<tag k="natural" v="bay" />
		<tag k="ssr:stedsnr" v="925859" />
	</node>
	<node id="-147648" lat="66.3074999996" lon="12.8757583289">
		<tag k="name" v="Sandvikskallen" />
		<tag k="natural" v="shoal" />
		<tag k="place" v="locality" />
		<tag k="ssr:stedsnr" v="804576" />
	</node>
	<node id="-148095" lat="66.2501944416" lon="12.8872694411">
		<tag k="name" v="Nordbotnet" />
		<tag k="natural" v="bay" />
		<tag k="ssr:stedsnr" v="531913" />
	</node>
	<node id="-147581" lat="66.2823166628" lon="12.8865527811">
		<tag k="name" v="Litlnakken" />
		<tag k="natural" v="cape" />
		<tag k="ssr:stedsnr" v="895796" />
	</node>
	<node id="-147580" lat="66.1975833315" lon="13.1697444399">
		<tag k="name" v="Storhøla" />
		<tag k="natural" v="bay" />
		<tag k="ssr:stedsnr" v="895760" />
	</node>
	<node id="-148091" lat="66.2235305533" lon="12.7667277798">
		<tag k="name" v="Skarafjæra" />
		<tag k="natural" v="bay" />
		<tag k="ssr:stedsnr" v="531338" />
	</node>
	<node id="-147578" lat="66.2727666675" lon="12.9915583433">
		<tag k="name" v="Larsvika" />
		<tag k="natural" v="bay" />
		<tag k="ssr:stedsnr" v="895741" />
	</node>
	<node id="-147573" lat="66.2193527788" lon="12.7433638917">
		<tag k="bay" v="fjord" />
		<tag k="name" v="Stifjorden" />
		<tag k="natural" v="bay" />
		<tag k="ssr:stedsnr" v="895304" />
	</node>
	<node id="-147460" lat="66.1646166701" lon="12.8572305589">
		<tag k="name" v="Jektvika" />
		<tag k="natural" v="bay" />
		<tag k="ssr:stedsnr" v="561176" />
	</node>
	<node id="-147821" lat="66.2712527745" lon="13.1692583364">
		<tag k="name" v="Botnvika" />
		<tag k="natural" v="bay" />
		<tag k="ssr:stedsnr" v="106983" />
	</node>
	<node id="-148077" lat="66.2355499958" lon="12.8405138829">
		<tag k="name" v="Kråkvikshanda" />
		<tag k="natural" v="bay" />
		<tag k="ssr:stedsnr" v="531233" />
	</node>
	<node id="-148076" lat="66.2445250012" lon="12.7143555464">
		<tag k="name" v="Store Buholmen" />
		<tag k="natural" v="cape" />
		<tag k="ssr:stedsnr" v="531210" />
	</node>
	<node id="-147563" lat="66.2415027813" lon="12.7545055479">
		<tag k="name" v="Bursvika" />
		<tag k="natural" v="bay" />
		<tag k="ssr:stedsnr" v="895186" />
	</node>
	<node id="-147561" lat="66.242147221" lon="13.1246500026">
		<tag k="name" v="Leirfallet" />
		<tag k="natural" v="cape" />
		<tag k="ssr:stedsnr" v="713165" />
	</node>
	<node id="-147900" lat="66.2358749965" lon="12.6788055532">
		<tag k="alt_name" v="Daudmannsholmen" />
		<tag k="name" v="Daumannsholmen" />
		<tag k="place" v="islet" />
		<tag k="ssr:stedsnr" v="197764" />
	</node>
	<node id="-148329" lat="66.3045277807" lon="12.8048944482">
		<tag k="name" v="Lomøysundet" />
		<tag k="natural" v="strait" />
		<tag k="ssr:stedsnr" v="835843" />
	</node>
	<node id="-148066" lat="66.1887805547" lon="13.109166663">
		<tag k="name" v="Raunesodden" />
		<tag k="natural" v="cape" />
		<tag k="ssr:stedsnr" v="411842" />
	</node>
	<node id="-148155" lat="66.2384249971" lon="12.7031166716">
		<tag k="name" v="Øver Steinsholmen" />
		<tag k="place" v="islet" />
		<tag k="ssr:stedsnr" v="592219" />
	</node>
	<node id="-148061" lat="66.3052722245" lon="12.8375277715">
		<tag k="fixme" v="consider seamark:type=rock or natural=shoal" />
		<tag k="name" v="Tennskjeret" />
		<tag k="place" v="islet" />
		<tag k="ssr:stedsnr" v="410832" />
	</node>
	<node id="-148058" lat="66.2120888925" lon="12.9615083309">
		<tag k="name" v="Svalengbukta" />
		<tag k="natural" v="bay" />
		<tag k="ssr:stedsnr" v="410368" />
	</node>
	<node id="-147545" lat="66.2847722217" lon="13.2521305446">
		<tag k="name" v="Fransvikholmen" />
		<tag k="place" v="islet" />
		<tag k="ssr:stedsnr" v="684816" />
	</node>
	<node id="-147544" lat="66.2332333341" lon="12.7258333256">
		<tag k="name" v="Litle Hjartøya" />
		<tag k="place" v="island" />
		<tag k="ssr:stedsnr" v="683802" />
	</node>
	<node id="-147459" lat="66.2279611115" lon="12.9565888936">
		<tag k="name" v="Kuneset" />
		<tag k="natural" v="cape" />
		<tag k="ssr:stedsnr" v="561055" />
	</node>
	<node id="-147540" lat="66.2248138925" lon="12.743083341">
		<tag k="name" v="Osholman" />
		<tag k="place" v="islet" />
		<tag k="ssr:stedsnr" v="683810" />
	</node>
	<node id="-147537" lat="66.1665666639" lon="12.8476944525">
		<tag k="name" v="Klubben" />
		<tag k="natural" v="cape" />
		<tag k="ssr:stedsnr" v="682018" />
	</node>
	<node id="-148044" lat="66.2731499998" lon="12.9962083321">
		<tag k="name" v="Bryggeberget" />
		<tag k="natural" v="cape" />
		<tag k="ssr:stedsnr" v="409808" />
	</node>
	<node id="-147936" lat="66.2653194457" lon="13.152669444">
		<tag k="name" v="Setningsvika" />
		<tag k="natural" v="bay" />
		<tag k="ssr:stedsnr" v="319623" />
	</node>
	<node id="-147528" lat="66.229119447" lon="12.9680000079">
		<tag k="name" v="Hundberget" />
		<tag k="natural" v="cape" />
		<tag k="ssr:stedsnr" v="652107" />
	</node>
	<node id="-148236" lat="66.1627305514" lon="12.8786944343">
		<tag k="alt_name" v="Fagervollneset" />
		<tag k="name" v="Fagerneset" />
		<tag k="natural" v="cape" />
		<tag k="ssr:stedsnr" v="743194" />
	</node>
	<node id="-147524" lat="66.2527222256" lon="12.9513916718">
		<tag k="fixme" v="consider seamark:type=rock or natural=shoal" />
		<tag k="name" v="Vallaskjæran" />
		<tag k="place" v="islet" />
		<tag k="ssr:stedsnr" v="632725" />
	</node>
	<node id="-147523" lat="66.2843972192" lon="13.1660916672">
>>>>>>> e1d4bc35ff8a6074a6f2e91616a996b547c36f15
		<tag k="name" v="Finnvika" />
		<tag k="natural" v="bay" />
		<tag k="ssr:stedsnr" v="631771" />
	</node>
<<<<<<< HEAD
	<node lat="66.25796388593285" lon="12.95916387935761" id="-10425">
		<tag k="name" v="Nordholmen" />
		<tag k="place" v="islet" />
		<tag k="ssr:stedsnr" v="652074" />
	</node>
	<node lat="66.24224444482884" lon="12.750824991936888" id="-10428">
		<tag k="name" v="Eggneset" />
		<tag k="natural" v="cape" />
		<tag k="ssr:stedsnr" v="652166" />
	</node>
	<node lat="66.2350194427608" lon="12.83616389547542" id="-10429">
		<tag k="name" v="Litleinneset" />
		<tag k="natural" v="cape" />
		<tag k="ssr:stedsnr" v="652195" />
	</node>
	<node lat="66.22490833317865" lon="12.765725001084784" id="-10431">
		<tag k="name" v="Vikfjæra" />
		<tag k="natural" v="bay" />
		<tag k="ssr:stedsnr" v="652281" />
	</node>
	<node lat="66.28681666927287" lon="13.142275004930314" id="-10438">
		<tag k="name" v="Juvikneset" />
		<tag k="natural" v="cape" />
		<tag k="ssr:stedsnr" v="652759" />
	</node>
	<node lat="66.283902779463" lon="12.775969445086414" id="-10440">
		<tag k="name" v="Elvsanden" />
		<tag k="natural" v="beach" />
		<tag k="ssr:stedsnr" v="652775" />
	</node>
	<node lat="66.25572500215758" lon="13.139813879208658" id="-10447">
		<tag k="name" v="Hestholmen" />
		<tag k="natural" v="cape" />
		<tag k="ssr:stedsnr" v="712072" />
	</node>
	<node lat="66.24516944189251" lon="12.881797232892668" id="-10459">
		<tag k="name" v="Kleivodden" />
		<tag k="natural" v="cape" />
		<tag k="ssr:stedsnr" v="713216" />
	</node>
	<node lat="66.24214722102306" lon="13.124650002640802" id="-10463">
		<tag k="name" v="Leirfallet" />
		<tag k="natural" v="cape" />
		<tag k="ssr:stedsnr" v="713165" />
	</node>
	<node lat="66.1762055571611" lon="13.026213898749631" id="-10466">
		<tag k="name" v="Finnsneset" />
		<tag k="natural" v="cape" />
		<tag k="ssr:stedsnr" v="713699" />
	</node>
	<node lat="66.28499166900092" lon="13.17466388621793" id="-10469">
		<tag k="name" v="Nordodden" />
		<tag k="natural" v="cape" />
		<tag k="ssr:stedsnr" v="713799" />
	</node>
	<node lat="66.1848194426238" lon="13.090883332287836" id="-10470">
		<tag k="name" v="Neset" />
		<tag k="natural" v="cape" />
		<tag k="ssr:stedsnr" v="713800" />
	</node>
	<node lat="66.16273055140009" lon="12.87869443428271" id="-10480">
		<tag k="alt_name" v="Fagervollneset" />
		<tag k="name" v="Fagerneset" />
		<tag k="natural" v="cape" />
		<tag k="ssr:stedsnr" v="743194" />
	</node>
	<node lat="66.2271083370825" lon="12.940197225891103" id="-10487">
		<tag k="fixme" v="consider seamark:type=rock or natural=shoal" />
		<tag k="name" v="Johella" />
		<tag k="place" v="islet" />
		<tag k="ssr:stedsnr" v="743858" />
	</node>
	<node lat="66.20493055398282" lon="12.906649996444795" id="-10491">
		<tag k="name" v="Storvika" />
		<tag k="natural" v="bay" />
		<tag k="ssr:stedsnr" v="744859" />
	</node>
	<node lat="66.19027221843069" lon="13.126113888483177" id="-10529">
		<tag k="name" v="Kulhaugtjønna" />
		<tag k="natural" v="bay" />
		<tag k="ssr:stedsnr" v="775843" />
	</node>
	<node lat="66.20498888489774" lon="13.038999992856613" id="-10531">
		<tag k="name" v="Kariholmen" />
		<tag k="place" v="islet" />
		<tag k="ssr:stedsnr" v="775878" />
	</node>
	<node lat="66.25493611301448" lon="12.956480549475113" id="-10533">
		<tag k="alt_name" v="Vallaholman" />
		<tag k="name" v="Vallaholmen" />
		<tag k="place" v="islet" />
		<tag k="ssr:stedsnr" v="805729" />
	</node>
	<node lat="66.3074999996353" lon="12.87575832885661" id="-10535">
		<tag k="name" v="Sandvikskallen" />
		<tag k="natural" v="shoal" />
		<tag k="place" v="locality" />
		<tag k="ssr:stedsnr" v="804576" />
	</node>
	<node lat="66.29945000273706" lon="12.820491671464039" id="-10536">
		<tag k="name" v="Langneset" />
		<tag k="natural" v="cape" />
		<tag k="ssr:stedsnr" v="804627" />
	</node>
	<node lat="66.24850555360463" lon="12.687697220954052" id="-10539">
		<tag k="alt_name" v="Lya" />
		<tag k="name" v="Lyen" />
		<tag k="place" v="islet" />
		<tag k="ssr:stedsnr" v="804745" />
	</node>
	<node lat="66.252649997351" lon="13.139444435883425" id="-10546">
		<tag k="name" v="Skogsleira" />
		<tag k="natural" v="bay" />
		<tag k="ssr:stedsnr" v="805629" />
	</node>
	<node lat="66.29246666557039" lon="12.864199994643634" id="-10549">
		<tag k="name" v="Kyrhovudbukta" />
		<tag k="natural" v="bay" />
		<tag k="ssr:stedsnr" v="805677" />
	</node>
	<node lat="66.29289444090898" lon="12.832994451273516" id="-10550">
		<tag k="name" v="Breivika" />
		<tag k="natural" v="bay" />
		<tag k="ssr:stedsnr" v="805678" />
	</node>
	<node lat="66.27680000107827" lon="12.748708336818675" id="-10556">
		<tag k="name" v="Rørholmen" />
		<tag k="place" v="islet" />
		<tag k="ssr:stedsnr" v="805695" />
	</node>
	<node lat="66.31183889156756" lon="12.846983327946434" id="-10559">
		<tag k="fixme" v="consider seamark:type=rock or natural=shoal" />
		<tag k="name" v="Lyngøyskjæret" />
=======
	<node id="-147645" lat="66.2095638901" lon="12.8295888831">
		<tag k="name" v="Skjågrunna" />
		<tag k="natural" v="shoal" />
		<tag k="place" v="locality" />
		<tag k="ssr:stedsnr" v="926856" />
	</node>
	<node id="-147697" lat="66.2402416703" lon="12.7023472266">
		<tag k="alt_name" v="Hamnholman" />
		<tag k="name" v="Hamnholmen" />
		<tag k="place" v="islet" />
		<tag k="ssr:stedsnr" v="15754" />
	</node>
	<node id="-147519" lat="66.2425805526" lon="12.7401249936">
		<tag k="name" v="Tomsvikbukta" />
		<tag k="natural" v="strait" />
		<tag k="ssr:stedsnr" v="604961" />
	</node>
	<node id="-148030" lat="66.2520805578" lon="13.1198722315">
		<tag k="name" v="Øybukta" />
		<tag k="natural" v="bay" />
		<tag k="ssr:stedsnr" v="409080" />
	</node>
	<node id="-147807" lat="66.2778694479" lon="13.0231527784">
		<tag k="name" v="Rauvikneset" />
		<tag k="natural" v="cape" />
		<tag k="ssr:stedsnr" v="106773" />
	</node>
	<node id="-147509" lat="66.1848194426" lon="13.0908833323">
		<tag k="name" v="Neset" />
		<tag k="natural" v="cape" />
		<tag k="ssr:stedsnr" v="713800" />
	</node>
	<node id="-147508" lat="66.284991669" lon="13.1746638862">
		<tag k="name" v="Nordodden" />
		<tag k="natural" v="cape" />
		<tag k="ssr:stedsnr" v="713799" />
	</node>
	<node id="-148018" lat="66.2406555515" lon="12.729708338">
		<tag k="alt_name" v="Slattholmen" />
		<tag k="name" v="Slåttholmen" />
		<tag k="place" v="islet" />
		<tag k="ssr:stedsnr" v="379914" />
	</node>
	<node id="-147867" lat="66.2830916628" lon="12.7684805515">
		<tag k="fixme" v="consider seamark:type=rock or natural=shoal" />
		<tag k="name" v="Dalskjæran" />
		<tag k="place" v="islet" />
		<tag k="ssr:stedsnr" v="166792" />
	</node>
	<node id="-148016" lat="66.2142416685" lon="12.7953916619">
		<tag k="alt_name" v="Offersøya" />
		<tag k="name" v="Offersøy" />
		<tag k="natural" v="cape" />
		<tag k="ssr:stedsnr" v="379840" />
	</node>
	<node id="-148015" lat="66.2211472189" lon="13.0783194549">
		<tag k="alt_name" v="Handbergan" />
		<tag k="name" v="Handåbergan" />
		<tag k="natural" v="cape" />
		<tag k="ssr:stedsnr" v="379837" />
	</node>
	<node id="-147634" lat="66.2963472215" lon="12.7977666601">
		<tag k="name" v="Kiløysundet" />
		<tag k="natural" v="strait" />
		<tag k="ssr:stedsnr" v="926533" />
	</node>
	<node id="-147498" lat="66.2451694419" lon="12.8817972329">
		<tag k="name" v="Kleivodden" />
		<tag k="natural" v="cape" />
		<tag k="ssr:stedsnr" v="713216" />
	</node>
	<node id="-147719" lat="66.2596361086" lon="12.9517444521">
		<tag k="name" v="Valgrunna" />
		<tag k="natural" v="shoal" />
		<tag k="place" v="locality" />
		<tag k="ssr:stedsnr" v="25375" />
	</node>
	<node id="-147701" lat="66.1745111155" lon="13.0353861151">
		<tag k="name" v="Båtneset" />
		<tag k="natural" v="cape" />
		<tag k="ssr:stedsnr" v="15826" />
	</node>
	<node id="-148006" lat="66.1650000038" lon="12.8482694519">
		<tag k="alt_name" v="Huglneset" />
		<tag k="name" v="Hugelneset" />
		<tag k="natural" v="cape" />
		<tag k="ssr:stedsnr" v="379765" />
	</node>
	<node id="-148005" lat="66.1856638885" lon="12.9628666706">
		<tag k="name" v="Strandbukta" />
		<tag k="natural" v="bay" />
		<tag k="ssr:stedsnr" v="379751" />
	</node>
	<node id="-147779" lat="66.1881555515" lon="13.1035333274">
		<tag k="name" v="Mehusbukta" />
		<tag k="natural" v="bay" />
		<tag k="ssr:stedsnr" v="76777" />
	</node>
	<node id="-148315" lat="66.2841777785" lon="13.181236119">
		<tag k="name" v="Skagskjerodden" />
		<tag k="natural" v="cape" />
		<tag k="ssr:stedsnr" v="834791" />
	</node>
	<node id="-148000" lat="66.2609694471" lon="12.9646527853">
		<tag k="fixme" v="consider seamark:type=rock or natural=shoal" />
		<tag k="name" v="Storsteinauken" />
		<tag k="place" v="islet" />
		<tag k="ssr:stedsnr" v="379719" />
	</node>
	<node id="-147717" lat="66.2107249961" lon="12.8123500014">
		<tag k="name" v="Storøya" />
>>>>>>> e1d4bc35ff8a6074a6f2e91616a996b547c36f15
		<tag k="place" v="islet" />
		<tag k="ssr:stedsnr" v="16863" />
	</node>
<<<<<<< HEAD
	<node lat="66.22373055222485" lon="12.743258343805342" id="-10568">
		<tag k="fixme" v="consider seamark:type=rock or natural=shoal" />
		<tag k="name" v="Bøtskjeret" />
		<tag k="place" v="islet" />
		<tag k="ssr:stedsnr" v="834323" />
	</node>
	<node lat="66.28417777845479" lon="13.181236118969814" id="-10571">
		<tag k="name" v="Skagskjerodden" />
		<tag k="natural" v="cape" />
		<tag k="ssr:stedsnr" v="834791" />
	</node>
	<node lat="66.28637778105201" lon="13.069794441636322" id="-10577">
		<tag k="fixme" v="consider seamark:type=rock or natural=shoal" />
		<tag k="name" v="Ytterskjæret" />
		<tag k="place" v="islet" />
		<tag k="ssr:stedsnr" v="834759" />
	</node>
	<node lat="66.30293333169664" lon="12.822863882008079" id="-10590">
		<tag k="name" v="Lyngøya" />
		<tag k="natural" v="cape" />
		<tag k="ssr:stedsnr" v="835841" />
	</node>
	<node lat="66.30452778067085" lon="12.804894448204385" id="-10591">
		<tag k="name" v="Lomøysundet" />
		<tag k="natural" v="strait" />
		<tag k="ssr:stedsnr" v="835843" />
	</node>
	<node lat="66.2133083306934" lon="12.805269449773862" id="-10595">
		<tag k="name" v="Neset" />
		<tag k="natural" v="cape" />
		<tag k="ssr:stedsnr" v="865065" />
	</node>
	<node lat="66.2640111105093" lon="13.181091662798694" id="-10600">
		<tag k="name" v="Stranda" />
		<tag k="natural" v="beach" />
		<tag k="ssr:stedsnr" v="865647" />
	</node>
	<node lat="66.1797833311476" lon="13.019752780836981" id="-10601">
		<tag k="alt_name" v="Leirholmen" />
		<tag k="name" v="Leirholman" />
		<tag k="natural" v="cape" />
		<tag k="ssr:stedsnr" v="865792" />
	</node>
	<node lat="66.16893888693602" lon="12.979666659295054" id="-10602">
		<tag k="name" v="Innerkalven" />
		<tag k="place" v="islet" />
		<tag k="ssr:stedsnr" v="865805" />
	</node>
	<node lat="66.17507777668493" lon="12.950977776770866" id="-10603">
		<tag k="name" v="Buneset" />
		<tag k="natural" v="cape" />
		<tag k="ssr:stedsnr" v="865807" />
	</node>
	<node lat="66.20413055630065" lon="12.969847226614359" id="-10606">
		<tag k="name" v="Vikholmen" />
		<tag k="place" v="islet" />
		<tag k="ssr:stedsnr" v="865762" />
	</node>
	<node lat="66.17435833672464" lon="12.86152777393853" id="-10609">
		<tag k="fixme" v="consider seamark:type=rock or natural=shoal" />
		<tag k="name" v="Purken" />
		<tag k="place" v="islet" />
		<tag k="ssr:stedsnr" v="865782" />
	</node>
	<node lat="66.22853611180456" lon="12.729255556293985" id="-10610">
		<tag k="name" v="Børøyholmen" />
		<tag k="place" v="islet" />
		<tag k="ssr:stedsnr" v="865827" />
	</node>
	<node lat="66.28450833025758" lon="13.168294445468948" id="-10614">
		<tag k="name" v="Størkevika" />
		<tag k="natural" v="bay" />
		<tag k="ssr:stedsnr" v="866678" />
	</node>
	<node lat="66.27348889258737" lon="12.995841669878713" id="-10615">
		<tag k="name" v="Handsteinvika" />
		<tag k="natural" v="bay" />
		<tag k="ssr:stedsnr" v="866687" />
	</node>
	<node lat="66.2837555559004" lon="13.175872222819178" id="-10616">
		<tag k="name" v="Vassvika" />
		<tag k="natural" v="bay" />
		<tag k="ssr:stedsnr" v="866696" />
	</node>
	<node lat="66.27418333423748" lon="12.990319436817144" id="-10624">
		<tag k="fixme" v="consider seamark:type=rock or natural=shoal" />
		<tag k="name" v="Lukkusskjæret" />
		<tag k="place" v="islet" />
		<tag k="ssr:stedsnr" v="955750" />
	</node>
	<node lat="66.21073888660773" lon="12.93853611907471" id="-10636">
		<tag k="name" v="Laberget" />
		<tag k="natural" v="cape" />
		<tag k="ssr:stedsnr" v="956395" />
	</node>
	<node lat="66.18969444063688" lon="13.120302766554417" id="-10638">
		<tag k="name" v="Rothellberget" />
		<tag k="natural" v="cape" />
		<tag k="ssr:stedsnr" v="957855" />
=======
	<node id="-147996" lat="66.3018972235" lon="12.8477222313">
		<tag k="alt_name" v="Øyskjeret" />
		<tag k="fixme" v="consider seamark:type=rock or natural=shoal" />
		<tag k="name" v="Øyskjeran" />
		<tag k="place" v="islet" />
		<tag k="ssr:stedsnr" v="379544" />
	</node>
	<node id="-147995" lat="66.3167305524" lon="12.8109305605">
		<tag k="name" v="Småholman" />
		<tag k="place" v="islet" />
		<tag k="ssr:stedsnr" v="379520" />
	</node>
	<node id="-147482" lat="66.2218222199" lon="12.7682249903">
		<tag k="name" v="Naustholmen" />
		<tag k="place" v="islet" />
		<tag k="ssr:stedsnr" v="591307" />
	</node>
	<node id="-148143" lat="66.2842527733" lon="13.2470305642">
		<tag k="name" v="Skjåbergtangen" />
		<tag k="natural" v="cape" />
		<tag k="ssr:stedsnr" v="591980" />
	</node>
	<node id="-147480" lat="66.2581777774" lon="13.1715111163">
		<tag k="name" v="Oksvika" />
		<tag k="natural" v="bay" />
		<tag k="ssr:stedsnr" v="712075" />
	</node>
	<node id="-147479" lat="66.2557250022" lon="13.1398138792">
		<tag k="name" v="Hestholmen" />
		<tag k="natural" v="cape" />
		<tag k="ssr:stedsnr" v="712072" />
	</node>
	<node id="-147990" lat="66.2231500007" lon="13.0817749948">
		<tag k="name" v="Innerosen" />
		<tag k="natural" v="bay" />
		<tag k="ssr:stedsnr" v="349428" />
	</node>
	<node id="-147987" lat="66.2275777816" lon="12.9465694472">
		<tag k="name" v="Nils-Myre-støa" />
		<tag k="natural" v="bay" />
		<tag k="ssr:stedsnr" v="349414" />
	</node>
	<node id="-147986" lat="66.2442777741" lon="12.8794972162">
		<tag k="name" v="Hysterbiten" />
		<tag k="natural" v="cape" />
		<tag k="ssr:stedsnr" v="349237" />
	</node>
	<node id="-147473" lat="66.2516611141" lon="12.7057583388">
		<tag k="alt_name" v="Ytrekleiva" />
		<tag k="name" v="Ytterkvervan" />
		<tag k="natural" v="cape" />
		<tag k="ssr:stedsnr" v="562225" />
	</node>
	<node id="-147984" lat="66.2451722192" lon="12.7380277672">
		<tag k="name" v="Klubbahaugen" />
		<tag k="natural" v="cape" />
		<tag k="ssr:stedsnr" v="349234" />
	</node>
	<node id="-147983" lat="66.2428194443" lon="12.7337583393">
		<tag k="fixme" v="consider seamark:type=rock or natural=shoal" />
		<tag k="name" v="Kobbskjæret" />
		<tag k="place" v="islet" />
		<tag k="ssr:stedsnr" v="349232" />
	</node>
	<node id="-148226" lat="66.2868166693" lon="13.1422750049">
		<tag k="name" v="Juvikneset" />
		<tag k="natural" v="cape" />
		<tag k="ssr:stedsnr" v="652759" />
	</node>
	<node id="-148311" lat="66.2863777811" lon="13.0697944416">
		<tag k="fixme" v="consider seamark:type=rock or natural=shoal" />
		<tag k="name" v="Ytterskjæret" />
		<tag k="place" v="islet" />
		<tag k="ssr:stedsnr" v="834759" />
	</node>
	<node id="-147884" lat="66.2335277747" lon="12.8350749897">
		<tag k="name" v="Storeinneset" />
		<tag k="natural" v="cape" />
		<tag k="ssr:stedsnr" v="167240" />
	</node>
	<node id="-147974" lat="66.2419194444" lon="12.6944194345">
		<tag k="fixme" v="consider seamark:type=rock or natural=shoal" />
		<tag k="name" v="Hamnholmskjeret" />
		<tag k="place" v="islet" />
		<tag k="ssr:stedsnr" v="349048" />
	</node>
	<node id="-147461" lat="66.3072555539" lon="12.8464388914">
		<tag k="alt_name" v="Sellotøy" />
		<tag k="name" v="Storsellåtøya" />
		<tag k="place" v="island" />
		<tag k="ssr:stedsnr" v="561553" />
	</node>
	<node id="-147711" lat="66.2867777789" lon="13.1267916574">
		<tag k="alt_name" v="Innebrøkt" />
		<tag k="fixme" v="consider seamark:type=rock or natural=shoal" />
		<tag k="name" v="Ingebrekt" />
		<tag k="place" v="islet" />
		<tag k="ssr:stedsnr" v="16675" />
	</node>
	<node id="-147798" lat="66.2210777787" lon="13.0130583342">
		<tag k="name" v="Sauragrunna" />
		<tag k="natural" v="shoal" />
		<tag k="place" v="locality" />
		<tag k="ssr:stedsnr" v="86787" />
	</node>
	<node id="-147458" lat="66.2099361091" lon="12.9359472309">
		<tag k="name" v="Labukta" />
		<tag k="natural" v="bay" />
		<tag k="ssr:stedsnr" v="561053" />
	</node>
	<node id="-147457" lat="66.172722219" lon="12.9607527871">
		<tag k="name" v="Gløtten" />
		<tag k="natural" v="shoal" />
		<tag k="place" v="locality" />
		<tag k="ssr:stedsnr" v="692737" />
>>>>>>> e1d4bc35ff8a6074a6f2e91616a996b547c36f15
	</node>
</osm>
