<?xml version="1.0" encoding="UTF-8"?>
<<<<<<< HEAD
<osm version="0.6" generator="osmapis">
	<node lat="66.18985219984978" lon="13.099700339573696" id="-9368">
		<tag k="fixme" v="consider place=hamlet" />
		<tag k="name" v="Mehus" />
		<tag k="place" v="farm" />
		<tag k="ssr:stedsnr" v="15813" />
	</node>
	<node lat="66.23769721800053" lon="13.012219442033643" id="-9382">
		<tag k="name" v="Plassan" />
		<tag k="place" v="farm" />
		<tag k="ssr:stedsnr" v="45171" />
	</node>
	<node lat="66.29189444231666" lon="12.836741674646829" id="-9387">
		<tag k="name" v="Skoglund" />
		<tag k="place" v="farm" />
		<tag k="ssr:stedsnr" v="45830" />
	</node>
	<node lat="66.27940000147734" lon="13.160244451309447" id="-9392">
		<tag k="name" v="Moen" />
		<tag k="place" v="farm" />
		<tag k="ssr:stedsnr" v="45970" />
	</node>
	<node lat="66.26457221913621" lon="13.104266672421716" id="-9395">
		<tag k="name" v="Nyrud" />
		<tag k="place" v="farm" />
		<tag k="ssr:stedsnr" v="46011" />
	</node>
	<node lat="66.20873163035662" lon="12.923950321499179" id="-9404">
		<tag k="alt_name" v="Engan" />
		<tag k="name" v="Enga" />
		<tag k="place" v="locality" />
		<tag k="ssr:stedsnr" v="76855" />
	</node>
	<node lat="66.29434721979796" lon="12.807513885800999" id="-9423">
		<tag k="name" v="Haugen" />
		<tag k="place" v="farm" />
		<tag k="ssr:stedsnr" v="106805" />
	</node>
	<node lat="66.17683055513969" lon="13.030666670418464" id="-9435">
		<tag k="name" v="Sommarset" />
		<tag k="place" v="farm" />
		<tag k="ssr:stedsnr" v="136803" />
	</node>
	<node lat="66.17735461503733" lon="13.042801825251905" id="-9444">
		<tag k="fixme" v="consider place=hamlet" />
		<tag k="name" v="Sandnes" />
		<tag k="place" v="farm" />
		<tag k="ssr:stedsnr" v="258791" />
	</node>
	<node lat="66.23213055860836" lon="12.99533055785358" id="-9448">
		<tag k="alt_name" v="Vika" />
		<tag k="name" v="Viken" />
		<tag k="place" v="farm" />
		<tag k="ssr:stedsnr" v="258834" />
	</node>
	<node lat="66.26032752839113" lon="12.72661405712514" id="-9457">
		<tag k="fixme" v="multiple name tags, choose one and add the other to alt_name" />
		<tag k="name" v="Nytun;Sandfallet" />
		<tag k="place" v="farm" />
		<tag k="ssr:stedsnr" v="259707" />
	</node>
	<node lat="66.27010000146565" lon="12.886949998999338" id="-9459">
		<tag k="fixme" v="multiple name tags, choose one and add the other to alt_name" />
		<tag k="name" v="Minnet;Hatten" />
		<tag k="place" v="farm" />
		<tag k="ssr:stedsnr" v="259714" />
	</node>
	<node lat="66.25386667019097" lon="13.074975010813054" id="-9460">
		<tag k="name" v="Nygård" />
		<tag k="place" v="farm" />
		<tag k="ssr:stedsnr" v="166005" />
	</node>
	<node lat="66.26501388496925" lon="12.730280550168201" id="-9470">
		<tag k="name" v="Bersvollen" />
		<tag k="place" v="farm" />
		<tag k="ssr:stedsnr" v="166965" />
	</node>
	<node lat="66.24895556008343" lon="12.753266665713232" id="-9481">
		<tag k="name" v="Tomsvika" />
		<tag k="place" v="farm" />
		<tag k="ssr:stedsnr" v="180163" />
	</node>
	<node lat="66.25258333635263" lon="12.964691667570259" id="-9487">
		<tag k="name" v="Slettmo" />
		<tag k="place" v="farm" />
		<tag k="ssr:stedsnr" v="198622" />
	</node>
	<node lat="66.24984455472199" lon="13.162282444142294" id="-9488">
		<tag k="fixme" v="consider place=hamlet" />
		<tag k="name" v="Skog" />
		<tag k="place" v="farm" />
		<tag k="ssr:stedsnr" v="198629" />
	</node>
	<node lat="66.28200555202739" lon="13.171352782482256" id="-9490">
		<tag k="name" v="Kalvgarden" />
		<tag k="place" v="farm" />
		<tag k="ssr:stedsnr" v="198704" />
	</node>
	<node lat="66.29119444882781" lon="12.829044439890485" id="-9504">
		<tag k="name" v="Solheim" />
		<tag k="place" v="farm" />
		<tag k="ssr:stedsnr" v="227839" />
	</node>
	<node lat="66.26191944198331" lon="12.98077500346001" id="-9507">
		<tag k="name" v="Bjønndalsmoen" />
		<tag k="place" v="farm" />
		<tag k="ssr:stedsnr" v="228091" />
	</node>
	<node lat="66.24402777756812" lon="12.876474996065726" id="-9508">
		<tag k="name" v="Stranda" />
		<tag k="place" v="farm" />
		<tag k="ssr:stedsnr" v="228215" />
	</node>
	<node lat="66.24773055989583" lon="13.147711112487787" id="-9524">
		<tag k="name" v="Sæter" />
		<tag k="place" v="isolated_dwelling" />
		<tag k="ssr:stedsnr" v="258816" />
	</node>
	<node lat="66.26078853149424" lon="13.102609307261446" id="-9529">
		<tag k="name" v="Litlsteiro" />
		<tag k="place" v="farm" />
		<tag k="ssr:stedsnr" v="258756" />
	</node>
	<node lat="66.18980555580617" lon="12.946269438169299" id="-9532">
		<tag k="alt_name" v="Skogekra" />
		<tag k="name" v="Skogekkra" />
		<tag k="place" v="farm" />
		<tag k="ssr:stedsnr" v="258777" />
	</node>
	<node lat="66.19171666242168" lon="12.96329166493582" id="-9533">
		<tag k="name" v="Haugland" />
		<tag k="place" v="farm" />
		<tag k="ssr:stedsnr" v="258778" />
	</node>
	<node lat="66.24960833737956" lon="12.96036388547298" id="-9535">
		<tag k="fixme" v="multiple name tags, choose one and add the other to alt_name" />
		<tag k="name" v="Valla;Metti Valla" />
		<tag k="place" v="farm" />
		<tag k="ssr:stedsnr" v="258923" />
	</node>
	<node lat="66.18280278166718" lon="12.947877774817284" id="-9561">
		<tag k="name" v="Remman" />
		<tag k="place" v="farm" />
		<tag k="ssr:stedsnr" v="318792" />
	</node>
	<node lat="66.19126110756032" lon="12.957105565397832" id="-9563">
		<tag k="name" v="Myra" />
		<tag k="place" v="farm" />
		<tag k="ssr:stedsnr" v="318796" />
	</node>
	<node lat="66.26235833287106" lon="12.982816666224723" id="-9566">
		<tag k="name" v="Nymoen" />
		<tag k="place" v="farm" />
		<tag k="ssr:stedsnr" v="319741" />
	</node>
	<node lat="66.26154444180541" lon="13.097425000451791" id="-9567">
		<tag k="name" v="Fjellstad" />
		<tag k="place" v="farm" />
		<tag k="ssr:stedsnr" v="319744" />
	</node>
	<node lat="66.26318333705208" lon="13.108211103316611" id="-9571">
		<tag k="name" v="Skogstad" />
		<tag k="place" v="farm" />
		<tag k="ssr:stedsnr" v="469048" />
	</node>
	<node lat="66.25315555567325" lon="13.072219444538442" id="-9576">
		<tag k="name" v="Litleeng" />
		<tag k="place" v="farm" />
		<tag k="ssr:stedsnr" v="470086" />
	</node>
	<node lat="66.20821110862374" lon="13.049747212166176" id="-9582">
		<tag k="name" v="Frydenlund" />
		<tag k="place" v="farm" />
		<tag k="ssr:stedsnr" v="470332" />
	</node>
	<node lat="66.25944166894898" lon="13.093719448705498" id="-9597">
		<tag k="name" v="Kvellro" />
		<tag k="place" v="farm" />
		<tag k="ssr:stedsnr" v="348024" />
	</node>
	<node lat="66.27105814239711" lon="13.192046096764676" id="-9615">
		<tag k="fixme" v="consider place=hamlet" />
		<tag k="name" v="Longset" />
		<tag k="place" v="farm" />
		<tag k="ssr:stedsnr" v="379710" />
	</node>
	<node lat="66.26092499741247" lon="12.885547222230779" id="-9617">
		<tag k="name" v="Storvika" />
		<tag k="place" v="farm" />
		<tag k="ssr:stedsnr" v="379715" />
	</node>
	<node lat="66.1729666686985" lon="12.933925002991042" id="-9620">
		<tag k="name" v="Ytterhus" />
		<tag k="place" v="farm" />
		<tag k="ssr:stedsnr" v="379785" />
	</node>
	<node lat="66.22877222510525" lon="12.781738894910239" id="-9625">
		<tag k="name" v="Dalen" />
		<tag k="place" v="farm" />
		<tag k="ssr:stedsnr" v="379810" />
	</node>
	<node lat="66.18605429288687" lon="13.08929735928222" id="-9628">
		<tag k="name" v="Strand" />
		<tag k="place" v="hamlet" />
		<tag k="ssr:stedsnr" v="403309" />
	</node>
	<node lat="66.24694722169026" lon="13.045369443021533" id="-9636">
		<tag k="name" v="Breiremma" />
		<tag k="place" v="locality" />
		<tag k="ssr:stedsnr" v="409207" />
	</node>
	<node lat="66.27034444792204" lon="12.740572227958086" id="-9643">
		<tag k="name" v="Nordmo" />
		<tag k="place" v="farm" />
		<tag k="ssr:stedsnr" v="409798" />
	</node>
	<node lat="66.25286666517664" lon="13.070974998325426" id="-9646">
		<tag k="name" v="Lyngås" />
		<tag k="place" v="farm" />
		<tag k="ssr:stedsnr" v="410097" />
	</node>
	<node lat="66.1962055596339" lon="13.020508332756114" id="-9650">
		<tag k="name" v="Bjerkly" />
		<tag k="place" v="farm" />
		<tag k="ssr:stedsnr" v="411823" />
	</node>
	<node lat="66.23794256928343" lon="13.018069105188916" id="-9656">
		<tag k="fixme" v="consider place=hamlet" />
		<tag k="name" v="Riksa" />
		<tag k="place" v="farm" />
		<tag k="ssr:stedsnr" v="440812" />
	</node>
	<node lat="66.24412794302451" lon="13.035068232679647" id="-9657">
		<tag k="fixme" v="consider place=hamlet" />
		<tag k="name" v="Hines" />
		<tag k="place" v="farm" />
		<tag k="ssr:stedsnr" v="440813" />
	</node>
	<node lat="66.20005602408133" lon="12.962562352269213" id="-9659">
		<tag k="fixme" v="consider place=hamlet" />
		<tag k="name" v="Vik" />
		<tag k="place" v="farm" />
		<tag k="ssr:stedsnr" v="440740" />
	</node>
	<node lat="66.16805277436686" lon="12.86870834362821" id="-9663">
		<tag k="name" v="Anggårdan" />
		<tag k="place" v="farm" />
		<tag k="ssr:stedsnr" v="440795" />
	</node>
	<node lat="66.23971944861164" lon="12.855813885859494" id="-9664">
		<tag k="name" v="Vollan" />
		<tag k="place" v="farm" />
		<tag k="ssr:stedsnr" v="440800" />
	</node>
	<node lat="66.27034444647477" lon="13.126611107590128" id="-9670">
		<tag k="alt_name" v="Stranda" />
		<tag k="name" v="Stranden" />
		<tag k="place" v="farm" />
		<tag k="ssr:stedsnr" v="441738" />
	</node>
	<node lat="66.25769043169494" lon="13.084265527461014" id="-9686">
		<tag k="alt_name" v="Steiro" />
		<tag k="fixme" v="consider place=hamlet" />
		<tag k="name" v="Steira" />
		<tag k="place" v="farm" />
		<tag k="ssr:stedsnr" v="501716" />
	</node>
	<node lat="66.26223888679138" lon="12.731736119074366" id="-9693">
		<tag k="name" v="Tommeidet" />
		<tag k="place" v="farm" />
		<tag k="ssr:stedsnr" v="502733" />
	</node>
	<node lat="66.24727777854594" lon="12.71145277794104" id="-9697">
		<tag k="name" v="Kvervan" />
		<tag k="place" v="isolated_dwelling" />
		<tag k="ssr:stedsnr" v="682782" />
	</node>
	<node lat="66.24781272694139" lon="12.964066425733174" id="-9698">
		<tag k="fixme" v="consider place=hamlet" />
		<tag k="name" v="Valla" />
		<tag k="place" v="farm" />
		<tag k="ssr:stedsnr" v="683602" />
	</node>
	<node lat="66.23648333470778" lon="13.009227767886227" id="-9710">
		<tag k="name" v="Indre Seim" />
		<tag k="place" v="farm" />
		<tag k="ssr:stedsnr" v="530206" />
	</node>
	<node lat="66.18038888829051" lon="13.069566658843813" id="-9714">
		<tag k="name" v="Ura" />
		<tag k="place" v="farm" />
		<tag k="ssr:stedsnr" v="531123" />
	</node>
	<node lat="66.20251944607332" lon="13.044236121025273" id="-9725">
		<tag k="name" v="Utsyn" />
		<tag k="place" v="isolated_dwelling" />
		<tag k="ssr:stedsnr" v="532872" />
	</node>
	<node lat="66.20111667088139" lon="13.041138897140591" id="-9726">
		<tag k="name" v="Bergtun" />
		<tag k="place" v="farm" />
		<tag k="ssr:stedsnr" v="532875" />
	</node>
	<node lat="66.25387777887705" lon="13.07833333189037" id="-9731">
		<tag k="name" v="Seljelund" />
		<tag k="place" v="farm" />
		<tag k="ssr:stedsnr" v="591006" />
	</node>
	<node lat="66.2384261273298" lon="13.117359208074767" id="-9750">
		<tag k="fixme" v="consider place=hamlet" />
		<tag k="name" v="Huske" />
		<tag k="place" v="farm" />
		<tag k="ssr:stedsnr" v="622816" />
	</node>
	<node lat="66.1795805570153" lon="12.957358327781831" id="-9751">
		<tag k="name" v="Rogn" />
		<tag k="place" v="farm" />
		<tag k="ssr:stedsnr" v="622769" />
	</node>
	<node lat="66.25896666340152" lon="13.09292223249026" id="-9757">
		<tag k="name" v="Høyrem" />
		<tag k="place" v="farm" />
		<tag k="ssr:stedsnr" v="651037" />
	</node>
	<node lat="66.23615833253527" lon="13.008141675679866" id="-9762">
		<tag k="name" v="Ytre Seim" />
		<tag k="place" v="farm" />
		<tag k="ssr:stedsnr" v="651193" />
	</node>
	<node lat="66.22148332996503" lon="12.781427785781881" id="-9765">
		<tag k="name" v="Røyskattmoen" />
		<tag k="place" v="farm" />
		<tag k="ssr:stedsnr" v="651343" />
	</node>
	<node lat="66.19125277424388" lon="12.953466670878791" id="-9782">
		<tag k="amenity" v="school" />
		<tag k="name" v="Hugla skole" />
		<tag k="ssr:stedsnr" v="653391" />
	</node>
	<node lat="66.19638611288059" lon="13.035311104831537" id="-9784">
		<tag k="name" v="Sørvollen" />
		<tag k="place" v="farm" />
		<tag k="ssr:stedsnr" v="653842" />
	</node>
	<node lat="66.29101059345587" lon="12.856014157249584" id="-9788">
		<tag k="fixme" v="consider place=hamlet" />
		<tag k="name" v="Sellåt" />
		<tag k="place" v="farm" />
		<tag k="ssr:stedsnr" v="683672" />
	</node>
	<node lat="66.24749277658547" lon="13.050385477118873" id="-9794">
		<tag k="fixme" v="consider place=hamlet" />
		<tag k="name" v="Stokka" />
		<tag k="place" v="farm" />
		<tag k="ssr:stedsnr" v="683800" />
	</node>
	<node lat="66.26019722170473" lon="13.095986114037883" id="-9799">
		<tag k="name" v="Bjerkli" />
		<tag k="place" v="farm" />
		<tag k="ssr:stedsnr" v="894030" />
	</node>
	<node lat="66.25639444570785" lon="13.085372230318466" id="-9819">
		<tag k="name" v="Steiravollen" />
		<tag k="place" v="farm" />
		<tag k="ssr:stedsnr" v="712034" />
	</node>
	<node lat="66.17381831570383" lon="12.869928026297972" id="-9839">
		<tag k="fixme" v="consider place=hamlet" />
		<tag k="name" v="Hugla" />
		<tag k="place" v="farm" />
		<tag k="ssr:stedsnr" v="743790" />
	</node>
	<node lat="66.24186271335155" lon="13.136008881154725" id="-9840">
		<tag k="alt_name" v="Remma" />
		<tag k="fixme" v="consider place=hamlet" />
		<tag k="name" v="Remmå" />
		<tag k="place" v="farm" />
		<tag k="ssr:stedsnr" v="743826" />
	</node>
	<node lat="66.27186111379821" lon="12.89112222978823" id="-9842">
		<tag k="name" v="Forslandsvika" />
		<tag k="place" v="farm" />
		<tag k="ssr:stedsnr" v="744682" />
	</node>
	<node lat="66.27270832913172" lon="13.136419439189975" id="-9845">
		<tag k="name" v="Bergtun" />
=======
<osm generator="osmapis" version="0.6">
	<node id="-147454" lat="66.247225001" lon="12.7578472228">
		<tag k="name" v="Nerstua" />
		<tag k="place" v="farm" />
		<tag k="ssr:stedsnr" v="531190" />
	</node>
	<node id="-147960" lat="66.2698500023" lon="13.1917666621">
		<tag k="name" v="Låvhaugen" />
		<tag k="place" v="farm" />
		<tag k="ssr:stedsnr" v="348001" />
	</node>
	<node id="-147447" lat="66.2757111113" lon="13.1496555665">
		<tag k="name" v="Skaganes" />
		<tag k="place" v="farm" />
		<tag k="ssr:stedsnr" v="530777" />
	</node>
	<node id="-147444" lat="66.2856128471" lon="13.0767985414">
		<tag k="fixme" v="multiple name tags, choose one and add the other to alt_name" />
		<tag k="name" v="Hagen;Handsteinhagen" />
		<tag k="place" v="locality" />
		<tag k="ssr:stedsnr" v="530755" />
	</node>
	<node id="-147953" lat="66.2676410436" lon="12.881959503">
		<tag k="fixme" v="consider place=hamlet" />
		<tag k="name" v="Forsland" />
		<tag k="place" v="farm" />
		<tag k="ssr:stedsnr" v="320725" />
	</node>
	<node id="-147438" lat="66.2364833347" lon="13.0092277679">
		<tag k="name" v="Indre Seim" />
		<tag k="place" v="farm" />
		<tag k="ssr:stedsnr" v="530206" />
	</node>
	<node id="-147949" lat="66.2142979449" lon="13.0685453323">
		<tag k="alt_name" v="Slettstranda" />
		<tag k="fixme" v="consider place=hamlet" />
		<tag k="name" v="Slettstrand" />
		<tag k="place" v="farm" />
		<tag k="ssr:stedsnr" v="319850" />
	</node>
	<node id="-147947" lat="66.2226999999" lon="12.8263972259">
		<tag k="name" v="Tinghaugen" />
		<tag k="place" v="farm" />
		<tag k="ssr:stedsnr" v="319834" />
	</node>
	<node id="-147945" lat="66.2222694403" lon="12.8057416561">
		<tag k="alt_name" v="Ossletta" />
		<tag k="name" v="Ossletten" />
		<tag k="place" v="farm" />
		<tag k="ssr:stedsnr" v="319823" />
	</node>
	<node id="-147943" lat="66.2768451985" lon="13.217401314">
		<tag k="alt_name" v="Einmo" />
		<tag k="fixme" v="consider place=hamlet" />
		<tag k="name" v="Einmoen" />
		<tag k="place" v="farm" />
		<tag k="ssr:stedsnr" v="319775" />
	</node>
	<node id="-147694" lat="66.2208166676" lon="12.776705556">
		<tag k="name" v="Kleiva" />
		<tag k="place" v="farm" />
		<tag k="ssr:stedsnr" v="926832" />
	</node>
	<node id="-147428" lat="66.2478127269" lon="12.9640664257">
		<tag k="fixme" v="consider place=hamlet" />
		<tag k="name" v="Valla" />
		<tag k="place" v="farm" />
		<tag k="ssr:stedsnr" v="683602" />
	</node>
	<node id="-147939" lat="66.2615444418" lon="13.0974250005">
		<tag k="name" v="Fjellstad" />
		<tag k="place" v="farm" />
		<tag k="ssr:stedsnr" v="319744" />
	</node>
	<node id="-147938" lat="66.2623583329" lon="12.9828166662">
		<tag k="name" v="Nymoen" />
		<tag k="place" v="farm" />
		<tag k="ssr:stedsnr" v="319741" />
	</node>
	<node id="-147425" lat="66.2910105935" lon="12.8560141572">
		<tag k="fixme" v="consider place=hamlet" />
		<tag k="name" v="Sellåt" />
		<tag k="place" v="farm" />
		<tag k="ssr:stedsnr" v="683672" />
	</node>
	<node id="-147935" lat="66.2629972233" lon="13.1545888846">
		<tag k="name" v="Asplund" />
		<tag k="place" v="farm" />
		<tag k="ssr:stedsnr" v="319618" />
	</node>
	<node id="-147422" lat="66.2472777785" lon="12.7114527779">
		<tag k="name" v="Kvervan" />
		<tag k="place" v="isolated_dwelling" />
		<tag k="ssr:stedsnr" v="682782" />
	</node>
	<node id="-147931" lat="66.2484722254" lon="12.7588305655">
		<tag k="name" v="Tomsvika" />
		<tag k="place" v="farm" />
		<tag k="ssr:stedsnr" v="318934" />
	</node>
	<node id="-147417" lat="66.2622388868" lon="12.7317361191">
		<tag k="name" v="Tommeidet" />
		<tag k="place" v="farm" />
		<tag k="ssr:stedsnr" v="502733" />
	</node>
	<node id="-147416" lat="66.2576904317" lon="13.0842655275">
		<tag k="alt_name" v="Steiro" />
		<tag k="fixme" v="consider place=hamlet" />
		<tag k="name" v="Steira" />
		<tag k="place" v="farm" />
		<tag k="ssr:stedsnr" v="501716" />
	</node>
	<node id="-147413" lat="66.295597225" lon="12.8183027831">
		<tag k="alt_name" v="Valvika" />
		<tag k="name" v="Valvik" />
		<tag k="place" v="farm" />
		<tag k="ssr:stedsnr" v="501664" />
	</node>
	<node id="-147924" lat="66.1912611076" lon="12.9571055654">
		<tag k="name" v="Myra" />
		<tag k="place" v="farm" />
		<tag k="ssr:stedsnr" v="318796" />
	</node>
	<node id="-147922" lat="66.1828027817" lon="12.9478777748">
		<tag k="name" v="Remman" />
		<tag k="place" v="farm" />
		<tag k="ssr:stedsnr" v="318792" />
	</node>
	<node id="-147406" lat="66.244127943" lon="13.0350682327">
		<tag k="fixme" v="consider place=hamlet" />
		<tag k="name" v="Hines" />
		<tag k="place" v="farm" />
		<tag k="ssr:stedsnr" v="440813" />
	</node>
	<node id="-147405" lat="66.2379425693" lon="13.0180691052">
		<tag k="fixme" v="consider place=hamlet" />
		<tag k="name" v="Riksa" />
		<tag k="place" v="farm" />
		<tag k="ssr:stedsnr" v="440812" />
	</node>
	<node id="-147403" lat="66.2397194486" lon="12.8558138859">
		<tag k="name" v="Vollan" />
		<tag k="place" v="farm" />
		<tag k="ssr:stedsnr" v="440800" />
	</node>
	<node id="-147402" lat="66.1680527744" lon="12.8687083436">
		<tag k="name" v="Anggårdan" />
		<tag k="place" v="farm" />
		<tag k="ssr:stedsnr" v="440795" />
	</node>
	<node id="-147401" lat="66.1849325127" lon="13.0808242003">
		<tag k="alt_name" v="Strand-Nedre" />
		<tag k="fixme" v="consider place=hamlet" />
		<tag k="name" v="Nedre Strand" />
		<tag k="place" v="farm" />
		<tag k="ssr:stedsnr" v="440770" />
	</node>
	<node id="-147400" lat="66.1880435145" lon="13.0930955367">
		<tag k="alt_name" v="Strand-Øvre" />
		<tag k="fixme" v="consider place=hamlet" />
		<tag k="name" v="Øvre Strand" />
		<tag k="place" v="farm" />
		<tag k="ssr:stedsnr" v="440769" />
	</node>
	<node id="-147908" lat="66.2498445547" lon="13.1622824441">
		<tag k="fixme" v="consider place=hamlet" />
		<tag k="name" v="Skog" />
		<tag k="place" v="farm" />
		<tag k="ssr:stedsnr" v="198629" />
	</node>
	<node id="-147907" lat="66.2525833364" lon="12.9646916676">
		<tag k="name" v="Slettmo" />
		<tag k="place" v="farm" />
		<tag k="ssr:stedsnr" v="198622" />
	</node>
	<node id="-147391" lat="66.185380557" lon="13.0866194415">
		<tag k="fixme" v="consider place=hamlet" />
		<tag k="name" v="Strand" />
		<tag k="place" v="farm" />
		<tag k="ssr:stedsnr" v="403309" />
	</node>
	<node id="-147899" lat="66.2338462366" lon="12.9890431278">
		<tag k="fixme" v="consider place=hamlet" />
		<tag k="name" v="Saura" />
		<tag k="place" v="farm" />
		<tag k="ssr:stedsnr" v="197848" />
	</node>
	<node id="-147381" lat="66.2017972222" lon="13.046994445">
		<tag k="name" v="Utheim" />
		<tag k="place" v="farm" />
		<tag k="ssr:stedsnr" v="501754" />
	</node>
	<node id="-147892" lat="66.1788944431" lon="12.9439055587">
		<tag k="name" v="Gryttingen" />
		<tag k="place" v="farm" />
		<tag k="ssr:stedsnr" v="167897" />
	</node>
	<node id="-148397" lat="66.2006171874" lon="13.039130345">
		<tag k="fixme" v="consider place=hamlet" />
		<tag k="name" v="Øvre Nesna" />
		<tag k="place" v="farm" />
		<tag k="ssr:stedsnr" v="1073113" />
	</node>
	<node id="-148396" lat="66.1936592962" lon="13.0173450993">
		<tag k="fixme" v="consider place=hamlet" />
		<tag k="name" v="Nesna" />
		<tag k="place" v="farm" />
		<tag k="ssr:stedsnr" v="1073112" />
	</node>
	<node id="-148395" lat="66.185424436" lon="12.9544998587">
		<tag k="fixme" v="consider place=hamlet" />
		<tag k="name" v="Nordbustad" />
		<tag k="place" v="farm" />
		<tag k="ssr:stedsnr" v="1073067" />
	</node>
	<node id="-148394" lat="66.1691582185" lon="12.9726170126">
		<tag k="fixme" v="consider place=hamlet" />
		<tag k="name" v="Feøya" />
		<tag k="place" v="farm" />
		<tag k="ssr:stedsnr" v="1073066" />
	</node>
	<node id="-148393" lat="66.2238370407" lon="12.8283100143">
		<tag k="fixme" v="consider place=hamlet" />
		<tag k="name" v="Alsøy" />
		<tag k="place" v="farm" />
		<tag k="ssr:stedsnr" v="1073061" />
	</node>
	<node id="-147868" lat="66.2708777777" lon="12.7386472237">
		<tag k="name" v="Vestvoll" />
		<tag k="place" v="farm" />
		<tag k="ssr:stedsnr" v="166800" />
	</node>
	<node id="-148389" lat="66.185283329" lon="12.9501583398">
		<tag k="name" v="Storvoll" />
		<tag k="place" v="isolated_dwelling" />
		<tag k="ssr:stedsnr" v="957395" />
	</node>
	<node id="-148386" lat="66.2507055558" lon="12.8829027834">
		<tag k="name" v="Nerstaulan" />
		<tag k="place" v="locality" />
		<tag k="ssr:stedsnr" v="956914" />
	</node>
	<node id="-147357" lat="66.2594416689" lon="13.0937194487">
		<tag k="name" v="Kvellro" />
		<tag k="place" v="farm" />
		<tag k="ssr:stedsnr" v="348024" />
	</node>
	<node id="-148380" lat="66.2299055535" lon="12.9773027684">
		<tag k="name" v="Ørnes" />
		<tag k="place" v="farm" />
		<tag k="ssr:stedsnr" v="956195" />
	</node>
	<node id="-147863" lat="66.2348555545" lon="13.007530552">
		<tag k="name" v="Solheim" />
		<tag k="place" v="farm" />
		<tag k="ssr:stedsnr" v="166184" />
	</node>
	<node id="-147859" lat="66.2538666702" lon="13.0749750108">
		<tag k="name" v="Nygård" />
		<tag k="place" v="farm" />
		<tag k="ssr:stedsnr" v="166005" />
	</node>
	<node id="-147855" lat="66.2670203378" lon="13.1142446584">
		<tag k="fixme" v="consider place=hamlet" />
		<tag k="name" v="Øbø" />
		<tag k="place" v="farm" />
		<tag k="ssr:stedsnr" v="137714" />
	</node>
	<node id="-148205" lat="66.2259416692" lon="12.8251250065">
		<tag k="name" v="Nordheim" />
		<tag k="place" v="farm" />
		<tag k="ssr:stedsnr" v="651354" />
	</node>
	<node id="-148364" lat="66.2224444466" lon="12.8282027811">
		<tag k="name" v="Fløta" />
		<tag k="place" v="farm" />
		<tag k="ssr:stedsnr" v="955344" />
	</node>
	<node id="-148290" lat="66.248499996" lon="12.8853972297">
		<tag k="name" v="Nerskiftet" />
		<tag k="place" v="farm" />
		<tag k="ssr:stedsnr" v="804928" />
	</node>
	<node id="-147850" lat="66.2710111068" lon="12.7429472282">
		<tag k="name" v="Strenggjerdet" />
		<tag k="place" v="farm" />
		<tag k="ssr:stedsnr" v="137669" />
	</node>
	<node id="-148357" lat="66.2856423501" lon="13.1421942848">
		<tag k="name" v="Juvika" />
		<tag k="place" v="locality" />
		<tag k="ssr:stedsnr" v="874784" />
	</node>
	<node id="-147331" lat="66.2531555557" lon="13.0722194445">
		<tag k="name" v="Litleeng" />
		<tag k="place" v="farm" />
		<tag k="ssr:stedsnr" v="470086" />
	</node>
	<node id="-148351" lat="66.2525722186" lon="13.12335">
		<tag k="name" v="Skog" />
		<tag k="place" v="farm" />
		<tag k="ssr:stedsnr" v="866620" />
	</node>
	<node id="-147838" lat="66.2323833303" lon="12.9262583339">
		<tag k="name" v="Nedre Handnes" />
		<tag k="place" v="farm" />
		<tag k="ssr:stedsnr" v="136844" />
	</node>
	<node id="-147325" lat="66.2631833371" lon="13.1082111033">
		<tag k="name" v="Skogstad" />
		<tag k="place" v="farm" />
		<tag k="ssr:stedsnr" v="469048" />
	</node>
	<node id="-148348" lat="66.2230888932" lon="12.8384361123">
		<tag k="name" v="Klauva" />
		<tag k="place" v="farm" />
		<tag k="ssr:stedsnr" v="865847" />
	</node>
	<node id="-148347" lat="66.229158335" lon="12.933105553">
		<tag k="name" v="Nordstrand" />
		<tag k="place" v="farm" />
		<tag k="ssr:stedsnr" v="865837" />
	</node>
	<node id="-147319" lat="66.2356333307" lon="12.9332777884">
		<tag k="name" v="Nakken" />
		<tag k="place" v="farm" />
		<tag k="ssr:stedsnr" v="289119" />
	</node>
	<node id="-148340" lat="66.2845055563" lon="13.2326861166">
		<tag k="alt_name" v="Lillevik" />
		<tag k="name" v="Litlvika" />
		<tag k="place" v="farm" />
		<tag k="ssr:stedsnr" v="865781" />
	</node>
	<node id="-147313" lat="66.2809638922" lon="13.1666333277">
		<tag k="name" v="Nyheim" />
		<tag k="place" v="farm" />
		<tag k="ssr:stedsnr" v="288769" />
	</node>
	<node id="-147673" lat="66.2679305555" lon="13.1867388975">
		<tag k="name" v="Frostheim" />
		<tag k="place" v="farm" />
		<tag k="ssr:stedsnr" v="834005" />
	</node>
	<node id="-147818" lat="66.2480055518" lon="12.7523638819">
		<tag k="name" v="Remmen" />
		<tag k="place" v="farm" />
		<tag k="ssr:stedsnr" v="106961" />
	</node>
	<node id="-147817" lat="66.2492888896" lon="12.7580333341">
		<tag k="name" v="Øverstua" />
		<tag k="place" v="farm" />
		<tag k="ssr:stedsnr" v="106959" />
	</node>
	<node id="-147304" lat="66.2701000015" lon="12.886949999">
		<tag k="fixme" v="multiple name tags, choose one and add the other to alt_name" />
		<tag k="name" v="Hatten;Minnet" />
		<tag k="place" v="farm" />
		<tag k="ssr:stedsnr" v="259714" />
	</node>
	<node id="-147302" lat="66.2602416642" lon="12.7267222213">
		<tag k="name" v="Nytun" />
		<tag k="place" v="farm" />
		<tag k="ssr:stedsnr" v="259707" />
	</node>
	<node id="-148323" lat="66.2478861157" lon="12.7600611104">
		<tag k="name" v="Borterstua" />
		<tag k="place" v="farm" />
		<tag k="ssr:stedsnr" v="835198" />
	</node>
	<node id="-147297" lat="66.2477305599" lon="13.1477111125">
		<tag k="name" v="Sæter" />
		<tag k="place" v="isolated_dwelling" />
		<tag k="ssr:stedsnr" v="258816" />
	</node>
	<node id="-147806" lat="66.2300888863" lon="12.7801222132">
		<tag k="name" v="Nordstad" />
		<tag k="place" v="farm" />
		<tag k="ssr:stedsnr" v="106662" />
	</node>
	<node id="-147292" lat="66.2607885315" lon="13.1026093073">
		<tag k="name" v="Litlsteiro" />
		<tag k="place" v="farm" />
		<tag k="ssr:stedsnr" v="258756" />
	</node>
	<node id="-147598" lat="66.2415861099" lon="13.1265416657">
		<tag k="alt_name" v="Huskebakken" />
		<tag k="name" v="Huskebakk" />
>>>>>>> e1d4bc35ff8a6074a6f2e91616a996b547c36f15
		<tag k="place" v="farm" />
		<tag k="ssr:stedsnr" v="744708" />
	</node>
<<<<<<< HEAD
	<node lat="66.21833889028059" lon="12.825288896654572" id="-9849">
		<tag k="name" v="Sørvollan" />
		<tag k="place" v="farm" />
		<tag k="ssr:stedsnr" v="773370" />
	</node>
	<node lat="66.21409444808353" lon="13.058280550753398" id="-9858">
		<tag k="name" v="Skogheim" />
		<tag k="place" v="farm" />
		<tag k="ssr:stedsnr" v="774410" />
	</node>
	<node lat="66.23674722096007" lon="12.929019453030904" id="-9864">
		<tag k="alt_name" v="Ramstø" />
		<tag k="name" v="Ranstø" />
		<tag k="place" v="farm" />
		<tag k="ssr:stedsnr" v="804819" />
	</node>
	<node lat="66.18717221958723" lon="13.018208324158591" id="-9871">
		<tag k="name" v="Langstrand" />
		<tag k="place" v="farm" />
		<tag k="ssr:stedsnr" v="804779" />
	</node>
	<node lat="66.18248333079251" lon="12.954047231331336" id="-9884">
		<tag k="name" v="Bryllupsvollen" />
		<tag k="place" v="farm" />
		<tag k="ssr:stedsnr" v="925843" />
	</node>
	<node lat="66.22081666759298" lon="12.776705556042486" id="-9891">
		<tag k="name" v="Kleiva" />
		<tag k="place" v="farm" />
		<tag k="ssr:stedsnr" v="926832" />
	</node>
	<node lat="66.26400555640848" lon="12.726227773527985" id="-9899">
		<tag k="name" v="Nergården" />
		<tag k="place" v="farm" />
		<tag k="ssr:stedsnr" v="927714" />
	</node>
	<node lat="66.26687221837356" lon="12.886199990173276" id="-9900">
		<tag k="name" v="Nergården" />
		<tag k="place" v="farm" />
		<tag k="ssr:stedsnr" v="927721" />
	</node>
	<node lat="66.25713333158437" lon="13.18208055705255" id="-9903">
		<tag k="name" v="Remhaug" />
		<tag k="place" v="farm" />
		<tag k="ssr:stedsnr" v="894075" />
	</node>
	<node lat="66.22530833335217" lon="12.770894441230908" id="-9906">
		<tag k="amenity" v="school" />
		<tag k="name" v="Tomma skole" />
		<tag k="ssr:stedsnr" v="895307" />
	</node>
	<node lat="66.18126111333605" lon="13.074330546601708" id="-9920">
		<tag k="name" v="Fredheim" />
		<tag k="place" v="farm" />
		<tag k="ssr:stedsnr" v="925840" />
	</node>
	<node lat="66.25155277381636" lon="13.065711119450876" id="-9923">
		<tag k="name" v="Skogheim" />
		<tag k="place" v="farm" />
		<tag k="ssr:stedsnr" v="926628" />
	</node>
	<node lat="66.2123111071693" lon="12.811472222331327" id="-9929">
		<tag k="name" v="Tingvollen" />
		<tag k="place" v="isolated_dwelling" />
		<tag k="ssr:stedsnr" v="926859" />
	</node>
	<node lat="66.22244444655432" lon="12.828202781111493" id="-9935">
		<tag k="name" v="Fløta" />
		<tag k="place" v="farm" />
		<tag k="ssr:stedsnr" v="955344" />
	</node>
	<node lat="66.22990555347226" lon="12.977302768400188" id="-9937">
		<tag k="name" v="Ørnes" />
		<tag k="place" v="farm" />
		<tag k="ssr:stedsnr" v="956195" />
	</node>
	<node lat="66.25070555584101" lon="12.882902783446763" id="-9943">
		<tag k="name" v="Nerstaulan" />
		<tag k="place" v="locality" />
		<tag k="ssr:stedsnr" v="956914" />
	</node>
	<node lat="66.18528332895927" lon="12.950158339831512" id="-9946">
		<tag k="name" v="Storvoll" />
		<tag k="place" v="isolated_dwelling" />
		<tag k="ssr:stedsnr" v="957395" />
	</node>
	<node lat="66.26518888931673" lon="13.11505832756037" id="-9950">
		<tag k="name" v="Solvang" />
		<tag k="place" v="farm" />
		<tag k="ssr:stedsnr" v="229020" />
	</node>
	<node lat="66.24662255797062" lon="12.884378045201652" id="-9955">
		<tag k="alt_name" v="Skjefstad" />
		<tag k="fixme" v="consider place=hamlet" />
		<tag k="name" v="Skeivstad" />
		<tag k="place" v="farm" />
		<tag k="ssr:stedsnr" v="15932" />
	</node>
	<node lat="66.25892153457214" lon="13.18158853589995" id="-9959">
		<tag k="name" v="Engen" />
		<tag k="place" v="farm" />
		<tag k="ssr:stedsnr" v="16594" />
	</node>
	<node lat="66.265286107714" lon="12.886711103429331" id="-9964">
		<tag k="name" v="Åneset" />
		<tag k="place" v="farm" />
		<tag k="ssr:stedsnr" v="16697" />
	</node>
	<node lat="66.27018720171078" lon="12.995719340036617" id="-9965">
		<tag k="fixme" v="consider place=hamlet" />
		<tag k="name" v="Handstein" />
		<tag k="place" v="farm" />
		<tag k="ssr:stedsnr" v="16706" />
	</node>
	<node lat="66.27536779240492" lon="13.145010608343886" id="-9968">
		<tag k="fixme" v="consider place=hamlet" />
		<tag k="name" v="Skaga" />
		<tag k="place" v="farm" />
		<tag k="ssr:stedsnr" v="16713" />
	</node>
	<node lat="66.26835833134173" lon="13.179950005632943" id="-9969">
		<tag k="name" v="Solheim" />
		<tag k="place" v="farm" />
		<tag k="ssr:stedsnr" v="16718" />
	</node>
	<node lat="66.2583111094314" lon="13.090944440497308" id="-9972">
		<tag k="name" v="Remman" />
		<tag k="place" v="farm" />
		<tag k="ssr:stedsnr" v="16728" />
	</node>
	<node lat="66.25373333367503" lon="13.176902766874482" id="-9979">
		<tag k="name" v="Høgsås" />
		<tag k="place" v="farm" />
		<tag k="ssr:stedsnr" v="44041" />
	</node>
	<node lat="66.21848889271538" lon="13.07582499795773" id="-9986">
		<tag k="name" v="Nyrud" />
		<tag k="place" v="farm" />
		<tag k="ssr:stedsnr" v="45260" />
	</node>
	<node lat="66.26777222564984" lon="12.87984444821791" id="-9996">
		<tag k="name" v="Moen" />
		<tag k="place" v="farm" />
		<tag k="ssr:stedsnr" v="45914" />
	</node>
	<node lat="66.2259499990113" lon="12.775172224278938" id="-10006">
		<tag k="name" v="Borgtun" />
		<tag k="place" v="farm" />
		<tag k="ssr:stedsnr" v="46341" />
	</node>
	<node lat="66.20411666525237" lon="13.037097221495937" id="-10014">
		<tag k="name" v="Nordnes" />
		<tag k="place" v="farm" />
		<tag k="ssr:stedsnr" v="76746" />
	</node>
	<node lat="66.1918574971617" lon="13.131575607290577" id="-10015">
		<tag k="fixme" v="consider place=hamlet" />
		<tag k="name" v="Hammarøya" />
		<tag k="place" v="farm" />
		<tag k="ssr:stedsnr" v="76774" />
	</node>
	<node lat="66.18082336853249" lon="13.072836284213079" id="-10017">
		<tag k="alt_name" v="Strand-Nedre;Nedre Strand" />
		<tag k="name" v="Strandheim" />
		<tag k="place" v="farm" />
		<tag k="ssr:stedsnr" v="76778" />
	</node>
	<node lat="66.24914999960103" lon="12.954141670774478" id="-10019">
		<tag k="name" v="Skjåberget" />
		<tag k="place" v="farm" />
		<tag k="ssr:stedsnr" v="76920" />
	</node>
	<node lat="66.24883055269291" lon="12.878566663307172" id="-10020">
		<tag k="name" v="Gjerde" />
		<tag k="place" v="farm" />
		<tag k="ssr:stedsnr" v="76922" />
	</node>
	<node lat="66.22874722655054" lon="12.921394448529293" id="-10034">
		<tag k="name" v="Handnesneset" />
		<tag k="place" v="hamlet" />
		<tag k="ssr:stedsnr" v="107111" />
	</node>
	<node lat="66.24928888957055" lon="12.758033334143391" id="-10041">
		<tag k="name" v="Øverstua" />
		<tag k="place" v="farm" />
		<tag k="ssr:stedsnr" v="106959" />
	</node>
	<node lat="66.24800555178645" lon="12.752363881943186" id="-10042">
		<tag k="name" v="Remmen" />
		<tag k="place" v="farm" />
		<tag k="ssr:stedsnr" v="106961" />
	</node>
	<node lat="66.21243055797814" lon="12.956616669926825" id="-10048">
		<tag k="alt_name" v="Svalenga" />
		<tag k="name" v="Svaleng" />
		<tag k="place" v="farm" />
		<tag k="ssr:stedsnr" v="136872" />
	</node>
	<node lat="66.23238333029478" lon="12.926258333852587" id="-10052">
		<tag k="name" v="Nedre Handnes" />
		<tag k="place" v="farm" />
		<tag k="ssr:stedsnr" v="136844" />
	</node>
	<node lat="66.27101110678768" lon="12.742947228222615" id="-10056">
		<tag k="name" v="Strenggjerdet" />
		<tag k="place" v="farm" />
		<tag k="ssr:stedsnr" v="137669" />
	</node>
	<node lat="66.26702033776992" lon="13.114244658415945" id="-10061">
		<tag k="fixme" v="consider place=hamlet" />
		<tag k="name" v="Øbø" />
		<tag k="place" v="farm" />
		<tag k="ssr:stedsnr" v="137714" />
	</node>
	<node lat="66.23485555445029" lon="13.00753055204318" id="-10068">
		<tag k="name" v="Solheim" />
		<tag k="place" v="farm" />
		<tag k="ssr:stedsnr" v="166184" />
	</node>
	<node lat="66.17889444314031" lon="12.943905558706984" id="-10075">
		<tag k="name" v="Gryttingen" />
		<tag k="place" v="farm" />
		<tag k="ssr:stedsnr" v="167897" />
	</node>
	<node lat="66.27109166446955" lon="13.131883335243419" id="-10080">
		<tag k="name" v="Køvik" />
=======
	<node id="-147282" lat="66.2440277776" lon="12.8764749961">
		<tag k="name" v="Stranda" />
		<tag k="place" v="farm" />
		<tag k="ssr:stedsnr" v="228215" />
	</node>
	<node id="-147789" lat="66.2488305527" lon="12.8785666633">
		<tag k="name" v="Gjerde" />
		<tag k="place" v="farm" />
		<tag k="ssr:stedsnr" v="76922" />
	</node>
	<node id="-147788" lat="66.2491499996" lon="12.9541416708">
		<tag k="name" v="Skjåberget" />
		<tag k="place" v="farm" />
		<tag k="ssr:stedsnr" v="76920" />
	</node>
	<node id="-147787" lat="66.2087316304" lon="12.9239503215">
		<tag k="alt_name" v="Engan" />
		<tag k="name" v="Enga" />
		<tag k="place" v="locality" />
		<tag k="ssr:stedsnr" v="76855" />
	</node>
	<node id="-147271" lat="66.2703444465" lon="13.1266111076">
		<tag k="alt_name" v="Stranda" />
		<tag k="name" v="Stranden" />
		<tag k="place" v="farm" />
		<tag k="ssr:stedsnr" v="441738" />
	</node>
	<node id="-147780" lat="66.1830527787" lon="13.0803916637">
		<tag k="alt_name" v="Strand-Nedre;Nedre Strand" />
		<tag k="name" v="Strandheim" />
		<tag k="place" v="farm" />
		<tag k="ssr:stedsnr" v="76778" />
	</node>
	<node id="-148291" lat="66.2445694478" lon="12.8658388933">
		<tag k="name" v="Solheim" />
		<tag k="place" v="farm" />
		<tag k="ssr:stedsnr" v="804929" />
	</node>
	<node id="-147778" lat="66.1918574972" lon="13.1315756073">
		<tag k="fixme" v="consider place=hamlet" />
		<tag k="name" v="Hammarøya" />
		<tag k="place" v="farm" />
		<tag k="ssr:stedsnr" v="76774" />
	</node>
	<node id="-147265" lat="66.2538965723" lon="13.1822562452">
		<tag k="fixme" v="consider place=hamlet" />
		<tag k="name" v="Remmen" />
		<tag k="place" v="farm" />
		<tag k="ssr:stedsnr" v="441641" />
	</node>
	<node id="-147262" lat="66.2482430554" lon="13.1440809227">
		<tag k="alt_name" v="Oldersletten" />
		<tag k="fixme" v="consider place=hamlet" />
		<tag k="name" v="Oldersletta" />
		<tag k="place" v="farm" />
		<tag k="ssr:stedsnr" v="440930" />
	</node>
	<node id="-147772" lat="66.2041166653" lon="13.0370972215">
		<tag k="name" v="Nordnes" />
		<tag k="place" v="farm" />
		<tag k="ssr:stedsnr" v="76746" />
	</node>
	<node id="-147679" lat="66.2913361076" lon="12.8579138886">
		<tag k="name" v="Skaråkeren" />
		<tag k="place" v="farm" />
		<tag k="ssr:stedsnr" v="834813" />
	</node>
	<node id="-147255" lat="66.2257861088" lon="13.0916694366">
		<tag k="name" v="Lunde" />
		<tag k="place" v="farm" />
		<tag k="ssr:stedsnr" v="440845" />
	</node>
	<node id="-148278" lat="66.2140944481" lon="13.0582805508">
		<tag k="name" v="Skogheim" />
		<tag k="place" v="farm" />
		<tag k="ssr:stedsnr" v="774410" />
	</node>
	<node id="-147253" lat="66.2340814254" lon="13.1063124047">
		<tag k="fixme" v="consider place=hamlet" />
		<tag k="name" v="Herset" />
		<tag k="place" v="farm" />
		<tag k="ssr:stedsnr" v="440830" />
	</node>
	<node id="-147934" lat="66.2651972202" lon="13.1631722133">
		<tag k="name" v="Nyrud" />
		<tag k="place" v="farm" />
		<tag k="ssr:stedsnr" v="319616" />
	</node>
	<node id="-147250" lat="66.2000560241" lon="12.9625623523">
		<tag k="fixme" v="consider place=hamlet" />
		<tag k="name" v="Vik" />
		<tag k="place" v="farm" />
		<tag k="ssr:stedsnr" v="440740" />
	</node>
	<node id="-147761" lat="66.225949999" lon="12.7751722243">
		<tag k="name" v="Borgtun" />
		<tag k="place" v="farm" />
		<tag k="ssr:stedsnr" v="46341" />
	</node>
	<node id="-147248" lat="66.2627638923" lon="13.1106388915">
		<tag k="alt_name" v="Olderneset" />
		<tag k="name" v="Oldernes" />
		<tag k="place" v="farm" />
		<tag k="ssr:stedsnr" v="440729" />
	</node>
	<node id="-147237" lat="66.2700888856" lon="12.9994750054">
		<tag k="name" v="Handsteinvollen" />
		<tag k="place" v="farm" />
		<tag k="ssr:stedsnr" v="198718" />
	</node>
	<node id="-147235" lat="66.282005552" lon="13.1713527825">
		<tag k="name" v="Kalvgarden" />
		<tag k="place" v="farm" />
		<tag k="ssr:stedsnr" v="198704" />
	</node>
	<node id="-147746" lat="66.2794000015" lon="13.1602444513">
		<tag k="name" v="Moen" />
		<tag k="place" v="farm" />
		<tag k="ssr:stedsnr" v="45970" />
	</node>
	<node id="-148257" lat="66.2483944483" lon="13.0555888872">
		<tag k="name" v="Nesåkeren" />
		<tag k="place" v="farm" />
		<tag k="ssr:stedsnr" v="773201" />
	</node>
	<node id="-148256" lat="66.2409222218" lon="13.0309361069">
		<tag k="name" v="Holtenget" />
		<tag k="place" v="farm" />
		<tag k="ssr:stedsnr" v="773199" />
	</node>
	<node id="-148255" lat="66.2388750038" lon="13.0149888979">
		<tag k="name" v="Melandplassen" />
		<tag k="place" v="locality" />
		<tag k="ssr:stedsnr" v="773196" />
	</node>
	<node id="-148253" lat="66.2183388903" lon="12.8252888967">
		<tag k="name" v="Sørvollan" />
		<tag k="place" v="farm" />
		<tag k="ssr:stedsnr" v="773370" />
	</node>
	<node id="-148250" lat="66.2607916696" lon="13.0971416732">
		<tag k="name" v="Strandheim" />
		<tag k="place" v="locality" />
		<tag k="ssr:stedsnr" v="773039" />
	</node>
	<node id="-148185" lat="66.2603027756" lon="12.7267666619">
		<tag k="name" v="Sandfallet" />
		<tag k="place" v="farm" />
		<tag k="ssr:stedsnr" v="623735" />
	</node>
	<node id="-148241" lat="66.2718611138" lon="12.8911222298">
		<tag k="name" v="Forslandsvika" />
		<tag k="place" v="farm" />
		<tag k="ssr:stedsnr" v="744682" />
	</node>
	<node id="-148240" lat="66.2326052207" lon="12.9361862485">
		<tag k="fixme" v="consider place=hamlet" />
		<tag k="name" v="Handnes" />
		<tag k="place" v="farm" />
		<tag k="ssr:stedsnr" v="743846" />
	</node>
	<node id="-147215" lat="66.2489555601" lon="12.7532666657">
		<tag k="name" v="Tomsvika" />
		<tag k="place" v="farm" />
		<tag k="ssr:stedsnr" v="180163" />
	</node>
	<node id="-147726" lat="66.237697218" lon="13.012219442">
		<tag k="name" v="Plassan" />
		<tag k="place" v="farm" />
		<tag k="ssr:stedsnr" v="45171" />
	</node>
	<node id="-148237" lat="66.1738183157" lon="12.8699280263">
		<tag k="fixme" v="consider place=hamlet" />
		<tag k="name" v="Hugla" />
		<tag k="place" v="farm" />
		<tag k="ssr:stedsnr" v="743790" />
	</node>
	<node id="-148234" lat="66.1963861129" lon="13.0353111048">
		<tag k="name" v="Sørvollen" />
		<tag k="place" v="farm" />
		<tag k="ssr:stedsnr" v="653842" />
	</node>
	<node id="-147208" lat="66.265013885" lon="12.7302805502">
		<tag k="name" v="Bersvollen" />
>>>>>>> e1d4bc35ff8a6074a6f2e91616a996b547c36f15
		<tag k="place" v="farm" />
		<tag k="ssr:stedsnr" v="166774" />
	</node>
<<<<<<< HEAD
	<node lat="66.27087777765958" lon="12.738647223701506" id="-10084">
		<tag k="name" v="Vestvoll" />
		<tag k="place" v="farm" />
		<tag k="ssr:stedsnr" v="166800" />
	</node>
	<node lat="66.23384623662011" lon="12.989043127842802" id="-10110">
		<tag k="fixme" v="consider place=hamlet" />
		<tag k="name" v="Saura" />
		<tag k="place" v="farm" />
		<tag k="ssr:stedsnr" v="197848" />
	</node>
	<node lat="66.27008888562345" lon="12.999475005375023" id="-10112">
		<tag k="name" v="Handsteinvollen" />
		<tag k="place" v="farm" />
		<tag k="ssr:stedsnr" v="198718" />
	</node>
	<node lat="66.22347222541659" lon="12.827074999752352" id="-10130">
		<tag k="name" v="Gården" />
		<tag k="place" v="farm" />
		<tag k="ssr:stedsnr" v="227345" />
	</node>
	<node lat="66.26673055642085" lon="12.725972219924493" id="-10134">
		<tag k="name" v="Stavika" />
		<tag k="place" v="locality" />
		<tag k="ssr:stedsnr" v="227928" />
	</node>
	<node lat="66.28096389221838" lon="13.16663332766634" id="-10145">
		<tag k="name" v="Nyheim" />
		<tag k="place" v="farm" />
		<tag k="ssr:stedsnr" v="288769" />
	</node>
	<node lat="66.2356333306819" lon="12.933277788357682" id="-10148">
		<tag k="name" v="Nakken" />
		<tag k="place" v="farm" />
		<tag k="ssr:stedsnr" v="289119" />
	</node>
	<node lat="66.26299722334026" lon="13.154588884551472" id="-10155">
		<tag k="name" v="Asplund" />
		<tag k="place" v="farm" />
		<tag k="ssr:stedsnr" v="319618" />
	</node>
	<node lat="66.24847222540379" lon="12.758830565494442" id="-10162">
		<tag k="name" v="Tomsvika" />
		<tag k="place" v="farm" />
		<tag k="ssr:stedsnr" v="318934" />
	</node>
	<node lat="66.26519722016437" lon="13.163172213342515" id="-10164">
		<tag k="name" v="Nyrud" />
		<tag k="place" v="farm" />
		<tag k="ssr:stedsnr" v="319616" />
	</node>
	<node lat="66.22269999989105" lon="12.826397225861509" id="-10166">
		<tag k="name" v="Tinghaugen" />
		<tag k="place" v="farm" />
		<tag k="ssr:stedsnr" v="319834" />
	</node>
	<node lat="66.2142979448935" lon="13.068545332292784" id="-10168">
		<tag k="alt_name" v="Slettstranda" />
		<tag k="fixme" v="consider place=hamlet" />
		<tag k="name" v="Slettstrand" />
=======
	<node id="-147201" lat="66.2710916645" lon="13.1318833352">
		<tag k="name" v="Køvik" />
		<tag k="place" v="farm" />
		<tag k="ssr:stedsnr" v="166774" />
	</node>
	<node id="-148220" lat="66.2728277774" lon="13.0088999952">
		<tag k="name" v="Nyheim" />
		<tag k="place" v="farm" />
		<tag k="ssr:stedsnr" v="652745" />
	</node>
	<node id="-147700" lat="66.1898521998" lon="13.0997003396">
		<tag k="fixme" v="consider place=hamlet" />
		<tag k="name" v="Mehus" />
		<tag k="place" v="farm" />
		<tag k="ssr:stedsnr" v="15813" />
	</node>
	<node id="-147187" lat="66.1768305551" lon="13.0306666704">
		<tag k="name" v="Sommarset" />
		<tag k="place" v="farm" />
		<tag k="ssr:stedsnr" v="136803" />
	</node>
	<node id="-147667" lat="66.2640055564" lon="12.7262277735">
		<tag k="name" v="Nergården" />
		<tag k="place" v="farm" />
		<tag k="ssr:stedsnr" v="927714" />
	</node>
	<node id="-148206" lat="66.2637249972" lon="12.7341777703">
		<tag k="name" v="Moen" />
		<tag k="place" v="farm" />
		<tag k="ssr:stedsnr" v="651971" />
	</node>
	<node id="-147181" lat="66.2287472266" lon="12.9213944485">
		<tag k="name" v="Handnesneset" />
		<tag k="place" v="hamlet" />
		<tag k="ssr:stedsnr" v="107111" />
	</node>
	<node id="-148202" lat="66.22148333" lon="12.7814277858">
		<tag k="name" v="Røyskattmoen" />
		<tag k="place" v="farm" />
		<tag k="ssr:stedsnr" v="651343" />
	</node>
	<node id="-147172" lat="66.2496083374" lon="12.9603638855">
		<tag k="fixme" v="multiple name tags, choose one and add the other to alt_name" />
		<tag k="name" v="Metti Valla;Valla" />
		<tag k="place" v="farm" />
		<tag k="ssr:stedsnr" v="258923" />
	</node>
	<node id="-148192" lat="66.2589666634" lon="13.0929222325">
		<tag k="name" v="Høyrem" />
		<tag k="place" v="farm" />
		<tag k="ssr:stedsnr" v="651037" />
	</node>
	<node id="-147167" lat="66.2321305586" lon="12.9953305579">
		<tag k="alt_name" v="Vika" />
		<tag k="name" v="Viken" />
		<tag k="place" v="farm" />
		<tag k="ssr:stedsnr" v="258834" />
	</node>
	<node id="-148190" lat="66.2361583325" lon="13.0081416757">
		<tag k="name" v="Ytre Seim" />
		<tag k="place" v="farm" />
		<tag k="ssr:stedsnr" v="651193" />
	</node>
	<node id="-147162" lat="66.177354615" lon="13.0428018253">
		<tag k="fixme" v="consider place=hamlet" />
		<tag k="name" v="Sandnes" />
		<tag k="place" v="farm" />
		<tag k="ssr:stedsnr" v="258791" />
	</node>
	<node id="-147161" lat="66.1917166624" lon="12.9632916649">
		<tag k="name" v="Haugland" />
		<tag k="place" v="farm" />
		<tag k="ssr:stedsnr" v="258778" />
	</node>
	<node id="-147160" lat="66.1898055558" lon="12.9462694382">
		<tag k="alt_name" v="Skogekra" />
		<tag k="name" v="Skogekkra" />
>>>>>>> e1d4bc35ff8a6074a6f2e91616a996b547c36f15
		<tag k="place" v="farm" />
		<tag k="ssr:stedsnr" v="258777" />
	</node>
<<<<<<< HEAD
	<node lat="66.27684519847506" lon="13.217401313960945" id="-10174">
		<tag k="alt_name" v="Einmo" />
		<tag k="fixme" v="consider place=hamlet" />
		<tag k="name" v="Einmoen" />
		<tag k="place" v="farm" />
		<tag k="ssr:stedsnr" v="319775" />
	</node>
	<node lat="66.22226944031667" lon="12.805741656053396" id="-10176">
		<tag k="alt_name" v="Ossletta" />
		<tag k="name" v="Ossletten" />
=======
	<node id="-147671" lat="66.272805555" lon="13.2191888982">
		<tag k="name" v="Moskogen" />
		<tag k="place" v="farm" />
		<tag k="ssr:stedsnr" v="805964" />
	</node>
	<node id="-147668" lat="66.2668722184" lon="12.8861999902">
		<tag k="name" v="Nergården" />
>>>>>>> e1d4bc35ff8a6074a6f2e91616a996b547c36f15
		<tag k="place" v="farm" />
		<tag k="ssr:stedsnr" v="927721" />
	</node>
<<<<<<< HEAD
	<node lat="66.26764104360005" lon="12.881959503027987" id="-10178">
		<tag k="fixme" v="consider place=hamlet" />
		<tag k="name" v="Forsland" />
		<tag k="place" v="farm" />
		<tag k="ssr:stedsnr" v="320725" />
	</node>
	<node lat="66.26985000234943" lon="13.191766662074963" id="-10188">
		<tag k="name" v="Låvhaugen" />
		<tag k="place" v="farm" />
		<tag k="ssr:stedsnr" v="348001" />
	</node>
	<node lat="66.198308331663" lon="13.031411102753813" id="-10219">
		<tag k="alt_name" v="Lærarhøgsk" />
		<tag k="amenity" v="university" />
		<tag k="name" v="Nord universitet" />
		<tag k="ssr:stedsnr" v="379734" />
	</node>
	<node lat="66.19184166301605" lon="13.010113881275329" id="-10220">
		<tag k="alt_name" v="Revsnes" />
		<tag k="name" v="Refsnes" />
		<tag k="place" v="farm" />
		<tag k="ssr:stedsnr" v="379745" />
	</node>
	<node lat="66.22327499696262" lon="12.830411107456975" id="-10225">
		<tag k="name" v="Teigen" />
		<tag k="place" v="farm" />
		<tag k="ssr:stedsnr" v="379834" />
	</node>
	<node lat="66.28328610823932" lon="13.1679861102078" id="-10233">
		<tag k="alt_name" v="Vassvika" />
		<tag k="name" v="Vassvik" />
		<tag k="place" v="farm" />
		<tag k="ssr:stedsnr" v="380742" />
	</node>
	<node lat="66.28318610737419" lon="13.162775000814634" id="-10244">
		<tag k="name" v="Størkvik" />
		<tag k="place" v="locality" />
		<tag k="ssr:stedsnr" v="409781" />
	</node>
	<node lat="66.26276389229014" lon="13.110638891483788" id="-10260">
		<tag k="alt_name" v="Olderneset" />
		<tag k="name" v="Oldernes" />
		<tag k="place" v="farm" />
		<tag k="ssr:stedsnr" v="440729" />
	</node>
	<node lat="66.18804351445826" lon="13.093095536663437" id="-10265">
		<tag k="alt_name" v="Strand-Øvre" />
		<tag k="fixme" v="consider place=hamlet" />
		<tag k="name" v="Øvre Strand" />
		<tag k="place" v="farm" />
		<tag k="ssr:stedsnr" v="440769" />
	</node>
	<node lat="66.18430703898024" lon="13.082399714543325" id="-10266">
		<tag k="alt_name" v="Strand-Nedre" />
		<tag k="fixme" v="consider place=hamlet" />
		<tag k="name" v="Nedre Strand" />
		<tag k="place" v="farm" />
		<tag k="ssr:stedsnr" v="440770" />
	</node>
	<node lat="66.22578610882863" lon="13.091669436630875" id="-10267">
		<tag k="name" v="Lunde" />
		<tag k="place" v="farm" />
		<tag k="ssr:stedsnr" v="440845" />
	</node>
	<node lat="66.23408142539019" lon="13.106312404723521" id="-10272">
		<tag k="fixme" v="consider place=hamlet" />
		<tag k="name" v="Herset" />
		<tag k="place" v="farm" />
		<tag k="ssr:stedsnr" v="440830" />
	</node>
	<node lat="66.24824305539154" lon="13.144080922718379" id="-10275">
		<tag k="alt_name" v="Oldersletten" />
		<tag k="fixme" v="consider place=hamlet" />
		<tag k="name" v="Oldersletta" />
		<tag k="place" v="farm" />
		<tag k="ssr:stedsnr" v="440930" />
	</node>
	<node lat="66.25389657225031" lon="13.182256245240172" id="-10278">
		<tag k="fixme" v="consider place=hamlet" />
		<tag k="name" v="Remmen" />
		<tag k="place" v="farm" />
		<tag k="ssr:stedsnr" v="441641" />
	</node>
	<node lat="66.29559722500271" lon="12.818302783105336" id="-10285">
		<tag k="alt_name" v="Valvika" />
		<tag k="name" v="Valvik" />
		<tag k="place" v="farm" />
		<tag k="ssr:stedsnr" v="501664" />
	</node>
	<node lat="66.20179722215995" lon="13.046994445029895" id="-10288">
		<tag k="name" v="Utheim" />
		<tag k="place" v="farm" />
		<tag k="ssr:stedsnr" v="501754" />
	</node>
	<node lat="66.27571111127469" lon="13.149655566460064" id="-10297">
		<tag k="name" v="Skaganes" />
		<tag k="place" v="farm" />
		<tag k="ssr:stedsnr" v="530777" />
	</node>
	<node lat="66.28561284709573" lon="13.076798541368328" id="-10301">
		<tag k="fixme" v="multiple name tags, choose one and add the other to alt_name" />
		<tag k="name" v="Hagen;Handsteinhagen" />
		<tag k="place" v="locality" />
		<tag k="ssr:stedsnr" v="530755" />
	</node>
	<node lat="66.24722500100778" lon="12.75784722278811" id="-10315">
		<tag k="name" v="Nerstua" />
		<tag k="place" v="farm" />
		<tag k="ssr:stedsnr" v="531190" />
	</node>
	<node lat="66.24092222482899" lon="12.708383323400378" id="-10324">
		<tag k="name" v="Tomsvika" />
		<tag k="place" v="farm" />
		<tag k="ssr:stedsnr" v="544953" />
	</node>
	<node lat="66.22554999809896" lon="12.76966111274329" id="-10327">
		<tag k="name" v="Husby" />
		<tag k="place" v="hamlet" />
		<tag k="ssr:stedsnr" v="561829" />
	</node>
	<node lat="66.2318505624599" lon="12.971503592825176" id="-10328">
		<tag k="fixme" v="consider place=hamlet" />
		<tag k="name" v="Dilra" />
		<tag k="place" v="farm" />
		<tag k="ssr:stedsnr" v="561837" />
	</node>
	<node lat="66.18821388960589" lon="12.955297215562004" id="-10335">
		<tag k="name" v="Haugen" />
		<tag k="place" v="farm" />
		<tag k="ssr:stedsnr" v="561776" />
	</node>
	<node lat="66.17834722173322" lon="13.064122217461982" id="-10336">
		<tag k="name" v="Valbogen" />
		<tag k="place" v="farm" />
		<tag k="ssr:stedsnr" v="561785" />
	</node>
	<node lat="66.17693333074982" lon="12.941152784940018" id="-10338">
		<tag k="name" v="Nordbustad" />
		<tag k="place" v="farm" />
		<tag k="ssr:stedsnr" v="561792" />
	</node>
	<node lat="66.17815044917263" lon="12.9383826948518" id="-10339">
		<tag k="fixme" v="consider place=hamlet" />
		<tag k="name" v="Halland" />
		<tag k="place" v="farm" />
		<tag k="ssr:stedsnr" v="561794" />
	</node>
	<node lat="66.2103333324761" lon="13.053597224618557" id="-10343">
		<tag k="name" v="Tunga" />
		<tag k="place" v="farm" />
		<tag k="ssr:stedsnr" v="561758" />
	</node>
	<node lat="66.1981694403017" lon="13.018444444814087" id="-10344">
		<tag k="name" v="Nesna" />
		<tag k="place" v="village" />
		<tag k="ssr:stedsnr" v="561759" />
	</node>
	<node lat="66.29199929342701" lon="12.809001655271636" id="-10353">
		<tag k="alt_name" v="Finnvik" />
		<tag k="fixme" v="consider place=hamlet" />
		<tag k="name" v="Finnvika" />
		<tag k="place" v="farm" />
		<tag k="ssr:stedsnr" v="562677" />
	</node>
	<node lat="66.2614083299278" lon="12.729369437043154" id="-10357">
		<tag k="fixme" v="multiple name tags, choose one and add the other to alt_name" />
		<tag k="name" v="Stranda;Gropen" />
		<tag k="place" v="farm" />
		<tag k="ssr:stedsnr" v="562698" />
	</node>
	<node lat="66.26320098843671" lon="13.102196542987596" id="-10360">
		<tag k="alt_name" v="Lille-Steira" />
		<tag k="fixme" v="consider place=hamlet" />
		<tag k="name" v="Litl-Steira" />
		<tag k="place" v="farm" />
		<tag k="ssr:stedsnr" v="590027" />
	</node>
	<node lat="66.25029999626318" lon="13.157069445625847" id="-10361">
		<tag k="name" v="Skogshaugen" />
		<tag k="place" v="locality" />
		<tag k="ssr:stedsnr" v="590034" />
	</node>
	<node lat="66.2149694490129" lon="12.819366658203776" id="-10404">
		<tag k="name" v="Strandheim" />
		<tag k="place" v="farm" />
		<tag k="ssr:stedsnr" v="622842" />
	</node>
	<node lat="66.20999444066499" lon="13.202341668087932" id="-10410">
		<tag k="name" v="Hinderåga" />
		<tag k="place" v="locality" />
		<tag k="ssr:stedsnr" v="622742" />
	</node>
	<node lat="66.22594166923554" lon="12.825125006518064" id="-10421">
		<tag k="name" v="Nordheim" />
		<tag k="place" v="farm" />
		<tag k="ssr:stedsnr" v="651354" />
	</node>
	<node lat="66.26372499723327" lon="12.734177770278583" id="-10422">
		<tag k="name" v="Moen" />
		<tag k="place" v="farm" />
		<tag k="ssr:stedsnr" v="651971" />
	</node>
	<node lat="66.27282777741382" lon="13.008899995230315" id="-10436">
		<tag k="name" v="Nyheim" />
		<tag k="place" v="farm" />
		<tag k="ssr:stedsnr" v="652745" />
	</node>
	<node lat="66.21546110799373" lon="12.815405545402136" id="-10446">
		<tag k="name" v="Bakken" />
		<tag k="place" v="farm" />
		<tag k="ssr:stedsnr" v="712336" />
	</node>
	<node lat="66.22632500441561" lon="12.807274998960734" id="-10449">
		<tag k="name" v="Rislero" />
		<tag k="place" v="farm" />
		<tag k="ssr:stedsnr" v="712317" />
	</node>
	<node lat="66.27017500065125" lon="13.200158342409125" id="-10451">
		<tag k="name" v="Fagertun" />
		<tag k="place" v="farm" />
		<tag k="ssr:stedsnr" v="713013" />
	</node>
	<node lat="66.24815277507183" lon="12.959377767441243" id="-10454">
		<tag k="name" v="Ner-Valla" />
		<tag k="place" v="farm" />
		<tag k="ssr:stedsnr" v="713145" />
	</node>
	<node lat="66.24534722102459" lon="12.959072213215746" id="-10455">
		<tag k="name" v="Sør-Valla" />
		<tag k="place" v="farm" />
		<tag k="ssr:stedsnr" v="713147" />
	</node>
	<node lat="66.24781388530441" lon="12.759958334707543" id="-10478">
		<tag k="name" v="Tomsvika" />
		<tag k="place" v="farm" />
		<tag k="ssr:stedsnr" v="727160" />
	</node>
	<node lat="66.24786111236972" lon="12.757594449028351" id="-10479">
		<tag k="name" v="Tomsvika" />
		<tag k="place" v="farm" />
		<tag k="ssr:stedsnr" v="727162" />
	</node>
	<node lat="66.22852222603106" lon="12.92495277106541" id="-10482">
=======
	<node id="-148179" lat="66.214969449" lon="12.8193666582">
		<tag k="name" v="Strandheim" />
		<tag k="place" v="farm" />
		<tag k="ssr:stedsnr" v="622842" />
	</node>
	<node id="-148177" lat="66.2384261273" lon="13.1173592081">
		<tag k="fixme" v="consider place=hamlet" />
		<tag k="name" v="Huske" />
		<tag k="place" v="farm" />
		<tag k="ssr:stedsnr" v="622816" />
	</node>
	<node id="-147152" lat="66.2537333337" lon="13.1769027669">
		<tag k="name" v="Høgsås" />
		<tag k="place" v="farm" />
		<tag k="ssr:stedsnr" v="44041" />
	</node>
	<node id="-148175" lat="66.179580557" lon="12.9573583278">
		<tag k="name" v="Rogn" />
		<tag k="place" v="farm" />
		<tag k="ssr:stedsnr" v="622769" />
	</node>
	<node id="-148173" lat="66.2099944407" lon="13.2023416681">
		<tag k="name" v="Hinderåga" />
		<tag k="place" v="locality" />
		<tag k="ssr:stedsnr" v="622742" />
	</node>
	<node id="-147148" lat="66.2651888893" lon="13.1150583276">
		<tag k="name" v="Solvang" />
		<tag k="place" v="farm" />
		<tag k="ssr:stedsnr" v="229020" />
	</node>
	<node id="-147659" lat="66.1871722196" lon="13.0182083242">
		<tag k="name" v="Langstrand" />
		<tag k="place" v="farm" />
		<tag k="ssr:stedsnr" v="804779" />
	</node>
	<node id="-147142" lat="66.261919442" lon="12.9807750035">
		<tag k="name" v="Bjønndalsmoen" />
		<tag k="place" v="farm" />
		<tag k="ssr:stedsnr" v="228091" />
	</node>
	<node id="-147653" lat="66.2306805565" lon="12.9897694524">
		<tag k="name" v="Ørnneset" />
		<tag k="place" v="farm" />
		<tag k="ssr:stedsnr" v="804836" />
	</node>
	<node id="-147138" lat="66.2667305564" lon="12.7259722199">
		<tag k="name" v="Stavika" />
		<tag k="place" v="locality" />
		<tag k="ssr:stedsnr" v="227928" />
	</node>
	<node id="-147136" lat="66.2911944488" lon="12.8290444399">
		<tag k="name" v="Solheim" />
		<tag k="place" v="farm" />
		<tag k="ssr:stedsnr" v="227839" />
	</node>
	<node id="-147135" lat="66.2234722254" lon="12.8270749998">
		<tag k="name" v="Gården" />
		<tag k="place" v="farm" />
		<tag k="ssr:stedsnr" v="227345" />
	</node>
	<node id="-147646" lat="66.2123111072" lon="12.8114722223">
		<tag k="name" v="Tingvollen" />
		<tag k="place" v="isolated_dwelling" />
		<tag k="ssr:stedsnr" v="926859" />
	</node>
	<node id="-147743" lat="66.2677722256" lon="12.8798444482">
		<tag k="name" v="Moen" />
		<tag k="place" v="farm" />
		<tag k="ssr:stedsnr" v="45914" />
	</node>
	<node id="-147126" lat="66.2583111094" lon="13.0909444405">
		<tag k="name" v="Remman" />
		<tag k="place" v="farm" />
		<tag k="ssr:stedsnr" v="16728" />
	</node>
	<node id="-147637" lat="66.2515527738" lon="13.0657111195">
		<tag k="name" v="Skogheim" />
		<tag k="place" v="farm" />
		<tag k="ssr:stedsnr" v="926628" />
	</node>
	<node id="-147123" lat="66.2683583313" lon="13.1799500056">
		<tag k="name" v="Solheim" />
		<tag k="place" v="farm" />
		<tag k="ssr:stedsnr" v="16718" />
	</node>
	<node id="-147122" lat="66.2753677924" lon="13.1450106083">
		<tag k="fixme" v="consider place=hamlet" />
		<tag k="name" v="Skaga" />
		<tag k="place" v="farm" />
		<tag k="ssr:stedsnr" v="16713" />
	</node>
	<node id="-147119" lat="66.2701872017" lon="12.99571934">
		<tag k="fixme" v="consider place=hamlet" />
		<tag k="name" v="Handstein" />
		<tag k="place" v="farm" />
		<tag k="ssr:stedsnr" v="16706" />
	</node>
	<node id="-147741" lat="66.2918944423" lon="12.8367416746">
		<tag k="name" v="Skoglund" />
		<tag k="place" v="farm" />
		<tag k="ssr:stedsnr" v="45830" />
	</node>
	<node id="-147115" lat="66.246622558" lon="12.8843780452">
		<tag k="alt_name" v="Skjefstad" />
		<tag k="fixme" v="consider place=hamlet" />
		<tag k="name" v="Skeivstad" />
		<tag k="place" v="farm" />
		<tag k="ssr:stedsnr" v="15932" />
	</node>
	<node id="-147654" lat="66.2182833369" lon="12.8255027752">
		<tag k="name" v="Vollan" />
		<tag k="place" v="farm" />
		<tag k="ssr:stedsnr" v="804847" />
	</node>
	<node id="-147845" lat="66.212430558" lon="12.9566166699">
		<tag k="alt_name" v="Svalenga" />
		<tag k="name" v="Svaleng" />
		<tag k="place" v="farm" />
		<tag k="ssr:stedsnr" v="136872" />
	</node>
	<node id="-148120" lat="66.2502999963" lon="13.1570694456">
		<tag k="name" v="Skogshaugen" />
		<tag k="place" v="locality" />
		<tag k="ssr:stedsnr" v="590034" />
	</node>
	<node id="-148119" lat="66.2632009884" lon="13.102196543">
		<tag k="alt_name" v="Lille-Steira" />
		<tag k="fixme" v="consider place=hamlet" />
		<tag k="name" v="Litl-Steira" />
		<tag k="place" v="farm" />
		<tag k="ssr:stedsnr" v="590027" />
	</node>
	<node id="-147606" lat="66.2727083291" lon="13.1364194392">
		<tag k="name" v="Bergtun" />
		<tag k="place" v="farm" />
		<tag k="ssr:stedsnr" v="744708" />
	</node>
	<node id="-148117" lat="66.2614083299" lon="12.729369437">
		<tag k="fixme" v="multiple name tags, choose one and add the other to alt_name" />
		<tag k="name" v="Gropen;Stranda" />
		<tag k="place" v="farm" />
		<tag k="ssr:stedsnr" v="562698" />
	</node>
	<node id="-147603" lat="66.2210890279" lon="13.0872537121">
		<tag k="alt_name" v="Handa" />
		<tag k="fixme" v="consider place=hamlet" />
		<tag k="name" v="Handå" />
		<tag k="place" v="farm" />
		<tag k="ssr:stedsnr" v="743864" />
	</node>
	<node id="-147602" lat="66.2160888879" lon="12.8161500008">
		<tag k="name" v="Kvila" />
		<tag k="place" v="farm" />
		<tag k="ssr:stedsnr" v="743862" />
	</node>
	<node id="-148113" lat="66.2919992934" lon="12.8090016553">
		<tag k="alt_name" v="Finnvik" />
		<tag k="fixme" v="consider place=hamlet" />
		<tag k="name" v="Finnvika" />
		<tag k="place" v="farm" />
		<tag k="ssr:stedsnr" v="562677" />
	</node>
	<node id="-147600" lat="66.2418627134" lon="13.1360088812">
		<tag k="alt_name" v="Remma" />
		<tag k="fixme" v="consider place=hamlet" />
		<tag k="name" v="Remmå" />
		<tag k="place" v="farm" />
		<tag k="ssr:stedsnr" v="743826" />
	</node>
	<node id="-148110" lat="66.2318505625" lon="12.9715035928">
		<tag k="fixme" v="consider place=hamlet" />
		<tag k="name" v="Dilra" />
		<tag k="place" v="farm" />
		<tag k="ssr:stedsnr" v="561837" />
	</node>
	<node id="-147597" lat="66.2478611124" lon="12.757594449">
		<tag k="name" v="Tomsvika" />
		<tag k="place" v="farm" />
		<tag k="ssr:stedsnr" v="727162" />
	</node>
	<node id="-148108" lat="66.1781504492" lon="12.9383826949">
		<tag k="fixme" v="consider place=hamlet" />
		<tag k="name" v="Halland" />
		<tag k="place" v="farm" />
		<tag k="ssr:stedsnr" v="561794" />
	</node>
	<node id="-147650" lat="66.236747221" lon="12.929019453">
		<tag k="alt_name" v="Ramstø" />
		<tag k="name" v="Ranstø" />
		<tag k="place" v="farm" />
		<tag k="ssr:stedsnr" v="804819" />
	</node>
	<node id="-148105" lat="66.1783472217" lon="13.0641222175">
		<tag k="name" v="Valbogen" />
		<tag k="place" v="farm" />
		<tag k="ssr:stedsnr" v="561785" />
	</node>
	<node id="-148100" lat="66.2409222248" lon="12.7083833234">
		<tag k="name" v="Tomsvika" />
		<tag k="place" v="farm" />
		<tag k="ssr:stedsnr" v="544953" />
	</node>
	<node id="-148099" lat="66.2011166709" lon="13.0411388971">
		<tag k="name" v="Bergtun" />
		<tag k="place" v="farm" />
		<tag k="ssr:stedsnr" v="532875" />
	</node>
	<node id="-148098" lat="66.2025194461" lon="13.044236121">
		<tag k="name" v="Utsyn" />
		<tag k="place" v="isolated_dwelling" />
		<tag k="ssr:stedsnr" v="532872" />
	</node>
	<node id="-147574" lat="66.2253083334" lon="12.7708944412">
		<tag k="amenity" v="school" />
		<tag k="name" v="Tomma skole" />
		<tag k="ssr:stedsnr" v="895307" />
	</node>
	<node id="-148083" lat="66.1803888883" lon="13.0695666588">
		<tag k="name" v="Ura" />
		<tag k="place" v="farm" />
		<tag k="ssr:stedsnr" v="531123" />
	</node>
	<node id="-147596" lat="66.2478138853" lon="12.7599583347">
		<tag k="name" v="Tomsvika" />
		<tag k="place" v="farm" />
		<tag k="ssr:stedsnr" v="727160" />
	</node>
	<node id="-147558" lat="66.2701750007" lon="13.2001583424">
		<tag k="name" v="Fagertun" />
		<tag k="place" v="farm" />
		<tag k="ssr:stedsnr" v="713013" />
	</node>
	<node id="-147729" lat="66.2184888927" lon="13.075824998">
		<tag k="name" v="Nyrud" />
		<tag k="place" v="farm" />
		<tag k="ssr:stedsnr" v="45260" />
	</node>
	<node id="-147664" lat="66.2572499963" lon="13.1384305501">
		<tag k="name" v="Eide" />
		<tag k="place" v="farm" />
		<tag k="ssr:stedsnr" v="805625" />
	</node>
	<node id="-148064" lat="66.1962055596" lon="13.0205083328">
		<tag k="name" v="Bjerkly" />
		<tag k="place" v="farm" />
		<tag k="ssr:stedsnr" v="411823" />
	</node>
	<node id="-147550" lat="66.2571333316" lon="13.1820805571">
		<tag k="name" v="Remhaug" />
		<tag k="place" v="farm" />
		<tag k="ssr:stedsnr" v="894075" />
	</node>
	<node id="-147547" lat="66.2601972217" lon="13.095986114">
		<tag k="name" v="Bjerkli" />
		<tag k="place" v="farm" />
		<tag k="ssr:stedsnr" v="894030" />
	</node>
	<node id="-148239" lat="66.228522226" lon="12.9249527711">
>>>>>>> e1d4bc35ff8a6074a6f2e91616a996b547c36f15
		<tag k="name" v="Sørstranda" />
		<tag k="place" v="farm" />
		<tag k="ssr:stedsnr" v="743843" />
	</node>
<<<<<<< HEAD
	<node lat="66.23260522070504" lon="12.936186248467079" id="-10483">
		<tag k="fixme" v="consider place=hamlet" />
		<tag k="name" v="Handnes" />
		<tag k="place" v="farm" />
		<tag k="ssr:stedsnr" v="743846" />
	</node>
	<node lat="66.24158610992194" lon="13.126541665700302" id="-10484">
		<tag k="alt_name" v="Huskebakken" />
		<tag k="name" v="Huskebakk" />
		<tag k="place" v="farm" />
		<tag k="ssr:stedsnr" v="743820" />
	</node>
	<node lat="66.21608888788549" lon="12.816150000831664" id="-10488">
		<tag k="name" v="Kvila" />
		<tag k="place" v="farm" />
		<tag k="ssr:stedsnr" v="743862" />
	</node>
	<node lat="66.22108902787538" lon="13.087253712077073" id="-10489">
		<tag k="alt_name" v="Handa" />
		<tag k="fixme" v="consider place=hamlet" />
		<tag k="name" v="Handå" />
		<tag k="place" v="farm" />
		<tag k="ssr:stedsnr" v="743864" />
	</node>
	<node lat="66.26079166962246" lon="13.097141673206256" id="-10498">
		<tag k="name" v="Strandheim" />
		<tag k="place" v="locality" />
		<tag k="ssr:stedsnr" v="773039" />
	</node>
	<node lat="66.23887500381639" lon="13.014988897897677" id="-10502">
		<tag k="name" v="Melandplassen" />
		<tag k="place" v="locality" />
		<tag k="ssr:stedsnr" v="773196" />
	</node>
	<node lat="66.24092222181382" lon="13.030936106929618" id="-10503">
		<tag k="name" v="Holtenget" />
		<tag k="place" v="farm" />
		<tag k="ssr:stedsnr" v="773199" />
	</node>
	<node lat="66.24839444826098" lon="13.055588887191373" id="-10504">
		<tag k="name" v="Nesåkeren" />
		<tag k="place" v="farm" />
		<tag k="ssr:stedsnr" v="773201" />
	</node>
	<node lat="66.23068055654505" lon="12.989769452425493" id="-10538">
		<tag k="name" v="Ørnneset" />
		<tag k="place" v="farm" />
		<tag k="ssr:stedsnr" v="804836" />
	</node>
	<node lat="66.21828333691954" lon="12.825502775219073" id="-10540">
		<tag k="name" v="Vollan" />
		<tag k="place" v="farm" />
		<tag k="ssr:stedsnr" v="804847" />
	</node>
	<node lat="66.2484999960149" lon="12.885397229705005" id="-10542">
		<tag k="name" v="Nerskiftet" />
		<tag k="place" v="farm" />
		<tag k="ssr:stedsnr" v="804928" />
	</node>
	<node lat="66.24456944778669" lon="12.865838893303884" id="-10543">
		<tag k="name" v="Solheim" />
		<tag k="place" v="farm" />
		<tag k="ssr:stedsnr" v="804929" />
	</node>
	<node lat="66.25724999634808" lon="13.13843055006065" id="-10545">
		<tag k="name" v="Eide" />
		<tag k="place" v="farm" />
		<tag k="ssr:stedsnr" v="805625" />
	</node>
	<node lat="66.27280555501144" lon="13.219188898221542" id="-10558">
		<tag k="name" v="Moskogen" />
		<tag k="place" v="farm" />
		<tag k="ssr:stedsnr" v="805964" />
	</node>
	<node lat="66.26793055554576" lon="13.186738897496378" id="-10564">
		<tag k="name" v="Frostheim" />
		<tag k="place" v="farm" />
		<tag k="ssr:stedsnr" v="834005" />
	</node>
	<node lat="66.29133610763645" lon="12.857913888580091" id="-10573">
		<tag k="name" v="Skaråkeren" />
		<tag k="place" v="farm" />
		<tag k="ssr:stedsnr" v="834813" />
	</node>
	<node lat="66.24788611565424" lon="12.7600611103893" id="-10588">
		<tag k="name" v="Borterstua" />
=======
	<node id="-147543" lat="66.2474927766" lon="13.0503854771">
		<tag k="fixme" v="consider place=hamlet" />
		<tag k="name" v="Stokka" />
		<tag k="place" v="farm" />
		<tag k="ssr:stedsnr" v="683800" />
	</node>
	<node id="-148051" lat="66.2528666652" lon="13.0709749983">
		<tag k="name" v="Lyngås" />
		<tag k="place" v="farm" />
		<tag k="ssr:stedsnr" v="410097" />
	</node>
	<node id="-147811" lat="66.2943472198" lon="12.8075138858">
		<tag k="name" v="Haugen" />
		<tag k="place" v="farm" />
		<tag k="ssr:stedsnr" v="106805" />
	</node>
	<node id="-148107" lat="66.1769333307" lon="12.9411527849">
		<tag k="name" v="Nordbustad" />
		<tag k="place" v="farm" />
		<tag k="ssr:stedsnr" v="561792" />
	</node>
	<node id="-148043" lat="66.2703444479" lon="12.740572228">
		<tag k="name" v="Nordmo" />
		<tag k="place" v="farm" />
		<tag k="ssr:stedsnr" v="409798" />
	</node>
	<node id="-148040" lat="66.2831861074" lon="13.1627750008">
		<tag k="name" v="Størkvik" />
		<tag k="place" v="locality" />
		<tag k="ssr:stedsnr" v="409781" />
	</node>
	<node id="-147708" lat="66.2589215346" lon="13.1815885359">
		<tag k="name" v="Engen" />
		<tag k="place" v="farm" />
		<tag k="ssr:stedsnr" v="16594" />
	</node>
	<node id="-147339" lat="66.2082111086" lon="13.0497472122">
		<tag k="name" v="Frydenlund" />
		<tag k="place" v="farm" />
		<tag k="ssr:stedsnr" v="470332" />
	</node>
	<node id="-148032" lat="66.2469472217" lon="13.045369443">
		<tag k="name" v="Breiremma" />
		<tag k="place" v="locality" />
		<tag k="ssr:stedsnr" v="409207" />
	</node>
	<node id="-147804" lat="66.2300888863" lon="12.7801222132">
		<tag k="name" v="Solvoll" />
		<tag k="place" v="farm" />
		<tag k="ssr:stedsnr" v="106262" />
	</node>
	<node id="-148022" lat="66.2832861082" lon="13.1679861102">
		<tag k="alt_name" v="Vassvika" />
		<tag k="name" v="Vassvik" />
		<tag k="place" v="farm" />
		<tag k="ssr:stedsnr" v="380742" />
	</node>
	<node id="-148232" lat="66.1912527742" lon="12.9534666709">
		<tag k="amenity" v="school" />
		<tag k="name" v="Hugla skole" />
		<tag k="ssr:stedsnr" v="653391" />
	</node>
	<node id="-148014" lat="66.223274997" lon="12.8304111075">
		<tag k="name" v="Teigen" />
		<tag k="place" v="farm" />
		<tag k="ssr:stedsnr" v="379834" />
	</node>
	<node id="-148010" lat="66.2287722251" lon="12.7817388949">
		<tag k="name" v="Dalen" />
		<tag k="place" v="farm" />
		<tag k="ssr:stedsnr" v="379810" />
	</node>
	<node id="-147497" lat="66.245347221" lon="12.9590722132">
		<tag k="name" v="Sør-Valla" />
		<tag k="place" v="farm" />
		<tag k="ssr:stedsnr" v="713147" />
	</node>
	<node id="-147496" lat="66.2481527751" lon="12.9593777674">
		<tag k="name" v="Ner-Valla" />
		<tag k="place" v="farm" />
		<tag k="ssr:stedsnr" v="713145" />
	</node>
	<node id="-148007" lat="66.1729666687" lon="12.933925003">
		<tag k="name" v="Ytterhus" />
		<tag k="place" v="farm" />
		<tag k="ssr:stedsnr" v="379785" />
	</node>
	<node id="-148003" lat="66.191841663" lon="13.0101138813">
		<tag k="alt_name" v="Revsnes" />
		<tag k="name" v="Refsnes" />
>>>>>>> e1d4bc35ff8a6074a6f2e91616a996b547c36f15
		<tag k="place" v="farm" />
		<tag k="ssr:stedsnr" v="379745" />
	</node>
<<<<<<< HEAD
	<node lat="66.22915833502168" lon="12.933105552962456" id="-10597">
		<tag k="name" v="Nordstrand" />
		<tag k="place" v="farm" />
		<tag k="ssr:stedsnr" v="865837" />
	</node>
	<node lat="66.22308889317533" lon="12.838436112298197" id="-10598">
		<tag k="name" v="Klauva" />
		<tag k="place" v="farm" />
		<tag k="ssr:stedsnr" v="865847" />
	</node>
	<node lat="66.28450555631798" lon="13.232686116596962" id="-10608">
		<tag k="alt_name" v="Lillevik" />
		<tag k="name" v="Litlvika" />
		<tag k="place" v="farm" />
		<tag k="ssr:stedsnr" v="865781" />
	</node>
	<node lat="66.25257221859367" lon="13.123350000044045" id="-10613">
		<tag k="name" v="Skog" />
		<tag k="place" v="farm" />
		<tag k="ssr:stedsnr" v="866620" />
	</node>
	<node lat="66.2242503412539" lon="12.762452753210301" id="-10619">
		<tag k="alt_name" v="Husby hovedgård" />
		<tag k="name" v="Husby" />
		<tag k="place" v="farm" />
		<tag k="ssr:stedsnr" v="874760" />
	</node>
	<node lat="66.28564235010104" lon="13.142194284828099" id="-10620">
		<tag k="name" v="Juvika" />
		<tag k="place" v="locality" />
		<tag k="ssr:stedsnr" v="874784" />
	</node>
	<node lat="66.22383704070235" lon="12.828310014312347" id="-10640">
		<tag k="fixme" v="consider place=hamlet" />
		<tag k="name" v="Alsøy" />
		<tag k="place" v="farm" />
		<tag k="ssr:stedsnr" v="1073061" />
	</node>
	<node lat="66.16915821850573" lon="12.972617012635876" id="-10641">
		<tag k="fixme" v="consider place=hamlet" />
		<tag k="name" v="Feøya" />
		<tag k="place" v="farm" />
		<tag k="ssr:stedsnr" v="1073066" />
	</node>
	<node lat="66.185424436032" lon="12.954499858719016" id="-10642">
		<tag k="fixme" v="consider place=hamlet" />
		<tag k="name" v="Nordbustad" />
		<tag k="place" v="farm" />
		<tag k="ssr:stedsnr" v="1073067" />
	</node>
	<node lat="66.19365929620004" lon="13.017345099252951" id="-10643">
		<tag k="fixme" v="consider place=hamlet" />
		<tag k="name" v="Nesna" />
		<tag k="place" v="farm" />
		<tag k="ssr:stedsnr" v="1073112" />
	</node>
	<node lat="66.2006171874023" lon="13.039130345027086" id="-10644">
		<tag k="fixme" v="consider place=hamlet" />
		<tag k="name" v="Øvre Nesna" />
		<tag k="place" v="farm" />
		<tag k="ssr:stedsnr" v="1073113" />
=======
	<node id="-148002" lat="66.1983083317" lon="13.0314111028">
		<tag k="alt_name" v="Lærarhøgsk" />
		<tag k="amenity" v="university" />
		<tag k="name" v="Nord universitet" />
		<tag k="ssr:stedsnr" v="379734" />
	</node>
	<node id="-147489" lat="66.215461108" lon="12.8154055454">
		<tag k="name" v="Bakken" />
		<tag k="place" v="farm" />
		<tag k="ssr:stedsnr" v="712336" />
	</node>
	<node id="-147488" lat="66.2263250044" lon="12.807274999">
		<tag k="name" v="Rislero" />
		<tag k="place" v="farm" />
		<tag k="ssr:stedsnr" v="712317" />
	</node>
	<node id="-147999" lat="66.2609249974" lon="12.8855472222">
		<tag k="name" v="Storvika" />
		<tag k="place" v="farm" />
		<tag k="ssr:stedsnr" v="379715" />
	</node>
	<node id="-147747" lat="66.2645722191" lon="13.1042666724">
		<tag k="name" v="Nyrud" />
		<tag k="place" v="farm" />
		<tag k="ssr:stedsnr" v="46011" />
	</node>
	<node id="-147997" lat="66.2710581424" lon="13.1920460968">
		<tag k="fixme" v="consider place=hamlet" />
		<tag k="name" v="Longset" />
		<tag k="place" v="farm" />
		<tag k="ssr:stedsnr" v="379710" />
	</node>
	<node id="-147481" lat="66.2538777789" lon="13.0783333319">
		<tag k="name" v="Seljelund" />
		<tag k="place" v="farm" />
		<tag k="ssr:stedsnr" v="591006" />
	</node>
	<node id="-147476" lat="66.2563944457" lon="13.0853722303">
		<tag k="name" v="Steiravollen" />
		<tag k="place" v="farm" />
		<tag k="ssr:stedsnr" v="712034" />
	</node>
	<node id="-147472" lat="66.1882138896" lon="12.9552972156">
		<tag k="name" v="Haugen" />
		<tag k="place" v="farm" />
		<tag k="ssr:stedsnr" v="561776" />
	</node>
	<node id="-147629" lat="66.1824833308" lon="12.9540472313">
		<tag k="name" v="Bryllupsvollen" />
		<tag k="place" v="farm" />
		<tag k="ssr:stedsnr" v="925843" />
	</node>
	<node id="-147468" lat="66.1981694403" lon="13.0184444448">
		<tag k="name" v="Nesna" />
		<tag k="place" v="village" />
		<tag k="ssr:stedsnr" v="561759" />
	</node>
	<node id="-147467" lat="66.2103333325" lon="13.0535972246">
		<tag k="name" v="Tunga" />
		<tag k="place" v="farm" />
		<tag k="ssr:stedsnr" v="561758" />
	</node>
	<node id="-147465" lat="66.2255499981" lon="12.7696611127">
		<tag k="name" v="Husby" />
		<tag k="place" v="hamlet" />
		<tag k="ssr:stedsnr" v="561829" />
	</node>
	<node id="-147713" lat="66.2652861077" lon="12.8867111034">
		<tag k="name" v="Åneset" />
		<tag k="place" v="farm" />
		<tag k="ssr:stedsnr" v="16697" />
	</node>
	<node id="-147627" lat="66.1812611133" lon="13.0743305466">
		<tag k="name" v="Fredheim" />
		<tag k="place" v="farm" />
		<tag k="ssr:stedsnr" v="925840" />
>>>>>>> e1d4bc35ff8a6074a6f2e91616a996b547c36f15
	</node>
</osm>
