<?xml version="1.0" encoding="UTF-8"?>
<osm version="0.6" generator="osmapis">
	<node lat="66.266427777702" lon="13.171049997319425" id="-16189">
		<tag k="name" v="Stormyra" />
		<tag k="natural" v="wetland" />
		<tag k="ssr:stedsnr" v="45003" />
	</node>
	<node lat="66.26389166701487" lon="13.150269437546347" id="-16190">
		<tag k="name" v="Øyklubban" />
		<tag k="place" v="locality" />
		<tag k="ssr:stedsnr" v="45011" />
	</node>
	<node lat="66.23088888937122" lon="12.98613889696871" id="-16271">
		<tag k="name" v="Gamalhagen" />
		<tag k="place" v="locality" />
		<tag k="ssr:stedsnr" v="166205" />
	</node>
	<node lat="66.24528611546427" lon="12.86178055541926" id="-16284">
		<tag k="name" v="Perskogen" />
		<tag k="place" v="locality" />
		<tag k="ssr:stedsnr" v="167224" />
	</node>
	<node lat="66.26599444085691" lon="12.875016670561443" id="-16308">
		<tag k="name" v="Kartmoan" />
		<tag k="natural" v="wetland" />
		<tag k="ssr:stedsnr" v="227917" />
	</node>
	<node lat="66.25986666858445" lon="13.007183326376634" id="-16315">
		<tag k="name" v="Finnmyra" />
		<tag k="natural" v="wetland" />
		<tag k="ssr:stedsnr" v="228110" />
	</node>
	<node lat="66.22384444334425" lon="12.782430565440853" id="-16321">
		<tag k="name" v="Hopenget" />
		<tag k="place" v="locality" />
		<tag k="ssr:stedsnr" v="449299" />
	</node>
	<node lat="66.26721388855826" lon="12.984686113311817" id="-16323">
		<tag k="name" v="Nymoen" />
		<tag k="place" v="locality" />
		<tag k="ssr:stedsnr" v="228909" />
	</node>
	<node lat="66.23432222026253" lon="12.997111105356822" id="-16349">
		<tag k="name" v="Sommarfjøsåkeren" />
		<tag k="place" v="locality" />
		<tag k="ssr:stedsnr" v="288180" />
	</node>
	<node lat="66.26931944661737" lon="12.889841658827343" id="-16355">
		<tag k="name" v="Kobbsteinen" />
		<tag k="natural" v="stone" />
		<tag k="ssr:stedsnr" v="288937" />
	</node>
	<node lat="66.22729999664266" lon="13.09219443629657" id="-16383">
		<tag k="name" v="Jamtsteinen" />
		<tag k="natural" v="stone" />
		<tag k="ssr:stedsnr" v="470233" />
	</node>
	<node lat="66.22708056014004" lon="12.771952770268344" id="-16400">
		<tag k="name" v="Selberghaugmyra" />
		<tag k="natural" v="wetland" />
		<tag k="ssr:stedsnr" v="471190" />
	</node>
	<node lat="66.21374999706735" lon="13.10061667714849" id="-16408">
		<tag k="name" v="Tjyvnesan" />
		<tag k="natural" v="wetland" />
		<tag k="ssr:stedsnr" v="348256" />
	</node>
	<node lat="66.23151389344149" lon="12.98477776761848" id="-16413">
		<tag k="name" v="Nymoen" />
		<tag k="place" v="locality" />
		<tag k="ssr:stedsnr" v="349210" />
	</node>
	<node lat="66.23958333007295" lon="13.15596388440421" id="-16432">
		<tag k="name" v="Holmmyra" />
		<tag k="natural" v="wetland" />
		<tag k="ssr:stedsnr" v="379804" />
	</node>
	<node lat="66.25521667026112" lon="13.079191676847664" id="-16441">
		<tag k="name" v="Storekra" />
		<tag k="place" v="locality" />
		<tag k="ssr:stedsnr" v="409007" />
	</node>
	<node lat="66.26815833701163" lon="13.200205546472747" id="-16482">
		<tag k="name" v="Snarpvollen" />
		<tag k="place" v="locality" />
		<tag k="ssr:stedsnr" v="470018" />
	</node>
	<node lat="66.26357221866459" lon="13.189369433929924" id="-16491">
		<tag k="name" v="Strandåsmyra" />
		<tag k="natural" v="wetland" />
		<tag k="ssr:stedsnr" v="501602" />
	</node>
	<node lat="66.24626388566543" lon="12.955105552607648" id="-16526">
		<tag k="name" v="Sjymyra" />
		<tag k="natural" v="wetland" />
		<tag k="ssr:stedsnr" v="531132" />
	</node>
	<node lat="66.22154166357636" lon="12.779650003253773" id="-16544">
		<tag k="name" v="Grønmyra" />
		<tag k="natural" v="wetland" />
		<tag k="ssr:stedsnr" v="591310" />
	</node>
	<node lat="66.25886944432983" lon="13.095836121379435" id="-16565">
		<tag k="name" v="Strandengan" />
		<tag k="place" v="locality" />
		<tag k="ssr:stedsnr" v="651036" />
	</node>
	<node lat="66.24636110878181" lon="13.041769434010249" id="-16567">
		<tag k="name" v="Holtet" />
		<tag k="place" v="locality" />
		<tag k="ssr:stedsnr" v="651204" />
	</node>
	<node lat="66.2439999960441" lon="13.149769444485832" id="-16573">
		<tag k="name" v="Kjerksteinen" />
		<tag k="natural" v="stone" />
		<tag k="ssr:stedsnr" v="651314" />
	</node>
	<node lat="66.24674722234374" lon="12.722427781693932" id="-16584">
		<tag k="name" v="Tuskleppmyra" />
		<tag k="natural" v="wetland" />
		<tag k="ssr:stedsnr" v="652184" />
	</node>
	<node lat="66.26901110693144" lon="13.227494452448997" id="-16629">
		<tag k="name" v="Storlimyra" />
		<tag k="natural" v="wetland" />
		<tag k="ssr:stedsnr" v="712042" />
	</node>
	<node lat="66.24635000136865" lon="12.759152776387346" id="-16632">
		<tag k="name" v="Vollen" />
		<tag k="place" v="locality" />
		<tag k="ssr:stedsnr" v="712186" />
	</node>
	<node lat="66.27521666862754" lon="12.75849167165887" id="-16640">
		<tag k="name" v="Otergreinsteinan" />
		<tag k="natural" v="stone" />
		<tag k="ssr:stedsnr" v="713808" />
	</node>
	<node lat="66.23352499737668" lon="12.998516660153102" id="-16656">
		<tag k="name" v="Rønningen" />
		<tag k="place" v="locality" />
		<tag k="ssr:stedsnr" v="773211" />
	</node>
	<node lat="66.23923611304654" lon="12.990152773063418" id="-16695">
		<tag k="name" v="Storskogen" />
		<tag k="place" v="locality" />
		<tag k="ssr:stedsnr" v="925860" />
	</node>
	<node lat="66.22910277928014" lon="12.937641667867972" id="-16721">
		<tag k="name" v="Ladebukt" />
		<tag k="place" v="locality" />
		<tag k="ssr:stedsnr" v="896117" />
	</node>
	<node lat="66.23634166662791" lon="12.93775832937026" id="-16722">
		<tag k="name" v="Gråsteinan" />
		<tag k="natural" v="stone" />
		<tag k="ssr:stedsnr" v="896123" />
	</node>
	<node lat="66.21441389241319" lon="13.10216667517614" id="-16742">
		<tag k="name" v="Fjøsholtmyra" />
		<tag k="natural" v="wetland" />
		<tag k="ssr:stedsnr" v="955247" />
	</node>
	<node lat="66.24178888990616" lon="13.16047221435959" id="-16743">
		<tag k="name" v="Kristenmyra" />
		<tag k="natural" v="wetland" />
		<tag k="ssr:stedsnr" v="955307" />
	</node>
	<node lat="66.28664444681044" lon="13.084716661850612" id="-16826">
		<tag k="landuse" v="meadow" />
		<tag k="name" v="Innervollan" />
		<tag k="ssr:stedsnr" v="45767" />
	</node>
	<node lat="66.22835555762731" lon="12.815086111029567" id="-16835">
		<tag k="name" v="Ramnflogmyra" />
		<tag k="natural" v="wetland" />
		<tag k="ssr:stedsnr" v="46245" />
	</node>
	<node lat="66.22401388588167" lon="13.086324995659428" id="-16867">
		<tag k="name" v="Naustvollen" />
		<tag k="place" v="locality" />
		<tag k="ssr:stedsnr" v="107239" />
	</node>
	<node lat="66.24195278159395" lon="13.038177786861686" id="-16901">
		<tag k="name" v="Sjøura" />
		<tag k="natural" v="scree" />
		<tag k="ssr:stedsnr" v="166194" />
	</node>
	<node lat="66.26228332994684" lon="12.984933330979215" id="-16903">
		<tag k="name" v="Melkarsteinen" />
		<tag k="natural" v="stone" />
		<tag k="ssr:stedsnr" v="167076" />
	</node>
	<node lat="66.23202500291048" lon="12.973725010985698" id="-16932">
		<tag k="name" v="Vollen" />
		<tag k="place" v="locality" />
		<tag k="ssr:stedsnr" v="167192" />
	</node>
	<node lat="66.191405556875" lon="13.08772499023361" id="-16939">
		<tag k="name" v="Mehusmarka" />
		<tag k="place" v="locality" />
		<tag k="ssr:stedsnr" v="197797" />
	</node>
	<node lat="66.22255000015105" lon="12.787452788678213" id="-16943">
		<tag k="name" v="Stormyra" />
		<tag k="natural" v="wetland" />
		<tag k="ssr:stedsnr" v="197855" />
	</node>
	<node lat="66.25918888743739" lon="12.999124996519178" id="-16948">
		<tag k="name" v="Finnmyra" />
		<tag k="natural" v="wetland" />
		<tag k="ssr:stedsnr" v="198733" />
	</node>
	<node lat="66.26596111092528" lon="13.205013878005476" id="-16957">
		<tag k="name" v="Skjåvollen" />
		<tag k="place" v="locality" />
		<tag k="ssr:stedsnr" v="227019" />
	</node>
	<node lat="66.22303055717923" lon="12.779822218038207" id="-16970">
		<tag k="name" v="Svenskmyra" />
		<tag k="place" v="locality" />
		<tag k="ssr:stedsnr" v="288312" />
	</node>
	<node lat="66.23751666248093" lon="12.933655561824164" id="-16979">
		<tag k="name" v="Kalvhagen" />
		<tag k="place" v="locality" />
		<tag k="ssr:stedsnr" v="289116" />
	</node>
	<node lat="66.26663055486955" lon="13.00109443568845" id="-16984">
		<tag k="name" v="Mølnhussteinan" />
		<tag k="natural" v="stone" />
		<tag k="ssr:stedsnr" v="289067" />
	</node>
	<node lat="66.26901666618357" lon="12.989344437432045" id="-16986">
		<tag k="name" v="Hopengvollen" />
		<tag k="place" v="locality" />
		<tag k="ssr:stedsnr" v="289923" />
	</node>
	<node lat="66.19387500062709" lon="13.109966670867442" id="-17049">
		<tag k="name" v="Kvitsteinan" />
		<tag k="natural" v="stone" />
		<tag k="ssr:stedsnr" v="350832" />
	</node>
	<node lat="66.23482500409592" lon="13.13043334176096" id="-17055">
		<tag k="name" v="Rederåsmyra" />
		<tag k="natural" v="wetland" />
		<tag k="ssr:stedsnr" v="379827" />
	</node>
	<node lat="66.2235305564054" lon="13.12192221637073" id="-17069">
		<tag k="name" v="Langåsmyra" />
		<tag k="natural" v="wetland" />
		<tag k="ssr:stedsnr" v="409264" />
	</node>
	<node lat="66.2721361136895" lon="12.989427778028881" id="-17073">
		<tag k="name" v="Sjøkjerran" />
		<tag k="natural" v="wetland" />
		<tag k="ssr:stedsnr" v="409751" />
	</node>
	<node lat="66.27671944832865" lon="13.013988886446466" id="-17074">
		<tag k="name" v="Skjåtoftsteinan" />
		<tag k="natural" v="stone" />
		<tag k="ssr:stedsnr" v="409756" />
	</node>
	<node lat="66.27633610730852" lon="13.229008330218576" id="-17083">
		<tag k="name" v="Rønningsmyra" />
		<tag k="natural" v="wetland" />
		<tag k="ssr:stedsnr" v="409937" />
	</node>
	<node lat="66.27243055512615" lon="12.99957499747216" id="-17133">
		<tag k="name" v="Ishusåkeren" />
		<tag k="place" v="locality" />
		<tag k="ssr:stedsnr" v="530813" />
	</node>
	<node lat="66.28025000469168" lon="13.155188881566048" id="-17138">
		<tag k="name" v="Skagamyra" />
		<tag k="natural" v="wetland" />
		<tag k="ssr:stedsnr" v="530982" />
	</node>
	<node lat="66.25842777699629" lon="12.968638899768017" id="-17141">
		<tag k="name" v="Klevsteinen" />
		<tag k="natural" v="stone" />
		<tag k="ssr:stedsnr" v="531080" />
	</node>
	<node lat="66.26322499814673" lon="13.197672229307802" id="-17196">
		<tag k="name" v="Tortenåsmyra" />
		<tag k="natural" v="wetland" />
		<tag k="ssr:stedsnr" v="590073" />
	</node>
	<node lat="66.23443332918526" lon="13.005244438701798" id="-17202">
		<tag k="name" v="Storavollen" />
		<tag k="place" v="locality" />
		<tag k="ssr:stedsnr" v="591144" />
	</node>
	<node lat="66.21468610924627" lon="13.08393055714871" id="-17205">
		<tag k="name" v="Praigerskogmyra" />
		<tag k="natural" v="wetland" />
		<tag k="ssr:stedsnr" v="591225" />
	</node>
	<node lat="66.24908055566347" lon="13.060499991237089" id="-17216">
		<tag k="name" v="Røyskattura" />
		<tag k="natural" v="scree" />
		<tag k="ssr:stedsnr" v="592095" />
	</node>
	<node lat="66.19398333702752" lon="12.926405548122633" id="-17244">
		<tag k="name" v="Muttdalsmyra" />
		<tag k="natural" v="wetland" />
		<tag k="ssr:stedsnr" v="622750" />
	</node>
	<node lat="66.26496666971757" lon="13.209130554791258" id="-17285">
		<tag k="name" v="Hestmyra" />
		<tag k="natural" v="wetland" />
		<tag k="ssr:stedsnr" v="713014" />
	</node>
	<node lat="66.24325832907549" lon="13.040813896345371" id="-17338">
		<tag k="name" v="Nymoen" />
		<tag k="place" v="locality" />
		<tag k="ssr:stedsnr" v="773202" />
	</node>
	<node lat="66.28319722225919" lon="13.276002778134467" id="-17347">
		<tag k="name" v="Gråsteinen" />
		<tag k="natural" v="stone" />
		<tag k="ssr:stedsnr" v="773968" />
	</node>
	<node lat="66.18384166435237" lon="13.061358342572102" id="-17370">
		<tag k="name" v="Strandmarka" />
		<tag k="place" v="locality" />
		<tag k="ssr:stedsnr" v="804793" />
	</node>
	<node lat="66.27699444207575" lon="12.892275000469578" id="-17387">
		<tag k="name" v="Forslandsengan" />
		<tag k="place" v="locality" />
		<tag k="ssr:stedsnr" v="805690" />
	</node>
	<node lat="66.2531611105728" lon="13.194900002053954" id="-17395">
		<tag k="name" v="Hjortskogen" />
		<tag k="place" v="locality" />
		<tag k="ssr:stedsnr" v="834043" />
	</node>
</osm>
