<?xml version="1.0" encoding="UTF-8"?>
<osm version="0.6" generator="osmapis">
	<node lat="66.21734999933331" lon="13.094355559701453" id="-9392">
		<tag k="highway" v="path" />
		<tag k="name" v="Skjåvegen" />
		<tag k="ssr:stedsnr" v="470236" />
	</node>
	<node lat="66.23361944684952" lon="12.7856833436805" id="-9420">
		<tag k="highway" v="path" />
		<tag k="name" v="Kjerlighetsstien" />
		<tag k="ssr:stedsnr" v="349274" />
	</node>
	<node lat="66.20098610704689" lon="13.015100006884495" id="-9426">
		<tag k="landuse" v="harbour" />
		<tag k="name" v="Nesna havn" />
		<tag k="seamark:type" v="harbour" />
		<tag k="ssr:stedsnr" v="350863" />
	</node>
	<node lat="66.23457222124222" lon="12.856863877632897" id="-9568">
		<tag k="landuse" v="harbour" />
		<tag k="name" v="Mjåsundet" />
		<tag k="seamark:type" v="harbour" />
		<tag k="ssr:stedsnr" v="650159" />
	</node>
	<node lat="66.21496944315092" lon="13.092236121827584" id="-9619">
		<tag k="highway" v="path" />
		<tag k="name" v="Vollvegen" />
		<tag k="ssr:stedsnr" v="895235" />
	</node>
	<node lat="66.26271389144621" lon="13.00348888448444" id="-9666">
		<tag k="ford" v="yes" />
		<tag k="name" v="Øvervaet" />
		<tag k="place" v="locality" />
		<tag k="ssr:stedsnr" v="774114" />
	</node>
	<node lat="66.22960833301332" lon="12.920277781973056" id="-9667">
		<tag k="man_made" v="quay" />
		<tag k="name" v="Handnesøya fergeleie" />
		<tag k="place" v="locality" />
		<tag k="ssr:stedsnr" v="774159" />
	</node>
	<node lat="66.20515833612716" lon="13.059172213231337" id="-9691">
		<tag k="highway" v="path" />
		<tag k="name" v="Akselvegen" />
		<tag k="ssr:stedsnr" v="836828" />
	</node>
	<node lat="66.2658583329858" lon="13.001547218247575" id="-9751">
		<tag k="ford" v="yes" />
		<tag k="name" v="Nervaet" />
		<tag k="place" v="locality" />
		<tag k="ssr:stedsnr" v="956088" />
	</node>
	<node lat="66.23145555139662" lon="12.954216676878236" id="-9902">
		<tag k="highway" v="path" />
		<tag k="name" v="Strupavegen" />
		<tag k="ssr:stedsnr" v="167132" />
	</node>
	<node lat="66.19700555990235" lon="12.879072216573665" id="-9930">
		<tag k="fixme" v="verify maritime location" />
		<tag k="mooring" v="yes" />
		<tag k="name" v="Båthella" />
		<tag k="place" v="locality" />
		<tag k="ssr:stedsnr" v="198738" />
	</node>
	<node lat="66.21621388553517" lon="13.088163887444532" id="-9954">
		<tag k="highway" v="path" />
		<tag k="name" v="Frettingsvegen" />
		<tag k="ssr:stedsnr" v="288239" />
	</node>
	<node lat="66.28941111416455" lon="12.855513879520139" id="-10013">
		<tag k="man_made" v="cairn" />
		<tag k="name" v="Varden" />
		<tag k="place" v="locality" />
		<tag k="ssr:stedsnr" v="348790" />
	</node>
	<node lat="66.24073889335696" lon="12.949049996599486" id="-10020">
		<tag k="highway" v="path" />
		<tag k="name" v="Vallakleivan" />
		<tag k="ssr:stedsnr" v="349158" />
	</node>
	<node lat="66.28125833653014" lon="13.163961113187439" id="-10058">
		<tag k="fixme" v="consider highway=path" />
		<tag k="highway" v="track" />
		<tag k="name" v="Stien" />
		<tag k="ssr:stedsnr" v="409783" />
	</node>
	<node lat="66.19879722364725" lon="13.079424992408825" id="-10158">
		<tag k="highway" v="path" />
		<tag k="name" v="Vassvegan" />
		<tag k="ssr:stedsnr" v="561765" />
	</node>
	<node lat="66.25961944400028" lon="13.205863888625013" id="-10314">
		<tag k="highway" v="path" />
		<tag k="name" v="Borkhaugvegen" />
		<tag k="ssr:stedsnr" v="773065" />
	</node>
	<node lat="66.22338333269165" lon="12.82058887884332" id="-10322">
		<tag k="man_made" v="quay" />
		<tag k="name" v="Sjøen" />
		<tag k="place" v="locality" />
		<tag k="ssr:stedsnr" v="773361" />
	</node>
	<node lat="66.23050555135785" lon="12.944513897588907" id="-10330">
		<tag k="highway" v="path" />
		<tag k="name" v="Breigata" />
		<tag k="ssr:stedsnr" v="774128" />
	</node>
	<node lat="66.23131111156667" lon="12.937772227970914" id="-10331">
		<tag k="highway" v="path" />
		<tag k="name" v="Korsvegen" />
		<tag k="ssr:stedsnr" v="774129" />
	</node>
	<node lat="66.26618610686322" lon="13.005016661376466" id="-10334">
		<tag k="highway" v="path" />
		<tag k="name" v="Bukkstien" />
		<tag k="ssr:stedsnr" v="774076" />
	</node>
	<node lat="66.26489444292496" lon="13.003558340739932" id="-10443">
		<tag k="highway" v="path" />
		<tag k="name" v="Storskogstien" />
		<tag k="ssr:stedsnr" v="956078" />
	</node>
	<node lat="66.2675666685004" lon="13.004916672484221" id="-10444">
		<tag k="highway" v="path" />
		<tag k="name" v="Geitstien" />
		<tag k="ssr:stedsnr" v="956080" />
	</node>
</osm>
