<?xml version="1.0" encoding="UTF-8"?>
<osm generator="osmapis" version="0.6">
	<node id="-138844" lat="66.2052777791" lon="13.0655305526">
		<tag k="name" v="Kaldkleivlia" />
		<tag k="natural" v="slope" />
		<tag k="place" v="locality" />
		<tag k="ssr:stedsnr" v="957827" />
	</node>
	<node id="-138842" lat="66.1923194441" lon="12.934502777">
		<tag k="name" v="Storhatten" />
		<tag k="natural" v="hill" />
		<tag k="place" v="locality" />
		<tag k="ssr:stedsnr" v="957390" />
	</node>
	<node id="-138841" lat="66.2534138886" lon="12.7556444555">
		<tag k="fixme" v="consider natural=peak for the most distinct mountains in the district" />
		<tag k="name" v="Storhågjen" />
		<tag k="natural" v="hill" />
		<tag k="place" v="locality" />
		<tag k="ssr:stedsnr" v="957349" />
	</node>
	<node id="-138839" lat="66.1820583312" lon="13.0395222234">
		<tag k="name" v="Blåbærlia" />
		<tag k="natural" v="slope" />
		<tag k="place" v="locality" />
		<tag k="ssr:stedsnr" v="956700" />
	</node>
	<node id="-138838" lat="66.238427775" lon="12.8442055511">
		<tag k="name" v="Yttertodalshaugen" />
		<tag k="natural" v="ridge" />
		<tag k="place" v="locality" />
		<tag k="ssr:stedsnr" v="956262" />
	</node>
	<node id="-138837" lat="66.2415861114" lon="12.8635249972">
		<tag k="name" v="Torvhaugsletta" />
		<tag k="place" v="locality" />
		<tag k="ssr:stedsnr" v="956235" />
	</node>
	<node id="-138836" lat="66.247361108" lon="12.7208833243">
		<tag k="name" v="Korskleiva" />
		<tag k="natural" v="slope" />
		<tag k="place" v="locality" />
		<tag k="ssr:stedsnr" v="956228" />
	</node>
	<node id="-138835" lat="66.2430888911" lon="12.757191656">
		<tag k="name" v="Nonhaugen" />
		<tag k="natural" v="ridge" />
		<tag k="place" v="locality" />
		<tag k="ssr:stedsnr" v="956206" />
	</node>
	<node id="-138833" lat="66.2404277738" lon="13.1444444545">
		<tag k="name" v="Hestskohalsen" />
		<tag k="natural" v="valley" />
		<tag k="place" v="locality" />
		<tag k="ssr:stedsnr" v="956163" />
	</node>
	<node id="-138832" lat="66.2641111125" lon="13.0019638961">
		<tag k="name" v="Kjerkedøra" />
		<tag k="place" v="locality" />
		<tag k="ssr:stedsnr" v="956092" />
	</node>
	<node id="-138829" lat="66.2644055575" lon="12.9956833243">
		<tag k="name" v="Svahella" />
		<tag k="natural" v="ridge" />
		<tag k="place" v="locality" />
		<tag k="ssr:stedsnr" v="956085" />
	</node>
	<node id="-138826" lat="66.2721388865" lon="13.2342388913">
		<tag k="fixme" v="consider natural=peak for the most distinct mountains in the district" />
		<tag k="name" v="Langåsen" />
		<tag k="natural" v="hill" />
		<tag k="place" v="locality" />
		<tag k="ssr:stedsnr" v="955939" />
	</node>
	<node id="-138824" lat="66.2688472226" lon="12.8554361212">
		<tag k="name" v="Bjerkebakken" />
		<tag k="natural" v="slope" />
		<tag k="place" v="locality" />
		<tag k="ssr:stedsnr" v="955908" />
	</node>
	<node id="-138823" lat="66.2732527754" lon="12.9868111068">
		<tag k="name" v="Lennarberget" />
		<tag k="natural" v="hill" />
		<tag k="place" v="locality" />
		<tag k="ssr:stedsnr" v="955751" />
	</node>
	<node id="-138821" lat="66.1823305567" lon="13.0575555504">
		<tag k="name" v="Stordalen" />
		<tag k="natural" v="valley" />
		<tag k="place" v="locality" />
		<tag k="ssr:stedsnr" v="956399" />
	</node>
	<node id="-138819" lat="66.2262916706" lon="12.7697222137">
		<tag k="name" v="Selberghaugen" />
		<tag k="natural" v="hill" />
		<tag k="place" v="locality" />
		<tag k="ssr:stedsnr" v="956364" />
	</node>
	<node id="-138817" lat="66.2157138848" lon="12.7803055446">
		<tag k="name" v="Trælneshaugen" />
		<tag k="natural" v="hill" />
		<tag k="place" v="locality" />
		<tag k="ssr:stedsnr" v="955327" />
	</node>
	<node id="-138814" lat="66.2393472249" lon="13.0263916731">
		<tag k="name" v="Dordihaugen" />
		<tag k="natural" v="hill" />
		<tag k="place" v="locality" />
		<tag k="ssr:stedsnr" v="955179" />
	</node>
	<node id="-138812" lat="66.2669750003" lon="13.2278277786">
		<tag k="name" v="Storliloftet" />
		<tag k="place" v="locality" />
		<tag k="ssr:stedsnr" v="955041" />
	</node>
	<node id="-138810" lat="66.2606305596" lon="13.2295722203">
		<tag k="name" v="Storlia" />
		<tag k="natural" v="slope" />
		<tag k="place" v="locality" />
		<tag k="ssr:stedsnr" v="866970" />
	</node>
	<node id="-138804" lat="66.2486166706" lon="12.963377787">
		<tag k="alt_name" v="Skilmoen" />
		<tag k="name" v="Skjelimoen" />
		<tag k="place" v="locality" />
		<tag k="ssr:stedsnr" v="865923" />
	</node>
	<node id="-138803" lat="66.2247333311" lon="13.1521361033">
		<tag k="fixme" v="consider natural=peak for the most distinct mountains in the district" />
		<tag k="name" v="Breiskardtinden" />
		<tag k="natural" v="hill" />
		<tag k="place" v="locality" />
		<tag k="ssr:stedsnr" v="865855" />
	</node>
	<node id="-138800" lat="66.2290166624" lon="12.8451888968">
		<tag k="fixme" v="consider natural=peak for the most distinct mountains in the district" />
		<tag k="name" v="Svinkleppen" />
		<tag k="natural" v="hill" />
		<tag k="place" v="locality" />
		<tag k="ssr:stedsnr" v="865832" />
	</node>
	<node id="-138793" lat="66.2100055529" lon="13.0950083247">
		<tag k="name" v="Handdalen" />
		<tag k="natural" v="valley" />
		<tag k="place" v="locality" />
		<tag k="ssr:stedsnr" v="865763" />
	</node>
	<node id="-138791" lat="66.2100583305" lon="13.13694444">
		<tag k="fixme" v="consider natural=peak for the most distinct mountains in the district" />
		<tag k="name" v="Varden" />
		<tag k="natural" v="hill" />
		<tag k="place" v="locality" />
		<tag k="ssr:stedsnr" v="865758" />
	</node>
	<node id="-138790" lat="66.2538277804" lon="12.8813694345">
		<tag k="name" v="Friarvollen" />
		<tag k="natural" v="hill" />
		<tag k="place" v="locality" />
		<tag k="ssr:stedsnr" v="865746" />
	</node>
	<node id="-138786" lat="66.1974833308" lon="13.0549027811">
		<tag k="name" v="Mellomfjellet" />
		<tag k="natural" v="ridge" />
		<tag k="place" v="locality" />
		<tag k="ssr:stedsnr" v="836831" />
	</node>
	<node id="-138781" lat="66.1902333338" lon="13.0861055547">
		<tag k="name" v="Innerhatten" />
		<tag k="natural" v="hill" />
		<tag k="place" v="locality" />
		<tag k="ssr:stedsnr" v="835799" />
	</node>
	<node id="-138780" lat="66.183702774" lon="13.0338083217">
		<tag k="name" v="Nøvan" />
		<tag k="natural" v="ridge" />
		<tag k="place" v="locality" />
		<tag k="ssr:stedsnr" v="835702" />
	</node>
	<node id="-138779" lat="66.2382472267" lon="12.8585472127">
		<tag k="name" v="Finnhaugen" />
		<tag k="natural" v="hill" />
		<tag k="place" v="locality" />
		<tag k="ssr:stedsnr" v="835246" />
	</node>
	<node id="-138778" lat="66.2311861083" lon="12.8454694523">
		<tag k="name" v="Gangskaret" />
		<tag k="natural" v="valley" />
		<tag k="place" v="locality" />
		<tag k="ssr:stedsnr" v="835227" />
	</node>
	<node id="-138776" lat="66.2336222264" lon="12.9799333377">
		<tag k="name" v="Blomlia" />
		<tag k="natural" v="slope" />
		<tag k="place" v="locality" />
		<tag k="ssr:stedsnr" v="835185" />
	</node>
	<node id="-138775" lat="66.2528027769" lon="13.0593861001">
		<tag k="name" v="Djupdalan" />
		<tag k="natural" v="valley" />
		<tag k="place" v="locality" />
		<tag k="ssr:stedsnr" v="835090" />
	</node>
	<node id="-138774" lat="66.2934444465" lon="12.854855562">
		<tag k="name" v="Nausthaugen" />
		<tag k="natural" v="hill" />
		<tag k="place" v="locality" />
		<tag k="ssr:stedsnr" v="834837" />
	</node>
	<node id="-138773" lat="66.2812444411" lon="12.7747249965">
		<tag k="name" v="Litlhaugen" />
		<tag k="natural" v="hill" />
		<tag k="place" v="locality" />
		<tag k="ssr:stedsnr" v="834800" />
	</node>
	<node id="-138772" lat="66.2679277778" lon="13.0132583296">
		<tag k="name" v="Klubben" />
		<tag k="natural" v="hill" />
		<tag k="place" v="locality" />
		<tag k="ssr:stedsnr" v="835061" />
	</node>
	<node id="-138770" lat="66.2680222239" lon="12.8668666704">
		<tag k="name" v="Raurapet" />
		<tag k="natural" v="cliff" />
		<tag k="ssr:stedsnr" v="834894" />
	</node>
	<node id="-138768" lat="66.2846861091" lon="13.1474027699">
		<tag k="alt_name" v="Juvikremmen" />
		<tag k="name" v="Juvikremma" />
		<tag k="natural" v="ridge" />
		<tag k="place" v="locality" />
		<tag k="ssr:stedsnr" v="834779" />
	</node>
	<node id="-138767" lat="66.2863944477" lon="13.1253027889">
		<tag k="name" v="Innerdalen" />
		<tag k="natural" v="valley" />
		<tag k="place" v="locality" />
		<tag k="ssr:stedsnr" v="834777" />
	</node>
	<node id="-138766" lat="66.2745611142" lon="13.0245583402">
		<tag k="name" v="Langlihaugen" />
		<tag k="natural" v="ridge" />
		<tag k="place" v="locality" />
		<tag k="ssr:stedsnr" v="834764" />
	</node>
	<node id="-138764" lat="66.2184972181" lon="12.7811472231">
		<tag k="name" v="Kvitbergan" />
		<tag k="natural" v="hill" />
		<tag k="place" v="locality" />
		<tag k="ssr:stedsnr" v="834339" />
	</node>
	<node id="-138761" lat="66.2558388896" lon="13.0751638932">
		<tag k="name" v="Kalvgardsremmen" />
		<tag k="natural" v="slope" />
		<tag k="place" v="locality" />
		<tag k="ssr:stedsnr" v="834037" />
	</node>
	<node id="-138760" lat="66.2593611124" lon="13.0811944472">
		<tag k="name" v="Blåbærhøla" />
		<tag k="natural" v="valley" />
		<tag k="place" v="locality" />
		<tag k="ssr:stedsnr" v="834036" />
	</node>
	<node id="-138758" lat="66.2624361092" lon="13.0492861008">
		<tag k="fixme" v="consider natural=peak for the most distinct mountains in the district" />
		<tag k="name" v="Stokkatinden" />
		<tag k="natural" v="hill" />
		<tag k="place" v="locality" />
		<tag k="ssr:stedsnr" v="805733" />
	</node>
	<node id="-138756" lat="66.2503805544" lon="12.8825722139">
		<tag k="alt_name" v="Staulhaugen" />
		<tag k="name" v="Staulhågen" />
		<tag k="natural" v="hill" />
		<tag k="place" v="locality" />
		<tag k="ssr:stedsnr" v="805728" />
	</node>
	<node id="-138753" lat="66.2862444435" lon="12.8661888926">
		<tag k="name" v="Fløttvikbakken" />
		<tag k="natural" v="hill" />
		<tag k="place" v="locality" />
		<tag k="ssr:stedsnr" v="805692" />
	</node>
	<node id="-138751" lat="66.2890888846" lon="12.8675277738">
		<tag k="name" v="Durmålshaugen" />
		<tag k="natural" v="hill" />
		<tag k="place" v="locality" />
		<tag k="ssr:stedsnr" v="805688" />
	</node>
	<node id="-138749" lat="66.2796527783" lon="12.8396750061">
		<tag k="fixme" v="consider natural=peak for the most distinct mountains in the district" />
		<tag k="name" v="Tomskjevelen" />
		<tag k="natural" v="hill" />
		<tag k="place" v="locality" />
		<tag k="ssr:stedsnr" v="805683" />
	</node>
	<node id="-138740" lat="66.2346444462" lon="13.2706388846">
		<tag k="name" v="Raudbergan" />
		<tag k="natural" v="hill" />
		<tag k="place" v="locality" />
		<tag k="ssr:stedsnr" v="804135" />
	</node>
	<node id="-138738" lat="66.189349999" lon="13.0397805472">
		<tag k="name" v="Bjønndalsstrupen" />
		<tag k="natural" v="valley" />
		<tag k="place" v="locality" />
		<tag k="ssr:stedsnr" v="775828" />
	</node>
	<node id="-138737" lat="66.1934694445" lon="13.0509805538">
		<tag k="name" v="Høgfjelldalen" />
		<tag k="natural" v="valley" />
		<tag k="place" v="locality" />
		<tag k="ssr:stedsnr" v="775820" />
	</node>
	<node id="-138736" lat="66.2025027813" lon="13.0517611015">
		<tag k="name" v="Langbakken" />
		<tag k="natural" v="slope" />
		<tag k="place" v="locality" />
		<tag k="ssr:stedsnr" v="775816" />
	</node>
	<node id="-138735" lat="66.1996111125" lon="13.0568194429">
		<tag k="name" v="Røyskattfloget" />
		<tag k="natural" v="cliff" />
		<tag k="ssr:stedsnr" v="775814" />
	</node>
	<node id="-138734" lat="66.1984361115" lon="13.1751805613">
		<tag k="name" v="Risekula" />
		<tag k="natural" v="hill" />
		<tag k="place" v="locality" />
		<tag k="ssr:stedsnr" v="774793" />
	</node>
	<node id="-138733" lat="66.1810000007" lon="13.0709833272">
		<tag k="name" v="Jonrabben" />
		<tag k="natural" v="ridge" />
		<tag k="place" v="locality" />
		<tag k="ssr:stedsnr" v="774780" />
	</node>
	<node id="-138731" lat="66.2324999977" lon="12.85113888">
		<tag k="name" v="Steinskaret" />
		<tag k="natural" v="valley" />
		<tag k="place" v="locality" />
		<tag k="ssr:stedsnr" v="774237" />
	</node>
	<node id="-138729" lat="66.2340972192" lon="12.9789750037">
		<tag k="name" v="Strupen" />
		<tag k="natural" v="valley" />
		<tag k="place" v="locality" />
		<tag k="ssr:stedsnr" v="774192" />
	</node>
	<node id="-138727" lat="66.2403138909" lon="12.9434277829">
		<tag k="name" v="Sørkleivan" />
		<tag k="natural" v="slope" />
		<tag k="place" v="locality" />
		<tag k="ssr:stedsnr" v="774136" />
	</node>
	<node id="-138726" lat="66.2299833353" lon="12.9538777733">
		<tag k="name" v="Dilrakleivan" />
		<tag k="natural" v="slope" />
		<tag k="place" v="locality" />
		<tag k="ssr:stedsnr" v="774133" />
	</node>
	<node id="-138723" lat="66.2303166645" lon="12.9652083408">
		<tag k="name" v="Dilralia" />
		<tag k="natural" v="slope" />
		<tag k="place" v="locality" />
		<tag k="ssr:stedsnr" v="774123" />
	</node>
	<node id="-138721" lat="66.2632194418" lon="12.9753777715">
		<tag k="name" v="Tjuvhaugen" />
		<tag k="natural" v="hill" />
		<tag k="place" v="locality" />
		<tag k="ssr:stedsnr" v="774097" />
	</node>
	<node id="-138720" lat="66.2588305553" lon="12.9848555595">
		<tag k="name" v="Ågstrupen" />
		<tag k="natural" v="valley" />
		<tag k="place" v="locality" />
		<tag k="ssr:stedsnr" v="774087" />
	</node>
	<node id="-138716" lat="66.2905611146" lon="12.8683527677">
		<tag k="name" v="Øverkyrhaugen" />
		<tag k="natural" v="ridge" />
		<tag k="place" v="locality" />
		<tag k="ssr:stedsnr" v="773791" />
	</node>
	<node id="-138715" lat="66.2860000027" lon="13.1373749997">
		<tag k="fixme" v="consider natural=peak for the most distinct mountains in the district" />
		<tag k="name" v="Vinkelbenken" />
		<tag k="natural" v="hill" />
		<tag k="place" v="locality" />
		<tag k="ssr:stedsnr" v="773761" />
	</node>
	<node id="-138714" lat="66.2778277795" lon="13.0401861037">
		<tag k="name" v="Bjønnvika" />
		<tag k="natural" v="valley" />
		<tag k="place" v="locality" />
		<tag k="ssr:stedsnr" v="773747" />
	</node>
	<node id="-138708" lat="66.2326722249" lon="13.1020805565">
		<tag k="name" v="Stordalen" />
		<tag k="natural" v="valley" />
		<tag k="place" v="locality" />
		<tag k="ssr:stedsnr" v="773186" />
	</node>
	<node id="-138705" lat="66.2106638902" lon="13.0998750007">
		<tag k="name" v="Handådalslia" />
		<tag k="natural" v="slope" />
		<tag k="place" v="locality" />
		<tag k="ssr:stedsnr" v="773282" />
	</node>
	<node id="-138703" lat="66.2652333306" lon="13.2005416755">
		<tag k="name" v="Tortenbakken" />
		<tag k="natural" v="slope" />
		<tag k="place" v="locality" />
		<tag k="ssr:stedsnr" v="773020" />
	</node>
	<node id="-138702" lat="66.266319445" lon="13.2014305637">
		<tag k="name" v="Matlibakken" />
		<tag k="natural" v="slope" />
		<tag k="place" v="locality" />
		<tag k="ssr:stedsnr" v="773016" />
	</node>
	<node id="-138701" lat="66.2675138847" lon="13.2190138943">
		<tag k="name" v="Storliåsen" />
		<tag k="natural" v="hill" />
		<tag k="place" v="locality" />
		<tag k="ssr:stedsnr" v="772041" />
	</node>
	<node id="-138700" lat="66.2263222249" lon="12.7866527805">
		<tag k="name" v="Gjerdan" />
		<tag k="place" v="locality" />
		<tag k="ssr:stedsnr" v="752273" />
	</node>
	<node id="-138699" lat="66.2631194442" lon="13.2444194355">
		<tag k="name" v="Kjølen" />
		<tag k="natural" v="hill" />
		<tag k="place" v="locality" />
		<tag k="ssr:stedsnr" v="744934" />
	</node>
	<node id="-138687" lat="66.204683331" lon="13.0628944396">
		<tag k="name" v="Kaldkleivdalen" />
		<tag k="natural" v="valley" />
		<tag k="place" v="locality" />
		<tag k="ssr:stedsnr" v="653841" />
	</node>
	<node id="-138684" lat="66.2910833291" lon="12.8387583422">
		<tag k="name" v="Sellotkleiva" />
		<tag k="natural" v="slope" />
		<tag k="place" v="locality" />
		<tag k="ssr:stedsnr" v="652829" />
	</node>
	<node id="-138683" lat="66.2771277798" lon="12.7743972188">
		<tag k="name" v="Strypen" />
		<tag k="natural" v="valley" />
		<tag k="place" v="locality" />
		<tag k="ssr:stedsnr" v="652777" />
	</node>
	<node id="-138679" lat="66.2867027782" lon="13.0915999977">
		<tag k="name" v="Melia" />
		<tag k="natural" v="slope" />
		<tag k="place" v="locality" />
		<tag k="ssr:stedsnr" v="652754" />
	</node>
	<node id="-138678" lat="66.2645805581" lon="12.8793555547">
		<tag k="name" v="Olderneset" />
		<tag k="place" v="locality" />
		<tag k="ssr:stedsnr" v="652944" />
	</node>
	<node id="-138677" lat="66.2608694451" lon="12.8308055546">
		<tag k="name" v="Merradalen" />
		<tag k="natural" v="valley" />
		<tag k="place" v="locality" />
		<tag k="ssr:stedsnr" v="652928" />
	</node>
	<node id="-138676" lat="66.2695888897" lon="12.8577166689">
		<tag k="name" v="Vasshuslia" />
		<tag k="natural" v="slope" />
		<tag k="place" v="locality" />
		<tag k="ssr:stedsnr" v="652922" />
	</node>
	<node id="-138675" lat="66.2677138886" lon="12.8574777872">
		<tag k="name" v="Jorda" />
		<tag k="place" v="locality" />
		<tag k="ssr:stedsnr" v="652920" />
	</node>
	<node id="-138671" lat="66.2463527781" lon="12.8664888962">
		<tag k="name" v="Almliflogan" />
		<tag k="natural" v="cliff" />
		<tag k="ssr:stedsnr" v="652192" />
	</node>
	<node id="-138668" lat="66.2291666627" lon="12.7713805565">
		<tag k="name" v="Kvilhaugen" />
		<tag k="natural" v="hill" />
		<tag k="place" v="locality" />
		<tag k="ssr:stedsnr" v="652163" />
	</node>
	<node id="-138667" lat="66.2411249994" lon="13.1382611047">
		<tag k="fixme" v="consider natural=peak for the most distinct mountains in the district" />
		<tag k="name" v="Remmååsen" />
		<tag k="natural" v="hill" />
		<tag k="place" v="locality" />
		<tag k="ssr:stedsnr" v="652136" />
	</node>
	<node id="-138664" lat="66.2594805559" lon="12.9822666729">
		<tag k="name" v="Tvillingan" />
		<tag k="natural" v="ridge" />
		<tag k="place" v="locality" />
		<tag k="ssr:stedsnr" v="652073" />
	</node>
	<node id="-138663" lat="66.2632250032" lon="13.214852782">
		<tag k="name" v="Trastberget" />
		<tag k="natural" v="hill" />
		<tag k="place" v="locality" />
		<tag k="ssr:stedsnr" v="652007" />
	</node>
	<node id="-138662" lat="66.263391664" lon="13.1847638902">
		<tag k="fixme" v="consider natural=peak for the most distinct mountains in the district" />
		<tag k="name" v="Strandåsen" />
		<tag k="natural" v="hill" />
		<tag k="place" v="locality" />
		<tag k="ssr:stedsnr" v="652001" />
	</node>
	<node id="-138661" lat="66.2669333352" lon="12.7395916772">
		<tag k="name" v="Nerbergskaret" />
		<tag k="natural" v="valley" />
		<tag k="place" v="locality" />
		<tag k="ssr:stedsnr" v="651974" />
	</node>
	<node id="-138657" lat="66.2263277781" lon="12.8011194423">
		<tag k="name" v="Småheian" />
		<tag k="natural" v="hill" />
		<tag k="place" v="locality" />
		<tag k="ssr:stedsnr" v="651344" />
	</node>
	<node id="-138655" lat="66.2480805561" lon="13.0173388824">
		<tag k="name" v="Nakken" />
		<tag k="natural" v="ridge" />
		<tag k="place" v="locality" />
		<tag k="ssr:stedsnr" v="651208" />
	</node>
	<node id="-138653" lat="66.2429416622" lon="13.0046388917">
		<tag k="name" v="Melkarsletta" />
		<tag k="place" v="locality" />
		<tag k="ssr:stedsnr" v="651205" />
	</node>
	<node id="-138651" lat="66.2402888867" lon="13.0060388854">
		<tag k="name" v="Brattlia" />
		<tag k="natural" v="slope" />
		<tag k="place" v="locality" />
		<tag k="ssr:stedsnr" v="651200" />
	</node>
	<node id="-138648" lat="66.2111499999" lon="13.0928777849">
		<tag k="name" v="Jakobrabbe" />
		<tag k="natural" v="ridge" />
		<tag k="place" v="locality" />
		<tag k="ssr:stedsnr" v="651268" />
	</node>
	<node id="-138638" lat="66.2694333374" lon="12.7777083402">
		<tag k="fixme" v="consider natural=peak for the most distinct mountains in the district" />
		<tag k="name" v="Breitomma" />
		<tag k="natural" v="hill" />
		<tag k="place" v="locality" />
		<tag k="ssr:stedsnr" v="623732" />
	</node>
	<node id="-138637" lat="66.2169888868" lon="13.1838194469">
		<tag k="name" v="Hinderågdalen" />
		<tag k="natural" v="valley" />
		<tag k="place" v="locality" />
		<tag k="ssr:stedsnr" v="622855" />
	</node>
	<node id="-138625" lat="66.2787749994" lon="13.0367722324">
		<tag k="alt_name" v="Bjørnvikberget" />
		<tag k="name" v="Bjønnvikberget" />
		<tag k="natural" v="hill" />
		<tag k="place" v="locality" />
		<tag k="ssr:stedsnr" v="622711" />
	</node>
	<node id="-138623" lat="66.2522527781" lon="13.1810666644">
		<tag k="name" v="Tuten" />
		<tag k="natural" v="hill" />
		<tag k="place" v="locality" />
		<tag k="ssr:stedsnr" v="622627" />
	</node>
	<node id="-138618" lat="66.2677805528" lon="12.9735750013">
		<tag k="name" v="Ørnhaugen" />
		<tag k="natural" v="hill" />
		<tag k="place" v="locality" />
		<tag k="ssr:stedsnr" v="592927" />
	</node>
	<node id="-138616" lat="66.1940749968" lon="13.1287166602">
		<tag k="name" v="Benken" />
		<tag k="natural" v="ridge" />
		<tag k="place" v="locality" />
		<tag k="ssr:stedsnr" v="592895" />
	</node>
	<node id="-138615" lat="66.2531138906" lon="12.7508444552">
		<tag k="name" v="Liss-Skardhågjen" />
		<tag k="natural" v="hill" />
		<tag k="place" v="locality" />
		<tag k="ssr:stedsnr" v="592389" />
	</node>
	<node id="-138614" lat="66.2274722203" lon="12.7970333333">
		<tag k="name" v="Brandbergan" />
		<tag k="natural" v="cliff" />
		<tag k="ssr:stedsnr" v="592252" />
	</node>
	<node id="-138613" lat="66.2298944457" lon="12.834775">
		<tag k="name" v="Innerkleivenden" />
		<tag k="natural" v="ridge" />
		<tag k="place" v="locality" />
		<tag k="ssr:stedsnr" v="592243" />
	</node>
	<node id="-138612" lat="66.2460583299" lon="12.8861888807">
		<tag k="name" v="Skjåhaugen" />
		<tag k="natural" v="hill" />
		<tag k="place" v="locality" />
		<tag k="ssr:stedsnr" v="592231" />
	</node>
	<node id="-138611" lat="66.2465555517" lon="12.8804888872">
		<tag k="name" v="Merrahaugen" />
		<tag k="natural" v="hill" />
		<tag k="place" v="locality" />
		<tag k="ssr:stedsnr" v="592229" />
	</node>
	<node id="-138610" lat="66.2481805549" lon="12.8803555465">
		<tag k="name" v="Grindhaugen" />
		<tag k="natural" v="hill" />
		<tag k="place" v="locality" />
		<tag k="ssr:stedsnr" v="592228" />
	</node>
	<node id="-138608" lat="66.2467416654" lon="12.7438694426">
		<tag k="name" v="Nausthaugen" />
		<tag k="natural" v="hill" />
		<tag k="place" v="locality" />
		<tag k="ssr:stedsnr" v="592208" />
	</node>
	<node id="-138607" lat="66.2335388878" lon="12.7576333225">
		<tag k="name" v="Slettskaret" />
		<tag k="natural" v="valley" />
		<tag k="place" v="locality" />
		<tag k="ssr:stedsnr" v="592198" />
	</node>
	<node id="-138605" lat="66.2693555528" lon="13.0427861124">
		<tag k="name" v="Storgjota" />
		<tag k="natural" v="valley" />
		<tag k="place" v="locality" />
		<tag k="ssr:stedsnr" v="592107" />
	</node>
	<node id="-138602" lat="66.2609166656" lon="13.0004333302">
		<tag k="name" v="Skandalskråga" />
		<tag k="natural" v="valley" />
		<tag k="place" v="locality" />
		<tag k="ssr:stedsnr" v="592076" />
	</node>
	<node id="-138600" lat="66.2835000002" lon="13.1609694416">
		<tag k="fixme" v="consider natural=peak for the most distinct mountains in the district" />
		<tag k="name" v="Størkvikåsen" />
		<tag k="natural" v="hill" />
		<tag k="place" v="locality" />
		<tag k="ssr:stedsnr" v="591990" />
	</node>
	<node id="-138599" lat="66.2840722243" lon="13.1554222126">
		<tag k="name" v="Stutaket" />
		<tag k="natural" v="ridge" />
		<tag k="place" v="locality" />
		<tag k="ssr:stedsnr" v="591989" />
	</node>
	<node id="-138598" lat="66.2728916655" lon="13.1983083294">
		<tag k="name" v="Rishaugen" />
		<tag k="natural" v="hill" />
		<tag k="place" v="locality" />
		<tag k="ssr:stedsnr" v="591984" />
	</node>
	<node id="-138596" lat="66.2801833361" lon="13.2470250116">
		<tag k="fixme" v="consider natural=peak for the most distinct mountains in the district" />
		<tag k="name" v="Stortinden" />
		<tag k="natural" v="hill" />
		<tag k="ssr:stedsnr" v="591978" />
	</node>
	<node id="-138595" lat="66.2760583294" lon="13.2369138883">
		<tag k="name" v="Finnglunthaugen" />
		<tag k="natural" v="hill" />
		<tag k="place" v="locality" />
		<tag k="ssr:stedsnr" v="591952" />
	</node>
	<node id="-138594" lat="66.2609111131" lon="12.8827416746">
		<tag k="name" v="Åsletta" />
		<tag k="place" v="locality" />
		<tag k="ssr:stedsnr" v="591943" />
	</node>
	<node id="-138593" lat="66.2726999981" lon="12.7565333326">
		<tag k="name" v="Svarthellaren" />
		<tag k="place" v="locality" />
		<tag k="ssr:stedsnr" v="591784" />
	</node>
	<node id="-138592" lat="66.2837583301" lon="12.781541663">
		<tag k="fixme" v="consider natural=peak for the most distinct mountains in the district" />
		<tag k="name" v="Risåsen" />
		<tag k="natural" v="hill" />
		<tag k="place" v="locality" />
		<tag k="ssr:stedsnr" v="591775" />
	</node>
	<node id="-138591" lat="66.2859277754" lon="13.0971944499">
		<tag k="name" v="Høglia" />
		<tag k="natural" v="slope" />
		<tag k="place" v="locality" />
		<tag k="ssr:stedsnr" v="591760" />
	</node>
	<node id="-138589" lat="66.2730388865" lon="13.0336527738">
		<tag k="name" v="Raumolan" />
		<tag k="natural" v="slope" />
		<tag k="place" v="locality" />
		<tag k="ssr:stedsnr" v="591752" />
	</node>
	<node id="-138587" lat="66.2823055565" lon="13.0594416574">
		<tag k="name" v="Templan" />
		<tag k="natural" v="ridge" />
		<tag k="place" v="locality" />
		<tag k="ssr:stedsnr" v="591745" />
	</node>
	<node id="-138586" lat="66.1823444485" lon="13.0379444479">
		<tag k="name" v="Hamkamdalen" />
		<tag k="natural" v="valley" />
		<tag k="place" v="locality" />
		<tag k="ssr:stedsnr" v="591632" />
	</node>
	<node id="-138585" lat="66.2929805547" lon="12.8488222218">
		<tag k="name" v="Annahaugen" />
		<tag k="natural" v="hill" />
		<tag k="place" v="locality" />
		<tag k="ssr:stedsnr" v="591832" />
	</node>
	<node id="-138583" lat="66.2329166714" lon="13.1183277679">
		<tag k="name" v="Skjulhammaren" />
		<tag k="natural" v="ridge" />
		<tag k="place" v="locality" />
		<tag k="ssr:stedsnr" v="591281" />
	</node>
	<node id="-138581" lat="66.2198388892" lon="13.1267555542">
		<tag k="name" v="Kråkbærlia" />
		<tag k="natural" v="slope" />
		<tag k="place" v="locality" />
		<tag k="ssr:stedsnr" v="591220" />
	</node>
	<node id="-138580" lat="66.2485611068" lon="13.02196111">
		<tag k="name" v="Rundhaugen" />
		<tag k="natural" v="hill" />
		<tag k="place" v="locality" />
		<tag k="ssr:stedsnr" v="591161" />
	</node>
	<node id="-138577" lat="66.2340250027" lon="13.1148333408">
		<tag k="name" v="Nerebukten" />
		<tag k="natural" v="valley" />
		<tag k="place" v="locality" />
		<tag k="ssr:stedsnr" v="591139" />
	</node>
	<node id="-138576" lat="66.2200138926" lon="12.8246861178">
		<tag k="name" v="Ryddingshaugen" />
		<tag k="natural" v="hill" />
		<tag k="place" v="locality" />
		<tag k="ssr:stedsnr" v="590360" />
	</node>
	<node id="-138570" lat="66.277488889" lon="13.0282333433">
		<tag k="alt_name" v="Stigberget" />
		<tag k="name" v="Stiberget" />
		<tag k="natural" v="hill" />
		<tag k="place" v="locality" />
		<tag k="ssr:stedsnr" v="562693" />
	</node>
	<node id="-138566" lat="66.2767666635" lon="13.2870944404">
		<tag k="fixme" v="consider natural=peak for the most distinct mountains in the district" />
		<tag k="name" v="Fransvikfjellet" />
		<tag k="natural" v="hill" />
		<tag k="place" v="locality" />
		<tag k="ssr:stedsnr" v="561968" />
	</node>
	<node id="-138563" lat="66.1701361117" lon="12.8747361141">
		<tag k="alt_name" v="Kloven" />
		<tag k="name" v="Kløven" />
		<tag k="natural" v="valley" />
		<tag k="place" v="locality" />
		<tag k="ssr:stedsnr" v="561796" />
	</node>
	<node id="-138557" lat="66.2514916697" lon="13.0201138961">
		<tag k="alt_name" v="Hinesskardet" />
		<tag k="name" v="Hinesskaret" />
		<tag k="natural" v="valley" />
		<tag k="place" v="locality" />
		<tag k="ssr:stedsnr" v="561639" />
	</node>
	<node id="-138551" lat="66.1917055534" lon="13.1113500076">
		<tag k="name" v="Svartfloget" />
		<tag k="natural" v="cliff" />
		<tag k="ssr:stedsnr" v="532843" />
	</node>
	<node id="-138550" lat="66.1850111144" lon="13.0337555634">
		<tag k="name" v="Sandnesbjørndalen" />
		<tag k="natural" v="valley" />
		<tag k="place" v="locality" />
		<tag k="ssr:stedsnr" v="532832" />
	</node>
	<node id="-138548" lat="66.1783305572" lon="13.0412999901">
		<tag k="name" v="Dalasletta" />
		<tag k="place" v="locality" />
		<tag k="ssr:stedsnr" v="531731" />
	</node>
	<node id="-138547" lat="66.1820333338" lon="13.0755027673">
		<tag k="name" v="Langbakken" />
		<tag k="natural" v="slope" />
		<tag k="place" v="locality" />
		<tag k="ssr:stedsnr" v="531800" />
	</node>
	<node id="-138546" lat="66.2151277745" lon="12.742822217">
		<tag k="name" v="Bjørnekkerhaugen" />
		<tag k="natural" v="hill" />
		<tag k="place" v="locality" />
		<tag k="ssr:stedsnr" v="531339" />
	</node>
	<node id="-138544" lat="66.2263361079" lon="12.7633416591">
		<tag k="name" v="Låvhaugen" />
		<tag k="natural" v="hill" />
		<tag k="place" v="locality" />
		<tag k="ssr:stedsnr" v="531335" />
	</node>
	<node id="-138543" lat="66.2320555514" lon="12.7871111056">
		<tag k="fixme" v="consider natural=peak for the most distinct mountains in the district" />
		<tag k="name" v="Flatåsen" />
		<tag k="natural" v="hill" />
		<tag k="place" v="locality" />
		<tag k="ssr:stedsnr" v="531243" />
	</node>
	<node id="-138542" lat="66.2308472223" lon="12.7883749955">
		<tag k="fixme" v="consider natural=peak for the most distinct mountains in the district" />
		<tag k="name" v="Høyåsen" />
		<tag k="natural" v="hill" />
		<tag k="place" v="locality" />
		<tag k="ssr:stedsnr" v="531241" />
	</node>
	<node id="-138541" lat="66.2066138856" lon="12.9147361081">
		<tag k="name" v="Ørnneshaugen" />
		<tag k="natural" v="hill" />
		<tag k="place" v="locality" />
		<tag k="ssr:stedsnr" v="531365" />
	</node>
	<node id="-138539" lat="66.2442416636" lon="12.9534583413">
		<tag k="name" v="Sørremmen" />
		<tag k="natural" v="ridge" />
		<tag k="place" v="locality" />
		<tag k="ssr:stedsnr" v="531131" />
	</node>
	<node id="-138538" lat="66.2335527748" lon="12.938280566">
		<tag k="name" v="Vedbakken" />
		<tag k="natural" v="slope" />
		<tag k="place" v="locality" />
		<tag k="ssr:stedsnr" v="531126" />
	</node>
	<node id="-138535" lat="66.2543333312" lon="13.0658055451">
		<tag k="name" v="Storsjylia" />
		<tag k="natural" v="slope" />
		<tag k="place" v="locality" />
		<tag k="ssr:stedsnr" v="531088" />
	</node>
	<node id="-138533" lat="66.2601611088" lon="12.9863777787">
		<tag k="name" v="Høghellaren" />
		<tag k="place" v="locality" />
		<tag k="ssr:stedsnr" v="531078" />
	</node>
	<node id="-138532" lat="66.2580166657" lon="12.9922277673">
		<tag k="name" v="Saubakken" />
		<tag k="natural" v="slope" />
		<tag k="place" v="locality" />
		<tag k="ssr:stedsnr" v="531075" />
	</node>
	<node id="-138529" lat="66.2653749957" lon="12.870463888">
		<tag k="name" v="Vedbergan" />
		<tag k="natural" v="cliff" />
		<tag k="ssr:stedsnr" v="530893" />
	</node>
	<node id="-138528" lat="66.2684305566" lon="13.0139222272">
		<tag k="name" v="Durmålskaret" />
		<tag k="natural" v="valley" />
		<tag k="place" v="locality" />
		<tag k="ssr:stedsnr" v="531059" />
	</node>
	<node id="-138526" lat="66.2552555567" lon="13.1336527746">
		<tag k="name" v="Merkesteinholmen" />
		<tag k="natural" v="hill" />
		<tag k="place" v="locality" />
		<tag k="ssr:stedsnr" v="530077" />
	</node>
	<node id="-138525" lat="66.2607249981" lon="13.2135388864">
		<tag k="name" v="Staklisletta" />
		<tag k="place" v="locality" />
		<tag k="ssr:stedsnr" v="530072" />
	</node>
	<node id="-138523" lat="66.2633166702" lon="13.2316750082">
		<tag k="name" v="Engenlia" />
		<tag k="natural" v="slope" />
		<tag k="place" v="locality" />
		<tag k="ssr:stedsnr" v="530060" />
	</node>
	<node id="-138517" lat="66.1935972237" lon="13.0374416735">
		<tag k="name" v="Småbergan" />
		<tag k="natural" v="cliff" />
		<tag k="ssr:stedsnr" v="411819" />
	</node>
	<node id="-138516" lat="66.2512083316" lon="12.8747999917">
		<tag k="name" v="Neplandet" />
		<tag k="natural" v="slope" />
		<tag k="place" v="locality" />
		<tag k="ssr:stedsnr" v="410900" />
	</node>
	<node id="-138511" lat="66.2463777738" lon="12.8893638979">
		<tag k="name" v="Leirskjerhaugen" />
		<tag k="natural" v="hill" />
		<tag k="place" v="locality" />
		<tag k="ssr:stedsnr" v="410212" />
	</node>
	<node id="-138510" lat="66.2314055562" lon="12.7609833373">
		<tag k="name" v="Svinhaugen" />
		<tag k="natural" v="hill" />
		<tag k="place" v="locality" />
		<tag k="ssr:stedsnr" v="410179" />
	</node>
	<node id="-138509" lat="66.2359277779" lon="12.9973638898">
		<tag k="name" v="Markuslia" />
		<tag k="natural" v="slope" />
		<tag k="place" v="locality" />
		<tag k="ssr:stedsnr" v="410125" />
	</node>
	<node id="-138508" lat="66.2307277818" lon="12.9374444513">
		<tag k="name" v="Bergsnøvæ" />
		<tag k="natural" v="ridge" />
		<tag k="place" v="locality" />
		<tag k="ssr:stedsnr" v="410117" />
	</node>
	<node id="-138507" lat="66.2307805513" lon="12.9630694541">
		<tag k="name" v="Strupasletta" />
		<tag k="place" v="locality" />
		<tag k="ssr:stedsnr" v="410114" />
	</node>
	<node id="-138506" lat="66.2622944484" lon="13.0044499915">
		<tag k="name" v="Svartfloget" />
		<tag k="natural" v="cliff" />
		<tag k="ssr:stedsnr" v="410110" />
	</node>
	<node id="-138504" lat="66.2593999984" lon="12.9758138852">
		<tag k="name" v="Klepphellaren" />
		<tag k="place" v="locality" />
		<tag k="ssr:stedsnr" v="410084" />
	</node>
	<node id="-138503" lat="66.263997226" lon="12.9913500026">
		<tag k="name" v="Hesthøla" />
		<tag k="natural" v="valley" />
		<tag k="place" v="locality" />
		<tag k="ssr:stedsnr" v="410077" />
	</node>
	<node id="-138502" lat="66.2656861116" lon="13.0057555566">
		<tag k="name" v="Heie" />
		<tag k="natural" v="slope" />
		<tag k="place" v="locality" />
		<tag k="ssr:stedsnr" v="410065" />
	</node>
	<node id="-138501" lat="66.2527277817" lon="12.9698083329">
		<tag k="name" v="Svarthammaren" />
		<tag k="natural" v="cliff" />
		<tag k="ssr:stedsnr" v="410052" />
	</node>
	<node id="-138500" lat="66.2924138923" lon="12.8477166782">
		<tag k="name" v="Moen" />
		<tag k="place" v="locality" />
		<tag k="ssr:stedsnr" v="409832" />
	</node>
	<node id="-138499" lat="66.2714138872" lon="12.9981361115">
		<tag k="name" v="Demmen" />
		<tag k="place" v="locality" />
		<tag k="ssr:stedsnr" v="409809" />
	</node>
	<node id="-138493" lat="66.2837111096" lon="13.1771166668">
		<tag k="name" v="Båthellaren" />
		<tag k="place" v="locality" />
		<tag k="ssr:stedsnr" v="409776" />
	</node>
	<node id="-138489" lat="66.2695166659" lon="12.7484222122">
		<tag k="fixme" v="consider natural=peak for the most distinct mountains in the district" />
		<tag k="name" v="Mellombelgen" />
		<tag k="natural" v="hill" />
		<tag k="place" v="locality" />
		<tag k="ssr:stedsnr" v="409960" />
	</node>
	<node id="-138488" lat="66.2358194446" lon="12.7741083252">
		<tag k="name" v="Solliseter" />
		<tag k="natural" v="valley" />
		<tag k="place" v="locality" />
		<tag k="ssr:stedsnr" v="409241" />
	</node>
	<node id="-138487" lat="66.2368305522" lon="12.778980549">
		<tag k="fixme" v="consider natural=peak for the most distinct mountains in the district" />
		<tag k="name" v="Langåsen" />
		<tag k="natural" v="hill" />
		<tag k="place" v="locality" />
		<tag k="ssr:stedsnr" v="409240" />
	</node>
	<node id="-138485" lat="66.2290833298" lon="13.1017638865">
		<tag k="name" v="Hersetåsen" />
		<tag k="natural" v="hill" />
		<tag k="place" v="locality" />
		<tag k="ssr:stedsnr" v="409193" />
	</node>
	<node id="-138482" lat="66.2649527773" lon="13.1892583322">
		<tag k="name" v="Kjerkåsen" />
		<tag k="natural" v="ridge" />
		<tag k="place" v="locality" />
		<tag k="ssr:stedsnr" v="409005" />
	</node>
	<node id="-138481" lat="66.2175499986" lon="12.8220138942">
		<tag k="name" v="Bonberget" />
		<tag k="natural" v="hill" />
		<tag k="place" v="locality" />
		<tag k="ssr:stedsnr" v="409354" />
	</node>
	<node id="-138480" lat="66.2667666663" lon="13.2394000016">
		<tag k="name" v="Munnarhølan" />
		<tag k="natural" v="valley" />
		<tag k="place" v="locality" />
		<tag k="ssr:stedsnr" v="408050" />
	</node>
	<node id="-138479" lat="66.2649833328" lon="13.2305194335">
		<tag k="name" v="Bjønnhaugen" />
		<tag k="natural" v="hill" />
		<tag k="place" v="locality" />
		<tag k="ssr:stedsnr" v="408040" />
	</node>
	<node id="-138478" lat="66.2739416662" lon="13.0157250038">
		<tag k="fixme" v="consider natural=peak for the most distinct mountains in the district" />
		<tag k="name" v="Grønåsen" />
		<tag k="natural" v="hill" />
		<tag k="place" v="locality" />
		<tag k="ssr:stedsnr" v="380755" />
	</node>
	<node id="-138475" lat="66.2830861135" lon="13.0606833415">
		<tag k="name" v="Olakjelda" />
		<tag k="place" v="locality" />
		<tag k="ssr:stedsnr" v="380737" />
	</node>
	<node id="-138473" lat="66.2462777806" lon="12.7241055491">
		<tag k="alt_name" v="Tusskleppen" />
		<tag k="fixme" v="consider natural=peak for the most distinct mountains in the district" />
		<tag k="name" v="Tuskleppen" />
		<tag k="natural" v="hill" />
		<tag k="place" v="locality" />
		<tag k="ssr:stedsnr" v="379921" />
	</node>
	<node id="-138467" lat="66.2338888886" lon="13.1982388809">
		<tag k="name" v="Skogslakken" />
		<tag k="natural" v="slope" />
		<tag k="place" v="locality" />
		<tag k="ssr:stedsnr" v="379828" />
	</node>
	<node id="-138465" lat="66.2289222186" lon="12.8091888801">
		<tag k="fixme" v="consider natural=peak for the most distinct mountains in the district" />
		<tag k="name" v="Digermulen" />
		<tag k="natural" v="hill" />
		<tag k="place" v="locality" />
		<tag k="ssr:stedsnr" v="379815" />
	</node>
	<node id="-138458" lat="66.1899555521" lon="13.0495999923">
		<tag k="fixme" v="consider natural=peak for the most distinct mountains in the district" />
		<tag k="name" v="Hammarøykamman" />
		<tag k="natural" v="hill" />
		<tag k="place" v="locality" />
		<tag k="ssr:stedsnr" v="379749" />
	</node>
	<node id="-138455" lat="66.2093111128" lon="13.0707027813">
		<tag k="alt_name" v="Grønåsen" />
		<tag k="name" v="Grønnåsen" />
		<tag k="natural" v="slope" />
		<tag k="place" v="locality" />
		<tag k="ssr:stedsnr" v="379731" />
	</node>
	<node id="-138452" lat="66.2540916707" lon="12.848349995">
		<tag k="fixme" v="consider natural=peak for the most distinct mountains in the district" />
		<tag k="name" v="Rundtinden" />
		<tag k="natural" v="hill" />
		<tag k="place" v="locality" />
		<tag k="ssr:stedsnr" v="379714" />
	</node>
	<node id="-138447" lat="66.265899997" lon="12.9872361194">
		<tag k="name" v="Trollhellarhøla" />
		<tag k="natural" v="valley" />
		<tag k="place" v="locality" />
		<tag k="ssr:stedsnr" v="349926" />
	</node>
	<node id="-138446" lat="66.2648833342" lon="12.9852638949">
		<tag k="name" v="Trollhellaren" />
		<tag k="place" v="locality" />
		<tag k="ssr:stedsnr" v="349922" />
	</node>
	<node id="-138445" lat="66.1937944412" lon="12.9168666719">
		<tag k="name" v="Toppdalen" />
		<tag k="natural" v="valley" />
		<tag k="place" v="locality" />
		<tag k="ssr:stedsnr" v="349474" />
	</node>
	<node id="-138442" lat="66.2080611102" lon="12.9449388944">
		<tag k="name" v="Skaran" />
		<tag k="natural" v="valley" />
		<tag k="place" v="locality" />
		<tag k="ssr:stedsnr" v="349419" />
	</node>
	<node id="-138439" lat="66.2465500003" lon="12.8771305561">
		<tag k="name" v="Storhaugen" />
		<tag k="natural" v="hill" />
		<tag k="place" v="locality" />
		<tag k="ssr:stedsnr" v="349236" />
	</node>
	<node id="-138436" lat="66.2338972187" lon="12.9653055548">
		<tag k="name" v="Olderskogen" />
		<tag k="natural" v="slope" />
		<tag k="place" v="locality" />
		<tag k="ssr:stedsnr" v="349141" />
	</node>
	<node id="-138435" lat="66.2613972245" lon="12.9867000041">
		<tag k="name" v="Nebbsteinlia" />
		<tag k="natural" v="slope" />
		<tag k="place" v="locality" />
		<tag k="ssr:stedsnr" v="349096" />
	</node>
	<node id="-138434" lat="66.267838888" lon="12.9998166685">
		<tag k="name" v="Makjenhaugen" />
		<tag k="natural" v="hill" />
		<tag k="place" v="locality" />
		<tag k="ssr:stedsnr" v="349093" />
	</node>
	<node id="-138433" lat="66.2639055586" lon="13.0233527768">
		<tag k="name" v="Kvannlivassstrupen" />
		<tag k="natural" v="valley" />
		<tag k="place" v="locality" />
		<tag k="ssr:stedsnr" v="349088" />
	</node>
	<node id="-138432" lat="66.2697416683" lon="13.0149361094">
		<tag k="name" v="Dyrfloget" />
		<tag k="natural" v="cliff" />
		<tag k="ssr:stedsnr" v="349080" />
	</node>
	<node id="-138431" lat="66.2565749973" lon="12.9756416701">
		<tag k="name" v="Litlkleppen" />
		<tag k="natural" v="hill" />
		<tag k="place" v="locality" />
		<tag k="ssr:stedsnr" v="349076" />
	</node>
	<node id="-138430" lat="66.2574388858" lon="12.9720305645">
		<tag k="name" v="Mølnhusbakken" />
		<tag k="natural" v="slope" />
		<tag k="place" v="locality" />
		<tag k="ssr:stedsnr" v="349074" />
	</node>
	<node id="-138429" lat="66.2833055601" lon="13.1509944353">
		<tag k="name" v="Plukkbærstaden" />
		<tag k="natural" v="slope" />
		<tag k="place" v="locality" />
		<tag k="ssr:stedsnr" v="348983" />
	</node>
	<node id="-138427" lat="66.2682277753" lon="12.74595278">
		<tag k="name" v="Mellombergskaret" />
		<tag k="natural" v="valley" />
		<tag k="place" v="locality" />
		<tag k="ssr:stedsnr" v="348950" />
	</node>
	<node id="-138426" lat="66.2515888861" lon="12.7140361053">
		<tag k="name" v="Ytterkløvan" />
		<tag k="natural" v="slope" />
		<tag k="place" v="locality" />
		<tag k="ssr:stedsnr" v="348929" />
	</node>
	<node id="-138425" lat="66.2673916632" lon="12.8738638791">
		<tag k="name" v="Forsmoan" />
		<tag k="natural" v="slope" />
		<tag k="place" v="locality" />
		<tag k="ssr:stedsnr" v="348917" />
	</node>
	<node id="-138424" lat="66.2578388895" lon="12.8806472177">
		<tag k="fixme" v="consider natural=peak for the most distinct mountains in the district" />
		<tag k="name" v="Tveringsåsen" />
		<tag k="natural" v="hill" />
		<tag k="place" v="locality" />
		<tag k="ssr:stedsnr" v="348909" />
	</node>
	<node id="-138421" lat="66.2678750007" lon="12.8650638972">
		<tag k="name" v="Høgkleiva" />
		<tag k="natural" v="slope" />
		<tag k="place" v="locality" />
		<tag k="ssr:stedsnr" v="348886" />
	</node>
	<node id="-138418" lat="66.2792888878" lon="12.7906833276">
		<tag k="name" v="Storhaugen" />
		<tag k="natural" v="hill" />
		<tag k="place" v="locality" />
		<tag k="ssr:stedsnr" v="348788" />
	</node>
	<node id="-138417" lat="66.225694448" lon="13.1285555611">
		<tag k="fixme" v="consider natural=peak for the most distinct mountains in the district" />
		<tag k="name" v="Høgåsen" />
		<tag k="natural" v="hill" />
		<tag k="place" v="locality" />
		<tag k="ssr:stedsnr" v="348249" />
	</node>
	<node id="-138415" lat="66.245799998" lon="13.0093277743">
		<tag k="name" v="Svarthammeren" />
		<tag k="natural" v="ridge" />
		<tag k="place" v="locality" />
		<tag k="ssr:stedsnr" v="348192" />
	</node>
	<node id="-138406" lat="66.276280554" lon="13.1907555619">
		<tag k="alt_name" v="Skardberget" />
		<tag k="name" v="Skarberget" />
		<tag k="natural" v="hill" />
		<tag k="place" v="locality" />
		<tag k="ssr:stedsnr" v="320713" />
	</node>
	<node id="-138405" lat="66.2045111092" lon="12.9315888826">
		<tag k="fixme" v="consider natural=peak for the most distinct mountains in the district" />
		<tag k="name" v="Varden" />
		<tag k="natural" v="hill" />
		<tag k="place" v="locality" />
		<tag k="ssr:stedsnr" v="319865" />
	</node>
	<node id="-138402" lat="66.2246583315" lon="13.1202944546">
		<tag k="fixme" v="consider natural=peak for the most distinct mountains in the district" />
		<tag k="name" v="Langåsen" />
		<tag k="natural" v="hill" />
		<tag k="place" v="locality" />
		<tag k="ssr:stedsnr" v="319838" />
	</node>
	<node id="-138398" lat="66.2208249965" lon="12.8091000054">
		<tag k="fixme" v="consider natural=peak for the most distinct mountains in the district" />
		<tag k="name" v="Oshaugen" />
		<tag k="natural" v="hill" />
		<tag k="place" v="locality" />
		<tag k="ssr:stedsnr" v="319822" />
	</node>
	<node id="-138396" lat="66.1942500032" lon="12.959805545">
		<tag k="fixme" v="consider natural=peak for the most distinct mountains in the district" />
		<tag k="name" v="Høgåsen" />
		<tag k="natural" v="hill" />
		<tag k="place" v="locality" />
		<tag k="ssr:stedsnr" v="319765" />
	</node>
	<node id="-138387" lat="66.2514638895" lon="12.7661999987">
		<tag k="name" v="Bjørndalen" />
		<tag k="natural" v="valley" />
		<tag k="place" v="locality" />
		<tag k="ssr:stedsnr" v="319611" />
	</node>
	<node id="-138384" lat="66.2338777768" lon="13.1359944447">
		<tag k="fixme" v="consider natural=peak for the most distinct mountains in the district" />
		<tag k="name" v="Rederåsen" />
		<tag k="natural" v="hill" />
		<tag k="place" v="locality" />
		<tag k="ssr:stedsnr" v="318860" />
	</node>
	<node id="-138383" lat="66.2345666693" lon="12.9529611106">
		<tag k="alt_name" v="Mørkhatten" />
		<tag k="fixme" v="consider natural=peak for the most distinct mountains in the district" />
		<tag k="name" v="Mørklihatten" />
		<tag k="natural" v="hill" />
		<tag k="place" v="locality" />
		<tag k="ssr:stedsnr" v="318855" />
	</node>
	<node id="-138379" lat="66.1759999981" lon="12.9032861025">
		<tag k="fixme" v="consider natural=peak for the most distinct mountains in the district" />
		<tag k="name" v="Hugltinden" />
		<tag k="natural" v="hill" />
		<tag k="place" v="locality" />
		<tag k="ssr:stedsnr" v="318800" />
	</node>
	<node id="-138375" lat="66.1946722251" lon="13.1144305658">
		<tag k="name" v="Storgranheia" />
		<tag k="natural" v="slope" />
		<tag k="place" v="locality" />
		<tag k="ssr:stedsnr" v="318788" />
	</node>
	<node id="-138374" lat="66.1895361129" lon="12.9243750033">
		<tag k="fixme" v="consider natural=peak for the most distinct mountains in the district" />
		<tag k="name" v="Høgtuva" />
		<tag k="natural" v="hill" />
		<tag k="place" v="locality" />
		<tag k="ssr:stedsnr" v="318778" />
	</node>
	<node id="-138371" lat="66.2239166646" lon="12.7792972168">
		<tag k="name" v="Grindhaugen" />
		<tag k="natural" v="hill" />
		<tag k="place" v="locality" />
		<tag k="ssr:stedsnr" v="206294" />
	</node>
	<node id="-138370" lat="66.2073194443" lon="12.9366194525">
		<tag k="alt_name" v="Merraskardet" />
		<tag k="name" v="Merraskaret" />
		<tag k="natural" v="valley" />
		<tag k="place" v="locality" />
		<tag k="ssr:stedsnr" v="198872" />
	</node>
	<node id="-138369" lat="66.1997749989" lon="13.0729944424">
		<tag k="fixme" v="consider natural=peak for the most distinct mountains in the district" />
		<tag k="name" v="Kjølen" />
		<tag k="natural" v="hill" />
		<tag k="place" v="locality" />
		<tag k="ssr:stedsnr" v="198760" />
	</node>
	<node id="-138365" lat="66.2824138857" lon="13.050799993">
		<tag k="name" v="Sandvikberget" />
		<tag k="natural" v="hill" />
		<tag k="place" v="locality" />
		<tag k="ssr:stedsnr" v="198695" />
	</node>
	<node id="-138364" lat="66.2756472254" lon="12.8249888806">
		<tag k="name" v="Øvredalen" />
		<tag k="natural" v="valley" />
		<tag k="place" v="locality" />
		<tag k="ssr:stedsnr" v="198679" />
	</node>
	<node id="-138363" lat="66.2553694456" lon="13.0719833302">
		<tag k="name" v="Ankerskogan" />
		<tag k="natural" v="slope" />
		<tag k="place" v="locality" />
		<tag k="ssr:stedsnr" v="198631" />
	</node>
	<node id="-138360" lat="66.2503333295" lon="12.9807166761">
		<tag k="name" v="Ramnfloget" />
		<tag k="natural" v="cliff" />
		<tag k="ssr:stedsnr" v="198621" />
	</node>
	<node id="-138359" lat="66.2505750022" lon="12.8252805525">
		<tag k="fixme" v="consider natural=peak for the most distinct mountains in the district" />
		<tag k="name" v="Litltinden" />
		<tag k="natural" v="hill" />
		<tag k="place" v="locality" />
		<tag k="ssr:stedsnr" v="198619" />
	</node>
	<node id="-138350" lat="66.2121138901" lon="12.8125361013">
		<tag k="name" v="Storvollen" />
		<tag k="place" v="locality" />
		<tag k="ssr:stedsnr" v="171489" />
	</node>
	<node id="-138349" lat="66.1888055563" lon="13.0752416593">
		<tag k="name" v="Storsihaugen" />
		<tag k="natural" v="hill" />
		<tag k="place" v="locality" />
		<tag k="ssr:stedsnr" v="168828" />
	</node>
	<node id="-138347" lat="66.1896027747" lon="13.083447224">
		<tag k="name" v="Ytterhatten" />
		<tag k="natural" v="hill" />
		<tag k="place" v="locality" />
		<tag k="ssr:stedsnr" v="167801" />
	</node>
	<node id="-138345" lat="66.1783027805" lon="13.0339805543">
		<tag k="name" v="Sommarsethaugen" />
		<tag k="natural" v="hill" />
		<tag k="place" v="locality" />
		<tag k="ssr:stedsnr" v="167699" />
	</node>
	<node id="-138343" lat="66.2408111098" lon="13.0008111216">
		<tag k="name" v="Svarthamma" />
		<tag k="natural" v="valley" />
		<tag k="place" v="locality" />
		<tag k="ssr:stedsnr" v="167141" />
	</node>
	<node id="-138342" lat="66.2341833328" lon="12.9443638827">
		<tag k="fixme" v="consider natural=peak for the most distinct mountains in the district" />
		<tag k="name" v="Ørntuva" />
		<tag k="natural" v="hill" />
		<tag k="place" v="locality" />
		<tag k="ssr:stedsnr" v="167139" />
	</node>
	<node id="-138340" lat="66.2278416684" lon="12.9387888873">
		<tag k="name" v="Langskipet" />
		<tag k="natural" v="ridge" />
		<tag k="place" v="locality" />
		<tag k="ssr:stedsnr" v="167131" />
	</node>
	<node id="-138339" lat="66.2392944454" lon="12.8574194526">
		<tag k="name" v="Risåsen" />
		<tag k="natural" v="ridge" />
		<tag k="place" v="locality" />
		<tag k="ssr:stedsnr" v="167250" />
	</node>
	<node id="-138336" lat="66.2328555525" lon="12.8540249896">
		<tag k="name" v="Kjørskaret" />
		<tag k="natural" v="valley" />
		<tag k="place" v="locality" />
		<tag k="ssr:stedsnr" v="167234" />
	</node>
	<node id="-138335" lat="66.2465638879" lon="12.8642555578">
		<tag k="name" v="Hugelbakken" />
		<tag k="natural" v="ridge" />
		<tag k="place" v="locality" />
		<tag k="ssr:stedsnr" v="167231" />
	</node>
	<node id="-138334" lat="66.2279388918" lon="12.8349166691">
		<tag k="name" v="Heimkleivenden" />
		<tag k="natural" v="ridge" />
		<tag k="place" v="locality" />
		<tag k="ssr:stedsnr" v="167229" />
	</node>
	<node id="-138328" lat="66.2623416667" lon="12.9765666615">
		<tag k="name" v="Lyngmoen" />
		<tag k="place" v="locality" />
		<tag k="ssr:stedsnr" v="167080" />
	</node>
	<node id="-138325" lat="66.2796277733" lon="13.2205472279">
		<tag k="fixme" v="consider natural=peak for the most distinct mountains in the district" />
		<tag k="name" v="Moåsen" />
		<tag k="natural" v="hill" />
		<tag k="place" v="locality" />
		<tag k="ssr:stedsnr" v="166950" />
	</node>
	<node id="-138324" lat="66.2845861099" lon="13.2313277837">
		<tag k="name" v="Ørntuva" />
		<tag k="natural" v="hill" />
		<tag k="place" v="locality" />
		<tag k="ssr:stedsnr" v="167000" />
	</node>
	<node id="-138323" lat="66.2921305547" lon="12.8570805542">
		<tag k="name" v="Burhaugen" />
		<tag k="natural" v="hill" />
		<tag k="place" v="locality" />
		<tag k="ssr:stedsnr" v="166834" />
	</node>
	<node id="-138320" lat="66.2846083379" lon="12.7782749931">
		<tag k="name" v="Røvikhaugen" />
		<tag k="natural" v="hill" />
		<tag k="place" v="locality" />
		<tag k="ssr:stedsnr" v="166786" />
	</node>
	<node id="-138319" lat="66.2470583303" lon="13.03945277">
		<tag k="name" v="Hanslibakken" />
		<tag k="natural" v="slope" />
		<tag k="place" v="locality" />
		<tag k="ssr:stedsnr" v="166196" />
	</node>
	<node id="-138316" lat="66.2442055571" lon="13.1686472144">
		<tag k="name" v="Tverråsletta" />
		<tag k="place" v="locality" />
		<tag k="ssr:stedsnr" v="166318" />
	</node>
	<node id="-138315" lat="66.2646416693" lon="13.2039916673">
		<tag k="name" v="Tortendalen" />
		<tag k="natural" v="valley" />
		<tag k="place" v="locality" />
		<tag k="ssr:stedsnr" v="166016" />
	</node>
	<node id="-138314" lat="66.2671361098" lon="13.2130916749">
		<tag k="name" v="Renningan" />
		<tag k="natural" v="slope" />
		<tag k="place" v="locality" />
		<tag k="ssr:stedsnr" v="166010" />
	</node>
	<node id="-138310" lat="66.2238861151" lon="12.774474991">
		<tag k="name" v="Margrethaugen" />
		<tag k="natural" v="hill" />
		<tag k="place" v="locality" />
		<tag k="ssr:stedsnr" v="145292" />
	</node>
	<node id="-138307" lat="66.2584416699" lon="12.9768249956">
		<tag k="name" v="Storkleppen" />
		<tag k="natural" v="hill" />
		<tag k="place" v="locality" />
		<tag k="ssr:stedsnr" v="137710" />
	</node>
	<node id="-138301" lat="66.2604861082" lon="13.1999027711">
		<tag k="alt_name" v="Turtnåsen" />
		<tag k="fixme" v="consider natural=peak for the most distinct mountains in the district" />
		<tag k="name" v="Tortenåsen" />
		<tag k="natural" v="hill" />
		<tag k="place" v="locality" />
		<tag k="ssr:stedsnr" v="137601" />
	</node>
	<node id="-138298" lat="66.2237027819" lon="13.1869611145">
		<tag k="fixme" v="consider natural=peak for the most distinct mountains in the district" />
		<tag k="name" v="Hinderågtinden" />
		<tag k="natural" v="hill" />
		<tag k="place" v="locality" />
		<tag k="ssr:stedsnr" v="136870" />
	</node>
	<node id="-138293" lat="66.2312416688" lon="13.1562750034">
		<tag k="name" v="Holmbenkan" />
		<tag k="place" v="locality" />
		<tag k="ssr:stedsnr" v="136850" />
	</node>
	<node id="-138291" lat="66.2435416647" lon="13.2111000095">
		<tag k="fixme" v="consider natural=peak for the most distinct mountains in the district" />
		<tag k="name" v="Remtinden" />
		<tag k="natural" v="hill" />
		<tag k="place" v="locality" />
		<tag k="ssr:stedsnr" v="136834" />
	</node>
	<node id="-138287" lat="66.2516166638" lon="12.8814222266">
		<tag k="name" v="Svahella" />
		<tag k="natural" v="slope" />
		<tag k="place" v="locality" />
		<tag k="ssr:stedsnr" v="107911" />
	</node>
	<node id="-138284" lat="66.2454000046" lon="12.8731444364">
		<tag k="name" v="Gjerdskogan" />
		<tag k="natural" v="slope" />
		<tag k="place" v="locality" />
		<tag k="ssr:stedsnr" v="107200" />
	</node>
	<node id="-138282" lat="66.2393416642" lon="12.9612916754">
		<tag k="name" v="Bjerklia" />
		<tag k="natural" v="slope" />
		<tag k="place" v="locality" />
		<tag k="ssr:stedsnr" v="107100" />
	</node>
	<node id="-138281" lat="66.2409305587" lon="12.9570750019">
		<tag k="name" v="Vedlessan" />
		<tag k="place" v="locality" />
		<tag k="ssr:stedsnr" v="107098" />
	</node>
	<node id="-138280" lat="66.2693083318" lon="13.0000250031">
		<tag k="name" v="Stuhaugen" />
		<tag k="natural" v="hill" />
		<tag k="place" v="locality" />
		<tag k="ssr:stedsnr" v="107063" />
	</node>
	<node id="-138278" lat="66.2494583316" lon="12.9572500007">
		<tag k="name" v="Sjøbuberget" />
		<tag k="natural" v="hill" />
		<tag k="place" v="locality" />
		<tag k="ssr:stedsnr" v="107056" />
	</node>
	<node id="-138277" lat="66.2492805593" lon="12.9688416734">
		<tag k="name" v="Kalvgårdshaugen" />
		<tag k="natural" v="hill" />
		<tag k="place" v="locality" />
		<tag k="ssr:stedsnr" v="107055" />
	</node>
	<node id="-138276" lat="66.2848527818" lon="13.1579833443">
		<tag k="name" v="Ramnfloget" />
		<tag k="natural" v="cliff" />
		<tag k="ssr:stedsnr" v="106988" />
	</node>
	<node id="-138274" lat="66.2760500011" lon="13.208991666">
		<tag k="name" v="Grypa" />
		<tag k="natural" v="valley" />
		<tag k="place" v="locality" />
		<tag k="ssr:stedsnr" v="106981" />
	</node>
	<node id="-138268" lat="66.2913694461" lon="12.8690527792">
		<tag k="name" v="Kyrhaugvalen" />
		<tag k="place" v="locality" />
		<tag k="ssr:stedsnr" v="106822" />
	</node>
	<node id="-138267" lat="66.2941500037" lon="12.8205527705">
		<tag k="fixme" v="consider natural=peak for the most distinct mountains in the district" />
		<tag k="name" v="Høgkleiva" />
		<tag k="natural" v="hill" />
		<tag k="place" v="locality" />
		<tag k="ssr:stedsnr" v="106808" />
	</node>
	<node id="-138266" lat="66.2947833332" lon="12.8158861179">
		<tag k="name" v="Geitberget" />
		<tag k="natural" v="hill" />
		<tag k="place" v="locality" />
		<tag k="ssr:stedsnr" v="106806" />
	</node>
	<node id="-138263" lat="66.2839527742" lon="13.0844416607">
		<tag k="name" v="Durmålskogen" />
		<tag k="natural" v="slope" />
		<tag k="place" v="locality" />
		<tag k="ssr:stedsnr" v="106790" />
	</node>
	<node id="-138262" lat="66.271444448" lon="13.0060388862">
		<tag k="name" v="Sandbakkhaugen" />
		<tag k="natural" v="hill" />
		<tag k="place" v="locality" />
		<tag k="ssr:stedsnr" v="106777" />
	</node>
	<node id="-138259" lat="66.2485638854" lon="13.1701972273">
		<tag k="name" v="Viddalen" />
		<tag k="natural" v="valley" />
		<tag k="place" v="locality" />
		<tag k="ssr:stedsnr" v="106308" />
	</node>
	<node id="-138257" lat="66.2398555572" lon="12.7552055477">
		<tag k="name" v="Steinskarhaugen" />
		<tag k="natural" v="hill" />
		<tag k="place" v="locality" />
		<tag k="ssr:stedsnr" v="106189" />
	</node>
	<node id="-138255" lat="66.2362055553" lon="13.1426555493">
		<tag k="name" v="Sveberget" />
		<tag k="natural" v="hill" />
		<tag k="place" v="locality" />
		<tag k="ssr:stedsnr" v="106163" />
	</node>
	<node id="-138254" lat="66.2661638877" lon="13.1936194508">
		<tag k="name" v="Innerkjerkåsen" />
		<tag k="natural" v="ridge" />
		<tag k="place" v="locality" />
		<tag k="ssr:stedsnr" v="106018" />
	</node>
	<node id="-138249" lat="66.2661749979" lon="13.0791083297">
		<tag k="alt_name" v="Grova" />
		<tag k="fixme" v="consider natural=peak for the most distinct mountains in the district" />
		<tag k="name" v="Grøva" />
		<tag k="natural" v="hill" />
		<tag k="place" v="locality" />
		<tag k="ssr:stedsnr" v="77741" />
	</node>
	<node id="-138248" lat="66.2667861131" lon="12.848722228">
		<tag k="alt_name" v="Lågfjellet" />
		<tag k="fixme" v="consider natural=peak for the most distinct mountains in the district" />
		<tag k="name" v="Lagfjellet" />
		<tag k="natural" v="hill" />
		<tag k="place" v="locality" />
		<tag k="ssr:stedsnr" v="77722" />
	</node>
	<node id="-138247" lat="66.2782749954" lon="13.2151138976">
		<tag k="name" v="Høghellaren" />
		<tag k="natural" v="hill" />
		<tag k="place" v="locality" />
		<tag k="ssr:stedsnr" v="77719" />
	</node>
	<node id="-138246" lat="66.2677111094" lon="12.7498805548">
		<tag k="name" v="Øverbergskaret" />
		<tag k="natural" v="valley" />
		<tag k="place" v="locality" />
		<tag k="ssr:stedsnr" v="77718" />
	</node>
	<node id="-138240" lat="66.2030638908" lon="12.9592694413">
		<tag k="name" v="Vikalia" />
		<tag k="natural" v="slope" />
		<tag k="place" v="locality" />
		<tag k="ssr:stedsnr" v="76854" />
	</node>
	<node id="-138236" lat="66.2372111112" lon="12.8191083276">
		<tag k="fixme" v="consider natural=peak for the most distinct mountains in the district" />
		<tag k="name" v="Lagfjellet" />
		<tag k="natural" v="hill" />
		<tag k="place" v="locality" />
		<tag k="ssr:stedsnr" v="76800" />
	</node>
	<node id="-138230" lat="66.1839166632" lon="12.8902944363">
		<tag k="name" v="Trolldalen" />
		<tag k="natural" v="valley" />
		<tag k="place" v="locality" />
		<tag k="ssr:stedsnr" v="76763" />
	</node>
	<node id="-138228" lat="66.2026611123" lon="13.171108341">
		<tag k="alt_name" v="Hammerøfloget" />
		<tag k="name" v="Hammarøyflogan" />
		<tag k="natural" v="slope" />
		<tag k="place" v="locality" />
		<tag k="ssr:stedsnr" v="76760" />
	</node>
	<node id="-138222" lat="66.1988055541" lon="13.0433749921">
		<tag k="name" v="Lysthagen" />
		<tag k="natural" v="slope" />
		<tag k="place" v="locality" />
		<tag k="ssr:stedsnr" v="46910" />
	</node>
	<node id="-138221" lat="66.1911138885" lon="13.0360388996">
		<tag k="name" v="Kveldhogna" />
		<tag k="natural" v="ridge" />
		<tag k="place" v="locality" />
		<tag k="ssr:stedsnr" v="46836" />
	</node>
	<node id="-138220" lat="66.1944694488" lon="12.9192111173">
		<tag k="name" v="Toppdalsheiet" />
		<tag k="natural" v="hill" />
		<tag k="place" v="locality" />
		<tag k="ssr:stedsnr" v="46452" />
	</node>
	<node id="-138219" lat="66.1931750022" lon="12.9566416564">
		<tag k="name" v="Moadalen" />
		<tag k="natural" v="valley" />
		<tag k="place" v="locality" />
		<tag k="ssr:stedsnr" v="46447" />
	</node>
	<node id="-138218" lat="66.2079083318" lon="13.0577000075">
		<tag k="name" v="Bergsteinsletta" />
		<tag k="place" v="locality" />
		<tag k="ssr:stedsnr" v="46390" />
	</node>
	<node id="-138214" lat="66.223433335" lon="13.1007472139">
		<tag k="name" v="Åsmyrbakken" />
		<tag k="natural" v="slope" />
		<tag k="place" v="locality" />
		<tag k="ssr:stedsnr" v="46258" />
	</node>
	<node id="-138210" lat="66.2481305594" lon="12.869522229">
		<tag k="name" v="Almlia" />
		<tag k="natural" v="slope" />
		<tag k="place" v="locality" />
		<tag k="ssr:stedsnr" v="46231" />
	</node>
	<node id="-138209" lat="66.2293555548" lon="12.8304055607">
		<tag k="name" v="Ørnhaugen" />
		<tag k="natural" v="hill" />
		<tag k="place" v="locality" />
		<tag k="ssr:stedsnr" v="46229" />
	</node>
	<node id="-138208" lat="66.2447194442" lon="12.8685722257">
		<tag k="name" v="Jønshaugen" />
		<tag k="natural" v="hill" />
		<tag k="place" v="locality" />
		<tag k="ssr:stedsnr" v="46225" />
	</node>
	<node id="-138207" lat="66.2320861151" lon="12.7818194466">
		<tag k="name" v="Einmoen" />
		<tag k="place" v="locality" />
		<tag k="ssr:stedsnr" v="46195" />
	</node>
	<node id="-138206" lat="66.2424722246" lon="13.1439916646">
		<tag k="name" v="Småhaugan" />
		<tag k="natural" v="hill" />
		<tag k="place" v="locality" />
		<tag k="ssr:stedsnr" v="46165" />
	</node>
	<node id="-138205" lat="66.2363194489" lon="12.9842222154">
		<tag k="name" v="Hestskaret" />
		<tag k="natural" v="valley" />
		<tag k="place" v="locality" />
		<tag k="ssr:stedsnr" v="46133" />
	</node>
	<node id="-138202" lat="66.265388893" lon="13.0122777779">
		<tag k="name" v="Tuva" />
		<tag k="natural" v="hill" />
		<tag k="place" v="locality" />
		<tag k="ssr:stedsnr" v="46067" />
	</node>
	<node id="-138199" lat="66.2730805571" lon="13.2487111104">
		<tag k="name" v="Storhaugen" />
		<tag k="natural" v="hill" />
		<tag k="place" v="locality" />
		<tag k="ssr:stedsnr" v="45935" />
	</node>
	<node id="-138198" lat="66.2730111071" lon="13.2238194451">
		<tag k="fixme" v="consider natural=peak for the most distinct mountains in the district" />
		<tag k="name" v="Almåsen" />
		<tag k="natural" v="hill" />
		<tag k="place" v="locality" />
		<tag k="ssr:stedsnr" v="45927" />
	</node>
	<node id="-138196" lat="66.2667916634" lon="12.8589138963">
		<tag k="name" v="Erikrabben" />
		<tag k="natural" v="hill" />
		<tag k="place" v="locality" />
		<tag k="ssr:stedsnr" v="45905" />
	</node>
	<node id="-138194" lat="66.2966222262" lon="12.8199777865">
		<tag k="name" v="Valhaugen" />
		<tag k="natural" v="ridge" />
		<tag k="place" v="locality" />
		<tag k="ssr:stedsnr" v="45829" />
	</node>
	<node id="-138192" lat="66.2921611126" lon="12.8695111073">
		<tag k="name" v="Kyrhaugen" />
		<tag k="natural" v="hill" />
		<tag k="place" v="locality" />
		<tag k="ssr:stedsnr" v="45782" />
	</node>
	<node id="-138191" lat="66.2847277762" lon="13.0780222122">
		<tag k="name" v="Stuehaugen" />
		<tag k="natural" v="hill" />
		<tag k="place" v="locality" />
		<tag k="ssr:stedsnr" v="45775" />
	</node>
	<node id="-138190" lat="66.2859638922" lon="13.0879500094">
		<tag k="name" v="Johan Olsabakken" />
		<tag k="natural" v="slope" />
		<tag k="place" v="locality" />
		<tag k="ssr:stedsnr" v="45770" />
	</node>
	<node id="-138188" lat="66.2852638933" lon="13.0766833261">
		<tag k="name" v="Gardtoften" />
		<tag k="natural" v="slope" />
		<tag k="place" v="locality" />
		<tag k="ssr:stedsnr" v="45764" />
	</node>
	<node id="-138186" lat="66.2375111138" lon="13.1563027846">
		<tag k="name" v="Ørnduhaugen" />
		<tag k="natural" v="ridge" />
		<tag k="place" v="locality" />
		<tag k="ssr:stedsnr" v="45324" />
	</node>
	<node id="-138184" lat="66.2089416701" lon="13.0895138797">
		<tag k="name" v="Storhaugen" />
		<tag k="natural" v="ridge" />
		<tag k="place" v="locality" />
		<tag k="ssr:stedsnr" v="45270" />
	</node>
	<node id="-138182" lat="66.2204499981" lon="13.103916676">
		<tag k="name" v="Handåtrollbergan" />
		<tag k="natural" v="slope" />
		<tag k="place" v="locality" />
		<tag k="ssr:stedsnr" v="45251" />
	</node>
	<node id="-138181" lat="66.2364083348" lon="12.75471111">
		<tag k="name" v="Einvollen" />
		<tag k="place" v="locality" />
		<tag k="ssr:stedsnr" v="45195" />
	</node>
	<node id="-138179" lat="66.2340499981" lon="13.1118555473">
		<tag k="name" v="Kreppberget" />
		<tag k="natural" v="slope" />
		<tag k="place" v="locality" />
		<tag k="ssr:stedsnr" v="45161" />
	</node>
	<node id="-138176" lat="66.2220861148" lon="12.8219861211">
		<tag k="name" v="Haugen" />
		<tag k="natural" v="hill" />
		<tag k="place" v="locality" />
		<tag k="ssr:stedsnr" v="44353" />
	</node>
	<node id="-138172" lat="66.2031916643" lon="12.9455027673">
		<tag k="alt_name" v="Heia" />
		<tag k="fixme" v="consider natural=peak for the most distinct mountains in the district" />
		<tag k="name" v="Heiet" />
		<tag k="natural" v="hill" />
		<tag k="place" v="locality" />
		<tag k="ssr:stedsnr" v="16869" />
	</node>
	<node id="-138170" lat="66.2791583325" lon="13.2429749888">
		<tag k="fixme" v="consider natural=peak for the most distinct mountains in the district" />
		<tag k="name" v="Hellåsen" />
		<tag k="natural" v="hill" />
		<tag k="place" v="locality" />
		<tag k="ssr:stedsnr" v="16763" />
	</node>
	<node id="-138166" lat="66.281927781" lon="13.1539583249">
		<tag k="name" v="Aspåsen" />
		<tag k="natural" v="hill" />
		<tag k="place" v="locality" />
		<tag k="ssr:stedsnr" v="16684" />
	</node>
	<node id="-138164" lat="66.2800388852" lon="12.8779972133">
		<tag k="name" v="Husmannskløvan" />
		<tag k="natural" v="slope" />
		<tag k="place" v="locality" />
		<tag k="ssr:stedsnr" v="16669" />
	</node>
	<node id="-138159" lat="66.2298499974" lon="12.9243416629">
		<tag k="fixme" v="consider natural=peak for the most distinct mountains in the district" />
		<tag k="name" v="Nessahaugen" />
		<tag k="natural" v="hill" />
		<tag k="place" v="locality" />
		<tag k="ssr:stedsnr" v="15854" />
	</node>
	<node id="-138157" lat="66.2408749969" lon="12.8522555644">
		<tag k="fixme" v="multiple name tags, choose one and add the other to alt_name; consider natural=peak for the most distinct mountains in the district" />
		<tag k="name" v="Innertodalshaugen;Skånskardhaugen" />
		<tag k="natural" v="hill" />
		<tag k="place" v="locality" />
		<tag k="ssr:stedsnr" v="15834" />
	</node>
	<node id="-138147" lat="66.2347555551" lon="13.1173416674">
		<tag k="fixme" v="consider natural=peak for the most distinct mountains in the district" />
		<tag k="name" v="Slåttåsen" />
		<tag k="natural" v="hill" />
		<tag k="place" v="locality" />
		<tag k="ssr:stedsnr" v="926828" />
	</node>
	<node id="-138142" lat="66.1922722247" lon="13.0448861186">
		<tag k="name" v="Maritslia" />
		<tag k="natural" v="slope" />
		<tag k="place" v="locality" />
		<tag k="ssr:stedsnr" v="896858" />
	</node>
	<node id="-138140" lat="66.1866749988" lon="12.9518722133">
		<tag k="name" v="Gårdsdalen" />
		<tag k="natural" v="valley" />
		<tag k="place" v="locality" />
		<tag k="ssr:stedsnr" v="836354" />
	</node>
	<node id="-138139" lat="66.1874638908" lon="12.9616055577">
		<tag k="name" v="Alberget" />
		<tag k="natural" v="hill" />
		<tag k="place" v="locality" />
		<tag k="ssr:stedsnr" v="836353" />
	</node>
	<node id="-138136" lat="66.2707527772" lon="13.1777194554">
		<tag k="name" v="Remnausttomta" />
		<tag k="place" v="locality" />
		<tag k="ssr:stedsnr" v="834974" />
	</node>
	<node id="-138135" lat="66.2695472245" lon="12.8751916565">
		<tag k="name" v="Nasen" />
		<tag k="natural" v="ridge" />
		<tag k="place" v="locality" />
		<tag k="ssr:stedsnr" v="834917" />
	</node>
	<node id="-138134" lat="66.2697083314" lon="12.8785277687">
		<tag k="name" v="Hågalia" />
		<tag k="natural" v="slope" />
		<tag k="place" v="locality" />
		<tag k="ssr:stedsnr" v="834914" />
	</node>
	<node id="-138132" lat="66.2725916708" lon="12.9937194557">
		<tag k="name" v="Sjøbakken" />
		<tag k="natural" v="slope" />
		<tag k="place" v="locality" />
		<tag k="ssr:stedsnr" v="834756" />
	</node>
	<node id="-138131" lat="66.2333555562" lon="13.1491555624">
		<tag k="name" v="Omdalshaugen" />
		<tag k="natural" v="hill" />
		<tag k="place" v="locality" />
		<tag k="ssr:stedsnr" v="834324" />
	</node>
	<node id="-138129" lat="66.2310083296" lon="13.1205138875">
		<tag k="name" v="Øvrebukten" />
		<tag k="natural" v="valley" />
		<tag k="place" v="locality" />
		<tag k="ssr:stedsnr" v="834306" />
	</node>
	<node id="-138128" lat="66.2638083319" lon="13.2195694497">
		<tag k="name" v="Svartfloget" />
		<tag k="natural" v="cliff" />
		<tag k="ssr:stedsnr" v="834057" />
	</node>
	<node id="-138123" lat="66.2669916681" lon="12.9780555654">
		<tag k="name" v="Ytterstorhaugen" />
		<tag k="natural" v="hill" />
		<tag k="place" v="locality" />
		<tag k="ssr:stedsnr" v="927723" />
	</node>
	<node id="-138120" lat="66.2673194409" lon="12.7367333251">
		<tag k="name" v="Storbelgen" />
		<tag k="natural" v="hill" />
		<tag k="place" v="locality" />
		<tag k="ssr:stedsnr" v="805703" />
	</node>
	<node id="-138117" lat="66.2614388864" lon="13.143422214">
		<tag k="alt_name" v="Ytreklubben" />
		<tag k="name" v="Ytterklubben" />
		<tag k="natural" v="hill" />
		<tag k="place" v="locality" />
		<tag k="ssr:stedsnr" v="805624" />
	</node>
	<node id="-138109" lat="66.2251361098" lon="13.1093999997">
		<tag k="fixme" v="consider natural=peak for the most distinct mountains in the district" />
		<tag k="name" v="Trollbergan" />
		<tag k="natural" v="hill" />
		<tag k="place" v="locality" />
		<tag k="ssr:stedsnr" v="804849" />
	</node>
	<node id="-138097" lat="66.1919194423" lon="12.8865972249">
		<tag k="alt_name" v="Skygna" />
		<tag k="fixme" v="consider natural=peak for the most distinct mountains in the district" />
		<tag k="name" v="Skjøgna" />
		<tag k="natural" v="hill" />
		<tag k="place" v="locality" />
		<tag k="ssr:stedsnr" v="926751" />
	</node>
	<node id="-138096" lat="66.2095500044" lon="13.1371499961">
		<tag k="fixme" v="consider natural=peak for the most distinct mountains in the district" />
		<tag k="name" v="Hammarøyfjellet" />
		<tag k="natural" v="hill" />
		<tag k="place" v="locality" />
		<tag k="ssr:stedsnr" v="926750" />
	</node>
	<node id="-138095" lat="66.2635388853" lon="13.0163666555">
		<tag k="name" v="Esjebergan" />
		<tag k="natural" v="hill" />
		<tag k="place" v="locality" />
		<tag k="ssr:stedsnr" v="926743" />
	</node>
	<node id="-138094" lat="66.2584333375" lon="12.8187833421">
		<tag k="name" v="Tomsvikdalen" />
		<tag k="natural" v="valley" />
		<tag k="place" v="locality" />
		<tag k="ssr:stedsnr" v="926730" />
	</node>
	<node id="-138092" lat="66.2788916632" lon="12.802647231">
		<tag k="name" v="Finnvikdalen" />
		<tag k="natural" v="valley" />
		<tag k="place" v="locality" />
		<tag k="ssr:stedsnr" v="926686" />
	</node>
	<node id="-138090" lat="66.2616027758" lon="13.1663416632">
		<tag k="name" v="Småvikberget" />
		<tag k="natural" v="hill" />
		<tag k="place" v="locality" />
		<tag k="ssr:stedsnr" v="926612" />
	</node>
	<node id="-138075" lat="66.2678722216" lon="12.9931611026">
		<tag k="name" v="Skjurbergan" />
		<tag k="natural" v="cliff" />
		<tag k="ssr:stedsnr" v="774905" />
	</node>
	<node id="-138074" lat="66.2347694484" lon="12.8475500011">
		<tag k="name" v="Botnhaugen" />
		<tag k="natural" v="hill" />
		<tag k="place" v="locality" />
		<tag k="ssr:stedsnr" v="774255" />
	</node>
	<node id="-138072" lat="66.2697972239" lon="12.8701583411">
		<tag k="name" v="Høgtua" />
		<tag k="natural" v="hill" />
		<tag k="place" v="locality" />
		<tag k="ssr:stedsnr" v="773885" />
	</node>
	<node id="-138070" lat="66.2629972222" lon="12.8690499914">
		<tag k="name" v="Vassmannslia" />
		<tag k="natural" v="slope" />
		<tag k="place" v="locality" />
		<tag k="ssr:stedsnr" v="773903" />
	</node>
	<node id="-138069" lat="66.2197861122" lon="13.0929222282">
		<tag k="name" v="Øverhandå" />
		<tag k="natural" v="slope" />
		<tag k="place" v="locality" />
		<tag k="ssr:stedsnr" v="773278" />
	</node>
	<node id="-138068" lat="66.2214250023" lon="13.1244388933">
		<tag k="name" v="Mølan" />
		<tag k="place" v="locality" />
		<tag k="ssr:stedsnr" v="773270" />
	</node>
	<node id="-138067" lat="66.236763886" lon="13.175333326">
		<tag k="name" v="Svartfloget" />
		<tag k="natural" v="cliff" />
		<tag k="ssr:stedsnr" v="773338" />
	</node>
	<node id="-138065" lat="66.2312861139" lon="13.1370249945">
		<tag k="name" v="Vedbrattbakken" />
		<tag k="natural" v="slope" />
		<tag k="place" v="locality" />
		<tag k="ssr:stedsnr" v="773327" />
	</node>
	<node id="-138063" lat="66.2584666637" lon="13.149394433">
		<tag k="name" v="Storøyberget" />
		<tag k="natural" v="ridge" />
		<tag k="place" v="locality" />
		<tag k="ssr:stedsnr" v="772064" />
	</node>
	<node id="-138062" lat="66.2695194423" lon="13.2441444544">
		<tag k="name" v="Litlelia" />
		<tag k="natural" v="slope" />
		<tag k="place" v="locality" />
		<tag k="ssr:stedsnr" v="744965" />
	</node>
	<node id="-138058" lat="66.2366194406" lon="12.7587777662">
		<tag k="fixme" v="consider natural=peak for the most distinct mountains in the district" />
		<tag k="name" v="Trollkleppen" />
		<tag k="natural" v="hill" />
		<tag k="place" v="locality" />
		<tag k="ssr:stedsnr" v="743923" />
	</node>
	<node id="-138048" lat="66.2316000041" lon="12.8284805558">
		<tag k="name" v="Fribakkan" />
		<tag k="natural" v="slope" />
		<tag k="place" v="locality" />
		<tag k="ssr:stedsnr" v="896235" />
	</node>
	<node id="-138047" lat="66.2457805583" lon="12.870624994">
		<tag k="name" v="Bukkholrabben" />
		<tag k="natural" v="ridge" />
		<tag k="place" v="locality" />
		<tag k="ssr:stedsnr" v="896219" />
	</node>
	<node id="-138046" lat="66.2335250009" lon="12.985424994">
		<tag k="name" v="Finnkonsletta" />
		<tag k="place" v="locality" />
		<tag k="ssr:stedsnr" v="896185" />
	</node>
	<node id="-138045" lat="66.2396277793" lon="13.1382000113">
		<tag k="fixme" v="consider natural=peak for the most distinct mountains in the district" />
		<tag k="name" v="Seljeåsen" />
		<tag k="natural" v="hill" />
		<tag k="place" v="locality" />
		<tag k="ssr:stedsnr" v="896152" />
	</node>
	<node id="-138041" lat="66.2321861138" lon="12.9617444351">
		<tag k="name" v="Strupen" />
		<tag k="natural" v="valley" />
		<tag k="place" v="locality" />
		<tag k="ssr:stedsnr" v="896106" />
	</node>
	<node id="-138040" lat="66.267680551" lon="12.9969027863">
		<tag k="name" v="Dalmoen" />
		<tag k="natural" v="slope" />
		<tag k="place" v="locality" />
		<tag k="ssr:stedsnr" v="896067" />
	</node>
	<node id="-138039" lat="66.266094447" lon="13.0294111119">
		<tag k="fixme" v="consider natural=peak for the most distinct mountains in the district" />
		<tag k="name" v="Landvinnsbenken" />
		<tag k="natural" v="hill" />
		<tag k="place" v="locality" />
		<tag k="ssr:stedsnr" v="896065" />
	</node>
	<node id="-138038" lat="66.2634583359" lon="12.7317555605">
		<tag k="name" v="Skrubbhaugen" />
		<tag k="natural" v="hill" />
		<tag k="place" v="locality" />
		<tag k="ssr:stedsnr" v="895966" />
	</node>
	<node id="-138037" lat="66.249124998" lon="12.7456472299">
		<tag k="name" v="Ørntuvbakken" />
		<tag k="natural" v="slope" />
		<tag k="place" v="locality" />
		<tag k="ssr:stedsnr" v="895956" />
	</node>
	<node id="-138036" lat="66.2635944406" lon="12.7214499899">
		<tag k="name" v="Nausthaugen" />
		<tag k="natural" v="hill" />
		<tag k="place" v="locality" />
		<tag k="ssr:stedsnr" v="895944" />
	</node>
	<node id="-138033" lat="66.2827472186" lon="13.0614638843">
		<tag k="name" v="Kuhøla" />
		<tag k="natural" v="valley" />
		<tag k="place" v="locality" />
		<tag k="ssr:stedsnr" v="895745" />
	</node>
	<node id="-138031" lat="66.2206583356" lon="12.7752000048">
		<tag k="name" v="Gåsvikhaugen" />
		<tag k="natural" v="hill" />
		<tag k="place" v="locality" />
		<tag k="ssr:stedsnr" v="895312" />
	</node>
	<node id="-138030" lat="66.203047221" lon="13.0662333283">
		<tag k="name" v="Fagerlibenkan" />
		<tag k="natural" v="ridge" />
		<tag k="place" v="locality" />
		<tag k="ssr:stedsnr" v="714818" />
	</node>
	<node id="-138029" lat="66.1986166654" lon="13.0492583346">
		<tag k="name" v="Geitburet" />
		<tag k="natural" v="valley" />
		<tag k="place" v="locality" />
		<tag k="ssr:stedsnr" v="714807" />
	</node>
	<node id="-138026" lat="66.2421416656" lon="13.1666527754">
		<tag k="name" v="Hesthaugen" />
		<tag k="natural" v="ridge" />
		<tag k="place" v="locality" />
		<tag k="ssr:stedsnr" v="895296" />
	</node>
	<node id="-138024" lat="66.1837999958" lon="13.0488055564">
		<tag k="name" v="Nersandneshatten" />
		<tag k="natural" v="ridge" />
		<tag k="place" v="locality" />
		<tag k="ssr:stedsnr" v="895241" />
	</node>
	<node id="-138019" lat="66.2785055568" lon="12.7700527886">
		<tag k="name" v="Bersnøva" />
		<tag k="natural" v="ridge" />
		<tag k="place" v="locality" />
		<tag k="ssr:stedsnr" v="713806" />
	</node>
	<node id="-138018" lat="66.2751027787" lon="12.756311113">
		<tag k="name" v="Kølblekka" />
		<tag k="natural" v="slope" />
		<tag k="place" v="locality" />
		<tag k="ssr:stedsnr" v="713803" />
	</node>
	<node id="-138016" lat="66.2029250035" lon="12.9219944439">
		<tag k="name" v="Haugkleppen" />
		<tag k="natural" v="ridge" />
		<tag k="place" v="locality" />
		<tag k="ssr:stedsnr" v="713383" />
	</node>
	<node id="-138014" lat="66.2387277817" lon="13.1341555537">
		<tag k="name" v="Glugga" />
		<tag k="place" v="locality" />
		<tag k="ssr:stedsnr" v="713164" />
	</node>
	<node id="-138011" lat="66.2122861116" lon="13.0995333328">
		<tag k="name" v="Handådalsbakken" />
		<tag k="natural" v="slope" />
		<tag k="place" v="locality" />
		<tag k="ssr:stedsnr" v="712225" />
	</node>
	<node id="-138010" lat="66.2378472181" lon="12.7739611035">
		<tag k="name" v="Bjørndalen" />
		<tag k="natural" v="valley" />
		<tag k="place" v="locality" />
		<tag k="ssr:stedsnr" v="712187" />
	</node>
	<node id="-138008" lat="66.2431138879" lon="13.0267833427">
		<tag k="name" v="Langbakken" />
		<tag k="natural" v="slope" />
		<tag k="place" v="locality" />
		<tag k="ssr:stedsnr" v="712169" />
	</node>
	<node id="-138007" lat="66.2288305569" lon="13.1117888841">
		<tag k="name" v="Rishatten" />
		<tag k="natural" v="hill" />
		<tag k="place" v="locality" />
		<tag k="ssr:stedsnr" v="712155" />
	</node>
	<node id="-138005" lat="66.2256083292" lon="12.7976888773">
		<tag k="name" v="Trollskarhaugen" />
		<tag k="natural" v="hill" />
		<tag k="place" v="locality" />
		<tag k="ssr:stedsnr" v="894383" />
	</node>
	<node id="-138003" lat="66.2449444448" lon="13.1829666629">
		<tag k="name" v="Skogslia" />
		<tag k="natural" v="slope" />
		<tag k="place" v="locality" />
		<tag k="ssr:stedsnr" v="894042" />
	</node>
	<node id="-138002" lat="66.259616663" lon="13.0871333339">
		<tag k="name" v="Remmen" />
		<tag k="natural" v="slope" />
		<tag k="place" v="locality" />
		<tag k="ssr:stedsnr" v="894031" />
	</node>
	<node id="-137996" lat="66.1666888909" lon="12.8611027692">
		<tag k="name" v="Nonshaugen" />
		<tag k="natural" v="hill" />
		<tag k="place" v="locality" />
		<tag k="ssr:stedsnr" v="683776" />
	</node>
	<node id="-137995" lat="66.280636107" lon="13.2563027661">
		<tag k="fixme" v="consider natural=peak for the most distinct mountains in the district" />
		<tag k="name" v="Kålitinden" />
		<tag k="natural" v="hill" />
		<tag k="place" v="locality" />
		<tag k="ssr:stedsnr" v="683764" />
	</node>
	<node id="-137993" lat="66.2305750038" lon="12.8416999968">
		<tag k="fixme" v="consider natural=peak for the most distinct mountains in the district" />
		<tag k="name" v="Høgkleppen" />
		<tag k="natural" v="hill" />
		<tag k="place" v="locality" />
		<tag k="ssr:stedsnr" v="683804" />
	</node>
	<node id="-137990" lat="66.189311115" lon="13.1138027697">
		<tag k="name" v="Gjøta" />
		<tag k="natural" v="slope" />
		<tag k="place" v="locality" />
		<tag k="ssr:stedsnr" v="653866" />
	</node>
	<node id="-137989" lat="66.2480861139" lon="12.8868972193">
		<tag k="name" v="Langhaugen" />
		<tag k="natural" v="ridge" />
		<tag k="place" v="locality" />
		<tag k="ssr:stedsnr" v="652887" />
	</node>
	<node id="-137988" lat="66.2526361122" lon="12.8847666632">
		<tag k="name" v="Litlgjerdsfjæra" />
		<tag k="natural" v="slope" />
		<tag k="place" v="locality" />
		<tag k="ssr:stedsnr" v="652886" />
	</node>
	<node id="-137987" lat="66.2655555536" lon="12.9910666572">
		<tag k="name" v="Nonslåkhaugen" />
		<tag k="natural" v="hill" />
		<tag k="place" v="locality" />
		<tag k="ssr:stedsnr" v="652877" />
	</node>
	<node id="-137985" lat="66.1797916705" lon="13.0563722162">
		<tag k="name" v="Ørnstolen" />
		<tag k="natural" v="ridge" />
		<tag k="place" v="locality" />
		<tag k="ssr:stedsnr" v="652316" />
	</node>
	<node id="-137984" lat="66.2479361135" lon="12.9626944352">
		<tag k="name" v="Gamalmuren" />
		<tag k="place" v="locality" />
		<tag k="ssr:stedsnr" v="652121" />
	</node>
	<node id="-137983" lat="66.2328444448" lon="12.9527583267">
		<tag k="name" v="Sveiplihaugan" />
		<tag k="natural" v="hill" />
		<tag k="place" v="locality" />
		<tag k="ssr:stedsnr" v="652115" />
	</node>
	<node id="-137980" lat="66.2133638862" lon="13.0810277779">
		<tag k="name" v="Holtan" />
		<tag k="natural" v="slope" />
		<tag k="place" v="locality" />
		<tag k="ssr:stedsnr" v="651265" />
	</node>
	<node id="-137979" lat="66.2620333363" lon="13.2241527826">
		<tag k="name" v="Lyslia" />
		<tag k="natural" v="slope" />
		<tag k="place" v="locality" />
		<tag k="ssr:stedsnr" v="651061" />
	</node>
	<node id="-137976" lat="66.2261055554" lon="12.760791669">
		<tag k="name" v="Lavahågen" />
		<tag k="natural" v="hill" />
		<tag k="place" v="locality" />
		<tag k="ssr:stedsnr" v="631266" />
	</node>
	<node id="-137972" lat="66.1944583379" lon="13.0880583257">
		<tag k="name" v="Skavhaugen" />
		<tag k="natural" v="hill" />
		<tag k="place" v="locality" />
		<tag k="ssr:stedsnr" v="714848" />
	</node>
	<node id="-137971" lat="66.1877249993" lon="13.0383277702">
		<tag k="name" v="Bjønndalsraset" />
		<tag k="natural" v="cliff" />
		<tag k="ssr:stedsnr" v="714833" />
	</node>
	<node id="-137970" lat="66.1877555547" lon="13.0267222168">
		<tag k="name" v="Langberget" />
		<tag k="natural" v="ridge" />
		<tag k="place" v="locality" />
		<tag k="ssr:stedsnr" v="714829" />
	</node>
	<node id="-137969" lat="66.2885972228" lon="13.291586104">
		<tag k="name" v="Sjonfjellet" />
		<tag k="natural" v="cliff" />
		<tag k="ssr:stedsnr" v="713982" />
	</node>
	<node id="-137968" lat="66.2798611077" lon="13.2445083313">
		<tag k="name" v="Storskaret" />
		<tag k="natural" v="valley" />
		<tag k="place" v="locality" />
		<tag k="ssr:stedsnr" v="713977" />
	</node>
	<node id="-137964" lat="66.2918000041" lon="12.8138166567">
		<tag k="name" v="Geitkleiva" />
		<tag k="natural" v="slope" />
		<tag k="place" v="locality" />
		<tag k="ssr:stedsnr" v="713802" />
	</node>
	<node id="-137961" lat="66.2873777807" lon="13.0934000054">
		<tag k="name" v="Hagadalen" />
		<tag k="natural" v="valley" />
		<tag k="place" v="locality" />
		<tag k="ssr:stedsnr" v="713794" />
	</node>
	<node id="-137960" lat="66.2708861089" lon="13.0124555467">
		<tag k="name" v="Øverrishaugen" />
		<tag k="natural" v="hill" />
		<tag k="place" v="locality" />
		<tag k="ssr:stedsnr" v="713789" />
	</node>
	<node id="-137959" lat="66.2748472215" lon="13.2225527783">
		<tag k="name" v="Rishaugen" />
		<tag k="natural" v="hill" />
		<tag k="place" v="locality" />
		<tag k="ssr:stedsnr" v="713956" />
	</node>
	<node id="-137956" lat="66.2100638872" lon="12.9580194345">
		<tag k="name" v="Domskardalen" />
		<tag k="natural" v="valley" />
		<tag k="place" v="locality" />
		<tag k="ssr:stedsnr" v="713348" />
	</node>
	<node id="-137954" lat="66.2355361092" lon="12.8320444541">
		<tag k="name" v="Langbakken" />
		<tag k="natural" v="slope" />
		<tag k="place" v="locality" />
		<tag k="ssr:stedsnr" v="713233" />
	</node>
	<node id="-137953" lat="66.2425305552" lon="12.8686250109">
		<tag k="name" v="Langkleiva" />
		<tag k="natural" v="slope" />
		<tag k="place" v="locality" />
		<tag k="ssr:stedsnr" v="713220" />
	</node>
	<node id="-137949" lat="66.2374999996" lon="12.9870110999">
		<tag k="name" v="Løkthaugen" />
		<tag k="natural" v="hill" />
		<tag k="place" v="locality" />
		<tag k="ssr:stedsnr" v="713140" />
	</node>
	<node id="-137948" lat="66.2632333379" lon="13.0036833233">
		<tag k="name" v="Fallbakken" />
		<tag k="natural" v="slope" />
		<tag k="place" v="locality" />
		<tag k="ssr:stedsnr" v="713115" />
	</node>
	<node id="-137947" lat="66.178025" lon="13.0473138995">
		<tag k="name" v="Gårdshaugen" />
		<tag k="natural" v="hill" />
		<tag k="place" v="locality" />
		<tag k="ssr:stedsnr" v="713586" />
	</node>
	<node id="-137946" lat="66.2514444455" lon="12.7108361117">
		<tag k="name" v="Risegrava" />
		<tag k="place" v="locality" />
		<tag k="ssr:stedsnr" v="712950" />
	</node>
	<node id="-137945" lat="66.2734666659" lon="13.2333500082">
		<tag k="name" v="Ryphaugen" />
		<tag k="natural" v="ridge" />
		<tag k="place" v="locality" />
		<tag k="ssr:stedsnr" v="712948" />
	</node>
	<node id="-137944" lat="66.2607527783" lon="12.8764916668">
		<tag k="name" v="Overstegkulan" />
		<tag k="natural" v="ridge" />
		<tag k="place" v="locality" />
		<tag k="ssr:stedsnr" v="712920" />
	</node>
	<node id="-137941" lat="66.2173833322" lon="12.7838527678">
		<tag k="name" v="Litlkleppen" />
		<tag k="natural" v="hill" />
		<tag k="place" v="locality" />
		<tag k="ssr:stedsnr" v="712314" />
	</node>
	<node id="-137940" lat="66.2409888896" lon="13.154358327">
		<tag k="fixme" v="consider natural=peak for the most distinct mountains in the district" />
		<tag k="name" v="Holmåsen" />
		<tag k="natural" v="hill" />
		<tag k="place" v="locality" />
		<tag k="ssr:stedsnr" v="712287" />
	</node>
	<node id="-137938" lat="66.2257861098" lon="12.8419500108">
		<tag k="name" v="Hestvikhaugen" />
		<tag k="natural" v="hill" />
		<tag k="place" v="locality" />
		<tag k="ssr:stedsnr" v="591332" />
	</node>
	<node id="-137932" lat="66.2543749979" lon="13.2099833439">
		<tag k="name" v="Remlia" />
		<tag k="natural" v="slope" />
		<tag k="place" v="locality" />
		<tag k="ssr:stedsnr" v="712045" />
	</node>
	<node id="-137928" lat="66.2625083346" lon="13.2065055661">
		<tag k="fixme" v="consider natural=peak for the most distinct mountains in the district" />
		<tag k="name" v="Tortenåsnakken" />
		<tag k="natural" v="hill" />
		<tag k="place" v="locality" />
		<tag k="ssr:stedsnr" v="590057" />
	</node>
	<node id="-137925" lat="66.1862333321" lon="13.041733339">
		<tag k="fixme" v="multiple name tags, choose one and add the other to alt_name" />
		<tag k="name" v="Hamkamfloget;Hammarøykamfloget" />
		<tag k="natural" v="slope" />
		<tag k="place" v="locality" />
		<tag k="ssr:stedsnr" v="561774" />
	</node>
	<node id="-137924" lat="66.1925694478" lon="13.1054666593">
		<tag k="name" v="Olsokdalen" />
		<tag k="natural" v="valley" />
		<tag k="place" v="locality" />
		<tag k="ssr:stedsnr" v="561767" />
	</node>
	<node id="-137918" lat="66.244888887" lon="12.9841749951">
		<tag k="fixme" v="consider natural=peak for the most distinct mountains in the district" />
		<tag k="name" v="Handnesfjellet" />
		<tag k="natural" v="hill" />
		<tag k="place" v="locality" />
		<tag k="ssr:stedsnr" v="561816" />
	</node>
	<node id="-137909" lat="66.204369441" lon="13.0545249929">
		<tag k="name" v="Seljelia" />
		<tag k="natural" v="slope" />
		<tag k="place" v="locality" />
		<tag k="ssr:stedsnr" v="532816" />
	</node>
	<node id="-137907" lat="66.2300833354" lon="12.78023888">
		<tag k="fixme" v="consider natural=peak for the most distinct mountains in the district" />
		<tag k="name" v="Gjersåsen" />
		<tag k="natural" v="hill" />
		<tag k="place" v="locality" />
		<tag k="ssr:stedsnr" v="531188" />
	</node>
	<node id="-137906" lat="66.2331666643" lon="12.9687138802">
		<tag k="name" v="Staulen" />
		<tag k="natural" v="ridge" />
		<tag k="place" v="locality" />
		<tag k="ssr:stedsnr" v="531183" />
	</node>
	<node id="-137905" lat="66.2825250025" lon="13.2765805634">
		<tag k="name" v="Gråsteinlia" />
		<tag k="natural" v="slope" />
		<tag k="place" v="locality" />
		<tag k="ssr:stedsnr" v="530970" />
	</node>
	<node id="-137904" lat="66.2791388918" lon="13.2610972128">
		<tag k="name" v="Storskogen" />
		<tag k="natural" v="slope" />
		<tag k="place" v="locality" />
		<tag k="ssr:stedsnr" v="530969" />
	</node>
	<node id="-137902" lat="66.2721499977" lon="12.7474388923">
		<tag k="name" v="Jo Lassahaugen" />
		<tag k="natural" v="hill" />
		<tag k="place" v="locality" />
		<tag k="ssr:stedsnr" v="530795" />
	</node>
	<node id="-137900" lat="66.2751111134" lon="13.019277777">
		<tag k="name" v="Litlgrønåsen" />
		<tag k="natural" v="ridge" />
		<tag k="place" v="locality" />
		<tag k="ssr:stedsnr" v="530765" />
	</node>
	<node id="-137896" lat="66.2707500039" lon="12.7434138978">
		<tag k="name" v="Smaughaugen" />
		<tag k="natural" v="hill" />
		<tag k="place" v="locality" />
		<tag k="ssr:stedsnr" v="530804" />
	</node>
	<node id="-137894" lat="66.2383638875" lon="13.0078111167">
		<tag k="name" v="Lauklibakken" />
		<tag k="natural" v="ridge" />
		<tag k="place" v="locality" />
		<tag k="ssr:stedsnr" v="530214" />
	</node>
	<node id="-137893" lat="66.2406249997" lon="13.0155749945">
		<tag k="name" v="Strubbakken" />
		<tag k="natural" v="ridge" />
		<tag k="place" v="locality" />
		<tag k="ssr:stedsnr" v="530211" />
	</node>
	<node id="-137891" lat="66.2646694407" lon="13.2145833399">
		<tag k="name" v="Gubbelvlia" />
		<tag k="natural" v="slope" />
		<tag k="place" v="locality" />
		<tag k="ssr:stedsnr" v="530013" />
	</node>
	<node id="-137890" lat="66.2556083349" lon="13.0782777742">
		<tag k="name" v="Høgremmen" />
		<tag k="natural" v="slope" />
		<tag k="place" v="locality" />
		<tag k="ssr:stedsnr" v="530008" />
	</node>
	<node id="-137888" lat="66.2671861071" lon="12.7422999934">
		<tag k="name" v="Litlbelgen" />
		<tag k="natural" v="hill" />
		<tag k="place" v="locality" />
		<tag k="ssr:stedsnr" v="684701" />
	</node>
	<node id="-137887" lat="66.2671416699" lon="12.7420583434">
		<tag k="fixme" v="consider natural=peak for the most distinct mountains in the district" />
		<tag k="name" v="Eidabelgen" />
		<tag k="natural" v="hill" />
		<tag k="place" v="locality" />
		<tag k="ssr:stedsnr" v="684700" />
	</node>
	<node id="-137885" lat="66.1939166665" lon="13.0668027678">
		<tag k="name" v="Torvgrøftan" />
		<tag k="place" v="locality" />
		<tag k="ssr:stedsnr" v="683751" />
	</node>
	<node id="-137873" lat="66.2719222268" lon="13.0783194349">
		<tag k="fixme" v="consider natural=peak for the most distinct mountains in the district" />
		<tag k="name" v="Grønlitinden" />
		<tag k="natural" v="hill" />
		<tag k="place" v="locality" />
		<tag k="ssr:stedsnr" v="502743" />
	</node>
	<node id="-137869" lat="66.253761112" lon="12.8864638856">
		<tag k="alt_name" v="Sauberget" />
		<tag k="name" v="Sauberge" />
		<tag k="natural" v="hill" />
		<tag k="place" v="locality" />
		<tag k="ssr:stedsnr" v="501710" />
	</node>
	<node id="-137864" lat="66.2414722214" lon="12.7716722258">
		<tag k="fixme" v="consider natural=peak for the most distinct mountains in the district" />
		<tag k="name" v="Tomsvikåsan" />
		<tag k="natural" v="hill" />
		<tag k="place" v="locality" />
		<tag k="ssr:stedsnr" v="500937" />
	</node>
	<node id="-137863" lat="66.2332194447" lon="12.9624666703">
		<tag k="name" v="Strupafloget" />
		<tag k="natural" v="cliff" />
		<tag k="ssr:stedsnr" v="470107" />
	</node>
	<node id="-137862" lat="66.2286472253" lon="12.9535361067">
		<tag k="name" v="Laukhammaren" />
		<tag k="natural" v="ridge" />
		<tag k="place" v="locality" />
		<tag k="ssr:stedsnr" v="470106" />
	</node>
	<node id="-137853" lat="66.1884944419" lon="13.036236101">
		<tag k="alt_name" v="Bjørndalen" />
		<tag k="name" v="Bjønndalen" />
		<tag k="natural" v="valley" />
		<tag k="place" v="locality" />
		<tag k="ssr:stedsnr" v="440757" />
	</node>
	<node id="-137849" lat="66.2479055549" lon="12.712219454">
		<tag k="name" v="Trollhaugen" />
		<tag k="natural" v="hill" />
		<tag k="place" v="locality" />
		<tag k="ssr:stedsnr" v="409926" />
	</node>
	<node id="-137848" lat="66.2659611147" lon="12.8488444346">
		<tag k="name" v="Hesthaugen" />
		<tag k="natural" v="hill" />
		<tag k="place" v="locality" />
		<tag k="ssr:stedsnr" v="409903" />
	</node>
	<node id="-137846" lat="66.2397888848" lon="13.1786194391">
		<tag k="name" v="Stordalen" />
		<tag k="natural" v="valley" />
		<tag k="place" v="locality" />
		<tag k="ssr:stedsnr" v="409316" />
	</node>
	<node id="-137844" lat="66.2270333361" lon="13.1886972315">
		<tag k="fixme" v="consider natural=peak for the most distinct mountains in the district" />
		<tag k="name" v="Grønnlitinden" />
		<tag k="natural" v="hill" />
		<tag k="place" v="locality" />
		<tag k="ssr:stedsnr" v="501828" />
	</node>
	<node id="-137839" lat="66.2639111116" lon="13.2878027831">
		<tag k="fixme" v="consider natural=peak for the most distinct mountains in the district" />
		<tag k="name" v="Nordvikfjellet" />
		<tag k="natural" v="hill" />
		<tag k="place" v="locality" />
		<tag k="ssr:stedsnr" v="501933" />
	</node>
	<node id="-137836" lat="66.2504833369" lon="13.0565999932">
		<tag k="name" v="Stokkaskogan" />
		<tag k="natural" v="slope" />
		<tag k="place" v="locality" />
		<tag k="ssr:stedsnr" v="501597" />
	</node>
	<node id="-137829" lat="66.1799194449" lon="12.9165444543">
		<tag k="fixme" v="consider natural=peak for the most distinct mountains in the district" />
		<tag k="name" v="Tinden" />
		<tag k="natural" v="hill" />
		<tag k="place" v="locality" />
		<tag k="ssr:stedsnr" v="500825" />
	</node>
	<node id="-137827" lat="66.2757249975" lon="12.7640916629">
		<tag k="alt_name" v="Kolblikåsen" />
		<tag k="name" v="Kølblekåsen" />
		<tag k="natural" v="hill" />
		<tag k="place" v="locality" />
		<tag k="ssr:stedsnr" v="380723" />
	</node>
	<node id="-137824" lat="66.2388194454" lon="12.9549166668">
		<tag k="name" v="Kløva" />
		<tag k="natural" v="ridge" />
		<tag k="place" v="locality" />
		<tag k="ssr:stedsnr" v="349159" />
	</node>
	<node id="-137821" lat="66.2471055555" lon="12.8533277748">
		<tag k="fixme" v="consider natural=peak for the most distinct mountains in the district" />
		<tag k="name" v="Huggelbakkhaugen" />
		<tag k="natural" v="hill" />
		<tag k="place" v="locality" />
		<tag k="ssr:stedsnr" v="349269" />
	</node>
	<node id="-137820" lat="66.2323527822" lon="12.8312027721">
		<tag k="name" v="Einnesberget" />
		<tag k="natural" v="cliff" />
		<tag k="ssr:stedsnr" v="349260" />
	</node>
	<node id="-137819" lat="66.2446500033" lon="12.7572944455">
		<tag k="name" v="Vika" />
		<tag k="place" v="locality" />
		<tag k="ssr:stedsnr" v="349219" />
	</node>
	<node id="-137817" lat="66.2719972208" lon="13.2058777877">
		<tag k="name" v="Mølnhushaugen" />
		<tag k="natural" v="hill" />
		<tag k="place" v="locality" />
		<tag k="ssr:stedsnr" v="348969" />
	</node>
	<node id="-137816" lat="66.2723305594" lon="12.7592111008">
		<tag k="name" v="Litldalen" />
		<tag k="natural" v="valley" />
		<tag k="place" v="locality" />
		<tag k="ssr:stedsnr" v="348784" />
	</node>
	<node id="-137815" lat="66.2721694405" lon="13.0115777824">
		<tag k="name" v="Rishaugen" />
		<tag k="natural" v="ridge" />
		<tag k="place" v="locality" />
		<tag k="ssr:stedsnr" v="348752" />
	</node>
	<node id="-137814" lat="66.2097027812" lon="13.0891111015">
		<tag k="name" v="Storhaugknekten" />
		<tag k="natural" v="slope" />
		<tag k="place" v="locality" />
		<tag k="ssr:stedsnr" v="348261" />
	</node>
	<node id="-137812" lat="66.2582805548" lon="13.1886222248">
		<tag k="name" v="Ryphaugen" />
		<tag k="natural" v="hill" />
		<tag k="place" v="locality" />
		<tag k="ssr:stedsnr" v="348057" />
	</node>
	<node id="-137810" lat="66.268166665" lon="13.2106888875">
		<tag k="fixme" v="consider natural=peak for the most distinct mountains in the district" />
		<tag k="name" v="Skjååsen" />
		<tag k="natural" v="hill" />
		<tag k="place" v="locality" />
		<tag k="ssr:stedsnr" v="348004" />
	</node>
	<node id="-137808" lat="66.192563892" lon="13.1206222143">
		<tag k="name" v="Løkkeliberget" />
		<tag k="natural" v="cliff" />
		<tag k="ssr:stedsnr" v="471852" />
	</node>
	<node id="-137807" lat="66.2282638907" lon="12.7911861203">
		<tag k="fixme" v="consider natural=peak for the most distinct mountains in the district" />
		<tag k="name" v="Navaren" />
		<tag k="natural" v="hill" />
		<tag k="place" v="locality" />
		<tag k="ssr:stedsnr" v="471235" />
	</node>
	<node id="-137806" lat="66.2274944421" lon="12.7758333339">
		<tag k="name" v="Kleppahaugen" />
		<tag k="natural" v="hill" />
		<tag k="place" v="locality" />
		<tag k="ssr:stedsnr" v="471191" />
	</node>
	<node id="-137804" lat="66.2835833377" lon="13.2733527763">
		<tag k="name" v="Steinhusan" />
		<tag k="place" v="locality" />
		<tag k="ssr:stedsnr" v="470977" />
	</node>
	<node id="-137803" lat="66.2829361091" lon="13.2197444354">
		<tag k="name" v="Vassbergan" />
		<tag k="natural" v="cliff" />
		<tag k="ssr:stedsnr" v="470956" />
	</node>
	<node id="-137802" lat="66.2697583313" lon="12.8850277778">
		<tag k="name" v="Listia" />
		<tag k="natural" v="slope" />
		<tag k="place" v="locality" />
		<tag k="ssr:stedsnr" v="470938" />
	</node>
	<node id="-137801" lat="66.2555999989" lon="12.8783861205">
		<tag k="name" v="Kalvhagen" />
		<tag k="natural" v="slope" />
		<tag k="place" v="locality" />
		<tag k="ssr:stedsnr" v="470932" />
	</node>
	<node id="-137800" lat="66.2508416684" lon="12.7705500106">
		<tag k="name" v="Storhaugen" />
		<tag k="natural" v="hill" />
		<tag k="place" v="locality" />
		<tag k="ssr:stedsnr" v="470928" />
	</node>
	<node id="-137799" lat="66.2691361071" lon="12.9858472296">
		<tag k="name" v="Tarmhaugen" />
		<tag k="natural" v="hill" />
		<tag k="place" v="locality" />
		<tag k="ssr:stedsnr" v="470883" />
	</node>
	<node id="-137798" lat="66.2813111089" lon="12.8819999954">
		<tag k="name" v="Sellotengan" />
		<tag k="natural" v="slope" />
		<tag k="place" v="locality" />
		<tag k="ssr:stedsnr" v="470812" />
	</node>
	<node id="-137797" lat="66.2858694474" lon="13.0831166774">
		<tag k="name" v="Steinteigen" />
		<tag k="natural" v="slope" />
		<tag k="place" v="locality" />
		<tag k="ssr:stedsnr" v="470778" />
	</node>
	<node id="-137796" lat="66.2874999974" lon="13.0899472307">
		<tag k="name" v="Enget" />
		<tag k="natural" v="slope" />
		<tag k="place" v="locality" />
		<tag k="ssr:stedsnr" v="470773" />
	</node>
	<node id="-137791" lat="66.240188889" lon="13.1713694418">
		<tag k="name" v="Bjørneremman" />
		<tag k="natural" v="ridge" />
		<tag k="place" v="locality" />
		<tag k="ssr:stedsnr" v="470290" />
	</node>
	<node id="-137788" lat="66.2205250028" lon="13.1191555644">
		<tag k="name" v="Mobakken" />
		<tag k="natural" v="ridge" />
		<tag k="place" v="locality" />
		<tag k="ssr:stedsnr" v="470226" />
	</node>
	<node id="-137786" lat="66.2404444456" lon="12.757261109">
		<tag k="name" v="Steinskaret" />
		<tag k="natural" v="valley" />
		<tag k="place" v="locality" />
		<tag k="ssr:stedsnr" v="470181" />
	</node>
	<node id="-137784" lat="66.2568527801" lon="12.9697444454">
		<tag k="name" v="Kjerringågbakken" />
		<tag k="natural" v="slope" />
		<tag k="place" v="locality" />
		<tag k="ssr:stedsnr" v="470077" />
	</node>
	<node id="-137782" lat="66.2265222238" lon="12.8457388788">
		<tag k="name" v="Ørnvikhaugen" />
		<tag k="natural" v="hill" />
		<tag k="place" v="locality" />
		<tag k="ssr:stedsnr" v="469365" />
	</node>
	<node id="-137781" lat="66.2451222259" lon="12.7651805512">
		<tag k="name" v="Moan" />
		<tag k="place" v="locality" />
		<tag k="ssr:stedsnr" v="469200" />
	</node>
	<node id="-137780" lat="66.2551722258" lon="13.1640638944">
		<tag k="name" v="Rishaugen" />
		<tag k="natural" v="hill" />
		<tag k="place" v="locality" />
		<tag k="ssr:stedsnr" v="469056" />
	</node>
	<node id="-137777" lat="66.1908944445" lon="13.0330222174">
		<tag k="name" v="Trollhaugen" />
		<tag k="natural" v="hill" />
		<tag k="place" v="locality" />
		<tag k="ssr:stedsnr" v="289872" />
	</node>
	<node id="-137776" lat="66.23354722" lon="12.8466777874">
		<tag k="name" v="Botnsletta" />
		<tag k="place" v="locality" />
		<tag k="ssr:stedsnr" v="289215" />
	</node>
	<node id="-137775" lat="66.2315916671" lon="12.8471305536">
		<tag k="name" v="Gangskarhaugen" />
		<tag k="natural" v="hill" />
		<tag k="place" v="locality" />
		<tag k="ssr:stedsnr" v="289209" />
	</node>
	<node id="-137774" lat="66.242116667" lon="12.9577055474">
		<tag k="name" v="Sandfallan" />
		<tag k="natural" v="slope" />
		<tag k="place" v="locality" />
		<tag k="ssr:stedsnr" v="289122" />
	</node>
	<node id="-137771" lat="66.2415611069" lon="12.9482166691">
		<tag k="name" v="Nordkleivan" />
		<tag k="natural" v="slope" />
		<tag k="place" v="locality" />
		<tag k="ssr:stedsnr" v="289113" />
	</node>
	<node id="-137770" lat="66.2302222216" lon="12.9365166752">
		<tag k="name" v="Trongar" />
		<tag k="place" v="locality" />
		<tag k="ssr:stedsnr" v="289111" />
	</node>
	<node id="-137769" lat="66.2643722262" lon="13.0802527748">
		<tag k="name" v="Aksla" />
		<tag k="natural" v="ridge" />
		<tag k="place" v="locality" />
		<tag k="ssr:stedsnr" v="289018" />
	</node>
	<node id="-137768" lat="66.1687972203" lon="12.868922221">
		<tag k="name" v="Angelenden" />
		<tag k="natural" v="ridge" />
		<tag k="place" v="locality" />
		<tag k="ssr:stedsnr" v="288877" />
	</node>
	<node id="-137763" lat="66.2464027786" lon="13.0046749898">
		<tag k="name" v="Grønnlia" />
		<tag k="natural" v="slope" />
		<tag k="place" v="locality" />
		<tag k="ssr:stedsnr" v="288179" />
	</node>
	<node id="-137761" lat="66.2336249988" lon="13.005319449">
		<tag k="name" v="Moltebærhaugen" />
		<tag k="natural" v="hill" />
		<tag k="place" v="locality" />
		<tag k="ssr:stedsnr" v="288169" />
	</node>
	<node id="-137760" lat="66.2585383752" lon="13.1895510173">
		<tag k="name" v="Ryphaugsletta" />
		<tag k="place" v="locality" />
		<tag k="ssr:stedsnr" v="287071" />
	</node>
	<node id="-137757" lat="66.2667472263" lon="12.8625722263">
		<tag k="name" v="Forslandsdalen" />
		<tag k="natural" v="valley" />
		<tag k="place" v="locality" />
		<tag k="ssr:stedsnr" v="259710" />
	</node>
	<node id="-137755" lat="66.2185111118" lon="13.1260277872">
		<tag k="name" v="Kaldkleivdalen" />
		<tag k="natural" v="valley" />
		<tag k="place" v="locality" />
		<tag k="ssr:stedsnr" v="258871" />
	</node>
	<node id="-137748" lat="66.1650666649" lon="12.8881083296">
		<tag k="name" v="Skjåvikbergan" />
		<tag k="natural" v="hill" />
		<tag k="place" v="locality" />
		<tag k="ssr:stedsnr" v="258803" />
	</node>
	<node id="-137747" lat="66.1958166658" lon="12.9479694523">
		<tag k="name" v="Urdan" />
		<tag k="natural" v="slope" />
		<tag k="place" v="locality" />
		<tag k="ssr:stedsnr" v="258767" />
	</node>
	<node id="-137739" lat="66.2531861121" lon="12.8772861009">
		<tag k="name" v="Rishatten" />
		<tag k="natural" v="ridge" />
		<tag k="place" v="locality" />
		<tag k="ssr:stedsnr" v="228917" />
	</node>
	<node id="-137737" lat="66.2681305596" lon="12.9847888881">
		<tag k="name" v="Storhaugen" />
		<tag k="natural" v="hill" />
		<tag k="place" v="locality" />
		<tag k="ssr:stedsnr" v="228906" />
	</node>
	<node id="-137735" lat="66.234702776" lon="12.9294416607">
		<tag k="name" v="Høgnakken" />
		<tag k="natural" v="ridge" />
		<tag k="place" v="locality" />
		<tag k="ssr:stedsnr" v="228156" />
	</node>
	<node id="-137730" lat="66.2694194411" lon="12.8823611058">
		<tag k="fixme" v="consider natural=peak for the most distinct mountains in the district" />
		<tag k="name" v="Aspåsen" />
		<tag k="natural" v="hill" />
		<tag k="place" v="locality" />
		<tag k="ssr:stedsnr" v="227914" />
	</node>
	<node id="-137729" lat="66.2791611111" lon="13.209391663">
		<tag k="name" v="Rundhaugen" />
		<tag k="natural" v="hill" />
		<tag k="place" v="locality" />
		<tag k="ssr:stedsnr" v="227775" />
	</node>
	<node id="-137727" lat="66.2379222235" lon="13.1775333366">
		<tag k="name" v="Bjønnhiet" />
		<tag k="place" v="locality" />
		<tag k="ssr:stedsnr" v="227325" />
	</node>
	<node id="-137723" lat="66.2864972177" lon="13.1026055622">
		<tag k="name" v="Seljedalen" />
		<tag k="natural" v="valley" />
		<tag k="place" v="locality" />
		<tag k="ssr:stedsnr" v="441713" />
	</node>
	<node id="-137703" lat="66.2046055516" lon="13.0884805526">
		<tag k="fixme" v="consider natural=peak for the most distinct mountains in the district" />
		<tag k="name" v="Middagstuva" />
		<tag k="natural" v="hill" />
		<tag k="place" v="locality" />
		<tag k="ssr:stedsnr" v="440733" />
	</node>
	<node id="-137697" lat="66.2390527762" lon="13.2841527729">
		<tag k="name" v="Brynhildhola" />
		<tag k="natural" v="valley" />
		<tag k="place" v="locality" />
		<tag k="ssr:stedsnr" v="440143" />
	</node>
	<node id="-137688" lat="66.2374861088" lon="12.9512194436">
		<tag k="name" v="Langlia" />
		<tag k="natural" v="slope" />
		<tag k="place" v="locality" />
		<tag k="ssr:stedsnr" v="197831" />
	</node>
	<node id="-137686" lat="66.1932555587" lon="13.1254138917">
		<tag k="name" v="Skarsbakken" />
		<tag k="natural" v="slope" />
		<tag k="place" v="locality" />
		<tag k="ssr:stedsnr" v="289896" />
	</node>
	<node id="-137685" lat="66.2506777745" lon="12.8790111077">
		<tag k="name" v="Storstia" />
		<tag k="natural" v="slope" />
		<tag k="place" v="locality" />
		<tag k="ssr:stedsnr" v="289928" />
	</node>
	<node id="-137684" lat="66.1890750006" lon="13.0355444395">
		<tag k="name" v="Gløsen" />
		<tag k="natural" v="ridge" />
		<tag k="place" v="locality" />
		<tag k="ssr:stedsnr" v="289886" />
	</node>
	<node id="-137683" lat="66.1887555544" lon="13.0159749954">
		<tag k="name" v="Olabergan" />
		<tag k="natural" v="hill" />
		<tag k="place" v="locality" />
		<tag k="ssr:stedsnr" v="289881" />
	</node>
	<node id="-137682" lat="66.2567138918" lon="13.071752773">
		<tag k="name" v="Høgsteinlia" />
		<tag k="natural" v="slope" />
		<tag k="place" v="locality" />
		<tag k="ssr:stedsnr" v="289092" />
	</node>
	<node id="-137681" lat="66.2541805527" lon="13.0572416602">
		<tag k="name" v="Kløvremmen" />
		<tag k="place" v="locality" />
		<tag k="ssr:stedsnr" v="289083" />
	</node>
	<node id="-137679" lat="66.2662777763" lon="12.881111106">
		<tag k="fixme" v="consider natural=peak for the most distinct mountains in the district" />
		<tag k="name" v="Lauvåsen" />
		<tag k="natural" v="hill" />
		<tag k="place" v="locality" />
		<tag k="ssr:stedsnr" v="288938" />
	</node>
	<node id="-137677" lat="66.2660944452" lon="12.8708333266">
		<tag k="name" v="Vedlia" />
		<tag k="natural" v="slope" />
		<tag k="place" v="locality" />
		<tag k="ssr:stedsnr" v="288915" />
	</node>
	<node id="-137676" lat="66.2767305573" lon="12.8029055664">
		<tag k="name" v="Øverdalsrabben" />
		<tag k="natural" v="ridge" />
		<tag k="place" v="locality" />
		<tag k="ssr:stedsnr" v="288795" />
	</node>
	<node id="-137675" lat="66.289769449" lon="12.8704805459">
		<tag k="name" v="Fløtvikbakken" />
		<tag k="natural" v="slope" />
		<tag k="place" v="locality" />
		<tag k="ssr:stedsnr" v="288793" />
	</node>
	<node id="-137674" lat="66.2877861143" lon="12.8510388913">
		<tag k="name" v="Bergan" />
		<tag k="natural" v="hill" />
		<tag k="place" v="locality" />
		<tag k="ssr:stedsnr" v="288789" />
	</node>
	<node id="-137673" lat="66.276594441" lon="13.036566662">
		<tag k="name" v="Fagerlia" />
		<tag k="natural" v="slope" />
		<tag k="place" v="locality" />
		<tag k="ssr:stedsnr" v="288741" />
	</node>
	<node id="-137672" lat="66.2469388869" lon="13.1665083239">
		<tag k="name" v="Bakken" />
		<tag k="natural" v="slope" />
		<tag k="place" v="locality" />
		<tag k="ssr:stedsnr" v="288294" />
	</node>
	<node id="-137668" lat="66.20363333" lon="13.0613111065">
		<tag k="fixme" v="consider natural=peak for the most distinct mountains in the district" />
		<tag k="name" v="Aksla" />
		<tag k="natural" v="hill" />
		<tag k="place" v="locality" />
		<tag k="ssr:stedsnr" v="168817" />
	</node>
	<node id="-137667" lat="66.1794194431" lon="13.0614999908">
		<tag k="name" v="Galtberget" />
		<tag k="natural" v="cliff" />
		<tag k="ssr:stedsnr" v="167370" />
	</node>
	<node id="-137665" lat="66.2283916637" lon="12.9118916677">
		<tag k="name" v="Nordklubben" />
		<tag k="natural" v="hill" />
		<tag k="place" v="locality" />
		<tag k="ssr:stedsnr" v="167160" />
	</node>
	<node id="-137664" lat="66.2670500014" lon="13.0506138818">
		<tag k="name" v="Mellomlia" />
		<tag k="natural" v="slope" />
		<tag k="place" v="locality" />
		<tag k="ssr:stedsnr" v="167108" />
	</node>
	<node id="-137663" lat="66.2591361068" lon="13.07085001">
		<tag k="name" v="Storbergan" />
		<tag k="natural" v="slope" />
		<tag k="place" v="locality" />
		<tag k="ssr:stedsnr" v="167103" />
	</node>
	<node id="-137661" lat="66.2589166696" lon="12.7277944422">
		<tag k="fixme" v="consider natural=peak for the most distinct mountains in the district" />
		<tag k="name" v="Breinakken" />
		<tag k="natural" v="hill" />
		<tag k="place" v="locality" />
		<tag k="ssr:stedsnr" v="166963" />
	</node>
	<node id="-137660" lat="66.2589361122" lon="12.8785416578">
		<tag k="name" v="Hestflogan" />
		<tag k="natural" v="cliff" />
		<tag k="ssr:stedsnr" v="166921" />
	</node>
	<node id="-137659" lat="66.2603111131" lon="12.8339305465">
		<tag k="name" v="Rabben" />
		<tag k="natural" v="hill" />
		<tag k="place" v="locality" />
		<tag k="ssr:stedsnr" v="166915" />
	</node>
	<node id="-137658" lat="66.2663972229" lon="12.8624361174">
		<tag k="name" v="Høgkleiva" />
		<tag k="natural" v="slope" />
		<tag k="place" v="locality" />
		<tag k="ssr:stedsnr" v="166913" />
	</node>
	<node id="-137657" lat="66.2504666664" lon="12.7559416767">
		<tag k="name" v="Lia" />
		<tag k="natural" v="slope" />
		<tag k="place" v="locality" />
		<tag k="ssr:stedsnr" v="166911" />
	</node>
	<node id="-137654" lat="66.2865027743" lon="13.0885499886">
		<tag k="name" v="Hamshelleran" />
		<tag k="place" v="locality" />
		<tag k="ssr:stedsnr" v="166763" />
	</node>
	<node id="-137653" lat="66.285113886" lon="13.0806055518">
		<tag k="name" v="Innerstuhaugen" />
		<tag k="natural" v="hill" />
		<tag k="place" v="locality" />
		<tag k="ssr:stedsnr" v="166762" />
	</node>
	<node id="-137652" lat="66.2752194481" lon="13.0348166758">
		<tag k="name" v="Fagerlilysan" />
		<tag k="natural" v="slope" />
		<tag k="place" v="locality" />
		<tag k="ssr:stedsnr" v="166755" />
	</node>
	<node id="-137651" lat="66.2756499972" lon="13.0277777779">
		<tag k="name" v="Kreæken" />
		<tag k="natural" v="ridge" />
		<tag k="place" v="locality" />
		<tag k="ssr:stedsnr" v="166753" />
	</node>
	<node id="-137650" lat="66.2684805575" lon="13.010583329">
		<tag k="name" v="Litlfjellet" />
		<tag k="natural" v="cliff" />
		<tag k="ssr:stedsnr" v="167062" />
	</node>
	<node id="-137649" lat="66.2171833314" lon="12.8226416604">
		<tag k="name" v="Skjåbakkan" />
		<tag k="natural" v="slope" />
		<tag k="place" v="locality" />
		<tag k="ssr:stedsnr" v="166366" />
	</node>
	<node id="-137648" lat="66.2167777814" lon="12.8253138914">
		<tag k="name" v="Mattishaugen" />
		<tag k="natural" v="hill" />
		<tag k="place" v="locality" />
		<tag k="ssr:stedsnr" v="166363" />
	</node>
	<node id="-137647" lat="66.2137944481" lon="13.0923083321">
		<tag k="name" v="Skjåknekten" />
		<tag k="natural" v="slope" />
		<tag k="place" v="locality" />
		<tag k="ssr:stedsnr" v="166269" />
	</node>
	<node id="-137646" lat="66.2452638847" lon="12.761663892">
		<tag k="name" v="Sommarfjøshaugen" />
		<tag k="natural" v="hill" />
		<tag k="place" v="locality" />
		<tag k="ssr:stedsnr" v="166220" />
	</node>
	<node id="-137630" lat="66.284436114" lon="13.1296222184">
		<tag k="fixme" v="consider natural=peak for the most distinct mountains in the district" />
		<tag k="name" v="Ørntuva" />
		<tag k="natural" v="hill" />
		<tag k="place" v="locality" />
		<tag k="ssr:stedsnr" v="259697" />
	</node>
	<node id="-137623" lat="66.2197111075" lon="12.7918111087">
		<tag k="alt_name" v="Kleppen" />
		<tag k="fixme" v="consider natural=peak for the most distinct mountains in the district" />
		<tag k="name" v="Storkleppen" />
		<tag k="natural" v="hill" />
		<tag k="place" v="locality" />
		<tag k="ssr:stedsnr" v="258841" />
	</node>
	<node id="-137618" lat="66.1653611147" lon="12.8551916714">
		<tag k="name" v="Steinraukhaugen" />
		<tag k="natural" v="hill" />
		<tag k="place" v="locality" />
		<tag k="ssr:stedsnr" v="258796" />
	</node>
	<node id="-137613" lat="66.1944999984" lon="13.1069222243">
		<tag k="name" v="Ørnfloget" />
		<tag k="natural" v="slope" />
		<tag k="place" v="locality" />
		<tag k="ssr:stedsnr" v="258773" />
	</node>
	<node id="-137608" lat="66.2538361132" lon="12.7158361098">
		<tag k="alt_name" v="Indrekleiva" />
		<tag k="name" v="Innerkleiva" />
		<tag k="natural" v="hill" />
		<tag k="place" v="locality" />
		<tag k="ssr:stedsnr" v="77253" />
	</node>
	<node id="-137605" lat="66.2613361099" lon="13.1059944349">
		<tag k="name" v="Støravollen" />
		<tag k="natural" v="slope" />
		<tag k="place" v="locality" />
		<tag k="ssr:stedsnr" v="44027" />
	</node>
	<node id="-137604" lat="66.1919249967" lon="13.0410250006">
		<tag k="name" v="Litlfjellet" />
		<tag k="natural" v="cliff" />
		<tag k="ssr:stedsnr" v="229829" />
	</node>
	<node id="-137603" lat="66.1920027737" lon="13.0468833276">
		<tag k="fixme" v="consider natural=peak for the most distinct mountains in the district" />
		<tag k="name" v="Bjørndalshatten" />
		<tag k="natural" v="hill" />
		<tag k="place" v="locality" />
		<tag k="ssr:stedsnr" v="229827" />
	</node>
	<node id="-137600" lat="66.2097944451" lon="12.9518694542">
		<tag k="name" v="Grønnlia" />
		<tag k="natural" v="slope" />
		<tag k="place" v="locality" />
		<tag k="ssr:stedsnr" v="228391" />
	</node>
	<node id="-137598" lat="66.2480444477" lon="12.7474250026">
		<tag k="name" v="Staurhaugen" />
		<tag k="natural" v="hill" />
		<tag k="place" v="locality" />
		<tag k="ssr:stedsnr" v="227947" />
	</node>
	<node id="-137597" lat="66.2762194436" lon="13.2190999983">
		<tag k="name" v="Revgauphaugen" />
		<tag k="natural" v="hill" />
		<tag k="place" v="locality" />
		<tag k="ssr:stedsnr" v="227944" />
	</node>
	<node id="-137594" lat="66.2784916637" lon="13.264102771">
		<tag k="name" v="Gauplifloget" />
		<tag k="natural" v="cliff" />
		<tag k="ssr:stedsnr" v="227933" />
	</node>
	<node id="-137593" lat="66.2853416697" lon="13.2930472161">
		<tag k="name" v="Ågpallen" />
		<tag k="natural" v="hill" />
		<tag k="place" v="locality" />
		<tag k="ssr:stedsnr" v="227930" />
	</node>
	<node id="-137588" lat="66.2247861072" lon="12.825055563">
		<tag k="name" v="Sjøbakken" />
		<tag k="natural" v="hill" />
		<tag k="place" v="locality" />
		<tag k="ssr:stedsnr" v="227343" />
	</node>
	<node id="-137587" lat="66.2128777764" lon="13.0890722236">
		<tag k="name" v="Finnhellaren" />
		<tag k="place" v="locality" />
		<tag k="ssr:stedsnr" v="227266" />
	</node>
	<node id="-137586" lat="66.2440055516" lon="13.0301138878">
		<tag k="name" v="Mobakken" />
		<tag k="natural" v="slope" />
		<tag k="place" v="locality" />
		<tag k="ssr:stedsnr" v="227193" />
	</node>
	<node id="-137585" lat="66.2367222257" lon="13.0134500009">
		<tag k="name" v="Bysekkern" />
		<tag k="place" v="locality" />
		<tag k="ssr:stedsnr" v="227183" />
	</node>
	<node id="-137584" lat="66.2305277765" lon="13.1144027874">
		<tag k="name" v="Kleivsletta" />
		<tag k="place" v="locality" />
		<tag k="ssr:stedsnr" v="227173" />
	</node>
	<node id="-137583" lat="66.2577000018" lon="13.1970750031">
		<tag k="name" v="Dalan" />
		<tag k="natural" v="valley" />
		<tag k="place" v="locality" />
		<tag k="ssr:stedsnr" v="227065" />
	</node>
	<node id="-137581" lat="66.267077782" lon="13.1834888806">
		<tag k="name" v="Seljehaugen" />
		<tag k="natural" v="hill" />
		<tag k="place" v="locality" />
		<tag k="ssr:stedsnr" v="227001" />
	</node>
	<node id="-137579" lat="66.2578361141" lon="12.8632777744">
		<tag k="name" v="Ågestigan" />
		<tag k="natural" v="slope" />
		<tag k="place" v="locality" />
		<tag k="ssr:stedsnr" v="16723" />
	</node>
	<node id="-137574" lat="66.2662305524" lon="13.0717916649">
		<tag k="alt_name" v="Stairagrøva" />
		<tag k="name" v="Steiragrova" />
		<tag k="natural" v="valley" />
		<tag k="place" v="locality" />
		<tag k="ssr:stedsnr" v="16709" />
	</node>
	<node id="-137570" lat="66.2475749958" lon="12.8127249962">
		<tag k="fixme" v="consider natural=peak for the most distinct mountains in the district" />
		<tag k="loc_name" v="Tomtinden" />
		<tag k="name" v="Breitinden" />
		<tag k="natural" v="hill" />
		<tag k="place" v="locality" />
		<tag k="ssr:stedsnr" v="15933" />
	</node>
</osm>
