<?xml version="1.0" encoding="UTF-8"?>
<osm generator="osmapis" version="0.6">
	<node id="-924426" lat="64.8894110675" lon="11.2731193095">
		<tag k="fixme" v="consider place=hamlet" />
		<tag k="name" v="Aunet" />
		<tag k="place" v="farm" />
		<tag k="ssr:stedsnr" v="136093" />
	</node>
	<node id="-924153" lat="64.8600111113" lon="11.1072111007">
		<tag k="name" v="Kleiva" />
		<tag k="place" v="farm" />
		<tag k="ssr:stedsnr" v="500958" />
	</node>
	<node id="-925688" lat="64.8461888898" lon="11.1636611091">
		<tag k="name" v="Haugen" />
		<tag k="place" v="farm" />
		<tag k="ssr:stedsnr" v="318966" />
	</node>
	<node id="-924500" lat="64.8868083336" lon="10.8269972327">
		<tag k="name" v="Lund" />
		<tag k="place" v="isolated_dwelling" />
		<tag k="ssr:stedsnr" v="593152" />
	</node>
	<node id="-924329" lat="64.873269446" lon="11.0889611179">
		<tag k="name" v="Osan" />
		<tag k="place" v="farm" />
		<tag k="ssr:stedsnr" v="108620" />
	</node>
	<node id="-925677" lat="64.8696694456" lon="11.2332638793">
		<tag k="amenity" v="school" />
		<tag k="name" v="Ytre Namdal videregående skole" />
		<tag k="ssr:stedsnr" v="163243" />
	</node>
	<node id="-925163" lat="64.8672500043" lon="11.0371111026">
		<tag k="name" v="Storenget" />
		<tag k="place" v="farm" />
		<tag k="ssr:stedsnr" v="682970" />
	</node>
	<node id="-924649" lat="64.9179388931" lon="11.1878027847">
		<tag k="name" v="Skigård" />
		<tag k="place" v="farm" />
		<tag k="ssr:stedsnr" v="14548" />
	</node>
	<node id="-925154" lat="64.8562277771" lon="10.7549527704">
		<tag k="name" v="Kjørsenget" />
		<tag k="place" v="farm" />
		<tag k="ssr:stedsnr" v="75954" />
	</node>
	<node id="-924641" lat="64.9547499998" lon="11.0011305541">
		<tag k="name" v="Vågan" />
		<tag k="place" v="isolated_dwelling" />
		<tag k="ssr:stedsnr" v="351645" />
	</node>
	<node id="-924126" lat="64.9239833313" lon="11.3302111061">
		<tag k="fixme" v="multiple name tags, choose one and add the other to alt_name" />
		<tag k="name" v="Påssavika;Østvik" />
		<tag k="place" v="farm" />
		<tag k="ssr:stedsnr" v="634498" />
	</node>
	<node id="-926173" lat="64.9149194478" lon="11.2423333439">
		<tag k="name" v="Flerengstranda" />
		<tag k="place" v="farm" />
		<tag k="ssr:stedsnr" v="560003" />
	</node>
	<node id="-923850" lat="64.9703583318" lon="10.8845999968">
		<tag k="name" v="Vollan" />
		<tag k="place" v="locality" />
		<tag k="ssr:stedsnr" v="714958" />
	</node>
	<node id="-926170" lat="64.949447225" lon="11.0607638934">
		<tag k="name" v="Lissvika" />
		<tag k="place" v="farm" />
		<tag k="ssr:stedsnr" v="500602" />
	</node>
	<node id="-924495" lat="64.9267555551" lon="11.0199722227">
		<tag k="name" v="Dragvika" />
		<tag k="place" v="locality" />
		<tag k="ssr:stedsnr" v="924476" />
	</node>
	<node id="-925142" lat="64.8981444444" lon="11.1138888926">
		<tag k="name" v="Valan" />
		<tag k="place" v="farm" />
		<tag k="ssr:stedsnr" v="257632" />
	</node>
	<node id="-925653" lat="64.9178999987" lon="10.8072749973">
		<tag k="name" v="Fagervollen" />
		<tag k="place" v="isolated_dwelling" />
		<tag k="ssr:stedsnr" v="168165" />
	</node>
	<node id="-925140" lat="64.9763249964" lon="11.1444416745">
		<tag k="name" v="Lyngsnesengan" />
		<tag k="place" v="farm" />
		<tag k="ssr:stedsnr" v="196674" />
	</node>
	<node id="-924750" lat="64.921663892" lon="11.1035999949">
		<tag k="name" v="Drag" />
		<tag k="place" v="farm" />
		<tag k="ssr:stedsnr" v="318609" />
	</node>
	<node id="-924626" lat="64.8851249991" lon="11.2672250035">
		<tag k="name" v="Storengbakken" />
		<tag k="place" v="farm" />
		<tag k="ssr:stedsnr" v="196091" />
	</node>
	<node id="-925648" lat="64.8711611081" lon="11.1004277699">
		<tag k="name" v="Måssavollan" />
		<tag k="place" v="farm" />
		<tag k="ssr:stedsnr" v="350559" />
	</node>
	<node id="-925134" lat="64.8802068554" lon="10.9538990379">
		<tag k="fixme" v="consider place=hamlet" />
		<tag k="name" v="Garstad" />
		<tag k="place" v="farm" />
		<tag k="ssr:stedsnr" v="621911" />
	</node>
	<node id="-924618" lat="64.9787861071" lon="11.1140861169">
		<tag k="name" v="Borgonvika" />
		<tag k="place" v="isolated_dwelling" />
		<tag k="ssr:stedsnr" v="593578" />
	</node>
	<node id="-924609" lat="64.8425092619" lon="10.8712918376">
		<tag k="fixme" v="consider place=hamlet" />
		<tag k="name" v="Bergsnova" />
		<tag k="place" v="farm" />
		<tag k="ssr:stedsnr" v="925841" />
	</node>
	<node id="-925118" lat="64.9171333312" lon="10.9396194514">
		<tag k="fixme" v="consider place=hamlet" />
		<tag k="name" v="Austafjord" />
		<tag k="place" v="village" />
		<tag k="ssr:stedsnr" v="257635" />
	</node>
	<node id="-926141" lat="64.8598361108" lon="11.1424972252">
		<tag k="name" v="Sandmoen" />
		<tag k="place" v="farm" />
		<tag k="ssr:stedsnr" v="742956" />
	</node>
	<node id="-924092" lat="64.9390527819" lon="10.9172416611">
		<tag k="name" v="Engesvika" />
		<tag k="place" v="farm" />
		<tag k="ssr:stedsnr" v="317474" />
	</node>
	<node id="-923844" lat="64.9246444486" lon="11.1495500066">
		<tag k="name" v="Valvika" />
		<tag k="place" v="farm" />
		<tag k="ssr:stedsnr" v="560620" />
	</node>
	<node id="-925276" lat="64.979280555" lon="11.106658323">
		<tag k="name" v="Grindvika" />
		<tag k="place" v="isolated_dwelling" />
		<tag k="ssr:stedsnr" v="439702" />
	</node>
	<node id="-925618" lat="64.9202888908" lon="10.8701805523">
		<tag k="name" v="Fjukstadmoen" />
		<tag k="place" v="isolated_dwelling" />
		<tag k="ssr:stedsnr" v="957779" />
	</node>
	<node id="-925616" lat="64.8686217265" lon="10.9243633021">
		<tag k="fixme" v="consider place=hamlet" />
		<tag k="name" v="Rossøya" />
		<tag k="place" v="farm" />
		<tag k="ssr:stedsnr" v="499984" />
	</node>
	<node id="-924317" lat="64.9247583291" lon="10.9592305566">
		<tag k="name" v="Hagan" />
		<tag k="place" v="farm" />
		<tag k="ssr:stedsnr" v="439587" />
	</node>
	<node id="-926124" lat="64.8679638932" lon="10.7563277765">
		<tag k="name" v="Urstad" />
		<tag k="place" v="farm" />
		<tag k="ssr:stedsnr" v="135973" />
	</node>
	<node id="-924075" lat="64.9043805553" lon="11.2962555647">
		<tag k="fixme" v="consider place=hamlet" />
		<tag k="name" v="Storvika" />
		<tag k="place" v="farm" />
		<tag k="ssr:stedsnr" v="682044" />
	</node>
	<node id="-925098" lat="64.8697194402" lon="11.0807277787">
		<tag k="name" v="Sørosan" />
		<tag k="place" v="isolated_dwelling" />
		<tag k="ssr:stedsnr" v="47880" />
	</node>
	<node id="-925097" lat="64.9028611085" lon="11.2528722203">
		<tag k="name" v="Hansvika" />
		<tag k="place" v="hamlet" />
		<tag k="ssr:stedsnr" v="378057" />
	</node>
	<node id="-925095" lat="64.8802138919" lon="11.0458361112">
		<tag k="alt_name" v="Svoltnenget;Svoltenenget" />
		<tag k="name" v="Vågøyhamna" />
		<tag k="place" v="farm" />
		<tag k="ssr:stedsnr" v="653631" />
	</node>
	<node id="-924069" lat="64.9693083349" lon="10.9051305629">
		<tag k="alt_name" v="Borgann" />
		<tag k="fixme" v="consider place=hamlet" />
		<tag k="name" v="Borgan" />
		<tag k="place" v="village" />
		<tag k="ssr:stedsnr" v="15584" />
	</node>
	<node id="-926114" lat="64.861852778" lon="11.2396861202">
		<tag k="name" v="Rørvik" />
		<tag k="place" v="village" />
		<tag k="ssr:stedsnr" v="621466" />
	</node>
	<node id="-925596" lat="64.9157277791" lon="10.9738999935">
		<tag k="alt_name" v="Sjyenget" />
		<tag k="name" v="Sjøenget" />
		<tag k="place" v="isolated_dwelling" />
		<tag k="ssr:stedsnr" v="924558" />
	</node>
	<node id="-925082" lat="64.8727194453" lon="11.2588527835">
		<tag k="name" v="Haltvika" />
		<tag k="place" v="isolated_dwelling" />
		<tag k="ssr:stedsnr" v="803388" />
	</node>
	<node id="-925592" lat="64.9003666917" lon="10.9476673283">
		<tag k="fixme" v="consider place=hamlet" />
		<tag k="name" v="Horsenget" />
		<tag k="place" v="farm" />
		<tag k="ssr:stedsnr" v="108795" />
	</node>
	<node id="-925591" lat="64.8796111112" lon="11.0451694544">
		<tag k="alt_name" v="Svoltenenget;Edmundenget" />
		<tag k="name" v="Vågøyhamna" />
		<tag k="old_name" v="Vaagøhavnen" />
		<tag k="place" v="farm" />
		<tag k="ssr:stedsnr" v="925927" />
	</node>
	<node id="-924053" lat="64.8392083379" lon="11.1021361025">
		<tag k="name" v="Skogan" />
		<tag k="place" v="farm" />
		<tag k="ssr:stedsnr" v="621819" />
	</node>
	<node id="-925076" lat="64.9803611131" lon="10.9220027721">
		<tag k="name" v="Solstad" />
		<tag k="place" v="farm" />
		<tag k="ssr:stedsnr" v="196685" />
	</node>
	<node id="-923742" lat="64.8440330843" lon="11.1828602931">
		<tag k="fixme" v="consider place=hamlet" />
		<tag k="name" v="Sandvika" />
		<tag k="place" v="farm" />
		<tag k="ssr:stedsnr" v="15822" />
	</node>
	<node id="-926098" lat="64.8518916652" lon="11.1075388947">
		<tag k="name" v="Hamran" />
		<tag k="place" v="farm" />
		<tag k="ssr:stedsnr" v="925967" />
	</node>
	<node id="-925584" lat="64.8588111119" lon="10.8987666621">
		<tag k="fixme" v="multiple name tags, choose one and add the other to alt_name" />
		<tag k="name" v="Holmstad;Kleppenget" />
		<tag k="place" v="farm" />
		<tag k="ssr:stedsnr" v="196989" />
	</node>
	<node id="-925933" lat="64.8713527784" lon="10.846677769">
		<tag k="name" v="Hunnestad" />
		<tag k="place" v="farm" />
		<tag k="ssr:stedsnr" v="602761" />
	</node>
	<node id="-923714" lat="64.9036500015" lon="11.0528972144">
		<tag k="fixme" v="consider place=hamlet" />
		<tag k="name" v="Kvalfjord" />
		<tag k="place" v="farm" />
		<tag k="ssr:stedsnr" v="864617" />
	</node>
	<node id="-925065" lat="64.9132999984" lon="11.215130557">
		<tag k="name" v="Vassbotnet" />
		<tag k="place" v="farm" />
		<tag k="ssr:stedsnr" v="257643" />
	</node>
	<node id="-925063" lat="64.8566012013" lon="11.1166734683">
		<tag k="name" v="Evenstad" />
		<tag k="place" v="farm" />
		<tag k="ssr:stedsnr" v="560996" />
	</node>
	<node id="-924548" lat="64.9297015812" lon="11.154740224">
		<tag k="fixme" v="consider place=hamlet" />
		<tag k="name" v="Vangsfjord" />
		<tag k="place" v="farm" />
		<tag k="ssr:stedsnr" v="864667" />
	</node>
	<node id="-926358" lat="64.912294442" lon="11.1250055526">
		<tag k="name" v="Valaunet" />
		<tag k="place" v="farm" />
		<tag k="ssr:stedsnr" v="560601" />
	</node>
	<node id="-925057" lat="64.8904555547" lon="11.1135999899">
		<tag k="name" v="Fornes" />
		<tag k="place" v="isolated_dwelling" />
		<tag k="ssr:stedsnr" v="897570" />
	</node>
	<node id="-925568" lat="64.9767861101" lon="10.9177000019">
		<tag k="name" v="Svanafloa" />
		<tag k="place" v="farm" />
		<tag k="ssr:stedsnr" v="877056" />
	</node>
	<node id="-925055" lat="64.8961194401" lon="10.8401583347">
		<tag k="name" v="Vestre" />
		<tag k="place" v="farm" />
		<tag k="ssr:stedsnr" v="318924" />
	</node>
	<node id="-925054" lat="64.903616665" lon="11.0994388975">
		<tag k="fixme" v="multiple name tags, choose one and add the other to alt_name" />
		<tag k="name" v="Brøken;Innersund" />
		<tag k="place" v="farm" />
		<tag k="ssr:stedsnr" v="925612" />
	</node>
	<node id="-924538" lat="64.9044333346" lon="11.287755554">
		<tag k="name" v="Kåvika" />
		<tag k="place" v="farm" />
		<tag k="ssr:stedsnr" v="682071" />
	</node>
	<node id="-925561" lat="64.8954777774" lon="11.0777361148">
		<tag k="name" v="Setnøya" />
		<tag k="place" v="farm" />
		<tag k="ssr:stedsnr" v="41094" />
	</node>
	<node id="-925045" lat="64.8986393657" lon="10.9002990354">
		<tag k="fixme" v="consider place=hamlet" />
		<tag k="name" v="Dalin" />
		<tag k="place" v="farm" />
		<tag k="ssr:stedsnr" v="439927" />
	</node>
	<node id="-924990" lat="64.9023527782" lon="11.2662111155">
		<tag k="name" v="Klasmoen" />
		<tag k="place" v="farm" />
		<tag k="ssr:stedsnr" v="621068" />
	</node>
	<node id="-923961" lat="64.9563972241" lon="11.033152783">
		<tag k="alt_name" v="Hasfjord, øvre" />
		<tag k="fixme" v="multiple name tags, choose one and add the other to alt_name" />
		<tag k="name" v="Hasfjord;Øvre Hasfjord" />
		<tag k="place" v="farm" />
		<tag k="ssr:stedsnr" v="318547" />
	</node>
	<node id="-924016" lat="64.8623111153" lon="11.1160583362">
		<tag k="name" v="Evenstad" />
		<tag k="place" v="farm" />
		<tag k="ssr:stedsnr" v="169579" />
	</node>
	<node id="-924525" lat="64.9170166689" lon="11.2991305657">
		<tag k="name" v="Vassmoen" />
		<tag k="place" v="farm" />
		<tag k="ssr:stedsnr" v="378005" />
	</node>
	<node id="-926055" lat="64.8728583303" lon="11.0915277828">
		<tag k="name" v="Gjeilan" />
		<tag k="place" v="isolated_dwelling" />
		<tag k="ssr:stedsnr" v="47611" />
	</node>
	<node id="-924004" lat="64.9554444422" lon="11.0321055604">
		<tag k="fixme" v="consider place=hamlet" />
		<tag k="name" v="Hasfjord" />
		<tag k="place" v="farm" />
		<tag k="ssr:stedsnr" v="693232" />
	</node>
	<node id="-924003" lat="64.8375166691" lon="11.205019444">
		<tag k="name" v="Vestgården" />
		<tag k="place" v="farm" />
		<tag k="ssr:stedsnr" v="572991" />
	</node>
	<node id="-925538" lat="64.8650805566" lon="10.7542972292">
		<tag k="name" v="Tjønnsøysjøen" />
		<tag k="place" v="isolated_dwelling" />
		<tag k="ssr:stedsnr" v="532139" />
	</node>
	<node id="-926046" lat="64.9181694461" lon="11.2140916743">
		<tag k="name" v="Dalheim" />
		<tag k="place" v="farm" />
		<tag k="ssr:stedsnr" v="924585" />
	</node>
	<node id="-925021" lat="64.9180027768" lon="11.1168055519">
		<tag k="name" v="Laugen" />
		<tag k="place" v="isolated_dwelling" />
		<tag k="ssr:stedsnr" v="378634" />
	</node>
	<node id="-924508" lat="64.928230557" lon="11.1889222257">
		<tag k="name" v="Åsvika" />
		<tag k="place" v="farm" />
		<tag k="ssr:stedsnr" v="803625" />
	</node>
	<node id="-924507" lat="64.9229611151" lon="10.9538111197">
		<tag k="name" v="Nygården" />
		<tag k="place" v="farm" />
		<tag k="ssr:stedsnr" v="14534" />
	</node>
	<node id="-925529" lat="64.8701991334" lon="10.8461530086">
		<tag k="fixme" v="consider place=hamlet" />
		<tag k="name" v="Hunnestad" />
		<tag k="place" v="farm" />
		<tag k="ssr:stedsnr" v="499978" />
	</node>
	<node id="-924504" lat="64.9116111125" lon="10.9993305471">
		<tag k="fixme" v="consider place=hamlet" />
		<tag k="name" v="Gravset" />
		<tag k="place" v="farm" />
		<tag k="ssr:stedsnr" v="135578" />
	</node>
	<node id="-924502" lat="64.9257277776" lon="11.0131416745">
		<tag k="name" v="Aurstad" />
		<tag k="place" v="locality" />
		<tag k="ssr:stedsnr" v="924475" />
	</node>
	<node id="-925525" lat="64.859786111" lon="10.8570249986">
		<tag k="name" v="Tørrvika" />
		<tag k="place" v="farm" />
		<tag k="ssr:stedsnr" v="196983" />
	</node>
	<node id="-925524" lat="64.9197861135" lon="11.3133333408">
		<tag k="name" v="Neset" />
		<tag k="place" v="hamlet" />
		<tag k="ssr:stedsnr" v="560215" />
	</node>
	<node id="-925523" lat="64.8622111155" lon="10.8264611173">
		<tag k="name" v="Myra" />
		<tag k="place" v="farm" />
		<tag k="ssr:stedsnr" v="682987" />
	</node>
	<node id="-924498" lat="64.9103333638" lon="11.2497730067">
		<tag k="fixme" v="consider place=hamlet" />
		<tag k="name" v="Sildnesstranda" />
		<tag k="place" v="farm" />
		<tag k="ssr:stedsnr" v="898300" />
	</node>
	<node id="-925519" lat="64.8727750044" lon="11.1395555627">
		<tag k="name" v="Tømmervika" />
		<tag k="place" v="locality" />
		<tag k="ssr:stedsnr" v="742896" />
	</node>
	<node id="-926030" lat="64.8830444425" lon="11.1140611071">
		<tag k="name" v="Nord-Tuftin" />
		<tag k="place" v="isolated_dwelling" />
		<tag k="ssr:stedsnr" v="47608" />
	</node>
	<node id="-925004" lat="64.8875555544" lon="10.8792388947">
		<tag k="name" v="Lauvset" />
		<tag k="place" v="farm" />
		<tag k="ssr:stedsnr" v="682942" />
	</node>
	<node id="-925513" lat="64.9250888876" lon="10.8873694505">
		<tag k="name" v="Smådikan" />
		<tag k="place" v="farm" />
		<tag k="ssr:stedsnr" v="257669" />
	</node>
	<node id="-924998" lat="64.923641663" lon="10.8612277724">
		<tag k="name" v="Breidvika" />
		<tag k="place" v="locality" />
		<tag k="ssr:stedsnr" v="14568" />
	</node>
	<node id="-924129" lat="64.9412388866" lon="11.0937888875">
		<tag k="alt_name" v="Øverås" />
		<tag k="name" v="Åsen" />
		<tag k="place" v="farm" />
		<tag k="ssr:stedsnr" v="621558" />
	</node>
	<node id="-926262" lat="64.8800666631" lon="10.8045305472">
		<tag k="name" v="Lonmoen" />
		<tag k="place" v="farm" />
		<tag k="ssr:stedsnr" v="197890" />
	</node>
	<node id="-925503" lat="64.8625416666" lon="10.8424388938">
		<tag k="name" v="Hunnestadsjøen" />
		<tag k="place" v="isolated_dwelling" />
		<tag k="ssr:stedsnr" v="196985" />
	</node>
	<node id="-925502" lat="64.9210929772" lon="10.8743323543">
		<tag k="fixme" v="consider place=hamlet" />
		<tag k="name" v="Fjukstad" />
		<tag k="place" v="farm" />
		<tag k="ssr:stedsnr" v="378654" />
	</node>
	<node id="-926010" lat="64.8698333366" lon="11.2362333421">
		<tag k="amenity" v="school" />
		<tag k="name" v="Rørvik skole" />
		<tag k="ssr:stedsnr" v="770244" />
	</node>
	<node id="-924473" lat="64.8546472189" lon="10.882472221">
		<tag k="name" v="Bergstranda" />
		<tag k="place" v="farm" />
		<tag k="ssr:stedsnr" v="864964" />
	</node>
	<node id="-924472" lat="64.9045333353" lon="10.7971083354">
		<tag k="name" v="Sylta" />
		<tag k="place" v="farm" />
		<tag k="ssr:stedsnr" v="682650" />
	</node>
	<node id="-924471" lat="64.8765668854" lon="11.101132277">
		<tag k="fixme" v="consider place=hamlet" />
		<tag k="name" v="Ofstad" />
		<tag k="place" v="farm" />
		<tag k="ssr:stedsnr" v="971710" />
	</node>
	<node id="-926005" lat="64.8586361152" lon="10.8261305476">
		<tag k="name" v="Roaldsvika" />
		<tag k="place" v="isolated_dwelling" />
		<tag k="ssr:stedsnr" v="654140" />
	</node>
	<node id="-925492" lat="64.9253444466" lon="11.3165333302">
		<tag k="alt_name" v="Øygården" />
		<tag k="name" v="Ødegården" />
		<tag k="place" v="farm" />
		<tag k="ssr:stedsnr" v="682246" />
	</node>
	<node id="-924467" lat="64.900349368" lon="11.1544409675">
		<tag k="fixme" v="consider place=hamlet" />
		<tag k="name" v="Steinfjorden" />
		<tag k="place" v="farm" />
		<tag k="ssr:stedsnr" v="135575" />
	</node>
	<node id="-925490" lat="64.8634166703" lon="10.743852786">
		<tag k="name" v="Vågan" />
		<tag k="place" v="farm" />
		<tag k="ssr:stedsnr" v="136000" />
	</node>
	<node id="-923669" lat="64.9089083372" lon="10.7842083303">
		<tag k="name" v="Valøya" />
		<tag k="place" v="hamlet" />
		<tag k="ssr:stedsnr" v="146983" />
	</node>
	<node id="-923952" lat="64.8625750014" lon="11.1918277705">
		<tag k="alt_name" v="Ryem, austre;Ryem øvre;Austre Ryem" />
		<tag k="name" v="Øvre Ryem" />
		<tag k="place" v="farm" />
		<tag k="ssr:stedsnr" v="317986" />
	</node>
	<node id="-925487" lat="64.9128527819" lon="10.9965972258">
		<tag k="name" v="Gravsetmoen" />
		<tag k="place" v="farm" />
		<tag k="ssr:stedsnr" v="909668" />
	</node>
	<node id="-925998" lat="64.9090662" lon="10.7818778732">
		<tag k="fixme" v="consider place=hamlet" />
		<tag k="name" v="Valøya" />
		<tag k="place" v="farm" />
		<tag k="ssr:stedsnr" v="971835" />
	</node>
	<node id="-924972" lat="64.8911111101" lon="11.0658611184">
		<tag k="fixme" v="multiple name tags, choose one and add the other to alt_name" />
		<tag k="name" v="Setnøyaunet;Setnøya" />
		<tag k="place" v="farm" />
		<tag k="ssr:stedsnr" v="439916" />
	</node>
	<node id="-925993" lat="64.8661361078" lon="10.9126972139">
		<tag k="name" v="Austberg" />
		<tag k="place" v="farm" />
		<tag k="ssr:stedsnr" v="378981" />
	</node>
	<node id="-925992" lat="64.9111416646" lon="10.9434138797">
		<tag k="name" v="Skarpvika" />
		<tag k="place" v="isolated_dwelling" />
		<tag k="ssr:stedsnr" v="210619" />
	</node>
	<node id="-924455" lat="64.9525000014" lon="11.0580333411">
		<tag k="name" v="Vestermoen" />
		<tag k="place" v="farm" />
		<tag k="ssr:stedsnr" v="925560" />
	</node>
	<node id="-924964" lat="64.9290000012" lon="11.0789361056">
		<tag k="fixme" v="consider place=hamlet" />
		<tag k="name" v="Drag" />
		<tag k="place" v="village" />
		<tag k="ssr:stedsnr" v="742584" />
	</node>
	<node id="-925474" lat="64.9127527811" lon="10.9644861129">
		<tag k="name" v="Seterneset" />
		<tag k="place" v="farm" />
		<tag k="ssr:stedsnr" v="452617" />
	</node>
	<node id="-925985" lat="64.9720444449" lon="10.9092416611">
		<tag k="name" v="Salbu" />
		<tag k="place" v="isolated_dwelling" />
		<tag k="ssr:stedsnr" v="378712" />
	</node>
	<node id="-925472" lat="64.8876138924" lon="10.7677972215">
		<tag k="name" v="Løvåg" />
		<tag k="place" v="farm" />
		<tag k="ssr:stedsnr" v="485059" />
	</node>
	<node id="-925469" lat="64.9281750026" lon="11.3385555571">
		<tag k="name" v="Andvika" />
		<tag k="place" v="farm" />
		<tag k="ssr:stedsnr" v="682244" />
	</node>
	<node id="-923932" lat="64.9217249986" lon="10.8557638936">
		<tag k="name" v="Staulan" />
		<tag k="place" v="farm" />
		<tag k="ssr:stedsnr" v="560625" />
	</node>
	<node id="-925979" lat="64.8783472225" lon="11.2666000067">
		<tag k="name" v="Lundemo" />
		<tag k="place" v="farm" />
		<tag k="ssr:stedsnr" v="27406" />
	</node>
	<node id="-924954" lat="64.8536557717" lon="10.844794417">
		<tag k="fixme" v="consider place=hamlet" />
		<tag k="name" v="Vågsenget" />
		<tag k="place" v="farm" />
		<tag k="ssr:stedsnr" v="560967" />
	</node>
	<node id="-925465" lat="64.9548444481" lon="11.0064944532">
		<tag k="alt_name" v="Valhaugen" />
		<tag k="name" v="Valhaug" />
		<tag k="place" v="farm" />
		<tag k="ssr:stedsnr" v="500614" />
	</node>
	<node id="-924440" lat="64.9134974114" lon="11.1837243632">
		<tag k="fixme" v="consider place=hamlet" />
		<tag k="name" v="Vikestad" />
		<tag k="place" v="farm" />
		<tag k="ssr:stedsnr" v="14528" />
	</node>
	<node id="-923926" lat="64.9472916653" lon="10.9432416686">
		<tag k="fixme" v="consider place=hamlet" />
		<tag k="name" v="Sylta" />
		<tag k="place" v="farm" />
		<tag k="ssr:stedsnr" v="682584" />
	</node>
	<node id="-923925" lat="64.9108861081" lon="10.9303888914">
		<tag k="name" v="Leirvika" />
		<tag k="place" v="farm" />
		<tag k="ssr:stedsnr" v="864629" />
	</node>
	<node id="-925459" lat="64.9611232216" lon="11.0806421675">
		<tag k="name" v="Hatlan" />
		<tag k="place" v="farm" />
		<tag k="ssr:stedsnr" v="136562" />
	</node>
	<node id="-926040" lat="64.8501861104" lon="11.1967111211">
		<tag k="name" v="Nordtun" />
		<tag k="place" v="farm" />
		<tag k="ssr:stedsnr" v="560801" />
	</node>
	<node id="-924431" lat="64.9123361098" lon="10.9889416604">
		<tag k="name" v="Brattmoen" />
		<tag k="place" v="farm" />
		<tag k="ssr:stedsnr" v="648599" />
	</node>
	<node id="-924759" lat="64.86345833" lon="10.9066638941">
		<tag k="name" v="Årengan" />
		<tag k="place" v="farm" />
		<tag k="ssr:stedsnr" v="500992" />
	</node>
	<node id="-925847" lat="64.9699972201" lon="10.9054333231">
		<tag k="fixme" v="multiple name tags, choose one and add the other to alt_name" />
		<tag k="name" v="Borgan;Brasta" />
		<tag k="place" v="farm" />
		<tag k="ssr:stedsnr" v="846505" />
	</node>
	<node id="-924938" lat="64.8972083292" lon="11.0720805494">
		<tag k="name" v="Setnøya" />
		<tag k="place" v="farm" />
		<tag k="ssr:stedsnr" v="466091" />
	</node>
	<node id="-925961" lat="64.8516916666" lon="10.7812416573">
		<tag k="name" v="Øyadalen" />
		<tag k="place" v="farm" />
		<tag k="ssr:stedsnr" v="925955" />
	</node>
	<node id="-925448" lat="64.8822000017" lon="10.9116444367">
		<tag k="name" v="Ørnvika" />
		<tag k="place" v="locality" />
		<tag k="ssr:stedsnr" v="440866" />
	</node>
	<node id="-925569" lat="64.873847226" lon="10.8518527867">
		<tag k="name" v="Floan" />
		<tag k="place" v="farm" />
		<tag k="ssr:stedsnr" v="75989" />
	</node>
	<node id="-924932" lat="64.9015527787" lon="11.1091722153">
		<tag k="name" v="Søraunet" />
		<tag k="place" v="farm" />
		<tag k="ssr:stedsnr" v="621617" />
	</node>
	<node id="-924629" lat="64.851522223" lon="10.8698027776">
		<tag k="name" v="Fjellsenget" />
		<tag k="place" v="farm" />
		<tag k="ssr:stedsnr" v="560965" />
	</node>
	<node id="-924281" lat="64.8862305571" lon="11.2682916643">
		<tag k="name" v="Bakketun" />
		<tag k="place" v="farm" />
		<tag k="ssr:stedsnr" v="75085" />
	</node>
	<node id="-923899" lat="64.8769999997" lon="10.8774027858">
		<tag k="name" v="Nordvika" />
		<tag k="place" v="isolated_dwelling" />
		<tag k="ssr:stedsnr" v="560884" />
	</node>
	<node id="-925031" lat="64.8967932969" lon="10.8176854819">
		<tag k="fixme" v="consider place=hamlet" />
		<tag k="name" v="Lissula" />
		<tag k="place" v="farm" />
		<tag k="ssr:stedsnr" v="621933" />
	</node>
	<node id="-924407" lat="64.8741166661" lon="11.2382555483">
		<tag k="name" v="Østly" />
		<tag k="place" v="farm" />
		<tag k="ssr:stedsnr" v="864411" />
	</node>
	<node id="-923892" lat="64.9924373065" lon="10.8097566026">
		<tag k="name" v="Korsholman" />
		<tag k="place" v="locality" />
		<tag k="ssr:stedsnr" v="58271" />
	</node>
	<node id="-923888" lat="64.8395638887" lon="11.220538897">
		<tag k="name" v="Storvollen" />
		<tag k="place" v="hamlet" />
		<tag k="ssr:stedsnr" v="755990" />
	</node>
	<node id="-925935" lat="64.9119138849" lon="10.8444083374">
		<tag k="name" v="Nyheim" />
		<tag k="place" v="farm" />
		<tag k="ssr:stedsnr" v="924589" />
	</node>
	<node id="-923886" lat="64.8970444476" lon="10.8566638912">
		<tag k="name" v="Solli" />
		<tag k="place" v="locality" />
		<tag k="ssr:stedsnr" v="897799" />
	</node>
	<node id="-923885" lat="64.9576377797" lon="11.0088893423">
		<tag k="fixme" v="consider place=hamlet" />
		<tag k="name" v="Grunnan" />
		<tag k="place" v="farm" />
		<tag k="ssr:stedsnr" v="682591" />
	</node>
	<node id="-924394" lat="64.9464777802" lon="11.0624805652">
		<tag k="name" v="Straumsnes" />
		<tag k="place" v="farm" />
		<tag k="ssr:stedsnr" v="257566" />
	</node>
	<node id="-924393" lat="64.8493242012" lon="11.1666460602">
		<tag k="fixme" v="consider place=hamlet" />
		<tag k="name" v="Ryem" />
		<tag k="place" v="farm" />
		<tag k="ssr:stedsnr" v="197969" />
	</node>
	<node id="-924390" lat="64.8765083319" lon="10.8784666696">
		<tag k="name" v="Sørvika" />
		<tag k="place" v="isolated_dwelling" />
		<tag k="ssr:stedsnr" v="15878" />
	</node>
	<node id="-923875" lat="64.9697277796" lon="10.9150777711">
		<tag k="fixme" v="consider place=hamlet" />
		<tag k="name" v="Borgan" />
		<tag k="place" v="farm" />
		<tag k="ssr:stedsnr" v="513773" />
	</node>
	<node id="-925707" lat="64.9178944445" lon="10.9427194402">
		<tag k="amenity" v="school" />
		<tag k="name" v="Austafjord oppvekstsenter" />
		<tag k="ssr:stedsnr" v="163241" />
	</node>
	<node id="-923872" lat="64.9098250018" lon="10.8527861092">
		<tag k="name" v="Aunet" />
		<tag k="place" v="isolated_dwelling" />
		<tag k="ssr:stedsnr" v="439552" />
	</node>
	<node id="-924112" lat="64.9070111088" lon="10.8361055487">
		<tag k="name" v="Vonheim" />
		<tag k="place" v="farm" />
		<tag k="ssr:stedsnr" v="864640" />
	</node>
	<node id="-923869" lat="64.9043493753" lon="11.1470085353">
		<tag k="fixme" v="consider place=hamlet" />
		<tag k="name" v="Lødding" />
		<tag k="place" v="farm" />
		<tag k="ssr:stedsnr" v="500652" />
	</node>
	<node id="-924026" lat="64.8511352292" lon="11.1687493862">
		<tag k="name" v="Ryem" />
		<tag k="place" v="hamlet" />
		<tag k="ssr:stedsnr" v="88380" />
	</node>
	<node id="-924378" lat="64.849517781" lon="11.1454861343">
		<tag k="name" v="Åkvika" />
		<tag k="place" v="farm" />
		<tag k="ssr:stedsnr" v="588138" />
	</node>
	<node id="-923990" lat="64.8827666689" lon="10.9969500072">
		<tag k="name" v="Vannhagan" />
		<tag k="place" v="isolated_dwelling" />
		<tag k="ssr:stedsnr" v="560894" />
	</node>
	<node id="-924885" lat="64.8930387787" lon="10.7971586647">
		<tag k="fixme" v="consider place=hamlet" />
		<tag k="name" v="Storsula" />
		<tag k="place" v="farm" />
		<tag k="ssr:stedsnr" v="75940" />
	</node>
	<node id="-924882" lat="64.8519083354" lon="11.1690583417">
		<tag k="name" v="Klumpen" />
		<tag k="place" v="farm" />
		<tag k="ssr:stedsnr" v="743953" />
	</node>
	<node id="-925392" lat="64.8713749981" lon="10.7670416721">
		<tag k="name" v="Leitet" />
		<tag k="place" v="farm" />
		<tag k="ssr:stedsnr" v="14871" />
	</node>
	<node id="-923854" lat="64.8951361138" lon="11.0195527763">
		<tag k="name" v="Nygården" />
		<tag k="place" v="farm" />
		<tag k="ssr:stedsnr" v="197924" />
	</node>
	<node id="-925388" lat="64.9308583348" lon="11.1861083319">
		<tag k="name" v="Kleiva" />
		<tag k="place" v="farm" />
		<tag k="ssr:stedsnr" v="257664" />
	</node>
	<node id="-924874" lat="64.8504749995" lon="11.1678888897">
		<tag k="name" v="Lian" />
		<tag k="place" v="farm" />
		<tag k="ssr:stedsnr" v="136954" />
	</node>
	<node id="-925897" lat="64.8713722181" lon="10.8916027855">
		<tag k="name" v="Sør-Breivika" />
		<tag k="place" v="farm" />
		<tag k="ssr:stedsnr" v="621978" />
	</node>
	<node id="-925894" lat="64.8798305541" lon="11.2622166737">
		<tag k="name" v="Elverud" />
		<tag k="place" v="farm" />
		<tag k="ssr:stedsnr" v="925106" />
	</node>
	<node id="-924356" lat="64.8486651707" lon="11.1497415491">
		<tag k="fixme" v="consider place=hamlet" />
		<tag k="name" v="Åkvika" />
		<tag k="place" v="farm" />
		<tag k="ssr:stedsnr" v="500967" />
	</node>
	<node id="-924864" lat="64.9203638877" lon="11.0888611168">
		<tag k="name" v="Sæter" />
		<tag k="place" v="locality" />
		<tag k="ssr:stedsnr" v="621648" />
	</node>
	<node id="-924349" lat="64.9022611099" lon="11.0906444346">
		<tag k="name" v="Sundsmoen" />
		<tag k="place" v="farm" />
		<tag k="ssr:stedsnr" v="318580" />
	</node>
	<node id="-926396" lat="64.9370055573" lon="11.0896833335">
		<tag k="name" v="Korsenget" />
		<tag k="place" v="isolated_dwelling" />
		<tag k="ssr:stedsnr" v="715707" />
	</node>
	<node id="-925371" lat="64.8661250017" lon="10.7558111182">
		<tag k="name" v="Solheim" />
		<tag k="place" v="farm" />
		<tag k="ssr:stedsnr" v="85917" />
	</node>
	<node id="-923830" lat="64.859655558" lon="10.8194916741">
		<tag k="name" v="Liberg" />
		<tag k="place" v="isolated_dwelling" />
		<tag k="ssr:stedsnr" v="14997" />
	</node>
	<node id="-926225" lat="64.8526472193" lon="10.7888972251">
		<tag k="name" v="Laugvika" />
		<tag k="place" v="isolated_dwelling" />
		<tag k="ssr:stedsnr" v="471146" />
	</node>
	<node id="-923828" lat="64.8764527778" lon="11.042266666">
		<tag k="name" v="Stranda" />
		<tag k="place" v="farm" />
		<tag k="ssr:stedsnr" v="500918" />
	</node>
	<node id="-924851" lat="64.9077888908" lon="10.838949999">
		<tag k="name" v="Lia" />
		<tag k="place" v="farm" />
		<tag k="ssr:stedsnr" v="925598" />
	</node>
	<node id="-926067" lat="64.8615749998" lon="10.9196555617">
		<tag k="name" v="Nyheim" />
		<tag k="place" v="farm" />
		<tag k="ssr:stedsnr" v="257987" />
	</node>
	<node id="-924848" lat="64.8655166632" lon="11.2432916641">
		<tag k="name" v="Myrstad" />
		<tag k="place" v="farm" />
		<tag k="ssr:stedsnr" v="452412" />
	</node>
	<node id="-925358" lat="64.869841666" lon="11.2548944475">
		<tag k="name" v="Vikket" />
		<tag k="place" v="isolated_dwelling" />
		<tag k="ssr:stedsnr" v="14324" />
	</node>
	<node id="-925981" lat="64.9457361146" lon="10.9691000094">
		<tag k="name" v="Bergly" />
		<tag k="place" v="farm" />
		<tag k="ssr:stedsnr" v="743523" />
	</node>
	<node id="-926317" lat="64.8522083348" lon="10.7853333395">
		<tag k="name" v="Gjertrudvika" />
		<tag k="place" v="isolated_dwelling" />
		<tag k="ssr:stedsnr" v="289133" />
	</node>
	<node id="-924841" lat="64.914908337" lon="10.9444694408">
		<tag k="name" v="Belsenget" />
		<tag k="place" v="farm" />
		<tag k="ssr:stedsnr" v="378614" />
	</node>
	<node id="-923816" lat="64.9472805574" lon="10.974288882">
		<tag k="name" v="Ramstadsjøen" />
		<tag k="place" v="farm" />
		<tag k="ssr:stedsnr" v="15557" />
	</node>
	<node id="-925859" lat="64.9730111077" lon="10.9305055517">
		<tag k="name" v="Borg" />
		<tag k="place" v="locality" />
		<tag k="ssr:stedsnr" v="803714" />
	</node>
	<node id="-924834" lat="64.8512051217" lon="11.1183762518">
		<tag k="fixme" v="consider place=hamlet" />
		<tag k="name" v="Dekkerhus" />
		<tag k="place" v="farm" />
		<tag k="ssr:stedsnr" v="136950" />
	</node>
	<node id="-925341" lat="64.9255638929" lon="11.192952778">
		<tag k="name" v="Nordås" />
		<tag k="place" v="farm" />
		<tag k="ssr:stedsnr" v="621659" />
	</node>
	<node id="-923804" lat="64.8731333352" lon="11.047902776">
		<tag k="name" v="Litlenget" />
		<tag k="place" v="farm" />
		<tag k="ssr:stedsnr" v="197915" />
	</node>
	<node id="-925722" lat="64.934177779" lon="11.3368361114">
		<tag k="name" v="Søråsen" />
		<tag k="place" v="isolated_dwelling" />
		<tag k="ssr:stedsnr" v="318161" />
	</node>
	<node id="-924537" lat="65.003258332" lon="11.1351222243">
		<tag k="alt_name" v="Lissvikmoen" />
		<tag k="name" v="Kvaløy" />
		<tag k="place" v="farm" />
		<tag k="ssr:stedsnr" v="197710" />
	</node>
	<node id="-925380" lat="64.8653219596" lon="11.0438680694">
		<tag k="fixme" v="consider place=hamlet" />
		<tag k="name" v="Vågøya" />
		<tag k="place" v="farm" />
		<tag k="ssr:stedsnr" v="196970" />
	</node>
	<node id="-924822" lat="64.9258388925" lon="11.1718611126">
		<tag k="name" v="Buøya" />
		<tag k="place" v="farm" />
		<tag k="ssr:stedsnr" v="14561" />
	</node>
	<node id="-924819" lat="64.933680559" lon="10.9197555514">
		<tag k="name" v="Småvollan" />
		<tag k="place" v="farm" />
		<tag k="ssr:stedsnr" v="924481" />
	</node>
	<node id="-923794" lat="64.9517138847" lon="11.062927779">
		<tag k="name" v="Moen" />
		<tag k="place" v="farm" />
		<tag k="ssr:stedsnr" v="15555" />
	</node>
	<node id="-924815" lat="64.865564213" lon="10.991875758">
		<tag k="fixme" v="consider place=hamlet" />
		<tag k="name" v="Svinøya" />
		<tag k="place" v="farm" />
		<tag k="ssr:stedsnr" v="560974" />
	</node>
	<node id="-924814" lat="64.9265660676" lon="11.0808527423">
		<tag k="fixme" v="consider place=hamlet" />
		<tag k="name" v="Drag" />
		<tag k="place" v="farm" />
		<tag k="ssr:stedsnr" v="135600" />
	</node>
	<node id="-924269" lat="64.8730250004" lon="11.0270333294">
		<tag k="name" v="Steina" />
		<tag k="place" v="isolated_dwelling" />
		<tag k="ssr:stedsnr" v="136901" />
	</node>
	<node id="-925322" lat="64.858772219" lon="10.8985472216">
		<tag k="name" v="Kleppenget" />
		<tag k="place" v="isolated_dwelling" />
		<tag k="ssr:stedsnr" v="149598" />
	</node>
	<node id="-926316" lat="64.8799694477" lon="10.9259666657">
		<tag k="name" v="Storvollen" />
		<tag k="place" v="farm" />
		<tag k="ssr:stedsnr" v="76897" />
	</node>
	<node id="-924800" lat="64.9103583297" lon="11.1225944386">
		<tag k="fixme" v="consider place=hamlet" />
		<tag k="name" v="Søraunet" />
		<tag k="old_name" v="Pålsaunet" />
		<tag k="place" v="farm" />
		<tag k="ssr:stedsnr" v="317539" />
	</node>
	<node id="-923774" lat="64.8905361071" lon="11.2256555612">
		<tag k="name" v="Kverndal" />
		<tag k="place" v="isolated_dwelling" />
		<tag k="ssr:stedsnr" v="560057" />
	</node>
	<node id="-924949" lat="64.9544055539" lon="11.0553222268">
		<tag k="name" v="Nyheim" />
		<tag k="place" v="isolated_dwelling" />
		<tag k="ssr:stedsnr" v="533674" />
	</node>
	<node id="-925305" lat="64.8848666654" lon="10.8861055498">
		<tag k="name" v="Brattlia" />
		<tag k="place" v="farm" />
		<tag k="ssr:stedsnr" v="318930" />
	</node>
	<node id="-924280" lat="64.9021431466" lon="11.2804207674">
		<tag k="fixme" v="consider place=hamlet" />
		<tag k="name" v="Juvika" />
		<tag k="place" v="farm" />
		<tag k="ssr:stedsnr" v="971697" />
	</node>
	<node id="-924278" lat="64.9084305592" lon="10.9342500047">
		<tag k="alt_name" v="Bålvika;Bordvika" />
		<tag k="name" v="Bårdsvika" />
		<tag k="place" v="locality" />
		<tag k="ssr:stedsnr" v="135560" />
	</node>
	<node id="-925801" lat="64.9161438751" lon="10.9392741351">
		<tag k="fixme" v="consider place=hamlet" />
		<tag k="name" v="Austafjord" />
		<tag k="place" v="farm" />
		<tag k="ssr:stedsnr" v="971823" />
	</node>
	<node id="-923923" lat="64.8980416664" lon="10.9182055485">
		<tag k="name" v="Dalasjøen" />
		<tag k="place" v="isolated_dwelling" />
		<tag k="ssr:stedsnr" v="270615" />
	</node>
	<node id="-924272" lat="64.877088886" lon="11.2314638942">
		<tag k="name" v="Breidablikk" />
		<tag k="place" v="isolated_dwelling" />
		<tag k="ssr:stedsnr" v="864410" />
	</node>
	<node id="-925806" lat="64.8712083342" lon="10.8879361077">
		<tag k="name" v="Bjørvika" />
		<tag k="place" v="farm" />
		<tag k="ssr:stedsnr" v="803984" />
	</node>
	<node id="-924861" lat="64.8537145947" lon="10.8713224729">
		<tag k="fixme" v="consider place=hamlet" />
		<tag k="name" v="Berg" />
		<tag k="place" v="farm" />
		<tag k="ssr:stedsnr" v="136959" />
	</node>
	<node id="-925292" lat="64.8842416657" lon="10.8702638904">
		<tag k="alt_name" v="Nordlia" />
		<tag k="name" v="Nordli" />
		<tag k="place" v="farm" />
		<tag k="ssr:stedsnr" v="621939" />
	</node>
	<node id="-925287" lat="64.8708472219" lon="10.8648888789">
		<tag k="name" v="Heimsvika" />
		<tag k="place" v="farm" />
		<tag k="ssr:stedsnr" v="499981" />
	</node>
	<node id="-926311" lat="64.9204091366" lon="11.2318911454">
		<tag k="fixme" v="consider place=hamlet" />
		<tag k="name" v="Flerenget" />
		<tag k="place" v="farm" />
		<tag k="ssr:stedsnr" v="682003" />
	</node>
	<node id="-923749" lat="64.9222319724" lon="11.1240890792">
		<tag k="fixme" v="consider place=hamlet" />
		<tag k="name" v="Stangringa" />
		<tag k="place" v="farm" />
		<tag k="ssr:stedsnr" v="196558" />
	</node>
	<node id="-924771" lat="64.9137833317" lon="11.1926666604">
		<tag k="name" v="Laugen" />
		<tag k="place" v="farm" />
		<tag k="ssr:stedsnr" v="682645" />
	</node>
	<node id="-925883" lat="64.942057036" lon="10.9704497837">
		<tag k="fixme" v="consider place=hamlet" />
		<tag k="name" v="Ramstad" />
		<tag k="place" v="farm" />
		<tag k="ssr:stedsnr" v="560528" />
	</node>
	<node id="-924256" lat="64.8818861069" lon="11.268811107">
		<tag k="name" v="Nordlund" />
		<tag k="place" v="farm" />
		<tag k="ssr:stedsnr" v="75080" />
	</node>
	<node id="-925372" lat="64.8716250015" lon="11.0820555577">
		<tag k="name" v="Sørosan" />
		<tag k="place" v="farm" />
		<tag k="ssr:stedsnr" v="196969" />
	</node>
	<node id="-926302" lat="64.8683499966" lon="11.0064999911">
		<tag k="alt_name" v="Svinøystranda" />
		<tag k="name" v="Stranda" />
		<tag k="place" v="locality" />
		<tag k="ssr:stedsnr" v="14968" />
	</node>
	<node id="-924253" lat="64.9254166657" lon="11.1659916644">
		<tag k="name" v="Nordaunet" />
		<tag k="place" v="hamlet" />
		<tag k="ssr:stedsnr" v="864654" />
	</node>
	<node id="-925788" lat="64.8691333293" lon="10.8510166734">
		<tag k="name" v="Osa" />
		<tag k="place" v="farm" />
		<tag k="ssr:stedsnr" v="803983" />
	</node>
	<node id="-924505" lat="64.9249271124" lon="11.1683558112">
		<tag k="fixme" v="consider place=hamlet" />
		<tag k="name" v="Nordaunet" />
		<tag k="old_name" v="Vangsaunet" />
		<tag k="place" v="farm" />
		<tag k="ssr:stedsnr" v="971712" />
	</node>
	<node id="-924760" lat="64.8626642357" lon="11.2281769544">
		<tag k="fixme" v="consider place=hamlet" />
		<tag k="name" v="Rørvik" />
		<tag k="place" v="farm" />
		<tag k="ssr:stedsnr" v="971703" />
	</node>
	<node id="-923735" lat="64.9179416636" lon="11.2407027735">
		<tag k="name" v="Nordstranda" />
		<tag k="place" v="farm" />
		<tag k="ssr:stedsnr" v="439001" />
	</node>
	<node id="-924758" lat="64.9180750035" lon="11.0201555475">
		<tag k="name" v="Lauvlia" />
		<tag k="place" v="farm" />
		<tag k="ssr:stedsnr" v="135587" />
	</node>
	<node id="-923733" lat="64.8770527813" lon="11.1031333367">
		<tag k="fixme" v="consider place=hamlet" />
		<tag k="name" v="Ofstad" />
		<tag k="place" v="village" />
		<tag k="ssr:stedsnr" v="197906" />
	</node>
	<node id="-925268" lat="64.8602750021" lon="11.2143333413">
		<tag k="fixme" v="multiple name tags, choose one and add the other to alt_name" />
		<tag k="name" v="Høyem;Raudsand" />
		<tag k="place" v="isolated_dwelling" />
		<tag k="ssr:stedsnr" v="803943" />
	</node>
	<node id="-923731" lat="64.975591663" lon="10.9133972148">
		<tag k="name" v="Svanafloa" />
		<tag k="place" v="farm" />
		<tag k="ssr:stedsnr" v="925754" />
	</node>
	<node id="-923730" lat="64.8699111093" lon="10.8443388835">
		<tag k="name" v="Hunnestad" />
		<tag k="place" v="farm" />
		<tag k="ssr:stedsnr" v="967719" />
	</node>
	<node id="-926307" lat="64.9058583364" lon="10.9698805643">
		<tag k="fixme" v="consider place=hamlet" />
		<tag k="name" v="Kvernvika" />
		<tag k="place" v="farm" />
		<tag k="ssr:stedsnr" v="560587" />
	</node>
	<node id="-924240" lat="64.8737555528" lon="10.8475166677">
		<tag k="name" v="Dysjan" />
		<tag k="place" v="farm" />
		<tag k="ssr:stedsnr" v="924970" />
	</node>
	<node id="-925262" lat="64.8818249979" lon="11.2659138783">
		<tag k="name" v="Overgård" />
		<tag k="place" v="farm" />
		<tag k="ssr:stedsnr" v="378085" />
	</node>
	<node id="-923817" lat="64.9382287238" lon="11.0494251341">
		<tag k="fixme" v="consider place=hamlet" />
		<tag k="name" v="Yttersund" />
		<tag k="place" v="farm" />
		<tag k="ssr:stedsnr" v="742486" />
	</node>
	<node id="-924235" lat="64.9113138924" lon="10.8730583238">
		<tag k="name" v="Myrmo" />
		<tag k="place" v="farm" />
		<tag k="ssr:stedsnr" v="864663" />
	</node>
	<node id="-923722" lat="64.9349111073" lon="11.3452638889">
		<tag k="alt_name" v="Elvåsen" />
		<tag k="name" v="Elvåsmoen" />
		<tag k="place" v="farm" />
		<tag k="ssr:stedsnr" v="318247" />
	</node>
	<node id="-925767" lat="64.8468222217" lon="11.0893999917">
		<tag k="name" v="Tjønnavika" />
		<tag k="place" v="isolated_dwelling" />
		<tag k="ssr:stedsnr" v="257965" />
	</node>
	<node id="-925253" lat="64.8937618301" lon="11.0756032032">
		<tag k="name" v="Setnøya" />
		<tag k="place" v="farm" />
		<tag k="ssr:stedsnr" v="318942" />
	</node>
	<node id="-924738" lat="64.893602265" lon="11.0713250348">
		<tag k="fixme" v="consider place=hamlet" />
		<tag k="name" v="Setnøya" />
		<tag k="place" v="farm" />
		<tag k="ssr:stedsnr" v="587084" />
	</node>
	<node id="-923713" lat="64.893980557" lon="11.2360416658">
		<tag k="name" v="Bråten" />
		<tag k="place" v="farm" />
		<tag k="ssr:stedsnr" v="76095" />
	</node>
	<node id="-923710" lat="64.8816333331" lon="11.1081722283">
		<tag k="name" v="Tuftin" />
		<tag k="place" v="farm" />
		<tag k="ssr:stedsnr" v="500906" />
	</node>
	<node id="-925757" lat="64.9737065728" lon="11.1002929441">
		<tag k="fixme" v="consider place=hamlet" />
		<tag k="name" v="Lyngsnes" />
		<tag k="place" v="farm" />
		<tag k="ssr:stedsnr" v="971829" />
	</node>
	<node id="-925962" lat="64.8810750034" lon="11.2370611171">
		<tag k="name" v="Solvang" />
		<tag k="place" v="isolated_dwelling" />
		<tag k="ssr:stedsnr" v="816554" />
	</node>
	<node id="-925754" lat="64.8360863798" lon="11.0941694781">
		<tag k="fixme" v="consider place=hamlet" />
		<tag k="name" v="Breivika" />
		<tag k="place" v="farm" />
		<tag k="ssr:stedsnr" v="379772" />
	</node>
	<node id="-924121" lat="64.9330972202" lon="11.2077888811">
		<tag k="name" v="Anevika" />
		<tag k="place" v="isolated_dwelling" />
		<tag k="ssr:stedsnr" v="654309" />
	</node>
	<node id="-925238" lat="64.8699320103" lon="10.762992308">
		<tag k="fixme" v="consider place=hamlet" />
		<tag k="name" v="Tjønnsøya" />
		<tag k="place" v="farm" />
		<tag k="ssr:stedsnr" v="196975" />
	</node>
	<node id="-924983" lat="64.9218500041" lon="11.2213861194">
		<tag k="name" v="Sandhalsen" />
		<tag k="place" v="farm" />
		<tag k="ssr:stedsnr" v="14014" />
	</node>
	<node id="-925748" lat="64.8631304979" lon="11.1195172041">
		<tag k="fixme" v="consider place=hamlet" />
		<tag k="name" v="Evenstad" />
		<tag k="place" v="farm" />
		<tag k="ssr:stedsnr" v="257958" />
	</node>
	<node id="-924211" lat="64.9128436522" lon="10.9649125337">
		<tag k="fixme" v="consider place=hamlet" />
		<tag k="name" v="Sæterneset" />
		<tag k="place" v="farm" />
		<tag k="ssr:stedsnr" v="803590" />
	</node>
	<node id="-926257" lat="64.9701666631" lon="10.8798361093">
		<tag k="name" v="Sandstad" />
		<tag k="place" v="locality" />
		<tag k="ssr:stedsnr" v="925738" />
	</node>
	<node id="-924720" lat="64.909088888" lon="11.293313881">
		<tag k="name" v="Sørheim" />
		<tag k="place" v="farm" />
		<tag k="ssr:stedsnr" v="378022" />
	</node>
	<node id="-925743" lat="64.9473504017" lon="11.1445246254">
		<tag k="fixme" v="consider place=hamlet" />
		<tag k="name" v="Lysøya" />
		<tag k="place" v="farm" />
		<tag k="ssr:stedsnr" v="804536" />
	</node>
	<node id="-923997" lat="64.8790472249" lon="10.904391661">
		<tag k="name" v="Nord-Breivika" />
		<tag k="place" v="farm" />
		<tag k="ssr:stedsnr" v="743871" />
	</node>
	<node id="-925703" lat="64.8724916656" lon="10.9486527855">
		<tag k="name" v="Melkarmoen" />
		<tag k="place" v="farm" />
		<tag k="ssr:stedsnr" v="439967" />
	</node>
	<node id="-924199" lat="64.920608336" lon="11.3092749907">
		<tag k="alt_name" v="Øvergårdan" />
		<tag k="name" v="Øvergården" />
		<tag k="place" v="farm" />
		<tag k="ssr:stedsnr" v="135003" />
	</node>
	<node id="-924196" lat="64.8998674437" lon="11.2915403164">
		<tag k="fixme" v="consider place=hamlet" />
		<tag k="name" v="Stakkskardet" />
		<tag k="old_name" v="Stakskaret" />
		<tag k="place" v="farm" />
		<tag k="ssr:stedsnr" v="804116" />
	</node>
	<node id="-924707" lat="64.8809777805" lon="11.097927788">
		<tag k="name" v="Kongensvaldet" />
		<tag k="place" v="farm" />
		<tag k="ssr:stedsnr" v="573073" />
	</node>
	<node id="-925730" lat="64.973013893" lon="11.0974000039">
		<tag k="fixme" v="consider place=hamlet" />
		<tag k="loc_name" v="Lyngsneset" />
		<tag k="name" v="Lyngsnes" />
		<tag k="place" v="village" />
		<tag k="ssr:stedsnr" v="87409" />
	</node>
	<node id="-924592" lat="64.8934143974" lon="11.1087334037">
		<tag k="fixme" v="consider place=hamlet" />
		<tag k="name" v="Fornes" />
		<tag k="place" v="farm" />
		<tag k="ssr:stedsnr" v="864937" />
	</node>
	<node id="-925957" lat="64.9535944486" lon="11.0320499902">
		<tag k="alt_name" v="Hasfjord, nedre" />
		<tag k="fixme" v="multiple name tags, choose one and add the other to alt_name" />
		<tag k="name" v="Hasfjord;Nedre Hasfjord" />
		<tag k="place" v="farm" />
		<tag k="ssr:stedsnr" v="379521" />
	</node>
	<node id="-923676" lat="64.8460027762" lon="11.1988527812">
		<tag k="name" v="Sandmoen" />
		<tag k="place" v="isolated_dwelling" />
		<tag k="ssr:stedsnr" v="15811" />
	</node>
	<node id="-923674" lat="64.8449305534" lon="11.1367555557">
		<tag k="name" v="Åkvika" />
		<tag k="place" v="farm" />
		<tag k="ssr:stedsnr" v="574966" />
	</node>
	<node id="-925208" lat="64.8914722224" lon="11.0663333309">
		<tag k="fixme" v="multiple name tags, choose one and add the other to alt_name" />
		<tag k="name" v="Setnøya;Vestre Setnøya" />
		<tag k="place" v="farm" />
		<tag k="ssr:stedsnr" v="891112" />
	</node>
	<node id="-925206" lat="64.9030142076" lon="10.8517300947">
		<tag k="fixme" v="consider place=hamlet" />
		<tag k="name" v="Ulsund" />
		<tag k="place" v="farm" />
		<tag k="ssr:stedsnr" v="925600" />
	</node>
	<node id="-924693" lat="64.9537491233" lon="10.9861045259">
		<tag k="fixme" v="consider place=hamlet" />
		<tag k="name" v="Ramstadlandet" />
		<tag k="place" v="farm" />
		<tag k="ssr:stedsnr" v="378594" />
	</node>
	<node id="-925715" lat="64.8730250013" lon="11.2356083308">
		<tag k="name" v="Nylandet" />
		<tag k="place" v="farm" />
		<tag k="ssr:stedsnr" v="378396" />
	</node>
	<node id="-925714" lat="64.9245055543" lon="11.3227277865">
		<tag k="name" v="Moen" />
		<tag k="place" v="farm" />
		<tag k="ssr:stedsnr" v="379222" />
	</node>
	<node id="-923665" lat="64.8492916651" lon="11.1503916712">
		<tag k="name" v="Åkvika" />
		<tag k="place" v="farm" />
		<tag k="ssr:stedsnr" v="952164" />
	</node>
	<node id="-924687" lat="64.8839527773" lon="11.2757638914">
		<tag k="name" v="Halsan" />
		<tag k="place" v="locality" />
		<tag k="ssr:stedsnr" v="816398" />
	</node>
	<node id="-925197" lat="64.8892282853" lon="11.0133642742">
		<tag k="fixme" v="consider place=hamlet" />
		<tag k="name" v="Olsvika" />
		<tag k="place" v="farm" />
		<tag k="ssr:stedsnr" v="257924" />
	</node>
	<node id="-925195" lat="64.8670972256" lon="11.0932222198">
		<tag k="name" v="Kleivan" />
		<tag k="place" v="farm" />
		<tag k="ssr:stedsnr" v="897552" />
	</node>
	<node id="-924169" lat="64.9069027742" lon="11.1004472158">
		<tag k="fixme" v="consider place=hamlet" />
		<tag k="name" v="Innersund" />
		<tag k="place" v="farm" />
		<tag k="ssr:stedsnr" v="593519" />
	</node>
	<node id="-924588" lat="64.9257027746" lon="10.875077783">
		<tag k="name" v="Fjukstadstranda" />
		<tag k="place" v="farm" />
		<tag k="ssr:stedsnr" v="439614" />
	</node>
	<node id="-924676" lat="64.860038886" lon="10.8729500046">
		<tag k="name" v="Øverberg" />
		<tag k="place" v="farm" />
		<tag k="ssr:stedsnr" v="864983" />
	</node>
	<node id="-924675" lat="64.8843416629" lon="11.2682555571">
		<tag k="name" v="Engstad" />
		<tag k="place" v="farm" />
		<tag k="ssr:stedsnr" v="816397" />
	</node>
	<node id="-926209" lat="64.9347922832" lon="11.2120787216">
		<tag k="fixme" v="consider place=hamlet" />
		<tag k="name" v="Bremneset" />
		<tag k="place" v="farm" />
		<tag k="ssr:stedsnr" v="803502" />
	</node>
</osm>
