<?xml version="1.0" encoding="UTF-8"?>
<osm generator="osmapis" version="0.6">
	<node id="-924287" lat="64.8386555555" lon="11.1463833274">
		<tag k="aeroway" v="aerodrome" />
		<tag k="alt_name" v="Ryum" />
		<tag k="name" v="Rørvik lufthavn, Ryum" />
		<tag k="old_name" v="Rørvik lufthavn" />
		<tag k="ssr:stedsnr" v="754441" />
	</node>
	<node id="-925437" lat="64.8660750015" lon="11.0464861106">
		<tag k="man_made" v="quay" />
		<tag k="name" v="Vågøyhamn" />
		<tag k="place" v="locality" />
		<tag k="ssr:stedsnr" v="229602" />
	</node>
	<node id="-924955" lat="64.9579527742" lon="10.9916833228">
		<tag k="amenity" v="ferry_terminal" />
		<tag k="name" v="Ramstadlandet ferjekai" />
		<tag k="ssr:stedsnr" v="593593" />
	</node>
	<node id="-923967" lat="64.8360222219" lon="11.2405000027">
		<tag k="fixme" v="verify maritime location" />
		<tag k="mooring" v="yes" />
		<tag k="name" v="Biskopstøa" />
		<tag k="place" v="locality" />
		<tag k="ssr:stedsnr" v="755995" />
	</node>
	<node id="-923728" lat="64.9444472256" lon="11.2628027864">
		<tag k="name" v="Ramnholmråsa" />
		<tag k="place" v="locality" />
		<tag k="ssr:stedsnr" v="271013" />
	</node>
	<node id="-924105" lat="64.9346555542" lon="11.3770083341">
		<tag k="name" v="Hummulråsa" />
		<tag k="place" v="locality" />
		<tag k="ssr:stedsnr" v="925229" />
	</node>
	<node id="-926023" lat="64.8793722248" lon="11.1515083318">
		<tag k="highway" v="path" />
		<tag k="name" v="Dyrstien" />
		<tag k="ssr:stedsnr" v="109253" />
	</node>
	<node id="-925025" lat="64.8590750033" lon="11.2283638891">
		<tag k="leisure" v="marina" />
		<tag k="name" v="Fiskerihamna" />
		<tag k="ssr:stedsnr" v="816451" />
	</node>
</osm>
