<?xml version="1.0" encoding="UTF-8"?>
<osm generator="osmapis" version="0.6">
	<node id="-925695" lat="64.8708777771" lon="11.247613895">
		<tag k="fixme" v="consider natural=peak for the most distinct mountains in the district" />
		<tag k="name" v="Gluggfjellet" />
		<tag k="natural" v="hill" />
		<tag k="place" v="locality" />
		<tag k="ssr:stedsnr" v="560394" />
	</node>
	<node id="-926206" lat="64.9163083327" lon="10.8170527759">
		<tag k="fixme" v="consider natural=peak for the most distinct mountains in the district" />
		<tag k="name" v="Bjørnahifjellet" />
		<tag k="natural" v="hill" />
		<tag k="place" v="locality" />
		<tag k="ssr:stedsnr" v="742579" />
	</node>
	<node id="-925181" lat="64.8731694467" lon="11.2273027791">
		<tag k="name" v="Litloksrævo" />
		<tag k="natural" v="valley" />
		<tag k="place" v="locality" />
		<tag k="ssr:stedsnr" v="938520" />
	</node>
	<node id="-927739" lat="64.9375166638" lon="11.1264111176">
		<tag k="fixme" v="consider natural=peak for the most distinct mountains in the district" />
		<tag k="name" v="Langfjellet" />
		<tag k="natural" v="hill" />
		<tag k="place" v="locality" />
		<tag k="ssr:stedsnr" v="135485" />
	</node>
	<node id="-925477" lat="64.9188722194" lon="10.9541777792">
		<tag k="name" v="Auneinen" />
		<tag k="natural" v="slope" />
		<tag k="place" v="locality" />
		<tag k="ssr:stedsnr" v="350768" />
	</node>
	<node id="-925688" lat="64.9325000015" lon="10.9949138807">
		<tag k="name" v="Røssdalen" />
		<tag k="natural" v="valley" />
		<tag k="place" v="locality" />
		<tag k="ssr:stedsnr" v="472545" />
	</node>
	<node id="-925175" lat="64.8810722197" lon="10.9113916565">
		<tag k="name" v="Vardhaugen" />
		<tag k="natural" v="hill" />
		<tag k="place" v="locality" />
		<tag k="ssr:stedsnr" v="472851" />
	</node>
	<node id="-925173" lat="64.8681444475" lon="11.0825611079">
		<tag k="name" v="Kjørskardet" />
		<tag k="natural" v="valley" />
		<tag k="place" v="locality" />
		<tag k="ssr:stedsnr" v="593856" />
	</node>
	<node id="-925172" lat="64.9671777767" lon="11.0656638794">
		<tag k="fixme" v="consider natural=peak for the most distinct mountains in the district" />
		<tag k="name" v="Skivåsen" />
		<tag k="natural" v="hill" />
		<tag k="place" v="locality" />
		<tag k="ssr:stedsnr" v="75575" />
	</node>
	<node id="-926195" lat="64.8620027734" lon="11.0897972154">
		<tag k="name" v="Lonskogen" />
		<tag k="natural" v="slope" />
		<tag k="place" v="locality" />
		<tag k="ssr:stedsnr" v="350866" />
	</node>
	<node id="-926194" lat="64.9477499968" lon="10.994286121">
		<tag k="name" v="Ringen" />
		<tag k="place" v="locality" />
		<tag k="ssr:stedsnr" v="48629" />
	</node>
	<node id="-926291" lat="64.9625138925" lon="11.0438222237">
		<tag k="name" v="Brattfjellet" />
		<tag k="natural" v="hill" />
		<tag k="place" v="locality" />
		<tag k="ssr:stedsnr" v="48653" />
	</node>
	<node id="-926120" lat="64.8804277754" lon="11.0734416666">
		<tag k="name" v="Hovøykrona" />
		<tag k="natural" v="hill" />
		<tag k="place" v="locality" />
		<tag k="ssr:stedsnr" v="836583" />
	</node>
	<node id="-927229" lat="64.8857194407" lon="10.9558555495">
		<tag k="name" v="Hærvollen" />
		<tag k="place" v="locality" />
		<tag k="ssr:stedsnr" v="592917" />
	</node>
	<node id="-925675" lat="64.9214583308" lon="10.9898777771">
		<tag k="name" v="Nord-Harralia" />
		<tag k="natural" v="slope" />
		<tag k="place" v="locality" />
		<tag k="ssr:stedsnr" v="472548" />
	</node>
	<node id="-927721" lat="64.8419861135" lon="11.1580555487">
		<tag k="name" v="Sammarfjøshaugen" />
		<tag k="natural" v="hill" />
		<tag k="place" v="locality" />
		<tag k="ssr:stedsnr" v="817483" />
	</node>
	<node id="-926696" lat="64.9774166689" lon="11.1061638979">
		<tag k="name" v="Borgonhammaren" />
		<tag k="natural" v="hill" />
		<tag k="place" v="locality" />
		<tag k="ssr:stedsnr" v="230644" />
	</node>
	<node id="-926460" lat="64.8899972235" lon="11.0164611117">
		<tag k="name" v="Brenthaugen" />
		<tag k="natural" v="hill" />
		<tag k="place" v="locality" />
		<tag k="ssr:stedsnr" v="897569" />
	</node>
	<node id="-926033" lat="64.9002722239" lon="10.9690250014">
		<tag k="fixme" v="consider natural=peak for the most distinct mountains in the district" />
		<tag k="name" v="Storfjellet" />
		<tag k="natural" v="hill" />
		<tag k="place" v="locality" />
		<tag k="ssr:stedsnr" v="15918" />
	</node>
	<node id="-925668" lat="64.9425805543" lon="10.9511722209">
		<tag k="fixme" v="consider natural=peak for the most distinct mountains in the district" />
		<tag k="name" v="Middagsfjellet" />
		<tag k="natural" v="hill" />
		<tag k="place" v="locality" />
		<tag k="ssr:stedsnr" v="681527" />
	</node>
	<node id="-925666" lat="64.879241666" lon="11.2251416624">
		<tag k="alt_name" v="Stor-Falkhetto" />
		<tag k="name" v="Falkhetta" />
		<tag k="natural" v="hill" />
		<tag k="place" v="locality" />
		<tag k="ssr:stedsnr" v="75083" />
	</node>
	<node id="-927483" lat="64.8684055528" lon="11.1074555483">
		<tag k="fixme" v="consider natural=peak for the most distinct mountains in the district" />
		<tag k="name" v="Midterfjellet" />
		<tag k="natural" v="hill" />
		<tag k="place" v="locality" />
		<tag k="ssr:stedsnr" v="654584" />
	</node>
	<node id="-927200" lat="64.89537222" lon="10.8789527833">
		<tag k="name" v="Gammelmannskleiva" />
		<tag k="natural" v="slope" />
		<tag k="place" v="locality" />
		<tag k="ssr:stedsnr" v="108819" />
	</node>
	<node id="-925151" lat="64.9384722229" lon="11.322980565">
		<tag k="name" v="Torvhaugholet" />
		<tag k="natural" v="valley" />
		<tag k="place" v="locality" />
		<tag k="ssr:stedsnr" v="412291" />
	</node>
	<node id="-927001" lat="64.8639472218" lon="11.1040194439">
		<tag k="name" v="Evenstadådalen" />
		<tag k="natural" v="valley" />
		<tag k="place" v="locality" />
		<tag k="ssr:stedsnr" v="715594" />
	</node>
	<node id="-925661" lat="64.9204583327" lon="11.2877694375">
		<tag k="name" v="Sagstøhaugen" />
		<tag k="natural" v="hill" />
		<tag k="place" v="locality" />
		<tag k="ssr:stedsnr" v="742005" />
	</node>
	<node id="-925148" lat="64.8824111098" lon="10.9326527744">
		<tag k="name" v="Krontoppen" />
		<tag k="natural" v="hill" />
		<tag k="place" v="locality" />
		<tag k="ssr:stedsnr" v="379855" />
	</node>
	<node id="-926683" lat="64.9825111086" lon="10.7969527876">
		<tag k="name" v="Bøsseløytinden" />
		<tag k="natural" v="hill" />
		<tag k="place" v="locality" />
		<tag k="ssr:stedsnr" v="864748" />
	</node>
	<node id="-926170" lat="64.9840388866" lon="10.7949833357">
		<tag k="name" v="Fagertinden" />
		<tag k="natural" v="hill" />
		<tag k="place" v="locality" />
		<tag k="ssr:stedsnr" v="87673" />
	</node>
	<node id="-927306" lat="64.9733666637" lon="10.7237083242">
		<tag k="name" v="Skolsøyryggen" />
		<tag k="natural" v="hill" />
		<tag k="place" v="locality" />
		<tag k="ssr:stedsnr" v="389693" />
	</node>
	<node id="-927703" lat="64.8799611118" lon="10.8339583231">
		<tag k="fixme" v="consider natural=peak for the most distinct mountains in the district" />
		<tag k="name" v="Revafjella" />
		<tag k="natural" v="hill" />
		<tag k="place" v="locality" />
		<tag k="ssr:stedsnr" v="197891" />
	</node>
	<node id="-927187" lat="64.9371944468" lon="11.342308331">
		<tag k="fixme" v="consider natural=peak for the most distinct mountains in the district" />
		<tag k="name" v="Lisselvåsen" />
		<tag k="natural" v="hill" />
		<tag k="place" v="locality" />
		<tag k="ssr:stedsnr" v="560242" />
	</node>
	<node id="-926674" lat="64.8411722247" lon="10.8446694542">
		<tag k="fixme" v="multiple name tags, choose one and add the other to alt_name" />
		<tag k="name" v="Grønnlitinden;Bergsnova" />
		<tag k="natural" v="hill" />
		<tag k="place" v="locality" />
		<tag k="ssr:stedsnr" v="440777" />
	</node>
	<node id="-927050" lat="64.928599996" lon="10.9434694367">
		<tag k="fixme" v="consider natural=peak for the most distinct mountains in the district" />
		<tag k="name" v="Vattafjellet" />
		<tag k="natural" v="hill" />
		<tag k="place" v="locality" />
		<tag k="ssr:stedsnr" v="560517" />
	</node>
	<node id="-925648" lat="64.8554250037" lon="11.1717250008">
		<tag k="fixme" v="multiple name tags, choose one and add the other to alt_name" />
		<tag k="name" v="Klumpen;Valbuklompen" />
		<tag k="natural" v="hill" />
		<tag k="place" v="locality" />
		<tag k="ssr:stedsnr" v="500960" />
	</node>
	<node id="-927224" lat="64.8707694458" lon="11.180694435">
		<tag k="alt_name" v="Ryemslia" />
		<tag k="name" v="Lia" />
		<tag k="natural" v="slope" />
		<tag k="place" v="locality" />
		<tag k="ssr:stedsnr" v="439993" />
	</node>
	<node id="-926670" lat="64.9715638846" lon="10.9049805651">
		<tag k="name" v="Brastaskardet" />
		<tag k="natural" v="valley" />
		<tag k="place" v="locality" />
		<tag k="ssr:stedsnr" v="532953" />
	</node>
	<node id="-925645" lat="64.8696833348" lon="11.1423444516">
		<tag k="name" v="Skardhaugen" />
		<tag k="natural" v="hill" />
		<tag k="place" v="locality" />
		<tag k="ssr:stedsnr" v="756452" />
	</node>
	<node id="-925132" lat="64.8547388865" lon="11.0624805646">
		<tag k="name" v="Jakopvika" />
		<tag k="place" v="locality" />
		<tag k="ssr:stedsnr" v="593862" />
	</node>
	<node id="-926154" lat="64.9204277795" lon="10.9748999972">
		<tag k="fixme" v="consider natural=peak for the most distinct mountains in the district" />
		<tag k="name" v="Henneskardfjellet" />
		<tag k="natural" v="hill" />
		<tag k="place" v="locality" />
		<tag k="ssr:stedsnr" v="135586" />
	</node>
	<node id="-926663" lat="64.8827388891" lon="10.9627749911">
		<tag k="name" v="Revsulo" />
		<tag k="place" v="locality" />
		<tag k="ssr:stedsnr" v="229876" />
	</node>
	<node id="-927685" lat="64.9701944446" lon="10.8981999992">
		<tag k="name" v="Trollskardstindan" />
		<tag k="natural" v="hill" />
		<tag k="place" v="locality" />
		<tag k="ssr:stedsnr" v="925736" />
	</node>
	<node id="-926148" lat="64.9059388852" lon="11.1819694402">
		<tag k="name" v="Urdafjellet" />
		<tag k="natural" v="hill" />
		<tag k="place" v="locality" />
		<tag k="ssr:stedsnr" v="533255" />
	</node>
	<node id="-927171" lat="64.8666805526" lon="11.2255527699">
		<tag k="name" v="Skjuraberget" />
		<tag k="natural" v="hill" />
		<tag k="place" v="locality" />
		<tag k="ssr:stedsnr" v="148411" />
	</node>
	<node id="-926658" lat="64.8678388865" lon="10.893863884">
		<tag k="fixme" v="consider natural=peak for the most distinct mountains in the district" />
		<tag k="name" v="Dyrfjellet" />
		<tag k="natural" v="hill" />
		<tag k="place" v="locality" />
		<tag k="ssr:stedsnr" v="196981" />
	</node>
	<node id="-927678" lat="64.9381749957" lon="11.1426777747">
		<tag k="fixme" v="consider natural=peak for the most distinct mountains in the district" />
		<tag k="name" v="Varpafjellet" />
		<tag k="natural" v="hill" />
		<tag k="place" v="locality" />
		<tag k="ssr:stedsnr" v="135478" />
	</node>
	<node id="-926197" lat="64.8924749975" lon="11.2886833434">
		<tag k="name" v="Skarvberget" />
		<tag k="natural" v="hill" />
		<tag k="place" v="locality" />
		<tag k="ssr:stedsnr" v="257067" />
	</node>
	<node id="-927676" lat="64.8899916666" lon="11.13788333">
		<tag k="fixme" v="consider natural=peak for the most distinct mountains in the district" />
		<tag k="name" v="Hallfjellet" />
		<tag k="natural" v="hill" />
		<tag k="place" v="locality" />
		<tag k="ssr:stedsnr" v="440873" />
	</node>
	<node id="-925258" lat="64.8956527745" lon="10.8774555493">
		<tag k="name" v="Gammelmannsfjellet" />
		<tag k="natural" v="hill" />
		<tag k="place" v="locality" />
		<tag k="ssr:stedsnr" v="897801" />
	</node>
	<node id="-925626" lat="64.8879805577" lon="10.8618194434">
		<tag k="name" v="Hagaskardet" />
		<tag k="natural" v="valley" />
		<tag k="place" v="locality" />
		<tag k="ssr:stedsnr" v="864927" />
	</node>
	<node id="-925625" lat="64.9038750041" lon="11.0318333231">
		<tag k="fixme" v="consider natural=peak for the most distinct mountains in the district" />
		<tag k="name" v="Vannhagafjellet" />
		<tag k="natural" v="hill" />
		<tag k="place" v="locality" />
		<tag k="ssr:stedsnr" v="682623" />
	</node>
	<node id="-926136" lat="64.8856611087" lon="10.9671722324">
		<tag k="fixme" v="consider natural=peak for the most distinct mountains in the district" />
		<tag k="name" v="Kveldhagafjellet" />
		<tag k="natural" v="hill" />
		<tag k="place" v="locality" />
		<tag k="ssr:stedsnr" v="136926" />
	</node>
	<node id="-926647" lat="64.8969638925" lon="11.0210833297">
		<tag k="name" v="Kleppen" />
		<tag k="natural" v="hill" />
		<tag k="place" v="locality" />
		<tag k="ssr:stedsnr" v="378919" />
	</node>
	<node id="-926133" lat="64.9115944453" lon="10.9619749913">
		<tag k="name" v="Middagshaugen" />
		<tag k="natural" v="hill" />
		<tag k="place" v="locality" />
		<tag k="ssr:stedsnr" v="775813" />
	</node>
	<node id="-926280" lat="64.9638611096" lon="11.0376138917">
		<tag k="name" v="Tjønnfjellet" />
		<tag k="natural" v="hill" />
		<tag k="place" v="locality" />
		<tag k="ssr:stedsnr" v="593629" />
	</node>
	<node id="-925101" lat="64.8765749961" lon="11.1117499991">
		<tag k="fixme" v="consider natural=peak for the most distinct mountains in the district" />
		<tag k="name" v="Ofstadkeipen" />
		<tag k="natural" v="hill" />
		<tag k="place" v="locality" />
		<tag k="ssr:stedsnr" v="197908" />
	</node>
	<node id="-925100" lat="64.9244166628" lon="11.1122333277">
		<tag k="name" v="Gresslifjellet" />
		<tag k="natural" v="hill" />
		<tag k="place" v="locality" />
		<tag k="ssr:stedsnr" v="715740" />
	</node>
	<node id="-925611" lat="64.9649861149" lon="10.8838916619">
		<tag k="name" v="Engesvikskardet" />
		<tag k="natural" v="valley" />
		<tag k="place" v="locality" />
		<tag k="ssr:stedsnr" v="836952" />
	</node>
	<node id="-926121" lat="64.9024083362" lon="11.1687722245">
		<tag k="name" v="Bjørklia" />
		<tag k="natural" v="slope" />
		<tag k="place" v="locality" />
		<tag k="ssr:stedsnr" v="533257" />
	</node>
	<node id="-925096" lat="64.9211444454" lon="11.0839694437">
		<tag k="name" v="Kalvdalen" />
		<tag k="natural" v="valley" />
		<tag k="place" v="locality" />
		<tag k="ssr:stedsnr" v="48476" />
	</node>
	<node id="-925607" lat="64.8847916681" lon="11.114741677">
		<tag k="name" v="Kvennastuo" />
		<tag k="place" v="locality" />
		<tag k="ssr:stedsnr" v="108614" />
	</node>
	<node id="-925804" lat="65.0234138852" lon="11.0564055596">
		<tag k="name" v="Leikås" />
		<tag k="natural" v="hill" />
		<tag k="place" v="locality" />
		<tag k="ssr:stedsnr" v="267702" />
	</node>
	<node id="-926627" lat="64.9291027794" lon="11.1095361193">
		<tag k="fixme" v="multiple name tags, choose one and add the other to alt_name; consider natural=peak for the most distinct mountains in the district" />
		<tag k="name" v="Dragstinden;Vattin" />
		<tag k="natural" v="hill" />
		<tag k="place" v="locality" />
		<tag k="ssr:stedsnr" v="378647" />
	</node>
	<node id="-927646" lat="64.8640388897" lon="11.1860416577">
		<tag k="fixme" v="consider natural=peak for the most distinct mountains in the district" />
		<tag k="name" v="Merrafjellet" />
		<tag k="natural" v="hill" />
		<tag k="place" v="locality" />
		<tag k="ssr:stedsnr" v="135994" />
	</node>
	<node id="-927321" lat="64.8776083299" lon="11.1468166757">
		<tag k="name" v="Hatlbukta" />
		<tag k="natural" v="slope" />
		<tag k="place" v="locality" />
		<tag k="ssr:stedsnr" v="897259" />
	</node>
	<node id="-926618" lat="64.87070833" lon="11.2005166739">
		<tag k="fixme" v="consider natural=peak for the most distinct mountains in the district" />
		<tag k="name" v="Ytter Klavafjellet" />
		<tag k="natural" v="hill" />
		<tag k="place" v="locality" />
		<tag k="ssr:stedsnr" v="391534" />
	</node>
	<node id="-926105" lat="64.9411361122" lon="10.952530562">
		<tag k="name" v="Trongkleiva" />
		<tag k="natural" v="slope" />
		<tag k="place" v="locality" />
		<tag k="ssr:stedsnr" v="654773" />
	</node>
	<node id="-926276" lat="64.9444194445" lon="10.9960722238">
		<tag k="name" v="Kvennhushaugen" />
		<tag k="natural" v="hill" />
		<tag k="place" v="locality" />
		<tag k="ssr:stedsnr" v="593605" />
	</node>
	<node id="-927638" lat="64.8621499991" lon="11.0809416669">
		<tag k="name" v="Litlstudalsfjellet" />
		<tag k="natural" v="hill" />
		<tag k="place" v="locality" />
		<tag k="ssr:stedsnr" v="957883" />
	</node>
	<node id="-927124" lat="64.8689111155" lon="10.9118833331">
		<tag k="fixme" v="consider natural=peak for the most distinct mountains in the district" />
		<tag k="name" v="Valdskiftfjellet" />
		<tag k="natural" v="hill" />
		<tag k="place" v="locality" />
		<tag k="ssr:stedsnr" v="621979" />
	</node>
	<node id="-927634" lat="64.8820444404" lon="11.1672527877">
		<tag k="name" v="Skåkliklaven" />
		<tag k="natural" v="hill" />
		<tag k="place" v="locality" />
		<tag k="ssr:stedsnr" v="412235" />
	</node>
	<node id="-925584" lat="64.9117833325" lon="11.2963916593">
		<tag k="name" v="Frukostberget" />
		<tag k="natural" v="hill" />
		<tag k="place" v="locality" />
		<tag k="ssr:stedsnr" v="756457" />
	</node>
	<node id="-927630" lat="64.9760972182" lon="10.9101361137">
		<tag k="name" v="Vågskardfjellet" />
		<tag k="natural" v="hill" />
		<tag k="place" v="locality" />
		<tag k="ssr:stedsnr" v="592980" />
	</node>
	<node id="-925068" lat="64.8863722194" lon="11.2437472156">
		<tag k="name" v="Vaktskiftet" />
		<tag k="place" v="locality" />
		<tag k="ssr:stedsnr" v="148538" />
	</node>
	<node id="-925506" lat="65.0175777818" lon="11.1235249995">
		<tag k="fixme" v="consider natural=peak for the most distinct mountains in the district" />
		<tag k="name" v="Lauvdalsfjellet" />
		<tag k="natural" v="hill" />
		<tag k="place" v="locality" />
		<tag k="ssr:stedsnr" v="439577" />
	</node>
	<node id="-925577" lat="64.9250777778" lon="11.0955861196">
		<tag k="name" v="Dragskleiva" />
		<tag k="natural" v="slope" />
		<tag k="place" v="locality" />
		<tag k="ssr:stedsnr" v="837736" />
	</node>
	<node id="-927624" lat="64.9782361146" lon="10.9052777745">
		<tag k="name" v="Jostihaugan" />
		<tag k="natural" v="hill" />
		<tag k="place" v="locality" />
		<tag k="ssr:stedsnr" v="592981" />
	</node>
	<node id="-926598" lat="64.8424111141" lon="11.2256749977">
		<tag k="name" v="Setervollfjellet" />
		<tag k="natural" v="hill" />
		<tag k="place" v="locality" />
		<tag k="ssr:stedsnr" v="815995" />
	</node>
	<node id="-926082" lat="64.9264472216" lon="11.1038722154">
		<tag k="name" v="Skardet" />
		<tag k="natural" v="valley" />
		<tag k="place" v="locality" />
		<tag k="ssr:stedsnr" v="291738" />
	</node>
	<node id="-927105" lat="64.8397416686" lon="10.8616305586">
		<tag k="name" v="Innernova" />
		<tag k="natural" v="hill" />
		<tag k="place" v="locality" />
		<tag k="ssr:stedsnr" v="379762" />
	</node>
	<node id="-927616" lat="64.9691222245" lon="11.0646083277">
		<tag k="name" v="Laen" />
		<tag k="natural" v="hill" />
		<tag k="place" v="locality" />
		<tag k="ssr:stedsnr" v="412631" />
	</node>
	<node id="-927103" lat="64.9020777782" lon="10.9835388892">
		<tag k="name" v="Olderlikammen" />
		<tag k="natural" v="hill" />
		<tag k="place" v="locality" />
		<tag k="ssr:stedsnr" v="108807" />
	</node>
	<node id="-926073" lat="64.876086115" lon="11.1520888912">
		<tag k="name" v="Rundhaugen" />
		<tag k="natural" v="hill" />
		<tag k="place" v="locality" />
		<tag k="ssr:stedsnr" v="836221" />
	</node>
	<node id="-927606" lat="64.9135472264" lon="10.9412444388">
		<tag k="name" v="Fiskberget" />
		<tag k="natural" v="hill" />
		<tag k="place" v="locality" />
		<tag k="ssr:stedsnr" v="472796" />
	</node>
	<node id="-926581" lat="64.8776083347" lon="11.2296777746">
		<tag k="name" v="Storoksrævo" />
		<tag k="natural" v="valley" />
		<tag k="place" v="locality" />
		<tag k="ssr:stedsnr" v="210512" />
	</node>
	<node id="-925556" lat="64.8404027796" lon="11.2050138796">
		<tag k="name" v="Tårnvikfjellet" />
		<tag k="natural" v="hill" />
		<tag k="place" v="locality" />
		<tag k="ssr:stedsnr" v="87996" />
	</node>
	<node id="-927091" lat="64.9734416666" lon="10.9161111078">
		<tag k="name" v="Laugaberget" />
		<tag k="natural" v="hill" />
		<tag k="place" v="locality" />
		<tag k="ssr:stedsnr" v="47963" />
	</node>
	<node id="-926065" lat="64.8788861102" lon="10.9109749997">
		<tag k="name" v="Olinefjellet" />
		<tag k="natural" v="hill" />
		<tag k="place" v="locality" />
		<tag k="ssr:stedsnr" v="775851" />
	</node>
	<node id="-926060" lat="64.9597861092" lon="11.0212694438">
		<tag k="name" v="Hasfjordtindan" />
		<tag k="natural" v="hill" />
		<tag k="place" v="locality" />
		<tag k="ssr:stedsnr" v="210042" />
	</node>
	<node id="-926610" lat="64.8328138866" lon="11.2065111117">
		<tag k="name" v="Haninghaugen" />
		<tag k="natural" v="hill" />
		<tag k="place" v="locality" />
		<tag k="ssr:stedsnr" v="269999" />
	</node>
	<node id="-926057" lat="64.8868638857" lon="11.1602194485">
		<tag k="name" v="Årlia" />
		<tag k="natural" v="slope" />
		<tag k="place" v="locality" />
		<tag k="ssr:stedsnr" v="533268" />
	</node>
	<node id="-926524" lat="64.8607527802" lon="11.0833500107">
		<tag k="name" v="Litlstudalen" />
		<tag k="natural" v="valley" />
		<tag k="place" v="locality" />
		<tag k="ssr:stedsnr" v="47887" />
	</node>
	<node id="-925542" lat="64.8717333309" lon="11.1039833347">
		<tag k="alt_name" v="Stufjellet" />
		<tag k="fixme" v="consider natural=peak for the most distinct mountains in the district" />
		<tag k="name" v="Måssavollaksla" />
		<tag k="natural" v="hill" />
		<tag k="place" v="locality" />
		<tag k="ssr:stedsnr" v="136352" />
	</node>
	<node id="-926233" lat="64.8800305581" lon="10.9466527856">
		<tag k="fixme" v="consider natural=peak for the most distinct mountains in the district" />
		<tag k="name" v="Husfjellet" />
		<tag k="natural" v="hill" />
		<tag k="place" v="locality" />
		<tag k="ssr:stedsnr" v="318913" />
	</node>
	<node id="-926051" lat="64.9657777746" lon="11.022372215">
		<tag k="name" v="Sklinnaplassen" />
		<tag k="place" v="locality" />
		<tag k="ssr:stedsnr" v="533666" />
	</node>
	<node id="-927585" lat="64.8585361142" lon="11.0962166662">
		<tag k="name" v="Revstrandhaugen" />
		<tag k="natural" v="hill" />
		<tag k="place" v="locality" />
		<tag k="ssr:stedsnr" v="925963" />
	</node>
	<node id="-925535" lat="64.8603833308" lon="11.0989055658">
		<tag k="name" v="Sjymyrskardet" />
		<tag k="natural" v="valley" />
		<tag k="place" v="locality" />
		<tag k="ssr:stedsnr" v="108599" />
	</node>
	<node id="-927581" lat="64.8449111122" lon="11.1908583288">
		<tag k="alt_name" v="Hatten;Ingvaldsteinen" />
		<tag k="name" v="Ingvaldstein" />
		<tag k="natural" v="hill" />
		<tag k="place" v="locality" />
		<tag k="ssr:stedsnr" v="136800" />
	</node>
	<node id="-925531" lat="64.9145472198" lon="11.199866677">
		<tag k="name" v="Grovfjellet" />
		<tag k="natural" v="hill" />
		<tag k="place" v="locality" />
		<tag k="ssr:stedsnr" v="654311" />
	</node>
	<node id="-926041" lat="64.8605138894" lon="11.2023027686">
		<tag k="name" v="Svahylla" />
		<tag k="natural" v="valley" />
		<tag k="place" v="locality" />
		<tag k="ssr:stedsnr" v="210454" />
	</node>
	<node id="-926040" lat="64.9535111147" lon="11.054105566">
		<tag k="name" v="Naustvikbakken" />
		<tag k="natural" v="slope" />
		<tag k="place" v="locality" />
		<tag k="ssr:stedsnr" v="351646" />
	</node>
	<node id="-925527" lat="64.8879749959" lon="10.9577944362">
		<tag k="fixme" v="consider natural=peak for the most distinct mountains in the district" />
		<tag k="name" v="Markusfjellet" />
		<tag k="natural" v="hill" />
		<tag k="place" v="locality" />
		<tag k="ssr:stedsnr" v="500938" />
	</node>
	<node id="-926038" lat="64.9500694403" lon="11.0005749998">
		<tag k="name" v="Risvikbakken" />
		<tag k="natural" v="slope" />
		<tag k="place" v="locality" />
		<tag k="ssr:stedsnr" v="776637" />
	</node>
	<node id="-925525" lat="64.9064666692" lon="11.0478888891">
		<tag k="fixme" v="consider natural=peak for the most distinct mountains in the district" />
		<tag k="name" v="Stufjellet" />
		<tag k="natural" v="hill" />
		<tag k="place" v="locality" />
		<tag k="ssr:stedsnr" v="75604" />
	</node>
	<node id="-926756" lat="64.8506666649" lon="11.1611527733">
		<tag k="alt_name" v="Stongfjellet" />
		<tag k="fixme" v="consider natural=peak for the most distinct mountains in the district" />
		<tag k="name" v="Stangfjellet" />
		<tag k="natural" v="hill" />
		<tag k="place" v="locality" />
		<tag k="ssr:stedsnr" v="15963" />
	</node>
	<node id="-927057" lat="64.8643083323" lon="10.7838416595">
		<tag k="fixme" v="consider natural=peak for the most distinct mountains in the district" />
		<tag k="name" v="Håven" />
		<tag k="natural" v="hill" />
		<tag k="place" v="locality" />
		<tag k="ssr:stedsnr" v="196999" />
	</node>
	<node id="-926029" lat="64.883997226" lon="10.9499944544">
		<tag k="name" v="Ogndalen" />
		<tag k="natural" v="valley" />
		<tag k="place" v="locality" />
		<tag k="ssr:stedsnr" v="350853" />
	</node>
	<node id="-927052" lat="64.8700500021" lon="10.7566222181">
		<tag k="name" v="Flåfjellet" />
		<tag k="natural" v="hill" />
		<tag k="place" v="locality" />
		<tag k="ssr:stedsnr" v="715169" />
	</node>
	<node id="-927714" lat="64.8375166681" lon="11.1467333434">
		<tag k="name" v="Vikahaugen" />
		<tag k="natural" v="hill" />
		<tag k="place" v="locality" />
		<tag k="ssr:stedsnr" v="817482" />
	</node>
	<node id="-927562" lat="64.9240888862" lon="10.9737749922">
		<tag k="name" v="Høglia" />
		<tag k="natural" v="slope" />
		<tag k="place" v="locality" />
		<tag k="ssr:stedsnr" v="472781" />
	</node>
	<node id="-926025" lat="64.9298027775" lon="11.1391305575">
		<tag k="name" v="Sørtinden" />
		<tag k="natural" v="hill" />
		<tag k="place" v="locality" />
		<tag k="ssr:stedsnr" v="742587" />
	</node>
	<node id="-927063" lat="64.8655333359" lon="11.2485861173">
		<tag k="name" v="Fossåhaugen" />
		<tag k="natural" v="hill" />
		<tag k="place" v="locality" />
		<tag k="ssr:stedsnr" v="877442" />
	</node>
	<node id="-925580" lat="64.921586114" lon="10.9329194346">
		<tag k="name" v="Typperhaugen" />
		<tag k="natural" v="hill" />
		<tag k="place" v="locality" />
		<tag k="ssr:stedsnr" v="715811" />
	</node>
	<node id="-927557" lat="64.9066138905" lon="11.1557000079">
		<tag k="name" v="Løddingskleppen" />
		<tag k="natural" v="hill" />
		<tag k="place" v="locality" />
		<tag k="ssr:stedsnr" v="756704" />
	</node>
	<node id="-926532" lat="64.9373166668" lon="10.9629027788">
		<tag k="name" v="Bålhaugen" />
		<tag k="natural" v="hill" />
		<tag k="place" v="locality" />
		<tag k="ssr:stedsnr" v="351675" />
	</node>
	<node id="-925507" lat="64.9248944485" lon="11.0400527706">
		<tag k="name" v="Osplia" />
		<tag k="natural" v="slope" />
		<tag k="place" v="locality" />
		<tag k="ssr:stedsnr" v="108581" />
	</node>
	<node id="-926530" lat="64.8277138875" lon="11.2193361213">
		<tag k="name" v="Manøverdalen" />
		<tag k="natural" v="valley" />
		<tag k="place" v="locality" />
		<tag k="ssr:stedsnr" v="876975" />
	</node>
	<node id="-927553" lat="64.9087666678" lon="11.2799249933">
		<tag k="name" v="Skomakaren" />
		<tag k="place" v="locality" />
		<tag k="ssr:stedsnr" v="148467" />
	</node>
	<node id="-926176" lat="64.8599694407" lon="11.1637888824">
		<tag k="fixme" v="consider natural=peak for the most distinct mountains in the district" />
		<tag k="name" v="Lundsfjellet" />
		<tag k="natural" v="hill" />
		<tag k="place" v="locality" />
		<tag k="ssr:stedsnr" v="210457" />
	</node>
	<node id="-927548" lat="64.9694277815" lon="11.107616657">
		<tag k="name" v="Risskardet" />
		<tag k="natural" v="valley" />
		<tag k="place" v="locality" />
		<tag k="ssr:stedsnr" v="653342" />
	</node>
	<node id="-927370" lat="64.9124555541" lon="11.1497333332">
		<tag k="name" v="Skjelåsen" />
		<tag k="natural" v="hill" />
		<tag k="place" v="locality" />
		<tag k="ssr:stedsnr" v="109242" />
	</node>
	<node id="-927034" lat="64.9751555577" lon="10.901911103">
		<tag k="name" v="Nord Salbutinden" />
		<tag k="natural" v="hill" />
		<tag k="place" v="locality" />
		<tag k="ssr:stedsnr" v="107978" />
	</node>
	<node id="-926520" lat="64.9168888877" lon="10.9587777758">
		<tag k="fixme" v="consider natural=peak for the most distinct mountains in the district" />
		<tag k="name" v="Belsengfjellet" />
		<tag k="natural" v="hill" />
		<tag k="place" v="locality" />
		<tag k="ssr:stedsnr" v="257634" />
	</node>
	<node id="-927031" lat="64.9283250022" lon="11.084533332">
		<tag k="name" v="Stutinden" />
		<tag k="natural" v="hill" />
		<tag k="place" v="locality" />
		<tag k="ssr:stedsnr" v="230689" />
	</node>
	<node id="-927541" lat="64.8820888927" lon="11.1911166608">
		<tag k="name" v="Trollhaugen" />
		<tag k="natural" v="hill" />
		<tag k="place" v="locality" />
		<tag k="ssr:stedsnr" v="877525" />
	</node>
	<node id="-926805" lat="64.9684277813" lon="10.8944361108">
		<tag k="name" v="Valøyskardet" />
		<tag k="natural" v="valley" />
		<tag k="place" v="locality" />
		<tag k="ssr:stedsnr" v="592974" />
	</node>
	<node id="-926514" lat="64.8965666696" lon="11.0472416631">
		<tag k="name" v="Bjørøyfjell" />
		<tag k="natural" v="hill" />
		<tag k="place" v="locality" />
		<tag k="ssr:stedsnr" v="695684" />
	</node>
	<node id="-927025" lat="64.9676888901" lon="10.8987083295">
		<tag k="name" v="Kleiva" />
		<tag k="natural" v="slope" />
		<tag k="place" v="locality" />
		<tag k="ssr:stedsnr" v="47954" />
	</node>
	<node id="-926124" lat="64.9303361072" lon="10.970494451">
		<tag k="name" v="Brattlia" />
		<tag k="natural" v="slope" />
		<tag k="place" v="locality" />
		<tag k="ssr:stedsnr" v="775808" />
	</node>
	<node id="-926088" lat="64.927222224" lon="11.334008331">
		<tag k="name" v="Kvernhusdalen" />
		<tag k="natural" v="valley" />
		<tag k="place" v="locality" />
		<tag k="ssr:stedsnr" v="331455" />
	</node>
	<node id="-925486" lat="64.926200004" lon="11.2016388791">
		<tag k="fixme" v="consider natural=peak for the most distinct mountains in the district" />
		<tag k="name" v="Vikestadåsen" />
		<tag k="natural" v="hill" />
		<tag k="place" v="locality" />
		<tag k="ssr:stedsnr" v="500678" />
	</node>
	<node id="-927453" lat="64.914727781" lon="10.9300555467">
		<tag k="name" v="Branthaugen" />
		<tag k="natural" v="hill" />
		<tag k="place" v="locality" />
		<tag k="ssr:stedsnr" v="533819" />
	</node>
	<node id="-927019" lat="64.8987805585" lon="10.8472888958">
		<tag k="name" v="Nonhaugen" />
		<tag k="natural" v="hill" />
		<tag k="place" v="locality" />
		<tag k="ssr:stedsnr" v="257945" />
	</node>
	<node id="-927530" lat="64.9743277809" lon="11.0880083347">
		<tag k="name" v="Juva" />
		<tag k="natural" v="hill" />
		<tag k="place" v="locality" />
		<tag k="ssr:stedsnr" v="14661" />
	</node>
	<node id="-927529" lat="64.9269138916" lon="10.9733388961">
		<tag k="name" v="Lonhaugen" />
		<tag k="natural" v="hill" />
		<tag k="place" v="locality" />
		<tag k="ssr:stedsnr" v="472782" />
	</node>
	<node id="-926178" lat="64.9418472232" lon="11.1895444523">
		<tag k="name" v="Kråkhammaren" />
		<tag k="natural" v="hill" />
		<tag k="place" v="locality" />
		<tag k="ssr:stedsnr" v="169283" />
	</node>
	<node id="-927525" lat="64.9304444474" lon="11.1790277861">
		<tag k="name" v="Barvika" />
		<tag k="place" v="locality" />
		<tag k="ssr:stedsnr" v="897290" />
	</node>
	<node id="-927008" lat="64.9304249973" lon="11.0056555626">
		<tag k="name" v="Tverrfjellet" />
		<tag k="natural" v="hill" />
		<tag k="place" v="locality" />
		<tag k="ssr:stedsnr" v="958582" />
	</node>
	<node id="-927519" lat="64.9121694442" lon="10.950550008">
		<tag k="name" v="Djupdalen" />
		<tag k="natural" v="valley" />
		<tag k="place" v="locality" />
		<tag k="ssr:stedsnr" v="593762" />
	</node>
	<node id="-925470" lat="64.8688138871" lon="11.1167222189">
		<tag k="name" v="Ådalstinden" />
		<tag k="natural" v="hill" />
		<tag k="place" v="locality" />
		<tag k="ssr:stedsnr" v="108595" />
	</node>
	<node id="-927514" lat="64.8621027736" lon="10.8579444391">
		<tag k="name" v="Tørrvikhatten" />
		<tag k="natural" v="hill" />
		<tag k="place" v="locality" />
		<tag k="ssr:stedsnr" v="378990" />
	</node>
	<node id="-925487" lat="64.8628249988" lon="11.1663222213">
		<tag k="name" v="Innerholet" />
		<tag k="natural" v="valley" />
		<tag k="place" v="locality" />
		<tag k="ssr:stedsnr" v="634486" />
	</node>
	<node id="-925463" lat="64.9208666645" lon="11.1079972144">
		<tag k="name" v="Sandholfjellet" />
		<tag k="natural" v="hill" />
		<tag k="place" v="locality" />
		<tag k="ssr:stedsnr" v="958761" />
	</node>
	<node id="-926997" lat="64.8588027777" lon="10.8004861208">
		<tag k="alt_name" v="Kverndalen" />
		<tag k="name" v="Kvenndalen" />
		<tag k="natural" v="valley" />
		<tag k="place" v="locality" />
		<tag k="ssr:stedsnr" v="196995" />
	</node>
	<node id="-925459" lat="64.9189361079" lon="10.9755444366">
		<tag k="name" v="Henneskardet" />
		<tag k="natural" v="valley" />
		<tag k="place" v="locality" />
		<tag k="ssr:stedsnr" v="168788" />
	</node>
	<node id="-926994" lat="64.9281611088" lon="10.9939611121">
		<tag k="name" v="Maurveien" />
		<tag k="natural" v="slope" />
		<tag k="place" v="locality" />
		<tag k="ssr:stedsnr" v="958584" />
	</node>
	<node id="-926851" lat="64.910208333" lon="11.1787249941">
		<tag k="name" v="Borgonfjellet" />
		<tag k="natural" v="hill" />
		<tag k="place" v="locality" />
		<tag k="ssr:stedsnr" v="715273" />
	</node>
	<node id="-926988" lat="64.9713333338" lon="10.9025638886">
		<tag k="name" v="Buskardet" />
		<tag k="natural" v="valley" />
		<tag k="place" v="locality" />
		<tag k="ssr:stedsnr" v="107970" />
	</node>
	<node id="-926549" lat="64.9265333304" lon="11.0712749976">
		<tag k="fixme" v="consider natural=peak for the most distinct mountains in the district" />
		<tag k="name" v="Sørtinden" />
		<tag k="natural" v="hill" />
		<tag k="place" v="locality" />
		<tag k="ssr:stedsnr" v="378632" />
	</node>
	<node id="-925962" lat="64.8520638917" lon="11.1034499961">
		<tag k="alt_name" v="Hamranfjellet" />
		<tag k="name" v="Hamrafjellet" />
		<tag k="natural" v="hill" />
		<tag k="place" v="locality" />
		<tag k="ssr:stedsnr" v="593550" />
	</node>
	<node id="-925963" lat="64.8953305535" lon="10.9877222116">
		<tag k="alt_name" v="Bustafjellet" />
		<tag k="fixme" v="consider natural=peak for the most distinct mountains in the district" />
		<tag k="name" v="Bustadfjellet" />
		<tag k="natural" v="hill" />
		<tag k="place" v="locality" />
		<tag k="ssr:stedsnr" v="136913" />
	</node>
	<node id="-927112" lat="64.9282333307" lon="11.0929249973">
		<tag k="fixme" v="consider natural=peak for the most distinct mountains in the district" />
		<tag k="name" v="Stortinden" />
		<tag k="natural" v="hill" />
		<tag k="place" v="locality" />
		<tag k="ssr:stedsnr" v="472720" />
	</node>
	<node id="-927788" lat="64.8641555529" lon="10.8877583339">
		<tag k="name" v="Rundhaugen" />
		<tag k="natural" v="hill" />
		<tag k="place" v="locality" />
		<tag k="ssr:stedsnr" v="925997" />
	</node>
	<node id="-927361" lat="64.8695166632" lon="11.1176138871">
		<tag k="fixme" v="consider natural=peak for the most distinct mountains in the district" />
		<tag k="name" v="Evenstadfjellet" />
		<tag k="natural" v="hill" />
		<tag k="place" v="locality" />
		<tag k="ssr:stedsnr" v="439994" />
	</node>
	<node id="-926467" lat="64.9605861091" lon="11.0466583227">
		<tag k="name" v="Litl-Hasfjord" />
		<tag k="natural" v="hill" />
		<tag k="place" v="locality" />
		<tag k="ssr:stedsnr" v="290624" />
	</node>
	<node id="-927104" lat="64.8711055536" lon="10.7690694506">
		<tag k="name" v="Stongberget" />
		<tag k="natural" v="hill" />
		<tag k="place" v="locality" />
		<tag k="ssr:stedsnr" v="715174" />
	</node>
	<node id="-927485" lat="64.9188250023" lon="10.9717833293">
		<tag k="name" v="Hevlan" />
		<tag k="natural" v="hill" />
		<tag k="place" v="locality" />
		<tag k="ssr:stedsnr" v="290755" />
	</node>
	<node id="-927484" lat="64.8777055554" lon="10.9574111173">
		<tag k="name" v="Klehaugen" />
		<tag k="natural" v="hill" />
		<tag k="place" v="locality" />
		<tag k="ssr:stedsnr" v="896883" />
	</node>
	<node id="-926459" lat="64.8825250029" lon="10.8770083375">
		<tag k="name" v="Ormsletta" />
		<tag k="place" v="locality" />
		<tag k="ssr:stedsnr" v="257911" />
	</node>
	<node id="-926970" lat="64.89946389" lon="10.8124750063">
		<tag k="name" v="Ingridskardet" />
		<tag k="natural" v="valley" />
		<tag k="place" v="locality" />
		<tag k="ssr:stedsnr" v="532134" />
	</node>
	<node id="-926457" lat="64.9792583304" lon="10.8373722213">
		<tag k="name" v="Kalvøyskardsfjellan" />
		<tag k="natural" v="hill" />
		<tag k="place" v="locality" />
		<tag k="ssr:stedsnr" v="500771" />
	</node>
	<node id="-926966" lat="64.9331749999" lon="11.0126000004">
		<tag k="name" v="Ramstadrøssdalen" />
		<tag k="natural" v="valley" />
		<tag k="place" v="locality" />
		<tag k="ssr:stedsnr" v="775548" />
	</node>
	<node id="-926965" lat="64.9731083339" lon="10.8816944393">
		<tag k="name" v="Buafjella" />
		<tag k="natural" v="hill" />
		<tag k="place" v="locality" />
		<tag k="ssr:stedsnr" v="350961" />
	</node>
	<node id="-926964" lat="64.8963499977" lon="10.9265138861">
		<tag k="alt_name" v="Nesshaugen" />
		<tag k="name" v="Neshaugen" />
		<tag k="natural" v="hill" />
		<tag k="place" v="locality" />
		<tag k="ssr:stedsnr" v="257942" />
	</node>
	<node id="-925939" lat="64.9099944469" lon="10.9850305577">
		<tag k="name" v="Storlia" />
		<tag k="natural" v="slope" />
		<tag k="place" v="locality" />
		<tag k="ssr:stedsnr" v="715825" />
	</node>
	<node id="-927474" lat="64.9175611078" lon="10.9605277823">
		<tag k="fixme" v="consider natural=peak for the most distinct mountains in the district" />
		<tag k="name" v="Storvarden" />
		<tag k="natural" v="hill" />
		<tag k="ssr:stedsnr" v="290753" />
	</node>
	<node id="-926419" lat="64.8965583315" lon="11.2358666656">
		<tag k="name" v="Hansvikmoen" />
		<tag k="place" v="locality" />
		<tag k="ssr:stedsnr" v="48282" />
	</node>
	<node id="-925424" lat="64.8935416633" lon="11.1197472195">
		<tag k="name" v="Litlekkertinden" />
		<tag k="natural" v="hill" />
		<tag k="place" v="locality" />
		<tag k="ssr:stedsnr" v="411540" />
	</node>
	<node id="-925933" lat="64.8879194474" lon="10.7621944362">
		<tag k="name" v="Hersihatten" />
		<tag k="natural" v="hill" />
		<tag k="place" v="locality" />
		<tag k="ssr:stedsnr" v="864934" />
	</node>
	<node id="-926956" lat="64.9727722265" lon="10.8914555455">
		<tag k="name" v="Ælemannsfjellet" />
		<tag k="natural" v="hill" />
		<tag k="place" v="locality" />
		<tag k="ssr:stedsnr" v="532965" />
	</node>
	<node id="-927221" lat="64.8548111151" lon="11.1168138983">
		<tag k="name" v="Trongkleiva" />
		<tag k="natural" v="slope" />
		<tag k="place" v="locality" />
		<tag k="ssr:stedsnr" v="715599" />
	</node>
	<node id="-925928" lat="64.8406638922" lon="11.111002773">
		<tag k="alt_name" v="Vardfjellet" />
		<tag k="fixme" v="consider natural=peak for the most distinct mountains in the district" />
		<tag k="name" v="Åkvikaksla" />
		<tag k="natural" v="hill" />
		<tag k="old_name" v="Åkvikakslen" />
		<tag k="place" v="locality" />
		<tag k="ssr:stedsnr" v="257853" />
	</node>
	<node id="-925927" lat="64.9028583347" lon="11.1925777794">
		<tag k="fixme" v="consider natural=peak for the most distinct mountains in the district" />
		<tag k="name" v="Middagsfjellet" />
		<tag k="natural" v="hill" />
		<tag k="place" v="locality" />
		<tag k="ssr:stedsnr" v="742546" />
	</node>
	<node id="-927462" lat="64.9184916683" lon="10.984269434">
		<tag k="name" v="Harralia" />
		<tag k="natural" v="slope" />
		<tag k="place" v="locality" />
		<tag k="ssr:stedsnr" v="290752" />
	</node>
	<node id="-925925" lat="64.90947778" lon="11.1943888891">
		<tag k="name" v="Smålikleivan" />
		<tag k="natural" v="slope" />
		<tag k="place" v="locality" />
		<tag k="ssr:stedsnr" v="291327" />
	</node>
	<node id="-925924" lat="64.8584277818" lon="11.0730694514">
		<tag k="name" v="Storstudalsfjellet" />
		<tag k="natural" v="hill" />
		<tag k="place" v="locality" />
		<tag k="ssr:stedsnr" v="897860" />
	</node>
	<node id="-925923" lat="64.8979833347" lon="11.1054944424">
		<tag k="name" v="Buvåghammaren" />
		<tag k="natural" v="hill" />
		<tag k="place" v="locality" />
		<tag k="ssr:stedsnr" v="957604" />
	</node>
	<node id="-925627" lat="64.7428277738" lon="10.7792222284">
		<tag k="name" v="Øksnhylla" />
		<tag k="place" v="locality" />
		<tag k="ssr:stedsnr" v="53484" />
	</node>
	<node id="-926343" lat="64.864758332" lon="11.1642249895">
		<tag k="name" v="Midtiholet" />
		<tag k="natural" v="valley" />
		<tag k="place" v="locality" />
		<tag k="ssr:stedsnr" v="513488" />
	</node>
	<node id="-926944" lat="64.8559833349" lon="11.1769222245">
		<tag k="fixme" v="consider natural=peak for the most distinct mountains in the district" />
		<tag k="name" v="Tverrfjellet" />
		<tag k="natural" v="hill" />
		<tag k="place" v="locality" />
		<tag k="ssr:stedsnr" v="877459" />
	</node>
	<node id="-927184" lat="64.9216638864" lon="10.8140749944">
		<tag k="alt_name" v="Hammarsnessfjellet" />
		<tag k="fixme" v="consider natural=peak for the most distinct mountains in the district" />
		<tag k="name" v="Hammarsnesfjellet" />
		<tag k="natural" v="hill" />
		<tag k="place" v="locality" />
		<tag k="ssr:stedsnr" v="925665" />
	</node>
	<node id="-926429" lat="64.9671611092" lon="11.038416676">
		<tag k="name" v="Skogli" />
		<tag k="natural" v="slope" />
		<tag k="place" v="locality" />
		<tag k="ssr:stedsnr" v="230632" />
	</node>
	<node id="-925915" lat="64.8974750044" lon="10.9078972198">
		<tag k="name" v="Litlenget" />
		<tag k="place" v="locality" />
		<tag k="ssr:stedsnr" v="168833" />
	</node>
	<node id="-926671" lat="64.8913000013" lon="10.8672694422">
		<tag k="fixme" v="consider natural=peak for the most distinct mountains in the district" />
		<tag k="name" v="Lauvfjellet" />
		<tag k="natural" v="hill" />
		<tag k="place" v="locality" />
		<tag k="ssr:stedsnr" v="621938" />
	</node>
	<node id="-925911" lat="64.8951138845" lon="10.915461111">
		<tag k="name" v="Osfjellet" />
		<tag k="natural" v="hill" />
		<tag k="place" v="locality" />
		<tag k="ssr:stedsnr" v="715841" />
	</node>
	<node id="-927446" lat="64.8772527745" lon="11.1644500075">
		<tag k="name" v="Ospholet" />
		<tag k="natural" v="valley" />
		<tag k="place" v="locality" />
		<tag k="ssr:stedsnr" v="897253" />
	</node>
	<node id="-926933" lat="64.8538083295" lon="11.2059499919">
		<tag k="name" v="Munken" />
		<tag k="natural" v="hill" />
		<tag k="place" v="locality" />
		<tag k="ssr:stedsnr" v="135925" />
	</node>
	<node id="-927443" lat="64.9736666675" lon="10.9084027708">
		<tag k="name" v="Stor-rakleppen" />
		<tag k="natural" v="hill" />
		<tag k="place" v="locality" />
		<tag k="ssr:stedsnr" v="229957" />
	</node>
	<node id="-925394" lat="64.9054999984" lon="11.2138083316">
		<tag k="name" v="Hansviktinden" />
		<tag k="natural" v="hill" />
		<tag k="place" v="locality" />
		<tag k="ssr:stedsnr" v="439575" />
	</node>
	<node id="-927440" lat="64.9154805572" lon="10.949522215">
		<tag k="name" v="Belsengtinden" />
		<tag k="natural" v="hill" />
		<tag k="place" v="locality" />
		<tag k="ssr:stedsnr" v="957817" />
	</node>
	<node id="-926415" lat="64.8553083342" lon="10.7893861213">
		<tag k="name" v="Kristendalen" />
		<tag k="natural" v="valley" />
		<tag k="place" v="locality" />
		<tag k="ssr:stedsnr" v="75955" />
	</node>
	<node id="-926119" lat="64.8623888909" lon="11.0864472267">
		<tag k="fixme" v="consider natural=peak for the most distinct mountains in the district" />
		<tag k="name" v="Lonfjellet" />
		<tag k="natural" v="hill" />
		<tag k="place" v="locality" />
		<tag k="ssr:stedsnr" v="560955" />
	</node>
	<node id="-927436" lat="64.8808111074" lon="11.2153277835">
		<tag k="alt_name" v="Litl-Falkhetto" />
		<tag k="name" v="Falkhetta" />
		<tag k="natural" v="hill" />
		<tag k="place" v="locality" />
		<tag k="ssr:stedsnr" v="449576" />
	</node>
	<node id="-926240" lat="64.8421166642" lon="11.2369944524">
		<tag k="name" v="Glåmen" />
		<tag k="natural" v="hill" />
		<tag k="place" v="locality" />
		<tag k="ssr:stedsnr" v="451998" />
	</node>
	<node id="-927431" lat="64.8622361127" lon="11.133877782">
		<tag k="name" v="Svean" />
		<tag k="place" v="locality" />
		<tag k="ssr:stedsnr" v="148454" />
	</node>
	<node id="-927429" lat="64.9102249986" lon="10.9491611055">
		<tag k="name" v="Grova" />
		<tag k="natural" v="valley" />
		<tag k="place" v="locality" />
		<tag k="ssr:stedsnr" v="533822" />
	</node>
	<node id="-925379" lat="64.9245138892" lon="10.9553055543">
		<tag k="name" v="Nygårdshaugen" />
		<tag k="natural" v="hill" />
		<tag k="place" v="locality" />
		<tag k="ssr:stedsnr" v="897786" />
	</node>
	<node id="-925378" lat="64.8801416636" lon="11.1677694338">
		<tag k="name" v="Skåklia" />
		<tag k="natural" v="slope" />
		<tag k="place" v="locality" />
		<tag k="ssr:stedsnr" v="594270" />
	</node>
	<node id="-927776" lat="64.8738083328" lon="11.155027788">
		<tag k="name" v="Festningshaugan" />
		<tag k="natural" v="hill" />
		<tag k="place" v="locality" />
		<tag k="ssr:stedsnr" v="47273" />
	</node>
	<node id="-927093" lat="64.8671388893" lon="11.1319277805">
		<tag k="name" v="Stongberget" />
		<tag k="natural" v="hill" />
		<tag k="place" v="locality" />
		<tag k="ssr:stedsnr" v="877451" />
	</node>
	<node id="-926396" lat="64.958347219" lon="11.0004916605">
		<tag k="name" v="Brannsfjellet" />
		<tag k="natural" v="hill" />
		<tag k="place" v="locality" />
		<tag k="ssr:stedsnr" v="472630" />
	</node>
	<node id="-927419" lat="64.8633805514" lon="10.866600003">
		<tag k="fixme" v="consider natural=peak for the most distinct mountains in the district" />
		<tag k="name" v="Bjørvikfjellet" />
		<tag k="natural" v="hill" />
		<tag k="place" v="locality" />
		<tag k="ssr:stedsnr" v="621993" />
	</node>
	<node id="-927418" lat="64.8455583357" lon="11.1603472213">
		<tag k="name" v="Sjyhaugen" />
		<tag k="natural" v="hill" />
		<tag k="place" v="locality" />
		<tag k="ssr:stedsnr" v="270491" />
	</node>
	<node id="-926899" lat="64.9247138882" lon="11.1052833355">
		<tag k="name" v="Reinfjellet" />
		<tag k="natural" v="hill" />
		<tag k="place" v="locality" />
		<tag k="ssr:stedsnr" v="351721" />
	</node>
	<node id="-926385" lat="64.912211112" lon="11.0986499963">
		<tag k="fixme" v="consider natural=peak for the most distinct mountains in the district" />
		<tag k="name" v="Sundsfjella" />
		<tag k="natural" v="hill" />
		<tag k="place" v="locality" />
		<tag k="ssr:stedsnr" v="621634" />
	</node>
	<node id="-926384" lat="64.8871388882" lon="10.8545583345">
		<tag k="fixme" v="consider natural=peak for the most distinct mountains in the district" />
		<tag k="name" v="Henrikskardfjellet" />
		<tag k="natural" v="hill" />
		<tag k="place" v="locality" />
		<tag k="ssr:stedsnr" v="75946" />
	</node>
	<node id="-925698" lat="64.9770166682" lon="10.8743055651">
		<tag k="name" v="Hønrauva" />
		<tag k="natural" v="valley" />
		<tag k="place" v="locality" />
		<tag k="ssr:stedsnr" v="836979" />
	</node>
	<node id="-925358" lat="64.9091249978" lon="10.9089111086">
		<tag k="fixme" v="consider natural=peak for the most distinct mountains in the district" />
		<tag k="name" v="Svartfjellet" />
		<tag k="natural" v="hill" />
		<tag k="place" v="locality" />
		<tag k="ssr:stedsnr" v="75595" />
	</node>
	<node id="-927402" lat="64.9172361109" lon="10.9331388883">
		<tag k="name" v="Halabakken" />
		<tag k="natural" v="slope" />
		<tag k="place" v="locality" />
		<tag k="ssr:stedsnr" v="411810" />
	</node>
	<node id="-926211" lat="64.864925" lon="11.0753055535">
		<tag k="name" v="Hammarsaunet" />
		<tag k="place" v="locality" />
		<tag k="ssr:stedsnr" v="350865" />
	</node>
	<node id="-926886" lat="64.9696361074" lon="10.854213881">
		<tag k="name" v="Staulan" />
		<tag k="place" v="locality" />
		<tag k="ssr:stedsnr" v="592985" />
	</node>
	<node id="-927329" lat="64.8615055582" lon="11.1291416597">
		<tag k="fixme" v="consider natural=peak for the most distinct mountains in the district" />
		<tag k="name" v="Middagsfjellet" />
		<tag k="natural" v="hill" />
		<tag k="place" v="locality" />
		<tag k="ssr:stedsnr" v="755455" />
	</node>
	<node id="-926372" lat="64.9074416705" lon="10.7675999977">
		<tag k="fixme" v="consider natural=peak for the most distinct mountains in the district" />
		<tag k="name" v="Valøytinden" />
		<tag k="natural" v="hill" />
		<tag k="place" v="locality" />
		<tag k="ssr:stedsnr" v="621641" />
	</node>
	<node id="-925993" lat="64.8862999977" lon="10.9193861017">
		<tag k="name" v="Storhammaren" />
		<tag k="natural" v="hill" />
		<tag k="place" v="locality" />
		<tag k="ssr:stedsnr" v="168854" />
	</node>
	<node id="-927259" lat="64.9408555535" lon="11.041727783">
		<tag k="fixme" v="consider natural=peak for the most distinct mountains in the district" />
		<tag k="name" v="Sundsfjellet" />
		<tag k="natural" v="hill" />
		<tag k="place" v="locality" />
		<tag k="ssr:stedsnr" v="196480" />
	</node>
	<node id="-925856" lat="64.8954972229" lon="10.9764861094">
		<tag k="fixme" v="consider natural=peak for the most distinct mountains in the district" />
		<tag k="name" v="Småvolldalsfjellet" />
		<tag k="natural" v="hill" />
		<tag k="place" v="locality" />
		<tag k="ssr:stedsnr" v="775821" />
	</node>
	<node id="-926750" lat="64.8729361147" lon="11.095016663">
		<tag k="fixme" v="consider natural=peak for the most distinct mountains in the district" />
		<tag k="name" v="Meraftasfjellet" />
		<tag k="natural" v="hill" />
		<tag k="place" v="locality" />
		<tag k="ssr:stedsnr" v="257927" />
	</node>
	<node id="-926878" lat="64.8842500007" lon="10.9920333426">
		<tag k="fixme" v="consider natural=peak for the most distinct mountains in the district" />
		<tag k="name" v="Vannhagafjellet" />
		<tag k="natural" v="hill" />
		<tag k="place" v="locality" />
		<tag k="ssr:stedsnr" v="560302" />
	</node>
	<node id="-925125" lat="64.8942805518" lon="11.2225222189">
		<tag k="name" v="Grønndalen" />
		<tag k="natural" v="valley" />
		<tag k="place" v="locality" />
		<tag k="ssr:stedsnr" v="76097" />
	</node>
	<node id="-925852" lat="64.8946555597" lon="10.9709027824">
		<tag k="name" v="Småvolldalen" />
		<tag k="natural" v="valley" />
		<tag k="place" v="locality" />
		<tag k="ssr:stedsnr" v="775822" />
	</node>
	<node id="-925851" lat="64.8741305569" lon="10.8037416705">
		<tag k="name" v="Håvarævo" />
		<tag k="natural" v="valley" />
		<tag k="place" v="locality" />
		<tag k="ssr:stedsnr" v="593158" />
	</node>
	<node id="-925338" lat="64.9381750044" lon="11.3533361033">
		<tag k="fixme" v="consider natural=peak for the most distinct mountains in the district" />
		<tag k="name" v="Storelvåsen" />
		<tag k="natural" v="hill" />
		<tag k="place" v="locality" />
		<tag k="ssr:stedsnr" v="621255" />
	</node>
	<node id="-926835" lat="64.8575694459" lon="11.1118777786">
		<tag k="name" v="Fløyhaugen" />
		<tag k="natural" v="hill" />
		<tag k="place" v="locality" />
		<tag k="ssr:stedsnr" v="229600" />
	</node>
	<node id="-925847" lat="64.9045527796" lon="11.0126916617">
		<tag k="name" v="Laukvikdalen" />
		<tag k="natural" v="valley" />
		<tag k="place" v="locality" />
		<tag k="ssr:stedsnr" v="653566" />
	</node>
	<node id="-925845" lat="64.9160694476" lon="10.8766500082">
		<tag k="fixme" v="consider natural=peak for the most distinct mountains in the district" />
		<tag k="name" v="Flåfjellet" />
		<tag k="natural" v="hill" />
		<tag k="place" v="locality" />
		<tag k="ssr:stedsnr" v="75650" />
	</node>
	<node id="-925330" lat="64.9719861157" lon="10.873536106">
		<tag k="name" v="Hagerhyllo" />
		<tag k="natural" v="hill" />
		<tag k="place" v="locality" />
		<tag k="ssr:stedsnr" v="896983" />
	</node>
	<node id="-925840" lat="64.9002499962" lon="11.1854638792">
		<tag k="fixme" v="consider natural=peak for the most distinct mountains in the district" />
		<tag k="name" v="Lyslifjellet" />
		<tag k="natural" v="hill" />
		<tag k="place" v="locality" />
		<tag k="ssr:stedsnr" v="560945" />
	</node>
	<node id="-926860" lat="64.8264499974" lon="11.024058328">
		<tag k="name" v="Måshaugen" />
		<tag k="natural" v="hill" />
		<tag k="place" v="locality" />
		<tag k="ssr:stedsnr" v="135747" />
	</node>
	<node id="-925322" lat="64.9256638889" lon="11.039936108">
		<tag k="name" v="Brennfjellet" />
		<tag k="natural" v="hill" />
		<tag k="place" v="locality" />
		<tag k="ssr:stedsnr" v="196568" />
	</node>
	<node id="-926231" lat="64.9014416676" lon="10.8771499944">
		<tag k="alt_name" v="Ulsundtuvo" />
		<tag k="fixme" v="consider natural=peak for the most distinct mountains in the district" />
		<tag k="name" v="Ulsundtuva" />
		<tag k="natural" v="hill" />
		<tag k="place" v="locality" />
		<tag k="ssr:stedsnr" v="257618" />
	</node>
	<node id="-927368" lat="64.8582388863" lon="11.2030416589">
		<tag k="name" v="Middagspålen" />
		<tag k="natural" v="hill" />
		<tag k="place" v="locality" />
		<tag k="ssr:stedsnr" v="14915" />
	</node>
	<node id="-927367" lat="64.9733916667" lon="11.1215888857">
		<tag k="name" v="Svartmoen" />
		<tag k="place" v="locality" />
		<tag k="ssr:stedsnr" v="109630" />
	</node>
	<node id="-926341" lat="64.9144527808" lon="10.8659611028">
		<tag k="fixme" v="consider natural=peak for the most distinct mountains in the district" />
		<tag k="name" v="Nonskardfjellet" />
		<tag k="natural" v="hill" />
		<tag k="place" v="locality" />
		<tag k="ssr:stedsnr" v="682658" />
	</node>
	<node id="-927363" lat="64.83050556" lon="11.2156555491">
		<tag k="name" v="Sankthanshaugen" />
		<tag k="natural" v="hill" />
		<tag k="place" v="locality" />
		<tag k="ssr:stedsnr" v="148000" />
	</node>
	<node id="-927362" lat="64.8899722221" lon="10.7505666651">
		<tag k="name" v="Børsøyhauet" />
		<tag k="natural" v="hill" />
		<tag k="place" v="locality" />
		<tag k="ssr:stedsnr" v="147620" />
	</node>
	<node id="-925313" lat="64.88184167" lon="11.180713898">
		<tag k="name" v="Valdskiftklompen" />
		<tag k="natural" v="hill" />
		<tag k="place" v="locality" />
		<tag k="ssr:stedsnr" v="654269" />
	</node>
	<node id="-925726" lat="64.8596666704" lon="11.0915166738">
		<tag k="name" v="Småhaugan" />
		<tag k="natural" v="hill" />
		<tag k="place" v="locality" />
		<tag k="ssr:stedsnr" v="533607" />
	</node>
	<node id="-925310" lat="64.8873305518" lon="11.1864000025">
		<tag k="name" v="Bardalen" />
		<tag k="natural" v="valley" />
		<tag k="place" v="locality" />
		<tag k="ssr:stedsnr" v="654268" />
	</node>
	<node id="-925309" lat="64.828722218" lon="11.1934749979">
		<tag k="name" v="Skeia" />
		<tag k="place" v="locality" />
		<tag k="ssr:stedsnr" v="572973" />
	</node>
	<node id="-925820" lat="64.8432499971" lon="11.1694361082">
		<tag k="fixme" v="consider natural=peak for the most distinct mountains in the district" />
		<tag k="name" v="Brennfjellet" />
		<tag k="natural" v="hill" />
		<tag k="place" v="locality" />
		<tag k="ssr:stedsnr" v="500968" />
	</node>
	<node id="-925737" lat="64.9422749998" lon="11.3677416697">
		<tag k="name" v="Berget" />
		<tag k="natural" v="hill" />
		<tag k="place" v="locality" />
		<tag k="ssr:stedsnr" v="654316" />
	</node>
	<node id="-925816" lat="64.8672277785" lon="11.2595777746">
		<tag k="name" v="Straumsøyhauet" />
		<tag k="natural" v="hill" />
		<tag k="place" v="locality" />
		<tag k="ssr:stedsnr" v="328396" />
	</node>
	<node id="-926740" lat="64.8964916681" lon="10.8768249902">
		<tag k="name" v="Ulsunddalen" />
		<tag k="natural" v="valley" />
		<tag k="place" v="locality" />
		<tag k="ssr:stedsnr" v="378923" />
	</node>
	<node id="-926838" lat="64.9595694421" lon="11.005219446">
		<tag k="name" v="Nettviktinden" />
		<tag k="natural" v="hill" />
		<tag k="place" v="locality" />
		<tag k="ssr:stedsnr" v="439517" />
	</node>
	<node id="-925812" lat="64.870633329" lon="11.2159805657">
		<tag k="fixme" v="consider natural=peak for the most distinct mountains in the district" />
		<tag k="name" v="Øster Klavafjellet" />
		<tag k="natural" v="hill" />
		<tag k="place" v="locality" />
		<tag k="ssr:stedsnr" v="634548" />
	</node>
	<node id="-925630" lat="64.9192277756" lon="10.8891305452">
		<tag k="name" v="Fjukstadkleiva" />
		<tag k="natural" v="slope" />
		<tag k="place" v="locality" />
		<tag k="ssr:stedsnr" v="47783" />
	</node>
	<node id="-925298" lat="64.970844443" lon="10.9133166579">
		<tag k="name" v="Vardberget" />
		<tag k="natural" v="hill" />
		<tag k="place" v="locality" />
		<tag k="ssr:stedsnr" v="896970" />
	</node>
	<node id="-926832" lat="64.9249944408" lon="11.1107638881">
		<tag k="name" v="Olderskardet" />
		<tag k="natural" v="valley" />
		<tag k="place" v="locality" />
		<tag k="ssr:stedsnr" v="109688" />
	</node>
	<node id="-927343" lat="64.8793333291" lon="11.201905565">
		<tag k="name" v="Ryemsklaven" />
		<tag k="natural" v="hill" />
		<tag k="place" v="locality" />
		<tag k="ssr:stedsnr" v="816552" />
	</node>
	<node id="-926271" lat="64.9407388909" lon="10.9866027735">
		<tag k="name" v="Ramstadkeipen" />
		<tag k="natural" v="hill" />
		<tag k="place" v="locality" />
		<tag k="ssr:stedsnr" v="776668" />
	</node>
	<node id="-925373" lat="64.8665416648" lon="10.7577999981">
		<tag k="name" v="Nonshaugen" />
		<tag k="natural" v="hill" />
		<tag k="place" v="locality" />
		<tag k="ssr:stedsnr" v="108159" />
	</node>
	<node id="-926316" lat="64.8998166666" lon="11.2202944391">
		<tag k="name" v="Digermulen" />
		<tag k="natural" v="hill" />
		<tag k="place" v="locality" />
		<tag k="ssr:stedsnr" v="318077" />
	</node>
	<node id="-926482" lat="64.916608335" lon="11.0646277748">
		<tag k="fixme" v="consider natural=peak for the most distinct mountains in the district" />
		<tag k="name" v="Nesa" />
		<tag k="natural" v="hill" />
		<tag k="place" v="locality" />
		<tag k="ssr:stedsnr" v="257652" />
	</node>
	<node id="-926054" lat="64.89863889" lon="11.0056805639">
		<tag k="name" v="Skogholet" />
		<tag k="natural" v="valley" />
		<tag k="place" v="locality" />
		<tag k="ssr:stedsnr" v="897525" />
	</node>
	<node id="-925801" lat="64.8660222198" lon="11.1614194374">
		<tag k="name" v="Ytterholet" />
		<tag k="natural" v="valley" />
		<tag k="place" v="locality" />
		<tag k="ssr:stedsnr" v="573431" />
	</node>
	<node id="-926824" lat="64.9866444426" lon="10.8903750066">
		<tag k="name" v="Kleppen" />
		<tag k="natural" v="hill" />
		<tag k="place" v="locality" />
		<tag k="ssr:stedsnr" v="257753" />
	</node>
	<node id="-925799" lat="64.8585722196" lon="11.1156027798">
		<tag k="name" v="Lykkjabakken" />
		<tag k="natural" v="slope" />
		<tag k="place" v="locality" />
		<tag k="ssr:stedsnr" v="290524" />
	</node>
	<node id="-926822" lat="64.8343694449" lon="11.1027277733">
		<tag k="name" v="Vedvikklumpen" />
		<tag k="natural" v="hill" />
		<tag k="place" v="locality" />
		<tag k="ssr:stedsnr" v="135736" />
	</node>
	<node id="-927249" lat="64.9698777762" lon="10.897916665">
		<tag k="fixme" v="consider natural=peak for the most distinct mountains in the district" />
		<tag k="name" v="Lyngstua" />
		<tag k="natural" v="hill" />
		<tag k="ssr:stedsnr" v="775961" />
	</node>
	<node id="-926310" lat="64.8707361086" lon="11.1946055519">
		<tag k="fixme" v="consider natural=peak for the most distinct mountains in the district" />
		<tag k="name" v="Ørnfjellet" />
		<tag k="natural" v="hill" />
		<tag k="place" v="locality" />
		<tag k="ssr:stedsnr" v="135867" />
	</node>
	<node id="-926395" lat="64.8603833324" lon="10.830577786">
		<tag k="name" v="Roaldsvikhaugen" />
		<tag k="natural" v="hill" />
		<tag k="place" v="locality" />
		<tag k="ssr:stedsnr" v="560989" />
	</node>
	<node id="-926496" lat="64.9580305534" lon="11.038074999">
		<tag k="name" v="Lauvbakkan" />
		<tag k="natural" v="slope" />
		<tag k="place" v="locality" />
		<tag k="ssr:stedsnr" v="351673" />
	</node>
	<node id="-926814" lat="64.9812638914" lon="10.9340861062">
		<tag k="name" v="Arafjellet" />
		<tag k="natural" v="hill" />
		<tag k="place" v="locality" />
		<tag k="ssr:stedsnr" v="257746" />
	</node>
	<node id="-926300" lat="64.9177583312" lon="10.9661722135">
		<tag k="name" v="Davidhaugen" />
		<tag k="natural" v="hill" />
		<tag k="place" v="locality" />
		<tag k="ssr:stedsnr" v="654798" />
	</node>
	<node id="-926138" lat="64.970602777" lon="11.1203499917">
		<tag k="name" v="Lyngsneshesten" />
		<tag k="natural" v="hill" />
		<tag k="place" v="locality" />
		<tag k="ssr:stedsnr" v="560693" />
	</node>
	<node id="-926809" lat="64.9228055554" lon="11.3027555549">
		<tag k="fixme" v="consider natural=peak for the most distinct mountains in the district" />
		<tag k="name" v="Storfjellet" />
		<tag k="natural" v="hill" />
		<tag k="place" v="locality" />
		<tag k="ssr:stedsnr" v="318211" />
	</node>
	<node id="-926163" lat="64.8751416623" lon="11.1045777821">
		<tag k="name" v="Bokkatrappan" />
		<tag k="natural" v="slope" />
		<tag k="place" v="locality" />
		<tag k="ssr:stedsnr" v="593568" />
	</node>
	<node id="-925270" lat="64.9102861109" lon="10.9936972232">
		<tag k="name" v="Vardhaugen" />
		<tag k="natural" v="hill" />
		<tag k="place" v="locality" />
		<tag k="ssr:stedsnr" v="957545" />
	</node>
	<node id="-925781" lat="64.8703638898" lon="11.1063027862">
		<tag k="name" v="Kjerringdalen" />
		<tag k="natural" v="valley" />
		<tag k="place" v="locality" />
		<tag k="ssr:stedsnr" v="533601" />
	</node>
	<node id="-925780" lat="64.8491111139" lon="11.1872972223">
		<tag k="fixme" v="consider natural=peak for the most distinct mountains in the district" />
		<tag k="name" v="Tjønnfjellet" />
		<tag k="natural" v="hill" />
		<tag k="place" v="locality" />
		<tag k="ssr:stedsnr" v="257841" />
	</node>
	<node id="-927315" lat="64.9290694458" lon="10.9614555602">
		<tag k="name" v="Ramstadskardet" />
		<tag k="natural" v="valley" />
		<tag k="place" v="locality" />
		<tag k="ssr:stedsnr" v="533817" />
	</node>
	<node id="-925261" lat="64.9318111076" lon="11.1680527852">
		<tag k="fixme" v="multiple name tags, choose one and add the other to alt_name" />
		<tag k="name" v="Plassafjellet;Tolandsfjellet" />
		<tag k="natural" v="hill" />
		<tag k="place" v="locality" />
		<tag k="ssr:stedsnr" v="560619" />
	</node>
	<node id="-925772" lat="64.9288694474" lon="11.1146444446">
		<tag k="name" v="Litltinden" />
		<tag k="natural" v="hill" />
		<tag k="place" v="locality" />
		<tag k="ssr:stedsnr" v="594705" />
	</node>
	<node id="-926794" lat="64.8789083335" lon="11.1113833395">
		<tag k="name" v="Storisrævo" />
		<tag k="natural" v="valley" />
		<tag k="place" v="locality" />
		<tag k="ssr:stedsnr" v="897577" />
	</node>
	<node id="-926793" lat="64.933411107" lon="11.193522231">
		<tag k="fixme" v="consider natural=peak for the most distinct mountains in the district" />
		<tag k="name" v="Totlandsfjellet" />
		<tag k="natural" v="hill" />
		<tag k="place" v="locality" />
		<tag k="ssr:stedsnr" v="593271" />
	</node>
	<node id="-927304" lat="64.8671083371" lon="10.6495138799">
		<tag k="name" v="Gardsøytinden" />
		<tag k="natural" v="hill" />
		<tag k="place" v="locality" />
		<tag k="ssr:stedsnr" v="681131" />
	</node>
	<node id="-925767" lat="64.9042916675" lon="10.9121388855">
		<tag k="fixme" v="multiple name tags, choose one and add the other to alt_name; consider natural=peak for the most distinct mountains in the district" />
		<tag k="name" v="Dalafjellet;Dalatinden" />
		<tag k="natural" v="hill" />
		<tag k="place" v="locality" />
		<tag k="ssr:stedsnr" v="14505" />
	</node>
	<node id="-927301" lat="64.861277776" lon="10.735780548">
		<tag k="name" v="Brenna" />
		<tag k="natural" v="hill" />
		<tag k="place" v="locality" />
		<tag k="ssr:stedsnr" v="440000" />
	</node>
	<node id="-926788" lat="64.9294500015" lon="11.1690111104">
		<tag k="name" v="Vangsaunet" />
		<tag k="place" v="locality" />
		<tag k="ssr:stedsnr" v="593267" />
	</node>
	<node id="-925250" lat="64.8792611116" lon="11.1789944406">
		<tag k="alt_name" v="Vattatuva" />
		<tag k="fixme" v="consider natural=peak for the most distinct mountains in the district" />
		<tag k="name" v="Vattatuvo" />
		<tag k="natural" v="hill" />
		<tag k="place" v="locality" />
		<tag k="ssr:stedsnr" v="379866" />
	</node>
	<node id="-926273" lat="64.8955611084" lon="10.8875055537">
		<tag k="name" v="Risdalsmoan" />
		<tag k="place" v="locality" />
		<tag k="ssr:stedsnr" v="654843" />
	</node>
	<node id="-925417" lat="64.876558336" lon="11.2647722138">
		<tag k="name" v="Lundemohøgda" />
		<tag k="natural" v="hill" />
		<tag k="place" v="locality" />
		<tag k="ssr:stedsnr" v="573381" />
	</node>
	<node id="-927295" lat="64.8955527773" lon="11.1325361202">
		<tag k="fixme" v="consider natural=peak for the most distinct mountains in the district" />
		<tag k="name" v="Brennfjellet" />
		<tag k="natural" v="hill" />
		<tag k="place" v="locality" />
		<tag k="ssr:stedsnr" v="925951" />
	</node>
	<node id="-926270" lat="64.8901083368" lon="11.1993999933">
		<tag k="name" v="Rishaugen" />
		<tag k="natural" v="hill" />
		<tag k="place" v="locality" />
		<tag k="ssr:stedsnr" v="15935" />
	</node>
	<node id="-926603" lat="64.895544442" lon="11.0055000104">
		<tag k="name" v="Lødalen" />
		<tag k="natural" v="valley" />
		<tag k="place" v="locality" />
		<tag k="ssr:stedsnr" v="168547" />
	</node>
	<node id="-926268" lat="64.9228555539" lon="11.0990222215">
		<tag k="name" v="Kringelfjellet" />
		<tag k="natural" v="hill" />
		<tag k="place" v="locality" />
		<tag k="ssr:stedsnr" v="898730" />
	</node>
	<node id="-925755" lat="64.8689916708" lon="11.1129916713">
		<tag k="name" v="Ådalsholet" />
		<tag k="natural" v="valley" />
		<tag k="place" v="locality" />
		<tag k="ssr:stedsnr" v="290518" />
	</node>
	<node id="-926778" lat="64.9738694442" lon="10.8968194453">
		<tag k="name" v="Sør Salbutinden" />
		<tag k="natural" v="hill" />
		<tag k="place" v="locality" />
		<tag k="ssr:stedsnr" v="168967" />
	</node>
	<node id="-926303" lat="64.8602555527" lon="11.0740833394">
		<tag k="name" v="Storstudalen" />
		<tag k="natural" v="valley" />
		<tag k="place" v="locality" />
		<tag k="ssr:stedsnr" v="168892" />
	</node>
	<node id="-925240" lat="64.9125888859" lon="11.1860555544">
		<tag k="name" v="Helgebakken" />
		<tag k="natural" v="slope" />
		<tag k="place" v="locality" />
		<tag k="ssr:stedsnr" v="350311" />
	</node>
	<node id="-926775" lat="64.8825388866" lon="11.1152777741">
		<tag k="name" v="Tuftabakken" />
		<tag k="natural" v="slope" />
		<tag k="place" v="locality" />
		<tag k="ssr:stedsnr" v="897574" />
	</node>
	<node id="-927286" lat="64.9004666622" lon="11.2955444514">
		<tag k="name" v="Stakkskardet" />
		<tag k="natural" v="valley" />
		<tag k="place" v="locality" />
		<tag k="ssr:stedsnr" v="270469" />
	</node>
	<node id="-925705" lat="64.921991664" lon="10.9720027707">
		<tag k="name" v="Kroklia" />
		<tag k="natural" v="slope" />
		<tag k="place" v="locality" />
		<tag k="ssr:stedsnr" v="775776" />
	</node>
	<node id="-927284" lat="64.9341805535" lon="11.3472805594">
		<tag k="name" v="Elvåsen" />
		<tag k="natural" v="hill" />
		<tag k="place" v="locality" />
		<tag k="ssr:stedsnr" v="877477" />
	</node>
	<node id="-925235" lat="64.9583527784" lon="11.129655564">
		<tag k="name" v="Gammelmannsfjellet" />
		<tag k="natural" v="hill" />
		<tag k="place" v="locality" />
		<tag k="ssr:stedsnr" v="15564" />
	</node>
	<node id="-927281" lat="64.8816638858" lon="11.1035527775">
		<tag k="name" v="Tjuvskardet" />
		<tag k="natural" v="valley" />
		<tag k="place" v="locality" />
		<tag k="ssr:stedsnr" v="350583" />
	</node>
	<node id="-926255" lat="64.9238333345" lon="11.0874305495">
		<tag k="name" v="Brekko" />
		<tag k="natural" v="slope" />
		<tag k="place" v="locality" />
		<tag k="ssr:stedsnr" v="898732" />
	</node>
	<node id="-927069" lat="64.866305552" lon="11.1045999961">
		<tag k="name" v="Ådalen" />
		<tag k="natural" v="valley" />
		<tag k="place" v="locality" />
		<tag k="ssr:stedsnr" v="168592" />
	</node>
	<node id="-925228" lat="64.8560972236" lon="11.2063361179">
		<tag k="name" v="Vandhagafjellet" />
		<tag k="natural" v="hill" />
		<tag k="place" v="locality" />
		<tag k="ssr:stedsnr" v="634473" />
	</node>
	<node id="-925909" lat="64.8685638873" lon="11.1424555555">
		<tag k="name" v="Skardet" />
		<tag k="natural" v="valley" />
		<tag k="place" v="locality" />
		<tag k="ssr:stedsnr" v="573430" />
	</node>
	<node id="-925226" lat="65.0145166687" lon="11.1336194461">
		<tag k="fixme" v="consider natural=peak for the most distinct mountains in the district" />
		<tag k="name" v="Bratthammaren" />
		<tag k="natural" v="hill" />
		<tag k="place" v="locality" />
		<tag k="ssr:stedsnr" v="76665" />
	</node>
	<node id="-925447" lat="64.9105055521" lon="10.8054750033">
		<tag k="name" v="Ramntinden" />
		<tag k="natural" v="hill" />
		<tag k="place" v="locality" />
		<tag k="ssr:stedsnr" v="439584" />
	</node>
	<node id="-927783" lat="64.9317444454" lon="10.903366673">
		<tag k="alt_name" v="Trollskardtindan" />
		<tag k="fixme" v="consider natural=peak for the most distinct mountains in the district" />
		<tag k="name" v="Trollskardfjellet" />
		<tag k="natural" v="hill" />
		<tag k="place" v="locality" />
		<tag k="ssr:stedsnr" v="135490" />
	</node>
	<node id="-926246" lat="64.9086527742" lon="11.292275007">
		<tag k="name" v="Nottrappen" />
		<tag k="place" v="locality" />
		<tag k="ssr:stedsnr" v="513505" />
	</node>
	<node id="-926757" lat="64.8546611153" lon="11.1606638862">
		<tag k="name" v="Melkarhaugen" />
		<tag k="natural" v="hill" />
		<tag k="place" v="locality" />
		<tag k="ssr:stedsnr" v="877433" />
	</node>
	<node id="-925740" lat="64.8716388881" lon="11.0913861191">
		<tag k="name" v="Storskardet" />
		<tag k="natural" v="valley" />
		<tag k="place" v="locality" />
		<tag k="ssr:stedsnr" v="108621" />
	</node>
	<node id="-926243" lat="64.8292916682" lon="11.2101055557">
		<tag k="name" v="Litl-Risdalen" />
		<tag k="natural" v="valley" />
		<tag k="place" v="locality" />
		<tag k="ssr:stedsnr" v="451999" />
	</node>
	<node id="-927778" lat="64.8991277771" lon="10.9051416588">
		<tag k="name" v="Bekkahaugen" />
		<tag k="natural" v="hill" />
		<tag k="place" v="locality" />
		<tag k="ssr:stedsnr" v="290807" />
	</node>
	<node id="-926481" lat="64.9002138854" lon="10.9039027858">
		<tag k="name" v="Dalarævo" />
		<tag k="natural" v="valley" />
		<tag k="place" v="locality" />
		<tag k="ssr:stedsnr" v="654844" />
	</node>
	<node id="-927264" lat="64.8989555555" lon="10.7964555468">
		<tag k="fixme" v="consider natural=peak for the most distinct mountains in the district" />
		<tag k="name" v="Sulafjellet" />
		<tag k="natural" v="hill" />
		<tag k="place" v="locality" />
		<tag k="ssr:stedsnr" v="742929" />
	</node>
	<node id="-925727" lat="65.0065000042" lon="11.1292027687">
		<tag k="fixme" v="consider natural=peak for the most distinct mountains in the district" />
		<tag k="name" v="Kvaløyaksla" />
		<tag k="natural" v="hill" />
		<tag k="place" v="locality" />
		<tag k="ssr:stedsnr" v="560664" />
	</node>
	<node id="-927262" lat="64.8645916691" lon="10.770155551">
		<tag k="name" v="Vannhagan" />
		<tag k="natural" v="valley" />
		<tag k="place" v="locality" />
		<tag k="ssr:stedsnr" v="47171" />
	</node>
	<node id="-926237" lat="64.852038885" lon="11.1764749984">
		<tag k="fixme" v="consider natural=peak for the most distinct mountains in the district" />
		<tag k="name" v="Hunndalsfjellet" />
		<tag k="natural" v="hill" />
		<tag k="place" v="locality" />
		<tag k="ssr:stedsnr" v="136957" />
	</node>
	<node id="-925211" lat="64.8777805573" lon="11.2322277791">
		<tag k="name" v="Breidablikk" />
		<tag k="place" v="locality" />
		<tag k="ssr:stedsnr" v="938516" />
	</node>
	<node id="-926745" lat="64.9360166664" lon="11.3089694416">
		<tag k="name" v="Brennhaugan" />
		<tag k="natural" v="hill" />
		<tag k="place" v="locality" />
		<tag k="ssr:stedsnr" v="48300" />
	</node>
	<node id="-926744" lat="64.9282750034" lon="11.0867083397">
		<tag k="name" v="Bustaskardet" />
		<tag k="natural" v="valley" />
		<tag k="place" v="locality" />
		<tag k="ssr:stedsnr" v="351716" />
	</node>
	<node id="-925207" lat="64.8920750001" lon="11.1568833354">
		<tag k="name" v="Årliskardet" />
		<tag k="natural" v="valley" />
		<tag k="place" v="locality" />
		<tag k="ssr:stedsnr" v="837264" />
	</node>
	<node id="-926742" lat="64.8942222245" lon="11.0073222243">
		<tag k="name" v="Lødalsklompen" />
		<tag k="natural" v="hill" />
		<tag k="place" v="locality" />
		<tag k="ssr:stedsnr" v="350523" />
	</node>
	<node id="-927765" lat="64.8472611137" lon="11.1262722247">
		<tag k="name" v="Åkvikkleiva" />
		<tag k="place" v="locality" />
		<tag k="ssr:stedsnr" v="938497" />
	</node>
	<node id="-925204" lat="64.9642527783" lon="10.8761694397">
		<tag k="name" v="Skjessihammaren" />
		<tag k="natural" v="hill" />
		<tag k="place" v="locality" />
		<tag k="ssr:stedsnr" v="864604" />
	</node>
	<node id="-926285" lat="64.8751416702" lon="11.1772722205">
		<tag k="fixme" v="consider natural=peak for the most distinct mountains in the district" />
		<tag k="name" v="Vattafjellet" />
		<tag k="natural" v="hill" />
		<tag k="place" v="locality" />
		<tag k="ssr:stedsnr" v="621903" />
	</node>
	<node id="-926723" lat="64.884444444" lon="11.1562111021">
		<tag k="fixme" v="consider natural=peak for the most distinct mountains in the district" />
		<tag k="name" v="Årlitinden" />
		<tag k="natural" v="hill" />
		<tag k="place" v="locality" />
		<tag k="ssr:stedsnr" v="257922" />
	</node>
	<node id="-926736" lat="64.806749998" lon="10.5440861153">
		<tag k="name" v="Korsen" />
		<tag k="natural" v="hill" />
		<tag k="place" v="locality" />
		<tag k="ssr:stedsnr" v="318673" />
	</node>
	<node id="-926223" lat="64.9417805586" lon="11.1790944533">
		<tag k="name" v="Bremenget" />
		<tag k="place" v="locality" />
		<tag k="ssr:stedsnr" v="533296" />
	</node>
	<node id="-926222" lat="64.8975583295" lon="10.9571805629">
		<tag k="fixme" v="consider natural=peak for the most distinct mountains in the district" />
		<tag k="name" v="Vassfjellet" />
		<tag k="natural" v="hill" />
		<tag k="place" v="locality" />
		<tag k="ssr:stedsnr" v="75937" />
	</node>
	<node id="-926219" lat="64.871927775" lon="11.1634555585">
		<tag k="name" v="Trettendalen" />
		<tag k="natural" v="valley" />
		<tag k="place" v="locality" />
		<tag k="ssr:stedsnr" v="411259" />
	</node>
	<node id="-926387" lat="64.8717666688" lon="11.1288750021">
		<tag k="name" v="Dyrgrova" />
		<tag k="natural" v="valley" />
		<tag k="place" v="locality" />
		<tag k="ssr:stedsnr" v="957267" />
	</node>
	<node id="-925193" lat="64.8754416662" lon="10.955366665">
		<tag k="name" v="Sørgårdfjellet" />
		<tag k="natural" v="hill" />
		<tag k="place" v="locality" />
		<tag k="ssr:stedsnr" v="836860" />
	</node>
	<node id="-926421" lat="64.8643888883" lon="10.822366673">
		<tag k="name" v="Dyrlirauva" />
		<tag k="natural" v="hill" />
		<tag k="place" v="locality" />
		<tag k="ssr:stedsnr" v="560998" />
	</node>
	<node id="-925700" lat="64.8485694442" lon="11.1575722161">
		<tag k="name" v="Åkvikskaret" />
		<tag k="natural" v="valley" />
		<tag k="place" v="locality" />
		<tag k="ssr:stedsnr" v="149487" />
	</node>
	<node id="-927062" lat="64.8975444441" lon="10.7699944461">
		<tag k="name" v="Nørdhauet" />
		<tag k="natural" v="hill" />
		<tag k="place" v="locality" />
		<tag k="ssr:stedsnr" v="511603" />
	</node>
	<node id="-926210" lat="64.9453777816" lon="10.9757305548">
		<tag k="name" v="Ramtinden" />
		<tag k="natural" v="hill" />
		<tag k="place" v="locality" />
		<tag k="ssr:stedsnr" v="898687" />
	</node>
	<node id="-926489" lat="64.9198083368" lon="11.2173972201">
		<tag k="name" v="Mølndalen" />
		<tag k="natural" v="valley" />
		<tag k="place" v="locality" />
		<tag k="ssr:stedsnr" v="836255" />
	</node>
</osm>
