<?xml version="1.0" encoding="UTF-8"?>
<osm generator="osmapis" version="0.6">
	<node id="-907257" lat="64.941100002" lon="11.1601416597">
		<tag k="name" v="Lysøyvatnet" />
		<tag k="natural" v="water" />
		<tag k="ssr:stedsnr" v="560514" />
		<tag k="water" v="lake" />
	</node>
	<node id="-905719" lat="64.9128499968" lon="11.0175777833">
		<tag k="name" v="Isterskogtjønna" />
		<tag k="natural" v="water" />
		<tag k="ssr:stedsnr" v="836517" />
	</node>
	<node id="-906230" lat="64.8971499973" lon="10.9520555562">
		<tag k="name" v="Horsengvatnet" />
		<tag k="natural" v="water" />
		<tag k="ssr:stedsnr" v="682934" />
	</node>
	<node id="-906227" lat="64.912736109" lon="11.1305944489">
		<tag k="name" v="Svartdalsåa" />
		<tag k="ssr:stedsnr" v="351260" />
		<tag k="waterway" v="stream" />
	</node>
	<node id="-906737" lat="64.847547222" lon="11.1091388958">
		<tag k="name" v="Dekkerhuselva" />
		<tag k="ssr:stedsnr" v="412875" />
		<tag k="waterway" v="stream" />
	</node>
	<node id="-907246" lat="64.9244999994" lon="11.0522027697">
		<tag k="name" v="Osplivatnet" />
		<tag k="natural" v="water" />
		<tag k="ssr:stedsnr" v="925637" />
	</node>
	<node id="-906726" lat="64.8976027747" lon="11.1941166648">
		<tag k="name" v="Lyslitjønnin" />
		<tag k="natural" v="water" />
		<tag k="ssr:stedsnr" v="351304" />
	</node>
	<node id="-907744" lat="64.8659750007" lon="11.219463893">
		<tag k="name" v="Stordammen" />
		<tag k="ssr:stedsnr" v="695427" />
		<tag k="waterway" v="dam" />
	</node>
	<node id="-906204" lat="64.9225805552" lon="11.2119805568">
		<tag k="name" v="Sandhalsvatnet" />
		<tag k="natural" v="water" />
		<tag k="ssr:stedsnr" v="14547" />
	</node>
	<node id="-907225" lat="64.8778222181" lon="10.8245777871">
		<tag k="name" v="Småskogtjønna" />
		<tag k="natural" v="water" />
		<tag k="ssr:stedsnr" v="350147" />
	</node>
	<node id="-906710" lat="64.8947999967" lon="10.8657805598">
		<tag k="name" v="Ulsundvatnet" />
		<tag k="natural" v="water" />
		<tag k="ssr:stedsnr" v="621928" />
	</node>
	<node id="-907724" lat="64.9487861072" lon="11.0164361184">
		<tag k="name" v="Hasfjordvatnet" />
		<tag k="natural" v="water" />
		<tag k="ssr:stedsnr" v="500603" />
		<tag k="water" v="lake" />
	</node>
	<node id="-905664" lat="64.935558329" lon="11.1795916766">
		<tag k="name" v="Osplivatnet" />
		<tag k="natural" v="water" />
		<tag k="ssr:stedsnr" v="378528" />
	</node>
	<node id="-907707" lat="64.9724083369" lon="10.9175833414">
		<tag k="name" v="Lauga" />
		<tag k="ssr:stedsnr" v="592971" />
		<tag k="waterway" v="drain" />
	</node>
	<node id="-907194" lat="64.8614944469" lon="11.116552784">
		<tag k="name" v="Evenstadelva" />
		<tag k="ssr:stedsnr" v="715596" />
		<tag k="waterway" v="stream" />
	</node>
	<node id="-905655" lat="64.9228111092" lon="11.0361388905">
		<tag k="name" v="Gudmundstjønna" />
		<tag k="natural" v="water" />
		<tag k="ssr:stedsnr" v="411550" />
	</node>
	<node id="-907190" lat="64.940438887" lon="11.1015750048">
		<tag k="name" v="Smiådalsbekken" />
		<tag k="ssr:stedsnr" v="472685" />
		<tag k="waterway" v="stream" />
	</node>
	<node id="-906158" lat="64.8758611133" lon="10.9258083408">
		<tag k="alt_name" v="Rossøyvatnet" />
		<tag k="name" v="Husfjellvatnet" />
		<tag k="natural" v="water" />
		<tag k="ssr:stedsnr" v="743898" />
	</node>
	<node id="-906157" lat="64.8966194426" lon="11.0107666683">
		<tag k="name" v="Hopen" />
		<tag k="natural" v="water" />
		<tag k="ssr:stedsnr" v="560933" />
	</node>
	<node id="-906146" lat="64.9746222263" lon="10.906058344">
		<tag k="name" v="Jensvatnet" />
		<tag k="ssr:stedsnr" v="836968" />
		<tag k="waterway" v="drain" />
	</node>
	<node id="-906657" lat="64.8658694459" lon="11.1168055492">
		<tag k="name" v="Fjilltjønna" />
		<tag k="natural" v="water" />
		<tag k="ssr:stedsnr" v="897556" />
	</node>
	<node id="-906144" lat="64.9139277771" lon="11.2121388888">
		<tag k="name" v="Mølndalsvatnet" />
		<tag k="natural" v="water" />
		<tag k="ssr:stedsnr" v="14525" />
	</node>
	<node id="-907167" lat="64.8301972252" lon="11.1985527689">
		<tag k="name" v="Skeielva" />
		<tag k="ssr:stedsnr" v="937968" />
		<tag k="waterway" v="stream" />
	</node>
	<node id="-906653" lat="64.9092305583" lon="11.2420250095">
		<tag k="name" v="Sildnessbekken" />
		<tag k="ssr:stedsnr" v="776278" />
		<tag k="waterway" v="stream" />
	</node>
	<node id="-907675" lat="64.9698416672" lon="10.8761555471">
		<tag k="name" v="Vollalonet" />
		<tag k="place" v="locality" />
		<tag k="ssr:stedsnr" v="257732" />
	</node>
	<node id="-906647" lat="64.9273333316" lon="11.0605444514">
		<tag k="name" v="Otertjønna" />
		<tag k="natural" v="water" />
		<tag k="ssr:stedsnr" v="958530" />
	</node>
	<node id="-906132" lat="64.9196749969" lon="11.1972305541">
		<tag k="name" v="Vikestadvatnet" />
		<tag k="natural" v="water" />
		<tag k="ssr:stedsnr" v="75639" />
	</node>
	<node id="-907664" lat="64.9289555526" lon="11.3165305461">
		<tag k="name" v="Nordvatnet" />
		<tag k="natural" v="water" />
		<tag k="ssr:stedsnr" v="136254" />
		<tag k="water" v="lake" />
	</node>
	<node id="-906638" lat="64.9637583299" lon="11.0717611147">
		<tag k="name" v="Litlvatnet" />
		<tag k="natural" v="water" />
		<tag k="ssr:stedsnr" v="593631" />
	</node>
	<node id="-906124" lat="64.9024111107" lon="10.9736000026">
		<tag k="name" v="Torkelvatnet" />
		<tag k="natural" v="water" />
		<tag k="ssr:stedsnr" v="135565" />
	</node>
	<node id="-907640" lat="64.868797225" lon="11.0880138873">
		<tag k="name" v="Lomtjønna" />
		<tag k="natural" v="water" />
		<tag k="ssr:stedsnr" v="654582" />
	</node>
	<node id="-907156" lat="64.9668694411" lon="11.0284194492">
		<tag k="name" v="Lomtjønna" />
		<tag k="natural" v="water" />
		<tag k="ssr:stedsnr" v="897625" />
	</node>
	<node id="-906614" lat="64.9761805579" lon="11.0799499917">
		<tag k="name" v="Borgonbekken" />
		<tag k="ssr:stedsnr" v="290622" />
		<tag k="waterway" v="stream" />
	</node>
	<node id="-907125" lat="64.9748694405" lon="10.9162055657">
		<tag k="name" v="Svanafloa" />
		<tag k="ssr:stedsnr" v="532968" />
		<tag k="waterway" v="drain" />
	</node>
	<node id="-905584" lat="64.9354583357" lon="11.1041555545">
		<tag k="name" v="Harralivatnet" />
		<tag k="natural" v="water" />
		<tag k="ssr:stedsnr" v="681494" />
	</node>
	<node id="-906095" lat="64.8599999965" lon="11.219669438">
		<tag k="name" v="Skjånesbekken" />
		<tag k="ssr:stedsnr" v="28464" />
		<tag k="waterway" v="stream" />
	</node>
	<node id="-905577" lat="64.9355611148" lon="11.1408583427">
		<tag k="name" v="Vangsfjordvatnet" />
		<tag k="natural" v="water" />
		<tag k="ssr:stedsnr" v="621554" />
	</node>
	<node id="-907623" lat="64.9567444458" lon="11.0403999952">
		<tag k="name" v="Hasfjordhopen" />
		<tag k="natural" v="water" />
		<tag k="ssr:stedsnr" v="560544" />
		<tag k="water" v="lake" />
	</node>
	<node id="-906349" lat="64.8827861151" lon="10.838061116">
		<tag k="name" v="Trontjønna" />
		<tag k="natural" v="water" />
		<tag k="ssr:stedsnr" v="318894" />
	</node>
	<node id="-905566" lat="64.9055194479" lon="10.9890250023">
		<tag k="name" v="Gravsetvatnet" />
		<tag k="natural" v="water" />
		<tag k="ssr:stedsnr" v="75600" />
	</node>
	<node id="-907612" lat="64.8931777771" lon="11.1682277756">
		<tag k="name" v="Årlivatnet" />
		<tag k="natural" v="water" />
		<tag k="ssr:stedsnr" v="925948" />
	</node>
	<node id="-906586" lat="64.8994388868" lon="11.0835944531">
		<tag k="name" v="Setnøyvalen" />
		<tag k="natural" v="water" />
		<tag k="ssr:stedsnr" v="653644" />
	</node>
	<node id="-906070" lat="64.9200972238" lon="11.0317111103">
		<tag k="name" v="Jostakktjønna" />
		<tag k="natural" v="water" />
		<tag k="ssr:stedsnr" v="318604" />
	</node>
	<node id="-906580" lat="64.9119444407" lon="11.157541665">
		<tag k="name" v="Skjelåsvatnet" />
		<tag k="natural" v="water" />
		<tag k="ssr:stedsnr" v="257637" />
	</node>
	<node id="-905554" lat="64.9236999981" lon="10.9034305598">
		<tag k="name" v="Fjukstadvatnet" />
		<tag k="natural" v="water" />
		<tag k="ssr:stedsnr" v="560628" />
		<tag k="water" v="lake" />
	</node>
	<node id="-906577" lat="64.8942083338" lon="10.8828972132">
		<tag k="name" v="Lissvatnet" />
		<tag k="natural" v="water" />
		<tag k="ssr:stedsnr" v="439928" />
	</node>
	<node id="-907600" lat="64.8637472256" lon="10.8022527742">
		<tag k="name" v="Kverndalstjønna" />
		<tag k="natural" v="water" />
		<tag k="ssr:stedsnr" v="318999" />
	</node>
	<node id="-905357" lat="64.9220944408" lon="11.1726722276">
		<tag k="name" v="Osatjønna" />
		<tag k="natural" v="water" />
		<tag k="ssr:stedsnr" v="47301" />
	</node>
	<node id="-907084" lat="64.8625277777" lon="10.7941111139">
		<tag k="name" v="Kvenndalsbekken" />
		<tag k="ssr:stedsnr" v="168140" />
		<tag k="waterway" v="stream" />
	</node>
	<node id="-907075" lat="64.906830558" lon="11.0131583367">
		<tag k="name" v="Dalstjønna" />
		<tag k="natural" v="water" />
		<tag k="ssr:stedsnr" v="350533" />
	</node>
	<node id="-906891" lat="64.9754555587" lon="11.1211944471">
		<tag k="name" v="Kvenndammen" />
		<tag k="natural" v="water" />
		<tag k="ssr:stedsnr" v="230643" />
	</node>
	<node id="-906048" lat="64.9065305571" lon="10.9106527747">
		<tag k="name" v="Svartfjelltjønna" />
		<tag k="natural" v="water" />
		<tag k="ssr:stedsnr" v="621608" />
	</node>
	<node id="-907068" lat="64.8570444465" lon="11.1942916581">
		<tag k="name" v="Klumpavatnet" />
		<tag k="natural" v="water" />
		<tag k="ssr:stedsnr" v="439951" />
	</node>
	<node id="-907064" lat="64.9131916638" lon="11.1698027684">
		<tag k="name" v="Langvatnet" />
		<tag k="natural" v="water" />
		<tag k="ssr:stedsnr" v="499530" />
		<tag k="water" v="lake" />
	</node>
	<node id="-905521" lat="64.9068833293" lon="11.0048805512">
		<tag k="name" v="Åstjønna" />
		<tag k="natural" v="water" />
		<tag k="ssr:stedsnr" v="108577" />
	</node>
	<node id="-906542" lat="64.9332416668" lon="11.3187611078">
		<tag k="name" v="Hesttjønna" />
		<tag k="natural" v="water" />
		<tag k="ssr:stedsnr" v="289354" />
	</node>
	<node id="-905517" lat="64.8902500016" lon="10.9564361019">
		<tag k="name" v="Skitvatnet" />
		<tag k="natural" v="water" />
		<tag k="ssr:stedsnr" v="197935" />
	</node>
	<node id="-907051" lat="64.8934416664" lon="11.2427555487">
		<tag k="name" v="Kvennhusbekken" />
		<tag k="ssr:stedsnr" v="109299" />
		<tag k="waterway" v="stream" />
	</node>
	<node id="-905863" lat="64.9391222253" lon="10.9948638892">
		<tag k="name" v="Røytvatnet" />
		<tag k="natural" v="water" />
		<tag k="ssr:stedsnr" v="378555" />
		<tag k="water" v="lake" />
	</node>
	<node id="-907553" lat="64.9198694473" lon="10.9319444514">
		<tag k="name" v="Austafjordvatnet" />
		<tag k="natural" v="water" />
		<tag k="ssr:stedsnr" v="925671" />
	</node>
	<node id="-907035" lat="64.9317305519" lon="11.328722226">
		<tag k="name" v="Nordvatnet" />
		<tag k="natural" v="water" />
		<tag k="ssr:stedsnr" v="938469" />
		<tag k="water" v="lake" />
	</node>
	<node id="-906010" lat="64.8819888902" lon="10.8452722205">
		<tag k="name" v="Langtjønna" />
		<tag k="natural" v="water" />
		<tag k="ssr:stedsnr" v="682911" />
	</node>
	<node id="-905495" lat="64.9298083373" lon="10.9762888822">
		<tag k="name" v="Brattlivatnet" />
		<tag k="natural" v="water" />
		<tag k="ssr:stedsnr" v="317452" />
	</node>
	<node id="-907906" lat="64.8946527779" lon="10.9122888879">
		<tag k="name" v="Ostjønna" />
		<tag k="natural" v="water" />
		<tag k="ssr:stedsnr" v="290811" />
	</node>
	<node id="-906506" lat="64.8560055525" lon="11.1700055587">
		<tag k="name" v="Merratjønna" />
		<tag k="natural" v="water" />
		<tag k="ssr:stedsnr" v="391468" />
	</node>
	<node id="-905480" lat="64.9006111085" lon="11.1224138834">
		<tag k="name" v="Svantjønna" />
		<tag k="natural" v="water" />
		<tag k="ssr:stedsnr" v="864620" />
	</node>
	<node id="-907527" lat="64.8320861152" lon="11.2509500077">
		<tag k="name" v="Litl-Kjerringholmen" />
		<tag k="place" v="islet" />
		<tag k="ssr:stedsnr" v="695000" />
	</node>
	<node id="-906492" lat="64.8855777778" lon="11.2404333416">
		<tag k="name" v="Valdskiftbekken" />
		<tag k="ssr:stedsnr" v="28524" />
		<tag k="waterway" v="stream" />
	</node>
	<node id="-906488" lat="64.8801416636" lon="11.157902785">
		<tag k="name" v="Kalvvatnet" />
		<tag k="natural" v="water" />
		<tag k="ssr:stedsnr" v="135872" />
	</node>
	<node id="-907506" lat="64.8754194424" lon="11.1341222321">
		<tag k="name" v="Reittjønna" />
		<tag k="natural" v="water" />
		<tag k="ssr:stedsnr" v="897257" />
	</node>
	<node id="-906992" lat="64.8863277775" lon="10.9841888928">
		<tag k="name" v="Kvennhusbekken" />
		<tag k="ssr:stedsnr" v="896913" />
		<tag k="waterway" v="stream" />
	</node>
	<node id="-905965" lat="64.8960833321" lon="10.9025305547">
		<tag k="name" v="Dalavatnet" />
		<tag k="natural" v="water" />
		<tag k="ssr:stedsnr" v="864920" />
	</node>
	<node id="-905963" lat="64.8804111111" lon="10.8891111181">
		<tag k="alt_name" v="Brattlibekken" />
		<tag k="name" v="Brattfjellbekken" />
		<tag k="ssr:stedsnr" v="15879" />
		<tag k="waterway" v="stream" />
	</node>
	<node id="-905448" lat="64.9342861095" lon="11.0889277736">
		<tag k="alt_name" v="Kvernengvatnet" />
		<tag k="name" v="Kvennengvatnet" />
		<tag k="natural" v="water" />
		<tag k="ssr:stedsnr" v="196570" />
	</node>
	<node id="-906471" lat="64.9123027742" lon="11.1409194425">
		<tag k="name" v="Liantjønna" />
		<tag k="natural" v="water" />
		<tag k="ssr:stedsnr" v="776232" />
	</node>
	<node id="-906463" lat="64.9750833344" lon="11.0812249973">
		<tag k="name" v="Juvtjønna" />
		<tag k="natural" v="water" />
		<tag k="ssr:stedsnr" v="593627" />
	</node>
	<node id="-905438" lat="64.9155583335" lon="11.0515416579">
		<tag k="name" v="Klavavatnet" />
		<tag k="natural" v="water" />
		<tag k="ssr:stedsnr" v="864632" />
	</node>
	<node id="-905949" lat="64.9260749967" lon="11.0063083326">
		<tag k="name" v="Veitjønna" />
		<tag k="natural" v="water" />
		<tag k="ssr:stedsnr" v="593526" />
	</node>
	<node id="-906969" lat="64.8868666706" lon="10.8397555625">
		<tag k="name" v="Rundtjønna" />
		<tag k="natural" v="water" />
		<tag k="ssr:stedsnr" v="378936" />
	</node>
	<node id="-906456" lat="64.9111444489" lon="11.022141664">
		<tag k="name" v="Valdskifttjønna" />
		<tag k="natural" v="water" />
		<tag k="ssr:stedsnr" v="897532" />
	</node>
	<node id="-906453" lat="64.9332388853" lon="11.3187638938">
		<tag k="alt_name" v="Grønntjønna" />
		<tag k="name" v="Hesttjønna" />
		<tag k="natural" v="water" />
		<tag k="ssr:stedsnr" v="864181" />
	</node>
	<node id="-905420" lat="64.9104000039" lon="11.0138944373">
		<tag k="name" v="Botntjønna" />
		<tag k="natural" v="water" />
		<tag k="ssr:stedsnr" v="957548" />
	</node>
	<node id="-905928" lat="64.9144666682" lon="11.0284916638">
		<tag k="name" v="Svarthammarvatnet" />
		<tag k="natural" v="water" />
		<tag k="ssr:stedsnr" v="75624" />
	</node>
	<node id="-906700" lat="64.9067749991" lon="10.8045249956">
		<tag k="name" v="Syltavatnet" />
		<tag k="natural" v="water" />
		<tag k="ssr:stedsnr" v="621638" />
	</node>
	<node id="-905589" lat="64.9094583324" lon="11.1455638898">
		<tag k="name" v="Lomtjønna" />
		<tag k="natural" v="water" />
		<tag k="ssr:stedsnr" v="439571" />
	</node>
	<node id="-907955" lat="64.9104527813" lon="11.2089638839">
		<tag k="name" v="Grønntjønna" />
		<tag k="natural" v="water" />
		<tag k="ssr:stedsnr" v="412275" />
		<tag k="water" v="pond" />
	</node>
	<node id="-907954" lat="64.9137166698" lon="11.1418888855">
		<tag k="name" v="Gravlitjønna" />
		<tag k="natural" v="water" />
		<tag k="ssr:stedsnr" v="196545" />
	</node>
	<node id="-905393" lat="64.9334472249" lon="11.3398611037">
		<tag k="name" v="Elvåstjønna" />
		<tag k="natural" v="water" />
		<tag k="ssr:stedsnr" v="682276" />
	</node>
	<node id="-906413" lat="64.968366671" lon="11.1059305509">
		<tag k="name" v="Risskardtjønna" />
		<tag k="natural" v="water" />
		<tag k="ssr:stedsnr" v="533689" />
	</node>
	<node id="-906409" lat="64.9697388881" lon="11.0839277856">
		<tag k="name" v="Vassbukta" />
		<tag k="natural" v="bay" />
		<tag k="ssr:stedsnr" v="351669" />
	</node>
	<node id="-906523" lat="64.9296916642" lon="11.1301888966">
		<tag k="name" v="Stangringhopen" />
		<tag k="natural" v="water" />
		<tag k="ssr:stedsnr" v="135603" />
	</node>
	<node id="-905373" lat="64.9185055528" lon="11.1431999976">
		<tag k="name" v="Lissvatnet" />
		<tag k="natural" v="water" />
		<tag k="ssr:stedsnr" v="560613" />
	</node>
	<node id="-907928" lat="64.9445361137" lon="11.3625333384">
		<tag k="name" v="Hummulvatnet" />
		<tag k="natural" v="water" />
		<tag k="ssr:stedsnr" v="135203" />
	</node>
	<node id="-906973" lat="64.9054000041" lon="10.8947277843">
		<tag k="name" v="Tverrfjelltjønna" />
		<tag k="natural" v="water" />
		<tag k="ssr:stedsnr" v="593787" />
	</node>
	<node id="-906901" lat="64.8889833363" lon="10.9837027827">
		<tag k="alt_name" v="Kvernhusvatnet" />
		<tag k="name" v="Kvennhusvatnet" />
		<tag k="natural" v="water" />
		<tag k="ssr:stedsnr" v="439930" />
	</node>
	<node id="-906893" lat="64.8913749995" lon="10.8436527768">
		<tag k="name" v="Eian" />
		<tag k="natural" v="strait" />
		<tag k="ssr:stedsnr" v="439934" />
	</node>
	<node id="-906892" lat="64.9123027808" lon="11.1891555527">
		<tag k="name" v="Laugen" />
		<tag k="natural" v="water" />
		<tag k="ssr:stedsnr" v="472245" />
	</node>
	<node id="-906379" lat="64.9049305558" lon="10.9127222192">
		<tag k="name" v="Dalatjønna" />
		<tag k="natural" v="water" />
		<tag k="ssr:stedsnr" v="775832" />
	</node>
	<node id="-906887" lat="64.8978916694" lon="11.2550666722">
		<tag k="name" v="Hansvikbekken" />
		<tag k="ssr:stedsnr" v="776282" />
		<tag k="waterway" v="stream" />
	</node>
	<node id="-906370" lat="64.8984583333" lon="11.2446055487">
		<tag k="name" v="Moabekken" />
		<tag k="ssr:stedsnr" v="169292" />
		<tag k="waterway" v="stream" />
	</node>
	<node id="-907894" lat="64.9360249985" lon="11.1709750053">
		<tag k="name" v="Langvatnet" />
		<tag k="natural" v="water" />
		<tag k="ssr:stedsnr" v="135481" />
	</node>
	<node id="-906868" lat="64.8995972194" lon="11.1578694458">
		<tag k="name" v="Steinfjordelva" />
		<tag k="ssr:stedsnr" v="776284" />
		<tag k="waterway" v="stream" />
	</node>
	<node id="-906867" lat="64.8598555541" lon="11.0947861048">
		<tag k="name" v="Revstrandbekken" />
		<tag k="ssr:stedsnr" v="775890" />
		<tag k="waterway" v="stream" />
	</node>
	<node id="-905841" lat="64.9184749979" lon="11.2958694348">
		<tag k="name" v="Sørvatnet" />
		<tag k="natural" v="water" />
		<tag k="ssr:stedsnr" v="742004" />
	</node>
	<node id="-906861" lat="64.9244694471" lon="11.0419500081">
		<tag k="name" v="Stabbaslivatnet" />
		<tag k="natural" v="water" />
		<tag k="ssr:stedsnr" v="350540" />
	</node>
	<node id="-906343" lat="64.9191611109" lon="11.037922219">
		<tag k="name" v="Reborslitjønna" />
		<tag k="natural" v="water" />
		<tag k="ssr:stedsnr" v="135588" />
	</node>
	<node id="-905317" lat="64.8471638875" lon="11.1417416761">
		<tag k="name" v="Åkvikelva" />
		<tag k="ssr:stedsnr" v="695498" />
		<tag k="waterway" v="stream" />
	</node>
	<node id="-906340" lat="64.9668250022" lon="11.0826944538">
		<tag k="name" v="Lyngsnesvatnet" />
		<tag k="natural" v="water" />
		<tag k="ssr:stedsnr" v="257598" />
		<tag k="water" v="lake" />
	</node>
	<node id="-905827" lat="64.8872000011" lon="11.2732111022">
		<tag k="alt_name" v="Aunvatnet" />
		<tag k="name" v="Aunevatnet" />
		<tag k="natural" v="water" />
		<tag k="ssr:stedsnr" v="136091" />
	</node>
	<node id="-905310" lat="64.874924997" lon="11.1918166593">
		<tag k="name" v="Ryemsbekken" />
		<tag k="ssr:stedsnr" v="695497" />
		<tag k="waterway" v="stream" />
	</node>
	<node id="-905821" lat="64.9303999964" lon="10.9852111064">
		<tag k="name" v="Vassviktjønna" />
		<tag k="natural" v="water" />
		<tag k="ssr:stedsnr" v="715808" />
	</node>
	<node id="-905658" lat="64.9060222234" lon="11.1956583437">
		<tag k="name" v="Middagsfjellvatnet" />
		<tag k="natural" v="water" />
		<tag k="ssr:stedsnr" v="837309" />
	</node>
	<node id="-906314" lat="64.8983749998" lon="11.06098611">
		<tag k="name" v="Setnøyvatnet" />
		<tag k="natural" v="water" />
		<tag k="ssr:stedsnr" v="15911" />
	</node>
	<node id="-906823" lat="64.8537777782" lon="11.1767583334">
		<tag k="name" v="Ryemselva" />
		<tag k="ssr:stedsnr" v="452464" />
		<tag k="waterway" v="river" />
	</node>
	<node id="-905282" lat="64.8948805533" lon="11.0009305528">
		<tag k="name" v="Lødalsbekken" />
		<tag k="ssr:stedsnr" v="714517" />
		<tag k="waterway" v="stream" />
	</node>
	<node id="-905793" lat="64.8844861134" lon="10.840924997">
		<tag k="name" v="Lisstjønna" />
		<tag k="natural" v="water" />
		<tag k="ssr:stedsnr" v="864930" />
	</node>
	<node id="-907318" lat="64.874288893" lon="11.2513555605">
		<tag k="name" v="Storvatnet" />
		<tag k="natural" v="water" />
		<tag k="ssr:stedsnr" v="452524" />
	</node>
	<node id="-907826" lat="64.9706888854" lon="11.0619611209">
		<tag k="name" v="Latjønna" />
		<tag k="natural" v="water" />
		<tag k="ssr:stedsnr" v="958703" />
	</node>
	<node id="-907818" lat="64.896380557" lon="10.9132111083">
		<tag k="name" v="Dalabekken" />
		<tag k="ssr:stedsnr" v="593789" />
		<tag k="waterway" v="stream" />
	</node>
	<node id="-907815" lat="64.8681250036" lon="10.7934694456">
		<tag k="name" v="Svanatjønna" />
		<tag k="natural" v="water" />
		<tag k="ssr:stedsnr" v="742985" />
	</node>
	<node id="-906790" lat="64.9057999969" lon="11.2428805586">
		<tag k="name" v="Sildnestjønna" />
		<tag k="natural" v="water" />
		<tag k="ssr:stedsnr" v="925077" />
	</node>
	<node id="-905251" lat="64.9027861121" lon="11.1591250062">
		<tag k="name" v="Langvassbekken" />
		<tag k="ssr:stedsnr" v="715335" />
		<tag k="waterway" v="stream" />
	</node>
	<node id="-907294" lat="64.95634722" lon="11.1419305629">
		<tag k="name" v="Betnvatnet" />
		<tag k="natural" v="water" />
		<tag k="ssr:stedsnr" v="379511" />
	</node>
	<node id="-907801" lat="64.8964694408" lon="11.28034167">
		<tag k="name" v="Grønntjønna" />
		<tag k="natural" v="water" />
		<tag k="ssr:stedsnr" v="148480" />
		<tag k="water" v="pond" />
	</node>
	<node id="-907800" lat="64.8741472222" lon="11.1368249899">
		<tag k="name" v="Kvennhusfossen" />
		<tag k="natural" v="waterfall" />
		<tag k="ssr:stedsnr" v="350241" />
	</node>
	<node id="-905239" lat="64.9030444445" lon="10.8284111075">
		<tag k="name" v="Damskardvatnet" />
		<tag k="natural" v="water" />
		<tag k="ssr:stedsnr" v="196550" />
	</node>
	<node id="-905744" lat="64.8982500007" lon="11.2694999962">
		<tag k="name" v="Rottjønna" />
		<tag k="natural" v="water" />
		<tag k="ssr:stedsnr" v="439051" />
	</node>
	<node id="-905645" lat="64.9018944404" lon="10.8855388807">
		<tag k="name" v="Okstjønna" />
		<tag k="natural" v="water" />
		<tag k="ssr:stedsnr" v="897805" />
	</node>
	<node id="-905738" lat="64.9398805522" lon="11.1117388859">
		<tag k="name" v="Smiådalsvatnet" />
		<tag k="natural" v="water" />
		<tag k="ssr:stedsnr" v="257552" />
	</node>
	<node id="-906759" lat="64.944975" lon="11.0279999984">
		<tag k="name" v="Lomtjønna" />
		<tag k="natural" v="water" />
		<tag k="ssr:stedsnr" v="230633" />
	</node>
	<node id="-907782" lat="64.9429972246" lon="11.1626583327">
		<tag k="name" v="Kvennhusbekken" />
		<tag k="ssr:stedsnr" v="109284" />
		<tag k="waterway" v="stream" />
	</node>
</osm>
