<?xml version="1.0" encoding="UTF-8"?>
<osm generator="osmapis" version="0.6">
	<node id="-42688" lat="60.2923953052" lon="11.0468435983">
		<tag k="name" v="Viksvangen" />
		<tag k="ssr:date" v="2019-05-31" />
		<tag k="ssr:gruppe" v="veg" />
		<tag k="ssr:hovedgruppe" v="infrastruktur" />
		<tag k="ssr:stedsnr" v="1071345" />
		<tag k="ssr:type" v="adressenavn" />
	</node>
	<node id="-42687" lat="60.1626899799" lon="10.9922339378">
		<tag k="name" v="Kreklinglia" />
		<tag k="ssr:date" v="2019-05-31" />
		<tag k="ssr:gruppe" v="veg" />
		<tag k="ssr:hovedgruppe" v="infrastruktur" />
		<tag k="ssr:stedsnr" v="1071293" />
		<tag k="ssr:type" v="adressenavn" />
	</node>
	<node id="-42686" lat="60.2194872768" lon="11.0253634826">
		<tag k="name" v="Havrevegen" />
		<tag k="ssr:date" v="2019-05-31" />
		<tag k="ssr:gruppe" v="veg" />
		<tag k="ssr:hovedgruppe" v="infrastruktur" />
		<tag k="ssr:stedsnr" v="1071292" />
		<tag k="ssr:type" v="adressenavn" />
	</node>
	<node id="-42685" lat="60.1307397164" lon="11.0200476411">
		<tag k="name" v="Pesamostubben" />
		<tag k="ssr:date" v="2019-05-31" />
		<tag k="ssr:gruppe" v="veg" />
		<tag k="ssr:hovedgruppe" v="infrastruktur" />
		<tag k="ssr:stedsnr" v="1071289" />
		<tag k="ssr:type" v="adressenavn" />
	</node>
	<node id="-42684" lat="60.2300642111" lon="11.0218914784">
		<tag k="name" v="Trallegangen" />
		<tag k="ssr:date" v="2019-05-31" />
		<tag k="ssr:gruppe" v="veg" />
		<tag k="ssr:hovedgruppe" v="infrastruktur" />
		<tag k="ssr:stedsnr" v="1071285" />
		<tag k="ssr:type" v="adressenavn" />
	</node>
	<node id="-42683" lat="60.1358609906" lon="11.0119790635">
		<tag k="name" v="Tjernsbekksvingen" />
		<tag k="ssr:date" v="2019-05-31" />
		<tag k="ssr:gruppe" v="veg" />
		<tag k="ssr:hovedgruppe" v="infrastruktur" />
		<tag k="ssr:stedsnr" v="1070949" />
		<tag k="ssr:type" v="adressenavn" />
	</node>
	<node id="-42682" lat="60.2992880731" lon="11.0425150102">
		<tag k="name" v="Sollia" />
		<tag k="ssr:date" v="2019-05-31" />
		<tag k="ssr:gruppe" v="veg" />
		<tag k="ssr:hovedgruppe" v="infrastruktur" />
		<tag k="ssr:stedsnr" v="1071005" />
		<tag k="ssr:type" v="adressenavn" />
	</node>
	<node id="-42681" lat="60.227689508" lon="11.0200585356">
		<tag k="name" v="Pinnsvinvegen" />
		<tag k="ssr:date" v="2019-05-31" />
		<tag k="ssr:gruppe" v="veg" />
		<tag k="ssr:hovedgruppe" v="infrastruktur" />
		<tag k="ssr:stedsnr" v="1070776" />
		<tag k="ssr:type" v="adressenavn" />
	</node>
	<node id="-42680" lat="60.2272522021" lon="11.0870652636">
		<tag k="name" v="Ulvedalsvegen" />
		<tag k="ssr:date" v="2019-05-31" />
		<tag k="ssr:gruppe" v="veg" />
		<tag k="ssr:hovedgruppe" v="infrastruktur" />
		<tag k="ssr:stedsnr" v="1070609" />
		<tag k="ssr:type" v="adressenavn" />
	</node>
	<node id="-42679" lat="60.1324796412" lon="11.0213337176">
		<tag k="name" v="Elise Kolstads veg" />
		<tag k="ssr:date" v="2019-05-31" />
		<tag k="ssr:gruppe" v="veg" />
		<tag k="ssr:hovedgruppe" v="infrastruktur" />
		<tag k="ssr:stedsnr" v="1070298" />
		<tag k="ssr:type" v="adressenavn" />
	</node>
	<node id="-42678" lat="60.2538274143" lon="11.0573028769">
		<tag k="name" v="Furumoen" />
		<tag k="ssr:date" v="2019-05-31" />
		<tag k="ssr:gruppe" v="veg" />
		<tag k="ssr:hovedgruppe" v="infrastruktur" />
		<tag k="ssr:stedsnr" v="1070278" />
		<tag k="ssr:type" v="adressenavn" />
	</node>
	<node id="-42677" lat="60.2079081084" lon="10.9468536499">
		<tag k="name" v="Fåmyrsrøet" />
		<tag k="ssr:date" v="2019-05-31" />
		<tag k="ssr:gruppe" v="veg" />
		<tag k="ssr:hovedgruppe" v="infrastruktur" />
		<tag k="ssr:stedsnr" v="1070277" />
		<tag k="ssr:type" v="adressenavn" />
	</node>
	<node id="-42676" lat="60.209964649" lon="11.0788841622">
		<tag k="name" v="Heggvegen" />
		<tag k="ssr:date" v="2019-05-31" />
		<tag k="ssr:gruppe" v="veg" />
		<tag k="ssr:hovedgruppe" v="infrastruktur" />
		<tag k="ssr:stedsnr" v="1069817" />
		<tag k="ssr:type" v="adressenavn" />
	</node>
	<node id="-43987" lat="60.5908609473" lon="9.63819281559">
		<tag k="fixme" v="multiple name tags, choose one and add the other to alt_name" />
		<tag k="name" v="Austlandet;Østlandet" />
		<tag k="ssr:date" v="2018-01-09" />
		<tag k="ssr:gruppe" v="administrativeIndelinger" />
		<tag k="ssr:hovedgruppe" v="offentligAdministrasjon" />
		<tag k="ssr:stedsnr" v="974775" />
		<tag k="ssr:type" v="annenAdministrativInndeling" />
	</node>
	<node id="-42674" lat="60.1363042037" lon="11.0132522903">
		<tag k="name" v="Harstadbekken" />
		<tag k="ssr:date" v="2019-05-31" />
		<tag k="ssr:gruppe" v="veg" />
		<tag k="ssr:hovedgruppe" v="infrastruktur" />
		<tag k="ssr:stedsnr" v="1069835" />
		<tag k="ssr:type" v="adressenavn" />
	</node>
	<node id="-42675" lat="60.2696148815" lon="11.0423463348">
		<tag k="name" v="Kløvberget terrasse" />
		<tag k="ssr:date" v="2019-05-31" />
		<tag k="ssr:gruppe" v="veg" />
		<tag k="ssr:hovedgruppe" v="infrastruktur" />
		<tag k="ssr:stedsnr" v="1069745" />
		<tag k="ssr:type" v="adressenavn" />
	</node>
	<node id="-42864" lat="60.217066663" lon="11.0120027819">
		<tag k="name" v="Nannestad kommune" />
		<tag k="ssr:date" v="2016-05-10" />
		<tag k="ssr:gruppe" v="administrativeIndelinger" />
		<tag k="ssr:hovedgruppe" v="offentligAdministrasjon" />
		<tag k="ssr:stedsnr" v="84871" />
		<tag k="ssr:type" v="kommune" />
	</node>
	<node id="-42691" lat="60.1639905137" lon="10.989546144">
		<tag k="name" v="Kantarellringen" />
		<tag k="ssr:date" v="2019-05-31" />
		<tag k="ssr:gruppe" v="veg" />
		<tag k="ssr:hovedgruppe" v="infrastruktur" />
		<tag k="ssr:stedsnr" v="1071438" />
		<tag k="ssr:type" v="adressenavn" />
	</node>
	<node id="-42690" lat="60.165261435" lon="10.9908017494">
		<tag k="name" v="Feviksvingen" />
		<tag k="ssr:date" v="2019-05-31" />
		<tag k="ssr:gruppe" v="veg" />
		<tag k="ssr:hovedgruppe" v="infrastruktur" />
		<tag k="ssr:stedsnr" v="1071431" />
		<tag k="ssr:type" v="adressenavn" />
	</node>
	<node id="-42689" lat="60.165404754" lon="10.9899308586">
		<tag k="name" v="Blåbærsvingen" />
		<tag k="ssr:date" v="2019-05-31" />
		<tag k="ssr:gruppe" v="veg" />
		<tag k="ssr:hovedgruppe" v="infrastruktur" />
		<tag k="ssr:stedsnr" v="1071430" />
		<tag k="ssr:type" v="adressenavn" />
	</node>
</osm>
