<?xml version="1.0" encoding="UTF-8"?>
<osm version="0.6" generator="osmapis">
	<node lat="59.09755555678265" lon="9.062141668780061" id="-53077">
		<tag k="alt_name" v="Drangedal" />
		<tag k="name" v="Drangedal kommune" />
		<tag k="ssr:date" v="2020-01-06" />
		<tag k="ssr:gruppe" v="administrativeIndelinger" />
		<tag k="ssr:hovedgruppe" v="offentligAdministrasjon" />
		<tag k="ssr:stedsnr" v="813333" />
		<tag k="ssr:type" v="kommune" />
	</node>
	<node lat="59.055883352333495" lon="9.152311862622136" id="-53535">
		<tag k="name" v="Nedredalsveien" />
		<tag k="ssr:date" v="2019-12-27" />
		<tag k="ssr:gruppe" v="veg" />
		<tag k="ssr:hovedgruppe" v="infrastruktur" />
		<tag k="ssr:stedsnr" v="974183" />
		<tag k="ssr:type" v="adressenavn" />
	</node>
	<node lat="59.09977466042803" lon="9.050183650142818" id="-56863">
		<tag k="name" v="Mikkels vei" />
		<tag k="ssr:date" v="2019-12-27" />
		<tag k="ssr:gruppe" v="veg" />
		<tag k="ssr:hovedgruppe" v="infrastruktur" />
		<tag k="ssr:stedsnr" v="1048265" />
		<tag k="ssr:type" v="adressenavn" />
	</node>
	<node lat="59.09997142897062" lon="9.048707338043634" id="-56864">
		<tag k="name" v="Orreveien" />
		<tag k="ssr:date" v="2019-12-27" />
		<tag k="ssr:gruppe" v="veg" />
		<tag k="ssr:hovedgruppe" v="infrastruktur" />
		<tag k="ssr:stedsnr" v="1048267" />
		<tag k="ssr:type" v="adressenavn" />
	</node>
	<node lat="59.10077042708526" lon="9.0534915931628" id="-56865">
		<tag k="name" v="Elgveien" />
		<tag k="ssr:date" v="2019-12-27" />
		<tag k="ssr:gruppe" v="veg" />
		<tag k="ssr:hovedgruppe" v="infrastruktur" />
		<tag k="ssr:stedsnr" v="1048272" />
		<tag k="ssr:type" v="adressenavn" />
	</node>
	<node lat="59.09964670116754" lon="9.051570969800132" id="-56866">
		<tag k="name" v="Rådyrveien" />
		<tag k="ssr:date" v="2019-12-27" />
		<tag k="ssr:gruppe" v="veg" />
		<tag k="ssr:hovedgruppe" v="infrastruktur" />
		<tag k="ssr:stedsnr" v="1048274" />
		<tag k="ssr:type" v="adressenavn" />
	</node>
	<node lat="59.09095196082403" lon="9.057072459634142" id="-56887">
		<tag k="name" v="Furuveien" />
		<tag k="ssr:date" v="2019-12-27" />
		<tag k="ssr:gruppe" v="veg" />
		<tag k="ssr:hovedgruppe" v="infrastruktur" />
		<tag k="ssr:stedsnr" v="1048286" />
		<tag k="ssr:type" v="adressenavn" />
	</node>
	<node lat="59.09351206781562" lon="9.054750581405125" id="-56888">
		<tag k="name" v="Granveien" />
		<tag k="ssr:date" v="2019-12-27" />
		<tag k="ssr:gruppe" v="veg" />
		<tag k="ssr:hovedgruppe" v="infrastruktur" />
		<tag k="ssr:stedsnr" v="1048289" />
		<tag k="ssr:type" v="adressenavn" />
	</node>
	<node lat="59.095388755358655" lon="9.06448184545832" id="-56890">
		<tag k="name" v="Smedveien" />
		<tag k="ssr:date" v="2019-12-27" />
		<tag k="ssr:gruppe" v="veg" />
		<tag k="ssr:hovedgruppe" v="infrastruktur" />
		<tag k="ssr:stedsnr" v="1048295" />
		<tag k="ssr:type" v="adressenavn" />
	</node>
	<node lat="59.09970093268701" lon="9.06401867357964" id="-56892">
		<tag k="name" v="Hestehagen" />
		<tag k="ssr:date" v="2019-12-27" />
		<tag k="ssr:gruppe" v="veg" />
		<tag k="ssr:hovedgruppe" v="infrastruktur" />
		<tag k="ssr:stedsnr" v="1048301" />
		<tag k="ssr:type" v="adressenavn" />
	</node>
	<node lat="59.03085453621774" lon="9.282976233404165" id="-56893">
		<tag k="name" v="Lauvåsen" />
		<tag k="ssr:date" v="2019-12-27" />
		<tag k="ssr:gruppe" v="veg" />
		<tag k="ssr:hovedgruppe" v="infrastruktur" />
		<tag k="ssr:stedsnr" v="1048306" />
		<tag k="ssr:type" v="adressenavn" />
	</node>
	<node lat="59.09733827713752" lon="9.05264935012127" id="-56894">
		<tag k="name" v="Ulvekula" />
		<tag k="ssr:date" v="2019-12-27" />
		<tag k="ssr:gruppe" v="veg" />
		<tag k="ssr:hovedgruppe" v="infrastruktur" />
		<tag k="ssr:stedsnr" v="1048309" />
		<tag k="ssr:type" v="adressenavn" />
	</node>
	<node lat="59.09607899870002" lon="9.052303952802555" id="-56895">
		<tag k="name" v="Heireks vei" />
		<tag k="ssr:date" v="2019-12-27" />
		<tag k="ssr:gruppe" v="veg" />
		<tag k="ssr:hovedgruppe" v="infrastruktur" />
		<tag k="ssr:stedsnr" v="1048312" />
		<tag k="ssr:type" v="adressenavn" />
	</node>
	<node lat="59.09790980591674" lon="9.060363786432669" id="-56896">
		<tag k="name" v="Smibekkveien" />
		<tag k="ssr:date" v="2019-12-27" />
		<tag k="ssr:gruppe" v="veg" />
		<tag k="ssr:hovedgruppe" v="infrastruktur" />
		<tag k="ssr:stedsnr" v="1048315" />
		<tag k="ssr:type" v="adressenavn" />
	</node>
	<node lat="59.0971488288107" lon="9.056524649492793" id="-56897">
		<tag k="name" v="Skoleveien" />
		<tag k="ssr:date" v="2019-12-27" />
		<tag k="ssr:gruppe" v="veg" />
		<tag k="ssr:hovedgruppe" v="infrastruktur" />
		<tag k="ssr:stedsnr" v="1048318" />
		<tag k="ssr:type" v="adressenavn" />
	</node>
	<node lat="59.09883772220717" lon="9.063533102964133" id="-56898">
		<tag k="name" v="Stemmenveien" />
		<tag k="ssr:date" v="2019-12-27" />
		<tag k="ssr:gruppe" v="veg" />
		<tag k="ssr:hovedgruppe" v="infrastruktur" />
		<tag k="ssr:stedsnr" v="1048321" />
		<tag k="ssr:type" v="adressenavn" />
	</node>
	<node lat="59.09864173024216" lon="9.05950002052504" id="-56899">
		<tag k="name" v="Prestegårdsveien" />
		<tag k="ssr:date" v="2019-12-27" />
		<tag k="ssr:gruppe" v="veg" />
		<tag k="ssr:hovedgruppe" v="infrastruktur" />
		<tag k="ssr:stedsnr" v="1048323" />
		<tag k="ssr:type" v="adressenavn" />
	</node>
	<node lat="59.09767951827025" lon="9.05883926283243" id="-56900">
		<tag k="name" v="Kjørkeveien" />
		<tag k="ssr:date" v="2019-12-27" />
		<tag k="ssr:gruppe" v="veg" />
		<tag k="ssr:hovedgruppe" v="infrastruktur" />
		<tag k="ssr:stedsnr" v="1048327" />
		<tag k="ssr:type" v="adressenavn" />
	</node>
	<node lat="59.09662034920705" lon="9.062654174367616" id="-56902">
		<tag k="name" v="Gudbrandsveien" />
		<tag k="ssr:date" v="2019-12-27" />
		<tag k="ssr:gruppe" v="veg" />
		<tag k="ssr:hovedgruppe" v="infrastruktur" />
		<tag k="ssr:stedsnr" v="1048332" />
		<tag k="ssr:type" v="adressenavn" />
	</node>
	<node lat="59.09722261891016" lon="9.062652968666052" id="-56903">
		<tag k="name" v="Sofies gate" />
		<tag k="ssr:date" v="2019-12-27" />
		<tag k="ssr:gruppe" v="veg" />
		<tag k="ssr:hovedgruppe" v="infrastruktur" />
		<tag k="ssr:stedsnr" v="1048335" />
		<tag k="ssr:type" v="adressenavn" />
	</node>
	<node lat="59.095768847932774" lon="9.063090583310418" id="-56997">
		<tag k="name" v="Strandgata" />
		<tag k="ssr:date" v="2019-12-27" />
		<tag k="ssr:gruppe" v="veg" />
		<tag k="ssr:hovedgruppe" v="infrastruktur" />
		<tag k="ssr:stedsnr" v="1048047" />
		<tag k="ssr:type" v="adressenavn" />
	</node>
	<node lat="59.10057773300099" lon="9.075410024975566" id="-56998">
		<tag k="name" v="Kjeåsen" />
		<tag k="ssr:date" v="2019-12-27" />
		<tag k="ssr:gruppe" v="veg" />
		<tag k="ssr:hovedgruppe" v="infrastruktur" />
		<tag k="ssr:stedsnr" v="1048050" />
		<tag k="ssr:type" v="adressenavn" />
	</node>
	<node lat="59.09555424686976" lon="9.062632594340123" id="-56999">
		<tag k="name" v="Tørdalsveien" />
		<tag k="ssr:date" v="2019-12-27" />
		<tag k="ssr:gruppe" v="veg" />
		<tag k="ssr:hovedgruppe" v="infrastruktur" />
		<tag k="ssr:stedsnr" v="1048053" />
		<tag k="ssr:type" v="adressenavn" />
	</node>
	<node lat="58.97299576297451" lon="9.253438567056177" id="-57000">
		<tag k="name" v="Drangedalsveien" />
		<tag k="ssr:date" v="2019-12-27" />
		<tag k="ssr:gruppe" v="veg" />
		<tag k="ssr:hovedgruppe" v="infrastruktur" />
		<tag k="ssr:stedsnr" v="1048056" />
		<tag k="ssr:type" v="adressenavn" />
	</node>
	<node lat="59.09985824028737" lon="9.057484544137552" id="-57020">
		<tag k="name" v="Mjelkåsveien" />
		<tag k="ssr:date" v="2019-12-27" />
		<tag k="ssr:gruppe" v="veg" />
		<tag k="ssr:hovedgruppe" v="infrastruktur" />
		<tag k="ssr:stedsnr" v="1048276" />
		<tag k="ssr:type" v="adressenavn" />
	</node>
	<node lat="59.1003142407574" lon="9.053674106701013" id="-57021">
		<tag k="name" v="Tereveien" />
		<tag k="ssr:date" v="2019-12-27" />
		<tag k="ssr:gruppe" v="veg" />
		<tag k="ssr:hovedgruppe" v="infrastruktur" />
		<tag k="ssr:stedsnr" v="1048279" />
		<tag k="ssr:type" v="adressenavn" />
	</node>
	<node lat="59.093581133201376" lon="9.05313927928563" id="-57022">
		<tag k="name" v="Bjørkeveien" />
		<tag k="ssr:date" v="2019-12-27" />
		<tag k="ssr:gruppe" v="veg" />
		<tag k="ssr:hovedgruppe" v="infrastruktur" />
		<tag k="ssr:stedsnr" v="1048281" />
		<tag k="ssr:type" v="adressenavn" />
	</node>
	<node lat="59.09159350607287" lon="9.052931614433302" id="-57023">
		<tag k="name" v="Siljeveien" />
		<tag k="ssr:date" v="2019-12-27" />
		<tag k="ssr:gruppe" v="veg" />
		<tag k="ssr:hovedgruppe" v="infrastruktur" />
		<tag k="ssr:stedsnr" v="1048284" />
		<tag k="ssr:type" v="adressenavn" />
	</node>
</osm>
