<?xml version="1.0" encoding="UTF-8"?>
<osm version="0.6" generator="osmapis">
	<node lat="58.93454444555612" lon="9.06206944043468" id="-23920">
		<tag k="fixme" v="consider natural=peak for the most distinct mountains in the district" />
		<tag k="name" v="Storfjell" />
		<tag k="natural" v="hill" />
		<tag k="place" v="locality" />
		<tag k="ssr:date" v="2019-12-27" />
		<tag k="ssr:gruppe" v="høyder" />
		<tag k="ssr:hovedgruppe" v="terreng" />
		<tag k="ssr:stedsnr" v="852" />
		<tag k="ssr:type" v="fjell" />
	</node>
	<node lat="59.052819440660706" lon="9.196008339770733" id="-23921">
		<tag k="name" v="Oddnes" />
		<tag k="place" v="farm" />
		<tag k="ssr:date" v="2019-12-27" />
		<tag k="ssr:gruppe" v="gardsbebyggelse" />
		<tag k="ssr:hovedgruppe" v="bebyggelse" />
		<tag k="ssr:stedsnr" v="1090" />
		<tag k="ssr:type" v="bruk" />
	</node>
	<node lat="59.05903889313818" lon="9.129102785495116" id="-23922">
		<tag k="alt_name" v="Straume, østre" />
		<tag k="fixme" v="consider place=hamlet" />
		<tag k="name" v="Østre Straume" />
		<tag k="place" v="farm" />
		<tag k="ssr:date" v="2019-12-27" />
		<tag k="ssr:gruppe" v="gardsbebyggelse" />
		<tag k="ssr:hovedgruppe" v="bebyggelse" />
		<tag k="ssr:stedsnr" v="1096" />
		<tag k="ssr:type" v="gard" />
	</node>
	<node lat="59.05175278032166" lon="9.077847225439887" id="-23923">
		<tag k="fixme" v="consider natural=peak for the most distinct mountains in the district" />
		<tag k="name" v="Måbuåsen" />
		<tag k="natural" v="hill" />
		<tag k="place" v="locality" />
		<tag k="ssr:date" v="2019-12-27" />
		<tag k="ssr:gruppe" v="høyder" />
		<tag k="ssr:hovedgruppe" v="terreng" />
		<tag k="ssr:stedsnr" v="1098" />
		<tag k="ssr:type" v="ås" />
	</node>
	<node lat="59.0562361086217" lon="9.009099995399087" id="-23924">
		<tag k="alt_name" v="Solemvannet" />
		<tag k="name" v="Solemsvatnet" />
		<tag k="natural" v="water" />
		<tag k="ssr:date" v="2019-12-27" />
		<tag k="ssr:gruppe" v="stilleståendeVann" />
		<tag k="ssr:hovedgruppe" v="ferskvann" />
		<tag k="ssr:stedsnr" v="1099" />
		<tag k="ssr:type" v="tjern" />
	</node>
	<node lat="59.10850277433256" lon="8.946336108284777" id="-23925">
		<tag k="alt_name" v="Motjenn" />
		<tag k="name" v="Motjern" />
		<tag k="natural" v="water" />
		<tag k="ssr:date" v="2019-12-27" />
		<tag k="ssr:gruppe" v="stilleståendeVann" />
		<tag k="ssr:hovedgruppe" v="ferskvann" />
		<tag k="ssr:stedsnr" v="1239" />
		<tag k="ssr:type" v="tjern" />
	</node>
	<node lat="59.09948055995615" lon="8.953838896911737" id="-23926">
		<tag k="fixme" v="consider natural=peak for the most distinct mountains in the district" />
		<tag k="name" v="Linåsen" />
		<tag k="natural" v="hill" />
		<tag k="place" v="locality" />
		<tag k="ssr:date" v="2019-12-27" />
		<tag k="ssr:gruppe" v="høyder" />
		<tag k="ssr:hovedgruppe" v="terreng" />
		<tag k="ssr:stedsnr" v="1243" />
		<tag k="ssr:type" v="ås" />
	</node>
	<node lat="58.970652774942344" lon="9.070188886341514" id="-23927">
		<tag k="alt_name" v="Bjønnåsbekken" />
		<tag k="name" v="Bjørnåbekken" />
		<tag k="ssr:date" v="2019-12-27" />
		<tag k="ssr:gruppe" v="rennendeVann" />
		<tag k="ssr:hovedgruppe" v="ferskvann" />
		<tag k="ssr:stedsnr" v="992" />
		<tag k="ssr:type" v="bekk" />
		<tag k="waterway" v="stream" />
	</node>
	<node lat="59.04944722572407" lon="9.030166664933624" id="-23928">
		<tag k="alt_name" v="Eggdalstjenn" />
		<tag k="name" v="Eggdalstjørna" />
		<tag k="natural" v="water" />
		<tag k="ssr:date" v="2019-12-27" />
		<tag k="ssr:gruppe" v="stilleståendeVann" />
		<tag k="ssr:hovedgruppe" v="ferskvann" />
		<tag k="ssr:stedsnr" v="1107" />
		<tag k="ssr:type" v="tjern" />
	</node>
	<node lat="59.028741668982185" lon="8.884497225358412" id="-23929">
		<tag k="alt_name" v="Renskjerrheia" />
		<tag k="fixme" v="consider natural=peak for the most distinct mountains in the district" />
		<tag k="name" v="Reinskjerrheia" />
		<tag k="natural" v="hill" />
		<tag k="place" v="locality" />
		<tag k="ssr:date" v="2019-12-27" />
		<tag k="ssr:gruppe" v="høyder" />
		<tag k="ssr:hovedgruppe" v="terreng" />
		<tag k="ssr:stedsnr" v="1112" />
		<tag k="ssr:type" v="ås" />
	</node>
	<node lat="59.08959999737193" lon="9.119252777639755" id="-23930">
		<tag k="alt_name" v="Lirostjenn" />
		<tag k="name" v="Lirostjern" />
		<tag k="natural" v="water" />
		<tag k="ssr:date" v="2019-12-27" />
		<tag k="ssr:gruppe" v="stilleståendeVann" />
		<tag k="ssr:hovedgruppe" v="ferskvann" />
		<tag k="ssr:stedsnr" v="1144" />
		<tag k="ssr:type" v="tjern" />
	</node>
	<node lat="59.0931472222409" lon="9.097608340528177" id="-23931">
		<tag k="fixme" v="consider natural=peak for the most distinct mountains in the district" />
		<tag k="name" v="Middagsheia" />
		<tag k="natural" v="hill" />
		<tag k="place" v="locality" />
		<tag k="ssr:date" v="2019-12-27" />
		<tag k="ssr:gruppe" v="høyder" />
		<tag k="ssr:hovedgruppe" v="terreng" />
		<tag k="ssr:stedsnr" v="1147" />
		<tag k="ssr:type" v="ås" />
	</node>
	<node lat="59.079816662493506" lon="8.966252773969973" id="-23932">
		<tag k="fixme" v="consider natural=peak for the most distinct mountains in the district" />
		<tag k="name" v="Skreddalsheia" />
		<tag k="natural" v="hill" />
		<tag k="place" v="locality" />
		<tag k="ssr:date" v="2019-12-27" />
		<tag k="ssr:gruppe" v="høyder" />
		<tag k="ssr:hovedgruppe" v="terreng" />
		<tag k="ssr:stedsnr" v="1154" />
		<tag k="ssr:type" v="ås" />
	</node>
	<node lat="59.19269166592496" lon="9.011013883150504" id="-23933">
		<tag k="alt_name" v="Deilknatten" />
		<tag k="fixme" v="consider natural=peak for the most distinct mountains in the district" />
		<tag k="name" v="Deildalsknuten" />
		<tag k="natural" v="hill" />
		<tag k="place" v="locality" />
		<tag k="ssr:date" v="2019-12-27" />
		<tag k="ssr:gruppe" v="høyder" />
		<tag k="ssr:hovedgruppe" v="terreng" />
		<tag k="ssr:stedsnr" v="1320" />
		<tag k="ssr:type" v="ås" />
	</node>
	<node lat="59.16362500127753" lon="8.976574995162707" id="-23934">
		<tag k="alt_name" v="Våletjenna" />
		<tag k="name" v="Våletjern" />
		<tag k="natural" v="water" />
		<tag k="ssr:date" v="2019-12-27" />
		<tag k="ssr:gruppe" v="stilleståendeVann" />
		<tag k="ssr:hovedgruppe" v="ferskvann" />
		<tag k="ssr:stedsnr" v="1291" />
		<tag k="ssr:type" v="tjern" />
	</node>
	<node lat="59.07792778225989" lon="8.778022218453206" id="-23935">
		<tag k="name" v="Dalen" />
		<tag k="place" v="locality" />
		<tag k="ssr:date" v="2019-12-27" />
		<tag k="ssr:gruppe" v="gardsbebyggelse" />
		<tag k="ssr:hovedgruppe" v="bebyggelse" />
		<tag k="ssr:stedsnr" v="1623" />
		<tag k="ssr:type" v="byggForJordbrukFiskeOgFangst" />
	</node>
	<node lat="59.243863887629736" lon="8.918666674401265" id="-23936">
		<tag k="name" v="Dalsbu" />
		<tag k="place" v="locality" />
		<tag k="ssr:date" v="2019-12-27" />
		<tag k="ssr:gruppe" v="gardsbebyggelse" />
		<tag k="ssr:hovedgruppe" v="bebyggelse" />
		<tag k="ssr:stedsnr" v="1390" />
		<tag k="ssr:type" v="byggForJordbrukFiskeOgFangst" />
	</node>
	<node lat="59.13392500023387" lon="8.812030554822288" id="-23937">
		<tag k="name" v="Skarveberget" />
		<tag k="natural" v="hill" />
		<tag k="place" v="locality" />
		<tag k="ssr:date" v="2019-12-27" />
		<tag k="ssr:gruppe" v="høyder" />
		<tag k="ssr:hovedgruppe" v="terreng" />
		<tag k="ssr:stedsnr" v="1701" />
		<tag k="ssr:type" v="berg" />
	</node>
	<node lat="59.15154999870172" lon="8.803272221022876" id="-23938">
		<tag k="name" v="Åsheim" />
		<tag k="place" v="farm" />
		<tag k="ssr:date" v="2019-12-27" />
		<tag k="ssr:gruppe" v="gardsbebyggelse" />
		<tag k="ssr:hovedgruppe" v="bebyggelse" />
		<tag k="ssr:stedsnr" v="1732" />
		<tag k="ssr:type" v="bruk" />
	</node>
	<node lat="59.22537221861781" lon="8.666530561337723" id="-23939">
		<tag k="name" v="Holmane" />
		<tag k="place" v="farm" />
		<tag k="ssr:date" v="2019-12-27" />
		<tag k="ssr:gruppe" v="gardsbebyggelse" />
		<tag k="ssr:hovedgruppe" v="bebyggelse" />
		<tag k="ssr:stedsnr" v="1930" />
		<tag k="ssr:type" v="bruk" />
	</node>
	<node lat="59.18295833399193" lon="8.725786118707603" id="-23940">
		<tag k="name" v="Langmyr" />
		<tag k="natural" v="wetland" />
		<tag k="ssr:date" v="2019-12-27" />
		<tag k="ssr:gruppe" v="våtmark" />
		<tag k="ssr:hovedgruppe" v="markslag" />
		<tag k="ssr:stedsnr" v="1804" />
		<tag k="ssr:type" v="myr" />
	</node>
	<node lat="59.1798138926166" lon="8.747944448024148" id="-23941">
		<tag k="alt_name" v="Heftetjenn" />
		<tag k="name" v="Hettetjørn" />
		<tag k="natural" v="water" />
		<tag k="ssr:date" v="2019-12-27" />
		<tag k="ssr:gruppe" v="stilleståendeVann" />
		<tag k="ssr:hovedgruppe" v="ferskvann" />
		<tag k="ssr:stedsnr" v="1807" />
		<tag k="ssr:type" v="tjern" />
	</node>
	<node lat="59.192055558481464" lon="8.80280276949666" id="-23942">
		<tag k="alt_name" v="Lohne buhaugen" />
		<tag k="name" v="Buhaug" />
		<tag k="place" v="farm" />
		<tag k="ssr:date" v="2019-12-27" />
		<tag k="ssr:gruppe" v="gardsbebyggelse" />
		<tag k="ssr:hovedgruppe" v="bebyggelse" />
		<tag k="ssr:stedsnr" v="1830" />
		<tag k="ssr:type" v="bruk" />
	</node>
	<node lat="59.045205554634144" lon="9.343324997273012" id="-23943">
		<tag k="alt_name" v="Spirheia" />
		<tag k="fixme" v="consider natural=peak for the most distinct mountains in the district" />
		<tag k="name" v="Spireheia" />
		<tag k="natural" v="hill" />
		<tag k="place" v="locality" />
		<tag k="ssr:date" v="2019-12-27" />
		<tag k="ssr:gruppe" v="høyder" />
		<tag k="ssr:hovedgruppe" v="terreng" />
		<tag k="ssr:stedsnr" v="1833" />
		<tag k="ssr:type" v="ås" />
	</node>
	<node lat="58.95397777638954" lon="9.150813889094652" id="-23944">
		<tag k="fixme" v="consider natural=peak for the most distinct mountains in the district" />
		<tag k="name" v="Hommansfjellet" />
		<tag k="natural" v="hill" />
		<tag k="place" v="locality" />
		<tag k="ssr:date" v="2019-12-27" />
		<tag k="ssr:gruppe" v="høyder" />
		<tag k="ssr:hovedgruppe" v="terreng" />
		<tag k="ssr:stedsnr" v="1898" />
		<tag k="ssr:type" v="ås" />
	</node>
	<node lat="58.96257500429273" lon="9.179750002740162" id="-23945">
		<tag k="alt_name" v="Søgardsheia" />
		<tag k="fixme" v="consider natural=peak for the most distinct mountains in the district" />
		<tag k="name" v="Sørgardsheia" />
		<tag k="natural" v="hill" />
		<tag k="place" v="locality" />
		<tag k="ssr:date" v="2019-12-27" />
		<tag k="ssr:gruppe" v="høyder" />
		<tag k="ssr:hovedgruppe" v="terreng" />
		<tag k="ssr:stedsnr" v="1899" />
		<tag k="ssr:type" v="ås" />
	</node>
	<node lat="59.140708329714315" lon="9.087727780436405" id="-23946">
		<tag k="alt_name" v="Glisjevannet" />
		<tag k="name" v="Glitsjøen" />
		<tag k="natural" v="water" />
		<tag k="ssr:date" v="2019-12-27" />
		<tag k="ssr:gruppe" v="stilleståendeVann" />
		<tag k="ssr:hovedgruppe" v="ferskvann" />
		<tag k="ssr:stedsnr" v="2314" />
		<tag k="ssr:type" v="tjern" />
	</node>
	<node lat="59.14197499943262" lon="9.194958330774519" id="-23947">
		<tag k="alt_name" v="Store Augusttjenna" />
		<tag k="name" v="Augusttjørna" />
		<tag k="natural" v="water" />
		<tag k="ssr:date" v="2019-12-27" />
		<tag k="ssr:gruppe" v="stilleståendeVann" />
		<tag k="ssr:hovedgruppe" v="ferskvann" />
		<tag k="ssr:stedsnr" v="2323" />
		<tag k="ssr:type" v="tjern" />
	</node>
	<node lat="59.01900833264313" lon="8.776738887424731" id="-23948">
		<tag k="name" v="Vølstadøya" />
		<tag k="place" v="islet" />
		<tag k="ssr:date" v="2019-12-27" />
		<tag k="ssr:gruppe" v="ferskvannskontur" />
		<tag k="ssr:hovedgruppe" v="ferskvann" />
		<tag k="ssr:stedsnr" v="2476" />
		<tag k="ssr:type" v="holme" />
	</node>
	<node lat="59.0269777745884" lon="8.829616665465212" id="-23949">
		<tag k="alt_name" v="Støylvann" />
		<tag k="name" v="Stølevatnet" />
		<tag k="natural" v="water" />
		<tag k="ssr:date" v="2019-12-27" />
		<tag k="ssr:gruppe" v="stilleståendeVann" />
		<tag k="ssr:hovedgruppe" v="ferskvann" />
		<tag k="ssr:stedsnr" v="2481" />
		<tag k="ssr:type" v="tjern" />
	</node>
	<node lat="59.0674305531515" lon="8.721158328348448" id="-23950">
		<tag k="name" v="Langmyrhovet" />
		<tag k="place" v="isolated_dwelling" />
		<tag k="ssr:date" v="2019-12-27" />
		<tag k="ssr:gruppe" v="bolighus" />
		<tag k="ssr:hovedgruppe" v="bebyggelse" />
		<tag k="ssr:stedsnr" v="2605" />
		<tag k="ssr:type" v="fritidsbolig" />
	</node>
	<node lat="59.26796110747223" lon="8.789677775014013" id="-23951">
		<tag k="name" v="Løkanbekken" />
		<tag k="ssr:date" v="2019-12-27" />
		<tag k="ssr:gruppe" v="rennendeVann" />
		<tag k="ssr:hovedgruppe" v="ferskvann" />
		<tag k="ssr:stedsnr" v="2526" />
		<tag k="ssr:type" v="bekk" />
		<tag k="waterway" v="stream" />
	</node>
	<node lat="59.07146111188148" lon="8.728119450600952" id="-23952">
		<tag k="alt_name" v="Hegnemyra" />
		<tag k="name" v="Hegnemyrane" />
		<tag k="natural" v="wetland" />
		<tag k="ssr:date" v="2019-12-27" />
		<tag k="ssr:gruppe" v="våtmark" />
		<tag k="ssr:hovedgruppe" v="markslag" />
		<tag k="ssr:stedsnr" v="2586" />
		<tag k="ssr:type" v="myr" />
	</node>
	<node lat="59.077450000997" lon="8.769036105498483" id="-23953">
		<tag k="name" v="Bakkane" />
		<tag k="natural" v="slope" />
		<tag k="place" v="locality" />
		<tag k="ssr:date" v="2019-12-27" />
		<tag k="ssr:gruppe" v="skråninger" />
		<tag k="ssr:hovedgruppe" v="terreng" />
		<tag k="ssr:stedsnr" v="2589" />
		<tag k="ssr:type" v="bakke" />
	</node>
	<node lat="59.0761583349593" lon="8.728972216843319" id="-23954">
		<tag k="fixme" v="consider natural=peak for the most distinct mountains in the district" />
		<tag k="name" v="Osliknatten" />
		<tag k="natural" v="hill" />
		<tag k="place" v="locality" />
		<tag k="ssr:date" v="2019-12-27" />
		<tag k="ssr:gruppe" v="høyder" />
		<tag k="ssr:hovedgruppe" v="terreng" />
		<tag k="ssr:stedsnr" v="2595" />
		<tag k="ssr:type" v="ås" />
	</node>
	<node lat="59.29022777798469" lon="8.585233331672084" id="-23955">
		<tag k="alt_name" v="Grytedalsklemmen" />
		<tag k="name" v="Trengslet" />
		<tag k="natural" v="valley" />
		<tag k="place" v="locality" />
		<tag k="ssr:date" v="2019-12-27" />
		<tag k="ssr:gruppe" v="senkninger" />
		<tag k="ssr:hovedgruppe" v="terreng" />
		<tag k="ssr:stedsnr" v="2731" />
		<tag k="ssr:type" v="dal" />
	</node>
	<node lat="59.213280556796285" lon="8.720772215570465" id="-23956">
		<tag k="alt_name" v="Lien" />
		<tag k="name" v="Lia" />
		<tag k="place" v="farm" />
		<tag k="ssr:date" v="2019-12-27" />
		<tag k="ssr:gruppe" v="gardsbebyggelse" />
		<tag k="ssr:hovedgruppe" v="bebyggelse" />
		<tag k="ssr:stedsnr" v="2905" />
		<tag k="ssr:type" v="bruk" />
	</node>
	<node lat="59.243686113003704" lon="8.59578333696382" id="-23957">
		<tag k="alt_name" v="Kveven" />
		<tag k="name" v="Kvæven" />
		<tag k="natural" v="valley" />
		<tag k="place" v="locality" />
		<tag k="ssr:date" v="2019-12-27" />
		<tag k="ssr:gruppe" v="senkninger" />
		<tag k="ssr:hovedgruppe" v="terreng" />
		<tag k="ssr:stedsnr" v="2981" />
		<tag k="ssr:type" v="dal" />
	</node>
	<node lat="58.9548111140109" lon="9.1572972308529" id="-23958">
		<tag k="name" v="Diplan" />
		<tag k="natural" v="wetland" />
		<tag k="ssr:date" v="2019-12-27" />
		<tag k="ssr:gruppe" v="våtmark" />
		<tag k="ssr:hovedgruppe" v="markslag" />
		<tag k="ssr:stedsnr" v="231662" />
		<tag k="ssr:type" v="myr" />
	</node>
	<node lat="59.03919999730047" lon="9.301638894732546" id="-23959">
		<tag k="name" v="Kvennhusbukta" />
		<tag k="natural" v="bay" />
		<tag k="ssr:date" v="2019-12-27" />
		<tag k="ssr:gruppe" v="ferskvannskontur" />
		<tag k="ssr:hovedgruppe" v="ferskvann" />
		<tag k="ssr:stedsnr" v="39501" />
		<tag k="ssr:type" v="vik" />
	</node>
	<node lat="58.92028888496236" lon="9.12459721631677" id="-23960">
		<tag k="name" v="Hagen" />
		<tag k="natural" v="slope" />
		<tag k="place" v="locality" />
		<tag k="ssr:date" v="2019-12-27" />
		<tag k="ssr:gruppe" v="skråninger" />
		<tag k="ssr:hovedgruppe" v="terreng" />
		<tag k="ssr:stedsnr" v="39461" />
		<tag k="ssr:type" v="li" />
	</node>
	<node lat="58.93291110861213" lon="9.073536105619645" id="-23961">
		<tag k="fixme" v="consider natural=peak for the most distinct mountains in the district" />
		<tag k="name" v="Barlindknutane" />
		<tag k="natural" v="hill" />
		<tag k="place" v="locality" />
		<tag k="ssr:date" v="2019-12-27" />
		<tag k="ssr:gruppe" v="høyder" />
		<tag k="ssr:hovedgruppe" v="terreng" />
		<tag k="ssr:stedsnr" v="39875" />
		<tag k="ssr:type" v="ås" />
	</node>
	<node lat="58.91969444293852" lon="9.144897213615849" id="-23962">
		<tag k="name" v="Kvennhusfossen" />
		<tag k="place" v="locality" />
		<tag k="ssr:date" v="2019-12-27" />
		<tag k="ssr:gruppe" v="kulturminner" />
		<tag k="ssr:hovedgruppe" v="kultur" />
		<tag k="ssr:stedsnr" v="39876" />
		<tag k="ssr:type" v="annenKulturdetalj" />
	</node>
	<node lat="59.002972221923855" lon="9.222141669097876" id="-23963">
		<tag k="name" v="Berøyskotet" />
		<tag k="place" v="locality" />
		<tag k="ssr:date" v="2019-12-27" />
		<tag k="ssr:gruppe" v="bartFjell" />
		<tag k="ssr:hovedgruppe" v="markslag" />
		<tag k="ssr:stedsnr" v="40057" />
		<tag k="ssr:type" v="fjellIDagen" />
	</node>
	<node lat="58.993599998549264" lon="9.264261108019378" id="-23964">
		<tag k="name" v="Tangen" />
		<tag k="natural" v="cape" />
		<tag k="ssr:date" v="2019-12-27" />
		<tag k="ssr:gruppe" v="ferskvannskontur" />
		<tag k="ssr:hovedgruppe" v="ferskvann" />
		<tag k="ssr:stedsnr" v="40069" />
		<tag k="ssr:type" v="nes" />
	</node>
	<node lat="58.996266669284566" lon="8.857372226636013" id="-23965">
		<tag k="name" v="Østre Haglåslia" />
		<tag k="natural" v="slope" />
		<tag k="place" v="locality" />
		<tag k="ssr:date" v="2019-12-27" />
		<tag k="ssr:gruppe" v="skråninger" />
		<tag k="ssr:hovedgruppe" v="terreng" />
		<tag k="ssr:stedsnr" v="40157" />
		<tag k="ssr:type" v="li" />
	</node>
	<node lat="59.118461110216415" lon="9.125177781135553" id="-23966">
		<tag k="name" v="Steindalen" />
		<tag k="natural" v="valley" />
		<tag k="place" v="locality" />
		<tag k="ssr:date" v="2019-12-27" />
		<tag k="ssr:gruppe" v="senkninger" />
		<tag k="ssr:hovedgruppe" v="terreng" />
		<tag k="ssr:stedsnr" v="40319" />
		<tag k="ssr:type" v="dal" />
	</node>
	<node lat="58.89565555530891" lon="9.144072225499684" id="-23967">
		<tag k="name" v="Grasåskjerr" />
		<tag k="natural" v="wetland" />
		<tag k="ssr:date" v="2019-12-27" />
		<tag k="ssr:gruppe" v="våtmark" />
		<tag k="ssr:hovedgruppe" v="markslag" />
		<tag k="ssr:stedsnr" v="40361" />
		<tag k="ssr:type" v="myr" />
	</node>
	<node lat="59.21250555905962" lon="8.794627782827792" id="-23968">
		<tag k="name" v="Salvesrensle" />
		<tag k="place" v="locality" />
		<tag k="ssr:date" v="2019-12-27" />
		<tag k="ssr:gruppe" v="vegetasjon" />
		<tag k="ssr:hovedgruppe" v="markslag" />
		<tag k="ssr:stedsnr" v="237001" />
		<tag k="ssr:type" v="skog" />
	</node>
	<node lat="59.0878277786415" lon="9.164347224570804" id="-23969">
		<tag k="name" v="Mannheim" />
		<tag k="place" v="locality" />
		<tag k="ssr:date" v="2019-12-27" />
		<tag k="ssr:gruppe" v="kulturminner" />
		<tag k="ssr:hovedgruppe" v="kultur" />
		<tag k="ssr:stedsnr" v="40267" />
		<tag k="ssr:type" v="annenKulturdetalj" />
	</node>
	<node lat="59.22745278086161" lon="8.627122226694434" id="-23970">
		<tag k="name" v="Speldalsliane" />
		<tag k="place" v="locality" />
		<tag k="ssr:date" v="2019-12-27" />
		<tag k="ssr:gruppe" v="vegetasjon" />
		<tag k="ssr:hovedgruppe" v="markslag" />
		<tag k="ssr:stedsnr" v="40415" />
		<tag k="ssr:type" v="skog" />
	</node>
	<node lat="59.22930555891816" lon="8.639816658532455" id="-23971">
		<tag k="name" v="Skarkedalen" />
		<tag k="natural" v="valley" />
		<tag k="place" v="locality" />
		<tag k="ssr:date" v="2019-12-27" />
		<tag k="ssr:gruppe" v="senkninger" />
		<tag k="ssr:hovedgruppe" v="terreng" />
		<tag k="ssr:stedsnr" v="40419" />
		<tag k="ssr:type" v="dal" />
	</node>
	<node lat="59.229324997405286" lon="8.634805561573405" id="-23972">
		<tag k="name" v="Grasdalen" />
		<tag k="natural" v="valley" />
		<tag k="place" v="locality" />
		<tag k="ssr:date" v="2019-12-27" />
		<tag k="ssr:gruppe" v="senkninger" />
		<tag k="ssr:hovedgruppe" v="terreng" />
		<tag k="ssr:stedsnr" v="40421" />
		<tag k="ssr:type" v="dal" />
	</node>
	<node lat="58.967122220227765" lon="9.223777780625008" id="-23973">
		<tag k="name" v="Osmundshei" />
		<tag k="natural" v="hill" />
		<tag k="place" v="locality" />
		<tag k="ssr:date" v="2019-12-27" />
		<tag k="ssr:gruppe" v="høyder" />
		<tag k="ssr:hovedgruppe" v="terreng" />
		<tag k="ssr:stedsnr" v="40501" />
		<tag k="ssr:type" v="hei" />
	</node>
	<node lat="58.982269448261206" lon="9.128927771685856" id="-23974">
		<tag k="name" v="Stormyrdalen" />
		<tag k="natural" v="valley" />
		<tag k="place" v="locality" />
		<tag k="ssr:date" v="2019-12-27" />
		<tag k="ssr:gruppe" v="senkninger" />
		<tag k="ssr:hovedgruppe" v="terreng" />
		<tag k="ssr:stedsnr" v="40574" />
		<tag k="ssr:type" v="dal" />
	</node>
	<node lat="59.18047222331446" lon="9.007205547568969" id="-23975">
		<tag k="name" v="Postmyr" />
		<tag k="natural" v="wetland" />
		<tag k="ssr:date" v="2019-12-27" />
		<tag k="ssr:gruppe" v="våtmark" />
		<tag k="ssr:hovedgruppe" v="markslag" />
		<tag k="ssr:stedsnr" v="40577" />
		<tag k="ssr:type" v="myr" />
	</node>
	<node lat="59.1755000019566" lon="9.054283337402039" id="-23976">
		<tag k="name" v="Spådalen" />
		<tag k="natural" v="valley" />
		<tag k="place" v="locality" />
		<tag k="ssr:date" v="2019-12-27" />
		<tag k="ssr:gruppe" v="senkninger" />
		<tag k="ssr:hovedgruppe" v="terreng" />
		<tag k="ssr:stedsnr" v="40580" />
		<tag k="ssr:type" v="dal" />
	</node>
	<node lat="59.185513889693226" lon="9.049911114646605" id="-23977">
		<tag k="name" v="Saumyrdalen" />
		<tag k="natural" v="valley" />
		<tag k="place" v="locality" />
		<tag k="ssr:date" v="2019-12-27" />
		<tag k="ssr:gruppe" v="senkninger" />
		<tag k="ssr:hovedgruppe" v="terreng" />
		<tag k="ssr:stedsnr" v="40585" />
		<tag k="ssr:type" v="dal" />
	</node>
	<node lat="59.107972223389815" lon="9.218425004698299" id="-23978">
		<tag k="name" v="Jensdal" />
		<tag k="natural" v="valley" />
		<tag k="place" v="locality" />
		<tag k="ssr:date" v="2019-12-27" />
		<tag k="ssr:gruppe" v="senkninger" />
		<tag k="ssr:hovedgruppe" v="terreng" />
		<tag k="ssr:stedsnr" v="40701" />
		<tag k="ssr:type" v="dal" />
	</node>
	<node lat="59.100672225319386" lon="8.986744445625813" id="-23979">
		<tag k="name" v="Kålhageåsen" />
		<tag k="place" v="locality" />
		<tag k="ssr:date" v="2019-12-27" />
		<tag k="ssr:gruppe" v="vegetasjon" />
		<tag k="ssr:hovedgruppe" v="markslag" />
		<tag k="ssr:stedsnr" v="40710" />
		<tag k="ssr:type" v="skog" />
	</node>
	<node lat="59.104358330545246" lon="8.950855562564824" id="-23980">
		<tag k="name" v="Grantangen" />
		<tag k="natural" v="cape" />
		<tag k="ssr:date" v="2019-12-27" />
		<tag k="ssr:gruppe" v="ferskvannskontur" />
		<tag k="ssr:hovedgruppe" v="ferskvann" />
		<tag k="ssr:stedsnr" v="40721" />
		<tag k="ssr:type" v="nes" />
	</node>
	<node lat="59.09801666253196" lon="9.188066658045603" id="-23981">
		<tag k="fixme" v="consider natural=peak for the most distinct mountains in the district" />
		<tag k="name" v="Lille Maurkollen" />
		<tag k="natural" v="hill" />
		<tag k="place" v="locality" />
		<tag k="ssr:date" v="2019-12-27" />
		<tag k="ssr:gruppe" v="høyder" />
		<tag k="ssr:hovedgruppe" v="terreng" />
		<tag k="ssr:stedsnr" v="40722" />
		<tag k="ssr:type" v="ås" />
	</node>
	<node lat="59.02559722116525" lon="9.34923332509946" id="-23982">
		<tag k="name" v="Skarelvholet" />
		<tag k="place" v="locality" />
		<tag k="ssr:date" v="2019-12-27" />
		<tag k="ssr:gruppe" v="bolighus" />
		<tag k="ssr:hovedgruppe" v="bebyggelse" />
		<tag k="ssr:stedsnr" v="40760" />
		<tag k="ssr:type" v="gammelBosettingsplass" />
	</node>
	<node lat="58.98812221906631" lon="9.140538896957148" id="-23983">
		<tag k="name" v="Østre Stormyr" />
		<tag k="natural" v="wetland" />
		<tag k="ssr:date" v="2019-12-27" />
		<tag k="ssr:gruppe" v="våtmark" />
		<tag k="ssr:hovedgruppe" v="markslag" />
		<tag k="ssr:stedsnr" v="40602" />
		<tag k="ssr:type" v="myr" />
	</node>
	<node lat="59.048577777332476" lon="8.807922215902668" id="-23984">
		<tag k="name" v="Jonskås" />
		<tag k="natural" v="wetland" />
		<tag k="ssr:date" v="2019-12-27" />
		<tag k="ssr:gruppe" v="våtmark" />
		<tag k="ssr:hovedgruppe" v="markslag" />
		<tag k="ssr:stedsnr" v="40612" />
		<tag k="ssr:type" v="myr" />
	</node>
	<node lat="59.03716944675635" lon="8.826594450043832" id="-23985">
		<tag k="name" v="Blymyrskaret" />
		<tag k="place" v="locality" />
		<tag k="ssr:date" v="2019-12-27" />
		<tag k="ssr:gruppe" v="vegetasjon" />
		<tag k="ssr:hovedgruppe" v="markslag" />
		<tag k="ssr:stedsnr" v="40620" />
		<tag k="ssr:type" v="skog" />
	</node>
	<node lat="59.12072499786266" lon="9.211872230410957" id="-23986">
		<tag k="name" v="Spirmyra" />
		<tag k="natural" v="wetland" />
		<tag k="ssr:date" v="2019-12-27" />
		<tag k="ssr:gruppe" v="våtmark" />
		<tag k="ssr:hovedgruppe" v="markslag" />
		<tag k="ssr:stedsnr" v="40672" />
		<tag k="ssr:type" v="myr" />
	</node>
	<node lat="59.12221388832796" lon="9.206388884446477" id="-23987">
		<tag k="name" v="Tverrmyra" />
		<tag k="natural" v="wetland" />
		<tag k="ssr:date" v="2019-12-27" />
		<tag k="ssr:gruppe" v="våtmark" />
		<tag k="ssr:hovedgruppe" v="markslag" />
		<tag k="ssr:stedsnr" v="40674" />
		<tag k="ssr:type" v="myr" />
	</node>
	<node lat="59.111400000728246" lon="8.982602780859912" id="-23988">
		<tag k="name" v="Geitryggmyra" />
		<tag k="natural" v="wetland" />
		<tag k="ssr:date" v="2019-12-27" />
		<tag k="ssr:gruppe" v="våtmark" />
		<tag k="ssr:hovedgruppe" v="markslag" />
		<tag k="ssr:stedsnr" v="40675" />
		<tag k="ssr:type" v="myr" />
	</node>
	<node lat="59.12171111551796" lon="8.761791662732286" id="-23989">
		<tag k="name" v="Steinfjellaksla" />
		<tag k="place" v="locality" />
		<tag k="ssr:date" v="2019-12-27" />
		<tag k="ssr:gruppe" v="høyder" />
		<tag k="ssr:hovedgruppe" v="terreng" />
		<tag k="ssr:stedsnr" v="40825" />
		<tag k="ssr:type" v="fjellkant" />
	</node>
	<node lat="59.24258333718624" lon="8.796019446977205" id="-23990">
		<tag k="name" v="Homleibekken" />
		<tag k="ssr:date" v="2019-12-27" />
		<tag k="ssr:gruppe" v="rennendeVann" />
		<tag k="ssr:hovedgruppe" v="ferskvann" />
		<tag k="ssr:stedsnr" v="237120" />
		<tag k="ssr:type" v="bekk" />
		<tag k="waterway" v="stream" />
	</node>
	<node lat="59.20355555541632" lon="8.7247388862757" id="-23991">
		<tag k="historic" v="boundary_stone" />
		<tag k="man_made" v="cairn" />
		<tag k="name" v="Korsdeilda" />
		<tag k="place" v="locality" />
		<tag k="ssr:date" v="2019-12-27" />
		<tag k="ssr:gruppe" v="administrativeIndelinger" />
		<tag k="ssr:hovedgruppe" v="offentligAdministrasjon" />
		<tag k="ssr:stedsnr" v="40968" />
		<tag k="ssr:type" v="grensemerke" />
	</node>
	<node lat="58.98375277535787" lon="9.234130558049113" id="-23992">
		<tag k="name" v="Furødden" />
		<tag k="place" v="islet" />
		<tag k="ssr:date" v="2019-12-27" />
		<tag k="ssr:gruppe" v="ferskvannskontur" />
		<tag k="ssr:hovedgruppe" v="ferskvann" />
		<tag k="ssr:stedsnr" v="41109" />
		<tag k="ssr:type" v="holme" />
	</node>
	<node lat="59.04236110870019" lon="9.028813894933151" id="-23993">
		<tag k="name" v="Lille Skottfjellmyra" />
		<tag k="natural" v="wetland" />
		<tag k="ssr:date" v="2019-12-27" />
		<tag k="ssr:gruppe" v="våtmark" />
		<tag k="ssr:hovedgruppe" v="markslag" />
		<tag k="ssr:stedsnr" v="40871" />
		<tag k="ssr:type" v="myr" />
	</node>
	<node lat="59.00648611090017" lon="9.173741658192537" id="-23994">
		<tag k="name" v="Lille Svarttjenn" />
		<tag k="natural" v="water" />
		<tag k="ssr:date" v="2019-12-27" />
		<tag k="ssr:gruppe" v="stilleståendeVann" />
		<tag k="ssr:hovedgruppe" v="ferskvann" />
		<tag k="ssr:stedsnr" v="41003" />
		<tag k="ssr:type" v="tjern" />
	</node>
	<node lat="58.948869446809795" lon="9.055355556622992" id="-23995">
		<tag k="fixme" v="consider natural=peak for the most distinct mountains in the district" />
		<tag k="name" v="Fjellmyrknuten" />
		<tag k="natural" v="hill" />
		<tag k="place" v="locality" />
		<tag k="ssr:date" v="2019-12-27" />
		<tag k="ssr:gruppe" v="høyder" />
		<tag k="ssr:hovedgruppe" v="terreng" />
		<tag k="ssr:stedsnr" v="41315" />
		<tag k="ssr:type" v="ås" />
	</node>
	<node lat="59.050763892081065" lon="9.092555551059547" id="-23996">
		<tag k="name" v="Sønderå" />
		<tag k="place" v="locality" />
		<tag k="ssr:date" v="2019-12-27" />
		<tag k="ssr:gruppe" v="vegetasjon" />
		<tag k="ssr:hovedgruppe" v="markslag" />
		<tag k="ssr:stedsnr" v="41505" />
		<tag k="ssr:type" v="skog" />
	</node>
	<node lat="59.00802778020353" lon="9.08816667426629" id="-23997">
		<tag k="name" v="Hyttslåttdalen" />
		<tag k="natural" v="valley" />
		<tag k="place" v="locality" />
		<tag k="ssr:date" v="2019-12-27" />
		<tag k="ssr:gruppe" v="senkninger" />
		<tag k="ssr:hovedgruppe" v="terreng" />
		<tag k="ssr:stedsnr" v="41518" />
		<tag k="ssr:type" v="dal" />
	</node>
	<node lat="59.149972223485605" lon="8.93211944567646" id="-23998">
		<tag k="name" v="Koseplassen" />
		<tag k="place" v="locality" />
		<tag k="ssr:date" v="2019-12-27" />
		<tag k="ssr:gruppe" v="vegetasjon" />
		<tag k="ssr:hovedgruppe" v="markslag" />
		<tag k="ssr:stedsnr" v="41402" />
		<tag k="ssr:type" v="skog" />
	</node>
	<node lat="59.070113889702554" lon="9.081966660824236" id="-23999">
		<tag k="name" v="Leirbekkdalen" />
		<tag k="natural" v="valley" />
		<tag k="place" v="locality" />
		<tag k="ssr:date" v="2019-12-27" />
		<tag k="ssr:gruppe" v="senkninger" />
		<tag k="ssr:hovedgruppe" v="terreng" />
		<tag k="ssr:stedsnr" v="41405" />
		<tag k="ssr:type" v="dal" />
	</node>
	<node lat="59.187338891233956" lon="8.902011111876215" id="-24000">
		<tag k="name" v="Svarttjenn" />
		<tag k="natural" v="water" />
		<tag k="ssr:date" v="2019-12-27" />
		<tag k="ssr:gruppe" v="stilleståendeVann" />
		<tag k="ssr:hovedgruppe" v="ferskvann" />
		<tag k="ssr:stedsnr" v="41464" />
		<tag k="ssr:type" v="tjern" />
	</node>
	<node lat="59.02388055434052" lon="9.155105552798881" id="-24001">
		<tag k="fixme" v="consider natural=peak for the most distinct mountains in the district" />
		<tag k="name" v="Teksleheia" />
		<tag k="natural" v="hill" />
		<tag k="place" v="locality" />
		<tag k="ssr:date" v="2019-12-27" />
		<tag k="ssr:gruppe" v="høyder" />
		<tag k="ssr:hovedgruppe" v="terreng" />
		<tag k="ssr:stedsnr" v="41465" />
		<tag k="ssr:type" v="ås" />
	</node>
	<node lat="59.02641944143181" lon="9.149416664510191" id="-24002">
		<tag k="name" v="Tekslemyra" />
		<tag k="natural" v="wetland" />
		<tag k="ssr:date" v="2019-12-27" />
		<tag k="ssr:gruppe" v="våtmark" />
		<tag k="ssr:hovedgruppe" v="markslag" />
		<tag k="ssr:stedsnr" v="41466" />
		<tag k="ssr:type" v="myr" />
	</node>
	<node lat="59.17551388526991" lon="8.902461114325748" id="-24003">
		<tag k="name" v="Høgheibekken" />
		<tag k="ssr:date" v="2019-12-27" />
		<tag k="ssr:gruppe" v="rennendeVann" />
		<tag k="ssr:hovedgruppe" v="ferskvann" />
		<tag k="ssr:stedsnr" v="41473" />
		<tag k="ssr:type" v="bekk" />
		<tag k="waterway" v="stream" />
	</node>
	<node lat="59.02304444464528" lon="9.113213893519802" id="-24004">
		<tag k="name" v="Måvannsbekken" />
		<tag k="ssr:date" v="2019-12-27" />
		<tag k="ssr:gruppe" v="rennendeVann" />
		<tag k="ssr:hovedgruppe" v="ferskvann" />
		<tag k="ssr:stedsnr" v="41475" />
		<tag k="ssr:type" v="bekk" />
		<tag k="waterway" v="stream" />
	</node>
	<node lat="59.013249997296576" lon="9.161363882563956" id="-24005">
		<tag k="fixme" v="consider natural=peak for the most distinct mountains in the district" />
		<tag k="name" v="Damåsen" />
		<tag k="natural" v="hill" />
		<tag k="place" v="locality" />
		<tag k="ssr:date" v="2019-12-27" />
		<tag k="ssr:gruppe" v="høyder" />
		<tag k="ssr:hovedgruppe" v="terreng" />
		<tag k="ssr:stedsnr" v="41476" />
		<tag k="ssr:type" v="ås" />
	</node>
	<node lat="58.96058611534813" lon="9.143155563734478" id="-24006">
		<tag k="name" v="Linås" />
		<tag k="place" v="farm" />
		<tag k="ssr:date" v="2019-12-27" />
		<tag k="ssr:gruppe" v="gardsbebyggelse" />
		<tag k="ssr:hovedgruppe" v="bebyggelse" />
		<tag k="ssr:stedsnr" v="41793" />
		<tag k="ssr:type" v="bruk" />
	</node>
	<node lat="59.218072221432266" lon="8.683769450767906" id="-24007">
		<tag k="name" v="Amtmannsbakken" />
		<tag k="place" v="locality" />
		<tag k="ssr:date" v="2019-12-27" />
		<tag k="ssr:gruppe" v="vegetasjon" />
		<tag k="ssr:hovedgruppe" v="markslag" />
		<tag k="ssr:stedsnr" v="237416" />
		<tag k="ssr:type" v="skog" />
	</node>
	<node lat="59.09361389327012" lon="9.172661107524643" id="-24008">
		<tag k="fixme" v="consider natural=peak for the most distinct mountains in the district" />
		<tag k="name" v="Lille Rundkoll" />
		<tag k="natural" v="hill" />
		<tag k="place" v="locality" />
		<tag k="ssr:date" v="2019-12-27" />
		<tag k="ssr:gruppe" v="høyder" />
		<tag k="ssr:hovedgruppe" v="terreng" />
		<tag k="ssr:stedsnr" v="41821" />
		<tag k="ssr:type" v="ås" />
	</node>
	<node lat="58.964344444535506" lon="9.161741673689818" id="-24009">
		<tag k="name" v="Torshol" />
		<tag k="natural" v="shoal" />
		<tag k="place" v="locality" />
		<tag k="ssr:date" v="2019-12-27" />
		<tag k="ssr:gruppe" v="grunnerIFerskvann" />
		<tag k="ssr:hovedgruppe" v="ferskvann" />
		<tag k="ssr:stedsnr" v="41809" />
		<tag k="ssr:type" v="grunne" />
	</node>
	<node lat="59.09534722497232" lon="9.219988894776987" id="-24010">
		<tag k="name" v="Aurtjenn" />
		<tag k="natural" v="water" />
		<tag k="ssr:date" v="2019-12-27" />
		<tag k="ssr:gruppe" v="stilleståendeVann" />
		<tag k="ssr:hovedgruppe" v="ferskvann" />
		<tag k="ssr:stedsnr" v="41816" />
		<tag k="ssr:type" v="tjern" />
	</node>
	<node lat="59.085961114656904" lon="9.189547220686569" id="-24011">
		<tag k="name" v="Bjønnmyra" />
		<tag k="natural" v="wetland" />
		<tag k="ssr:date" v="2019-12-27" />
		<tag k="ssr:gruppe" v="våtmark" />
		<tag k="ssr:hovedgruppe" v="markslag" />
		<tag k="ssr:stedsnr" v="41817" />
		<tag k="ssr:type" v="myr" />
	</node>
	<node lat="58.995144446062874" lon="9.047386117231973" id="-24012">
		<tag k="name" v="Vennomdalsbekken" />
		<tag k="ssr:date" v="2019-12-27" />
		<tag k="ssr:gruppe" v="rennendeVann" />
		<tag k="ssr:hovedgruppe" v="ferskvann" />
		<tag k="ssr:stedsnr" v="41849" />
		<tag k="ssr:type" v="bekk" />
		<tag k="waterway" v="stream" />
	</node>
	<node lat="58.95542221940759" lon="9.126186109658123" id="-24013">
		<tag k="name" v="Fosstveitmyra" />
		<tag k="place" v="locality" />
		<tag k="ssr:date" v="2019-12-27" />
		<tag k="ssr:gruppe" v="dyrkamark" />
		<tag k="ssr:hovedgruppe" v="markslag" />
		<tag k="ssr:stedsnr" v="41974" />
		<tag k="ssr:type" v="jorde" />
	</node>
	<node lat="59.14514444517581" lon="8.751058329002774" id="-24014">
		<tag k="name" v="Nybruhallen" />
		<tag k="place" v="locality" />
		<tag k="ssr:date" v="2019-12-27" />
		<tag k="ssr:gruppe" v="vegetasjon" />
		<tag k="ssr:hovedgruppe" v="markslag" />
		<tag k="ssr:stedsnr" v="42825" />
		<tag k="ssr:type" v="skog" />
	</node>
	<node lat="59.15794444675889" lon="8.760561115489423" id="-24015">
		<tag k="name" v="Lauvholta" />
		<tag k="place" v="locality" />
		<tag k="ssr:date" v="2019-12-27" />
		<tag k="ssr:gruppe" v="vegetasjon" />
		<tag k="ssr:hovedgruppe" v="markslag" />
		<tag k="ssr:stedsnr" v="42827" />
		<tag k="ssr:type" v="skog" />
	</node>
	<node lat="59.156330559169234" lon="8.757275007855949" id="-24016">
		<tag k="name" v="Klovet" />
		<tag k="natural" v="valley" />
		<tag k="place" v="locality" />
		<tag k="ssr:date" v="2019-12-27" />
		<tag k="ssr:gruppe" v="senkninger" />
		<tag k="ssr:hovedgruppe" v="terreng" />
		<tag k="ssr:stedsnr" v="42828" />
		<tag k="ssr:type" v="skar" />
	</node>
	<node lat="59.184408330503686" lon="8.802727769319116" id="-24017">
		<tag k="name" v="Haugen" />
		<tag k="place" v="locality" />
		<tag k="ssr:date" v="2019-12-27" />
		<tag k="ssr:gruppe" v="bolighus" />
		<tag k="ssr:hovedgruppe" v="bebyggelse" />
		<tag k="ssr:stedsnr" v="42878" />
		<tag k="ssr:type" v="gammelBosettingsplass" />
	</node>
	<node lat="59.18403889207018" lon="8.814599995229232" id="-24018">
		<tag k="name" v="Langskår" />
		<tag k="place" v="locality" />
		<tag k="ssr:date" v="2019-12-27" />
		<tag k="ssr:gruppe" v="vegetasjon" />
		<tag k="ssr:hovedgruppe" v="markslag" />
		<tag k="ssr:stedsnr" v="42902" />
		<tag k="ssr:type" v="skog" />
	</node>
	<node lat="59.14528611306849" lon="8.77043610982717" id="-24019">
		<tag k="name" v="Eikmyr" />
		<tag k="natural" v="wetland" />
		<tag k="ssr:date" v="2019-12-27" />
		<tag k="ssr:gruppe" v="våtmark" />
		<tag k="ssr:hovedgruppe" v="markslag" />
		<tag k="ssr:stedsnr" v="237846" />
		<tag k="ssr:type" v="myr" />
	</node>
	<node lat="59.15583055235329" lon="8.806822222038774" id="-24020">
		<tag k="name" v="Kjørkjemyra" />
		<tag k="place" v="locality" />
		<tag k="ssr:date" v="2019-12-27" />
		<tag k="ssr:gruppe" v="dyrkamark" />
		<tag k="ssr:hovedgruppe" v="markslag" />
		<tag k="ssr:stedsnr" v="237812" />
		<tag k="ssr:type" v="jorde" />
	</node>
	<node lat="59.1525416696203" lon="8.8129861102875" id="-24021">
		<tag k="name" v="Svarthøl" />
		<tag k="place" v="locality" />
		<tag k="ssr:date" v="2019-12-27" />
		<tag k="ssr:gruppe" v="rennendeVann" />
		<tag k="ssr:hovedgruppe" v="ferskvann" />
		<tag k="ssr:stedsnr" v="237824" />
		<tag k="ssr:type" v="høl" />
	</node>
	<node lat="58.93601110816129" lon="9.184086114415681" id="-24022">
		<tag k="name" v="Norddammane" />
		<tag k="natural" v="wetland" />
		<tag k="ssr:date" v="2019-12-27" />
		<tag k="ssr:gruppe" v="våtmark" />
		<tag k="ssr:hovedgruppe" v="markslag" />
		<tag k="ssr:stedsnr" v="238484" />
		<tag k="ssr:type" v="myr" />
	</node>
	<node lat="58.9377555528172" lon="9.176397225297471" id="-24023">
		<tag k="name" v="Hyttedalen" />
		<tag k="natural" v="valley" />
		<tag k="place" v="locality" />
		<tag k="ssr:date" v="2019-12-27" />
		<tag k="ssr:gruppe" v="senkninger" />
		<tag k="ssr:hovedgruppe" v="terreng" />
		<tag k="ssr:stedsnr" v="238486" />
		<tag k="ssr:type" v="dal" />
	</node>
	<node lat="58.93244444839169" lon="9.16722777369799" id="-24024">
		<tag k="fixme" v="consider natural=peak for the most distinct mountains in the district" />
		<tag k="name" v="Stølsknuten" />
		<tag k="natural" v="hill" />
		<tag k="place" v="locality" />
		<tag k="ssr:date" v="2019-12-27" />
		<tag k="ssr:gruppe" v="høyder" />
		<tag k="ssr:hovedgruppe" v="terreng" />
		<tag k="ssr:stedsnr" v="238490" />
		<tag k="ssr:type" v="ås" />
	</node>
	<node lat="58.950894441071924" lon="9.131830556051217" id="-24025">
		<tag k="bridge" v="yes" />
		<tag k="layer" v="1" />
		<tag k="name" v="Fosstveit" />
		<tag k="ssr:date" v="2019-12-27" />
		<tag k="ssr:gruppe" v="samferdselsanlegg" />
		<tag k="ssr:hovedgruppe" v="infrastruktur" />
		<tag k="ssr:stedsnr" v="46306" />
		<tag k="ssr:type" v="bru" />
	</node>
	<node lat="59.203363884883096" lon="8.79124166092793" id="-24026">
		<tag k="bridge" v="yes" />
		<tag k="layer" v="1" />
		<tag k="name" v="Holtane" />
		<tag k="ssr:date" v="2019-12-27" />
		<tag k="ssr:gruppe" v="samferdselsanlegg" />
		<tag k="ssr:hovedgruppe" v="infrastruktur" />
		<tag k="ssr:stedsnr" v="46313" />
		<tag k="ssr:type" v="bru" />
	</node>
	<node lat="58.98461110922967" lon="9.186669448567423" id="-24027">
		<tag k="name" v="Bastautangen" />
		<tag k="natural" v="cape" />
		<tag k="ssr:date" v="2019-12-27" />
		<tag k="ssr:gruppe" v="ferskvannskontur" />
		<tag k="ssr:hovedgruppe" v="ferskvann" />
		<tag k="ssr:stedsnr" v="238341" />
		<tag k="ssr:type" v="nes" />
	</node>
	<node lat="58.98919721922109" lon="9.194047224207486" id="-24028">
		<tag k="name" v="Berås" />
		<tag k="natural" v="hill" />
		<tag k="place" v="locality" />
		<tag k="ssr:date" v="2019-12-27" />
		<tag k="ssr:gruppe" v="høyder" />
		<tag k="ssr:hovedgruppe" v="terreng" />
		<tag k="ssr:stedsnr" v="238368" />
		<tag k="ssr:type" v="hei" />
	</node>
	<node lat="58.91667222666925" lon="9.184386113022398" id="-24029">
		<tag k="name" v="Hovtongmyra" />
		<tag k="natural" v="wetland" />
		<tag k="ssr:date" v="2019-12-27" />
		<tag k="ssr:gruppe" v="våtmark" />
		<tag k="ssr:hovedgruppe" v="markslag" />
		<tag k="ssr:stedsnr" v="238449" />
		<tag k="ssr:type" v="myr" />
	</node>
	<node lat="58.965630557202005" lon="9.202847227283266" id="-24030">
		<tag k="name" v="Bjønnknuten" />
		<tag k="natural" v="hill" />
		<tag k="place" v="locality" />
		<tag k="ssr:date" v="2019-12-27" />
		<tag k="ssr:gruppe" v="høyder" />
		<tag k="ssr:hovedgruppe" v="terreng" />
		<tag k="ssr:stedsnr" v="238451" />
		<tag k="ssr:type" v="hei" />
	</node>
	<node lat="58.9106416684685" lon="9.175308337118963" id="-24031">
		<tag k="name" v="Måbuholta" />
		<tag k="place" v="farm" />
		<tag k="ssr:date" v="2019-12-27" />
		<tag k="ssr:gruppe" v="gardsbebyggelse" />
		<tag k="ssr:hovedgruppe" v="bebyggelse" />
		<tag k="ssr:stedsnr" v="238460" />
		<tag k="ssr:type" v="bruk" />
	</node>
	<node lat="58.96078333258764" lon="9.208452772957658" id="-24032">
		<tag k="name" v="Tjerjeltjenna" />
		<tag k="natural" v="water" />
		<tag k="ssr:date" v="2019-12-27" />
		<tag k="ssr:gruppe" v="stilleståendeVann" />
		<tag k="ssr:hovedgruppe" v="ferskvann" />
		<tag k="ssr:stedsnr" v="238471" />
		<tag k="ssr:type" v="tjern" />
	</node>
	<node lat="58.95826388726184" lon="9.214927771249778" id="-24033">
		<tag k="name" v="Bjelkemyra" />
		<tag k="natural" v="wetland" />
		<tag k="ssr:date" v="2019-12-27" />
		<tag k="ssr:gruppe" v="våtmark" />
		<tag k="ssr:hovedgruppe" v="markslag" />
		<tag k="ssr:stedsnr" v="238472" />
		<tag k="ssr:type" v="myr" />
	</node>
	<node lat="58.96611666836238" lon="9.216611111440855" id="-24034">
		<tag k="name" v="Mulemyra" />
		<tag k="natural" v="wetland" />
		<tag k="ssr:date" v="2019-12-27" />
		<tag k="ssr:gruppe" v="våtmark" />
		<tag k="ssr:hovedgruppe" v="markslag" />
		<tag k="ssr:stedsnr" v="238473" />
		<tag k="ssr:type" v="myr" />
	</node>
	<node lat="58.926625001895125" lon="9.179008329021787" id="-24035">
		<tag k="name" v="Stormyr" />
		<tag k="natural" v="wetland" />
		<tag k="ssr:date" v="2019-12-27" />
		<tag k="ssr:gruppe" v="våtmark" />
		<tag k="ssr:hovedgruppe" v="markslag" />
		<tag k="ssr:stedsnr" v="238497" />
		<tag k="ssr:type" v="myr" />
	</node>
	<node lat="59.08723889288971" lon="9.075772227140124" id="-24036">
		<tag k="name" v="Suggebråten" />
		<tag k="place" v="locality" />
		<tag k="ssr:date" v="2019-12-27" />
		<tag k="ssr:gruppe" v="vegetasjon" />
		<tag k="ssr:hovedgruppe" v="markslag" />
		<tag k="ssr:stedsnr" v="239337" />
		<tag k="ssr:type" v="skog" />
	</node>
	<node lat="59.22631666395918" lon="8.778522227968272" id="-24037">
		<tag k="name" v="Grinndalen" />
		<tag k="place" v="locality" />
		<tag k="ssr:date" v="2019-12-27" />
		<tag k="ssr:gruppe" v="vegetasjon" />
		<tag k="ssr:hovedgruppe" v="markslag" />
		<tag k="ssr:stedsnr" v="239026" />
		<tag k="ssr:type" v="skog" />
	</node>
	<node lat="59.191891669420244" lon="9.15876388922666" id="-24038">
		<tag k="name" v="Lille Høydalen" />
		<tag k="place" v="locality" />
		<tag k="ssr:date" v="2019-12-27" />
		<tag k="ssr:gruppe" v="bolighus" />
		<tag k="ssr:hovedgruppe" v="bebyggelse" />
		<tag k="ssr:stedsnr" v="239066" />
		<tag k="ssr:type" v="gammelBosettingsplass" />
	</node>
	<node lat="59.048733329404214" lon="9.140866673016308" id="-24039">
		<tag k="name" v="Hegnliane" />
		<tag k="natural" v="slope" />
		<tag k="place" v="locality" />
		<tag k="ssr:date" v="2019-12-27" />
		<tag k="ssr:gruppe" v="skråninger" />
		<tag k="ssr:hovedgruppe" v="terreng" />
		<tag k="ssr:stedsnr" v="239067" />
		<tag k="ssr:type" v="li" />
	</node>
	<node lat="59.04306666868813" lon="8.720905556473568" id="-24040">
		<tag k="name" v="Holmtjenn" />
		<tag k="natural" v="water" />
		<tag k="ssr:date" v="2019-12-27" />
		<tag k="ssr:gruppe" v="stilleståendeVann" />
		<tag k="ssr:hovedgruppe" v="ferskvann" />
		<tag k="ssr:stedsnr" v="239168" />
		<tag k="ssr:type" v="tjern" />
	</node>
	<node lat="59.27027222034698" lon="8.79443888020191" id="-24041">
		<tag k="name" v="Høgmyr" />
		<tag k="natural" v="wetland" />
		<tag k="ssr:date" v="2019-12-27" />
		<tag k="ssr:gruppe" v="våtmark" />
		<tag k="ssr:hovedgruppe" v="markslag" />
		<tag k="ssr:stedsnr" v="239175" />
		<tag k="ssr:type" v="myr" />
	</node>
	<node lat="59.149258334875846" lon="8.705650007904525" id="-24042">
		<tag k="name" v="Koppårknatten" />
		<tag k="natural" v="hill" />
		<tag k="place" v="locality" />
		<tag k="ssr:date" v="2019-12-27" />
		<tag k="ssr:gruppe" v="høyder" />
		<tag k="ssr:hovedgruppe" v="terreng" />
		<tag k="ssr:stedsnr" v="239260" />
		<tag k="ssr:type" v="haug" />
	</node>
	<node lat="59.105236107260716" lon="9.103305557870117" id="-24043">
		<tag k="name" v="Gasgiveren" />
		<tag k="place" v="locality" />
		<tag k="ssr:date" v="2019-12-27" />
		<tag k="ssr:gruppe" v="vegetasjon" />
		<tag k="ssr:hovedgruppe" v="markslag" />
		<tag k="ssr:stedsnr" v="239265" />
		<tag k="ssr:type" v="skog" />
	</node>
	<node lat="59.10867777864776" lon="9.056702780544272" id="-24044">
		<tag k="name" v="Gudbrandsstrand" />
		<tag k="natural" v="beach" />
		<tag k="ssr:date" v="2019-12-27" />
		<tag k="ssr:gruppe" v="ferskvannskontur" />
		<tag k="ssr:hovedgruppe" v="ferskvann" />
		<tag k="ssr:stedsnr" v="239268" />
		<tag k="ssr:type" v="strand" />
	</node>
	<node lat="59.13052222005962" lon="9.165994450566648" id="-24045">
		<tag k="name" v="Myggheimtjenna" />
		<tag k="natural" v="water" />
		<tag k="ssr:date" v="2019-12-27" />
		<tag k="ssr:gruppe" v="stilleståendeVann" />
		<tag k="ssr:hovedgruppe" v="ferskvann" />
		<tag k="ssr:stedsnr" v="239203" />
		<tag k="ssr:type" v="tjern" />
	</node>
	<node lat="59.13956944048592" lon="9.140658338072335" id="-24046">
		<tag k="name" v="Bjortjennstua" />
		<tag k="place" v="locality" />
		<tag k="ssr:date" v="2019-12-27" />
		<tag k="ssr:gruppe" v="gardsbebyggelse" />
		<tag k="ssr:hovedgruppe" v="bebyggelse" />
		<tag k="ssr:stedsnr" v="239204" />
		<tag k="ssr:type" v="byggForJordbrukFiskeOgFangst" />
	</node>
	<node lat="59.16598055633927" lon="9.12172499248189" id="-24047">
		<tag k="name" v="Høydalheia" />
		<tag k="natural" v="hill" />
		<tag k="place" v="locality" />
		<tag k="ssr:date" v="2019-12-27" />
		<tag k="ssr:gruppe" v="høyder" />
		<tag k="ssr:hovedgruppe" v="terreng" />
		<tag k="ssr:stedsnr" v="239219" />
		<tag k="ssr:type" v="hei" />
	</node>
	<node lat="59.009444447966544" lon="8.900872218156044" id="-24048">
		<tag k="name" v="Krokbekk" />
		<tag k="ssr:date" v="2019-12-27" />
		<tag k="ssr:gruppe" v="rennendeVann" />
		<tag k="ssr:hovedgruppe" v="ferskvann" />
		<tag k="ssr:stedsnr" v="239226" />
		<tag k="ssr:type" v="bekk" />
		<tag k="waterway" v="stream" />
	</node>
	<node lat="58.991455559952286" lon="9.127005549457579" id="-24049">
		<tag k="name" v="Garemoen" />
		<tag k="place" v="locality" />
		<tag k="ssr:date" v="2019-12-27" />
		<tag k="ssr:gruppe" v="flater" />
		<tag k="ssr:hovedgruppe" v="terreng" />
		<tag k="ssr:stedsnr" v="239447" />
		<tag k="ssr:type" v="slette" />
	</node>
	<node lat="58.995197221229446" lon="9.127241670537252" id="-24050">
		<tag k="fixme" v="consider natural=peak for the most distinct mountains in the district" />
		<tag k="name" v="Garåsen" />
		<tag k="natural" v="hill" />
		<tag k="place" v="locality" />
		<tag k="ssr:date" v="2019-12-27" />
		<tag k="ssr:gruppe" v="høyder" />
		<tag k="ssr:hovedgruppe" v="terreng" />
		<tag k="ssr:stedsnr" v="239448" />
		<tag k="ssr:type" v="ås" />
	</node>
	<node lat="58.993552775022074" lon="9.134041673974954" id="-24051">
		<tag k="name" v="Svarttjenndalen" />
		<tag k="natural" v="valley" />
		<tag k="place" v="locality" />
		<tag k="ssr:date" v="2019-12-27" />
		<tag k="ssr:gruppe" v="senkninger" />
		<tag k="ssr:hovedgruppe" v="terreng" />
		<tag k="ssr:stedsnr" v="239449" />
		<tag k="ssr:type" v="dal" />
	</node>
	<node lat="59.002666671042725" lon="9.141252778793852" id="-24052">
		<tag k="bridge" v="yes" />
		<tag k="layer" v="1" />
		<tag k="name" v="Kloppa" />
		<tag k="ssr:date" v="2019-12-27" />
		<tag k="ssr:gruppe" v="samferdselsanlegg" />
		<tag k="ssr:hovedgruppe" v="infrastruktur" />
		<tag k="ssr:stedsnr" v="239514" />
		<tag k="ssr:type" v="klopp" />
	</node>
	<node lat="59.05931666375218" lon="9.12058333921165" id="-24053">
		<tag k="name" v="Grandalen" />
		<tag k="place" v="locality" />
		<tag k="ssr:date" v="2019-12-27" />
		<tag k="ssr:gruppe" v="vegetasjon" />
		<tag k="ssr:hovedgruppe" v="markslag" />
		<tag k="ssr:stedsnr" v="239422" />
		<tag k="ssr:type" v="skog" />
	</node>
	<node lat="59.24355000285399" lon="8.961366660718415" id="-24054">
		<tag k="name" v="Gusstulsetertjenna" />
		<tag k="natural" v="water" />
		<tag k="ssr:date" v="2019-12-27" />
		<tag k="ssr:gruppe" v="stilleståendeVann" />
		<tag k="ssr:hovedgruppe" v="ferskvann" />
		<tag k="ssr:stedsnr" v="239522" />
		<tag k="ssr:type" v="tjern" />
	</node>
	<node lat="59.082033336283175" lon="9.181327773642574" id="-24055">
		<tag k="name" v="Seterheia" />
		<tag k="natural" v="hill" />
		<tag k="place" v="locality" />
		<tag k="ssr:date" v="2019-12-27" />
		<tag k="ssr:gruppe" v="høyder" />
		<tag k="ssr:hovedgruppe" v="terreng" />
		<tag k="ssr:stedsnr" v="239574" />
		<tag k="ssr:type" v="hei" />
	</node>
	<node lat="59.073022222389525" lon="8.757166675055357" id="-24056">
		<tag k="name" v="Sagfossen" />
		<tag k="natural" v="waterfall" />
		<tag k="ssr:date" v="2019-12-27" />
		<tag k="ssr:gruppe" v="rennendeVann" />
		<tag k="ssr:hovedgruppe" v="ferskvann" />
		<tag k="ssr:stedsnr" v="239639" />
		<tag k="ssr:type" v="foss" />
	</node>
	<node lat="59.07253888484614" lon="8.757438894684425" id="-24057">
		<tag k="name" v="Saga" />
		<tag k="place" v="locality" />
		<tag k="ssr:date" v="2019-12-27" />
		<tag k="ssr:gruppe" v="gardsbebyggelse" />
		<tag k="ssr:hovedgruppe" v="bebyggelse" />
		<tag k="ssr:stedsnr" v="239640" />
		<tag k="ssr:type" v="byggForJordbrukFiskeOgFangst" />
	</node>
	<node lat="59.07471666991216" lon="8.755022226417871" id="-24058">
		<tag k="name" v="Kvennhusfossen" />
		<tag k="natural" v="waterfall" />
		<tag k="ssr:date" v="2019-12-27" />
		<tag k="ssr:gruppe" v="rennendeVann" />
		<tag k="ssr:hovedgruppe" v="ferskvann" />
		<tag k="ssr:stedsnr" v="239641" />
		<tag k="ssr:type" v="foss" />
	</node>
	<node lat="59.056622219090876" lon="8.750316658781188" id="-24059">
		<tag k="name" v="Rolegheta" />
		<tag k="place" v="locality" />
		<tag k="ssr:date" v="2019-12-27" />
		<tag k="ssr:gruppe" v="dyrkamark" />
		<tag k="ssr:hovedgruppe" v="markslag" />
		<tag k="ssr:stedsnr" v="239654" />
		<tag k="ssr:type" v="utmark" />
	</node>
	<node lat="58.99741944574509" lon="9.021502783645515" id="-24060">
		<tag k="fixme" v="consider tourism=alpine_hut or tourism=chalet" />
		<tag k="name" v="Fesetstua" />
		<tag k="ssr:date" v="2019-12-27" />
		<tag k="ssr:gruppe" v="næring" />
		<tag k="ssr:hovedgruppe" v="bebyggelse" />
		<tag k="ssr:stedsnr" v="239670" />
		<tag k="ssr:type" v="turisthytte" />
		<tag k="tourism" v="wilderness_hut" />
	</node>
	<node lat="59.02657499651672" lon="9.206572223561091" id="-24061">
		<tag k="name" v="Hamøybukta" />
		<tag k="natural" v="bay" />
		<tag k="ssr:date" v="2019-12-27" />
		<tag k="ssr:gruppe" v="ferskvannskontur" />
		<tag k="ssr:hovedgruppe" v="ferskvann" />
		<tag k="ssr:stedsnr" v="239914" />
		<tag k="ssr:type" v="vik" />
	</node>
	<node lat="59.03035833680249" lon="9.207322226114714" id="-24062">
		<tag k="name" v="Storfjorden" />
		<tag k="natural" v="water" />
		<tag k="ssr:date" v="2019-12-27" />
		<tag k="ssr:gruppe" v="stilleståendeVann" />
		<tag k="ssr:hovedgruppe" v="ferskvann" />
		<tag k="ssr:stedsnr" v="239916" />
		<tag k="ssr:type" v="delAvInnsjø" />
	</node>
	<node lat="59.117302776201235" lon="9.23862499642395" id="-24063">
		<tag k="name" v="Ellingseter" />
		<tag k="place" v="isolated_dwelling" />
		<tag k="ssr:date" v="2019-12-27" />
		<tag k="ssr:gruppe" v="bolighus" />
		<tag k="ssr:hovedgruppe" v="bebyggelse" />
		<tag k="ssr:stedsnr" v="239690" />
		<tag k="ssr:type" v="fritidsbolig" />
	</node>
	<node lat="59.227033333063545" lon="8.831616665203143" id="-24064">
		<tag k="name" v="Torslimyrane" />
		<tag k="natural" v="wetland" />
		<tag k="ssr:date" v="2019-12-27" />
		<tag k="ssr:gruppe" v="våtmark" />
		<tag k="ssr:hovedgruppe" v="markslag" />
		<tag k="ssr:stedsnr" v="55018" />
		<tag k="ssr:type" v="myr" />
	</node>
	<node lat="59.223647221691394" lon="8.805566672422618" id="-24065">
		<tag k="name" v="Blomstad" />
		<tag k="place" v="locality" />
		<tag k="ssr:date" v="2019-12-27" />
		<tag k="ssr:gruppe" v="bolighus" />
		<tag k="ssr:hovedgruppe" v="bebyggelse" />
		<tag k="ssr:stedsnr" v="55007" />
		<tag k="ssr:type" v="gammelBosettingsplass" />
	</node>
	<node lat="59.22676944210069" lon="8.794797224129093" id="-24066">
		<tag k="name" v="Bujordet" />
		<tag k="place" v="locality" />
		<tag k="ssr:date" v="2019-12-27" />
		<tag k="ssr:gruppe" v="vegetasjon" />
		<tag k="ssr:hovedgruppe" v="markslag" />
		<tag k="ssr:stedsnr" v="55009" />
		<tag k="ssr:type" v="skog" />
	</node>
	<node lat="59.04259722566417" lon="9.2646388930888" id="-24067">
		<tag k="name" v="Lyarknatten" />
		<tag k="natural" v="hill" />
		<tag k="place" v="locality" />
		<tag k="ssr:date" v="2019-12-27" />
		<tag k="ssr:gruppe" v="høyder" />
		<tag k="ssr:hovedgruppe" v="terreng" />
		<tag k="ssr:stedsnr" v="239738" />
		<tag k="ssr:type" v="haug" />
	</node>
	<node lat="59.03380277345436" lon="9.27089166870609" id="-24068">
		<tag k="name" v="Vierbekk" />
		<tag k="ssr:date" v="2019-12-27" />
		<tag k="ssr:gruppe" v="rennendeVann" />
		<tag k="ssr:hovedgruppe" v="ferskvann" />
		<tag k="ssr:stedsnr" v="239741" />
		<tag k="ssr:type" v="bekk" />
		<tag k="waterway" v="stream" />
	</node>
	<node lat="59.10961666681896" lon="8.73376944519295" id="-24069">
		<tag k="name" v="Levorstjenn" />
		<tag k="natural" v="water" />
		<tag k="ssr:date" v="2019-12-27" />
		<tag k="ssr:gruppe" v="stilleståendeVann" />
		<tag k="ssr:hovedgruppe" v="ferskvann" />
		<tag k="ssr:stedsnr" v="239747" />
		<tag k="ssr:type" v="tjern" />
	</node>
	<node lat="59.14560555321381" lon="8.828763880468426" id="-24070">
		<tag k="landuse" v="meadow" />
		<tag k="name" v="Bøfeta" />
		<tag k="ssr:date" v="2019-12-27" />
		<tag k="ssr:gruppe" v="dyrkamark" />
		<tag k="ssr:hovedgruppe" v="markslag" />
		<tag k="ssr:stedsnr" v="239845" />
		<tag k="ssr:type" v="eng" />
	</node>
	<node lat="59.13898333484284" lon="8.819630558255247" id="-24071">
		<tag k="name" v="Maurbekk" />
		<tag k="ssr:date" v="2019-12-27" />
		<tag k="ssr:gruppe" v="rennendeVann" />
		<tag k="ssr:hovedgruppe" v="ferskvann" />
		<tag k="ssr:stedsnr" v="239848" />
		<tag k="ssr:type" v="bekk" />
		<tag k="waterway" v="stream" />
	</node>
	<node lat="59.19516944395354" lon="8.791605549213399" id="-24072">
		<tag k="name" v="Samlingskåsa" />
		<tag k="place" v="locality" />
		<tag k="ssr:date" v="2019-12-27" />
		<tag k="ssr:gruppe" v="dyrkamark" />
		<tag k="ssr:hovedgruppe" v="markslag" />
		<tag k="ssr:stedsnr" v="55995" />
		<tag k="ssr:type" v="utmark" />
	</node>
	<node lat="59.14905833272295" lon="8.744127785627793" id="-24073">
		<tag k="name" v="Maurlia" />
		<tag k="natural" v="slope" />
		<tag k="place" v="locality" />
		<tag k="ssr:date" v="2019-12-27" />
		<tag k="ssr:gruppe" v="skråninger" />
		<tag k="ssr:hovedgruppe" v="terreng" />
		<tag k="ssr:stedsnr" v="239877" />
		<tag k="ssr:type" v="li" />
	</node>
	<node lat="59.01566111018045" lon="9.259963889717348" id="-24074">
		<tag k="name" v="Klovkjerrdalen" />
		<tag k="natural" v="valley" />
		<tag k="place" v="locality" />
		<tag k="ssr:date" v="2019-12-27" />
		<tag k="ssr:gruppe" v="senkninger" />
		<tag k="ssr:hovedgruppe" v="terreng" />
		<tag k="ssr:stedsnr" v="239926" />
		<tag k="ssr:type" v="dal" />
	</node>
	<node lat="59.03412777642294" lon="9.187227776473485" id="-24075">
		<tag k="name" v="Storbråten" />
		<tag k="place" v="locality" />
		<tag k="ssr:date" v="2019-12-27" />
		<tag k="ssr:gruppe" v="vegetasjon" />
		<tag k="ssr:hovedgruppe" v="markslag" />
		<tag k="ssr:stedsnr" v="240000" />
		<tag k="ssr:type" v="skog" />
	</node>
	<node lat="58.976019440328145" lon="9.177863891060573" id="-24076">
		<tag k="name" v="Langmyrskåtet" />
		<tag k="natural" v="cliff" />
		<tag k="ssr:date" v="2019-12-27" />
		<tag k="ssr:gruppe" v="terrengdetaljer" />
		<tag k="ssr:hovedgruppe" v="terreng" />
		<tag k="ssr:stedsnr" v="56369" />
		<tag k="ssr:type" v="stup" />
	</node>
	<node lat="59.040944445524694" lon="9.188186109421142" id="-24077">
		<tag k="name" v="Bastavstrand" />
		<tag k="natural" v="beach" />
		<tag k="ssr:date" v="2019-12-27" />
		<tag k="ssr:gruppe" v="ferskvannskontur" />
		<tag k="ssr:hovedgruppe" v="ferskvann" />
		<tag k="ssr:stedsnr" v="239963" />
		<tag k="ssr:type" v="strand" />
	</node>
	<node lat="59.04773055153754" lon="9.194424997159183" id="-24078">
		<tag k="name" v="Høgbråten" />
		<tag k="place" v="isolated_dwelling" />
		<tag k="ssr:date" v="2019-12-27" />
		<tag k="ssr:gruppe" v="bolighus" />
		<tag k="ssr:hovedgruppe" v="bebyggelse" />
		<tag k="ssr:stedsnr" v="239965" />
		<tag k="ssr:type" v="eneboligMindreBoligbygg" />
	</node>
	<node lat="59.04089999630221" lon="9.147961113918612" id="-24079">
		<tag k="historic" v="shieling" />
		<tag k="name" v="Nyseter" />
		<tag k="place" v="locality" />
		<tag k="ssr:date" v="2019-12-27" />
		<tag k="ssr:gruppe" v="dyrkamark" />
		<tag k="ssr:hovedgruppe" v="markslag" />
		<tag k="ssr:stedsnr" v="239975" />
		<tag k="ssr:type" v="setervoll" />
	</node>
	<node lat="58.94558055960963" lon="9.17407500578498" id="-24080">
		<tag k="name" v="Stengerheia" />
		<tag k="natural" v="hill" />
		<tag k="place" v="locality" />
		<tag k="ssr:date" v="2019-12-27" />
		<tag k="ssr:gruppe" v="høyder" />
		<tag k="ssr:hovedgruppe" v="terreng" />
		<tag k="ssr:stedsnr" v="56477" />
		<tag k="ssr:type" v="hei" />
	</node>
	<node lat="58.94416111124877" lon="9.20460000247611" id="-24081">
		<tag k="name" v="Jomyrkøllene" />
		<tag k="natural" v="hill" />
		<tag k="place" v="locality" />
		<tag k="ssr:date" v="2019-12-27" />
		<tag k="ssr:gruppe" v="høyder" />
		<tag k="ssr:hovedgruppe" v="terreng" />
		<tag k="ssr:stedsnr" v="56488" />
		<tag k="ssr:type" v="hei" />
	</node>
	<node lat="59.136127775612216" lon="9.116019438932076" id="-24082">
		<tag k="name" v="Lille Jerpantjenn" />
		<tag k="natural" v="water" />
		<tag k="ssr:date" v="2019-12-27" />
		<tag k="ssr:gruppe" v="stilleståendeVann" />
		<tag k="ssr:hovedgruppe" v="ferskvann" />
		<tag k="ssr:stedsnr" v="57169" />
		<tag k="ssr:type" v="tjern" />
	</node>
	<node lat="59.18025833371279" lon="9.150858327380059" id="-24083">
		<tag k="name" v="Lille Deilkøllen" />
		<tag k="natural" v="hill" />
		<tag k="place" v="locality" />
		<tag k="ssr:date" v="2019-12-27" />
		<tag k="ssr:gruppe" v="høyder" />
		<tag k="ssr:hovedgruppe" v="terreng" />
		<tag k="ssr:stedsnr" v="57172" />
		<tag k="ssr:type" v="haug" />
	</node>
	<node lat="59.22049444017766" lon="8.79171111116691" id="-24084">
		<tag k="name" v="Juva" />
		<tag k="natural" v="gorge" />
		<tag k="ssr:date" v="2019-12-27" />
		<tag k="ssr:gruppe" v="senkninger" />
		<tag k="ssr:hovedgruppe" v="terreng" />
		<tag k="ssr:stedsnr" v="57023" />
		<tag k="ssr:type" v="juv" />
	</node>
	<node lat="59.25786944353438" lon="8.778619449278741" id="-24085">
		<tag k="name" v="Lillebron" />
		<tag k="natural" v="hill" />
		<tag k="place" v="locality" />
		<tag k="ssr:date" v="2019-12-27" />
		<tag k="ssr:gruppe" v="høyder" />
		<tag k="ssr:hovedgruppe" v="terreng" />
		<tag k="ssr:stedsnr" v="57069" />
		<tag k="ssr:type" v="haug" />
	</node>
	<node lat="59.04606944256742" lon="9.131016672117816" id="-24086">
		<tag k="name" v="Kjerrbudalen" />
		<tag k="natural" v="valley" />
		<tag k="place" v="locality" />
		<tag k="ssr:date" v="2019-12-27" />
		<tag k="ssr:gruppe" v="senkninger" />
		<tag k="ssr:hovedgruppe" v="terreng" />
		<tag k="ssr:stedsnr" v="57070" />
		<tag k="ssr:type" v="dal" />
	</node>
	<node lat="59.04374444052159" lon="9.14223888678953" id="-24087">
		<tag k="name" v="Dalbu" />
		<tag k="natural" v="valley" />
		<tag k="place" v="locality" />
		<tag k="ssr:date" v="2019-12-27" />
		<tag k="ssr:gruppe" v="senkninger" />
		<tag k="ssr:hovedgruppe" v="terreng" />
		<tag k="ssr:stedsnr" v="57072" />
		<tag k="ssr:type" v="dal" />
	</node>
	<node lat="59.05328055142921" lon="9.137044441828543" id="-24088">
		<tag k="fixme" v="consider natural=peak for the most distinct mountains in the district" />
		<tag k="name" v="Eiåsen" />
		<tag k="natural" v="hill" />
		<tag k="place" v="locality" />
		<tag k="ssr:date" v="2019-12-27" />
		<tag k="ssr:gruppe" v="høyder" />
		<tag k="ssr:hovedgruppe" v="terreng" />
		<tag k="ssr:stedsnr" v="57075" />
		<tag k="ssr:type" v="ås" />
	</node>
	<node lat="59.05312499653262" lon="9.136100002687053" id="-24089">
		<tag k="name" v="Grønnvoll" />
		<tag k="place" v="locality" />
		<tag k="ssr:date" v="2019-12-27" />
		<tag k="ssr:gruppe" v="dyrkamark" />
		<tag k="ssr:hovedgruppe" v="markslag" />
		<tag k="ssr:stedsnr" v="57076" />
		<tag k="ssr:type" v="utmark" />
	</node>
	<node lat="59.05332500000041" lon="9.122844445252955" id="-24090">
		<tag k="name" v="Langmyr" />
		<tag k="natural" v="wetland" />
		<tag k="ssr:date" v="2019-12-27" />
		<tag k="ssr:gruppe" v="våtmark" />
		<tag k="ssr:hovedgruppe" v="markslag" />
		<tag k="ssr:stedsnr" v="57077" />
		<tag k="ssr:type" v="myr" />
	</node>
	<node lat="59.05180555987747" lon="9.114011116259446" id="-24091">
		<tag k="name" v="Stormyrdalen" />
		<tag k="natural" v="valley" />
		<tag k="place" v="locality" />
		<tag k="ssr:date" v="2019-12-27" />
		<tag k="ssr:gruppe" v="senkninger" />
		<tag k="ssr:hovedgruppe" v="terreng" />
		<tag k="ssr:stedsnr" v="57080" />
		<tag k="ssr:type" v="dal" />
	</node>
	<node lat="59.08005555367245" lon="8.897405562908464" id="-24092">
		<tag k="highway" v="path" />
		<tag k="name" v="Aslaksmyrstigen" />
		<tag k="ssr:date" v="2019-12-27" />
		<tag k="ssr:gruppe" v="veg" />
		<tag k="ssr:hovedgruppe" v="infrastruktur" />
		<tag k="ssr:stedsnr" v="57219" />
		<tag k="ssr:type" v="sti" />
	</node>
	<node lat="59.10885833240692" lon="9.135847218577421" id="-24093">
		<tag k="name" v="Sjutjennane" />
		<tag k="natural" v="water" />
		<tag k="ssr:date" v="2019-12-27" />
		<tag k="ssr:gruppe" v="stilleståendeVann" />
		<tag k="ssr:hovedgruppe" v="ferskvann" />
		<tag k="ssr:stedsnr" v="57268" />
		<tag k="ssr:type" v="gruppeAvTjern" />
		<tag k="water" v="lake" />
	</node>
	<node lat="59.240066665719326" lon="8.760352774065492" id="-24094">
		<tag k="name" v="Orreleiken" />
		<tag k="natural" v="wetland" />
		<tag k="ssr:date" v="2019-12-27" />
		<tag k="ssr:gruppe" v="våtmark" />
		<tag k="ssr:hovedgruppe" v="markslag" />
		<tag k="ssr:stedsnr" v="240098" />
		<tag k="ssr:type" v="myr" />
	</node>
	<node lat="59.00419444331684" lon="8.891274997680036" id="-24095">
		<tag k="name" v="Ormtjennlia" />
		<tag k="natural" v="slope" />
		<tag k="place" v="locality" />
		<tag k="ssr:date" v="2019-12-27" />
		<tag k="ssr:gruppe" v="skråninger" />
		<tag k="ssr:hovedgruppe" v="terreng" />
		<tag k="ssr:stedsnr" v="57188" />
		<tag k="ssr:type" v="li" />
	</node>
	<node lat="59.078455556252806" lon="9.059447218451083" id="-24096">
		<tag k="name" v="Jerpetjennmyra" />
		<tag k="natural" v="wetland" />
		<tag k="ssr:date" v="2019-12-27" />
		<tag k="ssr:gruppe" v="våtmark" />
		<tag k="ssr:hovedgruppe" v="markslag" />
		<tag k="ssr:stedsnr" v="57323" />
		<tag k="ssr:type" v="myr" />
	</node>
	<node lat="59.105138890202625" lon="8.932577771763514" id="-24097">
		<tag k="name" v="Bastnesodden" />
		<tag k="natural" v="cape" />
		<tag k="ssr:date" v="2019-12-27" />
		<tag k="ssr:gruppe" v="ferskvannskontur" />
		<tag k="ssr:hovedgruppe" v="ferskvann" />
		<tag k="ssr:stedsnr" v="57329" />
		<tag k="ssr:type" v="nes" />
	</node>
	<node lat="59.07676666514835" lon="9.100411113622387" id="-24098">
		<tag k="name" v="Halvfardalsmoen" />
		<tag k="place" v="locality" />
		<tag k="ssr:date" v="2019-12-27" />
		<tag k="ssr:gruppe" v="vegetasjon" />
		<tag k="ssr:hovedgruppe" v="markslag" />
		<tag k="ssr:stedsnr" v="57336" />
		<tag k="ssr:type" v="skog" />
	</node>
	<node lat="59.0601027736763" lon="9.118247225993903" id="-24099">
		<tag k="name" v="Sandåsen" />
		<tag k="place" v="isolated_dwelling" />
		<tag k="ssr:date" v="2019-12-27" />
		<tag k="ssr:gruppe" v="bolighus" />
		<tag k="ssr:hovedgruppe" v="bebyggelse" />
		<tag k="ssr:stedsnr" v="57412" />
		<tag k="ssr:type" v="eneboligMindreBoligbygg" />
	</node>
	<node lat="59.19721944174914" lon="8.709961108579806" id="-24100">
		<tag k="name" v="Dansarberget" />
		<tag k="place" v="locality" />
		<tag k="ssr:date" v="2019-12-27" />
		<tag k="ssr:gruppe" v="bartFjell" />
		<tag k="ssr:hovedgruppe" v="markslag" />
		<tag k="ssr:stedsnr" v="57477" />
		<tag k="ssr:type" v="fjellIDagen" />
	</node>
	<node lat="59.22799722418786" lon="8.95828610532895" id="-24101">
		<tag k="name" v="Rennedammen" />
		<tag k="place" v="locality" />
		<tag k="ssr:date" v="2021-08-11" />
		<tag k="ssr:gruppe" v="kulturminner" />
		<tag k="ssr:hovedgruppe" v="kultur" />
		<tag k="ssr:stedsnr" v="57488" />
		<tag k="ssr:type" v="annenKulturdetalj" />
	</node>
	<node lat="59.232591670376806" lon="8.968627777894394" id="-24102">
		<tag k="name" v="Lille Breidal" />
		<tag k="natural" v="valley" />
		<tag k="place" v="locality" />
		<tag k="ssr:date" v="2019-12-27" />
		<tag k="ssr:gruppe" v="senkninger" />
		<tag k="ssr:hovedgruppe" v="terreng" />
		<tag k="ssr:stedsnr" v="57490" />
		<tag k="ssr:type" v="dal" />
	</node>
	<node lat="59.04509999925653" lon="9.24888056021682" id="-24103">
		<tag k="name" v="Henseidheia" />
		<tag k="natural" v="hill" />
		<tag k="place" v="locality" />
		<tag k="ssr:date" v="2019-12-27" />
		<tag k="ssr:gruppe" v="høyder" />
		<tag k="ssr:hovedgruppe" v="terreng" />
		<tag k="ssr:stedsnr" v="57703" />
		<tag k="ssr:type" v="hei" />
	</node>
	<node lat="59.10571666545241" lon="8.826561118317837" id="-24104">
		<tag k="name" v="Rustemyr" />
		<tag k="natural" v="wetland" />
		<tag k="ssr:date" v="2019-12-27" />
		<tag k="ssr:gruppe" v="våtmark" />
		<tag k="ssr:hovedgruppe" v="markslag" />
		<tag k="ssr:stedsnr" v="57769" />
		<tag k="ssr:type" v="myr" />
	</node>
	<node lat="59.068277774011996" lon="9.21478334179925" id="-24105">
		<tag k="name" v="Steinstykke" />
		<tag k="place" v="locality" />
		<tag k="ssr:date" v="2019-12-27" />
		<tag k="ssr:gruppe" v="dyrkamark" />
		<tag k="ssr:hovedgruppe" v="markslag" />
		<tag k="ssr:stedsnr" v="57772" />
		<tag k="ssr:type" v="utmark" />
	</node>
	<node lat="59.06448888492769" lon="9.199194436179543" id="-24106">
		<tag k="name" v="Røysland" />
		<tag k="place" v="isolated_dwelling" />
		<tag k="ssr:date" v="2019-12-27" />
		<tag k="ssr:gruppe" v="bolighus" />
		<tag k="ssr:hovedgruppe" v="bebyggelse" />
		<tag k="ssr:stedsnr" v="57786" />
		<tag k="ssr:type" v="eneboligMindreBoligbygg" />
	</node>
	<node lat="59.02079166824486" lon="9.242980561419717" id="-24107">
		<tag k="name" v="Taraldsbu" />
		<tag k="place" v="locality" />
		<tag k="ssr:date" v="2020-03-09" />
		<tag k="ssr:gruppe" v="kulturminner" />
		<tag k="ssr:hovedgruppe" v="kultur" />
		<tag k="ssr:stedsnr" v="57907" />
		<tag k="ssr:type" v="annenKulturdetalj" />
	</node>
	<node lat="58.950091669007335" lon="9.028074998567957" id="-24108">
		<tag k="name" v="Glopptjenn" />
		<tag k="natural" v="water" />
		<tag k="ssr:date" v="2019-12-27" />
		<tag k="ssr:gruppe" v="stilleståendeVann" />
		<tag k="ssr:hovedgruppe" v="ferskvann" />
		<tag k="ssr:stedsnr" v="57922" />
		<tag k="ssr:type" v="tjern" />
	</node>
	<node lat="59.06206944106714" lon="8.731950001196468" id="-24109">
		<tag k="name" v="Bjønndalsrompa" />
		<tag k="natural" v="wetland" />
		<tag k="ssr:date" v="2019-12-27" />
		<tag k="ssr:gruppe" v="våtmark" />
		<tag k="ssr:hovedgruppe" v="markslag" />
		<tag k="ssr:stedsnr" v="57620" />
		<tag k="ssr:type" v="myr" />
	</node>
	<node lat="59.0753111096252" lon="8.829172229195784" id="-24110">
		<tag k="name" v="Revehålene" />
		<tag k="natural" v="valley" />
		<tag k="place" v="locality" />
		<tag k="ssr:date" v="2019-12-27" />
		<tag k="ssr:gruppe" v="senkninger" />
		<tag k="ssr:hovedgruppe" v="terreng" />
		<tag k="ssr:stedsnr" v="57624" />
		<tag k="ssr:type" v="søkk" />
	</node>
	<node lat="59.034319447929306" lon="9.29851388170165" id="-24111">
		<tag k="name" v="Engåneset" />
		<tag k="natural" v="cape" />
		<tag k="ssr:date" v="2019-12-27" />
		<tag k="ssr:gruppe" v="ferskvannskontur" />
		<tag k="ssr:hovedgruppe" v="ferskvann" />
		<tag k="ssr:stedsnr" v="57673" />
		<tag k="ssr:type" v="nes" />
	</node>
	<node lat="59.035899996266274" lon="9.293416672195624" id="-24112">
		<tag k="name" v="Engåbakken" />
		<tag k="natural" v="slope" />
		<tag k="place" v="locality" />
		<tag k="ssr:date" v="2019-12-27" />
		<tag k="ssr:gruppe" v="skråninger" />
		<tag k="ssr:hovedgruppe" v="terreng" />
		<tag k="ssr:stedsnr" v="57676" />
		<tag k="ssr:type" v="bakke" />
	</node>
	<node lat="59.12207222072169" lon="8.779711112241248" id="-24113">
		<tag k="name" v="Hestehommen" />
		<tag k="place" v="locality" />
		<tag k="ssr:date" v="2019-12-27" />
		<tag k="ssr:gruppe" v="vegetasjon" />
		<tag k="ssr:hovedgruppe" v="markslag" />
		<tag k="ssr:stedsnr" v="57808" />
		<tag k="ssr:type" v="skog" />
	</node>
</osm>
