<?xml version="1.0" encoding="UTF-8"?>
<osm generator="osmapis" version="0.6">
	<node id="-45818" lat="58.7230166645" lon="9.24768333091">
		<tag k="name" v="Midtskjær" />
		<tag k="ssr:date" v="2019-12-27" />
		<tag k="ssr:gruppe" v="navigasjon" />
		<tag k="ssr:hovedgruppe" v="infrastruktur" />
		<tag k="ssr:stedsnr" v="85029" />
		<tag k="ssr:type" v="fyrlykt" />
	</node>
	<node id="-46712" lat="58.7234667085" lon="9.2407281487">
		<tag k="name" v="Risør havnefyr, nedre" />
		<tag k="ssr:date" v="2020-01-29" />
		<tag k="ssr:gruppe" v="navigasjon" />
		<tag k="ssr:hovedgruppe" v="infrastruktur" />
		<tag k="ssr:stedsnr" v="963523" />
		<tag k="ssr:type" v="fyrlykt" />
	</node>
	<node id="-45937" lat="58.6990305554" lon="9.21710833444">
		<tag k="name" v="Furuøy" />
		<tag k="ssr:date" v="2019-12-27" />
		<tag k="ssr:gruppe" v="navigasjon" />
		<tag k="ssr:hovedgruppe" v="infrastruktur" />
		<tag k="ssr:stedsnr" v="145058" />
		<tag k="ssr:type" v="fyrlykt" />
	</node>
	<node id="-45022" lat="58.710458334" lon="9.23540554746">
		<tag k="name" v="Bjørnskjær" />
		<tag k="ssr:date" v="2019-12-27" />
		<tag k="ssr:gruppe" v="navigasjon" />
		<tag k="ssr:hovedgruppe" v="infrastruktur" />
		<tag k="ssr:stedsnr" v="452062" />
		<tag k="ssr:type" v="fyrlykt" />
	</node>
	<node id="-45645" lat="58.7223928472" lon="9.15978853842">
		<tag k="name" v="Hanøya" />
		<tag k="ssr:date" v="2019-12-27" />
		<tag k="ssr:gruppe" v="veg" />
		<tag k="ssr:hovedgruppe" v="infrastruktur" />
		<tag k="ssr:stedsnr" v="1054178" />
		<tag k="ssr:type" v="adressenavn" />
	</node>
	<node id="-45644" lat="58.7476759103" lon="9.09457067044">
		<tag k="name" v="Frøyna" />
		<tag k="ssr:date" v="2019-12-27" />
		<tag k="ssr:gruppe" v="veg" />
		<tag k="ssr:hovedgruppe" v="infrastruktur" />
		<tag k="ssr:stedsnr" v="1053946" />
		<tag k="ssr:type" v="adressenavn" />
	</node>
	<node id="-45964" lat="58.7295999978" lon="9.24855833507">
		<tag k="name" v="Buviksugga" />
		<tag k="ssr:date" v="2019-12-27" />
		<tag k="ssr:gruppe" v="navigasjon" />
		<tag k="ssr:hovedgruppe" v="infrastruktur" />
		<tag k="ssr:stedsnr" v="188529" />
		<tag k="ssr:type" v="fyrlykt" />
	</node>
	<node id="-45373" lat="58.7094916689" lon="9.24332222933">
		<tag k="name" v="Stangholmen" />
		<tag k="ssr:date" v="2019-12-27" />
		<tag k="ssr:gruppe" v="navigasjon" />
		<tag k="ssr:hovedgruppe" v="infrastruktur" />
		<tag k="ssr:stedsnr" v="607170" />
		<tag k="ssr:type" v="fyrlykt" />
	</node>
	<node id="-46267" lat="58.7388916705" lon="9.15920833609">
		<tag k="name" v="Havsnes" />
		<tag k="ssr:date" v="2019-12-27" />
		<tag k="ssr:gruppe" v="navigasjon" />
		<tag k="ssr:hovedgruppe" v="infrastruktur" />
		<tag k="ssr:stedsnr" v="431523" />
		<tag k="ssr:type" v="fyrlykt" />
	</node>
	<node id="-45369" lat="58.7441694406" lon="9.32342222124">
		<tag k="name" v="Grønholmskjær" />
		<tag k="ssr:date" v="2019-12-27" />
		<tag k="ssr:gruppe" v="navigasjon" />
		<tag k="ssr:hovedgruppe" v="infrastruktur" />
		<tag k="ssr:stedsnr" v="570059" />
		<tag k="ssr:type" v="fyrlykt" />
	</node>
	<node id="-45367" lat="58.7185777772" lon="9.21204722919">
		<tag k="alt_name" v="Risør" />
		<tag k="name" v="Risør kommune" />
		<tag k="ssr:date" v="2020-01-07" />
		<tag k="ssr:gruppe" v="administrativeIndelinger" />
		<tag k="ssr:hovedgruppe" v="offentligAdministrasjon" />
		<tag k="ssr:stedsnr" v="692267" />
		<tag k="ssr:type" v="kommune" />
	</node>
	<node id="-46750" lat="58.7214469291" lon="9.24226646874">
		<tag k="name" v="Batteristredet" />
		<tag k="ssr:date" v="2020-06-15" />
		<tag k="ssr:gruppe" v="veg" />
		<tag k="ssr:hovedgruppe" v="infrastruktur" />
		<tag k="ssr:stedsnr" v="1077342" />
		<tag k="ssr:type" v="adressenavn" />
	</node>
	<node id="-46749" lat="58.7219023705" lon="9.24173436264">
		<tag k="name" v="Holmen" />
		<tag k="ssr:date" v="2020-06-15" />
		<tag k="ssr:gruppe" v="veg" />
		<tag k="ssr:hovedgruppe" v="infrastruktur" />
		<tag k="ssr:stedsnr" v="1077341" />
		<tag k="ssr:type" v="adressenavn" />
	</node>
	<node id="-45464" lat="58.7249005261" lon="9.24034849351">
		<tag k="name" v="Risør havnefyr, øvre" />
		<tag k="ssr:date" v="2020-09-03" />
		<tag k="ssr:gruppe" v="navigasjon" />
		<tag k="ssr:hovedgruppe" v="infrastruktur" />
		<tag k="ssr:stedsnr" v="903469" />
		<tag k="ssr:type" v="fyrlykt" />
	</node>
	<node id="-46739" lat="58.1511039845" lon="7.99409139476">
		<tag k="name" v="Agder fylke" />
		<tag k="ssr:date" v="2020-01-13" />
		<tag k="ssr:gruppe" v="administrativeIndelinger" />
		<tag k="ssr:hovedgruppe" v="offentligAdministrasjon" />
		<tag k="ssr:stedsnr" v="1073974" />
		<tag k="ssr:type" v="fylke" />
	</node>
	<node id="-46738" lat="58.6591512259" lon="9.16434259634">
		<tag k="name" v="Åkvåg" />
		<tag k="ssr:date" v="2019-12-27" />
		<tag k="ssr:gruppe" v="veg" />
		<tag k="ssr:hovedgruppe" v="infrastruktur" />
		<tag k="ssr:stedsnr" v="1055581" />
		<tag k="ssr:type" v="adressenavn" />
	</node>
	<node id="-46737" lat="58.7435753586" lon="9.29838229644">
		<tag k="name" v="Østerfjorden" />
		<tag k="ssr:date" v="2019-12-27" />
		<tag k="ssr:gruppe" v="veg" />
		<tag k="ssr:hovedgruppe" v="infrastruktur" />
		<tag k="ssr:stedsnr" v="1055557" />
		<tag k="ssr:type" v="adressenavn" />
	</node>
	<node id="-46736" lat="58.6937055539" lon="9.19675073848">
		<tag k="name" v="Valåsen" />
		<tag k="ssr:date" v="2019-12-27" />
		<tag k="ssr:gruppe" v="veg" />
		<tag k="ssr:hovedgruppe" v="infrastruktur" />
		<tag k="ssr:stedsnr" v="1055324" />
		<tag k="ssr:type" v="adressenavn" />
	</node>
	<node id="-46735" lat="58.7331298053" lon="9.28269590782">
		<tag k="name" v="Vardøya" />
		<tag k="ssr:date" v="2019-12-27" />
		<tag k="ssr:gruppe" v="veg" />
		<tag k="ssr:hovedgruppe" v="infrastruktur" />
		<tag k="ssr:stedsnr" v="1055267" />
		<tag k="ssr:type" v="adressenavn" />
	</node>
	<node id="-46734" lat="58.6995158663" lon="9.18803486114">
		<tag k="name" v="Ytre Sandnesfjorden" />
		<tag k="ssr:date" v="2019-12-27" />
		<tag k="ssr:gruppe" v="veg" />
		<tag k="ssr:hovedgruppe" v="infrastruktur" />
		<tag k="ssr:stedsnr" v="1055453" />
		<tag k="ssr:type" v="adressenavn" />
	</node>
	<node id="-46733" lat="58.7094743725" lon="9.24315509477">
		<tag k="name" v="Stangholmen" />
		<tag k="ssr:date" v="2019-12-27" />
		<tag k="ssr:gruppe" v="veg" />
		<tag k="ssr:hovedgruppe" v="infrastruktur" />
		<tag k="ssr:stedsnr" v="1054963" />
		<tag k="ssr:type" v="adressenavn" />
	</node>
	<node id="-46732" lat="58.7251051132" lon="9.24548653719">
		<tag k="name" v="Skomakerskjær" />
		<tag k="ssr:date" v="2019-12-27" />
		<tag k="ssr:gruppe" v="veg" />
		<tag k="ssr:hovedgruppe" v="infrastruktur" />
		<tag k="ssr:stedsnr" v="1054958" />
		<tag k="ssr:type" v="adressenavn" />
	</node>
	<node id="-46731" lat="58.7414130331" lon="9.1537599054">
		<tag k="name" v="Nordfjorden" />
		<tag k="ssr:date" v="2019-12-27" />
		<tag k="ssr:gruppe" v="veg" />
		<tag k="ssr:hovedgruppe" v="infrastruktur" />
		<tag k="ssr:stedsnr" v="1054900" />
		<tag k="ssr:type" v="adressenavn" />
	</node>
	<node id="-46730" lat="58.722300026" lon="9.26073080843">
		<tag k="name" v="Risøya" />
		<tag k="ssr:date" v="2019-12-27" />
		<tag k="ssr:gruppe" v="veg" />
		<tag k="ssr:hovedgruppe" v="infrastruktur" />
		<tag k="ssr:stedsnr" v="1054871" />
		<tag k="ssr:type" v="adressenavn" />
	</node>
	<node id="-46729" lat="58.7288090408" lon="9.21309645228">
		<tag k="name" v="Korshavn" />
		<tag k="ssr:date" v="2019-12-27" />
		<tag k="ssr:gruppe" v="veg" />
		<tag k="ssr:hovedgruppe" v="infrastruktur" />
		<tag k="ssr:stedsnr" v="1054250" />
		<tag k="ssr:type" v="adressenavn" />
	</node>
</osm>
