<?xml version="1.0" encoding="UTF-8"?>
<osm generator="osmapis" version="0.6">
	<node id="-3071" lat="59.0947111107" lon="11.2518888952">
		<tag k="name" v="Svinesundbroen F" />
		<tag k="ssr:date" v="2016-05-11" />
		<tag k="ssr:gruppe" v="navigasjon" />
		<tag k="ssr:hovedgruppe" v="infrastruktur" />
		<tag k="ssr:stedsnr" v="737060" />
		<tag k="ssr:type" v="fyrlykt" />
	</node>
	<node id="-1789" lat="59.0941249972" lon="11.2520416642">
		<tag k="name" v="Svinesundbroen E" />
		<tag k="ssr:date" v="2016-05-10" />
		<tag k="ssr:gruppe" v="navigasjon" />
		<tag k="ssr:hovedgruppe" v="infrastruktur" />
		<tag k="ssr:stedsnr" v="130049" />
		<tag k="ssr:type" v="fyrlykt" />
	</node>
	<node id="-2810" lat="59.1004944461" lon="11.2239777731">
		<tag k="name" v="Steigenveien" />
		<tag k="ssr:date" v="2019-05-31" />
		<tag k="ssr:gruppe" v="veg" />
		<tag k="ssr:hovedgruppe" v="infrastruktur" />
		<tag k="ssr:stedsnr" v="667384" />
		<tag k="ssr:type" v="adressenavn" />
	</node>
	<node id="-1397" lat="59.1334312628" lon="11.4278382666">
		<tag k="name" v="Wilhelm Hansens vei" />
		<tag k="ssr:date" v="2019-05-31" />
		<tag k="ssr:gruppe" v="veg" />
		<tag k="ssr:hovedgruppe" v="infrastruktur" />
		<tag k="ssr:stedsnr" v="1064107" />
		<tag k="ssr:type" v="adressenavn" />
	</node>
	<node id="-1396" lat="59.1183564041" lon="11.3915597002">
		<tag k="name" v="Landsbergs plass" />
		<tag k="ssr:date" v="2019-05-31" />
		<tag k="ssr:gruppe" v="veg" />
		<tag k="ssr:hovedgruppe" v="infrastruktur" />
		<tag k="ssr:stedsnr" v="1062491" />
		<tag k="ssr:type" v="adressenavn" />
	</node>
	<node id="-1395" lat="59.1512188824" lon="11.4806628355">
		<tag k="name" v="Lille Kjepina" />
		<tag k="ssr:date" v="2019-05-31" />
		<tag k="ssr:gruppe" v="veg" />
		<tag k="ssr:hovedgruppe" v="infrastruktur" />
		<tag k="ssr:stedsnr" v="1062850" />
		<tag k="ssr:type" v="adressenavn" />
	</node>
	<node id="-1362" lat="59.1494821806" lon="11.624119603">
		<tag k="name" v="Lillemørkveien" />
		<tag k="ssr:date" v="2019-05-31" />
		<tag k="ssr:gruppe" v="veg" />
		<tag k="ssr:hovedgruppe" v="infrastruktur" />
		<tag k="ssr:stedsnr" v="1062960" />
		<tag k="ssr:type" v="adressenavn" />
	</node>
	<node id="-1125" lat="59.1252694474" lon="11.3889472307">
		<tag k="name" v="Halden postkontor" />
		<tag k="ssr:date" v="2016-05-10" />
		<tag k="ssr:gruppe" v="administrativeIndelinger" />
		<tag k="ssr:hovedgruppe" v="offentligAdministrasjon" />
		<tag k="ssr:stedsnr" v="343628" />
		<tag k="ssr:type" v="poststed" />
	</node>
	<node id="-1373" lat="59.2054447265" lon="11.5718339762">
		<tag k="name" v="Viråsveien" />
		<tag k="ssr:date" v="2019-05-31" />
		<tag k="ssr:gruppe" v="veg" />
		<tag k="ssr:hovedgruppe" v="infrastruktur" />
		<tag k="ssr:stedsnr" v="1064197" />
		<tag k="ssr:type" v="adressenavn" />
	</node>
	<node id="-1370" lat="59.1559549227" lon="11.4862815971">
		<tag k="name" v="Store Kjepina" />
		<tag k="ssr:date" v="2019-05-31" />
		<tag k="ssr:gruppe" v="veg" />
		<tag k="ssr:hovedgruppe" v="infrastruktur" />
		<tag k="ssr:stedsnr" v="1063817" />
		<tag k="ssr:type" v="adressenavn" />
	</node>
	<node id="-1369" lat="59.0666194542" lon="11.4132553934">
		<tag k="name" v="Stenhoggerveien" />
		<tag k="ssr:date" v="2019-05-31" />
		<tag k="ssr:gruppe" v="veg" />
		<tag k="ssr:hovedgruppe" v="infrastruktur" />
		<tag k="ssr:stedsnr" v="1063794" />
		<tag k="ssr:type" v="adressenavn" />
	</node>
	<node id="-3672" lat="59.1615887272" lon="11.5336665873">
		<tag k="name" v="Seljevikveien" />
		<tag k="ssr:date" v="2019-05-31" />
		<tag k="ssr:gruppe" v="veg" />
		<tag k="ssr:hovedgruppe" v="infrastruktur" />
		<tag k="ssr:stedsnr" v="976086" />
		<tag k="ssr:type" v="adressenavn" />
	</node>
	<node id="-3671" lat="58.9799680808" lon="11.6421578293">
		<tag k="name" v="Bollerødveien" />
		<tag k="ssr:date" v="2019-05-31" />
		<tag k="ssr:gruppe" v="veg" />
		<tag k="ssr:hovedgruppe" v="infrastruktur" />
		<tag k="ssr:stedsnr" v="975907" />
		<tag k="ssr:type" v="adressenavn" />
	</node>
	<node id="-3670" lat="60.5908609473" lon="9.63819281559">
		<tag k="fixme" v="multiple name tags, choose one and add the other to alt_name" />
		<tag k="name" v="Austlandet;Østlandet" />
		<tag k="ssr:date" v="2018-01-09" />
		<tag k="ssr:gruppe" v="administrativeIndelinger" />
		<tag k="ssr:hovedgruppe" v="offentligAdministrasjon" />
		<tag k="ssr:stedsnr" v="974775" />
		<tag k="ssr:type" v="annenAdministrativInndeling" />
	</node>
	<node id="-1365" lat="59.1280715113" lon="11.3865044406">
		<tag k="name" v="Olavs plass" />
		<tag k="ssr:date" v="2019-05-31" />
		<tag k="ssr:gruppe" v="veg" />
		<tag k="ssr:hovedgruppe" v="infrastruktur" />
		<tag k="ssr:stedsnr" v="1063286" />
		<tag k="ssr:type" v="adressenavn" />
	</node>
	<node id="-1364" lat="59.1170999877" lon="11.3785321788">
		<tag k="name" v="Sauøya" />
		<tag k="ssr:date" v="2019-05-31" />
		<tag k="ssr:gruppe" v="veg" />
		<tag k="ssr:hovedgruppe" v="infrastruktur" />
		<tag k="ssr:stedsnr" v="1063149" />
		<tag k="ssr:type" v="adressenavn" />
	</node>
	<node id="-1874" lat="59.0940944407" lon="11.2517416748">
		<tag k="name" v="Svinesundbroen B" />
		<tag k="ssr:date" v="2016-05-10" />
		<tag k="ssr:gruppe" v="navigasjon" />
		<tag k="ssr:hovedgruppe" v="infrastruktur" />
		<tag k="ssr:stedsnr" v="175048" />
		<tag k="ssr:type" v="fyrlykt" />
	</node>
	<node id="-1361" lat="59.1621785861" lon="11.5190484833">
		<tag k="name" v="Lilleøya" />
		<tag k="ssr:date" v="2019-05-31" />
		<tag k="ssr:gruppe" v="veg" />
		<tag k="ssr:hovedgruppe" v="infrastruktur" />
		<tag k="ssr:stedsnr" v="1062947" />
		<tag k="ssr:type" v="adressenavn" />
	</node>
	<node id="-1360" lat="59.1768937502" lon="11.384411852">
		<tag k="name" v="Mjølnerødveien" />
		<tag k="ssr:date" v="2019-05-31" />
		<tag k="ssr:gruppe" v="veg" />
		<tag k="ssr:hovedgruppe" v="infrastruktur" />
		<tag k="ssr:stedsnr" v="1061723" />
		<tag k="ssr:type" v="adressenavn" />
	</node>
	<node id="-1359" lat="59.1261714826" lon="11.3882072973">
		<tag k="name" v="Haakon VIIs plass" />
		<tag k="ssr:date" v="2019-05-31" />
		<tag k="ssr:gruppe" v="veg" />
		<tag k="ssr:hovedgruppe" v="infrastruktur" />
		<tag k="ssr:stedsnr" v="1061524" />
		<tag k="ssr:type" v="adressenavn" />
	</node>
	<node id="-1358" lat="59.0936916696" lon="11.2469833317">
		<tag k="name" v="Mølodden lykt" />
		<tag k="ssr:date" v="2016-05-10" />
		<tag k="ssr:gruppe" v="navigasjon" />
		<tag k="ssr:hovedgruppe" v="infrastruktur" />
		<tag k="ssr:stedsnr" v="478919" />
		<tag k="ssr:type" v="fyrlykt" />
	</node>
	<node id="-1179" lat="59.1007472207" lon="11.288536118">
		<tag k="name" v="Kråkenebbet lykt" />
		<tag k="ssr:date" v="2016-05-10" />
		<tag k="ssr:gruppe" v="navigasjon" />
		<tag k="ssr:hovedgruppe" v="infrastruktur" />
		<tag k="ssr:stedsnr" v="357874" />
		<tag k="ssr:type" v="fyrlykt" />
	</node>
	<node id="-2623" lat="59.1076833374" lon="11.300124998">
		<tag k="name" v="Unnebergholmene" />
		<tag k="ssr:date" v="2019-05-31" />
		<tag k="ssr:gruppe" v="veg" />
		<tag k="ssr:hovedgruppe" v="infrastruktur" />
		<tag k="ssr:stedsnr" v="606382" />
		<tag k="ssr:type" v="adressenavn" />
	</node>
	<node id="-2617" lat="59.1176027807" lon="11.3615083269">
		<tag k="name" v="Hollenderen lykt" />
		<tag k="ssr:date" v="2016-05-10" />
		<tag k="ssr:gruppe" v="navigasjon" />
		<tag k="ssr:hovedgruppe" v="infrastruktur" />
		<tag k="ssr:stedsnr" v="601049" />
		<tag k="ssr:type" v="fyrlykt" />
	</node>
	<node id="-1367" lat="59.1421295276" lon="11.3831993918">
		<tag k="name" v="Trafoveien" />
		<tag k="ssr:date" v="2019-05-31" />
		<tag k="ssr:gruppe" v="veg" />
		<tag k="ssr:hovedgruppe" v="infrastruktur" />
		<tag k="ssr:stedsnr" v="1063652" />
		<tag k="ssr:type" v="adressenavn" />
	</node>
	<node id="-1967" lat="59.1225727224" lon="11.3871051881">
		<tag k="loc_name" v="Halden" />
		<tag k="name" v="Halden kommune" />
		<tag k="ssr:date" v="2019-01-28" />
		<tag k="ssr:gruppe" v="administrativeIndelinger" />
		<tag k="ssr:hovedgruppe" v="offentligAdministrasjon" />
		<tag k="ssr:stedsnr" v="206430" />
		<tag k="ssr:type" v="kommune" />
	</node>
	<node id="-1303" lat="59.110125524" lon="11.4456112895">
		<tag k="name" v="Brattåsen" />
		<tag k="ssr:date" v="2019-05-31" />
		<tag k="ssr:gruppe" v="veg" />
		<tag k="ssr:hovedgruppe" v="infrastruktur" />
		<tag k="ssr:stedsnr" v="1059081" />
		<tag k="ssr:type" v="adressenavn" />
	</node>
	<node id="-2856" lat="59.0994538653" lon="11.3748763624">
		<tag k="name" v="Skysskafferen lykt" />
		<tag k="old_name" v="Skyskafferen lykt" />
		<tag k="ssr:date" v="2019-01-31" />
		<tag k="ssr:gruppe" v="navigasjon" />
		<tag k="ssr:hovedgruppe" v="infrastruktur" />
		<tag k="ssr:stedsnr" v="669816" />
		<tag k="ssr:type" v="fyrlykt" />
	</node>
	<node id="-1180" lat="59.0990888909" lon="11.2780027763">
		<tag k="name" v="Blåsoppynten lykt" />
		<tag k="ssr:date" v="2016-05-10" />
		<tag k="ssr:gruppe" v="navigasjon" />
		<tag k="ssr:hovedgruppe" v="infrastruktur" />
		<tag k="ssr:stedsnr" v="357897" />
		<tag k="ssr:type" v="fyrlykt" />
	</node>
	<node id="-1314" lat="59.1104299169" lon="11.2729427558">
		<tag k="name" v="Kongefaret" />
		<tag k="ssr:date" v="2019-05-31" />
		<tag k="ssr:gruppe" v="veg" />
		<tag k="ssr:hovedgruppe" v="infrastruktur" />
		<tag k="ssr:stedsnr" v="1060766" />
		<tag k="ssr:type" v="adressenavn" />
	</node>
	<node id="-1313" lat="59.1134838329" lon="11.4081961548">
		<tag k="name" v="Kongeveien" />
		<tag k="ssr:date" v="2019-05-31" />
		<tag k="ssr:gruppe" v="veg" />
		<tag k="ssr:hovedgruppe" v="infrastruktur" />
		<tag k="ssr:stedsnr" v="1060756" />
		<tag k="ssr:type" v="adressenavn" />
	</node>
	<node id="-1309" lat="59.1557615448" lon="11.5038266719">
		<tag k="name" v="Halvfaren" />
		<tag k="ssr:date" v="2019-05-31" />
		<tag k="ssr:gruppe" v="veg" />
		<tag k="ssr:hovedgruppe" v="infrastruktur" />
		<tag k="ssr:stedsnr" v="1060085" />
		<tag k="ssr:type" v="adressenavn" />
	</node>
	<node id="-1308" lat="59.132605709" lon="11.4197982691">
		<tag k="name" v="Grims vei" />
		<tag k="ssr:date" v="2019-05-31" />
		<tag k="ssr:gruppe" v="veg" />
		<tag k="ssr:hovedgruppe" v="infrastruktur" />
		<tag k="ssr:stedsnr" v="1060019" />
		<tag k="ssr:type" v="adressenavn" />
	</node>
	<node id="-1307" lat="59.1119067378" lon="11.2739751572">
		<tag k="name" v="Gamle Kongevei" />
		<tag k="ssr:date" v="2019-05-31" />
		<tag k="ssr:gruppe" v="veg" />
		<tag k="ssr:hovedgruppe" v="infrastruktur" />
		<tag k="ssr:stedsnr" v="1059836" />
		<tag k="ssr:type" v="adressenavn" />
	</node>
	<node id="-1177" lat="59.0944305534" lon="11.2516416685">
		<tag k="name" v="Svinesundbroen A" />
		<tag k="ssr:date" v="2016-05-10" />
		<tag k="ssr:gruppe" v="navigasjon" />
		<tag k="ssr:hovedgruppe" v="infrastruktur" />
		<tag k="ssr:stedsnr" v="357074" />
		<tag k="ssr:type" v="fyrlykt" />
	</node>
	<node id="-1304" lat="59.018013593" lon="11.517085624">
		<tag k="name" v="Buergatene" />
		<tag k="ssr:date" v="2019-05-31" />
		<tag k="ssr:gruppe" v="veg" />
		<tag k="ssr:hovedgruppe" v="infrastruktur" />
		<tag k="ssr:stedsnr" v="1059345" />
		<tag k="ssr:type" v="adressenavn" />
	</node>
	<node id="-2327" lat="59.040141666" lon="11.4193000005">
		<tag k="name" v="Fløberg lykt" />
		<tag k="ssr:date" v="2016-05-10" />
		<tag k="ssr:gruppe" v="navigasjon" />
		<tag k="ssr:hovedgruppe" v="infrastruktur" />
		<tag k="ssr:stedsnr" v="487235" />
		<tag k="ssr:type" v="fyrlykt" />
	</node>
	<node id="-1301" lat="59.1078000301" lon="11.440142336">
		<tag k="name" v="Brattåstoppen" />
		<tag k="ssr:date" v="2019-05-31" />
		<tag k="ssr:gruppe" v="veg" />
		<tag k="ssr:hovedgruppe" v="infrastruktur" />
		<tag k="ssr:stedsnr" v="1059083" />
		<tag k="ssr:type" v="adressenavn" />
	</node>
	<node id="-2324" lat="59.0884083325" lon="11.2255833311">
		<tag k="name" v="Sponvikskansen lykt" />
		<tag k="ssr:date" v="2016-05-10" />
		<tag k="ssr:gruppe" v="navigasjon" />
		<tag k="ssr:hovedgruppe" v="infrastruktur" />
		<tag k="ssr:stedsnr" v="487201" />
		<tag k="ssr:type" v="fyrlykt" />
	</node>
	<node id="-1368" lat="59.0660141198" lon="11.414498702">
		<tag k="name" v="Sofienbergveien" />
		<tag k="ssr:date" v="2019-05-31" />
		<tag k="ssr:gruppe" v="veg" />
		<tag k="ssr:hovedgruppe" v="infrastruktur" />
		<tag k="ssr:stedsnr" v="1063721" />
		<tag k="ssr:type" v="adressenavn" />
	</node>
	<node id="-3340" lat="59.0948138925" lon="11.2512472188">
		<tag k="name" v="Rørbek lykt" />
		<tag k="ssr:date" v="2016-05-11" />
		<tag k="ssr:gruppe" v="navigasjon" />
		<tag k="ssr:hovedgruppe" v="infrastruktur" />
		<tag k="ssr:stedsnr" v="843909" />
		<tag k="ssr:type" v="fyrlykt" />
	</node>
	<node id="-3339" lat="59.094683332" lon="11.2515722166">
		<tag k="name" v="Svinesundbroen C" />
		<tag k="ssr:date" v="2016-05-11" />
		<tag k="ssr:gruppe" v="navigasjon" />
		<tag k="ssr:hovedgruppe" v="infrastruktur" />
		<tag k="ssr:stedsnr" v="843066" />
		<tag k="ssr:type" v="fyrlykt" />
	</node>
	<node id="-2442" lat="59.1122694479" lon="11.326025001">
		<tag k="name" v="Knivsøyholmen lykt" />
		<tag k="ssr:date" v="2016-05-10" />
		<tag k="ssr:gruppe" v="navigasjon" />
		<tag k="ssr:hovedgruppe" v="infrastruktur" />
		<tag k="ssr:stedsnr" v="539868" />
		<tag k="ssr:type" v="fyrlykt" />
	</node>
	<node id="-2441" lat="59.094469449" lon="11.2519777734">
		<tag k="name" v="Svinesundbroen D" />
		<tag k="ssr:date" v="2016-05-10" />
		<tag k="ssr:gruppe" v="navigasjon" />
		<tag k="ssr:hovedgruppe" v="infrastruktur" />
		<tag k="ssr:stedsnr" v="539054" />
		<tag k="ssr:type" v="fyrlykt" />
	</node>
	<node id="-1366" lat="59.1159913046" lon="11.431034931">
		<tag k="name" v="Orødgrenda" />
		<tag k="ssr:date" v="2019-05-31" />
		<tag k="ssr:gruppe" v="veg" />
		<tag k="ssr:hovedgruppe" v="infrastruktur" />
		<tag k="ssr:stedsnr" v="1063348" />
		<tag k="ssr:type" v="adressenavn" />
	</node>
</osm>
