<?xml version="1.0" encoding="UTF-8"?>
<osm generator="osmapis" version="0.6">
	<node id="-584191" lat="62.4222944435" lon="8.33979166313">
		<tag k="name" v="Høyøya" />
		<tag k="place" v="locality" />
		<tag k="ssr:stedsnr" v="20794" />
	</node>
	<node id="-583678" lat="62.7298999982" lon="7.83730554646">
		<tag k="name" v="Elgenesmyran" />
		<tag k="natural" v="wetland" />
		<tag k="ssr:stedsnr" v="280927" />
	</node>
	<node id="-584699" lat="62.4390999978" lon="8.28905277938">
		<tag k="name" v="Einan" />
		<tag k="place" v="locality" />
		<tag k="ssr:stedsnr" v="203769" />
	</node>
	<node id="-585722" lat="62.5320805528" lon="8.17583332622">
		<tag k="name" v="Styggura" />
		<tag k="natural" v="scree" />
		<tag k="ssr:stedsnr" v="765130" />
	</node>
	<node id="-585720" lat="62.5970555533" lon="8.17213889179">
		<tag k="name" v="Slåssura" />
		<tag k="natural" v="scree" />
		<tag k="ssr:stedsnr" v="765112" />
	</node>
	<node id="-585719" lat="62.571961113" lon="8.18022777958">
		<tag k="name" v="Gjerde" />
		<tag k="place" v="locality" />
		<tag k="ssr:stedsnr" v="765106" />
	</node>
	<node id="-585714" lat="62.6999027803" lon="7.75759722295">
		<tag k="name" v="Bekren" />
		<tag k="natural" v="stone" />
		<tag k="ssr:stedsnr" v="765022" />
	</node>
	<node id="-585710" lat="62.4231472194" lon="8.33009165709">
		<tag k="name" v="Storura" />
		<tag k="natural" v="scree" />
		<tag k="ssr:stedsnr" v="748778" />
	</node>
	<node id="-583661" lat="62.425941667" lon="8.3089861111">
		<tag k="name" v="Nysteinen" />
		<tag k="natural" v="stone" />
		<tag k="ssr:stedsnr" v="280768" />
	</node>
	<node id="-583656" lat="62.7943416687" lon="8.13862777216">
		<tag k="name" v="Stormyra" />
		<tag k="natural" v="wetland" />
		<tag k="ssr:stedsnr" v="280734" />
	</node>
	<node id="-585702" lat="62.8421027788" lon="8.12476666794">
		<tag k="alt_name" v="Rødsand Gruver" />
		<tag k="landuse" v="quarry" />
		<tag k="name" v="Gruver" />
		<tag k="ssr:stedsnr" v="740512" />
	</node>
	<node id="-584677" lat="62.6352527757" lon="8.07152777004">
		<tag k="name" v="Blåsvaet" />
		<tag k="place" v="locality" />
		<tag k="ssr:stedsnr" v="193394" />
	</node>
	<node id="-583652" lat="62.7895111079" lon="7.80797499767">
		<tag k="historic" v="shieling" />
		<tag k="name" v="Setra" />
		<tag k="place" v="locality" />
		<tag k="ssr:stedsnr" v="280676" />
	</node>
	<node id="-583651" lat="62.8208611121" lon="7.82415276892">
		<tag k="name" v="Etarmyra" />
		<tag k="natural" v="wetland" />
		<tag k="ssr:stedsnr" v="280655" />
	</node>
	<node id="-584528" lat="62.4338138884" lon="8.30854722263">
		<tag k="name" v="Espet" />
		<tag k="place" v="locality" />
		<tag k="ssr:stedsnr" v="141736" />
	</node>
	<node id="-584947" lat="62.7548722213" lon="8.04808610385">
		<tag k="name" v="Bjørnasvaet" />
		<tag k="place" v="locality" />
		<tag k="ssr:stedsnr" v="462369" />
	</node>
	<node id="-583642" lat="62.8066555584" lon="7.84521945045">
		<tag k="name" v="Bustisteinen" />
		<tag k="natural" v="stone" />
		<tag k="ssr:stedsnr" v="280544" />
	</node>
	<node id="-583640" lat="62.7491666679" lon="8.09525277304">
		<tag k="name" v="Langmyran" />
		<tag k="natural" v="wetland" />
		<tag k="ssr:stedsnr" v="280527" />
	</node>
	<node id="-585169" lat="62.4520749984" lon="8.26247778381">
		<tag k="alt_name" v="Digerura" />
		<tag k="name" v="Digerurda" />
		<tag k="natural" v="scree" />
		<tag k="ssr:stedsnr" v="557169" />
	</node>
	<node id="-585208" lat="62.4275583342" lon="8.31450000039">
		<tag k="name" v="Moen" />
		<tag k="place" v="locality" />
		<tag k="ssr:stedsnr" v="566768" />
	</node>
	<node id="-584141" lat="62.7050416637" lon="7.95408888714">
		<tag k="name" v="Sortediket" />
		<tag k="natural" v="wetland" />
		<tag k="ssr:stedsnr" v="887993" />
	</node>
	<node id="-586187" lat="62.6855638844" lon="7.9749055506">
		<tag k="name" v="Domkyrkja" />
		<tag k="natural" v="stone" />
		<tag k="ssr:stedsnr" v="948986" />
	</node>
	<node id="-583671" lat="62.549591669" lon="8.15046667373">
		<tag k="name" v="Seterfonna" />
		<tag k="place" v="locality" />
		<tag k="ssr:stedsnr" v="280869" />
	</node>
	<node id="-586183" lat="62.7167000035" lon="7.93873888289">
		<tag k="name" v="Kjesteinen" />
		<tag k="natural" v="stone" />
		<tag k="ssr:stedsnr" v="948969" />
	</node>
	<node id="-584645" lat="62.7203888883" lon="7.89734167235">
		<tag k="name" v="Svartsvaet" />
		<tag k="place" v="locality" />
		<tag k="ssr:stedsnr" v="159964" />
	</node>
	<node id="-583620" lat="62.7745611147" lon="8.08198055325">
		<tag k="name" v="Skuljorda" />
		<tag k="place" v="locality" />
		<tag k="ssr:stedsnr" v="280394" />
	</node>
	<node id="-583619" lat="62.6379722212" lon="8.11059445022">
		<tag k="name" v="Øverbøen" />
		<tag k="place" v="locality" />
		<tag k="ssr:stedsnr" v="280393" />
	</node>
	<node id="-583617" lat="62.758802776" lon="8.037288881">
		<tag k="name" v="Brunvollgjerdet" />
		<tag k="place" v="locality" />
		<tag k="ssr:stedsnr" v="280383" />
	</node>
	<node id="-585152" lat="62.6907638869" lon="7.97498610818">
		<tag k="name" v="Brekkemyra" />
		<tag k="natural" v="wetland" />
		<tag k="ssr:stedsnr" v="523977" />
	</node>
	<node id="-584127" lat="62.5772166639" lon="8.14635833444">
		<tag k="name" v="Blikskårsvaa" />
		<tag k="place" v="locality" />
		<tag k="ssr:stedsnr" v="887868" />
	</node>
	<node id="-586173" lat="62.553708332" lon="8.14571110928">
		<tag k="name" v="Breifonna" />
		<tag k="place" v="locality" />
		<tag k="ssr:stedsnr" v="948910" />
	</node>
	<node id="-583612" lat="62.7891083354" lon="8.14831111423">
		<tag k="name" v="Slåttamyran" />
		<tag k="natural" v="wetland" />
		<tag k="ssr:stedsnr" v="280340" />
	</node>
	<node id="-585657" lat="62.6988777819" lon="7.96962500229">
		<tag k="name" v="Ørnesteinen" />
		<tag k="natural" v="stone" />
		<tag k="ssr:stedsnr" v="705991" />
	</node>
	<node id="-585654" lat="62.7312694432" lon="7.90383333706">
		<tag k="name" v="Innklovsteinen" />
		<tag k="natural" v="stone" />
		<tag k="ssr:stedsnr" v="705962" />
	</node>
	<node id="-585138" lat="62.648405559" lon="8.03233611904">
		<tag k="name" v="Hansslættet" />
		<tag k="place" v="locality" />
		<tag k="ssr:stedsnr" v="523828" />
	</node>
	<node id="-585137" lat="62.4683472179" lon="8.16995833456">
		<tag k="name" v="Nautfonna" />
		<tag k="place" v="locality" />
		<tag k="ssr:stedsnr" v="523821" />
	</node>
	<node id="-585136" lat="62.4589833298" lon="8.21131667022">
		<tag k="name" v="Hølsteingjerdet" />
		<tag k="place" v="locality" />
		<tag k="ssr:stedsnr" v="523816" />
	</node>
	<node id="-583597" lat="62.6190361071" lon="8.08190000261">
		<tag k="name" v="Styggeværshaugen" />
		<tag k="place" v="locality" />
		<tag k="ssr:stedsnr" v="280064" />
	</node>
	<node id="-584620" lat="62.4251666644" lon="8.31234167443">
		<tag k="name" v="Opplendingsteinen" />
		<tag k="natural" v="stone" />
		<tag k="ssr:stedsnr" v="159814" />
	</node>
	<node id="-585126" lat="62.7985055519" lon="7.85365833095">
		<tag k="name" v="Engamyran" />
		<tag k="natural" v="wetland" />
		<tag k="ssr:stedsnr" v="523700" />
	</node>
	<node id="-584612" lat="62.7941805513" lon="7.80907500336">
		<tag k="name" v="Trøa" />
		<tag k="place" v="locality" />
		<tag k="ssr:stedsnr" v="159707" />
	</node>
	<node id="-585635" lat="62.4234027799" lon="8.32757499209">
		<tag k="name" v="Geitsteinen" />
		<tag k="natural" v="stone" />
		<tag k="ssr:stedsnr" v="705805" />
	</node>
	<node id="-585120" lat="62.7611166682" lon="7.81190278459">
		<tag k="name" v="Grovasteinen" />
		<tag k="natural" v="stone" />
		<tag k="ssr:stedsnr" v="523641" />
	</node>
	<node id="-585629" lat="62.7407805578" lon="7.71469165778">
		<tag k="name" v="Svaet" />
		<tag k="place" v="locality" />
		<tag k="ssr:stedsnr" v="705731" />
	</node>
	<node id="-584091" lat="62.7760694404" lon="7.90045554867">
		<tag k="name" v="Øvre Kjerringmyra" />
		<tag k="natural" v="wetland" />
		<tag k="ssr:stedsnr" v="887470" />
	</node>
	<node id="-585114" lat="62.7789083378" lon="8.27700832756">
		<tag k="name" v="Svartsvaet" />
		<tag k="place" v="locality" />
		<tag k="ssr:stedsnr" v="523603" />
	</node>
	<node id="-584598" lat="62.8047083343" lon="7.97551110845">
		<tag k="name" v="Lussteinen" />
		<tag k="natural" v="stone" />
		<tag k="ssr:stedsnr" v="159514" />
	</node>
	<node id="-585105" lat="62.7896083334" lon="8.06945834114">
		<tag k="name" v="Lauvåsmyra" />
		<tag k="natural" v="wetland" />
		<tag k="ssr:stedsnr" v="523494" />
	</node>
	<node id="-585616" lat="62.793316669" lon="7.78943055578">
		<tag k="name" v="Kløvnesteinmyra" />
		<tag k="natural" v="wetland" />
		<tag k="ssr:stedsnr" v="705639" />
	</node>
	<node id="-586127" lat="62.7746583378" lon="7.89876111319">
		<tag k="name" v="Nedre Kjerringmyra" />
		<tag k="natural" v="wetland" />
		<tag k="ssr:stedsnr" v="948531" />
	</node>
	<node id="-586125" lat="62.7700277778" lon="7.99804444432">
		<tag k="name" v="Salhusvollen" />
		<tag k="place" v="locality" />
		<tag k="ssr:stedsnr" v="948507" />
	</node>
	<node id="-584588" lat="62.757755554" lon="8.06185556533">
		<tag k="name" v="Ragnhildura" />
		<tag k="natural" v="scree" />
		<tag k="ssr:stedsnr" v="159410" />
	</node>
	<node id="-585611" lat="62.8086083353" lon="7.85172777386">
		<tag k="name" v="Saghaugmyra" />
		<tag k="natural" v="wetland" />
		<tag k="ssr:stedsnr" v="705588" />
	</node>
	<node id="-586119" lat="62.8019444485" lon="8.0931583283">
		<tag k="name" v="Brentråkmyra" />
		<tag k="natural" v="wetland" />
		<tag k="ssr:stedsnr" v="948463" />
	</node>
	<node id="-584582" lat="62.7767500044" lon="8.22884444695">
		<tag k="name" v="Storsteinen" />
		<tag k="natural" v="stone" />
		<tag k="ssr:stedsnr" v="159361" />
	</node>
	<node id="-585093" lat="62.4677583374" lon="8.18951111461">
		<tag k="name" v="Geilan" />
		<tag k="place" v="locality" />
		<tag k="ssr:stedsnr" v="523119" />
	</node>
	<node id="-584067" lat="62.7843666671" lon="8.17681110523">
		<tag k="name" v="Eidshaugura" />
		<tag k="natural" v="scree" />
		<tag k="ssr:stedsnr" v="887248" />
	</node>
	<node id="-584065" lat="62.8046388919" lon="8.1347166603">
		<tag k="name" v="Langgrovmyra" />
		<tag k="natural" v="wetland" />
		<tag k="ssr:stedsnr" v="887240" />
	</node>
	<node id="-584574" lat="62.7543722253" lon="7.80789721618">
		<tag k="name" v="Hjellmyra" />
		<tag k="natural" v="wetland" />
		<tag k="ssr:stedsnr" v="159668" />
	</node>
	<node id="-584573" lat="62.7546611129" lon="7.81402499826">
		<tag k="name" v="Venndalstimyran" />
		<tag k="natural" v="wetland" />
		<tag k="ssr:stedsnr" v="159667" />
	</node>
	<node id="-586104" lat="62.8166111081" lon="8.11863888359">
		<tag k="name" v="Holbekkmyran" />
		<tag k="natural" v="wetland" />
		<tag k="ssr:stedsnr" v="948340" />
	</node>
	<node id="-585079" lat="62.6126083328" lon="8.1197722227">
		<tag k="name" v="Seljefonna" />
		<tag k="place" v="locality" />
		<tag k="ssr:stedsnr" v="522426" />
	</node>
	<node id="-584398" lat="62.8066083377" lon="8.11554721972">
		<tag k="name" v="Langmyrhalsen" />
		<tag k="natural" v="wetland" />
		<tag k="ssr:stedsnr" v="98292" />
	</node>
	<node id="-586100" lat="62.4147472242" lon="8.35422222925">
		<tag k="name" v="Kusteinane" />
		<tag k="natural" v="stone" />
		<tag k="ssr:stedsnr" v="948122" />
	</node>
	<node id="-584051" lat="62.4370416678" lon="8.28749166926">
		<tag k="name" v="Einan" />
		<tag k="place" v="locality" />
		<tag k="ssr:stedsnr" v="887088" />
	</node>
	<node id="-584562" lat="62.8160083355" lon="7.91951944552">
		<tag k="name" v="Kureronkjesteinen" />
		<tag k="natural" v="stone" />
		<tag k="ssr:stedsnr" v="159608" />
	</node>
	<node id="-585073" lat="62.7264000039" lon="7.86348888443">
		<tag k="name" v="Nerura" />
		<tag k="natural" v="scree" />
		<tag k="ssr:stedsnr" v="522066" />
	</node>
	<node id="-585072" lat="62.6792666643" lon="7.99832221582">
		<tag k="name" v="Øyna" />
		<tag k="natural" v="wetland" />
		<tag k="ssr:stedsnr" v="522058" />
	</node>
	<node id="-586094" lat="62.4461111114" lon="8.28254443597">
		<tag k="name" v="Fløten" />
		<tag k="place" v="locality" />
		<tag k="ssr:stedsnr" v="948083" />
	</node>
	<node id="-584556" lat="62.8037833306" lon="8.11787778636">
		<tag k="name" v="Vassmyra" />
		<tag k="natural" v="wetland" />
		<tag k="ssr:stedsnr" v="158731" />
	</node>
	<node id="-585067" lat="62.7665694418" lon="8.05528888418">
		<tag k="name" v="Notavollen" />
		<tag k="place" v="locality" />
		<tag k="ssr:stedsnr" v="523465" />
	</node>
	<node id="-585577" lat="62.7232499973" lon="7.86502777016">
		<tag k="name" v="Høgura" />
		<tag k="natural" v="scree" />
		<tag k="ssr:stedsnr" v="705063" />
	</node>
	<node id="-585575" lat="62.6897361077" lon="7.90871388605">
		<tag k="name" v="Såtmyra" />
		<tag k="natural" v="wetland" />
		<tag k="ssr:stedsnr" v="705057" />
	</node>
	<node id="-584550" lat="62.7514472245" lon="7.74243055133">
		<tag k="name" v="Skrufarmyran" />
		<tag k="natural" v="wetland" />
		<tag k="ssr:stedsnr" v="158692" />
	</node>
	<node id="-584547" lat="62.7106166659" lon="7.77443611432">
		<tag k="name" v="Kvilarsteinen" />
		<tag k="natural" v="stone" />
		<tag k="ssr:stedsnr" v="158945" />
	</node>
	<node id="-586082" lat="62.6569500013" lon="8.1062222171">
		<tag k="name" v="Stormyra" />
		<tag k="natural" v="wetland" />
		<tag k="ssr:stedsnr" v="947385" />
	</node>
	<node id="-585567" lat="62.7883583371" lon="8.13651110424">
		<tag k="name" v="Myran" />
		<tag k="natural" v="wetland" />
		<tag k="ssr:stedsnr" v="704682" />
	</node>
	<node id="-585565" lat="62.7939805578" lon="8.28301388761">
		<tag k="name" v="Teistura" />
		<tag k="natural" v="scree" />
		<tag k="ssr:stedsnr" v="704674" />
	</node>
	<node id="-584539" lat="62.701577774" lon="7.91380833451">
		<tag k="name" v="Trøin" />
		<tag k="place" v="locality" />
		<tag k="ssr:stedsnr" v="158120" />
	</node>
	<node id="-584538" lat="62.725330553" lon="7.83880554786">
		<tag k="name" v="Kollurin" />
		<tag k="natural" v="scree" />
		<tag k="ssr:stedsnr" v="158089" />
	</node>
	<node id="-585559" lat="62.8084194454" lon="8.13537777091">
		<tag k="name" v="Litlemyrbærholten" />
		<tag k="natural" v="wetland" />
		<tag k="ssr:stedsnr" v="704237" />
	</node>
	<node id="-584534" lat="62.6971722187" lon="7.97912222094">
		<tag k="name" v="Brentura" />
		<tag k="natural" v="scree" />
		<tag k="ssr:stedsnr" v="158061" />
	</node>
	<node id="-584532" lat="62.6856722263" lon="7.98326110746">
		<tag k="name" v="Grasøyna" />
		<tag k="natural" v="wetland" />
		<tag k="ssr:stedsnr" v="158049" />
	</node>
	<node id="-584846" lat="62.8160833333" lon="8.11659166696">
		<tag k="name" v="Bersåsmyra" />
		<tag k="natural" v="wetland" />
		<tag k="ssr:stedsnr" v="255572" />
	</node>
	<node id="-584530" lat="62.4528583304" lon="8.34880833989">
		<tag k="name" v="Selskreden" />
		<tag k="place" v="locality" />
		<tag k="ssr:stedsnr" v="141745" />
	</node>
	<node id="-585553" lat="62.4142305578" lon="8.35686944746">
		<tag k="name" v="Hessura" />
		<tag k="natural" v="scree" />
		<tag k="ssr:stedsnr" v="704009" />
	</node>
	<node id="-584016" lat="62.7743222188" lon="8.28088611317">
		<tag k="name" v="Svain" />
		<tag k="place" v="locality" />
		<tag k="ssr:stedsnr" v="402689" />
	</node>
	<node id="-584589" lat="62.7529944488" lon="8.01920277929">
		<tag k="name" v="Grøtsteinen" />
		<tag k="natural" v="stone" />
		<tag k="ssr:stedsnr" v="159426" />
	</node>
	<node id="-585441" lat="62.7629694419" lon="7.81397778498">
		<tag k="name" v="Miltholsteinen" />
		<tag k="natural" v="stone" />
		<tag k="ssr:stedsnr" v="644602" />
	</node>
	<node id="-584003" lat="62.7654555522" lon="8.20406943757">
		<tag k="name" v="Gråsteinen" />
		<tag k="natural" v="stone" />
		<tag k="ssr:stedsnr" v="402370" />
	</node>
	<node id="-585427" lat="62.7937805537" lon="8.07765278192">
		<tag k="name" v="Storåsmyra" />
		<tag k="natural" v="wetland" />
		<tag k="ssr:stedsnr" v="644451" />
	</node>
	<node id="-583994" lat="62.6863500043" lon="7.91086943876">
		<tag k="name" v="Pestølmyra" />
		<tag k="natural" v="wetland" />
		<tag k="ssr:stedsnr" v="401999" />
	</node>
	<node id="-585525" lat="62.5209333365" lon="8.26878333297">
		<tag k="name" v="Storbreen" />
		<tag k="natural" v="glacier" />
		<tag k="ssr:stedsnr" v="679316" />
	</node>
	<node id="-583978" lat="62.7295222247" lon="7.85582223043">
		<tag k="name" v="Sjektemyran" />
		<tag k="natural" v="wetland" />
		<tag k="ssr:stedsnr" v="401908" />
	</node>
	<node id="-584583" lat="62.7703888924" lon="8.23673610457">
		<tag k="name" v="Slettamyra" />
		<tag k="natural" v="wetland" />
		<tag k="ssr:stedsnr" v="159369" />
	</node>
	<node id="-584941" lat="62.8190499968" lon="8.12959722231">
		<tag k="name" v="Kvernhusmyran" />
		<tag k="natural" v="wetland" />
		<tag k="ssr:stedsnr" v="462303" />
	</node>
	<node id="-583971" lat="62.5968361109" lon="8.14069166746">
		<tag k="name" v="Fjordungsvåin" />
		<tag k="place" v="locality" />
		<tag k="ssr:stedsnr" v="401842" />
	</node>
	<node id="-584240" lat="62.7327222222" lon="7.7238472145">
		<tag k="name" v="Kyrkjeura" />
		<tag k="natural" v="scree" />
		<tag k="ssr:stedsnr" v="37556" />
	</node>
	<node id="-583960" lat="62.6591111117" lon="8.04518610621">
		<tag k="name" v="Kjerringslættet" />
		<tag k="place" v="locality" />
		<tag k="ssr:stedsnr" v="401766" />
	</node>
	<node id="-584471" lat="62.6661972219" lon="8.17125277726">
		<tag k="name" v="Korsseterfonna" />
		<tag k="place" v="locality" />
		<tag k="ssr:stedsnr" v="98827" />
	</node>
	<node id="-584978" lat="62.7799722238" lon="8.28879167442">
		<tag k="name" v="Gråura" />
		<tag k="natural" v="scree" />
		<tag k="ssr:stedsnr" v="462645" />
	</node>
	<node id="-584464" lat="62.4817888875" lon="8.15101944071">
		<tag k="name" v="Påskesteinen" />
		<tag k="natural" v="stone" />
		<tag k="ssr:stedsnr" v="98786" />
	</node>
	<node id="-583949" lat="62.7973888929" lon="8.15913611104">
		<tag k="name" v="Røytvåta" />
		<tag k="natural" v="wetland" />
		<tag k="ssr:stedsnr" v="401706" />
	</node>
	<node id="-584458" lat="62.7845777818" lon="8.17447778507">
		<tag k="name" v="Fonna" />
		<tag k="place" v="locality" />
		<tag k="ssr:stedsnr" v="98724" />
	</node>
	<node id="-584457" lat="62.7274999983" lon="7.67763888103">
		<tag k="name" v="Langteigen" />
		<tag k="place" v="locality" />
		<tag k="ssr:stedsnr" v="98705" />
	</node>
	<node id="-585480" lat="62.7169583337" lon="7.84143888576">
		<tag k="name" v="Skjenstømyran" />
		<tag k="natural" v="wetland" />
		<tag k="ssr:stedsnr" v="644924" />
	</node>
	<node id="-583941" lat="62.7484638863" lon="7.81649166342">
		<tag k="name" v="Barsteinen" />
		<tag k="natural" v="stone" />
		<tag k="ssr:stedsnr" v="401594" />
	</node>
	<node id="-584450" lat="62.782783336" lon="7.83401666062">
		<tag k="name" v="Langripa" />
		<tag k="natural" v="wetland" />
		<tag k="ssr:stedsnr" v="98653" />
	</node>
	<node id="-585985" lat="62.5071027785" lon="8.02021389578">
		<tag k="name" v="Midthøbreen" />
		<tag k="natural" v="glacier" />
		<tag k="ssr:stedsnr" v="861202" />
	</node>
	<node id="-583936" lat="62.7758361088" lon="7.97543055065">
		<tag k="name" v="Skjorabergura" />
		<tag k="natural" v="scree" />
		<tag k="ssr:stedsnr" v="401570" />
	</node>
	<node id="-585980" lat="62.5467250044" lon="8.18631666179">
		<tag k="name" v="Reitan" />
		<tag k="place" v="locality" />
		<tag k="ssr:stedsnr" v="861118" />
	</node>
	<node id="-584954" lat="62.7696833296" lon="7.91943889154">
		<tag k="name" v="Purkesteinen" />
		<tag k="natural" v="stone" />
		<tag k="ssr:stedsnr" v="462448" />
	</node>
	<node id="-584948" lat="62.7534750039" lon="8.02402777549">
		<tag k="name" v="Bjørnattlega" />
		<tag k="place" v="locality" />
		<tag k="ssr:stedsnr" v="462375" />
	</node>
	<node id="-585459" lat="62.4231361087" lon="8.31939999939">
		<tag k="name" v="Hampehesten" />
		<tag k="natural" v="stone" />
		<tag k="ssr:stedsnr" v="644797" />
	</node>
	<node id="-585457" lat="62.4397499968" lon="8.27891111201">
		<tag k="name" v="Grønesvaet" />
		<tag k="place" v="locality" />
		<tag k="ssr:stedsnr" v="644791" />
	</node>
	<node id="-584944" lat="62.7570222233" lon="8.06279165751">
		<tag k="name" v="Prekstolen" />
		<tag k="natural" v="stone" />
		<tag k="ssr:stedsnr" v="462361" />
	</node>
	<node id="-585965" lat="62.5572916627" lon="8.17809999264">
		<tag k="name" v="Storjakopgjerdet" />
		<tag k="place" v="locality" />
		<tag k="ssr:stedsnr" v="827894" />
	</node>
	<node id="-583916" lat="62.7996916634" lon="8.17451111282">
		<tag k="name" v="Gullsmedteigen" />
		<tag k="place" v="locality" />
		<tag k="ssr:stedsnr" v="401262" />
	</node>
	<node id="-584427" lat="62.8279555579" lon="8.09710000594">
		<tag k="name" v="Neverlimyran" />
		<tag k="natural" v="wetland" />
		<tag k="ssr:stedsnr" v="98562" />
	</node>
	<node id="-585446" lat="62.8013166685" lon="7.82308332826">
		<tag k="name" v="Kyrkjeteigen" />
		<tag k="place" v="locality" />
		<tag k="ssr:stedsnr" v="644669" />
	</node>
	<node id="-585956" lat="62.4787333329" lon="8.16292777774">
		<tag k="name" v="Skjeparhellaren" />
		<tag k="natural" v="stone" />
		<tag k="ssr:stedsnr" v="827824" />
	</node>
	<node id="-584931" lat="62.7121583352" lon="7.77556111403">
		<tag k="name" v="Fonna" />
		<tag k="place" v="locality" />
		<tag k="ssr:stedsnr" v="462057" />
	</node>
	<node id="-585953" lat="62.740452782" lon="8.05283333216">
		<tag k="name" v="Geilen" />
		<tag k="place" v="locality" />
		<tag k="ssr:stedsnr" v="827800" />
	</node>
	<node id="-584035" lat="62.7612277754" lon="7.83979166595">
		<tag k="name" v="Fjellmyra" />
		<tag k="natural" v="wetland" />
		<tag k="ssr:stedsnr" v="887577" />
	</node>
	<node id="-584714" lat="62.7725500025" lon="7.92241111096">
		<tag k="name" v="Bjørnasteinen" />
		<tag k="natural" v="stone" />
		<tag k="ssr:stedsnr" v="220511" />
	</node>
	<node id="-585948" lat="62.8335499979" lon="8.12757777399">
		<tag k="name" v="Haugaura" />
		<tag k="natural" v="scree" />
		<tag k="ssr:stedsnr" v="827704" />
	</node>
	<node id="-584923" lat="62.7980361138" lon="7.80970832643">
		<tag k="name" v="Naustteigen" />
		<tag k="place" v="locality" />
		<tag k="ssr:stedsnr" v="462562" />
	</node>
	<node id="-585946" lat="62.7804111146" lon="7.99265832571">
		<tag k="name" v="Kvilaren" />
		<tag k="natural" v="stone" />
		<tag k="ssr:stedsnr" v="827679" />
	</node>
	<node id="-584409" lat="62.8028833328" lon="8.15883055409">
		<tag k="name" v="Trøstenmyra" />
		<tag k="natural" v="wetland" />
		<tag k="ssr:stedsnr" v="98213" />
	</node>
	<node id="-585432" lat="62.6328916634" lon="8.09627777363">
		<tag k="name" v="Hafella" />
		<tag k="place" v="locality" />
		<tag k="ssr:stedsnr" v="644506" />
	</node>
	<node id="-584939" lat="62.8141638918" lon="8.14676388625">
		<tag k="name" v="Løyftermyra" />
		<tag k="natural" v="wetland" />
		<tag k="ssr:stedsnr" v="462219" />
	</node>
	<node id="-584915" lat="62.7434027769" lon="8.10807499904">
		<tag k="name" v="Hardholtmyra" />
		<tag k="natural" v="wetland" />
		<tag k="ssr:stedsnr" v="462509" />
	</node>
	<node id="-585426" lat="62.7883694424" lon="8.12145834095">
		<tag k="name" v="Eidsvågmyran" />
		<tag k="natural" v="wetland" />
		<tag k="ssr:stedsnr" v="644449" />
	</node>
	<node id="-584056" lat="62.5679055576" lon="8.1363166696">
		<tag k="name" v="Fjørå" />
		<tag k="natural" v="beach" />
		<tag k="ssr:stedsnr" v="887103" />
		<tag k="surface" v="sand" />
	</node>
	<node id="-584910" lat="62.4230805518" lon="8.31653889285">
		<tag k="name" v="Mofonnin" />
		<tag k="place" v="locality" />
		<tag k="ssr:stedsnr" v="445772" />
	</node>
	<node id="-584391" lat="62.6354027776" lon="8.13104444617">
		<tag k="name" v="Slettskredet" />
		<tag k="natural" v="scree" />
		<tag k="ssr:stedsnr" v="98099" />
	</node>
	<node id="-584388" lat="62.7374527817" lon="8.00961110907">
		<tag k="name" v="Mjølbøra" />
		<tag k="natural" v="glacier" />
		<tag k="ssr:stedsnr" v="98074" />
	</node>
	<node id="-585922" lat="62.7771444425" lon="8.09215555172">
		<tag k="name" v="Ljøsmyran" />
		<tag k="natural" v="wetland" />
		<tag k="ssr:stedsnr" v="827438" />
	</node>
	<node id="-583627" lat="62.783436111" lon="8.01576110587">
		<tag k="name" v="Hatlbakkmyra" />
		<tag k="natural" v="wetland" />
		<tag k="ssr:stedsnr" v="280442" />
	</node>
	<node id="-584230" lat="62.7969861099" lon="7.91636111759">
		<tag k="name" v="Fagerlisteinen" />
		<tag k="natural" v="stone" />
		<tag k="ssr:stedsnr" v="37494" />
	</node>
	<node id="-585406" lat="62.801533337" lon="8.10990277711">
		<tag k="name" v="Langmyra" />
		<tag k="natural" v="wetland" />
		<tag k="ssr:stedsnr" v="643728" />
	</node>
	<node id="-585405" lat="62.8022361086" lon="8.12585555209">
		<tag k="name" v="Råkemyra" />
		<tag k="natural" v="wetland" />
		<tag k="ssr:stedsnr" v="643726" />
	</node>
	<node id="-584102" lat="62.7794444464" lon="8.26014443998">
		<tag k="name" v="Våta" />
		<tag k="natural" v="wetland" />
		<tag k="ssr:stedsnr" v="887671" />
	</node>
	<node id="-585915" lat="62.8174972213" lon="8.10624444381">
		<tag k="name" v="Sagstumyran" />
		<tag k="natural" v="wetland" />
		<tag k="ssr:stedsnr" v="827344" />
	</node>
	<node id="-585910" lat="62.7320666641" lon="7.89962777654">
		<tag k="name" v="Frøsteinkyrkja" />
		<tag k="natural" v="stone" />
		<tag k="ssr:stedsnr" v="826970" />
	</node>
	<node id="-585943" lat="62.770774997" lon="8.00016666878">
		<tag k="name" v="Brekka" />
		<tag k="place" v="locality" />
		<tag k="ssr:stedsnr" v="827671" />
	</node>
	<node id="-585903" lat="62.7015944439" lon="7.81364722843">
		<tag k="name" v="Kråkgullsteinen" />
		<tag k="natural" v="stone" />
		<tag k="ssr:stedsnr" v="826911" />
	</node>
	<node id="-584272" lat="62.6143888908" lon="8.17451388435">
		<tag k="name" v="Strandura" />
		<tag k="natural" v="scree" />
		<tag k="ssr:stedsnr" v="37839" />
	</node>
	<node id="-585900" lat="62.7227416647" lon="7.79840834016">
		<tag k="name" v="Gammelfonna" />
		<tag k="place" v="locality" />
		<tag k="ssr:stedsnr" v="826894" />
	</node>
	<node id="-584858" lat="62.5827" lon="8.09835832775">
		<tag k="name" v="Blikskårbreen" />
		<tag k="natural" v="glacier" />
		<tag k="ssr:stedsnr" v="436147" />
	</node>
	<node id="-584605" lat="62.7365027762" lon="7.71238055549">
		<tag k="name" v="Teppingmyra" />
		<tag k="natural" v="wetland" />
		<tag k="ssr:stedsnr" v="159588" />
	</node>
	<node id="-584357" lat="62.6969055541" lon="7.87009167346">
		<tag k="name" v="Heia" />
		<tag k="natural" v="wetland" />
		<tag k="ssr:stedsnr" v="72418" />
	</node>
	<node id="-583841" lat="62.5657666627" lon="8.14463610933">
		<tag k="name" v="Staursteinen" />
		<tag k="natural" v="stone" />
		<tag k="ssr:stedsnr" v="341892" />
	</node>
	<node id="-583840" lat="62.5665361129" lon="8.14061389788">
		<tag k="name" v="Hoemkjerka" />
		<tag k="natural" v="stone" />
		<tag k="ssr:stedsnr" v="341889" />
	</node>
	<node id="-584560" lat="62.6203861151" lon="8.10536111151">
		<tag k="name" v="Sandgeilen" />
		<tag k="place" v="locality" />
		<tag k="ssr:stedsnr" v="159058" />
	</node>
	<node id="-583760" lat="62.8110972251" lon="8.14400832929">
		<tag k="name" v="Hopmyran" />
		<tag k="natural" v="wetland" />
		<tag k="ssr:stedsnr" v="340707" />
	</node>
	<node id="-584730" lat="62.8134194411" lon="8.1360472213">
		<tag k="name" v="Stuåmyra" />
		<tag k="natural" v="wetland" />
		<tag k="ssr:stedsnr" v="219723" />
	</node>
	<node id="-585882" lat="62.7667388905" lon="7.8189166592">
		<tag k="name" v="Rundløkan" />
		<tag k="natural" v="wetland" />
		<tag k="ssr:stedsnr" v="826549" />
	</node>
	<node id="-585879" lat="62.7348861074" lon="7.71930554874">
		<tag k="name" v="Smivollen" />
		<tag k="place" v="locality" />
		<tag k="ssr:stedsnr" v="826528" />
	</node>
	<node id="-584558" lat="62.7529888854" lon="8.02758612018">
		<tag k="name" v="Svintrøa" />
		<tag k="place" v="locality" />
		<tag k="ssr:stedsnr" v="158745" />
	</node>
	<node id="-584237" lat="62.7327944432" lon="7.6994666639">
		<tag k="name" v="Brantmyra" />
		<tag k="natural" v="wetland" />
		<tag k="ssr:stedsnr" v="37534" />
	</node>
	<node id="-584849" lat="62.3999416656" lon="8.59952778378">
		<tag k="name" v="Fattigbekkvollan" />
		<tag k="natural" v="wetland" />
		<tag k="ssr:stedsnr" v="263774" />
	</node>
	<node id="-585872" lat="62.4647361118" lon="8.19193610756">
		<tag k="name" v="Kjeura" />
		<tag k="natural" v="scree" />
		<tag k="ssr:stedsnr" v="826140" />
	</node>
	<node id="-585870" lat="62.659263888" lon="8.13691110649">
		<tag k="name" v="Gråura" />
		<tag k="natural" v="scree" />
		<tag k="ssr:stedsnr" v="826127" />
	</node>
	<node id="-585869" lat="62.5685388847" lon="8.14427778111">
		<tag k="name" v="Hagen" />
		<tag k="place" v="locality" />
		<tag k="ssr:stedsnr" v="826119" />
	</node>
	<node id="-583820" lat="62.7374027784" lon="7.73111388064">
		<tag k="name" v="Hegolura" />
		<tag k="natural" v="scree" />
		<tag k="ssr:stedsnr" v="341726" />
	</node>
	<node id="-584386" lat="62.7218305516" lon="7.7971944533">
		<tag k="name" v="Nyfonna" />
		<tag k="place" v="locality" />
		<tag k="ssr:stedsnr" v="98065" />
	</node>
	<node id="-584044" lat="62.7217888924" lon="7.85564722046">
		<tag k="name" v="Blåsvaet" />
		<tag k="place" v="locality" />
		<tag k="ssr:stedsnr" v="887056" />
	</node>
	<node id="-584385" lat="62.666352777" lon="7.85763332519">
		<tag k="name" v="Fallmyra" />
		<tag k="natural" v="wetland" />
		<tag k="ssr:stedsnr" v="98059" />
	</node>
	<node id="-585860" lat="62.4205444455" lon="8.34951110393">
		<tag k="name" v="Skadfallhola" />
		<tag k="place" v="locality" />
		<tag k="ssr:stedsnr" v="809767" />
	</node>
	<node id="-584640" lat="62.6485194459" lon="7.82409166766">
		<tag k="name" v="Dansarsteinen" />
		<tag k="natural" v="stone" />
		<tag k="ssr:stedsnr" v="159918" />
	</node>
	<node id="-583804" lat="62.8409027774" lon="8.10993333735">
		<tag k="name" v="Dalabumyran" />
		<tag k="natural" v="wetland" />
		<tag k="ssr:stedsnr" v="341615" />
	</node>
	<node id="-584639" lat="62.6699833297" lon="7.87571944364">
		<tag k="name" v="Fallmyrslættet" />
		<tag k="natural" v="wetland" />
		<tag k="ssr:stedsnr" v="159916" />
	</node>
	<node id="-584823" lat="62.5647388884" lon="8.05907777537">
		<tag k="name" v="Hoemsbreen" />
		<tag k="natural" v="glacier" />
		<tag k="ssr:stedsnr" v="254160" />
	</node>
	<node id="-584310" lat="62.802647218" lon="8.09411665918">
		<tag k="name" v="Brannrotmyra" />
		<tag k="natural" v="wetland" />
		<tag k="ssr:stedsnr" v="38425" />
	</node>
	<node id="-583795" lat="62.6793777759" lon="8.11885555075">
		<tag k="name" v="Grytosen" />
		<tag k="place" v="locality" />
		<tag k="ssr:stedsnr" v="341564" />
	</node>
	<node id="-584723" lat="62.8332583307" lon="8.07728054923">
		<tag k="name" v="Tjønnmyra" />
		<tag k="natural" v="wetland" />
		<tag k="ssr:stedsnr" v="219534" />
	</node>
	<node id="-584303" lat="62.8213083371" lon="8.0720361037">
		<tag k="name" v="Skiljarsteinen" />
		<tag k="natural" v="stone" />
		<tag k="ssr:stedsnr" v="38365" />
	</node>
	<node id="-584624" lat="62.4860833373" lon="8.17308333575">
		<tag k="name" v="Katthammarura" />
		<tag k="natural" v="scree" />
		<tag k="ssr:stedsnr" v="159826" />
	</node>
	<node id="-584298" lat="62.8123861126" lon="8.10504444686">
		<tag k="name" v="Grønlimyran" />
		<tag k="natural" v="wetland" />
		<tag k="ssr:stedsnr" v="38343" />
	</node>
	<node id="-584551" lat="62.7734638883" lon="8.20552500874">
		<tag k="name" v="Stormyra" />
		<tag k="natural" v="wetland" />
		<tag k="ssr:stedsnr" v="158714" />
	</node>
	<node id="-583780" lat="62.7924055559" lon="8.14720278312">
		<tag k="name" v="Myrledmyran" />
		<tag k="natural" v="wetland" />
		<tag k="ssr:stedsnr" v="341388" />
	</node>
	<node id="-583779" lat="62.7568305548" lon="8.19493610191">
		<tag k="name" v="Liafjellet" />
		<tag k="natural" v="wetland" />
		<tag k="ssr:stedsnr" v="341378" />
	</node>
	<node id="-583778" lat="62.7572416628" lon="8.17426388101">
		<tag k="name" v="Kvennsetfjellet" />
		<tag k="natural" v="wetland" />
		<tag k="ssr:stedsnr" v="341374" />
	</node>
	<node id="-583776" lat="62.8239944421" lon="8.09022500137">
		<tag k="name" v="Tjønnmyra" />
		<tag k="natural" v="wetland" />
		<tag k="ssr:stedsnr" v="341340" />
	</node>
	<node id="-585889" lat="62.7992472251" lon="8.16984721897">
		<tag k="name" v="Sjømyra" />
		<tag k="natural" v="wetland" />
		<tag k="ssr:stedsnr" v="826706" />
	</node>
	<node id="-584038" lat="62.7546055517" lon="7.78331389188">
		<tag k="name" v="Gildermyran" />
		<tag k="natural" v="wetland" />
		<tag k="ssr:stedsnr" v="887599" />
	</node>
	<node id="-583771" lat="62.6270166695" lon="8.09200833564">
		<tag k="name" v="Breifonna" />
		<tag k="place" v="locality" />
		<tag k="ssr:stedsnr" v="341066" />
	</node>
	<node id="-584529" lat="62.4116499989" lon="8.36712222116">
		<tag k="name" v="Slættet" />
		<tag k="place" v="locality" />
		<tag k="ssr:stedsnr" v="141737" />
	</node>
	<node id="-585809" lat="62.7994638931" lon="7.81929166969">
		<tag k="name" v="Ura" />
		<tag k="natural" v="scree" />
		<tag k="ssr:stedsnr" v="766680" />
	</node>
	<node id="-585808" lat="62.7977833327" lon="7.82438332611">
		<tag k="name" v="Dalamyra" />
		<tag k="natural" v="wetland" />
		<tag k="ssr:stedsnr" v="766668" />
	</node>
	<node id="-583621" lat="62.7765361138" lon="8.07880554767">
		<tag k="name" v="Bergamyra" />
		<tag k="natural" v="wetland" />
		<tag k="ssr:stedsnr" v="280401" />
	</node>
	<node id="-585806" lat="62.7527722252" lon="7.7896527851">
		<tag k="name" v="Langmyra" />
		<tag k="natural" v="wetland" />
		<tag k="ssr:stedsnr" v="766659" />
	</node>
	<node id="-584268" lat="62.6635444411" lon="8.02973888888">
		<tag k="name" v="Kvithammarura" />
		<tag k="natural" v="scree" />
		<tag k="ssr:stedsnr" v="37804" />
	</node>
	<node id="-585058" lat="62.4169916676" lon="8.35733054847">
		<tag k="name" v="Hessura" />
		<tag k="place" v="locality" />
		<tag k="ssr:stedsnr" v="506760" />
	</node>
	<node id="-584265" lat="62.467308337" lon="8.20507500454">
		<tag k="name" v="Skogsetura" />
		<tag k="natural" v="scree" />
		<tag k="ssr:stedsnr" v="37788" />
	</node>
	<node id="-585104" lat="62.8201972224" lon="8.06171388168">
		<tag k="name" v="Bjørnsonsteinen" />
		<tag k="natural" v="stone" />
		<tag k="ssr:stedsnr" v="523368" />
	</node>
	<node id="-584774" lat="62.7843833298" lon="7.84738333787">
		<tag k="name" v="Bleikmyra" />
		<tag k="natural" v="wetland" />
		<tag k="ssr:stedsnr" v="220686" />
	</node>
	<node id="-585285" lat="62.8273027811" lon="8.13209723161">
		<tag k="name" v="Byturin" />
		<tag k="natural" v="scree" />
		<tag k="ssr:stedsnr" v="583652" />
	</node>
	<node id="-585792" lat="62.7757833347" lon="8.07410554816">
		<tag k="name" v="Heggåkran" />
		<tag k="place" v="locality" />
		<tag k="ssr:stedsnr" v="766394" />
	</node>
	<node id="-584848" lat="62.4293833364" lon="8.32026945137">
		<tag k="name" v="Høgbakken" />
		<tag k="place" v="locality" />
		<tag k="ssr:stedsnr" v="263764" />
	</node>
	<node id="-583615" lat="62.7493500005" lon="8.03977500463">
		<tag k="name" v="Teppingsmyra" />
		<tag k="natural" v="wetland" />
		<tag k="ssr:stedsnr" v="280368" />
	</node>
	<node id="-585273" lat="62.8315722184" lon="8.0891194454">
		<tag k="name" v="Setermyran" />
		<tag k="natural" v="wetland" />
		<tag k="ssr:stedsnr" v="583552" />
	</node>
	<node id="-585783" lat="62.8082861139" lon="8.13196666786">
		<tag k="name" v="Stormyrbærholten" />
		<tag k="natural" v="wetland" />
		<tag k="ssr:stedsnr" v="766327" />
	</node>
	<node id="-583910" lat="62.4473388851" lon="8.27032776853">
		<tag k="name" v="Einangen" />
		<tag k="place" v="locality" />
		<tag k="ssr:stedsnr" v="401081" />
	</node>
	<node id="-584245" lat="62.8269888898" lon="8.09171111838">
		<tag k="historic" v="shieling" />
		<tag k="name" v="Neverlisetra" />
		<tag k="place" v="locality" />
		<tag k="ssr:stedsnr" v="37568" />
	</node>
	<node id="-584244" lat="62.8265138849" lon="8.09916388115">
		<tag k="historic" v="shieling" />
		<tag k="name" v="Litlbuplassen" />
		<tag k="place" v="locality" />
		<tag k="ssr:stedsnr" v="37565" />
	</node>
	<node id="-585779" lat="62.6368388882" lon="8.12204722926">
		<tag k="name" v="Neråsbøen" />
		<tag k="place" v="locality" />
		<tag k="ssr:stedsnr" v="766080" />
	</node>
	<node id="-584754" lat="62.7703916683" lon="8.07926666257">
		<tag k="name" v="Langsetgeilen" />
		<tag k="place" v="locality" />
		<tag k="ssr:stedsnr" v="220449" />
	</node>
	<node id="-585776" lat="62.6897805546" lon="7.99108888064">
		<tag k="name" v="Kyrkjemyra" />
		<tag k="natural" v="wetland" />
		<tag k="ssr:stedsnr" v="765988" />
	</node>
	<node id="-584238" lat="62.8035722259" lon="7.82008889075">
		<tag k="name" v="Sigridsteinen" />
		<tag k="natural" v="stone" />
		<tag k="ssr:stedsnr" v="37543" />
	</node>
	<node id="-584541" lat="62.7360861085" lon="7.93469999572">
		<tag k="name" v="Nesmyra" />
		<tag k="natural" v="wetland" />
		<tag k="ssr:stedsnr" v="158125" />
	</node>
	<node id="-584747" lat="62.787019444" lon="8.18623889282">
		<tag k="name" v="Flatmyran" />
		<tag k="natural" v="wetland" />
		<tag k="ssr:stedsnr" v="220314" />
	</node>
	<node id="-584711" lat="62.43281667" lon="8.3044111191">
		<tag k="name" v="Espet" />
		<tag k="place" v="locality" />
		<tag k="ssr:stedsnr" v="219079" />
	</node>
	<node id="-585256" lat="62.8210055597" lon="8.13144444379">
		<tag k="name" v="Kloppmyra" />
		<tag k="natural" v="wetland" />
		<tag k="ssr:stedsnr" v="583453" />
	</node>
	<node id="-585820" lat="62.7643277803" lon="7.75815832493">
		<tag k="name" v="Storura" />
		<tag k="natural" v="scree" />
		<tag k="ssr:stedsnr" v="800621" />
	</node>
	<node id="-585766" lat="62.6688666652" lon="7.97884444239">
		<tag k="name" v="Kloppvollen" />
		<tag k="natural" v="wetland" />
		<tag k="ssr:stedsnr" v="765883" />
	</node>
	<node id="-584740" lat="62.6977611115" lon="7.79637777483">
		<tag k="name" v="Storsteinan" />
		<tag k="natural" v="stone" />
		<tag k="ssr:stedsnr" v="219926" />
	</node>
	<node id="-585763" lat="62.6582416687" lon="8.03938056119">
		<tag k="name" v="Blåbærslættet" />
		<tag k="place" v="locality" />
		<tag k="ssr:stedsnr" v="765793" />
	</node>
	<node id="-585250" lat="62.7572499972" lon="8.02706110938">
		<tag k="name" v="Kalvskinnet" />
		<tag k="place" v="locality" />
		<tag k="ssr:stedsnr" v="583391" />
	</node>
	<node id="-586075" lat="62.6648444437" lon="8.00534445188">
		<tag k="name" v="Bonfonna" />
		<tag k="place" v="locality" />
		<tag k="ssr:stedsnr" v="947039" />
	</node>
	<node id="-585760" lat="62.6468611069" lon="8.0249694432">
		<tag k="name" v="Hellarsteinen" />
		<tag k="natural" v="stone" />
		<tag k="ssr:stedsnr" v="765787" />
	</node>
	<node id="-585563" lat="62.7477166704" lon="7.74360832918">
		<tag k="name" v="Klokkemyra" />
		<tag k="natural" v="wetland" />
		<tag k="ssr:stedsnr" v="704665" />
	</node>
	<node id="-584222" lat="62.4914194478" lon="8.16997500909">
		<tag k="name" v="Ballan" />
		<tag k="natural" v="stone" />
		<tag k="ssr:stedsnr" v="37157" />
	</node>
	<node id="-584732" lat="62.7732027808" lon="8.2364166726">
		<tag k="name" v="Bønåmyra" />
		<tag k="natural" v="wetland" />
		<tag k="ssr:stedsnr" v="219737" />
	</node>
	<node id="-585755" lat="62.4403722244" lon="8.28474444564">
		<tag k="name" v="Høvelreitan" />
		<tag k="place" v="locality" />
		<tag k="ssr:stedsnr" v="765756" />
	</node>
	<node id="-585242" lat="62.777558329" lon="8.2233999961">
		<tag k="name" v="Mårsteinan" />
		<tag k="natural" v="stone" />
		<tag k="ssr:stedsnr" v="583333" />
	</node>
	<node id="-584217" lat="62.6761111115" lon="8.16732778241">
		<tag k="name" v="Tortøyan" />
		<tag k="natural" v="wetland" />
		<tag k="ssr:stedsnr" v="37135" />
	</node>
	<node id="-585307" lat="62.5401833323" lon="8.18505278518">
		<tag k="name" v="Kobbesteingjerdet" />
		<tag k="place" v="locality" />
		<tag k="ssr:stedsnr" v="583865" />
	</node>
	<node id="-585747" lat="62.7255472218" lon="7.67217500766">
		<tag k="name" v="Hopteigen" />
		<tag k="place" v="locality" />
		<tag k="ssr:stedsnr" v="765681" />
	</node>
	<node id="-585746" lat="62.7303583372" lon="7.67006667097">
		<tag k="name" v="Slipsteinteigen" />
		<tag k="place" v="locality" />
		<tag k="ssr:stedsnr" v="765679" />
	</node>
	<node id="-585745" lat="62.7521194449" lon="7.81247499402">
		<tag k="name" v="Fåtjønnmyra" />
		<tag k="natural" v="wetland" />
		<tag k="ssr:stedsnr" v="765584" />
	</node>
	<node id="-585232" lat="62.4819972189" lon="8.15419999856">
		<tag k="name" v="Gripura" />
		<tag k="natural" v="scree" />
		<tag k="ssr:stedsnr" v="583120" />
	</node>
	<node id="-584718" lat="62.7831055565" lon="8.2969000057">
		<tag k="name" v="Altersteinen" />
		<tag k="natural" v="stone" />
		<tag k="ssr:stedsnr" v="219274" />
	</node>
	<node id="-584205" lat="62.7195361079" lon="7.77561945373">
		<tag k="name" v="Dampen" />
		<tag k="natural" v="stone" />
		<tag k="ssr:stedsnr" v="37072" />
	</node>
	<node id="-585085" lat="62.806888887" lon="8.07682221571">
		<tag k="name" v="Pelømyra" />
		<tag k="natural" v="wetland" />
		<tag k="ssr:stedsnr" v="522706" />
	</node>
	<node id="-585218" lat="62.686050003" lon="8.02227222928">
		<tag k="name" v="Langmyra" />
		<tag k="natural" v="wetland" />
		<tag k="ssr:stedsnr" v="583072" />
	</node>
	<node id="-585226" lat="62.654069447" lon="8.02522221807">
		<tag k="name" v="Såta" />
		<tag k="natural" v="stone" />
		<tag k="ssr:stedsnr" v="583091" />
	</node>
	<node id="-584713" lat="62.7873416636" lon="7.9939694455">
		<tag k="name" v="Gilsemyra" />
		<tag k="natural" v="wetland" />
		<tag k="ssr:stedsnr" v="220512" />
	</node>
	<node id="-585735" lat="62.7375166668" lon="7.71643889293">
		<tag k="name" v="Setermyra" />
		<tag k="natural" v="wetland" />
		<tag k="ssr:stedsnr" v="765503" />
	</node>
	<node id="-585221" lat="62.4485722191" lon="8.2852083362">
		<tag k="name" v="Styggura" />
		<tag k="natural" v="scree" />
		<tag k="ssr:stedsnr" v="583077" />
	</node>
	<node id="-585220" lat="62.4490055525" lon="8.27251389468">
		<tag k="name" v="Sandane" />
		<tag k="place" v="locality" />
		<tag k="ssr:stedsnr" v="583075" />
	</node>
	<node id="-583683" lat="62.7153222181" lon="7.89891665907">
		<tag k="name" v="Vedafonna" />
		<tag k="place" v="locality" />
		<tag k="ssr:stedsnr" v="280952" />
	</node>
	<node id="-585730" lat="62.6332638891" lon="8.10671944333">
		<tag k="name" v="Geilen" />
		<tag k="place" v="locality" />
		<tag k="ssr:stedsnr" v="765462" />
	</node>
	<node id="-584705" lat="62.7195277773" lon="7.77561944645">
		<tag k="name" v="Jutulen" />
		<tag k="natural" v="stone" />
		<tag k="ssr:stedsnr" v="219057" />
	</node>
</osm>
