<?xml version="1.0" encoding="UTF-8"?>
<osm generator="osmapis" version="0.6">
	<node id="-585727" lat="62.7834916624" lon="8.29663889017">
		<tag k="name" v="Altervika" />
		<tag k="natural" v="bay" />
		<tag k="ssr:stedsnr" v="765258" />
	</node>
	<node id="-583765" lat="62.6859722235" lon="8.14428610586">
		<tag k="name" v="Vorpeneset" />
		<tag k="natural" v="cape" />
		<tag k="ssr:stedsnr" v="340820" />
	</node>
	<node id="-583764" lat="62.7436666694" lon="8.04209166575">
		<tag k="name" v="Åsneset" />
		<tag k="natural" v="cape" />
		<tag k="ssr:stedsnr" v="340733" />
	</node>
	<node id="-585718" lat="62.7246194462" lon="7.94038332545">
		<tag k="name" v="Sandvika" />
		<tag k="natural" v="bay" />
		<tag k="ssr:stedsnr" v="765094" />
	</node>
	<node id="-583665" lat="62.7392972189" lon="7.93190277542">
		<tag k="name" v="Myklebostadneset" />
		<tag k="natural" v="cape" />
		<tag k="ssr:stedsnr" v="280792" />
	</node>
	<node id="-585199" lat="62.7579027754" lon="8.00812500285">
		<tag k="name" v="Prestholmen" />
		<tag k="place" v="islet" />
		<tag k="ssr:stedsnr" v="557579" />
	</node>
	<node id="-584171" lat="62.7448777784" lon="7.95939444268">
		<tag k="alt_name" v="Gauprøra" />
		<tag k="name" v="Gauprørhammaren" />
		<tag k="natural" v="cape" />
		<tag k="ssr:stedsnr" v="11492" />
	</node>
	<node id="-584170" lat="62.7349583364" lon="8.08606666779">
		<tag k="name" v="Motberget" />
		<tag k="natural" v="cape" />
		<tag k="ssr:stedsnr" v="11489" />
	</node>
	<node id="-584681" lat="62.7636416653" lon="8.03153334129">
		<tag k="name" v="Eidsvågen" />
		<tag k="natural" v="bay" />
		<tag k="ssr:stedsnr" v="193622" />
	</node>
	<node id="-585192" lat="62.7402555591" lon="8.04844722913">
		<tag k="name" v="Bleineset" />
		<tag k="natural" v="cape" />
		<tag k="ssr:stedsnr" v="557461" />
	</node>
	<node id="-584783" lat="62.7199694421" lon="8.11760556291">
		<tag k="alt_name" v="Breidvika" />
		<tag k="name" v="Breivika" />
		<tag k="natural" v="bay" />
		<tag k="ssr:stedsnr" v="220810" />
	</node>
	<node id="-585175" lat="62.6982222251" lon="8.14498888401">
		<tag k="name" v="Strand" />
		<tag k="natural" v="beach" />
		<tag k="place" v="locality" />
		<tag k="ssr:stedsnr" v="557284" />
	</node>
	<node id="-583636" lat="62.7340722193" lon="8.09459721295">
		<tag k="name" v="Risabukta" />
		<tag k="natural" v="bay" />
		<tag k="ssr:stedsnr" v="280509" />
	</node>
	<node id="-584655" lat="62.7427777764" lon="8.04539166717">
		<tag k="name" v="Bleinesbukta" />
		<tag k="natural" v="bay" />
		<tag k="ssr:stedsnr" v="172821" />
	</node>
	<node id="-584140" lat="62.7429305565" lon="7.98876666093">
		<tag k="name" v="Styggeholet" />
		<tag k="natural" v="bay" />
		<tag k="ssr:stedsnr" v="887964" />
	</node>
	<node id="-584610" lat="62.7304805563" lon="7.7130111047">
		<tag k="name" v="Sandvika" />
		<tag k="natural" v="bay" />
		<tag k="ssr:stedsnr" v="159702" />
	</node>
	<node id="-586184" lat="62.7321333372" lon="7.90590554921">
		<tag k="name" v="Gildernesbukta" />
		<tag k="natural" v="bay" />
		<tag k="ssr:stedsnr" v="948972" />
	</node>
	<node id="-585158" lat="62.7392166684" lon="8.04963611479">
		<tag k="name" v="Utboggbukta" />
		<tag k="natural" v="bay" />
		<tag k="ssr:stedsnr" v="536792" />
	</node>
	<node id="-585157" lat="62.7199388886" lon="7.76935278237">
		<tag k="name" v="Skorgeneset" />
		<tag k="natural" v="cape" />
		<tag k="ssr:stedsnr" v="536436" />
	</node>
	<node id="-584129" lat="62.721933333" lon="7.78387499652">
		<tag k="name" v="Grovbukta" />
		<tag k="natural" v="bay" />
		<tag k="ssr:stedsnr" v="887888" />
	</node>
	<node id="-585664" lat="62.7319916693" lon="8.02114722696">
		<tag k="name" v="Skjelbekkneset" />
		<tag k="natural" v="cape" />
		<tag k="ssr:stedsnr" v="719494" />
	</node>
	<node id="-585662" lat="62.7060583362" lon="8.12013333999">
		<tag k="name" v="Klakken" />
		<tag k="natural" v="shoal" />
		<tag k="place" v="locality" />
		<tag k="ssr:stedsnr" v="718788" />
	</node>
	<node id="-584636" lat="62.7225444447" lon="7.7864638845">
		<tag k="name" v="Hundekroken" />
		<tag k="natural" v="bay" />
		<tag k="ssr:stedsnr" v="159895" />
	</node>
	<node id="-585144" lat="62.7325666676" lon="7.83788332631">
		<tag k="name" v="Saltsteinvika" />
		<tag k="natural" v="bay" />
		<tag k="ssr:stedsnr" v="523896" />
	</node>
	<node id="-585139" lat="62.7095333322" lon="8.08566665965">
		<tag k="alt_name" v="Sølåttvika" />
		<tag k="name" v="Sølåttbukta" />
		<tag k="natural" v="bay" />
		<tag k="ssr:stedsnr" v="523836" />
	</node>
	<node id="-584110" lat="62.7369944434" lon="8.08118889024">
		<tag k="name" v="Vikan" />
		<tag k="natural" v="bay" />
		<tag k="ssr:stedsnr" v="887742" />
	</node>
	<node id="-585131" lat="62.7792055538" lon="8.27575277973">
		<tag k="name" v="Brakka" />
		<tag k="natural" v="cape" />
		<tag k="ssr:stedsnr" v="523731" />
	</node>
	<node id="-585640" lat="62.7436472231" lon="7.94919721272">
		<tag k="name" v="Hammarbukta" />
		<tag k="natural" v="bay" />
		<tag k="ssr:stedsnr" v="705829" />
	</node>
	<node id="-586148" lat="62.7438333342" lon="7.77826944814">
		<tag k="name" v="Ranvikholmen" />
		<tag k="place" v="islet" />
		<tag k="ssr:stedsnr" v="948660" />
	</node>
	<node id="-585634" lat="62.7416055518" lon="8.04763055418">
		<tag k="name" v="Bogen" />
		<tag k="natural" v="bay" />
		<tag k="ssr:stedsnr" v="705797" />
	</node>
	<node id="-584607" lat="62.7354416696" lon="7.74534166493">
		<tag k="name" v="Trollbrua" />
		<tag k="natural" v="cape" />
		<tag k="ssr:stedsnr" v="159597" />
	</node>
	<node id="-585116" lat="62.7336416665" lon="7.73404444692">
		<tag k="name" v="Bekkerklipa" />
		<tag k="natural" v="bay" />
		<tag k="ssr:stedsnr" v="523613" />
	</node>
	<node id="-584088" lat="62.7670749995" lon="7.98222500868">
		<tag k="alt_name" v="Torshammaren" />
		<tag k="name" v="Torshamran" />
		<tag k="natural" v="cape" />
		<tag k="ssr:stedsnr" v="887461" />
	</node>
	<node id="-584599" lat="62.7151972205" lon="8.13005555641">
		<tag k="name" v="Kuhellarneset" />
		<tag k="natural" v="cape" />
		<tag k="ssr:stedsnr" v="159533" />
	</node>
	<node id="-586134" lat="62.7383138845" lon="8.06712500267">
		<tag k="name" v="Stygghola" />
		<tag k="natural" v="bay" />
		<tag k="ssr:stedsnr" v="948564" />
	</node>
	<node id="-584083" lat="62.7711583324" lon="8.02171389133">
		<tag k="name" v="Flatabukta" />
		<tag k="natural" v="bay" />
		<tag k="ssr:stedsnr" v="887423" />
	</node>
	<node id="-584591" lat="62.7647722226" lon="8.04539444931">
		<tag k="name" v="Moddsteinen" />
		<tag k="place" v="locality" />
		<tag k="ssr:stedsnr" v="159451" />
	</node>
	<node id="-584590" lat="62.7567611124" lon="8.02020834005">
		<tag k="name" v="Prestneset" />
		<tag k="natural" v="cape" />
		<tag k="ssr:stedsnr" v="159436" />
	</node>
	<node id="-584077" lat="62.7481388896" lon="8.0260333322">
		<tag k="name" v="Stygghola" />
		<tag k="natural" v="bay" />
		<tag k="ssr:stedsnr" v="887391" />
	</node>
	<node id="-585610" lat="62.7370305599" lon="8.05758610708">
		<tag k="name" v="Leirholet" />
		<tag k="natural" v="bay" />
		<tag k="ssr:stedsnr" v="705568" />
	</node>
	<node id="-584585" lat="62.7844444467" lon="8.24478888154">
		<tag k="alt_name" v="Innervika" />
		<tag k="name" v="Vikabukta" />
		<tag k="natural" v="bay" />
		<tag k="ssr:stedsnr" v="159401" />
	</node>
	<node id="-586118" lat="62.7724944439" lon="8.03954723081">
		<tag k="name" v="Kvitberget" />
		<tag k="natural" v="cape" />
		<tag k="ssr:stedsnr" v="948448" />
	</node>
	<node id="-585600" lat="62.7509000012" lon="8.01826667222">
		<tag k="fixme" v="consider seamark:type=rock or natural=shoal" />
		<tag k="name" v="Langskjæret" />
		<tag k="place" v="islet" />
		<tag k="ssr:stedsnr" v="705452" />
	</node>
	<node id="-585597" lat="62.7976083336" lon="8.20436945031">
		<tag k="name" v="Oddlineset" />
		<tag k="natural" v="cape" />
		<tag k="ssr:stedsnr" v="705407" />
	</node>
	<node id="-584569" lat="62.7606388896" lon="7.86357776855">
		<tag k="name" v="Helgevika" />
		<tag k="natural" v="bay" />
		<tag k="ssr:stedsnr" v="159648" />
	</node>
	<node id="-585591" lat="62.7994472216" lon="8.18850278304">
		<tag k="name" v="Myraløbukta" />
		<tag k="natural" v="bay" />
		<tag k="ssr:stedsnr" v="705293" />
	</node>
	<node id="-585560" lat="62.7842805593" lon="8.29169445237">
		<tag k="name" v="Maliholet" />
		<tag k="natural" v="bay" />
		<tag k="ssr:stedsnr" v="704256" />
	</node>
	<node id="-584559" lat="62.7045833291" lon="8.14148333966">
		<tag k="alt_name" v="Kjelneset" />
		<tag k="name" v="Tjeldneset" />
		<tag k="natural" v="cape" />
		<tag k="ssr:stedsnr" v="158844" />
	</node>
	<node id="-586091" lat="62.7626416701" lon="8.04206389464">
		<tag k="alt_name" v="Breidvika" />
		<tag k="name" v="Breivika" />
		<tag k="natural" v="bay" />
		<tag k="ssr:stedsnr" v="947713" />
	</node>
	<node id="-585578" lat="62.7141472194" lon="8.06948333796">
		<tag k="name" v="Bytneset" />
		<tag k="natural" v="cape" />
		<tag k="ssr:stedsnr" v="705082" />
	</node>
	<node id="-584548" lat="62.734655555" lon="7.8778750036">
		<tag k="name" v="Sandnesbukta" />
		<tag k="natural" v="bay" />
		<tag k="ssr:stedsnr" v="158947" />
	</node>
	<node id="-585570" lat="62.7721083334" lon="8.03549165959">
		<tag k="name" v="Ålberget" />
		<tag k="natural" v="cape" />
		<tag k="ssr:stedsnr" v="704712" />
	</node>
	<node id="-586081" lat="62.6864805588" lon="8.12609167437">
		<tag k="name" v="Øratangen" />
		<tag k="natural" v="cape" />
		<tag k="ssr:stedsnr" v="947377" />
	</node>
	<node id="-586079" lat="62.7830611141" lon="8.2995388851">
		<tag k="name" v="Inner Altervika" />
		<tag k="natural" v="bay" />
		<tag k="ssr:stedsnr" v="947276" />
	</node>
	<node id="-585566" lat="62.8031944414" lon="8.1761833374">
		<tag k="name" v="Ørabukta" />
		<tag k="natural" v="bay" />
		<tag k="ssr:stedsnr" v="704681" />
	</node>
	<node id="-584026" lat="62.7387666634" lon="8.0503166601">
		<tag k="name" v="Størkafjøra" />
		<tag k="natural" v="beach" />
		<tag k="place" v="locality" />
		<tag k="ssr:stedsnr" v="887517" />
	</node>
	<node id="-584024" lat="62.7837055599" lon="8.25240278724">
		<tag k="name" v="Bøneset" />
		<tag k="natural" v="cape" />
		<tag k="ssr:stedsnr" v="474564" />
	</node>
	<node id="-584420" lat="62.760158335" lon="8.03011666206">
		<tag k="name" v="Kjegelneset" />
		<tag k="natural" v="cape" />
		<tag k="ssr:stedsnr" v="98398" />
	</node>
	<node id="-584078" lat="62.7519555549" lon="8.01592222488">
		<tag k="alt_name" v="Skjærjegrunna" />
		<tag k="name" v="Skjeragrunna" />
		<tag k="natural" v="shoal" />
		<tag k="place" v="locality" />
		<tag k="ssr:stedsnr" v="887397" />
	</node>
	<node id="-586062" lat="62.7200027736" lon="8.05183610645">
		<tag k="fixme" v="consider seamark:type=rock or natural=shoal" />
		<tag k="name" v="Røsskjeret" />
		<tag k="place" v="islet" />
		<tag k="ssr:stedsnr" v="922415" />
	</node>
	<node id="-584523" lat="62.7837583295" lon="8.29953332857">
		<tag k="name" v="Altervika" />
		<tag k="natural" v="bay" />
		<tag k="ssr:stedsnr" v="133360" />
	</node>
	<node id="-584522" lat="62.7007472238" lon="8.1137805538">
		<tag k="alt_name" v="Hundneset;Hundneset, store" />
		<tag k="name" v="Store Hundneset" />
		<tag k="natural" v="cape" />
		<tag k="ssr:stedsnr" v="133266" />
	</node>
	<node id="-584008" lat="62.7753249983" lon="8.06397499814">
		<tag k="name" v="Kråkholmen" />
		<tag k="place" v="islet" />
		<tag k="ssr:stedsnr" v="402428" />
	</node>
	<node id="-585023" lat="62.7228499965" lon="8.11108610347">
		<tag k="name" v="Grytneset" />
		<tag k="natural" v="cape" />
		<tag k="ssr:stedsnr" v="496492" />
	</node>
	<node id="-584510" lat="62.7299583317" lon="8.06411388649">
		<tag k="bay" v="fjord" />
		<tag k="name" v="Eresfjorden" />
		<tag k="natural" v="bay" />
		<tag k="ssr:stedsnr" v="132461" />
	</node>
	<node id="-584586" lat="62.7894638908" lon="8.23056666463">
		<tag k="name" v="Meisalneset" />
		<tag k="natural" v="cape" />
		<tag k="ssr:stedsnr" v="159403" />
	</node>
	<node id="-584500" lat="62.7625250035" lon="7.95223333779">
		<tag k="name" v="Skaggrunna" />
		<tag k="natural" v="shoal" />
		<tag k="place" v="locality" />
		<tag k="ssr:stedsnr" v="112297" />
	</node>
	<node id="-583985" lat="62.7417777754" lon="7.99753055798">
		<tag k="name" v="Grasneset" />
		<tag k="natural" v="cape" />
		<tag k="ssr:stedsnr" v="401950" />
	</node>
	<node id="-586031" lat="62.7666694487" lon="7.94699166395">
		<tag k="name" v="Skolten" />
		<tag k="natural" v="shoal" />
		<tag k="place" v="locality" />
		<tag k="ssr:stedsnr" v="901234" />
	</node>
	<node id="-585516" lat="62.6960666696" lon="8.11888611006">
		<tag k="alt_name" v="Hundneset, litle" />
		<tag k="name" v="Litle Hundneset" />
		<tag k="natural" v="cape" />
		<tag k="ssr:stedsnr" v="679264" />
	</node>
	<node id="-585003" lat="62.7026555567" lon="8.14260000731">
		<tag k="name" v="Strandneset" />
		<tag k="natural" v="cape" />
		<tag k="ssr:stedsnr" v="462842" />
	</node>
	<node id="-584600" lat="62.7345499961" lon="8.08975555048">
		<tag k="name" v="Holvollbukta" />
		<tag k="natural" v="bay" />
		<tag k="ssr:stedsnr" v="159548" />
	</node>
	<node id="-584998" lat="62.7300083304" lon="8.035172216">
		<tag k="name" v="Ernesgrunna" />
		<tag k="natural" v="shoal" />
		<tag k="place" v="locality" />
		<tag k="ssr:stedsnr" v="462811" />
	</node>
	<node id="-583920" lat="62.7677972178" lon="7.97540556393">
		<tag k="name" v="Gjengstøa" />
		<tag k="natural" v="bay" />
		<tag k="ssr:stedsnr" v="401456" />
	</node>
	<node id="-586014" lat="62.7385266804" lon="8.08086119755">
		<tag k="name" v="Boggestranda" />
		<tag k="natural" v="beach" />
		<tag k="place" v="locality" />
		<tag k="ssr:stedsnr" v="861454" />
	</node>
	<node id="-583963" lat="62.7195388892" lon="8.05074722141">
		<tag k="alt_name" v="Rangneset" />
		<tag k="name" v="Rangåneset" />
		<tag k="natural" v="cape" />
		<tag k="ssr:stedsnr" v="401784" />
	</node>
	<node id="-583962" lat="62.7126361135" lon="8.07643055737">
		<tag k="name" v="Nonshauggrunna" />
		<tag k="natural" v="shoal" />
		<tag k="place" v="locality" />
		<tag k="ssr:stedsnr" v="401780" />
	</node>
	<node id="-585492" lat="62.7383777768" lon="8.05187500531">
		<tag k="name" v="Gammalnausthaugen" />
		<tag k="natural" v="cape" />
		<tag k="ssr:stedsnr" v="657751" />
	</node>
	<node id="-585491" lat="62.70892778" lon="7.71371943563">
		<tag k="name" v="Slettfjerdingneset" />
		<tag k="natural" v="cape" />
		<tag k="ssr:stedsnr" v="657488" />
	</node>
	<node id="-583952" lat="62.7443722186" lon="8.03806666843">
		<tag k="name" v="Spelvika" />
		<tag k="natural" v="bay" />
		<tag k="ssr:stedsnr" v="401729" />
	</node>
	<node id="-585485" lat="62.7294277736" lon="7.92685832789">
		<tag k="name" v="Vistdalsbukta" />
		<tag k="natural" v="bay" />
		<tag k="ssr:stedsnr" v="644976" />
	</node>
	<node id="-584969" lat="62.7378638875" lon="7.92938887987">
		<tag k="name" v="Holmesundet" />
		<tag k="natural" v="strait" />
		<tag k="ssr:stedsnr" v="462966" />
	</node>
	<node id="-584236" lat="62.7376055552" lon="8.05252222445">
		<tag k="name" v="Tømmerberget" />
		<tag k="natural" v="cape" />
		<tag k="ssr:stedsnr" v="37529" />
	</node>
	<node id="-583942" lat="62.7527249988" lon="7.83481667275">
		<tag k="fixme" v="consider seamark:type=rock or natural=shoal" />
		<tag k="name" v="Kyrkjebåten" />
		<tag k="place" v="islet" />
		<tag k="ssr:stedsnr" v="401599" />
	</node>
	<node id="-584963" lat="62.7360722231" lon="7.86867500463">
		<tag k="alt_name" v="Sandneset" />
		<tag k="name" v="Geilneset" />
		<tag k="natural" v="cape" />
		<tag k="ssr:stedsnr" v="462925" />
	</node>
	<node id="-586027" lat="62.7940305534" lon="8.2840750017">
		<tag k="name" v="Meløya" />
		<tag k="place" v="islet" />
		<tag k="ssr:stedsnr" v="862399" />
	</node>
	<node id="-584448" lat="62.7631083345" lon="7.88047222267">
		<tag k="name" v="Sauvika" />
		<tag k="natural" v="bay" />
		<tag k="ssr:stedsnr" v="98643" />
	</node>
	<node id="-583930" lat="62.7795277793" lon="8.26846387969">
		<tag k="name" v="Hyllberget" />
		<tag k="natural" v="cape" />
		<tag k="ssr:stedsnr" v="401523" />
	</node>
	<node id="-585971" lat="62.7588694469" lon="8.01259999024">
		<tag k="name" v="Prestgrunna" />
		<tag k="natural" v="shoal" />
		<tag k="place" v="locality" />
		<tag k="ssr:stedsnr" v="840704" />
	</node>
	<node id="-583922" lat="62.7678583306" lon="7.91718889355">
		<tag k="name" v="Maliberget" />
		<tag k="natural" v="cape" />
		<tag k="ssr:stedsnr" v="401461" />
	</node>
	<node id="-583921" lat="62.7674250001" lon="7.98550555045">
		<tag k="fixme" v="consider seamark:type=rock or natural=shoal" />
		<tag k="name" v="Matbordet" />
		<tag k="place" v="islet" />
		<tag k="ssr:stedsnr" v="401458" />
	</node>
	<node id="-585456" lat="62.7141722254" lon="8.13288888412">
		<tag k="name" v="Godvika" />
		<tag k="natural" v="bay" />
		<tag k="ssr:stedsnr" v="644781" />
	</node>
	<node id="-585967" lat="62.7405083301" lon="8.00069722986">
		<tag k="name" v="Hissurbukta" />
		<tag k="natural" v="bay" />
		<tag k="ssr:stedsnr" v="827965" />
	</node>
	<node id="-584422" lat="62.7548055546" lon="8.01998889755">
		<tag k="name" v="Prestbukta" />
		<tag k="natural" v="bay" />
		<tag k="ssr:stedsnr" v="98402" />
	</node>
	<node id="-585957" lat="62.7141833354" lon="8.0684361204">
		<tag k="name" v="Hundkroken" />
		<tag k="natural" v="bay" />
		<tag k="ssr:stedsnr" v="827849" />
	</node>
	<node id="-585444" lat="62.753844445" lon="7.83856389769">
		<tag k="name" v="Tjuvbukta" />
		<tag k="natural" v="bay" />
		<tag k="ssr:stedsnr" v="644645" />
	</node>
	<node id="-584418" lat="62.7504527787" lon="8.01905833116">
		<tag k="fixme" v="consider seamark:type=rock or natural=shoal" />
		<tag k="name" v="Sauskjæret" />
		<tag k="place" v="islet" />
		<tag k="ssr:stedsnr" v="98391" />
	</node>
	<node id="-584415" lat="62.6963833334" lon="8.11975277188">
		<tag k="name" v="Storhundneset" />
		<tag k="natural" v="cape" />
		<tag k="ssr:stedsnr" v="98374" />
	</node>
	<node id="-583901" lat="62.8085027773" lon="8.17327500288">
		<tag k="name" v="Øraneset" />
		<tag k="natural" v="cape" />
		<tag k="ssr:stedsnr" v="376600" />
	</node>
	<node id="-584412" lat="62.7905611082" lon="8.22384167192">
		<tag k="name" v="Hyllbukta" />
		<tag k="natural" v="bay" />
		<tag k="ssr:stedsnr" v="98362" />
	</node>
	<node id="-585429" lat="62.7642388897" lon="7.92090833338">
		<tag k="name" v="Trollmyrgrunna" />
		<tag k="natural" v="shoal" />
		<tag k="place" v="locality" />
		<tag k="ssr:stedsnr" v="644470" />
	</node>
	<node id="-585931" lat="62.7684694437" lon="7.99166945123">
		<tag k="name" v="Kvitberget" />
		<tag k="natural" v="cape" />
		<tag k="ssr:stedsnr" v="827491" />
	</node>
	<node id="-585930" lat="62.7655500026" lon="7.96518055566">
		<tag k="name" v="Bonholmen" />
		<tag k="place" v="islet" />
		<tag k="ssr:stedsnr" v="827489" />
	</node>
	<node id="-585925" lat="62.7705083355" lon="8.01640833202">
		<tag k="name" v="Ottabukta" />
		<tag k="natural" v="bay" />
		<tag k="ssr:stedsnr" v="827449" />
	</node>
	<node id="-585923" lat="62.7723388922" lon="8.06074722554">
		<tag k="name" v="Eidsvågleira" />
		<tag k="natural" v="beach" />
		<tag k="place" v="locality" />
		<tag k="ssr:stedsnr" v="827443" />
	</node>
	<node id="-585920" lat="62.7949694464" lon="8.20853611444">
		<tag k="name" v="Vikabukta" />
		<tag k="natural" v="bay" />
		<tag k="ssr:stedsnr" v="827394" />
	</node>
	<node id="-585919" lat="62.7934916705" lon="8.21680278159">
		<tag k="name" v="Svensligrunna" />
		<tag k="place" v="locality" />
		<tag k="ssr:stedsnr" v="827391" />
	</node>
	<node id="-584893" lat="62.7462388886" lon="8.03048054877">
		<tag k="name" v="Skålneset" />
		<tag k="natural" v="cape" />
		<tag k="ssr:stedsnr" v="436463" />
	</node>
	<node id="-584892" lat="62.7321388906" lon="7.83139721911">
		<tag k="alt_name" v="Elgeneset" />
		<tag k="name" v="Elgenes" />
		<tag k="natural" v="cape" />
		<tag k="ssr:stedsnr" v="436457" />
	</node>
	<node id="-583829" lat="62.7307916652" lon="8.10637222123">
		<tag k="name" v="Sandvika" />
		<tag k="natural" v="bay" />
		<tag k="ssr:stedsnr" v="341802" />
	</node>
	<node id="-585907" lat="62.7351555522" lon="7.8632666687">
		<tag k="alt_name" v="Hollibukta" />
		<tag k="name" v="Sandnesvika" />
		<tag k="natural" v="bay" />
		<tag k="ssr:stedsnr" v="826937" />
	</node>
	<node id="-585899" lat="62.7320388865" lon="7.82931389288">
		<tag k="fixme" v="consider seamark:type=rock or natural=shoal" />
		<tag k="name" v="Smedneset" />
		<tag k="place" v="islet" />
		<tag k="ssr:stedsnr" v="826889" />
	</node>
	<node id="-585894" lat="62.7468611113" lon="8.0289944421">
		<tag k="name" v="Oterhola" />
		<tag k="natural" v="bay" />
		<tag k="ssr:stedsnr" v="826739" />
	</node>
	<node id="-585878" lat="62.7804305598" lon="8.2848555499">
		<tag k="name" v="Skrøbukta" />
		<tag k="natural" v="bay" />
		<tag k="ssr:stedsnr" v="826525" />
	</node>
	<node id="-585877" lat="62.7295194424" lon="7.70914722405">
		<tag k="name" v="Sandvikneset" />
		<tag k="natural" v="cape" />
		<tag k="ssr:stedsnr" v="826514" />
	</node>
	<node id="-584850" lat="62.766155559" lon="7.95032222119">
		<tag k="name" v="Ljøstbotn" />
		<tag k="natural" v="shoal" />
		<tag k="place" v="locality" />
		<tag k="ssr:stedsnr" v="415273" />
	</node>
	<node id="-585411" lat="62.8038944414" lon="8.17270834169">
		<tag k="name" v="Djuphølen" />
		<tag k="place" v="locality" />
		<tag k="ssr:stedsnr" v="644271" />
	</node>
	<node id="-583789" lat="62.7678833363" lon="7.94978333557">
		<tag k="fixme" v="consider seamark:type=rock or natural=shoal" />
		<tag k="name" v="Kobbeskjæret" />
		<tag k="place" v="islet" />
		<tag k="ssr:stedsnr" v="341478" />
	</node>
	<node id="-585867" lat="62.7377222199" lon="7.9310027762">
		<tag k="name" v="Neset" />
		<tag k="natural" v="cape" />
		<tag k="ssr:stedsnr" v="826110" />
	</node>
	<node id="-585866" lat="62.7044138922" lon="8.0989750034">
		<tag k="name" v="Sandvika" />
		<tag k="natural" v="bay" />
		<tag k="ssr:stedsnr" v="826085" />
	</node>
	<node id="-584326" lat="62.6985777739" lon="8.1180694476">
		<tag k="name" v="Hellvika" />
		<tag k="natural" v="bay" />
		<tag k="ssr:stedsnr" v="51821" />
	</node>
	<node id="-583813" lat="62.7547694455" lon="7.84120555233">
		<tag k="name" v="Skinnstakkhola" />
		<tag k="natural" v="bay" />
		<tag k="ssr:stedsnr" v="341676" />
	</node>
	<node id="-583811" lat="62.7632416655" lon="7.8830138864">
		<tag k="name" v="Naustbukta" />
		<tag k="natural" v="bay" />
		<tag k="ssr:stedsnr" v="341669" />
	</node>
	<node id="-583805" lat="62.7253472244" lon="7.68353055539">
		<tag k="name" v="Daveslettneset" />
		<tag k="natural" v="cape" />
		<tag k="ssr:stedsnr" v="341623" />
	</node>
	<node id="-583803" lat="62.7375611073" lon="7.75669722488">
		<tag k="name" v="Litlehagneset" />
		<tag k="natural" v="cape" />
		<tag k="ssr:stedsnr" v="341607" />
	</node>
	<node id="-583801" lat="62.7795222187" lon="8.27220554894">
		<tag k="name" v="Hyllbekkneset" />
		<tag k="natural" v="cape" />
		<tag k="ssr:stedsnr" v="341596" />
	</node>
	<node id="-585336" lat="62.6840888876" lon="8.14260277256">
		<tag k="name" v="Paulen" />
		<tag k="natural" v="bay" />
		<tag k="ssr:stedsnr" v="596864" />
	</node>
	<node id="-585335" lat="62.7007472267" lon="8.11745832762">
		<tag k="name" v="Hundnesflua" />
		<tag k="natural" v="shoal" />
		<tag k="place" v="locality" />
		<tag k="ssr:stedsnr" v="596769" />
	</node>
	<node id="-584306" lat="62.7829499991" lon="8.25652221322">
		<tag k="name" v="Elvaneset" />
		<tag k="natural" v="cape" />
		<tag k="ssr:stedsnr" v="38390" />
	</node>
	<node id="-583790" lat="62.7680000034" lon="7.95329722726">
		<tag k="name" v="Litlevika" />
		<tag k="natural" v="bay" />
		<tag k="ssr:stedsnr" v="341480" />
	</node>
	<node id="-585325" lat="62.7332666693" lon="7.93623611622">
		<tag k="name" v="Myklebostadstranda" />
		<tag k="natural" v="beach" />
		<tag k="place" v="locality" />
		<tag k="ssr:stedsnr" v="583966" />
	</node>
	<node id="-584812" lat="62.737186107" lon="7.92633889879">
		<tag k="name" v="Vistdalsholmen" />
		<tag k="place" v="islet" />
		<tag k="ssr:stedsnr" v="254457" />
	</node>
	<node id="-584806" lat="62.7008361074" lon="8.10652777681">
		<tag k="name" v="Jevika" />
		<tag k="natural" v="bay" />
		<tag k="ssr:stedsnr" v="254410" />
	</node>
	<node id="-584804" lat="62.7432833347" lon="8.00067222494">
		<tag k="name" v="Kleibjørkgrunna" />
		<tag k="natural" v="shoal" />
		<tag k="place" v="locality" />
		<tag k="ssr:stedsnr" v="233572" />
	</node>
	<node id="-584803" lat="62.7122500029" lon="8.09028888094">
		<tag k="name" v="Sølåttholmen" />
		<tag k="place" v="islet" />
		<tag k="ssr:stedsnr" v="232757" />
	</node>
	<node id="-584289" lat="62.7243999998" lon="7.92244999938">
		<tag k="name" v="Leirneset" />
		<tag k="natural" v="cape" />
		<tag k="ssr:stedsnr" v="37970" />
	</node>
	<node id="-583767" lat="62.7267722246" lon="7.81258333158">
		<tag k="name" v="Trollhaugbukta" />
		<tag k="natural" v="bay" />
		<tag k="ssr:stedsnr" v="340892" />
	</node>
	<node id="-585301" lat="62.7188611125" lon="8.05675832701">
		<tag k="fixme" v="consider seamark:type=rock or natural=shoal" />
		<tag k="name" v="Røsskjerflua" />
		<tag k="place" v="islet" />
		<tag k="ssr:stedsnr" v="583817" />
	</node>
	<node id="-584276" lat="62.7255694451" lon="7.8061194481">
		<tag k="name" v="Trollstoin" />
		<tag k="natural" v="cape" />
		<tag k="ssr:stedsnr" v="37898" />
	</node>
	<node id="-583763" lat="62.7765194478" lon="8.06991388574">
		<tag k="name" v="Bruneset" />
		<tag k="natural" v="cape" />
		<tag k="ssr:stedsnr" v="340727" />
	</node>
	<node id="-585807" lat="62.7733861119" lon="7.99706388122">
		<tag k="name" v="Øyan" />
		<tag k="place" v="island" />
		<tag k="ssr:stedsnr" v="766663" />
	</node>
	<node id="-584776" lat="62.7684722221" lon="7.9627361035">
		<tag k="name" v="Leira" />
		<tag k="natural" v="bay" />
		<tag k="ssr:stedsnr" v="220697" />
	</node>
	<node id="-584255" lat="62.7475305513" lon="7.80466944865">
		<tag k="fixme" v="consider seamark:type=rock or natural=shoal" />
		<tag k="name" v="Barsteinskjera" />
		<tag k="place" v="islet" />
		<tag k="ssr:stedsnr" v="37629" />
	</node>
	<node id="-585789" lat="62.7536916707" lon="8.02148888633">
		<tag k="name" v="Storfjøra" />
		<tag k="natural" v="beach" />
		<tag k="place" v="locality" />
		<tag k="ssr:stedsnr" v="766384" />
	</node>
	<node id="-583739" lat="62.7654388856" lon="7.95892499744">
		<tag k="name" v="Skaget" />
		<tag k="natural" v="cape" />
		<tag k="ssr:stedsnr" v="315580" />
	</node>
	<node id="-585272" lat="62.7348333306" lon="7.74296944488">
		<tag k="name" v="Hundeholet" />
		<tag k="natural" v="bay" />
		<tag k="ssr:stedsnr" v="583543" />
	</node>
	<node id="-585271" lat="62.7795833318" lon="8.26432499162">
		<tag k="name" v="Bleikneset" />
		<tag k="natural" v="cape" />
		<tag k="ssr:stedsnr" v="583540" />
	</node>
	<node id="-584753" lat="62.7491222238" lon="8.02015000533">
		<tag k="fixme" v="consider seamark:type=rock or natural=shoal" />
		<tag k="name" v="Skarveskjæret" />
		<tag k="place" v="islet" />
		<tag k="ssr:stedsnr" v="220432" />
	</node>
	<node id="-583725" lat="62.7839638845" lon="8.31203332755">
		<tag k="name" v="Ballsneset" />
		<tag k="natural" v="cape" />
		<tag k="ssr:stedsnr" v="315374" />
	</node>
	<node id="-585260" lat="62.7320916675" lon="8.10165555324">
		<tag k="name" v="Eikjeberget" />
		<tag k="natural" v="cape" />
		<tag k="ssr:stedsnr" v="583495" />
	</node>
	<node id="-584387" lat="62.7293277806" lon="8.03309166305">
		<tag k="name" v="Erneset" />
		<tag k="natural" v="cape" />
		<tag k="ssr:stedsnr" v="98073" />
	</node>
	<node id="-585257" lat="62.7678944462" lon="7.9818777774">
		<tag k="name" v="Jevikbukta" />
		<tag k="natural" v="bay" />
		<tag k="ssr:stedsnr" v="583459" />
	</node>
	<node id="-585764" lat="62.7295694445" lon="8.03023889689">
		<tag k="name" v="Ytste Ernesbukta" />
		<tag k="natural" v="bay" />
		<tag k="ssr:stedsnr" v="765808" />
	</node>
	<node id="-584227" lat="62.7691972249" lon="8.0062249931">
		<tag k="fixme" v="consider seamark:type=rock or natural=shoal" />
		<tag k="name" v="Høvikskjæret" />
		<tag k="place" v="islet" />
		<tag k="ssr:stedsnr" v="37474" />
	</node>
	<node id="-585249" lat="62.7579305515" lon="8.0146194457">
		<tag k="name" v="Prestgrunna" />
		<tag k="place" v="locality" />
		<tag k="ssr:stedsnr" v="583387" />
	</node>
	<node id="-584736" lat="62.7251222267" lon="7.80233054999">
		<tag k="name" v="Bytberget" />
		<tag k="natural" v="cape" />
		<tag k="ssr:stedsnr" v="219900" />
	</node>
	<node id="-584735" lat="62.724644443" lon="7.79634999892">
		<tag k="name" v="Kvassneset" />
		<tag k="natural" v="cape" />
		<tag k="ssr:stedsnr" v="219899" />
	</node>
	<node id="-584731" lat="62.7981638903" lon="8.20186388601">
		<tag k="name" v="Laberget" />
		<tag k="natural" v="cape" />
		<tag k="ssr:stedsnr" v="219733" />
	</node>
	<node id="-585248" lat="62.7488472224" lon="8.02071388933">
		<tag k="fixme" v="consider seamark:type=rock or natural=shoal" />
		<tag k="name" v="Bollskjæret" />
		<tag k="place" v="islet" />
		<tag k="ssr:stedsnr" v="583385" />
	</node>
	<node id="-583939" lat="62.7628416689" lon="7.87788055193">
		<tag k="alt_name" v="Tjellefonnbukta" />
		<tag k="name" v="Tjellafonnbukta" />
		<tag k="natural" v="bay" />
		<tag k="ssr:stedsnr" v="401585" />
	</node>
	<node id="-584208" lat="62.7480249977" lon="8.01138056474">
		<tag k="name" v="Egga" />
		<tag k="place" v="locality" />
		<tag k="ssr:stedsnr" v="37091" />
	</node>
	<node id="-584719" lat="62.7841888893" lon="8.30546943644">
		<tag k="name" v="Litlneset" />
		<tag k="natural" v="cape" />
		<tag k="ssr:stedsnr" v="219273" />
	</node>
	<node id="-583689" lat="62.7692472251" lon="7.94808610162">
		<tag k="alt_name" v="Rødvikan" />
		<tag k="name" v="Rødvika" />
		<tag k="natural" v="bay" />
		<tag k="ssr:stedsnr" v="281656" />
	</node>
	<node id="-584712" lat="62.7320000021" lon="7.91028056316">
		<tag k="name" v="Lianeset" />
		<tag k="natural" v="cape" />
		<tag k="ssr:stedsnr" v="219092" />
	</node>
	<node id="-584853" lat="62.7796638918" lon="8.27611667201">
		<tag k="name" v="Fredsvikbukta" />
		<tag k="natural" v="bay" />
		<tag k="ssr:stedsnr" v="437425" />
	</node>
	<node id="-585219" lat="62.7238694487" lon="8.03832222677">
		<tag k="alt_name" v="Urdvikan" />
		<tag k="name" v="Orvikan" />
		<tag k="natural" v="bay" />
		<tag k="ssr:stedsnr" v="583073" />
	</node>
	<node id="-584363" lat="62.7427888849" lon="7.99324999968">
		<tag k="alt_name" v="Klebjørkneset" />
		<tag k="name" v="Kleibjørkneset" />
		<tag k="natural" v="cape" />
		<tag k="ssr:stedsnr" v="72460" />
	</node>
</osm>
