<?xml version="1.0" encoding="UTF-8"?>
<osm generator="osmapis" version="0.6">
	<node id="-585728" lat="62.7810454611" lon="8.25495974162">
		<tag k="fixme" v="consider place=hamlet" />
		<tag k="name" v="Fredsvik" />
		<tag k="place" v="farm" />
		<tag k="ssr:stedsnr" v="437424" />
	</node>
	<node id="-585727" lat="62.6758534175" lon="8.14392190603">
		<tag k="name" v="Bjørbakken" />
		<tag k="place" v="farm" />
		<tag k="ssr:stedsnr" v="424310" />
	</node>
	<node id="-584703" lat="62.780363887" lon="8.06651945048">
		<tag k="name" v="Steinteigen" />
		<tag k="place" v="farm" />
		<tag k="ssr:stedsnr" v="341761" />
	</node>
	<node id="-585719" lat="62.7293416672" lon="7.67035556112">
		<tag k="historic" v="shieling" />
		<tag k="name" v="Buviksetra" />
		<tag k="place" v="locality" />
		<tag k="ssr:stedsnr" v="254768" />
	</node>
	<node id="-585718" lat="62.7764421737" lon="8.0188665026">
		<tag k="fixme" v="consider place=hamlet" />
		<tag k="name" v="Klokkset" />
		<tag k="place" v="farm" />
		<tag k="ssr:stedsnr" v="254596" />
	</node>
	<node id="-585717" lat="62.7720062838" lon="8.01902500631">
		<tag k="fixme" v="multiple name tags, choose one and add the other to alt_name; consider place=hamlet" />
		<tag k="name" v="Otterbogen;Klokkargarden" />
		<tag k="place" v="farm" />
		<tag k="ssr:stedsnr" v="254590" />
	</node>
	<node id="-585714" lat="62.7730194738" lon="7.96010916307">
		<tag k="fixme" v="consider place=hamlet" />
		<tag k="name" v="Rød" />
		<tag k="place" v="farm" />
		<tag k="ssr:stedsnr" v="254570" />
	</node>
	<node id="-585707" lat="62.6876805528" lon="8.11677221696">
		<tag k="name" v="Nauste" />
		<tag k="place" v="hamlet" />
		<tag k="ssr:stedsnr" v="254287" />
	</node>
	<node id="-585705" lat="62.6576305599" lon="8.03956389189">
		<tag k="name" v="Fjellgarden" />
		<tag k="place" v="locality" />
		<tag k="ssr:stedsnr" v="254255" />
	</node>
	<node id="-585704" lat="62.6708666673" lon="8.00680277247">
		<tag k="name" v="Hagen" />
		<tag k="place" v="farm" />
		<tag k="ssr:stedsnr" v="254246" />
	</node>
	<node id="-585703" lat="62.6735703955" lon="8.12578487494">
		<tag k="alt_name" v="Fagerslett" />
		<tag k="fixme" v="consider place=hamlet" />
		<tag k="name" v="Fagersletta" />
		<tag k="place" v="farm" />
		<tag k="ssr:stedsnr" v="254238" />
	</node>
	<node id="-585700" lat="62.5697488599" lon="8.17884225502">
		<tag k="fixme" v="consider place=hamlet" />
		<tag k="name" v="Vike" />
		<tag k="place" v="farm" />
		<tag k="ssr:stedsnr" v="254166" />
	</node>
	<node id="-585690" lat="62.7411916624" lon="7.75466943857">
		<tag k="name" v="Stormyra" />
		<tag k="place" v="farm" />
		<tag k="ssr:stedsnr" v="254467" />
	</node>
	<node id="-585687" lat="62.7389463616" lon="8.09987377806">
		<tag k="alt_name" v="Bogge, indre;Indre Bogge" />
		<tag k="fixme" v="consider place=hamlet" />
		<tag k="name" v="Inn-Bogge" />
		<tag k="place" v="farm" />
		<tag k="ssr:stedsnr" v="254449" />
	</node>
	<node id="-585686" lat="62.7349860038" lon="8.10680150022">
		<tag k="fixme" v="consider place=hamlet" />
		<tag k="name" v="Hagbøen" />
		<tag k="place" v="farm" />
		<tag k="ssr:stedsnr" v="254448" />
	</node>
	<node id="-585685" lat="62.7350691186" lon="7.74095871103">
		<tag k="fixme" v="consider place=hamlet" />
		<tag k="name" v="Åram" />
		<tag k="place" v="farm" />
		<tag k="ssr:stedsnr" v="254447" />
	</node>
	<node id="-585684" lat="62.7359944447" lon="7.9588666651">
		<tag k="historic" v="shieling" />
		<tag k="name" v="Øvregardsætra" />
		<tag k="place" v="locality" />
		<tag k="ssr:stedsnr" v="254444" />
	</node>
	<node id="-585683" lat="62.7202805583" lon="7.9328222314">
		<tag k="fixme" v="consider place=hamlet" />
		<tag k="name" v="Myklebostad" />
		<tag k="place" v="village" />
		<tag k="ssr:stedsnr" v="254419" />
	</node>
	<node id="-585678" lat="62.4690672244" lon="8.18494348665">
		<tag k="fixme" v="consider place=hamlet" />
		<tag k="name" v="Eikesdal" />
		<tag k="place" v="farm" />
		<tag k="ssr:stedsnr" v="223459" />
	</node>
	<node id="-585677" lat="62.6958305575" lon="7.95830554885">
		<tag k="name" v="Bergset" />
		<tag k="place" v="farm" />
		<tag k="ssr:stedsnr" v="222440" />
	</node>
	<node id="-585676" lat="62.6943694438" lon="7.97299166949">
		<tag k="name" v="Ødegård" />
		<tag k="place" v="farm" />
		<tag k="ssr:stedsnr" v="222266" />
	</node>
	<node id="-585675" lat="62.6726083341" lon="8.1053888946">
		<tag k="name" v="Husby" />
		<tag k="place" v="farm" />
		<tag k="ssr:stedsnr" v="222237" />
	</node>
	<node id="-585668" lat="62.8097833378" lon="7.82749999046">
		<tag k="name" v="Reitlia" />
		<tag k="place" v="farm" />
		<tag k="ssr:stedsnr" v="220866" />
	</node>
	<node id="-585663" lat="62.685602776" lon="8.01690555961">
		<tag k="name" v="Åkrokstølen" />
		<tag k="place" v="locality" />
		<tag k="ssr:stedsnr" v="220847" />
	</node>
	<node id="-585658" lat="62.7717777776" lon="7.98769722981">
		<tag k="name" v="Jevika" />
		<tag k="place" v="farm" />
		<tag k="ssr:stedsnr" v="220747" />
	</node>
	<node id="-585636" lat="62.6720916711" lon="8.12690278209">
		<tag k="name" v="Risan" />
		<tag k="place" v="farm" />
		<tag k="ssr:stedsnr" v="220495" />
	</node>
	<node id="-585633" lat="62.8032083352" lon="8.06095833637">
		<tag k="historic" v="shieling" />
		<tag k="name" v="Hagasetra" />
		<tag k="place" v="locality" />
		<tag k="ssr:stedsnr" v="220476" />
	</node>
	<node id="-585628" lat="62.7926560049" lon="8.20816285571">
		<tag k="fixme" v="consider place=hamlet" />
		<tag k="name" v="Bjerkholen" />
		<tag k="place" v="farm" />
		<tag k="ssr:stedsnr" v="220410" />
	</node>
	<node id="-585028" lat="62.5628750004" lon="8.17608889486">
		<tag k="name" v="Koven" />
		<tag k="place" v="locality" />
		<tag k="ssr:stedsnr" v="11162" />
	</node>
	<node id="-585025" lat="62.7677019148" lon="8.06672022413">
		<tag k="name" v="Grønfet" />
		<tag k="place" v="farm" />
		<tag k="ssr:stedsnr" v="991110" />
	</node>
	<node id="-585597" lat="62.6490944416" lon="8.11253610936">
		<tag k="name" v="Slenes" />
		<tag k="place" v="farm" />
		<tag k="ssr:stedsnr" v="219395" />
	</node>
	<node id="-585576" lat="62.7443797967" lon="7.95685159464">
		<tag k="fixme" v="consider place=hamlet" />
		<tag k="name" v="Gauprøra" />
		<tag k="place" v="farm" />
		<tag k="ssr:stedsnr" v="207718" />
	</node>
	<node id="-585020" lat="62.6971897113" lon="7.96464061382">
		<tag k="fixme" v="consider place=hamlet" />
		<tag k="name" v="Bersethjellen" />
		<tag k="place" v="farm" />
		<tag k="ssr:stedsnr" v="1072500" />
	</node>
	<node id="-585573" lat="62.7907462587" lon="7.86366437388">
		<tag k="fixme" v="consider place=hamlet" />
		<tag k="name" v="Skjørsetra" />
		<tag k="place" v="farm" />
		<tag k="ssr:stedsnr" v="195594" />
	</node>
	<node id="-585572" lat="62.8067472203" lon="7.93377221704">
		<tag k="historic" v="shieling" />
		<tag k="name" v="Rødsetrin" />
		<tag k="place" v="locality" />
		<tag k="ssr:stedsnr" v="195580" />
	</node>
	<node id="-585571" lat="62.8370222247" lon="8.12458611843">
		<tag k="fixme" v="consider place=suburb, village or hamlet" />
		<tag k="name" v="Raudsand" />
		<tag k="place" v="quarter" />
		<tag k="ssr:stedsnr" v="194503" />
	</node>
	<node id="-585569" lat="62.7458724924" lon="8.11942347405">
		<tag k="alt_name" v="Boggesætra" />
		<tag k="historic" v="shieling" />
		<tag k="name" v="Boggesetra" />
		<tag k="place" v="locality" />
		<tag k="ssr:stedsnr" v="194431" />
	</node>
	<node id="-585567" lat="62.6917638911" lon="8.10000277679">
		<tag k="alt_name" v="Naustesetra" />
		<tag k="historic" v="shieling" />
		<tag k="name" v="Naustesætra" />
		<tag k="place" v="locality" />
		<tag k="ssr:stedsnr" v="194282" />
	</node>
	<node id="-585566" lat="62.6856305529" lon="8.20637499123">
		<tag k="historic" v="shieling" />
		<tag k="name" v="Storstølen" />
		<tag k="place" v="locality" />
		<tag k="ssr:stedsnr" v="194281" />
	</node>
	<node id="-587066" lat="62.7385888883" lon="8.05399999742">
		<tag k="name" v="Nedre Ut-Bogge" />
		<tag k="place" v="farm" />
		<tag k="ssr:stedsnr" v="964933" />
	</node>
	<node id="-585561" lat="62.4733694481" lon="8.17702778028">
		<tag k="name" v="Reitan" />
		<tag k="place" v="farm" />
		<tag k="ssr:stedsnr" v="194086" />
	</node>
	<node id="-585555" lat="62.7411888911" lon="7.72028055652">
		<tag k="name" v="Hestadsætra" />
		<tag k="place" v="isolated_dwelling" />
		<tag k="ssr:stedsnr" v="193509" />
	</node>
	<node id="-585552" lat="62.6372555534" lon="8.02785833042">
		<tag k="name" v="Slenessetra" />
		<tag k="place" v="isolated_dwelling" />
		<tag k="ssr:stedsnr" v="193395" />
	</node>
	<node id="-585549" lat="62.4061416687" lon="8.54013610578">
		<tag k="fixme" v="consider tourism=alpine_hut or tourism=chalet" />
		<tag k="name" v="Aursjøhytta" />
		<tag k="ssr:stedsnr" v="193330" />
		<tag k="tourism" v="wilderness_hut" />
	</node>
	<node id="-585546" lat="62.6825111105" lon="8.16675000173">
		<tag k="name" v="Gudleikslia" />
		<tag k="place" v="locality" />
		<tag k="ssr:stedsnr" v="193291" />
	</node>
	<node id="-585540" lat="62.5645944421" lon="8.14380278699">
		<tag k="fixme" v="consider tourism=alpine_hut or tourism=chalet" />
		<tag k="name" v="Hoemsbu" />
		<tag k="ssr:stedsnr" v="193174" />
		<tag k="tourism" v="wilderness_hut" />
	</node>
	<node id="-585529" lat="62.695647219" lon="7.95641666939">
		<tag k="name" v="Bergset" />
		<tag k="place" v="farm" />
		<tag k="ssr:stedsnr" v="161454" />
	</node>
	<node id="-585528" lat="62.6945444471" lon="7.97726666257">
		<tag k="name" v="Ødegård" />
		<tag k="place" v="farm" />
		<tag k="ssr:stedsnr" v="161285" />
	</node>
	<node id="-585527" lat="62.7685027779" lon="7.97151111008">
		<tag k="name" v="Ljøsta" />
		<tag k="place" v="farm" />
		<tag k="ssr:stedsnr" v="161281" />
	</node>
	<node id="-585525" lat="62.7061361079" lon="7.95291944543">
		<tag k="leisure" v="pitch" />
		<tag k="name" v="Vistdal idrettsplass" />
		<tag k="ssr:stedsnr" v="159989" />
	</node>
	<node id="-585518" lat="62.6973472259" lon="7.91038611948">
		<tag k="name" v="Haugsetra" />
		<tag k="place" v="locality" />
		<tag k="ssr:stedsnr" v="159946" />
	</node>
	<node id="-585491" lat="62.7581055556" lon="8.03359166941">
		<tag k="name" v="Nordbø" />
		<tag k="place" v="farm" />
		<tag k="ssr:stedsnr" v="159740" />
	</node>
	<node id="-585403" lat="62.7985055783" lon="7.81599562214">
		<tag k="fixme" v="consider place=hamlet" />
		<tag k="name" v="Åfløya" />
		<tag k="place" v="farm" />
		<tag k="ssr:stedsnr" v="133559" />
	</node>
	<node id="-585401" lat="62.8003694446" lon="7.92956945105">
		<tag k="historic" v="shieling" />
		<tag k="name" v="Haugsetra" />
		<tag k="place" v="locality" />
		<tag k="ssr:stedsnr" v="133530" />
	</node>
	<node id="-585400" lat="62.7451666648" lon="8.03926388244">
		<tag k="name" v="Spelvika" />
		<tag k="place" v="isolated_dwelling" />
		<tag k="ssr:stedsnr" v="133430" />
	</node>
	<node id="-585394" lat="62.4911138892" lon="8.14187499317">
		<tag k="name" v="Mardalen" />
		<tag k="place" v="farm" />
		<tag k="ssr:stedsnr" v="133060" />
	</node>
	<node id="-585391" lat="62.7774498601" lon="8.03513976611">
		<tag k="fixme" v="consider place=hamlet" />
		<tag k="name" v="Solbjøra" />
		<tag k="place" v="farm" />
		<tag k="ssr:stedsnr" v="132634" />
	</node>
	<node id="-585389" lat="62.7455730425" lon="7.77089963078">
		<tag k="alt_name" v="Ranvika" />
		<tag k="fixme" v="consider place=hamlet" />
		<tag k="name" v="Ranvik" />
		<tag k="place" v="farm" />
		<tag k="ssr:stedsnr" v="132478" />
	</node>
	<node id="-585385" lat="62.7338444473" lon="8.1342138807">
		<tag k="alt_name" v="Hagbøsetra" />
		<tag k="name" v="Hagbøsætra" />
		<tag k="place" v="locality" />
		<tag k="ssr:stedsnr" v="132449" />
	</node>
	<node id="-585379" lat="62.6735138882" lon="7.99882500016">
		<tag k="name" v="Halsen" />
		<tag k="place" v="farm" />
		<tag k="ssr:stedsnr" v="132270" />
	</node>
	<node id="-585375" lat="62.7180222195" lon="8.12257500744">
		<tag k="name" v="Geilen" />
		<tag k="place" v="farm" />
		<tag k="ssr:stedsnr" v="111297" />
	</node>
	<node id="-585374" lat="62.7686611092" lon="7.96737222364">
		<tag k="name" v="Ljøsta" />
		<tag k="place" v="farm" />
		<tag k="ssr:stedsnr" v="101251" />
	</node>
	<node id="-585373" lat="62.6400111155" lon="8.09751666353">
		<tag k="name" v="Horne" />
		<tag k="place" v="farm" />
		<tag k="ssr:stedsnr" v="101237" />
	</node>
	<node id="-585372" lat="62.6405083322" lon="8.09685833563">
		<tag k="name" v="Horne" />
		<tag k="place" v="farm" />
		<tag k="ssr:stedsnr" v="101236" />
	</node>
	<node id="-585366" lat="62.7187972228" lon="7.93612222155">
		<tag k="name" v="Nedregardan" />
		<tag k="place" v="hamlet" />
		<tag k="ssr:stedsnr" v="98962" />
	</node>
	<node id="-585351" lat="62.8258222254" lon="8.13313611688">
		<tag k="name" v="Sivertstua" />
		<tag k="place" v="farm" />
		<tag k="ssr:stedsnr" v="98843" />
	</node>
	<node id="-585350" lat="62.6736500007" lon="8.16739999416">
		<tag k="name" v="Kvidalsstølen" />
		<tag k="place" v="locality" />
		<tag k="ssr:stedsnr" v="98833" />
	</node>
	<node id="-585332" lat="62.7787666712" lon="8.07984166794">
		<tag k="name" v="Stubøgeilen" />
		<tag k="place" v="farm" />
		<tag k="ssr:stedsnr" v="98698" />
	</node>
	<node id="-585300" lat="62.7732888912" lon="8.01709999862">
		<tag k="name" v="Jordmorteigen" />
		<tag k="place" v="farm" />
		<tag k="ssr:stedsnr" v="98425" />
	</node>
	<node id="-585261" lat="62.6837527786" lon="7.91062777592">
		<tag k="name" v="Pestølen" />
		<tag k="place" v="locality" />
		<tag k="ssr:stedsnr" v="98049" />
	</node>
	<node id="-585260" lat="62.7289555548" lon="7.82372222999">
		<tag k="name" v="Gjerdet" />
		<tag k="place" v="farm" />
		<tag k="ssr:stedsnr" v="98004" />
	</node>
	<node id="-585256" lat="62.4354972218" lon="8.29128610231">
		<tag k="name" v="Reiten" />
		<tag k="place" v="farm" />
		<tag k="ssr:stedsnr" v="81766" />
	</node>
	<node id="-585252" lat="62.7956361148" lon="8.03071944524">
		<tag k="historic" v="shieling" />
		<tag k="name" v="Lensmannssetra" />
		<tag k="place" v="locality" />
		<tag k="ssr:stedsnr" v="73604" />
	</node>
	<node id="-585251" lat="62.811847347" lon="7.81411436561">
		<tag k="fixme" v="consider place=hamlet" />
		<tag k="name" v="Litl-Gusjåsen" />
		<tag k="place" v="farm" />
		<tag k="ssr:stedsnr" v="73597" />
	</node>
	<node id="-585250" lat="62.808241668" lon="7.83799166995">
		<tag k="name" v="Skogmo" />
		<tag k="place" v="farm" />
		<tag k="ssr:stedsnr" v="73596" />
	</node>
	<node id="-585249" lat="62.8295055574" lon="8.13126667102">
		<tag k="name" v="Nerslættet" />
		<tag k="place" v="farm" />
		<tag k="ssr:stedsnr" v="73581" />
	</node>
	<node id="-585247" lat="62.7856114678" lon="8.23679486527">
		<tag k="fixme" v="consider place=hamlet" />
		<tag k="name" v="Kvennset" />
		<tag k="place" v="farm" />
		<tag k="ssr:stedsnr" v="73409" />
	</node>
	<node id="-585246" lat="62.7511222264" lon="8.11520833209">
		<tag k="historic" v="shieling" />
		<tag k="name" v="Boggesetra" />
		<tag k="place" v="locality" />
		<tag k="ssr:stedsnr" v="72611" />
	</node>
	<node id="-585243" lat="62.7682652332" lon="7.97058355611">
		<tag k="fixme" v="consider place=hamlet" />
		<tag k="name" v="Ljøsta" />
		<tag k="place" v="farm" />
		<tag k="ssr:stedsnr" v="72593" />
	</node>
	<node id="-585242" lat="62.7907722255" lon="8.09286666535">
		<tag k="name" v="Årstad" />
		<tag k="place" v="farm" />
		<tag k="ssr:stedsnr" v="72580" />
	</node>
	<node id="-585236" lat="62.7109248878" lon="8.0897714754">
		<tag k="fixme" v="consider place=hamlet" />
		<tag k="name" v="Sølåtta" />
		<tag k="place" v="farm" />
		<tag k="ssr:stedsnr" v="72428" />
	</node>
	<node id="-585235" lat="62.6946833376" lon="8.01983889746">
		<tag k="alt_name" v="Herutsetra" />
		<tag k="historic" v="shieling" />
		<tag k="name" v="Herutsætra" />
		<tag k="place" v="locality" />
		<tag k="ssr:stedsnr" v="72421" />
	</node>
	<node id="-585231" lat="62.6506785821" lon="8.10854789337">
		<tag k="alt_name" v="Ner Slenes;Slenes, nedre" />
		<tag k="fixme" v="consider place=hamlet" />
		<tag k="name" v="Nedre Slenes" />
		<tag k="place" v="farm" />
		<tag k="ssr:stedsnr" v="72343" />
	</node>
	<node id="-584621" lat="62.5530472209" lon="8.27855833014">
		<tag k="historic" v="shieling" />
		<tag k="name" v="Kolstadstølen" />
		<tag k="place" v="locality" />
		<tag k="ssr:stedsnr" v="324714" />
	</node>
	<node id="-585222" lat="62.6809305579" lon="7.89419722423">
		<tag k="alt_name" v="Langesetra" />
		<tag k="historic" v="shieling" />
		<tag k="name" v="Langasætra" />
		<tag k="place" v="locality" />
		<tag k="ssr:stedsnr" v="72281" />
	</node>
	<node id="-584618" lat="62.8025643096" lon="7.83201025753">
		<tag k="fixme" v="consider place=hamlet" />
		<tag k="name" v="Bakken" />
		<tag k="place" v="farm" />
		<tag k="ssr:stedsnr" v="316615" />
	</node>
	<node id="-585209" lat="62.4601083364" lon="8.11275278186">
		<tag k="name" v="Storkjerka" />
		<tag k="place" v="locality" />
		<tag k="ssr:stedsnr" v="72093" />
	</node>
	<node id="-585202" lat="62.6950888848" lon="7.97447223172">
		<tag k="name" v="Ødegård" />
		<tag k="place" v="farm" />
		<tag k="ssr:stedsnr" v="40287" />
	</node>
	<node id="-585201" lat="62.7685805512" lon="7.96978611089">
		<tag k="name" v="Ljøsta" />
		<tag k="place" v="farm" />
		<tag k="ssr:stedsnr" v="40281" />
	</node>
	<node id="-585200" lat="62.7185861134" lon="8.12702221919">
		<tag k="name" v="Øvre Hjellen" />
		<tag k="place" v="farm" />
		<tag k="ssr:stedsnr" v="38705" />
	</node>
	<node id="-585199" lat="62.7486861076" lon="7.80944166995">
		<tag k="name" v="Gammelstøa" />
		<tag k="place" v="farm" />
		<tag k="ssr:stedsnr" v="38703" />
	</node>
	<node id="-585198" lat="62.7749694486" lon="8.04996110638">
		<tag k="name" v="Sjølaupet" />
		<tag k="place" v="farm" />
		<tag k="ssr:stedsnr" v="38696" />
	</node>
	<node id="-585197" lat="62.7774722181" lon="8.06433888776">
		<tag k="name" v="Myra" />
		<tag k="place" v="farm" />
		<tag k="ssr:stedsnr" v="38693" />
	</node>
	<node id="-585185" lat="62.7489611142" lon="8.04753610678">
		<tag k="name" v="Buktasetra" />
		<tag k="place" v="locality" />
		<tag k="ssr:stedsnr" v="38400" />
	</node>
	<node id="-585095" lat="62.6820722251" lon="8.19872221818">
		<tag k="name" v="Klæsså" />
		<tag k="place" v="locality" />
		<tag k="ssr:stedsnr" v="37137" />
	</node>
	<node id="-584598" lat="62.6406106948" lon="8.12111828214">
		<tag k="fixme" v="consider place=hamlet" />
		<tag k="name" v="Nerås" />
		<tag k="place" v="farm" />
		<tag k="ssr:stedsnr" v="315338" />
	</node>
	<node id="-585090" lat="62.6606555591" lon="8.02740832463">
		<tag k="name" v="Botnen" />
		<tag k="place" v="locality" />
		<tag k="ssr:stedsnr" v="37119" />
	</node>
	<node id="-585089" lat="62.6545899289" lon="8.03064058453">
		<tag k="name" v="Brekka" />
		<tag k="place" v="locality" />
		<tag k="ssr:stedsnr" v="37120" />
	</node>
	<node id="-585079" lat="62.6944027798" lon="7.92006388975">
		<tag k="name" v="Stusetra" />
		<tag k="place" v="locality" />
		<tag k="ssr:stedsnr" v="37047" />
	</node>
	<node id="-585077" lat="62.6833916634" lon="8.17819722578">
		<tag k="historic" v="shieling" />
		<tag k="name" v="Dokksetra" />
		<tag k="place" v="locality" />
		<tag k="ssr:stedsnr" v="37013" />
	</node>
	<node id="-585076" lat="62.4909444433" lon="8.14160832447">
		<tag k="name" v="Mardalsbøen" />
		<tag k="place" v="farm" />
		<tag k="ssr:stedsnr" v="37011" />
	</node>
	<node id="-585075" lat="62.7275888898" lon="7.91152778646">
		<tag k="name" v="Øverlia" />
		<tag k="place" v="farm" />
		<tag k="ssr:stedsnr" v="37010" />
	</node>
	<node id="-585072" lat="62.4040777776" lon="8.4906305546">
		<tag k="historic" v="shieling" />
		<tag k="name" v="Stordalsåsetra" />
		<tag k="place" v="locality" />
		<tag k="ssr:stedsnr" v="28484" />
	</node>
	<node id="-585069" lat="62.4314980218" lon="8.37096492672">
		<tag k="name" v="Ramnåhytta" />
		<tag k="place" v="isolated_dwelling" />
		<tag k="ssr:stedsnr" v="21768" />
	</node>
	<node id="-585066" lat="62.7936166649" lon="7.98851666364">
		<tag k="historic" v="shieling" />
		<tag k="name" v="Reitasetra" />
		<tag k="place" v="locality" />
		<tag k="ssr:stedsnr" v="12592" />
	</node>
	<node id="-585063" lat="62.8206194446" lon="8.03886665793">
		<tag k="historic" v="shieling" />
		<tag k="name" v="Holsetra" />
		<tag k="place" v="locality" />
		<tag k="ssr:stedsnr" v="12552" />
	</node>
	<node id="-585051" lat="62.7865234907" lon="8.12872048448">
		<tag k="fixme" v="consider place=hamlet" />
		<tag k="name" v="Myrset" />
		<tag k="place" v="farm" />
		<tag k="ssr:stedsnr" v="11601" />
	</node>
	<node id="-585050" lat="62.7836506556" lon="8.08409076694">
		<tag k="fixme" v="consider place=hamlet" />
		<tag k="name" v="Jordfallet" />
		<tag k="place" v="farm" />
		<tag k="ssr:stedsnr" v="11600" />
	</node>
	<node id="-585046" lat="62.7288285788" lon="8.03109478244">
		<tag k="fixme" v="consider place=hamlet" />
		<tag k="name" v="Ernes" />
		<tag k="place" v="farm" />
		<tag k="ssr:stedsnr" v="11470" />
	</node>
	<node id="-585045" lat="62.7049083295" lon="8.07542222845">
		<tag k="alt_name" v="Sølåttsetra" />
		<tag k="name" v="Sølåttsætra" />
		<tag k="place" v="isolated_dwelling" />
		<tag k="ssr:stedsnr" v="11449" />
	</node>
	<node id="-585043" lat="62.6316666683" lon="8.09979722729">
		<tag k="name" v="Osen" />
		<tag k="place" v="farm" />
		<tag k="ssr:stedsnr" v="11368" />
	</node>
	<node id="-585035" lat="62.6787099167" lon="8.1610990801">
		<tag k="alt_name" v="Grandsætra" />
		<tag k="fixme" v="consider place=hamlet" />
		<tag k="name" v="Grandsetra" />
		<tag k="place" v="farm" />
		<tag k="ssr:stedsnr" v="11288" />
	</node>
	<node id="-585032" lat="62.6725359313" lon="8.10434660997">
		<tag k="fixme" v="consider place=hamlet" />
		<tag k="name" v="Husby" />
		<tag k="place" v="farm" />
		<tag k="ssr:stedsnr" v="11263" />
	</node>
	<node id="-585031" lat="62.6610194475" lon="8.11089167427">
		<tag k="fixme" v="consider place=hamlet" />
		<tag k="name" v="Eresfjord" />
		<tag k="place" v="village" />
		<tag k="ssr:stedsnr" v="11250" />
	</node>
	<node id="-587077" lat="62.7229664788" lon="7.91983120583">
		<tag k="fixme" v="consider place=hamlet" />
		<tag k="name" v="Øra" />
		<tag k="place" v="farm" />
		<tag k="ssr:stedsnr" v="981132" />
	</node>
	<node id="-587076" lat="62.7202061027" lon="7.93671638527">
		<tag k="name" v="Myklebostad" />
		<tag k="place" v="hamlet" />
		<tag k="ssr:stedsnr" v="981130" />
	</node>
	<node id="-587075" lat="62.6836613178" lon="8.1161998954">
		<tag k="fixme" v="consider place=hamlet" />
		<tag k="name" v="Nauste" />
		<tag k="place" v="farm" />
		<tag k="ssr:stedsnr" v="981127" />
	</node>
	<node id="-587074" lat="62.7321368439" lon="8.10723418762">
		<tag k="name" v="Sandvika" />
		<tag k="place" v="locality" />
		<tag k="ssr:stedsnr" v="981089" />
	</node>
	<node id="-587073" lat="62.8017381332" lon="8.17151941315">
		<tag k="fixme" v="consider place=hamlet" />
		<tag k="name" v="Eidsøra" />
		<tag k="place" v="farm" />
		<tag k="ssr:stedsnr" v="981088" />
	</node>
	<node id="-587072" lat="62.8375781635" lon="8.12497097764">
		<tag k="fixme" v="consider place=hamlet" />
		<tag k="name" v="Raudsand" />
		<tag k="place" v="farm" />
		<tag k="ssr:stedsnr" v="981023" />
	</node>
	<node id="-587071" lat="62.8310105506" lon="8.12453313196">
		<tag k="fixme" v="consider place=hamlet" />
		<tag k="name" v="Raudsandhaugen" />
		<tag k="place" v="farm" />
		<tag k="ssr:stedsnr" v="981022" />
	</node>
	<node id="-587070" lat="62.7765980062" lon="8.06544524764">
		<tag k="fixme" v="consider place=hamlet" />
		<tag k="name" v="Eidsvåg" />
		<tag k="place" v="farm" />
		<tag k="ssr:stedsnr" v="981002" />
	</node>
	<node id="-587069" lat="62.7725981195" lon="7.95872259136">
		<tag k="name" v="Pålgarden" />
		<tag k="place" v="farm" />
		<tag k="ssr:stedsnr" v="979920" />
	</node>
	<node id="-587068" lat="62.7731005118" lon="7.97178400551">
		<tag k="name" v="Jogarden" />
		<tag k="place" v="farm" />
		<tag k="ssr:stedsnr" v="979919" />
	</node>
	<node id="-585019" lat="62.6699166692" lon="8.10394722701">
		<tag k="name" v="Husby" />
		<tag k="place" v="farm" />
		<tag k="ssr:stedsnr" v="890264" />
	</node>
	<node id="-585018" lat="62.6816000044" lon="7.90836666925">
		<tag k="name" v="Svagrovstølen" />
		<tag k="place" v="locality" />
		<tag k="ssr:stedsnr" v="888000" />
	</node>
	<node id="-585017" lat="62.6781068987" lon="7.90547732519">
		<tag k="name" v="Gammelstølen" />
		<tag k="place" v="locality" />
		<tag k="ssr:stedsnr" v="887998" />
	</node>
	<node id="-587064" lat="62.8109944427" lon="7.85471665826">
		<tag k="fixme" v="consider place=hamlet" />
		<tag k="name" v="Stor-Gusjåsen" />
		<tag k="place" v="farm" />
		<tag k="ssr:stedsnr" v="952261" />
	</node>
	<node id="-584998" lat="62.794624999" lon="7.80248889099">
		<tag k="name" v="Saga" />
		<tag k="place" v="farm" />
		<tag k="ssr:stedsnr" v="887847" />
	</node>
	<node id="-587044" lat="62.6727694458" lon="8.16166943913">
		<tag k="name" v="Litlsetra" />
		<tag k="place" v="locality" />
		<tag k="ssr:stedsnr" v="948881" />
	</node>
	<node id="-584994" lat="62.693941663" lon="8.0222111198">
		<tag k="name" v="Reitasetra" />
		<tag k="place" v="locality" />
		<tag k="ssr:stedsnr" v="887808" />
	</node>
	<node id="-587041" lat="62.6375083336" lon="8.02703332586">
		<tag k="historic" v="shieling" />
		<tag k="name" v="Hornesetra" />
		<tag k="place" v="locality" />
		<tag k="ssr:stedsnr" v="948851" />
	</node>
	<node id="-587036" lat="62.7411708097" lon="8.07549104142">
		<tag k="name" v="Bogge" />
		<tag k="place" v="hamlet" />
		<tag k="ssr:stedsnr" v="948762" />
	</node>
	<node id="-587035" lat="62.7399777799" lon="8.09162222748">
		<tag k="name" v="Olagarden" />
		<tag k="place" v="farm" />
		<tag k="ssr:stedsnr" v="948761" />
	</node>
	<node id="-587034" lat="62.7733888868" lon="8.02221944937">
		<tag k="name" v="Linreiten" />
		<tag k="place" v="farm" />
		<tag k="ssr:stedsnr" v="948756" />
	</node>
	<node id="-584981" lat="62.7761749979" lon="8.05958333799">
		<tag k="name" v="Liedgarden" />
		<tag k="place" v="farm" />
		<tag k="ssr:stedsnr" v="887693" />
	</node>
	<node id="-584960" lat="62.8015499963" lon="8.0468250013">
		<tag k="historic" v="shieling" />
		<tag k="name" v="Hammervollstølen" />
		<tag k="place" v="locality" />
		<tag k="ssr:stedsnr" v="887438" />
	</node>
	<node id="-584954" lat="62.7707361137" lon="8.10696389769">
		<tag k="name" v="Stubøsetra" />
		<tag k="place" v="locality" />
		<tag k="ssr:stedsnr" v="887401" />
	</node>
	<node id="-584948" lat="62.7335583333" lon="8.14121666174">
		<tag k="historic" v="shieling" />
		<tag k="name" v="Gammelsetra" />
		<tag k="place" v="locality" />
		<tag k="ssr:stedsnr" v="887359" />
	</node>
	<node id="-584943" lat="62.7900361067" lon="8.18106110865">
		<tag k="name" v="Rønningsetra" />
		<tag k="place" v="locality" />
		<tag k="ssr:stedsnr" v="887252" />
	</node>
	<node id="-586984" lat="62.7917749987" lon="8.21444166957">
		<tag k="fixme" v="consider place=hamlet" />
		<tag k="name" v="Meisalstranda" />
		<tag k="place" v="village" />
		<tag k="ssr:stedsnr" v="948382" />
	</node>
	<node id="-584927" lat="62.7156555514" lon="7.92917500782">
		<tag k="name" v="Lange" />
		<tag k="place" v="hamlet" />
		<tag k="ssr:stedsnr" v="887090" />
	</node>
	<node id="-584910" lat="62.7958388924" lon="7.80576111827">
		<tag k="alt_name" v="Plassen" />
		<tag k="name" v="Trøhaugen" />
		<tag k="place" v="farm" />
		<tag k="ssr:stedsnr" v="887575" />
	</node>
	<node id="-584904" lat="62.7447902901" lon="8.12072921661">
		<tag k="alt_name" v="Innergardssetran" />
		<tag k="historic" v="shieling" />
		<tag k="name" v="Innigardssetran" />
		<tag k="place" v="locality" />
		<tag k="ssr:stedsnr" v="887528" />
	</node>
	<node id="-584901" lat="62.7443333373" lon="8.09850278448">
		<tag k="name" v="Fangstølen" />
		<tag k="place" v="locality" />
		<tag k="ssr:stedsnr" v="887516" />
	</node>
	<node id="-584899" lat="62.6956055524" lon="7.97017500048">
		<tag k="name" v="Ødegård" />
		<tag k="place" v="farm" />
		<tag k="ssr:stedsnr" v="404272" />
	</node>
	<node id="-584898" lat="62.7413055593" lon="7.75540278026">
		<tag k="name" v="Åramsosen" />
		<tag k="place" v="farm" />
		<tag k="ssr:stedsnr" v="402875" />
	</node>
	<node id="-584897" lat="62.803452781" lon="7.84133055757">
		<tag k="name" v="Myran" />
		<tag k="place" v="farm" />
		<tag k="ssr:stedsnr" v="402870" />
	</node>
	<node id="-584896" lat="62.8305972255" lon="8.12935000386">
		<tag k="name" v="Nerslættet" />
		<tag k="place" v="farm" />
		<tag k="ssr:stedsnr" v="402869" />
	</node>
	<node id="-586943" lat="62.7756750145" lon="8.0750530461">
		<tag k="fixme" v="consider place=hamlet" />
		<tag k="name" v="Stubøen" />
		<tag k="place" v="farm" />
		<tag k="ssr:stedsnr" v="922591" />
	</node>
	<node id="-584894" lat="62.7719750032" lon="8.01660276928">
		<tag k="name" v="Otta" />
		<tag k="place" v="farm" />
		<tag k="ssr:stedsnr" v="402717" />
	</node>
	<node id="-586935" lat="62.7024768309" lon="7.94421126854">
		<tag k="fixme" v="consider place=hamlet" />
		<tag k="name" v="Hjellen" />
		<tag k="place" v="farm" />
		<tag k="ssr:stedsnr" v="922401" />
	</node>
	<node id="-584883" lat="62.7577888885" lon="8.02345277599">
		<tag k="name" v="Prestnaustet" />
		<tag k="place" v="locality" />
		<tag k="ssr:stedsnr" v="402419" />
	</node>
	<node id="-586930" lat="62.6061805568" lon="8.13120278374">
		<tag k="alt_name" v="Meringdalsetra" />
		<tag k="name" v="Meringdalsætra" />
		<tag k="place" v="locality" />
		<tag k="ssr:stedsnr" v="922316" />
	</node>
	<node id="-586929" lat="62.6880049748" lon="7.99581262649">
		<tag k="fixme" v="consider place=hamlet" />
		<tag k="name" v="Nerland" />
		<tag k="place" v="farm" />
		<tag k="ssr:stedsnr" v="922292" />
	</node>
	<node id="-586927" lat="62.5519833331" lon="8.18473334282">
		<tag k="alt_name" v="Vike, øvre" />
		<tag k="name" v="Øvre Vike" />
		<tag k="place" v="farm" />
		<tag k="ssr:stedsnr" v="922138" />
	</node>
	<node id="-584878" lat="62.815377774" lon="8.07529722457">
		<tag k="name" v="Nistusetra" />
		<tag k="place" v="locality" />
		<tag k="ssr:stedsnr" v="402367" />
	</node>
	<node id="-586921" lat="62.7334750001" lon="7.85744444105">
		<tag k="name" v="Myrhaug" />
		<tag k="place" v="farm" />
		<tag k="ssr:stedsnr" v="921502" />
	</node>
	<node id="-586919" lat="62.7181372017" lon="7.76323160029">
		<tag k="alt_name" v="Skorga, ytre" />
		<tag k="fixme" v="consider place=hamlet" />
		<tag k="name" v="Ytre Skorga" />
		<tag k="place" v="farm" />
		<tag k="ssr:stedsnr" v="921495" />
	</node>
	<node id="-586918" lat="62.642666668" lon="8.02518333041">
		<tag k="historic" v="shieling" />
		<tag k="name" v="Brekkesætra" />
		<tag k="place" v="locality" />
		<tag k="ssr:stedsnr" v="921391" />
	</node>
	<node id="-586917" lat="62.4207895355" lon="8.32143648994">
		<tag k="fixme" v="consider place=hamlet" />
		<tag k="name" v="Finnset" />
		<tag k="place" v="farm" />
		<tag k="ssr:stedsnr" v="921358" />
	</node>
	<node id="-586913" lat="62.4473361098" lon="8.46057500832">
		<tag k="name" v="Midtlægeret" />
		<tag k="place" v="locality" />
		<tag k="ssr:stedsnr" v="921349" />
	</node>
	<node id="-586911" lat="62.4230305554" lon="8.48542777459">
		<tag k="name" v="Inste Lægeret" />
		<tag k="place" v="locality" />
		<tag k="ssr:stedsnr" v="921331" />
	</node>
	<node id="-586910" lat="62.6628583307" lon="8.05569165933">
		<tag k="alt_name" v="Turhussetra" />
		<tag k="historic" v="shieling" />
		<tag k="name" v="Turhussætra" />
		<tag k="place" v="locality" />
		<tag k="ssr:stedsnr" v="921283" />
	</node>
	<node id="-586909" lat="62.6670555595" lon="8.15539443814">
		<tag k="name" v="Ufssalen" />
		<tag k="place" v="isolated_dwelling" />
		<tag k="ssr:stedsnr" v="921259" />
	</node>
	<node id="-586904" lat="62.7642972185" lon="8.04853611163">
		<tag k="name" v="Breidvik" />
		<tag k="place" v="isolated_dwelling" />
		<tag k="ssr:stedsnr" v="900696" />
	</node>
	<node id="-586900" lat="62.80146944" lon="8.17064721729">
		<tag k="fixme" v="consider place=hamlet" />
		<tag k="name" v="Eidsøra" />
		<tag k="place" v="village" />
		<tag k="ssr:stedsnr" v="862581" />
	</node>
	<node id="-586898" lat="62.806430557" lon="7.84261389128">
		<tag k="name" v="Sagtrøa" />
		<tag k="place" v="farm" />
		<tag k="ssr:stedsnr" v="862556" />
	</node>
	<node id="-586891" lat="62.7736897222" lon="8.03843102948">
		<tag k="fixme" v="consider place=hamlet" />
		<tag k="name" v="Hammervoll" />
		<tag k="place" v="farm" />
		<tag k="ssr:stedsnr" v="861588" />
	</node>
	<node id="-586889" lat="62.7918694401" lon="8.21257499178">
		<tag k="name" v="Svenslia" />
		<tag k="place" v="farm" />
		<tag k="ssr:stedsnr" v="861571" />
	</node>
	<node id="-586887" lat="62.7274750022" lon="7.81706389592">
		<tag k="alt_name" v="Trollhaugen" />
		<tag k="name" v="Trollhaug" />
		<tag k="place" v="farm" />
		<tag k="ssr:stedsnr" v="861449" />
	</node>
	<node id="-586886" lat="62.7340972258" lon="7.85571944925">
		<tag k="name" v="Myra" />
		<tag k="place" v="farm" />
		<tag k="ssr:stedsnr" v="861444" />
	</node>
	<node id="-586885" lat="62.7214333291" lon="7.8837666607">
		<tag k="alt_name" v="Sandnessetra" />
		<tag k="historic" v="shieling" />
		<tag k="name" v="Sandnessætra" />
		<tag k="place" v="locality" />
		<tag k="ssr:stedsnr" v="861442" />
	</node>
	<node id="-586884" lat="62.717994442" lon="7.81361111763">
		<tag k="alt_name" v="Trollhaugsetra" />
		<tag k="name" v="Trollhaugsætra" />
		<tag k="place" v="isolated_dwelling" />
		<tag k="ssr:stedsnr" v="861437" />
	</node>
	<node id="-586883" lat="62.7270361101" lon="8.13613610963">
		<tag k="alt_name" v="Breiviksetra" />
		<tag k="name" v="Breidviksætra" />
		<tag k="place" v="isolated_dwelling" />
		<tag k="ssr:stedsnr" v="861435" />
	</node>
	<node id="-586944" lat="62.7577377757" lon="7.85073870366">
		<tag k="fixme" v="consider place=hamlet" />
		<tag k="name" v="Gamsgrøa" />
		<tag k="place" v="farm" />
		<tag k="ssr:stedsnr" v="922592" />
	</node>
	<node id="-586878" lat="62.7031666659" lon="7.99297500486">
		<tag k="alt_name" v="Øygardsetra" />
		<tag k="historic" v="shieling" />
		<tag k="name" v="Øygardsætra" />
		<tag k="place" v="locality" />
		<tag k="ssr:stedsnr" v="861418" />
	</node>
	<node id="-586876" lat="62.694547625" lon="7.97427401698">
		<tag k="fixme" v="multiple name tags, choose one and add the other to alt_name" />
		<tag k="name" v="Ødegård;Litle Bersethjellen" />
		<tag k="place" v="hamlet" />
		<tag k="ssr:stedsnr" v="861407" />
	</node>
	<node id="-586875" lat="62.6950749961" lon="7.95823332551">
		<tag k="name" v="Bergset" />
		<tag k="place" v="farm" />
		<tag k="ssr:stedsnr" v="861403" />
	</node>
	<node id="-586874" lat="62.701118029" lon="7.94877490263">
		<tag k="fixme" v="consider place=hamlet" />
		<tag k="name" v="Helle" />
		<tag k="place" v="farm" />
		<tag k="ssr:stedsnr" v="861405" />
	</node>
	<node id="-584895" lat="62.7180916669" lon="8.12266665731">
		<tag k="name" v="Hjellen" />
		<tag k="place" v="farm" />
		<tag k="ssr:stedsnr" v="402729" />
	</node>
	<node id="-586864" lat="62.6779344588" lon="8.00419363139">
		<tag k="fixme" v="consider place=hamlet" />
		<tag k="name" v="Oppdal" />
		<tag k="place" v="farm" />
		<tag k="ssr:stedsnr" v="861259" />
	</node>
	<node id="-586863" lat="62.6635469154" lon="8.02498838194">
		<tag k="fixme" v="consider place=hamlet" />
		<tag k="name" v="Haustenga" />
		<tag k="place" v="farm" />
		<tag k="ssr:stedsnr" v="861254" />
	</node>
	<node id="-586861" lat="62.6561037105" lon="8.09994947374">
		<tag k="fixme" v="consider place=hamlet" />
		<tag k="name" v="Solhjell" />
		<tag k="place" v="farm" />
		<tag k="ssr:stedsnr" v="861248" />
	</node>
	<node id="-586852" lat="62.4759166707" lon="8.17361945008">
		<tag k="fixme" v="consider place=hamlet" />
		<tag k="name" v="Eikesdalen" />
		<tag k="place" v="village" />
		<tag k="ssr:stedsnr" v="861092" />
	</node>
	<node id="-586850" lat="62.6851536762" lon="8.22020332934">
		<tag k="alt_name" v="Kanndalssetra" />
		<tag k="historic" v="shieling" />
		<tag k="name" v="Gaddhaugen" />
		<tag k="place" v="locality" />
		<tag k="ssr:stedsnr" v="861047" />
	</node>
	<node id="-586843" lat="62.773033334" lon="7.9624777725">
		<tag k="name" v="Gussiåsstua" />
		<tag k="place" v="farm" />
		<tag k="ssr:stedsnr" v="830420" />
	</node>
	<node id="-586842" lat="62.7977361126" lon="8.13226110277">
		<tag k="name" v="Toven" />
		<tag k="place" v="farm" />
		<tag k="ssr:stedsnr" v="830414" />
	</node>
	<node id="-586835" lat="62.6127361138" lon="8.17372777924">
		<tag k="name" v="Strandstølen" />
		<tag k="place" v="locality" />
		<tag k="ssr:stedsnr" v="827858" />
	</node>
	<node id="-586826" lat="62.8005083368" lon="8.17636667457">
		<tag k="name" v="Myra" />
		<tag k="place" v="farm" />
		<tag k="ssr:stedsnr" v="827728" />
	</node>
	<node id="-586825" lat="62.7942865035" lon="8.20729076238">
		<tag k="fixme" v="consider place=hamlet" />
		<tag k="name" v="Vika" />
		<tag k="place" v="farm" />
		<tag k="ssr:stedsnr" v="827726" />
	</node>
	<node id="-586824" lat="62.7742694473" lon="8.05066111585">
		<tag k="name" v="Sjøgarden" />
		<tag k="place" v="farm" />
		<tag k="ssr:stedsnr" v="827724" />
	</node>
	<node id="-584773" lat="62.7743083302" lon="8.24290277208">
		<tag k="historic" v="shieling" />
		<tag k="name" v="Fredsviksetra" />
		<tag k="place" v="locality" />
		<tag k="ssr:stedsnr" v="376392" />
	</node>
	<node id="-584771" lat="62.7800250031" lon="8.06223333002">
		<tag k="alt_name" v="Hansgarden" />
		<tag k="name" v="Haugen" />
		<tag k="place" v="farm" />
		<tag k="ssr:stedsnr" v="375592" />
	</node>
	<node id="-584770" lat="62.7749102293" lon="8.02320463732">
		<tag k="fixme" v="consider place=hamlet" />
		<tag k="name" v="Hatlen" />
		<tag k="place" v="farm" />
		<tag k="ssr:stedsnr" v="375587" />
	</node>
	<node id="-584768" lat="62.7874972199" lon="8.11546944406">
		<tag k="name" v="Teigset" />
		<tag k="place" v="farm" />
		<tag k="ssr:stedsnr" v="375564" />
	</node>
	<node id="-584767" lat="62.7824372216" lon="8.06972081283">
		<tag k="fixme" v="consider place=hamlet" />
		<tag k="name" v="Hagen" />
		<tag k="place" v="farm" />
		<tag k="ssr:stedsnr" v="375562" />
	</node>
	<node id="-584766" lat="62.7913638869" lon="8.14556388787">
		<tag k="name" v="Brannholen" />
		<tag k="place" v="farm" />
		<tag k="ssr:stedsnr" v="375559" />
	</node>
	<node id="-584765" lat="62.7457055582" lon="7.77806667061">
		<tag k="name" v="Storneset" />
		<tag k="place" v="farm" />
		<tag k="ssr:stedsnr" v="375447" />
	</node>
	<node id="-584763" lat="62.7146998474" lon="7.93155699953">
		<tag k="fixme" v="consider place=hamlet" />
		<tag k="name" v="Indre Lange" />
		<tag k="place" v="farm" />
		<tag k="ssr:stedsnr" v="375409" />
	</node>
	<node id="-584762" lat="62.7076874259" lon="7.94559402488">
		<tag k="fixme" v="consider place=hamlet" />
		<tag k="name" v="Hanset" />
		<tag k="place" v="farm" />
		<tag k="ssr:stedsnr" v="375401" />
	</node>
	<node id="-584760" lat="62.6309777773" lon="7.98805277574">
		<tag k="name" v="Vasstindbu" />
		<tag k="place" v="isolated_dwelling" />
		<tag k="ssr:stedsnr" v="375337" />
	</node>
	<node id="-584758" lat="62.4205813968" lon="8.32266152861">
		<tag k="name" v="Elverhøy" />
		<tag k="place" v="farm" />
		<tag k="ssr:stedsnr" v="375299" />
	</node>
	<node id="-584754" lat="62.4113944427" lon="8.33987222273">
		<tag k="name" v="Botnasetra" />
		<tag k="place" v="locality" />
		<tag k="ssr:stedsnr" v="375278" />
	</node>
	<node id="-584752" lat="62.6900805571" lon="8.02528611684">
		<tag k="alt_name" v="Jakobstølen" />
		<tag k="historic" v="shieling" />
		<tag k="name" v="Jakobsætra" />
		<tag k="place" v="locality" />
		<tag k="ssr:stedsnr" v="375275" />
	</node>
	<node id="-584747" lat="62.6787775297" lon="8.12654827596">
		<tag k="fixme" v="consider place=hamlet" />
		<tag k="name" v="Syltebø" />
		<tag k="place" v="farm" />
		<tag k="ssr:stedsnr" v="375233" />
	</node>
	<node id="-584746" lat="62.6606000001" lon="7.97574165818">
		<tag k="alt_name" v="Oppdalssetra" />
		<tag k="historic" v="shieling" />
		<tag k="name" v="Oppdalsætra" />
		<tag k="place" v="locality" />
		<tag k="ssr:stedsnr" v="375229" />
	</node>
	<node id="-584745" lat="62.6697638863" lon="8.08065834199">
		<tag k="alt_name" v="Husbysetra" />
		<tag k="historic" v="shieling" />
		<tag k="name" v="Husbysætra" />
		<tag k="place" v="locality" />
		<tag k="ssr:stedsnr" v="375223" />
	</node>
	<node id="-584744" lat="62.6665456934" lon="8.0205426026">
		<tag k="alt_name" v="Rødal" />
		<tag k="fixme" v="consider place=hamlet" />
		<tag k="name" v="Rødalen" />
		<tag k="place" v="farm" />
		<tag k="ssr:stedsnr" v="375220" />
	</node>
	<node id="-584740" lat="62.4666305534" lon="8.19113332932">
		<tag k="name" v="Oppigard" />
		<tag k="place" v="farm" />
		<tag k="ssr:stedsnr" v="375078" />
	</node>
	<node id="-586787" lat="62.7100055585" lon="7.94907500957">
		<tag k="fixme" v="consider tourism=alpine_hut or tourism=chalet" />
		<tag k="name" v="Visthus leirstad" />
		<tag k="ssr:stedsnr" v="826993" />
		<tag k="tourism" v="wilderness_hut" />
	</node>
	<node id="-584735" lat="62.7409444408" lon="8.05985556475">
		<tag k="name" v="Øvre Ut-Bogge" />
		<tag k="place" v="farm" />
		<tag k="ssr:stedsnr" v="357941" />
	</node>
	<node id="-584734" lat="62.7311944444" lon="7.71584444832">
		<tag k="name" v="Sandvik" />
		<tag k="place" v="farm" />
		<tag k="ssr:stedsnr" v="354452" />
	</node>
	<node id="-584733" lat="62.7485527767" lon="7.80199166984">
		<tag k="name" v="Kvammen" />
		<tag k="place" v="farm" />
		<tag k="ssr:stedsnr" v="354373" />
	</node>
	<node id="-584732" lat="62.7963944417" lon="8.12124166507">
		<tag k="name" v="Toven" />
		<tag k="place" v="farm" />
		<tag k="ssr:stedsnr" v="344448" />
	</node>
	<node id="-584731" lat="62.7698999974" lon="7.97700832726">
		<tag k="name" v="Ljøsta" />
		<tag k="place" v="farm" />
		<tag k="ssr:stedsnr" v="343256" />
	</node>
	<node id="-584730" lat="62.7680555515" lon="7.89699167062">
		<tag k="name" v="Tjelle" />
		<tag k="place" v="farm" />
		<tag k="ssr:stedsnr" v="343244" />
	</node>
	<node id="-586777" lat="62.6607500031" lon="7.97073055419">
		<tag k="name" v="Storåkersetra" />
		<tag k="place" v="locality" />
		<tag k="ssr:stedsnr" v="826906" />
	</node>
	<node id="-584715" lat="62.48435" lon="8.14249167005">
		<tag k="name" v="Storgjerdet" />
		<tag k="place" v="locality" />
		<tag k="ssr:stedsnr" v="341877" />
	</node>
	<node id="-586751" lat="62.6538911166" lon="8.10691216437">
		<tag k="fixme" v="consider place=hamlet" />
		<tag k="name" v="Bjørnes" />
		<tag k="place" v="farm" />
		<tag k="ssr:stedsnr" v="826476" />
	</node>
	<node id="-584702" lat="62.7361638866" lon="8.09747499907">
		<tag k="name" v="Risan" />
		<tag k="place" v="farm" />
		<tag k="ssr:stedsnr" v="341759" />
	</node>
	<node id="-584700" lat="62.8029111143" lon="8.17046110556">
		<tag k="name" v="Ytterøra" />
		<tag k="place" v="farm" />
		<tag k="ssr:stedsnr" v="341749" />
	</node>
	<node id="-584699" lat="62.8015555583" lon="8.17489722271">
		<tag k="name" v="Gjestgjevarplassen" />
		<tag k="place" v="farm" />
		<tag k="ssr:stedsnr" v="341748" />
	</node>
	<node id="-584698" lat="62.7999527805" lon="8.05019999694">
		<tag k="historic" v="shieling" />
		<tag k="name" v="Steinteigsetra" />
		<tag k="place" v="locality" />
		<tag k="ssr:stedsnr" v="341746" />
	</node>
	<node id="-586739" lat="62.7030083355" lon="7.97783610208">
		<tag k="name" v="Åssetra" />
		<tag k="place" v="locality" />
		<tag k="ssr:stedsnr" v="826054" />
	</node>
	<node id="-586733" lat="62.8188888921" lon="8.09182500636">
		<tag k="name" v="Bersåssetra" />
		<tag k="place" v="isolated_dwelling" />
		<tag k="ssr:stedsnr" v="801562" />
	</node>
	<node id="-586727" lat="62.6188015764" lon="8.11668495856">
		<tag k="fixme" v="consider place=hamlet" />
		<tag k="name" v="Meringdal" />
		<tag k="place" v="farm" />
		<tag k="ssr:stedsnr" v="801318" />
	</node>
	<node id="-586721" lat="62.7651695017" lon="8.05701687741">
		<tag k="fixme" v="consider place=hamlet" />
		<tag k="name" v="Vorpeneset" />
		<tag k="place" v="farm" />
		<tag k="ssr:stedsnr" v="800637" />
	</node>
	<node id="-586720" lat="62.7536055543" lon="7.76154721875">
		<tag k="historic" v="shieling" />
		<tag k="name" v="Ranviksetra" />
		<tag k="place" v="locality" />
		<tag k="ssr:stedsnr" v="800634" />
	</node>
	<node id="-586719" lat="62.7820605422" lon="8.12250148542">
		<tag k="fixme" v="consider place=hamlet" />
		<tag k="name" v="Teigset" />
		<tag k="place" v="farm" />
		<tag k="ssr:stedsnr" v="800629" />
	</node>
	<node id="-586718" lat="62.767811114" lon="7.89112500587">
		<tag k="fixme" v="consider place=hamlet" />
		<tag k="name" v="Tjelle" />
		<tag k="place" v="farm" />
		<tag k="ssr:stedsnr" v="800625" />
	</node>
	<node id="-586717" lat="62.7952923681" lon="8.09792289105">
		<tag k="fixme" v="consider place=hamlet" />
		<tag k="name" v="Øyan" />
		<tag k="place" v="farm" />
		<tag k="ssr:stedsnr" v="800588" />
	</node>
	<node id="-586715" lat="62.7434694432" lon="7.76445833719">
		<tag k="name" v="Hjellen" />
		<tag k="place" v="farm" />
		<tag k="ssr:stedsnr" v="800484" />
	</node>
	<node id="-586712" lat="62.6970277764" lon="7.89658889639">
		<tag k="alt_name" v="Liasetra" />
		<tag k="historic" v="shieling" />
		<tag k="name" v="Liasætra" />
		<tag k="place" v="locality" />
		<tag k="ssr:stedsnr" v="800431" />
	</node>
	<node id="-584662" lat="62.7972555532" lon="8.05230277824">
		<tag k="historic" v="shieling" />
		<tag k="name" v="Hansgardsetra" />
		<tag k="place" v="locality" />
		<tag k="ssr:stedsnr" v="341459" />
	</node>
	<node id="-586704" lat="62.6610861105" lon="7.97584166879">
		<tag k="alt_name" v="Bergsetsetra" />
		<tag k="historic" v="shieling" />
		<tag k="name" v="Bergsetsætra" />
		<tag k="place" v="locality" />
		<tag k="ssr:stedsnr" v="800275" />
	</node>
	<node id="-586694" lat="62.7724545212" lon="8.02725671619">
		<tag k="fixme" v="consider place=hamlet" />
		<tag k="name" v="Hargota" />
		<tag k="place" v="farm" />
		<tag k="ssr:stedsnr" v="800620" />
	</node>
	<node id="-584645" lat="62.7213944461" lon="7.87941388858">
		<tag k="name" v="Husmannsbua" />
		<tag k="place" v="locality" />
		<tag k="ssr:stedsnr" v="340948" />
	</node>
	<node id="-586691" lat="62.7728555529" lon="7.9686972177">
		<tag k="name" v="Sjurstua" />
		<tag k="place" v="farm" />
		<tag k="ssr:stedsnr" v="769440" />
	</node>
	<node id="-586690" lat="62.6995249995" lon="7.95768611648">
		<tag k="name" v="Bergset" />
		<tag k="place" v="farm" />
		<tag k="ssr:stedsnr" v="768458" />
	</node>
	<node id="-586686" lat="62.7804722234" lon="8.0690916764">
		<tag k="name" v="Storteigen" />
		<tag k="place" v="farm" />
		<tag k="ssr:stedsnr" v="766712" />
	</node>
	<node id="-586685" lat="62.7382611107" lon="8.06307221338">
		<tag k="name" v="Teigen" />
		<tag k="place" v="farm" />
		<tag k="ssr:stedsnr" v="766711" />
	</node>
	<node id="-584624" lat="62.6450166629" lon="7.8453166629">
		<tag k="name" v="Sausetra" />
		<tag k="place" v="locality" />
		<tag k="ssr:stedsnr" v="340044" />
	</node>
	<node id="-586669" lat="62.7612416641" lon="8.03641389176">
		<tag k="name" v="Tjærabrenneriet" />
		<tag k="place" v="locality" />
		<tag k="ssr:stedsnr" v="766402" />
	</node>
	<node id="-584620" lat="62.796075001" lon="7.80533333317">
		<tag k="name" v="Plassen" />
		<tag k="place" v="farm" />
		<tag k="ssr:stedsnr" v="316628" />
	</node>
	<node id="-584619" lat="62.8153660879" lon="7.8430917108">
		<tag k="name" v="Stor-Gusjåsen" />
		<tag k="place" v="farm" />
		<tag k="ssr:stedsnr" v="316619" />
	</node>
	<node id="-586666" lat="62.764266668" lon="8.09570556468">
		<tag k="name" v="Langsetsetra" />
		<tag k="place" v="locality" />
		<tag k="ssr:stedsnr" v="766390" />
	</node>
	<node id="-584617" lat="62.8077805583" lon="7.93734445396">
		<tag k="historic" v="shieling" />
		<tag k="name" v="Dalasetra" />
		<tag k="place" v="locality" />
		<tag k="ssr:stedsnr" v="316612" />
	</node>
	<node id="-584616" lat="62.7714381401" lon="7.98684377167">
		<tag k="fixme" v="consider place=hamlet" />
		<tag k="name" v="Jevika" />
		<tag k="place" v="farm" />
		<tag k="ssr:stedsnr" v="315584" />
	</node>
	<node id="-584614" lat="62.767261998" lon="8.06727507365">
		<tag k="fixme" v="consider place=hamlet" />
		<tag k="name" v="Grønfeta" />
		<tag k="place" v="farm" />
		<tag k="ssr:stedsnr" v="315578" />
	</node>
	<node id="-584610" lat="62.7343239902" lon="7.71998022654">
		<tag k="fixme" v="consider place=hamlet" />
		<tag k="name" v="Hestad" />
		<tag k="place" v="farm" />
		<tag k="ssr:stedsnr" v="315474" />
	</node>
	<node id="-584608" lat="62.7339990817" lon="7.86489089222">
		<tag k="fixme" v="consider place=hamlet" />
		<tag k="name" v="Sandnes" />
		<tag k="place" v="farm" />
		<tag k="ssr:stedsnr" v="315462" />
	</node>
	<node id="-586655" lat="62.6614361116" lon="8.114883325">
		<tag k="amenity" v="school" />
		<tag k="name" v="Eresfjord skule" />
		<tag k="ssr:stedsnr" v="766093" />
	</node>
	<node id="-584603" lat="62.7872162127" lon="8.23153223714">
		<tag k="alt_name" v="Meisal" />
		<tag k="fixme" v="consider place=hamlet" />
		<tag k="name" v="Meisalen" />
		<tag k="place" v="farm" />
		<tag k="ssr:stedsnr" v="315377" />
	</node>
	<node id="-584602" lat="62.7801916677" lon="8.24026111042">
		<tag k="historic" v="shieling" />
		<tag k="name" v="Liasetra" />
		<tag k="place" v="locality" />
		<tag k="ssr:stedsnr" v="315375" />
	</node>
	<node id="-586646" lat="62.7231555517" lon="7.84251389064">
		<tag k="name" v="Gammelsetra" />
		<tag k="place" v="locality" />
		<tag k="ssr:stedsnr" v="765934" />
	</node>
	<node id="-584591" lat="62.6961777772" lon="8.15849165725">
		<tag k="name" v="Drivsætra" />
		<tag k="place" v="locality" />
		<tag k="ssr:stedsnr" v="315284" />
	</node>
	<node id="-584588" lat="62.6479555583" lon="7.83417500641">
		<tag k="fixme" v="consider tourism=alpine_hut or tourism=chalet" />
		<tag k="name" v="Måsvassbu" />
		<tag k="old_name" v="Måsvassbu th" />
		<tag k="ssr:stedsnr" v="315235" />
		<tag k="tourism" v="wilderness_hut" />
	</node>
	<node id="-586629" lat="62.8215916683" lon="8.09306110885">
		<tag k="name" v="Nysetra" />
		<tag k="place" v="locality" />
		<tag k="ssr:stedsnr" v="765727" />
	</node>
	<node id="-584579" lat="62.6676568323" lon="8.10772680881">
		<tag k="fixme" v="consider place=hamlet" />
		<tag k="name" v="Sira" />
		<tag k="place" v="farm" />
		<tag k="ssr:stedsnr" v="314304" />
	</node>
	<node id="-584576" lat="62.7546201453" lon="8.03019581084">
		<tag k="fixme" v="consider place=hamlet" />
		<tag k="name" v="Nesset Prestegard" />
		<tag k="place" v="farm" />
		<tag k="ssr:stedsnr" v="315604" />
	</node>
	<node id="-584575" lat="62.7530472259" lon="8.02485278234">
		<tag k="name" v="Bukta" />
		<tag k="place" v="farm" />
		<tag k="ssr:stedsnr" v="315605" />
	</node>
	<node id="-584574" lat="62.4454015634" lon="8.27900163589">
		<tag k="fixme" v="consider place=hamlet" />
		<tag k="name" v="Setra" />
		<tag k="place" v="farm" />
		<tag k="ssr:stedsnr" v="314196" />
	</node>
	<node id="-584572" lat="62.7725944422" lon="7.96639444967">
		<tag k="name" v="Asbjørnstua" />
		<tag k="place" v="farm" />
		<tag k="ssr:stedsnr" v="284445" />
	</node>
	<node id="-584550" lat="62.7200583374" lon="7.77818611418">
		<tag k="amenity" v="school" />
		<tag k="name" v="Skorgenesskulen" />
		<tag k="ssr:stedsnr" v="280896" />
	</node>
	<node id="-586591" lat="62.7040722206" lon="7.78683332659">
		<tag k="name" v="Pestølen" />
		<tag k="place" v="locality" />
		<tag k="ssr:stedsnr" v="765062" />
	</node>
	<node id="-586582" lat="62.7934725466" lon="8.08801104648">
		<tag k="fixme" v="consider place=hamlet" />
		<tag k="name" v="Holen" />
		<tag k="place" v="farm" />
		<tag k="ssr:stedsnr" v="741663" />
	</node>
	<node id="-586580" lat="62.815035731" lon="8.13376651057">
		<tag k="fixme" v="consider place=hamlet" />
		<tag k="name" v="Bersås" />
		<tag k="place" v="farm" />
		<tag k="ssr:stedsnr" v="741651" />
	</node>
	<node id="-584530" lat="62.7910194487" lon="7.89326666916">
		<tag k="name" v="Pinneska" />
		<tag k="place" v="isolated_dwelling" />
		<tag k="ssr:stedsnr" v="280694" />
	</node>
	<node id="-586576" lat="62.6898055554" lon="7.94025000875">
		<tag k="alt_name" v="Selsetra" />
		<tag k="historic" v="shieling" />
		<tag k="name" v="Selsætra" />
		<tag k="place" v="locality" />
		<tag k="ssr:stedsnr" v="740290" />
	</node>
	<node id="-586575" lat="62.6827888891" lon="8.02220556035">
		<tag k="alt_name" v="Gammelsetra" />
		<tag k="historic" v="shieling" />
		<tag k="name" v="Gammelsætra" />
		<tag k="place" v="locality" />
		<tag k="ssr:stedsnr" v="740271" />
	</node>
	<node id="-586570" lat="62.7713085899" lon="8.07405510074">
		<tag k="fixme" v="consider place=hamlet" />
		<tag k="name" v="Langset" />
		<tag k="place" v="farm" />
		<tag k="ssr:stedsnr" v="739612" />
	</node>
	<node id="-586568" lat="62.7883574739" lon="8.08688544674">
		<tag k="fixme" v="consider place=hamlet" />
		<tag k="name" v="Åsen" />
		<tag k="place" v="farm" />
		<tag k="ssr:stedsnr" v="739604" />
	</node>
	<node id="-586566" lat="62.7360611103" lon="7.96784445202">
		<tag k="alt_name" v="Gauprørsetra" />
		<tag k="historic" v="shieling" />
		<tag k="name" v="Gauprørsætra" />
		<tag k="place" v="locality" />
		<tag k="ssr:stedsnr" v="739478" />
	</node>
	<node id="-586557" lat="62.3523111094" lon="8.24450833484">
		<tag k="name" v="Westbua" />
		<tag k="place" v="locality" />
		<tag k="ssr:stedsnr" v="739327" />
	</node>
	<node id="-586555" lat="62.6342186734" lon="8.1213058289">
		<tag k="fixme" v="consider place=hamlet" />
		<tag k="name" v="Øverås" />
		<tag k="place" v="farm" />
		<tag k="ssr:stedsnr" v="739320" />
	</node>
	<node id="-586552" lat="62.6759928337" lon="8.14321264377">
		<tag k="fixme" v="consider place=hamlet" />
		<tag k="name" v="Bjørbakken" />
		<tag k="place" v="farm" />
		<tag k="ssr:stedsnr" v="739268" />
	</node>
	<node id="-586550" lat="62.5701305519" lon="8.14457222647">
		<tag k="name" v="Geitreiten" />
		<tag k="place" v="locality" />
		<tag k="ssr:stedsnr" v="739182" />
	</node>
	<node id="-584841" lat="62.6984036811" lon="8.14613777298">
		<tag k="fixme" v="consider place=hamlet" />
		<tag k="name" v="Indre Stranda" />
		<tag k="place" v="farm" />
		<tag k="ssr:stedsnr" v="401799" />
	</node>
	<node id="-586543" lat="62.5439694415" lon="8.18656666759">
		<tag k="alt_name" v="Vikesetra" />
		<tag k="name" v="Vikesætra" />
		<tag k="place" v="farm" />
		<tag k="ssr:stedsnr" v="739105" />
	</node>
	<node id="-586541" lat="62.7354527734" lon="8.09296111429">
		<tag k="name" v="Hølvollan" />
		<tag k="place" v="farm" />
		<tag k="ssr:stedsnr" v="726314" />
	</node>
	<node id="-586538" lat="62.7320583362" lon="7.93768055172">
		<tag k="name" v="Amundgjerdet" />
		<tag k="place" v="isolated_dwelling" />
		<tag k="ssr:stedsnr" v="719315" />
	</node>
	<node id="-586535" lat="62.6993027764" lon="7.96027500701">
		<tag k="name" v="Bergset" />
		<tag k="place" v="farm" />
		<tag k="ssr:stedsnr" v="708496" />
	</node>
	<node id="-586534" lat="62.6960418734" lon="7.95725498029">
		<tag k="fixme" v="consider place=hamlet" />
		<tag k="name" v="Bergset" />
		<tag k="place" v="farm" />
		<tag k="ssr:stedsnr" v="708484" />
	</node>
	<node id="-586533" lat="62.7692888898" lon="7.97936111097">
		<tag k="name" v="Ljøsta" />
		<tag k="place" v="farm" />
		<tag k="ssr:stedsnr" v="707287" />
	</node>
	<node id="-584477" lat="62.4130611068" lon="8.34143610885">
		<tag k="name" v="Finnsetsetra" />
		<tag k="place" v="locality" />
		<tag k="ssr:stedsnr" v="280087" />
	</node>
	<node id="-586520" lat="62.738019444" lon="7.74850834123">
		<tag k="name" v="Åramshagen" />
		<tag k="place" v="farm" />
		<tag k="ssr:stedsnr" v="705867" />
	</node>
	<node id="-584471" lat="62.7211000005" lon="7.77963056207">
		<tag k="name" v="Plassen" />
		<tag k="place" v="farm" />
		<tag k="ssr:stedsnr" v="280005" />
	</node>
	<node id="-586514" lat="62.6364305562" lon="8.02281111427">
		<tag k="name" v="Gammelstølsetra" />
		<tag k="place" v="locality" />
		<tag k="ssr:stedsnr" v="705825" />
	</node>
	<node id="-586507" lat="62.7517888864" lon="8.04862500697">
		<tag k="historic" v="shieling" />
		<tag k="name" v="Prestsetra" />
		<tag k="place" v="locality" />
		<tag k="ssr:stedsnr" v="705745" />
	</node>
	<node id="-586506" lat="62.8009111141" lon="8.17922777285">
		<tag k="name" v="Skaffaren" />
		<tag k="place" v="farm" />
		<tag k="ssr:stedsnr" v="705739" />
	</node>
	<node id="-586503" lat="62.7599944478" lon="7.85849999301">
		<tag k="name" v="Hytta" />
		<tag k="place" v="locality" />
		<tag k="ssr:stedsnr" v="705716" />
	</node>
	<node id="-584485" lat="62.808044447" lon="8.07078054754">
		<tag k="name" v="Storlisetra" />
		<tag k="place" v="isolated_dwelling" />
		<tag k="ssr:stedsnr" v="280298" />
	</node>
	<node id="-586456" lat="62.7278838321" lon="7.9128177035">
		<tag k="name" v="Lia" />
		<tag k="place" v="locality" />
		<tag k="ssr:stedsnr" v="705105" />
	</node>
	<node id="-586451" lat="62.720202779" lon="7.83878610733">
		<tag k="name" v="Nysetra" />
		<tag k="place" v="locality" />
		<tag k="ssr:stedsnr" v="705059" />
	</node>
	<node id="-586433" lat="62.7780527762" lon="7.91576110646">
		<tag k="name" v="Trollmyrsetra" />
		<tag k="place" v="locality" />
		<tag k="ssr:stedsnr" v="705524" />
	</node>
	<node id="-586432" lat="62.7775000006" lon="7.90689443948">
		<tag k="name" v="Gammelsetra" />
		<tag k="place" v="locality" />
		<tag k="ssr:stedsnr" v="705523" />
	</node>
	<node id="-586429" lat="62.6998517457" lon="8.14487083407">
		<tag k="fixme" v="consider place=hamlet" />
		<tag k="name" v="Stranda" />
		<tag k="place" v="farm" />
		<tag k="ssr:stedsnr" v="704008" />
	</node>
	<node id="-586419" lat="62.8283818427" lon="8.11591979308">
		<tag k="fixme" v="consider place=hamlet" />
		<tag k="name" v="Neverlia" />
		<tag k="place" v="farm" />
		<tag k="ssr:stedsnr" v="680607" />
	</node>
	<node id="-586416" lat="62.7791629734" lon="8.04199733025">
		<tag k="fixme" v="consider place=hamlet" />
		<tag k="name" v="Floghammaren" />
		<tag k="place" v="farm" />
		<tag k="ssr:stedsnr" v="679573" />
	</node>
	<node id="-586413" lat="62.7831805598" lon="7.88681944583">
		<tag k="historic" v="shieling" />
		<tag k="name" v="Gammelsetra" />
		<tag k="place" v="locality" />
		<tag k="ssr:stedsnr" v="679563" />
	</node>
	<node id="-586410" lat="62.7211238428" lon="7.92140584166">
		<tag k="fixme" v="consider place=hamlet" />
		<tag k="name" v="Ytre Lange" />
		<tag k="place" v="farm" />
		<tag k="ssr:stedsnr" v="679431" />
	</node>
	<node id="-586407" lat="62.7151357447" lon="7.74847767402">
		<tag k="alt_name" v="Stranda" />
		<tag k="fixme" v="consider place=hamlet" />
		<tag k="name" v="Skorgestranda" />
		<tag k="place" v="farm" />
		<tag k="ssr:stedsnr" v="679424" />
	</node>
	<node id="-586406" lat="62.7050166656" lon="7.78572777558">
		<tag k="alt_name" v="Skorgesetra" />
		<tag k="historic" v="shieling" />
		<tag k="name" v="Skorgedalssætra" />
		<tag k="place" v="locality" />
		<tag k="ssr:stedsnr" v="679407" />
	</node>
	<node id="-586405" lat="62.6949416642" lon="8.0180722211">
		<tag k="alt_name" v="Aslaksetra" />
		<tag k="name" v="Aslaksætra" />
		<tag k="place" v="isolated_dwelling" />
		<tag k="ssr:stedsnr" v="679405" />
	</node>
	<node id="-586403" lat="62.7005861115" lon="7.9579250042">
		<tag k="name" v="Bergset" />
		<tag k="place" v="farm" />
		<tag k="ssr:stedsnr" v="679401" />
	</node>
	<node id="-586394" lat="62.4030500041" lon="8.42333333068">
		<tag k="name" v="Aurstølen" />
		<tag k="place" v="locality" />
		<tag k="ssr:stedsnr" v="679274" />
	</node>
	<node id="-586389" lat="62.679600002" lon="7.90764721621">
		<tag k="historic" v="shieling" />
		<tag k="name" v="Ølmerket" />
		<tag k="place" v="locality" />
		<tag k="ssr:stedsnr" v="679252" />
	</node>
	<node id="-586378" lat="62.6746666622" lon="7.89870833242">
		<tag k="historic" v="shieling" />
		<tag k="loc_name" v="Hansetsetra" />
		<tag k="name" v="Hansetsætra" />
		<tag k="place" v="locality" />
		<tag k="ssr:stedsnr" v="678308" />
	</node>
	<node id="-586377" lat="62.6705750014" lon="7.89206667517">
		<tag k="alt_name" v="Bjørkalihaugen" />
		<tag k="name" v="Bjørkelihaugen" />
		<tag k="place" v="isolated_dwelling" />
		<tag k="ssr:stedsnr" v="678309" />
	</node>
	<node id="-586372" lat="62.4699861143" lon="8.18481944296">
		<tag k="name" v="Utigard" />
		<tag k="place" v="farm" />
		<tag k="ssr:stedsnr" v="678107" />
	</node>
	<node id="-586368" lat="62.7311666697" lon="7.71584444145">
		<tag k="name" v="Sandvika" />
		<tag k="place" v="isolated_dwelling" />
		<tag k="ssr:stedsnr" v="665632" />
	</node>
	<node id="-586365" lat="62.7689722186" lon="7.9732000064">
		<tag k="name" v="Ljøsta" />
		<tag k="place" v="farm" />
		<tag k="ssr:stedsnr" v="646267" />
	</node>
	<node id="-586364" lat="62.767383332" lon="7.88908332853">
		<tag k="name" v="Tjelle" />
		<tag k="place" v="farm" />
		<tag k="ssr:stedsnr" v="646254" />
	</node>
	<node id="-586363" lat="62.6409583345" lon="8.09696110765">
		<tag k="name" v="Horne" />
		<tag k="place" v="farm" />
		<tag k="ssr:stedsnr" v="646252" />
	</node>
	<node id="-586356" lat="62.7048111114" lon="7.78144999971">
		<tag k="name" v="Ytterskorgestølen" />
		<tag k="place" v="locality" />
		<tag k="ssr:stedsnr" v="644927" />
	</node>
	<node id="-586345" lat="62.7996888883" lon="7.8224555641">
		<tag k="name" v="Dalen" />
		<tag k="place" v="farm" />
		<tag k="ssr:stedsnr" v="644858" />
	</node>
	<node id="-586328" lat="62.790911433" lon="8.21742808543">
		<tag k="fixme" v="consider place=hamlet" />
		<tag k="name" v="Svenslia" />
		<tag k="place" v="farm" />
		<tag k="ssr:stedsnr" v="644709" />
	</node>
	<node id="-586299" lat="62.7744361068" lon="8.04749722325">
		<tag k="name" v="Vollahaugen" />
		<tag k="place" v="farm" />
		<tag k="ssr:stedsnr" v="644436" />
	</node>
	<node id="-586293" lat="62.7651194468" lon="8.24546945227">
		<tag k="name" v="Fjellsetra" />
		<tag k="place" v="locality" />
		<tag k="ssr:stedsnr" v="644353" />
	</node>
	<node id="-584795" lat="62.6655027753" lon="8.12998611845">
		<tag k="name" v="Myra" />
		<tag k="place" v="farm" />
		<tag k="ssr:stedsnr" v="401454" />
	</node>
	<node id="-586263" lat="62.7032000004" lon="7.93926388552">
		<tag k="name" v="Gjerdvollen" />
		<tag k="place" v="farm" />
		<tag k="ssr:stedsnr" v="643014" />
	</node>
	<node id="-586257" lat="62.794467074" lon="7.84599067762">
		<tag k="fixme" v="consider place=hamlet" />
		<tag k="name" v="Skjørlia" />
		<tag k="place" v="farm" />
		<tag k="ssr:stedsnr" v="619613" />
	</node>
	<node id="-586256" lat="62.7995222257" lon="8.04259166228">
		<tag k="historic" v="shieling" />
		<tag k="name" v="Kvamsetra" />
		<tag k="place" v="locality" />
		<tag k="ssr:stedsnr" v="619609" />
	</node>
	<node id="-586253" lat="62.8299777755" lon="8.08256944786">
		<tag k="historic" v="shieling" />
		<tag k="name" v="Raudsandsetra" />
		<tag k="place" v="locality" />
		<tag k="ssr:stedsnr" v="619582" />
	</node>
	<node id="-586251" lat="62.7718096469" lon="8.00762878967">
		<tag k="fixme" v="consider place=hamlet" />
		<tag k="name" v="Høvika" />
		<tag k="place" v="farm" />
		<tag k="ssr:stedsnr" v="618601" />
	</node>
	<node id="-586250" lat="62.7765555533" lon="8.06550000582">
		<tag k="name" v="Eidsvåg" />
		<tag k="place" v="village" />
		<tag k="ssr:stedsnr" v="618595" />
	</node>
	<node id="-586248" lat="62.7755042841" lon="7.99945308168">
		<tag k="fixme" v="consider place=hamlet" />
		<tag k="name" v="Harholten" />
		<tag k="place" v="farm" />
		<tag k="ssr:stedsnr" v="618578" />
	</node>
	<node id="-586247" lat="62.7992628133" lon="8.14729171822">
		<tag k="fixme" v="consider place=hamlet" />
		<tag k="name" v="Talset" />
		<tag k="place" v="farm" />
		<tag k="ssr:stedsnr" v="618567" />
	</node>
	<node id="-586242" lat="62.7134527749" lon="7.96816389412">
		<tag k="alt_name" v="Nedregardsetra" />
		<tag k="historic" v="shieling" />
		<tag k="name" v="Nedregardsætra" />
		<tag k="place" v="locality" />
		<tag k="ssr:stedsnr" v="618433" />
	</node>
	<node id="-586236" lat="62.640445566" lon="8.09574126588">
		<tag k="fixme" v="consider place=hamlet" />
		<tag k="name" v="Horne" />
		<tag k="place" v="farm" />
		<tag k="ssr:stedsnr" v="618338" />
	</node>
	<node id="-586235" lat="62.6435212687" lon="8.10514024144">
		<tag k="fixme" v="consider place=hamlet" />
		<tag k="name" v="Moen" />
		<tag k="place" v="farm" />
		<tag k="ssr:stedsnr" v="618337" />
	</node>
	<node id="-586233" lat="62.6294638903" lon="8.16759444957">
		<tag k="name" v="Ljøsåbotn sæter" />
		<tag k="place" v="locality" />
		<tag k="ssr:stedsnr" v="618324" />
	</node>
	<node id="-586229" lat="62.6693397133" lon="8.12928534443">
		<tag k="fixme" v="consider place=hamlet" />
		<tag k="name" v="Frisvoll" />
		<tag k="place" v="farm" />
		<tag k="ssr:stedsnr" v="618229" />
	</node>
	<node id="-586228" lat="62.652888886" lon="8.11277222639">
		<tag k="name" v="Bjørnes" />
		<tag k="place" v="farm" />
		<tag k="ssr:stedsnr" v="618227" />
	</node>
	<node id="-586223" lat="62.5517805525" lon="8.15079166073">
		<tag k="name" v="Hoemsetra" />
		<tag k="place" v="farm" />
		<tag k="ssr:stedsnr" v="618125" />
	</node>
	<node id="-586213" lat="62.7296888889" lon="7.93899721709">
		<tag k="name" v="Petrogjerdet" />
		<tag k="place" v="isolated_dwelling" />
		<tag k="ssr:stedsnr" v="597320" />
	</node>
	<node id="-586210" lat="62.7674916676" lon="7.89164445268">
		<tag k="name" v="Tjelle" />
		<tag k="place" v="farm" />
		<tag k="ssr:stedsnr" v="586273" />
	</node>
	<node id="-586209" lat="62.6738749983" lon="8.10654167263">
		<tag k="name" v="Husby" />
		<tag k="place" v="farm" />
		<tag k="ssr:stedsnr" v="586264" />
	</node>
	<node id="-586200" lat="62.7361944436" lon="7.9581138908">
		<tag k="historic" v="shieling" />
		<tag k="name" v="Øvregardsetra" />
		<tag k="place" v="locality" />
		<tag k="ssr:stedsnr" v="583965" />
	</node>
	<node id="-586176" lat="62.6928611142" lon="8.02258332918">
		<tag k="name" v="Gamle Aslakstølen" />
		<tag k="place" v="locality" />
		<tag k="ssr:stedsnr" v="583809" />
	</node>
	<node id="-584778" lat="62.7527988833" lon="7.8040722039">
		<tag k="fixme" v="consider place=hamlet" />
		<tag k="name" v="Barsteinen" />
		<tag k="place" v="farm" />
		<tag k="ssr:stedsnr" v="376874" />
	</node>
	<node id="-586166" lat="62.7902444461" lon="8.1756777699">
		<tag k="name" v="Eidsetra" />
		<tag k="place" v="locality" />
		<tag k="ssr:stedsnr" v="583704" />
	</node>
	<node id="-586162" lat="62.7948888931" lon="7.89203332408">
		<tag k="name" v="Seila" />
		<tag k="place" v="isolated_dwelling" />
		<tag k="ssr:stedsnr" v="583674" />
	</node>
	<node id="-586119" lat="62.7819277772" lon="8.22746666692">
		<tag k="name" v="Kvennsetsetra" />
		<tag k="place" v="locality" />
		<tag k="ssr:stedsnr" v="583337" />
	</node>
	<node id="-586088" lat="62.6707499993" lon="8.17281667049">
		<tag k="historic" v="shieling" />
		<tag k="name" v="Forhaugstølen" />
		<tag k="place" v="locality" />
		<tag k="ssr:stedsnr" v="583016" />
	</node>
	<node id="-586082" lat="62.8228944424" lon="8.13652221874">
		<tag k="name" v="Sjølia" />
		<tag k="place" v="farm" />
		<tag k="ssr:stedsnr" v="558578" />
	</node>
	<node id="-586081" lat="62.7844393478" lon="8.24175697322">
		<tag k="fixme" v="consider place=hamlet" />
		<tag k="name" v="Lia" />
		<tag k="place" v="farm" />
		<tag k="ssr:stedsnr" v="558420" />
	</node>
	<node id="-586078" lat="62.7292717427" lon="7.69683584178">
		<tag k="fixme" v="consider place=hamlet" />
		<tag k="name" v="Buvika" />
		<tag k="place" v="farm" />
		<tag k="ssr:stedsnr" v="557777" />
	</node>
	<node id="-586073" lat="62.7738920797" lon="7.993820121">
		<tag k="fixme" v="consider place=hamlet" />
		<tag k="name" v="Kvernberget" />
		<tag k="place" v="farm" />
		<tag k="ssr:stedsnr" v="557560" />
	</node>
	<node id="-586072" lat="62.7980024258" lon="8.16727917798">
		<tag k="fixme" v="consider place=hamlet" />
		<tag k="name" v="Eide" />
		<tag k="place" v="farm" />
		<tag k="ssr:stedsnr" v="557549" />
	</node>
	<node id="-586070" lat="62.7970869384" lon="8.13098090185">
		<tag k="fixme" v="consider place=hamlet" />
		<tag k="name" v="Toven" />
		<tag k="place" v="farm" />
		<tag k="ssr:stedsnr" v="557548" />
	</node>
	<node id="-586069" lat="62.7954222229" lon="8.20595000057">
		<tag k="name" v="Kallset" />
		<tag k="place" v="isolated_dwelling" />
		<tag k="ssr:stedsnr" v="557545" />
	</node>
	<node id="-586067" lat="62.7273944447" lon="8.01472499581">
		<tag k="alt_name" v="Ernessetra" />
		<tag k="historic" v="shieling" />
		<tag k="name" v="Ernessætra" />
		<tag k="place" v="locality" />
		<tag k="ssr:stedsnr" v="557437" />
	</node>
	<node id="-586066" lat="62.699899997" lon="8.08230277273">
		<tag k="alt_name" v="Vassetra" />
		<tag k="name" v="Vassætra" />
		<tag k="place" v="isolated_dwelling" />
		<tag k="ssr:stedsnr" v="557422" />
	</node>
	<node id="-586053" lat="62.6918484072" lon="7.9786533337">
		<tag k="fixme" v="consider place=hamlet" />
		<tag k="name" v="Meland" />
		<tag k="place" v="farm" />
		<tag k="ssr:stedsnr" v="557290" />
	</node>
	<node id="-586049" lat="62.6614834355" lon="8.12349549169">
		<tag k="fixme" v="consider place=hamlet" />
		<tag k="name" v="Ljørvoll" />
		<tag k="place" v="farm" />
		<tag k="ssr:stedsnr" v="557263" />
	</node>
	<node id="-586047" lat="62.6534638905" lon="7.97329444608">
		<tag k="alt_name" v="Lensmannsstølen" />
		<tag k="name" v="Lensmannssætra" />
		<tag k="place" v="isolated_dwelling" />
		<tag k="ssr:stedsnr" v="557241" />
	</node>
	<node id="-586043" lat="62.4691138879" lon="8.18621944174">
		<tag k="name" v="Austigard" />
		<tag k="place" v="farm" />
		<tag k="ssr:stedsnr" v="557101" />
	</node>
	<node id="-586035" lat="62.7355527773" lon="8.09305554872">
		<tag k="name" v="Hølvollen" />
		<tag k="place" v="farm" />
		<tag k="ssr:stedsnr" v="536794" />
	</node>
	<node id="-586032" lat="62.7231916692" lon="7.94034443728">
		<tag k="name" v="Vågbø" />
		<tag k="place" v="farm" />
		<tag k="ssr:stedsnr" v="535312" />
	</node>
	<node id="-586031" lat="62.7678499973" lon="7.89257221763">
		<tag k="name" v="Tjelle" />
		<tag k="place" v="farm" />
		<tag k="ssr:stedsnr" v="525283" />
	</node>
	<node id="-586026" lat="62.7165222183" lon="7.94046665965">
		<tag k="name" v="Øvregardan" />
		<tag k="place" v="hamlet" />
		<tag k="ssr:stedsnr" v="523969" />
	</node>
	<node id="-586009" lat="62.7794805552" lon="8.05994721391">
		<tag k="name" v="Hjellen" />
		<tag k="place" v="farm" />
		<tag k="ssr:stedsnr" v="523756" />
	</node>
	<node id="-585971" lat="62.7305886238" lon="7.83031037074">
		<tag k="alt_name" v="Elgenes" />
		<tag k="fixme" v="consider place=hamlet" />
		<tag k="name" v="Elgeneset" />
		<tag k="place" v="farm" />
		<tag k="ssr:stedsnr" v="523304" />
	</node>
	<node id="-585962" lat="62.8233416673" lon="8.02326667161">
		<tag k="name" v="Øyasetra" />
		<tag k="place" v="locality" />
		<tag k="ssr:stedsnr" v="522708" />
	</node>
	<node id="-585956" lat="62.65648333" lon="8.12426944701">
		<tag k="name" v="Steinsvoll" />
		<tag k="place" v="farm" />
		<tag k="ssr:stedsnr" v="522461" />
	</node>
	<node id="-585942" lat="62.7758027763" lon="8.08868055755">
		<tag k="name" v="Trondplassen" />
		<tag k="place" v="locality" />
		<tag k="ssr:stedsnr" v="523460" />
	</node>
	<node id="-585935" lat="62.6304750043" lon="7.98409723139">
		<tag k="fixme" v="consider tourism=alpine_hut or tourism=chalet" />
		<tag k="name" v="Vasstindbu" />
		<tag k="ssr:stedsnr" v="510768" />
		<tag k="tourism" v="wilderness_hut" />
	</node>
	<node id="-585928" lat="62.7685854139" lon="7.91655428718">
		<tag k="fixme" v="consider place=hamlet" />
		<tag k="name" v="Trollmyra" />
		<tag k="place" v="farm" />
		<tag k="ssr:stedsnr" v="497588" />
	</node>
	<node id="-585927" lat="62.7837653514" lon="8.10531802344">
		<tag k="fixme" v="consider place=hamlet" />
		<tag k="name" v="Brekka" />
		<tag k="place" v="farm" />
		<tag k="ssr:stedsnr" v="497579" />
	</node>
	<node id="-585926" lat="62.7730794136" lon="7.98104613409">
		<tag k="fixme" v="consider place=hamlet" />
		<tag k="name" v="Reitan" />
		<tag k="place" v="farm" />
		<tag k="ssr:stedsnr" v="497569" />
	</node>
	<node id="-585925" lat="62.7982801336" lon="8.17730293478">
		<tag k="fixme" v="consider place=hamlet" />
		<tag k="name" v="Rønningan" />
		<tag k="place" v="farm" />
		<tag k="ssr:stedsnr" v="497554" />
	</node>
	<node id="-585924" lat="62.7944619866" lon="8.19983151359">
		<tag k="fixme" v="consider place=hamlet" />
		<tag k="name" v="Finnset" />
		<tag k="place" v="farm" />
		<tag k="ssr:stedsnr" v="497552" />
	</node>
	<node id="-585921" lat="62.7398465522" lon="8.05773770977">
		<tag k="alt_name" v="Bogge, ytre;Ytre Bogge" />
		<tag k="fixme" v="consider place=hamlet" />
		<tag k="name" v="Ut-Bogge" />
		<tag k="place" v="farm" />
		<tag k="ssr:stedsnr" v="497461" />
	</node>
	<node id="-585920" lat="62.7213992516" lon="8.11938306075">
		<tag k="alt_name" v="Breidvik" />
		<tag k="fixme" v="consider place=hamlet" />
		<tag k="name" v="Breivika" />
		<tag k="place" v="farm" />
		<tag k="ssr:stedsnr" v="497432" />
	</node>
	<node id="-585905" lat="62.4782638892" lon="8.10414722491">
		<tag k="name" v="Julgrøet" />
		<tag k="place" v="locality" />
		<tag k="ssr:stedsnr" v="497080" />
	</node>
	<node id="-585897" lat="62.3974055597" lon="8.35058611977">
		<tag k="name" v="Løypåvollen" />
		<tag k="place" v="isolated_dwelling" />
		<tag k="ssr:stedsnr" v="496341" />
	</node>
	<node id="-585895" lat="62.6499833527" lon="8.12559880377">
		<tag k="fixme" v="consider place=hamlet" />
		<tag k="name" v="Steinsvoll" />
		<tag k="place" v="farm" />
		<tag k="ssr:stedsnr" v="496276" />
	</node>
	<node id="-585889" lat="62.564502337" lon="8.14257193005">
		<tag k="fixme" v="consider place=hamlet" />
		<tag k="name" v="Hoem" />
		<tag k="place" v="farm" />
		<tag k="ssr:stedsnr" v="496183" />
	</node>
	<node id="-585881" lat="62.8000916703" lon="7.85167777778">
		<tag k="name" v="Enga" />
		<tag k="place" v="farm" />
		<tag k="ssr:stedsnr" v="462849" />
	</node>
	<node id="-584729" lat="62.6734361141" lon="8.1041722274">
		<tag k="name" v="Husby" />
		<tag k="place" v="farm" />
		<tag k="ssr:stedsnr" v="343241" />
	</node>
	<node id="-585857" lat="62.7878249976" lon="8.10788056194">
		<tag k="name" v="Damman" />
		<tag k="place" v="farm" />
		<tag k="ssr:stedsnr" v="462670" />
	</node>
	<node id="-585851" lat="62.6818027793" lon="7.90170833098">
		<tag k="name" v="Sunnmørstølen" />
		<tag k="place" v="locality" />
		<tag k="ssr:stedsnr" v="462999" />
	</node>
	<node id="-585819" lat="62.7807138871" lon="8.13872500836">
		<tag k="name" v="Myrsetsetra" />
		<tag k="place" v="locality" />
		<tag k="ssr:stedsnr" v="462347" />
	</node>
	<node id="-585794" lat="62.814519448" lon="7.84814721897">
		<tag k="name" v="Gusjåsgjerdet" />
		<tag k="place" v="farm" />
		<tag k="ssr:stedsnr" v="462531" />
	</node>
	<node id="-585790" lat="62.6786388864" lon="8.10810556205">
		<tag k="name" v="Hagen" />
		<tag k="place" v="farm" />
		<tag k="ssr:stedsnr" v="462507" />
	</node>
	<node id="-585787" lat="62.4043583367" lon="8.56132222002">
		<tag k="name" v="Nordbua" />
		<tag k="place" v="isolated_dwelling" />
		<tag k="ssr:stedsnr" v="445781" />
	</node>
	<node id="-585785" lat="62.8065888934" lon="7.84521666813">
		<tag k="name" v="Gussiås" />
		<tag k="place" v="hamlet" />
		<tag k="ssr:stedsnr" v="445494" />
	</node>
	<node id="-585781" lat="62.8199861152" lon="8.13774722132">
		<tag k="name" v="Bersåsvollan" />
		<tag k="place" v="farm" />
		<tag k="ssr:stedsnr" v="437560" />
	</node>
	<node id="-585776" lat="62.7530787384" lon="7.76042278707">
		<tag k="historic" v="shieling" />
		<tag k="name" v="Åramsetra" />
		<tag k="place" v="locality" />
		<tag k="ssr:stedsnr" v="436603" />
	</node>
	<node id="-585774" lat="62.7914000022" lon="7.99513889125">
		<tag k="historic" v="shieling" />
		<tag k="name" v="Høviksetra" />
		<tag k="place" v="locality" />
		<tag k="ssr:stedsnr" v="436589" />
	</node>
	<node id="-585773" lat="62.7959083347" lon="8.04712221467">
		<tag k="historic" v="shieling" />
		<tag k="name" v="Myrasetra" />
		<tag k="place" v="locality" />
		<tag k="ssr:stedsnr" v="436588" />
	</node>
	<node id="-585771" lat="62.7901888919" lon="7.85638610163">
		<tag k="name" v="Tverrlia" />
		<tag k="place" v="farm" />
		<tag k="ssr:stedsnr" v="436559" />
	</node>
	<node id="-585770" lat="62.7480000021" lon="8.07756110612">
		<tag k="alt_name" v="Boggesætra" />
		<tag k="historic" v="shieling" />
		<tag k="name" v="Ut-Boggesetran" />
		<tag k="place" v="locality" />
		<tag k="ssr:stedsnr" v="436478" />
	</node>
	<node id="-585766" lat="62.7194968645" lon="7.77292014201">
		<tag k="alt_name" v="Skorga, indre;Skorga" />
		<tag k="fixme" v="consider place=hamlet" />
		<tag k="name" v="Indre Skorga" />
		<tag k="place" v="farm" />
		<tag k="ssr:stedsnr" v="436445" />
	</node>
	<node id="-585765" lat="62.709333333" lon="7.75157222664">
		<tag k="alt_name" v="Strandsetra" />
		<tag k="name" v="Strandsætra" />
		<tag k="place" v="isolated_dwelling" />
		<tag k="ssr:stedsnr" v="436441" />
	</node>
	<node id="-585759" lat="62.6382722189" lon="8.02946388367">
		<tag k="historic" v="shieling" />
		<tag k="name" v="Rødalsætra" />
		<tag k="place" v="locality" />
		<tag k="ssr:stedsnr" v="436356" />
	</node>
	<node id="-585758" lat="62.6434916685" lon="8.02519722033">
		<tag k="alt_name" v="Haustengsetra" />
		<tag k="historic" v="shieling" />
		<tag k="name" v="Haustengssætra" />
		<tag k="place" v="locality" />
		<tag k="ssr:stedsnr" v="436345" />
	</node>
	<node id="-585755" lat="62.6472963455" lon="8.11216946352">
		<tag k="alt_name" v="Øver Slenes;Slenes, øvre" />
		<tag k="fixme" v="consider place=hamlet" />
		<tag k="name" v="Øvre Slenes" />
		<tag k="place" v="farm" />
		<tag k="ssr:stedsnr" v="436340" />
	</node>
	<node id="-585744" lat="62.6877500021" lon="7.9236388909">
		<tag k="alt_name" v="Hellesetra" />
		<tag k="historic" v="shieling" />
		<tag k="name" v="Hellesætra" />
		<tag k="place" v="locality" />
		<tag k="ssr:stedsnr" v="436272" />
	</node>
	<node id="-585742" lat="62.6648714047" lon="8.10979674502">
		<tag k="fixme" v="consider place=hamlet" />
		<tag k="name" v="Turhus" />
		<tag k="place" v="farm" />
		<tag k="ssr:stedsnr" v="436252" />
	</node>
	<node id="-585740" lat="62.6600916696" lon="8.06103055512">
		<tag k="alt_name" v="Solhjellsetra" />
		<tag k="historic" v="shieling" />
		<tag k="name" v="Solhjellsætra" />
		<tag k="place" v="locality" />
		<tag k="ssr:stedsnr" v="436250" />
	</node>
	<node id="-585732" lat="62.456605554" lon="8.17133055322">
		<tag k="name" v="Børkløvet" />
		<tag k="place" v="locality" />
		<tag k="ssr:stedsnr" v="436097" />
	</node>
</osm>
