<?xml version="1.0" encoding="UTF-8"?>
<osm generator="osmapis" version="0.6">
	<node id="-583996" lat="62.7966972229" lon="8.13935834278">
		<tag k="name" v="Tiltereidet" />
		<tag k="place" v="locality" />
		<tag k="ssr:stedsnr" v="402276" />
	</node>
	<node id="-585368" lat="62.7205527784" lon="7.93574722661">
		<tag k="alt_name" v="Vistdal kyrkje" />
		<tag k="amenity" v="place_of_worship" />
		<tag k="denomination" v="lutheran" />
		<tag k="name" v="Vistdal" />
		<tag k="religion" v="christian" />
		<tag k="ssr:stedsnr" v="618458" />
	</node>
	<node id="-584855" lat="62.467041668" lon="8.1894361019">
		<tag k="amenity" v="place_of_worship" />
		<tag k="denomination" v="lutheran" />
		<tag k="name" v="Eikesdal" />
		<tag k="religion" v="christian" />
		<tag k="ssr:stedsnr" v="436091" />
	</node>
	<node id="-586133" lat="62.7169805574" lon="8.12464999735">
		<tag k="name" v="Godtemplaren" />
		<tag k="place" v="locality" />
		<tag k="ssr:stedsnr" v="948556" />
	</node>
	<node id="-584367" lat="62.777466671" lon="8.06999721498">
		<tag k="alt_name" v="Nesset kyrkje" />
		<tag k="amenity" v="place_of_worship" />
		<tag k="denomination" v="lutheran" />
		<tag k="name" v="Nesset" />
		<tag k="religion" v="christian" />
		<tag k="ssr:stedsnr" v="72598" />
	</node>
	<node id="-585484" lat="62.7249083374" lon="7.87526943591">
		<tag k="name" v="Ã˜vste Kvilaren" />
		<tag k="ssr:stedsnr" v="644948" />
		<tag k="tourism" v="viewpoint" />
	</node>
	<node id="-584748" lat="62.8205361105" lon="8.07870277784">
		<tag k="name" v="Snaragadden" />
		<tag k="place" v="locality" />
		<tag k="ssr:stedsnr" v="220385" />
	</node>
	<node id="-585020" lat="62.6662694434" lon="8.11350277046">
		<tag k="alt_name" v="Eresfjord kyrkje" />
		<tag k="amenity" v="place_of_worship" />
		<tag k="denomination" v="lutheran" />
		<tag k="name" v="Eresfjord" />
		<tag k="religion" v="christian" />
		<tag k="ssr:stedsnr" v="496280" />
	</node>
	<node id="-584292" lat="62.7079138925" lon="7.9517166666">
		<tag k="amenity" v="community_centre" />
		<tag k="name" v="Vistdal samfunnshus" />
		<tag k="ssr:stedsnr" v="37990" />
	</node>
</osm>
