<?xml version="1.0" encoding="UTF-8"?>
<osm generator="osmapis" version="0.6">
	<node id="-585725" lat="62.8205805574" lon="8.13419721417">
		<tag k="name" v="Bersåselva" />
		<tag k="ssr:stedsnr" v="765253" />
		<tag k="waterway" v="river" />
	</node>
	<node id="-585724" lat="62.8071000003" lon="8.13794166288">
		<tag k="name" v="Eidsmåltjønna" />
		<tag k="natural" v="water" />
		<tag k="ssr:stedsnr" v="765231" />
	</node>
	<node id="-583673" lat="62.6709166651" lon="7.88004167477">
		<tag k="name" v="Fallfossen" />
		<tag k="ssr:stedsnr" v="280884" />
		<tag k="waterway" v="rapids" />
	</node>
	<node id="-583672" lat="62.6035194405" lon="8.17314443747">
		<tag k="name" v="Ytste Fløtaelva" />
		<tag k="ssr:stedsnr" v="280877" />
		<tag k="waterway" v="stream" />
	</node>
	<node id="-585706" lat="62.8130583316" lon="8.01256666958">
		<tag k="name" v="Mørkvatnet" />
		<tag k="natural" v="water" />
		<tag k="ssr:stedsnr" v="741655" />
		<tag k="water" v="lake" />
	</node>
	<node id="-583655" lat="62.7423194401" lon="7.72377499992">
		<tag k="name" v="Seterdammen" />
		<tag k="natural" v="water" />
		<tag k="ssr:stedsnr" v="280721" />
	</node>
	<node id="-585699" lat="62.5214277752" lon="8.17107778568">
		<tag k="alt_name" v="Bjørk, ytre" />
		<tag k="name" v="Ytste Bjørk" />
		<tag k="natural" v="cape" />
		<tag k="ssr:stedsnr" v="740223" />
	</node>
	<node id="-583650" lat="62.7578638864" lon="7.76160832813">
		<tag k="name" v="Kjemelva" />
		<tag k="ssr:stedsnr" v="280643" />
		<tag k="waterway" v="stream" />
	</node>
	<node id="-585697" lat="62.5024944466" lon="8.14681111953">
		<tag k="alt_name" v="Jutneset" />
		<tag k="name" v="Djupneset" />
		<tag k="natural" v="cape" />
		<tag k="ssr:stedsnr" v="740216" />
	</node>
	<node id="-585696" lat="62.4712750027" lon="8.12002500282">
		<tag k="name" v="Mardalsfossen" />
		<tag k="natural" v="waterfall" />
		<tag k="ssr:stedsnr" v="740074" />
	</node>
	<node id="-583647" lat="62.7850388873" lon="7.87261388167">
		<tag k="name" v="Lykkjevatnet" />
		<tag k="natural" v="water" />
		<tag k="ssr:stedsnr" v="280627" />
		<tag k="water" v="lake" />
	</node>
	<node id="-583646" lat="62.757474998" lon="7.8162388899">
		<tag k="name" v="Skjeringsåa" />
		<tag k="ssr:stedsnr" v="280605" />
		<tag k="waterway" v="stream" />
	</node>
	<node id="-585690" lat="62.7304888927" lon="8.1342138902">
		<tag k="name" v="Grytneselva" />
		<tag k="ssr:stedsnr" v="739472" />
		<tag k="waterway" v="stream" />
	</node>
	<node id="-583641" lat="62.626866669" lon="8.12917221903">
		<tag k="name" v="Rytingen" />
		<tag k="natural" v="cape" />
		<tag k="ssr:stedsnr" v="280528" />
	</node>
	<node id="-585686" lat="62.711125" lon="7.85332222963">
		<tag k="name" v="Elgenesvatnet" />
		<tag k="natural" v="water" />
		<tag k="ssr:stedsnr" v="739448" />
	</node>
	<node id="-585685" lat="62.3608750032" lon="8.25219999704">
		<tag k="name" v="Gravdalsvatnet" />
		<tag k="natural" v="water" />
		<tag k="ssr:stedsnr" v="739359" />
		<tag k="water" v="lake" />
	</node>
	<node id="-583635" lat="62.7330499991" lon="8.10993055572">
		<tag k="name" v="Sandvikgrova" />
		<tag k="ssr:stedsnr" v="280508" />
		<tag k="waterway" v="stream" />
	</node>
	<node id="-583634" lat="62.797763892" lon="7.89970555865">
		<tag k="name" v="Blåbergtjønna" />
		<tag k="natural" v="water" />
		<tag k="ssr:stedsnr" v="280501" />
	</node>
	<node id="-585679" lat="62.4024027806" lon="8.49228333357">
		<tag k="name" v="Stordalsåhølen" />
		<tag k="place" v="locality" />
		<tag k="ssr:stedsnr" v="739301" />
	</node>
	<node id="-585678" lat="62.3930611082" lon="8.40441388021">
		<tag k="name" v="Ytste Seljefonnbekken" />
		<tag k="ssr:stedsnr" v="739298" />
		<tag k="waterway" v="stream" />
	</node>
	<node id="-583626" lat="62.627816663" lon="8.12935833551">
		<tag k="name" v="Ellefsvika" />
		<tag k="natural" v="bay" />
		<tag k="ssr:stedsnr" v="280438" />
	</node>
	<node id="-585672" lat="62.4499361114" lon="8.26721944489">
		<tag k="name" v="Sundet" />
		<tag k="place" v="locality" />
		<tag k="ssr:stedsnr" v="739173" />
	</node>
	<node id="-585671" lat="62.586361115" lon="8.18427777825">
		<tag k="name" v="Tongelva" />
		<tag k="ssr:stedsnr" v="739163" />
		<tag k="waterway" v="stream" />
	</node>
	<node id="-585669" lat="62.5436611133" lon="8.15729722648">
		<tag k="alt_name" v="Hoemseterfløten" />
		<tag k="name" v="Hoemsæterfløta" />
		<tag k="natural" v="cape" />
		<tag k="ssr:stedsnr" v="739109" />
	</node>
	<node id="-585665" lat="62.5109111134" lon="8.07559444742">
		<tag k="name" v="Mardalsvatna" />
		<tag k="natural" v="water" />
		<tag k="ssr:stedsnr" v="726084" />
		<tag k="water" v="lake" />
	</node>
	<node id="-583610" lat="62.7694499964" lon="8.22351666918">
		<tag k="name" v="Høgfallet" />
		<tag k="ssr:stedsnr" v="280317" />
		<tag k="waterway" v="rapids" />
	</node>
	<node id="-585656" lat="62.6768249988" lon="7.97724167155">
		<tag k="name" v="Kleppelva" />
		<tag k="ssr:stedsnr" v="705979" />
		<tag k="waterway" v="stream" />
	</node>
	<node id="-585652" lat="62.7396055521" lon="8.00279167552">
		<tag k="name" v="Hådjupbekken" />
		<tag k="ssr:stedsnr" v="705956" />
		<tag k="waterway" v="stream" />
	</node>
	<node id="-583603" lat="62.6632083359" lon="8.07506389409">
		<tag k="name" v="Lomstjønna" />
		<tag k="natural" v="water" />
		<tag k="ssr:stedsnr" v="280100" />
	</node>
	<node id="-585646" lat="62.5253916633" lon="8.14477221904">
		<tag k="name" v="Lavransfløtbekken" />
		<tag k="ssr:stedsnr" v="705873" />
		<tag k="waterway" v="stream" />
	</node>
	<node id="-585642" lat="62.7301777771" lon="8.02092222332">
		<tag k="name" v="Skjelbekken" />
		<tag k="ssr:stedsnr" v="705853" />
		<tag k="waterway" v="stream" />
	</node>
	<node id="-585641" lat="62.6801694428" lon="8.03064722566">
		<tag k="name" v="Sulskarelva" />
		<tag k="ssr:stedsnr" v="705847" />
		<tag k="waterway" v="stream" />
	</node>
	<node id="-585637" lat="62.4729999978" lon="8.16381387959">
		<tag k="name" v="Gjølbekken" />
		<tag k="ssr:stedsnr" v="705818" />
		<tag k="waterway" v="stream" />
	</node>
	<node id="-585626" lat="62.7906527787" lon="7.82533888062">
		<tag k="name" v="Fagerlitjønna" />
		<tag k="natural" v="water" />
		<tag k="ssr:stedsnr" v="705697" />
	</node>
	<node id="-585617" lat="62.794666669" lon="7.7921305535">
		<tag k="name" v="Litlebukta" />
		<tag k="natural" v="bay" />
		<tag k="ssr:stedsnr" v="705642" />
	</node>
	<node id="-585606" lat="62.7908027804" lon="7.99426110149">
		<tag k="name" v="Seterhølen" />
		<tag k="place" v="locality" />
		<tag k="ssr:stedsnr" v="705543" />
	</node>
	<node id="-585604" lat="62.7946749974" lon="8.0513361181">
		<tag k="name" v="Sautjønna" />
		<tag k="natural" v="water" />
		<tag k="ssr:stedsnr" v="705499" />
	</node>
	<node id="-585603" lat="62.7788666708" lon="8.02307778152">
		<tag k="name" v="Øygardsbekken" />
		<tag k="ssr:stedsnr" v="705471" />
		<tag k="waterway" v="stream" />
	</node>
	<node id="-585602" lat="62.7812944429" lon="8.09087500727">
		<tag k="name" v="Jordfallhølan" />
		<tag k="place" v="locality" />
		<tag k="ssr:stedsnr" v="705470" />
	</node>
	<node id="-585599" lat="62.6935055557" lon="8.0988833307">
		<tag k="name" v="Bjørndalsbekken" />
		<tag k="ssr:stedsnr" v="705437" />
		<tag k="waterway" v="stream" />
	</node>
	<node id="-585598" lat="62.7835555561" lon="8.23611388704">
		<tag k="name" v="Kvennsetelva" />
		<tag k="ssr:stedsnr" v="705411" />
		<tag k="waterway" v="stream" />
	</node>
	<node id="-585594" lat="62.7823222217" lon="8.24219723191">
		<tag k="name" v="Slettabekken" />
		<tag k="ssr:stedsnr" v="705386" />
		<tag k="waterway" v="stream" />
	</node>
	<node id="-585593" lat="62.8099333368" lon="8.01753056285">
		<tag k="name" v="Paulbekken" />
		<tag k="ssr:stedsnr" v="705363" />
		<tag k="waterway" v="stream" />
	</node>
	<node id="-585588" lat="62.6600222214" lon="8.08584722496">
		<tag k="name" v="Hestskosvåbekken" />
		<tag k="ssr:stedsnr" v="705133" />
		<tag k="waterway" v="stream" />
	</node>
	<node id="-585587" lat="62.5417194417" lon="8.18410556279">
		<tag k="name" v="Fløten" />
		<tag k="natural" v="cape" />
		<tag k="ssr:stedsnr" v="705131" />
	</node>
	<node id="-585582" lat="62.5715055529" lon="8.17774166953">
		<tag k="name" v="Mjølvika" />
		<tag k="natural" v="bay" />
		<tag k="ssr:stedsnr" v="705111" />
	</node>
	<node id="-585564" lat="62.7419805545" lon="7.74793889498">
		<tag k="name" v="Tverrelva" />
		<tag k="ssr:stedsnr" v="704671" />
		<tag k="waterway" v="stream" />
	</node>
	<node id="-585556" lat="62.7921472191" lon="8.01385556058">
		<tag k="name" v="Stordalsbekken" />
		<tag k="ssr:stedsnr" v="705510" />
		<tag k="waterway" v="stream" />
	</node>
	<node id="-585550" lat="62.4835499993" lon="8.29187221295">
		<tag k="name" v="Langvatnet" />
		<tag k="natural" v="water" />
		<tag k="ssr:stedsnr" v="695508" />
		<tag k="water" v="lake" />
	</node>
	<node id="-585549" lat="62.4009361081" lon="8.43312500353">
		<tag k="name" v="Svarthølen" />
		<tag k="place" v="locality" />
		<tag k="ssr:stedsnr" v="695476" />
	</node>
	<node id="-585547" lat="62.461283337" lon="8.24005833971">
		<tag k="name" v="Lauvsteinneset" />
		<tag k="natural" v="cape" />
		<tag k="ssr:stedsnr" v="688771" />
	</node>
	<node id="-583649" lat="62.782247221" lon="7.84862223165">
		<tag k="name" v="Skjørlibekken" />
		<tag k="ssr:stedsnr" v="280634" />
		<tag k="waterway" v="stream" />
	</node>
	<node id="-583990" lat="62.6848861143" lon="7.99288333331">
		<tag k="name" v="Drivandfossen" />
		<tag k="ssr:stedsnr" v="401987" />
		<tag k="waterway" v="rapids" />
	</node>
	<node id="-585537" lat="62.7456944459" lon="8.20703332892">
		<tag k="name" v="Fredsviktjørna" />
		<tag k="natural" v="water" />
		<tag k="ssr:stedsnr" v="679445" />
	</node>
	<node id="-585527" lat="62.6354888871" lon="8.08561944249">
		<tag k="fixme" v="multiple name tags, choose one and add the other to alt_name" />
		<tag k="name" v="Sandlibekken;Sauebekken" />
		<tag k="ssr:stedsnr" v="679339" />
		<tag k="waterway" v="stream" />
	</node>
	<node id="-585526" lat="62.629605559" lon="7.94206667312">
		<tag k="name" v="Kjøvdalsvatnet" />
		<tag k="natural" v="water" />
		<tag k="ssr:stedsnr" v="679332" />
		<tag k="water" v="lake" />
	</node>
	<node id="-585523" lat="62.4196388917" lon="8.3698138868">
		<tag k="alt_name" v="Tjørna" />
		<tag k="name" v="Tjønna" />
		<tag k="natural" v="water" />
		<tag k="ssr:stedsnr" v="679292" />
	</node>
	<node id="-585522" lat="62.6140500041" lon="8.08906666953">
		<tag k="alt_name" v="Rønndøla" />
		<tag k="name" v="Røndøla" />
		<tag k="ssr:stedsnr" v="679280" />
		<tag k="waterway" v="stream" />
	</node>
	<node id="-585521" lat="62.3923777774" lon="8.29129445407">
		<tag k="name" v="Breimegå" />
		<tag k="ssr:stedsnr" v="679278" />
		<tag k="waterway" v="river" />
	</node>
	<node id="-585520" lat="62.4001194435" lon="8.62063056423">
		<tag k="name" v="Fattigbekken" />
		<tag k="ssr:stedsnr" v="679276" />
		<tag k="waterway" v="stream" />
	</node>
	<node id="-585518" lat="62.401824997" lon="8.26452499596">
		<tag k="name" v="Høvelvatnet" />
		<tag k="natural" v="water" />
		<tag k="ssr:stedsnr" v="679272" />
	</node>
	<node id="-585515" lat="62.6801388859" lon="7.84708056335">
		<tag k="name" v="Grøvelvatnet" />
		<tag k="natural" v="water" />
		<tag k="ssr:stedsnr" v="679254" />
	</node>
	<node id="-585504" lat="62.6783333352" lon="8.17692500649">
		<tag k="alt_name" v="Dokkelva" />
		<tag k="name" v="Kanndalselva" />
		<tag k="ssr:stedsnr" v="678314" />
		<tag k="waterway" v="river" />
	</node>
	<node id="-585500" lat="62.453163893" lon="8.26797500481">
		<tag k="name" v="Kjøtøyan" />
		<tag k="natural" v="cape" />
		<tag k="ssr:stedsnr" v="678182" />
	</node>
	<node id="-585499" lat="62.5791333318" lon="8.12877222434">
		<tag k="name" v="Blikskåra" />
		<tag k="ssr:stedsnr" v="678173" />
		<tag k="waterway" v="stream" />
	</node>
	<node id="-585494" lat="62.4315694465" lon="8.2600777841">
		<tag k="name" v="Tverrgrova" />
		<tag k="ssr:stedsnr" v="678367" />
		<tag k="waterway" v="stream" />
	</node>
	<node id="-585483" lat="62.7317583324" lon="7.83439443811">
		<tag k="name" v="Veitbekken" />
		<tag k="ssr:stedsnr" v="644940" />
		<tag k="waterway" v="stream" />
	</node>
	<node id="-585479" lat="62.6469638869" lon="7.83909722141">
		<tag k="name" v="Jutulbryggja" />
		<tag k="natural" v="shoal" />
		<tag k="place" v="locality" />
		<tag k="ssr:stedsnr" v="644921" />
	</node>
	<node id="-585478" lat="62.6716805531" lon="7.86951389165">
		<tag k="name" v="Fallbekken" />
		<tag k="ssr:stedsnr" v="644918" />
		<tag k="waterway" v="stream" />
	</node>
	<node id="-585473" lat="62.6033250016" lon="8.14863333205">
		<tag k="name" v="Jutulbåten" />
		<tag k="place" v="islet" />
		<tag k="ssr:stedsnr" v="644888" />
	</node>
	<node id="-585471" lat="62.4831888849" lon="8.15122500478">
		<tag k="name" v="Bjønnakløvsanden" />
		<tag k="natural" v="beach" />
		<tag k="ssr:stedsnr" v="644872" />
	</node>
	<node id="-585467" lat="62.6158555569" lon="8.14501945132">
		<tag k="name" v="Kjerringflua" />
		<tag k="place" v="islet" />
		<tag k="ssr:stedsnr" v="644839" />
	</node>
	<node id="-585461" lat="62.4610972186" lon="8.25668055101">
		<tag k="name" v="Slættabekken" />
		<tag k="ssr:stedsnr" v="644804" />
		<tag k="waterway" v="stream" />
	</node>
	<node id="-585460" lat="62.4304750019" lon="8.31156944605">
		<tag k="name" v="Øyafonnbekken" />
		<tag k="ssr:stedsnr" v="644798" />
		<tag k="waterway" v="stream" />
	</node>
	<node id="-583975" lat="62.7010666669" lon="7.77498610857">
		<tag k="name" v="Seterbekken" />
		<tag k="ssr:stedsnr" v="401891" />
		<tag k="waterway" v="stream" />
	</node>
	<node id="-585440" lat="62.8132055583" lon="7.89561666142">
		<tag k="name" v="Blåbergtjønna" />
		<tag k="natural" v="water" />
		<tag k="ssr:stedsnr" v="644564" />
	</node>
	<node id="-585437" lat="62.819463888" lon="7.86920276929">
		<tag k="name" v="Brenseldalsbekken" />
		<tag k="ssr:stedsnr" v="644557" />
		<tag k="waterway" v="stream" />
	</node>
	<node id="-585431" lat="62.8042694445" lon="7.96672499021">
		<tag k="name" v="Reitavoran" />
		<tag k="natural" v="beach" />
		<tag k="ssr:stedsnr" v="644503" />
	</node>
	<node id="-585423" lat="62.7787055589" lon="8.12668055414">
		<tag k="name" v="Rughaugbekken" />
		<tag k="ssr:stedsnr" v="644429" />
		<tag k="waterway" v="stream" />
	</node>
	<node id="-585415" lat="62.8187555587" lon="8.02881944634">
		<tag k="name" v="Igletjønna" />
		<tag k="natural" v="water" />
		<tag k="ssr:stedsnr" v="644339" />
	</node>
	<node id="-583968" lat="62.5243638894" lon="8.17247778248">
		<tag k="name" v="Skiftingsgrova" />
		<tag k="ssr:stedsnr" v="401823" />
		<tag k="waterway" v="stream" />
	</node>
	<node id="-585402" lat="62.7995749983" lon="8.16506388654">
		<tag k="name" v="Øraelva" />
		<tag k="ssr:stedsnr" v="643698" />
		<tag k="waterway" v="stream" />
	</node>
	<node id="-585396" lat="62.6607555562" lon="8.17947500246">
		<tag k="name" v="Fossan" />
		<tag k="ssr:stedsnr" v="643124" />
		<tag k="waterway" v="rapids" />
	</node>
	<node id="-585395" lat="62.559277776" lon="8.13992500025">
		<tag k="name" v="Bufonna" />
		<tag k="ssr:stedsnr" v="643121" />
		<tag k="waterway" v="stream" />
	</node>
	<node id="-585380" lat="62.8052555511" lon="7.9671305552">
		<tag k="name" v="Måsvatnet" />
		<tag k="natural" v="water" />
		<tag k="ssr:stedsnr" v="619591" />
		<tag k="water" v="lake" />
	</node>
	<node id="-585374" lat="62.7815166675" lon="7.993516674">
		<tag k="name" v="Høvikelva" />
		<tag k="ssr:stedsnr" v="618579" />
		<tag k="waterway" v="stream" />
	</node>
	<node id="-585370" lat="62.7261055596" lon="7.87541389125">
		<tag k="name" v="Sandneselva" />
		<tag k="ssr:stedsnr" v="618462" />
		<tag k="waterway" v="stream" />
	</node>
	<node id="-585367" lat="62.7255500019" lon="8.19413611189">
		<tag k="name" v="Storvatnet" />
		<tag k="natural" v="water" />
		<tag k="ssr:stedsnr" v="618448" />
	</node>
	<node id="-585364" lat="62.7068472199" lon="7.90683610551">
		<tag k="alt_name" v="Grøvla, heimre" />
		<tag k="name" v="Heimre Grøvla" />
		<tag k="ssr:stedsnr" v="618427" />
		<tag k="waterway" v="stream" />
	</node>
	<node id="-585354" lat="62.6492333291" lon="8.07343332613">
		<tag k="name" v="Slenesbekken" />
		<tag k="ssr:stedsnr" v="618228" />
		<tag k="waterway" v="stream" />
	</node>
	<node id="-585346" lat="62.5544305536" lon="8.09641389134">
		<tag k="name" v="Svartevatnet" />
		<tag k="natural" v="water" />
		<tag k="ssr:stedsnr" v="618123" />
	</node>
	<node id="-585345" lat="62.466413888" lon="8.11770555294">
		<tag k="name" v="Mardalstjønna" />
		<tag k="natural" v="water" />
		<tag k="ssr:stedsnr" v="618090" />
	</node>
	<node id="-585343" lat="62.4759694429" lon="8.12283332503">
		<tag k="alt_name" v="Inste Mardøla;Mardølå" />
		<tag k="name" v="Mardøla" />
		<tag k="ssr:stedsnr" v="618073" />
		<tag k="waterway" v="river" />
	</node>
	<node id="-585327" lat="62.688619447" lon="7.95830000162">
		<tag k="name" v="Nyfonnbekken" />
		<tag k="ssr:stedsnr" v="583971" />
		<tag k="waterway" v="stream" />
	</node>
	<node id="-585319" lat="62.6647638889" lon="7.84958889769">
		<tag k="name" v="Hardskarelva" />
		<tag k="ssr:stedsnr" v="583910" />
		<tag k="waterway" v="river" />
	</node>
	<node id="-585313" lat="62.6902944453" lon="7.87935833978">
		<tag k="name" v="Grøvelfossen" />
		<tag k="natural" v="waterfall" />
		<tag k="ssr:stedsnr" v="583885" />
	</node>
	<node id="-585310" lat="62.5726305556" lon="8.13769445201">
		<tag k="name" v="Sigridfonna" />
		<tag k="ssr:stedsnr" v="583872" />
		<tag k="waterway" v="stream" />
	</node>
	<node id="-585309" lat="62.5062416657" lon="8.14056665948">
		<tag k="name" v="Svartbekken" />
		<tag k="ssr:stedsnr" v="583870" />
		<tag k="waterway" v="stream" />
	</node>
	<node id="-585306" lat="62.5324611148" lon="8.15171111489">
		<tag k="name" v="Rangågrunnå" />
		<tag k="natural" v="shoal" />
		<tag k="place" v="locality" />
		<tag k="ssr:stedsnr" v="583864" />
	</node>
	<node id="-585305" lat="62.6779305526" lon="8.24602499474">
		<tag k="name" v="Salbotnelva" />
		<tag k="ssr:stedsnr" v="583839" />
		<tag k="waterway" v="stream" />
	</node>
	<node id="-585303" lat="62.6178583366" lon="8.17040832609">
		<tag k="name" v="Skråteigbukta" />
		<tag k="natural" v="bay" />
		<tag k="ssr:stedsnr" v="583830" />
	</node>
	<node id="-585302" lat="62.6186249973" lon="8.137344437">
		<tag k="name" v="Ytste Rotvika" />
		<tag k="natural" v="bay" />
		<tag k="ssr:stedsnr" v="583827" />
	</node>
	<node id="-583608" lat="62.8144555555" lon="8.01584166627">
		<tag k="name" v="Fiskarneset" />
		<tag k="natural" v="cape" />
		<tag k="ssr:stedsnr" v="280289" />
	</node>
	<node id="-585294" lat="62.4230472246" lon="8.3330972278">
		<tag k="name" v="Skarbekken" />
		<tag k="ssr:stedsnr" v="583750" />
		<tag k="waterway" v="stream" />
	</node>
	<node id="-585281" lat="62.7855416658" lon="7.98993056334">
		<tag k="name" v="Pyntå" />
		<tag k="natural" v="water" />
		<tag k="ssr:stedsnr" v="583616" />
	</node>
	<node id="-585270" lat="62.8063027797" lon="7.83069723112">
		<tag k="name" v="Bakkesanden" />
		<tag k="natural" v="beach" />
		<tag k="ssr:stedsnr" v="583534" />
	</node>
	<node id="-585264" lat="62.6851805583" lon="8.112847222">
		<tag k="name" v="Løken" />
		<tag k="ssr:stedsnr" v="583516" />
		<tag k="waterway" v="stream" />
	</node>
	<node id="-585259" lat="62.805302781" lon="7.98347777563">
		<tag k="name" v="Måsvasselva" />
		<tag k="ssr:stedsnr" v="583487" />
		<tag k="waterway" v="river" />
	</node>
	<node id="-585258" lat="62.768988887" lon="7.89025278484">
		<tag k="name" v="Tjellaelva" />
		<tag k="ssr:stedsnr" v="583474" />
		<tag k="waterway" v="stream" />
	</node>
	<node id="-585252" lat="62.7996611152" lon="8.05799999067">
		<tag k="name" v="Døftavatnet" />
		<tag k="natural" v="water" />
		<tag k="ssr:stedsnr" v="583436" />
	</node>
	<node id="-585247" lat="62.6826388924" lon="8.12071943847">
		<tag k="name" v="Grytosholmen" />
		<tag k="place" v="islet" />
		<tag k="ssr:stedsnr" v="583376" />
	</node>
	<node id="-585244" lat="62.7590000002" lon="8.17785555986">
		<tag k="name" v="Kvennsetbekken" />
		<tag k="ssr:stedsnr" v="583344" />
		<tag k="waterway" v="stream" />
	</node>
	<node id="-585234" lat="62.8068305544" lon="8.14310833736">
		<tag k="name" v="Gållatjønna" />
		<tag k="natural" v="water" />
		<tag k="ssr:stedsnr" v="583225" />
	</node>
	<node id="-585231" lat="62.4122583306" lon="8.35822222282">
		<tag k="name" v="Nilsspranget" />
		<tag k="ssr:stedsnr" v="583108" />
		<tag k="waterway" v="rapids" />
	</node>
	<node id="-585211" lat="62.6151666645" lon="8.12033332697">
		<tag k="name" v="Meringdalselva" />
		<tag k="ssr:stedsnr" v="582427" />
		<tag k="waterway" v="river" />
	</node>
	<node id="-585207" lat="62.8224888848" lon="7.92635277031">
		<tag k="name" v="Djupdalsbekken" />
		<tag k="ssr:stedsnr" v="558587" />
		<tag k="waterway" v="stream" />
	</node>
	<node id="-585198" lat="62.773741665" lon="8.11650833655">
		<tag k="alt_name" v="Teigsetbekken" />
		<tag k="name" v="Teigsetelva" />
		<tag k="ssr:stedsnr" v="557569" />
		<tag k="waterway" v="stream" />
	</node>
	<node id="-585186" lat="62.3758027822" lon="8.2748888915">
		<tag k="name" v="Litlevatnet" />
		<tag k="natural" v="water" />
		<tag k="ssr:stedsnr" v="557342" />
	</node>
	<node id="-585185" lat="62.6176027738" lon="7.98558611434">
		<tag k="name" v="Melkallvatna" />
		<tag k="natural" v="water" />
		<tag k="ssr:stedsnr" v="557338" />
	</node>
	<node id="-585174" lat="62.6681361131" lon="7.97893611576">
		<tag k="name" v="Kjøvelva" />
		<tag k="ssr:stedsnr" v="557275" />
		<tag k="waterway" v="river" />
	</node>
	<node id="-585168" lat="62.4550638885" lon="8.10890833017">
		<tag k="name" v="Fossafjelltjønna" />
		<tag k="natural" v="water" />
		<tag k="ssr:stedsnr" v="557103" />
	</node>
	<node id="-585163" lat="62.4782833357" lon="8.19845832724">
		<tag k="name" v="Almelibekken" />
		<tag k="ssr:stedsnr" v="557073" />
		<tag k="waterway" v="stream" />
	</node>
	<node id="-585162" lat="62.5617611086" lon="8.15752500481">
		<tag k="loc_name" v="Eikedalsvatnet" />
		<tag k="name" v="Eikesdalsvatnet" />
		<tag k="natural" v="water" />
		<tag k="ssr:stedsnr" v="557068" />
		<tag k="water" v="lake" />
	</node>
	<node id="-585153" lat="62.6881694423" lon="7.97628611239">
		<tag k="name" v="Garsteinhølen" />
		<tag k="place" v="locality" />
		<tag k="ssr:stedsnr" v="523978" />
	</node>
	<node id="-585145" lat="62.7196583368" lon="7.78608055888">
		<tag k="name" v="Bjørgrova" />
		<tag k="ssr:stedsnr" v="523901" />
		<tag k="waterway" v="stream" />
	</node>
	<node id="-585142" lat="62.51093889" lon="8.17356945085">
		<tag k="name" v="Inste Bjørkelva" />
		<tag k="ssr:stedsnr" v="523856" />
		<tag k="waterway" v="river" />
	</node>
	<node id="-585141" lat="62.6861888876" lon="8.20823055832">
		<tag k="name" v="Heimste Tverrelva" />
		<tag k="ssr:stedsnr" v="523848" />
		<tag k="waterway" v="river" />
	</node>
	<node id="-585112" lat="62.7834388903" lon="7.98193611032">
		<tag k="name" v="Kamtjønna" />
		<tag k="natural" v="water" />
		<tag k="ssr:stedsnr" v="523539" />
	</node>
	<node id="-585108" lat="62.7783166643" lon="7.91882499578">
		<tag k="name" v="Øyrstingartjønna" />
		<tag k="natural" v="water" />
		<tag k="ssr:stedsnr" v="523524" />
	</node>
	<node id="-585106" lat="62.8028833368" lon="8.02151111482">
		<tag k="name" v="Øvre Solbjørvatnet" />
		<tag k="natural" v="water" />
		<tag k="ssr:stedsnr" v="523505" />
	</node>
	<node id="-585103" lat="62.8207027764" lon="8.04630834265">
		<tag k="name" v="Mørklitjønna" />
		<tag k="natural" v="water" />
		<tag k="ssr:stedsnr" v="523369" />
	</node>
	<node id="-585098" lat="62.8181027733" lon="8.11660832714">
		<tag k="name" v="Stormyrbekken" />
		<tag k="ssr:stedsnr" v="523354" />
		<tag k="waterway" v="stream" />
	</node>
	<node id="-585091" lat="62.4516194453" lon="8.26154443612">
		<tag k="name" v="Keila" />
		<tag k="natural" v="bay" />
		<tag k="ssr:stedsnr" v="523072" />
	</node>
	<node id="-585087" lat="62.795838889" lon="8.07677500767">
		<tag k="name" v="Holelva" />
		<tag k="ssr:stedsnr" v="522714" />
		<tag k="waterway" v="stream" />
	</node>
	<node id="-585078" lat="62.5010722246" lon="8.17149722901">
		<tag k="name" v="Skråvika" />
		<tag k="natural" v="bay" />
		<tag k="ssr:stedsnr" v="522130" />
	</node>
	<node id="-585069" lat="62.8035194468" lon="8.09317777771">
		<tag k="name" v="Gjerdbekken" />
		<tag k="ssr:stedsnr" v="523473" />
		<tag k="waterway" v="stream" />
	</node>
	<node id="-585056" lat="62.7942638919" lon="7.8764611148">
		<tag k="name" v="Jutulbekken" />
		<tag k="ssr:stedsnr" v="498624" />
		<tag k="waterway" v="stream" />
	</node>
	<node id="-585055" lat="62.8165444468" lon="7.91550277588">
		<tag k="name" v="Store Vetavatnet" />
		<tag k="natural" v="water" />
		<tag k="ssr:stedsnr" v="498615" />
		<tag k="water" v="lake" />
	</node>
	<node id="-585054" lat="62.5094638875" lon="8.23411111861">
		<tag k="name" v="Langvatnet" />
		<tag k="natural" v="water" />
		<tag k="ssr:stedsnr" v="497909" />
	</node>
	<node id="-585042" lat="62.7704638893" lon="8.22742499367">
		<tag k="name" v="Fredsvikelva" />
		<tag k="ssr:stedsnr" v="497373" />
		<tag k="waterway" v="stream" />
	</node>
	<node id="-585041" lat="62.6391111094" lon="8.06736944325">
		<tag k="name" v="Slettlibekken" />
		<tag k="ssr:stedsnr" v="497369" />
		<tag k="waterway" v="stream" />
	</node>
	<node id="-585038" lat="62.6130666638" lon="8.01286667003">
		<tag k="name" v="Slenesvatnet" />
		<tag k="natural" v="water" />
		<tag k="ssr:stedsnr" v="497359" />
	</node>
	<node id="-585037" lat="62.6070833346" lon="8.07529166189">
		<tag k="name" v="Røndølskardvatnet" />
		<tag k="natural" v="water" />
		<tag k="ssr:stedsnr" v="497332" />
	</node>
	<node id="-585036" lat="62.6782944449" lon="7.91281110801">
		<tag k="name" v="Svagrova" />
		<tag k="ssr:stedsnr" v="497273" />
		<tag k="waterway" v="stream" />
	</node>
	<node id="-585034" lat="62.5103888921" lon="8.07692777112">
		<tag k="alt_name" v="Mardalsvatnet, midtre" />
		<tag k="fixme" v="multiple name tags, choose one and add the other to alt_name" />
		<tag k="name" v="Urdavatnet;Midtre Mardalsvatnet" />
		<tag k="natural" v="water" />
		<tag k="ssr:stedsnr" v="497203" />
		<tag k="water" v="lake" />
	</node>
	<node id="-585030" lat="62.468730555" lon="8.05723056008">
		<tag k="name" v="Grønbottstjønna" />
		<tag k="natural" v="water" />
		<tag k="ssr:stedsnr" v="497082" />
	</node>
	<node id="-585028" lat="62.4852055546" lon="8.18655277399">
		<tag k="name" v="Tyvikgrova" />
		<tag k="ssr:stedsnr" v="497067" />
		<tag k="waterway" v="stream" />
	</node>
	<node id="-585016" lat="62.4699805552" lon="8.38316665845">
		<tag k="name" v="Stordalsåa" />
		<tag k="ssr:stedsnr" v="496191" />
		<tag k="waterway" v="river" />
	</node>
	<node id="-585014" lat="62.4675111154" lon="8.28806110745">
		<tag k="name" v="Trollvassåa" />
		<tag k="ssr:stedsnr" v="496186" />
		<tag k="waterway" v="stream" />
	</node>
	<node id="-585012" lat="62.5522138914" lon="8.19367221927">
		<tag k="name" v="Ålebekken" />
		<tag k="ssr:stedsnr" v="496126" />
		<tag k="waterway" v="stream" />
	</node>
	<node id="-585002" lat="62.6740972213" lon="8.16836944491">
		<tag k="name" v="Djupdalsbekken" />
		<tag k="ssr:stedsnr" v="462833" />
		<tag k="waterway" v="stream" />
	</node>
	<node id="-585000" lat="62.4169916638" lon="8.33926388125">
		<tag k="name" v="Gjølbekken" />
		<tag k="ssr:stedsnr" v="462816" />
		<tag k="waterway" v="stream" />
	</node>
	<node id="-584999" lat="62.7223388861" lon="8.03707222657">
		<tag k="name" v="Orvikelva" />
		<tag k="ssr:stedsnr" v="462817" />
		<tag k="waterway" v="stream" />
	</node>
	<node id="-584997" lat="62.7093111136" lon="8.07811387995">
		<tag k="name" v="Storbekken" />
		<tag k="ssr:stedsnr" v="462808" />
		<tag k="waterway" v="stream" />
	</node>
	<node id="-584994" lat="62.4934805536" lon="8.16947499063">
		<tag k="name" v="Ljåstranda" />
		<tag k="natural" v="beach" />
		<tag k="ssr:stedsnr" v="462773" />
	</node>
	<node id="-584987" lat="62.4195305591" lon="8.34497777592">
		<tag k="name" v="Skafallhølbekken" />
		<tag k="ssr:stedsnr" v="462741" />
		<tag k="waterway" v="stream" />
	</node>
	<node id="-584984" lat="62.7975194475" lon="8.06658055982">
		<tag k="name" v="Holelva" />
		<tag k="ssr:stedsnr" v="462719" />
		<tag k="waterway" v="stream" />
	</node>
	<node id="-584976" lat="62.7913527784" lon="7.843244453">
		<tag k="name" v="Vollabekken" />
		<tag k="ssr:stedsnr" v="462607" />
		<tag k="waterway" v="stream" />
	</node>
	<node id="-584966" lat="62.7343833308" lon="7.9614333292">
		<tag k="name" v="Fremstebekken" />
		<tag k="ssr:stedsnr" v="462938" />
		<tag k="waterway" v="stream" />
	</node>
	<node id="-584961" lat="62.6549916676" lon="7.85735276875">
		<tag k="name" v="Mørkvasselva" />
		<tag k="ssr:stedsnr" v="462906" />
		<tag k="waterway" v="stream" />
	</node>
	<node id="-584956" lat="62.8015277738" lon="7.97071389868">
		<tag k="name" v="Rembekken" />
		<tag k="ssr:stedsnr" v="462455" />
		<tag k="waterway" v="stream" />
	</node>
	<node id="-584949" lat="62.6681944488" lon="8.12155277712">
		<tag k="name" v="Siraøyna" />
		<tag k="natural" v="cape" />
		<tag k="ssr:stedsnr" v="462383" />
	</node>
	<node id="-584945" lat="62.7482083304" lon="8.09049722871">
		<tag k="name" v="Ytste Langmyrbekken" />
		<tag k="ssr:stedsnr" v="462364" />
		<tag k="waterway" v="stream" />
	</node>
	<node id="-584938" lat="62.7873805578" lon="8.1931277828">
		<tag k="name" v="Bjerkholelva" />
		<tag k="ssr:stedsnr" v="462204" />
		<tag k="waterway" v="stream" />
	</node>
	<node id="-584932" lat="62.7186305568" lon="8.04935834254">
		<tag k="name" v="Rangåa" />
		<tag k="ssr:stedsnr" v="462068" />
		<tag k="waterway" v="stream" />
	</node>
	<node id="-584917" lat="62.8068916664" lon="7.82807500111">
		<tag k="name" v="Naustneset" />
		<tag k="natural" v="cape" />
		<tag k="ssr:stedsnr" v="462524" />
	</node>
	<node id="-584916" lat="62.8037444407" lon="7.87947223091">
		<tag k="name" v="Lomtjønna" />
		<tag k="natural" v="water" />
		<tag k="ssr:stedsnr" v="462517" />
	</node>
	<node id="-584913" lat="62.7514527745" lon="8.09898333239">
		<tag k="name" v="Inste Langmyrbekken" />
		<tag k="ssr:stedsnr" v="462503" />
		<tag k="waterway" v="stream" />
	</node>
	<node id="-584904" lat="62.824105554" lon="7.95267222052">
		<tag k="name" v="Fagervatnet" />
		<tag k="natural" v="water" />
		<tag k="ssr:stedsnr" v="437556" />
	</node>
	<node id="-584901" lat="62.3648861081" lon="8.33850277381">
		<tag k="name" v="Sølvgruvetjønna" />
		<tag k="natural" v="water" />
		<tag k="ssr:stedsnr" v="436756" />
	</node>
	<node id="-584896" lat="62.774891665" lon="7.88973888789">
		<tag k="name" v="Kvamlivatnet" />
		<tag k="natural" v="water" />
		<tag k="ssr:stedsnr" v="436580" />
	</node>
	<node id="-584887" lat="62.728197224" lon="7.97522221444">
		<tag k="name" v="Vasslivatnet" />
		<tag k="natural" v="water" />
		<tag k="ssr:stedsnr" v="436436" />
	</node>
	<node id="-584886" lat="62.7107388914" lon="7.90381945403">
		<tag k="alt_name" v="Andersskarsvatnet" />
		<tag k="name" v="Anderskardvatnet" />
		<tag k="natural" v="water" />
		<tag k="ssr:stedsnr" v="436422" />
	</node>
	<node id="-584884" lat="62.36520278" lon="8.32100000785">
		<tag k="name" v="Nørdre Løypåa" />
		<tag k="ssr:stedsnr" v="436355" />
		<tag k="waterway" v="stream" />
	</node>
	<node id="-584877" lat="62.6195055548" lon="7.8540333335">
		<tag k="name" v="Svartevatnet" />
		<tag k="natural" v="water" />
		<tag k="ssr:stedsnr" v="436334" />
	</node>
	<node id="-584873" lat="62.4153083346" lon="8.4266583241">
		<tag k="name" v="Inste Bukkeskredbekken" />
		<tag k="ssr:stedsnr" v="436287" />
		<tag k="waterway" v="stream" />
	</node>
	<node id="-584871" lat="62.6860416681" lon="8.01119722544">
		<tag k="alt_name" v="Skarsåna" />
		<tag k="name" v="Skardselva" />
		<tag k="ssr:stedsnr" v="436283" />
		<tag k="waterway" v="stream" />
	</node>
	<node id="-584862" lat="62.5103277759" lon="8.1715222278">
		<tag k="alt_name" v="Bjørk, øvre" />
		<tag k="name" v="Inste Bjørk" />
		<tag k="natural" v="cape" />
		<tag k="ssr:stedsnr" v="436210" />
	</node>
	<node id="-584861" lat="62.5691333355" lon="8.20296387979">
		<tag k="name" v="Vikeelva" />
		<tag k="ssr:stedsnr" v="436173" />
		<tag k="waterway" v="stream" />
	</node>
	<node id="-584860" lat="62.4624694445" lon="8.27635555825">
		<tag k="alt_name" v="Kjøtåna" />
		<tag k="name" v="Kjøtåa" />
		<tag k="ssr:stedsnr" v="436166" />
		<tag k="waterway" v="stream" />
	</node>
	<node id="-584854" lat="62.4963916632" lon="8.03453888035">
		<tag k="name" v="Midthøtjønnin" />
		<tag k="natural" v="water" />
		<tag k="ssr:stedsnr" v="436068" />
	</node>
	<node id="-584847" lat="62.5459472247" lon="8.29428332528">
		<tag k="name" v="Glupelva" />
		<tag k="ssr:stedsnr" v="263712" />
		<tag k="waterway" v="river" />
	</node>
	<node id="-584839" lat="62.780394444" lon="7.96899999313">
		<tag k="name" v="Duggå" />
		<tag k="ssr:stedsnr" v="254569" />
		<tag k="waterway" v="stream" />
	</node>
	<node id="-584837" lat="62.3830805571" lon="8.68359166374">
		<tag k="name" v="Skjellbreia" />
		<tag k="ssr:stedsnr" v="254333" />
		<tag k="waterway" v="river" />
	</node>
	<node id="-584834" lat="62.6169944455" lon="8.14317499414">
		<tag k="name" v="Reitneset" />
		<tag k="natural" v="cape" />
		<tag k="ssr:stedsnr" v="254304" />
	</node>
	<node id="-584822" lat="62.4600250037" lon="8.44856110219">
		<tag k="name" v="Øvste Lægeret" />
		<tag k="natural" v="cape" />
		<tag k="ssr:stedsnr" v="254148" />
	</node>
	<node id="-584821" lat="62.5324333351" lon="8.13120556417">
		<tag k="name" v="Rangåna" />
		<tag k="ssr:stedsnr" v="254128" />
		<tag k="waterway" v="stream" />
	</node>
	<node id="-584820" lat="62.5347388898" lon="8.21750555207">
		<tag k="name" v="Fagerbottvatnet" />
		<tag k="natural" v="water" />
		<tag k="ssr:stedsnr" v="254124" />
	</node>
	<node id="-584819" lat="62.5263305592" lon="8.06609999286">
		<tag k="alt_name" v="Haudukvatnet, indre;Mardalsvatnet, øvre" />
		<tag k="fixme" v="multiple name tags, choose one and add the other to alt_name" />
		<tag k="name" v="Indre Haudukvatnet;Øvre Mardalsvatnet" />
		<tag k="natural" v="water" />
		<tag k="ssr:stedsnr" v="254116" />
		<tag k="water" v="lake" />
	</node>
	<node id="-584813" lat="62.740672219" lon="8.12757500187">
		<tag k="alt_name" v="Strykelva" />
		<tag k="name" v="Sandvikelva" />
		<tag k="ssr:stedsnr" v="254463" />
		<tag k="waterway" v="stream" />
	</node>
	<node id="-584798" lat="62.6925138892" lon="7.95288610387">
		<tag k="name" v="Seterbekken" />
		<tag k="ssr:stedsnr" v="220974" />
		<tag k="waterway" v="stream" />
	</node>
	<node id="-584794" lat="62.5724083325" lon="8.14496110809">
		<tag k="name" v="Storåvika" />
		<tag k="natural" v="bay" />
		<tag k="ssr:stedsnr" v="220879" />
	</node>
	<node id="-584786" lat="62.4600527822" lon="8.2274361059">
		<tag k="name" v="Seljevika" />
		<tag k="natural" v="bay" />
		<tag k="ssr:stedsnr" v="220831" />
	</node>
	<node id="-584780" lat="62.800766671" lon="7.80666945356">
		<tag k="name" v="Holneset" />
		<tag k="natural" v="cape" />
		<tag k="ssr:stedsnr" v="220719" />
	</node>
	<node id="-584769" lat="62.7639611091" lon="7.85578333437">
		<tag k="name" v="Hyttebekken" />
		<tag k="ssr:stedsnr" v="220650" />
		<tag k="waterway" v="stream" />
	</node>
	<node id="-584768" lat="62.8352027797" lon="8.02156388154">
		<tag k="name" v="Svartkollbekken" />
		<tag k="ssr:stedsnr" v="220591" />
		<tag k="waterway" v="stream" />
	</node>
	<node id="-584762" lat="62.7770499981" lon="7.8594111073">
		<tag k="name" v="Botnaelva" />
		<tag k="ssr:stedsnr" v="220632" />
		<tag k="waterway" v="river" />
	</node>
	<node id="-584751" lat="62.7928388895" lon="8.16435277987">
		<tag k="name" v="Fonnabekken" />
		<tag k="ssr:stedsnr" v="220406" />
		<tag k="waterway" v="stream" />
	</node>
	<node id="-584750" lat="62.7133666646" lon="8.13983055796">
		<tag k="name" v="Langfonna" />
		<tag k="ssr:stedsnr" v="220401" />
		<tag k="waterway" v="stream" />
	</node>
	<node id="-584749" lat="62.7202583368" lon="8.13970555459">
		<tag k="name" v="Godvikelva" />
		<tag k="ssr:stedsnr" v="220398" />
		<tag k="waterway" v="river" />
	</node>
	<node id="-584738" lat="62.7040666683" lon="7.8039888939">
		<tag k="name" v="Gammelseterbekken" />
		<tag k="ssr:stedsnr" v="219918" />
		<tag k="waterway" v="stream" />
	</node>
	<node id="-584734" lat="62.6903055533" lon="7.81454443791">
		<tag k="name" v="Skjenstøvatna" />
		<tag k="natural" v="water" />
		<tag k="ssr:stedsnr" v="219888" />
	</node>
	<node id="-584728" lat="62.7501527801" lon="7.74020555712">
		<tag k="name" v="Akselelva" />
		<tag k="ssr:stedsnr" v="219712" />
		<tag k="waterway" v="river" />
	</node>
	<node id="-584727" lat="62.7833916645" lon="7.86576666716">
		<tag k="name" v="Svarttjønna" />
		<tag k="natural" v="water" />
		<tag k="ssr:stedsnr" v="219639" />
	</node>
	<node id="-584725" lat="62.8080027754" lon="7.92687499912">
		<tag k="name" v="Seterbekken" />
		<tag k="ssr:stedsnr" v="219553" />
		<tag k="waterway" v="stream" />
	</node>
	<node id="-584716" lat="62.7872166668" lon="7.8977527745">
		<tag k="alt_name" v="Gammelseterelva" />
		<tag k="name" v="Attaste Gammelseterelva" />
		<tag k="ssr:stedsnr" v="220518" />
		<tag k="waterway" v="river" />
	</node>
	<node id="-584710" lat="62.4290416672" lon="8.30334721467">
		<tag k="name" v="Meløya" />
		<tag k="place" v="islet" />
		<tag k="ssr:stedsnr" v="219077" />
	</node>
	<node id="-584701" lat="62.4781277813" lon="8.12275556374">
		<tag k="name" v="Inste Mardøla" />
		<tag k="ssr:stedsnr" v="218088" />
		<tag k="waterway" v="river" />
	</node>
	<node id="-584694" lat="62.824683336" lon="8.06518888001">
		<tag k="name" v="Raudsandvatnet" />
		<tag k="natural" v="water" />
		<tag k="ssr:stedsnr" v="194494" />
		<tag k="water" v="lake" />
	</node>
	<node id="-584692" lat="62.6181444401" lon="7.9190083407">
		<tag k="name" v="Kjøvskardvatnet" />
		<tag k="natural" v="water" />
		<tag k="ssr:stedsnr" v="194319" />
	</node>
	<node id="-584689" lat="62.6991388881" lon="8.17052221517">
		<tag k="name" v="Driva" />
		<tag k="ssr:stedsnr" v="194273" />
		<tag k="waterway" v="stream" />
	</node>
	<node id="-584687" lat="62.6900583351" lon="7.96339166138">
		<tag k="name" v="Visa" />
		<tag k="ssr:stedsnr" v="194247" />
		<tag k="waterway" v="river" />
	</node>
	<node id="-583847" lat="62.7014416681" lon="7.90849167429">
		<tag k="name" v="Røysgrøvla" />
		<tag k="ssr:stedsnr" v="341956" />
		<tag k="waterway" v="stream" />
	</node>
	<node id="-584680" lat="62.7769055556" lon="7.89942222808">
		<tag k="name" v="Kvamlielva" />
		<tag k="ssr:stedsnr" v="193604" />
		<tag k="waterway" v="stream" />
	</node>
	<node id="-584675" lat="62.3894499974" lon="8.49969999987">
		<tag k="name" v="Kløvåa" />
		<tag k="ssr:stedsnr" v="193387" />
		<tag k="waterway" v="stream" />
	</node>
	<node id="-584672" lat="62.3878249977" lon="8.42210000725">
		<tag k="name" v="Inste Seljefonnbekken" />
		<tag k="ssr:stedsnr" v="193324" />
		<tag k="waterway" v="stream" />
	</node>
	<node id="-583845" lat="62.6601083376" lon="7.97959444641">
		<tag k="name" v="Seterbekken" />
		<tag k="ssr:stedsnr" v="341915" />
		<tag k="waterway" v="stream" />
	</node>
	<node id="-584668" lat="62.6623972203" lon="8.08637221576">
		<tag k="name" v="Ugla" />
		<tag k="ssr:stedsnr" v="193258" />
		<tag k="waterway" v="stream" />
	</node>
	<node id="-584666" lat="62.4564888926" lon="8.24874167427">
		<tag k="alt_name" v="Litlvatnet" />
		<tag k="name" v="Litlevatnet" />
		<tag k="natural" v="water" />
		<tag k="ssr:stedsnr" v="193181" />
		<tag k="water" v="lake" />
	</node>
	<node id="-584665" lat="62.4515250014" lon="8.30943054596">
		<tag k="alt_name" v="Ramnåna" />
		<tag k="name" v="Ramnåa" />
		<tag k="ssr:stedsnr" v="193175" />
		<tag k="waterway" v="stream" />
	</node>
	<node id="-584662" lat="62.4855250045" lon="8.36780277887">
		<tag k="name" v="Stordalsvatnet" />
		<tag k="natural" v="water" />
		<tag k="ssr:stedsnr" v="193160" />
	</node>
	<node id="-584660" lat="62.4725277788" lon="8.31823611013">
		<tag k="name" v="Trollvatnet" />
		<tag k="natural" v="water" />
		<tag k="ssr:stedsnr" v="193150" />
	</node>
	<node id="-584659" lat="62.5256777743" lon="8.14908054818">
		<tag k="alt_name" v="Lavransfløten" />
		<tag k="name" v="Lavransfløta" />
		<tag k="natural" v="cape" />
		<tag k="ssr:stedsnr" v="193135" />
	</node>
	<node id="-584658" lat="62.4424249997" lon="8.19052500072">
		<tag k="name" v="Bruåa" />
		<tag k="ssr:stedsnr" v="193116" />
		<tag k="waterway" v="river" />
	</node>
	<node id="-584648" lat="62.6831833329" lon="7.96836110603">
		<tag k="name" v="Bjørnskarbekken" />
		<tag k="ssr:stedsnr" v="159983" />
		<tag k="waterway" v="stream" />
	</node>
	<node id="-584647" lat="62.6801611084" lon="7.99423055099">
		<tag k="name" v="Bantjønna" />
		<tag k="natural" v="water" />
		<tag k="ssr:stedsnr" v="159980" />
	</node>
	<node id="-584646" lat="62.724977778" lon="7.90887777653">
		<tag k="name" v="Fonnabekken" />
		<tag k="ssr:stedsnr" v="159970" />
		<tag k="waterway" v="stream" />
	</node>
	<node id="-584644" lat="62.7426861102" lon="7.95577776942">
		<tag k="name" v="Gauprørelva" />
		<tag k="ssr:stedsnr" v="159960" />
		<tag k="waterway" v="stream" />
	</node>
	<node id="-584641" lat="62.6466583366" lon="7.9593611036">
		<tag k="name" v="Tverrelva" />
		<tag k="ssr:stedsnr" v="159922" />
		<tag k="waterway" v="river" />
	</node>
	<node id="-584637" lat="62.721319442" lon="7.77902778486">
		<tag k="name" v="Plasseskjæret" />
		<tag k="natural" v="water" />
		<tag k="ssr:stedsnr" v="159897" />
		<tag k="water" v="lake" />
	</node>
	<node id="-584635" lat="62.5913694443" lon="8.14582221689">
		<tag k="name" v="Storodden" />
		<tag k="natural" v="cape" />
		<tag k="ssr:stedsnr" v="159893" />
	</node>
	<node id="-584631" lat="62.5085083371" lon="8.17083054801">
		<tag k="name" v="Fagervika" />
		<tag k="natural" v="bay" />
		<tag k="ssr:stedsnr" v="159863" />
	</node>
	<node id="-584629" lat="62.6893888859" lon="8.01947222021">
		<tag k="name" v="Kleivbekken" />
		<tag k="ssr:stedsnr" v="159847" />
		<tag k="waterway" v="stream" />
	</node>
	<node id="-584627" lat="62.6972916701" lon="8.1070722291">
		<tag k="name" v="Bjørndalsbekken" />
		<tag k="ssr:stedsnr" v="159845" />
		<tag k="waterway" v="stream" />
	</node>
	<node id="-584626" lat="62.6905000013" lon="8.01115833228">
		<tag k="name" v="Sveingrova" />
		<tag k="ssr:stedsnr" v="159843" />
		<tag k="waterway" v="stream" />
	</node>
	<node id="-584616" lat="62.7264833299" lon="7.67739166187">
		<tag k="name" v="Storfarbekken" />
		<tag k="ssr:stedsnr" v="159748" />
		<tag k="waterway" v="stream" />
	</node>
	<node id="-583836" lat="62.684286109" lon="8.22952499649">
		<tag k="name" v="Fremste Tverrelva" />
		<tag k="ssr:stedsnr" v="341856" />
		<tag k="waterway" v="river" />
	</node>
	<node id="-584613" lat="62.799491668" lon="7.80982778445">
		<tag k="name" v="Holbukta" />
		<tag k="natural" v="bay" />
		<tag k="ssr:stedsnr" v="159708" />
	</node>
	<node id="-584611" lat="62.8073611145" lon="7.82590556265">
		<tag k="name" v="Liabukta" />
		<tag k="natural" v="bay" />
		<tag k="ssr:stedsnr" v="159704" />
	</node>
	<node id="-584608" lat="62.8112583375" lon="7.9159027694">
		<tag k="name" v="Sprenå" />
		<tag k="ssr:stedsnr" v="159700" />
		<tag k="waterway" v="stream" />
	</node>
	<node id="-584604" lat="62.7781250006" lon="8.28570000371">
		<tag k="name" v="Skrødalsbekken" />
		<tag k="ssr:stedsnr" v="159584" />
		<tag k="waterway" v="stream" />
	</node>
	<node id="-584597" lat="62.8071416682" lon="7.9635333244">
		<tag k="name" v="Jevikneset" />
		<tag k="natural" v="cape" />
		<tag k="ssr:stedsnr" v="159515" />
	</node>
	<node id="-584584" lat="62.7860222188" lon="8.15102777942">
		<tag k="name" v="Bytbekken" />
		<tag k="ssr:stedsnr" v="159389" />
		<tag k="waterway" v="stream" />
	</node>
	<node id="-584575" lat="62.7530916623" lon="7.80055833332">
		<tag k="name" v="Hjellbekken" />
		<tag k="ssr:stedsnr" v="159675" />
		<tag k="waterway" v="stream" />
	</node>
	<node id="-584572" lat="62.7556305569" lon="7.83025000063">
		<tag k="name" v="Bytingsbekken" />
		<tag k="ssr:stedsnr" v="159656" />
		<tag k="waterway" v="stream" />
	</node>
	<node id="-584567" lat="62.7805388901" lon="7.87014444662">
		<tag k="name" v="Tennholmen" />
		<tag k="place" v="islet" />
		<tag k="ssr:stedsnr" v="159629" />
	</node>
	<node id="-584545" lat="62.4821472235" lon="8.17835833628">
		<tag k="name" v="Tyvika" />
		<tag k="natural" v="bay" />
		<tag k="ssr:stedsnr" v="158157" />
	</node>
	<node id="-584516" lat="62.7644694456" lon="8.15889444313">
		<tag k="name" v="Meisalvatnet" />
		<tag k="natural" v="water" />
		<tag k="ssr:stedsnr" v="132640" />
		<tag k="water" v="lake" />
	</node>
	<node id="-584514" lat="62.7793999989" lon="7.87332499619">
		<tag k="name" v="Gammelsetervatnet" />
		<tag k="natural" v="water" />
		<tag k="ssr:stedsnr" v="132606" />
		<tag k="water" v="lake" />
	</node>
	<node id="-584506" lat="62.6939361124" lon="7.89138889204">
		<tag k="alt_name" v="Grøvla, fremre" />
		<tag k="name" v="Fremre Grøvla" />
		<tag k="ssr:stedsnr" v="132417" />
		<tag k="waterway" v="stream" />
	</node>
	<node id="-584504" lat="62.4031694423" lon="8.41127499632">
		<tag k="name" v="Fantenilshølen" />
		<tag k="place" v="locality" />
		<tag k="ssr:stedsnr" v="132286" />
	</node>
	<node id="-584502" lat="62.6594333346" lon="8.06848889437">
		<tag k="name" v="Solhjellvatnet" />
		<tag k="natural" v="water" />
		<tag k="ssr:stedsnr" v="132260" />
	</node>
	<node id="-584491" lat="62.6946777771" lon="7.9610138894">
		<tag k="name" v="Vommabekken" />
		<tag k="ssr:stedsnr" v="98969" />
		<tag k="waterway" v="stream" />
	</node>
	<node id="-584488" lat="62.7216527741" lon="7.91098888031">
		<tag k="name" v="Svartfonnbekken" />
		<tag k="ssr:stedsnr" v="98954" />
		<tag k="waterway" v="stream" />
	</node>
	<node id="-584483" lat="62.7153444413" lon="7.84711943977">
		<tag k="name" v="Elgeneselva" />
		<tag k="ssr:stedsnr" v="98912" />
		<tag k="waterway" v="river" />
	</node>
	<node id="-584481" lat="62.7114527744" lon="7.78359167313">
		<tag k="name" v="Bardtjønna" />
		<tag k="natural" v="water" />
		<tag k="ssr:stedsnr" v="98901" />
	</node>
	<node id="-584479" lat="62.6952527771" lon="7.8763027788">
		<tag k="name" v="Langbekken" />
		<tag k="ssr:stedsnr" v="98878" />
		<tag k="waterway" v="stream" />
	</node>
	<node id="-584478" lat="62.6142111128" lon="8.14537500034">
		<tag k="name" v="Inste Rotvika" />
		<tag k="natural" v="bay" />
		<tag k="ssr:stedsnr" v="98874" />
	</node>
	<node id="-584475" lat="62.4868694465" lon="8.1473166648">
		<tag k="name" v="Tømmersanden" />
		<tag k="natural" v="beach" />
		<tag k="ssr:stedsnr" v="98858" />
	</node>
	<node id="-584472" lat="62.6649055559" lon="8.13807223023">
		<tag k="name" v="Korssvabekken" />
		<tag k="ssr:stedsnr" v="98834" />
		<tag k="waterway" v="stream" />
	</node>
	<node id="-584463" lat="62.4954055532" lon="8.16910277192">
		<tag k="name" v="Fløsanden" />
		<tag k="natural" v="beach" />
		<tag k="ssr:stedsnr" v="98785" />
	</node>
	<node id="-584462" lat="62.4759388848" lon="8.17205556411">
		<tag k="name" v="Sandgrovosen" />
		<tag k="natural" v="bay" />
		<tag k="ssr:stedsnr" v="98783" />
	</node>
	<node id="-584461" lat="62.458719447" lon="8.23912500192">
		<tag k="name" v="Lauvsteinneset" />
		<tag k="natural" v="cape" />
		<tag k="ssr:stedsnr" v="98769" />
	</node>
	<node id="-584452" lat="62.8049583375" lon="7.81027221831">
		<tag k="name" v="Holman" />
		<tag k="place" v="islet" />
		<tag k="ssr:stedsnr" v="98661" />
	</node>
	<node id="-584447" lat="62.8045138919" lon="7.82655277583">
		<tag k="name" v="Bakkevoran" />
		<tag k="natural" v="beach" />
		<tag k="ssr:stedsnr" v="98548" />
	</node>
	<node id="-584433" lat="62.7555444438" lon="7.77851389085">
		<tag k="name" v="Nedre Strøppeltjønna" />
		<tag k="natural" v="water" />
		<tag k="ssr:stedsnr" v="98591" />
	</node>
	<node id="-584419" lat="62.7618500045" lon="8.08809722358">
		<tag k="name" v="Langsetbekken" />
		<tag k="ssr:stedsnr" v="98397" />
		<tag k="waterway" v="stream" />
	</node>
	<node id="-584416" lat="62.6876027741" lon="8.10382222856">
		<tag k="name" v="Svabekken" />
		<tag k="ssr:stedsnr" v="98376" />
		<tag k="waterway" v="stream" />
	</node>
	<node id="-584414" lat="62.776455558" lon="8.13678888854">
		<tag k="name" v="Råkbekken" />
		<tag k="ssr:stedsnr" v="98369" />
		<tag k="waterway" v="stream" />
	</node>
	<node id="-584408" lat="62.679125003" lon="8.11805555375">
		<tag k="name" v="Husbybekken" />
		<tag k="ssr:stedsnr" v="98460" />
		<tag k="waterway" v="stream" />
	</node>
	<node id="-584404" lat="62.7726527811" lon="8.24203610438">
		<tag k="name" v="Seterbekken" />
		<tag k="ssr:stedsnr" v="98333" />
		<tag k="waterway" v="stream" />
	</node>
	<node id="-584403" lat="62.7682222258" lon="8.20983888964">
		<tag k="name" v="Kaldbekken" />
		<tag k="ssr:stedsnr" v="98329" />
		<tag k="waterway" v="stream" />
	</node>
	<node id="-584401" lat="62.8234361108" lon="8.05338334302">
		<tag k="name" v="Midtvatnet" />
		<tag k="natural" v="water" />
		<tag k="ssr:stedsnr" v="98308" />
		<tag k="water" v="lake" />
	</node>
	<node id="-584397" lat="62.5078833314" lon="8.14311944314">
		<tag k="name" v="Fløtelva" />
		<tag k="ssr:stedsnr" v="98127" />
		<tag k="waterway" v="stream" />
	</node>
	<node id="-584395" lat="62.5594055587" lon="8.17423055169">
		<tag k="name" v="Spelen" />
		<tag k="natural" v="cape" />
		<tag k="ssr:stedsnr" v="98125" />
	</node>
	<node id="-583799" lat="62.8294861127" lon="7.8323444416">
		<tag k="name" v="Fagerløkhølen" />
		<tag k="place" v="locality" />
		<tag k="ssr:stedsnr" v="341593" />
	</node>
	<node id="-584364" lat="62.7449722182" lon="8.10636943527">
		<tag k="name" v="Boggeelva" />
		<tag k="ssr:stedsnr" v="72461" />
		<tag k="waterway" v="stream" />
	</node>
	<node id="-584360" lat="62.7127527737" lon="7.88370277601">
		<tag k="name" v="Sandnesvatnet" />
		<tag k="natural" v="water" />
		<tag k="ssr:stedsnr" v="72433" />
	</node>
	<node id="-584353" lat="62.3852361072" lon="8.34870277977">
		<tag k="alt_name" v="Løypåna" />
		<tag k="name" v="Løypåa" />
		<tag k="ssr:stedsnr" v="72342" />
		<tag k="waterway" v="stream" />
	</node>
	<node id="-584351" lat="62.593222222" lon="8.14572777317">
		<tag k="name" v="Elingsvika" />
		<tag k="natural" v="bay" />
		<tag k="ssr:stedsnr" v="72309" />
	</node>
	<node id="-584350" lat="62.3942499968" lon="8.31663056222">
		<tag k="name" v="Gjølbekken" />
		<tag k="ssr:stedsnr" v="72307" />
		<tag k="waterway" v="stream" />
	</node>
	<node id="-584349" lat="62.6036555548" lon="8.18700000357">
		<tag k="name" v="Fløtaelva" />
		<tag k="ssr:stedsnr" v="72304" />
		<tag k="waterway" v="stream" />
	</node>
	<node id="-584346" lat="62.6704611148" lon="7.90751388294">
		<tag k="name" v="Ljøsåna" />
		<tag k="ssr:stedsnr" v="72285" />
		<tag k="waterway" v="stream" />
	</node>
	<node id="-584339" lat="62.5613305591" lon="8.17123054829">
		<tag k="name" v="Førneset" />
		<tag k="natural" v="cape" />
		<tag k="ssr:stedsnr" v="72168" />
	</node>
	<node id="-584338" lat="62.5679416648" lon="8.11228888302">
		<tag k="alt_name" v="Hoemelva" />
		<tag k="name" v="Hoemselva" />
		<tag k="ssr:stedsnr" v="72156" />
		<tag k="waterway" v="stream" />
	</node>
	<node id="-584337" lat="62.475399996" lon="8.30926666597">
		<tag k="name" v="Trollvassosen" />
		<tag k="natural" v="bay" />
		<tag k="ssr:stedsnr" v="72155" />
	</node>
	<node id="-584130" lat="62.6956527809" lon="7.87889721591">
		<tag k="name" v="Heiabekken" />
		<tag k="ssr:stedsnr" v="887890" />
		<tag k="waterway" v="stream" />
	</node>
	<node id="-583788" lat="62.7996472249" lon="8.02501666179">
		<tag k="name" v="Nedre Solbjørvatnet" />
		<tag k="natural" v="water" />
		<tag k="ssr:stedsnr" v="341471" />
	</node>
	<node id="-584312" lat="62.7492750016" lon="8.12416388774">
		<tag k="name" v="Tverrbekkan" />
		<tag k="ssr:stedsnr" v="38507" />
		<tag k="waterway" v="stream" />
	</node>
	<node id="-584307" lat="62.7481611089" lon="8.04843333408">
		<tag k="name" v="Bytingsbekken" />
		<tag k="ssr:stedsnr" v="38399" />
		<tag k="waterway" v="stream" />
	</node>
	<node id="-584305" lat="62.7869472195" lon="8.21269721715">
		<tag k="name" v="Svenslielva" />
		<tag k="ssr:stedsnr" v="38384" />
		<tag k="waterway" v="stream" />
	</node>
	<node id="-584296" lat="62.7906555521" lon="8.19098054602">
		<tag k="name" v="Oddlielva" />
		<tag k="ssr:stedsnr" v="38295" />
		<tag k="waterway" v="stream" />
	</node>
	<node id="-584295" lat="62.6815472231" lon="8.12209444425">
		<tag k="name" v="Nausteelva" />
		<tag k="ssr:stedsnr" v="38115" />
		<tag k="waterway" v="river" />
	</node>
	<node id="-584282" lat="62.7154611132" lon="7.75476110242">
		<tag k="name" v="Sjølaupbekken" />
		<tag k="ssr:stedsnr" v="37935" />
		<tag k="waterway" v="stream" />
	</node>
	<node id="-584275" lat="62.6127361077" lon="8.14950555821">
		<tag k="name" v="Hansarhella" />
		<tag k="natural" v="cape" />
		<tag k="ssr:stedsnr" v="37881" />
	</node>
	<node id="-584273" lat="62.4924916711" lon="8.14376945209">
		<tag k="name" v="Mardalssanden" />
		<tag k="natural" v="beach" />
		<tag k="ssr:stedsnr" v="37860" />
	</node>
	<node id="-584271" lat="62.6284527745" lon="8.15591945384">
		<tag k="name" v="Svarthammarbekken" />
		<tag k="ssr:stedsnr" v="37833" />
		<tag k="waterway" v="stream" />
	</node>
	<node id="-584253" lat="62.7798944477" lon="7.98976667231">
		<tag k="name" v="Bulautbekken" />
		<tag k="ssr:stedsnr" v="37602" />
		<tag k="waterway" v="stream" />
	</node>
	<node id="-584251" lat="62.7782444484" lon="7.96618610851">
		<tag k="name" v="Reinvassbekken" />
		<tag k="ssr:stedsnr" v="37599" />
		<tag k="waterway" v="stream" />
	</node>
	<node id="-584249" lat="62.7642722227" lon="7.78711943757">
		<tag k="name" v="Ytste Domvatnet" />
		<tag k="natural" v="water" />
		<tag k="ssr:stedsnr" v="37583" />
	</node>
	<node id="-584246" lat="62.8419305569" lon="8.11412778048">
		<tag k="name" v="Kleivdammen" />
		<tag k="ssr:stedsnr" v="37570" />
		<tag k="waterway" v="dam" />
	</node>
	<node id="-584242" lat="62.8363222207" lon="8.02934165949">
		<tag k="name" v="Svartakseltjønna" />
		<tag k="natural" v="water" />
		<tag k="ssr:stedsnr" v="37562" />
	</node>
	<node id="-584232" lat="62.7847972208" lon="7.89425832564">
		<tag k="name" v="Fremste Gammelseterelva" />
		<tag k="ssr:stedsnr" v="37512" />
		<tag k="waterway" v="stream" />
	</node>
	<node id="-584226" lat="62.6294972198" lon="8.09894166552">
		<tag k="name" v="Storodden" />
		<tag k="natural" v="cape" />
		<tag k="ssr:stedsnr" v="37461" />
	</node>
	<node id="-584219" lat="62.6758388923" lon="8.24105556465">
		<tag k="name" v="Fossan" />
		<tag k="ssr:stedsnr" v="37138" />
		<tag k="waterway" v="rapids" />
	</node>
	<node id="-583977" lat="62.7138749963" lon="7.74291388776">
		<tag k="name" v="Sommarfjøsbekken" />
		<tag k="ssr:stedsnr" v="401895" />
		<tag k="waterway" v="stream" />
	</node>
	<node id="-584209" lat="62.4263166632" lon="8.31383333298">
		<tag k="name" v="Fjørå" />
		<tag k="place" v="islet" />
		<tag k="ssr:stedsnr" v="37096" />
	</node>
	<node id="-584207" lat="62.7264000043" lon="8.02655000531">
		<tag k="loc_name" v="Gusjåselva" />
		<tag k="name" v="Storelva" />
		<tag k="ssr:stedsnr" v="37088" />
		<tag k="waterway" v="stream" />
	</node>
	<node id="-584206" lat="62.6947722179" lon="8.0118999982">
		<tag k="name" v="Grova" />
		<tag k="ssr:stedsnr" v="37084" />
		<tag k="waterway" v="stream" />
	</node>
	<node id="-584190" lat="62.7931361156" lon="7.80582500032">
		<tag k="alt_name" v="Plassabekken" />
		<tag k="name" v="Sagbekken" />
		<tag k="ssr:stedsnr" v="12594" />
		<tag k="waterway" v="stream" />
	</node>
	<node id="-584188" lat="62.8025583347" lon="8.00911389113">
		<tag k="name" v="Haravatnet" />
		<tag k="natural" v="water" />
		<tag k="ssr:stedsnr" v="12575" />
	</node>
	<node id="-584187" lat="62.8023500031" lon="8.02049722923">
		<tag k="name" v="Solbjørvatna" />
		<tag k="natural" v="water" />
		<tag k="ssr:stedsnr" v="12572" />
	</node>
	<node id="-584184" lat="62.8425444484" lon="8.09101667475">
		<tag k="name" v="Holåvollbekken" />
		<tag k="ssr:stedsnr" v="12527" />
		<tag k="waterway" v="stream" />
	</node>
	<node id="-584182" lat="62.6093805587" lon="8.15173333254">
		<tag k="name" v="Kårneset" />
		<tag k="natural" v="cape" />
		<tag k="ssr:stedsnr" v="12337" />
	</node>
	<node id="-584181" lat="62.4986388847" lon="8.07405000829">
		<tag k="name" v="Nedste Mardalsvatnet" />
		<tag k="natural" v="water" />
		<tag k="ssr:stedsnr" v="12827" />
		<tag k="water" v="lake" />
	</node>
	<node id="-584180" lat="62.5280638869" lon="8.28848610663">
		<tag k="name" v="Glupen" />
		<tag k="natural" v="water" />
		<tag k="ssr:stedsnr" v="12100" />
	</node>
	<node id="-584178" lat="62.7520000031" lon="8.17688888251">
		<tag k="name" v="Jutulvatnet" />
		<tag k="natural" v="water" />
		<tag k="ssr:stedsnr" v="11634" />
	</node>
	<node id="-584176" lat="62.7710666628" lon="8.19228610341">
		<tag k="name" v="Meisalelva" />
		<tag k="ssr:stedsnr" v="11613" />
		<tag k="waterway" v="river" />
	</node>
	<node id="-584172" lat="62.7861944414" lon="7.8542472315">
		<tag k="name" v="Skjørsetervatnet" />
		<tag k="natural" v="water" />
		<tag k="ssr:stedsnr" v="11580" />
		<tag k="water" v="lake" />
	</node>
	<node id="-584165" lat="62.6341583322" lon="7.84348333314">
		<tag k="name" v="Litlevatnet" />
		<tag k="natural" v="water" />
		<tag k="ssr:stedsnr" v="11366" />
	</node>
	<node id="-584161" lat="62.4477083308" lon="8.45283612026">
		<tag k="name" v="Midtlægervatnet" />
		<tag k="natural" v="water" />
		<tag k="ssr:stedsnr" v="11317" />
	</node>
	<node id="-584159" lat="62.3998388872" lon="8.4880500083">
		<tag k="name" v="Hellevadet" />
		<tag k="place" v="locality" />
		<tag k="ssr:stedsnr" v="11307" />
	</node>
	<node id="-584156" lat="62.6631194436" lon="8.06407777251">
		<tag k="name" v="Turhusvatnet" />
		<tag k="natural" v="water" />
		<tag k="ssr:stedsnr" v="11267" />
	</node>
	<node id="-584152" lat="62.4572111089" lon="8.23432499111">
		<tag k="name" v="Hestneset" />
		<tag k="natural" v="cape" />
		<tag k="ssr:stedsnr" v="11176" />
	</node>
	<node id="-584150" lat="62.4358555563" lon="8.15950000938">
		<tag k="name" v="Børtjønnin" />
		<tag k="natural" v="water" />
		<tag k="ssr:stedsnr" v="11099" />
	</node>
	<node id="-586189" lat="62.7060472266" lon="7.969755562">
		<tag k="name" v="Geitmjølkbekken" />
		<tag k="ssr:stedsnr" v="948993" />
		<tag k="waterway" v="stream" />
	</node>
	<node id="-586185" lat="62.7180916684" lon="7.91688333716">
		<tag k="name" v="Vedafonnbekken" />
		<tag k="ssr:stedsnr" v="948977" />
		<tag k="waterway" v="stream" />
	</node>
	<node id="-584134" lat="62.6539277746" lon="7.97457778037">
		<tag k="name" v="Kalvgeilåna" />
		<tag k="ssr:stedsnr" v="887912" />
		<tag k="waterway" v="stream" />
	</node>
	<node id="-586178" lat="62.7342666676" lon="7.86453888268">
		<tag k="name" v="Sjarmyrbekken" />
		<tag k="ssr:stedsnr" v="948946" />
		<tag k="waterway" v="stream" />
	</node>
	<node id="-584128" lat="62.5409861092" lon="8.15793333917">
		<tag k="name" v="Fåtjønnin" />
		<tag k="natural" v="water" />
		<tag k="ssr:stedsnr" v="887872" />
	</node>
	<node id="-586175" lat="62.6936166663" lon="7.88042777042">
		<tag k="name" v="Elvekrokan" />
		<tag k="ssr:stedsnr" v="948916" />
		<tag k="waterway" v="stream" />
	</node>
	<node id="-584125" lat="62.5401694453" lon="8.18450000685">
		<tag k="name" v="Kobbesteinbukta" />
		<tag k="natural" v="bay" />
		<tag k="ssr:stedsnr" v="887862" />
	</node>
	<node id="-586172" lat="62.5237694435" lon="8.16946944957">
		<tag k="name" v="Peilemnet" />
		<tag k="natural" v="bay" />
		<tag k="ssr:stedsnr" v="948908" />
	</node>
	<node id="-584095" lat="62.788411112" lon="7.84472221427">
		<tag k="name" v="Svarttjønnbekken" />
		<tag k="ssr:stedsnr" v="887634" />
		<tag k="waterway" v="stream" />
	</node>
	<node id="-586166" lat="62.4690166634" lon="8.19344444233">
		<tag k="name" v="Sløholmen" />
		<tag k="place" v="islet" />
		<tag k="ssr:stedsnr" v="948845" />
	</node>
	<node id="-586163" lat="62.807002778" lon="7.97444167612">
		<tag k="name" v="Berget" />
		<tag k="natural" v="cape" />
		<tag k="ssr:stedsnr" v="948827" />
	</node>
	<node id="-584107" lat="62.748333334" lon="7.7570472187">
		<tag k="name" v="Seterelva" />
		<tag k="ssr:stedsnr" v="887714" />
		<tag k="waterway" v="stream" />
	</node>
	<node id="-586154" lat="62.7844805522" lon="7.86623333398">
		<tag k="name" v="Tverrelva" />
		<tag k="ssr:stedsnr" v="948694" />
		<tag k="waterway" v="stream" />
	</node>
	<node id="-586152" lat="62.7998472236" lon="7.85477777594">
		<tag k="name" v="Storhølen" />
		<tag k="place" v="locality" />
		<tag k="ssr:stedsnr" v="948690" />
	</node>
	<node id="-586147" lat="62.7808888857" lon="7.84216388001">
		<tag k="name" v="Skjørlibekken" />
		<tag k="ssr:stedsnr" v="948654" />
		<tag k="waterway" v="stream" />
	</node>
	<node id="-586143" lat="62.7270916704" lon="7.68880556368">
		<tag k="name" v="Litleløypet" />
		<tag k="place" v="locality" />
		<tag k="ssr:stedsnr" v="948626" />
	</node>
	<node id="-584093" lat="62.8077416702" lon="7.99863611451">
		<tag k="name" v="Mørkvasselva" />
		<tag k="ssr:stedsnr" v="887501" />
		<tag k="waterway" v="river" />
	</node>
	<node id="-586138" lat="62.8211305599" lon="7.86246112031">
		<tag k="name" v="Vetabekken" />
		<tag k="ssr:stedsnr" v="948583" />
		<tag k="waterway" v="stream" />
	</node>
	<node id="-586135" lat="62.6314416701" lon="8.10166945311">
		<tag k="name" v="Osen" />
		<tag k="natural" v="bay" />
		<tag k="ssr:stedsnr" v="948569" />
	</node>
	<node id="-586130" lat="62.8098027821" lon="7.9556388957">
		<tag k="name" v="Jevikløken" />
		<tag k="ssr:stedsnr" v="948543" />
		<tag k="waterway" v="stream" />
	</node>
	<node id="-586122" lat="62.7899805594" lon="8.1203583426">
		<tag k="name" v="Tiltereidet" />
		<tag k="natural" v="strait" />
		<tag k="ssr:stedsnr" v="948470" />
	</node>
	<node id="-586116" lat="62.7799055581" lon="8.0786527694">
		<tag k="name" v="Geilhølan" />
		<tag k="place" v="locality" />
		<tag k="ssr:stedsnr" v="948439" />
	</node>
	<node id="-586114" lat="62.7537916663" lon="8.03395277873">
		<tag k="name" v="Prestbekken" />
		<tag k="ssr:stedsnr" v="948427" />
		<tag k="waterway" v="stream" />
	</node>
	<node id="-584061" lat="62.4850694452" lon="8.17511111395">
		<tag k="name" v="Sømnet" />
		<tag k="natural" v="beach" />
		<tag k="ssr:stedsnr" v="887129" />
	</node>
	<node id="-583972" lat="62.606455553" lon="8.17170278221">
		<tag k="name" v="Fløtabukta" />
		<tag k="natural" v="bay" />
		<tag k="ssr:stedsnr" v="401841" />
	</node>
	<node id="-586107" lat="62.8083166647" lon="8.06938055053">
		<tag k="name" v="Seterbekken" />
		<tag k="ssr:stedsnr" v="948349" />
		<tag k="waterway" v="stream" />
	</node>
	<node id="-584054" lat="62.5885444411" lon="8.1729499958">
		<tag k="name" v="Tongelva" />
		<tag k="ssr:stedsnr" v="887102" />
		<tag k="waterway" v="stream" />
	</node>
	<node id="-586097" lat="62.5939888912" lon="8.17227222048">
		<tag k="name" v="Simegå" />
		<tag k="ssr:stedsnr" v="948114" />
		<tag k="waterway" v="stream" />
	</node>
	<node id="-586096" lat="62.4374972258" lon="8.29120277997">
		<tag k="name" v="Kuøyna" />
		<tag k="place" v="island" />
		<tag k="ssr:stedsnr" v="948088" />
	</node>
	<node id="-586089" lat="62.7887111117" lon="8.09830278387">
		<tag k="name" v="Damhølan" />
		<tag k="place" v="locality" />
		<tag k="ssr:stedsnr" v="947708" />
	</node>
	<node id="-586087" lat="62.7340972192" lon="8.15179721653">
		<tag k="name" v="Odden" />
		<tag k="natural" v="cape" />
		<tag k="ssr:stedsnr" v="947694" />
	</node>
	<node id="-586086" lat="62.7476055541" lon="7.75493889454">
		<tag k="name" v="Brudesløret" />
		<tag k="natural" v="waterfall" />
		<tag k="ssr:stedsnr" v="947684" />
	</node>
	<node id="-586084" lat="62.6203111097" lon="8.13070832997">
		<tag k="name" v="Olagjerdneset" />
		<tag k="natural" v="cape" />
		<tag k="ssr:stedsnr" v="947418" />
	</node>
	<node id="-586083" lat="62.6685944469" lon="8.08845277165">
		<tag k="name" v="Gryta" />
		<tag k="ssr:stedsnr" v="947389" />
		<tag k="waterway" v="river" />
	</node>
	<node id="-584029" lat="62.7770027736" lon="8.27077222508">
		<tag k="name" v="Hyllbekken" />
		<tag k="ssr:stedsnr" v="887542" />
		<tag k="waterway" v="stream" />
	</node>
	<node id="-586076" lat="62.649952782" lon="7.84668054814">
		<tag k="name" v="Teppinga" />
		<tag k="ssr:stedsnr" v="947047" />
		<tag k="waterway" v="rapids" />
	</node>
	<node id="-586073" lat="62.552744442" lon="8.22216945141">
		<tag k="name" v="Ytstevatnet" />
		<tag k="natural" v="water" />
		<tag k="ssr:stedsnr" v="931744" />
		<tag k="water" v="lake" />
	</node>
	<node id="-586072" lat="62.6319833341" lon="8.00059722618">
		<tag k="name" v="Visa" />
		<tag k="ssr:stedsnr" v="930219" />
		<tag k="waterway" v="river" />
	</node>
	<node id="-586068" lat="62.781097221" lon="8.14484167528">
		<tag k="name" v="Myrsetelva" />
		<tag k="ssr:stedsnr" v="922582" />
		<tag k="waterway" v="stream" />
	</node>
	<node id="-586067" lat="62.7848500029" lon="8.03377777393">
		<tag k="name" v="Klokkarelva" />
		<tag k="ssr:stedsnr" v="922576" />
		<tag k="waterway" v="stream" />
	</node>
	<node id="-586066" lat="62.7755111151" lon="7.80332499256">
		<tag k="name" v="Nørdre Sotnakkvatnet" />
		<tag k="natural" v="water" />
		<tag k="ssr:stedsnr" v="922569" />
	</node>
	<node id="-586065" lat="62.7451888846" lon="7.75593055428">
		<tag k="name" v="Åramselva" />
		<tag k="ssr:stedsnr" v="922449" />
		<tag k="waterway" v="stream" />
	</node>
	<node id="-584013" lat="62.7753444409" lon="7.91901111227">
		<tag k="name" v="Fosså" />
		<tag k="ssr:stedsnr" v="402661" />
		<tag k="waterway" v="stream" />
	</node>
	<node id="-586060" lat="62.3579583366" lon="8.31536944842">
		<tag k="name" v="Nørdre Isløyptjønna" />
		<tag k="natural" v="water" />
		<tag k="ssr:stedsnr" v="922343" />
	</node>
	<node id="-586059" lat="62.3596666658" lon="8.3442750036">
		<tag k="name" v="Nilstjønna" />
		<tag k="natural" v="water" />
		<tag k="ssr:stedsnr" v="922341" />
	</node>
	<node id="-584010" lat="62.7974777822" lon="8.05782777334">
		<tag k="name" v="Kleppvassholmen" />
		<tag k="place" v="islet" />
		<tag k="ssr:stedsnr" v="402459" />
	</node>
	<node id="-584009" lat="62.7749305571" lon="8.02090000567">
		<tag k="name" v="Klokkarelva" />
		<tag k="ssr:stedsnr" v="402443" />
		<tag k="waterway" v="stream" />
	</node>
	<node id="-584004" lat="62.7872750043" lon="8.22891388932">
		<tag k="name" v="Storbekken" />
		<tag k="ssr:stedsnr" v="402393" />
		<tag k="waterway" v="stream" />
	</node>
	<node id="-586051" lat="62.4830833345" lon="8.09820000295">
		<tag k="name" v="Ytste Mardøla" />
		<tag k="ssr:stedsnr" v="922078" />
		<tag k="waterway" v="river" />
	</node>
	<node id="-583997" lat="62.7955583322" lon="8.17104443978">
		<tag k="name" v="Sjøåkerbekken" />
		<tag k="ssr:stedsnr" v="402278" />
		<tag k="waterway" v="stream" />
	</node>
	<node id="-586042" lat="62.4158611093" lon="8.36964166583">
		<tag k="name" v="Slættabekken" />
		<tag k="ssr:stedsnr" v="921359" />
		<tag k="waterway" v="stream" />
	</node>
	<node id="-586040" lat="62.4230527785" lon="8.2706499953">
		<tag k="alt_name" v="Høvlå" />
		<tag k="name" v="Høvla" />
		<tag k="ssr:stedsnr" v="921355" />
		<tag k="waterway" v="stream" />
	</node>
	<node id="-586038" lat="62.5881166654" lon="8.15587778264">
		<tag k="name" v="Elingsneset" />
		<tag k="natural" v="cape" />
		<tag k="ssr:stedsnr" v="921339" />
	</node>
	<node id="-583989" lat="62.6866583374" lon="7.96321667466">
		<tag k="name" v="Gammelfonnbekken" />
		<tag k="ssr:stedsnr" v="401980" />
		<tag k="waterway" v="stream" />
	</node>
	<node id="-583987" lat="62.6945111133" lon="7.94946944502">
		<tag k="name" v="Fonnabekken" />
		<tag k="ssr:stedsnr" v="401974" />
		<tag k="waterway" v="stream" />
	</node>
	<node id="-586032" lat="62.4925000041" lon="8.25461111816">
		<tag k="name" v="Kjøtåvatnet" />
		<tag k="natural" v="water" />
		<tag k="ssr:stedsnr" v="921148" />
		<tag k="water" v="lake" />
	</node>
	<node id="-583833" lat="62.6642194455" lon="8.01894444557">
		<tag k="name" v="Rishaugbekken" />
		<tag k="ssr:stedsnr" v="341835" />
		<tag k="waterway" v="stream" />
	</node>
	<node id="-586028" lat="62.5078694488" lon="8.22333889544">
		<tag k="name" v="Ytste Kjøtåvatnet" />
		<tag k="natural" v="water" />
		<tag k="ssr:stedsnr" v="870718" />
		<tag k="water" v="lake" />
	</node>
	<node id="-586025" lat="62.8124888907" lon="8.11984167078">
		<tag k="name" v="Bersåselva" />
		<tag k="ssr:stedsnr" v="862558" />
		<tag k="waterway" v="stream" />
	</node>
	<node id="-583976" lat="62.7144972195" lon="7.74563889111">
		<tag k="name" v="Klungerbekken" />
		<tag k="ssr:stedsnr" v="401894" />
		<tag k="waterway" v="stream" />
	</node>
	<node id="-586023" lat="62.8062722232" lon="7.91603888664">
		<tag k="name" v="Litle Vetavatnet" />
		<tag k="natural" v="water" />
		<tag k="ssr:stedsnr" v="862552" />
	</node>
	<node id="-586022" lat="62.8069388891" lon="8.01912777202">
		<tag k="alt_name" v="Paulvatnet" />
		<tag k="name" v="Paulavatnet" />
		<tag k="natural" v="water" />
		<tag k="ssr:stedsnr" v="862545" />
	</node>
	<node id="-586020" lat="62.8215083363" lon="8.06425000856">
		<tag k="name" v="Neverlitjørna" />
		<tag k="natural" v="water" />
		<tag k="ssr:stedsnr" v="862528" />
	</node>
	<node id="-586019" lat="62.8205166664" lon="8.04775832747">
		<tag k="name" v="Svartløken" />
		<tag k="natural" v="water" />
		<tag k="ssr:stedsnr" v="862526" />
	</node>
	<node id="-583970" lat="62.5483638853" lon="8.1851972278">
		<tag k="name" v="Steingjerdet" />
		<tag k="natural" v="beach" />
		<tag k="ssr:stedsnr" v="401836" />
	</node>
	<node id="-583969" lat="62.5743027803" lon="8.17926667222">
		<tag k="name" v="Sandoddan" />
		<tag k="natural" v="cape" />
		<tag k="ssr:stedsnr" v="401834" />
	</node>
	<node id="-586016" lat="62.7797499959" lon="8.08578055614">
		<tag k="name" v="Eidsvågelva" />
		<tag k="ssr:stedsnr" v="861574" />
		<tag k="waterway" v="river" />
	</node>
	<node id="-583967" lat="62.4906888852" lon="8.1484972149">
		<tag k="name" v="Mardalsneset" />
		<tag k="natural" v="cape" />
		<tag k="ssr:stedsnr" v="401818" />
	</node>
	<node id="-586008" lat="62.7180249997" lon="8.18156943865">
		<tag k="name" v="Stranddalsvatnet" />
		<tag k="natural" v="water" />
		<tag k="ssr:stedsnr" v="861428" />
	</node>
	<node id="-583954" lat="62.4547499972" lon="8.24488054744">
		<tag k="name" v="Ekornholmen" />
		<tag k="place" v="islet" />
		<tag k="ssr:stedsnr" v="401746" />
	</node>
	<node id="-585999" lat="62.6321888873" lon="7.90330555643">
		<tag k="name" v="Mørkvatnet" />
		<tag k="natural" v="water" />
		<tag k="ssr:stedsnr" v="861335" />
		<tag k="water" v="lake" />
	</node>
	<node id="-585997" lat="62.3843055522" lon="8.44287499158">
		<tag k="name" v="Tverrbergbekken" />
		<tag k="ssr:stedsnr" v="861332" />
		<tag k="waterway" v="stream" />
	</node>
	<node id="-583947" lat="62.7534138899" lon="7.73121666964">
		<tag k="name" v="Litlevatnet" />
		<tag k="natural" v="water" />
		<tag k="ssr:stedsnr" v="401696" />
		<tag k="water" v="lake" />
	</node>
	<node id="-585994" lat="62.624566618" lon="8.10257842797">
		<tag k="name" v="Kvitneset" />
		<tag k="natural" v="cape" />
		<tag k="ssr:stedsnr" v="861316" />
	</node>
	<node id="-585986" lat="62.5072333368" lon="8.14657776843">
		<tag k="alt_name" v="Gunhildfløten" />
		<tag k="name" v="Gunhildsfløta" />
		<tag k="natural" v="cape" />
		<tag k="ssr:stedsnr" v="861203" />
	</node>
	<node id="-585982" lat="62.5407555574" lon="8.19429443894">
		<tag k="alt_name" v="Fløtelva" />
		<tag k="name" v="Fløtaelva" />
		<tag k="ssr:stedsnr" v="861135" />
		<tag k="waterway" v="stream" />
	</node>
	<node id="-585981" lat="62.5388944437" lon="8.13531111653">
		<tag k="name" v="Haudukbekken" />
		<tag k="ssr:stedsnr" v="861136" />
		<tag k="waterway" v="stream" />
	</node>
	<node id="-585979" lat="62.4626916628" lon="8.16934999728">
		<tag k="name" v="Sandgrova" />
		<tag k="ssr:stedsnr" v="861098" />
		<tag k="waterway" v="stream" />
	</node>
	<node id="-583928" lat="62.8073472223" lon="7.82412221417">
		<tag k="name" v="Fiskarneset" />
		<tag k="natural" v="cape" />
		<tag k="ssr:stedsnr" v="401509" />
	</node>
	<node id="-583926" lat="62.6807222251" lon="8.13217499186">
		<tag k="name" v="Dokkelva" />
		<tag k="ssr:stedsnr" v="401502" />
		<tag k="waterway" v="river" />
	</node>
	<node id="-585973" lat="62.4147000033" lon="8.14760555278">
		<tag k="name" v="Ytste Bruåbottvatnet" />
		<tag k="natural" v="water" />
		<tag k="ssr:stedsnr" v="860015" />
		<tag k="water" v="lake" />
	</node>
	<node id="-585966" lat="62.5606666658" lon="8.13840832805">
		<tag k="name" v="Olaskrebekken" />
		<tag k="ssr:stedsnr" v="827893" />
		<tag k="waterway" v="stream" />
	</node>
	<node id="-585964" lat="62.4885666628" lon="8.14828889351">
		<tag k="name" v="Mardalsholmen" />
		<tag k="place" v="islet" />
		<tag k="ssr:stedsnr" v="827880" />
	</node>
	<node id="-585963" lat="62.5038305518" lon="8.17050554896">
		<tag k="name" v="Sandoddan" />
		<tag k="natural" v="cape" />
		<tag k="ssr:stedsnr" v="827878" />
	</node>
	<node id="-583914" lat="62.6707500033" lon="8.12000554872">
		<tag k="name" v="Styrsøyna" />
		<tag k="natural" v="cape" />
		<tag k="ssr:stedsnr" v="401120" />
	</node>
	<node id="-585960" lat="62.6280805583" lon="8.15762222216">
		<tag k="name" v="Svabekken" />
		<tag k="ssr:stedsnr" v="827855" />
		<tag k="waterway" v="stream" />
	</node>
	<node id="-585958" lat="62.7153888873" lon="8.0554361042">
		<tag k="name" v="Kråkesteinbekken" />
		<tag k="ssr:stedsnr" v="827850" />
		<tag k="waterway" v="stream" />
	</node>
	<node id="-583908" lat="62.6209277772" lon="8.09345278118">
		<tag k="name" v="Kvitnesbekken" />
		<tag k="ssr:stedsnr" v="401074" />
		<tag k="waterway" v="stream" />
	</node>
	<node id="-585954" lat="62.431999997" lon="8.30617500959">
		<tag k="name" v="Espebekken" />
		<tag k="ssr:stedsnr" v="827810" />
		<tag k="waterway" v="stream" />
	</node>
	<node id="-583905" lat="62.6861555547" lon="7.99177499654">
		<tag k="name" v="Grova" />
		<tag k="ssr:stedsnr" v="401031" />
		<tag k="waterway" v="stream" />
	</node>
	<node id="-583900" lat="62.7957166662" lon="7.957933324">
		<tag k="name" v="Holmsvatnet" />
		<tag k="natural" v="water" />
		<tag k="ssr:stedsnr" v="376598" />
	</node>
	<node id="-583898" lat="62.8197861136" lon="7.93779444473">
		<tag k="name" v="Botnabekken" />
		<tag k="ssr:stedsnr" v="376551" />
		<tag k="waterway" v="stream" />
	</node>
	<node id="-583893" lat="62.7900944428" lon="7.95507500204">
		<tag k="name" v="Bekkavatnet" />
		<tag k="natural" v="water" />
		<tag k="ssr:stedsnr" v="375566" />
	</node>
	<node id="-585938" lat="62.6272777802" lon="8.11073332774">
		<tag k="name" v="Åsneset" />
		<tag k="natural" v="cape" />
		<tag k="ssr:stedsnr" v="827532" />
	</node>
	<node id="-585936" lat="62.7283972233" lon="8.12825277973">
		<tag k="name" v="Svabekken" />
		<tag k="ssr:stedsnr" v="827516" />
		<tag k="waterway" v="stream" />
	</node>
	<node id="-585935" lat="62.7841861095" lon="7.9956472231">
		<tag k="name" v="Tverrbekken" />
		<tag k="natural" v="water" />
		<tag k="ssr:stedsnr" v="827507" />
	</node>
	<node id="-583883" lat="62.6311222263" lon="8.17760833047">
		<tag k="name" v="Ljøsåna" />
		<tag k="ssr:stedsnr" v="375310" />
		<tag k="waterway" v="stream" />
	</node>
	<node id="-583881" lat="62.6141638868" lon="8.17123888969">
		<tag k="name" v="Stranda" />
		<tag k="natural" v="beach" />
		<tag k="ssr:stedsnr" v="375295" />
	</node>
	<node id="-583880" lat="62.3908194416" lon="8.2440250014">
		<tag k="name" v="Øvre Høvelvatnet" />
		<tag k="natural" v="water" />
		<tag k="ssr:stedsnr" v="375290" />
	</node>
	<node id="-583877" lat="62.4148500022" lon="8.40276110933">
		<tag k="name" v="Ytste Bukkeskredbekken" />
		<tag k="ssr:stedsnr" v="375276" />
		<tag k="waterway" v="stream" />
	</node>
	<node id="-585917" lat="62.7685138909" lon="8.22826110319">
		<tag k="name" v="Jordalsbekken" />
		<tag k="ssr:stedsnr" v="827370" />
		<tag k="waterway" v="stream" />
	</node>
	<node id="-585916" lat="62.7792555522" lon="8.23319722695">
		<tag k="name" v="Morsgogbekken" />
		<tag k="ssr:stedsnr" v="827365" />
		<tag k="waterway" v="stream" />
	</node>
	<node id="-583867" lat="62.6941555521" lon="7.90941389471">
		<tag k="name" v="Tverrelva" />
		<tag k="ssr:stedsnr" v="375214" />
		<tag k="waterway" v="river" />
	</node>
	<node id="-583863" lat="62.6790888852" lon="8.23744444045">
		<tag k="name" v="Dokkelva" />
		<tag k="ssr:stedsnr" v="375035" />
		<tag k="waterway" v="stream" />
	</node>
	<node id="-583861" lat="62.6612805523" lon="8.25917777349">
		<tag k="name" v="Frusalvatnet" />
		<tag k="natural" v="water" />
		<tag k="ssr:stedsnr" v="375005" />
		<tag k="water" v="lake" />
	</node>
	<node id="-585908" lat="62.7189861076" lon="7.97981111276">
		<tag k="name" v="Gauprørvatnet" />
		<tag k="natural" v="water" />
		<tag k="ssr:stedsnr" v="826948" />
		<tag k="water" v="lake" />
	</node>
	<node id="-583851" lat="62.6889527772" lon="7.89540832464">
		<tag k="name" v="Såtmyrbekken" />
		<tag k="ssr:stedsnr" v="341994" />
		<tag k="waterway" v="stream" />
	</node>
	<node id="-585897" lat="62.6931972255" lon="7.80615278099">
		<tag k="name" v="Blåfjellvatnet" />
		<tag k="natural" v="water" />
		<tag k="ssr:stedsnr" v="826885" />
	</node>
	<node id="-583848" lat="62.7140583347" lon="7.91358055118">
		<tag k="name" v="Korsbekken" />
		<tag k="ssr:stedsnr" v="341958" />
		<tag k="waterway" v="stream" />
	</node>
	<node id="-585895" lat="62.7021638897" lon="8.15756943536">
		<tag k="name" v="Strandelva" />
		<tag k="ssr:stedsnr" v="826825" />
		<tag k="waterway" v="river" />
	</node>
	<node id="-583846" lat="62.7319722231" lon="7.85134167488">
		<tag k="name" v="Myrbekken" />
		<tag k="ssr:stedsnr" v="341942" />
		<tag k="waterway" v="stream" />
	</node>
	<node id="-585893" lat="62.7809861104" lon="8.08744444744">
		<tag k="name" v="Løøya" />
		<tag k="place" v="island" />
		<tag k="ssr:stedsnr" v="826734" />
	</node>
	<node id="-583843" lat="62.5898333295" lon="8.14185000972">
		<tag k="name" v="Bytebekken" />
		<tag k="ssr:stedsnr" v="341896" />
		<tag k="waterway" v="stream" />
	</node>
	<node id="-585885" lat="62.8010194412" lon="7.83464445163">
		<tag k="name" v="Bakkebekken" />
		<tag k="ssr:stedsnr" v="826622" />
		<tag k="waterway" v="stream" />
	</node>
	<node id="-585884" lat="62.7655666685" lon="7.79335555638">
		<tag k="name" v="Nørdre Domvatnet" />
		<tag k="natural" v="water" />
		<tag k="ssr:stedsnr" v="826555" />
		<tag k="water" v="lake" />
	</node>
	<node id="-583834" lat="62.6847722266" lon="8.03315555293">
		<tag k="name" v="Breiskarelva" />
		<tag k="ssr:stedsnr" v="341846" />
		<tag k="waterway" v="river" />
	</node>
	<node id="-585881" lat="62.8197027813" lon="7.80781945247">
		<tag k="name" v="Storhølen" />
		<tag k="place" v="locality" />
		<tag k="ssr:stedsnr" v="826532" />
	</node>
	<node id="-583832" lat="62.4335694474" lon="8.29570832814">
		<tag k="name" v="Tvettarholmen" />
		<tag k="place" v="island" />
		<tag k="ssr:stedsnr" v="341816" />
	</node>
	<node id="-583831" lat="62.4265388873" lon="8.29615000465">
		<tag k="name" v="Avlshammarbekken" />
		<tag k="ssr:stedsnr" v="341813" />
		<tag k="waterway" v="stream" />
	</node>
	<node id="-585868" lat="62.7443861139" lon="7.97258332672">
		<tag k="name" v="Fevika" />
		<tag k="ssr:stedsnr" v="826114" />
		<tag k="waterway" v="drain" />
	</node>
	<node id="-583816" lat="62.7882861145" lon="7.82806111266">
		<tag k="name" v="Svarttjønna" />
		<tag k="natural" v="water" />
		<tag k="ssr:stedsnr" v="341694" />
	</node>
	<node id="-583815" lat="62.7872805565" lon="7.88138610608">
		<tag k="name" v="Sandbekken" />
		<tag k="ssr:stedsnr" v="341693" />
		<tag k="waterway" v="stream" />
	</node>
	<node id="-585862" lat="62.7140249982" lon="7.85155554675">
		<tag k="name" v="Fossen" />
		<tag k="natural" v="waterfall" />
		<tag k="ssr:stedsnr" v="826013" />
	</node>
	<node id="-585859" lat="62.7965277758" lon="8.05478889656">
		<tag k="name" v="Kleppvatnet" />
		<tag k="natural" v="water" />
		<tag k="ssr:stedsnr" v="801569" />
	</node>
	<node id="-585857" lat="62.8035222225" lon="7.85329999596">
		<tag k="alt_name" v="Bakkeelva" />
		<tag k="name" v="Skjørna" />
		<tag k="ssr:stedsnr" v="801558" />
		<tag k="waterway" v="river" />
	</node>
	<node id="-585856" lat="62.8299861102" lon="8.090930551">
		<tag k="name" v="Raudsandelva" />
		<tag k="ssr:stedsnr" v="801548" />
		<tag k="waterway" v="river" />
	</node>
	<node id="-585855" lat="62.821944447" lon="7.9797527787">
		<tag k="name" v="Kjerringtjørnin" />
		<tag k="natural" v="water" />
		<tag k="ssr:stedsnr" v="801540" />
	</node>
	<node id="-585850" lat="62.4700527784" lon="8.2035861137">
		<tag k="name" v="Rangåa" />
		<tag k="ssr:stedsnr" v="801089" />
		<tag k="waterway" v="stream" />
	</node>
	<node id="-583800" lat="62.8293222202" lon="7.84081944577">
		<tag k="name" v="Litlenghølen" />
		<tag k="place" v="locality" />
		<tag k="ssr:stedsnr" v="341594" />
	</node>
	<node id="-585847" lat="62.4722611074" lon="8.18911943491">
		<tag k="name" v="Aura" />
		<tag k="old_name" v="Aurå" />
		<tag k="ssr:stedsnr" v="800647" />
		<tag k="waterway" v="river" />
	</node>
	<node id="-583797" lat="62.812847219" lon="7.87406389561">
		<tag k="name" v="Høgedalsbekken" />
		<tag k="ssr:stedsnr" v="341576" />
		<tag k="waterway" v="stream" />
	</node>
	<node id="-585841" lat="62.78792222" lon="7.82863889164">
		<tag k="name" v="Svarttjørna" />
		<tag k="natural" v="water" />
		<tag k="ssr:stedsnr" v="800582" />
	</node>
	<node id="-583792" lat="62.8126888854" lon="7.97438889156">
		<tag k="name" v="Kjerringbekken" />
		<tag k="ssr:stedsnr" v="341526" />
		<tag k="waterway" v="stream" />
	</node>
	<node id="-583791" lat="62.8099333366" lon="8.00705277648">
		<tag k="name" v="Stenhjemsvoran" />
		<tag k="natural" v="beach" />
		<tag k="ssr:stedsnr" v="341512" />
	</node>
	<node id="-585838" lat="62.7028472228" lon="7.78808332544">
		<tag k="alt_name" v="Skorgeelva" />
		<tag k="name" v="Skorga" />
		<tag k="ssr:stedsnr" v="800447" />
		<tag k="waterway" v="stream" />
	</node>
	<node id="-585836" lat="62.3808388871" lon="8.66302222984">
		<tag k="name" v="Krøstjønna" />
		<tag k="natural" v="water" />
		<tag k="ssr:stedsnr" v="800346" />
	</node>
	<node id="-584039" lat="62.7575055542" lon="7.78103055127">
		<tag k="name" v="Øvre Strøppeltjønna" />
		<tag k="natural" v="water" />
		<tag k="ssr:stedsnr" v="887602" />
	</node>
	<node id="-583781" lat="62.7905250034" lon="8.15537778652">
		<tag k="name" v="Mehaugbekken" />
		<tag k="ssr:stedsnr" v="341389" />
		<tag k="waterway" v="stream" />
	</node>
	<node id="-585828" lat="62.6716222222" lon="8.11824721397">
		<tag k="name" v="Eira" />
		<tag k="ssr:stedsnr" v="800263" />
		<tag k="waterway" v="river" />
	</node>
	<node id="-585825" lat="62.6636277735" lon="8.17024722826">
		<tag k="name" v="Kvidalselva" />
		<tag k="ssr:stedsnr" v="800253" />
		<tag k="waterway" v="stream" />
	</node>
	<node id="-585821" lat="62.4045083296" lon="8.18346110945">
		<tag k="name" v="Inste Bruåbottvatna" />
		<tag k="natural" v="water" />
		<tag k="ssr:stedsnr" v="800034" />
		<tag k="water" v="lake" />
	</node>
	<node id="-583770" lat="62.6417444414" lon="8.07836944711">
		<tag k="name" v="Slettlibekken" />
		<tag k="ssr:stedsnr" v="341062" />
		<tag k="waterway" v="stream" />
	</node>
	<node id="-583768" lat="62.6997555543" lon="7.7985749956">
		<tag k="name" v="Langrusttunga" />
		<tag k="natural" v="cape" />
		<tag k="ssr:stedsnr" v="340921" />
	</node>
	<node id="-585814" lat="62.5219027783" lon="8.17336111475">
		<tag k="name" v="Ytste Bjørkelva" />
		<tag k="ssr:stedsnr" v="766866" />
		<tag k="waterway" v="river" />
	</node>
	<node id="-585813" lat="62.4999777812" lon="8.14268332988">
		<tag k="name" v="Kobbesvagrunna" />
		<tag k="natural" v="shoal" />
		<tag k="place" v="locality" />
		<tag k="ssr:stedsnr" v="766854" />
	</node>
	<node id="-585812" lat="62.6221499958" lon="8.15804444943">
		<tag k="name" v="Rødbelgneset" />
		<tag k="natural" v="cape" />
		<tag k="ssr:stedsnr" v="766828" />
	</node>
	<node id="-583758" lat="62.6109916643" lon="8.12369999873">
		<tag k="name" v="Svarthammarbekken" />
		<tag k="ssr:stedsnr" v="340424" />
		<tag k="waterway" v="stream" />
	</node>
	<node id="-583757" lat="62.6903861134" lon="8.10430276939">
		<tag k="name" v="Kvernabekken" />
		<tag k="ssr:stedsnr" v="340370" />
		<tag k="waterway" v="stream" />
	</node>
	<node id="-583755" lat="62.5812416644" lon="8.14942222195">
		<tag k="name" v="Uraneset" />
		<tag k="natural" v="cape" />
		<tag k="ssr:stedsnr" v="340117" />
	</node>
	<node id="-583754" lat="62.71744444" lon="7.93235277667">
		<tag k="name" v="Myklå" />
		<tag k="ssr:stedsnr" v="340103" />
		<tag k="waterway" v="river" />
	</node>
	<node id="-583752" lat="62.4586083326" lon="8.22699445159">
		<tag k="name" v="Osen" />
		<tag k="natural" v="bay" />
		<tag k="ssr:stedsnr" v="340100" />
	</node>
	<node id="-583751" lat="62.4569861138" lon="8.25016666069">
		<tag k="name" v="Flua" />
		<tag k="place" v="locality" />
		<tag k="seamark:type" v="rock" />
		<tag k="ssr:stedsnr" v="340095" />
	</node>
	<node id="-585798" lat="62.8089861137" lon="7.96805277648">
		<tag k="name" v="Kjerringbekkosen" />
		<tag k="natural" v="bay" />
		<tag k="ssr:stedsnr" v="766466" />
	</node>
	<node id="-585797" lat="62.7902138858" lon="7.99231666773">
		<tag k="name" v="Marihølen" />
		<tag k="place" v="locality" />
		<tag k="ssr:stedsnr" v="766461" />
	</node>
	<node id="-583746" lat="62.3738999978" lon="8.35631667562">
		<tag k="name" v="Langtjønnelva" />
		<tag k="ssr:stedsnr" v="331458" />
		<tag k="waterway" v="river" />
	</node>
	<node id="-585793" lat="62.7746194432" lon="8.08957500622">
		<tag k="name" v="Stubøbekken" />
		<tag k="ssr:stedsnr" v="766397" />
		<tag k="waterway" v="stream" />
	</node>
	<node id="-585790" lat="62.7645888908" lon="8.11028611978">
		<tag k="name" v="Bytbekken" />
		<tag k="ssr:stedsnr" v="766391" />
		<tag k="waterway" v="stream" />
	</node>
	<node id="-585785" lat="62.8225083341" lon="8.03311111159">
		<tag k="name" v="Hagatjønna(Gladtjønna)" />
		<tag k="natural" v="water" />
		<tag k="ssr:stedsnr" v="766332" />
	</node>
	<node id="-583736" lat="62.776991666" lon="7.83113056083">
		<tag k="name" v="Barsteintjørna" />
		<tag k="natural" v="water" />
		<tag k="ssr:stedsnr" v="315573" />
	</node>
	<node id="-585781" lat="62.6720277756" lon="8.10867499654">
		<tag k="name" v="Husbybekken" />
		<tag k="ssr:stedsnr" v="766102" />
		<tag k="waterway" v="stream" />
	</node>
	<node id="-585778" lat="62.708480559" lon="7.9673583402">
		<tag k="name" v="Gråsteinsbekken" />
		<tag k="ssr:stedsnr" v="765993" />
		<tag k="waterway" v="stream" />
	</node>
	<node id="-585768" lat="62.7024305572" lon="7.80776666132">
		<tag k="name" v="Langrustbekken" />
		<tag k="ssr:stedsnr" v="765904" />
		<tag k="waterway" v="stream" />
	</node>
	<node id="-585767" lat="62.6422750038" lon="7.84281944828">
		<tag k="name" v="Loftskarbekken" />
		<tag k="ssr:stedsnr" v="765894" />
		<tag k="waterway" v="river" />
	</node>
	<node id="-583716" lat="62.6026944462" lon="8.17138332941">
		<tag k="name" v="Fløta" />
		<tag k="natural" v="cape" />
		<tag k="ssr:stedsnr" v="315287" />
	</node>
	<node id="-583713" lat="62.6438361121" lon="7.83286388302">
		<tag k="name" v="Måsvatnet" />
		<tag k="natural" v="water" />
		<tag k="ssr:stedsnr" v="315246" />
		<tag k="water" v="lake" />
	</node>
	<node id="-583709" lat="62.5427694476" lon="8.14956666219">
		<tag k="name" v="Fløtelva" />
		<tag k="ssr:stedsnr" v="315123" />
		<tag k="waterway" v="stream" />
	</node>
	<node id="-583704" lat="62.3980916634" lon="8.45598611531">
		<tag k="name" v="Tverrberghølen" />
		<tag k="place" v="locality" />
		<tag k="ssr:stedsnr" v="314357" />
	</node>
	<node id="-583701" lat="62.7560916653" lon="8.18873888663">
		<tag k="name" v="Kvennsetvatnet" />
		<tag k="natural" v="water" />
		<tag k="ssr:stedsnr" v="315610" />
	</node>
	<node id="-585737" lat="62.7347527748" lon="7.71642778215">
		<tag k="name" v="Sandvikelva" />
		<tag k="ssr:stedsnr" v="765507" />
		<tag k="waterway" v="stream" />
	</node>
	<node id="-583687" lat="62.6747805534" lon="7.90559999135">
		<tag k="name" v="Ljøsåbekken" />
		<tag k="ssr:stedsnr" v="280972" />
		<tag k="waterway" v="stream" />
	</node>
	<node id="-583686" lat="62.7259888864" lon="7.90253332424">
		<tag k="name" v="Blombekken" />
		<tag k="ssr:stedsnr" v="280961" />
		<tag k="waterway" v="stream" />
	</node>
	<node id="-585733" lat="62.8149388861" lon="7.86321665842">
		<tag k="name" v="Rupdalsbekken" />
		<tag k="ssr:stedsnr" v="765490" />
		<tag k="waterway" v="stream" />
	</node>
	<node id="-585732" lat="62.7320527767" lon="7.70453610454">
		<tag k="name" v="Blombakkelva" />
		<tag k="ssr:stedsnr" v="765489" />
		<tag k="waterway" v="stream" />
	</node>
</osm>
