<?xml version="1.0" encoding="UTF-8"?>
<osm generator="osmapis" version="0.6">
	<node id="-586108" lat="62.808366668" lon="8.02134444073">
		<tag k="highway" v="path" />
		<tag k="name" v="Paulvegen" />
		<tag k="ssr:stedsnr" v="948352" />
	</node>
	<node id="-585209" lat="62.5845250035" lon="8.1816250077">
		<tag k="layer" v="-1" />
		<tag k="name" v="Viketunnelen" />
		<tag k="ssr:stedsnr" v="571882" />
		<tag k="tunnel" v="yes" />
	</node>
	<node id="-584565" lat="62.7889527769" lon="7.80740000855">
		<tag k="highway" v="path" />
		<tag k="name" v="Sandstien" />
		<tag k="ssr:stedsnr" v="159616" />
	</node>
	<node id="-585970" lat="62.8410500006" lon="8.12120000465">
		<tag k="layer" v="-1" />
		<tag k="name" v="Rausandtunnelen" />
		<tag k="ssr:stedsnr" v="833381" />
		<tag k="tunnel" v="yes" />
	</node>
	<node id="-585713" lat="62.6311555514" lon="8.11995554677">
		<tag k="amenity" v="ferry_terminal" />
		<tag k="name" v="Øverås ferjekai" />
		<tag k="ssr:stedsnr" v="764418" />
	</node>
	<node id="-585711" lat="62.4321916672" lon="8.34538054639">
		<tag k="highway" v="path" />
		<tag k="name" v="Finnsetstian" />
		<tag k="ssr:stedsnr" v="748785" />
	</node>
	<node id="-585070" lat="62.7971166658" lon="8.07143610887">
		<tag k="ford" v="yes" />
		<tag k="name" v="Tverrelvvadet" />
		<tag k="place" v="locality" />
		<tag k="ssr:stedsnr" v="523487" />
	</node>
	<node id="-583917" lat="62.6901027746" lon="8.11941943858">
		<tag k="man_made" v="quay" />
		<tag k="name" v="Nauste kai" />
		<tag k="place" v="locality" />
		<tag k="ssr:stedsnr" v="401378" />
	</node>
	<node id="-586092" lat="62.6937277787" lon="7.88849444401">
		<tag k="ford" v="yes" />
		<tag k="name" v="Vadet" />
		<tag k="place" v="locality" />
		<tag k="ssr:stedsnr" v="948058" />
	</node>
	<node id="-586124" lat="62.78451944" lon="8.0389861102">
		<tag k="fixme" v="consider highway=path" />
		<tag k="highway" v="track" />
		<tag k="name" v="Doktorsvingen" />
		<tag k="ssr:stedsnr" v="948486" />
	</node>
	<node id="-584291" lat="62.6844055556" lon="7.99414444114">
		<tag k="bridge" v="yes" />
		<tag k="layer" v="1" />
		<tag k="name" v="Drivandbrua" />
		<tag k="ssr:stedsnr" v="37989" />
	</node>
	<node id="-584290" lat="62.6885805562" lon="7.97374444972">
		<tag k="name" v="Langhjelledet" />
		<tag k="place" v="locality" />
		<tag k="ssr:stedsnr" v="37987" />
	</node>
	<node id="-584912" lat="62.5013611122" lon="8.17472222196">
		<tag k="layer" v="-1" />
		<tag k="name" v="Sandoddtunnelen" />
		<tag k="ssr:stedsnr" v="449432" />
		<tag k="tunnel" v="yes" />
	</node>
	<node id="-584413" lat="62.7620694474" lon="8.13482221321">
		<tag k="highway" v="path" />
		<tag k="name" v="Romsdalsvegen" />
		<tag k="ssr:stedsnr" v="98368" />
	</node>
	<node id="-585435" lat="62.6773666643" lon="8.11291944353">
		<tag k="bridge" v="yes" />
		<tag k="layer" v="1" />
		<tag k="name" v="Vassbrua" />
		<tag k="ssr:stedsnr" v="644545" />
	</node>
	<node id="-585817" lat="62.8151138881" lon="7.80099167647">
		<tag k="bridge" v="yes" />
		<tag k="layer" v="1" />
		<tag k="name" v="Gussiåsbrua" />
		<tag k="ssr:stedsnr" v="774901" />
	</node>
	<node id="-586192" lat="62.7417944432" lon="8.05340556296">
		<tag k="layer" v="-1" />
		<tag k="name" v="Boggetunnelen" />
		<tag k="ssr:stedsnr" v="954105" />
		<tag k="tunnel" v="yes" />
	</node>
	<node id="-585101" lat="62.8133833339" lon="8.00876665875">
		<tag k="fixme" v="verify maritime location" />
		<tag k="mooring" v="yes" />
		<tag k="name" v="Nilsløvoran" />
		<tag k="place" v="locality" />
		<tag k="ssr:stedsnr" v="523358" />
	</node>
	<node id="-584011" lat="62.7843194463" lon="8.03392499553">
		<tag k="ford" v="yes" />
		<tag k="name" v="Nedre Steinvadet" />
		<tag k="place" v="locality" />
		<tag k="ssr:stedsnr" v="402466" />
	</node>
	<node id="-585612" lat="62.8295166655" lon="8.06604167613">
		<tag k="ford" v="yes" />
		<tag k="name" v="Storbruvadet" />
		<tag k="place" v="locality" />
		<tag k="ssr:stedsnr" v="705615" />
	</node>
	<node id="-586180" lat="62.7065138929" lon="7.93803610841">
		<tag k="bridge" v="yes" />
		<tag k="layer" v="1" />
		<tag k="name" v="Tverrelvbrua" />
		<tag k="ssr:stedsnr" v="948959" />
	</node>
	<node id="-585077" lat="62.7198055575" lon="7.92559166764">
		<tag k="bridge" v="yes" />
		<tag k="layer" v="1" />
		<tag k="name" v="Storbrua" />
		<tag k="ssr:stedsnr" v="522106" />
	</node>
	<node id="-583611" lat="62.7775361131" lon="8.24572499838">
		<tag k="highway" v="path" />
		<tag k="name" v="Setervegen" />
		<tag k="ssr:stedsnr" v="280324" />
	</node>
	<node id="-585786" lat="62.7726111117" lon="8.22060555675">
		<tag k="highway" v="path" />
		<tag k="name" v="Fjellvegen" />
		<tag k="ssr:stedsnr" v="766341" />
	</node>
	<node id="-584031" lat="62.8293361097" lon="8.0868805618">
		<tag k="ford" v="yes" />
		<tag k="name" v="Setervadet" />
		<tag k="place" v="locality" />
		<tag k="ssr:stedsnr" v="887554" />
	</node>
	<node id="-583607" lat="62.8126138884" lon="8.0165916605">
		<tag k="fixme" v="verify maritime location" />
		<tag k="mooring" v="yes" />
		<tag k="name" v="Brekkevoran" />
		<tag k="place" v="locality" />
		<tag k="ssr:stedsnr" v="280287" />
	</node>
	<node id="-585268" lat="62.8055555562" lon="7.84404167028">
		<tag k="bridge" v="yes" />
		<tag k="layer" v="1" />
		<tag k="name" v="Bakkebrua" />
		<tag k="ssr:stedsnr" v="583524" />
	</node>
	<node id="-584243" lat="62.8317638905" lon="8.09945000574">
		<tag k="ford" v="yes" />
		<tag k="name" v="Storbuvadet" />
		<tag k="place" v="locality" />
		<tag k="ssr:stedsnr" v="37564" />
	</node>
	<node id="-585777" lat="62.6900638882" lon="7.96896944202">
		<tag k="name" v="Gammelledet" />
		<tag k="place" v="locality" />
		<tag k="ssr:stedsnr" v="765990" />
	</node>
	<node id="-583984" lat="62.7102388866" lon="7.94978056143">
		<tag k="bridge" v="yes" />
		<tag k="layer" v="1" />
		<tag k="name" v="Hansetbrua" />
		<tag k="ssr:stedsnr" v="401947" />
	</node>
	<node id="-583599" lat="62.722608334" lon="7.92440000734">
		<tag k="bridge" v="yes" />
		<tag k="layer" v="1" />
		<tag k="name" v="Ørabrua" />
		<tag k="ssr:stedsnr" v="280075" />
	</node>
	<node id="-586158" lat="62.8269055535" lon="8.06141943504">
		<tag k="highway" v="path" />
		<tag k="name" v="Stigan" />
		<tag k="ssr:stedsnr" v="948734" />
	</node>
	<node id="-585389" lat="62.6938083352" lon="7.97298611433">
		<tag k="junction" v="yes" />
		<tag k="name" v="Dilen" />
		<tag k="place" v="locality" />
		<tag k="ssr:stedsnr" v="643044" />
	</node>
	<node id="-583980" lat="62.728500002" lon="7.82998054601">
		<tag k="highway" v="path" />
		<tag k="name" v="Brattstien" />
		<tag k="ssr:stedsnr" v="401914" />
	</node>
	<node id="-585330" lat="62.6975555551" lon="7.96242776947">
		<tag k="bridge" v="yes" />
		<tag k="layer" v="1" />
		<tag k="name" v="Bersetbrua" />
		<tag k="ssr:stedsnr" v="583988" />
	</node>
	<node id="-583850" lat="62.7203888867" lon="7.93222223062">
		<tag k="junction" v="yes" />
		<tag k="name" v="Korsvegen" />
		<tag k="place" v="locality" />
		<tag k="ssr:stedsnr" v="341968" />
	</node>
	<node id="-584617" lat="62.7567722184" lon="8.03690833256">
		<tag k="highway" v="path" />
		<tag k="name" v="Trøvegan" />
		<tag k="ssr:stedsnr" v="159796" />
	</node>
	<node id="-584487" lat="62.722052774" lon="7.92635555308">
		<tag k="bridge" v="yes" />
		<tag k="layer" v="1" />
		<tag k="name" v="Myklebostadbrua" />
		<tag k="ssr:stedsnr" v="98951" />
	</node>
	<node id="-585009" lat="62.780880553" lon="8.28731388173">
		<tag k="layer" v="-1" />
		<tag k="name" v="Merrabergtunnelen" />
		<tag k="ssr:stedsnr" v="469327" />
		<tag k="tunnel" v="yes" />
	</node>
	<node id="-584283" lat="62.7315166647" lon="7.85484443635">
		<tag k="highway" v="path" />
		<tag k="name" v="Teigvegen" />
		<tag k="ssr:stedsnr" v="37937" />
	</node>
	<node id="-584603" lat="62.7813083352" lon="8.30626387975">
		<tag k="highway" v="path" />
		<tag k="name" v="Gesellstigen" />
		<tag k="ssr:stedsnr" v="159579" />
	</node>
	<node id="-585110" lat="62.8016861098" lon="7.94151945345">
		<tag k="fixme" v="consider highway=path" />
		<tag k="highway" v="track" />
		<tag k="name" v="Måsvassvegen" />
		<tag k="ssr:stedsnr" v="523536" />
	</node>
	<node id="-584537" lat="62.7265027789" lon="7.83451944117">
		<tag k="ford" v="yes" />
		<tag k="name" v="Nyvadet" />
		<tag k="place" v="locality" />
		<tag k="ssr:stedsnr" v="158083" />
	</node>
	<node id="-585619" lat="62.7744666703" lon="7.98713332818">
		<tag k="name" v="Kyrkjeledet" />
		<tag k="place" v="locality" />
		<tag k="ssr:stedsnr" v="705650" />
	</node>
	<node id="-584977" lat="62.7965083297" lon="7.85465556231">
		<tag k="bridge" v="yes" />
		<tag k="layer" v="1" />
		<tag k="name" v="Stavlibrua" />
		<tag k="ssr:stedsnr" v="462609" />
	</node>
	<node id="-586128" lat="62.7915916695" lon="7.91378333856">
		<tag k="fixme" v="consider highway=path" />
		<tag k="highway" v="track" />
		<tag k="name" v="Rødsetervegen" />
		<tag k="ssr:stedsnr" v="948533" />
	</node>
	<node id="-585486" lat="62.7231166707" lon="7.93135833586">
		<tag k="man_made" v="quay" />
		<tag k="name" v="Vistdal kai" />
		<tag k="place" v="locality" />
		<tag k="ssr:stedsnr" v="644977" />
	</node>
	<node id="-586029" lat="62.7792027805" lon="8.28663889243">
		<tag k="layer" v="-1" />
		<tag k="name" v="Skrøotunnelen" />
		<tag k="ssr:stedsnr" v="879131" />
		<tag k="tunnel" v="yes" />
	</node>
	<node id="-584972" lat="62.7022073569" lon="7.95358022873">
		<tag k="bridge" v="yes" />
		<tag k="layer" v="1" />
		<tag k="name" v="Hellebrua" />
		<tag k="ssr:stedsnr" v="462988" />
	</node>
	<node id="-586123" lat="62.7916472202" lon="8.03824444194">
		<tag k="bridge" v="yes" />
		<tag k="layer" v="1" />
		<tag k="name" v="Øvre Steinvadet" />
		<tag k="ssr:stedsnr" v="948474" />
	</node>
	<node id="-585096" lat="62.807883332" lon="8.08726666939">
		<tag k="ford" v="yes" />
		<tag k="name" v="Grønlivadet" />
		<tag k="place" v="locality" />
		<tag k="ssr:stedsnr" v="523342" />
	</node>
	<node id="-585476" lat="62.671194444" lon="7.98390278471">
		<tag k="ford" v="yes" />
		<tag k="name" v="Steffåbrua" />
		<tag k="place" v="locality" />
		<tag k="ssr:stedsnr" v="644909" />
	</node>
	<node id="-584579" lat="62.8095222203" lon="8.07191667315">
		<tag k="ford" v="yes" />
		<tag k="name" v="Setervadet" />
		<tag k="place" v="locality" />
		<tag k="ssr:stedsnr" v="159327" />
	</node>
	<node id="-584706" lat="62.7277944405" lon="7.83350000645">
		<tag k="ford" v="yes" />
		<tag k="name" v="Buvadet" />
		<tag k="place" v="locality" />
		<tag k="ssr:stedsnr" v="219062" />
	</node>
	<node id="-585643" lat="62.6825972204" lon="8.23481388628">
		<tag k="ford" v="yes" />
		<tag k="name" v="Flatvadet" />
		<tag k="place" v="locality" />
		<tag k="ssr:stedsnr" v="705856" />
	</node>
</osm>
