<?xml version="1.0" encoding="UTF-8"?>
<osm generator="osmapis" version="0.6">
	<node id="-50752" lat="59.2161476784" lon="9.61110301692">
		<tag k="name" v="Vestfold og Telemark fylke" />
		<tag k="ssr:date" v="2020-01-13" />
		<tag k="ssr:gruppe" v="administrativeIndelinger" />
		<tag k="ssr:hovedgruppe" v="offentligAdministrasjon" />
		<tag k="ssr:stedsnr" v="1073927" />
		<tag k="ssr:type" v="fylke" />
	</node>
	<node id="-50751" lat="59.4149958923" lon="10.4626533123">
		<tag k="name" v="Holtanløkka" />
		<tag k="ssr:date" v="2019-12-27" />
		<tag k="ssr:gruppe" v="veg" />
		<tag k="ssr:hovedgruppe" v="infrastruktur" />
		<tag k="ssr:stedsnr" v="1044355" />
		<tag k="ssr:type" v="adressenavn" />
	</node>
	<node id="-50750" lat="59.4223499146" lon="10.4766624538">
		<tag k="name" v="Rolv Wesenlunds vei" />
		<tag k="ssr:date" v="2019-12-27" />
		<tag k="ssr:gruppe" v="veg" />
		<tag k="ssr:hovedgruppe" v="infrastruktur" />
		<tag k="ssr:stedsnr" v="1044175" />
		<tag k="ssr:type" v="adressenavn" />
	</node>
	<node id="-50749" lat="59.4230558191" lon="10.3740661397">
		<tag k="name" v="Sletterødåsen" />
		<tag k="ssr:date" v="2019-12-27" />
		<tag k="ssr:gruppe" v="veg" />
		<tag k="ssr:hovedgruppe" v="infrastruktur" />
		<tag k="ssr:stedsnr" v="1044174" />
		<tag k="ssr:type" v="adressenavn" />
	</node>
	<node id="-50748" lat="59.4179657879" lon="10.4694765555">
		<tag k="name" v="Braarudåsen" />
		<tag k="ssr:date" v="2019-12-27" />
		<tag k="ssr:gruppe" v="veg" />
		<tag k="ssr:hovedgruppe" v="infrastruktur" />
		<tag k="ssr:stedsnr" v="1043518" />
		<tag k="ssr:type" v="adressenavn" />
	</node>
	<node id="-50482" lat="59.4363277736" lon="10.4746444466">
		<tag k="name" v="Diriksbåen" />
		<tag k="ssr:date" v="2019-12-27" />
		<tag k="ssr:gruppe" v="navigasjon" />
		<tag k="ssr:hovedgruppe" v="infrastruktur" />
		<tag k="ssr:stedsnr" v="951704" />
		<tag k="ssr:type" v="lanterne" />
	</node>
	<node id="-50288" lat="59.3600199506" lon="10.5102485252">
		<tag k="name" v="Østenskjær" />
		<tag k="ssr:date" v="2019-12-27" />
		<tag k="ssr:gruppe" v="navigasjon" />
		<tag k="ssr:hovedgruppe" v="infrastruktur" />
		<tag k="ssr:stedsnr" v="245539" />
		<tag k="ssr:type" v="fyrlykt" />
	</node>
	<node id="-50735" lat="59.4154500043" lon="10.4853638883">
		<tag k="loc_name" v="Horten" />
		<tag k="name" v="Horten kommune" />
		<tag k="ssr:date" v="2019-12-27" />
		<tag k="ssr:gruppe" v="administrativeIndelinger" />
		<tag k="ssr:hovedgruppe" v="offentligAdministrasjon" />
		<tag k="ssr:stedsnr" v="874298" />
		<tag k="ssr:type" v="kommune" />
	</node>
	<node id="-50412" lat="59.4164694416" lon="10.4983833297">
		<tag k="loc_name" v="Horten lykt" />
		<tag k="name" v="Horten" />
		<tag k="ssr:date" v="2019-12-27" />
		<tag k="ssr:gruppe" v="navigasjon" />
		<tag k="ssr:hovedgruppe" v="infrastruktur" />
		<tag k="ssr:stedsnr" v="725978" />
		<tag k="ssr:type" v="fyrlykt" />
	</node>
	<node id="-50378" lat="59.3869879148" lon="10.5038554773">
		<tag k="name" v="Bastøybåen" />
		<tag k="ssr:date" v="2019-12-27" />
		<tag k="ssr:gruppe" v="navigasjon" />
		<tag k="ssr:hovedgruppe" v="infrastruktur" />
		<tag k="ssr:stedsnr" v="480516" />
		<tag k="ssr:type" v="lanterne" />
	</node>
	<node id="-50727" lat="59.4508083321" lon="10.4862833322">
		<tag k="name" v="Østøybåen" />
		<tag k="ssr:date" v="2019-12-27" />
		<tag k="ssr:gruppe" v="navigasjon" />
		<tag k="ssr:hovedgruppe" v="infrastruktur" />
		<tag k="ssr:stedsnr" v="844654" />
		<tag k="ssr:type" v="lysbøye" />
	</node>
	<node id="-50726" lat="59.444599997" lon="10.4842472193">
		<tag k="name" v="Vealøsgapet, v side" />
		<tag k="ssr:date" v="2019-12-27" />
		<tag k="ssr:gruppe" v="navigasjon" />
		<tag k="ssr:hovedgruppe" v="infrastruktur" />
		<tag k="ssr:stedsnr" v="844652" />
		<tag k="ssr:type" v="lysbøye" />
	</node>
	<node id="-50371" lat="59.3863444411" lon="10.5371055507">
		<tag k="alt_name" v="Bastøy fyr" />
		<tag k="loc_name" v="Bastøy lykt" />
		<tag k="name" v="Bastøy" />
		<tag k="ssr:date" v="2019-12-27" />
		<tag k="ssr:gruppe" v="navigasjon" />
		<tag k="ssr:hovedgruppe" v="infrastruktur" />
		<tag k="ssr:stedsnr" v="669548" />
		<tag k="ssr:type" v="lanterne" />
	</node>
</osm>
