<?xml version="1.0" encoding="UTF-8"?>
<osm generator="osmapis" version="0.6">
	<node id="-339967" lat="58.161555557" lon="6.77330278288">
		<tag k="name" v="Logedalen" />
		<tag k="natural" v="valley" />
		<tag k="place" v="locality" />
		<tag k="ssr:stedsnr" v="850203" />
	</node>
	<node id="-339936" lat="58.2122083333" lon="6.85044999814">
		<tag k="name" v="Skarpheia" />
		<tag k="natural" v="hill" />
		<tag k="place" v="locality" />
		<tag k="ssr:stedsnr" v="811810" />
	</node>
	<node id="-339935" lat="58.2117722204" lon="6.8550805534">
		<tag k="fixme" v="consider natural=peak for the most distinct mountains in the district" />
		<tag k="name" v="Høgheia" />
		<tag k="natural" v="hill" />
		<tag k="place" v="locality" />
		<tag k="ssr:stedsnr" v="811808" />
	</node>
	<node id="-339934" lat="58.2129166649" lon="6.86360277673">
		<tag k="name" v="Hestheiskaret" />
		<tag k="natural" v="valley" />
		<tag k="place" v="locality" />
		<tag k="ssr:stedsnr" v="811809" />
	</node>
	<node id="-339933" lat="58.1647750038" lon="6.87566944549">
		<tag k="name" v="Ospelunden" />
		<tag k="natural" v="slope" />
		<tag k="place" v="locality" />
		<tag k="ssr:stedsnr" v="811795" />
	</node>
	<node id="-339932" lat="58.2132388865" lon="6.9018944458">
		<tag k="name" v="Slettheia" />
		<tag k="natural" v="hill" />
		<tag k="place" v="locality" />
		<tag k="ssr:stedsnr" v="811791" />
	</node>
	<node id="-339931" lat="58.2038805519" lon="6.87189443898">
		<tag k="name" v="Kråkedalen" />
		<tag k="natural" v="valley" />
		<tag k="place" v="locality" />
		<tag k="ssr:stedsnr" v="811788" />
	</node>
	<node id="-339930" lat="58.1932083309" lon="6.85583888364">
		<tag k="name" v="Tvørbakken" />
		<tag k="natural" v="slope" />
		<tag k="place" v="locality" />
		<tag k="ssr:stedsnr" v="811782" />
	</node>
	<node id="-339922" lat="58.1166250003" lon="6.88781666762">
		<tag k="name" v="Støyden" />
		<tag k="natural" v="slope" />
		<tag k="place" v="locality" />
		<tag k="ssr:stedsnr" v="810983" />
	</node>
	<node id="-339921" lat="58.1901611083" lon="6.81713611592">
		<tag k="name" v="Gloppefjellet" />
		<tag k="natural" v="hill" />
		<tag k="place" v="locality" />
		<tag k="ssr:stedsnr" v="810976" />
	</node>
	<node id="-339920" lat="58.1837527751" lon="6.85566388107">
		<tag k="name" v="Omnen" />
		<tag k="place" v="locality" />
		<tag k="ssr:stedsnr" v="810968" />
	</node>
	<node id="-339918" lat="58.1761638879" lon="6.84447499202">
		<tag k="name" v="Svenskedalen" />
		<tag k="natural" v="valley" />
		<tag k="place" v="locality" />
		<tag k="ssr:stedsnr" v="810960" />
	</node>
	<node id="-339911" lat="58.1921055352" lon="6.7903444453">
		<tag k="name" v="Åpteheia" />
		<tag k="natural" v="hill" />
		<tag k="place" v="locality" />
		<tag k="ssr:stedsnr" v="810886" />
	</node>
	<node id="-339910" lat="58.1657944441" lon="6.85343332943">
		<tag k="fixme" v="consider natural=peak for the most distinct mountains in the district" />
		<tag k="name" v="Husefjellet" />
		<tag k="natural" v="hill" />
		<tag k="place" v="locality" />
		<tag k="ssr:stedsnr" v="810863" />
	</node>
	<node id="-339909" lat="58.1810305585" lon="6.76186944488">
		<tag k="fixme" v="consider natural=peak for the most distinct mountains in the district" />
		<tag k="name" v="Kneben" />
		<tag k="natural" v="hill" />
		<tag k="place" v="locality" />
		<tag k="ssr:stedsnr" v="810859" />
	</node>
	<node id="-339908" lat="58.1689166708" lon="6.85858889341">
		<tag k="fixme" v="consider natural=peak for the most distinct mountains in the district" />
		<tag k="name" v="Forugla" />
		<tag k="natural" v="hill" />
		<tag k="place" v="locality" />
		<tag k="ssr:stedsnr" v="810847" />
	</node>
	<node id="-339907" lat="58.2157972181" lon="6.88235277807">
		<tag k="fixme" v="consider natural=peak for the most distinct mountains in the district" />
		<tag k="name" v="Kampåsen" />
		<tag k="natural" v="hill" />
		<tag k="place" v="locality" />
		<tag k="ssr:stedsnr" v="810769" />
	</node>
	<node id="-339906" lat="58.0999694427" lon="6.690202779">
		<tag k="name" v="Lunderhaug" />
		<tag k="natural" v="hill" />
		<tag k="place" v="locality" />
		<tag k="ssr:stedsnr" v="810750" />
	</node>
	<node id="-339905" lat="58.1238861106" lon="6.69471111812">
		<tag k="name" v="Husefjellet" />
		<tag k="natural" v="hill" />
		<tag k="place" v="locality" />
		<tag k="ssr:stedsnr" v="810745" />
	</node>
	<node id="-339904" lat="58.1122000036" lon="6.68830278241">
		<tag k="name" v="Øyskog" />
		<tag k="natural" v="slope" />
		<tag k="place" v="locality" />
		<tag k="ssr:stedsnr" v="810733" />
	</node>
	<node id="-339903" lat="58.1167722212" lon="6.66177777146">
		<tag k="fixme" v="consider natural=peak for the most distinct mountains in the district" />
		<tag k="name" v="Vindåsen" />
		<tag k="natural" v="hill" />
		<tag k="place" v="locality" />
		<tag k="ssr:stedsnr" v="810728" />
	</node>
	<node id="-339902" lat="58.1464361139" lon="6.61547222774">
		<tag k="fixme" v="consider natural=peak for the most distinct mountains in the district" />
		<tag k="name" v="Rabnefjellet" />
		<tag k="natural" v="hill" />
		<tag k="place" v="locality" />
		<tag k="ssr:stedsnr" v="810717" />
	</node>
	<node id="-339901" lat="58.070461113" lon="6.75727777207">
		<tag k="name" v="Sverreshaug" />
		<tag k="natural" v="hill" />
		<tag k="place" v="locality" />
		<tag k="ssr:stedsnr" v="810691" />
	</node>
	<node id="-339898" lat="58.1294861131" lon="6.6892777854">
		<tag k="fixme" v="consider natural=peak for the most distinct mountains in the district" />
		<tag k="name" v="Kråkefjell" />
		<tag k="natural" v="hill" />
		<tag k="place" v="locality" />
		<tag k="ssr:stedsnr" v="810671" />
	</node>
	<node id="-339897" lat="58.1300444436" lon="6.7001805628">
		<tag k="fixme" v="consider natural=peak for the most distinct mountains in the district" />
		<tag k="name" v="Grostølfjellet" />
		<tag k="natural" v="hill" />
		<tag k="place" v="locality" />
		<tag k="ssr:stedsnr" v="810669" />
	</node>
	<node id="-339893" lat="58.1198833305" lon="6.78665832914">
		<tag k="fixme" v="consider natural=peak for the most distinct mountains in the district" />
		<tag k="name" v="Kalåsen" />
		<tag k="natural" v="hill" />
		<tag k="place" v="locality" />
		<tag k="ssr:stedsnr" v="810601" />
	</node>
	<node id="-339887" lat="58.1331555594" lon="6.78704722693">
		<tag k="name" v="Hugen" />
		<tag k="natural" v="hill" />
		<tag k="place" v="locality" />
		<tag k="ssr:stedsnr" v="810581" />
	</node>
	<node id="-339886" lat="58.139633335" lon="6.78810833416">
		<tag k="name" v="Ormedalen" />
		<tag k="natural" v="valley" />
		<tag k="place" v="locality" />
		<tag k="ssr:stedsnr" v="810571" />
	</node>
	<node id="-339885" lat="58.1334027747" lon="6.75653610531">
		<tag k="name" v="Vondalen" />
		<tag k="natural" v="valley" />
		<tag k="place" v="locality" />
		<tag k="ssr:stedsnr" v="810564" />
	</node>
	<node id="-339883" lat="58.1226055531" lon="6.85632222602">
		<tag k="name" v="Flådalen" />
		<tag k="natural" v="valley" />
		<tag k="place" v="locality" />
		<tag k="ssr:stedsnr" v="810554" />
	</node>
	<node id="-339881" lat="58.0777694428" lon="6.91553889594">
		<tag k="fixme" v="consider natural=peak for the most distinct mountains in the district" />
		<tag k="name" v="Risåsen" />
		<tag k="natural" v="hill" />
		<tag k="place" v="locality" />
		<tag k="ssr:stedsnr" v="810537" />
	</node>
	<node id="-339880" lat="58.1366416663" lon="6.85803889204">
		<tag k="name" v="Storbakkan" />
		<tag k="natural" v="slope" />
		<tag k="place" v="locality" />
		<tag k="ssr:stedsnr" v="810526" />
	</node>
	<node id="-339878" lat="58.0936861103" lon="6.89581111836">
		<tag k="name" v="Geitestien" />
		<tag k="natural" v="slope" />
		<tag k="place" v="locality" />
		<tag k="ssr:stedsnr" v="810513" />
	</node>
	<node id="-339874" lat="58.1761805567" lon="6.68771111715">
		<tag k="fixme" v="consider natural=peak for the most distinct mountains in the district" />
		<tag k="name" v="Åsestøa" />
		<tag k="natural" v="hill" />
		<tag k="place" v="locality" />
		<tag k="ssr:stedsnr" v="810488" />
	</node>
	<node id="-339873" lat="58.1373944406" lon="6.83231666366">
		<tag k="name" v="Hobden" />
		<tag k="natural" v="hill" />
		<tag k="place" v="locality" />
		<tag k="ssr:stedsnr" v="810466" />
	</node>
	<node id="-339872" lat="58.1386694437" lon="6.83546389349">
		<tag k="fixme" v="consider natural=peak for the most distinct mountains in the district" />
		<tag k="name" v="Hjørnefjellet" />
		<tag k="natural" v="hill" />
		<tag k="place" v="locality" />
		<tag k="ssr:stedsnr" v="810463" />
	</node>
	<node id="-339871" lat="58.1349916703" lon="6.82493610517">
		<tag k="name" v="Dallandsheia" />
		<tag k="natural" v="hill" />
		<tag k="place" v="locality" />
		<tag k="ssr:stedsnr" v="810459" />
	</node>
	<node id="-339869" lat="58.1915861132" lon="6.75628332515">
		<tag k="fixme" v="consider natural=peak for the most distinct mountains in the district" />
		<tag k="name" v="Stifjellet" />
		<tag k="natural" v="hill" />
		<tag k="place" v="locality" />
		<tag k="ssr:stedsnr" v="810458" />
	</node>
	<node id="-339867" lat="58.0715305585" lon="6.97193889347">
		<tag k="name" v="Sagebakken" />
		<tag k="natural" v="slope" />
		<tag k="place" v="locality" />
		<tag k="ssr:stedsnr" v="810453" />
	</node>
	<node id="-339866" lat="58.0702750027" lon="6.95912777584">
		<tag k="fixme" v="consider natural=peak for the most distinct mountains in the district" />
		<tag k="name" v="Geiteberget" />
		<tag k="natural" v="hill" />
		<tag k="place" v="locality" />
		<tag k="ssr:stedsnr" v="810451" />
	</node>
	<node id="-339864" lat="58.1811916695" lon="6.75736944817">
		<tag k="name" v="Ørnesheia" />
		<tag k="natural" v="hill" />
		<tag k="place" v="locality" />
		<tag k="ssr:stedsnr" v="810445" />
	</node>
	<node id="-339861" lat="58.1551027755" lon="6.65215000044">
		<tag k="fixme" v="consider natural=peak for the most distinct mountains in the district" />
		<tag k="name" v="Bukkefjellan" />
		<tag k="natural" v="hill" />
		<tag k="place" v="locality" />
		<tag k="ssr:stedsnr" v="810376" />
	</node>
	<node id="-339816" lat="58.0980472224" lon="6.59473610451">
		<tag k="name" v="Tjørvehaugen" />
		<tag k="natural" v="hill" />
		<tag k="place" v="locality" />
		<tag k="ssr:stedsnr" v="767162" />
	</node>
	<node id="-339799" lat="58.2132805598" lon="6.87368054711">
		<tag k="fixme" v="consider natural=peak for the most distinct mountains in the district" />
		<tag k="name" v="Poddelopte" />
		<tag k="natural" v="hill" />
		<tag k="place" v="locality" />
		<tag k="ssr:stedsnr" v="750801" />
	</node>
	<node id="-339798" lat="58.2085472237" lon="6.88284722912">
		<tag k="name" v="Halsen" />
		<tag k="natural" v="valley" />
		<tag k="place" v="locality" />
		<tag k="ssr:stedsnr" v="750796" />
	</node>
	<node id="-339797" lat="58.2058166692" lon="6.90263611621">
		<tag k="name" v="Tjødnebakken" />
		<tag k="natural" v="slope" />
		<tag k="place" v="locality" />
		<tag k="ssr:stedsnr" v="750786" />
	</node>
	<node id="-339796" lat="58.2108277734" lon="6.90119721428">
		<tag k="fixme" v="consider natural=peak for the most distinct mountains in the district" />
		<tag k="name" v="Meheia" />
		<tag k="natural" v="hill" />
		<tag k="place" v="locality" />
		<tag k="ssr:stedsnr" v="750772" />
	</node>
	<node id="-339795" lat="58.1929611155" lon="6.87633055372">
		<tag k="fixme" v="consider natural=peak for the most distinct mountains in the district" />
		<tag k="name" v="Salthaug" />
		<tag k="natural" v="hill" />
		<tag k="place" v="locality" />
		<tag k="ssr:stedsnr" v="750759" />
	</node>
	<node id="-339790" lat="58.1083861089" lon="6.87654722222">
		<tag k="fixme" v="consider natural=peak for the most distinct mountains in the district" />
		<tag k="name" v="Vardåsen" />
		<tag k="natural" v="hill" />
		<tag k="place" v="locality" />
		<tag k="ssr:stedsnr" v="749987" />
	</node>
	<node id="-339786" lat="58.1222722188" lon="6.92347500656">
		<tag k="fixme" v="consider natural=peak for the most distinct mountains in the district" />
		<tag k="name" v="Rebbåsen" />
		<tag k="natural" v="hill" />
		<tag k="place" v="locality" />
		<tag k="ssr:stedsnr" v="749954" />
	</node>
	<node id="-339785" lat="58.1680555564" lon="6.77864445058">
		<tag k="name" v="Ombostadheia" />
		<tag k="natural" v="hill" />
		<tag k="place" v="locality" />
		<tag k="ssr:stedsnr" v="749947" />
	</node>
	<node id="-339783" lat="58.1652333327" lon="6.80606388532">
		<tag k="name" v="Sandsheia" />
		<tag k="natural" v="hill" />
		<tag k="place" v="locality" />
		<tag k="ssr:stedsnr" v="749945" />
	</node>
	<node id="-339781" lat="58.1638805522" lon="6.77581111404">
		<tag k="name" v="Ramsdalen" />
		<tag k="natural" v="valley" />
		<tag k="place" v="locality" />
		<tag k="ssr:stedsnr" v="749926" />
	</node>
	<node id="-339779" lat="58.1498777744" lon="6.79277777192">
		<tag k="name" v="Ravneheia" />
		<tag k="natural" v="hill" />
		<tag k="place" v="locality" />
		<tag k="ssr:stedsnr" v="749917" />
	</node>
	<node id="-339778" lat="58.2029527741" lon="6.70828333175">
		<tag k="fixme" v="consider natural=peak for the most distinct mountains in the district" />
		<tag k="name" v="Raunefjellet" />
		<tag k="natural" v="hill" />
		<tag k="place" v="locality" />
		<tag k="ssr:stedsnr" v="749911" />
	</node>
	<node id="-339777" lat="58.2094888889" lon="6.72234166501">
		<tag k="fixme" v="consider natural=peak for the most distinct mountains in the district" />
		<tag k="name" v="Kinna" />
		<tag k="natural" v="hill" />
		<tag k="place" v="locality" />
		<tag k="ssr:stedsnr" v="749906" />
	</node>
	<node id="-339776" lat="58.194672224" lon="6.77379165996">
		<tag k="name" v="Maurbakken" />
		<tag k="natural" v="slope" />
		<tag k="place" v="locality" />
		<tag k="ssr:stedsnr" v="749893" />
	</node>
	<node id="-339775" lat="58.2218361145" lon="6.76050278244">
		<tag k="fixme" v="consider natural=peak for the most distinct mountains in the district" />
		<tag k="name" v="Hesteheia" />
		<tag k="natural" v="hill" />
		<tag k="place" v="locality" />
		<tag k="ssr:stedsnr" v="749875" />
	</node>
	<node id="-339774" lat="58.1633555559" lon="6.86576111858">
		<tag k="name" v="Gunnarsdal" />
		<tag k="natural" v="valley" />
		<tag k="place" v="locality" />
		<tag k="ssr:stedsnr" v="749873" />
	</node>
	<node id="-339773" lat="58.1810833344" lon="6.76031388838">
		<tag k="name" v="Svartedalen" />
		<tag k="natural" v="valley" />
		<tag k="place" v="locality" />
		<tag k="ssr:stedsnr" v="749869" />
	</node>
	<node id="-339772" lat="58.18281389" lon="6.75995833969">
		<tag k="name" v="Lausebakken" />
		<tag k="natural" v="slope" />
		<tag k="place" v="locality" />
		<tag k="ssr:stedsnr" v="749867" />
	</node>
	<node id="-339771" lat="58.1614777792" lon="6.85262222519">
		<tag k="fixme" v="consider natural=peak for the most distinct mountains in the district" />
		<tag k="name" v="Firfjellet" />
		<tag k="natural" v="hill" />
		<tag k="place" v="locality" />
		<tag k="ssr:stedsnr" v="749852" />
	</node>
	<node id="-339770" lat="58.1813861088" lon="6.86921945137">
		<tag k="name" v="Selandskleiva" />
		<tag k="natural" v="slope" />
		<tag k="place" v="locality" />
		<tag k="ssr:stedsnr" v="749813" />
	</node>
	<node id="-339769" lat="58.189025002" lon="6.92160277105">
		<tag k="name" v="Tikhei" />
		<tag k="natural" v="hill" />
		<tag k="place" v="locality" />
		<tag k="ssr:stedsnr" v="749805" />
	</node>
	<node id="-339766" lat="58.2240000022" lon="6.86806666281">
		<tag k="name" v="Laundalsslåta" />
		<tag k="natural" v="slope" />
		<tag k="place" v="locality" />
		<tag k="ssr:stedsnr" v="749792" />
	</node>
	<node id="-339765" lat="58.1756000012" lon="6.88786110775">
		<tag k="name" v="Breihei" />
		<tag k="natural" v="hill" />
		<tag k="place" v="locality" />
		<tag k="ssr:stedsnr" v="749784" />
	</node>
	<node id="-339763" lat="58.0925722204" lon="6.69179999612">
		<tag k="name" v="Stillodden" />
		<tag k="natural" v="slope" />
		<tag k="place" v="locality" />
		<tag k="ssr:stedsnr" v="749764" />
	</node>
	<node id="-339762" lat="58.1190833294" lon="6.6842638976">
		<tag k="name" v="Krusebakk" />
		<tag k="natural" v="slope" />
		<tag k="place" v="locality" />
		<tag k="ssr:stedsnr" v="749750" />
	</node>
	<node id="-339761" lat="58.1453416656" lon="6.61968055389">
		<tag k="fixme" v="consider natural=peak for the most distinct mountains in the district" />
		<tag k="name" v="Breiskarfjellet" />
		<tag k="natural" v="hill" />
		<tag k="place" v="locality" />
		<tag k="ssr:stedsnr" v="749740" />
	</node>
	<node id="-339759" lat="58.0876333307" lon="6.67795554891">
		<tag k="name" v="Store Danmark" />
		<tag k="natural" v="hill" />
		<tag k="place" v="locality" />
		<tag k="ssr:stedsnr" v="749721" />
	</node>
	<node id="-339758" lat="58.1675638881" lon="6.64357222307">
		<tag k="name" v="Honnsknuden" />
		<tag k="natural" v="ridge" />
		<tag k="place" v="locality" />
		<tag k="ssr:stedsnr" v="749716" />
	</node>
	<node id="-339757" lat="58.1684305552" lon="6.63590555263">
		<tag k="name" v="Perlesletta" />
		<tag k="place" v="locality" />
		<tag k="ssr:stedsnr" v="749714" />
	</node>
	<node id="-339756" lat="58.1529388852" lon="6.63400277815">
		<tag k="fixme" v="consider natural=peak for the most distinct mountains in the district" />
		<tag k="name" v="Raunefjellet" />
		<tag k="natural" v="hill" />
		<tag k="place" v="locality" />
		<tag k="ssr:stedsnr" v="749710" />
	</node>
	<node id="-339755" lat="58.1590638884" lon="6.63247222528">
		<tag k="name" v="Rudjords Gråfjell" />
		<tag k="natural" v="hill" />
		<tag k="place" v="locality" />
		<tag k="ssr:stedsnr" v="749709" />
	</node>
	<node id="-339753" lat="58.1408444453" lon="6.70048332787">
		<tag k="name" v="Dyrefjell" />
		<tag k="natural" v="hill" />
		<tag k="place" v="locality" />
		<tag k="ssr:stedsnr" v="749681" />
	</node>
	<node id="-339752" lat="58.1393416702" lon="6.65845278109">
		<tag k="fixme" v="consider natural=peak for the most distinct mountains in the district" />
		<tag k="name" v="Legåsen" />
		<tag k="natural" v="hill" />
		<tag k="place" v="locality" />
		<tag k="ssr:stedsnr" v="749676" />
	</node>
	<node id="-339751" lat="58.1294222214" lon="6.67775832684">
		<tag k="name" v="Bronebakk" />
		<tag k="natural" v="slope" />
		<tag k="place" v="locality" />
		<tag k="ssr:stedsnr" v="749671" />
	</node>
	<node id="-339745" lat="58.0780750016" lon="6.85531111129">
		<tag k="fixme" v="consider natural=peak for the most distinct mountains in the district" />
		<tag k="name" v="Åsefjell" />
		<tag k="natural" v="hill" />
		<tag k="place" v="locality" />
		<tag k="ssr:stedsnr" v="749600" />
	</node>
	<node id="-339743" lat="58.1381694433" lon="6.80159722543">
		<tag k="fixme" v="consider natural=peak for the most distinct mountains in the district" />
		<tag k="name" v="Trofjellet" />
		<tag k="natural" v="hill" />
		<tag k="place" v="locality" />
		<tag k="ssr:stedsnr" v="749587" />
	</node>
	<node id="-339741" lat="58.138811107" lon="6.76084722886">
		<tag k="fixme" v="consider natural=peak for the most distinct mountains in the district" />
		<tag k="name" v="Storheia" />
		<tag k="natural" v="hill" />
		<tag k="place" v="locality" />
		<tag k="ssr:stedsnr" v="749566" />
	</node>
	<node id="-339739" lat="58.1223611102" lon="6.82879999296">
		<tag k="name" v="Solbjørdalen" />
		<tag k="natural" v="valley" />
		<tag k="place" v="locality" />
		<tag k="ssr:stedsnr" v="749559" />
	</node>
	<node id="-339735" lat="58.0742055532" lon="6.91274167415">
		<tag k="name" v="Bugdøyheia" />
		<tag k="natural" v="hill" />
		<tag k="place" v="locality" />
		<tag k="ssr:stedsnr" v="749540" />
	</node>
	<node id="-339733" lat="58.0837472246" lon="6.89049721416">
		<tag k="name" v="Knollen" />
		<tag k="natural" v="hill" />
		<tag k="place" v="locality" />
		<tag k="ssr:stedsnr" v="749533" />
	</node>
	<node id="-339731" lat="58.0723194465" lon="6.98144443964">
		<tag k="fixme" v="consider natural=peak for the most distinct mountains in the district" />
		<tag k="name" v="Legeåsen" />
		<tag k="natural" v="hill" />
		<tag k="place" v="locality" />
		<tag k="ssr:stedsnr" v="749509" />
	</node>
	<node id="-339725" lat="58.1915388906" lon="6.70844999908">
		<tag k="name" v="Revsknepen" />
		<tag k="natural" v="hill" />
		<tag k="place" v="locality" />
		<tag k="ssr:stedsnr" v="749476" />
	</node>
	<node id="-339722" lat="58.1819000028" lon="6.74936111934">
		<tag k="fixme" v="consider natural=peak for the most distinct mountains in the district" />
		<tag k="name" v="Kjørkeberget" />
		<tag k="natural" v="hill" />
		<tag k="place" v="locality" />
		<tag k="ssr:stedsnr" v="749470" />
	</node>
	<node id="-339719" lat="58.0830444446" lon="6.65807222578">
		<tag k="name" v="Bjødnnes" />
		<tag k="place" v="locality" />
		<tag k="ssr:stedsnr" v="749428" />
	</node>
	<node id="-339716" lat="58.073947218" lon="6.64286944317">
		<tag k="name" v="Veten" />
		<tag k="place" v="locality" />
		<tag k="ssr:stedsnr" v="749423" />
	</node>
	<node id="-339715" lat="58.1594555566" lon="6.65222777279">
		<tag k="name" v="Åsen" />
		<tag k="natural" v="hill" />
		<tag k="place" v="locality" />
		<tag k="ssr:stedsnr" v="749409" />
	</node>
	<node id="-339714" lat="58.1710277783" lon="6.67133888203">
		<tag k="fixme" v="consider natural=peak for the most distinct mountains in the district" />
		<tag k="name" v="Husfjellet" />
		<tag k="natural" v="hill" />
		<tag k="place" v="locality" />
		<tag k="ssr:stedsnr" v="749404" />
	</node>
	<node id="-339713" lat="58.1518972224" lon="6.66875000053">
		<tag k="name" v="Tomstadmarka" />
		<tag k="natural" v="hill" />
		<tag k="place" v="locality" />
		<tag k="ssr:stedsnr" v="749398" />
	</node>
	<node id="-339711" lat="58.1060416671" lon="6.78000554802">
		<tag k="name" v="Berge" />
		<tag k="natural" v="hill" />
		<tag k="place" v="locality" />
		<tag k="ssr:stedsnr" v="749616" />
	</node>
	<node id="-339710" lat="58.1035055554" lon="6.72593054851">
		<tag k="fixme" v="consider natural=peak for the most distinct mountains in the district" />
		<tag k="name" v="Rossåsen" />
		<tag k="natural" v="hill" />
		<tag k="place" v="locality" />
		<tag k="ssr:stedsnr" v="749608" />
	</node>
	<node id="-339692" lat="58.0990666705" lon="6.90766666258">
		<tag k="name" v="Disken" />
		<tag k="natural" v="hill" />
		<tag k="place" v="locality" />
		<tag k="ssr:stedsnr" v="728255" />
	</node>
	<node id="-339689" lat="58.1204166623" lon="6.70883333262">
		<tag k="fixme" v="consider natural=peak for the most distinct mountains in the district" />
		<tag k="name" v="Skardsfjellet" />
		<tag k="natural" v="hill" />
		<tag k="place" v="locality" />
		<tag k="ssr:stedsnr" v="728224" />
	</node>
	<node id="-339683" lat="58.1675444461" lon="6.88961944602">
		<tag k="fixme" v="consider natural=peak for the most distinct mountains in the district" />
		<tag k="name" v="Stifjellet" />
		<tag k="natural" v="hill" />
		<tag k="place" v="locality" />
		<tag k="ssr:stedsnr" v="728176" />
	</node>
	<node id="-339653" lat="58.1015055588" lon="6.79357778145">
		<tag k="name" v="Flyndreberget" />
		<tag k="natural" v="hill" />
		<tag k="place" v="locality" />
		<tag k="ssr:stedsnr" v="692761" />
	</node>
	<node id="-339651" lat="58.2261249988" lon="6.75893334186">
		<tag k="fixme" v="consider natural=peak for the most distinct mountains in the district" />
		<tag k="name" v="Lyrberget" />
		<tag k="natural" v="hill" />
		<tag k="place" v="locality" />
		<tag k="ssr:stedsnr" v="689999" />
	</node>
	<node id="-339650" lat="58.0486694455" lon="6.91022500554">
		<tag k="alt_name" v="Molaugdalen" />
		<tag k="name" v="Malungdalen" />
		<tag k="natural" v="valley" />
		<tag k="place" v="locality" />
		<tag k="ssr:stedsnr" v="689997" />
	</node>
	<node id="-339647" lat="58.1780416629" lon="6.84323610354">
		<tag k="fixme" v="consider natural=peak for the most distinct mountains in the district" />
		<tag k="name" v="Dyttingsberget" />
		<tag k="natural" v="hill" />
		<tag k="place" v="locality" />
		<tag k="ssr:stedsnr" v="689966" />
	</node>
	<node id="-339646" lat="58.1848138851" lon="6.86525555005">
		<tag k="name" v="Annaskåra" />
		<tag k="place" v="locality" />
		<tag k="ssr:stedsnr" v="689958" />
	</node>
	<node id="-339643" lat="58.1087611146" lon="6.93313054853">
		<tag k="fixme" v="consider natural=peak for the most distinct mountains in the district" />
		<tag k="name" v="Lindåsen" />
		<tag k="natural" v="hill" />
		<tag k="place" v="locality" />
		<tag k="ssr:stedsnr" v="689927" />
	</node>
	<node id="-339642" lat="58.1070777782" lon="6.92268888985">
		<tag k="fixme" v="consider natural=peak for the most distinct mountains in the district" />
		<tag k="name" v="Vindåsen" />
		<tag k="natural" v="hill" />
		<tag k="place" v="locality" />
		<tag k="ssr:stedsnr" v="689925" />
	</node>
	<node id="-339641" lat="58.1692750044" lon="6.7885861158">
		<tag k="name" v="Austheia" />
		<tag k="natural" v="hill" />
		<tag k="place" v="locality" />
		<tag k="ssr:stedsnr" v="689921" />
	</node>
	<node id="-339636" lat="58.1992111106" lon="6.71114166931">
		<tag k="alt_name" v="Skipmannsheia" />
		<tag k="name" v="Skipmannhei" />
		<tag k="natural" v="hill" />
		<tag k="place" v="locality" />
		<tag k="ssr:stedsnr" v="689880" />
	</node>
	<node id="-339635" lat="58.1973333356" lon="6.75646667453">
		<tag k="fixme" v="consider natural=peak for the most distinct mountains in the district" />
		<tag k="name" v="Langfjellan" />
		<tag k="natural" v="hill" />
		<tag k="place" v="locality" />
		<tag k="ssr:stedsnr" v="689874" />
	</node>
	<node id="-339634" lat="58.212158331" lon="6.79721944829">
		<tag k="name" v="Austrekneben" />
		<tag k="natural" v="hill" />
		<tag k="place" v="locality" />
		<tag k="ssr:stedsnr" v="689861" />
	</node>
	<node id="-339633" lat="58.1903666632" lon="6.77204166334">
		<tag k="name" v="Kalvehagen" />
		<tag k="natural" v="slope" />
		<tag k="place" v="locality" />
		<tag k="ssr:stedsnr" v="689853" />
	</node>
	<node id="-339632" lat="58.2024861126" lon="6.77612221992">
		<tag k="fixme" v="consider natural=peak for the most distinct mountains in the district" />
		<tag k="name" v="Ytre Espeåsen" />
		<tag k="natural" v="hill" />
		<tag k="place" v="locality" />
		<tag k="ssr:stedsnr" v="689852" />
	</node>
	<node id="-339631" lat="58.1997750004" lon="6.7844416668">
		<tag k="fixme" v="consider natural=peak for the most distinct mountains in the district" />
		<tag k="name" v="Laufjellet" />
		<tag k="natural" v="hill" />
		<tag k="place" v="locality" />
		<tag k="ssr:stedsnr" v="689851" />
	</node>
	<node id="-339630" lat="58.1864222181" lon="6.7814361169">
		<tag k="name" v="Sveinsoksdalen" />
		<tag k="natural" v="valley" />
		<tag k="place" v="locality" />
		<tag k="ssr:stedsnr" v="689848" />
	</node>
	<node id="-339629" lat="58.1847055536" lon="6.76378333683">
		<tag k="name" v="Upsan" />
		<tag k="natural" v="slope" />
		<tag k="place" v="locality" />
		<tag k="ssr:stedsnr" v="689844" />
	</node>
	<node id="-339628" lat="58.1828555548" lon="6.79060833346">
		<tag k="name" v="Ryggåsen" />
		<tag k="natural" v="ridge" />
		<tag k="place" v="locality" />
		<tag k="ssr:stedsnr" v="689838" />
	</node>
	<node id="-339627" lat="58.2197555599" lon="6.76934999601">
		<tag k="fixme" v="consider natural=peak for the most distinct mountains in the district" />
		<tag k="name" v="Reverknutene" />
		<tag k="natural" v="hill" />
		<tag k="place" v="locality" />
		<tag k="ssr:stedsnr" v="689824" />
	</node>
	<node id="-339624" lat="58.1521916679" lon="6.86061388301">
		<tag k="name" v="Kjeskår" />
		<tag k="natural" v="slope" />
		<tag k="place" v="locality" />
		<tag k="ssr:stedsnr" v="689794" />
	</node>
	<node id="-339622" lat="58.2034888859" lon="6.85224166229">
		<tag k="fixme" v="consider natural=peak for the most distinct mountains in the district" />
		<tag k="name" v="Apalvollåsen" />
		<tag k="natural" v="hill" />
		<tag k="place" v="locality" />
		<tag k="ssr:stedsnr" v="689782" />
	</node>
	<node id="-339620" lat="58.2023611149" lon="6.8598194382">
		<tag k="name" v="Nosa" />
		<tag k="natural" v="ridge" />
		<tag k="place" v="locality" />
		<tag k="ssr:stedsnr" v="689775" />
	</node>
	<node id="-339619" lat="58.200894443" lon="6.9026333389">
		<tag k="name" v="Einerbakken" />
		<tag k="natural" v="slope" />
		<tag k="place" v="locality" />
		<tag k="ssr:stedsnr" v="689768" />
	</node>
	<node id="-339617" lat="58.1870472182" lon="6.89422500609">
		<tag k="name" v="Enkesete" />
		<tag k="natural" v="slope" />
		<tag k="place" v="locality" />
		<tag k="ssr:stedsnr" v="689743" />
	</node>
	<node id="-339615" lat="58.2198333368" lon="6.86500555688">
		<tag k="name" v="Åsen" />
		<tag k="natural" v="hill" />
		<tag k="place" v="locality" />
		<tag k="ssr:stedsnr" v="689727" />
	</node>
	<node id="-339614" lat="58.2171027771" lon="6.88202222458">
		<tag k="name" v="Daltestø" />
		<tag k="natural" v="valley" />
		<tag k="place" v="locality" />
		<tag k="ssr:stedsnr" v="689714" />
	</node>
	<node id="-339613" lat="58.1153944422" lon="6.65514444179">
		<tag k="fixme" v="consider natural=peak for the most distinct mountains in the district" />
		<tag k="name" v="Øygardsåsen" />
		<tag k="natural" v="hill" />
		<tag k="place" v="locality" />
		<tag k="ssr:stedsnr" v="689709" />
	</node>
	<node id="-339612" lat="58.0957000028" lon="6.70156389571">
		<tag k="name" v="Bryneheia" />
		<tag k="natural" v="hill" />
		<tag k="place" v="locality" />
		<tag k="ssr:stedsnr" v="689704" />
	</node>
	<node id="-339611" lat="58.1035749981" lon="6.68620555325">
		<tag k="fixme" v="consider natural=peak for the most distinct mountains in the district" />
		<tag k="name" v="Mindeåsen" />
		<tag k="natural" v="hill" />
		<tag k="place" v="locality" />
		<tag k="ssr:stedsnr" v="689702" />
	</node>
	<node id="-339607" lat="58.1511583376" lon="6.62880000378">
		<tag k="name" v="Litlehola" />
		<tag k="natural" v="valley" />
		<tag k="place" v="locality" />
		<tag k="ssr:stedsnr" v="689674" />
	</node>
	<node id="-339605" lat="58.0875083318" lon="6.68203888896">
		<tag k="name" v="Lille Danmark" />
		<tag k="natural" v="hill" />
		<tag k="place" v="locality" />
		<tag k="ssr:stedsnr" v="689653" />
	</node>
	<node id="-339603" lat="58.1577611145" lon="6.64644445173">
		<tag k="name" v="Trettebakken" />
		<tag k="natural" v="slope" />
		<tag k="place" v="locality" />
		<tag k="ssr:stedsnr" v="689636" />
	</node>
	<node id="-339602" lat="58.0747888915" lon="6.77327222244">
		<tag k="name" v="Langebakk" />
		<tag k="natural" v="hill" />
		<tag k="place" v="locality" />
		<tag k="ssr:stedsnr" v="689635" />
	</node>
	<node id="-339600" lat="58.1429416648" lon="6.68311388847">
		<tag k="name" v="Tussefjell" />
		<tag k="natural" v="hill" />
		<tag k="place" v="locality" />
		<tag k="ssr:stedsnr" v="689618" />
	</node>
	<node id="-339599" lat="58.1418000014" lon="6.68788333467">
		<tag k="fixme" v="consider natural=peak for the most distinct mountains in the district" />
		<tag k="name" v="Kjefjellet" />
		<tag k="natural" v="hill" />
		<tag k="place" v="locality" />
		<tag k="ssr:stedsnr" v="689614" />
	</node>
	<node id="-339597" lat="58.1397027736" lon="6.67979999221">
		<tag k="fixme" v="consider natural=peak for the most distinct mountains in the district" />
		<tag k="name" v="Haugriloptet" />
		<tag k="natural" v="hill" />
		<tag k="place" v="locality" />
		<tag k="ssr:stedsnr" v="689610" />
	</node>
	<node id="-339596" lat="58.1326722207" lon="6.65111666222">
		<tag k="fixme" v="consider natural=peak for the most distinct mountains in the district" />
		<tag k="name" v="Bergåsen" />
		<tag k="natural" v="hill" />
		<tag k="place" v="locality" />
		<tag k="ssr:stedsnr" v="689608" />
	</node>
	<node id="-339595" lat="58.1080277817" lon="6.71160278312">
		<tag k="name" v="Trætevollen" />
		<tag k="natural" v="hill" />
		<tag k="place" v="locality" />
		<tag k="ssr:stedsnr" v="689602" />
	</node>
	<node id="-339591" lat="58.1027333305" lon="6.75515555791">
		<tag k="name" v="Sandfjellet" />
		<tag k="natural" v="hill" />
		<tag k="place" v="locality" />
		<tag k="ssr:stedsnr" v="689556" />
	</node>
	<node id="-339590" lat="58.1308444477" lon="6.72500833074">
		<tag k="name" v="Perstø" />
		<tag k="natural" v="slope" />
		<tag k="place" v="locality" />
		<tag k="ssr:stedsnr" v="689525" />
	</node>
	<node id="-339586" lat="58.0814749961" lon="6.91771945267">
		<tag k="fixme" v="consider natural=peak for the most distinct mountains in the district" />
		<tag k="name" v="Husefjellet" />
		<tag k="natural" v="hill" />
		<tag k="place" v="locality" />
		<tag k="ssr:stedsnr" v="689500" />
	</node>
	<node id="-339585" lat="58.1466694442" lon="6.81360554929">
		<tag k="name" v="Snabbefjellet" />
		<tag k="natural" v="hill" />
		<tag k="place" v="locality" />
		<tag k="ssr:stedsnr" v="689484" />
	</node>
	<node id="-339583" lat="58.0899666637" lon="6.90328888307">
		<tag k="fixme" v="consider natural=peak for the most distinct mountains in the district" />
		<tag k="name" v="Rødlandsåsen" />
		<tag k="natural" v="hill" />
		<tag k="place" v="locality" />
		<tag k="ssr:stedsnr" v="689476" />
	</node>
	<node id="-339582" lat="58.0873527798" lon="6.88896944375">
		<tag k="fixme" v="consider natural=peak for the most distinct mountains in the district" />
		<tag k="name" v="Solåsen" />
		<tag k="natural" v="hill" />
		<tag k="place" v="locality" />
		<tag k="ssr:stedsnr" v="689473" />
	</node>
	<node id="-339580" lat="58.1026194416" lon="6.9281666602">
		<tag k="fixme" v="consider natural=peak for the most distinct mountains in the district" />
		<tag k="name" v="Skargrotheia" />
		<tag k="natural" v="hill" />
		<tag k="place" v="locality" />
		<tag k="ssr:stedsnr" v="689459" />
	</node>
	<node id="-339574" lat="58.1417055548" lon="6.83476666162">
		<tag k="fixme" v="consider natural=peak for the most distinct mountains in the district" />
		<tag k="name" v="Høylandsfjellet" />
		<tag k="natural" v="hill" />
		<tag k="place" v="locality" />
		<tag k="ssr:stedsnr" v="689444" />
	</node>
	<node id="-339572" lat="58.1309305571" lon="6.8343833296">
		<tag k="name" v="Steian" />
		<tag k="natural" v="slope" />
		<tag k="place" v="locality" />
		<tag k="ssr:stedsnr" v="689442" />
	</node>
	<node id="-339571" lat="58.0623444441" lon="6.96573056341">
		<tag k="fixme" v="consider natural=peak for the most distinct mountains in the district" />
		<tag k="name" v="Kyråsen" />
		<tag k="natural" v="hill" />
		<tag k="place" v="locality" />
		<tag k="ssr:stedsnr" v="689430" />
	</node>
	<node id="-339563" lat="58.1558749994" lon="6.65521110563">
		<tag k="name" v="Bakken" />
		<tag k="natural" v="slope" />
		<tag k="place" v="locality" />
		<tag k="ssr:stedsnr" v="689374" />
	</node>
	<node id="-339562" lat="58.1674944405" lon="6.6851999989">
		<tag k="name" v="Groverheia" />
		<tag k="natural" v="hill" />
		<tag k="place" v="locality" />
		<tag k="ssr:stedsnr" v="689372" />
	</node>
	<node id="-339554" lat="58.0731861098" lon="6.63460555145">
		<tag k="name" v="Marka" />
		<tag k="natural" v="hill" />
		<tag k="place" v="locality" />
		<tag k="ssr:stedsnr" v="667326" />
	</node>
	<node id="-339544" lat="58.1630361099" lon="6.72208888365">
		<tag k="fixme" v="consider natural=peak for the most distinct mountains in the district" />
		<tag k="name" v="Villheia" />
		<tag k="natural" v="hill" />
		<tag k="place" v="locality" />
		<tag k="ssr:stedsnr" v="667217" />
	</node>
	<node id="-339508" lat="58.1112527782" lon="6.88519166106">
		<tag k="name" v="Høgabakken" />
		<tag k="natural" v="slope" />
		<tag k="place" v="locality" />
		<tag k="ssr:stedsnr" v="628970" />
	</node>
	<node id="-339505" lat="58.1795472205" lon="6.85108610312">
		<tag k="name" v="Beitesletta" />
		<tag k="place" v="locality" />
		<tag k="ssr:stedsnr" v="628943" />
	</node>
	<node id="-339503" lat="58.1180166665" lon="6.92802778175">
		<tag k="fixme" v="consider natural=peak for the most distinct mountains in the district" />
		<tag k="name" v="Husefjellet" />
		<tag k="natural" v="hill" />
		<tag k="place" v="locality" />
		<tag k="ssr:stedsnr" v="628907" />
	</node>
	<node id="-339502" lat="58.1601416689" lon="6.79462500633">
		<tag k="name" v="Svelan" />
		<tag k="place" v="locality" />
		<tag k="ssr:stedsnr" v="628900" />
	</node>
	<node id="-339501" lat="58.1659222216" lon="6.78306110421">
		<tag k="fixme" v="consider natural=peak for the most distinct mountains in the district" />
		<tag k="name" v="Venafjellet" />
		<tag k="natural" v="hill" />
		<tag k="place" v="locality" />
		<tag k="ssr:stedsnr" v="628897" />
	</node>
	<node id="-339499" lat="58.1959083312" lon="6.71175556312">
		<tag k="name" v="Erskaran" />
		<tag k="natural" v="valley" />
		<tag k="place" v="locality" />
		<tag k="ssr:stedsnr" v="628871" />
	</node>
	<node id="-339497" lat="58.2015666692" lon="6.78406389381">
		<tag k="name" v="Astersheia" />
		<tag k="natural" v="hill" />
		<tag k="place" v="locality" />
		<tag k="ssr:stedsnr" v="628862" />
	</node>
	<node id="-339489" lat="58.207047218" lon="6.88073610608">
		<tag k="fixme" v="consider natural=peak for the most distinct mountains in the district" />
		<tag k="name" v="Forekammen" />
		<tag k="natural" v="hill" />
		<tag k="place" v="locality" />
		<tag k="ssr:stedsnr" v="628777" />
	</node>
	<node id="-339488" lat="58.1800722247" lon="6.88439166921">
		<tag k="name" v="Skjoldalsdalen" />
		<tag k="natural" v="valley" />
		<tag k="place" v="locality" />
		<tag k="ssr:stedsnr" v="628770" />
	</node>
	<node id="-339486" lat="58.1986583326" lon="6.91950277362">
		<tag k="fixme" v="consider natural=peak for the most distinct mountains in the district" />
		<tag k="name" v="Heimre Åsen" />
		<tag k="natural" v="hill" />
		<tag k="place" v="locality" />
		<tag k="ssr:stedsnr" v="628759" />
	</node>
	<node id="-339484" lat="58.1771472184" lon="6.8767555548">
		<tag k="name" v="Storhei" />
		<tag k="natural" v="hill" />
		<tag k="place" v="locality" />
		<tag k="ssr:stedsnr" v="628740" />
	</node>
	<node id="-339482" lat="58.0974277786" lon="6.69831667186">
		<tag k="name" v="Djupedalen" />
		<tag k="natural" v="valley" />
		<tag k="place" v="locality" />
		<tag k="ssr:stedsnr" v="628711" />
	</node>
	<node id="-339479" lat="58.0756083333" lon="6.79733055414">
		<tag k="fixme" v="consider natural=peak for the most distinct mountains in the district" />
		<tag k="name" v="Geitefjellet" />
		<tag k="natural" v="hill" />
		<tag k="place" v="locality" />
		<tag k="ssr:stedsnr" v="628659" />
	</node>
	<node id="-339475" lat="58.1118777767" lon="6.72748889643">
		<tag k="fixme" v="consider natural=peak for the most distinct mountains in the district" />
		<tag k="name" v="Haukåsen" />
		<tag k="natural" v="hill" />
		<tag k="place" v="locality" />
		<tag k="ssr:stedsnr" v="628642" />
	</node>
	<node id="-339473" lat="58.1192944458" lon="6.77221111538">
		<tag k="fixme" v="consider natural=peak for the most distinct mountains in the district" />
		<tag k="name" v="Raufjellet" />
		<tag k="natural" v="hill" />
		<tag k="place" v="locality" />
		<tag k="ssr:stedsnr" v="628627" />
	</node>
	<node id="-339471" lat="58.1164583344" lon="6.7172944395">
		<tag k="name" v="Langeskåra" />
		<tag k="place" v="locality" />
		<tag k="ssr:stedsnr" v="628609" />
	</node>
	<node id="-339467" lat="58.1158444414" lon="6.80387222213">
		<tag k="fixme" v="multiple name tags, choose one and add the other to alt_name" />
		<tag k="name" v="Hjortedalen;Hotledalen" />
		<tag k="natural" v="valley" />
		<tag k="place" v="locality" />
		<tag k="ssr:stedsnr" v="628582" />
	</node>
	<node id="-337961" lat="58.1433361088" lon="6.82583610953">
		<tag k="name" v="Sletthei" />
		<tag k="natural" v="hill" />
		<tag k="place" v="locality" />
		<tag k="ssr:stedsnr" v="324469" />
	</node>
	<node id="-339464" lat="58.1443527774" lon="6.76250277056">
		<tag k="fixme" v="consider natural=peak for the most distinct mountains in the district" />
		<tag k="name" v="Knuten" />
		<tag k="natural" v="hill" />
		<tag k="place" v="locality" />
		<tag k="ssr:stedsnr" v="628561" />
	</node>
	<node id="-339459" lat="58.1284472256" lon="6.7229333278">
		<tag k="fixme" v="consider natural=peak for the most distinct mountains in the district" />
		<tag k="name" v="Varåsen" />
		<tag k="natural" v="hill" />
		<tag k="place" v="locality" />
		<tag k="ssr:stedsnr" v="628550" />
	</node>
	<node id="-339456" lat="58.0763999999" lon="6.81164165937">
		<tag k="name" v="Eikebakken" />
		<tag k="natural" v="hill" />
		<tag k="place" v="locality" />
		<tag k="ssr:stedsnr" v="628525" />
	</node>
	<node id="-339453" lat="58.1030444465" lon="6.9417805482">
		<tag k="fixme" v="consider natural=peak for the most distinct mountains in the district" />
		<tag k="name" v="Berkjåsen" />
		<tag k="natural" v="hill" />
		<tag k="place" v="locality" />
		<tag k="ssr:stedsnr" v="628480" />
	</node>
	<node id="-339451" lat="58.1741500003" lon="6.68325277446">
		<tag k="name" v="Lunnan" />
		<tag k="natural" v="slope" />
		<tag k="place" v="locality" />
		<tag k="ssr:stedsnr" v="628472" />
	</node>
	<node id="-339448" lat="58.0947361069" lon="6.93082499777">
		<tag k="fixme" v="consider natural=peak for the most distinct mountains in the district" />
		<tag k="name" v="Rabneåsen" />
		<tag k="natural" v="hill" />
		<tag k="place" v="locality" />
		<tag k="ssr:stedsnr" v="628466" />
	</node>
	<node id="-339446" lat="58.0985472252" lon="6.85978055355">
		<tag k="fixme" v="consider natural=peak for the most distinct mountains in the district" />
		<tag k="name" v="Tolåsen" />
		<tag k="natural" v="hill" />
		<tag k="place" v="locality" />
		<tag k="ssr:stedsnr" v="628457" />
	</node>
	<node id="-339445" lat="58.1686527789" lon="6.72954722091">
		<tag k="name" v="Legebakkan" />
		<tag k="natural" v="slope" />
		<tag k="place" v="locality" />
		<tag k="ssr:stedsnr" v="628455" />
	</node>
	<node id="-339444" lat="58.0940083348" lon="6.85115834134">
		<tag k="fixme" v="consider natural=peak for the most distinct mountains in the district" />
		<tag k="name" v="Furåsen" />
		<tag k="natural" v="hill" />
		<tag k="place" v="locality" />
		<tag k="ssr:stedsnr" v="628456" />
	</node>
	<node id="-339443" lat="58.163069445" lon="6.73550555986">
		<tag k="fixme" v="consider natural=peak for the most distinct mountains in the district" />
		<tag k="name" v="Legefjellan" />
		<tag k="natural" v="hill" />
		<tag k="place" v="locality" />
		<tag k="ssr:stedsnr" v="628451" />
	</node>
	<node id="-339442" lat="58.1415083353" lon="6.81771666496">
		<tag k="fixme" v="consider natural=peak for the most distinct mountains in the district" />
		<tag k="name" v="Furuheia" />
		<tag k="natural" v="hill" />
		<tag k="place" v="locality" />
		<tag k="ssr:stedsnr" v="628449" />
	</node>
	<node id="-339441" lat="58.1510555561" lon="6.73632499732">
		<tag k="name" v="Kvithei" />
		<tag k="natural" v="hill" />
		<tag k="place" v="locality" />
		<tag k="ssr:stedsnr" v="628444" />
	</node>
	<node id="-339440" lat="58.1899694483" lon="6.75649722234">
		<tag k="name" v="Stegelia" />
		<tag k="natural" v="slope" />
		<tag k="place" v="locality" />
		<tag k="ssr:stedsnr" v="628443" />
	</node>
	<node id="-339439" lat="58.1342249994" lon="6.85064166296">
		<tag k="name" v="Skåra" />
		<tag k="natural" v="hill" />
		<tag k="place" v="locality" />
		<tag k="ssr:stedsnr" v="628440" />
	</node>
	<node id="-339435" lat="58.1071444407" lon="6.89173611557">
		<tag k="name" v="Skjebheia" />
		<tag k="natural" v="hill" />
		<tag k="place" v="locality" />
		<tag k="ssr:stedsnr" v="627985" />
	</node>
	<node id="-339434" lat="58.1146722227" lon="6.8976833346">
		<tag k="name" v="Stordalen" />
		<tag k="natural" v="valley" />
		<tag k="place" v="locality" />
		<tag k="ssr:stedsnr" v="627984" />
	</node>
	<node id="-339433" lat="58.1947194427" lon="6.68424444201">
		<tag k="fixme" v="consider natural=peak for the most distinct mountains in the district" />
		<tag k="name" v="Gjestebudfjellet" />
		<tag k="natural" v="hill" />
		<tag k="place" v="locality" />
		<tag k="ssr:stedsnr" v="627945" />
	</node>
	<node id="-339432" lat="58.1626027804" lon="6.76356388347">
		<tag k="name" v="Tjødnehelleren" />
		<tag k="place" v="locality" />
		<tag k="ssr:stedsnr" v="627935" />
	</node>
	<node id="-339405" lat="58.1589694472" lon="6.79720556284">
		<tag k="fixme" v="consider natural=peak for the most distinct mountains in the district" />
		<tag k="name" v="Sandsfjellet" />
		<tag k="natural" v="hill" />
		<tag k="place" v="locality" />
		<tag k="ssr:stedsnr" v="606203" />
	</node>
	<node id="-339402" lat="58.186752778" lon="6.92304999308">
		<tag k="alt_name" v="Lyheia" />
		<tag k="fixme" v="consider natural=peak for the most distinct mountains in the district" />
		<tag k="name" v="Lyfjellet" />
		<tag k="natural" v="hill" />
		<tag k="place" v="locality" />
		<tag k="ssr:stedsnr" v="606187" />
	</node>
	<node id="-339384" lat="58.0639999962" lon="6.87603889076">
		<tag k="fixme" v="consider natural=peak for the most distinct mountains in the district" />
		<tag k="name" v="Bremerfjell" />
		<tag k="natural" v="hill" />
		<tag k="place" v="locality" />
		<tag k="ssr:stedsnr" v="603106" />
	</node>
	<node id="-339367" lat="58.2123611109" lon="6.82372222621">
		<tag k="name" v="Revehola" />
		<tag k="natural" v="valley" />
		<tag k="place" v="locality" />
		<tag k="ssr:stedsnr" v="568826" />
	</node>
	<node id="-339365" lat="58.2051888911" lon="6.8435138938">
		<tag k="fixme" v="consider natural=peak for the most distinct mountains in the district" />
		<tag k="name" v="Volleknepen" />
		<tag k="natural" v="hill" />
		<tag k="place" v="locality" />
		<tag k="ssr:stedsnr" v="568806" />
	</node>
	<node id="-339359" lat="58.0840749959" lon="6.94458611706">
		<tag k="fixme" v="consider natural=peak for the most distinct mountains in the district" />
		<tag k="name" v="Slottsfjellet" />
		<tag k="natural" v="hill" />
		<tag k="place" v="locality" />
		<tag k="ssr:stedsnr" v="568455" />
	</node>
	<node id="-339354" lat="58.1809416674" lon="6.85741110847">
		<tag k="fixme" v="consider natural=peak for the most distinct mountains in the district" />
		<tag k="name" v="Vedremarkfjellan" />
		<tag k="natural" v="hill" />
		<tag k="place" v="locality" />
		<tag k="ssr:stedsnr" v="567971" />
	</node>
	<node id="-339352" lat="58.1118888904" lon="6.92894166799">
		<tag k="name" v="Tangen" />
		<tag k="natural" v="ridge" />
		<tag k="place" v="locality" />
		<tag k="ssr:stedsnr" v="567940" />
	</node>
	<node id="-339351" lat="58.1945611119" lon="6.69192500575">
		<tag k="name" v="Groderfjellet" />
		<tag k="natural" v="hill" />
		<tag k="place" v="locality" />
		<tag k="ssr:stedsnr" v="567935" />
	</node>
	<node id="-339350" lat="58.1622777775" lon="6.77973611233">
		<tag k="fixme" v="consider natural=peak for the most distinct mountains in the district" />
		<tag k="name" v="Forefjellet" />
		<tag k="natural" v="hill" />
		<tag k="place" v="locality" />
		<tag k="ssr:stedsnr" v="567931" />
	</node>
	<node id="-339348" lat="58.2045361096" lon="6.71100000681">
		<tag k="fixme" v="consider natural=peak for the most distinct mountains in the district" />
		<tag k="name" v="Kjeupsa" />
		<tag k="natural" v="hill" />
		<tag k="place" v="locality" />
		<tag k="ssr:stedsnr" v="567906" />
	</node>
	<node id="-339346" lat="58.1716805599" lon="6.76757500457">
		<tag k="name" v="Austheian" />
		<tag k="natural" v="hill" />
		<tag k="place" v="locality" />
		<tag k="ssr:stedsnr" v="567885" />
	</node>
	<node id="-339344" lat="58.1859861071" lon="6.78674444619">
		<tag k="fixme" v="consider natural=peak for the most distinct mountains in the district" />
		<tag k="name" v="Langåsen" />
		<tag k="natural" v="hill" />
		<tag k="place" v="locality" />
		<tag k="ssr:stedsnr" v="567874" />
	</node>
	<node id="-339341" lat="58.1913638915" lon="6.88701945045">
		<tag k="name" v="Steinsheia" />
		<tag k="natural" v="hill" />
		<tag k="place" v="locality" />
		<tag k="ssr:stedsnr" v="567777" />
	</node>
	<node id="-339339" lat="58.2209805565" lon="6.81901667161">
		<tag k="name" v="Bjellandsheia" />
		<tag k="natural" v="hill" />
		<tag k="place" v="locality" />
		<tag k="ssr:stedsnr" v="567757" />
	</node>
	<node id="-339334" lat="58.1248750034" lon="6.6968444364">
		<tag k="name" v="Revsdalen" />
		<tag k="natural" v="valley" />
		<tag k="place" v="locality" />
		<tag k="ssr:stedsnr" v="567717" />
	</node>
	<node id="-339332" lat="58.1203222263" lon="6.68405277712">
		<tag k="name" v="Faksvoll" />
		<tag k="natural" v="slope" />
		<tag k="place" v="locality" />
		<tag k="ssr:stedsnr" v="567713" />
	</node>
	<node id="-339330" lat="58.1515888861" lon="6.62714722224">
		<tag k="name" v="Åsnefjellet" />
		<tag k="natural" v="hill" />
		<tag k="place" v="locality" />
		<tag k="ssr:stedsnr" v="567696" />
	</node>
	<node id="-338155" lat="58.1597138921" lon="6.79146944605">
		<tag k="name" v="Dalten" />
		<tag k="natural" v="ridge" />
		<tag k="place" v="locality" />
		<tag k="ssr:stedsnr" v="385924" />
	</node>
	<node id="-339325" lat="58.1457583297" lon="6.66445277481">
		<tag k="fixme" v="consider natural=peak for the most distinct mountains in the district" />
		<tag k="name" v="Ravnefjell" />
		<tag k="natural" v="hill" />
		<tag k="place" v="locality" />
		<tag k="ssr:stedsnr" v="567645" />
	</node>
	<node id="-339324" lat="58.108111112" lon="6.71919722113">
		<tag k="fixme" v="consider natural=peak for the most distinct mountains in the district" />
		<tag k="name" v="Geitefjell" />
		<tag k="natural" v="hill" />
		<tag k="place" v="locality" />
		<tag k="ssr:stedsnr" v="567636" />
	</node>
	<node id="-339321" lat="58.1155666708" lon="6.7092972292">
		<tag k="fixme" v="consider natural=peak for the most distinct mountains in the district" />
		<tag k="name" v="Klovåsen" />
		<tag k="natural" v="hill" />
		<tag k="place" v="locality" />
		<tag k="ssr:stedsnr" v="567608" />
	</node>
	<node id="-339319" lat="58.0890500043" lon="6.70865833739">
		<tag k="name" v="Rødlandsheia" />
		<tag k="natural" v="hill" />
		<tag k="place" v="locality" />
		<tag k="ssr:stedsnr" v="567592" />
	</node>
	<node id="-339315" lat="58.1289222235" lon="6.73239722847">
		<tag k="name" v="Lindalen" />
		<tag k="natural" v="valley" />
		<tag k="place" v="locality" />
		<tag k="ssr:stedsnr" v="567557" />
	</node>
	<node id="-339314" lat="58.1369888889" lon="6.72478054727">
		<tag k="fixme" v="consider natural=peak for the most distinct mountains in the district" />
		<tag k="name" v="Andråskneben" />
		<tag k="natural" v="hill" />
		<tag k="place" v="locality" />
		<tag k="ssr:stedsnr" v="567554" />
	</node>
	<node id="-339312" lat="58.1368722256" lon="6.74910000242">
		<tag k="name" v="Klubben" />
		<tag k="natural" v="hill" />
		<tag k="place" v="locality" />
		<tag k="ssr:stedsnr" v="567546" />
	</node>
	<node id="-339311" lat="58.0837305583" lon="6.90981111259">
		<tag k="fixme" v="consider natural=peak for the most distinct mountains in the district" />
		<tag k="name" v="Agnefjellet" />
		<tag k="natural" v="hill" />
		<tag k="place" v="locality" />
		<tag k="ssr:stedsnr" v="567524" />
	</node>
	<node id="-339309" lat="58.093005553" lon="6.89697222286">
		<tag k="fixme" v="consider natural=peak for the most distinct mountains in the district" />
		<tag k="name" v="Liåsen" />
		<tag k="natural" v="hill" />
		<tag k="place" v="locality" />
		<tag k="ssr:stedsnr" v="567499" />
	</node>
	<node id="-339305" lat="58.10248611" lon="6.90004165843">
		<tag k="name" v="Vassenden" />
		<tag k="natural" v="valley" />
		<tag k="place" v="locality" />
		<tag k="ssr:stedsnr" v="567485" />
	</node>
	<node id="-339304" lat="58.1019166702" lon="6.95838332974">
		<tag k="fixme" v="consider natural=peak for the most distinct mountains in the district" />
		<tag k="name" v="Brennefjell" />
		<tag k="natural" v="hill" />
		<tag k="place" v="locality" />
		<tag k="ssr:stedsnr" v="567480" />
	</node>
	<node id="-339302" lat="58.1728277817" lon="6.69656111529">
		<tag k="fixme" v="consider natural=peak for the most distinct mountains in the district" />
		<tag k="name" v="Stifjellet" />
		<tag k="natural" v="hill" />
		<tag k="place" v="locality" />
		<tag k="ssr:stedsnr" v="567474" />
	</node>
	<node id="-339300" lat="58.1709055535" lon="6.72700277341">
		<tag k="name" v="Mevollen" />
		<tag k="natural" v="slope" />
		<tag k="place" v="locality" />
		<tag k="ssr:stedsnr" v="567459" />
	</node>
	<node id="-339299" lat="58.1710555536" lon="6.73641666294">
		<tag k="fixme" v="consider natural=peak for the most distinct mountains in the district" />
		<tag k="name" v="Kolås" />
		<tag k="natural" v="hill" />
		<tag k="place" v="locality" />
		<tag k="ssr:stedsnr" v="567457" />
	</node>
	<node id="-339292" lat="58.1343583332" lon="6.83568611246">
		<tag k="fixme" v="consider natural=peak for the most distinct mountains in the district" />
		<tag k="name" v="Rinna" />
		<tag k="natural" v="hill" />
		<tag k="place" v="locality" />
		<tag k="ssr:stedsnr" v="567440" />
	</node>
	<node id="-339291" lat="58.1842333304" lon="6.75207777775">
		<tag k="fixme" v="consider natural=peak for the most distinct mountains in the district" />
		<tag k="name" v="Ydderstøfjellet" />
		<tag k="natural" v="hill" />
		<tag k="place" v="locality" />
		<tag k="ssr:stedsnr" v="567436" />
	</node>
	<node id="-339290" lat="58.1788861106" lon="6.75582221407">
		<tag k="name" v="Ruskedalen" />
		<tag k="natural" v="valley" />
		<tag k="place" v="locality" />
		<tag k="ssr:stedsnr" v="567433" />
	</node>
	<node id="-339289" lat="58.1874861098" lon="6.73049443961">
		<tag k="name" v="Dalan" />
		<tag k="natural" v="valley" />
		<tag k="place" v="locality" />
		<tag k="ssr:stedsnr" v="567432" />
	</node>
	<node id="-337955" lat="58.1722416625" lon="6.75462499992">
		<tag k="fixme" v="consider natural=peak for the most distinct mountains in the district" />
		<tag k="name" v="Rødafjell" />
		<tag k="natural" v="hill" />
		<tag k="place" v="locality" />
		<tag k="ssr:stedsnr" v="324448" />
	</node>
	<node id="-338145" lat="58.1884416662" lon="6.77538888846">
		<tag k="fixme" v="consider natural=peak for the most distinct mountains in the district" />
		<tag k="name" v="Blåfjellet" />
		<tag k="natural" v="hill" />
		<tag k="place" v="locality" />
		<tag k="ssr:stedsnr" v="385851" />
	</node>
	<node id="-339267" lat="58.1188833378" lon="6.74219444711">
		<tag k="alt_name" v="Straumslandshusefjell" />
		<tag k="fixme" v="consider natural=peak for the most distinct mountains in the district" />
		<tag k="name" v="Husafjellet" />
		<tag k="natural" v="hill" />
		<tag k="place" v="locality" />
		<tag k="ssr:stedsnr" v="546252" />
	</node>
	<node id="-339265" lat="58.153819448" lon="6.71201388404">
		<tag k="alt_name" v="Storefjell" />
		<tag k="fixme" v="consider natural=peak for the most distinct mountains in the district" />
		<tag k="name" v="Storfjellet" />
		<tag k="natural" v="hill" />
		<tag k="place" v="locality" />
		<tag k="ssr:stedsnr" v="546219" />
	</node>
	<node id="-339264" lat="58.1526138869" lon="6.68067500037">
		<tag k="fixme" v="consider natural=peak for the most distinct mountains in the district" />
		<tag k="name" v="Hekkenfjellet" />
		<tag k="natural" v="hill" />
		<tag k="place" v="locality" />
		<tag k="ssr:stedsnr" v="546220" />
	</node>
	<node id="-339263" lat="58.1505750033" lon="6.7652249998">
		<tag k="alt_name" v="Buheia" />
		<tag k="fixme" v="consider natural=peak for the most distinct mountains in the district" />
		<tag k="name" v="Briseidheia" />
		<tag k="natural" v="hill" />
		<tag k="place" v="locality" />
		<tag k="ssr:stedsnr" v="546217" />
	</node>
	<node id="-338140" lat="58.1274472191" lon="6.65466389378">
		<tag k="fixme" v="consider natural=peak for the most distinct mountains in the district" />
		<tag k="name" v="Breifjellet" />
		<tag k="natural" v="hill" />
		<tag k="place" v="locality" />
		<tag k="ssr:stedsnr" v="385769" />
	</node>
	<node id="-339235" lat="58.2080166647" lon="6.86665277862">
		<tag k="fixme" v="consider natural=peak for the most distinct mountains in the district" />
		<tag k="name" v="Meheia" />
		<tag k="natural" v="hill" />
		<tag k="place" v="locality" />
		<tag k="ssr:stedsnr" v="507843" />
	</node>
	<node id="-339233" lat="58.1652333347" lon="6.85664167464">
		<tag k="name" v="Flordalen" />
		<tag k="natural" v="valley" />
		<tag k="place" v="locality" />
		<tag k="ssr:stedsnr" v="507837" />
	</node>
	<node id="-339232" lat="58.1962138865" lon="6.82157778437">
		<tag k="fixme" v="consider natural=peak for the most distinct mountains in the district" />
		<tag k="name" v="Veggberget" />
		<tag k="natural" v="hill" />
		<tag k="place" v="locality" />
		<tag k="ssr:stedsnr" v="507819" />
	</node>
	<node id="-339231" lat="58.1953916664" lon="6.85507500424">
		<tag k="name" v="Flåna" />
		<tag k="natural" v="ridge" />
		<tag k="place" v="locality" />
		<tag k="ssr:stedsnr" v="507810" />
	</node>
	<node id="-339230" lat="58.1962000025" lon="6.83619722996">
		<tag k="name" v="Harsdalen" />
		<tag k="natural" v="valley" />
		<tag k="place" v="locality" />
		<tag k="ssr:stedsnr" v="507806" />
	</node>
	<node id="-339228" lat="58.1979138893" lon="6.9132527775">
		<tag k="name" v="Vaddelia" />
		<tag k="natural" v="slope" />
		<tag k="place" v="locality" />
		<tag k="ssr:stedsnr" v="507787" />
	</node>
	<node id="-339227" lat="58.19889722" lon="6.91242777473">
		<tag k="name" v="Teigen" />
		<tag k="natural" v="hill" />
		<tag k="place" v="locality" />
		<tag k="ssr:stedsnr" v="507786" />
	</node>
	<node id="-339225" lat="58.123919447" lon="6.64169167267">
		<tag k="name" v="Ådnesknuten" />
		<tag k="natural" v="hill" />
		<tag k="place" v="locality" />
		<tag k="ssr:stedsnr" v="507762" />
	</node>
	<node id="-339224" lat="58.1136611123" lon="6.66283610307">
		<tag k="fixme" v="consider natural=peak for the most distinct mountains in the district" />
		<tag k="name" v="Donåsen" />
		<tag k="natural" v="hill" />
		<tag k="place" v="locality" />
		<tag k="ssr:stedsnr" v="507756" />
	</node>
	<node id="-339223" lat="58.1133833372" lon="6.65733610882">
		<tag k="name" v="Langebakk" />
		<tag k="natural" v="ridge" />
		<tag k="place" v="locality" />
		<tag k="ssr:stedsnr" v="507755" />
	</node>
	<node id="-338137" lat="58.1207055535" lon="6.65672222616">
		<tag k="name" v="Frøylandsdalen" />
		<tag k="natural" v="valley" />
		<tag k="place" v="locality" />
		<tag k="ssr:stedsnr" v="385747" />
	</node>
	<node id="-339220" lat="58.1204305583" lon="6.67707500449">
		<tag k="name" v="Kallshaug" />
		<tag k="natural" v="hill" />
		<tag k="place" v="locality" />
		<tag k="ssr:stedsnr" v="507736" />
	</node>
	<node id="-339218" lat="58.1499472198" lon="6.63468054848">
		<tag k="name" v="Gråfjell" />
		<tag k="natural" v="hill" />
		<tag k="place" v="locality" />
		<tag k="ssr:stedsnr" v="507721" />
	</node>
	<node id="-339217" lat="58.1484527809" lon="6.61046667139">
		<tag k="name" v="Kasseberje" />
		<tag k="natural" v="hill" />
		<tag k="place" v="locality" />
		<tag k="ssr:stedsnr" v="507716" />
	</node>
	<node id="-339216" lat="58.1370583348" lon="6.64544444668">
		<tag k="name" v="Brødkorja" />
		<tag k="place" v="locality" />
		<tag k="ssr:stedsnr" v="507715" />
	</node>
	<node id="-339214" lat="58.1309805516" lon="6.6078972175">
		<tag k="name" v="Mona" />
		<tag k="place" v="locality" />
		<tag k="ssr:stedsnr" v="507705" />
	</node>
	<node id="-339213" lat="58.1323166707" lon="6.61344445075">
		<tag k="name" v="Jærbergsletta" />
		<tag k="place" v="locality" />
		<tag k="ssr:stedsnr" v="507703" />
	</node>
	<node id="-339211" lat="58.1556638931" lon="6.62515555486">
		<tag k="fixme" v="consider natural=peak for the most distinct mountains in the district" />
		<tag k="name" v="Sjonefjellet" />
		<tag k="natural" v="hill" />
		<tag k="place" v="locality" />
		<tag k="ssr:stedsnr" v="507691" />
	</node>
	<node id="-339206" lat="58.0623861156" lon="6.78991667114">
		<tag k="name" v="Risbakk" />
		<tag k="natural" v="hill" />
		<tag k="place" v="locality" />
		<tag k="ssr:stedsnr" v="507680" />
	</node>
	<node id="-339205" lat="58.1133638909" lon="6.73911945041">
		<tag k="fixme" v="consider natural=peak for the most distinct mountains in the district" />
		<tag k="name" v="Helvikåsen" />
		<tag k="natural" v="hill" />
		<tag k="place" v="locality" />
		<tag k="ssr:stedsnr" v="507663" />
	</node>
	<node id="-339203" lat="58.1223500043" lon="6.79105554882">
		<tag k="fixme" v="consider natural=peak for the most distinct mountains in the district" />
		<tag k="name" v="Bukkeknuten" />
		<tag k="natural" v="hill" />
		<tag k="place" v="locality" />
		<tag k="ssr:stedsnr" v="507649" />
	</node>
	<node id="-339199" lat="58.1164333324" lon="6.70583611273">
		<tag k="name" v="Langebakk" />
		<tag k="natural" v="slope" />
		<tag k="place" v="locality" />
		<tag k="ssr:stedsnr" v="507632" />
	</node>
	<node id="-339198" lat="58.1166694477" lon="6.71460833345">
		<tag k="fixme" v="consider natural=peak for the most distinct mountains in the district" />
		<tag k="name" v="Skåråsen" />
		<tag k="natural" v="hill" />
		<tag k="place" v="locality" />
		<tag k="ssr:stedsnr" v="507631" />
	</node>
	<node id="-339195" lat="58.0955277744" lon="6.74249722325">
		<tag k="name" v="Kjørrefjorddalen" />
		<tag k="natural" v="valley" />
		<tag k="place" v="locality" />
		<tag k="ssr:stedsnr" v="507616" />
	</node>
	<node id="-339193" lat="58.0969083336" lon="6.70817499746">
		<tag k="name" v="Kråkedalen" />
		<tag k="natural" v="valley" />
		<tag k="place" v="locality" />
		<tag k="ssr:stedsnr" v="507602" />
	</node>
	<node id="-339191" lat="58.0946777735" lon="6.7232527784">
		<tag k="name" v="Grimsbyheia" />
		<tag k="natural" v="hill" />
		<tag k="place" v="locality" />
		<tag k="ssr:stedsnr" v="507600" />
	</node>
	<node id="-339189" lat="58.1268055557" lon="6.82446388416">
		<tag k="fixme" v="consider natural=peak for the most distinct mountains in the district" />
		<tag k="name" v="Ravnefjell" />
		<tag k="natural" v="hill" />
		<tag k="place" v="locality" />
		<tag k="ssr:stedsnr" v="507545" />
	</node>
	<node id="-339184" lat="58.0914527785" lon="6.89890833856">
		<tag k="fixme" v="consider natural=peak for the most distinct mountains in the district" />
		<tag k="name" v="Kålåsen" />
		<tag k="natural" v="hill" />
		<tag k="place" v="locality" />
		<tag k="ssr:stedsnr" v="507498" />
	</node>
	<node id="-339183" lat="58.0851750044" lon="6.86713889469">
		<tag k="fixme" v="consider natural=peak for the most distinct mountains in the district" />
		<tag k="name" v="Døråsen" />
		<tag k="natural" v="hill" />
		<tag k="place" v="locality" />
		<tag k="ssr:stedsnr" v="507489" />
	</node>
	<node id="-339182" lat="58.1021666704" lon="6.91297777426">
		<tag k="fixme" v="consider natural=peak for the most distinct mountains in the district" />
		<tag k="name" v="Lyngåsen" />
		<tag k="natural" v="hill" />
		<tag k="place" v="locality" />
		<tag k="ssr:stedsnr" v="507476" />
	</node>
	<node id="-339181" lat="58.1137527786" lon="6.82988610943">
		<tag k="fixme" v="consider natural=peak for the most distinct mountains in the district" />
		<tag k="name" v="Solbjørfjellan" />
		<tag k="natural" v="hill" />
		<tag k="place" v="locality" />
		<tag k="ssr:stedsnr" v="507470" />
	</node>
	<node id="-339180" lat="58.17352222" lon="6.69855554943">
		<tag k="name" v="Grytedalen" />
		<tag k="natural" v="valley" />
		<tag k="place" v="locality" />
		<tag k="ssr:stedsnr" v="507465" />
	</node>
	<node id="-339177" lat="58.0997666668" lon="6.93156388896">
		<tag k="fixme" v="consider natural=peak for the most distinct mountains in the district" />
		<tag k="name" v="Fjellet" />
		<tag k="natural" v="hill" />
		<tag k="place" v="locality" />
		<tag k="ssr:stedsnr" v="507458" />
	</node>
	<node id="-339175" lat="58.1662166652" lon="6.73627777294">
		<tag k="name" v="Kalvehagen" />
		<tag k="natural" v="slope" />
		<tag k="place" v="locality" />
		<tag k="ssr:stedsnr" v="507443" />
	</node>
	<node id="-338129" lat="58.1178583327" lon="6.72213054856">
		<tag k="name" v="Røssegrava" />
		<tag k="place" v="locality" />
		<tag k="ssr:stedsnr" v="385635" />
	</node>
	<node id="-339172" lat="58.1798611072" lon="6.75439166745">
		<tag k="fixme" v="consider natural=peak for the most distinct mountains in the district" />
		<tag k="name" v="Kjørkebergflåna" />
		<tag k="natural" v="hill" />
		<tag k="place" v="locality" />
		<tag k="ssr:stedsnr" v="507427" />
	</node>
	<node id="-339171" lat="58.0623666636" lon="6.95703610911">
		<tag k="fixme" v="consider natural=peak for the most distinct mountains in the district" />
		<tag k="name" v="Steindalsfjellet" />
		<tag k="natural" v="hill" />
		<tag k="place" v="locality" />
		<tag k="ssr:stedsnr" v="507420" />
	</node>
	<node id="-339168" lat="58.0949416658" lon="6.86446944283">
		<tag k="name" v="Nenningskar" />
		<tag k="natural" v="valley" />
		<tag k="place" v="locality" />
		<tag k="ssr:stedsnr" v="507373" />
	</node>
	<node id="-339158" lat="58.1151388909" lon="6.89238332589">
		<tag k="fixme" v="consider natural=peak for the most distinct mountains in the district" />
		<tag k="name" v="Lyngfjell" />
		<tag k="natural" v="hill" />
		<tag k="place" v="locality" />
		<tag k="ssr:stedsnr" v="506971" />
	</node>
	<node id="-339156" lat="58.1745944489" lon="6.86368055785">
		<tag k="name" v="Venehei" />
		<tag k="natural" v="hill" />
		<tag k="place" v="locality" />
		<tag k="ssr:stedsnr" v="506951" />
	</node>
	<node id="-339153" lat="58.0609333311" lon="6.94085832919">
		<tag k="fixme" v="consider natural=peak for the most distinct mountains in the district" />
		<tag k="name" v="Hovdefjell" />
		<tag k="natural" v="hill" />
		<tag k="place" v="locality" />
		<tag k="ssr:stedsnr" v="506945" />
	</node>
	<node id="-339150" lat="58.1222138926" lon="6.92980278499">
		<tag k="fixme" v="consider natural=peak for the most distinct mountains in the district" />
		<tag k="name" v="Skodåsen" />
		<tag k="natural" v="hill" />
		<tag k="place" v="locality" />
		<tag k="ssr:stedsnr" v="506935" />
	</node>
	<node id="-339148" lat="58.1656194459" lon="6.77253889485">
		<tag k="name" v="Logsheia" />
		<tag k="natural" v="hill" />
		<tag k="place" v="locality" />
		<tag k="ssr:stedsnr" v="506914" />
	</node>
	<node id="-339147" lat="58.1603000007" lon="6.76405554771">
		<tag k="name" v="Teinlia" />
		<tag k="natural" v="slope" />
		<tag k="place" v="locality" />
		<tag k="ssr:stedsnr" v="506911" />
	</node>
	<node id="-339145" lat="58.1999361131" lon="6.75463332615">
		<tag k="name" v="Storheia" />
		<tag k="natural" v="hill" />
		<tag k="place" v="locality" />
		<tag k="ssr:stedsnr" v="506903" />
	</node>
	<node id="-339144" lat="58.1932888914" lon="6.70976666018">
		<tag k="name" v="Refsdalen" />
		<tag k="natural" v="valley" />
		<tag k="place" v="locality" />
		<tag k="ssr:stedsnr" v="506894" />
	</node>
	<node id="-339143" lat="58.1943250019" lon="6.73999166546">
		<tag k="fixme" v="consider natural=peak for the most distinct mountains in the district" />
		<tag k="name" v="Helleråsen" />
		<tag k="natural" v="hill" />
		<tag k="place" v="locality" />
		<tag k="ssr:stedsnr" v="506892" />
	</node>
	<node id="-339141" lat="58.1901916688" lon="6.78005278275">
		<tag k="name" v="Haugere" />
		<tag k="natural" v="ridge" />
		<tag k="place" v="locality" />
		<tag k="ssr:stedsnr" v="506877" />
	</node>
	<node id="-338123" lat="58.111508335" lon="6.7754749917">
		<tag k="fixme" v="consider natural=peak for the most distinct mountains in the district" />
		<tag k="name" v="Ribbåsen" />
		<tag k="natural" v="hill" />
		<tag k="place" v="locality" />
		<tag k="ssr:stedsnr" v="385610" />
	</node>
	<node id="-339136" lat="58.1196194412" lon="6.8072500084">
		<tag k="fixme" v="consider natural=peak for the most distinct mountains in the district" />
		<tag k="name" v="Revestølen" />
		<tag k="natural" v="hill" />
		<tag k="place" v="locality" />
		<tag k="ssr:stedsnr" v="506593" />
	</node>
	<node id="-339135" lat="58.1325083343" lon="6.78941111398">
		<tag k="fixme" v="consider natural=peak for the most distinct mountains in the district" />
		<tag k="name" v="Tollakskårfjellet" />
		<tag k="natural" v="hill" />
		<tag k="place" v="locality" />
		<tag k="ssr:stedsnr" v="506573" />
	</node>
	<node id="-339134" lat="58.1439416701" lon="6.83376665892">
		<tag k="name" v="Støa" />
		<tag k="natural" v="valley" />
		<tag k="place" v="locality" />
		<tag k="ssr:stedsnr" v="506528" />
	</node>
	<node id="-339133" lat="58.1789277753" lon="6.73253054831">
		<tag k="name" v="Kjørvikskaret" />
		<tag k="natural" v="valley" />
		<tag k="place" v="locality" />
		<tag k="ssr:stedsnr" v="506441" />
	</node>
	<node id="-338122" lat="58.1119055519" lon="6.81105000512">
		<tag k="fixme" v="consider natural=peak for the most distinct mountains in the district" />
		<tag k="name" v="Beiskefjell" />
		<tag k="natural" v="hill" />
		<tag k="place" v="locality" />
		<tag k="ssr:stedsnr" v="385604" />
	</node>
	<node id="-338120" lat="58.1602416666" lon="6.63069722942">
		<tag k="name" v="Hestedalen" />
		<tag k="natural" v="valley" />
		<tag k="place" v="locality" />
		<tag k="ssr:stedsnr" v="385711" />
	</node>
	<node id="-338119" lat="58.1603833335" lon="6.62599722595">
		<tag k="fixme" v="consider natural=peak for the most distinct mountains in the district" />
		<tag k="name" v="Trinta" />
		<tag k="natural" v="hill" />
		<tag k="place" v="locality" />
		<tag k="ssr:stedsnr" v="385709" />
	</node>
	<node id="-339079" lat="58.2086944478" lon="6.85338054739">
		<tag k="name" v="Husdalen" />
		<tag k="natural" v="valley" />
		<tag k="place" v="locality" />
		<tag k="ssr:stedsnr" v="447810" />
	</node>
	<node id="-339078" lat="58.2025888864" lon="6.84050832889">
		<tag k="fixme" v="consider natural=peak for the most distinct mountains in the district" />
		<tag k="name" v="Husebakken" />
		<tag k="natural" v="hill" />
		<tag k="place" v="locality" />
		<tag k="ssr:stedsnr" v="447799" />
	</node>
	<node id="-339077" lat="58.2054611129" lon="6.83108333452">
		<tag k="name" v="Tona" />
		<tag k="place" v="locality" />
		<tag k="ssr:stedsnr" v="447798" />
	</node>
	<node id="-339076" lat="58.2004250032" lon="6.90596944597">
		<tag k="fixme" v="consider natural=peak for the most distinct mountains in the district" />
		<tag k="name" v="Kveinåsen" />
		<tag k="natural" v="hill" />
		<tag k="place" v="locality" />
		<tag k="ssr:stedsnr" v="447777" />
	</node>
	<node id="-339075" lat="58.2054944487" lon="6.8913805515">
		<tag k="name" v="Kattundalen" />
		<tag k="natural" v="valley" />
		<tag k="place" v="locality" />
		<tag k="ssr:stedsnr" v="447774" />
	</node>
	<node id="-339072" lat="58.0973277745" lon="6.82333611787">
		<tag k="fixme" v="consider natural=peak for the most distinct mountains in the district" />
		<tag k="name" v="Ørnesede" />
		<tag k="natural" v="hill" />
		<tag k="place" v="locality" />
		<tag k="ssr:stedsnr" v="447368" />
	</node>
	<node id="-339065" lat="58.111569448" lon="6.90408334053">
		<tag k="name" v="Hestebakken" />
		<tag k="natural" v="slope" />
		<tag k="place" v="locality" />
		<tag k="ssr:stedsnr" v="446987" />
	</node>
	<node id="-339064" lat="58.1148972211" lon="6.90028889571">
		<tag k="name" v="Groboheia" />
		<tag k="natural" v="hill" />
		<tag k="place" v="locality" />
		<tag k="ssr:stedsnr" v="446983" />
	</node>
	<node id="-339063" lat="58.1910194478" lon="6.84823888854">
		<tag k="name" v="Ørnedalen" />
		<tag k="natural" v="valley" />
		<tag k="place" v="locality" />
		<tag k="ssr:stedsnr" v="446979" />
	</node>
	<node id="-339058" lat="58.1186388906" lon="6.92851111094">
		<tag k="name" v="Olsakerbakken" />
		<tag k="natural" v="slope" />
		<tag k="place" v="locality" />
		<tag k="ssr:stedsnr" v="446941" />
	</node>
	<node id="-339057" lat="58.1950416646" lon="6.69937777627">
		<tag k="name" v="Skagelidalen" />
		<tag k="natural" v="valley" />
		<tag k="place" v="locality" />
		<tag k="ssr:stedsnr" v="446940" />
	</node>
	<node id="-339055" lat="58.1628166644" lon="6.7956361132">
		<tag k="name" v="Heigrehalsen" />
		<tag k="natural" v="valley" />
		<tag k="place" v="locality" />
		<tag k="ssr:stedsnr" v="446926" />
	</node>
	<node id="-339051" lat="58.1853166688" lon="6.76960833851">
		<tag k="name" v="Borknebakken" />
		<tag k="natural" v="slope" />
		<tag k="place" v="locality" />
		<tag k="ssr:stedsnr" v="446871" />
	</node>
	<node id="-339050" lat="58.1917000038" lon="6.76700277825">
		<tag k="name" v="Abaldalen" />
		<tag k="natural" v="valley" />
		<tag k="place" v="locality" />
		<tag k="ssr:stedsnr" v="446865" />
	</node>
	<node id="-339049" lat="58.2169833318" lon="6.77296111927">
		<tag k="name" v="Rundehaugen" />
		<tag k="natural" v="hill" />
		<tag k="place" v="locality" />
		<tag k="ssr:stedsnr" v="446856" />
	</node>
	<node id="-339048" lat="58.2144000006" lon="6.78282778238">
		<tag k="name" v="Åseglova" />
		<tag k="natural" v="valley" />
		<tag k="place" v="locality" />
		<tag k="ssr:stedsnr" v="446846" />
	</node>
	<node id="-339046" lat="58.1628194427" lon="6.85558611718">
		<tag k="fixme" v="consider natural=peak for the most distinct mountains in the district" />
		<tag k="name" v="Krossberget" />
		<tag k="natural" v="hill" />
		<tag k="place" v="locality" />
		<tag k="ssr:stedsnr" v="446828" />
	</node>
	<node id="-339045" lat="58.1822777748" lon="6.8840944518">
		<tag k="fixme" v="consider natural=peak for the most distinct mountains in the district" />
		<tag k="name" v="Vardehei" />
		<tag k="natural" v="hill" />
		<tag k="place" v="locality" />
		<tag k="ssr:stedsnr" v="446794" />
	</node>
	<node id="-339044" lat="58.1856333301" lon="6.87198889172">
		<tag k="fixme" v="consider natural=peak for the most distinct mountains in the district" />
		<tag k="name" v="Rabnefjellnosa" />
		<tag k="natural" v="hill" />
		<tag k="place" v="locality" />
		<tag k="ssr:stedsnr" v="446790" />
	</node>
	<node id="-339043" lat="58.2184333315" lon="6.82420834002">
		<tag k="name" v="Bjellandsdalen" />
		<tag k="natural" v="valley" />
		<tag k="place" v="locality" />
		<tag k="ssr:stedsnr" v="446777" />
	</node>
	<node id="-339041" lat="58.1097611116" lon="6.66356110825">
		<tag k="fixme" v="consider natural=peak for the most distinct mountains in the district" />
		<tag k="name" v="Jonsogfjellet" />
		<tag k="natural" v="hill" />
		<tag k="place" v="locality" />
		<tag k="ssr:stedsnr" v="446761" />
	</node>
	<node id="-339040" lat="58.1133416637" lon="6.68243889624">
		<tag k="name" v="Omdalslian" />
		<tag k="natural" v="slope" />
		<tag k="place" v="locality" />
		<tag k="ssr:stedsnr" v="446725" />
	</node>
	<node id="-339039" lat="58.1459999959" lon="6.62241666502">
		<tag k="name" v="Breiskaret" />
		<tag k="natural" v="valley" />
		<tag k="place" v="locality" />
		<tag k="ssr:stedsnr" v="446720" />
	</node>
	<node id="-339038" lat="58.1513388911" lon="6.61424722814">
		<tag k="fixme" v="consider natural=peak for the most distinct mountains in the district" />
		<tag k="name" v="Sedberget" />
		<tag k="natural" v="hill" />
		<tag k="place" v="locality" />
		<tag k="ssr:stedsnr" v="446710" />
	</node>
	<node id="-339034" lat="58.1413527823" lon="6.67161111418">
		<tag k="name" v="Storefjell" />
		<tag k="natural" v="hill" />
		<tag k="place" v="locality" />
		<tag k="ssr:stedsnr" v="446670" />
	</node>
	<node id="-339032" lat="58.1168194472" lon="6.78012777635">
		<tag k="fixme" v="consider natural=peak for the most distinct mountains in the district" />
		<tag k="name" v="Nørskårstranda" />
		<tag k="natural" v="hill" />
		<tag k="place" v="locality" />
		<tag k="ssr:stedsnr" v="446653" />
	</node>
	<node id="-339027" lat="58.0911250039" lon="6.79082500164">
		<tag k="fixme" v="consider natural=peak for the most distinct mountains in the district" />
		<tag k="name" v="Trollkirka" />
		<tag k="natural" v="hill" />
		<tag k="place" v="locality" />
		<tag k="ssr:stedsnr" v="446622" />
	</node>
	<node id="-339025" lat="58.1090805513" lon="6.77281388455">
		<tag k="fixme" v="consider natural=peak for the most distinct mountains in the district" />
		<tag k="name" v="Kistefjellet" />
		<tag k="natural" v="hill" />
		<tag k="place" v="locality" />
		<tag k="ssr:stedsnr" v="446594" />
	</node>
	<node id="-339024" lat="58.1106138888" lon="6.77424721931">
		<tag k="name" v="Hestedalen" />
		<tag k="natural" v="valley" />
		<tag k="place" v="locality" />
		<tag k="ssr:stedsnr" v="446591" />
	</node>
	<node id="-339020" lat="58.1406861072" lon="6.78378611868">
		<tag k="name" v="Mørkevannsheia" />
		<tag k="natural" v="hill" />
		<tag k="place" v="locality" />
		<tag k="ssr:stedsnr" v="446576" />
	</node>
	<node id="-339019" lat="58.1228222193" lon="6.83192500473">
		<tag k="name" v="Kjeseheia" />
		<tag k="natural" v="hill" />
		<tag k="place" v="locality" />
		<tag k="ssr:stedsnr" v="446558" />
	</node>
	<node id="-339017" lat="58.0761777781" lon="6.91547222591">
		<tag k="name" v="Slette Bugdøy" />
		<tag k="natural" v="valley" />
		<tag k="place" v="locality" />
		<tag k="ssr:stedsnr" v="446538" />
	</node>
	<node id="-339013" lat="58.0919444488" lon="6.88245833309">
		<tag k="name" v="Bjorsdalen" />
		<tag k="natural" v="valley" />
		<tag k="place" v="locality" />
		<tag k="ssr:stedsnr" v="446513" />
	</node>
	<node id="-339010" lat="58.0995000036" lon="6.89796666343">
		<tag k="fixme" v="consider natural=peak for the most distinct mountains in the district" />
		<tag k="name" v="Årikstadåsen" />
		<tag k="natural" v="hill" />
		<tag k="place" v="locality" />
		<tag k="ssr:stedsnr" v="446501" />
	</node>
	<node id="-339003" lat="58.1408249964" lon="6.82125000376">
		<tag k="name" v="Jordbakkan" />
		<tag k="natural" v="slope" />
		<tag k="place" v="locality" />
		<tag k="ssr:stedsnr" v="446461" />
	</node>
	<node id="-339001" lat="58.1763861139" lon="6.75449999701">
		<tag k="name" v="Kompanfladen" />
		<tag k="natural" v="hill" />
		<tag k="place" v="locality" />
		<tag k="ssr:stedsnr" v="446451" />
	</node>
	<node id="-339000" lat="58.068966666" lon="6.96266389601">
		<tag k="fixme" v="consider natural=peak for the most distinct mountains in the district" />
		<tag k="name" v="Myråsen" />
		<tag k="natural" v="hill" />
		<tag k="place" v="locality" />
		<tag k="ssr:stedsnr" v="446444" />
	</node>
	<node id="-338973" lat="58.2051888848" lon="6.78311666707">
		<tag k="alt_name" v="Espeåsen" />
		<tag k="name" v="Melandsheia" />
		<tag k="natural" v="hill" />
		<tag k="place" v="locality" />
		<tag k="ssr:stedsnr" v="425185" />
	</node>
	<node id="-338971" lat="58.0931638896" lon="6.82221388936">
		<tag k="name" v="Spindslandet" />
		<tag k="place" v="locality" />
		<tag k="ssr:stedsnr" v="422909" />
	</node>
	<node id="-338094" lat="58.079402781" lon="6.91604999392">
		<tag k="fixme" v="consider natural=peak for the most distinct mountains in the district" />
		<tag k="name" v="Fløyfjellet" />
		<tag k="natural" v="hill" />
		<tag k="place" v="locality" />
		<tag k="ssr:stedsnr" v="385540" />
	</node>
	<node id="-338956" lat="58.2126111108" lon="6.86405278133">
		<tag k="fixme" v="consider natural=peak for the most distinct mountains in the district" />
		<tag k="name" v="Hestheia" />
		<tag k="natural" v="hill" />
		<tag k="place" v="locality" />
		<tag k="ssr:stedsnr" v="265846" />
	</node>
	<node id="-338955" lat="58.2004055589" lon="6.84240832686">
		<tag k="name" v="Mørkelia" />
		<tag k="natural" v="slope" />
		<tag k="place" v="locality" />
		<tag k="ssr:stedsnr" v="265833" />
	</node>
	<node id="-338953" lat="58.0852638892" lon="6.96726944595">
		<tag k="name" v="Tonsbergheia" />
		<tag k="natural" v="hill" />
		<tag k="place" v="locality" />
		<tag k="ssr:stedsnr" v="265483" />
	</node>
	<node id="-338949" lat="58.182372224" lon="6.82890833482">
		<tag k="fixme" v="consider natural=peak for the most distinct mountains in the district" />
		<tag k="name" v="Sarpa" />
		<tag k="natural" v="hill" />
		<tag k="ssr:stedsnr" v="264966" />
	</node>
	<node id="-338943" lat="58.0425305572" lon="6.9292333257">
		<tag k="fixme" v="consider natural=peak for the most distinct mountains in the district" />
		<tag k="name" v="Åsen" />
		<tag k="natural" v="hill" />
		<tag k="place" v="locality" />
		<tag k="ssr:stedsnr" v="264936" />
	</node>
	<node id="-338942" lat="58.1680694432" lon="6.79488054936">
		<tag k="name" v="Røynåsbrotan" />
		<tag k="natural" v="slope" />
		<tag k="place" v="locality" />
		<tag k="ssr:stedsnr" v="264919" />
	</node>
	<node id="-338941" lat="58.2034527793" lon="6.7467222296">
		<tag k="fixme" v="consider natural=peak for the most distinct mountains in the district" />
		<tag k="name" v="Austeskårfjellet" />
		<tag k="natural" v="hill" />
		<tag k="place" v="locality" />
		<tag k="ssr:stedsnr" v="264900" />
	</node>
	<node id="-338940" lat="58.2140111102" lon="6.77498888087">
		<tag k="name" v="Odden" />
		<tag k="natural" v="hill" />
		<tag k="place" v="locality" />
		<tag k="ssr:stedsnr" v="264875" />
	</node>
	<node id="-338939" lat="58.1951777783" lon="6.77695834094">
		<tag k="name" v="Slettan" />
		<tag k="place" v="locality" />
		<tag k="ssr:stedsnr" v="264867" />
	</node>
	<node id="-338937" lat="58.177013892" lon="6.79960833157">
		<tag k="name" v="Odrelia" />
		<tag k="natural" v="slope" />
		<tag k="place" v="locality" />
		<tag k="ssr:stedsnr" v="264862" />
	</node>
	<node id="-338935" lat="58.2187666672" lon="6.87749167173">
		<tag k="name" v="Grønnestøa" />
		<tag k="natural" v="hill" />
		<tag k="place" v="locality" />
		<tag k="ssr:stedsnr" v="264775" />
	</node>
	<node id="-338934" lat="58.2217583359" lon="6.84031944698">
		<tag k="name" v="Kvassekleiva" />
		<tag k="natural" v="slope" />
		<tag k="place" v="locality" />
		<tag k="ssr:stedsnr" v="264770" />
	</node>
	<node id="-338933" lat="58.2173055536" lon="6.82886110999">
		<tag k="name" v="Rabbusheidalen" />
		<tag k="natural" v="valley" />
		<tag k="place" v="locality" />
		<tag k="ssr:stedsnr" v="264771" />
	</node>
	<node id="-338932" lat="58.2199777758" lon="6.83671666855">
		<tag k="fixme" v="consider natural=peak for the most distinct mountains in the district" />
		<tag k="name" v="Bakkabergan" />
		<tag k="natural" v="hill" />
		<tag k="place" v="locality" />
		<tag k="ssr:stedsnr" v="264769" />
	</node>
	<node id="-338926" lat="58.1216083348" lon="6.66228888643">
		<tag k="name" v="Haustefjellet" />
		<tag k="natural" v="hill" />
		<tag k="place" v="locality" />
		<tag k="ssr:stedsnr" v="264722" />
	</node>
	<node id="-338925" lat="58.118172223" lon="6.67482778431">
		<tag k="name" v="Varbakk" />
		<tag k="natural" v="slope" />
		<tag k="place" v="locality" />
		<tag k="ssr:stedsnr" v="264717" />
	</node>
	<node id="-338924" lat="58.109113886" lon="6.68923332815">
		<tag k="name" v="Hetlandsheia" />
		<tag k="natural" v="hill" />
		<tag k="place" v="locality" />
		<tag k="ssr:stedsnr" v="264714" />
	</node>
	<node id="-338922" lat="58.1465138863" lon="6.64085278194">
		<tag k="name" v="Tjenndalen" />
		<tag k="natural" v="valley" />
		<tag k="place" v="locality" />
		<tag k="ssr:stedsnr" v="264698" />
	</node>
	<node id="-338919" lat="58.1650277805" lon="6.62718610676">
		<tag k="name" v="Husefjellet" />
		<tag k="natural" v="hill" />
		<tag k="place" v="locality" />
		<tag k="ssr:stedsnr" v="264681" />
	</node>
	<node id="-338914" lat="58.1315916687" lon="6.68243056385">
		<tag k="name" v="Eigelandsberget" />
		<tag k="natural" v="hill" />
		<tag k="place" v="locality" />
		<tag k="ssr:stedsnr" v="264636" />
	</node>
	<node id="-338911" lat="58.1069166688" lon="6.77481111703">
		<tag k="name" v="Øyvollsreet" />
		<tag k="natural" v="ridge" />
		<tag k="place" v="locality" />
		<tag k="ssr:stedsnr" v="264589" />
	</node>
	<node id="-338908" lat="58.1454277778" lon="6.7774388945">
		<tag k="name" v="Kjerringdalsfjellan" />
		<tag k="natural" v="hill" />
		<tag k="place" v="locality" />
		<tag k="ssr:stedsnr" v="264566" />
	</node>
	<node id="-338907" lat="58.1206222217" lon="6.82314999601">
		<tag k="fixme" v="consider natural=peak for the most distinct mountains in the district" />
		<tag k="name" v="Vardefjell" />
		<tag k="natural" v="hill" />
		<tag k="place" v="locality" />
		<tag k="ssr:stedsnr" v="264555" />
	</node>
	<node id="-338905" lat="58.124255556" lon="6.85087221619">
		<tag k="fixme" v="consider natural=peak for the most distinct mountains in the district" />
		<tag k="name" v="Borgåsen" />
		<tag k="natural" v="hill" />
		<tag k="place" v="locality" />
		<tag k="ssr:stedsnr" v="264548" />
	</node>
	<node id="-338899" lat="58.094808334" lon="6.88253611047">
		<tag k="fixme" v="consider natural=peak for the most distinct mountains in the district" />
		<tag k="name" v="Moldingbakkåsen" />
		<tag k="natural" v="hill" />
		<tag k="place" v="locality" />
		<tag k="ssr:stedsnr" v="264507" />
	</node>
	<node id="-338898" lat="58.1048833347" lon="6.86675555108">
		<tag k="fixme" v="consider natural=peak for the most distinct mountains in the district" />
		<tag k="name" v="Storafjellet" />
		<tag k="natural" v="hill" />
		<tag k="place" v="locality" />
		<tag k="ssr:stedsnr" v="264502" />
	</node>
	<node id="-338894" lat="58.1802388898" lon="6.69764166307">
		<tag k="name" v="Raundalsheia" />
		<tag k="natural" v="hill" />
		<tag k="place" v="locality" />
		<tag k="ssr:stedsnr" v="264494" />
	</node>
	<node id="-338893" lat="58.1760027784" lon="6.6608472203">
		<tag k="name" v="Breili" />
		<tag k="natural" v="valley" />
		<tag k="place" v="locality" />
		<tag k="ssr:stedsnr" v="264487" />
	</node>
	<node id="-338892" lat="58.1756583301" lon="6.67143333739">
		<tag k="name" v="Lian" />
		<tag k="natural" v="slope" />
		<tag k="place" v="locality" />
		<tag k="ssr:stedsnr" v="264484" />
	</node>
	<node id="-338891" lat="58.1729138857" lon="6.65852221724">
		<tag k="fixme" v="consider natural=peak for the most distinct mountains in the district" />
		<tag k="name" v="Rosåsen" />
		<tag k="natural" v="hill" />
		<tag k="place" v="locality" />
		<tag k="ssr:stedsnr" v="264483" />
	</node>
	<node id="-338888" lat="58.1615361118" lon="6.72391667406">
		<tag k="name" v="Ulgjelsskaret" />
		<tag k="natural" v="valley" />
		<tag k="place" v="locality" />
		<tag k="ssr:stedsnr" v="264459" />
	</node>
	<node id="-338887" lat="58.1359333303" lon="6.82513610576">
		<tag k="name" v="Jakobsdalen" />
		<tag k="natural" v="valley" />
		<tag k="place" v="locality" />
		<tag k="ssr:stedsnr" v="264449" />
	</node>
	<node id="-338885" lat="58.1903944441" lon="6.71511388881">
		<tag k="fixme" v="consider natural=peak for the most distinct mountains in the district" />
		<tag k="name" v="Forekamhei" />
		<tag k="natural" v="hill" />
		<tag k="place" v="locality" />
		<tag k="ssr:stedsnr" v="264444" />
	</node>
	<node id="-338882" lat="58.082155552" lon="6.67859166966">
		<tag k="name" v="Holman" />
		<tag k="natural" v="hill" />
		<tag k="place" v="locality" />
		<tag k="ssr:stedsnr" v="264399" />
	</node>
	<node id="-338879" lat="58.1559444477" lon="6.66005555718">
		<tag k="fixme" v="consider natural=peak for the most distinct mountains in the district" />
		<tag k="name" v="Borgåsen" />
		<tag k="natural" v="hill" />
		<tag k="place" v="locality" />
		<tag k="ssr:stedsnr" v="264385" />
	</node>
	<node id="-338878" lat="58.1650055601" lon="6.69623611918">
		<tag k="name" v="Trolldalen" />
		<tag k="natural" v="valley" />
		<tag k="place" v="locality" />
		<tag k="ssr:stedsnr" v="264383" />
	</node>
	<node id="-338876" lat="58.1690444423" lon="6.69753889171">
		<tag k="name" v="Kneben" />
		<tag k="natural" v="hill" />
		<tag k="place" v="locality" />
		<tag k="ssr:stedsnr" v="264380" />
	</node>
	<node id="-338875" lat="58.1903972234" lon="6.69839443881">
		<tag k="name" v="Urfjell" />
		<tag k="natural" v="hill" />
		<tag k="place" v="locality" />
		<tag k="ssr:stedsnr" v="264375" />
	</node>
	<node id="-338862" lat="58.1448194435" lon="6.76923056229">
		<tag k="name" v="Kjerringdalen" />
		<tag k="natural" v="valley" />
		<tag k="place" v="locality" />
		<tag k="ssr:stedsnr" v="243235" />
	</node>
	<node id="-338861" lat="58.1569083337" lon="6.66648055067">
		<tag k="alt_name" v="Ørnekniben" />
		<tag k="fixme" v="consider natural=peak for the most distinct mountains in the district" />
		<tag k="name" v="Ørnefjellet" />
		<tag k="natural" v="hill" />
		<tag k="place" v="locality" />
		<tag k="ssr:stedsnr" v="243216" />
	</node>
	<node id="-338855" lat="58.0658527798" lon="6.738558339">
		<tag k="name" v="Skiphaugen" />
		<tag k="natural" v="hill" />
		<tag k="place" v="locality" />
		<tag k="ssr:stedsnr" v="242346" />
	</node>
	<node id="-337944" lat="58.1510916631" lon="6.65708332688">
		<tag k="name" v="Risdalsfjellet" />
		<tag k="natural" v="hill" />
		<tag k="place" v="locality" />
		<tag k="ssr:stedsnr" v="324384" />
	</node>
	<node id="-338829" lat="58.2064000038" lon="6.90676111937">
		<tag k="fixme" v="consider natural=peak for the most distinct mountains in the district" />
		<tag k="name" v="Jonsokkneben" />
		<tag k="natural" v="hill" />
		<tag k="place" v="locality" />
		<tag k="ssr:stedsnr" v="204782" />
	</node>
	<node id="-338828" lat="58.2067416664" lon="6.88732222646">
		<tag k="name" v="Rørkjerrheia" />
		<tag k="natural" v="hill" />
		<tag k="place" v="locality" />
		<tag k="ssr:stedsnr" v="204780" />
	</node>
	<node id="-338827" lat="58.1930361094" lon="6.89941667017">
		<tag k="name" v="Storkleivdalshola" />
		<tag k="natural" v="valley" />
		<tag k="place" v="locality" />
		<tag k="ssr:stedsnr" v="204760" />
	</node>
	<node id="-338825" lat="58.0969111141" lon="6.81772778199">
		<tag k="name" v="Spindsoddheia" />
		<tag k="natural" v="hill" />
		<tag k="place" v="locality" />
		<tag k="ssr:stedsnr" v="204345" />
	</node>
	<node id="-338824" lat="58.1862277741" lon="6.70758332761">
		<tag k="name" v="Kjørkleiva" />
		<tag k="natural" v="slope" />
		<tag k="place" v="locality" />
		<tag k="ssr:stedsnr" v="203999" />
	</node>
	<node id="-338823" lat="58.1849722203" lon="6.71282222832">
		<tag k="name" v="Slethei" />
		<tag k="natural" v="hill" />
		<tag k="place" v="locality" />
		<tag k="ssr:stedsnr" v="203997" />
	</node>
	<node id="-338822" lat="58.190544447" lon="6.83919721575">
		<tag k="fixme" v="consider natural=peak for the most distinct mountains in the district" />
		<tag k="name" v="Havråsen" />
		<tag k="natural" v="hill" />
		<tag k="place" v="locality" />
		<tag k="ssr:stedsnr" v="203976" />
	</node>
	<node id="-338821" lat="58.1869805571" lon="6.84234722303">
		<tag k="fixme" v="consider natural=peak for the most distinct mountains in the district" />
		<tag k="name" v="Molandsfjellet" />
		<tag k="natural" v="hill" />
		<tag k="place" v="locality" />
		<tag k="ssr:stedsnr" v="203970" />
	</node>
	<node id="-338819" lat="58.2015583353" lon="6.69956666038">
		<tag k="name" v="Skarvehelleren" />
		<tag k="place" v="locality" />
		<tag k="ssr:stedsnr" v="203947" />
	</node>
	<node id="-338817" lat="58.1641194447" lon="6.78388611058">
		<tag k="name" v="Rokkheia" />
		<tag k="natural" v="hill" />
		<tag k="place" v="locality" />
		<tag k="ssr:stedsnr" v="203929" />
	</node>
	<node id="-338816" lat="58.206811114" lon="6.72631944534">
		<tag k="fixme" v="consider natural=peak for the most distinct mountains in the district" />
		<tag k="name" v="Kinnefjell" />
		<tag k="natural" v="hill" />
		<tag k="place" v="locality" />
		<tag k="ssr:stedsnr" v="203914" />
	</node>
	<node id="-338814" lat="58.2096472224" lon="6.7470499957">
		<tag k="name" v="Sandvikdalen" />
		<tag k="natural" v="valley" />
		<tag k="place" v="locality" />
		<tag k="ssr:stedsnr" v="203910" />
	</node>
	<node id="-338811" lat="58.2104416657" lon="6.80436944883">
		<tag k="name" v="Djupedalen" />
		<tag k="natural" v="valley" />
		<tag k="place" v="locality" />
		<tag k="ssr:stedsnr" v="203887" />
	</node>
	<node id="-338808" lat="58.2198638868" lon="6.76314166326">
		<tag k="fixme" v="consider natural=peak for the most distinct mountains in the district" />
		<tag k="name" v="Helleråsen" />
		<tag k="natural" v="hill" />
		<tag k="place" v="locality" />
		<tag k="ssr:stedsnr" v="203864" />
	</node>
	<node id="-338803" lat="58.1151555593" lon="6.64660555541">
		<tag k="name" v="Sekken" />
		<tag k="place" v="locality" />
		<tag k="ssr:stedsnr" v="203770" />
	</node>
	<node id="-338802" lat="58.1068444484" lon="6.65795555207">
		<tag k="fixme" v="consider natural=peak for the most distinct mountains in the district" />
		<tag k="name" v="Mabergåsen" />
		<tag k="natural" v="hill" />
		<tag k="place" v="locality" />
		<tag k="ssr:stedsnr" v="203752" />
	</node>
	<node id="-338798" lat="58.0887277754" lon="6.68392500301">
		<tag k="name" v="Ropen" />
		<tag k="natural" v="hill" />
		<tag k="place" v="locality" />
		<tag k="ssr:stedsnr" v="203715" />
	</node>
	<node id="-338796" lat="58.1369361085" lon="6.70177500545">
		<tag k="name" v="Nissefjell" />
		<tag k="natural" v="hill" />
		<tag k="place" v="locality" />
		<tag k="ssr:stedsnr" v="203684" />
	</node>
	<node id="-338795" lat="58.1423666707" lon="6.69750833892">
		<tag k="fixme" v="consider natural=peak for the most distinct mountains in the district" />
		<tag k="name" v="Stardalsfjellet" />
		<tag k="natural" v="hill" />
		<tag k="place" v="locality" />
		<tag k="ssr:stedsnr" v="203682" />
	</node>
	<node id="-338792" lat="58.1142138856" lon="6.72929722413">
		<tag k="fixme" v="consider natural=peak for the most distinct mountains in the district" />
		<tag k="name" v="Kjelåsen" />
		<tag k="natural" v="hill" />
		<tag k="place" v="locality" />
		<tag k="ssr:stedsnr" v="203663" />
	</node>
	<node id="-338790" lat="58.1184361115" lon="6.74674999754">
		<tag k="name" v="Nodebakk" />
		<tag k="natural" v="slope" />
		<tag k="place" v="locality" />
		<tag k="ssr:stedsnr" v="203628" />
	</node>
	<node id="-338789" lat="58.1154944466" lon="6.76093332714">
		<tag k="fixme" v="consider natural=peak for the most distinct mountains in the district" />
		<tag k="name" v="Veggefjell" />
		<tag k="natural" v="hill" />
		<tag k="place" v="locality" />
		<tag k="ssr:stedsnr" v="203607" />
	</node>
	<node id="-338785" lat="58.1412499971" lon="6.80999999421">
		<tag k="name" v="Hauskedalsbrodet" />
		<tag k="natural" v="slope" />
		<tag k="place" v="locality" />
		<tag k="ssr:stedsnr" v="203569" />
	</node>
	<node id="-338784" lat="58.1375888931" lon="6.71628611899">
		<tag k="name" v="Svartefjell" />
		<tag k="natural" v="hill" />
		<tag k="place" v="locality" />
		<tag k="ssr:stedsnr" v="203567" />
	</node>
	<node id="-338783" lat="58.1304638914" lon="6.71150277679">
		<tag k="name" v="Bjørga" />
		<tag k="natural" v="slope" />
		<tag k="place" v="locality" />
		<tag k="ssr:stedsnr" v="203562" />
	</node>
	<node id="-338778" lat="58.1438749987" lon="6.84979721446">
		<tag k="fixme" v="consider natural=peak for the most distinct mountains in the district" />
		<tag k="name" v="Hisåsen" />
		<tag k="natural" v="hill" />
		<tag k="place" v="locality" />
		<tag k="ssr:stedsnr" v="203527" />
	</node>
	<node id="-338776" lat="58.0993888864" lon="6.91759443673">
		<tag k="fixme" v="consider natural=peak for the most distinct mountains in the district" />
		<tag k="name" v="Varåsen" />
		<tag k="natural" v="hill" />
		<tag k="place" v="locality" />
		<tag k="ssr:stedsnr" v="203517" />
	</node>
	<node id="-338775" lat="58.185522219" lon="6.70165832665">
		<tag k="fixme" v="consider natural=peak for the most distinct mountains in the district" />
		<tag k="name" v="Glovfjell" />
		<tag k="natural" v="hill" />
		<tag k="place" v="locality" />
		<tag k="ssr:stedsnr" v="203513" />
	</node>
	<node id="-338773" lat="58.1574611141" lon="6.75658611078">
		<tag k="fixme" v="consider natural=peak for the most distinct mountains in the district" />
		<tag k="name" v="Runefjellet" />
		<tag k="natural" v="hill" />
		<tag k="place" v="locality" />
		<tag k="ssr:stedsnr" v="203495" />
	</node>
	<node id="-338771" lat="58.1637861094" lon="6.73439444031">
		<tag k="name" v="Bjøllespranget" />
		<tag k="place" v="locality" />
		<tag k="ssr:stedsnr" v="203487" />
	</node>
	<node id="-338769" lat="58.1376888901" lon="6.82553055721">
		<tag k="name" v="Løyningen" />
		<tag k="natural" v="slope" />
		<tag k="place" v="locality" />
		<tag k="ssr:stedsnr" v="203484" />
	</node>
	<node id="-338768" lat="58.1416277739" lon="6.82981110772">
		<tag k="name" v="Halen" />
		<tag k="natural" v="ridge" />
		<tag k="place" v="locality" />
		<tag k="ssr:stedsnr" v="203483" />
	</node>
	<node id="-338767" lat="58.1903527794" lon="6.7231611057">
		<tag k="fixme" v="consider natural=peak for the most distinct mountains in the district" />
		<tag k="name" v="Høghei" />
		<tag k="natural" v="hill" />
		<tag k="place" v="locality" />
		<tag k="ssr:stedsnr" v="203476" />
	</node>
	<node id="-338765" lat="58.0647805558" lon="6.9568527715">
		<tag k="fixme" v="consider natural=peak for the most distinct mountains in the district" />
		<tag k="name" v="Øyagfjellet" />
		<tag k="natural" v="hill" />
		<tag k="place" v="locality" />
		<tag k="ssr:stedsnr" v="203469" />
	</node>
	<node id="-338761" lat="58.192452775" lon="6.68728333067">
		<tag k="name" v="Sandheia" />
		<tag k="natural" v="hill" />
		<tag k="place" v="locality" />
		<tag k="ssr:stedsnr" v="203401" />
	</node>
	<node id="-338759" lat="58.0867277791" lon="6.93990278487">
		<tag k="fixme" v="consider natural=peak for the most distinct mountains in the district" />
		<tag k="name" v="Knollen" />
		<tag k="natural" v="hill" />
		<tag k="place" v="locality" />
		<tag k="ssr:stedsnr" v="204417" />
	</node>
	<node id="-338758" lat="58.0963111066" lon="6.98814721629">
		<tag k="fixme" v="consider natural=peak for the most distinct mountains in the district" />
		<tag k="name" v="Husefjellet" />
		<tag k="natural" v="hill" />
		<tag k="place" v="locality" />
		<tag k="ssr:stedsnr" v="204413" />
	</node>
	<node id="-338756" lat="58.0952916646" lon="6.98725555117">
		<tag k="name" v="Gluva" />
		<tag k="place" v="locality" />
		<tag k="ssr:stedsnr" v="204406" />
	</node>
	<node id="-338735" lat="58.1188527759" lon="6.69390555761">
		<tag k="alt_name" v="Snarefjell" />
		<tag k="fixme" v="consider natural=peak for the most distinct mountains in the district" />
		<tag k="name" v="Snarefjellet" />
		<tag k="natural" v="hill" />
		<tag k="place" v="locality" />
		<tag k="ssr:stedsnr" v="182243" />
	</node>
	<node id="-338727" lat="58.2054388853" lon="6.8694500047">
		<tag k="fixme" v="consider natural=peak for the most distinct mountains in the district" />
		<tag k="name" v="Ramsåsen" />
		<tag k="natural" v="hill" />
		<tag k="place" v="locality" />
		<tag k="ssr:stedsnr" v="182180" />
	</node>
	<node id="-338683" lat="58.2038388854" lon="6.81723888584">
		<tag k="name" v="Røyneskogheia" />
		<tag k="natural" v="hill" />
		<tag k="place" v="locality" />
		<tag k="ssr:stedsnr" v="143800" />
	</node>
	<node id="-338682" lat="58.1931666628" lon="6.8505055575">
		<tag k="name" v="Kjellekneben" />
		<tag k="natural" v="hill" />
		<tag k="place" v="locality" />
		<tag k="ssr:stedsnr" v="143786" />
	</node>
	<node id="-338681" lat="58.2064111112" lon="6.91618055981">
		<tag k="fixme" v="consider natural=peak for the most distinct mountains in the district" />
		<tag k="name" v="Osebergknatten" />
		<tag k="natural" v="hill" />
		<tag k="place" v="locality" />
		<tag k="ssr:stedsnr" v="143778" />
	</node>
	<node id="-338680" lat="58.2101611131" lon="6.90018610394">
		<tag k="name" v="Husdalsheia" />
		<tag k="natural" v="ridge" />
		<tag k="place" v="locality" />
		<tag k="ssr:stedsnr" v="143775" />
	</node>
	<node id="-338679" lat="58.2082805527" lon="6.89412222282">
		<tag k="fixme" v="consider natural=peak for the most distinct mountains in the district" />
		<tag k="name" v="Tungefjellet" />
		<tag k="natural" v="hill" />
		<tag k="place" v="locality" />
		<tag k="ssr:stedsnr" v="143772" />
	</node>
	<node id="-338678" lat="58.2127138922" lon="6.90641943883">
		<tag k="name" v="Krogen" />
		<tag k="natural" v="valley" />
		<tag k="place" v="locality" />
		<tag k="ssr:stedsnr" v="143771" />
	</node>
	<node id="-338677" lat="58.0996138926" lon="6.84742499254">
		<tag k="fixme" v="consider natural=peak for the most distinct mountains in the district" />
		<tag k="name" v="Lensmannsåsen" />
		<tag k="natural" v="hill" />
		<tag k="place" v="locality" />
		<tag k="ssr:stedsnr" v="143469" />
	</node>
	<node id="-338676" lat="58.0952055553" lon="6.98367499833">
		<tag k="name" v="Uradalen" />
		<tag k="natural" v="valley" />
		<tag k="place" v="locality" />
		<tag k="ssr:stedsnr" v="143466" />
	</node>
	<node id="-338675" lat="58.1012555577" lon="6.83605833605">
		<tag k="fixme" v="consider natural=peak for the most distinct mountains in the district" />
		<tag k="name" v="Følsvikåsen" />
		<tag k="natural" v="hill" />
		<tag k="place" v="locality" />
		<tag k="ssr:stedsnr" v="143367" />
	</node>
	<node id="-338670" lat="58.1854027785" lon="6.82651667026">
		<tag k="fixme" v="consider natural=peak for the most distinct mountains in the district" />
		<tag k="name" v="Litlåsen" />
		<tag k="natural" v="hill" />
		<tag k="place" v="locality" />
		<tag k="ssr:stedsnr" v="142977" />
	</node>
	<node id="-338668" lat="58.1743027759" lon="6.83906944428">
		<tag k="name" v="Veidalen" />
		<tag k="natural" v="valley" />
		<tag k="place" v="locality" />
		<tag k="ssr:stedsnr" v="142961" />
	</node>
	<node id="-338139" lat="58.1283416631" lon="6.6588444514">
		<tag k="name" v="Revfjell" />
		<tag k="natural" v="hill" />
		<tag k="place" v="locality" />
		<tag k="ssr:stedsnr" v="385768" />
	</node>
	<node id="-338666" lat="58.2026250012" lon="6.79052777329">
		<tag k="name" v="Kleivebakkan" />
		<tag k="natural" v="slope" />
		<tag k="place" v="locality" />
		<tag k="ssr:stedsnr" v="142887" />
	</node>
	<node id="-338663" lat="58.1916527736" lon="6.76193055273">
		<tag k="name" v="Stegeheia" />
		<tag k="natural" v="hill" />
		<tag k="place" v="locality" />
		<tag k="ssr:stedsnr" v="142867" />
	</node>
	<node id="-338661" lat="58.219549997" lon="6.76784167445">
		<tag k="name" v="Trolltuna" />
		<tag k="natural" v="valley" />
		<tag k="place" v="locality" />
		<tag k="ssr:stedsnr" v="142862" />
	</node>
	<node id="-338660" lat="58.180447225" lon="6.77004444136">
		<tag k="name" v="Storheia" />
		<tag k="natural" v="hill" />
		<tag k="place" v="locality" />
		<tag k="ssr:stedsnr" v="142858" />
	</node>
	<node id="-338659" lat="58.1799944406" lon="6.86838055963">
		<tag k="name" v="Orrekneben" />
		<tag k="natural" v="hill" />
		<tag k="place" v="locality" />
		<tag k="ssr:stedsnr" v="142809" />
	</node>
	<node id="-338657" lat="58.154947221" lon="6.81089999313">
		<tag k="name" v="Hauli" />
		<tag k="natural" v="slope" />
		<tag k="place" v="locality" />
		<tag k="ssr:stedsnr" v="142920" />
	</node>
	<node id="-338654" lat="58.1195833295" lon="6.6508166745">
		<tag k="name" v="Stemman" />
		<tag k="place" v="locality" />
		<tag k="ssr:stedsnr" v="142743" />
	</node>
	<node id="-338653" lat="58.1223944456" lon="6.68053611524">
		<tag k="name" v="Skranefjellet" />
		<tag k="natural" v="hill" />
		<tag k="place" v="locality" />
		<tag k="ssr:stedsnr" v="142738" />
	</node>
	<node id="-338651" lat="58.1128833321" lon="6.67498333886">
		<tag k="name" v="Varen" />
		<tag k="natural" v="hill" />
		<tag k="place" v="locality" />
		<tag k="ssr:stedsnr" v="142733" />
	</node>
	<node id="-338649" lat="58.1129999994" lon="6.678100007">
		<tag k="fixme" v="consider natural=peak for the most distinct mountains in the district" />
		<tag k="name" v="Gråfjell" />
		<tag k="natural" v="hill" />
		<tag k="place" v="locality" />
		<tag k="ssr:stedsnr" v="142728" />
	</node>
	<node id="-338647" lat="58.1709611146" lon="6.6313083271">
		<tag k="name" v="Tjortemyrfjellet" />
		<tag k="natural" v="hill" />
		<tag k="place" v="locality" />
		<tag k="ssr:stedsnr" v="142698" />
	</node>
	<node id="-338645" lat="58.1381805567" lon="6.66718888326">
		<tag k="fixme" v="consider natural=peak for the most distinct mountains in the district" />
		<tag k="name" v="Bronåsen" />
		<tag k="natural" v="hill" />
		<tag k="place" v="locality" />
		<tag k="ssr:stedsnr" v="142660" />
	</node>
	<node id="-338641" lat="58.1230861143" lon="6.63661944929">
		<tag k="name" v="Lund" />
		<tag k="natural" v="slope" />
		<tag k="place" v="locality" />
		<tag k="ssr:stedsnr" v="142775" />
	</node>
	<node id="-338637" lat="58.0936638879" lon="6.69435277464">
		<tag k="name" v="Bryneåsen" />
		<tag k="natural" v="hill" />
		<tag k="place" v="locality" />
		<tag k="ssr:stedsnr" v="142753" />
	</node>
	<node id="-338635" lat="58.1145166657" lon="6.75236111296">
		<tag k="name" v="Lindlandsåsen" />
		<tag k="natural" v="hill" />
		<tag k="place" v="locality" />
		<tag k="ssr:stedsnr" v="142623" />
	</node>
	<node id="-338632" lat="58.1450500044" lon="6.80204999476">
		<tag k="name" v="Sandstjønndalen" />
		<tag k="natural" v="valley" />
		<tag k="place" v="locality" />
		<tag k="ssr:stedsnr" v="142546" />
	</node>
	<node id="-338631" lat="58.1387861145" lon="6.70522777208">
		<tag k="fixme" v="consider natural=peak for the most distinct mountains in the district" />
		<tag k="name" v="Hestefjell" />
		<tag k="natural" v="hill" />
		<tag k="place" v="locality" />
		<tag k="ssr:stedsnr" v="142543" />
	</node>
	<node id="-338630" lat="58.1328111143" lon="6.74815555775">
		<tag k="fixme" v="consider natural=peak for the most distinct mountains in the district" />
		<tag k="name" v="Bøensfjell" />
		<tag k="natural" v="hill" />
		<tag k="place" v="locality" />
		<tag k="ssr:stedsnr" v="142540" />
	</node>
	<node id="-338629" lat="58.1185638862" lon="6.84784444231">
		<tag k="fixme" v="consider natural=peak for the most distinct mountains in the district" />
		<tag k="name" v="Meåsen" />
		<tag k="natural" v="hill" />
		<tag k="place" v="locality" />
		<tag k="ssr:stedsnr" v="142531" />
	</node>
	<node id="-338628" lat="58.1207194446" lon="6.85489722014">
		<tag k="fixme" v="consider natural=peak for the most distinct mountains in the district" />
		<tag k="name" v="Fullandsraua" />
		<tag k="natural" v="hill" />
		<tag k="place" v="locality" />
		<tag k="ssr:stedsnr" v="142528" />
	</node>
	<node id="-338623" lat="58.0931722258" lon="6.88365277302">
		<tag k="fixme" v="consider natural=peak for the most distinct mountains in the district" />
		<tag k="name" v="Bjorsåsen" />
		<tag k="natural" v="hill" />
		<tag k="place" v="locality" />
		<tag k="ssr:stedsnr" v="142489" />
	</node>
	<node id="-338621" lat="58.1009666695" lon="6.88760833925">
		<tag k="fixme" v="consider natural=peak for the most distinct mountains in the district" />
		<tag k="name" v="Høgåsen" />
		<tag k="natural" v="hill" />
		<tag k="place" v="locality" />
		<tag k="ssr:stedsnr" v="142482" />
	</node>
	<node id="-338619" lat="58.1125055557" lon="6.82105278531">
		<tag k="name" v="Knygen" />
		<tag k="natural" v="hill" />
		<tag k="place" v="locality" />
		<tag k="ssr:stedsnr" v="142473" />
	</node>
	<node id="-338618" lat="58.0739999956" lon="6.98026667022">
		<tag k="fixme" v="consider natural=peak for the most distinct mountains in the district" />
		<tag k="name" v="Kjerråsen" />
		<tag k="natural" v="hill" />
		<tag k="place" v="locality" />
		<tag k="ssr:stedsnr" v="142471" />
	</node>
	<node id="-338616" lat="58.1707111127" lon="6.75298888188">
		<tag k="name" v="Store Gjersdal" />
		<tag k="natural" v="valley" />
		<tag k="place" v="locality" />
		<tag k="ssr:stedsnr" v="142453" />
	</node>
	<node id="-338615" lat="58.1684249961" lon="6.74852500005">
		<tag k="fixme" v="consider natural=peak for the most distinct mountains in the district" />
		<tag k="name" v="Stikkelsberget" />
		<tag k="natural" v="hill" />
		<tag k="place" v="locality" />
		<tag k="ssr:stedsnr" v="142451" />
	</node>
	<node id="-338613" lat="58.1332444407" lon="6.82997500372">
		<tag k="fixme" v="consider natural=peak for the most distinct mountains in the district" />
		<tag k="name" v="Runneheia" />
		<tag k="natural" v="hill" />
		<tag k="place" v="locality" />
		<tag k="ssr:stedsnr" v="142441" />
	</node>
	<node id="-338612" lat="58.081930557" lon="6.94516110907">
		<tag k="fixme" v="consider natural=peak for the most distinct mountains in the district" />
		<tag k="name" v="Kløktåsen" />
		<tag k="natural" v="hill" />
		<tag k="place" v="locality" />
		<tag k="ssr:stedsnr" v="142439" />
	</node>
	<node id="-338611" lat="58.1865444432" lon="6.75430555676">
		<tag k="fixme" v="consider natural=peak for the most distinct mountains in the district" />
		<tag k="name" v="Ytreåsen" />
		<tag k="natural" v="hill" />
		<tag k="place" v="locality" />
		<tag k="ssr:stedsnr" v="142436" />
	</node>
	<node id="-338610" lat="58.1866527787" lon="6.75490833725">
		<tag k="name" v="Åsegløva" />
		<tag k="natural" v="valley" />
		<tag k="place" v="locality" />
		<tag k="ssr:stedsnr" v="142435" />
	</node>
	<node id="-338609" lat="58.0835666643" lon="6.93938333324">
		<tag k="name" v="Helleheia" />
		<tag k="natural" v="hill" />
		<tag k="place" v="locality" />
		<tag k="ssr:stedsnr" v="142432" />
	</node>
	<node id="-338603" lat="58.1701833367" lon="6.69357777444">
		<tag k="fixme" v="consider natural=peak for the most distinct mountains in the district" />
		<tag k="name" v="Salslottet" />
		<tag k="natural" v="hill" />
		<tag k="place" v="locality" />
		<tag k="ssr:stedsnr" v="142385" />
	</node>
	<node id="-338601" lat="58.0774138846" lon="6.65217778399">
		<tag k="name" v="Møllebakken" />
		<tag k="natural" v="slope" />
		<tag k="place" v="locality" />
		<tag k="ssr:stedsnr" v="142379" />
	</node>
	<node id="-338600" lat="58.1641666712" lon="6.67061667255">
		<tag k="name" v="Rasensheia" />
		<tag k="natural" v="hill" />
		<tag k="place" v="locality" />
		<tag k="ssr:stedsnr" v="142374" />
	</node>
	<node id="-338596" lat="58.0737083338" lon="6.80038334026">
		<tag k="alt_name" v="Skjoldnesveten" />
		<tag k="name" v="Skjolnesveten" />
		<tag k="natural" v="hill" />
		<tag k="place" v="locality" />
		<tag k="ssr:stedsnr" v="121362" />
	</node>
	<node id="-338577" lat="58.1673944417" lon="6.7658194441">
		<tag k="alt_name" v="Gryteheia" />
		<tag k="fixme" v="consider natural=peak for the most distinct mountains in the district" />
		<tag k="name" v="Kalvenesfjellet" />
		<tag k="natural" v="hill" />
		<tag k="place" v="locality" />
		<tag k="ssr:stedsnr" v="121206" />
	</node>
	<node id="-338542" lat="58.0554666672" lon="6.78857778503">
		<tag k="name" v="Kveldsundbergan" />
		<tag k="natural" v="hill" />
		<tag k="place" v="locality" />
		<tag k="ssr:stedsnr" v="86747" />
	</node>
	<node id="-338538" lat="58.1606277777" lon="6.88242777297">
		<tag k="fixme" v="consider natural=peak for the most distinct mountains in the district" />
		<tag k="name" v="Sveen" />
		<tag k="natural" v="hill" />
		<tag k="place" v="locality" />
		<tag k="ssr:stedsnr" v="83832" />
	</node>
	<node id="-338536" lat="58.2010888931" lon="6.918819446">
		<tag k="name" v="Vaddeliheia" />
		<tag k="natural" v="hill" />
		<tag k="place" v="locality" />
		<tag k="ssr:stedsnr" v="83823" />
	</node>
	<node id="-338535" lat="58.2049833289" lon="6.84857500376">
		<tag k="name" v="Stakkslåta" />
		<tag k="natural" v="slope" />
		<tag k="place" v="locality" />
		<tag k="ssr:stedsnr" v="83821" />
	</node>
	<node id="-338534" lat="58.2043722256" lon="6.90056111523">
		<tag k="name" v="Reiliheia" />
		<tag k="natural" v="hill" />
		<tag k="place" v="locality" />
		<tag k="ssr:stedsnr" v="83813" />
	</node>
	<node id="-338531" lat="58.1966138884" lon="6.90947777805">
		<tag k="fixme" v="consider natural=peak for the most distinct mountains in the district" />
		<tag k="name" v="Ytre Åsen" />
		<tag k="natural" v="hill" />
		<tag k="place" v="locality" />
		<tag k="ssr:stedsnr" v="83786" />
	</node>
	<node id="-338529" lat="58.0982611077" lon="6.81877777356">
		<tag k="fixme" v="consider natural=peak for the most distinct mountains in the district" />
		<tag k="name" v="Jentefjellan" />
		<tag k="natural" v="hill" />
		<tag k="place" v="locality" />
		<tag k="ssr:stedsnr" v="83402" />
	</node>
	<node id="-338526" lat="58.0431027751" lon="6.91744722599">
		<tag k="fixme" v="consider natural=peak for the most distinct mountains in the district" />
		<tag k="name" v="Kalvarbergan" />
		<tag k="natural" v="hill" />
		<tag k="place" v="locality" />
		<tag k="ssr:stedsnr" v="82989" />
	</node>
	<node id="-338520" lat="58.1892333292" lon="6.77377500727">
		<tag k="name" v="Rista" />
		<tag k="natural" v="ridge" />
		<tag k="place" v="locality" />
		<tag k="ssr:stedsnr" v="82870" />
	</node>
	<node id="-338518" lat="58.0507111124" lon="6.95294167217">
		<tag k="fixme" v="consider natural=peak for the most distinct mountains in the district" />
		<tag k="name" v="Gullberget" />
		<tag k="natural" v="hill" />
		<tag k="place" v="locality" />
		<tag k="ssr:stedsnr" v="82937" />
	</node>
	<node id="-338515" lat="58.1573555515" lon="6.76701388972">
		<tag k="name" v="Mattisheia" />
		<tag k="natural" v="hill" />
		<tag k="place" v="locality" />
		<tag k="ssr:stedsnr" v="82913" />
	</node>
	<node id="-338514" lat="58.2083000028" lon="6.73026944459">
		<tag k="name" v="Bukkshorn" />
		<tag k="natural" v="hill" />
		<tag k="place" v="locality" />
		<tag k="ssr:stedsnr" v="82911" />
	</node>
	<node id="-338513" lat="58.1784111103" lon="6.88344999706">
		<tag k="fixme" v="consider natural=peak for the most distinct mountains in the district" />
		<tag k="name" v="Loptsheia" />
		<tag k="natural" v="hill" />
		<tag k="place" v="locality" />
		<tag k="ssr:stedsnr" v="82788" />
	</node>
	<node id="-338511" lat="58.2223583367" lon="6.87299444534">
		<tag k="name" v="Refsdalen" />
		<tag k="natural" v="valley" />
		<tag k="place" v="locality" />
		<tag k="ssr:stedsnr" v="82773" />
	</node>
	<node id="-338510" lat="58.221011111" lon="6.87896944339">
		<tag k="name" v="Rørdalshola" />
		<tag k="natural" v="valley" />
		<tag k="place" v="locality" />
		<tag k="ssr:stedsnr" v="82772" />
	</node>
	<node id="-338509" lat="58.2177111117" lon="6.84017222989">
		<tag k="name" v="Rørkjerra" />
		<tag k="natural" v="slope" />
		<tag k="place" v="locality" />
		<tag k="ssr:stedsnr" v="82771" />
	</node>
	<node id="-338507" lat="58.2230694463" lon="6.8406222222">
		<tag k="name" v="Taggbakkan" />
		<tag k="natural" v="slope" />
		<tag k="place" v="locality" />
		<tag k="ssr:stedsnr" v="82767" />
	</node>
	<node id="-338504" lat="58.2146277793" lon="6.89218332498">
		<tag k="name" v="Klungelandsheia" />
		<tag k="natural" v="hill" />
		<tag k="place" v="locality" />
		<tag k="ssr:stedsnr" v="82742" />
	</node>
	<node id="-338503" lat="58.1200500002" lon="6.67243333438">
		<tag k="name" v="Vindåsen" />
		<tag k="natural" v="hill" />
		<tag k="place" v="locality" />
		<tag k="ssr:stedsnr" v="82717" />
	</node>
	<node id="-338501" lat="58.1139583325" lon="6.67945277518">
		<tag k="name" v="Løyndalen" />
		<tag k="natural" v="valley" />
		<tag k="place" v="locality" />
		<tag k="ssr:stedsnr" v="82703" />
	</node>
	<node id="-338499" lat="58.1320555529" lon="6.62211389109">
		<tag k="fixme" v="consider natural=peak for the most distinct mountains in the district" />
		<tag k="name" v="Sjerberget" />
		<tag k="natural" v="hill" />
		<tag k="place" v="locality" />
		<tag k="ssr:stedsnr" v="82685" />
	</node>
	<node id="-338493" lat="58.1303638876" lon="6.67983054918">
		<tag k="fixme" v="consider natural=peak for the most distinct mountains in the district" />
		<tag k="name" v="Jåtogberget" />
		<tag k="natural" v="hill" />
		<tag k="place" v="locality" />
		<tag k="ssr:stedsnr" v="82635" />
	</node>
	<node id="-338492" lat="58.1132138919" lon="6.73193611346">
		<tag k="name" v="Vollan" />
		<tag k="natural" v="slope" />
		<tag k="place" v="locality" />
		<tag k="ssr:stedsnr" v="82633" />
	</node>
	<node id="-338491" lat="58.108041663" lon="6.72498611094">
		<tag k="name" v="Stemman" />
		<tag k="place" v="locality" />
		<tag k="ssr:stedsnr" v="82630" />
	</node>
	<node id="-338490" lat="58.1075250024" lon="6.70905554946">
		<tag k="fixme" v="consider natural=peak for the most distinct mountains in the district" />
		<tag k="name" v="Jonsokåsen" />
		<tag k="natural" v="hill" />
		<tag k="place" v="locality" />
		<tag k="ssr:stedsnr" v="82628" />
	</node>
	<node id="-338487" lat="58.1285449736" lon="6.73090738796">
		<tag k="alt_name" v="Frestads Husefjell" />
		<tag k="fixme" v="consider natural=peak for the most distinct mountains in the district" />
		<tag k="name" v="Frestad Husefjell" />
		<tag k="natural" v="hill" />
		<tag k="place" v="locality" />
		<tag k="ssr:stedsnr" v="82604" />
	</node>
	<node id="-338486" lat="58.1432972218" lon="6.74069721875">
		<tag k="name" v="Hestespranget" />
		<tag k="place" v="locality" />
		<tag k="ssr:stedsnr" v="82601" />
	</node>
	<node id="-338483" lat="58.1359888854" lon="6.76448055585">
		<tag k="fixme" v="consider natural=peak for the most distinct mountains in the district" />
		<tag k="name" v="Holmåsen" />
		<tag k="natural" v="hill" />
		<tag k="place" v="locality" />
		<tag k="ssr:stedsnr" v="82554" />
	</node>
	<node id="-338480" lat="58.090399999" lon="6.91509167162">
		<tag k="fixme" v="consider natural=peak for the most distinct mountains in the district" />
		<tag k="name" v="Høgåsen" />
		<tag k="natural" v="hill" />
		<tag k="place" v="locality" />
		<tag k="ssr:stedsnr" v="82520" />
	</node>
	<node id="-338479" lat="58.0886027753" lon="6.91051667294">
		<tag k="fixme" v="consider natural=peak for the most distinct mountains in the district" />
		<tag k="name" v="Børseheia" />
		<tag k="natural" v="hill" />
		<tag k="place" v="locality" />
		<tag k="ssr:stedsnr" v="82517" />
	</node>
	<node id="-338478" lat="58.182027775" lon="6.76054722735">
		<tag k="name" v="Fokka" />
		<tag k="natural" v="hill" />
		<tag k="place" v="locality" />
		<tag k="ssr:stedsnr" v="82855" />
	</node>
	<node id="-338477" lat="58.0724277792" lon="6.96248332971">
		<tag k="fixme" v="consider natural=peak for the most distinct mountains in the district" />
		<tag k="name" v="Knutskaråsen" />
		<tag k="natural" v="hill" />
		<tag k="place" v="locality" />
		<tag k="ssr:stedsnr" v="82448" />
	</node>
	<node id="-338474" lat="58.1316638899" lon="6.82060554956">
		<tag k="name" v="Buheia" />
		<tag k="natural" v="hill" />
		<tag k="place" v="locality" />
		<tag k="ssr:stedsnr" v="82440" />
	</node>
	<node id="-338472" lat="58.176044446" lon="6.72835555938">
		<tag k="name" v="Grindheia" />
		<tag k="natural" v="hill" />
		<tag k="place" v="locality" />
		<tag k="ssr:stedsnr" v="82432" />
	</node>
	<node id="-338471" lat="58.0950222206" lon="6.89950555235">
		<tag k="fixme" v="consider natural=peak for the most distinct mountains in the district" />
		<tag k="name" v="Hegnåsen" />
		<tag k="natural" v="hill" />
		<tag k="place" v="locality" />
		<tag k="ssr:stedsnr" v="82511" />
	</node>
	<node id="-338470" lat="58.1020916684" lon="6.87521666107">
		<tag k="fixme" v="consider natural=peak for the most distinct mountains in the district" />
		<tag k="name" v="Floråsen" />
		<tag k="natural" v="hill" />
		<tag k="place" v="locality" />
		<tag k="ssr:stedsnr" v="82499" />
	</node>
	<node id="-338468" lat="58.1781277791" lon="6.69822777078">
		<tag k="fixme" v="consider natural=peak for the most distinct mountains in the district" />
		<tag k="name" v="Stifjellet" />
		<tag k="natural" v="hill" />
		<tag k="place" v="locality" />
		<tag k="ssr:stedsnr" v="82489" />
	</node>
	<node id="-338467" lat="58.0710277801" lon="6.98436666961">
		<tag k="fixme" v="consider natural=peak for the most distinct mountains in the district" />
		<tag k="name" v="Åsen" />
		<tag k="natural" v="hill" />
		<tag k="place" v="locality" />
		<tag k="ssr:stedsnr" v="82481" />
	</node>
	<node id="-338466" lat="58.0991000014" lon="6.97114444653">
		<tag k="name" v="Kårikstadheia" />
		<tag k="natural" v="hill" />
		<tag k="place" v="locality" />
		<tag k="ssr:stedsnr" v="82473" />
	</node>
	<node id="-338011" lat="58.1914111154" lon="6.84204445189">
		<tag k="name" v="Saueheia" />
		<tag k="natural" v="hill" />
		<tag k="place" v="locality" />
		<tag k="ssr:stedsnr" v="324965" />
	</node>
	<node id="-338464" lat="58.1551194487" lon="6.75761666855">
		<tag k="name" v="Hulkedalen" />
		<tag k="natural" v="valley" />
		<tag k="place" v="locality" />
		<tag k="ssr:stedsnr" v="82462" />
	</node>
	<node id="-338461" lat="58.1896777749" lon="6.70872499374">
		<tag k="name" v="Molandshei" />
		<tag k="natural" v="hill" />
		<tag k="place" v="locality" />
		<tag k="ssr:stedsnr" v="82457" />
	</node>
	<node id="-338460" lat="58.154116671" lon="6.74233610778">
		<tag k="name" v="Fotskår" />
		<tag k="place" v="locality" />
		<tag k="ssr:stedsnr" v="82454" />
	</node>
	<node id="-338132" lat="58.146925" lon="6.66753055441">
		<tag k="name" v="Danseråsen" />
		<tag k="natural" v="hill" />
		<tag k="place" v="locality" />
		<tag k="ssr:stedsnr" v="385681" />
	</node>
	<node id="-338452" lat="58.0863916675" lon="6.76962777099">
		<tag k="alt_name" v="Kaneheia" />
		<tag k="name" v="Kanehei" />
		<tag k="natural" v="hill" />
		<tag k="place" v="locality" />
		<tag k="ssr:stedsnr" v="61329" />
	</node>
	<node id="-338008" lat="58.194408329" lon="6.70164999666">
		<tag k="name" v="Hestefjellet" />
		<tag k="natural" v="hill" />
		<tag k="place" v="locality" />
		<tag k="ssr:stedsnr" v="324921" />
	</node>
	<node id="-337995" lat="58.1625194481" lon="6.85305832759">
		<tag k="name" v="Fagerdalen" />
		<tag k="natural" v="valley" />
		<tag k="place" v="locality" />
		<tag k="ssr:stedsnr" v="324832" />
	</node>
	<node id="-338006" lat="58.1530472233" lon="6.76339166111">
		<tag k="name" v="Buheia" />
		<tag k="natural" v="hill" />
		<tag k="place" v="locality" />
		<tag k="ssr:stedsnr" v="324910" />
	</node>
	<node id="-338005" lat="58.1566444437" lon="6.78761666355">
		<tag k="name" v="Jærfallet" />
		<tag k="natural" v="slope" />
		<tag k="place" v="locality" />
		<tag k="ssr:stedsnr" v="324906" />
	</node>
	<node id="-338003" lat="58.2064833326" lon="6.72143333593">
		<tag k="name" v="Storjeholet" />
		<tag k="natural" v="gorge" />
		<tag k="ssr:stedsnr" v="324894" />
	</node>
	<node id="-338415" lat="58.0689833334" lon="6.87263888444">
		<tag k="name" v="Geitestien" />
		<tag k="natural" v="slope" />
		<tag k="place" v="locality" />
		<tag k="ssr:stedsnr" v="58151" />
	</node>
	<node id="-338409" lat="58.0757722206" lon="6.81564445133">
		<tag k="name" v="Grønnsletta" />
		<tag k="place" v="locality" />
		<tag k="ssr:stedsnr" v="39994" />
	</node>
	<node id="-338397" lat="58.2082000026" lon="6.87949999826">
		<tag k="name" v="Vestre Kråkedalen" />
		<tag k="natural" v="valley" />
		<tag k="place" v="locality" />
		<tag k="ssr:stedsnr" v="22819" />
	</node>
	<node id="-338396" lat="58.0956833336" lon="6.92358332886">
		<tag k="fixme" v="consider natural=peak for the most distinct mountains in the district" />
		<tag k="name" v="Lauåsen" />
		<tag k="natural" v="hill" />
		<tag k="place" v="locality" />
		<tag k="ssr:stedsnr" v="22464" />
	</node>
	<node id="-338392" lat="58.0975194406" lon="6.8352416595">
		<tag k="fixme" v="consider natural=peak for the most distinct mountains in the district" />
		<tag k="name" v="Storåsen" />
		<tag k="natural" v="hill" />
		<tag k="place" v="locality" />
		<tag k="ssr:stedsnr" v="22388" />
	</node>
	<node id="-338390" lat="58.0895277781" lon="6.85714999554">
		<tag k="fixme" v="consider natural=peak for the most distinct mountains in the district" />
		<tag k="name" v="Vedåsen" />
		<tag k="natural" v="hill" />
		<tag k="place" v="locality" />
		<tag k="ssr:stedsnr" v="22381" />
	</node>
	<node id="-338386" lat="58.1146472249" lon="6.88174721829">
		<tag k="fixme" v="consider natural=peak for the most distinct mountains in the district" />
		<tag k="name" v="Bjørgefjellet" />
		<tag k="natural" v="hill" />
		<tag k="place" v="locality" />
		<tag k="ssr:stedsnr" v="21982" />
	</node>
	<node id="-338385" lat="58.1179944425" lon="6.90044722358">
		<tag k="fixme" v="consider natural=peak for the most distinct mountains in the district" />
		<tag k="name" v="Husefjellet" />
		<tag k="natural" v="hill" />
		<tag k="place" v="locality" />
		<tag k="ssr:stedsnr" v="21980" />
	</node>
	<node id="-338384" lat="58.1113305591" lon="6.91088333869">
		<tag k="fixme" v="consider natural=peak for the most distinct mountains in the district" />
		<tag k="name" v="Husefjellet" />
		<tag k="natural" v="hill" />
		<tag k="place" v="locality" />
		<tag k="ssr:stedsnr" v="21972" />
	</node>
	<node id="-338382" lat="58.0612611068" lon="6.96068889083">
		<tag k="fixme" v="consider natural=peak for the most distinct mountains in the district" />
		<tag k="name" v="Gumpåsen" />
		<tag k="natural" v="hill" />
		<tag k="place" v="locality" />
		<tag k="ssr:stedsnr" v="21938" />
	</node>
	<node id="-338380" lat="58.1675777789" lon="6.78464722071">
		<tag k="fixme" v="consider natural=peak for the most distinct mountains in the district" />
		<tag k="name" v="Røveheia" />
		<tag k="natural" v="hill" />
		<tag k="place" v="locality" />
		<tag k="ssr:stedsnr" v="21920" />
	</node>
	<node id="-337993" lat="58.1676361082" lon="6.63561945186">
		<tag k="name" v="Uddalen" />
		<tag k="natural" v="valley" />
		<tag k="place" v="locality" />
		<tag k="ssr:stedsnr" v="324695" />
	</node>
	<node id="-338378" lat="58.205472224" lon="6.80013333747">
		<tag k="name" v="Sævelandsheia" />
		<tag k="natural" v="hill" />
		<tag k="place" v="locality" />
		<tag k="ssr:stedsnr" v="21888" />
	</node>
	<node id="-338376" lat="58.1857833293" lon="6.77205833371">
		<tag k="name" v="Bergebakken" />
		<tag k="natural" v="slope" />
		<tag k="place" v="locality" />
		<tag k="ssr:stedsnr" v="21868" />
	</node>
	<node id="-338373" lat="58.18776944" lon="6.7604444458">
		<tag k="name" v="Skaret" />
		<tag k="natural" v="valley" />
		<tag k="place" v="locality" />
		<tag k="ssr:stedsnr" v="21861" />
	</node>
	<node id="-338371" lat="58.1714527783" lon="6.7859416612">
		<tag k="name" v="Solheia" />
		<tag k="natural" v="hill" />
		<tag k="place" v="locality" />
		<tag k="ssr:stedsnr" v="21835" />
	</node>
	<node id="-338370" lat="58.1864722237" lon="6.87324444184">
		<tag k="name" v="Mørkedalen" />
		<tag k="natural" v="valley" />
		<tag k="place" v="locality" />
		<tag k="ssr:stedsnr" v="21792" />
	</node>
	<node id="-338369" lat="58.1898083371" lon="6.89930833405">
		<tag k="name" v="Tverrskoran" />
		<tag k="natural" v="valley" />
		<tag k="place" v="locality" />
		<tag k="ssr:stedsnr" v="21787" />
	</node>
	<node id="-338368" lat="58.2151111077" lon="6.86665556404">
		<tag k="name" v="Følledalsrinnan" />
		<tag k="natural" v="ridge" />
		<tag k="place" v="locality" />
		<tag k="ssr:stedsnr" v="21780" />
	</node>
	<node id="-338367" lat="58.181163885" lon="6.90325556343">
		<tag k="name" v="Unnlisegan" />
		<tag k="natural" v="slope" />
		<tag k="place" v="locality" />
		<tag k="ssr:stedsnr" v="21775" />
	</node>
	<node id="-338365" lat="58.1116333309" lon="6.64072777246">
		<tag k="name" v="Falketeigen" />
		<tag k="place" v="locality" />
		<tag k="ssr:stedsnr" v="21767" />
	</node>
	<node id="-338364" lat="58.2166944438" lon="6.87350832757">
		<tag k="name" v="Hellerheia" />
		<tag k="natural" v="hill" />
		<tag k="place" v="locality" />
		<tag k="ssr:stedsnr" v="21762" />
	</node>
	<node id="-338363" lat="58.1090499963" lon="6.67095555339">
		<tag k="name" v="Rygla" />
		<tag k="natural" v="hill" />
		<tag k="place" v="locality" />
		<tag k="ssr:stedsnr" v="21757" />
	</node>
	<node id="-338362" lat="58.0942111136" lon="6.68906943824">
		<tag k="name" v="Storsteinsvollen" />
		<tag k="natural" v="slope" />
		<tag k="place" v="locality" />
		<tag k="ssr:stedsnr" v="21740" />
	</node>
	<node id="-338360" lat="58.1512916703" lon="6.61796943578">
		<tag k="fixme" v="consider natural=peak for the most distinct mountains in the district" />
		<tag k="name" v="Klovsteinfjellet" />
		<tag k="natural" v="hill" />
		<tag k="place" v="locality" />
		<tag k="ssr:stedsnr" v="21728" />
	</node>
	<node id="-338359" lat="58.1550861089" lon="6.64185277818">
		<tag k="name" v="Ingersfjellet" />
		<tag k="natural" v="hill" />
		<tag k="place" v="locality" />
		<tag k="ssr:stedsnr" v="21727" />
	</node>
	<node id="-338357" lat="58.1465249958" lon="6.62935000018">
		<tag k="name" v="Stålhagen" />
		<tag k="natural" v="hill" />
		<tag k="place" v="locality" />
		<tag k="ssr:stedsnr" v="21723" />
	</node>
	<node id="-338354" lat="58.0678861088" lon="6.78238889699">
		<tag k="name" v="Sandfjellet" />
		<tag k="natural" v="hill" />
		<tag k="place" v="locality" />
		<tag k="ssr:stedsnr" v="21688" />
	</node>
	<node id="-338352" lat="58.1268749963" lon="6.81183055612">
		<tag k="fixme" v="consider natural=peak for the most distinct mountains in the district" />
		<tag k="name" v="Bukkeknuten" />
		<tag k="natural" v="hill" />
		<tag k="place" v="locality" />
		<tag k="ssr:stedsnr" v="21656" />
	</node>
	<node id="-338349" lat="58.0871083305" lon="6.72436388851">
		<tag k="name" v="Hanangerheia" />
		<tag k="natural" v="hill" />
		<tag k="place" v="locality" />
		<tag k="ssr:stedsnr" v="21627" />
	</node>
	<node id="-338339" lat="58.173699996" lon="6.69982778184">
		<tag k="fixme" v="consider natural=peak for the most distinct mountains in the district" />
		<tag k="name" v="Kjelen" />
		<tag k="natural" v="hill" />
		<tag k="place" v="locality" />
		<tag k="ssr:stedsnr" v="21525" />
	</node>
	<node id="-338338" lat="58.1774083297" lon="6.68010833952">
		<tag k="name" v="Varbakk" />
		<tag k="natural" v="hill" />
		<tag k="place" v="locality" />
		<tag k="ssr:stedsnr" v="21521" />
	</node>
	<node id="-338337" lat="58.1747722241" lon="6.65651388099">
		<tag k="name" v="Gloppehagen" />
		<tag k="natural" v="slope" />
		<tag k="place" v="locality" />
		<tag k="ssr:stedsnr" v="21517" />
	</node>
	<node id="-338334" lat="58.063163888" lon="6.7259222277">
		<tag k="fixme" v="consider natural=peak for the most distinct mountains in the district" />
		<tag k="name" v="Måkefjellet" />
		<tag k="natural" v="hill" />
		<tag k="place" v="locality" />
		<tag k="ssr:stedsnr" v="21507" />
	</node>
	<node id="-338332" lat="58.1512138922" lon="6.72974165974">
		<tag k="fixme" v="consider natural=peak for the most distinct mountains in the district" />
		<tag k="name" v="Vågefjellet" />
		<tag k="natural" v="hill" />
		<tag k="place" v="locality" />
		<tag k="ssr:stedsnr" v="21493" />
	</node>
	<node id="-338330" lat="58.0789472203" lon="6.97379444594">
		<tag k="name" v="Reiskar" />
		<tag k="natural" v="valley" />
		<tag k="place" v="locality" />
		<tag k="ssr:stedsnr" v="21484" />
	</node>
	<node id="-338328" lat="58.174441668" lon="6.7543527757">
		<tag k="fixme" v="consider natural=peak for the most distinct mountains in the district" />
		<tag k="name" v="Sølvårfjellet" />
		<tag k="natural" v="hill" />
		<tag k="place" v="locality" />
		<tag k="ssr:stedsnr" v="21481" />
	</node>
	<node id="-337986" lat="58.1251083332" lon="6.71870000666">
		<tag k="fixme" v="consider natural=peak for the most distinct mountains in the district" />
		<tag k="name" v="Kjeldeåsen" />
		<tag k="natural" v="hill" />
		<tag k="place" v="locality" />
		<tag k="ssr:stedsnr" v="324629" />
	</node>
	<node id="-337985" lat="58.1218916711" lon="6.75557499861">
		<tag k="name" v="Fossekleiv" />
		<tag k="natural" v="slope" />
		<tag k="place" v="locality" />
		<tag k="ssr:stedsnr" v="324613" />
	</node>
	<node id="-338305" lat="58.1532416638" lon="6.86585832874">
		<tag k="alt_name" v="Stangelifjell" />
		<tag k="fixme" v="consider natural=peak for the most distinct mountains in the district" />
		<tag k="name" v="Stangfjellet" />
		<tag k="natural" v="hill" />
		<tag k="place" v="locality" />
		<tag k="ssr:stedsnr" v="233" />
	</node>
	<node id="-338304" lat="58.1405888931" lon="6.6301777747">
		<tag k="alt_name" v="Lofjell" />
		<tag k="fixme" v="consider natural=peak for the most distinct mountains in the district" />
		<tag k="name" v="Lofjellet" />
		<tag k="natural" v="hill" />
		<tag k="place" v="locality" />
		<tag k="ssr:stedsnr" v="227" />
	</node>
	<node id="-337983" lat="58.1460666711" lon="6.73691666617">
		<tag k="fixme" v="consider natural=peak for the most distinct mountains in the district" />
		<tag k="name" v="Ørnåsen" />
		<tag k="natural" v="hill" />
		<tag k="place" v="locality" />
		<tag k="ssr:stedsnr" v="324603" />
	</node>
	<node id="-337990" lat="58.133333333" lon="6.68794165921">
		<tag k="fixme" v="consider natural=peak for the most distinct mountains in the district" />
		<tag k="name" v="Husefjellet" />
		<tag k="natural" v="hill" />
		<tag k="place" v="locality" />
		<tag k="ssr:stedsnr" v="324665" />
	</node>
	<node id="-338222" lat="58.2253430753" lon="6.83858363055">
		<tag k="name" v="Revsdalen" />
		<tag k="natural" v="valley" />
		<tag k="place" v="locality" />
		<tag k="ssr:stedsnr" v="456381" />
	</node>
	<node id="-338124" lat="58.0978000004" lon="6.74063055876">
		<tag k="name" v="Ørnekula" />
		<tag k="natural" v="hill" />
		<tag k="place" v="locality" />
		<tag k="ssr:stedsnr" v="385615" />
	</node>
	<node id="-338215" lat="57.9963888848" lon="6.55416666628">
		<tag k="name" v="Varnesgrabenen" />
		<tag k="place" v="locality" />
		<tag k="ssr:stedsnr" v="587583" />
	</node>
	<node id="-338173" lat="58.2135083309" lon="6.84488333823">
		<tag k="fixme" v="consider natural=peak for the most distinct mountains in the district" />
		<tag k="name" v="Øksnefjellet" />
		<tag k="natural" v="hill" />
		<tag k="place" v="locality" />
		<tag k="ssr:stedsnr" v="386833" />
	</node>
	<node id="-337962" lat="58.1566666648" lon="6.72568056351">
		<tag k="fixme" v="consider natural=peak for the most distinct mountains in the district" />
		<tag k="name" v="Glenderfjell" />
		<tag k="natural" v="hill" />
		<tag k="place" v="locality" />
		<tag k="ssr:stedsnr" v="324470" />
	</node>
	<node id="-338170" lat="58.1942555553" lon="6.86076389363">
		<tag k="name" v="Stakkebakken" />
		<tag k="natural" v="slope" />
		<tag k="place" v="locality" />
		<tag k="ssr:stedsnr" v="386814" />
	</node>
	<node id="-338169" lat="58.2032750012" lon="6.87748611112">
		<tag k="fixme" v="consider natural=peak for the most distinct mountains in the district" />
		<tag k="name" v="Askundsfjellet" />
		<tag k="natural" v="hill" />
		<tag k="place" v="locality" />
		<tag k="ssr:stedsnr" v="386809" />
	</node>
	<node id="-338167" lat="58.2023361089" lon="6.8905305476">
		<tag k="name" v="Høgda" />
		<tag k="natural" v="hill" />
		<tag k="place" v="locality" />
		<tag k="ssr:stedsnr" v="386796" />
	</node>
	<node id="-338166" lat="58.2058555597" lon="6.89360832876">
		<tag k="fixme" v="consider natural=peak for the most distinct mountains in the district" />
		<tag k="name" v="Båtheia" />
		<tag k="natural" v="hill" />
		<tag k="place" v="locality" />
		<tag k="ssr:stedsnr" v="386795" />
	</node>
	<node id="-338165" lat="58.0971500016" lon="6.95624445084">
		<tag k="fixme" v="consider natural=peak for the most distinct mountains in the district" />
		<tag k="name" v="Skalkåsen" />
		<tag k="natural" v="hill" />
		<tag k="place" v="locality" />
		<tag k="ssr:stedsnr" v="386468" />
	</node>
	<node id="-338164" lat="58.0865111097" lon="6.92152778095">
		<tag k="fixme" v="consider natural=peak for the most distinct mountains in the district" />
		<tag k="name" v="Kompåsen" />
		<tag k="natural" v="hill" />
		<tag k="place" v="locality" />
		<tag k="ssr:stedsnr" v="386453" />
	</node>
	<node id="-338163" lat="58.0598250001" lon="6.90695000733">
		<tag k="fixme" v="consider natural=peak for the most distinct mountains in the district" />
		<tag k="name" v="Skarvefjell" />
		<tag k="natural" v="hill" />
		<tag k="place" v="locality" />
		<tag k="ssr:stedsnr" v="385992" />
	</node>
	<node id="-338160" lat="58.1137888905" lon="6.91591944079">
		<tag k="fixme" v="consider natural=peak for the most distinct mountains in the district" />
		<tag k="name" v="Boråsen" />
		<tag k="natural" v="hill" />
		<tag k="place" v="locality" />
		<tag k="ssr:stedsnr" v="385976" />
	</node>
	<node id="-338159" lat="58.1775916633" lon="6.81980277118">
		<tag k="name" v="Odrestien" />
		<tag k="place" v="locality" />
		<tag k="ssr:stedsnr" v="385968" />
	</node>
	<node id="-338157" lat="58.114808331" lon="6.93063055737">
		<tag k="name" v="Ramsdal" />
		<tag k="natural" v="valley" />
		<tag k="place" v="locality" />
		<tag k="ssr:stedsnr" v="385932" />
	</node>
	<node id="-340203" lat="58.0657388906" lon="6.80471111643">
		<tag k="fixme" v="consider natural=peak for the most distinct mountains in the district" />
		<tag k="name" v="Sønderhallsheia" />
		<tag k="natural" v="hill" />
		<tag k="place" v="locality" />
		<tag k="ssr:stedsnr" v="949064" />
	</node>
	<node id="-338154" lat="58.1620916638" lon="6.76241666514">
		<tag k="name" v="Rona" />
		<tag k="natural" v="ridge" />
		<tag k="place" v="locality" />
		<tag k="ssr:stedsnr" v="385912" />
	</node>
	<node id="-338152" lat="58.209249997" lon="6.78163054855">
		<tag k="fixme" v="consider natural=peak for the most distinct mountains in the district" />
		<tag k="name" v="Langheia" />
		<tag k="natural" v="hill" />
		<tag k="place" v="locality" />
		<tag k="ssr:stedsnr" v="385885" />
	</node>
	<node id="-338150" lat="58.1917944399" lon="6.80260832687">
		<tag k="fixme" v="consider natural=peak for the most distinct mountains in the district" />
		<tag k="name" v="Andråsen" />
		<tag k="natural" v="hill" />
		<tag k="place" v="locality" />
		<tag k="ssr:stedsnr" v="385883" />
	</node>
	<node id="-340195" lat="58.2194722249" lon="6.75303333783">
		<tag k="name" v="Rabneheia" />
		<tag k="natural" v="hill" />
		<tag k="place" v="locality" />
		<tag k="ssr:stedsnr" v="933000" />
	</node>
	<node id="-338146" lat="58.1851249965" lon="6.76002222201">
		<tag k="name" v="Stakkebakken" />
		<tag k="natural" v="slope" />
		<tag k="place" v="locality" />
		<tag k="ssr:stedsnr" v="385855" />
	</node>
	<node id="-340193" lat="58.1184500021" lon="6.89034999948">
		<tag k="fixme" v="consider natural=peak for the most distinct mountains in the district" />
		<tag k="name" v="Lilleåsen" />
		<tag k="natural" v="hill" />
		<tag k="place" v="locality" />
		<tag k="ssr:stedsnr" v="932978" />
	</node>
	<node id="-340192" lat="58.1061638929" lon="6.90445277612">
		<tag k="name" v="Hollandskleiva" />
		<tag k="natural" v="slope" />
		<tag k="place" v="locality" />
		<tag k="ssr:stedsnr" v="932970" />
	</node>
	<node id="-340191" lat="58.1160638862" lon="6.90870278352">
		<tag k="fixme" v="consider natural=peak for the most distinct mountains in the district" />
		<tag k="name" v="Kirkefjellet" />
		<tag k="natural" v="hill" />
		<tag k="place" v="locality" />
		<tag k="ssr:stedsnr" v="932968" />
	</node>
	<node id="-340189" lat="58.187886109" lon="6.84571665906">
		<tag k="name" v="Kobbelia" />
		<tag k="natural" v="slope" />
		<tag k="place" v="locality" />
		<tag k="ssr:stedsnr" v="932960" />
	</node>
	<node id="-340188" lat="58.1828749971" lon="6.85850556283">
		<tag k="name" v="Mørkedalen" />
		<tag k="natural" v="valley" />
		<tag k="place" v="locality" />
		<tag k="ssr:stedsnr" v="932955" />
	</node>
	<node id="-340187" lat="58.1731611106" lon="6.84236667473">
		<tag k="fixme" v="consider natural=peak for the most distinct mountains in the district" />
		<tag k="name" v="Orrefjell" />
		<tag k="natural" v="hill" />
		<tag k="place" v="locality" />
		<tag k="ssr:stedsnr" v="932947" />
	</node>
	<node id="-340186" lat="58.1970750015" lon="6.70290555808">
		<tag k="alt_name" v="Skagelia" />
		<tag k="name" v="Skageli" />
		<tag k="natural" v="slope" />
		<tag k="place" v="locality" />
		<tag k="ssr:stedsnr" v="932926" />
	</node>
	<node id="-340185" lat="58.1085694468" lon="6.95784445198">
		<tag k="fixme" v="consider natural=peak for the most distinct mountains in the district" />
		<tag k="name" v="Vågsåsen" />
		<tag k="natural" v="hill" />
		<tag k="place" v="locality" />
		<tag k="ssr:stedsnr" v="932924" />
	</node>
	<node id="-340184" lat="58.1950333299" lon="6.92940832715">
		<tag k="name" v="Vaddelihola" />
		<tag k="natural" v="valley" />
		<tag k="place" v="locality" />
		<tag k="ssr:stedsnr" v="932925" />
	</node>
	<node id="-338135" lat="58.1186250011" lon="6.68071388558">
		<tag k="name" v="Smibakk" />
		<tag k="natural" v="slope" />
		<tag k="place" v="locality" />
		<tag k="ssr:stedsnr" v="385740" />
	</node>
	<node id="-340182" lat="58.1612305588" lon="6.79243056183">
		<tag k="name" v="Rosshagen" />
		<tag k="natural" v="slope" />
		<tag k="place" v="locality" />
		<tag k="ssr:stedsnr" v="932907" />
	</node>
	<node id="-340181" lat="58.1563500031" lon="6.76515555127">
		<tag k="name" v="Flåda" />
		<tag k="place" v="locality" />
		<tag k="ssr:stedsnr" v="932899" />
	</node>
	<node id="-340180" lat="58.2114638925" lon="6.75616110793">
		<tag k="name" v="Eikelandsheia" />
		<tag k="natural" v="hill" />
		<tag k="place" v="locality" />
		<tag k="ssr:stedsnr" v="932890" />
	</node>
	<node id="-340178" lat="58.2044000033" lon="6.71887222823">
		<tag k="name" v="Geiskeli" />
		<tag k="natural" v="slope" />
		<tag k="place" v="locality" />
		<tag k="ssr:stedsnr" v="932886" />
	</node>
	<node id="-340177" lat="58.2114861132" lon="6.79150554839">
		<tag k="fixme" v="consider natural=peak for the most distinct mountains in the district" />
		<tag k="name" v="Jonsokkneben" />
		<tag k="natural" v="hill" />
		<tag k="place" v="locality" />
		<tag k="ssr:stedsnr" v="932873" />
	</node>
	<node id="-340176" lat="58.2151833301" lon="6.77026943744">
		<tag k="name" v="Strondebakkan" />
		<tag k="natural" v="slope" />
		<tag k="place" v="locality" />
		<tag k="ssr:stedsnr" v="932834" />
	</node>
	<node id="-340175" lat="58.1758638914" lon="6.78128334081">
		<tag k="name" v="Låliheia" />
		<tag k="natural" v="hill" />
		<tag k="place" v="locality" />
		<tag k="ssr:stedsnr" v="932818" />
	</node>
	<node id="-340173" lat="58.2103222191" lon="6.85676389048">
		<tag k="fixme" v="consider natural=peak for the most distinct mountains in the district" />
		<tag k="name" v="Bøsjheia" />
		<tag k="natural" v="hill" />
		<tag k="place" v="locality" />
		<tag k="ssr:stedsnr" v="932810" />
	</node>
	<node id="-340172" lat="58.2093055519" lon="6.85131388834">
		<tag k="name" v="Lille Saudan" />
		<tag k="natural" v="valley" />
		<tag k="place" v="locality" />
		<tag k="ssr:stedsnr" v="932808" />
	</node>
	<node id="-340171" lat="58.1629694406" lon="6.85837222506">
		<tag k="name" v="Løvollen" />
		<tag k="place" v="locality" />
		<tag k="ssr:stedsnr" v="932802" />
	</node>
	<node id="-340170" lat="58.16261111" lon="6.861825002">
		<tag k="name" v="Stakkslåta" />
		<tag k="natural" v="slope" />
		<tag k="place" v="locality" />
		<tag k="ssr:stedsnr" v="932801" />
	</node>
	<node id="-338121" lat="58.1371805518" lon="6.63658610371">
		<tag k="name" v="Skeibrokrøysa" />
		<tag k="natural" v="hill" />
		<tag k="place" v="locality" />
		<tag k="ssr:stedsnr" v="385727" />
	</node>
	<node id="-340168" lat="58.197419442" lon="6.82883888058">
		<tag k="fixme" v="consider natural=peak for the most distinct mountains in the district" />
		<tag k="name" v="Børshammaren" />
		<tag k="natural" v="hill" />
		<tag k="place" v="locality" />
		<tag k="ssr:stedsnr" v="932793" />
	</node>
	<node id="-340167" lat="58.1942472206" lon="6.85252500558">
		<tag k="name" v="Harevollen" />
		<tag k="natural" v="slope" />
		<tag k="place" v="locality" />
		<tag k="ssr:stedsnr" v="932778" />
	</node>
	<node id="-338118" lat="58.1628055534" lon="6.62189167131">
		<tag k="name" v="Dufjell" />
		<tag k="natural" v="hill" />
		<tag k="place" v="locality" />
		<tag k="ssr:stedsnr" v="385706" />
	</node>
	<node id="-340165" lat="58.2049694478" lon="6.90334722577">
		<tag k="name" v="Budalen" />
		<tag k="natural" v="valley" />
		<tag k="place" v="locality" />
		<tag k="ssr:stedsnr" v="932768" />
	</node>
	<node id="-340164" lat="58.2018638896" lon="6.90064444902">
		<tag k="name" v="Åbrotan" />
		<tag k="natural" v="slope" />
		<tag k="place" v="locality" />
		<tag k="ssr:stedsnr" v="932763" />
	</node>
	<node id="-340163" lat="58.179561114" lon="6.88061945068">
		<tag k="fixme" v="consider natural=peak for the most distinct mountains in the district" />
		<tag k="name" v="Urehei" />
		<tag k="natural" v="hill" />
		<tag k="place" v="locality" />
		<tag k="ssr:stedsnr" v="932754" />
	</node>
	<node id="-340161" lat="58.1952444454" lon="6.88897222541">
		<tag k="fixme" v="consider natural=peak for the most distinct mountains in the district" />
		<tag k="name" v="Faråsen" />
		<tag k="natural" v="hill" />
		<tag k="place" v="locality" />
		<tag k="ssr:stedsnr" v="932745" />
	</node>
	<node id="-340159" lat="58.1783694412" lon="6.87284722191">
		<tag k="name" v="Åndalen" />
		<tag k="natural" v="valley" />
		<tag k="place" v="locality" />
		<tag k="ssr:stedsnr" v="932731" />
	</node>
	<node id="-340157" lat="58.1258999958" lon="6.6452638819">
		<tag k="name" v="Elledalen" />
		<tag k="natural" v="valley" />
		<tag k="place" v="locality" />
		<tag k="ssr:stedsnr" v="932716" />
	</node>
	<node id="-340155" lat="58.1036444467" lon="6.67816666944">
		<tag k="name" v="Naddal" />
		<tag k="natural" v="valley" />
		<tag k="place" v="locality" />
		<tag k="ssr:stedsnr" v="932703" />
	</node>
	<node id="-340154" lat="58.1057055521" lon="6.69168333515">
		<tag k="name" v="Årdal" />
		<tag k="natural" v="valley" />
		<tag k="place" v="locality" />
		<tag k="ssr:stedsnr" v="932702" />
	</node>
	<node id="-338105" lat="58.1396250036" lon="6.80270834098">
		<tag k="name" v="Hellerdalen" />
		<tag k="natural" v="valley" />
		<tag k="place" v="locality" />
		<tag k="ssr:stedsnr" v="385591" />
	</node>
	<node id="-340152" lat="58.1212361091" lon="6.66605278387">
		<tag k="name" v="Hoggstadheia" />
		<tag k="natural" v="hill" />
		<tag k="place" v="locality" />
		<tag k="ssr:stedsnr" v="932690" />
	</node>
	<node id="-338102" lat="58.1466388897" lon="6.71863889358">
		<tag k="fixme" v="consider natural=peak for the most distinct mountains in the district" />
		<tag k="name" v="Glifjell" />
		<tag k="natural" v="hill" />
		<tag k="place" v="locality" />
		<tag k="ssr:stedsnr" v="385573" />
	</node>
	<node id="-338101" lat="58.1183666639" lon="6.8249777841">
		<tag k="name" v="Lihagen" />
		<tag k="natural" v="slope" />
		<tag k="place" v="locality" />
		<tag k="ssr:stedsnr" v="385564" />
	</node>
	<node id="-338100" lat="58.1187333326" lon="6.83545555685">
		<tag k="name" v="Heigrelunden" />
		<tag k="natural" v="hill" />
		<tag k="place" v="locality" />
		<tag k="ssr:stedsnr" v="385562" />
	</node>
	<node id="-340144" lat="58.0852222207" lon="6.7828361082">
		<tag k="name" v="Rokkefjell" />
		<tag k="natural" v="hill" />
		<tag k="place" v="locality" />
		<tag k="ssr:stedsnr" v="932583" />
	</node>
	<node id="-340142" lat="58.1159694458" lon="6.76519444371">
		<tag k="name" v="Gumpen" />
		<tag k="natural" v="ridge" />
		<tag k="place" v="locality" />
		<tag k="ssr:stedsnr" v="932569" />
	</node>
	<node id="-340141" lat="58.1115305548" lon="6.77911388144">
		<tag k="fixme" v="consider natural=peak for the most distinct mountains in the district" />
		<tag k="name" v="Kjeften" />
		<tag k="natural" v="hill" />
		<tag k="place" v="locality" />
		<tag k="ssr:stedsnr" v="932555" />
	</node>
	<node id="-340139" lat="58.1334527774" lon="6.80435554825">
		<tag k="name" v="Kvednhusdalen" />
		<tag k="natural" v="valley" />
		<tag k="place" v="locality" />
		<tag k="ssr:stedsnr" v="932540" />
	</node>
	<node id="-340138" lat="58.1431472182" lon="6.79604444381">
		<tag k="name" v="Trolldalen" />
		<tag k="natural" v="valley" />
		<tag k="place" v="locality" />
		<tag k="ssr:stedsnr" v="932538" />
	</node>
	<node id="-340137" lat="58.139188893" lon="6.78275000603">
		<tag k="name" v="Mørkevannsknuten" />
		<tag k="natural" v="hill" />
		<tag k="place" v="locality" />
		<tag k="ssr:stedsnr" v="932537" />
	</node>
	<node id="-340135" lat="58.0808722211" lon="6.8949027795">
		<tag k="fixme" v="consider natural=peak for the most distinct mountains in the district" />
		<tag k="name" v="Oddevikheia" />
		<tag k="natural" v="hill" />
		<tag k="place" v="locality" />
		<tag k="ssr:stedsnr" v="932508" />
	</node>
	<node id="-340132" lat="58.0944472253" lon="6.8750472251">
		<tag k="fixme" v="consider natural=peak for the most distinct mountains in the district" />
		<tag k="name" v="Nenningsåsen" />
		<tag k="natural" v="hill" />
		<tag k="place" v="locality" />
		<tag k="ssr:stedsnr" v="932489" />
	</node>
	<node id="-340129" lat="58.0667083327" lon="6.95936111234">
		<tag k="fixme" v="consider natural=peak for the most distinct mountains in the district" />
		<tag k="name" v="Kasvikfjellet" />
		<tag k="natural" v="hill" />
		<tag k="place" v="locality" />
		<tag k="ssr:stedsnr" v="932472" />
	</node>
	<node id="-340123" lat="58.1595833337" lon="6.75838889086">
		<tag k="name" v="Holkedalen" />
		<tag k="natural" v="valley" />
		<tag k="place" v="locality" />
		<tag k="ssr:stedsnr" v="932453" />
	</node>
	<node id="-340122" lat="58.1635833292" lon="6.73881111436">
		<tag k="name" v="Sauemarka" />
		<tag k="natural" v="slope" />
		<tag k="place" v="locality" />
		<tag k="ssr:stedsnr" v="932451" />
	</node>
	<node id="-340121" lat="58.1395055548" lon="6.8156666657">
		<tag k="fixme" v="consider natural=peak for the most distinct mountains in the district" />
		<tag k="name" v="Djupemyrheia" />
		<tag k="natural" v="hill" />
		<tag k="place" v="locality" />
		<tag k="ssr:stedsnr" v="932444" />
	</node>
	<node id="-340117" lat="58.1602166642" lon="6.73539166638">
		<tag k="name" v="Blåkneben" />
		<tag k="natural" v="hill" />
		<tag k="place" v="locality" />
		<tag k="ssr:stedsnr" v="932437" />
	</node>
	<node id="-340116" lat="58.1584722245" lon="6.73135000516">
		<tag k="fixme" v="consider natural=peak for the most distinct mountains in the district" />
		<tag k="name" v="Øygardsåsen" />
		<tag k="natural" v="hill" />
		<tag k="place" v="locality" />
		<tag k="ssr:stedsnr" v="932435" />
	</node>
	<node id="-338067" lat="58.182105556" lon="6.82942777824">
		<tag k="fixme" v="consider natural=peak for the most distinct mountains in the district" />
		<tag k="name" v="Tosåsen" />
		<tag k="natural" v="hill" />
		<tag k="place" v="locality" />
		<tag k="ssr:stedsnr" v="364218" />
	</node>
	<node id="-340111" lat="58.0694277753" lon="6.94676944075">
		<tag k="fixme" v="consider natural=peak for the most distinct mountains in the district" />
		<tag k="name" v="Linddalsfjellet" />
		<tag k="natural" v="hill" />
		<tag k="place" v="locality" />
		<tag k="ssr:stedsnr" v="932421" />
	</node>
	<node id="-340110" lat="58.1852944439" lon="6.73942777774">
		<tag k="name" v="Lauvodden" />
		<tag k="natural" v="hill" />
		<tag k="place" v="locality" />
		<tag k="ssr:stedsnr" v="932422" />
	</node>
	<node id="-340109" lat="58.0959194481" lon="6.83671389559">
		<tag k="fixme" v="consider natural=peak for the most distinct mountains in the district" />
		<tag k="name" v="Vardåsen" />
		<tag k="natural" v="hill" />
		<tag k="place" v="locality" />
		<tag k="ssr:stedsnr" v="932387" />
	</node>
	<node id="-340105" lat="58.1574277753" lon="6.68558054779">
		<tag k="name" v="Gåsebo" />
		<tag k="natural" v="hill" />
		<tag k="place" v="locality" />
		<tag k="ssr:stedsnr" v="932358" />
	</node>
	<node id="-340102" lat="58.1087722222" lon="6.56804167091">
		<tag k="name" v="Gunnarshaug" />
		<tag k="natural" v="hill" />
		<tag k="place" v="locality" />
		<tag k="ssr:stedsnr" v="931437" />
	</node>
	<node id="-340090" lat="58.1039916632" lon="6.92737777061">
		<tag k="fixme" v="consider natural=peak for the most distinct mountains in the district" />
		<tag k="name" v="Kyråsen" />
		<tag k="natural" v="hill" />
		<tag k="place" v="locality" />
		<tag k="ssr:stedsnr" v="910289" />
	</node>
	<node id="-340081" lat="58.1726083341" lon="6.86768888611">
		<tag k="alt_name" v="Nordhei" />
		<tag k="fixme" v="consider natural=peak for the most distinct mountains in the district" />
		<tag k="name" v="Breidfjellet" />
		<tag k="natural" v="hill" />
		<tag k="place" v="locality" />
		<tag k="ssr:stedsnr" v="910214" />
	</node>
	<node id="-338032" lat="58.2115138904" lon="6.82272500623">
		<tag k="name" v="Stigningan" />
		<tag k="natural" v="slope" />
		<tag k="place" v="locality" />
		<tag k="ssr:stedsnr" v="325814" />
	</node>
	<node id="-340079" lat="58.2112555513" lon="6.88716666188">
		<tag k="alt_name" v="Trollkunheia" />
		<tag k="fixme" v="consider natural=peak for the most distinct mountains in the district" />
		<tag k="name" v="Indreheia" />
		<tag k="natural" v="hill" />
		<tag k="place" v="locality" />
		<tag k="ssr:stedsnr" v="910169" />
	</node>
	<node id="-338029" lat="58.2072027744" lon="6.90841389026">
		<tag k="fixme" v="consider natural=peak for the most distinct mountains in the district" />
		<tag k="name" v="Pressfjellet" />
		<tag k="natural" v="hill" />
		<tag k="place" v="locality" />
		<tag k="ssr:stedsnr" v="325768" />
	</node>
	<node id="-338028" lat="58.2120611072" lon="6.90018888416">
		<tag k="fixme" v="consider natural=peak for the most distinct mountains in the district" />
		<tag k="name" v="Tjoveheia" />
		<tag k="natural" v="hill" />
		<tag k="place" v="locality" />
		<tag k="ssr:stedsnr" v="325764" />
	</node>
	<node id="-338027" lat="58.2114999981" lon="6.90225277111">
		<tag k="name" v="Veadalen" />
		<tag k="natural" v="valley" />
		<tag k="place" v="locality" />
		<tag k="ssr:stedsnr" v="325763" />
	</node>
	<node id="-340071" lat="58.0729472197" lon="6.86351666823">
		<tag k="name" v="Skifjellet" />
		<tag k="natural" v="hill" />
		<tag k="place" v="locality" />
		<tag k="ssr:stedsnr" v="907190" />
	</node>
	<node id="-338019" lat="58.1194666643" lon="6.90945277051">
		<tag k="fixme" v="consider natural=peak for the most distinct mountains in the district" />
		<tag k="name" v="Bukkåsen" />
		<tag k="natural" v="hill" />
		<tag k="place" v="locality" />
		<tag k="ssr:stedsnr" v="324992" />
	</node>
	<node id="-338016" lat="58.106502782" lon="6.87550277993">
		<tag k="fixme" v="consider natural=peak for the most distinct mountains in the district" />
		<tag k="name" v="Hunstra" />
		<tag k="natural" v="hill" />
		<tag k="place" v="locality" />
		<tag k="ssr:stedsnr" v="324986" />
	</node>
	<node id="-338012" lat="58.1867388847" lon="6.83232500378">
		<tag k="name" v="Fladen" />
		<tag k="place" v="locality" />
		<tag k="ssr:stedsnr" v="324971" />
	</node>
	<node id="-340059" lat="58.1926361148" lon="6.85490555639">
		<tag k="fixme" v="consider natural=peak for the most distinct mountains in the district" />
		<tag k="name" v="Høgåsen" />
		<tag k="natural" v="hill" />
		<tag k="place" v="locality" />
		<tag k="ssr:stedsnr" v="872817" />
	</node>
	<node id="-340058" lat="58.1984805595" lon="6.88218610373">
		<tag k="fixme" v="consider natural=peak for the most distinct mountains in the district" />
		<tag k="name" v="Husefjellet" />
		<tag k="natural" v="hill" />
		<tag k="place" v="locality" />
		<tag k="ssr:stedsnr" v="872814" />
	</node>
	<node id="-340056" lat="58.2068166681" lon="6.88385832886">
		<tag k="name" v="Lykkedalen" />
		<tag k="natural" v="valley" />
		<tag k="place" v="locality" />
		<tag k="ssr:stedsnr" v="872807" />
	</node>
	<node id="-340055" lat="58.1013388909" lon="6.94546945277">
		<tag k="name" v="Raben" />
		<tag k="natural" v="hill" />
		<tag k="place" v="locality" />
		<tag k="ssr:stedsnr" v="872516" />
	</node>
	<node id="-340054" lat="58.0894833358" lon="6.94626389303">
		<tag k="fixme" v="consider natural=peak for the most distinct mountains in the district" />
		<tag k="name" v="Husefjellet" />
		<tag k="natural" v="hill" />
		<tag k="place" v="locality" />
		<tag k="ssr:stedsnr" v="872510" />
	</node>
	<node id="-340053" lat="58.0861138909" lon="6.98673610487">
		<tag k="fixme" v="consider natural=peak for the most distinct mountains in the district" />
		<tag k="name" v="Fløyfjell" />
		<tag k="natural" v="hill" />
		<tag k="place" v="locality" />
		<tag k="ssr:stedsnr" v="872504" />
	</node>
	<node id="-338004" lat="58.2078472211" lon="6.72221389233">
		<tag k="name" v="Kjeskåra" />
		<tag k="place" v="locality" />
		<tag k="ssr:stedsnr" v="324895" />
	</node>
	<node id="-340051" lat="58.0945833301" lon="6.82032499346">
		<tag k="name" v="Aurebrodet" />
		<tag k="natural" v="slope" />
		<tag k="place" v="locality" />
		<tag k="ssr:stedsnr" v="872443" />
	</node>
	<node id="-338002" lat="58.1976583353" lon="6.7474805595">
		<tag k="name" v="Djuphagheia" />
		<tag k="natural" v="hill" />
		<tag k="place" v="locality" />
		<tag k="ssr:stedsnr" v="324892" />
	</node>
	<node id="-338001" lat="58.1935277734" lon="6.73051110898">
		<tag k="name" v="Dalan" />
		<tag k="natural" v="valley" />
		<tag k="place" v="locality" />
		<tag k="ssr:stedsnr" v="324889" />
	</node>
	<node id="-337998" lat="58.1882499985" lon="6.76730277902">
		<tag k="name" v="Bastubakken" />
		<tag k="natural" v="hill" />
		<tag k="place" v="locality" />
		<tag k="ssr:stedsnr" v="324855" />
	</node>
	<node id="-340045" lat="58.188397223" lon="6.840400006">
		<tag k="name" v="Sveian" />
		<tag k="natural" v="slope" />
		<tag k="place" v="locality" />
		<tag k="ssr:stedsnr" v="871969" />
	</node>
	<node id="-337996" lat="58.2158333302" lon="6.77605276964">
		<tag k="name" v="Eide" />
		<tag k="natural" v="valley" />
		<tag k="place" v="locality" />
		<tag k="ssr:stedsnr" v="324845" />
	</node>
	<node id="-340043" lat="58.1909111102" lon="6.851369441">
		<tag k="name" v="Austerdalen" />
		<tag k="natural" v="valley" />
		<tag k="place" v="locality" />
		<tag k="ssr:stedsnr" v="871964" />
	</node>
	<node id="-337994" lat="58.0862500002" lon="6.67036943912">
		<tag k="name" v="Bakken" />
		<tag k="natural" v="slope" />
		<tag k="place" v="locality" />
		<tag k="ssr:stedsnr" v="324700" />
	</node>
	<node id="-340041" lat="58.1735944485" lon="6.84031388585">
		<tag k="name" v="Ribben" />
		<tag k="natural" v="ridge" />
		<tag k="place" v="locality" />
		<tag k="ssr:stedsnr" v="871954" />
	</node>
	<node id="-337991" lat="58.0629999994" lon="6.78491665948">
		<tag k="name" v="Einarsneshalsen" />
		<tag k="natural" v="valley" />
		<tag k="place" v="locality" />
		<tag k="ssr:stedsnr" v="324669" />
	</node>
	<node id="-340038" lat="58.058013886" lon="6.95183333289">
		<tag k="fixme" v="consider natural=peak for the most distinct mountains in the district" />
		<tag k="name" v="Haulandsåsen" />
		<tag k="natural" v="hill" />
		<tag k="place" v="locality" />
		<tag k="ssr:stedsnr" v="871939" />
	</node>
	<node id="-337989" lat="58.1400472224" lon="6.68929165908">
		<tag k="fixme" v="consider natural=peak for the most distinct mountains in the district" />
		<tag k="name" v="Rosåsen" />
		<tag k="natural" v="hill" />
		<tag k="place" v="locality" />
		<tag k="ssr:stedsnr" v="324662" />
	</node>
	<node id="-337988" lat="58.1385972221" lon="6.69212778226">
		<tag k="fixme" v="consider natural=peak for the most distinct mountains in the district" />
		<tag k="name" v="Forefjellet" />
		<tag k="natural" v="hill" />
		<tag k="place" v="locality" />
		<tag k="ssr:stedsnr" v="324655" />
	</node>
	<node id="-337987" lat="58.1256527761" lon="6.73815556304">
		<tag k="fixme" v="consider natural=peak for the most distinct mountains in the district" />
		<tag k="name" v="Hyttebakk" />
		<tag k="natural" v="hill" />
		<tag k="place" v="locality" />
		<tag k="ssr:stedsnr" v="324632" />
	</node>
	<node id="-340034" lat="58.1645083366" lon="6.76930554705">
		<tag k="name" v="Øygardsbakken" />
		<tag k="natural" v="slope" />
		<tag k="place" v="locality" />
		<tag k="ssr:stedsnr" v="871904" />
	</node>
	<node id="-340033" lat="58.1621472264" lon="6.77182777065">
		<tag k="name" v="Øygardsvollen" />
		<tag k="natural" v="slope" />
		<tag k="place" v="locality" />
		<tag k="ssr:stedsnr" v="871900" />
	</node>
	<node id="-340032" lat="58.1580222211" lon="6.77474443733">
		<tag k="fixme" v="consider natural=peak for the most distinct mountains in the district" />
		<tag k="name" v="Bjørkåsen" />
		<tag k="natural" v="hill" />
		<tag k="place" v="locality" />
		<tag k="ssr:stedsnr" v="871897" />
	</node>
	<node id="-340031" lat="58.1988166657" lon="6.70619444214">
		<tag k="fixme" v="consider natural=peak for the most distinct mountains in the district" />
		<tag k="name" v="Skarvefjellet" />
		<tag k="natural" v="hill" />
		<tag k="place" v="locality" />
		<tag k="ssr:stedsnr" v="871882" />
	</node>
	<node id="-340029" lat="58.2219138881" lon="6.76515832744">
		<tag k="name" v="Flåtlandslia" />
		<tag k="natural" v="slope" />
		<tag k="place" v="locality" />
		<tag k="ssr:stedsnr" v="871837" />
	</node>
	<node id="-340028" lat="58.1811694462" lon="6.7639888811">
		<tag k="name" v="Grønnedalen" />
		<tag k="natural" v="valley" />
		<tag k="place" v="locality" />
		<tag k="ssr:stedsnr" v="871827" />
	</node>
	<node id="-337979" lat="58.1171916661" lon="6.75838610551">
		<tag k="fixme" v="consider natural=peak for the most distinct mountains in the district" />
		<tag k="name" v="Vardefjell" />
		<tag k="natural" v="hill" />
		<tag k="place" v="locality" />
		<tag k="ssr:stedsnr" v="324593" />
	</node>
	<node id="-340026" lat="58.1716444452" lon="6.80430555389">
		<tag k="name" v="Skotdalen" />
		<tag k="natural" v="valley" />
		<tag k="place" v="locality" />
		<tag k="ssr:stedsnr" v="871820" />
	</node>
	<node id="-340025" lat="58.1625611079" lon="6.84940277452">
		<tag k="name" v="Gjeiddalen" />
		<tag k="natural" v="valley" />
		<tag k="place" v="locality" />
		<tag k="ssr:stedsnr" v="871802" />
	</node>
	<node id="-340024" lat="58.2036666625" lon="6.91487222809">
		<tag k="name" v="Brådan" />
		<tag k="natural" v="slope" />
		<tag k="place" v="locality" />
		<tag k="ssr:stedsnr" v="871771" />
	</node>
	<node id="-337975" lat="58.1427027749" lon="6.80255555197">
		<tag k="name" v="Hauskedalsheia" />
		<tag k="natural" v="hill" />
		<tag k="place" v="locality" />
		<tag k="ssr:stedsnr" v="324546" />
	</node>
	<node id="-340022" lat="58.104586109" lon="6.68487221504">
		<tag k="name" v="Mindeheia" />
		<tag k="natural" v="hill" />
		<tag k="place" v="locality" />
		<tag k="ssr:stedsnr" v="871723" />
	</node>
	<node id="-340021" lat="58.1017111123" lon="6.69046944709">
		<tag k="name" v="Stussbakken" />
		<tag k="natural" v="hill" />
		<tag k="place" v="locality" />
		<tag k="ssr:stedsnr" v="871720" />
	</node>
	<node id="-337972" lat="58.1044083294" lon="6.89707778084">
		<tag k="name" v="Støa" />
		<tag k="place" v="locality" />
		<tag k="ssr:stedsnr" v="324509" />
	</node>
	<node id="-340019" lat="58.1207555593" lon="6.6697333321">
		<tag k="name" v="Risdalen" />
		<tag k="natural" v="valley" />
		<tag k="place" v="locality" />
		<tag k="ssr:stedsnr" v="871704" />
	</node>
	<node id="-340018" lat="58.1494194429" lon="6.6282861087">
		<tag k="fixme" v="consider natural=peak for the most distinct mountains in the district" />
		<tag k="name" v="Borgåsen" />
		<tag k="natural" v="hill" />
		<tag k="place" v="locality" />
		<tag k="ssr:stedsnr" v="871683" />
	</node>
	<node id="-340017" lat="58.1469027785" lon="6.62426943849">
		<tag k="name" v="Hemmelsfjellet" />
		<tag k="natural" v="ridge" />
		<tag k="place" v="locality" />
		<tag k="ssr:stedsnr" v="871681" />
	</node>
	<node id="-340016" lat="58.1584750045" lon="6.64166666478">
		<tag k="name" v="Rudjordsdalen" />
		<tag k="natural" v="valley" />
		<tag k="place" v="locality" />
		<tag k="ssr:stedsnr" v="871670" />
	</node>
	<node id="-340015" lat="58.0787388885" lon="6.78695832712">
		<tag k="name" v="Håkniben" />
		<tag k="natural" v="hill" />
		<tag k="place" v="locality" />
		<tag k="ssr:stedsnr" v="871651" />
	</node>
	<node id="-340012" lat="58.1218000039" lon="6.73554722879">
		<tag k="fixme" v="consider natural=peak for the most distinct mountains in the district" />
		<tag k="name" v="Hålandsfjell" />
		<tag k="natural" v="hill" />
		<tag k="place" v="locality" />
		<tag k="ssr:stedsnr" v="871616" />
	</node>
	<node id="-340011" lat="58.1261944473" lon="6.74238055096">
		<tag k="name" v="Holta" />
		<tag k="natural" v="slope" />
		<tag k="place" v="locality" />
		<tag k="ssr:stedsnr" v="871613" />
	</node>
	<node id="-340010" lat="58.1267694453" lon="6.72336389352">
		<tag k="name" v="Lumberholet" />
		<tag k="natural" v="valley" />
		<tag k="place" v="locality" />
		<tag k="ssr:stedsnr" v="871614" />
	</node>
	<node id="-340009" lat="58.1192861081" lon="6.71690833001">
		<tag k="name" v="Haukheia" />
		<tag k="natural" v="hill" />
		<tag k="place" v="locality" />
		<tag k="ssr:stedsnr" v="871599" />
	</node>
	<node id="-340005" lat="58.1335638907" lon="6.79658055956">
		<tag k="name" v="Øyvindsel" />
		<tag k="natural" v="valley" />
		<tag k="place" v="locality" />
		<tag k="ssr:stedsnr" v="871552" />
	</node>
	<node id="-337956" lat="58.1789222247" lon="6.7570972264">
		<tag k="fixme" v="consider natural=peak for the most distinct mountains in the district" />
		<tag k="name" v="Fiskestongheia" />
		<tag k="natural" v="hill" />
		<tag k="place" v="locality" />
		<tag k="ssr:stedsnr" v="324454" />
	</node>
	<node id="-340003" lat="58.1426472242" lon="6.76834167315">
		<tag k="name" v="Raunekleiva" />
		<tag k="natural" v="slope" />
		<tag k="place" v="locality" />
		<tag k="ssr:stedsnr" v="871549" />
	</node>
	<node id="-337954" lat="58.0635361145" lon="6.96025277564">
		<tag k="fixme" v="consider natural=peak for the most distinct mountains in the district" />
		<tag k="name" v="Vindåsen" />
		<tag k="natural" v="hill" />
		<tag k="place" v="locality" />
		<tag k="ssr:stedsnr" v="324447" />
	</node>
	<node id="-337953" lat="58.1770499998" lon="6.73173610442">
		<tag k="fixme" v="consider natural=peak for the most distinct mountains in the district" />
		<tag k="name" v="Bjørnefjellet" />
		<tag k="natural" v="hill" />
		<tag k="place" v="locality" />
		<tag k="ssr:stedsnr" v="324444" />
	</node>
	<node id="-337952" lat="58.1807666641" lon="6.713908334">
		<tag k="name" v="Varhei" />
		<tag k="natural" v="hill" />
		<tag k="place" v="locality" />
		<tag k="ssr:stedsnr" v="324442" />
	</node>
	<node id="-339998" lat="58.0754472264" lon="6.81280833854">
		<tag k="name" v="Eikeli" />
		<tag k="natural" v="slope" />
		<tag k="place" v="locality" />
		<tag k="ssr:stedsnr" v="871514" />
	</node>
	<node id="-339997" lat="58.1450916626" lon="6.82765555118">
		<tag k="name" v="Raunebeidet" />
		<tag k="natural" v="slope" />
		<tag k="place" v="locality" />
		<tag k="ssr:stedsnr" v="871498" />
	</node>
	<node id="-339994" lat="58.0989111134" lon="6.87118611888">
		<tag k="fixme" v="consider natural=peak for the most distinct mountains in the district" />
		<tag k="name" v="Bjørnåsen" />
		<tag k="natural" v="hill" />
		<tag k="place" v="locality" />
		<tag k="ssr:stedsnr" v="871476" />
	</node>
	<node id="-339992" lat="58.1776527803" lon="6.68739167356">
		<tag k="name" v="Åsehåla" />
		<tag k="natural" v="valley" />
		<tag k="place" v="locality" />
		<tag k="ssr:stedsnr" v="871457" />
	</node>
	<node id="-339991" lat="58.1364361138" lon="6.8351583395">
		<tag k="name" v="Stordalen" />
		<tag k="natural" v="valley" />
		<tag k="place" v="locality" />
		<tag k="ssr:stedsnr" v="871436" />
	</node>
	<node id="-339990" lat="58.1586944429" lon="6.72231667301">
		<tag k="fixme" v="consider natural=peak for the most distinct mountains in the district" />
		<tag k="name" v="Lauåsen" />
		<tag k="natural" v="hill" />
		<tag k="place" v="locality" />
		<tag k="ssr:stedsnr" v="871433" />
	</node>
	<node id="-339986" lat="58.1868388877" lon="6.75672222224">
		<tag k="fixme" v="consider natural=peak for the most distinct mountains in the district" />
		<tag k="name" v="Åsen" />
		<tag k="natural" v="hill" />
		<tag k="place" v="locality" />
		<tag k="ssr:stedsnr" v="871424" />
	</node>
	<node id="-339981" lat="58.1670222224" lon="6.68181110348">
		<tag k="name" v="Krusdalsheia" />
		<tag k="natural" v="hill" />
		<tag k="place" v="locality" />
		<tag k="ssr:stedsnr" v="871361" />
	</node>
	<node id="-339980" lat="58.1917472232" lon="6.6776000049">
		<tag k="name" v="Domkjørkkneben" />
		<tag k="natural" v="hill" />
		<tag k="place" v="locality" />
		<tag k="ssr:stedsnr" v="871353" />
	</node>
	<node id="-337931" lat="58.140199996" lon="6.79428610287">
		<tag k="name" v="Ravneheia" />
		<tag k="natural" v="hill" />
		<tag k="place" v="locality" />
		<tag k="ssr:stedsnr" v="303269" />
	</node>
	<node id="-337929" lat="58.1377388896" lon="6.7957611043">
		<tag k="alt_name" v="Sant Olavsvarden" />
		<tag k="fixme" v="consider natural=peak for the most distinct mountains in the district" />
		<tag k="name" v="St. Olavsvarden" />
		<tag k="natural" v="hill" />
		<tag k="place" v="locality" />
		<tag k="ssr:stedsnr" v="303268" />
	</node>
	<node id="-337926" lat="58.1392444461" lon="6.72431388866">
		<tag k="fixme" v="consider natural=peak for the most distinct mountains in the district" />
		<tag k="name" v="Andråsen" />
		<tag k="natural" v="hill" />
		<tag k="place" v="locality" />
		<tag k="ssr:stedsnr" v="303241" />
	</node>
	<node id="-339970" lat="58.1560166698" lon="6.7045500029">
		<tag k="alt_name" v="Flauråsen" />
		<tag k="fixme" v="consider natural=peak for the most distinct mountains in the district" />
		<tag k="name" v="Floråsen" />
		<tag k="natural" v="hill" />
		<tag k="place" v="locality" />
		<tag k="ssr:stedsnr" v="850227" />
	</node>
</osm>
