<?xml version="1.0" encoding="UTF-8"?>
<osm generator="osmapis" version="0.6">
	<node id="-337909" lat="58.1193388849" lon="6.74910278277">
		<tag k="name" v="Neset" />
		<tag k="place" v="farm" />
		<tag k="ssr:stedsnr" v="21639" />
	</node>
	<node id="-337890" lat="58.1295972221" lon="6.85489443615">
		<tag k="name" v="Øygarden" />
		<tag k="place" v="locality" />
		<tag k="ssr:stedsnr" v="21491" />
	</node>
	<node id="-337880" lat="58.069327781" lon="6.76064165954">
		<tag k="alt_name" v="Hauge østre;Hauge, austre" />
		<tag k="name" v="Austre Hauge" />
		<tag k="place" v="hamlet" />
		<tag k="ssr:stedsnr" v="374" />
	</node>
	<node id="-337875" lat="58.083899997" lon="6.65536388447">
		<tag k="fixme" v="consider place=hamlet" />
		<tag k="name" v="Østhassel" />
		<tag k="place" v="farm" />
		<tag k="ssr:stedsnr" v="345" />
	</node>
	<node id="-337873" lat="58.0874499978" lon="6.74408055919">
		<tag k="fixme" v="consider place=hamlet" />
		<tag k="name" v="Stokke" />
		<tag k="place" v="farm" />
		<tag k="ssr:stedsnr" v="339" />
	</node>
	<node id="-337872" lat="58.088986111" lon="6.9452416598">
		<tag k="name" v="Helle" />
		<tag k="place" v="farm" />
		<tag k="ssr:stedsnr" v="336" />
	</node>
	<node id="-337871" lat="58.0840861104" lon="6.95068056166">
		<tag k="name" v="Lian" />
		<tag k="place" v="farm" />
		<tag k="ssr:stedsnr" v="333" />
	</node>
	<node id="-337869" lat="58.1068749996" lon="6.87181944683">
		<tag k="fixme" v="consider place=hamlet" />
		<tag k="name" v="Forberg" />
		<tag k="place" v="farm" />
		<tag k="ssr:stedsnr" v="300" />
	</node>
	<node id="-337868" lat="58.1057694415" lon="6.76486944424">
		<tag k="fixme" v="consider place=hamlet" />
		<tag k="name" v="Øyvoll" />
		<tag k="place" v="farm" />
		<tag k="ssr:stedsnr" v="296" />
	</node>
	<node id="-337867" lat="58.1212027759" lon="6.69404166626">
		<tag k="fixme" v="consider place=hamlet" />
		<tag k="name" v="Halland" />
		<tag k="place" v="farm" />
		<tag k="ssr:stedsnr" v="268" />
	</node>
	<node id="-337866" lat="58.1448111096" lon="6.73047778175">
		<tag k="fixme" v="consider place=hamlet" />
		<tag k="name" v="Frestadheia" />
		<tag k="place" v="farm" />
		<tag k="ssr:stedsnr" v="253" />
	</node>
	<node id="-337865" lat="58.1334472178" lon="6.66890832621">
		<tag k="alt_name" v="Rødland, vestre;Rødland vestre" />
		<tag k="fixme" v="consider place=hamlet" />
		<tag k="name" v="Vestre Rødland" />
		<tag k="place" v="farm" />
		<tag k="ssr:stedsnr" v="244" />
	</node>
	<node id="-337862" lat="58.1733638855" lon="6.74044166422">
		<tag k="name" v="Listeidlia" />
		<tag k="place" v="farm" />
		<tag k="ssr:stedsnr" v="224" />
	</node>
	<node id="-337860" lat="58.1857999956" lon="6.69458888589">
		<tag k="fixme" v="consider place=hamlet" />
		<tag k="name" v="Skagen" />
		<tag k="place" v="farm" />
		<tag k="ssr:stedsnr" v="208" />
	</node>
	<node id="-337859" lat="58.1867527742" lon="6.76934721868">
		<tag k="alt_name" v="Store Jersdal" />
		<tag k="fixme" v="consider place=hamlet" />
		<tag k="name" v="Gjersdal" />
		<tag k="place" v="farm" />
		<tag k="ssr:stedsnr" v="202" />
	</node>
	<node id="-337858" lat="58.1886722258" lon="6.79873055009">
		<tag k="fixme" v="consider place=hamlet" />
		<tag k="name" v="Åpta" />
		<tag k="place" v="village" />
		<tag k="ssr:stedsnr" v="201" />
	</node>
	<node id="-337857" lat="58.2062583362" lon="6.82223332489">
		<tag k="fixme" v="consider place=hamlet" />
		<tag k="name" v="Røyneskogen" />
		<tag k="place" v="farm" />
		<tag k="ssr:stedsnr" v="199" />
	</node>
	<node id="-337854" lat="58.2138472197" lon="6.75917222884">
		<tag k="fixme" v="consider place=hamlet" />
		<tag k="name" v="Eikeland" />
		<tag k="place" v="farm" />
		<tag k="ssr:stedsnr" v="160" />
	</node>
	<node id="-337853" lat="58.0999138878" lon="6.58695832556">
		<tag k="name" v="Vestbygd" />
		<tag k="place" v="village" />
		<tag k="ssr:stedsnr" v="125" />
	</node>
	<node id="-337843" lat="58.1568862192" lon="6.79376349848">
		<tag k="fixme" v="consider place=hamlet" />
		<tag k="name" v="Herad" />
		<tag k="place" v="village" />
		<tag k="ssr:stedsnr" v="988099" />
	</node>
	<node id="-337841" lat="58.1843952518" lon="6.79303526924">
		<tag k="name" v="Åptelia" />
		<tag k="place" v="farm" />
		<tag k="ssr:stedsnr" v="986854" />
	</node>
	<node id="-337840" lat="58.1881733329" lon="6.79866870452">
		<tag k="name" v="Åpta" />
		<tag k="place" v="farm" />
		<tag k="ssr:stedsnr" v="986853" />
	</node>
	<node id="-337839" lat="58.1881008917" lon="6.7983615977">
		<tag k="name" v="Åpta" />
		<tag k="place" v="farm" />
		<tag k="ssr:stedsnr" v="986852" />
	</node>
	<node id="-337838" lat="58.1873039133" lon="6.80233968463">
		<tag k="name" v="Åpta" />
		<tag k="place" v="farm" />
		<tag k="ssr:stedsnr" v="986823" />
	</node>
	<node id="-337837" lat="58.1836501016" lon="6.79287322473">
		<tag k="name" v="Åpta" />
		<tag k="place" v="farm" />
		<tag k="ssr:stedsnr" v="986822" />
	</node>
	<node id="-337835" lat="58.1922764618" lon="6.79819166688">
		<tag k="name" v="Åptefossen" />
		<tag k="place" v="farm" />
		<tag k="ssr:stedsnr" v="986819" />
	</node>
	<node id="-337834" lat="58.1888780905" lon="6.80428960718">
		<tag k="name" v="Åpta" />
		<tag k="place" v="farm" />
		<tag k="ssr:stedsnr" v="986818" />
	</node>
	<node id="-337833" lat="58.1879056807" lon="6.79816426539">
		<tag k="name" v="Åpta" />
		<tag k="place" v="farm" />
		<tag k="ssr:stedsnr" v="986817" />
	</node>
	<node id="-337832" lat="58.1889778784" lon="6.80067420855">
		<tag k="name" v="Åpta" />
		<tag k="place" v="farm" />
		<tag k="ssr:stedsnr" v="986816" />
	</node>
	<node id="-337831" lat="58.1950497286" lon="6.79623784684">
		<tag k="name" v="Åpta" />
		<tag k="place" v="farm" />
		<tag k="ssr:stedsnr" v="986815" />
	</node>
	<node id="-337830" lat="58.1875378758" lon="6.79423773615">
		<tag k="name" v="Åpta" />
		<tag k="place" v="farm" />
		<tag k="ssr:stedsnr" v="986814" />
	</node>
	<node id="-337829" lat="58.1882599893" lon="6.79830929192">
		<tag k="name" v="Åpta" />
		<tag k="place" v="farm" />
		<tag k="ssr:stedsnr" v="986813" />
	</node>
	<node id="-337828" lat="58.1898147726" lon="6.79634602391">
		<tag k="name" v="Åpta" />
		<tag k="place" v="farm" />
		<tag k="ssr:stedsnr" v="986807" />
	</node>
	<node id="-337825" lat="58.1577981449" lon="6.79842615174">
		<tag k="name" v="Sande prestegård" />
		<tag k="place" v="farm" />
		<tag k="ssr:stedsnr" v="983547" />
	</node>
	<node id="-337824" lat="58.2076834502" lon="6.74844835685">
		<tag k="name" v="Bulæg" />
		<tag k="place" v="farm" />
		<tag k="ssr:stedsnr" v="983535" />
	</node>
	<node id="-337823" lat="58.0938537672" lon="6.6989771208">
		<tag k="name" v="Østre Vatne" />
		<tag k="place" v="farm" />
		<tag k="ssr:stedsnr" v="983490" />
	</node>
	<node id="-337822" lat="58.088558878" lon="6.92397443005">
		<tag k="name" v="Ersåker" />
		<tag k="place" v="farm" />
		<tag k="ssr:stedsnr" v="983432" />
	</node>
	<node id="-337821" lat="58.0885923987" lon="6.92309963383">
		<tag k="name" v="Ersåker" />
		<tag k="place" v="farm" />
		<tag k="ssr:stedsnr" v="983430" />
	</node>
	<node id="-337820" lat="58.0902778484" lon="6.92648984121">
		<tag k="name" v="Ersåker" />
		<tag k="place" v="farm" />
		<tag k="ssr:stedsnr" v="983429" />
	</node>
	<node id="-337819" lat="58.0887847775" lon="6.91770661762">
		<tag k="name" v="Ersåker" />
		<tag k="place" v="farm" />
		<tag k="ssr:stedsnr" v="983428" />
	</node>
	<node id="-337818" lat="58.0890812968" lon="6.92347911937">
		<tag k="name" v="Ersåker" />
		<tag k="place" v="farm" />
		<tag k="ssr:stedsnr" v="983427" />
	</node>
	<node id="-337817" lat="58.0889064357" lon="6.92540672849">
		<tag k="name" v="Ersåker" />
		<tag k="place" v="farm" />
		<tag k="ssr:stedsnr" v="983425" />
	</node>
	<node id="-339864" lat="58.1911750843" lon="6.68222221625">
		<tag k="fixme" v="consider place=hamlet" />
		<tag k="name" v="Åsalviken" />
		<tag k="place" v="farm" />
		<tag k="ssr:stedsnr" v="978014" />
	</node>
	<node id="-337815" lat="58.2077796443" lon="6.74846580845">
		<tag k="name" v="Bulæg" />
		<tag k="place" v="farm" />
		<tag k="ssr:stedsnr" v="983408" />
	</node>
	<node id="-337814" lat="58.2085947348" lon="6.7440407464">
		<tag k="name" v="Buleg" />
		<tag k="place" v="farm" />
		<tag k="ssr:stedsnr" v="983407" />
	</node>
	<node id="-337813" lat="58.1193059482" lon="6.92105291677">
		<tag k="name" v="Dåreid" />
		<tag k="place" v="farm" />
		<tag k="ssr:stedsnr" v="983397" />
	</node>
	<node id="-337812" lat="58.1210575031" lon="6.92135040165">
		<tag k="name" v="Dåreid" />
		<tag k="place" v="farm" />
		<tag k="ssr:stedsnr" v="983395" />
	</node>
	<node id="-337811" lat="58.1209010727" lon="6.92453659442">
		<tag k="name" v="Dåreid" />
		<tag k="place" v="farm" />
		<tag k="ssr:stedsnr" v="983382" />
	</node>
	<node id="-337810" lat="58.1188149886" lon="6.92643977402">
		<tag k="name" v="Dåreid" />
		<tag k="place" v="farm" />
		<tag k="ssr:stedsnr" v="983363" />
	</node>
	<node id="-337809" lat="58.120313733" lon="6.92592110009">
		<tag k="name" v="Dåreid" />
		<tag k="place" v="farm" />
		<tag k="ssr:stedsnr" v="983362" />
	</node>
	<node id="-337808" lat="58.1173968972" lon="6.92367773006">
		<tag k="name" v="Dåreid" />
		<tag k="place" v="farm" />
		<tag k="ssr:stedsnr" v="983359" />
	</node>
	<node id="-337807" lat="58.117761817" lon="6.92507057351">
		<tag k="name" v="Dåreid" />
		<tag k="place" v="farm" />
		<tag k="ssr:stedsnr" v="983357" />
	</node>
	<node id="-337806" lat="58.1159030963" lon="6.92349060913">
		<tag k="name" v="Dåreid" />
		<tag k="place" v="farm" />
		<tag k="ssr:stedsnr" v="983339" />
	</node>
	<node id="-337805" lat="58.117745647" lon="6.9231725177">
		<tag k="name" v="Dåreid" />
		<tag k="place" v="farm" />
		<tag k="ssr:stedsnr" v="983338" />
	</node>
	<node id="-339852" lat="58.0730761236" lon="6.97674099405">
		<tag k="fixme" v="consider place=hamlet" />
		<tag k="name" v="Indre Skarstein" />
		<tag k="place" v="farm" />
		<tag k="ssr:stedsnr" v="978200" />
	</node>
	<node id="-339851" lat="58.1061653875" lon="6.94391480789">
		<tag k="fixme" v="consider place=hamlet" />
		<tag k="name" v="Vestre Våge" />
		<tag k="place" v="farm" />
		<tag k="ssr:stedsnr" v="978199" />
	</node>
	<node id="-339850" lat="58.1026135521" lon="6.94979975832">
		<tag k="fixme" v="consider place=hamlet" />
		<tag k="name" v="Søndre Våge" />
		<tag k="place" v="farm" />
		<tag k="ssr:stedsnr" v="978198" />
	</node>
	<node id="-339849" lat="58.0983556122" lon="6.97642721676">
		<tag k="alt_name" v="Kårisstad" />
		<tag k="fixme" v="consider place=hamlet" />
		<tag k="name" v="Kårikstad" />
		<tag k="place" v="farm" />
		<tag k="ssr:stedsnr" v="978197" />
	</node>
	<node id="-339848" lat="58.08028169" lon="6.97502811286">
		<tag k="fixme" v="consider place=hamlet" />
		<tag k="name" v="Reiskar" />
		<tag k="place" v="farm" />
		<tag k="ssr:stedsnr" v="978189" />
	</node>
	<node id="-339847" lat="58.0724352699" lon="6.95689629231">
		<tag k="fixme" v="consider place=hamlet" />
		<tag k="name" v="Lyngsvåg" />
		<tag k="place" v="farm" />
		<tag k="ssr:stedsnr" v="978188" />
	</node>
	<node id="-339846" lat="58.0528970093" lon="6.92483248234">
		<tag k="fixme" v="consider place=hamlet" />
		<tag k="name" v="Terøy" />
		<tag k="place" v="farm" />
		<tag k="ssr:stedsnr" v="978187" />
	</node>
	<node id="-339845" lat="58.0608540543" lon="6.9125666498">
		<tag k="fixme" v="consider place=hamlet" />
		<tag k="name" v="Skarvøy" />
		<tag k="place" v="farm" />
		<tag k="ssr:stedsnr" v="978186" />
	</node>
	<node id="-339844" lat="58.097248291" lon="6.88060120504">
		<tag k="fixme" v="consider place=hamlet" />
		<tag k="name" v="Ytre Eikeland" />
		<tag k="place" v="farm" />
		<tag k="ssr:stedsnr" v="978155" />
	</node>
	<node id="-339843" lat="58.0761890108" lon="6.83273429238">
		<tag k="fixme" v="consider place=hamlet" />
		<tag k="name" v="Prestøy" />
		<tag k="place" v="farm" />
		<tag k="ssr:stedsnr" v="978150" />
	</node>
	<node id="-339842" lat="58.09313114" lon="6.83491828285">
		<tag k="fixme" v="consider place=hamlet" />
		<tag k="name" v="Bekkeviken" />
		<tag k="place" v="farm" />
		<tag k="ssr:stedsnr" v="978147" />
	</node>
	<node id="-339841" lat="58.1617861251" lon="6.87430972794">
		<tag k="fixme" v="consider place=hamlet" />
		<tag k="name" v="Øvre Austad" />
		<tag k="place" v="farm" />
		<tag k="ssr:stedsnr" v="978144" />
	</node>
	<node id="-339840" lat="58.1964742125" lon="6.91653292585">
		<tag k="fixme" v="consider place=hamlet" />
		<tag k="name" v="Vallelien" />
		<tag k="place" v="farm" />
		<tag k="ssr:stedsnr" v="978141" />
	</node>
	<node id="-339839" lat="58.2011726288" lon="6.87612355185">
		<tag k="fixme" v="consider place=hamlet" />
		<tag k="name" v="Drange" />
		<tag k="place" v="farm" />
		<tag k="ssr:stedsnr" v="978140" />
	</node>
	<node id="-337790" lat="58.0822302512" lon="6.64815917708">
		<tag k="name" v="Østhassel" />
		<tag k="place" v="farm" />
		<tag k="ssr:stedsnr" v="983304" />
	</node>
	<node id="-337789" lat="58.0832301383" lon="6.65286767564">
		<tag k="name" v="Østhassel" />
		<tag k="place" v="farm" />
		<tag k="ssr:stedsnr" v="983303" />
	</node>
	<node id="-339836" lat="58.1901271383" lon="6.79670831525">
		<tag k="fixme" v="consider place=hamlet" />
		<tag k="name" v="Åpta" />
		<tag k="place" v="farm" />
		<tag k="ssr:stedsnr" v="978136" />
	</node>
	<node id="-339835" lat="58.1947102947" lon="6.75728514968">
		<tag k="fixme" v="consider place=hamlet" />
		<tag k="name" v="Djuphagen" />
		<tag k="place" v="farm" />
		<tag k="ssr:stedsnr" v="978122" />
	</node>
	<node id="-339834" lat="58.1445493186" lon="6.83808996309">
		<tag k="fixme" v="consider place=hamlet" />
		<tag k="name" v="Bidingsås" />
		<tag k="place" v="farm" />
		<tag k="ssr:stedsnr" v="978115" />
	</node>
	<node id="-339833" lat="58.1667424856" lon="6.77318258931">
		<tag k="fixme" v="consider place=hamlet" />
		<tag k="name" v="Logsheien" />
		<tag k="place" v="farm" />
		<tag k="ssr:stedsnr" v="978119" />
	</node>
	<node id="-339832" lat="58.1334061255" lon="6.79540338448">
		<tag k="fixme" v="consider place=hamlet" />
		<tag k="name" v="Eivenshelle" />
		<tag k="place" v="farm" />
		<tag k="ssr:stedsnr" v="978114" />
	</node>
	<node id="-339831" lat="58.1355985299" lon="6.85700798221">
		<tag k="fixme" v="consider place=hamlet" />
		<tag k="name" v="Lille Sæveland" />
		<tag k="place" v="farm" />
		<tag k="ssr:stedsnr" v="978109" />
	</node>
	<node id="-339830" lat="58.1309573255" lon="6.83619253437">
		<tag k="fixme" v="consider place=hamlet" />
		<tag k="name" v="Steian" />
		<tag k="place" v="farm" />
		<tag k="ssr:stedsnr" v="978111" />
	</node>
	<node id="-339829" lat="58.1142886829" lon="6.7733507803">
		<tag k="fixme" v="consider place=hamlet" />
		<tag k="name" v="Hoskuldsnes" />
		<tag k="place" v="farm" />
		<tag k="ssr:stedsnr" v="978092" />
	</node>
	<node id="-339828" lat="58.1159283267" lon="6.77688449282">
		<tag k="fixme" v="consider place=hamlet" />
		<tag k="name" v="Hoskuldsnesstranden" />
		<tag k="place" v="farm" />
		<tag k="ssr:stedsnr" v="978088" />
	</node>
	<node id="-339827" lat="58.12769142" lon="6.74980533536">
		<tag k="fixme" v="consider place=hamlet" />
		<tag k="name" v="Sutteviken" />
		<tag k="place" v="farm" />
		<tag k="ssr:stedsnr" v="978043" />
	</node>
	<node id="-339826" lat="58.1089616339" lon="6.71902692334">
		<tag k="fixme" v="consider place=hamlet" />
		<tag k="name" v="Åmland" />
		<tag k="place" v="farm" />
		<tag k="ssr:stedsnr" v="978035" />
	</node>
	<node id="-339825" lat="58.1013841678" lon="6.6924444144">
		<tag k="fixme" v="consider place=hamlet" />
		<tag k="name" v="Prestegården" />
		<tag k="place" v="farm" />
		<tag k="ssr:stedsnr" v="978034" />
	</node>
	<node id="-339824" lat="58.1184008562" lon="6.64498385514">
		<tag k="fixme" v="consider place=hamlet" />
		<tag k="name" v="Frøyland" />
		<tag k="place" v="farm" />
		<tag k="ssr:stedsnr" v="978031" />
	</node>
	<node id="-339823" lat="58.1137024361" lon="6.67211637795">
		<tag k="fixme" v="consider place=hamlet" />
		<tag k="name" v="Vetteland" />
		<tag k="place" v="farm" />
		<tag k="ssr:stedsnr" v="978032" />
	</node>
	<node id="-339822" lat="58.1094527012" lon="6.63083629259">
		<tag k="fixme" v="consider place=hamlet" />
		<tag k="name" v="Øvre Råstad" />
		<tag k="place" v="farm" />
		<tag k="ssr:stedsnr" v="978030" />
	</node>
	<node id="-339821" lat="58.119673142" lon="6.61873202079">
		<tag k="fixme" v="consider place=hamlet" />
		<tag k="name" v="Slevdal" />
		<tag k="place" v="farm" />
		<tag k="ssr:stedsnr" v="978028" />
	</node>
	<node id="-339820" lat="58.1186672782" lon="6.62790206">
		<tag k="fixme" v="consider place=hamlet" />
		<tag k="name" v="Vestre Hauge" />
		<tag k="place" v="farm" />
		<tag k="ssr:stedsnr" v="978029" />
	</node>
	<node id="-339819" lat="58.1326419385" lon="6.62499877416">
		<tag k="fixme" v="consider place=hamlet" />
		<tag k="name" v="Skeibrok" />
		<tag k="place" v="farm" />
		<tag k="ssr:stedsnr" v="978027" />
	</node>
	<node id="-339818" lat="58.1195043944" lon="6.68061463454">
		<tag k="fixme" v="consider place=hamlet" />
		<tag k="name" v="Åmdal" />
		<tag k="place" v="farm" />
		<tag k="ssr:stedsnr" v="978026" />
	</node>
	<node id="-339817" lat="58.1331851015" lon="6.68545981068">
		<tag k="fixme" v="consider place=hamlet" />
		<tag k="name" v="Eikeland" />
		<tag k="place" v="farm" />
		<tag k="ssr:stedsnr" v="978021" />
	</node>
	<node id="-339816" lat="58.1978647268" lon="6.70240338823">
		<tag k="fixme" v="consider place=hamlet" />
		<tag k="name" v="Skagelien" />
		<tag k="place" v="farm" />
		<tag k="ssr:stedsnr" v="978016" />
	</node>
	<node id="-339815" lat="58.1551741645" lon="6.62761671325">
		<tag k="fixme" v="consider place=hamlet" />
		<tag k="name" v="Rudjord" />
		<tag k="place" v="farm" />
		<tag k="ssr:stedsnr" v="978009" />
	</node>
	<node id="-339814" lat="58.1248353908" lon="6.60954088759">
		<tag k="fixme" v="consider place=hamlet" />
		<tag k="name" v="Østre Vere" />
		<tag k="place" v="farm" />
		<tag k="ssr:stedsnr" v="978007" />
	</node>
	<node id="-339813" lat="58.1263137564" lon="6.60380729204">
		<tag k="fixme" v="consider place=hamlet" />
		<tag k="name" v="Midtre Vere" />
		<tag k="place" v="farm" />
		<tag k="ssr:stedsnr" v="978008" />
	</node>
	<node id="-339812" lat="58.0935070589" lon="6.59840664425">
		<tag k="fixme" v="consider place=hamlet" />
		<tag k="name" v="Tjørve" />
		<tag k="place" v="farm" />
		<tag k="ssr:stedsnr" v="978006" />
	</node>
	<node id="-339811" lat="58.0885238621" lon="6.6286842561">
		<tag k="fixme" v="consider place=hamlet" />
		<tag k="name" v="Øvre Nordhassel" />
		<tag k="place" v="farm" />
		<tag k="ssr:stedsnr" v="978003" />
	</node>
	<node id="-339810" lat="58.0857608302" lon="6.62852404651">
		<tag k="fixme" v="consider place=hamlet" />
		<tag k="name" v="Nedre Nordhassel" />
		<tag k="place" v="farm" />
		<tag k="ssr:stedsnr" v="978005" />
	</node>
	<node id="-339809" lat="58.0947420524" lon="6.67561265675">
		<tag k="fixme" v="consider place=hamlet" />
		<tag k="name" v="Øvre Skeime" />
		<tag k="place" v="farm" />
		<tag k="ssr:stedsnr" v="978002" />
	</node>
	<node id="-339808" lat="58.0754140544" lon="6.685723932">
		<tag k="fixme" v="consider place=hamlet" />
		<tag k="name" v="Kviljo" />
		<tag k="place" v="farm" />
		<tag k="ssr:stedsnr" v="978000" />
	</node>
	<node id="-339807" lat="58.0918865308" lon="6.68452320776">
		<tag k="fixme" v="consider place=hamlet" />
		<tag k="name" v="Nedre Skeime" />
		<tag k="place" v="farm" />
		<tag k="ssr:stedsnr" v="978001" />
	</node>
	<node id="-339806" lat="58.0853397361" lon="6.70684113988">
		<tag k="fixme" v="consider place=hamlet" />
		<tag k="name" v="Østre Rødland" />
		<tag k="place" v="farm" />
		<tag k="ssr:stedsnr" v="977999" />
	</node>
	<node id="-339805" lat="58.0844942775" lon="6.71336597431">
		<tag k="fixme" v="consider place=hamlet" />
		<tag k="name" v="Hananger" />
		<tag k="place" v="farm" />
		<tag k="ssr:stedsnr" v="977998" />
	</node>
	<node id="-339804" lat="58.0879224775" lon="6.77849017824">
		<tag k="fixme" v="consider place=hamlet" />
		<tag k="name" v="Fjellestad" />
		<tag k="place" v="farm" />
		<tag k="ssr:stedsnr" v="977992" />
	</node>
	<node id="-339803" lat="58.0685475011" lon="6.76101787896">
		<tag k="fixme" v="consider place=hamlet" />
		<tag k="name" v="Østre Hauge" />
		<tag k="place" v="farm" />
		<tag k="ssr:stedsnr" v="977996" />
	</node>
	<node id="-339802" lat="58.0952985807" lon="6.77977771744">
		<tag k="fixme" v="consider place=hamlet" />
		<tag k="name" v="Mosvold" />
		<tag k="place" v="farm" />
		<tag k="ssr:stedsnr" v="977991" />
	</node>
	<node id="-339801" lat="58.0935616779" lon="6.78316610894">
		<tag k="fixme" v="consider place=hamlet" />
		<tag k="name" v="Sunde" />
		<tag k="place" v="farm" />
		<tag k="ssr:stedsnr" v="977989" />
	</node>
	<node id="-339800" lat="58.0916299024" lon="6.81053653666">
		<tag k="fixme" v="consider place=hamlet" />
		<tag k="name" v="Farøy" />
		<tag k="place" v="farm" />
		<tag k="ssr:stedsnr" v="977990" />
	</node>
	<node id="-339798" lat="58.2108412579" lon="6.86068862841">
		<tag k="name" v="Saudland" />
		<tag k="place" v="farm" />
		<tag k="ssr:stedsnr" v="974225" />
	</node>
	<node id="-339797" lat="58.2017020342" lon="6.76834347054">
		<tag k="name" v="Saudland" />
		<tag k="place" v="farm" />
		<tag k="ssr:stedsnr" v="974224" />
	</node>
	<node id="-339796" lat="58.200084996" lon="6.76445555367">
		<tag k="name" v="Saudland" />
		<tag k="place" v="farm" />
		<tag k="ssr:stedsnr" v="974223" />
	</node>
	<node id="-339795" lat="58.1958306216" lon="6.73922138337">
		<tag k="name" v="Kjørkleiv" />
		<tag k="place" v="farm" />
		<tag k="ssr:stedsnr" v="974222" />
	</node>
	<node id="-339794" lat="58.1953107331" lon="6.7364018992">
		<tag k="name" v="Kjørkleiv" />
		<tag k="place" v="farm" />
		<tag k="ssr:stedsnr" v="974221" />
	</node>
	<node id="-339793" lat="58.1905289425" lon="6.73570899168">
		<tag k="name" v="Kjørkleiv" />
		<tag k="place" v="farm" />
		<tag k="ssr:stedsnr" v="974219" />
	</node>
	<node id="-339792" lat="58.1929447104" lon="6.73607704205">
		<tag k="name" v="Kjørkleiv" />
		<tag k="place" v="farm" />
		<tag k="ssr:stedsnr" v="974220" />
	</node>
	<node id="-339791" lat="58.1958588678" lon="6.73408268303">
		<tag k="name" v="Kjørkleiv" />
		<tag k="place" v="farm" />
		<tag k="ssr:stedsnr" v="974218" />
	</node>
	<node id="-339790" lat="58.1974261726" lon="6.73502650776">
		<tag k="name" v="Kjørkleiv" />
		<tag k="place" v="farm" />
		<tag k="ssr:stedsnr" v="974217" />
	</node>
	<node id="-339789" lat="58.1251152479" lon="6.68553357624">
		<tag k="name" v="Reisvoll" />
		<tag k="place" v="farm" />
		<tag k="ssr:stedsnr" v="974216" />
	</node>
	<node id="-339788" lat="58.1236166676" lon="6.68629040823">
		<tag k="name" v="Reisvold" />
		<tag k="place" v="farm" />
		<tag k="ssr:stedsnr" v="974215" />
	</node>
	<node id="-339787" lat="58.1244962554" lon="6.68617550508">
		<tag k="name" v="Reisvold" />
		<tag k="place" v="farm" />
		<tag k="ssr:stedsnr" v="974213" />
	</node>
	<node id="-339786" lat="58.1263816685" lon="6.68682863263">
		<tag k="name" v="Reisvold" />
		<tag k="place" v="farm" />
		<tag k="ssr:stedsnr" v="974214" />
	</node>
	<node id="-339785" lat="58.1263136693" lon="6.68780519348">
		<tag k="name" v="Reisvold" />
		<tag k="place" v="farm" />
		<tag k="ssr:stedsnr" v="974212" />
	</node>
	<node id="-339784" lat="58.125834385" lon="6.6893986246">
		<tag k="name" v="Reisvold" />
		<tag k="place" v="farm" />
		<tag k="ssr:stedsnr" v="974211" />
	</node>
	<node id="-339776" lat="58.0846138867" lon="6.90222500662">
		<tag k="name" v="Øygarden" />
		<tag k="place" v="isolated_dwelling" />
		<tag k="ssr:stedsnr" v="968215" />
	</node>
	<node id="-337727" lat="58.1094666669" lon="6.88219444315">
		<tag k="fixme" v="consider place=hamlet" />
		<tag k="name" v="Søndre Bjørnestad" />
		<tag k="place" v="farm" />
		<tag k="ssr:stedsnr" v="385982" />
	</node>
	<node id="-339253" lat="58.089366774" lon="6.628591523">
		<tag k="name" v="Nordhassel" />
		<tag k="place" v="hamlet" />
		<tag k="ssr:stedsnr" v="728258" />
	</node>
	<node id="-337712" lat="58.1832638872" lon="6.78480000342">
		<tag k="name" v="Lundemyr" />
		<tag k="place" v="farm" />
		<tag k="ssr:stedsnr" v="385864" />
	</node>
	<node id="-337693" lat="58.1181666702" lon="6.73993056028">
		<tag k="name" v="Lunden" />
		<tag k="place" v="farm" />
		<tag k="ssr:stedsnr" v="385634" />
	</node>
	<node id="-337692" lat="58.0875305559" lon="6.77507500278">
		<tag k="name" v="Kårsbakk" />
		<tag k="place" v="farm" />
		<tag k="ssr:stedsnr" v="385623" />
	</node>
	<node id="-339728" lat="58.1684333326" lon="6.87162778474">
		<tag k="fixme" v="consider place=hamlet" />
		<tag k="name" v="Lille Skjoldal" />
		<tag k="place" v="farm" />
		<tag k="ssr:stedsnr" v="932797" />
	</node>
	<node id="-339721" lat="58.1934555566" lon="6.89056667009">
		<tag k="name" v="Sigvollstø" />
		<tag k="place" v="locality" />
		<tag k="ssr:stedsnr" v="932746" />
	</node>
	<node id="-337672" lat="58.1714555539" lon="6.68093889289">
		<tag k="name" v="Brattevoll" />
		<tag k="place" v="farm" />
		<tag k="ssr:stedsnr" v="385398" />
	</node>
	<node id="-337671" lat="58.1641111145" lon="6.66345556267">
		<tag k="name" v="Levoll" />
		<tag k="place" v="farm" />
		<tag k="ssr:stedsnr" v="385396" />
	</node>
	<node id="-339708" lat="58.0791138877" lon="6.76860556218">
		<tag k="amenity" v="school" />
		<tag k="name" v="Lunde skole" />
		<tag k="ssr:stedsnr" v="932637" />
	</node>
	<node id="-337657" lat="58.1336194442" lon="6.85892221893">
		<tag k="name" v="Børo" />
		<tag k="place" v="farm" />
		<tag k="ssr:stedsnr" v="385524" />
	</node>
	<node id="-337654" lat="58.0881833328" lon="6.99402500493">
		<tag k="alt_name" v="Stautland, in" />
		<tag k="fixme" v="consider place=hamlet" />
		<tag k="name" v="Indre Stautland" />
		<tag k="place" v="farm" />
		<tag k="ssr:stedsnr" v="364532" />
	</node>
	<node id="-337652" lat="58.0742111105" lon="6.90663333578">
		<tag k="alt_name" v="Bugdøy, yt;Store Bugdøy" />
		<tag k="fixme" v="consider place=hamlet" />
		<tag k="name" v="Ytre Bugdøy" />
		<tag k="place" v="farm" />
		<tag k="ssr:stedsnr" v="364378" />
	</node>
	<node id="-337651" lat="58.0545583343" lon="6.94552222219">
		<tag k="alt_name" v="Tranevåg, austre;Østre Tranevåg" />
		<tag k="fixme" v="consider place=hamlet" />
		<tag k="loc_name" v="Tranevåg" />
		<tag k="name" v="Austre Tranevåg" />
		<tag k="place" v="farm" />
		<tag k="ssr:stedsnr" v="364366" />
	</node>
	<node id="-337649" lat="58.0867388912" lon="6.85414721478">
		<tag k="fixme" v="consider place=hamlet" />
		<tag k="name" v="Varden" />
		<tag k="place" v="farm" />
		<tag k="ssr:stedsnr" v="364319" />
	</node>
	<node id="-337648" lat="58.1070388859" lon="6.64959999414">
		<tag k="fixme" v="consider place=hamlet" />
		<tag k="name" v="Maberg" />
		<tag k="place" v="farm" />
		<tag k="ssr:stedsnr" v="364303" />
	</node>
	<node id="-337647" lat="58.1076916676" lon="6.62594721736">
		<tag k="alt_name" v="Råstad, nedre;Råstad nedre" />
		<tag k="fixme" v="consider place=hamlet" />
		<tag k="name" v="Nedre Råstad" />
		<tag k="place" v="farm" />
		<tag k="ssr:stedsnr" v="364302" />
	</node>
	<node id="-337645" lat="58.1306713998" lon="6.72230556781">
		<tag k="fixme" v="consider place=hamlet" />
		<tag k="name" v="Eitland" />
		<tag k="place" v="farm" />
		<tag k="ssr:stedsnr" v="364286" />
	</node>
	<node id="-339692" lat="58.0915888846" lon="6.91263610778">
		<tag k="name" v="Slåta" />
		<tag k="place" v="farm" />
		<tag k="ssr:stedsnr" v="932493" />
	</node>
	<node id="-337643" lat="58.1165444416" lon="6.82922222893">
		<tag k="alt_name" v="Solbjør" />
		<tag k="fixme" v="consider place=hamlet" />
		<tag k="name" v="Solbjørg" />
		<tag k="place" v="farm" />
		<tag k="ssr:stedsnr" v="364275" />
	</node>
	<node id="-337642" lat="58.1181888856" lon="6.89505556031">
		<tag k="alt_name" v="Grabu" />
		<tag k="fixme" v="consider place=hamlet" />
		<tag k="name" v="Grobo" />
		<tag k="place" v="farm" />
		<tag k="ssr:stedsnr" v="364274" />
	</node>
	<node id="-337641" lat="58.1207361101" lon="6.60047500115">
		<tag k="fixme" v="consider place=hamlet" />
		<tag k="name" v="Stave" />
		<tag k="place" v="farm" />
		<tag k="ssr:stedsnr" v="364269" />
	</node>
	<node id="-337640" lat="58.1155694453" lon="6.60307776937">
		<tag k="fixme" v="consider place=hamlet" />
		<tag k="name" v="Langåker" />
		<tag k="place" v="farm" />
		<tag k="ssr:stedsnr" v="364268" />
	</node>
	<node id="-337639" lat="58.1354944475" lon="6.65795278211">
		<tag k="fixme" v="consider place=hamlet" />
		<tag k="name" v="Tveit" />
		<tag k="place" v="farm" />
		<tag k="ssr:stedsnr" v="364258" />
	</node>
	<node id="-337637" lat="58.1399444415" lon="6.61066389312">
		<tag k="fixme" v="consider place=hamlet" />
		<tag k="name" v="Jølle" />
		<tag k="place" v="farm" />
		<tag k="ssr:stedsnr" v="364242" />
	</node>
	<node id="-337636" lat="58.1759111093" lon="6.7184277832">
		<tag k="alt_name" v="Kjørvik" />
		<tag k="fixme" v="consider place=hamlet" />
		<tag k="name" v="Kjørvika" />
		<tag k="place" v="farm" />
		<tag k="ssr:stedsnr" v="364239" />
	</node>
	<node id="-337634" lat="58.1642638854" lon="6.85186945035">
		<tag k="alt_name" v="Store Skjoldal" />
		<tag k="fixme" v="consider place=hamlet" />
		<tag k="name" v="Skjoldal" />
		<tag k="place" v="farm" />
		<tag k="ssr:stedsnr" v="364235" />
	</node>
	<node id="-337633" lat="58.1904111083" lon="6.86165555725">
		<tag k="alt_name" v="Østre Kalvenes" />
		<tag k="fixme" v="consider place=hamlet" />
		<tag k="name" v="Kalvenes" />
		<tag k="place" v="farm" />
		<tag k="ssr:stedsnr" v="364230" />
	</node>
	<node id="-337630" lat="58.175555554" lon="6.67434999935">
		<tag k="fixme" v="consider place=hamlet" />
		<tag k="name" v="Elle" />
		<tag k="place" v="farm" />
		<tag k="ssr:stedsnr" v="364211" />
	</node>
	<node id="-337629" lat="58.2124083365" lon="6.77338889628">
		<tag k="fixme" v="consider place=hamlet" />
		<tag k="name" v="Åsen" />
		<tag k="place" v="farm" />
		<tag k="ssr:stedsnr" v="364193" />
	</node>
	<node id="-339671" lat="58.0625361148" lon="6.94121666394">
		<tag k="name" v="Hummervika" />
		<tag k="place" v="farm" />
		<tag k="ssr:stedsnr" v="932425" />
	</node>
	<node id="-337615" lat="58.0811944416" lon="6.92213611696">
		<tag k="name" v="Odden" />
		<tag k="place" v="isolated_dwelling" />
		<tag k="ssr:stedsnr" v="361126" />
	</node>
	<node id="-339657" lat="58.0739166653" lon="6.86859443667">
		<tag k="alt_name" v="Langøy, midtre" />
		<tag k="fixme" v="consider place=hamlet" />
		<tag k="name" v="Midtre Langøy" />
		<tag k="place" v="farm" />
		<tag k="ssr:stedsnr" v="910361" />
	</node>
	<node id="-339654" lat="58.0816416641" lon="6.66350278611">
		<tag k="fixme" v="consider place=hamlet" />
		<tag k="name" v="Nesheim" />
		<tag k="place" v="farm" />
		<tag k="ssr:stedsnr" v="910334" />
	</node>
	<node id="-339653" lat="58.0933138893" lon="6.7545694458">
		<tag k="fixme" v="consider place=hamlet" />
		<tag k="name" v="Buland" />
		<tag k="place" v="farm" />
		<tag k="ssr:stedsnr" v="910329" />
	</node>
	<node id="-339652" lat="58.0931027782" lon="6.83603055765">
		<tag k="alt_name" v="Bekkevik" />
		<tag k="name" v="Bekkevika" />
		<tag k="place" v="hamlet" />
		<tag k="ssr:stedsnr" v="910323" />
	</node>
	<node id="-339650" lat="58.1011859972" lon="6.8717022823">
		<tag k="fixme" v="consider place=hamlet" />
		<tag k="name" v="Sævik" />
		<tag k="place" v="farm" />
		<tag k="ssr:stedsnr" v="910288" />
	</node>
	<node id="-339648" lat="58.126441668" lon="6.73326666715">
		<tag k="fixme" v="consider place=hamlet" />
		<tag k="name" v="Frestad" />
		<tag k="place" v="farm" />
		<tag k="ssr:stedsnr" v="910280" />
	</node>
	<node id="-339647" lat="58.1227972234" lon="6.61674166122">
		<tag k="alt_name" v="Vinneim" />
		<tag k="fixme" v="consider place=hamlet" />
		<tag k="name" v="Venneim" />
		<tag k="place" v="farm" />
		<tag k="ssr:stedsnr" v="910272" />
	</node>
	<node id="-339646" lat="58.1195138885" lon="6.78533611892">
		<tag k="fixme" v="consider place=hamlet" />
		<tag k="name" v="Halland" />
		<tag k="place" v="farm" />
		<tag k="ssr:stedsnr" v="910259" />
	</node>
	<node id="-339644" lat="58.1200694402" lon="6.61901388384">
		<tag k="alt_name" v="Slevedal" />
		<tag k="name" v="Slevdal" />
		<tag k="place" v="hamlet" />
		<tag k="ssr:stedsnr" v="910250" />
	</node>
	<node id="-339643" lat="58.1197027795" lon="6.64200833054">
		<tag k="fixme" v="consider place=hamlet" />
		<tag k="name" v="Kalleberg" />
		<tag k="place" v="farm" />
		<tag k="ssr:stedsnr" v="910249" />
	</node>
	<node id="-339642" lat="58.1402638927" lon="6.67015832658">
		<tag k="fixme" v="consider place=hamlet" />
		<tag k="name" v="Sudland" />
		<tag k="place" v="farm" />
		<tag k="ssr:stedsnr" v="910245" />
	</node>
	<node id="-339641" lat="58.1395666631" lon="6.64628611277">
		<tag k="fixme" v="consider place=hamlet" />
		<tag k="name" v="Tomstad" />
		<tag k="place" v="farm" />
		<tag k="ssr:stedsnr" v="910239" />
	</node>
	<node id="-337590" lat="58.1019722231" lon="6.93280000136">
		<tag k="name" v="Stølen" />
		<tag k="place" v="farm" />
		<tag k="ssr:stedsnr" v="325470" />
	</node>
	<node id="-339637" lat="58.2204999996" lon="6.8680027752">
		<tag k="fixme" v="consider place=hamlet" />
		<tag k="name" v="Røynåsen" />
		<tag k="place" v="farm" />
		<tag k="ssr:stedsnr" v="910152" />
	</node>
	<node id="-337580" lat="58.1124777744" lon="6.87664999434">
		<tag k="fixme" v="consider place=hamlet" />
		<tag k="name" v="Nordre Bjørnestad" />
		<tag k="place" v="farm" />
		<tag k="ssr:stedsnr" v="324983" />
	</node>
	<node id="-339625" lat="58.0978972243" lon="6.69799444512">
		<tag k="fixme" v="consider place=hamlet" />
		<tag k="name" v="Bryne" />
		<tag k="place" v="farm" />
		<tag k="ssr:stedsnr" v="909771" />
	</node>
	<node id="-337546" lat="58.1027722233" lon="6.7742416702">
		<tag k="name" v="Bruvika" />
		<tag k="place" v="farm" />
		<tag k="ssr:stedsnr" v="324599" />
	</node>
	<node id="-337545" lat="58.0866166653" lon="6.78081389185">
		<tag k="name" v="Fjellestad" />
		<tag k="place" v="hamlet" />
		<tag k="ssr:stedsnr" v="324597" />
	</node>
	<node id="-337506" lat="58.0979527803" lon="6.94701667387">
		<tag k="fixme" v="consider place=hamlet" />
		<tag k="name" v="Hønevika" />
		<tag k="place" v="farm" />
		<tag k="ssr:stedsnr" v="304341" />
	</node>
	<node id="-337504" lat="58.0890833365" lon="6.71817500625">
		<tag k="fixme" v="consider place=hamlet" />
		<tag k="name" v="Steinsvoll" />
		<tag k="place" v="farm" />
		<tag k="ssr:stedsnr" v="304327" />
	</node>
	<node id="-337503" lat="58.128925004" lon="6.83475278062">
		<tag k="fixme" v="consider place=hamlet" />
		<tag k="name" v="Dalland" />
		<tag k="place" v="farm" />
		<tag k="ssr:stedsnr" v="304270" />
	</node>
	<node id="-337499" lat="58.0892749995" lon="6.89124166357">
		<tag k="fixme" v="consider place=hamlet" />
		<tag k="name" v="Espeland" />
		<tag k="place" v="farm" />
		<tag k="ssr:stedsnr" v="303309" />
	</node>
	<node id="-337497" lat="58.1117333355" lon="6.75142500479">
		<tag k="fixme" v="consider place=hamlet" />
		<tag k="name" v="Lindland" />
		<tag k="place" v="farm" />
		<tag k="ssr:stedsnr" v="303297" />
	</node>
	<node id="-337495" lat="58.1266388863" lon="6.62608055764">
		<tag k="fixme" v="consider place=hamlet" />
		<tag k="name" v="Meberg" />
		<tag k="place" v="farm" />
		<tag k="ssr:stedsnr" v="303270" />
	</node>
	<node id="-337492" lat="58.1350333302" lon="6.70325555272">
		<tag k="fixme" v="consider place=hamlet" />
		<tag k="name" v="Trøyborg" />
		<tag k="place" v="farm" />
		<tag k="ssr:stedsnr" v="303245" />
	</node>
	<node id="-337489" lat="58.1677500008" lon="6.69827499524">
		<tag k="fixme" v="consider place=hamlet" />
		<tag k="name" v="Frøysti" />
		<tag k="place" v="farm" />
		<tag k="ssr:stedsnr" v="303211" />
	</node>
	<node id="-337488" lat="58.1593583292" lon="6.6578249935">
		<tag k="fixme" v="consider place=hamlet" />
		<tag k="name" v="Heskestad" />
		<tag k="place" v="farm" />
		<tag k="ssr:stedsnr" v="303210" />
	</node>
	<node id="-337487" lat="58.1679999962" lon="6.73578333389">
		<tag k="fixme" v="consider place=hamlet" />
		<tag k="name" v="Listeid" />
		<tag k="place" v="farm" />
		<tag k="ssr:stedsnr" v="303205" />
	</node>
	<node id="-337486" lat="58.2027861075" lon="6.80245000743">
		<tag k="name" v="Sæveland" />
		<tag k="place" v="farm" />
		<tag k="ssr:stedsnr" v="303190" />
	</node>
	<node id="-339533" lat="58.0890722182" lon="6.69493332522">
		<tag k="fixme" v="consider place=hamlet" />
		<tag k="name" v="Østre Vatne " />
		<tag k="place" v="farm" />
		<tag k="ssr:stedsnr" v="850338" />
	</node>
	<node id="-339532" lat="58.0894305546" lon="6.66781111865">
		<tag k="fixme" v="consider place=hamlet" />
		<tag k="name" v="Dyngvoll" />
		<tag k="place" v="farm" />
		<tag k="ssr:stedsnr" v="850334" />
	</node>
	<node id="-339531" lat="58.0977002664" lon="6.8814836289">
		<tag k="alt_name" v="Eikeland, ytre;Egeland" />
		<tag k="name" v="Ytre Eikeland" />
		<tag k="place" v="hamlet" />
		<tag k="ssr:stedsnr" v="850325" />
	</node>
	<node id="-337481" lat="58.1031305559" lon="6.579113895">
		<tag k="fixme" v="consider place=hamlet" />
		<tag k="name" v="Borhaug" />
		<tag k="place" v="farm" />
		<tag k="ssr:stedsnr" v="303119" />
	</node>
	<node id="-339528" lat="58.1512249977" lon="6.70629167363">
		<tag k="alt_name" v="Ulgjel" />
		<tag k="fixme" v="consider place=hamlet" />
		<tag k="name" v="Ulgjell" />
		<tag k="place" v="farm" />
		<tag k="ssr:stedsnr" v="850226" />
	</node>
	<node id="-339527" lat="58.1734111089" lon="6.71814167478">
		<tag k="fixme" v="consider place=hamlet" />
		<tag k="name" v="Duvoll" />
		<tag k="place" v="farm" />
		<tag k="ssr:stedsnr" v="850218" />
	</node>
	<node id="-339525" lat="58.1805833311" lon="6.78220000266">
		<tag k="alt_name" v="Gauteland" />
		<tag k="fixme" v="consider place=hamlet" />
		<tag k="name" v="Gautland" />
		<tag k="place" v="farm" />
		<tag k="ssr:stedsnr" v="850191" />
	</node>
	<node id="-339524" lat="58.107791669" lon="6.57945832898">
		<tag k="fixme" v="consider place=hamlet" />
		<tag k="name" v="Vågsvoll" />
		<tag k="place" v="farm" />
		<tag k="ssr:stedsnr" v="850123" />
	</node>
	<node id="-337474" lat="58.0896444444" lon="6.79679445192">
		<tag k="leisure" v="pitch" />
		<tag k="name" v="Farsund stadion" />
		<tag k="ssr:stedsnr" v="300869" />
	</node>
	<node id="-339520" lat="58.1044444446" lon="6.66860277711">
		<tag k="fixme" v="consider place=hamlet" />
		<tag k="name" v="Brastad" />
		<tag k="place" v="farm" />
		<tag k="ssr:stedsnr" v="849310" />
	</node>
	<node id="-339519" lat="58.118111114" lon="6.6448611077">
		<tag k="name" v="Frøyland" />
		<tag k="place" v="quarter" />
		<tag k="ssr:stedsnr" v="849288" />
	</node>
	<node id="-339518" lat="58.2098194453" lon="6.79258332648">
		<tag k="fixme" v="consider place=hamlet" />
		<tag k="name" v="Gjervollstad" />
		<tag k="place" v="farm" />
		<tag k="ssr:stedsnr" v="849189" />
	</node>
	<node id="-339485" lat="58.0935194441" lon="6.8567055605">
		<tag k="name" v="Moldbrokka" />
		<tag k="place" v="farm" />
		<tag k="ssr:stedsnr" v="811379" />
	</node>
	<node id="-339454" lat="58.0918388901" lon="6.80065278133">
		<tag k="leisure" v="park" />
		<tag k="name" v="Varbak" />
		<tag k="ssr:stedsnr" v="810616" />
	</node>
	<node id="-339453" lat="58.0871638929" lon="6.78591945152">
		<tag k="name" v="Danefjell" />
		<tag k="place" v="quarter" />
		<tag k="ssr:stedsnr" v="810614" />
	</node>
	<node id="-339449" lat="58.1197416627" lon="6.78090556314">
		<tag k="name" v="Nesan" />
		<tag k="place" v="farm" />
		<tag k="ssr:stedsnr" v="810597" />
	</node>
	<node id="-339438" lat="58.0877138857" lon="6.91715832787">
		<tag k="name" v="Lauringen" />
		<tag k="place" v="farm" />
		<tag k="ssr:stedsnr" v="810515" />
	</node>
	<node id="-339434" lat="58.1038166654" lon="6.95894165944">
		<tag k="name" v="Nordskog" />
		<tag k="place" v="farm" />
		<tag k="ssr:stedsnr" v="810491" />
	</node>
	<node id="-339418" lat="58.0834388926" lon="6.77480277028">
		<tag k="name" v="Lundestranda" />
		<tag k="place" v="isolated_dwelling" />
		<tag k="ssr:stedsnr" v="797946" />
	</node>
	<node id="-339417" lat="58.0852499973" lon="6.98474167478">
		<tag k="alt_name" v="Stautland, yt" />
		<tag k="fixme" v="consider place=hamlet" />
		<tag k="loc_name" v="Stautland" />
		<tag k="name" v="Ytre Stautland" />
		<tag k="place" v="farm" />
		<tag k="ssr:stedsnr" v="789525" />
	</node>
	<node id="-339416" lat="58.095616668" lon="6.98873611417">
		<tag k="fixme" v="consider place=hamlet" />
		<tag k="name" v="Bostevoll" />
		<tag k="place" v="farm" />
		<tag k="ssr:stedsnr" v="789522" />
	</node>
	<node id="-339413" lat="58.1324833331" lon="6.68624999939">
		<tag k="alt_name" v="Eigeland" />
		<tag k="name" v="Eikeland" />
		<tag k="place" v="hamlet" />
		<tag k="ssr:stedsnr" v="789244" />
	</node>
	<node id="-339412" lat="58.1737249958" lon="6.83745832685">
		<tag k="fixme" v="consider place=hamlet" />
		<tag k="name" v="Bines" />
		<tag k="place" v="farm" />
		<tag k="ssr:stedsnr" v="789220" />
	</node>
	<node id="-339404" lat="58.0710611086" lon="6.95576110665">
		<tag k="name" v="Lyngsvåg" />
		<tag k="place" v="hamlet" />
		<tag k="ssr:stedsnr" v="788333" />
	</node>
	<node id="-339403" lat="58.1115138871" lon="6.80428610447">
		<tag k="fixme" v="consider place=hamlet" />
		<tag k="name" v="Beiske" />
		<tag k="place" v="farm" />
		<tag k="ssr:stedsnr" v="788310" />
	</node>
	<node id="-339402" lat="58.11047778" lon="6.69919999648">
		<tag k="name" v="Gaupeland" />
		<tag k="place" v="farm" />
		<tag k="ssr:stedsnr" v="788304" />
	</node>
	<node id="-339399" lat="58.1178166702" lon="6.77246943998">
		<tag k="name" v="Heia" />
		<tag k="place" v="farm" />
		<tag k="ssr:stedsnr" v="788264" />
	</node>
	<node id="-339395" lat="58.1919499976" lon="6.84453055465">
		<tag k="fixme" v="consider place=hamlet" />
		<tag k="name" v="Havås" />
		<tag k="place" v="farm" />
		<tag k="ssr:stedsnr" v="788186" />
	</node>
	<node id="-339394" lat="58.1998138907" lon="6.87620555523">
		<tag k="fixme" v="consider place=hamlet" />
		<tag k="name" v="Drange" />
		<tag k="place" v="village" />
		<tag k="ssr:stedsnr" v="788183" />
	</node>
	<node id="-339384" lat="58.0784111072" lon="6.9183777841">
		<tag k="name" v="Risodden" />
		<tag k="place" v="isolated_dwelling" />
		<tag k="ssr:stedsnr" v="786120" />
	</node>
	<node id="-339352" lat="58.0873250045" lon="6.84761944934">
		<tag k="name" v="Ramsdalen" />
		<tag k="place" v="farm" />
		<tag k="ssr:stedsnr" v="750375" />
	</node>
	<node id="-337816" lat="58.204839528" lon="6.74815383503">
		<tag k="name" v="Buleg" />
		<tag k="place" v="farm" />
		<tag k="ssr:stedsnr" v="983418" />
	</node>
	<node id="-339341" lat="58.1553527744" lon="6.80136389289">
		<tag k="name" v="Vollan" />
		<tag k="place" v="farm" />
		<tag k="ssr:stedsnr" v="749935" />
	</node>
	<node id="-339288" lat="58.0815429432" lon="6.7117754655">
		<tag k="fixme" v="consider place=hamlet" />
		<tag k="name" v="Langvoll" />
		<tag k="place" v="farm" />
		<tag k="ssr:stedsnr" v="749500" />
	</node>
	<node id="-339286" lat="58.1700500031" lon="6.73145278199">
		<tag k="name" v="Rognehaugen" />
		<tag k="place" v="farm" />
		<tag k="ssr:stedsnr" v="749491" />
	</node>
	<node id="-339277" lat="58.0828083338" lon="6.65513889207">
		<tag k="name" v="Voan" />
		<tag k="place" v="farm" />
		<tag k="ssr:stedsnr" v="749429" />
	</node>
	<node id="-337804" lat="58.1181580925" lon="6.91166131104">
		<tag k="name" v="Dåreid" />
		<tag k="place" v="farm" />
		<tag k="ssr:stedsnr" v="983337" />
	</node>
	<node id="-339268" lat="58.0564611094" lon="6.96878611495">
		<tag k="name" v="Sandvik" />
		<tag k="place" v="farm" />
		<tag k="ssr:stedsnr" v="728604" />
	</node>
	<node id="-339267" lat="58.0726277811" lon="6.96364721445">
		<tag k="name" v="Lyngsvåg" />
		<tag k="place" v="farm" />
		<tag k="ssr:stedsnr" v="728594" />
	</node>
	<node id="-337803" lat="58.137122144" lon="6.62152017502">
		<tag k="name" v="Hervoll" />
		<tag k="place" v="farm" />
		<tag k="ssr:stedsnr" v="983336" />
	</node>
	<node id="-339260" lat="58.0814888876" lon="6.65152499948">
		<tag k="name" v="Vesthassel" />
		<tag k="place" v="farm" />
		<tag k="ssr:stedsnr" v="728299" />
	</node>
	<node id="-339259" lat="58.08549167" lon="6.63753054991">
		<tag k="fixme" v="consider place=hamlet" />
		<tag k="name" v="Midthassel" />
		<tag k="place" v="farm" />
		<tag k="ssr:stedsnr" v="728297" />
	</node>
	<node id="-339257" lat="58.0880555532" lon="6.9079749934">
		<tag k="name" v="Myra" />
		<tag k="place" v="farm" />
		<tag k="ssr:stedsnr" v="728275" />
	</node>
	<node id="-339254" lat="58.1105916694" lon="6.63073054748">
		<tag k="alt_name" v="Råstad, øvre;Råstad øvre" />
		<tag k="name" v="Øvre Råstad" />
		<tag k="place" v="hamlet" />
		<tag k="ssr:stedsnr" v="728264" />
	</node>
	<node id="-337801" lat="58.1361028295" lon="6.62487744761">
		<tag k="name" v="Hervoll" />
		<tag k="place" v="farm" />
		<tag k="ssr:stedsnr" v="983333" />
	</node>
	<node id="-339252" lat="58.0981944463" lon="6.93092499207">
		<tag k="fixme" v="consider place=hamlet" />
		<tag k="name" v="Spindanger" />
		<tag k="place" v="farm" />
		<tag k="ssr:stedsnr" v="728256" />
	</node>
	<node id="-337800" lat="58.1353379273" lon="6.623180318">
		<tag k="name" v="Hervoll" />
		<tag k="place" v="farm" />
		<tag k="ssr:stedsnr" v="983332" />
	</node>
	<node id="-339246" lat="58.1544055517" lon="6.62882221801">
		<tag k="alt_name" v="Rydjord" />
		<tag k="name" v="Rudjord" />
		<tag k="place" v="hamlet" />
		<tag k="ssr:stedsnr" v="728201" />
	</node>
	<node id="-339243" lat="58.1757861123" lon="6.78528888639">
		<tag k="alt_name" v="Kvålshei" />
		<tag k="fixme" v="consider place=hamlet" />
		<tag k="name" v="Kvålsheia" />
		<tag k="place" v="farm" />
		<tag k="ssr:stedsnr" v="728185" />
	</node>
	<node id="-339241" lat="58.1959000019" lon="6.86141111241">
		<tag k="fixme" v="consider place=hamlet" />
		<tag k="name" v="Litland" />
		<tag k="place" v="farm" />
		<tag k="ssr:stedsnr" v="728173" />
	</node>
	<node id="-339239" lat="58.2005166653" lon="6.91860277402">
		<tag k="name" v="Vaddelia" />
		<tag k="place" v="isolated_dwelling" />
		<tag k="ssr:stedsnr" v="728150" />
	</node>
	<node id="-339236" lat="58.2184138892" lon="6.85610556283">
		<tag k="fixme" v="consider place=hamlet" />
		<tag k="name" v="Laundal" />
		<tag k="place" v="farm" />
		<tag k="ssr:stedsnr" v="728129" />
	</node>
	<node id="-337798" lat="58.0937200218" lon="6.70185351625">
		<tag k="name" v="Østre Vatne " />
		<tag k="place" v="farm" />
		<tag k="ssr:stedsnr" v="983322" />
	</node>
	<node id="-337797" lat="58.0887455531" lon="6.69724920449">
		<tag k="name" v="Østre Vatne" />
		<tag k="place" v="farm" />
		<tag k="ssr:stedsnr" v="983319" />
	</node>
	<node id="-337796" lat="58.0940050181" lon="6.69892164769">
		<tag k="name" v="Østre Vatne" />
		<tag k="place" v="farm" />
		<tag k="ssr:stedsnr" v="983315" />
	</node>
	<node id="-339217" lat="58.0455000021" lon="6.91843055147">
		<tag k="name" v="Lega" />
		<tag k="place" v="isolated_dwelling" />
		<tag k="ssr:stedsnr" v="706302" />
	</node>
	<node id="-337793" lat="58.084616362" lon="6.65649449401">
		<tag k="name" v="Østhassel" />
		<tag k="place" v="farm" />
		<tag k="ssr:stedsnr" v="983307" />
	</node>
	<node id="-337792" lat="58.0717246361" lon="6.64804644295">
		<tag k="name" v="Østhassel" />
		<tag k="place" v="farm" />
		<tag k="ssr:stedsnr" v="983306" />
	</node>
	<node id="-337791" lat="58.0824762509" lon="6.64321430778">
		<tag k="name" v="Østhassel" />
		<tag k="place" v="farm" />
		<tag k="ssr:stedsnr" v="983305" />
	</node>
	<node id="-339838" lat="58.2139948011" lon="6.87482717962">
		<tag k="fixme" v="consider place=hamlet" />
		<tag k="name" v="Drangsheien" />
		<tag k="place" v="farm" />
		<tag k="ssr:stedsnr" v="978139" />
	</node>
	<node id="-339182" lat="58.1624604162" lon="6.8658880636">
		<tag k="alt_name" v="Austad" />
		<tag k="fixme" v="consider place=hamlet" />
		<tag k="name" v="Nedre Austad" />
		<tag k="place" v="farm" />
		<tag k="ssr:stedsnr" v="689791" />
	</node>
	<node id="-339837" lat="58.2020541315" lon="6.80180347709">
		<tag k="fixme" v="consider place=hamlet" />
		<tag k="name" v="Store Sæveland" />
		<tag k="place" v="farm" />
		<tag k="ssr:stedsnr" v="978137" />
	</node>
	<node id="-337788" lat="58.0832435807" lon="6.64454393722">
		<tag k="name" v="Østhassel" />
		<tag k="place" v="farm" />
		<tag k="ssr:stedsnr" v="983302" />
	</node>
	<node id="-337787" lat="58.0816024584" lon="6.64702567124">
		<tag k="name" v="Østhassel" />
		<tag k="place" v="farm" />
		<tag k="ssr:stedsnr" v="983301" />
	</node>
	<node id="-337786" lat="58.0827371545" lon="6.64728146897">
		<tag k="name" v="Østhassel" />
		<tag k="place" v="farm" />
		<tag k="ssr:stedsnr" v="983300" />
	</node>
	<node id="-339157" lat="58.0829722202" lon="6.7653722162">
		<tag k="fixme" v="multiple name tags, choose one and add the other to alt_name" />
		<tag k="name" v="Kråkenes;Krågenes" />
		<tag k="place" v="farm" />
		<tag k="ssr:stedsnr" v="689612" />
	</node>
	<node id="-337784" lat="58.1578550234" lon="6.80066725482">
		<tag k="name" v="Sande" />
		<tag k="place" v="farm" />
		<tag k="ssr:stedsnr" v="983294" />
	</node>
	<node id="-337783" lat="58.1584025271" lon="6.80189978035">
		<tag k="name" v="Sande" />
		<tag k="place" v="farm" />
		<tag k="ssr:stedsnr" v="983293" />
	</node>
	<node id="-337781" lat="58.1588676772" lon="6.80291086199">
		<tag k="name" v="Sande" />
		<tag k="place" v="farm" />
		<tag k="ssr:stedsnr" v="983291" />
	</node>
	<node id="-339132" lat="58.1601638905" lon="6.740044444">
		<tag k="name" v="Goneshus" />
		<tag k="place" v="locality" />
		<tag k="ssr:stedsnr" v="689445" />
	</node>
	<node id="-339123" lat="58.0792499981" lon="6.65151944959">
		<tag k="name" v="Årvoll" />
		<tag k="place" v="farm" />
		<tag k="ssr:stedsnr" v="689375" />
	</node>
	<node id="-339120" lat="58.0838611148" lon="6.72211110705">
		<tag k="name" v="Hananger" />
		<tag k="place" v="farm" />
		<tag k="ssr:stedsnr" v="668371" />
	</node>
	<node id="-339119" lat="58.0897888928" lon="6.73156389105">
		<tag k="fixme" v="consider place=hamlet" />
		<tag k="name" v="Grimsby" />
		<tag k="place" v="farm" />
		<tag k="ssr:stedsnr" v="668364" />
	</node>
	<node id="-339118" lat="58.0733805572" lon="6.97644444731">
		<tag k="alt_name" v="Skarstein" />
		<tag k="name" v="Indre Skarstein" />
		<tag k="place" v="hamlet" />
		<tag k="ssr:stedsnr" v="667571" />
	</node>
	<node id="-339115" lat="58.0661583338" lon="6.87980278368">
		<tag k="alt_name" v="Langøy, austre;Østre Langøy" />
		<tag k="fixme" v="consider place=hamlet" />
		<tag k="name" v="Austre Langøy" />
		<tag k="place" v="farm" />
		<tag k="ssr:stedsnr" v="667357" />
	</node>
	<node id="-339112" lat="58.0708805585" lon="6.73175000031">
		<tag k="fixme" v="consider place=hamlet" />
		<tag k="name" v="Åsen" />
		<tag k="place" v="farm" />
		<tag k="ssr:stedsnr" v="667322" />
	</node>
	<node id="-339111" lat="58.0816999996" lon="6.8108166595">
		<tag k="fixme" v="consider place=hamlet" />
		<tag k="name" v="Skjolnes" />
		<tag k="place" v="farm" />
		<tag k="ssr:stedsnr" v="667321" />
	</node>
	<node id="-339110" lat="58.0883611147" lon="6.89765834105">
		<tag k="alt_name" v="Egre" />
		<tag k="fixme" v="consider place=hamlet" />
		<tag k="name" v="Ekre" />
		<tag k="place" v="farm" />
		<tag k="ssr:stedsnr" v="667312" />
	</node>
	<node id="-339109" lat="58.1115527739" lon="6.66212500147">
		<tag k="fixme" v="consider place=hamlet" />
		<tag k="name" v="Kotland" />
		<tag k="place" v="farm" />
		<tag k="ssr:stedsnr" v="667301" />
	</node>
	<node id="-339106" lat="58.1256722211" lon="6.68845555672">
		<tag k="fixme" v="consider place=hamlet" />
		<tag k="name" v="Reisvoll" />
		<tag k="place" v="farm" />
		<tag k="ssr:stedsnr" v="667280" />
	</node>
	<node id="-339105" lat="58.1189944488" lon="6.79209166578">
		<tag k="fixme" v="consider place=hamlet" />
		<tag k="name" v="Snabbe" />
		<tag k="place" v="farm" />
		<tag k="ssr:stedsnr" v="667257" />
	</node>
	<node id="-339104" lat="58.1555499966" lon="6.78707500675">
		<tag k="fixme" v="consider place=hamlet" />
		<tag k="name" v="Briseid" />
		<tag k="place" v="farm" />
		<tag k="ssr:stedsnr" v="667234" />
	</node>
	<node id="-339101" lat="58.2042500006" lon="6.79092500095">
		<tag k="fixme" v="consider place=hamlet" />
		<tag k="name" v="Meland" />
		<tag k="place" v="farm" />
		<tag k="ssr:stedsnr" v="667200" />
	</node>
	<node id="-339099" lat="58.2016916695" lon="6.76272500826">
		<tag k="fixme" v="consider place=hamlet" />
		<tag k="name" v="Saudland" />
		<tag k="place" v="farm" />
		<tag k="ssr:stedsnr" v="667195" />
	</node>
	<node id="-339098" lat="58.20941944" lon="6.74441666128">
		<tag k="fixme" v="consider place=hamlet" />
		<tag k="name" v="Buleg" />
		<tag k="place" v="farm" />
		<tag k="ssr:stedsnr" v="667190" />
	</node>
	<node id="-339097" lat="58.2076944446" lon="6.7613944404">
		<tag k="fixme" v="consider place=hamlet" />
		<tag k="name" v="Grimestad" />
		<tag k="place" v="farm" />
		<tag k="ssr:stedsnr" v="667188" />
	</node>
	<node id="-339096" lat="58.2151666649" lon="6.77172222034">
		<tag k="name" v="Strondebakken" />
		<tag k="place" v="farm" />
		<tag k="ssr:stedsnr" v="666315" />
	</node>
	<node id="-339086" lat="58.0662583348" lon="6.96752500412">
		<tag k="name" v="Kvineset" />
		<tag k="place" v="farm" />
		<tag k="ssr:stedsnr" v="645356" />
	</node>
	<node id="-339063" lat="58.1213250009" lon="6.92767222717">
		<tag k="name" v="Hogga" />
		<tag k="place" v="farm" />
		<tag k="ssr:stedsnr" v="628920" />
	</node>
	<node id="-337769" lat="58.0746416693" lon="6.77411388191">
		<tag k="name" v="Einarsnes" />
		<tag k="place" v="isolated_dwelling" />
		<tag k="ssr:stedsnr" v="889055" />
	</node>
	<node id="-338997" lat="58.0690111103" lon="6.97126666752">
		<tag k="name" v="Ytre Skarstein" />
		<tag k="place" v="hamlet" />
		<tag k="ssr:stedsnr" v="628433" />
	</node>
	<node id="-338988" lat="58.0919361109" lon="6.68487222119">
		<tag k="alt_name" v="Skeime, nedre;Skeime nedre" />
		<tag k="fixme" v="multiple name tags, choose one and add the other to alt_name" />
		<tag k="name" v="Skeime;Nedre Skeime" />
		<tag k="place" v="hamlet" />
		<tag k="ssr:stedsnr" v="607310" />
	</node>
	<node id="-338987" lat="58.1063249966" lon="6.95050555762">
		<tag k="alt_name" v="Nordre Våge" />
		<tag k="fixme" v="consider place=hamlet" />
		<tag k="name" v="Våge" />
		<tag k="place" v="farm" />
		<tag k="ssr:stedsnr" v="607305" />
	</node>
	<node id="-338983" lat="58.081091666" lon="6.91831944742">
		<tag k="alt_name" v="Bugdøy, in;Lille Bugdøy" />
		<tag k="fixme" v="consider place=hamlet" />
		<tag k="name" v="Indre Bugdøy" />
		<tag k="place" v="farm" />
		<tag k="ssr:stedsnr" v="606337" />
	</node>
	<node id="-338981" lat="58.0617027805" lon="6.94423333194">
		<tag k="alt_name" v="Fidje" />
		<tag k="fixme" v="consider place=hamlet" />
		<tag k="name" v="Fidja" />
		<tag k="place" v="farm" />
		<tag k="ssr:stedsnr" v="606333" />
	</node>
	<node id="-338978" lat="58.1141111068" lon="6.88071944871">
		<tag k="alt_name" v="Bjørgen" />
		<tag k="fixme" v="consider place=hamlet" />
		<tag k="name" v="Bjørga" />
		<tag k="place" v="farm" />
		<tag k="ssr:stedsnr" v="606297" />
	</node>
	<node id="-337755" lat="58.1031305559" lon="6.579113895">
		<tag k="name" v="Borhaug" />
		<tag k="place" v="farm" />
		<tag k="ssr:stedsnr" v="405471" />
	</node>
	<node id="-338976" lat="58.1093999977" lon="6.78696389433">
		<tag k="fixme" v="consider place=hamlet" />
		<tag k="name" v="Bjørnestad" />
		<tag k="place" v="farm" />
		<tag k="ssr:stedsnr" v="606290" />
	</node>
	<node id="-338975" lat="58.1079972229" lon="6.71745833995">
		<tag k="alt_name" v="Omland" />
		<tag k="name" v="Åmland" />
		<tag k="place" v="hamlet" />
		<tag k="ssr:stedsnr" v="606288" />
	</node>
	<node id="-338973" lat="58.1298083336" lon="6.61529444334">
		<tag k="fixme" v="consider place=hamlet" />
		<tag k="name" v="Nordberg" />
		<tag k="place" v="farm" />
		<tag k="ssr:stedsnr" v="606264" />
	</node>
	<node id="-338971" lat="58.13704167" lon="6.60563054914">
		<tag k="alt_name" v="Kylleberg" />
		<tag k="fixme" v="consider place=hamlet" />
		<tag k="name" v="Kjølleberg" />
		<tag k="place" v="farm" />
		<tag k="ssr:stedsnr" v="606231" />
	</node>
	<node id="-338970" lat="58.1330777778" lon="6.64433333771">
		<tag k="fixme" v="consider place=hamlet" />
		<tag k="name" v="Jørstad" />
		<tag k="place" v="farm" />
		<tag k="ssr:stedsnr" v="606230" />
	</node>
	<node id="-338969" lat="58.151666664" lon="6.62121944338">
		<tag k="alt_name" v="Senegre" />
		<tag k="fixme" v="consider place=hamlet" />
		<tag k="name" v="Sennekre" />
		<tag k="place" v="farm" />
		<tag k="ssr:stedsnr" v="606227" />
	</node>
	<node id="-338968" lat="58.1580638846" lon="6.79992499873">
		<tag k="fixme" v="consider place=hamlet" />
		<tag k="name" v="Sande" />
		<tag k="place" v="farm" />
		<tag k="ssr:stedsnr" v="606222" />
	</node>
	<node id="-338967" lat="58.1439833353" lon="6.65435278566">
		<tag k="name" v="Grønhaug" />
		<tag k="place" v="farm" />
		<tag k="ssr:stedsnr" v="606217" />
	</node>
	<node id="-338966" lat="58.1723416675" lon="6.70905833352">
		<tag k="alt_name" v="Knustad" />
		<tag k="fixme" v="consider place=hamlet" />
		<tag k="name" v="Knutstad" />
		<tag k="place" v="farm" />
		<tag k="ssr:stedsnr" v="606212" />
	</node>
	<node id="-338965" lat="58.1631833362" lon="6.62423611514">
		<tag k="alt_name" v="Uddal" />
		<tag k="fixme" v="consider place=hamlet" />
		<tag k="name" v="Udal" />
		<tag k="place" v="farm" />
		<tag k="ssr:stedsnr" v="606204" />
	</node>
	<node id="-338960" lat="58.2036499978" lon="6.83925555903">
		<tag k="fixme" v="consider place=hamlet" />
		<tag k="name" v="Svindal" />
		<tag k="place" v="farm" />
		<tag k="ssr:stedsnr" v="606181" />
	</node>
	<node id="-338959" lat="58.221761115" lon="6.82724444286">
		<tag k="fixme" v="consider place=hamlet" />
		<tag k="name" v="Bjelland" />
		<tag k="place" v="farm" />
		<tag k="ssr:stedsnr" v="606146" />
	</node>
	<node id="-338928" lat="58.0564999979" lon="6.93319999632">
		<tag k="name" v="Flægholmen" />
		<tag k="place" v="farm" />
		<tag k="ssr:stedsnr" v="574836" />
	</node>
	<node id="-338917" lat="58.0862444477" lon="6.94992778227">
		<tag k="name" v="Klelia" />
		<tag k="place" v="farm" />
		<tag k="ssr:stedsnr" v="568450" />
	</node>
	<node id="-337742" lat="58.0711805519" lon="6.81868889466">
		<tag k="name" v="Store Eigerøy" />
		<tag k="place" v="farm" />
		<tag k="ssr:stedsnr" v="392844" />
	</node>
	<node id="-338896" lat="58.1249805542" lon="6.60922499794">
		<tag k="alt_name" v="Vere" />
		<tag k="name" v="Austre Vere" />
		<tag k="place" v="hamlet" />
		<tag k="ssr:stedsnr" v="567744" />
	</node>
	<node id="-338894" lat="58.1033777783" lon="6.68856111504">
		<tag k="name" v="Minde" />
		<tag k="place" v="quarter" />
		<tag k="ssr:stedsnr" v="567730" />
	</node>
	<node id="-338892" lat="58.1252111118" lon="6.66057221703">
		<tag k="name" v="Kleiveland" />
		<tag k="place" v="locality" />
		<tag k="ssr:stedsnr" v="567716" />
	</node>
	<node id="-338885" lat="58.1349277809" lon="6.6757916661">
		<tag k="fixme" v="consider place=hamlet" />
		<tag k="name" v="Launes" />
		<tag k="place" v="farm" />
		<tag k="ssr:stedsnr" v="567649" />
	</node>
	<node id="-338882" lat="58.1108388867" lon="6.70364443631">
		<tag k="name" v="Harbakk" />
		<tag k="place" v="farm" />
		<tag k="ssr:stedsnr" v="567633" />
	</node>
	<node id="-338879" lat="58.0922638855" lon="6.77381111424">
		<tag k="name" v="Haugbakk" />
		<tag k="place" v="quarter" />
		<tag k="ssr:stedsnr" v="567600" />
	</node>
	<node id="-338877" lat="58.0956055538" lon="6.77740555292">
		<tag k="name" v="Mosvoll" />
		<tag k="place" v="quarter" />
		<tag k="ssr:stedsnr" v="567583" />
	</node>
	<node id="-338876" lat="58.1152277775" lon="6.77457777238">
		<tag k="name" v="Heiastrand" />
		<tag k="place" v="farm" />
		<tag k="ssr:stedsnr" v="567571" />
	</node>
	<node id="-338866" lat="58.0958750023" lon="6.88074721839">
		<tag k="name" v="Svinejordet" />
		<tag k="place" v="farm" />
		<tag k="ssr:stedsnr" v="567491" />
	</node>
	<node id="-338865" lat="58.1021499998" lon="6.87869166671">
		<tag k="name" v="Udestad" />
		<tag k="place" v="hamlet" />
		<tag k="ssr:stedsnr" v="567487" />
	</node>
	<node id="-338840" lat="58.0453583303" lon="6.91980555896">
		<tag k="fixme" v="consider place=hamlet" />
		<tag k="name" v="Ullerøy" />
		<tag k="place" v="farm" />
		<tag k="ssr:stedsnr" v="546374" />
	</node>
	<node id="-338835" lat="58.0579000027" lon="6.94050832732">
		<tag k="alt_name" v="Tranevåg, l;Vestre Tranevåg" />
		<tag k="fixme" v="consider place=hamlet" />
		<tag k="name" v="Litle Tranevåg" />
		<tag k="place" v="farm" />
		<tag k="ssr:stedsnr" v="546327" />
	</node>
	<node id="-338833" lat="58.0980305601" lon="6.83014444603">
		<tag k="alt_name" v="Håvika" />
		<tag k="fixme" v="consider place=hamlet" />
		<tag k="name" v="Havik" />
		<tag k="old_name" v="Håvik" />
		<tag k="place" v="farm" />
		<tag k="ssr:stedsnr" v="546307" />
	</node>
	<node id="-338832" lat="58.0731527812" lon="6.71923888269">
		<tag k="name" v="Hanangermona" />
		<tag k="place" v="farm" />
		<tag k="ssr:stedsnr" v="546301" />
	</node>
	<node id="-338831" lat="58.0851249966" lon="6.88375277747">
		<tag k="alt_name" v="Viken" />
		<tag k="fixme" v="consider place=hamlet" />
		<tag k="name" v="Vika" />
		<tag k="place" v="farm" />
		<tag k="ssr:stedsnr" v="546293" />
	</node>
	<node id="-338830" lat="58.1094555576" lon="6.93216389281">
		<tag k="fixme" v="consider place=hamlet" />
		<tag k="name" v="Farbrot" />
		<tag k="place" v="farm" />
		<tag k="ssr:stedsnr" v="546271" />
	</node>
	<node id="-338828" lat="58.131788893" lon="6.8481222181">
		<tag k="alt_name" v="Lauland" />
		<tag k="fixme" v="consider place=hamlet" />
		<tag k="name" v="Lauvland" />
		<tag k="place" v="farm" />
		<tag k="ssr:stedsnr" v="546262" />
	</node>
	<node id="-338827" lat="58.1212861134" lon="6.9319027861">
		<tag k="alt_name" v="Skodeland" />
		<tag k="fixme" v="consider place=hamlet" />
		<tag k="name" v="Skåteland" />
		<tag k="place" v="farm" />
		<tag k="ssr:stedsnr" v="546253" />
	</node>
	<node id="-338825" lat="58.1191000004" lon="6.67996944669">
		<tag k="alt_name" v="Omdal" />
		<tag k="name" v="Åmdal" />
		<tag k="place" v="hamlet" />
		<tag k="ssr:stedsnr" v="546246" />
	</node>
	<node id="-338821" lat="58.1799388928" lon="6.69272499248">
		<tag k="name" v="Stibakken" />
		<tag k="place" v="farm" />
		<tag k="ssr:stedsnr" v="546192" />
	</node>
	<node id="-338810" lat="58.0723500008" lon="6.91099999237">
		<tag k="name" v="Svinehagen" />
		<tag k="place" v="isolated_dwelling" />
		<tag k="ssr:stedsnr" v="543188" />
	</node>
	<node id="-337802" lat="58.1373562566" lon="6.6236532075">
		<tag k="name" v="Hervoll" />
		<tag k="place" v="farm" />
		<tag k="ssr:stedsnr" v="983335" />
	</node>
	<node id="-338785" lat="58.1167361132" lon="6.64747499537">
		<tag k="name" v="Vinni" />
		<tag k="place" v="farm" />
		<tag k="ssr:stedsnr" v="507770" />
	</node>
	<node id="-338780" lat="58.1212555585" lon="6.69307222062">
		<tag k="name" v="Bakkan" />
		<tag k="place" v="farm" />
		<tag k="ssr:stedsnr" v="507741" />
	</node>
	<node id="-338778" lat="58.1152888857" lon="6.67774445225">
		<tag k="name" v="Oddersbo" />
		<tag k="place" v="locality" />
		<tag k="ssr:stedsnr" v="507727" />
	</node>
	<node id="-338763" lat="58.1167444425" lon="6.73313611342">
		<tag k="name" v="Torvollen" />
		<tag k="place" v="farm" />
		<tag k="ssr:stedsnr" v="507662" />
	</node>
	<node id="-338755" lat="58.0906249998" lon="6.79844721564">
		<tag k="fixme" v="consider place=suburb, village or hamlet" />
		<tag k="name" v="Kjørestad" />
		<tag k="place" v="quarter" />
		<tag k="ssr:stedsnr" v="507620" />
	</node>
	<node id="-338714" lat="58.0616777791" lon="6.939169452">
		<tag k="name" v="Hovden" />
		<tag k="place" v="farm" />
		<tag k="ssr:stedsnr" v="506946" />
	</node>
	<node id="-338699" lat="58.1845499983" lon="6.77699722226">
		<tag k="alt_name" v="Lille Jersdal" />
		<tag k="fixme" v="consider place=hamlet" />
		<tag k="name" v="Lille Gjersdal" />
		<tag k="place" v="farm" />
		<tag k="ssr:stedsnr" v="506871" />
	</node>
	<node id="-337799" lat="58.0869766902" lon="6.69257828856">
		<tag k="name" v="Østre Vatne" />
		<tag k="place" v="farm" />
		<tag k="ssr:stedsnr" v="983324" />
	</node>
	<node id="-338685" lat="58.0812583297" lon="6.96310555185">
		<tag k="fixme" v="consider place=hamlet" />
		<tag k="name" v="Bjørnevåg" />
		<tag k="place" v="farm" />
		<tag k="ssr:stedsnr" v="485296" />
	</node>
	<node id="-338681" lat="58.0777611075" lon="6.77811943912">
		<tag k="alt_name" v="Vollmona" />
		<tag k="name" v="Vollmoen" />
		<tag k="place" v="farm" />
		<tag k="ssr:stedsnr" v="485262" />
	</node>
	<node id="-338677" lat="58.1085972193" lon="6.68073610869">
		<tag k="name" v="Øygard" />
		<tag k="place" v="farm" />
		<tag k="ssr:stedsnr" v="485241" />
	</node>
	<node id="-338675" lat="58.1296111112" lon="6.81074999683">
		<tag k="fixme" v="consider place=hamlet" />
		<tag k="name" v="Lia" />
		<tag k="place" v="farm" />
		<tag k="ssr:stedsnr" v="485222" />
	</node>
	<node id="-338674" lat="58.1425749999" lon="6.75984444383">
		<tag k="alt_name" v="Bøen" />
		<tag k="fixme" v="consider place=hamlet" />
		<tag k="name" v="Kjellingbø" />
		<tag k="place" v="farm" />
		<tag k="ssr:stedsnr" v="485196" />
	</node>
	<node id="-338673" lat="58.1336000014" lon="6.60910277117">
		<tag k="fixme" v="consider place=hamlet" />
		<tag k="name" v="Penne" />
		<tag k="place" v="farm" />
		<tag k="ssr:stedsnr" v="485193" />
	</node>
	<node id="-338672" lat="58.151250003" lon="6.65215833166">
		<tag k="fixme" v="consider place=hamlet" />
		<tag k="name" v="Vigmostad" />
		<tag k="place" v="farm" />
		<tag k="ssr:stedsnr" v="485186" />
	</node>
	<node id="-338668" lat="58.1862111095" lon="6.90411388528">
		<tag k="fixme" v="consider place=hamlet" />
		<tag k="name" v="Seland" />
		<tag k="place" v="farm" />
		<tag k="ssr:stedsnr" v="485155" />
	</node>
	<node id="-338666" lat="58.2083972212" lon="6.85651111915">
		<tag k="fixme" v="consider place=hamlet" />
		<tag k="name" v="Saudland" />
		<tag k="place" v="farm" />
		<tag k="ssr:stedsnr" v="485129" />
	</node>
	<node id="-338661" lat="58.0887749967" lon="6.79007777738">
		<tag k="name" v="Fjellestad" />
		<tag k="place" v="farm" />
		<tag k="ssr:stedsnr" v="482838" />
	</node>
	<node id="-338621" lat="58.1804500013" lon="6.86204722273">
		<tag k="fixme" v="consider place=hamlet" />
		<tag k="name" v="Vedremark" />
		<tag k="place" v="farm" />
		<tag k="ssr:stedsnr" v="446969" />
	</node>
	<node id="-337795" lat="58.0895526557" lon="6.69199190009">
		<tag k="name" v="Østre Vatne" />
		<tag k="place" v="farm" />
		<tag k="ssr:stedsnr" v="983313" />
	</node>
	<node id="-338571" lat="58.0898388844" lon="6.86799165905">
		<tag k="name" v="Bjorsbakken" />
		<tag k="place" v="farm" />
		<tag k="ssr:stedsnr" v="446509" />
	</node>
	<node id="-338556" lat="58.0786388852" lon="6.64596944344">
		<tag k="name" v="Kåde" />
		<tag k="place" v="farm" />
		<tag k="ssr:stedsnr" v="446415" />
	</node>
	<node id="-338553" lat="58.1708277777" lon="6.67521111182">
		<tag k="name" v="Lega" />
		<tag k="place" v="farm" />
		<tag k="ssr:stedsnr" v="446403" />
	</node>
	<node id="-338552" lat="58.0646027817" lon="6.81628611085">
		<tag k="alt_name" v="Loshamn" />
		<tag k="fixme" v="consider place=suburb, village or hamlet" />
		<tag k="name" v="Loshavn" />
		<tag k="place" v="quarter" />
		<tag k="ssr:stedsnr" v="425376" />
	</node>
	<node id="-338549" lat="58.0646500013" lon="6.95123332578">
		<tag k="fixme" v="consider place=hamlet" />
		<tag k="name" v="Viestad" />
		<tag k="place" v="farm" />
		<tag k="ssr:stedsnr" v="425353" />
	</node>
	<node id="-338547" lat="58.0951638864" lon="6.95401388584">
		<tag k="alt_name" v="Abelvik" />
		<tag k="fixme" v="consider place=hamlet" />
		<tag k="name" v="Apalvik" />
		<tag k="place" v="farm" />
		<tag k="ssr:stedsnr" v="425346" />
	</node>
	<node id="-338546" lat="58.0858444435" lon="6.70623611436">
		<tag k="alt_name" v="Rødland østre" />
		<tag k="name" v="Rødland" />
		<tag k="place" v="hamlet" />
		<tag k="ssr:stedsnr" v="425338" />
	</node>
	<node id="-338545" lat="58.0729277755" lon="6.76366665861">
		<tag k="fixme" v="consider place=hamlet" />
		<tag k="name" v="Huseby" />
		<tag k="place" v="farm" />
		<tag k="ssr:stedsnr" v="425326" />
	</node>
	<node id="-338542" lat="58.1101805557" lon="6.88060277472">
		<tag k="name" v="Bjørnestad" />
		<tag k="place" v="farm" />
		<tag k="ssr:stedsnr" v="425314" />
	</node>
	<node id="-338541" lat="58.1124805564" lon="6.79791110618">
		<tag k="fixme" v="consider place=hamlet" />
		<tag k="name" v="Slettestrand" />
		<tag k="place" v="farm" />
		<tag k="ssr:stedsnr" v="425313" />
	</node>
	<node id="-338539" lat="58.0996333298" lon="6.73980555008">
		<tag k="fixme" v="consider place=hamlet" />
		<tag k="name" v="Biland" />
		<tag k="place" v="farm" />
		<tag k="ssr:stedsnr" v="425288" />
	</node>
	<node id="-338538" lat="58.1001777787" lon="6.75700556115">
		<tag k="fixme" v="consider place=hamlet" />
		<tag k="name" v="Kjørrefjord" />
		<tag k="place" v="farm" />
		<tag k="ssr:stedsnr" v="425286" />
	</node>
	<node id="-338537" lat="58.1387555598" lon="6.82744444246">
		<tag k="fixme" v="consider place=hamlet" />
		<tag k="name" v="Høyland" />
		<tag k="place" v="farm" />
		<tag k="ssr:stedsnr" v="425271" />
	</node>
	<node id="-338535" lat="58.144238888" lon="6.8373444394">
		<tag k="alt_name" v="Bedringsås" />
		<tag k="name" v="Bidringsås" />
		<tag k="place" v="hamlet" />
		<tag k="ssr:stedsnr" v="425242" />
	</node>
	<node id="-338534" lat="58.178600001" lon="6.63897500122">
		<tag k="alt_name" v="Vikane;Vikene" />
		<tag k="fixme" v="consider place=hamlet" />
		<tag k="name" v="Vigan" />
		<tag k="place" v="farm" />
		<tag k="ssr:stedsnr" v="425197" />
	</node>
	<node id="-338533" lat="58.1894888896" lon="6.84995555013">
		<tag k="alt_name" v="Selte" />
		<tag k="name" v="Solheim" />
		<tag k="place" v="farm" />
		<tag k="ssr:stedsnr" v="425189" />
	</node>
	<node id="-338529" lat="58.0804999971" lon="6.78913056407">
		<tag k="name" v="Lunde" />
		<tag k="place" v="locality" />
		<tag k="ssr:stedsnr" v="422899" />
	</node>
	<node id="-338497" lat="58.1844786457" lon="6.79246431319">
		<tag k="name" v="Åptelia" />
		<tag k="place" v="farm" />
		<tag k="ssr:stedsnr" v="264865" />
	</node>
	<node id="-338490" lat="58.1079499966" lon="6.6455944499">
		<tag k="name" v="Dyttan" />
		<tag k="place" v="farm" />
		<tag k="ssr:stedsnr" v="264767" />
	</node>
	<node id="-338487" lat="58.1269277783" lon="6.60174721448">
		<tag k="name" v="Vestre Vere" />
		<tag k="place" v="hamlet" />
		<tag k="ssr:stedsnr" v="264751" />
	</node>
	<node id="-338486" lat="58.122477782" lon="6.68907500571">
		<tag k="name" v="Kleivollen" />
		<tag k="place" v="farm" />
		<tag k="ssr:stedsnr" v="264725" />
	</node>
	<node id="-338472" lat="58.1237361069" lon="6.72475832591">
		<tag k="name" v="Nyhagen" />
		<tag k="place" v="locality" />
		<tag k="ssr:stedsnr" v="264615" />
	</node>
	<node id="-338432" lat="58.0796750016" lon="6.76872221433">
		<tag k="name" v="Lunde" />
		<tag k="place" v="farm" />
		<tag k="ssr:stedsnr" v="243735" />
	</node>
	<node id="-338429" lat="58.0956555527" lon="6.67748889115">
		<tag k="alt_name" v="Skeime, øvre;Skeime øvre" />
		<tag k="name" v="Øvre Skeime" />
		<tag k="place" v="hamlet" />
		<tag k="ssr:stedsnr" v="243325" />
	</node>
	<node id="-338428" lat="58.0822833292" lon="6.77153611507">
		<tag k="fixme" v="consider place=hamlet" />
		<tag k="name" v="Lunde" />
		<tag k="place" v="farm" />
		<tag k="ssr:stedsnr" v="243312" />
	</node>
	<node id="-338427" lat="58.1137361153" lon="6.78007499854">
		<tag k="fixme" v="consider place=hamlet" />
		<tag k="name" v="Suggenes" />
		<tag k="place" v="farm" />
		<tag k="ssr:stedsnr" v="243299" />
	</node>
	<node id="-338426" lat="58.104291668" lon="6.95327221396">
		<tag k="name" v="Bakken" />
		<tag k="place" v="farm" />
		<tag k="ssr:stedsnr" v="243284" />
	</node>
	<node id="-338424" lat="58.0930583302" lon="6.60010834136">
		<tag k="fixme" v="consider place=suburb, village or hamlet" />
		<tag k="name" v="Tjørve" />
		<tag k="place" v="quarter" />
		<tag k="ssr:stedsnr" v="243268" />
	</node>
	<node id="-338423" lat="58.1301611079" lon="6.67236666245">
		<tag k="fixme" v="consider place=hamlet" />
		<tag k="name" v="Jåtog" />
		<tag k="place" v="farm" />
		<tag k="ssr:stedsnr" v="243255" />
	</node>
	<node id="-338422" lat="58.1501805593" lon="6.72768610303">
		<tag k="fixme" v="consider place=hamlet" />
		<tag k="name" v="Skistad" />
		<tag k="place" v="farm" />
		<tag k="ssr:stedsnr" v="243237" />
	</node>
	<node id="-338418" lat="58.1818305537" lon="6.79372778011">
		<tag k="fixme" v="consider place=hamlet" />
		<tag k="name" v="Kvåle" />
		<tag k="place" v="farm" />
		<tag k="ssr:stedsnr" v="243182" />
	</node>
	<node id="-338416" lat="58.1077944473" lon="6.58439999135">
		<tag k="fixme" v="consider place=hamlet" />
		<tag k="name" v="Skollevoll" />
		<tag k="place" v="farm" />
		<tag k="ssr:stedsnr" v="243109" />
	</node>
	<node id="-338415" lat="58.1014851285" lon="6.58692151142">
		<tag k="fixme" v="multiple name tags, choose one and add the other to alt_name; consider place=hamlet" />
		<tag k="name" v="Vatne;Vatne vestre" />
		<tag k="place" v="farm" />
		<tag k="ssr:stedsnr" v="243107" />
	</node>
	<node id="-338412" lat="58.0767416669" lon="6.86023334156">
		<tag k="alt_name" v="Langøy, vestre" />
		<tag k="fixme" v="consider place=hamlet" />
		<tag k="name" v="Vestre Langøy" />
		<tag k="place" v="farm" />
		<tag k="ssr:stedsnr" v="242338" />
	</node>
	<node id="-338410" lat="58.0886388879" lon="6.92144721768">
		<tag k="fixme" v="consider place=hamlet" />
		<tag k="name" v="Ersåker" />
		<tag k="place" v="farm" />
		<tag k="ssr:stedsnr" v="242308" />
	</node>
	<node id="-338408" lat="58.0794583364" lon="6.75233611576">
		<tag k="fixme" v="consider place=hamlet" />
		<tag k="name" v="Torp" />
		<tag k="place" v="farm" />
		<tag k="ssr:stedsnr" v="242305" />
	</node>
	<node id="-338407" lat="58.1149777778" lon="6.63885555142">
		<tag k="fixme" v="consider place=hamlet" />
		<tag k="name" v="Langeland" />
		<tag k="place" v="farm" />
		<tag k="ssr:stedsnr" v="242249" />
	</node>
	<node id="-338406" lat="58.1188527821" lon="6.6270083361">
		<tag k="alt_name" v="Hauge, vestre;Hauge vestre" />
		<tag k="name" v="Vestre Hauge" />
		<tag k="place" v="hamlet" />
		<tag k="ssr:stedsnr" v="242239" />
	</node>
	<node id="-338353" lat="58.1401666667" lon="6.67702500112">
		<tag k="name" v="Haugri" />
		<tag k="place" v="farm" />
		<tag k="ssr:stedsnr" v="203675" />
	</node>
	<node id="-338347" lat="58.1044861139" lon="6.72133054898">
		<tag k="name" v="Høygård" />
		<tag k="place" v="farm" />
		<tag k="ssr:stedsnr" v="203605" />
	</node>
	<node id="-338313" lat="58.0877499977" lon="6.9684861111">
		<tag k="fixme" v="consider place=hamlet" />
		<tag k="name" v="Tonsberg" />
		<tag k="place" v="farm" />
		<tag k="ssr:stedsnr" v="182514" />
	</node>
	<node id="-338312" lat="58.0978222202" lon="6.97607777524">
		<tag k="alt_name" v="Kårikstad" />
		<tag k="name" v="Kåristad" />
		<tag k="place" v="hamlet" />
		<tag k="ssr:stedsnr" v="182498" />
	</node>
	<node id="-337644" lat="58.137411115" lon="6.84448332937">
		<tag k="fixme" v="consider place=hamlet" />
		<tag k="name" v="Hoveland" />
		<tag k="place" v="farm" />
		<tag k="ssr:stedsnr" v="364278" />
	</node>
	<node id="-338304" lat="58.0851111115" lon="6.8933194376">
		<tag k="fixme" v="consider place=hamlet" />
		<tag k="name" v="Reisvåg" />
		<tag k="place" v="farm" />
		<tag k="ssr:stedsnr" v="182306" />
	</node>
	<node id="-338303" lat="58.1139499956" lon="6.67305554824">
		<tag k="alt_name" v="Vetteland" />
		<tag k="name" v="Vetland" />
		<tag k="place" v="hamlet" />
		<tag k="ssr:stedsnr" v="182289" />
	</node>
	<node id="-338302" lat="58.1060083367" lon="6.94566943929">
		<tag k="name" v="Lega" />
		<tag k="place" v="farm" />
		<tag k="ssr:stedsnr" v="182278" />
	</node>
	<node id="-338300" lat="58.1031111106" lon="6.71284999188">
		<tag k="fixme" v="consider place=hamlet" />
		<tag k="name" v="Høyland" />
		<tag k="place" v="farm" />
		<tag k="ssr:stedsnr" v="182272" />
	</node>
	<node id="-338296" lat="58.1153222182" lon="6.74153889659">
		<tag k="fixme" v="consider place=hamlet" />
		<tag k="name" v="Straumsland" />
		<tag k="place" v="farm" />
		<tag k="ssr:stedsnr" v="182249" />
	</node>
	<node id="-338295" lat="58.1201916663" lon="6.77671388491">
		<tag k="alt_name" v="Nøringskår" />
		<tag k="fixme" v="consider place=hamlet" />
		<tag k="name" v="Nørskår" />
		<tag k="place" v="farm" />
		<tag k="ssr:stedsnr" v="182248" />
	</node>
	<node id="-338293" lat="58.1142027748" lon="6.62215000073">
		<tag k="fixme" v="consider place=hamlet" />
		<tag k="name" v="Velle" />
		<tag k="place" v="farm" />
		<tag k="ssr:stedsnr" v="182240" />
	</node>
	<node id="-338292" lat="58.1368611125" lon="6.62370278606">
		<tag k="fixme" v="consider place=hamlet" />
		<tag k="name" v="Hervoll" />
		<tag k="place" v="farm" />
		<tag k="ssr:stedsnr" v="182230" />
	</node>
	<node id="-338291" lat="58.1372249957" lon="6.69220833661">
		<tag k="alt_name" v="Øygarden" />
		<tag k="name" v="Øygard" />
		<tag k="place" v="farm" />
		<tag k="ssr:stedsnr" v="182227" />
	</node>
	<node id="-338289" lat="58.1393333368" lon="6.73310278219">
		<tag k="fixme" v="consider place=hamlet" />
		<tag k="name" v="Vika" />
		<tag k="place" v="farm" />
		<tag k="ssr:stedsnr" v="182222" />
	</node>
	<node id="-338287" lat="58.1755666643" lon="6.69286943867">
		<tag k="fixme" v="consider place=hamlet" />
		<tag k="name" v="Sigersvoll" />
		<tag k="place" v="farm" />
		<tag k="ssr:stedsnr" v="182201" />
	</node>
	<node id="-338285" lat="58.2001194487" lon="6.73225833385">
		<tag k="alt_name" v="Stølen, in" />
		<tag k="fixme" v="consider place=hamlet" />
		<tag k="name" v="Indre Stølen" />
		<tag k="place" v="farm" />
		<tag k="ssr:stedsnr" v="182177" />
	</node>
	<node id="-338276" lat="58.0823638875" lon="6.89657221509">
		<tag k="name" v="Notodden" />
		<tag k="place" v="isolated_dwelling" />
		<tag k="ssr:stedsnr" v="179204" />
	</node>
	<node id="-338245" lat="58.1751249995" lon="6.67570833419">
		<tag k="name" v="Elle" />
		<tag k="place" v="hamlet" />
		<tag k="ssr:stedsnr" v="145590" />
	</node>
	<node id="-338311" lat="58.073119448" lon="6.94919721536">
		<tag k="fixme" v="consider place=hamlet" />
		<tag k="name" v="Bervåg" />
		<tag k="place" v="farm" />
		<tag k="ssr:stedsnr" v="182361" />
	</node>
	<node id="-338202" lat="58.1093666643" lon="6.63720000745">
		<tag k="name" v="Kloppan" />
		<tag k="place" v="farm" />
		<tag k="ssr:stedsnr" v="142783" />
	</node>
	<node id="-338186" lat="58.0829888895" lon="6.87432778167">
		<tag k="alt_name" v="Hovden" />
		<tag k="fixme" v="consider place=hamlet" />
		<tag k="name" v="Vestre Hovden" />
		<tag k="place" v="farm" />
		<tag k="ssr:stedsnr" v="142510" />
	</node>
	<node id="-338181" lat="58.0964055582" lon="6.89896388453">
		<tag k="name" v="Nygård" />
		<tag k="place" v="farm" />
		<tag k="ssr:stedsnr" v="142486" />
	</node>
	<node id="-338167" lat="58.1095416697" lon="6.79143889256">
		<tag k="name" v="Hovden" />
		<tag k="place" v="farm" />
		<tag k="ssr:stedsnr" v="142565" />
	</node>
	<node id="-338153" lat="58.0988638885" lon="6.89066666758">
		<tag k="alt_name" v="Årisstad" />
		<tag k="fixme" v="consider place=hamlet" />
		<tag k="name" v="Årikstad" />
		<tag k="place" v="farm" />
		<tag k="ssr:stedsnr" v="121345" />
	</node>
	<node id="-338152" lat="58.0922749968" lon="6.78334166631">
		<tag k="name" v="Sunde" />
		<tag k="place" v="quarter" />
		<tag k="ssr:stedsnr" v="121335" />
	</node>
	<node id="-338151" lat="58.0947861154" lon="6.80465555642">
		<tag k="name" v="Farsund" />
		<tag k="place" v="town" />
		<tag k="ssr:stedsnr" v="121334" />
	</node>
	<node id="-338150" lat="58.1162944428" lon="6.78565556207">
		<tag k="fixme" v="consider place=hamlet" />
		<tag k="name" v="Sellegrod" />
		<tag k="place" v="farm" />
		<tag k="ssr:stedsnr" v="121313" />
	</node>
	<node id="-338149" lat="58.1057083322" lon="6.70438056376">
		<tag k="fixme" v="consider place=hamlet" />
		<tag k="name" v="Knivsland" />
		<tag k="place" v="farm" />
		<tag k="ssr:stedsnr" v="121303" />
	</node>
	<node id="-338148" lat="58.1088499988" lon="6.91079444769">
		<tag k="fixme" v="consider place=hamlet" />
		<tag k="name" v="Vik" />
		<tag k="place" v="farm" />
		<tag k="ssr:stedsnr" v="121293" />
	</node>
	<node id="-338147" lat="58.1282055573" lon="6.82151667204">
		<tag k="fixme" v="consider place=hamlet" />
		<tag k="name" v="Espeland" />
		<tag k="place" v="farm" />
		<tag k="ssr:stedsnr" v="121285" />
	</node>
	<node id="-338146" lat="58.1312888874" lon="6.76751666499">
		<tag k="alt_name" v="Rydland" />
		<tag k="fixme" v="consider place=hamlet" />
		<tag k="name" v="Rødland på Heia" />
		<tag k="place" v="farm" />
		<tag k="ssr:stedsnr" v="121279" />
	</node>
	<node id="-338145" lat="58.1231194442" lon="6.84834999208">
		<tag k="fixme" v="consider place=hamlet" />
		<tag k="name" v="Fulland" />
		<tag k="place" v="farm" />
		<tag k="ssr:stedsnr" v="121267" />
	</node>
	<node id="-338144" lat="58.118491664" lon="6.92395278463">
		<tag k="fixme" v="consider place=hamlet" />
		<tag k="name" v="Dåreid" />
		<tag k="place" v="farm" />
		<tag k="ssr:stedsnr" v="121265" />
	</node>
	<node id="-338142" lat="58.1324944436" lon="6.62474166148">
		<tag k="alt_name" v="Skeibrok" />
		<tag k="name" v="Skeibrokk" />
		<tag k="place" v="hamlet" />
		<tag k="ssr:stedsnr" v="121237" />
	</node>
	<node id="-338140" lat="58.1583833354" lon="6.78322777783">
		<tag k="fixme" v="consider place=hamlet" />
		<tag k="name" v="Log" />
		<tag k="place" v="farm" />
		<tag k="ssr:stedsnr" v="121221" />
	</node>
	<node id="-338138" lat="58.1701666693" lon="6.69682499175">
		<tag k="fixme" v="consider place=hamlet" />
		<tag k="name" v="Salen" />
		<tag k="place" v="farm" />
		<tag k="ssr:stedsnr" v="121211" />
	</node>
	<node id="-338134" lat="58.1859027792" lon="6.73714444808">
		<tag k="alt_name" v="Ytre Stølen" />
		<tag k="fixme" v="consider place=hamlet" />
		<tag k="name" v="Stølen, yt" />
		<tag k="place" v="farm" />
		<tag k="ssr:stedsnr" v="121202" />
	</node>
	<node id="-338133" lat="58.177774996" lon="6.70153611644">
		<tag k="alt_name" v="Skumsvoll" />
		<tag k="name" v="Skomvoll" />
		<tag k="place" v="farm" />
		<tag k="ssr:stedsnr" v="121196" />
	</node>
	<node id="-338132" lat="58.1742055524" lon="6.65271389747">
		<tag k="fixme" v="consider place=hamlet" />
		<tag k="name" v="Ellenes" />
		<tag k="place" v="farm" />
		<tag k="ssr:stedsnr" v="121192" />
	</node>
	<node id="-338131" lat="58.1951194431" lon="6.735269446">
		<tag k="alt_name" v="Kjørrkleiv" />
		<tag k="name" v="Kjørkleiv" />
		<tag k="place" v="hamlet" />
		<tag k="ssr:stedsnr" v="121177" />
	</node>
	<node id="-338130" lat="58.1902000004" lon="6.83043054822">
		<tag k="fixme" v="consider place=hamlet" />
		<tag k="name" v="Tosås" />
		<tag k="place" v="farm" />
		<tag k="ssr:stedsnr" v="121175" />
	</node>
	<node id="-338107" lat="58.0738694462" lon="6.784380555">
		<tag k="building" v="industrial" />
		<tag k="industrial" v="factory" />
		<tag k="name" v="Alcoa Lista" />
		<tag k="old_name" v="Lista Aluminiumsverk" />
		<tag k="ssr:stedsnr" v="100155" />
	</node>
	<node id="-338104" lat="58.0569333333" lon="6.96656111508">
		<tag k="name" v="Kalshovud" />
		<tag k="place" v="farm" />
		<tag k="ssr:stedsnr" v="99410" />
	</node>
	<node id="-337609" lat="58.0707249968" lon="6.81150832525">
		<tag k="name" v="Eigvåg" />
		<tag k="place" v="hamlet" />
		<tag k="ssr:stedsnr" v="342996" />
	</node>
	<node id="-338076" lat="58.167550004" lon="6.8056194438">
		<tag k="fixme" v="consider place=hamlet" />
		<tag k="name" v="Sandsheia" />
		<tag k="place" v="farm" />
		<tag k="ssr:stedsnr" v="82923" />
	</node>
	<node id="-337604" lat="58.0992204295" lon="6.59102349078">
		<tag k="fixme" v="consider place=hamlet" />
		<tag k="name" v="Brekne" />
		<tag k="place" v="farm" />
		<tag k="ssr:stedsnr" v="342181" />
	</node>
	<node id="-338061" lat="58.1178750039" lon="6.67731666174">
		<tag k="name" v="Leide" />
		<tag k="place" v="farm" />
		<tag k="ssr:stedsnr" v="82714" />
	</node>
	<node id="-338054" lat="58.1382888933" lon="6.65211389162">
		<tag k="name" v="Nyhagen" />
		<tag k="place" v="farm" />
		<tag k="ssr:stedsnr" v="82642" />
	</node>
	<node id="-338053" lat="58.1424361152" lon="6.65070556313">
		<tag k="name" v="Nyhagen" />
		<tag k="place" v="farm" />
		<tag k="ssr:stedsnr" v="82639" />
	</node>
	<node id="-338043" lat="58.1128583347" lon="6.78404165841">
		<tag k="name" v="Gura" />
		<tag k="place" v="farm" />
		<tag k="ssr:stedsnr" v="82568" />
	</node>
	<node id="-338035" lat="58.0761361105" lon="6.97016110794">
		<tag k="fixme" v="consider place=hamlet" />
		<tag k="name" v="Vasdal" />
		<tag k="place" v="farm" />
		<tag k="ssr:stedsnr" v="82445" />
	</node>
	<node id="-338018" lat="58.1331972195" lon="6.85212221957">
		<tag k="name" v="Dalen" />
		<tag k="place" v="farm" />
		<tag k="ssr:stedsnr" v="82452" />
	</node>
	<node id="-338016" lat="58.0805749994" lon="6.65401111025">
		<tag k="name" v="Odden" />
		<tag k="place" v="farm" />
		<tag k="ssr:stedsnr" v="82387" />
	</node>
	<node id="-338010" lat="58.0981194406" lon="6.69183888268">
		<tag k="name" v="Vanse" />
		<tag k="place" v="village" />
		<tag k="ssr:stedsnr" v="61326" />
	</node>
	<node id="-338009" lat="58.1007555597" lon="6.96245276964">
		<tag k="alt_name" v="Berghøydne" />
		<tag k="fixme" v="consider place=hamlet" />
		<tag k="name" v="Berghydne" />
		<tag k="place" v="farm" />
		<tag k="ssr:stedsnr" v="61285" />
	</node>
	<node id="-338008" lat="58.1313638846" lon="6.69601944409">
		<tag k="fixme" v="consider place=hamlet" />
		<tag k="name" v="Grostøl" />
		<tag k="place" v="farm" />
		<tag k="ssr:stedsnr" v="61262" />
	</node>
	<node id="-338007" lat="58.1269583339" lon="6.75066944526">
		<tag k="name" v="Suttevik" />
		<tag k="place" v="isolated_dwelling" />
		<tag k="ssr:stedsnr" v="61260" />
	</node>
	<node id="-338006" lat="58.1269833307" lon="6.6018000043">
		<tag k="name" v="Vere" />
		<tag k="place" v="farm" />
		<tag k="ssr:stedsnr" v="61258" />
	</node>
	<node id="-338005" lat="58.1355944402" lon="6.8555833298">
		<tag k="alt_name" v="Sæveland ytre" />
		<tag k="name" v="Sæveland" />
		<tag k="place" v="farm" />
		<tag k="ssr:stedsnr" v="61251" />
	</node>
	<node id="-338004" lat="58.147816671" lon="6.61260000642">
		<tag k="fixme" v="consider place=hamlet" />
		<tag k="name" v="Håle" />
		<tag k="place" v="farm" />
		<tag k="ssr:stedsnr" v="61214" />
	</node>
	<node id="-338002" lat="58.1608916689" lon="6.66415556132">
		<tag k="alt_name" v="Gjeldal" />
		<tag k="fixme" v="consider place=hamlet" />
		<tag k="name" v="Gjelldal" />
		<tag k="place" v="farm" />
		<tag k="ssr:stedsnr" v="61202" />
	</node>
	<node id="-338001" lat="58.1897194437" lon="6.89131666132">
		<tag k="fixme" v="consider place=hamlet" />
		<tag k="name" v="Holmen" />
		<tag k="place" v="farm" />
		<tag k="ssr:stedsnr" v="61195" />
	</node>
	<node id="-337998" lat="58.2074444463" lon="6.89930278144">
		<tag k="alt_name" v="Klungland" />
		<tag k="fixme" v="consider place=hamlet" />
		<tag k="name" v="Klungeland" />
		<tag k="place" v="farm" />
		<tag k="ssr:stedsnr" v="61164" />
	</node>
	<node id="-337997" lat="58.1951194431" lon="6.735269446">
		<tag k="fixme" v="consider place=hamlet" />
		<tag k="name" v="Kjørkleiv" />
		<tag k="place" v="farm" />
		<tag k="ssr:stedsnr" v="60514" />
	</node>
	<node id="-337994" lat="58.0751222209" lon="6.68575832703">
		<tag k="name" v="Kviljo" />
		<tag k="place" v="hamlet" />
		<tag k="ssr:stedsnr" v="60324" />
	</node>
	<node id="-337993" lat="58.0919944473" lon="6.85181943984">
		<tag k="alt_name" v="Nøtland" />
		<tag k="fixme" v="consider place=hamlet" />
		<tag k="name" v="Nautland" />
		<tag k="place" v="farm" />
		<tag k="ssr:stedsnr" v="60313" />
	</node>
	<node id="-337992" lat="58.0873277762" lon="6.8651638954">
		<tag k="fixme" v="consider place=hamlet" />
		<tag k="name" v="Birkenes" />
		<tag k="place" v="farm" />
		<tag k="ssr:stedsnr" v="60312" />
	</node>
	<node id="-337991" lat="58.0917194453" lon="6.90623055567">
		<tag k="fixme" v="consider place=hamlet" />
		<tag k="name" v="Rødland" />
		<tag k="place" v="farm" />
		<tag k="ssr:stedsnr" v="60310" />
	</node>
	<node id="-337990" lat="58.1128749999" lon="6.93188056339">
		<tag k="fixme" v="consider place=hamlet" />
		<tag k="name" v="Rona" />
		<tag k="place" v="farm" />
		<tag k="ssr:stedsnr" v="60305" />
	</node>
	<node id="-337989" lat="58.1093083341" lon="6.81608333193">
		<tag k="fixme" v="consider place=hamlet" />
		<tag k="name" v="Sandvika" />
		<tag k="place" v="farm" />
		<tag k="ssr:stedsnr" v="60299" />
	</node>
	<node id="-337988" lat="58.1087250042" lon="6.72861110941">
		<tag k="fixme" v="consider place=hamlet" />
		<tag k="name" v="Helvik" />
		<tag k="place" v="farm" />
		<tag k="ssr:stedsnr" v="60291" />
	</node>
	<node id="-337987" lat="58.1093611117" lon="6.64063610801">
		<tag k="fixme" v="consider place=hamlet" />
		<tag k="name" v="Ore" />
		<tag k="place" v="farm" />
		<tag k="ssr:stedsnr" v="60288" />
	</node>
	<node id="-337986" lat="58.100708332" lon="6.78872778036">
		<tag k="alt_name" v="Øyhovden" />
		<tag k="fixme" v="consider place=hamlet" />
		<tag k="name" v="Øyhovda" />
		<tag k="place" v="farm" />
		<tag k="ssr:stedsnr" v="60280" />
	</node>
	<node id="-337984" lat="58.2133805575" lon="6.74336388247">
		<tag k="fixme" v="consider place=hamlet" />
		<tag k="name" v="Sandvik" />
		<tag k="place" v="farm" />
		<tag k="ssr:stedsnr" v="60180" />
	</node>
	<node id="-337785" lat="58.1526678006" lon="6.81737891957">
		<tag k="name" v="Sande" />
		<tag k="place" v="farm" />
		<tag k="ssr:stedsnr" v="983295" />
	</node>
	<node id="-337980" lat="58.0876138855" lon="6.79618888587">
		<tag k="name" v="Farsund fjordhotell" />
		<tag k="ssr:stedsnr" v="58870" />
		<tag k="tourism" v="hotel" />
	</node>
	<node id="-337972" lat="58.074172218" lon="6.87288888955">
		<tag k="name" v="Bakken" />
		<tag k="place" v="isolated_dwelling" />
		<tag k="ssr:stedsnr" v="58148" />
	</node>
	<node id="-337970" lat="58.094880559" lon="6.80504166703">
		<tag k="name" v="Farsund torv" />
		<tag k="place" v="square" />
		<tag k="ssr:stedsnr" v="41304" />
	</node>
	<node id="-337958" lat="58.0677944427" lon="6.9710972249">
		<tag k="fixme" v="consider place=hamlet" />
		<tag k="name" v="Ytre Skarstein" />
		<tag k="place" v="farm" />
		<tag k="ssr:stedsnr" v="33104" />
	</node>
	<node id="-337953" lat="58.0991277756" lon="6.93853054766">
		<tag k="name" v="Buvika" />
		<tag k="place" v="farm" />
		<tag k="ssr:stedsnr" v="22460" />
	</node>
	<node id="-337952" lat="58.0845111125" lon="6.95785554815">
		<tag k="fixme" v="consider place=hamlet" />
		<tag k="name" v="Helle" />
		<tag k="place" v="farm" />
		<tag k="ssr:stedsnr" v="22453" />
	</node>
	<node id="-337940" lat="58.1079444472" lon="6.92828333878">
		<tag k="name" v="Nyjordet" />
		<tag k="place" v="farm" />
		<tag k="ssr:stedsnr" v="21929" />
	</node>
	<node id="-337934" lat="58.1806388862" lon="6.79429722705">
		<tag k="name" v="Øvre Kvåle" />
		<tag k="place" v="farm" />
		<tag k="ssr:stedsnr" v="21867" />
	</node>
</osm>
