<?xml version="1.0" encoding="UTF-8"?>
<osm generator="osmapis" version="0.6">
	<node id="-338048" lat="58.095683329" lon="6.80636944036">
		<tag k="bridge" v="yes" />
		<tag k="layer" v="1" />
		<tag k="name" v="Farsund" />
		<tag k="ssr:stedsnr" v="349169" />
	</node>
	<node id="-338815" lat="58.2135472247" lon="6.7385027831">
		<tag k="man_made" v="quay" />
		<tag k="name" v="Sandvikstrand" />
		<tag k="place" v="locality" />
		<tag k="ssr:stedsnr" v="203911" />
	</node>
	<node id="-338046" lat="58.1281611092" lon="6.67524721611">
		<tag k="bridge" v="yes" />
		<tag k="layer" v="1" />
		<tag k="name" v="Rødlandsvassbekk" />
		<tag k="ssr:stedsnr" v="349105" />
	</node>
	<node id="-339452" lat="58.1763111127" lon="6.69761666078">
		<tag k="landuse" v="harbour" />
		<tag k="name" v="Sigersvollstranda" />
		<tag k="seamark:type" v="harbour" />
		<tag k="ssr:stedsnr" v="628478" />
	</node>
	<node id="-339579" lat="58.1774055541" lon="6.6737027854">
		<tag k="man_made" v="quay" />
		<tag k="name" v="Ellestranda" />
		<tag k="place" v="locality" />
		<tag k="ssr:stedsnr" v="689456" />
	</node>
	<node id="-339450" lat="58.177447226" lon="6.65404166281">
		<tag k="man_made" v="quay" />
		<tag k="name" v="Ellenesstranda" />
		<tag k="place" v="locality" />
		<tag k="ssr:stedsnr" v="628471" />
	</node>
	<node id="-338047" lat="58.1982333329" lon="6.86599444189">
		<tag k="bridge" v="yes" />
		<tag k="layer" v="1" />
		<tag k="name" v="Litland" />
		<tag k="ssr:stedsnr" v="349109" />
	</node>
	<node id="-340210" lat="58.1889611089" lon="6.88181110669">
		<tag k="bridge" v="yes" />
		<tag k="layer" v="1" />
		<tag k="name" v="Holmen" />
		<tag k="ssr:stedsnr" v="956104" />
	</node>
	<node id="-340209" lat="58.0721583326" lon="6.73282777623">
		<tag k="bridge" v="yes" />
		<tag k="layer" v="1" />
		<tag k="name" v="Odderå" />
		<tag k="ssr:stedsnr" v="956101" />
	</node>
	<node id="-339824" lat="58.0849083326" lon="6.79408332899">
		<tag k="man_made" v="quay" />
		<tag k="name" v="Dypvannskaien" />
		<tag k="place" v="locality" />
		<tag k="ssr:stedsnr" v="769301" />
	</node>
	<node id="-339823" lat="58.0947416705" lon="6.80521944188">
		<tag k="man_made" v="quay" />
		<tag k="name" v="Tollbodkaien" />
		<tag k="place" v="locality" />
		<tag k="ssr:stedsnr" v="769294" />
	</node>
	<node id="-340206" lat="58.1166666677" lon="6.56867499866">
		<tag k="man_made" v="tower" />
		<tag k="name" v="Farsund radiopeilestasjon" />
		<tag k="ssr:stedsnr" v="949178" />
		<tag k="tower:type" v="communications" />
	</node>
	<node id="-338540" lat="58.1002166651" lon="6.62497221733">
		<tag k="aeroway" v="aerodrome" />
		<tag k="alt_name" v="Lista" />
		<tag k="name" v="Farsund lufthavn, Lista" />
		<tag k="ssr:stedsnr" v="85567" />
	</node>
	<node id="-338706" lat="58.1133694473" lon="6.68318611193">
		<tag k="bridge" v="yes" />
		<tag k="layer" v="1" />
		<tag k="name" v="Klevlandsbekk" />
		<tag k="ssr:stedsnr" v="167092" />
	</node>
	<node id="-337897" lat="58.1886805577" lon="6.79877500002">
		<tag k="bridge" v="yes" />
		<tag k="layer" v="1" />
		<tag k="name" v="Ofte" />
		<tag k="ssr:stedsnr" v="288104" />
	</node>
	<node id="-337896" lat="58.1903861116" lon="6.87979444103">
		<tag k="bridge" v="yes" />
		<tag k="layer" v="1" />
		<tag k="name" v="Vereslått" />
		<tag k="ssr:stedsnr" v="288101" />
	</node>
	<node id="-338684" lat="58.1099083332" lon="6.76079443657">
		<tag k="bridge" v="yes" />
		<tag k="layer" v="1" />
		<tag k="loc_name" v="Hanersund bru" />
		<tag k="name" v="Hanesund" />
		<tag k="ssr:stedsnr" v="145570" />
	</node>
	<node id="-338193" lat="58.156630559" lon="6.80394722402">
		<tag k="bridge" v="yes" />
		<tag k="layer" v="1" />
		<tag k="name" v="Prestbekk" />
		<tag k="ssr:stedsnr" v="410091" />
	</node>
	<node id="-339940" lat="58.155519442" lon="6.6183249934">
		<tag k="fixme" v="verify maritime location" />
		<tag k="mooring" v="yes" />
		<tag k="name" v="Snekkestø" />
		<tag k="place" v="locality" />
		<tag k="ssr:stedsnr" v="817782" />
	</node>
	<node id="-338403" lat="58.1098472247" lon="6.56737222948">
		<tag k="man_made" v="tower" />
		<tag k="name" v="Lista radiomast" />
		<tag k="ssr:stedsnr" v="39146" />
		<tag k="tower:type" v="communications" />
	</node>
	<node id="-338555" lat="58.1149916703" lon="6.74690278553">
		<tag k="bridge" v="yes" />
		<tag k="layer" v="1" />
		<tag k="name" v="Strømmen" />
		<tag k="ssr:stedsnr" v="106099" />
	</node>
	<node id="-338656" lat="58.2194277775" lon="6.86563333001">
		<tag k="highway" v="path" />
		<tag k="name" v="Stien" />
		<tag k="ssr:stedsnr" v="142796" />
	</node>
	<node id="-340060" lat="58.2079000034" lon="6.87408055217">
		<tag k="highway" v="path" />
		<tag k="name" v="Blodstien" />
		<tag k="ssr:stedsnr" v="872829" />
	</node>
	<node id="-338395" lat="58.0888222189" lon="6.93848611298">
		<tag k="man_made" v="quay" />
		<tag k="name" v="Hellestranda" />
		<tag k="place" v="locality" />
		<tag k="ssr:stedsnr" v="22461" />
	</node>
	<node id="-338703" lat="58.093708329" lon="6.80531666331">
		<tag k="man_made" v="quay" />
		<tag k="name" v="Dampskipskaien" />
		<tag k="place" v="locality" />
		<tag k="ssr:stedsnr" v="162303" />
	</node>
	<node id="-338556" lat="58.1021555597" lon="6.65666667321">
		<tag k="bridge" v="yes" />
		<tag k="layer" v="1" />
		<tag k="name" v="Hellemyr" />
		<tag k="ssr:stedsnr" v="106149" />
	</node>
	<node id="-338644" lat="58.1136694468" lon="6.74368888805">
		<tag k="man_made" v="quay" />
		<tag k="name" v="Brattestø" />
		<tag k="place" v="locality" />
		<tag k="ssr:stedsnr" v="142652" />
	</node>
	<node id="-338639" lat="58.1115638848" lon="6.65852500012">
		<tag k="highway" v="path" />
		<tag k="name" v="Ligveien" />
		<tag k="ssr:stedsnr" v="142761" />
	</node>
	<node id="-340044" lat="58.1858861142" lon="6.82112499376">
		<tag k="landuse" v="harbour" />
		<tag k="name" v="Tosåsstrand" />
		<tag k="seamark:type" v="harbour" />
		<tag k="ssr:stedsnr" v="871967" />
	</node>
	<node id="-339655" lat="58.0826722215" lon="6.79993889512">
		<tag k="man_made" v="quay" />
		<tag k="name" v="A-verkets kai" />
		<tag k="place" v="locality" />
		<tag k="ssr:stedsnr" v="707777" />
	</node>
	<node id="-338626" lat="58.1348055537" lon="6.86570554888">
		<tag k="man_made" v="quay" />
		<tag k="name" v="Sævelandsstronda" />
		<tag k="place" v="locality" />
		<tag k="ssr:stedsnr" v="142503" />
	</node>
	<node id="-337973" lat="58.147575003" lon="6.83428055347">
		<tag k="fixme" v="verify maritime location" />
		<tag k="mooring" v="yes" />
		<tag k="name" v="Høylandstø" />
		<tag k="place" v="locality" />
		<tag k="ssr:stedsnr" v="324520" />
	</node>
	<node id="-339514" lat="58.0673861081" lon="6.76566388999">
		<tag k="leisure" v="marina" />
		<tag k="name" v="Haugestranda" />
		<tag k="ssr:stedsnr" v="631887" />
	</node>
	<node id="-339383" lat="58.1079250041" lon="6.6428638961">
		<tag k="bridge" v="yes" />
		<tag k="layer" v="1" />
		<tag k="name" v="Ore" />
		<tag k="ssr:stedsnr" v="591087" />
	</node>
	<node id="-339382" lat="58.0926361129" lon="6.80553610558">
		<tag k="man_made" v="quay" />
		<tag k="name" v="Verven" />
		<tag k="place" v="locality" />
		<tag k="ssr:stedsnr" v="587330" />
	</node>
	<node id="-339509" lat="58.1240166697" lon="6.91341944289">
		<tag k="fixme" v="consider highway=path" />
		<tag k="highway" v="track" />
		<tag k="name" v="Strandeveien" />
		<tag k="ssr:stedsnr" v="628980" />
	</node>
	<node id="-339249" lat="58.1034555582" lon="6.69399999666">
		<tag k="bridge" v="yes" />
		<tag k="layer" v="1" />
		<tag k="name" v="Hetland" />
		<tag k="ssr:stedsnr" v="531093" />
	</node>
	<node id="-339884" lat="58.1124472233" lon="6.81465000505">
		<tag k="fixme" v="consider highway=path" />
		<tag k="highway" v="track" />
		<tag k="name" v="Sandvikkleivan" />
		<tag k="ssr:stedsnr" v="810558" />
	</node>
	<node id="-339621" lat="58.2003888867" lon="6.84761388558">
		<tag k="name" v="Apalvoll-leet" />
		<tag k="place" v="locality" />
		<tag k="ssr:stedsnr" v="689781" />
	</node>
	<node id="-338212" lat="58.0947666647" lon="6.81107777288">
		<tag k="alt_name" v="Nordsund" />
		<tag k="bridge" v="yes" />
		<tag k="layer" v="1" />
		<tag k="name" v="Nordsund bru" />
		<tag k="ssr:stedsnr" v="892396" />
	</node>
	<node id="-339104" lat="58.0936472184" lon="6.80538888223">
		<tag k="man_made" v="quay" />
		<tag k="name" v="Dampskipskaien" />
		<tag k="place" v="locality" />
		<tag k="ssr:stedsnr" v="482896" />
	</node>
	<node id="-340208" lat="58.1077999976" lon="6.59054722888">
		<tag k="bridge" v="yes" />
		<tag k="layer" v="1" />
		<tag k="name" v="Vatne" />
		<tag k="ssr:stedsnr" v="956100" />
	</node>
	<node id="-338841" lat="58.1120555588" lon="6.9306499985">
		<tag k="bridge" v="yes" />
		<tag k="layer" v="1" />
		<tag k="name" v="Rona" />
		<tag k="ssr:stedsnr" v="228096" />
	</node>
	<node id="-338840" lat="58.1063333375" lon="6.76064722985">
		<tag k="bridge" v="yes" />
		<tag k="layer" v="1" />
		<tag k="name" v="Øyvollsund" />
		<tag k="ssr:stedsnr" v="227130" />
	</node>
	<node id="-339093" lat="58.0982305578" lon="6.746813895">
		<tag k="bridge" v="yes" />
		<tag k="layer" v="1" />
		<tag k="name" v="Kjørrefjord" />
		<tag k="ssr:stedsnr" v="470085" />
	</node>
	<node id="-339604" lat="58.1608444423" lon="6.62424444176">
		<tag k="highway" v="path" />
		<tag k="name" v="Vondestien" />
		<tag k="ssr:stedsnr" v="689643" />
	</node>
	<node id="-338707" lat="58.1020277775" lon="6.65606666664">
		<tag k="bridge" v="yes" />
		<tag k="layer" v="1" />
		<tag k="name" v="Brastadvassbekk" />
		<tag k="ssr:stedsnr" v="167155" />
	</node>
	<node id="-339474" lat="58.1072444425" lon="6.73325000109">
		<tag k="landuse" v="harbour" />
		<tag k="name" v="Helvikstranda" />
		<tag k="seamark:type" v="harbour" />
		<tag k="ssr:stedsnr" v="628637" />
	</node>
	<node id="-338705" lat="58.1003388932" lon="6.69710000199">
		<tag k="bridge" v="yes" />
		<tag k="layer" v="1" />
		<tag k="name" v="Prestvatn" />
		<tag k="ssr:stedsnr" v="167087" />
	</node>
	<node id="-338192" lat="58.1091083294" lon="6.57456667098">
		<tag k="bridge" v="yes" />
		<tag k="layer" v="1" />
		<tag k="name" v="Vågsvoll" />
		<tag k="ssr:stedsnr" v="409120" />
	</node>
	<node id="-339087" lat="58.0720277762" lon="6.74458333822">
		<tag k="man_made" v="tower" />
		<tag k="name" v="Farsund radio" />
		<tag k="ssr:stedsnr" v="464199" />
		<tag k="tower:type" v="communications" />
	</node>
	<node id="-338062" lat="58.0836472204" lon="6.79182222338">
		<tag k="man_made" v="quay" />
		<tag k="name" v="Industrikaia" />
		<tag k="place" v="locality" />
		<tag k="ssr:stedsnr" v="361972" />
	</node>
	<node id="-339721" lat="58.0968944445" lon="6.58362222728">
		<tag k="landuse" v="harbour" />
		<tag k="name" v="Lista-havnen" />
		<tag k="seamark:type" v="harbour" />
		<tag k="ssr:stedsnr" v="749433" />
	</node>
	<node id="-338049" lat="58.1998194427" lon="6.87578333276">
		<tag k="bridge" v="yes" />
		<tag k="layer" v="1" />
		<tag k="name" v="Drange" />
		<tag k="ssr:stedsnr" v="349170" />
	</node>
</osm>
