<?xml version="1.0" encoding="UTF-8"?>
<osm version="0.6" generator="osmapis">
	<node id="60873386" lat="62.0136621" lon="7.6303909" version="3" timestamp="2022-03-31T06:08:51Z" changeset="119142720" uid="3497659" user="NKA">
		<tag k="name" v="Grotli" />
		<tag k="place" v="quarter" />
		<tag k="ssr:stedsnr" v="758201" />
	</node>
	<node id="285943622" lat="61.8843655" lon="8.2664114" version="5" timestamp="2022-03-31T06:08:51Z" changeset="119142720" uid="3497659" user="NKA">
		<tag k="name" v="Bismo" />
		<tag k="place" v="village" />
		<tag k="population" v="634" />
		<tag k="population:date" v="2021-01-01" />
		<tag k="ref:ssb_tettsted" v="1541" />
		<tag k="source:population" v="SSB - befolkning i tettstedet" />
		<tag k="ssr:stedsnr" v="313878" />
	</node>
	<node id="3701654631" lat="61.8032945" lon="7.6162833" version="2" timestamp="2022-03-31T06:08:51Z" changeset="119142720" uid="3497659" user="NKA">
		<tag k="historic" v="shieling" />
		<tag k="name" v="Mysubytta" />
		<tag k="place" v="hamlet" />
		<tag k="ssr:stedsnr" v="435649" />
	</node>
	<node id="3719168226" lat="62.0115278" lon="7.8564527" version="2" timestamp="2022-03-31T06:08:51Z" changeset="119142720" uid="3497659" user="NKA">
		<tag k="alt_name" v="Billingje" />
		<tag k="historic" v="shieling" />
		<tag k="name" v="Billingen" />
		<tag k="place" v="hamlet" />
		<tag k="ssr:stedsnr" v="496245" />
	</node>
	<node id="5458902120" lat="61.8753527" lon="8.3891149" version="3" timestamp="2022-02-01T16:51:09Z" changeset="116876628" uid="3497659" user="NKA">
		<tag k="junction" v="yes" />
		<tag k="name" v="Ånstad" />
		<tag k="ssr:stedsnr" v="40757" />
	</node>
	<node id="5458905304" lat="61.914825" lon="8.0933457" version="3" timestamp="2022-02-01T16:51:09Z" changeset="116876628" uid="3497659" user="NKA">
		<tag k="junction" v="yes" />
		<tag k="name" v="Vegaskjelet" />
		<tag k="ssr:stedsnr" v="293454" />
	</node>
	<node id="6236538522" lat="61.8773001" lon="8.373366" version="2" timestamp="2022-03-31T06:08:51Z" changeset="119142720" uid="3497659" user="NKA">
		<tag k="alt_name" v="Skjåkstrondi" />
		<tag k="name" v="Skjåk" />
		<tag k="place" v="quarter" />
		<tag k="ssr:stedsnr" v="496806" />
	</node>
	<node id="6236538536" lat="61.9064926" lon="8.1543437" version="2" timestamp="2022-03-31T06:08:51Z" changeset="119142720" uid="3497659" user="NKA">
		<tag k="name" v="Nordberg" />
		<tag k="place" v="quarter" />
		<tag k="ssr:stedsnr" v="131884" />
	</node>
	<node id="9625635263" lat="61.9107939" lon="8.1559132" version="1" timestamp="2022-03-31T06:08:51Z" changeset="119142720" uid="3497659" user="NKA">
		<tag k="name" v="Rudi" />
		<tag k="place" v="farm" />
		<tag k="ssr:stedsnr" v="51068" />
	</node>
	<node id="9625635264" lat="61.9039722" lon="8.1495833" version="1" timestamp="2022-03-31T06:08:51Z" changeset="119142720" uid="3497659" user="NKA">
		<tag k="name" v="Bøland" />
		<tag k="place" v="farm" />
		<tag k="ssr:stedsnr" v="51072" />
	</node>
	<node id="9625635265" lat="61.8763139" lon="8.3267222" version="1" timestamp="2022-03-31T06:08:51Z" changeset="119142720" uid="3497659" user="NKA">
		<tag k="name" v="Søre Dalen" />
		<tag k="place" v="farm" />
		<tag k="ssr:stedsnr" v="961133" />
	</node>
	<node id="9625635266" lat="61.9000416" lon="8.2306945" version="1" timestamp="2022-03-31T06:08:51Z" changeset="119142720" uid="3497659" user="NKA">
		<tag k="alt_name" v="Kittilstad" />
		<tag k="name" v="Nurdstun Kitilstad" />
		<tag k="place" v="farm" />
		<tag k="ssr:stedsnr" v="10832" />
	</node>
	<node id="9625635267" lat="61.8832667" lon="8.4705528" version="1" timestamp="2022-03-31T06:08:51Z" changeset="119142720" uid="3497659" user="NKA">
		<tag k="name" v="Randen" />
		<tag k="place" v="farm" />
		<tag k="ssr:stedsnr" v="920923" />
	</node>
	<node id="9625635268" lat="61.8853146" lon="8.365736" version="1" timestamp="2022-03-31T06:08:51Z" changeset="119142720" uid="3497659" user="NKA">
		<tag k="name" v="Sygard Sperstad" />
		<tag k="place" v="farm" />
		<tag k="ssr:stedsnr" v="920860" />
	</node>
	<node id="9625635269" lat="61.8765167" lon="8.3581666" version="1" timestamp="2022-03-31T06:08:51Z" changeset="119142720" uid="3497659" user="NKA">
		<tag k="alt_name" v="Vigstad, søre" />
		<tag k="name" v="Systun Vigstad" />
		<tag k="place" v="farm" />
		<tag k="ssr:stedsnr" v="799778" />
	</node>
	<node id="9625635270" lat="61.8839083" lon="8.3829278" version="1" timestamp="2022-03-31T06:08:51Z" changeset="119142720" uid="3497659" user="NKA">
		<tag k="name" v="Søre Kvåle" />
		<tag k="place" v="farm" />
		<tag k="ssr:stedsnr" v="920776" />
	</node>
	<node id="9625635271" lat="61.8856944" lon="8.3965779" version="1" timestamp="2022-03-31T06:08:51Z" changeset="119142720" uid="3497659" user="NKA">
		<tag k="alt_name" v="Hånsnartræede" />
		<tag k="name" v="Handsnartrædet" />
		<tag k="place" v="farm" />
		<tag k="ssr:stedsnr" v="677868" />
	</node>
	<node id="9625635272" lat="61.9001282" lon="8.1822135" version="1" timestamp="2022-03-31T06:08:51Z" changeset="119142720" uid="3497659" user="NKA">
		<tag k="name" v="Lindsheim" />
		<tag k="old_name" v="Linshein" />
		<tag k="place" v="farm" />
		<tag k="ssr:stedsnr" v="738844" />
	</node>
	<node id="9625635273" lat="61.8738333" lon="8.2640417" version="1" timestamp="2022-03-31T06:08:51Z" changeset="119142720" uid="3497659" user="NKA">
		<tag k="name" v="Strikvilte" />
		<tag k="place" v="farm" />
		<tag k="ssr:stedsnr" v="738766" />
	</node>
	<node id="9625635274" lat="61.883639" lon="8.348548" version="1" timestamp="2022-03-31T06:08:51Z" changeset="119142720" uid="3497659" user="NKA">
		<tag k="name" v="Aurmoen" />
		<tag k="place" v="quarter" />
		<tag k="ssr:stedsnr" v="415591" />
	</node>
	<node id="9625635275" lat="61.9009389" lon="8.2345028" version="1" timestamp="2022-03-31T06:08:51Z" changeset="119142720" uid="3497659" user="NKA">
		<tag k="name" v="Nordstugu Kittilstad" />
		<tag k="place" v="farm" />
		<tag k="ssr:stedsnr" v="616839" />
	</node>
	<node id="9625635276" lat="61.8842558" lon="8.4210235" version="1" timestamp="2022-03-31T06:08:51Z" changeset="119142720" uid="3497659" user="NKA">
		<tag k="alt_name" v="Vange, søre" />
		<tag k="name" v="Systun Vange" />
		<tag k="place" v="farm" />
		<tag k="ssr:stedsnr" v="616791" />
	</node>
	<node id="9625635277" lat="61.8839044" lon="8.4302344" version="1" timestamp="2022-03-31T06:08:51Z" changeset="119142720" uid="3497659" user="NKA">
		<tag k="name" v="Hove" />
		<tag k="place" v="hamlet" />
		<tag k="ssr:stedsnr" v="616789" />
	</node>
	<node id="9625635278" lat="61.8830583" lon="8.3228694" version="1" timestamp="2022-03-31T06:08:51Z" changeset="119142720" uid="3497659" user="NKA">
		<tag k="name" v="Skjoret" />
		<tag k="place" v="farm" />
		<tag k="ssr:stedsnr" v="597751" />
	</node>
	<node id="9625635279" lat="61.8893123" lon="8.3666062" version="1" timestamp="2022-03-31T06:08:51Z" changeset="119142720" uid="3497659" user="NKA">
		<tag k="name" v="Hosar" />
		<tag k="place" v="farm" />
		<tag k="ssr:stedsnr" v="10874" />
	</node>
	<node id="9625635280" lat="61.8915687" lon="8.3597782" version="1" timestamp="2022-03-31T06:08:51Z" changeset="119142720" uid="3497659" user="NKA">
		<tag k="alt_name" v="Bakke, nordre;Bakke" />
		<tag k="name" v="Nørdre Bakke" />
		<tag k="place" v="farm" />
		<tag k="ssr:stedsnr" v="495886" />
	</node>
	<node id="9625635281" lat="61.9061524" lon="7.8682138" version="1" timestamp="2022-03-31T06:08:51Z" changeset="119142720" uid="3497659" user="NKA">
		<tag k="name" v="Mork" />
		<tag k="place" v="hamlet" />
		<tag k="ssr:stedsnr" v="984258" />
	</node>
	<node id="9625635282" lat="61.8721589" lon="8.504558" version="1" timestamp="2022-03-31T06:08:51Z" changeset="119142720" uid="3497659" user="NKA">
		<tag k="alt_name" v="Bakken" />
		<tag k="name" v="Øvre Bakken" />
		<tag k="place" v="farm" />
		<tag k="ssr:stedsnr" v="10104" />
	</node>
	<node id="9625635283" lat="61.91395" lon="8.0655612" version="1" timestamp="2022-03-31T06:08:51Z" changeset="119142720" uid="3497659" user="NKA">
		<tag k="name" v="Øvre Åmot" />
		<tag k="place" v="farm" />
		<tag k="ssr:stedsnr" v="960472" />
	</node>
	<node id="9625635284" lat="61.9089806" lon="8.1449584" version="1" timestamp="2022-03-31T06:08:51Z" changeset="119142720" uid="3497659" user="NKA">
		<tag k="name" v="Moheim" />
		<tag k="place" v="farm" />
		<tag k="ssr:stedsnr" v="961079" />
	</node>
	<node id="9625635285" lat="61.9033389" lon="8.0344917" version="1" timestamp="2022-03-31T06:08:51Z" changeset="119142720" uid="3497659" user="NKA">
		<tag k="alt_name" v="Brumellom" />
		<tag k="name" v="Øvre Brumillom" />
		<tag k="place" v="farm" />
		<tag k="ssr:stedsnr" v="920701" />
	</node>
	<node id="9625635286" lat="61.9054861" lon="8.03985" version="1" timestamp="2022-03-31T06:08:51Z" changeset="119142720" uid="3497659" user="NKA">
		<tag k="name" v="Nedre Brumillom" />
		<tag k="place" v="farm" />
		<tag k="ssr:stedsnr" v="960417" />
	</node>
	<node id="9625635287" lat="61.8875695" lon="7.8007305" version="1" timestamp="2022-03-31T06:08:51Z" changeset="119142720" uid="3497659" user="NKA">
		<tag k="alt_name" v="Dyringje" />
		<tag k="name" v="Dyringen" />
		<tag k="place" v="farm" />
		<tag k="ssr:stedsnr" v="738718" />
	</node>
	<node id="9625635288" lat="61.9129003" lon="8.1530063" version="1" timestamp="2022-03-31T06:08:51Z" changeset="119142720" uid="3497659" user="NKA">
		<tag k="alt_name" v="Langleitet, nordre" />
		<tag k="name" v="Nørdre Langleite" />
		<tag k="place" v="farm" />
		<tag k="ssr:stedsnr" v="920675" />
	</node>
	<node id="9625635289" lat="61.9100139" lon="8.1620084" version="1" timestamp="2022-03-31T06:08:51Z" changeset="119142720" uid="3497659" user="NKA">
		<tag k="name" v="Rusti" />
		<tag k="place" v="farm" />
		<tag k="ssr:stedsnr" v="616856" />
	</node>
	<node id="9625635290" lat="61.9078874" lon="8.1671087" version="1" timestamp="2022-03-31T06:08:51Z" changeset="119142720" uid="3497659" user="NKA">
		<tag k="name" v="Langleitshaugen" />
		<tag k="place" v="farm" />
		<tag k="ssr:stedsnr" v="616855" />
	</node>
	<node id="9625635291" lat="61.9089778" lon="7.8741333" version="1" timestamp="2022-03-31T06:08:51Z" changeset="119142720" uid="3497659" user="NKA">
		<tag k="name" v="Søre Mork" />
		<tag k="place" v="farm" />
		<tag k="ssr:stedsnr" v="596339" />
	</node>
	<node id="9625635292" lat="61.9086889" lon="8.1146306" version="1" timestamp="2022-03-31T06:08:51Z" changeset="119142720" uid="3497659" user="NKA">
		<tag k="name" v="Lier" />
		<tag k="place" v="farm" />
		<tag k="ssr:stedsnr" v="373701" />
	</node>
	<node id="9625635293" lat="61.9030805" lon="8.1423611" version="1" timestamp="2022-03-31T06:08:51Z" changeset="119142720" uid="3497659" user="NKA">
		<tag k="alt_name" v="Åbui, øvre" />
		<tag k="name" v="Øvre Åbue" />
		<tag k="place" v="farm" />
		<tag k="ssr:stedsnr" v="373841" />
	</node>
	<node id="9625635294" lat="61.9061139" lon="7.9404306" version="1" timestamp="2022-03-31T06:08:51Z" changeset="119142720" uid="3497659" user="NKA">
		<tag k="name" v="Marlosøygarden" />
		<tag k="place" v="farm" />
		<tag k="ssr:stedsnr" v="313691" />
	</node>
	<node id="9625635295" lat="61.903175" lon="7.8685833" version="1" timestamp="2022-03-31T06:08:51Z" changeset="119142720" uid="3497659" user="NKA">
		<tag k="name" v="Haugen" />
		<tag k="place" v="farm" />
		<tag k="ssr:stedsnr" v="313694" />
	</node>
	<node id="9625635296" lat="61.9471417" lon="7.9907751" version="1" timestamp="2022-03-31T06:08:51Z" changeset="119142720" uid="3497659" user="NKA">
		<tag k="alt_name" v="Heggebotn;Nørdre Heiggjebotn" />
		<tag k="name" v="Nørdre Heggjebotn" />
		<tag k="place" v="farm" />
		<tag k="ssr:stedsnr" v="252478" />
	</node>
	<node id="9625635297" lat="61.9176667" lon="8.1305195" version="1" timestamp="2022-03-31T06:08:51Z" changeset="119142720" uid="3497659" user="NKA">
		<tag k="alt_name" v="Skriu" />
		<tag k="name" v="Skridu" />
		<tag k="place" v="hamlet" />
		<tag k="ssr:stedsnr" v="313680" />
	</node>
	<node id="9625635298" lat="62.0047667" lon="7.8433305" version="1" timestamp="2022-03-31T06:08:51Z" changeset="119142720" uid="3497659" user="NKA">
		<tag k="historic" v="shieling" />
		<tag k="name" v="Åsen" />
		<tag k="place" v="hamlet" />
		<tag k="ssr:stedsnr" v="71249" />
	</node>
	<node id="9625635299" lat="61.9530139" lon="7.8921417" version="1" timestamp="2022-03-31T06:08:51Z" changeset="119142720" uid="3497659" user="NKA">
		<tag k="name" v="Glitne" />
		<tag k="place" v="farm" />
		<tag k="ssr:stedsnr" v="131500" />
	</node>
	<node id="9625635300" lat="61.8996441" lon="8.1752071" version="1" timestamp="2022-03-31T06:08:51Z" changeset="119142720" uid="3497659" user="NKA">
		<tag k="name" v="Skjåkøygarden" />
		<tag k="place" v="farm" />
		<tag k="ssr:stedsnr" v="920838" />
	</node>
	<node id="9625635301" lat="61.9039556" lon="7.8607278" version="1" timestamp="2022-03-31T06:08:51Z" changeset="119142720" uid="3497659" user="NKA">
		<tag k="alt_name" v="Kvee" />
		<tag k="name" v="Kvei" />
		<tag k="place" v="farm" />
		<tag k="ssr:stedsnr" v="10549" />
	</node>
	<node id="9625635302" lat="61.9085" lon="7.8978306" version="1" timestamp="2022-03-31T06:08:51Z" changeset="119142720" uid="3497659" user="NKA">
		<tag k="alt_name" v="Kveum" />
		<tag k="name" v="Kveom" />
		<tag k="place" v="farm" />
		<tag k="ssr:stedsnr" v="495702" />
	</node>
	<node id="9625635303" lat="61.9063916" lon="8.1381813" version="1" timestamp="2022-03-31T06:08:51Z" changeset="119142720" uid="3497659" user="NKA">
		<tag k="name" v="Nyhus" />
		<tag k="place" v="hamlet" />
		<tag k="ssr:stedsnr" v="859655" />
	</node>
	<node id="9625635304" lat="61.8085257" lon="8.206557" version="1" timestamp="2022-03-31T06:08:51Z" changeset="119142720" uid="3497659" user="NKA">
		<tag k="alt_name" v="Ruphytta" />
		<tag k="name" v="Isakbu" />
		<tag k="place" v="isolated_dwelling" />
		<tag k="ssr:stedsnr" v="617958" />
	</node>
	<node id="9625635305" lat="61.8924303" lon="8.2560268" version="1" timestamp="2022-03-31T06:08:51Z" changeset="119142720" uid="3497659" user="NKA">
		<tag k="name" v="Skamsar" />
		<tag k="place" v="hamlet" />
		<tag k="ssr:stedsnr" v="984282" />
	</node>
	<node id="9625635306" lat="61.9033028" lon="8.1523111" version="1" timestamp="2022-03-31T06:08:51Z" changeset="119142720" uid="3497659" user="NKA">
		<tag k="name" v="Medøygarden" />
		<tag k="place" v="farm" />
		<tag k="ssr:stedsnr" v="597087" />
	</node>
	<node id="9625635307" lat="61.8786556" lon="8.4774194" version="1" timestamp="2022-03-31T06:08:51Z" changeset="119142720" uid="3497659" user="NKA">
		<tag k="alt_name" v="Skrinde, s;Skrinde;Søre Skrinde" />
		<tag k="name" v="Sygard Skrinde" />
		<tag k="place" v="farm" />
		<tag k="ssr:stedsnr" v="677926" />
	</node>
	<node id="9625635308" lat="61.8909627" lon="8.2582584" version="1" timestamp="2022-03-31T06:08:51Z" changeset="119142720" uid="3497659" user="NKA">
		<tag k="name" v="Skei" />
		<tag k="place" v="farm" />
		<tag k="ssr:stedsnr" v="617872" />
	</node>
	<node id="9625635309" lat="61.9027972" lon="8.1663723" version="1" timestamp="2022-03-31T06:08:51Z" changeset="119142720" uid="3497659" user="NKA">
		<tag k="name" v="Slette" />
		<tag k="place" v="farm" />
		<tag k="ssr:stedsnr" v="415066" />
	</node>
	<node id="9625635310" lat="61.8985056" lon="8.2013083" version="1" timestamp="2022-03-31T06:08:51Z" changeset="119142720" uid="3497659" user="NKA">
		<tag k="loc_name" v="Eiesar" />
		<tag k="name" v="Eisar" />
		<tag k="place" v="farm" />
		<tag k="ssr:stedsnr" v="860847" />
	</node>
	<node id="9625635311" lat="61.8991417" lon="8.2348388" version="1" timestamp="2022-03-31T06:08:51Z" changeset="119142720" uid="3497659" user="NKA">
		<tag k="name" v="Systun Kitilstad" />
		<tag k="place" v="farm" />
		<tag k="ssr:stedsnr" v="536041" />
	</node>
	<node id="9625635312" lat="61.8664472" lon="8.3034861" version="1" timestamp="2022-03-31T06:08:51Z" changeset="119142720" uid="3497659" user="NKA">
		<tag k="name" v="Søre Ytre" />
		<tag k="place" v="farm" />
		<tag k="ssr:stedsnr" v="415137" />
	</node>
	<node id="9625635313" lat="61.9127486" lon="7.9491401" version="1" timestamp="2022-03-31T06:08:51Z" changeset="119142720" uid="3497659" user="NKA">
		<tag k="alt_name" v="Våtmyre" />
		<tag k="name" v="Våtmyr" />
		<tag k="place" v="farm" />
		<tag k="ssr:stedsnr" v="677531" />
	</node>
	<node id="9625635314" lat="61.8840778" lon="8.4465611" version="1" timestamp="2022-03-31T06:08:51Z" changeset="119142720" uid="3497659" user="NKA">
		<tag k="name" v="Øvre Bøje" />
		<tag k="place" v="farm" />
		<tag k="ssr:stedsnr" v="536595" />
	</node>
	<node id="9625635315" lat="61.8990361" lon="7.8419584" version="1" timestamp="2022-03-31T06:08:51Z" changeset="119142720" uid="3497659" user="NKA">
		<tag k="name" v="Tunet" />
		<tag k="place" v="farm" />
		<tag k="ssr:stedsnr" v="435716" />
	</node>
	<node id="9625635316" lat="62.0165389" lon="7.6656806" version="1" timestamp="2022-03-31T06:08:51Z" changeset="119142720" uid="3497659" user="NKA">
		<tag k="name" v="Grotli" />
		<tag k="place" v="farm" />
		<tag k="ssr:stedsnr" v="678142" />
	</node>
	<node id="9625636817" lat="61.911025" lon="7.8885222" version="1" timestamp="2022-03-31T06:08:51Z" changeset="119142720" uid="3497659" user="NKA">
		<tag k="name" v="Systun Storbråtå" />
		<tag k="place" v="farm" />
		<tag k="ssr:stedsnr" v="900338" />
	</node>
	<node id="9625636818" lat="61.9072799" lon="7.8670418" version="1" timestamp="2022-03-31T06:08:51Z" changeset="119142720" uid="3497659" user="NKA">
		<tag k="alt_name" v="Mork" />
		<tag k="name" v="Nørdre Mork" />
		<tag k="place" v="farm" />
		<tag k="ssr:stedsnr" v="495700" />
	</node>
	<node id="9625636819" lat="61.8456106" lon="7.7567713" version="1" timestamp="2022-03-31T06:08:51Z" changeset="119142720" uid="3497659" user="NKA">
		<tag k="alt_name" v="Brennsætre" />
		<tag k="historic" v="shieling" />
		<tag k="name" v="Baksidebrennsætri" />
		<tag k="place" v="hamlet" />
		<tag k="ssr:stedsnr" v="556745" />
	</node>
	<node id="9625636820" lat="61.8552" lon="7.7498556" version="1" timestamp="2022-03-31T06:08:51Z" changeset="119142720" uid="3497659" user="NKA">
		<tag k="alt_name" v="Brennsætre" />
		<tag k="historic" v="shieling" />
		<tag k="name" v="Brennsætri" />
		<tag k="place" v="isolated_dwelling" />
		<tag k="ssr:stedsnr" v="10738" />
	</node>
	<node id="9625636821" lat="62.0145667" lon="7.7753389" version="1" timestamp="2022-03-31T06:08:51Z" changeset="119142720" uid="3497659" user="NKA">
		<tag k="alt_name" v="Nysætri" />
		<tag k="name" v="Nysætre" />
		<tag k="place" v="hamlet" />
		<tag k="ssr:stedsnr" v="617271" />
	</node>
	<node id="9625636822" lat="61.905075" lon="7.8692696" version="1" timestamp="2022-03-31T06:08:51Z" changeset="119142720" uid="3497659" user="NKA">
		<tag k="name" v="Ytre Mork" />
		<tag k="place" v="farm" />
		<tag k="ssr:stedsnr" v="475371" />
	</node>
	<node id="9625636823" lat="61.8799364" lon="8.4740282" version="1" timestamp="2022-03-31T06:08:51Z" changeset="119142720" uid="3497659" user="NKA">
		<tag k="name" v="Skrinde" />
		<tag k="place" v="hamlet" />
		<tag k="ssr:stedsnr" v="984250" />
	</node>
	<node id="9625636824" lat="61.8885778" lon="7.8462001" version="1" timestamp="2022-03-31T06:08:51Z" changeset="119142720" uid="3497659" user="NKA">
		<tag k="name" v="Kollungen" />
		<tag k="place" v="farm" />
		<tag k="ssr:stedsnr" v="192743" />
	</node>
	<node id="9625636825" lat="61.8844246" lon="8.4104882" version="1" timestamp="2022-03-31T06:08:51Z" changeset="119142720" uid="3497659" user="NKA">
		<tag k="name" v="Ramstad" />
		<tag k="place" v="hamlet" />
		<tag k="ssr:stedsnr" v="984244" />
	</node>
	<node id="9625636826" lat="61.8723633" lon="8.4985171" version="1" timestamp="2022-03-31T06:08:51Z" changeset="119142720" uid="3497659" user="NKA">
		<tag k="alt_name" v="Bakkjen" />
		<tag k="name" v="Bakken" />
		<tag k="place" v="hamlet" />
		<tag k="ssr:stedsnr" v="984252" />
	</node>
	<node id="9625636827" lat="61.8994031" lon="8.2319529" version="1" timestamp="2022-03-31T06:08:51Z" changeset="119142720" uid="3497659" user="NKA">
		<tag k="name" v="Kittilstad" />
		<tag k="place" v="farm" />
		<tag k="ssr:stedsnr" v="984280" />
	</node>
	<node id="9625636828" lat="61.8823219" lon="8.448522" version="1" timestamp="2022-03-31T06:08:51Z" changeset="119142720" uid="3497659" user="NKA">
		<tag k="name" v="Bøje" />
		<tag k="place" v="hamlet" />
		<tag k="ssr:stedsnr" v="984246" />
	</node>
	<node id="9625636829" lat="61.8845798" lon="8.2947228" version="1" timestamp="2022-03-31T06:08:51Z" changeset="119142720" uid="3497659" user="NKA">
		<tag k="name" v="Forberget" />
		<tag k="place" v="hamlet" />
		<tag k="ssr:stedsnr" v="984173" />
	</node>
	<node id="9625636830" lat="61.8835465" lon="8.4039573" version="1" timestamp="2022-03-31T06:08:51Z" changeset="119142720" uid="3497659" user="NKA">
		<tag k="name" v="Hjeltar" />
		<tag k="place" v="farm" />
		<tag k="ssr:stedsnr" v="984243" />
	</node>
	<node id="9625636831" lat="61.8919466" lon="8.3614374" version="1" timestamp="2022-03-31T06:08:51Z" changeset="119142720" uid="3497659" user="NKA">
		<tag k="name" v="Bakke" />
		<tag k="place" v="farm" />
		<tag k="ssr:stedsnr" v="984207" />
	</node>
	<node id="9625636832" lat="61.9041396" lon="8.2031283" version="1" timestamp="2022-03-31T06:08:51Z" changeset="119142720" uid="3497659" user="NKA">
		<tag k="name" v="Lykre" />
		<tag k="place" v="farm" />
		<tag k="ssr:stedsnr" v="984278" />
	</node>
	<node id="9625636833" lat="61.8637353" lon="8.4811102" version="1" timestamp="2022-03-31T06:08:51Z" changeset="119142720" uid="3497659" user="NKA">
		<tag k="name" v="Risheimskriu" />
		<tag k="place" v="farm" />
		<tag k="ssr:stedsnr" v="961957" />
	</node>
	<node id="9625636834" lat="61.8733328" lon="8.4177015" version="1" timestamp="2022-03-31T06:08:51Z" changeset="119142720" uid="3497659" user="NKA">
		<tag k="name" v="Brekk" />
		<tag k="place" v="farm" />
		<tag k="ssr:stedsnr" v="984168" />
	</node>
	<node id="9625636835" lat="61.87605" lon="8.3854584" version="1" timestamp="2022-03-31T06:08:51Z" changeset="119142720" uid="3497659" user="NKA">
		<tag k="name" v="Sygard Ånstad" />
		<tag k="place" v="farm" />
		<tag k="ssr:stedsnr" v="961951" />
	</node>
	<node id="9625636836" lat="61.8832287" lon="8.372235" version="1" timestamp="2022-03-31T06:08:51Z" changeset="119142720" uid="3497659" user="NKA">
		<tag k="name" v="Krokstad" />
		<tag k="place" v="farm" />
		<tag k="ssr:stedsnr" v="984208" />
	</node>
	<node id="9625636837" lat="61.8757944" lon="8.2723833" version="1" timestamp="2022-03-31T06:08:51Z" changeset="119142720" uid="3497659" user="NKA">
		<tag k="name" v="Larskvee" />
		<tag k="place" v="farm" />
		<tag k="ssr:stedsnr" v="961128" />
	</node>
	<node id="9625636838" lat="61.8858706" lon="8.359036" version="1" timestamp="2022-03-31T06:08:51Z" changeset="119142720" uid="3497659" user="NKA">
		<tag k="name" v="Nørdre Grimstad" />
		<tag k="place" v="farm" />
		<tag k="ssr:stedsnr" v="961731" />
	</node>
	<node id="9625636839" lat="61.8865111" lon="8.4040333" version="1" timestamp="2022-03-31T06:08:51Z" changeset="119142720" uid="3497659" user="NKA">
		<tag k="name" v="Hjeltartræedet" />
		<tag k="place" v="farm" />
		<tag k="ssr:stedsnr" v="960516" />
	</node>
	<node id="9625636840" lat="61.8808417" lon="8.4564416" version="1" timestamp="2022-03-31T06:08:51Z" changeset="119142720" uid="3497659" user="NKA">
		<tag k="name" v="Brudal" />
		<tag k="place" v="farm" />
		<tag k="ssr:stedsnr" v="961619" />
	</node>
	<node id="9625636841" lat="61.8748531" lon="8.3241836" version="1" timestamp="2022-03-31T06:08:51Z" changeset="119142720" uid="3497659" user="NKA">
		<tag k="name" v="Dalen" />
		<tag k="place" v="hamlet" />
		<tag k="ssr:stedsnr" v="921763" />
	</node>
	<node id="9625636842" lat="61.8720518" lon="8.4118226" version="1" timestamp="2022-03-31T06:08:51Z" changeset="119142720" uid="3497659" user="NKA">
		<tag k="name" v="Kroken" />
		<tag k="place" v="farm" />
		<tag k="ssr:stedsnr" v="921817" />
	</node>
	<node id="9625636843" lat="61.8815861" lon="8.2485778" version="1" timestamp="2022-03-31T06:08:51Z" changeset="119142720" uid="3497659" user="NKA">
		<tag k="alt_name" v="Teigom, s;Teigom, søre" />
		<tag k="name" v="Søre Teigom" />
		<tag k="place" v="farm" />
		<tag k="ssr:stedsnr" v="920876" />
	</node>
	<node id="9625636844" lat="61.8737584" lon="8.4046527" version="1" timestamp="2022-03-31T06:08:51Z" changeset="119142720" uid="3497659" user="NKA">
		<tag k="name" v="Nyhus" />
		<tag k="place" v="farm" />
		<tag k="ssr:stedsnr" v="921815" />
	</node>
	<node id="9625636845" lat="61.8831454" lon="8.4382652" version="1" timestamp="2022-03-31T06:08:51Z" changeset="119142720" uid="3497659" user="NKA">
		<tag k="alt_name" v="Rudsar" />
		<tag k="name" v="Russar" />
		<tag k="place" v="hamlet" />
		<tag k="ssr:stedsnr" v="920767" />
	</node>
	<node id="9625636846" lat="61.8867585" lon="8.3667544" version="1" timestamp="2022-03-31T06:08:51Z" changeset="119142720" uid="3497659" user="NKA">
		<tag k="name" v="Steinbakke" />
		<tag k="place" v="farm" />
		<tag k="ssr:stedsnr" v="920879" />
	</node>
	<node id="9625636847" lat="61.8539027" lon="8.3627416" version="1" timestamp="2022-03-31T06:08:51Z" changeset="119142720" uid="3497659" user="NKA">
		<tag k="historic" v="shieling" />
		<tag k="name" v="Gamalsæterstulen" />
		<tag k="place" v="isolated_dwelling" />
		<tag k="ssr:stedsnr" v="800762" />
	</node>
	<node id="9625636848" lat="61.891175" lon="8.2314194" version="1" timestamp="2022-03-31T06:08:51Z" changeset="119142720" uid="3497659" user="NKA">
		<tag k="alt_name" v="Morkje" />
		<tag k="name" v="Morki" />
		<tag k="place" v="farm" />
		<tag k="ssr:stedsnr" v="920824" />
	</node>
	<node id="9625636849" lat="61.8747347" lon="8.4088147" version="1" timestamp="2022-03-31T06:08:51Z" changeset="119142720" uid="3497659" user="NKA">
		<tag k="alt_name" v="Skriu" />
		<tag k="name" v="Skridu" />
		<tag k="place" v="farm" />
		<tag k="ssr:stedsnr" v="799832" />
	</node>
	<node id="9625636850" lat="61.8751588" lon="8.373031" version="1" timestamp="2022-03-31T06:08:51Z" changeset="119142720" uid="3497659" user="NKA">
		<tag k="name" v="Prestgarden" />
		<tag k="place" v="farm" />
		<tag k="ssr:stedsnr" v="799776" />
	</node>
	<node id="9625636851" lat="61.8795056" lon="8.2514001" version="1" timestamp="2022-03-31T06:08:51Z" changeset="119142720" uid="3497659" user="NKA">
		<tag k="name" v="Bjørkheim" />
		<tag k="place" v="farm" />
		<tag k="ssr:stedsnr" v="799791" />
	</node>
	<node id="9625636852" lat="61.914836" lon="8.3519021" version="1" timestamp="2022-03-31T06:08:51Z" changeset="119142720" uid="3497659" user="NKA">
		<tag k="name" v="Bakkeåsen" />
		<tag k="place" v="locality" />
		<tag k="ssr:stedsnr" v="799716" />
	</node>
	<node id="9625636853" lat="61.8939889" lon="8.2495473" version="1" timestamp="2022-03-31T06:08:51Z" changeset="119142720" uid="3497659" user="NKA">
		<tag k="name" v="Nedre Bruheim" />
		<tag k="place" v="farm" />
		<tag k="ssr:stedsnr" v="779030" />
	</node>
	<node id="9625636854" lat="61.8898377" lon="8.363677" version="1" timestamp="2022-03-31T06:08:51Z" changeset="119142720" uid="3497659" user="NKA">
		<tag k="alt_name" v="Guldbakke" />
		<tag k="name" v="Gullbakke" />
		<tag k="place" v="farm" />
		<tag k="ssr:stedsnr" v="779720" />
	</node>
	<node id="9625636855" lat="61.8757944" lon="8.262175" version="1" timestamp="2022-03-31T06:08:51Z" changeset="119142720" uid="3497659" user="NKA">
		<tag k="name" v="Marsteinstad" />
		<tag k="place" v="farm" />
		<tag k="ssr:stedsnr" v="779008" />
	</node>
	<node id="9625636856" lat="61.8825611" lon="8.4417501" version="1" timestamp="2022-03-31T06:08:51Z" changeset="119142720" uid="3497659" user="NKA">
		<tag k="name" v="Uppistun Russar" />
		<tag k="place" v="farm" />
		<tag k="ssr:stedsnr" v="778622" />
	</node>
	<node id="9625636857" lat="61.8926873" lon="8.2540133" version="1" timestamp="2022-03-31T06:08:51Z" changeset="119142720" uid="3497659" user="NKA">
		<tag k="alt_name" v="Skamsar" />
		<tag k="name" v="Nistun Skamsar" />
		<tag k="place" v="farm" />
		<tag k="ssr:stedsnr" v="738898" />
	</node>
	<node id="9625636858" lat="61.8912973" lon="8.3625778" version="1" timestamp="2022-03-31T06:08:51Z" changeset="119142720" uid="3497659" user="NKA">
		<tag k="alt_name" v="Bakke, s;Bakke, søre;Bakke" />
		<tag k="name" v="Søre Bakke" />
		<tag k="place" v="farm" />
		<tag k="ssr:stedsnr" v="738888" />
	</node>
	<node id="9625636859" lat="61.9042778" lon="8.1768084" version="1" timestamp="2022-03-31T06:08:51Z" changeset="119142720" uid="3497659" user="NKA">
		<tag k="name" v="Barlund" />
		<tag k="place" v="farm" />
		<tag k="ssr:stedsnr" v="738846" />
	</node>
	<node id="9625636860" lat="61.8959986" lon="8.2494406" version="1" timestamp="2022-03-31T06:08:51Z" changeset="119142720" uid="3497659" user="NKA">
		<tag k="alt_name" v="Hågåyn" />
		<tag k="name" v="Hågå" />
		<tag k="place" v="farm" />
		<tag k="ssr:stedsnr" v="738839" />
	</node>
	<node id="9625636861" lat="61.8977861" lon="8.2281528" version="1" timestamp="2022-03-31T06:08:51Z" changeset="119142720" uid="3497659" user="NKA">
		<tag k="name" v="Bøye" />
		<tag k="place" v="isolated_dwelling" />
		<tag k="ssr:stedsnr" v="718047" />
	</node>
	<node id="9625636862" lat="61.8840389" lon="8.4234611" version="1" timestamp="2022-03-31T06:08:51Z" changeset="119142720" uid="3497659" user="NKA">
		<tag k="alt_name" v="Vangsbakkjen" />
		<tag k="name" v="Vangsbakken" />
		<tag k="place" v="farm" />
		<tag k="ssr:stedsnr" v="738795" />
	</node>
	<node id="9625636863" lat="61.88835" lon="8.3692361" version="1" timestamp="2022-03-31T06:08:51Z" changeset="119142720" uid="3497659" user="NKA">
		<tag k="name" v="Søre Hosar" />
		<tag k="place" v="farm" />
		<tag k="ssr:stedsnr" v="617866" />
	</node>
	<node id="9625636864" lat="61.9020972" lon="8.2010723" version="1" timestamp="2022-03-31T06:08:51Z" changeset="119142720" uid="3497659" user="NKA">
		<tag k="name" v="Furumo" />
		<tag k="place" v="farm" />
		<tag k="ssr:stedsnr" v="677834" />
	</node>
	<node id="9625636865" lat="61.8694361" lon="8.3047889" version="1" timestamp="2022-03-31T06:08:51Z" changeset="119142720" uid="3497659" user="NKA">
		<tag k="alt_name" v="Sætre" />
		<tag k="name" v="Sæter" />
		<tag k="place" v="farm" />
		<tag k="ssr:stedsnr" v="617778" />
	</node>
	<node id="9625636866" lat="61.8844146" lon="8.340678" version="1" timestamp="2022-03-31T06:08:51Z" changeset="119142720" uid="3497659" user="NKA">
		<tag k="name" v="Nedre Sperstadøygarden" />
		<tag k="place" v="farm" />
		<tag k="ssr:stedsnr" v="616864" />
	</node>
	<node id="9625636867" lat="61.8846819" lon="8.4050888" version="1" timestamp="2022-03-31T06:08:51Z" changeset="119142720" uid="3497659" user="NKA">
		<tag k="alt_name" v="Hjeltar, øvre" />
		<tag k="name" v="Øvre Hjeltar" />
		<tag k="place" v="farm" />
		<tag k="ssr:stedsnr" v="616780" />
	</node>
	<node id="9625636868" lat="61.9034849" lon="8.2079341" version="1" timestamp="2022-03-31T06:08:51Z" changeset="119142720" uid="3497659" user="NKA">
		<tag k="alt_name" v="Lykre, s;Lykre, søre" />
		<tag k="name" v="Søre Lykre" />
		<tag k="place" v="farm" />
		<tag k="ssr:stedsnr" v="616854" />
	</node>
	<node id="9625636869" lat="61.8768972" lon="8.3531611" version="1" timestamp="2022-03-31T06:08:51Z" changeset="119142720" uid="3497659" user="NKA">
		<tag k="name" v="Nurdstun Vigstad" />
		<tag k="place" v="farm" />
		<tag k="ssr:stedsnr" v="597134" />
	</node>
	<node id="9625636870" lat="61.8646883" lon="8.4762454" version="1" timestamp="2022-03-31T06:08:51Z" changeset="119142720" uid="3497659" user="NKA">
		<tag k="name" v="Nørdre Risheim" />
		<tag k="place" v="farm" />
		<tag k="ssr:stedsnr" v="596949" />
	</node>
	<node id="9625636871" lat="61.8655416" lon="8.3016834" version="1" timestamp="2022-03-31T06:08:51Z" changeset="119142720" uid="3497659" user="NKA">
		<tag k="name" v="Nørdre Ytre" />
		<tag k="place" v="farm" />
		<tag k="ssr:stedsnr" v="597139" />
	</node>
	<node id="9625636872" lat="61.8951056" lon="8.3613751" version="1" timestamp="2022-03-31T06:08:51Z" changeset="119142720" uid="3497659" user="NKA">
		<tag k="name" v="Nørdre Blikka" />
		<tag k="place" v="farm" />
		<tag k="ssr:stedsnr" v="589151" />
	</node>
	<node id="9625636873" lat="61.8670361" lon="8.4673751" version="1" timestamp="2022-03-31T06:08:51Z" changeset="119142720" uid="3497659" user="NKA">
		<tag k="name" v="Ner-Hole" />
		<tag k="place" v="farm" />
		<tag k="ssr:stedsnr" v="596952" />
	</node>
	<node id="9625636874" lat="61.8735555" lon="8.2924972" version="1" timestamp="2022-03-31T06:08:51Z" changeset="119142720" uid="3497659" user="NKA">
		<tag k="loc_name" v="Lundagrende" />
		<tag k="name" v="Lundagrendi" />
		<tag k="place" v="hamlet" />
		<tag k="ssr:stedsnr" v="496762" />
	</node>
	<node id="9625636875" lat="61.8864305" lon="8.31655" version="1" timestamp="2022-03-31T06:08:51Z" changeset="119142720" uid="3497659" user="NKA">
		<tag k="name" v="Nurdstun Holemork" />
		<tag k="place" v="farm" />
		<tag k="ssr:stedsnr" v="536732" />
	</node>
	<node id="9625636876" lat="61.884025" lon="8.3744472" version="1" timestamp="2022-03-31T06:08:51Z" changeset="119142720" uid="3497659" user="NKA">
		<tag k="alt_name" v="Krokstad, søre;Krokstad, s" />
		<tag k="name" v="Systun Krokstad" />
		<tag k="place" v="farm" />
		<tag k="ssr:stedsnr" v="495859" />
	</node>
	<node id="9625636877" lat="61.8690083" lon="8.2810557" version="1" timestamp="2022-03-31T06:08:51Z" changeset="119142720" uid="3497659" user="NKA">
		<tag k="name" v="Åsli" />
		<tag k="place" v="farm" />
		<tag k="ssr:stedsnr" v="496772" />
	</node>
	<node id="9625636878" lat="61.8652194" lon="8.4778475" version="1" timestamp="2022-03-31T06:08:51Z" changeset="119142720" uid="3497659" user="NKA">
		<tag k="name" v="Risheim" />
		<tag k="place" v="hamlet" />
		<tag k="ssr:stedsnr" v="495136" />
	</node>
	<node id="9625636879" lat="61.87495" lon="8.3609779" version="1" timestamp="2022-03-31T06:08:51Z" changeset="119142720" uid="3497659" user="NKA">
		<tag k="alt_name" v="Storkjørre" />
		<tag k="name" v="Storkjørri" />
		<tag k="place" v="farm" />
		<tag k="ssr:stedsnr" v="496758" />
	</node>
	<node id="9625636880" lat="61.8662056" lon="8.3039556" version="1" timestamp="2022-03-31T06:08:51Z" changeset="119142720" uid="3497659" user="NKA">
		<tag k="name" v="Ytre" />
		<tag k="place" v="farm" />
		<tag k="ssr:stedsnr" v="436782" />
	</node>
	<node id="9625636881" lat="61.8788389" lon="8.303014" version="1" timestamp="2022-03-31T06:08:51Z" changeset="119142720" uid="3497659" user="NKA">
		<tag k="name" v="Nordbu" />
		<tag k="place" v="farm" />
		<tag k="ssr:stedsnr" v="435877" />
	</node>
	<node id="9625636882" lat="61.874125" lon="8.3168584" version="1" timestamp="2022-03-31T06:08:51Z" changeset="119142720" uid="3497659" user="NKA">
		<tag k="name" v="Myri" />
		<tag k="place" v="farm" />
		<tag k="ssr:stedsnr" v="435765" />
	</node>
	<node id="9625636883" lat="61.8765569" lon="8.4834426" version="1" timestamp="2022-03-31T06:08:51Z" changeset="119142720" uid="3497659" user="NKA">
		<tag k="alt_name" v="Svei" />
		<tag k="name" v="Svee" />
		<tag k="place" v="farm" />
		<tag k="ssr:stedsnr" v="435121" />
	</node>
	<node id="9625636884" lat="61.8814878" lon="8.3906686" version="1" timestamp="2022-03-31T06:08:51Z" changeset="119142720" uid="3497659" user="NKA">
		<tag k="alt_name" v="Søre Marlo" />
		<tag k="name" v="Marlo" />
		<tag k="place" v="hamlet" />
		<tag k="ssr:stedsnr" v="434735" />
	</node>
	<node id="9625636885" lat="61.8867694" lon="8.3718806" version="1" timestamp="2022-03-31T06:08:51Z" changeset="119142720" uid="3497659" user="NKA">
		<tag k="alt_name" v="Krokstad, øvre" />
		<tag k="name" v="Uppstun Krokstad" />
		<tag k="place" v="farm" />
		<tag k="ssr:stedsnr" v="434807" />
	</node>
	<node id="9625636886" lat="61.8842944" lon="8.3720916" version="1" timestamp="2022-03-31T06:08:51Z" changeset="119142720" uid="3497659" user="NKA">
		<tag k="alt_name" v="Krokstad, nordre" />
		<tag k="name" v="Nistun Krokstad" />
		<tag k="place" v="farm" />
		<tag k="ssr:stedsnr" v="313866" />
	</node>
	<node id="9625636887" lat="61.8842111" lon="8.4176638" version="1" timestamp="2022-03-31T06:08:51Z" changeset="119142720" uid="3497659" user="NKA">
		<tag k="alt_name" v="Bustad, søre" />
		<tag k="name" v="Søre Bustad" />
		<tag k="place" v="farm" />
		<tag k="ssr:stedsnr" v="434738" />
	</node>
	<node id="9625636888" lat="61.8685163" lon="8.4565386" version="1" timestamp="2022-03-31T06:08:51Z" changeset="119142720" uid="3497659" user="NKA">
		<tag k="alt_name" v="Prestjordede" />
		<tag k="name" v="Prestjordet" />
		<tag k="place" v="farm" />
		<tag k="ssr:stedsnr" v="253816" />
	</node>
	<node id="9625636889" lat="61.88215" lon="8.3690695" version="1" timestamp="2022-03-31T06:08:51Z" changeset="119142720" uid="3497659" user="NKA">
		<tag k="alt_name" v="Tråstad, nedre" />
		<tag k="name" v="Nedre Tråstad" />
		<tag k="place" v="farm" />
		<tag k="ssr:stedsnr" v="313870" />
	</node>
	<node id="9625636890" lat="61.8738062" lon="8.2875594" version="1" timestamp="2022-03-31T06:08:51Z" changeset="119142720" uid="3497659" user="NKA">
		<tag k="alt_name" v="Tøfte" />
		<tag k="name" v="Tofte" />
		<tag k="place" v="hamlet" />
		<tag k="ssr:stedsnr" v="253782" />
	</node>
	<node id="9625636891" lat="61.9109083" lon="8.4680722" version="1" timestamp="2022-03-31T06:08:51Z" changeset="119142720" uid="3497659" user="NKA">
		<tag k="name" v="Døktahytta" />
		<tag k="place" v="isolated_dwelling" />
		<tag k="ssr:stedsnr" v="253895" />
	</node>
	<node id="9625636892" lat="61.872925" lon="8.3155751" version="1" timestamp="2022-03-31T06:08:51Z" changeset="119142720" uid="3497659" user="NKA">
		<tag k="alt_name" v="Nørdre Haugen" />
		<tag k="name" v="Haugen" />
		<tag k="place" v="farm" />
		<tag k="ssr:stedsnr" v="132742" />
	</node>
	<node id="9625636893" lat="61.8754056" lon="8.3233612" version="1" timestamp="2022-03-31T06:08:51Z" changeset="119142720" uid="3497659" user="NKA">
		<tag k="name" v="Nørdre Dalen" />
		<tag k="place" v="farm" />
		<tag k="ssr:stedsnr" v="233147" />
	</node>
	<node id="9625636894" lat="61.8688806" lon="8.2889945" version="1" timestamp="2022-03-31T06:08:51Z" changeset="119142720" uid="3497659" user="NKA">
		<tag k="alt_name" v="Kolovangen" />
		<tag k="name" v="Kolvangen" />
		<tag k="place" v="farm" />
		<tag k="ssr:stedsnr" v="71787" />
	</node>
	<node id="9625636895" lat="61.8727888" lon="8.3135418" version="1" timestamp="2022-03-31T06:08:51Z" changeset="119142720" uid="3497659" user="NKA">
		<tag k="alt_name" v="Breiskriu" />
		<tag k="name" v="Breidskridu" />
		<tag k="place" v="farm" />
		<tag k="ssr:stedsnr" v="132745" />
	</node>
	<node id="9625636896" lat="61.8763528" lon="8.3680834" version="1" timestamp="2022-03-31T06:08:51Z" changeset="119142720" uid="3497659" user="NKA">
		<tag k="name" v="Uppigard Skjåk" />
		<tag k="place" v="farm" />
		<tag k="ssr:stedsnr" v="900156" />
	</node>
	<node id="9625636897" lat="61.8839333" lon="8.4350027" version="1" timestamp="2022-03-31T06:08:51Z" changeset="119142720" uid="3497659" user="NKA">
		<tag k="name" v="Ramen" />
		<tag k="place" v="farm" />
		<tag k="ssr:stedsnr" v="10782" />
	</node>
	<node id="9625636898" lat="61.8723686" lon="8.4239974" version="1" timestamp="2022-03-31T06:08:51Z" changeset="119142720" uid="3497659" user="NKA">
		<tag k="name" v="Soglo" />
		<tag k="place" v="farm" />
		<tag k="ssr:stedsnr" v="739804" />
	</node>
	<node id="9625636899" lat="61.8758416" lon="8.3742612" version="1" timestamp="2022-03-31T06:08:51Z" changeset="119142720" uid="3497659" user="NKA">
		<tag k="name" v="Nørdre Prestgard" />
		<tag k="place" v="farm" />
		<tag k="ssr:stedsnr" v="900154" />
	</node>
	<node id="9625636900" lat="61.885925" lon="8.4447416" version="1" timestamp="2022-03-31T06:08:51Z" changeset="119142720" uid="3497659" user="NKA">
		<tag k="name" v="Bøle" />
		<tag k="place" v="farm" />
		<tag k="ssr:stedsnr" v="192790" />
	</node>
	<node id="9625636901" lat="61.8744098" lon="8.2827595" version="1" timestamp="2022-03-31T06:08:51Z" changeset="119142720" uid="3497659" user="NKA">
		<tag k="name" v="Nordi Lund" />
		<tag k="place" v="farm" />
		<tag k="ssr:stedsnr" v="1072123" />
	</node>
	<node id="9625636902" lat="61.8988195" lon="8.2374472" version="1" timestamp="2022-03-31T06:08:51Z" changeset="119142720" uid="3497659" user="NKA">
		<tag k="name" v="Nedre Jevnheim" />
		<tag k="place" v="farm" />
		<tag k="ssr:stedsnr" v="840029" />
	</node>
	<node id="9625636903" lat="61.8843555" lon="8.2406584" version="1" timestamp="2022-03-31T06:08:51Z" changeset="119142720" uid="3497659" user="NKA">
		<tag k="name" v="Roi" />
		<tag k="place" v="farm" />
		<tag k="ssr:stedsnr" v="192886" />
	</node>
	<node id="9625636904" lat="61.8746678" lon="8.4177227" version="1" timestamp="2022-03-31T06:08:51Z" changeset="119142720" uid="3497659" user="NKA">
		<tag k="alt_name" v="Brekk, nedre" />
		<tag k="name" v="Nedre Brekk" />
		<tag k="place" v="farm" />
		<tag k="ssr:stedsnr" v="556807" />
	</node>
	<node id="9625636905" lat="61.8722805" lon="8.3914038" version="1" timestamp="2022-03-31T06:08:51Z" changeset="119142720" uid="3497659" user="NKA">
		<tag k="alt_name" v="Grøvelstad" />
		<tag k="name" v="Gløverstad" />
		<tag k="place" v="farm" />
		<tag k="ssr:stedsnr" v="556820" />
	</node>
	<node id="9625636906" lat="61.8756222" lon="8.3247473" version="1" timestamp="2022-03-31T06:08:51Z" changeset="119142720" uid="3497659" user="NKA">
		<tag k="name" v="Systun Dalen" />
		<tag k="place" v="farm" />
		<tag k="ssr:stedsnr" v="415130" />
	</node>
	<node id="9625636907" lat="61.8676579" lon="8.4598198" version="1" timestamp="2022-03-31T06:08:51Z" changeset="119142720" uid="3497659" user="NKA">
		<tag k="name" v="Øver-Hole" />
		<tag k="place" v="farm" />
		<tag k="ssr:stedsnr" v="415955" />
	</node>
	<node id="9625636908" lat="61.8730056" lon="8.2761362" version="1" timestamp="2022-03-31T06:08:51Z" changeset="119142720" uid="3497659" user="NKA">
		<tag k="name" v="Randen" />
		<tag k="place" v="farm" />
		<tag k="ssr:stedsnr" v="536136" />
	</node>
	<node id="9625636909" lat="61.869037" lon="8.4114779" version="1" timestamp="2022-03-31T06:08:51Z" changeset="119142720" uid="3497659" user="NKA">
		<tag k="alt_name" v="Krokatrædet" />
		<tag k="historic" v="shieling" />
		<tag k="name" v="Krokatræede" />
		<tag k="place" v="isolated_dwelling" />
		<tag k="ssr:stedsnr" v="415953" />
	</node>
	<node id="9625636910" lat="61.9258" lon="8.2342306" version="1" timestamp="2022-03-31T06:08:51Z" changeset="119142720" uid="3497659" user="NKA">
		<tag k="name" v="Samlarplassen" />
		<tag k="place" v="locality" />
		<tag k="ssr:stedsnr" v="293437" />
	</node>
	<node id="9625636911" lat="61.877125" lon="8.3390001" version="1" timestamp="2022-03-31T06:08:51Z" changeset="119142720" uid="3497659" user="NKA">
		<tag k="alt_name" v="Vigstadmoen" />
		<tag k="name" v="Moen" />
		<tag k="place" v="farm" />
		<tag k="ssr:stedsnr" v="435770" />
	</node>
	<node id="9625636912" lat="61.8816361" lon="8.4632556" version="1" timestamp="2022-03-31T06:08:51Z" changeset="119142720" uid="3497659" user="NKA">
		<tag k="alt_name" v="Kjekahågåyn" />
		<tag k="name" v="Hågå" />
		<tag k="place" v="farm" />
		<tag k="ssr:stedsnr" v="313782" />
	</node>
	<node id="9625636913" lat="61.8855112" lon="8.3747319" version="1" timestamp="2022-03-31T06:08:51Z" changeset="119142720" uid="3497659" user="NKA">
		<tag k="alt_name" v="Kummen" />
		<tag k="name" v="Kumma" />
		<tag k="place" v="farm" />
		<tag k="ssr:stedsnr" v="313886" />
	</node>
	<node id="9625636914" lat="61.8943911" lon="8.2505881" version="1" timestamp="2022-03-31T06:08:51Z" changeset="119142720" uid="3497659" user="NKA">
		<tag k="name" v="Bruheim" />
		<tag k="place" v="farm" />
		<tag k="ssr:stedsnr" v="253886" />
	</node>
	<node id="9625636915" lat="61.9026028" lon="8.2328833" version="1" timestamp="2022-03-31T06:08:51Z" changeset="119142720" uid="3497659" user="NKA">
		<tag k="name" v="Husom" />
		<tag k="place" v="farm" />
		<tag k="ssr:stedsnr" v="313846" />
	</node>
	<node id="9625636916" lat="61.8795432" lon="8.3305353" version="1" timestamp="2022-03-31T06:08:51Z" changeset="119142720" uid="3497659" user="NKA">
		<tag k="name" v="Brustugu" />
		<tag k="place" v="farm" />
		<tag k="ssr:stedsnr" v="233750" />
	</node>
	<node id="9625636917" lat="61.8700472" lon="8.453264" version="1" timestamp="2022-03-31T06:08:51Z" changeset="119142720" uid="3497659" user="NKA">
		<tag k="alt_name" v="Kåjede" />
		<tag k="name" v="Kåjet" />
		<tag k="place" v="farm" />
		<tag k="ssr:stedsnr" v="132795" />
	</node>
	<node id="9625636918" lat="61.9215167" lon="8.1165167" version="1" timestamp="2022-03-31T06:08:51Z" changeset="119142720" uid="3497659" user="NKA">
		<tag k="name" v="Randen" />
		<tag k="place" v="farm" />
		<tag k="ssr:stedsnr" v="232455" />
	</node>
	<node id="9625636919" lat="62.013525" lon="8.1696751" version="1" timestamp="2022-03-31T06:08:51Z" changeset="119142720" uid="3497659" user="NKA">
		<tag k="name" v="Engelskmannsbue" />
		<tag k="place" v="isolated_dwelling" />
		<tag k="ssr:stedsnr" v="27583" />
	</node>
	<node id="9625636920" lat="61.9054667" lon="8.132639" version="1" timestamp="2022-03-31T06:08:51Z" changeset="119142720" uid="3497659" user="NKA">
		<tag k="name" v="Nørdre Byskjede" />
		<tag k="old_name" v="Nørdre Bysjede" />
		<tag k="place" v="farm" />
		<tag k="ssr:stedsnr" v="656426" />
	</node>
	<node id="9625636921" lat="61.9082167" lon="8.0902223" version="1" timestamp="2022-03-31T06:08:51Z" changeset="119142720" uid="3497659" user="NKA">
		<tag k="name" v="Nyland" />
		<tag k="place" v="farm" />
		<tag k="ssr:stedsnr" v="313701" />
	</node>
	<node id="9625636922" lat="61.9448691" lon="8.0000844" version="1" timestamp="2022-03-31T06:08:51Z" changeset="119142720" uid="3497659" user="NKA">
		<tag k="alt_name" v="Heggebotn" />
		<tag k="name" v="Heggjebotn" />
		<tag k="place" v="hamlet" />
		<tag k="ssr:stedsnr" v="435565" />
	</node>
	<node id="9625636923" lat="61.8741611" lon="8.2742334" version="1" timestamp="2022-03-31T06:08:51Z" changeset="119142720" uid="3497659" user="NKA">
		<tag k="name" v="Skriu" />
		<tag k="place" v="isolated_dwelling" />
		<tag k="ssr:stedsnr" v="475124" />
	</node>
	<node id="9625636924" lat="61.8802722" lon="8.3323222" version="1" timestamp="2022-03-31T06:08:51Z" changeset="119142720" uid="3497659" user="NKA">
		<tag k="name" v="Bruberg" />
		<tag k="place" v="farm" />
		<tag k="ssr:stedsnr" v="475697" />
	</node>
	<node id="9625636925" lat="61.8836" lon="8.2359057" version="1" timestamp="2022-03-31T06:08:51Z" changeset="119142720" uid="3497659" user="NKA">
		<tag k="name" v="Øvre Roe" />
		<tag k="place" v="farm" />
		<tag k="ssr:stedsnr" v="475024" />
	</node>
	<node id="9625636926" lat="61.8704305" lon="8.4509806" version="1" timestamp="2022-03-31T06:08:51Z" changeset="119142720" uid="3497659" user="NKA">
		<tag k="name" v="Geilostrondi" />
		<tag k="place" v="hamlet" />
		<tag k="ssr:stedsnr" v="436797" />
	</node>
	<node id="9625636927" lat="61.8783909" lon="8.2874652" version="1" timestamp="2022-03-31T06:08:51Z" changeset="119142720" uid="3497659" user="NKA">
		<tag k="name" v="Eide" />
		<tag k="place" v="farm" />
		<tag k="ssr:stedsnr" v="374871" />
	</node>
	<node id="9625636928" lat="61.8698444" lon="8.3110027" version="1" timestamp="2022-03-31T06:08:51Z" changeset="119142720" uid="3497659" user="NKA">
		<tag k="alt_name" v="Godtland" />
		<tag k="name" v="Gotland" />
		<tag k="place" v="farm" />
		<tag k="ssr:stedsnr" v="435781" />
	</node>
	<node id="9625636929" lat="61.9109611" lon="7.8983612" version="1" timestamp="2022-03-31T06:08:51Z" changeset="119142720" uid="3497659" user="NKA">
		<tag k="alt_name" v="Nerjordete" />
		<tag k="name" v="Nerjordet" />
		<tag k="place" v="farm" />
		<tag k="ssr:stedsnr" v="313555" />
	</node>
	<node id="9625636930" lat="61.9177528" lon="8.1833528" version="1" timestamp="2022-03-31T06:08:51Z" changeset="119142720" uid="3497659" user="NKA">
		<tag k="alt_name" v="Veltsætre" />
		<tag k="historic" v="shieling" />
		<tag k="name" v="Veslesætri" />
		<tag k="place" v="isolated_dwelling" />
		<tag k="ssr:stedsnr" v="435708" />
	</node>
	<node id="9625636931" lat="61.920697" lon="8.1155918" version="1" timestamp="2022-03-31T06:08:51Z" changeset="119142720" uid="3497659" user="NKA">
		<tag k="loc_name" v="Gjøingslie" />
		<tag k="name" v="Gjøingslii" />
		<tag k="place" v="quarter" />
		<tag k="ssr:stedsnr" v="373689" />
	</node>
	<node id="9625636932" lat="61.9116056" lon="7.9209389" version="1" timestamp="2022-03-31T06:08:51Z" changeset="119142720" uid="3497659" user="NKA">
		<tag k="name" v="Plassen" />
		<tag k="place" v="farm" />
		<tag k="ssr:stedsnr" v="131528" />
	</node>
	<node id="9625636933" lat="61.9054222" lon="8.1919639" version="1" timestamp="2022-03-31T06:08:51Z" changeset="119142720" uid="3497659" user="NKA">
		<tag k="name" v="Hull" />
		<tag k="place" v="locality" />
		<tag k="ssr:stedsnr" v="354092" />
	</node>
	<node id="9625636934" lat="61.8831805" lon="8.3835" version="1" timestamp="2022-03-31T06:08:51Z" changeset="119142720" uid="3497659" user="NKA">
		<tag k="name" v="Kvåle" />
		<tag k="place" v="hamlet" />
		<tag k="ssr:stedsnr" v="434808" />
	</node>
	<node id="9625636935" lat="61.9111479" lon="8.0003618" version="1" timestamp="2022-03-31T06:08:51Z" changeset="119142720" uid="3497659" user="NKA">
		<tag k="alt_name" v="Søre Brenna" />
		<tag k="name" v="Brenna" />
		<tag k="place" v="farm" />
		<tag k="ssr:stedsnr" v="313693" />
	</node>
	<node id="9625636936" lat="61.8764889" lon="8.320736" version="1" timestamp="2022-03-31T06:08:51Z" changeset="119142720" uid="3497659" user="NKA">
		<tag k="name" v="Arnestugu" />
		<tag k="place" v="farm" />
		<tag k="ssr:stedsnr" v="253774" />
	</node>
	<node id="9625636937" lat="61.8315706" lon="8.2229902" version="1" timestamp="2022-03-31T06:08:51Z" changeset="119142720" uid="3497659" user="NKA">
		<tag k="alt_name" v="Lundadalssætri, heimste" />
		<tag k="historic" v="shieling" />
		<tag k="loc_name" v="Heimste Lundadalssætre" />
		<tag k="name" v="Heimaste Lundadalsætre" />
		<tag k="place" v="isolated_dwelling" />
		<tag k="ssr:stedsnr" v="496954" />
	</node>
	<node id="9625636938" lat="61.7981361" lon="8.1677918" version="1" timestamp="2022-03-31T06:08:51Z" changeset="119142720" uid="3497659" user="NKA">
		<tag k="alt_name" v="Lundadalssætri, ytste" />
		<tag k="historic" v="shieling" />
		<tag k="loc_name" v="Ytste Lundadalssætre" />
		<tag k="name" v="Yste Sætre" />
		<tag k="place" v="isolated_dwelling" />
		<tag k="ssr:stedsnr" v="921937" />
	</node>
	<node id="9625636939" lat="62.1013917" lon="7.9841862" version="1" timestamp="2022-03-31T06:08:51Z" changeset="119142720" uid="3497659" user="NKA">
		<tag k="name" v="Dørkamphytta" />
		<tag k="place" v="isolated_dwelling" />
		<tag k="ssr:stedsnr" v="330566" />
	</node>
	<node id="9625636940" lat="61.9099283" lon="7.8890363" version="1" timestamp="2022-03-31T06:08:51Z" changeset="119142720" uid="3497659" user="NKA">
		<tag k="name" v="Storbråtå" />
		<tag k="place" v="hamlet" />
		<tag k="ssr:stedsnr" v="984259" />
	</node>
	<node id="9625636941" lat="61.9114745" lon="7.9039371" version="1" timestamp="2022-03-31T06:08:51Z" changeset="119142720" uid="3497659" user="NKA">
		<tag k="alt_name" v="Bråtå" />
		<tag k="name" v="Bråtågrendi" />
		<tag k="place" v="quarter" />
		<tag k="ssr:stedsnr" v="920547" />
	</node>
	<node id="9625636942" lat="61.9788722" lon="7.8910918" version="1" timestamp="2022-03-31T06:08:51Z" changeset="119142720" uid="3497659" user="NKA">
		<tag k="name" v="Moserygg" />
		<tag k="place" v="isolated_dwelling" />
		<tag k="ssr:stedsnr" v="718854" />
	</node>
	<node id="9625636943" lat="61.9088194" lon="7.8809108" version="1" timestamp="2022-03-31T06:08:51Z" changeset="119142720" uid="3497659" user="NKA">
		<tag k="name" v="Slette" />
		<tag k="place" v="farm" />
		<tag k="ssr:stedsnr" v="677686" />
	</node>
	<node id="9625636944" lat="61.8252611" lon="7.9391362" version="1" timestamp="2022-03-31T06:08:51Z" changeset="119142720" uid="3497659" user="NKA">
		<tag k="historic" v="shieling" />
		<tag k="name" v="Gammelstulen" />
		<tag k="place" v="isolated_dwelling" />
		<tag k="ssr:stedsnr" v="677737" />
	</node>
	<node id="9625636945" lat="61.7472951" lon="7.9699636" version="1" timestamp="2022-03-31T06:08:51Z" changeset="119142720" uid="3497659" user="NKA">
		<tag k="name" v="Grisbui" />
		<tag k="place" v="locality" />
		<tag k="ssr:stedsnr" v="616384" />
	</node>
	<node id="9625636946" lat="61.9055556" lon="7.9378222" version="1" timestamp="2022-03-31T06:08:51Z" changeset="119142720" uid="3497659" user="NKA">
		<tag k="name" v="Sygardssætri" />
		<tag k="place" v="farm" />
		<tag k="ssr:stedsnr" v="616686" />
	</node>
	<node id="9625636947" lat="61.8922778" lon="8.2417749" version="1" timestamp="2022-03-31T06:08:51Z" changeset="119142720" uid="3497659" user="NKA">
		<tag k="name" v="Nystugu" />
		<tag k="place" v="farm" />
		<tag k="ssr:stedsnr" v="71834" />
	</node>
	<node id="9625636948" lat="61.9124757" lon="7.9473373" version="1" timestamp="2022-03-31T06:08:51Z" changeset="119142720" uid="3497659" user="NKA">
		<tag k="name" v="Frilund" />
		<tag k="place" v="farm" />
		<tag k="ssr:stedsnr" v="616533" />
	</node>
	<node id="9625636949" lat="61.8712166" lon="8.4280861" version="1" timestamp="2022-03-31T06:08:51Z" changeset="119142720" uid="3497659" user="NKA">
		<tag k="alt_name" v="Maurstadhagen" />
		<tag k="name" v="Maurstadhaugen" />
		<tag k="place" v="farm" />
		<tag k="ssr:stedsnr" v="71824" />
	</node>
	<node id="9625636950" lat="61.9115917" lon="7.9093138" version="1" timestamp="2022-03-31T06:08:51Z" changeset="119142720" uid="3497659" user="NKA">
		<tag k="name" v="Brekkom" />
		<tag k="place" v="farm" />
		<tag k="ssr:stedsnr" v="495550" />
	</node>
	<node id="9625636951" lat="61.8786306" lon="8.2951139" version="1" timestamp="2022-03-31T06:08:51Z" changeset="119142720" uid="3497659" user="NKA">
		<tag k="name" v="Solhaug" />
		<tag k="place" v="farm" />
		<tag k="ssr:stedsnr" v="71874" />
	</node>
	<node id="9625636952" lat="61.8685389" lon="8.2769695" version="1" timestamp="2022-03-31T06:08:51Z" changeset="119142720" uid="3497659" user="NKA">
		<tag k="name" v="Asplund" />
		<tag k="place" v="farm" />
		<tag k="ssr:stedsnr" v="71827" />
	</node>
	<node id="9625636953" lat="61.9123754" lon="7.9063121" version="1" timestamp="2022-03-31T06:08:51Z" changeset="119142720" uid="3497659" user="NKA">
		<tag k="alt_name" v="Rusti" />
		<tag k="name" v="Ruste" />
		<tag k="place" v="farm" />
		<tag k="ssr:stedsnr" v="859526" />
	</node>
	<node id="9625636954" lat="61.8702722" lon="8.2920529" version="1" timestamp="2022-03-31T06:08:51Z" changeset="119142720" uid="3497659" user="NKA">
		<tag k="alt_name" v="Rakstad" />
		<tag k="name" v="Rakkstad" />
		<tag k="place" v="farm" />
		<tag k="ssr:stedsnr" v="71790" />
	</node>
	<node id="9625636955" lat="61.8674361" lon="8.305325" version="1" timestamp="2022-03-31T06:08:51Z" changeset="119142720" uid="3497659" user="NKA">
		<tag k="name" v="Andersbakken" />
		<tag k="place" v="farm" />
		<tag k="ssr:stedsnr" v="11791" />
	</node>
	<node id="9625636956" lat="61.8757528" lon="8.3766194" version="1" timestamp="2022-03-31T06:08:51Z" changeset="119142720" uid="3497659" user="NKA">
		<tag k="name" v="Nigard Dagsgard" />
		<tag k="place" v="farm" />
		<tag k="ssr:stedsnr" v="51148" />
	</node>
	<node id="9625636957" lat="61.8781278" lon="8.2991389" version="1" timestamp="2022-03-31T06:08:51Z" changeset="119142720" uid="3497659" user="NKA">
		<tag k="name" v="Barlii" />
		<tag k="place" v="farm" />
		<tag k="ssr:stedsnr" v="10861" />
	</node>
	<node id="9625636958" lat="61.8934352" lon="8.2566118" version="1" timestamp="2022-03-31T06:08:51Z" changeset="119142720" uid="3497659" user="NKA">
		<tag k="alt_name" v="Skamsar, neristugu" />
		<tag k="name" v="Nurdgard Skamsar" />
		<tag k="place" v="farm" />
		<tag k="ssr:stedsnr" v="10885" />
	</node>
	<node id="9625636959" lat="61.9093861" lon="7.90775" version="1" timestamp="2022-03-31T06:08:51Z" changeset="119142720" uid="3497659" user="NKA">
		<tag k="name" v="Hellflaten" />
		<tag k="place" v="isolated_dwelling" />
		<tag k="ssr:stedsnr" v="475310" />
	</node>
	<node id="9625636960" lat="61.8869368" lon="8.3172167" version="1" timestamp="2022-03-31T06:08:51Z" changeset="119142720" uid="3497659" user="NKA">
		<tag k="name" v="Holmork" />
		<tag k="place" v="farm" />
		<tag k="ssr:stedsnr" v="10878" />
	</node>
	<node id="9625636961" lat="61.8976446" lon="8.2418026" version="1" timestamp="2022-03-31T06:08:51Z" changeset="119142720" uid="3497659" user="NKA">
		<tag k="name" v="Flåten" />
		<tag k="place" v="farm" />
		<tag k="ssr:stedsnr" v="10828" />
	</node>
	<node id="9625636962" lat="61.913075" lon="7.9537445" version="1" timestamp="2022-03-31T06:08:51Z" changeset="119142720" uid="3497659" user="NKA">
		<tag k="name" v="Stulen" />
		<tag k="place" v="farm" />
		<tag k="ssr:stedsnr" v="354305" />
	</node>
	<node id="9625636963" lat="61.8799055" lon="8.2911139" version="1" timestamp="2022-03-31T06:08:51Z" changeset="119142720" uid="3497659" user="NKA">
		<tag k="name" v="Lundamoen" />
		<tag k="place" v="farm" />
		<tag k="ssr:stedsnr" v="860876" />
	</node>
	<node id="9625636964" lat="61.8917214" lon="8.2553181" version="1" timestamp="2022-03-31T06:08:51Z" changeset="119142720" uid="3497659" user="NKA">
		<tag k="alt_name" v="Skamsar, oppistugu" />
		<tag k="name" v="Uppistun Skamsar" />
		<tag k="place" v="farm" />
		<tag k="ssr:stedsnr" v="860894" />
	</node>
	<node id="9625636965" lat="61.9124917" lon="8.0603223" version="1" timestamp="2022-03-31T06:08:51Z" changeset="119142720" uid="3497659" user="NKA">
		<tag k="name" v="Nørdre Åmot" />
		<tag k="old_name" v="Nødre Åmot" />
		<tag k="place" v="farm" />
		<tag k="ssr:stedsnr" v="900416" />
	</node>
	<node id="9625636966" lat="61.9158528" lon="8.070564" version="1" timestamp="2022-03-31T06:08:51Z" changeset="119142720" uid="3497659" user="NKA">
		<tag k="name" v="Nedre Åmot" />
		<tag k="place" v="farm" />
		<tag k="ssr:stedsnr" v="839473" />
	</node>
	<node id="9625636967" lat="61.8826583" lon="8.2843721" version="1" timestamp="2022-03-31T06:08:51Z" changeset="119142720" uid="3497659" user="NKA">
		<tag k="alt_name" v="Forberget" />
		<tag k="name" v="Nurdgard Forberg" />
		<tag k="place" v="farm" />
		<tag k="ssr:stedsnr" v="860874" />
	</node>
	<node id="9625636968" lat="61.8835278" lon="8.2455862" version="1" timestamp="2022-03-31T06:08:51Z" changeset="119142720" uid="3497659" user="NKA">
		<tag k="alt_name" v="Teigom, nordre" />
		<tag k="name" v="Nørdre Teigom" />
		<tag k="place" v="farm" />
		<tag k="ssr:stedsnr" v="860880" />
	</node>
	<node id="9625636969" lat="61.9093111" lon="8.0712973" version="1" timestamp="2022-03-31T06:08:51Z" changeset="119142720" uid="3497659" user="NKA">
		<tag k="name" v="Myrvoll" />
		<tag k="place" v="farm" />
		<tag k="ssr:stedsnr" v="677697" />
	</node>
	<node id="9625636970" lat="61.9012334" lon="8.1968111" version="1" timestamp="2022-03-31T06:08:51Z" changeset="119142720" uid="3497659" user="NKA">
		<tag k="name" v="Furulund" />
		<tag k="place" v="farm" />
		<tag k="ssr:stedsnr" v="799843" />
	</node>
	<node id="9625636971" lat="61.8860293" lon="8.3343823" version="1" timestamp="2022-03-31T06:08:51Z" changeset="119142720" uid="3497659" user="NKA">
		<tag k="alt_name" v="Auale" />
		<tag k="name" v="Aualed" />
		<tag k="place" v="farm" />
		<tag k="ssr:stedsnr" v="798813" />
	</node>
	<node id="9625636972" lat="61.9138071" lon="8.0106854" version="1" timestamp="2022-03-31T06:08:51Z" changeset="119142720" uid="3497659" user="NKA">
		<tag k="alt_name" v="Våttanese" />
		<tag k="name" v="Våtaneset" />
		<tag k="place" v="farm" />
		<tag k="ssr:stedsnr" v="677532" />
	</node>
	<node id="9625636973" lat="61.8536416" lon="7.9953084" version="1" timestamp="2022-03-31T06:08:51Z" changeset="119142720" uid="3497659" user="NKA">
		<tag k="alt_name" v="Tundradalssætri" />
		<tag k="historic" v="shieling" />
		<tag k="name" v="Tundradalsætre" />
		<tag k="old_name" v="Tundradalssætre" />
		<tag k="place" v="hamlet" />
		<tag k="ssr:stedsnr" v="616731" />
	</node>
	<node id="9625636974" lat="61.9082389" lon="7.9799779" version="1" timestamp="2022-03-31T06:08:51Z" changeset="119142720" uid="3497659" user="NKA">
		<tag k="name" v="Brandsarøygarden" />
		<tag k="place" v="farm" />
		<tag k="ssr:stedsnr" v="677684" />
	</node>
	<node id="9625636975" lat="61.8812973" lon="8.4732279" version="1" timestamp="2022-03-31T06:08:51Z" changeset="119142720" uid="3497659" user="NKA">
		<tag k="alt_name" v="Skrinde, nordre;Nordre Skrinde" />
		<tag k="name" v="Nurdgard Skrinde" />
		<tag k="place" v="farm" />
		<tag k="ssr:stedsnr" v="192923" />
	</node>
	<node id="9625636976" lat="61.8681028" lon="8.4525362" version="1" timestamp="2022-03-31T06:08:51Z" changeset="119142720" uid="3497659" user="NKA">
		<tag k="name" v="Prestjordshaugen" />
		<tag k="place" v="farm" />
		<tag k="ssr:stedsnr" v="193787" />
	</node>
	<node id="9625636977" lat="61.9190444" lon="8.1056472" version="1" timestamp="2022-03-31T06:08:51Z" changeset="119142720" uid="3497659" user="NKA">
		<tag k="alt_name" v="Faillingje;Follingen" />
		<tag k="name" v="Fallingen" />
		<tag k="place" v="farm" />
		<tag k="ssr:stedsnr" v="616665" />
	</node>
	<node id="9625636978" lat="61.90845" lon="8.0659999" version="1" timestamp="2022-03-31T06:08:51Z" changeset="119142720" uid="3497659" user="NKA">
		<tag k="alt_name" v="Tundrali" />
		<tag k="name" v="Tundralii" />
		<tag k="place" v="farm" />
		<tag k="ssr:stedsnr" v="616695" />
	</node>
	<node id="9625636979" lat="61.874125" lon="8.3117889" version="1" timestamp="2022-03-31T06:08:51Z" changeset="119142720" uid="3497659" user="NKA">
		<tag k="name" v="Øyom" />
		<tag k="place" v="farm" />
		<tag k="ssr:stedsnr" v="192776" />
	</node>
	<node id="9625636980" lat="61.8851305" lon="8.3639357" version="1" timestamp="2022-03-31T06:08:51Z" changeset="119142720" uid="3497659" user="NKA">
		<tag k="name" v="Sperstad" />
		<tag k="place" v="hamlet" />
		<tag k="ssr:stedsnr" v="192880" />
	</node>
	<node id="9625636981" lat="61.9431584" lon="7.9983806" version="1" timestamp="2022-03-31T06:08:51Z" changeset="119142720" uid="3497659" user="NKA">
		<tag k="name" v="Fosstugu" />
		<tag k="place" v="isolated_dwelling" />
		<tag k="ssr:stedsnr" v="495513" />
	</node>
	<node id="9625636982" lat="61.8816187" lon="8.4479672" version="1" timestamp="2022-03-31T06:08:51Z" changeset="119142720" uid="3497659" user="NKA">
		<tag k="alt_name" v="Bøye" />
		<tag k="name" v="Uppigard Bøje" />
		<tag k="place" v="farm" />
		<tag k="ssr:stedsnr" v="192789" />
	</node>
	<node id="9625636983" lat="61.9513056" lon="8.0297639" version="1" timestamp="2022-03-31T06:08:51Z" changeset="119142720" uid="3497659" user="NKA">
		<tag k="alt_name" v="Heggjebottsætre" />
		<tag k="historic" v="shieling" />
		<tag k="name" v="Heggebottsætri" />
		<tag k="place" v="isolated_dwelling" />
		<tag k="ssr:stedsnr" v="495532" />
	</node>
	<node id="9625636984" lat="61.8943139" lon="8.3618056" version="1" timestamp="2022-03-31T06:08:51Z" changeset="119142720" uid="3497659" user="NKA">
		<tag k="alt_name" v="Bliken" />
		<tag k="name" v="Søre Blikka" />
		<tag k="place" v="farm" />
		<tag k="ssr:stedsnr" v="860883" />
	</node>
	<node id="9625636985" lat="61.8739532" lon="8.4440336" version="1" timestamp="2022-03-31T06:08:51Z" changeset="119142720" uid="3497659" user="NKA">
		<tag k="alt_name" v="Gjeilo" />
		<tag k="name" v="Geilo" />
		<tag k="place" v="farm" />
		<tag k="ssr:stedsnr" v="657940" />
	</node>
	<node id="9625636986" lat="61.9173277" lon="8.1090168" version="1" timestamp="2022-03-31T06:08:51Z" changeset="119142720" uid="3497659" user="NKA">
		<tag k="name" v="Olstad" />
		<tag k="place" v="farm" />
		<tag k="ssr:stedsnr" v="373679" />
	</node>
	<node id="9625636987" lat="61.8752556" lon="8.4230917" version="1" timestamp="2022-03-31T06:08:51Z" changeset="119142720" uid="3497659" user="NKA">
		<tag k="name" v="Nedre Soglo" />
		<tag k="place" v="farm" />
		<tag k="ssr:stedsnr" v="657938" />
	</node>
	<node id="9625636988" lat="61.9234695" lon="8.1110917" version="1" timestamp="2022-03-31T06:08:51Z" changeset="119142720" uid="3497659" user="NKA">
		<tag k="alt_name" v="Lesplassen" />
		<tag k="name" v="Lessplassen" />
		<tag k="place" v="farm" />
		<tag k="ssr:stedsnr" v="252628" />
	</node>
	<node id="9625636989" lat="61.9205213" lon="8.0610462" version="1" timestamp="2022-03-31T06:08:51Z" changeset="119142720" uid="3497659" user="NKA">
		<tag k="name" v="Øyberget" />
		<tag k="place" v="farm" />
		<tag k="ssr:stedsnr" v="192583" />
	</node>
	<node id="9625636990" lat="61.9085556" lon="8.00235" version="1" timestamp="2022-03-31T06:08:51Z" changeset="119142720" uid="3497659" user="NKA">
		<tag k="alt_name" v="Bue" />
		<tag k="name" v="Bui" />
		<tag k="place" v="farm" />
		<tag k="ssr:stedsnr" v="252669" />
	</node>
	<node id="9625636991" lat="61.8837223" lon="8.4117112" version="1" timestamp="2022-03-31T06:08:51Z" changeset="119142720" uid="3497659" user="NKA">
		<tag k="alt_name" v="Ramstad nordistuen" />
		<tag k="name" v="Med-Ramstad" />
		<tag k="place" v="farm" />
		<tag k="ssr:stedsnr" v="718535" />
	</node>
	<node id="9625636992" lat="61.9112" lon="8.0762277" version="1" timestamp="2022-03-31T06:08:51Z" changeset="119142720" uid="3497659" user="NKA">
		<tag k="name" v="Nordheim" />
		<tag k="place" v="farm" />
		<tag k="ssr:stedsnr" v="495710" />
	</node>
	<node id="9625636993" lat="61.8975083" lon="8.2442833" version="1" timestamp="2022-03-31T06:08:51Z" changeset="119142720" uid="3497659" user="NKA">
		<tag k="name" v="Velt-Harsheim" />
		<tag k="place" v="farm" />
		<tag k="ssr:stedsnr" v="718039" />
	</node>
	<node id="9625636994" lat="61.8769477" lon="8.3709266" version="1" timestamp="2022-03-31T06:08:51Z" changeset="119142720" uid="3497659" user="NKA">
		<tag k="name" v="Nigard Skjåk" />
		<tag k="place" v="farm" />
		<tag k="ssr:stedsnr" v="840144" />
	</node>
	<node id="9625636995" lat="61.8733472" lon="8.3164083" version="1" timestamp="2022-03-31T06:08:51Z" changeset="119142720" uid="3497659" user="NKA">
		<tag k="name" v="Søre Haugen" />
		<tag k="place" v="farm" />
		<tag k="ssr:stedsnr" v="718141" />
	</node>
	<node id="9625636996" lat="62.0638361" lon="7.9961028" version="1" timestamp="2022-03-31T06:08:51Z" changeset="119142720" uid="3497659" user="NKA">
		<tag k="name" v="Skarvedalshytta" />
		<tag k="place" v="isolated_dwelling" />
		<tag k="ssr:stedsnr" v="938572" />
	</node>
	<node id="9625636997" lat="61.8838028" lon="8.4333862" version="1" timestamp="2022-03-31T06:08:51Z" changeset="119142720" uid="3497659" user="NKA">
		<tag k="name" v="Nedre Hove" />
		<tag k="place" v="farm" />
		<tag k="ssr:stedsnr" v="839637" />
	</node>
	<node id="9625636998" lat="61.8815198" lon="8.3682294" version="1" timestamp="2022-03-31T06:08:51Z" changeset="119142720" uid="3497659" user="NKA">
		<tag k="name" v="Tråstad" />
		<tag k="place" v="farm" />
		<tag k="ssr:stedsnr" v="984206" />
	</node>
	<node id="9625636999" lat="61.8712873" lon="8.5020458" version="1" timestamp="2022-03-31T06:08:51Z" changeset="119142720" uid="3497659" user="NKA">
		<tag k="name" v="Nørdre Bakken" />
		<tag k="old_name" v="Nedre Bakken" />
		<tag k="place" v="farm" />
		<tag k="ssr:stedsnr" v="839781" />
	</node>
	<node id="9625637000" lat="61.8877417" lon="8.338889" version="1" timestamp="2022-03-31T06:08:51Z" changeset="119142720" uid="3497659" user="NKA">
		<tag k="name" v="Søre Tofte" />
		<tag k="place" v="farm" />
		<tag k="ssr:stedsnr" v="657680" />
	</node>
	<node id="9625637001" lat="61.87358" lon="8.3932763" version="1" timestamp="2022-03-31T06:08:51Z" changeset="119142720" uid="3497659" user="NKA">
		<tag k="name" v="Marlosøygarden" />
		<tag k="place" v="farm" />
		<tag k="ssr:stedsnr" v="496810" />
	</node>
	<node id="9625637002" lat="61.8835306" lon="8.2977168" version="1" timestamp="2022-03-31T06:08:51Z" changeset="119142720" uid="3497659" user="NKA">
		<tag k="name" v="Nurdstun Forberg" />
		<tag k="place" v="farm" />
		<tag k="ssr:stedsnr" v="657672" />
	</node>
	<node id="9625637003" lat="61.9128306" lon="7.9800084" version="1" timestamp="2022-03-31T06:08:51Z" changeset="119142720" uid="3497659" user="NKA">
		<tag k="name" v="Brennskogen" />
		<tag k="place" v="farm" />
		<tag k="ssr:stedsnr" v="555491" />
	</node>
	<node id="9625637004" lat="61.8885409" lon="8.244616" version="1" timestamp="2022-03-31T06:08:51Z" changeset="119142720" uid="3497659" user="NKA">
		<tag k="alt_name" v="Formo" />
		<tag k="name" v="Formoen" />
		<tag k="place" v="farm" />
		<tag k="ssr:stedsnr" v="657024" />
	</node>
	<node id="9625637005" lat="61.8854139" lon="8.3132639" version="1" timestamp="2022-03-31T06:08:51Z" changeset="119142720" uid="3497659" user="NKA">
		<tag k="name" v="Systun Hole" />
		<tag k="place" v="farm" />
		<tag k="ssr:stedsnr" v="415770" />
	</node>
	<node id="9625637006" lat="61.8844778" lon="8.3710306" version="1" timestamp="2022-03-31T06:08:51Z" changeset="119142720" uid="3497659" user="NKA">
		<tag k="name" v="Reppen" />
		<tag k="place" v="quarter" />
		<tag k="ssr:stedsnr" v="555830" />
	</node>
	<node id="9625637007" lat="61.8822077" lon="8.3255646" version="1" timestamp="2022-03-31T06:08:51Z" changeset="119142720" uid="3497659" user="NKA">
		<tag k="name" v="Huse" />
		<tag k="place" v="farm" />
		<tag k="ssr:stedsnr" v="415760" />
	</node>
	<node id="9625637008" lat="61.8858528" lon="8.3104083" version="1" timestamp="2022-03-31T06:08:51Z" changeset="119142720" uid="3497659" user="NKA">
		<tag k="name" v="Nurdstun Hole" />
		<tag k="place" v="farm" />
		<tag k="ssr:stedsnr" v="415771" />
	</node>
	<node id="9625637009" lat="61.8964556" lon="8.2100889" version="1" timestamp="2022-03-31T06:08:51Z" changeset="119142720" uid="3497659" user="NKA">
		<tag k="name" v="Nigard Flækøy" />
		<tag k="place" v="farm" />
		<tag k="ssr:stedsnr" v="415042" />
	</node>
	<node id="9625637010" lat="61.8918865" lon="8.3653944" version="1" timestamp="2022-03-31T06:08:51Z" changeset="119142720" uid="3497659" user="NKA">
		<tag k="name" v="Ramen" />
		<tag k="place" v="locality" />
		<tag k="ssr:stedsnr" v="415762" />
	</node>
	<node id="9625637011" lat="61.8756" lon="8.3794889" version="1" timestamp="2022-03-31T06:08:51Z" changeset="119142720" uid="3497659" user="NKA">
		<tag k="name" v="Uppigard Dagsgard" />
		<tag k="place" v="farm" />
		<tag k="ssr:stedsnr" v="536144" />
	</node>
	<node id="9625637012" lat="61.885891" lon="8.2685245" version="1" timestamp="2022-03-31T06:08:51Z" changeset="119142720" uid="3497659" user="NKA">
		<tag k="name" v="Berger" />
		<tag k="place" v="farm" />
		<tag k="ssr:stedsnr" v="536740" />
	</node>
	<node id="9625637013" lat="61.8552361" lon="8.4443501" version="1" timestamp="2022-03-31T06:08:51Z" changeset="119142720" uid="3497659" user="NKA">
		<tag k="name" v="Sandåhytta" />
		<tag k="place" v="isolated_dwelling" />
		<tag k="ssr:stedsnr" v="374800" />
	</node>
	<node id="9625637014" lat="61.8781861" lon="8.3242111" version="1" timestamp="2022-03-31T06:08:51Z" changeset="119142720" uid="3497659" user="NKA">
		<tag k="name" v="Brennhaugen" />
		<tag k="place" v="farm" />
		<tag k="ssr:stedsnr" v="536142" />
	</node>
	<node id="9625637015" lat="61.8792318" lon="8.4616367" version="1" timestamp="2022-03-31T06:08:51Z" changeset="119142720" uid="3497659" user="NKA">
		<tag k="alt_name" v="Gupphågåyn" />
		<tag k="name" v="Guphågå" />
		<tag k="place" v="farm" />
		<tag k="ssr:stedsnr" v="434726" />
	</node>
	<node id="9625637016" lat="61.8984243" lon="8.2040556" version="1" timestamp="2022-03-31T06:08:51Z" changeset="119142720" uid="3497659" user="NKA">
		<tag k="name" v="Forbergsøygarden" />
		<tag k="place" v="farm" />
		<tag k="ssr:stedsnr" v="901045" />
	</node>
	<node id="9625637017" lat="61.8858944" lon="8.4518889" version="1" timestamp="2022-03-31T06:08:51Z" changeset="119142720" uid="3497659" user="NKA">
		<tag k="name" v="Steinstugu" />
		<tag k="place" v="farm" />
		<tag k="ssr:stedsnr" v="354628" />
	</node>
	<node id="9625637018" lat="61.8875695" lon="8.3375972" version="1" timestamp="2022-03-31T06:08:51Z" changeset="119142720" uid="3497659" user="NKA">
		<tag k="name" v="Nørdre Tofte" />
		<tag k="place" v="farm" />
		<tag k="ssr:stedsnr" v="294730" />
	</node>
	<node id="9625637019" lat="61.8884388" lon="8.3664778" version="1" timestamp="2022-03-31T06:08:51Z" changeset="119142720" uid="3497659" user="NKA">
		<tag k="name" v="Nørdre Hosar" />
		<tag k="place" v="farm" />
		<tag k="ssr:stedsnr" v="354716" />
	</node>
	<node id="9625637020" lat="61.8861562" lon="8.4471473" version="1" timestamp="2022-03-31T06:08:51Z" changeset="119142720" uid="3497659" user="NKA">
		<tag k="name" v="Bøjetræede" />
		<tag k="place" v="farm" />
		<tag k="ssr:stedsnr" v="232544" />
	</node>
	<node id="9625637021" lat="61.8698945" lon="8.3907029" version="1" timestamp="2022-03-31T06:08:51Z" changeset="119142720" uid="3497659" user="NKA">
		<tag k="name" v="Øvre Grøvelstad" />
		<tag k="place" v="isolated_dwelling" />
		<tag k="ssr:stedsnr" v="293948" />
	</node>
	<node id="9625637022" lat="61.9029889" lon="8.1681612" version="1" timestamp="2022-03-31T06:08:51Z" changeset="119142720" uid="3497659" user="NKA">
		<tag k="alt_name" v="Åbue" />
		<tag k="name" v="Åbui" />
		<tag k="place" v="farm" />
		<tag k="ssr:stedsnr" v="799845" />
	</node>
	<node id="9625637023" lat="61.8745611" lon="8.4895416" version="1" timestamp="2022-03-31T06:08:51Z" changeset="119142720" uid="3497659" user="NKA">
		<tag k="name" v="Bosma" />
		<tag k="place" v="farm" />
		<tag k="ssr:stedsnr" v="253094" />
	</node>
	<node id="9625637024" lat="61.875275" lon="8.396814" version="1" timestamp="2022-03-31T06:08:51Z" changeset="119142720" uid="3497659" user="NKA">
		<tag k="alt_name" v="Bersrudstrondi" />
		<tag k="name" v="Bergsrudstrondi" />
		<tag k="place" v="hamlet" />
		<tag k="ssr:stedsnr" v="132812" />
	</node>
	<node id="9625637025" lat="61.8759345" lon="8.4080026" version="1" timestamp="2022-03-31T06:08:51Z" changeset="119142720" uid="3497659" user="NKA">
		<tag k="alt_name" v="Odden, s;Odden, søre" />
		<tag k="name" v="Søre Odden" />
		<tag k="place" v="farm" />
		<tag k="ssr:stedsnr" v="132806" />
	</node>
	<node id="9625637026" lat="61.8729741" lon="8.4001187" version="1" timestamp="2022-03-31T06:08:51Z" changeset="119142720" uid="3497659" user="NKA">
		<tag k="alt_name" v="Bersrud;Bersu" />
		<tag k="name" v="Bergsrud" />
		<tag k="old_name" v="Bersø;Berud" />
		<tag k="place" v="farm" />
		<tag k="ssr:stedsnr" v="176795" />
	</node>
	<node id="9625637027" lat="61.888874" lon="8.3445824" version="1" timestamp="2022-03-31T06:08:51Z" changeset="119142720" uid="3497659" user="NKA">
		<tag k="name" v="Kvålheim" />
		<tag k="place" v="farm" />
		<tag k="ssr:stedsnr" v="131912" />
	</node>
	<node id="9625637028" lat="61.8869667" lon="8.3589111" version="1" timestamp="2022-03-31T06:08:51Z" changeset="119142720" uid="3497659" user="NKA">
		<tag k="name" v="Sygard Grimstad" />
		<tag k="place" v="farm" />
		<tag k="ssr:stedsnr" v="131909" />
	</node>
	<node id="9625637029" lat="61.8847016" lon="8.4205404" version="1" timestamp="2022-03-31T06:08:51Z" changeset="119142720" uid="3497659" user="NKA">
		<tag k="name" v="Vange" />
		<tag k="place" v="farm" />
		<tag k="ssr:stedsnr" v="131802" />
	</node>
	<node id="9625637030" lat="61.9063972" lon="8.1826889" version="1" timestamp="2022-03-31T06:08:51Z" changeset="119142720" uid="3497659" user="NKA">
		<tag k="name" v="Bøyeige" />
		<tag k="place" v="locality" />
		<tag k="ssr:stedsnr" v="677843" />
	</node>
	<node id="9625637031" lat="61.8882083" lon="8.3786111" version="1" timestamp="2022-03-31T06:08:51Z" changeset="119142720" uid="3497659" user="NKA">
		<tag k="name" v="Brandsarbakken" />
		<tag k="place" v="farm" />
		<tag k="ssr:stedsnr" v="112711" />
	</node>
	<node id="9625637032" lat="61.9045694" lon="8.1420084" version="1" timestamp="2022-03-31T06:08:51Z" changeset="119142720" uid="3497659" user="NKA">
		<tag k="alt_name" v="Åbui, nedre" />
		<tag k="name" v="Nedre Åbue" />
		<tag k="place" v="farm" />
		<tag k="ssr:stedsnr" v="677846" />
	</node>
	<node id="9625637033" lat="61.882725" lon="8.3845834" version="1" timestamp="2022-03-31T06:08:51Z" changeset="119142720" uid="3497659" user="NKA">
		<tag k="name" v="Sygard Kvåle" />
		<tag k="place" v="farm" />
		<tag k="ssr:stedsnr" v="112568" />
	</node>
	<node id="9625637034" lat="61.8838361" lon="8.3792027" version="1" timestamp="2022-03-31T06:08:51Z" changeset="119142720" uid="3497659" user="NKA">
		<tag k="name" v="Søre Brandsar" />
		<tag k="place" v="farm" />
		<tag k="ssr:stedsnr" v="112556" />
	</node>
	<node id="9625637035" lat="61.9146305" lon="8.1431333" version="1" timestamp="2022-03-31T06:08:51Z" changeset="119142720" uid="3497659" user="NKA">
		<tag k="name" v="Langleitsgrendi" />
		<tag k="place" v="hamlet" />
		<tag k="ssr:stedsnr" v="677666" />
	</node>
	<node id="9625637036" lat="61.9049528" lon="8.1975389" version="1" timestamp="2022-03-31T06:08:51Z" changeset="119142720" uid="3497659" user="NKA">
		<tag k="name" v="Skogset" />
		<tag k="place" v="farm" />
		<tag k="ssr:stedsnr" v="555816" />
	</node>
	<node id="9625637037" lat="61.8797281" lon="8.3262197" version="1" timestamp="2022-03-31T06:08:51Z" changeset="119142720" uid="3497659" user="NKA">
		<tag k="name" v="Smedsmoen" />
		<tag k="place" v="farm" />
		<tag k="ssr:stedsnr" v="172757" />
	</node>
	<node id="9625637038" lat="61.8760305" lon="8.3834416" version="1" timestamp="2022-03-31T06:08:51Z" changeset="119142720" uid="3497659" user="NKA">
		<tag k="name" v="Nurdgard Ånstad" />
		<tag k="place" v="farm" />
		<tag k="ssr:stedsnr" v="112171" />
	</node>
	<node id="9625637039" lat="61.8879694" lon="8.3540612" version="1" timestamp="2022-03-31T06:08:51Z" changeset="119142720" uid="3497659" user="NKA">
		<tag k="name" v="Luskvee" />
		<tag k="place" v="locality" />
		<tag k="ssr:stedsnr" v="172763" />
	</node>
	<node id="9625637040" lat="61.9118639" lon="8.1362388" version="1" timestamp="2022-03-31T06:08:51Z" changeset="119142720" uid="3497659" user="NKA">
		<tag k="alt_name" v="Fel-øydden" />
		<tag k="name" v="Felodden" />
		<tag k="place" v="farm" />
		<tag k="ssr:stedsnr" v="495693" />
	</node>
	<node id="9625637041" lat="61.8857223" lon="8.3379972" version="1" timestamp="2022-03-31T06:08:51Z" changeset="119142720" uid="3497659" user="NKA">
		<tag k="name" v="Øvre Øygarden" />
		<tag k="place" v="farm" />
		<tag k="ssr:stedsnr" v="172755" />
	</node>
	<node id="9625637042" lat="61.9075944" lon="8.1730223" version="1" timestamp="2022-03-31T06:08:51Z" changeset="119142720" uid="3497659" user="NKA">
		<tag k="alt_name" v="Langleite" />
		<tag k="name" v="Megarden Langleitet" />
		<tag k="place" v="farm" />
		<tag k="ssr:stedsnr" v="435863" />
	</node>
	<node id="9625637043" lat="61.8716472" lon="8.4495416" version="1" timestamp="2022-03-31T06:08:51Z" changeset="119142720" uid="3497659" user="NKA">
		<tag k="name" v="Søre Gjeilo" />
		<tag k="place" v="farm" />
		<tag k="ssr:stedsnr" v="111955" />
	</node>
	<node id="9625637044" lat="61.8837416" lon="8.4281972" version="1" timestamp="2022-03-31T06:08:51Z" changeset="119142720" uid="3497659" user="NKA">
		<tag k="name" v="Øvre Hove" />
		<tag k="place" v="farm" />
		<tag k="ssr:stedsnr" v="171656" />
	</node>
	<node id="9625637045" lat="61.9013778" lon="8.1709416" version="1" timestamp="2022-03-31T06:08:51Z" changeset="119142720" uid="3497659" user="NKA">
		<tag k="name" v="Austin" />
		<tag k="place" v="farm" />
		<tag k="ssr:stedsnr" v="131870" />
	</node>
	<node id="9625637046" lat="61.8841028" lon="8.3975247" version="1" timestamp="2022-03-31T06:08:51Z" changeset="119142720" uid="3497659" user="NKA">
		<tag k="alt_name" v="Håndsnar" />
		<tag k="name" v="Hånsnar" />
		<tag k="place" v="farm" />
		<tag k="ssr:stedsnr" v="70768" />
	</node>
	<node id="9625637047" lat="61.8757167" lon="8.375325" version="1" timestamp="2022-03-31T06:08:51Z" changeset="119142720" uid="3497659" user="NKA">
		<tag k="name" v="Søre Prestgard" />
		<tag k="place" v="farm" />
		<tag k="ssr:stedsnr" v="172130" />
	</node>
	<node id="9625637048" lat="61.9089444" lon="8.1309166" version="1" timestamp="2022-03-31T06:08:51Z" changeset="119142720" uid="3497659" user="NKA">
		<tag k="name" v="Myrvang" />
		<tag k="place" v="farm" />
		<tag k="ssr:stedsnr" v="131697" />
	</node>
	<node id="9625637049" lat="61.885075" lon="8.3894501" version="1" timestamp="2022-03-31T06:08:51Z" changeset="119142720" uid="3497659" user="NKA">
		<tag k="alt_name" v="Urde" />
		<tag k="name" v="Urdi" />
		<tag k="place" v="farm" />
		<tag k="ssr:stedsnr" v="70769" />
	</node>
	<node id="9625637050" lat="61.874375" lon="8.4278222" version="1" timestamp="2022-03-31T06:08:51Z" changeset="119142720" uid="3497659" user="NKA">
		<tag k="name" v="Hosarøygarden" />
		<tag k="place" v="farm" />
		<tag k="ssr:stedsnr" v="11806" />
	</node>
	<node id="9625637051" lat="61.8841861" lon="8.4158001" version="1" timestamp="2022-03-31T06:08:51Z" changeset="119142720" uid="3497659" user="NKA">
		<tag k="name" v="Nørdre Bustad" />
		<tag k="place" v="farm" />
		<tag k="ssr:stedsnr" v="171532" />
	</node>
	<node id="9625637052" lat="61.8985492" lon="8.1993558" version="1" timestamp="2022-03-31T06:08:51Z" changeset="119142720" uid="3497659" user="NKA">
		<tag k="loc_name" v="Eisar" />
		<tag k="name" v="Eiesar" />
		<tag k="place" v="farm" />
		<tag k="ssr:stedsnr" v="363300" />
	</node>
	<node id="9625637053" lat="61.8869371" lon="8.3772239" version="1" timestamp="2022-03-31T06:08:51Z" changeset="119142720" uid="3497659" user="NKA">
		<tag k="name" v="Teigen" />
		<tag k="place" v="farm" />
		<tag k="ssr:stedsnr" v="51731" />
	</node>
	<node id="9625637054" lat="61.8826248" lon="8.2483743" version="1" timestamp="2022-03-31T06:08:51Z" changeset="119142720" uid="3497659" user="NKA">
		<tag k="name" v="Teigom" />
		<tag k="place" v="farm" />
		<tag k="ssr:stedsnr" v="984253" />
	</node>
	<node id="9625637055" lat="61.8990526" lon="8.2385809" version="1" timestamp="2022-03-31T06:08:51Z" changeset="119142720" uid="3497659" user="NKA">
		<tag k="alt_name" v="Jemnem" />
		<tag k="name" v="Jevnheim" />
		<tag k="place" v="hamlet" />
		<tag k="ssr:stedsnr" v="984281" />
	</node>
	<node id="9625637056" lat="61.8828861" lon="8.4402667" version="1" timestamp="2022-03-31T06:08:51Z" changeset="119142720" uid="3497659" user="NKA">
		<tag k="name" v="Instun Rudsar" />
		<tag k="old_name" v="Instun Ramstad" />
		<tag k="place" v="farm" />
		<tag k="ssr:stedsnr" v="961649" />
	</node>
	<node id="9625637057" lat="61.8757408" lon="8.4323365" version="1" timestamp="2022-03-31T06:08:51Z" changeset="119142720" uid="3497659" user="NKA">
		<tag k="name" v="Maurstad" />
		<tag k="place" v="farm" />
		<tag k="ssr:stedsnr" v="11802" />
	</node>
	<node id="9625637058" lat="61.9031439" lon="8.1889385" version="1" timestamp="2022-03-31T06:08:51Z" changeset="119142720" uid="3497659" user="NKA">
		<tag k="name" v="Lykregrende" />
		<tag k="place" v="quarter" />
		<tag k="ssr:stedsnr" v="981803" />
	</node>
	<node id="9625637059" lat="61.8841973" lon="8.3816528" version="1" timestamp="2022-03-31T06:08:51Z" changeset="119142720" uid="3497659" user="NKA">
		<tag k="name" v="Nørdre Kvåle" />
		<tag k="place" v="farm" />
		<tag k="ssr:stedsnr" v="51589" />
	</node>
	<node id="9625637060" lat="61.8831027" lon="8.436275" version="1" timestamp="2022-03-31T06:08:51Z" changeset="119142720" uid="3497659" user="NKA">
		<tag k="name" v="Nistun Russar" />
		<tag k="place" v="farm" />
		<tag k="ssr:stedsnr" v="960622" />
	</node>
	<node id="9625637061" lat="61.8829778" lon="8.4302667" version="1" timestamp="2022-03-31T06:08:51Z" changeset="119142720" uid="3497659" user="NKA">
		<tag k="name" v="Ny-Hove" />
		<tag k="place" v="farm" />
		<tag k="ssr:stedsnr" v="960620" />
	</node>
	<node id="9625637062" lat="61.9074806" lon="8.1294279" version="1" timestamp="2022-03-31T06:08:51Z" changeset="119142720" uid="3497659" user="NKA">
		<tag k="name" v="Svestad" />
		<tag k="place" v="farm" />
		<tag k="ssr:stedsnr" v="920689" />
	</node>
	<node id="9625637063" lat="61.9074" lon="8.17745" version="1" timestamp="2022-03-31T06:08:51Z" changeset="119142720" uid="3497659" user="NKA">
		<tag k="alt_name" v="Bakve" />
		<tag k="name" v="Bakved" />
		<tag k="place" v="farm" />
		<tag k="ssr:stedsnr" v="920858" />
	</node>
	<node id="9625637064" lat="61.90205" lon="7.8533027" version="1" timestamp="2022-03-31T06:08:51Z" changeset="119142720" uid="3497659" user="NKA">
		<tag k="name" v="Solås" />
		<tag k="place" v="farm" />
		<tag k="ssr:stedsnr" v="920532" />
	</node>
	<node id="9625637065" lat="61.8817105" lon="8.4656757" version="1" timestamp="2022-03-31T06:08:51Z" changeset="119142720" uid="3497659" user="NKA">
		<tag k="name" v="Kjeka" />
		<tag k="place" v="farm" />
		<tag k="ssr:stedsnr" v="920763" />
	</node>
	<node id="9625637066" lat="61.8855328" lon="8.3115345" version="1" timestamp="2022-03-31T06:08:51Z" changeset="119142720" uid="3497659" user="NKA">
		<tag k="name" v="Hole" />
		<tag k="place" v="farm" />
		<tag k="ssr:stedsnr" v="799877" />
	</node>
	<node id="9625637067" lat="61.8995666" lon="8.2379" version="1" timestamp="2022-03-31T06:08:51Z" changeset="119142720" uid="3497659" user="NKA">
		<tag k="name" v="Øvre Jevnheim" />
		<tag k="place" v="farm" />
		<tag k="ssr:stedsnr" v="901025" />
	</node>
	<node id="9625637068" lat="61.9015361" lon="8.1369722" version="1" timestamp="2022-03-31T06:08:51Z" changeset="119142720" uid="3497659" user="NKA">
		<tag k="alt_name" v="Plasskvee" />
		<tag k="name" v="Plasskvei" />
		<tag k="place" v="farm" />
		<tag k="ssr:stedsnr" v="799851" />
	</node>
	<node id="9625637069" lat="61.8875167" lon="8.3418178" version="1" timestamp="2022-03-31T06:08:51Z" changeset="119142720" uid="3497659" user="NKA">
		<tag k="name" v="Lykkja" />
		<tag k="place" v="farm" />
		<tag k="ssr:stedsnr" v="799900" />
	</node>
	<node id="9625637070" lat="61.9114695" lon="7.9234334" version="1" timestamp="2022-03-31T06:08:51Z" changeset="119142720" uid="3497659" user="NKA">
		<tag k="alt_name" v="Øvre Svartholet" />
		<tag k="name" v="Svartholet" />
		<tag k="place" v="farm" />
		<tag k="ssr:stedsnr" v="799568" />
	</node>
	<node id="9625637071" lat="61.9391277" lon="7.9965722" version="1" timestamp="2022-03-31T06:08:51Z" changeset="119142720" uid="3497659" user="NKA">
		<tag k="alt_name" v="Slirstronde" />
		<tag k="historic" v="shieling" />
		<tag k="name" v="Slirstrondi" />
		<tag k="place" v="hamlet" />
		<tag k="ssr:stedsnr" v="799558" />
	</node>
	<node id="9625637072" lat="61.9601139" lon="7.8659223" version="1" timestamp="2022-03-31T06:08:51Z" changeset="119142720" uid="3497659" user="NKA">
		<tag k="name" v="Åhytta" />
		<tag k="place" v="locality" />
		<tag k="ssr:stedsnr" v="495503" />
	</node>
	<node id="9625637073" lat="61.9860083" lon="7.8846056" version="1" timestamp="2022-03-31T06:08:51Z" changeset="119142720" uid="3497659" user="NKA">
		<tag k="name" v="Grotlikvee" />
		<tag k="place" v="locality" />
		<tag k="ssr:stedsnr" v="839846" />
	</node>
	<node id="9625637074" lat="61.8849306" lon="8.3778889" version="1" timestamp="2022-03-31T06:08:51Z" changeset="119142720" uid="3497659" user="NKA">
		<tag k="name" v="Nørdre Brandsar" />
		<tag k="place" v="farm" />
		<tag k="ssr:stedsnr" v="779559" />
	</node>
	<node id="9625637075" lat="61.8730139" lon="8.4468084" version="1" timestamp="2022-03-31T06:08:51Z" changeset="119142720" uid="3497659" user="NKA">
		<tag k="name" v="Sygard Gjeilo" />
		<tag k="place" v="farm" />
		<tag k="ssr:stedsnr" v="779943" />
	</node>
	<node id="9625637076" lat="61.8722136" lon="8.4180603" version="1" timestamp="2022-03-31T06:08:51Z" changeset="119142720" uid="3497659" user="NKA">
		<tag k="alt_name" v="Brekk, øvre" />
		<tag k="name" v="Øvre Brekk" />
		<tag k="place" v="farm" />
		<tag k="ssr:stedsnr" v="739807" />
	</node>
	<node id="9625637077" lat="62.0140028" lon="7.8084307" version="1" timestamp="2022-03-31T06:08:51Z" changeset="119142720" uid="3497659" user="NKA">
		<tag k="name" v="Eldhusgrende" />
		<tag k="place" v="hamlet" />
		<tag k="ssr:stedsnr" v="415889" />
	</node>
	<node id="9625637078" lat="61.9048496" lon="7.8588338" version="1" timestamp="2022-03-31T06:08:51Z" changeset="119142720" uid="3497659" user="NKA">
		<tag k="name" v="Høg-Bråta" />
		<tag k="place" v="farm" />
		<tag k="ssr:stedsnr" v="840353" />
	</node>
	<node id="9625637079" lat="61.8648361" lon="8.2872389" version="1" timestamp="2022-03-31T06:08:51Z" changeset="119142720" uid="3497659" user="NKA">
		<tag k="alt_name" v="Hailvorsgjerdede" />
		<tag k="name" v="Halvorgjerdet" />
		<tag k="place" v="farm" />
		<tag k="ssr:stedsnr" v="739809" />
	</node>
	<node id="9625637080" lat="61.9190889" lon="8.1235612" version="1" timestamp="2022-03-31T06:08:51Z" changeset="119142720" uid="3497659" user="NKA">
		<tag k="name" v="Myrom" />
		<tag k="place" v="farm" />
		<tag k="ssr:stedsnr" v="738690" />
	</node>
	<node id="9625637081" lat="61.8828944" lon="8.4021667" version="1" timestamp="2022-03-31T06:08:51Z" changeset="119142720" uid="3497659" user="NKA">
		<tag k="alt_name" v="Hjeltar, nedre" />
		<tag k="name" v="Nedre Hjeltar" />
		<tag k="place" v="farm" />
		<tag k="ssr:stedsnr" v="738790" />
	</node>
	<node id="9625637082" lat="61.871925" lon="8.2957722" version="1" timestamp="2022-03-31T06:08:51Z" changeset="119142720" uid="3497659" user="NKA">
		<tag k="name" v="Permoen" />
		<tag k="place" v="farm" />
		<tag k="ssr:stedsnr" v="678755" />
	</node>
	<node id="9625637083" lat="61.8762448" lon="8.3536073" version="1" timestamp="2022-03-31T06:08:51Z" changeset="119142720" uid="3497659" user="NKA">
		<tag k="name" v="Vigstad" />
		<tag k="place" v="farm" />
		<tag k="ssr:stedsnr" v="799777" />
	</node>
	<node id="9625637084" lat="61.8998083" lon="7.848264" version="1" timestamp="2022-03-31T06:08:51Z" changeset="119142720" uid="3497659" user="NKA">
		<tag k="alt_name" v="Søre Tuva" />
		<tag k="name" v="Tuva" />
		<tag k="place" v="hamlet" />
		<tag k="ssr:stedsnr" v="677700" />
	</node>
	<node id="9625637085" lat="61.9052694" lon="8.1071111" version="1" timestamp="2022-03-31T06:08:51Z" changeset="119142720" uid="3497659" user="NKA">
		<tag k="alt_name" v="Sotil" />
		<tag k="name" v="Nordli" />
		<tag k="place" v="farm" />
		<tag k="ssr:stedsnr" v="677678" />
	</node>
	<node id="9625637086" lat="61.9049861" lon="8.0897806" version="1" timestamp="2022-03-31T06:08:51Z" changeset="119142720" uid="3497659" user="NKA">
		<tag k="alt_name" v="Kvitingje" />
		<tag k="name" v="Kvitingen" />
		<tag k="place" v="farm" />
		<tag k="ssr:stedsnr" v="677690" />
	</node>
	<node id="9625637087" lat="61.9114217" lon="7.9141174" version="1" timestamp="2022-03-31T06:08:51Z" changeset="119142720" uid="3497659" user="NKA">
		<tag k="name" v="Brekk" />
		<tag k="place" v="farm" />
		<tag k="ssr:stedsnr" v="111293" />
	</node>
	<node id="9625637088" lat="61.9472111" lon="7.9111361" version="1" timestamp="2022-03-31T06:08:51Z" changeset="119142720" uid="3497659" user="NKA">
		<tag k="alt_name" v="Poyllen" />
		<tag k="historic" v="shieling" />
		<tag k="name" v="Pollsætri" />
		<tag k="place" v="isolated_dwelling" />
		<tag k="ssr:stedsnr" v="10535" />
	</node>
	<node id="9625637089" lat="62.0113777" lon="7.8589084" version="1" timestamp="2022-03-31T06:08:51Z" changeset="119142720" uid="3497659" user="NKA">
		<tag k="historic" v="shieling" />
		<tag k="name" v="Nerstulen" />
		<tag k="place" v="isolated_dwelling" />
		<tag k="ssr:stedsnr" v="51879" />
	</node>
	<node id="9625637090" lat="61.8998833" lon="8.2220083" version="1" timestamp="2022-03-31T06:08:51Z" changeset="119142720" uid="3497659" user="NKA">
		<tag k="alt_name" v="Hyrve, s;Hyrve, søre;Hyrve" />
		<tag k="name" v="Søre Hyrve" />
		<tag k="place" v="farm" />
		<tag k="ssr:stedsnr" v="10836" />
	</node>
	<node id="9625637091" lat="61.8887" lon="8.0193944" version="1" timestamp="2022-03-31T06:08:51Z" changeset="119142720" uid="3497659" user="NKA">
		<tag k="alt_name" v="Brumillomsætre" />
		<tag k="historic" v="shieling" />
		<tag k="name" v="Brumillomsætrin" />
		<tag k="place" v="isolated_dwelling" />
		<tag k="ssr:stedsnr" v="616715" />
	</node>
	<node id="9625637092" lat="61.8774548" lon="8.4661644" version="1" timestamp="2022-03-31T06:08:51Z" changeset="119142720" uid="3497659" user="NKA">
		<tag k="name" v="Øygarden" />
		<tag k="place" v="farm" />
		<tag k="ssr:stedsnr" v="536795" />
	</node>
	<node id="9625637093" lat="62.0277614" lon="7.5145047" version="1" timestamp="2022-03-31T06:08:51Z" changeset="119142720" uid="3497659" user="NKA">
		<tag k="name" v="Breidablikk" />
		<tag k="place" v="hamlet" />
		<tag k="ssr:stedsnr" v="192164" />
	</node>
	<node id="9625637094" lat="61.8753194" lon="8.3004001" version="1" timestamp="2022-03-31T06:08:51Z" changeset="119142720" uid="3497659" user="NKA">
		<tag k="name" v="Lundamoen" />
		<tag k="place" v="farm" />
		<tag k="ssr:stedsnr" v="496765" />
	</node>
	<node id="9625637095" lat="61.8880432" lon="8.3381976" version="1" timestamp="2022-03-31T06:08:51Z" changeset="119142720" uid="3497659" user="NKA">
		<tag k="name" v="Tofte" />
		<tag k="place" v="farm" />
		<tag k="ssr:stedsnr" v="495890" />
	</node>
	<node id="9625637096" lat="61.8956861" lon="7.8951834" version="1" timestamp="2022-03-31T06:08:51Z" changeset="119142720" uid="3497659" user="NKA">
		<tag k="alt_name" v="Kvassteinslettom" />
		<tag k="name" v="Slettom" />
		<tag k="place" v="farm" />
		<tag k="ssr:stedsnr" v="253717" />
	</node>
	<node id="9625637097" lat="61.8850242" lon="8.3791607" version="1" timestamp="2022-03-31T06:08:51Z" changeset="119142720" uid="3497659" user="NKA">
		<tag k="name" v="Brandsar" />
		<tag k="place" v="farm" />
		<tag k="ssr:stedsnr" v="495860" />
	</node>
	<node id="9625637098" lat="61.905325" lon="7.9318056" version="1" timestamp="2022-03-31T06:08:51Z" changeset="119142720" uid="3497659" user="NKA">
		<tag k="alt_name" v="Skautli" />
		<tag k="name" v="Skautlii" />
		<tag k="place" v="farm" />
		<tag k="ssr:stedsnr" v="495696" />
	</node>
	<node id="9625637099" lat="61.8878111" lon="8.2360278" version="1" timestamp="2022-03-31T06:08:51Z" changeset="119142720" uid="3497659" user="NKA">
		<tag k="name" v="Skjåkmorkje" />
		<tag k="place" v="farm" />
		<tag k="ssr:stedsnr" v="495836" />
	</node>
	<node id="9625637100" lat="61.9522861" lon="7.9016638" version="1" timestamp="2022-03-31T06:08:51Z" changeset="119142720" uid="3497659" user="NKA">
		<tag k="name" v="Guldbakkvee" />
		<tag k="place" v="isolated_dwelling" />
		<tag k="ssr:stedsnr" v="51293" />
	</node>
	<node id="9625637101" lat="61.9081972" lon="7.8860001" version="1" timestamp="2022-03-31T06:08:51Z" changeset="119142720" uid="3497659" user="NKA">
		<tag k="name" v="Horten" />
		<tag k="place" v="farm" />
		<tag k="ssr:stedsnr" v="71731" />
	</node>
	<node id="9625637102" lat="61.8642833" lon="8.4783306" version="1" timestamp="2022-03-31T06:08:51Z" changeset="119142720" uid="3497659" user="NKA">
		<tag k="name" v="Søre Risheim" />
		<tag k="place" v="farm" />
		<tag k="ssr:stedsnr" v="475964" />
	</node>
	<node id="9625637103" lat="61.7825" lon="8.1143889" version="1" timestamp="2022-03-31T06:08:51Z" changeset="119142720" uid="3497659" user="NKA">
		<tag k="name" v="Sauhytta" />
		<tag k="place" v="isolated_dwelling" />
		<tag k="ssr:stedsnr" v="435968" />
	</node>
	<node id="9625637104" lat="61.8858643" lon="8.3295978" version="1" timestamp="2022-03-31T06:08:51Z" changeset="119142720" uid="3497659" user="NKA">
		<tag k="alt_name" v="Skjelkvåle" />
		<tag k="name" v="Skjellkvåle" />
		<tag k="place" v="farm" />
		<tag k="ssr:stedsnr" v="435891" />
	</node>
	<node id="9625637105" lat="61.9113097" lon="7.9051672" version="1" timestamp="2022-03-31T06:08:51Z" changeset="119142720" uid="3497659" user="NKA">
		<tag k="name" v="Teigen" />
		<tag k="place" v="farm" />
		<tag k="ssr:stedsnr" v="51349" />
	</node>
	<node id="9625637106" lat="61.886328" lon="8.3589557" version="1" timestamp="2022-03-31T06:08:51Z" changeset="119142720" uid="3497659" user="NKA">
		<tag k="name" v="Grimstad" />
		<tag k="place" v="farm" />
		<tag k="ssr:stedsnr" v="374884" />
	</node>
	<node id="9625637107" lat="61.956975" lon="7.9031305" version="1" timestamp="2022-03-31T06:08:51Z" changeset="119142720" uid="3497659" user="NKA">
		<tag k="alt_name" v="Poyllmoen" />
		<tag k="name" v="Pollmoen" />
		<tag k="place" v="farm" />
		<tag k="ssr:stedsnr" v="435542" />
	</node>
	<node id="9625637108" lat="61.9102762" lon="7.9343577" version="1" timestamp="2022-03-31T06:08:51Z" changeset="119142720" uid="3497659" user="NKA">
		<tag k="name" v="Sygard" />
		<tag k="old_name" v="Syvgard" />
		<tag k="place" v="farm" />
		<tag k="ssr:stedsnr" v="374685" />
	</node>
	<node id="9625637109" lat="61.8999475" lon="7.8450987" version="1" timestamp="2022-03-31T06:08:51Z" changeset="119142720" uid="3497659" user="NKA">
		<tag k="alt_name" v="Nørdre Tuva" />
		<tag k="name" v="Rusti" />
		<tag k="place" v="farm" />
		<tag k="ssr:stedsnr" v="10711" />
	</node>
	<node id="9625637110" lat="61.9241251" lon="7.8338721" version="1" timestamp="2022-03-31T06:08:51Z" changeset="119142720" uid="3497659" user="NKA">
		<tag k="alt_name" v="Framruste;Framrustsætre" />
		<tag k="historic" v="shieling" />
		<tag k="name" v="Framrusti" />
		<tag k="place" v="hamlet" />
		<tag k="ssr:stedsnr" v="920540" />
	</node>
	<node id="9625637111" lat="61.9058" lon="8.1479916" version="1" timestamp="2022-03-31T06:08:51Z" changeset="119142720" uid="3497659" user="NKA">
		<tag k="name" v="Teigen" />
		<tag k="place" v="farm" />
		<tag k="ssr:stedsnr" v="354088" />
	</node>
	<node id="9625637112" lat="61.8772556" lon="8.2840471" version="1" timestamp="2022-03-31T06:08:51Z" changeset="119142720" uid="3497659" user="NKA">
		<tag k="alt_name" v="Lund, nedre" />
		<tag k="name" v="Nedre Lund" />
		<tag k="place" v="farm" />
		<tag k="ssr:stedsnr" v="253779" />
	</node>
	<node id="9625637113" lat="61.9004971" lon="7.8553662" version="1" timestamp="2022-03-31T06:08:51Z" changeset="119142720" uid="3497659" user="NKA">
		<tag k="name" v="Brenna" />
		<tag k="place" v="farm" />
		<tag k="ssr:stedsnr" v="313713" />
	</node>
	<node id="9625637114" lat="62.0125695" lon="7.7599083" version="1" timestamp="2022-03-31T06:08:51Z" changeset="119142720" uid="3497659" user="NKA">
		<tag k="historic" v="shieling" />
		<tag k="name" v="Stuttgongen" />
		<tag k="place" v="isolated_dwelling" />
		<tag k="ssr:stedsnr" v="799244" />
	</node>
	<node id="9625637115" lat="61.9023083" lon="7.8068139" version="1" timestamp="2022-03-31T06:08:51Z" changeset="119142720" uid="3497659" user="NKA">
		<tag k="name" v="Dyringshytta" />
		<tag k="place" v="isolated_dwelling" />
		<tag k="ssr:stedsnr" v="859520" />
	</node>
	<node id="9625637116" lat="61.9671889" lon="7.8298083" version="1" timestamp="2022-03-31T06:08:51Z" changeset="119142720" uid="3497659" user="NKA">
		<tag k="alt_name" v="Botn" />
		<tag k="name" v="Bottsætri" />
		<tag k="place" v="hamlet" />
		<tag k="ssr:stedsnr" v="192557" />
	</node>
	<node id="9625637117" lat="61.9154647" lon="8.067595" version="1" timestamp="2022-03-31T06:08:51Z" changeset="119142720" uid="3497659" user="NKA">
		<tag k="name" v="Åmot" />
		<tag k="place" v="hamlet" />
		<tag k="ssr:stedsnr" v="10553" />
	</node>
	<node id="9625637118" lat="61.9115144" lon="7.9292355" version="1" timestamp="2022-03-31T06:08:51Z" changeset="119142720" uid="3497659" user="NKA">
		<tag k="name" v="Lillereitan" />
		<tag k="place" v="farm" />
		<tag k="ssr:stedsnr" v="657296" />
	</node>
	<node id="9625637119" lat="61.8838354" lon="8.4608269" version="1" timestamp="2022-03-31T06:08:51Z" changeset="119142720" uid="3497659" user="NKA">
		<tag k="alt_name" v="Brujordede" />
		<tag k="name" v="Brujordet" />
		<tag k="place" v="farm" />
		<tag k="ssr:stedsnr" v="10776" />
	</node>
	<node id="9625637120" lat="61.9109612" lon="7.9243945" version="1" timestamp="2022-03-31T06:08:51Z" changeset="119142720" uid="3497659" user="NKA">
		<tag k="name" v="Nedre Svartholet" />
		<tag k="place" v="farm" />
		<tag k="ssr:stedsnr" v="475307" />
	</node>
	<node id="9625637121" lat="61.9006694" lon="8.0260945" version="1" timestamp="2022-03-31T06:08:51Z" changeset="119142720" uid="3497659" user="NKA">
		<tag k="alt_name" v="Tundraskriu" />
		<tag k="name" v="Tundraskridu" />
		<tag k="place" v="farm" />
		<tag k="ssr:stedsnr" v="192739" />
	</node>
	<node id="9625637122" lat="61.9120556" lon="7.9348444" version="1" timestamp="2022-03-31T06:08:51Z" changeset="119142720" uid="3497659" user="NKA">
		<tag k="name" v="Nørdre Gjerdede" />
		<tag k="place" v="locality" />
		<tag k="ssr:stedsnr" v="415304" />
	</node>
	<node id="9625637123" lat="61.9069268" lon="8.0865748" version="1" timestamp="2022-03-31T06:08:51Z" changeset="119142720" uid="3497659" user="NKA">
		<tag k="alt_name" v="Huse" />
		<tag k="name" v="Nybu" />
		<tag k="place" v="hamlet" />
		<tag k="ssr:stedsnr" v="192733" />
	</node>
	<node id="9625637124" lat="61.9117378" lon="7.8999906" version="1" timestamp="2022-03-31T06:08:51Z" changeset="119142720" uid="3497659" user="NKA">
		<tag k="name" v="Brimruste" />
		<tag k="place" v="farm" />
		<tag k="ssr:stedsnr" v="475303" />
	</node>
	<node id="9625637125" lat="61.8838722" lon="8.408989" version="1" timestamp="2022-03-31T06:08:51Z" changeset="119142720" uid="3497659" user="NKA">
		<tag k="alt_name" v="Ramstad, nordre;Ramstad;Nordre Ramstad" />
		<tag k="name" v="Nurdgard Ramstad" />
		<tag k="place" v="farm" />
		<tag k="ssr:stedsnr" v="859762" />
	</node>
	<node id="9625637126" lat="62.0016473" lon="7.8770167" version="1" timestamp="2022-03-31T06:08:51Z" changeset="119142720" uid="3497659" user="NKA">
		<tag k="name" v="Einstulen" />
		<tag k="place" v="locality" />
		<tag k="ssr:stedsnr" v="414856" />
	</node>
	<node id="9625637127" lat="61.8834056" lon="8.3684777" version="1" timestamp="2022-03-31T06:08:51Z" changeset="119142720" uid="3497659" user="NKA">
		<tag k="alt_name" v="Tråstad, øvre" />
		<tag k="name" v="Øvre Tråstad" />
		<tag k="place" v="farm" />
		<tag k="ssr:stedsnr" v="859827" />
	</node>
	<node id="9625637128" lat="61.8996444" lon="8.1927806" version="1" timestamp="2022-03-31T06:08:51Z" changeset="119142720" uid="3497659" user="NKA">
		<tag k="name" v="Veltøygarden" />
		<tag k="place" v="farm" />
		<tag k="ssr:stedsnr" v="51051" />
	</node>
	<node id="9625637129" lat="61.8663822" lon="8.4649163" version="1" timestamp="2022-03-31T06:08:51Z" changeset="119142720" uid="3497659" user="NKA">
		<tag k="name" v="Hole" />
		<tag k="place" v="hamlet" />
		<tag k="ssr:stedsnr" v="556806" />
	</node>
	<node id="9625637130" lat="61.9032806" lon="8.116089" version="1" timestamp="2022-03-31T06:08:51Z" changeset="119142720" uid="3497659" user="NKA">
		<tag k="alt_name" v="Storlie" />
		<tag k="name" v="Storlii" />
		<tag k="place" v="farm" />
		<tag k="ssr:stedsnr" v="10840" />
	</node>
	<node id="9625637131" lat="61.9006389" lon="8.1739583" version="1" timestamp="2022-03-31T06:08:51Z" changeset="119142720" uid="3497659" user="NKA">
		<tag k="name" v="Nørdre Skjåkøygard" />
		<tag k="place" v="farm" />
		<tag k="ssr:stedsnr" v="51082" />
	</node>
	<node id="9625637132" lat="61.9017555" lon="8.0771807" version="1" timestamp="2022-03-31T06:08:51Z" changeset="119142720" uid="3497659" user="NKA">
		<tag k="alt_name" v="Heggjeruste" />
		<tag k="name" v="Heggerusti" />
		<tag k="place" v="farm" />
		<tag k="ssr:stedsnr" v="799737" />
	</node>
	<node id="9625637133" lat="61.9041222" lon="8.1643473" version="1" timestamp="2022-03-31T06:08:51Z" changeset="119142720" uid="3497659" user="NKA">
		<tag k="alt_name" v="Hovkvee" />
		<tag k="name" v="Hovkvei" />
		<tag k="place" v="farm" />
		<tag k="ssr:stedsnr" v="920843" />
	</node>
	<node id="9625637134" lat="61.9142" lon="8.0690779" version="1" timestamp="2022-03-31T06:08:51Z" changeset="119142720" uid="3497659" user="NKA">
		<tag k="name" v="Øvreøvre Åmot" />
		<tag k="place" v="farm" />
		<tag k="ssr:stedsnr" v="839417" />
	</node>
	<node id="9625637135" lat="61.9099889" lon="8.1231639" version="1" timestamp="2022-03-31T06:08:51Z" changeset="119142720" uid="3497659" user="NKA">
		<tag k="name" v="Lomstad" />
		<tag k="place" v="farm" />
		<tag k="ssr:stedsnr" v="717442" />
	</node>
	<node id="9625637136" lat="61.9221694" lon="8.1210222" version="1" timestamp="2022-03-31T06:08:51Z" changeset="119142720" uid="3497659" user="NKA">
		<tag k="name" v="Nygjerde" />
		<tag k="place" v="farm" />
		<tag k="ssr:stedsnr" v="718523" />
	</node>
	<node id="9625637137" lat="61.8685583" lon="8.3083056" version="1" timestamp="2022-03-31T06:08:51Z" changeset="119142720" uid="3497659" user="NKA">
		<tag k="name" v="Amundstad" />
		<tag k="place" v="farm" />
		<tag k="ssr:stedsnr" v="800768" />
	</node>
	<node id="9625637138" lat="61.9086583" lon="8.1074972" version="1" timestamp="2022-03-31T06:08:51Z" changeset="119142720" uid="3497659" user="NKA">
		<tag k="name" v="Grasmoen" />
		<tag k="place" v="farm" />
		<tag k="ssr:stedsnr" v="495695" />
	</node>
	<node id="9625637139" lat="61.8863166" lon="8.3950722" version="1" timestamp="2022-03-31T06:08:51Z" changeset="119142720" uid="3497659" user="NKA">
		<tag k="name" v="Marlostrædet" />
		<tag k="place" v="farm" />
		<tag k="ssr:stedsnr" v="313883" />
	</node>
	<node id="9625637140" lat="61.9498448" lon="8.1299211" version="1" timestamp="2022-03-31T06:08:51Z" changeset="119142720" uid="3497659" user="NKA">
		<tag k="name" v="Mehankbui" />
		<tag k="place" v="locality" />
		<tag k="ssr:stedsnr" v="555631" />
	</node>
	<node id="9625637141" lat="61.8995028" lon="8.1772028" version="1" timestamp="2022-03-31T06:08:51Z" changeset="119142720" uid="3497659" user="NKA">
		<tag k="name" v="Søre Skjåkøygard" />
		<tag k="place" v="farm" />
		<tag k="ssr:stedsnr" v="657061" />
	</node>
	<node id="9625637142" lat="61.9216417" lon="8.1244806" version="1" timestamp="2022-03-31T06:08:51Z" changeset="119142720" uid="3497659" user="NKA">
		<tag k="alt_name" v="Gjerdede" />
		<tag k="name" v="Gjerdet" />
		<tag k="place" v="farm" />
		<tag k="ssr:stedsnr" v="192709" />
	</node>
	<node id="9625637143" lat="61.8998958" lon="8.1868319" version="1" timestamp="2022-03-31T06:08:51Z" changeset="119142720" uid="3497659" user="NKA">
		<tag k="name" v="Grimstadøygarden" />
		<tag k="place" v="farm" />
		<tag k="ssr:stedsnr" v="233089" />
	</node>
	<node id="9625637144" lat="61.9088028" lon="8.1363028" version="1" timestamp="2022-03-31T06:08:51Z" changeset="119142720" uid="3497659" user="NKA">
		<tag k="name" v="Skoglund" />
		<tag k="place" v="farm" />
		<tag k="ssr:stedsnr" v="717441" />
	</node>
	<node id="9625637145" lat="61.9116722" lon="8.1124167" version="1" timestamp="2022-03-31T06:08:51Z" changeset="119142720" uid="3497659" user="NKA">
		<tag k="name" v="Furuly" />
		<tag k="place" v="farm" />
		<tag k="ssr:stedsnr" v="414422" />
	</node>
	<node id="9625637146" lat="61.9121417" lon="7.9371445" version="1" timestamp="2022-03-31T06:08:51Z" changeset="119142720" uid="3497659" user="NKA">
		<tag k="name" v="Søre Gjerdede" />
		<tag k="place" v="locality" />
		<tag k="ssr:stedsnr" v="232268" />
	</node>
	<node id="9625637147" lat="61.9158861" lon="8.0260083" version="1" timestamp="2022-03-31T06:08:51Z" changeset="119142720" uid="3497659" user="NKA">
		<tag k="name" v="Uppnose" />
		<tag k="place" v="locality" />
		<tag k="ssr:stedsnr" v="535470" />
	</node>
	<node id="9625637148" lat="61.941675" lon="7.8708584" version="1" timestamp="2022-03-31T06:08:51Z" changeset="119142720" uid="3497659" user="NKA">
		<tag k="name" v="Rustahytta" />
		<tag k="place" v="isolated_dwelling" />
		<tag k="ssr:stedsnr" v="961372" />
	</node>
	<node id="9625637149" lat="61.9024166" lon="7.8480277" version="1" timestamp="2022-03-31T06:08:51Z" changeset="119142720" uid="3497659" user="NKA">
		<tag k="name" v="Nordråk" />
		<tag k="place" v="farm" />
		<tag k="ssr:stedsnr" v="192573" />
	</node>
	<node id="9625637150" lat="61.9057889" lon="7.8589278" version="1" timestamp="2022-03-31T06:08:51Z" changeset="119142720" uid="3497659" user="NKA">
		<tag k="name" v="Åsheim" />
		<tag k="place" v="farm" />
		<tag k="ssr:stedsnr" v="738540" />
	</node>
	<node id="9625637151" lat="61.8093195" lon="7.7146584" version="1" timestamp="2022-03-31T06:08:51Z" changeset="119142720" uid="3497659" user="NKA">
		<tag k="historic" v="shieling" />
		<tag k="name" v="Sota" />
		<tag k="place" v="isolated_dwelling" />
		<tag k="ssr:stedsnr" v="414333" />
	</node>
	<node id="9625637152" lat="61.8753666" lon="8.2893946" version="1" timestamp="2022-03-31T06:08:51Z" changeset="119142720" uid="3497659" user="NKA">
		<tag k="alt_name" v="Lund" />
		<tag k="name" v="Nigard-Lund" />
		<tag k="place" v="farm" />
		<tag k="ssr:stedsnr" v="435775" />
	</node>
	<node id="9625637153" lat="61.8760806" lon="8.2966528" version="2" timestamp="2022-04-08T09:33:06Z" changeset="119461813" uid="15521518" user="Bob vDam">
		<tag k="name" v="Lunde Gard" />
		<tag k="place" v="farm" />
		<tag k="ssr:stedsnr" v="374776" />
	</node>
	<node id="9625637154" lat="61.9111139" lon="7.9008889" version="1" timestamp="2022-03-31T06:08:51Z" changeset="119142720" uid="3497659" user="NKA">
		<tag k="alt_name" v="Lillerust" />
		<tag k="name" v="Veslrusti" />
		<tag k="place" v="farm" />
		<tag k="ssr:stedsnr" v="616692" />
	</node>
	<node id="9625637155" lat="61.910525" lon="7.8873306" version="1" timestamp="2022-03-31T06:08:51Z" changeset="119142720" uid="3497659" user="NKA">
		<tag k="alt_name" v="Storbråta" />
		<tag k="name" v="Nurdstun Storbråtå" />
		<tag k="place" v="farm" />
		<tag k="ssr:stedsnr" v="677687" />
	</node>
	<node id="9625637156" lat="61.8768417" lon="8.2571806" version="1" timestamp="2022-03-31T06:08:51Z" changeset="119142720" uid="3497659" user="NKA">
		<tag k="alt_name" v="Systun Kvee" />
		<tag k="name" v="Bjørkli" />
		<tag k="place" v="farm" />
		<tag k="ssr:stedsnr" v="253784" />
	</node>
	<node id="9625637157" lat="61.8811166" lon="8.2876862" version="1" timestamp="2022-03-31T06:08:51Z" changeset="119142720" uid="3497659" user="NKA">
		<tag k="name" v="Toftemoen" />
		<tag k="place" v="farm" />
		<tag k="ssr:stedsnr" v="233753" />
	</node>
	<node id="9625637158" lat="61.8251611" lon="7.7199862" version="1" timestamp="2022-03-31T06:08:51Z" changeset="119142720" uid="3497659" user="NKA">
		<tag k="historic" v="shieling" />
		<tag k="name" v="Langsæterstulen" />
		<tag k="place" v="isolated_dwelling" />
		<tag k="ssr:stedsnr" v="374741" />
	</node>
	<node id="9625637159" lat="61.9044276" lon="7.913457" version="1" timestamp="2022-03-31T06:08:51Z" changeset="119142720" uid="3497659" user="NKA">
		<tag k="alt_name" v="Heggebakken;Heggjebakkjen" />
		<tag k="name" v="Heggjebakken" />
		<tag k="place" v="farm" />
		<tag k="ssr:stedsnr" v="71733" />
	</node>
	<node id="9625637160" lat="61.8754929" lon="8.2845769" version="1" timestamp="2022-03-31T06:08:51Z" changeset="119142720" uid="3497659" user="NKA">
		<tag k="name" v="Lund" />
		<tag k="place" v="farm" />
		<tag k="ssr:stedsnr" v="132754" />
	</node>
	<node id="9625637161" lat="61.8745193" lon="8.4034328" version="1" timestamp="2022-03-31T06:08:51Z" changeset="119142720" uid="3497659" user="NKA">
		<tag k="alt_name" v="Svei" />
		<tag k="name" v="Svee" />
		<tag k="place" v="farm" />
		<tag k="ssr:stedsnr" v="435835" />
	</node>
	<node id="9625637162" lat="61.8959922" lon="8.2446405" version="1" timestamp="2022-03-31T06:08:51Z" changeset="119142720" uid="3497659" user="NKA">
		<tag k="name" v="Harsheim" />
		<tag k="place" v="farm" />
		<tag k="ssr:stedsnr" v="435842" />
	</node>
	<node id="9625637163" lat="61.8871028" lon="8.3819001" version="1" timestamp="2022-03-31T06:08:51Z" changeset="119142720" uid="3497659" user="NKA">
		<tag k="alt_name" v="Geilbakkjen" />
		<tag k="name" v="Geilbakken" />
		<tag k="place" v="farm" />
		<tag k="ssr:stedsnr" v="253879" />
	</node>
	<node id="9625637164" lat="61.9993945" lon="8.1380944" version="1" timestamp="2022-03-31T06:08:51Z" changeset="119142720" uid="3497659" user="NKA">
		<tag k="name" v="Sveinbui" />
		<tag k="place" v="isolated_dwelling" />
		<tag k="ssr:stedsnr" v="435671" />
	</node>
	<node id="9625637165" lat="61.9018305" lon="8.2186945" version="1" timestamp="2022-03-31T06:08:51Z" changeset="119142720" uid="3497659" user="NKA">
		<tag k="alt_name" v="Hyrve, nordre" />
		<tag k="name" v="Nørdre Hyrve" />
		<tag k="place" v="farm" />
		<tag k="ssr:stedsnr" v="253836" />
	</node>
	<node id="9625637166" lat="61.8721778" lon="8.2719222" version="1" timestamp="2022-03-31T06:08:51Z" changeset="119142720" uid="3497659" user="NKA">
		<tag k="alt_name" v="Kvee" />
		<tag k="name" v="Kvei" />
		<tag k="place" v="farm" />
		<tag k="ssr:stedsnr" v="253785" />
	</node>
	<node id="9625637167" lat="61.9922611" lon="8.4332667" version="1" timestamp="2022-03-31T06:08:51Z" changeset="119142720" uid="3497659" user="NKA">
		<tag k="name" v="Storhøhytta" />
		<tag k="place" v="isolated_dwelling" />
		<tag k="ssr:stedsnr" v="253668" />
	</node>
	<node id="9625637168" lat="61.8895694" lon="8.0810305" version="1" timestamp="2022-03-31T06:08:51Z" changeset="119142720" uid="3497659" user="NKA">
		<tag k="alt_name" v="Skjellan" />
		<tag k="historic" v="shieling" />
		<tag k="name" v="Skjellom" />
		<tag k="place" v="hamlet" />
		<tag k="ssr:stedsnr" v="253723" />
	</node>
	<node id="9625637169" lat="61.8833083" lon="8.3041222" version="1" timestamp="2022-03-31T06:08:51Z" changeset="119142720" uid="3497659" user="NKA">
		<tag k="name" v="Sygard Forberg" />
		<tag k="place" v="farm" />
		<tag k="ssr:stedsnr" v="172762" />
	</node>
	<node id="9625637170" lat="61.9038361" lon="8.1589278" version="1" timestamp="2022-03-31T06:08:51Z" changeset="119142720" uid="3497659" user="NKA">
		<tag k="name" v="Søre Dagsgardsøygarden" />
		<tag k="place" v="farm" />
		<tag k="ssr:stedsnr" v="233085" />
	</node>
	<node id="9625637171" lat="61.8826278" lon="8.390925" version="1" timestamp="2022-03-31T06:08:51Z" changeset="119142720" uid="3497659" user="NKA">
		<tag k="name" v="Ramstadstrondi" />
		<tag k="place" v="hamlet" />
		<tag k="ssr:stedsnr" v="131795" />
	</node>
	<node id="9625637172" lat="61.915625" lon="8.0459973" version="1" timestamp="2022-03-31T06:08:51Z" changeset="119142720" uid="3497659" user="NKA">
		<tag k="alt_name" v="Uppnose tomteområde" />
		<tag k="name" v="Uppnose" />
		<tag k="place" v="quarter" />
		<tag k="ssr:stedsnr" v="232425" />
	</node>
	<node id="9625637173" lat="61.9550389" lon="7.9637445" version="1" timestamp="2022-03-31T06:08:51Z" changeset="119142720" uid="3497659" user="NKA">
		<tag k="alt_name" v="Stamsætre" />
		<tag k="historic" v="shieling" />
		<tag k="name" v="Stamsætri" />
		<tag k="place" v="isolated_dwelling" />
		<tag k="ssr:stedsnr" v="70497" />
	</node>
	<node id="9625637174" lat="61.9046464" lon="8.0383069" version="1" timestamp="2022-03-31T06:08:51Z" changeset="119142720" uid="3497659" user="NKA">
		<tag k="name" v="Brumillom" />
		<tag k="place" v="hamlet" />
		<tag k="ssr:stedsnr" v="984256" />
	</node>
	<node id="9625637175" lat="61.8755722" lon="8.2769445" version="1" timestamp="2022-03-31T06:08:51Z" changeset="119142720" uid="3497659" user="NKA">
		<tag k="name" v="Horten" />
		<tag k="place" v="farm" />
		<tag k="ssr:stedsnr" v="51153" />
	</node>
	<node id="9625637176" lat="61.9049305" lon="8.2015917" version="1" timestamp="2022-03-31T06:08:51Z" changeset="119142720" uid="3497659" user="NKA">
		<tag k="alt_name" v="Lykre, nordre" />
		<tag k="name" v="Nørdre Lykre" />
		<tag k="place" v="farm" />
		<tag k="ssr:stedsnr" v="70824" />
	</node>
	<node id="9625637177" lat="61.89235" lon="8.3549694" version="1" timestamp="2022-03-31T06:08:51Z" changeset="119142720" uid="3497659" user="NKA">
		<tag k="name" v="Flathaugen" />
		<tag k="place" v="farm" />
		<tag k="ssr:stedsnr" v="10882" />
	</node>
	<node id="9625637178" lat="61.9228667" lon="8.1144473" version="1" timestamp="2022-03-31T06:08:51Z" changeset="119142720" uid="3497659" user="NKA">
		<tag k="name" v="Arnegarden" />
		<tag k="place" v="farm" />
		<tag k="ssr:stedsnr" v="960505" />
	</node>
	<node id="9625637179" lat="61.9139111" lon="8.1421027" version="1" timestamp="2022-03-31T06:08:51Z" changeset="119142720" uid="3497659" user="NKA">
		<tag k="alt_name" v="Slette" />
		<tag k="name" v="Sletti" />
		<tag k="place" v="farm" />
		<tag k="ssr:stedsnr" v="10696" />
	</node>
	<node id="9625637180" lat="61.895572" lon="8.2110743" version="1" timestamp="2022-03-31T06:08:51Z" changeset="119142720" uid="3497659" user="NKA">
		<tag k="name" v="Flekkøy" />
		<tag k="place" v="farm" />
		<tag k="ssr:stedsnr" v="860838" />
	</node>
	<node id="9625637181" lat="61.9031649" lon="8.1381538" version="1" timestamp="2022-03-31T06:08:51Z" changeset="119142720" uid="3497659" user="NKA">
		<tag k="alt_name" v="Nyhus" />
		<tag k="name" v="Plassen" />
		<tag k="place" v="farm" />
		<tag k="ssr:stedsnr" v="860850" />
	</node>
	<node id="9625637182" lat="61.8719778" lon="8.4977001" version="1" timestamp="2022-03-31T06:08:51Z" changeset="119142720" uid="3497659" user="NKA">
		<tag k="name" v="Nedre Bakken" />
		<tag k="place" v="farm" />
		<tag k="ssr:stedsnr" v="657758" />
	</node>
	<node id="9625637183" lat="61.884162" lon="8.4521421" version="1" timestamp="2022-03-31T06:08:51Z" changeset="119142720" uid="3497659" user="NKA">
		<tag k="name" v="Kolstad" />
		<tag k="place" v="farm" />
		<tag k="ssr:stedsnr" v="779611" />
	</node>
	<node id="9625637184" lat="61.8829917" lon="8.4456666" version="1" timestamp="2022-03-31T06:08:51Z" changeset="119142720" uid="3497659" user="NKA">
		<tag k="name" v="Nurdstun Bøje" />
		<tag k="place" v="farm" />
		<tag k="ssr:stedsnr" v="415675" />
	</node>
	<node id="9625637185" lat="61.8723972" lon="8.5006306" version="1" timestamp="2022-03-31T06:08:51Z" changeset="119142720" uid="3497659" user="NKA">
		<tag k="name" v="Runningje" />
		<tag k="place" v="farm" />
		<tag k="ssr:stedsnr" v="293791" />
	</node>
	<node id="9625637186" lat="61.883975" lon="8.3936916" version="1" timestamp="2022-03-31T06:08:51Z" changeset="119142720" uid="3497659" user="NKA">
		<tag k="alt_name" v="Kvee" />
		<tag k="name" v="Kvei" />
		<tag k="place" v="farm" />
		<tag k="ssr:stedsnr" v="434728" />
	</node>
	<node id="9625637187" lat="61.8818555" lon="8.4383084" version="1" timestamp="2022-03-31T06:08:51Z" changeset="119142720" uid="3497659" user="NKA">
		<tag k="name" v="Nurdgard Russar" />
		<tag k="place" v="farm" />
		<tag k="ssr:stedsnr" v="293637" />
	</node>
	<node id="9625637188" lat="61.8752726" lon="8.370243" version="1" timestamp="2022-03-31T06:08:51Z" changeset="119142720" uid="3497659" user="NKA">
		<tag k="name" v="Skjåk" />
		<tag k="place" v="farm" />
		<tag k="ssr:stedsnr" v="253775" />
	</node>
	<node id="9625637189" lat="61.8756861" lon="8.4203417" version="1" timestamp="2022-03-31T06:08:51Z" changeset="119142720" uid="3497659" user="NKA">
		<tag k="name" v="Brekkatrædet" />
		<tag k="place" v="farm" />
		<tag k="ssr:stedsnr" v="314815" />
	</node>
	<node id="9625637190" lat="61.8857194" lon="8.3635138" version="1" timestamp="2022-03-31T06:08:51Z" changeset="119142720" uid="3497659" user="NKA">
		<tag k="name" v="Nurdgard Sperstad" />
		<tag k="place" v="farm" />
		<tag k="ssr:stedsnr" v="233735" />
	</node>
	<node id="9625637191" lat="61.8749069" lon="8.3776666" version="1" timestamp="2022-03-31T06:08:51Z" changeset="119142720" uid="3497659" user="NKA">
		<tag k="name" v="Dagsgard" />
		<tag k="place" v="farm" />
		<tag k="ssr:stedsnr" v="314755" />
	</node>
	<node id="9625637192" lat="61.884077" lon="8.3399393" version="1" timestamp="2022-03-31T06:08:51Z" changeset="119142720" uid="3497659" user="NKA">
		<tag k="alt_name" v="Sperstadøygard" />
		<tag k="name" v="Sperstadøygarden" />
		<tag k="place" v="farm" />
		<tag k="ssr:stedsnr" v="131895" />
	</node>
	<node id="9625637193" lat="61.8726028" lon="8.39705" version="1" timestamp="2022-03-31T06:08:51Z" changeset="119142720" uid="3497659" user="NKA">
		<tag k="alt_name" v="Steinsgård" />
		<tag k="name" v="Steinsgard" />
		<tag k="place" v="farm" />
		<tag k="ssr:stedsnr" v="10821" />
	</node>
	<node id="9625637194" lat="61.8712917" lon="8.3873194" version="1" timestamp="2022-03-31T06:08:51Z" changeset="119142720" uid="3497659" user="NKA">
		<tag k="name" v="Jonsgard" />
		<tag k="place" v="farm" />
		<tag k="ssr:stedsnr" v="10818" />
	</node>
	<node id="9625637195" lat="61.856625" lon="8.3651555" version="1" timestamp="2022-03-31T06:08:51Z" changeset="119142720" uid="3497659" user="NKA">
		<tag k="name" v="Åndhytta" />
		<tag k="place" v="isolated_dwelling" />
		<tag k="ssr:stedsnr" v="860806" />
	</node>
	<node id="9625637196" lat="61.8754639" lon="8.4006833" version="1" timestamp="2022-03-31T06:08:51Z" changeset="119142720" uid="3497659" user="NKA">
		<tag k="alt_name" v="Odden, nordre" />
		<tag k="name" v="Nørdre Odden" />
		<tag k="place" v="farm" />
		<tag k="ssr:stedsnr" v="192841" />
	</node>
	<node id="9625637197" lat="61.884204" lon="8.4134025" version="1" timestamp="2022-03-31T06:08:51Z" changeset="119142720" uid="3497659" user="NKA">
		<tag k="alt_name" v="Ramstad, s;Ramstad, søre;Søre Ramstad" />
		<tag k="name" v="Sygard Ramstad" />
		<tag k="place" v="farm" />
		<tag k="ssr:stedsnr" v="192810" />
	</node>
	<node id="9625637198" lat="61.8847604" lon="8.4163975" version="1" timestamp="2022-03-31T06:08:51Z" changeset="119142720" uid="3497659" user="NKA">
		<tag k="name" v="Bustad" />
		<tag k="place" v="farm" />
		<tag k="ssr:stedsnr" v="192808" />
	</node>
	<node id="9625637199" lat="61.8767667" lon="8.3358834" version="1" timestamp="2022-03-31T06:08:51Z" changeset="119142720" uid="3497659" user="NKA">
		<tag k="alt_name" v="Kjørre" />
		<tag k="name" v="Kjørri" />
		<tag k="place" v="farm" />
		<tag k="ssr:stedsnr" v="192775" />
	</node>
	<node id="9625637200" lat="61.8864222" lon="8.360414" version="1" timestamp="2022-03-31T06:08:51Z" changeset="119142720" uid="3497659" user="NKA">
		<tag k="name" v="Nurdgard Grimstad" />
		<tag k="place" v="farm" />
		<tag k="ssr:stedsnr" v="840707" />
	</node>
	<node id="9625637201" lat="61.8843195" lon="8.4198111" version="1" timestamp="2022-03-31T06:08:51Z" changeset="119142720" uid="3497659" user="NKA">
		<tag k="alt_name" v="Uppistun Vangje" />
		<tag k="name" v="Uppistun Vange" />
		<tag k="place" v="farm" />
		<tag k="ssr:stedsnr" v="718630" />
	</node>
	<node id="9625637202" lat="61.8922222" lon="8.3525555" version="1" timestamp="2022-03-31T06:08:51Z" changeset="119142720" uid="3497659" user="NKA">
		<tag k="name" v="Haugom" />
		<tag k="place" v="farm" />
		<tag k="ssr:stedsnr" v="677883" />
	</node>
	<node id="9625637203" lat="61.8832361" lon="8.3881195" version="1" timestamp="2022-03-31T06:08:51Z" changeset="119142720" uid="3497659" user="NKA">
		<tag k="name" v="Øvre Marlo" />
		<tag k="place" v="farm" />
		<tag k="ssr:stedsnr" v="718538" />
	</node>
	<node id="9625637204" lat="61.8793972" lon="8.3412416" version="1" timestamp="2022-03-31T06:08:51Z" changeset="119142720" uid="3497659" user="NKA">
		<tag k="name" v="Flaten" />
		<tag k="place" v="farm" />
		<tag k="ssr:stedsnr" v="536727" />
	</node>
	<node id="9625637205" lat="61.8772668" lon="8.3847009" version="1" timestamp="2022-03-31T06:08:51Z" changeset="119142720" uid="3497659" user="NKA">
		<tag k="name" v="Ånstad" />
		<tag k="place" v="hamlet" />
		<tag k="ssr:stedsnr" v="496807" />
	</node>
	<node id="9625637206" lat="61.8723416" lon="8.4058665" version="1" timestamp="2022-03-31T06:08:51Z" changeset="119142720" uid="3497659" user="NKA">
		<tag k="name" v="Bratteigen" />
		<tag k="place" v="farm" />
		<tag k="ssr:stedsnr" v="293955" />
	</node>
	<node id="9625637207" lat="61.8762472" lon="8.3824722" version="1" timestamp="2022-03-31T06:08:51Z" changeset="119142720" uid="3497659" user="NKA">
		<tag k="name" v="Nurdstun Ånstad" />
		<tag k="place" v="farm" />
		<tag k="ssr:stedsnr" v="354157" />
	</node>
	<node id="9625637208" lat="61.9004786" lon="8.2197561" version="1" timestamp="2022-03-31T06:08:51Z" changeset="119142720" uid="3497659" user="NKA">
		<tag k="name" v="Hyrve" />
		<tag k="place" v="hamlet" />
		<tag k="ssr:stedsnr" v="984279" />
	</node>
	<node id="9625637209" lat="62.002401" lon="7.6377256" version="1" timestamp="2022-03-31T06:08:51Z" changeset="119142720" uid="3497659" user="NKA">
		<tag k="name" v="Morådalslægret" />
		<tag k="place" v="locality" />
		<tag k="ssr:stedsnr" v="800128" />
	</node>
	<node id="9625637210" lat="61.8867528" lon="8.318925" version="1" timestamp="2022-03-31T06:08:51Z" changeset="119142720" uid="3497659" user="NKA">
		<tag k="name" v="Systun Holemork" />
		<tag k="place" v="farm" />
		<tag k="ssr:stedsnr" v="233773" />
	</node>
	<node id="9625637211" lat="61.8814195" lon="8.45055" version="1" timestamp="2022-03-31T06:08:51Z" changeset="119142720" uid="3497659" user="NKA">
		<tag k="name" v="Nigard Bøje" />
		<tag k="place" v="farm" />
		<tag k="ssr:stedsnr" v="961616" />
	</node>
	<node id="9625637212" lat="61.9086051" lon="8.1721622" version="1" timestamp="2022-03-31T06:08:51Z" changeset="119142720" uid="3497659" user="NKA">
		<tag k="alt_name" v="Langleitet, s;Langleitet, søre" />
		<tag k="name" v="Søre Langleite" />
		<tag k="place" v="farm" />
		<tag k="ssr:stedsnr" v="435702" />
	</node>
	<node id="9625637213" lat="61.8645112" lon="8.2990334" version="1" timestamp="2022-03-31T06:08:51Z" changeset="119142720" uid="3497659" user="NKA">
		<tag k="name" v="Krokstadteigen" />
		<tag k="place" v="farm" />
		<tag k="ssr:stedsnr" v="860812" />
	</node>
	<node id="9625637214" lat="61.9102167" lon="8.1642018" version="1" timestamp="2022-03-31T06:08:51Z" changeset="119142720" uid="3497659" user="NKA">
		<tag k="name" v="Ruste" />
		<tag k="place" v="farm" />
		<tag k="ssr:stedsnr" v="354083" />
	</node>
	<node id="9625637215" lat="61.9111056" lon="8.0791028" version="1" timestamp="2022-03-31T06:08:51Z" changeset="119142720" uid="3497659" user="NKA">
		<tag k="name" v="Sørheim" />
		<tag k="place" v="farm" />
		<tag k="ssr:stedsnr" v="313707" />
	</node>
	<node id="9625637216" lat="61.8955899" lon="8.2123154" version="1" timestamp="2022-03-31T06:08:51Z" changeset="119142720" uid="3497659" user="NKA">
		<tag k="name" v="Uppigard Flækøy" />
		<tag k="place" v="farm" />
		<tag k="ssr:stedsnr" v="294041" />
	</node>
	<node id="9625637217" lat="61.9147973" lon="8.0932029" version="1" timestamp="2022-03-31T06:08:51Z" changeset="119142720" uid="3497659" user="NKA">
		<tag k="name" v="Bruvoll" />
		<tag k="place" v="hamlet" />
		<tag k="ssr:stedsnr" v="293456" />
	</node>
	<node id="9625637218" lat="61.8974061" lon="8.1973703" version="1" timestamp="2022-03-31T06:08:51Z" changeset="119142720" uid="3497659" user="NKA">
		<tag k="alt_name" v="Prestøygarden" />
		<tag k="name" v="Prestgardsøygarden" />
		<tag k="place" v="farm" />
		<tag k="ssr:stedsnr" v="131865" />
	</node>
	<node id="9625637219" lat="61.9035847" lon="8.1544691" version="1" timestamp="2022-03-31T06:08:51Z" changeset="119142720" uid="3497659" user="NKA">
		<tag k="name" v="Dagsgardsøygarden" />
		<tag k="place" v="farm" />
		<tag k="ssr:stedsnr" v="253839" />
	</node>
	<node id="9625637220" lat="61.944075" lon="8.0067223" version="1" timestamp="2022-03-31T06:08:51Z" changeset="119142720" uid="3497659" user="NKA">
		<tag k="alt_name" v="Søre Heiggjebotn" />
		<tag k="name" v="Søre Heggjebotn" />
		<tag k="place" v="farm" />
		<tag k="ssr:stedsnr" v="111259" />
	</node>
	<node id="9625637221" lat="61.9079639" lon="8.1482779" version="1" timestamp="2022-03-31T06:08:51Z" changeset="119142720" uid="3497659" user="NKA">
		<tag k="name" v="Søre Åbusmoen" />
		<tag k="place" v="farm" />
		<tag k="ssr:stedsnr" v="112105" />
	</node>
	<node id="9625637222" lat="61.9108888" lon="8.1614388" version="1" timestamp="2022-03-31T06:08:51Z" changeset="119142720" uid="3497659" user="NKA">
		<tag k="name" v="Medgarden" />
		<tag k="place" v="farm" />
		<tag k="ssr:stedsnr" v="172076" />
	</node>
	<node id="9625637223" lat="61.8755444" lon="8.2651028" version="1" timestamp="2022-03-31T06:08:51Z" changeset="119142720" uid="3497659" user="NKA">
		<tag k="name" v="Skogli" />
		<tag k="place" v="farm" />
		<tag k="ssr:stedsnr" v="172126" />
	</node>
	<node id="9625637224" lat="61.890575" lon="8.24595" version="1" timestamp="2022-03-31T06:08:51Z" changeset="119142720" uid="3497659" user="NKA">
		<tag k="name" v="Moastugu" />
		<tag k="place" v="farm" />
		<tag k="ssr:stedsnr" v="172013" />
	</node>
	<node id="9625637225" lat="61.919016" lon="8.1135057" version="1" timestamp="2022-03-31T06:08:51Z" changeset="119142720" uid="3497659" user="NKA">
		<tag k="name" v="Kveom" />
		<tag k="place" v="farm" />
		<tag k="ssr:stedsnr" v="171423" />
	</node>
	<node id="9625637226" lat="61.8954611" lon="8.2523195" version="1" timestamp="2022-03-31T06:08:51Z" changeset="119142720" uid="3497659" user="NKA">
		<tag k="name" v="Øvre Bruheim" />
		<tag k="place" v="farm" />
		<tag k="ssr:stedsnr" v="172022" />
	</node>
</osm>
