<?xml version="1.0" encoding="UTF-8"?>
<osm generator="osmapis" version="0.6">
	<node id="-608759" lat="63.1446388865" lon="8.49713611646">
		<tag k="name" v="Helgeneset" />
		<tag k="ssr:date" v="2016-05-11" />
		<tag k="ssr:gruppe" v="navigasjon" />
		<tag k="ssr:hovedgruppe" v="infrastruktur" />
		<tag k="ssr:stedsnr" v="838814" />
		<tag k="ssr:type" v="fyrlykt" />
	</node>
	<node id="-607385" lat="63.1192726243" lon="8.30495962824">
		<tag k="name" v="Haugan" />
		<tag k="ssr:date" v="2019-05-31" />
		<tag k="ssr:gruppe" v="veg" />
		<tag k="ssr:hovedgruppe" v="infrastruktur" />
		<tag k="ssr:stedsnr" v="1060036" />
		<tag k="ssr:type" v="adressenavn" />
	</node>
	<node id="-607893" lat="63.0288194403" lon="8.21947223214">
		<tag k="name" v="Saksnes" />
		<tag k="ssr:date" v="2016-05-10" />
		<tag k="ssr:gruppe" v="navigasjon" />
		<tag k="ssr:hovedgruppe" v="infrastruktur" />
		<tag k="ssr:stedsnr" v="202186" />
		<tag k="ssr:type" v="fyrlykt" />
	</node>
	<node id="-607539" lat="63.1080858941" lon="8.16768266671">
		<tag k="name" v="Storvika" />
		<tag k="ssr:date" v="2019-10-28" />
		<tag k="ssr:gruppe" v="veg" />
		<tag k="ssr:hovedgruppe" v="infrastruktur" />
		<tag k="ssr:stedsnr" v="1073108" />
		<tag k="ssr:type" v="adressenavn" />
	</node>
	<node id="-607538" lat="63.1180315163" lon="8.31449115423">
		<tag k="name" v="Øvre Trøa" />
		<tag k="ssr:date" v="2019-10-28" />
		<tag k="ssr:gruppe" v="veg" />
		<tag k="ssr:hovedgruppe" v="infrastruktur" />
		<tag k="ssr:stedsnr" v="1073106" />
		<tag k="ssr:type" v="adressenavn" />
	</node>
	<node id="-607352" lat="63.097105686" lon="8.63002157051">
		<tag k="name" v="Fossdalen" />
		<tag k="ssr:date" v="2019-05-31" />
		<tag k="ssr:gruppe" v="veg" />
		<tag k="ssr:hovedgruppe" v="infrastruktur" />
		<tag k="ssr:stedsnr" v="1059966" />
		<tag k="ssr:type" v="adressenavn" />
	</node>
	<node id="-608461" lat="63.1550972204" lon="8.52315555219">
		<tag k="name" v="Risholmen" />
		<tag k="ssr:date" v="2016-05-11" />
		<tag k="ssr:gruppe" v="navigasjon" />
		<tag k="ssr:hovedgruppe" v="infrastruktur" />
		<tag k="ssr:stedsnr" v="687188" />
		<tag k="ssr:type" v="fyrlykt" />
	</node>
	<node id="-607428" lat="63.1826792712" lon="8.73978885725">
		<tag k="name" v="Vinjefjordsveien" />
		<tag k="old_name" v="Vinjefjordveien" />
		<tag k="ssr:date" v="2019-12-02" />
		<tag k="ssr:gruppe" v="veg" />
		<tag k="ssr:hovedgruppe" v="infrastruktur" />
		<tag k="ssr:stedsnr" v="1060125" />
		<tag k="ssr:type" v="adressenavn" />
	</node>
	<node id="-607425" lat="63.1457697625" lon="8.29437186626">
		<tag k="name" v="Strandageilen" />
		<tag k="ssr:date" v="2019-05-31" />
		<tag k="ssr:gruppe" v="veg" />
		<tag k="ssr:hovedgruppe" v="infrastruktur" />
		<tag k="ssr:stedsnr" v="1060083" />
		<tag k="ssr:type" v="adressenavn" />
	</node>
	<node id="-607423" lat="63.121807014" lon="8.34586114026">
		<tag k="name" v="Glåmsvegen" />
		<tag k="ssr:date" v="2019-05-31" />
		<tag k="ssr:gruppe" v="veg" />
		<tag k="ssr:hovedgruppe" v="infrastruktur" />
		<tag k="ssr:stedsnr" v="1060082" />
		<tag k="ssr:type" v="adressenavn" />
	</node>
	<node id="-607422" lat="63.1296048657" lon="8.35411835616">
		<tag k="name" v="Klettavegen" />
		<tag k="ssr:date" v="2019-05-31" />
		<tag k="ssr:gruppe" v="veg" />
		<tag k="ssr:hovedgruppe" v="infrastruktur" />
		<tag k="ssr:stedsnr" v="1060081" />
		<tag k="ssr:type" v="adressenavn" />
	</node>
	<node id="-607421" lat="63.0873665463" lon="8.35222206419">
		<tag k="name" v="Lånavegen" />
		<tag k="ssr:date" v="2019-05-31" />
		<tag k="ssr:gruppe" v="veg" />
		<tag k="ssr:hovedgruppe" v="infrastruktur" />
		<tag k="ssr:stedsnr" v="1060080" />
		<tag k="ssr:type" v="adressenavn" />
	</node>
	<node id="-607420" lat="63.1209744186" lon="8.16160724903">
		<tag k="name" v="Fjærvikslettet" />
		<tag k="ssr:date" v="2019-05-31" />
		<tag k="ssr:gruppe" v="veg" />
		<tag k="ssr:hovedgruppe" v="infrastruktur" />
		<tag k="ssr:stedsnr" v="1060077" />
		<tag k="ssr:type" v="adressenavn" />
	</node>
	<node id="-607419" lat="63.11980257" lon="8.29597340479">
		<tag k="name" v="Gammelvegen" />
		<tag k="ssr:date" v="2019-05-31" />
		<tag k="ssr:gruppe" v="veg" />
		<tag k="ssr:hovedgruppe" v="infrastruktur" />
		<tag k="ssr:stedsnr" v="1060075" />
		<tag k="ssr:type" v="adressenavn" />
	</node>
	<node id="-607418" lat="63.1187993363" lon="8.27674873524">
		<tag k="name" v="Oppistuvegen" />
		<tag k="ssr:date" v="2019-05-31" />
		<tag k="ssr:gruppe" v="veg" />
		<tag k="ssr:hovedgruppe" v="infrastruktur" />
		<tag k="ssr:stedsnr" v="1060074" />
		<tag k="ssr:type" v="adressenavn" />
	</node>
	<node id="-607417" lat="63.1463381275" lon="8.27201583419">
		<tag k="name" v="Strandvågen" />
		<tag k="old_name" v="Strandavågen" />
		<tag k="ssr:date" v="2019-12-02" />
		<tag k="ssr:gruppe" v="veg" />
		<tag k="ssr:hovedgruppe" v="infrastruktur" />
		<tag k="ssr:stedsnr" v="1060072" />
		<tag k="ssr:type" v="adressenavn" />
	</node>
	<node id="-607416" lat="63.1323246443" lon="8.37746912799">
		<tag k="name" v="Einvegen" />
		<tag k="ssr:date" v="2019-05-31" />
		<tag k="ssr:gruppe" v="veg" />
		<tag k="ssr:hovedgruppe" v="infrastruktur" />
		<tag k="ssr:stedsnr" v="1060070" />
		<tag k="ssr:type" v="adressenavn" />
	</node>
	<node id="-607415" lat="63.1340416497" lon="8.39616755229">
		<tag k="name" v="Myravegen" />
		<tag k="ssr:date" v="2019-05-31" />
		<tag k="ssr:gruppe" v="veg" />
		<tag k="ssr:hovedgruppe" v="infrastruktur" />
		<tag k="ssr:stedsnr" v="1060069" />
		<tag k="ssr:type" v="adressenavn" />
	</node>
	<node id="-607414" lat="63.1327659533" lon="8.40395474922">
		<tag k="name" v="Hennadalsvegen" />
		<tag k="ssr:date" v="2019-05-31" />
		<tag k="ssr:gruppe" v="veg" />
		<tag k="ssr:hovedgruppe" v="infrastruktur" />
		<tag k="ssr:stedsnr" v="1060068" />
		<tag k="ssr:type" v="adressenavn" />
	</node>
	<node id="-607413" lat="63.1336827026" lon="8.40750270608">
		<tag k="name" v="Rønningvegen" />
		<tag k="ssr:date" v="2019-05-31" />
		<tag k="ssr:gruppe" v="veg" />
		<tag k="ssr:hovedgruppe" v="infrastruktur" />
		<tag k="ssr:stedsnr" v="1060067" />
		<tag k="ssr:type" v="adressenavn" />
	</node>
	<node id="-607412" lat="63.087775797" lon="8.35595762546">
		<tag k="name" v="Haugaskarsvegen" />
		<tag k="ssr:date" v="2019-05-31" />
		<tag k="ssr:gruppe" v="veg" />
		<tag k="ssr:hovedgruppe" v="infrastruktur" />
		<tag k="ssr:stedsnr" v="1060065" />
		<tag k="ssr:type" v="adressenavn" />
	</node>
	<node id="-607411" lat="63.0876416434" lon="8.38641673253">
		<tag k="name" v="Bortistuvegen" />
		<tag k="ssr:date" v="2019-05-31" />
		<tag k="ssr:gruppe" v="veg" />
		<tag k="ssr:hovedgruppe" v="infrastruktur" />
		<tag k="ssr:stedsnr" v="1060064" />
		<tag k="ssr:type" v="adressenavn" />
	</node>
	<node id="-607410" lat="63.084101063" lon="8.4086474821">
		<tag k="name" v="Rognskogvegen" />
		<tag k="ssr:date" v="2019-05-31" />
		<tag k="ssr:gruppe" v="veg" />
		<tag k="ssr:hovedgruppe" v="infrastruktur" />
		<tag k="ssr:stedsnr" v="1060063" />
		<tag k="ssr:type" v="adressenavn" />
	</node>
	<node id="-607408" lat="63.0770830182" lon="8.41098719181">
		<tag k="name" v="Gammelstuvegen" />
		<tag k="ssr:date" v="2019-05-31" />
		<tag k="ssr:gruppe" v="veg" />
		<tag k="ssr:hovedgruppe" v="infrastruktur" />
		<tag k="ssr:stedsnr" v="1060061" />
		<tag k="ssr:type" v="adressenavn" />
	</node>
	<node id="-607407" lat="63.0690388327" lon="8.22799022799">
		<tag k="name" v="Halsabakkan" />
		<tag k="ssr:date" v="2019-05-31" />
		<tag k="ssr:gruppe" v="veg" />
		<tag k="ssr:hovedgruppe" v="infrastruktur" />
		<tag k="ssr:stedsnr" v="1060060" />
		<tag k="ssr:type" v="adressenavn" />
	</node>
	<node id="-607404" lat="63.0718041041" lon="8.2243186824">
		<tag k="name" v="Halsahagan" />
		<tag k="ssr:date" v="2019-05-31" />
		<tag k="ssr:gruppe" v="veg" />
		<tag k="ssr:hovedgruppe" v="infrastruktur" />
		<tag k="ssr:stedsnr" v="1060057" />
		<tag k="ssr:type" v="adressenavn" />
	</node>
	<node id="-607403" lat="63.0671208473" lon="8.23425042914">
		<tag k="name" v="Vullumstranda" />
		<tag k="ssr:date" v="2019-05-31" />
		<tag k="ssr:gruppe" v="veg" />
		<tag k="ssr:hovedgruppe" v="infrastruktur" />
		<tag k="ssr:stedsnr" v="1060056" />
		<tag k="ssr:type" v="adressenavn" />
	</node>
	<node id="-607402" lat="63.073084615" lon="8.24874858671">
		<tag k="name" v="Halsavegen" />
		<tag k="ssr:date" v="2019-05-31" />
		<tag k="ssr:gruppe" v="veg" />
		<tag k="ssr:hovedgruppe" v="infrastruktur" />
		<tag k="ssr:stedsnr" v="1060055" />
		<tag k="ssr:type" v="adressenavn" />
	</node>
	<node id="-607401" lat="63.0871579782" lon="8.34519036435">
		<tag k="name" v="Larsstuvegen" />
		<tag k="ssr:date" v="2019-05-31" />
		<tag k="ssr:gruppe" v="veg" />
		<tag k="ssr:hovedgruppe" v="infrastruktur" />
		<tag k="ssr:stedsnr" v="1060054" />
		<tag k="ssr:type" v="adressenavn" />
	</node>
	<node id="-607400" lat="63.0854563824" lon="8.34127756727">
		<tag k="name" v="Sjøvegen" />
		<tag k="ssr:date" v="2019-05-31" />
		<tag k="ssr:gruppe" v="veg" />
		<tag k="ssr:hovedgruppe" v="infrastruktur" />
		<tag k="ssr:stedsnr" v="1060052" />
		<tag k="ssr:type" v="adressenavn" />
	</node>
	<node id="-607399" lat="63.0686595779" lon="8.22741451271">
		<tag k="name" v="Landvegen" />
		<tag k="ssr:date" v="2019-05-31" />
		<tag k="ssr:gruppe" v="veg" />
		<tag k="ssr:hovedgruppe" v="infrastruktur" />
		<tag k="ssr:stedsnr" v="1060050" />
		<tag k="ssr:type" v="adressenavn" />
	</node>
	<node id="-607398" lat="63.0724878127" lon="8.28431109948">
		<tag k="name" v="Knarrbukta" />
		<tag k="ssr:date" v="2019-05-31" />
		<tag k="ssr:gruppe" v="veg" />
		<tag k="ssr:hovedgruppe" v="infrastruktur" />
		<tag k="ssr:stedsnr" v="1060049" />
		<tag k="ssr:type" v="adressenavn" />
	</node>
	<node id="-607397" lat="63.1081807408" lon="8.26270507366">
		<tag k="name" v="Bårsetvegen" />
		<tag k="ssr:date" v="2019-05-31" />
		<tag k="ssr:gruppe" v="veg" />
		<tag k="ssr:hovedgruppe" v="infrastruktur" />
		<tag k="ssr:stedsnr" v="1060047" />
		<tag k="ssr:type" v="adressenavn" />
	</node>
	<node id="-607396" lat="63.1181072171" lon="8.24919676095">
		<tag k="name" v="Geilvegen" />
		<tag k="ssr:date" v="2019-05-31" />
		<tag k="ssr:gruppe" v="veg" />
		<tag k="ssr:hovedgruppe" v="infrastruktur" />
		<tag k="ssr:stedsnr" v="1060046" />
		<tag k="ssr:type" v="adressenavn" />
	</node>
	<node id="-607395" lat="63.1293614289" lon="8.23692286176">
		<tag k="name" v="Smøraugvegen" />
		<tag k="ssr:date" v="2019-05-31" />
		<tag k="ssr:gruppe" v="veg" />
		<tag k="ssr:hovedgruppe" v="infrastruktur" />
		<tag k="ssr:stedsnr" v="1060045" />
		<tag k="ssr:type" v="adressenavn" />
	</node>
	<node id="-607394" lat="63.0776829354" lon="8.25779554361">
		<tag k="name" v="Fredheimvegen" />
		<tag k="ssr:date" v="2019-05-31" />
		<tag k="ssr:gruppe" v="veg" />
		<tag k="ssr:hovedgruppe" v="infrastruktur" />
		<tag k="ssr:stedsnr" v="1060044" />
		<tag k="ssr:type" v="adressenavn" />
	</node>
	<node id="-607393" lat="63.0840550001" lon="8.26977073001">
		<tag k="name" v="Åsbøvegen" />
		<tag k="ssr:date" v="2019-05-31" />
		<tag k="ssr:gruppe" v="veg" />
		<tag k="ssr:hovedgruppe" v="infrastruktur" />
		<tag k="ssr:stedsnr" v="1060043" />
		<tag k="ssr:type" v="adressenavn" />
	</node>
	<node id="-607392" lat="63.0883303859" lon="8.28089189939">
		<tag k="name" v="Gjerstadvegen" />
		<tag k="ssr:date" v="2019-05-31" />
		<tag k="ssr:gruppe" v="veg" />
		<tag k="ssr:hovedgruppe" v="infrastruktur" />
		<tag k="ssr:stedsnr" v="1060042" />
		<tag k="ssr:type" v="adressenavn" />
	</node>
	<node id="-607391" lat="63.10374059" lon="8.26836368392">
		<tag k="name" v="Verkstedvegen" />
		<tag k="ssr:date" v="2019-05-31" />
		<tag k="ssr:gruppe" v="veg" />
		<tag k="ssr:hovedgruppe" v="infrastruktur" />
		<tag k="ssr:stedsnr" v="1060041" />
		<tag k="ssr:type" v="adressenavn" />
	</node>
	<node id="-607390" lat="63.1197474282" lon="8.30567425181">
		<tag k="name" v="Utistuvegen" />
		<tag k="ssr:date" v="2019-05-31" />
		<tag k="ssr:gruppe" v="veg" />
		<tag k="ssr:hovedgruppe" v="infrastruktur" />
		<tag k="ssr:stedsnr" v="1060039" />
		<tag k="ssr:type" v="adressenavn" />
	</node>
	<node id="-607389" lat="63.1204246084" lon="8.305632906">
		<tag k="name" v="Furukamvegen" />
		<tag k="ssr:date" v="2019-05-31" />
		<tag k="ssr:gruppe" v="veg" />
		<tag k="ssr:hovedgruppe" v="infrastruktur" />
		<tag k="ssr:stedsnr" v="1060038" />
		<tag k="ssr:type" v="adressenavn" />
	</node>
	<node id="-607388" lat="63.1198019726" lon="8.30495391555">
		<tag k="name" v="Våglandsvegen" />
		<tag k="ssr:date" v="2019-05-31" />
		<tag k="ssr:gruppe" v="veg" />
		<tag k="ssr:hovedgruppe" v="infrastruktur" />
		<tag k="ssr:stedsnr" v="1060037" />
		<tag k="ssr:type" v="adressenavn" />
	</node>
	<node id="-607343" lat="63.1190993264" lon="8.62373052578">
		<tag k="name" v="Stakkvikvegen" />
		<tag k="ssr:date" v="2019-05-31" />
		<tag k="ssr:gruppe" v="veg" />
		<tag k="ssr:hovedgruppe" v="infrastruktur" />
		<tag k="ssr:stedsnr" v="1059947" />
		<tag k="ssr:type" v="adressenavn" />
	</node>
	<node id="-607383" lat="63.1012290223" lon="8.33662998656">
		<tag k="name" v="Åfarlivegen" />
		<tag k="ssr:date" v="2019-05-31" />
		<tag k="ssr:gruppe" v="veg" />
		<tag k="ssr:hovedgruppe" v="infrastruktur" />
		<tag k="ssr:stedsnr" v="1060033" />
		<tag k="ssr:type" v="adressenavn" />
	</node>
	<node id="-607381" lat="63.0981780203" lon="8.34025614649">
		<tag k="name" v="Hamnavegen" />
		<tag k="ssr:date" v="2019-05-31" />
		<tag k="ssr:gruppe" v="veg" />
		<tag k="ssr:hovedgruppe" v="infrastruktur" />
		<tag k="ssr:stedsnr" v="1060032" />
		<tag k="ssr:type" v="adressenavn" />
	</node>
	<node id="-607380" lat="63.0955381847" lon="8.3455135558">
		<tag k="name" v="Tjønngrenda" />
		<tag k="old_name" v="Gjengstøvegen" />
		<tag k="ssr:date" v="2019-12-02" />
		<tag k="ssr:gruppe" v="veg" />
		<tag k="ssr:hovedgruppe" v="infrastruktur" />
		<tag k="ssr:stedsnr" v="1060031" />
		<tag k="ssr:type" v="adressenavn" />
	</node>
	<node id="-607379" lat="63.0870347911" lon="8.34183788908">
		<tag k="name" v="Betnneset" />
		<tag k="ssr:date" v="2019-05-31" />
		<tag k="ssr:gruppe" v="veg" />
		<tag k="ssr:hovedgruppe" v="infrastruktur" />
		<tag k="ssr:stedsnr" v="1060030" />
		<tag k="ssr:type" v="adressenavn" />
	</node>
	<node id="-607378" lat="63.1175695887" lon="8.31150840079">
		<tag k="name" v="Trøavegen" />
		<tag k="ssr:date" v="2019-05-31" />
		<tag k="ssr:gruppe" v="veg" />
		<tag k="ssr:hovedgruppe" v="infrastruktur" />
		<tag k="ssr:stedsnr" v="1060027" />
		<tag k="ssr:type" v="adressenavn" />
	</node>
	<node id="-607377" lat="63.1190952933" lon="8.30994946251">
		<tag k="name" v="Glåmsmyrvegen" />
		<tag k="ssr:date" v="2019-05-31" />
		<tag k="ssr:gruppe" v="veg" />
		<tag k="ssr:hovedgruppe" v="infrastruktur" />
		<tag k="ssr:stedsnr" v="1060025" />
		<tag k="ssr:type" v="adressenavn" />
	</node>
	<node id="-607376" lat="63.1218392614" lon="8.3141440721">
		<tag k="name" v="Liabøvegen" />
		<tag k="ssr:date" v="2019-05-31" />
		<tag k="ssr:gruppe" v="veg" />
		<tag k="ssr:hovedgruppe" v="infrastruktur" />
		<tag k="ssr:stedsnr" v="1060024" />
		<tag k="ssr:type" v="adressenavn" />
	</node>
	<node id="-607375" lat="63.1191833615" lon="8.30829259978">
		<tag k="name" v="Gurålivegen" />
		<tag k="ssr:date" v="2019-05-31" />
		<tag k="ssr:gruppe" v="veg" />
		<tag k="ssr:hovedgruppe" v="infrastruktur" />
		<tag k="ssr:stedsnr" v="1060023" />
		<tag k="ssr:type" v="adressenavn" />
	</node>
	<node id="-607368" lat="63.1762216045" lon="8.65712308499">
		<tag k="name" v="Rodalsvegen" />
		<tag k="ssr:date" v="2019-05-31" />
		<tag k="ssr:gruppe" v="veg" />
		<tag k="ssr:hovedgruppe" v="infrastruktur" />
		<tag k="ssr:stedsnr" v="1059999" />
		<tag k="ssr:type" v="adressenavn" />
	</node>
	<node id="-607367" lat="63.1660715802" lon="8.66919480895">
		<tag k="name" v="Dalavegen" />
		<tag k="ssr:date" v="2019-05-31" />
		<tag k="ssr:gruppe" v="veg" />
		<tag k="ssr:hovedgruppe" v="infrastruktur" />
		<tag k="ssr:stedsnr" v="1059997" />
		<tag k="ssr:type" v="adressenavn" />
	</node>
	<node id="-607366" lat="63.1744516131" lon="8.65505375404">
		<tag k="name" v="Solbakkvegen" />
		<tag k="ssr:date" v="2019-05-31" />
		<tag k="ssr:gruppe" v="veg" />
		<tag k="ssr:hovedgruppe" v="infrastruktur" />
		<tag k="ssr:stedsnr" v="1059994" />
		<tag k="ssr:type" v="adressenavn" />
	</node>
	<node id="-607365" lat="63.1819719289" lon="8.73893457851">
		<tag k="name" v="Engdalsvegen" />
		<tag k="ssr:date" v="2019-05-31" />
		<tag k="ssr:gruppe" v="veg" />
		<tag k="ssr:hovedgruppe" v="infrastruktur" />
		<tag k="ssr:stedsnr" v="1059992" />
		<tag k="ssr:type" v="adressenavn" />
	</node>
	<node id="-607363" lat="63.1491326491" lon="8.56597224943">
		<tag k="name" v="Sollivegen" />
		<tag k="ssr:date" v="2019-05-31" />
		<tag k="ssr:gruppe" v="veg" />
		<tag k="ssr:hovedgruppe" v="infrastruktur" />
		<tag k="ssr:stedsnr" v="1059990" />
		<tag k="ssr:type" v="adressenavn" />
	</node>
	<node id="-607362" lat="63.1645732232" lon="8.57361697556">
		<tag k="name" v="Kvithylla" />
		<tag k="ssr:date" v="2019-05-31" />
		<tag k="ssr:gruppe" v="veg" />
		<tag k="ssr:hovedgruppe" v="infrastruktur" />
		<tag k="ssr:stedsnr" v="1059988" />
		<tag k="ssr:type" v="adressenavn" />
	</node>
	<node id="-607360" lat="63.1724139333" lon="8.63058033675">
		<tag k="name" v="Sjølivegen" />
		<tag k="ssr:date" v="2019-05-31" />
		<tag k="ssr:gruppe" v="veg" />
		<tag k="ssr:hovedgruppe" v="infrastruktur" />
		<tag k="ssr:stedsnr" v="1059985" />
		<tag k="ssr:type" v="adressenavn" />
	</node>
	<node id="-607358" lat="63.1816142173" lon="8.74446498946">
		<tag k="name" v="Vollvegen" />
		<tag k="ssr:date" v="2019-05-31" />
		<tag k="ssr:gruppe" v="veg" />
		<tag k="ssr:hovedgruppe" v="infrastruktur" />
		<tag k="ssr:stedsnr" v="1059976" />
		<tag k="ssr:type" v="adressenavn" />
	</node>
	<node id="-607357" lat="63.1619479745" lon="8.7651800605">
		<tag k="name" v="Setervegen" />
		<tag k="ssr:date" v="2019-05-31" />
		<tag k="ssr:gruppe" v="veg" />
		<tag k="ssr:hovedgruppe" v="infrastruktur" />
		<tag k="ssr:stedsnr" v="1059974" />
		<tag k="ssr:type" v="adressenavn" />
	</node>
	<node id="-607356" lat="63.1177421021" lon="8.31955503402">
		<tag k="name" v="Skolevegen" />
		<tag k="ssr:date" v="2019-05-31" />
		<tag k="ssr:gruppe" v="veg" />
		<tag k="ssr:hovedgruppe" v="infrastruktur" />
		<tag k="ssr:stedsnr" v="1059972" />
		<tag k="ssr:type" v="adressenavn" />
	</node>
	<node id="-607355" lat="63.0934224101" lon="8.61624384835">
		<tag k="name" v="Heimigarden" />
		<tag k="ssr:date" v="2019-05-31" />
		<tag k="ssr:gruppe" v="veg" />
		<tag k="ssr:hovedgruppe" v="infrastruktur" />
		<tag k="ssr:stedsnr" v="1059969" />
		<tag k="ssr:type" v="adressenavn" />
	</node>
	<node id="-607354" lat="63.0952180633" lon="8.62587021638">
		<tag k="name" v="Skogavegen" />
		<tag k="ssr:date" v="2019-05-31" />
		<tag k="ssr:gruppe" v="veg" />
		<tag k="ssr:hovedgruppe" v="infrastruktur" />
		<tag k="ssr:stedsnr" v="1059968" />
		<tag k="ssr:type" v="adressenavn" />
	</node>
	<node id="-608888" lat="60.8816104596" lon="6.30047518531">
		<tag k="name" v="Vestlandet" />
		<tag k="ssr:date" v="2019-01-06" />
		<tag k="ssr:gruppe" v="administrativeIndelinger" />
		<tag k="ssr:hovedgruppe" v="offentligAdministrasjon" />
		<tag k="ssr:stedsnr" v="974777" />
		<tag k="ssr:type" v="annenAdministrativInndeling" />
	</node>
	<node id="-607351" lat="63.0955029496" lon="8.63587245946">
		<tag k="name" v="Reinslivegen" />
		<tag k="ssr:date" v="2019-05-31" />
		<tag k="ssr:gruppe" v="veg" />
		<tag k="ssr:hovedgruppe" v="infrastruktur" />
		<tag k="ssr:stedsnr" v="1059964" />
		<tag k="ssr:type" v="adressenavn" />
	</node>
	<node id="-607350" lat="63.1218180931" lon="8.57760636654">
		<tag k="name" v="Villavegen" />
		<tag k="ssr:date" v="2019-05-31" />
		<tag k="ssr:gruppe" v="veg" />
		<tag k="ssr:hovedgruppe" v="infrastruktur" />
		<tag k="ssr:stedsnr" v="1059962" />
		<tag k="ssr:type" v="adressenavn" />
	</node>
	<node id="-607349" lat="63.0994617496" lon="8.60465148625">
		<tag k="name" v="Nygardsvegen" />
		<tag k="ssr:date" v="2019-05-31" />
		<tag k="ssr:gruppe" v="veg" />
		<tag k="ssr:hovedgruppe" v="infrastruktur" />
		<tag k="ssr:stedsnr" v="1059959" />
		<tag k="ssr:type" v="adressenavn" />
	</node>
	<node id="-607348" lat="63.0942226787" lon="8.61348020116">
		<tag k="name" v="Haugaslettvegen" />
		<tag k="old_name" v="Haugavegen" />
		<tag k="ssr:date" v="2019-12-02" />
		<tag k="ssr:gruppe" v="veg" />
		<tag k="ssr:hovedgruppe" v="infrastruktur" />
		<tag k="ssr:stedsnr" v="1059958" />
		<tag k="ssr:type" v="adressenavn" />
	</node>
	<node id="-607347" lat="63.1231045714" lon="8.61699693652">
		<tag k="name" v="Fjærlihalsvegen" />
		<tag k="ssr:date" v="2019-05-31" />
		<tag k="ssr:gruppe" v="veg" />
		<tag k="ssr:hovedgruppe" v="infrastruktur" />
		<tag k="ssr:stedsnr" v="1059956" />
		<tag k="ssr:type" v="adressenavn" />
	</node>
	<node id="-607346" lat="63.1283508715" lon="8.60138647339">
		<tag k="name" v="Bøkkervegen" />
		<tag k="ssr:date" v="2019-05-31" />
		<tag k="ssr:gruppe" v="veg" />
		<tag k="ssr:hovedgruppe" v="infrastruktur" />
		<tag k="ssr:stedsnr" v="1059954" />
		<tag k="ssr:type" v="adressenavn" />
	</node>
	<node id="-607345" lat="63.1457633026" lon="8.56477833978">
		<tag k="name" v="Trøhaugen" />
		<tag k="ssr:date" v="2019-05-31" />
		<tag k="ssr:gruppe" v="veg" />
		<tag k="ssr:hovedgruppe" v="infrastruktur" />
		<tag k="ssr:stedsnr" v="1059951" />
		<tag k="ssr:type" v="adressenavn" />
	</node>
	<node id="-607344" lat="63.0982409008" lon="8.62927420251">
		<tag k="name" v="Øran" />
		<tag k="ssr:date" v="2019-05-31" />
		<tag k="ssr:gruppe" v="veg" />
		<tag k="ssr:hovedgruppe" v="infrastruktur" />
		<tag k="ssr:stedsnr" v="1059948" />
		<tag k="ssr:type" v="adressenavn" />
	</node>
	<node id="-608367" lat="63.1190361117" lon="8.3092750088">
		<tag k="name" v="Halsa kommune" />
		<tag k="ssr:date" v="2016-05-10" />
		<tag k="ssr:gruppe" v="administrativeIndelinger" />
		<tag k="ssr:hovedgruppe" v="offentligAdministrasjon" />
		<tag k="ssr:stedsnr" v="632200" />
		<tag k="ssr:type" v="kommune" />
	</node>
	<node id="-607342" lat="63.120336409" lon="8.61761977467">
		<tag k="name" v="Halsvika" />
		<tag k="ssr:date" v="2019-05-31" />
		<tag k="ssr:gruppe" v="veg" />
		<tag k="ssr:hovedgruppe" v="infrastruktur" />
		<tag k="ssr:stedsnr" v="1059945" />
		<tag k="ssr:type" v="adressenavn" />
	</node>
	<node id="-607341" lat="63.1241283407" lon="8.61781538538">
		<tag k="name" v="Fjærlivegen" />
		<tag k="ssr:date" v="2019-05-31" />
		<tag k="ssr:gruppe" v="veg" />
		<tag k="ssr:hovedgruppe" v="infrastruktur" />
		<tag k="ssr:stedsnr" v="1059943" />
		<tag k="ssr:type" v="adressenavn" />
	</node>
	<node id="-607340" lat="63.1299440786" lon="8.5141483806">
		<tag k="name" v="Slettavegen" />
		<tag k="ssr:date" v="2019-05-31" />
		<tag k="ssr:gruppe" v="veg" />
		<tag k="ssr:hovedgruppe" v="infrastruktur" />
		<tag k="ssr:stedsnr" v="1059940" />
		<tag k="ssr:type" v="adressenavn" />
	</node>
	<node id="-607339" lat="63.1297864651" lon="8.5153012042">
		<tag k="name" v="Stolavegen" />
		<tag k="ssr:date" v="2019-05-31" />
		<tag k="ssr:gruppe" v="veg" />
		<tag k="ssr:hovedgruppe" v="infrastruktur" />
		<tag k="ssr:stedsnr" v="1059938" />
		<tag k="ssr:type" v="adressenavn" />
	</node>
	<node id="-607337" lat="63.1424970602" lon="8.53317684784">
		<tag k="name" v="Valsøyvegen" />
		<tag k="ssr:date" v="2019-05-31" />
		<tag k="ssr:gruppe" v="veg" />
		<tag k="ssr:hovedgruppe" v="infrastruktur" />
		<tag k="ssr:stedsnr" v="1059935" />
		<tag k="ssr:type" v="adressenavn" />
	</node>
	<node id="-607335" lat="63.1427977882" lon="8.57013927302">
		<tag k="name" v="Valsøyfjordvegen" />
		<tag k="ssr:date" v="2019-05-31" />
		<tag k="ssr:gruppe" v="veg" />
		<tag k="ssr:hovedgruppe" v="infrastruktur" />
		<tag k="ssr:stedsnr" v="1059933" />
		<tag k="ssr:type" v="adressenavn" />
	</node>
	<node id="-607333" lat="63.1342386663" lon="8.44467699514">
		<tag k="name" v="Innlegget" />
		<tag k="ssr:date" v="2019-05-31" />
		<tag k="ssr:gruppe" v="veg" />
		<tag k="ssr:hovedgruppe" v="infrastruktur" />
		<tag k="ssr:stedsnr" v="1059930" />
		<tag k="ssr:type" v="adressenavn" />
	</node>
	<node id="-607332" lat="63.1346196316" lon="8.45266614024">
		<tag k="name" v="Skarphaugen" />
		<tag k="ssr:date" v="2019-05-31" />
		<tag k="ssr:gruppe" v="veg" />
		<tag k="ssr:hovedgruppe" v="infrastruktur" />
		<tag k="ssr:stedsnr" v="1059926" />
		<tag k="ssr:type" v="adressenavn" />
	</node>
	<node id="-607331" lat="63.135109303" lon="8.47766430854">
		<tag k="name" v="Otnestrøa" />
		<tag k="ssr:date" v="2019-05-31" />
		<tag k="ssr:gruppe" v="veg" />
		<tag k="ssr:hovedgruppe" v="infrastruktur" />
		<tag k="ssr:stedsnr" v="1059924" />
		<tag k="ssr:type" v="adressenavn" />
	</node>
	<node id="-607330" lat="63.1360010767" lon="8.49499550069">
		<tag k="name" v="Otnesvegen" />
		<tag k="ssr:date" v="2019-05-31" />
		<tag k="ssr:gruppe" v="veg" />
		<tag k="ssr:hovedgruppe" v="infrastruktur" />
		<tag k="ssr:stedsnr" v="1059921" />
		<tag k="ssr:type" v="adressenavn" />
	</node>
	<node id="-607329" lat="63.1246128978" lon="8.55754818958">
		<tag k="name" v="Villkattstredet" />
		<tag k="ssr:date" v="2019-05-31" />
		<tag k="ssr:gruppe" v="veg" />
		<tag k="ssr:hovedgruppe" v="infrastruktur" />
		<tag k="ssr:stedsnr" v="1059918" />
		<tag k="ssr:type" v="adressenavn" />
	</node>
	<node id="-607328" lat="63.1241482196" lon="8.55590169399">
		<tag k="name" v="Grytdalsvegen" />
		<tag k="ssr:date" v="2019-05-31" />
		<tag k="ssr:gruppe" v="veg" />
		<tag k="ssr:hovedgruppe" v="infrastruktur" />
		<tag k="ssr:stedsnr" v="1059916" />
		<tag k="ssr:type" v="adressenavn" />
	</node>
	<node id="-607327" lat="63.1205618061" lon="8.57110831254">
		<tag k="name" v="Hjeldnesvegen" />
		<tag k="ssr:date" v="2019-05-31" />
		<tag k="ssr:gruppe" v="veg" />
		<tag k="ssr:hovedgruppe" v="infrastruktur" />
		<tag k="ssr:stedsnr" v="1059913" />
		<tag k="ssr:type" v="adressenavn" />
	</node>
	<node id="-607326" lat="63.1215644638" lon="8.57773098391">
		<tag k="name" v="Arntrøvegen" />
		<tag k="ssr:date" v="2019-05-31" />
		<tag k="ssr:gruppe" v="veg" />
		<tag k="ssr:hovedgruppe" v="infrastruktur" />
		<tag k="ssr:stedsnr" v="1059911" />
		<tag k="ssr:type" v="adressenavn" />
	</node>
	<node id="-607324" lat="63.132576621" lon="8.53098203975">
		<tag k="name" v="Hestnesvegen" />
		<tag k="ssr:date" v="2019-05-31" />
		<tag k="ssr:gruppe" v="veg" />
		<tag k="ssr:hovedgruppe" v="infrastruktur" />
		<tag k="ssr:stedsnr" v="1059908" />
		<tag k="ssr:type" v="adressenavn" />
	</node>
	<node id="-607319" lat="63.127419815" lon="8.55450333621">
		<tag k="name" v="Kleivalivegen" />
		<tag k="ssr:date" v="2019-05-31" />
		<tag k="ssr:gruppe" v="veg" />
		<tag k="ssr:hovedgruppe" v="infrastruktur" />
		<tag k="ssr:stedsnr" v="1059906" />
		<tag k="ssr:type" v="adressenavn" />
	</node>
	<node id="-607318" lat="63.1269648338" lon="8.55538277781">
		<tag k="name" v="Saltbunesvegen" />
		<tag k="ssr:date" v="2019-05-31" />
		<tag k="ssr:gruppe" v="veg" />
		<tag k="ssr:hovedgruppe" v="infrastruktur" />
		<tag k="ssr:stedsnr" v="1059904" />
		<tag k="ssr:type" v="adressenavn" />
	</node>
	<node id="-607315" lat="63.1246746115" lon="8.55604235883">
		<tag k="name" v="Byåsen" />
		<tag k="ssr:date" v="2019-05-31" />
		<tag k="ssr:gruppe" v="veg" />
		<tag k="ssr:hovedgruppe" v="infrastruktur" />
		<tag k="ssr:stedsnr" v="1059900" />
		<tag k="ssr:type" v="adressenavn" />
	</node>
	<node id="-607267" lat="63.1477583323" lon="8.25489444409">
		<tag k="name" v="Haukomkin" />
		<tag k="ssr:date" v="2016-05-10" />
		<tag k="ssr:gruppe" v="navigasjon" />
		<tag k="ssr:hovedgruppe" v="infrastruktur" />
		<tag k="ssr:stedsnr" v="390964" />
		<tag k="ssr:type" v="fyrlykt" />
	</node>
</osm>
