<?xml version="1.0" encoding="UTF-8"?>
<osm generator="osmapis" version="0.6">
	<node id="-322336" lat="61.1319888869" lon="11.3732777727">
		<tag k="name" v="Åmot kommune" />
		<tag k="ssr:date" v="2019-12-27" />
		<tag k="ssr:gruppe" v="administrativeIndelinger" />
		<tag k="ssr:hovedgruppe" v="offentligAdministrasjon" />
		<tag k="ssr:stedsnr" v="86592" />
		<tag k="ssr:type" v="kommune" />
	</node>
	<node id="-323159" lat="61.114336847" lon="11.3640127727">
		<tag k="name" v="Korperudveien" />
		<tag k="ssr:date" v="2019-12-27" />
		<tag k="ssr:gruppe" v="veg" />
		<tag k="ssr:hovedgruppe" v="infrastruktur" />
		<tag k="ssr:stedsnr" v="1007719" />
		<tag k="ssr:type" v="adressenavn" />
	</node>
	<node id="-323158" lat="61.4183481948" lon="11.7474805506">
		<tag k="name" v="Skaftveien" />
		<tag k="ssr:date" v="2019-12-27" />
		<tag k="ssr:gruppe" v="veg" />
		<tag k="ssr:hovedgruppe" v="infrastruktur" />
		<tag k="ssr:stedsnr" v="1007571" />
		<tag k="ssr:type" v="adressenavn" />
	</node>
	<node id="-323163" lat="60.7952487072" lon="11.0825912243">
		<tag k="name" v="Innlandet fylke" />
		<tag k="ssr:date" v="2020-01-13" />
		<tag k="ssr:gruppe" v="administrativeIndelinger" />
		<tag k="ssr:hovedgruppe" v="offentligAdministrasjon" />
		<tag k="ssr:stedsnr" v="1074406" />
		<tag k="ssr:type" v="fylke" />
	</node>
	<node id="-321377" lat="61.2316555545" lon="11.0958055512">
		<tag k="name" v="Hedmarksvidda" />
		<tag k="ssr:date" v="2019-12-27" />
		<tag k="ssr:gruppe" v="terrengområder" />
		<tag k="ssr:hovedgruppe" v="terreng" />
		<tag k="ssr:stedsnr" v="146667" />
		<tag k="ssr:type" v="landskapsområde" />
	</node>
</osm>
