<?xml version="1.0" encoding="UTF-8"?>
<osm generator="osmapis" version="0.6">
	<node id="-340989" lat="61.0788450417" lon="11.522746949">
		<tag k="fixme" v="consider natural=peak for the most distinct mountains in the district" />
		<tag k="loc_name" v="Nubbene;Nubba" />
		<tag k="natural" v="hill" />
		<tag k="place" v="locality" />
		<tag k="ssr:date" v="2020-06-15" />
		<tag k="ssr:gruppe" v="høyder" />
		<tag k="ssr:hovedgruppe" v="terreng" />
		<tag k="ssr:stedsnr" v="989867" />
		<tag k="ssr:type" v="ås" />
	</node>
	<node id="-340795" lat="61.1284305586" lon="11.3698666751">
		<tag k="building" v="industrial" />
		<tag k="industrial" v="factory" />
		<tag k="old_name" v="Rena Kartonfabrikk" />
		<tag k="ssr:date" v="2019-12-27" />
		<tag k="ssr:gruppe" v="næring" />
		<tag k="ssr:hovedgruppe" v="bebyggelse" />
		<tag k="ssr:stedsnr" v="783356" />
		<tag k="ssr:type" v="fabrikk" />
	</node>
	<node id="-340882" lat="61.3003222265" lon="11.7605500017">
		<tag k="amenity" v="school" />
		<tag k="old_name" v="Statens skogskole Osen" />
		<tag k="ssr:date" v="2019-12-27" />
		<tag k="ssr:gruppe" v="institusjoner" />
		<tag k="ssr:hovedgruppe" v="bebyggelse" />
		<tag k="ssr:stedsnr" v="831065" />
		<tag k="ssr:type" v="skole" />
	</node>
	<node id="-340369" lat="61.1841833378" lon="11.3672638815">
		<tag k="old_name" v="Landsørkje" />
		<tag k="place" v="farm" />
		<tag k="ssr:date" v="2019-12-27" />
		<tag k="ssr:gruppe" v="gardsbebyggelse" />
		<tag k="ssr:hovedgruppe" v="bebyggelse" />
		<tag k="ssr:stedsnr" v="310433" />
		<tag k="ssr:type" v="bruk" />
	</node>
	<node id="-340112" lat="61.3328305531" lon="11.6262361048">
		<tag k="loc_name" v="Skjeråsmyrene" />
		<tag k="natural" v="wetland" />
		<tag k="ssr:date" v="2019-12-27" />
		<tag k="ssr:gruppe" v="våtmark" />
		<tag k="ssr:hovedgruppe" v="markslag" />
		<tag k="ssr:stedsnr" v="60402" />
		<tag k="ssr:type" v="myr" />
	</node>
	<node id="-339613" lat="61.2087888849" lon="11.4917249921">
		<tag k="old_name" v="Holmbu" />
		<tag k="ssr:date" v="2019-12-27" />
		<tag k="ssr:gruppe" v="næring" />
		<tag k="ssr:hovedgruppe" v="bebyggelse" />
		<tag k="ssr:stedsnr" v="736322" />
		<tag k="ssr:type" v="campingplass" />
		<tag k="tourism" v="camp_site" />
	</node>
	<node id="-340205" lat="61.4287111081" lon="11.5214888891">
		<tag k="natural" v="wetland" />
		<tag k="old_name" v="Storflala" />
		<tag k="ssr:date" v="2019-12-27" />
		<tag k="ssr:gruppe" v="våtmark" />
		<tag k="ssr:hovedgruppe" v="markslag" />
		<tag k="ssr:stedsnr" v="120726" />
		<tag k="ssr:type" v="myr" />
	</node>
	<node id="-340322" lat="61.3598027806" lon="11.770500002">
		<tag k="old_name" v="Storenget" />
		<tag k="place" v="isolated_dwelling" />
		<tag k="ssr:date" v="2019-12-27" />
		<tag k="ssr:gruppe" v="bolighus" />
		<tag k="ssr:hovedgruppe" v="bebyggelse" />
		<tag k="ssr:stedsnr" v="189803" />
		<tag k="ssr:type" v="fritidsbolig" />
	</node>
</osm>
