<?xml version="1.0" encoding="UTF-8"?>
<osm generator="osmapis" version="0.6">
	<node id="-133120" lat="60.545919441" lon="10.8515749962">
		<tag k="name" v="Jensseterelva" />
		<tag k="ssr:stedsnr" v="936537" />
		<tag k="waterway" v="river" />
	</node>
	<node id="-132096" lat="60.63384722" lon="10.8836305532">
		<tag k="name" v="Sagelva" />
		<tag k="ssr:stedsnr" v="208374" />
		<tag k="waterway" v="stream" />
	</node>
	<node id="-133115" lat="60.4931166633" lon="10.8072138943">
		<tag k="name" v="Brattmyrbekken" />
		<tag k="ssr:stedsnr" v="935193" />
		<tag k="waterway" v="stream" />
	</node>
	<node id="-133114" lat="60.4997138892" lon="10.8094666737">
		<tag k="name" v="Storrputten" />
		<tag k="natural" v="water" />
		<tag k="ssr:stedsnr" v="935183" />
		<tag k="water" v="pond" />
	</node>
	<node id="-133113" lat="60.4885018099" lon="10.9039791143">
		<tag k="name" v="Bjønnåsputten" />
		<tag k="natural" v="water" />
		<tag k="ssr:stedsnr" v="934963" />
		<tag k="water" v="pond" />
	</node>
	<node id="-133111" lat="60.497625166" lon="10.8593090573">
		<tag k="name" v="Bergsetervika" />
		<tag k="natural" v="bay" />
		<tag k="ssr:stedsnr" v="934850" />
	</node>
	<node id="-132597" lat="60.5946499984" lon="11.0628638964">
		<tag k="name" v="Fjæluputten" />
		<tag k="natural" v="water" />
		<tag k="ssr:stedsnr" v="645548" />
		<tag k="water" v="pond" />
	</node>
	<node id="-133108" lat="60.5382249982" lon="10.9756444516">
		<tag k="name" v="Torvmyrtjern" />
		<tag k="natural" v="water" />
		<tag k="ssr:stedsnr" v="918402" />
	</node>
	<node id="-131566" lat="60.5992369258" lon="11.0058022886">
		<tag k="name" v="Herva" />
		<tag k="natural" v="water" />
		<tag k="ssr:stedsnr" v="371868" />
		<tag k="water" v="lake" />
	</node>
	<node id="-132589" lat="60.5529472209" lon="11.0774972237">
		<tag k="name" v="Lemenpytten" />
		<tag k="natural" v="water" />
		<tag k="ssr:stedsnr" v="645064" />
	</node>
	<node id="-133099" lat="60.6094750013" lon="11.0127916752">
		<tag k="name" v="Leirsjøen" />
		<tag k="natural" v="water" />
		<tag k="ssr:stedsnr" v="917859" />
	</node>
	<node id="-133096" lat="60.6205250038" lon="10.9892611123">
		<tag k="name" v="Damtjernbekken" />
		<tag k="ssr:stedsnr" v="917841" />
		<tag k="waterway" v="stream" />
	</node>
	<node id="-131555" lat="60.5470003528" lon="10.9952106649">
		<tag k="name" v="Sandungen" />
		<tag k="natural" v="water" />
		<tag k="ssr:stedsnr" v="371685" />
	</node>
	<node id="-132066" lat="60.5258861137" lon="10.7133305621">
		<tag k="alt_name" v="Brannelva;Brennelva" />
		<tag k="name" v="Brandelva" />
		<tag k="ssr:stedsnr" v="189868" />
		<tag k="waterway" v="river" />
	</node>
	<node id="-131553" lat="60.5487277756" lon="11.0989083391">
		<tag k="name" v="Storvatnet" />
		<tag k="natural" v="water" />
		<tag k="ssr:stedsnr" v="371382" />
	</node>
	<node id="-133088" lat="60.5011495575" lon="10.8347573582">
		<tag k="fixme" v="multiple name tags, choose one and add the other to alt_name" />
		<tag k="name" v="Halsteintjernet;Skålen" />
		<tag k="natural" v="water" />
		<tag k="ssr:stedsnr" v="917692" />
	</node>
	<node id="-132063" lat="60.6059305565" lon="10.8922861066">
		<tag k="name" v="Olterudelva" />
		<tag k="ssr:stedsnr" v="189854" />
		<tag k="waterway" v="river" />
	</node>
	<node id="-133086" lat="60.549886114" lon="11.066644446">
		<tag k="name" v="Langtjernet" />
		<tag k="natural" v="water" />
		<tag k="ssr:stedsnr" v="917664" />
	</node>
	<node id="-132005" lat="60.5553472224" lon="11.0634611081">
		<tag k="name" v="Fugletjernsbekken" />
		<tag k="ssr:stedsnr" v="160478" />
		<tag k="waterway" v="stream" />
	</node>
	<node id="-133084" lat="60.570227782" lon="11.0723611067">
		<tag k="name" v="Lekketjernet" />
		<tag k="natural" v="water" />
		<tag k="ssr:stedsnr" v="917654" />
	</node>
	<node id="-133083" lat="60.5609805523" lon="11.0640750018">
		<tag k="alt_name" v="Fugletjern" />
		<tag k="name" v="Fugletjernet" />
		<tag k="natural" v="water" />
		<tag k="ssr:stedsnr" v="917646" />
	</node>
	<node id="-133082" lat="60.5536777785" lon="11.0435583257">
		<tag k="name" v="Hersjøelva" />
		<tag k="ssr:stedsnr" v="917647" />
		<tag k="waterway" v="stream" />
	</node>
	<node id="-132569" lat="60.539044441" lon="10.7200499997">
		<tag k="name" v="Vestelva" />
		<tag k="ssr:stedsnr" v="632518" />
		<tag k="waterway" v="river" />
	</node>
	<node id="-131543" lat="60.5377138932" lon="11.0583277705">
		<tag k="name" v="Stulsrudtjernsbekken" />
		<tag k="ssr:stedsnr" v="362387" />
		<tag k="waterway" v="stream" />
	</node>
	<node id="-133076" lat="60.5989515814" lon="10.9943235548">
		<tag k="alt_name" v="Fugletjern" />
		<tag k="name" v="Fugletjernet" />
		<tag k="natural" v="water" />
		<tag k="ssr:stedsnr" v="917619" />
	</node>
	<node id="-133074" lat="60.5921750017" lon="11.0718361115">
		<tag k="name" v="Damputten" />
		<tag k="natural" v="water" />
		<tag k="ssr:stedsnr" v="917611" />
	</node>
	<node id="-133073" lat="60.5801999961" lon="10.8552694473">
		<tag k="name" v="Laupen" />
		<tag k="natural" v="water" />
		<tag k="ssr:stedsnr" v="917602" />
	</node>
	<node id="-133072" lat="60.5917666698" lon="11.1000249913">
		<tag k="alt_name" v="Torfestelva, vestre;Vestre Torvfestelva" />
		<tag k="name" v="Vestre Torfestelva" />
		<tag k="ssr:stedsnr" v="917396" />
		<tag k="waterway" v="stream" />
	</node>
	<node id="-132557" lat="60.4861166669" lon="10.8437527812">
		<tag k="name" v="Svarttjernsbekken" />
		<tag k="ssr:stedsnr" v="631997" />
		<tag k="waterway" v="stream" />
	</node>
	<node id="-133067" lat="60.5359333333" lon="11.0362472202">
		<tag k="name" v="Skinnstakken" />
		<tag k="place" v="islet" />
		<tag k="ssr:stedsnr" v="908407" />
	</node>
	<node id="-132553" lat="60.6000777782" lon="11.1018111029">
		<tag k="name" v="Sæterputten" />
		<tag k="natural" v="water" />
		<tag k="ssr:stedsnr" v="627993" />
	</node>
	<node id="-132040" lat="60.5711305596" lon="10.8026388924">
		<tag k="alt_name" v="Vestre Kulltjern" />
		<tag k="name" v="Storkoltjernet" />
		<tag k="natural" v="water" />
		<tag k="ssr:stedsnr" v="189593" />
	</node>
	<node id="-132551" lat="60.5957305548" lon="10.9402388825">
		<tag k="alt_name" v="Skjepsjøen" />
		<tag k="name" v="Skjeppsjøen" />
		<tag k="natural" v="water" />
		<tag k="ssr:stedsnr" v="614865" />
		<tag k="water" v="lake" />
	</node>
	<node id="-132549" lat="60.5992055531" lon="10.9879916723">
		<tag k="alt_name" v="Oftentjern" />
		<tag k="name" v="Oftentjernet" />
		<tag k="natural" v="water" />
		<tag k="ssr:stedsnr" v="614659" />
	</node>
	<node id="-131522" lat="60.575122223" lon="11.0831388834">
		<tag k="name" v="Grismågåtjern" />
		<tag k="natural" v="water" />
		<tag k="ssr:stedsnr" v="344193" />
	</node>
	<node id="-132540" lat="60.5985333363" lon="11.0843861168">
		<tag k="alt_name" v="Steintjern" />
		<tag k="name" v="Steintjernet" />
		<tag k="natural" v="water" />
		<tag k="ssr:stedsnr" v="613871" />
	</node>
	<node id="-132596" lat="60.5147305558" lon="10.9573444531">
		<tag k="name" v="Villbekken" />
		<tag k="ssr:stedsnr" v="645317" />
		<tag k="waterway" v="stream" />
	</node>
	<node id="-133046" lat="60.6436277807" lon="10.7134444413">
		<tag k="name" v="Bøvra" />
		<tag k="ssr:stedsnr" v="875551" />
		<tag k="waterway" v="river" />
	</node>
	<node id="-131509" lat="60.6113999986" lon="11.0656888885">
		<tag k="name" v="Fjellhaugelva" />
		<tag k="ssr:stedsnr" v="342477" />
		<tag k="waterway" v="river" />
	</node>
	<node id="-131508" lat="60.5505361128" lon="10.975338884">
		<tag k="name" v="Vesle Skjellungen" />
		<tag k="natural" v="water" />
		<tag k="ssr:stedsnr" v="342330" />
	</node>
	<node id="-131507" lat="60.5457916646" lon="10.9576722308">
		<tag k="name" v="Brennsæterelva" />
		<tag k="ssr:stedsnr" v="342328" />
		<tag k="waterway" v="river" />
	</node>
	<node id="-131505" lat="60.5168027758" lon="11.0356472178">
		<tag k="name" v="Hersjøbotn" />
		<tag k="natural" v="bay" />
		<tag k="ssr:stedsnr" v="342310" />
	</node>
	<node id="-132012" lat="60.5964055548" lon="11.1063361139">
		<tag k="name" v="Puttbekken" />
		<tag k="ssr:stedsnr" v="160952" />
		<tag k="waterway" v="stream" />
	</node>
	<node id="-132011" lat="60.6009888917" lon="11.0878916621">
		<tag k="name" v="Sveumsputten" />
		<tag k="natural" v="water" />
		<tag k="ssr:stedsnr" v="160944" />
	</node>
	<node id="-132009" lat="60.5274166687" lon="10.9441500079">
		<tag k="name" v="Økalvbergene" />
		<tag k="natural" v="water" />
		<tag k="ssr:stedsnr" v="160852" />
	</node>
	<node id="-131496" lat="60.578458334" lon="10.8450666677">
		<tag k="name" v="Gåsloa" />
		<tag k="natural" v="water" />
		<tag k="ssr:stedsnr" v="330754" />
		<tag k="water" v="pond" />
	</node>
	<node id="-132517" lat="60.5696666629" lon="10.8104666685">
		<tag k="alt_name" v="Østre Kulltjern" />
		<tag k="name" v="Veslkoltjernet" />
		<tag k="natural" v="water" />
		<tag k="ssr:stedsnr" v="613631" />
	</node>
	<node id="-132003" lat="60.5903666688" lon="10.9784638915">
		<tag k="name" v="Storholmen" />
		<tag k="place" v="islet" />
		<tag k="ssr:stedsnr" v="160462" />
	</node>
	<node id="-132002" lat="60.510688892" lon="11.034188886">
		<tag k="name" v="Sæteråssvartputten" />
		<tag k="natural" v="water" />
		<tag k="ssr:stedsnr" v="160294" />
	</node>
	<node id="-132001" lat="60.5679638904" lon="11.0128805477">
		<tag k="name" v="Skurvetjern" />
		<tag k="natural" v="water" />
		<tag k="ssr:stedsnr" v="160194" />
	</node>
	<node id="-131998" lat="60.532283336" lon="11.0790361104">
		<tag k="name" v="Halmbråtåbekken" />
		<tag k="ssr:stedsnr" v="160150" />
		<tag k="waterway" v="stream" />
	</node>
	<node id="-131653" lat="60.5798999969" lon="11.0111944503">
		<tag k="name" v="Svartdalstjern" />
		<tag k="natural" v="water" />
		<tag k="ssr:stedsnr" v="888223" />
	</node>
	<node id="-132507" lat="60.5410444475" lon="10.9885611198">
		<tag k="name" v="Furuputten" />
		<tag k="natural" v="water" />
		<tag k="ssr:stedsnr" v="604388" />
	</node>
	<node id="-132506" lat="60.5398027775" lon="11.0256611201">
		<tag k="name" v="Hommersjøvika" />
		<tag k="natural" v="bay" />
		<tag k="ssr:stedsnr" v="604378" />
	</node>
	<node id="-132505" lat="60.5351722228" lon="10.9786138965">
		<tag k="name" v="Høgtjern" />
		<tag k="natural" v="water" />
		<tag k="ssr:stedsnr" v="603133" />
	</node>
	<node id="-131991" lat="60.5776638864" lon="10.8748499947">
		<tag k="name" v="Korsbekken" />
		<tag k="ssr:stedsnr" v="147674" />
		<tag k="waterway" v="stream" />
	</node>
	<node id="-133014" lat="60.5956472238" lon="10.8601361127">
		<tag k="name" v="Synstebytjernet" />
		<tag k="natural" v="water" />
		<tag k="ssr:stedsnr" v="857863" />
	</node>
	<node id="-131546" lat="60.5832138914" lon="11.030361108">
		<tag k="alt_name" v="Jyridalselva" />
		<tag k="name" v="Gyridalselva" />
		<tag k="ssr:stedsnr" v="370665" />
		<tag k="waterway" v="stream" />
	</node>
	<node id="-132497" lat="60.6589416641" lon="10.9714000086">
		<tag k="name" v="Sundvika" />
		<tag k="natural" v="bay" />
		<tag k="ssr:stedsnr" v="586889" />
	</node>
	<node id="-132494" lat="60.5939944461" lon="11.0900527795">
		<tag k="name" v="Østre Skreitjern" />
		<tag k="natural" v="water" />
		<tag k="ssr:stedsnr" v="585944" />
	</node>
	<node id="-131979" lat="60.7130111141" lon="10.8839888964">
		<tag k="alt_name" v="Kihlestrand" />
		<tag k="name" v="Kilestranda" />
		<tag k="natural" v="beach" />
		<tag k="ssr:stedsnr" v="146476" />
	</node>
	<node id="-133002" lat="60.5068499993" lon="10.902394449">
		<tag k="alt_name" v="Høvernsjøen" />
		<tag k="name" v="Høversjøen" />
		<tag k="natural" v="water" />
		<tag k="ssr:stedsnr" v="857731" />
		<tag k="water" v="lake" />
	</node>
	<node id="-131479" lat="60.5337194456" lon="10.741472227">
		<tag k="name" v="Korsmyra" />
		<tag k="ssr:stedsnr" v="329541" />
		<tag k="waterway" v="stream" />
	</node>
	<node id="-133000" lat="60.5254891136" lon="11.020582625">
		<tag k="name" v="Mørksjøen" />
		<tag k="natural" v="water" />
		<tag k="ssr:stedsnr" v="857714" />
	</node>
	<node id="-132998" lat="60.5336011425" lon="11.03471041">
		<tag k="name" v="Hersjøen" />
		<tag k="natural" v="water" />
		<tag k="ssr:stedsnr" v="857667" />
		<tag k="water" v="lake" />
	</node>
	<node id="-132997" lat="60.5962361151" lon="11.0527694431">
		<tag k="alt_name" v="Kroktjernet" />
		<tag k="name" v="Kroktjern" />
		<tag k="natural" v="water" />
		<tag k="ssr:stedsnr" v="857644" />
	</node>
	<node id="-132996" lat="60.5921166677" lon="11.0240805563">
		<tag k="alt_name" v="Nordre Gåstjern" />
		<tag k="name" v="Veslegåstjernet" />
		<tag k="natural" v="water" />
		<tag k="ssr:stedsnr" v="857643" />
	</node>
	<node id="-131478" lat="60.5454222198" lon="10.8459444409">
		<tag k="name" v="Vårsjøbekken" />
		<tag k="ssr:stedsnr" v="329534" />
		<tag k="waterway" v="stream" />
	</node>
	<node id="-132480" lat="60.556447224" lon="10.9812083252">
		<tag k="name" v="Vesle Myrtjern" />
		<tag k="natural" v="water" />
		<tag k="ssr:stedsnr" v="584374" />
	</node>
	<node id="-132478" lat="60.5120027798" lon="11.0146333266">
		<tag k="name" v="Skjellbekken" />
		<tag k="ssr:stedsnr" v="584346" />
		<tag k="waterway" v="stream" />
	</node>
	<node id="-132477" lat="60.5201805563" lon="11.0184749911">
		<tag k="name" v="Jonsokbekken" />
		<tag k="ssr:stedsnr" v="584344" />
		<tag k="waterway" v="stream" />
	</node>
	<node id="-131835" lat="60.5310055529" lon="10.7248833312">
		<tag k="name" v="Vindfloelva" />
		<tag k="ssr:stedsnr" v="68680" />
		<tag k="waterway" v="stream" />
	</node>
	<node id="-131408" lat="60.6362805569" lon="10.9910444428">
		<tag k="name" v="Damtjernbekken" />
		<tag k="ssr:stedsnr" v="282736" />
		<tag k="waterway" v="stream" />
	</node>
	<node id="-132984" lat="60.4893222208" lon="10.793097221">
		<tag k="alt_name" v="Hagletjernet" />
		<tag k="name" v="Hagltjern" />
		<tag k="natural" v="water" />
		<tag k="ssr:stedsnr" v="856761" />
	</node>
	<node id="-132982" lat="60.558286115" lon="11.0784194394">
		<tag k="alt_name" v="Vestre Torvfasttjern" />
		<tag k="name" v="Torvfasttjerna" />
		<tag k="natural" v="water" />
		<tag k="ssr:stedsnr" v="856687" />
	</node>
	<node id="-132469" lat="60.5709111082" lon="10.8526972306">
		<tag k="name" v="Grasbekken" />
		<tag k="ssr:stedsnr" v="572711" />
		<tag k="waterway" v="stream" />
	</node>
	<node id="-131442" lat="60.5698111081" lon="10.9353277857">
		<tag k="alt_name" v="Rausteinstjern" />
		<tag k="name" v="Raudsteinstjernet" />
		<tag k="natural" v="water" />
		<tag k="ssr:stedsnr" v="310678" />
	</node>
	<node id="-132977" lat="60.5293888865" lon="11.0472083348">
		<tag k="name" v="Damvika" />
		<tag k="natural" v="bay" />
		<tag k="ssr:stedsnr" v="848391" />
	</node>
	<node id="-132976" lat="60.5418499963" lon="11.0422333342">
		<tag k="name" v="Stupulbekkvika" />
		<tag k="natural" v="bay" />
		<tag k="ssr:stedsnr" v="848389" />
	</node>
	<node id="-132463" lat="60.7192611142" lon="10.8556055479">
		<tag k="name" v="Nordviken" />
		<tag k="natural" v="bay" />
		<tag k="ssr:stedsnr" v="572369" />
	</node>
	<node id="-131437" lat="60.569563893" lon="10.8816750047">
		<tag k="name" v="Hutjerna" />
		<tag k="natural" v="water" />
		<tag k="ssr:stedsnr" v="310639" />
	</node>
	<node id="-132460" lat="60.6423361079" lon="10.8301027804">
		<tag k="name" v="Riseelva" />
		<tag k="ssr:stedsnr" v="572259" />
		<tag k="waterway" v="river" />
	</node>
	<node id="-131435" lat="60.5914111147" lon="11.1147166615">
		<tag k="alt_name" v="Torfestelva, østre;Østre Torvfestelva" />
		<tag k="name" v="Østre Torfestelva" />
		<tag k="ssr:stedsnr" v="310450" />
		<tag k="waterway" v="stream" />
	</node>
	<node id="-132455" lat="60.6037416641" lon="10.6984305579">
		<tag k="name" v="Ulsrudbekken" />
		<tag k="ssr:stedsnr" v="571578" />
		<tag k="waterway" v="stream" />
	</node>
	<node id="-131942" lat="60.5624005444" lon="10.9649801325">
		<tag k="alt_name" v="Rønningen" />
		<tag k="name" v="Rønningstjernet" />
		<tag k="natural" v="water" />
		<tag k="ssr:stedsnr" v="128651" />
	</node>
	<node id="-131429" lat="60.5343055597" lon="11.0451305528">
		<tag k="name" v="Gråmerra" />
		<tag k="place" v="islet" />
		<tag k="ssr:stedsnr" v="301354" />
	</node>
	<node id="-131428" lat="60.5231944422" lon="10.9827472202">
		<tag k="name" v="Graveren" />
		<tag k="natural" v="water" />
		<tag k="ssr:stedsnr" v="300157" />
	</node>
	<node id="-132962" lat="60.5422138863" lon="10.9469888944">
		<tag k="name" v="Evjuputten" />
		<tag k="natural" v="water" />
		<tag k="ssr:stedsnr" v="830856" />
		<tag k="water" v="pond" />
	</node>
	<node id="-131899" lat="60.6313083309" lon="11.0885361102">
		<tag k="name" v="Fjellhaugelva" />
		<tag k="ssr:stedsnr" v="100969" />
		<tag k="waterway" v="river" />
	</node>
	<node id="-132958" lat="60.6122388935" lon="11.089769437">
		<tag k="name" v="Sæterbekken" />
		<tag k="ssr:stedsnr" v="828883" />
		<tag k="waterway" v="stream" />
	</node>
	<node id="-132957" lat="60.5715750025" lon="10.9250500083">
		<tag k="name" v="Pålknappen" />
		<tag k="natural" v="water" />
		<tag k="ssr:stedsnr" v="828776" />
	</node>
	<node id="-132444" lat="60.7166833295" lon="10.8758361171">
		<tag k="name" v="Tallodden" />
		<tag k="natural" v="cape" />
		<tag k="ssr:stedsnr" v="571338" />
	</node>
	<node id="-131930" lat="60.5797611113" lon="11.0528055533">
		<tag k="alt_name" v="Brynstjern" />
		<tag k="name" v="Brønntjernet" />
		<tag k="natural" v="water" />
		<tag k="ssr:stedsnr" v="128605" />
	</node>
	<node id="-132950" lat="60.5098916628" lon="11.0127916726">
		<tag k="name" v="Garsjøsvartputten" />
		<tag k="natural" v="water" />
		<tag k="ssr:stedsnr" v="828322" />
		<tag k="water" v="pond" />
	</node>
	<node id="-132949" lat="60.5810222196" lon="10.9895944408">
		<tag k="name" v="Fiskelauspompa" />
		<tag k="natural" v="strait" />
		<tag k="ssr:stedsnr" v="828262" />
	</node>
	<node id="-131412" lat="60.5873444401" lon="11.0896416622">
		<tag k="name" v="Stormyrputten" />
		<tag k="natural" v="water" />
		<tag k="ssr:stedsnr" v="282969" />
	</node>
	<node id="-132947" lat="60.5658666671" lon="11.0244805572">
		<tag k="name" v="Bråtåbrenntjern" />
		<tag k="natural" v="water" />
		<tag k="ssr:stedsnr" v="828205" />
	</node>
	<node id="-131410" lat="60.5954555591" lon="11.0866944358">
		<tag k="name" v="Vestre Skreitjern" />
		<tag k="natural" v="water" />
		<tag k="ssr:stedsnr" v="282963" />
	</node>
	<node id="-132944" lat="60.53303889" lon="11.0927722135">
		<tag k="name" v="Brenntjernet" />
		<tag k="natural" v="water" />
		<tag k="ssr:stedsnr" v="828163" />
	</node>
	<node id="-132940" lat="60.6321999994" lon="10.9267083327">
		<tag k="name" v="Slukelva" />
		<tag k="ssr:stedsnr" v="828036" />
		<tag k="waterway" v="river" />
	</node>
	<node id="-132938" lat="60.593683335" lon="10.85154723">
		<tag k="name" v="Tretjerna" />
		<tag k="natural" v="water" />
		<tag k="ssr:stedsnr" v="815714" />
	</node>
	<node id="-132420" lat="60.5095249963" lon="10.8285250047">
		<tag k="name" v="Halsteintjernet" />
		<tag k="natural" v="water" />
		<tag k="ssr:stedsnr" v="553728" />
	</node>
	<node id="-131394" lat="60.5601499997" lon="11.0832138826">
		<tag k="name" v="Midtre Torvfesttjern" />
		<tag k="natural" v="water" />
		<tag k="ssr:stedsnr" v="282056" />
	</node>
	<node id="-131467" lat="60.5083194486" lon="10.752322222">
		<tag k="name" v="Korsevjua" />
		<tag k="natural" v="water" />
		<tag k="ssr:stedsnr" v="329068" />
		<tag k="water" v="lake" />
	</node>
	<node id="-131392" lat="60.568494446" lon="10.8817527699">
		<tag k="name" v="Hutjern" />
		<tag k="natural" v="water" />
		<tag k="ssr:stedsnr" v="270678" />
	</node>
	<node id="-131637" lat="60.5731833346" lon="11.0698722189">
		<tag k="name" v="Korptjern" />
		<tag k="natural" v="water" />
		<tag k="ssr:stedsnr" v="405206" />
	</node>
	<node id="-132923" lat="60.6314249959" lon="10.8016194396">
		<tag k="name" v="Sandbergtjernet" />
		<tag k="natural" v="water" />
		<tag k="ssr:stedsnr" v="815209" />
	</node>
	<node id="-132293" lat="60.5390694401" lon="11.008202786">
		<tag k="name" v="Myrsjøelva" />
		<tag k="ssr:stedsnr" v="483406" />
		<tag k="waterway" v="river" />
	</node>
	<node id="-132405" lat="60.5844694409" lon="11.0473361084">
		<tag k="name" v="Store Fløyta" />
		<tag k="natural" v="water" />
		<tag k="old_name" v="Fløita" />
		<tag k="ssr:stedsnr" v="552701" />
	</node>
	<node id="-132404" lat="60.582399996" lon="11.0824138816">
		<tag k="name" v="Alterdalselva" />
		<tag k="ssr:stedsnr" v="552691" />
		<tag k="waterway" v="stream" />
	</node>
	<node id="-131891" lat="60.5610916627" lon="10.9902305498">
		<tag k="name" v="Vollsputten" />
		<tag k="natural" v="water" />
		<tag k="ssr:stedsnr" v="100692" />
		<tag k="water" v="pond" />
	</node>
	<node id="-131635" lat="60.5997472215" lon="10.9207555499">
		<tag k="name" v="Holobekken" />
		<tag k="ssr:stedsnr" v="405176" />
		<tag k="waterway" v="stream" />
	</node>
	<node id="-131888" lat="60.5757250031" lon="11.0181083391">
		<tag k="name" v="Svartdalstjern" />
		<tag k="natural" v="water" />
		<tag k="ssr:stedsnr" v="100223" />
	</node>
	<node id="-131887" lat="60.544347224" lon="11.0817416585">
		<tag k="name" v="Halmbråtetjern" />
		<tag k="natural" v="water" />
		<tag k="ssr:stedsnr" v="100068" />
	</node>
	<node id="-132398" lat="60.5278944485" lon="10.9915999981">
		<tag k="name" v="Blylotta" />
		<tag k="natural" v="water" />
		<tag k="ssr:stedsnr" v="543184" />
	</node>
	<node id="-131883" lat="60.6520833375" lon="10.8309527693">
		<tag k="alt_name" v="Riiseelva;Riiselva" />
		<tag k="name" v="Riselva" />
		<tag k="ssr:stedsnr" v="99706" />
		<tag k="waterway" v="river" />
	</node>
	<node id="-132906" lat="60.5164555539" lon="10.940283334">
		<tag k="name" v="Villbekken" />
		<tag k="ssr:stedsnr" v="813756" />
		<tag k="waterway" v="stream" />
	</node>
	<node id="-131548" lat="60.4760611151" lon="10.902299997">
		<tag k="name" v="Banneputten" />
		<tag k="natural" v="water" />
		<tag k="ssr:stedsnr" v="370745" />
	</node>
	<node id="-131953" lat="60.712477778" lon="10.8085083267">
		<tag k="name" v="Heggshuselva" />
		<tag k="ssr:stedsnr" v="128925" />
		<tag k="waterway" v="river" />
	</node>
	<node id="-132385" lat="60.5802861152" lon="11.0803138841">
		<tag k="name" v="Vestre Torvfestelva" />
		<tag k="ssr:stedsnr" v="526189" />
		<tag k="waterway" v="river" />
	</node>
	<node id="-132144" lat="60.5723000037" lon="10.9031500076">
		<tag k="alt_name" v="Tjuvåstjern" />
		<tag k="name" v="Tjuvåstjernet" />
		<tag k="natural" v="water" />
		<tag k="ssr:stedsnr" v="249622" />
	</node>
	<node id="-132894" lat="60.6048055571" lon="10.7567361131">
		<tag k="name" v="Lenaelva" />
		<tag k="ssr:stedsnr" v="796865" />
		<tag k="waterway" v="river" />
	</node>
	<node id="-132891" lat="60.6104277761" lon="11.0584916626">
		<tag k="name" v="Kleivbekken" />
		<tag k="ssr:stedsnr" v="796856" />
		<tag k="waterway" v="stream" />
	</node>
	<node id="-132376" lat="60.6255027766" lon="10.9904527766">
		<tag k="name" v="Hørlandselva" />
		<tag k="ssr:stedsnr" v="524489" />
		<tag k="waterway" v="river" />
	</node>
	<node id="-132484" lat="60.5448472197" lon="10.9468027743">
		<tag k="name" v="Svartdalsbekken" />
		<tag k="ssr:stedsnr" v="584890" />
		<tag k="waterway" v="stream" />
	</node>
	<node id="-132374" lat="60.6604055542" lon="10.7804444386">
		<tag k="name" v="Lenaelva" />
		<tag k="ssr:stedsnr" v="524311" />
		<tag k="waterway" v="river" />
	</node>
	<node id="-132884" lat="60.5037805531" lon="10.8234861048">
		<tag k="name" v="Estentjernet" />
		<tag k="natural" v="water" />
		<tag k="ssr:stedsnr" v="796723" />
	</node>
	<node id="-131886" lat="60.5594305513" lon="10.9089861078">
		<tag k="name" v="Søndre Tjuvåstjern" />
		<tag k="natural" v="water" />
		<tag k="ssr:stedsnr" v="99887" />
	</node>
	<node id="-132370" lat="60.5507666626" lon="11.0685305591">
		<tag k="name" v="Langtjern" />
		<tag k="natural" v="water" />
		<tag k="ssr:stedsnr" v="524054" />
	</node>
	<node id="-131857" lat="60.4851249972" lon="10.8881277734">
		<tag k="name" v="Lokkerhaugputten" />
		<tag k="natural" v="water" />
		<tag k="ssr:stedsnr" v="85840" />
		<tag k="water" v="pond" />
	</node>
	<node id="-132880" lat="60.5250573616" lon="10.8030848041">
		<tag k="name" v="Lønsjøen" />
		<tag k="natural" v="water" />
		<tag k="ssr:stedsnr" v="796664" />
		<tag k="water" v="lake" />
	</node>
	<node id="-132879" lat="60.5417499997" lon="11.0671638809">
		<tag k="alt_name" v="Stulsrudtjernet" />
		<tag k="name" v="Stusjøtjernet" />
		<tag k="natural" v="water" />
		<tag k="ssr:stedsnr" v="796653" />
	</node>
	<node id="-132364" lat="60.5607250027" lon="10.853350009">
		<tag k="name" v="Grasbekken" />
		<tag k="ssr:stedsnr" v="512583" />
		<tag k="waterway" v="stream" />
	</node>
	<node id="-132873" lat="60.588574999" lon="11.0575027813">
		<tag k="alt_name" v="Rudsmyrtjern" />
		<tag k="name" v="Rudsmyrtjernet" />
		<tag k="natural" v="water" />
		<tag k="ssr:stedsnr" v="795680" />
	</node>
	<node id="-132872" lat="60.5805444414" lon="11.0466861196">
		<tag k="alt_name" v="Butjern" />
		<tag k="name" v="Butjernet" />
		<tag k="natural" v="water" />
		<tag k="ssr:stedsnr" v="795678" />
	</node>
	<node id="-132359" lat="60.6391055522" lon="10.8043249967">
		<tag k="name" v="Garveribekken" />
		<tag k="ssr:stedsnr" v="512229" />
		<tag k="waterway" v="stream" />
	</node>
	<node id="-132155" lat="60.4945749984" lon="10.87575">
		<tag k="alt_name" v="Gaupåsputten" />
		<tag k="name" v="Gaupåstjernet" />
		<tag k="natural" v="water" />
		<tag k="ssr:stedsnr" v="249751" />
	</node>
	<node id="-132869" lat="60.5382638887" lon="11.0038138803">
		<tag k="name" v="Hommersjøputten" />
		<tag k="natural" v="water" />
		<tag k="ssr:stedsnr" v="786384" />
	</node>
	<node id="-132113" lat="60.6526138908" lon="10.7808916604">
		<tag k="name" v="Garveribekken" />
		<tag k="ssr:stedsnr" v="221621" />
		<tag k="waterway" v="stream" />
	</node>
	<node id="-131882" lat="60.518847218" lon="11.0305638959">
		<tag k="name" v="Nysætervika" />
		<tag k="natural" v="bay" />
		<tag k="ssr:stedsnr" v="99346" />
	</node>
	<node id="-131834" lat="60.5319499962" lon="10.95733333">
		<tag k="name" v="Brennsætersjøen" />
		<tag k="natural" v="water" />
		<tag k="old_name" v="Brannsætersjøen" />
		<tag k="ssr:stedsnr" v="68666" />
		<tag k="water" v="lake" />
	</node>
	<node id="-132341" lat="60.5053555558" lon="10.7589611131">
		<tag k="name" v="Steinbekken" />
		<tag k="ssr:stedsnr" v="511058" />
		<tag k="waterway" v="stream" />
	</node>
	<node id="-132337" lat="60.4825444415" lon="10.9526583414">
		<tag k="name" v="Daltjernsbekken" />
		<tag k="ssr:stedsnr" v="510134" />
		<tag k="waterway" v="stream" />
	</node>
	<node id="-131823" lat="60.6598470126" lon="10.979283441">
		<tag k="name" v="Totenvika" />
		<tag k="natural" v="bay" />
		<tag k="ssr:stedsnr" v="67758" />
	</node>
	<node id="-133160" lat="60.5380611076" lon="10.9198138887">
		<tag k="name" v="Villbekken" />
		<tag k="ssr:stedsnr" v="951851" />
		<tag k="waterway" v="stream" />
	</node>
	<node id="-131819" lat="60.5511644507" lon="11.0056171277">
		<tag k="name" v="Myrsjøen" />
		<tag k="natural" v="water" />
		<tag k="ssr:stedsnr" v="67692" />
	</node>
	<node id="-132842" lat="60.588874997" lon="11.0767944359">
		<tag k="name" v="Niputta" />
		<tag k="natural" v="water" />
		<tag k="ssr:stedsnr" v="767964" />
	</node>
	<node id="-131623" lat="60.6226194437" lon="11.0041833418">
		<tag k="name" v="Skullestadelva" />
		<tag k="ssr:stedsnr" v="403530" />
		<tag k="waterway" v="river" />
	</node>
	<node id="-131814" lat="60.5281944479" lon="11.0500138886">
		<tag k="name" v="Stubbelva" />
		<tag k="ssr:stedsnr" v="58392" />
		<tag k="waterway" v="river" />
	</node>
	<node id="-131813" lat="60.5314722224" lon="10.9883749987">
		<tag k="name" v="Arneputten" />
		<tag k="natural" v="water" />
		<tag k="ssr:stedsnr" v="58163" />
	</node>
	<node id="-131812" lat="60.5283916646" lon="10.9840666643">
		<tag k="name" v="Astria" />
		<tag k="natural" v="water" />
		<tag k="ssr:stedsnr" v="58160" />
	</node>
	<node id="-132323" lat="60.6017583325" lon="11.0237527718">
		<tag k="alt_name" v="Ormtjernet, austre;Fremre Ormtjern" />
		<tag k="name" v="Austre Ormtjernet" />
		<tag k="natural" v="water" />
		<tag k="ssr:stedsnr" v="492874" />
	</node>
	<node id="-132830" lat="60.5467055597" lon="11.0854138872">
		<tag k="name" v="Halmbråteputten" />
		<tag k="natural" v="water" />
		<tag k="ssr:stedsnr" v="767071" />
	</node>
	<node id="-131621" lat="60.563736108" lon="11.0470083314">
		<tag k="name" v="Jønnbekken" />
		<tag k="ssr:stedsnr" v="403521" />
		<tag k="waterway" v="stream" />
	</node>
	<node id="-132825" lat="60.5783138875" lon="10.837586105">
		<tag k="name" v="Furuputten" />
		<tag k="natural" v="water" />
		<tag k="ssr:stedsnr" v="754701" />
		<tag k="water" v="pond" />
	</node>
	<node id="-132307" lat="60.5620749978" lon="10.8679388859">
		<tag k="name" v="Svartputten" />
		<tag k="natural" v="water" />
		<tag k="ssr:stedsnr" v="492648" />
	</node>
	<node id="-132472" lat="60.5741916697" lon="10.8832777737">
		<tag k="name" v="Hutjern" />
		<tag k="natural" v="water" />
		<tag k="ssr:stedsnr" v="573647" />
	</node>
	<node id="-132302" lat="60.5807916623" lon="11.0087611173">
		<tag k="alt_name" v="Svartdalstjern" />
		<tag k="name" v="Svartdalstjerna" />
		<tag k="natural" v="water" />
		<tag k="ssr:stedsnr" v="492618" />
	</node>
	<node id="-132045" lat="60.5181749999" lon="10.8396583243">
		<tag k="name" v="Bergsjøen" />
		<tag k="natural" v="water" />
		<tag k="ssr:stedsnr" v="189672" />
		<tag k="water" v="lake" />
	</node>
	<node id="-131783" lat="60.5921749987" lon="11.0338888869">
		<tag k="name" v="Brennbergputten" />
		<tag k="natural" v="water" />
		<tag k="ssr:stedsnr" v="39521" />
	</node>
	<node id="-132294" lat="60.5310027782" lon="11.0421166722">
		<tag k="name" v="Åtangen" />
		<tag k="natural" v="cape" />
		<tag k="ssr:stedsnr" v="483408" />
	</node>
	<node id="-131781" lat="60.6097972197" lon="10.9950583358">
		<tag k="name" v="Damtjern" />
		<tag k="natural" v="water" />
		<tag k="ssr:stedsnr" v="39493" />
	</node>
	<node id="-132043" lat="60.5475411782" lon="10.9792596637">
		<tag k="name" v="Skjellungen" />
		<tag k="natural" v="water" />
		<tag k="ssr:stedsnr" v="189648" />
	</node>
	<node id="-131849" lat="60.6019805585" lon="10.8303361124">
		<tag k="alt_name" v="Skjærsjøen" />
		<tag k="name" v="Skjersjøen" />
		<tag k="natural" v="water" />
		<tag k="ssr:stedsnr" v="68858" />
	</node>
	<node id="-132795" lat="60.6053805565" lon="10.8660527751">
		<tag k="name" v="Synstebysæterelva" />
		<tag k="ssr:stedsnr" v="753662" />
		<tag k="waterway" v="river" />
	</node>
	<node id="-132278" lat="60.5588027807" lon="11.0860638809">
		<tag k="name" v="Østre Torvfesttjern" />
		<tag k="natural" v="water" />
		<tag k="ssr:stedsnr" v="464054" />
	</node>
	<node id="-132041" lat="60.5826249961" lon="11.0421555566">
		<tag k="name" v="Vesle Fløyta" />
		<tag k="natural" v="water" />
		<tag k="ssr:stedsnr" v="189607" />
	</node>
	<node id="-132276" lat="60.5037333299" lon="10.9766055555">
		<tag k="name" v="Krokelva" />
		<tag k="ssr:stedsnr" v="463328" />
		<tag k="waterway" v="river" />
	</node>
	<node id="-132275" lat="60.5833194476" lon="10.9969305558">
		<tag k="name" v="Mærraputten" />
		<tag k="natural" v="water" />
		<tag k="ssr:stedsnr" v="463272" />
	</node>
	<node id="-132274" lat="60.5658666671" lon="11.0244805572">
		<tag k="name" v="Bråtåbrenntjern" />
		<tag k="natural" v="water" />
		<tag k="ssr:stedsnr" v="463238" />
	</node>
	<node id="-132272" lat="60.6167805583" lon="10.9478444355">
		<tag k="name" v="Grønbekken" />
		<tag k="ssr:stedsnr" v="463219" />
		<tag k="waterway" v="stream" />
	</node>
	<node id="-132781" lat="60.6147638881" lon="10.9160138862">
		<tag k="name" v="Røyslibekken" />
		<tag k="ssr:stedsnr" v="735853" />
		<tag k="waterway" v="stream" />
	</node>
	<node id="-132780" lat="60.6213527755" lon="10.8562583377">
		<tag k="name" v="Sagelva" />
		<tag k="ssr:stedsnr" v="735850" />
		<tag k="waterway" v="river" />
	</node>
	<node id="-132266" lat="60.5555749966" lon="10.8609472227">
		<tag k="name" v="Furubekken" />
		<tag k="ssr:stedsnr" v="451563" />
		<tag k="waterway" v="stream" />
	</node>
	<node id="-131538" lat="60.5005249995" lon="10.7530027811">
		<tag k="alt_name" v="Vindflotjernet;Vindflotjern, nordre" />
		<tag k="name" v="Store Vindflotjernet" />
		<tag k="natural" v="water" />
		<tag k="ssr:stedsnr" v="357697" />
	</node>
	<node id="-132766" lat="60.5702749961" lon="10.8218388911">
		<tag k="alt_name" v="Vårsjøelva" />
		<tag k="name" v="Vålsjøelva" />
		<tag k="ssr:stedsnr" v="735677" />
		<tag k="waterway" v="stream" />
	</node>
	<node id="-132765" lat="60.5514123016" lon="10.9560760337">
		<tag k="name" v="Garsjøen" />
		<tag k="natural" v="water" />
		<tag k="ssr:stedsnr" v="735674" />
		<tag k="water" v="lake" />
	</node>
	<node id="-132249" lat="60.5876388856" lon="10.7535444427">
		<tag k="name" v="Homla" />
		<tag k="ssr:stedsnr" v="450661" />
		<tag k="waterway" v="stream" />
	</node>
	<node id="-131609" lat="60.6462111132" lon="10.7438583372">
		<tag k="name" v="Bøvra" />
		<tag k="ssr:stedsnr" v="390725" />
		<tag k="waterway" v="river" />
	</node>
	<node id="-132756" lat="60.4800500021" lon="10.8676250024">
		<tag k="name" v="Bergevatnet" />
		<tag k="natural" v="water" />
		<tag k="ssr:stedsnr" v="734739" />
		<tag k="water" v="lake" />
	</node>
	<node id="-132243" lat="60.6421194419" lon="10.870786103">
		<tag k="name" v="Ovrenbekken" />
		<tag k="ssr:stedsnr" v="450360" />
		<tag k="waterway" v="stream" />
	</node>
	<node id="-132754" lat="60.525252777" lon="10.9808861109">
		<tag k="name" v="Bjønnlaua" />
		<tag k="natural" v="water" />
		<tag k="ssr:stedsnr" v="725130" />
	</node>
	<node id="-132237" lat="60.4942500042" lon="10.8411833278">
		<tag k="name" v="Mosetervika" />
		<tag k="natural" v="bay" />
		<tag k="ssr:stedsnr" v="449986" />
	</node>
	<node id="-132235" lat="60.4847722196" lon="10.8759583256">
		<tag k="name" v="Volltjernsbekken" />
		<tag k="ssr:stedsnr" v="449847" />
		<tag k="waterway" v="stream" />
	</node>
	<node id="-132375" lat="60.6165194458" lon="11.0233972244">
		<tag k="name" v="Tverrelva" />
		<tag k="ssr:stedsnr" v="524465" />
		<tag k="waterway" v="river" />
	</node>
	<node id="-131436" lat="60.5806061424" lon="10.8223231695">
		<tag k="alt_name" v="Vålsjøen, store;Store Vårsjøen" />
		<tag k="name" v="Store Vålsjøen" />
		<tag k="natural" v="water" />
		<tag k="ssr:stedsnr" v="310633" />
		<tag k="water" v="lake" />
	</node>
	<node id="-131718" lat="60.590442594" lon="11.043217377">
		<tag k="alt_name" v="Hofsrudtjern" />
		<tag k="name" v="Hofsrudtjernet" />
		<tag k="natural" v="water" />
		<tag k="ssr:stedsnr" v="7621" />
	</node>
	<node id="-131717" lat="60.5396055528" lon="11.0963111134">
		<tag k="alt_name" v="Hekatjern" />
		<tag k="name" v="Hækatjernet" />
		<tag k="natural" v="water" />
		<tag k="ssr:stedsnr" v="7456" />
	</node>
	<node id="-131606" lat="60.5619527818" lon="10.8362361043">
		<tag k="name" v="Kolbuseterputten" />
		<tag k="natural" v="water" />
		<tag k="ssr:stedsnr" v="390511" />
		<tag k="water" v="pond" />
	</node>
	<node id="-132738" lat="60.5274166687" lon="10.9441500079">
		<tag k="name" v="Langtjernet" />
		<tag k="natural" v="water" />
		<tag k="ssr:stedsnr" v="707857" />
	</node>
	<node id="-132223" lat="60.6203722187" lon="11.0813944512">
		<tag k="fixme" v="multiple name tags, choose one and add the other to alt_name" />
		<tag k="name" v="Fjellhaugelva;Fjælubekken" />
		<tag k="ssr:stedsnr" v="432824" />
		<tag k="waterway" v="stream" />
	</node>
	<node id="-132215" lat="60.5533472212" lon="10.981858325">
		<tag k="alt_name" v="Store Myrtjern" />
		<tag k="name" v="Myrtjernet" />
		<tag k="natural" v="water" />
		<tag k="ssr:stedsnr" v="432665" />
	</node>
	<node id="-132214" lat="60.5392388932" lon="10.9946250062">
		<tag k="alt_name" v="Lavtjern" />
		<tag k="name" v="Lavtjernet" />
		<tag k="natural" v="water" />
		<tag k="ssr:stedsnr" v="432636" />
	</node>
	<node id="-132724" lat="60.5879277812" lon="11.023652783">
		<tag k="name" v="Startjern" />
		<tag k="natural" v="water" />
		<tag k="ssr:stedsnr" v="706541" />
	</node>
	<node id="-132208" lat="60.4967194451" lon="10.8503055472">
		<tag k="name" v="Grønsjøen" />
		<tag k="natural" v="water" />
		<tag k="ssr:stedsnr" v="431783" />
		<tag k="water" v="lake" />
	</node>
	<node id="-132718" lat="60.5204694458" lon="11.0640666715">
		<tag k="name" v="Sundet" />
		<tag k="natural" v="strait" />
		<tag k="ssr:stedsnr" v="706310" />
	</node>
	<node id="-132203" lat="60.4883499985" lon="10.8096749986">
		<tag k="alt_name" v="Monssetervika" />
		<tag k="name" v="Monsætervika" />
		<tag k="natural" v="bay" />
		<tag k="ssr:stedsnr" v="431762" />
	</node>
	<node id="-132713" lat="60.6372111146" lon="10.8992472186">
		<tag k="name" v="Prøvenelva" />
		<tag k="ssr:stedsnr" v="706039" />
		<tag k="waterway" v="river" />
	</node>
	<node id="-132112" lat="60.5960611119" lon="11.0528361164">
		<tag k="name" v="Kroktjern" />
		<tag k="natural" v="water" />
		<tag k="ssr:stedsnr" v="221549" />
	</node>
	<node id="-132198" lat="60.5753111075" lon="11.042277785">
		<tag k="alt_name" v="Fløiteelva" />
		<tag k="name" v="Fløyteelva" />
		<tag k="ssr:stedsnr" v="431645" />
		<tag k="waterway" v="stream" />
	</node>
	<node id="-132197" lat="60.5897968745" lon="11.0022872484">
		<tag k="alt_name" v="Ormtjernet, vestre" />
		<tag k="name" v="Vestre Ormtjernet" />
		<tag k="natural" v="water" />
		<tag k="ssr:stedsnr" v="432625" />
	</node>
	<node id="-132303" lat="60.5406611145" lon="11.0801750027">
		<tag k="alt_name" v="Holmbråtåtjern" />
		<tag k="name" v="Hanbråtatjernet" />
		<tag k="natural" v="water" />
		<tag k="ssr:stedsnr" v="492630" />
	</node>
	<node id="-132194" lat="60.4951055545" lon="10.7583138839">
		<tag k="alt_name" v="Vindflotjern, søndre" />
		<tag k="name" v="Søndre Vindflotjernet" />
		<tag k="natural" v="water" />
		<tag k="ssr:stedsnr" v="479766" />
	</node>
	<node id="-132193" lat="60.5259916676" lon="10.8457611171">
		<tag k="name" v="Vetl-Bergsjøen" />
		<tag k="natural" v="water" />
		<tag k="ssr:stedsnr" v="268802" />
	</node>
	<node id="-132368" lat="60.5605555581" lon="11.0997333279">
		<tag k="name" v="Elgholpytten" />
		<tag k="natural" v="water" />
		<tag k="ssr:stedsnr" v="524036" />
	</node>
	<node id="-132186" lat="60.4940333304" lon="10.7906777825">
		<tag k="name" v="Vøllumsbekken" />
		<tag k="ssr:stedsnr" v="268214" />
		<tag k="waterway" v="stream" />
	</node>
	<node id="-132301" lat="60.5873881887" lon="10.8397911287">
		<tag k="name" v="Myrsjøen" />
		<tag k="natural" v="water" />
		<tag k="ssr:stedsnr" v="492612" />
		<tag k="water" v="lake" />
	</node>
	<node id="-132695" lat="60.7112249975" lon="10.7881166618">
		<tag k="name" v="Kvernhusbekken" />
		<tag k="ssr:stedsnr" v="693586" />
		<tag k="waterway" v="stream" />
	</node>
	<node id="-132182" lat="60.4951333342" lon="10.8876694495">
		<tag k="name" v="Høverdalsputten" />
		<tag k="natural" v="water" />
		<tag k="ssr:stedsnr" v="267882" />
		<tag k="water" v="pond" />
	</node>
	<node id="-132180" lat="60.5060333304" lon="10.9044694463">
		<tag k="name" v="Steinodden" />
		<tag k="natural" v="cape" />
		<tag k="ssr:stedsnr" v="267715" />
	</node>
	<node id="-131791" lat="60.5633694421" lon="10.9086888957">
		<tag k="name" v="Abortjern" />
		<tag k="natural" v="water" />
		<tag k="ssr:stedsnr" v="39848" />
	</node>
	<node id="-132173" lat="60.7023111143" lon="10.9135055616">
		<tag k="name" v="Tangnes" />
		<tag k="natural" v="cape" />
		<tag k="ssr:stedsnr" v="250944" />
	</node>
	<node id="-131439" lat="60.5808055568" lon="11.0764888932">
		<tag k="alt_name" v="Alterdalstjern" />
		<tag k="name" v="Alterdalstjernet" />
		<tag k="natural" v="water" />
		<tag k="ssr:stedsnr" v="310653" />
	</node>
	<node id="-131511" lat="60.5918999961" lon="11.0146416591">
		<tag k="name" v="Hervenelva" />
		<tag k="ssr:stedsnr" v="342515" />
		<tag k="waterway" v="river" />
	</node>
	<node id="-131656" lat="60.5909999996" lon="10.9604249934">
		<tag k="name" v="Fiskelausbekken" />
		<tag k="ssr:stedsnr" v="888493" />
		<tag k="waterway" v="stream" />
	</node>
	<node id="-132677" lat="60.4982805551" lon="10.8286777817">
		<tag k="name" v="Godputten" />
		<tag k="natural" v="water" />
		<tag k="ssr:stedsnr" v="693264" />
		<tag k="water" v="pond" />
	</node>
	<node id="-132675" lat="60.4870333306" lon="10.9520166659">
		<tag k="name" v="Høverelva" />
		<tag k="ssr:stedsnr" v="693172" />
		<tag k="waterway" v="river" />
	</node>
	<node id="-132672" lat="60.536444448" lon="10.8559638825">
		<tag k="name" v="Jensseterelva" />
		<tag k="ssr:stedsnr" v="692823" />
		<tag k="waterway" v="river" />
	</node>
	<node id="-132277" lat="60.5947805591" lon="10.9597416643">
		<tag k="name" v="Veltfiskelausen" />
		<tag k="natural" v="water" />
		<tag k="ssr:stedsnr" v="463513" />
	</node>
	<node id="-132668" lat="60.5147111147" lon="10.9126388974">
		<tag k="name" v="Eikestokken" />
		<tag k="natural" v="water" />
		<tag k="ssr:stedsnr" v="692727" />
		<tag k="water" v="pond" />
	</node>
	<node id="-132667" lat="60.5580249963" lon="10.7384055613">
		<tag k="name" v="Risskogbekken" />
		<tag k="ssr:stedsnr" v="692314" />
		<tag k="waterway" v="stream" />
	</node>
	<node id="-132666" lat="60.5113666677" lon="10.8298499987">
		<tag k="name" v="Nordre Bladputt" />
		<tag k="natural" v="water" />
		<tag k="ssr:stedsnr" v="692067" />
		<tag k="water" v="pond" />
	</node>
	<node id="-132703" lat="60.6553916655" lon="10.9486638929">
		<tag k="name" v="Hølja" />
		<tag k="ssr:stedsnr" v="694327" />
		<tag k="waterway" v="stream" />
	</node>
	<node id="-131756" lat="60.7160305565" lon="10.8655388811">
		<tag k="name" v="Smørvika" />
		<tag k="natural" v="bay" />
		<tag k="ssr:stedsnr" v="26365" />
	</node>
	<node id="-132149" lat="60.560121253" lon="10.9963817901">
		<tag k="alt_name" v="Øyungen, vle;Vesle Øyongen" />
		<tag k="name" v="Vesle Øyungen" />
		<tag k="natural" v="water" />
		<tag k="ssr:stedsnr" v="249663" />
	</node>
	<node id="-133171" lat="60.5388555597" lon="10.9811166639">
		<tag k="name" v="Kvernumseterputten" />
		<tag k="natural" v="water" />
		<tag k="ssr:stedsnr" v="968396" />
	</node>
	<node id="-132146" lat="60.568488888" lon="10.7488361089">
		<tag k="name" v="Homla" />
		<tag k="old_name" v="Humla" />
		<tag k="ssr:stedsnr" v="249628" />
		<tag k="waterway" v="stream" />
	</node>
	<node id="-131763" lat="60.5360333292" lon="10.74748334">
		<tag k="name" v="Risskogbekken" />
		<tag k="ssr:stedsnr" v="26535" />
		<tag k="waterway" v="stream" />
	</node>
	<node id="-132656" lat="60.5897833347" lon="11.0293194475">
		<tag k="alt_name" v="Søndre Storgåstjern" />
		<tag k="name" v="Storgåstjernet" />
		<tag k="natural" v="water" />
		<tag k="ssr:stedsnr" v="675664" />
	</node>
	<node id="-133161" lat="60.657927775" lon="10.9591333258">
		<tag k="name" v="Lenaelva" />
		<tag k="ssr:stedsnr" v="951898" />
		<tag k="waterway" v="river" />
	</node>
	<node id="-131943" lat="60.5592655637" lon="11.007025393">
		<tag k="alt_name" v="Øyungen, store;Store Øyongen" />
		<tag k="name" v="Store Øyungen" />
		<tag k="natural" v="water" />
		<tag k="old_name" v="Store Øiungen" />
		<tag k="ssr:stedsnr" v="128653" />
		<tag k="water" v="lake" />
	</node>
	<node id="-132135" lat="60.5961499969" lon="11.0587777779">
		<tag k="alt_name" v="Fjælutjern" />
		<tag k="name" v="Fjælutjernet" />
		<tag k="natural" v="water" />
		<tag k="ssr:stedsnr" v="236606" />
	</node>
	<node id="-132659" lat="60.5867464586" lon="10.9789159488">
		<tag k="name" v="Fiskelausen" />
		<tag k="natural" v="water" />
		<tag k="ssr:stedsnr" v="675874" />
		<tag k="water" v="lake" />
	</node>
	<node id="-133157" lat="60.5812833368" lon="11.0930833425">
		<tag k="name" v="Svartputten" />
		<tag k="natural" v="water" />
		<tag k="ssr:stedsnr" v="951198" />
	</node>
	<node id="-131619" lat="60.6043888865" lon="11.0040944432">
		<tag k="name" v="Kristofferputten" />
		<tag k="natural" v="water" />
		<tag k="ssr:stedsnr" v="403510" />
	</node>
	<node id="-131618" lat="60.5923694445" lon="10.9995527752">
		<tag k="name" v="Toputta" />
		<tag k="natural" v="water" />
		<tag k="ssr:stedsnr" v="403509" />
	</node>
	<node id="-133152" lat="60.6188444478" lon="11.0294083309">
		<tag k="name" v="Hammerstadelva" />
		<tag k="ssr:stedsnr" v="949469" />
		<tag k="waterway" v="river" />
	</node>
	<node id="-133151" lat="60.5103222205" lon="10.9942194519">
		<tag k="name" v="Amunddalsputten" />
		<tag k="natural" v="water" />
		<tag k="ssr:stedsnr" v="949302" />
		<tag k="water" v="pond" />
	</node>
	<node id="-133150" lat="60.5648388851" lon="11.0482472282">
		<tag k="name" v="Jønnbekken" />
		<tag k="ssr:stedsnr" v="949231" />
		<tag k="waterway" v="stream" />
	</node>
	<node id="-133149" lat="60.5686722247" lon="11.0372111178">
		<tag k="name" v="Svartdalselva" />
		<tag k="ssr:stedsnr" v="949229" />
		<tag k="waterway" v="river" />
	</node>
	<node id="-131612" lat="60.5680944441" lon="11.1023222281">
		<tag k="name" v="Mærrabekken" />
		<tag k="ssr:stedsnr" v="403086" />
		<tag k="waterway" v="stream" />
	</node>
	<node id="-132634" lat="60.5328326348" lon="11.011007208">
		<tag k="alt_name" v="Hommersjøen" />
		<tag k="name" v="Hommelsjøen" />
		<tag k="natural" v="water" />
		<tag k="ssr:stedsnr" v="674680" />
	</node>
	<node id="-133145" lat="60.5697333379" lon="11.1014972147">
		<tag k="name" v="Kjøsketømmerputten" />
		<tag k="natural" v="water" />
		<tag k="ssr:stedsnr" v="949079" />
	</node>
	<node id="-133144" lat="60.6390361087" lon="10.9471416688">
		<tag k="name" v="Hølja" />
		<tag k="ssr:stedsnr" v="949050" />
		<tag k="waterway" v="river" />
	</node>
	<node id="-131789" lat="60.5334388854" lon="10.9438555605">
		<tag k="name" v="Svartputten" />
		<tag k="natural" v="water" />
		<tag k="ssr:stedsnr" v="39835" />
		<tag k="water" v="pond" />
	</node>
	<node id="-132118" lat="60.5878166653" lon="11.1224111062">
		<tag k="name" v="Sikkelibekken" />
		<tag k="ssr:stedsnr" v="221938" />
		<tag k="waterway" v="stream" />
	</node>
	<node id="-133140" lat="60.5845666686" lon="10.8505250049">
		<tag k="name" v="Løjeputten" />
		<tag k="natural" v="water" />
		<tag k="ssr:stedsnr" v="937747" />
		<tag k="water" v="pond" />
	</node>
	<node id="-132626" lat="60.4924000007" lon="10.835074998">
		<tag k="name" v="Flisa" />
		<tag k="natural" v="water" />
		<tag k="ssr:stedsnr" v="673738" />
	</node>
	<node id="-132625" lat="60.4902000023" lon="10.8443138905">
		<tag k="alt_name" v="Svarttjern" />
		<tag k="name" v="Svarttjernet" />
		<tag k="natural" v="water" />
		<tag k="ssr:stedsnr" v="673739" />
	</node>
	<node id="-133136" lat="60.7210611104" lon="10.8526444433">
		<tag k="name" v="Lierstranda" />
		<tag k="natural" v="beach" />
		<tag k="ssr:stedsnr" v="937389" />
	</node>
	<node id="-132622" lat="60.5739777802" lon="10.8153944409">
		<tag k="alt_name" v="Vålsjøen, vesle;Lille Vårsjøen" />
		<tag k="name" v="Vesle Vålsjøen" />
		<tag k="natural" v="water" />
		<tag k="ssr:stedsnr" v="674633" />
	</node>
	<node id="-132109" lat="60.5427305537" lon="11.0766416747">
		<tag k="name" v="Svartputten" />
		<tag k="natural" v="water" />
		<tag k="ssr:stedsnr" v="221162" />
	</node>
	<node id="-132624" lat="60.488227776" lon="10.8844166621">
		<tag k="alt_name" v="Volltjern" />
		<tag k="name" v="Volltjernet" />
		<tag k="natural" v="water" />
		<tag k="ssr:stedsnr" v="673723" />
	</node>
	<node id="-132618" lat="60.5393194454" lon="10.9588305581">
		<tag k="name" v="Garsjøelva" />
		<tag k="ssr:stedsnr" v="665434" />
		<tag k="waterway" v="river" />
	</node>
	<node id="-132103" lat="60.6445083303" lon="10.7237888875">
		<tag k="name" v="Bøvra" />
		<tag k="ssr:stedsnr" v="208757" />
		<tag k="waterway" v="river" />
	</node>
	<node id="-133033" lat="60.507311112" lon="10.8160944487">
		<tag k="name" v="Estentjernbekken" />
		<tag k="ssr:stedsnr" v="875076" />
		<tag k="waterway" v="stream" />
	</node>
	<node id="-131589" lat="60.7151055572" lon="10.865663893">
		<tag k="name" v="Smørvika" />
		<tag k="natural" v="bay" />
		<tag k="ssr:stedsnr" v="389540" />
	</node>
	<node id="-131588" lat="60.7484333358" lon="10.7307611062">
		<tag k="name" v="Amundrustadelva" />
		<tag k="ssr:stedsnr" v="389451" />
		<tag k="waterway" v="river" />
	</node>
	<node id="-131926" lat="60.5217333304" lon="10.9970361154">
		<tag k="name" v="Bladtjern" />
		<tag k="natural" v="water" />
		<tag k="ssr:stedsnr" v="118131" />
	</node>
</osm>
