<?xml version="1.0" encoding="UTF-8"?>
<osm generator="osmapis" version="0.6">
	<node id="-132032" lat="60.6144138863" lon="11.1109444462">
		<tag k="fixme" v="consider boundary=protected_area and relevant protect_class if not nature reserve" />
		<tag k="leisure" v="nature_reserve" />
		<tag k="name" v="Falken naturreservat" />
		<tag k="ssr:stedsnr" v="181483" />
	</node>
	<node id="-132699" lat="60.4986444408" lon="10.7482916589">
		<tag k="fixme" v="consider boundary=protected_area and relevant protect_class if not nature reserve" />
		<tag k="leisure" v="nature_reserve" />
		<tag k="name" v="Vindflomyrene naturreservat" />
		<tag k="ssr:stedsnr" v="694033" />
	</node>
	<node id="-132018" lat="60.693675001" lon="10.8966249929">
		<tag k="military" v="range" />
		<tag k="name" v="Starum" />
		<tag k="ssr:stedsnr" v="162417" />
	</node>
	<node id="-133068" lat="60.7062083301" lon="10.8752250051">
		<tag k="fixme" v="consider boundary=protected_area and relevant protect_class if not nature reserve" />
		<tag k="leisure" v="nature_reserve" />
		<tag k="name" v="Kile naturreservat" />
		<tag k="ssr:stedsnr" v="909477" />
	</node>
	<node id="-131815" lat="60.5756833314" lon="11.0084666722">
		<tag k="fixme" v="consider boundary=protected_area and relevant protect_class if not nature reserve" />
		<tag k="leisure" v="nature_reserve" />
		<tag k="name" v="Svartdalstjerna naturreservat" />
		<tag k="ssr:stedsnr" v="59491" />
	</node>
	<node id="-131681" lat="60.5334529107" lon="10.8408535978">
		<tag k="fixme" v="consider boundary=protected_area and relevant protect_class if not nature reserve" />
		<tag k="leisure" v="nature_reserve" />
		<tag k="name" v="Kalvberget naturreservat" />
		<tag k="ssr:stedsnr" v="981244" />
	</node>
</osm>
