<?xml version="1.0" encoding="UTF-8"?>
<osm generator="osmapis" version="0.6">
	<node id="-284671" lat="58.7423749987" lon="8.68008889696">
		<tag k="alt_name" v="Bjortjenn" />
		<tag k="name" v="Bjortjørn" />
		<tag k="natural" v="water" />
		<tag k="ssr:stedsnr" v="486017" />
	</node>
	<node id="-284670" lat="58.7191361106" lon="8.94380277639">
		<tag k="name" v="Flektjenn" />
		<tag k="natural" v="water" />
		<tag k="ssr:stedsnr" v="485538" />
	</node>
	<node id="-282965" lat="58.725888887" lon="8.75170277138">
		<tag k="alt_name" v="Tryttjenn" />
		<tag k="name" v="Tryttjørn" />
		<tag k="natural" v="water" />
		<tag k="ssr:stedsnr" v="304105" />
	</node>
	<node id="-284665" lat="58.758255553" lon="8.7081777773">
		<tag k="name" v="Sinestangen" />
		<tag k="natural" v="cape" />
		<tag k="ssr:stedsnr" v="456976" />
	</node>
	<node id="-284662" lat="58.7734638873" lon="8.7105166641">
		<tag k="name" v="Småholmene" />
		<tag k="place" v="islet" />
		<tag k="ssr:stedsnr" v="456961" />
	</node>
	<node id="-284659" lat="58.7632750005" lon="8.65393055644">
		<tag k="name" v="Nordslåttjenn" />
		<tag k="natural" v="water" />
		<tag k="ssr:stedsnr" v="456946" />
	</node>
	<node id="-284657" lat="58.7799861097" lon="8.69795833725">
		<tag k="name" v="Gorrtangen" />
		<tag k="natural" v="cape" />
		<tag k="ssr:stedsnr" v="456935" />
	</node>
	<node id="-284656" lat="58.7944305524" lon="8.69650833723">
		<tag k="name" v="Rausanddalstjenn" />
		<tag k="natural" v="water" />
		<tag k="ssr:stedsnr" v="456918" />
	</node>
	<node id="-284653" lat="58.8157833364" lon="8.69597778465">
		<tag k="name" v="Bjorhølane" />
		<tag k="place" v="locality" />
		<tag k="ssr:stedsnr" v="456899" />
	</node>
	<node id="-283303" lat="58.765919444" lon="8.93708332858">
		<tag k="name" v="Rørmyrbekken" />
		<tag k="ssr:stedsnr" v="395289" />
		<tag k="waterway" v="stream" />
	</node>
	<node id="-284645" lat="58.7939749978" lon="8.74450000531">
		<tag k="name" v="Sandodden" />
		<tag k="natural" v="cape" />
		<tag k="ssr:stedsnr" v="456833" />
	</node>
	<node id="-284644" lat="58.813977774" lon="8.81473332642">
		<tag k="name" v="Ålekjerrneset" />
		<tag k="natural" v="cape" />
		<tag k="ssr:stedsnr" v="456827" />
	</node>
	<node id="-284643" lat="58.8151666632" lon="8.82194166125">
		<tag k="name" v="Kusundskjæra" />
		<tag k="place" v="islet" />
		<tag k="ssr:stedsnr" v="456826" />
	</node>
	<node id="-284642" lat="58.813355559" lon="8.78720277974">
		<tag k="name" v="Homstjennbukta" />
		<tag k="natural" v="bay" />
		<tag k="ssr:stedsnr" v="456820" />
	</node>
	<node id="-284640" lat="58.8102194409" lon="8.82098889344">
		<tag k="name" v="Skombekkbukta" />
		<tag k="natural" v="bay" />
		<tag k="ssr:stedsnr" v="456811" />
	</node>
	<node id="-283301" lat="58.7569361132" lon="8.91194166566">
		<tag k="name" v="Moltekjerrodden" />
		<tag k="natural" v="cape" />
		<tag k="ssr:stedsnr" v="395284" />
	</node>
	<node id="-284636" lat="58.8499138846" lon="8.8280833325">
		<tag k="name" v="Bjordalstjenn" />
		<tag k="natural" v="water" />
		<tag k="ssr:stedsnr" v="456790" />
	</node>
	<node id="-284634" lat="58.7841500014" lon="8.81324166197">
		<tag k="name" v="Råna" />
		<tag k="natural" v="water" />
		<tag k="ssr:stedsnr" v="456769" />
		<tag k="water" v="lake" />
	</node>
	<node id="-284633" lat="58.7851166696" lon="8.79300556036">
		<tag k="name" v="Skarkedalsodden" />
		<tag k="natural" v="cape" />
		<tag k="ssr:stedsnr" v="456767" />
	</node>
	<node id="-284621" lat="58.7717555569" lon="8.96298055431">
		<tag k="name" v="Lislebekk" />
		<tag k="ssr:stedsnr" v="456543" />
		<tag k="waterway" v="stream" />
	</node>
	<node id="-284322" lat="58.7381833367" lon="8.99119721967">
		<tag k="name" v="Kilen" />
		<tag k="natural" v="bay" />
		<tag k="ssr:stedsnr" v="214505" />
	</node>
	<node id="-284610" lat="58.7312944412" lon="8.94587499785">
		<tag k="name" v="Bekkslåttjennene" />
		<tag k="natural" v="water" />
		<tag k="ssr:stedsnr" v="456477" />
	</node>
	<node id="-284609" lat="58.6938777766" lon="8.91667778327">
		<tag k="name" v="Perstjenn" />
		<tag k="natural" v="water" />
		<tag k="ssr:stedsnr" v="456471" />
	</node>
	<node id="-286365" lat="58.8052861131" lon="8.88291110864">
		<tag k="name" v="Butangen" />
		<tag k="natural" v="cape" />
		<tag k="ssr:stedsnr" v="942359" />
	</node>
	<node id="-284607" lat="58.8306972231" lon="8.858769452">
		<tag k="name" v="Blakkholmen" />
		<tag k="place" v="islet" />
		<tag k="ssr:stedsnr" v="456441" />
	</node>
	<node id="-284598" lat="58.8163611087" lon="8.86329722631">
		<tag k="name" v="Haukenesfjorden" />
		<tag k="natural" v="water" />
		<tag k="ssr:stedsnr" v="456412" />
		<tag k="water" v="lake" />
	</node>
	<node id="-284594" lat="58.7013222252" lon="8.83463055711">
		<tag k="name" v="Hauglandsfossen" />
		<tag k="natural" v="waterfall" />
		<tag k="ssr:stedsnr" v="456396" />
	</node>
	<node id="-284592" lat="58.8258750041" lon="8.92675278354">
		<tag k="name" v="Sigvaldsdam" />
		<tag k="place" v="locality" />
		<tag k="ssr:stedsnr" v="456391" />
	</node>
	<node id="-283976" lat="58.8304138863" lon="8.85038055643">
		<tag k="name" v="Tjennstrandtjenn" />
		<tag k="natural" v="water" />
		<tag k="ssr:stedsnr" v="152490" />
	</node>
	<node id="-284589" lat="58.7991749989" lon="8.8671305611">
		<tag k="name" v="Romundstadtjenn" />
		<tag k="natural" v="water" />
		<tag k="ssr:stedsnr" v="456383" />
	</node>
	<node id="-284587" lat="58.7069333352" lon="8.83008332692">
		<tag k="name" v="Dipilen" />
		<tag k="natural" v="water" />
		<tag k="ssr:stedsnr" v="456370" />
	</node>
	<node id="-284585" lat="58.8081972245" lon="8.8587805535">
		<tag k="name" v="Ormholmen" />
		<tag k="place" v="islet" />
		<tag k="ssr:stedsnr" v="456365" />
	</node>
	<node id="-284584" lat="58.8090416659" lon="8.88179722633">
		<tag k="name" v="Lille Jordsøya" />
		<tag k="place" v="islet" />
		<tag k="ssr:stedsnr" v="456361" />
	</node>
	<node id="-284581" lat="58.8126583303" lon="8.88199721737">
		<tag k="name" v="Svartufsholmane" />
		<tag k="place" v="islet" />
		<tag k="ssr:stedsnr" v="456350" />
	</node>
	<node id="-284580" lat="58.8154999991" lon="8.87096667233">
		<tag k="name" v="Kråkholmen" />
		<tag k="place" v="islet" />
		<tag k="ssr:stedsnr" v="456348" />
	</node>
	<node id="-284578" lat="58.7750638884" lon="8.83474443952">
		<tag k="name" v="Lauvpollbukta" />
		<tag k="natural" v="bay" />
		<tag k="ssr:stedsnr" v="456314" />
	</node>
	<node id="-284576" lat="58.7752000007" lon="8.862141662">
		<tag k="name" v="Høldammen" />
		<tag k="ssr:stedsnr" v="456312" />
		<tag k="waterway" v="dam" />
	</node>
	<node id="-284574" lat="58.7651972225" lon="8.865444445">
		<tag k="name" v="Pongen" />
		<tag k="place" v="locality" />
		<tag k="ssr:stedsnr" v="456307" />
	</node>
	<node id="-284573" lat="58.7608138924" lon="8.88606111226">
		<tag k="name" v="Hestetjenn" />
		<tag k="natural" v="water" />
		<tag k="ssr:stedsnr" v="456306" />
	</node>
	<node id="-284571" lat="58.7628277804" lon="8.89263610655">
		<tag k="name" v="Kvennåstangen" />
		<tag k="natural" v="cape" />
		<tag k="ssr:stedsnr" v="456294" />
	</node>
	<node id="-284570" lat="58.7846916664" lon="8.98297499868">
		<tag k="name" v="Øvre Slettåslona" />
		<tag k="ssr:stedsnr" v="456295" />
		<tag k="waterway" v="river" />
	</node>
	<node id="-284566" lat="58.7046055583" lon="8.95260000438">
		<tag k="name" v="Saulebekk" />
		<tag k="ssr:stedsnr" v="456275" />
		<tag k="waterway" v="stream" />
	</node>
	<node id="-284564" lat="58.7023194441" lon="8.93852221908">
		<tag k="name" v="Pungen" />
		<tag k="natural" v="bay" />
		<tag k="ssr:stedsnr" v="456273" />
	</node>
	<node id="-284559" lat="58.7422777809" lon="8.85584166585">
		<tag k="name" v="Myrlitjenna" />
		<tag k="natural" v="water" />
		<tag k="ssr:stedsnr" v="456262" />
	</node>
	<node id="-283173" lat="58.7725166675" lon="8.65702777903">
		<tag k="name" v="Smalsund" />
		<tag k="natural" v="strait" />
		<tag k="ssr:stedsnr" v="335954" />
	</node>
	<node id="-284541" lat="58.7188055543" lon="8.71875554908">
		<tag k="name" v="Heislåttjenn" />
		<tag k="natural" v="water" />
		<tag k="ssr:stedsnr" v="456182" />
	</node>
	<node id="-284538" lat="58.6643138882" lon="8.79516388089">
		<tag k="name" v="Kvennbekken" />
		<tag k="ssr:stedsnr" v="456173" />
		<tag k="waterway" v="stream" />
	</node>
	<node id="-284537" lat="58.8165000006" lon="8.75846111054">
		<tag k="name" v="Øvre Øfsslåttjenn" />
		<tag k="natural" v="water" />
		<tag k="ssr:stedsnr" v="456165" />
	</node>
	<node id="-285716" lat="58.7601861098" lon="8.7268527789">
		<tag k="name" v="Somhåmmår" />
		<tag k="place" v="islet" />
		<tag k="ssr:stedsnr" v="760244" />
	</node>
	<node id="-284529" lat="58.8172527774" lon="8.90830833982">
		<tag k="name" v="Bjortjenn" />
		<tag k="natural" v="water" />
		<tag k="ssr:stedsnr" v="456145" />
	</node>
	<node id="-284527" lat="58.7305638882" lon="8.92398888952">
		<tag k="name" v="Kringletjenn" />
		<tag k="natural" v="water" />
		<tag k="ssr:stedsnr" v="456131" />
	</node>
	<node id="-282939" lat="58.7446694472" lon="8.67099166218">
		<tag k="name" v="Gagletjenn" />
		<tag k="natural" v="water" />
		<tag k="ssr:stedsnr" v="274846" />
	</node>
	<node id="-284989" lat="58.7608666669" lon="8.89565832795">
		<tag k="name" v="Ljøsvassbekken" />
		<tag k="ssr:stedsnr" v="577302" />
		<tag k="waterway" v="stream" />
	</node>
	<node id="-284521" lat="58.7920027797" lon="8.85012500281">
		<tag k="name" v="Langholmen" />
		<tag k="place" v="islet" />
		<tag k="ssr:stedsnr" v="456091" />
	</node>
	<node id="-284519" lat="58.781338892" lon="8.84531110362">
		<tag k="name" v="Lauve Slåttøya" />
		<tag k="place" v="island" />
		<tag k="ssr:stedsnr" v="456079" />
	</node>
	<node id="-284517" lat="58.7834666638" lon="8.83634999632">
		<tag k="name" v="Tengelsund" />
		<tag k="natural" v="strait" />
		<tag k="ssr:stedsnr" v="456077" />
	</node>
	<node id="-284516" lat="58.7815083291" lon="8.85577221929">
		<tag k="name" v="Dikesholmen" />
		<tag k="place" v="islet" />
		<tag k="ssr:stedsnr" v="456069" />
	</node>
	<node id="-283075" lat="58.770291664" lon="8.93235277503">
		<tag k="name" v="Lågtjennbekken" />
		<tag k="ssr:stedsnr" v="335316" />
		<tag k="waterway" v="stream" />
	</node>
	<node id="-284513" lat="58.7800861102" lon="8.84807778043">
		<tag k="name" v="Malsodden" />
		<tag k="natural" v="cape" />
		<tag k="ssr:stedsnr" v="456062" />
	</node>
	<node id="-284510" lat="58.7901611099" lon="8.93092222577">
		<tag k="name" v="Pøddetjennmyra" />
		<tag k="natural" v="water" />
		<tag k="ssr:stedsnr" v="456056" />
	</node>
	<node id="-284509" lat="58.6785555578" lon="8.82860000717">
		<tag k="name" v="Bokkholttjenn" />
		<tag k="natural" v="water" />
		<tag k="ssr:stedsnr" v="456055" />
	</node>
	<node id="-284503" lat="58.6949583301" lon="8.76637776984">
		<tag k="name" v="Søndretjenn" />
		<tag k="natural" v="water" />
		<tag k="ssr:stedsnr" v="456036" />
	</node>
	<node id="-284502" lat="58.7673611081" lon="8.71991944415">
		<tag k="name" v="Bjørnholmen" />
		<tag k="place" v="islet" />
		<tag k="ssr:stedsnr" v="456026" />
	</node>
	<node id="-284500" lat="58.7084138923" lon="8.79949166504">
		<tag k="name" v="Lontjenn" />
		<tag k="natural" v="water" />
		<tag k="ssr:stedsnr" v="456020" />
	</node>
	<node id="-283688" lat="58.811780553" lon="8.87688054918">
		<tag k="name" v="Brattøya" />
		<tag k="place" v="islet" />
		<tag k="ssr:stedsnr" v="62033" />
	</node>
	<node id="-284491" lat="58.6881194483" lon="8.73346943806">
		<tag k="name" v="Roligheta" />
		<tag k="natural" v="bay" />
		<tag k="ssr:stedsnr" v="456725" />
	</node>
	<node id="-284490" lat="58.6892388904" lon="8.74120277428">
		<tag k="name" v="Røyrmyrholmane" />
		<tag k="natural" v="cape" />
		<tag k="ssr:stedsnr" v="456723" />
	</node>
	<node id="-284488" lat="58.7204166678" lon="8.65910833461">
		<tag k="name" v="Nesodden" />
		<tag k="natural" v="cape" />
		<tag k="ssr:stedsnr" v="456702" />
	</node>
	<node id="-284300" lat="58.7984555537" lon="8.86189443753">
		<tag k="name" v="Karttjenn" />
		<tag k="natural" v="water" />
		<tag k="ssr:stedsnr" v="214387" />
	</node>
	<node id="-284484" lat="58.8169694404" lon="8.82157777867">
		<tag k="alt_name" v="Ålekjerrtjenna" />
		<tag k="name" v="Ålkjerrtjørna" />
		<tag k="natural" v="water" />
		<tag k="ssr:stedsnr" v="426659" />
	</node>
	<node id="-284483" lat="58.7943777795" lon="8.72980833665">
		<tag k="name" v="Hakenesbukta" />
		<tag k="natural" v="bay" />
		<tag k="ssr:stedsnr" v="426622" />
	</node>
	<node id="-284482" lat="58.7822138882" lon="8.69144999492">
		<tag k="alt_name" v="Hellertjenn" />
		<tag k="name" v="Hellertjørn" />
		<tag k="natural" v="water" />
		<tag k="ssr:stedsnr" v="426602" />
	</node>
	<node id="-284299" lat="58.8018416669" lon="8.86814999664">
		<tag k="name" v="Åvålskleivbukta" />
		<tag k="natural" v="bay" />
		<tag k="ssr:stedsnr" v="214384" />
	</node>
	<node id="-284479" lat="58.7846861081" lon="8.80752500502">
		<tag k="alt_name" v="Kvernvann" />
		<tag k="name" v="Kvernvannet" />
		<tag k="natural" v="water" />
		<tag k="ssr:stedsnr" v="426595" />
	</node>
	<node id="-284478" lat="58.7890527814" lon="8.78294999588">
		<tag k="alt_name" v="Bokktjenn" />
		<tag k="name" v="Bukktjørn" />
		<tag k="natural" v="water" />
		<tag k="ssr:stedsnr" v="426591" />
	</node>
	<node id="-284476" lat="58.7343472182" lon="8.90055277727">
		<tag k="name" v="Dåbutjenn" />
		<tag k="natural" v="water" />
		<tag k="ssr:stedsnr" v="426546" />
	</node>
	<node id="-284475" lat="58.7578250041" lon="8.81769444286">
		<tag k="alt_name" v="Råbutjenn" />
		<tag k="name" v="Råbutjørna" />
		<tag k="natural" v="water" />
		<tag k="ssr:stedsnr" v="426521" />
	</node>
	<node id="-283615" lat="58.7285944486" lon="8.7143888891">
		<tag k="name" v="Lille Lindtjenn" />
		<tag k="natural" v="water" />
		<tag k="ssr:stedsnr" v="31699" />
	</node>
	<node id="-284472" lat="58.7793305572" lon="8.77787778132">
		<tag k="alt_name" v="Østre Orrevannet;Orrvannet, østre" />
		<tag k="name" v="Østre Orrvannet" />
		<tag k="natural" v="water" />
		<tag k="ssr:stedsnr" v="426508" />
	</node>
	<node id="-284471" lat="58.7737749961" lon="8.74600277418">
		<tag k="name" v="Kvernvann" />
		<tag k="natural" v="water" />
		<tag k="ssr:stedsnr" v="426509" />
	</node>
	<node id="-283614" lat="58.6770444461" lon="8.78602221807">
		<tag k="name" v="Heislåttjenn" />
		<tag k="natural" v="water" />
		<tag k="ssr:stedsnr" v="31696" />
	</node>
	<node id="-284462" lat="58.8428916633" lon="8.86091667115">
		<tag k="alt_name" v="Vegårdsvasselva" />
		<tag k="name" v="Vegårsvasselva" />
		<tag k="ssr:stedsnr" v="426118" />
		<tag k="waterway" v="stream" />
	</node>
	<node id="-284461" lat="58.7038083297" lon="8.70137777228">
		<tag k="alt_name" v="Dalstjørn" />
		<tag k="name" v="Dalsmyrtjenn" />
		<tag k="natural" v="water" />
		<tag k="ssr:stedsnr" v="426085" />
	</node>
	<node id="-284460" lat="58.8142000021" lon="8.91298888739">
		<tag k="name" v="Værslåtta" />
		<tag k="place" v="locality" />
		<tag k="ssr:stedsnr" v="426031" />
	</node>
	<node id="-284459" lat="58.7456861094" lon="8.70901943951">
		<tag k="name" v="Lontjørn" />
		<tag k="natural" v="water" />
		<tag k="ssr:stedsnr" v="426020" />
	</node>
	<node id="-284454" lat="58.7664861105" lon="8.7064750079">
		<tag k="alt_name" v="Lille Drogløy;Drogløya, l" />
		<tag k="name" v="Lille Drogløya" />
		<tag k="place" v="islet" />
		<tag k="ssr:stedsnr" v="425484" />
	</node>
	<node id="-283270" lat="58.6583749969" lon="8.75410000219">
		<tag k="name" v="Voksfoss" />
		<tag k="natural" v="waterfall" />
		<tag k="ssr:stedsnr" v="395171" />
	</node>
	<node id="-284450" lat="58.72725" lon="8.71040832588">
		<tag k="name" v="Lindtjørnane" />
		<tag k="natural" v="water" />
		<tag k="ssr:stedsnr" v="425101" />
	</node>
	<node id="-284449" lat="58.7254972217" lon="8.81144167171">
		<tag k="name" v="Lomstjennane" />
		<tag k="natural" v="water" />
		<tag k="ssr:stedsnr" v="425097" />
	</node>
	<node id="-284441" lat="58.7853472222" lon="8.78307777442">
		<tag k="alt_name" v="Jottjenn" />
		<tag k="name" v="Gjottjenn" />
		<tag k="natural" v="water" />
		<tag k="ssr:stedsnr" v="244647" />
	</node>
	<node id="-284436" lat="58.7283833322" lon="8.85836389496">
		<tag k="name" v="Vegervann" />
		<tag k="natural" v="water" />
		<tag k="ssr:stedsnr" v="244602" />
	</node>
	<node id="-284291" lat="58.8108999977" lon="8.86805000032">
		<tag k="name" v="Skredderøya" />
		<tag k="place" v="island" />
		<tag k="ssr:stedsnr" v="214361" />
	</node>
	<node id="-286477" lat="58.7262222263" lon="8.70816388571">
		<tag k="name" v="Lindtjenn" />
		<tag k="natural" v="water" />
		<tag k="ssr:stedsnr" v="968698" />
	</node>
	<node id="-283239" lat="58.7963611103" lon="8.90365277307">
		<tag k="name" v="Glomstjenn" />
		<tag k="natural" v="water" />
		<tag k="ssr:stedsnr" v="395056" />
	</node>
	<node id="-284427" lat="58.7840611121" lon="8.99095833966">
		<tag k="name" v="Slettåslona" />
		<tag k="place" v="locality" />
		<tag k="ssr:stedsnr" v="244470" />
	</node>
	<node id="-284426" lat="58.7753916653" lon="8.96113056197">
		<tag k="name" v="Østre Gruvetjenn" />
		<tag k="natural" v="water" />
		<tag k="ssr:stedsnr" v="244422" />
	</node>
	<node id="-286473" lat="58.7542194447" lon="8.69884443637">
		<tag k="name" v="Evja" />
		<tag k="natural" v="bay" />
		<tag k="ssr:stedsnr" v="942997" />
	</node>
	<node id="-286472" lat="58.7474583338" lon="8.67692500774">
		<tag k="name" v="Ormtjenn" />
		<tag k="natural" v="water" />
		<tag k="ssr:stedsnr" v="942996" />
	</node>
	<node id="-286471" lat="58.7375055518" lon="8.64724999571">
		<tag k="name" v="Igletjenn" />
		<tag k="natural" v="water" />
		<tag k="ssr:stedsnr" v="942994" />
	</node>
	<node id="-286468" lat="58.7517611145" lon="8.64245277427">
		<tag k="name" v="Smalsund" />
		<tag k="natural" v="strait" />
		<tag k="ssr:stedsnr" v="942978" />
	</node>
	<node id="-286467" lat="58.7571277746" lon="8.71235834106">
		<tag k="name" v="Råbbuodden" />
		<tag k="natural" v="cape" />
		<tag k="ssr:stedsnr" v="942971" />
	</node>
	<node id="-286466" lat="58.76778056" lon="8.70501666036">
		<tag k="name" v="Bikkjeskjær" />
		<tag k="place" v="islet" />
		<tag k="ssr:stedsnr" v="942960" />
	</node>
	<node id="-284417" lat="58.8296472208" lon="8.82929166944">
		<tag k="alt_name" v="Takstjenn, austre" />
		<tag k="name" v="Østre Tokstjenn" />
		<tag k="natural" v="water" />
		<tag k="ssr:stedsnr" v="243637" />
	</node>
	<node id="-284416" lat="58.7006583293" lon="8.93911944917">
		<tag k="name" v="Østebøvann" />
		<tag k="natural" v="water" />
		<tag k="ssr:stedsnr" v="243614" />
	</node>
	<node id="-284409" lat="58.7707027741" lon="8.67522777245">
		<tag k="name" v="Fiskeløys" />
		<tag k="natural" v="water" />
		<tag k="ssr:stedsnr" v="243508" />
	</node>
	<node id="-286456" lat="58.7844722228" lon="8.72196388732">
		<tag k="name" v="Nordstøøysundet" />
		<tag k="natural" v="strait" />
		<tag k="ssr:stedsnr" v="942862" />
	</node>
	<node id="-286452" lat="58.7972999964" lon="8.75880556044">
		<tag k="name" v="Vestre Fiskarodden" />
		<tag k="natural" v="cape" />
		<tag k="ssr:stedsnr" v="942836" />
	</node>
	<node id="-286451" lat="58.7863166681" lon="8.74915277144">
		<tag k="name" v="Halvfarnes" />
		<tag k="natural" v="cape" />
		<tag k="ssr:stedsnr" v="942832" />
	</node>
	<node id="-286448" lat="58.7942916678" lon="8.74790278626">
		<tag k="name" v="Alfs holme" />
		<tag k="place" v="islet" />
		<tag k="ssr:stedsnr" v="942823" />
	</node>
	<node id="-286446" lat="58.81550556" lon="8.79161945291">
		<tag k="alt_name" v="Blekkfjelltjenn" />
		<tag k="name" v="Blekfjelltjenn" />
		<tag k="natural" v="water" />
		<tag k="ssr:stedsnr" v="942817" />
	</node>
	<node id="-284394" lat="58.7573916682" lon="8.68893888272">
		<tag k="name" v="Båtvika" />
		<tag k="natural" v="bay" />
		<tag k="ssr:stedsnr" v="214975" />
	</node>
	<node id="-284393" lat="58.761675" lon="8.71526944083">
		<tag k="name" v="Tønsberg" />
		<tag k="place" v="islet" />
		<tag k="ssr:stedsnr" v="214966" />
	</node>
	<node id="-284392" lat="58.7733138928" lon="8.70540555764">
		<tag k="name" v="Geitesund" />
		<tag k="natural" v="strait" />
		<tag k="ssr:stedsnr" v="214961" />
	</node>
	<node id="-284390" lat="58.770341669" lon="8.6768638845">
		<tag k="name" v="Staggtangen" />
		<tag k="natural" v="cape" />
		<tag k="ssr:stedsnr" v="214956" />
	</node>
	<node id="-284387" lat="58.7823527738" lon="8.69495277149">
		<tag k="name" v="Orrenessanden" />
		<tag k="natural" v="beach" />
		<tag k="ssr:stedsnr" v="214947" />
	</node>
	<node id="-286434" lat="58.7266638931" lon="8.70008610391">
		<tag k="name" v="Skogreistjenn" />
		<tag k="natural" v="water" />
		<tag k="ssr:stedsnr" v="942701" />
	</node>
	<node id="-284385" lat="58.8021666688" lon="8.69590278075">
		<tag k="name" v="Taklitjenn" />
		<tag k="natural" v="water" />
		<tag k="ssr:stedsnr" v="214926" />
	</node>
	<node id="-284379" lat="58.7467999972" lon="8.68676111728">
		<tag k="name" v="Stemtjenn" />
		<tag k="natural" v="water" />
		<tag k="ssr:stedsnr" v="214897" />
	</node>
	<node id="-284374" lat="58.7775472198" lon="8.72378889679">
		<tag k="name" v="Korvenes" />
		<tag k="natural" v="cape" />
		<tag k="ssr:stedsnr" v="214875" />
	</node>
	<node id="-284373" lat="58.7897833328" lon="8.75602776942">
		<tag k="name" v="Steiningsnes" />
		<tag k="natural" v="cape" />
		<tag k="ssr:stedsnr" v="214871" />
	</node>
	<node id="-284369" lat="58.8235777807" lon="8.80401666254">
		<tag k="name" v="Tjærehjellbukta" />
		<tag k="natural" v="bay" />
		<tag k="ssr:stedsnr" v="214826" />
	</node>
	<node id="-284366" lat="58.8249805586" lon="8.7513805586">
		<tag k="name" v="Tjennslåttjenn" />
		<tag k="natural" v="water" />
		<tag k="ssr:stedsnr" v="214816" />
	</node>
	<node id="-284365" lat="58.7831916675" lon="8.79492223077">
		<tag k="name" v="Færsnestangen" />
		<tag k="natural" v="cape" />
		<tag k="ssr:stedsnr" v="214798" />
	</node>
	<node id="-284363" lat="58.7973249979" lon="8.79067222016">
		<tag k="name" v="Spåråodden" />
		<tag k="natural" v="cape" />
		<tag k="ssr:stedsnr" v="214780" />
	</node>
	<node id="-284352" lat="58.7264472255" lon="8.6382777819">
		<tag k="name" v="Lille Holmetjenn" />
		<tag k="natural" v="water" />
		<tag k="ssr:stedsnr" v="214736" />
	</node>
	<node id="-286399" lat="58.7494027802" lon="8.90696388889">
		<tag k="name" v="Bulitjenn" />
		<tag k="natural" v="water" />
		<tag k="ssr:stedsnr" v="942458" />
	</node>
	<node id="-286398" lat="58.6984916631" lon="8.89267223077">
		<tag k="name" v="Tverrfossen" />
		<tag k="natural" v="waterfall" />
		<tag k="ssr:stedsnr" v="942456" />
	</node>
	<node id="-286396" lat="58.7000638929" lon="8.92381110615">
		<tag k="name" v="Hyttabukta" />
		<tag k="natural" v="bay" />
		<tag k="ssr:stedsnr" v="942450" />
	</node>
	<node id="-283594" lat="58.7528777781" lon="8.99391944151">
		<tag k="name" v="Sagodden" />
		<tag k="natural" v="cape" />
		<tag k="ssr:stedsnr" v="31508" />
	</node>
	<node id="-286070" lat="58.7865944403" lon="8.75203333522">
		<tag k="name" v="Bjørvann" />
		<tag k="natural" v="water" />
		<tag k="ssr:stedsnr" v="851598" />
		<tag k="water" v="lake" />
	</node>
	<node id="-284331" lat="58.7796000038" lon="8.70363055066">
		<tag k="name" v="Kolløyholmene" />
		<tag k="place" v="islet" />
		<tag k="ssr:stedsnr" v="214596" />
	</node>
	<node id="-283593" lat="58.8435416689" lon="8.83982499304">
		<tag k="name" v="Torgrimsmyrtjenn" />
		<tag k="natural" v="water" />
		<tag k="ssr:stedsnr" v="31501" />
	</node>
	<node id="-286387" lat="58.692861107" lon="8.85419445051">
		<tag k="name" v="Grauttjenn" />
		<tag k="natural" v="water" />
		<tag k="ssr:stedsnr" v="942421" />
	</node>
	<node id="-286385" lat="58.8148944452" lon="8.86609166078">
		<tag k="name" v="Galten" />
		<tag k="place" v="islet" />
		<tag k="ssr:stedsnr" v="942413" />
	</node>
	<node id="-286382" lat="58.6933277785" lon="8.83890832853">
		<tag k="name" v="Dyråstjenn" />
		<tag k="natural" v="water" />
		<tag k="ssr:stedsnr" v="942408" />
	</node>
	<node id="-284333" lat="58.7986472191" lon="8.95410000457">
		<tag k="name" v="Bjønnåstjennene" />
		<tag k="natural" v="water" />
		<tag k="ssr:stedsnr" v="214634" />
	</node>
	<node id="-286379" lat="58.8170583303" lon="8.82897499958">
		<tag k="name" v="Kvernnes" />
		<tag k="natural" v="cape" />
		<tag k="ssr:stedsnr" v="942403" />
	</node>
	<node id="-286377" lat="58.826341671" lon="8.88439445197">
		<tag k="name" v="Bikkjehølen" />
		<tag k="natural" v="water" />
		<tag k="ssr:stedsnr" v="942395" />
		<tag k="water" v="pond" />
	</node>
	<node id="-286376" lat="58.8222888933" lon="8.90526389398">
		<tag k="name" v="Rundtjenn" />
		<tag k="natural" v="water" />
		<tag k="ssr:stedsnr" v="942390" />
	</node>
	<node id="-286375" lat="58.7027916666" lon="8.86949444245">
		<tag k="name" v="Øksvassdammen" />
		<tag k="ssr:stedsnr" v="942386" />
		<tag k="waterway" v="dam" />
	</node>
	<node id="-286373" lat="58.7104027812" lon="8.87986666411">
		<tag k="name" v="Lilleholm" />
		<tag k="place" v="islet" />
		<tag k="ssr:stedsnr" v="942377" />
	</node>
	<node id="-286370" lat="58.803430556" lon="8.85575556274">
		<tag k="name" v="Lovisesholme" />
		<tag k="place" v="islet" />
		<tag k="ssr:stedsnr" v="942372" />
	</node>
	<node id="-286368" lat="58.8045222223" lon="8.85432222385">
		<tag k="name" v="Leirholmen" />
		<tag k="place" v="islet" />
		<tag k="ssr:stedsnr" v="942368" />
	</node>
	<node id="-284318" lat="58.6929805592" lon="8.933325004">
		<tag k="name" v="Lyngrottjenn" />
		<tag k="natural" v="water" />
		<tag k="ssr:stedsnr" v="214479" />
	</node>
	<node id="-284317" lat="58.7514861082" lon="8.91727778498">
		<tag k="name" v="Rånetjenn" />
		<tag k="natural" v="water" />
		<tag k="ssr:stedsnr" v="214474" />
	</node>
	<node id="-284315" lat="58.7350833344" lon="8.90661110292">
		<tag k="name" v="Kjørkveitjennene" />
		<tag k="natural" v="water" />
		<tag k="ssr:stedsnr" v="214469" />
	</node>
	<node id="-284313" lat="58.839505554" lon="8.92142500595">
		<tag k="name" v="Skipreitjenn" />
		<tag k="natural" v="water" />
		<tag k="ssr:stedsnr" v="214465" />
	</node>
	<node id="-286360" lat="58.8067722184" lon="8.87332778165">
		<tag k="name" v="Sundfjellholmane" />
		<tag k="place" v="islet" />
		<tag k="ssr:stedsnr" v="942349" />
	</node>
	<node id="-283588" lat="58.8121833323" lon="8.8741638874">
		<tag k="name" v="Brattøysund" />
		<tag k="natural" v="strait" />
		<tag k="ssr:stedsnr" v="31418" />
	</node>
	<node id="-286358" lat="58.7516944472" lon="8.83747500795">
		<tag k="name" v="Eskjedalsbekken" />
		<tag k="ssr:stedsnr" v="942305" />
		<tag k="waterway" v="stream" />
	</node>
	<node id="-284305" lat="58.8282972265" lon="8.93098333785">
		<tag k="name" v="Teinlaget" />
		<tag k="place" v="locality" />
		<tag k="ssr:stedsnr" v="214395" />
	</node>
	<node id="-286351" lat="58.7682416671" lon="8.86626389634">
		<tag k="name" v="Vrengen" />
		<tag k="ssr:stedsnr" v="942281" />
		<tag k="waterway" v="rapids" />
	</node>
	<node id="-286348" lat="58.7613888858" lon="8.8931805509">
		<tag k="name" v="Halvfarøya" />
		<tag k="natural" v="cape" />
		<tag k="ssr:stedsnr" v="942276" />
	</node>
	<node id="-286347" lat="58.7475750001" lon="8.99070277986">
		<tag k="name" v="Jerpedalstjenn (nedre)" />
		<tag k="natural" v="water" />
		<tag k="ssr:stedsnr" v="942271" />
	</node>
	<node id="-284298" lat="58.7125500021" lon="8.93211944222">
		<tag k="name" v="Arntstjenn" />
		<tag k="natural" v="water" />
		<tag k="ssr:stedsnr" v="214383" />
	</node>
	<node id="-286345" lat="58.7031000016" lon="8.94461110688">
		<tag k="name" v="Tangen" />
		<tag k="natural" v="cape" />
		<tag k="ssr:stedsnr" v="942249" />
	</node>
	<node id="-286344" lat="58.6968444419" lon="8.94053332969">
		<tag k="name" v="Diket" />
		<tag k="natural" v="strait" />
		<tag k="ssr:stedsnr" v="942244" />
	</node>
	<node id="-286343" lat="58.7539972226" lon="8.87546666979">
		<tag k="name" v="Klatremyrtjenn" />
		<tag k="natural" v="water" />
		<tag k="ssr:stedsnr" v="942242" />
	</node>
	<node id="-284294" lat="58.8106472253" lon="8.8579333414">
		<tag k="name" v="Gråsteinsøya" />
		<tag k="place" v="island" />
		<tag k="ssr:stedsnr" v="214372" />
	</node>
	<node id="-284293" lat="58.8103194462" lon="8.88187777114">
		<tag k="name" v="Bjørnåstangen" />
		<tag k="natural" v="cape" />
		<tag k="ssr:stedsnr" v="214369" />
	</node>
	<node id="-286340" lat="58.7310722236" lon="8.995141664">
		<tag k="name" v="Langhøl" />
		<tag k="natural" v="water" />
		<tag k="ssr:stedsnr" v="942222" />
		<tag k="water" v="lake" />
	</node>
	<node id="-286339" lat="58.7576777779" lon="8.72698333615">
		<tag k="name" v="Biskusholmen" />
		<tag k="place" v="islet" />
		<tag k="ssr:stedsnr" v="942218" />
	</node>
	<node id="-284288" lat="58.7500416645" lon="8.89959166331">
		<tag k="name" v="Storøy" />
		<tag k="place" v="island" />
		<tag k="ssr:stedsnr" v="214318" />
	</node>
	<node id="-286335" lat="58.7722166637" lon="8.80060556178">
		<tag k="name" v="Diplemyrbekken" />
		<tag k="ssr:stedsnr" v="942200" />
		<tag k="waterway" v="stream" />
	</node>
	<node id="-284285" lat="58.7571277776" lon="8.88711110716">
		<tag k="name" v="Sandstø" />
		<tag k="natural" v="beach" />
		<tag k="ssr:stedsnr" v="214283" />
	</node>
	<node id="-285972" lat="58.7738388883" lon="8.70647778405">
		<tag k="name" v="Geitesundøya" />
		<tag k="place" v="islet" />
		<tag k="ssr:stedsnr" v="820961" />
	</node>
	<node id="-284265" lat="58.71273889" lon="8.77504167403">
		<tag k="name" v="Langmyrtjenn" />
		<tag k="natural" v="water" />
		<tag k="ssr:stedsnr" v="214206" />
	</node>
	<node id="-286323" lat="58.7424527791" lon="8.8124388835">
		<tag k="name" v="Bærslåttjennene" />
		<tag k="natural" v="water" />
		<tag k="ssr:stedsnr" v="942156" />
	</node>
	<node id="-283067" lat="58.6971916708" lon="8.93970833559">
		<tag k="name" v="Kilen" />
		<tag k="natural" v="bay" />
		<tag k="ssr:stedsnr" v="335265" />
	</node>
	<node id="-285522" lat="58.804816671" lon="8.8034194515">
		<tag k="name" v="Byttesteinsbuktene" />
		<tag k="natural" v="bay" />
		<tag k="ssr:stedsnr" v="699803" />
	</node>
	<node id="-286313" lat="58.6664750011" lon="8.80986666984">
		<tag k="name" v="Lauvåsodden" />
		<tag k="natural" v="cape" />
		<tag k="ssr:stedsnr" v="942129" />
	</node>
	<node id="-284264" lat="58.7632138859" lon="8.71816667">
		<tag k="name" v="Skvaklarnes" />
		<tag k="natural" v="cape" />
		<tag k="ssr:stedsnr" v="214203" />
	</node>
	<node id="-286309" lat="58.666747221" lon="8.82397221701">
		<tag k="name" v="Oddane" />
		<tag k="natural" v="cape" />
		<tag k="ssr:stedsnr" v="942114" />
	</node>
	<node id="-284260" lat="58.6917111091" lon="8.74286388207">
		<tag k="name" v="Tryteryggen" />
		<tag k="natural" v="cape" />
		<tag k="ssr:stedsnr" v="214193" />
	</node>
	<node id="-286306" lat="58.8153499995" lon="8.91494445302">
		<tag k="name" v="Grasmyrtjenn" />
		<tag k="natural" v="water" />
		<tag k="ssr:stedsnr" v="942103" />
	</node>
	<node id="-286305" lat="58.7133083358" lon="8.82975276926">
		<tag k="name" v="Hulltjenn" />
		<tag k="natural" v="water" />
		<tag k="ssr:stedsnr" v="942101" />
	</node>
	<node id="-286304" lat="58.7274944478" lon="8.90013055521">
		<tag k="name" v="Lille Skravdalstjenn" />
		<tag k="natural" v="water" />
		<tag k="ssr:stedsnr" v="942094" />
	</node>
	<node id="-284255" lat="58.7502388866" lon="8.72757500414">
		<tag k="name" v="Sandusbekken" />
		<tag k="ssr:stedsnr" v="214176" />
		<tag k="waterway" v="stream" />
	</node>
	<node id="-286302" lat="58.7228166668" lon="8.91193332798">
		<tag k="name" v="Tøkslihølen" />
		<tag k="place" v="locality" />
		<tag k="ssr:stedsnr" v="942092" />
	</node>
	<node id="-286297" lat="58.6565944486" lon="8.83690834106">
		<tag k="name" v="Breivik" />
		<tag k="natural" v="bay" />
		<tag k="ssr:stedsnr" v="942079" />
	</node>
	<node id="-283236" lat="58.6889388925" lon="8.89266388787">
		<tag k="name" v="Byttefoss" />
		<tag k="natural" v="waterfall" />
		<tag k="ssr:stedsnr" v="395041" />
	</node>
	<node id="-286294" lat="58.7875944473" lon="8.85623888816">
		<tag k="name" v="Kvifte Slåttøy" />
		<tag k="place" v="island" />
		<tag k="ssr:stedsnr" v="942068" />
	</node>
	<node id="-284244" lat="58.6504166675" lon="8.80599167261">
		<tag k="name" v="Lona" />
		<tag k="natural" v="bay" />
		<tag k="ssr:stedsnr" v="214142" />
	</node>
	<node id="-286291" lat="58.7838916676" lon="8.83916944546">
		<tag k="name" v="Kjørkesundet" />
		<tag k="natural" v="strait" />
		<tag k="ssr:stedsnr" v="942059" />
	</node>
	<node id="-284241" lat="58.6654333327" lon="8.80793610379">
		<tag k="name" v="Orodden" />
		<tag k="natural" v="cape" />
		<tag k="ssr:stedsnr" v="214122" />
	</node>
	<node id="-282830" lat="58.736605557" lon="8.79790555188">
		<tag k="name" v="Sortmyrtjenn" />
		<tag k="natural" v="water" />
		<tag k="ssr:stedsnr" v="274151" />
	</node>
	<node id="-284258" lat="58.7643777775" lon="8.81060833821">
		<tag k="name" v="Skåtrennfossen" />
		<tag k="natural" v="waterfall" />
		<tag k="ssr:stedsnr" v="214190" />
	</node>
	<node id="-286275" lat="58.7866555595" lon="8.92298889117">
		<tag k="alt_name" v="Kallbergsvann" />
		<tag k="name" v="Kallbergsvannet" />
		<tag k="natural" v="water" />
		<tag k="ssr:stedsnr" v="912469" />
		<tag k="water" v="lake" />
	</node>
	<node id="-286066" lat="58.7814749961" lon="8.81167500114">
		<tag k="name" v="Lille Færsvann" />
		<tag k="natural" v="water" />
		<tag k="old_name" v="Fersvatn, l" />
		<tag k="ssr:stedsnr" v="851495" />
	</node>
	<node id="-284223" lat="58.7774888892" lon="8.83985278599">
		<tag k="name" v="Sautangen" />
		<tag k="natural" v="cape" />
		<tag k="ssr:stedsnr" v="214060" />
	</node>
	<node id="-286270" lat="58.7516527758" lon="8.6632749945">
		<tag k="alt_name" v="Stemtjenn" />
		<tag k="name" v="Stemtjørn" />
		<tag k="natural" v="water" />
		<tag k="ssr:stedsnr" v="911928" />
	</node>
	<node id="-286269" lat="58.6867388891" lon="8.7409583364">
		<tag k="name" v="Midtvann" />
		<tag k="natural" v="water" />
		<tag k="ssr:stedsnr" v="911915" />
	</node>
	<node id="-284220" lat="58.7306194435" lon="8.8485472302">
		<tag k="name" v="Myrekilen" />
		<tag k="natural" v="bay" />
		<tag k="ssr:stedsnr" v="214057" />
	</node>
	<node id="-286267" lat="58.6988916706" lon="8.76571666695">
		<tag k="name" v="Nordtjenn" />
		<tag k="natural" v="water" />
		<tag k="ssr:stedsnr" v="911887" />
	</node>
	<node id="-286265" lat="58.8532944418" lon="8.83896667089">
		<tag k="alt_name" v="Fisktjenn, l" />
		<tag k="name" v="Lille Fisketjenn" />
		<tag k="natural" v="water" />
		<tag k="ssr:stedsnr" v="911752" />
	</node>
	<node id="-286264" lat="58.8496277822" lon="8.84226110428">
		<tag k="alt_name" v="Fisketjenn" />
		<tag k="name" v="Store Fisktjenn" />
		<tag k="natural" v="water" />
		<tag k="ssr:stedsnr" v="911661" />
	</node>
	<node id="-286263" lat="58.7863444428" lon="8.79457499984">
		<tag k="alt_name" v="Forbuvann" />
		<tag k="name" v="Forbuvannet" />
		<tag k="natural" v="water" />
		<tag k="ssr:stedsnr" v="911606" />
		<tag k="water" v="lake" />
	</node>
	<node id="-286262" lat="58.812397222" lon="8.76209999527">
		<tag k="name" v="Skjolmyrtjennane" />
		<tag k="natural" v="water" />
		<tag k="ssr:stedsnr" v="911597" />
	</node>
	<node id="-286261" lat="58.7123888897" lon="8.84437777251">
		<tag k="name" v="Hauglandsvann" />
		<tag k="natural" v="water" />
		<tag k="ssr:stedsnr" v="911589" />
	</node>
	<node id="-286260" lat="58.7101750015" lon="8.88895555145">
		<tag k="alt_name" v="Kvennvann" />
		<tag k="name" v="Kvernvann" />
		<tag k="natural" v="water" />
		<tag k="ssr:stedsnr" v="911587" />
	</node>
	<node id="-286257" lat="58.7347500041" lon="8.95996111702">
		<tag k="name" v="Savann" />
		<tag k="natural" v="water" />
		<tag k="ssr:stedsnr" v="911565" />
	</node>
	<node id="-286256" lat="58.7588388922" lon="8.80373888743">
		<tag k="name" v="Skeimobekken" />
		<tag k="ssr:stedsnr" v="911550" />
		<tag k="waterway" v="stream" />
	</node>
	<node id="-286252" lat="58.7722583377" lon="8.72212777342">
		<tag k="alt_name" v="Skåtholmen" />
		<tag k="name" v="Skotholmen" />
		<tag k="place" v="islet" />
		<tag k="ssr:stedsnr" v="911501" />
	</node>
	<node id="-283570" lat="58.7450444414" lon="8.89671110451">
		<tag k="name" v="Pippitangen" />
		<tag k="natural" v="cape" />
		<tag k="ssr:stedsnr" v="31476" />
	</node>
	<node id="-285997" lat="58.7073388874" lon="8.94858889132">
		<tag k="name" v="Tangennebba" />
		<tag k="place" v="islet" />
		<tag k="ssr:stedsnr" v="821255" />
	</node>
	<node id="-286249" lat="58.7580972256" lon="8.9008722178">
		<tag k="alt_name" v="Ljøsvann" />
		<tag k="name" v="Ljøsvannet" />
		<tag k="natural" v="water" />
		<tag k="ssr:stedsnr" v="911417" />
	</node>
	<node id="-286246" lat="58.7543750026" lon="8.92610000787">
		<tag k="name" v="Bakkelikilen" />
		<tag k="place" v="locality" />
		<tag k="ssr:stedsnr" v="911354" />
	</node>
	<node id="-284197" lat="58.7800777805" lon="8.94391111834">
		<tag k="name" v="Rossnes" />
		<tag k="natural" v="cape" />
		<tag k="ssr:stedsnr" v="184419" />
	</node>
	<node id="-284196" lat="58.6722888923" lon="8.77533333865">
		<tag k="name" v="Igletjenn" />
		<tag k="natural" v="water" />
		<tag k="ssr:stedsnr" v="183956" />
	</node>
	<node id="-286243" lat="58.7144388866" lon="8.83594722573">
		<tag k="alt_name" v="Langtjenn" />
		<tag k="name" v="Langtjørn" />
		<tag k="natural" v="water" />
		<tag k="ssr:stedsnr" v="911099" />
	</node>
	<node id="-284194" lat="58.6924638854" lon="8.83063055795">
		<tag k="name" v="Hauglandselva" />
		<tag k="ssr:stedsnr" v="183881" />
		<tag k="waterway" v="stream" />
	</node>
	<node id="-284191" lat="58.8316305522" lon="8.76054166824">
		<tag k="name" v="Øvre Urdvann" />
		<tag k="natural" v="water" />
		<tag k="ssr:stedsnr" v="183636" />
		<tag k="water" v="lake" />
	</node>
	<node id="-284189" lat="58.8335416647" lon="8.80231667279">
		<tag k="name" v="Tobakkstjenn" />
		<tag k="natural" v="water" />
		<tag k="ssr:stedsnr" v="183632" />
	</node>
	<node id="-286236" lat="58.788302777" lon="8.75393888367">
		<tag k="name" v="Bjørnholmen" />
		<tag k="place" v="islet" />
		<tag k="ssr:stedsnr" v="881838" />
	</node>
	<node id="-286235" lat="58.7929694428" lon="8.75596665818">
		<tag k="name" v="Eidbekken" />
		<tag k="ssr:stedsnr" v="881836" />
		<tag k="waterway" v="stream" />
	</node>
	<node id="-284186" lat="58.7942666654" lon="8.76460833694">
		<tag k="name" v="Eidbukta" />
		<tag k="natural" v="bay" />
		<tag k="ssr:stedsnr" v="183614" />
	</node>
	<node id="-286233" lat="58.7903305528" lon="8.73682221652">
		<tag k="name" v="Bytteodden" />
		<tag k="natural" v="cape" />
		<tag k="ssr:stedsnr" v="881819" />
	</node>
	<node id="-286231" lat="58.8081722199" lon="8.7810222199">
		<tag k="name" v="Storrkjerrøyene" />
		<tag k="place" v="island" />
		<tag k="ssr:stedsnr" v="881806" />
	</node>
	<node id="-286230" lat="58.8274055584" lon="8.79303055233">
		<tag k="name" v="Øvre Lyngvasselva" />
		<tag k="ssr:stedsnr" v="881796" />
		<tag k="waterway" v="stream" />
	</node>
	<node id="-286229" lat="58.8307888877" lon="8.78191110543">
		<tag k="name" v="Lyngvassfossen" />
		<tag k="natural" v="waterfall" />
		<tag k="ssr:stedsnr" v="881795" />
	</node>
	<node id="-286228" lat="58.8332083373" lon="8.76724722616">
		<tag k="name" v="Tvibumyrtjenn" />
		<tag k="natural" v="water" />
		<tag k="ssr:stedsnr" v="881781" />
	</node>
	<node id="-284179" lat="58.8100027819" lon="8.79772500255">
		<tag k="alt_name" v="Blekkholmene" />
		<tag k="name" v="Blekholmane" />
		<tag k="place" v="islet" />
		<tag k="ssr:stedsnr" v="183566" />
	</node>
	<node id="-284177" lat="58.8054750035" lon="8.75812777291">
		<tag k="name" v="Urdhomkreken" />
		<tag k="place" v="locality" />
		<tag k="ssr:stedsnr" v="183539" />
	</node>
	<node id="-286224" lat="58.7828666665" lon="8.79879722587">
		<tag k="name" v="Kvernbekken" />
		<tag k="ssr:stedsnr" v="881773" />
		<tag k="waterway" v="stream" />
	</node>
	<node id="-286223" lat="58.7955861077" lon="8.79661111037">
		<tag k="name" v="Bjørnholmen" />
		<tag k="place" v="islet" />
		<tag k="ssr:stedsnr" v="881755" />
	</node>
	<node id="-284172" lat="58.737463893" lon="8.88342221782">
		<tag k="alt_name" v="Grindtjenn" />
		<tag k="name" v="Grindetjenn" />
		<tag k="natural" v="water" />
		<tag k="ssr:stedsnr" v="183506" />
	</node>
	<node id="-284169" lat="58.7930722243" lon="8.90245278398">
		<tag k="name" v="Trytetjenn" />
		<tag k="natural" v="water" />
		<tag k="ssr:stedsnr" v="183446" />
	</node>
	<node id="-284168" lat="58.795050001" lon="8.91886944479">
		<tag k="name" v="Svarttjenn" />
		<tag k="natural" v="water" />
		<tag k="ssr:stedsnr" v="183439" />
	</node>
	<node id="-284165" lat="58.8432916684" lon="8.91581389429">
		<tag k="name" v="Mostjenn" />
		<tag k="natural" v="water" />
		<tag k="ssr:stedsnr" v="183097" />
	</node>
	<node id="-284163" lat="58.8336694435" lon="8.9396916707">
		<tag k="alt_name" v="Holmvannet" />
		<tag k="name" v="Holmvann" />
		<tag k="natural" v="water" />
		<tag k="ssr:stedsnr" v="183079" />
		<tag k="water" v="lake" />
	</node>
	<node id="-286208" lat="58.6730722235" lon="8.82429999616">
		<tag k="name" v="Svinvika" />
		<tag k="natural" v="bay" />
		<tag k="ssr:stedsnr" v="881649" />
	</node>
	<node id="-286206" lat="58.6847027811" lon="8.73687499601">
		<tag k="name" v="Storøya" />
		<tag k="place" v="islet" />
		<tag k="ssr:stedsnr" v="881633" />
	</node>
	<node id="-284155" lat="58.7707833292" lon="8.79338332978">
		<tag k="alt_name" v="Grunntjenn" />
		<tag k="name" v="Grunntjørn" />
		<tag k="natural" v="water" />
		<tag k="ssr:stedsnr" v="182554" />
	</node>
	<node id="-283063" lat="58.7226944451" lon="8.94760278221">
		<tag k="name" v="Ommundsbekktjenn" />
		<tag k="natural" v="water" />
		<tag k="ssr:stedsnr" v="335251" />
	</node>
	<node id="-284153" lat="58.7557500032" lon="8.66667499221">
		<tag k="alt_name" v="Jordstjenn" />
		<tag k="name" v="Jordstjørn" />
		<tag k="natural" v="water" />
		<tag k="ssr:stedsnr" v="182536" />
	</node>
	<node id="-284152" lat="58.767808331" lon="8.6634111164">
		<tag k="alt_name" v="Bråkolltjenn" />
		<tag k="name" v="Bråkolltjørna" />
		<tag k="natural" v="water" />
		<tag k="ssr:stedsnr" v="182494" />
	</node>
	<node id="-284150" lat="58.7684166625" lon="8.99321111363">
		<tag k="alt_name" v="Kallsvann" />
		<tag k="name" v="Kallsvannet" />
		<tag k="natural" v="water" />
		<tag k="ssr:stedsnr" v="182370" />
	</node>
	<node id="-286197" lat="58.7354277734" lon="8.95559722809">
		<tag k="name" v="Vikingshøl" />
		<tag k="place" v="locality" />
		<tag k="ssr:stedsnr" v="881535" />
	</node>
	<node id="-286196" lat="58.7560888924" lon="8.95926666956">
		<tag k="name" v="Jomfruland" />
		<tag k="natural" v="cape" />
		<tag k="ssr:stedsnr" v="881515" />
	</node>
	<node id="-286191" lat="58.7504055594" lon="8.99589999867">
		<tag k="name" v="Likholmen" />
		<tag k="place" v="islet" />
		<tag k="ssr:stedsnr" v="881491" />
	</node>
	<node id="-286190" lat="58.7428805569" lon="8.98497499403">
		<tag k="name" v="Svarthøl" />
		<tag k="natural" v="water" />
		<tag k="ssr:stedsnr" v="881485" />
	</node>
	<node id="-284141" lat="58.7428805548" lon="8.65510833699">
		<tag k="name" v="Hustjenn" />
		<tag k="natural" v="water" />
		<tag k="ssr:stedsnr" v="153986" />
	</node>
	<node id="-284139" lat="58.7577194421" lon="8.67058334046">
		<tag k="name" v="Hustjenn" />
		<tag k="natural" v="water" />
		<tag k="ssr:stedsnr" v="153972" />
	</node>
	<node id="-283900" lat="58.7539555529" lon="8.65419166121">
		<tag k="name" v="Persmyrtjenn" />
		<tag k="natural" v="water" />
		<tag k="ssr:stedsnr" v="92975" />
	</node>
	<node id="-286181" lat="58.7415416702" lon="8.89336111306">
		<tag k="name" v="Værlandsvaet" />
		<tag k="place" v="locality" />
		<tag k="ssr:stedsnr" v="881463" />
	</node>
	<node id="-284130" lat="58.7350555558" lon="8.665502783">
		<tag k="name" v="Røyråstjenn" />
		<tag k="natural" v="water" />
		<tag k="ssr:stedsnr" v="153904" />
	</node>
	<node id="-286176" lat="58.8269944461" lon="8.92874443951">
		<tag k="name" v="Moltemyrneset" />
		<tag k="natural" v="cape" />
		<tag k="ssr:stedsnr" v="881446" />
	</node>
	<node id="-286175" lat="58.8256722189" lon="8.92466666902">
		<tag k="name" v="Småtjennene" />
		<tag k="natural" v="water" />
		<tag k="ssr:stedsnr" v="881444" />
	</node>
	<node id="-284126" lat="58.7851194476" lon="8.74771944796">
		<tag k="name" v="Eintollodden" />
		<tag k="natural" v="cape" />
		<tag k="ssr:stedsnr" v="153873" />
	</node>
	<node id="-286173" lat="58.8282499967" lon="8.86384166286">
		<tag k="name" v="Kilingskjæret" />
		<tag k="place" v="islet" />
		<tag k="ssr:stedsnr" v="881436" />
	</node>
	<node id="-286171" lat="58.8201499967" lon="8.86465555946">
		<tag k="name" v="Rækvika" />
		<tag k="natural" v="bay" />
		<tag k="ssr:stedsnr" v="881433" />
	</node>
	<node id="-284122" lat="58.8277944461" lon="8.76587778641">
		<tag k="name" v="Øvre Urvasselva" />
		<tag k="ssr:stedsnr" v="153819" />
		<tag k="waterway" v="stream" />
	</node>
	<node id="-283215" lat="58.822933334" lon="8.84243055459">
		<tag k="alt_name" v="Krokslåttjenna" />
		<tag k="name" v="Krokslåttjørna" />
		<tag k="natural" v="water" />
		<tag k="ssr:stedsnr" v="365672" />
	</node>
	<node id="-286168" lat="58.8177666677" lon="8.88034166698">
		<tag k="name" v="Haganstjenn" />
		<tag k="natural" v="water" />
		<tag k="ssr:stedsnr" v="881415" />
	</node>
	<node id="-286167" lat="58.6944277738" lon="8.83499166836">
		<tag k="name" v="Dipilen" />
		<tag k="natural" v="water" />
		<tag k="ssr:stedsnr" v="881411" />
	</node>
	<node id="-286164" lat="58.7026388887" lon="8.83570555126">
		<tag k="name" v="Kjøpstadhølen" />
		<tag k="place" v="locality" />
		<tag k="ssr:stedsnr" v="881396" />
	</node>
	<node id="-284115" lat="58.7048055514" lon="8.67398334006">
		<tag k="name" v="Djupskartjenn" />
		<tag k="natural" v="water" />
		<tag k="ssr:stedsnr" v="153770" />
	</node>
	<node id="-286161" lat="58.8294499965" lon="8.93028333795">
		<tag k="name" v="Diket" />
		<tag k="ssr:stedsnr" v="881385" />
		<tag k="waterway" v="drain" />
	</node>
	<node id="-286158" lat="58.8089333376" lon="8.87389999532">
		<tag k="name" v="Øyodden" />
		<tag k="natural" v="cape" />
		<tag k="ssr:stedsnr" v="881350" />
	</node>
	<node id="-284875" lat="58.777094444" lon="8.6791500042">
		<tag k="name" v="Fossane" />
		<tag k="natural" v="waterfall" />
		<tag k="ssr:stedsnr" v="517940" />
	</node>
	<node id="-286154" lat="58.7380916659" lon="8.88892499424">
		<tag k="name" v="Tranvassbekken" />
		<tag k="ssr:stedsnr" v="881307" />
		<tag k="waterway" v="stream" />
	</node>
	<node id="-284104" lat="58.7417388901" lon="8.99504166588">
		<tag k="name" v="Vrakbukta" />
		<tag k="natural" v="water" />
		<tag k="ssr:stedsnr" v="153523" />
		<tag k="water" v="pond" />
	</node>
	<node id="-284092" lat="58.8211527794" lon="8.83416945077">
		<tag k="name" v="Trulsskårtjenn" />
		<tag k="natural" v="water" />
		<tag k="ssr:stedsnr" v="153467" />
	</node>
	<node id="-284089" lat="58.7106277814" lon="8.88216944192">
		<tag k="name" v="Østre Åsvasstangen" />
		<tag k="natural" v="cape" />
		<tag k="ssr:stedsnr" v="153441" />
	</node>
	<node id="-284088" lat="58.8174999986" lon="8.87165555257">
		<tag k="name" v="Lauvvika" />
		<tag k="natural" v="bay" />
		<tag k="ssr:stedsnr" v="153439" />
	</node>
	<node id="-282868" lat="58.7087527773" lon="8.8349777724">
		<tag k="name" v="Nuen" />
		<tag k="natural" v="cape" />
		<tag k="ssr:stedsnr" v="274347" />
	</node>
	<node id="-284086" lat="58.8065611098" lon="8.85720832927">
		<tag k="name" v="Flaket" />
		<tag k="place" v="islet" />
		<tag k="ssr:stedsnr" v="153399" />
	</node>
	<node id="-286133" lat="58.7612583291" lon="8.72164445048">
		<tag k="name" v="Tjennøya" />
		<tag k="place" v="islet" />
		<tag k="ssr:stedsnr" v="881215" />
	</node>
	<node id="-286132" lat="58.7717999969" lon="8.82116388928">
		<tag k="name" v="Svartvadlonene" />
		<tag k="natural" v="water" />
		<tag k="ssr:stedsnr" v="881211" />
		<tag k="water" v="lake" />
	</node>
	<node id="-286131" lat="58.7046083361" lon="8.74528889372">
		<tag k="name" v="Lona" />
		<tag k="natural" v="water" />
		<tag k="ssr:stedsnr" v="881209" />
		<tag k="water" v="lake" />
	</node>
	<node id="-284080" lat="58.7350222201" lon="8.83524445291">
		<tag k="name" v="Ettevassbekken" />
		<tag k="ssr:stedsnr" v="153314" />
		<tag k="waterway" v="river" />
	</node>
	<node id="-284078" lat="58.762327777" lon="8.8651416594">
		<tag k="name" v="Molandslona" />
		<tag k="natural" v="water" />
		<tag k="ssr:stedsnr" v="153284" />
		<tag k="water" v="lake" />
	</node>
	<node id="-286124" lat="58.7468694475" lon="8.75087500135">
		<tag k="name" v="Kringlehøl" />
		<tag k="place" v="locality" />
		<tag k="ssr:stedsnr" v="881181" />
	</node>
	<node id="-284075" lat="58.6686638911" lon="8.77019443765">
		<tag k="name" v="Pøddetjenn" />
		<tag k="natural" v="water" />
		<tag k="ssr:stedsnr" v="153276" />
	</node>
	<node id="-286122" lat="58.7225527735" lon="8.78777500728">
		<tag k="name" v="Heibekk" />
		<tag k="ssr:stedsnr" v="881180" />
		<tag k="waterway" v="stream" />
	</node>
	<node id="-283207" lat="58.7770944435" lon="8.80606111553">
		<tag k="alt_name" v="Niptjenn, øvre" />
		<tag k="name" v="Øvre Niptjenn" />
		<tag k="natural" v="water" />
		<tag k="ssr:stedsnr" v="365522" />
	</node>
	<node id="-286118" lat="58.6478194441" lon="8.80056944532">
		<tag k="name" v="Kjeøya" />
		<tag k="place" v="islet" />
		<tag k="ssr:stedsnr" v="881162" />
	</node>
	<node id="-284069" lat="58.7078833334" lon="8.75261110631">
		<tag k="name" v="Vinterveghølen" />
		<tag k="place" v="locality" />
		<tag k="ssr:stedsnr" v="153237" />
	</node>
	<node id="-284068" lat="58.7670500037" lon="8.71879166585">
		<tag k="name" v="Hestlortane" />
		<tag k="natural" v="shoal" />
		<tag k="place" v="locality" />
		<tag k="ssr:stedsnr" v="153233" />
	</node>
	<node id="-286114" lat="58.8054694404" lon="8.75807777337">
		<tag k="name" v="Ryggtjenn" />
		<tag k="natural" v="water" />
		<tag k="ssr:stedsnr" v="881147" />
	</node>
	<node id="-284064" lat="58.7682000021" lon="8.81486666001">
		<tag k="name" v="Kvernhusvreane" />
		<tag k="ssr:stedsnr" v="153214" />
		<tag k="waterway" v="stream" />
	</node>
	<node id="-286110" lat="58.65530278" lon="8.81990833294">
		<tag k="name" v="Stemtjenn" />
		<tag k="natural" v="water" />
		<tag k="ssr:stedsnr" v="881133" />
	</node>
	<node id="-284060" lat="58.7744555543" lon="8.78992777288">
		<tag k="name" v="Vestre Røyrtjenn" />
		<tag k="natural" v="water" />
		<tag k="ssr:stedsnr" v="153206" />
	</node>
	<node id="-286107" lat="58.8127194489" lon="8.91763611419">
		<tag k="name" v="Sautunga" />
		<tag k="natural" v="cape" />
		<tag k="ssr:stedsnr" v="881118" />
	</node>
	<node id="-282863" lat="58.7628194414" lon="8.87169165914">
		<tag k="name" v="Busvennstjenn" />
		<tag k="natural" v="water" />
		<tag k="ssr:stedsnr" v="274279" />
	</node>
	<node id="-286102" lat="58.6582055517" lon="8.83617499541">
		<tag k="name" v="Gamle Breivik" />
		<tag k="natural" v="bay" />
		<tag k="ssr:stedsnr" v="881093" />
	</node>
	<node id="-284049" lat="58.7431999995" lon="8.74548055899">
		<tag k="name" v="Dalbekken" />
		<tag k="ssr:stedsnr" v="153172" />
		<tag k="waterway" v="stream" />
	</node>
	<node id="-282861" lat="58.7586166711" lon="8.89070555646">
		<tag k="name" v="Bukkholmen" />
		<tag k="place" v="islet" />
		<tag k="ssr:stedsnr" v="274274" />
	</node>
	<node id="-286089" lat="58.7892361104" lon="8.9138027864">
		<tag k="name" v="Gullveistjenn" />
		<tag k="natural" v="water" />
		<tag k="ssr:stedsnr" v="881042" />
	</node>
	<node id="-286087" lat="58.7868111136" lon="8.93636110811">
		<tag k="name" v="Sveighølen" />
		<tag k="place" v="locality" />
		<tag k="ssr:stedsnr" v="881034" />
	</node>
	<node id="-286085" lat="58.7707527786" lon="8.72659166634">
		<tag k="name" v="Sagtangen" />
		<tag k="natural" v="cape" />
		<tag k="ssr:stedsnr" v="881027" />
	</node>
	<node id="-286082" lat="58.7725055553" lon="8.75319166853">
		<tag k="name" v="Åslandsbekken" />
		<tag k="ssr:stedsnr" v="881016" />
		<tag k="waterway" v="stream" />
	</node>
	<node id="-284030" lat="58.717766669" lon="8.84151944783">
		<tag k="name" v="Bjønnetjenn" />
		<tag k="natural" v="water" />
		<tag k="ssr:stedsnr" v="153114" />
	</node>
	<node id="-284023" lat="58.7308944469" lon="8.90225833013">
		<tag k="name" v="Skarkkilane" />
		<tag k="natural" v="bay" />
		<tag k="ssr:stedsnr" v="153105" />
	</node>
	<node id="-284022" lat="58.7209194478" lon="8.91170834035">
		<tag k="name" v="Butangen" />
		<tag k="natural" v="cape" />
		<tag k="ssr:stedsnr" v="153103" />
	</node>
	<node id="-286068" lat="58.7761833364" lon="8.67519444842">
		<tag k="name" v="Hellersbekken" />
		<tag k="ssr:stedsnr" v="851505" />
		<tag k="waterway" v="stream" />
	</node>
	<node id="-284222" lat="58.7791444486" lon="8.83751666752">
		<tag k="name" v="Tungholmene" />
		<tag k="place" v="islet" />
		<tag k="ssr:stedsnr" v="214061" />
	</node>
	<node id="-284018" lat="58.6647194438" lon="8.83278611095">
		<tag k="name" v="Vedbukta" />
		<tag k="natural" v="bay" />
		<tag k="ssr:stedsnr" v="153089" />
	</node>
	<node id="-284221" lat="58.7318222258" lon="8.84520277058">
		<tag k="name" v="Øytjenn" />
		<tag k="natural" v="water" />
		<tag k="ssr:stedsnr" v="214059" />
	</node>
	<node id="-286060" lat="58.7059361134" lon="8.77723333376">
		<tag k="name" v="Songedalselva" />
		<tag k="ssr:stedsnr" v="851080" />
		<tag k="waterway" v="stream" />
	</node>
	<node id="-284011" lat="58.7761500016" lon="8.83435833636">
		<tag k="name" v="Lauvpollen" />
		<tag k="natural" v="bay" />
		<tag k="ssr:stedsnr" v="153069" />
	</node>
	<node id="-284010" lat="58.7773638865" lon="8.83434999787">
		<tag k="name" v="Lonkjeften" />
		<tag k="natural" v="bay" />
		<tag k="ssr:stedsnr" v="153067" />
	</node>
	<node id="-286057" lat="58.6745277814" lon="8.75422499745">
		<tag k="alt_name" v="Grindtjenn" />
		<tag k="name" v="Grindetjenn" />
		<tag k="natural" v="water" />
		<tag k="ssr:stedsnr" v="850953" />
	</node>
	<node id="-286056" lat="58.6573166631" lon="8.79131943887">
		<tag k="alt_name" v="Bjortjørnane" />
		<tag k="name" v="Bjortjennene" />
		<tag k="natural" v="water" />
		<tag k="ssr:stedsnr" v="850940" />
	</node>
	<node id="-286054" lat="58.8216777765" lon="8.81424722567">
		<tag k="name" v="Lomstjenn" />
		<tag k="natural" v="water" />
		<tag k="ssr:stedsnr" v="850646" />
	</node>
	<node id="-286053" lat="58.824580555" lon="8.76513333087">
		<tag k="alt_name" v="Nedre Urvann" />
		<tag k="name" v="Nedre Urdvann" />
		<tag k="natural" v="water" />
		<tag k="ssr:stedsnr" v="850625" />
		<tag k="water" v="lake" />
	</node>
	<node id="-284002" lat="58.7788694488" lon="8.86669167132">
		<tag k="name" v="Heitjenn" />
		<tag k="natural" v="water" />
		<tag k="ssr:stedsnr" v="153049" />
	</node>
	<node id="-286049" lat="58.7584249974" lon="8.69907499398">
		<tag k="name" v="Vestfjorden" />
		<tag k="natural" v="water" />
		<tag k="ssr:stedsnr" v="850546" />
	</node>
	<node id="-286048" lat="58.7606805587" lon="8.67902221509">
		<tag k="alt_name" v="Fågerlitjenn" />
		<tag k="name" v="Fagerlitjørna" />
		<tag k="natural" v="water" />
		<tag k="ssr:stedsnr" v="850543" />
	</node>
	<node id="-283997" lat="58.6762388883" lon="8.83843055163">
		<tag k="name" v="Fidalsbekken" />
		<tag k="ssr:stedsnr" v="153029" />
		<tag k="waterway" v="stream" />
	</node>
	<node id="-283994" lat="58.6908805572" lon="8.73689721847">
		<tag k="name" v="Gofarsøya" />
		<tag k="place" v="islet" />
		<tag k="ssr:stedsnr" v="153020" />
	</node>
	<node id="-284217" lat="58.787236108" lon="8.83407778">
		<tag k="name" v="Neslandsbukta" />
		<tag k="natural" v="strait" />
		<tag k="ssr:stedsnr" v="214054" />
	</node>
	<node id="-286030" lat="58.8355833338" lon="8.82522222566">
		<tag k="name" v="Tverrkjerrtjenn" />
		<tag k="natural" v="water" />
		<tag k="ssr:stedsnr" v="821810" />
	</node>
	<node id="-286029" lat="58.7779833378" lon="8.82287500316">
		<tag k="name" v="Breivasskilholmen" />
		<tag k="place" v="islet" />
		<tag k="ssr:stedsnr" v="821774" />
	</node>
	<node id="-283980" lat="58.7890833373" lon="8.84781944206">
		<tag k="name" v="Djupsundholmen" />
		<tag k="place" v="islet" />
		<tag k="ssr:stedsnr" v="153603" />
	</node>
	<node id="-286027" lat="58.6759222208" lon="8.81051667082">
		<tag k="name" v="Dalstjenn" />
		<tag k="natural" v="water" />
		<tag k="ssr:stedsnr" v="821692" />
	</node>
	<node id="-283978" lat="58.8374416704" lon="8.92919443675">
		<tag k="name" v="Ålkjerrneset" />
		<tag k="natural" v="cape" />
		<tag k="ssr:stedsnr" v="152496" />
	</node>
	<node id="-286024" lat="58.6812138925" lon="8.79358611362">
		<tag k="name" v="Rambergtjenn" />
		<tag k="natural" v="water" />
		<tag k="ssr:stedsnr" v="821687" />
	</node>
	<node id="-283975" lat="58.8351333289" lon="8.8566527717">
		<tag k="name" v="Mellomtjenn" />
		<tag k="natural" v="water" />
		<tag k="ssr:stedsnr" v="152476" />
	</node>
	<node id="-283972" lat="58.772975001" lon="8.86322222192">
		<tag k="name" v="Bjorhøl" />
		<tag k="place" v="locality" />
		<tag k="ssr:stedsnr" v="152338" />
	</node>
	<node id="-283971" lat="58.7611694409" lon="8.8642305476">
		<tag k="name" v="Vestigardsholmen" />
		<tag k="place" v="islet" />
		<tag k="ssr:stedsnr" v="152330" />
	</node>
	<node id="-283970" lat="58.7564861136" lon="8.89050832845">
		<tag k="name" v="Trytehola" />
		<tag k="place" v="locality" />
		<tag k="ssr:stedsnr" v="152324" />
	</node>
	<node id="-286015" lat="58.6715166638" lon="8.76384721644">
		<tag k="name" v="Ospelundstjenn" />
		<tag k="natural" v="water" />
		<tag k="ssr:stedsnr" v="821636" />
	</node>
	<node id="-283964" lat="58.7392527746" lon="8.76732222529">
		<tag k="name" v="Skaretjenn" />
		<tag k="natural" v="water" />
		<tag k="ssr:stedsnr" v="152217" />
	</node>
	<node id="-283193" lat="58.764955559" lon="8.65066110617">
		<tag k="alt_name" v="Holmtjenn" />
		<tag k="name" v="Holmtjørn" />
		<tag k="natural" v="water" />
		<tag k="ssr:stedsnr" v="364513" />
	</node>
	<node id="-283871" lat="58.8058194463" lon="8.77960833578">
		<tag k="name" v="Lille Forøya" />
		<tag k="place" v="islet" />
		<tag k="ssr:stedsnr" v="92798" />
	</node>
	<node id="-283188" lat="58.7289500026" lon="8.79688056133">
		<tag k="name" v="Kjelstjenn" />
		<tag k="place" v="locality" />
		<tag k="ssr:stedsnr" v="364140" />
	</node>
	<node id="-283870" lat="58.8383166689" lon="8.7849388817">
		<tag k="name" v="Fjellveggtjenn" />
		<tag k="natural" v="water" />
		<tag k="ssr:stedsnr" v="92795" />
	</node>
	<node id="-283954" lat="58.7761222254" lon="8.94478611861">
		<tag k="name" v="Bjortjenn" />
		<tag k="natural" v="water" />
		<tag k="ssr:stedsnr" v="123460" />
	</node>
	<node id="-285999" lat="58.7150916683" lon="8.90791388209">
		<tag k="name" v="Hestdalsbekken" />
		<tag k="ssr:stedsnr" v="821267" />
		<tag k="waterway" v="river" />
	</node>
	<node id="-283949" lat="58.7524055519" lon="8.79448056358">
		<tag k="alt_name" v="Skeimotjenn, nedre" />
		<tag k="name" v="Nedre Skeimotjenn" />
		<tag k="natural" v="water" />
		<tag k="ssr:stedsnr" v="122931" />
	</node>
	<node id="-283944" lat="58.7087361071" lon="8.95037778554">
		<tag k="name" v="Rossålvann" />
		<tag k="natural" v="water" />
		<tag k="ssr:stedsnr" v="122618" />
		<tag k="water" v="lake" />
	</node>
	<node id="-285991" lat="58.7134805585" lon="8.81425278502">
		<tag k="name" v="Nordmyrtjenn" />
		<tag k="natural" v="water" />
		<tag k="ssr:stedsnr" v="821214" />
	</node>
	<node id="-285990" lat="58.6922777739" lon="8.73799722615">
		<tag k="name" v="Lauvøya" />
		<tag k="place" v="islet" />
		<tag k="ssr:stedsnr" v="821204" />
	</node>
	<node id="-283939" lat="58.7701138933" lon="8.78468889726">
		<tag k="alt_name" v="Gonnslåttjenn" />
		<tag k="name" v="Gonnstjørn" />
		<tag k="natural" v="water" />
		<tag k="ssr:stedsnr" v="122547" />
	</node>
	<node id="-285982" lat="58.651180556" lon="8.79733333452">
		<tag k="name" v="Raudånlona" />
		<tag k="natural" v="water" />
		<tag k="ssr:stedsnr" v="821154" />
		<tag k="water" v="lake" />
	</node>
	<node id="-285981" lat="58.7250722246" lon="8.74071666905">
		<tag k="name" v="Kaldalstjenn" />
		<tag k="natural" v="water" />
		<tag k="ssr:stedsnr" v="821147" />
	</node>
	<node id="-285979" lat="58.66462778" lon="8.81818055101">
		<tag k="name" v="Kjeodden" />
		<tag k="natural" v="cape" />
		<tag k="ssr:stedsnr" v="821131" />
	</node>
	<node id="-283930" lat="58.7786555583" lon="8.70613056045">
		<tag k="name" v="Kolløya" />
		<tag k="place" v="islet" />
		<tag k="ssr:stedsnr" v="122503" />
	</node>
	<node id="-285977" lat="58.6961777788" lon="8.80292499525">
		<tag k="name" v="Øksfjelltjenn" />
		<tag k="natural" v="water" />
		<tag k="ssr:stedsnr" v="821002" />
	</node>
	<node id="-283927" lat="58.6983166694" lon="8.86572222165">
		<tag k="name" v="Øksvann" />
		<tag k="natural" v="water" />
		<tag k="ssr:stedsnr" v="122475" />
	</node>
	<node id="-283926" lat="58.7032361155" lon="8.89689999624">
		<tag k="name" v="Dalselva" />
		<tag k="ssr:stedsnr" v="122472" />
		<tag k="waterway" v="stream" />
	</node>
	<node id="-283925" lat="58.7963972238" lon="8.88586667165">
		<tag k="alt_name" v="Solbergvann" />
		<tag k="name" v="Solbergvannet" />
		<tag k="natural" v="water" />
		<tag k="ssr:stedsnr" v="122471" />
	</node>
	<node id="-283924" lat="58.7986499986" lon="8.87428332574">
		<tag k="name" v="Tegtjenn" />
		<tag k="natural" v="water" />
		<tag k="ssr:stedsnr" v="122468" />
	</node>
	<node id="-283182" lat="58.7140277768" lon="8.76198888824">
		<tag k="name" v="Kjolstjenn" />
		<tag k="natural" v="water" />
		<tag k="ssr:stedsnr" v="364055" />
	</node>
	<node id="-283922" lat="58.7858666645" lon="8.83846666095">
		<tag k="name" v="Sørfjorden" />
		<tag k="natural" v="water" />
		<tag k="ssr:stedsnr" v="122199" />
	</node>
	<node id="-283921" lat="58.7250083365" lon="8.84240833033">
		<tag k="alt_name" v="Gjerstjenn" />
		<tag k="name" v="Gjerstjørn" />
		<tag k="natural" v="water" />
		<tag k="ssr:stedsnr" v="122106" />
	</node>
	<node id="-285968" lat="58.8050611099" lon="8.6832416728">
		<tag k="name" v="Blautmyrtjenn" />
		<tag k="natural" v="water" />
		<tag k="ssr:stedsnr" v="820901" />
	</node>
	<node id="-283918" lat="58.8336916638" lon="8.93509999572">
		<tag k="name" v="Frines" />
		<tag k="natural" v="cape" />
		<tag k="ssr:stedsnr" v="122078" />
	</node>
	<node id="-283916" lat="58.7100916622" lon="8.72902777418">
		<tag k="name" v="Diplemyrtjenn" />
		<tag k="natural" v="water" />
		<tag k="ssr:stedsnr" v="122062" />
	</node>
	<node id="-285963" lat="58.7830444432" lon="8.74497778358">
		<tag k="name" v="Kjørenes" />
		<tag k="natural" v="cape" />
		<tag k="ssr:stedsnr" v="820839" />
	</node>
	<node id="-283914" lat="58.8252083307" lon="8.93816388031">
		<tag k="name" v="Fjellmyrtjenn" />
		<tag k="natural" v="water" />
		<tag k="ssr:stedsnr" v="122050" />
	</node>
	<node id="-283912" lat="58.8136222225" lon="8.91829166777">
		<tag k="name" v="Årnestjenn" />
		<tag k="natural" v="water" />
		<tag k="ssr:stedsnr" v="122030" />
	</node>
	<node id="-284204" lat="58.7007972212" lon="8.81938889014">
		<tag k="name" v="Mannmannstjenn" />
		<tag k="natural" v="water" />
		<tag k="ssr:stedsnr" v="214009" />
	</node>
	<node id="-283910" lat="58.7488916692" lon="8.64220000824">
		<tag k="name" v="Vålevann" />
		<tag k="natural" v="water" />
		<tag k="ssr:stedsnr" v="122026" />
		<tag k="water" v="lake" />
	</node>
	<node id="-285957" lat="58.8145500039" lon="8.81692499881">
		<tag k="name" v="Østre Ålekjerrbukta" />
		<tag k="natural" v="bay" />
		<tag k="ssr:stedsnr" v="820811" />
	</node>
	<node id="-283908" lat="58.7785777737" lon="8.82175555819">
		<tag k="alt_name" v="Breivasskilen" />
		<tag k="name" v="Breidvasskilen" />
		<tag k="natural" v="bay" />
		<tag k="ssr:stedsnr" v="121518" />
	</node>
	<node id="-285955" lat="58.7981777766" lon="8.76016389066">
		<tag k="name" v="Fiskaroddane" />
		<tag k="natural" v="cape" />
		<tag k="ssr:stedsnr" v="820804" />
	</node>
	<node id="-285953" lat="58.8115472204" lon="8.82513888958">
		<tag k="name" v="Sautangbukta" />
		<tag k="natural" v="bay" />
		<tag k="ssr:stedsnr" v="820795" />
	</node>
	<node id="-285948" lat="58.7965583323" lon="8.78276111063">
		<tag k="name" v="Sandbukta" />
		<tag k="natural" v="bay" />
		<tag k="ssr:stedsnr" v="820749" />
	</node>
	<node id="-283899" lat="58.7549500041" lon="8.6970750064">
		<tag k="name" v="Kilsholmen" />
		<tag k="place" v="islet" />
		<tag k="ssr:stedsnr" v="92972" />
	</node>
	<node id="-283898" lat="58.7632361129" lon="8.67957777851">
		<tag k="name" v="Trytetjenn" />
		<tag k="natural" v="water" />
		<tag k="ssr:stedsnr" v="92960" />
	</node>
	<node id="-283896" lat="58.7712055524" lon="8.70586945068">
		<tag k="name" v="Knivholmen" />
		<tag k="place" v="islet" />
		<tag k="ssr:stedsnr" v="92950" />
	</node>
	<node id="-283895" lat="58.7668277777" lon="8.703847226">
		<tag k="name" v="Støøya" />
		<tag k="place" v="islet" />
		<tag k="ssr:stedsnr" v="92949" />
	</node>
	<node id="-283894" lat="58.7750583342" lon="8.7096305603">
		<tag k="name" v="Lille Viøy" />
		<tag k="place" v="islet" />
		<tag k="ssr:stedsnr" v="92947" />
	</node>
	<node id="-283893" lat="58.7745249966" lon="8.70901666776">
		<tag k="name" v="Viøysund" />
		<tag k="natural" v="strait" />
		<tag k="ssr:stedsnr" v="92946" />
	</node>
	<node id="-285937" lat="58.7864138909" lon="8.94921389601">
		<tag k="name" v="Kjeøy" />
		<tag k="place" v="island" />
		<tag k="ssr:stedsnr" v="820604" />
	</node>
	<node id="-283888" lat="58.7858166696" lon="8.70607500578">
		<tag k="name" v="Orrenessundet" />
		<tag k="natural" v="strait" />
		<tag k="ssr:stedsnr" v="92904" />
	</node>
	<node id="-283886" lat="58.8092249967" lon="8.68214166705">
		<tag k="name" v="Ormslåttjenn" />
		<tag k="natural" v="water" />
		<tag k="ssr:stedsnr" v="92876" />
	</node>
	<node id="-285932" lat="58.7871333296" lon="8.84666666738">
		<tag k="name" v="Flatholmene" />
		<tag k="place" v="islet" />
		<tag k="ssr:stedsnr" v="820589" />
	</node>
	<node id="-285931" lat="58.7776444486" lon="8.70344166367">
		<tag k="name" v="Lille Kolløy" />
		<tag k="place" v="islet" />
		<tag k="ssr:stedsnr" v="820581" />
	</node>
	<node id="-283881" lat="58.7465583301" lon="8.70136666184">
		<tag k="name" v="Stålstråtjenn" />
		<tag k="natural" v="water" />
		<tag k="ssr:stedsnr" v="92852" />
	</node>
	<node id="-285927" lat="58.7815305561" lon="8.98527221494">
		<tag k="name" v="Slettåsfossen" />
		<tag k="natural" v="waterfall" />
		<tag k="ssr:stedsnr" v="820518" />
	</node>
	<node id="-285926" lat="58.73918333" lon="8.98079999583">
		<tag k="name" v="Eilivstjenn" />
		<tag k="natural" v="water" />
		<tag k="ssr:stedsnr" v="820510" />
	</node>
	<node id="-283875" lat="58.789422219" lon="8.77061666707">
		<tag k="name" v="Gomorstjenn" />
		<tag k="natural" v="water" />
		<tag k="ssr:stedsnr" v="92830" />
	</node>
	<node id="-285919" lat="58.8287694462" lon="8.88143889517">
		<tag k="name" v="Sagbekken" />
		<tag k="ssr:stedsnr" v="820449" />
		<tag k="waterway" v="stream" />
	</node>
	<node id="-285918" lat="58.8249361083" lon="8.86027777397">
		<tag k="name" v="Renstøltangen" />
		<tag k="natural" v="cape" />
		<tag k="ssr:stedsnr" v="820446" />
	</node>
	<node id="-285917" lat="58.8328861076" lon="8.86080278303">
		<tag k="name" v="Langnes" />
		<tag k="natural" v="cape" />
		<tag k="ssr:stedsnr" v="820441" />
	</node>
	<node id="-283866" lat="58.8225055585" lon="8.80041111379">
		<tag k="name" v="Roskifteodden" />
		<tag k="natural" v="cape" />
		<tag k="ssr:stedsnr" v="92783" />
	</node>
	<node id="-285913" lat="58.7065722214" lon="8.83919999441">
		<tag k="name" v="Hauglandsdammen" />
		<tag k="ssr:stedsnr" v="820392" />
		<tag k="waterway" v="dam" />
	</node>
	<node id="-285912" lat="58.8169638876" lon="8.89029722244">
		<tag k="name" v="Esktjenn" />
		<tag k="natural" v="water" />
		<tag k="ssr:stedsnr" v="820389" />
	</node>
	<node id="-283863" lat="58.7850638871" lon="8.80626110421">
		<tag k="name" v="Elgedalstangen" />
		<tag k="natural" v="cape" />
		<tag k="ssr:stedsnr" v="92765" />
	</node>
	<node id="-285907" lat="58.8031305583" lon="8.85329444341">
		<tag k="name" v="Gnaget" />
		<tag k="place" v="islet" />
		<tag k="ssr:stedsnr" v="820376" />
	</node>
	<node id="-285905" lat="58.8094777797" lon="8.8568083353">
		<tag k="name" v="Strandholmane" />
		<tag k="place" v="islet" />
		<tag k="ssr:stedsnr" v="820365" />
	</node>
	<node id="-285903" lat="58.8104527744" lon="8.86348056074">
		<tag k="name" v="Stokksund" />
		<tag k="natural" v="strait" />
		<tag k="ssr:stedsnr" v="820347" />
	</node>
	<node id="-285901" lat="58.7705666675" lon="8.86289722959">
		<tag k="name" v="Ålkarhølen" />
		<tag k="place" v="locality" />
		<tag k="ssr:stedsnr" v="820302" />
	</node>
	<node id="-285899" lat="58.7618722197" lon="8.8874611092">
		<tag k="name" v="Hestesund" />
		<tag k="natural" v="strait" />
		<tag k="ssr:stedsnr" v="820284" />
	</node>
	<node id="-283850" lat="58.6835027786" lon="8.74368610744">
		<tag k="name" v="Ålekarbekken" />
		<tag k="ssr:stedsnr" v="92658" />
		<tag k="waterway" v="stream" />
	</node>
	<node id="-285896" lat="58.7655444451" lon="8.91375555175">
		<tag k="name" v="Sortmyrtjenn" />
		<tag k="natural" v="water" />
		<tag k="ssr:stedsnr" v="820273" />
	</node>
	<node id="-285893" lat="58.7111027751" lon="8.96279722217">
		<tag k="name" v="Lona" />
		<tag k="natural" v="water" />
		<tag k="ssr:stedsnr" v="820257" />
		<tag k="water" v="lake" />
	</node>
	<node id="-283842" lat="58.7803833345" lon="8.94031665803">
		<tag k="name" v="Ufsa" />
		<tag k="natural" v="cape" />
		<tag k="ssr:stedsnr" v="92610" />
	</node>
	<node id="-285889" lat="58.751208334" lon="8.86743888441">
		<tag k="name" v="Sjurstangen" />
		<tag k="natural" v="cape" />
		<tag k="ssr:stedsnr" v="820250" />
	</node>
	<node id="-285887" lat="58.765116666" lon="8.7187166593">
		<tag k="name" v="Sortmyrodden" />
		<tag k="natural" v="cape" />
		<tag k="ssr:stedsnr" v="820240" />
	</node>
	<node id="-283837" lat="58.7507805548" lon="8.94750000111">
		<tag k="name" v="Vabekken" />
		<tag k="ssr:stedsnr" v="92565" />
		<tag k="waterway" v="stream" />
	</node>
	<node id="-285884" lat="58.7754000031" lon="8.79260832716">
		<tag k="name" v="Østre Røyrtjenn" />
		<tag k="natural" v="water" />
		<tag k="ssr:stedsnr" v="820226" />
	</node>
	<node id="-285883" lat="58.7559999997" lon="8.80254166068">
		<tag k="name" v="Elgstjenn" />
		<tag k="natural" v="water" />
		<tag k="ssr:stedsnr" v="820225" />
	</node>
	<node id="-283834" lat="58.7542249969" lon="8.98008888373">
		<tag k="name" v="Trytesund" />
		<tag k="natural" v="strait" />
		<tag k="ssr:stedsnr" v="92541" />
	</node>
	<node id="-283829" lat="58.7524833351" lon="8.98624167423">
		<tag k="name" v="Halvfarøya" />
		<tag k="place" v="islet" />
		<tag k="ssr:stedsnr" v="92504" />
	</node>
	<node id="-283827" lat="58.7200249976" lon="8.97115277138">
		<tag k="name" v="Småtjennene" />
		<tag k="natural" v="water" />
		<tag k="ssr:stedsnr" v="92494" />
	</node>
	<node id="-285874" lat="58.7839972239" lon="8.85361944165">
		<tag k="name" v="Straumøya" />
		<tag k="place" v="island" />
		<tag k="ssr:stedsnr" v="820091" />
	</node>
	<node id="-286189" lat="58.7345611097" lon="8.97623333596">
		<tag k="name" v="Kutjenn" />
		<tag k="natural" v="water" />
		<tag k="ssr:stedsnr" v="881484" />
	</node>
	<node id="-285871" lat="58.7868833301" lon="8.83466110719">
		<tag k="name" v="Østre Stogøya" />
		<tag k="place" v="islet" />
		<tag k="ssr:stedsnr" v="820078" />
	</node>
	<node id="-283822" lat="58.7533444463" lon="8.90643611688">
		<tag k="name" v="Sundtangen" />
		<tag k="natural" v="cape" />
		<tag k="ssr:stedsnr" v="92472" />
	</node>
	<node id="-285867" lat="58.6936861114" lon="8.82499165981">
		<tag k="name" v="Heskrebekk" />
		<tag k="ssr:stedsnr" v="820064" />
		<tag k="waterway" v="stream" />
	</node>
	<node id="-285866" lat="58.7805638925" lon="8.84863888146">
		<tag k="name" v="Stakksneisholmene" />
		<tag k="place" v="islet" />
		<tag k="ssr:stedsnr" v="820063" />
	</node>
	<node id="-282823" lat="58.8013138877" lon="8.76198055362">
		<tag k="name" v="Holmen" />
		<tag k="place" v="islet" />
		<tag k="ssr:stedsnr" v="274122" />
	</node>
	<node id="-283816" lat="58.7065722251" lon="8.90136665923">
		<tag k="name" v="Saurfossen" />
		<tag k="natural" v="waterfall" />
		<tag k="ssr:stedsnr" v="92445" />
	</node>
	<node id="-285863" lat="58.7952583346" lon="8.88675555276">
		<tag k="name" v="Solbergtangen" />
		<tag k="natural" v="cape" />
		<tag k="ssr:stedsnr" v="820060" />
	</node>
	<node id="-283813" lat="58.7102972264" lon="8.88577221902">
		<tag k="name" v="Galtesund" />
		<tag k="natural" v="strait" />
		<tag k="ssr:stedsnr" v="92433" />
	</node>
	<node id="-285860" lat="58.6861333301" lon="8.84139999377">
		<tag k="name" v="Bjortjenn" />
		<tag k="natural" v="water" />
		<tag k="ssr:stedsnr" v="820050" />
	</node>
	<node id="-283811" lat="58.8159527742" lon="8.86483332511">
		<tag k="name" v="Gråholmen" />
		<tag k="place" v="islet" />
		<tag k="ssr:stedsnr" v="92425" />
	</node>
	<node id="-285858" lat="58.7816638895" lon="8.90943055261">
		<tag k="name" v="Tverrelva" />
		<tag k="ssr:stedsnr" v="820041" />
		<tag k="waterway" v="stream" />
	</node>
	<node id="-284187" lat="58.835225001" lon="8.83075555075">
		<tag k="name" v="Sutvann" />
		<tag k="natural" v="water" />
		<tag k="ssr:stedsnr" v="183628" />
	</node>
	<node id="-285854" lat="58.7868444443" lon="8.90208889588">
		<tag k="name" v="Prestekonetjenn" />
		<tag k="natural" v="water" />
		<tag k="ssr:stedsnr" v="820030" />
	</node>
	<node id="-283845" lat="58.8055027764" lon="8.97066666556">
		<tag k="name" v="Dammen" />
		<tag k="ssr:stedsnr" v="92620" />
		<tag k="waterway" v="dam" />
	</node>
	<node id="-285851" lat="58.7693833324" lon="8.75586111627">
		<tag k="name" v="Lille Åslandstjenn" />
		<tag k="natural" v="water" />
		<tag k="ssr:stedsnr" v="820016" />
	</node>
	<node id="-283802" lat="58.7977722259" lon="8.85423055537">
		<tag k="name" v="Kviftåsholmen" />
		<tag k="place" v="islet" />
		<tag k="ssr:stedsnr" v="92390" />
	</node>
	<node id="-283800" lat="58.8108555549" lon="8.85462499536">
		<tag k="name" v="Hagtjenn" />
		<tag k="natural" v="water" />
		<tag k="ssr:stedsnr" v="92370" />
	</node>
	<node id="-285843" lat="58.807755559" lon="8.74395000001">
		<tag k="name" v="Ryggtjenn" />
		<tag k="natural" v="water" />
		<tag k="ssr:stedsnr" v="820160" />
	</node>
	<node id="-285841" lat="58.8176027785" lon="8.92121388786">
		<tag k="name" v="Ålkartjenn" />
		<tag k="natural" v="water" />
		<tag k="ssr:stedsnr" v="820147" />
	</node>
	<node id="-285840" lat="58.8180194425" lon="8.91758055625">
		<tag k="name" v="Smitjenn" />
		<tag k="natural" v="water" />
		<tag k="ssr:stedsnr" v="820144" />
	</node>
	<node id="-285839" lat="58.8158666631" lon="8.91841111476">
		<tag k="name" v="Holmane" />
		<tag k="natural" v="cape" />
		<tag k="ssr:stedsnr" v="820140" />
	</node>
	<node id="-284183" lat="58.7045361111" lon="8.92563610491">
		<tag k="name" v="Siristjenn" />
		<tag k="natural" v="water" />
		<tag k="ssr:stedsnr" v="183584" />
	</node>
	<node id="-285832" lat="58.7292638909" lon="8.90057221873">
		<tag k="name" v="Skravdalstjenn" />
		<tag k="natural" v="water" />
		<tag k="ssr:stedsnr" v="809050" />
		<tag k="water" v="lake" />
	</node>
	<node id="-285831" lat="58.6525888903" lon="8.79449443629">
		<tag k="name" v="Fisketjenn" />
		<tag k="natural" v="water" />
		<tag k="ssr:stedsnr" v="790994" />
	</node>
	<node id="-285830" lat="58.643327777" lon="8.79562499592">
		<tag k="name" v="Niksjå" />
		<tag k="natural" v="water" />
		<tag k="ssr:stedsnr" v="790992" />
		<tag k="water" v="lake" />
	</node>
	<node id="-283780" lat="58.738072223" lon="8.85788333684">
		<tag k="name" v="Skomakerodden" />
		<tag k="natural" v="cape" />
		<tag k="ssr:stedsnr" v="92252" />
	</node>
	<node id="-285827" lat="58.7928499979" lon="8.73418055977">
		<tag k="name" v="Hakenes" />
		<tag k="natural" v="cape" />
		<tag k="ssr:stedsnr" v="790661" />
	</node>
	<node id="-285825" lat="58.7863361096" lon="8.72330000559">
		<tag k="name" v="Nordstøøya" />
		<tag k="place" v="islet" />
		<tag k="ssr:stedsnr" v="790643" />
	</node>
	<node id="-285823" lat="58.8005944421" lon="8.79483332923">
		<tag k="name" v="Raftholmen" />
		<tag k="place" v="islet" />
		<tag k="ssr:stedsnr" v="790609" />
	</node>
	<node id="-284181" lat="58.7825277771" lon="8.77921667449">
		<tag k="alt_name" v="Kyrtjørn, østre" />
		<tag k="name" v="Østre Kyrtjenn" />
		<tag k="natural" v="water" />
		<tag k="ssr:stedsnr" v="183576" />
	</node>
	<node id="-285819" lat="58.7918777758" lon="8.97601944637">
		<tag k="name" v="Bjørnåskilen" />
		<tag k="natural" v="water" />
		<tag k="ssr:stedsnr" v="790517" />
		<tag k="water" v="lake" />
	</node>
	<node id="-284180" lat="58.7822833345" lon="8.774461104">
		<tag k="alt_name" v="Kyrtjørn, vestre" />
		<tag k="name" v="Vestre Kyrtjenn" />
		<tag k="natural" v="water" />
		<tag k="ssr:stedsnr" v="183575" />
	</node>
	<node id="-283766" lat="58.7142166655" lon="8.74820277829">
		<tag k="name" v="Åstjenn" />
		<tag k="natural" v="water" />
		<tag k="ssr:stedsnr" v="92201" />
	</node>
	<node id="-283765" lat="58.7386999985" lon="8.75805555811">
		<tag k="name" v="Mostebekken" />
		<tag k="ssr:stedsnr" v="92197" />
		<tag k="waterway" v="stream" />
	</node>
	<node id="-283763" lat="58.7463500039" lon="8.79421943914">
		<tag k="name" v="Svarttjenn" />
		<tag k="natural" v="water" />
		<tag k="ssr:stedsnr" v="92174" />
	</node>
	<node id="-285808" lat="58.6654666651" lon="8.76143888466">
		<tag k="name" v="Tvitjenn" />
		<tag k="natural" v="water" />
		<tag k="ssr:stedsnr" v="789942" />
	</node>
	<node id="-285805" lat="58.8555166674" lon="8.8409388924">
		<tag k="name" v="Kverntjenn" />
		<tag k="natural" v="water" />
		<tag k="ssr:stedsnr" v="789732" />
	</node>
	<node id="-283755" lat="58.8049944432" lon="8.75948888186">
		<tag k="name" v="Vesslåttangen" />
		<tag k="natural" v="cape" />
		<tag k="ssr:stedsnr" v="92149" />
	</node>
	<node id="-285802" lat="58.8128527748" lon="8.703855547">
		<tag k="name" v="Svarttjenn" />
		<tag k="natural" v="water" />
		<tag k="ssr:stedsnr" v="789670" />
	</node>
	<node id="-283753" lat="58.8150611152" lon="8.76974444529">
		<tag k="name" v="Den runde hølen" />
		<tag k="place" v="locality" />
		<tag k="ssr:stedsnr" v="92142" />
	</node>
	<node id="-285797" lat="58.74209444" lon="8.99159166117">
		<tag k="alt_name" v="Eksjø, lille" />
		<tag k="name" v="Lille Eksjø" />
		<tag k="natural" v="water" />
		<tag k="old_name" v="Ekksjø, l" />
		<tag k="ssr:stedsnr" v="789536" />
		<tag k="water" v="lake" />
	</node>
	<node id="-285796" lat="58.6916944436" lon="8.86360555524">
		<tag k="name" v="Sandtjennane" />
		<tag k="natural" v="water" />
		<tag k="ssr:stedsnr" v="789493" />
	</node>
	<node id="-283747" lat="58.6574027797" lon="8.80514444876">
		<tag k="name" v="Pøddtjenn" />
		<tag k="natural" v="water" />
		<tag k="ssr:stedsnr" v="92124" />
	</node>
	<node id="-284176" lat="58.7220416703" lon="8.94121667414">
		<tag k="name" v="Ytrevann" />
		<tag k="natural" v="water" />
		<tag k="ssr:stedsnr" v="183531" />
	</node>
	<node id="-285788" lat="58.8221583292" lon="8.90000000375">
		<tag k="name" v="Langtjenn" />
		<tag k="natural" v="water" />
		<tag k="ssr:stedsnr" v="789052" />
	</node>
	<node id="-283738" lat="58.7321833334" lon="8.91304165811">
		<tag k="name" v="Ramslitjenn" />
		<tag k="natural" v="water" />
		<tag k="ssr:stedsnr" v="92094" />
	</node>
	<node id="-285784" lat="58.8082388909" lon="8.95556943594">
		<tag k="alt_name" v="Takseråstjennane" />
		<tag k="name" v="Takseråstjørnane" />
		<tag k="natural" v="water" />
		<tag k="ssr:stedsnr" v="789004" />
	</node>
	<node id="-285783" lat="58.8033805573" lon="8.87273889065">
		<tag k="name" v="Sevikodden" />
		<tag k="natural" v="cape" />
		<tag k="ssr:stedsnr" v="789001" />
	</node>
	<node id="-283731" lat="58.688319443" lon="8.9237916605">
		<tag k="name" v="Tjærhjellhølen" />
		<tag k="place" v="locality" />
		<tag k="ssr:stedsnr" v="92075" />
	</node>
	<node id="-285778" lat="58.7535138885" lon="8.66637222654">
		<tag k="name" v="Småtjennene" />
		<tag k="natural" v="water" />
		<tag k="ssr:stedsnr" v="760988" />
	</node>
	<node id="-285775" lat="58.7646611071" lon="8.6681611183">
		<tag k="name" v="Bjørndalstjenn" />
		<tag k="natural" v="water" />
		<tag k="ssr:stedsnr" v="760974" />
	</node>
	<node id="-285772" lat="58.7901499996" lon="8.70808055506">
		<tag k="name" v="Sandodden" />
		<tag k="natural" v="cape" />
		<tag k="ssr:stedsnr" v="760923" />
	</node>
	<node id="-285771" lat="58.7857111136" lon="8.68869167268">
		<tag k="name" v="Skållona" />
		<tag k="natural" v="water" />
		<tag k="ssr:stedsnr" v="760916" />
		<tag k="water" v="lake" />
	</node>
	<node id="-283720" lat="58.6775527807" lon="8.83988333436">
		<tag k="name" v="Kleivdammen" />
		<tag k="ssr:stedsnr" v="92032" />
		<tag k="waterway" v="dam" />
	</node>
	<node id="-283719" lat="58.7915999976" lon="8.91668055523">
		<tag k="name" v="Stokktjenn" />
		<tag k="natural" v="water" />
		<tag k="ssr:stedsnr" v="92033" />
	</node>
	<node id="-285765" lat="58.8257861125" lon="8.7740388913">
		<tag k="name" v="Risfjelltjenn" />
		<tag k="natural" v="water" />
		<tag k="ssr:stedsnr" v="760785" />
	</node>
	<node id="-283715" lat="58.6998305546" lon="8.80726110642">
		<tag k="name" v="Nedre Lona" />
		<tag k="natural" v="water" />
		<tag k="ssr:stedsnr" v="92012" />
		<tag k="water" v="lake" />
	</node>
	<node id="-285759" lat="58.7853138874" lon="8.82156667045">
		<tag k="name" v="Brentodden" />
		<tag k="natural" v="cape" />
		<tag k="ssr:stedsnr" v="760740" />
	</node>
	<node id="-283710" lat="58.6976722246" lon="8.81073610976">
		<tag k="name" v="Londammen" />
		<tag k="ssr:stedsnr" v="92001" />
		<tag k="waterway" v="dam" />
	</node>
	<node id="-283709" lat="58.7377638899" lon="8.94062778129">
		<tag k="name" v="Rømmelvann" />
		<tag k="natural" v="water" />
		<tag k="ssr:stedsnr" v="89870" />
	</node>
	<node id="-285756" lat="58.6770000007" lon="8.8221611089">
		<tag k="name" v="Haugtjenn" />
		<tag k="natural" v="water" />
		<tag k="ssr:stedsnr" v="760677" />
	</node>
	<node id="-283705" lat="58.7080611068" lon="8.83471667413">
		<tag k="alt_name" v="Hagtjenn" />
		<tag k="name" v="Hagetjørn" />
		<tag k="natural" v="water" />
		<tag k="ssr:stedsnr" v="62894" />
	</node>
	<node id="-285752" lat="58.786250001" lon="8.93911388371">
		<tag k="name" v="Saghølen" />
		<tag k="natural" v="water" />
		<tag k="ssr:stedsnr" v="760617" />
	</node>
	<node id="-283703" lat="58.7877777789" lon="8.69389166253">
		<tag k="name" v="Skålkilen" />
		<tag k="natural" v="bay" />
		<tag k="ssr:stedsnr" v="62607" />
	</node>
	<node id="-285750" lat="58.7885166681" lon="8.84712221373">
		<tag k="name" v="Djupsund" />
		<tag k="natural" v="strait" />
		<tag k="ssr:stedsnr" v="760595" />
	</node>
	<node id="-285747" lat="58.7530666639" lon="8.95030278154">
		<tag k="name" v="Lonene" />
		<tag k="natural" v="water" />
		<tag k="ssr:stedsnr" v="760556" />
		<tag k="water" v="lake" />
	</node>
	<node id="-285875" lat="58.7302472249" lon="8.85330833842">
		<tag k="name" v="Neset" />
		<tag k="natural" v="cape" />
		<tag k="ssr:stedsnr" v="820095" />
	</node>
	<node id="-283695" lat="58.7597694464" lon="8.89070833349">
		<tag k="alt_name" v="Nordvann" />
		<tag k="name" v="Nordvannet" />
		<tag k="natural" v="water" />
		<tag k="ssr:stedsnr" v="62394" />
	</node>
	<node id="-285741" lat="58.6965305587" lon="8.93309165838">
		<tag k="name" v="Hyttalona" />
		<tag k="natural" v="water" />
		<tag k="ssr:stedsnr" v="760457" />
		<tag k="water" v="lake" />
	</node>
	<node id="-283692" lat="58.842399999" lon="8.8773833267">
		<tag k="name" v="Kortmyrtjenn" />
		<tag k="natural" v="water" />
		<tag k="ssr:stedsnr" v="62097" />
	</node>
	<node id="-283690" lat="58.8105472201" lon="8.90043333431">
		<tag k="alt_name" v="Pøddetjenn" />
		<tag k="name" v="Poddetjenn" />
		<tag k="natural" v="water" />
		<tag k="ssr:stedsnr" v="62035" />
	</node>
	<node id="-285737" lat="58.7096444429" lon="8.89739166324">
		<tag k="name" v="Ålkarfossen" />
		<tag k="natural" v="waterfall" />
		<tag k="ssr:stedsnr" v="760433" />
	</node>
	<node id="-285736" lat="58.6930999987" lon="8.86729999813">
		<tag k="name" v="Kiltjenn" />
		<tag k="natural" v="water" />
		<tag k="ssr:stedsnr" v="760427" />
	</node>
	<node id="-283934" lat="58.7507750042" lon="8.89763333547">
		<tag k="name" v="Ljøstadvann" />
		<tag k="natural" v="water" />
		<tag k="ssr:stedsnr" v="122517" />
		<tag k="water" v="lake" />
	</node>
	<node id="-283686" lat="58.6737694484" lon="8.77000556407">
		<tag k="alt_name" v="Bjortjørn" />
		<tag k="name" v="Bjortjenn" />
		<tag k="natural" v="water" />
		<tag k="ssr:stedsnr" v="61955" />
	</node>
	<node id="-283685" lat="58.6676250012" lon="8.76308054786">
		<tag k="name" v="Ufstjenn" />
		<tag k="natural" v="water" />
		<tag k="ssr:stedsnr" v="61953" />
	</node>
	<node id="-283684" lat="58.6750055525" lon="8.79384722319">
		<tag k="name" v="Ellingstjenn" />
		<tag k="natural" v="water" />
		<tag k="ssr:stedsnr" v="61916" />
	</node>
	<node id="-285731" lat="58.7055944475" lon="8.87285833926">
		<tag k="name" v="Flektjenn" />
		<tag k="natural" v="water" />
		<tag k="ssr:stedsnr" v="760408" />
	</node>
	<node id="-285730" lat="58.7063583332" lon="8.87953333798">
		<tag k="name" v="Bormyrbukta" />
		<tag k="natural" v="bay" />
		<tag k="ssr:stedsnr" v="760407" />
	</node>
	<node id="-285729" lat="58.8025166697" lon="8.85587223003">
		<tag k="name" v="Lauvøya" />
		<tag k="place" v="islet" />
		<tag k="ssr:stedsnr" v="760403" />
	</node>
	<node id="-285728" lat="58.8044083314" lon="8.85649166913">
		<tag k="name" v="Lille Bronøya" />
		<tag k="place" v="islet" />
		<tag k="ssr:stedsnr" v="760401" />
	</node>
	<node id="-283677" lat="58.7996027795" lon="8.7163722142">
		<tag k="name" v="Lonbekken" />
		<tag k="ssr:stedsnr" v="61545" />
		<tag k="waterway" v="stream" />
	</node>
	<node id="-283676" lat="58.8062083327" lon="8.73584444862">
		<tag k="alt_name" v="Karislåttjenna" />
		<tag k="name" v="Karislåttjørna" />
		<tag k="natural" v="water" />
		<tag k="ssr:stedsnr" v="61544" />
	</node>
	<node id="-283675" lat="58.8030999971" lon="8.76360000175">
		<tag k="alt_name" v="Bærøy" />
		<tag k="name" v="Bærøya" />
		<tag k="place" v="islet" />
		<tag k="ssr:stedsnr" v="61543" />
	</node>
	<node id="-283674" lat="58.7727777798" lon="8.77125556011">
		<tag k="alt_name" v="Gjerstjenn" />
		<tag k="name" v="Gjerstjørn" />
		<tag k="natural" v="water" />
		<tag k="ssr:stedsnr" v="61526" />
	</node>
	<node id="-283673" lat="58.769941671" lon="8.80411110495">
		<tag k="name" v="Bjørktjenn" />
		<tag k="natural" v="water" />
		<tag k="ssr:stedsnr" v="61523" />
	</node>
	<node id="-285720" lat="58.6677861126" lon="8.75605277796">
		<tag k="name" v="Ommundstjenn" />
		<tag k="natural" v="water" />
		<tag k="ssr:stedsnr" v="760297" />
	</node>
	<node id="-285719" lat="58.8194888884" lon="8.85917499275">
		<tag k="name" v="Storfiskholmane" />
		<tag k="place" v="islet" />
		<tag k="ssr:stedsnr" v="760288" />
	</node>
	<node id="-283670" lat="58.7748194428" lon="8.82658055378">
		<tag k="alt_name" v="Svartvadtjenn" />
		<tag k="name" v="Svartvadtjørna" />
		<tag k="natural" v="water" />
		<tag k="ssr:stedsnr" v="61487" />
	</node>
	<node id="-283669" lat="58.7719888879" lon="8.75739166644">
		<tag k="alt_name" v="Åslandstjenna" />
		<tag k="name" v="Åslandstjørna" />
		<tag k="natural" v="water" />
		<tag k="ssr:stedsnr" v="61478" />
	</node>
	<node id="-283668" lat="58.6907111137" lon="8.91003332717">
		<tag k="name" v="Hauklona" />
		<tag k="natural" v="water" />
		<tag k="ssr:stedsnr" v="61467" />
	</node>
	<node id="-283667" lat="58.7563611127" lon="8.91289167246">
		<tag k="alt_name" v="Olemstadkilen" />
		<tag k="name" v="Olimstadkilen" />
		<tag k="place" v="locality" />
		<tag k="ssr:stedsnr" v="61342" />
	</node>
	<node id="-285711" lat="58.6989499972" lon="8.7536666708">
		<tag k="name" v="Djuptjenn" />
		<tag k="natural" v="water" />
		<tag k="ssr:stedsnr" v="760221" />
	</node>
	<node id="-283661" lat="58.8227833376" lon="8.86847499154">
		<tag k="name" v="Mosnes" />
		<tag k="natural" v="cape" />
		<tag k="ssr:stedsnr" v="61047" />
	</node>
	<node id="-283660" lat="58.8211333352" lon="8.87799444694">
		<tag k="name" v="Stetjenn" />
		<tag k="natural" v="water" />
		<tag k="ssr:stedsnr" v="61045" />
	</node>
	<node id="-285707" lat="58.7718083315" lon="8.78278333165">
		<tag k="name" v="Bjørndalstjenn" />
		<tag k="natural" v="water" />
		<tag k="ssr:stedsnr" v="760211" />
	</node>
	<node id="-283658" lat="58.8006527796" lon="8.93343055467">
		<tag k="alt_name" v="Fisketjenn" />
		<tag k="name" v="Fisktjenn" />
		<tag k="natural" v="water" />
		<tag k="ssr:stedsnr" v="61003" />
	</node>
	<node id="-285705" lat="58.7288305532" lon="8.78631388055">
		<tag k="name" v="Kjelsstøltjenn" />
		<tag k="natural" v="water" />
		<tag k="old_name" v="Kjelsatøltjenn" />
		<tag k="ssr:stedsnr" v="760206" />
	</node>
	<node id="-285700" lat="58.6548666681" lon="8.7890388851">
		<tag k="name" v="Dipilen" />
		<tag k="natural" v="water" />
		<tag k="ssr:stedsnr" v="760180" />
		<tag k="water" v="pond" />
	</node>
	<node id="-285696" lat="58.7286777808" lon="8.7459750022">
		<tag k="name" v="Høydalsbekken" />
		<tag k="ssr:stedsnr" v="760156" />
		<tag k="waterway" v="stream" />
	</node>
	<node id="-283818" lat="58.828063891" lon="8.85306389571">
		<tag k="name" v="Tjennstrandbukta" />
		<tag k="natural" v="bay" />
		<tag k="ssr:stedsnr" v="92452" />
	</node>
	<node id="-285690" lat="58.7162083357" lon="8.83101944208">
		<tag k="name" v="Halvfartjenn" />
		<tag k="natural" v="water" />
		<tag k="ssr:stedsnr" v="760114" />
	</node>
	<node id="-283640" lat="58.7474499991" lon="8.71106111902">
		<tag k="name" v="Nordre Lontjenn" />
		<tag k="natural" v="water" />
		<tag k="ssr:stedsnr" v="31882" />
	</node>
	<node id="-283637" lat="58.7946888893" lon="8.77369722515">
		<tag k="name" v="Butangen" />
		<tag k="natural" v="cape" />
		<tag k="ssr:stedsnr" v="31864" />
	</node>
	<node id="-283636" lat="58.7797416643" lon="8.75183054842">
		<tag k="name" v="Djuptjenn" />
		<tag k="natural" v="water" />
		<tag k="ssr:stedsnr" v="31861" />
	</node>
	<node id="-284158" lat="58.8114777823" lon="8.86256388539">
		<tag k="name" v="Stokksundøya" />
		<tag k="place" v="islet" />
		<tag k="ssr:stedsnr" v="183018" />
	</node>
	<node id="-283633" lat="58.7912694489" lon="8.76021944565">
		<tag k="name" v="Vrakbukta" />
		<tag k="natural" v="bay" />
		<tag k="ssr:stedsnr" v="31846" />
	</node>
	<node id="-283632" lat="58.8034972249" lon="8.80003889262">
		<tag k="name" v="Løviktangen" />
		<tag k="natural" v="cape" />
		<tag k="ssr:stedsnr" v="31832" />
	</node>
	<node id="-283591" lat="58.8246722242" lon="8.86624166856">
		<tag k="name" v="Mosodden" />
		<tag k="natural" v="cape" />
		<tag k="ssr:stedsnr" v="31433" />
	</node>
	<node id="-285673" lat="58.7701972234" lon="8.72767499152">
		<tag k="name" v="Sagkilen" />
		<tag k="natural" v="bay" />
		<tag k="ssr:stedsnr" v="760024" />
	</node>
	<node id="-283624" lat="58.7790833311" lon="8.80387777736">
		<tag k="name" v="Lille Færstjenn" />
		<tag k="natural" v="water" />
		<tag k="ssr:stedsnr" v="31768" />
	</node>
	<node id="-285667" lat="58.8022666641" lon="8.81070000779">
		<tag k="name" v="Espelitjenn" />
		<tag k="natural" v="water" />
		<tag k="ssr:stedsnr" v="759823" />
	</node>
	<node id="-285666" lat="58.8009861111" lon="8.80295555937">
		<tag k="name" v="Raudnestjennene" />
		<tag k="natural" v="water" />
		<tag k="ssr:stedsnr" v="759819" />
	</node>
	<node id="-283616" lat="58.6882916679" lon="8.74583889603">
		<tag k="name" v="Stuttangen" />
		<tag k="place" v="islet" />
		<tag k="ssr:stedsnr" v="31733" />
	</node>
	<node id="-285663" lat="58.8145972215" lon="8.81311110277">
		<tag k="name" v="Vestre Ålekjerrbukta" />
		<tag k="natural" v="bay" />
		<tag k="ssr:stedsnr" v="759807" />
	</node>
	<node id="-285662" lat="58.8080222236" lon="8.81321388442">
		<tag k="name" v="Askedalsbukta" />
		<tag k="natural" v="bay" />
		<tag k="ssr:stedsnr" v="759798" />
	</node>
	<node id="-283609" lat="58.6722527768" lon="8.74401388253">
		<tag k="name" v="Korsvasslona" />
		<tag k="natural" v="water" />
		<tag k="ssr:stedsnr" v="31642" />
		<tag k="water" v="lake" />
	</node>
	<node id="-283812" lat="58.8167361125" lon="8.8717944443">
		<tag k="name" v="Bjørnholmen" />
		<tag k="place" v="islet" />
		<tag k="ssr:stedsnr" v="92426" />
	</node>
	<node id="-283605" lat="58.7879916648" lon="8.85091111495">
		<tag k="name" v="Vikholmen" />
		<tag k="place" v="islet" />
		<tag k="ssr:stedsnr" v="31607" />
	</node>
	<node id="-285650" lat="58.7506305596" lon="8.99218888685">
		<tag k="name" v="Bjønnholmen" />
		<tag k="place" v="islet" />
		<tag k="ssr:stedsnr" v="759512" />
	</node>
	<node id="-285648" lat="58.8584166683" lon="8.8333083251">
		<tag k="name" v="Bekkekroken" />
		<tag k="ssr:stedsnr" v="759492" />
		<tag k="waterway" v="stream" />
	</node>
	<node id="-285642" lat="58.8191583316" lon="8.83283056139">
		<tag k="name" v="Sandbukta" />
		<tag k="natural" v="bay" />
		<tag k="ssr:stedsnr" v="759425" />
	</node>
	<node id="-285641" lat="58.8203833352" lon="8.84645277951">
		<tag k="name" v="Bytteodden" />
		<tag k="natural" v="cape" />
		<tag k="ssr:stedsnr" v="759423" />
	</node>
	<node id="-285640" lat="58.8358055545" lon="8.8523138883">
		<tag k="name" v="Vollanstjenn" />
		<tag k="natural" v="water" />
		<tag k="ssr:stedsnr" v="759417" />
	</node>
	<node id="-285639" lat="58.8179305516" lon="8.84446665901">
		<tag k="name" v="Tjovtangen" />
		<tag k="natural" v="cape" />
		<tag k="ssr:stedsnr" v="759395" />
	</node>
	<node id="-285636" lat="58.8215361139" lon="8.93118610882">
		<tag k="name" v="Røyslåttjenn" />
		<tag k="natural" v="water" />
		<tag k="ssr:stedsnr" v="759376" />
	</node>
	<node id="-284408" lat="58.7644277735" lon="8.69101943785">
		<tag k="alt_name" v="Åretjenn" />
		<tag k="name" v="Årettjørn" />
		<tag k="natural" v="water" />
		<tag k="ssr:stedsnr" v="243503" />
	</node>
	<node id="-285628" lat="58.7641666699" lon="8.93660276991">
		<tag k="name" v="Gåstjenn" />
		<tag k="natural" v="water" />
		<tag k="ssr:stedsnr" v="759266" />
	</node>
	<node id="-283579" lat="58.8006305586" lon="8.88184444984">
		<tag k="name" v="Depelen" />
		<tag k="natural" v="water" />
		<tag k="ssr:stedsnr" v="31383" />
	</node>
	<node id="-283578" lat="58.8175111126" lon="8.89484167406">
		<tag k="name" v="Grunntjennbekken" />
		<tag k="ssr:stedsnr" v="31380" />
		<tag k="waterway" v="stream" />
	</node>
	<node id="-285623" lat="58.7374750008" lon="8.91414721583">
		<tag k="name" v="Lomstjenn" />
		<tag k="natural" v="water" />
		<tag k="ssr:stedsnr" v="759246" />
	</node>
	<node id="-283573" lat="58.729513887" lon="8.97734999828">
		<tag k="name" v="Langevann" />
		<tag k="natural" v="water" />
		<tag k="ssr:stedsnr" v="31491" />
		<tag k="water" v="lake" />
	</node>
	<node id="-283571" lat="58.6900055587" lon="8.92585000293">
		<tag k="name" v="Kvennfossen" />
		<tag k="natural" v="waterfall" />
		<tag k="ssr:stedsnr" v="31478" />
	</node>
	<node id="-285618" lat="58.7521055545" lon="8.79285000443">
		<tag k="name" v="Skeimotangen" />
		<tag k="natural" v="cape" />
		<tag k="ssr:stedsnr" v="759182" />
	</node>
	<node id="-283569" lat="58.7493416627" lon="8.89420555345">
		<tag k="name" v="Sautangen" />
		<tag k="natural" v="cape" />
		<tag k="ssr:stedsnr" v="31472" />
	</node>
	<node id="-283568" lat="58.7536000016" lon="8.90371666046">
		<tag k="name" v="Ripetangen" />
		<tag k="natural" v="cape" />
		<tag k="ssr:stedsnr" v="31465" />
	</node>
	<node id="-283567" lat="58.739336113" lon="8.89958055147">
		<tag k="name" v="Dåbudammen" />
		<tag k="ssr:stedsnr" v="31463" />
		<tag k="waterway" v="dam" />
	</node>
	<node id="-285606" lat="58.7840833355" lon="8.82861110363">
		<tag k="name" v="Rugnesbukta" />
		<tag k="natural" v="bay" />
		<tag k="ssr:stedsnr" v="759070" />
	</node>
	<node id="-285605" lat="58.7796555596" lon="8.85749722937">
		<tag k="name" v="Vinterveibukta" />
		<tag k="natural" v="bay" />
		<tag k="ssr:stedsnr" v="759063" />
	</node>
	<node id="-285604" lat="58.7948972226" lon="8.90254722514">
		<tag k="name" v="Ålhølen" />
		<tag k="natural" v="water" />
		<tag k="ssr:stedsnr" v="759057" />
		<tag k="water" v="pond" />
	</node>
	<node id="-285603" lat="58.7822500033" lon="8.91897777439">
		<tag k="name" v="Grøntangen" />
		<tag k="natural" v="cape" />
		<tag k="ssr:stedsnr" v="759048" />
	</node>
	<node id="-285598" lat="58.7828583366" lon="9.00618333582">
		<tag k="name" v="Ljøsvannet" />
		<tag k="natural" v="water" />
		<tag k="ssr:stedsnr" v="730482" />
	</node>
	<node id="-283549" lat="58.7606916662" lon="8.72410833547">
		<tag k="name" v="Tjennodden" />
		<tag k="natural" v="cape" />
		<tag k="ssr:stedsnr" v="31230" />
	</node>
	<node id="-283548" lat="58.7622500027" lon="8.72022778419">
		<tag k="name" v="Nesoddane" />
		<tag k="natural" v="cape" />
		<tag k="ssr:stedsnr" v="31229" />
	</node>
	<node id="-285595" lat="58.7756305556" lon="8.87330833985">
		<tag k="name" v="Haukedalstjenna" />
		<tag k="natural" v="water" />
		<tag k="ssr:stedsnr" v="730421" />
	</node>
	<node id="-285592" lat="58.6574472261" lon="8.78188888079">
		<tag k="name" v="Langtjenn" />
		<tag k="natural" v="water" />
		<tag k="ssr:stedsnr" v="729948" />
	</node>
	<node id="-285591" lat="58.7536388877" lon="8.70466389651">
		<tag k="alt_name" v="Råbbutjenn" />
		<tag k="name" v="Råbutjørna" />
		<tag k="natural" v="water" />
		<tag k="ssr:stedsnr" v="729936" />
	</node>
	<node id="-285588" lat="58.8247083362" lon="8.77801389421">
		<tag k="alt_name" v="Korttjenn" />
		<tag k="name" v="Korttjørn" />
		<tag k="natural" v="water" />
		<tag k="ssr:stedsnr" v="729704" />
	</node>
	<node id="-285587" lat="58.8253222252" lon="8.83350277792">
		<tag k="name" v="Kverntjenn" />
		<tag k="natural" v="water" />
		<tag k="ssr:stedsnr" v="729687" />
	</node>
	<node id="-285586" lat="58.7895833369" lon="8.73007500815">
		<tag k="name" v="Degernes" />
		<tag k="natural" v="cape" />
		<tag k="ssr:stedsnr" v="729616" />
	</node>
	<node id="-285585" lat="58.7906111099" lon="8.67245000738">
		<tag k="alt_name" v="Skålvann, nedre" />
		<tag k="name" v="Nedre Skålvann" />
		<tag k="natural" v="water" />
		<tag k="ssr:stedsnr" v="729608" />
	</node>
	<node id="-283535" lat="58.7703916659" lon="8.92826111688">
		<tag k="name" v="Lågtjenn" />
		<tag k="natural" v="water" />
		<tag k="ssr:stedsnr" v="31287" />
	</node>
	<node id="-285581" lat="58.7220444413" lon="8.93783888794">
		<tag k="name" v="Værlandstjenn" />
		<tag k="natural" v="water" />
		<tag k="ssr:stedsnr" v="729562" />
	</node>
	<node id="-283532" lat="58.732680559" lon="8.92260832921">
		<tag k="name" v="Nilstjenn" />
		<tag k="natural" v="water" />
		<tag k="ssr:stedsnr" v="31275" />
	</node>
	<node id="-283530" lat="58.7000055573" lon="8.95612778126">
		<tag k="name" v="Nattvassbekken" />
		<tag k="ssr:stedsnr" v="31270" />
		<tag k="waterway" v="stream" />
	</node>
	<node id="-283529" lat="58.740702778" lon="8.91688888303">
		<tag k="name" v="Torsmyrtjenn" />
		<tag k="natural" v="water" />
		<tag k="ssr:stedsnr" v="31266" />
	</node>
	<node id="-285576" lat="58.8060750014" lon="8.98835832607">
		<tag k="name" v="Kverntjenna" />
		<tag k="natural" v="water" />
		<tag k="ssr:stedsnr" v="729468" />
	</node>
	<node id="-285570" lat="58.7625416695" lon="9.00135278387">
		<tag k="alt_name" v="Øylona" />
		<tag k="name" v="Øylonene" />
		<tag k="place" v="locality" />
		<tag k="ssr:stedsnr" v="729385" />
	</node>
	<node id="-285568" lat="58.8481083308" lon="8.86852500472">
		<tag k="name" v="Ormebekk" />
		<tag k="ssr:stedsnr" v="729130" />
		<tag k="waterway" v="stream" />
	</node>
	<node id="-285567" lat="58.7251222249" lon="8.63944166075">
		<tag k="alt_name" v="Holmetjørn" />
		<tag k="name" v="Holmetjenn" />
		<tag k="natural" v="water" />
		<tag k="ssr:stedsnr" v="729123" />
	</node>
	<node id="-285566" lat="58.8394638931" lon="8.84447222062">
		<tag k="name" v="Suttjenn" />
		<tag k="natural" v="water" />
		<tag k="ssr:stedsnr" v="729115" />
	</node>
	<node id="-285564" lat="58.8427694425" lon="8.86082499953">
		<tag k="name" v="Langhøl" />
		<tag k="place" v="locality" />
		<tag k="ssr:stedsnr" v="729111" />
	</node>
	<node id="-283513" lat="58.7112305574" lon="8.88040832593">
		<tag k="name" v="Storholm" />
		<tag k="place" v="islet" />
		<tag k="ssr:stedsnr" v="31116" />
	</node>
	<node id="-283509" lat="58.6562944445" lon="8.83872777317">
		<tag k="name" v="Granodden" />
		<tag k="natural" v="cape" />
		<tag k="ssr:stedsnr" v="31091" />
	</node>
	<node id="-285556" lat="58.8239972182" lon="8.92318610988">
		<tag k="name" v="Dikstjenn" />
		<tag k="natural" v="water" />
		<tag k="ssr:stedsnr" v="729055" />
	</node>
	<node id="-283504" lat="58.7903499972" lon="8.84661667209">
		<tag k="name" v="Lauvøya" />
		<tag k="place" v="island" />
		<tag k="ssr:stedsnr" v="31081" />
	</node>
	<node id="-283503" lat="58.7956527822" lon="8.86266944455">
		<tag k="name" v="Kviftekilen" />
		<tag k="natural" v="bay" />
		<tag k="ssr:stedsnr" v="31078" />
	</node>
	<node id="-283502" lat="58.6507916649" lon="8.83059999397">
		<tag k="name" v="Musråtjennene" />
		<tag k="natural" v="water" />
		<tag k="ssr:stedsnr" v="31075" />
	</node>
	<node id="-283501" lat="58.7925694488" lon="8.8570500015">
		<tag k="name" v="Kjellingsbukta" />
		<tag k="natural" v="bay" />
		<tag k="ssr:stedsnr" v="31076" />
	</node>
	<node id="-283497" lat="58.7839805599" lon="8.83781944475">
		<tag k="name" v="Vestre Lomsøya" />
		<tag k="place" v="islet" />
		<tag k="ssr:stedsnr" v="31058" />
	</node>
	<node id="-283493" lat="58.7909861111" lon="8.9319249972">
		<tag k="name" v="Pøddetjenn" />
		<tag k="natural" v="water" />
		<tag k="ssr:stedsnr" v="31039" />
	</node>
	<node id="-285540" lat="58.7382527762" lon="8.63919721813">
		<tag k="name" v="Vålevassbekken" />
		<tag k="ssr:stedsnr" v="699982" />
		<tag k="waterway" v="stream" />
	</node>
	<node id="-285539" lat="58.7566944415" lon="8.71498056015">
		<tag k="name" v="Ramsåsbukta" />
		<tag k="natural" v="bay" />
		<tag k="ssr:stedsnr" v="699974" />
	</node>
	<node id="-285537" lat="58.7708722181" lon="8.6970583298">
		<tag k="name" v="Grandalsbekken" />
		<tag k="ssr:stedsnr" v="699956" />
		<tag k="waterway" v="stream" />
	</node>
	<node id="-285536" lat="58.7874722215" lon="8.70893333148">
		<tag k="name" v="Gråholmene" />
		<tag k="place" v="islet" />
		<tag k="ssr:stedsnr" v="699922" />
	</node>
	<node id="-285535" lat="58.7839388926" lon="8.68190555549">
		<tag k="name" v="Skålmobekken" />
		<tag k="ssr:stedsnr" v="699919" />
		<tag k="waterway" v="stream" />
	</node>
	<node id="-285534" lat="58.7910638898" lon="8.69593889259">
		<tag k="name" v="Kjellingbekken" />
		<tag k="ssr:stedsnr" v="699912" />
		<tag k="waterway" v="stream" />
	</node>
	<node id="-283450" lat="58.7574472264" lon="8.95911111168">
		<tag k="name" v="Litlevannet" />
		<tag k="natural" v="water" />
		<tag k="ssr:stedsnr" v="1392" />
	</node>
	<node id="-285528" lat="58.7532416661" lon="8.68807500339">
		<tag k="name" v="Kilsbukta" />
		<tag k="natural" v="bay" />
		<tag k="ssr:stedsnr" v="699871" />
	</node>
	<node id="-285527" lat="58.7939333374" lon="8.76816110916">
		<tag k="name" v="Bytteodden" />
		<tag k="natural" v="cape" />
		<tag k="ssr:stedsnr" v="699852" />
	</node>
	<node id="-283477" lat="58.6467777821" lon="8.79933888162">
		<tag k="name" v="Langtangen" />
		<tag k="natural" v="cape" />
		<tag k="ssr:stedsnr" v="31175" />
	</node>
	<node id="-283474" lat="58.726383335" lon="8.75699722643">
		<tag k="name" v="Sorttjenn" />
		<tag k="natural" v="water" />
		<tag k="ssr:stedsnr" v="31170" />
	</node>
	<node id="-283468" lat="58.6659055558" lon="8.81445555385">
		<tag k="name" v="Holmen" />
		<tag k="place" v="islet" />
		<tag k="ssr:stedsnr" v="31153" />
	</node>
	<node id="-285515" lat="58.7835916668" lon="8.79950833076">
		<tag k="name" v="Skotbekken" />
		<tag k="ssr:stedsnr" v="699752" />
		<tag k="waterway" v="stream" />
	</node>
	<node id="-283466" lat="58.775338888" lon="8.99810277752">
		<tag k="name" v="Saltvatnet" />
		<tag k="natural" v="water" />
		<tag k="ssr:stedsnr" v="2434" />
	</node>
	<node id="-283465" lat="58.7736166659" lon="8.97621111158">
		<tag k="alt_name" v="Simonstadvann" />
		<tag k="name" v="Simonstadvannet" />
		<tag k="natural" v="water" />
		<tag k="ssr:stedsnr" v="2430" />
	</node>
	<node id="-283460" lat="58.8419805598" lon="8.78481944359">
		<tag k="alt_name" v="Grønfjelltjenna" />
		<tag k="name" v="Grønfjelltjørna" />
		<tag k="natural" v="water" />
		<tag k="ssr:stedsnr" v="1658" />
	</node>
	<node id="-285507" lat="58.7279527803" lon="8.65192500727">
		<tag k="name" v="Pøddevik" />
		<tag k="natural" v="bay" />
		<tag k="ssr:stedsnr" v="699685" />
	</node>
	<node id="-284128" lat="58.781352781" lon="8.72038055675">
		<tag k="name" v="Espestøholmene" />
		<tag k="place" v="islet" />
		<tag k="ssr:stedsnr" v="153893" />
	</node>
	<node id="-285502" lat="58.665275003" lon="8.76134444872">
		<tag k="name" v="Store Tvitjenn" />
		<tag k="natural" v="water" />
		<tag k="ssr:stedsnr" v="699639" />
	</node>
	<node id="-285501" lat="58.6820388859" lon="8.73124166045">
		<tag k="name" v="Vassendbukta" />
		<tag k="natural" v="bay" />
		<tag k="ssr:stedsnr" v="699615" />
	</node>
	<node id="-285498" lat="58.80541944" lon="8.98294999568">
		<tag k="name" v="Skorstøltjenn" />
		<tag k="natural" v="water" />
		<tag k="ssr:stedsnr" v="699591" />
	</node>
	<node id="-283449" lat="58.8466833296" lon="8.89823332965">
		<tag k="name" v="Trytetjenn" />
		<tag k="natural" v="water" />
		<tag k="ssr:stedsnr" v="1150" />
	</node>
	<node id="-285496" lat="58.8021472262" lon="8.98031665949">
		<tag k="name" v="Pøddetjenn" />
		<tag k="natural" v="water" />
		<tag k="ssr:stedsnr" v="699583" />
	</node>
	<node id="-285495" lat="58.7848444477" lon="8.95894166797">
		<tag k="name" v="Langemyrtjenn" />
		<tag k="natural" v="water" />
		<tag k="ssr:stedsnr" v="699570" />
	</node>
	<node id="-285494" lat="58.7782250024" lon="8.71586666863">
		<tag k="name" v="Tjæreholmene" />
		<tag k="place" v="islet" />
		<tag k="ssr:stedsnr" v="699566" />
	</node>
	<node id="-283443" lat="58.8128250024" lon="8.86884166863">
		<tag k="name" v="Lauvøya" />
		<tag k="place" v="islet" />
		<tag k="ssr:stedsnr" v="1034" />
	</node>
	<node id="-285490" lat="58.7617861106" lon="8.96153611681">
		<tag k="name" v="Almedalshølen" />
		<tag k="place" v="locality" />
		<tag k="ssr:stedsnr" v="699523" />
	</node>
	<node id="-285488" lat="58.7548222197" lon="8.95302499918">
		<tag k="name" v="Maurtangtjenn" />
		<tag k="natural" v="water" />
		<tag k="ssr:stedsnr" v="699517" />
	</node>
	<node id="-285487" lat="58.7541444485" lon="8.9579888833">
		<tag k="name" v="Tåråldstjenn" />
		<tag k="natural" v="water" />
		<tag k="ssr:stedsnr" v="699516" />
	</node>
	<node id="-285486" lat="58.7637888868" lon="9.00287222962">
		<tag k="name" v="Djupmyrsundet" />
		<tag k="natural" v="strait" />
		<tag k="ssr:stedsnr" v="699500" />
	</node>
	<node id="-285485" lat="58.7506638853" lon="8.99877222145">
		<tag k="name" v="Åstesholme" />
		<tag k="place" v="islet" />
		<tag k="ssr:stedsnr" v="699495" />
	</node>
	<node id="-283436" lat="58.7710694416" lon="8.82611944599">
		<tag k="alt_name" v="Lauvetjenn, østre" />
		<tag k="name" v="Østre Lauvetjenn" />
		<tag k="natural" v="water" />
		<tag k="ssr:stedsnr" v="547" />
	</node>
	<node id="-283442" lat="58.8088305519" lon="8.98370277361">
		<tag k="name" v="Venlitjenn" />
		<tag k="natural" v="water" />
		<tag k="ssr:stedsnr" v="1020" />
	</node>
	<node id="-283433" lat="58.764524997" lon="8.88703055369">
		<tag k="name" v="Vatnebukilen" />
		<tag k="place" v="locality" />
		<tag k="ssr:stedsnr" v="440" />
	</node>
	<node id="-285479" lat="58.7440944476" lon="8.8902527765">
		<tag k="name" v="Svarte dammen" />
		<tag k="ssr:stedsnr" v="699475" />
		<tag k="waterway" v="dam" />
	</node>
	<node id="-285477" lat="58.7465777765" lon="8.89551665994">
		<tag k="name" v="Lilløysund" />
		<tag k="natural" v="strait" />
		<tag k="ssr:stedsnr" v="699469" />
	</node>
	<node id="-285475" lat="58.7510194473" lon="8.89108611515">
		<tag k="name" v="Såget" />
		<tag k="natural" v="strait" />
		<tag k="ssr:stedsnr" v="699461" />
	</node>
	<node id="-285472" lat="58.6979222241" lon="8.93531388361">
		<tag k="name" v="Grønnstehølen" />
		<tag k="place" v="locality" />
		<tag k="ssr:stedsnr" v="699448" />
	</node>
	<node id="-285470" lat="58.701113886" lon="8.89475278274">
		<tag k="name" v="Sagfossen" />
		<tag k="natural" v="waterfall" />
		<tag k="ssr:stedsnr" v="699443" />
	</node>
	<node id="-285469" lat="58.7046361118" lon="8.89112499863">
		<tag k="name" v="Tjenna" />
		<tag k="natural" v="water" />
		<tag k="ssr:stedsnr" v="699437" />
	</node>
	<node id="-285465" lat="58.8148444486" lon="8.85847221721">
		<tag k="name" v="Hagtjennholmen" />
		<tag k="place" v="islet" />
		<tag k="ssr:stedsnr" v="699414" />
	</node>
	<node id="-283414" lat="58.7680027772" lon="8.68742777077">
		<tag k="name" v="Graslitjenn" />
		<tag k="natural" v="water" />
		<tag k="ssr:stedsnr" v="881963" />
	</node>
	<node id="-283097" lat="58.8385583366" lon="8.84610277706">
		<tag k="name" v="Vestre depilen" />
		<tag k="natural" v="water" />
		<tag k="ssr:stedsnr" v="335444" />
	</node>
	<node id="-283412" lat="58.7717305531" lon="8.71571110701">
		<tag k="name" v="Fjellmannshalsen" />
		<tag k="natural" v="strait" />
		<tag k="ssr:stedsnr" v="881952" />
	</node>
	<node id="-285458" lat="58.7003749993" lon="8.86608611901">
		<tag k="name" v="Øksvasstangen" />
		<tag k="natural" v="cape" />
		<tag k="ssr:stedsnr" v="699388" />
	</node>
	<node id="-283409" lat="58.760269442" lon="8.6437333386">
		<tag k="name" v="Steinstjennene" />
		<tag k="natural" v="water" />
		<tag k="ssr:stedsnr" v="881935" />
	</node>
	<node id="-285456" lat="58.7079472254" lon="8.87884167008">
		<tag k="name" v="Åsvasstangen" />
		<tag k="natural" v="cape" />
		<tag k="ssr:stedsnr" v="699380" />
	</node>
	<node id="-285455" lat="58.8015944402" lon="8.87304166195">
		<tag k="name" v="Sevikbukta" />
		<tag k="natural" v="bay" />
		<tag k="ssr:stedsnr" v="699379" />
	</node>
	<node id="-283405" lat="58.807355559" lon="8.71481944666">
		<tag k="name" v="Londammen" />
		<tag k="ssr:stedsnr" v="881885" />
		<tag k="waterway" v="dam" />
	</node>
	<node id="-283404" lat="58.7380138885" lon="8.66441388426">
		<tag k="name" v="Hestetjenn" />
		<tag k="natural" v="water" />
		<tag k="ssr:stedsnr" v="881877" />
	</node>
	<node id="-283402" lat="58.7382750033" lon="8.67725278021">
		<tag k="name" v="Kråketjenn" />
		<tag k="natural" v="water" />
		<tag k="ssr:stedsnr" v="881866" />
	</node>
	<node id="-285447" lat="58.7676083311" lon="8.86316666764">
		<tag k="name" v="Stampeholmen" />
		<tag k="place" v="islet" />
		<tag k="ssr:stedsnr" v="699294" />
	</node>
	<node id="-283396" lat="58.7341055565" lon="8.64863611757">
		<tag k="name" v="Svarthøl" />
		<tag k="place" v="locality" />
		<tag k="ssr:stedsnr" v="395992" />
	</node>
	<node id="-283394" lat="58.7594805538" lon="8.71420832536">
		<tag k="name" v="Lille Lauvøyene" />
		<tag k="place" v="islet" />
		<tag k="ssr:stedsnr" v="395979" />
	</node>
	<node id="-283435" lat="58.7649916704" lon="8.96620832803">
		<tag k="name" v="Midttjenn" />
		<tag k="natural" v="water" />
		<tag k="ssr:stedsnr" v="451" />
	</node>
	<node id="-283390" lat="58.7659583348" lon="8.70210832904">
		<tag k="name" v="Knutsvollodden" />
		<tag k="natural" v="cape" />
		<tag k="ssr:stedsnr" v="395958" />
	</node>
	<node id="-283389" lat="58.7755416658" lon="8.71394443633">
		<tag k="name" v="Ormsundholmen" />
		<tag k="place" v="islet" />
		<tag k="ssr:stedsnr" v="395956" />
	</node>
	<node id="-285435" lat="58.7397611083" lon="8.91336667012">
		<tag k="name" v="Hyttetjenn" />
		<tag k="natural" v="water" />
		<tag k="ssr:stedsnr" v="699243" />
	</node>
	<node id="-285434" lat="58.7249027813" lon="8.94955833419">
		<tag k="name" v="Moltemyrtjenn" />
		<tag k="natural" v="water" />
		<tag k="ssr:stedsnr" v="699233" />
	</node>
	<node id="-283775" lat="58.7556944407" lon="8.73966944316">
		<tag k="name" v="Elvene" />
		<tag k="ssr:stedsnr" v="92231" />
		<tag k="waterway" v="river" />
	</node>
	<node id="-283384" lat="58.7873638896" lon="8.71194167062">
		<tag k="name" v="Båen" />
		<tag k="place" v="locality" />
		<tag k="seamark:type" v="rock" />
		<tag k="ssr:stedsnr" v="395929" />
	</node>
	<node id="-285431" lat="58.7601444404" lon="8.73215554937">
		<tag k="name" v="Leiulstadbukta" />
		<tag k="natural" v="bay" />
		<tag k="ssr:stedsnr" v="699217" />
	</node>
	<node id="-283382" lat="58.791205554" lon="8.69949999376">
		<tag k="name" v="Garpodden" />
		<tag k="natural" v="cape" />
		<tag k="ssr:stedsnr" v="395920" />
	</node>
	<node id="-285429" lat="58.7661805574" lon="8.74423056412">
		<tag k="name" v="Tjenneråstjenn" />
		<tag k="natural" v="water" />
		<tag k="ssr:stedsnr" v="699207" />
	</node>
	<node id="-285428" lat="58.6927277747" lon="8.74132222704">
		<tag k="name" v="Orholtodden" />
		<tag k="natural" v="cape" />
		<tag k="ssr:stedsnr" v="699196" />
	</node>
	<node id="-283379" lat="58.7769027799" lon="8.72649166667">
		<tag k="name" v="Viktjenn" />
		<tag k="natural" v="water" />
		<tag k="ssr:stedsnr" v="395886" />
	</node>
	<node id="-285426" lat="58.7075055567" lon="8.72339445112">
		<tag k="name" v="Lonene" />
		<tag k="natural" v="water" />
		<tag k="ssr:stedsnr" v="699184" />
		<tag k="water" v="lake" />
	</node>
	<node id="-283376" lat="58.7919916679" lon="8.72150278432">
		<tag k="name" v="Sønningodden" />
		<tag k="natural" v="cape" />
		<tag k="ssr:stedsnr" v="395842" />
	</node>
	<node id="-285423" lat="58.7483027763" lon="8.73009721657">
		<tag k="name" v="Sandustjenn" />
		<tag k="natural" v="water" />
		<tag k="ssr:stedsnr" v="699172" />
	</node>
	<node id="-283374" lat="58.8192444474" lon="8.79429167364">
		<tag k="name" v="Den brente bukta" />
		<tag k="natural" v="bay" />
		<tag k="ssr:stedsnr" v="395813" />
	</node>
	<node id="-283773" lat="58.7680638924" lon="8.79580833811">
		<tag k="name" v="Diplemyrtjenn" />
		<tag k="natural" v="water" />
		<tag k="ssr:stedsnr" v="92224" />
	</node>
	<node id="-283370" lat="58.7790944466" lon="8.81331388946">
		<tag k="name" v="Rugnestjenn" />
		<tag k="natural" v="water" />
		<tag k="ssr:stedsnr" v="395786" />
	</node>
	<node id="-285410" lat="58.7293222239" lon="8.73799165868">
		<tag k="name" v="Pøddetjenn" />
		<tag k="natural" v="water" />
		<tag k="ssr:stedsnr" v="699134" />
	</node>
	<node id="-285408" lat="58.8039027801" lon="8.76571945294">
		<tag k="name" v="Østre Bærøysund" />
		<tag k="natural" v="strait" />
		<tag k="ssr:stedsnr" v="699130" />
	</node>
	<node id="-285404" lat="58.7223611076" lon="8.85422777805">
		<tag k="name" v="Pongen" />
		<tag k="place" v="locality" />
		<tag k="ssr:stedsnr" v="699107" />
	</node>
	<node id="-283355" lat="58.8028194401" lon="8.97055278353">
		<tag k="name" v="Grombuelva" />
		<tag k="ssr:stedsnr" v="395640" />
		<tag k="waterway" v="river" />
	</node>
	<node id="-283353" lat="58.7888472249" lon="8.85203332922">
		<tag k="name" v="Fiskeholmane" />
		<tag k="place" v="islet" />
		<tag k="ssr:stedsnr" v="395618" />
	</node>
	<node id="-283346" lat="58.7864833296" lon="8.97008889294">
		<tag k="name" v="Deildemyrtjenn" />
		<tag k="natural" v="water" />
		<tag k="ssr:stedsnr" v="395538" />
	</node>
	<node id="-283427" lat="58.8338777795" lon="8.84495000309">
		<tag k="name" v="Klingertjenn" />
		<tag k="natural" v="water" />
		<tag k="ssr:stedsnr" v="86" />
	</node>
	<node id="-285392" lat="58.6603888877" lon="8.83675000566">
		<tag k="name" v="Almbukta" />
		<tag k="natural" v="bay" />
		<tag k="ssr:stedsnr" v="699085" />
	</node>
	<node id="-284127" lat="58.7785194468" lon="8.71984722832">
		<tag k="name" v="Fiskarholmen" />
		<tag k="place" v="islet" />
		<tag k="ssr:stedsnr" v="153892" />
	</node>
	<node id="-285385" lat="58.7847361142" lon="8.8424694452">
		<tag k="name" v="Østre Lomsøya" />
		<tag k="place" v="island" />
		<tag k="ssr:stedsnr" v="699056" />
	</node>
	<node id="-285384" lat="58.7242944464" lon="8.859186106">
		<tag k="name" v="Bahusbekken" />
		<tag k="ssr:stedsnr" v="699055" />
		<tag k="waterway" v="stream" />
	</node>
	<node id="-285383" lat="58.7801861125" lon="8.85685833373">
		<tag k="name" v="Oddane" />
		<tag k="natural" v="cape" />
		<tag k="ssr:stedsnr" v="699052" />
	</node>
	<node id="-283329" lat="58.7090944459" lon="8.92805278451">
		<tag k="name" v="Flattjenn" />
		<tag k="natural" v="water" />
		<tag k="ssr:stedsnr" v="395436" />
	</node>
	<node id="-283328" lat="58.817958331" lon="8.86399721497">
		<tag k="name" v="Tungholmane" />
		<tag k="place" v="islet" />
		<tag k="ssr:stedsnr" v="395425" />
	</node>
	<node id="-283327" lat="58.8144611141" lon="8.86211388173">
		<tag k="name" v="Kåvholmen" />
		<tag k="place" v="islet" />
		<tag k="ssr:stedsnr" v="395426" />
	</node>
	<node id="-283326" lat="58.696172222" lon="8.8735972289">
		<tag k="name" v="Brattlitjenn" />
		<tag k="natural" v="water" />
		<tag k="ssr:stedsnr" v="395421" />
	</node>
	<node id="-285373" lat="58.7718194481" lon="8.72045000106">
		<tag k="name" v="Bås inn" />
		<tag k="natural" v="bay" />
		<tag k="ssr:stedsnr" v="699018" />
	</node>
	<node id="-285372" lat="58.7054944411" lon="8.80348611073">
		<tag k="name" v="Øvre Lona" />
		<tag k="natural" v="water" />
		<tag k="ssr:stedsnr" v="699014" />
		<tag k="water" v="lake" />
	</node>
	<node id="-284106" lat="58.8097249975" lon="8.96194722591">
		<tag k="name" v="Kvennhushølen" />
		<tag k="place" v="locality" />
		<tag k="ssr:stedsnr" v="153578" />
	</node>
	<node id="-283322" lat="58.707494447" lon="8.87144722576">
		<tag k="name" v="Sauhølen" />
		<tag k="natural" v="bay" />
		<tag k="ssr:stedsnr" v="395407" />
	</node>
	<node id="-285369" lat="58.7692944445" lon="8.76902222732">
		<tag k="name" v="Bjørntjenn" />
		<tag k="natural" v="water" />
		<tag k="ssr:stedsnr" v="699001" />
	</node>
	<node id="-285367" lat="58.7769833364" lon="8.97096944092">
		<tag k="name" v="Øygardstjenn" />
		<tag k="natural" v="water" />
		<tag k="ssr:stedsnr" v="669420" />
	</node>
	<node id="-285366" lat="58.7811777774" lon="8.96901111496">
		<tag k="name" v="Lomstjenn" />
		<tag k="natural" v="water" />
		<tag k="ssr:stedsnr" v="669418" />
	</node>
	<node id="-285365" lat="58.7814305601" lon="8.94693889559">
		<tag k="name" v="Bjorvann" />
		<tag k="natural" v="water" />
		<tag k="ssr:stedsnr" v="669415" />
		<tag k="water" v="lake" />
	</node>
	<node id="-285363" lat="58.6668583307" lon="8.80427222745">
		<tag k="name" v="Kleivekilen" />
		<tag k="natural" v="water" />
		<tag k="ssr:stedsnr" v="668958" />
	</node>
	<node id="-283314" lat="58.75841389" lon="8.89451388609">
		<tag k="name" v="Neset" />
		<tag k="natural" v="cape" />
		<tag k="ssr:stedsnr" v="395320" />
	</node>
	<node id="-285361" lat="58.7517027819" lon="8.80478333142">
		<tag k="name" v="Eskjedalstjenna" />
		<tag k="natural" v="water" />
		<tag k="ssr:stedsnr" v="668933" />
	</node>
	<node id="-285360" lat="58.6918638901" lon="8.73964166463">
		<tag k="name" v="Selåsvann" />
		<tag k="natural" v="water" />
		<tag k="ssr:stedsnr" v="668921" />
	</node>
	<node id="-285356" lat="58.8339166682" lon="8.7754277726">
		<tag k="name" v="Blekkvasselva" />
		<tag k="ssr:stedsnr" v="668681" />
		<tag k="waterway" v="stream" />
	</node>
	<node id="-285353" lat="58.7314944489" lon="8.98141666027">
		<tag k="name" v="Uvann" />
		<tag k="natural" v="water" />
		<tag k="ssr:stedsnr" v="668565" />
		<tag k="water" v="lake" />
	</node>
	<node id="-283304" lat="58.7635833339" lon="8.88651111509">
		<tag k="name" v="Kontebø" />
		<tag k="natural" v="cape" />
		<tag k="ssr:stedsnr" v="395297" />
	</node>
	<node id="-285351" lat="58.7530277741" lon="8.98778055521">
		<tag k="alt_name" v="Ekksjø" />
		<tag k="name" v="Eksjø" />
		<tag k="natural" v="water" />
		<tag k="ssr:stedsnr" v="668384" />
		<tag k="water" v="lake" />
	</node>
	<node id="-285349" lat="58.7214722246" lon="8.65719443685">
		<tag k="alt_name" v="Eikåstjørn, østre" />
		<tag k="name" v="Østre Eikåstjenn" />
		<tag k="natural" v="water" />
		<tag k="ssr:stedsnr" v="668105" />
	</node>
	<node id="-283298" lat="58.7422277733" lon="8.92208333228">
		<tag k="name" v="Blomstjenn" />
		<tag k="natural" v="water" />
		<tag k="ssr:stedsnr" v="395280" />
	</node>
	<node id="-283296" lat="58.6991055579" lon="8.94946667367">
		<tag k="name" v="Svintokstjenn" />
		<tag k="natural" v="water" />
		<tag k="ssr:stedsnr" v="395276" />
	</node>
	<node id="-283648" lat="58.7499527738" lon="8.66500834172">
		<tag k="name" v="Rundtjenn" />
		<tag k="natural" v="water" />
		<tag k="ssr:stedsnr" v="31993" />
	</node>
	<node id="-283288" lat="58.7054888878" lon="8.7485305476">
		<tag k="name" v="Laugarhølen" />
		<tag k="place" v="locality" />
		<tag k="ssr:stedsnr" v="395252" />
	</node>
	<node id="-283286" lat="58.7559722242" lon="8.72141388321">
		<tag k="name" v="Tjusslibukta" />
		<tag k="natural" v="bay" />
		<tag k="ssr:stedsnr" v="395245" />
	</node>
	<node id="-285331" lat="58.7517750022" lon="8.70172777479">
		<tag k="name" v="Råbbubekken" />
		<tag k="ssr:stedsnr" v="638997" />
		<tag k="waterway" v="stream" />
	</node>
	<node id="-285330" lat="58.7534527755" lon="8.6965638871">
		<tag k="name" v="Bjelkebukta" />
		<tag k="natural" v="bay" />
		<tag k="ssr:stedsnr" v="638996" />
	</node>
	<node id="-285329" lat="58.7334444416" lon="8.64523611043">
		<tag k="name" v="Gullaugshøl" />
		<tag k="place" v="locality" />
		<tag k="ssr:stedsnr" v="638992" />
	</node>
	<node id="-283792" lat="58.7397749989" lon="8.85935000044">
		<tag k="name" v="Hovbrulona" />
		<tag k="natural" v="water" />
		<tag k="ssr:stedsnr" v="92303" />
		<tag k="water" v="lake" />
	</node>
	<node id="-284125" lat="58.8086888929" lon="8.77507222441">
		<tag k="name" v="Holebukta" />
		<tag k="natural" v="bay" />
		<tag k="ssr:stedsnr" v="153847" />
	</node>
	<node id="-285325" lat="58.7696777759" lon="8.71201667407">
		<tag k="name" v="Langøysund" />
		<tag k="natural" v="strait" />
		<tag k="ssr:stedsnr" v="638956" />
	</node>
	<node id="-285324" lat="58.7758694476" lon="8.71341110511">
		<tag k="name" v="Viøyholmen" />
		<tag k="place" v="islet" />
		<tag k="ssr:stedsnr" v="638951" />
	</node>
	<node id="-283275" lat="58.8165305513" lon="8.722588886">
		<tag k="name" v="Farslåttjenn" />
		<tag k="natural" v="water" />
		<tag k="ssr:stedsnr" v="395185" />
	</node>
	<node id="-285319" lat="58.7907083355" lon="8.70937222986">
		<tag k="name" v="Rausanden" />
		<tag k="natural" v="beach" />
		<tag k="ssr:stedsnr" v="638924" />
	</node>
	<node id="-285318" lat="58.7847249969" lon="8.70668056189">
		<tag k="name" v="Lille Orrenesøya" />
		<tag k="place" v="islet" />
		<tag k="ssr:stedsnr" v="638920" />
	</node>
	<node id="-283073" lat="58.774824997" lon="8.89892500379">
		<tag k="name" v="Jonsmyrdammen" />
		<tag k="ssr:stedsnr" v="335299" />
		<tag k="waterway" v="dam" />
	</node>
	<node id="-285313" lat="58.7832666684" lon="8.7201694363">
		<tag k="name" v="Søstrene" />
		<tag k="place" v="islet" />
		<tag k="ssr:stedsnr" v="638862" />
	</node>
	<node id="-283264" lat="58.8017861098" lon="8.76166111389">
		<tag k="name" v="Vestre Bærøysund" />
		<tag k="natural" v="strait" />
		<tag k="ssr:stedsnr" v="395150" />
	</node>
	<node id="-285309" lat="58.8024611147" lon="8.80044166274">
		<tag k="name" v="Løvikbukta" />
		<tag k="natural" v="bay" />
		<tag k="ssr:stedsnr" v="638828" />
	</node>
	<node id="-285308" lat="58.8026416682" lon="8.77457221463">
		<tag k="name" v="Forøytjenn" />
		<tag k="natural" v="water" />
		<tag k="ssr:stedsnr" v="638827" />
	</node>
	<node id="-283754" lat="58.667127781" lon="8.81940833533">
		<tag k="name" v="Snarsund" />
		<tag k="natural" v="strait" />
		<tag k="ssr:stedsnr" v="92144" />
	</node>
	<node id="-285306" lat="58.7930277822" lon="8.74412777256">
		<tag k="name" v="Jaransholmene" />
		<tag k="place" v="islet" />
		<tag k="ssr:stedsnr" v="638823" />
	</node>
	<node id="-283250" lat="58.6589722228" lon="8.83033334129">
		<tag k="name" v="Breiviktjennene" />
		<tag k="natural" v="water" />
		<tag k="ssr:stedsnr" v="395112" />
	</node>
	<node id="-285296" lat="58.7889694429" lon="8.79731667327">
		<tag k="name" v="Vrakbukta" />
		<tag k="natural" v="bay" />
		<tag k="ssr:stedsnr" v="638770" />
	</node>
	<node id="-285295" lat="58.779749996" lon="8.78813055928">
		<tag k="name" v="Ufsdalsbekken" />
		<tag k="ssr:stedsnr" v="638765" />
		<tag k="waterway" v="stream" />
	</node>
	<node id="-285294" lat="58.8591638872" lon="8.79059445079">
		<tag k="name" v="Olsoktjenn" />
		<tag k="natural" v="water" />
		<tag k="ssr:stedsnr" v="638762" />
	</node>
	<node id="-283244" lat="58.7853583363" lon="8.82986665872">
		<tag k="name" v="Vestre Stogøya" />
		<tag k="place" v="islet" />
		<tag k="ssr:stedsnr" v="395078" />
	</node>
	<node id="-283242" lat="58.7861138899" lon="8.84501111766">
		<tag k="name" v="Grunnesund" />
		<tag k="natural" v="strait" />
		<tag k="ssr:stedsnr" v="395073" />
	</node>
	<node id="-286140" lat="58.7578138856" lon="8.72076667003">
		<tag k="name" v="Ramskårholmen" />
		<tag k="place" v="islet" />
		<tag k="ssr:stedsnr" v="881231" />
	</node>
	<node id="-283238" lat="58.7811944424" lon="8.91541944095">
		<tag k="name" v="Danmark" />
		<tag k="place" v="islet" />
		<tag k="ssr:stedsnr" v="395048" />
	</node>
	<node id="-283237" lat="58.78451111" lon="8.91678888603">
		<tag k="name" v="Ranneistjenn" />
		<tag k="natural" v="bay" />
		<tag k="ssr:stedsnr" v="395045" />
	</node>
	<node id="-285284" lat="58.7229083313" lon="8.64925000624">
		<tag k="name" v="Sjurstjenn" />
		<tag k="natural" v="water" />
		<tag k="ssr:stedsnr" v="638700" />
	</node>
	<node id="-285281" lat="58.7265611077" lon="8.66730555699">
		<tag k="name" v="Taterhøl" />
		<tag k="place" v="locality" />
		<tag k="ssr:stedsnr" v="638691" />
	</node>
	<node id="-283227" lat="58.7032388912" lon="8.8058527743">
		<tag k="name" v="Smalsund" />
		<tag k="natural" v="strait" />
		<tag k="ssr:stedsnr" v="395010" />
	</node>
	<node id="-285270" lat="58.790852776" lon="8.9584527776">
		<tag k="name" v="Stokken" />
		<tag k="natural" v="strait" />
		<tag k="ssr:stedsnr" v="638598" />
	</node>
	<node id="-283220" lat="58.7769527784" lon="8.90313056125">
		<tag k="alt_name" v="Tollslåttjennene" />
		<tag k="name" v="Tollslåttjenna" />
		<tag k="natural" v="water" />
		<tag k="ssr:stedsnr" v="366417" />
	</node>
	<node id="-285267" lat="58.7812027781" lon="8.70922222878">
		<tag k="name" v="Basskjær" />
		<tag k="place" v="islet" />
		<tag k="ssr:stedsnr" v="638578" />
	</node>
	<node id="-283933" lat="58.7632305533" lon="8.77593334046">
		<tag k="alt_name" v="Sågtjenn" />
		<tag k="name" v="Sogtjørn" />
		<tag k="natural" v="water" />
		<tag k="ssr:stedsnr" v="122518" />
	</node>
	<node id="-283216" lat="58.8167694471" lon="8.70224444204">
		<tag k="alt_name" v="Bjordamstjenna" />
		<tag k="name" v="Bjordamstjørna" />
		<tag k="natural" v="water" />
		<tag k="ssr:stedsnr" v="365675" />
	</node>
	<node id="-285263" lat="58.7388944408" lon="8.96138611458">
		<tag k="name" v="Pollen" />
		<tag k="natural" v="bay" />
		<tag k="ssr:stedsnr" v="638541" />
	</node>
	<node id="-285261" lat="58.7350416686" lon="8.95109999587">
		<tag k="name" v="Takseråstjenn" />
		<tag k="natural" v="water" />
		<tag k="ssr:stedsnr" v="638525" />
	</node>
	<node id="-283168" lat="58.7890861093" lon="8.68581111865">
		<tag k="name" v="Skålbekken" />
		<tag k="ssr:stedsnr" v="335936" />
		<tag k="waterway" v="stream" />
	</node>
	<node id="-285258" lat="58.7931166689" lon="8.98810000219">
		<tag k="name" v="Svarthol" />
		<tag k="natural" v="water" />
		<tag k="ssr:stedsnr" v="638493" />
	</node>
	<node id="-285257" lat="58.7894305595" lon="8.98338333443">
		<tag k="name" v="Stormyrfossen" />
		<tag k="natural" v="waterfall" />
		<tag k="ssr:stedsnr" v="638492" />
	</node>
	<node id="-283208" lat="58.7714305539" lon="8.64736389299">
		<tag k="alt_name" v="Hellersvatn" />
		<tag k="fixme" v="multiple name tags, choose one and add the other to alt_name" />
		<tag k="name" v="Hellersvann;Hellersvatnet" />
		<tag k="natural" v="water" />
		<tag k="ssr:stedsnr" v="365530" />
		<tag k="water" v="lake" />
	</node>
	<node id="-285255" lat="58.7796250031" lon="9.00294444788">
		<tag k="name" v="Stokken" />
		<tag k="natural" v="strait" />
		<tag k="ssr:stedsnr" v="638479" />
	</node>
	<node id="-285251" lat="58.752891666" lon="9.00191945128">
		<tag k="name" v="Løyndetjenn" />
		<tag k="natural" v="water" />
		<tag k="ssr:stedsnr" v="638462" />
	</node>
	<node id="-285248" lat="58.7500138927" lon="8.9645722295">
		<tag k="name" v="Pøddetjenn" />
		<tag k="natural" v="water" />
		<tag k="ssr:stedsnr" v="638445" />
	</node>
	<node id="-285247" lat="58.742016667" lon="8.8857694528">
		<tag k="name" v="Råstjenn" />
		<tag k="natural" v="water" />
		<tag k="ssr:stedsnr" v="638435" />
	</node>
	<node id="-283196" lat="58.7696111156" lon="8.82372222276">
		<tag k="alt_name" v="Lauvetjenn, vestre" />
		<tag k="name" v="Vestre Lauvetjenn" />
		<tag k="natural" v="water" />
		<tag k="ssr:stedsnr" v="364568" />
	</node>
	<node id="-283195" lat="58.760072225" lon="8.65750832879">
		<tag k="name" v="Langtjenn" />
		<tag k="natural" v="water" />
		<tag k="ssr:stedsnr" v="364553" />
	</node>
	<node id="-285241" lat="58.6972777773" lon="8.91359444162">
		<tag k="name" v="Songetjennbekken" />
		<tag k="ssr:stedsnr" v="638421" />
		<tag k="waterway" v="stream" />
	</node>
	<node id="-283191" lat="58.7683777799" lon="8.70972777419">
		<tag k="alt_name" v="Store Drogløy" />
		<tag k="name" v="Store Drogløya" />
		<tag k="place" v="islet" />
		<tag k="ssr:stedsnr" v="364508" />
	</node>
	<node id="-285236" lat="58.8182194403" lon="8.83611666416">
		<tag k="name" v="Rennsunda" />
		<tag k="natural" v="strait" />
		<tag k="ssr:stedsnr" v="638389" />
	</node>
	<node id="-283187" lat="58.7207305591" lon="8.64563333532">
		<tag k="alt_name" v="Eikåstjørn, vestre" />
		<tag k="name" v="Vestre Eikåstjenn" />
		<tag k="natural" v="water" />
		<tag k="ssr:stedsnr" v="364133" />
	</node>
	<node id="-284083" lat="58.8111888898" lon="8.87222222499">
		<tag k="name" v="Den brente odden" />
		<tag k="natural" v="cape" />
		<tag k="ssr:stedsnr" v="153381" />
	</node>
	<node id="-283184" lat="58.8277694467" lon="8.92639722224">
		<tag k="name" v="Nuttjenn" />
		<tag k="natural" v="water" />
		<tag k="ssr:stedsnr" v="364076" />
	</node>
	<node id="-285231" lat="58.8265361103" lon="8.896969436">
		<tag k="name" v="Grendalstjenn" />
		<tag k="natural" v="water" />
		<tag k="ssr:stedsnr" v="638378" />
	</node>
	<node id="-285230" lat="58.7008305577" lon="8.86464445252">
		<tag k="name" v="Øksvasskilen" />
		<tag k="natural" v="bay" />
		<tag k="ssr:stedsnr" v="638374" />
	</node>
	<node id="-285227" lat="58.8077305518" lon="8.8560916743">
		<tag k="name" v="Åndeleiken" />
		<tag k="place" v="islet" />
		<tag k="ssr:stedsnr" v="638365" />
	</node>
	<node id="-285225" lat="58.7990611103" lon="8.85393889075">
		<tag k="name" v="Sundtangen" />
		<tag k="natural" v="cape" />
		<tag k="ssr:stedsnr" v="638362" />
	</node>
	<node id="-283123" lat="58.8076472191" lon="8.9651305526">
		<tag k="name" v="Rothøl" />
		<tag k="place" v="locality" />
		<tag k="ssr:stedsnr" v="335570" />
	</node>
	<node id="-283175" lat="58.7535861108" lon="8.69169165978">
		<tag k="name" v="Ranvikodden" />
		<tag k="natural" v="cape" />
		<tag k="ssr:stedsnr" v="335999" />
	</node>
	<node id="-283174" lat="58.7477222226" lon="8.64228333368">
		<tag k="name" v="Øya" />
		<tag k="place" v="islet" />
		<tag k="ssr:stedsnr" v="335981" />
	</node>
	<node id="-285221" lat="58.7460472252" lon="8.89309722943">
		<tag k="name" v="Tangane" />
		<tag k="natural" v="cape" />
		<tag k="ssr:stedsnr" v="638309" />
	</node>
	<node id="-285219" lat="58.755588892" lon="8.86668332514">
		<tag k="name" v="Søglebekklona" />
		<tag k="natural" v="water" />
		<tag k="ssr:stedsnr" v="638283" />
		<tag k="water" v="lake" />
	</node>
	<node id="-285218" lat="58.7909583297" lon="8.77289444342">
		<tag k="name" v="Gunnuvstjenn" />
		<tag k="natural" v="water" />
		<tag k="ssr:stedsnr" v="638279" />
	</node>
	<node id="-283169" lat="58.785747225" lon="8.71334722587">
		<tag k="name" v="Varholmene" />
		<tag k="place" v="islet" />
		<tag k="ssr:stedsnr" v="335943" />
	</node>
	<node id="-285216" lat="58.7465805512" lon="8.98669721511">
		<tag k="name" v="Jerpedalstjenn (øvre)" />
		<tag k="natural" v="water" />
		<tag k="ssr:stedsnr" v="638270" />
	</node>
	<node id="-285215" lat="58.7606694406" lon="8.92708610402">
		<tag k="name" v="Langtjenn" />
		<tag k="natural" v="water" />
		<tag k="ssr:stedsnr" v="638268" />
	</node>
	<node id="-283164" lat="58.7775888878" lon="8.71852221925">
		<tag k="name" v="Lille Langøy" />
		<tag k="place" v="islet" />
		<tag k="ssr:stedsnr" v="335885" />
	</node>
	<node id="-283161" lat="58.7881555587" lon="8.75251944917">
		<tag k="name" v="Bjørntangen" />
		<tag k="natural" v="cape" />
		<tag k="ssr:stedsnr" v="335867" />
	</node>
	<node id="-283160" lat="58.7968388923" lon="8.75581388855">
		<tag k="name" v="Tangnebba" />
		<tag k="natural" v="cape" />
		<tag k="ssr:stedsnr" v="335862" />
	</node>
	<node id="-284420" lat="58.6717499991" lon="8.75944444817">
		<tag k="name" v="Bjorhustjenn" />
		<tag k="natural" v="water" />
		<tag k="ssr:stedsnr" v="243966" />
	</node>
	<node id="-283157" lat="58.8093777789" lon="8.7806055478">
		<tag k="name" v="Oddane" />
		<tag k="natural" v="cape" />
		<tag k="ssr:stedsnr" v="335839" />
	</node>
	<node id="-283155" lat="58.7948305528" lon="8.79590834046">
		<tag k="name" v="Kilansbukta" />
		<tag k="natural" v="bay" />
		<tag k="ssr:stedsnr" v="335793" />
	</node>
	<node id="-284419" lat="58.8188805511" lon="8.81180277002">
		<tag k="alt_name" v="Den svarte tjenna" />
		<tag k="name" v="Svarttjenn" />
		<tag k="natural" v="water" />
		<tag k="ssr:stedsnr" v="243675" />
	</node>
	<node id="-282825" lat="58.8000972233" lon="8.75276667162">
		<tag k="name" v="Ålkjerrtjenn" />
		<tag k="natural" v="water" />
		<tag k="ssr:stedsnr" v="274132" />
	</node>
	<node id="-283148" lat="58.7301083349" lon="8.64646666337">
		<tag k="name" v="Ufsvassroa" />
		<tag k="natural" v="bay" />
		<tag k="ssr:stedsnr" v="335728" />
	</node>
	<node id="-283147" lat="58.7296444437" lon="8.65214166721">
		<tag k="name" v="Timmernes" />
		<tag k="natural" v="cape" />
		<tag k="ssr:stedsnr" v="335727" />
	</node>
	<node id="-283146" lat="58.7148999983" lon="8.71042500392">
		<tag k="name" v="Lille Stavtjenn" />
		<tag k="natural" v="water" />
		<tag k="ssr:stedsnr" v="335715" />
	</node>
	<node id="-283145" lat="58.7160916663" lon="8.70175832947">
		<tag k="name" v="Langåstjenn" />
		<tag k="natural" v="water" />
		<tag k="ssr:stedsnr" v="335714" />
	</node>
	<node id="-283142" lat="58.6639027775" lon="8.76553611475">
		<tag k="name" v="Lille Tvitjenn" />
		<tag k="natural" v="water" />
		<tag k="ssr:stedsnr" v="335686" />
	</node>
	<node id="-283393" lat="58.7571111132" lon="8.70845000308">
		<tag k="name" v="Sinesbukta" />
		<tag k="natural" v="bay" />
		<tag k="ssr:stedsnr" v="395976" />
	</node>
	<node id="-283132" lat="58.79915278" lon="8.97554167088">
		<tag k="name" v="Butangen" />
		<tag k="natural" v="cape" />
		<tag k="ssr:stedsnr" v="335623" />
	</node>
	<node id="-283127" lat="58.7841500024" lon="8.95153054903">
		<tag k="name" v="Bjorbukta" />
		<tag k="natural" v="water" />
		<tag k="ssr:stedsnr" v="335608" />
		<tag k="water" v="lake" />
	</node>
	<node id="-284188" lat="58.8289388874" lon="8.82363055844">
		<tag k="alt_name" v="Takstjenn, vestre" />
		<tag k="name" v="Vestre Tokstjenn" />
		<tag k="natural" v="water" />
		<tag k="ssr:stedsnr" v="183630" />
	</node>
	<node id="-285169" lat="58.6555361083" lon="8.75830833167">
		<tag k="name" v="Bøykfoss" />
		<tag k="natural" v="waterfall" />
		<tag k="ssr:stedsnr" v="638124" />
	</node>
	<node id="-283116" lat="58.7947444455" lon="8.98359721933">
		<tag k="name" v="Glipen" />
		<tag k="natural" v="strait" />
		<tag k="ssr:stedsnr" v="335529" />
	</node>
	<node id="-283730" lat="58.7919749986" lon="8.85497221388">
		<tag k="name" v="Kvifteholmen" />
		<tag k="place" v="islet" />
		<tag k="ssr:stedsnr" v="92067" />
	</node>
	<node id="-283114" lat="58.7609916671" lon="8.99971111472">
		<tag k="name" v="Merkarsundet" />
		<tag k="natural" v="strait" />
		<tag k="ssr:stedsnr" v="335521" />
	</node>
	<node id="-283111" lat="58.7306972238" lon="8.95880555332">
		<tag k="name" v="Langtjenn" />
		<tag k="natural" v="water" />
		<tag k="ssr:stedsnr" v="335502" />
	</node>
	<node id="-285154" lat="58.7923638898" lon="8.66499167012">
		<tag k="name" v="Vannmellom" />
		<tag k="natural" v="cape" />
		<tag k="ssr:stedsnr" v="638086" />
	</node>
	<node id="-285149" lat="58.7946444415" lon="8.86206666822">
		<tag k="name" v="Jordsøya" />
		<tag k="place" v="islet" />
		<tag k="ssr:stedsnr" v="638072" />
	</node>
	<node id="-285148" lat="58.7894694469" lon="8.85963334042">
		<tag k="name" v="Blakken" />
		<tag k="natural" v="shoal" />
		<tag k="place" v="locality" />
		<tag k="ssr:stedsnr" v="638067" />
	</node>
	<node id="-283099" lat="58.8227194435" lon="8.87728333562">
		<tag k="name" v="Haukstøltjenn" />
		<tag k="natural" v="water" />
		<tag k="ssr:stedsnr" v="335449" />
	</node>
	<node id="-285145" lat="58.7809111138" lon="8.83722500348">
		<tag k="name" v="Salvesnes" />
		<tag k="natural" v="cape" />
		<tag k="ssr:stedsnr" v="638060" />
	</node>
	<node id="-283094" lat="58.8142666631" lon="8.86314723011">
		<tag k="name" v="Galtholmane" />
		<tag k="place" v="islet" />
		<tag k="ssr:stedsnr" v="335430" />
	</node>
	<node id="-285141" lat="58.7931777752" lon="8.92666389512">
		<tag k="name" v="Kallbergstangen" />
		<tag k="natural" v="cape" />
		<tag k="ssr:stedsnr" v="638043" />
	</node>
	<node id="-285138" lat="58.6890083316" lon="8.91111388454">
		<tag k="name" v="Haukelonkilen" />
		<tag k="natural" v="bay" />
		<tag k="ssr:stedsnr" v="638034" />
	</node>
	<node id="-285136" lat="58.7684027755" lon="8.72221388287">
		<tag k="name" v="Nordtangen" />
		<tag k="natural" v="cape" />
		<tag k="ssr:stedsnr" v="638023" />
	</node>
	<node id="-285135" lat="58.7705777763" lon="8.73268611209">
		<tag k="name" v="Kvernbekken" />
		<tag k="ssr:stedsnr" v="638021" />
		<tag k="waterway" v="stream" />
	</node>
	<node id="-283086" lat="58.8001777817" lon="8.85669444298">
		<tag k="name" v="Steffensøy" />
		<tag k="place" v="islet" />
		<tag k="ssr:stedsnr" v="335391" />
	</node>
	<node id="-285133" lat="58.7730500038" lon="8.72378333434">
		<tag k="name" v="Sauesund" />
		<tag k="natural" v="strait" />
		<tag k="ssr:stedsnr" v="638019" />
	</node>
	<node id="-285132" lat="58.772405552" lon="8.71931388625">
		<tag k="name" v="Skåtholmsund" />
		<tag k="natural" v="strait" />
		<tag k="ssr:stedsnr" v="638017" />
	</node>
	<node id="-283383" lat="58.791438892" lon="8.70092777747">
		<tag k="name" v="Moensbukta" />
		<tag k="natural" v="bay" />
		<tag k="ssr:stedsnr" v="395923" />
	</node>
	<node id="-283079" lat="58.8151416683" lon="8.88089999944">
		<tag k="name" v="Tanghola" />
		<tag k="natural" v="bay" />
		<tag k="ssr:stedsnr" v="335367" />
	</node>
	<node id="-285126" lat="58.7724805586" lon="8.95881665951">
		<tag k="name" v="Vestre Gruvetjenn" />
		<tag k="natural" v="water" />
		<tag k="ssr:stedsnr" v="608414" />
	</node>
	<node id="-285123" lat="58.7931416629" lon="8.70997499527">
		<tag k="alt_name" v="Litjenn" />
		<tag k="name" v="Litjørn" />
		<tag k="natural" v="bay" />
		<tag k="ssr:stedsnr" v="607619" />
	</node>
	<node id="-285122" lat="58.7824027809" lon="8.69617499539">
		<tag k="name" v="Gorrtangbukta" />
		<tag k="natural" v="bay" />
		<tag k="ssr:stedsnr" v="607600" />
	</node>
	<node id="-285121" lat="58.8151250026" lon="8.78330555301">
		<tag k="alt_name" v="Homstjenn" />
		<tag k="name" v="Homstjørn" />
		<tag k="natural" v="water" />
		<tag k="ssr:stedsnr" v="607584" />
	</node>
	<node id="-285120" lat="58.7986666685" lon="8.68445277772">
		<tag k="alt_name" v="Taklitjenna" />
		<tag k="name" v="Taklitjørna" />
		<tag k="natural" v="water" />
		<tag k="ssr:stedsnr" v="607570" />
	</node>
	<node id="-283070" lat="58.7324194487" lon="8.92690832494">
		<tag k="name" v="Trytetjenn" />
		<tag k="natural" v="water" />
		<tag k="ssr:stedsnr" v="335277" />
	</node>
	<node id="-285116" lat="58.7460166693" lon="8.87892221987">
		<tag k="alt_name" v="Øvre Korsdalstjenna" />
		<tag k="name" v="Korsdalstjenn" />
		<tag k="natural" v="water" />
		<tag k="ssr:stedsnr" v="607542" />
	</node>
	<node id="-285115" lat="58.7741000004" lon="8.71813610814">
		<tag k="name" v="Langøya" />
		<tag k="place" v="islet" />
		<tag k="ssr:stedsnr" v="607519" />
	</node>
	<node id="-285114" lat="58.776305557" lon="8.80732778356">
		<tag k="alt_name" v="Niptjenn, nedre" />
		<tag k="name" v="Nedre Niptjenn" />
		<tag k="natural" v="water" />
		<tag k="ssr:stedsnr" v="607516" />
	</node>
	<node id="-285113" lat="58.7004527802" lon="8.92224443773">
		<tag k="alt_name" v="Songetjennene" />
		<tag k="name" v="Songetjenna" />
		<tag k="natural" v="water" />
		<tag k="ssr:stedsnr" v="607497" />
	</node>
	<node id="-283064" lat="58.7344055516" lon="8.85282778375">
		<tag k="name" v="Myrelona" />
		<tag k="natural" v="water" />
		<tag k="ssr:stedsnr" v="335252" />
		<tag k="water" v="lake" />
	</node>
	<node id="-285111" lat="58.755125" lon="8.98880277656">
		<tag k="name" v="Regusøya" />
		<tag k="place" v="islet" />
		<tag k="ssr:stedsnr" v="607412" />
	</node>
	<node id="-283061" lat="58.711316663" lon="8.96596388843">
		<tag k="name" v="Blekktjenn" />
		<tag k="natural" v="water" />
		<tag k="ssr:stedsnr" v="335243" />
	</node>
	<node id="-283059" lat="58.7453833344" lon="8.87247222772">
		<tag k="name" v="Nedre Korsdalstjenn" />
		<tag k="natural" v="water" />
		<tag k="ssr:stedsnr" v="335234" />
	</node>
	<node id="-285105" lat="58.7303750001" lon="8.65890278308">
		<tag k="name" v="Ufsvann" />
		<tag k="natural" v="water" />
		<tag k="ssr:stedsnr" v="607094" />
		<tag k="water" v="lake" />
	</node>
	<node id="-283056" lat="58.775005554" lon="8.79744444851">
		<tag k="name" v="Alv Skånestjenn" />
		<tag k="natural" v="water" />
		<tag k="ssr:stedsnr" v="335196" />
	</node>
	<node id="-285103" lat="58.7053666664" lon="8.80383333086">
		<tag k="name" v="Lonene" />
		<tag k="natural" v="water" />
		<tag k="ssr:stedsnr" v="607076" />
	</node>
	<node id="-285102" lat="58.704402781" lon="8.81388332663">
		<tag k="alt_name" v="Bågstøltjenn" />
		<tag k="name" v="Bågestøltjørn" />
		<tag k="natural" v="water" />
		<tag k="ssr:stedsnr" v="607075" />
	</node>
	<node id="-283051" lat="58.7606361135" lon="8.81361110901">
		<tag k="name" v="Råbubekken" />
		<tag k="ssr:stedsnr" v="335186" />
		<tag k="waterway" v="stream" />
	</node>
	<node id="-285098" lat="58.7434027746" lon="8.71206388192">
		<tag k="alt_name" v="Stortjenn" />
		<tag k="name" v="Stortjørn" />
		<tag k="natural" v="water" />
		<tag k="ssr:stedsnr" v="607025" />
	</node>
	<node id="-285097" lat="58.8111861088" lon="8.99341388494">
		<tag k="name" v="Litjenn" />
		<tag k="natural" v="water" />
		<tag k="ssr:stedsnr" v="607020" />
	</node>
	<node id="-283043" lat="58.7507222232" lon="8.7540805609">
		<tag k="name" v="Leirebekklona" />
		<tag k="ssr:stedsnr" v="335168" />
		<tag k="waterway" v="stream" />
	</node>
	<node id="-283041" lat="58.6538388902" lon="8.78742222407">
		<tag k="name" v="Kinndregstjenn" />
		<tag k="natural" v="water" />
		<tag k="ssr:stedsnr" v="335162" />
	</node>
	<node id="-285087" lat="58.7754749987" lon="8.71518611387">
		<tag k="name" v="Ormsund" />
		<tag k="natural" v="strait" />
		<tag k="ssr:stedsnr" v="577960" />
	</node>
	<node id="-285086" lat="58.7672111107" lon="8.65924167484">
		<tag k="name" v="Svenstjenn" />
		<tag k="natural" v="water" />
		<tag k="ssr:stedsnr" v="577951" />
	</node>
	<node id="-285085" lat="58.8211416626" lon="8.82311945039">
		<tag k="name" v="Rennsundslåttjenn" />
		<tag k="natural" v="water" />
		<tag k="ssr:stedsnr" v="577948" />
	</node>
	<node id="-285084" lat="58.7880500022" lon="8.6926222221">
		<tag k="name" v="Skåltangen" />
		<tag k="natural" v="cape" />
		<tag k="ssr:stedsnr" v="577939" />
	</node>
	<node id="-283032" lat="58.8053000023" lon="8.76782777891">
		<tag k="name" v="Den lange tangen" />
		<tag k="natural" v="cape" />
		<tag k="ssr:stedsnr" v="335138" />
	</node>
	<node id="-283030" lat="58.664999996" lon="8.80553888396">
		<tag k="name" v="Håkonsholmen" />
		<tag k="place" v="islet" />
		<tag k="ssr:stedsnr" v="335132" />
	</node>
	<node id="-285075" lat="58.7965027799" lon="8.76000832526">
		<tag k="name" v="Hestekvila" />
		<tag k="place" v="islet" />
		<tag k="ssr:stedsnr" v="577871" />
	</node>
	<node id="-285074" lat="58.7947527768" lon="8.76466666172">
		<tag k="name" v="Eidtangen" />
		<tag k="natural" v="cape" />
		<tag k="ssr:stedsnr" v="577869" />
	</node>
	<node id="-285344" lat="58.8395999975" lon="8.90654999804">
		<tag k="name" v="Mosbekk" />
		<tag k="ssr:stedsnr" v="668093" />
		<tag k="waterway" v="stream" />
	</node>
	<node id="-285070" lat="58.8164583305" lon="8.82650278312">
		<tag k="name" v="Kvernnesodden" />
		<tag k="natural" v="cape" />
		<tag k="ssr:stedsnr" v="577827" />
	</node>
	<node id="-285068" lat="58.7780916659" lon="8.78265000434">
		<tag k="name" v="Orrevassbekken" />
		<tag k="ssr:stedsnr" v="577794" />
		<tag k="waterway" v="stream" />
	</node>
	<node id="-285066" lat="58.6411277746" lon="8.80466388875">
		<tag k="name" v="Stutjenn" />
		<tag k="natural" v="water" />
		<tag k="ssr:stedsnr" v="577758" />
	</node>
	<node id="-283013" lat="58.7925916633" lon="8.84559443648">
		<tag k="name" v="Søyleskjæra" />
		<tag k="place" v="islet" />
		<tag k="ssr:stedsnr" v="335073" />
	</node>
	<node id="-285060" lat="58.7319472208" lon="8.64203610899">
		<tag k="name" v="Steglehøl" />
		<tag k="place" v="locality" />
		<tag k="ssr:stedsnr" v="577729" />
	</node>
	<node id="-283009" lat="58.7776750006" lon="8.85631944622">
		<tag k="name" v="Hestetangen" />
		<tag k="natural" v="cape" />
		<tag k="ssr:stedsnr" v="335053" />
	</node>
	<node id="-283007" lat="58.7812277794" lon="8.91420833455">
		<tag k="name" v="Fredagstjenn" />
		<tag k="natural" v="water" />
		<tag k="ssr:stedsnr" v="335040" />
	</node>
	<node id="-283005" lat="58.7772277758" lon="8.89965278421">
		<tag k="name" v="Jonsmyrtjenn" />
		<tag k="natural" v="water" />
		<tag k="ssr:stedsnr" v="335020" />
	</node>
	<node id="-285044" lat="58.8136722189" lon="8.95086666389">
		<tag k="name" v="Hulltjennene" />
		<tag k="natural" v="water" />
		<tag k="ssr:stedsnr" v="577587" />
	</node>
	<node id="-282994" lat="58.753688887" lon="8.78366944017">
		<tag k="alt_name" v="Skeimotjenn, øvre" />
		<tag k="name" v="Øvre Skeimotjenn" />
		<tag k="natural" v="water" />
		<tag k="ssr:stedsnr" v="304931" />
	</node>
	<node id="-285038" lat="58.7349944446" lon="8.93930555429">
		<tag k="name" v="Langanstjenn" />
		<tag k="natural" v="water" />
		<tag k="ssr:stedsnr" v="577547" />
	</node>
	<node id="-282989" lat="58.8182444415" lon="8.76860277569">
		<tag k="alt_name" v="Urvasselva" />
		<tag k="name" v="Urdvasselva" />
		<tag k="ssr:stedsnr" v="304697" />
		<tag k="waterway" v="stream" />
	</node>
	<node id="-283981" lat="58.7891666682" lon="8.95188888371">
		<tag k="name" v="Bronen" />
		<tag k="natural" v="cape" />
		<tag k="ssr:stedsnr" v="153609" />
	</node>
	<node id="-283026" lat="58.8129333361" lon="8.73564722519">
		<tag k="name" v="Knollslåttjenn" />
		<tag k="natural" v="water" />
		<tag k="ssr:stedsnr" v="335124" />
	</node>
	<node id="-282986" lat="58.8298527753" lon="8.81236389181">
		<tag k="name" v="Vollbekken" />
		<tag k="ssr:stedsnr" v="304647" />
		<tag k="waterway" v="stream" />
	</node>
	<node id="-285033" lat="58.7848583324" lon="8.99912778506">
		<tag k="name" v="Stokklona" />
		<tag k="natural" v="water" />
		<tag k="ssr:stedsnr" v="577525" />
		<tag k="water" v="lake" />
	</node>
	<node id="-282984" lat="58.8131249968" lon="8.80653333621">
		<tag k="alt_name" v="Lyngvassholmene" />
		<tag k="name" v="Lyngvassholmane" />
		<tag k="place" v="islet" />
		<tag k="ssr:stedsnr" v="304602" />
	</node>
	<node id="-285031" lat="58.7487472243" lon="8.94197499555">
		<tag k="name" v="Mønetjenn" />
		<tag k="natural" v="water" />
		<tag k="ssr:stedsnr" v="577511" />
	</node>
	<node id="-285029" lat="58.8433277741" lon="8.84850000755">
		<tag k="name" v="Østre Depilen" />
		<tag k="natural" v="water" />
		<tag k="ssr:stedsnr" v="577499" />
		<tag k="water" v="pond" />
	</node>
	<node id="-282980" lat="58.7269277802" lon="8.88275834177">
		<tag k="name" v="Pøddetjenn" />
		<tag k="natural" v="water" />
		<tag k="ssr:stedsnr" v="304585" />
	</node>
	<node id="-285026" lat="58.7421222193" lon="8.89051943585">
		<tag k="name" v="Rundmyrtjenn" />
		<tag k="natural" v="water" />
		<tag k="ssr:stedsnr" v="577482" />
	</node>
	<node id="-285025" lat="58.747600002" lon="8.89680832694">
		<tag k="name" v="Lilløy" />
		<tag k="place" v="islet" />
		<tag k="ssr:stedsnr" v="577475" />
	</node>
	<node id="-285024" lat="58.7519333341" lon="8.89003611227">
		<tag k="name" v="Kilen" />
		<tag k="natural" v="water" />
		<tag k="ssr:stedsnr" v="577473" />
		<tag k="water" v="lake" />
	</node>
	<node id="-285023" lat="58.83315833" lon="8.92701666577">
		<tag k="name" v="Frinestjenn" />
		<tag k="natural" v="water" />
		<tag k="ssr:stedsnr" v="577463" />
	</node>
	<node id="-285021" lat="58.8306166627" lon="8.85525555039">
		<tag k="name" v="Storøy" />
		<tag k="place" v="island" />
		<tag k="ssr:stedsnr" v="577456" />
	</node>
	<node id="-285956" lat="58.8173583372" lon="8.80586944703">
		<tag k="name" v="Lyngvasseidet" />
		<tag k="natural" v="strait" />
		<tag k="ssr:stedsnr" v="820808" />
	</node>
	<node id="-285017" lat="58.8130416659" lon="8.85970833271">
		<tag k="name" v="Gråsteinsund" />
		<tag k="natural" v="strait" />
		<tag k="ssr:stedsnr" v="577438" />
	</node>
	<node id="-285016" lat="58.8187638882" lon="8.85241389746">
		<tag k="name" v="Tårånesholmane" />
		<tag k="place" v="islet" />
		<tag k="ssr:stedsnr" v="577433" />
	</node>
	<node id="-282967" lat="58.7591555581" lon="8.94171944377">
		<tag k="name" v="Stavtjenn" />
		<tag k="natural" v="water" />
		<tag k="ssr:stedsnr" v="304396" />
	</node>
	<node id="-285013" lat="58.6960166704" lon="8.84363055563">
		<tag k="name" v="Svarttjenn" />
		<tag k="natural" v="water" />
		<tag k="ssr:stedsnr" v="577423" />
	</node>
	<node id="-282964" lat="58.738938892" lon="8.82263333836">
		<tag k="name" v="Ettevann" />
		<tag k="natural" v="water" />
		<tag k="ssr:stedsnr" v="304097" />
	</node>
	<node id="-282963" lat="58.8395833341" lon="8.93569167207">
		<tag k="name" v="Holmvasselva" />
		<tag k="ssr:stedsnr" v="304090" />
		<tag k="waterway" v="stream" />
	</node>
	<node id="-285007" lat="58.708330552" lon="8.87385000174">
		<tag k="name" v="Kveenga" />
		<tag k="natural" v="cape" />
		<tag k="ssr:stedsnr" v="577406" />
	</node>
	<node id="-282958" lat="58.7179444404" lon="8.71379166566">
		<tag k="alt_name" v="Stavetjørn" />
		<tag k="name" v="Stavtjenn" />
		<tag k="natural" v="water" />
		<tag k="ssr:stedsnr" v="304064" />
	</node>
	<node id="-284386" lat="58.7781055588" lon="8.69861944454">
		<tag k="name" v="Ålkjerrtangen" />
		<tag k="natural" v="cape" />
		<tag k="ssr:stedsnr" v="214945" />
	</node>
	<node id="-285002" lat="58.8057194418" lon="8.85551944465">
		<tag k="name" v="Store Bronøya" />
		<tag k="place" v="island" />
		<tag k="ssr:stedsnr" v="577381" />
	</node>
	<node id="-282953" lat="58.7554666676" lon="8.84191110709">
		<tag k="name" v="Herbjørnstebekken" />
		<tag k="ssr:stedsnr" v="286687" />
		<tag k="waterway" v="stream" />
	</node>
	<node id="-284999" lat="58.8110027755" lon="8.8698638886">
		<tag k="name" v="Bjorhustjenn" />
		<tag k="natural" v="water" />
		<tag k="ssr:stedsnr" v="577371" />
	</node>
	<node id="-282949" lat="58.7628388925" lon="8.69404443954">
		<tag k="name" v="Åretangen" />
		<tag k="natural" v="cape" />
		<tag k="ssr:stedsnr" v="274958" />
	</node>
	<node id="-282945" lat="58.7862944417" lon="8.70823611775">
		<tag k="name" v="Orrenesøya" />
		<tag k="place" v="islet" />
		<tag k="ssr:stedsnr" v="274904" />
	</node>
	<node id="-282944" lat="58.7895277812" lon="8.6720666613">
		<tag k="name" v="Løvnestangen" />
		<tag k="natural" v="cape" />
		<tag k="ssr:stedsnr" v="274900" />
	</node>
	<node id="-284991" lat="58.773416668" lon="8.6877583302">
		<tag k="name" v="Fiskeløysbekken" />
		<tag k="ssr:stedsnr" v="577306" />
		<tag k="waterway" v="stream" />
	</node>
	<node id="-283159" lat="58.7926944406" lon="8.7195749954">
		<tag k="name" v="Sandbukta" />
		<tag k="natural" v="bay" />
		<tag k="ssr:stedsnr" v="335849" />
	</node>
	<node id="-284987" lat="58.6808305567" lon="8.8271166691">
		<tag k="name" v="Nordbråttjenn" />
		<tag k="natural" v="water" />
		<tag k="ssr:stedsnr" v="577287" />
	</node>
	<node id="-282938" lat="58.7894194454" lon="8.7327472239">
		<tag k="name" v="Degernesbukta" />
		<tag k="natural" v="bay" />
		<tag k="ssr:stedsnr" v="274836" />
	</node>
	<node id="-282937" lat="58.7825222184" lon="8.74966110843">
		<tag k="name" v="Nesbekken" />
		<tag k="ssr:stedsnr" v="274818" />
		<tag k="waterway" v="stream" />
	</node>
	<node id="-282886" lat="58.8297000021" lon="8.85973333091">
		<tag k="name" v="Kalvøya" />
		<tag k="place" v="islet" />
		<tag k="ssr:stedsnr" v="274413" />
	</node>
	<node id="-284041" lat="58.8028694431" lon="8.75793334004">
		<tag k="name" v="Storrtangbukta" />
		<tag k="natural" v="bay" />
		<tag k="ssr:stedsnr" v="153148" />
	</node>
	<node id="-283699" lat="58.7784999981" lon="8.79243611462">
		<tag k="alt_name" v="Ufsdalstjørna, østre" />
		<tag k="name" v="Østre Ufsdalstjenna" />
		<tag k="natural" v="water" />
		<tag k="ssr:stedsnr" v="62521" />
	</node>
	<node id="-282927" lat="58.7039472216" lon="8.67760833416">
		<tag k="name" v="Hanekamtjenn" />
		<tag k="natural" v="water" />
		<tag k="ssr:stedsnr" v="274685" />
	</node>
	<node id="-284973" lat="58.7591972232" lon="8.72011111082">
		<tag k="name" v="Lauvøyene" />
		<tag k="place" v="islet" />
		<tag k="ssr:stedsnr" v="577241" />
	</node>
	<node id="-282922" lat="58.7187888906" lon="8.66699722891">
		<tag k="name" v="Reinene" />
		<tag k="ssr:stedsnr" v="274664" />
		<tag k="waterway" v="stream" />
	</node>
	<node id="-284968" lat="58.7660833306" lon="8.81663055658">
		<tag k="name" v="Liene" />
		<tag k="natural" v="waterfall" />
		<tag k="ssr:stedsnr" v="577215" />
	</node>
	<node id="-283356" lat="58.7981527757" lon="8.96210000851">
		<tag k="name" v="Tangen" />
		<tag k="natural" v="cape" />
		<tag k="ssr:stedsnr" v="395643" />
	</node>
	<node id="-285745" lat="58.78433611" lon="9.01238055089">
		<tag k="name" v="Brentebergslona" />
		<tag k="natural" v="water" />
		<tag k="ssr:stedsnr" v="760513" />
		<tag k="water" v="lake" />
	</node>
	<node id="-284963" lat="58.6593111137" lon="8.82391666035">
		<tag k="name" v="Løntjenn" />
		<tag k="natural" v="water" />
		<tag k="ssr:stedsnr" v="577185" />
	</node>
	<node id="-282914" lat="58.681725002" lon="8.81051666456">
		<tag k="name" v="Songå" />
		<tag k="ssr:stedsnr" v="274608" />
		<tag k="waterway" v="river" />
	</node>
	<node id="-284959" lat="58.8153527782" lon="8.76452500468">
		<tag k="name" v="Nedre Øfsslåttjenn" />
		<tag k="natural" v="water" />
		<tag k="ssr:stedsnr" v="577148" />
	</node>
	<node id="-284037" lat="58.8168444406" lon="8.76202222147">
		<tag k="name" v="Tollhommtjenn" />
		<tag k="natural" v="water" />
		<tag k="ssr:stedsnr" v="153140" />
	</node>
	<node id="-284956" lat="58.816552775" lon="8.92372499612">
		<tag k="name" v="Mørktjenn" />
		<tag k="natural" v="water" />
		<tag k="ssr:stedsnr" v="577118" />
	</node>
	<node id="-282907" lat="58.7333972224" lon="8.96395555196">
		<tag k="name" v="Flektjenn" />
		<tag k="natural" v="water" />
		<tag k="ssr:stedsnr" v="274540" />
	</node>
	<node id="-282902" lat="58.7612194407" lon="8.99176666378">
		<tag k="name" v="Eksjøkilen" />
		<tag k="natural" v="bay" />
		<tag k="ssr:stedsnr" v="274513" />
	</node>
	<node id="-282901" lat="58.789288886" lon="8.98469722833">
		<tag k="name" v="Stormyria" />
		<tag k="natural" v="water" />
		<tag k="ssr:stedsnr" v="274499" />
	</node>
	<node id="-284946" lat="58.7806472245" lon="8.86243333992">
		<tag k="name" v="Stølebukta" />
		<tag k="natural" v="bay" />
		<tag k="ssr:stedsnr" v="577064" />
	</node>
	<node id="-284944" lat="58.776986108" lon="8.85936943674">
		<tag k="name" v="Høløya" />
		<tag k="place" v="islet" />
		<tag k="ssr:stedsnr" v="577062" />
	</node>
	<node id="-282894" lat="58.7480777803" lon="8.89680556375">
		<tag k="name" v="Storøysund" />
		<tag k="natural" v="strait" />
		<tag k="ssr:stedsnr" v="274435" />
	</node>
	<node id="-282891" lat="58.7522916624" lon="8.90472500625">
		<tag k="name" v="Sundholmen" />
		<tag k="place" v="islet" />
		<tag k="ssr:stedsnr" v="274431" />
	</node>
	<node id="-282890" lat="58.6966055536" lon="8.91386389105">
		<tag k="name" v="Fiskehola" />
		<tag k="ssr:stedsnr" v="274421" />
		<tag k="waterway" v="stream" />
	</node>
	<node id="-284935" lat="58.7872861074" lon="8.92613054703">
		<tag k="name" v="Kallbergsnes" />
		<tag k="natural" v="cape" />
		<tag k="ssr:stedsnr" v="577034" />
	</node>
	<node id="-284934" lat="58.6900027808" lon="8.72951389157">
		<tag k="name" v="Bjørkøya" />
		<tag k="place" v="islet" />
		<tag k="ssr:stedsnr" v="577028" />
	</node>
	<node id="-284932" lat="58.6900000019" lon="8.73076388782">
		<tag k="name" v="Forøya" />
		<tag k="place" v="islet" />
		<tag k="ssr:stedsnr" v="577026" />
	</node>
	<node id="-282883" lat="58.7084166705" lon="8.90151388559">
		<tag k="name" v="Sauren" />
		<tag k="place" v="locality" />
		<tag k="ssr:stedsnr" v="274404" />
	</node>
	<node id="-282878" lat="58.8120111074" lon="8.84785555311">
		<tag k="name" v="Gjesteinstjenn" />
		<tag k="natural" v="water" />
		<tag k="ssr:stedsnr" v="274388" />
	</node>
	<node id="-282877" lat="58.8178277766" lon="8.85054443928">
		<tag k="name" v="Nordre Tårånes" />
		<tag k="natural" v="cape" />
		<tag k="ssr:stedsnr" v="274387" />
	</node>
	<node id="-284924" lat="58.666200003" lon="8.77094999734">
		<tag k="name" v="Geittjenn" />
		<tag k="natural" v="water" />
		<tag k="ssr:stedsnr" v="547965" />
	</node>
	<node id="-284923" lat="58.6635972198" lon="8.81727221521">
		<tag k="name" v="Våjekilen" />
		<tag k="natural" v="bay" />
		<tag k="ssr:stedsnr" v="547956" />
	</node>
	<node id="-284917" lat="58.8212305568" lon="8.79779723041">
		<tag k="fixme" v="multiple name tags, choose one and add the other to alt_name" />
		<tag k="name" v="Nedre Lyngvann;Lyngvann" />
		<tag k="natural" v="water" />
		<tag k="ssr:stedsnr" v="547712" />
		<tag k="water" v="lake" />
	</node>
	<node id="-284916" lat="58.8230694452" lon="8.71895555492">
		<tag k="fixme" v="multiple name tags, choose one and add the other to alt_name" />
		<tag k="name" v="Farslåttjenn;Langtjenn" />
		<tag k="natural" v="water" />
		<tag k="old_name" v="Farslåttjønn" />
		<tag k="ssr:stedsnr" v="547713" />
	</node>
	<node id="-282866" lat="58.8073194413" lon="8.87731388574">
		<tag k="name" v="Linholmen" />
		<tag k="place" v="islet" />
		<tag k="ssr:stedsnr" v="274338" />
	</node>
	<node id="-284403" lat="58.806502779" lon="8.96627222511">
		<tag k="name" v="Grombutjenn" />
		<tag k="natural" v="water" />
		<tag k="ssr:stedsnr" v="243007" />
	</node>
	<node id="-284912" lat="58.8065500005" lon="8.78694166941">
		<tag k="name" v="Vegår" />
		<tag k="natural" v="water" />
		<tag k="ssr:stedsnr" v="547623" />
		<tag k="water" v="lake" />
	</node>
	<node id="-284911" lat="58.7926916666" lon="8.66922777651">
		<tag k="name" v="Ubergskilen" />
		<tag k="natural" v="bay" />
		<tag k="ssr:stedsnr" v="547618" />
	</node>
	<node id="-284909" lat="58.7763944432" lon="8.71177500235">
		<tag k="alt_name" v="Viøya" />
		<tag k="name" v="Vidøya" />
		<tag k="place" v="islet" />
		<tag k="ssr:stedsnr" v="547564" />
	</node>
	<node id="-284908" lat="58.7775750003" lon="8.7859222182">
		<tag k="alt_name" v="Ufsdalstjørna, vestre" />
		<tag k="name" v="Vestre Ufsdalstjenna" />
		<tag k="natural" v="water" />
		<tag k="ssr:stedsnr" v="547560" />
	</node>
	<node id="-284905" lat="58.84441944" lon="8.85323333584">
		<tag k="alt_name" v="Fagreistjenn" />
		<tag k="name" v="Fagerreitjern" />
		<tag k="natural" v="water" />
		<tag k="ssr:stedsnr" v="547123" />
	</node>
	<node id="-284903" lat="58.8444111085" lon="8.87161943679">
		<tag k="name" v="Bånekjerr" />
		<tag k="place" v="locality" />
		<tag k="ssr:stedsnr" v="547115" />
	</node>
	<node id="-283345" lat="58.7960916705" lon="8.99091944477">
		<tag k="name" v="Sandbekken" />
		<tag k="ssr:stedsnr" v="395536" />
		<tag k="waterway" v="stream" />
	</node>
	<node id="-282851" lat="58.7097583298" lon="8.9517472288">
		<tag k="name" v="Holmen" />
		<tag k="place" v="islet" />
		<tag k="ssr:stedsnr" v="274228" />
	</node>
	<node id="-282849" lat="58.6938499958" lon="8.73872500688">
		<tag k="name" v="Nygårdsbukta" />
		<tag k="natural" v="bay" />
		<tag k="ssr:stedsnr" v="274217" />
	</node>
	<node id="-284895" lat="58.7003833374" lon="8.9465249928">
		<tag k="name" v="Langevann" />
		<tag k="natural" v="water" />
		<tag k="ssr:stedsnr" v="546577" />
	</node>
	<node id="-284891" lat="58.7321833296" lon="8.84113055711">
		<tag k="name" v="Fisketjenn" />
		<tag k="place" v="locality" />
		<tag k="ssr:stedsnr" v="546131" />
	</node>
	<node id="-284888" lat="58.8053305561" lon="8.90331944331">
		<tag k="name" v="Heitjenn" />
		<tag k="natural" v="water" />
		<tag k="ssr:stedsnr" v="546008" />
	</node>
	<node id="-282951" lat="58.7589555577" lon="8.88209721988">
		<tag k="name" v="Futjenn" />
		<tag k="natural" v="water" />
		<tag k="ssr:stedsnr" v="283609" />
	</node>
	<node id="-285453" lat="58.8158361097" lon="8.87609166183">
		<tag k="name" v="Nesholmen" />
		<tag k="place" v="islet" />
		<tag k="ssr:stedsnr" v="699356" />
	</node>
	<node id="-283683" lat="58.8272166633" lon="8.73700277843">
		<tag k="alt_name" v="Tungtjennene" />
		<tag k="name" v="Tungtjørnane" />
		<tag k="natural" v="water" />
		<tag k="ssr:stedsnr" v="61674" />
	</node>
	<node id="-284880" lat="58.7685750009" lon="8.70472500586">
		<tag k="name" v="Gurisodden" />
		<tag k="natural" v="cape" />
		<tag k="ssr:stedsnr" v="517969" />
	</node>
	<node id="-284878" lat="58.7722805574" lon="8.70418611971">
		<tag k="name" v="Finnbukta" />
		<tag k="natural" v="bay" />
		<tag k="ssr:stedsnr" v="517956" />
	</node>
	<node id="-284877" lat="58.7575194412" lon="8.65834166231">
		<tag k="name" v="Lille Langtjenn" />
		<tag k="natural" v="water" />
		<tag k="ssr:stedsnr" v="517946" />
	</node>
	<node id="-282828" lat="58.666555552" lon="8.77671944303">
		<tag k="name" v="Rundtjenn" />
		<tag k="natural" v="water" />
		<tag k="ssr:stedsnr" v="274137" />
		<tag k="water" v="pond" />
	</node>
	<node id="-283087" lat="58.8286361153" lon="8.93641388343">
		<tag k="name" v="Lona" />
		<tag k="natural" v="water" />
		<tag k="ssr:stedsnr" v="335406" />
		<tag k="water" v="lake" />
	</node>
	<node id="-284874" lat="58.7912222217" lon="8.71573611775">
		<tag k="name" v="Kjørka" />
		<tag k="natural" v="cape" />
		<tag k="ssr:stedsnr" v="517935" />
	</node>
	<node id="-284873" lat="58.787658334" lon="8.71045000853">
		<tag k="name" v="Tonsberg" />
		<tag k="place" v="islet" />
		<tag k="ssr:stedsnr" v="517933" />
	</node>
	<node id="-284871" lat="58.7988749966" lon="8.71486389263">
		<tag k="name" v="Liongstebekken" />
		<tag k="ssr:stedsnr" v="517912" />
		<tag k="waterway" v="stream" />
	</node>
	<node id="-283681" lat="58.8284444479" lon="8.78656666769">
		<tag k="alt_name" v="Lyngvann, øvre" />
		<tag k="name" v="Øvre Lyngvann" />
		<tag k="natural" v="water" />
		<tag k="ssr:stedsnr" v="61619" />
	</node>
	<node id="-284867" lat="58.7457500001" lon="8.70857778222">
		<tag k="name" v="Søre Lontjenn" />
		<tag k="natural" v="water" />
		<tag k="ssr:stedsnr" v="517890" />
	</node>
	<node id="-283680" lat="58.8301916696" lon="8.801677772">
		<tag k="name" v="Skarktjenn" />
		<tag k="natural" v="water" />
		<tag k="ssr:stedsnr" v="61618" />
	</node>
	<node id="-284858" lat="58.8055666702" lon="8.77867499503">
		<tag k="name" v="Forøysundet" />
		<tag k="natural" v="strait" />
		<tag k="ssr:stedsnr" v="517829" />
	</node>
	<node id="-284856" lat="58.8225249981" lon="8.78001110475">
		<tag k="name" v="Tjennslåttjenn" />
		<tag k="natural" v="water" />
		<tag k="ssr:stedsnr" v="517819" />
	</node>
	<node id="-282996" lat="58.6507722261" lon="8.7818916607">
		<tag k="name" v="Raudelva" />
		<tag k="ssr:stedsnr" v="304993" />
		<tag k="waterway" v="stream" />
	</node>
	<node id="-282805" lat="58.7834000025" lon="8.84933889388">
		<tag k="name" v="Pengeholmene" />
		<tag k="place" v="islet" />
		<tag k="ssr:stedsnr" v="274052" />
	</node>
	<node id="-284852" lat="58.7836111072" lon="8.81961111506">
		<tag k="name" v="Kilane" />
		<tag k="natural" v="bay" />
		<tag k="ssr:stedsnr" v="517792" />
	</node>
	<node id="-284851" lat="58.7809083298" lon="8.79525833165">
		<tag k="name" v="Bjortjenn" />
		<tag k="natural" v="water" />
		<tag k="ssr:stedsnr" v="517784" />
	</node>
	<node id="-282802" lat="58.7824972192" lon="8.90605832745">
		<tag k="name" v="Futjenn" />
		<tag k="natural" v="water" />
		<tag k="ssr:stedsnr" v="274032" />
	</node>
	<node id="-282799" lat="58.6901027819" lon="8.73431943852">
		<tag k="name" v="Storøya" />
		<tag k="place" v="islet" />
		<tag k="ssr:stedsnr" v="274027" />
	</node>
	<node id="-284843" lat="58.6889638859" lon="8.73762778219">
		<tag k="name" v="Flækåna" />
		<tag k="ssr:stedsnr" v="517734" />
		<tag k="waterway" v="stream" />
	</node>
	<node id="-282793" lat="58.7055722191" lon="8.78939999703">
		<tag k="name" v="Tjennslåttjenn" />
		<tag k="natural" v="water" />
		<tag k="ssr:stedsnr" v="274009" />
	</node>
	<node id="-284836" lat="58.6717027771" lon="8.82025556168">
		<tag k="name" v="Tangen" />
		<tag k="natural" v="cape" />
		<tag k="ssr:stedsnr" v="517664" />
	</node>
	<node id="-284833" lat="58.6764388904" lon="8.74601110401">
		<tag k="name" v="Flygopptjenn" />
		<tag k="natural" v="water" />
		<tag k="ssr:stedsnr" v="517638" />
	</node>
	<node id="-284829" lat="58.8015194435" lon="8.97001110892">
		<tag k="name" v="Ålhølen" />
		<tag k="place" v="locality" />
		<tag k="ssr:stedsnr" v="517605" />
	</node>
	<node id="-284828" lat="58.8023388846" lon="8.97194443823">
		<tag k="name" v="Libekken" />
		<tag k="ssr:stedsnr" v="517606" />
		<tag k="waterway" v="stream" />
	</node>
	<node id="-284822" lat="58.7324083295" lon="8.94580832572">
		<tag k="name" v="Vardammen" />
		<tag k="ssr:stedsnr" v="517551" />
		<tag k="waterway" v="dam" />
	</node>
	<node id="-284819" lat="58.7473277747" lon="8.88946666159">
		<tag k="name" v="Kistrenbukta" />
		<tag k="natural" v="bay" />
		<tag k="ssr:stedsnr" v="517488" />
	</node>
	<node id="-282988" lat="58.8414777817" lon="8.82528333115">
		<tag k="name" v="Kleivvann" />
		<tag k="natural" v="water" />
		<tag k="ssr:stedsnr" v="304664" />
		<tag k="water" v="lake" />
	</node>
	<node id="-284034" lat="58.6639999985" lon="8.79916666085">
		<tag k="name" v="Storkil" />
		<tag k="natural" v="bay" />
		<tag k="ssr:stedsnr" v="153129" />
	</node>
	<node id="-284800" lat="58.6995444485" lon="8.83743333224">
		<tag k="name" v="Hommelskårtjenn" />
		<tag k="natural" v="water" />
		<tag k="ssr:stedsnr" v="517394" />
	</node>
	<node id="-284312" lat="58.8337333358" lon="8.92420278127">
		<tag k="name" v="Frinesbukta" />
		<tag k="natural" v="bay" />
		<tag k="ssr:stedsnr" v="214461" />
	</node>
	<node id="-284793" lat="58.8097666629" lon="8.85184444888">
		<tag k="name" v="Merrtangen" />
		<tag k="natural" v="cape" />
		<tag k="ssr:stedsnr" v="517370" />
	</node>
	<node id="-284791" lat="58.7234916628" lon="8.8896777843">
		<tag k="name" v="Småtjenn" />
		<tag k="natural" v="water" />
		<tag k="ssr:stedsnr" v="517363" />
	</node>
	<node id="-284789" lat="58.8075027756" lon="8.88286111137">
		<tag k="name" v="Langnes" />
		<tag k="natural" v="cape" />
		<tag k="ssr:stedsnr" v="517361" />
	</node>
	<node id="-284788" lat="58.8058722264" lon="8.87660555825">
		<tag k="name" v="Romundstadfjorden" />
		<tag k="natural" v="water" />
		<tag k="ssr:stedsnr" v="517358" />
		<tag k="water" v="lake" />
	</node>
	<node id="-284783" lat="58.7436" lon="8.89908333479">
		<tag k="name" v="Dåbubekken" />
		<tag k="ssr:stedsnr" v="517296" />
		<tag k="waterway" v="stream" />
	</node>
	<node id="-285266" lat="58.7882666673" lon="8.84651111154">
		<tag k="name" v="Midtholmen" />
		<tag k="place" v="islet" />
		<tag k="ssr:stedsnr" v="638572" />
	</node>
	<node id="-283324" lat="58.702024997" lon="8.85419999654">
		<tag k="name" v="Hasseldalstjenn" />
		<tag k="natural" v="water" />
		<tag k="ssr:stedsnr" v="395417" />
	</node>
	<node id="-284772" lat="58.7032833297" lon="8.94167500338">
		<tag k="name" v="Snørlåg" />
		<tag k="natural" v="strait" />
		<tag k="ssr:stedsnr" v="517248" />
	</node>
	<node id="-284771" lat="58.7483388864" lon="8.91517499475">
		<tag k="name" v="Rossålkilen" />
		<tag k="natural" v="water" />
		<tag k="ssr:stedsnr" v="517241" />
	</node>
	<node id="-284769" lat="58.750727779" lon="8.85628055666">
		<tag k="name" v="Kittilsmyrbekken" />
		<tag k="ssr:stedsnr" v="517235" />
		<tag k="waterway" v="stream" />
	</node>
	<node id="-284005" lat="58.7821249965" lon="8.85596388636">
		<tag k="name" v="Straumen" />
		<tag k="natural" v="strait" />
		<tag k="ssr:stedsnr" v="153054" />
	</node>
	<node id="-283697" lat="58.7768083352" lon="8.85773611625">
		<tag k="name" v="Høl" />
		<tag k="natural" v="water" />
		<tag k="ssr:stedsnr" v="62464" />
	</node>
	<node id="-283663" lat="58.8311750037" lon="8.87871945204">
		<tag k="name" v="Mosbukta" />
		<tag k="natural" v="bay" />
		<tag k="ssr:stedsnr" v="61067" />
	</node>
	<node id="-283321" lat="58.8083416687" lon="8.87866389256">
		<tag k="name" v="Jordsøya" />
		<tag k="place" v="island" />
		<tag k="ssr:stedsnr" v="395388" />
	</node>
	<node id="-284753" lat="58.745122219" lon="8.74836666119">
		<tag k="name" v="Bruslåttelva" />
		<tag k="ssr:stedsnr" v="517171" />
		<tag k="waterway" v="river" />
	</node>
	<node id="-283492" lat="58.7846611135" lon="8.92217778171">
		<tag k="name" v="Storøy" />
		<tag k="place" v="islet" />
		<tag k="ssr:stedsnr" v="31029" />
	</node>
	<node id="-282978" lat="58.7627583377" lon="8.66111110859">
		<tag k="name" v="Kroktjenn" />
		<tag k="natural" v="water" />
		<tag k="ssr:stedsnr" v="304550" />
	</node>
	<node id="-283318" lat="58.7514611133" lon="8.87604445112">
		<tag k="name" v="Lillelv" />
		<tag k="ssr:stedsnr" v="395338" />
		<tag k="waterway" v="river" />
	</node>
	<node id="-284737" lat="58.6573111145" lon="8.76496111195">
		<tag k="name" v="Darttjenn" />
		<tag k="natural" v="water" />
		<tag k="ssr:stedsnr" v="517128" />
	</node>
	<node id="-282976" lat="58.7584111103" lon="8.75835000448">
		<tag k="alt_name" v="Breibekk" />
		<tag k="name" v="Breidbekken" />
		<tag k="ssr:stedsnr" v="304547" />
		<tag k="waterway" v="stream" />
	</node>
	<node id="-284723" lat="58.7934583333" lon="8.85221389462">
		<tag k="name" v="Nipsund" />
		<tag k="natural" v="strait" />
		<tag k="ssr:stedsnr" v="517073" />
	</node>
	<node id="-284721" lat="58.7806833333" lon="8.85896111324">
		<tag k="name" v="Brente holmen" />
		<tag k="place" v="islet" />
		<tag k="ssr:stedsnr" v="517058" />
	</node>
	<node id="-284718" lat="58.6904194424" lon="8.74007500532">
		<tag k="name" v="København" />
		<tag k="natural" v="cape" />
		<tag k="ssr:stedsnr" v="517032" />
	</node>
	<node id="-282973" lat="58.779688888" lon="8.77226666577">
		<tag k="alt_name" v="Orrvannet, vestre;Vestre Orrevann" />
		<tag k="name" v="Vestre Orrvannet" />
		<tag k="natural" v="water" />
		<tag k="ssr:stedsnr" v="304516" />
	</node>
	<node id="-283313" lat="58.764774997" lon="8.89083332543">
		<tag k="name" v="Oddane" />
		<tag k="natural" v="cape" />
		<tag k="ssr:stedsnr" v="395319" />
	</node>
	<node id="-284706" lat="58.6821750031" lon="8.7452861085">
		<tag k="name" v="Lislevann" />
		<tag k="natural" v="water" />
		<tag k="ssr:stedsnr" v="486908" />
	</node>
	<node id="-284701" lat="58.7948083371" lon="8.83016943799">
		<tag k="alt_name" v="Borgebekk" />
		<tag k="name" v="Borgebekken" />
		<tag k="ssr:stedsnr" v="486637" />
		<tag k="waterway" v="stream" />
	</node>
	<node id="-284700" lat="58.7027805511" lon="8.95689167092">
		<tag k="name" v="Krokvann" />
		<tag k="natural" v="water" />
		<tag k="ssr:stedsnr" v="486630" />
	</node>
	<node id="-284699" lat="58.7855305598" lon="8.7004000023">
		<tag k="name" v="Orrenes" />
		<tag k="natural" v="cape" />
		<tag k="ssr:stedsnr" v="486617" />
	</node>
	<node id="-284698" lat="58.708952781" lon="8.92780000595">
		<tag k="name" v="Sorttjenn" />
		<tag k="natural" v="water" />
		<tag k="ssr:stedsnr" v="486615" />
	</node>
	<node id="-284697" lat="58.709416671" lon="8.87937777156">
		<tag k="name" v="Åsvann" />
		<tag k="natural" v="water" />
		<tag k="ssr:stedsnr" v="486614" />
		<tag k="water" v="lake" />
	</node>
	<node id="-284695" lat="58.8045888928" lon="8.70325000512">
		<tag k="name" v="Lontjenn" />
		<tag k="natural" v="water" />
		<tag k="ssr:stedsnr" v="486591" />
	</node>
	<node id="-284693" lat="58.8009694405" lon="8.7713499973">
		<tag k="name" v="Forøya" />
		<tag k="place" v="island" />
		<tag k="ssr:stedsnr" v="486578" />
	</node>
	<node id="-284691" lat="58.7330583314" lon="8.88722778257">
		<tag k="name" v="Tranevann" />
		<tag k="natural" v="water" />
		<tag k="ssr:stedsnr" v="486564" />
	</node>
	<node id="-284687" lat="58.7963194442" lon="8.97214721505">
		<tag k="alt_name" v="Bjørnåsvann" />
		<tag k="name" v="Bjørnåsvannet" />
		<tag k="natural" v="water" />
		<tag k="ssr:stedsnr" v="486507" />
	</node>
	<node id="-284684" lat="58.8016055582" lon="8.78635000398">
		<tag k="name" v="Nordfjorden" />
		<tag k="natural" v="water" />
		<tag k="ssr:stedsnr" v="486192" />
	</node>
	<node id="-284682" lat="58.8513750021" lon="8.88203056103">
		<tag k="name" v="Barlindtjenn" />
		<tag k="natural" v="water" />
		<tag k="ssr:stedsnr" v="486106" />
	</node>
	<node id="-283967" lat="58.7693361111" lon="8.9166611025">
		<tag k="name" v="Blautmyrtjenn" />
		<tag k="natural" v="water" />
		<tag k="ssr:stedsnr" v="152293" />
	</node>
	<node id="-285740" lat="58.6997499994" lon="8.92050277456">
		<tag k="name" v="Sundet" />
		<tag k="natural" v="strait" />
		<tag k="ssr:stedsnr" v="760452" />
	</node>
	<node id="-284675" lat="58.8193083297" lon="8.90142500126">
		<tag k="name" v="Grunntjenn" />
		<tag k="natural" v="water" />
		<tag k="ssr:stedsnr" v="486044" />
	</node>
	<node id="-284673" lat="58.8176777819" lon="8.85655000383">
		<tag k="name" v="Tårånes" />
		<tag k="natural" v="cape" />
		<tag k="ssr:stedsnr" v="486034" />
	</node>
</osm>
