<?xml version="1.0" encoding="UTF-8"?>
<osm version="0.6" generator="osmapis">
	<node lat="70.52228060213531" lon="30.57687325353252" id="-102715">
		<tag k="name" v="Tårnvatnet" />
		<tag k="natural" v="water" />
		<tag k="ssr:date" v="2019-12-27" />
		<tag k="ssr:gruppe" v="stilleståendeVann" />
		<tag k="ssr:hovedgruppe" v="ferskvann" />
		<tag k="ssr:stedsnr" v="20001" />
		<tag k="ssr:type" v="tjern" />
	</node>
	<node lat="70.53409170672273" lon="30.303448425330743" id="-102716">
		<tag k="fixme" v="consider natural=peak for the most distinct mountains in the district" />
		<tag k="name" v="Romsdalsbruna" />
		<tag k="natural" v="hill" />
		<tag k="place" v="locality" />
		<tag k="ssr:date" v="2019-12-27" />
		<tag k="ssr:gruppe" v="høyder" />
		<tag k="ssr:hovedgruppe" v="terreng" />
		<tag k="ssr:stedsnr" v="20012" />
		<tag k="ssr:type" v="fjell" />
	</node>
	<node lat="70.72971114119349" lon="29.770120995023973" id="-102717">
		<tag k="name" v="Heikabukta" />
		<tag k="natural" v="bay" />
		<tag k="ssr:date" v="2019-12-27" />
		<tag k="ssr:gruppe" v="kystkontur" />
		<tag k="ssr:hovedgruppe" v="sjø" />
		<tag k="ssr:stedsnr" v="20493" />
		<tag k="ssr:type" v="vikISjø" />
	</node>
	<node lat="70.3388889367765" lon="30.01246516571749" id="-102718">
		<tag k="name" v="Njuvččagurjohka" />
		<tag k="name:se" v="Njuvččagurjohka" />
		<tag k="old_name:se" v="Njuvčagurjåkka" />
		<tag k="ssr:date" v="2019-12-27" />
		<tag k="ssr:gruppe" v="rennendeVann" />
		<tag k="ssr:hovedgruppe" v="ferskvann" />
		<tag k="ssr:stedsnr" v="20945" />
		<tag k="ssr:type" v="bekk" />
		<tag k="waterway" v="stream" />
	</node>
	<node lat="70.47516948013829" lon="29.778479227712662" id="-102719">
		<tag k="name" v="Rássejávri" />
		<tag k="name:se" v="Rássejávri" />
		<tag k="natural" v="water" />
		<tag k="old_name:se" v="Rassejavri" />
		<tag k="ssr:date" v="2019-12-27" />
		<tag k="ssr:gruppe" v="stilleståendeVann" />
		<tag k="ssr:hovedgruppe" v="ferskvann" />
		<tag k="ssr:stedsnr" v="20986" />
		<tag k="ssr:type" v="vann" />
		<tag k="water" v="lake" />
	</node>
	<node lat="70.53589170530448" lon="29.971070825944494" id="-102721">
		<tag k="name" v="Storhaugdalen" />
		<tag k="natural" v="valley" />
		<tag k="place" v="locality" />
		<tag k="ssr:date" v="2019-12-27" />
		<tag k="ssr:gruppe" v="senkninger" />
		<tag k="ssr:hovedgruppe" v="terreng" />
		<tag k="ssr:stedsnr" v="30466" />
		<tag k="ssr:type" v="dal" />
	</node>
	<node lat="70.50568614811705" lon="30.159395705366585" id="-102722">
		<tag k="name" v="Karielva" />
		<tag k="ssr:date" v="2019-12-27" />
		<tag k="ssr:gruppe" v="rennendeVann" />
		<tag k="ssr:hovedgruppe" v="ferskvann" />
		<tag k="ssr:stedsnr" v="81009" />
		<tag k="ssr:type" v="bekk" />
		<tag k="waterway" v="stream" />
	</node>
	<node lat="70.62651948661014" lon="30.275942927798905" id="-102723">
		<tag k="name" v="Stormolla" />
		<tag k="natural" v="slope" />
		<tag k="place" v="locality" />
		<tag k="ssr:date" v="2019-12-27" />
		<tag k="ssr:gruppe" v="skråninger" />
		<tag k="ssr:hovedgruppe" v="terreng" />
		<tag k="ssr:stedsnr" v="81038" />
		<tag k="ssr:type" v="li" />
	</node>
	<node lat="70.49413338422175" lon="30.54732325490424" id="-102724">
		<tag k="name" v="Per Olsadalen" />
		<tag k="natural" v="valley" />
		<tag k="place" v="locality" />
		<tag k="ssr:date" v="2019-12-27" />
		<tag k="ssr:gruppe" v="senkninger" />
		<tag k="ssr:hovedgruppe" v="terreng" />
		<tag k="ssr:stedsnr" v="81890" />
		<tag k="ssr:type" v="dal" />
	</node>
	<node lat="70.47719725824305" lon="30.08897629826572" id="-102725">
		<tag k="name" v="Allmenningdalen" />
		<tag k="natural" v="valley" />
		<tag k="place" v="locality" />
		<tag k="ssr:date" v="2019-12-27" />
		<tag k="ssr:gruppe" v="senkninger" />
		<tag k="ssr:hovedgruppe" v="terreng" />
		<tag k="ssr:stedsnr" v="81891" />
		<tag k="ssr:type" v="dal" />
	</node>
	<node lat="70.46090559628816" lon="30.04455409436062" id="-102726">
		<tag k="name" v="Steindalen" />
		<tag k="natural" v="valley" />
		<tag k="place" v="locality" />
		<tag k="ssr:date" v="2019-12-27" />
		<tag k="ssr:gruppe" v="senkninger" />
		<tag k="ssr:hovedgruppe" v="terreng" />
		<tag k="ssr:stedsnr" v="81900" />
		<tag k="ssr:type" v="dal" />
	</node>
	<node lat="70.49555281831677" lon="30.145295734021023" id="-102727">
		<tag k="name" v="Søttendalen" />
		<tag k="natural" v="valley" />
		<tag k="place" v="locality" />
		<tag k="ssr:date" v="2019-12-27" />
		<tag k="ssr:gruppe" v="senkninger" />
		<tag k="ssr:hovedgruppe" v="terreng" />
		<tag k="ssr:stedsnr" v="81908" />
		<tag k="ssr:type" v="dal" />
	</node>
	<node lat="70.49256670735485" lon="30.087359641847474" id="-102728">
		<tag k="name" v="Gamslettdalen" />
		<tag k="natural" v="valley" />
		<tag k="place" v="locality" />
		<tag k="ssr:date" v="2019-12-27" />
		<tag k="ssr:gruppe" v="senkninger" />
		<tag k="ssr:hovedgruppe" v="terreng" />
		<tag k="ssr:stedsnr" v="81909" />
		<tag k="ssr:type" v="dal" />
	</node>
	<node lat="70.49340281900551" lon="30.286184517628403" id="-102729">
		<tag k="name" v="Gunnargamdalen" />
		<tag k="natural" v="valley" />
		<tag k="place" v="locality" />
		<tag k="ssr:date" v="2019-12-27" />
		<tag k="ssr:gruppe" v="senkninger" />
		<tag k="ssr:hovedgruppe" v="terreng" />
		<tag k="ssr:stedsnr" v="81911" />
		<tag k="ssr:type" v="dal" />
	</node>
	<node lat="70.45622781354493" lon="29.71741816117428" id="-102731">
		<tag k="fixme" v="consider natural=peak for the most distinct mountains in the district" />
		<tag k="name" v="Krokfjellet - Roahkkoaivi" />
		<tag k="name:no" v="Krokfjellet" />
		<tag k="name:se" v="Roahkkoaivi" />
		<tag k="natural" v="hill" />
		<tag k="old_name:se" v="Roakkoaivi" />
		<tag k="place" v="locality" />
		<tag k="ssr:date" v="2019-12-27" />
		<tag k="ssr:gruppe" v="høyder" />
		<tag k="ssr:hovedgruppe" v="terreng" />
		<tag k="ssr:stedsnr" v="86983" />
		<tag k="ssr:type" v="fjell" />
	</node>
	<node lat="70.44463893728152" lon="30.385009443765878" id="-102732">
		<tag k="fixme" v="consider natural=peak for the most distinct mountains in the district" />
		<tag k="name" v="Heastačielgi" />
		<tag k="name:se" v="Heastačielgi" />
		<tag k="natural" v="hill" />
		<tag k="old_name:se" v="Hæstačielgi" />
		<tag k="place" v="locality" />
		<tag k="ssr:date" v="2019-12-27" />
		<tag k="ssr:gruppe" v="høyder" />
		<tag k="ssr:hovedgruppe" v="terreng" />
		<tag k="ssr:stedsnr" v="140884" />
		<tag k="ssr:type" v="fjell" />
	</node>
	<node lat="70.39965838203838" lon="30.262603946444795" id="-102733">
		<tag k="name" v="Juovkkaidávži" />
		<tag k="name:se" v="Juovkkaidávži" />
		<tag k="natural" v="valley" />
		<tag k="old_name:se" v="Juovkaidavži" />
		<tag k="place" v="locality" />
		<tag k="ssr:date" v="2019-12-27" />
		<tag k="ssr:gruppe" v="senkninger" />
		<tag k="ssr:hovedgruppe" v="terreng" />
		<tag k="ssr:stedsnr" v="140885" />
		<tag k="ssr:type" v="dal" />
	</node>
	<node lat="70.51681393579611" lon="30.505053855962203" id="-102734">
		<tag k="name" v="Stormyran" />
		<tag k="natural" v="wetland" />
		<tag k="ssr:date" v="2019-12-27" />
		<tag k="ssr:gruppe" v="våtmark" />
		<tag k="ssr:hovedgruppe" v="markslag" />
		<tag k="ssr:stedsnr" v="141007" />
		<tag k="ssr:type" v="myr" />
	</node>
	<node lat="70.61351948421277" lon="30.322990120441105" id="-102738">
		<tag k="name" v="Klubbespiret" />
		<tag k="natural" v="hill" />
		<tag k="place" v="locality" />
		<tag k="ssr:date" v="2019-12-27" />
		<tag k="ssr:gruppe" v="høyder" />
		<tag k="ssr:hovedgruppe" v="terreng" />
		<tag k="ssr:stedsnr" v="146478" />
		<tag k="ssr:type" v="berg" />
	</node>
	<node lat="70.60926391541672" lon="29.577793275009636" id="-102739">
		<tag k="name" v="Bakkehøgdene" />
		<tag k="natural" v="hill" />
		<tag k="place" v="locality" />
		<tag k="ssr:date" v="2019-12-27" />
		<tag k="ssr:gruppe" v="høyder" />
		<tag k="ssr:hovedgruppe" v="terreng" />
		<tag k="ssr:stedsnr" v="151268" />
		<tag k="ssr:type" v="høyde" />
	</node>
	<node lat="70.5104417031597" lon="29.87862641177159" id="-102740">
		<tag k="name" v="Falkedalen" />
		<tag k="natural" v="valley" />
		<tag k="place" v="locality" />
		<tag k="ssr:date" v="2019-12-27" />
		<tag k="ssr:gruppe" v="senkninger" />
		<tag k="ssr:hovedgruppe" v="terreng" />
		<tag k="ssr:stedsnr" v="152405" />
		<tag k="ssr:type" v="dal" />
	</node>
	<node lat="70.70774170125281" lon="30.0316319885098" id="-102741">
		<tag k="name" v="Makkaur" />
		<tag k="place" v="locality" />
		<tag k="ssr:date" v="2019-12-27" />
		<tag k="ssr:gruppe" v="bolighus" />
		<tag k="ssr:hovedgruppe" v="bebyggelse" />
		<tag k="ssr:stedsnr" v="262032" />
		<tag k="ssr:type" v="gammelBosettingsplass" />
	</node>
	<node lat="70.5067833688266" lon="29.788554257021385" id="-102742">
		<tag k="name" v="Reindalen" />
		<tag k="natural" v="valley" />
		<tag k="place" v="locality" />
		<tag k="ssr:date" v="2019-12-27" />
		<tag k="ssr:gruppe" v="senkninger" />
		<tag k="ssr:hovedgruppe" v="terreng" />
		<tag k="ssr:stedsnr" v="262036" />
		<tag k="ssr:type" v="dal" />
	</node>
	<node lat="70.45245004443774" lon="30.091759613076388" id="-102743">
		<tag k="name" v="Aslak Gamslettdalen" />
		<tag k="natural" v="valley" />
		<tag k="place" v="locality" />
		<tag k="ssr:date" v="2019-12-27" />
		<tag k="ssr:gruppe" v="senkninger" />
		<tag k="ssr:hovedgruppe" v="terreng" />
		<tag k="ssr:stedsnr" v="262910" />
		<tag k="ssr:type" v="dal" />
	</node>
	<node lat="70.53355004038518" lon="30.397365050315006" id="-102744">
		<tag k="name" v="Syltevikvatnet" />
		<tag k="natural" v="water" />
		<tag k="ssr:date" v="2019-12-27" />
		<tag k="ssr:gruppe" v="stilleståendeVann" />
		<tag k="ssr:hovedgruppe" v="ferskvann" />
		<tag k="ssr:stedsnr" v="263014" />
		<tag k="ssr:type" v="vann" />
		<tag k="water" v="lake" />
	</node>
	<node lat="70.62813892370527" lon="29.787873744870783" id="-102745">
		<tag k="alt_name" v="Blindvatn" />
		<tag k="name" v="Blindvatnet" />
		<tag k="natural" v="water" />
		<tag k="ssr:date" v="2019-12-27" />
		<tag k="ssr:gruppe" v="stilleståendeVann" />
		<tag k="ssr:hovedgruppe" v="ferskvann" />
		<tag k="ssr:stedsnr" v="263483" />
		<tag k="ssr:type" v="tjern" />
	</node>
	<node lat="70.52880004512258" lon="30.61747322642221" id="-102747">
		<tag k="alt_name" v="Steinsnes, yt" />
		<tag k="name" v="Ytre Steinsnes" />
		<tag k="natural" v="cape" />
		<tag k="ssr:date" v="2019-12-27" />
		<tag k="ssr:gruppe" v="kystkontur" />
		<tag k="ssr:hovedgruppe" v="sjø" />
		<tag k="ssr:stedsnr" v="202005" />
		<tag k="ssr:type" v="nesISjø" />
	</node>
	<node lat="70.45426671072389" lon="30.44600663179395" id="-102748">
		<tag k="name" v="Telegrafhytta" />
		<tag k="place" v="isolated_dwelling" />
		<tag k="ssr:date" v="2019-12-27" />
		<tag k="ssr:gruppe" v="bolighus" />
		<tag k="ssr:hovedgruppe" v="bebyggelse" />
		<tag k="ssr:stedsnr" v="202892" />
		<tag k="ssr:type" v="fritidsbolig" />
	</node>
	<node lat="70.48711114988251" lon="30.14824848231971" id="-102749">
		<tag k="name" v="Steinelvdalen" />
		<tag k="natural" v="valley" />
		<tag k="place" v="locality" />
		<tag k="ssr:date" v="2019-12-27" />
		<tag k="ssr:gruppe" v="senkninger" />
		<tag k="ssr:hovedgruppe" v="terreng" />
		<tag k="ssr:stedsnr" v="202901" />
		<tag k="ssr:type" v="dal" />
	</node>
	<node lat="70.4715833768445" lon="30.099470726735856" id="-102750">
		<tag k="name" v="Vesterdalen" />
		<tag k="natural" v="valley" />
		<tag k="place" v="locality" />
		<tag k="ssr:date" v="2019-12-27" />
		<tag k="ssr:gruppe" v="senkninger" />
		<tag k="ssr:hovedgruppe" v="terreng" />
		<tag k="ssr:stedsnr" v="202902" />
		<tag k="ssr:type" v="dal" />
	</node>
	<node lat="70.63114725571697" lon="29.715443206250313" id="-102751">
		<tag k="name" v="Foma" />
		<tag k="place" v="quarter" />
		<tag k="ssr:date" v="2019-12-27" />
		<tag k="ssr:gruppe" v="bebyggelsesområder" />
		<tag k="ssr:hovedgruppe" v="bebyggelse" />
		<tag k="ssr:stedsnr" v="213329" />
		<tag k="ssr:type" v="industriområde" />
	</node>
	<node lat="70.70608336636087" lon="30.09364862193857" id="-102754">
		<tag k="fixme" v="consider seamark:type=rock or natural=shoal" />
		<tag k="name" v="Molvikskjæret" />
		<tag k="place" v="islet" />
		<tag k="ssr:date" v="2019-12-27" />
		<tag k="ssr:gruppe" v="grunnerISjø" />
		<tag k="ssr:hovedgruppe" v="sjø" />
		<tag k="ssr:stedsnr" v="450529" />
		<tag k="ssr:type" v="skjærISjø" />
	</node>
	<node lat="70.49820002915236" lon="29.60686821703909" id="-102755">
		<tag k="fixme" v="consider natural=peak for the most distinct mountains in the district" />
		<tag k="name" v="Skoghøgda - Vuovdeoaivi" />
		<tag k="name:no" v="Skoghøgda" />
		<tag k="name:se" v="Vuovdeoaivi" />
		<tag k="natural" v="hill" />
		<tag k="place" v="locality" />
		<tag k="ssr:date" v="2019-12-27" />
		<tag k="ssr:gruppe" v="høyder" />
		<tag k="ssr:hovedgruppe" v="terreng" />
		<tag k="ssr:stedsnr" v="450991" />
		<tag k="ssr:type" v="fjell" />
	</node>
	<node lat="70.51002503971375" lon="29.898004186552807" id="-102756">
		<tag k="name" v="Nerran" />
		<tag k="natural" v="slope" />
		<tag k="place" v="locality" />
		<tag k="ssr:date" v="2019-12-27" />
		<tag k="ssr:gruppe" v="skråninger" />
		<tag k="ssr:hovedgruppe" v="terreng" />
		<tag k="ssr:stedsnr" v="455364" />
		<tag k="ssr:type" v="li" />
	</node>
	<node lat="70.62036114686504" lon="29.678729335075644" id="-102757">
		<tag k="name" v="Marielva" />
		<tag k="ssr:date" v="2019-12-27" />
		<tag k="ssr:gruppe" v="rennendeVann" />
		<tag k="ssr:hovedgruppe" v="ferskvann" />
		<tag k="ssr:stedsnr" v="455301" />
		<tag k="ssr:type" v="bekk" />
		<tag k="waterway" v="stream" />
	</node>
	<node lat="70.51238892329424" lon="29.93474307251005" id="-102758">
		<tag k="name" v="Brendbakken" />
		<tag k="natural" v="slope" />
		<tag k="place" v="locality" />
		<tag k="ssr:date" v="2019-12-27" />
		<tag k="ssr:gruppe" v="skråninger" />
		<tag k="ssr:hovedgruppe" v="terreng" />
		<tag k="ssr:stedsnr" v="455401" />
		<tag k="ssr:type" v="bakke" />
	</node>
	<node lat="70.60993615302993" lon="30.308759573550265" id="-102759">
		<tag k="fixme" v="consider natural=peak for the most distinct mountains in the district" />
		<tag k="name" v="Syltefjordklubben" />
		<tag k="name:no" v="Syltefjordklubben" />
		<tag k="name:se" v="Oardovuonklubbu" />
		<tag k="natural" v="hill" />
		<tag k="place" v="locality" />
		<tag k="ssr:date" v="2019-12-27" />
		<tag k="ssr:gruppe" v="høyder" />
		<tag k="ssr:hovedgruppe" v="terreng" />
		<tag k="ssr:stedsnr" v="262023" />
		<tag k="ssr:type" v="fjell" />
	</node>
	<node lat="70.60369170762512" lon="30.32353454832129" id="-102760">
		<tag k="name" v="Russevika" />
		<tag k="natural" v="bay" />
		<tag k="ssr:date" v="2019-12-27" />
		<tag k="ssr:gruppe" v="kystkontur" />
		<tag k="ssr:hovedgruppe" v="sjø" />
		<tag k="ssr:stedsnr" v="262024" />
		<tag k="ssr:type" v="vikISjø" />
	</node>
	<node lat="70.55843336116388" lon="29.590623808032802" id="-102761">
		<tag k="name" v="Djupvatnet - Goalsejávri" />
		<tag k="name:no" v="Djupvatnet" />
		<tag k="name:se" v="Goalsejávri" />
		<tag k="natural" v="water" />
		<tag k="old_name:se" v="Goalsejavri" />
		<tag k="ssr:date" v="2019-12-27" />
		<tag k="ssr:gruppe" v="stilleståendeVann" />
		<tag k="ssr:hovedgruppe" v="ferskvann" />
		<tag k="ssr:stedsnr" v="262453" />
		<tag k="ssr:type" v="vann" />
		<tag k="water" v="lake" />
	</node>
	<node lat="70.50534726246929" lon="30.120073521049466" id="-102762">
		<tag k="alt_name:no" v="Austerelv" />
		<tag k="name" v="Austerelva - Uhc-Oardu" />
		<tag k="name:no" v="Austerelva" />
		<tag k="name:se" v="Uhc-Oardu" />
		<tag k="old_name:se" v="Ucc-Oardo" />
		<tag k="place" v="locality" />
		<tag k="ssr:date" v="2019-12-27" />
		<tag k="ssr:gruppe" v="bolighus" />
		<tag k="ssr:hovedgruppe" v="bebyggelse" />
		<tag k="ssr:stedsnr" v="263003" />
		<tag k="ssr:type" v="gammelBosettingsplass" />
	</node>
	<node lat="70.53693059772252" lon="30.497170535161903" id="-102763">
		<tag k="name" v="Gamvikdalen" />
		<tag k="natural" v="valley" />
		<tag k="place" v="locality" />
		<tag k="ssr:date" v="2019-12-27" />
		<tag k="ssr:gruppe" v="senkninger" />
		<tag k="ssr:hovedgruppe" v="terreng" />
		<tag k="ssr:stedsnr" v="263080" />
		<tag k="ssr:type" v="dal" />
	</node>
	<node lat="70.4760250407382" lon="30.198070687001827" id="-102764">
		<tag k="name" v="Sandsletta" />
		<tag k="place" v="locality" />
		<tag k="ssr:date" v="2019-12-27" />
		<tag k="ssr:gruppe" v="flater" />
		<tag k="ssr:hovedgruppe" v="terreng" />
		<tag k="ssr:stedsnr" v="263893" />
		<tag k="ssr:type" v="slette" />
	</node>
	<node lat="70.42640280680907" lon="29.451312715399656" id="-102765">
		<tag k="fixme" v="consider natural=peak for the most distinct mountains in the district" />
		<tag k="name" v="Áldačohkka" />
		<tag k="name:se" v="Áldačohkka" />
		<tag k="natural" v="hill" />
		<tag k="old_name:se" v="Aldačåkka" />
		<tag k="place" v="locality" />
		<tag k="ssr:date" v="2019-12-27" />
		<tag k="ssr:gruppe" v="høyder" />
		<tag k="ssr:hovedgruppe" v="terreng" />
		<tag k="ssr:stedsnr" v="263979" />
		<tag k="ssr:type" v="fjell" />
	</node>
	<node lat="70.54981670341978" lon="30.14465408328559" id="-102766">
		<tag k="name" v="Kvalmolla" />
		<tag k="natural" v="bay" />
		<tag k="ssr:date" v="2019-12-27" />
		<tag k="ssr:gruppe" v="kystkontur" />
		<tag k="ssr:hovedgruppe" v="sjø" />
		<tag k="ssr:stedsnr" v="273472" />
		<tag k="ssr:type" v="vikISjø" />
	</node>
	<node lat="70.53613059244786" lon="29.994873602011058" id="-102767">
		<tag k="name" v="Vassbotnelva" />
		<tag k="ssr:date" v="2019-12-27" />
		<tag k="ssr:gruppe" v="rennendeVann" />
		<tag k="ssr:hovedgruppe" v="ferskvann" />
		<tag k="ssr:stedsnr" v="273491" />
		<tag k="ssr:type" v="bekk" />
		<tag k="waterway" v="stream" />
	</node>
	<node lat="70.63685003172864" lon="29.73959041929217" id="-102768">
		<tag k="name" v="Hamnneset" />
		<tag k="place" v="quarter" />
		<tag k="ssr:date" v="2019-12-27" />
		<tag k="ssr:gruppe" v="bebyggelsesområder" />
		<tag k="ssr:hovedgruppe" v="bebyggelse" />
		<tag k="ssr:stedsnr" v="273389" />
		<tag k="ssr:type" v="boligfelt" />
	</node>
	<node lat="70.6307833691536" lon="29.774701517897988" id="-102769">
		<tag k="name" v="Kvanngrø" />
		<tag k="natural" v="bay" />
		<tag k="ssr:date" v="2019-12-27" />
		<tag k="ssr:gruppe" v="kystkontur" />
		<tag k="ssr:hovedgruppe" v="sjø" />
		<tag k="ssr:stedsnr" v="273391" />
		<tag k="ssr:type" v="vikISjø" />
	</node>
	<node lat="70.61579169968809" lon="29.682859902640097" id="-102771">
		<tag k="alt_name" v="Strømvatn;Strømvatnet" />
		<tag k="fixme" v="multiple name tags, choose one and add the other to alt_name" />
		<tag k="name" v="Vatnet;Straumsnesvatnet" />
		<tag k="natural" v="water" />
		<tag k="ssr:date" v="2019-12-27" />
		<tag k="ssr:gruppe" v="stilleståendeVann" />
		<tag k="ssr:hovedgruppe" v="ferskvann" />
		<tag k="ssr:stedsnr" v="323478" />
		<tag k="ssr:type" v="tjern" />
	</node>
	<node lat="70.69943059172877" lon="29.983890329414457" id="-102772">
		<tag k="name" v="Skipsvikhalsen" />
		<tag k="natural" v="valley" />
		<tag k="place" v="locality" />
		<tag k="ssr:date" v="2019-12-27" />
		<tag k="ssr:gruppe" v="senkninger" />
		<tag k="ssr:hovedgruppe" v="terreng" />
		<tag k="ssr:stedsnr" v="323483" />
		<tag k="ssr:type" v="skar" />
	</node>
	<node lat="70.41000837164334" lon="29.685373706843887" id="-102773">
		<tag k="name" v="Stuorraskáidi" />
		<tag k="name:se" v="Stuorraskáidi" />
		<tag k="natural" v="cape" />
		<tag k="old_name:se" v="Stuorraskaidi" />
		<tag k="ssr:date" v="2019-12-27" />
		<tag k="ssr:gruppe" v="rennendeVann" />
		<tag k="ssr:hovedgruppe" v="ferskvann" />
		<tag k="ssr:stedsnr" v="323975" />
		<tag k="ssr:type" v="nesVedElver" />
	</node>
	<node lat="70.46101114579987" lon="29.666487626845637" id="-102774">
		<tag k="name" v="Morešveairoahkki" />
		<tag k="name:se" v="Morešveairoahkki" />
		<tag k="natural" v="valley" />
		<tag k="old_name:se" v="Mårešvæjroakki" />
		<tag k="place" v="locality" />
		<tag k="ssr:date" v="2019-12-27" />
		<tag k="ssr:gruppe" v="senkninger" />
		<tag k="ssr:hovedgruppe" v="terreng" />
		<tag k="ssr:stedsnr" v="323978" />
		<tag k="ssr:type" v="dal" />
	</node>
	<node lat="70.6480333681009" lon="29.904204242851677" id="-102775">
		<tag k="fixme" v="consider natural=peak for the most distinct mountains in the district" />
		<tag k="name" v="Rydbergneset" />
		<tag k="natural" v="hill" />
		<tag k="place" v="locality" />
		<tag k="ssr:date" v="2019-12-27" />
		<tag k="ssr:gruppe" v="høyder" />
		<tag k="ssr:hovedgruppe" v="terreng" />
		<tag k="ssr:stedsnr" v="329503" />
		<tag k="ssr:type" v="ås" />
	</node>
	<node lat="70.63418614455996" lon="29.690468236719955" id="-102776">
		<tag k="name" v="Skolelvdalen" />
		<tag k="natural" v="valley" />
		<tag k="place" v="locality" />
		<tag k="ssr:date" v="2019-12-27" />
		<tag k="ssr:gruppe" v="senkninger" />
		<tag k="ssr:hovedgruppe" v="terreng" />
		<tag k="ssr:stedsnr" v="334296" />
		<tag k="ssr:type" v="dal" />
	</node>
	<node lat="70.55037225754528" lon="29.99773747802237" id="-102777">
		<tag k="fixme" v="consider natural=peak for the most distinct mountains in the district" />
		<tag k="name" v="Steinfjellet" />
		<tag k="natural" v="hill" />
		<tag k="place" v="locality" />
		<tag k="ssr:date" v="2019-12-27" />
		<tag k="ssr:gruppe" v="høyder" />
		<tag k="ssr:hovedgruppe" v="terreng" />
		<tag k="ssr:stedsnr" v="334450" />
		<tag k="ssr:type" v="fjell" />
	</node>
	<node lat="70.50080559224756" lon="30.042992989776245" id="-102778">
		<tag k="fixme" v="consider natural=peak for the most distinct mountains in the district" />
		<tag k="name" v="Oterfjellet" />
		<tag k="natural" v="hill" />
		<tag k="place" v="locality" />
		<tag k="ssr:date" v="2019-12-27" />
		<tag k="ssr:gruppe" v="høyder" />
		<tag k="ssr:hovedgruppe" v="terreng" />
		<tag k="ssr:stedsnr" v="384007" />
		<tag k="ssr:type" v="fjell" />
	</node>
	<node lat="70.5616750355496" lon="30.037820810282412" id="-102779">
		<tag k="name" v="Nordfjorddalen" />
		<tag k="natural" v="valley" />
		<tag k="place" v="locality" />
		<tag k="ssr:date" v="2019-12-27" />
		<tag k="ssr:gruppe" v="senkninger" />
		<tag k="ssr:hovedgruppe" v="terreng" />
		<tag k="ssr:stedsnr" v="384047" />
		<tag k="ssr:type" v="dal" />
	</node>
	<node lat="70.51373059735754" lon="30.432195571776884" id="-102780">
		<tag k="name" v="Syltevikmoan" />
		<tag k="place" v="locality" />
		<tag k="ssr:date" v="2019-12-27" />
		<tag k="ssr:gruppe" v="flater" />
		<tag k="ssr:hovedgruppe" v="terreng" />
		<tag k="ssr:stedsnr" v="384001" />
		<tag k="ssr:type" v="mo" />
	</node>
	<node lat="70.62923613983081" lon="29.694790448598358" id="-102781">
		<tag k="loc_name:se" v="Báhcavuonna" />
		<tag k="name" v="Båtsfjord" />
		<tag k="name:no" v="Båtsfjord" />
		<tag k="place" v="village" />
		<tag k="ssr:date" v="2019-12-27" />
		<tag k="ssr:gruppe" v="bebyggelsesområder" />
		<tag k="ssr:hovedgruppe" v="bebyggelse" />
		<tag k="ssr:stedsnr" v="384452" />
		<tag k="ssr:type" v="tettsted" />
	</node>
	<node lat="70.46520838247129" lon="30.729728687607153" id="-102782">
		<tag k="name" v="Seglkollen" />
		<tag k="natural" v="hill" />
		<tag k="place" v="locality" />
		<tag k="ssr:date" v="2019-12-27" />
		<tag k="ssr:gruppe" v="høyder" />
		<tag k="ssr:hovedgruppe" v="terreng" />
		<tag k="ssr:stedsnr" v="384905" />
		<tag k="ssr:type" v="haug" />
	</node>
	<node lat="70.44518614761235" lon="29.86609307265387" id="-102783">
		<tag k="name" v="Noaidejohka" />
		<tag k="name:se" v="Noaidejohka" />
		<tag k="old_name:se" v="Noaidejåkka" />
		<tag k="ssr:date" v="2019-12-27" />
		<tag k="ssr:gruppe" v="rennendeVann" />
		<tag k="ssr:hovedgruppe" v="ferskvann" />
		<tag k="ssr:stedsnr" v="384961" />
		<tag k="ssr:type" v="bekk" />
		<tag k="waterway" v="stream" />
	</node>
	<node lat="70.61880280919114" lon="29.687323765412287" id="-102785">
		<tag k="name" v="Strømsnes" />
		<tag k="place" v="quarter" />
		<tag k="ssr:date" v="2019-12-27" />
		<tag k="ssr:gruppe" v="bebyggelsesområder" />
		<tag k="ssr:hovedgruppe" v="bebyggelse" />
		<tag k="ssr:stedsnr" v="394312" />
		<tag k="ssr:type" v="boligfelt" />
	</node>
	<node lat="70.51703336696278" lon="29.92511528633124" id="-102787">
		<tag k="name" v="Moan" />
		<tag k="place" v="locality" />
		<tag k="ssr:date" v="2019-12-27" />
		<tag k="ssr:gruppe" v="flater" />
		<tag k="ssr:hovedgruppe" v="terreng" />
		<tag k="ssr:stedsnr" v="394387" />
		<tag k="ssr:type" v="mo" />
	</node>
	<node lat="70.54293892330848" lon="30.086440210252622" id="-102788">
		<tag k="name" v="Stormolla" />
		<tag k="natural" v="bay" />
		<tag k="ssr:date" v="2019-12-27" />
		<tag k="ssr:gruppe" v="kystkontur" />
		<tag k="ssr:hovedgruppe" v="sjø" />
		<tag k="ssr:stedsnr" v="394495" />
		<tag k="ssr:type" v="vikISjø" />
	</node>
	<node lat="70.70752502787445" lon="29.989712560524666" id="-102789">
		<tag k="name" v="Rossmålvika" />
		<tag k="natural" v="bay" />
		<tag k="ssr:date" v="2019-12-27" />
		<tag k="ssr:gruppe" v="kystkontur" />
		<tag k="ssr:hovedgruppe" v="sjø" />
		<tag k="ssr:stedsnr" v="445492" />
		<tag k="ssr:type" v="vikISjø" />
	</node>
	<node lat="70.66429447890023" lon="29.943626448782314" id="-102790">
		<tag k="fixme" v="consider natural=peak for the most distinct mountains in the district" />
		<tag k="name" v="Makkaurfjella" />
		<tag k="natural" v="hill" />
		<tag k="place" v="locality" />
		<tag k="ssr:date" v="2019-12-27" />
		<tag k="ssr:gruppe" v="høyder" />
		<tag k="ssr:hovedgruppe" v="terreng" />
		<tag k="ssr:stedsnr" v="445499" />
		<tag k="ssr:type" v="fjell" />
	</node>
	<node lat="70.68376114032841" lon="29.800057068611206" id="-102791">
		<tag k="name" v="Elveneset" />
		<tag k="natural" v="cape" />
		<tag k="ssr:date" v="2019-12-27" />
		<tag k="ssr:gruppe" v="kystkontur" />
		<tag k="ssr:hovedgruppe" v="sjø" />
		<tag k="ssr:stedsnr" v="445508" />
		<tag k="ssr:type" v="nesISjø" />
	</node>
	<node lat="70.54729726290552" lon="30.008351364571197" id="-102793">
		<tag k="name" v="Gardijåkkdalen" />
		<tag k="natural" v="valley" />
		<tag k="place" v="locality" />
		<tag k="ssr:date" v="2019-12-27" />
		<tag k="ssr:gruppe" v="senkninger" />
		<tag k="ssr:hovedgruppe" v="terreng" />
		<tag k="ssr:stedsnr" v="455477" />
		<tag k="ssr:type" v="dal" />
	</node>
	<node lat="70.5252250327909" lon="29.319190571306102" id="-102794">
		<tag k="name" v="Tanadalen" />
		<tag k="natural" v="valley" />
		<tag k="place" v="locality" />
		<tag k="ssr:date" v="2019-12-27" />
		<tag k="ssr:gruppe" v="senkninger" />
		<tag k="ssr:hovedgruppe" v="terreng" />
		<tag k="ssr:stedsnr" v="505505" />
		<tag k="ssr:type" v="dal" />
	</node>
	<node lat="70.59782225078489" lon="29.634940459917043" id="-102795">
		<tag k="name" v="Jonatoppen - Jovnnačohkka" />
		<tag k="name:no" v="Jonatoppen" />
		<tag k="name:se" v="Jovnnačohkka" />
		<tag k="natural" v="hill" />
		<tag k="old_name:se" v="Jåvnačåkka" />
		<tag k="place" v="locality" />
		<tag k="ssr:date" v="2019-12-27" />
		<tag k="ssr:gruppe" v="høyder" />
		<tag k="ssr:hovedgruppe" v="terreng" />
		<tag k="ssr:stedsnr" v="505472" />
		<tag k="ssr:type" v="haug" />
	</node>
	<node lat="70.61285003168358" lon="29.764584856979063" id="-102796">
		<tag k="name" v="Klauvvatnet" />
		<tag k="natural" v="water" />
		<tag k="ssr:date" v="2019-12-27" />
		<tag k="ssr:gruppe" v="stilleståendeVann" />
		<tag k="ssr:hovedgruppe" v="ferskvann" />
		<tag k="ssr:stedsnr" v="505475" />
		<tag k="ssr:type" v="tjern" />
	</node>
	<node lat="70.46452782037308" lon="30.13932904527898" id="-102797">
		<tag k="name" v="Skadjasuolojohka" />
		<tag k="name:se" v="Skadjasuolojohka" />
		<tag k="old_name:se" v="Skaddjasuolujåkka" />
		<tag k="ssr:date" v="2019-12-27" />
		<tag k="ssr:gruppe" v="rennendeVann" />
		<tag k="ssr:hovedgruppe" v="ferskvann" />
		<tag k="ssr:stedsnr" v="505875" />
		<tag k="ssr:type" v="elv" />
		<tag k="waterway" v="river" />
	</node>
	<node lat="70.4657750366659" lon="30.07178464540591" id="-102798">
		<tag k="name" v="Tobiasdalen" />
		<tag k="natural" v="valley" />
		<tag k="place" v="locality" />
		<tag k="ssr:date" v="2019-12-27" />
		<tag k="ssr:gruppe" v="senkninger" />
		<tag k="ssr:hovedgruppe" v="terreng" />
		<tag k="ssr:stedsnr" v="505877" />
		<tag k="ssr:type" v="dal" />
	</node>
	<node lat="70.310663936917" lon="30.1126428688875" id="-102799">
		<tag k="name" v="Hubejohskáidi" />
		<tag k="name:se" v="Hubejohskáidi" />
		<tag k="natural" v="cape" />
		<tag k="old_name:se" v="Hubejåkskaidi" />
		<tag k="ssr:date" v="2019-12-27" />
		<tag k="ssr:gruppe" v="rennendeVann" />
		<tag k="ssr:hovedgruppe" v="ferskvann" />
		<tag k="ssr:stedsnr" v="505909" />
		<tag k="ssr:type" v="nesVedElver" />
	</node>
	<node lat="70.29649726403954" lon="30.074115119059794" id="-102800">
		<tag k="name" v="Grythaugen - Stuorra Ruitu" />
		<tag k="name:fkv" v="Patatunturi" />
		<tag k="name:no" v="Grythaugen" />
		<tag k="name:se" v="Stuorra Ruitu" />
		<tag k="natural" v="hill" />
		<tag k="old_name:se" v="Ruito, stuorra" />
		<tag k="place" v="locality" />
		<tag k="ssr:date" v="2020-02-27" />
		<tag k="ssr:gruppe" v="høyder" />
		<tag k="ssr:hovedgruppe" v="terreng" />
		<tag k="ssr:stedsnr" v="505910" />
		<tag k="ssr:type" v="haug" />
	</node>
	<node lat="70.3784417107456" lon="29.940893012310465" id="-102801">
		<tag k="name" v="Sandfjorddalen" />
		<tag k="natural" v="valley" />
		<tag k="place" v="locality" />
		<tag k="ssr:date" v="2019-12-27" />
		<tag k="ssr:gruppe" v="senkninger" />
		<tag k="ssr:hovedgruppe" v="terreng" />
		<tag k="ssr:stedsnr" v="505963" />
		<tag k="ssr:type" v="dal" />
	</node>
	<node lat="70.65392781228607" lon="30.112293032492286" id="-102802">
		<tag k="name" v="Kålfjord" />
		<tag k="place" v="isolated_dwelling" />
		<tag k="ssr:date" v="2019-12-27" />
		<tag k="ssr:gruppe" v="bolighus" />
		<tag k="ssr:hovedgruppe" v="bebyggelse" />
		<tag k="ssr:stedsnr" v="511509" />
		<tag k="ssr:type" v="fritidsbolig" />
	</node>
	<node lat="70.5408583750069" lon="30.56124272776514" id="-102803">
		<tag k="name" v="Ovnsmolla" />
		<tag k="natural" v="bay" />
		<tag k="ssr:date" v="2019-12-27" />
		<tag k="ssr:gruppe" v="kystkontur" />
		<tag k="ssr:hovedgruppe" v="sjø" />
		<tag k="ssr:stedsnr" v="511988" />
		<tag k="ssr:type" v="vikISjø" />
	</node>
	<node lat="70.61538059079233" lon="29.68721821590005" id="-102804">
		<tag k="name" v="Spira" />
		<tag k="place" v="locality" />
		<tag k="ssr:date" v="2021-11-09" />
		<tag k="ssr:gruppe" v="bolighus" />
		<tag k="ssr:hovedgruppe" v="bebyggelse" />
		<tag k="ssr:stedsnr" v="516127" />
		<tag k="ssr:type" v="gammelBosettingsplass" />
	</node>
	<node lat="70.58895836501655" lon="29.646451551042226" id="-102805">
		<tag k="name" v="Bardosenbakken" />
		<tag k="natural" v="slope" />
		<tag k="place" v="locality" />
		<tag k="ssr:date" v="2019-12-27" />
		<tag k="ssr:gruppe" v="skråninger" />
		<tag k="ssr:hovedgruppe" v="terreng" />
		<tag k="ssr:stedsnr" v="516134" />
		<tag k="ssr:type" v="bakke" />
	</node>
	<node lat="70.5068111479237" lon="29.874240323333584" id="-102806">
		<tag k="name" v="Reingjerdneset" />
		<tag k="natural" v="cape" />
		<tag k="ssr:date" v="2019-12-27" />
		<tag k="ssr:gruppe" v="ferskvannskontur" />
		<tag k="ssr:hovedgruppe" v="ferskvann" />
		<tag k="ssr:stedsnr" v="516364" />
		<tag k="ssr:type" v="nes" />
	</node>
	<node lat="70.53520004391383" lon="30.540001061793564" id="-102807">
		<tag k="name" v="Ovnsvatnan" />
		<tag k="natural" v="water" />
		<tag k="ssr:date" v="2019-12-27" />
		<tag k="ssr:gruppe" v="stilleståendeVann" />
		<tag k="ssr:hovedgruppe" v="ferskvann" />
		<tag k="ssr:stedsnr" v="687011" />
		<tag k="ssr:type" v="tjern" />
	</node>
	<node lat="70.51548892616367" lon="30.11402629067531" id="-102808">
		<tag k="alt_name" v="Oterneset" />
		<tag k="name" v="Oternesan" />
		<tag k="natural" v="cape" />
		<tag k="ssr:date" v="2019-12-27" />
		<tag k="ssr:gruppe" v="kystkontur" />
		<tag k="ssr:hovedgruppe" v="sjø" />
		<tag k="ssr:stedsnr" v="687014" />
		<tag k="ssr:type" v="nesISjø" />
	</node>
	<node lat="70.5157389236405" lon="30.08075687902976" id="-102809">
		<tag k="name" v="Litleelva" />
		<tag k="ssr:date" v="2019-12-27" />
		<tag k="ssr:gruppe" v="rennendeVann" />
		<tag k="ssr:hovedgruppe" v="ferskvann" />
		<tag k="ssr:stedsnr" v="687015" />
		<tag k="ssr:type" v="bekk" />
		<tag k="waterway" v="stream" />
	</node>
	<node lat="70.54114449077579" lon="30.609967690413928" id="-102812">
		<tag k="alt_name:no" v="Havningberg" />
		<tag k="fixme" v="consider place=hamlet" />
		<tag k="loc_name:se" v="Hámbiergi;Hámmanbirgi" />
		<tag k="name" v="Hamningberg" />
		<tag k="name:no" v="Hamningberg" />
		<tag k="place" v="village" />
		<tag k="ssr:date" v="2019-12-27" />
		<tag k="ssr:gruppe" v="bebyggelsesområder" />
		<tag k="ssr:hovedgruppe" v="bebyggelse" />
		<tag k="ssr:stedsnr" v="687053" />
		<tag k="ssr:type" v="bygdelagBygd" />
	</node>
	<node lat="70.55699725898508" lon="30.217406803207783" id="-102813">
		<tag k="name" v="Sandfjordneset" />
		<tag k="natural" v="cape" />
		<tag k="ssr:date" v="2019-12-27" />
		<tag k="ssr:gruppe" v="kystkontur" />
		<tag k="ssr:hovedgruppe" v="sjø" />
		<tag k="ssr:stedsnr" v="687055" />
		<tag k="ssr:type" v="nesISjø" />
	</node>
	<node lat="70.52170003138782" lon="29.730990396102225" id="-102814">
		<tag k="name" v="Skarpdalen" />
		<tag k="natural" v="valley" />
		<tag k="place" v="locality" />
		<tag k="ssr:date" v="2019-12-27" />
		<tag k="ssr:gruppe" v="senkninger" />
		<tag k="ssr:hovedgruppe" v="terreng" />
		<tag k="ssr:stedsnr" v="687439" />
		<tag k="ssr:type" v="dal" />
	</node>
	<node lat="70.53965836245874" lon="29.466865521788165" id="-102815">
		<tag k="name" v="Adamstoppen - Áttáčohkka" />
		<tag k="name:no" v="Adamstoppen" />
		<tag k="name:se" v="Áttáčohkka" />
		<tag k="natural" v="hill" />
		<tag k="old_name:se" v="Addačåkka" />
		<tag k="place" v="locality" />
		<tag k="ssr:date" v="2019-12-27" />
		<tag k="ssr:gruppe" v="høyder" />
		<tag k="ssr:hovedgruppe" v="terreng" />
		<tag k="ssr:stedsnr" v="687431" />
		<tag k="ssr:type" v="haug" />
	</node>
	<node lat="70.59858058915925" lon="29.664743232396123" id="-102816">
		<tag k="name" v="Båtsfjorddalen" />
		<tag k="natural" v="valley" />
		<tag k="old_name" v="Båtsfjordalen" />
		<tag k="place" v="locality" />
		<tag k="ssr:date" v="2019-12-27" />
		<tag k="ssr:gruppe" v="senkninger" />
		<tag k="ssr:hovedgruppe" v="terreng" />
		<tag k="ssr:stedsnr" v="687463" />
		<tag k="ssr:type" v="dal" />
	</node>
	<node lat="70.46778336664076" lon="29.35605443556909" id="-102817">
		<tag k="name" v="Rávdolskáidi" />
		<tag k="name:se" v="Rávdolskáidi" />
		<tag k="natural" v="cape" />
		<tag k="old_name:se" v="Ravdulskaidi" />
		<tag k="ssr:date" v="2019-12-27" />
		<tag k="ssr:gruppe" v="rennendeVann" />
		<tag k="ssr:hovedgruppe" v="ferskvann" />
		<tag k="ssr:stedsnr" v="687943" />
		<tag k="ssr:type" v="nesVedElver" />
	</node>
	<node lat="70.47489447304734" lon="29.224129490548556" id="-102818">
		<tag k="name" v="Oarddojávri" />
		<tag k="name:fkv" v="Ortojärvi" />
		<tag k="name:se" v="Oarddojávri" />
		<tag k="natural" v="water" />
		<tag k="old_name:se" v="Oardujavri" />
		<tag k="ssr:date" v="2020-02-27" />
		<tag k="ssr:gruppe" v="stilleståendeVann" />
		<tag k="ssr:hovedgruppe" v="ferskvann" />
		<tag k="ssr:stedsnr" v="687952" />
		<tag k="ssr:type" v="vann" />
		<tag k="water" v="lake" />
	</node>
	<node lat="70.60769447953679" lon="29.625715465609456" id="-102819">
		<tag k="name" v="Tverrelva" />
		<tag k="ssr:date" v="2019-12-27" />
		<tag k="ssr:gruppe" v="rennendeVann" />
		<tag k="ssr:hovedgruppe" v="ferskvann" />
		<tag k="ssr:stedsnr" v="688100" />
		<tag k="ssr:type" v="elv" />
		<tag k="waterway" v="river" />
	</node>
	<node lat="70.51238058809203" lon="29.376801653011146" id="-102820">
		<tag k="name" v="Elvestrandshøgda" />
		<tag k="natural" v="hill" />
		<tag k="place" v="locality" />
		<tag k="ssr:date" v="2019-12-27" />
		<tag k="ssr:gruppe" v="høyder" />
		<tag k="ssr:hovedgruppe" v="terreng" />
		<tag k="ssr:stedsnr" v="688508" />
		<tag k="ssr:type" v="haug" />
	</node>
	<node lat="70.62604169768484" lon="29.81830427924033" id="-102821">
		<tag k="name" v="Skovikdalen" />
		<tag k="natural" v="valley" />
		<tag k="place" v="locality" />
		<tag k="ssr:date" v="2019-12-27" />
		<tag k="ssr:gruppe" v="senkninger" />
		<tag k="ssr:hovedgruppe" v="terreng" />
		<tag k="ssr:stedsnr" v="688465" />
		<tag k="ssr:type" v="dal" />
	</node>
	<node lat="70.64572503390399" lon="29.876182026066353" id="-102822">
		<tag k="name" v="Prestelvvatnet" />
		<tag k="natural" v="water" />
		<tag k="ssr:date" v="2019-12-27" />
		<tag k="ssr:gruppe" v="stilleståendeVann" />
		<tag k="ssr:hovedgruppe" v="ferskvann" />
		<tag k="ssr:stedsnr" v="688468" />
		<tag k="ssr:type" v="tjern" />
	</node>
	<node lat="70.61988058421483" lon="29.79878762126457" id="-102823">
		<tag k="name" v="Skovikvatnet" />
		<tag k="natural" v="water" />
		<tag k="ssr:date" v="2019-12-27" />
		<tag k="ssr:gruppe" v="stilleståendeVann" />
		<tag k="ssr:hovedgruppe" v="ferskvann" />
		<tag k="ssr:stedsnr" v="688473" />
		<tag k="ssr:type" v="tjern" />
	</node>
	<node lat="70.69557503386615" lon="29.740923778665774" id="-102824">
		<tag k="fixme" v="multiple name tags, choose one and add the other to alt_name" />
		<tag k="name" v="Rubbedalen;Austre Rubbedalen" />
		<tag k="natural" v="valley" />
		<tag k="old_name" v="Rubbedalen, austre" />
		<tag k="place" v="locality" />
		<tag k="ssr:date" v="2019-12-27" />
		<tag k="ssr:gruppe" v="senkninger" />
		<tag k="ssr:hovedgruppe" v="terreng" />
		<tag k="ssr:stedsnr" v="688478" />
		<tag k="ssr:type" v="dal" />
	</node>
	<node lat="70.4557250411719" lon="30.046401326265887" id="-102825">
		<tag k="name" v="Krokdalen" />
		<tag k="natural" v="valley" />
		<tag k="place" v="locality" />
		<tag k="ssr:date" v="2019-12-27" />
		<tag k="ssr:gruppe" v="senkninger" />
		<tag k="ssr:hovedgruppe" v="terreng" />
		<tag k="ssr:stedsnr" v="565895" />
		<tag k="ssr:type" v="dal" />
	</node>
	<node lat="70.54657503714046" lon="30.011340261117315" id="-102826">
		<tag k="alt_name:se" v="Gárdjohka;Gárdijohka" />
		<tag k="name" v="Gárdojohka" />
		<tag k="name:se" v="Gárdojohka" />
		<tag k="old_name:se" v="Gardujåkka" />
		<tag k="ssr:date" v="2019-12-27" />
		<tag k="ssr:gruppe" v="rennendeVann" />
		<tag k="ssr:hovedgruppe" v="ferskvann" />
		<tag k="ssr:stedsnr" v="566059" />
		<tag k="ssr:type" v="bekk" />
		<tag k="waterway" v="stream" />
	</node>
	<node lat="70.62660280497565" lon="29.631307128108855" id="-102827">
		<tag k="name" v="Neptunelva" />
		<tag k="ssr:date" v="2019-12-27" />
		<tag k="ssr:gruppe" v="rennendeVann" />
		<tag k="ssr:hovedgruppe" v="ferskvann" />
		<tag k="ssr:stedsnr" v="566466" />
		<tag k="ssr:type" v="elv" />
		<tag k="waterway" v="river" />
	</node>
	<node lat="70.63483058633132" lon="29.804384848830985" id="-102828">
		<tag k="name" v="Skovika" />
		<tag k="natural" v="bay" />
		<tag k="ssr:date" v="2019-12-27" />
		<tag k="ssr:gruppe" v="kystkontur" />
		<tag k="ssr:hovedgruppe" v="sjø" />
		<tag k="ssr:stedsnr" v="566469" />
		<tag k="ssr:type" v="vikISjø" />
	</node>
	<node lat="70.38344170735722" lon="29.91130970186871" id="-102829">
		<tag k="name" v="Sandfjordelva - Dávatjohka" />
		<tag k="name:no" v="Sandfjordelva" />
		<tag k="name:se" v="Dávatjohka" />
		<tag k="old_name:se" v="Davatjåkka" />
		<tag k="ssr:date" v="2019-12-27" />
		<tag k="ssr:gruppe" v="rennendeVann" />
		<tag k="ssr:hovedgruppe" v="ferskvann" />
		<tag k="ssr:stedsnr" v="566961" />
		<tag k="ssr:type" v="elv" />
		<tag k="waterway" v="river" />
	</node>
	<node lat="70.38653892538446" lon="29.732234773073852" id="-102830">
		<tag k="fixme" v="consider natural=peak for the most distinct mountains in the district" />
		<tag k="name" v="Ruossoaivi" />
		<tag k="name:se" v="Ruossoaivi" />
		<tag k="natural" v="hill" />
		<tag k="place" v="locality" />
		<tag k="ssr:date" v="2019-12-27" />
		<tag k="ssr:gruppe" v="høyder" />
		<tag k="ssr:hovedgruppe" v="terreng" />
		<tag k="ssr:stedsnr" v="566965" />
		<tag k="ssr:type" v="ås" />
	</node>
	<node lat="70.71116392615389" lon="30.133912483828162" id="-102831">
		<tag k="name" v="Lønfallet" />
		<tag k="natural" v="shoal" />
		<tag k="place" v="locality" />
		<tag k="ssr:date" v="2019-12-27" />
		<tag k="ssr:gruppe" v="grunnerISjø" />
		<tag k="ssr:hovedgruppe" v="sjø" />
		<tag k="ssr:stedsnr" v="693540" />
		<tag k="ssr:type" v="grunneISjø" />
	</node>
	<node lat="70.67356114185507" lon="29.886537604551624" id="-102832">
		<tag k="name" v="Raudbergneset" />
		<tag k="natural" v="cape" />
		<tag k="ssr:date" v="2019-12-27" />
		<tag k="ssr:gruppe" v="kystkontur" />
		<tag k="ssr:hovedgruppe" v="sjø" />
		<tag k="ssr:stedsnr" v="571514" />
		<tag k="ssr:type" v="nesISjø" />
	</node>
	<node lat="70.61795558389922" lon="29.689001545098897" id="-102833">
		<tag k="alt_name" v="Strømmen" />
		<tag k="name" v="Straumen" />
		<tag k="natural" v="strait" />
		<tag k="ssr:date" v="2019-12-27" />
		<tag k="ssr:gruppe" v="kystkontur" />
		<tag k="ssr:hovedgruppe" v="sjø" />
		<tag k="ssr:stedsnr" v="694457" />
		<tag k="ssr:type" v="sundISjø" />
	</node>
	<node lat="70.50344447946156" lon="29.857265329639727" id="-102834">
		<tag k="name" v="Solheim" />
		<tag k="place" v="locality" />
		<tag k="ssr:date" v="2019-12-27" />
		<tag k="ssr:gruppe" v="flater" />
		<tag k="ssr:hovedgruppe" v="terreng" />
		<tag k="ssr:stedsnr" v="576402" />
		<tag k="ssr:type" v="mo" />
	</node>
	<node lat="70.55074170451987" lon="30.085773542871287" id="-102835">
		<tag k="building" v="industrial" />
		<tag k="industrial" v="factory" />
		<tag k="name" v="Samvirkebruket" />
		<tag k="ssr:date" v="2019-12-27" />
		<tag k="ssr:gruppe" v="næring" />
		<tag k="ssr:hovedgruppe" v="bebyggelse" />
		<tag k="ssr:stedsnr" v="576494" />
		<tag k="ssr:type" v="fabrikk" />
	</node>
	<node lat="70.61485558577921" lon="29.665559890200573" id="-102836">
		<tag k="name" v="Gattjohka" />
		<tag k="name:se" v="Gattjohka" />
		<tag k="ssr:date" v="2019-12-27" />
		<tag k="ssr:gruppe" v="rennendeVann" />
		<tag k="ssr:hovedgruppe" v="ferskvann" />
		<tag k="ssr:stedsnr" v="698206" />
		<tag k="ssr:type" v="bekk" />
		<tag k="waterway" v="stream" />
	</node>
	<node lat="70.62535002769468" lon="29.7121015538887" id="-102837">
		<tag k="name" v="Sørnes" />
		<tag k="natural" v="cape" />
		<tag k="ssr:date" v="2019-12-27" />
		<tag k="ssr:gruppe" v="kystkontur" />
		<tag k="ssr:hovedgruppe" v="sjø" />
		<tag k="ssr:stedsnr" v="698332" />
		<tag k="ssr:type" v="nesISjø" />
	</node>
	<node lat="70.50588336567012" lon="29.893701410898966" id="-102838">
		<tag k="name" v="Reingjerdan" />
		<tag k="place" v="locality" />
		<tag k="ssr:date" v="2019-12-27" />
		<tag k="ssr:gruppe" v="flater" />
		<tag k="ssr:hovedgruppe" v="terreng" />
		<tag k="ssr:stedsnr" v="698349" />
		<tag k="ssr:type" v="mo" />
	</node>
	<node lat="70.51333893100858" lon="30.51592327756399" id="-102839">
		<tag k="name" v="Småelvan" />
		<tag k="ssr:date" v="2019-12-27" />
		<tag k="ssr:gruppe" v="rennendeVann" />
		<tag k="ssr:hovedgruppe" v="ferskvann" />
		<tag k="ssr:stedsnr" v="626007" />
		<tag k="ssr:type" v="bekk" />
		<tag k="waterway" v="stream" />
	</node>
	<node lat="70.50200004403064" lon="30.568312138201602" id="-102840">
		<tag k="alt_name" v="Sandfjorden" />
		<tag k="name" v="Sandfjord" />
		<tag k="place" v="locality" />
		<tag k="ssr:date" v="2019-12-27" />
		<tag k="ssr:gruppe" v="bolighus" />
		<tag k="ssr:hovedgruppe" v="bebyggelse" />
		<tag k="ssr:stedsnr" v="626012" />
		<tag k="ssr:type" v="gammelBosettingsplass" />
	</node>
	<node lat="70.5031833665124" lon="29.765587576432967" id="-102841">
		<tag k="name" v="Strupen" />
		<tag k="natural" v="valley" />
		<tag k="place" v="locality" />
		<tag k="ssr:date" v="2019-12-27" />
		<tag k="ssr:gruppe" v="senkninger" />
		<tag k="ssr:hovedgruppe" v="terreng" />
		<tag k="ssr:stedsnr" v="626054" />
		<tag k="ssr:type" v="skar" />
	</node>
	<node lat="70.64252503250994" lon="30.154020778102556" id="-102842">
		<tag k="name" v="Bjørndalen" />
		<tag k="natural" v="valley" />
		<tag k="place" v="locality" />
		<tag k="ssr:date" v="2019-12-27" />
		<tag k="ssr:gruppe" v="senkninger" />
		<tag k="ssr:hovedgruppe" v="terreng" />
		<tag k="ssr:stedsnr" v="626056" />
		<tag k="ssr:type" v="dal" />
	</node>
	<node lat="70.53170559388577" lon="30.006298578450487" id="-102845">
		<tag k="name" v="Vesterelv" />
		<tag k="place" v="farm" />
		<tag k="ssr:date" v="2019-12-27" />
		<tag k="ssr:gruppe" v="gardsbebyggelse" />
		<tag k="ssr:hovedgruppe" v="bebyggelse" />
		<tag k="ssr:stedsnr" v="626065" />
		<tag k="ssr:type" v="bruk" />
	</node>
	<node lat="70.61243336989722" lon="29.717643199018035" id="-102846">
		<tag k="name" v="Perelva" />
		<tag k="ssr:date" v="2019-12-27" />
		<tag k="ssr:gruppe" v="rennendeVann" />
		<tag k="ssr:hovedgruppe" v="ferskvann" />
		<tag k="ssr:stedsnr" v="626502" />
		<tag k="ssr:type" v="bekk" />
		<tag k="waterway" v="stream" />
	</node>
	<node lat="70.46876115312817" lon="30.182145700776346" id="-102847">
		<tag k="fixme" v="consider natural=peak for the most distinct mountains in the district" />
		<tag k="name" v="Steinelvdalfjellet" />
		<tag k="natural" v="hill" />
		<tag k="place" v="locality" />
		<tag k="ssr:date" v="2019-12-27" />
		<tag k="ssr:gruppe" v="høyder" />
		<tag k="ssr:hovedgruppe" v="terreng" />
		<tag k="ssr:stedsnr" v="626897" />
		<tag k="ssr:type" v="fjell" />
	</node>
	<node lat="70.45525004026139" lon="30.116862386833862" id="-102848">
		<tag k="fixme" v="consider natural=peak for the most distinct mountains in the district" />
		<tag k="name" v="Mellomfjellet" />
		<tag k="natural" v="hill" />
		<tag k="place" v="locality" />
		<tag k="ssr:date" v="2019-12-27" />
		<tag k="ssr:gruppe" v="høyder" />
		<tag k="ssr:hovedgruppe" v="terreng" />
		<tag k="ssr:stedsnr" v="626898" />
		<tag k="ssr:type" v="ås" />
	</node>
	<node lat="70.46047781841722" lon="30.15437347324391" id="-102849">
		<tag k="name" v="Mariedalen" />
		<tag k="natural" v="valley" />
		<tag k="place" v="locality" />
		<tag k="ssr:date" v="2019-12-27" />
		<tag k="ssr:gruppe" v="senkninger" />
		<tag k="ssr:hovedgruppe" v="terreng" />
		<tag k="ssr:stedsnr" v="626901" />
		<tag k="ssr:type" v="dal" />
	</node>
	<node lat="70.36184448622721" lon="29.89720411970995" id="-102850">
		<tag k="fixme" v="consider natural=peak for the most distinct mountains in the district" />
		<tag k="name" v="Gárgaš" />
		<tag k="name:se" v="Gárgaš" />
		<tag k="natural" v="hill" />
		<tag k="old_name:se" v="Gargaš" />
		<tag k="place" v="locality" />
		<tag k="ssr:date" v="2019-12-27" />
		<tag k="ssr:gruppe" v="høyder" />
		<tag k="ssr:hovedgruppe" v="terreng" />
		<tag k="ssr:stedsnr" v="626912" />
		<tag k="ssr:type" v="fjell" />
	</node>
	<node lat="70.69526114046087" lon="29.970776451576025" id="-102852">
		<tag k="name" v="Rossmålsaksla" />
		<tag k="natural" v="ridge" />
		<tag k="place" v="locality" />
		<tag k="ssr:date" v="2019-12-27" />
		<tag k="ssr:gruppe" v="høyder" />
		<tag k="ssr:hovedgruppe" v="terreng" />
		<tag k="ssr:stedsnr" v="632514" />
		<tag k="ssr:type" v="rygg" />
	</node>
	<node lat="70.39286393531636" lon="30.352226099580456" id="-102853">
		<tag k="name" v="Juovkkaidláttu" />
		<tag k="name:se" v="Juovkkaidláttu" />
		<tag k="natural" v="water" />
		<tag k="old_name:se" v="Juovkaidladdo" />
		<tag k="ssr:date" v="2019-12-27" />
		<tag k="ssr:gruppe" v="stilleståendeVann" />
		<tag k="ssr:hovedgruppe" v="ferskvann" />
		<tag k="ssr:stedsnr" v="687890" />
		<tag k="ssr:type" v="tjern" />
	</node>
	<node lat="70.51846671529452" lon="30.598426013002765" id="-102854">
		<tag k="name" v="Kvannvikbukta" />
		<tag k="natural" v="bay" />
		<tag k="ssr:date" v="2019-12-27" />
		<tag k="ssr:gruppe" v="kystkontur" />
		<tag k="ssr:hovedgruppe" v="sjø" />
		<tag k="ssr:stedsnr" v="688005" />
		<tag k="ssr:type" v="vikISjø" />
	</node>
	<node lat="70.51567782396336" lon="30.4931538739061" id="-102855">
		<tag k="name" v="Stormyrvatnet" />
		<tag k="natural" v="water" />
		<tag k="ssr:date" v="2019-12-27" />
		<tag k="ssr:gruppe" v="stilleståendeVann" />
		<tag k="ssr:hovedgruppe" v="ferskvann" />
		<tag k="ssr:stedsnr" v="688007" />
		<tag k="ssr:type" v="vann" />
		<tag k="water" v="lake" />
	</node>
	<node lat="70.34710003675386" lon="29.800690288951557" id="-102856">
		<tag k="name" v="Vuoččalanjohka" />
		<tag k="name:se" v="Vuoččalanjohka" />
		<tag k="old_name:se" v="Vuožžalanjåkka" />
		<tag k="ssr:date" v="2019-12-27" />
		<tag k="ssr:gruppe" v="rennendeVann" />
		<tag k="ssr:hovedgruppe" v="ferskvann" />
		<tag k="ssr:stedsnr" v="688906" />
		<tag k="ssr:type" v="elv" />
		<tag k="waterway" v="river" />
	</node>
	<node lat="70.35004171166597" lon="29.99734295359394" id="-102857">
		<tag k="name" v="Njuvččagurjávrrit" />
		<tag k="name:se" v="Njuvččagurjávrrit" />
		<tag k="natural" v="water" />
		<tag k="old_name:se" v="Njuvčagurjavrit" />
		<tag k="ssr:date" v="2019-12-27" />
		<tag k="ssr:gruppe" v="stilleståendeVann" />
		<tag k="ssr:hovedgruppe" v="ferskvann" />
		<tag k="ssr:stedsnr" v="688908" />
		<tag k="ssr:type" v="tjern" />
	</node>
	<node lat="70.49452504725214" lon="30.528376063987036" id="-102858">
		<tag k="name" v="Pølsedalen" />
		<tag k="natural" v="valley" />
		<tag k="place" v="locality" />
		<tag k="ssr:date" v="2019-12-27" />
		<tag k="ssr:gruppe" v="senkninger" />
		<tag k="ssr:hovedgruppe" v="terreng" />
		<tag k="ssr:stedsnr" v="688886" />
		<tag k="ssr:type" v="dal" />
	</node>
	<node lat="70.63525836835073" lon="29.71760155474859" id="-102859">
		<tag k="amenity" v="place_of_worship" />
		<tag k="denomination" v="lutheran" />
		<tag k="name" v="Båtsfjord kirke" />
		<tag k="religion" v="christian" />
		<tag k="ssr:date" v="2021-10-29" />
		<tag k="ssr:gruppe" v="kulturinstitusjoner" />
		<tag k="ssr:hovedgruppe" v="kultur" />
		<tag k="ssr:stedsnr" v="697865" />
		<tag k="ssr:type" v="kirke" />
	</node>
	<node lat="70.59020836679784" lon="29.63982935819081" id="-102860">
		<tag k="name" v="Beigårdskaret" />
		<tag k="natural" v="valley" />
		<tag k="place" v="locality" />
		<tag k="ssr:date" v="2019-12-27" />
		<tag k="ssr:gruppe" v="senkninger" />
		<tag k="ssr:hovedgruppe" v="terreng" />
		<tag k="ssr:stedsnr" v="698121" />
		<tag k="ssr:type" v="skar" />
	</node>
	<node lat="70.58606114465194" lon="29.6099071254962" id="-102861">
		<tag k="name" v="Beigårdtoppen" />
		<tag k="natural" v="hill" />
		<tag k="place" v="locality" />
		<tag k="ssr:date" v="2019-12-27" />
		<tag k="ssr:gruppe" v="høyder" />
		<tag k="ssr:hovedgruppe" v="terreng" />
		<tag k="ssr:stedsnr" v="698122" />
		<tag k="ssr:type" v="haug" />
	</node>
	<node lat="70.60367503144846" lon="29.579321049287163" id="-102862">
		<tag k="name" v="Bakkeelva" />
		<tag k="ssr:date" v="2019-12-27" />
		<tag k="ssr:gruppe" v="rennendeVann" />
		<tag k="ssr:hovedgruppe" v="ferskvann" />
		<tag k="ssr:stedsnr" v="698216" />
		<tag k="ssr:type" v="bekk" />
		<tag k="waterway" v="stream" />
	</node>
	<node lat="70.63427224921617" lon="29.731990435827974" id="-102863">
		<tag k="fixme" v="consider seamark:type=rock or natural=shoal" />
		<tag k="name" v="Teinskjæret" />
		<tag k="place" v="islet" />
		<tag k="ssr:date" v="2019-12-27" />
		<tag k="ssr:gruppe" v="grunnerISjø" />
		<tag k="ssr:hovedgruppe" v="sjø" />
		<tag k="ssr:stedsnr" v="698281" />
		<tag k="ssr:type" v="skjærISjø" />
	</node>
	<node lat="70.52328893631572" lon="30.61532323642064" id="-102864">
		<tag k="alt_name" v="Steinsnes, indre" />
		<tag k="name" v="Indre Steinsnes" />
		<tag k="natural" v="cape" />
		<tag k="ssr:date" v="2019-12-27" />
		<tag k="ssr:gruppe" v="kystkontur" />
		<tag k="ssr:hovedgruppe" v="sjø" />
		<tag k="ssr:stedsnr" v="748005" />
		<tag k="ssr:type" v="nesISjø" />
	</node>
	<node lat="70.51610559989159" lon="30.60037046035326" id="-102865">
		<tag k="alt_name" v="Kvamvikneset" />
		<tag k="name" v="Kvannvikneset" />
		<tag k="natural" v="cape" />
		<tag k="ssr:date" v="2019-12-27" />
		<tag k="ssr:gruppe" v="kystkontur" />
		<tag k="ssr:hovedgruppe" v="sjø" />
		<tag k="ssr:stedsnr" v="748010" />
		<tag k="ssr:type" v="nesISjø" />
	</node>
	<node lat="70.53078059304607" lon="30.289451203577233" id="-102866">
		<tag k="name" v="Romsdalen" />
		<tag k="natural" v="valley" />
		<tag k="place" v="locality" />
		<tag k="ssr:date" v="2019-12-27" />
		<tag k="ssr:gruppe" v="senkninger" />
		<tag k="ssr:hovedgruppe" v="terreng" />
		<tag k="ssr:stedsnr" v="748016" />
		<tag k="ssr:type" v="dal" />
	</node>
	<node lat="70.31511670826683" lon="29.931076311026608" id="-102868">
		<tag k="fixme" v="consider natural=peak for the most distinct mountains in the district" />
		<tag k="name" v="Uhcit Ruitu" />
		<tag k="name:se" v="Uhcit Ruitu" />
		<tag k="natural" v="hill" />
		<tag k="old_name:se" v="Ruito, uccit" />
		<tag k="place" v="locality" />
		<tag k="ssr:date" v="2019-12-27" />
		<tag k="ssr:gruppe" v="høyder" />
		<tag k="ssr:hovedgruppe" v="terreng" />
		<tag k="ssr:stedsnr" v="748917" />
		<tag k="ssr:type" v="ås" />
	</node>
	<node lat="70.61018336663166" lon="29.838351487584397" id="-102869">
		<tag k="fixme" v="consider natural=peak for the most distinct mountains in the district" />
		<tag k="name" v="Ravnnaš" />
		<tag k="name:se" v="Ravnnaš" />
		<tag k="natural" v="hill" />
		<tag k="old_name:se" v="Ravnaš" />
		<tag k="place" v="locality" />
		<tag k="ssr:date" v="2019-12-27" />
		<tag k="ssr:gruppe" v="høyder" />
		<tag k="ssr:hovedgruppe" v="terreng" />
		<tag k="ssr:stedsnr" v="808438" />
		<tag k="ssr:type" v="fjell" />
	</node>
	<node lat="70.59933336911122" lon="29.7658042923664" id="-102870">
		<tag k="name" v="Andedamman" />
		<tag k="natural" v="water" />
		<tag k="ssr:date" v="2019-12-27" />
		<tag k="ssr:gruppe" v="stilleståendeVann" />
		<tag k="ssr:hovedgruppe" v="ferskvann" />
		<tag k="ssr:stedsnr" v="808441" />
		<tag k="ssr:type" v="tjern" />
	</node>
	<node lat="70.40563893162154" lon="30.343126126752733" id="-102871">
		<tag k="fixme" v="consider natural=peak for the most distinct mountains in the district" />
		<tag k="name" v="Langryggen - Juovkkaidčearru" />
		<tag k="name:no" v="Langryggen" />
		<tag k="name:se" v="Juovkkaidčearru" />
		<tag k="natural" v="hill" />
		<tag k="old_name:se" v="Juovkaidčærro" />
		<tag k="place" v="locality" />
		<tag k="ssr:date" v="2019-12-27" />
		<tag k="ssr:gruppe" v="høyder" />
		<tag k="ssr:hovedgruppe" v="terreng" />
		<tag k="ssr:stedsnr" v="808885" />
		<tag k="ssr:type" v="fjell" />
	</node>
	<node lat="70.52638059999954" lon="30.483323321623818" id="-102872">
		<tag k="name" v="Kvalbeinvatnet" />
		<tag k="natural" v="water" />
		<tag k="ssr:date" v="2019-12-27" />
		<tag k="ssr:gruppe" v="stilleståendeVann" />
		<tag k="ssr:hovedgruppe" v="ferskvann" />
		<tag k="ssr:stedsnr" v="809005" />
		<tag k="ssr:type" v="vann" />
		<tag k="water" v="lake" />
	</node>
	<node lat="70.62229448110544" lon="29.726943198193595" id="-102873">
		<tag k="name" v="Sima" />
		<tag k="place" v="locality" />
		<tag k="ssr:date" v="2019-12-27" />
		<tag k="ssr:gruppe" v="terrengdetaljer" />
		<tag k="ssr:hovedgruppe" v="terreng" />
		<tag k="ssr:stedsnr" v="809492" />
		<tag k="ssr:type" v="annenTerrengdetalj" />
	</node>
	<node lat="70.59274725341751" lon="29.6505793541966" id="-102875">
		<tag k="name" v="Lille Jovatn" />
		<tag k="natural" v="water" />
		<tag k="ssr:date" v="2019-12-27" />
		<tag k="ssr:gruppe" v="stilleståendeVann" />
		<tag k="ssr:hovedgruppe" v="ferskvann" />
		<tag k="ssr:stedsnr" v="819146" />
		<tag k="ssr:type" v="tjern" />
	</node>
	<node lat="70.59681392134748" lon="29.64862102442398" id="-102876">
		<tag k="name" v="Storbakken" />
		<tag k="natural" v="slope" />
		<tag k="place" v="locality" />
		<tag k="ssr:date" v="2019-12-27" />
		<tag k="ssr:gruppe" v="skråninger" />
		<tag k="ssr:hovedgruppe" v="terreng" />
		<tag k="ssr:stedsnr" v="819269" />
		<tag k="ssr:type" v="bakke" />
	</node>
	<node lat="70.60978336645776" lon="29.650837679875764" id="-102877">
		<tag k="name" v="Gattjåkkhøgda" />
		<tag k="natural" v="hill" />
		<tag k="place" v="locality" />
		<tag k="ssr:date" v="2019-12-27" />
		<tag k="ssr:gruppe" v="høyder" />
		<tag k="ssr:hovedgruppe" v="terreng" />
		<tag k="ssr:stedsnr" v="819252" />
		<tag k="ssr:type" v="haug" />
	</node>
	<node lat="70.5294222615494" lon="30.05122634479863" id="-102879">
		<tag k="name" v="Bergodden" />
		<tag k="ssr:date" v="2019-12-27" />
		<tag k="ssr:gruppe" v="rennendeVann" />
		<tag k="ssr:hovedgruppe" v="ferskvann" />
		<tag k="ssr:stedsnr" v="820468" />
		<tag k="ssr:type" v="bekk" />
		<tag k="waterway" v="stream" />
	</node>
	<node lat="70.54415004220755" lon="30.41932893142839" id="-102881">
		<tag k="name" v="Kristenvatnet" />
		<tag k="natural" v="water" />
		<tag k="ssr:date" v="2019-12-27" />
		<tag k="ssr:gruppe" v="stilleståendeVann" />
		<tag k="ssr:hovedgruppe" v="ferskvann" />
		<tag k="ssr:stedsnr" v="930055" />
		<tag k="ssr:type" v="tjern" />
	</node>
	<node lat="70.55920836876676" lon="30.145720736140838" id="-102882">
		<tag k="name" v="Storvatnet" />
		<tag k="natural" v="water" />
		<tag k="ssr:date" v="2019-12-27" />
		<tag k="ssr:gruppe" v="stilleståendeVann" />
		<tag k="ssr:hovedgruppe" v="ferskvann" />
		<tag k="ssr:stedsnr" v="930062" />
		<tag k="ssr:type" v="vann" />
		<tag k="water" v="lake" />
	</node>
	<node lat="70.54153892379033" lon="29.83032644673905" id="-102884">
		<tag k="fixme" v="consider natural=peak for the most distinct mountains in the district" />
		<tag k="name" v="Gierdogáisá" />
		<tag k="name:se" v="Gierdogáisá" />
		<tag k="natural" v="hill" />
		<tag k="old_name:se" v="Gierdugaisa" />
		<tag k="place" v="locality" />
		<tag k="ssr:date" v="2019-12-27" />
		<tag k="ssr:gruppe" v="høyder" />
		<tag k="ssr:hovedgruppe" v="terreng" />
		<tag k="ssr:stedsnr" v="869480" />
		<tag k="ssr:type" v="fjell" />
	</node>
	<node lat="70.5578722570965" lon="29.703559852146615" id="-102885">
		<tag k="name" v="Storvatnet - Orošjávri" />
		<tag k="name:no" v="Storvatnet" />
		<tag k="name:se" v="Orošjávri" />
		<tag k="natural" v="water" />
		<tag k="old_name:se" v="Årušjavri" />
		<tag k="ssr:date" v="2019-12-27" />
		<tag k="ssr:gruppe" v="stilleståendeVann" />
		<tag k="ssr:hovedgruppe" v="ferskvann" />
		<tag k="ssr:stedsnr" v="930458" />
		<tag k="ssr:type" v="vann" />
		<tag k="water" v="lake" />
	</node>
	<node lat="70.55607225674116" lon="29.95923474464368" id="-102886">
		<tag k="name" v="Storhaugen" />
		<tag k="natural" v="hill" />
		<tag k="place" v="locality" />
		<tag k="ssr:date" v="2019-12-27" />
		<tag k="ssr:gruppe" v="høyder" />
		<tag k="ssr:hovedgruppe" v="terreng" />
		<tag k="ssr:stedsnr" v="930464" />
		<tag k="ssr:type" v="haug" />
	</node>
	<node lat="70.54082503386105" lon="29.975109712058266" id="-102887">
		<tag k="alt_name" v="Hursidalen" />
		<tag k="name" v="Nordhursidalen" />
		<tag k="natural" v="valley" />
		<tag k="place" v="locality" />
		<tag k="ssr:date" v="2019-12-27" />
		<tag k="ssr:gruppe" v="senkninger" />
		<tag k="ssr:hovedgruppe" v="terreng" />
		<tag k="ssr:stedsnr" v="930472" />
		<tag k="ssr:type" v="dal" />
	</node>
	<node lat="70.32776670919623" lon="29.98604572813981" id="-102888">
		<tag k="name" v="Komagelva - Stuorrajohka" />
		<tag k="name:fkv" v="Kumajoki" />
		<tag k="name:no" v="Komagelva" />
		<tag k="name:se" v="Stuorrajohka" />
		<tag k="old_name:se" v="Stuorrajåkka" />
		<tag k="ssr:date" v="2020-02-27" />
		<tag k="ssr:gruppe" v="rennendeVann" />
		<tag k="ssr:hovedgruppe" v="ferskvann" />
		<tag k="ssr:stedsnr" v="930541" />
		<tag k="ssr:type" v="elv" />
		<tag k="waterway" v="river" />
	</node>
	<node lat="70.46400836383623" lon="29.27147389436857" id="-102889">
		<tag k="name" v="Oarddojárskáidi" />
		<tag k="name:se" v="Oarddojárskáidi" />
		<tag k="natural" v="cape" />
		<tag k="old_name:se" v="Oardujarskaidi" />
		<tag k="ssr:date" v="2019-12-27" />
		<tag k="ssr:gruppe" v="rennendeVann" />
		<tag k="ssr:hovedgruppe" v="ferskvann" />
		<tag k="ssr:stedsnr" v="930954" />
		<tag k="ssr:type" v="nesVedElver" />
	</node>
	<node lat="70.42808615224871" lon="29.90198194458704" id="-102890">
		<tag k="fixme" v="consider natural=peak for the most distinct mountains in the district" />
		<tag k="name" v="Kjøpmannskjølen - Noiddiidčearru" />
		<tag k="name:no" v="Kjøpmannskjølen" />
		<tag k="name:se" v="Noiddiidčearru" />
		<tag k="natural" v="hill" />
		<tag k="old_name:se" v="Nåidiidčærro" />
		<tag k="place" v="locality" />
		<tag k="ssr:date" v="2019-12-27" />
		<tag k="ssr:gruppe" v="høyder" />
		<tag k="ssr:hovedgruppe" v="terreng" />
		<tag k="ssr:stedsnr" v="930971" />
		<tag k="ssr:type" v="fjell" />
	</node>
	<node lat="70.47326114876459" lon="29.819754204265497" id="-102891">
		<tag k="fixme" v="consider natural=peak for the most distinct mountains in the district" />
		<tag k="name" v="Rássečohkat" />
		<tag k="name:se" v="Rássečohkat" />
		<tag k="natural" v="hill" />
		<tag k="old_name:se" v="Rassečåkkat" />
		<tag k="place" v="locality" />
		<tag k="ssr:date" v="2019-12-27" />
		<tag k="ssr:gruppe" v="høyder" />
		<tag k="ssr:hovedgruppe" v="terreng" />
		<tag k="ssr:stedsnr" v="930977" />
		<tag k="ssr:type" v="fjell" />
	</node>
	<node lat="70.48315559289716" lon="29.99712078949713" id="-102892">
		<tag k="name" v="Jonnejohjávri" />
		<tag k="name:se" v="Jonnejohjávri" />
		<tag k="natural" v="water" />
		<tag k="old_name:se" v="Jånnejåkjavri" />
		<tag k="ssr:date" v="2019-12-27" />
		<tag k="ssr:gruppe" v="stilleståendeVann" />
		<tag k="ssr:hovedgruppe" v="ferskvann" />
		<tag k="ssr:stedsnr" v="930978" />
		<tag k="ssr:type" v="vann" />
		<tag k="water" v="lake" />
	</node>
	<node lat="70.32206392820622" lon="30.06464013997573" id="-102893">
		<tag k="name" v="Hubehytta" />
		<tag k="place" v="isolated_dwelling" />
		<tag k="ssr:date" v="2019-12-27" />
		<tag k="ssr:gruppe" v="bolighus" />
		<tag k="ssr:hovedgruppe" v="bebyggelse" />
		<tag k="ssr:stedsnr" v="930922" />
		<tag k="ssr:type" v="fritidsbolig" />
	</node>
	<node lat="70.40784448012995" lon="29.47783490007309" id="-102894">
		<tag k="name" v="Skipskjølen - Bealjáidčearru" />
		<tag k="name:fkv" v="Kööli" />
		<tag k="name:no" v="Skipskjølen" />
		<tag k="name:se" v="Bealjáidčearru" />
		<tag k="natural" v="plateau" />
		<tag k="old_name:se" v="Bælljaidčearro" />
		<tag k="ssr:date" v="2021-06-08" />
		<tag k="ssr:gruppe" v="terrengområder" />
		<tag k="ssr:hovedgruppe" v="terreng" />
		<tag k="ssr:stedsnr" v="875970" />
		<tag k="ssr:type" v="vidde" />
	</node>
	<node lat="70.27272781149783" lon="29.40487656419901" id="-102895">
		<tag k="fixme" v="consider natural=peak for the most distinct mountains in the district" />
		<tag k="name" v="Jiessavárri" />
		<tag k="name:fkv" v="Kivitunturi" />
		<tag k="name:no" v="Urfjellet" />
		<tag k="name:se" v="Jiessavárri" />
		<tag k="natural" v="hill" />
		<tag k="old_name:se" v="Jiessavarri" />
		<tag k="place" v="locality" />
		<tag k="ssr:date" v="2020-02-27" />
		<tag k="ssr:gruppe" v="høyder" />
		<tag k="ssr:hovedgruppe" v="terreng" />
		<tag k="ssr:stedsnr" v="875982" />
		<tag k="ssr:type" v="fjell" />
	</node>
	<node lat="70.60539169263551" lon="29.662062682019823" id="-102896">
		<tag k="name" v="Jovatn" />
		<tag k="natural" v="water" />
		<tag k="ssr:date" v="2019-12-27" />
		<tag k="ssr:gruppe" v="stilleståendeVann" />
		<tag k="ssr:hovedgruppe" v="ferskvann" />
		<tag k="ssr:stedsnr" v="880136" />
		<tag k="ssr:type" v="tjern" />
	</node>
	<node lat="70.62051392246745" lon="29.6938293451835" id="-102897">
		<tag k="name" v="Indrefjord" />
		<tag k="natural" v="bay" />
		<tag k="ssr:date" v="2019-12-27" />
		<tag k="ssr:gruppe" v="kystkontur" />
		<tag k="ssr:hovedgruppe" v="sjø" />
		<tag k="ssr:stedsnr" v="880360" />
		<tag k="ssr:type" v="vikISjø" />
	</node>
	<node lat="70.51774448460331" lon="29.949448616603107" id="-102898">
		<tag k="name" v="Holman" />
		<tag k="place" v="islet" />
		<tag k="ssr:date" v="2019-12-27" />
		<tag k="ssr:gruppe" v="ferskvannskontur" />
		<tag k="ssr:hovedgruppe" v="ferskvann" />
		<tag k="ssr:stedsnr" v="880419" />
		<tag k="ssr:type" v="holme" />
	</node>
	<node lat="70.53597781250865" lon="30.009548598258924" id="-102899">
		<tag k="name" v="Jollneset" />
		<tag k="natural" v="cape" />
		<tag k="ssr:date" v="2019-12-27" />
		<tag k="ssr:gruppe" v="kystkontur" />
		<tag k="ssr:hovedgruppe" v="sjø" />
		<tag k="ssr:stedsnr" v="880501" />
		<tag k="ssr:type" v="nesISjø" />
	</node>
	<node lat="70.68595003449165" lon="30.06465416711678" id="-102900">
		<tag k="name" v="Medvatnet" />
		<tag k="natural" v="water" />
		<tag k="ssr:date" v="2019-12-27" />
		<tag k="ssr:gruppe" v="stilleståendeVann" />
		<tag k="ssr:hovedgruppe" v="ferskvann" />
		<tag k="ssr:stedsnr" v="930047" />
		<tag k="ssr:type" v="vann" />
		<tag k="water" v="lake" />
	</node>
	<node lat="70.66496114475198" lon="29.881654272511813" id="-102901">
		<tag k="fixme" v="consider natural=peak for the most distinct mountains in the district" />
		<tag k="name" v="Raudberga" />
		<tag k="natural" v="hill" />
		<tag k="place" v="locality" />
		<tag k="ssr:date" v="2019-12-27" />
		<tag k="ssr:gruppe" v="høyder" />
		<tag k="ssr:hovedgruppe" v="terreng" />
		<tag k="ssr:stedsnr" v="930497" />
		<tag k="ssr:type" v="ås" />
	</node>
	<node lat="70.52033892914733" lon="30.065487445705926" id="-102903">
		<tag k="alt_name:se" v="Jonjohka" />
		<tag k="name" v="Jonnejohka" />
		<tag k="name:se" v="Jonnejohka" />
		<tag k="old_name:se" v="Jånnejåkka" />
		<tag k="ssr:date" v="2019-12-27" />
		<tag k="ssr:gruppe" v="rennendeVann" />
		<tag k="ssr:hovedgruppe" v="ferskvann" />
		<tag k="ssr:stedsnr" v="930893" />
		<tag k="ssr:type" v="bekk" />
		<tag k="waterway" v="stream" />
	</node>
	<node lat="70.49620004602423" lon="30.57972323409355" id="-102904">
		<tag k="name" v="Middagsdalen" />
		<tag k="natural" v="valley" />
		<tag k="place" v="locality" />
		<tag k="ssr:date" v="2019-12-27" />
		<tag k="ssr:gruppe" v="senkninger" />
		<tag k="ssr:hovedgruppe" v="terreng" />
		<tag k="ssr:stedsnr" v="930899" />
		<tag k="ssr:type" v="dal" />
	</node>
	<node lat="70.54084727061472" lon="30.64323988791891" id="-102906">
		<tag k="name" v="Merra" />
		<tag k="natural" v="shoal" />
		<tag k="place" v="locality" />
		<tag k="ssr:date" v="2019-12-27" />
		<tag k="ssr:gruppe" v="grunnerISjø" />
		<tag k="ssr:hovedgruppe" v="sjø" />
		<tag k="ssr:stedsnr" v="937629" />
		<tag k="ssr:type" v="grunneISjø" />
	</node>
	<node lat="70.45410137289973" lon="29.389788046017053" id="-102907">
		<tag k="fixme" v="consider tourism=alpine_hut or tourism=chalet" />
		<tag k="name" v="Helheim" />
		<tag k="ssr:date" v="2021-12-01" />
		<tag k="ssr:gruppe" v="næring" />
		<tag k="ssr:hovedgruppe" v="bebyggelse" />
		<tag k="ssr:stedsnr" v="972825" />
		<tag k="ssr:type" v="turisthytte" />
		<tag k="tourism" v="wilderness_hut" />
	</node>
	<node lat="70.54449726348022" lon="30.524912197600965" id="-102909">
		<tag k="name" v="Risvika" />
		<tag k="natural" v="bay" />
		<tag k="ssr:date" v="2019-12-27" />
		<tag k="ssr:gruppe" v="kystkontur" />
		<tag k="ssr:hovedgruppe" v="sjø" />
		<tag k="ssr:stedsnr" v="20049" />
		<tag k="ssr:type" v="vikISjø" />
	</node>
	<node lat="70.54866114935493" lon="30.42226502865479" id="-102910">
		<tag k="fixme" v="consider natural=peak for the most distinct mountains in the district" />
		<tag k="name" v="Svartnesbruna" />
		<tag k="natural" v="hill" />
		<tag k="place" v="locality" />
		<tag k="ssr:date" v="2019-12-27" />
		<tag k="ssr:gruppe" v="høyder" />
		<tag k="ssr:hovedgruppe" v="terreng" />
		<tag k="ssr:stedsnr" v="20061" />
		<tag k="ssr:type" v="ås" />
	</node>
	<node lat="70.62058336470427" lon="29.77872651523412" id="-102911">
		<tag k="name" v="Gazzabealčohkka" />
		<tag k="name:no" v="Gatsbelhøgda" />
		<tag k="name:se" v="Gazzabealčohkka" />
		<tag k="natural" v="hill" />
		<tag k="old_name:se" v="Gazzabælčåkka" />
		<tag k="place" v="locality" />
		<tag k="ssr:date" v="2021-06-08" />
		<tag k="ssr:gruppe" v="høyder" />
		<tag k="ssr:hovedgruppe" v="terreng" />
		<tag k="ssr:stedsnr" v="20455" />
		<tag k="ssr:type" v="haug" />
	</node>
	<node lat="70.69745002955868" lon="29.995656996920708" id="-102912">
		<tag k="name" v="Nonsvatnet" />
		<tag k="natural" v="water" />
		<tag k="ssr:date" v="2019-12-27" />
		<tag k="ssr:gruppe" v="stilleståendeVann" />
		<tag k="ssr:hovedgruppe" v="ferskvann" />
		<tag k="ssr:stedsnr" v="20460" />
		<tag k="ssr:type" v="tjern" />
	</node>
	<node lat="70.68665558287107" lon="29.913287588067732" id="-102914">
		<tag k="alt_name" v="Skarbergvika" />
		<tag k="name" v="Skarvbergvika" />
		<tag k="natural" v="bay" />
		<tag k="ssr:date" v="2019-12-27" />
		<tag k="ssr:gruppe" v="kystkontur" />
		<tag k="ssr:hovedgruppe" v="sjø" />
		<tag k="ssr:stedsnr" v="20474" />
		<tag k="ssr:type" v="vikISjø" />
	</node>
	<node lat="70.46024170447171" lon="29.53948212558445" id="-102916">
		<tag k="name" v="Viddene - Morešveaiskáidi" />
		<tag k="name:no" v="Viddene" />
		<tag k="name:se" v="Morešveaiskáidi" />
		<tag k="natural" v="plateau" />
		<tag k="old_name:se" v="Mårešvæjskaidi" />
		<tag k="ssr:date" v="2019-12-27" />
		<tag k="ssr:gruppe" v="terrengområder" />
		<tag k="ssr:hovedgruppe" v="terreng" />
		<tag k="ssr:stedsnr" v="20982" />
		<tag k="ssr:type" v="vidde" />
	</node>
	<node lat="70.60802780798086" lon="29.64549878319426" id="-102917">
		<tag k="name" v="Tverrelvdalen" />
		<tag k="natural" v="valley" />
		<tag k="place" v="locality" />
		<tag k="ssr:date" v="2019-12-27" />
		<tag k="ssr:gruppe" v="senkninger" />
		<tag k="ssr:hovedgruppe" v="terreng" />
		<tag k="ssr:stedsnr" v="30260" />
		<tag k="ssr:type" v="dal" />
	</node>
	<node lat="70.62964447376162" lon="29.70754320781378" id="-102918">
		<tag k="name" v="Valen" />
		<tag k="place" v="locality" />
		<tag k="ssr:date" v="2019-12-27" />
		<tag k="ssr:gruppe" v="kystkontur" />
		<tag k="ssr:hovedgruppe" v="sjø" />
		<tag k="ssr:stedsnr" v="30377" />
		<tag k="ssr:type" v="eidISjø" />
	</node>
	<node lat="70.62733336209115" lon="29.69766265295639" id="-102919">
		<tag k="building" v="industrial" />
		<tag k="industrial" v="factory" />
		<tag k="name" v="Neptun" />
		<tag k="ssr:date" v="2019-12-27" />
		<tag k="ssr:gruppe" v="næring" />
		<tag k="ssr:hovedgruppe" v="bebyggelse" />
		<tag k="ssr:stedsnr" v="30381" />
		<tag k="ssr:type" v="fabrikk" />
	</node>
	<node lat="70.5006778167155" lon="29.85397364559038" id="-102920">
		<tag k="name" v="Gamsletta" />
		<tag k="place" v="locality" />
		<tag k="ssr:date" v="2019-12-27" />
		<tag k="ssr:gruppe" v="flater" />
		<tag k="ssr:hovedgruppe" v="terreng" />
		<tag k="ssr:stedsnr" v="30402" />
		<tag k="ssr:type" v="mo" />
	</node>
	<node lat="70.53879448175518" lon="30.002106915478315" id="-102921">
		<tag k="name" v="Løkholman" />
		<tag k="natural" v="beach" />
		<tag k="ssr:date" v="2019-12-27" />
		<tag k="ssr:gruppe" v="kystkontur" />
		<tag k="ssr:hovedgruppe" v="sjø" />
		<tag k="ssr:stedsnr" v="30494" />
		<tag k="ssr:type" v="strandISjø" />
	</node>
	<node lat="70.53732781812663" lon="30.020651352864107" id="-102922">
		<tag k="name" v="Vassbotn" />
		<tag k="natural" v="bay" />
		<tag k="ssr:date" v="2019-12-27" />
		<tag k="ssr:gruppe" v="kystkontur" />
		<tag k="ssr:hovedgruppe" v="sjø" />
		<tag k="ssr:stedsnr" v="30499" />
		<tag k="ssr:type" v="vikISjø" />
	</node>
	<node lat="70.45038615479105" lon="30.160437352426314" id="-102923">
		<tag k="name" v="Sløkholmdalen" />
		<tag k="natural" v="valley" />
		<tag k="place" v="locality" />
		<tag k="ssr:date" v="2019-12-27" />
		<tag k="ssr:gruppe" v="senkninger" />
		<tag k="ssr:hovedgruppe" v="terreng" />
		<tag k="ssr:stedsnr" v="80890" />
		<tag k="ssr:type" v="dal" />
	</node>
	<node lat="70.550147260035" lon="30.07859576876687" id="-102924">
		<tag k="name" v="Nordfjord" />
		<tag k="place" v="locality" />
		<tag k="ssr:date" v="2019-12-27" />
		<tag k="ssr:gruppe" v="bolighus" />
		<tag k="ssr:hovedgruppe" v="bebyggelse" />
		<tag k="ssr:stedsnr" v="81060" />
		<tag k="ssr:type" v="gammelBosettingsplass" />
	</node>
	<node lat="70.51471391547481" lon="29.259354492783448" id="-102925">
		<tag k="name" v="Oarddoskáidi" />
		<tag k="name:se" v="Oarddoskáidi" />
		<tag k="natural" v="cape" />
		<tag k="old_name:se" v="Oarduskaidi" />
		<tag k="ssr:date" v="2019-12-27" />
		<tag k="ssr:gruppe" v="rennendeVann" />
		<tag k="ssr:hovedgruppe" v="ferskvann" />
		<tag k="ssr:stedsnr" v="81514" />
		<tag k="ssr:type" v="nesVedElver" />
	</node>
	<node lat="70.47711670316302" lon="29.926993040107675" id="-102927">
		<tag k="name" v="Trangdalen - Baskkesávži" />
		<tag k="name:no" v="Trangdalen" />
		<tag k="name:se" v="Baskkesávži" />
		<tag k="natural" v="valley" />
		<tag k="old_name:se" v="Baskesavži" />
		<tag k="place" v="locality" />
		<tag k="ssr:date" v="2019-12-27" />
		<tag k="ssr:gruppe" v="senkninger" />
		<tag k="ssr:hovedgruppe" v="terreng" />
		<tag k="ssr:stedsnr" v="81979" />
		<tag k="ssr:type" v="dal" />
	</node>
	<node lat="70.63445558190784" lon="29.52592663651693" id="-102930">
		<tag k="fixme" v="consider natural=peak for the most distinct mountains in the district" />
		<tag k="name" v="Midtfjellet - Guovdoaivi" />
		<tag k="name:no" v="Midtfjellet" />
		<tag k="name:se" v="Guovdoaivi" />
		<tag k="natural" v="hill" />
		<tag k="old_name:se" v="Guovdaoaivi" />
		<tag k="place" v="locality" />
		<tag k="ssr:date" v="2019-12-27" />
		<tag k="ssr:gruppe" v="høyder" />
		<tag k="ssr:hovedgruppe" v="terreng" />
		<tag k="ssr:stedsnr" v="86444" />
		<tag k="ssr:type" v="fjell" />
	</node>
	<node lat="70.63405836378394" lon="29.80949873053119" id="-102931">
		<tag k="name" v="Skovik" />
		<tag k="place" v="isolated_dwelling" />
		<tag k="ssr:date" v="2019-12-27" />
		<tag k="ssr:gruppe" v="bolighus" />
		<tag k="ssr:hovedgruppe" v="bebyggelse" />
		<tag k="ssr:stedsnr" v="86518" />
		<tag k="ssr:type" v="fritidsbolig" />
	</node>
	<node lat="70.71828336029097" lon="29.79916821002766" id="-102932">
		<tag k="name" v="Fuglekeila" />
		<tag k="natural" v="bay" />
		<tag k="ssr:date" v="2019-12-27" />
		<tag k="ssr:gruppe" v="kystkontur" />
		<tag k="ssr:hovedgruppe" v="sjø" />
		<tag k="ssr:stedsnr" v="86553" />
		<tag k="ssr:type" v="vikISjø" />
	</node>
	<node lat="70.62290003036269" lon="29.68477100460371" id="-102933">
		<tag k="name" v="Mariberget" />
		<tag k="natural" v="hill" />
		<tag k="place" v="locality" />
		<tag k="ssr:date" v="2019-12-27" />
		<tag k="ssr:gruppe" v="høyder" />
		<tag k="ssr:hovedgruppe" v="terreng" />
		<tag k="ssr:stedsnr" v="91343" />
		<tag k="ssr:type" v="berg" />
	</node>
	<node lat="70.61939169452677" lon="29.765998739275048" id="-102934">
		<tag k="name" v="Klauvvasselva" />
		<tag k="ssr:date" v="2019-12-27" />
		<tag k="ssr:gruppe" v="rennendeVann" />
		<tag k="ssr:hovedgruppe" v="ferskvann" />
		<tag k="ssr:stedsnr" v="91434" />
		<tag k="ssr:type" v="bekk" />
		<tag k="waterway" v="stream" />
	</node>
	<node lat="70.61970836147405" lon="29.725854322018773" id="-102935">
		<tag k="fixme" v="consider natural=peak for the most distinct mountains in the district" />
		<tag k="name" v="Simaaksla" />
		<tag k="natural" v="hill" />
		<tag k="place" v="locality" />
		<tag k="ssr:date" v="2019-12-27" />
		<tag k="ssr:gruppe" v="høyder" />
		<tag k="ssr:hovedgruppe" v="terreng" />
		<tag k="ssr:stedsnr" v="91391" />
		<tag k="ssr:type" v="fjell" />
	</node>
	<node lat="70.62494169488116" lon="29.696801556368307" id="-102936">
		<tag k="building" v="industrial" />
		<tag k="name" v="Slippen" />
		<tag k="ssr:date" v="2019-12-27" />
		<tag k="ssr:gruppe" v="næring" />
		<tag k="ssr:hovedgruppe" v="bebyggelse" />
		<tag k="ssr:stedsnr" v="91406" />
		<tag k="ssr:type" v="annenIndustri-OgLagerbygning" />
	</node>
	<node lat="70.50902781337213" lon="29.88517363852995" id="-102937">
		<tag k="name" v="Reingjerdmyran" />
		<tag k="natural" v="wetland" />
		<tag k="ssr:date" v="2019-12-27" />
		<tag k="ssr:gruppe" v="våtmark" />
		<tag k="ssr:hovedgruppe" v="markslag" />
		<tag k="ssr:stedsnr" v="91412" />
		<tag k="ssr:type" v="myr" />
	</node>
	<node lat="70.4030639316204" lon="30.072854053402402" id="-102938">
		<tag k="fixme" v="consider natural=peak for the most distinct mountains in the district" />
		<tag k="name" v="Røyskattfjellet" />
		<tag k="natural" v="hill" />
		<tag k="place" v="locality" />
		<tag k="ssr:date" v="2019-12-27" />
		<tag k="ssr:gruppe" v="høyder" />
		<tag k="ssr:hovedgruppe" v="terreng" />
		<tag k="ssr:stedsnr" v="140886" />
		<tag k="ssr:type" v="fjell" />
	</node>
	<node lat="70.57670837492473" lon="30.203890173028565" id="-102940">
		<tag k="loc_name" v="Sandfjordselva" />
		<tag k="name" v="Sandfjorddalselva" />
		<tag k="ssr:date" v="2019-12-27" />
		<tag k="ssr:gruppe" v="rennendeVann" />
		<tag k="ssr:hovedgruppe" v="ferskvann" />
		<tag k="ssr:stedsnr" v="141047" />
		<tag k="ssr:type" v="bekk" />
		<tag k="waterway" v="stream" />
	</node>
	<node lat="70.57815281663026" lon="30.098265222992858" id="-102941">
		<tag k="name" v="Laksevatna" />
		<tag k="natural" v="water" />
		<tag k="ssr:date" v="2019-12-27" />
		<tag k="ssr:gruppe" v="stilleståendeVann" />
		<tag k="ssr:hovedgruppe" v="ferskvann" />
		<tag k="ssr:stedsnr" v="141048" />
		<tag k="ssr:type" v="vann" />
		<tag k="water" v="lake" />
	</node>
	<node lat="70.53886670241093" lon="30.03073468486692" id="-102942">
		<tag k="alt_name" v="Sommerseth" />
		<tag k="name" v="Sommarsete" />
		<tag k="place" v="isolated_dwelling" />
		<tag k="ssr:date" v="2019-12-27" />
		<tag k="ssr:gruppe" v="bolighus" />
		<tag k="ssr:hovedgruppe" v="bebyggelse" />
		<tag k="ssr:stedsnr" v="141053" />
		<tag k="ssr:type" v="fritidsbolig" />
	</node>
	<node lat="70.54764726128147" lon="30.4754761134663" id="-102943">
		<tag k="name" v="Svartnesbukta" />
		<tag k="natural" v="bay" />
		<tag k="ssr:date" v="2019-12-27" />
		<tag k="ssr:gruppe" v="kystkontur" />
		<tag k="ssr:hovedgruppe" v="sjø" />
		<tag k="ssr:stedsnr" v="141059" />
		<tag k="ssr:type" v="vikISjø" />
	</node>
	<node lat="70.57928336604189" lon="29.795126481889152" id="-102944">
		<tag k="name" v="Steinfjellvatnet - Námmejávri" />
		<tag k="name:no" v="Steinfjellvatnet" />
		<tag k="name:se" v="Námmejávri" />
		<tag k="natural" v="water" />
		<tag k="old_name:se" v="Nammejavri" />
		<tag k="ssr:date" v="2019-12-27" />
		<tag k="ssr:gruppe" v="stilleståendeVann" />
		<tag k="ssr:hovedgruppe" v="ferskvann" />
		<tag k="ssr:stedsnr" v="141452" />
		<tag k="ssr:type" v="tjern" />
	</node>
	<node lat="70.51158059717893" lon="29.89017363314154" id="-102945">
		<tag k="alt_name" v="Falkefjellet" />
		<tag k="fixme" v="consider natural=peak for the most distinct mountains in the district" />
		<tag k="name" v="Falkfjellet" />
		<tag k="natural" v="hill" />
		<tag k="place" v="locality" />
		<tag k="ssr:date" v="2019-12-27" />
		<tag k="ssr:gruppe" v="høyder" />
		<tag k="ssr:hovedgruppe" v="terreng" />
		<tag k="ssr:stedsnr" v="141453" />
		<tag k="ssr:type" v="ås" />
	</node>
	<node lat="70.516241704929" lon="29.86474865522314" id="-102946">
		<tag k="alt_name" v="Johandalen, øvre" />
		<tag k="name" v="Øvre Johandalen" />
		<tag k="natural" v="valley" />
		<tag k="place" v="locality" />
		<tag k="ssr:date" v="2019-12-27" />
		<tag k="ssr:gruppe" v="senkninger" />
		<tag k="ssr:hovedgruppe" v="terreng" />
		<tag k="ssr:stedsnr" v="141456" />
		<tag k="ssr:type" v="dal" />
	</node>
	<node lat="70.52430003370766" lon="29.62726267297082" id="-102947">
		<tag k="name" v="Svingvatnet" />
		<tag k="natural" v="water" />
		<tag k="ssr:date" v="2019-12-27" />
		<tag k="ssr:gruppe" v="stilleståendeVann" />
		<tag k="ssr:hovedgruppe" v="ferskvann" />
		<tag k="ssr:stedsnr" v="141457" />
		<tag k="ssr:type" v="tjern" />
	</node>
	<node lat="70.52806392449287" lon="29.564182137434848" id="-102948">
		<tag k="alt_name" v="Oardo, litle" />
		<tag k="name" v="Lille Oardo" />
		<tag k="natural" v="water" />
		<tag k="ssr:date" v="2019-12-27" />
		<tag k="ssr:gruppe" v="stilleståendeVann" />
		<tag k="ssr:hovedgruppe" v="ferskvann" />
		<tag k="ssr:stedsnr" v="141460" />
		<tag k="ssr:type" v="tjern" />
	</node>
	<node lat="70.67193613977874" lon="29.79242653697609" id="-102950">
		<tag k="name" v="Kvannvikneset" />
		<tag k="natural" v="cape" />
		<tag k="ssr:date" v="2019-12-27" />
		<tag k="ssr:gruppe" v="kystkontur" />
		<tag k="ssr:hovedgruppe" v="sjø" />
		<tag k="ssr:stedsnr" v="141491" />
		<tag k="ssr:type" v="nesISjø" />
	</node>
	<node lat="70.37684170755331" lon="29.7846236328719" id="-102951">
		<tag k="name" v="Ruossa" />
		<tag k="name:se" v="Ruossa" />
		<tag k="natural" v="valley" />
		<tag k="place" v="locality" />
		<tag k="ssr:date" v="2019-12-27" />
		<tag k="ssr:gruppe" v="senkninger" />
		<tag k="ssr:hovedgruppe" v="terreng" />
		<tag k="ssr:stedsnr" v="141962" />
		<tag k="ssr:type" v="skar" />
	</node>
	<node lat="70.408158366983" lon="29.727573675346207" id="-102952">
		<tag k="fixme" v="consider natural=peak for the most distinct mountains in the district" />
		<tag k="name" v="Jalgesoaivi" />
		<tag k="name:se" v="Jalgesoaivi" />
		<tag k="natural" v="hill" />
		<tag k="place" v="locality" />
		<tag k="ssr:date" v="2019-12-27" />
		<tag k="ssr:gruppe" v="høyder" />
		<tag k="ssr:hovedgruppe" v="terreng" />
		<tag k="ssr:stedsnr" v="141967" />
		<tag k="ssr:type" v="fjell" />
	</node>
	<node lat="70.43587781457401" lon="29.720284806782413" id="-102953">
		<tag k="name" v="Rahkkegorsa" />
		<tag k="name:se" v="Rahkkegorsa" />
		<tag k="natural" v="valley" />
		<tag k="old_name:se" v="Rakkegårsa" />
		<tag k="place" v="locality" />
		<tag k="ssr:date" v="2019-12-27" />
		<tag k="ssr:gruppe" v="senkninger" />
		<tag k="ssr:hovedgruppe" v="terreng" />
		<tag k="ssr:stedsnr" v="141971" />
		<tag k="ssr:type" v="skar" />
	</node>
	<node lat="70.49031392428527" lon="29.853523655242608" id="-102954">
		<tag k="name" v="Ásllatjávri" />
		<tag k="name:se" v="Ásllatjávri" />
		<tag k="natural" v="water" />
		<tag k="old_name:se" v="Aslatjavri" />
		<tag k="ssr:date" v="2019-12-27" />
		<tag k="ssr:gruppe" v="stilleståendeVann" />
		<tag k="ssr:hovedgruppe" v="ferskvann" />
		<tag k="ssr:stedsnr" v="141978" />
		<tag k="ssr:type" v="vann" />
		<tag k="water" v="lake" />
	</node>
	<node lat="70.6424528108083" lon="30.047329175440694" id="-102955">
		<tag k="name" v="Sandfjordelva" />
		<tag k="ssr:date" v="2019-12-27" />
		<tag k="ssr:gruppe" v="rennendeVann" />
		<tag k="ssr:hovedgruppe" v="ferskvann" />
		<tag k="ssr:stedsnr" v="146486" />
		<tag k="ssr:type" v="bekk" />
		<tag k="waterway" v="stream" />
	</node>
	<node lat="70.66051114088077" lon="29.777557093487335" id="-102956">
		<tag k="name" v="Olabukta" />
		<tag k="natural" v="bay" />
		<tag k="ssr:date" v="2019-12-27" />
		<tag k="ssr:gruppe" v="kystkontur" />
		<tag k="ssr:hovedgruppe" v="sjø" />
		<tag k="ssr:stedsnr" v="146492" />
		<tag k="ssr:type" v="vikISjø" />
	</node>
	<node lat="70.5436944791225" lon="30.040479142223802" id="-102961">
		<tag k="name" v="Torelva" />
		<tag k="ssr:date" v="2019-12-27" />
		<tag k="ssr:gruppe" v="rennendeVann" />
		<tag k="ssr:hovedgruppe" v="ferskvann" />
		<tag k="ssr:stedsnr" v="152525" />
		<tag k="ssr:type" v="bekk" />
		<tag k="waterway" v="stream" />
	</node>
	<node lat="70.53591393699072" lon="30.508137192542858" id="-102962">
		<tag k="fixme" v="consider natural=peak for the most distinct mountains in the district" />
		<tag k="name" v="Gamvikbruna" />
		<tag k="natural" v="hill" />
		<tag k="place" v="locality" />
		<tag k="ssr:date" v="2019-12-27" />
		<tag k="ssr:gruppe" v="høyder" />
		<tag k="ssr:hovedgruppe" v="terreng" />
		<tag k="ssr:stedsnr" v="202013" />
		<tag k="ssr:type" v="ås" />
	</node>
	<node lat="70.54947226647093" lon="30.617220476592077" id="-102965">
		<tag k="name" v="Håbrandneset" />
		<tag k="natural" v="cape" />
		<tag k="ssr:date" v="2019-12-27" />
		<tag k="ssr:gruppe" v="kystkontur" />
		<tag k="ssr:hovedgruppe" v="sjø" />
		<tag k="ssr:stedsnr" v="202046" />
		<tag k="ssr:type" v="nesISjø" />
	</node>
	<node lat="70.54253060220344" lon="30.586703825155023" id="-102966">
		<tag k="name" v="Skjåvika" />
		<tag k="natural" v="bay" />
		<tag k="ssr:date" v="2019-12-27" />
		<tag k="ssr:gruppe" v="kystkontur" />
		<tag k="ssr:hovedgruppe" v="sjø" />
		<tag k="ssr:stedsnr" v="202048" />
		<tag k="ssr:type" v="vikISjø" />
	</node>
	<node lat="70.5429611564806" lon="30.535967753410986" id="-102967">
		<tag k="name" v="Gamvikbukta" />
		<tag k="natural" v="bay" />
		<tag k="ssr:date" v="2019-12-27" />
		<tag k="ssr:gruppe" v="kystkontur" />
		<tag k="ssr:hovedgruppe" v="sjø" />
		<tag k="ssr:stedsnr" v="202058" />
		<tag k="ssr:type" v="vikISjø" />
	</node>
	<node lat="70.61300280491048" lon="29.735173760671806" id="-102969">
		<tag k="alt_name" v="Perelvtoppen" />
		<tag k="fixme" v="consider natural=peak for the most distinct mountains in the district" />
		<tag k="name" v="Perselvtoppen" />
		<tag k="natural" v="hill" />
		<tag k="place" v="locality" />
		<tag k="ssr:date" v="2019-12-27" />
		<tag k="ssr:gruppe" v="høyder" />
		<tag k="ssr:hovedgruppe" v="terreng" />
		<tag k="ssr:stedsnr" v="202470" />
		<tag k="ssr:type" v="ås" />
	</node>
	<node lat="70.5616972548402" lon="29.393318343919706" id="-102971">
		<tag k="name" v="Basečearru" />
		<tag k="name:se" v="Basečearru" />
		<tag k="natural" v="plateau" />
		<tag k="old_name:se" v="Basečærro" />
		<tag k="ssr:date" v="2019-12-27" />
		<tag k="ssr:gruppe" v="terrengområder" />
		<tag k="ssr:hovedgruppe" v="terreng" />
		<tag k="ssr:stedsnr" v="202506" />
		<tag k="ssr:type" v="vidde" />
	</node>
	<node lat="70.50435837270024" lon="29.91498474304931" id="-102972">
		<tag k="alt_name:se" v="Rásjohka" />
		<tag k="name" v="Rássejohka" />
		<tag k="name:se" v="Rássejohka" />
		<tag k="old_name:se" v="Rassejåkka;Rassejohka" />
		<tag k="ssr:date" v="2019-12-27" />
		<tag k="ssr:gruppe" v="rennendeVann" />
		<tag k="ssr:hovedgruppe" v="ferskvann" />
		<tag k="ssr:stedsnr" v="202575" />
		<tag k="ssr:type" v="elv" />
		<tag k="waterway" v="river" />
	</node>
	<node lat="70.49705003753238" lon="30.130573498189946" id="-102973">
		<tag k="name" v="Austerelva - Uhcoarddojohka" />
		<tag k="name:no" v="Austerelva" />
		<tag k="name:se" v="Uhcoarddojohka" />
		<tag k="old_name:se" v="Uccoardujåkka" />
		<tag k="ssr:date" v="2019-12-27" />
		<tag k="ssr:gruppe" v="rennendeVann" />
		<tag k="ssr:hovedgruppe" v="ferskvann" />
		<tag k="ssr:stedsnr" v="202578" />
		<tag k="ssr:type" v="elv" />
		<tag k="waterway" v="river" />
	</node>
	<node lat="70.4896416938535" lon="29.379715531074424" id="-102974">
		<tag k="name" v="Uhcit Rávdol" />
		<tag k="name:se" v="Uhcit Rávdol" />
		<tag k="old_name:se" v="Ravdul, uccit" />
		<tag k="ssr:date" v="2019-12-27" />
		<tag k="ssr:gruppe" v="rennendeVann" />
		<tag k="ssr:hovedgruppe" v="ferskvann" />
		<tag k="ssr:stedsnr" v="202964" />
		<tag k="ssr:type" v="elv" />
		<tag k="waterway" v="river" />
	</node>
	<node lat="70.49666393133705" lon="30.166245702784376" id="-102975">
		<tag k="fixme" v="consider natural=peak for the most distinct mountains in the district" />
		<tag k="name" v="Søttendalfjellet" />
		<tag k="natural" v="hill" />
		<tag k="place" v="locality" />
		<tag k="ssr:date" v="2019-12-27" />
		<tag k="ssr:gruppe" v="høyder" />
		<tag k="ssr:hovedgruppe" v="terreng" />
		<tag k="ssr:stedsnr" v="202911" />
		<tag k="ssr:type" v="ås" />
	</node>
	<node lat="70.49953337693121" lon="30.448937202491067" id="-102976">
		<tag k="fixme" v="consider natural=peak for the most distinct mountains in the district" />
		<tag k="name" v="Gussoaivi" />
		<tag k="name:se" v="Gussoaivi" />
		<tag k="natural" v="hill" />
		<tag k="place" v="locality" />
		<tag k="ssr:date" v="2019-12-27" />
		<tag k="ssr:gruppe" v="høyder" />
		<tag k="ssr:hovedgruppe" v="terreng" />
		<tag k="ssr:stedsnr" v="202914" />
		<tag k="ssr:type" v="fjell" />
	</node>
	<node lat="70.31241115363754" lon="29.984545734031524" id="-102977">
		<tag k="fixme" v="consider natural=peak for the most distinct mountains in the district" />
		<tag k="name" v="Gaskkamus Ruitu" />
		<tag k="name:se" v="Gaskkamus Ruitu" />
		<tag k="natural" v="hill" />
		<tag k="old_name:se" v="Ruito, gaskamuš" />
		<tag k="place" v="locality" />
		<tag k="ssr:date" v="2019-12-27" />
		<tag k="ssr:gruppe" v="høyder" />
		<tag k="ssr:hovedgruppe" v="terreng" />
		<tag k="ssr:stedsnr" v="202921" />
		<tag k="ssr:type" v="ås" />
	</node>
	<node lat="70.48773338497621" lon="30.639473200577473" id="-102978">
		<tag k="fixme" v="consider natural=peak for the most distinct mountains in the district" />
		<tag k="name" v="Storflognakken" />
		<tag k="natural" v="hill" />
		<tag k="place" v="locality" />
		<tag k="ssr:date" v="2019-12-27" />
		<tag k="ssr:gruppe" v="høyder" />
		<tag k="ssr:hovedgruppe" v="terreng" />
		<tag k="ssr:stedsnr" v="202931" />
		<tag k="ssr:type" v="fjell" />
	</node>
	<node lat="70.69740558968522" lon="29.99707366563099" id="-102979">
		<tag k="name" v="Gryta" />
		<tag k="natural" v="water" />
		<tag k="ssr:date" v="2019-12-27" />
		<tag k="ssr:gruppe" v="stilleståendeVann" />
		<tag k="ssr:hovedgruppe" v="ferskvann" />
		<tag k="ssr:stedsnr" v="207485" />
		<tag k="ssr:type" v="vann" />
		<tag k="water" v="lake" />
	</node>
	<node lat="70.70031114212715" lon="30.06670139492799" id="-102980">
		<tag k="name" v="Storvatnet" />
		<tag k="natural" v="water" />
		<tag k="ssr:date" v="2019-12-27" />
		<tag k="ssr:gruppe" v="stilleståendeVann" />
		<tag k="ssr:hovedgruppe" v="ferskvann" />
		<tag k="ssr:stedsnr" v="207486" />
		<tag k="ssr:type" v="vann" />
		<tag k="water" v="lake" />
	</node>
	<node lat="70.52749448494342" lon="30.081834658426896" id="-102981">
		<tag k="name" v="Revet" />
		<tag k="place" v="locality" />
		<tag k="seamark:type" v="rock" />
		<tag k="ssr:date" v="2019-12-27" />
		<tag k="ssr:gruppe" v="grunnerISjø" />
		<tag k="ssr:hovedgruppe" v="sjø" />
		<tag k="ssr:stedsnr" v="208570" />
		<tag k="ssr:type" v="båeISjø" />
	</node>
	<node lat="70.55443058918227" lon="30.06720411837649" id="-102982">
		<tag k="name" v="Nordfjordhøgda" />
		<tag k="natural" v="hill" />
		<tag k="place" v="locality" />
		<tag k="ssr:date" v="2019-12-27" />
		<tag k="ssr:gruppe" v="høyder" />
		<tag k="ssr:hovedgruppe" v="terreng" />
		<tag k="ssr:stedsnr" v="213261" />
		<tag k="ssr:type" v="haug" />
	</node>
	<node lat="70.5216111449009" lon="29.962143057705294" id="-102983">
		<tag k="name" v="Holman" />
		<tag k="place" v="islet" />
		<tag k="ssr:date" v="2019-12-27" />
		<tag k="ssr:gruppe" v="ferskvannskontur" />
		<tag k="ssr:hovedgruppe" v="ferskvann" />
		<tag k="ssr:stedsnr" v="213447" />
		<tag k="ssr:type" v="holme" />
	</node>
	<node lat="70.53437781560115" lon="30.009634703435463" id="-102984">
		<tag k="name" v="Finnes" />
		<tag k="natural" v="cape" />
		<tag k="ssr:date" v="2019-12-27" />
		<tag k="ssr:gruppe" v="kystkontur" />
		<tag k="ssr:hovedgruppe" v="sjø" />
		<tag k="ssr:stedsnr" v="213530" />
		<tag k="ssr:type" v="nesISjø" />
	</node>
	<node lat="70.53123614478675" lon="30.041515234256384" id="-102988">
		<tag k="alt_name" v="Strømmen" />
		<tag k="name" v="Straumen" />
		<tag k="natural" v="strait" />
		<tag k="ssr:date" v="2019-12-27" />
		<tag k="ssr:gruppe" v="kystkontur" />
		<tag k="ssr:hovedgruppe" v="sjø" />
		<tag k="ssr:stedsnr" v="323057" />
		<tag k="ssr:type" v="sundISjø" />
	</node>
	<node lat="70.54589726073279" lon="30.344962288860778" id="-102990">
		<tag k="alt_name" v="Syltevika, indre" />
		<tag k="name" v="Indre Syltevika" />
		<tag k="natural" v="bay" />
		<tag k="ssr:date" v="2019-12-27" />
		<tag k="ssr:gruppe" v="kystkontur" />
		<tag k="ssr:hovedgruppe" v="sjø" />
		<tag k="ssr:stedsnr" v="323073" />
		<tag k="ssr:type" v="vikISjø" />
	</node>
	<node lat="70.5754250299916" lon="29.673820981219784" id="-102991">
		<tag k="name" v="Storelva - Orošjohka" />
		<tag k="name:no" v="Storelva" />
		<tag k="name:se" v="Orošjohka" />
		<tag k="old_name:se" v="Årušjåkka" />
		<tag k="ssr:date" v="2019-12-27" />
		<tag k="ssr:gruppe" v="rennendeVann" />
		<tag k="ssr:hovedgruppe" v="ferskvann" />
		<tag k="ssr:stedsnr" v="323115" />
		<tag k="ssr:type" v="elv" />
		<tag k="waterway" v="river" />
	</node>
	<node lat="70.52347781638251" lon="30.383826158222043" id="-102992">
		<tag k="name" v="Ruossagorsa" />
		<tag k="name:se" v="Ruossagorsa" />
		<tag k="natural" v="valley" />
		<tag k="old_name:se" v="Ruossagårsa" />
		<tag k="place" v="locality" />
		<tag k="ssr:date" v="2019-12-27" />
		<tag k="ssr:gruppe" v="senkninger" />
		<tag k="ssr:hovedgruppe" v="terreng" />
		<tag k="ssr:stedsnr" v="323014" />
		<tag k="ssr:type" v="dal" />
	</node>
	<node lat="70.57267225675362" lon="29.64279877174916" id="-102993">
		<tag k="name" v="Djupvasselva" />
		<tag k="ssr:date" v="2019-12-27" />
		<tag k="ssr:gruppe" v="rennendeVann" />
		<tag k="ssr:hovedgruppe" v="ferskvann" />
		<tag k="ssr:stedsnr" v="323452" />
		<tag k="ssr:type" v="elv" />
		<tag k="waterway" v="river" />
	</node>
	<node lat="70.54111669579703" lon="29.44470440978219" id="-102994">
		<tag k="name" v="Adamsvatnet - Áttájávri" />
		<tag k="name:no" v="Adamsvatnet" />
		<tag k="name:se" v="Áttájávri" />
		<tag k="natural" v="water" />
		<tag k="old_name:se" v="Addajavri" />
		<tag k="ssr:date" v="2019-12-27" />
		<tag k="ssr:gruppe" v="stilleståendeVann" />
		<tag k="ssr:hovedgruppe" v="ferskvann" />
		<tag k="ssr:stedsnr" v="323463" />
		<tag k="ssr:type" v="vann" />
		<tag k="water" v="lake" />
	</node>
	<node lat="70.69320836432169" lon="29.80774875876226" id="-102995">
		<tag k="name" v="Rubbedalsneset" />
		<tag k="natural" v="cape" />
		<tag k="ssr:date" v="2019-12-27" />
		<tag k="ssr:gruppe" v="kystkontur" />
		<tag k="ssr:hovedgruppe" v="sjø" />
		<tag k="ssr:stedsnr" v="323490" />
		<tag k="ssr:type" v="nesISjø" />
	</node>
	<node lat="70.49500282198194" lon="30.418553893187187" id="-102996">
		<tag k="name" v="Rundhaugen" />
		<tag k="natural" v="hill" />
		<tag k="place" v="locality" />
		<tag k="ssr:date" v="2019-12-27" />
		<tag k="ssr:gruppe" v="høyder" />
		<tag k="ssr:hovedgruppe" v="terreng" />
		<tag k="ssr:stedsnr" v="323899" />
		<tag k="ssr:type" v="haug" />
	</node>
	<node lat="70.31951115692246" lon="30.116342891933474" id="-102997">
		<tag k="fixme" v="consider natural=peak for the most distinct mountains in the district" />
		<tag k="name" v="Ruoššačohkka" />
		<tag k="name:se" v="Ruoššačohkka" />
		<tag k="natural" v="hill" />
		<tag k="old_name:se" v="Ruoššačåkka" />
		<tag k="place" v="locality" />
		<tag k="ssr:date" v="2019-12-27" />
		<tag k="ssr:gruppe" v="høyder" />
		<tag k="ssr:hovedgruppe" v="terreng" />
		<tag k="ssr:stedsnr" v="323929" />
		<tag k="ssr:type" v="ås" />
	</node>
	<node lat="70.34957781883372" lon="30.120942885173125" id="-102998">
		<tag k="fixme" v="consider natural=peak for the most distinct mountains in the district" />
		<tag k="name" v="Ovllánddeoaivi" />
		<tag k="name:se" v="Ovllánddeoaivi" />
		<tag k="natural" v="hill" />
		<tag k="old_name:se" v="Åvlandeoaivi;Ovll-Ándde-oaivi" />
		<tag k="place" v="locality" />
		<tag k="ssr:date" v="2019-12-27" />
		<tag k="ssr:gruppe" v="høyder" />
		<tag k="ssr:hovedgruppe" v="terreng" />
		<tag k="ssr:stedsnr" v="323931" />
		<tag k="ssr:type" v="fjell" />
	</node>
	<node lat="70.31880282511322" lon="30.005401278937928" id="-102999">
		<tag k="name" v="Andre porten - Uhca Rohči" />
		<tag k="name:no" v="Andre porten" />
		<tag k="name:se" v="Uhca Rohči" />
		<tag k="natural" v="valley" />
		<tag k="old_name:se" v="Råčči, ucca" />
		<tag k="place" v="locality" />
		<tag k="ssr:date" v="2019-12-27" />
		<tag k="ssr:gruppe" v="senkninger" />
		<tag k="ssr:hovedgruppe" v="terreng" />
		<tag k="ssr:stedsnr" v="323935" />
		<tag k="ssr:type" v="skar" />
	</node>
	<node lat="70.53055559956948" lon="30.664442642185087" id="-103000">
		<tag k="name" v="Seigrunnen" />
		<tag k="natural" v="shoal" />
		<tag k="place" v="locality" />
		<tag k="ssr:date" v="2019-12-27" />
		<tag k="ssr:gruppe" v="grunnerISjø" />
		<tag k="ssr:hovedgruppe" v="sjø" />
		<tag k="ssr:stedsnr" v="330632" />
		<tag k="ssr:type" v="grunneISjø" />
	</node>
	<node lat="70.30969170656789" lon="29.895567993735533" id="-103001">
		<tag k="name" v="Guovžagurjohka" />
		<tag k="name:se" v="Guovžagurjohka" />
		<tag k="old_name:se" v="Guovžagurjåkka" />
		<tag k="ssr:date" v="2019-12-27" />
		<tag k="ssr:gruppe" v="rennendeVann" />
		<tag k="ssr:hovedgruppe" v="ferskvann" />
		<tag k="ssr:stedsnr" v="331850" />
		<tag k="ssr:type" v="elv" />
		<tag k="waterway" v="river" />
	</node>
	<node lat="70.6224333638011" lon="29.693276554573856" id="-103002">
		<tag k="name" v="Håpet" />
		<tag k="place" v="quarter" />
		<tag k="ssr:date" v="2019-12-27" />
		<tag k="ssr:gruppe" v="bebyggelsesområder" />
		<tag k="ssr:hovedgruppe" v="bebyggelse" />
		<tag k="ssr:stedsnr" v="334299" />
		<tag k="ssr:type" v="boligfelt" />
	</node>
	<node lat="70.63400003256494" lon="29.799782054076662" id="-103003">
		<tag k="name" v="Skovikneset" />
		<tag k="natural" v="cape" />
		<tag k="ssr:date" v="2019-12-27" />
		<tag k="ssr:gruppe" v="kystkontur" />
		<tag k="ssr:hovedgruppe" v="sjø" />
		<tag k="ssr:stedsnr" v="334332" />
		<tag k="ssr:type" v="nesISjø" />
	</node>
	<node lat="70.52625003668098" lon="30.01044302320747" id="-103004">
		<tag k="fixme" v="consider natural=peak for the most distinct mountains in the district" />
		<tag k="name" v="Uhcagáisá" />
		<tag k="name:se" v="Uhcagáisá" />
		<tag k="natural" v="hill" />
		<tag k="place" v="locality" />
		<tag k="ssr:date" v="2019-12-27" />
		<tag k="ssr:gruppe" v="høyder" />
		<tag k="ssr:hovedgruppe" v="terreng" />
		<tag k="ssr:stedsnr" v="334408" />
		<tag k="ssr:type" v="fjell" />
	</node>
	<node lat="70.5400639224951" lon="29.98433748091996" id="-103005">
		<tag k="fixme" v="consider natural=peak for the most distinct mountains in the district" />
		<tag k="name" v="Vassbotnfjellet" />
		<tag k="natural" v="hill" />
		<tag k="place" v="locality" />
		<tag k="ssr:date" v="2019-12-27" />
		<tag k="ssr:gruppe" v="høyder" />
		<tag k="ssr:hovedgruppe" v="terreng" />
		<tag k="ssr:stedsnr" v="334419" />
		<tag k="ssr:type" v="fjell" />
	</node>
	<node lat="70.55454448058032" lon="30.166465181482003" id="-103006">
		<tag k="fixme" v="consider natural=peak for the most distinct mountains in the district" />
		<tag k="name" v="Daumannsmolla" />
		<tag k="natural" v="hill" />
		<tag k="place" v="locality" />
		<tag k="ssr:date" v="2019-12-27" />
		<tag k="ssr:gruppe" v="høyder" />
		<tag k="ssr:hovedgruppe" v="terreng" />
		<tag k="ssr:stedsnr" v="358084" />
		<tag k="ssr:type" v="ås" />
	</node>
	<node lat="70.57834169562135" lon="29.49272107846931" id="-103008">
		<tag k="alt_name:no" v="Buktekjølen" />
		<tag k="fixme" v="consider natural=peak for the most distinct mountains in the district" />
		<tag k="name" v="Buktkjølen - Buhkkačearru" />
		<tag k="name:no" v="Buktkjølen" />
		<tag k="name:se" v="Buhkkačearru" />
		<tag k="natural" v="hill" />
		<tag k="old_name:se" v="Bukkačærro;Bukkačearru" />
		<tag k="place" v="locality" />
		<tag k="ssr:date" v="2019-12-27" />
		<tag k="ssr:gruppe" v="høyder" />
		<tag k="ssr:hovedgruppe" v="terreng" />
		<tag k="ssr:stedsnr" v="383466" />
		<tag k="ssr:type" v="fjell" />
	</node>
	<node lat="70.51233059067224" lon="29.58732378419497" id="-103009">
		<tag k="name" v="Laksnes" />
		<tag k="place" v="isolated_dwelling" />
		<tag k="ssr:date" v="2019-12-27" />
		<tag k="ssr:gruppe" v="bolighus" />
		<tag k="ssr:hovedgruppe" v="bebyggelse" />
		<tag k="ssr:stedsnr" v="383470" />
		<tag k="ssr:type" v="fritidsbolig" />
	</node>
	<node lat="70.51594725797071" lon="29.754040376945643" id="-103010">
		<tag k="name" v="Slangedalen" />
		<tag k="natural" v="valley" />
		<tag k="place" v="locality" />
		<tag k="ssr:date" v="2019-12-27" />
		<tag k="ssr:gruppe" v="senkninger" />
		<tag k="ssr:hovedgruppe" v="terreng" />
		<tag k="ssr:stedsnr" v="383472" />
		<tag k="ssr:type" v="dal" />
	</node>
	<node lat="70.60484170056573" lon="29.72421543457834" id="-103011">
		<tag k="alt_name" v="Pervatn" />
		<tag k="name" v="Pervatnet" />
		<tag k="natural" v="water" />
		<tag k="ssr:date" v="2019-12-27" />
		<tag k="ssr:gruppe" v="stilleståendeVann" />
		<tag k="ssr:hovedgruppe" v="ferskvann" />
		<tag k="ssr:stedsnr" v="383492" />
		<tag k="ssr:type" v="vann" />
		<tag k="water" v="lake" />
	</node>
	<node lat="70.44863893158362" lon="30.371062227302343" id="-103012">
		<tag k="name" v="Orošjohka" />
		<tag k="name:se" v="Orošjohka" />
		<tag k="old_name:se" v="Årušjåkka" />
		<tag k="ssr:date" v="2019-12-27" />
		<tag k="ssr:gruppe" v="rennendeVann" />
		<tag k="ssr:hovedgruppe" v="ferskvann" />
		<tag k="ssr:stedsnr" v="383886" />
		<tag k="ssr:type" v="elv" />
		<tag k="waterway" v="river" />
	</node>
	<node lat="70.50061669803938" lon="29.3223266841569" id="-103013">
		<tag k="name" v="Stuorra Oardu" />
		<tag k="name:se" v="Stuorra Oardu" />
		<tag k="old_name:se" v="Oardu, stuorra" />
		<tag k="ssr:date" v="2019-12-27" />
		<tag k="ssr:gruppe" v="rennendeVann" />
		<tag k="ssr:hovedgruppe" v="ferskvann" />
		<tag k="ssr:stedsnr" v="383965" />
		<tag k="ssr:type" v="elv" />
		<tag k="waterway" v="river" />
	</node>
	<node lat="70.63540558719232" lon="29.682596010434544" id="-103015">
		<tag k="name" v="Skoleelva" />
		<tag k="ssr:date" v="2019-12-27" />
		<tag k="ssr:gruppe" v="rennendeVann" />
		<tag k="ssr:hovedgruppe" v="ferskvann" />
		<tag k="ssr:stedsnr" v="384455" />
		<tag k="ssr:type" v="bekk" />
		<tag k="waterway" v="stream" />
	</node>
	<node lat="70.6382417021314" lon="29.835651506175196" id="-103016">
		<tag k="name" v="Prestelva" />
		<tag k="ssr:date" v="2019-12-27" />
		<tag k="ssr:gruppe" v="rennendeVann" />
		<tag k="ssr:hovedgruppe" v="ferskvann" />
		<tag k="ssr:stedsnr" v="384458" />
		<tag k="ssr:type" v="bekk" />
		<tag k="waterway" v="stream" />
	</node>
	<node lat="70.47334171312066" lon="30.58928432053573" id="-103018">
		<tag k="name" v="Finnvikdalen" />
		<tag k="natural" v="valley" />
		<tag k="place" v="locality" />
		<tag k="ssr:date" v="2019-12-27" />
		<tag k="ssr:gruppe" v="senkninger" />
		<tag k="ssr:hovedgruppe" v="terreng" />
		<tag k="ssr:stedsnr" v="384878" />
		<tag k="ssr:type" v="dal" />
	</node>
	<node lat="70.3478305926151" lon="29.879168032324262" id="-103019">
		<tag k="name" v="Gárgašjohka" />
		<tag k="name:se" v="Gárgašjohka" />
		<tag k="old_name:se" v="Gargašjåkka" />
		<tag k="ssr:date" v="2019-12-27" />
		<tag k="ssr:gruppe" v="rennendeVann" />
		<tag k="ssr:hovedgruppe" v="ferskvann" />
		<tag k="ssr:stedsnr" v="384893" />
		<tag k="ssr:type" v="elv" />
		<tag k="waterway" v="river" />
	</node>
	<node lat="70.46867503975527" lon="29.64418207249661" id="-103020">
		<tag k="name" v="Vuovdejohka" />
		<tag k="name:se" v="Vuovdejohka" />
		<tag k="old_name:se" v="Vuovdejåkka" />
		<tag k="ssr:date" v="2019-12-27" />
		<tag k="ssr:gruppe" v="rennendeVann" />
		<tag k="ssr:hovedgruppe" v="ferskvann" />
		<tag k="ssr:stedsnr" v="384968" />
		<tag k="ssr:type" v="bekk" />
		<tag k="waterway" v="stream" />
	</node>
	<node lat="70.69777503332142" lon="30.092337501958678" id="-103021">
		<tag k="name" v="Molvik" />
		<tag k="place" v="locality" />
		<tag k="ssr:date" v="2019-12-27" />
		<tag k="ssr:gruppe" v="bolighus" />
		<tag k="ssr:hovedgruppe" v="bebyggelse" />
		<tag k="ssr:stedsnr" v="389538" />
		<tag k="ssr:type" v="gammelBosettingsplass" />
	</node>
	<node lat="70.62379725170506" lon="29.699459874710413" id="-103022">
		<tag k="alt_name" v="Laukholmen" />
		<tag k="name" v="Liholmen" />
		<tag k="place" v="islet" />
		<tag k="ssr:date" v="2019-12-27" />
		<tag k="ssr:gruppe" v="kystkontur" />
		<tag k="ssr:hovedgruppe" v="sjø" />
		<tag k="ssr:stedsnr" v="389533" />
		<tag k="ssr:type" v="holmeISjø" />
	</node>
	<node lat="70.53193893132959" lon="30.041970785488893" id="-103023">
		<tag k="alt_name" v="Strømsnes" />
		<tag k="name" v="Strømsneset" />
		<tag k="natural" v="cape" />
		<tag k="ssr:date" v="2019-12-27" />
		<tag k="ssr:gruppe" v="kystkontur" />
		<tag k="ssr:hovedgruppe" v="sjø" />
		<tag k="ssr:stedsnr" v="390554" />
		<tag k="ssr:type" v="nesISjø" />
	</node>
	<node lat="70.51766114655243" lon="30.004256916910297" id="-103024">
		<tag k="fixme" v="consider natural=peak for the most distinct mountains in the district" />
		<tag k="name" v="Gaisa" />
		<tag k="natural" v="hill" />
		<tag k="place" v="locality" />
		<tag k="ssr:date" v="2019-12-27" />
		<tag k="ssr:gruppe" v="høyder" />
		<tag k="ssr:hovedgruppe" v="terreng" />
		<tag k="ssr:stedsnr" v="419078" />
		<tag k="ssr:type" v="fjell" />
	</node>
	<node lat="70.5669250320909" lon="29.58745714802425" id="-103025">
		<tag k="name" v="Djupvasspytten" />
		<tag k="natural" v="water" />
		<tag k="ssr:date" v="2019-12-27" />
		<tag k="ssr:gruppe" v="stilleståendeVann" />
		<tag k="ssr:hovedgruppe" v="ferskvann" />
		<tag k="ssr:stedsnr" v="444421" />
		<tag k="ssr:type" v="tjern" />
	</node>
	<node lat="70.52560837077111" lon="29.912498644756727" id="-103026">
		<tag k="name" v="Kristiandalen" />
		<tag k="natural" v="valley" />
		<tag k="place" v="locality" />
		<tag k="ssr:date" v="2019-12-27" />
		<tag k="ssr:gruppe" v="senkninger" />
		<tag k="ssr:hovedgruppe" v="terreng" />
		<tag k="ssr:stedsnr" v="444428" />
		<tag k="ssr:type" v="dal" />
	</node>
	<node lat="70.44768893911107" lon="30.400578878870842" id="-103027">
		<tag k="fixme" v="consider natural=peak for the most distinct mountains in the district" />
		<tag k="name" v="Raet" />
		<tag k="natural" v="hill" />
		<tag k="place" v="locality" />
		<tag k="ssr:date" v="2019-12-27" />
		<tag k="ssr:gruppe" v="høyder" />
		<tag k="ssr:hovedgruppe" v="terreng" />
		<tag k="ssr:stedsnr" v="444885" />
		<tag k="ssr:type" v="ås" />
	</node>
	<node lat="70.38577504281992" lon="30.018440178741887" id="-103028">
		<tag k="name" v="Buoidejohka" />
		<tag k="name:se" v="Buoidejohka" />
		<tag k="old_name:se" v="Buoidejåkka" />
		<tag k="ssr:date" v="2019-12-27" />
		<tag k="ssr:gruppe" v="rennendeVann" />
		<tag k="ssr:hovedgruppe" v="ferskvann" />
		<tag k="ssr:stedsnr" v="444891" />
		<tag k="ssr:type" v="elv" />
		<tag k="waterway" v="river" />
	</node>
	<node lat="70.35320281678958" lon="30.028390173489925" id="-103029">
		<tag k="fixme" v="consider natural=peak for the most distinct mountains in the district" />
		<tag k="name" v="Njuvččaguroaivi" />
		<tag k="name:se" v="Njuvččaguroaivi" />
		<tag k="natural" v="hill" />
		<tag k="old_name:se" v="Njuvčaguroaivi" />
		<tag k="place" v="locality" />
		<tag k="ssr:date" v="2019-12-27" />
		<tag k="ssr:gruppe" v="høyder" />
		<tag k="ssr:hovedgruppe" v="terreng" />
		<tag k="ssr:stedsnr" v="444935" />
		<tag k="ssr:type" v="fjell" />
	</node>
	<node lat="70.55602781458101" lon="30.013779162283498" id="-103030">
		<tag k="fixme" v="consider natural=peak for the most distinct mountains in the district" />
		<tag k="name" v="Gardijåkkhaugen - Gárdočohkka" />
		<tag k="name:no" v="Gardijåkkhaugen" />
		<tag k="name:se" v="Gárdočohkka" />
		<tag k="natural" v="hill" />
		<tag k="old_name:se" v="Gardučåkka" />
		<tag k="place" v="locality" />
		<tag k="ssr:date" v="2019-12-27" />
		<tag k="ssr:gruppe" v="høyder" />
		<tag k="ssr:hovedgruppe" v="terreng" />
		<tag k="ssr:stedsnr" v="445038" />
		<tag k="ssr:type" v="fjell" />
	</node>
	<node lat="70.57756392668651" lon="30.00672082952507" id="-103031">
		<tag k="name" v="Nordfjordvatnet" />
		<tag k="natural" v="water" />
		<tag k="ssr:date" v="2019-12-27" />
		<tag k="ssr:gruppe" v="stilleståendeVann" />
		<tag k="ssr:hovedgruppe" v="ferskvann" />
		<tag k="ssr:stedsnr" v="445041" />
		<tag k="ssr:type" v="tjern" />
	</node>
	<node lat="70.66797225806992" lon="30.077612487848207" id="-103032">
		<tag k="name" v="Grunnvatna" />
		<tag k="natural" v="water" />
		<tag k="ssr:date" v="2019-12-27" />
		<tag k="ssr:gruppe" v="stilleståendeVann" />
		<tag k="ssr:hovedgruppe" v="ferskvann" />
		<tag k="ssr:stedsnr" v="445048" />
		<tag k="ssr:type" v="tjern" />
	</node>
	<node lat="70.68575003542492" lon="30.122284716794276" id="-103033">
		<tag k="name" v="Reindalen" />
		<tag k="natural" v="valley" />
		<tag k="place" v="locality" />
		<tag k="ssr:date" v="2019-12-27" />
		<tag k="ssr:gruppe" v="senkninger" />
		<tag k="ssr:hovedgruppe" v="terreng" />
		<tag k="ssr:stedsnr" v="445050" />
		<tag k="ssr:type" v="dal" />
	</node>
	<node lat="70.67134170180978" lon="29.933248696902762" id="-103034">
		<tag k="name" v="Skarvbergvikvatnet" />
		<tag k="natural" v="water" />
		<tag k="ssr:date" v="2019-12-27" />
		<tag k="ssr:gruppe" v="stilleståendeVann" />
		<tag k="ssr:hovedgruppe" v="ferskvann" />
		<tag k="ssr:stedsnr" v="445501" />
		<tag k="ssr:type" v="tjern" />
	</node>
	<node lat="70.52057504570045" lon="30.439753905315875" id="-103035">
		<tag k="fixme" v="consider natural=peak for the most distinct mountains in the district" />
		<tag k="name" v="Baikačearru" />
		<tag k="name:se" v="Baikačearru" />
		<tag k="natural" v="hill" />
		<tag k="old_name:se" v="Baikačærro" />
		<tag k="place" v="locality" />
		<tag k="ssr:date" v="2019-12-27" />
		<tag k="ssr:gruppe" v="høyder" />
		<tag k="ssr:hovedgruppe" v="terreng" />
		<tag k="ssr:stedsnr" v="505001" />
		<tag k="ssr:type" v="fjell" />
	</node>
	<node lat="70.67510003615313" lon="30.207401317643555" id="-103036">
		<tag k="alt_name" v="Korsnes" />
		<tag k="name" v="Korsneset" />
		<tag k="natural" v="cape" />
		<tag k="ssr:date" v="2019-12-27" />
		<tag k="ssr:gruppe" v="kystkontur" />
		<tag k="ssr:hovedgruppe" v="sjø" />
		<tag k="ssr:stedsnr" v="505043" />
		<tag k="ssr:type" v="nesISjø" />
	</node>
	<node lat="70.55143337328114" lon="30.600351038216914" id="-103037">
		<tag k="fixme" v="consider seamark:type=rock or natural=shoal" />
		<tag k="name" v="Storskjeran" />
		<tag k="place" v="islet" />
		<tag k="ssr:date" v="2019-12-27" />
		<tag k="ssr:gruppe" v="grunnerISjø" />
		<tag k="ssr:hovedgruppe" v="sjø" />
		<tag k="ssr:stedsnr" v="505050" />
		<tag k="ssr:type" v="skjærISjø" />
	</node>
	<node lat="70.55696392776557" lon="30.070948572253766" id="-103039">
		<tag k="name" v="Myrvatnet" />
		<tag k="natural" v="water" />
		<tag k="ssr:date" v="2019-12-27" />
		<tag k="ssr:gruppe" v="stilleståendeVann" />
		<tag k="ssr:hovedgruppe" v="ferskvann" />
		<tag k="ssr:stedsnr" v="505058" />
		<tag k="ssr:type" v="tjern" />
	</node>
	<node lat="70.54843337229848" lon="30.401651152062854" id="-103040">
		<tag k="alt_name" v="Syltevika, yt" />
		<tag k="name" v="Ytre Syltevika" />
		<tag k="natural" v="bay" />
		<tag k="ssr:date" v="2019-12-27" />
		<tag k="ssr:gruppe" v="kystkontur" />
		<tag k="ssr:hovedgruppe" v="sjø" />
		<tag k="ssr:stedsnr" v="505065" />
		<tag k="ssr:type" v="vikISjø" />
	</node>
	<node lat="70.53465003736186" lon="29.947073630094014" id="-103041">
		<tag k="name" v="Sørhursidalen" />
		<tag k="natural" v="valley" />
		<tag k="place" v="locality" />
		<tag k="ssr:date" v="2019-12-27" />
		<tag k="ssr:gruppe" v="senkninger" />
		<tag k="ssr:hovedgruppe" v="terreng" />
		<tag k="ssr:stedsnr" v="505445" />
		<tag k="ssr:type" v="dal" />
	</node>
	<node lat="70.58378336879213" lon="29.626198794662617" id="-103042">
		<tag k="name" v="Anneelva - Ánnejohka" />
		<tag k="name:no" v="Anneelva" />
		<tag k="name:se" v="Ánnejohka" />
		<tag k="old_name:se" v="Annejåkka" />
		<tag k="ssr:date" v="2019-12-27" />
		<tag k="ssr:gruppe" v="rennendeVann" />
		<tag k="ssr:hovedgruppe" v="ferskvann" />
		<tag k="ssr:stedsnr" v="505453" />
		<tag k="ssr:type" v="bekk" />
		<tag k="waterway" v="stream" />
	</node>
	<node lat="70.53280002971643" lon="29.51143770020906" id="-103043">
		<tag k="name" v="Evavatnet" />
		<tag k="natural" v="water" />
		<tag k="ssr:date" v="2019-12-27" />
		<tag k="ssr:gruppe" v="stilleståendeVann" />
		<tag k="ssr:hovedgruppe" v="ferskvann" />
		<tag k="ssr:stedsnr" v="505463" />
		<tag k="ssr:type" v="vann" />
		<tag k="water" v="lake" />
	</node>
	<node lat="70.33009726602653" lon="30.060862362397348" id="-103044">
		<tag k="name" v="Ovsttarjohka" />
		<tag k="name:se" v="Ovsttarjohka" />
		<tag k="old_name:se" v="Åvstarjåkka" />
		<tag k="ssr:date" v="2019-12-27" />
		<tag k="ssr:gruppe" v="rennendeVann" />
		<tag k="ssr:hovedgruppe" v="ferskvann" />
		<tag k="ssr:stedsnr" v="505916" />
		<tag k="ssr:type" v="elv" />
		<tag k="waterway" v="river" />
	</node>
	<node lat="70.4965861581408" lon="30.54530936887085" id="-103045">
		<tag k="name" v="Gretehola" />
		<tag k="natural" v="valley" />
		<tag k="place" v="locality" />
		<tag k="ssr:date" v="2019-12-27" />
		<tag k="ssr:gruppe" v="senkninger" />
		<tag k="ssr:hovedgruppe" v="terreng" />
		<tag k="ssr:stedsnr" v="505887" />
		<tag k="ssr:type" v="botn" />
	</node>
	<node lat="70.48375003306245" lon="29.54015713483775" id="-103046">
		<tag k="name" v="Varangerhalvøya" />
		<tag k="name:fkv" v="Varenkinniemi" />
		<tag k="name:no" v="Varangerhalvøya" />
		<tag k="name:se" v="Várnjárga" />
		<tag k="natural" v="cape" />
		<tag k="ssr:date" v="2021-06-08" />
		<tag k="ssr:gruppe" v="kystkontur" />
		<tag k="ssr:hovedgruppe" v="sjø" />
		<tag k="ssr:stedsnr" v="506029" />
		<tag k="ssr:type" v="halvøyISjø" />
	</node>
	<node lat="70.65160836172946" lon="29.74770432033948" id="-103047">
		<tag k="name" v="Skrovnesvatna" />
		<tag k="natural" v="water" />
		<tag k="ssr:date" v="2019-12-27" />
		<tag k="ssr:gruppe" v="stilleståendeVann" />
		<tag k="ssr:hovedgruppe" v="ferskvann" />
		<tag k="ssr:stedsnr" v="506486" />
		<tag k="ssr:type" v="tjern" />
	</node>
	<node lat="70.68490003352107" lon="29.908532042244097" id="-103050">
		<tag k="name" v="Skarbergneset" />
		<tag k="natural" v="cape" />
		<tag k="ssr:date" v="2019-12-27" />
		<tag k="ssr:gruppe" v="kystkontur" />
		<tag k="ssr:hovedgruppe" v="sjø" />
		<tag k="ssr:stedsnr" v="511495" />
		<tag k="ssr:type" v="nesISjø" />
	</node>
	<node lat="70.61984447248366" lon="29.689957102904373" id="-103051">
		<tag k="name" v="Maritbukta" />
		<tag k="natural" v="bay" />
		<tag k="ssr:date" v="2019-12-27" />
		<tag k="ssr:gruppe" v="kystkontur" />
		<tag k="ssr:hovedgruppe" v="sjø" />
		<tag k="ssr:stedsnr" v="511501" />
		<tag k="ssr:type" v="vikISjø" />
	</node>
	<node lat="70.60255315394005" lon="29.693014131936653" id="-103053">
		<tag k="aeroway" v="aerodrome" />
		<tag k="alt_name:no" v="Båtsfjord" />
		<tag k="name" v="Båtsfjord lufthavn" />
		<tag k="name:no" v="Båtsfjord lufthavn" />
		<tag k="name:se" v="Báhcavuona girdihámman" />
		<tag k="old_name:no" v="Båtsfjord flyplass" />
		<tag k="ssr:date" v="2021-08-12" />
		<tag k="ssr:gruppe" v="luftfart" />
		<tag k="ssr:hovedgruppe" v="infrastruktur" />
		<tag k="ssr:stedsnr" v="511947" />
		<tag k="ssr:type" v="flyplass" />
	</node>
	<node lat="70.49750837195224" lon="29.791920908165316" id="-103054">
		<tag k="name" v="Morešveaijohka" />
		<tag k="name:se" v="Morešveaijohka" />
		<tag k="old_name:se" v="Mårešvæjjåkka" />
		<tag k="ssr:date" v="2019-12-27" />
		<tag k="ssr:gruppe" v="rennendeVann" />
		<tag k="ssr:hovedgruppe" v="ferskvann" />
		<tag k="ssr:stedsnr" v="513477" />
		<tag k="ssr:type" v="elv" />
		<tag k="waterway" v="river" />
	</node>
	<node lat="70.5494750366134" lon="30.07642077480152" id="-103055">
		<tag k="alt_name" v="Syltefjord" />
		<tag k="amenity" v="place_of_worship" />
		<tag k="denomination" v="lutheran" />
		<tag k="name" v="Syltefjord kapell" />
		<tag k="religion" v="christian" />
		<tag k="ssr:date" v="2021-12-16" />
		<tag k="ssr:gruppe" v="kulturinstitusjoner" />
		<tag k="ssr:hovedgruppe" v="kultur" />
		<tag k="ssr:stedsnr" v="515910" />
		<tag k="ssr:type" v="kirke" />
	</node>
	<node lat="70.62469447437039" lon="29.67314322999611" id="-103057">
		<tag k="name" v="Neptundalen" />
		<tag k="natural" v="valley" />
		<tag k="place" v="locality" />
		<tag k="ssr:date" v="2019-12-27" />
		<tag k="ssr:gruppe" v="senkninger" />
		<tag k="ssr:hovedgruppe" v="terreng" />
		<tag k="ssr:stedsnr" v="516320" />
		<tag k="ssr:type" v="dal" />
	</node>
	<node lat="70.631177812661" lon="29.72521821898919" id="-103059">
		<tag k="name" v="Storholmen" />
		<tag k="natural" v="cape" />
		<tag k="ssr:date" v="2019-12-27" />
		<tag k="ssr:gruppe" v="kystkontur" />
		<tag k="ssr:hovedgruppe" v="sjø" />
		<tag k="ssr:stedsnr" v="516333" />
		<tag k="ssr:type" v="halvøyISjø" />
	</node>
	<node lat="70.6513500312564" lon="30.126445808263277" id="-103060">
		<tag k="bay" v="fjord" />
		<tag k="name" v="Sáttovuotna" />
		<tag k="name:no" v="Makkaur-Sandfjorden" />
		<tag k="name:se" v="Sáttovuotna" />
		<tag k="natural" v="bay" />
		<tag k="old_name:se" v="Sadduvuodna" />
		<tag k="ssr:date" v="2021-06-08" />
		<tag k="ssr:gruppe" v="farvann" />
		<tag k="ssr:hovedgruppe" v="sjø" />
		<tag k="ssr:stedsnr" v="565082" />
		<tag k="ssr:type" v="fjord" />
	</node>
	<node lat="70.56988337191301" lon="29.853004238786475" id="-103061">
		<tag k="fixme" v="consider natural=peak for the most distinct mountains in the district" />
		<tag k="name" v="Båtsfjordfjellet - Máhkirčearru" />
		<tag k="name:no" v="Båtsfjordfjellet" />
		<tag k="name:se" v="Máhkirčearru" />
		<tag k="natural" v="hill" />
		<tag k="old_name:se" v="Makkirčærro" />
		<tag k="place" v="locality" />
		<tag k="ssr:date" v="2019-12-27" />
		<tag k="ssr:gruppe" v="høyder" />
		<tag k="ssr:hovedgruppe" v="terreng" />
		<tag k="ssr:stedsnr" v="565421" />
		<tag k="ssr:type" v="fjell" />
	</node>
	<node lat="70.57064447223729" lon="29.73444596652132" id="-103062">
		<tag k="name" v="Oroščohkka" />
		<tag k="name:se" v="Oroščohkka" />
		<tag k="natural" v="hill" />
		<tag k="old_name:se" v="Åruščåkka" />
		<tag k="place" v="locality" />
		<tag k="ssr:date" v="2019-12-27" />
		<tag k="ssr:gruppe" v="høyder" />
		<tag k="ssr:hovedgruppe" v="terreng" />
		<tag k="ssr:stedsnr" v="565422" />
		<tag k="ssr:type" v="haug" />
	</node>
	<node lat="70.5843805903221" lon="29.786515380687373" id="-103063">
		<tag k="fixme" v="consider natural=peak for the most distinct mountains in the district" />
		<tag k="name" v="Námmečohkka" />
		<tag k="name:se" v="Námmečohkka" />
		<tag k="natural" v="hill" />
		<tag k="old_name:se" v="Nammečåkka" />
		<tag k="place" v="locality" />
		<tag k="ssr:date" v="2019-12-27" />
		<tag k="ssr:gruppe" v="høyder" />
		<tag k="ssr:hovedgruppe" v="terreng" />
		<tag k="ssr:stedsnr" v="565423" />
		<tag k="ssr:type" v="ås" />
	</node>
	<node lat="70.519861145445" lon="29.57017933985073" id="-103064">
		<tag k="name" v="Arondalen" />
		<tag k="natural" v="valley" />
		<tag k="place" v="locality" />
		<tag k="ssr:date" v="2019-12-27" />
		<tag k="ssr:gruppe" v="senkninger" />
		<tag k="ssr:hovedgruppe" v="terreng" />
		<tag k="ssr:stedsnr" v="565426" />
		<tag k="ssr:type" v="dal" />
	</node>
	<node lat="70.52829447750757" lon="29.97155415601192" id="-103065">
		<tag k="name" v="Kristoffervatnet" />
		<tag k="natural" v="water" />
		<tag k="ssr:date" v="2019-12-27" />
		<tag k="ssr:gruppe" v="stilleståendeVann" />
		<tag k="ssr:hovedgruppe" v="ferskvann" />
		<tag k="ssr:stedsnr" v="565428" />
		<tag k="ssr:type" v="tjern" />
	</node>
	<node lat="70.59291669841289" lon="29.597559926025017" id="-103066">
		<tag k="alt_name" v="Bukteelva" />
		<tag k="name" v="Buktelva" />
		<tag k="ssr:date" v="2019-12-27" />
		<tag k="ssr:gruppe" v="rennendeVann" />
		<tag k="ssr:hovedgruppe" v="ferskvann" />
		<tag k="ssr:stedsnr" v="565444" />
		<tag k="ssr:type" v="elv" />
		<tag k="waterway" v="river" />
	</node>
	<node lat="70.586913918654" lon="29.600498796512888" id="-103067">
		<tag k="alt_name" v="Reinkalvvatn" />
		<tag k="name" v="Reinkalvvatnet" />
		<tag k="natural" v="water" />
		<tag k="ssr:date" v="2019-12-27" />
		<tag k="ssr:gruppe" v="stilleståendeVann" />
		<tag k="ssr:hovedgruppe" v="ferskvann" />
		<tag k="ssr:stedsnr" v="565445" />
		<tag k="ssr:type" v="tjern" />
	</node>
	<node lat="70.436641706461" lon="30.095273498864287" id="-103068">
		<tag k="name" v="Djupdalen" />
		<tag k="natural" v="valley" />
		<tag k="place" v="locality" />
		<tag k="ssr:date" v="2019-12-27" />
		<tag k="ssr:gruppe" v="senkninger" />
		<tag k="ssr:hovedgruppe" v="terreng" />
		<tag k="ssr:stedsnr" v="565884" />
		<tag k="ssr:type" v="dal" />
	</node>
	<node lat="70.4779694984812" lon="30.901573022960466" id="-103069">
		<tag k="alt_name" v="Østhavet" />
		<tag k="name" v="Austhavet" />
		<tag k="place" v="sea" />
		<tag k="ssr:date" v="2019-12-27" />
		<tag k="ssr:gruppe" v="farvann" />
		<tag k="ssr:hovedgruppe" v="sjø" />
		<tag k="ssr:stedsnr" v="565913" />
		<tag k="ssr:type" v="havområde" />
	</node>
	<node lat="70.37766393510441" lon="30.304984471784675" id="-103070">
		<tag k="name" v="Langryggvatna" />
		<tag k="natural" v="water" />
		<tag k="ssr:date" v="2019-12-27" />
		<tag k="ssr:gruppe" v="stilleståendeVann" />
		<tag k="ssr:hovedgruppe" v="ferskvann" />
		<tag k="ssr:stedsnr" v="565935" />
		<tag k="ssr:type" v="vann" />
		<tag k="water" v="lake" />
	</node>
	<node lat="70.66033058836092" lon="29.959990343383527" id="-103073">
		<tag k="name" v="Høgfjellvatna" />
		<tag k="natural" v="water" />
		<tag k="ssr:date" v="2019-12-27" />
		<tag k="ssr:gruppe" v="stilleståendeVann" />
		<tag k="ssr:hovedgruppe" v="ferskvann" />
		<tag k="ssr:stedsnr" v="566488" />
		<tag k="ssr:type" v="vann" />
		<tag k="water" v="lake" />
	</node>
	<node lat="70.49558337819722" lon="30.494378857772503" id="-103074">
		<tag k="name" v="Kudalen" />
		<tag k="natural" v="valley" />
		<tag k="place" v="locality" />
		<tag k="ssr:date" v="2019-12-27" />
		<tag k="ssr:gruppe" v="senkninger" />
		<tag k="ssr:hovedgruppe" v="terreng" />
		<tag k="ssr:stedsnr" v="566915" />
		<tag k="ssr:type" v="dal" />
	</node>
	<node lat="70.47590282460281" lon="30.722239809983268" id="-103077">
		<tag k="fixme" v="consider seamark:type=rock or natural=shoal" />
		<tag k="name" v="Segelkollskjæran" />
		<tag k="place" v="islet" />
		<tag k="ssr:date" v="2019-12-27" />
		<tag k="ssr:gruppe" v="grunnerISjø" />
		<tag k="ssr:hovedgruppe" v="sjø" />
		<tag k="ssr:stedsnr" v="572592" />
		<tag k="ssr:type" v="skjærISjø" />
	</node>
	<node lat="70.6325833650781" lon="29.804454297843026" id="-103078">
		<tag k="name" v="Skovikelva" />
		<tag k="ssr:date" v="2019-12-27" />
		<tag k="ssr:gruppe" v="rennendeVann" />
		<tag k="ssr:hovedgruppe" v="ferskvann" />
		<tag k="ssr:stedsnr" v="576366" />
		<tag k="ssr:type" v="elv" />
		<tag k="waterway" v="river" />
	</node>
	<node lat="70.53195003358947" lon="30.026659697025828" id="-103079">
		<tag k="name" v="Kvenskoran" />
		<tag k="natural" v="hill" />
		<tag k="place" v="locality" />
		<tag k="ssr:date" v="2019-12-27" />
		<tag k="ssr:gruppe" v="høyder" />
		<tag k="ssr:hovedgruppe" v="terreng" />
		<tag k="ssr:stedsnr" v="576515" />
		<tag k="ssr:type" v="berg" />
	</node>
	<node lat="70.5868583760038" lon="30.303990109446765" id="-103080">
		<tag k="fixme" v="consider natural=peak for the most distinct mountains in the district" />
		<tag k="loc_name" v="Syltefjordstauran" />
		<tag k="name" v="Stauran" />
		<tag k="natural" v="hill" />
		<tag k="place" v="locality" />
		<tag k="ssr:date" v="2019-12-27" />
		<tag k="ssr:gruppe" v="høyder" />
		<tag k="ssr:hovedgruppe" v="terreng" />
		<tag k="ssr:stedsnr" v="626032" />
		<tag k="ssr:type" v="ås" />
	</node>
	<node lat="70.54501115835674" lon="30.45770112089518" id="-103081">
		<tag k="name" v="Kalkmorapet" />
		<tag k="natural" v="valley" />
		<tag k="place" v="locality" />
		<tag k="ssr:date" v="2019-12-27" />
		<tag k="ssr:gruppe" v="senkninger" />
		<tag k="ssr:hovedgruppe" v="terreng" />
		<tag k="ssr:stedsnr" v="626076" />
		<tag k="ssr:type" v="skar" />
	</node>
	<node lat="70.70028892620861" lon="30.066862511923116" id="-103082">
		<tag k="name" v="Molvikvatnan - Máhkirjávrrit" />
		<tag k="name:no" v="Molvikvatnan" />
		<tag k="name:se" v="Máhkirjávrrit" />
		<tag k="natural" v="water" />
		<tag k="old_name:se" v="Makkirjavrit" />
		<tag k="ssr:date" v="2019-12-27" />
		<tag k="ssr:gruppe" v="stilleståendeVann" />
		<tag k="ssr:hovedgruppe" v="ferskvann" />
		<tag k="ssr:stedsnr" v="626044" />
		<tag k="ssr:type" v="vann" />
		<tag k="water" v="lake" />
	</node>
	<node lat="70.55368059795586" lon="30.44974836536371" id="-103083">
		<tag k="loc_name" v="Svartneset" />
		<tag k="name" v="Svartnes" />
		<tag k="natural" v="cape" />
		<tag k="ssr:date" v="2019-12-27" />
		<tag k="ssr:gruppe" v="kystkontur" />
		<tag k="ssr:hovedgruppe" v="sjø" />
		<tag k="ssr:stedsnr" v="626085" />
		<tag k="ssr:type" v="nesISjø" />
	</node>
	<node lat="70.55243058027874" lon="29.295062818103702" id="-103084">
		<tag k="fixme" v="consider natural=peak for the most distinct mountains in the district" />
		<tag k="name" v="Storkløftfjellet" />
		<tag k="natural" v="hill" />
		<tag k="place" v="locality" />
		<tag k="ssr:date" v="2019-12-27" />
		<tag k="ssr:gruppe" v="høyder" />
		<tag k="ssr:hovedgruppe" v="terreng" />
		<tag k="ssr:stedsnr" v="626520" />
		<tag k="ssr:type" v="fjell" />
	</node>
	<node lat="70.5130639316237" lon="30.174440158538673" id="-103085">
		<tag k="name" v="Djupdalen" />
		<tag k="natural" v="valley" />
		<tag k="place" v="locality" />
		<tag k="ssr:date" v="2019-12-27" />
		<tag k="ssr:gruppe" v="senkninger" />
		<tag k="ssr:hovedgruppe" v="terreng" />
		<tag k="ssr:stedsnr" v="626127" />
		<tag k="ssr:type" v="dal" />
	</node>
	<node lat="70.61159170609956" lon="30.06089582065821" id="-103086">
		<tag k="fixme" v="consider natural=peak for the most distinct mountains in the district" />
		<tag k="name" v="Syltefjordfjellet - Máhkirčearru" />
		<tag k="name:no" v="Syltefjordfjellet" />
		<tag k="name:se" v="Máhkirčearru" />
		<tag k="natural" v="hill" />
		<tag k="old_name:se" v="Makkirčærro" />
		<tag k="place" v="locality" />
		<tag k="ssr:date" v="2019-12-27" />
		<tag k="ssr:gruppe" v="høyder" />
		<tag k="ssr:hovedgruppe" v="terreng" />
		<tag k="ssr:stedsnr" v="626128" />
		<tag k="ssr:type" v="fjell" />
	</node>
	<node lat="70.51056392055672" lon="29.834529231264973" id="-103087">
		<tag k="alt_name" v="Johandalen, nedre" />
		<tag k="name" v="Nedre Johandalen" />
		<tag k="natural" v="valley" />
		<tag k="place" v="locality" />
		<tag k="ssr:date" v="2019-12-27" />
		<tag k="ssr:gruppe" v="senkninger" />
		<tag k="ssr:hovedgruppe" v="terreng" />
		<tag k="ssr:stedsnr" v="626481" />
		<tag k="ssr:type" v="dal" />
	</node>
	<node lat="70.46828060107282" lon="30.681709277937074" id="-103088">
		<tag k="name" v="Storflogdalen" />
		<tag k="natural" v="valley" />
		<tag k="place" v="locality" />
		<tag k="ssr:date" v="2019-12-27" />
		<tag k="ssr:gruppe" v="senkninger" />
		<tag k="ssr:hovedgruppe" v="terreng" />
		<tag k="ssr:stedsnr" v="626928" />
		<tag k="ssr:type" v="dal" />
	</node>
	<node lat="70.42668615690177" lon="30.4302483107584" id="-103089">
		<tag k="name" v="Ruovddášjohka" />
		<tag k="name:se" v="Ruovddášjohka" />
		<tag k="old_name:se" v="Ruovdašjåkka" />
		<tag k="ssr:date" v="2019-12-27" />
		<tag k="ssr:gruppe" v="rennendeVann" />
		<tag k="ssr:hovedgruppe" v="ferskvann" />
		<tag k="ssr:stedsnr" v="626890" />
		<tag k="ssr:type" v="elv" />
		<tag k="waterway" v="river" />
	</node>
	<node lat="70.41686392384527" lon="29.516912682500788" id="-103090">
		<tag k="name" v="Transportdalen" />
		<tag k="natural" v="valley" />
		<tag k="place" v="locality" />
		<tag k="ssr:date" v="2019-12-27" />
		<tag k="ssr:gruppe" v="senkninger" />
		<tag k="ssr:hovedgruppe" v="terreng" />
		<tag k="ssr:stedsnr" v="626977" />
		<tag k="ssr:type" v="dal" />
	</node>
	<node lat="70.32027226663858" lon="30.0890623415728" id="-103091">
		<tag k="name" v="Hestdalen" />
		<tag k="natural" v="valley" />
		<tag k="place" v="locality" />
		<tag k="ssr:date" v="2019-12-27" />
		<tag k="ssr:gruppe" v="senkninger" />
		<tag k="ssr:hovedgruppe" v="terreng" />
		<tag k="ssr:stedsnr" v="626940" />
		<tag k="ssr:type" v="dal" />
	</node>
	<node lat="70.67156114000954" lon="29.829482053011336" id="-103092">
		<tag k="alt_name:no" v="Båtsfjord" />
		<tag k="bay" v="fjord" />
		<tag k="name" v="Båtsfjorden" />
		<tag k="name:no" v="Båtsfjorden" />
		<tag k="name:se" v="Báhcavuonna" />
		<tag k="natural" v="bay" />
		<tag k="ssr:date" v="2019-12-27" />
		<tag k="ssr:gruppe" v="farvann" />
		<tag k="ssr:hovedgruppe" v="sjø" />
		<tag k="ssr:stedsnr" v="627112" />
		<tag k="ssr:type" v="fjord" />
	</node>
	<node lat="70.6374805886101" lon="29.6917459938983" id="-103093">
		<tag k="name" v="Melkarn" />
		<tag k="natural" v="hill" />
		<tag k="place" v="locality" />
		<tag k="ssr:date" v="2019-12-27" />
		<tag k="ssr:gruppe" v="høyder" />
		<tag k="ssr:hovedgruppe" v="terreng" />
		<tag k="ssr:stedsnr" v="627476" />
		<tag k="ssr:type" v="haug" />
	</node>
	<node lat="70.43023893981616" lon="30.579184328175693" id="-103097">
		<tag k="fixme" v="consider natural=peak for the most distinct mountains in the district" />
		<tag k="name" v="Seglkollfjellet - Seavlačearru" />
		<tag k="name:no" v="Seglkollfjellet" />
		<tag k="name:se" v="Seavlačearru" />
		<tag k="natural" v="hill" />
		<tag k="old_name:se" v="Sævlačearro" />
		<tag k="place" v="locality" />
		<tag k="ssr:date" v="2019-12-27" />
		<tag k="ssr:gruppe" v="høyder" />
		<tag k="ssr:hovedgruppe" v="terreng" />
		<tag k="ssr:stedsnr" v="632853" />
		<tag k="ssr:type" v="fjell" />
	</node>
	<node lat="70.52490559726182" lon="30.041559668845544" id="-103099">
		<tag k="name" v="Storbukt" />
		<tag k="natural" v="bay" />
		<tag k="ssr:date" v="2019-12-27" />
		<tag k="ssr:gruppe" v="kystkontur" />
		<tag k="ssr:hovedgruppe" v="sjø" />
		<tag k="ssr:stedsnr" v="637455" />
		<tag k="ssr:type" v="vikISjø" />
	</node>
	<node lat="70.61306669635945" lon="29.718120988914592" id="-103100">
		<tag k="name" v="Perelvdalen" />
		<tag k="natural" v="valley" />
		<tag k="place" v="locality" />
		<tag k="ssr:date" v="2019-12-27" />
		<tag k="ssr:gruppe" v="senkninger" />
		<tag k="ssr:hovedgruppe" v="terreng" />
		<tag k="ssr:stedsnr" v="637255" />
		<tag k="ssr:type" v="dal" />
	</node>
	<node lat="70.53256114379178" lon="30.001101370539438" id="-103101">
		<tag k="name" v="Hursielva" />
		<tag k="ssr:date" v="2019-12-27" />
		<tag k="ssr:gruppe" v="rennendeVann" />
		<tag k="ssr:hovedgruppe" v="ferskvann" />
		<tag k="ssr:stedsnr" v="637490" />
		<tag k="ssr:type" v="bekk" />
		<tag k="waterway" v="stream" />
	</node>
	<node lat="70.53910837381545" lon="30.104784641792687" id="-103102">
		<tag k="name" v="Hansemolla" />
		<tag k="natural" v="bay" />
		<tag k="ssr:date" v="2019-12-27" />
		<tag k="ssr:gruppe" v="kystkontur" />
		<tag k="ssr:hovedgruppe" v="sjø" />
		<tag k="ssr:stedsnr" v="637516" />
		<tag k="ssr:type" v="vikISjø" />
	</node>
	<node lat="70.54926115270882" lon="30.12156242073997" id="-103103">
		<tag k="name" v="Nordfjordlandet" />
		<tag k="natural" v="beach" />
		<tag k="ssr:date" v="2019-12-27" />
		<tag k="ssr:gruppe" v="kystkontur" />
		<tag k="ssr:hovedgruppe" v="sjø" />
		<tag k="ssr:stedsnr" v="637517" />
		<tag k="ssr:type" v="strandISjø" />
	</node>
	<node lat="70.52986948364999" lon="30.007054153531975" id="-103104">
		<tag k="name" v="Vesterelvmunningen" />
		<tag k="natural" v="bay" />
		<tag k="ssr:date" v="2019-12-27" />
		<tag k="ssr:gruppe" v="rennendeVann" />
		<tag k="ssr:hovedgruppe" v="ferskvann" />
		<tag k="ssr:stedsnr" v="637545" />
		<tag k="ssr:type" v="os" />
	</node>
	<node lat="70.65033059106626" lon="29.882751466883672" id="-103105">
		<tag k="fixme" v="consider natural=peak for the most distinct mountains in the district" />
		<tag k="name" v="Raudberghøgda" />
		<tag k="natural" v="hill" />
		<tag k="place" v="locality" />
		<tag k="ssr:date" v="2019-12-27" />
		<tag k="ssr:gruppe" v="høyder" />
		<tag k="ssr:hovedgruppe" v="terreng" />
		<tag k="ssr:stedsnr" v="661066" />
		<tag k="ssr:type" v="fjell" />
	</node>
	<node lat="70.54760560016801" lon="30.35392063025477" id="-103106">
		<tag k="fixme" v="consider tourism=alpine_hut or tourism=chalet" />
		<tag k="name" v="Indre Syltevik" />
		<tag k="ssr:date" v="2019-12-27" />
		<tag k="ssr:gruppe" v="næring" />
		<tag k="ssr:hovedgruppe" v="bebyggelse" />
		<tag k="ssr:stedsnr" v="666893" />
		<tag k="ssr:type" v="turisthytte" />
		<tag k="tourism" v="wilderness_hut" />
	</node>
	<node lat="70.56046114670889" lon="30.111417979071526" id="-103107">
		<tag k="fixme" v="consider natural=peak for the most distinct mountains in the district" />
		<tag k="name" v="Syltefjordhøgda" />
		<tag k="natural" v="hill" />
		<tag k="place" v="locality" />
		<tag k="ssr:date" v="2019-12-27" />
		<tag k="ssr:gruppe" v="høyder" />
		<tag k="ssr:hovedgruppe" v="terreng" />
		<tag k="ssr:stedsnr" v="722093" />
		<tag k="ssr:type" v="fjell" />
	</node>
	<node lat="70.55665003353822" lon="29.537090493577523" id="-103108">
		<tag k="name" v="Raudsandvatna" />
		<tag k="natural" v="water" />
		<tag k="ssr:date" v="2019-12-27" />
		<tag k="ssr:gruppe" v="stilleståendeVann" />
		<tag k="ssr:hovedgruppe" v="ferskvann" />
		<tag k="ssr:stedsnr" v="748448" />
		<tag k="ssr:type" v="vann" />
		<tag k="water" v="lake" />
	</node>
	<node lat="70.56340836628108" lon="29.745995961773794" id="-103109">
		<tag k="name" v="Námmejohka" />
		<tag k="name:se" v="Námmejohka" />
		<tag k="old_name:se" v="Nammejåkka" />
		<tag k="ssr:date" v="2019-12-27" />
		<tag k="ssr:gruppe" v="rennendeVann" />
		<tag k="ssr:hovedgruppe" v="ferskvann" />
		<tag k="ssr:stedsnr" v="748450" />
		<tag k="ssr:type" v="bekk" />
		<tag k="waterway" v="stream" />
	</node>
	<node lat="70.52284170640343" lon="30.055451334921774" id="-103111">
		<tag k="name" v="Jonnejohka" />
		<tag k="name:no" v="Jonjok" />
		<tag k="name:se" v="Jonnejohka" />
		<tag k="old_name:se" v="Jånnejåkka" />
		<tag k="place" v="locality" />
		<tag k="ssr:date" v="2021-06-08" />
		<tag k="ssr:gruppe" v="bolighus" />
		<tag k="ssr:hovedgruppe" v="bebyggelse" />
		<tag k="ssr:stedsnr" v="748021" />
		<tag k="ssr:type" v="gammelBosettingsplass" />
	</node>
	<node lat="70.57216393101935" lon="30.24218182222676" id="-103112">
		<tag k="name" v="Ytre Syltefjord" />
		<tag k="old_name" v="Syltefjord, ytre" />
		<tag k="place" v="locality" />
		<tag k="ssr:date" v="2019-12-27" />
		<tag k="ssr:gruppe" v="bolighus" />
		<tag k="ssr:hovedgruppe" v="bebyggelse" />
		<tag k="ssr:stedsnr" v="748037" />
		<tag k="ssr:type" v="gammelBosettingsplass" />
	</node>
	<node lat="70.54555837330274" lon="30.029556923766894" id="-103113">
		<tag k="name" v="Gardijåkkmyrene - Gárdojohjeaggi" />
		<tag k="name:no" v="Gardijåkkmyrene" />
		<tag k="name:se" v="Gárdojohjeaggi" />
		<tag k="natural" v="wetland" />
		<tag k="old_name:se" v="Gardujåkjæggi" />
		<tag k="ssr:date" v="2019-12-27" />
		<tag k="ssr:gruppe" v="våtmark" />
		<tag k="ssr:hovedgruppe" v="markslag" />
		<tag k="ssr:stedsnr" v="748054" />
		<tag k="ssr:type" v="myr" />
	</node>
	<node lat="70.52923893120209" lon="30.58100937031029" id="-103114">
		<tag k="name" v="Vatnan" />
		<tag k="natural" v="water" />
		<tag k="ssr:date" v="2019-12-27" />
		<tag k="ssr:gruppe" v="stilleståendeVann" />
		<tag k="ssr:hovedgruppe" v="ferskvann" />
		<tag k="ssr:stedsnr" v="748001" />
		<tag k="ssr:type" v="tjern" />
	</node>
	<node lat="70.63174725787957" lon="29.894015359543516" id="-103115">
		<tag k="name" v="Skovikhøgda" />
		<tag k="natural" v="hill" />
		<tag k="place" v="locality" />
		<tag k="ssr:date" v="2019-12-27" />
		<tag k="ssr:gruppe" v="høyder" />
		<tag k="ssr:hovedgruppe" v="terreng" />
		<tag k="ssr:stedsnr" v="748460" />
		<tag k="ssr:type" v="haug" />
	</node>
	<node lat="70.69550558671773" lon="29.90700426647955" id="-103116">
		<tag k="name" v="Skarberggrunnen" />
		<tag k="natural" v="shoal" />
		<tag k="place" v="locality" />
		<tag k="ssr:date" v="2019-12-27" />
		<tag k="ssr:gruppe" v="grunnerISjø" />
		<tag k="ssr:hovedgruppe" v="sjø" />
		<tag k="ssr:stedsnr" v="753448" />
		<tag k="ssr:type" v="grunneISjø" />
	</node>
	<node lat="70.48344448713381" lon="29.97678747539626" id="-103117">
		<tag k="alt_name:se" v="Stuoragáisa;Gáisá" />
		<tag k="fixme" v="consider natural=peak for the most distinct mountains in the district" />
		<tag k="name" v="Steinfjellet - Suologáisá" />
		<tag k="name:no" v="Steinfjellet" />
		<tag k="name:se" v="Suologáisá" />
		<tag k="natural" v="hill" />
		<tag k="old_name:se" v="Suolugaisa" />
		<tag k="place" v="locality" />
		<tag k="ssr:date" v="2019-12-27" />
		<tag k="ssr:gruppe" v="høyder" />
		<tag k="ssr:hovedgruppe" v="terreng" />
		<tag k="ssr:stedsnr" v="753977" />
		<tag k="ssr:type" v="fjell" />
	</node>
	<node lat="70.5300972567011" lon="30.040831894650342" id="-103118">
		<tag k="alt_name" v="Gollaholmen" />
		<tag k="name" v="Holmen" />
		<tag k="place" v="islet" />
		<tag k="ssr:date" v="2019-12-27" />
		<tag k="ssr:gruppe" v="kystkontur" />
		<tag k="ssr:hovedgruppe" v="sjø" />
		<tag k="ssr:stedsnr" v="754590" />
		<tag k="ssr:type" v="holmeISjø" />
	</node>
	<node lat="70.5465555974955" lon="30.583934374671976" id="-103119">
		<tag k="fixme" v="consider seamark:type=rock or natural=shoal" />
		<tag k="name" v="Småskjæret" />
		<tag k="place" v="islet" />
		<tag k="ssr:date" v="2019-12-27" />
		<tag k="ssr:gruppe" v="grunnerISjø" />
		<tag k="ssr:hovedgruppe" v="sjø" />
		<tag k="ssr:stedsnr" v="754987" />
		<tag k="ssr:type" v="skjærISjø" />
	</node>
	<node lat="70.31401670900873" lon="30.06454569103607" id="-103120">
		<tag k="name" v="Bajit Suovka" />
		<tag k="name:se" v="Bajit Suovka" />
		<tag k="old_name:se" v="Suovka, bajit" />
		<tag k="place" v="locality" />
		<tag k="ssr:date" v="2019-12-27" />
		<tag k="ssr:gruppe" v="vegetasjon" />
		<tag k="ssr:hovedgruppe" v="markslag" />
		<tag k="ssr:stedsnr" v="808924" />
		<tag k="ssr:type" v="skog" />
	</node>
	<node lat="70.36149170905071" lon="30.212703960579" id="-103121">
		<tag k="fixme" v="consider natural=peak for the most distinct mountains in the district" />
		<tag k="name" v="Suoidnelábbát" />
		<tag k="name:se" v="Suoidnelábbát" />
		<tag k="natural" v="hill" />
		<tag k="old_name:se" v="Suoidnelabbat" />
		<tag k="place" v="locality" />
		<tag k="ssr:date" v="2019-12-27" />
		<tag k="ssr:gruppe" v="høyder" />
		<tag k="ssr:hovedgruppe" v="terreng" />
		<tag k="ssr:stedsnr" v="808931" />
		<tag k="ssr:type" v="fjell" />
	</node>
	<node lat="70.44109171349567" lon="30.55843432900217" id="-103122">
		<tag k="name" v="Skierroleakši" />
		<tag k="name:se" v="Skierroleakši" />
		<tag k="natural" v="wetland" />
		<tag k="old_name:se" v="Skierulæksi" />
		<tag k="ssr:date" v="2019-12-27" />
		<tag k="ssr:gruppe" v="våtmark" />
		<tag k="ssr:hovedgruppe" v="markslag" />
		<tag k="ssr:stedsnr" v="808876" />
		<tag k="ssr:type" v="myr" />
	</node>
	<node lat="70.53052504132378" lon="30.3732206061656" id="-103123">
		<tag k="name" v="Gárjohka" />
		<tag k="name:se" v="Gárjohka" />
		<tag k="old_name:se" v="Garjåkka" />
		<tag k="ssr:date" v="2019-12-27" />
		<tag k="ssr:gruppe" v="rennendeVann" />
		<tag k="ssr:hovedgruppe" v="ferskvann" />
		<tag k="ssr:stedsnr" v="809012" />
		<tag k="ssr:type" v="bekk" />
		<tag k="waterway" v="stream" />
	</node>
	<node lat="70.70383059084104" lon="30.034409766955196" id="-103124">
		<tag k="name" v="Litlevatnet" />
		<tag k="natural" v="water" />
		<tag k="ssr:date" v="2019-12-27" />
		<tag k="ssr:gruppe" v="stilleståendeVann" />
		<tag k="ssr:hovedgruppe" v="ferskvann" />
		<tag k="ssr:stedsnr" v="809048" />
		<tag k="ssr:type" v="tjern" />
	</node>
	<node lat="70.54527504233405" lon="30.366326183676684" id="-103125">
		<tag k="fixme" v="consider natural=peak for the most distinct mountains in the district" />
		<tag k="name" v="Munken" />
		<tag k="natural" v="hill" />
		<tag k="place" v="locality" />
		<tag k="ssr:date" v="2019-12-27" />
		<tag k="ssr:gruppe" v="høyder" />
		<tag k="ssr:hovedgruppe" v="terreng" />
		<tag k="ssr:stedsnr" v="809065" />
		<tag k="ssr:type" v="ås" />
	</node>
	<node lat="70.54840560125014" lon="30.506853868563173" id="-103126">
		<tag k="name" v="Gamvikneset" />
		<tag k="natural" v="cape" />
		<tag k="ssr:date" v="2019-12-27" />
		<tag k="ssr:gruppe" v="kystkontur" />
		<tag k="ssr:hovedgruppe" v="sjø" />
		<tag k="ssr:stedsnr" v="809071" />
		<tag k="ssr:type" v="nesISjø" />
	</node>
	<node lat="70.47325003485632" lon="29.70229871854936" id="-103127">
		<tag k="name" v="Skogåsdalen" />
		<tag k="natural" v="valley" />
		<tag k="place" v="locality" />
		<tag k="ssr:date" v="2019-12-27" />
		<tag k="ssr:gruppe" v="senkninger" />
		<tag k="ssr:hovedgruppe" v="terreng" />
		<tag k="ssr:stedsnr" v="809985" />
		<tag k="ssr:type" v="dal" />
	</node>
	<node lat="70.49750837195224" lon="29.791920908165316" id="-103128">
		<tag k="fixme" v="multiple name:no tags, choose one and add the other to alt_name:no" />
		<tag k="name" v="Oarddojohka" />
		<tag k="name:fkv" v="Ortojoki" />
		<tag k="name:no" v="Syltefjordelva;Vesterelva" />
		<tag k="name:se" v="Oarddojohka" />
		<tag k="old_name:se" v="Oardujåkka" />
		<tag k="ssr:date" v="2020-02-27" />
		<tag k="ssr:gruppe" v="rennendeVann" />
		<tag k="ssr:hovedgruppe" v="ferskvann" />
		<tag k="ssr:stedsnr" v="809990" />
		<tag k="ssr:type" v="elv" />
		<tag k="waterway" v="river" />
	</node>
	<node lat="70.50246670137838" lon="29.35149888665458" id="-103129">
		<tag k="name" v="Delinga" />
		<tag k="place" v="isolated_dwelling" />
		<tag k="ssr:date" v="2019-12-27" />
		<tag k="ssr:gruppe" v="bolighus" />
		<tag k="ssr:hovedgruppe" v="bebyggelse" />
		<tag k="ssr:stedsnr" v="809521" />
		<tag k="ssr:type" v="fritidsbolig" />
	</node>
	<node lat="70.51976392750693" lon="29.69399873103047" id="-103130">
		<tag k="name" v="Skogdalen" />
		<tag k="natural" v="valley" />
		<tag k="place" v="locality" />
		<tag k="ssr:date" v="2019-12-27" />
		<tag k="ssr:gruppe" v="senkninger" />
		<tag k="ssr:hovedgruppe" v="terreng" />
		<tag k="ssr:stedsnr" v="809473" />
		<tag k="ssr:type" v="dal" />
	</node>
	<node lat="70.47260836095046" lon="29.33842388638178" id="-103132">
		<tag k="name" v="Rávdol" />
		<tag k="name:se" v="Rávdol" />
		<tag k="old_name:se" v="Ravdul" />
		<tag k="ssr:date" v="2019-12-27" />
		<tag k="ssr:gruppe" v="rennendeVann" />
		<tag k="ssr:hovedgruppe" v="ferskvann" />
		<tag k="ssr:stedsnr" v="809952" />
		<tag k="ssr:type" v="elv" />
		<tag k="waterway" v="river" />
	</node>
	<node lat="70.71251947689923" lon="30.04214587426931" id="-103133">
		<tag k="name" v="Lankonbåen" />
		<tag k="place" v="locality" />
		<tag k="seamark:type" v="rock" />
		<tag k="ssr:date" v="2019-12-27" />
		<tag k="ssr:gruppe" v="grunnerISjø" />
		<tag k="ssr:hovedgruppe" v="sjø" />
		<tag k="ssr:stedsnr" v="814544" />
		<tag k="ssr:type" v="båeISjø" />
	</node>
	<node lat="70.54831948472761" lon="30.061779119574314" id="-103134">
		<tag k="alt_name" v="Kattugleelva" />
		<tag k="name" v="Nordfjordelva" />
		<tag k="ssr:date" v="2019-12-27" />
		<tag k="ssr:gruppe" v="rennendeVann" />
		<tag k="ssr:hovedgruppe" v="ferskvann" />
		<tag k="ssr:stedsnr" v="815550" />
		<tag k="ssr:type" v="elv" />
		<tag k="waterway" v="river" />
	</node>
	<node lat="70.64043058697159" lon="29.743809860621628" id="-103135">
		<tag k="name" v="Bjørnenakkbukta" />
		<tag k="natural" v="bay" />
		<tag k="ssr:date" v="2019-12-27" />
		<tag k="ssr:gruppe" v="kystkontur" />
		<tag k="ssr:hovedgruppe" v="sjø" />
		<tag k="ssr:stedsnr" v="819385" />
		<tag k="ssr:type" v="vikISjø" />
	</node>
	<node lat="70.62133336447009" lon="29.672993235368235" id="-103136">
		<tag k="fixme" v="consider natural=peak for the most distinct mountains in the district" />
		<tag k="name" v="Marifjell" />
		<tag k="natural" v="hill" />
		<tag k="place" v="locality" />
		<tag k="ssr:date" v="2019-12-27" />
		<tag k="ssr:gruppe" v="høyder" />
		<tag k="ssr:hovedgruppe" v="terreng" />
		<tag k="ssr:stedsnr" v="819344" />
		<tag k="ssr:type" v="fjell" />
	</node>
	<node lat="70.63198336256397" lon="29.822434833616253" id="-103137">
		<tag k="name" v="Prestelvhøgda" />
		<tag k="natural" v="hill" />
		<tag k="place" v="locality" />
		<tag k="ssr:date" v="2019-12-27" />
		<tag k="ssr:gruppe" v="høyder" />
		<tag k="ssr:hovedgruppe" v="terreng" />
		<tag k="ssr:stedsnr" v="819416" />
		<tag k="ssr:type" v="høyde" />
	</node>
	<node lat="70.53528337528738" lon="30.111170751345337" id="-103138">
		<tag k="name" v="Brattlia" />
		<tag k="natural" v="slope" />
		<tag k="place" v="locality" />
		<tag k="ssr:date" v="2019-12-27" />
		<tag k="ssr:gruppe" v="skråninger" />
		<tag k="ssr:hovedgruppe" v="terreng" />
		<tag k="ssr:stedsnr" v="820479" />
		<tag k="ssr:type" v="li" />
	</node>
	<node lat="70.61870003838602" lon="30.224523519704015" id="-103139">
		<tag k="name" v="Stormolldalen" />
		<tag k="natural" v="valley" />
		<tag k="place" v="locality" />
		<tag k="ssr:date" v="2019-12-27" />
		<tag k="ssr:gruppe" v="senkninger" />
		<tag k="ssr:hovedgruppe" v="terreng" />
		<tag k="ssr:stedsnr" v="869038" />
		<tag k="ssr:type" v="dal" />
	</node>
	<node lat="70.57112781569765" lon="30.04466248723103" id="-103140">
		<tag k="name" v="Nordfjordhøgda" />
		<tag k="natural" v="hill" />
		<tag k="place" v="locality" />
		<tag k="ssr:date" v="2019-12-27" />
		<tag k="ssr:gruppe" v="høyder" />
		<tag k="ssr:hovedgruppe" v="terreng" />
		<tag k="ssr:stedsnr" v="869043" />
		<tag k="ssr:type" v="haug" />
	</node>
	<node lat="70.51142780738728" lon="29.678257076027872" id="-103141">
		<tag k="loc_name:se" v="Oardu" />
		<tag k="name" v="Syltefjorddalen" />
		<tag k="name:no" v="Syltefjorddalen" />
		<tag k="natural" v="valley" />
		<tag k="place" v="locality" />
		<tag k="ssr:date" v="2020-10-28" />
		<tag k="ssr:gruppe" v="senkninger" />
		<tag k="ssr:hovedgruppe" v="terreng" />
		<tag k="ssr:stedsnr" v="869490" />
		<tag k="ssr:type" v="dal" />
	</node>
	<node lat="70.61005003290164" lon="29.697257096743535" id="-103142">
		<tag k="alt_name" v="Strømsnesaksla" />
		<tag k="name" v="Straumsnesaksla" />
		<tag k="natural" v="hill" />
		<tag k="place" v="locality" />
		<tag k="ssr:date" v="2019-12-27" />
		<tag k="ssr:gruppe" v="høyder" />
		<tag k="ssr:hovedgruppe" v="terreng" />
		<tag k="ssr:stedsnr" v="869501" />
		<tag k="ssr:type" v="haug" />
	</node>
	<node lat="70.6550667005598" lon="30.094748599961438" id="-103143">
		<tag k="name" v="Kollvatnet" />
		<tag k="natural" v="water" />
		<tag k="ssr:date" v="2019-12-27" />
		<tag k="ssr:gruppe" v="stilleståendeVann" />
		<tag k="ssr:hovedgruppe" v="ferskvann" />
		<tag k="ssr:stedsnr" v="869046" />
		<tag k="ssr:type" v="tjern" />
	</node>
	<node lat="70.69701114633537" lon="30.105509721400093" id="-103144">
		<tag k="name" v="Molvika" />
		<tag k="natural" v="bay" />
		<tag k="ssr:date" v="2019-12-27" />
		<tag k="ssr:gruppe" v="kystkontur" />
		<tag k="ssr:hovedgruppe" v="sjø" />
		<tag k="ssr:stedsnr" v="869051" />
		<tag k="ssr:type" v="vikISjø" />
	</node>
	<node lat="70.54193337100023" lon="30.032568021777376" id="-103145">
		<tag k="name" v="Torvatnet" />
		<tag k="natural" v="water" />
		<tag k="ssr:date" v="2019-12-27" />
		<tag k="ssr:gruppe" v="stilleståendeVann" />
		<tag k="ssr:hovedgruppe" v="ferskvann" />
		<tag k="ssr:stedsnr" v="869061" />
		<tag k="ssr:type" v="tjern" />
	</node>
	<node lat="70.39846948438276" lon="30.283745603231225" id="-103146">
		<tag k="name" v="Juovkkaidjohka" />
		<tag k="name:se" v="Juovkkaidjohka" />
		<tag k="old_name:se" v="Juovkaidjåkka" />
		<tag k="ssr:date" v="2019-12-27" />
		<tag k="ssr:gruppe" v="rennendeVann" />
		<tag k="ssr:hovedgruppe" v="ferskvann" />
		<tag k="ssr:stedsnr" v="869888" />
		<tag k="ssr:type" v="bekk" />
		<tag k="waterway" v="stream" />
	</node>
	<node lat="70.44742503458099" lon="29.31548222047598" id="-103147">
		<tag k="fixme" v="consider natural=peak for the most distinct mountains in the district" />
		<tag k="name" v="Rávdolčohkka" />
		<tag k="name:se" v="Rávdolčohkka" />
		<tag k="natural" v="hill" />
		<tag k="old_name:se" v="Ravdulčåkka" />
		<tag k="place" v="locality" />
		<tag k="ssr:date" v="2019-12-27" />
		<tag k="ssr:gruppe" v="høyder" />
		<tag k="ssr:hovedgruppe" v="terreng" />
		<tag k="ssr:stedsnr" v="869947" />
		<tag k="ssr:type" v="ås" />
	</node>
	<node lat="70.54430714975086" lon="30.63038719083133" id="-103149">
		<tag k="name" v="Støvlenakken" />
		<tag k="natural" v="cape" />
		<tag k="ssr:date" v="2020-09-17" />
		<tag k="ssr:gruppe" v="kystkontur" />
		<tag k="ssr:hovedgruppe" v="sjø" />
		<tag k="ssr:stedsnr" v="870009" />
		<tag k="ssr:type" v="nesISjø" />
	</node>
	<node lat="70.53720838155694" lon="30.556798282451446" id="-103150">
		<tag k="fixme" v="consider natural=peak for the most distinct mountains in the district" />
		<tag k="name" v="Ovnen" />
		<tag k="natural" v="hill" />
		<tag k="place" v="locality" />
		<tag k="ssr:date" v="2019-12-27" />
		<tag k="ssr:gruppe" v="høyder" />
		<tag k="ssr:hovedgruppe" v="terreng" />
		<tag k="ssr:stedsnr" v="870013" />
		<tag k="ssr:type" v="ås" />
	</node>
	<node lat="70.47233892981066" lon="30.23359011529853" id="-103151">
		<tag k="fixme" v="consider natural=peak for the most distinct mountains in the district" />
		<tag k="name" v="Skádjačearru" />
		<tag k="name:no" v="Øver-Tavla" />
		<tag k="name:se" v="Skádjačearru" />
		<tag k="natural" v="hill" />
		<tag k="old_name:se" v="Skaddjačærro;Skadjačearru" />
		<tag k="place" v="locality" />
		<tag k="ssr:date" v="2021-06-08" />
		<tag k="ssr:gruppe" v="høyder" />
		<tag k="ssr:hovedgruppe" v="terreng" />
		<tag k="ssr:stedsnr" v="870884" />
		<tag k="ssr:type" v="fjell" />
	</node>
	<node lat="70.47970559609644" lon="30.14346236828745" id="-103152">
		<tag k="name" v="Austerdalen" />
		<tag k="natural" v="valley" />
		<tag k="place" v="locality" />
		<tag k="ssr:date" v="2019-12-27" />
		<tag k="ssr:gruppe" v="senkninger" />
		<tag k="ssr:hovedgruppe" v="terreng" />
		<tag k="ssr:stedsnr" v="870894" />
		<tag k="ssr:type" v="dal" />
	</node>
	<node lat="70.367100268992" lon="29.766804946340628" id="-103153">
		<tag k="fixme" v="consider tourism=alpine_hut or tourism=chalet" />
		<tag k="name" v="Ragnarokk" />
		<tag k="ssr:date" v="2019-12-27" />
		<tag k="ssr:gruppe" v="næring" />
		<tag k="ssr:hovedgruppe" v="bebyggelse" />
		<tag k="ssr:stedsnr" v="870897" />
		<tag k="ssr:type" v="turisthytte" />
		<tag k="tourism" v="wilderness_hut" />
	</node>
	<node lat="70.32063893055505" lon="29.899751322884153" id="-103154">
		<tag k="name" v="Guovžagurra" />
		<tag k="name:no" v="Bjørnskaret" />
		<tag k="name:se" v="Guovžagurra" />
		<tag k="natural" v="valley" />
		<tag k="place" v="locality" />
		<tag k="ssr:date" v="2019-12-27" />
		<tag k="ssr:gruppe" v="senkninger" />
		<tag k="ssr:hovedgruppe" v="terreng" />
		<tag k="ssr:stedsnr" v="870901" />
		<tag k="ssr:type" v="skar" />
	</node>
	<node lat="70.39830003699464" lon="29.57062930971487" id="-103155">
		<tag k="fixme" v="consider tourism=alpine_hut or tourism=chalet" />
		<tag k="name" v="Heimdal" />
		<tag k="ssr:date" v="2019-12-27" />
		<tag k="ssr:gruppe" v="næring" />
		<tag k="ssr:hovedgruppe" v="bebyggelse" />
		<tag k="ssr:stedsnr" v="870970" />
		<tag k="ssr:type" v="turisthytte" />
		<tag k="tourism" v="wilderness_hut" />
	</node>
	<node lat="70.42869725682317" lon="29.69485981078742" id="-103156">
		<tag k="name" v="Suoloskáidi" />
		<tag k="name:se" v="Suoloskáidi" />
		<tag k="natural" v="cape" />
		<tag k="old_name:se" v="Suoluskaidi" />
		<tag k="ssr:date" v="2019-12-27" />
		<tag k="ssr:gruppe" v="rennendeVann" />
		<tag k="ssr:hovedgruppe" v="ferskvann" />
		<tag k="ssr:stedsnr" v="870977" />
		<tag k="ssr:type" v="nesVedElver" />
	</node>
	<node lat="70.62679725395385" lon="29.70177934257936" id="-103159">
		<tag k="alt_name" v="Indre Havn" />
		<tag k="name" v="Neptunbukta" />
		<tag k="natural" v="bay" />
		<tag k="ssr:date" v="2019-12-27" />
		<tag k="ssr:gruppe" v="kystkontur" />
		<tag k="ssr:hovedgruppe" v="sjø" />
		<tag k="ssr:stedsnr" v="875511" />
		<tag k="ssr:type" v="vikISjø" />
	</node>
	<node lat="70.58678892492055" lon="30.3101401203955" id="-103160">
		<tag k="name" v="Ytre Bukta" />
		<tag k="natural" v="bay" />
		<tag k="ssr:date" v="2019-12-27" />
		<tag k="ssr:gruppe" v="kystkontur" />
		<tag k="ssr:hovedgruppe" v="sjø" />
		<tag k="ssr:stedsnr" v="875517" />
		<tag k="ssr:type" v="vikISjø" />
	</node>
	<node lat="70.32770837447042" lon="29.734423640963456" id="-103161">
		<tag k="fixme" v="consider natural=peak for the most distinct mountains in the district" />
		<tag k="name" v="Kjøltindan" />
		<tag k="natural" v="hill" />
		<tag k="place" v="locality" />
		<tag k="ssr:date" v="2019-12-27" />
		<tag k="ssr:gruppe" v="høyder" />
		<tag k="ssr:hovedgruppe" v="terreng" />
		<tag k="ssr:stedsnr" v="875770" />
		<tag k="ssr:type" v="fjell" />
	</node>
	<node lat="70.33912226493142" lon="30.180203968128772" id="-103162">
		<tag k="fixme" v="consider natural=peak for the most distinct mountains in the district" />
		<tag k="name" v="Ryggfjellet - Eartnjoaivi" />
		<tag k="name:fkv" v="Kivitunturi" />
		<tag k="name:no" v="Ryggfjellet" />
		<tag k="name:se" v="Eartnjoaivi" />
		<tag k="natural" v="hill" />
		<tag k="old_name:se" v="Ærdnjoaivi" />
		<tag k="place" v="locality" />
		<tag k="ssr:date" v="2021-06-08" />
		<tag k="ssr:gruppe" v="høyder" />
		<tag k="ssr:hovedgruppe" v="terreng" />
		<tag k="ssr:stedsnr" v="875928" />
		<tag k="ssr:type" v="fjell" />
	</node>
	<node lat="70.54138337767466" lon="30.613084358388264" id="-103163">
		<tag k="amenity" v="place_of_worship" />
		<tag k="denomination" v="lutheran" />
		<tag k="name" v="Hamningberg kapell" />
		<tag k="religion" v="christian" />
		<tag k="ssr:date" v="2021-11-19" />
		<tag k="ssr:gruppe" v="kulturinstitusjoner" />
		<tag k="ssr:hovedgruppe" v="kultur" />
		<tag k="ssr:stedsnr" v="879841" />
		<tag k="ssr:type" v="kirke" />
	</node>
	<node lat="70.51038058762975" lon="29.854584774210046" id="-103164">
		<tag k="name" v="Johandalen" />
		<tag k="natural" v="valley" />
		<tag k="place" v="locality" />
		<tag k="ssr:date" v="2019-12-27" />
		<tag k="ssr:gruppe" v="senkninger" />
		<tag k="ssr:hovedgruppe" v="terreng" />
		<tag k="ssr:stedsnr" v="880374" />
		<tag k="ssr:type" v="dal" />
	</node>
	<node lat="70.6437722548712" lon="29.7407404453295" id="-103165">
		<tag k="name" v="Nordskogen" />
		<tag k="place" v="quarter" />
		<tag k="ssr:date" v="2019-12-27" />
		<tag k="ssr:gruppe" v="bebyggelsesområder" />
		<tag k="ssr:hovedgruppe" v="bebyggelse" />
		<tag k="ssr:stedsnr" v="939777" />
		<tag k="ssr:type" v="boligfelt" />
	</node>
	<node lat="70.54259726039453" lon="30.042284682753248" id="-103166">
		<tag k="name" v="Nordfjordeidet" />
		<tag k="place" v="locality" />
		<tag k="ssr:date" v="2019-12-27" />
		<tag k="ssr:gruppe" v="ferskvannskontur" />
		<tag k="ssr:hovedgruppe" v="ferskvann" />
		<tag k="ssr:stedsnr" v="939924" />
		<tag k="ssr:type" v="eid" />
	</node>
	<node lat="70.64683614278074" lon="29.662040478987617" id="-103167">
		<tag k="name" v="Skolelvgrenan" />
		<tag k="natural" v="slope" />
		<tag k="place" v="locality" />
		<tag k="ssr:date" v="2019-12-27" />
		<tag k="ssr:gruppe" v="skråninger" />
		<tag k="ssr:hovedgruppe" v="terreng" />
		<tag k="ssr:stedsnr" v="941336" />
		<tag k="ssr:type" v="li" />
	</node>
	<node lat="70.61865836754986" lon="29.698354339630992" id="-103169">
		<tag k="name" v="Solheim" />
		<tag k="place" v="locality" />
		<tag k="ssr:date" v="2019-12-27" />
		<tag k="ssr:gruppe" v="gardsbebyggelse" />
		<tag k="ssr:hovedgruppe" v="bebyggelse" />
		<tag k="ssr:stedsnr" v="941342" />
		<tag k="ssr:type" v="eiendom" />
	</node>
	<node lat="70.64348058295721" lon="29.746876545288806" id="-103170">
		<tag k="name" v="Ursinbukta" />
		<tag k="natural" v="bay" />
		<tag k="ssr:date" v="2019-12-27" />
		<tag k="ssr:gruppe" v="kystkontur" />
		<tag k="ssr:hovedgruppe" v="sjø" />
		<tag k="ssr:stedsnr" v="941349" />
		<tag k="ssr:type" v="vikISjø" />
	</node>
	<node lat="70.53287503703812" lon="30.06738466747749" id="-103171">
		<tag k="name" v="Hamna" />
		<tag k="place" v="locality" />
		<tag k="ssr:date" v="2019-12-27" />
		<tag k="ssr:gruppe" v="bolighus" />
		<tag k="ssr:hovedgruppe" v="bebyggelse" />
		<tag k="ssr:stedsnr" v="941486" />
		<tag k="ssr:type" v="gammelBosettingsplass" />
	</node>
	<node lat="70.53273993539923" lon="30.004817013855888" id="-103173">
		<tag k="name" v="Vesterelva " />
		<tag k="place" v="hamlet" />
		<tag k="ssr:date" v="2019-12-27" />
		<tag k="ssr:gruppe" v="bebyggelsesområder" />
		<tag k="ssr:hovedgruppe" v="bebyggelse" />
		<tag k="ssr:stedsnr" v="989591" />
		<tag k="ssr:type" v="grend" />
	</node>
</osm>
