<?xml version="1.0" encoding="UTF-8"?>
<osm version="0.6" generator="osmapis">
	<node lat="70.76805558815487" lon="29.99999869247043" id="-102200">
		<tag k="name" v="Korsnesbakken" />
		<tag k="ssr:date" v="2019-12-27" />
		<tag k="ssr:gruppe" v="verne-OgBruksområder" />
		<tag k="ssr:hovedgruppe" v="offentligAdministrasjon" />
		<tag k="ssr:stedsnr" v="145427" />
		<tag k="ssr:type" v="soneinndelingTilHavs" />
	</node>
	<node lat="70.76805558625578" lon="30.116665302055136" id="-102217">
		<tag k="name" v="Storgrunnsbakken" />
		<tag k="ssr:date" v="2019-12-27" />
		<tag k="ssr:gruppe" v="verne-OgBruksområder" />
		<tag k="ssr:hovedgruppe" v="offentligAdministrasjon" />
		<tag k="ssr:stedsnr" v="449262" />
		<tag k="ssr:type" v="soneinndelingTilHavs" />
	</node>
	<node lat="70.63666121962028" lon="29.7247869074722" id="-102250">
		<tag k="name" v="Havnegata" />
		<tag k="ssr:date" v="2019-12-27" />
		<tag k="ssr:gruppe" v="veg" />
		<tag k="ssr:hovedgruppe" v="infrastruktur" />
		<tag k="ssr:stedsnr" v="394336" />
		<tag k="ssr:type" v="adressenavn" />
	</node>
	<node lat="70.7067493094199" lon="30.077693441414088" id="-102274">
		<tag k="name" v="Makkaur" />
		<tag k="old_name" v="Makkaur fyr" />
		<tag k="ssr:date" v="2020-09-01" />
		<tag k="ssr:gruppe" v="navigasjon" />
		<tag k="ssr:hovedgruppe" v="infrastruktur" />
		<tag k="ssr:stedsnr" v="687034" />
		<tag k="ssr:type" v="fyrstasjon" />
	</node>
	<node lat="70.65713248283204" lon="29.789574034601273" id="-102315">
		<tag k="name" v="Skrovneset" />
		<tag k="ssr:date" v="2020-09-17" />
		<tag k="ssr:gruppe" v="navigasjon" />
		<tag k="ssr:hovedgruppe" v="infrastruktur" />
		<tag k="ssr:stedsnr" v="627497" />
		<tag k="ssr:type" v="fyrlykt" />
	</node>
	<node lat="70.53251068182482" lon="30.146387127993798" id="-102338">
		<tag k="name" v="Syltefjord" />
		<tag k="ssr:date" v="2021-01-05" />
		<tag k="ssr:gruppe" v="navigasjon" />
		<tag k="ssr:hovedgruppe" v="infrastruktur" />
		<tag k="ssr:stedsnr" v="816378" />
		<tag k="ssr:type" v="fyrlykt" />
	</node>
	<node lat="70.72628077672292" lon="29.800677071455624" id="-102377">
		<tag k="name" v="Kolneset" />
		<tag k="ssr:date" v="2021-01-14" />
		<tag k="ssr:gruppe" v="navigasjon" />
		<tag k="ssr:hovedgruppe" v="infrastruktur" />
		<tag k="ssr:stedsnr" v="20465" />
		<tag k="ssr:type" v="fyrlykt" />
	</node>
	<node lat="70.63506947963208" lon="29.720895995532697" id="-102422">
		<tag k="name" v="Båtsfjord kommune" />
		<tag k="ssr:date" v="2019-12-27" />
		<tag k="ssr:gruppe" v="administrativeIndelinger" />
		<tag k="ssr:hovedgruppe" v="offentligAdministrasjon" />
		<tag k="ssr:stedsnr" v="148531" />
		<tag k="ssr:type" v="kommune" />
	</node>
	<node lat="70.61851616605892" lon="29.687992038533498" id="-102423">
		<tag k="name" v="Fjordvegen" />
		<tag k="ssr:date" v="2019-12-27" />
		<tag k="ssr:gruppe" v="veg" />
		<tag k="ssr:hovedgruppe" v="infrastruktur" />
		<tag k="ssr:stedsnr" v="152384" />
		<tag k="ssr:type" v="adressenavn" />
	</node>
	<node lat="70.62923853819962" lon="29.71013351670354" id="-102424">
		<tag k="name" v="Fagervikvegen" />
		<tag k="ssr:date" v="2019-12-27" />
		<tag k="ssr:gruppe" v="veg" />
		<tag k="ssr:hovedgruppe" v="infrastruktur" />
		<tag k="ssr:stedsnr" v="152390" />
		<tag k="ssr:type" v="adressenavn" />
	</node>
	<node lat="70.63840492013088" lon="29.73089687713099" id="-102449">
		<tag k="name" v="Nordskogvegen" />
		<tag k="ssr:date" v="2019-12-27" />
		<tag k="ssr:gruppe" v="veg" />
		<tag k="ssr:hovedgruppe" v="infrastruktur" />
		<tag k="ssr:stedsnr" v="273336" />
		<tag k="ssr:type" v="adressenavn" />
	</node>
	<node lat="70.83061391857062" lon="29.925215407350215" id="-102471">
		<tag k="name" v="Leira" />
		<tag k="ssr:date" v="2019-12-27" />
		<tag k="ssr:gruppe" v="sjøbunn" />
		<tag k="ssr:hovedgruppe" v="sjø" />
		<tag k="ssr:stedsnr" v="359619" />
		<tag k="ssr:type" v="havdyp" />
	</node>
	<node lat="70.54479536480515" lon="30.6294498907793" id="-102516">
		<tag k="name" v="Hamningberg" />
		<tag k="ssr:date" v="2021-06-08" />
		<tag k="ssr:gruppe" v="navigasjon" />
		<tag k="ssr:hovedgruppe" v="infrastruktur" />
		<tag k="ssr:stedsnr" v="512390" />
		<tag k="ssr:type" v="fyrlykt" />
	</node>
	<node lat="70.63444998764834" lon="29.717880763253227" id="-102522">
		<tag k="name" v="Hindberggata" />
		<tag k="ssr:date" v="2019-12-27" />
		<tag k="ssr:gruppe" v="veg" />
		<tag k="ssr:hovedgruppe" v="infrastruktur" />
		<tag k="ssr:stedsnr" v="516322" />
		<tag k="ssr:type" v="adressenavn" />
	</node>
	<node lat="70.62980481633396" lon="29.72582228491956" id="-102540">
		<tag k="name" v="Båtsfjord" />
		<tag k="ssr:date" v="2020-09-17" />
		<tag k="ssr:gruppe" v="navigasjon" />
		<tag k="ssr:hovedgruppe" v="infrastruktur" />
		<tag k="ssr:stedsnr" v="571942" />
		<tag k="ssr:type" v="fyrlykt" />
	</node>
	<node lat="70.62971842655337" lon="29.701258069659897" id="-102562">
		<tag k="name" v="Skolegata" />
		<tag k="ssr:date" v="2019-12-27" />
		<tag k="ssr:gruppe" v="veg" />
		<tag k="ssr:hovedgruppe" v="infrastruktur" />
		<tag k="ssr:stedsnr" v="637339" />
		<tag k="ssr:type" v="adressenavn" />
	</node>
	<node lat="70.62913401243127" lon="29.694634801179014" id="-102641">
		<tag k="name" v="Myhrebakken" />
		<tag k="ssr:date" v="2019-12-27" />
		<tag k="ssr:gruppe" v="veg" />
		<tag k="ssr:hovedgruppe" v="infrastruktur" />
		<tag k="ssr:stedsnr" v="1056660" />
		<tag k="ssr:type" v="adressenavn" />
	</node>
	<node lat="70.62858867102094" lon="29.71380115180925" id="-102642">
		<tag k="name" v="Myrvegen" />
		<tag k="ssr:date" v="2019-12-27" />
		<tag k="ssr:gruppe" v="veg" />
		<tag k="ssr:hovedgruppe" v="infrastruktur" />
		<tag k="ssr:stedsnr" v="1056662" />
		<tag k="ssr:type" v="adressenavn" />
	</node>
	<node lat="70.63859127586785" lon="29.72730775979068" id="-102643">
		<tag k="name" v="Mellomvegen" />
		<tag k="ssr:date" v="2019-12-27" />
		<tag k="ssr:gruppe" v="veg" />
		<tag k="ssr:hovedgruppe" v="infrastruktur" />
		<tag k="ssr:stedsnr" v="1056665" />
		<tag k="ssr:type" v="adressenavn" />
	</node>
	<node lat="70.62527265247274" lon="29.68555553281895" id="-102644">
		<tag k="name" v="Marivegen" />
		<tag k="ssr:date" v="2019-12-27" />
		<tag k="ssr:gruppe" v="veg" />
		<tag k="ssr:hovedgruppe" v="infrastruktur" />
		<tag k="ssr:stedsnr" v="1056682" />
		<tag k="ssr:type" v="adressenavn" />
	</node>
	<node lat="70.61744952960912" lon="29.69260537176223" id="-102645">
		<tag k="name" v="Solheimvegen" />
		<tag k="ssr:date" v="2019-12-27" />
		<tag k="ssr:gruppe" v="veg" />
		<tag k="ssr:hovedgruppe" v="infrastruktur" />
		<tag k="ssr:stedsnr" v="1056786" />
		<tag k="ssr:type" v="adressenavn" />
	</node>
	<node lat="70.63666121962028" lon="29.7247869074722" id="-102646">
		<tag k="name" v="Strandvegen" />
		<tag k="ssr:date" v="2019-12-27" />
		<tag k="ssr:gruppe" v="veg" />
		<tag k="ssr:hovedgruppe" v="infrastruktur" />
		<tag k="ssr:stedsnr" v="1056789" />
		<tag k="ssr:type" v="adressenavn" />
	</node>
	<node lat="70.62485767706507" lon="29.690369295998252" id="-102647">
		<tag k="name" v="Eides veg" />
		<tag k="ssr:date" v="2019-12-27" />
		<tag k="ssr:gruppe" v="veg" />
		<tag k="ssr:hovedgruppe" v="infrastruktur" />
		<tag k="ssr:stedsnr" v="1056611" />
		<tag k="ssr:type" v="adressenavn" />
	</node>
	<node lat="70.63517439761237" lon="29.71672467213592" id="-102648">
		<tag k="name" v="Bredalbakken" />
		<tag k="ssr:date" v="2019-12-27" />
		<tag k="ssr:gruppe" v="veg" />
		<tag k="ssr:hovedgruppe" v="infrastruktur" />
		<tag k="ssr:stedsnr" v="1056612" />
		<tag k="ssr:type" v="adressenavn" />
	</node>
	<node lat="70.63893096235941" lon="29.726846650925392" id="-102649">
		<tag k="name" v="Bakkevegen" />
		<tag k="ssr:date" v="2019-12-27" />
		<tag k="ssr:gruppe" v="veg" />
		<tag k="ssr:hovedgruppe" v="infrastruktur" />
		<tag k="ssr:stedsnr" v="1056617" />
		<tag k="ssr:type" v="adressenavn" />
	</node>
	<node lat="70.63987949838459" lon="29.727174160868554" id="-102650">
		<tag k="name" v="Fjellvegen" />
		<tag k="ssr:date" v="2019-12-27" />
		<tag k="ssr:gruppe" v="veg" />
		<tag k="ssr:hovedgruppe" v="infrastruktur" />
		<tag k="ssr:stedsnr" v="1056619" />
		<tag k="ssr:type" v="adressenavn" />
	</node>
	<node lat="70.61851616605892" lon="29.687992038533498" id="-102651">
		<tag k="name" v="Fiskeværvegen" />
		<tag k="ssr:date" v="2019-12-27" />
		<tag k="ssr:gruppe" v="veg" />
		<tag k="ssr:hovedgruppe" v="infrastruktur" />
		<tag k="ssr:stedsnr" v="1056620" />
		<tag k="ssr:type" v="adressenavn" />
	</node>
	<node lat="70.62946590022625" lon="29.692186907690655" id="-102652">
		<tag k="name" v="Festningsvegen" />
		<tag k="ssr:date" v="2019-12-27" />
		<tag k="ssr:gruppe" v="veg" />
		<tag k="ssr:hovedgruppe" v="infrastruktur" />
		<tag k="ssr:stedsnr" v="1056622" />
		<tag k="ssr:type" v="adressenavn" />
	</node>
	<node lat="70.63074311953149" lon="29.701805101634633" id="-102653">
		<tag k="name" v="Elvevegen" />
		<tag k="ssr:date" v="2019-12-27" />
		<tag k="ssr:gruppe" v="veg" />
		<tag k="ssr:hovedgruppe" v="infrastruktur" />
		<tag k="ssr:stedsnr" v="1056623" />
		<tag k="ssr:type" v="adressenavn" />
	</node>
	<node lat="70.63921370748936" lon="29.727152623706825" id="-102654">
		<tag k="name" v="Lensmannsgata" />
		<tag k="ssr:date" v="2019-12-27" />
		<tag k="ssr:gruppe" v="veg" />
		<tag k="ssr:hovedgruppe" v="infrastruktur" />
		<tag k="ssr:stedsnr" v="1056690" />
		<tag k="ssr:type" v="adressenavn" />
	</node>
	<node lat="70.6376399641674" lon="29.73533203525778" id="-102655">
		<tag k="name" v="Makkaurvegen" />
		<tag k="ssr:date" v="2019-12-27" />
		<tag k="ssr:gruppe" v="veg" />
		<tag k="ssr:hovedgruppe" v="infrastruktur" />
		<tag k="ssr:stedsnr" v="1056694" />
		<tag k="ssr:type" v="adressenavn" />
	</node>
	<node lat="70.62888220610041" lon="29.695493044160756" id="-102656">
		<tag k="name" v="Neptundalsvegen" />
		<tag k="ssr:date" v="2019-12-27" />
		<tag k="ssr:gruppe" v="veg" />
		<tag k="ssr:hovedgruppe" v="infrastruktur" />
		<tag k="ssr:stedsnr" v="1056703" />
		<tag k="ssr:type" v="adressenavn" />
	</node>
	<node lat="70.63694361437403" lon="29.739343842306685" id="-102657">
		<tag k="name" v="Nessevegen" />
		<tag k="ssr:date" v="2019-12-27" />
		<tag k="ssr:gruppe" v="veg" />
		<tag k="ssr:hovedgruppe" v="infrastruktur" />
		<tag k="ssr:stedsnr" v="1056704" />
		<tag k="ssr:type" v="adressenavn" />
	</node>
	<node lat="70.63165960087396" lon="29.70928304834478" id="-102658">
		<tag k="name" v="Nedrevegen" />
		<tag k="ssr:date" v="2019-12-27" />
		<tag k="ssr:gruppe" v="veg" />
		<tag k="ssr:hovedgruppe" v="infrastruktur" />
		<tag k="ssr:stedsnr" v="1056707" />
		<tag k="ssr:type" v="adressenavn" />
	</node>
	<node lat="70.6397181580715" lon="29.737186612795824" id="-102659">
		<tag k="name" v="Måkevegen" />
		<tag k="ssr:date" v="2019-12-27" />
		<tag k="ssr:gruppe" v="veg" />
		<tag k="ssr:hovedgruppe" v="infrastruktur" />
		<tag k="ssr:stedsnr" v="1056730" />
		<tag k="ssr:type" v="adressenavn" />
	</node>
	<node lat="70.64024662221402" lon="29.720553096418318" id="-102660">
		<tag k="name" v="Havnedalsvegen" />
		<tag k="ssr:date" v="2019-12-27" />
		<tag k="ssr:gruppe" v="veg" />
		<tag k="ssr:hovedgruppe" v="infrastruktur" />
		<tag k="ssr:stedsnr" v="1056734" />
		<tag k="ssr:type" v="adressenavn" />
	</node>
	<node lat="70.63313956205253" lon="29.715572810176887" id="-102661">
		<tag k="name" v="Fomavegen" />
		<tag k="ssr:date" v="2019-12-27" />
		<tag k="ssr:gruppe" v="veg" />
		<tag k="ssr:hovedgruppe" v="infrastruktur" />
		<tag k="ssr:stedsnr" v="1056735" />
		<tag k="ssr:type" v="adressenavn" />
	</node>
	<node lat="70.62865231835032" lon="29.687405664768335" id="-102662">
		<tag k="name" v="Gammevegen" />
		<tag k="ssr:date" v="2019-12-27" />
		<tag k="ssr:gruppe" v="veg" />
		<tag k="ssr:hovedgruppe" v="infrastruktur" />
		<tag k="ssr:stedsnr" v="1056736" />
		<tag k="ssr:type" v="adressenavn" />
	</node>
	<node lat="70.62875200156468" lon="29.714671491081752" id="-102663">
		<tag k="name" v="Lanesvegen" />
		<tag k="ssr:date" v="2019-12-27" />
		<tag k="ssr:gruppe" v="veg" />
		<tag k="ssr:hovedgruppe" v="infrastruktur" />
		<tag k="ssr:stedsnr" v="1056739" />
		<tag k="ssr:type" v="adressenavn" />
	</node>
	<node lat="70.62866190894911" lon="29.69665454831199" id="-102664">
		<tag k="name" v="Klausjorda" />
		<tag k="ssr:date" v="2019-12-27" />
		<tag k="ssr:gruppe" v="veg" />
		<tag k="ssr:hovedgruppe" v="infrastruktur" />
		<tag k="ssr:stedsnr" v="1056753" />
		<tag k="ssr:type" v="adressenavn" />
	</node>
	<node lat="70.6403144023743" lon="29.738176243699098" id="-102665">
		<tag k="name" v="J E Abrahamsens veg" />
		<tag k="ssr:date" v="2019-12-27" />
		<tag k="ssr:gruppe" v="veg" />
		<tag k="ssr:hovedgruppe" v="infrastruktur" />
		<tag k="ssr:stedsnr" v="1056763" />
		<tag k="ssr:type" v="adressenavn" />
	</node>
	<node lat="70.62923853819962" lon="29.71013351670354" id="-102666">
		<tag k="name" v="Holmenvegen" />
		<tag k="ssr:date" v="2019-12-27" />
		<tag k="ssr:gruppe" v="veg" />
		<tag k="ssr:hovedgruppe" v="infrastruktur" />
		<tag k="ssr:stedsnr" v="1056766" />
		<tag k="ssr:type" v="adressenavn" />
	</node>
	<node lat="70.63872322219596" lon="29.733191098201182" id="-102667">
		<tag k="name" v="Isaksensvingen" />
		<tag k="ssr:date" v="2019-12-27" />
		<tag k="ssr:gruppe" v="veg" />
		<tag k="ssr:hovedgruppe" v="infrastruktur" />
		<tag k="ssr:stedsnr" v="1056767" />
		<tag k="ssr:type" v="adressenavn" />
	</node>
	<node lat="70.6272246529558" lon="29.6848461893441" id="-102668">
		<tag k="name" v="Stubbvegen" />
		<tag k="ssr:date" v="2019-12-27" />
		<tag k="ssr:gruppe" v="veg" />
		<tag k="ssr:hovedgruppe" v="infrastruktur" />
		<tag k="ssr:stedsnr" v="1056779" />
		<tag k="ssr:type" v="adressenavn" />
	</node>
	<node lat="70.61774323508362" lon="29.69101088749475" id="-102669">
		<tag k="name" v="Spirasvingen" />
		<tag k="ssr:date" v="2019-12-27" />
		<tag k="ssr:gruppe" v="veg" />
		<tag k="ssr:hovedgruppe" v="infrastruktur" />
		<tag k="ssr:stedsnr" v="1056785" />
		<tag k="ssr:type" v="adressenavn" />
	</node>
	<node lat="70.64186747077599" lon="29.735739738063785" id="-102670">
		<tag k="name" v="Skrovnesvegen" />
		<tag k="ssr:date" v="2019-12-27" />
		<tag k="ssr:gruppe" v="veg" />
		<tag k="ssr:hovedgruppe" v="infrastruktur" />
		<tag k="ssr:stedsnr" v="1056810" />
		<tag k="ssr:type" v="adressenavn" />
	</node>
	<node lat="70.6326443373898" lon="29.710672467775037" id="-102671">
		<tag k="name" v="Tinavegen" />
		<tag k="ssr:date" v="2019-12-27" />
		<tag k="ssr:gruppe" v="veg" />
		<tag k="ssr:hovedgruppe" v="infrastruktur" />
		<tag k="ssr:stedsnr" v="1056900" />
		<tag k="ssr:type" v="adressenavn" />
	</node>
	<node lat="70.638256828515" lon="29.735652971350476" id="-102672">
		<tag k="name" v="Syltefjordvegen" />
		<tag k="ssr:date" v="2019-12-27" />
		<tag k="ssr:gruppe" v="veg" />
		<tag k="ssr:hovedgruppe" v="infrastruktur" />
		<tag k="ssr:stedsnr" v="1056910" />
		<tag k="ssr:type" v="adressenavn" />
	</node>
	<node lat="70.6253658168468" lon="29.68831123985798" id="-102673">
		<tag k="name" v="Sørlivegen" />
		<tag k="ssr:date" v="2019-12-27" />
		<tag k="ssr:gruppe" v="veg" />
		<tag k="ssr:hovedgruppe" v="infrastruktur" />
		<tag k="ssr:stedsnr" v="1056913" />
		<tag k="ssr:type" v="adressenavn" />
	</node>
	<node lat="70.62468279884935" lon="29.69347725406965" id="-102674">
		<tag k="name" v="Svend Foyns veg" />
		<tag k="ssr:date" v="2019-12-27" />
		<tag k="ssr:gruppe" v="veg" />
		<tag k="ssr:hovedgruppe" v="infrastruktur" />
		<tag k="ssr:stedsnr" v="1056915" />
		<tag k="ssr:type" v="adressenavn" />
	</node>
	<node lat="70.63220464408063" lon="29.70209808757132" id="-102675">
		<tag k="name" v="Gamle Kirkegårdsvei" />
		<tag k="ssr:date" v="2019-12-27" />
		<tag k="ssr:gruppe" v="veg" />
		<tag k="ssr:hovedgruppe" v="infrastruktur" />
		<tag k="ssr:stedsnr" v="1056837" />
		<tag k="ssr:type" v="adressenavn" />
	</node>
	<node lat="70.6293061915603" lon="29.71488908337482" id="-102676">
		<tag k="name" v="Torvvegen" />
		<tag k="ssr:date" v="2019-12-27" />
		<tag k="ssr:gruppe" v="veg" />
		<tag k="ssr:hovedgruppe" v="infrastruktur" />
		<tag k="ssr:stedsnr" v="1056875" />
		<tag k="ssr:type" v="adressenavn" />
	</node>
	<node lat="70.63049569160134" lon="29.705120027411002" id="-102677">
		<tag k="name" v="Valen" />
		<tag k="ssr:date" v="2019-12-27" />
		<tag k="ssr:gruppe" v="veg" />
		<tag k="ssr:hovedgruppe" v="infrastruktur" />
		<tag k="ssr:stedsnr" v="1056882" />
		<tag k="ssr:type" v="adressenavn" />
	</node>
	<node lat="70.64060397339142" lon="29.735273875864436" id="-102678">
		<tag k="name" v="Ravnevegen" />
		<tag k="ssr:date" v="2019-12-27" />
		<tag k="ssr:gruppe" v="veg" />
		<tag k="ssr:hovedgruppe" v="infrastruktur" />
		<tag k="ssr:stedsnr" v="1056933" />
		<tag k="ssr:type" v="adressenavn" />
	</node>
	<node lat="70.63488121237683" lon="29.717149009258836" id="-102679">
		<tag k="name" v="Prestegårdsbakken" />
		<tag k="ssr:date" v="2019-12-27" />
		<tag k="ssr:gruppe" v="veg" />
		<tag k="ssr:hovedgruppe" v="infrastruktur" />
		<tag k="ssr:stedsnr" v="1056942" />
		<tag k="ssr:type" v="adressenavn" />
	</node>
	<node lat="70.63955547333059" lon="29.740350816605595" id="-102680">
		<tag k="name" v="Rasmus Bjørnenaks veg" />
		<tag k="ssr:date" v="2019-12-27" />
		<tag k="ssr:gruppe" v="veg" />
		<tag k="ssr:hovedgruppe" v="infrastruktur" />
		<tag k="ssr:stedsnr" v="1056945" />
		<tag k="ssr:type" v="adressenavn" />
	</node>
	<node lat="70.63257061754896" lon="29.710857086064692" id="-102681">
		<tag k="name" v="Parkvegen" />
		<tag k="ssr:date" v="2019-12-27" />
		<tag k="ssr:gruppe" v="veg" />
		<tag k="ssr:hovedgruppe" v="infrastruktur" />
		<tag k="ssr:stedsnr" v="1056947" />
		<tag k="ssr:type" v="adressenavn" />
	</node>
	<node lat="70.63005359979492" lon="29.700930399957638" id="-102682">
		<tag k="name" v="Schirmers sti" />
		<tag k="ssr:date" v="2019-12-27" />
		<tag k="ssr:gruppe" v="veg" />
		<tag k="ssr:hovedgruppe" v="infrastruktur" />
		<tag k="ssr:stedsnr" v="1057100" />
		<tag k="ssr:type" v="adressenavn" />
	</node>
	<node lat="70.63897062184853" lon="29.717467850514957" id="-102683">
		<tag k="name" v="Rubbedalsvegen" />
		<tag k="ssr:date" v="2019-12-27" />
		<tag k="ssr:gruppe" v="veg" />
		<tag k="ssr:hovedgruppe" v="infrastruktur" />
		<tag k="ssr:stedsnr" v="1057113" />
		<tag k="ssr:type" v="adressenavn" />
	</node>
	<node lat="70.63518111179361" lon="29.720199084355944" id="-102684">
		<tag k="name" v="Rådhusbakken" />
		<tag k="ssr:date" v="2019-12-27" />
		<tag k="ssr:gruppe" v="veg" />
		<tag k="ssr:hovedgruppe" v="infrastruktur" />
		<tag k="ssr:stedsnr" v="1057118" />
		<tag k="ssr:type" v="adressenavn" />
	</node>
	<node lat="70.63008525371615" lon="29.700892423866392" id="-102685">
		<tag k="name" v="Schirmers veg" />
		<tag k="ssr:date" v="2019-12-27" />
		<tag k="ssr:gruppe" v="veg" />
		<tag k="ssr:hovedgruppe" v="infrastruktur" />
		<tag k="ssr:stedsnr" v="1057051" />
		<tag k="ssr:type" v="adressenavn" />
	</node>
	<node lat="70.62593373909554" lon="29.71501434899106" id="-102686">
		<tag k="name" v="Sjøvegen" />
		<tag k="ssr:date" v="2019-12-27" />
		<tag k="ssr:gruppe" v="veg" />
		<tag k="ssr:hovedgruppe" v="infrastruktur" />
		<tag k="ssr:stedsnr" v="1057082" />
		<tag k="ssr:type" v="adressenavn" />
	</node>
	<node lat="70.63728526884867" lon="29.721147273935387" id="-102687">
		<tag k="name" v="Lyngvegen" />
		<tag k="ssr:date" v="2019-12-27" />
		<tag k="ssr:gruppe" v="veg" />
		<tag k="ssr:hovedgruppe" v="infrastruktur" />
		<tag k="ssr:stedsnr" v="1057210" />
		<tag k="ssr:type" v="adressenavn" />
	</node>
	<node lat="70.64024662221402" lon="29.720553096418318" id="-102688">
		<tag k="name" v="Kirkegårdsvegen" />
		<tag k="ssr:date" v="2019-12-27" />
		<tag k="ssr:gruppe" v="veg" />
		<tag k="ssr:hovedgruppe" v="infrastruktur" />
		<tag k="ssr:stedsnr" v="1057212" />
		<tag k="ssr:type" v="adressenavn" />
	</node>
	<node lat="70.63556676400063" lon="29.714309149503563" id="-102689">
		<tag k="name" v="Helsevegen" />
		<tag k="ssr:date" v="2019-12-27" />
		<tag k="ssr:gruppe" v="veg" />
		<tag k="ssr:hovedgruppe" v="infrastruktur" />
		<tag k="ssr:stedsnr" v="1057214" />
		<tag k="ssr:type" v="adressenavn" />
	</node>
	<node lat="70.62932060834835" lon="29.709102708930736" id="-102690">
		<tag k="name" v="Skogholmvegen" />
		<tag k="ssr:date" v="2019-12-27" />
		<tag k="ssr:gruppe" v="veg" />
		<tag k="ssr:hovedgruppe" v="infrastruktur" />
		<tag k="ssr:stedsnr" v="1057221" />
		<tag k="ssr:type" v="adressenavn" />
	</node>
	<node lat="70.64225281455558" lon="29.732048765299943" id="-102691">
		<tag k="name" v="Blåbærveien" />
		<tag k="ssr:date" v="2019-12-27" />
		<tag k="ssr:gruppe" v="veg" />
		<tag k="ssr:hovedgruppe" v="infrastruktur" />
		<tag k="ssr:stedsnr" v="1057224" />
		<tag k="ssr:type" v="adressenavn" />
	</node>
	<node lat="70.64330055644137" lon="29.73344625417354" id="-102692">
		<tag k="name" v="Idrettsvegen" />
		<tag k="ssr:date" v="2019-12-27" />
		<tag k="ssr:gruppe" v="veg" />
		<tag k="ssr:hovedgruppe" v="infrastruktur" />
		<tag k="ssr:stedsnr" v="1057228" />
		<tag k="ssr:type" v="adressenavn" />
	</node>
	<node lat="70.62994238790094" lon="29.718296383014284" id="-102693">
		<tag k="name" v="Nedre Holmen" />
		<tag k="ssr:date" v="2019-12-27" />
		<tag k="ssr:gruppe" v="veg" />
		<tag k="ssr:hovedgruppe" v="infrastruktur" />
		<tag k="ssr:stedsnr" v="1057231" />
		<tag k="ssr:type" v="adressenavn" />
	</node>
	<node lat="70.63911129905996" lon="29.734087284354015" id="-102694">
		<tag k="name" v="Øvrevegen" />
		<tag k="ssr:date" v="2019-12-27" />
		<tag k="ssr:gruppe" v="veg" />
		<tag k="ssr:hovedgruppe" v="infrastruktur" />
		<tag k="ssr:stedsnr" v="1057315" />
		<tag k="ssr:type" v="adressenavn" />
	</node>
	<node lat="70.08225403199775" lon="29.73028468656217" id="-102701">
		<tag k="fixme" v="multiple name tags, choose one and add the other to alt_name" />
		<tag k="name" v="Troms og Finnmark;Troms og Finnmark fylke - Romssa ja Finnmárkku fylka - Tromssan ja Finmarkun fylkki" />
		<tag k="name:fkv" v="Tromssan ja Finmarkun fylkki" />
		<tag k="name:no" v="Troms og Finnmark;Troms og Finnmark fylke" />
		<tag k="name:se" v="Romssa ja Finnmárkku fylka" />
		<tag k="ssr:date" v="2021-06-08" />
		<tag k="ssr:gruppe" v="administrativeIndelinger" />
		<tag k="ssr:hovedgruppe" v="offentligAdministrasjon" />
		<tag k="ssr:stedsnr" v="1073694" />
		<tag k="ssr:type" v="fylke" />
	</node>
</osm>
