<?xml version="1.0" encoding="UTF-8"?>
<osm generator="osmapis" version="0.6">
	<node id="-250654" lat="59.7192277767" lon="10.313566672">
		<tag k="fixme" v="consider boundary=protected_area and relevant protect_class if not nature reserve" />
		<tag k="leisure" v="nature_reserve" />
		<tag k="name" v="Lahellholmen" />
		<tag k="ssr:stedsnr" v="572825" />
	</node>
	<node id="-251100" lat="59.6712635233" lon="10.4492071327">
		<tag k="fixme" v="consider boundary=protected_area and relevant protect_class if not nature reserve" />
		<tag k="leisure" v="nature_reserve" />
		<tag k="name" v="Sandungåsen naturreservat" />
		<tag k="ssr:stedsnr" v="989148" />
	</node>
	<node id="-251099" lat="59.7031909215" lon="10.4024312061">
		<tag k="fixme" v="consider boundary=protected_area and relevant protect_class if not nature reserve" />
		<tag k="leisure" v="nature_reserve" />
		<tag k="name" v="Geitmyråsen naturreservat" />
		<tag k="ssr:stedsnr" v="989136" />
	</node>
	<node id="-251097" lat="59.8496007374" lon="10.3814109593">
		<tag k="fixme" v="consider boundary=protected_area and relevant protect_class if not nature reserve" />
		<tag k="leisure" v="nature_reserve" />
		<tag k="name" v="Furuåsen og Hagahogget naturreservat" />
		<tag k="ssr:stedsnr" v="987919" />
	</node>
	<node id="-251123" lat="59.6121111084" lon="10.5173131179">
		<tag k="fixme" v="consider boundary=protected_area and relevant protect_class if not nature reserve" />
		<tag k="leisure" v="nature_reserve" />
		<tag k="name" v="Tofteskogen naturreservat" />
		<tag k="ssr:stedsnr" v="1076555" />
	</node>
	<node id="-251120" lat="59.8646464462" lon="10.4422882725">
		<tag k="fixme" v="consider boundary=protected_area and relevant protect_class if not nature reserve" />
		<tag k="leisure" v="nature_reserve" />
		<tag k="name" v="Nordre Skaugumsåsen naturreservat" />
		<tag k="ssr:stedsnr" v="1074771" />
	</node>
	<node id="-250023" lat="59.7840250037" lon="10.3832305496">
		<tag k="fixme" v="consider boundary=protected_area and relevant protect_class if not nature reserve" />
		<tag k="leisure" v="nature_reserve" />
		<tag k="name" v="Blåfjell naturreservat" />
		<tag k="ssr:stedsnr" v="61000" />
	</node>
	<node id="-250628" lat="59.8672222187" lon="10.5209305542">
		<tag k="fixme" v="consider boundary=protected_area and relevant protect_class if not nature reserve" />
		<tag k="leisure" v="nature_reserve" />
		<tag k="name" v="Nesøytjern naturreservat" />
		<tag k="ssr:stedsnr" v="568464" />
	</node>
</osm>
