<?xml version="1.0" encoding="UTF-8"?>
<<<<<<< HEAD
<osm version="0.6" generator="osmapis">
	<node lat="59.851644442564606" lon="10.421666667289848" id="-14628">
		<tag k="bridge" v="yes" />
		<tag k="layer" v="1" />
		<tag k="name" v="Sem" />
		<tag k="ssr:stedsnr" v="46074" />
	</node>
	<node lat="59.53819302819814" lon="10.551001185795045" id="-14645">
=======
<osm generator="osmapis" version="0.6">
	<node id="-248832" lat="59.8175916699" lon="10.439652773">
		<tag k="bridge" v="yes" />
		<tag k="layer" v="1" />
		<tag k="name" v="Bondi" />
		<tag k="ssr:stedsnr" v="228099" />
	</node>
	<node id="-248831" lat="59.8140583332" lon="10.4459388818">
		<tag k="bridge" v="yes" />
		<tag k="layer" v="1" />
		<tag k="name" v="Gullhella" />
		<tag k="ssr:stedsnr" v="228090" />
	</node>
	<node id="-248830" lat="59.8323083302" lon="10.4405833418">
		<tag k="bridge" v="yes" />
		<tag k="layer" v="1" />
		<tag k="name" v="Risenga" />
		<tag k="ssr:stedsnr" v="228082" />
	</node>
	<node id="-248829" lat="59.8746861107" lon="10.5026944452">
		<tag k="bridge" v="yes" />
		<tag k="layer" v="1" />
		<tag k="name" v="Nesøyvegen" />
		<tag k="ssr:stedsnr" v="228081" />
	</node>
	<node id="-249852" lat="59.6872000022" lon="10.52438334">
		<tag k="fixme" v="verify maritime location" />
		<tag k="mooring" v="yes" />
		<tag k="name" v="Støa" />
		<tag k="place" v="locality" />
		<tag k="ssr:stedsnr" v="908326" />
	</node>
	<node id="-248827" lat="59.833050001" lon="10.4310666656">
		<tag k="bridge" v="yes" />
		<tag k="layer" v="1" />
		<tag k="name" v="Lenken" />
		<tag k="ssr:stedsnr" v="228078" />
	</node>
	<node id="-248826" lat="59.8190638931" lon="10.4645055641">
		<tag k="bridge" v="yes" />
		<tag k="layer" v="1" />
		<tag k="name" v="Åby" />
		<tag k="ssr:stedsnr" v="228072" />
	</node>
	<node id="-248825" lat="59.7234777801" lon="10.5190972179">
		<tag k="man_made" v="quay" />
		<tag k="name" v="Høvik brygge" />
		<tag k="place" v="locality" />
		<tag k="ssr:stedsnr" v="26938" />
	</node>
	<node id="-249848" lat="59.5605444421" lon="10.4264361108">
		<tag k="leisure" v="marina" />
		<tag k="name" v="Holmsbu brygge" />
		<tag k="ssr:stedsnr" v="888123" />
	</node>
	<node id="-249001" lat="59.6439249977" lon="10.5599250003">
		<tag k="highway" v="path" />
		<tag k="name" v="Sandstien" />
		<tag k="ssr:stedsnr" v="163323" />
	</node>
	<node id="-250862" lat="59.8407749956" lon="10.4564722193">
		<tag k="bridge" v="yes" />
		<tag k="layer" v="1" />
		<tag k="name" v="Høn" />
		<tag k="ssr:stedsnr" v="774096" />
	</node>
	<node id="-250861" lat="59.8000638918" lon="10.4875999991">
		<tag k="bridge" v="yes" />
		<tag k="layer" v="1" />
		<tag k="name" v="Håkavik" />
		<tag k="ssr:stedsnr" v="774093" />
	</node>
	<node id="-250860" lat="59.8421055588" lon="10.4817749927">
		<tag k="bridge" v="yes" />
		<tag k="layer" v="1" />
		<tag k="name" v="Hval" />
		<tag k="ssr:stedsnr" v="774092" />
	</node>
	<node id="-248828" lat="59.8248472261" lon="10.3783361167">
		<tag k="bridge" v="yes" />
		<tag k="layer" v="1" />
		<tag k="name" v="Liahagen" />
		<tag k="ssr:stedsnr" v="228080" />
	</node>
	<node id="-249296" lat="59.8386944454" lon="10.4770527738">
		<tag k="man_made" v="quay" />
		<tag k="name" v="Leangen brygge" />
		<tag k="place" v="locality" />
		<tag k="ssr:stedsnr" v="508669" />
	</node>
	<node id="-250823" lat="59.7148333375" lon="10.4919638806">
		<tag k="junction" v="yes" />
		<tag k="name" v="Sundbykrysset" />
		<tag k="place" v="locality" />
		<tag k="ssr:stedsnr" v="754952" />
	</node>
	<node id="-249286" lat="59.8591833342" lon="10.5285472212">
>>>>>>> e1d4bc35ff8a6074a6f2e91616a996b547c36f15
		<tag k="man_made" v="quay" />
		<tag k="name" v="Tofte brygge" />
		<tag k="place" v="locality" />
		<tag k="ssr:stedsnr" v="240634" />
	</node>
	<node lat="59.862979197470196" lon="10.555572729832672" id="-14674">
		<tag k="man_made" v="quay" />
		<tag k="name" v="Østre brygge" />
		<tag k="place" v="locality" />
		<tag k="ssr:stedsnr" v="83283" />
	</node>
	<node lat="59.643924997740115" lon="10.559925000321286" id="-14778">
		<tag k="highway" v="path" />
		<tag k="name" v="Sandstien" />
		<tag k="ssr:stedsnr" v="163323" />
	</node>
	<node lat="59.86608610745356" lon="10.490416671353668" id="-14820">
		<tag k="bridge" v="yes" />
		<tag k="layer" v="1" />
		<tag k="name" v="Nesbru" />
		<tag k="ssr:stedsnr" v="265565" />
	</node>
<<<<<<< HEAD
	<node lat="59.87628055510669" lon="10.500022228668444" id="-14823">
=======
	<node id="-250307" lat="59.7411750007" lon="10.4220444519">
>>>>>>> e1d4bc35ff8a6074a6f2e91616a996b547c36f15
		<tag k="junction" v="yes" />
		<tag k="name" v="Marienlyst" />
		<tag k="place" v="locality" />
		<tag k="ssr:stedsnr" v="265569" />
	</node>
<<<<<<< HEAD
	<node lat="59.706249996441066" lon="10.522275004374352" id="-14842">
=======
	<node id="-250300" lat="59.7062499964" lon="10.5222750044">
>>>>>>> e1d4bc35ff8a6074a6f2e91616a996b547c36f15
		<tag k="man_made" v="quay" />
		<tag k="name" v="Åros brygge" />
		<tag k="place" v="locality" />
		<tag k="ssr:stedsnr" v="208952" />
	</node>
<<<<<<< HEAD
	<node lat="59.87468611071217" lon="10.502694445194106" id="-14860">
		<tag k="bridge" v="yes" />
		<tag k="layer" v="1" />
		<tag k="name" v="Nesøyvegen" />
		<tag k="ssr:stedsnr" v="228081" />
	</node>
	<node lat="59.832308330196874" lon="10.440583341783668" id="-14861">
		<tag k="bridge" v="yes" />
		<tag k="layer" v="1" />
		<tag k="name" v="Risenga" />
		<tag k="ssr:stedsnr" v="228082" />
	</node>
	<node lat="59.814058333175275" lon="10.445938881836277" id="-14862">
		<tag k="bridge" v="yes" />
		<tag k="layer" v="1" />
		<tag k="name" v="Gullhella" />
		<tag k="ssr:stedsnr" v="228090" />
	</node>
	<node lat="59.817591669895016" lon="10.439652773010803" id="-14863">
=======
	<node id="-249247" lat="59.5429472254" lon="10.5642388849">
		<tag k="leisure" v="marina" />
		<tag k="name" v="Tofte båthavn" />
		<tag k="ssr:stedsnr" v="362626" />
	</node>
	<node id="-249755" lat="59.6812916657" lon="10.5273833358">
		<tag k="junction" v="yes" />
		<tag k="name" v="Sætrekrysset" />
		<tag k="place" v="locality" />
		<tag k="ssr:stedsnr" v="926789" />
	</node>
	<node id="-249238" lat="59.8437784644" lon="10.4562457599">
		<tag k="alt_name" v="Høn" />
		<tag k="name" v="Høn holdeplass" />
		<tag k="railway" v="halt" />
		<tag k="ssr:stedsnr" v="490775" />
		<tag k="train" v="yes" />
	</node>
	<node id="-249325" lat="59.8202883188" lon="10.4329958675">
		<tag k="alt_name" v="Bondivatn;Bondivann store" />
		<tag k="name" v="Bondivann holdeplass" />
		<tag k="railway" v="halt" />
		<tag k="ssr:stedsnr" v="430718" />
		<tag k="train" v="yes" />
	</node>
	<node id="-249738" lat="59.6070111153" lon="10.6117888856">
>>>>>>> e1d4bc35ff8a6074a6f2e91616a996b547c36f15
		<tag k="bridge" v="yes" />
		<tag k="layer" v="1" />
		<tag k="name" v="Bondi" />
		<tag k="ssr:stedsnr" v="228099" />
	</node>
<<<<<<< HEAD
	<node lat="59.695872219052575" lon="10.494536103341861" id="-14864">
=======
	<node id="-249737" lat="59.742363889" lon="10.3789000002">
>>>>>>> e1d4bc35ff8a6074a6f2e91616a996b547c36f15
		<tag k="bridge" v="yes" />
		<tag k="layer" v="1" />
		<tag k="name" v="Frøtvedtmosen" />
		<tag k="ssr:stedsnr" v="228941" />
	</node>
<<<<<<< HEAD
	<node lat="59.61385555215266" lon="10.611122223871506" id="-14867">
=======
	<node id="-250752" lat="59.6455888904" lon="10.6035055479">
>>>>>>> e1d4bc35ff8a6074a6f2e91616a996b547c36f15
		<tag k="fixme" v="verify maritime location" />
		<tag k="mooring" v="yes" />
		<tag k="name" v="Eltornstøa" />
		<tag k="place" v="locality" />
		<tag k="ssr:stedsnr" v="449897" />
	</node>
	<node lat="59.65198333738956" lon="10.602888882378693" id="-14874">
		<tag k="fixme" v="verify maritime location" />
		<tag k="mooring" v="yes" />
		<tag k="name" v="Orestøa" />
		<tag k="place" v="locality" />
		<tag k="ssr:stedsnr" v="450898" />
	</node>
<<<<<<< HEAD
	<node lat="59.78294999715168" lon="10.500963886410073" id="-14911">
=======
	<node id="-249152" lat="59.5414527799" lon="10.5203611063">
		<tag k="bridge" v="yes" />
		<tag k="layer" v="1" />
		<tag k="name" v="Sagene" />
		<tag k="ssr:stedsnr" v="471578" />
	</node>
	<node id="-249150" lat="59.8342888918" lon="10.4370055617">
		<tag k="bridge" v="yes" />
		<tag k="layer" v="1" />
		<tag k="name" v="Asker G/S-kulvert" />
		<tag k="ssr:stedsnr" v="471094" />
	</node>
	<node id="-249202" lat="59.5828614002" lon="10.6175035852">
>>>>>>> e1d4bc35ff8a6074a6f2e91616a996b547c36f15
		<tag k="man_made" v="quay" />
		<tag k="name" v="Slemmestad brygge" />
		<tag k="place" v="locality" />
		<tag k="ssr:stedsnr" v="452845" />
	</node>
<<<<<<< HEAD
	<node lat="59.85808055677281" lon="10.518775004420075" id="-14927">
		<tag k="man_made" v="quay" />
		<tag k="name" v="Søndre brygge" />
=======
	<node id="-250734" lat="59.8164555557" lon="10.4428555634">
		<tag k="junction" v="yes" />
		<tag k="name" v="Sikta" />
>>>>>>> e1d4bc35ff8a6074a6f2e91616a996b547c36f15
		<tag k="place" v="locality" />
		<tag k="ssr:stedsnr" v="265501" />
	</node>
<<<<<<< HEAD
	<node lat="59.83623333550823" lon="10.431861104326154" id="-14961">
=======
	<node id="-249149" lat="59.8317972226" lon="10.4341138972">
		<tag k="bridge" v="yes" />
		<tag k="layer" v="1" />
		<tag k="name" v="Asker" />
		<tag k="ssr:stedsnr" v="471092" />
	</node>
	<node id="-249196" lat="59.6790611148" lon="10.5073055618">
>>>>>>> e1d4bc35ff8a6074a6f2e91616a996b547c36f15
		<tag k="bridge" v="yes" />
		<tag k="layer" v="1" />
		<tag k="name" v="Kirkevegen" />
		<tag k="ssr:stedsnr" v="289076" />
	</node>
<<<<<<< HEAD
	<node lat="59.587747222082314" lon="10.616019437567905" id="-14967">
		<tag k="fixme" v="verify maritime location" />
		<tag k="mooring" v="yes" />
		<tag k="name" v="Husebystrøa" />
=======
	<node id="-249148" lat="59.8548250041" lon="10.4902194533">
		<tag k="bridge" v="yes" />
		<tag k="layer" v="1" />
		<tag k="name" v="Holmenkrysset" />
		<tag k="ssr:stedsnr" v="471085" />
	</node>
	<node id="-249187" lat="59.5414166645" lon="10.4539611034">
		<tag k="man_made" v="cairn" />
		<tag k="name" v="Varden" />
>>>>>>> e1d4bc35ff8a6074a6f2e91616a996b547c36f15
		<tag k="place" v="locality" />
		<tag k="ssr:stedsnr" v="300326" />
	</node>
<<<<<<< HEAD
	<node lat="59.854825004058796" lon="10.490219453337104" id="-15024">
=======
	<node id="-249147" lat="59.834730557" lon="10.4315861171">
		<tag k="bridge" v="yes" />
		<tag k="layer" v="1" />
		<tag k="name" v="Vanntroa" />
		<tag k="ssr:stedsnr" v="471079" />
	</node>
	<node id="-248943" lat="59.8580805568" lon="10.5187750044">
		<tag k="man_made" v="quay" />
		<tag k="name" v="Søndre brygge" />
		<tag k="place" v="locality" />
		<tag k="ssr:stedsnr" v="265501" />
	</node>
	<node id="-250204" lat="59.8395611141" lon="10.4305305636">
>>>>>>> e1d4bc35ff8a6074a6f2e91616a996b547c36f15
		<tag k="bridge" v="yes" />
		<tag k="layer" v="1" />
		<tag k="name" v="Holmenkrysset" />
		<tag k="ssr:stedsnr" v="471085" />
	</node>
<<<<<<< HEAD
	<node lat="59.83179722256849" lon="10.434113897174354" id="-15025">
=======
	<node id="-250203" lat="59.8328277764" lon="10.421841668">
>>>>>>> e1d4bc35ff8a6074a6f2e91616a996b547c36f15
		<tag k="bridge" v="yes" />
		<tag k="layer" v="1" />
		<tag k="name" v="Asker" />
		<tag k="ssr:stedsnr" v="471092" />
	</node>
<<<<<<< HEAD
	<node lat="59.8342888918176" lon="10.437005561723723" id="-15026">
		<tag k="bridge" v="yes" />
		<tag k="layer" v="1" />
		<tag k="name" v="Asker G/S-kulvert" />
		<tag k="ssr:stedsnr" v="471094" />
	</node>
	<node lat="59.541416664483954" lon="10.453961103391444" id="-15098">
		<tag k="man_made" v="cairn" />
		<tag k="name" v="Varden" />
=======
	<node id="-250681" lat="59.8112527741" lon="10.4496055571">
		<tag k="bridge" v="yes" />
		<tag k="layer" v="1" />
		<tag k="name" v="Bukkemyr" />
		<tag k="ssr:stedsnr" v="592089" />
	</node>
	<node id="-249166" lat="59.5970333373" lon="10.6153833288">
		<tag k="fixme" v="verify maritime location" />
		<tag k="mooring" v="yes" />
		<tag k="name" v="Solbergstøa" />
>>>>>>> e1d4bc35ff8a6074a6f2e91616a996b547c36f15
		<tag k="place" v="locality" />
		<tag k="ssr:stedsnr" v="484082" />
	</node>
	<node lat="59.74550478623773" lon="10.34049636301502" id="-15131">
		<tag k="name" v="Spikkestad stasjon" />
		<tag k="railway" v="station" />
		<tag k="ssr:stedsnr" v="427380" />
		<tag k="train" v="yes" />
	</node>
	<node lat="59.843778464439715" lon="10.45624575986497" id="-15149">
		<tag k="alt_name" v="Høn" />
		<tag k="name" v="Høn holdeplass" />
		<tag k="railway" v="halt" />
		<tag k="ssr:stedsnr" v="490775" />
		<tag k="train" v="yes" />
	</node>
	<node lat="59.820288318806426" lon="10.432995867526499" id="-15153">
		<tag k="alt_name" v="Bondivatn;Bondivann store" />
		<tag k="name" v="Bondivann holdeplass" />
		<tag k="railway" v="halt" />
		<tag k="ssr:stedsnr" v="430718" />
		<tag k="train" v="yes" />
	</node>
<<<<<<< HEAD
	<node lat="59.83473055699282" lon="10.4315861170748" id="-15204">
=======
	<node id="-250679" lat="59.8141527738" lon="10.4783694367">
		<tag k="bridge" v="yes" />
		<tag k="layer" v="1" />
		<tag k="name" v="Sjøvollveien" />
		<tag k="ssr:stedsnr" v="592074" />
	</node>
	<node id="-249156" lat="59.7291555529" lon="10.4313999994">
>>>>>>> e1d4bc35ff8a6074a6f2e91616a996b547c36f15
		<tag k="bridge" v="yes" />
		<tag k="layer" v="1" />
		<tag k="name" v="Vanntroa" />
		<tag k="ssr:stedsnr" v="471079" />
	</node>
<<<<<<< HEAD
	<node lat="59.541452779927965" lon="10.520361106268851" id="-15205">
		<tag k="bridge" v="yes" />
		<tag k="layer" v="1" />
		<tag k="name" v="Sagene" />
		<tag k="ssr:stedsnr" v="471578" />
	</node>
	<node lat="59.75775277516979" lon="10.502836106239299" id="-15206">
=======
	<node id="-249155" lat="59.7577527752" lon="10.5028361062">
		<tag k="bridge" v="yes" />
		<tag k="layer" v="1" />
		<tag k="name" v="Nærnes" />
		<tag k="ssr:stedsnr" v="471913" />
	</node>
	<node id="-249664" lat="59.6374277797" lon="10.5033583247">
		<tag k="highway" v="path" />
		<tag k="name" v="Sandstien" />
		<tag k="ssr:stedsnr" v="723815" />
	</node>
	<node id="-249663" lat="59.7530444459" lon="10.4412138953">
>>>>>>> e1d4bc35ff8a6074a6f2e91616a996b547c36f15
		<tag k="bridge" v="yes" />
		<tag k="layer" v="1" />
		<tag k="name" v="Nærnes" />
		<tag k="ssr:stedsnr" v="471913" />
	</node>
<<<<<<< HEAD
	<node lat="59.72915555287038" lon="10.431399999439083" id="-15207">
=======
	<node id="-249662" lat="59.7703277815" lon="10.4822583346">
>>>>>>> e1d4bc35ff8a6074a6f2e91616a996b547c36f15
		<tag k="bridge" v="yes" />
		<tag k="layer" v="1" />
		<tag k="name" v="Villingstad" />
		<tag k="ssr:stedsnr" v="471921" />
	</node>
	<node lat="59.58286140015862" lon="10.617503585193827" id="-15218">
		<tag k="man_made" v="quay" />
		<tag k="name" v="Halvorshavn" />
		<tag k="place" v="locality" />
		<tag k="ssr:stedsnr" v="488723" />
	</node>
	<node lat="59.6148444436084" lon="10.611063895304204" id="-15265">
		<tag k="fixme" v="verify maritime location" />
		<tag k="mooring" v="yes" />
		<tag k="name" v="Elgtornstøa" />
		<tag k="place" v="locality" />
		<tag k="ssr:stedsnr" v="543310" />
	</node>
<<<<<<< HEAD
	<node lat="59.80720049794456" lon="10.436176648382355" id="-15283">
		<tag k="alt_name" v="Gullhella" />
		<tag k="name" v="Gullhella holdeplass" />
		<tag k="railway" v="halt" />
		<tag k="ssr:stedsnr" v="550697" />
		<tag k="train" v="yes" />
	</node>
	<node lat="59.858974555263345" lon="10.462249215971733" id="-15289">
		<tag k="alt_name" v="Hvalstad" />
		<tag k="name" v="Hvalstad stasjon" />
		<tag k="railway" v="station" />
		<tag k="ssr:stedsnr" v="550793" />
		<tag k="train" v="yes" />
	</node>
	<node lat="59.836383331853135" lon="10.431733329246576" id="-15358">
=======
	<node id="-249661" lat="59.6977194446" lon="10.488663888">
>>>>>>> e1d4bc35ff8a6074a6f2e91616a996b547c36f15
		<tag k="bridge" v="yes" />
		<tag k="layer" v="1" />
		<tag k="name" v="Semsveien" />
		<tag k="ssr:stedsnr" v="592072" />
	</node>
<<<<<<< HEAD
	<node lat="59.81415277383157" lon="10.478369436714011" id="-15359">
=======
	<node id="-249660" lat="59.8012611068" lon="10.4185916587">
>>>>>>> e1d4bc35ff8a6074a6f2e91616a996b547c36f15
		<tag k="bridge" v="yes" />
		<tag k="layer" v="1" />
		<tag k="name" v="Sjøvollveien" />
		<tag k="ssr:stedsnr" v="592074" />
	</node>
<<<<<<< HEAD
	<node lat="59.82894722295971" lon="10.40602777540885" id="-15471">
=======
	<node id="-249659" lat="59.828947223" lon="10.4060277754">
>>>>>>> e1d4bc35ff8a6074a6f2e91616a996b547c36f15
		<tag k="bridge" v="yes" />
		<tag k="layer" v="1" />
		<tag k="name" v="Drengsrud" />
		<tag k="ssr:stedsnr" v="896085" />
	</node>
<<<<<<< HEAD
	<node lat="59.801261106753174" lon="10.418591658664514" id="-15472">
=======
	<node id="-250682" lat="59.6683361129" lon="10.5231805584">
>>>>>>> e1d4bc35ff8a6074a6f2e91616a996b547c36f15
		<tag k="bridge" v="yes" />
		<tag k="layer" v="1" />
		<tag k="name" v="Bråta" />
		<tag k="ssr:stedsnr" v="896086" />
	</node>
<<<<<<< HEAD
	<node lat="59.697719444635375" lon="10.488663887997294" id="-15473">
		<tag k="bridge" v="yes" />
		<tag k="layer" v="1" />
		<tag k="name" v="Sagbakken" />
		<tag k="ssr:stedsnr" v="896933" />
	</node>
	<node lat="59.770327781452465" lon="10.482258334603717" id="-15474">
=======
	<node id="-249657" lat="59.8072027765" lon="10.4856861199">
		<tag k="bridge" v="yes" />
		<tag k="layer" v="1" />
		<tag k="name" v="Vollen" />
		<tag k="ssr:stedsnr" v="896061" />
	</node>
	<node id="-250680" lat="59.8285833306" lon="10.4714083313">
>>>>>>> e1d4bc35ff8a6074a6f2e91616a996b547c36f15
		<tag k="bridge" v="yes" />
		<tag k="layer" v="1" />
		<tag k="name" v="Ødegårdskogen" />
		<tag k="ssr:stedsnr" v="896938" />
	</node>
<<<<<<< HEAD
	<node lat="59.75304444594743" lon="10.441213895315808" id="-15475">
		<tag k="bridge" v="yes" />
		<tag k="layer" v="1" />
		<tag k="name" v="Brynsholmen" />
		<tag k="ssr:stedsnr" v="896946" />
	</node>
	<node lat="59.822302774173245" lon="10.351091663239849" id="-15487">
=======
	<node id="-250167" lat="59.8339416706" lon="10.4352499939">
		<tag k="alt_name" v="Asker" />
		<tag k="name" v="Asker stasjon" />
		<tag k="railway" v="station" />
		<tag k="ssr:stedsnr" v="143659" />
		<tag k="train" v="yes" />
	</node>
	<node id="-250678" lat="59.8363833319" lon="10.4317333292">
>>>>>>> e1d4bc35ff8a6074a6f2e91616a996b547c36f15
		<tag k="bridge" v="yes" />
		<tag k="layer" v="1" />
		<tag k="name" v="Fiskum" />
		<tag k="ssr:stedsnr" v="713074" />
	</node>
<<<<<<< HEAD
	<node lat="59.8358027774701" lon="10.470033335630237" id="-15488">
		<tag k="bridge" v="yes" />
		<tag k="layer" v="1" />
		<tag k="name" v="Leangbukta" />
		<tag k="ssr:stedsnr" v="713081" />
	</node>
	<node lat="59.803558330191095" lon="10.487213897054106" id="-15489">
=======
	<node id="-249658" lat="59.8248055555" lon="10.3679805634">
		<tag k="bridge" v="yes" />
		<tag k="layer" v="1" />
		<tag k="name" v="Vekta" />
		<tag k="ssr:stedsnr" v="896073" />
	</node>
	<node id="-249126" lat="59.5726833292" lon="10.6109138803">
>>>>>>> e1d4bc35ff8a6074a6f2e91616a996b547c36f15
		<tag k="bridge" v="yes" />
		<tag k="layer" v="1" />
		<tag k="name" v="Arnestad" />
		<tag k="ssr:stedsnr" v="713083" />
	</node>
<<<<<<< HEAD
	<node lat="59.73226666552793" lon="10.424863881079462" id="-15490">
=======
	<node id="-249125" lat="59.7762611142" lon="10.4845055639">
>>>>>>> e1d4bc35ff8a6074a6f2e91616a996b547c36f15
		<tag k="bridge" v="yes" />
		<tag k="layer" v="1" />
		<tag k="name" v="Bjørnstaddalen" />
		<tag k="ssr:stedsnr" v="714923" />
	</node>
	<node lat="59.74039166955618" lon="10.37881666649982" id="-15491">
		<tag k="bridge" v="yes" />
		<tag k="layer" v="1" />
		<tag k="name" v="Auvi" />
		<tag k="ssr:stedsnr" v="714925" />
	</node>
<<<<<<< HEAD
	<node lat="59.63742777970933" lon="10.5033583247081" id="-15493">
		<tag k="highway" v="path" />
		<tag k="name" v="Sandstien" />
		<tag k="ssr:stedsnr" v="723815" />
	</node>
	<node lat="59.71483333753661" lon="10.491963880565766" id="-15551">
		<tag k="junction" v="yes" />
		<tag k="name" v="Sundbykrysset" />
=======
	<node id="-250134" lat="59.6429249982" lon="10.6055083277">
		<tag k="man_made" v="quay" />
		<tag k="name" v="Storsand brygge" />
>>>>>>> e1d4bc35ff8a6074a6f2e91616a996b547c36f15
		<tag k="place" v="locality" />
		<tag k="ssr:stedsnr" v="754952" />
	</node>
<<<<<<< HEAD
	<node lat="59.78215278158431" lon="10.331969447382246" id="-15645">
		<tag k="ford" v="yes" />
		<tag k="name" v="Sørumvadet" />
		<tag k="place" v="locality" />
		<tag k="ssr:stedsnr" v="815249" />
	</node>
	<node lat="59.74669444073369" lon="10.38981388943338" id="-15654">
		<tag k="name" v="Røyken stasjon" />
=======
	<node id="-250131" lat="59.8750108235" lon="10.4839291444">
		<tag k="alt_name" v="Billingstad" />
		<tag k="name" v="Billingstad stasjon" />
>>>>>>> e1d4bc35ff8a6074a6f2e91616a996b547c36f15
		<tag k="railway" v="station" />
		<tag k="ssr:stedsnr" v="816384" />
		<tag k="train" v="yes" />
	</node>
<<<<<<< HEAD
	<node lat="59.71550278162398" lon="10.347252781828944" id="-15669">
		<tag k="bridge" v="yes" />
		<tag k="layer" v="1" />
		<tag k="name" v="Hyggen" />
		<tag k="ssr:stedsnr" v="835935" />
	</node>
	<node lat="59.68282500241174" lon="10.530063891613608" id="-15674">
		<tag k="man_made" v="quay" />
		<tag k="name" v="Sætre brygge" />
		<tag k="place" v="locality" />
		<tag k="ssr:stedsnr" v="848327" />
	</node>
	<node lat="59.68129166574383" lon="10.52738333584547" id="-15677">
		<tag k="junction" v="yes" />
		<tag k="name" v="Sætrekrysset" />
=======
	<node id="-249145" lat="59.5311722181" lon="10.4135055578">
		<tag k="man_made" v="quay" />
		<tag k="name" v="Rødtangen" />
		<tag k="place" v="locality" />
		<tag k="ssr:stedsnr" v="302152" />
	</node>
	<node id="-249047" lat="59.6649139472" lon="10.5362796668">
		<tag k="layer" v="-1" />
		<tag k="name" v="Stampeleinås" />
		<tag k="ssr:stedsnr" v="287743" />
		<tag k="tunnel" v="yes" />
	</node>
	<node id="-249086" lat="59.6519833374" lon="10.6028888824">
		<tag k="fixme" v="verify maritime location" />
		<tag k="mooring" v="yes" />
		<tag k="name" v="Orestøa" />
>>>>>>> e1d4bc35ff8a6074a6f2e91616a996b547c36f15
		<tag k="place" v="locality" />
		<tag k="ssr:stedsnr" v="926789" />
	</node>
<<<<<<< HEAD
	<node lat="59.56054444210625" lon="10.426436110802515" id="-15723">
		<tag k="leisure" v="marina" />
		<tag k="name" v="Holmsbu brygge" />
		<tag k="ssr:stedsnr" v="888123" />
	</node>
	<node lat="59.8072027764752" lon="10.485686119932117" id="-15734">
=======
	<node id="-249084" lat="59.6138555522" lon="10.6111222239">
		<tag k="fixme" v="verify maritime location" />
		<tag k="mooring" v="yes" />
		<tag k="name" v="Eltornstøa" />
		<tag k="place" v="locality" />
		<tag k="ssr:stedsnr" v="449897" />
	</node>
	<node id="-250105" lat="59.5704638906" lon="10.5943666655">
		<tag k="bridge" v="yes" />
		<tag k="layer" v="1" />
		<tag k="name" v="Kapellbakken" />
		<tag k="ssr:stedsnr" v="107941" />
	</node>
	<node id="-250104" lat="59.833563891" lon="10.4257249974">
>>>>>>> e1d4bc35ff8a6074a6f2e91616a996b547c36f15
		<tag k="bridge" v="yes" />
		<tag k="layer" v="1" />
		<tag k="name" v="Vollen" />
		<tag k="ssr:stedsnr" v="896061" />
	</node>
<<<<<<< HEAD
	<node lat="59.8248055555326" lon="10.367980563405652" id="-15735">
		<tag k="bridge" v="yes" />
		<tag k="layer" v="1" />
		<tag k="name" v="Vekta" />
		<tag k="ssr:stedsnr" v="896073" />
	</node>
	<node lat="59.68720000223551" lon="10.524383339989349" id="-15741">
		<tag k="fixme" v="verify maritime location" />
		<tag k="mooring" v="yes" />
		<tag k="name" v="Støa" />
		<tag k="place" v="locality" />
		<tag k="ssr:stedsnr" v="908326" />
	</node>
	<node lat="59.793069444894165" lon="10.486100001644388" id="-15790">
=======
	<node id="-250103" lat="59.8522194411" lon="10.4787749931">
		<tag k="bridge" v="yes" />
		<tag k="layer" v="1" />
		<tag k="name" v="Ålerud" />
		<tag k="ssr:stedsnr" v="107059" />
	</node>
	<node id="-250614" lat="59.8589745553" lon="10.462249216">
		<tag k="alt_name" v="Hvalstad" />
		<tag k="name" v="Hvalstad stasjon" />
		<tag k="railway" v="station" />
		<tag k="ssr:stedsnr" v="550793" />
		<tag k="train" v="yes" />
	</node>
	<node id="-250607" lat="59.8072004979" lon="10.4361766484">
		<tag k="alt_name" v="Gullhella" />
		<tag k="name" v="Gullhella holdeplass" />
		<tag k="railway" v="halt" />
		<tag k="ssr:stedsnr" v="550697" />
		<tag k="train" v="yes" />
	</node>
	<node id="-250604" lat="59.7868577995" lon="10.4308952408">
		<tag k="alt_name" v="Heggedal" />
		<tag k="name" v="Heggedal stasjon" />
		<tag k="railway" v="station" />
		<tag k="ssr:stedsnr" v="550641" />
		<tag k="train" v="yes" />
	</node>
	<node id="-249054" lat="59.6407583301" lon="10.517400007">
		<tag k="highway" v="path" />
		<tag k="name" v="Sandstien" />
		<tag k="ssr:stedsnr" v="298834" />
	</node>
	<node id="-249048" lat="59.8362333355" lon="10.4318611043">
>>>>>>> e1d4bc35ff8a6074a6f2e91616a996b547c36f15
		<tag k="bridge" v="yes" />
		<tag k="layer" v="1" />
		<tag k="name" v="Bjerkås" />
		<tag k="ssr:stedsnr" v="956103" />
	</node>
<<<<<<< HEAD
	<node lat="59.711005590463465" lon="10.352629644860025" id="-15809">
=======
	<node id="-251095" lat="59.7110055905" lon="10.3526296449">
>>>>>>> e1d4bc35ff8a6074a6f2e91616a996b547c36f15
		<tag k="man_made" v="quay" />
		<tag k="name" v="Folakroken kai" />
		<tag k="place" v="locality" />
		<tag k="ssr:stedsnr" v="986975" />
	</node>
<<<<<<< HEAD
	<node lat="59.84996417420892" lon="10.467300847719653" id="-15823">
		<tag k="alt_name" v="Vakås" />
		<tag k="name" v="Vakås stasjon" />
		<tag k="railway" v="station" />
		<tag k="ssr:stedsnr" v="4791" />
		<tag k="train" v="yes" />
	</node>
	<node lat="59.72347778012163" lon="10.51909721794279" id="-15855">
		<tag k="man_made" v="quay" />
		<tag k="name" v="Høvik brygge" />
		<tag k="place" v="locality" />
		<tag k="ssr:stedsnr" v="26938" />
	</node>
	<node lat="59.72694166611604" lon="10.456955553304066" id="-15867">
=======
	<node id="-249557" lat="59.5414166709" lon="10.5203583297">
		<tag k="bridge" v="yes" />
		<tag k="layer" v="1" />
		<tag k="name" v="Hyttefoss" />
		<tag k="ssr:stedsnr" v="726659" />
	</node>
	<node id="-249037" lat="59.5879416645" lon="10.4489194392">
		<tag k="man_made" v="cairn" />
		<tag k="name" v="Steinvarden" />
		<tag k="place" v="locality" />
		<tag k="ssr:stedsnr" v="285478" />
	</node>
	<node id="-251082" lat="59.6126295867" lon="10.4128532361">
		<tag k="amenity" v="ferry_terminal" />
		<tag k="name" v="Verket ferjekai" />
		<tag k="ssr:stedsnr" v="978665" />
	</node>
	<node id="-250569" lat="59.8324055553" lon="10.4203638918">
		<tag k="bridge" v="yes" />
		<tag k="layer" v="1" />
		<tag k="name" v="Oreholtet" />
		<tag k="ssr:stedsnr" v="531066" />
	</node>
	<node id="-250053" lat="59.8629791975" lon="10.5555727298">
		<tag k="man_made" v="quay" />
		<tag k="name" v="Østre brygge" />
		<tag k="place" v="locality" />
		<tag k="ssr:stedsnr" v="83283" />
	</node>
	<node id="-250050" lat="59.5877472221" lon="10.6160194376">
		<tag k="fixme" v="verify maritime location" />
		<tag k="mooring" v="yes" />
		<tag k="name" v="Husebystrøa" />
		<tag k="place" v="locality" />
		<tag k="ssr:stedsnr" v="300326" />
	</node>
	<node id="-249142" lat="59.653250003" lon="10.4420472138">
		<tag k="fixme" v="consider highway=path" />
		<tag k="highway" v="track" />
		<tag k="name" v="Sagveien" />
		<tag k="ssr:stedsnr" v="300308" />
	</node>
	<node id="-249530" lat="59.7403916696" lon="10.3788166665">
		<tag k="bridge" v="yes" />
		<tag k="layer" v="1" />
		<tag k="name" v="Auvi" />
		<tag k="ssr:stedsnr" v="714925" />
	</node>
	<node id="-249529" lat="59.7322666655" lon="10.4248638811">
		<tag k="bridge" v="yes" />
		<tag k="layer" v="1" />
		<tag k="name" v="Bjørnstaddalen" />
		<tag k="ssr:stedsnr" v="714923" />
	</node>
	<node id="-249528" lat="59.73641667" lon="10.4167611173">
>>>>>>> e1d4bc35ff8a6074a6f2e91616a996b547c36f15
		<tag k="bridge" v="yes" />
		<tag k="layer" v="1" />
		<tag k="name" v="Vear" />
		<tag k="ssr:stedsnr" v="46930" />
	</node>
<<<<<<< HEAD
	<node lat="59.74048055920047" lon="10.419819436659877" id="-15868">
=======
	<node id="-249526" lat="59.8035583302" lon="10.4872138971">
>>>>>>> e1d4bc35ff8a6074a6f2e91616a996b547c36f15
		<tag k="bridge" v="yes" />
		<tag k="layer" v="1" />
		<tag k="name" v="Bjørnstad" />
		<tag k="ssr:stedsnr" v="46935" />
	</node>
<<<<<<< HEAD
	<node lat="59.833013886203304" lon="10.43939721939636" id="-15877">
=======
	<node id="-249525" lat="59.8358027775" lon="10.4700333356">
>>>>>>> e1d4bc35ff8a6074a6f2e91616a996b547c36f15
		<tag k="bridge" v="yes" />
		<tag k="layer" v="1" />
		<tag k="name" v="Bleikervegen" />
		<tag k="ssr:stedsnr" v="46098" />
	</node>
<<<<<<< HEAD
	<node lat="59.664311108329336" lon="10.56477777424527" id="-15878">
=======
	<node id="-249524" lat="59.8223027742" lon="10.3510916632">
>>>>>>> e1d4bc35ff8a6074a6f2e91616a996b547c36f15
		<tag k="bridge" v="yes" />
		<tag k="layer" v="1" />
		<tag k="name" v="Verpenbrua" />
		<tag k="ssr:stedsnr" v="46626" />
	</node>
<<<<<<< HEAD
	<node lat="59.85221944112365" lon="10.47877499308985" id="-15954">
=======
	<node id="-251057" lat="59.6126971504" lon="10.4129275016">
>>>>>>> e1d4bc35ff8a6074a6f2e91616a996b547c36f15
		<tag k="bridge" v="yes" />
		<tag k="layer" v="1" />
		<tag k="name" v="Ålerud" />
		<tag k="ssr:stedsnr" v="107059" />
	</node>
<<<<<<< HEAD
	<node lat="59.83356389103181" lon="10.425724997402275" id="-15955">
=======
	<node id="-251056" lat="59.7930694449" lon="10.4861000016">
>>>>>>> e1d4bc35ff8a6074a6f2e91616a996b547c36f15
		<tag k="bridge" v="yes" />
		<tag k="layer" v="1" />
		<tag k="name" v="Hagaløkka" />
		<tag k="ssr:stedsnr" v="107067" />
	</node>
<<<<<<< HEAD
	<node lat="59.57046389059687" lon="10.594366665517336" id="-15956">
=======
	<node id="-251055" lat="59.83860833" lon="10.4763527769">
>>>>>>> e1d4bc35ff8a6074a6f2e91616a996b547c36f15
		<tag k="bridge" v="yes" />
		<tag k="layer" v="1" />
		<tag k="name" v="Kapellbakken" />
		<tag k="ssr:stedsnr" v="107941" />
	</node>
<<<<<<< HEAD
	<node lat="59.87501082346562" lon="10.483929144407345" id="-15968">
		<tag k="alt_name" v="Billingstad" />
		<tag k="name" v="Billingstad stasjon" />
		<tag k="railway" v="station" />
		<tag k="ssr:stedsnr" v="124795" />
		<tag k="train" v="yes" />
	</node>
	<node lat="59.642924998247835" lon="10.605508327736272" id="-15971">
=======
	<node id="-251054" lat="59.8328361107" lon="10.4218416665">
		<tag k="bridge" v="yes" />
		<tag k="layer" v="1" />
		<tag k="name" v="Drengsrudbekken" />
		<tag k="ssr:stedsnr" v="956093" />
	</node>
	<node id="-250537" lat="59.7491861097" lon="10.5129444417">
>>>>>>> e1d4bc35ff8a6074a6f2e91616a996b547c36f15
		<tag k="man_made" v="quay" />
		<tag k="name" v="Storsand brygge" />
		<tag k="place" v="locality" />
<<<<<<< HEAD
		<tag k="ssr:stedsnr" v="124820" />
	</node>
	<node lat="59.83394167063423" lon="10.435249993919191" id="-15991">
		<tag k="alt_name" v="Asker" />
		<tag k="name" v="Asker stasjon" />
=======
		<tag k="ssr:stedsnr" v="428939" />
	</node>
	<node id="-250527" lat="59.7455047862" lon="10.340496363">
		<tag k="name" v="Spikkestad stasjon" />
>>>>>>> e1d4bc35ff8a6074a6f2e91616a996b547c36f15
		<tag k="railway" v="station" />
		<tag k="ssr:stedsnr" v="143659" />
		<tag k="train" v="yes" />
	</node>
<<<<<<< HEAD
	<node lat="59.832827776435316" lon="10.421841668019876" id="-16024">
		<tag k="bridge" v="yes" />
		<tag k="layer" v="1" />
		<tag k="name" v="Oreholt øst" />
		<tag k="ssr:stedsnr" v="167071" />
	</node>
	<node lat="59.83956111411723" lon="10.43053056360413" id="-16025">
		<tag k="bridge" v="yes" />
		<tag k="layer" v="1" />
		<tag k="name" v="Rabbe" />
		<tag k="ssr:stedsnr" v="167073" />
	</node>
	<node lat="59.67624670149962" lon="10.521635821173556" id="-16026">
=======
	<node id="-250521" lat="59.5365722182" lon="10.5436777771">
		<tag k="leisure" v="marina" />
		<tag k="name" v="Sagene båthavn" />
		<tag k="ssr:stedsnr" v="423666" />
	</node>
	<node id="-250514" lat="59.6548361091" lon="10.4397194455">
		<tag k="highway" v="path" />
		<tag k="name" v="Fiskestien" />
		<tag k="ssr:stedsnr" v="422275" />
	</node>
	<node id="-249998" lat="59.7404805592" lon="10.4198194367">
>>>>>>> e1d4bc35ff8a6074a6f2e91616a996b547c36f15
		<tag k="bridge" v="yes" />
		<tag k="layer" v="1" />
		<tag k="name" v="Slingrebekk" />
		<tag k="ssr:stedsnr" v="168554" />
	</node>
<<<<<<< HEAD
	<node lat="59.74117500066434" lon="10.422044451938236" id="-16097">
		<tag k="junction" v="yes" />
		<tag k="name" v="Rognliveien" />
		<tag k="place" v="locality" />
		<tag k="ssr:stedsnr" v="209565" />
	</node>
	<node lat="59.81906389305526" lon="10.46450556410754" id="-16114">
=======
	<node id="-249997" lat="59.7269416661" lon="10.4569555533">
>>>>>>> e1d4bc35ff8a6074a6f2e91616a996b547c36f15
		<tag k="bridge" v="yes" />
		<tag k="layer" v="1" />
		<tag k="name" v="Åby" />
		<tag k="ssr:stedsnr" v="228072" />
	</node>
<<<<<<< HEAD
	<node lat="59.833050001043624" lon="10.431066665639735" id="-16115">
=======
	<node id="-249996" lat="59.6643111083" lon="10.5647777742">
>>>>>>> e1d4bc35ff8a6074a6f2e91616a996b547c36f15
		<tag k="bridge" v="yes" />
		<tag k="layer" v="1" />
		<tag k="name" v="Lenken" />
		<tag k="ssr:stedsnr" v="228078" />
	</node>
<<<<<<< HEAD
	<node lat="59.82484722614543" lon="10.378336116731832" id="-16116">
=======
	<node id="-249995" lat="59.8330138862" lon="10.4393972194">
>>>>>>> e1d4bc35ff8a6074a6f2e91616a996b547c36f15
		<tag k="bridge" v="yes" />
		<tag k="layer" v="1" />
		<tag k="name" v="Liahagen" />
		<tag k="ssr:stedsnr" v="228080" />
	</node>
	<node lat="59.58794166449643" lon="10.448919439226751" id="-16129">
		<tag k="man_made" v="cairn" />
		<tag k="name" v="Steinvarden" />
		<tag k="place" v="locality" />
		<tag k="ssr:stedsnr" v="285478" />
	</node>
<<<<<<< HEAD
	<node lat="59.77626111417495" lon="10.484505563940052" id="-16134">
=======
	<node id="-249994" lat="59.8516444426" lon="10.4216666673">
>>>>>>> e1d4bc35ff8a6074a6f2e91616a996b547c36f15
		<tag k="bridge" v="yes" />
		<tag k="layer" v="1" />
		<tag k="name" v="Bøbekken" />
		<tag k="ssr:stedsnr" v="289953" />
	</node>
<<<<<<< HEAD
	<node lat="59.57268332924414" lon="10.61091388028206" id="-16135">
=======
	<node id="-250505" lat="59.724430552" lon="10.3188500039">
>>>>>>> e1d4bc35ff8a6074a6f2e91616a996b547c36f15
		<tag k="bridge" v="yes" />
		<tag k="layer" v="1" />
		<tag k="name" v="Filtvedt" />
		<tag k="ssr:stedsnr" v="289956" />
	</node>
<<<<<<< HEAD
	<node lat="59.64075833011672" lon="10.517400007024122" id="-16136">
		<tag k="highway" v="path" />
		<tag k="name" v="Sandstien" />
		<tag k="ssr:stedsnr" v="298834" />
	</node>
	<node lat="59.653250002981636" lon="10.44204721381488" id="-16141">
		<tag k="fixme" v="consider highway=path" />
		<tag k="highway" v="track" />
		<tag k="name" v="Sagveien" />
		<tag k="ssr:stedsnr" v="300308" />
	</node>
	<node lat="59.53117221806666" lon="10.413505557842823" id="-16150">
		<tag k="man_made" v="quay" />
		<tag k="name" v="Rødtangen" />
		<tag k="place" v="locality" />
		<tag k="ssr:stedsnr" v="302152" />
	</node>
	<node lat="59.59703333730246" lon="10.61538332875223" id="-16193">
		<tag k="fixme" v="verify maritime location" />
		<tag k="mooring" v="yes" />
		<tag k="name" v="Solbergstøa" />
		<tag k="place" v="locality" />
		<tag k="ssr:stedsnr" v="328917" />
	</node>
	<node lat="59.825572222315216" lon="10.384416674550696" id="-16217">
=======
	<node id="-250504" lat="59.8578527766" lon="10.4773472173">
>>>>>>> e1d4bc35ff8a6074a6f2e91616a996b547c36f15
		<tag k="bridge" v="yes" />
		<tag k="layer" v="1" />
		<tag k="name" v="Skansenhagen" />
		<tag k="ssr:stedsnr" v="349095" />
	</node>
<<<<<<< HEAD
	<node lat="59.6790611147718" lon="10.507305561845106" id="-16218">
=======
	<node id="-250503" lat="59.7879222255" lon="10.4342888842">
>>>>>>> e1d4bc35ff8a6074a6f2e91616a996b547c36f15
		<tag k="bridge" v="yes" />
		<tag k="layer" v="1" />
		<tag k="name" v="Skatvedt" />
		<tag k="ssr:stedsnr" v="349627" />
	</node>
	<node lat="59.542947225424314" lon="10.564238884889747" id="-16242">
		<tag k="leisure" v="marina" />
		<tag k="name" v="Tofte båthavn" />
		<tag k="ssr:stedsnr" v="362626" />
	</node>
<<<<<<< HEAD
	<node lat="59.76305555868226" lon="10.509300005891031" id="-16282">
		<tag k="man_made" v="quay" />
		<tag k="name" v="Nærsnes brygge" />
		<tag k="place" v="locality" />
		<tag k="ssr:stedsnr" v="391349" />
	</node>
	<node lat="59.82381111261235" lon="10.46659166758538" id="-16298">
=======
	<node id="-250502" lat="59.8273444406" lon="10.4369055604">
>>>>>>> e1d4bc35ff8a6074a6f2e91616a996b547c36f15
		<tag k="bridge" v="yes" />
		<tag k="layer" v="1" />
		<tag k="name" v="Vettrelia" />
		<tag k="ssr:stedsnr" v="410057" />
	</node>
<<<<<<< HEAD
	<node lat="59.82184167073534" lon="10.38752222164782" id="-16299">
=======
	<node id="-250501" lat="59.8218416707" lon="10.3875222216">
>>>>>>> e1d4bc35ff8a6074a6f2e91616a996b547c36f15
		<tag k="bridge" v="yes" />
		<tag k="layer" v="1" />
		<tag k="name" v="Trollstua" />
		<tag k="ssr:stedsnr" v="410076" />
	</node>
<<<<<<< HEAD
	<node lat="59.82734444057284" lon="10.436905560445679" id="-16300">
=======
	<node id="-250500" lat="59.8238111126" lon="10.4665916676">
>>>>>>> e1d4bc35ff8a6074a6f2e91616a996b547c36f15
		<tag k="bridge" v="yes" />
		<tag k="layer" v="1" />
		<tag k="name" v="Fredtun" />
		<tag k="ssr:stedsnr" v="410079" />
	</node>
<<<<<<< HEAD
	<node lat="59.78792222546302" lon="10.434288884212055" id="-16301">
		<tag k="bridge" v="yes" />
		<tag k="layer" v="1" />
		<tag k="name" v="Gjellumvannet" />
		<tag k="ssr:stedsnr" v="410082" />
	</node>
	<node lat="59.85785277657695" lon="10.47734721734858" id="-16302">
		<tag k="bridge" v="yes" />
		<tag k="layer" v="1" />
		<tag k="name" v="Hvalstad" />
		<tag k="ssr:stedsnr" v="410085" />
	</node>
	<node lat="59.72443055198941" lon="10.31885000389621" id="-16303">
=======
	<node id="-248957" lat="59.8762805551" lon="10.5000222287">
		<tag k="junction" v="yes" />
		<tag k="name" v="Marienlyst" />
		<tag k="place" v="locality" />
		<tag k="ssr:stedsnr" v="265569" />
	</node>
	<node id="-248954" lat="59.8660861075" lon="10.4904166714">
>>>>>>> e1d4bc35ff8a6074a6f2e91616a996b547c36f15
		<tag k="bridge" v="yes" />
		<tag k="layer" v="1" />
		<tag k="name" v="Lahell" />
		<tag k="ssr:stedsnr" v="410926" />
	</node>
<<<<<<< HEAD
	<node lat="59.654836109051644" lon="10.439719445465856" id="-16315">
		<tag k="highway" v="path" />
		<tag k="name" v="Fiskestien" />
		<tag k="ssr:stedsnr" v="422275" />
	</node>
	<node lat="59.53657221815664" lon="10.54367777707404" id="-16319">
		<tag k="leisure" v="marina" />
		<tag k="name" v="Sagene båthavn" />
		<tag k="ssr:stedsnr" v="423666" />
	</node>
	<node lat="59.74918610969299" lon="10.51294444167841" id="-16330">
		<tag k="man_made" v="quay" />
		<tag k="name" v="Svaberg" />
=======
	<node id="-249462" lat="59.6148444436" lon="10.6110638953">
		<tag k="fixme" v="verify maritime location" />
		<tag k="mooring" v="yes" />
		<tag k="name" v="Elgtornstøa" />
>>>>>>> e1d4bc35ff8a6074a6f2e91616a996b547c36f15
		<tag k="place" v="locality" />
		<tag k="ssr:stedsnr" v="428939" />
	</node>
<<<<<<< HEAD
	<node lat="59.838694445373385" lon="10.477052773831534" id="-16359">
=======
	<node id="-250997" lat="59.6828250024" lon="10.5300638916">
>>>>>>> e1d4bc35ff8a6074a6f2e91616a996b547c36f15
		<tag k="man_made" v="quay" />
		<tag k="name" v="Leangen brygge" />
		<tag k="place" v="locality" />
		<tag k="ssr:stedsnr" v="508669" />
	</node>
<<<<<<< HEAD
	<node lat="59.859183334200225" lon="10.528547221182956" id="-16363">
=======
	<node id="-250484" lat="59.7630555587" lon="10.5093000059">
>>>>>>> e1d4bc35ff8a6074a6f2e91616a996b547c36f15
		<tag k="man_made" v="quay" />
		<tag k="name" v="Vestre brygge" />
		<tag k="place" v="locality" />
		<tag k="ssr:stedsnr" v="508536" />
	</node>
<<<<<<< HEAD
	<node lat="59.83240555528733" lon="10.420363891837466" id="-16398">
=======
	<node id="-250991" lat="59.7155027816" lon="10.3472527818">
>>>>>>> e1d4bc35ff8a6074a6f2e91616a996b547c36f15
		<tag k="bridge" v="yes" />
		<tag k="layer" v="1" />
		<tag k="name" v="Oreholtet" />
		<tag k="ssr:stedsnr" v="531066" />
	</node>
<<<<<<< HEAD
	<node lat="59.78685779949301" lon="10.430895240839044" id="-16418">
		<tag k="alt_name" v="Heggedal" />
		<tag k="name" v="Heggedal stasjon" />
		<tag k="railway" v="station" />
		<tag k="ssr:stedsnr" v="550641" />
		<tag k="train" v="yes" />
	</node>
	<node lat="59.82858333062997" lon="10.471408331262339" id="-16460">
=======
	<node id="-250990" lat="59.8100777763" lon="10.3666000013">
>>>>>>> e1d4bc35ff8a6074a6f2e91616a996b547c36f15
		<tag k="bridge" v="yes" />
		<tag k="layer" v="1" />
		<tag k="name" v="Konglungen" />
		<tag k="ssr:stedsnr" v="592080" />
	</node>
<<<<<<< HEAD
	<node lat="59.81125277408192" lon="10.44960555710803" id="-16461">
=======
	<node id="-250989" lat="59.8404111132" lon="10.455325003">
>>>>>>> e1d4bc35ff8a6074a6f2e91616a996b547c36f15
		<tag k="bridge" v="yes" />
		<tag k="layer" v="1" />
		<tag k="name" v="Bukkemyr" />
		<tag k="ssr:stedsnr" v="592089" />
	</node>
<<<<<<< HEAD
	<node lat="59.66833611289758" lon="10.523180558423144" id="-16462">
		<tag k="bridge" v="yes" />
		<tag k="layer" v="1" />
		<tag k="name" v="Sætreelva" />
		<tag k="ssr:stedsnr" v="592615" />
	</node>
	<node lat="59.645588890373006" lon="10.603505547904327" id="-16516">
		<tag k="fixme" v="verify maritime location" />
		<tag k="mooring" v="yes" />
		<tag k="name" v="Sundbystøa" />
		<tag k="place" v="locality" />
		<tag k="ssr:stedsnr" v="631900" />
	</node>
	<node lat="59.56796277413134" lon="10.61138739553338" id="-16548">
		<tag k="man_made" v="breakwater" />
		<tag k="name" v="Filtvet molo" />
		<tag k="place" v="locality" />
		<tag k="ssr:stedsnr" v="664278" />
	</node>
	<node lat="59.57413610860325" lon="10.617863882488201" id="-16549">
=======
	<node id="-250988" lat="59.849202776" lon="10.4906944477">
		<tag k="bridge" v="yes" />
		<tag k="layer" v="1" />
		<tag k="name" v="Syverstad" />
		<tag k="ssr:stedsnr" v="835073" />
	</node>
	<node id="-250982" lat="59.6023111074" lon="10.5133250011">
		<tag k="fixme" v="verify maritime location" />
		<tag k="mooring" v="yes" />
		<tag k="name" v="Pramsted" />
		<tag k="place" v="locality" />
		<tag k="ssr:stedsnr" v="831592" />
	</node>
	<node id="-250951" lat="59.7466944407" lon="10.3898138894">
		<tag k="name" v="Røyken stasjon" />
		<tag k="railway" v="station" />
		<tag k="ssr:stedsnr" v="816384" />
		<tag k="train" v="yes" />
	</node>
	<node id="-249924" lat="59.8499641742" lon="10.4673008477">
		<tag k="alt_name" v="Vakås" />
		<tag k="name" v="Vakås stasjon" />
		<tag k="railway" v="station" />
		<tag k="ssr:stedsnr" v="4791" />
		<tag k="train" v="yes" />
	</node>
	<node id="-250945" lat="59.7821527816" lon="10.3319694474">
		<tag k="ford" v="yes" />
		<tag k="name" v="Sørumvadet" />
		<tag k="place" v="locality" />
		<tag k="ssr:stedsnr" v="815249" />
	</node>
	<node id="-249097" lat="59.7829499972" lon="10.5009638864">
		<tag k="man_made" v="quay" />
		<tag k="name" v="Slemmestad brygge" />
		<tag k="place" v="locality" />
		<tag k="ssr:stedsnr" v="452845" />
	</node>
	<node id="-250412" lat="59.8255722223" lon="10.3844166746">
		<tag k="bridge" v="yes" />
		<tag k="layer" v="1" />
		<tag k="name" v="Skansenhagen" />
		<tag k="ssr:stedsnr" v="349095" />
	</node>
	<node id="-250918" lat="59.8670444468" lon="10.5478500088">
		<tag k="man_made" v="quay" />
		<tag k="name" v="Nordre brygge" />
		<tag k="place" v="locality" />
		<tag k="ssr:stedsnr" v="811262" />
	</node>
	<node id="-248853" lat="59.5381930282" lon="10.5510011858">
		<tag k="man_made" v="quay" />
		<tag k="name" v="Tofte brygge" />
		<tag k="place" v="locality" />
		<tag k="ssr:stedsnr" v="240634" />
	</node>
	<node id="-249006" lat="59.6764305535" lon="10.5216361121">
		<tag k="bridge" v="yes" />
		<tag k="layer" v="1" />
		<tag k="name" v="Slingrebekk" />
		<tag k="ssr:stedsnr" v="168554" />
	</node>
	<node id="-249350" lat="59.5741361086" lon="10.6178638825">
>>>>>>> e1d4bc35ff8a6074a6f2e91616a996b547c36f15
		<tag k="man_made" v="quay" />
		<tag k="name" v="Filtvet brygge" />
		<tag k="place" v="locality" />
		<tag k="ssr:stedsnr" v="664279" />
	</node>
<<<<<<< HEAD
	<node lat="59.736416669951936" lon="10.416761117335431" id="-16560">
=======
	<node id="-249349" lat="59.5679627741" lon="10.6113873955">
		<tag k="man_made" v="breakwater" />
		<tag k="name" v="Filtvet molo" />
		<tag k="place" v="locality" />
		<tag k="ssr:stedsnr" v="664278" />
	</node>
	<node id="-248833" lat="59.6958722191" lon="10.4945361033">
>>>>>>> e1d4bc35ff8a6074a6f2e91616a996b547c36f15
		<tag k="bridge" v="yes" />
		<tag k="layer" v="1" />
		<tag k="name" v="Midtbygda" />
		<tag k="ssr:stedsnr" v="714908" />
	</node>
<<<<<<< HEAD
	<node lat="59.541416670913165" lon="10.520358329705058" id="-16573">
		<tag k="bridge" v="yes" />
		<tag k="layer" v="1" />
		<tag k="name" v="Hyttefoss" />
		<tag k="ssr:stedsnr" v="726659" />
	</node>
	<node lat="59.842105558823796" lon="10.481774992745317" id="-16637">
		<tag k="bridge" v="yes" />
		<tag k="layer" v="1" />
		<tag k="name" v="Hval" />
		<tag k="ssr:stedsnr" v="774092" />
	</node>
	<node lat="59.800063891773604" lon="10.487599999133364" id="-16638">
		<tag k="bridge" v="yes" />
		<tag k="layer" v="1" />
		<tag k="name" v="Håkavik" />
		<tag k="ssr:stedsnr" v="774093" />
	</node>
	<node lat="59.840774995599084" lon="10.456472219270776" id="-16639">
		<tag k="bridge" v="yes" />
		<tag k="layer" v="1" />
		<tag k="name" v="Høn" />
		<tag k="ssr:stedsnr" v="774096" />
	</node>
	<node lat="59.742363889022975" lon="10.378900000158545" id="-16640">
		<tag k="bridge" v="yes" />
		<tag k="layer" v="1" />
		<tag k="name" v="Grini" />
		<tag k="ssr:stedsnr" v="774930" />
	</node>
	<node lat="59.607011115279185" lon="10.611788885569814" id="-16641">
		<tag k="bridge" v="yes" />
		<tag k="layer" v="1" />
		<tag k="name" v="Elton" />
		<tag k="ssr:stedsnr" v="774937" />
	</node>
	<node lat="59.86704444675056" lon="10.547850008831723" id="-16686">
		<tag k="man_made" v="quay" />
		<tag k="name" v="Nordre brygge" />
		<tag k="place" v="locality" />
		<tag k="ssr:stedsnr" v="811262" />
	</node>
	<node lat="59.6023111073763" lon="10.513325001070237" id="-16730">
		<tag k="fixme" v="verify maritime location" />
		<tag k="mooring" v="yes" />
		<tag k="name" v="Pramsted" />
		<tag k="place" v="locality" />
		<tag k="ssr:stedsnr" v="831592" />
	</node>
	<node lat="59.81007777629323" lon="10.36660000128097" id="-16735">
		<tag k="bridge" v="yes" />
		<tag k="layer" v="1" />
		<tag k="name" v="Fløyta" />
		<tag k="ssr:stedsnr" v="835078" />
	</node>
	<node lat="59.849202775979215" lon="10.490694447681312" id="-16736">
		<tag k="bridge" v="yes" />
		<tag k="layer" v="1" />
		<tag k="name" v="Syverstad" />
		<tag k="ssr:stedsnr" v="835073" />
	</node>
	<node lat="59.84041111318968" lon="10.455325003010065" id="-16737">
		<tag k="bridge" v="yes" />
		<tag k="layer" v="1" />
		<tag k="name" v="Undelstadlia" />
		<tag k="ssr:stedsnr" v="835074" />
	</node>
	<node lat="59.83283611068952" lon="10.421841666489478" id="-16833">
		<tag k="bridge" v="yes" />
		<tag k="layer" v="1" />
		<tag k="name" v="Drengsrudbekken" />
		<tag k="ssr:stedsnr" v="956093" />
	</node>
	<node lat="59.83860833003519" lon="10.476352776906806" id="-16834">
		<tag k="bridge" v="yes" />
		<tag k="layer" v="1" />
		<tag k="name" v="Leangen" />
		<tag k="ssr:stedsnr" v="956099" />
	</node>
	<node lat="59.61269715038403" lon="10.41292750157508" id="-16835">
		<tag k="bridge" v="yes" />
		<tag k="layer" v="1" />
		<tag k="name" v="Verketsrenna bru" />
		<tag k="ssr:stedsnr" v="957546" />
	</node>
	<node lat="59.6126295867008" lon="10.412853236127164" id="-16858">
		<tag k="amenity" v="ferry_terminal" />
		<tag k="name" v="Verket ferjekai" />
		<tag k="ssr:stedsnr" v="978665" />
	</node>
=======
>>>>>>> e1d4bc35ff8a6074a6f2e91616a996b547c36f15
</osm>
