<?xml version="1.0" encoding="UTF-8"?>
<osm generator="osmapis" version="0.6">
	<node id="-249842" lat="59.6665638855" lon="10.4431500038">
		<tag k="name" v="Romslia" />
		<tag k="natural" v="slope" />
		<tag k="place" v="locality" />
		<tag k="ssr:stedsnr" v="950268" />
	</node>
	<node id="-249828" lat="59.8578277817" lon="10.3507027751">
		<tag k="fixme" v="consider natural=peak for the most distinct mountains in the district" />
		<tag k="name" v="Kariåsen" />
		<tag k="natural" v="hill" />
		<tag k="place" v="locality" />
		<tag k="ssr:stedsnr" v="854789" />
	</node>
	<node id="-249816" lat="59.7177861151" lon="10.4086722184">
		<tag k="fixme" v="consider natural=peak for the most distinct mountains in the district" />
		<tag k="name" v="Villingstadåsen" />
		<tag k="natural" v="hill" />
		<tag k="place" v="locality" />
		<tag k="ssr:stedsnr" v="853760" />
	</node>
	<node id="-249813" lat="59.6791611086" lon="10.4539222307">
		<tag k="name" v="Grauteruddalen" />
		<tag k="natural" v="valley" />
		<tag k="place" v="locality" />
		<tag k="ssr:stedsnr" v="853858" />
	</node>
	<node id="-249801" lat="59.7261194425" lon="10.3855055544">
		<tag k="name" v="Mastedalen" />
		<tag k="natural" v="valley" />
		<tag k="place" v="locality" />
		<tag k="ssr:stedsnr" v="937570" />
	</node>
	<node id="-249800" lat="59.7021305528" lon="10.461252777">
		<tag k="fixme" v="consider natural=peak for the most distinct mountains in the district" />
		<tag k="name" v="Røysåsen" />
		<tag k="natural" v="hill" />
		<tag k="place" v="locality" />
		<tag k="ssr:stedsnr" v="936959" />
	</node>
	<node id="-249797" lat="59.7879305588" lon="10.3372111105">
		<tag k="fixme" v="consider natural=peak for the most distinct mountains in the district" />
		<tag k="name" v="Vikervollåsen" />
		<tag k="natural" v="hill" />
		<tag k="place" v="locality" />
		<tag k="ssr:stedsnr" v="936251" />
	</node>
	<node id="-249791" lat="59.8369611134" lon="10.4286999981">
		<tag k="name" v="Askerbrubakken" />
		<tag k="natural" v="slope" />
		<tag k="place" v="locality" />
		<tag k="ssr:stedsnr" v="933681" />
	</node>
	<node id="-249783" lat="59.8747083328" lon="10.4939611127">
		<tag k="name" v="Billingstadsletta" />
		<tag k="place" v="locality" />
		<tag k="ssr:stedsnr" v="933589" />
	</node>
	<node id="-249777" lat="59.7841972181" lon="10.4708472216">
		<tag k="fixme" v="consider natural=peak for the most distinct mountains in the district" />
		<tag k="name" v="Torpfjellet" />
		<tag k="natural" v="hill" />
		<tag k="place" v="locality" />
		<tag k="ssr:stedsnr" v="932699" />
	</node>
	<node id="-249775" lat="59.8500638933" lon="10.3654999945">
		<tag k="name" v="Brudetrappa" />
		<tag k="natural" v="slope" />
		<tag k="place" v="locality" />
		<tag k="ssr:stedsnr" v="932674" />
	</node>
	<node id="-249774" lat="59.8531333332" lon="10.3723000072">
		<tag k="name" v="Lensmannsdalen" />
		<tag k="natural" v="valley" />
		<tag k="place" v="locality" />
		<tag k="ssr:stedsnr" v="932673" />
	</node>
	<node id="-249764" lat="59.6998333322" lon="10.4816055553">
		<tag k="name" v="Kølabonn" />
		<tag k="natural" v="valley" />
		<tag k="place" v="locality" />
		<tag k="ssr:stedsnr" v="815972" />
	</node>
	<node id="-249749" lat="59.6433722203" lon="10.4593250054">
		<tag k="alt_name" v="Røysås" />
		<tag k="fixme" v="consider natural=peak for the most distinct mountains in the district" />
		<tag k="name" v="Røysåsen" />
		<tag k="natural" v="hill" />
		<tag k="place" v="locality" />
		<tag k="ssr:stedsnr" v="792821" />
	</node>
	<node id="-249745" lat="59.5470000026" lon="10.5028666719">
		<tag k="fixme" v="consider natural=peak for the most distinct mountains in the district" />
		<tag k="name" v="Marikollen" />
		<tag k="natural" v="hill" />
		<tag k="place" v="locality" />
		<tag k="ssr:stedsnr" v="792529" />
	</node>
	<node id="-249742" lat="59.6846333348" lon="10.4437250055">
		<tag k="fixme" v="consider natural=peak for the most distinct mountains in the district" />
		<tag k="name" v="Kringlefjell" />
		<tag k="natural" v="hill" />
		<tag k="place" v="locality" />
		<tag k="ssr:stedsnr" v="791766" />
	</node>
	<node id="-248811" lat="59.5666222206" lon="10.5508583382">
		<tag k="fixme" v="consider natural=peak for the most distinct mountains in the district" />
		<tag k="name" v="Drammensåsen" />
		<tag k="natural" v="hill" />
		<tag k="place" v="locality" />
		<tag k="ssr:stedsnr" v="222682" />
	</node>
	<node id="-249722" lat="59.5853500039" lon="10.456758327">
		<tag k="name" v="Svartvannsdalen" />
		<tag k="natural" v="valley" />
		<tag k="place" v="locality" />
		<tag k="ssr:stedsnr" v="770461" />
	</node>
	<node id="-249720" lat="59.5470916686" lon="10.4670999918">
		<tag k="name" v="Eneråsen" />
		<tag k="natural" v="hill" />
		<tag k="place" v="locality" />
		<tag k="ssr:stedsnr" v="769131" />
	</node>
	<node id="-249718" lat="59.5545999993" lon="10.5581111098">
		<tag k="fixme" v="consider natural=peak for the most distinct mountains in the district" />
		<tag k="name" v="Raumyrfjell" />
		<tag k="natural" v="hill" />
		<tag k="place" v="locality" />
		<tag k="ssr:stedsnr" v="768712" />
	</node>
	<node id="-249709" lat="59.5854555554" lon="10.5975583321">
		<tag k="fixme" v="consider natural=peak for the most distinct mountains in the district" />
		<tag k="name" v="Husebykollen" />
		<tag k="natural" v="hill" />
		<tag k="place" v="locality" />
		<tag k="ssr:stedsnr" v="913709" />
	</node>
	<node id="-249697" lat="59.5417694413" lon="10.4376694419">
		<tag k="fixme" v="consider natural=peak for the most distinct mountains in the district" />
		<tag k="name" v="Kølåsen" />
		<tag k="natural" v="hill" />
		<tag k="place" v="locality" />
		<tag k="ssr:stedsnr" v="909111" />
	</node>
	<node id="-249694" lat="59.7075722249" lon="10.5180416584">
		<tag k="fixme" v="consider natural=peak for the most distinct mountains in the district" />
		<tag k="name" v="Tivoliåsen" />
		<tag k="natural" v="hill" />
		<tag k="place" v="locality" />
		<tag k="ssr:stedsnr" v="908768" />
	</node>
	<node id="-249693" lat="59.628555558" lon="10.5646916642">
		<tag k="fixme" v="consider natural=peak for the most distinct mountains in the district" />
		<tag k="name" v="Nilsåsen" />
		<tag k="natural" v="hill" />
		<tag k="place" v="locality" />
		<tag k="ssr:stedsnr" v="908646" />
	</node>
	<node id="-249692" lat="59.67542778" lon="10.5071027728">
		<tag k="name" v="Kalvetjernskleiva" />
		<tag k="natural" v="slope" />
		<tag k="place" v="locality" />
		<tag k="ssr:stedsnr" v="908353" />
	</node>
	<node id="-249667" lat="59.5547027792" lon="10.4865944445">
		<tag k="fixme" v="consider natural=peak for the most distinct mountains in the district" />
		<tag k="name" v="Nordengkollen" />
		<tag k="natural" v="hill" />
		<tag k="place" v="locality" />
		<tag k="ssr:stedsnr" v="725236" />
	</node>
	<node id="-249653" lat="59.6071555566" lon="10.5046111025">
		<tag k="fixme" v="consider natural=peak for the most distinct mountains in the district" />
		<tag k="name" v="Bramskollen" />
		<tag k="natural" v="hill" />
		<tag k="place" v="locality" />
		<tag k="ssr:stedsnr" v="892620" />
	</node>
	<node id="-249651" lat="59.5857027788" lon="10.5214361031">
		<tag k="fixme" v="consider natural=peak for the most distinct mountains in the district" />
		<tag k="name" v="Nordveståsen" />
		<tag k="natural" v="hill" />
		<tag k="place" v="locality" />
		<tag k="ssr:stedsnr" v="891673" />
	</node>
	<node id="-249648" lat="59.5375027754" lon="10.4764472133">
		<tag k="fixme" v="consider natural=peak for the most distinct mountains in the district" />
		<tag k="name" v="Bråtaåsen" />
		<tag k="natural" v="hill" />
		<tag k="place" v="locality" />
		<tag k="ssr:stedsnr" v="891149" />
	</node>
	<node id="-249642" lat="59.7103305521" lon="10.417961103">
		<tag k="fixme" v="consider natural=peak for the most distinct mountains in the district" />
		<tag k="name" v="Brentås" />
		<tag k="natural" v="hill" />
		<tag k="place" v="locality" />
		<tag k="ssr:stedsnr" v="694957" />
	</node>
	<node id="-249641" lat="59.7535750039" lon="10.4100250069">
		<tag k="fixme" v="consider natural=peak for the most distinct mountains in the district" />
		<tag k="name" v="Vangsåsen" />
		<tag k="natural" v="hill" />
		<tag k="place" v="locality" />
		<tag k="ssr:stedsnr" v="694363" />
	</node>
	<node id="-249638" lat="59.5634416671" lon="10.4415666596">
		<tag k="name" v="Skytterhavna" />
		<tag k="natural" v="slope" />
		<tag k="place" v="locality" />
		<tag k="ssr:stedsnr" v="889195" />
	</node>
	<node id="-249628" lat="59.5489388849" lon="10.4602111188">
		<tag k="name" v="Jenseleina" />
		<tag k="natural" v="slope" />
		<tag k="place" v="locality" />
		<tag k="ssr:stedsnr" v="666111" />
	</node>
	<node id="-249627" lat="59.5226638867" lon="10.4344166661">
		<tag k="fixme" v="consider natural=peak for the most distinct mountains in the district" />
		<tag k="name" v="Solfjell" />
		<tag k="natural" v="hill" />
		<tag k="place" v="locality" />
		<tag k="ssr:stedsnr" v="878101" />
	</node>
	<node id="-249618" lat="59.7166361156" lon="10.3440000003">
		<tag k="name" v="Ugledalen" />
		<tag k="natural" v="valley" />
		<tag k="place" v="locality" />
		<tag k="ssr:stedsnr" v="876803" />
	</node>
	<node id="-249615" lat="59.7640027777" lon="10.3701222235">
		<tag k="name" v="Svartedike" />
		<tag k="natural" v="valley" />
		<tag k="place" v="locality" />
		<tag k="ssr:stedsnr" v="876319" />
	</node>
	<node id="-249610" lat="59.5797333332" lon="10.529558332">
		<tag k="fixme" v="consider natural=peak for the most distinct mountains in the district" />
		<tag k="name" v="Kjelleråsen" />
		<tag k="natural" v="hill" />
		<tag k="place" v="locality" />
		<tag k="ssr:stedsnr" v="648656" />
	</node>
	<node id="-249608" lat="59.5699888854" lon="10.5319138904">
		<tag k="fixme" v="consider natural=peak for the most distinct mountains in the district" />
		<tag k="name" v="Svenskeåsen" />
		<tag k="natural" v="hill" />
		<tag k="place" v="locality" />
		<tag k="ssr:stedsnr" v="647705" />
	</node>
	<node id="-249588" lat="59.7097638915" lon="10.4066499916">
		<tag k="fixme" v="consider natural=peak for the most distinct mountains in the district" />
		<tag k="name" v="Herstadheia" />
		<tag k="natural" v="hill" />
		<tag k="place" v="locality" />
		<tag k="ssr:stedsnr" v="731791" />
	</node>
	<node id="-249583" lat="59.5629250038" lon="10.4756444359">
		<tag k="fixme" v="consider natural=peak for the most distinct mountains in the district" />
		<tag k="name" v="Graveråsen" />
		<tag k="natural" v="hill" />
		<tag k="place" v="locality" />
		<tag k="ssr:stedsnr" v="731672" />
	</node>
	<node id="-249579" lat="59.7174055572" lon="10.3419083301">
		<tag k="fixme" v="consider natural=peak for the most distinct mountains in the district" />
		<tag k="name" v="Kolåsen" />
		<tag k="natural" v="hill" />
		<tag k="place" v="locality" />
		<tag k="ssr:stedsnr" v="731229" />
	</node>
	<node id="-249578" lat="59.7660305579" lon="10.316622228">
		<tag k="fixme" v="consider natural=peak for the most distinct mountains in the district" />
		<tag k="name" v="Bølstadåsen" />
		<tag k="natural" v="hill" />
		<tag k="place" v="locality" />
		<tag k="ssr:stedsnr" v="731148" />
	</node>
	<node id="-249573" lat="59.6828555522" lon="10.4738805534">
		<tag k="name" v="Bjørvannsdalen" />
		<tag k="natural" v="valley" />
		<tag k="place" v="locality" />
		<tag k="ssr:stedsnr" v="632769" />
	</node>
	<node id="-249564" lat="59.8641222234" lon="10.4576777831">
		<tag k="name" v="Furubakken" />
		<tag k="natural" v="slope" />
		<tag k="place" v="locality" />
		<tag k="ssr:stedsnr" v="629527" />
	</node>
	<node id="-249563" lat="59.8666888918" lon="10.4580694503">
		<tag k="name" v="Solstadlia" />
		<tag k="natural" v="slope" />
		<tag k="place" v="locality" />
		<tag k="ssr:stedsnr" v="629520" />
	</node>
	<node id="-249559" lat="59.5256916628" lon="10.4651638833">
		<tag k="name" v="Delsvikleina" />
		<tag k="natural" v="slope" />
		<tag k="place" v="locality" />
		<tag k="ssr:stedsnr" v="727077" />
	</node>
	<node id="-249555" lat="59.6287000034" lon="10.5546611104">
		<tag k="fixme" v="consider natural=peak for the most distinct mountains in the district" />
		<tag k="name" v="Eikhaugene" />
		<tag k="natural" v="hill" />
		<tag k="place" v="locality" />
		<tag k="ssr:stedsnr" v="726640" />
	</node>
	<node id="-249549" lat="59.6492944474" lon="10.4856500082">
		<tag k="fixme" v="consider natural=peak for the most distinct mountains in the district" />
		<tag k="name" v="Djupebuktåsen" />
		<tag k="natural" v="hill" />
		<tag k="place" v="locality" />
		<tag k="ssr:stedsnr" v="725288" />
	</node>
	<node id="-249546" lat="59.6521805552" lon="10.4598861038">
		<tag k="fixme" v="consider natural=peak for the most distinct mountains in the district" />
		<tag k="name" v="Høgås" />
		<tag k="natural" v="hill" />
		<tag k="place" v="locality" />
		<tag k="ssr:stedsnr" v="725256" />
	</node>
	<node id="-249536" lat="59.7432944443" lon="10.452588884">
		<tag k="fixme" v="consider natural=peak for the most distinct mountains in the district" />
		<tag k="name" v="Gunnerudåsen" />
		<tag k="natural" v="hill" />
		<tag k="place" v="locality" />
		<tag k="ssr:stedsnr" v="609969" />
	</node>
	<node id="-249533" lat="59.6593249976" lon="10.5750527721">
		<tag k="fixme" v="consider natural=peak for the most distinct mountains in the district" />
		<tag k="name" v="Pinakollen" />
		<tag k="natural" v="hill" />
		<tag k="place" v="locality" />
		<tag k="ssr:stedsnr" v="605360" />
	</node>
	<node id="-249532" lat="59.6187444431" lon="10.5610444484">
		<tag k="name" v="Husebyvannsdalen" />
		<tag k="natural" v="valley" />
		<tag k="place" v="locality" />
		<tag k="ssr:stedsnr" v="604633" />
	</node>
	<node id="-249523" lat="59.5961277781" lon="10.5414472224">
		<tag k="fixme" v="consider natural=peak for the most distinct mountains in the district" />
		<tag k="name" v="Røsvannsåsen" />
		<tag k="natural" v="hill" />
		<tag k="place" v="locality" />
		<tag k="ssr:stedsnr" v="588748" />
	</node>
	<node id="-249521" lat="59.5916305598" lon="10.4694666752">
		<tag k="fixme" v="consider natural=peak for the most distinct mountains in the district" />
		<tag k="name" v="Tveitaåsen" />
		<tag k="natural" v="hill" />
		<tag k="place" v="locality" />
		<tag k="ssr:stedsnr" v="588475" />
	</node>
	<node id="-249520" lat="59.5851527744" lon="10.4639583308">
		<tag k="name" v="Hølåsdalen" />
		<tag k="natural" v="valley" />
		<tag k="place" v="locality" />
		<tag k="ssr:stedsnr" v="588474" />
	</node>
	<node id="-249519" lat="59.5916250031" lon="10.4730249915">
		<tag k="alt_name" v="Tveita søndre" />
		<tag k="fixme" v="consider natural=peak for the most distinct mountains in the district" />
		<tag k="name" v="Søndre Tveita" />
		<tag k="natural" v="hill" />
		<tag k="place" v="locality" />
		<tag k="ssr:stedsnr" v="588470" />
	</node>
	<node id="-249517" lat="59.5912555574" lon="10.4939305518">
		<tag k="fixme" v="consider natural=peak for the most distinct mountains in the district" />
		<tag k="name" v="Kleivenåsen" />
		<tag k="natural" v="hill" />
		<tag k="place" v="locality" />
		<tag k="ssr:stedsnr" v="587700" />
	</node>
	<node id="-249513" lat="59.6764305596" lon="10.5483305486">
		<tag k="fixme" v="consider natural=peak for the most distinct mountains in the district" />
		<tag k="name" v="Engenekollen" />
		<tag k="natural" v="hill" />
		<tag k="place" v="locality" />
		<tag k="ssr:stedsnr" v="585261" />
	</node>
	<node id="-249506" lat="59.5882805578" lon="10.5290805568">
		<tag k="fixme" v="consider natural=peak for the most distinct mountains in the district" />
		<tag k="name" v="Matheaås" />
		<tag k="natural" v="hill" />
		<tag k="place" v="locality" />
		<tag k="ssr:stedsnr" v="709642" />
	</node>
	<node id="-249504" lat="59.5911472185" lon="10.5989638943">
		<tag k="fixme" v="consider natural=peak for the most distinct mountains in the district" />
		<tag k="name" v="Sanderåsen" />
		<tag k="natural" v="hill" />
		<tag k="place" v="locality" />
		<tag k="ssr:stedsnr" v="709629" />
	</node>
	<node id="-249503" lat="59.5745027805" lon="10.4491749999">
		<tag k="fixme" v="consider natural=peak for the most distinct mountains in the district" />
		<tag k="name" v="Stallåsen" />
		<tag k="natural" v="hill" />
		<tag k="place" v="locality" />
		<tag k="ssr:stedsnr" v="709489" />
	</node>
	<node id="-249502" lat="59.5396138868" lon="10.4889361035">
		<tag k="name" v="Kjosåsen" />
		<tag k="natural" v="hill" />
		<tag k="place" v="locality" />
		<tag k="ssr:stedsnr" v="709137" />
	</node>
	<node id="-249496" lat="59.5714500033" lon="10.5557555616">
		<tag k="name" v="Marismo" />
		<tag k="place" v="locality" />
		<tag k="ssr:stedsnr" v="708674" />
	</node>
	<node id="-249492" lat="59.5585805546" lon="10.5087277779">
		<tag k="name" v="Sagholen" />
		<tag k="natural" v="hill" />
		<tag k="place" v="locality" />
		<tag k="ssr:stedsnr" v="708593" />
	</node>
	<node id="-249490" lat="59.5664083295" lon="10.5894888835">
		<tag k="name" v="Brastad" />
		<tag k="place" v="locality" />
		<tag k="ssr:stedsnr" v="707677" />
	</node>
	<node id="-249488" lat="59.6064583307" lon="10.4909722203">
		<tag k="fixme" v="consider natural=peak for the most distinct mountains in the district" />
		<tag k="name" v="Dalenåsen" />
		<tag k="natural" v="hill" />
		<tag k="place" v="locality" />
		<tag k="ssr:stedsnr" v="707559" />
	</node>
	<node id="-249483" lat="59.6833444425" lon="10.5084527862">
		<tag k="fixme" v="consider natural=peak for the most distinct mountains in the district" />
		<tag k="name" v="Vesle Lauvåsen" />
		<tag k="natural" v="hill" />
		<tag k="place" v="locality" />
		<tag k="ssr:stedsnr" v="706783" />
	</node>
	<node id="-249480" lat="59.5586805512" lon="10.426233326">
		<tag k="name" v="Hansåsen" />
		<tag k="natural" v="hill" />
		<tag k="place" v="locality" />
		<tag k="ssr:stedsnr" v="706129" />
	</node>
	<node id="-249473" lat="59.5541194421" lon="10.4309055567">
		<tag k="alt_name" v="Bråten" />
		<tag k="fixme" v="consider natural=peak for the most distinct mountains in the district" />
		<tag k="name" v="Bråtan" />
		<tag k="natural" v="hill" />
		<tag k="place" v="locality" />
		<tag k="ssr:stedsnr" v="695087" />
	</node>
	<node id="-249464" lat="59.5333833355" lon="10.4317583421">
		<tag k="fixme" v="consider natural=peak for the most distinct mountains in the district" />
		<tag k="name" v="Storleinåsen" />
		<tag k="natural" v="hill" />
		<tag k="place" v="locality" />
		<tag k="ssr:stedsnr" v="544112" />
	</node>
	<node id="-249458" lat="59.8135722242" lon="10.4555305508">
		<tag k="fixme" v="consider natural=peak for the most distinct mountains in the district" />
		<tag k="name" v="Maihaugen" />
		<tag k="natural" v="hill" />
		<tag k="place" v="locality" />
		<tag k="ssr:stedsnr" v="690623" />
	</node>
	<node id="-249457" lat="59.816158334" lon="10.4387388833">
		<tag k="name" v="Granerudbakken" />
		<tag k="natural" v="slope" />
		<tag k="place" v="locality" />
		<tag k="ssr:stedsnr" v="690617" />
	</node>
	<node id="-249456" lat="59.8224694434" lon="10.4467611143">
		<tag k="name" v="Myrabakken" />
		<tag k="natural" v="slope" />
		<tag k="place" v="locality" />
		<tag k="ssr:stedsnr" v="690612" />
	</node>
	<node id="-249455" lat="59.8234527785" lon="10.4675916748">
		<tag k="name" v="Aspelund" />
		<tag k="place" v="locality" />
		<tag k="ssr:stedsnr" v="690610" />
	</node>
	<node id="-249453" lat="59.7978472265" lon="10.4979083352">
		<tag k="name" v="Havneåsfjellet" />
		<tag k="natural" v="hill" />
		<tag k="place" v="locality" />
		<tag k="ssr:stedsnr" v="690576" />
	</node>
	<node id="-249450" lat="59.8642250001" lon="10.4518944482">
		<tag k="name" v="Lindleina" />
		<tag k="natural" v="slope" />
		<tag k="place" v="locality" />
		<tag k="ssr:stedsnr" v="690560" />
	</node>
	<node id="-249447" lat="59.867438886" lon="10.4069416676">
		<tag k="name" v="Finnebråtekleiva" />
		<tag k="natural" v="slope" />
		<tag k="place" v="locality" />
		<tag k="ssr:stedsnr" v="690551" />
	</node>
	<node id="-249445" lat="59.8673138851" lon="10.5164138815">
		<tag k="fixme" v="consider natural=peak for the most distinct mountains in the district" />
		<tag k="name" v="Tverråsen" />
		<tag k="natural" v="hill" />
		<tag k="place" v="locality" />
		<tag k="ssr:stedsnr" v="690533" />
	</node>
	<node id="-249438" lat="59.8399000009" lon="10.345116665">
		<tag k="name" v="Sleppen" />
		<tag k="place" v="locality" />
		<tag k="ssr:stedsnr" v="689667" />
	</node>
	<node id="-249433" lat="59.8509250044" lon="10.3891305476">
		<tag k="name" v="Bjønnhølet" />
		<tag k="natural" v="valley" />
		<tag k="place" v="locality" />
		<tag k="ssr:stedsnr" v="689588" />
	</node>
	<node id="-249432" lat="59.8470361083" lon="10.3779666741">
		<tag k="name" v="Olledalen" />
		<tag k="natural" v="valley" />
		<tag k="place" v="locality" />
		<tag k="ssr:stedsnr" v="689584" />
	</node>
	<node id="-249431" lat="59.8505861076" lon="10.3994638856">
		<tag k="name" v="Semskollen" />
		<tag k="natural" v="hill" />
		<tag k="place" v="locality" />
		<tag k="ssr:stedsnr" v="689238" />
	</node>
	<node id="-249429" lat="59.5913805562" lon="10.5698194492">
		<tag k="name" v="Eikskogen" />
		<tag k="place" v="locality" />
		<tag k="ssr:stedsnr" v="527637" />
	</node>
	<node id="-249414" lat="59.7852777783" lon="10.3902777848">
		<tag k="fixme" v="consider natural=peak for the most distinct mountains in the district" />
		<tag k="name" v="Brennåsen" />
		<tag k="natural" v="hill" />
		<tag k="place" v="locality" />
		<tag k="ssr:stedsnr" v="510527" />
	</node>
	<node id="-249413" lat="59.8353416646" lon="10.4271444479">
		<tag k="name" v="Føyka" />
		<tag k="natural" v="slope" />
		<tag k="place" v="locality" />
		<tag k="ssr:stedsnr" v="508660" />
	</node>
	<node id="-249373" lat="59.5826666627" lon="10.567075006">
		<tag k="fixme" v="consider natural=peak for the most distinct mountains in the district" />
		<tag k="name" v="Siljukollen" />
		<tag k="natural" v="hill" />
		<tag k="place" v="locality" />
		<tag k="ssr:stedsnr" v="670715" />
	</node>
	<node id="-249370" lat="59.6030555567" lon="10.5601916684">
		<tag k="name" v="Husebytangen" />
		<tag k="natural" v="hill" />
		<tag k="place" v="locality" />
		<tag k="ssr:stedsnr" v="467759" />
	</node>
	<node id="-249369" lat="59.6032722229" lon="10.5365111194">
		<tag k="fixme" v="consider natural=peak for the most distinct mountains in the district" />
		<tag k="name" v="Rødvannsåsen" />
		<tag k="natural" v="hill" />
		<tag k="place" v="locality" />
		<tag k="ssr:stedsnr" v="467752" />
	</node>
	<node id="-249365" lat="59.6931444439" lon="10.5097999953">
		<tag k="name" v="Bestonkollen" />
		<tag k="natural" v="hill" />
		<tag k="place" v="locality" />
		<tag k="ssr:stedsnr" v="464777" />
	</node>
	<node id="-249360" lat="59.6689750016" lon="10.5028361143">
		<tag k="name" v="Bjørvannshagan" />
		<tag k="natural" v="slope" />
		<tag k="place" v="locality" />
		<tag k="ssr:stedsnr" v="665362" />
	</node>
	<node id="-249353" lat="59.6520583293" lon="10.4529972183">
		<tag k="name" v="Råleina" />
		<tag k="natural" v="slope" />
		<tag k="place" v="locality" />
		<tag k="ssr:stedsnr" v="664239" />
	</node>
	<node id="-249351" lat="59.5575527799" lon="10.4712888956">
		<tag k="name" v="Skaholtet" />
		<tag k="place" v="locality" />
		<tag k="ssr:stedsnr" v="664179" />
	</node>
	<node id="-249345" lat="59.7226055596" lon="10.4855277821">
		<tag k="name" v="Røykedalen" />
		<tag k="natural" v="valley" />
		<tag k="place" v="locality" />
		<tag k="ssr:stedsnr" v="451925" />
	</node>
	<node id="-249344" lat="59.7180750038" lon="10.3480000049">
		<tag k="name" v="Ovnerudfloget" />
		<tag k="natural" v="cliff" />
		<tag k="ssr:stedsnr" v="451809" />
	</node>
	<node id="-249343" lat="59.7177999988" lon="10.3931416595">
		<tag k="name" v="Slåttemyrdalen" />
		<tag k="natural" v="valley" />
		<tag k="place" v="locality" />
		<tag k="ssr:stedsnr" v="451808" />
	</node>
	<node id="-249332" lat="59.7785694409" lon="10.4358916594">
		<tag k="name" v="Grodalen" />
		<tag k="natural" v="valley" />
		<tag k="place" v="locality" />
		<tag k="ssr:stedsnr" v="447617" />
	</node>
	<node id="-249321" lat="59.8712916649" lon="10.4501666644">
		<tag k="fixme" v="consider natural=peak for the most distinct mountains in the district" />
		<tag k="name" v="Grosetkollen" />
		<tag k="natural" v="hill" />
		<tag k="place" v="locality" />
		<tag k="ssr:stedsnr" v="428824" />
	</node>
	<node id="-249319" lat="59.7063500016" lon="10.4317833293">
		<tag k="alt_name" v="Bjønnmyråsen" />
		<tag k="fixme" v="consider natural=peak for the most distinct mountains in the district" />
		<tag k="name" v="Bjørnmyråsen" />
		<tag k="natural" v="hill" />
		<tag k="place" v="locality" />
		<tag k="ssr:stedsnr" v="428809" />
	</node>
	<node id="-249310" lat="59.6917472204" lon="10.4726444475">
		<tag k="name" v="Smedmyrdalen" />
		<tag k="natural" v="valley" />
		<tag k="place" v="locality" />
		<tag k="ssr:stedsnr" v="511956" />
	</node>
	<node id="-249308" lat="59.7095138847" lon="10.399138885">
		<tag k="name" v="Fuglemyrdalen" />
		<tag k="natural" v="valley" />
		<tag k="place" v="locality" />
		<tag k="ssr:stedsnr" v="511950" />
	</node>
	<node id="-249307" lat="59.7025111127" lon="10.4024027708">
		<tag k="fixme" v="consider natural=peak for the most distinct mountains in the district" />
		<tag k="name" v="Geitmyråsen" />
		<tag k="natural" v="hill" />
		<tag k="place" v="locality" />
		<tag k="ssr:stedsnr" v="511771" />
	</node>
	<node id="-249304" lat="59.7334305541" lon="10.3727555482">
		<tag k="fixme" v="consider natural=peak for the most distinct mountains in the district" />
		<tag k="name" v="Kalvåsen" />
		<tag k="natural" v="hill" />
		<tag k="place" v="locality" />
		<tag k="ssr:stedsnr" v="511408" />
	</node>
	<node id="-249295" lat="59.8317055585" lon="10.396100008">
		<tag k="name" v="Limomnroa" />
		<tag k="place" v="locality" />
		<tag k="ssr:stedsnr" v="508664" />
	</node>
	<node id="-249292" lat="59.6165555532" lon="10.5967861049">
		<tag k="fixme" v="consider natural=peak for the most distinct mountains in the district" />
		<tag k="name" v="Brønnsåsen" />
		<tag k="natural" v="hill" />
		<tag k="place" v="locality" />
		<tag k="ssr:stedsnr" v="406720" />
	</node>
	<node id="-249289" lat="59.863241668" lon="10.4537944522">
		<tag k="name" v="Rugbråtesletta" />
		<tag k="place" v="locality" />
		<tag k="ssr:stedsnr" v="508554" />
	</node>
	<node id="-249288" lat="59.858286112" lon="10.4360777831">
		<tag k="name" v="Svartdalen" />
		<tag k="natural" v="valley" />
		<tag k="place" v="locality" />
		<tag k="ssr:stedsnr" v="508548" />
	</node>
	<node id="-249284" lat="59.8559308254" lon="10.3821605896">
		<tag k="fixme" v="consider natural=peak for the most distinct mountains in the district" />
		<tag k="name" v="Bergsåsen" />
		<tag k="natural" v="hill" />
		<tag k="place" v="locality" />
		<tag k="ssr:stedsnr" v="508375" />
	</node>
	<node id="-249283" lat="59.5592250013" lon="10.5671527719">
		<tag k="fixme" v="consider natural=peak for the most distinct mountains in the district" />
		<tag k="name" v="Kulaåsen" />
		<tag k="natural" v="hill" />
		<tag k="place" v="locality" />
		<tag k="ssr:stedsnr" v="404656" />
	</node>
	<node id="-249282" lat="59.8483333308" lon="10.3802194362">
		<tag k="loc_name" v="Skåbakke" />
		<tag k="name" v="Skovbakke" />
		<tag k="natural" v="slope" />
		<tag k="place" v="locality" />
		<tag k="ssr:stedsnr" v="507630" />
	</node>
	<node id="-249267" lat="59.7031166682" lon="10.4608888974">
		<tag k="fixme" v="consider natural=peak for the most distinct mountains in the district" />
		<tag k="name" v="Røysåsen" />
		<tag k="natural" v="hill" />
		<tag k="place" v="locality" />
		<tag k="ssr:stedsnr" v="390890" />
	</node>
	<node id="-249265" lat="59.7711722184" lon="10.3621777863">
		<tag k="fixme" v="consider natural=peak for the most distinct mountains in the district" />
		<tag k="name" v="Skjæråsen" />
		<tag k="natural" v="hill" />
		<tag k="place" v="locality" />
		<tag k="ssr:stedsnr" v="390352" />
	</node>
	<node id="-249254" lat="59.8187222201" lon="10.4536361135">
		<tag k="name" v="Vabråten" />
		<tag k="place" v="locality" />
		<tag k="ssr:stedsnr" v="386557" />
	</node>
	<node id="-249253" lat="59.8210500035" lon="10.4514250049">
		<tag k="fixme" v="consider natural=peak for the most distinct mountains in the district" />
		<tag k="name" v="Kjøiaåsen" />
		<tag k="natural" v="hill" />
		<tag k="place" v="locality" />
		<tag k="ssr:stedsnr" v="386553" />
	</node>
	<node id="-249249" lat="59.6210555566" lon="10.4578805514">
		<tag k="alt_name" v="Bråtekollen" />
		<tag k="name" v="Bråtakollen" />
		<tag k="natural" v="hill" />
		<tag k="place" v="locality" />
		<tag k="ssr:stedsnr" v="362558" />
	</node>
	<node id="-249245" lat="59.6334638859" lon="10.5520805558">
		<tag k="fixme" v="consider natural=peak for the most distinct mountains in the district" />
		<tag k="name" v="Kjelleråsen" />
		<tag k="natural" v="hill" />
		<tag k="place" v="locality" />
		<tag k="ssr:stedsnr" v="362616" />
	</node>
	<node id="-249242" lat="59.6541166677" lon="10.4463249932">
		<tag k="name" v="Flaubekkjuvet" />
		<tag k="natural" v="slope" />
		<tag k="place" v="locality" />
		<tag k="ssr:stedsnr" v="361307" />
	</node>
	<node id="-249241" lat="59.6666972182" lon="10.489969438">
		<tag k="fixme" v="consider natural=peak for the most distinct mountains in the district" />
		<tag k="name" v="Rokkemyråsen" />
		<tag k="natural" v="hill" />
		<tag k="place" v="locality" />
		<tag k="ssr:stedsnr" v="358864" />
	</node>
	<node id="-249223" lat="59.6526972262" lon="10.5418055485">
		<tag k="fixme" v="consider natural=peak for the most distinct mountains in the district" />
		<tag k="name" v="Midtskogåsen" />
		<tag k="natural" v="hill" />
		<tag k="place" v="locality" />
		<tag k="ssr:stedsnr" v="489835" />
	</node>
	<node id="-249220" lat="59.6603944485" lon="10.5825750063">
		<tag k="fixme" v="consider natural=peak for the most distinct mountains in the district" />
		<tag k="name" v="Lagåsen" />
		<tag k="natural" v="hill" />
		<tag k="place" v="locality" />
		<tag k="ssr:stedsnr" v="489822" />
	</node>
	<node id="-249207" lat="59.7307555576" lon="10.3979916703">
		<tag k="fixme" v="consider natural=peak for the most distinct mountains in the district" />
		<tag k="name" v="Storåsen" />
		<tag k="natural" v="hill" />
		<tag k="place" v="locality" />
		<tag k="ssr:stedsnr" v="488955" />
	</node>
	<node id="-249198" lat="59.7188305567" lon="10.3273250013">
		<tag k="fixme" v="consider natural=peak for the most distinct mountains in the district" />
		<tag k="name" v="Kaståsen" />
		<tag k="natural" v="hill" />
		<tag k="place" v="locality" />
		<tag k="ssr:stedsnr" v="488237" />
	</node>
	<node id="-249197" lat="59.7209222208" lon="10.3327194493">
		<tag k="alt_name" v="Bjørndalen" />
		<tag k="name" v="Bjønndalen" />
		<tag k="natural" v="valley" />
		<tag k="place" v="locality" />
		<tag k="ssr:stedsnr" v="488236" />
	</node>
	<node id="-249188" lat="59.5368555596" lon="10.4137083393">
		<tag k="name" v="Røysene" />
		<tag k="natural" v="slope" />
		<tag k="place" v="locality" />
		<tag k="ssr:stedsnr" v="484099" />
	</node>
	<node id="-249184" lat="59.618663885" lon="10.5843694384">
		<tag k="fixme" v="consider natural=peak for the most distinct mountains in the district" />
		<tag k="name" v="Vardeås" />
		<tag k="natural" v="hill" />
		<tag k="place" v="locality" />
		<tag k="ssr:stedsnr" v="483641" />
	</node>
	<node id="-249177" lat="59.6477138918" lon="10.4480888898">
		<tag k="fixme" v="consider natural=peak for the most distinct mountains in the district" />
		<tag k="name" v="Blåbærfjell" />
		<tag k="natural" v="hill" />
		<tag k="place" v="locality" />
		<tag k="ssr:stedsnr" v="482257" />
	</node>
	<node id="-249175" lat="59.633266671" lon="10.508919437">
		<tag k="fixme" v="consider natural=peak for the most distinct mountains in the district" />
		<tag k="name" v="Kaståsen" />
		<tag k="natural" v="hill" />
		<tag k="place" v="locality" />
		<tag k="ssr:stedsnr" v="480889" />
	</node>
	<node id="-249174" lat="59.6453194422" lon="10.5330944456">
		<tag k="fixme" v="consider natural=peak for the most distinct mountains in the district" />
		<tag k="name" v="Slottemyråsen" />
		<tag k="natural" v="hill" />
		<tag k="place" v="locality" />
		<tag k="ssr:stedsnr" v="480877" />
	</node>
	<node id="-249162" lat="59.8742250044" lon="10.3854527844">
		<tag k="name" v="Østre Rustan" />
		<tag k="natural" v="hill" />
		<tag k="place" v="locality" />
		<tag k="ssr:stedsnr" v="326649" />
	</node>
	<node id="-249161" lat="59.8789638871" lon="10.3919833349">
		<tag k="name" v="Gabrielsbonn" />
		<tag k="place" v="locality" />
		<tag k="ssr:stedsnr" v="326632" />
	</node>
	<node id="-249157" lat="59.8098499963" lon="10.3843638886">
		<tag k="name" v="Slottsberget" />
		<tag k="natural" v="hill" />
		<tag k="place" v="locality" />
		<tag k="ssr:stedsnr" v="308729" />
	</node>
	<node id="-249154" lat="59.8611361102" lon="10.4434027768">
		<tag k="fixme" v="consider natural=peak for the most distinct mountains in the district" />
		<tag k="name" v="Skaugumsåsen" />
		<tag k="natural" v="hill" />
		<tag k="place" v="locality" />
		<tag k="ssr:stedsnr" v="307806" />
	</node>
	<node id="-249151" lat="59.6894805571" lon="10.4436472265">
		<tag k="fixme" v="consider natural=peak for the most distinct mountains in the district" />
		<tag k="name" v="Vardåsen" />
		<tag k="natural" v="hill" />
		<tag k="place" v="locality" />
		<tag k="ssr:stedsnr" v="307014" />
	</node>
	<node id="-249138" lat="59.5891222248" lon="10.5012027735">
		<tag k="name" v="Bjørnsruddalen" />
		<tag k="natural" v="valley" />
		<tag k="place" v="locality" />
		<tag k="ssr:stedsnr" v="466695" />
	</node>
	<node id="-249134" lat="59.6782583367" lon="10.439924999">
		<tag k="name" v="Stordalen" />
		<tag k="natural" v="valley" />
		<tag k="place" v="locality" />
		<tag k="ssr:stedsnr" v="465251" />
	</node>
	<node id="-249132" lat="59.6475249998" lon="10.4983833319">
		<tag k="name" v="Gampeskøttdalen" />
		<tag k="natural" v="valley" />
		<tag k="place" v="locality" />
		<tag k="ssr:stedsnr" v="298839" />
	</node>
	<node id="-249129" lat="59.5244138917" lon="10.4404833321">
		<tag k="name" v="Korrvikdalen" />
		<tag k="natural" v="valley" />
		<tag k="place" v="locality" />
		<tag k="ssr:stedsnr" v="464086" />
	</node>
	<node id="-249128" lat="59.5239111071" lon="10.4369972166">
		<tag k="fixme" v="consider natural=peak for the most distinct mountains in the district" />
		<tag k="name" v="Solfjellåsene" />
		<tag k="natural" v="hill" />
		<tag k="place" v="locality" />
		<tag k="ssr:stedsnr" v="464082" />
	</node>
	<node id="-249123" lat="59.5562277779" lon="10.4286944458">
		<tag k="fixme" v="consider natural=peak for the most distinct mountains in the district" />
		<tag k="name" v="Jørnsåsen" />
		<tag k="natural" v="hill" />
		<tag k="place" v="locality" />
		<tag k="ssr:stedsnr" v="463130" />
	</node>
	<node id="-249121" lat="59.673105552" lon="10.5584583333">
		<tag k="fixme" v="consider natural=peak for the most distinct mountains in the district" />
		<tag k="name" v="Verpenåsen" />
		<tag k="natural" v="hill" />
		<tag k="place" v="locality" />
		<tag k="ssr:stedsnr" v="278104" />
	</node>
	<node id="-249113" lat="59.7019194432" lon="10.4185888804">
		<tag k="fixme" v="consider natural=peak for the most distinct mountains in the district" />
		<tag k="name" v="Bølskogåsen" />
		<tag k="natural" v="hill" />
		<tag k="place" v="locality" />
		<tag k="ssr:stedsnr" v="269803" />
	</node>
	<node id="-249105" lat="59.7793722265" lon="10.4328583323">
		<tag k="fixme" v="consider natural=peak for the most distinct mountains in the district" />
		<tag k="name" v="Åmotåsen" />
		<tag k="natural" v="hill" />
		<tag k="place" v="locality" />
		<tag k="ssr:stedsnr" v="264731" />
	</node>
	<node id="-249102" lat="59.5618916661" lon="10.4395888892">
		<tag k="fixme" v="consider natural=peak for the most distinct mountains in the district" />
		<tag k="name" v="Holmsåsen" />
		<tag k="natural" v="hill" />
		<tag k="place" v="locality" />
		<tag k="ssr:stedsnr" v="455565" />
	</node>
	<node id="-249098" lat="59.7463083326" lon="10.504516663">
		<tag k="alt_name" v="Flåta" />
		<tag k="fixme" v="consider natural=peak for the most distinct mountains in the district" />
		<tag k="name" v="Flådda" />
		<tag k="natural" v="hill" />
		<tag k="place" v="locality" />
		<tag k="ssr:stedsnr" v="452856" />
	</node>
	<node id="-249093" lat="59.6815305578" lon="10.4524999932">
		<tag k="name" v="Grauteruddalen" />
		<tag k="natural" v="valley" />
		<tag k="place" v="locality" />
		<tag k="ssr:stedsnr" v="451960" />
	</node>
	<node id="-249092" lat="59.6910111142" lon="10.487297219">
		<tag k="fixme" v="consider natural=peak for the most distinct mountains in the district" />
		<tag k="name" v="Rømmegrøtkleivåsen" />
		<tag k="natural" v="hill" />
		<tag k="place" v="locality" />
		<tag k="ssr:stedsnr" v="451953" />
	</node>
	<node id="-249076" lat="59.8449111108" lon="10.3628083417">
		<tag k="fixme" v="consider natural=peak for the most distinct mountains in the district" />
		<tag k="name" v="Kvieberget" />
		<tag k="natural" v="hill" />
		<tag k="place" v="locality" />
		<tag k="ssr:stedsnr" v="447692" />
	</node>
	<node id="-249075" lat="59.8497805599" lon="10.3677333256">
		<tag k="name" v="Tranevassdalen" />
		<tag k="natural" v="valley" />
		<tag k="place" v="locality" />
		<tag k="ssr:stedsnr" v="447687" />
	</node>
	<node id="-249074" lat="59.8871194463" lon="10.3598527813">
		<tag k="fixme" v="consider natural=peak for the most distinct mountains in the district" />
		<tag k="name" v="Korpåsen" />
		<tag k="natural" v="hill" />
		<tag k="place" v="locality" />
		<tag k="ssr:stedsnr" v="447684" />
	</node>
	<node id="-249069" lat="59.8613138928" lon="10.4730666631">
		<tag k="name" v="Kalddalen" />
		<tag k="natural" v="valley" />
		<tag k="place" v="locality" />
		<tag k="ssr:stedsnr" v="447489" />
	</node>
	<node id="-249064" lat="59.8194305529" lon="10.436536106">
		<tag k="name" v="Høva" />
		<tag k="place" v="locality" />
		<tag k="ssr:stedsnr" v="447543" />
	</node>
	<node id="-249063" lat="59.827522223" lon="10.4646916755">
		<tag k="fixme" v="consider natural=peak for the most distinct mountains in the district" />
		<tag k="name" v="Krillås" />
		<tag k="natural" v="hill" />
		<tag k="place" v="locality" />
		<tag k="ssr:stedsnr" v="447542" />
	</node>
	<node id="-249057" lat="59.5817777746" lon="10.5632805627">
		<tag k="name" v="Røstaddalen" />
		<tag k="natural" v="valley" />
		<tag k="place" v="locality" />
		<tag k="ssr:stedsnr" v="224618" />
	</node>
	<node id="-249056" lat="59.588625004" lon="10.6017333257">
		<tag k="name" v="Husebydalen" />
		<tag k="natural" v="valley" />
		<tag k="place" v="locality" />
		<tag k="ssr:stedsnr" v="224603" />
	</node>
	<node id="-249053" lat="59.6360416651" lon="10.5769249995">
		<tag k="name" v="Burudkleiva" />
		<tag k="natural" v="slope" />
		<tag k="place" v="locality" />
		<tag k="ssr:stedsnr" v="298497" />
	</node>
	<node id="-249045" lat="59.6081555539" lon="10.5437527805">
		<tag k="name" v="Sundbydalen" />
		<tag k="natural" v="valley" />
		<tag k="place" v="locality" />
		<tag k="ssr:stedsnr" v="285720" />
	</node>
	<node id="-249044" lat="59.6025499995" lon="10.585897226">
		<tag k="name" v="Bolldalen" />
		<tag k="natural" v="valley" />
		<tag k="place" v="locality" />
		<tag k="ssr:stedsnr" v="285701" />
	</node>
	<node id="-249043" lat="59.5991500026" lon="10.5554583304">
		<tag k="fixme" v="consider natural=peak for the most distinct mountains in the district" />
		<tag k="name" v="Svartvannskollen" />
		<tag k="natural" v="hill" />
		<tag k="place" v="locality" />
		<tag k="ssr:stedsnr" v="285692" />
	</node>
	<node id="-249042" lat="59.5850249961" lon="10.5696472239">
		<tag k="name" v="Apparatsletta" />
		<tag k="place" v="locality" />
		<tag k="ssr:stedsnr" v="285640" />
	</node>
	<node id="-249041" lat="59.5773916634" lon="10.582147217">
		<tag k="fixme" v="consider natural=peak for the most distinct mountains in the district" />
		<tag k="name" v="Skipperåsen" />
		<tag k="natural" v="hill" />
		<tag k="place" v="locality" />
		<tag k="ssr:stedsnr" v="285639" />
	</node>
	<node id="-249040" lat="59.6012249966" lon="10.5033027777">
		<tag k="name" v="Storemyr" />
		<tag k="natural" v="valley" />
		<tag k="place" v="locality" />
		<tag k="ssr:stedsnr" v="285630" />
	</node>
	<node id="-249030" lat="59.6177527803" lon="10.5867916704">
		<tag k="name" v="Rasmuskleiva" />
		<tag k="natural" v="slope" />
		<tag k="place" v="locality" />
		<tag k="ssr:stedsnr" v="180615" />
	</node>
	<node id="-249029" lat="59.6189361087" lon="10.5922361195">
		<tag k="name" v="Myrdalen" />
		<tag k="natural" v="valley" />
		<tag k="place" v="locality" />
		<tag k="ssr:stedsnr" v="180605" />
	</node>
	<node id="-249028" lat="59.5523638914" lon="10.4246722141">
		<tag k="alt_name" v="Jahrsåsen" />
		<tag k="name" v="Jarsåsen" />
		<tag k="natural" v="hill" />
		<tag k="place" v="locality" />
		<tag k="ssr:stedsnr" v="180106" />
	</node>
	<node id="-251072" lat="59.6512750004" lon="10.5686944381">
		<tag k="name" v="Mørkganga" />
		<tag k="natural" v="valley" />
		<tag k="place" v="locality" />
		<tag k="ssr:stedsnr" v="969334" />
	</node>
	<node id="-251068" lat="59.523041665" lon="10.4931027814">
		<tag k="fixme" v="consider natural=peak for the most distinct mountains in the district" />
		<tag k="name" v="Kattsundåsen" />
		<tag k="natural" v="hill" />
		<tag k="place" v="locality" />
		<tag k="ssr:stedsnr" v="969129" />
	</node>
	<node id="-249019" lat="59.5678416685" lon="10.5148416693">
		<tag k="name" v="Kremmerås" />
		<tag k="natural" v="ridge" />
		<tag k="place" v="locality" />
		<tag k="ssr:stedsnr" v="283539" />
	</node>
	<node id="-251066" lat="59.5310944406" lon="10.4249083289">
		<tag k="fixme" v="consider natural=peak for the most distinct mountains in the district" />
		<tag k="name" v="Siliaåsen" />
		<tag k="natural" v="hill" />
		<tag k="place" v="locality" />
		<tag k="ssr:stedsnr" v="969124" />
	</node>
	<node id="-251065" lat="59.5482083303" lon="10.4236833367">
		<tag k="name" v="Amundsåsen" />
		<tag k="natural" v="hill" />
		<tag k="place" v="locality" />
		<tag k="ssr:stedsnr" v="969121" />
	</node>
	<node id="-251064" lat="59.5478888893" lon="10.5497333266">
		<tag k="name" v="Barlinddalen" />
		<tag k="natural" v="valley" />
		<tag k="place" v="locality" />
		<tag k="ssr:stedsnr" v="968641" />
	</node>
	<node id="-251063" lat="59.5485416652" lon="10.5568750086">
		<tag k="name" v="Toftekleiva" />
		<tag k="natural" v="slope" />
		<tag k="place" v="locality" />
		<tag k="ssr:stedsnr" v="968640" />
	</node>
	<node id="-249014" lat="59.6703527815" lon="10.4852138802">
		<tag k="name" v="Nåbyvannsdalen" />
		<tag k="natural" v="valley" />
		<tag k="place" v="locality" />
		<tag k="ssr:stedsnr" v="283229" />
	</node>
	<node id="-251061" lat="59.6601277748" lon="10.475141674">
		<tag k="fixme" v="consider natural=peak for the most distinct mountains in the district" />
		<tag k="name" v="Seteråsen" />
		<tag k="natural" v="hill" />
		<tag k="place" v="locality" />
		<tag k="ssr:stedsnr" v="967240" />
	</node>
	<node id="-251060" lat="59.5570555524" lon="10.4819388816">
		<tag k="name" v="Graverdalen" />
		<tag k="natural" v="valley" />
		<tag k="place" v="locality" />
		<tag k="ssr:stedsnr" v="967190" />
	</node>
	<node id="-251059" lat="59.5600777769" lon="10.488583339">
		<tag k="name" v="Stendalen" />
		<tag k="natural" v="valley" />
		<tag k="place" v="locality" />
		<tag k="ssr:stedsnr" v="967189" />
	</node>
	<node id="-249007" lat="59.5566166664" lon="10.4544916702">
		<tag k="fixme" v="consider natural=peak for the most distinct mountains in the district" />
		<tag k="name" v="Bergåsen" />
		<tag k="natural" v="hill" />
		<tag k="place" v="locality" />
		<tag k="ssr:stedsnr" v="282167" />
	</node>
	<node id="-251053" lat="59.6097166658" lon="10.5551500053">
		<tag k="fixme" v="consider natural=peak for the most distinct mountains in the district" />
		<tag k="name" v="Nilsåsen" />
		<tag k="natural" v="hill" />
		<tag k="place" v="locality" />
		<tag k="ssr:stedsnr" v="952730" />
	</node>
	<node id="-251052" lat="59.6133694415" lon="10.5515083382">
		<tag k="fixme" v="consider natural=peak for the most distinct mountains in the district" />
		<tag k="name" v="Aklangåsen" />
		<tag k="natural" v="hill" />
		<tag k="place" v="locality" />
		<tag k="ssr:stedsnr" v="952724" />
	</node>
	<node id="-249003" lat="59.5974388911" lon="10.4973583353">
		<tag k="name" v="Bergerdalen" />
		<tag k="natural" v="valley" />
		<tag k="place" v="locality" />
		<tag k="ssr:stedsnr" v="163607" />
	</node>
	<node id="-251050" lat="59.6035833336" lon="10.5724805496">
		<tag k="name" v="Langmyrholen" />
		<tag k="natural" v="hill" />
		<tag k="place" v="locality" />
		<tag k="ssr:stedsnr" v="952706" />
	</node>
	<node id="-251048" lat="59.5864527772" lon="10.5447416602">
		<tag k="fixme" v="consider natural=peak for the most distinct mountains in the district" />
		<tag k="name" v="Vestre Nøklemyrås" />
		<tag k="natural" v="hill" />
		<tag k="place" v="locality" />
		<tag k="ssr:stedsnr" v="952628" />
	</node>
	<node id="-248999" lat="59.5587166697" lon="10.5180055564">
		<tag k="name" v="Oredalen" />
		<tag k="natural" v="valley" />
		<tag k="place" v="locality" />
		<tag k="ssr:stedsnr" v="162614" />
	</node>
	<node id="-248998" lat="59.5606722186" lon="10.5305166697">
		<tag k="fixme" v="consider natural=peak for the most distinct mountains in the district" />
		<tag k="name" v="Masteåsen" />
		<tag k="natural" v="hill" />
		<tag k="place" v="locality" />
		<tag k="ssr:stedsnr" v="162609" />
	</node>
	<node id="-251045" lat="59.5841555546" lon="10.5362777828">
		<tag k="fixme" v="consider natural=peak for the most distinct mountains in the district" />
		<tag k="name" v="Tjæreeldås" />
		<tag k="natural" v="hill" />
		<tag k="place" v="locality" />
		<tag k="ssr:stedsnr" v="952616" />
	</node>
	<node id="-251042" lat="59.5906166636" lon="10.4500611157">
		<tag k="fixme" v="consider natural=peak for the most distinct mountains in the district" />
		<tag k="name" v="Århaneåsen" />
		<tag k="natural" v="hill" />
		<tag k="place" v="locality" />
		<tag k="ssr:stedsnr" v="952487" />
	</node>
	<node id="-248993" lat="59.7357694466" lon="10.4893833322">
		<tag k="alt_name" v="Teigen" />
		<tag k="name" v="Telgen" />
		<tag k="natural" v="valley" />
		<tag k="place" v="locality" />
		<tag k="ssr:stedsnr" v="148518" />
	</node>
	<node id="-248990" lat="59.6821555548" lon="10.460786103">
		<tag k="name" v="Uredalen" />
		<tag k="natural" v="valley" />
		<tag k="place" v="locality" />
		<tag k="ssr:stedsnr" v="147956" />
	</node>
	<node id="-251033" lat="59.851505556" lon="10.4836305513">
		<tag k="name" v="Syverstadbråten" />
		<tag k="natural" v="hill" />
		<tag k="place" v="locality" />
		<tag k="ssr:stedsnr" v="872683" />
	</node>
	<node id="-251032" lat="59.8247027774" lon="10.4641583248">
		<tag k="name" v="Brudegrinda" />
		<tag k="place" v="locality" />
		<tag k="ssr:stedsnr" v="872599" />
	</node>
	<node id="-251031" lat="59.860069449" lon="10.4425416616">
		<tag k="name" v="Raset" />
		<tag k="natural" v="slope" />
		<tag k="place" v="locality" />
		<tag k="ssr:stedsnr" v="872544" />
	</node>
	<node id="-251029" lat="59.8047861091" lon="10.4599833355">
		<tag k="fixme" v="consider natural=peak for the most distinct mountains in the district" />
		<tag k="name" v="Årostoppen" />
		<tag k="natural" v="hill" />
		<tag k="place" v="locality" />
		<tag k="ssr:stedsnr" v="871725" />
	</node>
	<node id="-248979" lat="59.7163972213" lon="10.5024888858">
		<tag k="fixme" v="consider natural=peak for the most distinct mountains in the district" />
		<tag k="name" v="Sundbyåsen" />
		<tag k="natural" v="hill" />
		<tag k="place" v="locality" />
		<tag k="ssr:stedsnr" v="269950" />
	</node>
	<node id="-248978" lat="59.6822166639" lon="10.4556722153">
		<tag k="fixme" v="consider natural=peak for the most distinct mountains in the district" />
		<tag k="name" v="Berntsås" />
		<tag k="natural" v="hill" />
		<tag k="place" v="locality" />
		<tag k="ssr:stedsnr" v="269949" />
	</node>
	<node id="-248977" lat="59.7000388898" lon="10.5007138838">
		<tag k="fixme" v="consider natural=peak for the most distinct mountains in the district" />
		<tag k="name" v="Kjelleråsen" />
		<tag k="natural" v="hill" />
		<tag k="place" v="locality" />
		<tag k="ssr:stedsnr" v="269936" />
	</node>
	<node id="-251024" lat="59.886674996" lon="10.3684388927">
		<tag k="fixme" v="consider natural=peak for the most distinct mountains in the district" />
		<tag k="name" v="Haveråsen" />
		<tag k="natural" v="hill" />
		<tag k="place" v="locality" />
		<tag k="ssr:stedsnr" v="854840" />
	</node>
	<node id="-248973" lat="59.6262361154" lon="10.5700444454">
		<tag k="fixme" v="consider natural=peak for the most distinct mountains in the district" />
		<tag k="name" v="Gleinås" />
		<tag k="natural" v="hill" />
		<tag k="place" v="locality" />
		<tag k="ssr:stedsnr" v="268893" />
	</node>
	<node id="-248964" lat="59.8389166673" lon="10.4049638924">
		<tag k="name" v="Wittenberg" />
		<tag k="place" v="locality" />
		<tag k="ssr:stedsnr" v="265659" />
	</node>
	<node id="-248962" lat="59.877191667" lon="10.4722194425">
		<tag k="name" v="Nadderud" />
		<tag k="natural" v="slope" />
		<tag k="place" v="locality" />
		<tag k="ssr:stedsnr" v="265652" />
	</node>
	<node id="-251008" lat="59.6183027743" lon="10.5543944513">
		<tag k="fixme" v="consider natural=peak for the most distinct mountains in the district" />
		<tag k="name" v="Samuelsberg" />
		<tag k="natural" v="hill" />
		<tag k="place" v="locality" />
		<tag k="ssr:stedsnr" v="848634" />
	</node>
	<node id="-248959" lat="59.8278972206" lon="10.4724250019">
		<tag k="name" v="Kirkesletta" />
		<tag k="place" v="locality" />
		<tag k="ssr:stedsnr" v="265581" />
	</node>
	<node id="-248958" lat="59.8306583289" lon="10.4614749976">
		<tag k="name" v="Lindløkka" />
		<tag k="place" v="locality" />
		<tag k="ssr:stedsnr" v="265580" />
	</node>
	<node id="-251001" lat="59.8589388913" lon="10.5143249986">
		<tag k="name" v="Omnen" />
		<tag k="natural" v="valley" />
		<tag k="place" v="locality" />
		<tag k="ssr:stedsnr" v="847615" />
	</node>
	<node id="-250996" lat="59.6359277808" lon="10.5290277766">
		<tag k="name" v="Ålbyholene" />
		<tag k="natural" v="hill" />
		<tag k="place" v="locality" />
		<tag k="ssr:stedsnr" v="844904" />
	</node>
	<node id="-250995" lat="59.6461972186" lon="10.4966194354">
		<tag k="fixme" v="consider natural=peak for the most distinct mountains in the district" />
		<tag k="name" v="Gampeskøttåsen" />
		<tag k="natural" v="hill" />
		<tag k="place" v="locality" />
		<tag k="ssr:stedsnr" v="844901" />
	</node>
	<node id="-250994" lat="59.6425805535" lon="10.5228750052">
		<tag k="name" v="Sandbrøytene" />
		<tag k="natural" v="slope" />
		<tag k="place" v="locality" />
		<tag k="ssr:stedsnr" v="844889" />
	</node>
	<node id="-250992" lat="59.6197833295" lon="10.495088897">
		<tag k="fixme" v="consider natural=peak for the most distinct mountains in the district" />
		<tag k="name" v="Østernkollen" />
		<tag k="natural" v="hill" />
		<tag k="place" v="locality" />
		<tag k="ssr:stedsnr" v="844561" />
	</node>
	<node id="-248942" lat="59.8709888862" lon="10.530905557">
		<tag k="fixme" v="consider natural=peak for the most distinct mountains in the district" />
		<tag k="name" v="Borgen" />
		<tag k="natural" v="hill" />
		<tag k="place" v="locality" />
		<tag k="ssr:stedsnr" v="265500" />
	</node>
	<node id="-249020" lat="59.5657333309" lon="10.510833339">
		<tag k="fixme" v="consider natural=peak for the most distinct mountains in the district" />
		<tag k="name" v="Lomvannsåsen" />
		<tag k="natural" v="hill" />
		<tag k="place" v="locality" />
		<tag k="ssr:stedsnr" v="283543" />
	</node>
	<node id="-250978" lat="59.5841611079" lon="10.46508611">
		<tag k="fixme" v="consider natural=peak for the most distinct mountains in the district" />
		<tag k="name" v="Stokkeråsen" />
		<tag k="natural" v="hill" />
		<tag k="place" v="locality" />
		<tag k="ssr:stedsnr" v="831473" />
	</node>
	<node id="-250976" lat="59.5658000018" lon="10.5420416648">
		<tag k="fixme" v="consider natural=peak for the most distinct mountains in the district" />
		<tag k="name" v="Tronkåsen" />
		<tag k="natural" v="hill" />
		<tag k="place" v="locality" />
		<tag k="ssr:stedsnr" v="830587" />
	</node>
	<node id="-250975" lat="59.5669944402" lon="10.5397249968">
		<tag k="name" v="Delåsdalen" />
		<tag k="natural" v="valley" />
		<tag k="place" v="locality" />
		<tag k="ssr:stedsnr" v="830585" />
	</node>
	<node id="-250972" lat="59.5572388851" lon="10.5694333377">
		<tag k="name" v="Linnabråten" />
		<tag k="natural" v="hill" />
		<tag k="place" v="locality" />
		<tag k="ssr:stedsnr" v="829678" />
	</node>
	<node id="-250970" lat="59.6684194426" lon="10.4524972281">
		<tag k="fixme" v="consider natural=peak for the most distinct mountains in the district" />
		<tag k="name" v="Sandungåsen" />
		<tag k="natural" v="hill" />
		<tag k="place" v="locality" />
		<tag k="ssr:stedsnr" v="829256" />
	</node>
	<node id="-250969" lat="59.6706222224" lon="10.4611166747">
		<tag k="fixme" v="consider natural=peak for the most distinct mountains in the district" />
		<tag k="name" v="Høymyrbuktåsen" />
		<tag k="natural" v="hill" />
		<tag k="place" v="locality" />
		<tag k="ssr:stedsnr" v="829255" />
	</node>
	<node id="-249017" lat="59.5656972261" lon="10.5309583332">
		<tag k="name" v="Sjuetasjedalen" />
		<tag k="natural" v="valley" />
		<tag k="place" v="locality" />
		<tag k="ssr:stedsnr" v="283522" />
	</node>
	<node id="-250962" lat="59.556788891" lon="10.4250555536">
		<tag k="name" v="Helleneberga" />
		<tag k="natural" v="slope" />
		<tag k="place" v="locality" />
		<tag k="ssr:stedsnr" v="827151" />
	</node>
	<node id="-250946" lat="59.6981166704" lon="10.4004027718">
		<tag k="name" v="Ormeleina" />
		<tag k="natural" v="ridge" />
		<tag k="place" v="locality" />
		<tag k="ssr:stedsnr" v="815786" />
	</node>
	<node id="-250943" lat="59.6779388914" lon="10.5107333379">
		<tag k="fixme" v="consider natural=peak for the most distinct mountains in the district" />
		<tag k="name" v="Sætreåsen" />
		<tag k="natural" v="hill" />
		<tag k="place" v="locality" />
		<tag k="ssr:stedsnr" v="813795" />
	</node>
	<node id="-249013" lat="59.6718916675" lon="10.4569277786">
		<tag k="name" v="Sandungdalen" />
		<tag k="natural" v="valley" />
		<tag k="place" v="locality" />
		<tag k="ssr:stedsnr" v="283220" />
	</node>
	<node id="-248890" lat="59.876061114" lon="10.3740249967">
		<tag k="name" v="Vestmarka" />
		<tag k="natural" v="wood" />
		<tag k="ssr:stedsnr" v="246804" />
	</node>
	<node id="-249012" lat="59.6798249981" lon="10.4353194502">
		<tag k="name" v="Havneleina" />
		<tag k="natural" v="slope" />
		<tag k="place" v="locality" />
		<tag k="ssr:stedsnr" v="283218" />
	</node>
	<node id="-250934" lat="59.8426916625" lon="10.4338749965">
		<tag k="name" v="Kirkelia" />
		<tag k="natural" v="slope" />
		<tag k="place" v="locality" />
		<tag k="ssr:stedsnr" v="811655" />
	</node>
	<node id="-248885" lat="59.5696138895" lon="10.5014305556">
		<tag k="fixme" v="consider natural=peak for the most distinct mountains in the district" />
		<tag k="name" v="Dustadkollen" />
		<tag k="natural" v="hill" />
		<tag k="place" v="locality" />
		<tag k="ssr:stedsnr" v="246675" />
	</node>
	<node id="-248884" lat="59.5630416649" lon="10.5368194399">
		<tag k="fixme" v="consider natural=peak for the most distinct mountains in the district" />
		<tag k="name" v="Delåsen" />
		<tag k="natural" v="hill" />
		<tag k="place" v="locality" />
		<tag k="ssr:stedsnr" v="246658" />
	</node>
	<node id="-248879" lat="59.6012111083" lon="10.6051305582">
		<tag k="fixme" v="consider natural=peak for the most distinct mountains in the district" />
		<tag k="name" v="Julshøgda" />
		<tag k="natural" v="hill" />
		<tag k="place" v="locality" />
		<tag k="ssr:stedsnr" v="246598" />
	</node>
	<node id="-248872" lat="59.8755249986" lon="10.4329333257">
		<tag k="fixme" v="consider natural=peak for the most distinct mountains in the district" />
		<tag k="name" v="Furuåsen" />
		<tag k="natural" v="hill" />
		<tag k="place" v="locality" />
		<tag k="ssr:stedsnr" v="65511" />
	</node>
	<node id="-250916" lat="59.6911472185" lon="10.5208861023">
		<tag k="fixme" v="consider natural=peak for the most distinct mountains in the district" />
		<tag k="name" v="Bestonbukta" />
		<tag k="natural" v="hill" />
		<tag k="place" v="locality" />
		<tag k="ssr:stedsnr" v="814787" />
	</node>
	<node id="-248860" lat="59.6416694461" lon="10.544155549">
		<tag k="name" v="Midtskogen" />
		<tag k="natural" v="slope" />
		<tag k="place" v="locality" />
		<tag k="ssr:stedsnr" v="241890" />
	</node>
	<node id="-250905" lat="59.7786722224" lon="10.3883555573">
		<tag k="alt_name" v="Blåfjellet" />
		<tag k="fixme" v="consider natural=peak for the most distinct mountains in the district" />
		<tag k="name" v="Blåfjell" />
		<tag k="natural" v="hill" />
		<tag k="place" v="locality" />
		<tag k="ssr:stedsnr" v="793705" />
	</node>
	<node id="-248856" lat="59.5490499995" lon="10.4214916729">
		<tag k="name" v="Trollebogåsen" />
		<tag k="natural" v="hill" />
		<tag k="place" v="locality" />
		<tag k="ssr:stedsnr" v="241109" />
	</node>
	<node id="-250903" lat="59.7785833307" lon="10.3578083286">
		<tag k="fixme" v="consider natural=peak for the most distinct mountains in the district" />
		<tag k="name" v="Bertelsmyråsen" />
		<tag k="natural" v="hill" />
		<tag k="place" v="locality" />
		<tag k="ssr:stedsnr" v="793697" />
	</node>
	<node id="-250897" lat="59.5794305534" lon="10.4568388917">
		<tag k="fixme" v="consider natural=peak for the most distinct mountains in the district" />
		<tag k="name" v="Trevardeåsen" />
		<tag k="natural" v="hill" />
		<tag k="place" v="locality" />
		<tag k="ssr:stedsnr" v="792709" />
	</node>
	<node id="-248847" lat="59.637749999" lon="10.5351944422">
		<tag k="fixme" v="consider natural=peak for the most distinct mountains in the district" />
		<tag k="name" v="Kubakkåsen" />
		<tag k="natural" v="hill" />
		<tag k="place" v="locality" />
		<tag k="ssr:stedsnr" v="237881" />
	</node>
	<node id="-248844" lat="59.636699999" lon="10.5519805639">
		<tag k="name" v="Bjelkebakk" />
		<tag k="natural" v="slope" />
		<tag k="place" v="locality" />
		<tag k="ssr:stedsnr" v="237532" />
	</node>
	<node id="-248843" lat="59.634700004" lon="10.5622472229">
		<tag k="fixme" v="consider natural=peak for the most distinct mountains in the district" />
		<tag k="name" v="Rogndalshøgda" />
		<tag k="natural" v="hill" />
		<tag k="place" v="locality" />
		<tag k="ssr:stedsnr" v="237529" />
	</node>
	<node id="-248842" lat="59.6321388922" lon="10.5787444363">
		<tag k="fixme" v="consider natural=peak for the most distinct mountains in the district" />
		<tag k="name" v="Helvetesåsen" />
		<tag k="natural" v="hill" />
		<tag k="place" v="locality" />
		<tag k="ssr:stedsnr" v="237521" />
	</node>
	<node id="-249004" lat="59.5982333312" lon="10.5134444365">
		<tag k="fixme" v="consider natural=peak for the most distinct mountains in the district" />
		<tag k="name" v="Kåsåsen" />
		<tag k="natural" v="hill" />
		<tag k="place" v="locality" />
		<tag k="ssr:stedsnr" v="163624" />
	</node>
	<node id="-250886" lat="59.5965916689" lon="10.4496638965">
		<tag k="fixme" v="consider natural=peak for the most distinct mountains in the district" />
		<tag k="name" v="Knivsfjellet" />
		<tag k="natural" v="hill" />
		<tag k="place" v="locality" />
		<tag k="ssr:stedsnr" v="791729" />
	</node>
	<node id="-250882" lat="59.6563722203" lon="10.5653472216">
		<tag k="fixme" v="consider natural=peak for the most distinct mountains in the district" />
		<tag k="name" v="Kaståsen" />
		<tag k="natural" v="hill" />
		<tag k="place" v="locality" />
		<tag k="ssr:stedsnr" v="787345" />
	</node>
	<node id="-250880" lat="59.6769861074" lon="10.503691671">
		<tag k="name" v="Bjørnehi" />
		<tag k="place" v="locality" />
		<tag k="ssr:stedsnr" v="787337" />
	</node>
	<node id="-250879" lat="59.6709777794" lon="10.5300388885">
		<tag k="fixme" v="consider natural=peak for the most distinct mountains in the district" />
		<tag k="name" v="Gunnaråsen" />
		<tag k="natural" v="hill" />
		<tag k="place" v="locality" />
		<tag k="ssr:stedsnr" v="787332" />
	</node>
	<node id="-249002" lat="59.6008027749" lon="10.4945472305">
		<tag k="fixme" v="consider natural=peak for the most distinct mountains in the district" />
		<tag k="name" v="Nygårdskollen" />
		<tag k="natural" v="hill" />
		<tag k="place" v="locality" />
		<tag k="ssr:stedsnr" v="163606" />
	</node>
	<node id="-250873" lat="59.606172225" lon="10.6129527859">
		<tag k="fixme" v="consider natural=peak for the most distinct mountains in the district" />
		<tag k="name" v="Haugåsen" />
		<tag k="natural" v="hill" />
		<tag k="place" v="locality" />
		<tag k="ssr:stedsnr" v="786293" />
	</node>
	<node id="-248824" lat="59.7360750035" lon="10.5092944421">
		<tag k="fixme" v="consider natural=peak for the most distinct mountains in the district" />
		<tag k="name" v="Ulaåsen" />
		<tag k="natural" v="hill" />
		<tag k="place" v="locality" />
		<tag k="ssr:stedsnr" v="26916" />
	</node>
	<node id="-248822" lat="59.8303638912" lon="10.4669861161">
		<tag k="name" v="Hvile" />
		<tag k="place" v="locality" />
		<tag k="ssr:stedsnr" v="23603" />
	</node>
	<node id="-248818" lat="59.6083861106" lon="10.5354861071">
		<tag k="fixme" v="consider natural=peak for the most distinct mountains in the district" />
		<tag k="name" v="Nedre Stallås" />
		<tag k="natural" v="hill" />
		<tag k="place" v="locality" />
		<tag k="ssr:stedsnr" v="224723" />
	</node>
	<node id="-250864" lat="59.6238611078" lon="10.5178583299">
		<tag k="fixme" v="consider natural=peak for the most distinct mountains in the district" />
		<tag k="name" v="Skavmyrfjellet" />
		<tag k="natural" v="hill" />
		<tag k="place" v="locality" />
		<tag k="ssr:stedsnr" v="783559" />
	</node>
	<node id="-249000" lat="59.6430722245" lon="10.5575972248">
		<tag k="name" v="Mannebakk" />
		<tag k="natural" v="slope" />
		<tag k="place" v="locality" />
		<tag k="ssr:stedsnr" v="163321" />
	</node>
	<node id="-248812" lat="59.5417666702" lon="10.4812500056">
		<tag k="name" v="Kåsaåsen" />
		<tag k="natural" v="hill" />
		<tag k="place" v="locality" />
		<tag k="ssr:stedsnr" v="223132" />
	</node>
	<node id="-250859" lat="59.5802055564" lon="10.5088805485">
		<tag k="fixme" v="consider natural=peak for the most distinct mountains in the district" />
		<tag k="name" v="Prekestolåsen" />
		<tag k="natural" v="hill" />
		<tag k="place" v="locality" />
		<tag k="ssr:stedsnr" v="770652" />
	</node>
	<node id="-251047" lat="59.5939194447" lon="10.5505055609">
		<tag k="name" v="Sirismyrdalen" />
		<tag k="natural" v="valley" />
		<tag k="place" v="locality" />
		<tag k="ssr:stedsnr" v="952627" />
	</node>
	<node id="-248807" lat="59.5565861126" lon="10.5373555572">
		<tag k="fixme" v="consider natural=peak for the most distinct mountains in the district" />
		<tag k="name" v="Striglevannsås" />
		<tag k="natural" v="hill" />
		<tag k="place" v="locality" />
		<tag k="ssr:stedsnr" v="222522" />
	</node>
	<node id="-250853" lat="59.5962055512" lon="10.5092972304">
		<tag k="fixme" v="consider natural=peak for the most distinct mountains in the district" />
		<tag k="name" v="Bergervannhøgda" />
		<tag k="natural" v="hill" />
		<tag k="place" v="locality" />
		<tag k="ssr:stedsnr" v="770604" />
	</node>
	<node id="-250852" lat="59.6189749974" lon="10.5734111081">
		<tag k="name" v="Høymosedalen" />
		<tag k="natural" v="valley" />
		<tag k="place" v="locality" />
		<tag k="ssr:stedsnr" v="770736" />
	</node>
	<node id="-250849" lat="59.6104305517" lon="10.4448888975">
		<tag k="name" v="Fugleleina" />
		<tag k="natural" v="slope" />
		<tag k="place" v="locality" />
		<tag k="ssr:stedsnr" v="770489" />
	</node>
	<node id="-248997" lat="59.5644916676" lon="10.5683194478">
		<tag k="name" v="Jetteslottet" />
		<tag k="natural" v="hill" />
		<tag k="place" v="locality" />
		<tag k="ssr:stedsnr" v="162720" />
	</node>
	<node id="-250842" lat="59.6241083326" lon="10.4514333394">
		<tag k="fixme" v="consider natural=peak for the most distinct mountains in the district" />
		<tag k="name" v="Valnebbåsen" />
		<tag k="natural" v="hill" />
		<tag k="place" v="locality" />
		<tag k="ssr:stedsnr" v="768531" />
	</node>
	<node id="-250838" lat="59.5261638917" lon="10.4299666735">
		<tag k="fixme" v="consider natural=peak for the most distinct mountains in the district" />
		<tag k="name" v="Kirkeåsen" />
		<tag k="natural" v="hill" />
		<tag k="place" v="locality" />
		<tag k="ssr:stedsnr" v="768083" />
	</node>
	<node id="-250837" lat="59.5294722208" lon="10.4402750079">
		<tag k="fixme" v="consider natural=peak for the most distinct mountains in the district" />
		<tag k="name" v="Ødegårdsåsen" />
		<tag k="natural" v="hill" />
		<tag k="place" v="locality" />
		<tag k="ssr:stedsnr" v="768080" />
	</node>
	<node id="-250831" lat="59.7727361117" lon="10.3903388868">
		<tag k="fixme" v="consider natural=peak for the most distinct mountains in the district" />
		<tag k="name" v="Svartvannsåsen" />
		<tag k="natural" v="hill" />
		<tag k="place" v="locality" />
		<tag k="ssr:stedsnr" v="755589" />
	</node>
	<node id="-250830" lat="59.7285583326" lon="10.4134222148">
		<tag k="name" v="Svartediket" />
		<tag k="natural" v="valley" />
		<tag k="place" v="locality" />
		<tag k="ssr:stedsnr" v="755556" />
	</node>
	<node id="-248994" lat="59.7693194425" lon="10.468611115">
		<tag k="fixme" v="consider natural=peak for the most distinct mountains in the district" />
		<tag k="name" v="Bøsnipa" />
		<tag k="natural" v="hill" />
		<tag k="place" v="locality" />
		<tag k="ssr:stedsnr" v="148759" />
	</node>
	<node id="-250824" lat="59.6880583319" lon="10.4776777756">
		<tag k="fixme" v="consider natural=peak for the most distinct mountains in the district" />
		<tag k="name" v="Tyrihjellåsen" />
		<tag k="natural" v="hill" />
		<tag k="place" v="locality" />
		<tag k="ssr:stedsnr" v="754959" />
	</node>
	<node id="-250819" lat="59.7788111128" lon="10.3523416664">
		<tag k="name" v="Karikollen" />
		<tag k="natural" v="hill" />
		<tag k="place" v="locality" />
		<tag k="ssr:stedsnr" v="754415" />
	</node>
	<node id="-250808" lat="59.8310805593" lon="10.3978166643">
		<tag k="fixme" v="consider natural=peak for the most distinct mountains in the district" />
		<tag k="name" v="Kalkås" />
		<tag k="natural" v="hill" />
		<tag k="place" v="locality" />
		<tag k="ssr:stedsnr" v="751698" />
	</node>
	<node id="-250801" lat="59.8343805578" lon="10.4112305628">
		<tag k="name" v="Lysthusbråten" />
		<tag k="place" v="locality" />
		<tag k="ssr:stedsnr" v="751664" />
	</node>
	<node id="-250800" lat="59.8509805569" lon="10.4616555533">
		<tag k="fixme" v="consider natural=peak for the most distinct mountains in the district" />
		<tag k="name" v="Vakås" />
		<tag k="natural" v="hill" />
		<tag k="place" v="locality" />
		<tag k="ssr:stedsnr" v="751659" />
	</node>
	<node id="-250798" lat="59.8437722201" lon="10.3861694455">
		<tag k="fixme" v="consider natural=peak for the most distinct mountains in the district" />
		<tag k="name" v="Rudsåsen" />
		<tag k="natural" v="hill" />
		<tag k="place" v="locality" />
		<tag k="ssr:stedsnr" v="751646" />
	</node>
	<node id="-250797" lat="59.8438333293" lon="10.4265527734">
		<tag k="name" v="Kattugledalen" />
		<tag k="natural" v="valley" />
		<tag k="place" v="locality" />
		<tag k="ssr:stedsnr" v="751638" />
	</node>
	<node id="-250794" lat="59.8174194412" lon="10.4618638916">
		<tag k="name" v="Langlibakken" />
		<tag k="natural" v="slope" />
		<tag k="place" v="locality" />
		<tag k="ssr:stedsnr" v="751586" />
	</node>
	<node id="-250793" lat="59.827138889" lon="10.4608777812">
		<tag k="name" v="Granbakken" />
		<tag k="natural" v="slope" />
		<tag k="place" v="locality" />
		<tag k="ssr:stedsnr" v="751579" />
	</node>
	<node id="-250783" lat="59.8995972264" lon="10.36716667">
		<tag k="fixme" v="consider natural=peak for the most distinct mountains in the district" />
		<tag k="name" v="Buråsen" />
		<tag k="natural" v="hill" />
		<tag k="place" v="locality" />
		<tag k="ssr:stedsnr" v="750026" />
	</node>
	<node id="-250779" lat="59.5748305591" lon="10.4771444484">
		<tag k="alt_name" v="Holtvedtryggen" />
		<tag k="name" v="Holtvetryggen" />
		<tag k="natural" v="slope" />
		<tag k="place" v="locality" />
		<tag k="ssr:stedsnr" v="648499" />
	</node>
	<node id="-250778" lat="59.531277775" lon="10.4651583343">
		<tag k="name" v="Trappetrinnkleiva" />
		<tag k="natural" v="slope" />
		<tag k="place" v="locality" />
		<tag k="ssr:stedsnr" v="648188" />
	</node>
	<node id="-250776" lat="59.555522225" lon="10.5475722297">
		<tag k="fixme" v="consider natural=peak for the most distinct mountains in the district" />
		<tag k="name" v="Barlindåsen" />
		<tag k="natural" v="hill" />
		<tag k="place" v="locality" />
		<tag k="ssr:stedsnr" v="647586" />
	</node>
	<node id="-250769" lat="59.6982722195" lon="10.5067805532">
		<tag k="fixme" v="consider natural=peak for the most distinct mountains in the district" />
		<tag k="name" v="Kaståsen" />
		<tag k="natural" v="hill" />
		<tag k="place" v="locality" />
		<tag k="ssr:stedsnr" v="645738" />
	</node>
	<node id="-248984" lat="59.5742833363" lon="10.4333722153">
		<tag k="name" v="Flatfjell" />
		<tag k="place" v="locality" />
		<tag k="ssr:stedsnr" v="273597" />
	</node>
	<node id="-250766" lat="59.5259333329" lon="10.4833527708">
		<tag k="name" v="Ertsvik" />
		<tag k="natural" v="valley" />
		<tag k="place" v="locality" />
		<tag k="ssr:stedsnr" v="634078" />
	</node>
	<node id="-250765" lat="59.72825278" lon="10.4914805549">
		<tag k="fixme" v="consider natural=peak for the most distinct mountains in the district" />
		<tag k="name" v="Skiåsen" />
		<tag k="natural" v="hill" />
		<tag k="place" v="locality" />
		<tag k="ssr:stedsnr" v="633947" />
	</node>
	<node id="-250764" lat="59.7067638934" lon="10.466811103">
		<tag k="fixme" v="consider natural=peak for the most distinct mountains in the district" />
		<tag k="name" v="Bentsås" />
		<tag k="natural" v="hill" />
		<tag k="place" v="locality" />
		<tag k="ssr:stedsnr" v="633926" />
	</node>
	<node id="-250762" lat="59.6933194464" lon="10.5201861084">
		<tag k="name" v="Skogsborg" />
		<tag k="natural" v="hill" />
		<tag k="place" v="locality" />
		<tag k="ssr:stedsnr" v="633975" />
	</node>
	<node id="-250759" lat="59.7004722191" lon="10.4925583325">
		<tag k="fixme" v="consider natural=peak for the most distinct mountains in the district" />
		<tag k="name" v="Margrethes ås" />
		<tag k="natural" v="hill" />
		<tag k="place" v="locality" />
		<tag k="ssr:stedsnr" v="632930" />
	</node>
	<node id="-250757" lat="59.7790638913" lon="10.3401611132">
		<tag k="name" v="Brenningsdalen" />
		<tag k="natural" v="valley" />
		<tag k="place" v="locality" />
		<tag k="ssr:stedsnr" v="632390" />
	</node>
	<node id="-250746" lat="59.7033500032" lon="10.3943305605">
		<tag k="fixme" v="consider natural=peak for the most distinct mountains in the district" />
		<tag k="name" v="Brudeberget" />
		<tag k="natural" v="hill" />
		<tag k="place" v="locality" />
		<tag k="ssr:stedsnr" v="630809" />
	</node>
	<node id="-250733" lat="59.8068972221" lon="10.4742222167">
		<tag k="fixme" v="consider natural=peak for the most distinct mountains in the district" />
		<tag k="name" v="Heslebergtoppen" />
		<tag k="natural" v="hill" />
		<tag k="place" v="locality" />
		<tag k="ssr:stedsnr" v="628701" />
	</node>
	<node id="-250732" lat="59.8411555512" lon="10.3812916636">
		<tag k="name" v="Kvernhusdalen" />
		<tag k="natural" v="valley" />
		<tag k="place" v="locality" />
		<tag k="ssr:stedsnr" v="628612" />
	</node>
	<node id="-250723" lat="59.8456416626" lon="10.357686117">
		<tag k="fixme" v="consider natural=peak for the most distinct mountains in the district" />
		<tag k="name" v="Furuåsen" />
		<tag k="natural" v="hill" />
		<tag k="place" v="locality" />
		<tag k="ssr:stedsnr" v="611519" />
	</node>
	<node id="-250708" lat="59.5396222212" lon="10.5085500057">
		<tag k="alt_name" v="Ranvikkollen" />
		<tag k="fixme" v="consider natural=peak for the most distinct mountains in the district" />
		<tag k="name" v="Ramvikkollen" />
		<tag k="natural" v="hill" />
		<tag k="place" v="locality" />
		<tag k="ssr:stedsnr" v="610575" />
	</node>
	<node id="-250704" lat="59.76176111" lon="10.3380277822">
		<tag k="fixme" v="consider natural=peak for the most distinct mountains in the district" />
		<tag k="name" v="Brenninga" />
		<tag k="natural" v="hill" />
		<tag k="place" v="locality" />
		<tag k="ssr:stedsnr" v="610068" />
	</node>
	<node id="-250684" lat="59.6397527779" lon="10.5174944469">
		<tag k="name" v="Småkleivene" />
		<tag k="natural" v="slope" />
		<tag k="place" v="locality" />
		<tag k="ssr:stedsnr" v="601851" />
	</node>
	<node id="-250674" lat="59.6028361087" lon="10.5491249917">
		<tag k="name" v="Eikhaugene" />
		<tag k="natural" v="hill" />
		<tag k="place" v="locality" />
		<tag k="ssr:stedsnr" v="588756" />
	</node>
	<node id="-250671" lat="59.538052781" lon="10.4713416731">
		<tag k="name" v="Karikollen" />
		<tag k="natural" v="hill" />
		<tag k="place" v="locality" />
		<tag k="ssr:stedsnr" v="587178" />
	</node>
	<node id="-250669" lat="59.5669166663" lon="10.5652111046">
		<tag k="name" v="Fosseskogen" />
		<tag k="natural" v="hill" />
		<tag k="place" v="locality" />
		<tag k="ssr:stedsnr" v="586696" />
	</node>
	<node id="-250663" lat="59.6747166692" lon="10.4828500024">
		<tag k="fixme" v="consider natural=peak for the most distinct mountains in the district" />
		<tag k="name" v="Brånaråsen" />
		<tag k="natural" v="hill" />
		<tag k="place" v="locality" />
		<tag k="ssr:stedsnr" v="586291" />
	</node>
	<node id="-250659" lat="59.7398388925" lon="10.4803749954">
		<tag k="name" v="Vassdalen" />
		<tag k="natural" v="valley" />
		<tag k="place" v="locality" />
		<tag k="ssr:stedsnr" v="573479" />
	</node>
	<node id="-250658" lat="59.7654416692" lon="10.3948944445">
		<tag k="fixme" v="consider natural=peak for the most distinct mountains in the district" />
		<tag k="name" v="Huldreåsen" />
		<tag k="natural" v="hill" />
		<tag k="place" v="locality" />
		<tag k="ssr:stedsnr" v="573355" />
	</node>
	<node id="-250657" lat="59.7049166695" lon="10.4981777815">
		<tag k="fixme" v="consider natural=peak for the most distinct mountains in the district" />
		<tag k="name" v="Frøtvetåsen" />
		<tag k="natural" v="hill" />
		<tag k="place" v="locality" />
		<tag k="ssr:stedsnr" v="572967" />
	</node>
	<node id="-250655" lat="59.6906527781" lon="10.4502444508">
		<tag k="fixme" v="consider natural=peak for the most distinct mountains in the district" />
		<tag k="name" v="Sjursås" />
		<tag k="natural" v="hill" />
		<tag k="place" v="locality" />
		<tag k="ssr:stedsnr" v="572956" />
	</node>
	<node id="-250652" lat="59.7190500037" lon="10.3698666639">
		<tag k="fixme" v="consider natural=peak for the most distinct mountains in the district" />
		<tag k="name" v="Langkilåsen" />
		<tag k="natural" v="hill" />
		<tag k="place" v="locality" />
		<tag k="ssr:stedsnr" v="572813" />
	</node>
	<node id="-250650" lat="59.6912722232" lon="10.4214722257">
		<tag k="fixme" v="consider natural=peak for the most distinct mountains in the district" />
		<tag k="name" v="Herningsåsen" />
		<tag k="natural" v="hill" />
		<tag k="place" v="locality" />
		<tag k="ssr:stedsnr" v="572800" />
	</node>
	<node id="-250648" lat="59.7708083342" lon="10.3699777728">
		<tag k="name" v="Trangeberga" />
		<tag k="natural" v="hill" />
		<tag k="place" v="locality" />
		<tag k="ssr:stedsnr" v="572389" />
	</node>
	<node id="-250635" lat="59.8129722247" lon="10.4035166592">
		<tag k="name" v="Råtadalen" />
		<tag k="natural" v="valley" />
		<tag k="place" v="locality" />
		<tag k="ssr:stedsnr" v="568659" />
	</node>
	<node id="-250627" lat="59.8700500031" lon="10.3448638877">
		<tag k="fixme" v="consider natural=peak for the most distinct mountains in the district" />
		<tag k="name" v="St. Hansåsen" />
		<tag k="natural" v="hill" />
		<tag k="place" v="locality" />
		<tag k="ssr:stedsnr" v="567711" />
	</node>
	<node id="-250625" lat="59.8520222255" lon="10.3403055605">
		<tag k="name" v="Finneløkka" />
		<tag k="place" v="locality" />
		<tag k="ssr:stedsnr" v="567691" />
	</node>
	<node id="-250620" lat="59.8518361119" lon="10.4061611158">
		<tag k="fixme" v="consider natural=peak for the most distinct mountains in the district" />
		<tag k="loc_name" v="Vinkova" />
		<tag k="name" v="Vindkovan" />
		<tag k="natural" v="hill" />
		<tag k="place" v="locality" />
		<tag k="ssr:stedsnr" v="567612" />
	</node>
	<node id="-250616" lat="59.8527334857" lon="10.3810411812">
		<tag k="name" v="Hagahogget" />
		<tag k="natural" v="gorge" />
		<tag k="ssr:stedsnr" v="550801" />
	</node>
	<node id="-250596" lat="59.6200111129" lon="10.4581527811">
		<tag k="fixme" v="consider natural=peak for the most distinct mountains in the district" />
		<tag k="name" v="Klokkarstuåsen" />
		<tag k="natural" v="hill" />
		<tag k="place" v="locality" />
		<tag k="ssr:stedsnr" v="549647" />
	</node>
	<node id="-250594" lat="59.5373499963" lon="10.4566638971">
		<tag k="fixme" v="consider natural=peak for the most distinct mountains in the district" />
		<tag k="name" v="Haraldsfjellet" />
		<tag k="natural" v="hill" />
		<tag k="place" v="locality" />
		<tag k="ssr:stedsnr" v="549517" />
	</node>
	<node id="-250590" lat="59.7587805589" lon="10.3177250008">
		<tag k="fixme" v="consider natural=peak for the most distinct mountains in the district" />
		<tag k="name" v="Gyriåsen" />
		<tag k="natural" v="hill" />
		<tag k="place" v="locality" />
		<tag k="ssr:stedsnr" v="549081" />
	</node>
	<node id="-250588" lat="59.6412222255" lon="10.5408194391">
		<tag k="name" v="Kubakken" />
		<tag k="natural" v="slope" />
		<tag k="place" v="locality" />
		<tag k="ssr:stedsnr" v="544890" />
	</node>
	<node id="-250586" lat="59.5508111089" lon="10.5159333405">
		<tag k="name" v="Høibrudalen" />
		<tag k="natural" v="valley" />
		<tag k="place" v="locality" />
		<tag k="ssr:stedsnr" v="544638" />
	</node>
	<node id="-250585" lat="59.5461444442" lon="10.4967416669">
		<tag k="name" v="Lillenga" />
		<tag k="natural" v="slope" />
		<tag k="place" v="locality" />
		<tag k="ssr:stedsnr" v="544615" />
	</node>
	<node id="-250579" lat="59.5486972207" lon="10.4372194457">
		<tag k="name" v="Braste" />
		<tag k="natural" v="hill" />
		<tag k="place" v="locality" />
		<tag k="ssr:stedsnr" v="544096" />
	</node>
	<node id="-250578" lat="59.5257722197" lon="10.461313887">
		<tag k="name" v="Breileina" />
		<tag k="natural" v="slope" />
		<tag k="place" v="locality" />
		<tag k="ssr:stedsnr" v="544065" />
	</node>
	<node id="-250577" lat="59.526327778" lon="10.479758326">
		<tag k="fixme" v="consider natural=peak for the most distinct mountains in the district" />
		<tag k="name" v="Smedåsen" />
		<tag k="natural" v="hill" />
		<tag k="place" v="locality" />
		<tag k="ssr:stedsnr" v="544062" />
	</node>
	<node id="-250574" lat="59.7454416651" lon="10.5050222264">
		<tag k="name" v="Gabrielsrabbane" />
		<tag k="natural" v="hill" />
		<tag k="place" v="locality" />
		<tag k="ssr:stedsnr" v="543116" />
	</node>
	<node id="-250565" lat="59.5899277747" lon="10.4683277737">
		<tag k="name" v="Stokkerkjøa" />
		<tag k="natural" v="valley" />
		<tag k="place" v="locality" />
		<tag k="ssr:stedsnr" v="527494" />
	</node>
	<node id="-250564" lat="59.5793472265" lon="10.4977583304">
		<tag k="fixme" v="consider natural=peak for the most distinct mountains in the district" />
		<tag k="name" v="Svartvannskollen" />
		<tag k="natural" v="hill" />
		<tag k="place" v="locality" />
		<tag k="ssr:stedsnr" v="527673" />
	</node>
	<node id="-250561" lat="59.5811916635" lon="10.533041672">
		<tag k="name" v="Røskestadholen" />
		<tag k="natural" v="hill" />
		<tag k="place" v="locality" />
		<tag k="ssr:stedsnr" v="527648" />
	</node>
	<node id="-250559" lat="59.5677027742" lon="10.5528555618">
		<tag k="name" v="Høymyrdalen" />
		<tag k="natural" v="valley" />
		<tag k="place" v="locality" />
		<tag k="ssr:stedsnr" v="526706" />
	</node>
	<node id="-250553" lat="59.6681861069" lon="10.4467527761">
		<tag k="fixme" v="consider natural=peak for the most distinct mountains in the district" />
		<tag k="name" v="Rørvikfjell" />
		<tag k="natural" v="hill" />
		<tag k="place" v="locality" />
		<tag k="ssr:stedsnr" v="525280" />
	</node>
	<node id="-248947" lat="59.8709638927" lon="10.4250972201">
		<tag k="name" v="Djupendalen" />
		<tag k="natural" v="valley" />
		<tag k="place" v="locality" />
		<tag k="ssr:stedsnr" v="265517" />
	</node>
	<node id="-250541" lat="59.8319805556" lon="10.3705361027">
		<tag k="fixme" v="consider natural=peak for the most distinct mountains in the district" />
		<tag k="name" v="Høgås" />
		<tag k="natural" v="hill" />
		<tag k="place" v="locality" />
		<tag k="ssr:stedsnr" v="429493" />
	</node>
	<node id="-250525" lat="59.7109416667" lon="10.5163972188">
		<tag k="fixme" v="consider natural=peak for the most distinct mountains in the district" />
		<tag k="name" v="Årosfjellet" />
		<tag k="natural" v="hill" />
		<tag k="place" v="locality" />
		<tag k="ssr:stedsnr" v="423756" />
	</node>
	<node id="-250522" lat="59.5471138934" lon="10.5372083338">
		<tag k="name" v="Skogfjell" />
		<tag k="natural" v="hill" />
		<tag k="place" v="locality" />
		<tag k="ssr:stedsnr" v="423667" />
	</node>
	<node id="-250517" lat="59.6784999993" lon="10.5095138802">
		<tag k="fixme" v="consider natural=peak for the most distinct mountains in the district" />
		<tag k="name" v="Grevlingåsen" />
		<tag k="natural" v="hill" />
		<tag k="place" v="locality" />
		<tag k="ssr:stedsnr" v="423354" />
	</node>
	<node id="-250516" lat="59.6698666709" lon="10.543572224">
		<tag k="fixme" v="consider natural=peak for the most distinct mountains in the district" />
		<tag k="name" v="Tyrihjellåsen" />
		<tag k="natural" v="hill" />
		<tag k="place" v="locality" />
		<tag k="ssr:stedsnr" v="423351" />
	</node>
	<node id="-250515" lat="59.6736055523" lon="10.4976472177">
		<tag k="name" v="Stordalen" />
		<tag k="natural" v="valley" />
		<tag k="place" v="locality" />
		<tag k="ssr:stedsnr" v="423339" />
	</node>
	<node id="-250513" lat="59.648386107" lon="10.4414999964">
		<tag k="name" v="Kalvedalen" />
		<tag k="natural" v="valley" />
		<tag k="place" v="locality" />
		<tag k="ssr:stedsnr" v="422252" />
	</node>
	<node id="-250509" lat="59.8289750024" lon="10.4900055615">
		<tag k="name" v="Ulalandet" />
		<tag k="place" v="locality" />
		<tag k="ssr:stedsnr" v="421581" />
	</node>
	<node id="-250507" lat="59.6523305528" lon="10.5247888813">
		<tag k="alt_name" v="Mørkåsen søndre" />
		<tag k="fixme" v="consider natural=peak for the most distinct mountains in the district" />
		<tag k="name" v="Søndre Mørkåsen" />
		<tag k="natural" v="hill" />
		<tag k="place" v="locality" />
		<tag k="ssr:stedsnr" v="419871" />
	</node>
	<node id="-250499" lat="59.6086777791" lon="10.5656111042">
		<tag k="fixme" v="consider natural=peak for the most distinct mountains in the district" />
		<tag k="name" v="Julelysåsen" />
		<tag k="natural" v="hill" />
		<tag k="place" v="locality" />
		<tag k="ssr:stedsnr" v="406745" />
	</node>
	<node id="-250497" lat="59.6156583333" lon="10.541188893">
		<tag k="fixme" v="consider natural=peak for the most distinct mountains in the district" />
		<tag k="name" v="Aklangfoten" />
		<tag k="natural" v="hill" />
		<tag k="place" v="locality" />
		<tag k="ssr:stedsnr" v="406735" />
	</node>
	<node id="-250494" lat="59.6054916711" lon="10.5025000021">
		<tag k="name" v="Prestedalen" />
		<tag k="natural" v="valley" />
		<tag k="place" v="locality" />
		<tag k="ssr:stedsnr" v="406634" />
	</node>
	<node id="-250491" lat="59.6666694482" lon="10.5595611102">
		<tag k="name" v="Brattebakk" />
		<tag k="natural" v="slope" />
		<tag k="place" v="locality" />
		<tag k="ssr:stedsnr" v="404300" />
	</node>
	<node id="-250488" lat="59.5606888914" lon="10.428936108">
		<tag k="name" v="Flaueråsen" />
		<tag k="natural" v="hill" />
		<tag k="place" v="locality" />
		<tag k="ssr:stedsnr" v="402156" />
	</node>
	<node id="-250480" lat="59.7163138887" lon="10.3204944507">
		<tag k="name" v="Lauton" />
		<tag k="natural" v="slope" />
		<tag k="place" v="locality" />
		<tag k="ssr:stedsnr" v="390782" />
	</node>
	<node id="-250479" lat="59.691147218" lon="10.4678361165">
		<tag k="fixme" v="consider natural=peak for the most distinct mountains in the district" />
		<tag k="name" v="Setervannsåsen" />
		<tag k="natural" v="hill" />
		<tag k="place" v="locality" />
		<tag k="ssr:stedsnr" v="390949" />
	</node>
	<node id="-250474" lat="59.6323833293" lon="10.6030527851">
		<tag k="name" v="Delet" />
		<tag k="natural" v="valley" />
		<tag k="place" v="locality" />
		<tag k="ssr:stedsnr" v="389896" />
	</node>
	<node id="-250471" lat="59.8531749985" lon="10.4878833386">
		<tag k="name" v="Holmenbakkene" />
		<tag k="natural" v="slope" />
		<tag k="place" v="locality" />
		<tag k="ssr:stedsnr" v="386648" />
	</node>
	<node id="-250467" lat="59.8874055518" lon="10.3636166658">
		<tag k="name" v="Djupdalen" />
		<tag k="natural" v="valley" />
		<tag k="place" v="locality" />
		<tag k="ssr:stedsnr" v="386701" />
	</node>
	<node id="-250464" lat="59.8316388921" lon="10.4634111041">
		<tag k="name" v="Leangkollen" />
		<tag k="natural" v="hill" />
		<tag k="place" v="locality" />
		<tag k="ssr:stedsnr" v="386543" />
	</node>
	<node id="-250461" lat="59.8688472227" lon="10.454855562">
		<tag k="name" v="Solstadkleiva" />
		<tag k="natural" v="slope" />
		<tag k="place" v="locality" />
		<tag k="ssr:stedsnr" v="386490" />
	</node>
	<node id="-250460" lat="59.8164333337" lon="10.4576638896">
		<tag k="name" v="Blakstadmarka" />
		<tag k="place" v="locality" />
		<tag k="ssr:stedsnr" v="386565" />
	</node>
	<node id="-250447" lat="59.771644446" lon="10.354786117">
		<tag k="fixme" v="consider natural=peak for the most distinct mountains in the district" />
		<tag k="name" v="Haukeliåsen" />
		<tag k="natural" v="hill" />
		<tag k="place" v="locality" />
		<tag k="ssr:stedsnr" v="368714" />
	</node>
	<node id="-250446" lat="59.7478749967" lon="10.4773333357">
		<tag k="fixme" v="consider natural=peak for the most distinct mountains in the district" />
		<tag k="name" v="Aukeåsen" />
		<tag k="natural" v="hill" />
		<tag k="place" v="locality" />
		<tag k="ssr:stedsnr" v="367943" />
	</node>
	<node id="-250443" lat="59.6425361114" lon="10.4917555641">
		<tag k="fixme" v="consider natural=peak for the most distinct mountains in the district" />
		<tag k="name" v="Korsgårdskollen" />
		<tag k="natural" v="hill" />
		<tag k="place" v="locality" />
		<tag k="ssr:stedsnr" v="367819" />
	</node>
	<node id="-250439" lat="59.6836186937" lon="10.5029223489">
		<tag k="alt_name" v="Kongens dal" />
		<tag k="name" v="Kongensdal" />
		<tag k="natural" v="valley" />
		<tag k="place" v="locality" />
		<tag k="ssr:stedsnr" v="367758" />
	</node>
	<node id="-250432" lat="59.6203361132" lon="10.5838777744">
		<tag k="fixme" v="consider natural=peak for the most distinct mountains in the district" />
		<tag k="name" v="Vardåsen" />
		<tag k="natural" v="hill" />
		<tag k="place" v="locality" />
		<tag k="ssr:stedsnr" v="367637" />
	</node>
	<node id="-250427" lat="59.5504888898" lon="10.5125222255">
		<tag k="name" v="Ospeleina" />
		<tag k="natural" v="slope" />
		<tag k="place" v="locality" />
		<tag k="ssr:stedsnr" v="362639" />
	</node>
	<node id="-250426" lat="59.5498944403" lon="10.5290194422">
		<tag k="name" v="Lesserhøgda" />
		<tag k="natural" v="hill" />
		<tag k="place" v="locality" />
		<tag k="ssr:stedsnr" v="362637" />
	</node>
	<node id="-250423" lat="59.6471972233" lon="10.570191671">
		<tag k="name" v="Grønsandkleiva" />
		<tag k="natural" v="slope" />
		<tag k="place" v="locality" />
		<tag k="ssr:stedsnr" v="362345" />
	</node>
	<node id="-250421" lat="59.6644777802" lon="10.5352277857">
		<tag k="fixme" v="consider natural=peak for the most distinct mountains in the district" />
		<tag k="name" v="Stampeleinåsen" />
		<tag k="natural" v="hill" />
		<tag k="place" v="locality" />
		<tag k="ssr:stedsnr" v="362332" />
	</node>
	<node id="-250419" lat="59.5361527765" lon="10.4280222298">
		<tag k="fixme" v="consider natural=peak for the most distinct mountains in the district" />
		<tag k="name" v="Kjelleråsen" />
		<tag k="natural" v="hill" />
		<tag k="place" v="locality" />
		<tag k="ssr:stedsnr" v="362123" />
	</node>
	<node id="-250405" lat="59.5686222207" lon="10.5187888892">
		<tag k="fixme" v="consider natural=peak for the most distinct mountains in the district" />
		<tag k="name" v="Mørketoåsen" />
		<tag k="natural" v="hill" />
		<tag k="place" v="locality" />
		<tag k="ssr:stedsnr" v="343593" />
	</node>
	<node id="-250400" lat="59.6721055564" lon="10.4682833368">
		<tag k="fixme" v="consider natural=peak for the most distinct mountains in the district" />
		<tag k="name" v="Mårberga" />
		<tag k="natural" v="hill" />
		<tag k="place" v="locality" />
		<tag k="ssr:stedsnr" v="343245" />
	</node>
	<node id="-250399" lat="59.5564055548" lon="10.4420611107">
		<tag k="fixme" v="consider natural=peak for the most distinct mountains in the district" />
		<tag k="name" v="Haukåsen" />
		<tag k="natural" v="hill" />
		<tag k="place" v="locality" />
		<tag k="ssr:stedsnr" v="343178" />
	</node>
	<node id="-250398" lat="59.6699083341" lon="10.5153249988">
		<tag k="fixme" v="consider natural=peak for the most distinct mountains in the district" />
		<tag k="name" v="Elvåsen" />
		<tag k="natural" v="hill" />
		<tag k="place" v="locality" />
		<tag k="ssr:stedsnr" v="342754" />
	</node>
	<node id="-250396" lat="59.5618638932" lon="10.4267194496">
		<tag k="name" v="Bakkeåsen" />
		<tag k="natural" v="hill" />
		<tag k="place" v="locality" />
		<tag k="ssr:stedsnr" v="341152" />
	</node>
	<node id="-248922" lat="59.8196555532" lon="10.4495305536">
		<tag k="name" v="Ridderkleiva" />
		<tag k="natural" v="slope" />
		<tag k="place" v="locality" />
		<tag k="ssr:stedsnr" v="83560" />
	</node>
	<node id="-250391" lat="59.7251027737" lon="10.4286694429">
		<tag k="fixme" v="consider natural=peak for the most distinct mountains in the district" />
		<tag k="name" v="Tjuvekollen" />
		<tag k="natural" v="hill" />
		<tag k="place" v="locality" />
		<tag k="ssr:stedsnr" v="330540" />
	</node>
	<node id="-250389" lat="59.7181277786" lon="10.4322500001">
		<tag k="fixme" v="consider natural=peak for the most distinct mountains in the district" />
		<tag k="name" v="Kapteinåsen" />
		<tag k="natural" v="hill" />
		<tag k="place" v="locality" />
		<tag k="ssr:stedsnr" v="329967" />
	</node>
	<node id="-250388" lat="59.6969388897" lon="10.4555722265">
		<tag k="fixme" v="consider natural=peak for the most distinct mountains in the district" />
		<tag k="name" v="Svartvannsåsen" />
		<tag k="natural" v="hill" />
		<tag k="place" v="locality" />
		<tag k="ssr:stedsnr" v="329959" />
	</node>
	<node id="-250387" lat="59.6952194429" lon="10.5073166655">
		<tag k="name" v="Kirkeberget" />
		<tag k="natural" v="hill" />
		<tag k="place" v="locality" />
		<tag k="ssr:stedsnr" v="329958" />
	</node>
	<node id="-250386" lat="59.7126611078" lon="10.3735944457">
		<tag k="name" v="Høgda" />
		<tag k="natural" v="hill" />
		<tag k="place" v="locality" />
		<tag k="ssr:stedsnr" v="329770" />
	</node>
	<node id="-250371" lat="59.8698916627" lon="10.4569194399">
		<tag k="fixme" v="consider natural=peak for the most distinct mountains in the district" />
		<tag k="name" v="Salåsen" />
		<tag k="natural" v="hill" />
		<tag k="place" v="locality" />
		<tag k="ssr:stedsnr" v="326533" />
	</node>
	<node id="-248917" lat="59.8831416655" lon="10.3726361144">
		<tag k="name" v="Lushattdalen" />
		<tag k="natural" v="valley" />
		<tag k="place" v="locality" />
		<tag k="ssr:stedsnr" v="247833" />
	</node>
	<node id="-250358" lat="59.7744750015" lon="10.4430805641">
		<tag k="fixme" v="consider natural=peak for the most distinct mountains in the district" />
		<tag k="name" v="Stokkeråsen" />
		<tag k="natural" v="hill" />
		<tag k="place" v="locality" />
		<tag k="ssr:stedsnr" v="308650" />
	</node>
	<node id="-250351" lat="59.7892166632" lon="10.4027527838">
		<tag k="name" v="Slottsberget" />
		<tag k="natural" v="hill" />
		<tag k="place" v="locality" />
		<tag k="ssr:stedsnr" v="308485" />
	</node>
	<node id="-250334" lat="59.7058749974" lon="10.4489305514">
		<tag k="alt_name" v="Igletjernsåsen" />
		<tag k="fixme" v="consider natural=peak for the most distinct mountains in the district" />
		<tag k="name" v="Eglevannsåsen" />
		<tag k="natural" v="hill" />
		<tag k="place" v="locality" />
		<tag k="ssr:stedsnr" v="306788" />
	</node>
	<node id="-250316" lat="59.5384166709" lon="10.4205833317">
		<tag k="fixme" v="consider natural=peak for the most distinct mountains in the district" />
		<tag k="name" v="Smedåsen" />
		<tag k="natural" v="hill" />
		<tag k="place" v="locality" />
		<tag k="ssr:stedsnr" v="302142" />
	</node>
	<node id="-250315" lat="59.5459999972" lon="10.4236611027">
		<tag k="name" v="Holtnesdalen" />
		<tag k="natural" v="valley" />
		<tag k="place" v="locality" />
		<tag k="ssr:stedsnr" v="302140" />
	</node>
	<node id="-250313" lat="59.5252583378" lon="10.462900001">
		<tag k="name" v="Saueåsen" />
		<tag k="natural" v="ridge" />
		<tag k="place" v="locality" />
		<tag k="ssr:stedsnr" v="302091" />
	</node>
	<node id="-250312" lat="59.5461888918" lon="10.5155305486">
		<tag k="name" v="Auenkleiva" />
		<tag k="natural" v="slope" />
		<tag k="place" v="locality" />
		<tag k="ssr:stedsnr" v="301619" />
	</node>
	<node id="-250310" lat="59.636766667" lon="10.4510583326">
		<tag k="name" v="Rulten" />
		<tag k="natural" v="hill" />
		<tag k="place" v="locality" />
		<tag k="ssr:stedsnr" v="301559" />
	</node>
	<node id="-250304" lat="59.6970527754" lon="10.4870250012">
		<tag k="name" v="Torget" />
		<tag k="place" v="locality" />
		<tag k="ssr:stedsnr" v="208969" />
	</node>
	<node id="-250299" lat="59.7171805584" lon="10.3219055613">
		<tag k="name" v="Høylandshulen" />
		<tag k="place" v="locality" />
		<tag k="ssr:stedsnr" v="208802" />
	</node>
	<node id="-250294" lat="59.7931249974" lon="10.3300444478">
		<tag k="fixme" v="consider natural=peak for the most distinct mountains in the district" />
		<tag k="name" v="Heggsjøåsen" />
		<tag k="natural" v="hill" />
		<tag k="place" v="locality" />
		<tag k="ssr:stedsnr" v="208280" />
	</node>
	<node id="-250282" lat="59.8189583323" lon="10.4065777785">
		<tag k="name" v="Åsløkka" />
		<tag k="place" v="locality" />
		<tag k="ssr:stedsnr" v="205704" />
	</node>
	<node id="-250281" lat="59.817630558" lon="10.4224555502">
		<tag k="fixme" v="consider natural=peak for the most distinct mountains in the district" />
		<tag k="name" v="Gjøkhaugen" />
		<tag k="natural" v="hill" />
		<tag k="place" v="locality" />
		<tag k="ssr:stedsnr" v="205700" />
	</node>
	<node id="-250280" lat="59.8461277736" lon="10.4381111069">
		<tag k="name" v="Prinsehaugen" />
		<tag k="natural" v="hill" />
		<tag k="place" v="locality" />
		<tag k="ssr:stedsnr" v="205696" />
	</node>
	<node id="-250275" lat="59.8512083367" lon="10.4546944401">
		<tag k="name" v="Brusetkollen" />
		<tag k="natural" v="hill" />
		<tag k="place" v="locality" />
		<tag k="ssr:stedsnr" v="205667" />
	</node>
	<node id="-250274" lat="59.850383331" lon="10.459447225">
		<tag k="name" v="Leikarvollen" />
		<tag k="place" v="locality" />
		<tag k="ssr:stedsnr" v="205665" />
	</node>
	<node id="-250270" lat="59.8711555599" lon="10.4747777709">
		<tag k="name" v="Åstadlia" />
		<tag k="natural" v="slope" />
		<tag k="place" v="locality" />
		<tag k="ssr:stedsnr" v="205563" />
	</node>
	<node id="-250269" lat="59.8548833362" lon="10.3964055601">
		<tag k="name" v="Almedalen" />
		<tag k="natural" v="valley" />
		<tag k="place" v="locality" />
		<tag k="ssr:stedsnr" v="205556" />
	</node>
	<node id="-250268" lat="59.8653666649" lon="10.4187944446">
		<tag k="name" v="Hajumskleiva" />
		<tag k="natural" v="slope" />
		<tag k="place" v="locality" />
		<tag k="ssr:stedsnr" v="205553" />
	</node>
	<node id="-250255" lat="59.8135111081" lon="10.4144222208">
		<tag k="fixme" v="consider natural=peak for the most distinct mountains in the district" />
		<tag k="name" v="Vardåsen" />
		<tag k="natural" v="hill" />
		<tag k="place" v="locality" />
		<tag k="ssr:stedsnr" v="187494" />
	</node>
	<node id="-250244" lat="59.5580472194" lon="10.5535444456">
		<tag k="alt_name" v="Vardeåsen" />
		<tag k="fixme" v="consider natural=peak for the most distinct mountains in the district" />
		<tag k="name" v="Vardåsen" />
		<tag k="natural" v="hill" />
		<tag k="place" v="locality" />
		<tag k="ssr:stedsnr" v="186022" />
	</node>
	<node id="-250241" lat="59.7266833331" lon="10.351672219">
		<tag k="fixme" v="consider natural=peak for the most distinct mountains in the district" />
		<tag k="name" v="Høgåsen" />
		<tag k="natural" v="hill" />
		<tag k="place" v="locality" />
		<tag k="ssr:stedsnr" v="185947" />
	</node>
	<node id="-250239" lat="59.7480083333" lon="10.4164444377">
		<tag k="fixme" v="consider natural=peak for the most distinct mountains in the district" />
		<tag k="name" v="Gleinåsen" />
		<tag k="natural" v="hill" />
		<tag k="place" v="locality" />
		<tag k="ssr:stedsnr" v="185941" />
	</node>
	<node id="-250234" lat="59.710141668" lon="10.4597249917">
		<tag k="alt_name" v="Elgskogåsen" />
		<tag k="fixme" v="consider natural=peak for the most distinct mountains in the district" />
		<tag k="name" v="Elgskauåsen" />
		<tag k="natural" v="hill" />
		<tag k="place" v="locality" />
		<tag k="ssr:stedsnr" v="185780" />
	</node>
	<node id="-250229" lat="59.5864694478" lon="10.5091222233">
		<tag k="fixme" v="consider natural=peak for the most distinct mountains in the district" />
		<tag k="name" v="Rødbykollen" />
		<tag k="natural" v="hill" />
		<tag k="place" v="locality" />
		<tag k="ssr:stedsnr" v="185716" />
	</node>
	<node id="-250228" lat="59.5776333303" lon="10.5652249928">
		<tag k="fixme" v="consider natural=peak for the most distinct mountains in the district" />
		<tag k="name" v="Ødegårdskollen" />
		<tag k="natural" v="hill" />
		<tag k="place" v="locality" />
		<tag k="ssr:stedsnr" v="185692" />
	</node>
	<node id="-248893" lat="59.6739666686" lon="10.5014805488">
		<tag k="fixme" v="consider natural=peak for the most distinct mountains in the district" />
		<tag k="name" v="Lauvåsen" />
		<tag k="natural" v="hill" />
		<tag k="place" v="locality" />
		<tag k="ssr:stedsnr" v="246831" />
	</node>
	<node id="-250217" lat="59.5403555584" lon="10.5212472242">
		<tag k="name" v="Sagenedalen" />
		<tag k="natural" v="valley" />
		<tag k="place" v="locality" />
		<tag k="ssr:stedsnr" v="185492" />
	</node>
	<node id="-250214" lat="59.5433166674" lon="10.5422527861">
		<tag k="name" v="Strigledalen" />
		<tag k="natural" v="valley" />
		<tag k="place" v="locality" />
		<tag k="ssr:stedsnr" v="180622" />
	</node>
	<node id="-250212" lat="59.632125" lon="10.5408277782">
		<tag k="fixme" v="consider natural=peak for the most distinct mountains in the district" />
		<tag k="name" v="Rognehaugene" />
		<tag k="natural" v="hill" />
		<tag k="place" v="locality" />
		<tag k="ssr:stedsnr" v="176879" />
	</node>
	<node id="-250211" lat="59.659050004" lon="10.5277027707">
		<tag k="fixme" v="consider natural=peak for the most distinct mountains in the district" />
		<tag k="name" v="Mørkåsen" />
		<tag k="natural" v="hill" />
		<tag k="place" v="locality" />
		<tag k="ssr:stedsnr" v="176861" />
	</node>
	<node id="-250200" lat="59.5819249974" lon="10.5124805555">
		<tag k="name" v="Avgrunnsdalen" />
		<tag k="natural" v="valley" />
		<tag k="place" v="locality" />
		<tag k="ssr:stedsnr" v="163647" />
	</node>
	<node id="-250199" lat="59.5822222258" lon="10.4626277719">
		<tag k="fixme" v="consider natural=peak for the most distinct mountains in the district" />
		<tag k="name" v="Hølåsen" />
		<tag k="natural" v="hill" />
		<tag k="place" v="locality" />
		<tag k="ssr:stedsnr" v="163434" />
	</node>
	<node id="-250196" lat="59.640811114" lon="10.4461249925">
		<tag k="name" v="Toppenhaug" />
		<tag k="natural" v="hill" />
		<tag k="place" v="locality" />
		<tag k="ssr:stedsnr" v="300291" />
	</node>
	<node id="-250191" lat="59.7340638863" lon="10.4264388917">
		<tag k="name" v="Bjørnstaddalen" />
		<tag k="natural" v="valley" />
		<tag k="place" v="locality" />
		<tag k="ssr:stedsnr" v="148545" />
	</node>
	<node id="-250189" lat="59.7109472224" lon="10.3951277785">
		<tag k="name" v="Buktevarden" />
		<tag k="natural" v="hill" />
		<tag k="place" v="locality" />
		<tag k="ssr:stedsnr" v="147942" />
	</node>
	<node id="-250187" lat="59.7259583338" lon="10.4937361057">
		<tag k="fixme" v="consider natural=peak for the most distinct mountains in the district" />
		<tag k="name" v="Hovåsen" />
		<tag k="natural" v="hill" />
		<tag k="place" v="locality" />
		<tag k="ssr:stedsnr" v="147920" />
	</node>
	<node id="-250180" lat="59.8833833289" lon="10.4509555589">
		<tag k="fixme" v="consider natural=peak for the most distinct mountains in the district" />
		<tag k="name" v="Eikhaugen" />
		<tag k="natural" v="hill" />
		<tag k="place" v="locality" />
		<tag k="ssr:stedsnr" v="144629" />
	</node>
	<node id="-250176" lat="59.8575972237" lon="10.4532861147">
		<tag k="fixme" v="consider natural=peak for the most distinct mountains in the district" />
		<tag k="name" v="Kloåsen" />
		<tag k="natural" v="hill" />
		<tag k="place" v="locality" />
		<tag k="ssr:stedsnr" v="144528" />
	</node>
	<node id="-250160" lat="59.8150555525" lon="10.4519027843">
		<tag k="name" v="Lensmannssvingen" />
		<tag k="place" v="locality" />
		<tag k="ssr:stedsnr" v="143567" />
	</node>
	<node id="-250159" lat="59.8227472262" lon="10.4344416676">
		<tag k="name" v="Bondilia" />
		<tag k="place" v="locality" />
		<tag k="ssr:stedsnr" v="143564" />
	</node>
	<node id="-250145" lat="59.6778444425" lon="10.4681138934">
		<tag k="fixme" v="consider natural=peak for the most distinct mountains in the district" />
		<tag k="name" v="Kuven" />
		<tag k="natural" v="hill" />
		<tag k="place" v="locality" />
		<tag k="ssr:stedsnr" v="125863" />
	</node>
	<node id="-250135" lat="59.7290499979" lon="10.3836611109">
		<tag k="fixme" v="consider natural=peak for the most distinct mountains in the district" />
		<tag k="name" v="Hollenderen" />
		<tag k="natural" v="hill" />
		<tag k="place" v="locality" />
		<tag k="ssr:stedsnr" v="124956" />
	</node>
	<node id="-250128" lat="59.6870138857" lon="10.4750583244">
		<tag k="fixme" v="consider natural=peak for the most distinct mountains in the district" />
		<tag k="name" v="Smedmyråsen" />
		<tag k="natural" v="hill" />
		<tag k="place" v="locality" />
		<tag k="ssr:stedsnr" v="124722" />
	</node>
	<node id="-250107" lat="59.625424997" lon="10.5207138848">
		<tag k="alt_name" v="Askedalen vestre" />
		<tag k="name" v="Vestre Askedalen" />
		<tag k="natural" v="valley" />
		<tag k="place" v="locality" />
		<tag k="ssr:stedsnr" v="116882" />
	</node>
	<node id="-250102" lat="59.6161638899" lon="10.5778722137">
		<tag k="fixme" v="consider natural=peak for the most distinct mountains in the district" />
		<tag k="name" v="Furuåsen" />
		<tag k="natural" v="hill" />
		<tag k="place" v="locality" />
		<tag k="ssr:stedsnr" v="103729" />
	</node>
	<node id="-250101" lat="59.6016138865" lon="10.5385611052">
		<tag k="name" v="Sionsdalen" />
		<tag k="natural" v="valley" />
		<tag k="place" v="locality" />
		<tag k="ssr:stedsnr" v="103720" />
	</node>
	<node id="-250094" lat="59.587366667" lon="10.4977416683">
		<tag k="fixme" v="consider natural=peak for the most distinct mountains in the district" />
		<tag k="name" v="Knivsvikåsen" />
		<tag k="natural" v="hill" />
		<tag k="place" v="locality" />
		<tag k="ssr:stedsnr" v="102722" />
	</node>
	<node id="-250092" lat="59.5668388854" lon="10.5955277794">
		<tag k="fixme" v="consider natural=peak for the most distinct mountains in the district" />
		<tag k="name" v="Agdeåsen" />
		<tag k="natural" v="hill" />
		<tag k="place" v="locality" />
		<tag k="ssr:stedsnr" v="101691" />
	</node>
	<node id="-250091" lat="59.5704916704" lon="10.5750055494">
		<tag k="alt_name" v="Røedsåsen" />
		<tag k="name" v="Rødsåsen" />
		<tag k="natural" v="hill" />
		<tag k="place" v="locality" />
		<tag k="ssr:stedsnr" v="101676" />
	</node>
	<node id="-250090" lat="59.5571194483" lon="10.5830527849">
		<tag k="fixme" v="consider natural=peak for the most distinct mountains in the district" />
		<tag k="name" v="Ramsvikåsen" />
		<tag k="natural" v="hill" />
		<tag k="place" v="locality" />
		<tag k="ssr:stedsnr" v="101669" />
	</node>
	<node id="-250089" lat="59.5649361072" lon="10.5444111189">
		<tag k="name" v="Tronkedalen" />
		<tag k="natural" v="valley" />
		<tag k="place" v="locality" />
		<tag k="ssr:stedsnr" v="101581" />
	</node>
	<node id="-250076" lat="59.7335361134" lon="10.368538892">
		<tag k="fixme" v="consider natural=peak for the most distinct mountains in the district" />
		<tag k="name" v="Muserudåsen" />
		<tag k="natural" v="hill" />
		<tag k="place" v="locality" />
		<tag k="ssr:stedsnr" v="87414" />
	</node>
	<node id="-250074" lat="59.7469166704" lon="10.329875001">
		<tag k="name" v="Ulverud" />
		<tag k="natural" v="valley" />
		<tag k="place" v="locality" />
		<tag k="ssr:stedsnr" v="87331" />
	</node>
	<node id="-250073" lat="59.5593999973" lon="10.5794805496">
		<tag k="fixme" v="consider natural=peak for the most distinct mountains in the district" />
		<tag k="name" v="Plassåsen" />
		<tag k="natural" v="hill" />
		<tag k="place" v="locality" />
		<tag k="ssr:stedsnr" v="86849" />
	</node>
	<node id="-250062" lat="59.8719527744" lon="10.4983555564">
		<tag k="name" v="Pustut" />
		<tag k="natural" v="hill" />
		<tag k="place" v="locality" />
		<tag k="ssr:stedsnr" v="83540" />
	</node>
	<node id="-250056" lat="59.8723055599" lon="10.4610055642">
		<tag k="name" v="Bjønnekleiva" />
		<tag k="natural" v="valley" />
		<tag k="place" v="locality" />
		<tag k="ssr:stedsnr" v="83488" />
	</node>
	<node id="-250048" lat="59.7600972234" lon="10.3597527701">
		<tag k="fixme" v="consider natural=peak for the most distinct mountains in the district" />
		<tag k="name" v="Ringåsen" />
		<tag k="natural" v="hill" />
		<tag k="place" v="locality" />
		<tag k="ssr:stedsnr" v="66632" />
	</node>
	<node id="-250037" lat="59.6332083326" lon="10.4398749959">
		<tag k="fixme" v="consider natural=peak for the most distinct mountains in the district" />
		<tag k="name" v="Dramstadfjellet" />
		<tag k="natural" v="hill" />
		<tag k="place" v="locality" />
		<tag k="ssr:stedsnr" v="64676" />
	</node>
	<node id="-250035" lat="59.6306611143" lon="10.5245694455">
		<tag k="fixme" v="consider natural=peak for the most distinct mountains in the district" />
		<tag k="name" v="Stikkvannskollen" />
		<tag k="natural" v="hill" />
		<tag k="place" v="locality" />
		<tag k="ssr:stedsnr" v="64668" />
	</node>
	<node id="-250020" lat="59.6404333365" lon="10.5709222248">
		<tag k="fixme" v="consider natural=peak for the most distinct mountains in the district" />
		<tag k="name" v="Kirstiåsene" />
		<tag k="natural" v="hill" />
		<tag k="place" v="locality" />
		<tag k="ssr:stedsnr" v="59328" />
	</node>
	<node id="-250014" lat="59.5352694405" lon="10.4241805518">
		<tag k="fixme" v="consider natural=peak for the most distinct mountains in the district" />
		<tag k="name" v="Steinbakkåsen" />
		<tag k="natural" v="hill" />
		<tag k="place" v="locality" />
		<tag k="ssr:stedsnr" v="59098" />
	</node>
	<node id="-250010" lat="59.5367166637" lon="10.5075555498">
		<tag k="name" v="Saghøgda" />
		<tag k="natural" v="hill" />
		<tag k="place" v="locality" />
		<tag k="ssr:stedsnr" v="58634" />
	</node>
	<node id="-250009" lat="59.5509305565" lon="10.5606833339">
		<tag k="fixme" v="consider natural=peak for the most distinct mountains in the district" />
		<tag k="name" v="Toftefjell" />
		<tag k="natural" v="hill" />
		<tag k="place" v="locality" />
		<tag k="ssr:stedsnr" v="58632" />
	</node>
	<node id="-248857" lat="59.6454416639" lon="10.5508416612">
		<tag k="name" v="Bjørndalen" />
		<tag k="natural" v="valley" />
		<tag k="place" v="locality" />
		<tag k="ssr:stedsnr" v="241350" />
	</node>
	<node id="-250004" lat="59.6528527823" lon="10.4648861049">
		<tag k="fixme" v="consider natural=peak for the most distinct mountains in the district" />
		<tag k="name" v="Svartebekkåsen" />
		<tag k="natural" v="hill" />
		<tag k="place" v="locality" />
		<tag k="ssr:stedsnr" v="57230" />
	</node>
	<node id="-250002" lat="59.624627779" lon="10.5281777772">
		<tag k="alt_name" v="Askedalen østre" />
		<tag k="name" v="Østre Askedalen" />
		<tag k="natural" v="valley" />
		<tag k="place" v="locality" />
		<tag k="ssr:stedsnr" v="55895" />
	</node>
	<node id="-250001" lat="59.624152776" lon="10.5048750062">
		<tag k="fixme" v="consider natural=peak for the most distinct mountains in the district" />
		<tag k="name" v="Bjørnebåsen" />
		<tag k="natural" v="hill" />
		<tag k="place" v="locality" />
		<tag k="ssr:stedsnr" v="55527" />
	</node>
	<node id="-249992" lat="59.6138499966" lon="10.5420111159">
		<tag k="name" v="Mordistbakken" />
		<tag k="natural" v="slope" />
		<tag k="place" v="locality" />
		<tag k="ssr:stedsnr" v="42701" />
	</node>
	<node id="-249991" lat="59.6125277753" lon="10.5391499947">
		<tag k="fixme" v="consider natural=peak for the most distinct mountains in the district" />
		<tag k="name" v="Øvre Stallås" />
		<tag k="natural" v="hill" />
		<tag k="place" v="locality" />
		<tag k="ssr:stedsnr" v="42696" />
	</node>
	<node id="-249990" lat="59.6155166648" lon="10.5807999992">
		<tag k="name" v="Svartvannsdalen" />
		<tag k="natural" v="valley" />
		<tag k="place" v="locality" />
		<tag k="ssr:stedsnr" v="42681" />
	</node>
	<node id="-249988" lat="59.5929527797" lon="10.5364833256">
		<tag k="fixme" v="consider natural=peak for the most distinct mountains in the district" />
		<tag k="name" v="Blankvannsåsen" />
		<tag k="natural" v="hill" />
		<tag k="place" v="locality" />
		<tag k="ssr:stedsnr" v="42609" />
	</node>
	<node id="-249987" lat="59.5751527784" lon="10.48032777">
		<tag k="alt_name" v="Holtvedtåsen" />
		<tag k="fixme" v="consider natural=peak for the most distinct mountains in the district" />
		<tag k="name" v="Holtvetåsen" />
		<tag k="natural" v="hill" />
		<tag k="place" v="locality" />
		<tag k="ssr:stedsnr" v="42485" />
	</node>
	<node id="-249986" lat="59.5992611082" lon="10.4445527732">
		<tag k="name" v="Voldenleina" />
		<tag k="natural" v="slope" />
		<tag k="place" v="locality" />
		<tag k="ssr:stedsnr" v="42478" />
	</node>
	<node id="-249985" lat="59.5552000003" lon="10.5167666711">
		<tag k="name" v="Lønnsbergholene" />
		<tag k="natural" v="hill" />
		<tag k="place" v="locality" />
		<tag k="ssr:stedsnr" v="40583" />
	</node>
	<node id="-249983" lat="59.6642999991" lon="10.4425749946">
		<tag k="name" v="Gampedalen" />
		<tag k="natural" v="valley" />
		<tag k="place" v="locality" />
		<tag k="ssr:stedsnr" v="40271" />
	</node>
	<node id="-249982" lat="59.6646138904" lon="10.5534666583">
		<tag k="fixme" v="consider natural=peak for the most distinct mountains in the district" />
		<tag k="name" v="Merraskottet" />
		<tag k="natural" v="hill" />
		<tag k="place" v="locality" />
		<tag k="ssr:stedsnr" v="40339" />
	</node>
	<node id="-249980" lat="59.5290194411" lon="10.4347749929">
		<tag k="name" v="Storleina" />
		<tag k="natural" v="slope" />
		<tag k="place" v="locality" />
		<tag k="ssr:stedsnr" v="40096" />
	</node>
	<node id="-249968" lat="59.6844027742" lon="10.4813083265">
		<tag k="fixme" v="consider natural=peak for the most distinct mountains in the district" />
		<tag k="name" v="Skånevannsåsen" />
		<tag k="natural" v="hill" />
		<tag k="place" v="locality" />
		<tag k="ssr:stedsnr" v="26957" />
	</node>
	<node id="-249966" lat="59.703011111" lon="10.4662722247">
		<tag k="fixme" v="consider natural=peak for the most distinct mountains in the district" />
		<tag k="name" v="Vassmyråsen" />
		<tag k="natural" v="hill" />
		<tag k="place" v="locality" />
		<tag k="ssr:stedsnr" v="26877" />
	</node>
	<node id="-249964" lat="59.7121972182" lon="10.3587277741">
		<tag k="fixme" v="consider natural=peak for the most distinct mountains in the district" />
		<tag k="name" v="Helgåsen" />
		<tag k="natural" v="hill" />
		<tag k="place" v="locality" />
		<tag k="ssr:stedsnr" v="26760" />
	</node>
	<node id="-249945" lat="59.8399416678" lon="10.4167249937">
		<tag k="name" v="Solvangbakkene" />
		<tag k="natural" v="slope" />
		<tag k="place" v="locality" />
		<tag k="ssr:stedsnr" v="23670" />
	</node>
	<node id="-249942" lat="59.8111944408" lon="10.4782361181">
		<tag k="fixme" v="consider natural=peak for the most distinct mountains in the district" />
		<tag k="name" v="Kojaåsen" />
		<tag k="natural" v="hill" />
		<tag k="place" v="locality" />
		<tag k="ssr:stedsnr" v="23615" />
	</node>
	<node id="-249941" lat="59.8128722185" lon="10.4826944482">
		<tag k="name" v="Rønningen" />
		<tag k="place" v="locality" />
		<tag k="ssr:stedsnr" v="23613" />
	</node>
	<node id="-249937" lat="59.7807694418" lon="10.4757861184">
		<tag k="name" v="Almedalen" />
		<tag k="natural" v="valley" />
		<tag k="place" v="locality" />
		<tag k="ssr:stedsnr" v="22630" />
	</node>
	<node id="-249934" lat="59.6788694435" lon="10.5194416617">
		<tag k="alt_name" v="Frantzåsen" />
		<tag k="fixme" v="consider natural=peak for the most distinct mountains in the district" />
		<tag k="name" v="Frantsåsen" />
		<tag k="natural" v="hill" />
		<tag k="place" v="locality" />
		<tag k="ssr:stedsnr" v="16779" />
	</node>
	<node id="-249931" lat="59.7689166662" lon="10.4247666705">
		<tag k="fixme" v="consider natural=peak for the most distinct mountains in the district" />
		<tag k="name" v="Rødåsen" />
		<tag k="natural" v="hill" />
		<tag k="place" v="locality" />
		<tag k="ssr:stedsnr" v="5656" />
	</node>
	<node id="-249930" lat="59.6588083335" lon="10.5859277848">
		<tag k="name" v="Ødegårdskollen" />
		<tag k="natural" v="hill" />
		<tag k="place" v="locality" />
		<tag k="ssr:stedsnr" v="4916" />
	</node>
	<node id="-249916" lat="59.7290944415" lon="10.4044583283">
		<tag k="fixme" v="consider natural=peak for the most distinct mountains in the district" />
		<tag k="name" v="Høgåsen" />
		<tag k="natural" v="hill" />
		<tag k="place" v="locality" />
		<tag k="ssr:stedsnr" v="4007" />
	</node>
	<node id="-249912" lat="59.6433055574" lon="10.5438583256">
		<tag k="fixme" v="consider natural=peak for the most distinct mountains in the district" />
		<tag k="name" v="Bjørnåsen" />
		<tag k="natural" v="hill" />
		<tag k="place" v="locality" />
		<tag k="ssr:stedsnr" v="3838" />
	</node>
	<node id="-249905" lat="59.5428833315" lon="10.435519443">
		<tag k="fixme" v="consider natural=peak for the most distinct mountains in the district" />
		<tag k="name" v="Kolåsen" />
		<tag k="natural" v="hill" />
		<tag k="place" v="locality" />
		<tag k="ssr:stedsnr" v="3510" />
	</node>
	<node id="-249903" lat="59.5346138875" lon="10.4398222151">
		<tag k="alt_name" v="Røedåsen" />
		<tag k="fixme" v="consider natural=peak for the most distinct mountains in the district" />
		<tag k="name" v="Rødåsen" />
		<tag k="natural" v="hill" />
		<tag k="place" v="locality" />
		<tag k="ssr:stedsnr" v="3497" />
	</node>
	<node id="-249902" lat="59.7231055518" lon="10.3410749985">
		<tag k="name" v="Ovnerudåsen" />
		<tag k="natural" v="hill" />
		<tag k="place" v="locality" />
		<tag k="ssr:stedsnr" v="3243" />
	</node>
	<node id="-249887" lat="59.6700138897" lon="10.4921416581">
		<tag k="fixme" v="consider natural=peak for the most distinct mountains in the district" />
		<tag k="name" v="Bjørvannsholene" />
		<tag k="natural" v="hill" />
		<tag k="place" v="locality" />
		<tag k="ssr:stedsnr" v="969312" />
	</node>
	<node id="-249884" lat="59.6519972209" lon="10.4480250083">
		<tag k="fixme" v="consider natural=peak for the most distinct mountains in the district" />
		<tag k="name" v="Tiurfjell" />
		<tag k="natural" v="hill" />
		<tag k="place" v="locality" />
		<tag k="ssr:stedsnr" v="967217" />
	</node>
	<node id="-249878" lat="59.5726638881" lon="10.5448166635">
		<tag k="name" v="Snøplogleina" />
		<tag k="natural" v="slope" />
		<tag k="place" v="locality" />
		<tag k="ssr:stedsnr" v="951712" />
	</node>
	<node id="-249875" lat="59.7307305518" lon="10.496902769">
		<tag k="name" v="Mastedalen" />
		<tag k="natural" v="valley" />
		<tag k="place" v="locality" />
		<tag k="ssr:stedsnr" v="937938" />
	</node>
	<node id="-249874" lat="59.7180833344" lon="10.4452944362">
		<tag k="fixme" v="consider natural=peak for the most distinct mountains in the district" />
		<tag k="name" v="Gullåsen" />
		<tag k="natural" v="hill" />
		<tag k="place" v="locality" />
		<tag k="ssr:stedsnr" v="937931" />
	</node>
	<node id="-249872" lat="59.7326717072" lon="10.4868343746">
		<tag k="fixme" v="consider natural=peak for the most distinct mountains in the district" />
		<tag k="name" v="Skiåsen" />
		<tag k="natural" v="hill" />
		<tag k="place" v="locality" />
		<tag k="ssr:stedsnr" v="937529" />
	</node>
	<node id="-249871" lat="59.6831222234" lon="10.4977916719">
		<tag k="fixme" v="consider natural=peak for the most distinct mountains in the district" />
		<tag k="name" v="Trappesteinåsen" />
		<tag k="natural" v="hill" />
		<tag k="place" v="locality" />
		<tag k="ssr:stedsnr" v="936919" />
	</node>
	<node id="-249869" lat="59.7620666624" lon="10.3320638825">
		<tag k="fixme" v="consider natural=peak for the most distinct mountains in the district" />
		<tag k="name" v="Furumo" />
		<tag k="natural" v="hill" />
		<tag k="place" v="locality" />
		<tag k="ssr:stedsnr" v="936317" />
	</node>
	<node id="-249863" lat="59.8301138846" lon="10.486958336">
		<tag k="name" v="Munkesletta" />
		<tag k="place" v="locality" />
		<tag k="ssr:stedsnr" v="933603" />
	</node>
</osm>
