<?xml version="1.0" encoding="UTF-8"?>
<<<<<<< HEAD
<osm version="0.6" generator="osmapis">
	<node lat="59.837366670952804" lon="10.36720556396291" id="-14593">
		<tag k="name" v="Langemyr" />
=======
<osm generator="osmapis" version="0.6">
	<node id="-250367" lat="59.7878833322" lon="10.3993583418">
		<tag k="name" v="Skjellestadmåsan" />
		<tag k="natural" v="wetland" />
		<tag k="ssr:stedsnr" v="325723" />
	</node>
	<node id="-250365" lat="59.8732249964" lon="10.3738388931">
		<tag k="name" v="Dulut" />
		<tag k="place" v="locality" />
		<tag k="ssr:stedsnr" v="325705" />
	</node>
	<node id="-249849" lat="59.650497226" lon="10.4975388919">
		<tag k="name" v="Rokkemyrene" />
		<tag k="natural" v="wetland" />
		<tag k="ssr:stedsnr" v="905877" />
	</node>
	<node id="-250871" lat="59.6399222234" lon="10.4638083314">
		<tag k="name" v="Orrhanemyra" />
		<tag k="natural" v="wetland" />
		<tag k="ssr:stedsnr" v="786275" />
	</node>
	<node id="-248819" lat="59.837366671" lon="10.367205564">
		<tag k="name" v="Langemyr" />
		<tag k="natural" v="wetland" />
		<tag k="ssr:stedsnr" v="22707" />
	</node>
	<node id="-248817" lat="59.5859777751" lon="10.5013277775">
		<tag k="name" v="Delemyr" />
		<tag k="natural" v="wetland" />
		<tag k="ssr:stedsnr" v="224633" />
	</node>
	<node id="-250863" lat="59.6337638892" lon="10.5908805562">
		<tag k="name" v="Skoklemyr" />
		<tag k="natural" v="wetland" />
		<tag k="ssr:stedsnr" v="783489" />
	</node>
	<node id="-248814" lat="59.5823555598" lon="10.4513888905">
		<tag k="name" v="Langmyrene" />
		<tag k="natural" v="wetland" />
		<tag k="ssr:stedsnr" v="224456" />
	</node>
	<node id="-249837" lat="59.8848722224" lon="10.3882722188">
		<tag k="name" v="Tuemyr" />
		<tag k="natural" v="wetland" />
		<tag k="ssr:stedsnr" v="872627" />
	</node>
	<node id="-248810" lat="59.5760333361" lon="10.528080557">
		<tag k="name" v="Midtskogmyra" />
		<tag k="natural" v="wetland" />
		<tag k="ssr:stedsnr" v="222673" />
	</node>
	<node id="-249833" lat="59.7891611089" lon="10.3589916715">
		<tag k="name" v="Djupmyr" />
		<tag k="natural" v="wetland" />
		<tag k="ssr:stedsnr" v="871664" />
	</node>
	<node id="-250856" lat="59.6023611155" lon="10.5214083298">
		<tag k="name" v="Feierhølet" />
		<tag k="natural" v="wetland" />
		<tag k="ssr:stedsnr" v="770611" />
	</node>
	<node id="-250855" lat="59.6130083333" lon="10.5078166587">
		<tag k="name" v="Merrahølet" />
		<tag k="natural" v="wetland" />
		<tag k="ssr:stedsnr" v="770609" />
	</node>
	<node id="-249493" lat="59.5609000013" lon="10.5132555644">
		<tag k="name" v="Tronstadmyra" />
		<tag k="natural" v="wetland" />
		<tag k="ssr:stedsnr" v="708594" />
	</node>
	<node id="-250851" lat="59.6177722253" lon="10.5098388847">
		<tag k="name" v="Eftasmyrene" />
		<tag k="natural" v="wetland" />
		<tag k="ssr:stedsnr" v="770725" />
	</node>
	<node id="-250850" lat="59.5978388872" lon="10.5781805622">
		<tag k="name" v="Ørnsmyr" />
		<tag k="natural" v="wetland" />
		<tag k="ssr:stedsnr" v="770715" />
	</node>
	<node id="-250847" lat="59.5742388917" lon="10.5052138906">
		<tag k="name" v="Fuglemyr" />
		<tag k="natural" v="wetland" />
		<tag k="ssr:stedsnr" v="768564" />
	</node>
	<node id="-250846" lat="59.5726388846" lon="10.5108972231">
		<tag k="name" v="Haremyra" />
		<tag k="natural" v="wetland" />
		<tag k="ssr:stedsnr" v="768563" />
	</node>
	<node id="-249309" lat="59.7194444429" lon="10.4317944469">
		<tag k="name" v="Rundløkka" />
		<tag k="place" v="locality" />
		<tag k="ssr:stedsnr" v="511955" />
	</node>
	<node id="-249306" lat="59.7204777795" lon="10.3909638952">
		<tag k="name" v="Skogen" />
		<tag k="natural" v="wetland" />
		<tag k="ssr:stedsnr" v="511767" />
	</node>
	<node id="-250840" lat="59.6784277793" lon="10.4496444436">
		<tag k="name" v="Akkordmyrene" />
		<tag k="natural" v="wetland" />
		<tag k="ssr:stedsnr" v="768241" />
	</node>
	<node id="-249303" lat="59.7803527803" lon="10.3718194487">
		<tag k="name" v="Langemyrene" />
		<tag k="natural" v="wetland" />
		<tag k="ssr:stedsnr" v="511265" />
	</node>
	<node id="-249507" lat="59.6014333297" lon="10.592719443">
		<tag k="name" v="Gampemyr" />
		<tag k="natural" v="wetland" />
		<tag k="ssr:stedsnr" v="709711" />
	</node>
	<node id="-250317" lat="59.6426805561" lon="10.56566945">
		<tag k="alt_name" v="Skåhellmyr øvre" />
		<tag k="name" v="Øvre Skåhellmyr" />
		<tag k="natural" v="wetland" />
		<tag k="ssr:stedsnr" v="302380" />
	</node>
	<node id="-249291" lat="59.5967499995" lon="10.5504944434">
		<tag k="name" v="Langmyr" />
		<tag k="natural" v="wetland" />
		<tag k="ssr:stedsnr" v="406713" />
	</node>
	<node id="-250314" lat="59.6462120386" lon="10.5386849135">
		<tag k="alt_name" v="Lamyra nedre" />
		<tag k="name" v="Nedre Lamyra" />
		<tag k="natural" v="wetland" />
		<tag k="ssr:stedsnr" v="301950" />
	</node>
	<node id="-250311" lat="59.5390055597" lon="10.5036944492">
		<tag k="name" v="Oremyr" />
		<tag k="natural" v="wetland" />
		<tag k="ssr:stedsnr" v="301617" />
	</node>
	<node id="-250822" lat="59.7063861077" lon="10.4410388852">
		<tag k="name" v="Flatermyra" />
>>>>>>> e1d4bc35ff8a6074a6f2e91616a996b547c36f15
		<tag k="natural" v="wetland" />
		<tag k="ssr:stedsnr" v="22707" />
	</node>
<<<<<<< HEAD
	<node lat="59.82930833532804" lon="10.469402782160573" id="-14597">
		<tag k="landuse" v="meadow" />
		<tag k="name" v="Langenga" />
		<tag k="ssr:stedsnr" v="23605" />
	</node>
	<node lat="59.585266668080855" lon="10.527861117735048" id="-14620">
		<tag k="name" v="Nordvestmyrene" />
=======
	<node id="-250305" lat="59.7665305535" lon="10.3787444415">
		<tag k="name" v="Haramyra" />
		<tag k="natural" v="wetland" />
		<tag k="ssr:stedsnr" v="209383" />
	</node>
	<node id="-250816" lat="59.7837111074" lon="10.336580557">
		<tag k="name" v="Vikervollmyra" />
>>>>>>> e1d4bc35ff8a6074a6f2e91616a996b547c36f15
		<tag k="natural" v="wetland" />
		<tag k="ssr:stedsnr" v="42606" />
	</node>
<<<<<<< HEAD
	<node lat="59.59677778010503" lon="10.550405564095616" id="-14624">
		<tag k="name" v="Langmyrene" />
=======
	<node id="-250303" lat="59.7934027765" lon="10.3949055471">
		<tag k="name" v="Geitmyra" />
>>>>>>> e1d4bc35ff8a6074a6f2e91616a996b547c36f15
		<tag k="natural" v="wetland" />
		<tag k="ssr:stedsnr" v="42708" />
	</node>
<<<<<<< HEAD
	<node lat="59.65540833121807" lon="10.49859166104757" id="-14627">
		<tag k="name" v="Tjernsmyrene" />
=======
	<node id="-250302" lat="59.7103361152" lon="10.4020777709">
		<tag k="name" v="Breimosan" />
>>>>>>> e1d4bc35ff8a6074a6f2e91616a996b547c36f15
		<tag k="natural" v="wetland" />
		<tag k="ssr:stedsnr" v="237864" />
	</node>
<<<<<<< HEAD
	<node lat="59.64766666968037" lon="10.4433138847924" id="-14630">
		<tag k="landuse" v="meadow" />
		<tag k="name" v="Plasseløkka" />
		<tag k="ssr:stedsnr" v="239257" />
	</node>
	<node lat="59.61813889219486" lon="10.540930556139147" id="-14633">
		<tag k="name" v="Århanemyra" />
=======
	<node id="-249789" lat="59.8365194467" lon="10.3903805541">
		<tag k="name" v="Hogstadbråtan" />
		<tag k="place" v="locality" />
		<tag k="ssr:stedsnr" v="933663" />
	</node>
	<node id="-249788" lat="59.8596888886" lon="10.3771055517">
		<tag k="name" v="Kulpemyrene" />
>>>>>>> e1d4bc35ff8a6074a6f2e91616a996b547c36f15
		<tag k="natural" v="wetland" />
		<tag k="ssr:stedsnr" v="55476" />
	</node>
<<<<<<< HEAD
	<node lat="59.680322221170165" lon="10.507963890635427" id="-14642">
		<tag k="name" v="Oremyr" />
=======
	<node id="-249273" lat="59.7704833291" lon="10.3866222165">
		<tag k="name" v="Storvomma" />
>>>>>>> e1d4bc35ff8a6074a6f2e91616a996b547c36f15
		<tag k="natural" v="wetland" />
		<tag k="ssr:stedsnr" v="59324" />
	</node>
<<<<<<< HEAD
	<node lat="59.64961944756377" lon="10.554652780116502" id="-14643">
		<tag k="name" v="Breimosen" />
=======
	<node id="-250295" lat="59.765638892" lon="10.3262722277">
		<tag k="name" v="Høymyr" />
>>>>>>> e1d4bc35ff8a6074a6f2e91616a996b547c36f15
		<tag k="natural" v="wetland" />
		<tag k="ssr:stedsnr" v="59326" />
	</node>
<<<<<<< HEAD
	<node lat="59.530850002212915" lon="10.45039443947386" id="-14648">
		<tag k="landuse" v="meadow" />
		<tag k="name" v="Mørketo" />
		<tag k="ssr:stedsnr" v="241061" />
	</node>
	<node lat="59.87238333471254" lon="10.433958328266174" id="-14675">
		<tag k="name" v="Stokkermyra" />
		<tag k="natural" v="wetland" />
		<tag k="ssr:stedsnr" v="83483" />
	</node>
	<node lat="59.8571583378052" lon="10.38430278182009" id="-14676">
		<tag k="name" v="Breskemyr" />
=======
	<node id="-250293" lat="59.770894448" lon="10.3593694482">
		<tag k="name" v="Oppegårdsmyr" />
		<tag k="natural" v="wetland" />
		<tag k="ssr:stedsnr" v="208266" />
	</node>
	<node id="-250292" lat="59.7777833317" lon="10.3637444478">
		<tag k="name" v="Flatmyr" />
		<tag k="natural" v="wetland" />
		<tag k="ssr:stedsnr" v="208265" />
	</node>
	<node id="-250291" lat="59.784575001" lon="10.3345611072">
		<tag k="historic" v="shieling" />
		<tag k="name" v="Vikervollan" />
		<tag k="place" v="locality" />
		<tag k="ssr:stedsnr" v="208263" />
	</node>
	<node id="-249266" lat="59.7815194423" lon="10.3450277814">
		<tag k="name" v="Brenningsmyr" />
>>>>>>> e1d4bc35ff8a6074a6f2e91616a996b547c36f15
		<tag k="natural" v="wetland" />
		<tag k="ssr:stedsnr" v="83486" />
	</node>
<<<<<<< HEAD
	<node lat="59.78039166268106" lon="10.444366668821706" id="-14678">
		<tag k="name" v="Heggedalsmarka" />
		<tag k="place" v="locality" />
		<tag k="ssr:stedsnr" v="83633" />
	</node>
	<node lat="59.86126388486261" lon="10.348605555780074" id="-14680">
		<tag k="name" v="Midtskogbonn" />
=======
	<node id="-250796" lat="59.8824222191" lon="10.4563805543">
		<tag k="name" v="Fuglesang" />
>>>>>>> e1d4bc35ff8a6074a6f2e91616a996b547c36f15
		<tag k="place" v="locality" />
		<tag k="ssr:stedsnr" v="83734" />
	</node>
<<<<<<< HEAD
	<node lat="59.75860277868317" lon="10.377686108109328" id="-14708">
		<tag k="alt_name" v="Breimosen" />
		<tag k="name" v="Breidmåsan" />
=======
	<node id="-249768" lat="59.7763361107" lon="10.3831833417">
		<tag k="name" v="Krubba" />
>>>>>>> e1d4bc35ff8a6074a6f2e91616a996b547c36f15
		<tag k="natural" v="wetland" />
		<tag k="ssr:stedsnr" v="247624" />
	</node>
<<<<<<< HEAD
	<node lat="59.63949166971481" lon="10.563286117408106" id="-14728">
		<tag k="alt_name" v="Svendsmyr nordre" />
		<tag k="name" v="Nordre Svendsmyr" />
		<tag k="natural" v="wetland" />
		<tag k="ssr:stedsnr" v="116527" />
	</node>
	<node lat="59.66550000379801" lon="10.467177783805457" id="-14732">
		<tag k="name" v="Høymyr" />
		<tag k="natural" v="wetland" />
		<tag k="ssr:stedsnr" v="118270" />
	</node>
	<node lat="59.66051667028393" lon="10.454888883210593" id="-14733">
		<tag k="name" v="Sandungmyra" />
=======
	<node id="-249766" lat="59.6941888891" lon="10.4457583347">
		<tag k="name" v="Håkallsmyr" />
		<tag k="natural" v="wetland" />
		<tag k="ssr:stedsnr" v="815974" />
	</node>
	<node id="-249670" lat="59.6539027761" lon="10.5530249989">
		<tag k="name" v="Elgemyr" />
		<tag k="natural" v="wetland" />
		<tag k="ssr:stedsnr" v="727324" />
	</node>
	<node id="-249250" lat="59.7767444432" lon="10.3253277834">
		<tag k="name" v="Sørummyra" />
		<tag k="natural" v="wetland" />
		<tag k="ssr:stedsnr" v="385624" />
	</node>
	<node id="-250782" lat="59.6157444476" lon="10.5657083272">
		<tag k="name" v="Tjæregravene" />
>>>>>>> e1d4bc35ff8a6074a6f2e91616a996b547c36f15
		<tag k="natural" v="wetland" />
		<tag k="ssr:stedsnr" v="118272" />
	</node>
<<<<<<< HEAD
	<node lat="59.781183333329665" lon="10.35439165915912" id="-14750">
		<tag k="name" v="Kjekstadmarka" />
		<tag k="place" v="locality" />
		<tag k="ssr:stedsnr" v="126653" />
	</node>
	<node lat="59.87875555531869" lon="10.40213332565915" id="-14756">
		<tag k="name" v="Tveitermåsan" />
=======
	<node id="-250777" lat="59.5676638881" lon="10.5332777831">
		<tag k="name" v="Hestemyrene" />
		<tag k="natural" v="wetland" />
		<tag k="ssr:stedsnr" v="647589" />
	</node>
	<node id="-249240" lat="59.6457638917" lon="10.5102611109">
		<tag k="name" v="Holtemyr" />
>>>>>>> e1d4bc35ff8a6074a6f2e91616a996b547c36f15
		<tag k="natural" v="wetland" />
		<tag k="ssr:stedsnr" v="143602" />
	</node>
<<<<<<< HEAD
	<node lat="59.86694722593174" lon="10.365605564497569" id="-14762">
		<tag k="name" v="Sirismyr" />
=======
	<node id="-250263" lat="59.8855583303" lon="10.3544944441">
		<tag k="name" v="Korpåsmyra" />
>>>>>>> e1d4bc35ff8a6074a6f2e91616a996b547c36f15
		<tag k="natural" v="wetland" />
		<tag k="ssr:stedsnr" v="143707" />
	</node>
<<<<<<< HEAD
	<node lat="59.78559166464324" lon="10.340797217997268" id="-14767">
		<tag k="name" v="Barlindmyr" />
		<tag k="natural" v="wetland" />
		<tag k="old_name" v="Langemyrene" />
		<tag k="ssr:stedsnr" v="147278" />
	</node>
	<node lat="59.63721388821665" lon="10.568288887675147" id="-14782">
		<tag k="alt_name" v="Svendsmyr søndre" />
		<tag k="name" v="Søndre Svendsmyr" />
		<tag k="natural" v="wetland" />
		<tag k="ssr:stedsnr" v="176468" />
	</node>
	<node lat="59.784891148549306" lon="10.387310331129902" id="-14806">
=======
	<node id="-250786" lat="59.7972250005" lon="10.3740999951">
		<tag k="name" v="Stinaløkka" />
		<tag k="place" v="locality" />
		<tag k="ssr:stedsnr" v="750665" />
	</node>
	<node id="-248813" lat="59.6407111081" lon="10.552911104">
		<tag k="name" v="Båntjernmyra" />
		<tag k="natural" v="wetland" />
		<tag k="ssr:stedsnr" v="224321" />
	</node>
	<node id="-250763" lat="59.6959694475" lon="10.498805561">
		<tag k="name" v="Frøtvetmosen" />
		<tag k="natural" v="wetland" />
		<tag k="ssr:stedsnr" v="633985" />
	</node>
	<node id="-250758" lat="59.7783166692" lon="10.34015">
		<tag k="historic" v="shieling" />
		<tag k="name" v="Gulluvollen" />
		<tag k="place" v="locality" />
		<tag k="ssr:stedsnr" v="632391" />
	</node>
	<node id="-250245" lat="59.7848911485" lon="10.3873103311">
>>>>>>> e1d4bc35ff8a6074a6f2e91616a996b547c36f15
		<tag k="name" v="Verkensmåsan" />
		<tag k="natural" v="wetland" />
		<tag k="old_name" v="Verkensmosen" />
		<tag k="ssr:stedsnr" v="186694" />
	</node>
<<<<<<< HEAD
	<node lat="59.83883333197865" lon="10.38231388619942" id="-14826">
		<tag k="name" v="Ulverud" />
		<tag k="place" v="locality" />
		<tag k="ssr:stedsnr" v="265658" />
	</node>
	<node lat="59.701141670813" lon="10.465502781308594" id="-14849">
		<tag k="name" v="Vassmyra" />
=======
	<node id="-250756" lat="59.7608222223" lon="10.3688555586">
		<tag k="name" v="Botnemyra" />
		<tag k="natural" v="wetland" />
		<tag k="ssr:stedsnr" v="632348" />
	</node>
	<node id="-250755" lat="59.7929027793" lon="10.3428861121">
		<tag k="name" v="Åstjernmyr" />
>>>>>>> e1d4bc35ff8a6074a6f2e91616a996b547c36f15
		<tag k="natural" v="wetland" />
		<tag k="ssr:stedsnr" v="269961" />
	</node>
<<<<<<< HEAD
	<node lat="59.57603333605221" lon="10.528080556958965" id="-14855">
		<tag k="name" v="Midtskogmyra" />
=======
	<node id="-250754" lat="59.7756611091" lon="10.346127774">
		<tag k="name" v="Haukelimyr" />
>>>>>>> e1d4bc35ff8a6074a6f2e91616a996b547c36f15
		<tag k="natural" v="wetland" />
		<tag k="ssr:stedsnr" v="222673" />
	</node>
<<<<<<< HEAD
	<node lat="59.635916668049695" lon="10.544352772055271" id="-14871">
		<tag k="name" v="Kubakkmyra" />
		<tag k="natural" v="wetland" />
		<tag k="ssr:stedsnr" v="237883" />
	</node>
	<node lat="59.63544722608677" lon="10.469588892633334" id="-14876">
		<tag k="name" v="Svartvannsmyra" />
		<tag k="natural" v="wetland" />
		<tag k="ssr:stedsnr" v="241535" />
	</node>
	<node lat="59.77584444132467" lon="10.374180560543609" id="-14878">
		<tag k="name" v="Furumyr" />
=======
	<node id="-249213" lat="59.7927888846" lon="10.3513055533">
		<tag k="name" v="Fuglemyr" />
		<tag k="natural" v="wetland" />
		<tag k="ssr:stedsnr" v="489743" />
	</node>
	<node id="-249046" lat="59.6068305537" lon="10.5704861084">
		<tag k="name" v="Andershøl" />
		<tag k="natural" v="wetland" />
		<tag k="ssr:stedsnr" v="285731" />
	</node>
	<node id="-250737" lat="59.8814527815" lon="10.3816972262">
		<tag k="name" v="Nordhagan" />
		<tag k="place" v="locality" />
		<tag k="ssr:stedsnr" v="629598" />
	</node>
	<node id="-249472" lat="59.7063805568" lon="10.388597221">
		<tag k="name" v="Buktemyra" />
		<tag k="natural" v="wetland" />
		<tag k="ssr:stedsnr" v="694952" />
	</node>
	<node id="-249708" lat="59.5858361097" lon="10.5497250035">
		<tag k="name" v="Nøklemyr" />
>>>>>>> e1d4bc35ff8a6074a6f2e91616a996b547c36f15
		<tag k="natural" v="wetland" />
		<tag k="ssr:stedsnr" v="451284" />
	</node>
<<<<<<< HEAD
	<node lat="59.78388333112279" lon="10.365958332753705" id="-14879">
		<tag k="name" v="Oksemyr" />
=======
	<node id="-249195" lat="59.6236305524" lon="10.5527777803">
		<tag k="name" v="Aklangmosen" />
>>>>>>> e1d4bc35ff8a6074a6f2e91616a996b547c36f15
		<tag k="natural" v="wetland" />
		<tag k="ssr:stedsnr" v="451285" />
	</node>
<<<<<<< HEAD
	<node lat="59.779883328847156" lon="10.353591672139835" id="-14880">
		<tag k="name" v="Fredriksmyr" />
=======
	<node id="-249194" lat="59.601033336" lon="10.5746805639">
		<tag k="name" v="Langmyr" />
>>>>>>> e1d4bc35ff8a6074a6f2e91616a996b547c36f15
		<tag k="natural" v="wetland" />
		<tag k="ssr:stedsnr" v="451290" />
	</node>
<<<<<<< HEAD
	<node lat="59.77828610830281" lon="10.347736115472676" id="-14881">
		<tag k="name" v="Karimyr" />
=======
	<node id="-249193" lat="59.5759666707" lon="10.5190999966">
		<tag k="name" v="Bunntjernmyra" />
>>>>>>> e1d4bc35ff8a6074a6f2e91616a996b547c36f15
		<tag k="natural" v="wetland" />
		<tag k="ssr:stedsnr" v="451292" />
	</node>
<<<<<<< HEAD
	<node lat="59.7693805521359" lon="10.325730557507239" id="-14882">
		<tag k="name" v="Bjørndalsmyr" />
=======
	<node id="-249191" lat="59.5893666673" lon="10.5738888817">
		<tag k="name" v="Sannemyr" />
>>>>>>> e1d4bc35ff8a6074a6f2e91616a996b547c36f15
		<tag k="natural" v="wetland" />
		<tag k="ssr:stedsnr" v="451385" />
	</node>
<<<<<<< HEAD
	<node lat="59.77792222451095" lon="10.44298055248478" id="-14910">
		<tag k="name" v="Stokkerskogen" />
		<tag k="place" v="locality" />
		<tag k="ssr:stedsnr" v="452789" />
	</node>
	<node lat="59.87073333221535" lon="10.39937499774173" id="-14921">
		<tag k="name" v="Tveitermarka" />
		<tag k="place" v="locality" />
		<tag k="ssr:stedsnr" v="265514" />
	</node>
	<node lat="59.815980551199125" lon="10.403327786359785" id="-14932">
		<tag k="name" v="Stupet" />
		<tag k="place" v="locality" />
		<tag k="ssr:stedsnr" v="265721" />
	</node>
	<node lat="59.767769444336636" lon="10.365097225363966" id="-14936">
		<tag k="name" v="Taraldmyr" />
		<tag k="natural" v="wetland" />
		<tag k="ssr:stedsnr" v="269284" />
	</node>
	<node lat="59.702875644491144" lon="10.422993798258881" id="-14937">
		<tag k="name" v="Setermyra" />
=======
	<node id="-250213" lat="59.6625055513" lon="10.4905111126">
		<tag k="name" v="Rokkemyra" />
		<tag k="natural" v="wetland" />
		<tag k="ssr:stedsnr" v="179288" />
	</node>
	<node id="-249186" lat="59.6479429926" lon="10.5430044758">
		<tag k="alt_name" v="Lamyra øvre" />
		<tag k="name" v="Øvre Lamyra" />
		<tag k="natural" v="wetland" />
		<tag k="ssr:stedsnr" v="483946" />
	</node>
	<node id="-250207" lat="59.6372138882" lon="10.5682888877">
		<tag k="alt_name" v="Svendsmyr søndre" />
		<tag k="name" v="Søndre Svendsmyr" />
		<tag k="natural" v="wetland" />
		<tag k="ssr:stedsnr" v="176468" />
	</node>
	<node id="-250202" lat="59.6102361121" lon="10.5770611122">
		<tag k="name" v="Høymosen" />
>>>>>>> e1d4bc35ff8a6074a6f2e91616a996b547c36f15
		<tag k="natural" v="wetland" />
		<tag k="ssr:stedsnr" v="269802" />
	</node>
<<<<<<< HEAD
	<node lat="59.56083055162604" lon="10.549036103253538" id="-14952">
		<tag k="name" v="Striglevannsmyra" />
=======
	<node id="-248975" lat="59.7677694443" lon="10.3650972254">
		<tag k="name" v="Taraldmyr" />
		<tag k="natural" v="wetland" />
		<tag k="ssr:stedsnr" v="269284" />
	</node>
	<node id="-250711" lat="59.6062305554" lon="10.5755444492">
		<tag k="alt_name" v="Julsmosen" />
		<tag k="name" v="Julsmosan" />
>>>>>>> e1d4bc35ff8a6074a6f2e91616a996b547c36f15
		<tag k="natural" v="wetland" />
		<tag k="ssr:stedsnr" v="283526" />
	</node>
<<<<<<< HEAD
	<node lat="59.64268055612566" lon="10.565669449994173" id="-14971">
		<tag k="alt_name" v="Skåhellmyr øvre" />
		<tag k="name" v="Øvre Skåhellmyr" />
		<tag k="natural" v="wetland" />
		<tag k="ssr:stedsnr" v="302380" />
	</node>
	<node lat="59.60440833409281" lon="10.58524167365462" id="-15004">
		<tag k="name" v="Hestemyr" />
=======
	<node id="-249400" lat="59.624505554" lon="10.5132083341">
		<tag k="name" v="Skavmyra" />
		<tag k="natural" v="wetland" />
		<tag k="ssr:stedsnr" v="480566" />
	</node>
	<node id="-249678" lat="59.6500416685" lon="10.5269750004">
		<tag k="name" v="Slottemyrene" />
>>>>>>> e1d4bc35ff8a6074a6f2e91616a996b547c36f15
		<tag k="natural" v="wetland" />
		<tag k="ssr:stedsnr" v="467737" />
	</node>
<<<<<<< HEAD
	<node lat="59.873224996356555" lon="10.373838893138862" id="-15009">
		<tag k="name" v="Dulut" />
		<tag k="place" v="locality" />
		<tag k="ssr:stedsnr" v="325705" />
	</node>
	<node lat="59.78788333215111" lon="10.399358341849602" id="-15011">
		<tag k="name" v="Skjellestadmåsan" />
=======
	<node id="-250186" lat="59.7855916646" lon="10.340797218">
		<tag k="name" v="Barlindmyr" />
>>>>>>> e1d4bc35ff8a6074a6f2e91616a996b547c36f15
		<tag k="natural" v="wetland" />
		<tag k="ssr:stedsnr" v="325723" />
	</node>
<<<<<<< HEAD
	<node lat="59.56595832976238" lon="10.517747230511036" id="-15031">
		<tag k="name" v="Mørketomyra" />
		<tag k="natural" v="wetland" />
		<tag k="ssr:stedsnr" v="343595" />
	</node>
	<node lat="59.56808332911871" lon="10.504902778836179" id="-15032">
		<tag k="name" v="Elgemyr" />
=======
	<node id="-249671" lat="59.6392250008" lon="10.5720361053">
		<tag k="alt_name" v="Kirstimyr øvre" />
		<tag k="name" v="Øvre Kirstimyr" />
		<tag k="natural" v="wetland" />
		<tag k="ssr:stedsnr" v="727325" />
	</node>
	<node id="-250694" lat="59.6309749977" lon="10.4501361068">
		<tag k="historic" v="shieling" />
		<tag k="name" v="Potetløkka" />
		<tag k="place" v="locality" />
		<tag k="ssr:stedsnr" v="604573" />
	</node>
	<node id="-249669" lat="59.6781055521" lon="10.5030333288">
		<tag k="name" v="Langemyr" />
>>>>>>> e1d4bc35ff8a6074a6f2e91616a996b547c36f15
		<tag k="natural" v="wetland" />
		<tag k="ssr:stedsnr" v="343596" />
	</node>
<<<<<<< HEAD
	<node lat="59.58936666727573" lon="10.573888881699595" id="-15035">
		<tag k="name" v="Sannemyr" />
=======
	<node id="-249665" lat="59.6359472241" lon="10.5040749994">
		<tag k="name" v="Portmyr" />
>>>>>>> e1d4bc35ff8a6074a6f2e91616a996b547c36f15
		<tag k="natural" v="wetland" />
		<tag k="ssr:stedsnr" v="345613" />
	</node>
<<<<<<< HEAD
	<node lat="59.575966670719595" lon="10.51909999659669" id="-15037">
		<tag k="name" v="Bunntjernmyra" />
=======
	<node id="-250688" lat="59.6459888934" lon="10.4521666603">
		<tag k="name" v="Toppenhaugmyra" />
>>>>>>> e1d4bc35ff8a6074a6f2e91616a996b547c36f15
		<tag k="natural" v="wetland" />
		<tag k="ssr:stedsnr" v="345622" />
	</node>
<<<<<<< HEAD
	<node lat="59.601033335991886" lon="10.574680563928737" id="-15038">
		<tag k="name" v="Langmyr" />
=======
	<node id="-250174" lat="59.8669472259" lon="10.3656055645">
		<tag k="name" v="Sirismyr" />
>>>>>>> e1d4bc35ff8a6074a6f2e91616a996b547c36f15
		<tag k="natural" v="wetland" />
		<tag k="ssr:stedsnr" v="345703" />
	</node>
<<<<<<< HEAD
	<node lat="59.62363055244585" lon="10.552777780341897" id="-15039">
		<tag k="name" v="Aklangmosen" />
=======
	<node id="-250683" lat="59.6197638903" lon="10.5325666712">
		<tag k="name" v="Østernmyrene" />
>>>>>>> e1d4bc35ff8a6074a6f2e91616a996b547c36f15
		<tag k="natural" v="wetland" />
		<tag k="ssr:stedsnr" v="345719" />
	</node>
<<<<<<< HEAD
	<node lat="59.841772224492914" lon="10.47738611000794" id="-15065">
		<tag k="name" v="Hestehagen" />
		<tag k="place" v="locality" />
		<tag k="ssr:stedsnr" v="386646" />
	</node>
	<node lat="59.78151944225288" lon="10.34502778138796" id="-15080">
		<tag k="name" v="Brenningsmyr" />
=======
	<node id="-250169" lat="59.8167694409" lon="10.4077583368">
		<tag k="name" v="Langemyr" />
		<tag k="natural" v="wetland" />
		<tag k="ssr:stedsnr" v="143674" />
	</node>
	<node id="-249144" lat="59.6182972215" lon="10.5759333284">
		<tag k="name" v="Kalosjemyra" />
>>>>>>> e1d4bc35ff8a6074a6f2e91616a996b547c36f15
		<tag k="natural" v="wetland" />
		<tag k="ssr:stedsnr" v="390262" />
	</node>
<<<<<<< HEAD
	<node lat="59.776691669510264" lon="10.33087778002553" id="-15081">
		<tag k="name" v="Nordmarka" />
		<tag k="place" v="locality" />
		<tag k="ssr:stedsnr" v="390351" />
	</node>
	<node lat="59.64794299259901" lon="10.543004475804713" id="-15097">
		<tag k="alt_name" v="Lamyra øvre" />
		<tag k="name" v="Øvre Lamyra" />
=======
	<node id="-249655" lat="59.610122222" lon="10.5405638934">
		<tag k="name" v="Stallmyrene" />
		<tag k="natural" v="wetland" />
		<tag k="ssr:stedsnr" v="892720" />
	</node>
	<node id="-248969" lat="59.8159805512" lon="10.4033277864">
		<tag k="name" v="Stupet" />
		<tag k="place" v="locality" />
		<tag k="ssr:stedsnr" v="265721" />
	</node>
	<node id="-249140" lat="59.6044083341" lon="10.5852416737">
		<tag k="name" v="Hestemyr" />
>>>>>>> e1d4bc35ff8a6074a6f2e91616a996b547c36f15
		<tag k="natural" v="wetland" />
		<tag k="ssr:stedsnr" v="483946" />
	</node>
<<<<<<< HEAD
	<node lat="59.59674999952477" lon="10.550494443419876" id="-15103">
		<tag k="name" v="Langmyr" />
		<tag k="natural" v="wetland" />
		<tag k="ssr:stedsnr" v="406713" />
	</node>
	<node lat="59.67369999657999" lon="10.508216658377643" id="-15121">
		<tag k="name" v="Mørkmyr" />
=======
	<node id="-250161" lat="59.8787555553" lon="10.4021333257">
		<tag k="name" v="Tveitermåsan" />
>>>>>>> e1d4bc35ff8a6074a6f2e91616a996b547c36f15
		<tag k="natural" v="wetland" />
		<tag k="ssr:stedsnr" v="423356" />
	</node>
<<<<<<< HEAD
	<node lat="59.834944440732784" lon="10.361561102353742" id="-15166">
		<tag k="name" v="Jerpåsmarka" />
		<tag k="place" v="locality" />
		<tag k="ssr:stedsnr" v="447693" />
	</node>
	<node lat="59.579627777769865" lon="10.533130551983907" id="-15203">
		<tag k="name" v="Gørrmyr" />
=======
	<node id="-249133" lat="59.6582638851" lon="10.4916361077">
		<tag k="name" v="Merramyra" />
		<tag k="natural" v="wetland" />
		<tag k="ssr:stedsnr" v="298841" />
	</node>
	<node id="-250668" lat="59.5558638869" lon="10.5588749984">
		<tag k="name" v="Raumyr" />
>>>>>>> e1d4bc35ff8a6074a6f2e91616a996b547c36f15
		<tag k="natural" v="wetland" />
		<tag k="ssr:stedsnr" v="466670" />
	</node>
<<<<<<< HEAD
	<node lat="59.62450555404254" lon="10.513208334089269" id="-15208">
		<tag k="name" v="Skavmyra" />
=======
	<node id="-250666" lat="59.567080558" lon="10.5232666719">
		<tag k="name" v="Langmyra" />
>>>>>>> e1d4bc35ff8a6074a6f2e91616a996b547c36f15
		<tag k="natural" v="wetland" />
		<tag k="ssr:stedsnr" v="480566" />
	</node>
<<<<<<< HEAD
	<node lat="59.79278888463687" lon="10.351305553253887" id="-15223">
		<tag k="name" v="Fuglemyr" />
=======
	<node id="-250665" lat="59.5622583321" lon="10.5391916606">
		<tag k="name" v="Strengen" />
>>>>>>> e1d4bc35ff8a6074a6f2e91616a996b547c36f15
		<tag k="natural" v="wetland" />
		<tag k="ssr:stedsnr" v="489743" />
	</node>
<<<<<<< HEAD
	<node lat="59.86941111334025" lon="10.348052769636602" id="-15230">
		<tag k="name" v="Storemyr" />
=======
	<node id="-249639" lat="59.7568416644" lon="10.3264138822">
		<tag k="name" v="Karlsrudmyra" />
>>>>>>> e1d4bc35ff8a6074a6f2e91616a996b547c36f15
		<tag k="natural" v="wetland" />
		<tag k="ssr:stedsnr" v="489824" />
	</node>
<<<<<<< HEAD
	<node lat="59.89414166247944" lon="10.367833331948356" id="-15236">
		<tag k="name" v="Bjønneputt" />
		<tag k="natural" v="wetland" />
		<tag k="ssr:stedsnr" v="507709" />
	</node>
	<node lat="59.61031944127192" lon="10.582966666445891" id="-15255">
		<tag k="name" v="Mellommyr" />
		<tag k="natural" v="wetland" />
		<tag k="ssr:stedsnr" v="527732" />
	</node>
	<node lat="59.61588333321446" lon="10.493002784400561" id="-15256">
		<tag k="name" v="Østbråtemyra" />
=======
	<node id="-250149" lat="59.7759888918" lon="10.3544194372">
		<tag k="name" v="Bertelsmyra" />
		<tag k="natural" v="wetland" />
		<tag k="ssr:stedsnr" v="126663" />
	</node>
	<node id="-250148" lat="59.7811833333" lon="10.3543916592">
		<tag k="name" v="Kjekstadmarka" />
		<tag k="place" v="locality" />
		<tag k="ssr:stedsnr" v="126653" />
	</node>
	<node id="-250656" lat="59.7118555596" lon="10.3960055496">
		<tag k="name" v="Fuglemyr" />
>>>>>>> e1d4bc35ff8a6074a6f2e91616a996b547c36f15
		<tag k="natural" v="wetland" />
		<tag k="ssr:stedsnr" v="527742" />
	</node>
<<<<<<< HEAD
	<node lat="59.59468611104105" lon="10.575111117069955" id="-15258">
		<tag k="name" v="Gammelgardsmyra" />
=======
	<node id="-249221" lat="59.8694111133" lon="10.3480527696">
		<tag k="name" v="Storemyr" />
		<tag k="natural" v="wetland" />
		<tag k="ssr:stedsnr" v="489824" />
	</node>
	<node id="-249116" lat="59.7011416708" lon="10.4655027813">
		<tag k="name" v="Vassmyra" />
>>>>>>> e1d4bc35ff8a6074a6f2e91616a996b547c36f15
		<tag k="natural" v="wetland" />
		<tag k="ssr:stedsnr" v="527636" />
	</node>
<<<<<<< HEAD
	<node lat="59.63208888586415" lon="10.571063897149184" id="-15262">
		<tag k="name" v="Skjærsmyr" />
		<tag k="natural" v="wetland" />
		<tag k="ssr:stedsnr" v="540509" />
	</node>
	<node lat="59.630950002777304" lon="10.549836119137906" id="-15269">
		<tag k="name" v="Kjelleren" />
=======
	<node id="-249368" lat="59.5796277778" lon="10.533130552">
		<tag k="name" v="Gørrmyr" />
		<tag k="natural" v="wetland" />
		<tag k="ssr:stedsnr" v="466670" />
	</node>
	<node id="-249625" lat="59.6387666702" lon="10.5063805593">
		<tag k="landuse" v="meadow" />
		<tag k="name" v="Semshagan" />
		<tag k="ssr:stedsnr" v="662884" />
	</node>
	<node id="-249112" lat="59.6912722232" lon="10.4214722257">
		<tag k="name" v="Setermyra" />
>>>>>>> e1d4bc35ff8a6074a6f2e91616a996b547c36f15
		<tag k="natural" v="wetland" />
		<tag k="ssr:stedsnr" v="544603" />
	</node>
<<<<<<< HEAD
	<node lat="59.626372220803304" lon="10.58643611135916" id="-15270">
		<tag k="name" v="Børsandmosen" />
		<tag k="natural" v="wetland" />
		<tag k="ssr:stedsnr" v="544605" />
	</node>
	<node lat="59.62979166896411" lon="10.58278333841685" id="-15272">
		<tag k="name" v="Hestemyr" />
		<tag k="natural" v="wetland" />
		<tag k="ssr:stedsnr" v="544614" />
	</node>
	<node lat="59.79174722240926" lon="10.349455549764118" id="-15293">
		<tag k="name" v="Kavlebrumyr" />
		<tag k="natural" v="wetland" />
		<tag k="ssr:stedsnr" v="689641" />
	</node>
	<node lat="59.79544166508913" lon="10.395419445593557" id="-15296">
		<tag k="name" v="Langmyr" />
=======
	<node id="-250647" lat="59.7681916624" lon="10.3624055559">
		<tag k="name" v="Skjeljamyr" />
		<tag k="natural" v="wetland" />
		<tag k="ssr:stedsnr" v="572297" />
	</node>
	<node id="-248963" lat="59.838833332" lon="10.3823138862">
		<tag k="name" v="Ulverud" />
		<tag k="place" v="locality" />
		<tag k="ssr:stedsnr" v="265658" />
	</node>
	<node id="-250636" lat="59.823936112" lon="10.3909694532">
		<tag k="name" v="Måsan" />
		<tag k="natural" v="wetland" />
		<tag k="ssr:stedsnr" v="568668" />
	</node>
	<node id="-250116" lat="59.6260388926" lon="10.58198611">
		<tag k="name" v="Børsekastmyra" />
		<tag k="natural" v="wetland" />
		<tag k="ssr:stedsnr" v="119630" />
	</node>
	<node id="-250115" lat="59.6626916659" lon="10.5388749926">
		<tag k="name" v="Hånningsbråta" />
		<tag k="place" v="locality" />
		<tag k="ssr:stedsnr" v="119338" />
	</node>
	<node id="-249090" lat="59.7798833288" lon="10.3535916721">
		<tag k="name" v="Fredriksmyr" />
>>>>>>> e1d4bc35ff8a6074a6f2e91616a996b547c36f15
		<tag k="natural" v="wetland" />
		<tag k="ssr:stedsnr" v="689675" />
	</node>
<<<<<<< HEAD
	<node lat="59.84073888984373" lon="10.405161113363173" id="-15297">
		<tag k="name" v="Dalsmyra" />
=======
	<node id="-249089" lat="59.7838833311" lon="10.3659583328">
		<tag k="name" v="Oksemyr" />
>>>>>>> e1d4bc35ff8a6074a6f2e91616a996b547c36f15
		<tag k="natural" v="wetland" />
		<tag k="ssr:stedsnr" v="690669" />
	</node>
<<<<<<< HEAD
	<node lat="59.8701583366149" lon="10.418822218336846" id="-15302">
		<tag k="name" v="Semsmarka" />
		<tag k="place" v="locality" />
		<tag k="ssr:stedsnr" v="690554" />
	</node>
	<node lat="59.768191662409095" lon="10.362405555882402" id="-15329">
		<tag k="name" v="Skjeljamyr" />
=======
	<node id="-250112" lat="59.6605166703" lon="10.4548888832">
		<tag k="name" v="Sandungmyra" />
		<tag k="natural" v="wetland" />
		<tag k="ssr:stedsnr" v="118272" />
	</node>
	<node id="-250111" lat="59.6655000038" lon="10.4671777838">
		<tag k="name" v="Høymyr" />
>>>>>>> e1d4bc35ff8a6074a6f2e91616a996b547c36f15
		<tag k="natural" v="wetland" />
		<tag k="ssr:stedsnr" v="572297" />
	</node>
<<<<<<< HEAD
	<node lat="59.71185555957232" lon="10.396005549617273" id="-15336">
		<tag k="name" v="Fuglemyr" />
		<tag k="natural" v="wetland" />
		<tag k="ssr:stedsnr" v="572958" />
	</node>
	<node lat="59.70638055675059" lon="10.388597220989482" id="-15345">
		<tag k="name" v="Buktemyra" />
		<tag k="natural" v="wetland" />
		<tag k="ssr:stedsnr" v="694952" />
	</node>
	<node lat="59.55586388693551" lon="10.558874998434773" id="-15351">
		<tag k="name" v="Raumyr" />
=======
	<node id="-249436" lat="59.7917472224" lon="10.3494555498">
		<tag k="name" v="Kavlebrumyr" />
		<tag k="natural" v="wetland" />
		<tag k="ssr:stedsnr" v="689641" />
	</node>
	<node id="-249758" lat="59.7723861068" lon="10.3625916596">
		<tag k="name" v="Sekkemyra" />
		<tag k="natural" v="wetland" />
		<tag k="ssr:stedsnr" v="815254" />
	</node>
	<node id="-250106" lat="59.6394916697" lon="10.5632861174">
		<tag k="alt_name" v="Svendsmyr nordre" />
		<tag k="name" v="Nordre Svendsmyr" />
		<tag k="natural" v="wetland" />
		<tag k="ssr:stedsnr" v="116527" />
	</node>
	<node id="-249077" lat="59.8349444407" lon="10.3615611024">
		<tag k="name" v="Jerpåsmarka" />
		<tag k="place" v="locality" />
		<tag k="ssr:stedsnr" v="447693" />
	</node>
	<node id="-250098" lat="59.6010250026" lon="10.5267166696">
		<tag k="name" v="Stampemyr" />
>>>>>>> e1d4bc35ff8a6074a6f2e91616a996b547c36f15
		<tag k="natural" v="wetland" />
		<tag k="ssr:stedsnr" v="586692" />
	</node>
<<<<<<< HEAD
	<node lat="59.645988893430236" lon="10.452166660298932" id="-15362">
		<tag k="name" v="Toppenhaugmyra" />
=======
	<node id="-249071" lat="59.8189749967" lon="10.4177194428">
		<tag k="name" v="Jutemyr" />
>>>>>>> e1d4bc35ff8a6074a6f2e91616a996b547c36f15
		<tag k="natural" v="wetland" />
		<tag k="ssr:stedsnr" v="603250" />
	</node>
<<<<<<< HEAD
	<node lat="59.7608222223069" lon="10.368855558563164" id="-15397">
		<tag k="name" v="Botnemyra" />
		<tag k="natural" v="wetland" />
		<tag k="ssr:stedsnr" v="632348" />
	</node>
	<node lat="59.77831666916553" lon="10.340149999950206" id="-15399">
		<tag k="historic" v="shieling" />
		<tag k="name" v="Gulluvollen" />
		<tag k="place" v="locality" />
		<tag k="ssr:stedsnr" v="632391" />
	</node>
	<node lat="59.695969447474724" lon="10.498805561024659" id="-15404">
		<tag k="name" v="Frøtvetmosen" />
=======
	<node id="-249246" lat="59.6222583307" lon="10.5685472297">
		<tag k="name" v="Kjellsmosen" />
		<tag k="natural" v="wetland" />
		<tag k="ssr:stedsnr" v="362620" />
	</node>
	<node id="-249577" lat="59.7753944471" lon="10.4629388964">
		<tag k="name" v="Nordmarka" />
		<tag k="place" v="locality" />
		<tag k="ssr:stedsnr" v="633767" />
	</node>
	<node id="-249062" lat="59.5308500022" lon="10.4503944395">
		<tag k="landuse" v="meadow" />
		<tag k="name" v="Mørketo" />
		<tag k="ssr:stedsnr" v="241061" />
	</node>
	<node id="-249061" lat="59.6476666697" lon="10.4433138848">
		<tag k="landuse" v="meadow" />
		<tag k="name" v="Plasseløkka" />
		<tag k="ssr:stedsnr" v="239257" />
	</node>
	<node id="-249572" lat="59.717561112" lon="10.4018666709">
		<tag k="name" v="Langmyrene" />
		<tag k="natural" v="wetland" />
		<tag k="ssr:stedsnr" v="632755" />
	</node>
	<node id="-249571" lat="59.7005138902" lon="10.400555561">
		<tag k="name" v="Geitmyra" />
>>>>>>> e1d4bc35ff8a6074a6f2e91616a996b547c36f15
		<tag k="natural" v="wetland" />
		<tag k="ssr:stedsnr" v="633985" />
	</node>
<<<<<<< HEAD
	<node lat="59.567663888073874" lon="10.53327778313321" id="-15410">
		<tag k="name" v="Hestemyrene" />
=======
	<node id="-249058" lat="59.5887944446" lon="10.5556361104">
		<tag k="name" v="Sirismyr" />
>>>>>>> e1d4bc35ff8a6074a6f2e91616a996b547c36f15
		<tag k="natural" v="wetland" />
		<tag k="ssr:stedsnr" v="647589" />
	</node>
<<<<<<< HEAD
	<node lat="59.5609000012876" lon="10.513255564447327" id="-15421">
		<tag k="name" v="Tronstadmyra" />
=======
	<node id="-250079" lat="59.6839055574" lon="10.4792000049">
		<tag k="name" v="Moltemyra" />
>>>>>>> e1d4bc35ff8a6074a6f2e91616a996b547c36f15
		<tag k="natural" v="wetland" />
		<tag k="ssr:stedsnr" v="708594" />
	</node>
<<<<<<< HEAD
	<node lat="59.56234722038901" lon="10.520894438935127" id="-15422">
		<tag k="name" v="Haukemyrene" />
=======
	<node id="-250584" lat="59.629791669" lon="10.5827833384">
		<tag k="name" v="Hestemyr" />
>>>>>>> e1d4bc35ff8a6074a6f2e91616a996b547c36f15
		<tag k="natural" v="wetland" />
		<tag k="ssr:stedsnr" v="708598" />
	</node>
<<<<<<< HEAD
	<node lat="59.61416110903213" lon="10.530983326489185" id="-15424">
		<tag k="name" v="Paddemyr" />
=======
	<node id="-250582" lat="59.6263722208" lon="10.5864361114">
		<tag k="name" v="Børsandmosen" />
>>>>>>> e1d4bc35ff8a6074a6f2e91616a996b547c36f15
		<tag k="natural" v="wetland" />
		<tag k="ssr:stedsnr" v="709721" />
	</node>
<<<<<<< HEAD
	<node lat="59.539952781961674" lon="10.485166669780854" id="-15425">
		<tag k="name" v="Kjoserud" />
		<tag k="place" v="locality" />
		<tag k="ssr:stedsnr" v="709135" />
	</node>
	<node lat="59.61012222196289" lon="10.540563893410045" id="-15448">
		<tag k="name" v="Stallmyrene" />
=======
	<node id="-250581" lat="59.6309500028" lon="10.5498361191">
		<tag k="name" v="Kjelleren" />
		<tag k="natural" v="wetland" />
		<tag k="ssr:stedsnr" v="544603" />
	</node>
	<node id="-249556" lat="59.5423166708" lon="10.5101222269">
		<tag k="name" v="Stuttdalsmyra" />
>>>>>>> e1d4bc35ff8a6074a6f2e91616a996b547c36f15
		<tag k="natural" v="wetland" />
		<tag k="ssr:stedsnr" v="892720" />
	</node>
<<<<<<< HEAD
	<node lat="59.75684166444653" lon="10.326413882231753" id="-15468">
		<tag k="name" v="Karlsrudmyra" />
		<tag k="natural" v="wetland" />
		<tag k="ssr:stedsnr" v="694314" />
	</node>
	<node lat="59.56454166472765" lon="10.554411119137901" id="-15483">
		<tag k="name" v="Høymyr" />
		<tag k="natural" v="wetland" />
		<tag k="ssr:stedsnr" v="708689" />
	</node>
	<node lat="59.60143332967041" lon="10.592719442959012" id="-15484">
		<tag k="name" v="Gampemyr" />
=======
	<node id="-250063" lat="59.8612638849" lon="10.3486055558">
		<tag k="name" v="Midtskogbonn" />
		<tag k="place" v="locality" />
		<tag k="ssr:stedsnr" v="83734" />
	</node>
	<node id="-250060" lat="59.7803916627" lon="10.4443666688">
		<tag k="name" v="Heggedalsmarka" />
		<tag k="place" v="locality" />
		<tag k="ssr:stedsnr" v="83633" />
	</node>
	<node id="-250570" lat="59.6320888859" lon="10.5710638971">
		<tag k="name" v="Skjærsmyr" />
		<tag k="natural" v="wetland" />
		<tag k="ssr:stedsnr" v="540509" />
	</node>
	<node id="-249545" lat="59.6495944443" lon="10.4353055477">
		<tag k="name" v="Langbråtan" />
		<tag k="place" v="locality" />
		<tag k="ssr:stedsnr" v="725250" />
	</node>
	<node id="-250568" lat="59.6158833332" lon="10.4930027844">
		<tag k="name" v="Østbråtemyra" />
>>>>>>> e1d4bc35ff8a6074a6f2e91616a996b547c36f15
		<tag k="natural" v="wetland" />
		<tag k="ssr:stedsnr" v="709711" />
	</node>
<<<<<<< HEAD
	<node lat="59.62268333512687" lon="10.537150002290465" id="-15492">
		<tag k="name" v="Eriksmyr" />
		<tag k="natural" v="wetland" />
		<tag k="ssr:stedsnr" v="723508" />
	</node>
	<node lat="59.63594722411557" lon="10.5040749993793" id="-15494">
		<tag k="name" v="Portmyr" />
=======
	<node id="-250567" lat="59.6103194413" lon="10.5829666664">
		<tag k="name" v="Mellommyr" />
		<tag k="natural" v="wetland" />
		<tag k="ssr:stedsnr" v="527732" />
	</node>
	<node id="-250054" lat="59.8723833347" lon="10.4339583283">
		<tag k="name" v="Stokkermyra" />
>>>>>>> e1d4bc35ff8a6074a6f2e91616a996b547c36f15
		<tag k="natural" v="wetland" />
		<tag k="ssr:stedsnr" v="723817" />
	</node>
<<<<<<< HEAD
	<node lat="59.63542222231471" lon="10.537677783457141" id="-15495">
=======
	<node id="-249541" lat="59.6354222223" lon="10.5376777835">
>>>>>>> e1d4bc35ff8a6074a6f2e91616a996b547c36f15
		<tag k="name" v="Stikkvannsmosen" />
		<tag k="natural" v="wetland" />
		<tag k="ssr:stedsnr" v="723872" />
	</node>
<<<<<<< HEAD
	<node lat="59.653902776148456" lon="10.553024998877722" id="-15505">
		<tag k="name" v="Elgemyr" />
=======
	<node id="-250052" lat="59.8147361136" lon="10.3597833399">
		<tag k="name" v="Engelsrudmyra" />
>>>>>>> e1d4bc35ff8a6074a6f2e91616a996b547c36f15
		<tag k="natural" v="wetland" />
		<tag k="ssr:stedsnr" v="727324" />
	</node>
<<<<<<< HEAD
	<node lat="59.639225000841925" lon="10.572036105344116" id="-15506">
		<tag k="alt_name" v="Kirstimyr øvre" />
		<tag k="name" v="Øvre Kirstimyr" />
=======
	<node id="-250563" lat="59.5905222191" lon="10.5627472304">
		<tag k="name" v="Førstemyr" />
>>>>>>> e1d4bc35ff8a6074a6f2e91616a996b547c36f15
		<tag k="natural" v="wetland" />
		<tag k="ssr:stedsnr" v="727325" />
	</node>
<<<<<<< HEAD
	<node lat="59.797225000547336" lon="10.374099995057298" id="-15525">
		<tag k="name" v="Stinaløkka" />
		<tag k="place" v="locality" />
		<tag k="ssr:stedsnr" v="750665" />
	</node>
	<node lat="59.83480833263643" lon="10.40976389556694" id="-15536">
		<tag k="name" v="Ånnerudskogen" />
		<tag k="place" v="locality" />
		<tag k="ssr:stedsnr" v="751670" />
	</node>
	<node lat="59.7837111073884" lon="10.336580556963762" id="-15544">
		<tag k="name" v="Vikervollmyra" />
=======
	<node id="-250562" lat="59.5903555552" lon="10.5443888897">
		<tag k="name" v="Elghølet" />
>>>>>>> e1d4bc35ff8a6074a6f2e91616a996b547c36f15
		<tag k="natural" v="wetland" />
		<tag k="ssr:stedsnr" v="754306" />
	</node>
<<<<<<< HEAD
	<node lat="59.78303333347008" lon="10.350227780488165" id="-15545">
		<tag k="name" v="Eftasvælmyr" />
=======
	<node id="-251073" lat="59.619811112" lon="10.5664666605">
		<tag k="alt_name" v="Kjellsmosen lille" />
		<tag k="name" v="Lille-Kjellsmosen" />
>>>>>>> e1d4bc35ff8a6074a6f2e91616a996b547c36f15
		<tag k="natural" v="wetland" />
		<tag k="ssr:stedsnr" v="754307" />
	</node>
<<<<<<< HEAD
	<node lat="59.77240555649196" lon="10.353372216298679" id="-15546">
		<tag k="name" v="Langemyr" />
=======
	<node id="-249024" lat="59.5857833358" lon="10.5322055628">
		<tag k="name" v="Tjærebrennermyrene" />
>>>>>>> e1d4bc35ff8a6074a6f2e91616a996b547c36f15
		<tag k="natural" v="wetland" />
		<tag k="ssr:stedsnr" v="754314" />
	</node>
<<<<<<< HEAD
	<node lat="59.65049722597008" lon="10.4975388918595" id="-15558">
		<tag k="name" v="Rokkemyrene" />
=======
	<node id="-250558" lat="59.5725916636" lon="10.5327750035">
		<tag k="name" v="Svenskemyr" />
>>>>>>> e1d4bc35ff8a6074a6f2e91616a996b547c36f15
		<tag k="natural" v="wetland" />
		<tag k="ssr:stedsnr" v="905877" />
	</node>
	<node lat="59.650041668539046" lon="10.526975000376401" id="-15559">
		<tag k="name" v="Slottemyrene" />
		<tag k="natural" v="wetland" />
		<tag k="ssr:stedsnr" v="905889" />
	</node>
<<<<<<< HEAD
	<node lat="59.64383611057765" lon="10.570299997437361" id="-15560">
=======
	<node id="-251069" lat="59.6438361106" lon="10.5702999974">
>>>>>>> e1d4bc35ff8a6074a6f2e91616a996b547c36f15
		<tag k="alt_name" v="Skåhellmyr nedre" />
		<tag k="name" v="Nedre Skåhellmyr" />
		<tag k="natural" v="wetland" />
		<tag k="ssr:stedsnr" v="969365" />
	</node>
<<<<<<< HEAD
	<node lat="59.67842777934824" lon="10.449644443621732" id="-15564">
		<tag k="name" v="Akkordmyrene" />
		<tag k="natural" v="wetland" />
		<tag k="ssr:stedsnr" v="768241" />
	</node>
	<node lat="59.613008333262876" lon="10.507816658674038" id="-15576">
		<tag k="name" v="Merrahølet" />
=======
	<node id="-249018" lat="59.5608305516" lon="10.5490361033">
		<tag k="name" v="Striglevannsmyra" />
>>>>>>> e1d4bc35ff8a6074a6f2e91616a996b547c36f15
		<tag k="natural" v="wetland" />
		<tag k="ssr:stedsnr" v="770609" />
	</node>
<<<<<<< HEAD
	<node lat="59.60236111547424" lon="10.521408329812612" id="-15577">
		<tag k="name" v="Feierhølet" />
=======
	<node id="-249527" lat="59.7724055565" lon="10.3533722163">
		<tag k="name" v="Langemyr" />
>>>>>>> e1d4bc35ff8a6074a6f2e91616a996b547c36f15
		<tag k="natural" v="wetland" />
		<tag k="ssr:stedsnr" v="770611" />
	</node>
<<<<<<< HEAD
	<node lat="59.52896110668021" lon="10.454008334267947" id="-15585">
		<tag k="name" v="Mørketomyra" />
=======
	<node id="-249522" lat="59.6018916704" lon="10.5890027783">
		<tag k="name" v="Moltemyr" />
>>>>>>> e1d4bc35ff8a6074a6f2e91616a996b547c36f15
		<tag k="natural" v="wetland" />
		<tag k="ssr:stedsnr" v="909068" />
	</node>
<<<<<<< HEAD
	<node lat="59.62831111309707" lon="10.589419451926606" id="-15596">
		<tag k="fixme" v="multiple name tags, choose one and add the other to alt_name" />
		<tag k="name" v="Skogmyr;Børsandmosen" />
=======
	<node id="-250032" lat="59.6101861119" lon="10.5771805475">
		<tag k="name" v="Høgmosan" />
>>>>>>> e1d4bc35ff8a6074a6f2e91616a996b547c36f15
		<tag k="natural" v="wetland" />
		<tag k="ssr:stedsnr" v="787640" />
	</node>
<<<<<<< HEAD
	<node lat="59.69418888906024" lon="10.4457583346578" id="-15650">
		<tag k="name" v="Håkallsmyr" />
		<tag k="natural" v="wetland" />
		<tag k="ssr:stedsnr" v="815974" />
	</node>
	<node lat="59.557100001357234" lon="10.543997219205359" id="-15662">
		<tag k="name" v="Grevlingmyra" />
=======
	<node id="-249005" lat="59.6020638934" lon="10.5529361071">
		<tag k="name" v="Merramyra" />
>>>>>>> e1d4bc35ff8a6074a6f2e91616a996b547c36f15
		<tag k="natural" v="wetland" />
		<tag k="ssr:stedsnr" v="830581" />
	</node>
<<<<<<< HEAD
	<node lat="59.5762055589039" lon="10.511569444869659" id="-15667">
		<tag k="name" v="Prekestolmyra" />
=======
	<node id="-249516" lat="59.5850083347" lon="10.5044027692">
		<tag k="name" v="Rødbykollmyrene" />
>>>>>>> e1d4bc35ff8a6074a6f2e91616a996b547c36f15
		<tag k="natural" v="wetland" />
		<tag k="ssr:stedsnr" v="831635" />
	</node>
<<<<<<< HEAD
	<node lat="59.85524166986686" lon="10.365605560895098" id="-15693">
		<tag k="name" v="Hansemarka" />
		<tag k="place" v="locality" />
		<tag k="ssr:stedsnr" v="871710" />
	</node>
	<node lat="59.78916110885803" lon="10.358991671527056" id="-15695">
		<tag k="name" v="Djupmyr" />
		<tag k="natural" v="wetland" />
		<tag k="ssr:stedsnr" v="871664" />
	</node>
	<node lat="59.85968888861361" lon="10.377105551670992" id="-15716">
		<tag k="name" v="Kulpemyrene" />
=======
	<node id="-250055" lat="59.8571583378" lon="10.3843027818">
		<tag k="name" v="Breskemyr" />
		<tag k="natural" v="wetland" />
		<tag k="ssr:stedsnr" v="83486" />
	</node>
	<node id="-250022" lat="59.6321861118" lon="10.5598055558">
		<tag k="name" v="Postmyr" />
		<tag k="natural" v="wetland" />
		<tag k="ssr:stedsnr" v="59599" />
	</node>
	<node id="-249509" lat="59.614161109" lon="10.5309833265">
		<tag k="name" v="Paddemyr" />
>>>>>>> e1d4bc35ff8a6074a6f2e91616a996b547c36f15
		<tag k="natural" v="wetland" />
		<tag k="ssr:stedsnr" v="933660" />
	</node>
	<node lat="59.83651944670249" lon="10.390380554060025" id="-15717">
		<tag k="name" v="Hogstadbråtan" />
		<tag k="place" v="locality" />
		<tag k="ssr:stedsnr" v="933663" />
	</node>
	<node lat="59.58583610967124" lon="10.549725003490098" id="-15752">
		<tag k="name" v="Nøklemyr" />
		<tag k="natural" v="wetland" />
		<tag k="ssr:stedsnr" v="913708" />
	</node>
<<<<<<< HEAD
	<node lat="59.612627780103224" lon="10.521447228577166" id="-15785">
=======
	<node id="-251044" lat="59.6126277801" lon="10.5214472286">
>>>>>>> e1d4bc35ff8a6074a6f2e91616a996b547c36f15
		<tag k="name" v="Pølsemyr" />
		<tag k="natural" v="wetland" />
		<tag k="ssr:stedsnr" v="952606" />
	</node>
<<<<<<< HEAD
	<node lat="59.58812777386756" lon="10.563963883301875" id="-15787">
		<tag k="name" v="Briskemyr" />
=======
	<node id="-250019" lat="59.6496194476" lon="10.5546527801">
		<tag k="name" v="Breimosen" />
>>>>>>> e1d4bc35ff8a6074a6f2e91616a996b547c36f15
		<tag k="natural" v="wetland" />
		<tag k="ssr:stedsnr" v="952622" />
	</node>
<<<<<<< HEAD
	<node lat="59.64968611472475" lon="10.559886103449665" id="-15826">
		<tag k="name" v="Breidmosan" />
=======
	<node id="-250018" lat="59.6803222212" lon="10.5079638906">
		<tag k="name" v="Oremyr" />
>>>>>>> e1d4bc35ff8a6074a6f2e91616a996b547c36f15
		<tag k="natural" v="wetland" />
		<tag k="ssr:stedsnr" v="4852" />
	</node>
<<<<<<< HEAD
	<node lat="59.85473398550543" lon="10.331774343564303" id="-15844">
		<tag k="name" v="Sollimyra" />
		<tag k="natural" v="wetland" />
		<tag k="ssr:stedsnr" v="23961" />
	</node>
	<node lat="59.7865277760777" lon="10.354500003413547" id="-15851">
		<tag k="name" v="Spengmyrene" />
		<tag k="natural" v="wetland" />
		<tag k="ssr:stedsnr" v="26279" />
	</node>
	<node lat="59.784286114666706" lon="10.368197215736616" id="-15852">
		<tag k="name" v="Tiurmyr" />
=======
	<node id="-249501" lat="59.539952782" lon="10.4851666698">
		<tag k="name" v="Kjoserud" />
		<tag k="place" v="locality" />
		<tag k="ssr:stedsnr" v="709135" />
	</node>
	<node id="-249499" lat="59.5645416647" lon="10.5544111191">
		<tag k="name" v="Høymyr" />
>>>>>>> e1d4bc35ff8a6074a6f2e91616a996b547c36f15
		<tag k="natural" v="wetland" />
		<tag k="ssr:stedsnr" v="26282" />
	</node>
<<<<<<< HEAD
	<node lat="59.61323055631385" lon="10.478297226858217" id="-15873">
		<tag k="name" v="Bergsmyrene" />
		<tag k="natural" v="wetland" />
		<tag k="ssr:stedsnr" v="40553" />
	</node>
	<node lat="59.6359305569022" lon="10.548611104127263" id="-15879">
		<tag k="name" v="Grytnesmyra" />
=======
	<node id="-249540" lat="59.6226833351" lon="10.5371500023">
		<tag k="name" v="Eriksmyr" />
		<tag k="natural" v="wetland" />
		<tag k="ssr:stedsnr" v="723508" />
	</node>
	<node id="-249494" lat="59.5623472204" lon="10.5208944389">
		<tag k="name" v="Haukemyrene" />
>>>>>>> e1d4bc35ff8a6074a6f2e91616a996b547c36f15
		<tag k="natural" v="wetland" />
		<tag k="ssr:stedsnr" v="55490" />
	</node>
<<<<<<< HEAD
	<node lat="59.654497224305246" lon="10.480769450950204" id="-15882">
=======
	<node id="-250005" lat="59.6544972243" lon="10.480769451">
>>>>>>> e1d4bc35ff8a6074a6f2e91616a996b547c36f15
		<tag k="name" v="Stubbleinmyra" />
		<tag k="natural" v="wetland" />
		<tag k="ssr:stedsnr" v="57257" />
	</node>
<<<<<<< HEAD
	<node lat="59.632186111791064" lon="10.55980555583271" id="-15889">
		<tag k="name" v="Postmyr" />
=======
	<node id="-251027" lat="59.8552416699" lon="10.3656055609">
		<tag k="name" v="Hansemarka" />
		<tag k="place" v="locality" />
		<tag k="ssr:stedsnr" v="871710" />
	</node>
	<node id="-250000" lat="59.6359305569" lon="10.5486111041">
		<tag k="name" v="Grytnesmyra" />
>>>>>>> e1d4bc35ff8a6074a6f2e91616a996b547c36f15
		<tag k="natural" v="wetland" />
		<tag k="ssr:stedsnr" v="59599" />
	</node>
<<<<<<< HEAD
	<node lat="59.61018611189651" lon="10.577180547456281" id="-15903">
		<tag k="name" v="Høgmosan" />
=======
	<node id="-249999" lat="59.6181388922" lon="10.5409305561">
		<tag k="name" v="Århanemyra" />
>>>>>>> e1d4bc35ff8a6074a6f2e91616a996b547c36f15
		<tag k="natural" v="wetland" />
		<tag k="ssr:stedsnr" v="64642" />
	</node>
<<<<<<< HEAD
	<node lat="59.814736113582065" lon="10.359783339873223" id="-15913">
		<tag k="name" v="Engelsrudmyra" />
		<tag k="natural" v="wetland" />
		<tag k="ssr:stedsnr" v="82689" />
	</node>
	<node lat="59.82811111433445" lon="10.45855278221472" id="-15920">
		<tag k="landuse" v="meadow" />
		<tag k="name" v="Langenga" />
		<tag k="ssr:stedsnr" v="83554" />
	</node>
	<node lat="59.68390555740526" lon="10.479200004886563" id="-15938">
		<tag k="name" v="Moltemyra" />
=======
	<node id="-250477" lat="59.7766916695" lon="10.33087778">
		<tag k="name" v="Nordmarka" />
		<tag k="place" v="locality" />
		<tag k="ssr:stedsnr" v="390351" />
	</node>
	<node id="-249993" lat="59.5967777801" lon="10.5504055641">
		<tag k="name" v="Langmyrene" />
>>>>>>> e1d4bc35ff8a6074a6f2e91616a996b547c36f15
		<tag k="natural" v="wetland" />
		<tag k="ssr:stedsnr" v="87947" />
	</node>
<<<<<<< HEAD
	<node lat="59.57111388963728" lon="10.444688890424366" id="-15945">
		<tag k="name" v="Postmyr" />
=======
	<node id="-250817" lat="59.7830333335" lon="10.3502277805">
		<tag k="name" v="Eftasvælmyr" />
		<tag k="natural" v="wetland" />
		<tag k="ssr:stedsnr" v="754307" />
	</node>
	<node id="-251011" lat="59.6097416689" lon="10.586927772">
		<tag k="alt_name" v="Breimosen" />
		<tag k="name" v="Breidmosan" />
>>>>>>> e1d4bc35ff8a6074a6f2e91616a996b547c36f15
		<tag k="natural" v="wetland" />
		<tag k="ssr:stedsnr" v="89113" />
	</node>
<<<<<<< HEAD
	<node lat="59.60102500259463" lon="10.526716669627708" id="-15953">
		<tag k="name" v="Stampemyr" />
=======
	<node id="-250498" lat="59.6071694439" lon="10.5434583261">
		<tag k="name" v="Barlindmyr" />
>>>>>>> e1d4bc35ff8a6074a6f2e91616a996b547c36f15
		<tag k="natural" v="wetland" />
		<tag k="ssr:stedsnr" v="103636" />
	</node>
<<<<<<< HEAD
	<node lat="59.66269166594784" lon="10.538874992604962" id="-15960">
		<tag k="name" v="Hånningsbråta" />
		<tag k="place" v="locality" />
		<tag k="ssr:stedsnr" v="119338" />
	</node>
	<node lat="59.62603889262351" lon="10.581986109994679" id="-15961">
		<tag k="name" v="Børsekastmyra" />
=======
	<node id="-250496" lat="59.594575002" lon="10.5551416706">
		<tag k="name" v="Postmyr" />
>>>>>>> e1d4bc35ff8a6074a6f2e91616a996b547c36f15
		<tag k="natural" v="wetland" />
		<tag k="ssr:stedsnr" v="119630" />
	</node>
<<<<<<< HEAD
	<node lat="59.77598889183286" lon="10.354419437180095" id="-15984">
		<tag k="name" v="Bertelsmyra" />
		<tag k="natural" v="wetland" />
		<tag k="ssr:stedsnr" v="126663" />
	</node>
	<node lat="59.81676944089024" lon="10.407758336813112" id="-15993">
		<tag k="name" v="Langemyr" />
=======
	<node id="-249459" lat="59.8407388898" lon="10.4051611134">
		<tag k="name" v="Dalsmyra" />
>>>>>>> e1d4bc35ff8a6074a6f2e91616a996b547c36f15
		<tag k="natural" v="wetland" />
		<tag k="ssr:stedsnr" v="143674" />
	</node>
<<<<<<< HEAD
	<node lat="59.610236112089346" lon="10.577061112248083" id="-16021">
		<tag k="name" v="Høymosen" />
		<tag k="natural" v="wetland" />
		<tag k="ssr:stedsnr" v="163741" />
	</node>
	<node lat="59.602063893430476" lon="10.552936107068971" id="-16023">
		<tag k="name" v="Merramyra" />
		<tag k="natural" v="wetland" />
		<tag k="ssr:stedsnr" v="163754" />
	</node>
	<node lat="59.662505551325616" lon="10.490511112604798" id="-16030">
		<tag k="name" v="Rokkemyra" />
		<tag k="natural" v="wetland" />
		<tag k="ssr:stedsnr" v="179288" />
	</node>
	<node lat="59.88555833032403" lon="10.354494444090767" id="-16064">
		<tag k="name" v="Korpåsmyra" />
=======
	<node id="-248946" lat="59.8707333322" lon="10.3993749977">
		<tag k="name" v="Tveitermarka" />
		<tag k="place" v="locality" />
		<tag k="ssr:stedsnr" v="265514" />
	</node>
	<node id="-250557" lat="59.5683916687" lon="10.5454361039">
		<tag k="name" v="Tronkemyra" />
		<tag k="natural" v="wetland" />
		<tag k="ssr:stedsnr" v="526596" />
	</node>
	<node id="-250987" lat="59.6174472251" lon="10.5524749966">
		<tag k="name" v="Ambrusmosen" />
>>>>>>> e1d4bc35ff8a6074a6f2e91616a996b547c36f15
		<tag k="natural" v="wetland" />
		<tag k="ssr:stedsnr" v="204674" />
	</node>
<<<<<<< HEAD
	<node lat="59.76563889198194" lon="10.326272227674403" id="-16080">
		<tag k="name" v="Høymyr" />
=======
	<node id="-250985" lat="59.5762055589" lon="10.5115694449">
		<tag k="name" v="Prekestolmyra" />
>>>>>>> e1d4bc35ff8a6074a6f2e91616a996b547c36f15
		<tag k="natural" v="wetland" />
		<tag k="ssr:stedsnr" v="208339" />
	</node>
<<<<<<< HEAD
	<node lat="59.78457500095851" lon="10.334561107156944" id="-16088">
		<tag k="historic" v="shieling" />
		<tag k="name" v="Vikervollan" />
=======
	<node id="-249448" lat="59.8701583366" lon="10.4188222183">
		<tag k="name" v="Semsmarka" />
>>>>>>> e1d4bc35ff8a6074a6f2e91616a996b547c36f15
		<tag k="place" v="locality" />
		<tag k="ssr:stedsnr" v="208263" />
	</node>
<<<<<<< HEAD
	<node lat="59.777783331666626" lon="10.363744447799743" id="-16089">
		<tag k="name" v="Flatmyr" />
=======
	<node id="-248935" lat="59.5711138896" lon="10.4446888904">
		<tag k="name" v="Postmyr" />
>>>>>>> e1d4bc35ff8a6074a6f2e91616a996b547c36f15
		<tag k="natural" v="wetland" />
		<tag k="ssr:stedsnr" v="208265" />
	</node>
<<<<<<< HEAD
	<node lat="59.77089444796321" lon="10.35936944816304" id="-16090">
		<tag k="name" v="Oppegårdsmyr" />
		<tag k="natural" v="wetland" />
		<tag k="ssr:stedsnr" v="208266" />
	</node>
	<node lat="59.71033611521938" lon="10.402077770881274" id="-16092">
		<tag k="name" v="Breimosan" />
=======
	<node id="-249958" lat="59.7842861147" lon="10.3681972157">
		<tag k="name" v="Tiurmyr" />
		<tag k="natural" v="wetland" />
		<tag k="ssr:stedsnr" v="26282" />
	</node>
	<node id="-250981" lat="59.6060638888" lon="10.5237027734">
		<tag k="name" v="Skrikemyr" />
>>>>>>> e1d4bc35ff8a6074a6f2e91616a996b547c36f15
		<tag k="natural" v="wetland" />
		<tag k="ssr:stedsnr" v="208961" />
	</node>
<<<<<<< HEAD
	<node lat="59.79340277653167" lon="10.394905547148188" id="-16093">
		<tag k="name" v="Geitmyra" />
		<tag k="natural" v="wetland" />
		<tag k="ssr:stedsnr" v="208963" />
	</node>
	<node lat="59.766530553542594" lon="10.37874444148054" id="-16095">
		<tag k="name" v="Haramyra" />
		<tag k="natural" v="wetland" />
		<tag k="ssr:stedsnr" v="209383" />
	</node>
	<node lat="59.58235555978787" lon="10.451388890541253" id="-16104">
		<tag k="name" v="Langmyrene" />
=======
	<node id="-250470" lat="59.8417722245" lon="10.47738611">
		<tag k="name" v="Hestehagen" />
		<tag k="place" v="locality" />
		<tag k="ssr:stedsnr" v="386646" />
	</node>
	<node id="-249088" lat="59.7758444413" lon="10.3741805605">
		<tag k="name" v="Furumyr" />
		<tag k="natural" v="wetland" />
		<tag k="ssr:stedsnr" v="451284" />
	</node>
	<node id="-249439" lat="59.7954416651" lon="10.3954194456">
		<tag k="name" v="Langmyr" />
>>>>>>> e1d4bc35ff8a6074a6f2e91616a996b547c36f15
		<tag k="natural" v="wetland" />
		<tag k="ssr:stedsnr" v="224456" />
	</node>
<<<<<<< HEAD
	<node lat="59.64071110813829" lon="10.552911103995687" id="-16106">
		<tag k="name" v="Båntjernmyra" />
=======
	<node id="-250974" lat="59.5571000014" lon="10.5439972192">
		<tag k="name" v="Grevlingmyra" />
>>>>>>> e1d4bc35ff8a6074a6f2e91616a996b547c36f15
		<tag k="natural" v="wetland" />
		<tag k="ssr:stedsnr" v="224321" />
	</node>
<<<<<<< HEAD
	<node lat="59.5887944445922" lon="10.555636110386109" id="-16109">
		<tag k="name" v="Sirismyr" />
		<tag k="natural" v="wetland" />
		<tag k="ssr:stedsnr" v="224622" />
	</node>
	<node lat="59.5859777750859" lon="10.501327777496535" id="-16111">
		<tag k="name" v="Delemyr" />
		<tag k="natural" v="wetland" />
		<tag k="ssr:stedsnr" v="224633" />
	</node>
	<node lat="59.595497218694355" lon="10.460122230435712" id="-16113">
		<tag k="name" v="Tjuvmyra" />
		<tag k="natural" v="wetland" />
		<tag k="ssr:stedsnr" v="224477" />
	</node>
	<node lat="59.5857833358058" lon="10.53220556282358" id="-16127">
		<tag k="name" v="Tjærebrennermyrene" />
		<tag k="natural" v="wetland" />
		<tag k="ssr:stedsnr" v="284672" />
	</node>
	<node lat="59.60683055372822" lon="10.57048610841615" id="-16131">
		<tag k="name" v="Andershøl" />
		<tag k="natural" v="wetland" />
		<tag k="ssr:stedsnr" v="285731" />
	</node>
	<node lat="59.65826388514831" lon="10.491636107660925" id="-16138">
		<tag k="name" v="Merramyra" />
		<tag k="natural" v="wetland" />
		<tag k="ssr:stedsnr" v="298841" />
	</node>
	<node lat="59.61829722153496" lon="10.57593332839995" id="-16142">
		<tag k="name" v="Kalosjemyra" />
=======
	<node id="-249957" lat="59.7865277761" lon="10.3545000034">
		<tag k="name" v="Spengmyrene" />
		<tag k="natural" v="wetland" />
		<tag k="ssr:stedsnr" v="26279" />
	</node>
	<node id="-248815" lat="59.5954972187" lon="10.4601222304">
		<tag k="name" v="Tjuvmyra" />
		<tag k="natural" v="wetland" />
		<tag k="ssr:stedsnr" v="224477" />
	</node>
	<node id="-248921" lat="59.8281111143" lon="10.4585527822">
		<tag k="landuse" v="meadow" />
		<tag k="name" v="Langenga" />
		<tag k="ssr:stedsnr" v="83554" />
	</node>
	<node id="-249428" lat="59.594686111" lon="10.5751111171">
		<tag k="name" v="Gammelgardsmyra" />
>>>>>>> e1d4bc35ff8a6074a6f2e91616a996b547c36f15
		<tag k="natural" v="wetland" />
		<tag k="ssr:stedsnr" v="301610" />
	</node>
<<<<<<< HEAD
	<node lat="59.53900555967271" lon="10.503694449225165" id="-16143">
		<tag k="name" v="Oremyr" />
		<tag k="natural" v="wetland" />
		<tag k="ssr:stedsnr" v="301617" />
	</node>
	<node lat="59.64621203857875" lon="10.538684913542962" id="-16146">
		<tag k="alt_name" v="Lamyra nedre" />
		<tag k="name" v="Nedre Lamyra" />
=======
	<node id="-249939" lat="59.8293083353" lon="10.4694027822">
		<tag k="landuse" v="meadow" />
		<tag k="name" v="Langenga" />
		<tag k="ssr:stedsnr" v="23605" />
	</node>
	<node id="-250979" lat="59.5946444457" lon="10.468250002">
		<tag k="name" v="Tveitamyra" />
		<tag k="natural" v="wetland" />
		<tag k="ssr:stedsnr" v="831476" />
	</node>
	<node id="-249929" lat="59.6496861147" lon="10.5598861034">
		<tag k="name" v="Breidmosan" />
>>>>>>> e1d4bc35ff8a6074a6f2e91616a996b547c36f15
		<tag k="natural" v="wetland" />
		<tag k="ssr:stedsnr" v="301950" />
	</node>
<<<<<<< HEAD
	<node lat="59.79510555374451" lon="10.331338886310773" id="-16195">
		<tag k="name" v="Ormemyr" />
=======
	<node id="-249100" lat="59.7779222245" lon="10.4429805525">
		<tag k="name" v="Stokkerskogen" />
		<tag k="place" v="locality" />
		<tag k="ssr:stedsnr" v="452789" />
	</node>
	<node id="-248901" lat="59.7586027787" lon="10.3776861081">
		<tag k="alt_name" v="Breimosen" />
		<tag k="name" v="Breidmåsan" />
>>>>>>> e1d4bc35ff8a6074a6f2e91616a996b547c36f15
		<tag k="natural" v="wetland" />
		<tag k="ssr:stedsnr" v="329277" />
	</node>
<<<<<<< HEAD
	<node lat="59.64576389168473" lon="10.510261110855701" id="-16220">
		<tag k="name" v="Holtemyr" />
=======
	<node id="-249087" lat="59.7693805521" lon="10.3257305575">
		<tag k="name" v="Bjørndalsmyr" />
		<tag k="natural" v="wetland" />
		<tag k="ssr:stedsnr" v="451385" />
	</node>
	<node id="-249410" lat="59.8941416625" lon="10.3678333319">
		<tag k="name" v="Bjønneputt" />
>>>>>>> e1d4bc35ff8a6074a6f2e91616a996b547c36f15
		<tag k="natural" v="wetland" />
		<tag k="ssr:stedsnr" v="358858" />
	</node>
<<<<<<< HEAD
	<node lat="59.66256944881514" lon="10.49836110375412" id="-16231">
		<tag k="name" v="Svendsrud Langemyr" />
		<tag k="natural" v="wetland" />
		<tag k="ssr:stedsnr" v="362327" />
	</node>
	<node lat="59.63980833578603" lon="10.575219449624427" id="-16235">
=======
	<node id="-250805" lat="59.8348083326" lon="10.4097638956">
		<tag k="name" v="Ånnerudskogen" />
		<tag k="place" v="locality" />
		<tag k="ssr:stedsnr" v="751670" />
	</node>
	<node id="-248848" lat="59.635916668" lon="10.5443527721">
		<tag k="name" v="Kubakkmyra" />
		<tag k="natural" v="wetland" />
		<tag k="ssr:stedsnr" v="237883" />
	</node>
	<node id="-249695" lat="59.5289611067" lon="10.4540083343">
		<tag k="name" v="Mørketomyra" />
		<tag k="natural" v="wetland" />
		<tag k="ssr:stedsnr" v="909068" />
	</node>
	<node id="-250424" lat="59.6398083358" lon="10.5752194496">
>>>>>>> e1d4bc35ff8a6074a6f2e91616a996b547c36f15
		<tag k="alt_name" v="Kirstimyr nedre" />
		<tag k="name" v="Nedre Kirstimyr" />
		<tag k="natural" v="wetland" />
		<tag k="ssr:stedsnr" v="362347" />
	</node>
<<<<<<< HEAD
	<node lat="59.62225833073332" lon="10.56854722973172" id="-16241">
		<tag k="name" v="Kjellsmosen" />
		<tag k="natural" v="wetland" />
		<tag k="ssr:stedsnr" v="362620" />
	</node>
	<node lat="59.776744443190545" lon="10.325327783432872" id="-16265">
		<tag k="name" v="Sørummyra" />
		<tag k="natural" v="wetland" />
		<tag k="ssr:stedsnr" v="385624" />
	</node>
	<node lat="59.77048332911366" lon="10.386622216536438" id="-16285">
		<tag k="name" v="Storvomma" />
=======
	<node id="-250420" lat="59.6625694488" lon="10.4983611038">
		<tag k="name" v="Svendsrud Langemyr" />
		<tag k="natural" v="wetland" />
		<tag k="ssr:stedsnr" v="362327" />
	</node>
	<node id="-249950" lat="59.8548138873" lon="10.3314305546">
		<tag k="name" v="Sollimyra" />
		<tag k="natural" v="wetland" />
		<tag k="ssr:stedsnr" v="23961" />
	</node>
	<node id="-250930" lat="59.8669083334" lon="10.381633341">
		<tag k="name" v="Sørmarka" />
		<tag k="place" v="locality" />
		<tag k="ssr:stedsnr" v="811615" />
	</node>
	<node id="-250929" lat="59.8181611111" lon="10.4602166678">
		<tag k="name" v="Husejordet" />
		<tag k="place" v="locality" />
		<tag k="ssr:stedsnr" v="811569" />
	</node>
	<node id="-250407" lat="59.5680833291" lon="10.5049027788">
		<tag k="name" v="Elgemyr" />
>>>>>>> e1d4bc35ff8a6074a6f2e91616a996b547c36f15
		<tag k="natural" v="wetland" />
		<tag k="ssr:stedsnr" v="391614" />
	</node>
<<<<<<< HEAD
	<node lat="59.60716944387083" lon="10.54345832605642" id="-16291">
		<tag k="name" v="Barlindmyr" />
=======
	<node id="-250406" lat="59.5659583298" lon="10.5177472305">
		<tag k="name" v="Mørketomyra" />
>>>>>>> e1d4bc35ff8a6074a6f2e91616a996b547c36f15
		<tag k="natural" v="wetland" />
		<tag k="ssr:stedsnr" v="406740" />
	</node>
<<<<<<< HEAD
	<node lat="59.5945750020157" lon="10.555141670638411" id="-16297">
		<tag k="name" v="Postmyr" />
		<tag k="natural" v="wetland" />
		<tag k="ssr:stedsnr" v="406649" />
	</node>
	<node lat="59.81897499667857" lon="10.417719442824307" id="-16346">
		<tag k="name" v="Jutemyr" />
		<tag k="natural" v="wetland" />
		<tag k="ssr:stedsnr" v="447654" />
	</node>
	<node lat="59.78035278029131" lon="10.371819448683421" id="-16372">
		<tag k="name" v="Langemyrene" />
		<tag k="natural" v="wetland" />
		<tag k="ssr:stedsnr" v="511265" />
	</node>
	<node lat="59.7204777794678" lon="10.390963895212161" id="-16375">
		<tag k="name" v="Skogen" />
=======
	<node id="-250518" lat="59.6736999966" lon="10.5082166584">
		<tag k="name" v="Mørkmyr" />
		<tag k="natural" v="wetland" />
		<tag k="ssr:stedsnr" v="423356" />
	</node>
	<node id="-250911" lat="59.8978861091" lon="10.3701333368">
		<tag k="name" v="Kastemyr" />
		<tag k="natural" v="wetland" />
		<tag k="ssr:stedsnr" v="793882" />
	</node>
	<node id="-248858" lat="59.6354472261" lon="10.4695888926">
		<tag k="name" v="Svartvannsmyra" />
>>>>>>> e1d4bc35ff8a6074a6f2e91616a996b547c36f15
		<tag k="natural" v="wetland" />
		<tag k="ssr:stedsnr" v="511767" />
	</node>
<<<<<<< HEAD
	<node lat="59.71944444294459" lon="10.4317944469381" id="-16378">
		<tag k="name" v="Rundløkka" />
		<tag k="place" v="locality" />
		<tag k="ssr:stedsnr" v="511955" />
	</node>
	<node lat="59.56839166869457" lon="10.545436103918718" id="-16391">
		<tag k="name" v="Tronkemyra" />
=======
	<node id="-249880" lat="59.6349638849" lon="10.5686972185">
		<tag k="name" v="Sauemyr" />
>>>>>>> e1d4bc35ff8a6074a6f2e91616a996b547c36f15
		<tag k="natural" v="wetland" />
		<tag k="ssr:stedsnr" v="526596" />
	</node>
<<<<<<< HEAD
	<node lat="59.572591663637986" lon="10.532775003542202" id="-16392">
		<tag k="name" v="Svenskemyr" />
		<tag k="natural" v="wetland" />
		<tag k="ssr:stedsnr" v="526699" />
	</node>
	<node lat="59.59035555521855" lon="10.544388889667" id="-16396">
		<tag k="name" v="Elghølet" />
=======
	<node id="-251046" lat="59.5881277739" lon="10.5639638833">
		<tag k="name" v="Briskemyr" />
		<tag k="natural" v="wetland" />
		<tag k="ssr:stedsnr" v="952622" />
	</node>
	<node id="-249091" lat="59.7782861083" lon="10.3477361155">
		<tag k="name" v="Karimyr" />
		<tag k="natural" v="wetland" />
		<tag k="ssr:stedsnr" v="451292" />
	</node>
	<node id="-250384" lat="59.7951055537" lon="10.3313388863">
		<tag k="name" v="Ormemyr" />
>>>>>>> e1d4bc35ff8a6074a6f2e91616a996b547c36f15
		<tag k="natural" v="wetland" />
		<tag k="ssr:stedsnr" v="527650" />
	</node>
<<<<<<< HEAD
	<node lat="59.59052221906078" lon="10.562747230399022" id="-16397">
		<tag k="name" v="Førstemyr" />
=======
	<node id="-248846" lat="59.6554083312" lon="10.498591661">
		<tag k="name" v="Tjernsmyrene" />
>>>>>>> e1d4bc35ff8a6074a6f2e91616a996b547c36f15
		<tag k="natural" v="wetland" />
		<tag k="ssr:stedsnr" v="527656" />
	</node>
<<<<<<< HEAD
	<node lat="59.82393611197919" lon="10.39096945324718" id="-16426">
		<tag k="name" v="Måsan" />
		<tag k="natural" v="wetland" />
		<tag k="ssr:stedsnr" v="568668" />
	</node>
	<node lat="59.56225833214009" lon="10.539191660579311" id="-16445">
		<tag k="name" v="Strengen" />
=======
	<node id="-248837" lat="59.5852666681" lon="10.5278611177">
		<tag k="name" v="Nordvestmyrene" />
>>>>>>> e1d4bc35ff8a6074a6f2e91616a996b547c36f15
		<tag k="natural" v="wetland" />
		<tag k="ssr:stedsnr" v="586566" />
	</node>
<<<<<<< HEAD
	<node lat="59.56708055795843" lon="10.523266671899297" id="-16446">
		<tag k="name" v="Langmyra" />
=======
	<node id="-250884" lat="59.6283111131" lon="10.5894194519">
		<tag k="fixme" v="multiple name tags, choose one and add the other to alt_name" />
		<tag k="name" v="Børsandmosen;Skogmyr" />
>>>>>>> e1d4bc35ff8a6074a6f2e91616a996b547c36f15
		<tag k="natural" v="wetland" />
		<tag k="ssr:stedsnr" v="586582" />
	</node>
<<<<<<< HEAD
	<node lat="59.585008334723305" lon="10.5044027692289" id="-16451">
		<tag k="name" v="Rødbykollmyrene" />
=======
	<node id="-248835" lat="59.6132305563" lon="10.4782972269">
		<tag k="name" v="Bergsmyrene" />
>>>>>>> e1d4bc35ff8a6074a6f2e91616a996b547c36f15
		<tag k="natural" v="wetland" />
		<tag k="ssr:stedsnr" v="587699" />
	</node>
<<<<<<< HEAD
	<node lat="59.60189167038834" lon="10.58900277834196" id="-16458">
		<tag k="name" v="Moltemyr" />
=======
	<node id="-250881" lat="59.6748722262" lon="10.5117138812">
		<tag k="name" v="Arnemyr" />
>>>>>>> e1d4bc35ff8a6074a6f2e91616a996b547c36f15
		<tag k="natural" v="wetland" />
		<tag k="ssr:stedsnr" v="588728" />
	</node>
<<<<<<< HEAD
	<node lat="59.61976389030332" lon="10.532566671174477" id="-16463">
		<tag k="name" v="Østernmyrene" />
		<tag k="natural" v="wetland" />
		<tag k="ssr:stedsnr" v="601499" />
	</node>
	<node lat="59.63097499767614" lon="10.450136106794034" id="-16470">
		<tag k="historic" v="shieling" />
		<tag k="name" v="Potetløkka" />
		<tag k="place" v="locality" />
		<tag k="ssr:stedsnr" v="604573" />
	</node>
	<node lat="59.606230555417135" lon="10.575544449206076" id="-16485">
		<tag k="alt_name" v="Julsmosen" />
		<tag k="name" v="Julsmosan" />
		<tag k="natural" v="wetland" />
		<tag k="ssr:stedsnr" v="610657" />
	</node>
	<node lat="59.88145278153752" lon="10.381697226242498" id="-16504">
		<tag k="name" v="Nordhagan" />
		<tag k="place" v="locality" />
		<tag k="ssr:stedsnr" v="629598" />
	</node>
	<node lat="59.77566110913808" lon="10.34612777400541" id="-16517">
		<tag k="name" v="Haukelimyr" />
		<tag k="natural" v="wetland" />
		<tag k="ssr:stedsnr" v="632279" />
	</node>
	<node lat="59.79290277934727" lon="10.342886112071396" id="-16518">
		<tag k="name" v="Åstjernmyr" />
		<tag k="natural" v="wetland" />
		<tag k="ssr:stedsnr" v="632295" />
	</node>
	<node lat="59.700513890215355" lon="10.400555561042607" id="-16519">
		<tag k="name" v="Geitmyra" />
		<tag k="natural" v="wetland" />
		<tag k="ssr:stedsnr" v="632753" />
	</node>
	<node lat="59.71756111195197" lon="10.4018666709218" id="-16520">
		<tag k="name" v="Langmyrene" />
		<tag k="natural" v="wetland" />
		<tag k="ssr:stedsnr" v="632755" />
	</node>
	<node lat="59.77539444712286" lon="10.462938896421369" id="-16524">
		<tag k="name" v="Nordmarka" />
		<tag k="place" v="locality" />
		<tag k="ssr:stedsnr" v="633767" />
	</node>
	<node lat="59.61574444757474" lon="10.5657083272455" id="-16540">
		<tag k="name" v="Tjæregravene" />
		<tag k="natural" v="wetland" />
		<tag k="ssr:stedsnr" v="648735" />
	</node>
	<node lat="59.63876667021544" lon="10.506380559340622" id="-16543">
		<tag k="landuse" v="meadow" />
		<tag k="name" v="Semshagan" />
		<tag k="ssr:stedsnr" v="662884" />
	</node>
	<node lat="59.64959444427054" lon="10.435305547666262" id="-16565">
		<tag k="name" v="Langbråtan" />
		<tag k="place" v="locality" />
		<tag k="ssr:stedsnr" v="725250" />
	</node>
	<node lat="59.678105552104014" lon="10.503033328837917" id="-16570">
		<tag k="name" v="Langemyr" />
		<tag k="natural" v="wetland" />
		<tag k="ssr:stedsnr" v="726355" />
	</node>
	<node lat="59.54231667081618" lon="10.510122226923269" id="-16572">
		<tag k="name" v="Stuttdalsmyra" />
		<tag k="natural" v="wetland" />
		<tag k="ssr:stedsnr" v="726646" />
	</node>
	<node lat="59.88242221910386" lon="10.456380554291583" id="-16604">
		<tag k="name" v="Fuglesang" />
		<tag k="place" v="locality" />
		<tag k="ssr:stedsnr" v="751635" />
	</node>
	<node lat="59.70638610767521" lon="10.441038885249524" id="-16615">
		<tag k="name" v="Flatermyra" />
		<tag k="natural" v="wetland" />
		<tag k="ssr:stedsnr" v="754902" />
	</node>
	<node lat="59.57263888462066" lon="10.510897223107076" id="-16630">
		<tag k="name" v="Haremyra" />
		<tag k="natural" v="wetland" />
		<tag k="ssr:stedsnr" v="768563" />
	</node>
	<node lat="59.57423889171588" lon="10.505213890624582" id="-16631">
		<tag k="name" v="Fuglemyr" />
		<tag k="natural" v="wetland" />
		<tag k="ssr:stedsnr" v="768564" />
	</node>
	<node lat="59.59783888719477" lon="10.578180562185294" id="-16634">
		<tag k="name" v="Ørnsmyr" />
		<tag k="natural" v="wetland" />
		<tag k="ssr:stedsnr" v="770715" />
	</node>
	<node lat="59.617772225296655" lon="10.509838884658617" id="-16635">
		<tag k="name" v="Eftasmyrene" />
		<tag k="natural" v="wetland" />
		<tag k="ssr:stedsnr" v="770725" />
	</node>
	<node lat="59.63376388922768" lon="10.590880556186352" id="-16644">
		<tag k="name" v="Skoklemyr" />
		<tag k="natural" v="wetland" />
		<tag k="ssr:stedsnr" v="783489" />
	</node>
	<node lat="59.639922223435306" lon="10.463808331396622" id="-16649">
		<tag k="name" v="Orrhanemyra" />
		<tag k="natural" v="wetland" />
		<tag k="ssr:stedsnr" v="786275" />
	</node>
	<node lat="59.674872226155024" lon="10.511713881204162" id="-16655">
		<tag k="name" v="Arnemyr" />
		<tag k="natural" v="wetland" />
		<tag k="ssr:stedsnr" v="787341" />
	</node>
	<node lat="59.89788610905803" lon="10.370133336819046" id="-16674">
		<tag k="name" v="Kastemyr" />
		<tag k="natural" v="wetland" />
		<tag k="ssr:stedsnr" v="793882" />
	</node>
	<node lat="59.86690833344999" lon="10.38163334102501" id="-16690">
		<tag k="name" v="Sørmarka" />
		<tag k="place" v="locality" />
		<tag k="ssr:stedsnr" v="811615" />
	</node>
	<node lat="59.818161111064114" lon="10.46021666778262" id="-16694">
		<tag k="name" v="Husejordet" />
		<tag k="place" v="locality" />
		<tag k="ssr:stedsnr" v="811569" />
	</node>
	<node lat="59.83288296250405" lon="10.42303018929521" id="-16695">
		<tag k="name" v="Oreholt" />
		<tag k="place" v="locality" />
		<tag k="ssr:stedsnr" v="811641" />
	</node>
	<node lat="59.772386106760614" lon="10.362591659575148" id="-16706">
		<tag k="name" v="Sekkemyra" />
		<tag k="natural" v="wetland" />
		<tag k="ssr:stedsnr" v="815254" />
	</node>
	<node lat="59.77633611070016" lon="10.383183341709678" id="-16714">
		<tag k="name" v="Krubba" />
		<tag k="natural" v="wetland" />
		<tag k="ssr:stedsnr" v="816629" />
	</node>
	<node lat="59.60606388878047" lon="10.523702773417169" id="-16729">
		<tag k="name" v="Skrikemyr" />
		<tag k="natural" v="wetland" />
		<tag k="ssr:stedsnr" v="831591" />
	</node>
	<node lat="59.6174472251088" lon="10.55247499657015" id="-16731">
		<tag k="name" v="Ambrusmosen" />
		<tag k="natural" v="wetland" />
		<tag k="ssr:stedsnr" v="831700" />
	</node>
	<node lat="59.59464444569252" lon="10.468250002011839" id="-16733">
		<tag k="name" v="Tveitamyra" />
		<tag k="natural" v="wetland" />
		<tag k="ssr:stedsnr" v="831476" />
	</node>
	<node lat="59.609741668897726" lon="10.586927771995065" id="-16751">
		<tag k="alt_name" v="Breimosen" />
		<tag k="name" v="Breidmosan" />
		<tag k="natural" v="wetland" />
		<tag k="ssr:stedsnr" v="853633" />
	</node>
	<node lat="59.88487222238268" lon="10.388272218794862" id="-16788">
		<tag k="name" v="Tuemyr" />
		<tag k="natural" v="wetland" />
		<tag k="ssr:stedsnr" v="872627" />
	</node>
	<node lat="59.63496388489271" lon="10.568697218506477" id="-16838">
		<tag k="name" v="Sauemyr" />
		<tag k="natural" v="wetland" />
		<tag k="ssr:stedsnr" v="965514" />
	</node>
	<node lat="59.61981111200799" lon="10.566466660503973" id="-16844">
		<tag k="alt_name" v="Kjellsmosen lille" />
		<tag k="name" v="Lille-Kjellsmosen" />
		<tag k="natural" v="wetland" />
		<tag k="ssr:stedsnr" v="969632" />
	</node>
=======
>>>>>>> e1d4bc35ff8a6074a6f2e91616a996b547c36f15
</osm>
