<?xml version="1.0" encoding="UTF-8"?>
<osm generator="osmapis" version="0.6">
	<node id="-237567" lat="59.6377750031" lon="10.4558916666">
		<tag k="name" v="Grube" />
		<tag k="place" v="locality" />
		<tag k="ssr:stedsnr" v="604571" />
	</node>
	<node id="-237824" lat="59.7610499995" lon="10.4091555525">
		<tag k="name" v="Linnerud" />
		<tag k="place" v="isolated_dwelling" />
		<tag k="ssr:stedsnr" v="816379" />
	</node>
	<node id="-237551" lat="59.6032027758" lon="10.5171583264">
		<tag k="fixme" v="consider natural=beach + surface=sand" />
		<tag k="leisure" v="swimming_area" />
		<tag k="name" v="Roligheta" />
		<tag k="place" v="locality" />
		<tag k="ssr:stedsnr" v="588637" />
	</node>
	<node id="-237550" lat="59.6103305558" lon="10.5181888858">
		<tag k="name" v="Prestesetra" />
		<tag k="place" v="locality" />
		<tag k="ssr:stedsnr" v="588634" />
	</node>
	<node id="-237547" lat="59.6112055516" lon="10.43912778">
		<tag k="name" v="Marteplassen" />
		<tag k="place" v="farm" />
		<tag k="ssr:stedsnr" v="588489" />
	</node>
	<node id="-237544" lat="59.5412833363" lon="10.4747722248">
		<tag k="alt_name" v="Ranvik lille" />
		<tag k="name" v="Lille-Ramvik" />
		<tag k="place" v="farm" />
		<tag k="ssr:stedsnr" v="587138" />
	</node>
	<node id="-237541" lat="59.5623861075" lon="10.5663111071">
		<tag k="name" v="Toftebråten" />
		<tag k="place" v="farm" />
		<tag k="ssr:stedsnr" v="586669" />
	</node>
	<node id="-237538" lat="59.5998638923" lon="10.4712083293">
		<tag k="name" v="Teigen" />
		<tag k="place" v="isolated_dwelling" />
		<tag k="ssr:stedsnr" v="586564" />
	</node>
	<node id="-237904" lat="59.8628361092" lon="10.4574916642">
		<tag k="name" v="Lidarende" />
		<tag k="place" v="farm" />
		<tag k="ssr:stedsnr" v="872537" />
	</node>
	<node id="-237534" lat="59.7436805565" lon="10.43199166">
		<tag k="name" v="Ølstad" />
		<tag k="place" v="farm" />
		<tag k="ssr:stedsnr" v="573498" />
	</node>
	<node id="-237527" lat="59.7148944447" lon="10.3499916688">
		<tag k="name" v="Vestre Hyggen" />
		<tag k="place" v="farm" />
		<tag k="ssr:stedsnr" v="572817" />
	</node>
	<node id="-237523" lat="59.732219443" lon="10.3231305489">
		<tag k="alt_name" v="Dagslet" />
		<tag k="name" v="Dagslett" />
		<tag k="place" v="farm" />
		<tag k="ssr:stedsnr" v="572437" />
	</node>
	<node id="-237516" lat="59.7624194463" lon="10.4881444436">
		<tag k="name" v="Rydningen" />
		<tag k="place" v="farm" />
		<tag k="ssr:stedsnr" v="570612" />
	</node>
	<node id="-237851" lat="59.6437861155" lon="10.5879333387">
		<tag k="name" v="Fredheim" />
		<tag k="place" v="farm" />
		<tag k="ssr:stedsnr" v="831323" />
	</node>
	<node id="-237511" lat="59.8527277814" lon="10.4144138882">
		<tag k="name" v="Store Berg" />
		<tag k="place" v="farm" />
		<tag k="ssr:stedsnr" v="569289" />
	</node>
	<node id="-237508" lat="59.8402305539" lon="10.503491674">
		<tag k="alt_name" v="Merraneset" />
		<tag k="name" v="Merranes" />
		<tag k="place" v="farm" />
		<tag k="ssr:stedsnr" v="568508" />
	</node>
	<node id="-237507" lat="59.7987138884" lon="10.4917055479">
		<tag k="name" v="Eljarnes" />
		<tag k="place" v="farm" />
		<tag k="ssr:stedsnr" v="568500" />
	</node>
	<node id="-237505" lat="59.854680557" lon="10.4862666605">
		<tag k="name" v="Vogellund" />
		<tag k="place" v="locality" />
		<tag k="ssr:stedsnr" v="568486" />
	</node>
	<node id="-237503" lat="59.8748444479" lon="10.5053333264">
		<tag k="name" v="Elgarnes" />
		<tag k="place" v="farm" />
		<tag k="ssr:stedsnr" v="568469" />
	</node>
	<node id="-237500" lat="59.8019499993" lon="10.4146333292">
		<tag k="alt_name" v="Bråtan nedre" />
		<tag k="name" v="Nedre Bråtan" />
		<tag k="place" v="farm" />
		<tag k="ssr:stedsnr" v="567707" />
	</node>
	<node id="-237498" lat="59.8253444484" lon="10.3691333412">
		<tag k="name" v="Vekta" />
		<tag k="place" v="farm" />
		<tag k="ssr:stedsnr" v="567687" />
	</node>
	<node id="-237496" lat="59.7856944417" lon="10.4442666646">
		<tag k="fixme" v="consider place=suburb, village or hamlet" />
		<tag k="name" v="Homansbyen" />
		<tag k="place" v="quarter" />
		<tag k="ssr:stedsnr" v="567617" />
	</node>
	<node id="-237493" lat="59.8381194444" lon="10.4023305569">
		<tag k="name" v="Nedre Hogstad" />
		<tag k="place" v="farm" />
		<tag k="ssr:stedsnr" v="567611" />
	</node>
	<node id="-237492" lat="59.7516742306" lon="10.4342077064">
		<tag k="fixme" v="consider place=hamlet" />
		<tag k="name" v="Bryn" />
		<tag k="place" v="farm" />
		<tag k="ssr:stedsnr" v="551506" />
	</node>
	<node id="-237489" lat="59.8560000012" lon="10.4736777741">
		<tag k="name" v="Bruset" />
		<tag k="place" v="farm" />
		<tag k="ssr:stedsnr" v="550794" />
	</node>
	<node id="-237486" lat="59.8366861144" lon="10.4157055535">
		<tag k="name" v="Dæli" />
		<tag k="place" v="farm" />
		<tag k="ssr:stedsnr" v="550754" />
	</node>
	<node id="-237485" lat="59.830377775" lon="10.4068249996">
		<tag k="name" v="Ånnerud" />
		<tag k="place" v="farm" />
		<tag k="ssr:stedsnr" v="550743" />
	</node>
	<node id="-237484" lat="59.8249694403" lon="10.4502611066">
		<tag k="alt_name" v="Bleiker, nedre" />
		<tag k="name" v="Nedre Bleiker" />
		<tag k="place" v="farm" />
		<tag k="ssr:stedsnr" v="550711" />
	</node>
	<node id="-237483" lat="59.7986579021" lon="10.4624631215">
		<tag k="name" v="Sand" />
		<tag k="place" v="farm" />
		<tag k="ssr:stedsnr" v="550700" />
	</node>
	<node id="-237480" lat="59.7991666677" lon="10.3653333414">
		<tag k="name" v="Påverud" />
		<tag k="place" v="isolated_dwelling" />
		<tag k="ssr:stedsnr" v="550677" />
	</node>
	<node id="-237479" lat="59.7780416645" lon="10.4805611194">
		<tag k="name" v="Lillelien" />
		<tag k="place" v="isolated_dwelling" />
		<tag k="ssr:stedsnr" v="550665" />
	</node>
	<node id="-237477" lat="59.7960694425" lon="10.4891222176">
		<tag k="name" v="Elnes" />
		<tag k="place" v="farm" />
		<tag k="ssr:stedsnr" v="550632" />
	</node>
	<node id="-237476" lat="59.7386338333" lon="10.3756343647">
		<tag k="name" v="Auvi" />
		<tag k="place" v="hamlet" />
		<tag k="ssr:stedsnr" v="549942" />
	</node>
	<node id="-237475" lat="59.8852138858" lon="10.4351388912">
		<tag k="alt_name" v="Stokkerbråten" />
		<tag k="name" v="Stokkerbråtan" />
		<tag k="place" v="isolated_dwelling" />
		<tag k="ssr:stedsnr" v="549833" />
	</node>
	<node id="-237474" lat="59.7133032534" lon="10.4442246357">
		<tag k="alt_name" v="Søndre Flater" />
		<tag k="fixme" v="consider place=hamlet" />
		<tag k="name" v="Flater" />
		<tag k="place" v="farm" />
		<tag k="ssr:stedsnr" v="549785" />
	</node>
	<node id="-237473" lat="59.5849806416" lon="10.5803520253">
		<tag k="name" v="Eik" />
		<tag k="place" v="hamlet" />
		<tag k="ssr:stedsnr" v="549709" />
	</node>
	<node id="-237471" lat="59.6287178126" lon="10.4665861467">
		<tag k="alt_name" v="Nedre Inglingstad" />
		<tag k="fixme" v="consider place=hamlet" />
		<tag k="name" v="Inglingstad" />
		<tag k="place" v="farm" />
		<tag k="ssr:stedsnr" v="549654" />
	</node>
	<node id="-237467" lat="59.5427800127" lon="10.5614113198">
		<tag k="name" v="Tofte" />
		<tag k="place" v="village" />
		<tag k="ssr:stedsnr" v="549512" />
	</node>
	<node id="-237465" lat="59.7285166695" lon="10.3213277825">
		<tag k="name" v="Skogen" />
		<tag k="place" v="isolated_dwelling" />
		<tag k="ssr:stedsnr" v="549260" />
	</node>
	<node id="-237463" lat="59.7473722182" lon="10.3411638814">
		<tag k="name" v="Søndre Rud" />
		<tag k="place" v="farm" />
		<tag k="ssr:stedsnr" v="548371" />
	</node>
	<node id="-237457" lat="59.5500305538" lon="10.4922805567">
		<tag k="name" v="Vollebråten" />
		<tag k="place" v="farm" />
		<tag k="ssr:stedsnr" v="544610" />
	</node>
	<node id="-237890" lat="59.8812250003" lon="10.4338999983">
		<tag k="name" v="Ormerud" />
		<tag k="place" v="isolated_dwelling" />
		<tag k="ssr:stedsnr" v="853851" />
	</node>
	<node id="-237449" lat="59.7454416677" lon="10.5106638864">
		<tag k="name" v="Gabrielsbyen" />
		<tag k="place" v="isolated_dwelling" />
		<tag k="ssr:stedsnr" v="543151" />
	</node>
	<node id="-237889" lat="59.63829167" lon="10.453355551">
		<tag k="name" v="Selvikhagen" />
		<tag k="place" v="isolated_dwelling" />
		<tag k="ssr:stedsnr" v="853835" />
	</node>
	<node id="-237440" lat="59.5982083332" lon="10.571308341">
		<tag k="name" v="Branok" />
		<tag k="place" v="isolated_dwelling" />
		<tag k="ssr:stedsnr" v="527723" />
	</node>
	<node id="-237887" lat="59.6168527754" lon="10.4238888912">
		<tag k="name" v="Ryggen" />
		<tag k="place" v="isolated_dwelling" />
		<tag k="ssr:stedsnr" v="853638" />
	</node>
	<node id="-237429" lat="59.672493" lon="10.5534491665">
		<tag k="fixme" v="consider place=hamlet" />
		<tag k="name" v="Kongsdelene" />
		<tag k="place" v="farm" />
		<tag k="ssr:stedsnr" v="525313" />
	</node>
	<node id="-237428" lat="59.6702638869" lon="10.4399361025">
		<tag k="alt_name" v="Rørvik nordre" />
		<tag k="name" v="Nordre Rørvik" />
		<tag k="place" v="farm" />
		<tag k="ssr:stedsnr" v="525281" />
	</node>
	<node id="-237426" lat="59.5801944409" lon="10.6100972172">
		<tag k="name" v="Søndre Bjørnstad" />
		<tag k="place" v="farm" />
		<tag k="ssr:stedsnr" v="524634" />
	</node>
	<node id="-237424" lat="59.6460505041" lon="10.5949684617">
		<tag k="fixme" v="consider place=hamlet" />
		<tag k="name" v="Sundby" />
		<tag k="place" v="farm" />
		<tag k="ssr:stedsnr" v="429836" />
	</node>
	<node id="-237422" lat="59.8459249992" lon="10.3992833369">
		<tag k="alt_name" v="Bakkegårdene" />
		<tag k="name" v="Bakke" />
		<tag k="place" v="farm" />
		<tag k="ssr:stedsnr" v="429794" />
	</node>
	<node id="-237420" lat="59.8286773319" lon="10.3823772013">
		<tag k="name" v="Finnsrud" />
		<tag k="place" v="farm" />
		<tag k="ssr:stedsnr" v="429752" />
	</node>
	<node id="-237418" lat="59.8328804283" lon="10.3860401921">
		<tag k="name" v="Vassås" />
		<tag k="place" v="farm" />
		<tag k="ssr:stedsnr" v="429741" />
	</node>
	<node id="-237417" lat="59.7997027789" lon="10.4667555586">
		<tag k="name" v="Gisle" />
		<tag k="place" v="farm" />
		<tag k="ssr:stedsnr" v="429692" />
	</node>
	<node id="-237416" lat="59.8027388884" lon="10.4594750067">
		<tag k="name" v="Enga" />
		<tag k="place" v="farm" />
		<tag k="ssr:stedsnr" v="429690" />
	</node>
	<node id="-237414" lat="59.7727333321" lon="10.3365305535">
		<tag k="name" v="Kjosmyra" />
		<tag k="place" v="farm" />
		<tag k="ssr:stedsnr" v="429162" />
	</node>
	<node id="-237413" lat="59.7114000021" lon="10.3792555547">
		<tag k="name" v="Bukta" />
		<tag k="place" v="farm" />
		<tag k="ssr:stedsnr" v="428801" />
	</node>
	<node id="-237409" lat="59.6812916676" lon="10.5274888889">
		<tag k="name" v="Sætre" />
		<tag k="place" v="village" />
		<tag k="ssr:stedsnr" v="428859" />
	</node>
	<node id="-237408" lat="59.5992010283" lon="10.4371353795">
		<tag k="alt_name" v="Volden" />
		<tag k="name" v="Vollen" />
		<tag k="place" v="farm" />
		<tag k="ssr:stedsnr" v="428584" />
	</node>
	<node id="-237407" lat="59.5445277806" lon="10.4800805493">
		<tag k="name" v="Værby" />
		<tag k="place" v="farm" />
		<tag k="ssr:stedsnr" v="428517" />
	</node>
	<node id="-237406" lat="59.5529555539" lon="10.5715527825">
		<tag k="name" v="Tofte" />
		<tag k="ssr:stedsnr" v="428515" />
		<tag k="tourism" v="guest_house" />
	</node>
	<node id="-237405" lat="59.5453740263" lon="10.4928951945">
		<tag k="fixme" v="consider place=hamlet" />
		<tag k="name" v="Tronstad" />
		<tag k="place" v="farm" />
		<tag k="ssr:stedsnr" v="428503" />
	</node>
	<node id="-237402" lat="59.7439230595" lon="10.3257900676">
		<tag k="fixme" v="consider place=hamlet" />
		<tag k="name" v="Myre" />
		<tag k="place" v="farm" />
		<tag k="ssr:stedsnr" v="428327" />
	</node>
	<node id="-237400" lat="59.7481972199" lon="10.3231888886">
		<tag k="name" v="Myre" />
		<tag k="place" v="farm" />
		<tag k="ssr:stedsnr" v="427379" />
	</node>
	<node id="-237398" lat="59.6242873509" lon="10.4762865446">
		<tag k="alt_name" v="Nedre Ugstad;Ugstad nedre" />
		<tag k="fixme" v="consider place=hamlet" />
		<tag k="name" v="Nedre Ustad" />
		<tag k="place" v="farm" />
		<tag k="ssr:stedsnr" v="423585" />
	</node>
	<node id="-237385" lat="59.8743962411" lon="10.379855765">
		<tag k="fixme" v="consider place=hamlet" />
		<tag k="name" v="Rustaden" />
		<tag k="place" v="farm" />
		<tag k="ssr:stedsnr" v="422109" />
	</node>
	<node id="-237380" lat="59.6955861114" lon="10.5239666717">
		<tag k="name" v="Alfheim" />
		<tag k="place" v="isolated_dwelling" />
		<tag k="ssr:stedsnr" v="413699" />
	</node>
	<node id="-237877" lat="59.549277776" lon="10.4301499969">
		<tag k="alt_name" v="Jahren mellom" />
		<tag k="name" v="Mellom-Jaren" />
		<tag k="place" v="farm" />
		<tag k="ssr:stedsnr" v="848113" />
	</node>
	<node id="-237366" lat="59.5462277752" lon="10.4862555634">
		<tag k="name" v="Nysveen" />
		<tag k="place" v="farm" />
		<tag k="ssr:stedsnr" v="405123" />
	</node>
	<node id="-237364" lat="59.672294445" lon="10.5472527691">
		<tag k="name" v="Petterstua" />
		<tag k="place" v="isolated_dwelling" />
		<tag k="ssr:stedsnr" v="403779" />
	</node>
	<node id="-237361" lat="59.5660027791" lon="10.4337722246">
		<tag k="name" v="Selbråten" />
		<tag k="place" v="farm" />
		<tag k="ssr:stedsnr" v="392096" />
	</node>
	<node id="-237360" lat="59.7457993817" lon="10.3801630155">
		<tag k="alt_name" v="Prestegård" />
		<tag k="fixme" v="consider place=hamlet" />
		<tag k="name" v="Røyken prestegård" />
		<tag k="place" v="farm" />
		<tag k="ssr:stedsnr" v="391542" />
	</node>
	<node id="-237359" lat="59.7473805536" lon="10.4858861173">
		<tag k="name" v="Damstua" />
		<tag k="place" v="isolated_dwelling" />
		<tag k="ssr:stedsnr" v="391490" />
	</node>
	<node id="-237357" lat="59.7573472252" lon="10.4992305641">
		<tag k="name" v="Søndre Nærsnes" />
		<tag k="place" v="farm" />
		<tag k="ssr:stedsnr" v="391338" />
	</node>
	<node id="-237356" lat="59.7206777797" lon="10.4970222291">
		<tag k="name" v="Hov" />
		<tag k="place" v="farm" />
		<tag k="ssr:stedsnr" v="390962" />
	</node>
	<node id="-237352" lat="59.6905555593" lon="10.4146611175">
		<tag k="name" v="Jerdal" />
		<tag k="place" v="farm" />
		<tag k="ssr:stedsnr" v="390771" />
	</node>
	<node id="-237350" lat="59.6425194466" lon="10.6042111075">
		<tag k="name" v="Bua" />
		<tag k="place" v="farm" />
		<tag k="ssr:stedsnr" v="389901" />
	</node>
	<node id="-237349" lat="59.6356416662" lon="10.6039194363">
		<tag k="name" v="Rønningen" />
		<tag k="place" v="hamlet" />
		<tag k="ssr:stedsnr" v="389897" />
	</node>
	<node id="-237347" lat="59.6760972262" lon="10.5247305538">
		<tag k="alt_name" v="Bekkevoll" />
		<tag k="name" v="Bekkevold" />
		<tag k="place" v="isolated_dwelling" />
		<tag k="ssr:stedsnr" v="388783" />
	</node>
	<node id="-237343" lat="59.8530472187" lon="10.4249555511">
		<tag k="name" v="Sem bruk" />
		<tag k="place" v="farm" />
		<tag k="ssr:stedsnr" v="386626" />
	</node>
	<node id="-237342" lat="59.8433250013" lon="10.3911166696">
		<tag k="name" v="Røisland" />
		<tag k="place" v="farm" />
		<tag k="ssr:stedsnr" v="386625" />
	</node>
	<node id="-237340" lat="59.8096638874" lon="10.3626361097">
		<tag k="leisure" v="pitch" />
		<tag k="name" v="Dikemark idrettsanlegg" />
		<tag k="ssr:stedsnr" v="386684" />
	</node>
	<node id="-237337" lat="59.8708166668" lon="10.4856333363">
		<tag k="name" v="Lahaugen" />
		<tag k="place" v="farm" />
		<tag k="ssr:stedsnr" v="386496" />
	</node>
	<node id="-237336" lat="59.8720499989" lon="10.4795555491">
		<tag k="name" v="Askenga" />
		<tag k="place" v="village" />
		<tag k="ssr:stedsnr" v="386495" />
	</node>
	<node id="-237332" lat="59.8332638872" lon="10.4436500038">
		<tag k="name" v="Fusdal" />
		<tag k="place" v="farm" />
		<tag k="ssr:stedsnr" v="369685" />
	</node>
	<node id="-237331" lat="59.8253833309" lon="10.4736999945">
		<tag k="name" v="Vettre" />
		<tag k="place" v="farm" />
		<tag k="ssr:stedsnr" v="369681" />
	</node>
	<node id="-237330" lat="59.7570111115" lon="10.4639916603">
		<tag k="name" v="Aukeløkka" />
		<tag k="place" v="isolated_dwelling" />
		<tag k="ssr:stedsnr" v="369600" />
	</node>
	<node id="-237327" lat="59.8447611156" lon="10.4430777772">
		<tag k="name" v="Haugbo" />
		<tag k="place" v="farm" />
		<tag k="ssr:stedsnr" v="368809" />
	</node>
	<node id="-237326" lat="59.8386750016" lon="10.4749694467">
		<tag k="name" v="Leangen" />
		<tag k="place" v="farm" />
		<tag k="ssr:stedsnr" v="368802" />
	</node>
	<node id="-237325" lat="59.8264027764" lon="10.3795055602">
		<tag k="name" v="Skansen" />
		<tag k="place" v="isolated_dwelling" />
		<tag k="ssr:stedsnr" v="368794" />
	</node>
	<node id="-237324" lat="59.7905750002" lon="10.3881805507">
		<tag k="name" v="Slåttebråtan" />
		<tag k="place" v="isolated_dwelling" />
		<tag k="ssr:stedsnr" v="368749" />
	</node>
	<node id="-237323" lat="59.7924333367" lon="10.4858805512">
		<tag k="name" v="Bjerkås" />
		<tag k="place" v="village" />
		<tag k="ssr:stedsnr" v="368745" />
	</node>
	<node id="-237322" lat="59.8011916682" lon="10.4622250087">
		<tag k="name" v="Lindås" />
		<tag k="place" v="farm" />
		<tag k="ssr:stedsnr" v="368734" />
	</node>
	<node id="-237319" lat="59.7388333318" lon="10.3632750018">
		<tag k="alt_name" v="Åsåker" />
		<tag k="name" v="Nedre Åsåker" />
		<tag k="place" v="farm" />
		<tag k="ssr:stedsnr" v="367934" />
	</node>
	<node id="-237318" lat="59.639079484" lon="10.5913762632">
		<tag k="fixme" v="consider place=hamlet" />
		<tag k="name" v="Børsand" />
		<tag k="place" v="farm" />
		<tag k="ssr:stedsnr" v="367823" />
	</node>
	<node id="-237315" lat="59.7055277759" lon="10.381377784">
		<tag k="name" v="Steinbråten" />
		<tag k="place" v="isolated_dwelling" />
		<tag k="ssr:stedsnr" v="367787" />
	</node>
	<node id="-237314" lat="59.7204446283" lon="10.4512245906">
		<tag k="fixme" v="consider place=hamlet" />
		<tag k="name" v="Vear" />
		<tag k="place" v="farm" />
		<tag k="ssr:stedsnr" v="367778" />
	</node>
	<node id="-237312" lat="59.5712344224" lon="10.6102383272">
		<tag k="name" v="Ekra" />
		<tag k="place" v="hamlet" />
		<tag k="ssr:stedsnr" v="367714" />
	</node>
	<node id="-237311" lat="59.5800833882" lon="10.5771080825">
		<tag k="fixme" v="consider place=hamlet" />
		<tag k="name" v="Røstad" />
		<tag k="place" v="farm" />
		<tag k="ssr:stedsnr" v="367713" />
	</node>
	<node id="-237310" lat="59.5552544714" lon="10.4678375562">
		<tag k="alt_name" v="Hauge" />
		<tag k="fixme" v="consider place=hamlet" />
		<tag k="name" v="Haga" />
		<tag k="place" v="farm" />
		<tag k="ssr:stedsnr" v="367683" />
	</node>
	<node id="-237309" lat="59.6314055534" lon="10.4903750073">
		<tag k="name" v="Sem" />
		<tag k="place" v="farm" />
		<tag k="ssr:stedsnr" v="367662" />
	</node>
	<node id="-237308" lat="59.6261852641" lon="10.4846238935">
		<tag k="alt_name" v="Nordre Østren;Østern nordre" />
		<tag k="fixme" v="consider place=hamlet" />
		<tag k="name" v="Nordre Østern" />
		<tag k="place" v="farm" />
		<tag k="ssr:stedsnr" v="367648" />
	</node>
	<node id="-237307" lat="59.6225815844" lon="10.6070567051">
		<tag k="fixme" v="consider place=hamlet" />
		<tag k="name" v="Teigen" />
		<tag k="place" v="farm" />
		<tag k="ssr:stedsnr" v="367642" />
	</node>
	<node id="-237305" lat="59.6135111121" lon="10.4185416696">
		<tag k="fixme" v="consider place=suburb, village or hamlet" />
		<tag k="name" v="Verket" />
		<tag k="place" v="quarter" />
		<tag k="ssr:stedsnr" v="367626" />
	</node>
	<node id="-237304" lat="59.5452249984" lon="10.530541667">
		<tag k="name" v="Skogen" />
		<tag k="place" v="locality" />
		<tag k="ssr:stedsnr" v="367467" />
	</node>
	<node id="-237296" lat="59.6621111078" lon="10.5255333288">
		<tag k="name" v="Øvre Mørk" />
		<tag k="place" v="locality" />
		<tag k="ssr:stedsnr" v="362333" />
	</node>
	<node id="-237291" lat="59.5870944462" lon="10.6099305581">
		<tag k="name" v="Lund" />
		<tag k="place" v="farm" />
		<tag k="ssr:stedsnr" v="361340" />
	</node>
	<node id="-237288" lat="59.786244442" lon="10.3763194377">
		<tag k="fixme" v="consider tourism=alpine_hut or tourism=chalet" />
		<tag k="name" v="Småvannsbu" />
		<tag k="ssr:stedsnr" v="359940" />
		<tag k="tourism" v="wilderness_hut" />
	</node>
	<node id="-237285" lat="59.8514771263" lon="10.5400271015">
		<tag k="fixme" v="consider tourism=alpine_hut or tourism=chalet" />
		<tag k="name" v="Butikken" />
		<tag k="ssr:stedsnr" v="345331" />
		<tag k="tourism" v="wilderness_hut" />
	</node>
	<node id="-237284" lat="59.5358583321" lon="10.488311119">
		<tag k="name" v="Kjos" />
		<tag k="place" v="isolated_dwelling" />
		<tag k="ssr:stedsnr" v="344115" />
	</node>
	<node id="-237283" lat="59.5704166627" lon="10.5899972137">
		<tag k="name" v="Dalebråten" />
		<tag k="place" v="isolated_dwelling" />
		<tag k="ssr:stedsnr" v="343719" />
	</node>
	<node id="-237282" lat="59.5561555535" lon="10.5736833301">
		<tag k="name" v="Brinkeli" />
		<tag k="place" v="isolated_dwelling" />
		<tag k="ssr:stedsnr" v="343702" />
	</node>
	<node id="-237278" lat="59.5588749987" lon="10.4988638855">
		<tag k="name" v="Sør-Dustad" />
		<tag k="place" v="farm" />
		<tag k="ssr:stedsnr" v="343585" />
	</node>
	<node id="-237277" lat="59.6144666698" lon="10.4680361088">
		<tag k="name" v="Myrvang" />
		<tag k="place" v="farm" />
		<tag k="ssr:stedsnr" v="343568" />
	</node>
	<node id="-237276" lat="59.6053138924" lon="10.4689111193">
		<tag k="name" v="Kjærholdt" />
		<tag k="place" v="farm" />
		<tag k="ssr:stedsnr" v="343557" />
	</node>
	<node id="-237267" lat="59.7335472259" lon="10.511747231">
		<tag k="name" v="Høvikvollen" />
		<tag k="place" v="farm" />
		<tag k="ssr:stedsnr" v="330949" />
	</node>
	<node id="-237259" lat="59.7377792254" lon="10.3378887172">
		<tag k="fixme" v="consider place=hamlet" />
		<tag k="name" v="Bølstad" />
		<tag k="place" v="farm" />
		<tag k="ssr:stedsnr" v="329401" />
	</node>
	<node id="-237788" lat="59.8132916631" lon="10.4876444525">
		<tag k="name" v="Vennelslund" />
		<tag k="place" v="farm" />
		<tag k="ssr:stedsnr" v="794744" />
	</node>
	<node id="-237254" lat="59.8289194439" lon="10.4247944459">
		<tag k="alt_name" v="Borgen, nordre" />
		<tag k="name" v="Nordre Borgen" />
		<tag k="place" v="farm" />
		<tag k="ssr:stedsnr" v="326694" />
	</node>
	<node id="-237253" lat="59.8345722197" lon="10.4572888925">
		<tag k="fixme" v="consider place=hamlet" />
		<tag k="name" v="Øvre Båstad" />
		<tag k="place" v="farm" />
		<tag k="ssr:stedsnr" v="326682" />
	</node>
	<node id="-237248" lat="59.8620527796" lon="10.4940555525">
		<tag k="name" v="Nesvangen" />
		<tag k="place" v="village" />
		<tag k="ssr:stedsnr" v="326573" />
	</node>
	<node id="-237246" lat="59.8622638911" lon="10.4810555606">
		<tag k="amenity" v="school" />
		<tag k="name" v="Torstad skole" />
		<tag k="ssr:stedsnr" v="326538" />
	</node>
	<node id="-237236" lat="59.8484388889" lon="10.4839805584">
		<tag k="name" v="Syverstad" />
		<tag k="place" v="farm" />
		<tag k="ssr:stedsnr" v="308776" />
	</node>
	<node id="-237235" lat="59.8414749991" lon="10.4536555609">
		<tag k="name" v="Høn" />
		<tag k="place" v="farm" />
		<tag k="ssr:stedsnr" v="308748" />
	</node>
	<node id="-237233" lat="59.7733416654" lon="10.4976277692">
		<tag k="name" v="Berger" />
		<tag k="place" v="isolated_dwelling" />
		<tag k="ssr:stedsnr" v="308659" />
	</node>
	<node id="-237230" lat="59.7893249963" lon="10.4984250043">
		<tag k="name" v="Tajet" />
		<tag k="place" v="isolated_dwelling" />
		<tag k="ssr:stedsnr" v="308628" />
	</node>
	<node id="-237229" lat="59.7591222196" lon="10.4873694522">
		<tag k="alt_name" v="Labråten" />
		<tag k="name" v="Labråtan" />
		<tag k="place" v="farm" />
		<tag k="ssr:stedsnr" v="308622" />
	</node>
	<node id="-237222" lat="59.8803000039" lon="10.4817555633">
		<tag k="alt_name" v="Nordengen" />
		<tag k="name" v="Nordenga" />
		<tag k="place" v="farm" />
		<tag k="ssr:stedsnr" v="307846" />
	</node>
	<node id="-237220" lat="59.855275" lon="10.426116666">
		<tag k="name" v="Lund" />
		<tag k="place" v="farm" />
		<tag k="ssr:stedsnr" v="307792" />
	</node>
	<node id="-237219" lat="59.8555333368" lon="10.4303055543">
		<tag k="name" v="Sem" />
		<tag k="place" v="farm" />
		<tag k="ssr:stedsnr" v="307790" />
	</node>
	<node id="-237217" lat="59.8026749983" lon="10.5030333402">
		<tag k="name" v="Håkavik" />
		<tag k="place" v="isolated_dwelling" />
		<tag k="ssr:stedsnr" v="307716" />
	</node>
	<node id="-237216" lat="59.8017138909" lon="10.426663891">
		<tag k="name" v="Vinnulstad" />
		<tag k="place" v="farm" />
		<tag k="ssr:stedsnr" v="307711" />
	</node>
	<node id="-237215" lat="59.7978361129" lon="10.4462444459">
		<tag k="name" v="Gui" />
		<tag k="place" v="farm" />
		<tag k="ssr:stedsnr" v="307703" />
	</node>
	<node id="-237213" lat="59.6261998482" lon="10.4745184874">
		<tag k="name" v="Ustad" />
		<tag k="place" v="hamlet" />
		<tag k="ssr:stedsnr" v="307688" />
	</node>
	<node id="-237212" lat="59.7499166698" lon="10.3617583323">
		<tag k="name" v="Transet" />
		<tag k="place" v="farm" />
		<tag k="ssr:stedsnr" v="307613" />
	</node>
	<node id="-237211" lat="59.5320583298" lon="10.4829805551">
		<tag k="name" v="Bråten" />
		<tag k="place" v="farm" />
		<tag k="ssr:stedsnr" v="307554" />
	</node>
	<node id="-237210" lat="59.7405659985" lon="10.4917337131">
		<tag k="fixme" v="consider place=hamlet" />
		<tag k="name" v="Bårsrud" />
		<tag k="place" v="farm" />
		<tag k="ssr:stedsnr" v="306967" />
	</node>
	<node id="-237209" lat="59.7294100016" lon="10.4675598147">
		<tag k="fixme" v="consider place=hamlet" />
		<tag k="name" v="Hotvet" />
		<tag k="place" v="farm" />
		<tag k="ssr:stedsnr" v="306961" />
	</node>
	<node id="-237206" lat="59.7223944439" lon="10.5130222168">
		<tag k="fixme" v="consider place=suburb, village or hamlet" />
		<tag k="name" v="Båtstø" />
		<tag k="place" v="quarter" />
		<tag k="ssr:stedsnr" v="306772" />
	</node>
	<node id="-237203" lat="59.5960861135" lon="10.4757361166">
		<tag k="name" v="Vestby" />
		<tag k="place" v="farm" />
		<tag k="ssr:stedsnr" v="306720" />
	</node>
	<node id="-237200" lat="59.5807915754" lon="10.6090511319">
		<tag k="fixme" v="consider place=hamlet" />
		<tag k="name" v="Bjørnstad" />
		<tag k="place" v="farm" />
		<tag k="ssr:stedsnr" v="306704" />
	</node>
	<node id="-237199" lat="59.5728083368" lon="10.6140805561">
		<tag k="name" v="Filtvet" />
		<tag k="place" v="village" />
		<tag k="ssr:stedsnr" v="306700" />
	</node>
	<node id="-237198" lat="59.5632930653" lon="10.4671576024">
		<tag k="alt_name" v="Liltvedt" />
		<tag k="fixme" v="consider place=hamlet" />
		<tag k="name" v="Lilltvet" />
		<tag k="place" v="farm" />
		<tag k="ssr:stedsnr" v="306671" />
	</node>
	<node id="-237195" lat="59.5938696784" lon="10.4742493293">
		<tag k="fixme" v="consider place=hamlet" />
		<tag k="name" v="Tveita" />
		<tag k="place" v="farm" />
		<tag k="ssr:stedsnr" v="306577" />
	</node>
	<node id="-237847" lat="59.7609861137" lon="10.4953111156">
		<tag k="name" v="Nordre Nærsnes" />
		<tag k="place" v="farm" />
		<tag k="ssr:stedsnr" v="830172" />
	</node>
	<node id="-237854" lat="59.5855305581" lon="10.5792166668">
		<tag k="alt_name" v="Eik vestre" />
		<tag k="name" v="Vestre Eik" />
		<tag k="place" v="farm" />
		<tag k="ssr:stedsnr" v="831587" />
	</node>
	<node id="-237183" lat="59.6714833356" lon="10.5411249952">
		<tag k="name" v="Grytnesfeltet" />
		<tag k="place" v="quarter" />
		<tag k="ssr:stedsnr" v="212744" />
	</node>
	<node id="-237172" lat="59.6105397357" lon="10.4573550003">
		<tag k="fixme" v="consider place=hamlet" />
		<tag k="name" v="Hov" />
		<tag k="place" v="farm" />
		<tag k="ssr:stedsnr" v="208526" />
	</node>
	<node id="-237164" lat="59.5882055541" lon="10.6124999944">
		<tag k="name" v="Hermannsbråten" />
		<tag k="place" v="farm" />
		<tag k="ssr:stedsnr" v="207921" />
	</node>
	<node id="-237163" lat="59.6412555577" lon="10.5855777761">
		<tag k="alt_name" v="Sundbyengen" />
		<tag k="name" v="Sundbyenga" />
		<tag k="place" v="farm" />
		<tag k="ssr:stedsnr" v="207884" />
	</node>
	<node id="-237161" lat="59.5625083365" lon="10.5787222154">
		<tag k="fixme" v="consider place=suburb, village or hamlet" />
		<tag k="name" v="Fuglebakk" />
		<tag k="place" v="quarter" />
		<tag k="ssr:stedsnr" v="207842" />
	</node>
	<node id="-237151" lat="59.8323166649" lon="10.4267833293">
		<tag k="name" v="Hagaløkka" />
		<tag k="place" v="quarter" />
		<tag k="ssr:stedsnr" v="205674" />
	</node>
	<node id="-237150" lat="59.8504194454" lon="10.4461722232">
		<tag k="name" v="Fjelken" />
		<tag k="place" v="farm" />
		<tag k="ssr:stedsnr" v="205671" />
	</node>
	<node id="-237147" lat="59.8257361111" lon="10.4691777853">
		<tag k="amenity" v="school" />
		<tag k="name" v="Vettre skole" />
		<tag k="ssr:stedsnr" v="205604" />
	</node>
	<node id="-237140" lat="59.7603472267" lon="10.4639472165">
		<tag k="fixme" v="consider place=suburb, village or hamlet" />
		<tag k="name" v="Bødalen" />
		<tag k="place" v="quarter" />
		<tag k="ssr:stedsnr" v="205258" />
	</node>
	<node id="-237139" lat="59.8005222242" lon="10.3883527752">
		<tag k="name" v="Holstein" />
		<tag k="place" v="farm" />
		<tag k="ssr:stedsnr" v="204695" />
	</node>
	<node id="-237135" lat="59.8204055562" lon="10.4642055603">
		<tag k="name" v="Åby" />
		<tag k="place" v="farm" />
		<tag k="ssr:stedsnr" v="187700" />
	</node>
	<node id="-237134" lat="59.7604277765" lon="10.4649999942">
		<tag k="name" v="Foss" />
		<tag k="place" v="farm" />
		<tag k="ssr:stedsnr" v="187610" />
	</node>
	<node id="-237133" lat="59.7556681181" lon="10.4173806414">
		<tag k="alt_name" v="Syltingle" />
		<tag k="fixme" v="consider place=hamlet" />
		<tag k="name" v="Syllingli" />
		<tag k="place" v="farm" />
		<tag k="ssr:stedsnr" v="187605" />
	</node>
	<node id="-237132" lat="59.7626138886" lon="10.514286114">
		<tag k="name" v="Strandheim" />
		<tag k="ssr:stedsnr" v="187593" />
		<tag k="tourism" v="hotel" />
	</node>
	<node id="-237131" lat="59.7703116879" lon="10.4422876826">
		<tag k="alt_name" v="Nordre Stokker" />
		<tag k="fixme" v="consider place=hamlet" />
		<tag k="name" v="Stokker" />
		<tag k="place" v="farm" />
		<tag k="ssr:stedsnr" v="187582" />
	</node>
	<node id="-237128" lat="59.6646277757" lon="10.5246916636">
		<tag k="alt_name" v="Nedre Mørk" />
		<tag k="name" v="Mørk" />
		<tag k="place" v="farm" />
		<tag k="ssr:stedsnr" v="186864" />
	</node>
	<node id="-237126" lat="59.8510027823" lon="10.4946805519">
		<tag k="name" v="Solheim" />
		<tag k="place" v="isolated_dwelling" />
		<tag k="ssr:stedsnr" v="186799" />
	</node>
	<node id="-237125" lat="59.849188888" lon="10.4240000078">
		<tag k="name" v="Vøyen" />
		<tag k="place" v="farm" />
		<tag k="ssr:stedsnr" v="186795" />
	</node>
	<node id="-237123" lat="59.7920027765" lon="10.4619250077">
		<tag k="alt_name" v="Yggesetgårdene" />
		<tag k="name" v="Yggeset" />
		<tag k="place" v="farm" />
		<tag k="ssr:stedsnr" v="186744" />
	</node>
	<node id="-237122" lat="59.7975138878" lon="10.4916499922">
		<tag k="name" v="Sjøstrand" />
		<tag k="place" v="village" />
		<tag k="ssr:stedsnr" v="186740" />
	</node>
	<node id="-237121" lat="59.805716671" lon="10.3805250011">
		<tag k="name" v="Dikemark" />
		<tag k="place" v="village" />
		<tag k="ssr:stedsnr" v="186729" />
	</node>
	<node id="-237120" lat="59.785652777" lon="10.468722225">
		<tag k="name" v="Torp" />
		<tag k="place" v="farm" />
		<tag k="ssr:stedsnr" v="186699" />
	</node>
	<node id="-237117" lat="59.7394462626" lon="10.4625464073">
		<tag k="name" v="Klemmetsrud" />
		<tag k="place" v="hamlet" />
		<tag k="ssr:stedsnr" v="185953" />
	</node>
	<node id="-237116" lat="59.7324239826" lon="10.4368534749">
		<tag k="fixme" v="consider place=hamlet" />
		<tag k="name" v="Villingstad" />
		<tag k="place" v="farm" />
		<tag k="ssr:stedsnr" v="185950" />
	</node>
	<node id="-237114" lat="59.7300271726" lon="10.3639875034">
		<tag k="fixme" v="consider place=hamlet" />
		<tag k="name" v="Muserud" />
		<tag k="place" v="farm" />
		<tag k="ssr:stedsnr" v="185946" />
	</node>
	<node id="-237112" lat="59.7403520533" lon="10.3835539479">
		<tag k="fixme" v="consider place=hamlet" />
		<tag k="name" v="Bråset" />
		<tag k="place" v="farm" />
		<tag k="ssr:stedsnr" v="185939" />
	</node>
	<node id="-237110" lat="59.871511328" lon="10.3903363578">
		<tag k="historic" v="shieling" />
		<tag k="name" v="Tveitersetra" />
		<tag k="place" v="locality" />
		<tag k="ssr:stedsnr" v="185814" />
	</node>
	<node id="-237833" lat="59.6537333306" lon="10.5955555612">
		<tag k="name" v="Nordre Storsand" />
		<tag k="place" v="farm" />
		<tag k="ssr:stedsnr" v="875873" />
	</node>
	<node id="-237107" lat="59.7251305544" lon="10.3745472183">
		<tag k="name" v="Guttersrud" />
		<tag k="place" v="isolated_dwelling" />
		<tag k="ssr:stedsnr" v="185765" />
	</node>
	<node id="-237101" lat="59.5713638875" lon="10.4747250083">
		<tag k="name" v="Vangstad" />
		<tag k="place" v="farm" />
		<tag k="ssr:stedsnr" v="185684" />
	</node>
	<node id="-237098" lat="59.563499998" lon="10.4956916679">
		<tag k="name" v="Dustad" />
		<tag k="place" v="farm" />
		<tag k="ssr:stedsnr" v="185664" />
	</node>
	<node id="-237097" lat="59.5601888912" lon="10.4278361131">
		<tag k="name" v="Holmsbu" />
		<tag k="place" v="village" />
		<tag k="ssr:stedsnr" v="185659" />
	</node>
	<node id="-237095" lat="59.6023510277" lon="10.4640496046">
		<tag k="fixme" v="consider place=hamlet" />
		<tag k="name" v="Killingstad" />
		<tag k="place" v="farm" />
		<tag k="ssr:stedsnr" v="185584" />
	</node>
	<node id="-237094" lat="59.6022527787" lon="10.4776388956">
		<tag k="name" v="Nordby" />
		<tag k="place" v="farm" />
		<tag k="ssr:stedsnr" v="185581" />
	</node>
	<node id="-237093" lat="59.5410333301" lon="10.4750249913">
		<tag k="alt_name" v="Ranvik store" />
		<tag k="fixme" v="consider place=hamlet" />
		<tag k="name" v="Ramvik" />
		<tag k="place" v="farm" />
		<tag k="ssr:stedsnr" v="185500" />
	</node>
	<node id="-237092" lat="59.5486553445" lon="10.4299966799">
		<tag k="name" v="Jaren" />
		<tag k="place" v="hamlet" />
		<tag k="ssr:stedsnr" v="185497" />
	</node>
	<node id="-237090" lat="59.5315194468" lon="10.4181166731">
		<tag k="name" v="Rødtangen" />
		<tag k="place" v="hamlet" />
		<tag k="ssr:stedsnr" v="185482" />
	</node>
	<node id="-237079" lat="59.6413277739" lon="10.605308325">
		<tag k="alt_name" v="Freiborg" />
		<tag k="name" v="Freyborg" />
		<tag k="place" v="locality" />
		<tag k="ssr:stedsnr" v="168643" />
	</node>
	<node id="-237075" lat="59.5846222252" lon="10.5004888941">
		<tag k="name" v="Setton" />
		<tag k="place" v="locality" />
		<tag k="ssr:stedsnr" v="163648" />
	</node>
	<node id="-237827" lat="59.740511112" lon="10.4756749932">
		<tag k="name" v="Smedløkka" />
		<tag k="place" v="isolated_dwelling" />
		<tag k="ssr:stedsnr" v="816531" />
	</node>
	<node id="-237072" lat="59.540161114" lon="10.4787194475">
		<tag k="alt_name" v="Ranvik lille" />
		<tag k="name" v="Lille-Ramvik" />
		<tag k="place" v="farm" />
		<tag k="ssr:stedsnr" v="162126" />
	</node>
	<node id="-237069" lat="59.5693944421" lon="10.4875083339">
		<tag k="alt_name" v="Torstvedtbråten" />
		<tag k="name" v="Torstvetbråten" />
		<tag k="place" v="isolated_dwelling" />
		<tag k="ssr:stedsnr" v="300256" />
	</node>
	<node id="-237068" lat="59.6691666679" lon="10.5305416586">
		<tag k="name" v="Gunnaråsen" />
		<tag k="place" v="quarter" />
		<tag k="ssr:stedsnr" v="151751" />
	</node>
	<node id="-237059" lat="59.5369527819" lon="10.5334916622">
		<tag k="name" v="Sørlia" />
		<tag k="place" v="quarter" />
		<tag k="ssr:stedsnr" v="146845" />
	</node>
	<node id="-237056" lat="59.8427749975" lon="10.4522833405">
		<tag k="name" v="Øvre Høn" />
		<tag k="place" v="farm" />
		<tag k="ssr:stedsnr" v="144678" />
	</node>
	<node id="-237055" lat="59.8559527804" lon="10.4322083381">
		<tag k="amenity" v="school" />
		<tag k="name" v="N L H Sem" />
		<tag k="ssr:stedsnr" v="144633" />
	</node>
	<node id="-237052" lat="59.791802777" lon="10.4913055629">
		<tag k="name" v="Stupeng" />
		<tag k="place" v="farm" />
		<tag k="ssr:stedsnr" v="144547" />
	</node>
	<node id="-237051" lat="59.854336109" lon="10.4519583255">
		<tag k="name" v="Bråtan" />
		<tag k="place" v="isolated_dwelling" />
		<tag k="ssr:stedsnr" v="144531" />
	</node>
	<node id="-237049" lat="59.779813886" lon="10.4263722139">
		<tag k="name" v="Haugen" />
		<tag k="place" v="farm" />
		<tag k="ssr:stedsnr" v="143716" />
	</node>
	<node id="-237781" lat="59.8314499982" lon="10.4911305613">
		<tag k="name" v="Løkenes" />
		<tag k="place" v="farm" />
		<tag k="ssr:stedsnr" v="793750" />
	</node>
	<node id="-237045" lat="59.7956027741" lon="10.4141555581">
		<tag k="name" v="Sletthella" />
		<tag k="place" v="locality" />
		<tag k="ssr:stedsnr" v="143699" />
	</node>
	<node id="-237044" lat="59.8266722253" lon="10.3625055586">
		<tag k="name" v="Fingalsmyr" />
		<tag k="place" v="farm" />
		<tag k="ssr:stedsnr" v="143687" />
	</node>
	<node id="-237822" lat="59.7179138915" lon="10.4637222255">
		<tag k="name" v="Berget" />
		<tag k="place" v="isolated_dwelling" />
		<tag k="ssr:stedsnr" v="815914" />
	</node>
	<node id="-237042" lat="59.8260932304" lon="10.4280571492">
		<tag k="name" v="Kjonebråten" />
		<tag k="place" v="farm" />
		<tag k="ssr:stedsnr" v="143668" />
	</node>
	<node id="-237039" lat="59.8368694444" lon="10.415897229">
		<tag k="name" v="Huken" />
		<tag k="place" v="farm" />
		<tag k="ssr:stedsnr" v="143649" />
	</node>
	<node id="-237038" lat="59.8521722201" lon="10.4524222146">
		<tag k="name" v="Labråten" />
		<tag k="place" v="isolated_dwelling" />
		<tag k="ssr:stedsnr" v="143640" />
	</node>
	<node id="-237037" lat="59.8523138863" lon="10.4598416738">
		<tag k="name" v="Vangen" />
		<tag k="place" v="farm" />
		<tag k="ssr:stedsnr" v="143636" />
	</node>
	<node id="-237036" lat="59.8385070857" lon="10.4133095073">
		<tag k="alt_name" v="Vestre Haneval" />
		<tag k="name" v="Øvre Hagen" />
		<tag k="place" v="farm" />
		<tag k="ssr:stedsnr" v="143630" />
	</node>
	<node id="-237030" lat="59.8573416673" lon="10.5400138938">
		<tag k="name" v="Kuhavna" />
		<tag k="place" v="locality" />
		<tag k="ssr:stedsnr" v="143481" />
	</node>
	<node id="-237028" lat="59.8260500016" lon="10.4053361048">
		<tag k="name" v="Drengsrud" />
		<tag k="place" v="farm" />
		<tag k="ssr:stedsnr" v="126729" />
	</node>
	<node id="-237026" lat="59.8222555563" lon="10.3868333316">
		<tag k="name" v="Trollstua" />
		<tag k="place" v="isolated_dwelling" />
		<tag k="ssr:stedsnr" v="126697" />
	</node>
	<node id="-237025" lat="59.8155861095" lon="10.4607555547">
		<tag k="name" v="Blakstad" />
		<tag k="place" v="farm" />
		<tag k="ssr:stedsnr" v="126695" />
	</node>
	<node id="-237021" lat="59.6627868961" lon="10.5980383699">
		<tag k="fixme" v="consider place=hamlet" />
		<tag k="name" v="Slottet" />
		<tag k="place" v="farm" />
		<tag k="ssr:stedsnr" v="125876" />
	</node>
	<node id="-237017" lat="59.6559277769" lon="10.5864833336">
		<tag k="name" v="Ødegården" />
		<tag k="place" v="farm" />
		<tag k="ssr:stedsnr" v="125833" />
	</node>
	<node id="-237016" lat="59.8681083337" lon="10.4122444418">
		<tag k="name" v="Kølabonn" />
		<tag k="place" v="isolated_dwelling" />
		<tag k="ssr:stedsnr" v="125829" />
	</node>
	<node id="-237014" lat="59.8462944418" lon="10.4677527821">
		<tag k="alt_name" v="Hofstad" />
		<tag k="name" v="Nordre Hofstad" />
		<tag k="place" v="farm" />
		<tag k="ssr:stedsnr" v="125792" />
	</node>
	<node id="-237013" lat="59.8029999969" lon="10.4431361195">
		<tag k="name" v="Eid" />
		<tag k="place" v="farm" />
		<tag k="ssr:stedsnr" v="125714" />
	</node>
	<node id="-237012" lat="59.8032194418" lon="10.3657916588">
		<tag k="alt_name" v="Brenna" />
		<tag k="name" v="Helsing" />
		<tag k="place" v="isolated_dwelling" />
		<tag k="ssr:stedsnr" v="125709" />
	</node>
	<node id="-237011" lat="59.7363805524" lon="10.479438884">
		<tag k="name" v="Gislerudbråten" />
		<tag k="place" v="locality" />
		<tag k="ssr:stedsnr" v="124961" />
	</node>
	<node id="-237010" lat="59.7317861131" lon="10.4612166621">
		<tag k="name" v="Søndre Mortensrud" />
		<tag k="place" v="farm" />
		<tag k="ssr:stedsnr" v="124958" />
	</node>
	<node id="-237006" lat="59.8771250041" lon="10.4405416625">
		<tag k="name" v="Pålsbråtan" />
		<tag k="place" v="isolated_dwelling" />
		<tag k="ssr:stedsnr" v="124800" />
	</node>
	<node id="-237003" lat="59.7237332076" lon="10.4404332233">
		<tag k="fixme" v="consider place=hamlet" />
		<tag k="name" v="Haug" />
		<tag k="place" v="farm" />
		<tag k="ssr:stedsnr" v="124759" />
	</node>
	<node id="-237000" lat="59.6919443767" lon="10.4261927617">
		<tag k="fixme" v="consider place=hamlet" />
		<tag k="name" v="Grimsrud" />
		<tag k="place" v="farm" />
		<tag k="ssr:stedsnr" v="124713" />
	</node>
	<node id="-236998" lat="59.5890206809" lon="10.5966820475">
		<tag k="fixme" v="consider place=hamlet" />
		<tag k="name" v="Huseby" />
		<tag k="place" v="farm" />
		<tag k="ssr:stedsnr" v="124692" />
	</node>
	<node id="-236996" lat="59.5775055538" lon="10.4425750017">
		<tag k="name" v="Knivsvik" />
		<tag k="place" v="isolated_dwelling" />
		<tag k="ssr:stedsnr" v="124668" />
	</node>
	<node id="-236994" lat="59.597457297" lon="10.4781162545">
		<tag k="alt_name" v="Sundby store" />
		<tag k="fixme" v="consider place=hamlet" />
		<tag k="name" v="Sundby" />
		<tag k="place" v="farm" />
		<tag k="ssr:stedsnr" v="124553" />
	</node>
	<node id="-236987" lat="59.5722750026" lon="10.6101249934">
		<tag k="alt_name" v="Ekern vestre" />
		<tag k="name" v="Vestre Ekern" />
		<tag k="place" v="farm" />
		<tag k="ssr:stedsnr" v="118286" />
	</node>
	<node id="-236982" lat="59.5521138933" lon="10.4726083335">
		<tag k="name" v="Breidablikk" />
		<tag k="place" v="farm" />
		<tag k="ssr:stedsnr" v="118179" />
	</node>
	<node id="-236974" lat="59.6130500032" lon="10.5444916748">
		<tag k="name" v="Vennersborg" />
		<tag k="place" v="isolated_dwelling" />
		<tag k="ssr:stedsnr" v="103717" />
	</node>
	<node id="-236973" lat="59.6113277738" lon="10.6026888808">
		<tag k="name" v="Elgtorn" />
		<tag k="place" v="farm" />
		<tag k="ssr:stedsnr" v="103706" />
	</node>
	<node id="-236971" lat="59.5861416628" lon="10.5812999951">
		<tag k="name" v="Bråten" />
		<tag k="place" v="farm" />
		<tag k="ssr:stedsnr" v="103633" />
	</node>
	<node id="-236970" lat="59.5861888909" lon="10.5893250065">
		<tag k="alt_name" v="Fjeldvang" />
		<tag k="name" v="Fjellvang" />
		<tag k="place" v="isolated_dwelling" />
		<tag k="ssr:stedsnr" v="103632" />
	</node>
	<node id="-236969" lat="59.5788277733" lon="10.4802055637">
		<tag k="alt_name" v="Nordre Holtvedt;Holtvedt nordre" />
		<tag k="name" v="Nordre Holtvet" />
		<tag k="place" v="farm" />
		<tag k="ssr:stedsnr" v="103498" />
	</node>
	<node id="-236967" lat="59.5446805517" lon="10.4715416743">
		<tag k="alt_name" v="Ranvikbråten" />
		<tag k="name" v="Ramvikbråten" />
		<tag k="place" v="isolated_dwelling" />
		<tag k="ssr:stedsnr" v="102142" />
	</node>
	<node id="-237809" lat="59.8183277817" lon="10.4323027779">
		<tag k="name" v="Vassbunn" />
		<tag k="place" v="quarter" />
		<tag k="ssr:stedsnr" v="811663" />
	</node>
	<node id="-236962" lat="59.6756472261" lon="10.4395444492">
		<tag k="name" v="Korsgården" />
		<tag k="place" v="locality" />
		<tag k="ssr:stedsnr" v="101235" />
	</node>
	<node id="-236961" lat="59.6735888922" lon="10.5341166707">
		<tag k="name" v="Damsgård" />
		<tag k="place" v="isolated_dwelling" />
		<tag k="ssr:stedsnr" v="100754" />
	</node>
	<node id="-236960" lat="59.5659972198" lon="10.5820888821">
		<tag k="name" v="Kaltenbakk" />
		<tag k="place" v="quarter" />
		<tag k="ssr:stedsnr" v="89830" />
	</node>
	<node id="-236956" lat="59.733558334" lon="10.4019277859">
		<tag k="name" v="Liverudleina" />
		<tag k="place" v="farm" />
		<tag k="ssr:stedsnr" v="88473" />
	</node>
	<node id="-236955" lat="59.7436388909" lon="10.4584555502">
		<tag k="name" v="Gunnerudbråten" />
		<tag k="place" v="isolated_dwelling" />
		<tag k="ssr:stedsnr" v="88434" />
	</node>
	<node id="-236952" lat="59.7144986579" lon="10.4439143848">
		<tag k="name" v="Nordre Flater" />
		<tag k="place" v="farm" />
		<tag k="ssr:stedsnr" v="87920" />
	</node>
	<node id="-236944" lat="59.6755305555" lon="10.5177638847">
		<tag k="amenity" v="kindergarten" />
		<tag k="name" v="Bjørndalen" />
		<tag k="ssr:stedsnr" v="85800" />
	</node>
	<node id="-236943" lat="59.6764972245" lon="10.5387805545">
		<tag k="amenity" v="school" />
		<tag k="name" v="Grytnes" />
		<tag k="ssr:stedsnr" v="85799" />
	</node>
	<node id="-236941" lat="59.7155944439" lon="10.3741999965">
		<tag k="name" v="Finnebråten" />
		<tag k="place" v="isolated_dwelling" />
		<tag k="ssr:stedsnr" v="85526" />
	</node>
	<node id="-236933" lat="59.8516277758" lon="10.4096249946">
		<tag k="name" v="Øvre Berg" />
		<tag k="place" v="farm" />
		<tag k="ssr:stedsnr" v="83631" />
	</node>
	<node id="-236932" lat="59.850722224" lon="10.429577785">
		<tag k="name" v="Høyklopp" />
		<tag k="place" v="isolated_dwelling" />
		<tag k="ssr:stedsnr" v="83624" />
	</node>
	<node id="-236931" lat="59.8542055541" lon="10.4593999946">
		<tag k="name" v="Kunstnerdalen" />
		<tag k="place" v="quarter" />
		<tag k="ssr:stedsnr" v="83493" />
	</node>
	<node id="-236921" lat="59.7529638999" lon="10.3875373249">
		<tag k="fixme" v="consider place=hamlet" />
		<tag k="name" v="Kjekstad" />
		<tag k="place" v="farm" />
		<tag k="ssr:stedsnr" v="66630" />
	</node>
	<node id="-236918" lat="59.7754444433" lon="10.4993777694">
		<tag k="name" v="Kirkerud" />
		<tag k="place" v="farm" />
		<tag k="ssr:stedsnr" v="65684" />
	</node>
	<node id="-236917" lat="59.8381633509" lon="10.4619404267">
		<tag k="name" v="Båstad" />
		<tag k="place" v="hamlet" />
		<tag k="ssr:stedsnr" v="65772" />
	</node>
	<node id="-236916" lat="59.8305666583" lon="10.3960253481">
		<tag k="alt_name" v="Brendsrudgårdene;Brendsrud" />
		<tag k="fixme" v="consider place=hamlet" />
		<tag k="name" v="Brennsrud" />
		<tag k="place" v="farm" />
		<tag k="ssr:stedsnr" v="65769" />
	</node>
	<node id="-236915" lat="59.8305916656" lon="10.4268527792">
		<tag k="name" v="Borgen" />
		<tag k="place" v="farm" />
		<tag k="ssr:stedsnr" v="65765" />
	</node>
	<node id="-236914" lat="59.8309194464" lon="10.3594666716">
		<tag k="name" v="Jerpåsen" />
		<tag k="place" v="farm" />
		<tag k="ssr:stedsnr" v="65761" />
	</node>
	<node id="-236913" lat="59.7357242684" lon="10.392976763">
		<tag k="fixme" v="consider place=hamlet" />
		<tag k="name" v="Jaksland" />
		<tag k="place" v="farm" />
		<tag k="ssr:stedsnr" v="64961" />
	</node>
	<node id="-236908" lat="59.6211124559" lon="10.4867362757">
		<tag k="alt_name" v="Søndre Østren;Østern Søndre" />
		<tag k="fixme" v="consider place=hamlet" />
		<tag k="name" v="Søndre Østern" />
		<tag k="place" v="farm" />
		<tag k="ssr:stedsnr" v="64665" />
	</node>
	<node id="-236904" lat="59.6413033905" lon="10.4422278006">
		<tag k="alt_name" v="Selvig" />
		<tag k="fixme" v="consider place=hamlet" />
		<tag k="name" v="Selvik" />
		<tag k="place" v="farm" />
		<tag k="ssr:stedsnr" v="64856" />
	</node>
	<node id="-236903" lat="59.6081388906" lon="10.4837083384">
		<tag k="alt_name" v="Dalen søndre" />
		<tag k="name" v="Dalen" />
		<tag k="place" v="farm" />
		<tag k="ssr:stedsnr" v="64626" />
	</node>
	<node id="-236902" lat="59.7277954003" lon="10.3349964979">
		<tag k="fixme" v="consider place=hamlet" />
		<tag k="name" v="Brøholt" />
		<tag k="place" v="farm" />
		<tag k="ssr:stedsnr" v="64250" />
	</node>
	<node id="-236901" lat="59.7201361147" lon="10.3798777749">
		<tag k="alt_name" v="Haugene" />
		<tag k="name" v="Haugane" />
		<tag k="place" v="farm" />
		<tag k="ssr:stedsnr" v="64790" />
	</node>
	<node id="-236900" lat="59.7455305518" lon="10.3440666749">
		<tag k="name" v="Oddevall" />
		<tag k="place" v="farm" />
		<tag k="ssr:stedsnr" v="63987" />
	</node>
	<node id="-236895" lat="59.6310083313" lon="10.4609888939">
		<tag k="name" v="Solli" />
		<tag k="place" v="locality" />
		<tag k="ssr:stedsnr" v="59552" />
	</node>
	<node id="-236887" lat="59.6346638929" lon="10.4945277767">
		<tag k="name" v="Vestli" />
		<tag k="place" v="farm" />
		<tag k="ssr:stedsnr" v="59096" />
	</node>
	<node id="-236886" lat="59.5382388896" lon="10.4433722269">
		<tag k="alt_name" v="Røed lille" />
		<tag k="name" v="Lille-Rød" />
		<tag k="place" v="farm" />
		<tag k="ssr:stedsnr" v="59090" />
	</node>
	<node id="-236882" lat="59.5485305554" lon="10.4946555516">
		<tag k="name" v="Fredensborg" />
		<tag k="place" v="farm" />
		<tag k="ssr:stedsnr" v="58631" />
	</node>
	<node id="-237795" lat="59.869347222" lon="10.5190972309">
		<tag k="amenity" v="school" />
		<tag k="name" v="Nesøya skole" />
		<tag k="ssr:stedsnr" v="811466" />
	</node>
	<node id="-236880" lat="59.8019861072" lon="10.4950222164">
		<tag k="name" v="Sjødal" />
		<tag k="place" v="isolated_dwelling" />
		<tag k="ssr:stedsnr" v="58244" />
	</node>
	<node id="-236855" lat="59.6635861075" lon="10.5687555502">
		<tag k="name" v="Sarabråten" />
		<tag k="place" v="isolated_dwelling" />
		<tag k="ssr:stedsnr" v="40338" />
	</node>
	<node id="-236853" lat="59.5830527802" lon="10.6093305627">
		<tag k="name" v="Svingen" />
		<tag k="place" v="isolated_dwelling" />
		<tag k="ssr:stedsnr" v="39627" />
	</node>
	<node id="-236849" lat="59.5712666702" lon="10.5665388868">
		<tag k="name" v="Rødsgrinda" />
		<tag k="place" v="farm" />
		<tag k="ssr:stedsnr" v="28099" />
	</node>
	<node id="-236847" lat="59.7678444436" lon="10.4578000052">
		<tag k="name" v="Mellom-Bø" />
		<tag k="place" v="farm" />
		<tag k="ssr:stedsnr" v="27790" />
	</node>
	<node id="-236846" lat="59.7675555591" lon="10.4392944368">
		<tag k="name" v="Stokker" />
		<tag k="place" v="farm" />
		<tag k="ssr:stedsnr" v="27789" />
	</node>
	<node id="-236844" lat="59.7459361095" lon="10.4247333417">
		<tag k="name" v="Grettebråtan" />
		<tag k="place" v="locality" />
		<tag k="ssr:stedsnr" v="27396" />
	</node>
	<node id="-236843" lat="59.7659416684" lon="10.4577444447">
		<tag k="name" v="Søndre Bø" />
		<tag k="place" v="farm" />
		<tag k="ssr:stedsnr" v="27371" />
	</node>
	<node id="-236839" lat="59.7128194453" lon="10.4700527721">
		<tag k="name" v="Petterstua" />
		<tag k="place" v="isolated_dwelling" />
		<tag k="ssr:stedsnr" v="26876" />
	</node>
	<node id="-236837" lat="59.7156027807" lon="10.3633111188">
		<tag k="building" v="industrial" />
		<tag k="industrial" v="factory" />
		<tag k="name" v="Slettevold sag" />
		<tag k="ssr:stedsnr" v="26757" />
	</node>
	<node id="-236834" lat="59.7452666639" lon="10.3717416674">
		<tag k="name" v="Østre Grini" />
		<tag k="place" v="farm" />
		<tag k="ssr:stedsnr" v="26445" />
	</node>
	<node id="-236833" lat="59.7442166691" lon="10.355161103">
		<tag k="name" v="Søndre Askestad" />
		<tag k="place" v="farm" />
		<tag k="ssr:stedsnr" v="26442" />
	</node>
	<node id="-237842" lat="59.5545472256" lon="10.4588444392">
		<tag k="name" v="Høibråten" />
		<tag k="place" v="farm" />
		<tag k="ssr:stedsnr" v="829180" />
	</node>
	<node id="-236828" lat="59.6677111108" lon="10.5961666648">
		<tag k="name" v="Kaldekota" />
		<tag k="place" v="isolated_dwelling" />
		<tag k="ssr:stedsnr" v="24885" />
	</node>
	<node id="-237786" lat="59.7581347933" lon="10.3447977393">
		<tag k="fixme" v="consider place=hamlet" />
		<tag k="name" v="Kjos" />
		<tag k="place" v="farm" />
		<tag k="ssr:stedsnr" v="794653" />
	</node>
	<node id="-236823" lat="59.8245694471" lon="10.4189777735">
		<tag k="name" v="Borgenbråten" />
		<tag k="place" v="quarter" />
		<tag k="ssr:stedsnr" v="23698" />
	</node>
	<node id="-236822" lat="59.8268027747" lon="10.4461194435">
		<tag k="alt_name" v="Bleiker v.g. skole" />
		<tag k="amenity" v="school" />
		<tag k="name" v="Bleiker videregående skole" />
		<tag k="ssr:stedsnr" v="23689" />
	</node>
	<node id="-236821" lat="59.8421638935" lon="10.4350749924">
		<tag k="name" v="Askertun" />
		<tag k="place" v="locality" />
		<tag k="ssr:stedsnr" v="23686" />
	</node>
	<node id="-236820" lat="59.8373361068" lon="10.4359388907">
		<tag k="amenity" v="townhall" />
		<tag k="name" v="Asker rådhus" />
		<tag k="ssr:stedsnr" v="23684" />
	</node>
	<node id="-236812" lat="59.8105555522" lon="10.3637500004">
		<tag k="name" v="Skrangla" />
		<tag k="place" v="farm" />
		<tag k="ssr:stedsnr" v="22694" />
	</node>
	<node id="-236809" lat="59.8024222199" lon="10.481525002">
		<tag k="name" v="Øgården" />
		<tag k="place" v="farm" />
		<tag k="ssr:stedsnr" v="22731" />
	</node>
	<node id="-236807" lat="59.8142027821" lon="10.3789277743">
		<tag k="alt_name" v="Vardåsen sykehus" />
		<tag k="name" v="Vardåsen" />
		<tag k="place" v="isolated_dwelling" />
		<tag k="ssr:stedsnr" v="5738" />
	</node>
	<node id="-236801" lat="59.8540166673" lon="10.3466027737">
		<tag k="name" v="Vestlia" />
		<tag k="place" v="isolated_dwelling" />
		<tag k="ssr:stedsnr" v="4826" />
	</node>
	<node id="-236800" lat="59.8525000043" lon="10.4964277843">
		<tag k="name" v="Furunes" />
		<tag k="place" v="isolated_dwelling" />
		<tag k="ssr:stedsnr" v="4820" />
	</node>
	<node id="-236799" lat="59.8426250001" lon="10.4906111106">
		<tag k="name" v="Hvalstrand" />
		<tag k="place" v="isolated_dwelling" />
		<tag k="ssr:stedsnr" v="4797" />
	</node>
	<node id="-236797" lat="59.790225001" lon="10.4264750036">
		<tag k="name" v="Sætre" />
		<tag k="place" v="isolated_dwelling" />
		<tag k="ssr:stedsnr" v="4726" />
	</node>
	<node id="-236796" lat="59.8033388904" lon="10.4888444366">
		<tag k="name" v="Arnestad" />
		<tag k="place" v="farm" />
		<tag k="ssr:stedsnr" v="4720" />
	</node>
	<node id="-236795" lat="59.8008666644" lon="10.3984472212">
		<tag k="name" v="Strømnes" />
		<tag k="place" v="farm" />
		<tag k="ssr:stedsnr" v="4708" />
	</node>
	<node id="-236794" lat="59.7986353286" lon="10.4734023683">
		<tag k="name" v="Linlandet" />
		<tag k="place" v="farm" />
		<tag k="ssr:stedsnr" v="4707" />
	</node>
	<node id="-236793" lat="59.8070249985" lon="10.3572777782">
		<tag k="alt_name" v="Påverud, nordre;Poverud" />
		<tag k="name" v="Nordre Påverud" />
		<tag k="place" v="farm" />
		<tag k="ssr:stedsnr" v="4693" />
	</node>
	<node id="-236792" lat="59.7807368847" lon="10.4970094723">
		<tag k="name" v="Slemmestad" />
		<tag k="place" v="village" />
		<tag k="ssr:stedsnr" v="4674" />
	</node>
	<node id="-236789" lat="59.7378945058" lon="10.4265661558">
		<tag k="fixme" v="consider place=hamlet" />
		<tag k="name" v="Bjørnstad" />
		<tag k="place" v="farm" />
		<tag k="ssr:stedsnr" v="3964" />
	</node>
	<node id="-236788" lat="59.7265916679" lon="10.4863194369">
		<tag k="name" v="Skiskogen" />
		<tag k="place" v="farm" />
		<tag k="ssr:stedsnr" v="3960" />
	</node>
	<node id="-236787" lat="59.6375601319" lon="10.5852520116">
		<tag k="fixme" v="consider place=hamlet" />
		<tag k="name" v="Burud" />
		<tag k="place" v="farm" />
		<tag k="ssr:stedsnr" v="3841" />
	</node>
	<node id="-236785" lat="59.8640499989" lon="10.4286361099">
		<tag k="name" v="Tømmervika" />
		<tag k="place" v="isolated_dwelling" />
		<tag k="ssr:stedsnr" v="3797" />
	</node>
	<node id="-236784" lat="59.7173527753" lon="10.3831583349">
		<tag k="name" v="Dammen" />
		<tag k="place" v="farm" />
		<tag k="ssr:stedsnr" v="3794" />
	</node>
	<node id="-236783" lat="59.7192027995" lon="10.493652358">
		<tag k="fixme" v="consider place=hamlet" />
		<tag k="name" v="Hov" />
		<tag k="place" v="farm" />
		<tag k="ssr:stedsnr" v="3786" />
	</node>
	<node id="-236781" lat="59.6096814636" lon="10.4716389761">
		<tag k="fixme" v="consider place=hamlet" />
		<tag k="name" v="Berg" />
		<tag k="place" v="farm" />
		<tag k="ssr:stedsnr" v="3610" />
	</node>
	<node id="-236780" lat="59.6135222209" lon="10.5935944451">
		<tag k="name" v="Hammersborg" />
		<tag k="place" v="farm" />
		<tag k="ssr:stedsnr" v="3605" />
	</node>
	<node id="-236778" lat="59.5395705599" lon="10.4464285005">
		<tag k="alt_name" v="Røed" />
		<tag k="fixme" v="consider place=hamlet" />
		<tag k="name" v="Rød" />
		<tag k="place" v="farm" />
		<tag k="ssr:stedsnr" v="3509" />
	</node>
	<node id="-236775" lat="59.7343427671" lon="10.3336869508">
		<tag k="fixme" v="consider place=hamlet" />
		<tag k="name" v="Torsrud" />
		<tag k="place" v="farm" />
		<tag k="ssr:stedsnr" v="3227" />
	</node>
	<node id="-236774" lat="59.7322662872" lon="10.3446591076">
		<tag k="fixme" v="consider place=hamlet" />
		<tag k="name" v="Hekleberg" />
		<tag k="place" v="farm" />
		<tag k="ssr:stedsnr" v="3226" />
	</node>
	<node id="-236763" lat="59.625455555" lon="10.4627861107">
		<tag k="name" v="Øvre Haugen" />
		<tag k="place" v="isolated_dwelling" />
		<tag k="ssr:stedsnr" v="969561" />
	</node>
	<node id="-236756" lat="59.6469222181" lon="10.5094972231">
		<tag k="name" v="Holtet" />
		<tag k="place" v="isolated_dwelling" />
		<tag k="ssr:stedsnr" v="965863" />
	</node>
	<node id="-236751" lat="59.7275527811" lon="10.5189472263">
		<tag k="name" v="Fagertun" />
		<tag k="place" v="isolated_dwelling" />
		<tag k="ssr:stedsnr" v="937943" />
	</node>
	<node id="-236747" lat="59.7351999998" lon="10.4533111167">
		<tag k="name" v="Ølstadbråten" />
		<tag k="place" v="farm" />
		<tag k="ssr:stedsnr" v="937532" />
	</node>
	<node id="-236744" lat="59.7358083334" lon="10.3534388901">
		<tag k="alt_name" v="Åsåker" />
		<tag k="name" v="Øvre Åsåker" />
		<tag k="place" v="farm" />
		<tag k="ssr:stedsnr" v="936417" />
	</node>
	<node id="-236742" lat="59.6667666673" lon="10.551436115">
		<tag k="alt_name" v="Bråten" />
		<tag k="name" v="Bråtan" />
		<tag k="place" v="locality" />
		<tag k="ssr:stedsnr" v="935832" />
	</node>
	<node id="-236738" lat="59.8213777794" lon="10.4717083354">
		<tag k="amenity" v="hospital" />
		<tag k="name" v="Blakstad sykehus" />
		<tag k="ssr:stedsnr" v="933615" />
	</node>
	<node id="-236734" lat="59.8292499961" lon="10.4374222255">
		<tag k="name" v="Bondi" />
		<tag k="place" v="farm" />
		<tag k="ssr:stedsnr" v="915709" />
	</node>
	<node id="-236733" lat="59.7589166629" lon="10.3516722259">
		<tag k="name" v="Åserud" />
		<tag k="place" v="farm" />
		<tag k="ssr:stedsnr" v="915621" />
	</node>
	<node id="-236732" lat="59.7614944424" lon="10.5094305618">
		<tag k="name" v="Nærsnes" />
		<tag k="old_name" v="Nersnes" />
		<tag k="place" v="village" />
		<tag k="ssr:stedsnr" v="915613" />
	</node>
	<node id="-236731" lat="59.7638675987" lon="10.3483153944">
		<tag k="fixme" v="consider place=hamlet" />
		<tag k="name" v="Haukelia" />
		<tag k="place" v="farm" />
		<tag k="ssr:stedsnr" v="915605" />
	</node>
	<node id="-236730" lat="59.5513833296" lon="10.4469055477">
		<tag k="name" v="Lysemyr" />
		<tag k="place" v="farm" />
		<tag k="ssr:stedsnr" v="913524" />
	</node>
	<node id="-236729" lat="59.5553194429" lon="10.5049527824">
		<tag k="alt_name" v="Grønsletta" />
		<tag k="name" v="Grønnsletta" />
		<tag k="place" v="farm" />
		<tag k="ssr:stedsnr" v="913517" />
	</node>
	<node id="-236728" lat="59.5502250042" lon="10.4929583292">
		<tag k="alt_name" v="Nordi" />
		<tag k="name" v="Nordli" />
		<tag k="place" v="farm" />
		<tag k="ssr:stedsnr" v="913515" />
	</node>
	<node id="-236720" lat="59.7377361113" lon="10.4610972194">
		<tag k="name" v="Klemmetsrud" />
		<tag k="place" v="farm" />
		<tag k="ssr:stedsnr" v="876508" />
	</node>
	<node id="-236718" lat="59.625208332" lon="10.4455055521">
		<tag k="name" v="Langbråten" />
		<tag k="place" v="isolated_dwelling" />
		<tag k="ssr:stedsnr" v="874757" />
	</node>
	<node id="-236717" lat="59.8140694475" lon="10.4794249971">
		<tag k="name" v="Sjøvollen" />
		<tag k="place" v="isolated_dwelling" />
		<tag k="ssr:stedsnr" v="874509" />
	</node>
	<node id="-236715" lat="59.7362472246" lon="10.3284027696">
		<tag k="alt_name" v="Dagslet" />
		<tag k="name" v="Dagslett" />
		<tag k="place" v="farm" />
		<tag k="ssr:stedsnr" v="950139" />
	</node>
	<node id="-236712" lat="59.8427194436" lon="10.4232277769">
		<tag k="name" v="Frydendal" />
		<tag k="place" v="farm" />
		<tag k="ssr:stedsnr" v="872655" />
	</node>
	<node id="-236709" lat="59.7629250037" lon="10.4566527784">
		<tag k="name" v="Sydskogen" />
		<tag k="place" v="quarter" />
		<tag k="ssr:stedsnr" v="872253" />
	</node>
	<node id="-236708" lat="59.8233055514" lon="10.3523999985">
		<tag k="name" v="Fiskumbråten" />
		<tag k="place" v="farm" />
		<tag k="ssr:stedsnr" v="871674" />
	</node>
	<node id="-236706" lat="59.7600750008" lon="10.4219749991">
		<tag k="name" v="Nordlihaugen" />
		<tag k="place" v="isolated_dwelling" />
		<tag k="ssr:stedsnr" v="855669" />
	</node>
	<node id="-236700" lat="59.8588611153" lon="10.431699999">
		<tag k="name" v="Tangen" />
		<tag k="place" v="isolated_dwelling" />
		<tag k="ssr:stedsnr" v="854775" />
	</node>
	<node id="-236699" lat="59.8380499956" lon="10.3589305547">
		<tag k="name" v="Bergsmarka" />
		<tag k="place" v="farm" />
		<tag k="ssr:stedsnr" v="854761" />
	</node>
	<node id="-236696" lat="59.6548833291" lon="10.5137583254">
		<tag k="name" v="Svendsrud" />
		<tag k="place" v="isolated_dwelling" />
		<tag k="ssr:stedsnr" v="854807" />
	</node>
	<node id="-236695" lat="59.7626333335" lon="10.4838027749">
		<tag k="name" v="Hogstad" />
		<tag k="place" v="farm" />
		<tag k="ssr:stedsnr" v="854613" />
	</node>
	<node id="-236694" lat="59.7620202946" lon="10.4152780174">
		<tag k="fixme" v="consider place=hamlet" />
		<tag k="name" v="Gjellum" />
		<tag k="place" v="farm" />
		<tag k="ssr:stedsnr" v="854610" />
	</node>
	<node id="-236693" lat="59.727547221" lon="10.478952778">
		<tag k="name" v="Søndre Ski" />
		<tag k="place" v="farm" />
		<tag k="ssr:stedsnr" v="853961" />
	</node>
	<node id="-236692" lat="59.7170416659" lon="10.428972231">
		<tag k="name" v="Plassen" />
		<tag k="place" v="isolated_dwelling" />
		<tag k="ssr:stedsnr" v="853784" />
	</node>
	<node id="-236691" lat="59.7219888968" lon="10.346015363">
		<tag k="fixme" v="consider place=hamlet" />
		<tag k="name" v="Ovnerud" />
		<tag k="place" v="farm" />
		<tag k="ssr:stedsnr" v="853766" />
	</node>
	<node id="-236688" lat="59.5572249997" lon="10.5196027745">
		<tag k="name" v="Oredalshytta" />
		<tag k="place" v="locality" />
		<tag k="ssr:stedsnr" v="853669" />
	</node>
	<node id="-236685" lat="59.7804111133" lon="10.4583055492">
		<tag k="name" v="Rustad" />
		<tag k="place" v="farm" />
		<tag k="ssr:stedsnr" v="853827" />
	</node>
	<node id="-236682" lat="59.8638944469" lon="10.4198722239">
		<tag k="name" v="Hajem" />
		<tag k="place" v="farm" />
		<tag k="ssr:stedsnr" v="853809" />
	</node>
	<node id="-236681" lat="59.8621138886" lon="10.499105547">
		<tag k="alt_name" v="Øvre Nes" />
		<tag k="name" v="Nes" />
		<tag k="place" v="farm" />
		<tag k="ssr:stedsnr" v="853803" />
	</node>
	<node id="-236678" lat="59.7704472202" lon="10.5009416603">
		<tag k="alt_name" v="Grunnvik" />
		<tag k="name" v="Grundvik" />
		<tag k="place" v="isolated_dwelling" />
		<tag k="ssr:stedsnr" v="938845" />
	</node>
	<node id="-236676" lat="59.7676833352" lon="10.4484583345">
		<tag k="name" v="Langsø" />
		<tag k="place" v="farm" />
		<tag k="ssr:stedsnr" v="938786" />
	</node>
	<node id="-236670" lat="59.6425805559" lon="10.430377779">
		<tag k="name" v="Sagløkka" />
		<tag k="place" v="isolated_dwelling" />
		<tag k="ssr:stedsnr" v="935856" />
	</node>
	<node id="-236669" lat="59.6238305588" lon="10.4442416593">
		<tag k="name" v="Inglingstad" />
		<tag k="place" v="farm" />
		<tag k="ssr:stedsnr" v="935750" />
	</node>
	<node id="-236667" lat="59.6836333314" lon="10.5391055632">
		<tag k="alt_name" v="Engene Fabrikker" />
		<tag k="building" v="industrial" />
		<tag k="industrial" v="factory" />
		<tag k="name" v="Engene" />
		<tag k="ssr:stedsnr" v="934782" />
	</node>
	<node id="-236666" lat="59.8502944487" lon="10.4699916642">
		<tag k="name" v="Bjørndalen" />
		<tag k="place" v="farm" />
		<tag k="ssr:stedsnr" v="933698" />
	</node>
	<node id="-236664" lat="59.8384555519" lon="10.4649805568">
		<tag k="fixme" v="consider place=hamlet" />
		<tag k="name" v="Nedre Båstad" />
		<tag k="place" v="farm" />
		<tag k="ssr:stedsnr" v="933680" />
	</node>
	<node id="-236661" lat="59.8141000032" lon="10.4253194366">
		<tag k="name" v="Trettestykket" />
		<tag k="place" v="locality" />
		<tag k="ssr:stedsnr" v="933710" />
	</node>
	<node id="-236659" lat="59.8259861113" lon="10.441758333">
		<tag k="amenity" v="school" />
		<tag k="name" v="Risenga skole" />
		<tag k="ssr:stedsnr" v="933704" />
	</node>
	<node id="-236652" lat="59.759125004" lon="10.4685000024">
		<tag k="name" v="Østskogen" />
		<tag k="place" v="quarter" />
		<tag k="ssr:stedsnr" v="933243" />
	</node>
	<node id="-236650" lat="59.7836305546" lon="10.4388194359">
		<tag k="name" v="Heggedal hovedgård" />
		<tag k="place" v="farm" />
		<tag k="ssr:stedsnr" v="932697" />
	</node>
	<node id="-236647" lat="59.8238083341" lon="10.3687222179">
		<tag k="name" v="Rønningen" />
		<tag k="place" v="farm" />
		<tag k="ssr:stedsnr" v="932664" />
	</node>
	<node id="-236646" lat="59.782922218" lon="10.4434722214">
		<tag k="building" v="industrial" />
		<tag k="name" v="Stokkersmia" />
		<tag k="ssr:stedsnr" v="932597" />
	</node>
	<node id="-236645" lat="59.849600002" lon="10.4017388953">
		<tag k="loc_name" v="Juntru" />
		<tag k="name" v="Junterud" />
		<tag k="place" v="locality" />
		<tag k="ssr:stedsnr" v="932594" />
	</node>
	<node id="-236644" lat="59.6811694449" lon="10.5147500045">
		<tag k="name" v="Skatvedtfeltet" />
		<tag k="place" v="quarter" />
		<tag k="ssr:stedsnr" v="819771" />
	</node>
	<node id="-236643" lat="59.7826416636" lon="10.4940055471">
		<tag k="building" v="industrial" />
		<tag k="industrial" v="factory" />
		<tag k="name" v="Slemmestad fabrikker" />
		<tag k="ssr:stedsnr" v="816860" />
	</node>
	<node id="-236639" lat="59.6980916648" lon="10.5180972295">
		<tag k="fixme" v="multiple name tags, choose one and add the other to alt_name" />
		<tag k="name" v="Kastet;Underkastet" />
		<tag k="place" v="farm" />
		<tag k="ssr:stedsnr" v="815973" />
	</node>
	<node id="-236637" lat="59.7046583297" lon="10.5145916622">
		<tag k="name" v="Lille Åros" />
		<tag k="place" v="farm" />
		<tag k="ssr:stedsnr" v="815970" />
	</node>
	<node id="-236636" lat="59.7082972233" lon="10.4092388876">
		<tag k="name" v="Herstadheihytta" />
		<tag k="place" v="isolated_dwelling" />
		<tag k="ssr:stedsnr" v="815966" />
	</node>
	<node id="-236635" lat="59.7085833294" lon="10.5227944443">
		<tag k="name" v="Nygård" />
		<tag k="place" v="isolated_dwelling" />
		<tag k="ssr:stedsnr" v="815963" />
	</node>
	<node id="-236634" lat="59.716961115" lon="10.363705555">
		<tag k="name" v="Hyggen" />
		<tag k="place" v="isolated_dwelling" />
		<tag k="ssr:stedsnr" v="815804" />
	</node>
	<node id="-236633" lat="59.7529194438" lon="10.3229388893">
		<tag k="name" v="Stutterud" />
		<tag k="place" v="isolated_dwelling" />
		<tag k="ssr:stedsnr" v="815311" />
	</node>
	<node id="-236630" lat="59.5574888905" lon="10.5933527812">
		<tag k="alt_name" v="Røedstøa" />
		<tag k="name" v="Rødstøa" />
		<tag k="place" v="isolated_dwelling" />
		<tag k="ssr:stedsnr" v="814861" />
	</node>
	<node id="-236628" lat="59.8542916687" lon="10.444427777">
		<tag k="name" v="Skaugum" />
		<tag k="place" v="farm" />
		<tag k="ssr:stedsnr" v="793804" />
	</node>
	<node id="-236627" lat="59.7518916572" lon="10.3434011771">
		<tag k="fixme" v="consider place=hamlet" />
		<tag k="name" v="Rud" />
		<tag k="place" v="farm" />
		<tag k="ssr:stedsnr" v="793633" />
	</node>
	<node id="-236626" lat="59.7505335779" lon="10.406080872">
		<tag k="fixme" v="consider place=hamlet" />
		<tag k="name" v="Vang" />
		<tag k="place" v="farm" />
		<tag k="ssr:stedsnr" v="793631" />
	</node>
	<node id="-236625" lat="59.8202750013" lon="10.3655055644">
		<tag k="name" v="Engelsrud" />
		<tag k="place" v="farm" />
		<tag k="ssr:stedsnr" v="793759" />
	</node>
	<node id="-236622" lat="59.6233805599" lon="10.4653916666">
		<tag k="alt_name" v="Nedre Haugen" />
		<tag k="name" v="Haugen" />
		<tag k="place" v="farm" />
		<tag k="ssr:stedsnr" v="792643" />
	</node>
	<node id="-236621" lat="59.6133333323" lon="10.4872888833">
		<tag k="name" v="Nepebråten" />
		<tag k="place" v="farm" />
		<tag k="ssr:stedsnr" v="792629" />
	</node>
	<node id="-236618" lat="59.5487916683" lon="10.4812916732">
		<tag k="name" v="Graver" />
		<tag k="place" v="farm" />
		<tag k="ssr:stedsnr" v="792528" />
	</node>
	<node id="-236615" lat="59.5927970225" lon="10.4822081209">
		<tag k="name" v="Rødby" />
		<tag k="place" v="hamlet" />
		<tag k="ssr:stedsnr" v="791610" />
	</node>
	<node id="-236614" lat="59.626525002" lon="10.4756361195">
		<tag k="name" v="Møllerhøi" />
		<tag k="place" v="farm" />
		<tag k="ssr:stedsnr" v="787566" />
	</node>
	<node id="-236610" lat="59.858969442" lon="10.5052027823">
		<tag k="name" v="Landøya" />
		<tag k="place" v="village" />
		<tag k="ssr:stedsnr" v="915785" />
	</node>
	<node id="-236609" lat="59.7999083311" lon="10.5002749933">
		<tag k="name" v="Engervik" />
		<tag k="place" v="isolated_dwelling" />
		<tag k="ssr:stedsnr" v="915689" />
	</node>
	<node id="-236608" lat="59.8377861102" lon="10.4028499941">
		<tag k="name" v="Hogstad" />
		<tag k="place" v="farm" />
		<tag k="ssr:stedsnr" v="915752" />
	</node>
	<node id="-236607" lat="59.8392833334" lon="10.4574527799">
		<tag k="fixme" v="consider place=hamlet" />
		<tag k="name" v="Unnelstad" />
		<tag k="place" v="farm" />
		<tag k="ssr:stedsnr" v="915751" />
	</node>
	<node id="-236606" lat="59.8264666665" lon="10.3621861134">
		<tag k="name" v="Brattum" />
		<tag k="place" v="farm" />
		<tag k="ssr:stedsnr" v="915745" />
	</node>
	<node id="-236605" lat="59.7765666623" lon="10.460063883">
		<tag k="alt_name" v="Lauvås" />
		<tag k="name" v="Løvås" />
		<tag k="place" v="farm" />
		<tag k="ssr:stedsnr" v="915665" />
	</node>
	<node id="-236604" lat="59.7555999989" lon="10.5127777812">
		<tag k="name" v="Bråtaløkka" />
		<tag k="old_name" v="Bråteløkka" />
		<tag k="place" v="isolated_dwelling" />
		<tag k="ssr:stedsnr" v="915632" />
	</node>
	<node id="-236603" lat="59.6678861078" lon="10.4394388965">
		<tag k="name" v="Rørvik" />
		<tag k="place" v="farm" />
		<tag k="ssr:stedsnr" v="914869" />
	</node>
	<node id="-236600" lat="59.864636114" lon="10.4651666682">
		<tag k="name" v="Solstad" />
		<tag k="place" v="farm" />
		<tag k="ssr:stedsnr" v="914809" />
	</node>
	<node id="-236599" lat="59.8021250039" lon="10.4017805563">
		<tag k="name" v="Sebjørnsrud" />
		<tag k="place" v="farm" />
		<tag k="ssr:stedsnr" v="914718" />
	</node>
	<node id="-236598" lat="59.5753222233" lon="10.4434888813">
		<tag k="name" v="Knivsvikbråten" />
		<tag k="place" v="farm" />
		<tag k="ssr:stedsnr" v="770469" />
	</node>
	<node id="-236597" lat="59.5813027764" lon="10.4378333386">
		<tag k="name" v="Knivsvik" />
		<tag k="place" v="isolated_dwelling" />
		<tag k="ssr:stedsnr" v="770463" />
	</node>
	<node id="-236593" lat="59.563272223" lon="10.5732361153">
		<tag k="alt_name" v="Røed vestre" />
		<tag k="name" v="Vestre Rød" />
		<tag k="place" v="farm" />
		<tag k="ssr:stedsnr" v="768690" />
	</node>
	<node id="-236590" lat="59.5815166697" lon="10.60782222">
		<tag k="name" v="Nordre Bjørnstad" />
		<tag k="place" v="farm" />
		<tag k="ssr:stedsnr" v="767663" />
	</node>
	<node id="-236589" lat="59.7438072816" lon="10.3970285407">
		<tag k="fixme" v="consider place=hamlet" />
		<tag k="name" v="Heggum" />
		<tag k="place" v="farm" />
		<tag k="ssr:stedsnr" v="914016" />
	</node>
	<node id="-237902" lat="59.787433337" lon="10.4456805564">
		<tag k="name" v="Kloppedalen" />
		<tag k="place" v="farm" />
		<tag k="ssr:stedsnr" v="871712" />
	</node>
	<node id="-236581" lat="59.568275663" lon="10.4401396527">
		<tag k="alt_name" v="Aas" />
		<tag k="fixme" v="consider place=hamlet" />
		<tag k="name" v="Ås" />
		<tag k="place" v="farm" />
		<tag k="ssr:stedsnr" v="913697" />
	</node>
	<node id="-236579" lat="59.620883331" lon="10.5471166697">
		<tag k="name" v="Rolfsbu" />
		<tag k="place" v="isolated_dwelling" />
		<tag k="ssr:stedsnr" v="913630" />
	</node>
	<node id="-236576" lat="59.7159972264" lon="10.3252444437">
		<tag k="name" v="Kustein" />
		<tag k="place" v="isolated_dwelling" />
		<tag k="ssr:stedsnr" v="913277" />
	</node>
	<node id="-236575" lat="59.7130111151" lon="10.4542194366">
		<tag k="name" v="Vearhagen" />
		<tag k="place" v="isolated_dwelling" />
		<tag k="ssr:stedsnr" v="754905" />
	</node>
	<node id="-236573" lat="59.5483250034" lon="10.429561114">
		<tag k="alt_name" v="Jahren søndre" />
		<tag k="name" v="Søndre Jaren" />
		<tag k="place" v="farm" />
		<tag k="ssr:stedsnr" v="909121" />
	</node>
	<node id="-236572" lat="59.5474888929" lon="10.444988884">
		<tag k="alt_name" v="Jahren nedre" />
		<tag k="name" v="Nedre Jaren" />
		<tag k="place" v="locality" />
		<tag k="ssr:stedsnr" v="909115" />
	</node>
	<node id="-236570" lat="59.5445416709" lon="10.4630277862">
		<tag k="name" v="Haugemyrene" />
		<tag k="place" v="isolated_dwelling" />
		<tag k="ssr:stedsnr" v="909106" />
	</node>
	<node id="-236564" lat="59.8539500031" lon="10.4850055633">
		<tag k="leisure" v="pitch" />
		<tag k="name" v="Holmen idrettsanlegg" />
		<tag k="ssr:stedsnr" v="751537" />
	</node>
	<node id="-236563" lat="59.8653333321" lon="10.4668083343">
		<tag k="name" v="Nedre Solstad" />
		<tag k="place" v="farm" />
		<tag k="ssr:stedsnr" v="751529" />
	</node>
	<node id="-236562" lat="59.862391663" lon="10.4637416676">
		<tag k="name" v="Øvre Solstad" />
		<tag k="place" v="farm" />
		<tag k="ssr:stedsnr" v="751525" />
	</node>
	<node id="-236554" lat="59.5670055575" lon="10.4883416646">
		<tag k="name" v="Fugleklo" />
		<tag k="place" v="farm" />
		<tag k="ssr:stedsnr" v="907212" />
	</node>
	<node id="-236550" lat="59.6173638897" lon="10.5204388813">
		<tag k="name" v="Østernsetra" />
		<tag k="place" v="locality" />
		<tag k="ssr:stedsnr" v="905536" />
	</node>
	<node id="-236548" lat="59.6117944469" lon="10.4579194524">
		<tag k="name" v="Hov" />
		<tag k="place" v="farm" />
		<tag k="ssr:stedsnr" v="731605" />
	</node>
	<node id="-236547" lat="59.5942334006" lon="10.6032338081">
		<tag k="fixme" v="consider place=hamlet" />
		<tag k="name" v="Solberg" />
		<tag k="place" v="farm" />
		<tag k="ssr:stedsnr" v="731729" />
	</node>
	<node id="-236546" lat="59.5896944483" lon="10.5845833336">
		<tag k="name" v="Langerud" />
		<tag k="place" v="isolated_dwelling" />
		<tag k="ssr:stedsnr" v="731712" />
	</node>
	<node id="-236530" lat="59.7352027785" lon="10.3272916631">
		<tag k="alt_name" v="Dagslet" />
		<tag k="name" v="Dagslett" />
		<tag k="place" v="farm" />
		<tag k="ssr:stedsnr" v="708137" />
	</node>
	<node id="-236528" lat="59.5805444421" lon="10.5821888815">
		<tag k="alt_name" v="Wold" />
		<tag k="name" v="Vold" />
		<tag k="place" v="farm" />
		<tag k="ssr:stedsnr" v="892628" />
	</node>
	<node id="-236524" lat="59.6469166663" lon="10.5852944469">
		<tag k="name" v="Høybråten" />
		<tag k="place" v="locality" />
		<tag k="ssr:stedsnr" v="891376" />
	</node>
	<node id="-236523" lat="59.5478777789" lon="10.4881333331">
		<tag k="name" v="Fredheim" />
		<tag k="place" v="farm" />
		<tag k="ssr:stedsnr" v="891156" />
	</node>
	<node id="-236521" lat="59.5679514529" lon="10.6035747232">
		<tag k="fixme" v="consider place=hamlet" />
		<tag k="name" v="Filtvet" />
		<tag k="place" v="farm" />
		<tag k="ssr:stedsnr" v="890708" />
	</node>
	<node id="-236519" lat="59.6719166638" lon="10.4343250005">
		<tag k="name" v="Lund" />
		<tag k="place" v="isolated_dwelling" />
		<tag k="ssr:stedsnr" v="890265" />
	</node>
	<node id="-236517" lat="59.874894445" lon="10.3770527829">
		<tag k="alt_name" v="Nordre Rustan;N. Rustan" />
		<tag k="name" v="Nordre Rustaden" />
		<tag k="place" v="farm" />
		<tag k="ssr:stedsnr" v="889644" />
	</node>
	<node id="-236514" lat="59.7612333355" lon="10.4260916743">
		<tag k="name" v="Hajum" />
		<tag k="place" v="farm" />
		<tag k="ssr:stedsnr" v="694354" />
	</node>
	<node id="-236510" lat="59.5857888932" lon="10.6103472184">
		<tag k="name" v="Hyggen" />
		<tag k="place" v="farm" />
		<tag k="ssr:stedsnr" v="692916" />
	</node>
	<node id="-236507" lat="59.8013416631" lon="10.4843472225">
		<tag k="name" v="Bekkelund" />
		<tag k="place" v="farm" />
		<tag k="ssr:stedsnr" v="689703" />
	</node>
	<node id="-236506" lat="59.57234444" lon="10.4349888964">
		<tag k="name" v="Åsskogen" />
		<tag k="place" v="neighbourhood" />
		<tag k="ssr:stedsnr" v="879727" />
	</node>
	<node id="-236503" lat="59.5478999958" lon="10.4445638813">
		<tag k="alt_name" v="Langjahren" />
		<tag k="name" v="Langjaren" />
		<tag k="place" v="farm" />
		<tag k="ssr:stedsnr" v="666119" />
	</node>
	<node id="-237831" lat="59.7582361093" lon="10.450494449">
		<tag k="name" v="Åshaug" />
		<tag k="place" v="farm" />
		<tag k="ssr:stedsnr" v="817378" />
	</node>
	<node id="-236498" lat="59.7757583356" lon="10.3980638913">
		<tag k="fixme" v="consider tourism=alpine_hut or tourism=chalet" />
		<tag k="name" v="Blåfjellhytta" />
		<tag k="ssr:stedsnr" v="877624" />
		<tag k="tourism" v="wilderness_hut" />
	</node>
	<node id="-236497" lat="59.7347333293" lon="10.3872666729">
		<tag k="name" v="Jaksland" />
		<tag k="place" v="farm" />
		<tag k="ssr:stedsnr" v="877569" />
	</node>
	<node id="-236496" lat="59.7668055583" lon="10.4870138864">
		<tag k="name" v="Engebråten" />
		<tag k="place" v="isolated_dwelling" />
		<tag k="ssr:stedsnr" v="877380" />
	</node>
	<node id="-236495" lat="59.7073277745" lon="10.4913388909">
		<tag k="name" v="Follestad" />
		<tag k="place" v="farm" />
		<tag k="ssr:stedsnr" v="876961" />
	</node>
	<node id="-236494" lat="59.7221861077" lon="10.5026305546">
		<tag k="name" v="Nordli" />
		<tag k="place" v="isolated_dwelling" />
		<tag k="ssr:stedsnr" v="876955" />
	</node>
	<node id="-236493" lat="59.7157000043" lon="10.5208666694">
		<tag k="name" v="Blåhella" />
		<tag k="place" v="isolated_dwelling" />
		<tag k="ssr:stedsnr" v="876949" />
	</node>
	<node id="-236491" lat="59.7263416698" lon="10.4500611064">
		<tag k="name" v="Sageng" />
		<tag k="place" v="isolated_dwelling" />
		<tag k="ssr:stedsnr" v="876488" />
	</node>
	<node id="-236488" lat="59.7468305583" lon="10.36263612">
		<tag k="name" v="Transet" />
		<tag k="place" v="farm" />
		<tag k="ssr:stedsnr" v="876317" />
	</node>
	<node id="-236487" lat="59.614052777" lon="10.4576833279">
		<tag k="amenity" v="townhall" />
		<tag k="name" v="Hovtun" />
		<tag k="ssr:stedsnr" v="648505" />
	</node>
	<node id="-236486" lat="59.5786916665" lon="10.5898222223">
		<tag k="name" v="Røttervold" />
		<tag k="place" v="isolated_dwelling" />
		<tag k="ssr:stedsnr" v="648662" />
	</node>
	<node id="-236483" lat="59.5742194471" lon="10.462580554">
		<tag k="name" v="Dalene" />
		<tag k="place" v="farm" />
		<tag k="ssr:stedsnr" v="648474" />
	</node>
	<node id="-236481" lat="59.8459833337" lon="10.4953500077">
		<tag k="name" v="Stilleren" />
		<tag k="place" v="isolated_dwelling" />
		<tag k="ssr:stedsnr" v="733755" />
	</node>
	<node id="-236480" lat="59.841591671" lon="10.4022250068">
		<tag k="name" v="Jøssong" />
		<tag k="place" v="farm" />
		<tag k="ssr:stedsnr" v="733745" />
	</node>
	<node id="-236479" lat="59.8118805539" lon="10.4612111169">
		<tag k="name" v="Østenstad" />
		<tag k="place" v="farm" />
		<tag k="ssr:stedsnr" v="733733" />
	</node>
	<node id="-236478" lat="59.8176111143" lon="10.4415222302">
		<tag k="alt_name" v="Bondibroen" />
		<tag k="name" v="Bondibrua" />
		<tag k="place" v="farm" />
		<tag k="ssr:stedsnr" v="733705" />
	</node>
	<node id="-236473" lat="59.7828861109" lon="10.425288888">
		<tag k="name" v="Underland" />
		<tag k="place" v="farm" />
		<tag k="ssr:stedsnr" v="733633" />
	</node>
	<node id="-236471" lat="59.6526758962" lon="10.5849073813">
		<tag k="fixme" v="consider place=hamlet" />
		<tag k="name" v="Grønsand" />
		<tag k="place" v="farm" />
		<tag k="ssr:stedsnr" v="732818" />
	</node>
	<node id="-236470" lat="59.6570361068" lon="10.4370888826">
		<tag k="name" v="Småskjær" />
		<tag k="place" v="isolated_dwelling" />
		<tag k="ssr:stedsnr" v="732816" />
	</node>
	<node id="-236468" lat="59.7542888909" lon="10.3365666717">
		<tag k="name" v="Helgeroa" />
		<tag k="place" v="isolated_dwelling" />
		<tag k="ssr:stedsnr" v="732072" />
	</node>
	<node id="-236467" lat="59.7472416635" lon="10.3883222299">
		<tag k="name" v="Røyken" />
		<tag k="place" v="village" />
		<tag k="ssr:stedsnr" v="731993" />
	</node>
	<node id="-236466" lat="59.7286624585" lon="10.4415562471">
		<tag k="fixme" v="consider place=hamlet" />
		<tag k="name" v="Huseby" />
		<tag k="place" v="farm" />
		<tag k="ssr:stedsnr" v="731961" />
	</node>
	<node id="-236463" lat="59.8705805514" lon="10.4908999946">
		<tag k="alt_name" v="Vestre Nes" />
		<tag k="name" v="Nes" />
		<tag k="place" v="farm" />
		<tag k="ssr:stedsnr" v="731815" />
	</node>
	<node id="-236461" lat="59.7178055562" lon="10.4543416696">
		<tag k="name" v="Vangsbråten" />
		<tag k="place" v="farm" />
		<tag k="ssr:stedsnr" v="731790" />
	</node>
	<node id="-236460" lat="59.6923053571" lon="10.4137819862">
		<tag k="fixme" v="consider place=hamlet" />
		<tag k="name" v="Jerdal" />
		<tag k="place" v="farm" />
		<tag k="ssr:stedsnr" v="731744" />
	</node>
	<node id="-236459" lat="59.5643583317" lon="10.4633749945">
		<tag k="name" v="Sand" />
		<tag k="place" v="farm" />
		<tag k="ssr:stedsnr" v="731688" />
	</node>
	<node id="-236455" lat="59.551768868" lon="10.4661171777">
		<tag k="fixme" v="consider place=hamlet" />
		<tag k="name" v="Folkestad" />
		<tag k="place" v="farm" />
		<tag k="ssr:stedsnr" v="731510" />
	</node>
	<node id="-236450" lat="59.7398222202" lon="10.436238892">
		<tag k="name" v="Ølstad" />
		<tag k="place" v="farm" />
		<tag k="ssr:stedsnr" v="633516" />
	</node>
	<node id="-236449" lat="59.7506972192" lon="10.3782666606">
		<tag k="name" v="Hanestad" />
		<tag k="place" v="isolated_dwelling" />
		<tag k="ssr:stedsnr" v="633416" />
	</node>
	<node id="-236448" lat="59.7551361117" lon="10.4060805625">
		<tag k="name" v="Jemtland" />
		<tag k="place" v="farm" />
		<tag k="ssr:stedsnr" v="633412" />
	</node>
	<node id="-236444" lat="59.5938722249" lon="10.4381027729">
		<tag k="name" v="Ormestua" />
		<tag k="place" v="isolated_dwelling" />
		<tag k="ssr:stedsnr" v="631766" />
	</node>
	<node id="-236439" lat="59.8513055585" lon="10.4929666616">
		<tag k="alt_name" v="Granlien;Grønlien" />
		<tag k="name" v="Grønnlia" />
		<tag k="place" v="locality" />
		<tag k="ssr:stedsnr" v="629531" />
	</node>
	<node id="-236436" lat="59.8657833296" lon="10.4680972254">
		<tag k="name" v="Skustad" />
		<tag k="place" v="farm" />
		<tag k="ssr:stedsnr" v="629518" />
	</node>
	<node id="-236434" lat="59.7859194481" lon="10.4566416681">
		<tag k="name" v="Dal" />
		<tag k="place" v="farm" />
		<tag k="ssr:stedsnr" v="628714" />
	</node>
	<node id="-236428" lat="59.626030556" lon="10.4717305565">
		<tag k="name" v="Haugestad" />
		<tag k="place" v="farm" />
		<tag k="ssr:stedsnr" v="726578" />
	</node>
	<node id="-236427" lat="59.6310083313" lon="10.4609888939">
		<tag k="alt_name" v="Roaas" />
		<tag k="name" v="Roås" />
		<tag k="place" v="isolated_dwelling" />
		<tag k="ssr:stedsnr" v="726574" />
	</node>
	<node id="-236425" lat="59.7035472228" lon="10.5291083262">
		<tag k="name" v="Gråøyhusa" />
		<tag k="place" v="isolated_dwelling" />
		<tag k="ssr:stedsnr" v="725789" />
	</node>
	<node id="-236412" lat="59.8393111145" lon="10.5098999934">
		<tag k="fixme" v="consider place=suburb, village or hamlet" />
		<tag k="name" v="Konglungen" />
		<tag k="place" v="quarter" />
		<tag k="ssr:stedsnr" v="611786" />
	</node>
	<node id="-236411" lat="59.8116055579" lon="10.4499499988">
		<tag k="name" v="Gullhella" />
		<tag k="place" v="village" />
		<tag k="ssr:stedsnr" v="611760" />
	</node>
	<node id="-236409" lat="59.7360410573" lon="10.3973907046">
		<tag k="fixme" v="consider place=hamlet" />
		<tag k="name" v="Liverud" />
		<tag k="place" v="farm" />
		<tag k="ssr:stedsnr" v="609966" />
	</node>
	<node id="-236408" lat="59.6208222221" lon="10.6076083297">
		<tag k="name" v="Løkka" />
		<tag k="place" v="isolated_dwelling" />
		<tag k="ssr:stedsnr" v="609622" />
	</node>
	<node id="-236389" lat="59.5768305597" lon="10.51584723">
		<tag k="name" v="Nysetra" />
		<tag k="place" v="locality" />
		<tag k="ssr:stedsnr" v="587671" />
	</node>
	<node id="-236385" lat="59.6125000022" lon="10.5499777821">
		<tag k="name" v="Plankebru" />
		<tag k="place" v="isolated_dwelling" />
		<tag k="ssr:stedsnr" v="709736" />
	</node>
	<node id="-236384" lat="59.5967416711" lon="10.5359111131">
		<tag k="name" v="Blankvannshytta" />
		<tag k="place" v="locality" />
		<tag k="ssr:stedsnr" v="709734" />
	</node>
	<node id="-236382" lat="59.6130722213" lon="10.5876888878">
		<tag k="name" v="Gammelsetra" />
		<tag k="place" v="locality" />
		<tag k="ssr:stedsnr" v="709712" />
	</node>
	<node id="-236379" lat="59.6026666651" lon="10.5060583311">
		<tag k="name" v="Smedbråten" />
		<tag k="place" v="locality" />
		<tag k="ssr:stedsnr" v="709637" />
	</node>
	<node id="-236372" lat="59.5665722234" lon="10.5753361089">
		<tag k="alt_name" v="Røed østre" />
		<tag k="name" v="Østre Rød" />
		<tag k="place" v="farm" />
		<tag k="ssr:stedsnr" v="708676" />
	</node>
	<node id="-236371" lat="59.5734527779" lon="10.5602916673">
		<tag k="name" v="Ulvekula" />
		<tag k="place" v="farm" />
		<tag k="ssr:stedsnr" v="708675" />
	</node>
	<node id="-236363" lat="59.616419443" lon="10.467747219">
		<tag k="name" v="Nordjordet" />
		<tag k="place" v="farm" />
		<tag k="ssr:stedsnr" v="707570" />
	</node>
	<node id="-236361" lat="59.5972333359" lon="10.4902250087">
		<tag k="name" v="Bergli" />
		<tag k="place" v="farm" />
		<tag k="ssr:stedsnr" v="707557" />
	</node>
	<node id="-236359" lat="59.5631333323" lon="10.4548444487">
		<tag k="name" v="Tangerud" />
		<tag k="place" v="isolated_dwelling" />
		<tag k="ssr:stedsnr" v="707204" />
	</node>
	<node id="-236352" lat="59.8491694444" lon="10.4730138812">
		<tag k="name" v="Hofstad" />
		<tag k="place" v="farm" />
		<tag k="ssr:stedsnr" v="568634" />
	</node>
	<node id="-236350" lat="59.5686500026" lon="10.4311666716">
		<tag k="alt_name" v="Aasstøa" />
		<tag k="name" v="Åsstøa" />
		<tag k="place" v="isolated_dwelling" />
		<tag k="ssr:stedsnr" v="695821" />
	</node>
	<node id="-236349" lat="59.7668722211" lon="10.470194436">
		<tag k="name" v="Dambo" />
		<tag k="place" v="isolated_dwelling" />
		<tag k="ssr:stedsnr" v="695390" />
	</node>
	<node id="-236348" lat="59.7611861122" lon="10.4681194392">
		<tag k="name" v="Eikeleina" />
		<tag k="place" v="isolated_dwelling" />
		<tag k="ssr:stedsnr" v="695385" />
	</node>
	<node id="-236345" lat="59.7258027749" lon="10.5136972182">
		<tag k="name" v="Høvik" />
		<tag k="place" v="farm" />
		<tag k="ssr:stedsnr" v="694939" />
	</node>
	<node id="-236341" lat="59.7754611125" lon="10.3413416721">
		<tag k="fixme" v="consider tourism=alpine_hut or tourism=chalet" />
		<tag k="name" v="R.O.S. hytta" />
		<tag k="ssr:stedsnr" v="694347" />
		<tag k="tourism" v="wilderness_hut" />
	</node>
	<node id="-236340" lat="59.6544611079" lon="10.601463888">
		<tag k="name" v="Ellingstad" />
		<tag k="place" v="isolated_dwelling" />
		<tag k="ssr:stedsnr" v="693887" />
	</node>
	<node id="-236339" lat="59.6445638928" lon="10.5837111046">
		<tag k="name" v="Frydenlund" />
		<tag k="place" v="isolated_dwelling" />
		<tag k="ssr:stedsnr" v="693879" />
	</node>
	<node id="-236334" lat="59.8294583336" lon="10.4378416693">
		<tag k="name" v="Nordre Bondi" />
		<tag k="place" v="farm" />
		<tag k="ssr:stedsnr" v="690710" />
	</node>
	<node id="-236323" lat="59.8748083319" lon="10.473608331">
		<tag k="amenity" v="school" />
		<tag k="name" v="Billingstad skole" />
		<tag k="ssr:stedsnr" v="690558" />
	</node>
	<node id="-236318" lat="59.8720694403" lon="10.5212416679">
		<tag k="name" v="Kjeksla" />
		<tag k="place" v="isolated_dwelling" />
		<tag k="ssr:stedsnr" v="690531" />
	</node>
	<node id="-236317" lat="59.7969666641" lon="10.4550416601">
		<tag k="name" v="Lille Gui" />
		<tag k="place" v="farm" />
		<tag k="ssr:stedsnr" v="689701" />
	</node>
	<node id="-236316" lat="59.791786109" lon="10.4481111141">
		<tag k="name" v="Heggedal" />
		<tag k="place" v="village" />
		<tag k="ssr:stedsnr" v="689694" />
	</node>
	<node id="-236315" lat="59.7869527796" lon="10.4483555577">
		<tag k="name" v="Fjellhøy" />
		<tag k="place" v="farm" />
		<tag k="ssr:stedsnr" v="689692" />
	</node>
	<node id="-236314" lat="59.7901361081" lon="10.4173194388">
		<tag k="name" v="Nyborgsåsen" />
		<tag k="place" v="quarter" />
		<tag k="ssr:stedsnr" v="689685" />
	</node>
	<node id="-236311" lat="59.8285583297" lon="10.3691888948">
		<tag k="name" v="Kampenhaug" />
		<tag k="place" v="farm" />
		<tag k="ssr:stedsnr" v="689654" />
	</node>
	<node id="-237961" lat="59.7103699341" lon="10.5178140726">
		<tag k="name" v="Årosfjellet" />
		<tag k="place" v="quarter" />
		<tag k="ssr:stedsnr" v="981747" />
	</node>
	<node id="-236308" lat="59.7819083305" lon="10.4633777739">
		<tag k="fixme" v="consider place=suburb, village or hamlet" />
		<tag k="name" v="Sakserudbråten" />
		<tag k="place" v="quarter" />
		<tag k="ssr:stedsnr" v="689592" />
	</node>
	<node id="-236301" lat="59.6423527791" lon="10.5516750035">
		<tag k="name" v="Jordbru" />
		<tag k="place" v="locality" />
		<tag k="ssr:stedsnr" v="527358" />
	</node>
	<node id="-236300" lat="59.6414750002" lon="10.5498777805">
		<tag k="name" v="Setton" />
		<tag k="place" v="locality" />
		<tag k="ssr:stedsnr" v="527353" />
	</node>
	<node id="-236299" lat="59.6105388888" lon="10.4674555625">
		<tag k="name" v="Heimtun" />
		<tag k="place" v="farm" />
		<tag k="ssr:stedsnr" v="525561" />
	</node>
	<node id="-236298" lat="59.6218111092" lon="10.4487833399">
		<tag k="name" v="Valnebbet" />
		<tag k="place" v="locality" />
		<tag k="ssr:stedsnr" v="525552" />
	</node>
	<node id="-236297" lat="59.6757638888" lon="10.5362055492">
		<tag k="alt_name" v="Ekhaugen" />
		<tag k="name" v="Eikhaugen" />
		<tag k="place" v="isolated_dwelling" />
		<tag k="ssr:stedsnr" v="524771" />
	</node>
	<node id="-236296" lat="59.6744111102" lon="10.5268583253">
		<tag k="name" v="Vang" />
		<tag k="place" v="isolated_dwelling" />
		<tag k="ssr:stedsnr" v="524770" />
	</node>
	<node id="-236295" lat="59.5677972215" lon="10.4303000036">
		<tag k="fixme" v="consider natural=beach + surface=sand" />
		<tag k="leisure" v="swimming_area" />
		<tag k="name" v="Gryta" />
		<tag k="place" v="locality" />
		<tag k="ssr:stedsnr" v="524131" />
	</node>
	<node id="-236293" lat="59.7484749968" lon="10.4906472277">
		<tag k="name" v="Torget" />
		<tag k="place" v="isolated_dwelling" />
		<tag k="ssr:stedsnr" v="513864" />
	</node>
	<node id="-236292" lat="59.7249694426" lon="10.4632416638">
		<tag k="name" v="Hotvet meieri" />
		<tag k="place" v="isolated_dwelling" />
		<tag k="ssr:stedsnr" v="512480" />
	</node>
	<node id="-236291" lat="59.7456166629" lon="10.4002833372">
		<tag k="name" v="Heggum" />
		<tag k="place" v="isolated_dwelling" />
		<tag k="ssr:stedsnr" v="512526" />
	</node>
	<node id="-236290" lat="59.6081138886" lon="10.6126916595">
		<tag k="name" v="Sagflaten" />
		<tag k="place" v="isolated_dwelling" />
		<tag k="ssr:stedsnr" v="510918" />
	</node>
	<node id="-236283" lat="59.8260305563" lon="10.3739416598">
		<tag k="name" v="Sandbekken" />
		<tag k="place" v="farm" />
		<tag k="ssr:stedsnr" v="507704" />
	</node>
	<node id="-236282" lat="59.5411817388" lon="10.4219465166">
		<tag k="fixme" v="consider place=hamlet" />
		<tag k="name" v="Holtnes" />
		<tag k="place" v="farm" />
		<tag k="ssr:stedsnr" v="488544" />
	</node>
	<node id="-236281" lat="59.5506166705" lon="10.4698916589">
		<tag k="name" v="Kana" />
		<tag k="place" v="farm" />
		<tag k="ssr:stedsnr" v="488543" />
	</node>
	<node id="-236280" lat="59.5323272548" lon="10.4745747162">
		<tag k="alt_name" v="Knatvold" />
		<tag k="fixme" v="consider place=hamlet" />
		<tag k="name" v="Knattvoll" />
		<tag k="place" v="farm" />
		<tag k="ssr:stedsnr" v="488531" />
	</node>
	<node id="-236276" lat="59.6997194468" lon="10.4828555626">
		<tag k="name" v="Kølabånn" />
		<tag k="place" v="isolated_dwelling" />
		<tag k="ssr:stedsnr" v="483761" />
	</node>
	<node id="-236271" lat="59.8419294234" lon="10.3860580657">
		<tag k="name" v="Daleløkka" />
		<tag k="place" v="farm" />
		<tag k="ssr:stedsnr" v="672767" />
	</node>
	<node id="-236265" lat="59.7965333313" lon="10.4224333263">
		<tag k="alt_name" v="Skjellestadgårdene" />
		<tag k="name" v="Skjellestad" />
		<tag k="place" v="farm" />
		<tag k="ssr:stedsnr" v="672693" />
	</node>
	<node id="-236264" lat="59.7714388892" lon="10.4185083415">
		<tag k="alt_name" v="Myren" />
		<tag k="name" v="Myra" />
		<tag k="place" v="isolated_dwelling" />
		<tag k="ssr:stedsnr" v="672662" />
	</node>
	<node id="-236262" lat="59.7665786513" lon="10.4297853659">
		<tag k="fixme" v="consider place=hamlet" />
		<tag k="name" v="Rød" />
		<tag k="place" v="farm" />
		<tag k="ssr:stedsnr" v="672602" />
	</node>
	<node id="-236259" lat="59.6516989239" lon="10.5961011838">
		<tag k="fixme" v="consider place=hamlet" />
		<tag k="name" v="Storsand" />
		<tag k="place" v="farm" />
		<tag k="ssr:stedsnr" v="671825" />
	</node>
	<node id="-236258" lat="59.8631333324" lon="10.4758500026">
		<tag k="name" v="Torstad" />
		<tag k="place" v="farm" />
		<tag k="ssr:stedsnr" v="671800" />
	</node>
	<node id="-236257" lat="59.705202777" lon="10.477072216">
		<tag k="name" v="Sagbakken" />
		<tag k="place" v="farm" />
		<tag k="ssr:stedsnr" v="671797" />
	</node>
	<node id="-236256" lat="59.6982416644" lon="10.4194583262">
		<tag k="name" v="Bølskog" />
		<tag k="place" v="farm" />
		<tag k="ssr:stedsnr" v="671759" />
	</node>
	<node id="-236255" lat="59.8029416671" lon="10.3890166705">
		<tag k="name" v="Solberg" />
		<tag k="place" v="farm" />
		<tag k="ssr:stedsnr" v="671704" />
	</node>
	<node id="-236254" lat="59.6052888845" lon="10.4693000036">
		<tag k="name" v="Kjøreholet" />
		<tag k="place" v="farm" />
		<tag k="ssr:stedsnr" v="671640" />
	</node>
	<node id="-236253" lat="59.7516407374" lon="10.4472803072">
		<tag k="alt_name" v="Åsgård" />
		<tag k="fixme" v="consider place=hamlet" />
		<tag k="name" v="Åsgard" />
		<tag k="place" v="farm" />
		<tag k="ssr:stedsnr" v="671593" />
	</node>
	<node id="-236251" lat="59.7485638916" lon="10.490319444">
		<tag k="name" v="Damstua" />
		<tag k="place" v="isolated_dwelling" />
		<tag k="ssr:stedsnr" v="670953" />
	</node>
	<node id="-236249" lat="59.7196623797" lon="10.3637549543">
		<tag k="name" v="Hyggen" />
		<tag k="place" v="hamlet" />
		<tag k="ssr:stedsnr" v="670761" />
	</node>
	<node id="-236248" lat="59.5995583304" lon="10.4864666748">
		<tag k="fixme" v="consider place=hamlet" />
		<tag k="name" v="Nygård" />
		<tag k="place" v="farm" />
		<tag k="ssr:stedsnr" v="670728" />
	</node>
	<node id="-236245" lat="59.6024083314" lon="10.5034083377">
		<tag k="name" v="Gulløkka" />
		<tag k="place" v="locality" />
		<tag k="ssr:stedsnr" v="467658" />
	</node>
	<node id="-236240" lat="59.6469777783" lon="10.5890416693">
		<tag k="name" v="Habakken" />
		<tag k="place" v="locality" />
		<tag k="ssr:stedsnr" v="466363" />
	</node>
	<node id="-236238" lat="59.674708335" lon="10.5273499997">
		<tag k="alt_name" v="Aaslund" />
		<tag k="name" v="Åslund" />
		<tag k="place" v="isolated_dwelling" />
		<tag k="ssr:stedsnr" v="464816" />
	</node>
	<node id="-236232" lat="59.6871333371" lon="10.5154111139">
		<tag k="name" v="Plassområdet" />
		<tag k="place" v="quarter" />
		<tag k="ssr:stedsnr" v="665342" />
	</node>
	<node id="-236231" lat="59.6290888844" lon="10.4665111117">
		<tag k="name" v="Øvre Inglingstad" />
		<tag k="place" v="isolated_dwelling" />
		<tag k="ssr:stedsnr" v="665605" />
	</node>
	<node id="-236230" lat="59.6227722252" lon="10.4722972266">
		<tag k="name" v="Granheim" />
		<tag k="place" v="isolated_dwelling" />
		<tag k="ssr:stedsnr" v="665600" />
	</node>
	<node id="-236228" lat="59.6550833325" lon="10.4764638887">
		<tag k="name" v="Sandungseter" />
		<tag k="place" v="isolated_dwelling" />
		<tag k="ssr:stedsnr" v="664247" />
	</node>
	<node id="-236220" lat="59.5698166661" lon="10.4619305508">
		<tag k="name" v="Torgrimsåsen" />
		<tag k="place" v="neighbourhood" />
		<tag k="ssr:stedsnr" v="662161" />
	</node>
	<node id="-236216" lat="59.7280053714" lon="10.3750010118">
		<tag k="name" v="Guttersrud" />
		<tag k="place" v="hamlet" />
		<tag k="ssr:stedsnr" v="451436" />
	</node>
	<node id="-236215" lat="59.7469919846" lon="10.3325875315">
		<tag k="fixme" v="consider place=hamlet" />
		<tag k="name" v="Spikkestad" />
		<tag k="place" v="farm" />
		<tag k="ssr:stedsnr" v="451337" />
	</node>
	<node id="-236211" lat="59.7832583348" lon="10.4327694481">
		<tag k="name" v="Åmot" />
		<tag k="place" v="farm" />
		<tag k="ssr:stedsnr" v="447709" />
	</node>
	<node id="-236210" lat="59.8051333316" lon="10.395272231">
		<tag k="name" v="Vestengen" />
		<tag k="place" v="farm" />
		<tag k="ssr:stedsnr" v="447706" />
	</node>
	<node id="-236208" lat="59.8399777746" lon="10.4246777857">
		<tag k="amenity" v="school" />
		<tag k="name" v="Solvang skole" />
		<tag k="ssr:stedsnr" v="447628" />
	</node>
	<node id="-236207" lat="59.8505833353" lon="10.4518972253">
		<tag k="name" v="Bøsebakken" />
		<tag k="place" v="farm" />
		<tag k="ssr:stedsnr" v="447623" />
	</node>
	<node id="-236205" lat="59.8523138897" lon="10.422427781">
		<tag k="name" v="Seheim" />
		<tag k="place" v="farm" />
		<tag k="ssr:stedsnr" v="447616" />
	</node>
	<node id="-236197" lat="59.797166665" lon="10.3917166612">
		<tag k="name" v="Nyfjell" />
		<tag k="place" v="farm" />
		<tag k="ssr:stedsnr" v="429718" />
	</node>
	<node id="-236194" lat="59.8663472216" lon="10.4148666637">
		<tag k="name" v="Svensrud" />
		<tag k="place" v="isolated_dwelling" />
		<tag k="ssr:stedsnr" v="428814" />
	</node>
	<node id="-236191" lat="59.5748944441" lon="10.5613333385">
		<tag k="name" v="Vang" />
		<tag k="place" v="farm" />
		<tag k="ssr:stedsnr" v="428704" />
	</node>
	<node id="-236189" lat="59.6112401653" lon="10.6030569874">
		<tag k="fixme" v="consider place=hamlet" />
		<tag k="name" v="Eltorn" />
		<tag k="place" v="farm" />
		<tag k="ssr:stedsnr" v="428612" />
	</node>
	<node id="-236188" lat="59.8369777776" lon="10.4994277795">
		<tag k="name" v="Myra" />
		<tag k="place" v="isolated_dwelling" />
		<tag k="ssr:stedsnr" v="421605" />
	</node>
	<node id="-236186" lat="59.7670111129" lon="10.4330166677">
		<tag k="name" v="Hagen" />
		<tag k="place" v="isolated_dwelling" />
		<tag k="ssr:stedsnr" v="512358" />
	</node>
	<node id="-236185" lat="59.7371222246" lon="10.4543277745">
		<tag k="name" v="Grønli" />
		<tag k="place" v="isolated_dwelling" />
		<tag k="ssr:stedsnr" v="512501" />
	</node>
	<node id="-236176" lat="59.6373611112" lon="10.4304750064">
		<tag k="name" v="Nesbyleia" />
		<tag k="place" v="isolated_dwelling" />
		<tag k="ssr:stedsnr" v="510890" />
	</node>
	<node id="-236174" lat="59.6730611069" lon="10.4305555634">
		<tag k="alt_name" v="Bukten" />
		<tag k="name" v="Bukta" />
		<tag k="place" v="isolated_dwelling" />
		<tag k="ssr:stedsnr" v="509826" />
	</node>
	<node id="-236173" lat="59.8305222265" lon="10.4192888902">
		<tag k="name" v="Vanntroa" />
		<tag k="place" v="isolated_dwelling" />
		<tag k="ssr:stedsnr" v="508686" />
	</node>
	<node id="-236172" lat="59.8374527799" lon="10.4660055577">
		<tag k="name" v="Teigen" />
		<tag k="place" v="farm" />
		<tag k="ssr:stedsnr" v="508677" />
	</node>
	<node id="-236171" lat="59.8350055589" lon="10.4494583309">
		<tag k="name" v="Jørgensløkka" />
		<tag k="place" v="farm" />
		<tag k="ssr:stedsnr" v="508673" />
	</node>
	<node id="-236168" lat="59.8791194449" lon="10.4489611183">
		<tag k="name" v="Kippåsen" />
		<tag k="place" v="farm" />
		<tag k="ssr:stedsnr" v="508647" />
	</node>
	<node id="-236155" lat="59.8074416642" lon="10.4417361163">
		<tag k="name" v="Rabakken" />
		<tag k="place" v="farm" />
		<tag k="ssr:stedsnr" v="507752" />
	</node>
	<node id="-236154" lat="59.8030055548" lon="10.4767638893">
		<tag k="alt_name" v="Bråten" />
		<tag k="name" v="Bråtan" />
		<tag k="place" v="farm" />
		<tag k="ssr:stedsnr" v="507749" />
	</node>
	<node id="-236153" lat="59.7846833292" lon="10.436122216">
		<tag k="amenity" v="school" />
		<tag k="name" v="Hovedgården skole" />
		<tag k="ssr:stedsnr" v="507748" />
	</node>
	<node id="-236152" lat="59.8005000035" lon="10.3937499981">
		<tag k="name" v="Enga" />
		<tag k="place" v="farm" />
		<tag k="ssr:stedsnr" v="507724" />
	</node>
	<node id="-236151" lat="59.802711115" lon="10.3706749933">
		<tag k="amenity" v="hospital" />
		<tag k="name" v="Dikemark sykehus" />
		<tag k="ssr:stedsnr" v="507694" />
	</node>
	<node id="-236149" lat="59.7621250028" lon="10.4844472191">
		<tag k="name" v="Torvbråten" />
		<tag k="place" v="farm" />
		<tag k="ssr:stedsnr" v="392402" />
	</node>
	<node id="-236146" lat="59.7344611123" lon="10.4613000034">
		<tag k="name" v="Nordre Mortensrud" />
		<tag k="place" v="farm" />
		<tag k="ssr:stedsnr" v="391520" />
	</node>
	<node id="-236145" lat="59.7632055517" lon="10.4970222147">
		<tag k="name" v="Nordstrand" />
		<tag k="old_name" v="Norstrand" />
		<tag k="place" v="isolated_dwelling" />
		<tag k="ssr:stedsnr" v="391352" />
	</node>
	<node id="-236143" lat="59.7621750037" lon="10.4104250071">
		<tag k="name" v="Moserud" />
		<tag k="place" v="isolated_dwelling" />
		<tag k="ssr:stedsnr" v="391405" />
	</node>
	<node id="-236142" lat="59.7053388893" lon="10.4642805628">
		<tag k="name" v="Nylende" />
		<tag k="place" v="isolated_dwelling" />
		<tag k="ssr:stedsnr" v="390892" />
	</node>
	<node id="-236135" lat="59.8255472183" lon="10.4348972157">
		<tag k="name" v="Søndre Bondi" />
		<tag k="place" v="farm" />
		<tag k="ssr:stedsnr" v="386661" />
	</node>
	<node id="-236134" lat="59.8256194416" lon="10.4465222182">
		<tag k="amenity" v="sports_centre" />
		<tag k="name" v="Askerhallen" />
		<tag k="ssr:stedsnr" v="386655" />
	</node>
	<node id="-236133" lat="59.8456611084" lon="10.4380972214">
		<tag k="name" v="Asker prestegård (Røren)" />
		<tag k="place" v="farm" />
		<tag k="ssr:stedsnr" v="386653" />
	</node>
	<node id="-236131" lat="59.8055916707" lon="10.477063882">
		<tag k="amenity" v="school" />
		<tag k="name" v="Gisle skole" />
		<tag k="ssr:stedsnr" v="386709" />
	</node>
	<node id="-236130" lat="59.8024055513" lon="10.4097472188">
		<tag k="name" v="Plassen" />
		<tag k="place" v="farm" />
		<tag k="ssr:stedsnr" v="386707" />
	</node>
	<node id="-236129" lat="59.8444833324" lon="10.3437444502">
		<tag k="name" v="Lirastua" />
		<tag k="place" v="isolated_dwelling" />
		<tag k="ssr:stedsnr" v="386703" />
	</node>
	<node id="-236122" lat="59.6277743697" lon="10.4751527284">
		<tag k="alt_name" v="Øvre Ugstad;Ugstad øvre" />
		<tag k="fixme" v="consider place=hamlet" />
		<tag k="name" v="Øvre Ustad" />
		<tag k="place" v="farm" />
		<tag k="ssr:stedsnr" v="362553" />
	</node>
	<node id="-236117" lat="59.6352916678" lon="10.4960638863">
		<tag k="name" v="Fagerli" />
		<tag k="place" v="farm" />
		<tag k="ssr:stedsnr" v="362118" />
	</node>
	<node id="-236111" lat="59.8350416704" lon="10.3837861059">
		<tag k="name" v="Høgås" />
		<tag k="place" v="farm" />
		<tag k="ssr:stedsnr" v="490773" />
	</node>
	<node id="-236108" lat="59.8073583295" lon="10.4853861194">
		<tag k="name" v="Vollen" />
		<tag k="place" v="village" />
		<tag k="ssr:stedsnr" v="490756" />
	</node>
	<node id="-236107" lat="59.826330554" lon="10.4379611038">
		<tag k="fixme" v="consider place=suburb, village or hamlet" />
		<tag k="name" v="Risenga" />
		<tag k="place" v="quarter" />
		<tag k="ssr:stedsnr" v="490743" />
	</node>
	<node id="-236106" lat="59.8191305549" lon="10.4645083291">
		<tag k="fixme" v="consider place=suburb, village or hamlet" />
		<tag k="name" v="Blakstad" />
		<tag k="place" v="quarter" />
		<tag k="ssr:stedsnr" v="490739" />
	</node>
	<node id="-236105" lat="59.7951296347" lon="10.4669371674">
		<tag k="fixme" v="consider place=hamlet" />
		<tag k="name" v="Østeren" />
		<tag k="place" v="farm" />
		<tag k="ssr:stedsnr" v="490720" />
	</node>
	<node id="-236104" lat="59.764634555" lon="10.4303851719">
		<tag k="fixme" v="consider place=hamlet" />
		<tag k="name" v="Hajum" />
		<tag k="place" v="farm" />
		<tag k="ssr:stedsnr" v="490629" />
	</node>
	<node id="-236100" lat="59.6718916659" lon="10.4369305544">
		<tag k="name" v="Selvik" />
		<tag k="place" v="farm" />
		<tag k="ssr:stedsnr" v="489852" />
	</node>
	<node id="-236099" lat="59.8788361129" lon="10.4553249961">
		<tag k="name" v="Groset" />
		<tag k="place" v="farm" />
		<tag k="ssr:stedsnr" v="489850" />
	</node>
	<node id="-236096" lat="59.871091669" lon="10.4681805587">
		<tag k="name" v="Åstad" />
		<tag k="place" v="farm" />
		<tag k="ssr:stedsnr" v="489833" />
	</node>
	<node id="-236092" lat="59.869602779" lon="10.4819250087">
		<tag k="alt_name" v="Berger" />
		<tag k="name" v="Nordre Berger" />
		<tag k="place" v="farm" />
		<tag k="ssr:stedsnr" v="489816" />
	</node>
	<node id="-236091" lat="59.8583333332" lon="10.4813194437">
		<tag k="name" v="Ravnsborg" />
		<tag k="place" v="isolated_dwelling" />
		<tag k="ssr:stedsnr" v="489814" />
	</node>
	<node id="-236090" lat="59.8548138873" lon="10.4052111176">
		<tag k="name" v="Semsvik" />
		<tag k="place" v="farm" />
		<tag k="ssr:stedsnr" v="489812" />
	</node>
	<node id="-236089" lat="59.8601833317" lon="10.4071333397">
		<tag k="name" v="Kveglund" />
		<tag k="place" v="isolated_dwelling" />
		<tag k="ssr:stedsnr" v="489805" />
	</node>
	<node id="-236086" lat="59.7506258391" lon="10.3247685194">
		<tag k="fixme" v="consider place=hamlet" />
		<tag k="name" v="Karlsrud" />
		<tag k="place" v="farm" />
		<tag k="ssr:stedsnr" v="489107" />
	</node>
	<node id="-236085" lat="59.7474119659" lon="10.4014419467">
		<tag k="fixme" v="consider place=hamlet" />
		<tag k="name" v="Heggum" />
		<tag k="place" v="farm" />
		<tag k="ssr:stedsnr" v="488993" />
	</node>
	<node id="-236084" lat="59.7458638918" lon="10.3701888891">
		<tag k="name" v="Vestre Grini" />
		<tag k="place" v="farm" />
		<tag k="ssr:stedsnr" v="488992" />
	</node>
	<node id="-236083" lat="59.7408550052" lon="10.5112689081">
		<tag k="fixme" v="consider place=hamlet" />
		<tag k="name" v="Ramton" />
		<tag k="place" v="farm" />
		<tag k="ssr:stedsnr" v="488966" />
	</node>
	<node id="-236082" lat="59.7415962641" lon="10.4255896692">
		<tag k="fixme" v="consider place=hamlet" />
		<tag k="name" v="Grette" />
		<tag k="place" v="farm" />
		<tag k="ssr:stedsnr" v="488963" />
	</node>
	<node id="-236080" lat="59.7160956717" lon="10.4862878273">
		<tag k="fixme" v="consider place=hamlet" />
		<tag k="name" v="Lingsom" />
		<tag k="place" v="farm" />
		<tag k="ssr:stedsnr" v="488795" />
	</node>
	<node id="-236079" lat="59.7168945108" lon="10.4959931836">
		<tag k="fixme" v="consider place=hamlet" />
		<tag k="name" v="Sundby" />
		<tag k="place" v="farm" />
		<tag k="ssr:stedsnr" v="488793" />
	</node>
	<node id="-236078" lat="59.7167853451" lon="10.4724171532">
		<tag k="fixme" v="consider place=hamlet" />
		<tag k="name" v="Dalebråten" />
		<tag k="place" v="farm" />
		<tag k="ssr:stedsnr" v="488790" />
	</node>
	<node id="-236075" lat="59.6316758098" lon="10.4798962486">
		<tag k="fixme" v="consider place=hamlet" />
		<tag k="name" v="Rokkestad" />
		<tag k="place" v="farm" />
		<tag k="ssr:stedsnr" v="488647" />
	</node>
	<node id="-236066" lat="59.6111111086" lon="10.5143416711">
		<tag k="name" v="Eikebakken" />
		<tag k="place" v="locality" />
		<tag k="ssr:stedsnr" v="345614" />
	</node>
	<node id="-235907" lat="59.6513222181" lon="10.5827527712">
		<tag k="name" v="Vollebråten" />
		<tag k="place" v="farm" />
		<tag k="ssr:stedsnr" v="181327" />
	</node>
	<node id="-236063" lat="59.5465194418" lon="10.5743638843">
		<tag k="name" v="Bispen" />
		<tag k="place" v="locality" />
		<tag k="ssr:stedsnr" v="484592" />
	</node>
	<node id="-236057" lat="59.6250805554" lon="10.5555749933">
		<tag k="name" v="Flomsbu" />
		<tag k="place" v="locality" />
		<tag k="ssr:stedsnr" v="483638" />
	</node>
	<node id="-236056" lat="59.6263861119" lon="10.4638750039">
		<tag k="name" v="Solbakken" />
		<tag k="place" v="farm" />
		<tag k="ssr:stedsnr" v="483583" />
	</node>
	<node id="-236055" lat="59.6248944412" lon="10.473613896">
		<tag k="name" v="Myrvold" />
		<tag k="place" v="farm" />
		<tag k="ssr:stedsnr" v="483579" />
	</node>
	<node id="-236053" lat="59.6349277781" lon="10.5004638818">
		<tag k="name" v="Østli" />
		<tag k="place" v="locality" />
		<tag k="ssr:stedsnr" v="483131" />
	</node>
	<node id="-236050" lat="59.5724722197" lon="10.4461999973">
		<tag k="name" v="Dalvik" />
		<tag k="place" v="farm" />
		<tag k="ssr:stedsnr" v="482185" />
	</node>
	<node id="-236047" lat="59.7164694481" lon="10.4464249943">
		<tag k="name" v="Flaterveien" />
		<tag k="place" v="farm" />
		<tag k="ssr:stedsnr" v="330937" />
	</node>
	<node id="-236045" lat="59.7162861134" lon="10.3794916664">
		<tag k="name" v="Østre Åsbryn" />
		<tag k="place" v="farm" />
		<tag k="ssr:stedsnr" v="329749" />
	</node>
	<node id="-236043" lat="59.7427611069" lon="10.3612583417">
		<tag k="name" v="Holmen" />
		<tag k="place" v="isolated_dwelling" />
		<tag k="ssr:stedsnr" v="329403" />
	</node>
	<node id="-236042" lat="59.7581277809" lon="10.3482277772">
		<tag k="name" v="Kjos" />
		<tag k="place" v="farm" />
		<tag k="ssr:stedsnr" v="329312" />
	</node>
	<node id="-236041" lat="59.5847750029" lon="10.6108305531">
		<tag k="name" v="Hauge" />
		<tag k="place" v="farm" />
		<tag k="ssr:stedsnr" v="328919" />
	</node>
	<node id="-236039" lat="59.6651583338" lon="10.5724694465">
		<tag k="name" v="Skjærlaget" />
		<tag k="place" v="farm" />
		<tag k="ssr:stedsnr" v="328005" />
	</node>
	<node id="-235906" lat="59.647725" lon="10.5734277697">
		<tag k="name" v="Myrvold" />
		<tag k="place" v="isolated_dwelling" />
		<tag k="ssr:stedsnr" v="181324" />
	</node>
	<node id="-236034" lat="59.8177527805" lon="10.476280563">
		<tag k="name" v="Vadhus" />
		<tag k="place" v="locality" />
		<tag k="ssr:stedsnr" v="326602" />
	</node>
	<node id="-236027" lat="59.8681194455" lon="10.4671805624">
		<tag k="name" v="Solhaug" />
		<tag k="place" v="farm" />
		<tag k="ssr:stedsnr" v="307805" />
	</node>
	<node id="-236011" lat="59.5554083328" lon="10.4205388811">
		<tag k="name" v="Strømhella" />
		<tag k="place" v="hamlet" />
		<tag k="ssr:stedsnr" v="466147" />
	</node>
	<node id="-236010" lat="59.5712833343" lon="10.5666166696">
		<tag k="alt_name" v="Røedsgrinda" />
		<tag k="name" v="Rødsgrinda" />
		<tag k="place" v="isolated_dwelling" />
		<tag k="ssr:stedsnr" v="465673" />
	</node>
	<node id="-236005" lat="59.5656888861" lon="10.4559444431">
		<tag k="name" v="Ekli" />
		<tag k="place" v="farm" />
		<tag k="ssr:stedsnr" v="464196" />
	</node>
	<node id="-236004" lat="59.5553166658" lon="10.4585055588">
		<tag k="name" v="Fretheim" />
		<tag k="place" v="farm" />
		<tag k="ssr:stedsnr" v="464190" />
	</node>
	<node id="-237990" lat="59.5386071458" lon="10.5501098931">
		<tag k="alt_name" v="JUSSEBO" />
		<tag k="name" v="Lasselunden" />
		<tag k="place" v="farm" />
		<tag k="ssr:stedsnr" v="1073546" />
	</node>
	<node id="-237989" lat="59.6887557078" lon="10.5314576992">
		<tag k="fixme" v="consider place=hamlet" />
		<tag k="name" v="Torvøya" />
		<tag k="place" v="farm" />
		<tag k="ssr:stedsnr" v="1072732" />
	</node>
	<node id="-235996" lat="59.5583638921" lon="10.4221499944">
		<tag k="name" v="Sørstranda" />
		<tag k="place" v="hamlet" />
		<tag k="ssr:stedsnr" v="463129" />
	</node>
	<node id="-237828" lat="59.5598361081" lon="10.44903334">
		<tag k="name" v="Ekelund" />
		<tag k="place" v="farm" />
		<tag k="ssr:stedsnr" v="817095" />
	</node>
	<node id="-235992" lat="59.7644194482" lon="10.4377916634">
		<tag k="building" v="industrial" />
		<tag k="name" v="Grodalen mølle" />
		<tag k="ssr:stedsnr" v="270369" />
	</node>
	<node id="-237988" lat="59.7332761646" lon="10.4754405554">
		<tag k="fixme" v="consider place=hamlet" />
		<tag k="name" v="Gislerud" />
		<tag k="place" v="farm" />
		<tag k="ssr:stedsnr" v="1072731" />
	</node>
	<node id="-235989" lat="59.7083805537" lon="10.5133611029">
		<tag k="name" v="Store Åros" />
		<tag k="place" v="farm" />
		<tag k="ssr:stedsnr" v="269960" />
	</node>
	<node id="-235988" lat="59.7241972179" lon="10.4454194471">
		<tag k="name" v="Gullhaug" />
		<tag k="place" v="farm" />
		<tag k="ssr:stedsnr" v="269926" />
	</node>
	<node id="-235982" lat="59.7981055519" lon="10.4450888896">
		<tag k="fixme" v="consider place=suburb, village or hamlet" />
		<tag k="name" v="Trollstein" />
		<tag k="place" v="quarter" />
		<tag k="ssr:stedsnr" v="264743" />
	</node>
	<node id="-235981" lat="59.7859138882" lon="10.4488805561">
		<tag k="name" v="Nyhus" />
		<tag k="place" v="farm" />
		<tag k="ssr:stedsnr" v="264738" />
	</node>
	<node id="-235978" lat="59.8070416654" lon="10.4443583348">
		<tag k="name" v="Eidbråten" />
		<tag k="place" v="farm" />
		<tag k="ssr:stedsnr" v="264713" />
	</node>
	<node id="-235977" lat="59.8073000041" lon="10.4388694452">
		<tag k="name" v="Kodalen" />
		<tag k="place" v="farm" />
		<tag k="ssr:stedsnr" v="264711" />
	</node>
	<node id="-235970" lat="59.7411833335" lon="10.4351444364">
		<tag k="name" v="Ølstad" />
		<tag k="place" v="farm" />
		<tag k="ssr:stedsnr" v="452512" />
	</node>
	<node id="-235969" lat="59.766349996" lon="10.4222749954">
		<tag k="name" v="Tronstad" />
		<tag k="place" v="farm" />
		<tag k="ssr:stedsnr" v="452387" />
	</node>
	<node id="-235956" lat="59.7497472219" lon="10.5126388901">
		<tag k="name" v="Nybråten" />
		<tag k="place" v="farm" />
		<tag k="ssr:stedsnr" v="449640" />
	</node>
	<node id="-235953" lat="59.527740192" lon="10.4458679658">
		<tag k="fixme" v="consider place=hamlet" />
		<tag k="name" v="Skjøttelvik" />
		<tag k="old_name" v="Schjøttelvik" />
		<tag k="place" v="farm" />
		<tag k="ssr:stedsnr" v="245506" />
	</node>
	<node id="-235952" lat="59.8008027783" lon="10.4160333413">
		<tag k="alt_name" v="Bråtan, øvre" />
		<tag k="name" v="Øvre Bråtan" />
		<tag k="place" v="farm" />
		<tag k="ssr:stedsnr" v="447694" />
	</node>
	<node id="-235947" lat="59.8316638896" lon="10.411844437">
		<tag k="name" v="Solbrå" />
		<tag k="place" v="locality" />
		<tag k="ssr:stedsnr" v="447657" />
	</node>
	<node id="-235946" lat="59.8305111122" lon="10.4217333359">
		<tag k="amenity" v="school" />
		<tag k="name" v="Hagaløkka skole" />
		<tag k="ssr:stedsnr" v="447656" />
	</node>
	<node id="-235944" lat="59.8296083346" lon="10.512652779">
		<tag k="name" v="Nordskog" />
		<tag k="place" v="farm" />
		<tag k="ssr:stedsnr" v="447501" />
	</node>
	<node id="-235942" lat="59.8601527753" lon="10.4564416599">
		<tag k="amenity" v="hospital" />
		<tag k="name" v="Sanatoriet" />
		<tag k="ssr:stedsnr" v="447477" />
	</node>
	<node id="-235941" lat="59.8552250026" lon="10.4354083359">
		<tag k="name" v="Grana" />
		<tag k="place" v="farm" />
		<tag k="ssr:stedsnr" v="447469" />
	</node>
	<node id="-235940" lat="59.8569694459" lon="10.4408555523">
		<tag k="name" v="Holtet" />
		<tag k="place" v="farm" />
		<tag k="ssr:stedsnr" v="447468" />
	</node>
	<node id="-237987" lat="59.727989682" lon="10.4791308374">
		<tag k="fixme" v="consider place=hamlet" />
		<tag k="name" v="Ski" />
		<tag k="place" v="farm" />
		<tag k="ssr:stedsnr" v="1072730" />
	</node>
	<node id="-237986" lat="59.7320915435" lon="10.4621978997">
		<tag k="fixme" v="consider place=hamlet" />
		<tag k="name" v="Mortensrud" />
		<tag k="place" v="farm" />
		<tag k="ssr:stedsnr" v="1072729" />
	</node>
	<node id="-237985" lat="59.7463505264" lon="10.3714890759">
		<tag k="name" v="Grini" />
		<tag k="place" v="hamlet" />
		<tag k="ssr:stedsnr" v="1072728" />
	</node>
	<node id="-235934" lat="59.7411583355" lon="10.4220972275">
		<tag k="fixme" v="consider place=hamlet" />
		<tag k="name" v="Midtbygda" />
		<tag k="place" v="village" />
		<tag k="ssr:stedsnr" v="445989" />
	</node>
	<node id="-235929" lat="59.599649998" lon="10.4965527747">
		<tag k="name" v="Tuterløkka" />
		<tag k="place" v="locality" />
		<tag k="ssr:stedsnr" v="224600" />
	</node>
	<node id="-235926" lat="59.734705557" lon="10.4486055509">
		<tag k="name" v="Ølstad" />
		<tag k="place" v="farm" />
		<tag k="ssr:stedsnr" v="209429" />
	</node>
	<node id="-237972" lat="59.7959100868" lon="10.4771776333">
		<tag k="name" v="Åsaker" />
		<tag k="place" v="farm" />
		<tag k="ssr:stedsnr" v="988667" />
	</node>
	<node id="-235923" lat="59.8426361152" lon="10.4793500031">
		<tag k="name" v="Haga" />
		<tag k="place" v="farm" />
		<tag k="ssr:stedsnr" v="186802" />
	</node>
	<node id="-237970" lat="59.7778706884" lon="10.4862569876">
		<tag k="building" v="commercial" />
		<tag k="name" v="Rortunet kjøpesenter" />
		<tag k="ssr:stedsnr" v="987314" />
	</node>
	<node id="-237963" lat="59.6963188428" lon="10.4767089486">
		<tag k="name" v="Follestad næringspark" />
		<tag k="place" v="quarter" />
		<tag k="ssr:stedsnr" v="981749" />
	</node>
	<node id="-235913" lat="59.5849166647" lon="10.5838638919">
		<tag k="alt_name" v="Eik østre" />
		<tag k="name" v="Østre Eik" />
		<tag k="place" v="farm" />
		<tag k="ssr:stedsnr" v="285620" />
	</node>
	<node id="-235912" lat="59.5835138851" lon="10.4375194461">
		<tag k="alt_name" v="Knivsvik nordre" />
		<tag k="name" v="Nordre Knivsvik" />
		<tag k="place" v="farm" />
		<tag k="ssr:stedsnr" v="285481" />
	</node>
	<node id="-237959" lat="59.8453131943" lon="10.4130816041">
		<tag k="fixme" v="consider place=hamlet" />
		<tag k="name" v="Vestre Haneval" />
		<tag k="place" v="farm" />
		<tag k="ssr:stedsnr" v="981050" />
	</node>
	<node id="-235910" lat="59.6677194419" lon="10.5962555468">
		<tag k="name" v="Nesset" />
		<tag k="place" v="isolated_dwelling" />
		<tag k="ssr:stedsnr" v="285329" />
	</node>
	<node id="-237955" lat="59.8709133427" lon="10.390595192">
		<tag k="fixme" v="consider tourism=alpine_hut or tourism=chalet" />
		<tag k="name" v="Halvorsenhytta" />
		<tag k="ssr:stedsnr" v="977709" />
		<tag k="tourism" v="wilderness_hut" />
	</node>
	<node id="-237954" lat="59.7371121485" lon="10.3579435356">
		<tag k="fixme" v="consider place=hamlet" />
		<tag k="name" v="Åsåker" />
		<tag k="place" v="farm" />
		<tag k="ssr:stedsnr" v="977439" />
	</node>
	<node id="-237952" lat="59.8612260043" lon="10.4876982212">
		<tag k="amenity" v="nursing_home" />
		<tag k="name" v="Nesbru bo- og omsorgssenter" />
		<tag k="ssr:stedsnr" v="975425" />
	</node>
	<node id="-237950" lat="59.6694467749" lon="10.5694673641">
		<tag k="name" v="Wærpen" />
		<tag k="place" v="farm" />
		<tag k="ssr:stedsnr" v="973259" />
	</node>
	<node id="-235901" lat="59.5486222254" lon="10.443180563">
		<tag k="name" v="Lovdal" />
		<tag k="place" v="farm" />
		<tag k="ssr:stedsnr" v="180105" />
	</node>
	<node id="-237948" lat="59.8253730792" lon="10.4260231051">
		<tag k="name" v="Vardeborg" />
		<tag k="place" v="farm" />
		<tag k="ssr:stedsnr" v="972337" />
	</node>
	<node id="-235897" lat="59.5498194411" lon="10.4902527803">
		<tag k="name" v="Harstad" />
		<tag k="place" v="farm" />
		<tag k="ssr:stedsnr" v="284149" />
	</node>
	<node id="-235895" lat="59.5728805589" lon="10.5599472139">
		<tag k="name" v="Solbakken" />
		<tag k="place" v="farm" />
		<tag k="ssr:stedsnr" v="283660" />
	</node>
	<node id="-235890" lat="59.614438886" lon="10.4680333367">
		<tag k="name" v="Høyden" />
		<tag k="place" v="isolated_dwelling" />
		<tag k="ssr:stedsnr" v="283503" />
	</node>
	<node id="-235885" lat="59.8458999986" lon="10.357633332">
		<tag k="fixme" v="consider tourism=alpine_hut or tourism=chalet" />
		<tag k="name" v="Hovdehytta" />
		<tag k="ssr:stedsnr" v="283152" />
		<tag k="tourism" v="wilderness_hut" />
	</node>
	<node id="-235883" lat="59.5701444447" lon="10.6123972228">
		<tag k="name" v="Birkelund" />
		<tag k="place" v="isolated_dwelling" />
		<tag k="ssr:stedsnr" v="282653" />
	</node>
	<node id="-235882" lat="59.5593277809" lon="10.4587666597">
		<tag k="name" v="Berg" />
		<tag k="place" v="farm" />
		<tag k="ssr:stedsnr" v="282170" />
	</node>
	<node id="-237810" lat="59.8381694455" lon="10.3592083247">
		<tag k="name" v="Myra" />
		<tag k="place" v="farm" />
		<tag k="ssr:stedsnr" v="811690" />
	</node>
	<node id="-237917" lat="59.5898027776" lon="10.4810583402">
		<tag k="alt_name" v="Rødby søndre" />
		<tag k="name" v="Søndre Rødby" />
		<tag k="place" v="farm" />
		<tag k="ssr:stedsnr" v="952496" />
	</node>
	<node id="-237915" lat="59.6504888918" lon="10.6024444415">
		<tag k="name" v="Sjølyst" />
		<tag k="place" v="isolated_dwelling" />
		<tag k="ssr:stedsnr" v="952343" />
	</node>
	<node id="-235866" lat="59.7299416626" lon="10.4773527736">
		<tag k="name" v="Nordre Ski" />
		<tag k="place" v="farm" />
		<tag k="ssr:stedsnr" v="148515" />
	</node>
	<node id="-235865" lat="59.7255638912" lon="10.4554333301">
		<tag k="building" v="industrial" />
		<tag k="name" v="Vearsaga" />
		<tag k="ssr:stedsnr" v="148506" />
	</node>
	<node id="-237912" lat="59.6086166664" lon="10.4667861126">
		<tag k="name" v="Nordland" />
		<tag k="place" v="farm" />
		<tag k="ssr:stedsnr" v="950541" />
	</node>
	<node id="-235863" lat="59.6984888884" lon="10.3914305624">
		<tag k="name" v="Sand" />
		<tag k="place" v="isolated_dwelling" />
		<tag k="ssr:stedsnr" v="147773" />
	</node>
	<node id="-235862" lat="59.6976194437" lon="10.3922916625">
		<tag k="name" v="Høybakk" />
		<tag k="place" v="isolated_dwelling" />
		<tag k="ssr:stedsnr" v="147772" />
	</node>
	<node id="-235861" lat="59.6936388847" lon="10.4161083381">
		<tag k="name" v="Jerdal" />
		<tag k="place" v="farm" />
		<tag k="ssr:stedsnr" v="147765" />
	</node>
	<node id="-237908" lat="59.8777638869" lon="10.4508222296">
		<tag k="name" v="Eikestuen" />
		<tag k="place" v="isolated_dwelling" />
		<tag k="ssr:stedsnr" v="872649" />
	</node>
	<node id="-235856" lat="59.7796000005" lon="10.4999194456">
		<tag k="name" v="Odden" />
		<tag k="place" v="farm" />
		<tag k="ssr:stedsnr" v="270819" />
	</node>
	<node id="-235855" lat="59.7452138891" lon="10.3931361177">
		<tag k="name" v="Løken" />
		<tag k="place" v="isolated_dwelling" />
		<tag k="ssr:stedsnr" v="270524" />
	</node>
	<node id="-235854" lat="59.7507361155" lon="10.4362722168">
		<tag k="name" v="Nordre Bryn" />
		<tag k="place" v="farm" />
		<tag k="ssr:stedsnr" v="270376" />
	</node>
	<node id="-237900" lat="59.8103166706" lon="10.4796305643">
		<tag k="name" v="Høybakk" />
		<tag k="place" v="farm" />
		<tag k="ssr:stedsnr" v="871695" />
	</node>
	<node id="-235850" lat="59.7272999977" lon="10.3260694403">
		<tag k="amenity" v="nursing_home" />
		<tag k="name" v="Brøholt sykehjem" />
		<tag k="ssr:stedsnr" v="269438" />
	</node>
	<node id="-237896" lat="59.8386722144" lon="10.4142654971">
		<tag k="alt_name" v="Hagan;Limovnhagen" />
		<tag k="name" v="Hagen" />
		<tag k="place" v="locality" />
		<tag k="ssr:stedsnr" v="854745" />
	</node>
	<node id="-237894" lat="59.8029249963" lon="10.4946000064">
		<tag k="name" v="Håkavik" />
		<tag k="place" v="village" />
		<tag k="ssr:stedsnr" v="854686" />
	</node>
	<node id="-235845" lat="59.6191000013" lon="10.4340583325">
		<tag k="name" v="Dramstad" />
		<tag k="place" v="farm" />
		<tag k="ssr:stedsnr" v="267743" />
	</node>
	<node id="-237892" lat="59.7387415311" lon="10.4387337626">
		<tag k="name" v="Ølstad" />
		<tag k="place" v="hamlet" />
		<tag k="ssr:stedsnr" v="853968" />
	</node>
	<node id="-237891" lat="59.7280778268" lon="10.5106842253">
		<tag k="fixme" v="consider place=hamlet" />
		<tag k="name" v="Høvik" />
		<tag k="place" v="farm" />
		<tag k="ssr:stedsnr" v="853964" />
	</node>
	<node id="-235842" lat="59.8279083349" lon="10.443222221">
		<tag k="name" v="Leikvoll" />
		<tag k="place" v="farm" />
		<tag k="ssr:stedsnr" v="265707" />
	</node>
	<node id="-235841" lat="59.8485722225" lon="10.4470638815">
		<tag k="amenity" v="nursing_home" />
		<tag k="name" v="Solgården" />
		<tag k="ssr:stedsnr" v="265699" />
	</node>
	<node id="-237888" lat="59.7060999995" lon="10.5109166745">
		<tag k="name" v="Åros" />
		<tag k="place" v="village" />
		<tag k="ssr:stedsnr" v="853796" />
	</node>
	<node id="-235839" lat="59.8356361129" lon="10.3958472306">
		<tag k="name" v="Øvre Hogstad" />
		<tag k="place" v="farm" />
		<tag k="ssr:stedsnr" v="265686" />
	</node>
	<node id="-237884" lat="59.5674767874" lon="10.4757478543">
		<tag k="alt_name" v="Torstvedt" />
		<tag k="fixme" v="consider place=hamlet" />
		<tag k="name" v="Torstvet" />
		<tag k="place" v="farm" />
		<tag k="ssr:stedsnr" v="853694" />
	</node>
	<node id="-237883" lat="59.5477611078" lon="10.4585861142">
		<tag k="alt_name" v="Myrene;Myhrene" />
		<tag k="name" v="Myrane" />
		<tag k="place" v="farm" />
		<tag k="ssr:stedsnr" v="853526" />
	</node>
	<node id="-235834" lat="59.8146000002" lon="10.4759111191">
		<tag k="name" v="Nordre Østenstad" />
		<tag k="place" v="farm" />
		<tag k="ssr:stedsnr" v="265604" />
	</node>
	<node id="-237881" lat="59.619183334" lon="10.5836138937">
		<tag k="name" v="Elgtorn" />
		<tag k="place" v="locality" />
		<tag k="ssr:stedsnr" v="848628" />
	</node>
	<node id="-237880" lat="59.6287917889" lon="10.4724382752">
		<tag k="alt_name" v="Vestre Ugstad" />
		<tag k="name" v="Vestre Ustad" />
		<tag k="old_name" v="Ugstad vestre" />
		<tag k="place" v="locality" />
		<tag k="ssr:stedsnr" v="848565" />
	</node>
	<node id="-237879" lat="59.6271666665" lon="10.4751333413">
		<tag k="name" v="Høiden" />
		<tag k="place" v="farm" />
		<tag k="ssr:stedsnr" v="848564" />
	</node>
	<node id="-235830" lat="59.8663944451" lon="10.4923944455">
		<tag k="name" v="Mellom-Nes" />
		<tag k="place" v="farm" />
		<tag k="ssr:stedsnr" v="265567" />
	</node>
	<node id="-235829" lat="59.8663305524" lon="10.4970361022">
		<tag k="amenity" v="school" />
		<tag k="name" v="Mellom-Nes skole" />
		<tag k="ssr:stedsnr" v="265566" />
	</node>
	<node id="-237873" lat="59.6449222203" lon="10.4413861133">
		<tag k="alt_name" v="Selvig nordre" />
		<tag k="name" v="Nordre Selvig" />
		<tag k="place" v="farm" />
		<tag k="ssr:stedsnr" v="847298" />
	</node>
	<node id="-237867" lat="59.6273611124" lon="10.4970055504">
		<tag k="name" v="Sørli" />
		<tag k="place" v="locality" />
		<tag k="ssr:stedsnr" v="844562" />
	</node>
	<node id="-235818" lat="59.86011389" lon="10.4992749996">
		<tag k="amenity" v="school" />
		<tag k="name" v="Landøya skole" />
		<tag k="ssr:stedsnr" v="265509" />
	</node>
	<node id="-235815" lat="59.7508527807" lon="10.4408416651">
		<tag k="alt_name" v="Holmen" />
		<tag k="name" v="Brynsholmen" />
		<tag k="place" v="farm" />
		<tag k="ssr:stedsnr" v="125607" />
	</node>
	<node id="-235814" lat="59.6403527804" lon="10.5821277698">
		<tag k="name" v="Løvheim" />
		<tag k="place" v="farm" />
		<tag k="ssr:stedsnr" v="120332" />
	</node>
	<node id="-235813" lat="59.6503222207" lon="10.588152785">
		<tag k="name" v="Sundbyløkka" />
		<tag k="place" v="farm" />
		<tag k="ssr:stedsnr" v="120330" />
	</node>
	<node id="-237958" lat="59.8438324822" lon="10.4168066844">
		<tag k="fixme" v="consider place=hamlet" />
		<tag k="name" v="Østre Haneval" />
		<tag k="place" v="farm" />
		<tag k="ssr:stedsnr" v="981046" />
	</node>
	<node id="-237857" lat="59.5808666622" lon="10.5807333354">
		<tag k="alt_name" v="Aasli" />
		<tag k="name" v="Åsli" />
		<tag k="place" v="farm" />
		<tag k="ssr:stedsnr" v="831605" />
	</node>
	<node id="-235807" lat="59.7758361149" lon="10.4066694389">
		<tag k="name" v="Øvre Hallenskog" />
		<tag k="place" v="hamlet" />
		<tag k="ssr:stedsnr" v="88539" />
	</node>
	<node id="-235806" lat="59.5374722228" lon="10.5436833421">
		<tag k="name" v="Striglesand" />
		<tag k="place" v="quarter" />
		<tag k="ssr:stedsnr" v="86858" />
	</node>
	<node id="-235803" lat="59.8278055589" lon="10.3984888858">
		<tag k="name" v="Brendsvoll" />
		<tag k="place" v="farm" />
		<tag k="ssr:stedsnr" v="84305" />
	</node>
	<node id="-235802" lat="59.8269361125" lon="10.4248305561">
		<tag k="amenity" v="nursing_home" />
		<tag k="name" v="Søndre Borgen sykehjem" />
		<tag k="ssr:stedsnr" v="83675" />
	</node>
	<node id="-235801" lat="59.8179333377" lon="10.4286722216">
		<tag k="amenity" v="school" />
		<tag k="name" v="Rønningen skole" />
		<tag k="ssr:stedsnr" v="83672" />
	</node>
	<node id="-235800" lat="59.8327027798" lon="10.4474083415">
		<tag k="name" v="Bondibråten" />
		<tag k="place" v="village" />
		<tag k="ssr:stedsnr" v="83661" />
	</node>
	<node id="-235799" lat="59.864530556" lon="10.3361111101">
		<tag k="name" v="Myggheim" />
		<tag k="place" v="isolated_dwelling" />
		<tag k="ssr:stedsnr" v="83728" />
	</node>
	<node id="-237845" lat="59.6199796607" lon="10.4504184945">
		<tag k="alt_name" v="Bråten" />
		<tag k="name" v="Bråtan" />
		<tag k="place" v="farm" />
		<tag k="ssr:stedsnr" v="829557" />
	</node>
	<node id="-235794" lat="59.8239527818" lon="10.4396194371">
		<tag k="amenity" v="school" />
		<tag k="name" v="Bondi skole" />
		<tag k="ssr:stedsnr" v="83553" />
	</node>
	<node id="-235793" lat="59.816033336" lon="10.4309916691">
		<tag k="name" v="Kullebunn" />
		<tag k="place" v="quarter" />
		<tag k="ssr:stedsnr" v="83552" />
	</node>
	<node id="-237839" lat="59.5722305557" lon="10.4306305593">
		<tag k="name" v="Postmyr" />
		<tag k="place" v="isolated_dwelling" />
		<tag k="ssr:stedsnr" v="827167" />
	</node>
	<node id="-235790" lat="59.8610138855" lon="10.5180277769">
		<tag k="name" v="Sververen" />
		<tag k="place" v="village" />
		<tag k="ssr:stedsnr" v="247800" />
	</node>
	<node id="-237613" lat="59.8275250031" lon="10.4270722232">
		<tag k="alt_name" v="Borgen søndre" />
		<tag k="name" v="Søndre Borgen" />
		<tag k="place" v="isolated_dwelling" />
		<tag k="ssr:stedsnr" v="629664" />
	</node>
	<node id="-235788" lat="59.8574305558" lon="10.5336972253">
		<tag k="name" v="Vendelsund" />
		<tag k="place" v="farm" />
		<tag k="ssr:stedsnr" v="247788" />
	</node>
	<node id="-235787" lat="59.8461527795" lon="10.4772944452">
		<tag k="name" v="Reistad" />
		<tag k="place" v="farm" />
		<tag k="ssr:stedsnr" v="247776" />
	</node>
	<node id="-237834" lat="59.5758916649" lon="10.5808722291">
		<tag k="name" v="Fagerheim" />
		<tag k="place" v="isolated_dwelling" />
		<tag k="ssr:stedsnr" v="875912" />
	</node>
	<node id="-235785" lat="59.8450706986" lon="10.4151907322">
		<tag k="alt_name" v="Hanevollgårdene" />
		<tag k="name" v="Haneval" />
		<tag k="place" v="hamlet" />
		<tag k="ssr:stedsnr" v="247771" />
	</node>
	<node id="-235784" lat="59.8431611081" lon="10.4853749912">
		<tag k="name" v="Hval" />
		<tag k="place" v="farm" />
		<tag k="ssr:stedsnr" v="247762" />
	</node>
	<node id="-235783" lat="59.8394388879" lon="10.4369333333">
		<tag k="alt_name" v="Askergårdene" />
		<tag k="name" v="Asker" />
		<tag k="place" v="farm" />
		<tag k="ssr:stedsnr" v="247753" />
	</node>
	<node id="-237830" lat="59.7511027813" lon="10.4566888968">
		<tag k="name" v="Grav" />
		<tag k="place" v="farm" />
		<tag k="ssr:stedsnr" v="817377" />
	</node>
	<node id="-235781" lat="59.8224000034" lon="10.4269055508">
		<tag k="name" v="Rønningen" />
		<tag k="place" v="farm" />
		<tag k="ssr:stedsnr" v="247724" />
	</node>
	<node id="-235780" lat="59.8292500035" lon="10.4525499979">
		<tag k="alt_name" v="Bleiker, øvre" />
		<tag k="name" v="Øvre Bleiker" />
		<tag k="place" v="farm" />
		<tag k="ssr:stedsnr" v="247715" />
	</node>
	<node id="-235779" lat="59.8068500022" lon="10.4096444515">
		<tag k="alt_name" v="Haugergårdene" />
		<tag k="name" v="Hauger" />
		<tag k="place" v="farm" />
		<tag k="ssr:stedsnr" v="247685" />
	</node>
	<node id="-235777" lat="59.7744416644" lon="10.4147249921">
		<tag k="name" v="Hallen" />
		<tag k="place" v="isolated_dwelling" />
		<tag k="ssr:stedsnr" v="247660" />
	</node>
	<node id="-235776" lat="59.7571381995" lon="10.4291422266">
		<tag k="fixme" v="consider place=hamlet" />
		<tag k="name" v="Skryset" />
		<tag k="place" v="farm" />
		<tag k="ssr:stedsnr" v="247626" />
	</node>
	<node id="-235774" lat="59.7636896946" lon="10.4443462951">
		<tag k="fixme" v="consider place=hamlet" />
		<tag k="name" v="Fossum" />
		<tag k="place" v="farm" />
		<tag k="ssr:stedsnr" v="247608" />
	</node>
	<node id="-237821" lat="59.7173972259" lon="10.3768583304">
		<tag k="name" v="Bakken" />
		<tag k="place" v="isolated_dwelling" />
		<tag k="ssr:stedsnr" v="815791" />
	</node>
	<node id="-235772" lat="59.7503969625" lon="10.4653909484">
		<tag k="fixme" v="consider place=hamlet" />
		<tag k="name" v="Auke" />
		<tag k="place" v="farm" />
		<tag k="ssr:stedsnr" v="247574" />
	</node>
	<node id="-235770" lat="59.7370583342" lon="10.4019472236">
		<tag k="alt_name" v="Enga" />
		<tag k="name" v="Engen" />
		<tag k="place" v="farm" />
		<tag k="ssr:stedsnr" v="246933" />
	</node>
	<node id="-235769" lat="59.7422416624" lon="10.4078916588">
		<tag k="name" v="England" />
		<tag k="place" v="farm" />
		<tag k="ssr:stedsnr" v="246932" />
	</node>
	<node id="-237812" lat="59.8045277764" lon="10.3928555492">
		<tag k="amenity" v="school" />
		<tag k="name" v="Solberg skole" />
		<tag k="ssr:stedsnr" v="811694" />
	</node>
	<node id="-235763" lat="59.8662750035" lon="10.4100749925">
		<tag k="name" v="Mobråtan" />
		<tag k="place" v="isolated_dwelling" />
		<tag k="ssr:stedsnr" v="246786" />
	</node>
	<node id="-235762" lat="59.7104837526" lon="10.4873633058">
		<tag k="fixme" v="consider place=hamlet" />
		<tag k="name" v="Follestad" />
		<tag k="place" v="farm" />
		<tag k="ssr:stedsnr" v="246766" />
	</node>
	<node id="-235761" lat="59.6892480618" lon="10.5189574917">
		<tag k="fixme" v="consider place=hamlet" />
		<tag k="name" v="Beston" />
		<tag k="place" v="farm" />
		<tag k="ssr:stedsnr" v="246728" />
	</node>
	<node id="-237807" lat="59.8326305525" lon="10.4230861098">
		<tag k="name" v="Oreholt" />
		<tag k="place" v="isolated_dwelling" />
		<tag k="ssr:stedsnr" v="811641" />
	</node>
	<node id="-237806" lat="59.8508500042" lon="10.4334305596">
		<tag k="name" v="Sagvollen" />
		<tag k="place" v="locality" />
		<tag k="ssr:stedsnr" v="811633" />
	</node>
	<node id="-237949" lat="59.6498284366" lon="10.5973155696">
		<tag k="name" v="Søndre Storsand" />
		<tag k="place" v="farm" />
		<tag k="ssr:stedsnr" v="973012" />
	</node>
	<node id="-235756" lat="59.6240749985" lon="10.5657027696">
		<tag k="name" v="Kjellsbu" />
		<tag k="place" v="isolated_dwelling" />
		<tag k="ssr:stedsnr" v="246631" />
	</node>
	<node id="-235755" lat="59.6118083343" lon="10.531725002">
		<tag k="name" v="Torsteinseter" />
		<tag k="place" v="locality" />
		<tag k="ssr:stedsnr" v="246617" />
	</node>
	<node id="-235754" lat="59.601531307" lon="10.4701345607">
		<tag k="fixme" v="consider place=hamlet" />
		<tag k="name" v="Pælen" />
		<tag k="place" v="farm" />
		<tag k="ssr:stedsnr" v="246601" />
	</node>
	<node id="-237801" lat="59.8483972222" lon="10.4929277806">
		<tag k="fixme" v="consider place=suburb, village or hamlet" />
		<tag k="name" v="Hvalsbakken" />
		<tag k="place" v="quarter" />
		<tag k="ssr:stedsnr" v="811517" />
	</node>
	<node id="-237800" lat="59.8360638868" lon="10.5026805525">
		<tag k="name" v="Ovnsbråten" />
		<tag k="place" v="quarter" />
		<tag k="ssr:stedsnr" v="811512" />
	</node>
	<node id="-235751" lat="59.7453694425" lon="10.4133916591">
		<tag k="amenity" v="school" />
		<tag k="name" v="Midtbygda skole" />
		<tag k="ssr:stedsnr" v="245936" />
	</node>
	<node id="-235749" lat="59.8144055556" lon="10.4331083376">
		<tag k="name" v="Borgen" />
		<tag k="place" v="isolated_dwelling" />
		<tag k="ssr:stedsnr" v="66733" />
	</node>
	<node id="-235748" lat="59.7684298931" lon="10.4935874584">
		<tag k="fixme" v="consider place=hamlet" />
		<tag k="name" v="Morberg" />
		<tag k="place" v="farm" />
		<tag k="ssr:stedsnr" v="65618" />
	</node>
	<node id="-235747" lat="59.7916500002" lon="10.459983325">
		<tag k="name" v="Gjellum" />
		<tag k="place" v="farm" />
		<tag k="ssr:stedsnr" v="65711" />
	</node>
	<node id="-235742" lat="59.8702027746" lon="10.5289138806">
		<tag k="name" v="Nesøya" />
		<tag k="place" v="farm" />
		<tag k="ssr:stedsnr" v="64837" />
	</node>
	<node id="-235741" lat="59.7107409448" lon="10.4952961274">
		<tag k="fixme" v="consider place=hamlet" />
		<tag k="name" v="Frøtvet" />
		<tag k="place" v="farm" />
		<tag k="ssr:stedsnr" v="64810" />
	</node>
	<node id="-235740" lat="59.7192286336" lon="10.4576354403">
		<tag k="fixme" v="consider place=hamlet" />
		<tag k="name" v="Lund" />
		<tag k="place" v="farm" />
		<tag k="ssr:stedsnr" v="64802" />
	</node>
	<node id="-237787" lat="59.7588833292" lon="10.4461861106">
		<tag k="name" v="Fossumbråtan" />
		<tag k="old_name" v="Fossumbråten" />
		<tag k="place" v="farm" />
		<tag k="ssr:stedsnr" v="794661" />
	</node>
	<node id="-235738" lat="59.5783549828" lon="10.480238657">
		<tag k="fixme" v="consider place=hamlet" />
		<tag k="name" v="Holtvet" />
		<tag k="place" v="farm" />
		<tag k="ssr:stedsnr" v="64733" />
	</node>
	<node id="-235737" lat="59.5676972262" lon="10.4523333292">
		<tag k="name" v="Dalen" />
		<tag k="place" v="farm" />
		<tag k="ssr:stedsnr" v="64725" />
	</node>
	<node id="-235736" lat="59.5665611126" lon="10.576930555">
		<tag k="amenity" v="cafe" />
		<tag k="name" v="Vingården" />
		<tag k="ssr:stedsnr" v="64709" />
	</node>
	<node id="-237783" lat="59.8522527796" lon="10.4128861174">
		<tag k="name" v="Berg" />
		<tag k="place" v="farm" />
		<tag k="ssr:stedsnr" v="793816" />
	</node>
	<node id="-237782" lat="59.8424529675" lon="10.3883166835">
		<tag k="name" v="Steinset" />
		<tag k="place" v="farm" />
		<tag k="ssr:stedsnr" v="793802" />
	</node>
	<node id="-235733" lat="59.7485433408" lon="10.4597931908">
		<tag k="fixme" v="consider place=hamlet" />
		<tag k="name" v="Grav" />
		<tag k="place" v="farm" />
		<tag k="ssr:stedsnr" v="63941" />
	</node>
	<node id="-237780" lat="59.8029305586" lon="10.4778055483">
		<tag k="name" v="Stålenga" />
		<tag k="place" v="farm" />
		<tag k="ssr:stedsnr" v="793720" />
	</node>
	<node id="-237778" lat="59.7760722231" lon="10.4228277726">
		<tag k="name" v="Tangen" />
		<tag k="place" v="farm" />
		<tag k="ssr:stedsnr" v="793704" />
	</node>
	<node id="-237776" lat="59.7863944406" lon="10.3583638932">
		<tag k="alt_name" v="Torsbråten" />
		<tag k="name" v="Torsbråtan" />
		<tag k="place" v="isolated_dwelling" />
		<tag k="ssr:stedsnr" v="793692" />
	</node>
	<node id="-237773" lat="59.7687985496" lon="10.4549904036">
		<tag k="alt_name" v="Nordre Bø" />
		<tag k="fixme" v="consider place=hamlet" />
		<tag k="name" v="Bø" />
		<tag k="place" v="farm" />
		<tag k="ssr:stedsnr" v="793661" />
	</node>
	<node id="-235724" lat="59.7488222214" lon="10.3336000001">
		<tag k="alt_name" v="Baahus" />
		<tag k="name" v="Båhus" />
		<tag k="place" v="farm" />
		<tag k="ssr:stedsnr" v="239023" />
	</node>
	<node id="-237770" lat="59.566274249" lon="10.5753431414">
		<tag k="name" v="Rød" />
		<tag k="place" v="hamlet" />
		<tag k="ssr:stedsnr" v="792687" />
	</node>
	<node id="-237769" lat="59.559794251" lon="10.455436401">
		<tag k="fixme" v="consider place=hamlet" />
		<tag k="name" v="Berg" />
		<tag k="place" v="farm" />
		<tag k="ssr:stedsnr" v="792683" />
	</node>
	<node id="-237805" lat="59.841069444" lon="10.4231000066">
		<tag k="name" v="Biterud" />
		<tag k="place" v="farm" />
		<tag k="ssr:stedsnr" v="811622" />
	</node>
	<node id="-237767" lat="59.6717777812" lon="10.5658194411">
		<tag k="name" v="Verpen" />
		<tag k="place" v="locality" />
		<tag k="ssr:stedsnr" v="792843" />
	</node>
	<node id="-237765" lat="59.7453549285" lon="10.3557888276">
		<tag k="fixme" v="consider place=hamlet" />
		<tag k="name" v="Askestad" />
		<tag k="place" v="farm" />
		<tag k="ssr:stedsnr" v="791993" />
	</node>
	<node id="-237763" lat="59.7349021968" lon="10.326819861">
		<tag k="alt_name" v="Dagslet" />
		<tag k="fixme" v="consider place=hamlet" />
		<tag k="name" v="Dagslett" />
		<tag k="place" v="farm" />
		<tag k="ssr:stedsnr" v="792247" />
	</node>
	<node id="-237762" lat="59.5954466092" lon="10.4894341261">
		<tag k="fixme" v="consider place=hamlet" />
		<tag k="name" v="Berger" />
		<tag k="place" v="farm" />
		<tag k="ssr:stedsnr" v="791733" />
	</node>
	<node id="-237761" lat="59.5868499978" lon="10.4743416578">
		<tag k="name" v="Stokker" />
		<tag k="place" v="farm" />
		<tag k="ssr:stedsnr" v="791731" />
	</node>
	<node id="-235710" lat="59.6636944446" lon="10.6000916591">
		<tag k="name" v="Færgestad" />
		<tag k="place" v="isolated_dwelling" />
		<tag k="ssr:stedsnr" v="42324" />
	</node>
	<node id="-235708" lat="59.5910444426" lon="10.5976500003">
		<tag k="name" v="Nordre Huseby" />
		<tag k="place" v="farm" />
		<tag k="ssr:stedsnr" v="39622" />
	</node>
	<node id="-237752" lat="59.5404361069" lon="10.432925">
		<tag k="name" v="Bjerkelund" />
		<tag k="place" v="isolated_dwelling" />
		<tag k="ssr:stedsnr" v="787116" />
	</node>
	<node id="-237751" lat="59.550272224" lon="10.455633341">
		<tag k="name" v="Bergsmyrene" />
		<tag k="place" v="farm" />
		<tag k="ssr:stedsnr" v="787102" />
	</node>
	<node id="-235694" lat="59.8023833329" lon="10.3860694445">
		<tag k="name" v="Kvennhaugen" />
		<tag k="place" v="locality" />
		<tag k="ssr:stedsnr" v="22714" />
	</node>
	<node id="-237741" lat="59.6352055558" lon="10.5345472305">
		<tag k="name" v="Stikkvannshytta" />
		<tag k="place" v="isolated_dwelling" />
		<tag k="ssr:stedsnr" v="783886" />
	</node>
	<node id="-237731" lat="59.5825388857" lon="10.5807777804">
		<tag k="alt_name" v="Eik vestre" />
		<tag k="name" v="Vestre Eik" />
		<tag k="place" v="farm" />
		<tag k="ssr:stedsnr" v="770623" />
	</node>
	<node id="-235682" lat="59.5596166629" lon="10.5740388869">
		<tag k="name" v="Tofteplassen" />
		<tag k="place" v="quarter" />
		<tag k="ssr:stedsnr" v="222643" />
	</node>
	<node id="-237728" lat="59.5864416692" lon="10.5905944398">
		<tag k="name" v="Karijordet" />
		<tag k="place" v="isolated_dwelling" />
		<tag k="ssr:stedsnr" v="770607" />
	</node>
	<node id="-235679" lat="59.5650916677" lon="10.4661666728">
		<tag k="alt_name" v="Liltvedt" />
		<tag k="name" v="Lilltvet" />
		<tag k="place" v="farm" />
		<tag k="ssr:stedsnr" v="222160" />
	</node>
	<node id="-235677" lat="59.588972225" lon="10.5981888876">
		<tag k="name" v="Søndre Huseby" />
		<tag k="place" v="farm" />
		<tag k="ssr:stedsnr" v="221628" />
	</node>
	<node id="-235676" lat="59.7599990302" lon="10.4979003067">
		<tag k="name" v="Nærsnes" />
		<tag k="place" v="hamlet" />
		<tag k="ssr:stedsnr" v="5620" />
	</node>
	<node id="-235675" lat="59.864605553" lon="10.4725944379">
		<tag k="name" v="Berger" />
		<tag k="place" v="farm" />
		<tag k="ssr:stedsnr" v="3801" />
	</node>
	<node id="-235674" lat="59.5775583339" lon="10.5033611168">
		<tag k="name" v="Rødbysætra" />
		<tag k="place" v="isolated_dwelling" />
		<tag k="ssr:stedsnr" v="3700" />
	</node>
	<node id="-235673" lat="59.5581909926" lon="10.4388410051">
		<tag k="name" v="Holm" />
		<tag k="place" v="hamlet" />
		<tag k="ssr:stedsnr" v="3673" />
	</node>
	<node id="-235672" lat="59.6912055581" lon="10.3970249995">
		<tag k="name" v="Hernes" />
		<tag k="place" v="farm" />
		<tag k="ssr:stedsnr" v="3737" />
	</node>
	<node id="-237719" lat="59.6004500013" lon="10.4701888825">
		<tag k="name" v="Skytterbråten" />
		<tag k="place" v="isolated_dwelling" />
		<tag k="ssr:stedsnr" v="768548" />
	</node>
	<node id="-237718" lat="59.6113722203" lon="10.4876083278">
		<tag k="alt_name" v="Ødegården nordre" />
		<tag k="name" v="Nordre Ødegården" />
		<tag k="place" v="farm" />
		<tag k="ssr:stedsnr" v="768543" />
	</node>
	<node id="-237717" lat="59.6093555583" lon="10.4832472222">
		<tag k="alt_name" v="Dalen nordre" />
		<tag k="name" v="Nordre Dalen" />
		<tag k="place" v="isolated_dwelling" />
		<tag k="ssr:stedsnr" v="768540" />
	</node>
	<node id="-237715" lat="59.6245416645" lon="10.4422861043">
		<tag k="name" v="Fjellbu" />
		<tag k="place" v="isolated_dwelling" />
		<tag k="ssr:stedsnr" v="768528" />
	</node>
	<node id="-237713" lat="59.5605472214" lon="10.453227777">
		<tag k="name" v="Bergsengene" />
		<tag k="place" v="farm" />
		<tag k="ssr:stedsnr" v="768189" />
	</node>
	<node id="-237709" lat="59.6664833343" lon="10.5172472207">
		<tag k="name" v="Damstua" />
		<tag k="place" v="isolated_dwelling" />
		<tag k="ssr:stedsnr" v="767772" />
	</node>
	<node id="-237706" lat="59.5532555556" lon="10.4213138976">
		<tag k="name" v="Holmsbustøa" />
		<tag k="place" v="hamlet" />
		<tag k="ssr:stedsnr" v="756842" />
	</node>
	<node id="-237703" lat="59.7423805532" lon="10.3942333392">
		<tag k="name" v="Heggum" />
		<tag k="place" v="farm" />
		<tag k="ssr:stedsnr" v="755529" />
	</node>
	<node id="-237702" lat="59.7554861106" lon="10.3979638887">
		<tag k="name" v="Kleiver" />
		<tag k="place" v="isolated_dwelling" />
		<tag k="ssr:stedsnr" v="755376" />
	</node>
	<node id="-237701" lat="59.7549444469" lon="10.5050833408">
		<tag k="amenity" v="school" />
		<tag k="name" v="Nærsnes skole" />
		<tag k="ssr:stedsnr" v="755325" />
	</node>
	<node id="-237695" lat="59.71742222" lon="10.3557194501">
		<tag k="name" v="Hyggen" />
		<tag k="place" v="farm" />
		<tag k="ssr:stedsnr" v="754802" />
	</node>
	<node id="-237694" lat="59.7249500013" lon="10.3477111023">
		<tag k="name" v="Nordengen" />
		<tag k="place" v="farm" />
		<tag k="ssr:stedsnr" v="754459" />
	</node>
	<node id="-237688" lat="59.7166555559" lon="10.3730805492">
		<tag k="amenity" v="school" />
		<tag k="name" v="Hyggen skole" />
		<tag k="ssr:stedsnr" v="753414" />
	</node>
	<node id="-237687" lat="59.6136888875" lon="10.4580222212">
		<tag k="fixme" v="consider place=suburb, village or hamlet" />
		<tag k="name" v="Klokkarstua" />
		<tag k="place" v="quarter" />
		<tag k="ssr:stedsnr" v="753354" />
	</node>
	<node id="-237685" lat="59.7439611142" lon="10.3369805564">
		<tag k="name" v="Spikkestad" />
		<tag k="place" v="village" />
		<tag k="ssr:stedsnr" v="752635" />
	</node>
	<node id="-237684" lat="59.7152055542" lon="10.3282111111">
		<tag k="name" v="Stranda" />
		<tag k="place" v="isolated_dwelling" />
		<tag k="ssr:stedsnr" v="752578" />
	</node>
	<node id="-237683" lat="59.6591999995" lon="10.572047227">
		<tag k="name" v="Pina" />
		<tag k="place" v="isolated_dwelling" />
		<tag k="ssr:stedsnr" v="752006" />
	</node>
	<node id="-237681" lat="59.8108250018" lon="10.4258666747">
		<tag k="landuse" v="winter_sports" />
		<tag k="name" v="Vardåsen skisenter" />
		<tag k="piste:type" v="downhill" />
		<tag k="ssr:stedsnr" v="751690" />
	</node>
	<node id="-237680" lat="59.8450888844" lon="10.4597194508">
		<tag k="name" v="Muserud" />
		<tag k="place" v="isolated_dwelling" />
		<tag k="ssr:stedsnr" v="751679" />
	</node>
	<node id="-237678" lat="59.839752777" lon="10.4095916691">
		<tag k="name" v="Haugerud" />
		<tag k="place" v="farm" />
		<tag k="ssr:stedsnr" v="751668" />
	</node>
	<node id="-237677" lat="59.8388694471" lon="10.4152361174">
		<tag k="name" v="Nedre Hagen" />
		<tag k="place" v="farm" />
		<tag k="ssr:stedsnr" v="751667" />
	</node>
	<node id="-237676" lat="59.8349027794" lon="10.4277555515">
		<tag k="leisure" v="pitch" />
		<tag k="name" v="Asker stadion" />
		<tag k="ssr:stedsnr" v="751665" />
	</node>
	<node id="-237673" lat="59.8491638921" lon="10.4427944429">
		<tag k="amenity" v="school" />
		<tag k="name" v="Jansløkka skole" />
		<tag k="ssr:stedsnr" v="751657" />
	</node>
	<node id="-237669" lat="59.8781777766" lon="10.4493194459">
		<tag k="name" v="Rugbråtan" />
		<tag k="place" v="farm" />
		<tag k="ssr:stedsnr" v="751625" />
	</node>
	<node id="-237666" lat="59.8246583355" lon="10.4420888879">
		<tag k="amenity" v="sports_centre" />
		<tag k="name" v="Bondihallen" />
		<tag k="ssr:stedsnr" v="751577" />
	</node>
	<node id="-237665" lat="59.7915333308" lon="10.4455027841">
		<tag k="amenity" v="school" />
		<tag k="name" v="Heggedal skole" />
		<tag k="ssr:stedsnr" v="750723" />
	</node>
	<node id="-237662" lat="59.8409638889" lon="10.359497229">
		<tag k="name" v="Kasteløkka" />
		<tag k="place" v="farm" />
		<tag k="ssr:stedsnr" v="750690" />
	</node>
	<node id="-237661" lat="59.8254305537" lon="10.3546749911">
		<tag k="name" v="Bruås" />
		<tag k="place" v="isolated_dwelling" />
		<tag k="ssr:stedsnr" v="750682" />
	</node>
	<node id="-237659" lat="59.799680552" lon="10.3650777691">
		<tag k="name" v="Dyring" />
		<tag k="place" v="locality" />
		<tag k="ssr:stedsnr" v="750663" />
	</node>
	<node id="-237655" lat="59.6242736882" lon="10.4853316441">
		<tag k="name" v="Østern" />
		<tag k="old_name" v="Østen" />
		<tag k="place" v="hamlet" />
		<tag k="ssr:stedsnr" v="648353" />
	</node>
	<node id="-237654" lat="59.5778277767" lon="10.479611116">
		<tag k="alt_name" v="Søndre Holtvedt;Holtvedt søndre" />
		<tag k="name" v="Søndre Holtvet" />
		<tag k="place" v="farm" />
		<tag k="ssr:stedsnr" v="648501" />
	</node>
	<node id="-237649" lat="59.5985666667" lon="10.4724083278">
		<tag k="building" v="industrial" />
		<tag k="name" v="Mølla" />
		<tag k="ssr:stedsnr" v="646564" />
	</node>
	<node id="-237648" lat="59.6040361128" lon="10.4571416689">
		<tag k="name" v="Røtter" />
		<tag k="place" v="farm" />
		<tag k="ssr:stedsnr" v="646563" />
	</node>
	<node id="-237645" lat="59.5663888924" lon="10.4569305477">
		<tag k="name" v="Mørketo" />
		<tag k="place" v="farm" />
		<tag k="ssr:stedsnr" v="646196" />
	</node>
	<node id="-237635" lat="59.7293499963" lon="10.4552805544">
		<tag k="name" v="Elvenga" />
		<tag k="place" v="isolated_dwelling" />
		<tag k="ssr:stedsnr" v="633500" />
	</node>
	<node id="-237627" lat="59.6508611087" lon="10.5747805564">
		<tag k="alt_name" v="Havnemyra" />
		<tag k="name" v="Havnemyr" />
		<tag k="place" v="locality" />
		<tag k="ssr:stedsnr" v="631904" />
	</node>
	<node id="-237624" lat="59.7211694456" lon="10.5103694458">
		<tag k="name" v="Løkeberg" />
		<tag k="place" v="farm" />
		<tag k="ssr:stedsnr" v="631677" />
	</node>
	<node id="-237621" lat="59.7012833334" lon="10.3893583344">
		<tag k="name" v="Bakkebråten" />
		<tag k="place" v="isolated_dwelling" />
		<tag k="ssr:stedsnr" v="630811" />
	</node>
	<node id="-237619" lat="59.7586249975" lon="10.5083222297">
		<tag k="name" v="Lund" />
		<tag k="place" v="isolated_dwelling" />
		<tag k="ssr:stedsnr" v="630598" />
	</node>
	<node id="-237617" lat="59.8289611146" lon="10.40454166">
		<tag k="amenity" v="school" />
		<tag k="name" v="Drengsrud skole" />
		<tag k="ssr:stedsnr" v="629693" />
	</node>
	<node id="-237615" lat="59.8263055581" lon="10.4200583348">
		<tag k="amenity" v="school" />
		<tag k="name" v="Borgen skole" />
		<tag k="ssr:stedsnr" v="629690" />
	</node>
	<node id="-237614" lat="59.8476694418" lon="10.4721166744">
		<tag k="amenity" v="school" />
		<tag k="name" v="Hofstad skole" />
		<tag k="ssr:stedsnr" v="629677" />
	</node>
	<node id="-235869" lat="59.5692027795" lon="10.4510527779">
		<tag k="name" v="Killingstaddalen" />
		<tag k="place" v="farm" />
		<tag k="ssr:stedsnr" v="161204" />
	</node>
	<node id="-237612" lat="59.8754777755" lon="10.4822972132">
		<tag k="name" v="Billingstad" />
		<tag k="place" v="village" />
		<tag k="ssr:stedsnr" v="629632" />
	</node>
	<node id="-237609" lat="59.818577782" lon="10.4489333409">
		<tag k="name" v="Elvestua" />
		<tag k="place" v="quarter" />
		<tag k="ssr:stedsnr" v="629579" />
	</node>
	<node id="-237603" lat="59.8333277739" lon="10.4372055633">
		<tag k="name" v="Asker" />
		<tag k="place" v="village" />
		<tag k="ssr:stedsnr" v="611735" />
	</node>
	<node id="-237602" lat="59.8597000038" lon="10.4102222217">
		<tag k="name" v="Tveiter" />
		<tag k="old_name" v="Tveter" />
		<tag k="place" v="farm" />
		<tag k="ssr:stedsnr" v="611818" />
	</node>
	<node id="-237599" lat="59.8557416666" lon="10.4914694446">
		<tag k="name" v="Holmen" />
		<tag k="place" v="village" />
		<tag k="ssr:stedsnr" v="611808" />
	</node>
	<node id="-237598" lat="59.8574250013" lon="10.4700638838">
		<tag k="name" v="Hvalstad" />
		<tag k="place" v="farm" />
		<tag k="ssr:stedsnr" v="611806" />
	</node>
	<node id="-237596" lat="59.7995111103" lon="10.3864861125">
		<tag k="name" v="Eriksrud" />
		<tag k="place" v="farm" />
		<tag k="ssr:stedsnr" v="611704" />
	</node>
	<node id="-237914" lat="59.5505499965" lon="10.4750361057">
		<tag k="name" v="Granvoll" />
		<tag k="place" v="farm" />
		<tag k="ssr:stedsnr" v="951144" />
	</node>
	<node id="-237594" lat="59.7595861122" lon="10.5075833312">
		<tag k="name" v="Tangehagen" />
		<tag k="place" v="isolated_dwelling" />
		<tag k="ssr:stedsnr" v="611674" />
	</node>
	<node id="-237591" lat="59.8815083366" lon="10.4513972164">
		<tag k="name" v="Stokker" />
		<tag k="place" v="farm" />
		<tag k="ssr:stedsnr" v="610863" />
	</node>
	<node id="-237590" lat="59.6447333314" lon="10.5068083418">
		<tag k="name" v="Ødegården" />
		<tag k="place" v="farm" />
		<tag k="ssr:stedsnr" v="610846" />
	</node>
	<node id="-237913" lat="59.5494249982" lon="10.4901833251">
		<tag k="name" v="Haugen" />
		<tag k="place" v="farm" />
		<tag k="ssr:stedsnr" v="951142" />
	</node>
	<node id="-237835" lat="59.5727805544" lon="10.5913305571">
		<tag k="name" v="Filtvetbråten" />
		<tag k="place" v="isolated_dwelling" />
		<tag k="ssr:stedsnr" v="875913" />
	</node>
	<node id="-237587" lat="59.6097333349" lon="10.4887416611">
		<tag k="alt_name" v="Ødegården søndre" />
		<tag k="name" v="Ødegården" />
		<tag k="place" v="farm" />
		<tag k="ssr:stedsnr" v="610673" />
	</node>
	<node id="-237584" lat="59.6054611135" lon="10.5125611137">
		<tag k="name" v="Daleby" />
		<tag k="place" v="isolated_dwelling" />
		<tag k="ssr:stedsnr" v="610653" />
	</node>
	<node id="-237581" lat="59.8500249989" lon="10.3404250055">
		<tag k="name" v="Solli" />
		<tag k="place" v="farm" />
		<tag k="ssr:stedsnr" v="610340" />
	</node>
	<node id="-237580" lat="59.7473149167" lon="10.4539582859">
		<tag k="fixme" v="consider place=hamlet" />
		<tag k="name" v="Gunnerud" />
		<tag k="place" v="farm" />
		<tag k="ssr:stedsnr" v="609949" />
	</node>
	<node id="-237579" lat="59.7490694442" lon="10.4373166681">
		<tag k="alt_name" v="Bryn" />
		<tag k="name" v="Søndre Bryn" />
		<tag k="place" v="farm" />
		<tag k="ssr:stedsnr" v="609942" />
	</node>
	<node id="-237575" lat="59.5598250015" lon="10.4486499977">
		<tag k="name" v="Engene" />
		<tag k="place" v="farm" />
		<tag k="ssr:stedsnr" v="609666" />
	</node>
	<node id="-237574" lat="59.6582583356" lon="10.5516999965">
		<tag k="name" v="Engenesetra" />
		<tag k="place" v="locality" />
		<tag k="ssr:stedsnr" v="605351" />
	</node>
	<node id="-237572" lat="59.5514583291" lon="10.4328972165">
		<tag k="alt_name" v="Jahren nordre" />
		<tag k="name" v="Nordre Jaren" />
		<tag k="place" v="farm" />
		<tag k="ssr:stedsnr" v="605130" />
	</node>
</osm>
