<?xml version="1.0" encoding="UTF-8"?>
<osm generator="osmapis" version="0.6">
	<node id="-30719" lat="59.8648277796" lon="10.5411138865">
		<tag k="name" v="Vendelholmene" />
		<tag k="place" v="islet" />
		<tag k="ssr:stedsnr" v="508535" />
	</node>
	<node id="-30710" lat="59.5506638929" lon="10.5814583418">
		<tag k="name" v="Rulleto" />
		<tag k="natural" v="cape" />
		<tag k="ssr:stedsnr" v="392854" />
	</node>
	<node id="-30708" lat="59.5252944464" lon="10.4238305514">
		<tag k="name" v="Brevikbukta" />
		<tag k="natural" v="bay" />
		<tag k="ssr:stedsnr" v="392103" />
	</node>
	<node id="-30698" lat="59.6126110504" lon="10.4145075062">
		<tag k="name" v="Verksrenna" />
		<tag k="natural" v="strait" />
		<tag k="ssr:stedsnr" v="389209" />
	</node>
	<node id="-30697" lat="59.8087861153" lon="10.5314833366">
		<tag k="name" v="Morragrunnen" />
		<tag k="natural" v="shoal" />
		<tag k="place" v="locality" />
		<tag k="ssr:stedsnr" v="388512" />
	</node>
	<node id="-30696" lat="59.8393250015" lon="10.5127222293">
		<tag k="name" v="Konglungøya" />
		<tag k="place" v="islet" />
		<tag k="ssr:stedsnr" v="388422" />
	</node>
	<node id="-30686" lat="59.8357611136" lon="10.5148805509">
		<tag k="alt_name" v="Einarsgrunn" />
		<tag k="name" v="Einarsgrunnen" />
		<tag k="natural" v="shoal" />
		<tag k="place" v="locality" />
		<tag k="ssr:stedsnr" v="386510" />
	</node>
	<node id="-30685" lat="59.8038805532" lon="10.5046194446">
		<tag k="name" v="Takkedraget" />
		<tag k="place" v="locality" />
		<tag k="ssr:stedsnr" v="386505" />
	</node>
	<node id="-30678" lat="59.5387944461" lon="10.5594305509">
		<tag k="name" v="Skjæra" />
		<tag k="place" v="islet" />
		<tag k="ssr:stedsnr" v="362611" />
	</node>
	<node id="-30670" lat="59.8414027778" lon="10.5409222145">
		<tag k="fixme" v="consider seamark:type=rock or natural=shoal" />
		<tag k="name" v="Raudskjæra" />
		<tag k="place" v="islet" />
		<tag k="ssr:stedsnr" v="490765" />
	</node>
	<node id="-30663" lat="59.6668755415" lon="10.576794048">
		<tag k="name" v="Sandspollen" />
		<tag k="natural" v="bay" />
		<tag k="ssr:stedsnr" v="489866" />
	</node>
	<node id="-30653" lat="59.863308334" lon="10.52037778">
		<tag k="name" v="Nesøya" />
		<tag k="place" v="island" />
		<tag k="ssr:stedsnr" v="489820" />
	</node>
	<node id="-30648" lat="59.8511333323" lon="10.5571138945">
		<tag k="name" v="Høyerholmen" />
		<tag k="place" v="islet" />
		<tag k="ssr:stedsnr" v="489780" />
	</node>
	<node id="-30634" lat="59.6073139118" lon="10.4374916586">
		<tag k="name" v="Vollebukta" />
		<tag k="natural" v="bay" />
		<tag k="ssr:stedsnr" v="488611" />
	</node>
	<node id="-30624" lat="59.6933111148" lon="10.5219250003">
		<tag k="name" v="Killingholmsundet" />
		<tag k="natural" v="strait" />
		<tag k="ssr:stedsnr" v="342713" />
	</node>
	<node id="-30604" lat="59.6898027753" lon="10.3961138823">
		<tag k="name" v="Hernestangen" />
		<tag k="natural" v="cape" />
		<tag k="ssr:stedsnr" v="329745" />
	</node>
	<node id="-30598" lat="59.5837666625" lon="10.4335277854">
		<tag k="fixme" v="consider seamark:type=rock or natural=shoal" />
		<tag k="name" v="Bjørneskjær" />
		<tag k="place" v="islet" />
		<tag k="ssr:stedsnr" v="327907" />
	</node>
	<node id="-30597" lat="59.6704666625" lon="10.5784166741">
		<tag k="name" v="Flyndregrunnen" />
		<tag k="natural" v="shoal" />
		<tag k="place" v="locality" />
		<tag k="ssr:stedsnr" v="327840" />
	</node>
	<node id="-30580" lat="59.5280444467" lon="10.5165388826">
		<tag k="name" v="Steinvik" />
		<tag k="natural" v="bay" />
		<tag k="ssr:stedsnr" v="302514" />
	</node>
	<node id="-30575" lat="59.8092944442" lon="10.5084888922">
		<tag k="name" v="Hoggestabben" />
		<tag k="natural" v="shoal" />
		<tag k="place" v="locality" />
		<tag k="ssr:stedsnr" v="300220" />
	</node>
	<node id="-30569" lat="59.5604527757" lon="10.6014555532">
		<tag k="name" v="Gammelvikene" />
		<tag k="natural" v="bay" />
		<tag k="ssr:stedsnr" v="465669" />
	</node>
	<node id="-30561" lat="59.5217027819" lon="10.4493277803">
		<tag k="name" v="Skjøttelvikbukta" />
		<tag k="natural" v="bay" />
		<tag k="old_name" v="Schjøttelvikbukta" />
		<tag k="ssr:stedsnr" v="464075" />
	</node>
	<node id="-30352" lat="59.8028544269" lon="10.5033331295">
		<tag k="name" v="Elnestangen" />
		<tag k="natural" v="cape" />
		<tag k="ssr:stedsnr" v="82620" />
	</node>
	<node id="-30558" lat="59.5626294439" lon="10.4268166535">
		<tag k="alt_name" v="Bakkeskær" />
		<tag k="name" v="Bakkeskjær" />
		<tag k="place" v="islet" />
		<tag k="ssr:stedsnr" v="463133" />
	</node>
	<node id="-30553" lat="59.5296750037" lon="10.5322472243">
		<tag k="name" v="Sagenebåen" />
		<tag k="place" v="locality" />
		<tag k="seamark:type" v="rock" />
		<tag k="ssr:stedsnr" v="271904" />
	</node>
	<node id="-30545" lat="59.7981277762" lon="10.5149888814">
		<tag k="name" v="Torsgrunnen" />
		<tag k="natural" v="shoal" />
		<tag k="place" v="locality" />
		<tag k="ssr:stedsnr" v="267562" />
	</node>
	<node id="-30535" lat="59.522655553" lon="10.5140499942">
		<tag k="name" v="Løyegrunnen" />
		<tag k="natural" v="shoal" />
		<tag k="place" v="locality" />
		<tag k="ssr:stedsnr" v="453870" />
	</node>
	<node id="-30515" lat="59.4854750041" lon="10.4986583254">
		<tag k="name" v="Mølen" />
		<tag k="place" v="island" />
		<tag k="ssr:stedsnr" v="245912" />
	</node>
	<node id="-30465" lat="59.7296277817" lon="10.5214416582">
		<tag k="fixme" v="consider seamark:type=rock or natural=shoal" />
		<tag k="name" v="Demmekilskjæra" />
		<tag k="place" v="islet" />
		<tag k="ssr:stedsnr" v="180803" />
	</node>
	<node id="-30460" lat="59.6414194401" lon="10.6059500001">
		<tag k="name" v="Rødtangodden" />
		<tag k="natural" v="cape" />
		<tag k="ssr:stedsnr" v="179923" />
	</node>
	<node id="-30459" lat="59.8182361087" lon="10.4786666701">
		<tag k="name" v="Vadhusleira" />
		<tag k="natural" v="shoal" />
		<tag k="place" v="locality" />
		<tag k="ssr:stedsnr" v="178909" />
	</node>
	<node id="-32501" lat="59.5207000014" lon="10.4928388959">
		<tag k="name" v="Kattsundodden" />
		<tag k="natural" v="cape" />
		<tag k="ssr:stedsnr" v="969127" />
	</node>
	<node id="-32492" lat="59.5819321657" lon="10.4338679042">
		<tag k="name" v="Knivsvik" />
		<tag k="natural" v="bay" />
		<tag k="ssr:stedsnr" v="967187" />
	</node>
	<node id="-32470" lat="59.8202666648" lon="10.4936833403">
		<tag k="name" v="Kattegrunnen" />
		<tag k="natural" v="shoal" />
		<tag k="place" v="locality" />
		<tag k="ssr:stedsnr" v="874550" />
	</node>
	<node id="-32469" lat="59.8124611091" lon="10.5056555607">
		<tag k="name" v="Geiteryggen" />
		<tag k="natural" v="shoal" />
		<tag k="place" v="locality" />
		<tag k="ssr:stedsnr" v="874544" />
	</node>
	<node id="-30420" lat="59.6171027738" lon="10.4220972282">
		<tag k="name" v="Ryggen" />
		<tag k="natural" v="cape" />
		<tag k="ssr:stedsnr" v="147217" />
	</node>
	<node id="-30419" lat="59.8069805544" lon="10.5161388931">
		<tag k="name" v="Moen" />
		<tag k="natural" v="shoal" />
		<tag k="place" v="locality" />
		<tag k="ssr:stedsnr" v="145530" />
	</node>
	<node id="-30417" lat="59.4807444469" lon="10.5108444364">
		<tag k="name" v="Sydostgrunnen" />
		<tag k="natural" v="shoal" />
		<tag k="place" v="locality" />
		<tag k="ssr:stedsnr" v="271995" />
	</node>
	<node id="-32376" lat="59.7990611127" lon="10.5050499982">
		<tag k="name" v="Elnesgrunnene" />
		<tag k="natural" v="shoal" />
		<tag k="place" v="locality" />
		<tag k="ssr:stedsnr" v="813579" />
	</node>
	<node id="-32459" lat="59.6831055598" lon="10.5337361097">
		<tag k="fixme" v="consider seamark:type=rock or natural=shoal" />
		<tag k="name" v="Kavringen" />
		<tag k="place" v="islet" />
		<tag k="ssr:stedsnr" v="866787" />
	</node>
	<node id="-32457" lat="59.781405558" lon="10.50485555">
		<tag k="alt_name" v="Geitungsholmen" />
		<tag k="name" v="Geitungholmen" />
		<tag k="place" v="islet" />
		<tag k="ssr:stedsnr" v="854637" />
	</node>
	<node id="-30408" lat="59.5624388898" lon="10.6041888861">
		<tag k="name" v="Vikene" />
		<tag k="natural" v="bay" />
		<tag k="ssr:stedsnr" v="268850" />
	</node>
	<node id="-30406" lat="59.576769448" lon="10.4327333283">
		<tag k="name" v="Sandtangen" />
		<tag k="natural" v="cape" />
		<tag k="ssr:stedsnr" v="267928" />
	</node>
	<node id="-30404" lat="59.6113416629" lon="10.4141416645">
		<tag k="alt_name" v="Verketsøya" />
		<tag k="name" v="Verksøya" />
		<tag k="place" v="island" />
		<tag k="ssr:stedsnr" v="267731" />
	</node>
	<node id="-32436" lat="59.5181601937" lon="10.466596145">
		<tag k="alt_name" v="Dalsvika" />
		<tag k="name" v="Delsvik" />
		<tag k="natural" v="bay" />
		<tag k="ssr:stedsnr" v="848061" />
	</node>
	<node id="-30387" lat="59.8544694426" lon="10.5279222197">
		<tag k="name" v="Pilbogen" />
		<tag k="natural" v="bay" />
		<tag k="ssr:stedsnr" v="265547" />
	</node>
	<node id="-32434" lat="59.6267472298" lon="10.6069697661">
		<tag k="name" v="Plankebukta" />
		<tag k="natural" v="bay" />
		<tag k="ssr:stedsnr" v="847592" />
	</node>
	<node id="-30385" lat="59.8322527755" lon="10.5162222309">
		<tag k="alt_name" v="Svartebukta" />
		<tag k="name" v="Svartbukta" />
		<tag k="natural" v="bay" />
		<tag k="ssr:stedsnr" v="265543" />
	</node>
	<node id="-32432" lat="59.7876372059" lon="10.4977632318">
		<tag k="name" v="Tajetbukta" />
		<tag k="natural" v="bay" />
		<tag k="ssr:stedsnr" v="847241" />
	</node>
	<node id="-30383" lat="59.8513805544" lon="10.5215805599">
		<tag k="name" v="Mellomholmen" />
		<tag k="place" v="islet" />
		<tag k="ssr:stedsnr" v="265532" />
	</node>
	<node id="-30382" lat="59.80826667" lon="10.4929916662">
		<tag k="name" v="Evjeodden" />
		<tag k="natural" v="cape" />
		<tag k="ssr:stedsnr" v="265528" />
	</node>
	<node id="-30372" lat="59.8172805539" lon="10.5193000043">
		<tag k="name" v="Bjerkøygrunnen" />
		<tag k="natural" v="shoal" />
		<tag k="old_name" v="Bjørkøygrunnen" />
		<tag k="place" v="locality" />
		<tag k="ssr:stedsnr" v="117913" />
	</node>
	<node id="-30371" lat="59.5658999961" lon="10.4288750075">
		<tag k="alt_name" v="Gunnarskær" />
		<tag k="fixme" v="consider seamark:type=rock or natural=shoal" />
		<tag k="name" v="Gunnarskjær" />
		<tag k="place" v="islet" />
		<tag k="ssr:stedsnr" v="99167" />
	</node>
	<node id="-30370" lat="59.5191500037" lon="10.4548111095">
		<tag k="name" v="Fiskertangen" />
		<tag k="natural" v="cape" />
		<tag k="ssr:stedsnr" v="89116" />
	</node>
	<node id="-30368" lat="59.5204361077" lon="10.4731861106">
		<tag k="name" v="Rødsteinen" />
		<tag k="natural" v="cape" />
		<tag k="ssr:stedsnr" v="89106" />
	</node>
	<node id="-30364" lat="59.6523444488" lon="10.4310749962">
		<tag k="name" v="Odden" />
		<tag k="natural" v="cape" />
		<tag k="ssr:stedsnr" v="85819" />
	</node>
	<node id="-30357" lat="59.8140361112" lon="10.4820472167">
		<tag k="name" v="Tørkopp" />
		<tag k="natural" v="beach" />
		<tag k="place" v="locality" />
		<tag k="ssr:stedsnr" v="83567" />
	</node>
	<node id="-32401" lat="59.5204916699" lon="10.4368499916">
		<tag k="name" v="Rusodden" />
		<tag k="natural" v="cape" />
		<tag k="ssr:stedsnr" v="829094" />
	</node>
	<node id="-32400" lat="59.5219416706" lon="10.4462111138">
		<tag k="name" v="Sjøbuodden" />
		<tag k="natural" v="cape" />
		<tag k="ssr:stedsnr" v="829086" />
	</node>
	<node id="-32398" lat="59.5619138858" lon="10.4285805532">
		<tag k="name" v="Bukta" />
		<tag k="natural" v="bay" />
		<tag k="ssr:stedsnr" v="827155" />
	</node>
	<node id="-30346" lat="59.8481277771" lon="10.4968888884">
		<tag k="alt_name" v="Devikodden" />
		<tag k="name" v="Odden" />
		<tag k="natural" v="cape" />
		<tag k="ssr:stedsnr" v="247772" />
	</node>
	<node id="-30342" lat="59.8221874334" lon="10.4868767747">
		<tag k="fixme" v="consider seamark:type=rock or natural=shoal" />
		<tag k="name" v="Rogneskjær" />
		<tag k="place" v="islet" />
		<tag k="ssr:stedsnr" v="247737" />
	</node>
	<node id="-32389" lat="59.5232944425" lon="10.4497499924">
		<tag k="alt_name" v="Eplevik" />
		<tag k="name" v="Eplevika" />
		<tag k="natural" v="bay" />
		<tag k="ssr:stedsnr" v="817099" />
	</node>
	<node id="-30331" lat="59.7322194457" lon="10.5295666592">
		<tag k="fixme" v="consider seamark:type=rock or natural=shoal" />
		<tag k="name" v="Høvikskjæra" />
		<tag k="place" v="islet" />
		<tag k="ssr:stedsnr" v="246954" />
	</node>
	<node id="-32378" lat="59.6992277779" lon="10.3866444368">
		<tag k="name" v="Gåsungen" />
		<tag k="natural" v="shoal" />
		<tag k="place" v="locality" />
		<tag k="ssr:stedsnr" v="813830" />
	</node>
	<node id="-30328" lat="59.6750111094" lon="10.5647055578">
		<tag k="name" v="Furuholmen" />
		<tag k="place" v="islet" />
		<tag k="ssr:stedsnr" v="246837" />
	</node>
	<node id="-32375" lat="59.8115222235" lon="10.5256722296">
		<tag k="name" v="Stuteberget" />
		<tag k="natural" v="shoal" />
		<tag k="place" v="locality" />
		<tag k="ssr:stedsnr" v="813505" />
	</node>
	<node id="-32374" lat="59.817027776" lon="10.4927361071">
		<tag k="name" v="Østenstadberget" />
		<tag k="natural" v="shoal" />
		<tag k="place" v="locality" />
		<tag k="ssr:stedsnr" v="813499" />
	</node>
	<node id="-30320" lat="59.7057166706" lon="10.5319416638">
		<tag k="name" v="Gråøya" />
		<tag k="place" v="island" />
		<tag k="ssr:stedsnr" v="246719" />
	</node>
	<node id="-32362" lat="59.8203666698" lon="10.4773472183">
		<tag k="name" v="Ormodden" />
		<tag k="natural" v="cape" />
		<tag k="ssr:stedsnr" v="811562" />
	</node>
	<node id="-30312" lat="59.66866389" lon="10.5823750057">
		<tag k="name" v="Kinnartangen" />
		<tag k="natural" v="cape" />
		<tag k="ssr:stedsnr" v="246013" />
	</node>
	<node id="-32359" lat="59.8050861117" lon="10.4965055521">
		<tag k="name" v="Rabben" />
		<tag k="natural" v="cape" />
		<tag k="ssr:stedsnr" v="811508" />
	</node>
	<node id="-32358" lat="59.851747224" lon="10.5090527757">
		<tag k="fixme" v="multiple name tags, choose one and add the other to alt_name; consider seamark:type=rock or natural=shoal" />
		<tag k="name" v="Midtskjær;Torbjørnskjær" />
		<tag k="place" v="islet" />
		<tag k="ssr:stedsnr" v="811503" />
	</node>
	<node id="-32357" lat="59.8529472246" lon="10.4963611046">
		<tag k="name" v="Devikbukta" />
		<tag k="natural" v="bay" />
		<tag k="ssr:stedsnr" v="811499" />
	</node>
	<node id="-32356" lat="59.87188786" lon="10.5120641299">
		<tag k="name" v="Vestre Hals" />
		<tag k="natural" v="bay" />
		<tag k="ssr:stedsnr" v="811470" />
	</node>
	<node id="-32354" lat="59.866122943" lon="10.5366043925">
		<tag k="name" v="Kalkbukta" />
		<tag k="natural" v="bay" />
		<tag k="ssr:stedsnr" v="811462" />
	</node>
	<node id="-32353" lat="59.8105055552" lon="10.486630548">
		<tag k="name" v="Vollebukta" />
		<tag k="natural" v="bay" />
		<tag k="ssr:stedsnr" v="811339" />
	</node>
	<node id="-30289" lat="59.7263643287" lon="10.5198802964">
		<tag k="name" v="Høviklaget" />
		<tag k="natural" v="bay" />
		<tag k="ssr:stedsnr" v="240810" />
	</node>
	<node id="-30288" lat="59.5370472208" lon="10.5507194377">
		<tag k="fixme" v="consider seamark:type=rock or natural=shoal" />
		<tag k="name" v="Måkeskjær" />
		<tag k="place" v="islet" />
		<tag k="ssr:stedsnr" v="240636" />
	</node>
	<node id="-32335" lat="59.8389313415" lon="10.4857304859">
		<tag k="name" v="Leangbukta" />
		<tag k="natural" v="bay" />
		<tag k="ssr:stedsnr" v="793787" />
	</node>
	<node id="-32334" lat="59.8496750016" lon="10.5196138958">
		<tag k="name" v="Furuholmen" />
		<tag k="place" v="islet" />
		<tag k="ssr:stedsnr" v="793552" />
	</node>
	<node id="-32326" lat="59.7149888884" lon="10.5317277694">
		<tag k="bay" v="fjord" />
		<tag k="name" v="Vestfjorden" />
		<tag k="natural" v="bay" />
		<tag k="ssr:stedsnr" v="792789" />
	</node>
	<node id="-32324" lat="59.666666669" lon="10.3916666621">
		<tag k="bay" v="fjord" />
		<tag k="name" v="Drammensfjorden" />
		<tag k="natural" v="bay" />
		<tag k="ssr:stedsnr" v="792266" />
	</node>
	<node id="-30273" lat="59.7222333326" lon="10.5353666657">
		<tag k="name" v="Djupegrunnen" />
		<tag k="natural" v="shoal" />
		<tag k="place" v="locality" />
		<tag k="ssr:stedsnr" v="236071" />
	</node>
	<node id="-32310" lat="59.5193712532" lon="10.4592682607">
		<tag k="name" v="Salpestø" />
		<tag k="natural" v="bay" />
		<tag k="ssr:stedsnr" v="787060" />
	</node>
	<node id="-30257" lat="59.758963886" lon="10.5029611192">
		<tag k="name" v="Stranda" />
		<tag k="natural" v="beach" />
		<tag k="place" v="locality" />
		<tag k="ssr:stedsnr" v="24649" />
	</node>
	<node id="-32304" lat="59.7848277809" lon="10.5156166702">
		<tag k="name" v="Ytre Lyberggrunnen" />
		<tag k="natural" v="shoal" />
		<tag k="place" v="locality" />
		<tag k="ssr:stedsnr" v="786152" />
	</node>
	<node id="-32303" lat="59.7643138867" lon="10.5049472174">
		<tag k="name" v="Holmegrunnen" />
		<tag k="natural" v="shoal" />
		<tag k="place" v="locality" />
		<tag k="ssr:stedsnr" v="786122" />
	</node>
	<node id="-30243" lat="59.5587361139" lon="10.597763885">
		<tag k="name" v="Vestervik" />
		<tag k="natural" v="bay" />
		<tag k="ssr:stedsnr" v="222646" />
	</node>
	<node id="-30238" lat="59.6909972238" lon="10.5346111101">
		<tag k="fixme" v="consider seamark:type=rock or natural=shoal" />
		<tag k="name" v="Hjelpskjæret" />
		<tag k="place" v="islet" />
		<tag k="ssr:stedsnr" v="221709" />
	</node>
	<node id="-32270" lat="59.6862638889" lon="10.5245555481">
		<tag k="name" v="Sjøstranda" />
		<tag k="natural" v="beach" />
		<tag k="place" v="locality" />
		<tag k="ssr:stedsnr" v="767788" />
	</node>
	<node id="-32268" lat="59.5240361124" lon="10.4500666582">
		<tag k="name" v="Møllestranda" />
		<tag k="natural" v="beach" />
		<tag k="place" v="locality" />
		<tag k="ssr:stedsnr" v="766052" />
	</node>
	<node id="-32259" lat="59.6942083327" lon="10.5390194427">
		<tag k="name" v="Klauholmen" />
		<tag k="place" v="islet" />
		<tag k="ssr:stedsnr" v="754966" />
	</node>
	<node id="-32246" lat="59.6851083333" lon="10.4187249995">
		<tag k="name" v="Grimsrudodden" />
		<tag k="natural" v="cape" />
		<tag k="ssr:stedsnr" v="752832" />
	</node>
	<node id="-32218" lat="59.8619097579" lon="10.5115916672">
		<tag k="name" v="Sververen" />
		<tag k="natural" v="bay" />
		<tag k="ssr:stedsnr" v="750469" />
	</node>
	<node id="-32204" lat="59.6642166642" lon="10.5769861157">
		<tag k="name" v="Djuplaget" />
		<tag k="natural" v="bay" />
		<tag k="ssr:stedsnr" v="646312" />
	</node>
	<node id="-32202" lat="59.7000194428" lon="10.5186583311">
		<tag k="name" v="Kastestranda" />
		<tag k="natural" v="beach" />
		<tag k="place" v="locality" />
		<tag k="ssr:stedsnr" v="645736" />
	</node>
	<node id="-32201" lat="59.5625388901" lon="10.4275611063">
		<tag k="name" v="Orekilen" />
		<tag k="natural" v="bay" />
		<tag k="ssr:stedsnr" v="634844" />
	</node>
	<node id="-32185" lat="59.6701388848" lon="10.590688889">
		<tag k="name" v="Nesgrunnen" />
		<tag k="natural" v="shoal" />
		<tag k="place" v="locality" />
		<tag k="ssr:stedsnr" v="631888" />
	</node>
	<node id="-32183" lat="59.6661396455" lon="10.5847815958">
		<tag k="name" v="Kapellkilen" />
		<tag k="natural" v="bay" />
		<tag k="ssr:stedsnr" v="630849" />
	</node>
	<node id="-32182" lat="59.6756222249" lon="10.5717333325">
		<tag k="name" v="Stedgrunnen" />
		<tag k="natural" v="cape" />
		<tag k="ssr:stedsnr" v="630846" />
	</node>
	<node id="-32170" lat="59.814938487" lon="10.4837843194">
		<tag k="name" v="Sjøvollbukta" />
		<tag k="natural" v="bay" />
		<tag k="ssr:stedsnr" v="629586" />
	</node>
	<node id="-32160" lat="59.8510361154" lon="10.5189777772">
		<tag k="name" v="Torbjørnsøy" />
		<tag k="place" v="islet" />
		<tag k="ssr:stedsnr" v="611809" />
	</node>
	<node id="-32155" lat="59.7921167275" lon="10.5019881723">
		<tag k="name" v="Bjerkåsholmen" />
		<tag k="natural" v="cape" />
		<tag k="ssr:stedsnr" v="611679" />
	</node>
	<node id="-32153" lat="59.6681138911" lon="10.5966944368">
		<tag k="name" v="Neset" />
		<tag k="natural" v="cape" />
		<tag k="ssr:stedsnr" v="610895" />
	</node>
	<node id="-32137" lat="59.6822954399" lon="10.5406809853">
		<tag k="name" v="Engene" />
		<tag k="natural" v="cape" />
		<tag k="ssr:stedsnr" v="609737" />
	</node>
	<node id="-32136" lat="59.5234861115" lon="10.5029499938">
		<tag k="name" v="Sandbukta" />
		<tag k="natural" v="bay" />
		<tag k="ssr:stedsnr" v="609491" />
	</node>
	<node id="-32131" lat="59.5191099199" lon="10.4571624879">
		<tag k="name" v="Olashøl" />
		<tag k="natural" v="bay" />
		<tag k="ssr:stedsnr" v="605070" />
	</node>
	<node id="-32129" lat="59.7195805557" lon="10.5203805581">
		<tag k="name" v="Løkebergstranda" />
		<tag k="natural" v="beach" />
		<tag k="place" v="locality" />
		<tag k="ssr:stedsnr" v="604833" />
	</node>
	<node id="-32125" lat="59.7236861103" lon="10.5341722134">
		<tag k="name" v="Søndre Sundbyholmen" />
		<tag k="place" v="islet" />
		<tag k="ssr:stedsnr" v="604106" />
	</node>
	<node id="-32121" lat="59.7844750006" lon="10.5112361025">
		<tag k="name" v="Indre Lyberggrunnen" />
		<tag k="natural" v="shoal" />
		<tag k="place" v="locality" />
		<tag k="ssr:stedsnr" v="603145" />
	</node>
	<node id="-32120" lat="59.7610138875" lon="10.514519447">
		<tag k="name" v="Klippen" />
		<tag k="natural" v="cape" />
		<tag k="ssr:stedsnr" v="603108" />
	</node>
	<node id="-32119" lat="59.8172722227" lon="10.5052472242">
		<tag k="name" v="Tunga" />
		<tag k="natural" v="shoal" />
		<tag k="place" v="locality" />
		<tag k="ssr:stedsnr" v="602914" />
	</node>
	<node id="-32096" lat="59.7659055546" lon="10.5149361092">
		<tag k="name" v="Nærsnesrabbane" />
		<tag k="natural" v="shoal" />
		<tag k="place" v="locality" />
		<tag k="ssr:stedsnr" v="579125" />
	</node>
	<node id="-32095" lat="59.5428055549" lon="10.5849138918">
		<tag k="name" v="Ramvikgrunnen" />
		<tag k="natural" v="shoal" />
		<tag k="place" v="locality" />
		<tag k="ssr:stedsnr" v="574832" />
	</node>
	<node id="-32085" lat="59.6873694446" lon="10.4109972143">
		<tag k="name" v="Apalberget" />
		<tag k="natural" v="cape" />
		<tag k="ssr:stedsnr" v="572803" />
	</node>
	<node id="-32080" lat="59.7363305551" lon="10.5165500056">
		<tag k="name" v="Vollegrunnen" />
		<tag k="natural" v="shoal" />
		<tag k="place" v="locality" />
		<tag k="ssr:stedsnr" v="571133" />
	</node>
	<node id="-32079" lat="59.6999263981" lon="10.5388135755">
		<tag k="name" v="Engnesbukta" />
		<tag k="natural" v="bay" />
		<tag k="ssr:stedsnr" v="571131" />
	</node>
	<node id="-32078" lat="59.6946055545" lon="10.5185555468">
		<tag k="name" v="Lagerbukta" />
		<tag k="natural" v="bay" />
		<tag k="ssr:stedsnr" v="570810" />
	</node>
	<node id="-32077" lat="59.7015750028" lon="10.5248416725">
		<tag k="name" v="Gråøysundet" />
		<tag k="natural" v="strait" />
		<tag k="ssr:stedsnr" v="570809" />
	</node>
	<node id="-32075" lat="59.7727111107" lon="10.5071222293">
		<tag k="name" v="Grunnvikgrunnen" />
		<tag k="natural" v="shoal" />
		<tag k="place" v="locality" />
		<tag k="ssr:stedsnr" v="570501" />
	</node>
	<node id="-32074" lat="59.6846853519" lon="10.5320741716">
		<tag k="name" v="Sætrepollen" />
		<tag k="natural" v="bay" />
		<tag k="ssr:stedsnr" v="570795" />
	</node>
	<node id="-32073" lat="59.8460277788" lon="10.5067611146">
		<tag k="bay" v="fjord" />
		<tag k="name" v="Holmenfjorden" />
		<tag k="natural" v="bay" />
		<tag k="ssr:stedsnr" v="570398" />
	</node>
	<node id="-32072" lat="59.8545333359" lon="10.5170527861">
		<tag k="name" v="Knollen" />
		<tag k="natural" v="shoal" />
		<tag k="place" v="locality" />
		<tag k="ssr:stedsnr" v="569493" />
	</node>
	<node id="-32064" lat="59.8539250012" lon="10.496280559">
		<tag k="fixme" v="consider seamark:type=rock or natural=shoal" />
		<tag k="name" v="Presteskjær" />
		<tag k="place" v="islet" />
		<tag k="ssr:stedsnr" v="568470" />
	</node>
	<node id="-32047" lat="59.848449998" lon="10.5309611071">
		<tag k="name" v="Langåra" />
		<tag k="place" v="island" />
		<tag k="ssr:stedsnr" v="550769" />
	</node>
	<node id="-32042" lat="59.8078305586" lon="10.5507444426">
		<tag k="name" v="Storegrunnane" />
		<tag k="natural" v="shoal" />
		<tag k="place" v="locality" />
		<tag k="ssr:stedsnr" v="550698" />
	</node>
	<node id="-32029" lat="59.5342861125" lon="10.5320250085">
		<tag k="name" v="Sagene" />
		<tag k="natural" v="cape" />
		<tag k="ssr:stedsnr" v="549522" />
	</node>
	<node id="-32026" lat="59.5146583314" lon="10.5581222259">
		<tag k="name" v="Tofteholmen" />
		<tag k="place" v="islet" />
		<tag k="ssr:stedsnr" v="549484" />
	</node>
	<node id="-32021" lat="59.7231011104" lon="10.5186086025">
		<tag k="name" v="Båtstøbukta" />
		<tag k="natural" v="bay" />
		<tag k="ssr:stedsnr" v="544802" />
	</node>
	<node id="-32007" lat="59.7324849566" lon="10.5189141367">
		<tag k="name" v="Steinbergbukta" />
		<tag k="natural" v="bay" />
		<tag k="ssr:stedsnr" v="543113" />
	</node>
	<node id="-32006" lat="59.8091277796" lon="10.498675004">
		<tag k="name" v="Knerten" />
		<tag k="natural" v="shoal" />
		<tag k="place" v="locality" />
		<tag k="ssr:stedsnr" v="543235" />
	</node>
	<node id="-32005" lat="59.8296777791" lon="10.5111944395">
		<tag k="name" v="Bjerkøybukta" />
		<tag k="natural" v="bay" />
		<tag k="ssr:stedsnr" v="542927" />
	</node>
	<node id="-31990" lat="59.5620111115" lon="10.6040777754">
		<tag k="name" v="Engersvik" />
		<tag k="natural" v="bay" />
		<tag k="ssr:stedsnr" v="525658" />
	</node>
	<node id="-31985" lat="59.527136115" lon="10.4180055496">
		<tag k="name" v="Håvika" />
		<tag k="natural" v="bay" />
		<tag k="ssr:stedsnr" v="525083" />
	</node>
	<node id="-31983" lat="59.6590999968" lon="10.6096138818">
		<tag k="fixme" v="consider seamark:type=rock or natural=shoal" />
		<tag k="name" v="Storskjær" />
		<tag k="place" v="islet" />
		<tag k="ssr:stedsnr" v="429826" />
	</node>
	<node id="-31981" lat="59.8491666645" lon="10.5248388917">
		<tag k="name" v="Spannslokket" />
		<tag k="place" v="islet" />
		<tag k="ssr:stedsnr" v="429767" />
	</node>
	<node id="-31972" lat="59.723875003" lon="10.5340499957">
		<tag k="alt_name" v="Sundbyholmane" />
		<tag k="name" v="Sundbyholmene" />
		<tag k="place" v="islet" />
		<tag k="ssr:stedsnr" v="428787" />
	</node>
	<node id="-31970" lat="59.7434333334" lon="10.5340583326">
		<tag k="name" v="Østre Ramtongrunnen" />
		<tag k="natural" v="shoal" />
		<tag k="place" v="locality" />
		<tag k="ssr:stedsnr" v="428938" />
	</node>
	<node id="-31964" lat="59.5685980321" lon="10.613158402">
		<tag k="alt_name" v="Ekernbukta" />
		<tag k="name" v="Ekrebukta" />
		<tag k="natural" v="bay" />
		<tag k="ssr:stedsnr" v="428683" />
	</node>
	<node id="-31953" lat="59.5199055512" lon="10.4695250051">
		<tag k="alt_name" v="Røedsteigen" />
		<tag k="name" v="Rødsteigen" />
		<tag k="natural" v="beach" />
		<tag k="place" v="locality" />
		<tag k="ssr:stedsnr" v="423066" />
	</node>
	<node id="-31946" lat="59.7848111149" lon="10.5015416729">
		<tag k="name" v="Slemmestadleira" />
		<tag k="natural" v="bay" />
		<tag k="ssr:stedsnr" v="422169" />
	</node>
	<node id="-31944" lat="59.8196916662" lon="10.488236117">
		<tag k="fixme" v="consider seamark:type=rock or natural=shoal" />
		<tag k="name" v="Torsken" />
		<tag k="place" v="islet" />
		<tag k="ssr:stedsnr" v="421925" />
	</node>
	<node id="-31942" lat="59.8277111085" lon="10.4866499949">
		<tag k="name" v="Vettrebukta" />
		<tag k="natural" v="bay" />
		<tag k="ssr:stedsnr" v="421578" />
	</node>
	<node id="-31923" lat="59.6927694404" lon="10.5375000045">
		<tag k="name" v="Klausgrunnen" />
		<tag k="natural" v="shoal" />
		<tag k="place" v="locality" />
		<tag k="ssr:stedsnr" v="403737" />
	</node>
	<node id="-31915" lat="59.711053547" lon="10.3643315914">
		<tag k="name" v="Ytre Fiskebukt" />
		<tag k="natural" v="bay" />
		<tag k="ssr:stedsnr" v="390795" />
	</node>
	<node id="-31906" lat="59.7801333368" lon="10.5068000028">
		<tag k="name" v="Kista" />
		<tag k="natural" v="shoal" />
		<tag k="place" v="locality" />
		<tag k="ssr:stedsnr" v="388537" />
	</node>
	<node id="-31893" lat="59.8194307986" lon="10.4871602087">
		<tag k="fixme" v="consider seamark:type=rock or natural=shoal" />
		<tag k="name" v="Fliene" />
		<tag k="place" v="islet" />
		<tag k="ssr:stedsnr" v="386558" />
	</node>
	<node id="-30386" lat="59.8246111113" lon="10.5126666643">
		<tag k="fixme" v="consider seamark:type=rock or natural=shoal" />
		<tag k="name" v="Lille Bjerkøyskjær" />
		<tag k="place" v="islet" />
		<tag k="ssr:stedsnr" v="265544" />
	</node>
	<node id="-31876" lat="59.8713276449" lon="10.5457596398">
		<tag k="name" v="Kreierskjæret" />
		<tag k="place" v="islet" />
		<tag k="ssr:stedsnr" v="367797" />
	</node>
	<node id="-31862" lat="59.2149722232" lon="10.6363416708">
		<tag k="bay" v="fjord" />
		<tag k="name" v="Oslofjorden" />
		<tag k="natural" v="bay" />
		<tag k="ssr:stedsnr" v="365030" />
	</node>
	<node id="-31852" lat="59.846124997" lon="10.5295944394">
		<tag k="name" v="Fururyggen" />
		<tag k="place" v="locality" />
		<tag k="ssr:stedsnr" v="361650" />
	</node>
	<node id="-31847" lat="59.8368861134" lon="10.4894305618">
		<tag k="name" v="Løkeneslandet" />
		<tag k="natural" v="beach" />
		<tag k="place" v="locality" />
		<tag k="ssr:stedsnr" v="359630" />
	</node>
	<node id="-31831" lat="59.5630361075" lon="10.4286472164">
		<tag k="name" v="Trepottodden" />
		<tag k="natural" v="cape" />
		<tag k="ssr:stedsnr" v="341162" />
	</node>
	<node id="-31829" lat="59.5246000012" lon="10.5113972305">
		<tag k="name" v="Østnestangen" />
		<tag k="natural" v="cape" />
		<tag k="ssr:stedsnr" v="331078" />
	</node>
	<node id="-31828" lat="59.5499083363" lon="10.4185361109">
		<tag k="alt_name" v="Arnestø" />
		<tag k="name" v="Arnestøa" />
		<tag k="natural" v="cape" />
		<tag k="ssr:stedsnr" v="331075" />
	</node>
	<node id="-31826" lat="59.7101360805" lon="10.3756468794">
		<tag k="name" v="Bukta" />
		<tag k="natural" v="bay" />
		<tag k="ssr:stedsnr" v="330856" />
	</node>
	<node id="-31817" lat="59.610136108" lon="10.411097222">
		<tag k="name" v="Svelvikstrømmen" />
		<tag k="natural" v="strait" />
		<tag k="ssr:stedsnr" v="328756" />
	</node>
	<node id="-31816" lat="59.721941671" lon="10.5218388906">
		<tag k="name" v="Båtstøbåen" />
		<tag k="natural" v="shoal" />
		<tag k="place" v="locality" />
		<tag k="ssr:stedsnr" v="328129" />
	</node>
	<node id="-31815" lat="59.684844444" lon="10.5378472238">
		<tag k="name" v="Bjørnnes" />
		<tag k="natural" v="cape" />
		<tag k="ssr:stedsnr" v="327756" />
	</node>
	<node id="-31811" lat="59.8421138867" lon="10.4873194503">
		<tag k="name" v="Hvalstrand bad" />
		<tag k="natural" v="beach" />
		<tag k="place" v="locality" />
		<tag k="ssr:stedsnr" v="326677" />
	</node>
	<node id="-31810" lat="59.8186805599" lon="10.4835999984">
		<tag k="name" v="Blakstadtangen" />
		<tag k="natural" v="cape" />
		<tag k="ssr:stedsnr" v="326597" />
	</node>
	<node id="-31803" lat="59.8682820973" lon="10.5059387981">
		<tag k="name" v="Breivika" />
		<tag k="natural" v="bay" />
		<tag k="ssr:stedsnr" v="326522" />
	</node>
	<node id="-31802" lat="59.8678611114" lon="10.509486109">
		<tag k="name" v="Kuholmene" />
		<tag k="place" v="islet" />
		<tag k="ssr:stedsnr" v="326520" />
	</node>
	<node id="-31788" lat="59.7636916679" lon="10.5142277823">
		<tag k="name" v="Nærsnestangen" />
		<tag k="natural" v="cape" />
		<tag k="ssr:stedsnr" v="308607" />
	</node>
	<node id="-31787" lat="59.7665777674" lon="10.5069295092">
		<tag k="name" v="Nærsnesbukta" />
		<tag k="natural" v="bay" />
		<tag k="ssr:stedsnr" v="308605" />
	</node>
	<node id="-31783" lat="59.670936108" lon="10.5741027741">
		<tag k="name" v="Rognholmen" />
		<tag k="place" v="islet" />
		<tag k="ssr:stedsnr" v="307859" />
	</node>
	<node id="-31781" lat="59.8604804525" lon="10.5311274811">
		<tag k="name" v="Vendelsund" />
		<tag k="natural" v="strait" />
		<tag k="ssr:stedsnr" v="307798" />
	</node>
	<node id="-31778" lat="59.8571863242" lon="10.5621349418">
		<tag k="alt_name" v="Viernrenna" />
		<tag k="name" v="Vierrenna" />
		<tag k="natural" v="strait" />
		<tag k="ssr:stedsnr" v="307783" />
	</node>
	<node id="-31767" lat="59.713702796" lon="10.3680592128">
		<tag k="name" v="Hyggenvika" />
		<tag k="natural" v="bay" />
		<tag k="ssr:stedsnr" v="306785" />
	</node>
	<node id="-31765" lat="59.6948500004" lon="10.5226277855">
		<tag k="name" v="Killingholmen" />
		<tag k="place" v="island" />
		<tag k="ssr:stedsnr" v="306743" />
	</node>
	<node id="-31753" lat="59.7115901184" lon="10.3364279654">
		<tag k="name" v="Kinnartangen" />
		<tag k="natural" v="cape" />
		<tag k="ssr:stedsnr" v="306263" />
	</node>
	<node id="-31742" lat="59.5226553736" lon="10.4758874762">
		<tag k="alt_name" v="Knatvoldstranda" />
		<tag k="name" v="Knattvollstranda" />
		<tag k="natural" v="bay" />
		<tag k="ssr:stedsnr" v="210090" />
	</node>
	<node id="-31731" lat="59.7817805525" lon="10.5048000027">
		<tag k="name" v="Skonroken" />
		<tag k="place" v="islet" />
		<tag k="ssr:stedsnr" v="208344" />
	</node>
	<node id="-31730" lat="59.7805083373" lon="10.5048611109">
		<tag k="name" v="Kavringen" />
		<tag k="place" v="islet" />
		<tag k="ssr:stedsnr" v="208341" />
	</node>
	<node id="-31722" lat="59.5512138877" lon="10.5864916749">
		<tag k="alt_name" v="Røedsodden" />
		<tag k="name" v="Rødsodden" />
		<tag k="natural" v="cape" />
		<tag k="ssr:stedsnr" v="207845" />
	</node>
	<node id="-31720" lat="59.6723638872" lon="10.5722555577">
		<tag k="name" v="Rognholmbåen" />
		<tag k="natural" v="shoal" />
		<tag k="place" v="locality" />
		<tag k="ssr:stedsnr" v="206872" />
	</node>
	<node id="-31719" lat="59.7121498138" lon="10.3477038249">
		<tag k="name" v="Jonsbubukta" />
		<tag k="natural" v="bay" />
		<tag k="ssr:stedsnr" v="206574" />
	</node>
	<node id="-31718" lat="59.8538916644" lon="10.551247218">
		<tag k="name" v="Nordre Langåra" />
		<tag k="natural" v="cape" />
		<tag k="ssr:stedsnr" v="206425" />
	</node>
	<node id="-31706" lat="59.8403555523" lon="10.5134055522">
		<tag k="name" v="Østbukta" />
		<tag k="natural" v="bay" />
		<tag k="ssr:stedsnr" v="205579" />
	</node>
	<node id="-31705" lat="59.8026472218" lon="10.4966111168">
		<tag k="fixme" v="multiple name tags, choose one and add the other to alt_name" />
		<tag k="name" v="Arnestadbukta;Hagabukta" />
		<tag k="natural" v="bay" />
		<tag k="ssr:stedsnr" v="205571" />
	</node>
	<node id="-31698" lat="59.8098166697" lon="10.4865666725">
		<tag k="fixme" v="consider seamark:type=rock or natural=shoal" />
		<tag k="name" v="Skjæret" />
		<tag k="place" v="islet" />
		<tag k="ssr:stedsnr" v="204689" />
	</node>
	<node id="-31687" lat="59.8660519161" lon="10.5556464241">
		<tag k="name" v="Store Ostsund" />
		<tag k="natural" v="strait" />
		<tag k="ssr:stedsnr" v="186828" />
	</node>
	<node id="-31666" lat="59.6893416624" lon="10.5300277779">
		<tag k="name" v="Torvøya" />
		<tag k="place" v="island" />
		<tag k="ssr:stedsnr" v="185741" />
	</node>
	<node id="-31665" lat="59.6864749999" lon="10.5484000084">
		<tag k="alt_name" v="Raudholmane" />
		<tag k="name" v="Rauholmene" />
		<tag k="place" v="islet" />
		<tag k="ssr:stedsnr" v="185740" />
	</node>
	<node id="-31631" lat="59.6638138923" lon="10.5826666648">
		<tag k="name" v="Lagbukta" />
		<tag k="natural" v="bay" />
		<tag k="ssr:stedsnr" v="161328" />
	</node>
	<node id="-31627" lat="59.5177833316" lon="10.4968694421">
		<tag k="name" v="Reierhausen" />
		<tag k="place" v="locality" />
		<tag k="ssr:stedsnr" v="149981" />
	</node>
	<node id="-31626" lat="59.5508805564" lon="10.4133750045">
		<tag k="name" v="Støaflaket" />
		<tag k="natural" v="shoal" />
		<tag k="place" v="locality" />
		<tag k="ssr:stedsnr" v="149082" />
	</node>
	<node id="-31617" lat="59.8583748538" lon="10.5545176199">
		<tag k="name" v="Viern" />
		<tag k="natural" v="bay" />
		<tag k="ssr:stedsnr" v="145451" />
	</node>
	<node id="-31613" lat="59.8512333365" lon="10.5253638811">
		<tag k="name" v="Katterompa" />
		<tag k="place" v="islet" />
		<tag k="ssr:stedsnr" v="144549" />
	</node>
	<node id="-31600" lat="59.8340055593" lon="10.4808500024">
		<tag k="name" v="Hvitfisken" />
		<tag k="natural" v="beach" />
		<tag k="place" v="locality" />
		<tag k="ssr:stedsnr" v="143650" />
	</node>
	<node id="-31592" lat="59.8617767777" lon="10.5067928242">
		<tag k="name" v="Nesbukta" />
		<tag k="natural" v="bay" />
		<tag k="ssr:stedsnr" v="143488" />
	</node>
	<node id="-31591" lat="59.8563333373" lon="10.5257444475">
		<tag k="name" v="Sandbukta" />
		<tag k="natural" v="bay" />
		<tag k="ssr:stedsnr" v="143485" />
	</node>
	<node id="-31589" lat="59.8420305523" lon="10.529152772">
		<tag k="fixme" v="consider seamark:type=rock or natural=shoal" />
		<tag k="name" v="Djupalen" />
		<tag k="place" v="islet" />
		<tag k="ssr:stedsnr" v="126741" />
	</node>
	<node id="-31587" lat="59.815513886" lon="10.5276361051">
		<tag k="name" v="Knollen" />
		<tag k="natural" v="shoal" />
		<tag k="place" v="locality" />
		<tag k="ssr:stedsnr" v="126714" />
	</node>
	<node id="-31584" lat="59.8289859219" lon="10.5081034949">
		<tag k="name" v="Bjerkøya" />
		<tag k="place" v="island" />
		<tag k="ssr:stedsnr" v="126690" />
	</node>
	<node id="-31575" lat="59.8455638922" lon="10.4986194425">
		<tag k="fixme" v="consider seamark:type=rock or natural=shoal" />
		<tag k="name" v="Hvalskjær" />
		<tag k="place" v="islet" />
		<tag k="ssr:stedsnr" v="125796" />
	</node>
	<node id="-31553" lat="59.5209444426" lon="10.5461444435">
		<tag k="name" v="Vealøs" />
		<tag k="place" v="islet" />
		<tag k="ssr:stedsnr" v="124462" />
	</node>
	<node id="-31552" lat="59.518169445" lon="10.5341361166">
		<tag k="alt_name" v="Ranvikholmen" />
		<tag k="name" v="Ramvikholmen" />
		<tag k="place" v="islet" />
		<tag k="ssr:stedsnr" v="124458" />
	</node>
	<node id="-31551" lat="59.5359305563" lon="10.5403416613">
		<tag k="name" v="Bakkestranda" />
		<tag k="natural" v="beach" />
		<tag k="place" v="locality" />
		<tag k="ssr:stedsnr" v="120613" />
	</node>
	<node id="-31548" lat="59.8569277822" lon="10.515752772">
		<tag k="name" v="Trettodden" />
		<tag k="natural" v="cape" />
		<tag k="ssr:stedsnr" v="118573" />
	</node>
	<node id="-31543" lat="59.7920611086" lon="10.5052888839">
		<tag k="name" v="Stabben" />
		<tag k="natural" v="shoal" />
		<tag k="place" v="locality" />
		<tag k="ssr:stedsnr" v="118186" />
	</node>
	<node id="-31519" lat="59.5386027791" lon="10.4117138869">
		<tag k="alt_name" v="Holtnestangen" />
		<tag k="name" v="Holtnesodden" />
		<tag k="natural" v="cape" />
		<tag k="old_name" v="Holtnestodden" />
		<tag k="ssr:stedsnr" v="89101" />
	</node>
	<node id="-31518" lat="59.770872226" lon="10.5033583316">
		<tag k="name" v="Hiken" />
		<tag k="natural" v="bay" />
		<tag k="ssr:stedsnr" v="88828" />
	</node>
	<node id="-31514" lat="59.7616333341" lon="10.506427778">
		<tag k="name" v="Saltbutangen" />
		<tag k="natural" v="cape" />
		<tag k="ssr:stedsnr" v="88276" />
	</node>
	<node id="-31511" lat="59.6905253063" lon="10.4018847862">
		<tag k="name" v="Jerdalsbukta" />
		<tag k="natural" v="bay" />
		<tag k="ssr:stedsnr" v="87782" />
	</node>
	<node id="-31509" lat="59.774441664" lon="10.505880558">
		<tag k="name" v="Puta" />
		<tag k="place" v="islet" />
		<tag k="ssr:stedsnr" v="87334" />
	</node>
	<node id="-31506" lat="59.755213892" lon="10.5330722173">
		<tag k="name" v="Furugrunnane" />
		<tag k="natural" v="shoal" />
		<tag k="place" v="locality" />
		<tag k="ssr:stedsnr" v="86150" />
	</node>
	<node id="-31505" lat="59.7085305574" lon="10.5391333404">
		<tag k="name" v="Gråøyrenna" />
		<tag k="natural" v="strait" />
		<tag k="ssr:stedsnr" v="86127" />
	</node>
	<node id="-31502" lat="59.5783222227" lon="10.6186472291">
		<tag k="alt_name" v="Kobberskjærodden" />
		<tag k="name" v="Kobbeskjær" />
		<tag k="natural" v="cape" />
		<tag k="ssr:stedsnr" v="85635" />
	</node>
	<node id="-31485" lat="59.5655741975" lon="10.6107907114">
		<tag k="fixme" v="consider seamark:type=rock or natural=shoal" />
		<tag k="name" v="Sørstrandskjæra" />
		<tag k="place" v="islet" />
		<tag k="ssr:stedsnr" v="300331" />
	</node>
	<node id="-31472" lat="59.7230583331" lon="10.5267416623">
		<tag k="alt_name" v="Midgrunnen" />
		<tag k="name" v="Midtgrunnen" />
		<tag k="natural" v="shoal" />
		<tag k="place" v="locality" />
		<tag k="ssr:stedsnr" v="64800" />
	</node>
	<node id="-31467" lat="59.6241111099" lon="10.5190555621">
		<tag k="name" v="Hurum" />
		<tag k="natural" v="cape" />
		<tag k="ssr:stedsnr" v="64662" />
	</node>
	<node id="-31449" lat="59.6796888862" lon="10.5324083362">
		<tag k="name" v="Øra" />
		<tag k="natural" v="bay" />
		<tag k="ssr:stedsnr" v="59304" />
	</node>
	<node id="-31445" lat="59.7110609697" lon="10.5232968929">
		<tag k="name" v="Orebukta" />
		<tag k="natural" v="bay" />
		<tag k="ssr:stedsnr" v="58746" />
	</node>
	<node id="-31441" lat="59.5401499988" lon="10.5524916639">
		<tag k="alt_name" v="Smerlingstranda" />
		<tag k="name" v="Smelingsstranda" />
		<tag k="natural" v="beach" />
		<tag k="place" v="locality" />
		<tag k="ssr:stedsnr" v="58619" />
	</node>
	<node id="-31437" lat="59.7259472214" lon="10.5351638859">
		<tag k="name" v="Nordre Sundbyholmen" />
		<tag k="place" v="islet" />
		<tag k="ssr:stedsnr" v="58110" />
	</node>
	<node id="-31412" lat="59.5513027746" lon="10.5842666733">
		<tag k="alt_name" v="Ramvik;Ramsvika" />
		<tag k="name" v="Ramsvik" />
		<tag k="natural" v="bay" />
		<tag k="ssr:stedsnr" v="28896" />
	</node>
	<node id="-31411" lat="59.5235694428" lon="10.4476833253">
		<tag k="name" v="Skjøttelvika" />
		<tag k="natural" v="bay" />
		<tag k="ssr:stedsnr" v="28832" />
	</node>
	<node id="-31408" lat="59.5470636784" lon="10.4187109312">
		<tag k="name" v="Trollebogen" />
		<tag k="natural" v="bay" />
		<tag k="ssr:stedsnr" v="28095" />
	</node>
	<node id="-31396" lat="59.7655638856" lon="10.5013833363">
		<tag k="name" v="Morbergholmen" />
		<tag k="place" v="islet" />
		<tag k="ssr:stedsnr" v="27343" />
	</node>
	<node id="-31395" lat="59.7648472251" lon="10.5128472298">
		<tag k="fixme" v="consider seamark:type=rock or natural=shoal" />
		<tag k="name" v="Skjæra" />
		<tag k="place" v="islet" />
		<tag k="ssr:stedsnr" v="27341" />
	</node>
	<node id="-31390" lat="59.6354777771" lon="10.4303416601">
		<tag k="name" v="Sandodden" />
		<tag k="natural" v="beach" />
		<tag k="place" v="locality" />
		<tag k="ssr:stedsnr" v="25854" />
	</node>
	<node id="-31389" lat="59.6840888904" lon="10.550833331">
		<tag k="bay" v="fjord" />
		<tag k="name" v="Håøyfjorden" />
		<tag k="natural" v="bay" />
		<tag k="ssr:stedsnr" v="25086" />
	</node>
	<node id="-31387" lat="59.678830552" lon="10.4211055584">
		<tag k="name" v="Haken" />
		<tag k="natural" v="shoal" />
		<tag k="place" v="locality" />
		<tag k="ssr:stedsnr" v="24846" />
	</node>
	<node id="-31386" lat="59.7875944437" lon="10.5093277732">
		<tag k="name" v="Slemmestadgrunnen" />
		<tag k="natural" v="shoal" />
		<tag k="place" v="locality" />
		<tag k="ssr:stedsnr" v="24599" />
	</node>
	<node id="-31385" lat="59.8320861111" lon="10.4968000037">
		<tag k="name" v="Spireodden" />
		<tag k="natural" v="cape" />
		<tag k="ssr:stedsnr" v="24455" />
	</node>
	<node id="-31366" lat="59.8174333377" lon="10.4858305635">
		<tag k="alt_name" v="Odden" />
		<tag k="name" v="Østenstadodden" />
		<tag k="natural" v="cape" />
		<tag k="ssr:stedsnr" v="5728" />
	</node>
	<node id="-31342" lat="59.6928722206" lon="10.531852786">
		<tag k="name" v="Hjelp" />
		<tag k="place" v="islet" />
		<tag k="ssr:stedsnr" v="3747" />
	</node>
	<node id="-31320" lat="59.7203527765" lon="10.5310666662">
		<tag k="name" v="Løkeberggrunnen" />
		<tag k="natural" v="shoal" />
		<tag k="place" v="locality" />
		<tag k="ssr:stedsnr" v="968821" />
	</node>
	<node id="-31319" lat="59.7388777757" lon="10.5174305467">
		<tag k="name" v="Høvikgrunnen" />
		<tag k="natural" v="shoal" />
		<tag k="place" v="locality" />
		<tag k="ssr:stedsnr" v="968108" />
	</node>
	<node id="-31317" lat="59.8197277742" lon="10.4826722304">
		<tag k="name" v="Dynga" />
		<tag k="natural" v="bay" />
		<tag k="ssr:stedsnr" v="966920" />
	</node>
	<node id="-31310" lat="59.729326717" lon="10.5198603828">
		<tag k="name" v="Demmekilen" />
		<tag k="natural" v="bay" />
		<tag k="ssr:stedsnr" v="937941" />
	</node>
	<node id="-31301" lat="59.6778852022" lon="10.5527971239">
		<tag k="alt_name" v="Skollvika" />
		<tag k="name" v="Skålevika" />
		<tag k="natural" v="bay" />
		<tag k="ssr:stedsnr" v="935830" />
	</node>
	<node id="-31300" lat="59.7152055542" lon="10.3282111111">
		<tag k="name" v="Kusteinbukta" />
		<tag k="natural" v="bay" />
		<tag k="ssr:stedsnr" v="935612" />
	</node>
	<node id="-31299" lat="59.7569861124" lon="10.5143000009">
		<tag k="name" v="Baku" />
		<tag k="natural" v="cape" />
		<tag k="ssr:stedsnr" v="934617" />
	</node>
	<node id="-31287" lat="59.5205750037" lon="10.4334250075">
		<tag k="fixme" v="consider seamark:type=rock or natural=shoal" />
		<tag k="name" v="Solfjellskjæret" />
		<tag k="old_name" v="Solfjellskjær" />
		<tag k="place" v="islet" />
		<tag k="ssr:stedsnr" v="913508" />
	</node>
	<node id="-31284" lat="59.7648944444" lon="10.5091583283">
		<tag k="name" v="Persgrunnen" />
		<tag k="natural" v="shoal" />
		<tag k="place" v="locality" />
		<tag k="ssr:stedsnr" v="907123" />
	</node>
	<node id="-31281" lat="59.573077782" lon="10.4167138919">
		<tag k="name" v="Furugrunnen" />
		<tag k="natural" v="shoal" />
		<tag k="place" v="locality" />
		<tag k="ssr:stedsnr" v="877815" />
	</node>
	<node id="-31279" lat="59.6535361107" lon="10.4363805524">
		<tag k="alt_name" v="Selvigstranda" />
		<tag k="name" v="Selvikstranda" />
		<tag k="natural" v="beach" />
		<tag k="place" v="locality" />
		<tag k="ssr:stedsnr" v="874854" />
	</node>
	<node id="-31274" lat="59.840158331" lon="10.5146555577">
		<tag k="name" v="Skjærodden" />
		<tag k="natural" v="cape" />
		<tag k="ssr:stedsnr" v="872566" />
	</node>
	<node id="-31273" lat="59.8649280414" lon="10.5121586034">
		<tag k="name" v="Tobakkshølet" />
		<tag k="natural" v="bay" />
		<tag k="ssr:stedsnr" v="872522" />
	</node>
	<node id="-31265" lat="59.8079250024" lon="10.524255548">
		<tag k="name" v="Sanden" />
		<tag k="natural" v="shoal" />
		<tag k="place" v="locality" />
		<tag k="ssr:stedsnr" v="855763" />
	</node>
	<node id="-31264" lat="59.8231250035" lon="10.4924694465">
		<tag k="name" v="Kråkholmen" />
		<tag k="place" v="islet" />
		<tag k="ssr:stedsnr" v="855761" />
	</node>
	<node id="-31263" lat="59.8178916635" lon="10.4889555478">
		<tag k="name" v="Børsholmen" />
		<tag k="place" v="islet" />
		<tag k="ssr:stedsnr" v="855759" />
	</node>
	<node id="-31261" lat="59.8554611113" lon="10.5563694512">
		<tag k="name" v="Hareholmen" />
		<tag k="place" v="islet" />
		<tag k="ssr:stedsnr" v="854779" />
	</node>
	<node id="-31258" lat="59.8463500004" lon="10.5403833354">
		<tag k="fixme" v="consider seamark:type=rock or natural=shoal" />
		<tag k="name" v="Skaueren" />
		<tag k="place" v="islet" />
		<tag k="ssr:stedsnr" v="854756" />
	</node>
	<node id="-31257" lat="59.7769472182" lon="10.5076972185">
		<tag k="fixme" v="consider seamark:type=rock or natural=shoal" />
		<tag k="name" v="Flåskjæret" />
		<tag k="place" v="islet" />
		<tag k="ssr:stedsnr" v="854663" />
	</node>
	<node id="-31249" lat="59.5599638924" lon="10.4179166708">
		<tag k="alt_name" v="Holmsbusteinene" />
		<tag k="fixme" v="consider seamark:type=rock or natural=shoal" />
		<tag k="name" v="Holmsbusteinane" />
		<tag k="place" v="islet" />
		<tag k="ssr:stedsnr" v="853677" />
	</node>
	<node id="-31246" lat="59.6827532195" lon="10.4257884458">
		<tag k="name" v="Grimsrudbukta" />
		<tag k="natural" v="bay" />
		<tag k="ssr:stedsnr" v="853856" />
	</node>
	<node id="-31240" lat="59.5239397128" lon="10.4833786347">
		<tag k="name" v="Ertsvika" />
		<tag k="natural" v="bay" />
		<tag k="ssr:stedsnr" v="852516" />
	</node>
	<node id="-31239" lat="59.7268388911" lon="10.5294944521">
		<tag k="name" v="Berentsgrunnen" />
		<tag k="natural" v="shoal" />
		<tag k="place" v="locality" />
		<tag k="ssr:stedsnr" v="847814" />
	</node>
	<node id="-31237" lat="59.5263555532" lon="10.5482833337">
		<tag k="name" v="Vealøsgrunnen" />
		<tag k="natural" v="shoal" />
		<tag k="place" v="locality" />
		<tag k="ssr:stedsnr" v="938801" />
	</node>
	<node id="-31233" lat="59.638977782" lon="10.604380562">
		<tag k="name" v="Rødtangen" />
		<tag k="natural" v="cape" />
		<tag k="ssr:stedsnr" v="936900" />
	</node>
	<node id="-31232" lat="59.7104387153" lon="10.3571270688">
		<tag k="name" v="Fagervika" />
		<tag k="natural" v="bay" />
		<tag k="ssr:stedsnr" v="936776" />
	</node>
	<node id="-31228" lat="59.6769305545" lon="10.5621694361">
		<tag k="name" v="Furuholmbåen" />
		<tag k="natural" v="shoal" />
		<tag k="place" v="locality" />
		<tag k="ssr:stedsnr" v="934862" />
	</node>
	<node id="-31218" lat="59.8758500002" lon="10.5405555544">
		<tag k="fixme" v="consider seamark:type=rock or natural=shoal" />
		<tag k="name" v="Ulvungene" />
		<tag k="place" v="islet" />
		<tag k="ssr:stedsnr" v="933595" />
	</node>
	<node id="-31216" lat="59.842613888" lon="10.4909555533">
		<tag k="name" v="Hvalstrand bad" />
		<tag k="natural" v="beach" />
		<tag k="place" v="locality" />
		<tag k="ssr:stedsnr" v="933571" />
	</node>
	<node id="-31215" lat="59.8398444465" lon="10.514783329">
		<tag k="name" v="Utskuddet" />
		<tag k="natural" v="cape" />
		<tag k="ssr:stedsnr" v="933570" />
	</node>
	<node id="-31214" lat="59.8526694483" lon="10.4968805512">
		<tag k="name" v="Furunesodden" />
		<tag k="natural" v="cape" />
		<tag k="ssr:stedsnr" v="933558" />
	</node>
	<node id="-31213" lat="59.8552472223" lon="10.550141661">
		<tag k="name" v="Middagsbukta" />
		<tag k="natural" v="bay" />
		<tag k="ssr:stedsnr" v="933555" />
	</node>
	<node id="-31201" lat="59.702313892" lon="10.5204694371">
		<tag k="name" v="Verven" />
		<tag k="natural" v="cape" />
		<tag k="ssr:stedsnr" v="815975" />
	</node>
	<node id="-31191" lat="59.5394249815" lon="10.5538208068">
		<tag k="loc_name" v="Smælingen" />
		<tag k="name" v="Smelingen" />
		<tag k="natural" v="bay" />
		<tag k="ssr:stedsnr" v="814862" />
	</node>
	<node id="-31184" lat="59.7467000012" lon="10.5213583288">
		<tag k="name" v="Nordre Ramtongrunnen" />
		<tag k="natural" v="shoal" />
		<tag k="place" v="locality" />
		<tag k="ssr:stedsnr" v="792954" />
	</node>
	<node id="-31173" lat="59.7925027811" lon="10.514575001">
		<tag k="name" v="Torsteingrunnen" />
		<tag k="natural" v="shoal" />
		<tag k="place" v="locality" />
		<tag k="ssr:stedsnr" v="786209" />
	</node>
	<node id="-31151" lat="59.6954027786" lon="10.5365555496">
		<tag k="name" v="Kleinsgrunnen" />
		<tag k="natural" v="shoal" />
		<tag k="place" v="locality" />
		<tag k="ssr:stedsnr" v="767730" />
	</node>
	<node id="-31147" lat="59.4943055584" lon="10.4759000046">
		<tag k="bay" v="fjord" />
		<tag k="name" v="Breiangen" />
		<tag k="natural" v="bay" />
		<tag k="ssr:stedsnr" v="913913" />
	</node>
	<node id="-31137" lat="59.5195750042" lon="10.489602786">
		<tag k="fixme" v="consider seamark:type=rock or natural=shoal" />
		<tag k="name" v="Ertsvikskjæret" />
		<tag k="place" v="islet" />
		<tag k="ssr:stedsnr" v="913486" />
	</node>
	<node id="-31134" lat="59.5839475412" lon="10.4355919954">
		<tag k="name" v="Knivsvika" />
		<tag k="natural" v="bay" />
		<tag k="ssr:stedsnr" v="753911" />
	</node>
	<node id="-31125" lat="59.7179611125" lon="10.5206805489">
		<tag k="name" v="Rundeskjæret" />
		<tag k="natural" v="cape" />
		<tag k="ssr:stedsnr" v="908843" />
	</node>
	<node id="-31119" lat="59.6633194412" lon="10.5842944376">
		<tag k="name" v="Laget" />
		<tag k="natural" v="bay" />
		<tag k="ssr:stedsnr" v="907873" />
	</node>
	<node id="-31118" lat="59.6651111149" lon="10.5832611144">
		<tag k="name" v="Lagtangen" />
		<tag k="natural" v="cape" />
		<tag k="ssr:stedsnr" v="907871" />
	</node>
	<node id="-31117" lat="59.8630155799" lon="10.5117981901">
		<tag k="name" v="Nesbukta" />
		<tag k="natural" v="bay" />
		<tag k="ssr:stedsnr" v="907569" />
	</node>
	<node id="-31116" lat="59.7078798114" lon="10.5285317945">
		<tag k="name" v="Lindbukta" />
		<tag k="natural" v="bay" />
		<tag k="ssr:stedsnr" v="907784" />
	</node>
	<node id="-31115" lat="59.5633472486" lon="10.6067927151">
		<tag k="name" v="Båsen" />
		<tag k="natural" v="bay" />
		<tag k="ssr:stedsnr" v="907268" />
	</node>
	<node id="-31109" lat="59.6234480187" lon="10.4348300601">
		<tag k="name" v="Dramstadbukta" />
		<tag k="natural" v="bay" />
		<tag k="ssr:stedsnr" v="731629" />
	</node>
	<node id="-31102" lat="59.8508138872" lon="10.5309500031">
		<tag k="fixme" v="consider seamark:type=rock or natural=shoal" />
		<tag k="name" v="Skurven" />
		<tag k="place" v="islet" />
		<tag k="ssr:stedsnr" v="725562" />
	</node>
	<node id="-31086" lat="59.6007638907" lon="10.4361638907">
		<tag k="name" v="Voldenbukta" />
		<tag k="natural" v="bay" />
		<tag k="ssr:stedsnr" v="892487" />
	</node>
	<node id="-31080" lat="59.6786027796" lon="10.5515749915">
		<tag k="name" v="Fattigmannsholmen" />
		<tag k="place" v="islet" />
		<tag k="ssr:stedsnr" v="890315" />
	</node>
	<node id="-31078" lat="59.6949111128" lon="10.5310249922">
		<tag k="name" v="Hjelpgrunnen" />
		<tag k="natural" v="shoal" />
		<tag k="place" v="locality" />
		<tag k="ssr:stedsnr" v="889735" />
	</node>
	<node id="-31071" lat="59.5213957845" lon="10.4425516325">
		<tag k="name" v="Korrvik" />
		<tag k="natural" v="bay" />
		<tag k="ssr:stedsnr" v="889095" />
	</node>
	<node id="-31069" lat="59.522511113" lon="10.4516805624">
		<tag k="name" v="Verven" />
		<tag k="natural" v="beach" />
		<tag k="place" v="locality" />
		<tag k="ssr:stedsnr" v="888049" />
	</node>
	<node id="-31065" lat="59.5405972235" lon="10.4132472269">
		<tag k="name" v="Holtnesstøa" />
		<tag k="natural" v="bay" />
		<tag k="ssr:stedsnr" v="878832" />
	</node>
	<node id="-31060" lat="59.5435722184" lon="10.4146611158">
		<tag k="name" v="Blåbærhavna" />
		<tag k="natural" v="cape" />
		<tag k="ssr:stedsnr" v="878097" />
	</node>
	<node id="-31050" lat="59.7764416659" lon="10.5046222296">
		<tag k="name" v="Skurven" />
		<tag k="place" v="islet" />
		<tag k="ssr:stedsnr" v="876341" />
	</node>
	<node id="-31037" lat="59.8336694489" lon="10.5279694467">
		<tag k="name" v="Bjerkøygrunnen" />
		<tag k="natural" v="shoal" />
		<tag k="place" v="locality" />
		<tag k="ssr:stedsnr" v="733691" />
	</node>
	<node id="-31035" lat="59.7741861089" lon="10.5061555582">
		<tag k="fixme" v="consider seamark:type=rock or natural=shoal" />
		<tag k="name" v="Dyna" />
		<tag k="place" v="islet" />
		<tag k="ssr:stedsnr" v="733664" />
	</node>
	<node id="-31034" lat="59.7781138847" lon="10.5394416679">
		<tag k="alt_name" v="Håmerrgrunnen" />
		<tag k="name" v="Håmargrunnen" />
		<tag k="natural" v="shoal" />
		<tag k="place" v="locality" />
		<tag k="ssr:stedsnr" v="733662" />
	</node>
	<node id="-31029" lat="59.8643555572" lon="10.5094833276">
		<tag k="name" v="Hestesund" />
		<tag k="natural" v="strait" />
		<tag k="ssr:stedsnr" v="732811" />
	</node>
	<node id="-31024" lat="59.8771346233" lon="10.536348706">
		<tag k="fixme" v="consider seamark:type=rock or natural=shoal" />
		<tag k="name" v="Ulykkesskjær" />
		<tag k="place" v="islet" />
		<tag k="ssr:stedsnr" v="731828" />
	</node>
	<node id="-31014" lat="59.7178972202" lon="10.3120722231">
		<tag k="name" v="Lahellholmen" />
		<tag k="place" v="islet" />
		<tag k="ssr:stedsnr" v="731237" />
	</node>
	<node id="-31003" lat="59.6695352713" lon="10.573000739">
		<tag k="fixme" v="multiple name tags, choose one and add the other to alt_name" />
		<tag k="name" v="Verpentangen;Tangen" />
		<tag k="natural" v="cape" />
		<tag k="ssr:stedsnr" v="630855" />
	</node>
	<node id="-31002" lat="59.5659083375" lon="10.4288027747">
		<tag k="fixme" v="consider seamark:type=rock or natural=shoal" />
		<tag k="name" v="Selskjæret" />
		<tag k="place" v="islet" />
		<tag k="ssr:stedsnr" v="630919" />
	</node>
	<node id="-31001" lat="59.818647222" lon="10.5003888855">
		<tag k="name" v="Koiaberget" />
		<tag k="natural" v="shoal" />
		<tag k="place" v="locality" />
		<tag k="ssr:stedsnr" v="630503" />
	</node>
	<node id="-30995" lat="59.8548138897" lon="10.4961694525">
		<tag k="name" v="Holmenskjæret" />
		<tag k="natural" v="cape" />
		<tag k="ssr:stedsnr" v="629512" />
	</node>
	<node id="-30992" lat="59.5207083307" lon="10.4904527805">
		<tag k="name" v="Kattsundet" />
		<tag k="natural" v="strait" />
		<tag k="ssr:stedsnr" v="727073" />
	</node>
	<node id="-30984" lat="59.7099583331" lon="10.5299333395">
		<tag k="name" v="Gråøyodden" />
		<tag k="natural" v="cape" />
		<tag k="ssr:stedsnr" v="725787" />
	</node>
	<node id="-30978" lat="59.7827027789" lon="10.5020166745">
		<tag k="name" v="Slemmestadodden" />
		<tag k="natural" v="cape" />
		<tag k="ssr:stedsnr" v="725152" />
	</node>
	<node id="-30977" lat="59.7432361147" lon="10.5149249918">
		<tag k="name" v="Ramtonsundet" />
		<tag k="natural" v="strait" />
		<tag k="ssr:stedsnr" v="725114" />
	</node>
	<node id="-30976" lat="59.8191527812" lon="10.4859638871">
		<tag k="fixme" v="consider seamark:type=rock or natural=shoal" />
		<tag k="name" v="Flyndra" />
		<tag k="place" v="islet" />
		<tag k="ssr:stedsnr" v="724930" />
	</node>
	<node id="-30973" lat="59.8340805568" lon="10.4732999927">
		<tag k="name" v="Tangen" />
		<tag k="natural" v="cape" />
		<tag k="ssr:stedsnr" v="611788" />
	</node>
	<node id="-30965" lat="59.847188886" lon="10.5199861052">
		<tag k="fixme" v="consider seamark:type=rock or natural=shoal" />
		<tag k="name" v="Sværslepene" />
		<tag k="place" v="islet" />
		<tag k="ssr:stedsnr" v="603587" />
	</node>
	<node id="-30948" lat="59.6527000006" lon="10.606686118">
		<tag k="alt_name" v="Tollarhausen" />
		<tag k="name" v="Tollerhausen" />
		<tag k="natural" v="shoal" />
		<tag k="place" v="locality" />
		<tag k="ssr:stedsnr" v="753884" />
	</node>
	<node id="-30946" lat="59.524025001" lon="10.4472361088">
		<tag k="name" v="Sjøbustranda" />
		<tag k="natural" v="beach" />
		<tag k="place" v="locality" />
		<tag k="ssr:stedsnr" v="585085" />
	</node>
	<node id="-30925" lat="59.784544442" lon="10.510775002">
		<tag k="name" v="Lyberggrunnen" />
		<tag k="natural" v="shoal" />
		<tag k="place" v="locality" />
		<tag k="ssr:stedsnr" v="752512" />
	</node>
	<node id="-30920" lat="59.4907749983" lon="10.5012861113">
		<tag k="fixme" v="consider seamark:type=rock or natural=shoal" />
		<tag k="name" v="Mølenskjær" />
		<tag k="place" v="islet" />
		<tag k="ssr:stedsnr" v="574091" />
	</node>
	<node id="-30916" lat="59.6985222229" lon="10.5317055519">
		<tag k="name" v="Johnsbergtangen" />
		<tag k="natural" v="cape" />
		<tag k="ssr:stedsnr" v="706743" />
	</node>
	<node id="-30915" lat="59.7517250018" lon="10.5133138935">
		<tag k="name" v="Torskeberget" />
		<tag k="natural" v="cape" />
		<tag k="ssr:stedsnr" v="570507" />
	</node>
	<node id="-30904" lat="59.7127413103" lon="10.3653892807">
		<tag k="name" v="Indre Fiskebukt" />
		<tag k="natural" v="bay" />
		<tag k="ssr:stedsnr" v="694801" />
	</node>
	<node id="-30903" lat="59.7105416653" lon="10.3734027816">
		<tag k="name" v="Høgdodden" />
		<tag k="natural" v="cape" />
		<tag k="ssr:stedsnr" v="694796" />
	</node>
	<node id="-30897" lat="59.606172225" lon="10.6129527859">
		<tag k="name" v="Elgtornstranda" />
		<tag k="natural" v="beach" />
		<tag k="place" v="locality" />
		<tag k="ssr:stedsnr" v="543314" />
	</node>
	<node id="-30895" lat="59.6009722222" lon="10.6288972236">
		<tag k="name" v="Nygrunnen" />
		<tag k="natural" v="shoal" />
		<tag k="place" v="locality" />
		<tag k="ssr:stedsnr" v="692900" />
	</node>
	<node id="-30888" lat="59.8767944532" lon="10.5193094128">
		<tag k="name" v="Nordre Nesøya" />
		<tag k="place" v="island" />
		<tag k="ssr:stedsnr" v="690601" />
	</node>
	<node id="-30886" lat="59.8069027791" lon="10.4971527731">
		<tag k="fixme" v="consider seamark:type=rock or natural=shoal" />
		<tag k="name" v="Terneskjær" />
		<tag k="place" v="islet" />
		<tag k="ssr:stedsnr" v="690572" />
	</node>
	<node id="-30885" lat="59.8075638874" lon="10.490680551">
		<tag k="name" v="Maudbukta" />
		<tag k="natural" v="bay" />
		<tag k="ssr:stedsnr" v="690565" />
	</node>
	<node id="-30880" lat="59.8730611122" lon="10.5073111122">
		<tag k="name" v="Grønsund" />
		<tag k="natural" v="strait" />
		<tag k="ssr:stedsnr" v="690539" />
	</node>
	<node id="-30854" lat="59.5600888882" lon="10.4237083393">
		<tag k="name" v="Odden" />
		<tag k="natural" v="cape" />
		<tag k="ssr:stedsnr" v="524118" />
	</node>
	<node id="-30849" lat="59.8109000023" lon="10.4999861185">
		<tag k="name" v="Blakstadgrunnen" />
		<tag k="natural" v="shoal" />
		<tag k="place" v="locality" />
		<tag k="ssr:stedsnr" v="510540" />
	</node>
	<node id="-30846" lat="59.8586842469" lon="10.5492129791">
		<tag k="name" v="Viernbukta" />
		<tag k="natural" v="bay" />
		<tag k="ssr:stedsnr" v="508492" />
	</node>
	<node id="-30839" lat="59.5247583348" lon="10.421969444">
		<tag k="name" v="Nebba" />
		<tag k="natural" v="cape" />
		<tag k="ssr:stedsnr" v="488528" />
	</node>
	<node id="-30838" lat="59.5170555518" lon="10.4640833383">
		<tag k="name" v="Haraldstangen" />
		<tag k="natural" v="cape" />
		<tag k="ssr:stedsnr" v="488526" />
	</node>
	<node id="-30837" lat="59.5069777803" lon="10.5071611151">
		<tag k="name" v="Langgrunnen" />
		<tag k="natural" v="shoal" />
		<tag k="place" v="locality" />
		<tag k="ssr:stedsnr" v="488506" />
	</node>
	<node id="-30835" lat="59.8452027775" lon="10.5005833418">
		<tag k="name" v="Kjoneberget" />
		<tag k="natural" v="shoal" />
		<tag k="place" v="locality" />
		<tag k="ssr:stedsnr" v="481604" />
	</node>
	<node id="-30833" lat="59.8538583291" lon="10.5431027731">
		<tag k="alt_name" v="Langårasundet" />
		<tag k="name" v="Langårsundet" />
		<tag k="natural" v="strait" />
		<tag k="ssr:stedsnr" v="672800" />
	</node>
	<node id="-30832" lat="59.8569916638" lon="10.5399611148">
		<tag k="name" v="Brønnøya" />
		<tag k="place" v="island" />
		<tag k="ssr:stedsnr" v="672797" />
	</node>
	<node id="-30830" lat="59.846949999" lon="10.5387666746">
		<tag k="fixme" v="consider seamark:type=rock or natural=shoal" />
		<tag k="name" v="Terneholmen" />
		<tag k="place" v="islet" />
		<tag k="ssr:stedsnr" v="672762" />
	</node>
	<node id="-30829" lat="59.833741669" lon="10.4979416612">
		<tag k="name" v="Spirebukta" />
		<tag k="natural" v="bay" />
		<tag k="ssr:stedsnr" v="672760" />
	</node>
	<node id="-30827" lat="59.823702775" lon="10.4890861111">
		<tag k="alt_name" v="Blakkstadbogen" />
		<tag k="fixme" v="multiple name tags, choose one and add the other to alt_name" />
		<tag k="name" v="Blakstadbukta;Blakstadbogen" />
		<tag k="natural" v="bay" />
		<tag k="ssr:stedsnr" v="672713" />
	</node>
	<node id="-30826" lat="59.8305472182" lon="10.5521861161">
		<tag k="alt_name" v="Måsane, vestre" />
		<tag k="name" v="Vestre Måsane" />
		<tag k="natural" v="shoal" />
		<tag k="place" v="locality" />
		<tag k="ssr:stedsnr" v="672709" />
	</node>
	<node id="-30823" lat="59.7939061825" lon="10.5022473199">
		<tag k="name" v="Djuptrekkodden" />
		<tag k="natural" v="cape" />
		<tag k="ssr:stedsnr" v="672632" />
	</node>
	<node id="-30820" lat="59.676455559" lon="10.412850002">
		<tag k="name" v="Pampus" />
		<tag k="natural" v="shoal" />
		<tag k="place" v="locality" />
		<tag k="ssr:stedsnr" v="671847" />
	</node>
	<node id="-30812" lat="59.7430722199" lon="10.51931388">
		<tag k="name" v="Ramtonholmen" />
		<tag k="place" v="islet" />
		<tag k="ssr:stedsnr" v="670971" />
	</node>
	<node id="-30797" lat="59.5212194477" lon="10.4787222263">
		<tag k="name" v="Smedodden" />
		<tag k="natural" v="cape" />
		<tag k="ssr:stedsnr" v="666069" />
	</node>
	<node id="-30786" lat="59.7863249966" lon="10.4988111079">
		<tag k="name" v="Dørstubukta" />
		<tag k="natural" v="bay" />
		<tag k="ssr:stedsnr" v="664191" />
	</node>
	<node id="-30782" lat="59.7440222254" lon="10.5114361094">
		<tag k="name" v="Ramtonflåa" />
		<tag k="natural" v="shoal" />
		<tag k="place" v="locality" />
		<tag k="ssr:stedsnr" v="664105" />
	</node>
	<node id="-30774" lat="59.6061472198" lon="10.4278166644">
		<tag k="name" v="Østhaken" />
		<tag k="natural" v="shoal" />
		<tag k="place" v="locality" />
		<tag k="ssr:stedsnr" v="449727" />
	</node>
	<node id="-30773" lat="59.8363972245" lon="10.4778999973">
		<tag k="name" v="Tangegrunnen" />
		<tag k="natural" v="shoal" />
		<tag k="place" v="locality" />
		<tag k="ssr:stedsnr" v="449426" />
	</node>
	<node id="-30772" lat="59.7731222193" lon="10.5408027694">
		<tag k="name" v="Abborberget" />
		<tag k="natural" v="shoal" />
		<tag k="place" v="locality" />
		<tag k="ssr:stedsnr" v="449519" />
	</node>
	<node id="-30769" lat="59.8342916671" lon="10.484163894">
		<tag k="alt_name" v="Ersvika" />
		<tag k="name" v="Esvika" />
		<tag k="natural" v="bay" />
		<tag k="ssr:stedsnr" v="447635" />
	</node>
	<node id="-30764" lat="59.8742221556" lon="10.5231571506">
		<tag k="alt_name" v="Hals;Østre Hals" />
		<tag k="name" v="Halsbukta" />
		<tag k="natural" v="bay" />
		<tag k="ssr:stedsnr" v="447527" />
	</node>
	<node id="-30763" lat="59.8212694446" lon="10.4957000017">
		<tag k="name" v="Katteflu" />
		<tag k="place" v="locality" />
		<tag k="seamark:type" v="rock" />
		<tag k="ssr:stedsnr" v="447502" />
	</node>
	<node id="-30762" lat="59.8092388891" lon="10.4849694463">
		<tag k="name" v="Skjæret" />
		<tag k="natural" v="cape" />
		<tag k="ssr:stedsnr" v="447318" />
	</node>
	<node id="-30760" lat="59.8213083295" lon="10.503344439">
		<tag k="fixme" v="consider seamark:type=rock or natural=shoal" />
		<tag k="name" v="Bjerkøyskjæra" />
		<tag k="place" v="islet" />
		<tag k="ssr:stedsnr" v="430729" />
	</node>
	<node id="-30752" lat="59.5857638873" lon="10.416469446">
		<tag k="fixme" v="consider seamark:type=rock or natural=shoal" />
		<tag k="name" v="Saltskjær" />
		<tag k="place" v="islet" />
		<tag k="ssr:stedsnr" v="428722" />
	</node>
	<node id="-30384" lat="59.8060722182" lon="10.4948777823">
		<tag k="alt_name" v="Selvika" />
		<tag k="name" v="Selvikbukta" />
		<tag k="natural" v="bay" />
		<tag k="ssr:stedsnr" v="265533" />
	</node>
	<node id="-30747" lat="59.5169666649" lon="10.4896333393">
		<tag k="name" v="Kjørvikgrunnene" />
		<tag k="natural" v="shoal" />
		<tag k="place" v="locality" />
		<tag k="ssr:stedsnr" v="513809" />
	</node>
	<node id="-30735" lat="59.8470500021" lon="10.5608527821">
		<tag k="name" v="Høyerholmfluene" />
		<tag k="natural" v="shoal" />
		<tag k="place" v="locality" />
		<tag k="ssr:stedsnr" v="510467" />
	</node>
	<node id="-30727" lat="59.8180543875" lon="10.4842800244">
		<tag k="name" v="Trosvika" />
		<tag k="natural" v="bay" />
		<tag k="ssr:stedsnr" v="508615" />
	</node>
	<node id="-30724" lat="59.8084972226" lon="10.4956277781">
		<tag k="name" v="Tjuvholmene" />
		<tag k="place" v="islet" />
		<tag k="ssr:stedsnr" v="508560" />
	</node>
	<node id="-30721" lat="59.8548000016" lon="10.5046083346">
		<tag k="fixme" v="consider seamark:type=rock or natural=shoal" />
		<tag k="name" v="Landøyfluene" />
		<tag k="place" v="islet" />
		<tag k="ssr:stedsnr" v="508543" />
	</node>
</osm>
