<?xml version="1.0" encoding="UTF-8"?>
<<<<<<< HEAD
<osm version="0.6" generator="osmapis">
	<node lat="59.57616328879691" lon="10.538959146762787" id="-14578">
		<tag k="name" v="Røskestadvannet" />
		<tag k="natural" v="water" />
		<tag k="ssr:stedsnr" v="3704" />
		<tag k="water" v="lake" />
	</node>
	<node lat="59.59056792378582" lon="10.456197184547417" id="-14579">
		<tag k="name" v="Svartvann" />
		<tag k="natural" v="water" />
		<tag k="ssr:stedsnr" v="3724" />
	</node>
	<node lat="59.78328701288618" lon="10.377074701640653" id="-14584">
		<tag k="alt_name" v="Småvannene;Småvann" />
		<tag k="name" v="Småtjerna" />
		<tag k="natural" v="water" />
		<tag k="ssr:stedsnr" v="4667" />
		<tag k="water" v="lake" />
	</node>
	<node lat="59.78862221899683" lon="10.485416674981995" id="-14595">
		<tag k="name" v="Sibiriedammen" />
		<tag k="natural" v="water" />
		<tag k="ssr:stedsnr" v="22723" />
	</node>
	<node lat="59.815163661815916" lon="10.458013148682921" id="-14598">
		<tag k="name" v="Munkedammen" />
=======
<osm generator="osmapis" version="0.6">
	<node id="-250366" lat="59.7852333325" lon="10.4635027855">
		<tag k="name" v="Høgdabekken" />
		<tag k="ssr:stedsnr" v="325717" />
		<tag k="waterway" v="stream" />
	</node>
	<node id="-250364" lat="59.7958861082" lon="10.3733111109">
		<tag k="name" v="Styggedalsbekken" />
		<tag k="ssr:stedsnr" v="325669" />
		<tag k="waterway" v="stream" />
	</node>
	<node id="-250875" lat="59.5470222236" lon="10.5539749959">
		<tag k="name" v="Diamanten" />
		<tag k="natural" v="water" />
		<tag k="ssr:stedsnr" v="786634" />
	</node>
	<node id="-250874" lat="59.6529544728" lon="10.4849839186">
		<tag k="name" v="Vestre Stutøye" />
		<tag k="natural" v="water" />
		<tag k="ssr:stedsnr" v="786298" />
	</node>
	<node id="-250872" lat="59.663834055" lon="10.4868212308">
		<tag k="alt_name" v="Skoklevann m." />
		<tag k="name" v="Midtre Skoklevann" />
		<tag k="natural" v="water" />
		<tag k="ssr:stedsnr" v="786282" />
	</node>
	<node id="-248904" lat="59.806366666" lon="10.3670777806">
		<tag k="name" v="Verkensvannet" />
		<tag k="natural" v="water" />
		<tag k="ssr:stedsnr" v="247668" />
	</node>
	<node id="-248821" lat="59.788622219" lon="10.485416675">
		<tag k="name" v="Sibiriedammen" />
		<tag k="natural" v="water" />
		<tag k="ssr:stedsnr" v="22723" />
	</node>
	<node id="-249598" lat="59.6492805582" lon="10.4602527695">
		<tag k="alt_name" v="Høgåstjern" />
		<tag k="name" v="Høgåstjernet" />
		<tag k="natural" v="water" />
		<tag k="ssr:stedsnr" v="732825" />
	</node>
	<node id="-250866" lat="59.6518944427" lon="10.4924194464">
		<tag k="name" v="Østre Stutøye" />
		<tag k="natural" v="water" />
		<tag k="ssr:stedsnr" v="783874" />
	</node>
	<node id="-250352" lat="59.7643645306" lon="10.3750500051">
		<tag k="name" v="Stordammen" />
		<tag k="natural" v="water" />
		<tag k="ssr:stedsnr" v="308597" />
		<tag k="water" v="lake" />
	</node>
	<node id="-249836" lat="59.8108361072" lon="10.4835111094">
		<tag k="name" v="Høybakkdammen" />
		<tag k="natural" v="water" />
		<tag k="ssr:stedsnr" v="872613" />
	</node>
	<node id="-250858" lat="59.5754749997" lon="10.5450166699">
		<tag k="name" v="Åsstrøket" />
		<tag k="natural" v="cape" />
		<tag k="ssr:stedsnr" v="770628" />
	</node>
	<node id="-248806" lat="59.5539388846" lon="10.5380138955">
		<tag k="name" v="Skogtjern" />
		<tag k="natural" v="water" />
		<tag k="ssr:stedsnr" v="222521" />
	</node>
	<node id="-250340" lat="59.6327388846" lon="10.5127694467">
		<tag k="name" v="Åsvannet" />
		<tag k="natural" v="water" />
		<tag k="ssr:stedsnr" v="307693" />
	</node>
	<node id="-250278" lat="59.8322694399" lon="10.3913500073">
		<tag k="name" v="Brendsrudvannet" />
		<tag k="natural" v="water" />
		<tag k="ssr:stedsnr" v="205675" />
	</node>
	<node id="-250363" lat="59.814600093" lon="10.4875503637">
		<tag k="name" v="Koiatangen" />
		<tag k="natural" v="cape" />
		<tag k="ssr:stedsnr" v="324627" />
	</node>
	<node id="-250848" lat="59.6429333359" lon="10.5909083351">
		<tag k="alt_name" v="Sundbydammen nedre" />
		<tag k="name" v="Nedre Sundbydammen" />
		<tag k="natural" v="water" />
		<tag k="ssr:stedsnr" v="770313" />
	</node>
	<node id="-248797" lat="59.5905679238" lon="10.4561971845">
		<tag k="name" v="Svartvann" />
		<tag k="natural" v="water" />
		<tag k="ssr:stedsnr" v="3724" />
	</node>
	<node id="-248796" lat="59.5761632888" lon="10.5389591468">
		<tag k="name" v="Røskestadvannet" />
		<tag k="natural" v="water" />
		<tag k="ssr:stedsnr" v="3704" />
		<tag k="water" v="lake" />
	</node>
	<node id="-250330" lat="59.5970838259" lon="10.5387445636">
		<tag k="name" v="Røsvannet" />
		<tag k="natural" v="water" />
		<tag k="ssr:stedsnr" v="306721" />
	</node>
	<node id="-249305" lat="59.6944583312" lon="10.4129388848">
		<tag k="name" v="Jerdalsbekken" />
		<tag k="ssr:stedsnr" v="511758" />
		<tag k="waterway" v="stream" />
	</node>
	<node id="-250328" lat="59.5820222259" lon="10.4860055536">
		<tag k="name" v="Rødbyvannet" />
		<tag k="natural" v="water" />
		<tag k="ssr:stedsnr" v="306718" />
		<tag k="water" v="lake" />
	</node>
	<node id="-250327" lat="59.5870333309" lon="10.5257972297">
		<tag k="name" v="Nordvestvannet" />
		<tag k="natural" v="water" />
		<tag k="ssr:stedsnr" v="306715" />
	</node>
	<node id="-250323" lat="59.6268061067" lon="10.5414838329">
		<tag k="name" v="Ausene" />
		<tag k="natural" v="water" />
		<tag k="ssr:stedsnr" v="306634" />
	</node>
	<node id="-249810" lat="59.8757527812" lon="10.4133499953">
		<tag k="name" v="Gupuelva" />
		<tag k="ssr:stedsnr" v="853826" />
		<tag k="waterway" v="stream" />
	</node>
	<node id="-249809" lat="59.8673888913" lon="10.3904777754">
		<tag k="name" v="Flåbekken" />
		<tag k="ssr:stedsnr" v="853814" />
		<tag k="waterway" v="stream" />
	</node>
	<node id="-250320" lat="59.7359277802" lon="10.3204722234">
		<tag k="name" v="Dauerudbekken" />
		<tag k="ssr:stedsnr" v="306351" />
		<tag k="waterway" v="stream" />
	</node>
	<node id="-250360" lat="59.7920333318" lon="10.4387305583">
		<tag k="name" v="Gjellumvannet" />
		<tag k="natural" v="water" />
		<tag k="ssr:stedsnr" v="308679" />
	</node>
	<node id="-250318" lat="59.6429249998" lon="10.562449998">
		<tag k="name" v="Raubekken" />
		<tag k="ssr:stedsnr" v="302382" />
		<tag k="waterway" v="stream" />
	</node>
	<node id="-250826" lat="59.7025555517" lon="10.5132722236">
		<tag k="name" v="Stordammen" />
		<tag k="natural" v="water" />
		<tag k="ssr:stedsnr" v="754972" />
	</node>
	<node id="-249591" lat="59.6431416628" lon="10.5307194401">
		<tag k="name" v="Lille Stikkvannet" />
		<tag k="natural" v="water" />
		<tag k="ssr:stedsnr" v="731832" />
	</node>
	<node id="-250306" lat="59.7328305577" lon="10.3839444435">
		<tag k="name" v="Sandvadbekken" />
		<tag k="ssr:stedsnr" v="209548" />
		<tag k="waterway" v="stream" />
	</node>
	<node id="-250301" lat="59.7089916676" lon="10.3849138871">
		<tag k="name" v="Buktebekken" />
		<tag k="ssr:stedsnr" v="208960" />
		<tag k="waterway" v="stream" />
	</node>
	<node id="-249786" lat="59.8122055574" lon="10.4286166729">
		<tag k="name" v="Barlindbekken" />
		<tag k="ssr:stedsnr" v="933708" />
		<tag k="waterway" v="stream" />
	</node>
	<node id="-250184" lat="59.644169444" lon="10.5991638902">
		<tag k="name" v="Buabekken" />
		<tag k="ssr:stedsnr" v="145896" />
		<tag k="waterway" v="stream" />
	</node>
	<node id="-250283" lat="59.817022221" lon="10.392677784">
		<tag k="name" v="Lille Oppsjø" />
		<tag k="natural" v="water" />
		<tag k="ssr:stedsnr" v="205708" />
	</node>
	<node id="-249258" lat="59.7959388864" lon="10.4359722264">
		<tag k="name" v="Sætrefossen" />
		<tag k="natural" v="waterfall" />
		<tag k="ssr:stedsnr" v="386727" />
	</node>
	<node id="-250279" lat="59.8347594687" lon="10.4645427437">
		<tag k="name" v="Bårdsruddammen" />
>>>>>>> e1d4bc35ff8a6074a6f2e91616a996b547c36f15
		<tag k="natural" v="water" />
		<tag k="ssr:stedsnr" v="23611" />
	</node>
<<<<<<< HEAD
	<node lat="59.56065833207302" lon="10.547663882396574" id="-14615">
		<tag k="alt_name" v="Striglevann lille" />
		<tag k="name" v="Lille-Striglevann" />
		<tag k="natural" v="water" />
		<tag k="ssr:stedsnr" v="40581" />
	</node>
	<node lat="59.617491670011724" lon="10.545633325258203" id="-14622">
		<tag k="name" v="Prestebukta" />
		<tag k="natural" v="bay" />
		<tag k="ssr:stedsnr" v="237517" />
	</node>
	<node lat="59.66128333521002" lon="10.514916668083815" id="-14640">
		<tag k="name" v="Ringeriksholmen" />
		<tag k="place" v="islet" />
		<tag k="ssr:stedsnr" v="59321" />
	</node>
	<node lat="59.58395278016461" lon="10.44574444142783" id="-14649">
		<tag k="name" v="Himmelvannet" />
		<tag k="natural" v="water" />
		<tag k="ssr:stedsnr" v="63729" />
	</node>
	<node lat="59.87648611369823" lon="10.460347229350132" id="-14657">
		<tag k="name" v="Stokkerelva" />
		<tag k="ssr:stedsnr" v="64839" />
		<tag k="waterway" v="stream" />
	</node>
	<node lat="59.87671944540275" lon="10.345272225018869" id="-14659">
=======
	<node id="-250790" lat="59.8733055557" lon="10.370733336">
		<tag k="name" v="Eikestøa" />
		<tag k="natural" v="cape" />
		<tag k="ssr:stedsnr" v="750706" />
	</node>
	<node id="-250789" lat="59.872230552" lon="10.3613527717">
		<tag k="name" v="Snarodden" />
		<tag k="natural" v="cape" />
		<tag k="ssr:stedsnr" v="750705" />
	</node>
	<node id="-248816" lat="59.5976055583" lon="10.5070388967">
		<tag k="name" v="Bergervann" />
		<tag k="natural" v="water" />
		<tag k="ssr:stedsnr" v="224601" />
		<tag k="water" v="pond" />
	</node>
	<node id="-250267" lat="59.8540777777" lon="10.4201638947">
		<tag k="name" v="Høveldammen" />
		<tag k="natural" v="water" />
		<tag k="ssr:stedsnr" v="205552" />
	</node>
	<node id="-248871" lat="59.8767194454" lon="10.345272225">
>>>>>>> e1d4bc35ff8a6074a6f2e91616a996b547c36f15
		<tag k="alt_name" v="Engerfløyta" />
		<tag k="name" v="Engerfløyten" />
		<tag k="place" v="locality" />
		<tag k="ssr:stedsnr" v="64847" />
<<<<<<< HEAD
	</node>
	<node lat="59.669544440163484" lon="10.449116661681721" id="-14661">
		<tag k="name" v="Rørvikvannet" />
=======
	</node>
	<node id="-249239" lat="59.659311109" lon="10.5137111043">
		<tag k="name" v="Nordbukt" />
		<tag k="natural" v="bay" />
		<tag k="ssr:stedsnr" v="358855" />
	</node>
	<node id="-250262" lat="59.8335229234" lon="10.4012641093">
		<tag k="name" v="Hogstadvannet" />
>>>>>>> e1d4bc35ff8a6074a6f2e91616a996b547c36f15
		<tag k="natural" v="water" />
		<tag k="ssr:stedsnr" v="64879" />
	</node>
<<<<<<< HEAD
	<node lat="59.66411666941093" lon="10.481363881402155" id="-14665">
		<tag k="name" v="Nåbyvann" />
		<tag k="natural" v="water" />
		<tag k="ssr:stedsnr" v="65813" />
	</node>
	<node lat="59.621308331180636" lon="10.57946111163995" id="-14669">
		<tag k="name" v="Svartvann" />
=======
	<node id="-249235" lat="59.8120138898" lon="10.4168527818">
		<tag k="name" v="Vardetjern" />
>>>>>>> e1d4bc35ff8a6074a6f2e91616a996b547c36f15
		<tag k="natural" v="water" />
		<tag k="ssr:stedsnr" v="241618" />
	</node>
<<<<<<< HEAD
	<node lat="59.7798277738672" lon="10.453024993872031" id="-14679">
		<tag k="name" v="Gjellumbekken" />
		<tag k="ssr:stedsnr" v="83634" />
		<tag k="waterway" v="stream" />
	</node>
	<node lat="59.786291665369255" lon="10.401705547134858" id="-14681">
		<tag k="name" v="Rødbekk" />
		<tag k="ssr:stedsnr" v="83737" />
		<tag k="waterway" v="stream" />
	</node>
	<node lat="59.77089999873683" lon="10.477800003714853" id="-14691">
		<tag k="name" v="Bøbekken" />
		<tag k="ssr:stedsnr" v="88815" />
		<tag k="waterway" v="stream" />
	</node>
	<node lat="59.76406909860693" lon="10.309967709158185" id="-14695">
		<tag k="name" v="Skapertjern" />
=======
	<node id="-249746" lat="59.6166427707" lon="10.5465086028">
		<tag k="name" v="Aklangen" />
>>>>>>> e1d4bc35ff8a6074a6f2e91616a996b547c36f15
		<tag k="natural" v="water" />
		<tag k="ssr:stedsnr" v="246187" />
	</node>
<<<<<<< HEAD
	<node lat="59.63396666992144" lon="10.526827783097781" id="-14696">
		<tag k="name" v="Ålbyvannet" />
=======
	<node id="-248899" lat="59.7558527777" lon="10.340836115">
		<tag k="name" v="Kjoselva" />
		<tag k="ssr:stedsnr" v="247579" />
		<tag k="waterway" v="river" />
	</node>
	<node id="-250256" lat="59.7701083343" lon="10.3912361025">
		<tag k="name" v="Svartvannet" />
>>>>>>> e1d4bc35ff8a6074a6f2e91616a996b547c36f15
		<tag k="natural" v="water" />
		<tag k="ssr:stedsnr" v="246642" />
	</node>
<<<<<<< HEAD
	<node lat="59.64113055508245" lon="10.469311109111214" id="-14701">
		<tag k="name" v="Svartvann" />
		<tag k="natural" v="water" />
		<tag k="ssr:stedsnr" v="246824" />
	</node>
	<node lat="59.67613333357639" lon="10.471902780807811" id="-14702">
		<tag k="name" v="Mårbergvannet" />
=======
	<node id="-249228" lat="59.6717297611" lon="10.4634316811">
		<tag k="name" v="Kuvannene" />
>>>>>>> e1d4bc35ff8a6074a6f2e91616a996b547c36f15
		<tag k="natural" v="water" />
		<tag k="ssr:stedsnr" v="246830" />
	</node>
<<<<<<< HEAD
	<node lat="59.867550876965154" lon="10.527191246949556" id="-14715">
		<tag k="alt_name" v="Nesøytjern" />
		<tag k="name" v="Nesøytjernet" />
		<tag k="natural" v="water" />
		<tag k="ssr:stedsnr" v="247799" />
	</node>
	<node lat="59.69698611202289" lon="10.448469451146995" id="-14736">
		<tag k="name" v="Rundvann" />
=======
	<node id="-250690" lat="59.6442416676" lon="10.4829416652">
		<tag k="name" v="Djupebukt" />
		<tag k="natural" v="bay" />
		<tag k="ssr:stedsnr" v="603281" />
	</node>
	<node id="-250760" lat="59.7592555522" lon="10.440558329">
		<tag k="name" v="Fabrikkdammen" />
>>>>>>> e1d4bc35ff8a6074a6f2e91616a996b547c36f15
		<tag k="natural" v="water" />
		<tag k="ssr:stedsnr" v="124712" />
	</node>
<<<<<<< HEAD
	<node lat="59.68506944512169" lon="10.492202776435308" id="-14738">
		<tag k="alt_name" v="Gampetjern" />
		<tag k="name" v="Gampetjernet" />
		<tag k="natural" v="water" />
		<tag k="ssr:stedsnr" v="124720" />
	</node>
	<node lat="59.63200555176771" lon="10.533230550608586" id="-14740">
		<tag k="name" v="Stikkvannet" />
=======
	<node id="-249324" lat="59.7527805578" lon="10.4008194518">
		<tag k="name" v="Hegga" />
		<tag k="ssr:stedsnr" v="430648" />
		<tag k="waterway" v="river" />
	</node>
	<node id="-251019" lat="59.7943583338" lon="10.3351277691">
		<tag k="name" v="Svarteputt" />
		<tag k="natural" v="water" />
		<tag k="ssr:stedsnr" v="854128" />
	</node>
	<node id="-249728" lat="59.647805731" lon="10.4765907557">
		<tag k="name" v="Sandungen" />
>>>>>>> e1d4bc35ff8a6074a6f2e91616a996b547c36f15
		<tag k="natural" v="water" />
		<tag k="ssr:stedsnr" v="124613" />
	</node>
<<<<<<< HEAD
	<node lat="59.810086109058105" lon="10.46682221857244" id="-14760">
		<tag k="name" v="Østenstaddammen" />
=======
	<node id="-249727" lat="59.6579777793" lon="10.5204472218">
		<tag k="name" v="Mørkvannet" />
>>>>>>> e1d4bc35ff8a6074a6f2e91616a996b547c36f15
		<tag k="natural" v="water" />
		<tag k="ssr:stedsnr" v="143703" />
	</node>
<<<<<<< HEAD
	<node lat="59.86915555648679" lon="10.362063887762115" id="-14761">
		<tag k="name" v="Junkertangen" />
		<tag k="natural" v="cape" />
		<tag k="ssr:stedsnr" v="143705" />
	</node>
	<node lat="59.763066130392474" lon="10.383445562159661" id="-14772">
		<tag k="name" v="Tretjern" />
=======
	<node id="-250237" lat="59.6374754754" lon="10.556525823">
		<tag k="name" v="Svartvann" />
>>>>>>> e1d4bc35ff8a6074a6f2e91616a996b547c36f15
		<tag k="natural" v="water" />
		<tag k="ssr:stedsnr" v="148376" />
	</node>
<<<<<<< HEAD
	<node lat="59.64531944220694" lon="10.533094445578818" id="-14783">
		<tag k="alt_name" v="Stikkvann lille" />
		<tag k="name" v="Lille-Stikkvann" />
		<tag k="natural" v="water" />
		<tag k="ssr:stedsnr" v="176856" />
	</node>
	<node lat="59.64000833079373" lon="10.530883324430441" id="-14784">
		<tag k="name" v="Stikkvannsbekken" />
		<tag k="ssr:stedsnr" v="176858" />
		<tag k="waterway" v="stream" />
	</node>
	<node lat="59.553727319409404" lon="10.552404894065823" id="-14794">
		<tag k="name" v="Barlindvannet" />
=======
	<node id="-249322" lat="59.8718194124" lon="10.3288052762">
		<tag k="name" v="Asdøltjern" />
		<tag k="natural" v="water" />
		<tag k="ssr:stedsnr" v="429310" />
	</node>
	<node id="-249721" lat="59.6089722266" lon="10.5276611179">
		<tag k="name" v="Rødvannet" />
>>>>>>> e1d4bc35ff8a6074a6f2e91616a996b547c36f15
		<tag k="natural" v="water" />
		<tag k="ssr:stedsnr" v="185650" />
		<tag k="water" v="lake" />
	</node>
<<<<<<< HEAD
	<node lat="59.85076451077236" lon="10.48731865041152" id="-14815">
		<tag k="name" v="Syverstaddammen" />
=======
	<node id="-250742" lat="59.8187833346" lon="10.4009833338">
		<tag k="alt_name" v="Abbortjern" />
		<tag k="name" v="Åbortjern" />
>>>>>>> e1d4bc35ff8a6074a6f2e91616a996b547c36f15
		<tag k="natural" v="water" />
		<tag k="ssr:stedsnr" v="265692" />
	</node>
<<<<<<< HEAD
	<node lat="59.81702222101727" lon="10.392677784005288" id="-14834">
		<tag k="name" v="Lille Oppsjø" />
=======
	<node id="-249203" lat="59.684958331" lon="10.48574167">
		<tag k="alt_name" v="Skånevannet" />
		<tag k="name" v="Skånevann" />
>>>>>>> e1d4bc35ff8a6074a6f2e91616a996b547c36f15
		<tag k="natural" v="water" />
		<tag k="ssr:stedsnr" v="205708" />
	</node>
<<<<<<< HEAD
	<node lat="59.83475946866452" lon="10.464542743655748" id="-14835">
		<tag k="name" v="Bårdsruddammen" />
		<tag k="natural" v="water" />
		<tag k="old_name" v="Baarsruddammen" />
		<tag k="ssr:stedsnr" v="205685" />
	</node>
	<node lat="59.55393888458927" lon="10.538013895518848" id="-14853">
		<tag k="name" v="Skogtjern" />
=======
	<node id="-250226" lat="59.565933953" lon="10.5138863246">
		<tag k="name" v="Lomvannet" />
		<tag k="natural" v="water" />
		<tag k="ssr:stedsnr" v="185673" />
	</node>
	<node id="-249712" lat="59.7258833364" lon="10.4588611107">
		<tag k="name" v="Åroselva" />
		<tag k="ssr:stedsnr" v="913779" />
		<tag k="waterway" v="river" />
	</node>
	<node id="-249711" lat="59.6821222242" lon="10.4947611098">
		<tag k="alt_name" v="Kalvetjern" />
		<tag k="name" v="Kalvetjernet" />
>>>>>>> e1d4bc35ff8a6074a6f2e91616a996b547c36f15
		<tag k="natural" v="water" />
		<tag k="ssr:stedsnr" v="222521" />
	</node>
<<<<<<< HEAD
	<node lat="59.62976666452934" lon="10.518144444004411" id="-14872">
		<tag k="name" v="Småvannene" />
=======
	<node id="-250222" lat="59.5537273194" lon="10.5524048941">
		<tag k="name" v="Barlindvannet" />
>>>>>>> e1d4bc35ff8a6074a6f2e91616a996b547c36f15
		<tag k="natural" v="water" />
		<tag k="ssr:stedsnr" v="237887" />
		<tag k="water" v="lake" />
	</node>
<<<<<<< HEAD
	<node lat="59.75342500286177" lon="10.392697226163863" id="-14873">
		<tag k="name" v="Vaskebekk" />
		<tag k="ssr:stedsnr" v="239032" />
		<tag k="waterway" v="stream" />
	</node>
	<node lat="59.59208055961497" lon="10.528636105356615" id="-14887">
		<tag k="name" v="Langvann" />
=======
	<node id="-250731" lat="59.8248805539" lon="10.3848361039">
		<tag k="name" v="Svarteputt" />
		<tag k="natural" v="water" />
		<tag k="ssr:stedsnr" v="611743" />
	</node>
	<node id="-250730" lat="59.8243138864" lon="10.4342722244">
		<tag k="name" v="Bondivannet" />
>>>>>>> e1d4bc35ff8a6074a6f2e91616a996b547c36f15
		<tag k="natural" v="water" />
		<tag k="ssr:stedsnr" v="245716" />
		<tag k="water" v="lake" />
	</node>
<<<<<<< HEAD
	<node lat="59.75585277772985" lon="10.340836115018277" id="-14900">
		<tag k="name" v="Kjoselva" />
		<tag k="ssr:stedsnr" v="247579" />
		<tag k="waterway" v="river" />
	</node>
	<node lat="59.80636666598837" lon="10.367077780558486" id="-14903">
		<tag k="name" v="Verkensvannet" />
=======
	<node id="-250727" lat="59.858549883" lon="10.4218198247">
		<tag k="name" v="Semsvannet" />
>>>>>>> e1d4bc35ff8a6074a6f2e91616a996b547c36f15
		<tag k="natural" v="water" />
		<tag k="ssr:stedsnr" v="247668" />
	</node>
<<<<<<< HEAD
	<node lat="59.77190833428079" lon="10.435450003302217" id="-14909">
		<tag k="name" v="Grodalselva" />
		<tag k="ssr:stedsnr" v="452788" />
		<tag k="waterway" v="river" />
	</node>
	<node lat="59.78414166335962" lon="10.434613883812336" id="-14915">
		<tag k="name" v="Kistefossdammen" />
=======
	<node id="-250210" lat="59.6400083308" lon="10.5308833244">
		<tag k="name" v="Stikkvannsbekken" />
		<tag k="ssr:stedsnr" v="176858" />
		<tag k="waterway" v="stream" />
	</node>
	<node id="-250209" lat="59.6453194422" lon="10.5330944456">
		<tag k="alt_name" v="Stikkvann lille" />
		<tag k="name" v="Lille-Stikkvann" />
>>>>>>> e1d4bc35ff8a6074a6f2e91616a996b547c36f15
		<tag k="natural" v="water" />
		<tag k="ssr:stedsnr" v="264736" />
	</node>
<<<<<<< HEAD
	<node lat="59.79368295149308" lon="10.490345986305737" id="-14918">
		<tag k="name" v="Deledammen" />
=======
	<node id="-250718" lat="59.6757805557" lon="10.4783527699">
		<tag k="name" v="Langvann" />
>>>>>>> e1d4bc35ff8a6074a6f2e91616a996b547c36f15
		<tag k="natural" v="water" />
		<tag k="ssr:stedsnr" v="264749" />
	</node>
<<<<<<< HEAD
	<node lat="59.861638885473106" lon="10.417791674895255" id="-14920">
		<tag k="name" v="Tveiterfossen" />
		<tag k="natural" v="waterfall" />
		<tag k="ssr:stedsnr" v="265512" />
	</node>
	<node lat="59.881408331955" lon="10.395955553388852" id="-14929">
		<tag k="name" v="Svagfossen" />
		<tag k="natural" v="waterfall" />
		<tag k="ssr:stedsnr" v="265611" />
	</node>
	<node lat="59.6913964906972" lon="10.506572938582211" id="-14940">
		<tag k="name" v="Bestondammen" />
=======
	<node id="-249180" lat="59.6668361147" lon="10.5123277758">
		<tag k="alt_name" v="Brendte holmen" />
		<tag k="name" v="Brendteholmen" />
		<tag k="place" v="islet" />
		<tag k="ssr:stedsnr" v="483340" />
	</node>
	<node id="-250715" lat="59.6474194009" lon="10.4863792646">
		<tag k="alt_name" v="Damtjern" />
		<tag k="name" v="Damtjernet" />
>>>>>>> e1d4bc35ff8a6074a6f2e91616a996b547c36f15
		<tag k="natural" v="water" />
		<tag k="ssr:stedsnr" v="269974" />
	</node>
<<<<<<< HEAD
	<node lat="59.57445277885656" lon="10.49676111200461" id="-14953">
		<tag k="name" v="Kastebekken" />
		<tag k="ssr:stedsnr" v="283672" />
		<tag k="waterway" v="stream" />
	</node>
	<node lat="59.665599997857015" lon="10.593205553915455" id="-14954">
		<tag k="name" v="Nesdammen" />
		<tag k="natural" v="water" />
		<tag k="ssr:stedsnr" v="285328" />
	</node>
	<node lat="59.686613891545434" lon="10.52080555154714" id="-14970">
		<tag k="name" v="Nedredammen" />
=======
	<node id="-250714" lat="59.6175027774" lon="10.4788694506">
		<tag k="alt_name" v="Ugstadelva" />
		<tag k="name" v="Ustadelva" />
		<tag k="ssr:stedsnr" v="610674" />
		<tag k="waterway" v="stream" />
	</node>
	<node id="-250712" lat="59.6153805516" lon="10.4975527758">
		<tag k="alt_name" v="Klopptjern" />
		<tag k="name" v="Klopptjernet" />
>>>>>>> e1d4bc35ff8a6074a6f2e91616a996b547c36f15
		<tag k="natural" v="water" />
		<tag k="ssr:stedsnr" v="301272" />
	</node>
<<<<<<< HEAD
	<node lat="59.642924999825645" lon="10.5624499979574" id="-14972">
		<tag k="name" v="Raubekken" />
		<tag k="ssr:stedsnr" v="302382" />
		<tag k="waterway" v="stream" />
	</node>
	<node lat="59.62680610673295" lon="10.541483832903142" id="-14979">
		<tag k="name" v="Ausene" />
=======
	<node id="-249687" lat="59.855544443" lon="10.4071249932">
		<tag k="name" v="Herkjelbekken" />
		<tag k="ssr:stedsnr" v="751521" />
		<tag k="waterway" v="stream" />
	</node>
	<node id="-249686" lat="59.8636754636" lon="10.4262901406">
		<tag k="name" v="Tømmervika" />
		<tag k="natural" v="bay" />
		<tag k="ssr:stedsnr" v="751516" />
	</node>
	<node id="-250709" lat="59.8636333296" lon="10.491269448">
		<tag k="name" v="Neselva" />
		<tag k="ssr:stedsnr" v="610836" />
		<tag k="waterway" v="stream" />
	</node>
	<node id="-249679" lat="59.5696861094" lon="10.4839972226">
		<tag k="name" v="Vassenga" />
		<tag k="natural" v="bay" />
		<tag k="ssr:stedsnr" v="907210" />
	</node>
	<node id="-250190" lat="59.7630661304" lon="10.3834455622">
		<tag k="name" v="Tretjern" />
		<tag k="natural" v="water" />
		<tag k="ssr:stedsnr" v="148376" />
	</node>
	<node id="-249677" lat="59.6352444452" lon="10.5662611182">
		<tag k="name" v="Sandbruvann" />
>>>>>>> e1d4bc35ff8a6074a6f2e91616a996b547c36f15
		<tag k="natural" v="water" />
		<tag k="ssr:stedsnr" v="306634" />
	</node>
<<<<<<< HEAD
	<node lat="59.76436453062101" lon="10.375050005063311" id="-14994">
		<tag k="name" v="Stordammen" />
=======
	<node id="-250188" lat="59.7036916626" lon="10.4477027716">
		<tag k="name" v="Eglevann" />
>>>>>>> e1d4bc35ff8a6074a6f2e91616a996b547c36f15
		<tag k="natural" v="water" />
		<tag k="ssr:stedsnr" v="308597" />
		<tag k="water" v="lake" />
	</node>
<<<<<<< HEAD
	<node lat="59.59347500366178" lon="10.52331110361475" id="-15002">
		<tag k="name" v="Pæletangen" />
		<tag k="natural" v="cape" />
		<tag k="ssr:stedsnr" v="466698" />
	</node>
	<node lat="59.81460009300439" lon="10.48755036369326" id="-15007">
		<tag k="name" v="Koiatangen" />
		<tag k="natural" v="cape" />
		<tag k="ssr:stedsnr" v="324627" />
	</node>
	<node lat="59.79588610823827" lon="10.373311110874418" id="-15008">
		<tag k="name" v="Styggedalsbekken" />
		<tag k="ssr:stedsnr" v="325669" />
		<tag k="waterway" v="stream" />
	</node>
	<node lat="59.78523333249635" lon="10.463502785516942" id="-15010">
		<tag k="name" v="Høgdabekken" />
		<tag k="ssr:stedsnr" v="325717" />
		<tag k="waterway" v="stream" />
	</node>
	<node lat="59.879738893264964" lon="10.405905559184035" id="-15049">
		<tag k="name" v="Fløyta" />
		<tag k="natural" v="water" />
		<tag k="ssr:stedsnr" v="368867" />
	</node>
	<node lat="59.66683611471636" lon="10.512327775785309" id="-15076">
		<tag k="alt_name" v="Brendte holmen" />
		<tag k="name" v="Brendteholmen" />
		<tag k="place" v="islet" />
		<tag k="ssr:stedsnr" v="483340" />
	</node>
	<node lat="59.5497472203855" lon="10.567369449597019" id="-15095">
		<tag k="name" v="Tofteelva" />
		<tag k="ssr:stedsnr" v="483642" />
		<tag k="waterway" v="river" />
	</node>
	<node lat="59.684958331031815" lon="10.485741670025726" id="-15111">
		<tag k="alt_name" v="Skånevannet" />
		<tag k="name" v="Skånevann" />
		<tag k="natural" v="water" />
		<tag k="ssr:stedsnr" v="488770" />
	</node>
	<node lat="59.62885277842221" lon="10.559349995839524" id="-15122">
		<tag k="name" v="Svartvann" />
		<tag k="natural" v="water" />
		<tag k="ssr:stedsnr" v="423653" />
	</node>
	<node lat="59.66499741420982" lon="10.487000576555806" id="-15127">
		<tag k="name" v="Skoklevanna" />
=======
	<node id="-250937" lat="59.819758336" lon="10.371261117">
		<tag k="name" v="Svinesjøen" />
		<tag k="natural" v="water" />
		<tag k="ssr:stedsnr" v="811692" />
	</node>
	<node id="-250696" lat="59.6683638894" lon="10.5277888857">
		<tag k="name" v="Slingrebekk" />
		<tag k="ssr:stedsnr" v="604940" />
		<tag k="waterway" v="stream" />
	</node>
	<node id="-249159" lat="59.8338749982" lon="10.3509611148">
		<tag k="name" v="Delebekken" />
		<tag k="ssr:stedsnr" v="325852" />
		<tag k="waterway" v="stream" />
	</node>
	<node id="-248891" lat="59.6411305551" lon="10.4693111091">
		<tag k="name" v="Svartvann" />
		<tag k="natural" v="water" />
		<tag k="ssr:stedsnr" v="246824" />
	</node>
	<node id="-250692" lat="59.6857000033" lon="10.51833055">
		<tag k="name" v="Mellomdammen" />
		<tag k="natural" v="water" />
		<tag k="ssr:stedsnr" v="604302" />
	</node>
	<node id="-249666" lat="59.6510749965" lon="10.5339944426">
		<tag k="name" v="Midtskogvann" />
		<tag k="natural" v="water" />
		<tag k="ssr:stedsnr" v="723848" />
	</node>
	<node id="-250689" lat="59.6687996935" lon="10.4785018032">
		<tag k="name" v="Indianervannet" />
		<tag k="natural" v="water" />
		<tag k="ssr:stedsnr" v="603257" />
	</node>
	<node id="-250173" lat="59.8691555565" lon="10.3620638878">
		<tag k="name" v="Junkertangen" />
		<tag k="natural" v="cape" />
		<tag k="ssr:stedsnr" v="143705" />
	</node>
	<node id="-250172" lat="59.8100861091" lon="10.4668222186">
		<tag k="name" v="Østenstaddammen" />
		<tag k="natural" v="water" />
		<tag k="ssr:stedsnr" v="143703" />
	</node>
	<node id="-249143" lat="59.6866138915" lon="10.5208055515">
		<tag k="name" v="Nedredammen" />
		<tag k="natural" v="water" />
		<tag k="ssr:stedsnr" v="301272" />
	</node>
	<node id="-250675" lat="59.6046000037" lon="10.5533361121">
		<tag k="name" v="Fjellfiske" />
		<tag k="natural" v="water" />
		<tag k="ssr:stedsnr" v="588758" />
	</node>
	<node id="-249139" lat="59.5934750037" lon="10.5233111036">
		<tag k="name" v="Pæletangen" />
		<tag k="natural" v="cape" />
		<tag k="ssr:stedsnr" v="466698" />
	</node>
	<node id="-250672" lat="59.5363388847" lon="10.466369447">
		<tag k="alt_name" v="Knatvoldbekken" />
		<tag k="name" v="Knattvollbekken" />
		<tag k="ssr:stedsnr" v="587181" />
		<tag k="waterway" v="river" />
	</node>
	<node id="-249224" lat="59.8736332217" lon="10.3665759375">
		<tag k="alt_name" v="Sandungen, store;Sandungen" />
		<tag k="name" v="Store Sandungen" />
		<tag k="natural" v="water" />
		<tag k="ssr:stedsnr" v="489837" />
		<tag k="water" v="lake" />
	</node>
	<node id="-250146" lat="59.6736527802" lon="10.5185472307">
		<tag k="alt_name" v="Sætreelven" />
		<tag k="name" v="Sætreelva" />
		<tag k="ssr:stedsnr" v="125868" />
		<tag k="waterway" v="stream" />
	</node>
	<node id="-250144" lat="59.6711055598" lon="10.4947111057">
		<tag k="name" v="Bjørvann" />
>>>>>>> e1d4bc35ff8a6074a6f2e91616a996b547c36f15
		<tag k="natural" v="water" />
		<tag k="ssr:stedsnr" v="489859" />
		<tag k="water" v="lake" />
	</node>
<<<<<<< HEAD
	<node lat="59.67192338765206" lon="10.464073112223346" id="-15128">
		<tag k="name" v="Kuvannene" />
=======
	<node id="-249117" lat="59.6913964907" lon="10.5065729386">
		<tag k="name" v="Bestondammen" />
>>>>>>> e1d4bc35ff8a6074a6f2e91616a996b547c36f15
		<tag k="natural" v="water" />
		<tag k="ssr:stedsnr" v="489860" />
		<tag k="water" v="lake" />
	</node>
<<<<<<< HEAD
	<node lat="59.61264722274314" lon="10.561788895447249" id="-15136">
		<tag k="name" v="Lille Husebyvannet" />
		<tag k="natural" v="water" />
		<tag k="ssr:stedsnr" v="428618" />
	</node>
	<node lat="59.87181941236662" lon="10.328805276172321" id="-15144">
		<tag k="name" v="Asdøltjern" />
=======
	<node id="-250133" lat="59.6411055533" lon="10.5530361046">
		<tag k="name" v="Båntjern" />
>>>>>>> e1d4bc35ff8a6074a6f2e91616a996b547c36f15
		<tag k="natural" v="water" />
		<tag k="ssr:stedsnr" v="429310" />
	</node>
<<<<<<< HEAD
	<node lat="59.81201388984349" lon="10.416852781827464" id="-15146">
		<tag k="name" v="Vardetjern" />
=======
	<node id="-249106" lat="59.7841416634" lon="10.4346138838">
		<tag k="name" v="Kistefossdammen" />
>>>>>>> e1d4bc35ff8a6074a6f2e91616a996b547c36f15
		<tag k="natural" v="water" />
		<tag k="ssr:stedsnr" v="490759" />
	</node>
<<<<<<< HEAD
	<node lat="59.75278055781625" lon="10.400819451775309" id="-15154">
		<tag k="name" v="Hegga" />
		<tag k="ssr:stedsnr" v="430648" />
		<tag k="waterway" v="river" />
	</node>
	<node lat="59.756050000827024" lon="10.397727783378919" id="-15180">
		<tag k="name" v="Kleivardammen" />
=======
	<node id="-250127" lat="59.6850694451" lon="10.4922027764">
		<tag k="alt_name" v="Gampetjern" />
		<tag k="name" v="Gampetjernet" />
		<tag k="natural" v="water" />
		<tag k="ssr:stedsnr" v="124720" />
	</node>
	<node id="-250125" lat="59.696986112" lon="10.4484694511">
		<tag k="name" v="Rundvann" />
>>>>>>> e1d4bc35ff8a6074a6f2e91616a996b547c36f15
		<tag k="natural" v="water" />
		<tag k="ssr:stedsnr" v="452377" />
	</node>
<<<<<<< HEAD
	<node lat="59.57665555648873" lon="10.530022229098146" id="-15202">
		<tag k="name" v="Kjellerbekken" />
		<tag k="ssr:stedsnr" v="466669" />
		<tag k="waterway" v="stream" />
	</node>
	<node lat="59.65832653197536" lon="10.459256047632312" id="-15210">
		<tag k="name" v="Pissborovann" />
=======
	<node id="-249611" lat="59.5780472182" lon="10.5385138911">
		<tag k="name" v="Røskestad" />
		<tag k="natural" v="cape" />
		<tag k="ssr:stedsnr" v="648658" />
	</node>
	<node id="-250121" lat="59.6320055518" lon="10.5332305506">
		<tag k="name" v="Stikkvannet" />
>>>>>>> e1d4bc35ff8a6074a6f2e91616a996b547c36f15
		<tag k="natural" v="water" />
		<tag k="ssr:stedsnr" v="482258" />
	</node>
<<<<<<< HEAD
	<node lat="59.87363322167132" lon="10.366575937531032" id="-15233">
		<tag k="alt_name" v="Sandungen, store;Sandungen" />
		<tag k="name" v="Store Sandungen" />
=======
	<node id="-250632" lat="59.8594611078" lon="10.4759000059">
		<tag k="name" v="Torstaddammen" />
>>>>>>> e1d4bc35ff8a6074a6f2e91616a996b547c36f15
		<tag k="natural" v="water" />
		<tag k="ssr:stedsnr" v="489837" />
		<tag k="water" v="lake" />
	</node>
<<<<<<< HEAD
	<node lat="59.87641666585822" lon="10.353041671822822" id="-15237">
		<tag k="name" v="Vadfoss" />
		<tag k="natural" v="waterfall" />
		<tag k="ssr:stedsnr" v="507713" />
	</node>
	<node lat="59.57663888766965" lon="10.519238889725337" id="-15260">
		<tag k="name" v="Bunntjern" />
		<tag k="natural" v="water" />
		<tag k="ssr:stedsnr" v="527645" />
		<tag k="water" v="pond" />
	</node>
	<node lat="59.85253611397388" lon="10.42114166335356" id="-15311">
		<tag k="name" v="Sagdammen" />
		<tag k="natural" v="water" />
		<tag k="ssr:stedsnr" v="567613" />
	</node>
	<node lat="59.80875282971868" lon="10.361716918957933" id="-15313">
=======
	<node id="-249094" lat="59.7560500008" lon="10.3977277834">
		<tag k="name" v="Kleivardammen" />
		<tag k="natural" v="water" />
		<tag k="ssr:stedsnr" v="452377" />
	</node>
	<node id="-250623" lat="59.8087528297" lon="10.361716919">
>>>>>>> e1d4bc35ff8a6074a6f2e91616a996b547c36f15
		<tag k="alt_name" v="Poverudelva" />
		<tag k="name" v="Påverudelva" />
		<tag k="ssr:stedsnr" v="567671" />
		<tag k="waterway" v="river" />
	</node>
<<<<<<< HEAD
	<node lat="59.819550374544484" lon="10.459591735149116" id="-15320">
		<tag k="name" v="Åbydammen" />
=======
	<node id="-250110" lat="59.6665679249" lon="10.4869130879">
		<tag k="alt_name" v="Skoklevann n." />
		<tag k="name" v="Nordre Skoklevann" />
		<tag k="natural" v="water" />
		<tag k="ssr:stedsnr" v="118262" />
	</node>
	<node id="-250621" lat="59.852536114" lon="10.4211416634">
		<tag k="name" v="Sagdammen" />
>>>>>>> e1d4bc35ff8a6074a6f2e91616a996b547c36f15
		<tag k="natural" v="water" />
		<tag k="ssr:stedsnr" v="568555" />
		<tag k="water" v="lake" />
	</node>
<<<<<<< HEAD
	<node lat="59.604600003709535" lon="10.553336112083745" id="-15357">
		<tag k="name" v="Fjellfiske" />
=======
	<node id="-250617" lat="59.6516861066" lon="10.4890888968">
		<tag k="name" v="Lille Sandungen" />
>>>>>>> e1d4bc35ff8a6074a6f2e91616a996b547c36f15
		<tag k="natural" v="water" />
		<tag k="ssr:stedsnr" v="588758" />
	</node>
<<<<<<< HEAD
	<node lat="59.668799693503395" lon="10.478501803171882" id="-15363">
		<tag k="name" v="Indianervannet" />
		<tag k="natural" v="water" />
		<tag k="ssr:stedsnr" v="603257" />
	</node>
	<node lat="59.685700003272956" lon="10.518330549956978" id="-15365">
		<tag k="name" v="Mellomdammen" />
		<tag k="natural" v="water" />
		<tag k="ssr:stedsnr" v="604302" />
	</node>
	<node lat="59.863633329583635" lon="10.49126944801563" id="-15370">
		<tag k="name" v="Neselva" />
		<tag k="ssr:stedsnr" v="610836" />
		<tag k="waterway" v="stream" />
	</node>
	<node lat="59.82355509410318" lon="10.432636898523377" id="-15376">
		<tag k="name" v="Bondivannet" />
=======
	<node id="-251128" lat="59.9055570839" lon="10.3621768863">
		<tag k="name" v="Damvann" />
		<tag k="natural" v="water" />
		<tag k="ssr:stedsnr" v="732864" />
	</node>
	<node id="-251127" lat="59.7640690986" lon="10.3099677092">
		<tag k="name" v="Skapertjern" />
		<tag k="natural" v="water" />
		<tag k="ssr:stedsnr" v="246187" />
	</node>
	<node id="-251126" lat="59.8932714074" lon="10.362459031">
		<tag k="name" v="Øyevann" />
		<tag k="natural" v="water" />
		<tag k="ssr:stedsnr" v="732859" />
	</node>
	<node id="-251124" lat="59.8140111148" lon="10.3512916597">
		<tag k="alt_name" v="Ulvenvannet" />
		<tag k="name" v="Ulvenvatnet" />
		<tag k="natural" v="water" />
		<tag k="ssr:stedsnr" v="5741" />
	</node>
	<node id="-249582" lat="59.6077249147" lon="10.5637680798">
		<tag k="name" v="Husebyvannet" />
>>>>>>> e1d4bc35ff8a6074a6f2e91616a996b547c36f15
		<tag k="natural" v="water" />
		<tag k="ssr:stedsnr" v="611741" />
		<tag k="water" v="lake" />
	</node>
<<<<<<< HEAD
	<node lat="59.82488055391752" lon="10.384836103884869" id="-15377">
		<tag k="name" v="Svarteputt" />
=======
	<node id="-249362" lat="59.6681750029" lon="10.4958249995">
		<tag k="name" v="Langbukta" />
		<tag k="natural" v="bay" />
		<tag k="ssr:stedsnr" v="665365" />
	</node>
	<node id="-249065" lat="59.6213083312" lon="10.5794611116">
		<tag k="name" v="Svartvann" />
>>>>>>> e1d4bc35ff8a6074a6f2e91616a996b547c36f15
		<tag k="natural" v="water" />
		<tag k="ssr:stedsnr" v="611743" />
	</node>
<<<<<<< HEAD
	<node lat="59.85854988296842" lon="10.421819824723963" id="-15380">
		<tag k="name" v="Semsvannet" />
		<tag k="natural" v="water" />
		<tag k="ssr:stedsnr" v="611817" />
		<tag k="water" v="lake" />
	</node>
	<node lat="59.81878333460733" lon="10.40098333378109" id="-15389">
		<tag k="alt_name" v="Abbortjern" />
		<tag k="name" v="Åbortjern" />
=======
	<node id="-249468" lat="59.7825916677" lon="10.4281638872">
		<tag k="name" v="Skitthegga" />
		<tag k="ssr:stedsnr" v="694579" />
		<tag k="waterway" v="river" />
	</node>
	<node id="-250598" lat="59.5572277762" lon="10.5409249977">
		<tag k="name" v="Striglevannet" />
		<tag k="natural" v="water" />
		<tag k="ssr:stedsnr" v="549673" />
	</node>
	<node id="-250083" lat="59.7708999987" lon="10.4778000037">
		<tag k="name" v="Bøbekken" />
		<tag k="ssr:stedsnr" v="88815" />
		<tag k="waterway" v="stream" />
	</node>
	<node id="-250235" lat="59.8616163641" lon="10.3650589844">
		<tag k="alt_name" v="Sandungen, lille" />
		<tag k="name" v="Lille Sandungen" />
		<tag k="natural" v="water" />
		<tag k="ssr:stedsnr" v="185798" />
		<tag k="water" v="lake" />
	</node>
	<node id="-250064" lat="59.7862916654" lon="10.4017055471">
		<tag k="name" v="Rødbekk" />
		<tag k="ssr:stedsnr" v="83737" />
		<tag k="waterway" v="stream" />
	</node>
	<node id="-249566" lat="59.8513750043" lon="10.4491805472">
		<tag k="name" v="Bikkjedammen" />
>>>>>>> e1d4bc35ff8a6074a6f2e91616a996b547c36f15
		<tag k="natural" v="water" />
		<tag k="ssr:stedsnr" v="629692" />
	</node>
<<<<<<< HEAD
	<node lat="59.75925555223306" lon="10.44055832904699" id="-15403">
		<tag k="name" v="Fabrikkdammen" />
=======
	<node id="-249035" lat="59.6655999979" lon="10.5932055539">
		<tag k="name" v="Nesdammen" />
		<tag k="natural" v="water" />
		<tag k="ssr:stedsnr" v="285328" />
	</node>
	<node id="-249109" lat="59.7936829515" lon="10.4903459863">
		<tag k="name" v="Deledammen" />
		<tag k="natural" v="water" />
		<tag k="ssr:stedsnr" v="264749" />
	</node>
	<node id="-251094" lat="59.6669897608" lon="10.5636722452">
		<tag k="name" v="Verpentjernet" />
>>>>>>> e1d4bc35ff8a6074a6f2e91616a996b547c36f15
		<tag k="natural" v="water" />
		<tag k="ssr:stedsnr" v="633387" />
	</node>
<<<<<<< HEAD
	<node lat="59.56545555508959" lon="10.517636113852157" id="-15423">
		<tag k="name" v="Mørketopytten" />
=======
	<node id="-251093" lat="59.6650678757" lon="10.5662771224">
		<tag k="name" v="Øvre Verpentjernet" />
>>>>>>> e1d4bc35ff8a6074a6f2e91616a996b547c36f15
		<tag k="natural" v="water" />
		<tag k="ssr:stedsnr" v="708599" />
	</node>
<<<<<<< HEAD
	<node lat="59.83831944818955" lon="10.41823889075917" id="-15430">
		<tag k="name" v="Hukenbekken" />
		<tag k="old_name" v="Haukenbekken" />
		<tag k="ssr:stedsnr" v="664633" />
		<tag k="waterway" v="stream" />
	</node>
	<node lat="59.883327776678506" lon="10.352661105813313" id="-15442">
		<tag k="alt_name" v="Svartbekken" />
=======
	<node id="-250065" lat="59.7928096344" lon="10.4909220821">
		<tag k="name" v="Stupengdammen" />
		<tag k="natural" v="water" />
		<tag k="ssr:stedsnr" v="83746" />
	</node>
	<node id="-250576" lat="59.6476694489" lon="10.4689166603">
>>>>>>> e1d4bc35ff8a6074a6f2e91616a996b547c36f15
		<tag k="name" v="Svartebekk" />
		<tag k="ssr:stedsnr" v="671871" />
		<tag k="waterway" v="stream" />
	</node>
<<<<<<< HEAD
	<node lat="59.82454722305071" lon="10.410344438128334" id="-15445">
		<tag k="name" v="Drengsrudvanna" />
		<tag k="natural" v="water" />
		<tag k="ssr:stedsnr" v="672727" />
		<tag k="water" v="lake" />
	</node>
	<node lat="59.78161388928632" lon="10.470974997379205" id="-15452">
		<tag k="name" v="Høymyrdammen" />
=======
	<node id="-250061" lat="59.7798277739" lon="10.4530249939">
		<tag k="name" v="Gjellumbekken" />
		<tag k="ssr:stedsnr" v="83634" />
		<tag k="waterway" v="stream" />
	</node>
	<node id="-249548" lat="59.6601027754" lon="10.4573750031">
		<tag k="name" v="Eggetjern" />
>>>>>>> e1d4bc35ff8a6074a6f2e91616a996b547c36f15
		<tag k="natural" v="water" />
		<tag k="ssr:stedsnr" v="689593" />
	</node>
<<<<<<< HEAD
	<node lat="59.79445833394509" lon="10.448061117187562" id="-15454">
		<tag k="name" v="Guibekken" />
		<tag k="ssr:stedsnr" v="689710" />
		<tag k="waterway" v="stream" />
	</node>
	<node lat="59.78259166766819" lon="10.428163887234351" id="-15469">
		<tag k="name" v="Skitthegga" />
		<tag k="ssr:stedsnr" v="694579" />
		<tag k="waterway" v="river" />
	</node>
	<node lat="59.661986106985594" lon="10.466491660328163" id="-15497">
		<tag k="name" v="Høymyrbukt" />
		<tag k="natural" v="bay" />
		<tag k="ssr:stedsnr" v="725268" />
	</node>
	<node lat="59.66010277539562" lon="10.457375003133574" id="-15498">
		<tag k="name" v="Eggetjern" />
=======
	<node id="-249634" lat="59.7944583339" lon="10.4480611172">
		<tag k="name" v="Guibekken" />
		<tag k="ssr:stedsnr" v="689710" />
		<tag k="waterway" v="stream" />
	</node>
	<node id="-249034" lat="59.6416611105" lon="10.5876000065">
		<tag k="name" v="Sundbydammen" />
>>>>>>> e1d4bc35ff8a6074a6f2e91616a996b547c36f15
		<tag k="natural" v="water" />
		<tag k="ssr:stedsnr" v="725272" />
	</node>
<<<<<<< HEAD
	<node lat="59.64928055819169" lon="10.460252769493058" id="-15517">
		<tag k="alt_name" v="Høgåstjern" />
		<tag k="name" v="Høgåstjernet" />
=======
	<node id="-251079" lat="59.7616908349" lon="10.3992086378">
		<tag k="name" v="Vesledammen" />
>>>>>>> e1d4bc35ff8a6074a6f2e91616a996b547c36f15
		<tag k="natural" v="water" />
		<tag k="ssr:stedsnr" v="732825" />
	</node>
<<<<<<< HEAD
	<node lat="59.872230551997205" lon="10.361352771708386" id="-15521">
		<tag k="name" v="Snarodden" />
		<tag k="natural" v="cape" />
		<tag k="ssr:stedsnr" v="750705" />
	</node>
	<node lat="59.87330555567371" lon="10.370733336032385" id="-15522">
		<tag k="name" v="Eikestøa" />
		<tag k="natural" v="cape" />
		<tag k="ssr:stedsnr" v="750706" />
	</node>
	<node lat="59.863675463591704" lon="10.426290140571327" id="-15526">
		<tag k="name" v="Tømmervika" />
		<tag k="natural" v="bay" />
		<tag k="ssr:stedsnr" v="751516" />
	</node>
	<node lat="59.63524444515674" lon="10.566261118161178" id="-15557">
		<tag k="name" v="Sandbruvann" />
		<tag k="natural" v="water" />
		<tag k="ssr:stedsnr" v="905538" />
	</node>
	<node lat="59.642933335919665" lon="10.590908335127347" id="-15570">
		<tag k="alt_name" v="Sundbydammen nedre" />
		<tag k="name" v="Nedre Sundbydammen" />
=======
	<node id="-249347" lat="59.6297916637" lon="10.5382916708">
		<tag k="name" v="Ausebekken" />
		<tag k="ssr:stedsnr" v="662891" />
		<tag k="waterway" v="stream" />
	</node>
	<node id="-250230" lat="59.5935638918" lon="10.5327027788">
		<tag k="name" v="Blankvann" />
		<tag k="natural" v="bay" />
		<tag k="ssr:stedsnr" v="185721" />
	</node>
	<node id="-249547" lat="59.661986107" lon="10.4664916603">
		<tag k="name" v="Høymyrbukt" />
		<tag k="natural" v="bay" />
		<tag k="ssr:stedsnr" v="725268" />
	</node>
	<node id="-250560" lat="59.5766388877" lon="10.5192388897">
		<tag k="name" v="Bunntjern" />
>>>>>>> e1d4bc35ff8a6074a6f2e91616a996b547c36f15
		<tag k="natural" v="water" />
		<tag k="ssr:stedsnr" v="770313" />
	</node>
<<<<<<< HEAD
	<node lat="59.575474999723475" lon="10.545016669940628" id="-15579">
		<tag k="name" v="Åsstrøket" />
		<tag k="natural" v="cape" />
		<tag k="ssr:stedsnr" v="770628" />
	</node>
	<node lat="59.628911113338305" lon="10.574586111894359" id="-15595">
		<tag k="name" v="Burudvann" />
		<tag k="natural" v="water" />
		<tag k="ssr:stedsnr" v="787636" />
	</node>
	<node lat="59.579936110718094" lon="10.495577771173274" id="-15607">
		<tag k="name" v="Svartvann" />
		<tag k="natural" v="water" />
		<tag k="ssr:stedsnr" v="792711" />
	</node>
	<node lat="59.68212222417629" lon="10.494761109795109" id="-15617">
		<tag k="alt_name" v="Kalvetjern" />
		<tag k="name" v="Kalvetjernet" />
=======
	<node id="-251071" lat="59.6629861142" lon="10.5151722214">
		<tag k="name" v="Skogholmen" />
		<tag k="place" v="islet" />
		<tag k="ssr:stedsnr" v="969328" />
	</node>
	<node id="-250046" lat="59.6641166694" lon="10.4813638814">
		<tag k="name" v="Nåbyvann" />
		<tag k="natural" v="water" />
		<tag k="ssr:stedsnr" v="65813" />
	</node>
	<node id="-250045" lat="59.7992583343" lon="10.4270749945">
		<tag k="name" v="Verkenselva" />
		<tag k="ssr:stedsnr" v="65693" />
		<tag k="waterway" v="stream" />
	</node>
	<node id="-251062" lat="59.6432333333" lon="10.4864638837">
		<tag k="name" v="Kvernbukt" />
		<tag k="natural" v="bay" />
		<tag k="ssr:stedsnr" v="967256" />
	</node>
	<node id="-250036" lat="59.6288059383" lon="10.5749093071">
		<tag k="name" v="Burevannet" />
>>>>>>> e1d4bc35ff8a6074a6f2e91616a996b547c36f15
		<tag k="natural" v="water" />
		<tag k="ssr:stedsnr" v="913760" />
	</node>
<<<<<<< HEAD
	<node lat="59.72588333637693" lon="10.458861110697532" id="-15619">
		<tag k="name" v="Åroselva" />
		<tag k="ssr:stedsnr" v="913779" />
		<tag k="waterway" v="river" />
	</node>
	<node lat="59.743527774831456" lon="10.485380560698271" id="-15620">
		<tag k="alt_name" v="Bårsrudtjern" />
		<tag k="name" v="Bårsrudtjernet" />
=======
	<node id="-249010" lat="59.6667333364" lon="10.5103527806">
		<tag k="name" v="Nordre Mørkvannet" />
>>>>>>> e1d4bc35ff8a6074a6f2e91616a996b547c36f15
		<tag k="natural" v="water" />
		<tag k="old_name" v="Baarsrudvatnet" />
		<tag k="ssr:stedsnr" v="913951" />
	</node>
<<<<<<< HEAD
	<node lat="59.60897222657135" lon="10.527661117904541" id="-15621">
		<tag k="name" v="Rødvannet" />
=======
	<node id="-250545" lat="59.8309001871" lon="10.3854109687">
		<tag k="name" v="Finnsrudvannet" />
>>>>>>> e1d4bc35ff8a6074a6f2e91616a996b547c36f15
		<tag k="natural" v="water" />
		<tag k="ssr:stedsnr" v="914654" />
		<tag k="water" v="lake" />
	</node>
<<<<<<< HEAD
	<node lat="59.64780573099753" lon="10.476590755665532" id="-15623">
		<tag k="name" v="Sandungen" />
=======
	<node id="-250031" lat="59.6695444402" lon="10.4491166617">
		<tag k="name" v="Rørvikvannet" />
>>>>>>> e1d4bc35ff8a6074a6f2e91616a996b547c36f15
		<tag k="natural" v="water" />
		<tag k="ssr:stedsnr" v="914824" />
		<tag k="water" v="lake" />
	</node>
<<<<<<< HEAD
	<node lat="59.84656111089502" lon="10.371761107561861" id="-15632">
		<tag k="name" v="Tranevann" />
		<tag k="natural" v="water" />
		<tag k="ssr:stedsnr" v="915780" />
	</node>
	<node lat="59.81975833596962" lon="10.371261117041952" id="-15641">
		<tag k="name" v="Svinesjøen" />
=======
	<node id="-251051" lat="59.6056472239" lon="10.5903666752">
		<tag k="name" v="Linnavannet" />
>>>>>>> e1d4bc35ff8a6074a6f2e91616a996b547c36f15
		<tag k="natural" v="water" />
		<tag k="ssr:stedsnr" v="811692" />
	</node>
<<<<<<< HEAD
	<node lat="59.87409722081293" lon="10.338944447084621" id="-15643">
		<tag k="name" v="Karibekken" />
		<tag k="ssr:stedsnr" v="811704" />
		<tag k="waterway" v="stream" />
	</node>
	<node lat="59.59063888936464" lon="10.559013886143978" id="-15666">
		<tag k="alt_name" v="Røedseterpytten" />
		<tag k="name" v="Rødseterpytten" />
=======
	<node id="-250025" lat="59.5942138881" lon="10.5191805514">
		<tag k="name" v="Surtingen" />
		<tag k="natural" v="bay" />
		<tag k="ssr:stedsnr" v="63734" />
	</node>
	<node id="-250024" lat="59.5839527802" lon="10.4457444414">
		<tag k="name" v="Himmelvannet" />
>>>>>>> e1d4bc35ff8a6074a6f2e91616a996b547c36f15
		<tag k="natural" v="water" />
		<tag k="ssr:stedsnr" v="831614" />
		<tag k="water" v="pond" />
	</node>
<<<<<<< HEAD
	<node lat="59.59958055188517" lon="10.569227774010917" id="-15668">
		<tag k="name" v="Steindamspyttene" />
=======
	<node id="-248996" lat="59.6682684908" lon="10.5476789054">
		<tag k="name" v="Bråtadammen" />
>>>>>>> e1d4bc35ff8a6074a6f2e91616a996b547c36f15
		<tag k="natural" v="water" />
		<tag k="ssr:stedsnr" v="831681" />
		<tag k="water" v="lake" />
	</node>
<<<<<<< HEAD
	<node lat="59.86738889127255" lon="10.390477775391092" id="-15682">
		<tag k="name" v="Flåbekken" />
		<tag k="ssr:stedsnr" v="853814" />
		<tag k="waterway" v="stream" />
	</node>
	<node lat="59.87033611436809" lon="10.463644448354097" id="-15710">
		<tag k="name" v="Åstaddammen" />
		<tag k="natural" v="water" />
		<tag k="ssr:stedsnr" v="933542" />
	</node>
	<node lat="59.56968610940641" lon="10.483997222596711" id="-15736">
		<tag k="name" v="Vassenga" />
=======
	<node id="-250016" lat="59.6612833352" lon="10.5149166681">
		<tag k="name" v="Ringeriksholmen" />
		<tag k="place" v="islet" />
		<tag k="ssr:stedsnr" v="59321" />
	</node>
	<node id="-249316" lat="59.6126472227" lon="10.5617888954">
		<tag k="name" v="Lille Husebyvannet" />
		<tag k="natural" v="water" />
		<tag k="ssr:stedsnr" v="428618" />
	</node>
	<node id="-250523" lat="59.6335833362" lon="10.4883249981">
		<tag k="name" v="Semsbukta" />
>>>>>>> e1d4bc35ff8a6074a6f2e91616a996b547c36f15
		<tag k="natural" v="bay" />
		<tag k="ssr:stedsnr" v="907210" />
	</node>
<<<<<<< HEAD
	<node lat="59.67316944793224" lon="10.535483333638227" id="-15740">
		<tag k="name" v="Langsethdammen" />
=======
	<node id="-250520" lat="59.6288527784" lon="10.5593499958">
		<tag k="name" v="Svartvann" />
>>>>>>> e1d4bc35ff8a6074a6f2e91616a996b547c36f15
		<tag k="natural" v="water" />
		<tag k="ssr:stedsnr" v="908321" />
	</node>
<<<<<<< HEAD
	<node lat="59.619866665685116" lon="10.524891673572348" id="-15751">
		<tag k="name" v="Sæterpytten" />
		<tag k="natural" v="water" />
		<tag k="ssr:stedsnr" v="913631" />
	</node>
	<node lat="59.690990570026884" lon="10.459813718111526" id="-15754">
		<tag k="alt_name" v="Setervann" />
		<tag k="name" v="Setervannet" />
=======
	<node id="-249495" lat="59.5654555551" lon="10.5176361139">
		<tag k="name" v="Mørketopytten" />
		<tag k="natural" v="water" />
		<tag k="ssr:stedsnr" v="708599" />
	</node>
	<node id="-249710" lat="59.69099057" lon="10.4598137181">
		<tag k="alt_name" v="Setervann" />
		<tag k="name" v="Setervannet" />
		<tag k="natural" v="water" />
		<tag k="ssr:stedsnr" v="913740" />
		<tag k="water" v="lake" />
	</node>
	<node id="-249888" lat="59.6363305549" lon="10.4899555628">
		<tag k="name" v="Tjærovnstangen" />
		<tag k="natural" v="cape" />
		<tag k="ssr:stedsnr" v="969556" />
	</node>
	<node id="-251021" lat="59.7954111139" lon="10.3443333316">
		<tag k="name" v="Åstjern" />
>>>>>>> e1d4bc35ff8a6074a6f2e91616a996b547c36f15
		<tag k="natural" v="water" />
		<tag k="ssr:stedsnr" v="913740" />
		<tag k="water" v="lake" />
	</node>
<<<<<<< HEAD
	<node lat="59.657977779324945" lon="10.520447221786785" id="-15758">
		<tag k="name" v="Mørkvannet" />
		<tag k="natural" v="water" />
		<tag k="ssr:stedsnr" v="914813" />
		<tag k="water" v="lake" />
	</node>
	<node lat="59.8122055574275" lon="10.428616672896064" id="-15769">
		<tag k="name" v="Barlindbekken" />
		<tag k="ssr:stedsnr" v="933708" />
		<tag k="waterway" v="stream" />
	</node>
	<node lat="59.64323333331535" lon="10.486463883690517" id="-15793">
		<tag k="name" v="Kvernbukt" />
		<tag k="natural" v="bay" />
		<tag k="ssr:stedsnr" v="967256" />
	</node>
	<node lat="59.64536944712275" lon="10.46138056080124" id="-15825">
		<tag k="name" v="Svartekulp" />
=======
	<node id="-250818" lat="59.7660500014" lon="10.353122224">
		<tag k="name" v="Haukelidammen" />
		<tag k="natural" v="water" />
		<tag k="ssr:stedsnr" v="754363" />
	</node>
	<node id="-249479" lat="59.8195503745" lon="10.4595917351">
		<tag k="name" v="Åbydammen" />
>>>>>>> e1d4bc35ff8a6074a6f2e91616a996b547c36f15
		<tag k="natural" v="water" />
		<tag k="ssr:stedsnr" v="4849" />
	</node>
<<<<<<< HEAD
	<node lat="59.8140111148029" lon="10.351291659707812" id="-15831">
		<tag k="alt_name" v="Ulvenvannet" />
		<tag k="name" v="Ulvenvatnet" />
=======
	<node id="-248966" lat="59.8507645108" lon="10.4873186504">
		<tag k="name" v="Syverstaddammen" />
>>>>>>> e1d4bc35ff8a6074a6f2e91616a996b547c36f15
		<tag k="natural" v="water" />
		<tag k="ssr:stedsnr" v="5741" />
	</node>
	<node lat="59.841955551664945" lon="10.377786119448242" id="-15835">
		<tag k="name" v="Gjertrudsen" />
		<tag k="natural" v="water" />
		<tag k="ssr:stedsnr" v="22621" />
	</node>
<<<<<<< HEAD
	<node lat="59.72087323824427" lon="10.412649647429756" id="-15856">
		<tag k="name" v="Tretjern" />
		<tag k="natural" v="water" />
		<tag k="ssr:stedsnr" v="26952" />
	</node>
	<node lat="59.75827222456703" lon="10.45536944765955" id="-15864">
		<tag k="name" v="Bøbekken" />
		<tag k="ssr:stedsnr" v="28380" />
		<tag k="waterway" v="stream" />
	</node>
	<node lat="59.596313888532194" lon="10.57121945147336" id="-15874">
		<tag k="name" v="Storkelmyrvannet" />
		<tag k="natural" v="water" />
		<tag k="ssr:stedsnr" v="42678" />
	</node>
	<node lat="59.594213888056174" lon="10.519180551425722" id="-15891">
		<tag k="name" v="Surtingen" />
		<tag k="natural" v="bay" />
		<tag k="ssr:stedsnr" v="63734" />
	</node>
	<node lat="59.62880593827919" lon="10.574909307074485" id="-15899">
		<tag k="name" v="Burevannet" />
		<tag k="natural" v="water" />
		<tag k="ssr:stedsnr" v="64672" />
	</node>
	<node lat="59.799258334348636" lon="10.427074994533791" id="-15908">
		<tag k="name" v="Verkenselva" />
		<tag k="ssr:stedsnr" v="65693" />
		<tag k="waterway" v="stream" />
	</node>
	<node lat="59.81458333513175" lon="10.368733325964682" id="-15912">
		<tag k="name" v="Nordvannet" />
=======
	<node id="-249477" lat="59.8273194448" lon="10.3869944437">
		<tag k="name" v="Katteputt" />
		<tag k="natural" v="water" />
		<tag k="ssr:stedsnr" v="568630" />
		<tag k="water" v="pond" />
	</node>
	<node id="-248961" lat="59.881408332" lon="10.3959555534">
		<tag k="name" v="Svagfossen" />
		<tag k="natural" v="waterfall" />
		<tag k="ssr:stedsnr" v="265611" />
	</node>
	<node id="-249984" lat="59.5606583321" lon="10.5476638824">
		<tag k="alt_name" v="Striglevann lille" />
		<tag k="name" v="Lille-Striglevann" />
>>>>>>> e1d4bc35ff8a6074a6f2e91616a996b547c36f15
		<tag k="natural" v="water" />
		<tag k="ssr:stedsnr" v="66738" />
	</node>
<<<<<<< HEAD
	<node lat="59.803788889439446" lon="10.395391670564392" id="-15926">
		<tag k="name" v="Stampedammen" />
		<tag k="place" v="locality" />
		<tag k="ssr:stedsnr" v="83725" />
	</node>
	<node lat="59.79280963435248" lon="10.490922082114" id="-15928">
		<tag k="name" v="Stupengdammen" />
=======
	<node id="-250495" lat="59.5880555581" lon="10.5335861197">
		<tag k="name" v="Kapteinvika" />
		<tag k="natural" v="bay" />
		<tag k="ssr:stedsnr" v="406642" />
	</node>
	<node id="-250493" lat="59.6144916659" lon="10.5023527701">
		<tag k="alt_name" v="Klopptjern lille" />
		<tag k="name" v="Lille Klopptjern" />
>>>>>>> e1d4bc35ff8a6074a6f2e91616a996b547c36f15
		<tag k="natural" v="water" />
		<tag k="ssr:stedsnr" v="83746" />
	</node>
<<<<<<< HEAD
	<node lat="59.666567924864594" lon="10.486913087880405" id="-15958">
		<tag k="alt_name" v="Skoklevann n." />
		<tag k="name" v="Nordre Skoklevann" />
		<tag k="natural" v="water" />
		<tag k="ssr:stedsnr" v="118262" />
	</node>
	<node lat="59.702599196455786" lon="10.455357770869298" id="-15967">
		<tag k="name" v="Svartvann" />
		<tag k="natural" v="water" />
		<tag k="ssr:stedsnr" v="124769" />
	</node>
	<node lat="59.64110555332321" lon="10.55303610464879" id="-15970">
		<tag k="name" v="Båntjern" />
		<tag k="natural" v="water" />
		<tag k="ssr:stedsnr" v="124817" />
	</node>
	<node lat="59.671105559816894" lon="10.494711105718117" id="-15978">
		<tag k="name" v="Bjørvann" />
		<tag k="natural" v="water" />
		<tag k="old_name" v="Bjorvatn;Bjorvann" />
		<tag k="ssr:stedsnr" v="125861" />
	</node>
	<node lat="59.67365278022446" lon="10.518547230675242" id="-15980">
		<tag k="alt_name" v="Sætreelven" />
		<tag k="name" v="Sætreelva" />
		<tag k="ssr:stedsnr" v="125868" />
		<tag k="waterway" v="stream" />
	</node>
	<node lat="59.644169443981454" lon="10.599163890164714" id="-16002">
		<tag k="name" v="Buabekken" />
		<tag k="ssr:stedsnr" v="145896" />
		<tag k="waterway" v="stream" />
	</node>
	<node lat="59.70369166255132" lon="10.447702771643678" id="-16005">
		<tag k="name" v="Eglevann" />
		<tag k="natural" v="water" />
		<tag k="ssr:stedsnr" v="147883" />
		<tag k="water" v="lake" />
	</node>
	<node lat="59.66826849084698" lon="10.547678905368235" id="-16014">
		<tag k="name" v="Bråtadammen" />
=======
	<node id="-251004" lat="59.6591722247" lon="10.5585555557">
		<tag k="name" v="Storkleivdammen" />
		<tag k="natural" v="water" />
		<tag k="ssr:stedsnr" v="848360" />
	</node>
	<node id="-249706" lat="59.6198666657" lon="10.5248916736">
		<tag k="name" v="Sæterpytten" />
		<tag k="natural" v="water" />
		<tag k="ssr:stedsnr" v="913631" />
	</node>
	<node id="-249976" lat="59.7582722246" lon="10.4553694477">
		<tag k="name" v="Bøbekken" />
		<tag k="ssr:stedsnr" v="28380" />
		<tag k="waterway" v="stream" />
	</node>
	<node id="-251070" lat="59.6859333365" lon="10.5160666606">
		<tag k="name" v="Øvredammen" />
		<tag k="natural" v="water" />
		<tag k="ssr:stedsnr" v="969295" />
	</node>
	<node id="-248945" lat="59.8616388855" lon="10.4177916749">
		<tag k="name" v="Tveiterfossen" />
		<tag k="natural" v="waterfall" />
		<tag k="ssr:stedsnr" v="265512" />
	</node>
	<node id="-249967" lat="59.7208732382" lon="10.4126496474">
		<tag k="name" v="Tretjern" />
>>>>>>> e1d4bc35ff8a6074a6f2e91616a996b547c36f15
		<tag k="natural" v="water" />
		<tag k="ssr:stedsnr" v="161308" />
	</node>
<<<<<<< HEAD
	<node lat="59.56593395299787" lon="10.513886324596847" id="-16043">
		<tag k="name" v="Lomvannet" />
=======
	<node id="-251049" lat="59.5968027767" lon="10.5596722192">
		<tag k="name" v="Svartvann" />
		<tag k="natural" v="water" />
		<tag k="ssr:stedsnr" v="952701" />
	</node>
	<node id="-250130" lat="59.7025991965" lon="10.4553577709">
		<tag k="name" v="Svartvann" />
		<tag k="natural" v="water" />
		<tag k="ssr:stedsnr" v="124769" />
	</node>
	<node id="-250986" lat="59.5995805519" lon="10.569227774">
		<tag k="name" v="Steindamspyttene" />
>>>>>>> e1d4bc35ff8a6074a6f2e91616a996b547c36f15
		<tag k="natural" v="water" />
		<tag k="ssr:stedsnr" v="185673" />
	</node>
	<node lat="59.59356389175822" lon="10.532702778760141" id="-16046">
		<tag k="name" v="Blankvann" />
		<tag k="natural" v="bay" />
		<tag k="ssr:stedsnr" v="185721" />
	</node>
	<node lat="59.86161636408875" lon="10.365058984434885" id="-16048">
		<tag k="alt_name" v="Sandungen, lille" />
		<tag k="name" v="Lille Sandungen" />
		<tag k="natural" v="water" />
		<tag k="ssr:stedsnr" v="185798" />
		<tag k="water" v="lake" />
	</node>
<<<<<<< HEAD
	<node lat="59.63747547535158" lon="10.556525822957129" id="-16049">
		<tag k="name" v="Svartvann" />
=======
	<node id="-250984" lat="59.5906388894" lon="10.5590138861">
		<tag k="alt_name" v="Røedseterpytten" />
		<tag k="name" v="Rødseterpytten" />
>>>>>>> e1d4bc35ff8a6074a6f2e91616a996b547c36f15
		<tag k="natural" v="water" />
		<tag k="ssr:stedsnr" v="185830" />
	</node>
<<<<<<< HEAD
	<node lat="59.77010833426996" lon="10.391236102491025" id="-16051">
		<tag k="name" v="Svartvannet" />
		<tag k="natural" v="water" />
		<tag k="ssr:stedsnr" v="187580" />
	</node>
	<node lat="59.83352292343497" lon="10.40126410927265" id="-16062">
		<tag k="name" v="Hogstadvannet" />
		<tag k="natural" v="water" />
		<tag k="ssr:stedsnr" v="187734" />
	</node>
	<node lat="59.85407777773397" lon="10.420163894719146" id="-16066">
		<tag k="name" v="Høveldammen" />
=======
	<node id="-249851" lat="59.6731694479" lon="10.5354833336">
		<tag k="name" v="Langsethdammen" />
		<tag k="natural" v="water" />
		<tag k="ssr:stedsnr" v="908321" />
	</node>
	<node id="-248849" lat="59.6297666645" lon="10.518144444">
		<tag k="name" v="Småvannene" />
		<tag k="natural" v="water" />
		<tag k="ssr:stedsnr" v="237887" />
		<tag k="water" v="lake" />
	</node>
	<node id="-250465" lat="59.8295416701" lon="10.4106694478">
		<tag k="name" v="Drengsrudbekken" />
		<tag k="ssr:stedsnr" v="386672" />
		<tag k="waterway" v="stream" />
	</node>
	<node id="-248924" lat="59.8037888894" lon="10.3953916706">
		<tag k="name" v="Stampedammen" />
		<tag k="place" v="locality" />
		<tag k="ssr:stedsnr" v="83725" />
	</node>
	<node id="-249435" lat="59.7816138893" lon="10.4709749974">
		<tag k="name" v="Høymyrdammen" />
>>>>>>> e1d4bc35ff8a6074a6f2e91616a996b547c36f15
		<tag k="natural" v="water" />
		<tag k="ssr:stedsnr" v="205552" />
	</node>
<<<<<<< HEAD
	<node lat="59.832269439922065" lon="10.391350007325952" id="-16076">
		<tag k="name" v="Brendsrudvannet" />
=======
	<node id="-250455" lat="59.8797388933" lon="10.4059055592">
		<tag k="name" v="Fløyta" />
>>>>>>> e1d4bc35ff8a6074a6f2e91616a996b547c36f15
		<tag k="natural" v="water" />
		<tag k="ssr:stedsnr" v="205675" />
	</node>
<<<<<<< HEAD
	<node lat="59.708991667556376" lon="10.384913887118772" id="-16091">
		<tag k="name" v="Buktebekken" />
		<tag k="ssr:stedsnr" v="208960" />
		<tag k="waterway" v="stream" />
	</node>
	<node lat="59.73283055771848" lon="10.383944443507344" id="-16096">
		<tag k="name" v="Sandvadbekken" />
		<tag k="ssr:stedsnr" v="209548" />
		<tag k="waterway" v="stream" />
	</node>
	<node lat="59.59760555830984" lon="10.507038896731501" id="-16108">
		<tag k="name" v="Bergervann" />
=======
	<node id="-250454" lat="59.8445388853" lon="10.4311749968">
		<tag k="name" v="Askerelva" />
		<tag k="ssr:stedsnr" v="368811" />
		<tag k="waterway" v="river" />
	</node>
	<node id="-249940" lat="59.8151636618" lon="10.4580131487">
		<tag k="name" v="Munkedammen" />
		<tag k="natural" v="water" />
		<tag k="ssr:stedsnr" v="23611" />
	</node>
	<node id="-248915" lat="59.867550877" lon="10.5271912469">
		<tag k="alt_name" v="Nesøytjern" />
		<tag k="name" v="Nesøytjernet" />
>>>>>>> e1d4bc35ff8a6074a6f2e91616a996b547c36f15
		<tag k="natural" v="water" />
		<tag k="ssr:stedsnr" v="224601" />
		<tag k="water" v="pond" />
	</node>
<<<<<<< HEAD
	<node lat="59.66673333635656" lon="10.510352780639245" id="-16120">
		<tag k="name" v="Nordre Mørkvannet" />
		<tag k="natural" v="water" />
		<tag k="ssr:stedsnr" v="282765" />
	</node>
	<node lat="59.64166111050426" lon="10.587600006517166" id="-16128">
		<tag k="name" v="Sundbydammen" />
=======
	<node id="-249936" lat="59.8419555517" lon="10.3777861194">
		<tag k="name" v="Gjertrudsen" />
>>>>>>> e1d4bc35ff8a6074a6f2e91616a996b547c36f15
		<tag k="natural" v="water" />
		<tag k="ssr:stedsnr" v="285325" />
	</node>
<<<<<<< HEAD
	<node lat="59.73592778019098" lon="10.320472223357125" id="-16152">
		<tag k="name" v="Dauerudbekken" />
		<tag k="ssr:stedsnr" v="306351" />
		<tag k="waterway" v="stream" />
	</node>
	<node lat="59.587033330871535" lon="10.525797229660434" id="-16158">
		<tag k="name" v="Nordvestvannet" />
		<tag k="natural" v="water" />
		<tag k="ssr:stedsnr" v="306715" />
	</node>
	<node lat="59.58202222585209" lon="10.486005553570044" id="-16159">
		<tag k="name" v="Rødbyvannet" />
		<tag k="natural" v="water" />
		<tag k="ssr:stedsnr" v="306718" />
		<tag k="water" v="lake" />
	</node>
	<node lat="59.59708382585841" lon="10.538744563561284" id="-16161">
		<tag k="name" v="Røsvannet" />
		<tag k="natural" v="water" />
		<tag k="ssr:stedsnr" v="306721" />
	</node>
	<node lat="59.63273888462475" lon="10.512769446735929" id="-16167">
		<tag k="name" v="Åsvannet" />
		<tag k="natural" v="water" />
		<tag k="ssr:stedsnr" v="307693" />
	</node>
	<node lat="59.79203333181476" lon="10.4387305583153" id="-16178">
		<tag k="name" v="Gjellumvannet" />
=======
	<node id="-249227" lat="59.6635865604" lon="10.4882135888">
		<tag k="name" v="Skoklevanna" />
		<tag k="natural" v="water" />
		<tag k="ssr:stedsnr" v="489859" />
		<tag k="water" v="lake" />
	</node>
	<node id="-249928" lat="59.6453694471" lon="10.4613805608">
		<tag k="name" v="Svartekulp" />
		<tag k="natural" v="water" />
		<tag k="ssr:stedsnr" v="4849" />
	</node>
	<node id="-249185" lat="59.5497472204" lon="10.5673694496">
		<tag k="name" v="Tofteelva" />
		<tag k="ssr:stedsnr" v="483642" />
		<tag k="waterway" v="river" />
	</node>
	<node id="-249411" lat="59.8764166659" lon="10.3530416718">
		<tag k="name" v="Vadfoss" />
		<tag k="natural" v="waterfall" />
		<tag k="ssr:stedsnr" v="507713" />
	</node>
	<node id="-249099" lat="59.7719083343" lon="10.4354500033">
		<tag k="name" v="Grodalselva" />
		<tag k="ssr:stedsnr" v="452788" />
		<tag k="waterway" v="river" />
	</node>
	<node id="-249917" lat="59.7832870129" lon="10.3770747016">
		<tag k="alt_name" v="Småtjerna;Småvannene" />
		<tag k="name" v="Småvann" />
		<tag k="natural" v="water" />
		<tag k="ssr:stedsnr" v="4667" />
		<tag k="water" v="lake" />
	</node>
	<node id="-248892" lat="59.6761333336" lon="10.4719027808">
		<tag k="name" v="Mårbergvannet" />
>>>>>>> e1d4bc35ff8a6074a6f2e91616a996b547c36f15
		<tag k="natural" v="water" />
		<tag k="ssr:stedsnr" v="308679" />
	</node>
<<<<<<< HEAD
	<node lat="59.8338749981688" lon="10.350961114766683" id="-16180">
		<tag k="name" v="Delebekken" />
		<tag k="ssr:stedsnr" v="325852" />
		<tag k="waterway" v="stream" />
	</node>
	<node lat="59.82808793958038" lon="10.460949115454952" id="-16182">
		<tag k="name" v="Einedammen" />
		<tag k="natural" v="water" />
		<tag k="ssr:stedsnr" v="326588" />
		<tag k="water" v="lake" />
	</node>
	<node lat="59.8358963199659" lon="10.497978009458304" id="-16184">
		<tag k="name" v="Spiradammen" />
=======
	<node id="-250939" lat="59.8740972208" lon="10.3389444471">
		<tag k="name" v="Karibekken" />
		<tag k="ssr:stedsnr" v="811704" />
		<tag k="waterway" v="stream" />
	</node>
	<node id="-250425" lat="59.6336472193" lon="10.4764444528">
		<tag k="name" v="Rokkestadbukta" />
		<tag k="natural" v="bay" />
		<tag k="ssr:stedsnr" v="362546" />
	</node>
	<node id="-250952" lat="59.7679472199" lon="10.4135583377">
		<tag k="name" v="Hengefoss" />
		<tag k="natural" v="waterfall" />
		<tag k="ssr:stedsnr" v="816639" />
	</node>
	<node id="-248883" lat="59.6339666699" lon="10.5268277831">
		<tag k="name" v="Ålbyvannet" />
>>>>>>> e1d4bc35ff8a6074a6f2e91616a996b547c36f15
		<tag k="natural" v="water" />
		<tag k="ssr:stedsnr" v="326550" />
	</node>
<<<<<<< HEAD
	<node lat="59.822527288354024" lon="10.359261233094637" id="-16187">
		<tag k="name" v="Padderudvannet" />
=======
	<node id="-249394" lat="59.8245472231" lon="10.4103444381">
		<tag k="name" v="Drengsrudvanna" />
>>>>>>> e1d4bc35ff8a6074a6f2e91616a996b547c36f15
		<tag k="natural" v="water" />
		<tag k="ssr:stedsnr" v="326681" />
		<tag k="water" v="lake" />
	</node>
<<<<<<< HEAD
	<node lat="59.69229999773337" lon="10.4804527787302" id="-16204">
		<tag k="name" v="Sandbekken" />
		<tag k="ssr:stedsnr" v="329972" />
		<tag k="waterway" v="stream" />
	</node>
	<node lat="59.659311109042214" lon="10.513711104340013" id="-16219">
		<tag k="name" v="Nordbukt" />
		<tag k="natural" v="bay" />
		<tag k="ssr:stedsnr" v="358855" />
	</node>
	<node lat="59.662214557290476" lon="10.485543940071466" id="-16225">
=======
	<node id="-250416" lat="59.6539555562" lon="10.4446861067">
		<tag k="name" v="Flaubekken" />
		<tag k="ssr:stedsnr" v="361320" />
		<tag k="waterway" v="stream" />
	</node>
	<node id="-250415" lat="59.6622145573" lon="10.4855439401">
>>>>>>> e1d4bc35ff8a6074a6f2e91616a996b547c36f15
		<tag k="alt_name" v="Skoklevann s." />
		<tag k="name" v="Søndre Skoklevann" />
		<tag k="natural" v="water" />
		<tag k="ssr:stedsnr" v="361315" />
	</node>
<<<<<<< HEAD
	<node lat="59.653955556222684" lon="10.444686106704337" id="-16226">
		<tag k="name" v="Flaubekken" />
		<tag k="ssr:stedsnr" v="361320" />
		<tag k="waterway" v="stream" />
	</node>
	<node lat="59.63364721931155" lon="10.476444452809766" id="-16238">
		<tag k="name" v="Rokkestadbukta" />
		<tag k="natural" v="bay" />
		<tag k="ssr:stedsnr" v="362546" />
	</node>
	<node lat="59.84453888528087" lon="10.431174996830611" id="-16263">
		<tag k="name" v="Askerelva" />
		<tag k="ssr:stedsnr" v="368811" />
		<tag k="waterway" v="river" />
	</node>
	<node lat="59.795938886427045" lon="10.435972226398802" id="-16268">
		<tag k="name" v="Sætrefossen" />
		<tag k="natural" v="waterfall" />
		<tag k="ssr:stedsnr" v="386727" />
	</node>
	<node lat="59.829541670065694" lon="10.410669447762483" id="-16272">
		<tag k="name" v="Drengsrudbekken" />
		<tag k="ssr:stedsnr" v="386672" />
		<tag k="waterway" v="stream" />
	</node>
	<node lat="59.614491665877736" lon="10.502352770067771" id="-16293">
		<tag k="alt_name" v="Klopptjern lille" />
		<tag k="name" v="Lille Klopptjern" />
		<tag k="natural" v="water" />
		<tag k="ssr:stedsnr" v="406632" />
	</node>
	<node lat="59.588055558050904" lon="10.533586119662134" id="-16296">
		<tag k="name" v="Kapteinvika" />
		<tag k="natural" v="bay" />
		<tag k="ssr:stedsnr" v="406642" />
	</node>
	<node lat="59.63358333615373" lon="10.488324998089162" id="-16317">
		<tag k="name" v="Semsbukta" />
		<tag k="natural" v="bay" />
		<tag k="ssr:stedsnr" v="423582" />
	</node>
	<node lat="59.830900187140074" lon="10.385410968706779" id="-16336">
		<tag k="name" v="Finnsrudvannet" />
		<tag k="natural" v="water" />
		<tag k="ssr:stedsnr" v="429749" />
	</node>
	<node lat="59.621780556933324" lon="10.51530000094926" id="-16349">
		<tag k="name" v="Skavmyrvannet" />
=======
	<node id="-249080" lat="59.5920805596" lon="10.5286361054">
		<tag k="name" v="Langvann" />
		<tag k="natural" v="water" />
		<tag k="ssr:stedsnr" v="245716" />
		<tag k="water" v="lake" />
	</node>
	<node id="-248876" lat="59.8145833351" lon="10.368733326">
		<tag k="name" v="Nordvannet" />
		<tag k="natural" v="water" />
		<tag k="ssr:stedsnr" v="66738" />
	</node>
	<node id="-249387" lat="59.8833277767" lon="10.3526611058">
		<tag k="alt_name" v="Svartbekken" />
		<tag k="name" v="Svartebekk" />
		<tag k="ssr:stedsnr" v="671871" />
		<tag k="waterway" v="stream" />
	</node>
	<node id="-249022" lat="59.5744527789" lon="10.496761112">
		<tag k="name" v="Kastebekken" />
		<tag k="ssr:stedsnr" v="283672" />
		<tag k="waterway" v="stream" />
	</node>
	<node id="-248869" lat="59.8764861137" lon="10.4603472294">
		<tag k="name" v="Stokkerelva" />
		<tag k="ssr:stedsnr" v="64839" />
		<tag k="waterway" v="stream" />
	</node>
	<node id="-250915" lat="59.815652782" lon="10.3875166595">
		<tag k="name" v="Oppsjø" />
>>>>>>> e1d4bc35ff8a6074a6f2e91616a996b547c36f15
		<tag k="natural" v="water" />
		<tag k="ssr:stedsnr" v="670648" />
	</node>
<<<<<<< HEAD
	<node lat="59.725594448132796" lon="10.421575008813019" id="-16350">
=======
	<node id="-249376" lat="59.7255944481" lon="10.4215750088">
>>>>>>> e1d4bc35ff8a6074a6f2e91616a996b547c36f15
		<tag k="name" v="Igletjern" />
		<tag k="natural" v="water" />
		<tag k="ssr:stedsnr" v="670780" />
	</node>
<<<<<<< HEAD
	<node lat="59.69445833121699" lon="10.412938884773716" id="-16374">
		<tag k="name" v="Jerdalsbekken" />
		<tag k="ssr:stedsnr" v="511758" />
		<tag k="waterway" v="stream" />
	</node>
	<node lat="59.64766944890802" lon="10.468916660270544" id="-16399">
		<tag k="name" v="Svartebekk" />
		<tag k="ssr:stedsnr" v="543298" />
		<tag k="waterway" v="stream" />
	</node>
	<node lat="59.55722777619385" lon="10.540924997714837" id="-16410">
		<tag k="name" v="Striglevannet" />
=======
	<node id="-250910" lat="59.6456972233" lon="10.5611444384">
		<tag k="name" v="Hesthagadammen" />
>>>>>>> e1d4bc35ff8a6074a6f2e91616a996b547c36f15
		<tag k="natural" v="water" />
		<tag k="ssr:stedsnr" v="549673" />
	</node>
<<<<<<< HEAD
	<node lat="59.65168610663763" lon="10.48908889683434" id="-16420">
		<tag k="name" v="Lille Sandungen" />
=======
	<node id="-249861" lat="59.8465611109" lon="10.3717611076">
		<tag k="name" v="Tranevann" />
		<tag k="natural" v="water" />
		<tag k="ssr:stedsnr" v="915780" />
	</node>
	<node id="-249372" lat="59.6217805569" lon="10.5153000009">
		<tag k="name" v="Skavmyrvannet" />
>>>>>>> e1d4bc35ff8a6074a6f2e91616a996b547c36f15
		<tag k="natural" v="water" />
		<tag k="ssr:stedsnr" v="550829" />
	</node>
<<<<<<< HEAD
	<node lat="59.8594611078115" lon="10.475900005896978" id="-16424">
		<tag k="name" v="Torstaddammen" />
		<tag k="natural" v="water" />
		<tag k="ssr:stedsnr" v="568491" />
	</node>
	<node lat="59.82731944480074" lon="10.38699444367207" id="-16427">
		<tag k="name" v="Katteputt" />
=======
	<node id="-249178" lat="59.658326532" lon="10.4592560476">
		<tag k="name" v="Pissborovann" />
		<tag k="natural" v="water" />
		<tag k="ssr:stedsnr" v="482258" />
	</node>
	<node id="-249881" lat="59.6189333311" lon="10.507372221">
		<tag k="name" v="Bjørnebåsvann" />
>>>>>>> e1d4bc35ff8a6074a6f2e91616a996b547c36f15
		<tag k="natural" v="water" />
		<tag k="ssr:stedsnr" v="568630" />
		<tag k="water" v="pond" />
	</node>
<<<<<<< HEAD
	<node lat="59.536338884703504" lon="10.466369447044562" id="-16450">
		<tag k="alt_name" v="Knatvoldbekken" />
		<tag k="name" v="Knattvollbekken" />
		<tag k="ssr:stedsnr" v="587181" />
		<tag k="waterway" v="river" />
	</node>
	<node lat="59.64424166761066" lon="10.48294166515412" id="-16466">
		<tag k="name" v="Djupebukt" />
		<tag k="natural" v="bay" />
		<tag k="ssr:stedsnr" v="603281" />
	</node>
	<node lat="59.67319063595722" lon="10.527657682452556" id="-16472">
		<tag k="name" v="Slingrebekk" />
		<tag k="ssr:stedsnr" v="604940" />
		<tag k="waterway" v="stream" />
	</node>
	<node lat="59.61538055157018" lon="10.497552775780505" id="-16486">
		<tag k="alt_name" v="Klopptjern" />
		<tag k="name" v="Klopptjernet" />
		<tag k="natural" v="water" />
		<tag k="ssr:stedsnr" v="610672" />
	</node>
	<node lat="59.647419400871236" lon="10.486379264585553" id="-16489">
		<tag k="alt_name" v="Damtjern" />
		<tag k="name" v="Damtjernet" />
=======
	<node id="-249367" lat="59.5766555565" lon="10.5300222291">
		<tag k="name" v="Kjellerbekken" />
		<tag k="ssr:stedsnr" v="466669" />
		<tag k="waterway" v="stream" />
	</node>
	<node id="-250390" lat="59.6922999977" lon="10.4804527787">
		<tag k="name" v="Sandbekken" />
		<tag k="ssr:stedsnr" v="329972" />
		<tag k="waterway" v="stream" />
	</node>
	<node id="-249989" lat="59.5963138885" lon="10.5712194515">
		<tag k="name" v="Storkelmyrvannet" />
		<tag k="natural" v="water" />
		<tag k="ssr:stedsnr" v="42678" />
	</node>
	<node id="-248851" lat="59.7534250029" lon="10.3926972262">
		<tag k="name" v="Vaskebekk" />
		<tag k="ssr:stedsnr" v="239032" />
		<tag k="waterway" v="stream" />
	</node>
	<node id="-250898" lat="59.5799361107" lon="10.4955777712">
		<tag k="name" v="Svartvann" />
		<tag k="natural" v="water" />
		<tag k="ssr:stedsnr" v="792711" />
	</node>
	<node id="-249361" lat="59.6747527784" lon="10.5025638939">
		<tag k="name" v="Kalvetjern" />
>>>>>>> e1d4bc35ff8a6074a6f2e91616a996b547c36f15
		<tag k="natural" v="water" />
		<tag k="ssr:stedsnr" v="610844" />
	</node>
<<<<<<< HEAD
	<node lat="59.61750277735754" lon="10.478869450594782" id="-16491">
		<tag k="alt_name" v="Ugstadelva" />
		<tag k="name" v="Ustadelva" />
		<tag k="ssr:stedsnr" v="610674" />
		<tag k="waterway" v="stream" />
	</node>
	<node lat="59.675780555714674" lon="10.478352769928636" id="-16493">
		<tag k="name" v="Langvann" />
=======
	<node id="-249359" lat="59.6742361074" lon="10.5370944425">
		<tag k="name" v="Grytnesbekken" />
		<tag k="ssr:stedsnr" v="665348" />
		<tag k="waterway" v="stream" />
	</node>
	<node id="-250894" lat="59.6661396278" lon="10.5649016746">
		<tag k="name" v="Verpentjerna" />
>>>>>>> e1d4bc35ff8a6074a6f2e91616a996b547c36f15
		<tag k="natural" v="water" />
		<tag k="ssr:stedsnr" v="610865" />
	</node>
<<<<<<< HEAD
	<node lat="59.8513750042533" lon="10.449180547224636" id="-16499">
		<tag k="name" v="Bikkjedammen" />
		<tag k="natural" v="water" />
		<tag k="ssr:stedsnr" v="629655" />
	</node>
	<node lat="59.57804721824243" lon="10.538513891051549" id="-16538">
		<tag k="name" v="Røskestad" />
		<tag k="natural" v="cape" />
		<tag k="ssr:stedsnr" v="648658" />
	</node>
	<node lat="59.6297916636527" lon="10.538291670775852" id="-16544">
		<tag k="name" v="Ausebekken" />
		<tag k="ssr:stedsnr" v="662891" />
		<tag k="waterway" v="stream" />
	</node>
	<node lat="59.67423610736422" lon="10.53709444249245" id="-16551">
		<tag k="name" v="Grytnesbekken" />
		<tag k="ssr:stedsnr" v="665348" />
		<tag k="waterway" v="stream" />
	</node>
	<node lat="59.67475277836562" lon="10.502563893872974" id="-16553">
		<tag k="name" v="Kalvetjern" />
=======
	<node id="-249714" lat="59.7435277748" lon="10.4853805607">
		<tag k="alt_name" v="Bårsrudtjern" />
		<tag k="name" v="Bårsrudtjernet" />
		<tag k="natural" v="water" />
		<tag k="old_name" v="Baarsrudvatnet" />
		<tag k="ssr:stedsnr" v="913951" />
	</node>
	<node id="-249355" lat="59.8383194482" lon="10.4182388908">
		<tag k="name" v="Hukenbekken" />
		<tag k="old_name" v="Haukenbekken" />
		<tag k="ssr:stedsnr" v="664633" />
		<tag k="waterway" v="stream" />
	</node>
	<node id="-250378" lat="59.8225272884" lon="10.3592612331">
		<tag k="name" v="Padderudvannet" />
>>>>>>> e1d4bc35ff8a6074a6f2e91616a996b547c36f15
		<tag k="natural" v="water" />
		<tag k="ssr:stedsnr" v="665364" />
	</node>
<<<<<<< HEAD
	<node lat="59.66817500292357" lon="10.495824999513555" id="-16554">
		<tag k="name" v="Langbukta" />
		<tag k="natural" v="bay" />
		<tag k="ssr:stedsnr" v="665365" />
	</node>
	<node lat="59.65107499648669" lon="10.533994442609226" id="-16561">
		<tag k="name" v="Midtskogvann" />
		<tag k="natural" v="water" />
		<tag k="ssr:stedsnr" v="723848" />
	</node>
	<node lat="59.6077249146829" lon="10.563768079782662" id="-16581">
		<tag k="name" v="Husebyvannet" />
		<tag k="natural" v="water" />
		<tag k="ssr:stedsnr" v="731587" />
		<tag k="water" v="lake" />
	</node>
	<node lat="59.643141662840335" lon="10.5307194400514" id="-16585">
		<tag k="name" v="Lille Stikkvannet" />
=======
	<node id="-248841" lat="59.61749167" lon="10.5456333253">
		<tag k="name" v="Prestebukta" />
		<tag k="natural" v="bay" />
		<tag k="ssr:stedsnr" v="237517" />
	</node>
	<node id="-250375" lat="59.8280879396" lon="10.4609491155">
		<tag k="name" v="Einedammen" />
		<tag k="natural" v="water" />
		<tag k="ssr:stedsnr" v="326588" />
		<tag k="water" v="lake" />
	</node>
	<node id="-249862" lat="59.8703361144" lon="10.4636444484">
		<tag k="name" v="Åstaddammen" />
>>>>>>> e1d4bc35ff8a6074a6f2e91616a996b547c36f15
		<tag k="natural" v="water" />
		<tag k="ssr:stedsnr" v="731832" />
	</node>
<<<<<<< HEAD
	<node lat="59.89327140736553" lon="10.362459030968378" id="-16588">
		<tag k="name" v="Øyevann" />
=======
	<node id="-250373" lat="59.83589632" lon="10.4979780095">
		<tag k="name" v="Spiradammen" />
>>>>>>> e1d4bc35ff8a6074a6f2e91616a996b547c36f15
		<tag k="natural" v="water" />
		<tag k="ssr:stedsnr" v="732859" />
	</node>
<<<<<<< HEAD
	<node lat="59.90555708393198" lon="10.362176886311884" id="-16589">
		<tag k="name" v="Damvann" />
=======
	<node id="-250883" lat="59.6289111133" lon="10.5745861119">
		<tag k="name" v="Burudvann" />
>>>>>>> e1d4bc35ff8a6074a6f2e91616a996b547c36f15
		<tag k="natural" v="water" />
		<tag k="ssr:stedsnr" v="732864" />
	</node>
<<<<<<< HEAD
	<node lat="59.85554444300841" lon="10.40712499322408" id="-16600">
		<tag k="name" v="Herkjelbekken" />
		<tag k="ssr:stedsnr" v="751521" />
		<tag k="waterway" v="stream" />
	</node>
	<node lat="59.76605000140826" lon="10.353122224032466" id="-16614">
		<tag k="name" v="Haukelidammen" />
		<tag k="natural" v="water" />
		<tag k="ssr:stedsnr" v="754363" />
	</node>
	<node lat="59.7025555516656" lon="10.513272223613875" id="-16616">
		<tag k="name" v="Stordammen" />
		<tag k="natural" v="water" />
		<tag k="ssr:stedsnr" v="754972" />
	</node>
	<node lat="59.651894442749054" lon="10.492419446379694" id="-16645">
		<tag k="name" v="Østre Stutøye" />
		<tag k="natural" v="water" />
		<tag k="ssr:stedsnr" v="783874" />
	</node>
	<node lat="59.6529544728483" lon="10.48498391858492" id="-16648">
		<tag k="name" v="Vestre Stutøye" />
		<tag k="natural" v="water" />
		<tag k="ssr:stedsnr" v="786298" />
	</node>
	<node lat="59.66383405495405" lon="10.486821230849737" id="-16650">
		<tag k="alt_name" v="Skoklevann m." />
		<tag k="name" v="Midtre Skoklevann" />
		<tag k="natural" v="water" />
		<tag k="ssr:stedsnr" v="786282" />
	</node>
	<node lat="59.54702222358464" lon="10.553974995933752" id="-16652">
		<tag k="name" v="Diamanten" />
		<tag k="natural" v="water" />
		<tag k="ssr:stedsnr" v="786634" />
	</node>
	<node lat="59.61664277066486" lon="10.546508602758042" id="-16667">
		<tag k="name" v="Aklangen" />
		<tag k="natural" v="water" />
		<tag k="ssr:stedsnr" v="792626" />
		<tag k="water" v="lake" />
	</node>
	<node lat="59.66613962784925" lon="10.564901674573393" id="-16669">
		<tag k="name" v="Verpentjerna" />
		<tag k="natural" v="water" />
		<tag k="ssr:stedsnr" v="792844" />
		<tag k="water" v="lake" />
	</node>
	<node lat="59.64569722330766" lon="10.56114443843367" id="-16680">
		<tag k="name" v="Hesthagadammen" />
		<tag k="natural" v="water" />
		<tag k="ssr:stedsnr" v="793835" />
	</node>
	<node lat="59.81565278204422" lon="10.387516659507632" id="-16684">
		<tag k="name" v="Oppsjø" />
		<tag k="natural" v="water" />
		<tag k="ssr:stedsnr" v="794749" />
	</node>
	<node lat="59.76794721987894" lon="10.413558337723453" id="-16715">
		<tag k="name" v="Hengefoss" />
		<tag k="natural" v="waterfall" />
		<tag k="ssr:stedsnr" v="816639" />
	</node>
	<node lat="59.659172224675046" lon="10.558555555661062" id="-16746">
		<tag k="name" v="Storkleivdammen" />
		<tag k="natural" v="water" />
		<tag k="ssr:stedsnr" v="848360" />
	</node>
	<node lat="59.8757527811683" lon="10.413349995300214" id="-16754">
		<tag k="name" v="Gupuelva" />
		<tag k="ssr:stedsnr" v="853826" />
		<tag k="waterway" v="stream" />
	</node>
	<node lat="59.79435833383943" lon="10.335127769139802" id="-16763">
		<tag k="name" v="Svarteputt" />
		<tag k="natural" v="water" />
		<tag k="ssr:stedsnr" v="854128" />
	</node>
	<node lat="59.795411113874565" lon="10.344333331567256" id="-16766">
		<tag k="name" v="Åstjern" />
		<tag k="natural" v="water" />
		<tag k="ssr:stedsnr" v="854692" />
	</node>
	<node lat="59.81083610720498" lon="10.483511109413907" id="-16787">
		<tag k="name" v="Høybakkdammen" />
		<tag k="natural" v="water" />
		<tag k="ssr:stedsnr" v="872613" />
	</node>
	<node lat="59.59680277671306" lon="10.559672219213535" id="-16828">
		<tag k="name" v="Svartvann" />
		<tag k="natural" v="water" />
		<tag k="ssr:stedsnr" v="952701" />
	</node>
	<node lat="59.60564722386203" lon="10.590366675231516" id="-16830">
		<tag k="name" v="Linnavannet" />
		<tag k="natural" v="water" />
		<tag k="ssr:stedsnr" v="952709" />
	</node>
	<node lat="59.61893333108302" lon="10.507372220982804" id="-16837">
		<tag k="name" v="Bjørnebåsvann" />
		<tag k="natural" v="water" />
		<tag k="ssr:stedsnr" v="965569" />
	</node>
	<node lat="59.63633055488904" lon="10.489955562767417" id="-16842">
		<tag k="name" v="Tjærovnstangen" />
		<tag k="natural" v="cape" />
		<tag k="ssr:stedsnr" v="969556" />
	</node>
	<node lat="59.68593333653602" lon="10.516066660620282" id="-16849">
		<tag k="name" v="Øvredammen" />
		<tag k="natural" v="water" />
		<tag k="ssr:stedsnr" v="969295" />
	</node>
	<node lat="59.66298611422428" lon="10.515172221389854" id="-16851">
		<tag k="name" v="Skogholmen" />
		<tag k="place" v="islet" />
		<tag k="ssr:stedsnr" v="969328" />
	</node>
	<node lat="59.76169083493476" lon="10.399208637771432" id="-16854">
		<tag k="name" v="Vesledammen" />
		<tag k="natural" v="water" />
		<tag k="ssr:stedsnr" v="976134" />
	</node>
	<node lat="59.6650678756684" lon="10.56627712241997" id="-16860">
		<tag k="name" v="Øvre Verpentjernet" />
		<tag k="natural" v="water" />
		<tag k="ssr:stedsnr" v="985674" />
	</node>
	<node lat="59.666989760764096" lon="10.563672245164794" id="-16861">
		<tag k="name" v="Verpentjernet" />
		<tag k="natural" v="water" />
		<tag k="ssr:stedsnr" v="985675" />
	</node>
=======
>>>>>>> e1d4bc35ff8a6074a6f2e91616a996b547c36f15
</osm>
