<?xml version="1.0" encoding="UTF-8"?>
<osm generator="osmapis" version="0.6">
	<node id="-197407" lat="59.4154722234" lon="10.48508611">
		<tag k="amenity" v="townhall" />
		<tag k="name" v="Rådhuset" />
		<tag k="ssr:date" v="2016-05-11" />
		<tag k="ssr:gruppe" v="institusjoner" />
		<tag k="ssr:hovedgruppe" v="bebyggelse" />
		<tag k="ssr:stedsnr" v="951650" />
		<tag k="ssr:type" v="rådhus" />
	</node>
	<node id="-197406" lat="59.3668749982" lon="10.533886111">
		<tag k="name" v="Bastøyodden" />
		<tag k="natural" v="cape" />
		<tag k="ssr:date" v="2016-05-11" />
		<tag k="ssr:gruppe" v="kystkontur" />
		<tag k="ssr:hovedgruppe" v="sjø" />
		<tag k="ssr:stedsnr" v="948060" />
		<tag k="ssr:type" v="nesISjø" />
	</node>
	<node id="-197405" lat="59.353052778" lon="10.4634333312">
		<tag k="name" v="Nygård" />
		<tag k="place" v="isolated_dwelling" />
		<tag k="ssr:date" v="2016-05-11" />
		<tag k="ssr:gruppe" v="bolighus" />
		<tag k="ssr:hovedgruppe" v="bebyggelse" />
		<tag k="ssr:stedsnr" v="948044" />
		<tag k="ssr:type" v="eneboligMindreBoligbygg" />
	</node>
	<node id="-197404" lat="59.430519441" lon="10.3503555561">
		<tag k="alt_name" v="Ås nedre" />
		<tag k="fixme" v="consider place=hamlet" />
		<tag k="name" v="Nedre Ås" />
		<tag k="place" v="farm" />
		<tag k="ssr:date" v="2018-06-01" />
		<tag k="ssr:gruppe" v="gardsbebyggelse" />
		<tag k="ssr:hovedgruppe" v="bebyggelse" />
		<tag k="ssr:stedsnr" v="938834" />
		<tag k="ssr:type" v="gard" />
	</node>
	<node id="-197403" lat="59.3767440382" lon="10.4401688117">
		<tag k="name" v="Glenne" />
		<tag k="place" v="hamlet" />
		<tag k="ssr:date" v="2018-05-29" />
		<tag k="ssr:gruppe" v="gardsbebyggelse" />
		<tag k="ssr:hovedgruppe" v="bebyggelse" />
		<tag k="ssr:stedsnr" v="938380" />
		<tag k="ssr:type" v="navnegard" />
	</node>
	<node id="-197402" lat="59.3609777759" lon="10.4117777847">
		<tag k="fixme" v="consider place=hamlet" />
		<tag k="name" v="Adal mellom" />
		<tag k="place" v="farm" />
		<tag k="ssr:date" v="2018-05-31" />
		<tag k="ssr:gruppe" v="gardsbebyggelse" />
		<tag k="ssr:hovedgruppe" v="bebyggelse" />
		<tag k="ssr:stedsnr" v="938377" />
		<tag k="ssr:type" v="gard" />
	</node>
	<node id="-197401" lat="59.4441666638" lon="10.4845138874">
		<tag k="name" v="Vealøsrenna" />
		<tag k="natural" v="strait" />
		<tag k="ssr:date" v="2016-05-11" />
		<tag k="ssr:gruppe" v="kystkontur" />
		<tag k="ssr:hovedgruppe" v="sjø" />
		<tag k="ssr:stedsnr" v="938097" />
		<tag k="ssr:type" v="sundISjø" />
	</node>
	<node id="-197400" lat="59.3547555588" lon="10.4484138803">
		<tag k="name" v="Koterød" />
		<tag k="place" v="farm" />
		<tag k="ssr:date" v="2016-05-11" />
		<tag k="ssr:gruppe" v="gardsbebyggelse" />
		<tag k="ssr:hovedgruppe" v="bebyggelse" />
		<tag k="ssr:stedsnr" v="938090" />
		<tag k="ssr:type" v="bruk" />
	</node>
	<node id="-197399" lat="59.4237916685" lon="10.3867749962">
		<tag k="name" v="Myrvang" />
		<tag k="place" v="farm" />
		<tag k="ssr:date" v="2016-05-11" />
		<tag k="ssr:gruppe" v="gardsbebyggelse" />
		<tag k="ssr:hovedgruppe" v="bebyggelse" />
		<tag k="ssr:stedsnr" v="937890" />
		<tag k="ssr:type" v="bruk" />
	</node>
	<node id="-197398" lat="59.4398333306" lon="10.4301305573">
		<tag k="name" v="Mølledammen" />
		<tag k="natural" v="water" />
		<tag k="ssr:date" v="2016-05-11" />
		<tag k="ssr:gruppe" v="stilleståendeVann" />
		<tag k="ssr:hovedgruppe" v="ferskvann" />
		<tag k="ssr:stedsnr" v="935857" />
		<tag k="ssr:type" v="tjern" />
	</node>
	<node id="-197397" lat="59.3888472255" lon="10.4630749991">
		<tag k="name" v="Vold" />
		<tag k="place" v="farm" />
		<tag k="ssr:date" v="2016-05-11" />
		<tag k="ssr:gruppe" v="gardsbebyggelse" />
		<tag k="ssr:hovedgruppe" v="bebyggelse" />
		<tag k="ssr:stedsnr" v="935848" />
		<tag k="ssr:type" v="bruk" />
	</node>
	<node id="-197396" lat="59.3819472225" lon="10.4378027792">
		<tag k="name" v="Glenne nedre" />
		<tag k="place" v="farm" />
		<tag k="ssr:date" v="2016-05-11" />
		<tag k="ssr:gruppe" v="gardsbebyggelse" />
		<tag k="ssr:hovedgruppe" v="bebyggelse" />
		<tag k="ssr:stedsnr" v="935845" />
		<tag k="ssr:type" v="bruk" />
	</node>
	<node id="-197395" lat="59.3994333329" lon="10.425647229">
		<tag k="fixme" v="consider place=hamlet" />
		<tag k="name" v="Solberg østre" />
		<tag k="place" v="farm" />
		<tag k="ssr:date" v="2018-05-29" />
		<tag k="ssr:gruppe" v="gardsbebyggelse" />
		<tag k="ssr:hovedgruppe" v="bebyggelse" />
		<tag k="ssr:stedsnr" v="935842" />
		<tag k="ssr:type" v="gard" />
	</node>
	<node id="-197394" lat="59.3997333374" lon="10.4111638841">
		<tag k="name" v="Rygland østre" />
		<tag k="place" v="farm" />
		<tag k="ssr:date" v="2016-05-11" />
		<tag k="ssr:gruppe" v="gardsbebyggelse" />
		<tag k="ssr:hovedgruppe" v="bebyggelse" />
		<tag k="ssr:stedsnr" v="935826" />
		<tag k="ssr:type" v="bruk" />
	</node>
	<node id="-197393" lat="59.4057694477" lon="10.4783194475">
		<tag k="building" v="industrial" />
		<tag k="industrial" v="factory" />
		<tag k="name" v="Horten bryggeri" />
		<tag k="ssr:date" v="2016-05-11" />
		<tag k="ssr:gruppe" v="næring" />
		<tag k="ssr:hovedgruppe" v="bebyggelse" />
		<tag k="ssr:stedsnr" v="935823" />
		<tag k="ssr:type" v="fabrikk" />
	</node>
	<node id="-197392" lat="59.4203555548" lon="10.4206499976">
		<tag k="name" v="Vik mellom" />
		<tag k="place" v="farm" />
		<tag k="ssr:date" v="2016-05-11" />
		<tag k="ssr:gruppe" v="gardsbebyggelse" />
		<tag k="ssr:hovedgruppe" v="bebyggelse" />
		<tag k="ssr:stedsnr" v="935818" />
		<tag k="ssr:type" v="bruk" />
	</node>
	<node id="-197391" lat="59.372891667" lon="10.4556361174">
		<tag k="name" v="Granholt" />
		<tag k="place" v="locality" />
		<tag k="ssr:date" v="2016-05-11" />
		<tag k="ssr:gruppe" v="vegetasjon" />
		<tag k="ssr:hovedgruppe" v="markslag" />
		<tag k="ssr:stedsnr" v="935811" />
		<tag k="ssr:type" v="skog" />
	</node>
	<node id="-197390" lat="59.352597218" lon="10.4390527701">
		<tag k="name" v="Kjær" />
		<tag k="place" v="farm" />
		<tag k="ssr:date" v="2016-05-11" />
		<tag k="ssr:gruppe" v="gardsbebyggelse" />
		<tag k="ssr:hovedgruppe" v="bebyggelse" />
		<tag k="ssr:stedsnr" v="935807" />
		<tag k="ssr:type" v="bruk" />
	</node>
	<node id="-197389" lat="59.4132083336" lon="10.3855166679">
		<tag k="fixme" v="consider place=hamlet" />
		<tag k="name" v="Austad" />
		<tag k="place" v="farm" />
		<tag k="ssr:date" v="2018-05-31" />
		<tag k="ssr:gruppe" v="gardsbebyggelse" />
		<tag k="ssr:hovedgruppe" v="bebyggelse" />
		<tag k="ssr:stedsnr" v="913986" />
		<tag k="ssr:type" v="gard" />
	</node>
	<node id="-197388" lat="59.4170555586" lon="10.3911611162">
		<tag k="fixme" v="consider place=hamlet" />
		<tag k="name" v="Prestegården" />
		<tag k="place" v="farm" />
		<tag k="ssr:date" v="2018-05-31" />
		<tag k="ssr:gruppe" v="gardsbebyggelse" />
		<tag k="ssr:hovedgruppe" v="bebyggelse" />
		<tag k="ssr:stedsnr" v="913984" />
		<tag k="ssr:type" v="gard" />
	</node>
	<node id="-197387" lat="59.4143361135" lon="10.4193472238">
		<tag k="fixme" v="consider place=hamlet" />
		<tag k="name" v="Haukeli" />
		<tag k="place" v="farm" />
		<tag k="ssr:date" v="2018-05-29" />
		<tag k="ssr:gruppe" v="gardsbebyggelse" />
		<tag k="ssr:hovedgruppe" v="bebyggelse" />
		<tag k="ssr:stedsnr" v="913981" />
		<tag k="ssr:type" v="gard" />
	</node>
	<node id="-197386" lat="59.4064182816" lon="10.3652076125">
		<tag k="name" v="Pauli" />
		<tag k="place" v="farm" />
		<tag k="ssr:date" v="2019-05-15" />
		<tag k="ssr:gruppe" v="gardsbebyggelse" />
		<tag k="ssr:hovedgruppe" v="bebyggelse" />
		<tag k="ssr:stedsnr" v="913974" />
		<tag k="ssr:type" v="bruk" />
	</node>
	<node id="-197385" lat="59.4209027772" lon="10.3422499936">
		<tag k="name" v="Bakke" />
		<tag k="place" v="farm" />
		<tag k="ssr:date" v="2016-05-11" />
		<tag k="ssr:gruppe" v="gardsbebyggelse" />
		<tag k="ssr:hovedgruppe" v="bebyggelse" />
		<tag k="ssr:stedsnr" v="913130" />
		<tag k="ssr:type" v="bruk" />
	</node>
	<node id="-197384" lat="59.4254972189" lon="10.4862055524">
		<tag k="alt_name" v="Indre havn" />
		<tag k="name" v="Indrehavn" />
		<tag k="natural" v="bay" />
		<tag k="ssr:date" v="2016-05-11" />
		<tag k="ssr:gruppe" v="kystkontur" />
		<tag k="ssr:hovedgruppe" v="sjø" />
		<tag k="ssr:stedsnr" v="912986" />
		<tag k="ssr:type" v="vikISjø" />
	</node>
	<node id="-197383" lat="59.4514138883" lon="10.4485888934">
		<tag k="name" v="Veggbukta" />
		<tag k="natural" v="bay" />
		<tag k="ssr:date" v="2016-05-11" />
		<tag k="ssr:gruppe" v="kystkontur" />
		<tag k="ssr:hovedgruppe" v="sjø" />
		<tag k="ssr:stedsnr" v="912958" />
		<tag k="ssr:type" v="vikISjø" />
	</node>
	<node id="-197382" lat="59.4053583329" lon="10.5286305527">
		<tag k="name" v="Djupgrunnen" />
		<tag k="natural" v="shoal" />
		<tag k="place" v="locality" />
		<tag k="ssr:date" v="2016-05-11" />
		<tag k="ssr:gruppe" v="grunnerISjø" />
		<tag k="ssr:hovedgruppe" v="sjø" />
		<tag k="ssr:stedsnr" v="906756" />
		<tag k="ssr:type" v="grunneISjø" />
	</node>
	<node id="-197381" lat="59.3866194453" lon="10.5119944494">
		<tag k="name" v="Kalverenna" />
		<tag k="place" v="locality" />
		<tag k="ssr:date" v="2016-05-11" />
		<tag k="ssr:gruppe" v="sjøbunn" />
		<tag k="ssr:hovedgruppe" v="sjø" />
		<tag k="ssr:stedsnr" v="905526" />
		<tag k="ssr:type" v="renneKløftISjø" />
	</node>
	<node id="-197380" lat="59.4497166638" lon="10.4043888894">
		<tag k="name" v="Singelbukta" />
		<tag k="natural" v="bay" />
		<tag k="ssr:date" v="2016-05-11" />
		<tag k="ssr:gruppe" v="kystkontur" />
		<tag k="ssr:hovedgruppe" v="sjø" />
		<tag k="ssr:stedsnr" v="878449" />
		<tag k="ssr:type" v="vikISjø" />
	</node>
	<node id="-197379" lat="59.4532388932" lon="10.3859833375">
		<tag k="name" v="Frebergskrakken" />
		<tag k="natural" v="shoal" />
		<tag k="place" v="locality" />
		<tag k="ssr:date" v="2016-05-11" />
		<tag k="ssr:gruppe" v="grunnerISjø" />
		<tag k="ssr:hovedgruppe" v="sjø" />
		<tag k="ssr:stedsnr" v="878105" />
		<tag k="ssr:type" v="grunneISjø" />
	</node>
	<node id="-197378" lat="59.373977782" lon="10.467041668">
		<tag k="fixme" v="consider seamark:type=rock or natural=shoal" />
		<tag k="name" v="Dover" />
		<tag k="place" v="islet" />
		<tag k="ssr:date" v="2016-05-11" />
		<tag k="ssr:gruppe" v="grunnerISjø" />
		<tag k="ssr:hovedgruppe" v="sjø" />
		<tag k="ssr:stedsnr" v="877099" />
		<tag k="ssr:type" v="skjærISjø" />
	</node>
	<node id="-197377" lat="59.4372611093" lon="10.4326027693">
		<tag k="fixme" v="consider natural=peak for the most distinct mountains in the district" />
		<tag k="name" v="Veierudåsen" />
		<tag k="natural" v="hill" />
		<tag k="place" v="locality" />
		<tag k="ssr:date" v="2016-05-11" />
		<tag k="ssr:gruppe" v="høyder" />
		<tag k="ssr:hovedgruppe" v="terreng" />
		<tag k="ssr:stedsnr" v="874851" />
		<tag k="ssr:type" v="ås" />
	</node>
	<node id="-197376" lat="59.3825361148" lon="10.4555500058">
		<tag k="name" v="Kirkebakken" />
		<tag k="place" v="quarter" />
		<tag k="ssr:date" v="2016-05-11" />
		<tag k="ssr:gruppe" v="bebyggelsesområder" />
		<tag k="ssr:hovedgruppe" v="bebyggelse" />
		<tag k="ssr:stedsnr" v="874845" />
		<tag k="ssr:type" v="boligfelt" />
	</node>
	<node id="-197375" lat="59.4168583378" lon="10.4684249984">
		<tag k="fixme" v="consider natural=peak for the most distinct mountains in the district" />
		<tag k="name" v="Brårudåsen" />
		<tag k="natural" v="hill" />
		<tag k="place" v="locality" />
		<tag k="ssr:date" v="2016-05-11" />
		<tag k="ssr:gruppe" v="høyder" />
		<tag k="ssr:hovedgruppe" v="terreng" />
		<tag k="ssr:stedsnr" v="874835" />
		<tag k="ssr:type" v="ås" />
	</node>
	<node id="-197374" lat="59.3591638935" lon="10.4403888803">
		<tag k="name" v="Furuhaug" />
		<tag k="place" v="farm" />
		<tag k="ssr:date" v="2016-05-11" />
		<tag k="ssr:gruppe" v="gardsbebyggelse" />
		<tag k="ssr:hovedgruppe" v="bebyggelse" />
		<tag k="ssr:stedsnr" v="874812" />
		<tag k="ssr:type" v="bruk" />
	</node>
	<node id="-197373" lat="59.3576555594" lon="10.4464500017">
		<tag k="name" v="Kirkenga" />
		<tag k="place" v="farm" />
		<tag k="ssr:date" v="2016-05-11" />
		<tag k="ssr:gruppe" v="gardsbebyggelse" />
		<tag k="ssr:hovedgruppe" v="bebyggelse" />
		<tag k="ssr:stedsnr" v="874807" />
		<tag k="ssr:type" v="bruk" />
	</node>
	<node id="-197371" lat="59.4257027769" lon="10.3940305517">
		<tag k="name" v="Utheim" />
		<tag k="place" v="farm" />
		<tag k="ssr:date" v="2016-05-11" />
		<tag k="ssr:gruppe" v="gardsbebyggelse" />
		<tag k="ssr:hovedgruppe" v="bebyggelse" />
		<tag k="ssr:stedsnr" v="852994" />
		<tag k="ssr:type" v="bruk" />
	</node>
	<node id="-197370" lat="59.4220749958" lon="10.4221499934">
		<tag k="alt_name" v="Vik" />
		<tag k="fixme" v="consider place=hamlet" />
		<tag k="name" v="Vik nordre" />
		<tag k="place" v="farm" />
		<tag k="ssr:date" v="2018-05-29" />
		<tag k="ssr:gruppe" v="gardsbebyggelse" />
		<tag k="ssr:hovedgruppe" v="bebyggelse" />
		<tag k="ssr:stedsnr" v="852990" />
		<tag k="ssr:type" v="gard" />
	</node>
	<node id="-197369" lat="59.4063333291" lon="10.3903611119">
		<tag k="fixme" v="consider place=hamlet" />
		<tag k="name" v="Føske" />
		<tag k="place" v="farm" />
		<tag k="ssr:date" v="2018-05-31" />
		<tag k="ssr:gruppe" v="gardsbebyggelse" />
		<tag k="ssr:hovedgruppe" v="bebyggelse" />
		<tag k="ssr:stedsnr" v="852963" />
		<tag k="ssr:type" v="gard" />
	</node>
	<node id="-197368" lat="59.4445361142" lon="10.3539249961">
		<tag k="fixme" v="consider place=hamlet" />
		<tag k="name" v="Tangen" />
		<tag k="place" v="farm" />
		<tag k="ssr:date" v="2018-06-01" />
		<tag k="ssr:gruppe" v="gardsbebyggelse" />
		<tag k="ssr:hovedgruppe" v="bebyggelse" />
		<tag k="ssr:stedsnr" v="852943" />
		<tag k="ssr:type" v="gard" />
	</node>
	<node id="-197367" lat="59.3690833312" lon="10.4048722205">
		<tag k="name" v="Skogly" />
		<tag k="place" v="farm" />
		<tag k="ssr:date" v="2016-05-11" />
		<tag k="ssr:gruppe" v="gardsbebyggelse" />
		<tag k="ssr:hovedgruppe" v="bebyggelse" />
		<tag k="ssr:stedsnr" v="852550" />
		<tag k="ssr:type" v="bruk" />
	</node>
	<node id="-197366" lat="59.3818888906" lon="10.4379638832">
		<tag k="name" v="Borre" />
		<tag k="place" v="farm" />
		<tag k="ssr:date" v="2016-05-11" />
		<tag k="ssr:gruppe" v="gardsbebyggelse" />
		<tag k="ssr:hovedgruppe" v="bebyggelse" />
		<tag k="ssr:stedsnr" v="852540" />
		<tag k="ssr:type" v="bruk" />
	</node>
	<node id="-197365" lat="59.3867694423" lon="10.4637916611">
		<tag k="alt_name" v="Voll;Nordre Vold" />
		<tag k="fixme" v="consider place=hamlet" />
		<tag k="name" v="Vold" />
		<tag k="place" v="farm" />
		<tag k="ssr:date" v="2018-05-29" />
		<tag k="ssr:gruppe" v="gardsbebyggelse" />
		<tag k="ssr:hovedgruppe" v="bebyggelse" />
		<tag k="ssr:stedsnr" v="852526" />
		<tag k="ssr:type" v="gard" />
	</node>
	<node id="-197364" lat="59.4348055519" lon="10.4470027849">
		<tag k="name" v="Evjeåsen" />
		<tag k="place" v="quarter" />
		<tag k="ssr:date" v="2016-05-11" />
		<tag k="ssr:gruppe" v="bebyggelsesområder" />
		<tag k="ssr:hovedgruppe" v="bebyggelse" />
		<tag k="ssr:stedsnr" v="844682" />
		<tag k="ssr:type" v="boligfelt" />
	</node>
	<node id="-197361" lat="59.4029027742" lon="10.4797861176">
		<tag k="layer" v="-1" />
		<tag k="name" v="Hortenstunnelen" />
		<tag k="ssr:date" v="2016-05-11" />
		<tag k="ssr:gruppe" v="samferdselsanlegg" />
		<tag k="ssr:hovedgruppe" v="infrastruktur" />
		<tag k="ssr:stedsnr" v="833513" />
		<tag k="ssr:type" v="tunnel" />
		<tag k="tunnel" v="yes" />
	</node>
	<node id="-197360" lat="59.4415861154" lon="10.4149472191">
		<tag k="name" v="Veggen" />
		<tag k="natural" v="hill" />
		<tag k="place" v="locality" />
		<tag k="ssr:date" v="2016-05-11" />
		<tag k="ssr:gruppe" v="høyder" />
		<tag k="ssr:hovedgruppe" v="terreng" />
		<tag k="ssr:stedsnr" v="817840" />
		<tag k="ssr:type" v="berg" />
	</node>
	<node id="-197359" lat="59.3684388896" lon="10.4600500038">
		<tag k="name" v="Fuglesangen" />
		<tag k="place" v="locality" />
		<tag k="ssr:date" v="2016-05-11" />
		<tag k="ssr:gruppe" v="bolighus" />
		<tag k="ssr:hovedgruppe" v="bebyggelse" />
		<tag k="ssr:stedsnr" v="817837" />
		<tag k="ssr:type" v="gammelBosettingsplass" />
	</node>
	<node id="-197358" lat="59.3783638931" lon="10.4016555632">
		<tag k="name" v="Viulsrød" />
		<tag k="place" v="farm" />
		<tag k="ssr:date" v="2016-05-11" />
		<tag k="ssr:gruppe" v="gardsbebyggelse" />
		<tag k="ssr:hovedgruppe" v="bebyggelse" />
		<tag k="ssr:stedsnr" v="817393" />
		<tag k="ssr:type" v="bruk" />
	</node>
	<node id="-197357" lat="59.3778222203" lon="10.4071805596">
		<tag k="fixme" v="consider place=hamlet" />
		<tag k="name" v="Viulsrød" />
		<tag k="place" v="farm" />
		<tag k="ssr:date" v="2018-05-30" />
		<tag k="ssr:gruppe" v="gardsbebyggelse" />
		<tag k="ssr:hovedgruppe" v="bebyggelse" />
		<tag k="ssr:stedsnr" v="817391" />
		<tag k="ssr:type" v="gard" />
	</node>
	<node id="-197356" lat="59.4273666681" lon="10.4666166637">
		<tag k="name" v="Apenes" />
		<tag k="natural" v="cape" />
		<tag k="ssr:date" v="2016-05-11" />
		<tag k="ssr:gruppe" v="kystkontur" />
		<tag k="ssr:hovedgruppe" v="sjø" />
		<tag k="ssr:stedsnr" v="817139" />
		<tag k="ssr:type" v="nesISjø" />
	</node>
	<node id="-197355" lat="59.3636694445" lon="10.4656861078">
		<tag k="alt_name" v="Fjugestadbrygga;Fjukstadbrygga" />
		<tag k="man_made" v="quay" />
		<tag k="name" v="Fjugstadbrygga" />
		<tag k="place" v="locality" />
		<tag k="ssr:date" v="2016-05-11" />
		<tag k="ssr:gruppe" v="sjøfart" />
		<tag k="ssr:hovedgruppe" v="infrastruktur" />
		<tag k="ssr:stedsnr" v="817134" />
		<tag k="ssr:type" v="brygge" />
	</node>
	<node id="-197354" lat="59.4586500013" lon="10.4488694399">
		<tag k="name" v="Gartegrunnen" />
		<tag k="natural" v="shoal" />
		<tag k="place" v="locality" />
		<tag k="ssr:date" v="2016-05-11" />
		<tag k="ssr:gruppe" v="grunnerISjø" />
		<tag k="ssr:hovedgruppe" v="sjø" />
		<tag k="ssr:stedsnr" v="817122" />
		<tag k="ssr:type" v="grunneISjø" />
	</node>
	<node id="-197353" lat="59.3586361147" lon="10.5174444385">
		<tag k="name" v="Skjærgrunnen" />
		<tag k="natural" v="shoal" />
		<tag k="place" v="locality" />
		<tag k="ssr:date" v="2016-05-11" />
		<tag k="ssr:gruppe" v="grunnerISjø" />
		<tag k="ssr:hovedgruppe" v="sjø" />
		<tag k="ssr:stedsnr" v="817116" />
		<tag k="ssr:type" v="grunneISjø" />
	</node>
	<node id="-197352" lat="59.3559611132" lon="10.4915555553">
		<tag k="name" v="Peisen" />
		<tag k="natural" v="shoal" />
		<tag k="place" v="locality" />
		<tag k="ssr:date" v="2016-05-11" />
		<tag k="ssr:gruppe" v="grunnerISjø" />
		<tag k="ssr:hovedgruppe" v="sjø" />
		<tag k="ssr:stedsnr" v="817114" />
		<tag k="ssr:type" v="grunneISjø" />
	</node>
	<node id="-197351" lat="59.4557055527" lon="10.4915416597">
		<tag k="name" v="Nøttekrakken" />
		<tag k="natural" v="shoal" />
		<tag k="place" v="locality" />
		<tag k="ssr:date" v="2016-05-11" />
		<tag k="ssr:gruppe" v="grunnerISjø" />
		<tag k="ssr:hovedgruppe" v="sjø" />
		<tag k="ssr:stedsnr" v="817106" />
		<tag k="ssr:type" v="grunneISjø" />
	</node>
	<node id="-197350" lat="59.4393333299" lon="10.3695222141">
		<tag k="name" v="Freberg" />
		<tag k="place" v="hamlet" />
		<tag k="ssr:date" v="2018-06-01" />
		<tag k="ssr:gruppe" v="gardsbebyggelse" />
		<tag k="ssr:hovedgruppe" v="bebyggelse" />
		<tag k="ssr:stedsnr" v="816855" />
		<tag k="ssr:type" v="navnegard" />
	</node>
	<node id="-197349" lat="59.4015777773" lon="10.3715416594">
		<tag k="fixme" v="consider place=hamlet" />
		<tag k="name" v="Bergan" />
		<tag k="place" v="farm" />
		<tag k="ssr:date" v="2018-05-31" />
		<tag k="ssr:gruppe" v="gardsbebyggelse" />
		<tag k="ssr:hovedgruppe" v="bebyggelse" />
		<tag k="ssr:stedsnr" v="816849" />
		<tag k="ssr:type" v="gard" />
	</node>
	<node id="-197348" lat="59.42288056" lon="10.4506916638">
		<tag k="highway" v="path" />
		<tag k="name" v="Kongstien" />
		<tag k="ssr:date" v="2016-05-11" />
		<tag k="ssr:gruppe" v="veg" />
		<tag k="ssr:hovedgruppe" v="infrastruktur" />
		<tag k="ssr:stedsnr" v="815883" />
		<tag k="ssr:type" v="sti" />
	</node>
	<node id="-197347" lat="59.3889777818" lon="10.4464444506">
		<tag k="name" v="Vassbånn" />
		<tag k="place" v="locality" />
		<tag k="ssr:date" v="2016-05-11" />
		<tag k="ssr:gruppe" v="dyrkamark" />
		<tag k="ssr:hovedgruppe" v="markslag" />
		<tag k="ssr:stedsnr" v="814850" />
		<tag k="ssr:type" v="utmark" />
	</node>
	<node id="-197346" lat="59.3857777807" lon="10.4036083394">
		<tag k="name" v="Reir" />
		<tag k="place" v="farm" />
		<tag k="ssr:date" v="2016-05-11" />
		<tag k="ssr:gruppe" v="gardsbebyggelse" />
		<tag k="ssr:hovedgruppe" v="bebyggelse" />
		<tag k="ssr:stedsnr" v="814840" />
		<tag k="ssr:type" v="bruk" />
	</node>
	<node id="-197345" lat="59.3754666665" lon="10.4612083329">
		<tag k="name" v="Sjølyst" />
		<tag k="place" v="locality" />
		<tag k="ssr:date" v="2016-05-11" />
		<tag k="ssr:gruppe" v="dyrkamark" />
		<tag k="ssr:hovedgruppe" v="markslag" />
		<tag k="ssr:stedsnr" v="814819" />
		<tag k="ssr:type" v="jorde" />
	</node>
	<node id="-197344" lat="59.4227805538" lon="10.3841694362">
		<tag k="name" v="Nykirke" />
		<tag k="place" v="village" />
		<tag k="ssr:date" v="2016-05-11" />
		<tag k="ssr:gruppe" v="bebyggelsesområder" />
		<tag k="ssr:hovedgruppe" v="bebyggelse" />
		<tag k="ssr:stedsnr" v="813200" />
		<tag k="ssr:type" v="tettsted" />
	</node>
	<node id="-197343" lat="59.4323416657" lon="10.3774027747">
		<tag k="alt_name" v="Nøklegård øvre" />
		<tag k="name" v="Nøklegård" />
		<tag k="place" v="farm" />
		<tag k="ssr:date" v="2016-05-11" />
		<tag k="ssr:gruppe" v="gardsbebyggelse" />
		<tag k="ssr:hovedgruppe" v="bebyggelse" />
		<tag k="ssr:stedsnr" v="791937" />
		<tag k="ssr:type" v="bruk" />
	</node>
	<node id="-197342" lat="59.3519527749" lon="10.3942749957">
		<tag k="name" v="Tangsrød" />
		<tag k="place" v="isolated_dwelling" />
		<tag k="ssr:date" v="2018-06-05" />
		<tag k="ssr:gruppe" v="bolighus" />
		<tag k="ssr:hovedgruppe" v="bebyggelse" />
		<tag k="ssr:stedsnr" v="791560" />
		<tag k="ssr:type" v="fritidsbolig" />
	</node>
	<node id="-197341" lat="59.3794833327" lon="10.4441722204">
		<tag k="alt_name" v="Glenne østre;Nedre Glenne" />
		<tag k="fixme" v="consider place=hamlet" />
		<tag k="name" v="Glenne" />
		<tag k="place" v="farm" />
		<tag k="ssr:date" v="2018-05-29" />
		<tag k="ssr:gruppe" v="gardsbebyggelse" />
		<tag k="ssr:hovedgruppe" v="bebyggelse" />
		<tag k="ssr:stedsnr" v="791536" />
		<tag k="ssr:type" v="gard" />
	</node>
	<node id="-197340" lat="59.3842527745" lon="10.3981250028">
		<tag k="name" v="Reir" />
		<tag k="place" v="farm" />
		<tag k="ssr:date" v="2016-05-11" />
		<tag k="ssr:gruppe" v="gardsbebyggelse" />
		<tag k="ssr:hovedgruppe" v="bebyggelse" />
		<tag k="ssr:stedsnr" v="791531" />
		<tag k="ssr:type" v="bruk" />
	</node>
	<node id="-197339" lat="59.3999572006" lon="10.4617504467">
		<tag k="fixme" v="consider place=hamlet" />
		<tag k="name" v="Tveiten" />
		<tag k="place" v="farm" />
		<tag k="ssr:date" v="2018-05-29" />
		<tag k="ssr:gruppe" v="gardsbebyggelse" />
		<tag k="ssr:hovedgruppe" v="bebyggelse" />
		<tag k="ssr:stedsnr" v="791507" />
		<tag k="ssr:type" v="gard" />
	</node>
	<node id="-197338" lat="59.3989833338" lon="10.4480666749">
		<tag k="fixme" v="consider place=hamlet" />
		<tag k="name" v="Semb" />
		<tag k="place" v="farm" />
		<tag k="ssr:date" v="2018-05-29" />
		<tag k="ssr:gruppe" v="gardsbebyggelse" />
		<tag k="ssr:hovedgruppe" v="bebyggelse" />
		<tag k="ssr:stedsnr" v="791505" />
		<tag k="ssr:type" v="gard" />
	</node>
	<node id="-197337" lat="59.4472277749" lon="10.4306027697">
		<tag k="name" v="Holmen" />
		<tag k="natural" v="cape" />
		<tag k="ssr:date" v="2016-05-11" />
		<tag k="ssr:gruppe" v="kystkontur" />
		<tag k="ssr:hovedgruppe" v="sjø" />
		<tag k="ssr:stedsnr" v="786970" />
		<tag k="ssr:type" v="nesISjø" />
	</node>
	<node id="-197336" lat="59.4256333347" lon="10.4681694513">
		<tag k="man_made" v="quay" />
		<tag k="name" v="Korenbrygga" />
		<tag k="place" v="locality" />
		<tag k="ssr:date" v="2016-05-11" />
		<tag k="ssr:gruppe" v="sjøfart" />
		<tag k="ssr:hovedgruppe" v="infrastruktur" />
		<tag k="ssr:stedsnr" v="784726" />
		<tag k="ssr:type" v="brygge" />
	</node>
	<node id="-197335" lat="59.4263833322" lon="10.4677972181">
		<tag k="man_made" v="quay" />
		<tag k="name" v="Steinbrygga" />
		<tag k="place" v="locality" />
		<tag k="ssr:date" v="2016-05-11" />
		<tag k="ssr:gruppe" v="sjøfart" />
		<tag k="ssr:hovedgruppe" v="infrastruktur" />
		<tag k="ssr:stedsnr" v="784725" />
		<tag k="ssr:type" v="brygge" />
	</node>
	<node id="-197334" lat="59.4399833333" lon="10.4555472228">
		<tag k="fixme" v="consider seamark:type=rock or natural=shoal" />
		<tag k="name" v="Svartskjæret" />
		<tag k="place" v="islet" />
		<tag k="ssr:date" v="2016-05-11" />
		<tag k="ssr:gruppe" v="grunnerISjø" />
		<tag k="ssr:hovedgruppe" v="sjø" />
		<tag k="ssr:stedsnr" v="769688" />
		<tag k="ssr:type" v="skjærISjø" />
	</node>
	<node id="-197333" lat="59.4117499994" lon="10.5064972141">
		<tag k="name" v="Tangegrunnen" />
		<tag k="natural" v="shoal" />
		<tag k="place" v="locality" />
		<tag k="ssr:date" v="2016-05-11" />
		<tag k="ssr:gruppe" v="grunnerISjø" />
		<tag k="ssr:hovedgruppe" v="sjø" />
		<tag k="ssr:stedsnr" v="756805" />
		<tag k="ssr:type" v="grunneISjø" />
	</node>
	<node id="-197332" lat="59.3656861077" lon="10.4169388893">
		<tag k="name" v="Bergan søndre" />
		<tag k="place" v="farm" />
		<tag k="ssr:date" v="2016-05-11" />
		<tag k="ssr:gruppe" v="gardsbebyggelse" />
		<tag k="ssr:hovedgruppe" v="bebyggelse" />
		<tag k="ssr:stedsnr" v="756374" />
		<tag k="ssr:type" v="bruk" />
	</node>
	<node id="-197331" lat="59.3727694436" lon="10.5398416713">
		<tag k="fixme" v="consider seamark:type=rock or natural=shoal" />
		<tag k="name" v="Kjempa" />
		<tag k="place" v="islet" />
		<tag k="ssr:date" v="2016-05-11" />
		<tag k="ssr:gruppe" v="grunnerISjø" />
		<tag k="ssr:hovedgruppe" v="sjø" />
		<tag k="ssr:stedsnr" v="756097" />
		<tag k="ssr:type" v="skjærISjø" />
	</node>
	<node id="-197330" lat="59.4327444441" lon="10.4562750081">
		<tag k="alt_name" v="Bakkebukta" />
		<tag k="name" v="Tordenskjoldbukta" />
		<tag k="natural" v="bay" />
		<tag k="ssr:date" v="2016-05-11" />
		<tag k="ssr:gruppe" v="kystkontur" />
		<tag k="ssr:hovedgruppe" v="sjø" />
		<tag k="ssr:stedsnr" v="755888" />
		<tag k="ssr:type" v="vikISjø" />
	</node>
	<node id="-197329" lat="59.4289138927" lon="10.3795500039">
		<tag k="fixme" v="consider place=hamlet" />
		<tag k="name" v="Nøklegård nedre" />
		<tag k="place" v="farm" />
		<tag k="ssr:date" v="2018-06-01" />
		<tag k="ssr:gruppe" v="gardsbebyggelse" />
		<tag k="ssr:hovedgruppe" v="bebyggelse" />
		<tag k="ssr:stedsnr" v="755838" />
		<tag k="ssr:type" v="gard" />
	</node>
	<node id="-197328" lat="59.410908333" lon="10.3403694418">
		<tag k="name" v="Kirkefloren" />
		<tag k="place" v="locality" />
		<tag k="ssr:date" v="2016-05-11" />
		<tag k="ssr:gruppe" v="vegetasjon" />
		<tag k="ssr:hovedgruppe" v="markslag" />
		<tag k="ssr:stedsnr" v="755832" />
		<tag k="ssr:type" v="skog" />
	</node>
	<node id="-197327" lat="59.3748222194" lon="10.5253611178">
		<tag k="name" v="Fryden" />
		<tag k="natural" v="hill" />
		<tag k="place" v="locality" />
		<tag k="ssr:date" v="2016-05-11" />
		<tag k="ssr:gruppe" v="høyder" />
		<tag k="ssr:hovedgruppe" v="terreng" />
		<tag k="ssr:stedsnr" v="755188" />
		<tag k="ssr:type" v="høyde" />
	</node>
	<node id="-197326" lat="59.4354638891" lon="10.4299194474">
		<tag k="amenity" v="school" />
		<tag k="name" v="Falkensten skole" />
		<tag k="ssr:date" v="2016-05-11" />
		<tag k="ssr:gruppe" v="institusjoner" />
		<tag k="ssr:hovedgruppe" v="bebyggelse" />
		<tag k="ssr:stedsnr" v="753835" />
		<tag k="ssr:type" v="skole" />
	</node>
	<node id="-197325" lat="59.3808805588" lon="10.473777779">
		<tag k="name" v="Prestegårdstranda" />
		<tag k="natural" v="beach" />
		<tag k="place" v="locality" />
		<tag k="ssr:date" v="2016-05-11" />
		<tag k="ssr:gruppe" v="kystkontur" />
		<tag k="ssr:hovedgruppe" v="sjø" />
		<tag k="ssr:stedsnr" v="753824" />
		<tag k="ssr:type" v="strandISjø" />
	</node>
	<node id="-197324" lat="59.4188388851" lon="10.423258325">
		<tag k="fixme" v="consider place=hamlet" />
		<tag k="name" v="Vik søndre" />
		<tag k="place" v="farm" />
		<tag k="ssr:date" v="2018-05-29" />
		<tag k="ssr:gruppe" v="gardsbebyggelse" />
		<tag k="ssr:hovedgruppe" v="bebyggelse" />
		<tag k="ssr:stedsnr" v="753809" />
		<tag k="ssr:type" v="gard" />
	</node>
	<node id="-197323" lat="59.3490416707" lon="10.4575805508">
		<tag k="name" v="Nygård" />
		<tag k="place" v="quarter" />
		<tag k="ssr:date" v="2016-05-11" />
		<tag k="ssr:gruppe" v="bebyggelsesområder" />
		<tag k="ssr:hovedgruppe" v="bebyggelse" />
		<tag k="ssr:stedsnr" v="753803" />
		<tag k="ssr:type" v="boligfelt" />
	</node>
	<node id="-197322" lat="59.4000277785" lon="10.430797217">
		<tag k="name" v="Eikelund" />
		<tag k="place" v="farm" />
		<tag k="ssr:date" v="2016-05-11" />
		<tag k="ssr:gruppe" v="gardsbebyggelse" />
		<tag k="ssr:hovedgruppe" v="bebyggelse" />
		<tag k="ssr:stedsnr" v="731476" />
		<tag k="ssr:type" v="bruk" />
	</node>
	<node id="-197321" lat="59.4268249986" lon="10.3999805569">
		<tag k="fixme" v="consider natural=peak for the most distinct mountains in the district" />
		<tag k="name" v="Skånevetan" />
		<tag k="natural" v="hill" />
		<tag k="place" v="locality" />
		<tag k="ssr:date" v="2016-05-11" />
		<tag k="ssr:gruppe" v="høyder" />
		<tag k="ssr:hovedgruppe" v="terreng" />
		<tag k="ssr:stedsnr" v="730990" />
		<tag k="ssr:type" v="ås" />
	</node>
	<node id="-197320" lat="59.416858329" lon="10.3623166641">
		<tag k="fixme" v="consider place=hamlet" />
		<tag k="name" v="Eiketuft" />
		<tag k="place" v="farm" />
		<tag k="ssr:date" v="2018-06-01" />
		<tag k="ssr:gruppe" v="gardsbebyggelse" />
		<tag k="ssr:hovedgruppe" v="bebyggelse" />
		<tag k="ssr:stedsnr" v="730977" />
		<tag k="ssr:type" v="gard" />
	</node>
	<node id="-197319" lat="59.450975002" lon="10.4897999943">
		<tag k="name" v="Hårfagrebåen" />
		<tag k="natural" v="shoal" />
		<tag k="place" v="locality" />
		<tag k="ssr:date" v="2016-05-11" />
		<tag k="ssr:gruppe" v="grunnerISjø" />
		<tag k="ssr:hovedgruppe" v="sjø" />
		<tag k="ssr:stedsnr" v="730961" />
		<tag k="ssr:type" v="grunneISjø" />
	</node>
	<node id="-197318" lat="59.354919441" lon="10.4110916685">
		<tag k="alt_name" v="Sti, nordre;Sti nedre" />
		<tag k="name" v="Nordre Sti" />
		<tag k="place" v="farm" />
		<tag k="ssr:date" v="2016-05-11" />
		<tag k="ssr:gruppe" v="gardsbebyggelse" />
		<tag k="ssr:hovedgruppe" v="bebyggelse" />
		<tag k="ssr:stedsnr" v="730620" />
		<tag k="ssr:type" v="bruk" />
	</node>
	<node id="-197317" lat="59.386127779" lon="10.4107749976">
		<tag k="name" v="Skoppum" />
		<tag k="place" v="village" />
		<tag k="ssr:date" v="2016-05-11" />
		<tag k="ssr:gruppe" v="bebyggelsesområder" />
		<tag k="ssr:hovedgruppe" v="bebyggelse" />
		<tag k="ssr:stedsnr" v="730591" />
		<tag k="ssr:type" v="tettsted" />
	</node>
	<node id="-197316" lat="59.3793638912" lon="10.389311107">
		<tag k="fixme" v="consider place=hamlet" />
		<tag k="name" v="Råen" />
		<tag k="place" v="farm" />
		<tag k="ssr:date" v="2018-05-31" />
		<tag k="ssr:gruppe" v="gardsbebyggelse" />
		<tag k="ssr:hovedgruppe" v="bebyggelse" />
		<tag k="ssr:stedsnr" v="730589" />
		<tag k="ssr:type" v="gard" />
	</node>
	<node id="-197315" lat="59.4060250039" lon="10.4840555549">
		<tag k="name" v="Sollistrand" />
		<tag k="natural" v="beach" />
		<tag k="place" v="locality" />
		<tag k="ssr:date" v="2016-05-11" />
		<tag k="ssr:gruppe" v="kystkontur" />
		<tag k="ssr:hovedgruppe" v="sjø" />
		<tag k="ssr:stedsnr" v="730533" />
		<tag k="ssr:type" v="strandISjø" />
	</node>
	<node id="-197314" lat="59.4125666663" lon="10.4001222153">
		<tag k="fixme" v="consider place=hamlet" />
		<tag k="name" v="Guttulfsrød" />
		<tag k="place" v="farm" />
		<tag k="ssr:date" v="2018-05-31" />
		<tag k="ssr:gruppe" v="gardsbebyggelse" />
		<tag k="ssr:hovedgruppe" v="bebyggelse" />
		<tag k="ssr:stedsnr" v="730529" />
		<tag k="ssr:type" v="gard" />
	</node>
	<node id="-197311" lat="59.4386583293" lon="10.4917444458">
		<tag k="name" v="Kosterenna" />
		<tag k="natural" v="strait" />
		<tag k="ssr:date" v="2016-05-11" />
		<tag k="ssr:gruppe" v="kystkontur" />
		<tag k="ssr:hovedgruppe" v="sjø" />
		<tag k="ssr:stedsnr" v="725972" />
		<tag k="ssr:type" v="sundISjø" />
	</node>
	<node id="-197310" lat="59.3547472197" lon="10.4588277699">
		<tag k="name" v="Koterød" />
		<tag k="place" v="isolated_dwelling" />
		<tag k="ssr:date" v="2016-05-11" />
		<tag k="ssr:gruppe" v="bolighus" />
		<tag k="ssr:hovedgruppe" v="bebyggelse" />
		<tag k="ssr:stedsnr" v="723772" />
		<tag k="ssr:type" v="eneboligMindreBoligbygg" />
	</node>
	<node id="-197309" lat="59.3850805588" lon="10.465116659">
		<tag k="bridge" v="yes" />
		<tag k="layer" v="1" />
		<tag k="name" v="Borre elementkulvert" />
		<tag k="ssr:date" v="2016-05-11" />
		<tag k="ssr:gruppe" v="samferdselsanlegg" />
		<tag k="ssr:hovedgruppe" v="infrastruktur" />
		<tag k="ssr:stedsnr" v="714571" />
		<tag k="ssr:type" v="bru" />
	</node>
	<node id="-197308" lat="59.4079083341" lon="10.476047221">
		<tag k="bridge" v="yes" />
		<tag k="layer" v="1" />
		<tag k="name" v="Granly" />
		<tag k="ssr:date" v="2016-05-11" />
		<tag k="ssr:gruppe" v="samferdselsanlegg" />
		<tag k="ssr:hovedgruppe" v="infrastruktur" />
		<tag k="ssr:stedsnr" v="714567" />
		<tag k="ssr:type" v="bru" />
	</node>
	<node id="-197307" lat="59.4389361091" lon="10.4576361075">
		<tag k="fixme" v="consider seamark:type=rock or natural=shoal" />
		<tag k="name" v="Julaften" />
		<tag k="place" v="islet" />
		<tag k="ssr:date" v="2016-05-11" />
		<tag k="ssr:gruppe" v="grunnerISjø" />
		<tag k="ssr:hovedgruppe" v="sjø" />
		<tag k="ssr:stedsnr" v="708684" />
		<tag k="ssr:type" v="skjærISjø" />
	</node>
	<node id="-197306" lat="59.4145805519" lon="10.4899277782">
		<tag k="building" v="civic" />
		<tag k="name" v="Horten havnevesen" />
		<tag k="ssr:date" v="2016-05-11" />
		<tag k="ssr:gruppe" v="institusjoner" />
		<tag k="ssr:hovedgruppe" v="bebyggelse" />
		<tag k="ssr:stedsnr" v="708634" />
		<tag k="ssr:type" v="vaktstasjonBeredsskapsbygning" />
	</node>
	<node id="-197305" lat="59.3675416707" lon="10.4019638918">
		<tag k="name" v="Augedal" />
		<tag k="place" v="farm" />
		<tag k="ssr:date" v="2016-05-11" />
		<tag k="ssr:gruppe" v="gardsbebyggelse" />
		<tag k="ssr:hovedgruppe" v="bebyggelse" />
		<tag k="ssr:stedsnr" v="696971" />
		<tag k="ssr:type" v="bruk" />
	</node>
	<node id="-197304" lat="59.431505552" lon="10.3616583284">
		<tag k="name" v="Bollerud" />
		<tag k="place" v="locality" />
		<tag k="ssr:date" v="2016-05-11" />
		<tag k="ssr:gruppe" v="gardsbebyggelse" />
		<tag k="ssr:hovedgruppe" v="bebyggelse" />
		<tag k="ssr:stedsnr" v="695836" />
		<tag k="ssr:type" v="eiendom" />
	</node>
	<node id="-197303" lat="59.4166861145" lon="10.3398499991">
		<tag k="name" v="Askim" />
		<tag k="place" v="farm" />
		<tag k="ssr:date" v="2016-05-11" />
		<tag k="ssr:gruppe" v="gardsbebyggelse" />
		<tag k="ssr:hovedgruppe" v="bebyggelse" />
		<tag k="ssr:stedsnr" v="695832" />
		<tag k="ssr:type" v="bruk" />
	</node>
	<node id="-197302" lat="59.3564111116" lon="10.3934027711">
		<tag k="name" v="Tangsrød" />
		<tag k="place" v="locality" />
		<tag k="ssr:date" v="2018-05-31" />
		<tag k="ssr:gruppe" v="bolighus" />
		<tag k="ssr:hovedgruppe" v="bebyggelse" />
		<tag k="ssr:stedsnr" v="695402" />
		<tag k="ssr:type" v="gammelBosettingsplass" />
	</node>
	<node id="-197301" lat="59.362416665" lon="10.3884611067">
		<tag k="name" v="Svartedal" />
		<tag k="natural" v="valley" />
		<tag k="place" v="locality" />
		<tag k="ssr:date" v="2016-05-11" />
		<tag k="ssr:gruppe" v="senkninger" />
		<tag k="ssr:hovedgruppe" v="terreng" />
		<tag k="ssr:stedsnr" v="695394" />
		<tag k="ssr:type" v="dal" />
	</node>
	<node id="-197300" lat="59.3661027788" lon="10.4024722276">
		<tag k="fixme" v="consider place=hamlet" />
		<tag k="name" v="Adal nordre" />
		<tag k="place" v="farm" />
		<tag k="ssr:date" v="2018-05-31" />
		<tag k="ssr:gruppe" v="gardsbebyggelse" />
		<tag k="ssr:hovedgruppe" v="bebyggelse" />
		<tag k="ssr:stedsnr" v="695392" />
		<tag k="ssr:type" v="gard" />
	</node>
	<node id="-197299" lat="59.4452944442" lon="10.4921000044">
		<tag k="name" v="Måkerumpa" />
		<tag k="natural" v="shoal" />
		<tag k="place" v="locality" />
		<tag k="ssr:date" v="2016-05-11" />
		<tag k="ssr:gruppe" v="grunnerISjø" />
		<tag k="ssr:hovedgruppe" v="sjø" />
		<tag k="ssr:stedsnr" v="695096" />
		<tag k="ssr:type" v="grunneISjø" />
	</node>
	<node id="-197298" lat="59.423427776" lon="10.3976861027">
		<tag k="name" v="Grette" />
		<tag k="place" v="locality" />
		<tag k="ssr:date" v="2016-05-11" />
		<tag k="ssr:gruppe" v="dyrkamark" />
		<tag k="ssr:hovedgruppe" v="markslag" />
		<tag k="ssr:stedsnr" v="694856" />
		<tag k="ssr:type" v="jorde" />
	</node>
	<node id="-197297" lat="59.4359416682" lon="10.4498111156">
		<tag k="name" v="Evje" />
		<tag k="natural" v="slope" />
		<tag k="place" v="locality" />
		<tag k="ssr:date" v="2016-05-11" />
		<tag k="ssr:gruppe" v="skråninger" />
		<tag k="ssr:hovedgruppe" v="terreng" />
		<tag k="ssr:stedsnr" v="694855" />
		<tag k="ssr:type" v="bakke" />
	</node>
	<node id="-197296" lat="59.3724944467" lon="10.5333277783">
		<tag k="name" v="Storsletta" />
		<tag k="place" v="locality" />
		<tag k="ssr:date" v="2016-05-11" />
		<tag k="ssr:gruppe" v="flater" />
		<tag k="ssr:hovedgruppe" v="terreng" />
		<tag k="ssr:stedsnr" v="694163" />
		<tag k="ssr:type" v="slette" />
	</node>
	<node id="-197295" lat="59.4278111103" lon="10.4941722142">
		<tag k="name" v="Vollen" />
		<tag k="natural" v="slope" />
		<tag k="place" v="locality" />
		<tag k="ssr:date" v="2016-05-11" />
		<tag k="ssr:gruppe" v="skråninger" />
		<tag k="ssr:hovedgruppe" v="terreng" />
		<tag k="ssr:stedsnr" v="694159" />
		<tag k="ssr:type" v="bakke" />
	</node>
	<node id="-197294" lat="59.4261694452" lon="10.4758666621">
		<tag k="name" v="Sælavika" />
		<tag k="natural" v="bay" />
		<tag k="ssr:date" v="2016-05-11" />
		<tag k="ssr:gruppe" v="kystkontur" />
		<tag k="ssr:hovedgruppe" v="sjø" />
		<tag k="ssr:stedsnr" v="695131" />
		<tag k="ssr:type" v="vikISjø" />
	</node>
	<node id="-197293" lat="59.3900111143" lon="10.4770444451">
		<tag k="name" v="Vollestranda" />
		<tag k="natural" v="beach" />
		<tag k="place" v="locality" />
		<tag k="ssr:date" v="2016-05-11" />
		<tag k="ssr:gruppe" v="kystkontur" />
		<tag k="ssr:hovedgruppe" v="sjø" />
		<tag k="ssr:stedsnr" v="695126" />
		<tag k="ssr:type" v="strandISjø" />
	</node>
	<node id="-197292" lat="59.4338916622" lon="10.432330557">
		<tag k="name" v="Bjerkerønningen" />
		<tag k="natural" v="slope" />
		<tag k="place" v="locality" />
		<tag k="ssr:date" v="2016-05-11" />
		<tag k="ssr:gruppe" v="skråninger" />
		<tag k="ssr:hovedgruppe" v="terreng" />
		<tag k="ssr:stedsnr" v="692848" />
		<tag k="ssr:type" v="bakke" />
	</node>
	<node id="-197291" lat="59.3925638885" lon="10.4652333306">
		<tag k="name" v="Eik" />
		<tag k="place" v="farm" />
		<tag k="ssr:date" v="2016-05-11" />
		<tag k="ssr:gruppe" v="gardsbebyggelse" />
		<tag k="ssr:hovedgruppe" v="bebyggelse" />
		<tag k="ssr:stedsnr" v="692845" />
		<tag k="ssr:type" v="bruk" />
	</node>
	<node id="-197290" lat="59.4503222203" lon="10.4432027712">
		<tag k="loc_name" v="Veggfjell" />
		<tag k="name" v="Veggefjell" />
		<tag k="natural" v="hill" />
		<tag k="place" v="locality" />
		<tag k="ssr:date" v="2016-05-11" />
		<tag k="ssr:gruppe" v="høyder" />
		<tag k="ssr:hovedgruppe" v="terreng" />
		<tag k="ssr:stedsnr" v="692840" />
		<tag k="ssr:type" v="berg" />
	</node>
	<node id="-197289" lat="59.3809416664" lon="10.4060666751">
		<tag k="name" v="Langmyra" />
		<tag k="natural" v="wetland" />
		<tag k="ssr:date" v="2016-05-11" />
		<tag k="ssr:gruppe" v="våtmark" />
		<tag k="ssr:hovedgruppe" v="markslag" />
		<tag k="ssr:stedsnr" v="692835" />
		<tag k="ssr:type" v="myr" />
	</node>
	<node id="-197288" lat="59.3979555539" lon="10.4621083251">
		<tag k="amenity" v="school" />
		<tag k="name" v="Granly skole" />
		<tag k="ssr:date" v="2016-05-11" />
		<tag k="ssr:gruppe" v="institusjoner" />
		<tag k="ssr:hovedgruppe" v="bebyggelse" />
		<tag k="ssr:stedsnr" v="692834" />
		<tag k="ssr:type" v="skole" />
	</node>
	<node id="-197287" lat="59.3491666699" lon="10.4566777778">
		<tag k="amenity" v="school" />
		<tag k="name" v="Nygård skole" />
		<tag k="ssr:date" v="2016-05-11" />
		<tag k="ssr:gruppe" v="institusjoner" />
		<tag k="ssr:hovedgruppe" v="bebyggelse" />
		<tag k="ssr:stedsnr" v="692814" />
		<tag k="ssr:type" v="skole" />
	</node>
	<node id="-197286" lat="59.4172138895" lon="10.4834361075">
		<tag k="name" v="Horten" />
		<tag k="place" v="town" />
		<tag k="ssr:date" v="2016-05-11" />
		<tag k="ssr:gruppe" v="bebyggelsesområder" />
		<tag k="ssr:hovedgruppe" v="bebyggelse" />
		<tag k="ssr:stedsnr" v="692216" />
		<tag k="ssr:type" v="by" />
	</node>
	<node id="-197285" lat="59.3918611142" lon="10.3948749984">
		<tag k="fixme" v="consider place=hamlet" />
		<tag k="name" v="Løs" />
		<tag k="place" v="farm" />
		<tag k="ssr:date" v="2018-05-31" />
		<tag k="ssr:gruppe" v="gardsbebyggelse" />
		<tag k="ssr:hovedgruppe" v="bebyggelse" />
		<tag k="ssr:stedsnr" v="670487" />
		<tag k="ssr:type" v="gard" />
	</node>
	<node id="-197284" lat="59.422407266" lon="10.3752147946">
		<tag k="fixme" v="consider place=hamlet" />
		<tag k="name" v="Sletterød" />
		<tag k="place" v="farm" />
		<tag k="ssr:date" v="2018-05-31" />
		<tag k="ssr:gruppe" v="gardsbebyggelse" />
		<tag k="ssr:hovedgruppe" v="bebyggelse" />
		<tag k="ssr:stedsnr" v="669996" />
		<tag k="ssr:type" v="gard" />
	</node>
	<node id="-197283" lat="59.4310444427" lon="10.3546444494">
		<tag k="alt_name" v="Ås øvre;Ås" />
		<tag k="fixme" v="consider place=hamlet" />
		<tag k="name" v="Øvre Ås" />
		<tag k="place" v="farm" />
		<tag k="ssr:date" v="2018-06-01" />
		<tag k="ssr:gruppe" v="gardsbebyggelse" />
		<tag k="ssr:hovedgruppe" v="bebyggelse" />
		<tag k="ssr:stedsnr" v="669993" />
		<tag k="ssr:type" v="gard" />
	</node>
	<node id="-197282" lat="59.4286833322" lon="10.3940111123">
		<tag k="alt_name" v="Skåne søndre" />
		<tag k="fixme" v="consider place=hamlet" />
		<tag k="name" v="Skåne" />
		<tag k="place" v="farm" />
		<tag k="ssr:date" v="2018-06-01" />
		<tag k="ssr:gruppe" v="gardsbebyggelse" />
		<tag k="ssr:hovedgruppe" v="bebyggelse" />
		<tag k="ssr:stedsnr" v="669992" />
		<tag k="ssr:type" v="gard" />
	</node>
	<node id="-197281" lat="59.445538893" lon="10.4912333326">
		<tag k="name" v="Vealøsflaket" />
		<tag k="natural" v="shoal" />
		<tag k="place" v="locality" />
		<tag k="ssr:date" v="2016-05-10" />
		<tag k="ssr:gruppe" v="grunnerISjø" />
		<tag k="ssr:hovedgruppe" v="sjø" />
		<tag k="ssr:stedsnr" v="669952" />
		<tag k="ssr:type" v="grunneISjø" />
	</node>
	<node id="-197280" lat="59.3681666626" lon="10.4149472146">
		<tag k="alt_name" v="Bergan nordre" />
		<tag k="fixme" v="consider place=hamlet" />
		<tag k="name" v="Bergan" />
		<tag k="place" v="farm" />
		<tag k="ssr:date" v="2018-05-31" />
		<tag k="ssr:gruppe" v="gardsbebyggelse" />
		<tag k="ssr:hovedgruppe" v="bebyggelse" />
		<tag k="ssr:stedsnr" v="669573" />
		<tag k="ssr:type" v="gard" />
	</node>
	<node id="-197278" lat="59.3920333335" lon="10.47835556">
		<tag k="alt_name" v="Sjøguttskole" />
		<tag k="amenity" v="community_centre" />
		<tag k="name" v="Sjøguttskolen" />
		<tag k="ssr:date" v="2016-05-10" />
		<tag k="ssr:gruppe" v="kulturinstitusjoner" />
		<tag k="ssr:hovedgruppe" v="kultur" />
		<tag k="ssr:stedsnr" v="669545" />
		<tag k="ssr:type" v="forsamlingshusKulturhus" />
	</node>
	<node id="-197276" lat="59.4223499996" lon="10.4426999925">
		<tag k="name" v="Kongsten" />
		<tag k="place" v="farm" />
		<tag k="ssr:date" v="2016-05-10" />
		<tag k="ssr:gruppe" v="gardsbebyggelse" />
		<tag k="ssr:hovedgruppe" v="bebyggelse" />
		<tag k="ssr:stedsnr" v="664966" />
		<tag k="ssr:type" v="bruk" />
	</node>
	<node id="-197275" lat="59.3522499996" lon="10.4629416729">
		<tag k="name" v="Damåsen" />
		<tag k="place" v="quarter" />
		<tag k="ssr:date" v="2016-05-10" />
		<tag k="ssr:gruppe" v="bebyggelsesområder" />
		<tag k="ssr:hovedgruppe" v="bebyggelse" />
		<tag k="ssr:stedsnr" v="662708" />
		<tag k="ssr:type" v="boligfelt" />
	</node>
	<node id="-197274" lat="59.3709805587" lon="10.4569194472">
		<tag k="name" v="Mastebakke" />
		<tag k="place" v="quarter" />
		<tag k="ssr:date" v="2016-05-10" />
		<tag k="ssr:gruppe" v="bebyggelsesområder" />
		<tag k="ssr:hovedgruppe" v="bebyggelse" />
		<tag k="ssr:stedsnr" v="662689" />
		<tag k="ssr:type" v="boligfelt" />
	</node>
	<node id="-197273" lat="59.4344333313" lon="10.4539527724">
		<tag k="name" v="Kjølhalskogen" />
		<tag k="place" v="quarter" />
		<tag k="ssr:date" v="2016-05-10" />
		<tag k="ssr:gruppe" v="bebyggelsesområder" />
		<tag k="ssr:hovedgruppe" v="bebyggelse" />
		<tag k="ssr:stedsnr" v="662687" />
		<tag k="ssr:type" v="boligfelt" />
	</node>
	<node id="-197272" lat="59.4337916708" lon="10.4283083294">
		<tag k="bridge" v="yes" />
		<tag k="layer" v="1" />
		<tag k="name" v="Falkensten" />
		<tag k="ssr:date" v="2016-05-10" />
		<tag k="ssr:gruppe" v="samferdselsanlegg" />
		<tag k="ssr:hovedgruppe" v="infrastruktur" />
		<tag k="ssr:stedsnr" v="653620" />
		<tag k="ssr:type" v="bru" />
	</node>
	<node id="-197271" lat="59.4406694432" lon="10.4567250084">
		<tag k="fixme" v="consider seamark:type=rock or natural=shoal" />
		<tag k="name" v="Kuskjæret" />
		<tag k="place" v="islet" />
		<tag k="ssr:date" v="2016-05-10" />
		<tag k="ssr:gruppe" v="grunnerISjø" />
		<tag k="ssr:hovedgruppe" v="sjø" />
		<tag k="ssr:stedsnr" v="647699" />
		<tag k="ssr:type" v="skjærISjø" />
	</node>
	<node id="-197270" lat="59.4488944424" lon="10.4762166654">
		<tag k="name" v="Ersvika" />
		<tag k="natural" v="bay" />
		<tag k="ssr:date" v="2016-05-10" />
		<tag k="ssr:gruppe" v="kystkontur" />
		<tag k="ssr:hovedgruppe" v="sjø" />
		<tag k="ssr:stedsnr" v="647695" />
		<tag k="ssr:type" v="vikISjø" />
	</node>
	<node id="-197269" lat="59.4423750036" lon="10.4682083253">
		<tag k="name" v="St. Helena" />
		<tag k="place" v="islet" />
		<tag k="ssr:date" v="2016-05-10" />
		<tag k="ssr:gruppe" v="kystkontur" />
		<tag k="ssr:hovedgruppe" v="sjø" />
		<tag k="ssr:stedsnr" v="647693" />
		<tag k="ssr:type" v="holmeISjø" />
	</node>
	<node id="-197268" lat="59.4422194406" lon="10.4522583396">
		<tag k="fixme" v="consider seamark:type=rock or natural=shoal" />
		<tag k="name" v="Lillelort" />
		<tag k="place" v="islet" />
		<tag k="ssr:date" v="2016-05-10" />
		<tag k="ssr:gruppe" v="grunnerISjø" />
		<tag k="ssr:hovedgruppe" v="sjø" />
		<tag k="ssr:stedsnr" v="647679" />
		<tag k="ssr:type" v="skjærISjø" />
	</node>
	<node id="-197267" lat="59.4248444405" lon="10.4664972229">
		<tag k="fixme" v="consider place=suburb, village or hamlet" />
		<tag k="name" v="Keisemarka" />
		<tag k="place" v="quarter" />
		<tag k="ssr:date" v="2016-05-10" />
		<tag k="ssr:gruppe" v="bebyggelsesområder" />
		<tag k="ssr:hovedgruppe" v="bebyggelse" />
		<tag k="ssr:stedsnr" v="647518" />
		<tag k="ssr:type" v="tettbebyggelse" />
	</node>
	<node id="-197266" lat="59.3702138847" lon="10.4612000037">
		<tag k="name" v="Vestmannrødstranda" />
		<tag k="natural" v="beach" />
		<tag k="place" v="locality" />
		<tag k="ssr:date" v="2016-05-10" />
		<tag k="ssr:gruppe" v="kystkontur" />
		<tag k="ssr:hovedgruppe" v="sjø" />
		<tag k="ssr:stedsnr" v="634839" />
		<tag k="ssr:type" v="strandISjø" />
	</node>
	<node id="-197265" lat="59.3743750024" lon="10.3986333405">
		<tag k="fixme" v="consider natural=peak for the most distinct mountains in the district" />
		<tag k="name" v="Adalsborgen" />
		<tag k="natural" v="hill" />
		<tag k="place" v="locality" />
		<tag k="ssr:date" v="2016-05-10" />
		<tag k="ssr:gruppe" v="høyder" />
		<tag k="ssr:hovedgruppe" v="terreng" />
		<tag k="ssr:stedsnr" v="634411" />
		<tag k="ssr:type" v="ås" />
	</node>
	<node id="-197264" lat="59.4485444458" lon="10.431424995">
		<tag k="name" v="Paradisbukta" />
		<tag k="natural" v="bay" />
		<tag k="ssr:date" v="2016-05-10" />
		<tag k="ssr:gruppe" v="kystkontur" />
		<tag k="ssr:hovedgruppe" v="sjø" />
		<tag k="ssr:stedsnr" v="634359" />
		<tag k="ssr:type" v="vikISjø" />
	</node>
	<node id="-197263" lat="59.3615555576" lon="10.4695638868">
		<tag k="name" v="Steinbryggbukta" />
		<tag k="natural" v="bay" />
		<tag k="ssr:date" v="2016-05-10" />
		<tag k="ssr:gruppe" v="kystkontur" />
		<tag k="ssr:hovedgruppe" v="sjø" />
		<tag k="ssr:stedsnr" v="634103" />
		<tag k="ssr:type" v="vikISjø" />
	</node>
	<node id="-197262" lat="59.4418833289" lon="10.393980551">
		<tag k="name" v="Veggestua" />
		<tag k="place" v="farm" />
		<tag k="ssr:date" v="2016-05-10" />
		<tag k="ssr:gruppe" v="gardsbebyggelse" />
		<tag k="ssr:hovedgruppe" v="bebyggelse" />
		<tag k="ssr:stedsnr" v="634085" />
		<tag k="ssr:type" v="bruk" />
	</node>
	<node id="-197261" lat="59.4466444445" lon="10.3931861128">
		<tag k="name" v="Katten" />
		<tag k="natural" v="cape" />
		<tag k="ssr:date" v="2016-05-10" />
		<tag k="ssr:gruppe" v="kystkontur" />
		<tag k="ssr:hovedgruppe" v="sjø" />
		<tag k="ssr:stedsnr" v="634083" />
		<tag k="ssr:type" v="nesISjø" />
	</node>
	<node id="-197260" lat="59.3782777755" lon="10.5330277841">
		<tag k="name" v="Briskesletta" />
		<tag k="place" v="locality" />
		<tag k="ssr:date" v="2016-05-10" />
		<tag k="ssr:gruppe" v="flater" />
		<tag k="ssr:hovedgruppe" v="terreng" />
		<tag k="ssr:stedsnr" v="633215" />
		<tag k="ssr:type" v="slette" />
	</node>
	<node id="-197259" lat="59.4310972259" lon="10.392108341">
		<tag k="fixme" v="consider place=hamlet" />
		<tag k="name" v="Skåne nordre" />
		<tag k="place" v="farm" />
		<tag k="ssr:date" v="2018-06-01" />
		<tag k="ssr:gruppe" v="gardsbebyggelse" />
		<tag k="ssr:hovedgruppe" v="bebyggelse" />
		<tag k="ssr:stedsnr" v="631862" />
		<tag k="ssr:type" v="gard" />
	</node>
	<node id="-197258" lat="59.3876444433" lon="10.4637833247">
		<tag k="name" v="Vold" />
		<tag k="place" v="farm" />
		<tag k="ssr:date" v="2016-05-10" />
		<tag k="ssr:gruppe" v="gardsbebyggelse" />
		<tag k="ssr:hovedgruppe" v="bebyggelse" />
		<tag k="ssr:stedsnr" v="631859" />
		<tag k="ssr:type" v="bruk" />
	</node>
	<node id="-197257" lat="59.3478138872" lon="10.4729611144">
		<tag k="name" v="Åsgårdstrand badeplass" />
		<tag k="natural" v="beach" />
		<tag k="place" v="locality" />
		<tag k="ssr:date" v="2016-05-10" />
		<tag k="ssr:gruppe" v="kystkontur" />
		<tag k="ssr:hovedgruppe" v="sjø" />
		<tag k="ssr:stedsnr" v="631840" />
		<tag k="ssr:type" v="strandISjø" />
	</node>
	<node id="-197256" lat="59.419113892" lon="10.3896777743">
		<tag k="name" v="Ramberg" />
		<tag k="place" v="farm" />
		<tag k="ssr:date" v="2016-05-10" />
		<tag k="ssr:gruppe" v="gardsbebyggelse" />
		<tag k="ssr:hovedgruppe" v="bebyggelse" />
		<tag k="ssr:stedsnr" v="631832" />
		<tag k="ssr:type" v="bruk" />
	</node>
	<node id="-197255" lat="59.4157638875" lon="10.3960277734">
		<tag k="fixme" v="consider place=hamlet" />
		<tag k="name" v="Knatten" />
		<tag k="place" v="farm" />
		<tag k="ssr:date" v="2018-05-31" />
		<tag k="ssr:gruppe" v="gardsbebyggelse" />
		<tag k="ssr:hovedgruppe" v="bebyggelse" />
		<tag k="ssr:stedsnr" v="609985" />
		<tag k="ssr:type" v="gard" />
	</node>
	<node id="-197254" lat="59.4110000004" lon="10.3570499969">
		<tag k="name" v="Kjærran" />
		<tag k="place" v="hamlet" />
		<tag k="ssr:date" v="2018-06-01" />
		<tag k="ssr:gruppe" v="gardsbebyggelse" />
		<tag k="ssr:hovedgruppe" v="bebyggelse" />
		<tag k="ssr:stedsnr" v="609980" />
		<tag k="ssr:type" v="navnegard" />
	</node>
	<node id="-197253" lat="59.4002250001" lon="10.4076722227">
		<tag k="fixme" v="consider place=hamlet" />
		<tag k="name" v="Olsmyra" />
		<tag k="place" v="farm" />
		<tag k="ssr:date" v="2018-05-31" />
		<tag k="ssr:gruppe" v="gardsbebyggelse" />
		<tag k="ssr:hovedgruppe" v="bebyggelse" />
		<tag k="ssr:stedsnr" v="609480" />
		<tag k="ssr:type" v="gard" />
	</node>
	<node id="-197252" lat="59.424944443" lon="10.3817388874">
		<tag k="alt_name" v="Nykirke st." />
		<tag k="name" v="Nykirke" />
		<tag k="railway" v="station" />
		<tag k="ssr:date" v="2016-05-10" />
		<tag k="ssr:gruppe" v="bane" />
		<tag k="ssr:hovedgruppe" v="infrastruktur" />
		<tag k="ssr:stedsnr" v="608994" />
		<tag k="ssr:type" v="stasjon" />
		<tag k="train" v="yes" />
	</node>
	<node id="-197251" lat="59.4272833375" lon="10.4381305506">
		<tag k="name" v="Ramsli" />
		<tag k="place" v="locality" />
		<tag k="ssr:date" v="2016-05-10" />
		<tag k="ssr:gruppe" v="gardsbebyggelse" />
		<tag k="ssr:hovedgruppe" v="bebyggelse" />
		<tag k="ssr:stedsnr" v="608989" />
		<tag k="ssr:type" v="eiendom" />
	</node>
	<node id="-197250" lat="59.4306388883" lon="10.4167083308">
		<tag k="fixme" v="consider place=hamlet" />
		<tag k="name" v="Tufte" />
		<tag k="place" v="farm" />
		<tag k="ssr:date" v="2018-06-01" />
		<tag k="ssr:gruppe" v="gardsbebyggelse" />
		<tag k="ssr:hovedgruppe" v="bebyggelse" />
		<tag k="ssr:stedsnr" v="608988" />
		<tag k="ssr:type" v="gard" />
	</node>
	<node id="-197249" lat="59.443869447" lon="10.4617416713">
		<tag k="name" v="Mellomøya" />
		<tag k="place" v="island" />
		<tag k="ssr:date" v="2016-05-10" />
		<tag k="ssr:gruppe" v="kystkontur" />
		<tag k="ssr:hovedgruppe" v="sjø" />
		<tag k="ssr:stedsnr" v="608961" />
		<tag k="ssr:type" v="øyISjø" />
	</node>
	<node id="-197248" lat="59.3598666647" lon="10.4068083402">
		<tag k="name" v="Adal" />
		<tag k="place" v="farm" />
		<tag k="ssr:date" v="2016-05-10" />
		<tag k="ssr:gruppe" v="gardsbebyggelse" />
		<tag k="ssr:hovedgruppe" v="bebyggelse" />
		<tag k="ssr:stedsnr" v="608604" />
		<tag k="ssr:type" v="bruk" />
	</node>
	<node id="-197247" lat="59.3677611119" lon="10.4454777819">
		<tag k="alt_name" v="Vestmanrød" />
		<tag k="fixme" v="consider place=hamlet" />
		<tag k="name" v="Vestmannrød" />
		<tag k="place" v="farm" />
		<tag k="ssr:date" v="2018-05-29" />
		<tag k="ssr:gruppe" v="gardsbebyggelse" />
		<tag k="ssr:hovedgruppe" v="bebyggelse" />
		<tag k="ssr:stedsnr" v="608601" />
		<tag k="ssr:type" v="gard" />
	</node>
	<node id="-197246" lat="59.3829249959" lon="10.3845972262">
		<tag k="name" v="Solheim" />
		<tag k="place" v="farm" />
		<tag k="ssr:date" v="2016-05-10" />
		<tag k="ssr:gruppe" v="gardsbebyggelse" />
		<tag k="ssr:hovedgruppe" v="bebyggelse" />
		<tag k="ssr:stedsnr" v="608585" />
		<tag k="ssr:type" v="bruk" />
	</node>
	<node id="-197245" lat="59.381433334" lon="10.3818388889">
		<tag k="alt_name" v="Steinbjørnrød" />
		<tag k="fixme" v="consider place=hamlet" />
		<tag k="name" v="Stenbjørnrød" />
		<tag k="place" v="farm" />
		<tag k="ssr:date" v="2018-05-31" />
		<tag k="ssr:gruppe" v="gardsbebyggelse" />
		<tag k="ssr:hovedgruppe" v="bebyggelse" />
		<tag k="ssr:stedsnr" v="608584" />
		<tag k="ssr:type" v="gard" />
	</node>
	<node id="-197244" lat="59.421086114" lon="10.3835361106">
		<tag k="name" v="Klokkeråsen" />
		<tag k="place" v="quarter" />
		<tag k="ssr:date" v="2016-05-10" />
		<tag k="ssr:gruppe" v="bebyggelsesområder" />
		<tag k="ssr:hovedgruppe" v="bebyggelse" />
		<tag k="ssr:stedsnr" v="604692" />
		<tag k="ssr:type" v="boligfelt" />
	</node>
	<node id="-197243" lat="59.3495777821" lon="10.4448888924">
		<tag k="name" v="Breidablikk" />
		<tag k="place" v="quarter" />
		<tag k="ssr:date" v="2016-05-10" />
		<tag k="ssr:gruppe" v="bebyggelsesområder" />
		<tag k="ssr:hovedgruppe" v="bebyggelse" />
		<tag k="ssr:stedsnr" v="601683" />
		<tag k="ssr:type" v="boligfelt" />
	</node>
	<node id="-197242" lat="59.4416888914" lon="10.4332444381">
		<tag k="bridge" v="yes" />
		<tag k="layer" v="1" />
		<tag k="name" v="Falkensten øst" />
		<tag k="ssr:date" v="2016-05-10" />
		<tag k="ssr:gruppe" v="samferdselsanlegg" />
		<tag k="ssr:hovedgruppe" v="infrastruktur" />
		<tag k="ssr:stedsnr" v="592655" />
		<tag k="ssr:type" v="bru" />
	</node>
	<node id="-197241" lat="59.3606694459" lon="10.509888896">
		<tag k="fixme" v="consider seamark:type=rock or natural=shoal" />
		<tag k="name" v="Østenskjær" />
		<tag k="place" v="islet" />
		<tag k="ssr:date" v="2016-05-10" />
		<tag k="ssr:gruppe" v="grunnerISjø" />
		<tag k="ssr:hovedgruppe" v="sjø" />
		<tag k="ssr:stedsnr" v="583037" />
		<tag k="ssr:type" v="skjærISjø" />
	</node>
	<node id="-197240" lat="59.4308861148" lon="10.3799861129">
		<tag k="fixme" v="consider place=hamlet" />
		<tag k="name" v="Nøklegård øvre" />
		<tag k="place" v="farm" />
		<tag k="ssr:date" v="2018-06-01" />
		<tag k="ssr:gruppe" v="gardsbebyggelse" />
		<tag k="ssr:hovedgruppe" v="bebyggelse" />
		<tag k="ssr:stedsnr" v="580572" />
		<tag k="ssr:type" v="gard" />
	</node>
	<node id="-197239" lat="59.4359694441" lon="10.380230557">
		<tag k="name" v="Tveitan" />
		<tag k="place" v="farm" />
		<tag k="ssr:date" v="2016-05-10" />
		<tag k="ssr:gruppe" v="gardsbebyggelse" />
		<tag k="ssr:hovedgruppe" v="bebyggelse" />
		<tag k="ssr:stedsnr" v="580565" />
		<tag k="ssr:type" v="bruk" />
	</node>
	<node id="-197238" lat="59.3866055547" lon="10.4063222288">
		<tag k="amenity" v="place_of_worship" />
		<tag k="denomination" v="lutheran" />
		<tag k="name" v="Skoppum" />
		<tag k="religion" v="christian" />
		<tag k="ssr:date" v="2016-05-10" />
		<tag k="ssr:gruppe" v="kulturinstitusjoner" />
		<tag k="ssr:hovedgruppe" v="kultur" />
		<tag k="ssr:stedsnr" v="578606" />
		<tag k="ssr:type" v="kirke" />
	</node>
	<node id="-197237" lat="59.356997219" lon="10.4361611081">
		<tag k="name" v="Ra" />
		<tag k="place" v="locality" />
		<tag k="ssr:date" v="2016-05-10" />
		<tag k="ssr:gruppe" v="dyrkamark" />
		<tag k="ssr:hovedgruppe" v="markslag" />
		<tag k="ssr:stedsnr" v="574431" />
		<tag k="ssr:type" v="jorde" />
	</node>
	<node id="-197236" lat="59.3558833372" lon="10.3965972203">
		<tag k="name" v="Gråmunken" />
		<tag k="natural" v="hill" />
		<tag k="place" v="locality" />
		<tag k="ssr:date" v="2016-05-10" />
		<tag k="ssr:gruppe" v="høyder" />
		<tag k="ssr:hovedgruppe" v="terreng" />
		<tag k="ssr:stedsnr" v="574430" />
		<tag k="ssr:type" v="høyde" />
	</node>
	<node id="-197235" lat="59.4447666696" lon="10.4662777726">
		<tag k="name" v="Strømsundet" />
		<tag k="natural" v="strait" />
		<tag k="ssr:date" v="2016-05-10" />
		<tag k="ssr:gruppe" v="kystkontur" />
		<tag k="ssr:hovedgruppe" v="sjø" />
		<tag k="ssr:stedsnr" v="574118" />
		<tag k="ssr:type" v="sundISjø" />
	</node>
	<node id="-197234" lat="59.4231138895" lon="10.3650250059">
		<tag k="junction" v="yes" />
		<tag k="name" v="Kopstad" />
		<tag k="place" v="locality" />
		<tag k="ssr:date" v="2016-05-10" />
		<tag k="ssr:gruppe" v="veg" />
		<tag k="ssr:hovedgruppe" v="infrastruktur" />
		<tag k="ssr:stedsnr" v="573823" />
		<tag k="ssr:type" v="vegkryss" />
	</node>
	<node id="-197233" lat="59.4359111146" lon="10.4547000083">
		<tag k="name" v="Kjølhaleskogen" />
		<tag k="place" v="locality" />
		<tag k="ssr:date" v="2016-05-10" />
		<tag k="ssr:gruppe" v="vegetasjon" />
		<tag k="ssr:hovedgruppe" v="markslag" />
		<tag k="ssr:stedsnr" v="572878" />
		<tag k="ssr:type" v="skog" />
	</node>
	<node id="-197232" lat="59.3682499968" lon="10.5361166601">
		<tag k="name" v="Utsikten" />
		<tag k="ssr:date" v="2016-05-10" />
		<tag k="ssr:gruppe" v="kulturminner" />
		<tag k="ssr:hovedgruppe" v="kultur" />
		<tag k="ssr:stedsnr" v="572212" />
		<tag k="ssr:type" v="utsiktspunkt" />
		<tag k="tourism" v="viewpoint" />
	</node>
	<node id="-197231" lat="59.366511109" lon="10.5354749951">
		<tag k="name" v="Sydspissen" />
		<tag k="natural" v="cape" />
		<tag k="ssr:date" v="2016-05-10" />
		<tag k="ssr:gruppe" v="kystkontur" />
		<tag k="ssr:hovedgruppe" v="sjø" />
		<tag k="ssr:stedsnr" v="572209" />
		<tag k="ssr:type" v="nesISjø" />
	</node>
	<node id="-197230" lat="59.3911138877" lon="10.4110777719">
		<tag k="name" v="Skoppum st." />
		<tag k="railway" v="station" />
		<tag k="ssr:date" v="2016-05-10" />
		<tag k="ssr:gruppe" v="bane" />
		<tag k="ssr:hovedgruppe" v="infrastruktur" />
		<tag k="ssr:stedsnr" v="571822" />
		<tag k="ssr:type" v="stasjon" />
		<tag k="train" v="yes" />
	</node>
	<node id="-197229" lat="59.3847916661" lon="10.4179361065">
		<tag k="name" v="Sande mølle og sagbruk" />
		<tag k="place" v="quarter" />
		<tag k="ssr:date" v="2016-05-10" />
		<tag k="ssr:gruppe" v="bebyggelsesområder" />
		<tag k="ssr:hovedgruppe" v="bebyggelse" />
		<tag k="ssr:stedsnr" v="571818" />
		<tag k="ssr:type" v="industriområde" />
	</node>
	<node id="-197228" lat="59.4522500003" lon="10.4450499927">
		<tag k="loc_name" v="Veggsletta" />
		<tag k="name" v="Veggesletta" />
		<tag k="natural" v="cape" />
		<tag k="ssr:date" v="2016-05-10" />
		<tag k="ssr:gruppe" v="kystkontur" />
		<tag k="ssr:hovedgruppe" v="sjø" />
		<tag k="ssr:stedsnr" v="570827" />
		<tag k="ssr:type" v="nesISjø" />
	</node>
	<node id="-197227" lat="59.382697222" lon="10.4700861052">
		<tag k="fixme" v="consider boundary=protected_area and relevant protect_class if not nature reserve" />
		<tag k="leisure" v="nature_reserve" />
		<tag k="name" v="Borre nasjonalpark" />
		<tag k="ssr:date" v="2016-05-10" />
		<tag k="ssr:gruppe" v="verne-OgBruksområder" />
		<tag k="ssr:hovedgruppe" v="offentligAdministrasjon" />
		<tag k="ssr:stedsnr" v="570828" />
		<tag k="ssr:type" v="verneområde" />
	</node>
	<node id="-197226" lat="59.3737472265" lon="10.4605361135">
		<tag k="name" v="Rishagerød" />
		<tag k="place" v="farm" />
		<tag k="ssr:date" v="2016-05-10" />
		<tag k="ssr:gruppe" v="gardsbebyggelse" />
		<tag k="ssr:hovedgruppe" v="bebyggelse" />
		<tag k="ssr:stedsnr" v="570801" />
		<tag k="ssr:type" v="bruk" />
	</node>
	<node id="-197225" lat="59.3751888921" lon="10.4381499945">
		<tag k="name" v="Fogdeskogen" />
		<tag k="place" v="locality" />
		<tag k="ssr:date" v="2016-05-10" />
		<tag k="ssr:gruppe" v="vegetasjon" />
		<tag k="ssr:hovedgruppe" v="markslag" />
		<tag k="ssr:stedsnr" v="570794" />
		<tag k="ssr:type" v="skog" />
	</node>
	<node id="-197224" lat="59.3778027821" lon="10.4687277792">
		<tag k="man_made" v="quay" />
		<tag k="name" v="Steinbrygga" />
		<tag k="place" v="locality" />
		<tag k="ssr:date" v="2016-05-10" />
		<tag k="ssr:gruppe" v="sjøfart" />
		<tag k="ssr:hovedgruppe" v="infrastruktur" />
		<tag k="ssr:stedsnr" v="570791" />
		<tag k="ssr:type" v="brygge" />
	</node>
	<node id="-197223" lat="59.4243499972" lon="10.3576833402">
		<tag k="name" v="Soleglad" />
		<tag k="place" v="farm" />
		<tag k="ssr:date" v="2016-05-10" />
		<tag k="ssr:gruppe" v="gardsbebyggelse" />
		<tag k="ssr:hovedgruppe" v="bebyggelse" />
		<tag k="ssr:stedsnr" v="548998" />
		<tag k="ssr:type" v="bruk" />
	</node>
	<node id="-197222" lat="59.4187200548" lon="10.3442683052">
		<tag k="fixme" v="multiple name tags, choose one and add the other to alt_name; consider place=hamlet" />
		<tag k="name" v="Drengløs;Jalland" />
		<tag k="place" v="farm" />
		<tag k="ssr:date" v="2018-06-01" />
		<tag k="ssr:gruppe" v="gardsbebyggelse" />
		<tag k="ssr:hovedgruppe" v="bebyggelse" />
		<tag k="ssr:stedsnr" v="548975" />
		<tag k="ssr:type" v="gard" />
	</node>
	<node id="-197221" lat="59.4060305516" lon="10.350749993">
		<tag k="name" v="Fossøla" />
		<tag k="place" v="farm" />
		<tag k="ssr:date" v="2016-05-10" />
		<tag k="ssr:gruppe" v="gardsbebyggelse" />
		<tag k="ssr:hovedgruppe" v="bebyggelse" />
		<tag k="ssr:stedsnr" v="548963" />
		<tag k="ssr:type" v="bruk" />
	</node>
	<node id="-197220" lat="59.4417305565" lon="10.3975333391">
		<tag k="alt_name" v="Vegge;Vegge nordre" />
		<tag k="fixme" v="consider place=hamlet" />
		<tag k="name" v="Nordre Vegge" />
		<tag k="place" v="farm" />
		<tag k="ssr:date" v="2018-06-01" />
		<tag k="ssr:gruppe" v="gardsbebyggelse" />
		<tag k="ssr:hovedgruppe" v="bebyggelse" />
		<tag k="ssr:stedsnr" v="548944" />
		<tag k="ssr:type" v="gard" />
	</node>
	<node id="-197219" lat="59.437233332" lon="10.3786944473">
		<tag k="fixme" v="consider place=hamlet" />
		<tag k="name" v="Tveitan" />
		<tag k="place" v="farm" />
		<tag k="ssr:date" v="2018-06-01" />
		<tag k="ssr:gruppe" v="gardsbebyggelse" />
		<tag k="ssr:hovedgruppe" v="bebyggelse" />
		<tag k="ssr:stedsnr" v="548930" />
		<tag k="ssr:type" v="gard" />
	</node>
	<node id="-197218" lat="59.382455554" lon="10.4599611068">
		<tag k="alt_name" v="Borre kirke" />
		<tag k="amenity" v="place_of_worship" />
		<tag k="denomination" v="lutheran" />
		<tag k="name" v="Borre" />
		<tag k="religion" v="christian" />
		<tag k="ssr:date" v="2016-05-10" />
		<tag k="ssr:gruppe" v="kulturinstitusjoner" />
		<tag k="ssr:hovedgruppe" v="kultur" />
		<tag k="ssr:stedsnr" v="548558" />
		<tag k="ssr:type" v="kirke" />
	</node>
	<node id="-197217" lat="59.3843027785" lon="10.4528027849">
		<tag k="name" v="Gannestad" />
		<tag k="place" v="isolated_dwelling" />
		<tag k="ssr:date" v="2018-05-29" />
		<tag k="ssr:gruppe" v="bolighus" />
		<tag k="ssr:hovedgruppe" v="bebyggelse" />
		<tag k="ssr:stedsnr" v="548556" />
		<tag k="ssr:type" v="eneboligMindreBoligbygg" />
	</node>
	<node id="-197216" lat="59.4268694438" lon="10.4899055611">
		<tag k="amenity" v="place_of_worship" />
		<tag k="denomination" v="lutheran" />
		<tag k="loc_name" v="Horten kirke" />
		<tag k="name" v="Horten" />
		<tag k="religion" v="christian" />
		<tag k="ssr:date" v="2016-05-10" />
		<tag k="ssr:gruppe" v="kulturinstitusjoner" />
		<tag k="ssr:hovedgruppe" v="kultur" />
		<tag k="ssr:stedsnr" v="548518" />
		<tag k="ssr:type" v="kirke" />
	</node>
	<node id="-197215" lat="59.3736499976" lon="10.4460611092">
		<tag k="bridge" v="yes" />
		<tag k="layer" v="1" />
		<tag k="name" v="Ingeniørhøyskolen" />
		<tag k="ssr:date" v="2016-05-10" />
		<tag k="ssr:gruppe" v="samferdselsanlegg" />
		<tag k="ssr:hovedgruppe" v="infrastruktur" />
		<tag k="ssr:stedsnr" v="532609" />
		<tag k="ssr:type" v="bru" />
	</node>
	<node id="-197213" lat="59.3560972255" lon="10.4666777692">
		<tag k="name" v="Skogstua" />
		<tag k="place" v="isolated_dwelling" />
		<tag k="ssr:date" v="2016-05-10" />
		<tag k="ssr:gruppe" v="bolighus" />
		<tag k="ssr:hovedgruppe" v="bebyggelse" />
		<tag k="ssr:stedsnr" v="523041" />
		<tag k="ssr:type" v="eneboligMindreBoligbygg" />
	</node>
	<node id="-197212" lat="59.3703546605" lon="10.4358591775">
		<tag k="name" v="Adalstjernet" />
		<tag k="natural" v="water" />
		<tag k="ssr:date" v="2019-06-25" />
		<tag k="ssr:gruppe" v="stilleståendeVann" />
		<tag k="ssr:hovedgruppe" v="ferskvann" />
		<tag k="ssr:stedsnr" v="513412" />
		<tag k="ssr:type" v="tjern" />
	</node>
	<node id="-197211" lat="59.4477972209" lon="10.3961583299">
		<tag k="name" v="Katterenna" />
		<tag k="natural" v="hill" />
		<tag k="place" v="locality" />
		<tag k="ssr:date" v="2016-05-10" />
		<tag k="ssr:gruppe" v="høyder" />
		<tag k="ssr:hovedgruppe" v="terreng" />
		<tag k="ssr:stedsnr" v="513367" />
		<tag k="ssr:type" v="berg" />
	</node>
	<node id="-197210" lat="59.4316583343" lon="10.4444611024">
		<tag k="name" v="Nordlibakken" />
		<tag k="natural" v="slope" />
		<tag k="place" v="locality" />
		<tag k="ssr:date" v="2016-05-10" />
		<tag k="ssr:gruppe" v="skråninger" />
		<tag k="ssr:hovedgruppe" v="terreng" />
		<tag k="ssr:stedsnr" v="512895" />
		<tag k="ssr:type" v="bakke" />
	</node>
	<node id="-197209" lat="59.4135833337" lon="10.4939999983">
		<tag k="man_made" v="quay" />
		<tag k="name" v="Dypvannskaia" />
		<tag k="place" v="locality" />
		<tag k="ssr:date" v="2016-05-10" />
		<tag k="ssr:gruppe" v="sjøfart" />
		<tag k="ssr:hovedgruppe" v="infrastruktur" />
		<tag k="ssr:stedsnr" v="512178" />
		<tag k="ssr:type" v="kai" />
	</node>
	<node id="-197208" lat="59.4412000029" lon="10.4297833396">
		<tag k="building" v="industrial" />
		<tag k="industrial" v="factory" />
		<tag k="name" v="Falkensten" />
		<tag k="ssr:date" v="2016-05-10" />
		<tag k="ssr:gruppe" v="næring" />
		<tag k="ssr:hovedgruppe" v="bebyggelse" />
		<tag k="ssr:stedsnr" v="510882" />
		<tag k="ssr:type" v="fabrikk" />
	</node>
	<node id="-197207" lat="59.3799222251" lon="10.4667305616">
		<tag k="name" v="Spillemannshaugen" />
		<tag k="natural" v="hill" />
		<tag k="place" v="locality" />
		<tag k="ssr:date" v="2016-05-10" />
		<tag k="ssr:gruppe" v="høyder" />
		<tag k="ssr:hovedgruppe" v="terreng" />
		<tag k="ssr:stedsnr" v="510874" />
		<tag k="ssr:type" v="haug" />
	</node>
	<node id="-197206" lat="59.3951833354" lon="10.4781861157">
		<tag k="name" v="Eikestrand" />
		<tag k="natural" v="beach" />
		<tag k="place" v="locality" />
		<tag k="ssr:date" v="2016-05-10" />
		<tag k="ssr:gruppe" v="kystkontur" />
		<tag k="ssr:hovedgruppe" v="sjø" />
		<tag k="ssr:stedsnr" v="510865" />
		<tag k="ssr:type" v="strandISjø" />
	</node>
	<node id="-197205" lat="59.3965055573" lon="10.3849805642">
		<tag k="fixme" v="consider place=hamlet" />
		<tag k="name" v="Gusland nordre" />
		<tag k="place" v="farm" />
		<tag k="ssr:date" v="2018-05-31" />
		<tag k="ssr:gruppe" v="gardsbebyggelse" />
		<tag k="ssr:hovedgruppe" v="bebyggelse" />
		<tag k="ssr:stedsnr" v="510860" />
		<tag k="ssr:type" v="gard" />
	</node>
	<node id="-197204" lat="59.3985694426" lon="10.3912388898">
		<tag k="name" v="Støkke" />
		<tag k="place" v="farm" />
		<tag k="ssr:date" v="2016-05-10" />
		<tag k="ssr:gruppe" v="gardsbebyggelse" />
		<tag k="ssr:hovedgruppe" v="bebyggelse" />
		<tag k="ssr:stedsnr" v="510858" />
		<tag k="ssr:type" v="bruk" />
	</node>
	<node id="-197203" lat="59.4203583359" lon="10.3871694382">
		<tag k="junction" v="yes" />
		<tag k="name" v="Ekeberg" />
		<tag k="place" v="locality" />
		<tag k="ssr:date" v="2016-05-10" />
		<tag k="ssr:gruppe" v="veg" />
		<tag k="ssr:hovedgruppe" v="infrastruktur" />
		<tag k="ssr:stedsnr" v="510847" />
		<tag k="ssr:type" v="vegkryss" />
	</node>
	<node id="-197202" lat="59.3520499963" lon="10.4435416662">
		<tag k="name" v="Øvre Åsgården" />
		<tag k="place" v="farm" />
		<tag k="ssr:date" v="2016-05-10" />
		<tag k="ssr:gruppe" v="gardsbebyggelse" />
		<tag k="ssr:hovedgruppe" v="bebyggelse" />
		<tag k="ssr:stedsnr" v="510841" />
		<tag k="ssr:type" v="bruk" />
	</node>
	<node id="-197201" lat="59.3514361107" lon="10.4376861177">
		<tag k="fixme" v="consider place=hamlet" />
		<tag k="name" v="Kjær ytre" />
		<tag k="place" v="farm" />
		<tag k="ssr:date" v="2018-05-29" />
		<tag k="ssr:gruppe" v="gardsbebyggelse" />
		<tag k="ssr:hovedgruppe" v="bebyggelse" />
		<tag k="ssr:stedsnr" v="510839" />
		<tag k="ssr:type" v="gard" />
	</node>
	<node id="-197200" lat="59.4102277787" lon="10.3666388848">
		<tag k="alt_name" v="Mosekvisl;Moskvil;Moskvil, søndre" />
		<tag k="fixme" v="consider place=hamlet" />
		<tag k="name" v="Søndre Moskvil" />
		<tag k="place" v="farm" />
		<tag k="ssr:date" v="2018-05-31" />
		<tag k="ssr:gruppe" v="gardsbebyggelse" />
		<tag k="ssr:hovedgruppe" v="bebyggelse" />
		<tag k="ssr:stedsnr" v="495677" />
		<tag k="ssr:type" v="gard" />
	</node>
	<node id="-197199" lat="59.3973805596" lon="10.4357500081">
		<tag k="alt_name" v="Øvre Toen" />
		<tag k="fixme" v="consider place=hamlet" />
		<tag k="name" v="Toen" />
		<tag k="place" v="farm" />
		<tag k="ssr:date" v="2018-05-29" />
		<tag k="ssr:gruppe" v="gardsbebyggelse" />
		<tag k="ssr:hovedgruppe" v="bebyggelse" />
		<tag k="ssr:stedsnr" v="488489" />
		<tag k="ssr:type" v="gard" />
	</node>
	<node id="-197198" lat="59.398419442" lon="10.4799527769">
		<tag k="name" v="Rørestrand" />
		<tag k="natural" v="beach" />
		<tag k="place" v="locality" />
		<tag k="ssr:date" v="2016-05-10" />
		<tag k="ssr:gruppe" v="kystkontur" />
		<tag k="ssr:hovedgruppe" v="sjø" />
		<tag k="ssr:stedsnr" v="488487" />
		<tag k="ssr:type" v="strandISjø" />
	</node>
	<node id="-197197" lat="59.4227861152" lon="10.3837777774">
		<tag k="amenity" v="place_of_worship" />
		<tag k="denomination" v="lutheran" />
		<tag k="name" v="Nykirke" />
		<tag k="religion" v="christian" />
		<tag k="ssr:date" v="2016-05-10" />
		<tag k="ssr:gruppe" v="kulturinstitusjoner" />
		<tag k="ssr:hovedgruppe" v="kultur" />
		<tag k="ssr:stedsnr" v="487989" />
		<tag k="ssr:type" v="kirke" />
	</node>
	<node id="-197196" lat="59.4275249994" lon="10.4455999989">
		<tag k="name" v="Dampejordet" />
		<tag k="place" v="isolated_dwelling" />
		<tag k="ssr:date" v="2016-05-10" />
		<tag k="ssr:gruppe" v="bolighus" />
		<tag k="ssr:hovedgruppe" v="bebyggelse" />
		<tag k="ssr:stedsnr" v="487988" />
		<tag k="ssr:type" v="eneboligMindreBoligbygg" />
	</node>
	<node id="-197195" lat="59.4184194444" lon="10.4518166712">
		<tag k="name" v="Holtan" />
		<tag k="place" v="isolated_dwelling" />
		<tag k="ssr:date" v="2016-05-10" />
		<tag k="ssr:gruppe" v="bolighus" />
		<tag k="ssr:hovedgruppe" v="bebyggelse" />
		<tag k="ssr:stedsnr" v="487973" />
		<tag k="ssr:type" v="eneboligMindreBoligbygg" />
	</node>
	<node id="-197194" lat="59.4121694411" lon="10.378344445">
		<tag k="fixme" v="consider place=hamlet" />
		<tag k="name" v="Åsrød" />
		<tag k="place" v="farm" />
		<tag k="ssr:date" v="2018-05-31" />
		<tag k="ssr:gruppe" v="gardsbebyggelse" />
		<tag k="ssr:hovedgruppe" v="bebyggelse" />
		<tag k="ssr:stedsnr" v="487966" />
		<tag k="ssr:type" v="gard" />
	</node>
	<node id="-197193" lat="59.4405055593" lon="10.3690944498">
		<tag k="fixme" v="consider place=hamlet" />
		<tag k="name" v="Freberg nordre" />
		<tag k="place" v="farm" />
		<tag k="ssr:date" v="2018-06-01" />
		<tag k="ssr:gruppe" v="gardsbebyggelse" />
		<tag k="ssr:hovedgruppe" v="bebyggelse" />
		<tag k="ssr:stedsnr" v="487955" />
		<tag k="ssr:type" v="gard" />
	</node>
	<node id="-197192" lat="59.4459916685" lon="10.4758916731">
		<tag k="name" v="Østøya" />
		<tag k="place" v="island" />
		<tag k="ssr:date" v="2016-05-10" />
		<tag k="ssr:gruppe" v="kystkontur" />
		<tag k="ssr:hovedgruppe" v="sjø" />
		<tag k="ssr:stedsnr" v="487948" />
		<tag k="ssr:type" v="øyISjø" />
	</node>
	<node id="-197191" lat="59.3662749988" lon="10.402641671">
		<tag k="name" v="Solheim" />
		<tag k="place" v="farm" />
		<tag k="ssr:date" v="2016-05-10" />
		<tag k="ssr:gruppe" v="gardsbebyggelse" />
		<tag k="ssr:hovedgruppe" v="bebyggelse" />
		<tag k="ssr:stedsnr" v="487611" />
		<tag k="ssr:type" v="bruk" />
	</node>
	<node id="-197190" lat="59.3593888892" lon="10.4647388923">
		<tag k="name" v="Rosenville" />
		<tag k="place" v="farm" />
		<tag k="ssr:date" v="2016-05-10" />
		<tag k="ssr:gruppe" v="gardsbebyggelse" />
		<tag k="ssr:hovedgruppe" v="bebyggelse" />
		<tag k="ssr:stedsnr" v="487609" />
		<tag k="ssr:type" v="bruk" />
	</node>
	<node id="-197189" lat="59.3738611145" lon="10.4136416664">
		<tag k="fixme" v="consider place=hamlet" />
		<tag k="name" v="Pjonkerød" />
		<tag k="place" v="farm" />
		<tag k="ssr:date" v="2018-05-31" />
		<tag k="ssr:gruppe" v="gardsbebyggelse" />
		<tag k="ssr:hovedgruppe" v="bebyggelse" />
		<tag k="ssr:stedsnr" v="487605" />
		<tag k="ssr:type" v="gard" />
	</node>
	<node id="-197188" lat="59.4043555529" lon="10.4073138898">
		<tag k="alt_name" v="Nordre Rygland" />
		<tag k="fixme" v="consider place=hamlet" />
		<tag k="name" v="Ryggland" />
		<tag k="place" v="farm" />
		<tag k="ssr:date" v="2018-05-29" />
		<tag k="ssr:gruppe" v="gardsbebyggelse" />
		<tag k="ssr:hovedgruppe" v="bebyggelse" />
		<tag k="ssr:stedsnr" v="487548" />
		<tag k="ssr:type" v="gard" />
	</node>
	<node id="-197187" lat="59.4297083369" lon="10.3366583312">
		<tag k="alt_name" v="Bruserød" />
		<tag k="fixme" v="consider place=hamlet" />
		<tag k="name" v="Bruserud" />
		<tag k="place" v="farm" />
		<tag k="ssr:date" v="2018-06-01" />
		<tag k="ssr:gruppe" v="gardsbebyggelse" />
		<tag k="ssr:hovedgruppe" v="bebyggelse" />
		<tag k="ssr:stedsnr" v="487176" />
		<tag k="ssr:type" v="gard" />
	</node>
	<node id="-197185" lat="59.4314444402" lon="10.4488166719">
		<tag k="name" v="Nordli" />
		<tag k="place" v="quarter" />
		<tag k="ssr:date" v="2016-05-10" />
		<tag k="ssr:gruppe" v="bebyggelsesområder" />
		<tag k="ssr:hovedgruppe" v="bebyggelse" />
		<tag k="ssr:stedsnr" v="480679" />
		<tag k="ssr:type" v="boligfelt" />
	</node>
	<node id="-197183" lat="59.4395388897" lon="10.4743805612">
		<tag k="fixme" v="consider seamark:type=rock or natural=shoal" />
		<tag k="name" v="Stuterenskjæret" />
		<tag k="place" v="islet" />
		<tag k="ssr:date" v="2016-05-10" />
		<tag k="ssr:gruppe" v="grunnerISjø" />
		<tag k="ssr:hovedgruppe" v="sjø" />
		<tag k="ssr:stedsnr" v="465684" />
		<tag k="ssr:type" v="skjærISjø" />
	</node>
	<node id="-197182" lat="59.4411611151" lon="10.4538527765">
		<tag k="fixme" v="consider seamark:type=rock or natural=shoal" />
		<tag k="name" v="Rognskjæret" />
		<tag k="place" v="islet" />
		<tag k="ssr:date" v="2016-05-10" />
		<tag k="ssr:gruppe" v="grunnerISjø" />
		<tag k="ssr:hovedgruppe" v="sjø" />
		<tag k="ssr:stedsnr" v="465663" />
		<tag k="ssr:type" v="skjærISjø" />
	</node>
	<node id="-197181" lat="59.4141722261" lon="10.4713388951">
		<tag k="amenity" v="hospital" />
		<tag k="name" v="Horten sykehus" />
		<tag k="ssr:date" v="2016-05-10" />
		<tag k="ssr:gruppe" v="institusjoner" />
		<tag k="ssr:hovedgruppe" v="bebyggelse" />
		<tag k="ssr:stedsnr" v="465625" />
		<tag k="ssr:type" v="sykehus" />
	</node>
	<node id="-197180" lat="59.4065833319" lon="10.4855777833">
		<tag k="name" v="Linda" />
		<tag k="natural" v="cape" />
		<tag k="ssr:date" v="2016-05-10" />
		<tag k="ssr:gruppe" v="kystkontur" />
		<tag k="ssr:hovedgruppe" v="sjø" />
		<tag k="ssr:stedsnr" v="465621" />
		<tag k="ssr:type" v="nesISjø" />
	</node>
	<node id="-197179" lat="59.348338893" lon="10.5004249982">
		<tag k="fixme" v="consider seamark:type=rock or natural=shoal" />
		<tag k="name" v="Østre Småskjæret" />
		<tag k="place" v="islet" />
		<tag k="ssr:date" v="2016-05-10" />
		<tag k="ssr:gruppe" v="grunnerISjø" />
		<tag k="ssr:hovedgruppe" v="sjø" />
		<tag k="ssr:stedsnr" v="462045" />
		<tag k="ssr:type" v="skjærISjø" />
	</node>
	<node id="-197178" lat="59.4109277765" lon="10.5231194484">
		<tag k="name" v="Utgrunnen" />
		<tag k="natural" v="shoal" />
		<tag k="place" v="locality" />
		<tag k="ssr:date" v="2016-05-10" />
		<tag k="ssr:gruppe" v="grunnerISjø" />
		<tag k="ssr:hovedgruppe" v="sjø" />
		<tag k="ssr:stedsnr" v="453137" />
		<tag k="ssr:type" v="grunneISjø" />
	</node>
	<node id="-197177" lat="59.3703861084" lon="10.5261250069">
		<tag k="name" v="Buvika" />
		<tag k="natural" v="bay" />
		<tag k="ssr:date" v="2016-05-10" />
		<tag k="ssr:gruppe" v="kystkontur" />
		<tag k="ssr:hovedgruppe" v="sjø" />
		<tag k="ssr:stedsnr" v="453131" />
		<tag k="ssr:type" v="vikISjø" />
	</node>
	<node id="-197176" lat="59.399213887" lon="10.5128000007">
		<tag k="name" v="Halvorskrakken" />
		<tag k="natural" v="shoal" />
		<tag k="place" v="locality" />
		<tag k="ssr:date" v="2016-05-10" />
		<tag k="ssr:gruppe" v="grunnerISjø" />
		<tag k="ssr:hovedgruppe" v="sjø" />
		<tag k="ssr:stedsnr" v="453127" />
		<tag k="ssr:type" v="grunneISjø" />
	</node>
	<node id="-197175" lat="59.3921861092" lon="10.4789777777">
		<tag k="amenity" v="school" />
		<tag k="name" v="RS Noatun" />
		<tag k="ssr:date" v="2016-05-10" />
		<tag k="ssr:gruppe" v="institusjoner" />
		<tag k="ssr:hovedgruppe" v="bebyggelse" />
		<tag k="ssr:stedsnr" v="451241" />
		<tag k="ssr:type" v="skole" />
	</node>
	<node id="-197174" lat="59.4188750038" lon="10.4934638965">
		<tag k="name" v="Kanalen" />
		<tag k="ssr:date" v="2018-08-17" />
		<tag k="ssr:gruppe" v="sjøfart" />
		<tag k="ssr:hovedgruppe" v="infrastruktur" />
		<tag k="ssr:stedsnr" v="451197" />
		<tag k="ssr:type" v="kanal" />
		<tag k="waterway" v="canal" />
	</node>
	<node id="-197173" lat="59.4467583372" lon="10.4406472281">
		<tag k="name" v="Vadfiskerstua" />
		<tag k="place" v="isolated_dwelling" />
		<tag k="ssr:date" v="2016-05-10" />
		<tag k="ssr:gruppe" v="bolighus" />
		<tag k="ssr:hovedgruppe" v="bebyggelse" />
		<tag k="ssr:stedsnr" v="450850" />
		<tag k="ssr:type" v="fritidsbolig" />
	</node>
	<node id="-197172" lat="59.4117472221" lon="10.4542805534">
		<tag k="name" v="Kampenhaugen" />
		<tag k="natural" v="hill" />
		<tag k="place" v="locality" />
		<tag k="ssr:date" v="2016-05-10" />
		<tag k="ssr:gruppe" v="høyder" />
		<tag k="ssr:hovedgruppe" v="terreng" />
		<tag k="ssr:stedsnr" v="450822" />
		<tag k="ssr:type" v="høyde" />
	</node>
	<node id="-197171" lat="59.346922219" lon="10.4645694417">
		<tag k="alt_name" v="Bakåsen" />
		<tag k="fixme" v="consider natural=peak for the most distinct mountains in the district" />
		<tag k="name" v="Bagåsen" />
		<tag k="natural" v="hill" />
		<tag k="place" v="locality" />
		<tag k="ssr:date" v="2016-05-10" />
		<tag k="ssr:gruppe" v="høyder" />
		<tag k="ssr:hovedgruppe" v="terreng" />
		<tag k="ssr:stedsnr" v="450818" />
		<tag k="ssr:type" v="ås" />
	</node>
	<node id="-197170" lat="59.3484694437" lon="10.4537499978">
		<tag k="name" v="Rønningen" />
		<tag k="natural" v="slope" />
		<tag k="place" v="locality" />
		<tag k="ssr:date" v="2016-05-10" />
		<tag k="ssr:gruppe" v="skråninger" />
		<tag k="ssr:hovedgruppe" v="terreng" />
		<tag k="ssr:stedsnr" v="450816" />
		<tag k="ssr:type" v="bakke" />
	</node>
	<node id="-197169" lat="59.4190611108" lon="10.3533027819">
		<tag k="alt_name" v="Vold" />
		<tag k="fixme" v="consider place=hamlet" />
		<tag k="name" v="Voll" />
		<tag k="place" v="farm" />
		<tag k="ssr:date" v="2018-06-01" />
		<tag k="ssr:gruppe" v="gardsbebyggelse" />
		<tag k="ssr:hovedgruppe" v="bebyggelse" />
		<tag k="ssr:stedsnr" v="427979" />
		<tag k="ssr:type" v="gard" />
	</node>
	<node id="-197168" lat="59.4130555522" lon="10.4224055608">
		<tag k="fixme" v="consider place=hamlet" />
		<tag k="name" v="Eikenes" />
		<tag k="place" v="farm" />
		<tag k="ssr:date" v="2018-05-29" />
		<tag k="ssr:gruppe" v="gardsbebyggelse" />
		<tag k="ssr:hovedgruppe" v="bebyggelse" />
		<tag k="ssr:stedsnr" v="427971" />
		<tag k="ssr:type" v="gard" />
	</node>
	<node id="-197167" lat="59.4311499965" lon="10.4240166585">
		<tag k="fixme" v="consider place=hamlet" />
		<tag k="name" v="Kotterød" />
		<tag k="place" v="farm" />
		<tag k="ssr:date" v="2018-06-01" />
		<tag k="ssr:gruppe" v="gardsbebyggelse" />
		<tag k="ssr:hovedgruppe" v="bebyggelse" />
		<tag k="ssr:stedsnr" v="427939" />
		<tag k="ssr:type" v="gard" />
	</node>
	<node id="-197166" lat="59.4336583346" lon="10.495825002">
		<tag k="alt_name" v="Møringa" />
		<tag k="name" v="Møringen" />
		<tag k="natural" v="cape" />
		<tag k="ssr:date" v="2016-05-10" />
		<tag k="ssr:gruppe" v="kystkontur" />
		<tag k="ssr:hovedgruppe" v="sjø" />
		<tag k="ssr:stedsnr" v="427932" />
		<tag k="ssr:type" v="nesISjø" />
	</node>
	<node id="-197165" lat="59.428444445" lon="10.4821416731">
		<tag k="building" v="industrial" />
		<tag k="industrial" v="factory" />
		<tag k="name" v="Horten verft" />
		<tag k="ssr:date" v="2016-05-10" />
		<tag k="ssr:gruppe" v="næring" />
		<tag k="ssr:hovedgruppe" v="bebyggelse" />
		<tag k="ssr:stedsnr" v="427926" />
		<tag k="ssr:type" v="fabrikk" />
	</node>
	<node id="-197164" lat="59.3632055551" lon="10.5135222206">
		<tag k="fixme" v="consider seamark:type=rock or natural=shoal" />
		<tag k="name" v="Rødskjær" />
		<tag k="place" v="islet" />
		<tag k="ssr:date" v="2016-05-10" />
		<tag k="ssr:gruppe" v="grunnerISjø" />
		<tag k="ssr:hovedgruppe" v="sjø" />
		<tag k="ssr:stedsnr" v="427586" />
		<tag k="ssr:type" v="skjærISjø" />
	</node>
	<node id="-197163" lat="59.365083332" lon="10.4024388837">
		<tag k="name" v="Adal" />
		<tag k="railway" v="station" />
		<tag k="ssr:date" v="2016-05-10" />
		<tag k="ssr:gruppe" v="bane" />
		<tag k="ssr:hovedgruppe" v="infrastruktur" />
		<tag k="ssr:stedsnr" v="427572" />
		<tag k="ssr:type" v="stasjon" />
		<tag k="train" v="yes" />
	</node>
	<node id="-197162" lat="59.3596000013" lon="10.4319305502">
		<tag k="name" v="Læret" />
		<tag k="place" v="farm" />
		<tag k="ssr:date" v="2016-05-10" />
		<tag k="ssr:gruppe" v="gardsbebyggelse" />
		<tag k="ssr:hovedgruppe" v="bebyggelse" />
		<tag k="ssr:stedsnr" v="427569" />
		<tag k="ssr:type" v="bruk" />
	</node>
	<node id="-197161" lat="59.368638886" lon="10.4308749977">
		<tag k="fixme" v="consider place=hamlet" />
		<tag k="name" v="Friberg" />
		<tag k="place" v="farm" />
		<tag k="ssr:date" v="2018-05-29" />
		<tag k="ssr:gruppe" v="gardsbebyggelse" />
		<tag k="ssr:hovedgruppe" v="bebyggelse" />
		<tag k="ssr:stedsnr" v="427563" />
		<tag k="ssr:type" v="gard" />
	</node>
	<node id="-197160" lat="59.3864166662" lon="10.4262944472">
		<tag k="fixme" v="consider place=hamlet" />
		<tag k="name" v="Vestre Sande" />
		<tag k="place" v="farm" />
		<tag k="ssr:date" v="2018-05-29" />
		<tag k="ssr:gruppe" v="gardsbebyggelse" />
		<tag k="ssr:hovedgruppe" v="bebyggelse" />
		<tag k="ssr:stedsnr" v="427536" />
		<tag k="ssr:type" v="gard" />
	</node>
	<node id="-197159" lat="59.3894722187" lon="10.4274777862">
		<tag k="alt_name" v="Sande nordre" />
		<tag k="fixme" v="consider place=hamlet" />
		<tag k="name" v="Sande bruk" />
		<tag k="place" v="farm" />
		<tag k="ssr:date" v="2018-05-29" />
		<tag k="ssr:gruppe" v="gardsbebyggelse" />
		<tag k="ssr:hovedgruppe" v="bebyggelse" />
		<tag k="ssr:stedsnr" v="427537" />
		<tag k="ssr:type" v="gard" />
	</node>
	<node id="-197158" lat="59.3993416633" lon="10.420549998">
		<tag k="alt_name" v="Solberg" />
		<tag k="fixme" v="consider place=hamlet" />
		<tag k="name" v="Mellom Solberg" />
		<tag k="place" v="farm" />
		<tag k="ssr:date" v="2018-05-29" />
		<tag k="ssr:gruppe" v="gardsbebyggelse" />
		<tag k="ssr:hovedgruppe" v="bebyggelse" />
		<tag k="ssr:stedsnr" v="427528" />
		<tag k="ssr:type" v="gard" />
	</node>
	<node id="-197157" lat="59.4081805517" lon="10.4599250019">
		<tag k="name" v="Holtan" />
		<tag k="place" v="farm" />
		<tag k="ssr:date" v="2016-05-10" />
		<tag k="ssr:gruppe" v="gardsbebyggelse" />
		<tag k="ssr:hovedgruppe" v="bebyggelse" />
		<tag k="ssr:stedsnr" v="427523" />
		<tag k="ssr:type" v="bruk" />
	</node>
	<node id="-197156" lat="59.4250416701" lon="10.4502361044">
		<tag k="name" v="Laskenlia" />
		<tag k="place" v="quarter" />
		<tag k="ssr:date" v="2016-05-10" />
		<tag k="ssr:gruppe" v="bebyggelsesområder" />
		<tag k="ssr:hovedgruppe" v="bebyggelse" />
		<tag k="ssr:stedsnr" v="419697" />
		<tag k="ssr:type" v="boligfelt" />
	</node>
	<node id="-197155" lat="59.373655556" lon="10.4188583248">
		<tag k="name" v="Adalsbekken" />
		<tag k="ssr:date" v="2016-05-10" />
		<tag k="ssr:gruppe" v="rennendeVann" />
		<tag k="ssr:hovedgruppe" v="ferskvann" />
		<tag k="ssr:stedsnr" v="267879" />
		<tag k="ssr:type" v="bekk" />
		<tag k="waterway" v="stream" />
	</node>
	<node id="-197154" lat="59.4368222252" lon="10.3984027824">
		<tag k="name" v="Solhøiden" />
		<tag k="natural" v="hill" />
		<tag k="place" v="locality" />
		<tag k="ssr:date" v="2016-05-10" />
		<tag k="ssr:gruppe" v="høyder" />
		<tag k="ssr:hovedgruppe" v="terreng" />
		<tag k="ssr:stedsnr" v="267858" />
		<tag k="ssr:type" v="høyde" />
	</node>
	<node id="-197153" lat="59.4374249997" lon="10.4245750048">
		<tag k="name" v="Gamlegård" />
		<tag k="place" v="locality" />
		<tag k="ssr:date" v="2016-05-10" />
		<tag k="ssr:gruppe" v="dyrkamark" />
		<tag k="ssr:hovedgruppe" v="markslag" />
		<tag k="ssr:stedsnr" v="267856" />
		<tag k="ssr:type" v="jorde" />
	</node>
	<node id="-197152" lat="59.4000305533" lon="10.4040777826">
		<tag k="name" v="Olsmyra" />
		<tag k="natural" v="wetland" />
		<tag k="ssr:date" v="2016-05-10" />
		<tag k="ssr:gruppe" v="våtmark" />
		<tag k="ssr:hovedgruppe" v="markslag" />
		<tag k="ssr:stedsnr" v="267829" />
		<tag k="ssr:type" v="myr" />
	</node>
	<node id="-197151" lat="59.3603111118" lon="10.4658055499">
		<tag k="name" v="Jutestrand" />
		<tag k="natural" v="beach" />
		<tag k="place" v="locality" />
		<tag k="ssr:date" v="2016-05-10" />
		<tag k="ssr:gruppe" v="kystkontur" />
		<tag k="ssr:hovedgruppe" v="sjø" />
		<tag k="ssr:stedsnr" v="267811" />
		<tag k="ssr:type" v="strandISjø" />
	</node>
	<node id="-197150" lat="59.4018305523" lon="10.4255111195">
		<tag k="alt_name" v="Solberg østre" />
		<tag k="name" v="Solberg" />
		<tag k="place" v="farm" />
		<tag k="ssr:date" v="2016-05-10" />
		<tag k="ssr:gruppe" v="gardsbebyggelse" />
		<tag k="ssr:hovedgruppe" v="bebyggelse" />
		<tag k="ssr:stedsnr" v="252620" />
		<tag k="ssr:type" v="bruk" />
	</node>
	<node id="-197149" lat="59.418461114" lon="10.3720638848">
		<tag k="fixme" v="consider place=hamlet" />
		<tag k="loc_name" v="Skoppumteigen" />
		<tag k="name" v="Teigen" />
		<tag k="place" v="farm" />
		<tag k="ssr:date" v="2018-05-31" />
		<tag k="ssr:gruppe" v="gardsbebyggelse" />
		<tag k="ssr:hovedgruppe" v="bebyggelse" />
		<tag k="ssr:stedsnr" v="245978" />
		<tag k="ssr:type" v="gard" />
	</node>
	<node id="-197148" lat="59.4460027782" lon="10.3824555633">
		<tag k="name" v="Frebergsvik" />
		<tag k="natural" v="bay" />
		<tag k="ssr:date" v="2016-05-10" />
		<tag k="ssr:gruppe" v="kystkontur" />
		<tag k="ssr:hovedgruppe" v="sjø" />
		<tag k="ssr:stedsnr" v="245944" />
		<tag k="ssr:type" v="vikISjø" />
	</node>
	<node id="-197147" lat="59.4433388899" lon="10.4908583384">
		<tag k="name" v="Vealøs" />
		<tag k="place" v="island" />
		<tag k="ssr:date" v="2016-05-10" />
		<tag k="ssr:gruppe" v="kystkontur" />
		<tag k="ssr:hovedgruppe" v="sjø" />
		<tag k="ssr:stedsnr" v="245940" />
		<tag k="ssr:type" v="øyISjø" />
	</node>
	<node id="-197146" lat="59.3660972206" lon="10.3871499957">
		<tag k="fixme" v="consider place=hamlet" />
		<tag k="name" v="Ødegården" />
		<tag k="place" v="farm" />
		<tag k="ssr:date" v="2018-05-31" />
		<tag k="ssr:gruppe" v="gardsbebyggelse" />
		<tag k="ssr:hovedgruppe" v="bebyggelse" />
		<tag k="ssr:stedsnr" v="245546" />
		<tag k="ssr:type" v="gard" />
	</node>
	<node id="-197144" lat="59.3703361152" lon="10.4430722256">
		<tag k="name" v="Fagerlund" />
		<tag k="place" v="farm" />
		<tag k="ssr:date" v="2016-05-10" />
		<tag k="ssr:gruppe" v="gardsbebyggelse" />
		<tag k="ssr:hovedgruppe" v="bebyggelse" />
		<tag k="ssr:stedsnr" v="245536" />
		<tag k="ssr:type" v="bruk" />
	</node>
	<node id="-197143" lat="59.3732416656" lon="10.4285749954">
		<tag k="name" v="Kimestad" />
		<tag k="place" v="farm" />
		<tag k="ssr:date" v="2016-05-10" />
		<tag k="ssr:gruppe" v="gardsbebyggelse" />
		<tag k="ssr:hovedgruppe" v="bebyggelse" />
		<tag k="ssr:stedsnr" v="245534" />
		<tag k="ssr:type" v="bruk" />
	</node>
	<node id="-197142" lat="59.3888638916" lon="10.3853138876">
		<tag k="name" v="Kongelv" />
		<tag k="place" v="farm" />
		<tag k="ssr:date" v="2016-05-10" />
		<tag k="ssr:gruppe" v="gardsbebyggelse" />
		<tag k="ssr:hovedgruppe" v="bebyggelse" />
		<tag k="ssr:stedsnr" v="245511" />
		<tag k="ssr:type" v="bruk" />
	</node>
	<node id="-197141" lat="59.402841461" lon="10.5035228172">
		<tag k="alt_name" v="Langgrunnen" />
		<tag k="name" v="Langgrunna" />
		<tag k="natural" v="shoal" />
		<tag k="place" v="locality" />
		<tag k="ssr:date" v="2018-08-21" />
		<tag k="ssr:gruppe" v="grunnerISjø" />
		<tag k="ssr:hovedgruppe" v="sjø" />
		<tag k="ssr:stedsnr" v="245494" />
		<tag k="ssr:type" v="grunneISjø" />
	</node>
	<node id="-197140" lat="59.4037250023" lon="10.4048388957">
		<tag k="alt_name" v="Solberg vestre" />
		<tag k="name" v="Solberg" />
		<tag k="place" v="farm" />
		<tag k="ssr:date" v="2016-05-10" />
		<tag k="ssr:gruppe" v="gardsbebyggelse" />
		<tag k="ssr:hovedgruppe" v="bebyggelse" />
		<tag k="ssr:stedsnr" v="245487" />
		<tag k="ssr:type" v="bruk" />
	</node>
	<node id="-197139" lat="59.3485194403" lon="10.4559388909">
		<tag k="name" v="Øderydningen" />
		<tag k="place" v="quarter" />
		<tag k="ssr:date" v="2016-05-10" />
		<tag k="ssr:gruppe" v="bebyggelsesområder" />
		<tag k="ssr:hovedgruppe" v="bebyggelse" />
		<tag k="ssr:stedsnr" v="237708" />
		<tag k="ssr:type" v="boligfelt" />
	</node>
	<node id="-197138" lat="59.3839638895" lon="10.416555558">
		<tag k="bridge" v="yes" />
		<tag k="layer" v="1" />
		<tag k="name" v="Tokerud" />
		<tag k="ssr:date" v="2016-05-10" />
		<tag k="ssr:gruppe" v="samferdselsanlegg" />
		<tag k="ssr:hovedgruppe" v="infrastruktur" />
		<tag k="ssr:stedsnr" v="228683" />
		<tag k="ssr:type" v="bru" />
	</node>
	<node id="-197136" lat="59.3779796053" lon="10.4702854387">
		<tag k="landuse" v="harbour" />
		<tag k="name" v="Steinbrygga" />
		<tag k="seamark:type" v="harbour" />
		<tag k="ssr:date" v="2018-03-13" />
		<tag k="ssr:gruppe" v="sjøfart" />
		<tag k="ssr:hovedgruppe" v="infrastruktur" />
		<tag k="ssr:stedsnr" v="210812" />
		<tag k="ssr:type" v="havn" />
	</node>
	<node id="-197135" lat="59.3541722206" lon="10.4961972298">
		<tag k="name" v="Banken" />
		<tag k="natural" v="shoal" />
		<tag k="place" v="locality" />
		<tag k="ssr:date" v="2016-05-10" />
		<tag k="ssr:gruppe" v="grunnerISjø" />
		<tag k="ssr:hovedgruppe" v="sjø" />
		<tag k="ssr:stedsnr" v="210809" />
		<tag k="ssr:type" v="grunneISjø" />
	</node>
	<node id="-197134" lat="59.3538999999" lon="10.3899999961">
		<tag k="fixme" v="consider natural=peak for the most distinct mountains in the district" />
		<tag k="name" v="Tangsrødåsen" />
		<tag k="natural" v="hill" />
		<tag k="place" v="locality" />
		<tag k="ssr:date" v="2016-05-10" />
		<tag k="ssr:gruppe" v="høyder" />
		<tag k="ssr:hovedgruppe" v="terreng" />
		<tag k="ssr:stedsnr" v="210403" />
		<tag k="ssr:type" v="ås" />
	</node>
	<node id="-197133" lat="59.4461499964" lon="10.4089805475">
		<tag k="name" v="Rødskjærbukta" />
		<tag k="natural" v="bay" />
		<tag k="ssr:date" v="2016-05-10" />
		<tag k="ssr:gruppe" v="kystkontur" />
		<tag k="ssr:hovedgruppe" v="sjø" />
		<tag k="ssr:stedsnr" v="210349" />
		<tag k="ssr:type" v="vikISjø" />
	</node>
	<node id="-197132" lat="59.4352249999" lon="10.4610027764">
		<tag k="alt_name" v="Bueskjæret" />
		<tag k="fixme" v="consider seamark:type=rock or natural=shoal" />
		<tag k="name" v="Kruttskjær" />
		<tag k="place" v="islet" />
		<tag k="ssr:date" v="2016-05-10" />
		<tag k="ssr:gruppe" v="grunnerISjø" />
		<tag k="ssr:hovedgruppe" v="sjø" />
		<tag k="ssr:stedsnr" v="210133" />
		<tag k="ssr:type" v="skjærISjø" />
	</node>
	<node id="-197131" lat="59.4017305542" lon="10.485358337">
		<tag k="landuse" v="harbour" />
		<tag k="name" v="Steinsnes" />
		<tag k="seamark:type" v="harbour" />
		<tag k="ssr:date" v="2016-05-10" />
		<tag k="ssr:gruppe" v="sjøfart" />
		<tag k="ssr:hovedgruppe" v="infrastruktur" />
		<tag k="ssr:stedsnr" v="210128" />
		<tag k="ssr:type" v="havn" />
	</node>
	<node id="-197130" lat="59.4400416702" lon="10.3506638944">
		<tag k="name" v="Tangen" />
		<tag k="place" v="farm" />
		<tag k="ssr:date" v="2016-05-10" />
		<tag k="ssr:gruppe" v="gardsbebyggelse" />
		<tag k="ssr:hovedgruppe" v="bebyggelse" />
		<tag k="ssr:stedsnr" v="209830" />
		<tag k="ssr:type" v="bruk" />
	</node>
	<node id="-197129" lat="59.378702776" lon="10.5274944485">
		<tag k="name" v="Foldin" />
		<tag k="place" v="isolated_dwelling" />
		<tag k="ssr:date" v="2016-05-10" />
		<tag k="ssr:gruppe" v="bolighus" />
		<tag k="ssr:hovedgruppe" v="bebyggelse" />
		<tag k="ssr:stedsnr" v="209190" />
		<tag k="ssr:type" v="eneboligMindreBoligbygg" />
	</node>
	<node id="-197128" lat="59.380916669" lon="10.526694446">
		<tag k="amenity" v="community_centre" />
		<tag k="name" v="Foldin skolehjem" />
		<tag k="ssr:date" v="2016-05-10" />
		<tag k="ssr:gruppe" v="kulturinstitusjoner" />
		<tag k="ssr:hovedgruppe" v="kultur" />
		<tag k="ssr:stedsnr" v="209179" />
		<tag k="ssr:type" v="forsamlingshusKulturhus" />
	</node>
	<node id="-197127" lat="59.3949472181" lon="10.4151583392">
		<tag k="name" v="Rygland søndre" />
		<tag k="place" v="farm" />
		<tag k="ssr:date" v="2016-05-10" />
		<tag k="ssr:gruppe" v="gardsbebyggelse" />
		<tag k="ssr:hovedgruppe" v="bebyggelse" />
		<tag k="ssr:stedsnr" v="207834" />
		<tag k="ssr:type" v="bruk" />
	</node>
	<node id="-197126" lat="59.3871250003" lon="10.4168444489">
		<tag k="name" v="Skoppum" />
		<tag k="place" v="farm" />
		<tag k="ssr:date" v="2016-05-10" />
		<tag k="ssr:gruppe" v="gardsbebyggelse" />
		<tag k="ssr:hovedgruppe" v="bebyggelse" />
		<tag k="ssr:stedsnr" v="207832" />
		<tag k="ssr:type" v="bruk" />
	</node>
	<node id="-197125" lat="59.3843305524" lon="10.4042694382">
		<tag k="name" v="Reir" />
		<tag k="place" v="farm" />
		<tag k="ssr:date" v="2016-05-10" />
		<tag k="ssr:gruppe" v="gardsbebyggelse" />
		<tag k="ssr:hovedgruppe" v="bebyggelse" />
		<tag k="ssr:stedsnr" v="207830" />
		<tag k="ssr:type" v="bruk" />
	</node>
	<node id="-197124" lat="59.3850500044" lon="10.4064444388">
		<tag k="name" v="Reir" />
		<tag k="place" v="locality" />
		<tag k="ssr:date" v="2018-05-30" />
		<tag k="ssr:gruppe" v="gardsbebyggelse" />
		<tag k="ssr:hovedgruppe" v="bebyggelse" />
		<tag k="ssr:stedsnr" v="207829" />
		<tag k="ssr:type" v="eiendom" />
	</node>
	<node id="-197123" lat="59.4147222234" lon="10.3671361049">
		<tag k="fixme" v="consider place=hamlet" />
		<tag k="name" v="Moskvil" />
		<tag k="place" v="farm" />
		<tag k="ssr:date" v="2018-05-31" />
		<tag k="ssr:gruppe" v="gardsbebyggelse" />
		<tag k="ssr:hovedgruppe" v="bebyggelse" />
		<tag k="ssr:stedsnr" v="184974" />
		<tag k="ssr:type" v="gard" />
	</node>
	<node id="-197122" lat="59.4467888865" lon="10.3999416587">
		<tag k="fixme" v="consider natural=peak for the most distinct mountains in the district" />
		<tag k="name" v="Slettefjell" />
		<tag k="natural" v="hill" />
		<tag k="place" v="locality" />
		<tag k="ssr:date" v="2016-05-10" />
		<tag k="ssr:gruppe" v="høyder" />
		<tag k="ssr:hovedgruppe" v="terreng" />
		<tag k="ssr:stedsnr" v="184941" />
		<tag k="ssr:type" v="ås" />
	</node>
	<node id="-197121" lat="59.4379694468" lon="10.4426249916">
		<tag k="name" v="Skavli" />
		<tag k="place" v="quarter" />
		<tag k="ssr:date" v="2016-05-10" />
		<tag k="ssr:gruppe" v="bebyggelsesområder" />
		<tag k="ssr:hovedgruppe" v="bebyggelse" />
		<tag k="ssr:stedsnr" v="184923" />
		<tag k="ssr:type" v="boligfelt" />
	</node>
	<node id="-197120" lat="59.3917111074" lon="10.465183334">
		<tag k="fixme" v="consider place=hamlet" />
		<tag k="name" v="Eik" />
		<tag k="place" v="farm" />
		<tag k="ssr:date" v="2018-05-29" />
		<tag k="ssr:gruppe" v="gardsbebyggelse" />
		<tag k="ssr:hovedgruppe" v="bebyggelse" />
		<tag k="ssr:stedsnr" v="184537" />
		<tag k="ssr:type" v="gard" />
	</node>
	<node id="-197119" lat="59.3925555515" lon="10.4094194514">
		<tag k="name" v="Jahrelunden" />
		<tag k="place" v="farm" />
		<tag k="ssr:date" v="2016-05-10" />
		<tag k="ssr:gruppe" v="gardsbebyggelse" />
		<tag k="ssr:hovedgruppe" v="bebyggelse" />
		<tag k="ssr:stedsnr" v="184533" />
		<tag k="ssr:type" v="bruk" />
	</node>
	<node id="-197118" lat="59.409069443" lon="10.4424527851">
		<tag k="fixme" v="consider place=hamlet" />
		<tag k="name" v="Eskebekk" />
		<tag k="place" v="farm" />
		<tag k="ssr:date" v="2018-05-29" />
		<tag k="ssr:gruppe" v="gardsbebyggelse" />
		<tag k="ssr:hovedgruppe" v="bebyggelse" />
		<tag k="ssr:stedsnr" v="184508" />
		<tag k="ssr:type" v="gard" />
	</node>
	<node id="-197117" lat="59.3493833317" lon="10.4694833303">
		<tag k="name" v="Åsgårdstrand" />
		<tag k="place" v="town" />
		<tag k="ssr:date" v="2016-05-10" />
		<tag k="ssr:gruppe" v="bebyggelsesområder" />
		<tag k="ssr:hovedgruppe" v="bebyggelse" />
		<tag k="ssr:stedsnr" v="184593" />
		<tag k="ssr:type" v="by" />
	</node>
	<node id="-197116" lat="59.3525083337" lon="10.4536777789">
		<tag k="alt_name" v="Åsgarden" />
		<tag k="name" v="Åsgården" />
		<tag k="place" v="farm" />
		<tag k="ssr:date" v="2018-05-29" />
		<tag k="ssr:gruppe" v="gardsbebyggelse" />
		<tag k="ssr:hovedgruppe" v="bebyggelse" />
		<tag k="ssr:stedsnr" v="184580" />
		<tag k="ssr:type" v="bruk" />
	</node>
	<node id="-197115" lat="59.3713111096" lon="10.5314472173">
		<tag k="name" v="Bastøy" />
		<tag k="place" v="island" />
		<tag k="ssr:date" v="2016-05-10" />
		<tag k="ssr:gruppe" v="kystkontur" />
		<tag k="ssr:hovedgruppe" v="sjø" />
		<tag k="ssr:stedsnr" v="184574" />
		<tag k="ssr:type" v="øyISjø" />
	</node>
	<node id="-197113" lat="59.3790055566" lon="10.460591674">
		<tag k="name" v="Hallingstad" />
		<tag k="place" v="quarter" />
		<tag k="ssr:date" v="2016-05-10" />
		<tag k="ssr:gruppe" v="bebyggelsesområder" />
		<tag k="ssr:hovedgruppe" v="bebyggelse" />
		<tag k="ssr:stedsnr" v="180671" />
		<tag k="ssr:type" v="boligfelt" />
	</node>
	<node id="-197112" lat="59.4135388872" lon="10.4876805555">
		<tag k="man_made" v="quay" />
		<tag k="name" v="Hydrofoilbrygga" />
		<tag k="place" v="locality" />
		<tag k="ssr:date" v="2016-05-10" />
		<tag k="ssr:gruppe" v="sjøfart" />
		<tag k="ssr:hovedgruppe" v="infrastruktur" />
		<tag k="ssr:stedsnr" v="162662" />
		<tag k="ssr:type" v="brygge" />
	</node>
	<node id="-197111" lat="59.4461166707" lon="10.4121249966">
		<tag k="alt_name" v="Selskjær" />
		<tag k="fixme" v="consider seamark:type=rock or natural=shoal" />
		<tag k="name" v="Selskjæra" />
		<tag k="place" v="islet" />
		<tag k="ssr:date" v="2016-05-10" />
		<tag k="ssr:gruppe" v="grunnerISjø" />
		<tag k="ssr:hovedgruppe" v="sjø" />
		<tag k="ssr:stedsnr" v="149800" />
		<tag k="ssr:type" v="skjærISjø" />
	</node>
	<node id="-197110" lat="59.3514361153" lon="10.4869055534">
		<tag k="name" v="Kallegrunnen" />
		<tag k="natural" v="shoal" />
		<tag k="place" v="locality" />
		<tag k="ssr:date" v="2016-05-10" />
		<tag k="ssr:gruppe" v="grunnerISjø" />
		<tag k="ssr:hovedgruppe" v="sjø" />
		<tag k="ssr:stedsnr" v="149798" />
		<tag k="ssr:type" v="grunneISjø" />
	</node>
	<node id="-197109" lat="59.3983027805" lon="10.5085305589">
		<tag k="name" v="Geiteryggen" />
		<tag k="place" v="locality" />
		<tag k="ssr:date" v="2016-05-10" />
		<tag k="ssr:gruppe" v="sjøbunn" />
		<tag k="ssr:hovedgruppe" v="sjø" />
		<tag k="ssr:stedsnr" v="149796" />
		<tag k="ssr:type" v="ryggISjø" />
	</node>
	<node id="-197108" lat="59.3697583337" lon="10.5181416663">
		<tag k="name" v="Sandrevet" />
		<tag k="place" v="locality" />
		<tag k="ssr:date" v="2016-05-10" />
		<tag k="ssr:gruppe" v="sjøbunn" />
		<tag k="ssr:hovedgruppe" v="sjø" />
		<tag k="ssr:stedsnr" v="149098" />
		<tag k="ssr:type" v="bankeISjø" />
	</node>
	<node id="-197107" lat="59.4047444408" lon="10.5109194521">
		<tag k="name" v="Holmekrakken" />
		<tag k="natural" v="shoal" />
		<tag k="place" v="locality" />
		<tag k="ssr:date" v="2016-05-10" />
		<tag k="ssr:gruppe" v="grunnerISjø" />
		<tag k="ssr:hovedgruppe" v="sjø" />
		<tag k="ssr:stedsnr" v="149092" />
		<tag k="ssr:type" v="grunneISjø" />
	</node>
	<node id="-197106" lat="59.4317833333" lon="10.5105277762">
		<tag k="name" v="Møringgrunnen" />
		<tag k="natural" v="shoal" />
		<tag k="place" v="locality" />
		<tag k="ssr:date" v="2016-05-10" />
		<tag k="ssr:gruppe" v="grunnerISjø" />
		<tag k="ssr:hovedgruppe" v="sjø" />
		<tag k="ssr:stedsnr" v="149091" />
		<tag k="ssr:type" v="grunneISjø" />
	</node>
	<node id="-197105" lat="59.4383083375" lon="10.3891500048">
		<tag k="name" v="Frebergsvik" />
		<tag k="natural" v="beach" />
		<tag k="place" v="locality" />
		<tag k="ssr:date" v="2016-05-10" />
		<tag k="ssr:gruppe" v="kystkontur" />
		<tag k="ssr:hovedgruppe" v="sjø" />
		<tag k="ssr:stedsnr" v="146843" />
		<tag k="ssr:type" v="strandISjø" />
	</node>
	<node id="-197104" lat="59.3892583348" lon="10.4786027768">
		<tag k="name" v="Voldestranda" />
		<tag k="natural" v="beach" />
		<tag k="place" v="locality" />
		<tag k="ssr:date" v="2016-05-10" />
		<tag k="ssr:gruppe" v="kystkontur" />
		<tag k="ssr:hovedgruppe" v="sjø" />
		<tag k="ssr:stedsnr" v="146827" />
		<tag k="ssr:type" v="strandISjø" />
	</node>
	<node id="-197103" lat="59.3837138886" lon="10.4097944526">
		<tag k="name" v="Tokerød" />
		<tag k="place" v="quarter" />
		<tag k="ssr:date" v="2016-05-10" />
		<tag k="ssr:gruppe" v="bebyggelsesområder" />
		<tag k="ssr:hovedgruppe" v="bebyggelse" />
		<tag k="ssr:stedsnr" v="146811" />
		<tag k="ssr:type" v="boligfelt" />
	</node>
	<node id="-197102" lat="59.4007388859" lon="10.4827722245">
		<tag k="name" v="Steinsnes" />
		<tag k="natural" v="cape" />
		<tag k="ssr:date" v="2016-05-10" />
		<tag k="ssr:gruppe" v="kystkontur" />
		<tag k="ssr:hovedgruppe" v="sjø" />
		<tag k="ssr:stedsnr" v="146809" />
		<tag k="ssr:type" v="nesISjø" />
	</node>
	<node id="-197101" lat="59.3711083344" lon="10.4558805624">
		<tag k="name" v="Mastebakke" />
		<tag k="natural" v="slope" />
		<tag k="place" v="locality" />
		<tag k="ssr:date" v="2016-05-10" />
		<tag k="ssr:gruppe" v="skråninger" />
		<tag k="ssr:hovedgruppe" v="terreng" />
		<tag k="ssr:stedsnr" v="146788" />
		<tag k="ssr:type" v="bakke" />
	</node>
	<node id="-197100" lat="59.3509472199" lon="10.4582805486">
		<tag k="fixme" v="consider place=hamlet" />
		<tag k="name" v="Nygård" />
		<tag k="place" v="farm" />
		<tag k="ssr:date" v="2018-05-29" />
		<tag k="ssr:gruppe" v="gardsbebyggelse" />
		<tag k="ssr:hovedgruppe" v="bebyggelse" />
		<tag k="ssr:stedsnr" v="146786" />
		<tag k="ssr:type" v="gard" />
	</node>
	<node id="-197099" lat="59.3471472195" lon="10.4480250065">
		<tag k="leisure" v="pitch" />
		<tag k="name" v="Mellombanen" />
		<tag k="ssr:date" v="2016-05-10" />
		<tag k="ssr:gruppe" v="fritidsanlegg" />
		<tag k="ssr:hovedgruppe" v="bebyggelse" />
		<tag k="ssr:stedsnr" v="146783" />
		<tag k="ssr:type" v="idrettsanlegg" />
	</node>
	<node id="-197098" lat="59.3746361125" lon="10.3977666705">
		<tag k="name" v="Adalsborgen" />
		<tag k="place" v="locality" />
		<tag k="ssr:date" v="2016-05-10" />
		<tag k="ssr:gruppe" v="kulturminner" />
		<tag k="ssr:hovedgruppe" v="kultur" />
		<tag k="ssr:stedsnr" v="142058" />
		<tag k="ssr:type" v="annenKulturdetalj" />
	</node>
	<node id="-197097" lat="59.3920194406" lon="10.4313916608">
		<tag k="alt_name" v="Kjær, nordre" />
		<tag k="fixme" v="consider place=hamlet" />
		<tag k="name" v="Nordre Kjær" />
		<tag k="place" v="farm" />
		<tag k="ssr:date" v="2018-05-29" />
		<tag k="ssr:gruppe" v="gardsbebyggelse" />
		<tag k="ssr:hovedgruppe" v="bebyggelse" />
		<tag k="ssr:stedsnr" v="124479" />
		<tag k="ssr:type" v="gard" />
	</node>
	<node id="-197096" lat="59.3873194483" lon="10.3962416684">
		<tag k="name" v="Løvås" />
		<tag k="place" v="farm" />
		<tag k="ssr:date" v="2016-05-10" />
		<tag k="ssr:gruppe" v="gardsbebyggelse" />
		<tag k="ssr:hovedgruppe" v="bebyggelse" />
		<tag k="ssr:stedsnr" v="124474" />
		<tag k="ssr:type" v="bruk" />
	</node>
	<node id="-197095" lat="59.3928166643" lon="10.3860055606">
		<tag k="alt_name" v="Gusland søndre" />
		<tag k="fixme" v="consider place=hamlet" />
		<tag k="name" v="Gusland" />
		<tag k="place" v="farm" />
		<tag k="ssr:date" v="2018-05-31" />
		<tag k="ssr:gruppe" v="gardsbebyggelse" />
		<tag k="ssr:hovedgruppe" v="bebyggelse" />
		<tag k="ssr:stedsnr" v="124473" />
		<tag k="ssr:type" v="gard" />
	</node>
	<node id="-197094" lat="59.3881249987" lon="10.4172416606">
		<tag k="fixme" v="consider place=hamlet" />
		<tag k="name" v="Skoppum" />
		<tag k="place" v="farm" />
		<tag k="ssr:date" v="2018-05-29" />
		<tag k="ssr:gruppe" v="gardsbebyggelse" />
		<tag k="ssr:hovedgruppe" v="bebyggelse" />
		<tag k="ssr:stedsnr" v="124469" />
		<tag k="ssr:type" v="gard" />
	</node>
	<node id="-197093" lat="59.4172277781" lon="10.4010472217">
		<tag k="fixme" v="consider place=hamlet" />
		<tag k="name" v="Skreppedal" />
		<tag k="place" v="farm" />
		<tag k="ssr:date" v="2018-05-31" />
		<tag k="ssr:gruppe" v="gardsbebyggelse" />
		<tag k="ssr:hovedgruppe" v="bebyggelse" />
		<tag k="ssr:stedsnr" v="123981" />
		<tag k="ssr:type" v="gard" />
	</node>
	<node id="-197092" lat="59.4196138908" lon="10.4873472194">
		<tag k="alt_name" v="Lystlunden" />
		<tag k="leisure" v="pitch" />
		<tag k="name" v="Lystlunden idrettsplass" />
		<tag k="ssr:date" v="2016-05-10" />
		<tag k="ssr:gruppe" v="fritidsanlegg" />
		<tag k="ssr:hovedgruppe" v="bebyggelse" />
		<tag k="ssr:stedsnr" v="123975" />
		<tag k="ssr:type" v="idrettsanlegg" />
	</node>
	<node id="-197091" lat="59.4435444482" lon="10.4263527822">
		<tag k="name" v="Falkenstenbukta" />
		<tag k="natural" v="bay" />
		<tag k="ssr:date" v="2016-05-10" />
		<tag k="ssr:gruppe" v="kystkontur" />
		<tag k="ssr:hovedgruppe" v="sjø" />
		<tag k="ssr:stedsnr" v="123955" />
		<tag k="ssr:type" v="vikISjø" />
	</node>
	<node id="-197090" lat="59.4342333329" lon="10.402402775">
		<tag k="fixme" v="consider place=hamlet" />
		<tag k="name" v="Åsen" />
		<tag k="place" v="farm" />
		<tag k="ssr:date" v="2018-06-01" />
		<tag k="ssr:gruppe" v="gardsbebyggelse" />
		<tag k="ssr:hovedgruppe" v="bebyggelse" />
		<tag k="ssr:stedsnr" v="123954" />
		<tag k="ssr:type" v="gard" />
	</node>
	<node id="-197089" lat="59.4338472199" lon="10.4181194453">
		<tag k="alt_name" v="Vegge;Vegge søndre" />
		<tag k="fixme" v="consider place=hamlet" />
		<tag k="name" v="Søndre Vegge" />
		<tag k="place" v="farm" />
		<tag k="ssr:date" v="2018-06-01" />
		<tag k="ssr:gruppe" v="gardsbebyggelse" />
		<tag k="ssr:hovedgruppe" v="bebyggelse" />
		<tag k="ssr:stedsnr" v="123953" />
		<tag k="ssr:type" v="gard" />
	</node>
	<node id="-197088" lat="59.4004777797" lon="10.4318500033">
		<tag k="name" v="Ødegården" />
		<tag k="place" v="farm" />
		<tag k="ssr:date" v="2016-05-10" />
		<tag k="ssr:gruppe" v="gardsbebyggelse" />
		<tag k="ssr:hovedgruppe" v="bebyggelse" />
		<tag k="ssr:stedsnr" v="123559" />
		<tag k="ssr:type" v="bruk" />
	</node>
	<node id="-197087" lat="59.4110944486" lon="10.3349583338">
		<tag k="alt_name" v="Bruserødteigen" />
		<tag k="fixme" v="consider place=hamlet" />
		<tag k="name" v="Teigen" />
		<tag k="place" v="farm" />
		<tag k="ssr:date" v="2018-06-01" />
		<tag k="ssr:gruppe" v="gardsbebyggelse" />
		<tag k="ssr:hovedgruppe" v="bebyggelse" />
		<tag k="ssr:stedsnr" v="123161" />
		<tag k="ssr:type" v="gard" />
	</node>
	<node id="-197085" lat="59.3818888876" lon="10.4564555471">
		<tag k="name" v="Borre" />
		<tag k="place" v="village" />
		<tag k="ssr:date" v="2016-05-10" />
		<tag k="ssr:gruppe" v="bebyggelsesområder" />
		<tag k="ssr:hovedgruppe" v="bebyggelse" />
		<tag k="ssr:stedsnr" v="101283" />
		<tag k="ssr:type" v="tettsted" />
	</node>
	<node id="-197084" lat="59.433588887" lon="10.377627774">
		<tag k="name" v="Tveitan" />
		<tag k="place" v="farm" />
		<tag k="ssr:date" v="2016-05-10" />
		<tag k="ssr:gruppe" v="gardsbebyggelse" />
		<tag k="ssr:hovedgruppe" v="bebyggelse" />
		<tag k="ssr:stedsnr" v="95563" />
		<tag k="ssr:type" v="bruk" />
	</node>
	<node id="-197083" lat="59.3578749967" lon="10.4135388833">
		<tag k="fixme" v="consider place=hamlet" />
		<tag k="name" v="Adal søndre" />
		<tag k="place" v="farm" />
		<tag k="ssr:date" v="2018-05-31" />
		<tag k="ssr:gruppe" v="gardsbebyggelse" />
		<tag k="ssr:hovedgruppe" v="bebyggelse" />
		<tag k="ssr:stedsnr" v="89415" />
		<tag k="ssr:type" v="gard" />
	</node>
	<node id="-197082" lat="59.3752333376" lon="10.4116583306">
		<tag k="name" v="Pjonkerød nordre" />
		<tag k="place" v="farm" />
		<tag k="ssr:date" v="2016-05-10" />
		<tag k="ssr:gruppe" v="gardsbebyggelse" />
		<tag k="ssr:hovedgruppe" v="bebyggelse" />
		<tag k="ssr:stedsnr" v="89406" />
		<tag k="ssr:type" v="bruk" />
	</node>
	<node id="-197081" lat="59.3780805525" lon="10.4035555625">
		<tag k="name" v="Viulsrød" />
		<tag k="place" v="farm" />
		<tag k="ssr:date" v="2016-05-10" />
		<tag k="ssr:gruppe" v="gardsbebyggelse" />
		<tag k="ssr:hovedgruppe" v="bebyggelse" />
		<tag k="ssr:stedsnr" v="89405" />
		<tag k="ssr:type" v="bruk" />
	</node>
	<node id="-197080" lat="59.4370265309" lon="10.3694857257">
		<tag k="fixme" v="consider place=hamlet" />
		<tag k="name" v="Freberg søndre" />
		<tag k="place" v="farm" />
		<tag k="ssr:date" v="2018-06-01" />
		<tag k="ssr:gruppe" v="gardsbebyggelse" />
		<tag k="ssr:hovedgruppe" v="bebyggelse" />
		<tag k="ssr:stedsnr" v="88816" />
		<tag k="ssr:type" v="gard" />
	</node>
	<node id="-197079" lat="59.4114444415" lon="10.358494437">
		<tag k="fixme" v="consider place=hamlet" />
		<tag k="name" v="Kjærran nedre" />
		<tag k="place" v="farm" />
		<tag k="ssr:date" v="2018-06-01" />
		<tag k="ssr:gruppe" v="gardsbebyggelse" />
		<tag k="ssr:hovedgruppe" v="bebyggelse" />
		<tag k="ssr:stedsnr" v="88804" />
		<tag k="ssr:type" v="gard" />
	</node>
	<node id="-197078" lat="59.3763194425" lon="10.3784444425">
		<tag k="name" v="Steinbjørnrød" />
		<tag k="place" v="farm" />
		<tag k="ssr:date" v="2016-05-10" />
		<tag k="ssr:gruppe" v="gardsbebyggelse" />
		<tag k="ssr:hovedgruppe" v="bebyggelse" />
		<tag k="ssr:stedsnr" v="88697" />
		<tag k="ssr:type" v="bruk" />
	</node>
	<node id="-197077" lat="59.4387111153" lon="10.4390222198">
		<tag k="name" v="Møllestua" />
		<tag k="place" v="isolated_dwelling" />
		<tag k="ssr:date" v="2016-05-10" />
		<tag k="ssr:gruppe" v="bolighus" />
		<tag k="ssr:hovedgruppe" v="bebyggelse" />
		<tag k="ssr:stedsnr" v="87862" />
		<tag k="ssr:type" v="fritidsbolig" />
	</node>
	<node id="-197076" lat="59.4218944481" lon="10.4931916642">
		<tag k="name" v="Hortensskogen" />
		<tag k="place" v="locality" />
		<tag k="ssr:date" v="2016-05-10" />
		<tag k="ssr:gruppe" v="vegetasjon" />
		<tag k="ssr:hovedgruppe" v="markslag" />
		<tag k="ssr:stedsnr" v="87169" />
		<tag k="ssr:type" v="skog" />
	</node>
	<node id="-197075" lat="59.3840361127" lon="10.5031361083">
		<tag k="name" v="Fjonberget" />
		<tag k="place" v="locality" />
		<tag k="ssr:date" v="2016-05-10" />
		<tag k="ssr:gruppe" v="flater" />
		<tag k="ssr:hovedgruppe" v="terreng" />
		<tag k="ssr:stedsnr" v="87165" />
		<tag k="ssr:type" v="slette" />
	</node>
	<node id="-197074" lat="59.3845861126" lon="10.4438222218">
		<tag k="name" v="Vassmarka" />
		<tag k="place" v="locality" />
		<tag k="ssr:date" v="2016-05-10" />
		<tag k="ssr:gruppe" v="dyrkamark" />
		<tag k="ssr:hovedgruppe" v="markslag" />
		<tag k="ssr:stedsnr" v="86845" />
		<tag k="ssr:type" v="utmark" />
	</node>
	<node id="-197073" lat="59.4543000027" lon="10.4435194425">
		<tag k="name" v="Steingaren" />
		<tag k="place" v="locality" />
		<tag k="ssr:date" v="2016-05-10" />
		<tag k="ssr:gruppe" v="farvann" />
		<tag k="ssr:hovedgruppe" v="sjø" />
		<tag k="ssr:stedsnr" v="86840" />
		<tag k="ssr:type" v="sjøstykke" />
	</node>
	<node id="-197072" lat="59.4069250011" lon="10.4790694517">
		<tag k="name" v="Kjeldsbergs plass" />
		<tag k="place" v="locality" />
		<tag k="ssr:date" v="2016-05-10" />
		<tag k="ssr:gruppe" v="flater" />
		<tag k="ssr:hovedgruppe" v="terreng" />
		<tag k="ssr:stedsnr" v="86825" />
		<tag k="ssr:type" v="slette" />
	</node>
	<node id="-197071" lat="59.3684166646" lon="10.4517861096">
		<tag k="name" v="Snippen" />
		<tag k="place" v="locality" />
		<tag k="ssr:date" v="2016-05-10" />
		<tag k="ssr:gruppe" v="vegetasjon" />
		<tag k="ssr:hovedgruppe" v="markslag" />
		<tag k="ssr:stedsnr" v="86819" />
		<tag k="ssr:type" v="skog" />
	</node>
	<node id="-197070" lat="59.3536722186" lon="10.437558328">
		<tag k="amenity" v="school" />
		<tag k="name" v="Ra skole" />
		<tag k="ssr:date" v="2016-05-10" />
		<tag k="ssr:gruppe" v="institusjoner" />
		<tag k="ssr:hovedgruppe" v="bebyggelse" />
		<tag k="ssr:stedsnr" v="86811" />
		<tag k="ssr:type" v="skole" />
	</node>
	<node id="-197069" lat="59.421958337" lon="10.5135833324">
		<tag k="name" v="Hortenskrakken" />
		<tag k="natural" v="shoal" />
		<tag k="place" v="locality" />
		<tag k="ssr:date" v="2016-05-10" />
		<tag k="ssr:gruppe" v="grunnerISjø" />
		<tag k="ssr:hovedgruppe" v="sjø" />
		<tag k="ssr:stedsnr" v="63991" />
		<tag k="ssr:type" v="grunneISjø" />
	</node>
	<node id="-197068" lat="59.4085861136" lon="10.346816673">
		<tag k="fixme" v="consider natural=peak for the most distinct mountains in the district" />
		<tag k="name" v="Kjærranåsen" />
		<tag k="natural" v="hill" />
		<tag k="place" v="locality" />
		<tag k="ssr:date" v="2016-05-10" />
		<tag k="ssr:gruppe" v="høyder" />
		<tag k="ssr:hovedgruppe" v="terreng" />
		<tag k="ssr:stedsnr" v="63972" />
		<tag k="ssr:type" v="ås" />
	</node>
	<node id="-197067" lat="59.4469555576" lon="10.4373111035">
		<tag k="name" v="Drasund" />
		<tag k="natural" v="strait" />
		<tag k="ssr:date" v="2016-05-10" />
		<tag k="ssr:gruppe" v="kystkontur" />
		<tag k="ssr:hovedgruppe" v="sjø" />
		<tag k="ssr:stedsnr" v="63959" />
		<tag k="ssr:type" v="sundISjø" />
	</node>
	<node id="-197066" lat="59.451363888" lon="10.4381666655">
		<tag k="name" v="Kjerkebukta" />
		<tag k="natural" v="bay" />
		<tag k="ssr:date" v="2016-05-10" />
		<tag k="ssr:gruppe" v="kystkontur" />
		<tag k="ssr:hovedgruppe" v="sjø" />
		<tag k="ssr:stedsnr" v="63958" />
		<tag k="ssr:type" v="vikISjø" />
	</node>
	<node id="-197065" lat="59.4431416663" lon="10.3600944503">
		<tag k="fixme" v="consider place=hamlet" />
		<tag k="name" v="Haug" />
		<tag k="place" v="farm" />
		<tag k="ssr:date" v="2018-06-01" />
		<tag k="ssr:gruppe" v="gardsbebyggelse" />
		<tag k="ssr:hovedgruppe" v="bebyggelse" />
		<tag k="ssr:stedsnr" v="63947" />
		<tag k="ssr:type" v="gard" />
	</node>
	<node id="-197064" lat="59.4376444422" lon="10.4553916702">
		<tag k="alt_name" v="Reverompa" />
		<tag k="name" v="Reverumpa" />
		<tag k="natural" v="cape" />
		<tag k="ssr:date" v="2016-05-10" />
		<tag k="ssr:gruppe" v="kystkontur" />
		<tag k="ssr:hovedgruppe" v="sjø" />
		<tag k="ssr:stedsnr" v="63933" />
		<tag k="ssr:type" v="nesISjø" />
	</node>
	<node id="-197063" lat="59.3442694405" lon="10.4685750073">
		<tag k="alt_name" v="Stang" />
		<tag k="fixme" v="consider place=hamlet" />
		<tag k="name" v="Store Stang" />
		<tag k="place" v="farm" />
		<tag k="ssr:date" v="2018-06-07" />
		<tag k="ssr:gruppe" v="gardsbebyggelse" />
		<tag k="ssr:hovedgruppe" v="bebyggelse" />
		<tag k="ssr:stedsnr" v="63599" />
		<tag k="ssr:type" v="gard" />
	</node>
	<node id="-197062" lat="59.3864166656" lon="10.4749499929">
		<tag k="name" v="Birkely" />
		<tag k="natural" v="beach" />
		<tag k="place" v="locality" />
		<tag k="ssr:date" v="2016-05-10" />
		<tag k="ssr:gruppe" v="kystkontur" />
		<tag k="ssr:hovedgruppe" v="sjø" />
		<tag k="ssr:stedsnr" v="63552" />
		<tag k="ssr:type" v="strandISjø" />
	</node>
	<node id="-197061" lat="59.3882944409" lon="10.5037416593">
		<tag k="alt_name" v="Bastøyboen" />
		<tag k="name" v="Bastøybåen" />
		<tag k="natural" v="shoal" />
		<tag k="place" v="locality" />
		<tag k="ssr:date" v="2016-05-10" />
		<tag k="ssr:gruppe" v="grunnerISjø" />
		<tag k="ssr:hovedgruppe" v="sjø" />
		<tag k="ssr:stedsnr" v="63550" />
		<tag k="ssr:type" v="grunneISjø" />
	</node>
	<node id="-197059" lat="59.4261749978" lon="10.495586103">
		<tag k="man_made" v="quay" />
		<tag k="name" v="Jakobsbrygga" />
		<tag k="place" v="locality" />
		<tag k="ssr:date" v="2016-05-10" />
		<tag k="ssr:gruppe" v="sjøfart" />
		<tag k="ssr:hovedgruppe" v="infrastruktur" />
		<tag k="ssr:stedsnr" v="56745" />
		<tag k="ssr:type" v="brygge" />
	</node>
	<node id="-197058" lat="59.4272555581" lon="10.4659472171">
		<tag k="name" v="Sølvkronen" />
		<tag k="natural" v="cape" />
		<tag k="ssr:date" v="2016-05-10" />
		<tag k="ssr:gruppe" v="kystkontur" />
		<tag k="ssr:hovedgruppe" v="sjø" />
		<tag k="ssr:stedsnr" v="56742" />
		<tag k="ssr:type" v="nesISjø" />
	</node>
	<node id="-197057" lat="59.4384861127" lon="10.4365999984">
		<tag k="name" v="Skavli" />
		<tag k="place" v="quarter" />
		<tag k="ssr:date" v="2016-05-10" />
		<tag k="ssr:gruppe" v="bebyggelsesområder" />
		<tag k="ssr:hovedgruppe" v="bebyggelse" />
		<tag k="ssr:stedsnr" v="55637" />
		<tag k="ssr:type" v="boligfelt" />
	</node>
	<node id="-197056" lat="59.4322694438" lon="10.3636166715">
		<tag k="bridge" v="yes" />
		<tag k="layer" v="1" />
		<tag k="name" v="Nøklegård vest" />
		<tag k="ssr:date" v="2016-05-10" />
		<tag k="ssr:gruppe" v="samferdselsanlegg" />
		<tag k="ssr:hovedgruppe" v="infrastruktur" />
		<tag k="ssr:stedsnr" v="46685" />
		<tag k="ssr:type" v="bru" />
	</node>
	<node id="-197055" lat="59.4425861108" lon="10.4328583383">
		<tag k="fixme" v="consider place=suburb, village or hamlet" />
		<tag k="name" v="Falkensten" />
		<tag k="place" v="quarter" />
		<tag k="ssr:date" v="2016-05-10" />
		<tag k="ssr:gruppe" v="bebyggelsesområder" />
		<tag k="ssr:hovedgruppe" v="bebyggelse" />
		<tag k="ssr:stedsnr" v="41827" />
		<tag k="ssr:type" v="tettbebyggelse" />
	</node>
	<node id="-197054" lat="59.440994448" lon="10.4411833408">
		<tag k="name" v="Røremarka" />
		<tag k="place" v="locality" />
		<tag k="ssr:date" v="2016-05-10" />
		<tag k="ssr:gruppe" v="dyrkamark" />
		<tag k="ssr:hovedgruppe" v="markslag" />
		<tag k="ssr:stedsnr" v="41681" />
		<tag k="ssr:type" v="jorde" />
	</node>
	<node id="-197053" lat="59.4158444457" lon="10.4854388917">
		<tag k="building" v="civic" />
		<tag k="name" v="Politistasjon" />
		<tag k="ssr:date" v="2016-05-10" />
		<tag k="ssr:gruppe" v="institusjoner" />
		<tag k="ssr:hovedgruppe" v="bebyggelse" />
		<tag k="ssr:stedsnr" v="41638" />
		<tag k="ssr:type" v="vaktstasjonBeredsskapsbygning" />
	</node>
	<node id="-197052" lat="59.4126305559" lon="10.4885222191">
		<tag k="alt_name" v="Horten brygge" />
		<tag k="man_made" v="quay" />
		<tag k="name" v="Rustadbrygga" />
		<tag k="place" v="locality" />
		<tag k="ssr:date" v="2016-05-10" />
		<tag k="ssr:gruppe" v="sjøfart" />
		<tag k="ssr:hovedgruppe" v="infrastruktur" />
		<tag k="ssr:stedsnr" v="40643" />
		<tag k="ssr:type" v="brygge" />
	</node>
	<node id="-197051" lat="59.4118861143" lon="10.3548111195">
		<tag k="alt_name" v="Øvre Kjæran" />
		<tag k="fixme" v="consider place=hamlet" />
		<tag k="name" v="Kjærran øvre" />
		<tag k="place" v="farm" />
		<tag k="ssr:date" v="2018-06-01" />
		<tag k="ssr:gruppe" v="gardsbebyggelse" />
		<tag k="ssr:hovedgruppe" v="bebyggelse" />
		<tag k="ssr:stedsnr" v="32819" />
		<tag k="ssr:type" v="gard" />
	</node>
	<node id="-197050" lat="59.390513889" lon="10.5396416728">
		<tag k="alt_name" v="Løkkeberget" />
		<tag k="name" v="Løkeberggrunnen" />
		<tag k="natural" v="shoal" />
		<tag k="place" v="locality" />
		<tag k="ssr:date" v="2016-05-10" />
		<tag k="ssr:gruppe" v="grunnerISjø" />
		<tag k="ssr:hovedgruppe" v="sjø" />
		<tag k="ssr:stedsnr" v="28912" />
		<tag k="ssr:type" v="grunneISjø" />
	</node>
	<node id="-197049" lat="59.4451222207" lon="10.4560499974">
		<tag k="alt_name" v="Løvøysundet" />
		<tag k="name" v="Løvøysund" />
		<tag k="natural" v="strait" />
		<tag k="ssr:date" v="2016-05-10" />
		<tag k="ssr:gruppe" v="kystkontur" />
		<tag k="ssr:hovedgruppe" v="sjø" />
		<tag k="ssr:stedsnr" v="28831" />
		<tag k="ssr:type" v="sundISjø" />
	</node>
	<node id="-197048" lat="59.3692777747" lon="10.5047277846">
		<tag k="name" v="Steinbåen" />
		<tag k="place" v="locality" />
		<tag k="seamark:type" v="rock" />
		<tag k="ssr:date" v="2016-05-10" />
		<tag k="ssr:gruppe" v="grunnerISjø" />
		<tag k="ssr:hovedgruppe" v="sjø" />
		<tag k="ssr:stedsnr" v="28824" />
		<tag k="ssr:type" v="båeISjø" />
	</node>
	<node id="-197047" lat="59.3600916673" lon="10.4261972194">
		<tag k="fixme" v="consider place=hamlet" />
		<tag k="name" v="Dal" />
		<tag k="place" v="farm" />
		<tag k="ssr:date" v="2018-05-29" />
		<tag k="ssr:gruppe" v="gardsbebyggelse" />
		<tag k="ssr:hovedgruppe" v="bebyggelse" />
		<tag k="ssr:stedsnr" v="28406" />
		<tag k="ssr:type" v="gard" />
	</node>
	<node id="-197046" lat="59.4462166694" lon="10.4056972289">
		<tag k="name" v="Veggefjellet" />
		<tag k="natural" v="hill" />
		<tag k="place" v="locality" />
		<tag k="ssr:date" v="2016-05-10" />
		<tag k="ssr:gruppe" v="høyder" />
		<tag k="ssr:hovedgruppe" v="terreng" />
		<tag k="ssr:stedsnr" v="28346" />
		<tag k="ssr:type" v="berg" />
	</node>
	<node id="-197045" lat="59.3693833372" lon="10.4660694494">
		<tag k="name" v="Geita" />
		<tag k="place" v="locality" />
		<tag k="ssr:date" v="2016-05-10" />
		<tag k="ssr:gruppe" v="sjøbunn" />
		<tag k="ssr:hovedgruppe" v="sjø" />
		<tag k="ssr:stedsnr" v="28134" />
		<tag k="ssr:type" v="bakkeISjø" />
	</node>
	<node id="-197044" lat="59.3626083326" lon="10.542305551">
		<tag k="name" v="Bastøygrunnen" />
		<tag k="natural" v="shoal" />
		<tag k="place" v="locality" />
		<tag k="ssr:date" v="2016-05-10" />
		<tag k="ssr:gruppe" v="grunnerISjø" />
		<tag k="ssr:hovedgruppe" v="sjø" />
		<tag k="ssr:stedsnr" v="28115" />
		<tag k="ssr:type" v="grunneISjø" />
	</node>
	<node id="-197043" lat="59.4255487261" lon="10.4517305699">
		<tag k="name" v="Apenes" />
		<tag k="place" v="quarter" />
		<tag k="ssr:date" v="2018-03-13" />
		<tag k="ssr:gruppe" v="bebyggelsesområder" />
		<tag k="ssr:hovedgruppe" v="bebyggelse" />
		<tag k="ssr:stedsnr" v="27886" />
		<tag k="ssr:type" v="boligfelt" />
	</node>
	<node id="-197042" lat="59.444333331" lon="10.4487250053">
		<tag k="fixme" v="consider seamark:type=rock or natural=shoal" />
		<tag k="name" v="Lort" />
		<tag k="place" v="islet" />
		<tag k="ssr:date" v="2016-05-10" />
		<tag k="ssr:gruppe" v="grunnerISjø" />
		<tag k="ssr:hovedgruppe" v="sjø" />
		<tag k="ssr:stedsnr" v="25851" />
		<tag k="ssr:type" v="skjærISjø" />
	</node>
	<node id="-197041" lat="59.3870499963" lon="10.4315666663">
		<tag k="fixme" v="consider place=hamlet" />
		<tag k="name" v="Sande østre" />
		<tag k="place" v="farm" />
		<tag k="ssr:date" v="2018-05-29" />
		<tag k="ssr:gruppe" v="gardsbebyggelse" />
		<tag k="ssr:hovedgruppe" v="bebyggelse" />
		<tag k="ssr:stedsnr" v="25839" />
		<tag k="ssr:type" v="gard" />
	</node>
	<node id="-197040" lat="59.3936305596" lon="10.4643027816">
		<tag k="name" v="Eik" />
		<tag k="place" v="farm" />
		<tag k="ssr:date" v="2016-05-10" />
		<tag k="ssr:gruppe" v="gardsbebyggelse" />
		<tag k="ssr:hovedgruppe" v="bebyggelse" />
		<tag k="ssr:stedsnr" v="25835" />
		<tag k="ssr:type" v="bruk" />
	</node>
	<node id="-197039" lat="59.3722805585" lon="10.5387999961">
		<tag k="name" v="Bastøykongen" />
		<tag k="natural" v="beach" />
		<tag k="place" v="locality" />
		<tag k="ssr:date" v="2016-05-10" />
		<tag k="ssr:gruppe" v="kystkontur" />
		<tag k="ssr:hovedgruppe" v="sjø" />
		<tag k="ssr:stedsnr" v="27150" />
		<tag k="ssr:type" v="strandISjø" />
	</node>
	<node id="-197038" lat="59.3691861091" lon="10.4431555563">
		<tag k="amenity" v="school" />
		<tag k="name" v="Bakkenteigen" />
		<tag k="ssr:date" v="2016-05-10" />
		<tag k="ssr:gruppe" v="institusjoner" />
		<tag k="ssr:hovedgruppe" v="bebyggelse" />
		<tag k="ssr:stedsnr" v="21052" />
		<tag k="ssr:type" v="skole" />
	</node>
	<node id="-197037" lat="59.3690583309" lon="10.425322221">
		<tag k="fixme" v="consider place=hamlet" />
		<tag k="name" v="Kimestad" />
		<tag k="place" v="farm" />
		<tag k="ssr:date" v="2018-05-31" />
		<tag k="ssr:gruppe" v="gardsbebyggelse" />
		<tag k="ssr:hovedgruppe" v="bebyggelse" />
		<tag k="ssr:stedsnr" v="9665" />
		<tag k="ssr:type" v="gard" />
	</node>
	<node id="-197036" lat="59.431588892" lon="10.4916305641">
		<tag k="landuse" v="military" />
		<tag k="name" v="Karljohansvern" />
		<tag k="ssr:date" v="2016-05-10" />
		<tag k="ssr:gruppe" v="institusjoner" />
		<tag k="ssr:hovedgruppe" v="bebyggelse" />
		<tag k="ssr:stedsnr" v="2984" />
		<tag k="ssr:type" v="militærtByggAnlegg" />
	</node>
	<node id="-197035" lat="59.4194166667" lon="10.3973138806">
		<tag k="name" v="Grette" />
		<tag k="place" v="farm" />
		<tag k="ssr:date" v="2016-05-10" />
		<tag k="ssr:gruppe" v="gardsbebyggelse" />
		<tag k="ssr:hovedgruppe" v="bebyggelse" />
		<tag k="ssr:stedsnr" v="2980" />
		<tag k="ssr:type" v="bruk" />
	</node>
	<node id="-197034" lat="59.4193888892" lon="10.4412666713">
		<tag k="fixme" v="consider place=hamlet" />
		<tag k="name" v="Knutsrød" />
		<tag k="place" v="farm" />
		<tag k="ssr:date" v="2018-05-29" />
		<tag k="ssr:gruppe" v="gardsbebyggelse" />
		<tag k="ssr:hovedgruppe" v="bebyggelse" />
		<tag k="ssr:stedsnr" v="2975" />
		<tag k="ssr:type" v="gard" />
	</node>
	<node id="-197033" lat="59.4509833367" lon="10.4339638888">
		<tag k="name" v="Stormodden" />
		<tag k="natural" v="cape" />
		<tag k="ssr:date" v="2016-05-10" />
		<tag k="ssr:gruppe" v="kystkontur" />
		<tag k="ssr:hovedgruppe" v="sjø" />
		<tag k="ssr:stedsnr" v="2957" />
		<tag k="ssr:type" v="nesISjø" />
	</node>
	<node id="-197032" lat="59.4498638917" lon="10.4061249998">
		<tag k="name" v="Varnestangen" />
		<tag k="natural" v="cape" />
		<tag k="ssr:date" v="2016-05-10" />
		<tag k="ssr:gruppe" v="kystkontur" />
		<tag k="ssr:hovedgruppe" v="sjø" />
		<tag k="ssr:stedsnr" v="2955" />
		<tag k="ssr:type" v="nesISjø" />
	</node>
	<node id="-197031" lat="59.4494333304" lon="10.4461972199">
		<tag k="name" v="Løvøya" />
		<tag k="place" v="island" />
		<tag k="ssr:date" v="2016-05-10" />
		<tag k="ssr:gruppe" v="kystkontur" />
		<tag k="ssr:hovedgruppe" v="sjø" />
		<tag k="ssr:stedsnr" v="2949" />
		<tag k="ssr:type" v="øyISjø" />
	</node>
	<node id="-197030" lat="59.4395277801" lon="10.3780444506">
		<tag k="name" v="Frebergsvik" />
		<tag k="place" v="neighbourhood" />
		<tag k="ssr:date" v="2016-05-10" />
		<tag k="ssr:gruppe" v="bebyggelsesområder" />
		<tag k="ssr:hovedgruppe" v="bebyggelse" />
		<tag k="ssr:stedsnr" v="2936" />
		<tag k="ssr:type" v="hyttefelt" />
	</node>
	<node id="-197029" lat="59.4321611145" lon="10.4477694364">
		<tag k="name" v="Orerønningen" />
		<tag k="place" v="isolated_dwelling" />
		<tag k="ssr:date" v="2016-05-10" />
		<tag k="ssr:gruppe" v="bolighus" />
		<tag k="ssr:hovedgruppe" v="bebyggelse" />
		<tag k="ssr:stedsnr" v="2932" />
		<tag k="ssr:type" v="eneboligMindreBoligbygg" />
	</node>
	<node id="-197028" lat="59.3766583318" lon="10.4258527748">
		<tag k="fixme" v="consider place=hamlet" />
		<tag k="name" v="Lørge" />
		<tag k="place" v="farm" />
		<tag k="ssr:date" v="2018-05-31" />
		<tag k="ssr:gruppe" v="gardsbebyggelse" />
		<tag k="ssr:hovedgruppe" v="bebyggelse" />
		<tag k="ssr:stedsnr" v="2567" />
		<tag k="ssr:type" v="gard" />
	</node>
	<node id="-197027" lat="59.3784083361" lon="10.3991000029">
		<tag k="name" v="Viulsrød" />
		<tag k="place" v="farm" />
		<tag k="ssr:date" v="2016-05-10" />
		<tag k="ssr:gruppe" v="gardsbebyggelse" />
		<tag k="ssr:hovedgruppe" v="bebyggelse" />
		<tag k="ssr:stedsnr" v="2564" />
		<tag k="ssr:type" v="bruk" />
	</node>
	<node id="-197026" lat="59.3903916665" lon="10.5182027837">
		<tag k="alt_name" v="Kalven" />
		<tag k="name" v="Bastøykalven" />
		<tag k="natural" v="cape" />
		<tag k="ssr:date" v="2016-05-10" />
		<tag k="ssr:gruppe" v="kystkontur" />
		<tag k="ssr:hovedgruppe" v="sjø" />
		<tag k="ssr:stedsnr" v="2551" />
		<tag k="ssr:type" v="halvøyISjø" />
	</node>
	<node id="-197025" lat="59.3935194472" lon="10.4618805472">
		<tag k="fixme" v="consider place=hamlet" />
		<tag k="name" v="Røre" />
		<tag k="place" v="farm" />
		<tag k="ssr:date" v="2018-05-29" />
		<tag k="ssr:gruppe" v="gardsbebyggelse" />
		<tag k="ssr:hovedgruppe" v="bebyggelse" />
		<tag k="ssr:stedsnr" v="2545" />
		<tag k="ssr:type" v="gard" />
	</node>
	<node id="-197023" lat="59.4507686999" lon="10.4820456741">
		<tag k="name" v="Østøyodden" />
		<tag k="natural" v="cape" />
		<tag k="ssr:date" v="2018-08-21" />
		<tag k="ssr:gruppe" v="kystkontur" />
		<tag k="ssr:hovedgruppe" v="sjø" />
		<tag k="ssr:stedsnr" v="986144" />
		<tag k="ssr:type" v="nesISjø" />
	</node>
	<node id="-197022" lat="59.3807543758" lon="10.5251820382">
		<tag k="amenity" v="place_of_worship" />
		<tag k="denomination" v="lutheran" />
		<tag k="name" v="Bastøy kirke" />
		<tag k="religion" v="christian" />
		<tag k="ssr:date" v="2018-08-21" />
		<tag k="ssr:gruppe" v="kulturinstitusjoner" />
		<tag k="ssr:hovedgruppe" v="kultur" />
		<tag k="ssr:stedsnr" v="986143" />
		<tag k="ssr:type" v="kirke" />
	</node>
	<node id="-197020" lat="59.412793585" lon="10.4883539673">
		<tag k="man_made" v="quay" />
		<tag k="name" v="Hortensbrygga" />
		<tag k="place" v="locality" />
		<tag k="ssr:date" v="2018-08-20" />
		<tag k="ssr:gruppe" v="sjøfart" />
		<tag k="ssr:hovedgruppe" v="infrastruktur" />
		<tag k="ssr:stedsnr" v="986105" />
		<tag k="ssr:type" v="kai" />
	</node>
	<node id="-197016" lat="59.4161477985" lon="10.4969275401">
		<tag k="landuse" v="harbour" />
		<tag k="name" v="Kanalhavna" />
		<tag k="seamark:type" v="harbour" />
		<tag k="ssr:date" v="2018-08-20" />
		<tag k="ssr:gruppe" v="sjøfart" />
		<tag k="ssr:hovedgruppe" v="infrastruktur" />
		<tag k="ssr:stedsnr" v="986087" />
		<tag k="ssr:type" v="havn" />
	</node>
	<node id="-197015" lat="59.4293050233" lon="10.490639097">
		<tag k="landuse" v="military" />
		<tag k="name" v="Orlogshavna" />
		<tag k="ssr:date" v="2018-08-17" />
		<tag k="ssr:gruppe" v="institusjoner" />
		<tag k="ssr:hovedgruppe" v="bebyggelse" />
		<tag k="ssr:stedsnr" v="986009" />
		<tag k="ssr:type" v="militærtByggAnlegg" />
	</node>
	<node id="-197014" lat="59.4355211009" lon="10.4143305606">
		<tag k="name" v="Vegge" />
		<tag k="place" v="hamlet" />
		<tag k="ssr:date" v="2018-06-01" />
		<tag k="ssr:gruppe" v="gardsbebyggelse" />
		<tag k="ssr:hovedgruppe" v="bebyggelse" />
		<tag k="ssr:stedsnr" v="984714" />
		<tag k="ssr:type" v="navnegard" />
	</node>
	<node id="-197013" lat="59.4354959955" lon="10.3933618829">
		<tag k="name" v="Såteskogen" />
		<tag k="place" v="locality" />
		<tag k="ssr:date" v="2018-06-01" />
		<tag k="ssr:gruppe" v="gardsbebyggelse" />
		<tag k="ssr:hovedgruppe" v="bebyggelse" />
		<tag k="ssr:stedsnr" v="984712" />
		<tag k="ssr:type" v="eiendom" />
	</node>
	<node id="-197012" lat="59.429984254" lon="10.3940141955">
		<tag k="name" v="Skåne" />
		<tag k="place" v="hamlet" />
		<tag k="ssr:date" v="2018-06-01" />
		<tag k="ssr:gruppe" v="gardsbebyggelse" />
		<tag k="ssr:hovedgruppe" v="bebyggelse" />
		<tag k="ssr:stedsnr" v="984711" />
		<tag k="ssr:type" v="navnegard" />
	</node>
	<node id="-197011" lat="59.4377373371" lon="10.3904848304">
		<tag k="fixme" v="consider place=hamlet" />
		<tag k="name" v="Teigen" />
		<tag k="place" v="farm" />
		<tag k="ssr:date" v="2018-06-01" />
		<tag k="ssr:gruppe" v="gardsbebyggelse" />
		<tag k="ssr:hovedgruppe" v="bebyggelse" />
		<tag k="ssr:stedsnr" v="984709" />
		<tag k="ssr:type" v="gard" />
	</node>
	<node id="-197010" lat="59.4299159747" lon="10.3801244171">
		<tag k="name" v="Nøklegård" />
		<tag k="place" v="hamlet" />
		<tag k="ssr:date" v="2018-06-01" />
		<tag k="ssr:gruppe" v="gardsbebyggelse" />
		<tag k="ssr:hovedgruppe" v="bebyggelse" />
		<tag k="ssr:stedsnr" v="984662" />
		<tag k="ssr:type" v="navnegard" />
	</node>
	<node id="-197009" lat="59.4309151938" lon="10.3522587016">
		<tag k="name" v="Ås" />
		<tag k="place" v="hamlet" />
		<tag k="ssr:date" v="2018-06-01" />
		<tag k="ssr:gruppe" v="gardsbebyggelse" />
		<tag k="ssr:hovedgruppe" v="bebyggelse" />
		<tag k="ssr:stedsnr" v="984661" />
		<tag k="ssr:type" v="navnegard" />
	</node>
	<node id="-197008" lat="59.3950076559" lon="10.3858392152">
		<tag k="name" v="Gusland" />
		<tag k="place" v="hamlet" />
		<tag k="ssr:date" v="2018-05-31" />
		<tag k="ssr:gruppe" v="gardsbebyggelse" />
		<tag k="ssr:hovedgruppe" v="bebyggelse" />
		<tag k="ssr:stedsnr" v="984639" />
		<tag k="ssr:type" v="navnegard" />
	</node>
	<node id="-197007" lat="59.3561327267" lon="10.4105073717">
		<tag k="fixme" v="consider place=hamlet" />
		<tag k="name" v="Sti" />
		<tag k="place" v="farm" />
		<tag k="ssr:date" v="2018-05-31" />
		<tag k="ssr:gruppe" v="gardsbebyggelse" />
		<tag k="ssr:hovedgruppe" v="bebyggelse" />
		<tag k="ssr:stedsnr" v="984615" />
		<tag k="ssr:type" v="gard" />
	</node>
	<node id="-197006" lat="59.3594763776" lon="10.4113533661">
		<tag k="name" v="Adal" />
		<tag k="place" v="hamlet" />
		<tag k="ssr:date" v="2018-05-31" />
		<tag k="ssr:gruppe" v="gardsbebyggelse" />
		<tag k="ssr:hovedgruppe" v="bebyggelse" />
		<tag k="ssr:stedsnr" v="984614" />
		<tag k="ssr:type" v="navnegard" />
	</node>
	<node id="-197005" lat="59.3826465642" lon="10.413329952">
		<tag k="name" v="Tokerød" />
		<tag k="place" v="locality" />
		<tag k="ssr:date" v="2018-05-29" />
		<tag k="ssr:gruppe" v="gardsbebyggelse" />
		<tag k="ssr:hovedgruppe" v="bebyggelse" />
		<tag k="ssr:stedsnr" v="984544" />
		<tag k="ssr:type" v="eiendom" />
	</node>
	<node id="-197004" lat="59.3882686908" lon="10.4279609058">
		<tag k="name" v="Sande" />
		<tag k="place" v="hamlet" />
		<tag k="ssr:date" v="2018-05-29" />
		<tag k="ssr:gruppe" v="gardsbebyggelse" />
		<tag k="ssr:hovedgruppe" v="bebyggelse" />
		<tag k="ssr:stedsnr" v="984543" />
		<tag k="ssr:type" v="navnegard" />
	</node>
	<node id="-197003" lat="59.3958748869" lon="10.4056083134">
		<tag k="name" v="Søndre Rygland" />
		<tag k="place" v="locality" />
		<tag k="ssr:date" v="2018-05-29" />
		<tag k="ssr:gruppe" v="gardsbebyggelse" />
		<tag k="ssr:hovedgruppe" v="bebyggelse" />
		<tag k="ssr:stedsnr" v="984541" />
		<tag k="ssr:type" v="eiendom" />
	</node>
	<node id="-197002" lat="59.3984914563" lon="10.4199994294">
		<tag k="name" v="Solberg" />
		<tag k="place" v="hamlet" />
		<tag k="ssr:date" v="2018-05-29" />
		<tag k="ssr:gruppe" v="gardsbebyggelse" />
		<tag k="ssr:hovedgruppe" v="bebyggelse" />
		<tag k="ssr:stedsnr" v="984540" />
		<tag k="ssr:type" v="navnegard" />
	</node>
	<node id="-197001" lat="59.4001525619" lon="10.4153317859">
		<tag k="fixme" v="consider place=hamlet" />
		<tag k="name" v="Vestre Solberg" />
		<tag k="place" v="farm" />
		<tag k="ssr:date" v="2018-05-29" />
		<tag k="ssr:gruppe" v="gardsbebyggelse" />
		<tag k="ssr:hovedgruppe" v="bebyggelse" />
		<tag k="ssr:stedsnr" v="984539" />
		<tag k="ssr:type" v="gard" />
	</node>
	<node id="-197000" lat="59.4226671537" lon="10.4212751372">
		<tag k="name" v="Vik" />
		<tag k="place" v="hamlet" />
		<tag k="ssr:date" v="2018-05-29" />
		<tag k="ssr:gruppe" v="gardsbebyggelse" />
		<tag k="ssr:hovedgruppe" v="bebyggelse" />
		<tag k="ssr:stedsnr" v="984538" />
		<tag k="ssr:type" v="navnegard" />
	</node>
	<node id="-196999" lat="59.405669358" lon="10.4665352976">
		<tag k="fixme" v="consider place=hamlet" />
		<tag k="name" v="Baggerød" />
		<tag k="place" v="farm" />
		<tag k="ssr:date" v="2018-05-29" />
		<tag k="ssr:gruppe" v="gardsbebyggelse" />
		<tag k="ssr:hovedgruppe" v="bebyggelse" />
		<tag k="ssr:stedsnr" v="984537" />
		<tag k="ssr:type" v="gard" />
	</node>
	<node id="-196998" lat="59.3866817756" lon="10.4629754753">
		<tag k="name" v="Vold" />
		<tag k="place" v="hamlet" />
		<tag k="ssr:date" v="2018-05-29" />
		<tag k="ssr:gruppe" v="gardsbebyggelse" />
		<tag k="ssr:hovedgruppe" v="bebyggelse" />
		<tag k="ssr:stedsnr" v="984536" />
		<tag k="ssr:type" v="navnegard" />
	</node>
	<node id="-196997" lat="59.3851883409" lon="10.4723934999">
		<tag k="name" v="Søndre Vold" />
		<tag k="place" v="locality" />
		<tag k="ssr:date" v="2018-05-29" />
		<tag k="ssr:gruppe" v="gardsbebyggelse" />
		<tag k="ssr:hovedgruppe" v="bebyggelse" />
		<tag k="ssr:stedsnr" v="984535" />
		<tag k="ssr:type" v="eiendom" />
	</node>
	<node id="-196996" lat="59.3827634202" lon="10.5268618652">
		<tag k="name" v="Bastø" />
		<tag k="place" v="locality" />
		<tag k="ssr:date" v="2018-05-29" />
		<tag k="ssr:gruppe" v="gardsbebyggelse" />
		<tag k="ssr:hovedgruppe" v="bebyggelse" />
		<tag k="ssr:stedsnr" v="984534" />
		<tag k="ssr:type" v="eiendom" />
	</node>
	<node id="-196995" lat="59.3833101513" lon="10.4598602327">
		<tag k="fixme" v="consider place=hamlet" />
		<tag k="name" v="Vasmarken" />
		<tag k="place" v="farm" />
		<tag k="ssr:date" v="2018-05-29" />
		<tag k="ssr:gruppe" v="gardsbebyggelse" />
		<tag k="ssr:hovedgruppe" v="bebyggelse" />
		<tag k="ssr:stedsnr" v="984505" />
		<tag k="ssr:type" v="gard" />
	</node>
	<node id="-196994" lat="59.3739062586" lon="10.4373690454">
		<tag k="name" v="Øvre Glenne" />
		<tag k="place" v="locality" />
		<tag k="ssr:date" v="2018-05-29" />
		<tag k="ssr:gruppe" v="gardsbebyggelse" />
		<tag k="ssr:hovedgruppe" v="bebyggelse" />
		<tag k="ssr:stedsnr" v="984502" />
		<tag k="ssr:type" v="eiendom" />
	</node>
	<node id="-196993" lat="59.373886111" lon="10.4140666599">
		<tag k="name" v="Pjonkerød søndre" />
		<tag k="place" v="farm" />
		<tag k="ssr:date" v="2016-05-11" />
		<tag k="ssr:gruppe" v="gardsbebyggelse" />
		<tag k="ssr:hovedgruppe" v="bebyggelse" />
		<tag k="ssr:stedsnr" v="882666" />
		<tag k="ssr:type" v="bruk" />
	</node>
	<node id="-196992" lat="59.4240555592" lon="10.3729138957">
		<tag k="bridge" v="yes" />
		<tag k="layer" v="1" />
		<tag k="name" v="Nykirke kulvert" />
		<tag k="ssr:date" v="2016-05-10" />
		<tag k="ssr:gruppe" v="samferdselsanlegg" />
		<tag k="ssr:hovedgruppe" v="infrastruktur" />
		<tag k="ssr:stedsnr" v="410627" />
		<tag k="ssr:type" v="bru" />
	</node>
	<node id="-196991" lat="59.4140499994" lon="10.4883888902">
		<tag k="man_made" v="quay" />
		<tag k="name" v="Tollbubrygga" />
		<tag k="place" v="locality" />
		<tag k="ssr:date" v="2016-05-10" />
		<tag k="ssr:gruppe" v="sjøfart" />
		<tag k="ssr:hovedgruppe" v="infrastruktur" />
		<tag k="ssr:stedsnr" v="405659" />
		<tag k="ssr:type" v="brygge" />
	</node>
	<node id="-196990" lat="59.3799638879" lon="10.4735166637">
		<tag k="name" v="Klokkertangen" />
		<tag k="natural" v="cape" />
		<tag k="ssr:date" v="2016-05-10" />
		<tag k="ssr:gruppe" v="kystkontur" />
		<tag k="ssr:hovedgruppe" v="sjø" />
		<tag k="ssr:stedsnr" v="237435" />
		<tag k="ssr:type" v="nesISjø" />
	</node>
	<node id="-196989" lat="59.3559777743" lon="10.4595499931">
		<tag k="fixme" v="consider natural=peak for the most distinct mountains in the district" />
		<tag k="name" v="Damåsen" />
		<tag k="natural" v="hill" />
		<tag k="place" v="locality" />
		<tag k="ssr:date" v="2016-05-10" />
		<tag k="ssr:gruppe" v="høyder" />
		<tag k="ssr:hovedgruppe" v="terreng" />
		<tag k="ssr:stedsnr" v="401032" />
		<tag k="ssr:type" v="ås" />
	</node>
	<node id="-196988" lat="59.3593611118" lon="10.4526388833">
		<tag k="name" v="Jutestrand" />
		<tag k="place" v="farm" />
		<tag k="ssr:date" v="2016-05-10" />
		<tag k="ssr:gruppe" v="gardsbebyggelse" />
		<tag k="ssr:hovedgruppe" v="bebyggelse" />
		<tag k="ssr:stedsnr" v="392849" />
		<tag k="ssr:type" v="bruk" />
	</node>
	<node id="-196987" lat="59.4153200203" lon="10.4971463363">
		<tag k="alt_name" v="Fyllinga båthavn" />
		<tag k="landuse" v="harbour" />
		<tag k="name" v="Fyllinga" />
		<tag k="seamark:type" v="harbour" />
		<tag k="ssr:date" v="2018-08-20" />
		<tag k="ssr:gruppe" v="sjøfart" />
		<tag k="ssr:hovedgruppe" v="infrastruktur" />
		<tag k="ssr:stedsnr" v="392829" />
		<tag k="ssr:type" v="havn" />
	</node>
	<node id="-196986" lat="59.4271166664" lon="10.5215277838">
		<tag k="name" v="Furugrunnen" />
		<tag k="natural" v="shoal" />
		<tag k="place" v="locality" />
		<tag k="ssr:date" v="2016-05-10" />
		<tag k="ssr:gruppe" v="grunnerISjø" />
		<tag k="ssr:hovedgruppe" v="sjø" />
		<tag k="ssr:stedsnr" v="392129" />
		<tag k="ssr:type" v="grunneISjø" />
	</node>
	<node id="-196985" lat="59.4507166681" lon="10.4863416657">
		<tag k="name" v="Østøybåen" />
		<tag k="place" v="locality" />
		<tag k="seamark:type" v="rock" />
		<tag k="ssr:date" v="2016-05-10" />
		<tag k="ssr:gruppe" v="grunnerISjø" />
		<tag k="ssr:hovedgruppe" v="sjø" />
		<tag k="ssr:stedsnr" v="392121" />
		<tag k="ssr:type" v="båeISjø" />
	</node>
	<node id="-196984" lat="59.431336115" lon="10.4960055576">
		<tag k="name" v="Møringbukta" />
		<tag k="natural" v="bay" />
		<tag k="ssr:date" v="2016-05-10" />
		<tag k="ssr:gruppe" v="kystkontur" />
		<tag k="ssr:hovedgruppe" v="sjø" />
		<tag k="ssr:stedsnr" v="392108" />
		<tag k="ssr:type" v="vikISjø" />
	</node>
	<node id="-196983" lat="59.4290666671" lon="10.4605749976">
		<tag k="alt_name" v="Solvika" />
		<tag k="name" v="Selviken" />
		<tag k="natural" v="bay" />
		<tag k="ssr:date" v="2016-05-10" />
		<tag k="ssr:gruppe" v="kystkontur" />
		<tag k="ssr:hovedgruppe" v="sjø" />
		<tag k="ssr:stedsnr" v="390856" />
		<tag k="ssr:type" v="vikISjø" />
	</node>
	<node id="-196982" lat="59.4306499975" lon="10.4374694377">
		<tag k="fixme" v="consider natural=peak for the most distinct mountains in the district" />
		<tag k="name" v="Utsikten" />
		<tag k="natural" v="hill" />
		<tag k="place" v="locality" />
		<tag k="ssr:date" v="2016-05-10" />
		<tag k="ssr:gruppe" v="høyder" />
		<tag k="ssr:hovedgruppe" v="terreng" />
		<tag k="ssr:stedsnr" v="390854" />
		<tag k="ssr:type" v="ås" />
	</node>
	<node id="-196981" lat="59.3835801376" lon="10.4136923233">
		<tag k="amenity" v="school" />
		<tag k="name" v="Lysheim skole" />
		<tag k="ssr:date" v="2018-08-27" />
		<tag k="ssr:gruppe" v="institusjoner" />
		<tag k="ssr:hovedgruppe" v="bebyggelse" />
		<tag k="ssr:stedsnr" v="389829" />
		<tag k="ssr:type" v="skole" />
	</node>
	<node id="-196980" lat="59.4170111088" lon="10.4795749953">
		<tag k="name" v="Nordre Brårud" />
		<tag k="place" v="locality" />
		<tag k="ssr:date" v="2016-05-10" />
		<tag k="ssr:gruppe" v="flater" />
		<tag k="ssr:hovedgruppe" v="terreng" />
		<tag k="ssr:stedsnr" v="389824" />
		<tag k="ssr:type" v="slette" />
	</node>
	<node id="-196979" lat="59.4178277772" lon="10.464080552">
		<tag k="fixme" v="consider natural=peak for the most distinct mountains in the district" />
		<tag k="name" v="Røråsen" />
		<tag k="natural" v="hill" />
		<tag k="place" v="locality" />
		<tag k="ssr:date" v="2016-05-10" />
		<tag k="ssr:gruppe" v="høyder" />
		<tag k="ssr:hovedgruppe" v="terreng" />
		<tag k="ssr:stedsnr" v="389822" />
		<tag k="ssr:type" v="ås" />
	</node>
	<node id="-196978" lat="59.4411222215" lon="10.4294611031">
		<tag k="fixme" v="consider place=hamlet" />
		<tag k="name" v="Falkensten" />
		<tag k="place" v="farm" />
		<tag k="ssr:date" v="2018-05-29" />
		<tag k="ssr:gruppe" v="gardsbebyggelse" />
		<tag k="ssr:hovedgruppe" v="bebyggelse" />
		<tag k="ssr:stedsnr" v="366936" />
		<tag k="ssr:type" v="gard" />
	</node>
	<node id="-196977" lat="59.432949999" lon="10.4282638851">
		<tag k="building" v="industrial" />
		<tag k="industrial" v="factory" />
		<tag k="name" v="Øvremølla" />
		<tag k="ssr:date" v="2016-05-10" />
		<tag k="ssr:gruppe" v="næring" />
		<tag k="ssr:hovedgruppe" v="bebyggelse" />
		<tag k="ssr:stedsnr" v="366932" />
		<tag k="ssr:type" v="fabrikk" />
	</node>
	<node id="-196976" lat="59.3564388867" lon="10.4067750061">
		<tag k="alt_name" v="Sti, østre;Sti øvre" />
		<tag k="name" v="Østre Sti" />
		<tag k="place" v="farm" />
		<tag k="ssr:date" v="2016-05-10" />
		<tag k="ssr:gruppe" v="gardsbebyggelse" />
		<tag k="ssr:hovedgruppe" v="bebyggelse" />
		<tag k="ssr:stedsnr" v="366584" />
		<tag k="ssr:type" v="bruk" />
	</node>
	<node id="-196975" lat="59.3535750007" lon="10.4474472141">
		<tag k="name" v="Snekkestad" />
		<tag k="place" v="farm" />
		<tag k="ssr:date" v="2016-05-10" />
		<tag k="ssr:gruppe" v="gardsbebyggelse" />
		<tag k="ssr:hovedgruppe" v="bebyggelse" />
		<tag k="ssr:stedsnr" v="366583" />
		<tag k="ssr:type" v="bruk" />
	</node>
	<node id="-196974" lat="59.3641249972" lon="10.4271833321">
		<tag k="alt_name" v="Adal østre" />
		<tag k="fixme" v="consider place=hamlet" />
		<tag k="name" v="Adal" />
		<tag k="place" v="farm" />
		<tag k="ssr:date" v="2018-05-29" />
		<tag k="ssr:gruppe" v="gardsbebyggelse" />
		<tag k="ssr:hovedgruppe" v="bebyggelse" />
		<tag k="ssr:stedsnr" v="366577" />
		<tag k="ssr:type" v="gard" />
	</node>
	<node id="-196973" lat="59.3876638906" lon="10.5240666633">
		<tag k="name" v="Bastøybukta" />
		<tag k="natural" v="bay" />
		<tag k="ssr:date" v="2016-05-10" />
		<tag k="ssr:gruppe" v="kystkontur" />
		<tag k="ssr:hovedgruppe" v="sjø" />
		<tag k="ssr:stedsnr" v="366553" />
		<tag k="ssr:type" v="vikISjø" />
	</node>
	<node id="-196972" lat="59.3943555525" lon="10.3967555472">
		<tag k="fixme" v="consider place=hamlet" />
		<tag k="name" v="Snapsrød" />
		<tag k="place" v="farm" />
		<tag k="ssr:date" v="2018-05-31" />
		<tag k="ssr:gruppe" v="gardsbebyggelse" />
		<tag k="ssr:hovedgruppe" v="bebyggelse" />
		<tag k="ssr:stedsnr" v="366535" />
		<tag k="ssr:type" v="gard" />
	</node>
	<node id="-196971" lat="59.4017972196" lon="10.3538916668">
		<tag k="alt_name" v="Kjettetorp" />
		<tag k="fixme" v="consider place=hamlet" />
		<tag k="name" v="Kjettorp" />
		<tag k="place" v="farm" />
		<tag k="ssr:date" v="2018-05-31" />
		<tag k="ssr:gruppe" v="gardsbebyggelse" />
		<tag k="ssr:hovedgruppe" v="bebyggelse" />
		<tag k="ssr:stedsnr" v="366525" />
		<tag k="ssr:type" v="gard" />
	</node>
	<node id="-196970" lat="59.3839555536" lon="10.4779499919">
		<tag k="name" v="Eydestranda" />
		<tag k="natural" v="beach" />
		<tag k="place" v="locality" />
		<tag k="ssr:date" v="2016-05-10" />
		<tag k="ssr:gruppe" v="kystkontur" />
		<tag k="ssr:hovedgruppe" v="sjø" />
		<tag k="ssr:stedsnr" v="359469" />
		<tag k="ssr:type" v="strandISjø" />
	</node>
	<node id="-196969" lat="59.3860250023" lon="10.4752944481">
		<tag k="name" v="Birkely" />
		<tag k="place" v="quarter" />
		<tag k="ssr:date" v="2016-05-10" />
		<tag k="ssr:gruppe" v="bebyggelsesområder" />
		<tag k="ssr:hovedgruppe" v="bebyggelse" />
		<tag k="ssr:stedsnr" v="358696" />
		<tag k="ssr:type" v="boligfelt" />
	</node>
	<node id="-196968" lat="59.3937694443" lon="10.4219305478">
		<tag k="bridge" v="yes" />
		<tag k="layer" v="1" />
		<tag k="name" v="Skjeller" />
		<tag k="ssr:date" v="2016-05-10" />
		<tag k="ssr:gruppe" v="samferdselsanlegg" />
		<tag k="ssr:hovedgruppe" v="infrastruktur" />
		<tag k="ssr:stedsnr" v="349672" />
		<tag k="ssr:type" v="bru" />
	</node>
	<node id="-196967" lat="59.4407444428" lon="10.4491083345">
		<tag k="fixme" v="consider seamark:type=rock or natural=shoal" />
		<tag k="name" v="Hagaskjæret" />
		<tag k="place" v="islet" />
		<tag k="ssr:date" v="2016-05-10" />
		<tag k="ssr:gruppe" v="grunnerISjø" />
		<tag k="ssr:hovedgruppe" v="sjø" />
		<tag k="ssr:stedsnr" v="344676" />
		<tag k="ssr:type" v="skjærISjø" />
	</node>
	<node id="-196965" lat="59.3491499968" lon="10.472533327">
		<tag k="man_made" v="quay" />
		<tag k="name" v="Hansstenbrygga" />
		<tag k="place" v="locality" />
		<tag k="ssr:date" v="2016-05-10" />
		<tag k="ssr:gruppe" v="sjøfart" />
		<tag k="ssr:hovedgruppe" v="infrastruktur" />
		<tag k="ssr:stedsnr" v="344985" />
		<tag k="ssr:type" v="brygge" />
	</node>
	<node id="-196964" lat="59.3891611104" lon="10.4950722273">
		<tag k="name" v="Bastøyrenna" />
		<tag k="place" v="locality" />
		<tag k="ssr:date" v="2016-05-10" />
		<tag k="ssr:gruppe" v="sjøbunn" />
		<tag k="ssr:hovedgruppe" v="sjø" />
		<tag k="ssr:stedsnr" v="331996" />
		<tag k="ssr:type" v="renneKløftISjø" />
	</node>
	<node id="-196963" lat="59.453522226" lon="10.4873805552">
		<tag k="name" v="Palten" />
		<tag k="natural" v="shoal" />
		<tag k="place" v="locality" />
		<tag k="ssr:date" v="2016-05-10" />
		<tag k="ssr:gruppe" v="grunnerISjø" />
		<tag k="ssr:hovedgruppe" v="sjø" />
		<tag k="ssr:stedsnr" v="331800" />
		<tag k="ssr:type" v="grunneISjø" />
	</node>
	<node id="-196962" lat="59.3692194443" lon="10.3849861041">
		<tag k="name" v="Ødegården" />
		<tag k="place" v="farm" />
		<tag k="ssr:date" v="2016-05-10" />
		<tag k="ssr:gruppe" v="gardsbebyggelse" />
		<tag k="ssr:hovedgruppe" v="bebyggelse" />
		<tag k="ssr:stedsnr" v="331375" />
		<tag k="ssr:type" v="bruk" />
	</node>
	<node id="-196961" lat="59.4378361125" lon="10.3709222213">
		<tag k="name" v="Rønningen" />
		<tag k="place" v="farm" />
		<tag k="ssr:date" v="2016-05-10" />
		<tag k="ssr:gruppe" v="gardsbebyggelse" />
		<tag k="ssr:hovedgruppe" v="bebyggelse" />
		<tag k="ssr:stedsnr" v="331101" />
		<tag k="ssr:type" v="bruk" />
	</node>
	<node id="-196960" lat="59.3952833308" lon="10.5106750019">
		<tag k="name" v="Kalvekrakken" />
		<tag k="natural" v="shoal" />
		<tag k="place" v="locality" />
		<tag k="ssr:date" v="2016-05-10" />
		<tag k="ssr:gruppe" v="grunnerISjø" />
		<tag k="ssr:hovedgruppe" v="sjø" />
		<tag k="ssr:stedsnr" v="331092" />
		<tag k="ssr:type" v="grunneISjø" />
	</node>
	<node id="-196959" lat="59.3960222231" lon="10.4562083403">
		<tag k="fixme" v="consider place=hamlet" />
		<tag k="name" v="Semb søndre" />
		<tag k="place" v="farm" />
		<tag k="ssr:date" v="2018-05-29" />
		<tag k="ssr:gruppe" v="gardsbebyggelse" />
		<tag k="ssr:hovedgruppe" v="bebyggelse" />
		<tag k="ssr:stedsnr" v="328854" />
		<tag k="ssr:type" v="gard" />
	</node>
	<node id="-196958" lat="59.3890499963" lon="10.4651805626">
		<tag k="name" v="Vold" />
		<tag k="place" v="farm" />
		<tag k="ssr:date" v="2016-05-10" />
		<tag k="ssr:gruppe" v="gardsbebyggelse" />
		<tag k="ssr:hovedgruppe" v="bebyggelse" />
		<tag k="ssr:stedsnr" v="328850" />
		<tag k="ssr:type" v="bruk" />
	</node>
	<node id="-196957" lat="59.419763887" lon="10.4866638898">
		<tag k="leisure" v="pitch" />
		<tag k="name" v="Horten stadion Gressbanen" />
		<tag k="ssr:date" v="2016-05-10" />
		<tag k="ssr:gruppe" v="fritidsanlegg" />
		<tag k="ssr:hovedgruppe" v="bebyggelse" />
		<tag k="ssr:stedsnr" v="328833" />
		<tag k="ssr:type" v="idrettsanlegg" />
	</node>
	<node id="-196956" lat="59.3557750037" lon="10.4375527847">
		<tag k="name" v="Ra" />
		<tag k="place" v="farm" />
		<tag k="ssr:date" v="2018-05-29" />
		<tag k="ssr:gruppe" v="gardsbebyggelse" />
		<tag k="ssr:hovedgruppe" v="bebyggelse" />
		<tag k="ssr:stedsnr" v="328803" />
		<tag k="ssr:type" v="bruk" />
	</node>
	<node id="-196955" lat="59.3792194425" lon="10.4583694515">
		<tag k="name" v="Hallingstad" />
		<tag k="place" v="farm" />
		<tag k="ssr:date" v="2016-05-10" />
		<tag k="ssr:gruppe" v="gardsbebyggelse" />
		<tag k="ssr:hovedgruppe" v="bebyggelse" />
		<tag k="ssr:stedsnr" v="328797" />
		<tag k="ssr:type" v="bruk" />
	</node>
	<node id="-196947" lat="59.4031055587" lon="10.4136999914">
		<tag k="name" v="Bondalen" />
		<tag k="natural" v="valley" />
		<tag k="place" v="locality" />
		<tag k="ssr:date" v="2016-05-10" />
		<tag k="ssr:gruppe" v="senkninger" />
		<tag k="ssr:hovedgruppe" v="terreng" />
		<tag k="ssr:stedsnr" v="306483" />
		<tag k="ssr:type" v="dal" />
	</node>
	<node id="-196946" lat="59.4105749965" lon="10.3916111074">
		<tag k="name" v="Rønningen" />
		<tag k="place" v="farm" />
		<tag k="ssr:date" v="2016-05-10" />
		<tag k="ssr:gruppe" v="gardsbebyggelse" />
		<tag k="ssr:hovedgruppe" v="bebyggelse" />
		<tag k="ssr:stedsnr" v="306469" />
		<tag k="ssr:type" v="bruk" />
	</node>
	<node id="-196945" lat="59.4082055511" lon="10.4225972243">
		<tag k="name" v="Bergstad" />
		<tag k="place" v="farm" />
		<tag k="ssr:date" v="2016-05-10" />
		<tag k="ssr:gruppe" v="gardsbebyggelse" />
		<tag k="ssr:hovedgruppe" v="bebyggelse" />
		<tag k="ssr:stedsnr" v="306467" />
		<tag k="ssr:type" v="bruk" />
	</node>
	<node id="-196944" lat="59.411569443" lon="10.4316166656">
		<tag k="name" v="Borrevannet" />
		<tag k="natural" v="water" />
		<tag k="ssr:date" v="2016-05-10" />
		<tag k="ssr:gruppe" v="stilleståendeVann" />
		<tag k="ssr:hovedgruppe" v="ferskvann" />
		<tag k="ssr:stedsnr" v="306464" />
		<tag k="ssr:type" v="vann" />
		<tag k="water" v="lake" />
	</node>
	<node id="-196943" lat="59.4260055531" lon="10.3633611028">
		<tag k="fixme" v="consider place=hamlet" />
		<tag k="name" v="Kopstad" />
		<tag k="place" v="farm" />
		<tag k="ssr:date" v="2016-05-10" />
		<tag k="ssr:gruppe" v="gardsbebyggelse" />
		<tag k="ssr:hovedgruppe" v="bebyggelse" />
		<tag k="ssr:stedsnr" v="305992" />
		<tag k="ssr:type" v="gard" />
	</node>
	<node id="-196942" lat="59.354275001" lon="10.4344055534">
		<tag k="name" v="Ra" />
		<tag k="place" v="farm" />
		<tag k="ssr:date" v="2016-05-10" />
		<tag k="ssr:gruppe" v="gardsbebyggelse" />
		<tag k="ssr:hovedgruppe" v="bebyggelse" />
		<tag k="ssr:stedsnr" v="305626" />
		<tag k="ssr:type" v="bruk" />
	</node>
	<node id="-196941" lat="59.3650388934" lon="10.4026249979">
		<tag k="alt_name" v="Adal vestre" />
		<tag k="fixme" v="consider place=hamlet" />
		<tag k="name" v="Adal" />
		<tag k="place" v="farm" />
		<tag k="ssr:date" v="2018-05-31" />
		<tag k="ssr:gruppe" v="gardsbebyggelse" />
		<tag k="ssr:hovedgruppe" v="bebyggelse" />
		<tag k="ssr:stedsnr" v="305619" />
		<tag k="ssr:type" v="gard" />
	</node>
	<node id="-196940" lat="59.3631805533" lon="10.4461111131">
		<tag k="fixme" v="consider place=hamlet" />
		<tag k="name" v="Fjugstad" />
		<tag k="place" v="farm" />
		<tag k="ssr:date" v="2018-05-29" />
		<tag k="ssr:gruppe" v="gardsbebyggelse" />
		<tag k="ssr:hovedgruppe" v="bebyggelse" />
		<tag k="ssr:stedsnr" v="305614" />
		<tag k="ssr:type" v="gard" />
	</node>
	<node id="-196939" lat="59.38319722" lon="10.4639055493">
		<tag k="fixme" v="consider place=hamlet" />
		<tag k="name" v="Prestegården" />
		<tag k="place" v="farm" />
		<tag k="ssr:date" v="2018-05-29" />
		<tag k="ssr:gruppe" v="gardsbebyggelse" />
		<tag k="ssr:hovedgruppe" v="bebyggelse" />
		<tag k="ssr:stedsnr" v="305605" />
		<tag k="ssr:type" v="gard" />
	</node>
	<node id="-196938" lat="59.4117916694" lon="10.4889083247">
		<tag k="amenity" v="ferry_terminal" />
		<tag k="name" v="Horten ferjekai" />
		<tag k="ssr:date" v="2016-05-10" />
		<tag k="ssr:gruppe" v="sjøfart" />
		<tag k="ssr:hovedgruppe" v="infrastruktur" />
		<tag k="ssr:stedsnr" v="303705" />
		<tag k="ssr:type" v="ferjekai" />
	</node>
	<node id="-196937" lat="59.367775003" lon="10.4623972304">
		<tag k="name" v="Vestmannrød" />
		<tag k="place" v="isolated_dwelling" />
		<tag k="ssr:date" v="2016-05-10" />
		<tag k="ssr:gruppe" v="bolighus" />
		<tag k="ssr:hovedgruppe" v="bebyggelse" />
		<tag k="ssr:stedsnr" v="284047" />
		<tag k="ssr:type" v="eneboligMindreBoligbygg" />
	</node>
	<node id="-196936" lat="59.438949997" lon="10.4547277749">
		<tag k="fixme" v="consider seamark:type=rock or natural=shoal" />
		<tag k="name" v="Rumpa" />
		<tag k="place" v="islet" />
		<tag k="ssr:date" v="2016-05-10" />
		<tag k="ssr:gruppe" v="grunnerISjø" />
		<tag k="ssr:hovedgruppe" v="sjø" />
		<tag k="ssr:stedsnr" v="283674" />
		<tag k="ssr:type" v="skjærISjø" />
	</node>
	<node id="-196935" lat="59.3849555565" lon="10.4053916638">
		<tag k="leisure" v="park" />
		<tag k="name" v="Reirparken" />
		<tag k="ssr:date" v="2016-05-10" />
		<tag k="ssr:gruppe" v="fritidsanlegg" />
		<tag k="ssr:hovedgruppe" v="bebyggelse" />
		<tag k="ssr:stedsnr" v="274827" />
		<tag k="ssr:type" v="park" />
	</node>
	<node id="-196934" lat="59.3777055579" lon="10.403422226">
		<tag k="name" v="Viulsrød" />
		<tag k="place" v="farm" />
		<tag k="ssr:date" v="2016-05-10" />
		<tag k="ssr:gruppe" v="gardsbebyggelse" />
		<tag k="ssr:hovedgruppe" v="bebyggelse" />
		<tag k="ssr:stedsnr" v="271433" />
		<tag k="ssr:type" v="bruk" />
	</node>
	<node id="-196933" lat="59.4232166682" lon="10.5200833382">
		<tag k="name" v="Slåfeil" />
		<tag k="natural" v="shoal" />
		<tag k="place" v="locality" />
		<tag k="ssr:date" v="2016-05-10" />
		<tag k="ssr:gruppe" v="grunnerISjø" />
		<tag k="ssr:hovedgruppe" v="sjø" />
		<tag k="ssr:stedsnr" v="271133" />
		<tag k="ssr:type" v="grunneISjø" />
	</node>
	<node id="-196932" lat="59.3782777811" lon="10.5140555507">
		<tag k="name" v="Sandrevodden" />
		<tag k="natural" v="cape" />
		<tag k="ssr:date" v="2016-05-10" />
		<tag k="ssr:gruppe" v="kystkontur" />
		<tag k="ssr:hovedgruppe" v="sjø" />
		<tag k="ssr:stedsnr" v="271118" />
		<tag k="ssr:type" v="nesISjø" />
	</node>
	<node id="-196931" lat="59.4399833328" lon="10.4974694443">
		<tag k="fixme" v="consider seamark:type=rock or natural=shoal" />
		<tag k="name" v="Revet" />
		<tag k="place" v="islet" />
		<tag k="ssr:date" v="2016-05-10" />
		<tag k="ssr:gruppe" v="grunnerISjø" />
		<tag k="ssr:hovedgruppe" v="sjø" />
		<tag k="ssr:stedsnr" v="271119" />
		<tag k="ssr:type" v="skjærISjø" />
	</node>
	<node id="-196930" lat="59.4054777771" lon="10.3791138802">
		<tag k="fixme" v="consider place=hamlet" />
		<tag k="name" v="Skaug" />
		<tag k="place" v="farm" />
		<tag k="ssr:date" v="2018-05-31" />
		<tag k="ssr:gruppe" v="gardsbebyggelse" />
		<tag k="ssr:hovedgruppe" v="bebyggelse" />
		<tag k="ssr:stedsnr" v="270812" />
		<tag k="ssr:type" v="gard" />
	</node>
	<node id="-196929" lat="59.3760694456" lon="10.5201777809">
		<tag k="fixme" v="consider boundary=protected_area and relevant protect_class if not nature reserve" />
		<tag k="leisure" v="nature_reserve" />
		<tag k="name" v="Bastøy landskapsvernområde" />
		<tag k="ssr:date" v="2016-05-10" />
		<tag k="ssr:gruppe" v="verne-OgBruksområder" />
		<tag k="ssr:hovedgruppe" v="offentligAdministrasjon" />
		<tag k="ssr:stedsnr" v="269185" />
		<tag k="ssr:type" v="verneområde" />
	</node>
</osm>
