<?xml version="1.0" encoding="UTF-8"?>
<osm generator="osmapis" version="0.6">
	<node id="-196658" lat="59.3802235488" lon="10.4022831501">
		<tag k="name" v="Viulsrødsletta" />
		<tag k="ssr:date" v="2019-05-31" />
		<tag k="ssr:gruppe" v="veg" />
		<tag k="ssr:hovedgruppe" v="infrastruktur" />
		<tag k="ssr:stedsnr" v="1044454" />
		<tag k="ssr:type" v="adressenavn" />
	</node>
	<node id="-196729" lat="59.3280615952" lon="10.514566321">
		<tag k="name" v="Slagentangen molo" />
		<tag k="ssr:date" v="2018-08-22" />
		<tag k="ssr:gruppe" v="navigasjon" />
		<tag k="ssr:hovedgruppe" v="infrastruktur" />
		<tag k="ssr:stedsnr" v="986190" />
		<tag k="ssr:type" v="lanterne" />
	</node>
	<node id="-197115" lat="60.5908609473" lon="9.63819281559">
		<tag k="fixme" v="multiple name tags, choose one and add the other to alt_name" />
		<tag k="name" v="Austlandet;Østlandet" />
		<tag k="ssr:date" v="2018-01-09" />
		<tag k="ssr:gruppe" v="administrativeIndelinger" />
		<tag k="ssr:hovedgruppe" v="offentligAdministrasjon" />
		<tag k="ssr:stedsnr" v="974775" />
		<tag k="ssr:type" v="annenAdministrativInndeling" />
	</node>
	<node id="-197017" lat="59.4164694416" lon="10.4983833297">
		<tag k="loc_name" v="Horten lykt" />
		<tag k="name" v="Horten" />
		<tag k="ssr:date" v="2016-05-11" />
		<tag k="ssr:gruppe" v="navigasjon" />
		<tag k="ssr:hovedgruppe" v="infrastruktur" />
		<tag k="ssr:stedsnr" v="725978" />
		<tag k="ssr:type" v="fyrlykt" />
	</node>
	<node id="-197113" lat="59.4363277736" lon="10.4746444466">
		<tag k="name" v="Diriksbåen" />
		<tag k="ssr:date" v="2018-08-17" />
		<tag k="ssr:gruppe" v="navigasjon" />
		<tag k="ssr:hovedgruppe" v="infrastruktur" />
		<tag k="ssr:stedsnr" v="951704" />
		<tag k="ssr:type" v="lanterne" />
	</node>
	<node id="-196655" lat="59.4223499146" lon="10.4766624538">
		<tag k="name" v="Rolv Wesenlunds vei" />
		<tag k="ssr:date" v="2019-05-31" />
		<tag k="ssr:gruppe" v="veg" />
		<tag k="ssr:hovedgruppe" v="infrastruktur" />
		<tag k="ssr:stedsnr" v="1044175" />
		<tag k="ssr:type" v="adressenavn" />
	</node>
	<node id="-197077" lat="59.4154500043" lon="10.4853638883">
		<tag k="loc_name" v="Horten" />
		<tag k="name" v="Horten kommune" />
		<tag k="ssr:date" v="2016-05-11" />
		<tag k="ssr:gruppe" v="administrativeIndelinger" />
		<tag k="ssr:hovedgruppe" v="offentligAdministrasjon" />
		<tag k="ssr:stedsnr" v="874298" />
		<tag k="ssr:type" v="kommune" />
	</node>
	<node id="-196659" lat="59.3810126473" lon="10.3969970942">
		<tag k="name" v="Sålen" />
		<tag k="ssr:date" v="2019-05-31" />
		<tag k="ssr:gruppe" v="veg" />
		<tag k="ssr:hovedgruppe" v="infrastruktur" />
		<tag k="ssr:stedsnr" v="1044456" />
		<tag k="ssr:type" v="adressenavn" />
	</node>
	<node id="-196850" lat="59.3600199506" lon="10.5102485252">
		<tag k="name" v="Østenskjær" />
		<tag k="ssr:date" v="2018-08-21" />
		<tag k="ssr:gruppe" v="navigasjon" />
		<tag k="ssr:hovedgruppe" v="infrastruktur" />
		<tag k="ssr:stedsnr" v="245539" />
		<tag k="ssr:type" v="fyrlykt" />
	</node>
	<node id="-196889" lat="59.3869879148" lon="10.5038554773">
		<tag k="name" v="Bastøybåen" />
		<tag k="ssr:date" v="2018-08-21" />
		<tag k="ssr:gruppe" v="navigasjon" />
		<tag k="ssr:hovedgruppe" v="infrastruktur" />
		<tag k="ssr:stedsnr" v="480516" />
		<tag k="ssr:type" v="lanterne" />
	</node>
	<node id="-196656" lat="59.3478328234" lon="10.4615609068">
		<tag k="name" v="Toldertunet" />
		<tag k="ssr:date" v="2019-05-31" />
		<tag k="ssr:gruppe" v="veg" />
		<tag k="ssr:hovedgruppe" v="infrastruktur" />
		<tag k="ssr:stedsnr" v="1044176" />
		<tag k="ssr:type" v="adressenavn" />
	</node>
	<node id="-196984" lat="59.3863444411" lon="10.5371055507">
		<tag k="alt_name" v="Bastøy fyr" />
		<tag k="loc_name" v="Bastøy lykt" />
		<tag k="name" v="Bastøy" />
		<tag k="ssr:date" v="2018-08-17" />
		<tag k="ssr:gruppe" v="navigasjon" />
		<tag k="ssr:hovedgruppe" v="infrastruktur" />
		<tag k="ssr:stedsnr" v="669548" />
		<tag k="ssr:type" v="lanterne" />
	</node>
	<node id="-196654" lat="59.4230558191" lon="10.3740661397">
		<tag k="name" v="Sletterødåsen" />
		<tag k="ssr:date" v="2019-05-31" />
		<tag k="ssr:gruppe" v="veg" />
		<tag k="ssr:hovedgruppe" v="infrastruktur" />
		<tag k="ssr:stedsnr" v="1044174" />
		<tag k="ssr:type" v="adressenavn" />
	</node>
	<node id="-196653" lat="59.4179657879" lon="10.4694765555">
		<tag k="name" v="Braarudåsen" />
		<tag k="ssr:date" v="2019-05-31" />
		<tag k="ssr:gruppe" v="veg" />
		<tag k="ssr:hovedgruppe" v="infrastruktur" />
		<tag k="ssr:stedsnr" v="1043518" />
		<tag k="ssr:type" v="adressenavn" />
	</node>
	<node id="-197068" lat="59.4508083321" lon="10.4862833322">
		<tag k="name" v="Østøybåen" />
		<tag k="ssr:date" v="2016-05-11" />
		<tag k="ssr:gruppe" v="navigasjon" />
		<tag k="ssr:hovedgruppe" v="infrastruktur" />
		<tag k="ssr:stedsnr" v="844654" />
		<tag k="ssr:type" v="lysbøye" />
	</node>
	<node id="-197067" lat="59.444599997" lon="10.4842472193">
		<tag k="name" v="Vealøsgapet, v side" />
		<tag k="ssr:date" v="2016-05-11" />
		<tag k="ssr:gruppe" v="navigasjon" />
		<tag k="ssr:hovedgruppe" v="infrastruktur" />
		<tag k="ssr:stedsnr" v="844652" />
		<tag k="ssr:type" v="lysbøye" />
	</node>
	<node id="-196657" lat="59.4149958923" lon="10.4626533123">
		<tag k="name" v="Holtanløkka" />
		<tag k="ssr:date" v="2019-05-31" />
		<tag k="ssr:gruppe" v="veg" />
		<tag k="ssr:hovedgruppe" v="infrastruktur" />
		<tag k="ssr:stedsnr" v="1044355" />
		<tag k="ssr:type" v="adressenavn" />
	</node>
</osm>
