<?xml version="1.0" encoding="UTF-8"?>
<osm version="0.6" generator="osmapis">
	<node id="251763924" lat="60.839732" lon="11.3841413" version="6" timestamp="2022-03-02T07:22:20Z" changeset="118006010" uid="715936" user="Gazer75">
		<tag k="junction" v="yes" />
		<tag k="name" v="Rosetporten" />
		<tag k="ssr:stedsnr" v="534421" />
	</node>
	<node id="338715846" lat="60.7966613" lon="11.3455363" version="6" timestamp="2022-01-31T06:16:31Z" changeset="116806593" uid="3497659" user="NKA">
		<tag k="junction" v="yes" />
		<tag k="name" v="Skjervetangen" />
		<tag k="ssr:stedsnr" v="292581" />
	</node>
	<node id="427836642" lat="60.7878534" lon="11.3330251" version="6" timestamp="2022-02-01T16:51:09Z" changeset="116876628" uid="3497659" user="NKA">
		<tag k="junction" v="yes" />
		<tag k="name" v="Veiberg" />
		<tag k="ssr:stedsnr" v="474925" />
	</node>
	<node id="715755572" lat="60.7900148" lon="11.27305" version="5" timestamp="2022-02-01T16:51:09Z" changeset="116876628" uid="3497659" user="NKA">
		<tag k="junction" v="yes" />
		<tag k="name" v="HÃ¸rsand kryss" />
		<tag k="ssr:stedsnr" v="838404" />
	</node>
	<node id="935065381" lat="60.8701336" lon="11.3712633" version="6" timestamp="2022-03-04T06:20:11Z" changeset="118079493" uid="715936" user="Gazer75">
		<tag k="junction" v="yes" />
		<tag k="name" v="Heimdal" />
		<tag k="ssr:stedsnr" v="170999" />
	</node>
	<node id="3383711215" lat="60.8572713" lon="11.2999797" version="4" timestamp="2022-02-01T16:51:09Z" changeset="116876628" uid="3497659" user="NKA">
		<tag k="junction" v="yes" />
		<tag k="name" v="Reksla" />
		<tag k="ssr:stedsnr" v="474462" />
	</node>
	<node id="7843843557" lat="60.8225587" lon="11.3357419" version="3" timestamp="2022-02-01T16:51:09Z" changeset="116876628" uid="3497659" user="NKA">
		<tag k="junction" v="yes" />
		<tag k="name" v="Venskrysset" />
		<tag k="ssr:stedsnr" v="899476" />
	</node>
</osm>
