<?xml version="1.0" encoding="UTF-8"?>
<osm version="0.6" generator="osmapis">
	<node id="253144605" lat="60.1803022" lon="5.9522417" version="2" timestamp="2022-08-26T06:53:38Z" changeset="125390827" uid="3497659" user="NKA">
		<tag k="name" v="Tegland" />
		<tag k="place" v="farm" />
		<tag k="ssr:stedsnr" v="672494" />
	</node>
	<node id="316441990" lat="60.2708924" lon="6.0115171" version="5" timestamp="2022-08-26T06:53:38Z" changeset="125390827" uid="3497659" user="NKA">
		<tag k="name" v="Strandebarm" />
		<tag k="place" v="village" />
		<tag k="population" v="404" />
		<tag k="population:date" v="2021-01-01" />
		<tag k="ref:ssb_tettsted" v="5145" />
		<tag k="source:population" v="SSB - befolkning i tettstedet" />
		<tag k="ssr:stedsnr" v="990324" />
	</node>
	<node id="316442110" lat="60.3712494" lon="6.145961" version="8" timestamp="2022-08-26T06:53:38Z" changeset="125390827" uid="3497659" user="NKA">
		<tag k="name" v="Norheimsund" />
		<tag k="place" v="village" />
		<tag k="population" v="4503" />
		<tag k="population:date" v="2021-01-01" />
		<tag k="ref:ssb_tettsted" v="5143" />
		<tag k="source:population" v="SSB - befolkning i tettstedet" />
		<tag k="ssr:stedsnr" v="187596" />
	</node>
	<node id="316442306" lat="60.3866989" lon="6.2007983" version="6" timestamp="2022-08-26T06:53:38Z" changeset="125390827" uid="3497659" user="NKA">
		<tag k="name" v="Øystese" />
		<tag k="place" v="village" />
		<tag k="ssr:stedsnr" v="430660" />
	</node>
	<node id="486561539" lat="60.301413" lon="6.1692419" version="2" timestamp="2022-08-26T06:53:38Z" changeset="125390827" uid="3497659" user="NKA">
		<tag k="name" v="Tørvikbygd" />
		<tag k="place" v="village" />
		<tag k="ssr:stedsnr" v="855944" />
	</node>
	<node id="486563402" lat="60.2545439" lon="6.1081909" version="3" timestamp="2022-08-26T06:53:38Z" changeset="125390827" uid="3497659" user="NKA">
		<tag k="name" v="Innstranda" />
		<tag k="place" v="hamlet" />
		<tag k="ssr:stedsnr" v="430748" />
	</node>
	<node id="617838727" lat="60.3497542" lon="5.9748362" version="2" timestamp="2022-08-26T06:53:38Z" changeset="125390827" uid="3497659" user="NKA">
		<tag k="historic" v="shieling" />
		<tag k="name" v="Mødal" />
		<tag k="place" v="hamlet" />
		<tag k="ssr:stedsnr" v="430603" />
	</node>
	<node id="1452951675" lat="60.4015666" lon="6.2689253" version="4" timestamp="2022-08-26T06:53:38Z" changeset="125390827" uid="3497659" user="NKA">
		<tag k="name" v="Fykse" />
		<tag k="place" v="hamlet" />
		<tag k="ssr:stedsnr" v="855178" />
	</node>
	<node id="1503537463" lat="60.1813891" lon="5.8984386" version="2" timestamp="2022-08-26T06:53:38Z" changeset="125390827" uid="3497659" user="NKA">
		<tag k="name" v="Tveit" />
		<tag k="place" v="hamlet" />
		<tag k="ssr:stedsnr" v="5512" />
	</node>
	<node id="2233809877" lat="60.4148987" lon="6.3704395" version="2" timestamp="2022-08-26T06:53:38Z" changeset="125390827" uid="3497659" user="NKA">
		<tag k="alt_name" v="Ålvik, yt" />
		<tag k="name" v="Ytre Ålvik" />
		<tag k="place" v="hamlet" />
		<tag k="ssr:stedsnr" v="127127" />
	</node>
	<node id="2233810204" lat="60.4312911" lon="6.4324249" version="6" timestamp="2022-08-26T06:53:38Z" changeset="125390827" uid="3497659" user="NKA">
		<tag k="alt_name" v="Ålvik, in;Indre Ålvik" />
		<tag k="name" v="Ålvik" />
		<tag k="place" v="village" />
		<tag k="population" v="442" />
		<tag k="population:date" v="2021-01-01" />
		<tag k="ref:ssb_tettsted" v="5141" />
		<tag k="source:population" v="SSB - befolkning i tettstedet" />
		<tag k="ssr:stedsnr" v="551244" />
	</node>
	<node id="3305815046" lat="60.2210588" lon="5.979323" version="2" timestamp="2022-08-26T06:53:38Z" changeset="125390827" uid="3497659" user="NKA">
		<tag k="name" v="Oma" />
		<tag k="place" v="hamlet" />
		<tag k="ssr:stedsnr" v="855740" />
	</node>
	<node id="3305996564" lat="60.3487757" lon="6.1778472" version="3" timestamp="2022-08-26T06:53:38Z" changeset="125390827" uid="3497659" user="NKA">
		<tag k="alt_name" v="Vikøy prestegard" />
		<tag k="name" v="Vikøy" />
		<tag k="place" v="village" />
		<tag k="population" v="369" />
		<tag k="population:date" v="2019-01-01" />
		<tag k="ref:ssb_tettsted" v="5146" />
		<tag k="ssr:stedsnr" v="468033" />
	</node>
	<node id="3797525525" lat="60.4282307" lon="6.161063" version="2" timestamp="2022-08-26T06:53:38Z" changeset="125390827" uid="3497659" user="NKA">
		<tag k="historic" v="shieling" />
		<tag k="name" v="Fitjadalen" />
		<tag k="place" v="hamlet" />
		<tag k="ssr:stedsnr" v="369403" />
	</node>
	<node id="5820089245" lat="60.1646954" lon="5.9079308" version="2" timestamp="2022-08-26T06:53:38Z" changeset="125390827" uid="3497659" user="NKA">
		<tag k="name" v="Mundheim" />
		<tag k="place" v="hamlet" />
		<tag k="ssr:stedsnr" v="125597" />
	</node>
	<node id="6219460064" lat="60.2170104" lon="5.9716822" version="5" timestamp="2022-08-26T06:53:38Z" changeset="125390827" uid="3497659" user="NKA">
		<tag k="name" v="Omastranda" />
		<tag k="place" v="village" />
		<tag k="population" v="213" />
		<tag k="population:date" v="2021-01-01" />
		<tag k="ref:ssb_tettsted" v="5144" />
		<tag k="source:population" v="SSB - befolkning i tettstedet" />
		<tag k="ssr:stedsnr" v="733480" />
	</node>
	<node id="6219460065" lat="60.3928344" lon="6.285048" version="2" timestamp="2022-08-26T06:53:38Z" changeset="125390827" uid="3497659" user="NKA">
		<tag k="name" v="Steinstø" />
		<tag k="place" v="hamlet" />
		<tag k="ssr:stedsnr" v="490173" />
	</node>
	<node id="9979216119" lat="60.2638223" lon="6.0111835" version="1" timestamp="2022-08-26T06:53:38Z" changeset="125390827" uid="3497659" user="NKA">
		<tag k="alt_name" v="Eikeflaten" />
		<tag k="name" v="Eikefloti" />
		<tag k="place" v="farm" />
		<tag k="ssr:stedsnr" v="187767" />
	</node>
	<node id="9979216120" lat="60.2696441" lon="6.0404536" version="1" timestamp="2022-08-26T06:53:38Z" changeset="125390827" uid="3497659" user="NKA">
		<tag k="alt_name" v="Lillefosse;Fosse, l" />
		<tag k="name" v="Litle Fosse" />
		<tag k="place" v="farm" />
		<tag k="ssr:stedsnr" v="187792" />
	</node>
	<node id="9979216121" lat="60.3919639" lon="6.2031391" version="1" timestamp="2022-08-26T06:53:38Z" changeset="125390827" uid="3497659" user="NKA">
		<tag k="name" v="Skårdalen" />
		<tag k="place" v="neighbourhood" />
		<tag k="ssr:stedsnr" v="767194" />
	</node>
	<node id="9979216122" lat="60.2323444" lon="5.9606781" version="1" timestamp="2022-08-26T06:53:38Z" changeset="125390827" uid="3497659" user="NKA">
		<tag k="historic" v="shieling" />
		<tag k="name" v="Nygardsstølen" />
		<tag k="place" v="isolated_dwelling" />
		<tag k="ssr:stedsnr" v="65747" />
	</node>
	<node id="9979216123" lat="60.4847111" lon="6.1566641" version="1" timestamp="2022-08-26T06:53:38Z" changeset="125390827" uid="3497659" user="NKA">
		<tag k="historic" v="shieling" />
		<tag k="name" v="Myrsete" />
		<tag k="place" v="isolated_dwelling" />
		<tag k="ssr:stedsnr" v="794350" />
	</node>
	<node id="9979216124" lat="60.2550775" lon="6.0119978" version="1" timestamp="2022-08-26T06:53:38Z" changeset="125390827" uid="3497659" user="NKA">
		<tag k="name" v="Nymark" />
		<tag k="place" v="locality" />
		<tag k="ssr:stedsnr" v="187784" />
	</node>
	<node id="9979216125" lat="60.4708278" lon="6.097089" version="1" timestamp="2022-08-26T06:53:38Z" changeset="125390827" uid="3497659" user="NKA">
		<tag k="alt_name" v="Solheimdalen" />
		<tag k="historic" v="shieling" />
		<tag k="name" v="Solheimedalen" />
		<tag k="place" v="isolated_dwelling" />
		<tag k="ssr:stedsnr" v="915332" />
	</node>
	<node id="9979216126" lat="60.3630474" lon="6.0948552" version="1" timestamp="2022-08-26T06:53:38Z" changeset="125390827" uid="3497659" user="NKA">
		<tag k="name" v="Trones" />
		<tag k="place" v="farm" />
		<tag k="ssr:stedsnr" v="551607" />
	</node>
	<node id="9979216127" lat="60.2696305" lon="5.9968836" version="1" timestamp="2022-08-26T06:53:38Z" changeset="125390827" uid="3497659" user="NKA">
		<tag k="loc_name" v="Skotet" />
		<tag k="name" v="Skåte" />
		<tag k="place" v="farm" />
		<tag k="ssr:stedsnr" v="43649" />
	</node>
	<node id="9979216128" lat="60.3457055" lon="6.1915613" version="1" timestamp="2022-08-26T06:53:38Z" changeset="125390827" uid="3497659" user="NKA">
		<tag k="name" v="Sørheim" />
		<tag k="place" v="farm" />
		<tag k="ssr:stedsnr" v="551545" />
	</node>
	<node id="9979216129" lat="60.4751046" lon="6.2100813" version="1" timestamp="2022-08-26T06:53:38Z" changeset="125390827" uid="3497659" user="NKA">
		<tag k="name" v="Haugen" />
		<tag k="place" v="farm" />
		<tag k="ssr:stedsnr" v="468005" />
	</node>
	<node id="9979216130" lat="60.3711466" lon="6.158164" version="1" timestamp="2022-08-26T06:53:38Z" changeset="125390827" uid="3497659" user="NKA">
		<tag k="name" v="Seljenes" />
		<tag k="place" v="farm" />
		<tag k="ssr:stedsnr" v="894158" />
	</node>
	<node id="9979216131" lat="60.3853303" lon="6.19198" version="1" timestamp="2022-08-26T06:53:38Z" changeset="125390827" uid="3497659" user="NKA">
		<tag k="alt_name" v="Vik Øvre" />
		<tag k="name" v="Øvre Vik" />
		<tag k="place" v="farm" />
		<tag k="ssr:stedsnr" v="894114" />
	</node>
	<node id="9979216132" lat="60.4624111" lon="6.2820919" version="1" timestamp="2022-08-26T06:53:38Z" changeset="125390827" uid="3497659" user="NKA">
		<tag k="name" v="Kastdalen" />
		<tag k="place" v="locality" />
		<tag k="ssr:stedsnr" v="5215" />
	</node>
	<node id="9979216133" lat="60.2781589" lon="6.0013729" version="1" timestamp="2022-08-26T06:53:38Z" changeset="125390827" uid="3497659" user="NKA">
		<tag k="name" v="Teigen" />
		<tag k="place" v="farm" />
		<tag k="ssr:stedsnr" v="43634" />
	</node>
	<node id="9979216134" lat="60.4709639" lon="6.2487503" version="1" timestamp="2022-08-26T06:53:38Z" changeset="125390827" uid="3497659" user="NKA">
		<tag k="name" v="Midtstølen" />
		<tag k="place" v="locality" />
		<tag k="ssr:stedsnr" v="794772" />
	</node>
	<node id="9979216135" lat="60.3914139" lon="5.9660808" version="1" timestamp="2022-08-26T06:53:38Z" changeset="125390827" uid="3497659" user="NKA">
		<tag k="name" v="Dalen" />
		<tag k="place" v="neighbourhood" />
		<tag k="ssr:stedsnr" v="403137" />
	</node>
	<node id="9979216136" lat="60.2172361" lon="5.9469281" version="1" timestamp="2022-08-26T06:53:38Z" changeset="125390827" uid="3497659" user="NKA">
		<tag k="historic" v="shieling" />
		<tag k="name" v="Nystøl" />
		<tag k="place" v="isolated_dwelling" />
		<tag k="ssr:stedsnr" v="43660" />
	</node>
	<node id="9979216137" lat="60.4766759" lon="6.2025739" version="1" timestamp="2022-08-26T06:53:38Z" changeset="125390827" uid="3497659" user="NKA">
		<tag k="name" v="Røyneflåten" />
		<tag k="place" v="farm" />
		<tag k="ssr:stedsnr" v="712377" />
	</node>
	<node id="9979216138" lat="60.3974949" lon="6.2596133" version="1" timestamp="2022-08-26T06:53:38Z" changeset="125390827" uid="3497659" user="NKA">
		<tag k="name" v="Strandvik" />
		<tag k="place" v="farm" />
		<tag k="ssr:stedsnr" v="987881" />
	</node>
	<node id="9979216139" lat="60.3867694" lon="6.1048752" version="1" timestamp="2022-08-26T06:53:38Z" changeset="125390827" uid="3497659" user="NKA">
		<tag k="historic" v="shieling" />
		<tag k="name" v="Alkleiv" />
		<tag k="place" v="isolated_dwelling" />
		<tag k="ssr:stedsnr" v="369650" />
	</node>
	<node id="9979216140" lat="60.3655472" lon="6.0707669" version="1" timestamp="2022-08-26T06:53:38Z" changeset="125390827" uid="3497659" user="NKA">
		<tag k="name" v="Nygård" />
		<tag k="place" v="farm" />
		<tag k="ssr:stedsnr" v="408797" />
	</node>
	<node id="9979216141" lat="60.47595" lon="6.2058808" version="1" timestamp="2022-08-26T06:53:38Z" changeset="125390827" uid="3497659" user="NKA">
		<tag k="name" v="Træet" />
		<tag k="place" v="farm" />
		<tag k="ssr:stedsnr" v="187374" />
	</node>
	<node id="9979216142" lat="60.4473" lon="6.4580501" version="1" timestamp="2022-08-26T06:53:38Z" changeset="125390827" uid="3497659" user="NKA">
		<tag k="historic" v="shieling" />
		<tag k="name" v="Båsgjelstølen" />
		<tag k="place" v="isolated_dwelling" />
		<tag k="ssr:stedsnr" v="794221" />
	</node>
	<node id="9979216143" lat="60.369533" lon="6.1198253" version="1" timestamp="2022-08-26T06:53:38Z" changeset="125390827" uid="3497659" user="NKA">
		<tag k="name" v="Mo" />
		<tag k="place" v="hamlet" />
		<tag k="ssr:stedsnr" v="916678" />
	</node>
	<node id="9979216144" lat="60.3751361" lon="6.1212558" version="1" timestamp="2022-08-26T06:53:38Z" changeset="125390827" uid="3497659" user="NKA">
		<tag k="name" v="Nesthus" />
		<tag k="place" v="farm" />
		<tag k="ssr:stedsnr" v="369596" />
	</node>
	<node id="9979216145" lat="60.4638111" lon="6.3693252" version="1" timestamp="2022-08-26T06:53:38Z" changeset="125390827" uid="3497659" user="NKA">
		<tag k="historic" v="shieling" />
		<tag k="name" v="Bjølsegrostølen" />
		<tag k="place" v="isolated_dwelling" />
		<tag k="ssr:stedsnr" v="915189" />
	</node>
	<node id="9979216146" lat="60.3486611" lon="6.1910753" version="1" timestamp="2022-08-26T06:53:38Z" changeset="125390827" uid="3497659" user="NKA">
		<tag k="name" v="Nesheim" />
		<tag k="place" v="farm" />
		<tag k="ssr:stedsnr" v="430557" />
	</node>
	<node id="9979216147" lat="60.4084167" lon="6.1622836" version="1" timestamp="2022-08-26T06:53:38Z" changeset="125390827" uid="3497659" user="NKA">
		<tag k="name" v="Klubben" />
		<tag k="place" v="farm" />
		<tag k="ssr:stedsnr" v="833170" />
	</node>
	<node id="9979216148" lat="60.3663861" lon="6.076078" version="1" timestamp="2022-08-26T06:53:38Z" changeset="125390827" uid="3497659" user="NKA">
		<tag k="name" v="Øyjorda" />
		<tag k="place" v="farm" />
		<tag k="ssr:stedsnr" v="287801" />
	</node>
	<node id="9979216149" lat="60.4061028" lon="6.2817307" version="1" timestamp="2022-08-26T06:53:38Z" changeset="125390827" uid="3497659" user="NKA">
		<tag k="historic" v="shieling" />
		<tag k="name" v="Sjusete" />
		<tag k="place" v="isolated_dwelling" />
		<tag k="ssr:stedsnr" v="942746" />
	</node>
	<node id="9979216150" lat="60.386945" lon="6.1474221" version="1" timestamp="2022-08-26T06:53:38Z" changeset="125390827" uid="3497659" user="NKA">
		<tag k="name" v="Åsheim" />
		<tag k="place" v="farm" />
		<tag k="ssr:stedsnr" v="248715" />
	</node>
	<node id="9979216151" lat="60.4336528" lon="6.4463029" version="1" timestamp="2022-08-26T06:53:38Z" changeset="125390827" uid="3497659" user="NKA">
		<tag k="name" v="Auganes" />
		<tag k="old_name" v="Huganes" />
		<tag k="place" v="farm" />
		<tag k="ssr:stedsnr" v="491221" />
	</node>
	<node id="9979216152" lat="60.4192833" lon="6.2448531" version="1" timestamp="2022-08-26T06:53:38Z" changeset="125390827" uid="3497659" user="NKA">
		<tag k="name" v="Sundheim" />
		<tag k="place" v="farm" />
		<tag k="ssr:stedsnr" v="772022" />
	</node>
	<node id="9979216153" lat="60.4376088" lon="6.4627499" version="1" timestamp="2022-08-26T06:53:38Z" changeset="125390827" uid="3497659" user="NKA">
		<tag k="alt_name" v="Vesle Tveit;Lilletveit" />
		<tag k="name" v="Litletveit" />
		<tag k="place" v="farm" />
		<tag k="ssr:stedsnr" v="248234" />
	</node>
	<node id="9979216154" lat="60.313275" lon="6.1677559" version="1" timestamp="2022-08-26T06:53:38Z" changeset="125390827" uid="3497659" user="NKA">
		<tag k="name" v="Gamlehamnen" />
		<tag k="place" v="farm" />
		<tag k="ssr:stedsnr" v="226923" />
	</node>
	<node id="9979216155" lat="60.366071" lon="6.1732633" version="1" timestamp="2022-08-26T06:53:38Z" changeset="125390827" uid="3497659" user="NKA">
		<tag k="name" v="Valland" />
		<tag k="place" v="hamlet" />
		<tag k="ssr:stedsnr" v="734659" />
	</node>
	<node id="9979216156" lat="60.3659806" lon="6.1012284" version="1" timestamp="2022-08-26T06:53:38Z" changeset="125390827" uid="3497659" user="NKA">
		<tag k="name" v="Årtun" />
		<tag k="place" v="farm" />
		<tag k="ssr:stedsnr" v="165815" />
	</node>
	<node id="9979216157" lat="60.3696338" lon="6.105973" version="1" timestamp="2022-08-26T06:53:38Z" changeset="125390827" uid="3497659" user="NKA">
		<tag k="name" v="Øvsthus" />
		<tag k="place" v="village" />
		<tag k="ssr:stedsnr" v="733619" />
	</node>
	<node id="9979216158" lat="60.4445527" lon="6.4831058" version="1" timestamp="2022-08-26T06:53:38Z" changeset="125390827" uid="3497659" user="NKA">
		<tag k="name" v="Kjepso" />
		<tag k="place" v="hamlet" />
		<tag k="ssr:stedsnr" v="66226" />
	</node>
	<node id="9979216159" lat="60.3187111" lon="6.1249031" version="1" timestamp="2022-08-26T06:53:38Z" changeset="125390827" uid="3497659" user="NKA">
		<tag k="historic" v="shieling" />
		<tag k="name" v="Grøndalen" />
		<tag k="place" v="isolated_dwelling" />
		<tag k="ssr:stedsnr" v="126992" />
	</node>
	<node id="9979216160" lat="60.4271028" lon="6.1700947" version="1" timestamp="2022-08-26T06:53:38Z" changeset="125390827" uid="3497659" user="NKA">
		<tag k="historic" v="shieling" />
		<tag k="name" v="Liland" />
		<tag k="place" v="isolated_dwelling" />
		<tag k="ssr:stedsnr" v="187413" />
	</node>
	<node id="9979216161" lat="60.4092812" lon="6.2418507" version="1" timestamp="2022-08-26T06:53:38Z" changeset="125390827" uid="3497659" user="NKA">
		<tag k="name" v="Nylebø" />
		<tag k="place" v="farm" />
		<tag k="ssr:stedsnr" v="712022" />
	</node>
	<node id="9979216162" lat="60.4362277" lon="6.1357918" version="1" timestamp="2022-08-26T06:53:38Z" changeset="125390827" uid="3497659" user="NKA">
		<tag k="alt_name" v="Flatebotnane" />
		<tag k="historic" v="shieling" />
		<tag k="name" v="Botnane" />
		<tag k="place" v="isolated_dwelling" />
		<tag k="ssr:stedsnr" v="672433" />
	</node>
	<node id="9979216163" lat="60.3578417" lon="6.1341002" version="1" timestamp="2022-08-26T06:53:38Z" changeset="125390827" uid="3497659" user="NKA">
		<tag k="historic" v="shieling" />
		<tag k="name" v="Nystølen" />
		<tag k="place" v="isolated_dwelling" />
		<tag k="ssr:stedsnr" v="611613" />
	</node>
	<node id="9979216164" lat="60.4080861" lon="6.211617" version="1" timestamp="2022-08-26T06:53:38Z" changeset="125390827" uid="3497659" user="NKA">
		<tag k="name" v="Kampen" />
		<tag k="place" v="farm" />
		<tag k="ssr:stedsnr" v="612745" />
	</node>
	<node id="9979216165" lat="60.3661555" lon="6.0753336" version="1" timestamp="2022-08-26T06:53:38Z" changeset="125390827" uid="3497659" user="NKA">
		<tag k="name" v="Øyjordi" />
		<tag k="place" v="farm" />
		<tag k="ssr:stedsnr" v="612654" />
	</node>
	<node id="9979216166" lat="60.3794889" lon="6.1890892" version="1" timestamp="2022-08-26T06:53:38Z" changeset="125390827" uid="3497659" user="NKA">
		<tag k="name" v="Borge" />
		<tag k="place" v="farm" />
		<tag k="ssr:stedsnr" v="915649" />
	</node>
	<node id="9979216167" lat="60.3594556" lon="6.0693336" version="1" timestamp="2022-08-26T06:53:38Z" changeset="125390827" uid="3497659" user="NKA">
		<tag k="alt_name" v="Byrkjeland, øvre;Byrkjeland" />
		<tag k="name" v="Øvre Byrkjeland" />
		<tag k="place" v="farm" />
		<tag k="ssr:stedsnr" v="491623" />
	</node>
	<node id="9979216168" lat="60.4541084" lon="6.4906752" version="1" timestamp="2022-08-26T06:53:38Z" changeset="125390827" uid="3497659" user="NKA">
		<tag k="historic" v="shieling" />
		<tag k="name" v="Kjepsostølen" />
		<tag k="place" v="isolated_dwelling" />
		<tag k="ssr:stedsnr" v="855251" />
	</node>
	<node id="9979216169" lat="60.3112147" lon="6.1259101" version="1" timestamp="2022-08-26T06:53:38Z" changeset="125390827" uid="3497659" user="NKA">
		<tag k="historic" v="shieling" />
		<tag k="name" v="Liasete" />
		<tag k="place" v="isolated_dwelling" />
		<tag k="ssr:stedsnr" v="126940" />
	</node>
	<node id="9979216170" lat="60.3754889" lon="6.2003446" version="1" timestamp="2022-08-26T06:53:38Z" changeset="125390827" uid="3497659" user="NKA">
		<tag k="name" v="Råi" />
		<tag k="place" v="farm" />
		<tag k="ssr:stedsnr" v="953914" />
	</node>
	<node id="9979216171" lat="60.4113083" lon="6.1828169" version="1" timestamp="2022-08-26T06:53:38Z" changeset="125390827" uid="3497659" user="NKA">
		<tag k="historic" v="shieling" />
		<tag k="name" v="Sælesete" />
		<tag k="place" v="isolated_dwelling" />
		<tag k="ssr:stedsnr" v="529056" />
	</node>
	<node id="9979216172" lat="60.3187345" lon="5.9817218" version="1" timestamp="2022-08-26T06:53:38Z" changeset="125390827" uid="3497659" user="NKA">
		<tag k="historic" v="shieling" />
		<tag k="name" v="Dalsete" />
		<tag k="place" v="isolated_dwelling" />
		<tag k="ssr:stedsnr" v="187978" />
	</node>
	<node id="9979216173" lat="60.3593866" lon="6.0856771" version="1" timestamp="2022-08-26T06:53:38Z" changeset="125390827" uid="3497659" user="NKA">
		<tag k="name" v="Midtun" />
		<tag k="place" v="farm" />
		<tag k="ssr:stedsnr" v="430616" />
	</node>
	<node id="9979216174" lat="60.3800369" lon="6.2023834" version="1" timestamp="2022-08-26T06:53:38Z" changeset="125390827" uid="3497659" user="NKA">
		<tag k="name" v="Lundanes" />
		<tag k="place" v="hamlet" />
		<tag k="ssr:stedsnr" v="699332" />
	</node>
	<node id="9979216175" lat="60.3674014" lon="6.1876193" version="1" timestamp="2022-08-26T06:53:38Z" changeset="125390827" uid="3497659" user="NKA">
		<tag k="name" v="Nes" />
		<tag k="place" v="hamlet" />
		<tag k="ssr:stedsnr" v="794624" />
	</node>
	<node id="9979216176" lat="60.4718805" lon="6.234528" version="1" timestamp="2022-08-26T06:53:38Z" changeset="125390827" uid="3497659" user="NKA">
		<tag k="historic" v="shieling" />
		<tag k="name" v="Gamlestølen" />
		<tag k="place" v="isolated_dwelling" />
		<tag k="ssr:stedsnr" v="916800" />
	</node>
	<node id="9979216177" lat="60.3165" lon="6.1236141" version="1" timestamp="2022-08-26T06:53:38Z" changeset="125390827" uid="3497659" user="NKA">
		<tag k="historic" v="shieling" />
		<tag k="name" v="Osadal" />
		<tag k="place" v="isolated_dwelling" />
		<tag k="ssr:stedsnr" v="187993" />
	</node>
	<node id="9979216178" lat="60.4011528" lon="6.1111642" version="1" timestamp="2022-08-26T06:53:38Z" changeset="125390827" uid="3497659" user="NKA">
		<tag k="historic" v="shieling" />
		<tag k="name" v="Krok" />
		<tag k="place" v="isolated_dwelling" />
		<tag k="ssr:stedsnr" v="187690" />
	</node>
	<node id="9979216179" lat="60.3716083" lon="6.1969029" version="1" timestamp="2022-08-26T06:53:38Z" changeset="125390827" uid="3497659" user="NKA">
		<tag k="name" v="Børve" />
		<tag k="place" v="hamlet" />
		<tag k="ssr:stedsnr" v="674616" />
	</node>
	<node id="9979216180" lat="60.3100028" lon="6.1557142" version="1" timestamp="2022-08-26T06:53:38Z" changeset="125390827" uid="3497659" user="NKA">
		<tag k="alt_name" v="Tuften" />
		<tag k="name" v="Tufto" />
		<tag k="place" v="farm" />
		<tag k="ssr:stedsnr" v="187955" />
	</node>
	<node id="9979216181" lat="60.3769777" lon="6.1308003" version="1" timestamp="2022-08-26T06:53:38Z" changeset="125390827" uid="3497659" user="NKA">
		<tag k="name" v="Skutlaberg" />
		<tag k="place" v="farm" />
		<tag k="ssr:stedsnr" v="490678" />
	</node>
	<node id="9979216182" lat="60.3980638" lon="6.2840726" version="1" timestamp="2022-08-26T06:53:38Z" changeset="125390827" uid="3497659" user="NKA">
		<tag k="name" v="Bjørke" />
		<tag k="place" v="hamlet" />
		<tag k="ssr:stedsnr" v="369174" />
	</node>
	<node id="9979216183" lat="60.3779778" lon="6.1429807" version="1" timestamp="2022-08-26T06:53:38Z" changeset="125390827" uid="3497659" user="NKA">
		<tag k="name" v="Solberg" />
		<tag k="place" v="farm" />
		<tag k="ssr:stedsnr" v="187639" />
	</node>
	<node id="9979216184" lat="60.3406026" lon="6.2138146" version="1" timestamp="2022-08-26T06:53:38Z" changeset="125390827" uid="3497659" user="NKA">
		<tag k="name" v="Fonnaland" />
		<tag k="place" v="hamlet" />
		<tag k="ssr:stedsnr" v="126536" />
	</node>
	<node id="9979216185" lat="60.3854" lon="6.1839502" version="1" timestamp="2022-08-26T06:53:38Z" changeset="125390827" uid="3497659" user="NKA">
		<tag k="name" v="Mo" />
		<tag k="place" v="hamlet" />
		<tag k="ssr:stedsnr" v="490674" />
	</node>
	<node id="9979216186" lat="60.3861135" lon="6.2198703" version="1" timestamp="2022-08-26T06:53:38Z" changeset="125390827" uid="3497659" user="NKA">
		<tag k="name" v="Torpe" />
		<tag k="place" v="farm" />
		<tag k="ssr:stedsnr" v="369617" />
	</node>
	<node id="9979216187" lat="60.4156806" lon="6.193653" version="1" timestamp="2022-08-26T06:53:38Z" changeset="125390827" uid="3497659" user="NKA">
		<tag k="historic" v="shieling" />
		<tag k="loc_name" v="Klippet" />
		<tag k="name" v="Klipet" />
		<tag k="place" v="isolated_dwelling" />
		<tag k="ssr:stedsnr" v="187454" />
	</node>
	<node id="9979216188" lat="60.34225" lon="6.1822168" version="1" timestamp="2022-08-26T06:53:38Z" changeset="125390827" uid="3497659" user="NKA">
		<tag k="name" v="Byrkjeland" />
		<tag k="place" v="hamlet" />
		<tag k="ssr:stedsnr" v="308549" />
	</node>
	<node id="9979216189" lat="60.4202417" lon="6.2675891" version="1" timestamp="2022-08-26T06:53:38Z" changeset="125390827" uid="3497659" user="NKA">
		<tag k="historic" v="shieling" />
		<tag k="name" v="Telstøstølen" />
		<tag k="place" v="isolated_dwelling" />
		<tag k="ssr:stedsnr" v="248142" />
	</node>
	<node id="9979216190" lat="60.3272426" lon="6.1983571" version="1" timestamp="2022-08-26T06:53:38Z" changeset="125390827" uid="3497659" user="NKA">
		<tag k="name" v="Stien" />
		<tag k="place" v="farm" />
		<tag k="ssr:stedsnr" v="308468" />
	</node>
	<node id="9979216191" lat="60.4055058" lon="6.2626614" version="1" timestamp="2022-08-26T06:53:38Z" changeset="125390827" uid="3497659" user="NKA">
		<tag k="name" v="Brunnen" />
		<tag k="place" v="farm" />
		<tag k="ssr:stedsnr" v="105014" />
	</node>
	<node id="9979216192" lat="60.4039612" lon="6.1555753" version="1" timestamp="2022-08-26T06:53:38Z" changeset="125390827" uid="3497659" user="NKA">
		<tag k="historic" v="shieling" />
		<tag k="name" v="Nystøl" />
		<tag k="place" v="isolated_dwelling" />
		<tag k="ssr:stedsnr" v="5736" />
	</node>
	<node id="9979216193" lat="60.3937834" lon="6.1881696" version="1" timestamp="2022-08-26T06:53:38Z" changeset="125390827" uid="3497659" user="NKA">
		<tag k="name" v="Løyning" />
		<tag k="place" v="farm" />
		<tag k="ssr:stedsnr" v="651093" />
	</node>
	<node id="9979216194" lat="60.4282167" lon="6.196603" version="1" timestamp="2022-08-26T06:53:38Z" changeset="125390827" uid="3497659" user="NKA">
		<tag k="historic" v="shieling" />
		<tag k="name" v="Hyrting" />
		<tag k="place" v="isolated_dwelling" />
		<tag k="ssr:stedsnr" v="126435" />
	</node>
	<node id="9979216195" lat="60.3341667" lon="6.1526891" version="1" timestamp="2022-08-26T06:53:38Z" changeset="125390827" uid="3497659" user="NKA">
		<tag k="historic" v="shieling" />
		<tag k="name" v="Stuvastølen" />
		<tag k="place" v="isolated_dwelling" />
		<tag k="ssr:stedsnr" v="187515" />
	</node>
	<node id="9979216196" lat="60.4079778" lon="6.1983141" version="1" timestamp="2022-08-26T06:53:38Z" changeset="125390827" uid="3497659" user="NKA">
		<tag k="name" v="Tegland" />
		<tag k="place" v="farm" />
		<tag k="ssr:stedsnr" v="66725" />
	</node>
	<node id="9979216197" lat="60.40315" lon="6.1879335" version="1" timestamp="2022-08-26T06:53:38Z" changeset="125390827" uid="3497659" user="NKA">
		<tag k="historic" v="shieling" />
		<tag k="name" v="Skisete" />
		<tag k="place" v="isolated_dwelling" />
		<tag k="ssr:stedsnr" v="5699" />
	</node>
	<node id="9979216198" lat="60.3568028" lon="6.132903" version="1" timestamp="2022-08-26T06:53:38Z" changeset="125390827" uid="3497659" user="NKA">
		<tag k="historic" v="shieling" />
		<tag k="name" v="Øystøl" />
		<tag k="place" v="isolated_dwelling" />
		<tag k="ssr:stedsnr" v="881244" />
	</node>
	<node id="9979216199" lat="60.471739" lon="6.2119095" version="1" timestamp="2022-08-26T06:53:38Z" changeset="125390827" uid="3497659" user="NKA">
		<tag k="name" v="Botnen" />
		<tag k="place" v="hamlet" />
		<tag k="ssr:stedsnr" v="855399" />
	</node>
	<node id="9979216200" lat="60.3587806" lon="6.0752918" version="1" timestamp="2022-08-26T06:53:38Z" changeset="125390827" uid="3497659" user="NKA">
		<tag k="alt_name" v="Byrkjeland, nedre" />
		<tag k="name" v="Nedre Byrkjeland" />
		<tag k="place" v="farm" />
		<tag k="ssr:stedsnr" v="66588" />
	</node>
	<node id="9979216201" lat="60.4000854" lon="6.2579207" version="1" timestamp="2022-08-26T06:53:38Z" changeset="125390827" uid="3497659" user="NKA">
		<tag k="alt_name" v="Nygård" />
		<tag k="name" v="Nygard" />
		<tag k="place" v="farm" />
		<tag k="ssr:stedsnr" v="651104" />
	</node>
	<node id="9979216202" lat="60.3591771" lon="6.1163246" version="1" timestamp="2022-08-26T06:53:38Z" changeset="125390827" uid="3497659" user="NKA">
		<tag k="historic" v="shieling" />
		<tag k="name" v="Liastøl" />
		<tag k="place" v="isolated_dwelling" />
		<tag k="ssr:stedsnr" v="66595" />
	</node>
	<node id="9979216203" lat="60.4061833" lon="6.2686668" version="1" timestamp="2022-08-26T06:53:38Z" changeset="125390827" uid="3497659" user="NKA">
		<tag k="name" v="Nipen" />
		<tag k="place" v="farm" />
		<tag k="ssr:stedsnr" v="651107" />
	</node>
	<node id="9979216204" lat="60.3685083" lon="6.1787864" version="1" timestamp="2022-08-26T06:53:38Z" changeset="125390827" uid="3497659" user="NKA">
		<tag k="name" v="Skipadalen" />
		<tag k="place" v="farm" />
		<tag k="ssr:stedsnr" v="733605" />
	</node>
	<node id="9979216205" lat="60.3489056" lon="6.1889142" version="1" timestamp="2022-08-26T06:53:38Z" changeset="125390827" uid="3497659" user="NKA">
		<tag k="name" v="Haugen" />
		<tag k="place" v="farm" />
		<tag k="ssr:stedsnr" v="66529" />
	</node>
	<node id="9979216206" lat="60.2935361" lon="6.015978" version="1" timestamp="2022-08-26T06:53:38Z" changeset="125390827" uid="3497659" user="NKA">
		<tag k="name" v="Sjusete" />
		<tag k="place" v="farm" />
		<tag k="ssr:stedsnr" v="916931" />
	</node>
	<node id="9979216207" lat="60.3714747" lon="6.1097022" version="1" timestamp="2022-08-26T06:53:38Z" changeset="125390827" uid="3497659" user="NKA">
		<tag k="name" v="Århus" />
		<tag k="place" v="farm" />
		<tag k="ssr:stedsnr" v="66628" />
	</node>
	<node id="9979216208" lat="60.3476167" lon="6.1734696" version="1" timestamp="2022-08-26T06:53:38Z" changeset="125390827" uid="3497659" user="NKA">
		<tag k="name" v="Teigen" />
		<tag k="place" v="farm" />
		<tag k="ssr:stedsnr" v="66552" />
	</node>
	<node id="9979216209" lat="60.3353982" lon="6.2126039" version="1" timestamp="2022-08-26T06:53:38Z" changeset="125390827" uid="3497659" user="NKA">
		<tag k="alt_name" v="Aksnes, nedre" />
		<tag k="name" v="Nedre Aksnes" />
		<tag k="place" v="farm" />
		<tag k="ssr:stedsnr" v="66514" />
	</node>
	<node id="9979216210" lat="60.3117219" lon="6.0412527" version="1" timestamp="2022-08-26T06:53:38Z" changeset="125390827" uid="3497659" user="NKA">
		<tag k="historic" v="shieling" />
		<tag k="name" v="Nysete" />
		<tag k="place" v="isolated_dwelling" />
		<tag k="ssr:stedsnr" v="794979" />
	</node>
	<node id="9979216211" lat="60.344275" lon="6.1925196" version="1" timestamp="2022-08-26T06:53:38Z" changeset="125390827" uid="3497659" user="NKA">
		<tag k="name" v="Ospelund" />
		<tag k="place" v="farm" />
		<tag k="ssr:stedsnr" v="66527" />
	</node>
	<node id="9979216212" lat="60.4296473" lon="6.2112808" version="1" timestamp="2022-08-26T06:53:38Z" changeset="125390827" uid="3497659" user="NKA">
		<tag k="historic" v="shieling" />
		<tag k="name" v="Skorsete" />
		<tag k="place" v="isolated_dwelling" />
		<tag k="ssr:stedsnr" v="248426" />
	</node>
	<node id="9979216213" lat="60.33665" lon="6.1581779" version="1" timestamp="2022-08-26T06:53:38Z" changeset="125390827" uid="3497659" user="NKA">
		<tag k="historic" v="shieling" />
		<tag k="name" v="Aksnesholten" />
		<tag k="place" v="isolated_dwelling" />
		<tag k="ssr:stedsnr" v="66521" />
	</node>
	<node id="9979216214" lat="60.4157139" lon="6.0830752" version="1" timestamp="2022-08-26T06:53:38Z" changeset="125390827" uid="3497659" user="NKA">
		<tag k="historic" v="shieling" />
		<tag k="name" v="Vatnadalen" />
		<tag k="place" v="isolated_dwelling" />
		<tag k="ssr:stedsnr" v="66452" />
	</node>
	<node id="9979216215" lat="60.366975" lon="6.1089141" version="1" timestamp="2022-08-26T06:53:38Z" changeset="125390827" uid="3497659" user="NKA">
		<tag k="name" v="Nestås" />
		<tag k="place" v="farm" />
		<tag k="ssr:stedsnr" v="44770" />
	</node>
	<node id="9979216216" lat="60.372125" lon="6.0642919" version="1" timestamp="2022-08-26T06:53:38Z" changeset="125390827" uid="3497659" user="NKA">
		<tag k="historic" v="shieling" />
		<tag k="name" v="Furekamben" />
		<tag k="place" v="isolated_dwelling" />
		<tag k="ssr:stedsnr" v="733620" />
	</node>
	<node id="9979218417" lat="60.391015" lon="6.1281125" version="1" timestamp="2022-08-26T06:53:38Z" changeset="125390827" uid="3497659" user="NKA">
		<tag k="historic" v="shieling" />
		<tag k="name" v="Sjusete" />
		<tag k="place" v="hamlet" />
		<tag k="ssr:stedsnr" v="517705" />
	</node>
	<node id="9979218418" lat="60.3421055" lon="6.0897613" version="1" timestamp="2022-08-26T06:53:38Z" changeset="125390827" uid="3497659" user="NKA">
		<tag k="historic" v="shieling" />
		<tag k="name" v="Kjoshella" />
		<tag k="place" v="isolated_dwelling" />
		<tag k="ssr:stedsnr" v="612585" />
	</node>
	<node id="9979218419" lat="60.3671675" lon="6.1449725" version="1" timestamp="2022-08-26T06:53:38Z" changeset="125390827" uid="3497659" user="NKA">
		<tag k="alt_name" v="Sandvin" />
		<tag k="name" v="Sandven" />
		<tag k="place" v="quarter" />
		<tag k="ssr:stedsnr" v="551645" />
	</node>
	<node id="9979218420" lat="60.3697555" lon="6.1959197" version="1" timestamp="2022-08-26T06:53:38Z" changeset="125390827" uid="3497659" user="NKA">
		<tag k="name" v="Sollund" />
		<tag k="place" v="farm" />
		<tag k="ssr:stedsnr" v="43944" />
	</node>
	<node id="9979218421" lat="60.4116362" lon="6.2041336" version="1" timestamp="2022-08-26T06:53:38Z" changeset="125390827" uid="3497659" user="NKA">
		<tag k="name" v="Aldalen" />
		<tag k="place" v="farm" />
		<tag k="ssr:stedsnr" v="551745" />
	</node>
	<node id="9979218422" lat="60.42495" lon="6.2391419" version="1" timestamp="2022-08-26T06:53:38Z" changeset="125390827" uid="3497659" user="NKA">
		<tag k="name" v="Eikane" />
		<tag k="place" v="farm" />
		<tag k="ssr:stedsnr" v="894453" />
	</node>
	<node id="9979218423" lat="60.380178" lon="6.2332128" version="1" timestamp="2022-08-26T06:53:38Z" changeset="125390827" uid="3497659" user="NKA">
		<tag k="name" v="Kalvhageneset" />
		<tag k="place" v="farm" />
		<tag k="ssr:stedsnr" v="456330" />
	</node>
	<node id="9979218424" lat="60.350455" lon="6.1818755" version="1" timestamp="2022-08-26T06:53:38Z" changeset="125390827" uid="3497659" user="NKA">
		<tag k="name" v="Framnes" />
		<tag k="place" v="farm" />
		<tag k="ssr:stedsnr" v="43031" />
	</node>
	<node id="9979218425" lat="60.39585" lon="6.1755918" version="1" timestamp="2022-08-26T06:53:38Z" changeset="125390827" uid="3497659" user="NKA">
		<tag k="name" v="Austlid" />
		<tag k="place" v="farm" />
		<tag k="ssr:stedsnr" v="44075" />
	</node>
	<node id="9979218426" lat="60.23815" lon="5.961078" version="1" timestamp="2022-08-26T06:53:38Z" changeset="125390827" uid="3497659" user="NKA">
		<tag k="historic" v="shieling" />
		<tag k="name" v="Nyasete" />
		<tag k="place" v="isolated_dwelling" />
		<tag k="ssr:stedsnr" v="611756" />
	</node>
	<node id="9979218427" lat="60.2125909" lon="5.9610817" version="1" timestamp="2022-08-26T06:53:38Z" changeset="125390827" uid="3497659" user="NKA">
		<tag k="name" v="Vika" />
		<tag k="place" v="hamlet" />
		<tag k="ssr:stedsnr" v="611523" />
	</node>
	<node id="9979218428" lat="60.3690107" lon="6.1801178" version="1" timestamp="2022-08-26T06:53:38Z" changeset="125390827" uid="3497659" user="NKA">
		<tag k="name" v="Heimstad" />
		<tag k="place" v="farm" />
		<tag k="ssr:stedsnr" v="893934" />
	</node>
	<node id="9979218429" lat="60.3339231" lon="6.2108975" version="1" timestamp="2022-08-26T06:53:38Z" changeset="125390827" uid="3497659" user="NKA">
		<tag k="name" v="Aksnes" />
		<tag k="place" v="hamlet" />
		<tag k="ssr:stedsnr" v="408414" />
	</node>
	<node id="9979218430" lat="60.4170849" lon="6.2301989" version="1" timestamp="2022-08-26T06:53:38Z" changeset="125390827" uid="3497659" user="NKA">
		<tag k="alt_name" v="Skåre" />
		<tag k="name" v="Skore" />
		<tag k="place" v="hamlet" />
		<tag k="ssr:stedsnr" v="295167" />
	</node>
	<node id="9979218431" lat="60.4106389" lon="6.2567668" version="1" timestamp="2022-08-26T06:53:38Z" changeset="125390827" uid="3497659" user="NKA">
		<tag k="name" v="Telstø" />
		<tag k="place" v="farm" />
		<tag k="ssr:stedsnr" v="833079" />
	</node>
	<node id="9979218432" lat="60.2051388" lon="5.9607253" version="1" timestamp="2022-08-26T06:53:38Z" changeset="125390827" uid="3497659" user="NKA">
		<tag k="name" v="Haugen" />
		<tag k="place" v="farm" />
		<tag k="ssr:stedsnr" v="430489" />
	</node>
	<node id="9979218433" lat="60.2529803" lon="6.1215217" version="1" timestamp="2022-08-26T06:53:38Z" changeset="125390827" uid="3497659" user="NKA">
		<tag k="name" v="Hjartnes" />
		<tag k="place" v="farm" />
		<tag k="ssr:stedsnr" v="430744" />
	</node>
	<node id="9979218434" lat="60.2791695" lon="6.1287974" version="1" timestamp="2022-08-26T06:53:38Z" changeset="125390827" uid="3497659" user="NKA">
		<tag k="historic" v="shieling" />
		<tag k="name" v="Åsstølen" />
		<tag k="place" v="isolated_dwelling" />
		<tag k="ssr:stedsnr" v="794840" />
	</node>
	<node id="9979218435" lat="60.4139139" lon="6.2498307" version="1" timestamp="2022-08-26T06:53:38Z" changeset="125390827" uid="3497659" user="NKA">
		<tag k="name" v="Grytenes" />
		<tag k="place" v="farm" />
		<tag k="ssr:stedsnr" v="408019" />
	</node>
	<node id="9979218436" lat="60.3638583" lon="6.0776531" version="1" timestamp="2022-08-26T06:53:38Z" changeset="125390827" uid="3497659" user="NKA">
		<tag k="name" v="Lid" />
		<tag k="place" v="farm" />
		<tag k="ssr:stedsnr" v="347799" />
	</node>
	<node id="9979218437" lat="60.2281766" lon="5.9768053" version="1" timestamp="2022-08-26T06:53:38Z" changeset="125390827" uid="3497659" user="NKA">
		<tag k="name" v="Åse" />
		<tag k="place" v="hamlet" />
		<tag k="ssr:stedsnr" v="308695" />
	</node>
	<node id="9979218438" lat="60.2672834" lon="6.1223503" version="1" timestamp="2022-08-26T06:53:38Z" changeset="125390827" uid="3497659" user="NKA">
		<tag k="historic" v="shieling" />
		<tag k="name" v="Øyjorda" />
		<tag k="place" v="isolated_dwelling" />
		<tag k="ssr:stedsnr" v="248811" />
	</node>
	<node id="9979218439" lat="60.2846528" lon="6.1181309" version="1" timestamp="2022-08-26T06:53:38Z" changeset="125390827" uid="3497659" user="NKA">
		<tag k="historic" v="shieling" />
		<tag k="name" v="Skorsete" />
		<tag k="place" v="isolated_dwelling" />
		<tag k="ssr:stedsnr" v="187843" />
	</node>
	<node id="9979218440" lat="60.2803472" lon="5.9850808" version="1" timestamp="2022-08-26T06:53:38Z" changeset="125390827" uid="3497659" user="NKA">
		<tag k="name" v="Kytingen" />
		<tag k="place" v="farm" />
		<tag k="ssr:stedsnr" v="226707" />
	</node>
	<node id="9979218441" lat="60.2704694" lon="6.1254891" version="1" timestamp="2022-08-26T06:53:38Z" changeset="125390827" uid="3497659" user="NKA">
		<tag k="name" v="Ugletveit" />
		<tag k="place" v="hamlet" />
		<tag k="ssr:stedsnr" v="126809" />
	</node>
	<node id="9979218442" lat="60.2036357" lon="5.9616312" version="1" timestamp="2022-08-26T06:53:38Z" changeset="125390827" uid="3497659" user="NKA">
		<tag k="name" v="Dysvik" />
		<tag k="place" v="hamlet" />
		<tag k="ssr:stedsnr" v="5481" />
	</node>
	<node id="9979218443" lat="60.3718331" lon="6.090486" version="1" timestamp="2022-08-26T06:53:38Z" changeset="125390827" uid="3497659" user="NKA">
		<tag k="name" v="Rosseland" />
		<tag k="place" v="hamlet" />
		<tag k="ssr:stedsnr" v="187607" />
	</node>
	<node id="9979218444" lat="60.34305" lon="6.1980974" version="1" timestamp="2022-08-26T06:53:38Z" changeset="125390827" uid="3497659" user="NKA">
		<tag k="name" v="Øyjorda" />
		<tag k="place" v="farm" />
		<tag k="ssr:stedsnr" v="347048" />
	</node>
	<node id="9979218445" lat="60.2799445" lon="6.1935947" version="1" timestamp="2022-08-26T06:53:38Z" changeset="125390827" uid="3497659" user="NKA">
		<tag k="name" v="Straumasteinen" />
		<tag k="place" v="farm" />
		<tag k="ssr:stedsnr" v="66844" />
	</node>
	<node id="9979218446" lat="60.2225571" lon="5.981802" version="1" timestamp="2022-08-26T06:53:38Z" changeset="125390827" uid="3497659" user="NKA">
		<tag k="name" v="Indre Oma" />
		<tag k="place" v="farm" />
		<tag k="ssr:stedsnr" v="5698" />
	</node>
	<node id="9979218447" lat="60.2735667" lon="5.9716891" version="1" timestamp="2022-08-26T06:53:38Z" changeset="125390827" uid="3497659" user="NKA">
		<tag k="historic" v="shieling" />
		<tag k="name" v="Røyndal" />
		<tag k="place" v="locality" />
		<tag k="ssr:stedsnr" v="5838" />
	</node>
	<node id="9979218448" lat="60.3670828" lon="6.0900913" version="1" timestamp="2022-08-26T06:53:38Z" changeset="125390827" uid="3497659" user="NKA">
		<tag k="name" v="Skeie" />
		<tag k="place" v="hamlet" />
		<tag k="ssr:stedsnr" v="187604" />
	</node>
	<node id="9979218449" lat="60.3607686" lon="6.1570136" version="1" timestamp="2022-08-26T06:53:38Z" changeset="125390827" uid="3497659" user="NKA">
		<tag k="name" v="Veanes" />
		<tag k="place" v="farm" />
		<tag k="ssr:stedsnr" v="165915" />
	</node>
	<node id="9979218450" lat="60.2937195" lon="6.1616225" version="1" timestamp="2022-08-26T06:53:38Z" changeset="125390827" uid="3497659" user="NKA">
		<tag k="name" v="Vang" />
		<tag k="place" v="farm" />
		<tag k="ssr:stedsnr" v="5855" />
	</node>
	<node id="9979218451" lat="60.3728916" lon="6.0796835" version="1" timestamp="2022-08-26T06:53:38Z" changeset="125390827" uid="3497659" user="NKA">
		<tag k="historic" v="shieling" />
		<tag k="name" v="Freden" />
		<tag k="place" v="isolated_dwelling" />
		<tag k="ssr:stedsnr" v="126639" />
	</node>
	<node id="9979218452" lat="60.3778167" lon="6.2633113" version="1" timestamp="2022-08-26T06:53:38Z" changeset="125390827" uid="3497659" user="NKA">
		<tag k="name" v="Flotve" />
		<tag k="place" v="farm" />
		<tag k="ssr:stedsnr" v="187170" />
	</node>
	<node id="9979218453" lat="60.4813528" lon="6.0218891" version="1" timestamp="2022-08-26T06:53:38Z" changeset="125390827" uid="3497659" user="NKA">
		<tag k="historic" v="shieling" />
		<tag k="name" v="Kjerringadalen" />
		<tag k="place" v="isolated_dwelling" />
		<tag k="ssr:stedsnr" v="248347" />
	</node>
	<node id="9979218454" lat="60.2592392" lon="6.0768946" version="1" timestamp="2022-08-26T06:53:38Z" changeset="125390827" uid="3497659" user="NKA">
		<tag k="alt_name" v="Store-Linga;Linga, store;Linga" />
		<tag k="name" v="Store Linga" />
		<tag k="place" v="farm" />
		<tag k="ssr:stedsnr" v="673788" />
	</node>
	<node id="9979218455" lat="60.2053677" lon="5.9659001" version="1" timestamp="2022-08-26T06:53:38Z" changeset="125390827" uid="3497659" user="NKA">
		<tag k="name" v="Fredheim" />
		<tag k="place" v="farm" />
		<tag k="ssr:stedsnr" v="449104" />
	</node>
	<node id="9979218456" lat="60.2423416" lon="5.9691503" version="1" timestamp="2022-08-26T06:53:38Z" changeset="125390827" uid="3497659" user="NKA">
		<tag k="name" v="Svartahola" />
		<tag k="place" v="isolated_dwelling" />
		<tag k="ssr:stedsnr" v="551699" />
	</node>
	<node id="9979218457" lat="60.1611722" lon="5.9439641" version="1" timestamp="2022-08-26T06:53:38Z" changeset="125390827" uid="3497659" user="NKA">
		<tag k="name" v="Moldhusstølen" />
		<tag k="place" v="farm" />
		<tag k="ssr:stedsnr" v="528425" />
	</node>
	<node id="9979218458" lat="60.2233815" lon="5.9781819" version="1" timestamp="2022-08-26T06:53:38Z" changeset="125390827" uid="3497659" user="NKA">
		<tag k="alt_name" v="Nygård;Nygard" />
		<tag k="name" v="Nygarden" />
		<tag k="place" v="farm" />
		<tag k="ssr:stedsnr" v="247711" />
	</node>
	<node id="9979218459" lat="60.2744708" lon="6.1278722" version="1" timestamp="2022-08-26T06:53:38Z" changeset="125390827" uid="3497659" user="NKA">
		<tag k="name" v="Hellestveit" />
		<tag k="place" v="locality" />
		<tag k="ssr:stedsnr" v="491817" />
	</node>
	<node id="9979218460" lat="60.2912972" lon="6.1745197" version="1" timestamp="2022-08-26T06:53:38Z" changeset="125390827" uid="3497659" user="NKA">
		<tag k="name" v="Erdal" />
		<tag k="place" v="farm" />
		<tag k="ssr:stedsnr" v="794871" />
	</node>
	<node id="9979218461" lat="60.4093056" lon="6.2203141" version="1" timestamp="2022-08-26T06:53:38Z" changeset="125390827" uid="3497659" user="NKA">
		<tag k="name" v="Nymark" />
		<tag k="place" v="farm" />
		<tag k="ssr:stedsnr" v="954057" />
	</node>
	<node id="9979218462" lat="60.1863438" lon="5.9576301" version="1" timestamp="2022-08-26T06:53:38Z" changeset="125390827" uid="3497659" user="NKA">
		<tag k="name" v="Hofn" />
		<tag k="place" v="farm" />
		<tag k="ssr:stedsnr" v="187518" />
	</node>
	<node id="9979218463" lat="60.3883916" lon="6.2475169" version="1" timestamp="2022-08-26T06:53:38Z" changeset="125390827" uid="3497659" user="NKA">
		<tag k="name" v="Melstveit" />
		<tag k="place" v="hamlet" />
		<tag k="ssr:stedsnr" v="794163" />
	</node>
	<node id="9979218464" lat="60.38005" lon="6.1785697" version="1" timestamp="2022-08-26T06:53:38Z" changeset="125390827" uid="3497659" user="NKA">
		<tag k="name" v="Åsen" />
		<tag k="place" v="farm" />
		<tag k="ssr:stedsnr" v="915653" />
	</node>
	<node id="9979218465" lat="60.1599222" lon="5.9015725" version="1" timestamp="2022-08-26T06:53:38Z" changeset="125390827" uid="3497659" user="NKA">
		<tag k="name" v="Storhamn" />
		<tag k="place" v="isolated_dwelling" />
		<tag k="ssr:stedsnr" v="550580" />
	</node>
	<node id="9979218466" lat="60.1646972" lon="5.912017" version="1" timestamp="2022-08-26T06:53:38Z" changeset="125390827" uid="3497659" user="NKA">
		<tag k="name" v="Kalhagen" />
		<tag k="place" v="farm" />
		<tag k="ssr:stedsnr" v="407354" />
	</node>
	<node id="9979218467" lat="60.36225" lon="6.0181281" version="1" timestamp="2022-08-26T06:53:38Z" changeset="125390827" uid="3497659" user="NKA">
		<tag k="historic" v="shieling" />
		<tag k="loc_name" v="Longvotno" />
		<tag k="name" v="Langvotno" />
		<tag k="place" v="isolated_dwelling" />
		<tag k="ssr:stedsnr" v="673645" />
	</node>
	<node id="9979218468" lat="60.4099232" lon="6.2386049" version="1" timestamp="2022-08-26T06:53:38Z" changeset="125390827" uid="3497659" user="NKA">
		<tag k="name" v="Froastad" />
		<tag k="place" v="farm" />
		<tag k="ssr:stedsnr" v="734147" />
	</node>
	<node id="9979218469" lat="60.1608602" lon="5.9468161" version="1" timestamp="2022-08-26T06:53:38Z" changeset="125390827" uid="3497659" user="NKA">
		<tag k="name" v="Nernes" />
		<tag k="place" v="farm" />
		<tag k="ssr:stedsnr" v="550551" />
	</node>
	<node id="9979218470" lat="60.180575" lon="5.917403" version="1" timestamp="2022-08-26T06:53:38Z" changeset="125390827" uid="3497659" user="NKA">
		<tag k="name" v="Steinen" />
		<tag k="place" v="farm" />
		<tag k="ssr:stedsnr" v="287371" />
	</node>
	<node id="9979218471" lat="60.443968" lon="5.968803" version="1" timestamp="2022-08-26T06:53:38Z" changeset="125390827" uid="3497659" user="NKA">
		<tag k="historic" v="shieling" />
		<tag k="name" v="Røyrfjellet" />
		<tag k="place" v="isolated_dwelling" />
		<tag k="ssr:stedsnr" v="490409" />
	</node>
	<node id="9979218472" lat="60.3898846" lon="6.2219647" version="1" timestamp="2022-08-26T06:53:38Z" changeset="125390827" uid="3497659" user="NKA">
		<tag k="name" v="Hellestveit" />
		<tag k="place" v="farm" />
		<tag k="ssr:stedsnr" v="733177" />
	</node>
	<node id="9979218473" lat="60.3937872" lon="6.2661581" version="1" timestamp="2022-08-26T06:53:38Z" changeset="125390827" uid="3497659" user="NKA">
		<tag k="name" v="Saltkjelen" />
		<tag k="place" v="farm" />
		<tag k="ssr:stedsnr" v="672165" />
	</node>
	<node id="9979218474" lat="60.1719708" lon="5.9438412" version="1" timestamp="2022-08-26T06:53:38Z" changeset="125390827" uid="3497659" user="NKA">
		<tag k="name" v="Nybru" />
		<tag k="place" v="farm" />
		<tag k="ssr:stedsnr" v="85025" />
	</node>
	<node id="9979218475" lat="60.3819147" lon="6.1884666" version="1" timestamp="2022-08-26T06:53:38Z" changeset="125390827" uid="3497659" user="NKA">
		<tag k="name" v="Hovdane" />
		<tag k="place" v="farm" />
		<tag k="ssr:stedsnr" v="672648" />
	</node>
	<node id="9979218476" lat="60.1578419" lon="5.9235342" version="1" timestamp="2022-08-26T06:53:38Z" changeset="125390827" uid="3497659" user="NKA">
		<tag k="name" v="Sydnes" />
		<tag k="place" v="farm" />
		<tag k="ssr:stedsnr" v="429577" />
	</node>
	<node id="9979218477" lat="60.1744832" lon="5.9488539" version="1" timestamp="2022-08-26T06:53:38Z" changeset="125390827" uid="3497659" user="NKA">
		<tag k="name" v="Tegland" />
		<tag k="place" v="farm" />
		<tag k="ssr:stedsnr" v="31690" />
	</node>
	<node id="9979218478" lat="60.4221306" lon="6.316328" version="1" timestamp="2022-08-26T06:53:38Z" changeset="125390827" uid="3497659" user="NKA">
		<tag k="alt_name" v="Stavdalstølen" />
		<tag k="historic" v="shieling" />
		<tag k="name" v="Stavdal" />
		<tag k="place" v="isolated_dwelling" />
		<tag k="ssr:stedsnr" v="491153" />
	</node>
	<node id="9979218479" lat="60.3742" lon="6.0556002" version="1" timestamp="2022-08-26T06:53:38Z" changeset="125390827" uid="3497659" user="NKA">
		<tag k="historic" v="shieling" />
		<tag k="name" v="Nyasete" />
		<tag k="place" v="isolated_dwelling" />
		<tag k="ssr:stedsnr" v="855682" />
	</node>
	<node id="9979218480" lat="60.1690111" lon="5.9044142" version="1" timestamp="2022-08-26T06:53:38Z" changeset="125390827" uid="3497659" user="NKA">
		<tag k="name" v="Oppheim" />
		<tag k="place" v="farm" />
		<tag k="ssr:stedsnr" v="65561" />
	</node>
	<node id="9979218481" lat="60.1056945" lon="5.8872448" version="1" timestamp="2022-08-26T06:53:38Z" changeset="125390827" uid="3497659" user="NKA">
		<tag k="name" v="Skogrusta" />
		<tag k="place" v="farm" />
		<tag k="ssr:stedsnr" v="43910" />
	</node>
	<node id="9979218482" lat="60.3139584" lon="6.1257031" version="1" timestamp="2022-08-26T06:53:38Z" changeset="125390827" uid="3497659" user="NKA">
		<tag k="historic" v="shieling" />
		<tag k="name" v="Sjusete" />
		<tag k="place" v="isolated_dwelling" />
		<tag k="ssr:stedsnr" v="490997" />
	</node>
	<node id="9979218483" lat="60.3889618" lon="6.146339" version="1" timestamp="2022-08-26T06:53:38Z" changeset="125390827" uid="3497659" user="NKA">
		<tag k="name" v="Djønne" />
		<tag k="place" v="farm" />
		<tag k="ssr:stedsnr" v="490700" />
	</node>
	<node id="9979218484" lat="60.3582055" lon="6.038967" version="1" timestamp="2022-08-26T06:53:38Z" changeset="125390827" uid="3497659" user="NKA">
		<tag k="historic" v="shieling" />
		<tag k="name" v="Eggjasete" />
		<tag k="place" v="isolated_dwelling" />
		<tag k="ssr:stedsnr" v="551620" />
	</node>
	<node id="9979218485" lat="60.3534278" lon="6.087692" version="1" timestamp="2022-08-26T06:53:38Z" changeset="125390827" uid="3497659" user="NKA">
		<tag k="historic" v="shieling" />
		<tag k="name" v="Tveitestølen" />
		<tag k="place" v="isolated_dwelling" />
		<tag k="ssr:stedsnr" v="469778" />
	</node>
	<node id="9979218486" lat="60.2935417" lon="6.0083558" version="1" timestamp="2022-08-26T06:53:38Z" changeset="125390827" uid="3497659" user="NKA">
		<tag k="historic" v="shieling" />
		<tag k="name" v="Botnen" />
		<tag k="place" v="isolated_dwelling" />
		<tag k="ssr:stedsnr" v="491959" />
	</node>
	<node id="9979218487" lat="60.5012694" lon="6.2053197" version="1" timestamp="2022-08-26T06:53:38Z" changeset="125390827" uid="3497659" user="NKA">
		<tag k="historic" v="shieling" />
		<tag k="name" v="Flatabøstølen" />
		<tag k="place" v="isolated_dwelling" />
		<tag k="ssr:stedsnr" v="248788" />
	</node>
	<node id="9979218488" lat="60.4005222" lon="6.0156476" version="1" timestamp="2022-08-26T06:53:38Z" changeset="125390827" uid="3497659" user="NKA">
		<tag k="historic" v="shieling" />
		<tag k="name" v="Nedrakvanndalen" />
		<tag k="place" v="isolated_dwelling" />
		<tag k="ssr:stedsnr" v="369703" />
	</node>
	<node id="9979218489" lat="60.3580028" lon="6.0786446" version="1" timestamp="2022-08-26T06:53:38Z" changeset="125390827" uid="3497659" user="NKA">
		<tag k="name" v="Træbakken" />
		<tag k="place" v="farm" />
		<tag k="ssr:stedsnr" v="127661" />
	</node>
	<node id="9979218490" lat="60.3990904" lon="6.2585181" version="1" timestamp="2022-08-26T06:53:38Z" changeset="125390827" uid="3497659" user="NKA">
		<tag k="alt_name" v="Strondi;Stranden" />
		<tag k="name" v="Nygardstrondi" />
		<tag k="place" v="farm" />
		<tag k="ssr:stedsnr" v="430175" />
	</node>
	<node id="9979218491" lat="60.244424" lon="6.0040239" version="1" timestamp="2022-08-26T06:53:38Z" changeset="125390827" uid="3497659" user="NKA">
		<tag k="name" v="Bakka" />
		<tag k="place" v="hamlet" />
		<tag k="ssr:stedsnr" v="126717" />
	</node>
	<node id="9979218492" lat="60.4138278" lon="6.1607808" version="1" timestamp="2022-08-26T06:53:38Z" changeset="125390827" uid="3497659" user="NKA">
		<tag k="historic" v="shieling" />
		<tag k="name" v="Lauvvikane" />
		<tag k="place" v="isolated_dwelling" />
		<tag k="ssr:stedsnr" v="430467" />
	</node>
	<node id="9979218493" lat="60.3322889" lon="6.0445919" version="1" timestamp="2022-08-26T06:53:38Z" changeset="125390827" uid="3497659" user="NKA">
		<tag k="name" v="Stakkshogget" />
		<tag k="place" v="locality" />
		<tag k="ssr:stedsnr" v="248564" />
	</node>
	<node id="9979218494" lat="60.4219496" lon="6.2413024" version="1" timestamp="2022-08-26T06:53:38Z" changeset="125390827" uid="3497659" user="NKA">
		<tag k="name" v="Klyve" />
		<tag k="place" v="hamlet" />
		<tag k="ssr:stedsnr" v="309191" />
	</node>
	<node id="9979218495" lat="60.3895842" lon="6.1718162" version="1" timestamp="2022-08-26T06:53:38Z" changeset="125390827" uid="3497659" user="NKA">
		<tag k="name" v="Kjosås" />
		<tag k="place" v="hamlet" />
		<tag k="ssr:stedsnr" v="5667" />
	</node>
	<node id="9979218496" lat="60.3787667" lon="6.2445947" version="1" timestamp="2022-08-26T06:53:38Z" changeset="125390827" uid="3497659" user="NKA">
		<tag k="name" v="Berge" />
		<tag k="place" v="farm" />
		<tag k="ssr:stedsnr" v="66162" />
	</node>
	<node id="9979218497" lat="60.4061362" lon="6.2450903" version="1" timestamp="2022-08-26T06:53:38Z" changeset="125390827" uid="3497659" user="NKA">
		<tag k="name" v="Høyvika" />
		<tag k="old_name" v="Høyvik" />
		<tag k="place" v="locality" />
		<tag k="ssr:stedsnr" v="347019" />
	</node>
	<node id="9979218498" lat="60.3812602" lon="6.1473235" version="1" timestamp="2022-08-26T06:53:38Z" changeset="125390827" uid="3497659" user="NKA">
		<tag k="name" v="Seberg" />
		<tag k="place" v="farm" />
		<tag k="ssr:stedsnr" v="248681" />
	</node>
	<node id="9979218499" lat="60.3953" lon="6.175778" version="1" timestamp="2022-08-26T06:53:38Z" changeset="125390827" uid="3497659" user="NKA">
		<tag k="name" v="Stuve" />
		<tag k="place" v="hamlet" />
		<tag k="ssr:stedsnr" v="248697" />
	</node>
	<node id="9979218500" lat="60.3728119" lon="6.1543149" version="1" timestamp="2022-08-26T06:53:38Z" changeset="125390827" uid="3497659" user="NKA">
		<tag k="name" v="Tolo" />
		<tag k="place" v="quarter" />
		<tag k="ssr:stedsnr" v="5622" />
	</node>
	<node id="9979218501" lat="60.4339694" lon="6.178928" version="1" timestamp="2022-08-26T06:53:38Z" changeset="125390827" uid="3497659" user="NKA">
		<tag k="historic" v="shieling" />
		<tag k="name" v="Laupsaflyane" />
		<tag k="place" v="isolated_dwelling" />
		<tag k="ssr:stedsnr" v="308427" />
	</node>
	<node id="9979218502" lat="60.3621401" lon="6.0729589" version="1" timestamp="2022-08-26T06:53:38Z" changeset="125390827" uid="3497659" user="NKA">
		<tag k="name" v="Bøen" />
		<tag k="place" v="farm" />
		<tag k="ssr:stedsnr" v="613603" />
	</node>
	<node id="9979218503" lat="60.3642166" lon="6.1040281" version="1" timestamp="2022-08-26T06:53:38Z" changeset="125390827" uid="3497659" user="NKA">
		<tag k="alt_name" v="Nyagjere" />
		<tag k="name" v="Nyagjerdet" />
		<tag k="place" v="farm" />
		<tag k="ssr:stedsnr" v="855622" />
	</node>
	<node id="9979218504" lat="60.42825" lon="6.1388946" version="1" timestamp="2022-08-26T06:53:38Z" changeset="125390827" uid="3497659" user="NKA">
		<tag k="historic" v="shieling" />
		<tag k="name" v="Ruedal" />
		<tag k="place" v="isolated_dwelling" />
		<tag k="ssr:stedsnr" v="126452" />
	</node>
	<node id="9979218505" lat="60.3869916" lon="6.2372141" version="1" timestamp="2022-08-26T06:53:38Z" changeset="125390827" uid="3497659" user="NKA">
		<tag k="name" v="Bergehagen" />
		<tag k="place" v="farm" />
		<tag k="ssr:stedsnr" v="66158" />
	</node>
	<node id="9979218506" lat="60.4074761" lon="6.2611757" version="1" timestamp="2022-08-26T06:53:38Z" changeset="125390827" uid="3497659" user="NKA">
		<tag k="name" v="Ørevik" />
		<tag k="place" v="farm" />
		<tag k="ssr:stedsnr" v="105015" />
	</node>
	<node id="9979218507" lat="60.4107139" lon="6.2295392" version="1" timestamp="2022-08-26T06:53:38Z" changeset="125390827" uid="3497659" user="NKA">
		<tag k="name" v="Haugen" />
		<tag k="place" v="farm" />
		<tag k="ssr:stedsnr" v="105100" />
	</node>
	<node id="9979218508" lat="60.366775" lon="6.0221279" version="1" timestamp="2022-08-26T06:53:38Z" changeset="125390827" uid="3497659" user="NKA">
		<tag k="name" v="Klubben" />
		<tag k="place" v="neighbourhood" />
		<tag k="ssr:stedsnr" v="342134" />
	</node>
	<node id="9979218509" lat="60.2646699" lon="6.0513857" version="1" timestamp="2022-08-26T06:53:38Z" changeset="125390827" uid="3497659" user="NKA">
		<tag k="name" v="Røen" />
		<tag k="old_name" v="Røo" />
		<tag k="place" v="farm" />
		<tag k="ssr:stedsnr" v="638852" />
	</node>
	<node id="9979218510" lat="60.4080527" lon="6.3012141" version="1" timestamp="2022-08-26T06:53:38Z" changeset="125390827" uid="3497659" user="NKA">
		<tag k="historic" v="shieling" />
		<tag k="name" v="Nyasete" />
		<tag k="place" v="isolated_dwelling" />
		<tag k="ssr:stedsnr" v="6146" />
	</node>
	<node id="9979218511" lat="60.4147032" lon="6.2347535" version="1" timestamp="2022-08-26T06:53:38Z" changeset="125390827" uid="3497659" user="NKA">
		<tag k="name" v="Porsmyr" />
		<tag k="place" v="hamlet" />
		<tag k="ssr:stedsnr" v="5152" />
	</node>
	<node id="9979218512" lat="60.1362639" lon="5.8964281" version="1" timestamp="2022-08-26T06:53:38Z" changeset="125390827" uid="3497659" user="NKA">
		<tag k="alt_name" v="Troppi" />
		<tag k="name" v="Troppa" />
		<tag k="place" v="farm" />
		<tag k="ssr:stedsnr" v="915578" />
	</node>
	<node id="9979218513" lat="60.1887256" lon="5.8962522" version="1" timestamp="2022-08-26T06:53:38Z" changeset="125390827" uid="3497659" user="NKA">
		<tag k="name" v="Leitet" />
		<tag k="place" v="farm" />
		<tag k="ssr:stedsnr" v="692268" />
	</node>
	<node id="9979218514" lat="60.3078611" lon="6.0626586" version="1" timestamp="2022-08-26T06:53:38Z" changeset="125390827" uid="3497659" user="NKA">
		<tag k="alt_name" v="Fagerseter" />
		<tag k="historic" v="shieling" />
		<tag k="name" v="Fagersete" />
		<tag k="place" v="isolated_dwelling" />
		<tag k="ssr:stedsnr" v="490937" />
	</node>
	<node id="9979218515" lat="60.1649228" lon="5.9314908" version="1" timestamp="2022-08-26T06:53:38Z" changeset="125390827" uid="3497659" user="NKA">
		<tag k="name" v="Nes" />
		<tag k="place" v="hamlet" />
		<tag k="ssr:stedsnr" v="915565" />
	</node>
	<node id="9979218516" lat="60.2418722" lon="5.9971947" version="1" timestamp="2022-08-26T06:53:38Z" changeset="125390827" uid="3497659" user="NKA">
		<tag k="name" v="Haugen" />
		<tag k="place" v="farm" />
		<tag k="ssr:stedsnr" v="530743" />
	</node>
	<node id="9979218517" lat="60.2266482" lon="5.9456055" version="1" timestamp="2022-08-26T06:53:38Z" changeset="125390827" uid="3497659" user="NKA">
		<tag k="name" v="Raudkleiv" />
		<tag k="place" v="isolated_dwelling" />
		<tag k="ssr:stedsnr" v="611744" />
	</node>
	<node id="9979218518" lat="60.1921472" lon="5.904617" version="1" timestamp="2022-08-26T06:53:38Z" changeset="125390827" uid="3497659" user="NKA">
		<tag k="name" v="Rusta" />
		<tag k="place" v="farm" />
		<tag k="ssr:stedsnr" v="529328" />
	</node>
	<node id="9979218519" lat="60.3878695" lon="6.1653474" version="1" timestamp="2022-08-26T06:53:38Z" changeset="125390827" uid="3497659" user="NKA">
		<tag k="name" v="Tveiti" />
		<tag k="place" v="farm" />
		<tag k="ssr:stedsnr" v="347207" />
	</node>
	<node id="9979218520" lat="60.2930861" lon="6.0489475" version="1" timestamp="2022-08-26T06:53:38Z" changeset="125390827" uid="3497659" user="NKA">
		<tag k="alt_name" v="Tordalen" />
		<tag k="name" v="Tordal" />
		<tag k="place" v="farm" />
		<tag k="ssr:stedsnr" v="226907" />
	</node>
	<node id="9979218521" lat="60.1408244" lon="5.9015413" version="1" timestamp="2022-08-26T06:53:38Z" changeset="125390827" uid="3497659" user="NKA">
		<tag k="name" v="Bjånes" />
		<tag k="place" v="farm" />
		<tag k="ssr:stedsnr" v="589967" />
	</node>
	<node id="9979218522" lat="60.2683749" lon="6.0101246" version="1" timestamp="2022-08-26T06:53:38Z" changeset="125390827" uid="3497659" user="NKA">
		<tag k="name" v="Bru" />
		<tag k="place" v="hamlet" />
		<tag k="ssr:stedsnr" v="126870" />
	</node>
	<node id="9979218523" lat="60.413375" lon="5.9600002" version="1" timestamp="2022-08-26T06:53:38Z" changeset="125390827" uid="3497659" user="NKA">
		<tag k="historic" v="shieling" />
		<tag k="name" v="Gamlestølen" />
		<tag k="place" v="isolated_dwelling" />
		<tag k="ssr:stedsnr" v="794475" />
	</node>
	<node id="9979218524" lat="60.1736971" lon="5.9011062" version="1" timestamp="2022-08-26T06:53:38Z" changeset="125390827" uid="3497659" user="NKA">
		<tag k="name" v="Torgilstveit" />
		<tag k="place" v="farm" />
		<tag k="ssr:stedsnr" v="855532" />
	</node>
	<node id="9979218525" lat="60.1552778" lon="5.9441559" version="1" timestamp="2022-08-26T06:53:38Z" changeset="125390827" uid="3497659" user="NKA">
		<tag k="alt_name" v="Kråka" />
		<tag k="name" v="Kråke" />
		<tag k="place" v="farm" />
		<tag k="ssr:stedsnr" v="126570" />
	</node>
	<node id="9979218526" lat="60.1862323" lon="5.8939879" version="1" timestamp="2022-08-26T06:53:38Z" changeset="125390827" uid="3497659" user="NKA">
		<tag k="name" v="Leirstein" />
		<tag k="place" v="hamlet" />
		<tag k="ssr:stedsnr" v="551541" />
	</node>
	<node id="9979218527" lat="60.5239361" lon="6.230653" version="1" timestamp="2022-08-26T06:53:38Z" changeset="125390827" uid="3497659" user="NKA">
		<tag k="historic" v="shieling" />
		<tag k="name" v="Songrø" />
		<tag k="place" v="isolated_dwelling" />
		<tag k="ssr:stedsnr" v="68625" />
	</node>
	<node id="9979218528" lat="60.4132861" lon="5.9475252" version="1" timestamp="2022-08-26T06:53:38Z" changeset="125390827" uid="3497659" user="NKA">
		<tag k="historic" v="shieling" />
		<tag k="name" v="Herand" />
		<tag k="place" v="isolated_dwelling" />
		<tag k="ssr:stedsnr" v="490476" />
	</node>
	<node id="9979218529" lat="60.3302778" lon="6.1407058" version="1" timestamp="2022-08-26T06:53:38Z" changeset="125390827" uid="3497659" user="NKA">
		<tag k="historic" v="shieling" />
		<tag k="name" v="Vangdalsskor" />
		<tag k="place" v="isolated_dwelling" />
		<tag k="ssr:stedsnr" v="734558" />
	</node>
	<node id="9979218530" lat="60.4649194" lon="6.2299051" version="1" timestamp="2022-08-26T06:53:38Z" changeset="125390827" uid="3497659" user="NKA">
		<tag k="alt_name" v="Skår" />
		<tag k="name" v="Skoro" />
		<tag k="place" v="hamlet" />
		<tag k="ssr:stedsnr" v="430211" />
	</node>
	<node id="9979218531" lat="60.4515028" lon="5.9970669" version="1" timestamp="2022-08-26T06:53:38Z" changeset="125390827" uid="3497659" user="NKA">
		<tag k="historic" v="shieling" />
		<tag k="name" v="Dyravadlægeret" />
		<tag k="place" v="isolated_dwelling" />
		<tag k="ssr:stedsnr" v="551366" />
	</node>
	<node id="9979218532" lat="60.4322833" lon="6.4378502" version="1" timestamp="2022-08-26T06:53:38Z" changeset="125390827" uid="3497659" user="NKA">
		<tag k="name" v="Skjeret" />
		<tag k="place" v="farm" />
		<tag k="ssr:stedsnr" v="469491" />
	</node>
	<node id="9979218533" lat="60.350175" lon="6.1665779" version="1" timestamp="2022-08-26T06:53:38Z" changeset="125390827" uid="3497659" user="NKA">
		<tag k="name" v="Fossli" />
		<tag k="place" v="farm" />
		<tag k="ssr:stedsnr" v="430588" />
	</node>
	<node id="9979218534" lat="60.3455083" lon="6.0184781" version="1" timestamp="2022-08-26T06:53:38Z" changeset="125390827" uid="3497659" user="NKA">
		<tag k="historic" v="shieling" />
		<tag k="name" v="Nystøl" />
		<tag k="place" v="isolated_dwelling" />
		<tag k="ssr:stedsnr" v="772556" />
	</node>
	<node id="9979218535" lat="60.4121334" lon="5.9893031" version="1" timestamp="2022-08-26T06:53:38Z" changeset="125390827" uid="3497659" user="NKA">
		<tag k="historic" v="shieling" />
		<tag k="name" v="Fannastølen" />
		<tag k="place" v="isolated_dwelling" />
		<tag k="ssr:stedsnr" v="226884" />
	</node>
	<node id="9979218536" lat="60.4190445" lon="6.3703252" version="1" timestamp="2022-08-26T06:53:38Z" changeset="125390827" uid="3497659" user="NKA">
		<tag k="name" v="Kolhaug" />
		<tag k="place" v="farm" />
		<tag k="ssr:stedsnr" v="651435" />
	</node>
	<node id="9979218537" lat="60.2787" lon="6.1086252" version="1" timestamp="2022-08-26T06:53:38Z" changeset="125390827" uid="3497659" user="NKA">
		<tag k="historic" v="shieling" />
		<tag k="name" v="Gjuva" />
		<tag k="place" v="isolated_dwelling" />
		<tag k="ssr:stedsnr" v="733852" />
	</node>
	<node id="9979218538" lat="60.290675" lon="6.0773057" version="1" timestamp="2022-08-26T06:53:38Z" changeset="125390827" uid="3497659" user="NKA">
		<tag k="alt_name" v="Fadnastøl" />
		<tag k="historic" v="shieling" />
		<tag k="name" v="Fadnastølen" />
		<tag k="place" v="isolated_dwelling" />
		<tag k="ssr:stedsnr" v="430882" />
	</node>
	<node id="9979218539" lat="60.4768694" lon="6.0588003" version="1" timestamp="2022-08-26T06:53:38Z" changeset="125390827" uid="3497659" user="NKA">
		<tag k="alt_name" v="Søyene" />
		<tag k="historic" v="shieling" />
		<tag k="name" v="Søyasete" />
		<tag k="place" v="isolated_dwelling" />
		<tag k="ssr:stedsnr" v="430360" />
	</node>
	<node id="9979218540" lat="60.3771433" lon="6.0908663" version="1" timestamp="2022-08-26T06:53:38Z" changeset="125390827" uid="3497659" user="NKA">
		<tag k="alt_name" v="Åsæte" />
		<tag k="historic" v="shieling" />
		<tag k="name" v="Åsete" />
		<tag k="place" v="isolated_dwelling" />
		<tag k="ssr:stedsnr" v="612678" />
	</node>
	<node id="9979218541" lat="60.2615051" lon="6.0659735" version="1" timestamp="2022-08-26T06:53:38Z" changeset="125390827" uid="3497659" user="NKA">
		<tag k="alt_name" v="Vetle Linga;Litle-Linga;Linga, l" />
		<tag k="name" v="Litle Linga" />
		<tag k="place" v="farm" />
		<tag k="ssr:stedsnr" v="369768" />
	</node>
	<node id="9979218542" lat="60.4082055" lon="5.9247502" version="1" timestamp="2022-08-26T06:53:38Z" changeset="125390827" uid="3497659" user="NKA">
		<tag k="name" v="Kråni" />
		<tag k="place" v="locality" />
		<tag k="ssr:stedsnr" v="611446" />
	</node>
	<node id="9979218543" lat="60.3862222" lon="5.9594864" version="1" timestamp="2022-08-26T06:53:38Z" changeset="125390827" uid="3497659" user="NKA">
		<tag k="name" v="Vetlavatnet" />
		<tag k="place" v="neighbourhood" />
		<tag k="ssr:stedsnr" v="100194" />
	</node>
	<node id="9979218544" lat="60.4530194" lon="6.0131337" version="1" timestamp="2022-08-26T06:53:38Z" changeset="125390827" uid="3497659" user="NKA">
		<tag k="historic" v="shieling" />
		<tag k="name" v="Frostadstølen" />
		<tag k="place" v="isolated_dwelling" />
		<tag k="ssr:stedsnr" v="248363" />
	</node>
	<node id="9979218545" lat="60.4201555" lon="5.958328" version="1" timestamp="2022-08-26T06:53:38Z" changeset="125390827" uid="3497659" user="NKA">
		<tag k="historic" v="shieling" />
		<tag k="name" v="Juvik" />
		<tag k="place" v="isolated_dwelling" />
		<tag k="ssr:stedsnr" v="248445" />
	</node>
	<node id="9979218546" lat="60.4038917" lon="6.2985835" version="1" timestamp="2022-08-26T06:53:38Z" changeset="125390827" uid="3497659" user="NKA">
		<tag k="name" v="Tuftale" />
		<tag k="place" v="farm" />
		<tag k="ssr:stedsnr" v="833392" />
	</node>
	<node id="9979218547" lat="60.3934573" lon="5.9389513" version="1" timestamp="2022-08-26T06:53:38Z" changeset="125390827" uid="3497659" user="NKA">
		<tag k="name" v="Kleiva" />
		<tag k="old_name" v="Kleivi" />
		<tag k="place" v="hamlet" />
		<tag k="ssr:stedsnr" v="187287" />
	</node>
	<node id="9979218548" lat="60.3886583" lon="5.9566947" version="1" timestamp="2022-08-26T06:53:38Z" changeset="125390827" uid="3497659" user="NKA">
		<tag k="historic" v="shieling" />
		<tag k="name" v="Måvotno" />
		<tag k="place" v="isolated_dwelling" />
		<tag k="ssr:stedsnr" v="651841" />
	</node>
	<node id="9979218549" lat="60.4643003" lon="6.2204576" version="1" timestamp="2022-08-26T06:53:38Z" changeset="125390827" uid="3497659" user="NKA">
		<tag k="name" v="Jarane" />
		<tag k="place" v="farm" />
		<tag k="ssr:stedsnr" v="105414" />
	</node>
	<node id="9979218550" lat="60.3832278" lon="6.1984697" version="1" timestamp="2022-08-26T06:53:38Z" changeset="125390827" uid="3497659" user="NKA">
		<tag k="name" v="Vikelandet" />
		<tag k="place" v="farm" />
		<tag k="ssr:stedsnr" v="105115" />
	</node>
	<node id="9979218551" lat="60.3815528" lon="6.0962642" version="1" timestamp="2022-08-26T06:53:38Z" changeset="125390827" uid="3497659" user="NKA">
		<tag k="historic" v="shieling" />
		<tag k="name" v="Rishaugmyr" />
		<tag k="place" v="isolated_dwelling" />
		<tag k="ssr:stedsnr" v="126665" />
	</node>
	<node id="9979218552" lat="60.3255121" lon="6.1993916" version="1" timestamp="2022-08-26T06:53:38Z" changeset="125390827" uid="3497659" user="NKA">
		<tag k="name" v="Vangsvik" />
		<tag k="place" v="isolated_dwelling" />
		<tag k="ssr:stedsnr" v="772859" />
	</node>
	<node id="9979218553" lat="60.3473861" lon="6.1685224" version="1" timestamp="2022-08-26T06:53:38Z" changeset="125390827" uid="3497659" user="NKA">
		<tag k="name" v="Utrunningen" />
		<tag k="place" v="farm" />
		<tag k="ssr:stedsnr" v="187541" />
	</node>
	<node id="9979218554" lat="60.2740097" lon="6.0339511" version="1" timestamp="2022-08-26T06:53:38Z" changeset="125390827" uid="3497659" user="NKA">
		<tag k="alt_name" v="Fosse, store;Fosse" />
		<tag k="name" v="Store Fosse" />
		<tag k="place" v="farm" />
		<tag k="ssr:stedsnr" v="67592" />
	</node>
	<node id="9979218555" lat="60.2499945" lon="5.9990642" version="1" timestamp="2022-08-26T06:53:38Z" changeset="125390827" uid="3497659" user="NKA">
		<tag k="name" v="Træet" />
		<tag k="place" v="farm" />
		<tag k="ssr:stedsnr" v="430798" />
	</node>
	<node id="9979218556" lat="60.2553572" lon="6.0128821" version="1" timestamp="2022-08-26T06:53:38Z" changeset="125390827" uid="3497659" user="NKA">
		<tag k="name" v="Kjelsvik" />
		<tag k="place" v="locality" />
		<tag k="ssr:stedsnr" v="752062" />
	</node>
	<node id="9979218557" lat="60.2954083" lon="6.0957642" version="1" timestamp="2022-08-26T06:53:38Z" changeset="125390827" uid="3497659" user="NKA">
		<tag k="historic" v="shieling" />
		<tag k="name" v="Bottsvasslia" />
		<tag k="place" v="isolated_dwelling" />
		<tag k="ssr:stedsnr" v="855916" />
	</node>
	<node id="9979218558" lat="60.4132056" lon="6.2140915" version="1" timestamp="2022-08-26T06:53:38Z" changeset="125390827" uid="3497659" user="NKA">
		<tag k="name" v="Hovland" />
		<tag k="place" v="hamlet" />
		<tag k="ssr:stedsnr" v="490753" />
	</node>
	<node id="9979218559" lat="60.3581583" lon="6.0541252" version="1" timestamp="2022-08-26T06:53:38Z" changeset="125390827" uid="3497659" user="NKA">
		<tag k="name" v="Neteland" />
		<tag k="place" v="hamlet" />
		<tag k="ssr:stedsnr" v="916659" />
	</node>
	<node id="9979218560" lat="60.4154336" lon="6.3732023" version="1" timestamp="2022-08-26T06:53:38Z" changeset="125390827" uid="3497659" user="NKA">
		<tag k="name" v="Leitet" />
		<tag k="place" v="farm" />
		<tag k="ssr:stedsnr" v="347571" />
	</node>
	<node id="9979218561" lat="60.487325" lon="6.214514" version="1" timestamp="2022-08-26T06:53:38Z" changeset="125390827" uid="3497659" user="NKA">
		<tag k="name" v="Morki" />
		<tag k="place" v="farm" />
		<tag k="ssr:stedsnr" v="551349" />
	</node>
	<node id="9979218562" lat="60.380325" lon="6.0374197" version="1" timestamp="2022-08-26T06:53:38Z" changeset="125390827" uid="3497659" user="NKA">
		<tag k="historic" v="shieling" />
		<tag k="name" v="Byrkjesete" />
		<tag k="place" v="hamlet" />
		<tag k="ssr:stedsnr" v="794693" />
	</node>
	<node id="9979218563" lat="60.3088333" lon="6.1682391" version="1" timestamp="2022-08-26T06:53:38Z" changeset="125390827" uid="3497659" user="NKA">
		<tag k="name" v="Stekka" />
		<tag k="place" v="farm" />
		<tag k="ssr:stedsnr" v="369950" />
	</node>
	<node id="9979218564" lat="60.4092055" lon="6.1057503" version="1" timestamp="2022-08-26T06:53:38Z" changeset="125390827" uid="3497659" user="NKA">
		<tag k="historic" v="shieling" />
		<tag k="name" v="Grønsete" />
		<tag k="place" v="isolated_dwelling" />
		<tag k="ssr:stedsnr" v="915730" />
	</node>
	<node id="9979218565" lat="60.3441056" lon="6.0304086" version="1" timestamp="2022-08-26T06:53:38Z" changeset="125390827" uid="3497659" user="NKA">
		<tag k="historic" v="shieling" />
		<tag k="name" v="Pungalia" />
		<tag k="place" v="isolated_dwelling" />
		<tag k="ssr:stedsnr" v="915563" />
	</node>
	<node id="9979218566" lat="60.3162111" lon="6.144378" version="1" timestamp="2022-08-26T06:53:38Z" changeset="125390827" uid="3497659" user="NKA">
		<tag k="historic" v="shieling" />
		<tag k="name" v="Revshaug" />
		<tag k="place" v="isolated_dwelling" />
		<tag k="ssr:stedsnr" v="369999" />
	</node>
	<node id="9979218567" lat="60.4074917" lon="6.2157836" version="1" timestamp="2022-08-26T06:53:38Z" changeset="125390827" uid="3497659" user="NKA">
		<tag k="name" v="Årbø" />
		<tag k="place" v="farm" />
		<tag k="ssr:stedsnr" v="369713" />
	</node>
	<node id="9979218568" lat="60.2773907" lon="6.1693701" version="1" timestamp="2022-08-26T06:53:38Z" changeset="125390827" uid="3497659" user="NKA">
		<tag k="name" v="Eide" />
		<tag k="place" v="hamlet" />
		<tag k="ssr:stedsnr" v="369810" />
	</node>
	<node id="9979218569" lat="60.354975" lon="6.0064085" version="1" timestamp="2022-08-26T06:53:38Z" changeset="125390827" uid="3497659" user="NKA">
		<tag k="historic" v="shieling" />
		<tag k="name" v="Svartaberg" />
		<tag k="place" v="isolated_dwelling" />
		<tag k="ssr:stedsnr" v="794598" />
	</node>
	<node id="9979218570" lat="60.3260611" lon="5.9618196" version="1" timestamp="2022-08-26T06:53:38Z" changeset="125390827" uid="3497659" user="NKA">
		<tag k="historic" v="shieling" />
		<tag k="name" v="Kviteberg" />
		<tag k="place" v="isolated_dwelling" />
		<tag k="ssr:stedsnr" v="794500" />
	</node>
	<node id="9979218571" lat="60.5015306" lon="6.2052475" version="1" timestamp="2022-08-26T06:53:38Z" changeset="125390827" uid="3497659" user="NKA">
		<tag k="name" v="Dalen" />
		<tag k="place" v="farm" />
		<tag k="ssr:stedsnr" v="408421" />
	</node>
	<node id="9979218572" lat="60.3639" lon="6.0983031" version="1" timestamp="2022-08-26T06:53:38Z" changeset="125390827" uid="3497659" user="NKA">
		<tag k="name" v="Symra" />
		<tag k="place" v="farm" />
		<tag k="ssr:stedsnr" v="369560" />
	</node>
	<node id="9979218573" lat="60.3501611" lon="6.0343198" version="1" timestamp="2022-08-26T06:53:38Z" changeset="125390827" uid="3497659" user="NKA">
		<tag k="historic" v="shieling" />
		<tag k="name" v="Netelandsstølen" />
		<tag k="place" v="isolated_dwelling" />
		<tag k="ssr:stedsnr" v="794595" />
	</node>
	<node id="9979218574" lat="60.3211405" lon="6.1497531" version="1" timestamp="2022-08-26T06:53:38Z" changeset="125390827" uid="3497659" user="NKA">
		<tag k="name" v="Heradstveit" />
		<tag k="place" v="hamlet" />
		<tag k="ssr:stedsnr" v="248997" />
	</node>
	<node id="9979218575" lat="60.3636944" lon="6.2785114" version="1" timestamp="2022-08-26T06:53:38Z" changeset="125390827" uid="3497659" user="NKA">
		<tag k="name" v="Nystad" />
		<tag k="place" v="farm" />
		<tag k="ssr:stedsnr" v="126088" />
	</node>
	<node id="9979218576" lat="60.4800483" lon="6.2088934" version="1" timestamp="2022-08-26T06:53:38Z" changeset="125390827" uid="3497659" user="NKA">
		<tag k="name" v="Flatabø" />
		<tag k="place" v="hamlet" />
		<tag k="ssr:stedsnr" v="187322" />
	</node>
	<node id="9979218577" lat="60.362375" lon="6.0893003" version="1" timestamp="2022-08-26T06:53:38Z" changeset="125390827" uid="3497659" user="NKA">
		<tag k="name" v="Grøntveit" />
		<tag k="place" v="farm" />
		<tag k="ssr:stedsnr" v="673635" />
	</node>
	<node id="9979218578" lat="60.3520056" lon="6.1687752" version="1" timestamp="2022-08-26T06:53:38Z" changeset="125390827" uid="3497659" user="NKA">
		<tag k="name" v="Tindland" />
		<tag k="place" v="farm" />
		<tag k="ssr:stedsnr" v="187546" />
	</node>
	<node id="9979218579" lat="60.3531306" lon="6.0483808" version="1" timestamp="2022-08-26T06:53:38Z" changeset="125390827" uid="3497659" user="NKA">
		<tag k="historic" v="shieling" />
		<tag k="name" v="Klipet" />
		<tag k="place" v="isolated_dwelling" />
		<tag k="ssr:stedsnr" v="187564" />
	</node>
	<node id="9979218580" lat="60.4339861" lon="6.119667" version="1" timestamp="2022-08-26T06:53:38Z" changeset="125390827" uid="3497659" user="NKA">
		<tag k="historic" v="shieling" />
		<tag k="name" v="Eivindsete" />
		<tag k="place" v="isolated_dwelling" />
		<tag k="ssr:stedsnr" v="672432" />
	</node>
	<node id="9979218581" lat="60.3629055" lon="6.0815392" version="1" timestamp="2022-08-26T06:53:38Z" changeset="125390827" uid="3497659" user="NKA">
		<tag k="name" v="Steine" />
		<tag k="place" v="hamlet" />
		<tag k="ssr:stedsnr" v="612625" />
	</node>
	<node id="9979218582" lat="60.3268083" lon="6.2052141" version="1" timestamp="2022-08-26T06:53:38Z" changeset="125390827" uid="3497659" user="NKA">
		<tag k="name" v="Oppsåto" />
		<tag k="place" v="farm" />
		<tag k="ssr:stedsnr" v="638682" />
	</node>
	<node id="9979218583" lat="60.514675" lon="6.1472753" version="1" timestamp="2022-08-26T06:53:38Z" changeset="125390827" uid="3497659" user="NKA">
		<tag k="historic" v="shieling" />
		<tag k="name" v="Blåkoll" />
		<tag k="place" v="isolated_dwelling" />
		<tag k="ssr:stedsnr" v="370787" />
	</node>
	<node id="9979218584" lat="60.3130195" lon="6.0728809" version="1" timestamp="2022-08-26T06:53:38Z" changeset="125390827" uid="3497659" user="NKA">
		<tag k="historic" v="shieling" />
		<tag k="name" v="Koldal" />
		<tag k="place" v="isolated_dwelling" />
		<tag k="ssr:stedsnr" v="855980" />
	</node>
	<node id="9979218585" lat="60.3172805" lon="6.0327085" version="1" timestamp="2022-08-26T06:53:38Z" changeset="125390827" uid="3497659" user="NKA">
		<tag k="historic" v="shieling" />
		<tag k="name" v="Lauvsete" />
		<tag k="place" v="isolated_dwelling" />
		<tag k="ssr:stedsnr" v="490972" />
	</node>
	<node id="9979218586" lat="60.4149278" lon="6.0169086" version="1" timestamp="2022-08-26T06:53:38Z" changeset="125390827" uid="3497659" user="NKA">
		<tag k="historic" v="shieling" />
		<tag k="name" v="Øvrakvanndalen" />
		<tag k="place" v="isolated_dwelling" />
		<tag k="ssr:stedsnr" v="430475" />
	</node>
	<node id="9979218587" lat="60.3719861" lon="6.1068029" version="1" timestamp="2022-08-26T06:53:38Z" changeset="125390827" uid="3497659" user="NKA">
		<tag k="alt_name" v="Midthus" />
		<tag k="name" v="Midhus" />
		<tag k="place" v="farm" />
		<tag k="ssr:stedsnr" v="309668" />
	</node>
	<node id="9979218588" lat="60.3789055" lon="5.9806586" version="1" timestamp="2022-08-26T06:53:38Z" changeset="125390827" uid="3497659" user="NKA">
		<tag k="name" v="Furedalen" />
		<tag k="place" v="neighbourhood" />
		<tag k="ssr:stedsnr" v="464238" />
	</node>
	<node id="9979218589" lat="60.3827195" lon="6.1218696" version="1" timestamp="2022-08-26T06:53:38Z" changeset="125390827" uid="3497659" user="NKA">
		<tag k="historic" v="shieling" />
		<tag k="name" v="Stuvasete" />
		<tag k="place" v="isolated_dwelling" />
		<tag k="ssr:stedsnr" v="430665" />
	</node>
	<node id="9979218590" lat="60.32645" lon="6.0869892" version="1" timestamp="2022-08-26T06:53:38Z" changeset="125390827" uid="3497659" user="NKA">
		<tag k="historic" v="shieling" />
		<tag k="name" v="Nystøl" />
		<tag k="place" v="isolated_dwelling" />
		<tag k="ssr:stedsnr" v="309538" />
	</node>
	<node id="9979218591" lat="60.3727278" lon="6.0235086" version="1" timestamp="2022-08-26T06:53:38Z" changeset="125390827" uid="3497659" user="NKA">
		<tag k="name" v="Fureberghovden" />
		<tag k="place" v="neighbourhood" />
		<tag k="ssr:stedsnr" v="525169" />
	</node>
	<node id="9979218592" lat="60.2967726" lon="6.0189359" version="1" timestamp="2022-08-26T06:53:38Z" changeset="125390827" uid="3497659" user="NKA">
		<tag k="alt_name" v="Haukås, øvre" />
		<tag k="name" v="Øvre Haukås" />
		<tag k="place" v="farm" />
		<tag k="ssr:stedsnr" v="309924" />
	</node>
	<node id="9979218593" lat="60.3290962" lon="6.0383198" version="1" timestamp="2022-08-26T06:53:38Z" changeset="125390827" uid="3497659" user="NKA">
		<tag k="historic" v="shieling" />
		<tag k="name" v="Fagerli" />
		<tag k="place" v="isolated_dwelling" />
		<tag k="ssr:stedsnr" v="309563" />
	</node>
	<node id="9979218594" lat="60.3939778" lon="6.0922752" version="1" timestamp="2022-08-26T06:53:38Z" changeset="125390827" uid="3497659" user="NKA">
		<tag k="historic" v="shieling" />
		<tag k="name" v="Norheimsdalen" />
		<tag k="place" v="isolated_dwelling" />
		<tag k="ssr:stedsnr" v="308663" />
	</node>
	<node id="9979218595" lat="60.2503639" lon="6.0046002" version="1" timestamp="2022-08-26T06:53:38Z" changeset="125390827" uid="3497659" user="NKA">
		<tag k="alt_name" v="Børsheim, in" />
		<tag k="name" v="Indre Børsheim" />
		<tag k="place" v="farm" />
		<tag k="ssr:stedsnr" v="126782" />
	</node>
	<node id="9979218596" lat="60.2550579" lon="6.1225466" version="1" timestamp="2022-08-26T06:53:38Z" changeset="125390827" uid="3497659" user="NKA">
		<tag k="name" v="Tveit" />
		<tag k="place" v="hamlet" />
		<tag k="ssr:stedsnr" v="916774" />
	</node>
	<node id="9979218597" lat="60.4122861" lon="6.229378" version="1" timestamp="2022-08-26T06:53:38Z" changeset="125390827" uid="3497659" user="NKA">
		<tag k="name" v="Øverland" />
		<tag k="place" v="farm" />
		<tag k="ssr:stedsnr" v="105088" />
	</node>
	<node id="9979218598" lat="60.3913583" lon="6.1105364" version="1" timestamp="2022-08-26T06:53:38Z" changeset="125390827" uid="3497659" user="NKA">
		<tag k="historic" v="shieling" />
		<tag k="name" v="Forsete" />
		<tag k="place" v="isolated_dwelling" />
		<tag k="ssr:stedsnr" v="248709" />
	</node>
	<node id="9979218599" lat="60.3627583" lon="6.0612781" version="1" timestamp="2022-08-26T06:53:38Z" changeset="125390827" uid="3497659" user="NKA">
		<tag k="name" v="Nybø" />
		<tag k="place" v="farm" />
		<tag k="ssr:stedsnr" v="105769" />
	</node>
	<node id="9979218600" lat="60.4095278" lon="6.2058391" version="1" timestamp="2022-08-26T06:53:38Z" changeset="125390827" uid="3497659" user="NKA">
		<tag k="name" v="Soldal" />
		<tag k="place" v="hamlet" />
		<tag k="ssr:stedsnr" v="226063" />
	</node>
	<node id="9979218601" lat="60.3402261" lon="6.0348999" version="1" timestamp="2022-08-26T06:53:38Z" changeset="125390827" uid="3497659" user="NKA">
		<tag k="historic" v="shieling" />
		<tag k="name" v="Tolahella" />
		<tag k="place" v="isolated_dwelling" />
		<tag k="ssr:stedsnr" v="126587" />
	</node>
	<node id="9979218602" lat="60.3440167" lon="6.0653614" version="1" timestamp="2022-08-26T06:53:38Z" changeset="125390827" uid="3497659" user="NKA">
		<tag k="historic" v="shieling" />
		<tag k="name" v="Blomsete" />
		<tag k="place" v="isolated_dwelling" />
		<tag k="ssr:stedsnr" v="430577" />
	</node>
	<node id="9979218603" lat="60.1484178" lon="5.8985183" version="1" timestamp="2022-08-26T06:53:38Z" changeset="125390827" uid="3497659" user="NKA">
		<tag k="name" v="Furhovda" />
		<tag k="place" v="hamlet" />
		<tag k="ssr:stedsnr" v="672540" />
	</node>
	<node id="9979218604" lat="60.2324972" lon="5.9612558" version="1" timestamp="2022-08-26T06:53:38Z" changeset="125390827" uid="3497659" user="NKA">
		<tag k="name" v="Rolegheita" />
		<tag k="place" v="farm" />
		<tag k="ssr:stedsnr" v="164425" />
	</node>
	<node id="9979218605" lat="60.36635" lon="6.0567087" version="1" timestamp="2022-08-26T06:53:38Z" changeset="125390827" uid="3497659" user="NKA">
		<tag k="historic" v="shieling" />
		<tag k="name" v="Bjørga" />
		<tag k="place" v="isolated_dwelling" />
		<tag k="ssr:stedsnr" v="612653" />
	</node>
	<node id="9979218606" lat="60.3356694" lon="6.070592" version="1" timestamp="2022-08-26T06:53:38Z" changeset="125390827" uid="3497659" user="NKA">
		<tag k="historic" v="shieling" />
		<tag k="name" v="Gullvotno" />
		<tag k="place" v="isolated_dwelling" />
		<tag k="ssr:stedsnr" v="5518" />
	</node>
	<node id="9979218607" lat="60.320225" lon="6.0056836" version="1" timestamp="2022-08-26T06:53:38Z" changeset="125390827" uid="3497659" user="NKA">
		<tag k="historic" v="shieling" />
		<tag k="name" v="Holsete" />
		<tag k="place" v="hamlet" />
		<tag k="ssr:stedsnr" v="855525" />
	</node>
	<node id="9979218608" lat="60.3727932" lon="5.9933958" version="1" timestamp="2022-08-26T06:53:38Z" changeset="125390827" uid="3497659" user="NKA">
		<tag k="name" v="Kvinnhovden" />
		<tag k="place" v="neighbourhood" />
		<tag k="ssr:stedsnr" v="161242" />
	</node>
	<node id="9979218609" lat="60.4617402" lon="6.086472" version="1" timestamp="2022-08-26T06:53:38Z" changeset="125390827" uid="3497659" user="NKA">
		<tag k="historic" v="shieling" />
		<tag k="name" v="Fugladalen" />
		<tag k="place" v="isolated_dwelling" />
		<tag k="ssr:stedsnr" v="855387" />
	</node>
	<node id="9979218610" lat="60.3279334" lon="5.9891891" version="1" timestamp="2022-08-26T06:53:38Z" changeset="125390827" uid="3497659" user="NKA">
		<tag k="historic" v="shieling" />
		<tag k="name" v="Grønli" />
		<tag k="place" v="isolated_dwelling" />
		<tag k="ssr:stedsnr" v="855561" />
	</node>
	<node id="9979218611" lat="60.3459472" lon="6.1794168" version="1" timestamp="2022-08-26T06:53:38Z" changeset="125390827" uid="3497659" user="NKA">
		<tag k="name" v="Laupsa" />
		<tag k="place" v="neighbourhood" />
		<tag k="ssr:stedsnr" v="786283" />
	</node>
	<node id="9979218612" lat="60.3518778" lon="6.172803" version="1" timestamp="2022-08-26T06:53:38Z" changeset="125390827" uid="3497659" user="NKA">
		<tag k="name" v="Blyberg" />
		<tag k="place" v="farm" />
		<tag k="ssr:stedsnr" v="954031" />
	</node>
	<node id="9979218613" lat="60.3591812" lon="6.072481" version="1" timestamp="2022-08-26T06:53:38Z" changeset="125390827" uid="3497659" user="NKA">
		<tag k="name" v="Byrkjeland" />
		<tag k="place" v="hamlet" />
		<tag k="ssr:stedsnr" v="651768" />
	</node>
	<node id="9979218614" lat="60.4775028" lon="6.2094057" version="1" timestamp="2022-08-26T06:53:38Z" changeset="125390827" uid="3497659" user="NKA">
		<tag k="alt_name" v="Kannikkeberg" />
		<tag k="name" v="Kannikeberg" />
		<tag k="place" v="farm" />
		<tag k="ssr:stedsnr" v="733378" />
	</node>
	<node id="9979218615" lat="60.3165416" lon="6.1689835" version="1" timestamp="2022-08-26T06:53:38Z" changeset="125390827" uid="3497659" user="NKA">
		<tag k="name" v="Liland" />
		<tag k="place" v="farm" />
		<tag k="ssr:stedsnr" v="733979" />
	</node>
	<node id="9979218616" lat="60.416371" lon="6.3873753" version="1" timestamp="2022-08-26T06:53:38Z" changeset="125390827" uid="3497659" user="NKA">
		<tag k="name" v="Tveit" />
		<tag k="place" v="farm" />
		<tag k="ssr:stedsnr" v="66122" />
	</node>
	<node id="9979218617" lat="60.4138973" lon="6.385653" version="1" timestamp="2022-08-26T06:53:38Z" changeset="125390827" uid="3497659" user="NKA">
		<tag k="name" v="Vedanes" />
		<tag k="place" v="farm" />
		<tag k="ssr:stedsnr" v="287458" />
	</node>
	<node id="9979218618" lat="60.398063" lon="6.1290171" version="1" timestamp="2022-08-26T06:53:38Z" changeset="125390827" uid="3497659" user="NKA">
		<tag k="historic" v="shieling" />
		<tag k="name" v="Flyane" />
		<tag k="place" v="isolated_dwelling" />
		<tag k="ssr:stedsnr" v="794715" />
	</node>
	<node id="9979218619" lat="60.3647014" lon="6.2764489" version="1" timestamp="2022-08-26T06:53:38Z" changeset="125390827" uid="3497659" user="NKA">
		<tag k="name" v="Træstad" />
		<tag k="place" v="farm" />
		<tag k="ssr:stedsnr" v="915091" />
	</node>
	<node id="9979218620" lat="60.367525" lon="6.1711891" version="1" timestamp="2022-08-26T06:53:38Z" changeset="125390827" uid="3497659" user="NKA">
		<tag k="name" v="Vallandshaugane" />
		<tag k="place" v="farm" />
		<tag k="ssr:stedsnr" v="589039" />
	</node>
	<node id="9979218621" lat="60.477075" lon="6.2878364" version="1" timestamp="2022-08-26T06:53:38Z" changeset="125390827" uid="3497659" user="NKA">
		<tag k="historic" v="shieling" />
		<tag k="name" v="Goddalstølen" />
		<tag k="place" v="isolated_dwelling" />
		<tag k="ssr:stedsnr" v="673763" />
	</node>
	<node id="9979218622" lat="60.2051714" lon="5.9667777" version="1" timestamp="2022-08-26T06:53:38Z" changeset="125390827" uid="3497659" user="NKA">
		<tag k="name" v="Årsnes" />
		<tag k="place" v="farm" />
		<tag k="ssr:stedsnr" v="430487" />
	</node>
	<node id="9979218623" lat="60.3777565" lon="6.1577284" version="1" timestamp="2022-08-26T06:53:38Z" changeset="125390827" uid="3497659" user="NKA">
		<tag k="name" v="Kriken" />
		<tag k="place" v="farm" />
		<tag k="ssr:stedsnr" v="551665" />
	</node>
	<node id="9979218624" lat="60.3816558" lon="6.1415807" version="1" timestamp="2022-08-26T06:53:38Z" changeset="125390827" uid="3497659" user="NKA">
		<tag k="name" v="Sæleset" />
		<tag k="place" v="hamlet" />
		<tag k="ssr:stedsnr" v="309683" />
	</node>
	<node id="9979218625" lat="60.1654139" lon="5.8952059" version="1" timestamp="2022-08-26T06:53:38Z" changeset="125390827" uid="3497659" user="NKA">
		<tag k="historic" v="shieling" />
		<tag k="loc_name" v="Mundheimssetret" />
		<tag k="name" v="Mundheimssetra" />
		<tag k="place" v="isolated_dwelling" />
		<tag k="ssr:stedsnr" v="611578" />
	</node>
	<node id="9979218626" lat="60.4427528" lon="6.1544418" version="1" timestamp="2022-08-26T06:53:38Z" changeset="125390827" uid="3497659" user="NKA">
		<tag k="historic" v="shieling" />
		<tag k="name" v="Håsete" />
		<tag k="place" v="isolated_dwelling" />
		<tag k="ssr:stedsnr" v="187398" />
	</node>
	<node id="9979218627" lat="60.3790522" lon="6.1620779" version="1" timestamp="2022-08-26T06:53:38Z" changeset="125390827" uid="3497659" user="NKA">
		<tag k="name" v="Skålheim" />
		<tag k="place" v="hamlet" />
		<tag k="ssr:stedsnr" v="248680" />
	</node>
	<node id="9979218628" lat="60.2141805" lon="5.9393281" version="1" timestamp="2022-08-26T06:53:38Z" changeset="125390827" uid="3497659" user="NKA">
		<tag k="historic" v="shieling" />
		<tag k="name" v="Vikestølen" />
		<tag k="place" v="isolated_dwelling" />
		<tag k="ssr:stedsnr" v="772671" />
	</node>
	<node id="9979218629" lat="60.1326614" lon="5.8930782" version="1" timestamp="2022-08-26T06:53:38Z" changeset="125390827" uid="3497659" user="NKA">
		<tag k="name" v="Gravdal" />
		<tag k="place" v="hamlet" />
		<tag k="ssr:stedsnr" v="369542" />
	</node>
	<node id="9979218630" lat="60.2600999" lon="6.0721571" version="1" timestamp="2022-08-26T06:53:38Z" changeset="125390827" uid="3497659" user="NKA">
		<tag k="name" v="Linga" />
		<tag k="place" v="hamlet" />
		<tag k="ssr:stedsnr" v="987907" />
	</node>
	<node id="9979218631" lat="60.3599667" lon="6.160828" version="1" timestamp="2022-08-26T06:53:38Z" changeset="125390827" uid="3497659" user="NKA">
		<tag k="name" v="Seland" />
		<tag k="place" v="farm" />
		<tag k="ssr:stedsnr" v="794571" />
	</node>
	<node id="9979218632" lat="60.4126639" lon="6.1586613" version="1" timestamp="2022-08-26T06:53:38Z" changeset="125390827" uid="3497659" user="NKA">
		<tag k="historic" v="shieling" />
		<tag k="name" v="Kvannvik" />
		<tag k="place" v="isolated_dwelling" />
		<tag k="ssr:stedsnr" v="855765" />
	</node>
	<node id="9979218633" lat="60.3847539" lon="6.1957094" version="1" timestamp="2022-08-26T06:53:38Z" changeset="125390827" uid="3497659" user="NKA">
		<tag k="name" v="Nedre Vik" />
		<tag k="place" v="neighbourhood" />
		<tag k="ssr:stedsnr" v="665334" />
	</node>
	<node id="9979218634" lat="60.4202778" lon="6.2955364" version="1" timestamp="2022-08-26T06:53:38Z" changeset="125390827" uid="3497659" user="NKA">
		<tag k="alt_name" v="Syrdalstølen" />
		<tag k="historic" v="shieling" />
		<tag k="name" v="Syrdal" />
		<tag k="place" v="isolated_dwelling" />
		<tag k="ssr:stedsnr" v="651885" />
	</node>
	<node id="9979218635" lat="60.3458139" lon="6.1485141" version="1" timestamp="2022-08-26T06:53:38Z" changeset="125390827" uid="3497659" user="NKA">
		<tag k="historic" v="shieling" />
		<tag k="name" v="Gamlestølen" />
		<tag k="place" v="isolated_dwelling" />
		<tag k="ssr:stedsnr" v="855572" />
	</node>
	<node id="9979218636" lat="60.4614118" lon="6.22385" version="1" timestamp="2022-08-26T06:53:38Z" changeset="125390827" uid="3497659" user="NKA">
		<tag k="name" v="Fletene" />
		<tag k="place" v="locality" />
		<tag k="ssr:stedsnr" v="517356" />
	</node>
	<node id="9979218637" lat="60.2860139" lon="6.182503" version="1" timestamp="2022-08-26T06:53:38Z" changeset="125390827" uid="3497659" user="NKA">
		<tag k="name" v="Vågsnes" />
		<tag k="place" v="farm" />
		<tag k="ssr:stedsnr" v="942755" />
	</node>
	<node id="9979218638" lat="60.2859528" lon="6.0767863" version="1" timestamp="2022-08-26T06:53:38Z" changeset="125390827" uid="3497659" user="NKA">
		<tag k="historic" v="shieling" />
		<tag k="name" v="Lingheller" />
		<tag k="place" v="isolated_dwelling" />
		<tag k="ssr:stedsnr" v="794881" />
	</node>
	<node id="9979218639" lat="60.3858838" lon="6.193044" version="1" timestamp="2022-08-26T06:53:38Z" changeset="125390827" uid="3497659" user="NKA">
		<tag k="name" v="Vik" />
		<tag k="place" v="quarter" />
		<tag k="ssr:stedsnr" v="490676" />
	</node>
	<node id="9979218640" lat="60.2722489" lon="6.0348808" version="1" timestamp="2022-08-26T06:53:38Z" changeset="125390827" uid="3497659" user="NKA">
		<tag k="name" v="Fosse" />
		<tag k="place" v="hamlet" />
		<tag k="ssr:stedsnr" v="987913" />
	</node>
	<node id="9979218641" lat="60.3046598" lon="6.1661801" version="1" timestamp="2022-08-26T06:53:38Z" changeset="125390827" uid="3497659" user="NKA">
		<tag k="name" v="Hovden" />
		<tag k="place" v="neighbourhood" />
		<tag k="ssr:stedsnr" v="982039" />
	</node>
	<node id="9979218642" lat="60.285262" lon="6.1810316" version="1" timestamp="2022-08-26T06:53:38Z" changeset="125390827" uid="3497659" user="NKA">
		<tag k="name" v="Eidesvågen" />
		<tag k="place" v="hamlet" />
		<tag k="ssr:stedsnr" v="794843" />
	</node>
	<node id="9979218643" lat="60.3030888" lon="5.9672946" version="1" timestamp="2022-08-26T06:53:38Z" changeset="125390827" uid="3497659" user="NKA">
		<tag k="historic" v="shieling" />
		<tag k="name" v="Skor" />
		<tag k="place" v="isolated_dwelling" />
		<tag k="ssr:stedsnr" v="672953" />
	</node>
	<node id="9979218644" lat="60.2958427" lon="6.0204417" version="1" timestamp="2022-08-26T06:53:38Z" changeset="125390827" uid="3497659" user="NKA">
		<tag k="name" v="Haukås" />
		<tag k="place" v="hamlet" />
		<tag k="ssr:stedsnr" v="987914" />
	</node>
	<node id="9979218645" lat="60.3646952" lon="6.1464159" version="1" timestamp="2022-08-26T06:53:38Z" changeset="125390827" uid="3497659" user="NKA">
		<tag k="name" v="Kaldestad" />
		<tag k="place" v="farm" />
		<tag k="ssr:stedsnr" v="734652" />
	</node>
	<node id="9979218646" lat="60.2641179" lon="6.1467132" version="1" timestamp="2022-08-26T06:53:38Z" changeset="125390827" uid="3497659" user="NKA">
		<tag k="name" v="Ljones" />
		<tag k="place" v="hamlet" />
		<tag k="ssr:stedsnr" v="794788" />
	</node>
	<node id="9979218647" lat="60.3099417" lon="6.1359641" version="1" timestamp="2022-08-26T06:53:38Z" changeset="125390827" uid="3497659" user="NKA">
		<tag k="historic" v="shieling" />
		<tag k="name" v="Perslesælet" />
		<tag k="place" v="isolated_dwelling" />
		<tag k="ssr:stedsnr" v="491944" />
	</node>
	<node id="9979218648" lat="60.2787194" lon="6.1574252" version="1" timestamp="2022-08-26T06:53:38Z" changeset="125390827" uid="3497659" user="NKA">
		<tag k="name" v="Vetletveit" />
		<tag k="place" v="farm" />
		<tag k="ssr:stedsnr" v="491823" />
	</node>
	<node id="9979218649" lat="60.3634055" lon="6.1719058" version="1" timestamp="2022-08-26T06:53:38Z" changeset="125390827" uid="3497659" user="NKA">
		<tag k="name" v="Holmsund" />
		<tag k="place" v="farm" />
		<tag k="ssr:stedsnr" v="788693" />
	</node>
	<node id="9979218650" lat="60.319925" lon="6.1578392" version="1" timestamp="2022-08-26T06:53:38Z" changeset="125390827" uid="3497659" user="NKA">
		<tag k="name" v="Nyland" />
		<tag k="place" v="farm" />
		<tag k="ssr:stedsnr" v="672999" />
	</node>
	<node id="9979218651" lat="60.2891666" lon="6.1721891" version="1" timestamp="2022-08-26T06:53:38Z" changeset="125390827" uid="3497659" user="NKA">
		<tag k="name" v="Kjelby" />
		<tag k="place" v="farm" />
		<tag k="ssr:stedsnr" v="469646" />
	</node>
	<node id="9979218652" lat="60.2745918" lon="6.0305011" version="1" timestamp="2022-08-26T06:53:38Z" changeset="125390827" uid="3497659" user="NKA">
		<tag k="name" v="Vikane" />
		<tag k="place" v="farm" />
		<tag k="ssr:stedsnr" v="934111" />
	</node>
	<node id="9979218653" lat="60.2781814" lon="6.1490774" version="1" timestamp="2022-08-26T06:53:38Z" changeset="125390827" uid="3497659" user="NKA">
		<tag k="name" v="Åse" />
		<tag k="place" v="hamlet" />
		<tag k="ssr:stedsnr" v="612848" />
	</node>
	<node id="9979218654" lat="60.2945638" lon="6.0191059" version="1" timestamp="2022-08-26T06:53:38Z" changeset="125390827" uid="3497659" user="NKA">
		<tag k="alt_name" v="Haukås, nedre" />
		<tag k="name" v="Nedre Haukås" />
		<tag k="place" v="farm" />
		<tag k="ssr:stedsnr" v="551922" />
	</node>
	<node id="9979218655" lat="60.288975" lon="6.0314003" version="1" timestamp="2022-08-26T06:53:38Z" changeset="125390827" uid="3497659" user="NKA">
		<tag k="alt_name" v="Engjadal;Engjedalen" />
		<tag k="name" v="Engjadalen" />
		<tag k="place" v="hamlet" />
		<tag k="ssr:stedsnr" v="430885" />
	</node>
	<node id="9979218656" lat="60.3111584" lon="6.0548586" version="1" timestamp="2022-08-26T06:53:38Z" changeset="125390827" uid="3497659" user="NKA">
		<tag k="historic" v="shieling" />
		<tag k="name" v="Nipe" />
		<tag k="place" v="isolated_dwelling" />
		<tag k="ssr:stedsnr" v="794960" />
	</node>
	<node id="9979218657" lat="60.2877083" lon="6.0492308" version="1" timestamp="2022-08-26T06:53:38Z" changeset="125390827" uid="3497659" user="NKA">
		<tag k="alt_name" v="Midtbø" />
		<tag k="name" v="Eide" />
		<tag k="place" v="farm" />
		<tag k="ssr:stedsnr" v="915887" />
	</node>
	<node id="9979218658" lat="60.2659614" lon="6.0463299" version="1" timestamp="2022-08-26T06:53:38Z" changeset="125390827" uid="3497659" user="NKA">
		<tag k="alt_name" v="Apalhaug" />
		<tag k="name" v="Apalhaugen" />
		<tag k="place" v="farm" />
		<tag k="ssr:stedsnr" v="794778" />
	</node>
	<node id="9979218659" lat="60.2936806" lon="6.1611364" version="1" timestamp="2022-08-26T06:53:38Z" changeset="125390827" uid="3497659" user="NKA">
		<tag k="name" v="Nygard" />
		<tag k="place" v="farm" />
		<tag k="ssr:stedsnr" v="794875" />
	</node>
	<node id="9979218660" lat="60.248657" lon="6.0019881" version="1" timestamp="2022-08-26T06:53:38Z" changeset="125390827" uid="3497659" user="NKA">
		<tag k="name" v="Midtre Børsheim" />
		<tag k="place" v="farm" />
		<tag k="ssr:stedsnr" v="821146" />
	</node>
	<node id="9979218661" lat="60.2628909" lon="6.1361201" version="1" timestamp="2022-08-26T06:53:38Z" changeset="125390827" uid="3497659" user="NKA">
		<tag k="alt_name" v="Koltveit" />
		<tag k="name" v="Kolltveit" />
		<tag k="place" v="hamlet" />
		<tag k="ssr:stedsnr" v="794785" />
	</node>
	<node id="9979218662" lat="60.3131364" lon="6.1620345" version="1" timestamp="2022-08-26T06:53:38Z" changeset="125390827" uid="3497659" user="NKA">
		<tag k="name" v="Berge" />
		<tag k="place" v="hamlet" />
		<tag k="ssr:stedsnr" v="430968" />
	</node>
	<node id="9979218663" lat="60.297275" lon="6.1501947" version="1" timestamp="2022-08-26T06:53:38Z" changeset="125390827" uid="3497659" user="NKA">
		<tag k="alt_name" v="Lysen" />
		<tag k="name" v="Lyso" />
		<tag k="place" v="hamlet" />
		<tag k="ssr:stedsnr" v="5891" />
	</node>
	<node id="9979218664" lat="60.3529055" lon="6.1642336" version="1" timestamp="2022-08-26T06:53:38Z" changeset="125390827" uid="3497659" user="NKA">
		<tag k="name" v="Tveit" />
		<tag k="place" v="hamlet" />
		<tag k="ssr:stedsnr" v="430589" />
	</node>
	<node id="9979218665" lat="60.3034997" lon="6.139509" version="1" timestamp="2022-08-26T06:53:38Z" changeset="125390827" uid="3497659" user="NKA">
		<tag k="name" v="Tveiten" />
		<tag k="place" v="farm" />
		<tag k="ssr:stedsnr" v="551916" />
	</node>
	<node id="9979218666" lat="60.2879805" lon="6.0608363" version="1" timestamp="2022-08-26T06:53:38Z" changeset="125390827" uid="3497659" user="NKA">
		<tag k="name" v="Øyane" />
		<tag k="place" v="farm" />
		<tag k="ssr:stedsnr" v="712573" />
	</node>
	<node id="9979218667" lat="60.2735139" lon="6.0086696" version="1" timestamp="2022-08-26T06:53:38Z" changeset="125390827" uid="3497659" user="NKA">
		<tag k="name" v="Kjoberg" />
		<tag k="place" v="farm" />
		<tag k="ssr:stedsnr" v="673879" />
	</node>
	<node id="9979218668" lat="60.2910678" lon="6.1381036" version="1" timestamp="2022-08-26T06:53:38Z" changeset="125390827" uid="3497659" user="NKA">
		<tag k="historic" v="shieling" />
		<tag k="name" v="Rambasete" />
		<tag k="place" v="isolated_dwelling" />
		<tag k="ssr:stedsnr" v="308882" />
	</node>
	<node id="9979218669" lat="60.2719777" lon="6.0925058" version="1" timestamp="2022-08-26T06:53:38Z" changeset="125390827" uid="3497659" user="NKA">
		<tag k="historic" v="shieling" />
		<tag k="name" v="Olshiller" />
		<tag k="place" v="isolated_dwelling" />
		<tag k="ssr:stedsnr" v="673820" />
	</node>
	<node id="9979218670" lat="60.3104094" lon="6.1503865" version="1" timestamp="2022-08-26T06:53:38Z" changeset="125390827" uid="3497659" user="NKA">
		<tag k="name" v="Hallaråker" />
		<tag k="place" v="farm" />
		<tag k="ssr:stedsnr" v="309942" />
	</node>
	<node id="9979218671" lat="60.261041" lon="6.0110682" version="1" timestamp="2022-08-26T06:53:38Z" changeset="125390827" uid="3497659" user="NKA">
		<tag k="name" v="Tangarås" />
		<tag k="place" v="village" />
		<tag k="ssr:stedsnr" v="673808" />
	</node>
	<node id="9979218672" lat="60.3746095" lon="5.9873136" version="1" timestamp="2022-08-26T06:53:38Z" changeset="125390827" uid="3497659" user="NKA">
		<tag k="name" v="Kvamskogen" />
		<tag k="place" v="village" />
		<tag k="ssr:stedsnr" v="308670" />
	</node>
	<node id="9979218673" lat="60.3468398" lon="6.1789742" version="1" timestamp="2022-08-26T06:53:38Z" changeset="125390827" uid="3497659" user="NKA">
		<tag k="name" v="Hegrehaugen" />
		<tag k="place" v="neighbourhood" />
		<tag k="ssr:stedsnr" v="119292" />
	</node>
	<node id="9979218674" lat="60.2965207" lon="6.1686166" version="1" timestamp="2022-08-26T06:53:38Z" changeset="125390827" uid="3497659" user="NKA">
		<tag k="name" v="Drage" />
		<tag k="place" v="hamlet" />
		<tag k="ssr:stedsnr" v="369872" />
	</node>
	<node id="9979218675" lat="60.3656136" lon="6.272589" version="1" timestamp="2022-08-26T06:53:38Z" changeset="125390827" uid="3497659" user="NKA">
		<tag k="alt_name" v="Øyjord" />
		<tag k="name" v="Øyjordi" />
		<tag k="place" v="farm" />
		<tag k="ssr:stedsnr" v="66082" />
	</node>
	<node id="9979218676" lat="60.2747989" lon="6.1517164" version="1" timestamp="2022-08-26T06:53:38Z" changeset="125390827" uid="3497659" user="NKA">
		<tag k="alt_name" v="Kvitasteinen" />
		<tag k="name" v="Kvitastein" />
		<tag k="place" v="farm" />
		<tag k="ssr:stedsnr" v="612822" />
	</node>
	<node id="9979218677" lat="60.3749935" lon="6.1462787" version="1" timestamp="2022-08-26T06:53:38Z" changeset="125390827" uid="3497659" user="NKA">
		<tag k="name" v="Norheim" />
		<tag k="place" v="quarter" />
		<tag k="ssr:stedsnr" v="66626" />
	</node>
	<node id="9979218678" lat="60.2803445" lon="6.0219363" version="1" timestamp="2022-08-26T06:53:38Z" changeset="125390827" uid="3497659" user="NKA">
		<tag k="name" v="Nytveit" />
		<tag k="place" v="farm" />
		<tag k="ssr:stedsnr" v="589620" />
	</node>
	<node id="9979218679" lat="60.2740806" lon="6.0264336" version="1" timestamp="2022-08-26T06:53:38Z" changeset="125390827" uid="3497659" user="NKA">
		<tag k="name" v="Holen" />
		<tag k="place" v="farm" />
		<tag k="ssr:stedsnr" v="551833" />
	</node>
	<node id="9979218680" lat="60.3273874" lon="6.1940007" version="1" timestamp="2022-08-26T06:53:38Z" changeset="125390827" uid="3497659" user="NKA">
		<tag k="name" v="Vangdal" />
		<tag k="place" v="hamlet" />
		<tag k="ssr:stedsnr" v="5491" />
	</node>
	<node id="9979218681" lat="60.276175" lon="6.0693864" version="1" timestamp="2022-08-26T06:53:38Z" changeset="125390827" uid="3497659" user="NKA">
		<tag k="historic" v="shieling" />
		<tag k="name" v="Torstølen" />
		<tag k="place" v="isolated_dwelling" />
		<tag k="ssr:stedsnr" v="529507" />
	</node>
	<node id="9979218682" lat="60.2712367" lon="6.0193684" version="1" timestamp="2022-08-26T06:53:38Z" changeset="125390827" uid="3497659" user="NKA">
		<tag k="name" v="Berge" />
		<tag k="place" v="farm" />
		<tag k="ssr:stedsnr" v="491873" />
	</node>
	<node id="9979218683" lat="60.3265333" lon="6.2002808" version="1" timestamp="2022-08-26T06:53:38Z" changeset="125390827" uid="3497659" user="NKA">
		<tag k="name" v="Hamre" />
		<tag k="place" v="farm" />
		<tag k="ssr:stedsnr" v="794490" />
	</node>
	<node id="9979218684" lat="60.2997917" lon="6.1496141" version="1" timestamp="2022-08-26T06:53:38Z" changeset="125390827" uid="3497659" user="NKA">
		<tag k="name" v="Brattli" />
		<tag k="place" v="farm" />
		<tag k="ssr:stedsnr" v="127915" />
	</node>
	<node id="9979218685" lat="60.2738991" lon="6.005588" version="1" timestamp="2022-08-26T06:53:38Z" changeset="125390827" uid="3497659" user="NKA">
		<tag k="alt_name" v="Håbrekka" />
		<tag k="name" v="Håbrekke" />
		<tag k="place" v="hamlet" />
		<tag k="ssr:stedsnr" v="490889" />
	</node>
	<node id="9979218686" lat="60.2458722" lon="6.0038002" version="1" timestamp="2022-08-26T06:53:38Z" changeset="125390827" uid="3497659" user="NKA">
		<tag k="alt_name" v="Børsheim, yt" />
		<tag k="name" v="Ytre Børsheim" />
		<tag k="place" v="farm" />
		<tag k="ssr:stedsnr" v="490757" />
	</node>
	<node id="9979218687" lat="60.4438916" lon="6.4299002" version="1" timestamp="2022-08-26T06:53:38Z" changeset="125390827" uid="3497659" user="NKA">
		<tag k="name" v="Oskarborg" />
		<tag k="place" v="isolated_dwelling" />
		<tag k="ssr:stedsnr" v="733229" />
	</node>
	<node id="9979218688" lat="60.2546986" lon="6.1130321" version="1" timestamp="2022-08-26T06:53:38Z" changeset="125390827" uid="3497659" user="NKA">
		<tag k="alt_name" v="Røyrvika" />
		<tag k="name" v="Røyrvik" />
		<tag k="place" v="hamlet" />
		<tag k="ssr:stedsnr" v="491740" />
	</node>
	<node id="9979218689" lat="60.3241752" lon="6.1949618" version="1" timestamp="2022-08-26T06:53:38Z" changeset="125390827" uid="3497659" user="NKA">
		<tag k="name" v="Ytstheim" />
		<tag k="place" v="farm" />
		<tag k="ssr:stedsnr" v="590840" />
	</node>
	<node id="9979218690" lat="60.4228778" lon="6.216253" version="1" timestamp="2022-08-26T06:53:38Z" changeset="125390827" uid="3497659" user="NKA">
		<tag k="historic" v="shieling" />
		<tag k="name" v="Sekk" />
		<tag k="place" v="isolated_dwelling" />
		<tag k="ssr:stedsnr" v="915415" />
	</node>
	<node id="9979218691" lat="60.2726417" lon="6.0072947" version="1" timestamp="2022-08-26T06:53:38Z" changeset="125390827" uid="3497659" user="NKA">
		<tag k="name" v="Prestegarden" />
		<tag k="place" v="farm" />
		<tag k="ssr:stedsnr" v="467664" />
	</node>
	<node id="9979218692" lat="60.2912059" lon="6.1699763" version="1" timestamp="2022-08-26T06:53:38Z" changeset="125390827" uid="3497659" user="NKA">
		<tag k="name" v="Solheim" />
		<tag k="place" v="farm" />
		<tag k="ssr:stedsnr" v="712609" />
	</node>
	<node id="9979218693" lat="60.2974111" lon="6.0311392" version="1" timestamp="2022-08-26T06:53:38Z" changeset="125390827" uid="3497659" user="NKA">
		<tag k="name" v="Solberg" />
		<tag k="place" v="hamlet" />
		<tag k="ssr:stedsnr" v="794922" />
	</node>
	<node id="9979218694" lat="60.3244861" lon="6.1581863" version="1" timestamp="2022-08-26T06:53:38Z" changeset="125390827" uid="3497659" user="NKA">
		<tag k="name" v="Pundsteigen" />
		<tag k="place" v="farm" />
		<tag k="ssr:stedsnr" v="855495" />
	</node>
	<node id="9979218695" lat="60.2531028" lon="6.0831003" version="1" timestamp="2022-08-26T06:53:38Z" changeset="125390827" uid="3497659" user="NKA">
		<tag k="name" v="Skoglund" />
		<tag k="place" v="farm" />
		<tag k="ssr:stedsnr" v="369737" />
	</node>
	<node id="9979218696" lat="60.3101354" lon="6.0244142" version="1" timestamp="2022-08-26T06:53:38Z" changeset="125390827" uid="3497659" user="NKA">
		<tag k="historic" v="shieling" />
		<tag k="name" v="Botnane" />
		<tag k="place" v="isolated_dwelling" />
		<tag k="ssr:stedsnr" v="369938" />
	</node>
	<node id="9979218697" lat="60.2727028" lon="6.0217863" version="1" timestamp="2022-08-26T06:53:38Z" changeset="125390827" uid="3497659" user="NKA">
		<tag k="name" v="Klubbavik" />
		<tag k="place" v="farm" />
		<tag k="ssr:stedsnr" v="248833" />
	</node>
	<node id="9979218698" lat="60.3944519" lon="5.9280812" version="1" timestamp="2022-08-26T06:53:38Z" changeset="125390827" uid="3497659" user="NKA">
		<tag k="alt_name" v="Kleivi" />
		<tag k="name" v="Kleiva" />
		<tag k="place" v="farm" />
		<tag k="ssr:stedsnr" v="105899" />
	</node>
	<node id="9979218699" lat="60.3799278" lon="5.9320447" version="1" timestamp="2022-08-26T06:53:38Z" changeset="125390827" uid="3497659" user="NKA">
		<tag k="historic" v="shieling" />
		<tag k="name" v="Tordalen" />
		<tag k="place" v="isolated_dwelling" />
		<tag k="ssr:stedsnr" v="5672" />
	</node>
	<node id="9979218700" lat="60.2530444" lon="6.087303" version="1" timestamp="2022-08-26T06:53:38Z" changeset="125390827" uid="3497659" user="NKA">
		<tag k="name" v="Lingavikane" />
		<tag k="place" v="neighbourhood" />
		<tag k="ssr:stedsnr" v="222242" />
	</node>
	<node id="9979218701" lat="60.3201178" lon="6.1481366" version="1" timestamp="2022-08-26T06:53:38Z" changeset="125390827" uid="3497659" user="NKA">
		<tag k="name" v="Utitun" />
		<tag k="place" v="locality" />
		<tag k="ssr:stedsnr" v="408591" />
	</node>
	<node id="9979218702" lat="60.3956695" lon="5.9215363" version="1" timestamp="2022-08-26T06:53:38Z" changeset="125390827" uid="3497659" user="NKA">
		<tag k="name" v="Teigen" />
		<tag k="place" v="hamlet" />
		<tag k="ssr:stedsnr" v="308706" />
	</node>
	<node id="9979218703" lat="60.3129472" lon="6.0728474" version="1" timestamp="2022-08-26T06:53:38Z" changeset="125390827" uid="3497659" user="NKA">
		<tag k="historic" v="shieling" />
		<tag k="name" v="Kolldal" />
		<tag k="place" v="isolated_dwelling" />
		<tag k="ssr:stedsnr" v="346973" />
	</node>
	<node id="9979218704" lat="60.3825236" lon="6.2672515" version="1" timestamp="2022-08-26T06:53:38Z" changeset="125390827" uid="3497659" user="NKA">
		<tag k="name" v="Rykkje" />
		<tag k="place" v="hamlet" />
		<tag k="ssr:stedsnr" v="430162" />
	</node>
	<node id="9979218705" lat="60.2480616" lon="6.0032109" version="1" timestamp="2022-08-26T06:53:38Z" changeset="125390827" uid="3497659" user="NKA">
		<tag k="name" v="Børsheim" />
		<tag k="place" v="hamlet" />
		<tag k="ssr:stedsnr" v="105755" />
	</node>
	<node id="9979218706" lat="60.2544139" lon="6.0815363" version="1" timestamp="2022-08-26T06:53:38Z" changeset="125390827" uid="3497659" user="NKA">
		<tag k="alt_name" v="Skora" />
		<tag k="name" v="Skori" />
		<tag k="place" v="farm" />
		<tag k="ssr:stedsnr" v="126732" />
	</node>
	<node id="9979218707" lat="60.512658" lon="6.0750066" version="1" timestamp="2022-08-26T06:53:38Z" changeset="125390827" uid="3497659" user="NKA">
		<tag k="historic" v="shieling" />
		<tag k="name" v="Lii" />
		<tag k="place" v="isolated_dwelling" />
		<tag k="ssr:stedsnr" v="795771" />
	</node>
	<node id="9979218708" lat="60.2476941" lon="6.1564319" version="1" timestamp="2022-08-26T06:53:38Z" changeset="125390827" uid="3497659" user="NKA">
		<tag k="name" v="Tangen" />
		<tag k="place" v="hamlet" />
		<tag k="ssr:stedsnr" v="65757" />
	</node>
	<node id="9979218709" lat="60.3212833" lon="5.9686114" version="1" timestamp="2022-08-26T06:53:38Z" changeset="125390827" uid="3497659" user="NKA">
		<tag k="historic" v="shieling" />
		<tag k="name" v="Gamlestølane" />
		<tag k="place" v="isolated_dwelling" />
		<tag k="ssr:stedsnr" v="188570" />
	</node>
	<node id="9979218710" lat="60.50305" lon="6.1205308" version="1" timestamp="2022-08-26T06:53:38Z" changeset="125390827" uid="3497659" user="NKA">
		<tag k="alt_name" v="Hamlagrø, søre" />
		<tag k="historic" v="shieling" />
		<tag k="name" v="Søre Hamlagrø" />
		<tag k="place" v="isolated_dwelling" />
		<tag k="ssr:stedsnr" v="795773" />
	</node>
	<node id="9979218711" lat="60.4218389" lon="6.2671501" version="1" timestamp="2022-08-26T06:53:38Z" changeset="125390827" uid="3497659" user="NKA">
		<tag k="alt_name" v="Rymbedalen" />
		<tag k="historic" v="shieling" />
		<tag k="name" v="Rymbedal" />
		<tag k="place" v="isolated_dwelling" />
		<tag k="ssr:stedsnr" v="248148" />
	</node>
	<node id="9979218712" lat="60.5021583" lon="6.1420974" version="1" timestamp="2022-08-26T06:53:38Z" changeset="125390827" uid="3497659" user="NKA">
		<tag k="historic" v="shieling" />
		<tag k="name" v="Breisete" />
		<tag k="place" v="isolated_dwelling" />
		<tag k="ssr:stedsnr" v="673343" />
	</node>
	<node id="9979218713" lat="60.2912167" lon="6.1302696" version="1" timestamp="2022-08-26T06:53:38Z" changeset="125390827" uid="3497659" user="NKA">
		<tag k="alt_name" v="Ryssing" />
		<tag k="historic" v="shieling" />
		<tag k="name" v="Ryssingen" />
		<tag k="place" v="isolated_dwelling" />
		<tag k="ssr:stedsnr" v="5864" />
	</node>
	<node id="9979218714" lat="60.3842595" lon="6.2313052" version="1" timestamp="2022-08-26T06:53:38Z" changeset="125390827" uid="3497659" user="NKA">
		<tag k="name" v="Laupsa" />
		<tag k="place" v="hamlet" />
		<tag k="ssr:stedsnr" v="126155" />
	</node>
	<node id="9979218715" lat="60.2516785" lon="5.9997427" version="1" timestamp="2022-08-26T06:53:38Z" changeset="125390827" uid="3497659" user="NKA">
		<tag k="name" v="Grøning" />
		<tag k="place" v="farm" />
		<tag k="ssr:stedsnr" v="734807" />
	</node>
	<node id="9979218716" lat="60.2716417" lon="6.0703586" version="1" timestamp="2022-08-26T06:53:38Z" changeset="125390827" uid="3497659" user="NKA">
		<tag k="historic" v="shieling" />
		<tag k="name" v="Skar" />
		<tag k="place" v="isolated_dwelling" />
		<tag k="ssr:stedsnr" v="5790" />
	</node>
	<node id="9979218717" lat="60.4047055" lon="6.3480002" version="1" timestamp="2022-08-26T06:53:38Z" changeset="125390827" uid="3497659" user="NKA">
		<tag k="name" v="Skeiane" />
		<tag k="place" v="farm" />
		<tag k="ssr:stedsnr" v="651445" />
	</node>
	<node id="9979218718" lat="60.42225" lon="6.3876752" version="1" timestamp="2022-08-26T06:53:38Z" changeset="125390827" uid="3497659" user="NKA">
		<tag k="historic" v="shieling" />
		<tag k="name" v="Sælesete" />
		<tag k="place" v="isolated_dwelling" />
		<tag k="ssr:stedsnr" v="551158" />
	</node>
	<node id="9979218719" lat="60.2662011" lon="6.0103717" version="1" timestamp="2022-08-26T06:53:38Z" changeset="125390827" uid="3497659" user="NKA">
		<tag k="name" v="Nedre Bru" />
		<tag k="place" v="farm" />
		<tag k="ssr:stedsnr" v="712640" />
	</node>
	<node id="9979218720" lat="60.3028316" lon="6.1295757" version="1" timestamp="2022-08-26T06:53:38Z" changeset="125390827" uid="3497659" user="NKA">
		<tag k="alt_name" v="Nystølen" />
		<tag k="historic" v="shieling" />
		<tag k="name" v="Tveitstølen" />
		<tag k="place" v="isolated_dwelling" />
		<tag k="ssr:stedsnr" v="855915" />
	</node>
	<node id="9979218721" lat="60.3031028" lon="6.1295975" version="1" timestamp="2022-08-26T06:53:38Z" changeset="125390827" uid="3497659" user="NKA">
		<tag k="historic" v="shieling" />
		<tag k="name" v="Nystølen" />
		<tag k="place" v="isolated_dwelling" />
		<tag k="ssr:stedsnr" v="651942" />
	</node>
	<node id="9979218722" lat="60.2704868" lon="6.0102599" version="1" timestamp="2022-08-26T06:53:38Z" changeset="125390827" uid="3497659" user="NKA">
		<tag k="alt_name" v="Bru øvre" />
		<tag k="name" v="Øvre Bru" />
		<tag k="place" v="farm" />
		<tag k="ssr:stedsnr" v="590661" />
	</node>
	<node id="9979218723" lat="60.4445735" lon="6.4908956" version="1" timestamp="2022-08-26T06:53:38Z" changeset="125390827" uid="3497659" user="NKA">
		<tag k="name" v="Floten" />
		<tag k="place" v="farm" />
		<tag k="ssr:stedsnr" v="833487" />
	</node>
	<node id="9979218724" lat="60.304919" lon="6.1523943" version="1" timestamp="2022-08-26T06:53:38Z" changeset="125390827" uid="3497659" user="NKA">
		<tag k="name" v="Tørvik" />
		<tag k="place" v="hamlet" />
		<tag k="ssr:stedsnr" v="855918" />
	</node>
	<node id="9979218725" lat="60.4132972" lon="6.3582251" version="1" timestamp="2022-08-26T06:53:38Z" changeset="125390827" uid="3497659" user="NKA">
		<tag k="name" v="Solbustad" />
		<tag k="place" v="farm" />
		<tag k="ssr:stedsnr" v="408468" />
	</node>
	<node id="9979218726" lat="60.2624959" lon="6.0127342" version="1" timestamp="2022-08-26T06:53:38Z" changeset="125390827" uid="3497659" user="NKA">
		<tag k="name" v="Ploganes" />
		<tag k="place" v="farm" />
		<tag k="ssr:stedsnr" v="369767" />
	</node>
	<node id="9979218727" lat="60.5135833" lon="6.093078" version="1" timestamp="2022-08-26T06:53:38Z" changeset="125390827" uid="3497659" user="NKA">
		<tag k="name" v="Klubben" />
		<tag k="place" v="farm" />
		<tag k="ssr:stedsnr" v="894276" />
	</node>
	<node id="9979218728" lat="60.41815" lon="6.3787419" version="1" timestamp="2022-08-26T06:53:38Z" changeset="125390827" uid="3497659" user="NKA">
		<tag k="name" v="Klungerstykket" />
		<tag k="place" v="farm" />
		<tag k="ssr:stedsnr" v="833048" />
	</node>
	<node id="9979218729" lat="60.4187514" lon="6.3739107" version="1" timestamp="2022-08-26T06:53:38Z" changeset="125390827" uid="3497659" user="NKA">
		<tag k="name" v="Krokatveit" />
		<tag k="place" v="hamlet" />
		<tag k="ssr:stedsnr" v="188179" />
	</node>
	<node id="9979218730" lat="60.4114694" lon="6.3383101" version="1" timestamp="2022-08-26T06:53:38Z" changeset="125390827" uid="3497659" user="NKA">
		<tag k="historic" v="shieling" />
		<tag k="name" v="Bjørndal" />
		<tag k="place" v="isolated_dwelling" />
		<tag k="ssr:stedsnr" v="369119" />
	</node>
	<node id="9979218731" lat="60.3905028" lon="6.2690363" version="1" timestamp="2022-08-26T06:53:38Z" changeset="125390827" uid="3497659" user="NKA">
		<tag k="name" v="Stokkaland" />
		<tag k="place" v="farm" />
		<tag k="ssr:stedsnr" v="286032" />
	</node>
	<node id="9979218732" lat="60.4069151" lon="6.2004519" version="1" timestamp="2022-08-26T06:53:38Z" changeset="125390827" uid="3497659" user="NKA">
		<tag k="alt_name" v="Tegland" />
		<tag k="name" v="Nerebø" />
		<tag k="place" v="locality" />
		<tag k="ssr:stedsnr" v="942751" />
	</node>
	<node id="9979218733" lat="60.4244305" lon="6.3546947" version="1" timestamp="2022-08-26T06:53:38Z" changeset="125390827" uid="3497659" user="NKA">
		<tag k="historic" v="shieling" />
		<tag k="name" v="Bjølvesete" />
		<tag k="place" v="isolated_dwelling" />
		<tag k="ssr:stedsnr" v="916150" />
	</node>
	<node id="9979218734" lat="60.2648834" lon="6.0105086" version="1" timestamp="2022-08-26T06:53:38Z" changeset="125390827" uid="3497659" user="NKA">
		<tag k="name" v="Revsgard" />
		<tag k="place" v="farm" />
		<tag k="ssr:stedsnr" v="430774" />
	</node>
	<node id="9979218735" lat="60.3473916" lon="6.1667613" version="1" timestamp="2022-08-26T06:53:38Z" changeset="125390827" uid="3497659" user="NKA">
		<tag k="name" v="Fosso" />
		<tag k="place" v="hamlet" />
		<tag k="ssr:stedsnr" v="794566" />
	</node>
	<node id="9979218736" lat="60.413425" lon="6.3594252" version="1" timestamp="2022-08-26T06:53:38Z" changeset="125390827" uid="3497659" user="NKA">
		<tag k="name" v="Salbustad" />
		<tag k="place" v="farm" />
		<tag k="ssr:stedsnr" v="309142" />
	</node>
	<node id="9979218737" lat="60.4574806" lon="6.2115446" version="1" timestamp="2022-08-26T06:53:38Z" changeset="125390827" uid="3497659" user="NKA">
		<tag k="name" v="Røyneteigen" />
		<tag k="place" v="locality" />
		<tag k="ssr:stedsnr" v="794423" />
	</node>
	<node id="9979218738" lat="60.4331916" lon="6.2709196" version="1" timestamp="2022-08-26T06:53:38Z" changeset="125390827" uid="3497659" user="NKA">
		<tag k="alt_name" v="Mødal" />
		<tag k="historic" v="shieling" />
		<tag k="name" v="Mødalen" />
		<tag k="place" v="isolated_dwelling" />
		<tag k="ssr:stedsnr" v="187231" />
	</node>
	<node id="9979218739" lat="60.2869197" lon="6.1709955" version="1" timestamp="2022-08-26T06:53:38Z" changeset="125390827" uid="3497659" user="NKA">
		<tag k="name" v="Augastad" />
		<tag k="place" v="hamlet" />
		<tag k="ssr:stedsnr" v="369871" />
	</node>
	<node id="9979218740" lat="60.407825" lon="6.2707781" version="1" timestamp="2022-08-26T06:53:38Z" changeset="125390827" uid="3497659" user="NKA">
		<tag k="name" v="Fleto" />
		<tag k="place" v="farm" />
		<tag k="ssr:stedsnr" v="44082" />
	</node>
	<node id="9979218741" lat="60.4215694" lon="6.3726391" version="1" timestamp="2022-08-26T06:53:38Z" changeset="125390827" uid="3497659" user="NKA">
		<tag k="historic" v="shieling" />
		<tag k="name" v="Løena" />
		<tag k="place" v="isolated_dwelling" />
		<tag k="ssr:stedsnr" v="44412" />
	</node>
	<node id="9979218742" lat="60.4637416" lon="6.3288113" version="1" timestamp="2022-08-26T06:53:38Z" changeset="125390827" uid="3497659" user="NKA">
		<tag k="historic" v="shieling" />
		<tag k="name" v="Muren" />
		<tag k="place" v="isolated_dwelling" />
		<tag k="ssr:stedsnr" v="430204" />
	</node>
	<node id="9979218743" lat="60.4231083" lon="6.2074196" version="1" timestamp="2022-08-26T06:53:38Z" changeset="125390827" uid="3497659" user="NKA">
		<tag k="historic" v="shieling" />
		<tag k="name" v="Blomsete" />
		<tag k="place" v="isolated_dwelling" />
		<tag k="ssr:stedsnr" v="369420" />
	</node>
	<node id="9979218744" lat="60.4180287" lon="6.3612462" version="1" timestamp="2022-08-26T06:53:38Z" changeset="125390827" uid="3497659" user="NKA">
		<tag k="name" v="Fosse" />
		<tag k="place" v="farm" />
		<tag k="ssr:stedsnr" v="855141" />
	</node>
	<node id="9979218745" lat="60.3878461" lon="6.2721358" version="1" timestamp="2022-08-26T06:53:38Z" changeset="125390827" uid="3497659" user="NKA">
		<tag k="name" v="Kaldavadet" />
		<tag k="place" v="farm" />
		<tag k="ssr:stedsnr" v="43024" />
	</node>
	<node id="9979218746" lat="60.3570313" lon="6.1644938" version="1" timestamp="2022-08-26T06:53:38Z" changeset="125390827" uid="3497659" user="NKA">
		<tag k="name" v="Lii" />
		<tag k="place" v="farm" />
		<tag k="ssr:stedsnr" v="369522" />
	</node>
	<node id="9979218747" lat="60.4084834" lon="6.2187724" version="1" timestamp="2022-08-26T06:53:38Z" changeset="125390827" uid="3497659" user="NKA">
		<tag k="name" v="Skjepakleiv" />
		<tag k="place" v="farm" />
		<tag k="ssr:stedsnr" v="408064" />
	</node>
	<node id="9979218748" lat="60.3683334" lon="6.0963607" version="1" timestamp="2022-08-26T06:53:38Z" changeset="125390827" uid="3497659" user="NKA">
		<tag k="alt_name" v="Reigstveit" />
		<tag k="name" v="Reistveit" />
		<tag k="place" v="farm" />
		<tag k="ssr:stedsnr" v="369601" />
	</node>
	<node id="9979218749" lat="60.3733195" lon="6.2527808" version="1" timestamp="2022-08-26T06:53:38Z" changeset="125390827" uid="3497659" user="NKA">
		<tag k="name" v="Bergstø" />
		<tag k="place" v="farm" />
		<tag k="ssr:stedsnr" v="369146" />
	</node>
	<node id="9979218750" lat="60.3308388" lon="6.1141781" version="1" timestamp="2022-08-26T06:53:38Z" changeset="125390827" uid="3497659" user="NKA">
		<tag k="historic" v="shieling" />
		<tag k="name" v="Aksneshella" />
		<tag k="place" v="isolated_dwelling" />
		<tag k="ssr:stedsnr" v="794488" />
	</node>
	<node id="9979218751" lat="60.4158889" lon="6.3722946" version="1" timestamp="2022-08-26T06:53:38Z" changeset="125390827" uid="3497659" user="NKA">
		<tag k="name" v="Varhaug" />
		<tag k="place" v="farm" />
		<tag k="ssr:stedsnr" v="347425" />
	</node>
	<node id="9979218752" lat="60.4153945" lon="6.3555418" version="1" timestamp="2022-08-26T06:53:38Z" changeset="125390827" uid="3497659" user="NKA">
		<tag k="alt_name" v="Hjello" />
		<tag k="name" v="Hjøllo" />
		<tag k="place" v="farm" />
		<tag k="ssr:stedsnr" v="794125" />
	</node>
	<node id="9979218753" lat="60.4309972" lon="6.4125364" version="1" timestamp="2022-08-26T06:53:38Z" changeset="125390827" uid="3497659" user="NKA">
		<tag k="name" v="Kåskjer" />
		<tag k="place" v="farm" />
		<tag k="ssr:stedsnr" v="894510" />
	</node>
	<node id="9979218754" lat="60.2649722" lon="6.0151835" version="1" timestamp="2022-08-26T06:53:38Z" changeset="125390827" uid="3497659" user="NKA">
		<tag k="name" v="Skorane" />
		<tag k="place" v="farm" />
		<tag k="ssr:stedsnr" v="855817" />
	</node>
	<node id="9979218755" lat="60.4299248" lon="6.4043892" version="1" timestamp="2022-08-26T06:53:38Z" changeset="125390827" uid="3497659" user="NKA">
		<tag k="alt_name" v="Vikadal" />
		<tag k="name" v="Vikedal" />
		<tag k="place" v="hamlet" />
		<tag k="ssr:stedsnr" v="118202" />
	</node>
	<node id="9979218756" lat="60.3882167" lon="5.9626392" version="1" timestamp="2022-08-26T06:53:38Z" changeset="125390827" uid="3497659" user="NKA">
		<tag k="name" v="Jonshøgdi" />
		<tag k="place" v="neighbourhood" />
		<tag k="ssr:stedsnr" v="707239" />
	</node>
	<node id="9979218757" lat="60.2764574" lon="6.0017064" version="1" timestamp="2022-08-26T06:53:38Z" changeset="125390827" uid="3497659" user="NKA">
		<tag k="name" v="Skogasel" />
		<tag k="place" v="hamlet" />
		<tag k="ssr:stedsnr" v="855897" />
	</node>
	<node id="9979218758" lat="60.4406778" lon="6.1223142" version="1" timestamp="2022-08-26T06:53:38Z" changeset="125390827" uid="3497659" user="NKA">
		<tag k="historic" v="shieling" />
		<tag k="name" v="Geitastølen" />
		<tag k="place" v="isolated_dwelling" />
		<tag k="ssr:stedsnr" v="733401" />
	</node>
	<node id="9979218759" lat="60.4356833" lon="6.4277585" version="1" timestamp="2022-08-26T06:53:38Z" changeset="125390827" uid="3497659" user="NKA">
		<tag k="name" v="Byrkjedalsteigen" />
		<tag k="place" v="farm" />
		<tag k="ssr:stedsnr" v="165413" />
	</node>
	<node id="9979218760" lat="60.34485" lon="6.2078113" version="1" timestamp="2022-08-26T06:53:38Z" changeset="125390827" uid="3497659" user="NKA">
		<tag k="name" v="Nesland" />
		<tag k="place" v="farm" />
		<tag k="ssr:stedsnr" v="651856" />
	</node>
	<node id="9979218761" lat="60.4002444" lon="6.1467891" version="1" timestamp="2022-08-26T06:53:38Z" changeset="125390827" uid="3497659" user="NKA">
		<tag k="historic" v="shieling" />
		<tag k="name" v="Fagrasete" />
		<tag k="place" v="isolated_dwelling" />
		<tag k="ssr:stedsnr" v="308701" />
	</node>
	<node id="9979218762" lat="60.293575" lon="6.0250252" version="1" timestamp="2022-08-26T06:53:38Z" changeset="125390827" uid="3497659" user="NKA">
		<tag k="alt_name" v="Tuften" />
		<tag k="name" v="Tufto" />
		<tag k="place" v="farm" />
		<tag k="ssr:stedsnr" v="490887" />
	</node>
	<node id="9979218763" lat="60.3222296" lon="6.1513017" version="1" timestamp="2022-08-26T06:53:38Z" changeset="125390827" uid="3497659" user="NKA">
		<tag k="name" v="Innitun" />
		<tag k="place" v="locality" />
		<tag k="ssr:stedsnr" v="985336" />
	</node>
	<node id="9979218764" lat="60.2750472" lon="6.0029391" version="1" timestamp="2022-08-26T06:53:38Z" changeset="125390827" uid="3497659" user="NKA">
		<tag k="name" v="Solheim" />
		<tag k="place" v="farm" />
		<tag k="ssr:stedsnr" v="126866" />
	</node>
	<node id="9979218765" lat="60.2287583" lon="5.9968697" version="1" timestamp="2022-08-26T06:53:38Z" changeset="125390827" uid="3497659" user="NKA">
		<tag k="alt_name" v="Breidemne" />
		<tag k="name" v="Breievne" />
		<tag k="place" v="farm" />
		<tag k="ssr:stedsnr" v="430713" />
	</node>
	<node id="9979218766" lat="60.3806083" lon="5.9961252" version="1" timestamp="2022-08-26T06:53:38Z" changeset="125390827" uid="3497659" user="NKA">
		<tag k="name" v="Røyrli" />
		<tag k="place" v="hamlet" />
		<tag k="ssr:stedsnr" v="794696" />
	</node>
	<node id="9979218767" lat="60.2198223" lon="5.9747581" version="1" timestamp="2022-08-26T06:53:38Z" changeset="125390827" uid="3497659" user="NKA">
		<tag k="alt_name" v="Ytreoma" />
		<tag k="name" v="Ytre Oma" />
		<tag k="place" v="farm" />
		<tag k="ssr:stedsnr" v="5693" />
	</node>
	<node id="9979218768" lat="60.3945417" lon="5.9571307" version="1" timestamp="2022-08-26T06:53:38Z" changeset="125390827" uid="3497659" user="NKA">
		<tag k="name" v="Kleven" />
		<tag k="place" v="neighbourhood" />
		<tag k="ssr:stedsnr" v="342133" />
	</node>
	<node id="9979218769" lat="60.278375" lon="6.0314558" version="1" timestamp="2022-08-26T06:53:38Z" changeset="125390827" uid="3497659" user="NKA">
		<tag k="name" v="Brekke" />
		<tag k="place" v="farm" />
		<tag k="ssr:stedsnr" v="612898" />
	</node>
	<node id="9979218770" lat="60.2167412" lon="5.9643775" version="1" timestamp="2022-08-26T06:53:38Z" changeset="125390827" uid="3497659" user="NKA">
		<tag k="name" v="Gjerde" />
		<tag k="place" v="farm" />
		<tag k="ssr:stedsnr" v="611521" />
	</node>
	<node id="9979218771" lat="60.25309" lon="6.0064145" version="1" timestamp="2022-08-26T06:53:38Z" changeset="125390827" uid="3497659" user="NKA">
		<tag k="alt_name" v="Risanes" />
		<tag k="name" v="Risa" />
		<tag k="place" v="hamlet" />
		<tag k="ssr:stedsnr" v="794806" />
	</node>
	<node id="9979218772" lat="60.2778083" lon="5.9987808" version="1" timestamp="2022-08-26T06:53:38Z" changeset="125390827" uid="3497659" user="NKA">
		<tag k="name" v="Slottet" />
		<tag k="place" v="farm" />
		<tag k="ssr:stedsnr" v="711628" />
	</node>
	<node id="9979218773" lat="60.3589944" lon="6.0613614" version="1" timestamp="2022-08-26T06:53:38Z" changeset="125390827" uid="3497659" user="NKA">
		<tag k="name" v="Netelandshagen" />
		<tag k="place" v="farm" />
		<tag k="ssr:stedsnr" v="309635" />
	</node>
	<node id="9979218774" lat="60.3477805" lon="6.1930377" version="1" timestamp="2022-08-26T06:53:38Z" changeset="125390827" uid="3497659" user="NKA">
		<tag k="name" v="Oddland" />
		<tag k="place" v="farm" />
		<tag k="ssr:stedsnr" v="308523" />
	</node>
	<node id="9979218775" lat="60.2310722" lon="5.9568642" version="1" timestamp="2022-08-26T06:53:38Z" changeset="125390827" uid="3497659" user="NKA">
		<tag k="historic" v="shieling" />
		<tag k="name" v="Gamlestølen" />
		<tag k="place" v="isolated_dwelling" />
		<tag k="ssr:stedsnr" v="589359" />
	</node>
	<node id="9979218776" lat="60.4265472" lon="6.1811641" version="1" timestamp="2022-08-26T06:53:38Z" changeset="125390827" uid="3497659" user="NKA">
		<tag k="historic" v="shieling" />
		<tag k="name" v="Liasete" />
		<tag k="place" v="isolated_dwelling" />
		<tag k="ssr:stedsnr" v="430420" />
	</node>
	<node id="9979218777" lat="60.2316194" lon="6.0017781" version="1" timestamp="2022-08-26T06:53:38Z" changeset="125390827" uid="3497659" user="NKA">
		<tag k="historic" v="shieling" />
		<tag k="name" v="Skjeringastølen" />
		<tag k="place" v="isolated_dwelling" />
		<tag k="ssr:stedsnr" v="893653" />
	</node>
	<node id="9979218778" lat="60.3648531" lon="6.06982" version="1" timestamp="2022-08-26T06:53:38Z" changeset="125390827" uid="3497659" user="NKA">
		<tag k="name" v="Nygard" />
		<tag k="place" v="farm" />
		<tag k="ssr:stedsnr" v="248629" />
	</node>
	<node id="9979218779" lat="60.2500473" lon="6.0004169" version="1" timestamp="2022-08-26T06:53:38Z" changeset="125390827" uid="3497659" user="NKA">
		<tag k="name" v="Øvrebøen" />
		<tag k="place" v="farm" />
		<tag k="ssr:stedsnr" v="491797" />
	</node>
	<node id="9979218780" lat="60.332855" lon="6.2063898" version="1" timestamp="2022-08-26T06:53:38Z" changeset="125390827" uid="3497659" user="NKA">
		<tag k="alt_name" v="Aksnes, øvre" />
		<tag k="name" v="Øvre Aksnes" />
		<tag k="place" v="farm" />
		<tag k="ssr:stedsnr" v="127590" />
	</node>
	<node id="9979218781" lat="60.3815583" lon="6.1658892" version="1" timestamp="2022-08-26T06:53:38Z" changeset="125390827" uid="3497659" user="NKA">
		<tag k="name" v="Dalane" />
		<tag k="place" v="farm" />
		<tag k="ssr:stedsnr" v="287235" />
	</node>
	<node id="9979218782" lat="60.2848278" lon="5.9695253" version="1" timestamp="2022-08-26T06:53:38Z" changeset="125390827" uid="3497659" user="NKA">
		<tag k="historic" v="shieling" />
		<tag k="name" v="Akssete" />
		<tag k="place" v="isolated_dwelling" />
		<tag k="ssr:stedsnr" v="490921" />
	</node>
	<node id="9979218783" lat="60.2954305" lon="5.9810837" version="1" timestamp="2022-08-26T06:53:38Z" changeset="125390827" uid="3497659" user="NKA">
		<tag k="historic" v="shieling" />
		<tag k="name" v="Fagrabakka" />
		<tag k="place" v="isolated_dwelling" />
		<tag k="ssr:stedsnr" v="369949" />
	</node>
	<node id="9979218784" lat="60.208375" lon="5.9271669" version="1" timestamp="2022-08-26T06:53:38Z" changeset="125390827" uid="3497659" user="NKA">
		<tag k="name" v="Grov" />
		<tag k="place" v="isolated_dwelling" />
		<tag k="ssr:stedsnr" v="430484" />
	</node>
	<node id="9979218785" lat="60.3598583" lon="5.9576031" version="1" timestamp="2022-08-26T06:53:38Z" changeset="125390827" uid="3497659" user="NKA">
		<tag k="historic" v="shieling" />
		<tag k="name" v="Fossdal" />
		<tag k="place" v="isolated_dwelling" />
		<tag k="ssr:stedsnr" v="126617" />
	</node>
	<node id="9979218786" lat="60.3907972" lon="6.1859974" version="1" timestamp="2022-08-26T06:53:38Z" changeset="125390827" uid="3497659" user="NKA">
		<tag k="name" v="Steinhus" />
		<tag k="place" v="farm" />
		<tag k="ssr:stedsnr" v="165310" />
	</node>
	<node id="9979218787" lat="60.2377293" lon="5.9923793" version="1" timestamp="2022-08-26T06:53:38Z" changeset="125390827" uid="3497659" user="NKA">
		<tag k="name" v="Lambadalen" />
		<tag k="place" v="farm" />
		<tag k="ssr:stedsnr" v="369714" />
	</node>
	<node id="9979218788" lat="60.3930278" lon="5.9694531" version="1" timestamp="2022-08-26T06:53:38Z" changeset="125390827" uid="3497659" user="NKA">
		<tag k="alt_name" v="Skeisskarane" />
		<tag k="name" v="Skeisskorane" />
		<tag k="place" v="neighbourhood" />
		<tag k="ssr:stedsnr" v="525165" />
	</node>
	<node id="9979218789" lat="60.2304194" lon="5.9531392" version="1" timestamp="2022-08-26T06:53:38Z" changeset="125390827" uid="3497659" user="NKA">
		<tag k="historic" v="shieling" />
		<tag k="name" v="Stuastølen" />
		<tag k="place" v="isolated_dwelling" />
		<tag k="ssr:stedsnr" v="467375" />
	</node>
	<node id="9979218790" lat="60.2534861" lon="5.9773836" version="1" timestamp="2022-08-26T06:53:38Z" changeset="125390827" uid="3497659" user="NKA">
		<tag k="name" v="Klepp" />
		<tag k="place" v="farm" />
		<tag k="ssr:stedsnr" v="408755" />
	</node>
	<node id="9979218791" lat="60.2581166" lon="6.0060087" version="1" timestamp="2022-08-26T06:53:38Z" changeset="125390827" uid="3497659" user="NKA">
		<tag k="name" v="Solbakken" />
		<tag k="place" v="farm" />
		<tag k="ssr:stedsnr" v="5772" />
	</node>
	<node id="9979218792" lat="60.34785" lon="6.1717641" version="1" timestamp="2022-08-26T06:53:38Z" changeset="125390827" uid="3497659" user="NKA">
		<tag k="name" v="Tueteigen" />
		<tag k="place" v="farm" />
		<tag k="ssr:stedsnr" v="855578" />
	</node>
	<node id="9979218793" lat="60.3657743" lon="6.0855831" version="1" timestamp="2022-08-26T06:53:38Z" changeset="125390827" uid="3497659" user="NKA">
		<tag k="name" v="Li" />
		<tag k="place" v="farm" />
		<tag k="ssr:stedsnr" v="66585" />
	</node>
	<node id="9979218794" lat="60.4025055" lon="6.2064113" version="1" timestamp="2022-08-26T06:53:38Z" changeset="125390827" uid="3497659" user="NKA">
		<tag k="name" v="Einsteigane" />
		<tag k="place" v="farm" />
		<tag k="ssr:stedsnr" v="5682" />
	</node>
	<node id="9979218795" lat="60.2854555" lon="6.0631003" version="1" timestamp="2022-08-26T06:53:38Z" changeset="125390827" uid="3497659" user="NKA">
		<tag k="name" v="Byrkjenes" />
		<tag k="place" v="farm" />
		<tag k="ssr:stedsnr" v="187834" />
	</node>
</osm>
