<?xml version="1.0" encoding="UTF-8"?>
<osm version="0.6" generator="osmapis">
	<node lat="63.93395555657199" lon="11.394897215744724" id="-26506">
		<tag k="alt_name" v="Mære" />
		<tag k="amenity" v="place_of_worship" />
		<tag k="denomination" v="lutheran" />
		<tag k="name" v="Mære kirke" />
		<tag k="religion" v="christian" />
		<tag k="ssr:stedsnr" v="317018" />
	</node>
	<node lat="64.02005294779431" lon="11.631293781982281" id="-26884">
		<tag k="alt_name" v="Ogndal" />
		<tag k="amenity" v="place_of_worship" />
		<tag k="denomination" v="lutheran" />
		<tag k="name" v="Skei kirke" />
		<tag k="religion" v="christian" />
		<tag k="ssr:stedsnr" v="418391" />
	</node>
	<node lat="64.08888333364091" lon="11.677747228497322" id="-27573">
		<tag k="name" v="Dybrekka" />
		<tag k="place" v="locality" />
		<tag k="ssr:stedsnr" v="696142" />
	</node>
	<node lat="64.02331900145477" lon="11.47465364090763" id="-27679">
		<tag k="amenity" v="place_of_worship" />
		<tag k="denomination" v="lutheran" />
		<tag k="name" v="Egge kirke" />
		<tag k="religion" v="christian" />
		<tag k="ssr:stedsnr" v="620070" />
	</node>
	<node lat="64.02946944190266" lon="11.655930554962948" id="-27758">
		<tag k="amenity" v="community_centre" />
		<tag k="name" v="Gildevangen" />
		<tag k="ssr:stedsnr" v="635212" />
	</node>
	<node lat="64.06198531128027" lon="10.896041740434981" id="-28381">
		<tag k="name" v="Sildernaustet" />
		<tag k="place" v="locality" />
		<tag k="ssr:stedsnr" v="803569" />
	</node>
	<node lat="64.07285121383207" lon="11.68162547133195" id="-28470">
		<tag k="amenity" v="place_of_worship" />
		<tag k="denomination" v="lutheran" />
		<tag k="name" v="For kyrkje" />
		<tag k="religion" v="christian" />
		<tag k="ssr:stedsnr" v="924026" />
	</node>
	<node lat="64.00627777357923" lon="10.79463610136334" id="-28848">
		<tag k="amenity" v="place_of_worship" />
		<tag k="denomination" v="lutheran" />
		<tag k="name" v="Sela" />
		<tag k="religion" v="christian" />
		<tag k="ssr:stedsnr" v="935543" />
	</node>
	<node lat="64.06953333411099" lon="11.218100006250852" id="-29125">
		<tag k="amenity" v="place_of_worship" />
		<tag k="denomination" v="lutheran" />
		<tag k="name" v="Malm kirke" />
		<tag k="religion" v="christian" />
		<tag k="ssr:stedsnr" v="25466" />
	</node>
	<node lat="64.14614722178713" lon="11.937772217548483" id="-29162">
		<tag k="name" v="Bølbakken" />
		<tag k="place" v="locality" />
		<tag k="ssr:stedsnr" v="28946" />
	</node>
	<node lat="64.08670553487994" lon="11.328426658149619" id="-30276">
		<tag k="amenity" v="place_of_worship" />
		<tag k="denomination" v="lutheran" />
		<tag k="name" v="Beitstad kirke" />
		<tag k="religion" v="christian" />
		<tag k="ssr:stedsnr" v="317179" />
	</node>
	<node lat="64.00773333000598" lon="11.172336104981442" id="-30759">
		<tag k="name" v="Tømmerhogget" />
		<tag k="place" v="locality" />
		<tag k="ssr:stedsnr" v="392119" />
	</node>
</osm>
