<?xml version="1.0" encoding="UTF-8"?>
<osm version="0.6" generator="osmapis">
	<node lat="64.04521388497876" lon="11.80332499174878" id="-80555">
		<tag k="highway" v="path" />
		<tag k="name" v="Seterkleiva" />
		<tag k="ssr:stedsnr" v="48903" />
	</node>
	<node lat="64.13722222288155" lon="11.943827770136677" id="-80684">
		<tag k="highway" v="path" />
		<tag k="name" v="Korsslettstigen" />
		<tag k="ssr:stedsnr" v="89902" />
	</node>
	<node lat="63.999047221043575" lon="11.908738889570634" id="-80983">
		<tag k="highway" v="path" />
		<tag k="name" v="Steinkleiva" />
		<tag k="ssr:stedsnr" v="169914" />
	</node>
	<node lat="64.18552778210532" lon="11.740644442448394" id="-80986">
		<tag k="highway" v="path" />
		<tag k="name" v="Raffelvegen" />
		<tag k="ssr:stedsnr" v="170268" />
	</node>
	<node lat="63.94785277985946" lon="11.671413882130766" id="-81192">
		<tag k="bridge" v="yes" />
		<tag k="layer" v="1" />
		<tag k="name" v="Sponga" />
		<tag k="ssr:stedsnr" v="271411" />
	</node>
	<node lat="64.12009722655175" lon="11.733563889052203" id="-81341">
		<tag k="name" v="Stod" />
		<tag k="railway" v="halt" />
		<tag k="ssr:stedsnr" v="256263" />
		<tag k="train" v="yes" />
	</node>
	<node lat="64.12856111343797" lon="11.918963888872655" id="-81493">
		<tag k="junction" v="yes" />
		<tag k="name" v="Korsen" />
		<tag k="place" v="locality" />
		<tag k="ssr:stedsnr" v="271940" />
	</node>
	<node lat="64.13994166317268" lon="11.345902779694416" id="-81636">
		<tag k="highway" v="path" />
		<tag k="name" v="Finnstukleiva" />
		<tag k="ssr:stedsnr" v="472500" />
	</node>
	<node lat="64.01063611153964" lon="12.073002778265035" id="-81672">
		<tag k="highway" v="path" />
		<tag k="name" v="Høgbakkan" />
		<tag k="ssr:stedsnr" v="473297" />
	</node>
	<node lat="63.970661109164034" lon="12.14708334189875" id="-81728">
		<tag k="highway" v="path" />
		<tag k="name" v="Vårkleiva" />
		<tag k="ssr:stedsnr" v="352705" />
	</node>
	<node lat="63.91937500331046" lon="11.428797229077704" id="-81735">
		<tag k="name" v="Sparbu holdeplass" />
		<tag k="old_name" v="Sparbu stasjon" />
		<tag k="railway" v="station" />
		<tag k="ssr:stedsnr" v="357555" />
		<tag k="train" v="yes" />
	</node>
	<node lat="64.14020556013908" lon="11.339213884366027" id="-82082">
		<tag k="highway" v="path" />
		<tag k="name" v="Brattkleiva" />
		<tag k="ssr:stedsnr" v="472502" />
	</node>
	<node lat="63.97619999762424" lon="12.041413898018378" id="-82391">
		<tag k="bridge" v="yes" />
		<tag k="layer" v="1" />
		<tag k="name" v="Sponget" />
		<tag k="ssr:stedsnr" v="534708" />
	</node>
	<node lat="63.99473889147907" lon="11.976277784430732" id="-82666">
		<tag k="highway" v="path" />
		<tag k="name" v="Nordfjellstigen" />
		<tag k="ssr:stedsnr" v="594260" />
	</node>
	<node lat="64.11789166929756" lon="11.913597232719152" id="-82816">
		<tag k="highway" v="path" />
		<tag k="name" v="Tjurumurstigen" />
		<tag k="ssr:stedsnr" v="635896" />
	</node>
	<node lat="64.01275833452024" lon="11.484805558814418" id="-83031">
		<tag k="man_made" v="quay" />
		<tag k="name" v="Elvehamna" />
		<tag k="place" v="locality" />
		<tag k="ssr:stedsnr" v="895667" />
	</node>
	<node lat="64.08957221934509" lon="11.889813885788096" id="-83069">
		<tag k="highway" v="path" />
		<tag k="name" v="Åskleiva" />
		<tag k="ssr:stedsnr" v="897931" />
	</node>
	<node lat="64.16689722194066" lon="11.65557777486037" id="-84281">
		<tag k="fixme" v="consider highway=path" />
		<tag k="highway" v="track" />
		<tag k="name" v="Pålvelta" />
		<tag k="ssr:stedsnr" v="48125" />
	</node>
	<node lat="63.983255554572565" lon="12.213047218157577" id="-84307">
		<tag k="man_made" v="cairn" />
		<tag k="name" v="Talbomstøtta" />
		<tag k="place" v="locality" />
		<tag k="ssr:stedsnr" v="48596" />
	</node>
	<node lat="64.01531944434824" lon="11.948983330646925" id="-84324">
		<tag k="highway" v="path" />
		<tag k="name" v="Rosigardbakken" />
		<tag k="ssr:stedsnr" v="48879" />
	</node>
	<node lat="64.12916944192278" lon="11.227847219058072" id="-84563">
		<tag k="ford" v="yes" />
		<tag k="name" v="Esplingvadet" />
		<tag k="place" v="locality" />
		<tag k="ssr:stedsnr" v="99673" />
	</node>
	<node lat="64.08129722470862" lon="11.879975000305407" id="-84598">
		<tag k="highway" v="path" />
		<tag k="name" v="Nordgardskleiva" />
		<tag k="ssr:stedsnr" v="108942" />
	</node>
	<node lat="64.19508611311632" lon="11.783472226506097" id="-84862">
		<tag k="ford" v="yes" />
		<tag k="name" v="Ådalsvadet" />
		<tag k="place" v="locality" />
		<tag k="ssr:stedsnr" v="149797" />
	</node>
	<node lat="64.05684444469442" lon="11.202247212130844" id="-85497">
		<tag k="highway" v="path" />
		<tag k="name" v="Kleiva" />
		<tag k="ssr:stedsnr" v="332984" />
	</node>
	<node lat="64.01427499890892" lon="12.00101110339468" id="-86432">
		<tag k="bridge" v="yes" />
		<tag k="layer" v="1" />
		<tag k="name" v="Hestbrua" />
		<tag k="ssr:stedsnr" v="534497" />
	</node>
	<node lat="64.0680250003596" lon="11.83332499427516" id="-86710">
		<tag k="ford" v="yes" />
		<tag k="name" v="Reintjønnvadet" />
		<tag k="place" v="locality" />
		<tag k="ssr:stedsnr" v="593976" />
	</node>
	<node lat="63.97577593778832" lon="12.069932256869835" id="-86828">
		<tag k="bridge" v="yes" />
		<tag k="layer" v="1" />
		<tag k="name" v="Høabrua" />
		<tag k="ssr:stedsnr" v="620365" />
	</node>
	<node lat="64.15898610785902" lon="11.653872212148165" id="-87162">
		<tag k="highway" v="path" />
		<tag k="name" v="Gjerstadstigen" />
		<tag k="ssr:stedsnr" v="716168" />
	</node>
	<node lat="64.16115278055578" lon="11.595419443900283" id="-87786">
		<tag k="highway" v="path" />
		<tag k="name" v="Vassbukleiva" />
		<tag k="ssr:stedsnr" v="837116" />
	</node>
	<node lat="64.09812464102657" lon="11.305272419237333" id="-88314">
		<tag k="layer" v="-1" />
		<tag k="name" v="Strømnestunnelen" />
		<tag k="ssr:stedsnr" v="990975" />
		<tag k="tunnel" v="yes" />
	</node>
	<node lat="64.11090006932142" lon="11.304381395287669" id="-88315">
		<tag k="layer" v="-1" />
		<tag k="name" v="Holmviktunnelen" />
		<tag k="ssr:stedsnr" v="990976" />
		<tag k="tunnel" v="yes" />
	</node>
	<node lat="64.01258061014772" lon="11.494756799617011" id="-88875">
		<tag k="name" v="Steinkjer stasjon" />
		<tag k="railway" v="station" />
		<tag k="ssr:stedsnr" v="1076219" />
		<tag k="train" v="yes" />
	</node>
	<node lat="64.09658758372592" lon="11.330510126254794" id="-88876">
		<tag k="bridge" v="yes" />
		<tag k="layer" v="1" />
		<tag k="name" v="Beitstadsundbrua" />
		<tag k="ssr:stedsnr" v="1076349" />
	</node>
</osm>
