<?xml version="1.0" encoding="UTF-8"?>
<osm generator="osmapis" version="0.6">
	<node id="-76287" lat="64.0993611152" lon="11.3328722229">
		<tag k="name" v="Strømnestangen" />
		<tag k="natural" v="cape" />
		<tag k="ssr:stedsnr" v="811804" />
	</node>
	<node id="-69624" lat="64.0410472191" lon="11.096113882">
		<tag k="name" v="Isnestangen" />
		<tag k="natural" v="cape" />
		<tag k="ssr:stedsnr" v="291015" />
	</node>
	<node id="-71156" lat="63.9468111138" lon="11.0116583241">
		<tag k="name" v="Skjærbukta" />
		<tag k="natural" v="bay" />
		<tag k="ssr:stedsnr" v="696135" />
	</node>
	<node id="-73200" lat="63.9531138906" lon="11.0160055476">
		<tag k="name" v="Tunshamna" />
		<tag k="natural" v="bay" />
		<tag k="ssr:stedsnr" v="75651" />
	</node>
	<node id="-74731" lat="63.8353583332" lon="10.6648055581">
		<tag k="name" v="Laupberget" />
		<tag k="natural" v="cape" />
		<tag k="ssr:stedsnr" v="410950" />
	</node>
	<node id="-73703" lat="63.8753472208" lon="10.8222333324">
		<tag k="name" v="Kråkøra" />
		<tag k="natural" v="beach" />
		<tag k="place" v="locality" />
		<tag k="ssr:stedsnr" v="165485" />
	</node>
	<node id="-75235" lat="63.9727166669" lon="11.4095111042">
		<tag k="name" v="Holleiret" />
		<tag k="natural" v="shoal" />
		<tag k="place" v="locality" />
		<tag k="ssr:stedsnr" v="568865" />
	</node>
	<node id="-70113" lat="64.0157638922" lon="11.2183444492">
		<tag k="name" v="Naustgrunnen" />
		<tag k="natural" v="shoal" />
		<tag k="place" v="locality" />
		<tag k="ssr:stedsnr" v="469182" />
	</node>
	<node id="-70112" lat="63.9577194478" lon="11.0278361208">
		<tag k="fixme" v="consider seamark:type=rock or natural=shoal" />
		<tag k="name" v="Naustvikskjæret" />
		<tag k="place" v="islet" />
		<tag k="ssr:stedsnr" v="468142" />
	</node>
	<node id="-75743" lat="63.8980194479" lon="11.3524361134">
		<tag k="name" v="Fagerneset" />
		<tag k="natural" v="cape" />
		<tag k="ssr:stedsnr" v="652419" />
	</node>
	<node id="-74201" lat="64.090236107" lon="11.3257861148">
		<tag k="name" v="Utvikøra" />
		<tag k="natural" v="beach" />
		<tag k="place" v="locality" />
		<tag k="ssr:stedsnr" v="326856" />
	</node>
	<node id="-70102" lat="63.978727782" lon="11.0934499948">
		<tag k="name" v="Kuvika" />
		<tag k="natural" v="bay" />
		<tag k="ssr:stedsnr" v="464289" />
	</node>
	<node id="-74195" lat="64.100424999" lon="11.3292055477">
		<tag k="name" v="Djupvika" />
		<tag k="natural" v="bay" />
		<tag k="ssr:stedsnr" v="326834" />
	</node>
	<node id="-73168" lat="64.0142637406" lon="11.4663812163">
		<tag k="name" v="Bogen" />
		<tag k="natural" v="bay" />
		<tag k="ssr:stedsnr" v="75063" />
	</node>
	<node id="-73673" lat="64.0460111076" lon="11.2312499922">
		<tag k="name" v="Hylltangen" />
		<tag k="natural" v="cape" />
		<tag k="ssr:stedsnr" v="149982" />
	</node>
	<node id="-71109" lat="64.0251083377" lon="11.4315972294">
		<tag k="name" v="Lundleiret" />
		<tag k="natural" v="shoal" />
		<tag k="place" v="locality" />
		<tag k="ssr:stedsnr" v="690924" />
	</node>
	<node id="-70083" lat="64.0217722184" lon="11.2682944492">
		<tag k="alt_name" v="Hammergrunnen" />
		<tag k="name" v="Fjordgrunnen" />
		<tag k="natural" v="shoal" />
		<tag k="place" v="locality" />
		<tag k="ssr:stedsnr" v="286162" />
	</node>
	<node id="-72130" lat="64.1125111072" lon="11.3589472218">
		<tag k="name" v="Strandabukta" />
		<tag k="natural" v="bay" />
		<tag k="ssr:stedsnr" v="924161" />
	</node>
	<node id="-75201" lat="64.0362694481" lon="11.3609972175">
		<tag k="name" v="Håmmårsholmen" />
		<tag k="place" v="islet" />
		<tag k="ssr:stedsnr" v="568212" />
	</node>
	<node id="-73151" lat="64.0481397623" lon="11.2107970592">
		<tag k="alt_name" v="Kirkereitvika;Kirkreitvika;Kjerkreitvika" />
		<tag k="name" v="Vikabukta" />
		<tag k="natural" v="bay" />
		<tag k="ssr:stedsnr" v="74958" />
	</node>
	<node id="-71614" lat="63.9843972212" lon="11.1160416757">
		<tag k="fixme" v="consider seamark:type=rock or natural=shoal" />
		<tag k="name" v="Storfollaskjæret" />
		<tag k="place" v="islet" />
		<tag k="ssr:stedsnr" v="878114" />
	</node>
	<node id="-74166" lat="64.0384388869" lon="11.314636107">
		<tag k="name" v="Elnbukta" />
		<tag k="natural" v="bay" />
		<tag k="ssr:stedsnr" v="326201" />
	</node>
	<node id="-72116" lat="64.018938885" lon="11.3525388962">
		<tag k="name" v="Hoøya" />
		<tag k="place" v="island" />
		<tag k="ssr:stedsnr" v="924062" />
	</node>
	<node id="-72115" lat="64.0249166628" lon="11.3754000009">
		<tag k="name" v="Hoøyvågen" />
		<tag k="natural" v="bay" />
		<tag k="ssr:stedsnr" v="924056" />
	</node>
	<node id="-72104" lat="63.9299555527" lon="11.3680861035">
		<tag k="name" v="Naustlandet" />
		<tag k="natural" v="cape" />
		<tag k="ssr:stedsnr" v="924013" />
	</node>
	<node id="-76189" lat="64.0363444422" lon="11.361644445">
		<tag k="name" v="Hammarholmen" />
		<tag k="place" v="islet" />
		<tag k="ssr:stedsnr" v="803116" />
	</node>
	<node id="-73626" lat="63.9465194464" lon="11.3817638854">
		<tag k="name" v="Lønnemsleira" />
		<tag k="natural" v="shoal" />
		<tag k="place" v="locality" />
		<tag k="ssr:stedsnr" v="143883" />
	</node>
	<node id="-76181" lat="64.0144027774" lon="11.4333055633">
		<tag k="name" v="Skåtangen" />
		<tag k="natural" v="cape" />
		<tag k="ssr:stedsnr" v="803069" />
	</node>
	<node id="-73619" lat="64.153633333" lon="11.2445694527">
		<tag k="name" v="Bjørkneset" />
		<tag k="natural" v="cape" />
		<tag k="ssr:stedsnr" v="143842" />
	</node>
	<node id="-76688" lat="63.9848444406" lon="11.4230944515">
		<tag k="name" v="Ålegrunnen" />
		<tag k="natural" v="shoal" />
		<tag k="place" v="locality" />
		<tag k="ssr:stedsnr" v="955264" />
	</node>
	<node id="-76687" lat="64.0323055552" lon="11.2809500101">
		<tag k="name" v="Skjeviksundet" />
		<tag k="natural" v="strait" />
		<tag k="ssr:stedsnr" v="955155" />
	</node>
	<node id="-71054" lat="64.0344666625" lon="11.3129833321">
		<tag k="name" v="Bråttåtangen" />
		<tag k="natural" v="cape" />
		<tag k="ssr:stedsnr" v="690233" />
	</node>
	<node id="-69005" lat="64.0393777804" lon="11.3176055477">
		<tag k="name" v="Strandsveet" />
		<tag k="natural" v="beach" />
		<tag k="place" v="locality" />
		<tag k="ssr:stedsnr" v="227150" />
	</node>
	<node id="-73612" lat="64.0976833365" lon="11.362961104">
		<tag k="name" v="Svennsvika" />
		<tag k="natural" v="bay" />
		<tag k="ssr:stedsnr" v="143801" />
	</node>
	<node id="-70027" lat="64.0578888858" lon="11.2312805639">
		<tag k="fixme" v="consider seamark:type=rock or natural=shoal" />
		<tag k="name" v="Bartnesskjæret" />
		<tag k="place" v="islet" />
		<tag k="ssr:stedsnr" v="453992" />
	</node>
	<node id="-73609" lat="64.1081027735" lon="11.3196499947">
		<tag k="name" v="Holmviktangen" />
		<tag k="natural" v="cape" />
		<tag k="ssr:stedsnr" v="143790" />
	</node>
	<node id="-71047" lat="63.8947111154" lon="11.3591416675">
		<tag k="name" v="Hestvika" />
		<tag k="natural" v="bay" />
		<tag k="ssr:stedsnr" v="690159" />
	</node>
	<node id="-71046" lat="63.9162583326" lon="11.3687722265">
		<tag k="name" v="Våsetbukta" />
		<tag k="natural" v="bay" />
		<tag k="ssr:stedsnr" v="690126" />
	</node>
	<node id="-71045" lat="63.9069777782" lon="11.3614444363">
		<tag k="name" v="Landvikbukta" />
		<tag k="natural" v="bay" />
		<tag k="ssr:stedsnr" v="690121" />
	</node>
	<node id="-70532" lat="64.1114666653" lon="11.305255561">
		<tag k="name" v="Alhusøra" />
		<tag k="place" v="locality" />
		<tag k="ssr:stedsnr" v="508203" />
	</node>
	<node id="-71043" lat="64.0195583334" lon="11.3776583379">
		<tag k="name" v="Armodshylla" />
		<tag k="natural" v="cape" />
		<tag k="ssr:stedsnr" v="530169" />
	</node>
	<node id="-75650" lat="64.0273027744" lon="11.3623388912">
		<tag k="name" v="Sørvika" />
		<tag k="natural" v="bay" />
		<tag k="ssr:stedsnr" v="629662" />
	</node>
	<node id="-70123" lat="63.896233331" lon="11.3728000073">
		<tag k="name" v="Storhaugen" />
		<tag k="natural" v="cape" />
		<tag k="ssr:stedsnr" v="470418" />
	</node>
	<node id="-74615" lat="64.0713694449" lon="11.2707166577">
		<tag k="name" v="Holmfetbukta" />
		<tag k="natural" v="bay" />
		<tag k="ssr:stedsnr" v="386245" />
	</node>
	<node id="-70004" lat="64.0343277814" lon="11.3303222212">
		<tag k="name" v="Brennholmen" />
		<tag k="natural" v="cape" />
		<tag k="ssr:stedsnr" v="257122" />
	</node>
	<node id="-71027" lat="64.0022222187" lon="11.4607611146">
		<tag k="fixme" v="consider seamark:type=rock or natural=shoal" />
		<tag k="name" v="Raudskjæret" />
		<tag k="place" v="islet" />
		<tag k="ssr:stedsnr" v="514921" />
	</node>
	<node id="-76179" lat="64.0264694482" lon="11.4372027831">
		<tag k="alt_name" v="Lundleiret" />
		<tag k="name" v="Lundleira" />
		<tag k="natural" v="beach" />
		<tag k="place" v="locality" />
		<tag k="ssr:stedsnr" v="803063" />
	</node>
	<node id="-75630" lat="64.0055444454" lon="11.3366222217">
		<tag k="bay" v="fjord" />
		<tag k="name" v="Steinkjerfjorden" />
		<tag k="natural" v="bay" />
		<tag k="ssr:stedsnr" v="627560" />
	</node>
	<node id="-74093" lat="64.003902776" lon="11.491805546">
		<tag k="name" v="Figgja" />
		<tag k="natural" v="cape" />
		<tag k="ssr:stedsnr" v="317379" />
	</node>
	<node id="-74215" lat="63.8384944491" lon="10.6736999913">
		<tag k="name" v="Langneset" />
		<tag k="natural" v="cape" />
		<tag k="ssr:stedsnr" v="332056" />
	</node>
	<node id="-76638" lat="64.0356944439" lon="11.3426416578">
		<tag k="name" v="Visettangen" />
		<tag k="natural" v="cape" />
		<tag k="ssr:stedsnr" v="872230" />
	</node>
	<node id="-76636" lat="64.0258111133" lon="11.3459722262">
		<tag k="fixme" v="consider seamark:type=rock or natural=shoal" />
		<tag k="name" v="Purka" />
		<tag k="place" v="islet" />
		<tag k="ssr:stedsnr" v="872185" />
	</node>
	<node id="-74585" lat="63.8770749967" lon="10.8592472312">
		<tag k="bay" v="fjord" />
		<tag k="name" v="Verrasundet" />
		<tag k="natural" v="bay" />
		<tag k="ssr:stedsnr" v="378766" />
	</node>
	<node id="-70115" lat="64.0054361108" lon="11.4854805483">
		<tag k="name" v="Markustangen" />
		<tag k="natural" v="shoal" />
		<tag k="place" v="locality" />
		<tag k="ssr:stedsnr" v="469703" />
	</node>
	<node id="-68939" lat="64.0358777814" lon="11.3367000099">
		<tag k="name" v="Øystersjøholmen" />
		<tag k="place" v="islet" />
		<tag k="ssr:stedsnr" v="14104" />
	</node>
	<node id="-69516" lat="64.0706722209" lon="11.2207500022">
		<tag k="name" v="Malmstranda" />
		<tag k="natural" v="beach" />
		<tag k="place" v="locality" />
		<tag k="ssr:stedsnr" v="271985" />
	</node>
	<node id="-69172" lat="64.0257111091" lon="11.3530666641">
		<tag k="name" v="Kuppulbukta" />
		<tag k="natural" v="bay" />
		<tag k="ssr:stedsnr" v="83159" />
	</node>
	<node id="-76593" lat="64.0679999992" lon="11.0281416674">
		<tag k="name" v="Ramstadholmen" />
		<tag k="place" v="islet" />
		<tag k="ssr:stedsnr" v="864587" />
	</node>
	<node id="-71984" lat="64.0191888889" lon="11.3704305627">
		<tag k="name" v="Naustbukta" />
		<tag k="natural" v="bay" />
		<tag k="ssr:stedsnr" v="742072" />
	</node>
	<node id="-71982" lat="64.027263893" lon="11.3568416694">
		<tag k="name" v="Kalvøya" />
		<tag k="place" v="island" />
		<tag k="ssr:stedsnr" v="742065" />
	</node>
	<node id="-73517" lat="64.1088694428" lon="11.3646555471">
		<tag k="name" v="Kråkneset" />
		<tag k="natural" v="cape" />
		<tag k="ssr:stedsnr" v="135176" />
	</node>
	<node id="-74545" lat="64.1104194407" lon="11.3421749943">
		<tag k="name" v="Låtra" />
		<tag k="natural" v="cape" />
		<tag k="ssr:stedsnr" v="378183" />
	</node>
	<node id="-70534" lat="64.0328888898" lon="11.3174861033">
		<tag k="name" v="Fuglvika" />
		<tag k="natural" v="bay" />
		<tag k="ssr:stedsnr" v="508215" />
	</node>
	<node id="-73505" lat="64.0187500016" lon="11.4171444447">
		<tag k="fixme" v="consider seamark:type=rock or natural=shoal" />
		<tag k="name" v="Gluggen" />
		<tag k="place" v="islet" />
		<tag k="ssr:stedsnr" v="135071" />
	</node>
	<node id="-69407" lat="63.9163472249" lon="11.3759138871">
		<tag k="name" v="Våsetleiret" />
		<tag k="natural" v="shoal" />
		<tag k="place" v="locality" />
		<tag k="ssr:stedsnr" v="265981" />
	</node>
	<node id="-71966" lat="63.9095250023" lon="11.3596138986">
		<tag k="name" v="Bulungsneset" />
		<tag k="natural" v="cape" />
		<tag k="ssr:stedsnr" v="742114" />
	</node>
	<node id="-76570" lat="64.0288611085" lon="11.2249694409">
		<tag k="name" v="Rambergholmen" />
		<tag k="place" v="islet" />
		<tag k="ssr:stedsnr" v="864067" />
	</node>
	<node id="-71470" lat="64.0111861148" lon="11.4643555481">
		<tag k="name" v="Bogatangen" />
		<tag k="natural" v="cape" />
		<tag k="ssr:stedsnr" v="620408" />
	</node>
	<node id="-69898" lat="64.0976111111" lon="11.330416674">
		<tag k="name" v="Øysternaustbukta" />
		<tag k="natural" v="bay" />
		<tag k="ssr:stedsnr" v="447781" />
	</node>
	<node id="-72457" lat="64.0734555574" lon="11.6334972184">
		<tag k="name" v="Forsetholmen" />
		<tag k="place" v="islet" />
		<tag k="ssr:stedsnr" v="939408" />
	</node>
	<node id="-75517" lat="64.0196499969" lon="11.4002722189">
		<tag k="alt_name" v="Loaskjæret" />
		<tag k="fixme" v="consider seamark:type=rock or natural=shoal" />
		<tag k="name" v="Gylta" />
		<tag k="place" v="islet" />
		<tag k="ssr:stedsnr" v="620088" />
	</node>
	<node id="-74491" lat="63.8390750018" lon="10.676269452">
		<tag k="name" v="Trongsundet" />
		<tag k="natural" v="strait" />
		<tag k="ssr:stedsnr" v="377468" />
	</node>
	<node id="-76538" lat="63.9935694489" lon="11.1645694426">
		<tag k="alt_name" v="Sandnestangen" />
		<tag k="name" v="Sandnesodden" />
		<tag k="natural" v="cape" />
		<tag k="ssr:stedsnr" v="863598" />
	</node>
	<node id="-69369" lat="64.0374416663" lon="11.3409166711">
		<tag k="name" v="Visetbukta" />
		<tag k="natural" v="bay" />
		<tag k="ssr:stedsnr" v="265219" />
	</node>
	<node id="-72437" lat="63.8298388886" lon="10.654541668">
		<tag k="name" v="Laksneset" />
		<tag k="natural" v="cape" />
		<tag k="ssr:stedsnr" v="939037" />
	</node>
	<node id="-76019" lat="64.018502777" lon="11.2584749973">
		<tag k="name" v="Fjordgrunnen" />
		<tag k="natural" v="shoal" />
		<tag k="place" v="locality" />
		<tag k="ssr:stedsnr" v="773195" />
	</node>
	<node id="-76018" lat="63.9019000036" lon="11.3522722325">
		<tag k="fixme" v="consider seamark:type=rock or natural=shoal" />
		<tag k="name" v="Blindskjæret" />
		<tag k="place" v="islet" />
		<tag k="ssr:stedsnr" v="772154" />
	</node>
	<node id="-72420" lat="63.8714138908" lon="10.8024805526">
		<tag k="name" v="Åvika" />
		<tag k="natural" v="bay" />
		<tag k="ssr:stedsnr" v="939096" />
	</node>
	<node id="-74465" lat="64.0827194474" lon="11.2891666718">
		<tag k="name" v="Beitstadsundet" />
		<tag k="natural" v="strait" />
		<tag k="ssr:stedsnr" v="377175" />
	</node>
	<node id="-70879" lat="64.0147416627" lon="11.4446333322">
		<tag k="name" v="Paradisbukta" />
		<tag k="natural" v="bay" />
		<tag k="ssr:stedsnr" v="499055" />
	</node>
	<node id="-72918" lat="63.9917722231" lon="11.1532833352">
		<tag k="name" v="Storbukta" />
		<tag k="natural" v="bay" />
		<tag k="ssr:stedsnr" v="28991" />
	</node>
	<node id="-70867" lat="63.9215138909" lon="11.3681277696">
		<tag k="name" v="Tønnelandet" />
		<tag k="natural" v="beach" />
		<tag k="place" v="locality" />
		<tag k="ssr:stedsnr" v="499006" />
	</node>
	<node id="-72914" lat="64.0121083288" lon="11.4542388931">
		<tag k="name" v="Steinvika" />
		<tag k="natural" v="bay" />
		<tag k="ssr:stedsnr" v="28955" />
	</node>
	<node id="-75985" lat="64.0030499994" lon="11.1870999941">
		<tag k="name" v="Vaggsundet" />
		<tag k="natural" v="strait" />
		<tag k="ssr:stedsnr" v="756985" />
	</node>
	<node id="-69832" lat="63.9724305544" lon="11.3765416615">
		<tag k="name" v="Kroksvågen" />
		<tag k="natural" v="bay" />
		<tag k="ssr:stedsnr" v="439988" />
	</node>
	<node id="-69831" lat="63.9731583328" lon="11.4102611158">
		<tag k="name" v="Frøsetvågen" />
		<tag k="natural" v="bay" />
		<tag k="ssr:stedsnr" v="439987" />
	</node>
	<node id="-73924" lat="64.0159333321" lon="11.3409833259">
		<tag k="name" v="Hoøytangen" />
		<tag k="natural" v="cape" />
		<tag k="ssr:stedsnr" v="204132" />
	</node>
	<node id="-73923" lat="64.0286055521" lon="11.3579944509">
		<tag k="name" v="Nordvika" />
		<tag k="natural" v="bay" />
		<tag k="ssr:stedsnr" v="204130" />
	</node>
	<node id="-73922" lat="64.0182416677" lon="11.3564861039">
		<tag k="name" v="Stubukta" />
		<tag k="natural" v="bay" />
		<tag k="ssr:stedsnr" v="204129" />
	</node>
	<node id="-74526" lat="64.0324666678" lon="11.2955388977">
		<tag k="name" v="Langøya" />
		<tag k="place" v="islet" />
		<tag k="ssr:stedsnr" v="378054" />
	</node>
	<node id="-69296" lat="64.106258335" lon="11.3396500032">
		<tag k="bay" v="fjord" />
		<tag k="name" v="Hjellbotn" />
		<tag k="natural" v="bay" />
		<tag k="ssr:stedsnr" v="257151" />
	</node>
	<node id="-72873" lat="63.8230833354" lon="10.6402499976">
		<tag k="name" v="Yttermoldøra" />
		<tag k="natural" v="cape" />
		<tag k="ssr:stedsnr" v="28071" />
	</node>
	<node id="-68977" lat="64.1057055581" lon="11.3123111041">
		<tag k="name" v="Karebukta" />
		<tag k="natural" v="bay" />
		<tag k="ssr:stedsnr" v="22822" />
	</node>
	<node id="-69272" lat="64.0410472191" lon="11.096113882">
		<tag k="name" v="Isnestangen" />
		<tag k="natural" v="cape" />
		<tag k="ssr:stedsnr" v="256940" />
	</node>
	<node id="-75926" lat="63.9740833323" lon="11.4070749983">
		<tag k="name" v="Tjeldberget" />
		<tag k="place" v="islet" />
		<tag k="ssr:stedsnr" v="750854" />
	</node>
	<node id="-71534" lat="63.9749222215" lon="11.079227781">
		<tag k="name" v="Geitvika" />
		<tag k="natural" v="bay" />
		<tag k="ssr:stedsnr" v="635061" />
	</node>
	<node id="-75922" lat="64.0770444451" lon="11.2621944436">
		<tag k="name" v="Langnesøra" />
		<tag k="natural" v="cape" />
		<tag k="ssr:stedsnr" v="750827" />
	</node>
	<node id="-72849" lat="64.0310749978" lon="11.2881194359">
		<tag k="name" v="Aspøya" />
		<tag k="place" v="islet" />
		<tag k="ssr:stedsnr" v="23275" />
	</node>
	<node id="-71821" lat="63.9784444476" lon="11.4004944416">
		<tag k="fixme" v="consider seamark:type=rock or natural=shoal" />
		<tag k="name" v="Hyllskjæret" />
		<tag k="place" v="islet" />
		<tag k="ssr:stedsnr" v="895242" />
	</node>
	<node id="-72843" lat="63.9691194465" lon="11.3762694436">
		<tag k="name" v="Langåsleiret" />
		<tag k="natural" v="shoal" />
		<tag k="place" v="locality" />
		<tag k="ssr:stedsnr" v="22867" />
	</node>
	<node id="-71818" lat="64.0368138926" lon="11.2348694514">
		<tag k="alt_name" v="Ronesbukta" />
		<tag k="name" v="Sør-Ronesbukta" />
		<tag k="natural" v="bay" />
		<tag k="ssr:stedsnr" v="712164" />
	</node>
	<node id="-74888" lat="63.8941916686" lon="11.3519916631">
		<tag k="alt_name" v="Håven" />
		<tag k="name" v="Hoven" />
		<tag k="natural" v="cape" />
		<tag k="ssr:stedsnr" v="438079" />
	</node>
	<node id="-71302" lat="64.0224888886" lon="11.3104833246">
		<tag k="fixme" v="consider seamark:type=rock or natural=shoal" />
		<tag k="name" v="Fjordskjæret" />
		<tag k="place" v="islet" />
		<tag k="ssr:stedsnr" v="711151" />
	</node>
	<node id="-73502" lat="64.0203250007" lon="11.4446833237">
		<tag k="name" v="Fuglvika" />
		<tag k="natural" v="bay" />
		<tag k="ssr:stedsnr" v="135063" />
	</node>
	<node id="-71797" lat="64.0623305539" lon="11.2152805589">
		<tag k="name" v="Bukta" />
		<tag k="natural" v="bay" />
		<tag k="ssr:stedsnr" v="696969" />
	</node>
	<node id="-73838" lat="64.0325888918" lon="11.3070972275">
		<tag k="name" v="Skarrholmen" />
		<tag k="place" v="islet" />
		<tag k="ssr:stedsnr" v="196075" />
	</node>
	<node id="-73321" lat="64.0412527811" lon="11.2178638953">
		<tag k="name" v="Rossneset" />
		<tag k="natural" v="cape" />
		<tag k="ssr:stedsnr" v="89992" />
	</node>
	<node id="-73828" lat="64.1003500017" lon="11.3053833271">
		<tag k="name" v="Holmvikbogen" />
		<tag k="natural" v="bay" />
		<tag k="ssr:stedsnr" v="196152" />
	</node>
	<node id="-75350" lat="64.0119249978" lon="11.404555561">
		<tag k="name" v="Loagrunnan" />
		<tag k="natural" v="shoal" />
		<tag k="place" v="locality" />
		<tag k="ssr:stedsnr" v="591259" />
	</node>
	<node id="-75349" lat="64.0224499962" lon="11.258580558">
		<tag k="name" v="Hammartangflua" />
		<tag k="place" v="locality" />
		<tag k="seamark:type" v="rock" />
		<tag k="ssr:stedsnr" v="591151" />
	</node>
	<node id="-72273" lat="63.934131582" lon="11.0808562472">
		<tag k="bay" v="fjord" />
		<tag k="name" v="Beitstadfjorden" />
		<tag k="natural" v="bay" />
		<tag k="ssr:stedsnr" v="803613" />
	</node>
	<node id="-75853" lat="63.9864361152" lon="11.1289027857">
		<tag k="name" v="Kistvika" />
		<tag k="natural" v="bay" />
		<tag k="ssr:stedsnr" v="742550" />
	</node>
	<node id="-72261" lat="64.1117166658" lon="11.3058527679">
		<tag k="name" v="Hjellosen" />
		<tag k="natural" v="bay" />
		<tag k="ssr:stedsnr" v="803181" />
	</node>
	<node id="-75190" lat="64.0010583302" lon="11.1886777759">
		<tag k="name" v="Vaggen" />
		<tag k="place" v="islet" />
		<tag k="ssr:stedsnr" v="560911" />
	</node>
	<node id="-74302" lat="63.9124098965" lon="11.3725936361">
		<tag k="name" v="Jomfruneset" />
		<tag k="natural" v="cape" />
		<tag k="ssr:stedsnr" v="348447" />
	</node>
	<node id="-74300" lat="64.0309027738" lon="11.3421055553">
		<tag k="name" v="Einvågen" />
		<tag k="natural" v="bay" />
		<tag k="ssr:stedsnr" v="348148" />
	</node>
	<node id="-73268" lat="63.935224997" lon="10.9805722276">
		<tag k="name" v="Storodden" />
		<tag k="natural" v="cape" />
		<tag k="ssr:stedsnr" v="89093" />
	</node>
	<node id="-69157" lat="63.916208333" lon="11.3757583287">
		<tag k="name" v="Våsetbukta" />
		<tag k="natural" v="bay" />
		<tag k="ssr:stedsnr" v="74015" />
	</node>
	<node id="-74270" lat="64.0734888918" lon="11.2240916769">
		<tag k="name" v="Nersanda" />
		<tag k="natural" v="beach" />
		<tag k="place" v="locality" />
		<tag k="ssr:stedsnr" v="332968" />
	</node>
	<node id="-76314" lat="63.9520805562" lon="11.0185333298">
		<tag k="name" v="Slåttavika" />
		<tag k="natural" v="bay" />
		<tag k="ssr:stedsnr" v="817128" />
	</node>
	<node id="-72217" lat="64.0077361107" lon="11.2041583257">
		<tag k="name" v="Vadaneset" />
		<tag k="natural" v="cape" />
		<tag k="ssr:stedsnr" v="924880" />
	</node>
	<node id="-70679" lat="64.0178250024" lon="11.3746111108">
		<tag k="name" v="Hylltangen" />
		<tag k="natural" v="cape" />
		<tag k="ssr:stedsnr" v="439054" />
	</node>
	<node id="-70489" lat="64.0968361145" lon="11.3307805476">
		<tag k="name" v="Litingen" />
		<tag k="natural" v="cape" />
		<tag k="ssr:stedsnr" v="386829" />
	</node>
	<node id="-72204" lat="64.0217027798" lon="11.2185638914">
		<tag k="name" v="Vadaneset" />
		<tag k="natural" v="cape" />
		<tag k="ssr:stedsnr" v="924772" />
	</node>
	<node id="-72709" lat="63.885352775" lon="11.33789445">
		<tag k="bay" v="fjord" />
		<tag k="name" v="Børgin" />
		<tag k="natural" v="bay" />
		<tag k="ssr:stedsnr" v="14069" />
	</node>
</osm>
