<?xml version="1.0" encoding="UTF-8"?>
<osm version="0.6" generator="osmapis">
	<node lat="64.23323611302665" lon="11.60680276822646" id="-46191">
		<tag k="name" v="Guinseterdalen" />
		<tag k="natural" v="valley" />
		<tag k="place" v="locality" />
		<tag k="ssr:stedsnr" v="230060" />
	</node>
	<node lat="64.20415833673012" lon="11.604558339396798" id="-46192">
		<tag k="name" v="Jensdalen" />
		<tag k="natural" v="valley" />
		<tag k="place" v="locality" />
		<tag k="ssr:stedsnr" v="230065" />
	</node>
	<node lat="64.17158333101084" lon="11.695116666577965" id="-46194">
		<tag k="fixme" v="consider natural=peak for the most distinct mountains in the district" />
		<tag k="name" v="Tverråhalla" />
		<tag k="natural" v="hill" />
		<tag k="place" v="locality" />
		<tag k="ssr:stedsnr" v="230159" />
	</node>
	<node lat="63.985766668905775" lon="12.122724997939786" id="-46198">
		<tag k="fixme" v="consider natural=peak for the most distinct mountains in the district" />
		<tag k="name" v="Stor-Gaulstadklompen" />
		<tag k="natural" v="hill" />
		<tag k="place" v="locality" />
		<tag k="ssr:stedsnr" v="230300" />
	</node>
	<node lat="64.02289722230395" lon="12.121102778599337" id="-46200">
		<tag k="name" v="Litltjønnhalla" />
		<tag k="natural" v="slope" />
		<tag k="place" v="locality" />
		<tag k="ssr:stedsnr" v="230253" />
	</node>
	<node lat="64.00826110798121" lon="12.093952773271068" id="-46202">
		<tag k="name" v="Korpdalen" />
		<tag k="natural" v="valley" />
		<tag k="place" v="locality" />
		<tag k="ssr:stedsnr" v="230277" />
	</node>
	<node lat="63.93151110936322" lon="11.903966673482895" id="-46205">
		<tag k="name" v="Hansmyrhaugen" />
		<tag k="natural" v="hill" />
		<tag k="place" v="locality" />
		<tag k="ssr:stedsnr" v="230470" />
	</node>
	<node lat="63.97001666637219" lon="12.081344442986978" id="-46211">
		<tag k="fixme" v="consider natural=peak for the most distinct mountains in the district" />
		<tag k="name" v="Johannesåsen" />
		<tag k="natural" v="hill" />
		<tag k="place" v="locality" />
		<tag k="ssr:stedsnr" v="230674" />
	</node>
	<node lat="64.07465555510926" lon="11.164072228301315" id="-46212">
		<tag k="fixme" v="consider natural=peak for the most distinct mountains in the district" />
		<tag k="name" v="Johankammen" />
		<tag k="natural" v="hill" />
		<tag k="place" v="locality" />
		<tag k="ssr:stedsnr" v="230676" />
	</node>
	<node lat="63.98507500110623" lon="11.928738883558841" id="-46213">
		<tag k="name" v="Lokberget" />
		<tag k="natural" v="hill" />
		<tag k="place" v="locality" />
		<tag k="ssr:stedsnr" v="230883" />
	</node>
	<node lat="64.04030000127156" lon="11.792080548896537" id="-46214">
		<tag k="name" v="Finstadkammen" />
		<tag k="natural" v="ridge" />
		<tag k="place" v="locality" />
		<tag k="ssr:stedsnr" v="230893" />
	</node>
	<node lat="64.09890277555418" lon="11.867333325424912" id="-46215">
		<tag k="name" v="Bjønnabettet" />
		<tag k="natural" v="valley" />
		<tag k="place" v="locality" />
		<tag k="ssr:stedsnr" v="230760" />
	</node>
	<node lat="64.08425833585565" lon="11.817405550501007" id="-46219">
		<tag k="fixme" v="consider natural=peak for the most distinct mountains in the district" />
		<tag k="name" v="Austeråsen" />
		<tag k="natural" v="hill" />
		<tag k="place" v="locality" />
		<tag k="ssr:stedsnr" v="230772" />
	</node>
	<node lat="64.08564357672064" lon="11.797001418013814" id="-46220">
		<tag k="fixme" v="consider natural=peak for the most distinct mountains in the district" />
		<tag k="name" v="Bursmohøgda" />
		<tag k="natural" v="hill" />
		<tag k="place" v="locality" />
		<tag k="ssr:stedsnr" v="230775" />
	</node>
	<node lat="64.07492777810499" lon="11.812552770692523" id="-46221">
		<tag k="fixme" v="consider natural=peak for the most distinct mountains in the district" />
		<tag k="name" v="Brennerihøgda" />
		<tag k="natural" v="hill" />
		<tag k="place" v="locality" />
		<tag k="ssr:stedsnr" v="230778" />
	</node>
	<node lat="64.02171389197234" lon="11.910397226222784" id="-46222">
		<tag k="name" v="Konvallumdalen" />
		<tag k="natural" v="valley" />
		<tag k="place" v="locality" />
		<tag k="ssr:stedsnr" v="230869" />
	</node>
	<node lat="63.94828888587537" lon="11.70826944797561" id="-46225">
		<tag k="name" v="Litlvekthaugen" />
		<tag k="natural" v="hill" />
		<tag k="place" v="locality" />
		<tag k="ssr:stedsnr" v="230918" />
	</node>
	<node lat="63.906850004023894" lon="10.69916667496027" id="-46227">
		<tag k="alt_name" v="Vestre Trevassheia" />
		<tag k="fixme" v="consider natural=peak for the most distinct mountains in the district" />
		<tag k="name" v="Nordheia" />
		<tag k="natural" v="hill" />
		<tag k="place" v="locality" />
		<tag k="ssr:stedsnr" v="13306" />
	</node>
	<node lat="64.13436944679088" lon="12.03544166221396" id="-46229">
		<tag k="name" v="Lauvhaugen" />
		<tag k="natural" v="hill" />
		<tag k="place" v="locality" />
		<tag k="ssr:stedsnr" v="13314" />
	</node>
	<node lat="64.21638333181714" lon="11.736419435631976" id="-46230">
		<tag k="name" v="Hevlan" />
		<tag k="natural" v="hill" />
		<tag k="place" v="locality" />
		<tag k="ssr:stedsnr" v="13412" />
	</node>
	<node lat="64.13339166763616" lon="11.557097217806964" id="-46234">
		<tag k="fixme" v="consider natural=peak for the most distinct mountains in the district" />
		<tag k="name" v="Midterfjellet" />
		<tag k="natural" v="hill" />
		<tag k="place" v="locality" />
		<tag k="ssr:stedsnr" v="13803" />
	</node>
	<node lat="64.04555277600831" lon="11.680722224362727" id="-46238">
		<tag k="fixme" v="consider natural=peak for the most distinct mountains in the district" />
		<tag k="name" v="Våttån" />
		<tag k="natural" v="hill" />
		<tag k="place" v="locality" />
		<tag k="ssr:stedsnr" v="14011" />
	</node>
	<node lat="64.06386666587144" lon="11.59080555275697" id="-46240">
		<tag k="name" v="Fossemhalla" />
		<tag k="natural" v="slope" />
		<tag k="place" v="locality" />
		<tag k="ssr:stedsnr" v="14019" />
	</node>
	<node lat="64.11139166341695" lon="11.934961119338318" id="-46250">
		<tag k="fixme" v="multiple name tags, choose one and add the other to alt_name" />
		<tag k="name" v="Øyingheia;Skavdalsheia" />
		<tag k="natural" v="hill" />
		<tag k="place" v="locality" />
		<tag k="ssr:stedsnr" v="14210" />
	</node>
	<node lat="64.07981944035552" lon="12.041336115088887" id="-46253">
		<tag k="fixme" v="consider natural=peak for the most distinct mountains in the district" />
		<tag k="name" v="Brannheia" />
		<tag k="natural" v="hill" />
		<tag k="place" v="locality" />
		<tag k="ssr:stedsnr" v="14261" />
	</node>
	<node lat="64.08775872712701" lon="12.091868910713513" id="-46256">
		<tag k="alt_name" v="Brannheiklompen" />
		<tag k="fixme" v="consider natural=peak for the most distinct mountains in the district" />
		<tag k="name" v="Brannheiklumpen" />
		<tag k="natural" v="hill" />
		<tag k="place" v="locality" />
		<tag k="ssr:stedsnr" v="14266" />
	</node>
	<node lat="63.94429999787139" lon="12.14508889626721" id="-46259">
		<tag k="name" v="Storbekkskardet" />
		<tag k="natural" v="valley" />
		<tag k="place" v="locality" />
		<tag k="ssr:stedsnr" v="14405" />
	</node>
	<node lat="63.97087500418066" lon="12.124177782598238" id="-46264">
		<tag k="name" v="Svartberga" />
		<tag k="place" v="locality" />
		<tag k="ssr:stedsnr" v="14308" />
	</node>
	<node lat="63.967375000487635" lon="12.124030565474868" id="-46267">
		<tag k="alt_name" v="Svartberget" />
		<tag k="fixme" v="consider natural=peak for the most distinct mountains in the district" />
		<tag k="name" v="Svartåsklumpen" />
		<tag k="natural" v="hill" />
		<tag k="place" v="locality" />
		<tag k="ssr:stedsnr" v="14320" />
	</node>
	<node lat="64.24760555306716" lon="11.807177780448166" id="-46269">
		<tag k="name" v="Skurvheia" />
		<tag k="natural" v="hill" />
		<tag k="place" v="locality" />
		<tag k="ssr:stedsnr" v="14330" />
	</node>
	<node lat="64.16236388508176" lon="12.005408327298191" id="-46273">
		<tag k="fixme" v="consider natural=peak for the most distinct mountains in the district" />
		<tag k="name" v="Seteråsen" />
		<tag k="natural" v="hill" />
		<tag k="place" v="locality" />
		<tag k="ssr:stedsnr" v="14372" />
	</node>
	<node lat="63.97108332947179" lon="11.027883324355505" id="-46276">
		<tag k="fixme" v="consider natural=peak for the most distinct mountains in the district" />
		<tag k="name" v="Nygårdsheia" />
		<tag k="natural" v="hill" />
		<tag k="place" v="locality" />
		<tag k="ssr:stedsnr" v="14506" />
	</node>
	<node lat="63.97463333707405" lon="10.934983331568068" id="-46277">
		<tag k="name" v="Bruraheia" />
		<tag k="natural" v="hill" />
		<tag k="place" v="locality" />
		<tag k="ssr:stedsnr" v="14507" />
	</node>
	<node lat="64.12129999804371" lon="11.009944454015235" id="-46280">
		<tag k="fixme" v="consider natural=peak for the most distinct mountains in the district" />
		<tag k="name" v="Nordesplingskurven" />
		<tag k="natural" v="hill" />
		<tag k="place" v="locality" />
		<tag k="ssr:stedsnr" v="14570" />
	</node>
	<node lat="63.88350832978015" lon="10.76624444307668" id="-46287">
		<tag k="name" v="Slettlia" />
		<tag k="natural" v="slope" />
		<tag k="place" v="locality" />
		<tag k="ssr:stedsnr" v="14670" />
	</node>
	<node lat="64.04995555707531" lon="11.26370554625299" id="-46297">
		<tag k="fixme" v="consider natural=peak for the most distinct mountains in the district" />
		<tag k="name" v="Ålbergmyrhalla" />
		<tag k="natural" v="hill" />
		<tag k="place" v="locality" />
		<tag k="ssr:stedsnr" v="22210" />
	</node>
	<node lat="64.05329721961654" lon="11.350263879405302" id="-46298">
		<tag k="name" v="Trøaberget" />
		<tag k="natural" v="hill" />
		<tag k="place" v="locality" />
		<tag k="ssr:stedsnr" v="22213" />
	</node>
	<node lat="64.04931111313334" lon="11.368047227378016" id="-46300">
		<tag k="fixme" v="consider natural=peak for the most distinct mountains in the district" />
		<tag k="name" v="Visethalla" />
		<tag k="natural" v="hill" />
		<tag k="place" v="locality" />
		<tag k="ssr:stedsnr" v="22193" />
	</node>
	<node lat="64.04679722136018" lon="11.364791659647825" id="-46301">
		<tag k="name" v="Lauvpynten" />
		<tag k="natural" v="hill" />
		<tag k="place" v="locality" />
		<tag k="ssr:stedsnr" v="22198" />
	</node>
	<node lat="64.06667499586291" lon="11.516086109710635" id="-46307">
		<tag k="fixme" v="consider natural=peak for the most distinct mountains in the district" />
		<tag k="name" v="Aspåsan" />
		<tag k="natural" v="hill" />
		<tag k="place" v="locality" />
		<tag k="ssr:stedsnr" v="22726" />
	</node>
	<node lat="64.1182638873078" lon="11.332649997661786" id="-46308">
		<tag k="fixme" v="consider natural=peak for the most distinct mountains in the district" />
		<tag k="name" v="Trøaåsen" />
		<tag k="natural" v="hill" />
		<tag k="place" v="locality" />
		<tag k="ssr:stedsnr" v="22785" />
	</node>
	<node lat="63.95811388759701" lon="11.406427774823465" id="-46315">
		<tag k="name" v="Håven" />
		<tag k="natural" v="hill" />
		<tag k="place" v="locality" />
		<tag k="ssr:stedsnr" v="22882" />
	</node>
	<node lat="63.89898333456348" lon="11.462661106969655" id="-46320">
		<tag k="name" v="Slipsteinsberget" />
		<tag k="natural" v="hill" />
		<tag k="place" v="locality" />
		<tag k="ssr:stedsnr" v="22942" />
	</node>
	<node lat="64.14043611446453" lon="11.4550944536552" id="-46323">
		<tag k="name" v="Bjørnadalen" />
		<tag k="natural" v="valley" />
		<tag k="place" v="locality" />
		<tag k="ssr:stedsnr" v="23638" />
	</node>
	<node lat="64.01102499924615" lon="11.780966674206228" id="-46328">
		<tag k="name" v="Talsenget" />
		<tag k="place" v="locality" />
		<tag k="ssr:stedsnr" v="28006" />
	</node>
	<node lat="63.964099999614625" lon="11.83349722012249" id="-46330">
		<tag k="fixme" v="consider natural=peak for the most distinct mountains in the district" />
		<tag k="name" v="Tolstadseteråsen" />
		<tag k="natural" v="hill" />
		<tag k="place" v="locality" />
		<tag k="ssr:stedsnr" v="28014" />
	</node>
	<node lat="64.1635861096624" lon="11.759611104347554" id="-46334">
		<tag k="name" v="Storbrunstaddalen" />
		<tag k="natural" v="valley" />
		<tag k="place" v="locality" />
		<tag k="ssr:stedsnr" v="28037" />
	</node>
	<node lat="64.15603888970034" lon="11.75053333321333" id="-46341">
		<tag k="name" v="Tjuvdalen" />
		<tag k="natural" v="valley" />
		<tag k="place" v="locality" />
		<tag k="ssr:stedsnr" v="28180" />
	</node>
	<node lat="64.15127778218657" lon="11.732733328891033" id="-46342">
		<tag k="name" v="Slåttdalen" />
		<tag k="natural" v="valley" />
		<tag k="place" v="locality" />
		<tag k="ssr:stedsnr" v="28186" />
	</node>
	<node lat="64.04959166891246" lon="11.68515000309182" id="-46347">
		<tag k="name" v="Fuglleikberget" />
		<tag k="natural" v="hill" />
		<tag k="place" v="locality" />
		<tag k="ssr:stedsnr" v="28276" />
	</node>
	<node lat="64.08293055524886" lon="11.619058323655329" id="-46350">
		<tag k="name" v="Buasvedalen" />
		<tag k="natural" v="valley" />
		<tag k="place" v="locality" />
		<tag k="ssr:stedsnr" v="28413" />
	</node>
	<node lat="63.98906389339496" lon="11.614366664435085" id="-46352">
		<tag k="name" v="Elseberget" />
		<tag k="natural" v="hill" />
		<tag k="place" v="locality" />
		<tag k="ssr:stedsnr" v="28501" />
	</node>
	<node lat="64.18875278146615" lon="11.776669437386465" id="-46356">
		<tag k="name" v="Stuhaugen" />
		<tag k="natural" v="hill" />
		<tag k="place" v="locality" />
		<tag k="ssr:stedsnr" v="28813" />
	</node>
	<node lat="64.1501916644505" lon="12.001780553161447" id="-46360">
		<tag k="name" v="Holmen" />
		<tag k="natural" v="hill" />
		<tag k="place" v="locality" />
		<tag k="ssr:stedsnr" v="28927" />
	</node>
	<node lat="64.03211111019635" lon="11.497463896576996" id="-46361">
		<tag k="fixme" v="consider natural=peak for the most distinct mountains in the district" />
		<tag k="name" v="Søråsen" />
		<tag k="natural" v="hill" />
		<tag k="place" v="locality" />
		<tag k="ssr:stedsnr" v="28929" />
	</node>
	<node lat="64.0421722231274" lon="11.202791671657444" id="-46364">
		<tag k="name" v="Merradalen" />
		<tag k="natural" v="valley" />
		<tag k="place" v="locality" />
		<tag k="ssr:stedsnr" v="28993" />
	</node>
	<node lat="63.88963610970248" lon="10.860822221067288" id="-46403">
		<tag k="name" v="Bakken" />
		<tag k="natural" v="slope" />
		<tag k="place" v="locality" />
		<tag k="ssr:stedsnr" v="44481" />
	</node>
	<node lat="63.98951111044464" lon="10.893997214783601" id="-46407">
		<tag k="fixme" v="consider natural=peak for the most distinct mountains in the district" />
		<tag k="name" v="Brennhalla" />
		<tag k="natural" v="hill" />
		<tag k="place" v="locality" />
		<tag k="ssr:stedsnr" v="47090" />
	</node>
	<node lat="64.00655000089118" lon="10.891916660178717" id="-46410">
		<tag k="name" v="Vargskaret" />
		<tag k="natural" v="valley" />
		<tag k="place" v="locality" />
		<tag k="ssr:stedsnr" v="47111" />
	</node>
	<node lat="64.0253527754309" lon="10.795174996135685" id="-46413">
		<tag k="name" v="Skamnaliin" />
		<tag k="natural" v="slope" />
		<tag k="place" v="locality" />
		<tag k="ssr:stedsnr" v="47175" />
	</node>
	<node lat="64.20011944629418" lon="11.428280559924117" id="-46416">
		<tag k="name" v="Nordengdalen" />
		<tag k="natural" v="valley" />
		<tag k="place" v="locality" />
		<tag k="ssr:stedsnr" v="47484" />
	</node>
	<node lat="64.04415277454353" lon="11.050494441796996" id="-46418">
		<tag k="name" v="Heienden" />
		<tag k="place" v="locality" />
		<tag k="ssr:stedsnr" v="48003" />
	</node>
	<node lat="63.98764444063131" lon="11.985827768460858" id="-46423">
		<tag k="name" v="Kubruberget" />
		<tag k="natural" v="hill" />
		<tag k="place" v="locality" />
		<tag k="ssr:stedsnr" v="48223" />
	</node>
	<node lat="63.96819722076764" lon="12.324161107535593" id="-46428">
		<tag k="name" v="Svartberget" />
		<tag k="natural" v="hill" />
		<tag k="place" v="locality" />
		<tag k="ssr:stedsnr" v="48622" />
	</node>
	<node lat="64.05688055952344" lon="11.865875004323188" id="-46433">
		<tag k="name" v="Skoganhalsen" />
		<tag k="natural" v="valley" />
		<tag k="place" v="locality" />
		<tag k="ssr:stedsnr" v="48977" />
	</node>
	<node lat="64.04806388928235" lon="11.510480559382753" id="-46464">
		<tag k="name" v="Steinsenget" />
		<tag k="natural" v="slope" />
		<tag k="place" v="locality" />
		<tag k="ssr:stedsnr" v="74007" />
	</node>
	<node lat="64.05291388982022" lon="11.499994435635418" id="-46465">
		<tag k="fixme" v="multiple name tags, choose one and add the other to alt_name; consider natural=peak for the most distinct mountains in the district" />
		<tag k="name" v="Andsteinen;Rungstadandsteinen" />
		<tag k="natural" v="hill" />
		<tag k="place" v="locality" />
		<tag k="ssr:stedsnr" v="74010" />
	</node>
	<node lat="63.89196944770743" lon="11.692955556901024" id="-46472">
		<tag k="alt_name" v="Østerdalen" />
		<tag k="name" v="Øysterdalen" />
		<tag k="natural" v="valley" />
		<tag k="place" v="locality" />
		<tag k="ssr:stedsnr" v="74069" />
	</node>
	<node lat="64.11561388656554" lon="11.071086101575055" id="-46481">
		<tag k="name" v="Mehaugen" />
		<tag k="natural" v="hill" />
		<tag k="place" v="locality" />
		<tag k="ssr:stedsnr" v="74506" />
	</node>
	<node lat="63.980561112102954" lon="11.026238885534028" id="-46483">
		<tag k="alt_name" v="Nævaheia" />
		<tag k="fixme" v="consider natural=peak for the most distinct mountains in the district" />
		<tag k="name" v="Nevaheia" />
		<tag k="natural" v="hill" />
		<tag k="place" v="locality" />
		<tag k="ssr:stedsnr" v="74565" />
	</node>
	<node lat="63.98298333377371" lon="10.91785832556367" id="-46485">
		<tag k="name" v="Middagsheia" />
		<tag k="natural" v="hill" />
		<tag k="place" v="locality" />
		<tag k="ssr:stedsnr" v="74570" />
	</node>
	<node lat="63.98052499607278" lon="10.899441657066962" id="-46486">
		<tag k="name" v="Holmlia" />
		<tag k="natural" v="slope" />
		<tag k="place" v="locality" />
		<tag k="ssr:stedsnr" v="74574" />
	</node>
	<node lat="64.1288972260617" lon="11.368863891812255" id="-46490">
		<tag k="name" v="Vellaskardet" />
		<tag k="natural" v="valley" />
		<tag k="place" v="locality" />
		<tag k="ssr:stedsnr" v="74764" />
	</node>
	<node lat="64.14491110970444" lon="11.661841656889719" id="-46491">
		<tag k="fixme" v="consider natural=peak for the most distinct mountains in the district" />
		<tag k="name" v="Høgåsen" />
		<tag k="natural" v="hill" />
		<tag k="place" v="locality" />
		<tag k="ssr:stedsnr" v="74771" />
	</node>
	<node lat="64.21417499889662" lon="11.482813887306445" id="-46495">
		<tag k="name" v="Langseterkjølen" />
		<tag k="natural" v="hill" />
		<tag k="place" v="locality" />
		<tag k="ssr:stedsnr" v="74912" />
	</node>
	<node lat="64.066411112526" lon="11.44223055957844" id="-46501">
		<tag k="name" v="Gulunghalla" />
		<tag k="natural" v="hill" />
		<tag k="place" v="locality" />
		<tag k="ssr:stedsnr" v="75023" />
	</node>
	<node lat="63.95448055212092" lon="12.13176666672239" id="-46507">
		<tag k="alt_name" v="Litlklompen" />
		<tag k="name" v="Litlklumpen" />
		<tag k="natural" v="hill" />
		<tag k="place" v="locality" />
		<tag k="ssr:stedsnr" v="75414" />
	</node>
	<node lat="63.95946666937673" lon="12.042725007620662" id="-46508">
		<tag k="fixme" v="consider natural=peak for the most distinct mountains in the district" />
		<tag k="name" v="Høgslættkollen" />
		<tag k="natural" v="hill" />
		<tag k="place" v="locality" />
		<tag k="ssr:stedsnr" v="75419" />
	</node>
	<node lat="64.0187888911563" lon="12.120855557120775" id="-46515">
		<tag k="name" v="Klyvberget" />
		<tag k="natural" v="hill" />
		<tag k="place" v="locality" />
		<tag k="ssr:stedsnr" v="75708" />
	</node>
	<node lat="64.01803055580429" lon="12.105944436348071" id="-46517">
		<tag k="name" v="Skjelstadhaugen" />
		<tag k="natural" v="hill" />
		<tag k="place" v="locality" />
		<tag k="ssr:stedsnr" v="75712" />
	</node>
	<node lat="64.1348027750895" lon="11.22261110677078" id="-46523">
		<tag k="alt_name" v="Løysingmunnhaugen" />
		<tag k="name" v="Løysmundhaugen" />
		<tag k="natural" v="hill" />
		<tag k="place" v="locality" />
		<tag k="ssr:stedsnr" v="75815" />
	</node>
	<node lat="64.05919999855506" lon="11.520336106081539" id="-46524">
		<tag k="name" v="Styggdalen" />
		<tag k="natural" v="valley" />
		<tag k="place" v="locality" />
		<tag k="ssr:stedsnr" v="82702" />
	</node>
	<node lat="64.0463333358846" lon="11.350447226953834" id="-46526">
		<tag k="name" v="Haugen" />
		<tag k="natural" v="hill" />
		<tag k="place" v="locality" />
		<tag k="ssr:stedsnr" v="83202" />
	</node>
	<node lat="64.08181389040337" lon="11.380380549848207" id="-46528">
		<tag k="name" v="Åsmyrhaugen" />
		<tag k="natural" v="hill" />
		<tag k="place" v="locality" />
		<tag k="ssr:stedsnr" v="83611" />
	</node>
	<node lat="64.12318333675343" lon="11.54747499499164" id="-46531">
		<tag k="fixme" v="consider natural=peak for the most distinct mountains in the district" />
		<tag k="name" v="Hoengåsen" />
		<tag k="natural" v="hill" />
		<tag k="place" v="locality" />
		<tag k="ssr:stedsnr" v="83688" />
	</node>
	<node lat="64.0647583330916" lon="11.552099995956377" id="-46535">
		<tag k="name" v="Svenningporten" />
		<tag k="natural" v="valley" />
		<tag k="place" v="locality" />
		<tag k="ssr:stedsnr" v="83736" />
	</node>
	<node lat="64.13215833168894" lon="11.341372219023253" id="-46536">
		<tag k="fixme" v="consider natural=peak for the most distinct mountains in the district" />
		<tag k="name" v="Stormyråsen" />
		<tag k="natural" v="hill" />
		<tag k="place" v="locality" />
		<tag k="ssr:stedsnr" v="83784" />
	</node>
	<node lat="64.05575278156986" lon="11.500080558768637" id="-46538">
		<tag k="name" v="Gordalen" />
		<tag k="natural" v="valley" />
		<tag k="place" v="locality" />
		<tag k="ssr:stedsnr" v="83936" />
	</node>
	<node lat="63.92130277757742" lon="11.436822215055948" id="-46540">
		<tag k="name" v="Måssåberget" />
		<tag k="natural" v="hill" />
		<tag k="place" v="locality" />
		<tag k="ssr:stedsnr" v="83996" />
	</node>
	<node lat="64.02737777971436" lon="11.806433334150132" id="-46544">
		<tag k="fixme" v="consider natural=peak for the most distinct mountains in the district" />
		<tag k="name" v="Varghevelen" />
		<tag k="natural" v="hill" />
		<tag k="place" v="locality" />
		<tag k="ssr:stedsnr" v="89006" />
	</node>
	<node lat="64.02526388672106" lon="11.892983327396088" id="-46548">
		<tag k="name" v="Rolandhaugen" />
		<tag k="natural" v="hill" />
		<tag k="place" v="locality" />
		<tag k="ssr:stedsnr" v="89072" />
	</node>
	<node lat="63.99242777819796" lon="11.646199999024898" id="-46550">
		<tag k="fixme" v="consider natural=peak for the most distinct mountains in the district" />
		<tag k="name" v="Kvitsteinåsen" />
		<tag k="natural" v="hill" />
		<tag k="place" v="locality" />
		<tag k="ssr:stedsnr" v="89412" />
	</node>
	<node lat="63.99108055743433" lon="11.548375002524661" id="-46551">
		<tag k="name" v="Sognan" />
		<tag k="place" v="locality" />
		<tag k="ssr:stedsnr" v="89510" />
	</node>
	<node lat="63.975844444101504" lon="11.596438890991697" id="-46555">
		<tag k="name" v="Mellomberga" />
		<tag k="natural" v="hill" />
		<tag k="place" v="locality" />
		<tag k="ssr:stedsnr" v="89873" />
	</node>
	<node lat="64.17350555203902" lon="11.79938333314194" id="-46556">
		<tag k="name" v="Dalebakken" />
		<tag k="place" v="locality" />
		<tag k="ssr:stedsnr" v="89878" />
	</node>
	<node lat="64.01783611015519" lon="11.520366669248117" id="-46558">
		<tag k="name" v="Reina" />
		<tag k="place" v="locality" />
		<tag k="ssr:stedsnr" v="89887" />
	</node>
	<node lat="64.07194444792208" lon="11.17753889160788" id="-46563">
		<tag k="name" v="Aunkammen" />
		<tag k="natural" v="hill" />
		<tag k="place" v="locality" />
		<tag k="ssr:stedsnr" v="89980" />
	</node>
	<node lat="64.19322777351641" lon="11.60900556141881" id="-46565">
		<tag k="name" v="Saursaundalen" />
		<tag k="natural" v="valley" />
		<tag k="place" v="locality" />
		<tag k="ssr:stedsnr" v="101520" />
	</node>
	<node lat="64.07075833627933" lon="11.115491659358613" id="-46573">
		<tag k="name" v="Seterlidalen" />
		<tag k="natural" v="valley" />
		<tag k="place" v="locality" />
		<tag k="ssr:stedsnr" v="107714" />
	</node>
	<node lat="63.99039999641434" lon="10.869405545172098" id="-46574">
		<tag k="name" v="Nyfjellkammen" />
		<tag k="natural" v="ridge" />
		<tag k="place" v="locality" />
		<tag k="ssr:stedsnr" v="108110" />
	</node>
	<node lat="63.797002780833594" lon="10.488224992089734" id="-46580">
		<tag k="name" v="Jetringstjønnheia" />
		<tag k="natural" v="hill" />
		<tag k="place" v="locality" />
		<tag k="ssr:stedsnr" v="108221" />
	</node>
	<node lat="64.20814722292735" lon="11.715427770418783" id="-46590">
		<tag k="fixme" v="consider natural=peak for the most distinct mountains in the district" />
		<tag k="name" v="Telemarkhalla" />
		<tag k="natural" v="hill" />
		<tag k="place" v="locality" />
		<tag k="ssr:stedsnr" v="109209" />
	</node>
	<node lat="63.95509444548413" lon="11.842272216969803" id="-46597">
		<tag k="fixme" v="consider natural=peak for the most distinct mountains in the district" />
		<tag k="name" v="Holmåsen" />
		<tag k="natural" v="hill" />
		<tag k="place" v="locality" />
		<tag k="ssr:stedsnr" v="109519" />
	</node>
	<node lat="64.07012222669125" lon="11.770686101598244" id="-46606">
		<tag k="name" v="Grøndalen" />
		<tag k="natural" v="valley" />
		<tag k="place" v="locality" />
		<tag k="ssr:stedsnr" v="109970" />
	</node>
	<node lat="64.05577222492643" lon="11.402972225637162" id="-46635">
		<tag k="fixme" v="consider natural=peak for the most distinct mountains in the district" />
		<tag k="name" v="Storvarden" />
		<tag k="natural" v="hill" />
		<tag k="place" v="locality" />
		<tag k="ssr:stedsnr" v="134003" />
	</node>
	<node lat="63.96583610715369" lon="11.741399998464289" id="-46643">
		<tag k="fixme" v="consider natural=peak for the most distinct mountains in the district" />
		<tag k="name" v="Svartåsen" />
		<tag k="natural" v="hill" />
		<tag k="place" v="locality" />
		<tag k="ssr:stedsnr" v="134813" />
	</node>
	<node lat="64.09357778047294" lon="11.806438889208772" id="-46659">
		<tag k="alt_name" v="Bærmyrhalla" />
		<tag k="fixme" v="consider natural=peak for the most distinct mountains in the district" />
		<tag k="name" v="Bermyrhalla" />
		<tag k="natural" v="hill" />
		<tag k="place" v="locality" />
		<tag k="ssr:stedsnr" v="135339" />
	</node>
	<node lat="64.08301944653097" lon="11.574283335849717" id="-46661">
		<tag k="name" v="Merradalen" />
		<tag k="natural" v="valley" />
		<tag k="place" v="locality" />
		<tag k="ssr:stedsnr" v="135220" />
	</node>
	<node lat="63.79056944318844" lon="10.47083611804709" id="-46668">
		<tag k="fixme" v="consider natural=peak for the most distinct mountains in the district" />
		<tag k="name" v="Gjetringsheia" />
		<tag k="natural" v="hill" />
		<tag k="place" v="locality" />
		<tag k="ssr:stedsnr" v="135411" />
	</node>
	<node lat="63.98521388455581" lon="11.95330832870682" id="-46669">
		<tag k="name" v="Sørmoen" />
		<tag k="place" v="locality" />
		<tag k="ssr:stedsnr" v="135412" />
	</node>
	<node lat="63.97019999816405" lon="10.785663895386655" id="-46672">
		<tag k="fixme" v="consider natural=peak for the most distinct mountains in the district" />
		<tag k="name" v="Simadalsheia" />
		<tag k="natural" v="hill" />
		<tag k="place" v="locality" />
		<tag k="ssr:stedsnr" v="135561" />
	</node>
	<node lat="63.97741944763438" lon="10.973430551929342" id="-46673">
		<tag k="fixme" v="consider natural=peak for the most distinct mountains in the district" />
		<tag k="name" v="Halsheia" />
		<tag k="natural" v="hill" />
		<tag k="place" v="locality" />
		<tag k="ssr:stedsnr" v="135568" />
	</node>
	<node lat="63.863891663683866" lon="10.738352774096187" id="-46675">
		<tag k="alt_name" v="Fagerviklia" />
		<tag k="name" v="Stor-reset" />
		<tag k="natural" v="slope" />
		<tag k="place" v="locality" />
		<tag k="ssr:stedsnr" v="135721" />
	</node>
	<node lat="64.1141888857118" lon="11.161230550687817" id="-46678">
		<tag k="alt_name" v="Sjurliin" />
		<tag k="name" v="Sjurlia" />
		<tag k="natural" v="slope" />
		<tag k="place" v="locality" />
		<tag k="ssr:stedsnr" v="135604" />
	</node>
	<node lat="64.1925138932612" lon="11.395597225754685" id="-46683">
		<tag k="name" v="Blåberget" />
		<tag k="natural" v="hill" />
		<tag k="place" v="locality" />
		<tag k="ssr:stedsnr" v="135801" />
	</node>
	<node lat="64.02565277994638" lon="10.932088879511074" id="-46687">
		<tag k="name" v="Jordfallet" />
		<tag k="natural" v="slope" />
		<tag k="place" v="locality" />
		<tag k="ssr:stedsnr" v="135989" />
	</node>
	<node lat="64.08868055601151" lon="11.550086109371595" id="-46692">
		<tag k="fixme" v="consider natural=peak for the most distinct mountains in the district" />
		<tag k="name" v="Svartåsen" />
		<tag k="natural" v="hill" />
		<tag k="place" v="locality" />
		<tag k="ssr:stedsnr" v="143635" />
	</node>
	<node lat="63.87331111258965" lon="11.515522220194166" id="-46695">
		<tag k="fixme" v="consider natural=peak for the most distinct mountains in the district" />
		<tag k="name" v="Tøllbergåsen" />
		<tag k="natural" v="hill" />
		<tag k="place" v="locality" />
		<tag k="ssr:stedsnr" v="143522" />
	</node>
	<node lat="64.0333777735569" lon="11.414222228043396" id="-46697">
		<tag k="fixme" v="consider natural=peak for the most distinct mountains in the district" />
		<tag k="name" v="Brannåsen" />
		<tag k="natural" v="hill" />
		<tag k="place" v="locality" />
		<tag k="ssr:stedsnr" v="143579" />
	</node>
	<node lat="64.04523055646054" lon="11.416219443383172" id="-46698">
		<tag k="fixme" v="consider natural=peak for the most distinct mountains in the district" />
		<tag k="name" v="Hosethalla" />
		<tag k="natural" v="hill" />
		<tag k="place" v="locality" />
		<tag k="ssr:stedsnr" v="143582" />
	</node>
	<node lat="64.09415277647958" lon="11.541488889462535" id="-46699">
		<tag k="fixme" v="consider natural=peak for the most distinct mountains in the district" />
		<tag k="name" v="Åshalla" />
		<tag k="natural" v="hill" />
		<tag k="place" v="locality" />
		<tag k="ssr:stedsnr" v="143706" />
	</node>
	<node lat="63.94567222505459" lon="11.377405559220641" id="-46708">
		<tag k="name" v="Kattberget" />
		<tag k="natural" v="hill" />
		<tag k="place" v="locality" />
		<tag k="ssr:stedsnr" v="143885" />
	</node>
	<node lat="64.09678611469211" lon="11.311805558107746" id="-46711">
		<tag k="fixme" v="consider natural=peak for the most distinct mountains in the district" />
		<tag k="name" v="Tjukkåsen" />
		<tag k="natural" v="hill" />
		<tag k="place" v="locality" />
		<tag k="ssr:stedsnr" v="143792" />
	</node>
	<node lat="64.11643610815557" lon="11.343783339665013" id="-46712">
		<tag k="name" v="Furuberget" />
		<tag k="natural" v="hill" />
		<tag k="place" v="locality" />
		<tag k="ssr:stedsnr" v="143794" />
	</node>
	<node lat="63.926822217757014" lon="11.440966676432126" id="-46716">
		<tag k="name" v="Furuberget" />
		<tag k="natural" v="hill" />
		<tag k="place" v="locality" />
		<tag k="ssr:stedsnr" v="143980" />
	</node>
	<node lat="64.04378333335362" lon="11.370816666658207" id="-46719">
		<tag k="name" v="Hammarhalla" />
		<tag k="natural" v="hill" />
		<tag k="place" v="locality" />
		<tag k="ssr:stedsnr" v="256028" />
	</node>
	<node lat="64.17316110751794" lon="11.766538889025382" id="-46727">
		<tag k="name" v="Stordalen" />
		<tag k="natural" v="valley" />
		<tag k="place" v="locality" />
		<tag k="ssr:stedsnr" v="149105" />
	</node>
	<node lat="64.14674444454285" lon="11.72290832926547" id="-46732">
		<tag k="name" v="Kvernhusdalen" />
		<tag k="natural" v="valley" />
		<tag k="place" v="locality" />
		<tag k="ssr:stedsnr" v="149161" />
	</node>
	<node lat="64.0819916667938" lon="11.581472212140325" id="-46741">
		<tag k="fixme" v="consider natural=peak for the most distinct mountains in the district" />
		<tag k="name" v="Midteråsen" />
		<tag k="natural" v="hill" />
		<tag k="place" v="locality" />
		<tag k="ssr:stedsnr" v="149403" />
	</node>
	<node lat="64.15427222089315" lon="11.622875007821904" id="-46743">
		<tag k="name" v="Ilkleiva" />
		<tag k="natural" v="valley" />
		<tag k="place" v="locality" />
		<tag k="ssr:stedsnr" v="149411" />
	</node>
	<node lat="64.1602666706953" lon="11.748997215400593" id="-46744">
		<tag k="name" v="Stokkgjøthøgda" />
		<tag k="natural" v="hill" />
		<tag k="place" v="locality" />
		<tag k="ssr:stedsnr" v="256291" />
	</node>
	<node lat="63.99311862627664" lon="12.133577773124603" id="-46746">
		<tag k="name" v="Litlfjordhalla" />
		<tag k="natural" v="slope" />
		<tag k="place" v="locality" />
		<tag k="ssr:stedsnr" v="256372" />
	</node>
	<node lat="64.03785000203011" lon="11.45377778213474" id="-46751">
		<tag k="name" v="Hattfurruberget" />
		<tag k="natural" v="hill" />
		<tag k="place" v="locality" />
		<tag k="ssr:stedsnr" v="149913" />
	</node>
	<node lat="64.17274166963605" lon="11.759741664815072" id="-46764">
		<tag k="fixme" v="consider natural=peak for the most distinct mountains in the district" />
		<tag k="name" v="Storåsen" />
		<tag k="natural" v="hill" />
		<tag k="place" v="locality" />
		<tag k="ssr:stedsnr" v="256426" />
	</node>
	<node lat="63.82005277406636" lon="10.614641675135527" id="-46768">
		<tag k="fixme" v="consider natural=peak for the most distinct mountains in the district" />
		<tag k="name" v="Raudtindkammen" />
		<tag k="natural" v="hill" />
		<tag k="place" v="locality" />
		<tag k="ssr:stedsnr" v="256454" />
	</node>
	<node lat="64.0852138909363" lon="11.888549990475957" id="-46771">
		<tag k="fixme" v="consider natural=peak for the most distinct mountains in the district" />
		<tag k="name" v="Kjerringåsen" />
		<tag k="natural" v="hill" />
		<tag k="place" v="locality" />
		<tag k="ssr:stedsnr" v="256332" />
	</node>
	<node lat="64.0992944436204" lon="11.933130563840857" id="-46772">
		<tag k="name" v="Tiurdalen" />
		<tag k="natural" v="valley" />
		<tag k="place" v="locality" />
		<tag k="ssr:stedsnr" v="256337" />
	</node>
	<node lat="64.09792777782742" lon="11.740086108295353" id="-46773">
		<tag k="fixme" v="consider natural=peak for the most distinct mountains in the district" />
		<tag k="name" v="Persgardshalla" />
		<tag k="natural" v="hill" />
		<tag k="place" v="locality" />
		<tag k="ssr:stedsnr" v="256339" />
	</node>
	<node lat="64.09449444796914" lon="11.024816657504307" id="-46774">
		<tag k="fixme" v="consider natural=peak for the most distinct mountains in the district" />
		<tag k="name" v="Olheia" />
		<tag k="natural" v="hill" />
		<tag k="place" v="locality" />
		<tag k="ssr:stedsnr" v="256494" />
	</node>
	<node lat="64.13429444630127" lon="11.125952773561316" id="-46775">
		<tag k="fixme" v="consider natural=peak for the most distinct mountains in the district" />
		<tag k="name" v="Ferjheia" />
		<tag k="natural" v="hill" />
		<tag k="place" v="locality" />
		<tag k="ssr:stedsnr" v="256583" />
	</node>
	<node lat="63.98565555259701" lon="10.998644434668979" id="-46779">
		<tag k="fixme" v="consider natural=peak for the most distinct mountains in the district" />
		<tag k="name" v="Stamliheia" />
		<tag k="natural" v="hill" />
		<tag k="place" v="locality" />
		<tag k="ssr:stedsnr" v="256538" />
	</node>
	<node lat="63.98838889296878" lon="11.05318056366136" id="-46780">
		<tag k="fixme" v="consider natural=peak for the most distinct mountains in the district" />
		<tag k="name" v="Follahøgda" />
		<tag k="natural" v="hill" />
		<tag k="place" v="locality" />
		<tag k="ssr:stedsnr" v="256548" />
	</node>
	<node lat="63.955055555695324" lon="10.9016555621403" id="-46789">
		<tag k="name" v="Kuliin" />
		<tag k="natural" v="slope" />
		<tag k="place" v="locality" />
		<tag k="ssr:stedsnr" v="256595" />
	</node>
	<node lat="63.95692499773704" lon="11.001336105267072" id="-46790">
		<tag k="name" v="Brennlihaugen" />
		<tag k="natural" v="hill" />
		<tag k="place" v="locality" />
		<tag k="ssr:stedsnr" v="256601" />
	</node>
	<node lat="63.95271944369077" lon="12.346502770277262" id="-46794">
		<tag k="name" v="Vakkerdalen" />
		<tag k="natural" v="valley" />
		<tag k="place" v="locality" />
		<tag k="ssr:stedsnr" v="256677" />
	</node>
	<node lat="63.96333610981841" lon="11.42851666288426" id="-46797">
		<tag k="fixme" v="consider natural=peak for the most distinct mountains in the district" />
		<tag k="name" v="Vistavåttån" />
		<tag k="natural" v="hill" />
		<tag k="place" v="locality" />
		<tag k="ssr:stedsnr" v="256852" />
	</node>
	<node lat="63.94351388621779" lon="11.485494453699491" id="-46800">
		<tag k="alt_name" v="Heistadberga" />
		<tag k="name" v="Heistadberget" />
		<tag k="natural" v="hill" />
		<tag k="place" v="locality" />
		<tag k="ssr:stedsnr" v="256922" />
	</node>
	<node lat="64.04100833732313" lon="10.827650005676809" id="-46807">
		<tag k="alt_name" v="Svartklompen" />
		<tag k="name" v="Svartklumpen" />
		<tag k="natural" v="hill" />
		<tag k="place" v="locality" />
		<tag k="ssr:stedsnr" v="256942" />
	</node>
	<node lat="64.01926111377409" lon="11.142699997536383" id="-46809">
		<tag k="fixme" v="consider natural=peak for the most distinct mountains in the district" />
		<tag k="name" v="Tømseåsen" />
		<tag k="natural" v="hill" />
		<tag k="place" v="locality" />
		<tag k="ssr:stedsnr" v="256984" />
	</node>
	<node lat="64.10291666933034" lon="11.223738881186508" id="-46815">
		<tag k="name" v="Dalsveet" />
		<tag k="natural" v="slope" />
		<tag k="place" v="locality" />
		<tag k="ssr:stedsnr" v="257148" />
	</node>
	<node lat="63.965483331135125" lon="11.955866669339311" id="-46821">
		<tag k="alt_name" v="Storbrattskåren" />
		<tag k="name" v="Brattskåren" />
		<tag k="natural" v="slope" />
		<tag k="place" v="locality" />
		<tag k="ssr:stedsnr" v="257433" />
	</node>
	<node lat="64.0063638928763" lon="11.571505551827178" id="-46823">
		<tag k="name" v="Hornemannshølen" />
		<tag k="natural" v="valley" />
		<tag k="place" v="locality" />
		<tag k="ssr:stedsnr" v="257486" />
	</node>
	<node lat="63.92878055768077" lon="11.862708325449802" id="-46826">
		<tag k="name" v="Tjønnhaugan" />
		<tag k="natural" v="hill" />
		<tag k="place" v="locality" />
		<tag k="ssr:stedsnr" v="257545" />
	</node>
	<node lat="63.974819444249356" lon="11.587208335125386" id="-46833">
		<tag k="fixme" v="consider natural=peak for the most distinct mountains in the district" />
		<tag k="name" v="Flatåsen" />
		<tag k="natural" v="hill" />
		<tag k="place" v="locality" />
		<tag k="ssr:stedsnr" v="257975" />
	</node>
	<node lat="64.03519166904742" lon="11.076049999158212" id="-46841">
		<tag k="name" v="Furuhevlan" />
		<tag k="natural" v="hill" />
		<tag k="place" v="locality" />
		<tag k="ssr:stedsnr" v="169004" />
	</node>
	<node lat="64.0155388886615" lon="10.90499722360892" id="-46842">
		<tag k="name" v="Jovassnakken" />
		<tag k="natural" v="hill" />
		<tag k="place" v="locality" />
		<tag k="ssr:stedsnr" v="169064" />
	</node>
	<node lat="64.01925833683346" lon="10.829413895327669" id="-46845">
		<tag k="fixme" v="consider natural=peak for the most distinct mountains in the district" />
		<tag k="name" v="Vakkerslettåsen" />
		<tag k="natural" v="hill" />
		<tag k="place" v="locality" />
		<tag k="ssr:stedsnr" v="169159" />
	</node>
	<node lat="64.17133889052934" lon="11.613938899117096" id="-46846">
		<tag k="fixme" v="consider natural=peak for the most distinct mountains in the district" />
		<tag k="name" v="Leidalshalla" />
		<tag k="natural" v="hill" />
		<tag k="place" v="locality" />
		<tag k="ssr:stedsnr" v="169160" />
	</node>
	<node lat="64.16737777573444" lon="11.604497231742936" id="-46847">
		<tag k="name" v="Stuhaugen" />
		<tag k="natural" v="valley" />
		<tag k="place" v="locality" />
		<tag k="ssr:stedsnr" v="169161" />
	</node>
	<node lat="64.03053055419153" lon="10.804272222915538" id="-46848">
		<tag k="name" v="Midtvassdalen" />
		<tag k="natural" v="valley" />
		<tag k="place" v="locality" />
		<tag k="ssr:stedsnr" v="169163" />
	</node>
	<node lat="64.16958610755843" lon="11.581744436176885" id="-46849">
		<tag k="name" v="Storbudalen" />
		<tag k="natural" v="valley" />
		<tag k="place" v="locality" />
		<tag k="ssr:stedsnr" v="169167" />
	</node>
	<node lat="64.15179167041411" lon="11.436011103820904" id="-46853">
		<tag k="name" v="Aunhaugen" />
		<tag k="natural" v="hill" />
		<tag k="place" v="locality" />
		<tag k="ssr:stedsnr" v="169512" />
	</node>
	<node lat="64.14183611421228" lon="11.39403332652259" id="-46855">
		<tag k="fixme" v="consider natural=peak for the most distinct mountains in the district" />
		<tag k="name" v="Kringelåsen" />
		<tag k="natural" v="hill" />
		<tag k="place" v="locality" />
		<tag k="ssr:stedsnr" v="169516" />
	</node>
	<node lat="63.99523055140064" lon="11.951269441207083" id="-46860">
		<tag k="name" v="Hyllan" />
		<tag k="place" v="locality" />
		<tag k="ssr:stedsnr" v="169917" />
	</node>
	<node lat="64.18691944006929" lon="11.710263897184003" id="-46861">
		<tag k="fixme" v="consider natural=peak for the most distinct mountains in the district" />
		<tag k="name" v="Langenghalla" />
		<tag k="natural" v="hill" />
		<tag k="place" v="locality" />
		<tag k="ssr:stedsnr" v="170266" />
	</node>
	<node lat="63.96762500405429" lon="11.764236115746057" id="-46864">
		<tag k="name" v="Bakkhaugen" />
		<tag k="natural" v="hill" />
		<tag k="place" v="locality" />
		<tag k="ssr:stedsnr" v="170610" />
	</node>
	<node lat="63.909330553896346" lon="11.7283750098483" id="-46865">
		<tag k="name" v="Hosethaugen" />
		<tag k="natural" v="hill" />
		<tag k="place" v="locality" />
		<tag k="ssr:stedsnr" v="170571" />
	</node>
	<node lat="63.96397777472502" lon="12.110413882083073" id="-46867">
		<tag k="fixme" v="consider natural=peak for the most distinct mountains in the district" />
		<tag k="name" v="Svartåsen" />
		<tag k="natural" v="hill" />
		<tag k="place" v="locality" />
		<tag k="ssr:stedsnr" v="170719" />
	</node>
	<node lat="64.09286944665732" lon="11.290030550329138" id="-46895">
		<tag k="fixme" v="consider natural=peak for the most distinct mountains in the district" />
		<tag k="name" v="Brennhalla" />
		<tag k="natural" v="hill" />
		<tag k="place" v="locality" />
		<tag k="ssr:stedsnr" v="265858" />
	</node>
	<node lat="64.07354722205041" lon="11.358280555563878" id="-46896">
		<tag k="fixme" v="consider natural=peak for the most distinct mountains in the district" />
		<tag k="name" v="Vakkeråsen" />
		<tag k="natural" v="hill" />
		<tag k="place" v="locality" />
		<tag k="ssr:stedsnr" v="265868" />
	</node>
	<node lat="64.10667778084076" lon="11.302072222162883" id="-46901">
		<tag k="name" v="Brennberget" />
		<tag k="natural" v="hill" />
		<tag k="place" v="locality" />
		<tag k="ssr:stedsnr" v="265212" />
	</node>
	<node lat="64.10011666569925" lon="11.260327779356842" id="-46902">
		<tag k="name" v="Aunberga" />
		<tag k="natural" v="hill" />
		<tag k="place" v="locality" />
		<tag k="ssr:stedsnr" v="265214" />
	</node>
	<node lat="64.07799721864396" lon="11.440497219784657" id="-46906">
		<tag k="fixme" v="consider natural=peak for the most distinct mountains in the district" />
		<tag k="name" v="Sørfjellet" />
		<tag k="natural" v="hill" />
		<tag k="place" v="locality" />
		<tag k="ssr:stedsnr" v="265630" />
	</node>
	<node lat="64.0922083370819" lon="11.562852774342844" id="-46909">
		<tag k="name" v="Middagssveet" />
		<tag k="place" v="locality" />
		<tag k="ssr:stedsnr" v="265656" />
	</node>
	<node lat="64.15013610787429" lon="11.532602779547885" id="-46912">
		<tag k="fixme" v="consider natural=peak for the most distinct mountains in the district" />
		<tag k="name" v="Bakkaberga" />
		<tag k="natural" v="hill" />
		<tag k="place" v="locality" />
		<tag k="ssr:stedsnr" v="265671" />
	</node>
	<node lat="63.89961111503911" lon="10.869433342685527" id="-46918">
		<tag k="fixme" v="consider natural=peak for the most distinct mountains in the district" />
		<tag k="name" v="Raudmyrheia" />
		<tag k="natural" v="hill" />
		<tag k="place" v="locality" />
		<tag k="ssr:stedsnr" v="195534" />
	</node>
	<node lat="63.90067500444045" lon="10.746600002814054" id="-46919">
		<tag k="loc_name" v="Bjønnadalen" />
		<tag k="name" v="Sør-Bjørnådalen" />
		<tag k="natural" v="valley" />
		<tag k="place" v="locality" />
		<tag k="ssr:stedsnr" v="195537" />
	</node>
	<node lat="63.987767134436766" lon="12.225630294548305" id="-46921">
		<tag k="fixme" v="multiple name tags, choose one and add the other to alt_name" />
		<tag k="name" v="Styggdalen;Elvdalen" />
		<tag k="natural" v="valley" />
		<tag k="place" v="locality" />
		<tag k="ssr:stedsnr" v="195681" />
	</node>
	<node lat="63.93812777527971" lon="11.458644439369134" id="-46924">
		<tag k="fixme" v="consider natural=peak for the most distinct mountains in the district" />
		<tag k="name" v="Leinskammen" />
		<tag k="natural" v="hill" />
		<tag k="place" v="locality" />
		<tag k="ssr:stedsnr" v="196032" />
	</node>
	<node lat="63.90505833302899" lon="11.744613894801956" id="-46943">
		<tag k="fixme" v="consider natural=peak for the most distinct mountains in the district" />
		<tag k="name" v="Blååsen" />
		<tag k="natural" v="hill" />
		<tag k="place" v="locality" />
		<tag k="ssr:stedsnr" v="196403" />
	</node>
	<node lat="64.09138055627359" lon="11.958430561074444" id="-46946">
		<tag k="name" v="Hestheia" />
		<tag k="natural" v="hill" />
		<tag k="place" v="locality" />
		<tag k="ssr:stedsnr" v="196307" />
	</node>
	<node lat="64.24037500295786" lon="11.927608337973494" id="-46948">
		<tag k="fixme" v="consider natural=peak for the most distinct mountains in the district" />
		<tag k="name" v="Saursheia" />
		<tag k="natural" v="hill" />
		<tag k="place" v="locality" />
		<tag k="ssr:stedsnr" v="196377" />
	</node>
	<node lat="63.8826194455061" lon="10.744847219812895" id="-46951">
		<tag k="name" v="Lauvlia" />
		<tag k="natural" v="slope" />
		<tag k="place" v="locality" />
		<tag k="ssr:stedsnr" v="196804" />
	</node>
	<node lat="64.19569444411005" lon="11.66218610742213" id="-46953">
		<tag k="fixme" v="consider natural=peak for the most distinct mountains in the district" />
		<tag k="name" v="Åssverossåsen" />
		<tag k="natural" v="hill" />
		<tag k="place" v="locality" />
		<tag k="ssr:stedsnr" v="196833" />
	</node>
	<node lat="63.954952774468836" lon="10.925108328184988" id="-46956">
		<tag k="name" v="Vakkerdalen" />
		<tag k="natural" v="valley" />
		<tag k="place" v="locality" />
		<tag k="ssr:stedsnr" v="196571" />
	</node>
	<node lat="63.95681666442359" lon="10.76592222105754" id="-46958">
		<tag k="name" v="Ulvasshaugen" />
		<tag k="natural" v="hill" />
		<tag k="place" v="locality" />
		<tag k="ssr:stedsnr" v="196576" />
	</node>
	<node lat="63.95621111290031" lon="11.400144450938011" id="-46964">
		<tag k="fixme" v="consider natural=peak for the most distinct mountains in the district" />
		<tag k="name" v="Bukkberget" />
		<tag k="natural" v="hill" />
		<tag k="place" v="locality" />
		<tag k="ssr:stedsnr" v="196902" />
	</node>
	<node lat="64.05280277861486" lon="11.023555554142424" id="-46967">
		<tag k="name" v="Gauklia" />
		<tag k="natural" v="slope" />
		<tag k="place" v="locality" />
		<tag k="ssr:stedsnr" v="196960" />
	</node>
	<node lat="64.00989166986587" lon="11.057994451909051" id="-46969">
		<tag k="fixme" v="consider natural=peak for the most distinct mountains in the district" />
		<tag k="name" v="Nordliheia" />
		<tag k="natural" v="hill" />
		<tag k="place" v="locality" />
		<tag k="ssr:stedsnr" v="196967" />
	</node>
	<node lat="64.15817777565387" lon="11.500886105679033" id="-46972">
		<tag k="name" v="Melhusheia" />
		<tag k="natural" v="hill" />
		<tag k="place" v="locality" />
		<tag k="ssr:stedsnr" v="266590" />
	</node>
	<node lat="64.06928888830694" lon="11.12534443427172" id="-46974">
		<tag k="fixme" v="consider natural=peak for the most distinct mountains in the district" />
		<tag k="name" v="Seterlikammen" />
		<tag k="natural" v="hill" />
		<tag k="old_name" v="Grønlikammen" />
		<tag k="place" v="locality" />
		<tag k="ssr:stedsnr" v="203016" />
	</node>
	<node lat="64.11530555487266" lon="11.243819453671504" id="-46976">
		<tag k="fixme" v="consider natural=peak for the most distinct mountains in the district" />
		<tag k="name" v="Storfuruåsen" />
		<tag k="natural" v="hill" />
		<tag k="place" v="locality" />
		<tag k="ssr:stedsnr" v="204143" />
	</node>
	<node lat="64.11203888647722" lon="11.277719445063665" id="-46977">
		<tag k="fixme" v="consider natural=peak for the most distinct mountains in the district" />
		<tag k="name" v="Nordhalla" />
		<tag k="natural" v="hill" />
		<tag k="place" v="locality" />
		<tag k="ssr:stedsnr" v="204151" />
	</node>
	<node lat="64.04946388727683" lon="11.399602781194817" id="-46981">
		<tag k="name" v="Tessemkleiva" />
		<tag k="place" v="locality" />
		<tag k="ssr:stedsnr" v="204547" />
	</node>
	<node lat="64.12607500198473" lon="11.46676667587881" id="-46982">
		<tag k="fixme" v="consider natural=peak for the most distinct mountains in the district" />
		<tag k="name" v="Øysteråsen" />
		<tag k="natural" v="hill" />
		<tag k="place" v="locality" />
		<tag k="ssr:stedsnr" v="204434" />
	</node>
	<node lat="64.12890555592499" lon="11.399338879331816" id="-46984">
		<tag k="name" v="Gullhaugen" />
		<tag k="natural" v="hill" />
		<tag k="place" v="locality" />
		<tag k="ssr:stedsnr" v="204443" />
	</node>
	<node lat="64.14571111381899" lon="11.54582778175196" id="-46986">
		<tag k="fixme" v="consider natural=peak for the most distinct mountains in the district" />
		<tag k="name" v="Hatlinghusåsan" />
		<tag k="natural" v="hill" />
		<tag k="place" v="locality" />
		<tag k="ssr:stedsnr" v="204594" />
	</node>
	<node lat="64.0684694485319" lon="11.415447225441493" id="-46987">
		<tag k="name" v="Svarttjønnhaugan" />
		<tag k="natural" v="hill" />
		<tag k="place" v="locality" />
		<tag k="ssr:stedsnr" v="204908" />
	</node>
	<node lat="64.09423055356713" lon="11.299622225599283" id="-46991">
		<tag k="name" v="Langmyrhøgda" />
		<tag k="natural" v="hill" />
		<tag k="place" v="locality" />
		<tag k="ssr:stedsnr" v="204807" />
	</node>
	<node lat="64.08648055840864" lon="11.269805562435401" id="-46992">
		<tag k="name" v="Bråttåhalla" />
		<tag k="natural" v="slope" />
		<tag k="place" v="locality" />
		<tag k="ssr:stedsnr" v="204818" />
	</node>
	<node lat="64.08414722579325" lon="11.284338883398467" id="-46993">
		<tag k="name" v="Vedaberget" />
		<tag k="natural" v="hill" />
		<tag k="place" v="locality" />
		<tag k="ssr:stedsnr" v="204824" />
	</node>
	<node lat="64.01696111457132" lon="11.805924996837001" id="-46997">
		<tag k="name" v="Rådesholmen" />
		<tag k="place" v="locality" />
		<tag k="ssr:stedsnr" v="210002" />
	</node>
	<node lat="64.15822777939056" lon="11.71885555479824" id="-46998">
		<tag k="fixme" v="consider natural=peak for the most distinct mountains in the district" />
		<tag k="name" v="Oksmyråsen" />
		<tag k="natural" v="hill" />
		<tag k="place" v="locality" />
		<tag k="ssr:stedsnr" v="210024" />
	</node>
	<node lat="64.17717500188135" lon="11.730374998351758" id="-47001">
		<tag k="fixme" v="consider natural=peak for the most distinct mountains in the district" />
		<tag k="name" v="Dalhatten" />
		<tag k="natural" v="hill" />
		<tag k="place" v="locality" />
		<tag k="ssr:stedsnr" v="210112" />
	</node>
	<node lat="64.1765111097023" lon="11.722852774467194" id="-47002">
		<tag k="name" v="Vesterfjellhola" />
		<tag k="place" v="locality" />
		<tag k="ssr:stedsnr" v="210113" />
	</node>
	<node lat="64.00714166475467" lon="11.100022230861764" id="-47004">
		<tag k="name" v="Ner-Almlia" />
		<tag k="natural" v="slope" />
		<tag k="place" v="locality" />
		<tag k="ssr:stedsnr" v="210126" />
	</node>
	<node lat="64.09606666562173" lon="11.70969999017327" id="-47006">
		<tag k="name" v="Litlbindesberget" />
		<tag k="natural" v="hill" />
		<tag k="place" v="locality" />
		<tag k="ssr:stedsnr" v="210140" />
	</node>
	<node lat="64.06160555836937" lon="11.664244447263847" id="-47010">
		<tag k="name" v="Tvestadberga" />
		<tag k="natural" v="hill" />
		<tag k="place" v="locality" />
		<tag k="ssr:stedsnr" v="210320" />
	</node>
	<node lat="63.91537777391162" lon="11.648302772661529" id="-47011">
		<tag k="fixme" v="consider natural=peak for the most distinct mountains in the district" />
		<tag k="name" v="Seteråsen" />
		<tag k="natural" v="hill" />
		<tag k="place" v="locality" />
		<tag k="ssr:stedsnr" v="210375" />
	</node>
	<node lat="63.95121666702893" lon="11.67011944965643" id="-47012">
		<tag k="fixme" v="consider natural=peak for the most distinct mountains in the district" />
		<tag k="name" v="Langåsen" />
		<tag k="natural" v="hill" />
		<tag k="place" v="locality" />
		<tag k="ssr:stedsnr" v="210377" />
	</node>
	<node lat="64.01150833042252" lon="11.735166662400728" id="-47014">
		<tag k="name" v="Furuhaugen" />
		<tag k="natural" v="hill" />
		<tag k="place" v="locality" />
		<tag k="ssr:stedsnr" v="210390" />
	</node>
	<node lat="64.04334722090933" lon="11.471266673594165" id="-47016">
		<tag k="name" v="Klempen" />
		<tag k="natural" v="hill" />
		<tag k="place" v="locality" />
		<tag k="ssr:stedsnr" v="210912" />
	</node>
	<node lat="63.89246111147257" lon="11.566127774682549" id="-47018">
		<tag k="name" v="Hodalsberga" />
		<tag k="natural" v="hill" />
		<tag k="place" v="locality" />
		<tag k="ssr:stedsnr" v="210917" />
	</node>
	<node lat="63.970938892039825" lon="11.576836110173463" id="-47022">
		<tag k="name" v="Solåsberga" />
		<tag k="natural" v="hill" />
		<tag k="place" v="locality" />
		<tag k="ssr:stedsnr" v="210892" />
	</node>
	<node lat="64.05687778000956" lon="11.65428889124915" id="-47023">
		<tag k="name" v="Fuglberget" />
		<tag k="natural" v="hill" />
		<tag k="place" v="locality" />
		<tag k="ssr:stedsnr" v="211294" />
	</node>
	<node lat="64.11888610879632" lon="11.808477775813351" id="-47025">
		<tag k="name" v="Bekkadalen" />
		<tag k="natural" v="valley" />
		<tag k="place" v="locality" />
		<tag k="ssr:stedsnr" v="211808" />
	</node>
	<node lat="64.19158333485076" lon="11.867127770858191" id="-47026">
		<tag k="fixme" v="consider natural=peak for the most distinct mountains in the district" />
		<tag k="name" v="Støstadhalla" />
		<tag k="natural" v="hill" />
		<tag k="place" v="locality" />
		<tag k="ssr:stedsnr" v="211880" />
	</node>
	<node lat="63.98193889075362" lon="11.93749445271336" id="-47028">
		<tag k="name" v="Sørmoen" />
		<tag k="place" v="locality" />
		<tag k="ssr:stedsnr" v="211903" />
	</node>
	<node lat="64.11750833465652" lon="11.214091664763297" id="-47035">
		<tag k="fixme" v="consider natural=peak for the most distinct mountains in the district" />
		<tag k="name" v="Gullhaugen" />
		<tag k="natural" v="hill" />
		<tag k="place" v="locality" />
		<tag k="ssr:stedsnr" v="221582" />
	</node>
	<node lat="63.99035277910358" lon="11.819833334891108" id="-47037">
		<tag k="name" v="Middagshaugen" />
		<tag k="natural" v="hill" />
		<tag k="place" v="locality" />
		<tag k="ssr:stedsnr" v="271063" />
	</node>
	<node lat="64.02278055884526" lon="11.190047212962703" id="-47039">
		<tag k="name" v="Brennhaugklompen" />
		<tag k="natural" v="hill" />
		<tag k="place" v="locality" />
		<tag k="ssr:stedsnr" v="271121" />
	</node>
	<node lat="63.93271388996926" lon="10.949127781486999" id="-47041">
		<tag k="name" v="Snertviklia" />
		<tag k="natural" v="slope" />
		<tag k="place" v="locality" />
		<tag k="ssr:stedsnr" v="271074" />
	</node>
	<node lat="63.88853055910964" lon="10.783513884986672" id="-47047">
		<tag k="name" v="Slettheia" />
		<tag k="natural" v="hill" />
		<tag k="place" v="locality" />
		<tag k="ssr:stedsnr" v="271096" />
	</node>
	<node lat="63.867974995823985" lon="10.76139166377113" id="-47050">
		<tag k="name" v="Killingberglia" />
		<tag k="natural" v="slope" />
		<tag k="place" v="locality" />
		<tag k="ssr:stedsnr" v="271115" />
	</node>
	<node lat="64.17567777757421" lon="11.739591662754636" id="-47051">
		<tag k="name" v="Furuberga" />
		<tag k="natural" v="hill" />
		<tag k="place" v="locality" />
		<tag k="ssr:stedsnr" v="271122" />
	</node>
	<node lat="64.17106388896016" lon="11.754766670103468" id="-47052">
		<tag k="name" v="Djupmarka" />
		<tag k="natural" v="valley" />
		<tag k="place" v="locality" />
		<tag k="ssr:stedsnr" v="271128" />
	</node>
	<node lat="64.14340833205148" lon="11.751236119806322" id="-47058">
		<tag k="name" v="Ekkerberga" />
		<tag k="natural" v="hill" />
		<tag k="place" v="locality" />
		<tag k="ssr:stedsnr" v="271197" />
	</node>
	<node lat="64.13254444417262" lon="11.623808341118156" id="-47067">
		<tag k="name" v="Bjørnadalen" />
		<tag k="natural" v="valley" />
		<tag k="place" v="locality" />
		<tag k="ssr:stedsnr" v="271459" />
	</node>
	<node lat="63.99220555826246" lon="11.624502770919843" id="-47071">
		<tag k="fixme" v="consider natural=peak for the most distinct mountains in the district" />
		<tag k="name" v="Hustømmeråsen" />
		<tag k="natural" v="hill" />
		<tag k="place" v="locality" />
		<tag k="ssr:stedsnr" v="271550" />
	</node>
	<node lat="64.04279999849825" lon="11.522547214965913" id="-47072">
		<tag k="fixme" v="consider natural=peak for the most distinct mountains in the district" />
		<tag k="name" v="Kølmilåsen" />
		<tag k="natural" v="hill" />
		<tag k="place" v="locality" />
		<tag k="ssr:stedsnr" v="271560" />
	</node>
	<node lat="64.0334750021569" lon="11.513372217157844" id="-47073">
		<tag k="name" v="Fjellhaugen" />
		<tag k="natural" v="hill" />
		<tag k="place" v="locality" />
		<tag k="ssr:stedsnr" v="271561" />
	</node>
	<node lat="64.18971111074381" lon="11.85296388160459" id="-47076">
		<tag k="fixme" v="consider natural=peak for the most distinct mountains in the district" />
		<tag k="name" v="Taraldåsen" />
		<tag k="natural" v="hill" />
		<tag k="place" v="locality" />
		<tag k="ssr:stedsnr" v="271915" />
	</node>
	<node lat="64.18991110723707" lon="11.927569452699135" id="-47079">
		<tag k="fixme" v="consider natural=peak for the most distinct mountains in the district" />
		<tag k="name" v="Hoåsen" />
		<tag k="natural" v="hill" />
		<tag k="place" v="locality" />
		<tag k="ssr:stedsnr" v="271922" />
	</node>
	<node lat="64.19956944139047" lon="11.973550003422375" id="-47080">
		<tag k="fixme" v="consider natural=peak for the most distinct mountains in the district" />
		<tag k="name" v="Neråsan" />
		<tag k="natural" v="hill" />
		<tag k="place" v="locality" />
		<tag k="ssr:stedsnr" v="271981" />
	</node>
	<node lat="64.03182500223944" lon="11.218988880103053" id="-47082">
		<tag k="name" v="Storkleiva" />
		<tag k="natural" v="cliff" />
		<tag k="ssr:stedsnr" v="271992" />
	</node>
	<node lat="64.15752222119812" lon="11.98237778049857" id="-47083">
		<tag k="name" v="Leirdalen" />
		<tag k="natural" v="valley" />
		<tag k="place" v="locality" />
		<tag k="ssr:stedsnr" v="271993" />
	</node>
	<node lat="64.0032194405795" lon="10.799591665416184" id="-47085">
		<tag k="name" v="Ormhaugen" />
		<tag k="natural" v="hill" />
		<tag k="place" v="locality" />
		<tag k="ssr:stedsnr" v="229132" />
	</node>
	<node lat="64.00422777487233" lon="10.809813894215939" id="-47086">
		<tag k="name" v="Vakkerbakken" />
		<tag k="natural" v="slope" />
		<tag k="place" v="locality" />
		<tag k="ssr:stedsnr" v="229134" />
	</node>
	<node lat="63.998891668512016" lon="10.966133332194332" id="-47088">
		<tag k="name" v="Lomlia" />
		<tag k="natural" v="slope" />
		<tag k="place" v="locality" />
		<tag k="ssr:stedsnr" v="229083" />
	</node>
	<node lat="63.98187222275885" lon="11.981324993665037" id="-47091">
		<tag k="name" v="Elghaugen" />
		<tag k="natural" v="hill" />
		<tag k="place" v="locality" />
		<tag k="ssr:stedsnr" v="229533" />
	</node>
	<node lat="64.17288889186241" lon="11.39139166895969" id="-47093">
		<tag k="fixme" v="consider natural=peak for the most distinct mountains in the district" />
		<tag k="name" v="Kviksåsnova" />
		<tag k="natural" v="hill" />
		<tag k="place" v="locality" />
		<tag k="ssr:stedsnr" v="229480" />
	</node>
	<node lat="64.19973333402137" lon="11.448319437972785" id="-47094">
		<tag k="fixme" v="consider natural=peak for the most distinct mountains in the district" />
		<tag k="name" v="Svarttjønnhalla" />
		<tag k="natural" v="hill" />
		<tag k="place" v="locality" />
		<tag k="ssr:stedsnr" v="229481" />
	</node>
	<node lat="64.03229999716892" lon="11.099399999044804" id="-47097">
		<tag k="fixme" v="consider natural=peak for the most distinct mountains in the district" />
		<tag k="name" v="Langmyråsen" />
		<tag k="natural" v="hill" />
		<tag k="place" v="locality" />
		<tag k="ssr:stedsnr" v="230006" />
	</node>
	<node lat="64.21984999852249" lon="11.709213878691488" id="-47099">
		<tag k="fixme" v="consider natural=peak for the most distinct mountains in the district" />
		<tag k="name" v="Grønliheia" />
		<tag k="natural" v="hill" />
		<tag k="place" v="locality" />
		<tag k="ssr:stedsnr" v="230207" />
	</node>
	<node lat="63.915200001114144" lon="11.741177782670919" id="-47101">
		<tag k="name" v="Skeishaugen" />
		<tag k="natural" v="hill" />
		<tag k="place" v="locality" />
		<tag k="ssr:stedsnr" v="230534" />
	</node>
	<node lat="63.9247527821832" lon="11.747477769962002" id="-47102">
		<tag k="name" v="Lenkingan" />
		<tag k="natural" v="ridge" />
		<tag k="place" v="locality" />
		<tag k="ssr:stedsnr" v="230536" />
	</node>
	<node lat="64.00368610708095" lon="12.083733342513659" id="-47103">
		<tag k="name" v="Finnlarsberget" />
		<tag k="natural" v="hill" />
		<tag k="place" v="locality" />
		<tag k="ssr:stedsnr" v="230280" />
	</node>
	<node lat="64.03471389200635" lon="11.147233328057483" id="-47106">
		<tag k="name" v="Skurven" />
		<tag k="natural" v="hill" />
		<tag k="place" v="locality" />
		<tag k="ssr:stedsnr" v="230441" />
	</node>
	<node lat="64.04546388510785" lon="10.998025009490904" id="-47110">
		<tag k="name" v="Pissbekkdalen" />
		<tag k="natural" v="valley" />
		<tag k="place" v="locality" />
		<tag k="ssr:stedsnr" v="230688" />
	</node>
	<node lat="64.21938055899525" lon="11.92610278686828" id="-47111">
		<tag k="name" v="Dekkeldalen" />
		<tag k="natural" v="valley" />
		<tag k="place" v="locality" />
		<tag k="ssr:stedsnr" v="230809" />
	</node>
	<node lat="64.20100000002721" lon="11.905188893060542" id="-47114">
		<tag k="name" v="Kaukarkleiva" />
		<tag k="natural" v="slope" />
		<tag k="place" v="locality" />
		<tag k="ssr:stedsnr" v="230796" />
	</node>
	<node lat="64.0618777759127" lon="11.769455557388518" id="-47117">
		<tag k="name" v="Skansberget" />
		<tag k="natural" v="hill" />
		<tag k="place" v="locality" />
		<tag k="ssr:stedsnr" v="230989" />
	</node>
	<node lat="64.04233055935987" lon="11.178377779024002" id="-47123">
		<tag k="fixme" v="consider natural=peak for the most distinct mountains in the district" />
		<tag k="name" v="Kjerrenghalla" />
		<tag k="natural" v="hill" />
		<tag k="place" v="locality" />
		<tag k="ssr:stedsnr" v="271999" />
	</node>
	<node lat="64.01761111116906" lon="11.744391657799406" id="-47150">
		<tag k="name" v="Sankthansberget" />
		<tag k="natural" v="hill" />
		<tag k="place" v="locality" />
		<tag k="ssr:stedsnr" v="453395" />
	</node>
	<node lat="64.01471666465194" lon="11.757725001128437" id="-47151">
		<tag k="name" v="Stordalen" />
		<tag k="natural" v="valley" />
		<tag k="place" v="locality" />
		<tag k="ssr:stedsnr" v="453399" />
	</node>
	<node lat="64.07719722468217" lon="11.579691659400515" id="-47152">
		<tag k="fixme" v="consider natural=peak for the most distinct mountains in the district" />
		<tag k="name" v="Grofthalla" />
		<tag k="natural" v="hill" />
		<tag k="place" v="locality" />
		<tag k="ssr:stedsnr" v="453401" />
	</node>
	<node lat="64.15899444087204" lon="11.711075006225785" id="-47154">
		<tag k="name" v="Hevilengdalen" />
		<tag k="natural" v="valley" />
		<tag k="place" v="locality" />
		<tag k="ssr:stedsnr" v="453023" />
	</node>
	<node lat="64.01834722191418" lon="11.87708610248692" id="-47155">
		<tag k="name" v="Nordhalla" />
		<tag k="natural" v="slope" />
		<tag k="place" v="locality" />
		<tag k="ssr:stedsnr" v="453065" />
	</node>
	<node lat="64.16029722143445" lon="11.712136115489594" id="-47157">
		<tag k="name" v="Stokkdalen" />
		<tag k="natural" v="valley" />
		<tag k="place" v="locality" />
		<tag k="ssr:stedsnr" v="453024" />
	</node>
	<node lat="64.10715555691843" lon="11.755333324643859" id="-47164">
		<tag k="fixme" v="consider natural=peak for the most distinct mountains in the district" />
		<tag k="name" v="Østgardshalla" />
		<tag k="natural" v="hill" />
		<tag k="place" v="locality" />
		<tag k="ssr:stedsnr" v="453170" />
	</node>
	<node lat="64.10136111484188" lon="11.684819439086647" id="-47165">
		<tag k="name" v="Halsethaugan" />
		<tag k="natural" v="hill" />
		<tag k="place" v="locality" />
		<tag k="ssr:stedsnr" v="453172" />
	</node>
	<node lat="64.10519166928071" lon="11.702886108339577" id="-47170">
		<tag k="name" v="Bjørnatangen" />
		<tag k="place" v="locality" />
		<tag k="ssr:stedsnr" v="453189" />
	</node>
	<node lat="64.1568027804054" lon="11.721138888035936" id="-47172">
		<tag k="name" v="Stjernmyrdalen" />
		<tag k="natural" v="valley" />
		<tag k="place" v="locality" />
		<tag k="ssr:stedsnr" v="453197" />
	</node>
	<node lat="64.1294583311438" lon="11.57454721617412" id="-47174">
		<tag k="fixme" v="consider natural=peak for the most distinct mountains in the district" />
		<tag k="name" v="Storåsen" />
		<tag k="natural" v="hill" />
		<tag k="place" v="locality" />
		<tag k="ssr:stedsnr" v="453438" />
	</node>
	<node lat="64.12272778078653" lon="11.572177779973723" id="-47176">
		<tag k="name" v="Tårnberget" />
		<tag k="natural" v="hill" />
		<tag k="place" v="locality" />
		<tag k="ssr:stedsnr" v="453447" />
	</node>
	<node lat="64.00841111339962" lon="11.572019445247598" id="-47178">
		<tag k="name" v="Bruåsevja" />
		<tag k="place" v="locality" />
		<tag k="ssr:stedsnr" v="453499" />
	</node>
	<node lat="64.03116944596722" lon="11.572972228554171" id="-47179">
		<tag k="name" v="Granlia" />
		<tag k="natural" v="slope" />
		<tag k="place" v="locality" />
		<tag k="ssr:stedsnr" v="453524" />
	</node>
	<node lat="64.10902777585814" lon="11.573944439477401" id="-47180">
		<tag k="name" v="Haugåshalla" />
		<tag k="natural" v="hill" />
		<tag k="place" v="locality" />
		<tag k="ssr:stedsnr" v="453527" />
	</node>
	<node lat="64.19763611499748" lon="11.889811106316913" id="-47181">
		<tag k="fixme" v="consider natural=peak for the most distinct mountains in the district" />
		<tag k="name" v="Marenåsen" />
		<tag k="natural" v="hill" />
		<tag k="place" v="locality" />
		<tag k="ssr:stedsnr" v="453789" />
	</node>
	<node lat="64.04339722050393" lon="11.452169443336985" id="-47185">
		<tag k="fixme" v="consider natural=peak for the most distinct mountains in the district" />
		<tag k="name" v="Bjørnåsen" />
		<tag k="natural" v="hill" />
		<tag k="place" v="locality" />
		<tag k="ssr:stedsnr" v="453891" />
	</node>
	<node lat="64.07308610935095" lon="11.202311102734512" id="-47190">
		<tag k="name" v="Ekornberget" />
		<tag k="natural" v="hill" />
		<tag k="place" v="locality" />
		<tag k="ssr:stedsnr" v="453985" />
	</node>
	<node lat="63.97386944610356" lon="11.903141670173879" id="-47194">
		<tag k="name" v="Austerdalen" />
		<tag k="natural" v="valley" />
		<tag k="place" v="locality" />
		<tag k="ssr:stedsnr" v="453921" />
	</node>
	<node lat="64.13067500201633" lon="11.802025007832107" id="-47195">
		<tag k="name" v="Kuberget" />
		<tag k="natural" v="hill" />
		<tag k="place" v="locality" />
		<tag k="ssr:stedsnr" v="453936" />
	</node>
	<node lat="64.08565833512914" lon="11.217627784515852" id="-47198">
		<tag k="fixme" v="consider natural=peak for the most distinct mountains in the district" />
		<tag k="name" v="Fosselhalla" />
		<tag k="natural" v="hill" />
		<tag k="place" v="locality" />
		<tag k="ssr:stedsnr" v="453946" />
	</node>
	<node lat="63.893733336896254" lon="11.637819445154308" id="-47201">
		<tag k="name" v="Storsteinhalla" />
		<tag k="natural" v="slope" />
		<tag k="place" v="locality" />
		<tag k="ssr:stedsnr" v="454455" />
	</node>
	<node lat="64.12318055972007" lon="11.808119437760084" id="-47203">
		<tag k="name" v="Seterhaugen" />
		<tag k="natural" v="hill" />
		<tag k="place" v="locality" />
		<tag k="ssr:stedsnr" v="454830" />
	</node>
	<node lat="63.85330277831672" lon="10.63392499308348" id="-47205">
		<tag k="fixme" v="consider natural=peak for the most distinct mountains in the district" />
		<tag k="name" v="Gåsvassheia" />
		<tag k="natural" v="hill" />
		<tag k="place" v="locality" />
		<tag k="ssr:stedsnr" v="255462" />
	</node>
	<node lat="64.0535916691183" lon="11.775230552708939" id="-47218">
		<tag k="name" v="Høghaugen" />
		<tag k="natural" v="hill" />
		<tag k="place" v="locality" />
		<tag k="ssr:stedsnr" v="256305" />
	</node>
	<node lat="63.95685833247371" lon="11.92145277238902" id="-47219">
		<tag k="name" v="Halvgåtthaugen" />
		<tag k="natural" v="hill" />
		<tag k="place" v="locality" />
		<tag k="ssr:stedsnr" v="256359" />
	</node>
	<node lat="64.23230555450735" lon="11.852291657448305" id="-47220">
		<tag k="alt_name" v="Borghatten" />
		<tag k="name" v="Vengstadhatten" />
		<tag k="natural" v="hill" />
		<tag k="place" v="locality" />
		<tag k="ssr:stedsnr" v="256360" />
	</node>
	<node lat="63.95257777407414" lon="12.16673332840275" id="-47221">
		<tag k="fixme" v="consider natural=peak for the most distinct mountains in the district" />
		<tag k="name" v="Badstubekkvola" />
		<tag k="natural" v="hill" />
		<tag k="place" v="locality" />
		<tag k="ssr:stedsnr" v="256366" />
	</node>
	<node lat="64.3013499957945" lon="11.93997500683847" id="-47229">
		<tag k="name" v="Damkjølen" />
		<tag k="natural" v="hill" />
		<tag k="place" v="locality" />
		<tag k="ssr:stedsnr" v="256567" />
	</node>
	<node lat="64.01371666608027" lon="10.816269434281343" id="-47238">
		<tag k="name" v="Kruvhalla" />
		<tag k="natural" v="hill" />
		<tag k="place" v="locality" />
		<tag k="ssr:stedsnr" v="256973" />
	</node>
	<node lat="64.01573888512422" lon="10.822580559035716" id="-47239">
		<tag k="name" v="Måggåtjønnklumpen" />
		<tag k="natural" v="hill" />
		<tag k="place" v="locality" />
		<tag k="ssr:stedsnr" v="256975" />
	</node>
	<node lat="64.03341111083901" lon="11.444013883771404" id="-47241">
		<tag k="fixme" v="consider natural=peak for the most distinct mountains in the district" />
		<tag k="name" v="Brandsåsen" />
		<tag k="natural" v="hill" />
		<tag k="place" v="locality" />
		<tag k="ssr:stedsnr" v="257113" />
	</node>
	<node lat="64.01298889042467" lon="12.052219448490947" id="-47249">
		<tag k="fixme" v="consider natural=peak for the most distinct mountains in the district" />
		<tag k="name" v="Dalengåsan" />
		<tag k="natural" v="hill" />
		<tag k="place" v="locality" />
		<tag k="ssr:stedsnr" v="257724" />
	</node>
	<node lat="64.17747221911748" lon="11.47843610990625" id="-47250">
		<tag k="name" v="Ulvenhalla" />
		<tag k="natural" v="slope" />
		<tag k="place" v="locality" />
		<tag k="ssr:stedsnr" v="257902" />
	</node>
	<node lat="64.1359638862502" lon="11.396827769396804" id="-47254">
		<tag k="fixme" v="consider natural=peak for the most distinct mountains in the district" />
		<tag k="name" v="Gammelbuåsen" />
		<tag k="natural" v="hill" />
		<tag k="place" v="locality" />
		<tag k="ssr:stedsnr" v="264505" />
	</node>
	<node lat="64.1367305581349" lon="11.503380561163494" id="-47255">
		<tag k="name" v="Svartberget" />
		<tag k="natural" v="hill" />
		<tag k="place" v="locality" />
		<tag k="ssr:stedsnr" v="264551" />
	</node>
	<node lat="64.06322222174087" lon="11.514630552760176" id="-47256">
		<tag k="fixme" v="consider natural=peak for the most distinct mountains in the district" />
		<tag k="name" v="Søndagsåsen" />
		<tag k="natural" v="hill" />
		<tag k="place" v="locality" />
		<tag k="ssr:stedsnr" v="264708" />
	</node>
	<node lat="64.0568944427082" lon="11.514697223182244" id="-47257">
		<tag k="name" v="Vargholet" />
		<tag k="natural" v="valley" />
		<tag k="place" v="locality" />
		<tag k="ssr:stedsnr" v="264710" />
	</node>
	<node lat="64.06097499932245" lon="11.334555551375399" id="-47262">
		<tag k="fixme" v="consider natural=peak for the most distinct mountains in the district" />
		<tag k="name" v="Rennhalla" />
		<tag k="natural" v="hill" />
		<tag k="place" v="locality" />
		<tag k="ssr:stedsnr" v="265242" />
	</node>
	<node lat="64.10745555687988" lon="11.299525009099286" id="-47264">
		<tag k="name" v="Høgberget" />
		<tag k="natural" v="hill" />
		<tag k="place" v="locality" />
		<tag k="ssr:stedsnr" v="265190" />
	</node>
	<node lat="64.1312916635431" lon="11.555408323554069" id="-47269">
		<tag k="fixme" v="consider natural=peak for the most distinct mountains in the district" />
		<tag k="name" v="Flatfjellet" />
		<tag k="natural" v="hill" />
		<tag k="place" v="locality" />
		<tag k="ssr:stedsnr" v="265705" />
	</node>
	<node lat="63.91628889143937" lon="11.500619441239571" id="-47272">
		<tag k="fixme" v="consider natural=peak for the most distinct mountains in the district" />
		<tag k="name" v="Oksvollhalla" />
		<tag k="natural" v="hill" />
		<tag k="place" v="locality" />
		<tag k="ssr:stedsnr" v="265751" />
	</node>
	<node lat="64.06098055515845" lon="11.391691662449182" id="-47276">
		<tag k="name" v="Bjørnadalen" />
		<tag k="natural" v="valley" />
		<tag k="place" v="locality" />
		<tag k="ssr:stedsnr" v="265909" />
	</node>
	<node lat="64.06761944533959" lon="11.388877777214722" id="-47277">
		<tag k="fixme" v="consider natural=peak for the most distinct mountains in the district" />
		<tag k="name" v="Stokkåshalla" />
		<tag k="natural" v="hill" />
		<tag k="place" v="locality" />
		<tag k="ssr:stedsnr" v="265911" />
	</node>
	<node lat="63.905713892287366" lon="11.478286106751767" id="-47282">
		<tag k="fixme" v="consider natural=peak for the most distinct mountains in the district" />
		<tag k="name" v="Søråsen" />
		<tag k="natural" v="hill" />
		<tag k="place" v="locality" />
		<tag k="ssr:stedsnr" v="265992" />
	</node>
	<node lat="64.25512222277791" lon="11.883144446618584" id="-47286">
		<tag k="name" v="Nordsjødalen" />
		<tag k="natural" v="valley" />
		<tag k="place" v="locality" />
		<tag k="ssr:stedsnr" v="269173" />
	</node>
	<node lat="64.1503083298487" lon="11.724430545709211" id="-47288">
		<tag k="name" v="Litlkorsmyrberget" />
		<tag k="natural" v="hill" />
		<tag k="place" v="locality" />
		<tag k="ssr:stedsnr" v="271202" />
	</node>
	<node lat="64.09496944384388" lon="11.658458329594515" id="-47294">
		<tag k="fixme" v="consider natural=peak for the most distinct mountains in the district" />
		<tag k="name" v="Høgåsen" />
		<tag k="natural" v="hill" />
		<tag k="place" v="locality" />
		<tag k="ssr:stedsnr" v="271274" />
	</node>
	<node lat="64.09851667047023" lon="11.714619438669319" id="-47295">
		<tag k="name" v="Kjerstidalen" />
		<tag k="natural" v="valley" />
		<tag k="place" v="locality" />
		<tag k="ssr:stedsnr" v="271185" />
	</node>
	<node lat="63.997100000337646" lon="11.72349443471769" id="-47297">
		<tag k="name" v="Bjørndalen" />
		<tag k="natural" v="valley" />
		<tag k="place" v="locality" />
		<tag k="ssr:stedsnr" v="271316" />
	</node>
	<node lat="63.96576944603197" lon="11.662588891788868" id="-47299">
		<tag k="name" v="Litlberget" />
		<tag k="natural" v="hill" />
		<tag k="place" v="locality" />
		<tag k="ssr:stedsnr" v="271424" />
	</node>
	<node lat="63.95738611398243" lon="11.685274992944132" id="-47300">
		<tag k="fixme" v="consider natural=peak for the most distinct mountains in the district" />
		<tag k="name" v="Mårgilleråsen" />
		<tag k="natural" v="hill" />
		<tag k="place" v="locality" />
		<tag k="ssr:stedsnr" v="271425" />
	</node>
	<node lat="64.18095277884395" lon="11.7994527769905" id="-47304">
		<tag k="fixme" v="consider natural=peak for the most distinct mountains in the district" />
		<tag k="name" v="Livassåsen" />
		<tag k="natural" v="hill" />
		<tag k="place" v="locality" />
		<tag k="ssr:stedsnr" v="271824" />
	</node>
	<node lat="64.02843610928088" lon="11.505347220161475" id="-47307">
		<tag k="name" v="Heggesenget" />
		<tag k="place" v="locality" />
		<tag k="ssr:stedsnr" v="271898" />
	</node>
	<node lat="64.17105000103622" lon="11.81236388626645" id="-47310">
		<tag k="name" v="Noemsberga" />
		<tag k="natural" v="hill" />
		<tag k="place" v="locality" />
		<tag k="ssr:stedsnr" v="271905" />
	</node>
	<node lat="64.18715277605104" lon="11.879502777203822" id="-47311">
		<tag k="name" v="Kvennadalen" />
		<tag k="natural" v="valley" />
		<tag k="place" v="locality" />
		<tag k="ssr:stedsnr" v="271910" />
	</node>
	<node lat="64.16894444482833" lon="11.619661108849337" id="-47337">
		<tag k="name" v="Seterdalen" />
		<tag k="natural" v="valley" />
		<tag k="place" v="locality" />
		<tag k="ssr:stedsnr" v="290183" />
	</node>
	<node lat="64.01297222312103" lon="10.79736944532971" id="-47338">
		<tag k="name" v="Finnhaugen" />
		<tag k="natural" v="hill" />
		<tag k="place" v="locality" />
		<tag k="ssr:stedsnr" v="290184" />
	</node>
	<node lat="64.08233610686194" lon="11.870097213788819" id="-47340">
		<tag k="name" v="Bjønndalen" />
		<tag k="natural" v="valley" />
		<tag k="place" v="locality" />
		<tag k="ssr:stedsnr" v="290935" />
	</node>
	<node lat="64.16859722220497" lon="11.629416666281337" id="-47344">
		<tag k="fixme" v="consider natural=peak for the most distinct mountains in the district" />
		<tag k="name" v="Halvmilåsen" />
		<tag k="natural" v="hill" />
		<tag k="place" v="locality" />
		<tag k="ssr:stedsnr" v="291134" />
	</node>
	<node lat="64.01281666421747" lon="12.071930548125017" id="-47348">
		<tag k="name" v="Svarttjønnhaugen" />
		<tag k="natural" v="hill" />
		<tag k="place" v="locality" />
		<tag k="ssr:stedsnr" v="291302" />
	</node>
	<node lat="64.01452500235075" lon="12.11995833527899" id="-47352">
		<tag k="fixme" v="consider natural=peak for the most distinct mountains in the district" />
		<tag k="name" v="Langmyrhalla" />
		<tag k="natural" v="hill" />
		<tag k="place" v="locality" />
		<tag k="ssr:stedsnr" v="291281" />
	</node>
	<node lat="64.21442500327578" lon="11.8111999986332" id="-47353">
		<tag k="name" v="Nord-Olsbakken" />
		<tag k="natural" v="slope" />
		<tag k="place" v="locality" />
		<tag k="ssr:stedsnr" v="291844" />
	</node>
	<node lat="64.09467500210725" lon="11.170849998729844" id="-47355">
		<tag k="name" v="Trettdalen" />
		<tag k="natural" v="valley" />
		<tag k="place" v="locality" />
		<tag k="ssr:stedsnr" v="291702" />
	</node>
	<node lat="64.07940833348898" lon="11.155313878860023" id="-47357">
		<tag k="fixme" v="consider natural=peak for the most distinct mountains in the district" />
		<tag k="name" v="Hevlan" />
		<tag k="natural" v="hill" />
		<tag k="place" v="locality" />
		<tag k="ssr:stedsnr" v="291707" />
	</node>
	<node lat="64.04289166309805" lon="11.49373610514021" id="-47359">
		<tag k="fixme" v="consider natural=peak for the most distinct mountains in the district" />
		<tag k="name" v="Andersåsen" />
		<tag k="natural" v="hill" />
		<tag k="place" v="locality" />
		<tag k="ssr:stedsnr" v="271923" />
	</node>
	<node lat="64.14675000373313" lon="12.00562500941272" id="-47360">
		<tag k="fixme" v="consider natural=peak for the most distinct mountains in the district" />
		<tag k="name" v="Skyttarmyrhalla" />
		<tag k="natural" v="hill" />
		<tag k="place" v="locality" />
		<tag k="ssr:stedsnr" v="271926" />
	</node>
	<node lat="64.03884444704367" lon="11.422016666171317" id="-47411">
		<tag k="fixme" v="consider natural=peak for the most distinct mountains in the district" />
		<tag k="name" v="Ovreinåsen" />
		<tag k="natural" v="hill" />
		<tag k="place" v="locality" />
		<tag k="ssr:stedsnr" v="317104" />
	</node>
	<node lat="63.91370555481761" lon="12.019891664640403" id="-47419">
		<tag k="name" v="Oksklumpen" />
		<tag k="natural" v="hill" />
		<tag k="place" v="locality" />
		<tag k="ssr:stedsnr" v="317401" />
	</node>
	<node lat="63.924505559844285" lon="10.785244443693461" id="-47425">
		<tag k="name" v="Lauvlidalen" />
		<tag k="natural" v="valley" />
		<tag k="place" v="locality" />
		<tag k="ssr:stedsnr" v="317557" />
	</node>
	<node lat="64.18111666997738" lon="11.737016663748088" id="-47426">
		<tag k="fixme" v="consider natural=peak for the most distinct mountains in the district" />
		<tag k="name" v="Dalhatten" />
		<tag k="natural" v="hill" />
		<tag k="place" v="locality" />
		<tag k="ssr:stedsnr" v="317413" />
	</node>
	<node lat="63.93534166561868" lon="11.918886109730453" id="-47428">
		<tag k="fixme" v="consider natural=peak for the most distinct mountains in the district" />
		<tag k="name" v="Grønliheia" />
		<tag k="natural" v="hill" />
		<tag k="place" v="locality" />
		<tag k="ssr:stedsnr" v="317421" />
	</node>
	<node lat="64.07485000387373" lon="11.050541658115895" id="-47430">
		<tag k="name" v="Breitjønnheia" />
		<tag k="natural" v="hill" />
		<tag k="place" v="locality" />
		<tag k="ssr:stedsnr" v="317492" />
	</node>
	<node lat="63.97851111172348" lon="12.23615278350269" id="-47432">
		<tag k="name" v="Øver-Lågvassdalen" />
		<tag k="natural" v="valley" />
		<tag k="old_name" v="Lågvassdalen, øvre" />
		<tag k="place" v="locality" />
		<tag k="ssr:stedsnr" v="317607" />
	</node>
	<node lat="64.05331110768839" lon="11.081666676599095" id="-47443">
		<tag k="name" v="Lønnsbrekka" />
		<tag k="natural" v="valley" />
		<tag k="place" v="locality" />
		<tag k="ssr:stedsnr" v="317946" />
	</node>
	<node lat="64.00159166884767" lon="10.924822218309327" id="-47447">
		<tag k="name" v="Steinlia" />
		<tag k="natural" v="slope" />
		<tag k="place" v="locality" />
		<tag k="ssr:stedsnr" v="317854" />
	</node>
	<node lat="64.03425832913705" lon="11.159966664171241" id="-47448">
		<tag k="name" v="Gokshaugen" />
		<tag k="natural" v="hill" />
		<tag k="place" v="locality" />
		<tag k="ssr:stedsnr" v="317993" />
	</node>
	<node lat="64.06410555655546" lon="11.56066110652585" id="-47455">
		<tag k="name" v="Korsmyrdalen" />
		<tag k="natural" v="valley" />
		<tag k="place" v="locality" />
		<tag k="ssr:stedsnr" v="325695" />
	</node>
	<node lat="64.10183055880029" lon="11.40747221449498" id="-47460">
		<tag k="name" v="Hestgeilberga" />
		<tag k="natural" v="hill" />
		<tag k="place" v="locality" />
		<tag k="ssr:stedsnr" v="326604" />
	</node>
	<node lat="63.96390278217127" lon="10.950033332169577" id="-47465">
		<tag k="name" v="Almliberga" />
		<tag k="place" v="locality" />
		<tag k="ssr:stedsnr" v="329361" />
	</node>
	<node lat="63.98588611109584" lon="11.85772222505183" id="-47472">
		<tag k="name" v="Langhevelen" />
		<tag k="natural" v="ridge" />
		<tag k="place" v="locality" />
		<tag k="ssr:stedsnr" v="332048" />
	</node>
	<node lat="64.01810277422899" lon="11.85449722963673" id="-47475">
		<tag k="name" v="Toneriberget" />
		<tag k="natural" v="hill" />
		<tag k="place" v="locality" />
		<tag k="ssr:stedsnr" v="332062" />
	</node>
	<node lat="64.00870277828037" lon="11.776247225678537" id="-47476">
		<tag k="name" v="Bogen" />
		<tag k="place" v="locality" />
		<tag k="ssr:stedsnr" v="332064" />
	</node>
	<node lat="63.99772222098306" lon="11.73435277679607" id="-47478">
		<tag k="name" v="Svartberget" />
		<tag k="natural" v="hill" />
		<tag k="place" v="locality" />
		<tag k="ssr:stedsnr" v="332261" />
	</node>
	<node lat="64.00436111166248" lon="11.506286110178678" id="-47479">
		<tag k="name" v="Krogbakken" />
		<tag k="natural" v="slope" />
		<tag k="place" v="locality" />
		<tag k="ssr:stedsnr" v="332461" />
	</node>
	<node lat="64.04917778032724" lon="11.492527774330458" id="-47480">
		<tag k="name" v="Kvernhusberget" />
		<tag k="natural" v="hill" />
		<tag k="place" v="locality" />
		<tag k="ssr:stedsnr" v="271951" />
	</node>
	<node lat="63.94831388790564" lon="11.661536107759638" id="-47482">
		<tag k="name" v="Sagdalen" />
		<tag k="natural" v="valley" />
		<tag k="place" v="locality" />
		<tag k="ssr:stedsnr" v="332359" />
	</node>
	<node lat="64.19732500016697" lon="11.832430556285972" id="-47486">
		<tag k="name" v="Blonkenberget" />
		<tag k="natural" v="hill" />
		<tag k="place" v="locality" />
		<tag k="ssr:stedsnr" v="332767" />
	</node>
	<node lat="64.12184722021583" lon="11.833463885550863" id="-47487">
		<tag k="name" v="Varden" />
		<tag k="natural" v="hill" />
		<tag k="place" v="locality" />
		<tag k="ssr:stedsnr" v="332797" />
	</node>
	<node lat="64.08368610683252" lon="11.182224990393856" id="-47489">
		<tag k="fixme" v="consider natural=peak for the most distinct mountains in the district" />
		<tag k="name" v="Tortåsen" />
		<tag k="natural" v="hill" />
		<tag k="place" v="locality" />
		<tag k="ssr:stedsnr" v="332951" />
	</node>
	<node lat="64.00631666244344" lon="10.905813887264644" id="-47495">
		<tag k="name" v="Jovasslia" />
		<tag k="natural" v="slope" />
		<tag k="place" v="locality" />
		<tag k="ssr:stedsnr" v="472120" />
	</node>
	<node lat="64.16928055835061" lon="11.596683332686746" id="-47496">
		<tag k="fixme" v="consider natural=peak for the most distinct mountains in the district" />
		<tag k="name" v="Bjønnadalshalla" />
		<tag k="natural" v="hill" />
		<tag k="place" v="locality" />
		<tag k="ssr:stedsnr" v="472128" />
	</node>
	<node lat="64.21683610703857" lon="11.602758329472156" id="-47498">
		<tag k="name" v="Bjørkliin" />
		<tag k="natural" v="slope" />
		<tag k="place" v="locality" />
		<tag k="ssr:stedsnr" v="473073" />
	</node>
	<node lat="64.2149472249585" lon="11.621088885318585" id="-47499">
		<tag k="fixme" v="consider natural=peak for the most distinct mountains in the district" />
		<tag k="name" v="Berettjønnklompen" />
		<tag k="natural" v="hill" />
		<tag k="place" v="locality" />
		<tag k="ssr:stedsnr" v="473075" />
	</node>
	<node lat="64.14351666902847" lon="11.414638882721212" id="-47501">
		<tag k="name" v="Breidalen" />
		<tag k="natural" v="valley" />
		<tag k="place" v="locality" />
		<tag k="ssr:stedsnr" v="472482" />
	</node>
	<node lat="64.15593888628591" lon="11.380316675472423" id="-47502">
		<tag k="name" v="Litlkvinnhaugen" />
		<tag k="natural" v="hill" />
		<tag k="place" v="locality" />
		<tag k="ssr:stedsnr" v="472484" />
	</node>
	<node lat="64.14144444745568" lon="11.353702776062473" id="-47503">
		<tag k="name" v="Småengan" />
		<tag k="natural" v="hill" />
		<tag k="place" v="locality" />
		<tag k="ssr:stedsnr" v="472485" />
	</node>
	<node lat="64.15782499935919" lon="11.367988891098474" id="-47504">
		<tag k="fixme" v="consider natural=peak for the most distinct mountains in the district" />
		<tag k="name" v="Hjellengåsen" />
		<tag k="natural" v="hill" />
		<tag k="place" v="locality" />
		<tag k="ssr:stedsnr" v="472495" />
	</node>
	<node lat="64.1446333297425" lon="11.32078056527882" id="-47505">
		<tag k="fixme" v="consider natural=peak for the most distinct mountains in the district" />
		<tag k="name" v="Lauvåsen" />
		<tag k="natural" v="hill" />
		<tag k="place" v="locality" />
		<tag k="ssr:stedsnr" v="472496" />
	</node>
	<node lat="64.11530555159557" lon="10.973577771094313" id="-47507">
		<tag k="name" v="Nordesplingdalen" />
		<tag k="natural" v="valley" />
		<tag k="place" v="locality" />
		<tag k="ssr:stedsnr" v="472544" />
	</node>
	<node lat="64.15834166678904" lon="11.406149990160424" id="-47509">
		<tag k="name" v="Hevlan" />
		<tag k="natural" v="hill" />
		<tag k="place" v="locality" />
		<tag k="ssr:stedsnr" v="472731" />
	</node>
	<node lat="64.08553888995677" lon="11.106044445519691" id="-47516">
		<tag k="fixme" v="consider natural=peak for the most distinct mountains in the district" />
		<tag k="name" v="Grandhusheia" />
		<tag k="natural" v="hill" />
		<tag k="place" v="locality" />
		<tag k="ssr:stedsnr" v="472701" />
	</node>
	<node lat="64.0741694420703" lon="11.952883338236486" id="-47526">
		<tag k="fixme" v="consider natural=peak for the most distinct mountains in the district" />
		<tag k="name" v="Gunnartoppen" />
		<tag k="natural" v="hill" />
		<tag k="place" v="locality" />
		<tag k="ssr:stedsnr" v="472933" />
	</node>
	<node lat="64.04943888469383" lon="11.965061116124273" id="-47527">
		<tag k="fixme" v="consider natural=peak for the most distinct mountains in the district" />
		<tag k="name" v="Nordheia" />
		<tag k="natural" v="hill" />
		<tag k="place" v="locality" />
		<tag k="ssr:stedsnr" v="472939" />
	</node>
	<node lat="64.02448333329399" lon="11.024305565047475" id="-47528">
		<tag k="name" v="Brennberga" />
		<tag k="natural" v="hill" />
		<tag k="place" v="locality" />
		<tag k="ssr:stedsnr" v="473044" />
	</node>
	<node lat="64.18058888944499" lon="11.75389721439895" id="-47537">
		<tag k="name" v="Bossmyrdalen" />
		<tag k="natural" v="valley" />
		<tag k="place" v="locality" />
		<tag k="ssr:stedsnr" v="473232" />
	</node>
	<node lat="64.01132222283637" lon="12.149958336789444" id="-47541">
		<tag k="name" v="Stamnhaugen" />
		<tag k="natural" v="hill" />
		<tag k="place" v="locality" />
		<tag k="ssr:stedsnr" v="473288" />
	</node>
	<node lat="64.01468889202667" lon="12.24573889602967" id="-47544">
		<tag k="name" v="Vintertjønndalen" />
		<tag k="natural" v="valley" />
		<tag k="place" v="locality" />
		<tag k="ssr:stedsnr" v="473330" />
	</node>
	<node lat="63.99948055202792" lon="12.192024994370763" id="-47547">
		<tag k="name" v="Brennan" />
		<tag k="natural" v="hill" />
		<tag k="place" v="locality" />
		<tag k="ssr:stedsnr" v="473345" />
	</node>
	<node lat="64.04365555906132" lon="12.135288888041261" id="-47552">
		<tag k="fixme" v="consider natural=peak for the most distinct mountains in the district" />
		<tag k="name" v="Damtjønnhevlan" />
		<tag k="natural" v="hill" />
		<tag k="place" v="locality" />
		<tag k="ssr:stedsnr" v="473491" />
	</node>
	<node lat="63.93193332926812" lon="11.81353611055018" id="-47555">
		<tag k="fixme" v="consider natural=peak for the most distinct mountains in the district" />
		<tag k="name" v="Verkersletthøgda" />
		<tag k="natural" v="hill" />
		<tag k="place" v="locality" />
		<tag k="ssr:stedsnr" v="473586" />
	</node>
	<node lat="63.92524166484019" lon="11.790688888957456" id="-47556">
		<tag k="name" v="Raffelhaugen" />
		<tag k="natural" v="hill" />
		<tag k="place" v="locality" />
		<tag k="ssr:stedsnr" v="473591" />
	</node>
	<node lat="63.97016111273084" lon="12.186977787113104" id="-47558">
		<tag k="fixme" v="consider natural=peak for the most distinct mountains in the district" />
		<tag k="name" v="Eliasklompen" />
		<tag k="natural" v="hill" />
		<tag k="place" v="locality" />
		<tag k="ssr:stedsnr" v="473640" />
	</node>
	<node lat="64.18994166970187" lon="11.756883327177656" id="-47560">
		<tag k="name" v="Tostenpynten" />
		<tag k="natural" v="hill" />
		<tag k="place" v="locality" />
		<tag k="ssr:stedsnr" v="473751" />
	</node>
	<node lat="64.288133335896" lon="11.82205833689203" id="-47562">
		<tag k="name" v="Trongen" />
		<tag k="place" v="locality" />
		<tag k="ssr:stedsnr" v="473849" />
	</node>
	<node lat="63.958497226405214" lon="11.72407777061286" id="-47563">
		<tag k="fixme" v="consider natural=peak for the most distinct mountains in the district" />
		<tag k="name" v="Mekalhalla" />
		<tag k="natural" v="hill" />
		<tag k="place" v="locality" />
		<tag k="ssr:stedsnr" v="473928" />
	</node>
	<node lat="64.0327972265726" lon="10.793700005577907" id="-47564">
		<tag k="name" v="Skamnaklompan" />
		<tag k="natural" v="hill" />
		<tag k="place" v="locality" />
		<tag k="ssr:stedsnr" v="350605" />
	</node>
	<node lat="63.92483610748723" lon="10.837877773173448" id="-47566">
		<tag k="name" v="Storhaugen" />
		<tag k="natural" v="hill" />
		<tag k="place" v="locality" />
		<tag k="ssr:stedsnr" v="351167" />
	</node>
	<node lat="64.22224166769492" lon="11.606122224377467" id="-47569">
		<tag k="name" v="Rognvassdalen" />
		<tag k="natural" v="valley" />
		<tag k="place" v="locality" />
		<tag k="ssr:stedsnr" v="351058" />
	</node>
	<node lat="64.22590277635199" lon="11.563463883667437" id="-47571">
		<tag k="fixme" v="consider natural=peak for the most distinct mountains in the district" />
		<tag k="name" v="Midterliheia" />
		<tag k="natural" v="hill" />
		<tag k="place" v="locality" />
		<tag k="ssr:stedsnr" v="351062" />
	</node>
	<node lat="63.826725002535206" lon="10.5247833319426" id="-47576">
		<tag k="name" v="Lauvhaugen" />
		<tag k="natural" v="hill" />
		<tag k="place" v="locality" />
		<tag k="ssr:stedsnr" v="351254" />
	</node>
	<node lat="64.15920000285772" lon="11.3551333235959" id="-47578">
		<tag k="fixme" v="consider natural=peak for the most distinct mountains in the district" />
		<tag k="name" v="Tomtliåsen" />
		<tag k="natural" v="hill" />
		<tag k="place" v="locality" />
		<tag k="ssr:stedsnr" v="351510" />
	</node>
	<node lat="64.15571111350847" lon="11.350613891536314" id="-47579">
		<tag k="name" v="Skjefthaugen" />
		<tag k="natural" v="hill" />
		<tag k="place" v="locality" />
		<tag k="ssr:stedsnr" v="351515" />
	</node>
	<node lat="64.12895555555261" lon="11.039300007279083" id="-47580">
		<tag k="fixme" v="consider natural=peak for the most distinct mountains in the district" />
		<tag k="name" v="Bjønnaheia" />
		<tag k="natural" v="hill" />
		<tag k="place" v="locality" />
		<tag k="ssr:stedsnr" v="351554" />
	</node>
	<node lat="64.1237083373593" lon="11.11316110749711" id="-47582">
		<tag k="name" v="Langvasshevlan" />
		<tag k="natural" v="ridge" />
		<tag k="place" v="locality" />
		<tag k="ssr:stedsnr" v="351562" />
	</node>
	<node lat="64.08690833654872" lon="11.161088886963174" id="-47583">
		<tag k="name" v="Tømtdalen" />
		<tag k="natural" v="valley" />
		<tag k="place" v="locality" />
		<tag k="ssr:stedsnr" v="351703" />
	</node>
	<node lat="63.96219999639918" lon="11.716638881389922" id="-47587">
		<tag k="name" v="Rundhaugen" />
		<tag k="natural" v="hill" />
		<tag k="place" v="locality" />
		<tag k="ssr:stedsnr" v="351913" />
	</node>
	<node lat="63.89648333367126" lon="11.451294434347403" id="-47597">
		<tag k="name" v="Klimpen" />
		<tag k="natural" v="hill" />
		<tag k="place" v="locality" />
		<tag k="ssr:stedsnr" v="355733" />
	</node>
	<node lat="64.09273888816863" lon="11.777550005201348" id="-47662">
		<tag k="alt_name" v="Lianhøgda" />
		<tag k="fixme" v="consider natural=peak for the most distinct mountains in the district" />
		<tag k="name" v="Lian" />
		<tag k="natural" v="hill" />
		<tag k="place" v="locality" />
		<tag k="ssr:stedsnr" v="378370" />
	</node>
	<node lat="63.96681388855625" lon="11.890447222082173" id="-47664">
		<tag k="name" v="Rugsvehalla" />
		<tag k="natural" v="slope" />
		<tag k="place" v="locality" />
		<tag k="ssr:stedsnr" v="378402" />
	</node>
	<node lat="64.02518888808278" lon="12.139844446426185" id="-47673">
		<tag k="fixme" v="consider natural=peak for the most distinct mountains in the district" />
		<tag k="name" v="Høghevilen" />
		<tag k="natural" v="hill" />
		<tag k="place" v="locality" />
		<tag k="ssr:stedsnr" v="378671" />
	</node>
	<node lat="64.06082777844874" lon="11.300541661101768" id="-47680">
		<tag k="fixme" v="consider natural=peak for the most distinct mountains in the district" />
		<tag k="name" v="Brandsåshalla" />
		<tag k="natural" v="hill" />
		<tag k="place" v="locality" />
		<tag k="ssr:stedsnr" v="386244" />
	</node>
	<node lat="64.0987527795339" lon="11.491555546608646" id="-47683">
		<tag k="name" v="Hallaberget" />
		<tag k="natural" v="cliff" />
		<tag k="ssr:stedsnr" v="386547" />
	</node>
	<node lat="64.11168889214032" lon="11.44905278711317" id="-47686">
		<tag k="name" v="Hamsåsberget" />
		<tag k="natural" v="hill" />
		<tag k="place" v="locality" />
		<tag k="ssr:stedsnr" v="386560" />
	</node>
	<node lat="64.14787500028986" lon="11.465369444842375" id="-47687">
		<tag k="name" v="Holmfetdalen" />
		<tag k="natural" v="valley" />
		<tag k="place" v="locality" />
		<tag k="ssr:stedsnr" v="386605" />
	</node>
	<node lat="64.08046944411078" lon="11.443008342635508" id="-47689">
		<tag k="fixme" v="consider natural=peak for the most distinct mountains in the district" />
		<tag k="name" v="Vassmyråsen" />
		<tag k="natural" v="hill" />
		<tag k="place" v="locality" />
		<tag k="ssr:stedsnr" v="386617" />
	</node>
	<node lat="64.12833610700405" lon="11.36122776908229" id="-47693">
		<tag k="name" v="Øystre Svartdalen" />
		<tag k="natural" v="valley" />
		<tag k="place" v="locality" />
		<tag k="ssr:stedsnr" v="386749" />
	</node>
	<node lat="64.0602416697391" lon="11.391141672039506" id="-47696">
		<tag k="name" v="Bjørnaberga" />
		<tag k="natural" v="hill" />
		<tag k="place" v="locality" />
		<tag k="ssr:stedsnr" v="386920" />
	</node>
	<node lat="64.06651110830478" lon="11.418522231020217" id="-47699">
		<tag k="name" v="Svarttjønna" />
		<tag k="natural" v="slope" />
		<tag k="place" v="locality" />
		<tag k="ssr:stedsnr" v="386900" />
	</node>
	<node lat="64.1947722194958" lon="11.401819437097021" id="-47703">
		<tag k="name" v="Evenhaugen" />
		<tag k="natural" v="hill" />
		<tag k="place" v="locality" />
		<tag k="ssr:stedsnr" v="390195" />
	</node>
	<node lat="63.880024996748986" lon="10.806447215575608" id="-47706">
		<tag k="fixme" v="consider natural=peak for the most distinct mountains in the district" />
		<tag k="name" v="Kammen" />
		<tag k="natural" v="hill" />
		<tag k="place" v="locality" />
		<tag k="ssr:stedsnr" v="392097" />
	</node>
	<node lat="64.15681944523247" lon="11.698941662657825" id="-47707">
		<tag k="name" v="Båsbakken" />
		<tag k="natural" v="slope" />
		<tag k="place" v="locality" />
		<tag k="ssr:stedsnr" v="392204" />
	</node>
	<node lat="64.14426110953949" lon="11.647647223198142" id="-47708">
		<tag k="name" v="Saksberget" />
		<tag k="natural" v="hill" />
		<tag k="place" v="locality" />
		<tag k="ssr:stedsnr" v="392206" />
	</node>
	<node lat="64.14108333057462" lon="11.7011583361735" id="-47709">
		<tag k="name" v="Veinesberget" />
		<tag k="natural" v="hill" />
		<tag k="place" v="locality" />
		<tag k="ssr:stedsnr" v="392209" />
	</node>
	<node lat="64.09578055464075" lon="11.72177777310886" id="-47710">
		<tag k="name" v="Furukollen" />
		<tag k="natural" v="hill" />
		<tag k="place" v="locality" />
		<tag k="ssr:stedsnr" v="392183" />
	</node>
	<node lat="63.96963055739108" lon="11.69356945084729" id="-47713">
		<tag k="name" v="Joholet" />
		<tag k="natural" v="valley" />
		<tag k="place" v="locality" />
		<tag k="ssr:stedsnr" v="392398" />
	</node>
	<node lat="63.96447777943982" lon="11.671938880364756" id="-47714">
		<tag k="fixme" v="consider natural=peak for the most distinct mountains in the district" />
		<tag k="name" v="Kolmilhevlan" />
		<tag k="natural" v="hill" />
		<tag k="place" v="locality" />
		<tag k="ssr:stedsnr" v="392399" />
	</node>
	<node lat="63.99150278234967" lon="11.73404721582592" id="-47715">
		<tag k="name" v="Randalen" />
		<tag k="natural" v="valley" />
		<tag k="place" v="locality" />
		<tag k="ssr:stedsnr" v="392286" />
	</node>
	<node lat="63.998738889442535" lon="11.760511109086927" id="-47716">
		<tag k="name" v="Litlstormyrhalla" />
		<tag k="natural" v="slope" />
		<tag k="place" v="locality" />
		<tag k="ssr:stedsnr" v="392289" />
	</node>
	<node lat="64.12744999826356" lon="11.890702783361728" id="-47718">
		<tag k="name" v="Styggdalan" />
		<tag k="natural" v="valley" />
		<tag k="place" v="locality" />
		<tag k="ssr:stedsnr" v="392835" />
	</node>
	<node lat="64.1593583321822" lon="11.820038895404796" id="-47719">
		<tag k="name" v="Mesundet" />
		<tag k="place" v="locality" />
		<tag k="ssr:stedsnr" v="392881" />
	</node>
	<node lat="64.04579444268623" lon="11.20094721626214" id="-47728">
		<tag k="name" v="Bjørnadalen" />
		<tag k="natural" v="valley" />
		<tag k="place" v="locality" />
		<tag k="ssr:stedsnr" v="393000" />
	</node>
	<node lat="63.93680832945817" lon="11.689922222527949" id="-47730">
		<tag k="name" v="Fanthaugen" />
		<tag k="natural" v="hill" />
		<tag k="place" v="locality" />
		<tag k="ssr:stedsnr" v="393333" />
	</node>
	<node lat="63.94147221954326" lon="11.675494450026854" id="-47731">
		<tag k="fixme" v="consider natural=peak for the most distinct mountains in the district" />
		<tag k="name" v="Storfuruhalla" />
		<tag k="natural" v="hill" />
		<tag k="place" v="locality" />
		<tag k="ssr:stedsnr" v="393336" />
	</node>
	<node lat="64.15116111213882" lon="11.325319443900137" id="-47753">
		<tag k="name" v="Kallslettet" />
		<tag k="place" v="locality" />
		<tag k="ssr:stedsnr" v="411503" />
	</node>
	<node lat="64.185625000771" lon="11.758713894710752" id="-47756">
		<tag k="name" v="Hevilen" />
		<tag k="natural" v="ridge" />
		<tag k="place" v="locality" />
		<tag k="ssr:stedsnr" v="412215" />
	</node>
	<node lat="64.27532499853861" lon="11.888822221723125" id="-47765">
		<tag k="fixme" v="consider natural=peak for the most distinct mountains in the district" />
		<tag k="name" v="Damhøgda" />
		<tag k="natural" v="hill" />
		<tag k="place" v="locality" />
		<tag k="ssr:stedsnr" v="412799" />
	</node>
	<node lat="63.96534444556077" lon="11.760863890140433" id="-47767">
		<tag k="name" v="Kjørdalen" />
		<tag k="natural" v="valley" />
		<tag k="place" v="locality" />
		<tag k="ssr:stedsnr" v="412913" />
	</node>
	<node lat="63.99303055103382" lon="12.098941674739663" id="-47772">
		<tag k="fixme" v="consider natural=peak for the most distinct mountains in the district" />
		<tag k="name" v="Leirbekkåsen" />
		<tag k="natural" v="hill" />
		<tag k="place" v="locality" />
		<tag k="ssr:stedsnr" v="413302" />
	</node>
	<node lat="63.93703055903535" lon="12.146291667684617" id="-47775">
		<tag k="fixme" v="consider natural=peak for the most distinct mountains in the district" />
		<tag k="name" v="Geitklompen" />
		<tag k="natural" v="hill" />
		<tag k="place" v="locality" />
		<tag k="ssr:stedsnr" v="413746" />
	</node>
	<node lat="64.09285833507555" lon="11.29027221910257" id="-47805">
		<tag k="name" v="Høgberget" />
		<tag k="natural" v="hill" />
		<tag k="place" v="locality" />
		<tag k="ssr:stedsnr" v="438208" />
	</node>
	<node lat="64.14340277846134" lon="11.737783342691046" id="-47810">
		<tag k="fixme" v="consider natural=peak for the most distinct mountains in the district" />
		<tag k="name" v="Kvamsåsen" />
		<tag k="natural" v="hill" />
		<tag k="place" v="locality" />
		<tag k="ssr:stedsnr" v="438298" />
	</node>
	<node lat="64.2413749970273" lon="11.792569447599076" id="-47811">
		<tag k="name" v="Purkheia" />
		<tag k="natural" v="hill" />
		<tag k="place" v="locality" />
		<tag k="ssr:stedsnr" v="438409" />
	</node>
	<node lat="63.979749998804515" lon="11.943122223127391" id="-47812">
		<tag k="fixme" v="consider natural=peak for the most distinct mountains in the district" />
		<tag k="name" v="Gyllenåsen" />
		<tag k="natural" v="hill" />
		<tag k="place" v="locality" />
		<tag k="ssr:stedsnr" v="438417" />
	</node>
	<node lat="64.18730832880922" lon="11.736825006478167" id="-47813">
		<tag k="name" v="Olknuten" />
		<tag k="natural" v="hill" />
		<tag k="place" v="locality" />
		<tag k="ssr:stedsnr" v="438466" />
	</node>
	<node lat="64.2060666663292" lon="11.974136115662972" id="-47815">
		<tag k="fixme" v="consider natural=peak for the most distinct mountains in the district" />
		<tag k="name" v="Klampen" />
		<tag k="natural" v="hill" />
		<tag k="place" v="locality" />
		<tag k="ssr:stedsnr" v="438475" />
	</node>
	<node lat="64.25517777346259" lon="11.853849997191354" id="-47816">
		<tag k="fixme" v="consider natural=peak for the most distinct mountains in the district" />
		<tag k="name" v="Omliheia" />
		<tag k="natural" v="hill" />
		<tag k="place" v="locality" />
		<tag k="ssr:stedsnr" v="438498" />
	</node>
	<node lat="63.96892777515071" lon="10.939430558636971" id="-47819">
		<tag k="fixme" v="consider natural=peak for the most distinct mountains in the district" />
		<tag k="name" v="Bannsettheia" />
		<tag k="natural" v="hill" />
		<tag k="place" v="locality" />
		<tag k="ssr:stedsnr" v="438554" />
	</node>
	<node lat="64.03340000045021" lon="11.938044441187117" id="-47822">
		<tag k="name" v="Skavdalen" />
		<tag k="natural" v="valley" />
		<tag k="place" v="locality" />
		<tag k="ssr:stedsnr" v="438648" />
	</node>
	<node lat="64.10779999881917" lon="11.683286115879518" id="-47833">
		<tag k="fixme" v="consider natural=peak for the most distinct mountains in the district" />
		<tag k="name" v="Limåsen" />
		<tag k="natural" v="hill" />
		<tag k="place" v="locality" />
		<tag k="ssr:stedsnr" v="439150" />
	</node>
	<node lat="64.09636110685122" lon="11.13104166714039" id="-47836">
		<tag k="name" v="Kamman" />
		<tag k="natural" v="hill" />
		<tag k="place" v="locality" />
		<tag k="ssr:stedsnr" v="439502" />
	</node>
	<node lat="64.0766499996556" lon="11.204866659671096" id="-47837">
		<tag k="alt_name" v="Storberget" />
		<tag k="name" v="Storåsberget" />
		<tag k="natural" v="hill" />
		<tag k="place" v="locality" />
		<tag k="ssr:stedsnr" v="439507" />
	</node>
	<node lat="63.91654722124974" lon="10.733150004566808" id="-47839">
		<tag k="fixme" v="consider natural=peak for the most distinct mountains in the district" />
		<tag k="loc_name:sma" v="Jorpetjahke" />
		<tag k="name" v="Trevassheia" />
		<tag k="name:no" v="Trevassheia" />
		<tag k="natural" v="hill" />
		<tag k="place" v="locality" />
		<tag k="ssr:stedsnr" v="439493" />
	</node>
	<node lat="63.93518055833562" lon="10.756377778469083" id="-47846">
		<tag k="name" v="Kløvheia" />
		<tag k="natural" v="hill" />
		<tag k="place" v="locality" />
		<tag k="ssr:stedsnr" v="439598" />
	</node>
	<node lat="63.99431666891941" lon="11.56764999333133" id="-47853">
		<tag k="name" v="Bruemsberga" />
		<tag k="natural" v="hill" />
		<tag k="place" v="locality" />
		<tag k="ssr:stedsnr" v="439946" />
	</node>
	<node lat="63.97248055165235" lon="11.571980547378962" id="-47854">
		<tag k="name" v="Ryanberga" />
		<tag k="natural" v="hill" />
		<tag k="place" v="locality" />
		<tag k="ssr:stedsnr" v="439998" />
	</node>
	<node lat="63.98134444560908" lon="11.53109166033443" id="-47858">
		<tag k="name" v="Ottarsklumpen" />
		<tag k="natural" v="hill" />
		<tag k="place" v="locality" />
		<tag k="ssr:stedsnr" v="446706" />
	</node>
	<node lat="64.05413055924598" lon="11.567133328334116" id="-47859">
		<tag k="name" v="Litlkleivdalen" />
		<tag k="natural" v="valley" />
		<tag k="place" v="locality" />
		<tag k="ssr:stedsnr" v="446724" />
	</node>
	<node lat="64.1021305547549" lon="11.245711113288923" id="-47862">
		<tag k="name" v="Vesterdalen" />
		<tag k="natural" v="valley" />
		<tag k="place" v="locality" />
		<tag k="ssr:stedsnr" v="447184" />
	</node>
	<node lat="64.04246666870309" lon="11.246405557930789" id="-47864">
		<tag k="fixme" v="consider natural=peak for the most distinct mountains in the district" />
		<tag k="name" v="Husmyrhalla" />
		<tag k="natural" v="hill" />
		<tag k="place" v="locality" />
		<tag k="ssr:stedsnr" v="447194" />
	</node>
	<node lat="64.0323000035182" lon="11.420291670794878" id="-47866">
		<tag k="name" v="Skotrøberget" />
		<tag k="natural" v="hill" />
		<tag k="place" v="locality" />
		<tag k="ssr:stedsnr" v="447574" />
	</node>
	<node lat="64.07861388981334" lon="11.3966194444639" id="-47869">
		<tag k="name" v="Raudberga" />
		<tag k="natural" v="hill" />
		<tag k="place" v="locality" />
		<tag k="ssr:stedsnr" v="447602" />
	</node>
	<node lat="64.07764444047012" lon="11.398469447891925" id="-47870">
		<tag k="fixme" v="consider natural=peak for the most distinct mountains in the district" />
		<tag k="name" v="Soppåsen" />
		<tag k="natural" v="hill" />
		<tag k="place" v="locality" />
		<tag k="ssr:stedsnr" v="447606" />
	</node>
	<node lat="64.07714999955041" lon="11.559708335977671" id="-47871">
		<tag k="name" v="Merkesdalen" />
		<tag k="natural" v="valley" />
		<tag k="place" v="locality" />
		<tag k="ssr:stedsnr" v="447610" />
	</node>
	<node lat="64.1111888906195" lon="11.52051111110209" id="-47872">
		<tag k="name" v="Melhusberga" />
		<tag k="natural" v="hill" />
		<tag k="place" v="locality" />
		<tag k="ssr:stedsnr" v="447621" />
	</node>
	<node lat="64.08716111456023" lon="11.272744440506676" id="-47877">
		<tag k="name" v="Hårråstokkdalen" />
		<tag k="natural" v="valley" />
		<tag k="place" v="locality" />
		<tag k="ssr:stedsnr" v="447822" />
	</node>
	<node lat="64.0883333319635" lon="11.257997218187542" id="-47878">
		<tag k="name" v="Slætteskvisten" />
		<tag k="place" v="locality" />
		<tag k="ssr:stedsnr" v="447828" />
	</node>
	<node lat="64.10193055998725" lon="11.32556943760169" id="-47885">
		<tag k="name" v="Svarthåmmåren" />
		<tag k="natural" v="hill" />
		<tag k="place" v="locality" />
		<tag k="ssr:stedsnr" v="447793" />
	</node>
	<node lat="63.888072221983016" lon="11.485036120172907" id="-47887">
		<tag k="fixme" v="consider natural=peak for the most distinct mountains in the district" />
		<tag k="name" v="Nonsåsen" />
		<tag k="natural" v="hill" />
		<tag k="place" v="locality" />
		<tag k="ssr:stedsnr" v="447929" />
	</node>
	<node lat="63.97343055967585" lon="11.830741665355466" id="-47892">
		<tag k="fixme" v="consider natural=peak for the most distinct mountains in the district" />
		<tag k="name" v="Tjønnåsen" />
		<tag k="natural" v="hill" />
		<tag k="place" v="locality" />
		<tag k="ssr:stedsnr" v="453009" />
	</node>
	<node lat="63.997324998510145" lon="11.120658341026862" id="-47899">
		<tag k="fixme" v="consider natural=peak for the most distinct mountains in the district" />
		<tag k="name" v="Svartåsen" />
		<tag k="natural" v="hill" />
		<tag k="place" v="locality" />
		<tag k="ssr:stedsnr" v="453122" />
	</node>
	<node lat="64.15637777340844" lon="11.658227779593503" id="-47901">
		<tag k="name" v="Halvkannberget" />
		<tag k="natural" v="hill" />
		<tag k="place" v="locality" />
		<tag k="ssr:stedsnr" v="453209" />
	</node>
	<node lat="64.14325555624698" lon="11.638783327590781" id="-47903">
		<tag k="name" v="Kvitberga" />
		<tag k="natural" v="hill" />
		<tag k="place" v="locality" />
		<tag k="ssr:stedsnr" v="453215" />
	</node>
	<node lat="64.04633055322567" lon="11.69749722870922" id="-47904">
		<tag k="name" v="Tortåshalla" />
		<tag k="natural" v="ridge" />
		<tag k="place" v="locality" />
		<tag k="ssr:stedsnr" v="453285" />
	</node>
	<node lat="64.07703888484167" lon="11.58363054812822" id="-47905">
		<tag k="name" v="Stamnvassdalen" />
		<tag k="natural" v="valley" />
		<tag k="place" v="locality" />
		<tag k="ssr:stedsnr" v="453402" />
	</node>
	<node lat="64.0751611153804" lon="11.597958331609073" id="-47906">
		<tag k="name" v="Holberga" />
		<tag k="natural" v="hill" />
		<tag k="place" v="locality" />
		<tag k="ssr:stedsnr" v="453405" />
	</node>
	<node lat="64.15620278186667" lon="11.63037499418954" id="-47907">
		<tag k="fixme" v="consider natural=peak for the most distinct mountains in the district" />
		<tag k="name" v="Seterhalla" />
		<tag k="natural" v="hill" />
		<tag k="place" v="locality" />
		<tag k="ssr:stedsnr" v="453415" />
	</node>
	<node lat="64.1552499963519" lon="11.621913893778899" id="-47908">
		<tag k="name" v="Finnhustjønndalen" />
		<tag k="natural" v="valley" />
		<tag k="place" v="locality" />
		<tag k="ssr:stedsnr" v="453416" />
	</node>
	<node lat="64.1323750037042" lon="11.601997228454046" id="-47910">
		<tag k="name" v="Kamdalen" />
		<tag k="natural" v="valley" />
		<tag k="place" v="locality" />
		<tag k="ssr:stedsnr" v="453425" />
	</node>
	<node lat="63.91103610704576" lon="11.632680550299018" id="-47913">
		<tag k="name" v="Raudhevlan" />
		<tag k="natural" v="hill" />
		<tag k="place" v="locality" />
		<tag k="ssr:stedsnr" v="453364" />
	</node>
	<node lat="64.19471666264329" lon="11.811613894421178" id="-47916">
		<tag k="fixme" v="consider natural=peak for the most distinct mountains in the district" />
		<tag k="name" v="Høgpynten" />
		<tag k="natural" v="hill" />
		<tag k="place" v="locality" />
		<tag k="ssr:stedsnr" v="453806" />
	</node>
	<node lat="64.11736666797307" lon="11.936086114103238" id="-47921">
		<tag k="fixme" v="consider natural=peak for the most distinct mountains in the district" />
		<tag k="name" v="Svarttjønnkammen" />
		<tag k="natural" v="hill" />
		<tag k="place" v="locality" />
		<tag k="ssr:stedsnr" v="453910" />
	</node>
	<node lat="63.99203610864198" lon="11.896902768998023" id="-47930">
		<tag k="name" v="Tørrisholet" />
		<tag k="natural" v="valley" />
		<tag k="place" v="locality" />
		<tag k="ssr:stedsnr" v="458179" />
	</node>
	<node lat="64.0053305591685" lon="10.972425002696797" id="-47941">
		<tag k="name" v="Svartberga" />
		<tag k="natural" v="hill" />
		<tag k="place" v="locality" />
		<tag k="ssr:stedsnr" v="472072" />
	</node>
	<node lat="63.9852194450561" lon="10.889111119457295" id="-47943">
		<tag k="name" v="Damhaugen" />
		<tag k="natural" v="hill" />
		<tag k="place" v="locality" />
		<tag k="ssr:stedsnr" v="472103" />
	</node>
	<node lat="63.99830555996494" lon="10.88461110262953" id="-47944">
		<tag k="name" v="Tjønnfjellet" />
		<tag k="natural" v="hill" />
		<tag k="place" v="locality" />
		<tag k="ssr:stedsnr" v="472113" />
	</node>
	<node lat="64.08811944675888" lon="11.1338388973665" id="-47947">
		<tag k="name" v="Langnesdalen" />
		<tag k="natural" v="valley" />
		<tag k="place" v="locality" />
		<tag k="ssr:stedsnr" v="472702" />
	</node>
	<node lat="64.00952222393907" lon="11.924702776855494" id="-47948">
		<tag k="name" v="Rundhaugen" />
		<tag k="natural" v="hill" />
		<tag k="place" v="locality" />
		<tag k="ssr:stedsnr" v="472877" />
	</node>
	<node lat="64.01043055540543" lon="11.14444999871501" id="-47949">
		<tag k="fixme" v="consider natural=peak for the most distinct mountains in the district" />
		<tag k="name" v="Hesjeåsen" />
		<tag k="natural" v="hill" />
		<tag k="place" v="locality" />
		<tag k="ssr:stedsnr" v="473019" />
	</node>
	<node lat="63.994547225898444" lon="11.001569452473563" id="-47956">
		<tag k="name" v="Storlia" />
		<tag k="natural" v="slope" />
		<tag k="place" v="locality" />
		<tag k="ssr:stedsnr" v="473061" />
	</node>
	<node lat="64.21759722244668" lon="11.757313893222964" id="-47957">
		<tag k="name" v="Imberdalen" />
		<tag k="natural" v="valley" />
		<tag k="place" v="locality" />
		<tag k="ssr:stedsnr" v="473203" />
	</node>
	<node lat="64.01656666619198" lon="12.115666671814274" id="-47963">
		<tag k="name" v="Kleivberget" />
		<tag k="natural" v="hill" />
		<tag k="place" v="locality" />
		<tag k="ssr:stedsnr" v="473276" />
	</node>
	<node lat="64.08423055131547" lon="11.785055559244231" id="-47966">
		<tag k="fixme" v="consider natural=peak for the most distinct mountains in the district" />
		<tag k="name" v="Ebbersåsen" />
		<tag k="natural" v="hill" />
		<tag k="place" v="locality" />
		<tag k="ssr:stedsnr" v="473804" />
	</node>
	<node lat="64.07300833507323" lon="11.799361119348704" id="-47967">
		<tag k="name" v="Ilådalen" />
		<tag k="natural" v="valley" />
		<tag k="place" v="locality" />
		<tag k="ssr:stedsnr" v="473810" />
	</node>
	<node lat="63.97504444799574" lon="12.155105546217856" id="-47969">
		<tag k="name" v="Damtjønndalen" />
		<tag k="natural" v="valley" />
		<tag k="place" v="locality" />
		<tag k="ssr:stedsnr" v="473713" />
	</node>
	<node lat="63.82142222583371" lon="10.513369445008061" id="-47995">
		<tag k="alt_name" v="Bjørklia" />
		<tag k="fixme" v="consider natural=peak for the most distinct mountains in the district" />
		<tag k="name" v="Bjørkliheia" />
		<tag k="natural" v="hill" />
		<tag k="place" v="locality" />
		<tag k="ssr:stedsnr" v="680552" />
	</node>
	<node lat="64.06524167077588" lon="11.77477222856411" id="-47997">
		<tag k="name" v="Sletthåggåhalla" />
		<tag k="natural" v="hill" />
		<tag k="place" v="locality" />
		<tag k="ssr:stedsnr" v="681321" />
	</node>
	<node lat="64.01807346451555" lon="11.361488125608151" id="-48008">
		<tag k="name" v="Måsklumpen" />
		<tag k="natural" v="hill" />
		<tag k="place" v="locality" />
		<tag k="ssr:stedsnr" v="681082" />
	</node>
	<node lat="63.912813890667685" lon="11.660897228869574" id="-48017">
		<tag k="fixme" v="consider natural=peak for the most distinct mountains in the district" />
		<tag k="name" v="Lyngvola" />
		<tag k="natural" v="hill" />
		<tag k="place" v="locality" />
		<tag k="ssr:stedsnr" v="681108" />
	</node>
	<node lat="64.04067928447101" lon="11.268931309543136" id="-48020">
		<tag k="name" v="Tuva" />
		<tag k="natural" v="hill" />
		<tag k="place" v="locality" />
		<tag k="ssr:stedsnr" v="681094" />
	</node>
	<node lat="64.10575833531284" lon="11.244705560326889" id="-48025">
		<tag k="name" v="Landsemdalen" />
		<tag k="natural" v="valley" />
		<tag k="place" v="locality" />
		<tag k="ssr:stedsnr" v="681175" />
	</node>
	<node lat="64.10053888748142" lon="11.226813887673067" id="-48035">
		<tag k="fixme" v="consider natural=peak for the most distinct mountains in the district" />
		<tag k="name" v="Tverråsen" />
		<tag k="natural" v="hill" />
		<tag k="place" v="locality" />
		<tag k="ssr:stedsnr" v="681136" />
	</node>
	<node lat="64.09585555970399" lon="11.56984444725961" id="-48037">
		<tag k="fixme" v="consider natural=peak for the most distinct mountains in the district" />
		<tag k="name" v="Vanderåskammen" />
		<tag k="natural" v="hill" />
		<tag k="place" v="locality" />
		<tag k="ssr:stedsnr" v="681217" />
	</node>
	<node lat="63.93857500423985" lon="11.67234721790353" id="-48039">
		<tag k="name" v="Eskildalen" />
		<tag k="natural" v="valley" />
		<tag k="place" v="locality" />
		<tag k="ssr:stedsnr" v="272320" />
	</node>
	<node lat="64.105166662803" lon="11.26551944351568" id="-48047">
		<tag k="fixme" v="consider natural=peak for the most distinct mountains in the district" />
		<tag k="name" v="Høgkamåsen" />
		<tag k="natural" v="hill" />
		<tag k="place" v="locality" />
		<tag k="ssr:stedsnr" v="499140" />
	</node>
	<node lat="64.07979166377342" lon="11.316419449427446" id="-48048">
		<tag k="name" v="Teksethøgda" />
		<tag k="natural" v="hill" />
		<tag k="place" v="locality" />
		<tag k="ssr:stedsnr" v="499146" />
	</node>
	<node lat="64.04924721911212" lon="12.103744448655148" id="-48050">
		<tag k="name" v="Roktdalen" />
		<tag k="natural" v="valley" />
		<tag k="place" v="locality" />
		<tag k="ssr:stedsnr" v="681297" />
	</node>
	<node lat="64.05014166402238" lon="12.046136114387757" id="-48052">
		<tag k="name" v="Heimheia" />
		<tag k="natural" v="hill" />
		<tag k="place" v="locality" />
		<tag k="ssr:stedsnr" v="681302" />
	</node>
	<node lat="63.974472219769716" lon="12.049791674257703" id="-48053">
		<tag k="name" v="Hyllvaddalen" />
		<tag k="natural" v="valley" />
		<tag k="place" v="locality" />
		<tag k="ssr:stedsnr" v="681377" />
	</node>
	<node lat="64.07273055547739" lon="12.064013881182458" id="-48058">
		<tag k="name" v="Gryta" />
		<tag k="natural" v="valley" />
		<tag k="place" v="locality" />
		<tag k="ssr:stedsnr" v="681327" />
	</node>
	<node lat="64.08605000045327" lon="11.97779444202916" id="-48066">
		<tag k="name" v="Gunnartjønndalen" />
		<tag k="natural" v="valley" />
		<tag k="place" v="locality" />
		<tag k="ssr:stedsnr" v="499291" />
	</node>
	<node lat="63.946955556181265" lon="11.866036119648392" id="-48070">
		<tag k="fixme" v="consider natural=peak for the most distinct mountains in the district" />
		<tag k="name" v="Svartbekkhalla" />
		<tag k="natural" v="hill" />
		<tag k="place" v="locality" />
		<tag k="ssr:stedsnr" v="499405" />
	</node>
	<node lat="63.94324999898308" lon="11.923341664560237" id="-48072">
		<tag k="name" v="Grefsdalshalla" />
		<tag k="natural" v="hill" />
		<tag k="place" v="locality" />
		<tag k="ssr:stedsnr" v="499408" />
	</node>
	<node lat="63.925488886618496" lon="11.827252777615008" id="-48073">
		<tag k="alt_name" v="Bjønnhaugen" />
		<tag k="fixme" v="consider natural=peak for the most distinct mountains in the district" />
		<tag k="name" v="Bjørnåsen" />
		<tag k="natural" v="hill" />
		<tag k="place" v="locality" />
		<tag k="ssr:stedsnr" v="499410" />
	</node>
	<node lat="64.0921932449214" lon="11.984117357173202" id="-48077">
		<tag k="name" v="Langseterdalen" />
		<tag k="natural" v="valley" />
		<tag k="place" v="locality" />
		<tag k="ssr:stedsnr" v="681346" />
	</node>
	<node lat="64.09778888960882" lon="11.966361110094766" id="-48079">
		<tag k="fixme" v="consider natural=peak for the most distinct mountains in the district" />
		<tag k="name" v="Langseterheia" />
		<tag k="natural" v="hill" />
		<tag k="place" v="locality" />
		<tag k="ssr:stedsnr" v="499303" />
	</node>
	<node lat="64.23626389067145" lon="11.838152771617606" id="-48082">
		<tag k="name" v="Kristofferhaugen" />
		<tag k="natural" v="hill" />
		<tag k="place" v="locality" />
		<tag k="ssr:stedsnr" v="499337" />
	</node>
	<node lat="63.967141670232316" lon="12.072661103360694" id="-48083">
		<tag k="fixme" v="consider natural=peak for the most distinct mountains in the district" />
		<tag k="name" v="Grindmyråsen" />
		<tag k="natural" v="hill" />
		<tag k="place" v="locality" />
		<tag k="ssr:stedsnr" v="499344" />
	</node>
	<node lat="63.989283335293976" lon="11.040227770569818" id="-48084">
		<tag k="fixme" v="consider natural=peak for the most distinct mountains in the district" />
		<tag k="name" v="Follaheia" />
		<tag k="natural" v="hill" />
		<tag k="place" v="locality" />
		<tag k="ssr:stedsnr" v="499534" />
	</node>
	<node lat="64.0450249996858" lon="12.001533324262216" id="-48091">
		<tag k="fixme" v="consider natural=peak for the most distinct mountains in the district" />
		<tag k="name" v="Roktheia" />
		<tag k="natural" v="hill" />
		<tag k="place" v="locality" />
		<tag k="ssr:stedsnr" v="499584" />
	</node>
	<node lat="64.04279999604277" lon="12.191113896841452" id="-48092">
		<tag k="fixme" v="consider natural=peak for the most distinct mountains in the district" />
		<tag k="name" v="Grønberget" />
		<tag k="natural" v="hill" />
		<tag k="place" v="locality" />
		<tag k="ssr:stedsnr" v="499587" />
	</node>
	<node lat="64.00231111247771" lon="11.131686113724408" id="-48097">
		<tag k="name" v="Gortjønnhøgda" />
		<tag k="natural" v="hill" />
		<tag k="place" v="locality" />
		<tag k="ssr:stedsnr" v="499881" />
	</node>
	<node lat="64.01801389254545" lon="11.191297225845831" id="-48098">
		<tag k="name" v="Bresten" />
		<tag k="natural" v="hill" />
		<tag k="place" v="locality" />
		<tag k="ssr:stedsnr" v="499888" />
	</node>
	<node lat="64.0894583300848" lon="10.983763889587104" id="-48101">
		<tag k="fixme" v="multiple name tags, choose one and add the other to alt_name; consider natural=peak for the most distinct mountains in the district" />
		<tag k="name" v="Helvetesåsen;Litlheia" />
		<tag k="natural" v="hill" />
		<tag k="place" v="locality" />
		<tag k="ssr:stedsnr" v="681531" />
	</node>
	<node lat="63.940136107859345" lon="10.93939721366479" id="-48109">
		<tag k="name" v="Buahaugen" />
		<tag k="natural" v="hill" />
		<tag k="place" v="locality" />
		<tag k="ssr:stedsnr" v="681613" />
	</node>
	<node lat="63.946811112345436" lon="10.865311116864056" id="-48111">
		<tag k="fixme" v="consider natural=peak for the most distinct mountains in the district" />
		<tag k="loc_name:sma" v="Gierkietjahke" />
		<tag k="name" v="Steinheia" />
		<tag k="name:no" v="Steinheia" />
		<tag k="natural" v="hill" />
		<tag k="place" v="locality" />
		<tag k="ssr:stedsnr" v="681617" />
	</node>
	<node lat="64.119422224685" lon="11.182888891693814" id="-48113">
		<tag k="fixme" v="consider natural=peak for the most distinct mountains in the district" />
		<tag k="name" v="Skurven" />
		<tag k="natural" v="hill" />
		<tag k="place" v="locality" />
		<tag k="ssr:stedsnr" v="681624" />
	</node>
	<node lat="64.25244722477957" lon="11.931552781543871" id="-48118">
		<tag k="fixme" v="consider natural=peak for the most distinct mountains in the district" />
		<tag k="name" v="Staverheia" />
		<tag k="natural" v="hill" />
		<tag k="place" v="locality" />
		<tag k="ssr:stedsnr" v="681491" />
	</node>
	<node lat="64.15272778165125" lon="11.375649999209962" id="-48128">
		<tag k="alt_name" v="Kvinnhhaugen" />
		<tag k="fixme" v="consider natural=peak for the most distinct mountains in the district" />
		<tag k="name" v="Kvinnhalla" />
		<tag k="natural" v="hill" />
		<tag k="place" v="locality" />
		<tag k="ssr:stedsnr" v="681772" />
	</node>
	<node lat="64.15290833333344" lon="11.51073889681556" id="-48129">
		<tag k="fixme" v="consider natural=peak for the most distinct mountains in the district" />
		<tag k="name" v="Liakammen" />
		<tag k="natural" v="hill" />
		<tag k="place" v="locality" />
		<tag k="ssr:stedsnr" v="681775" />
	</node>
	<node lat="64.1467888870553" lon="11.317088886721692" id="-48130">
		<tag k="fixme" v="consider natural=peak for the most distinct mountains in the district" />
		<tag k="name" v="Tørringfjellet" />
		<tag k="natural" v="hill" />
		<tag k="place" v="locality" />
		<tag k="ssr:stedsnr" v="681782" />
	</node>
	<node lat="64.0505500003995" lon="11.063141667335758" id="-48136">
		<tag k="name" v="Ratliin" />
		<tag k="natural" v="slope" />
		<tag k="place" v="locality" />
		<tag k="ssr:stedsnr" v="681944" />
	</node>
	<node lat="64.05381389045635" lon="11.093566661845603" id="-48137">
		<tag k="name" v="Småhaugan" />
		<tag k="natural" v="hill" />
		<tag k="place" v="locality" />
		<tag k="ssr:stedsnr" v="681948" />
	</node>
	<node lat="63.96081666507933" lon="11.690216674784025" id="-48139">
		<tag k="name" v="Tjuvdalen" />
		<tag k="natural" v="valley" />
		<tag k="place" v="locality" />
		<tag k="ssr:stedsnr" v="681900" />
	</node>
	<node lat="64.059061108531" lon="11.330883343163945" id="-48145">
		<tag k="name" v="Kvitberget" />
		<tag k="natural" v="hill" />
		<tag k="place" v="locality" />
		<tag k="ssr:stedsnr" v="507216" />
	</node>
	<node lat="64.129636109653" lon="11.385236118352106" id="-48147">
		<tag k="fixme" v="consider natural=peak for the most distinct mountains in the district" />
		<tag k="name" v="Kristianhalla" />
		<tag k="natural" v="hill" />
		<tag k="place" v="locality" />
		<tag k="ssr:stedsnr" v="507475" />
	</node>
	<node lat="64.08966388956394" lon="11.541111118016754" id="-48149">
		<tag k="name" v="Buasveet" />
		<tag k="place" v="locality" />
		<tag k="ssr:stedsnr" v="507659" />
	</node>
	<node lat="64.04958611120418" lon="11.279991658266354" id="-48152">
		<tag k="name" v="Skopinnholmen" />
		<tag k="natural" v="hill" />
		<tag k="place" v="locality" />
		<tag k="ssr:stedsnr" v="508220" />
	</node>
	<node lat="64.04617500119419" lon="11.249580554300438" id="-48153">
		<tag k="fixme" v="consider natural=peak for the most distinct mountains in the district" />
		<tag k="name" v="Josvehalla" />
		<tag k="natural" v="hill" />
		<tag k="place" v="locality" />
		<tag k="ssr:stedsnr" v="508222" />
	</node>
	<node lat="64.1057999972688" lon="11.262411101522781" id="-48155">
		<tag k="name" v="Kjerringdalen" />
		<tag k="natural" v="valley" />
		<tag k="place" v="locality" />
		<tag k="ssr:stedsnr" v="508191" />
	</node>
	<node lat="64.09021666364268" lon="11.529727787678299" id="-48156">
		<tag k="fixme" v="consider natural=peak for the most distinct mountains in the district" />
		<tag k="name" v="Saursaunberga" />
		<tag k="natural" v="hill" />
		<tag k="place" v="locality" />
		<tag k="ssr:stedsnr" v="508654" />
	</node>
	<node lat="63.982766669414914" lon="11.44333610117759" id="-48167">
		<tag k="fixme" v="consider natural=peak for the most distinct mountains in the district" />
		<tag k="name" v="Frøsetåsen" />
		<tag k="natural" v="hill" />
		<tag k="place" v="locality" />
		<tag k="ssr:stedsnr" v="508894" />
	</node>
	<node lat="64.06415833385068" lon="11.395541674469719" id="-48171">
		<tag k="name" v="Merkeshaugen" />
		<tag k="natural" v="hill" />
		<tag k="place" v="locality" />
		<tag k="ssr:stedsnr" v="508917" />
	</node>
	<node lat="63.937808330816495" lon="11.466074997528521" id="-48173">
		<tag k="name" v="Grindberg" />
		<tag k="natural" v="hill" />
		<tag k="place" v="locality" />
		<tag k="ssr:stedsnr" v="508987" />
	</node>
	<node lat="63.90807778061358" lon="11.49079444041672" id="-48174">
		<tag k="name" v="Sognan" />
		<tag k="natural" v="valley" />
		<tag k="place" v="locality" />
		<tag k="ssr:stedsnr" v="508997" />
	</node>
	<node lat="63.784666665247265" lon="10.47506666617932" id="-48182">
		<tag k="name" v="Kjørdalen" />
		<tag k="natural" v="valley" />
		<tag k="place" v="locality" />
		<tag k="ssr:stedsnr" v="514007" />
	</node>
	<node lat="63.98562500220117" lon="11.126647224838559" id="-48189">
		<tag k="name" v="Kistvikberga" />
		<tag k="natural" v="hill" />
		<tag k="place" v="locality" />
		<tag k="ssr:stedsnr" v="514110" />
	</node>
	<node lat="64.17183611064158" lon="11.749638895797368" id="-48191">
		<tag k="name" v="Brennberga" />
		<tag k="natural" v="hill" />
		<tag k="place" v="locality" />
		<tag k="ssr:stedsnr" v="514120" />
	</node>
	<node lat="63.9940555542111" lon="11.125655555851413" id="-48192">
		<tag k="name" v="Bonningstekkdalen" />
		<tag k="natural" v="valley" />
		<tag k="place" v="locality" />
		<tag k="ssr:stedsnr" v="514121" />
	</node>
	<node lat="64.11117222355811" lon="11.717469447405227" id="-48193">
		<tag k="name" v="Svedalen" />
		<tag k="natural" v="valley" />
		<tag k="place" v="locality" />
		<tag k="ssr:stedsnr" v="514172" />
	</node>
	<node lat="64.10541666551242" lon="11.745469450549436" id="-48195">
		<tag k="name" v="Svartdalen" />
		<tag k="natural" v="valley" />
		<tag k="place" v="locality" />
		<tag k="ssr:stedsnr" v="514178" />
	</node>
	<node lat="64.02401944653332" lon="11.757577775179218" id="-48197">
		<tag k="name" v="Finstadhallin" />
		<tag k="natural" v="slope" />
		<tag k="place" v="locality" />
		<tag k="ssr:stedsnr" v="514405" />
	</node>
	<node lat="64.07695833264611" lon="11.609941670758904" id="-48198">
		<tag k="name" v="Bursåsen" />
		<tag k="place" v="locality" />
		<tag k="ssr:stedsnr" v="514413" />
	</node>
	<node lat="64.15182221984728" lon="11.584005563911347" id="-48199">
		<tag k="name" v="Moagjøta" />
		<tag k="natural" v="valley" />
		<tag k="place" v="locality" />
		<tag k="ssr:stedsnr" v="514418" />
	</node>
	<node lat="64.04757500155611" lon="11.552294453221982" id="-48205">
		<tag k="name" v="Byakammen" />
		<tag k="natural" v="hill" />
		<tag k="place" v="locality" />
		<tag k="ssr:stedsnr" v="514521" />
	</node>
	<node lat="64.01741667106485" lon="11.554805556875232" id="-48206">
		<tag k="name" v="Geitaberget" />
		<tag k="natural" v="hill" />
		<tag k="place" v="locality" />
		<tag k="ssr:stedsnr" v="514862" />
	</node>
	<node lat="64.1842972216118" lon="11.887422231296915" id="-48207">
		<tag k="fixme" v="consider natural=peak for the most distinct mountains in the district" />
		<tag k="name" v="Høgåsen" />
		<tag k="natural" v="hill" />
		<tag k="place" v="locality" />
		<tag k="ssr:stedsnr" v="514863" />
	</node>
	<node lat="64.13701388942032" lon="11.95122222322858" id="-48212">
		<tag k="name" v="Heggnesan" />
		<tag k="place" v="locality" />
		<tag k="ssr:stedsnr" v="514882" />
	</node>
	<node lat="64.00229444052975" lon="11.49031388235954" id="-48218">
		<tag k="fixme" v="consider natural=peak for the most distinct mountains in the district" />
		<tag k="name" v="Løsberga" />
		<tag k="natural" v="hill" />
		<tag k="place" v="locality" />
		<tag k="ssr:stedsnr" v="514923" />
	</node>
	<node lat="64.07447499947847" lon="11.198227782668974" id="-48219">
		<tag k="fixme" v="consider natural=peak for the most distinct mountains in the district" />
		<tag k="name" v="Storåsen" />
		<tag k="natural" v="hill" />
		<tag k="place" v="locality" />
		<tag k="ssr:stedsnr" v="514962" />
	</node>
	<node lat="64.08767778220727" lon="11.038277783846963" id="-48237">
		<tag k="fixme" v="consider natural=peak for the most distinct mountains in the district" />
		<tag k="name" v="Grønliheia" />
		<tag k="natural" v="hill" />
		<tag k="place" v="locality" />
		<tag k="ssr:stedsnr" v="533669" />
	</node>
	<node lat="64.15378888530026" lon="11.38349444155229" id="-48239">
		<tag k="name" v="Kvinnhaugliin" />
		<tag k="natural" v="slope" />
		<tag k="place" v="locality" />
		<tag k="ssr:stedsnr" v="533511" />
	</node>
	<node lat="64.15469722389109" lon="11.318800009528427" id="-48240">
		<tag k="name" v="Nedre Tjønnmyra" />
		<tag k="natural" v="hill" />
		<tag k="place" v="locality" />
		<tag k="ssr:stedsnr" v="533524" />
	</node>
	<node lat="64.02755833239644" lon="11.858433332192265" id="-48244">
		<tag k="name" v="Seterberget" />
		<tag k="natural" v="hill" />
		<tag k="place" v="locality" />
		<tag k="ssr:stedsnr" v="533922" />
	</node>
	<node lat="64.22115833181418" lon="11.664738897521225" id="-48248">
		<tag k="fixme" v="consider natural=peak for the most distinct mountains in the district" />
		<tag k="name" v="Grønliklompen" />
		<tag k="natural" v="hill" />
		<tag k="place" v="locality" />
		<tag k="ssr:stedsnr" v="534204" />
	</node>
	<node lat="64.18255277451033" lon="11.70613610912382" id="-48249">
		<tag k="name" v="Bjønnadalen" />
		<tag k="natural" v="valley" />
		<tag k="place" v="locality" />
		<tag k="ssr:stedsnr" v="534214" />
	</node>
	<node lat="64.00476944603483" lon="12.292466657977537" id="-48251">
		<tag k="name" v="Andreastjønnhaugen" />
		<tag k="natural" v="hill" />
		<tag k="place" v="locality" />
		<tag k="ssr:stedsnr" v="534311" />
	</node>
	<node lat="64.00970833394132" lon="12.226877782727867" id="-48252">
		<tag k="name" v="Langdalen" />
		<tag k="natural" v="valley" />
		<tag k="place" v="locality" />
		<tag k="ssr:stedsnr" v="534314" />
	</node>
	<node lat="64.20566388879696" lon="11.90413333043487" id="-48258">
		<tag k="fixme" v="consider natural=peak for the most distinct mountains in the district" />
		<tag k="name" v="Bumyråsen" />
		<tag k="natural" v="hill" />
		<tag k="place" v="locality" />
		<tag k="ssr:stedsnr" v="534819" />
	</node>
	<node lat="63.993369440568095" lon="10.876247213726048" id="-48268">
		<tag k="fixme" v="consider natural=peak for the most distinct mountains in the district" />
		<tag k="name" v="Nyfjellet" />
		<tag k="natural" v="hill" />
		<tag k="place" v="locality" />
		<tag k="ssr:stedsnr" v="542770" />
	</node>
	<node lat="64.11971388535801" lon="11.621911109545144" id="-48287">
		<tag k="fixme" v="consider natural=peak for the most distinct mountains in the district" />
		<tag k="name" v="Knesåsen" />
		<tag k="natural" v="hill" />
		<tag k="place" v="locality" />
		<tag k="ssr:stedsnr" v="559147" />
	</node>
	<node lat="64.12168333140971" lon="11.344663888438767" id="-48289">
		<tag k="name" v="Hjellhøgda" />
		<tag k="natural" v="hill" />
		<tag k="place" v="locality" />
		<tag k="ssr:stedsnr" v="559150" />
	</node>
	<node lat="63.87551111464782" lon="11.51408054748542" id="-48290">
		<tag k="name" v="Bjørndalen" />
		<tag k="natural" v="valley" />
		<tag k="place" v="locality" />
		<tag k="ssr:stedsnr" v="688979" />
	</node>
	<node lat="63.97702777914836" lon="11.75925276913184" id="-48295">
		<tag k="name" v="Høghaugen" />
		<tag k="natural" v="hill" />
		<tag k="place" v="locality" />
		<tag k="ssr:stedsnr" v="559409" />
	</node>
	<node lat="64.11362222271676" lon="11.188880561148" id="-48296">
		<tag k="name" v="Seterliklumpen" />
		<tag k="natural" v="hill" />
		<tag k="place" v="locality" />
		<tag k="ssr:stedsnr" v="559489" />
	</node>
	<node lat="64.11747778171089" lon="10.968550004171018" id="-48297">
		<tag k="alt_name" v="Finnburhaugen" />
		<tag k="name" v="Finnburshaugen" />
		<tag k="natural" v="hill" />
		<tag k="place" v="locality" />
		<tag k="ssr:stedsnr" v="559494" />
	</node>
	<node lat="64.272799996923" lon="11.77256389268635" id="-48301">
		<tag k="fixme" v="consider natural=peak for the most distinct mountains in the district" />
		<tag k="name" v="Spøtthatten" />
		<tag k="natural" v="hill" />
		<tag k="place" v="locality" />
		<tag k="ssr:stedsnr" v="559613" />
	</node>
	<node lat="64.06392500325978" lon="11.521669448472156" id="-48308">
		<tag k="name" v="Asphaugen" />
		<tag k="natural" v="hill" />
		<tag k="place" v="locality" />
		<tag k="ssr:stedsnr" v="560038" />
	</node>
	<node lat="64.02535277757329" lon="11.125274994558545" id="-48313">
		<tag k="fixme" v="consider natural=peak for the most distinct mountains in the district" />
		<tag k="name" v="Vadåsen" />
		<tag k="natural" v="hill" />
		<tag k="place" v="locality" />
		<tag k="ssr:stedsnr" v="559986" />
	</node>
	<node lat="63.921422218929635" lon="10.821675005418275" id="-48320">
		<tag k="name" v="Seterhaugen" />
		<tag k="natural" v="hill" />
		<tag k="place" v="locality" />
		<tag k="ssr:stedsnr" v="560533" />
	</node>
	<node lat="63.931611110703024" lon="11.887102782697688" id="-48321">
		<tag k="name" v="Langhaugen" />
		<tag k="natural" v="hill" />
		<tag k="place" v="locality" />
		<tag k="ssr:stedsnr" v="560502" />
	</node>
	<node lat="64.00711666858318" lon="11.088291660170016" id="-48324">
		<tag k="fixme" v="consider natural=peak for the most distinct mountains in the district" />
		<tag k="name" v="Almliheia" />
		<tag k="natural" v="hill" />
		<tag k="place" v="locality" />
		<tag k="ssr:stedsnr" v="560905" />
	</node>
	<node lat="64.2364249989911" lon="11.568511118544006" id="-48325">
		<tag k="name" v="Gjerstaddalen" />
		<tag k="natural" v="valley" />
		<tag k="place" v="locality" />
		<tag k="ssr:stedsnr" v="560888" />
	</node>
	<node lat="63.98543332993187" lon="11.549969447423262" id="-48331">
		<tag k="name" v="Finnkoiberget" />
		<tag k="natural" v="hill" />
		<tag k="place" v="locality" />
		<tag k="ssr:stedsnr" v="689648" />
	</node>
	<node lat="64.10694722045886" lon="11.270541670928113" id="-48335">
		<tag k="name" v="Kvitbergdalen" />
		<tag k="natural" v="valley" />
		<tag k="place" v="locality" />
		<tag k="ssr:stedsnr" v="690214" />
	</node>
	<node lat="64.04116944396009" lon="11.368525005590083" id="-48342">
		<tag k="fixme" v="consider natural=peak for the most distinct mountains in the district" />
		<tag k="name" v="Håmmårshalla" />
		<tag k="natural" v="hill" />
		<tag k="place" v="locality" />
		<tag k="ssr:stedsnr" v="690241" />
	</node>
	<node lat="64.08125555303717" lon="11.41219166101496" id="-48343">
		<tag k="name" v="Tessemskramdalen" />
		<tag k="natural" v="valley" />
		<tag k="place" v="locality" />
		<tag k="ssr:stedsnr" v="690664" />
	</node>
	<node lat="63.925822224899015" lon="11.52148055538828" id="-48344">
		<tag k="fixme" v="consider natural=peak for the most distinct mountains in the district" />
		<tag k="name" v="Gauksåsen" />
		<tag k="natural" v="hill" />
		<tag k="place" v="locality" />
		<tag k="ssr:stedsnr" v="690749" />
	</node>
	<node lat="64.10735555661208" lon="11.273316665460989" id="-48354">
		<tag k="fixme" v="consider natural=peak for the most distinct mountains in the district" />
		<tag k="name" v="Melhalla" />
		<tag k="natural" v="hill" />
		<tag k="place" v="locality" />
		<tag k="ssr:stedsnr" v="690839" />
	</node>
	<node lat="64.05781388931702" lon="11.432638898843607" id="-48355">
		<tag k="fixme" v="consider natural=peak for the most distinct mountains in the district" />
		<tag k="name" v="Lauvåshalla" />
		<tag k="natural" v="hill" />
		<tag k="place" v="locality" />
		<tag k="ssr:stedsnr" v="690936" />
	</node>
	<node lat="64.05224166527604" lon="11.466244452130667" id="-48356">
		<tag k="fixme" v="consider natural=peak for the most distinct mountains in the district" />
		<tag k="name" v="Vassåsen" />
		<tag k="natural" v="hill" />
		<tag k="place" v="locality" />
		<tag k="ssr:stedsnr" v="690938" />
	</node>
	<node lat="64.05825555825491" lon="11.485050006095472" id="-48357">
		<tag k="fixme" v="consider natural=peak for the most distinct mountains in the district" />
		<tag k="name" v="Nerengåsen" />
		<tag k="natural" v="hill" />
		<tag k="place" v="locality" />
		<tag k="ssr:stedsnr" v="690941" />
	</node>
	<node lat="63.87658889017161" lon="11.454936106444155" id="-48360">
		<tag k="name" v="Gunnarberga" />
		<tag k="natural" v="hill" />
		<tag k="place" v="locality" />
		<tag k="ssr:stedsnr" v="690963" />
	</node>
	<node lat="63.931830559816426" lon="11.433394448770827" id="-48362">
		<tag k="name" v="Grønskhaugen" />
		<tag k="natural" v="hill" />
		<tag k="place" v="locality" />
		<tag k="ssr:stedsnr" v="690975" />
	</node>
	<node lat="64.04421389021758" lon="11.28014722638749" id="-48368">
		<tag k="name" v="Bjørnadalen" />
		<tag k="natural" v="valley" />
		<tag k="place" v="locality" />
		<tag k="ssr:stedsnr" v="691254" />
	</node>
	<node lat="64.14840000408616" lon="11.44228889233812" id="-48369">
		<tag k="fixme" v="consider natural=peak for the most distinct mountains in the district" />
		<tag k="name" v="Røseggheia" />
		<tag k="natural" v="hill" />
		<tag k="place" v="locality" />
		<tag k="ssr:stedsnr" v="691497" />
	</node>
	<node lat="63.876908336169585" lon="11.557994452320811" id="-48375">
		<tag k="fixme" v="consider natural=peak for the most distinct mountains in the district" />
		<tag k="name" v="Seteråsen" />
		<tag k="natural" v="hill" />
		<tag k="place" v="locality" />
		<tag k="ssr:stedsnr" v="567518" />
	</node>
	<node lat="63.88533888988857" lon="11.504577783373204" id="-48376">
		<tag k="fixme" v="consider natural=peak for the most distinct mountains in the district" />
		<tag k="name" v="Tjønnåsen" />
		<tag k="natural" v="hill" />
		<tag k="place" v="locality" />
		<tag k="ssr:stedsnr" v="567527" />
	</node>
	<node lat="64.0877666709069" lon="11.51432777406849" id="-48377">
		<tag k="name" v="Rundholmen" />
		<tag k="natural" v="hill" />
		<tag k="place" v="locality" />
		<tag k="ssr:stedsnr" v="567621" />
	</node>
	<node lat="64.0784805510615" lon="11.410511115354135" id="-48383">
		<tag k="name" v="Litlskramdalen" />
		<tag k="natural" v="valley" />
		<tag k="place" v="locality" />
		<tag k="ssr:stedsnr" v="568610" />
	</node>
	<node lat="64.08916666775217" lon="11.545038885043944" id="-48385">
		<tag k="name" v="Skjetndalen" />
		<tag k="natural" v="valley" />
		<tag k="place" v="locality" />
		<tag k="ssr:stedsnr" v="568613" />
	</node>
	<node lat="64.07541944020427" lon="11.556961112810502" id="-48386">
		<tag k="fixme" v="consider natural=peak for the most distinct mountains in the district" />
		<tag k="name" v="Høgåshalla" />
		<tag k="natural" v="hill" />
		<tag k="place" v="locality" />
		<tag k="ssr:stedsnr" v="568616" />
	</node>
	<node lat="63.890066663505436" lon="11.508297230322764" id="-48390">
		<tag k="fixme" v="consider natural=peak for the most distinct mountains in the district" />
		<tag k="name" v="Skrauggåsen" />
		<tag k="natural" v="hill" />
		<tag k="place" v="locality" />
		<tag k="ssr:stedsnr" v="568515" />
	</node>
	<node lat="64.11784722290987" lon="11.497661103551366" id="-48391">
		<tag k="name" v="Bukkaholet" />
		<tag k="natural" v="valley" />
		<tag k="place" v="locality" />
		<tag k="ssr:stedsnr" v="568520" />
	</node>
	<node lat="64.11341389071443" lon="11.415974999888446" id="-48393">
		<tag k="name" v="Brattbergstien" />
		<tag k="natural" v="valley" />
		<tag k="place" v="locality" />
		<tag k="ssr:stedsnr" v="568564" />
	</node>
	<node lat="64.05853888768888" lon="11.551508336328556" id="-48394">
		<tag k="fixme" v="consider natural=peak for the most distinct mountains in the district" />
		<tag k="name" v="Svartvasshalla" />
		<tag k="natural" v="hill" />
		<tag k="place" v="locality" />
		<tag k="ssr:stedsnr" v="568704" />
	</node>
	<node lat="64.11336667005894" lon="11.529252779940173" id="-48395">
		<tag k="name" v="Svartdalen" />
		<tag k="natural" v="valley" />
		<tag k="place" v="locality" />
		<tag k="ssr:stedsnr" v="568710" />
	</node>
	<node lat="64.09351944827327" lon="11.275499999982896" id="-48401">
		<tag k="name" v="Stordalen" />
		<tag k="natural" v="valley" />
		<tag k="place" v="locality" />
		<tag k="ssr:stedsnr" v="568822" />
	</node>
	<node lat="63.97277500261108" lon="11.432344436782364" id="-48402">
		<tag k="fixme" v="consider natural=peak for the most distinct mountains in the district" />
		<tag k="name" v="Lænnberget" />
		<tag k="natural" v="hill" />
		<tag k="place" v="locality" />
		<tag k="ssr:stedsnr" v="568861" />
	</node>
	<node lat="63.98090277765549" lon="11.446911117583134" id="-48404">
		<tag k="name" v="Korpberget" />
		<tag k="natural" v="hill" />
		<tag k="place" v="locality" />
		<tag k="ssr:stedsnr" v="568871" />
	</node>
	<node lat="64.1356472186412" lon="11.412102787258412" id="-48406">
		<tag k="name" v="Litlenghaugen" />
		<tag k="natural" v="hill" />
		<tag k="place" v="locality" />
		<tag k="ssr:stedsnr" v="569512" />
	</node>
	<node lat="64.27171944488951" lon="11.823902776300171" id="-48411">
		<tag k="name" v="Nordskurven" />
		<tag k="natural" v="hill" />
		<tag k="place" v="locality" />
		<tag k="ssr:stedsnr" v="694147" />
	</node>
	<node lat="64.16934167010729" lon="11.752075009542166" id="-48413">
		<tag k="name" v="Klokkafirhaugen" />
		<tag k="natural" v="hill" />
		<tag k="place" v="locality" />
		<tag k="ssr:stedsnr" v="574107" />
	</node>
	<node lat="64.17149722648715" lon="11.763836110968834" id="-48414">
		<tag k="name" v="Blonkenberget" />
		<tag k="natural" v="hill" />
		<tag k="place" v="locality" />
		<tag k="ssr:stedsnr" v="574109" />
	</node>
	<node lat="64.00556388580618" lon="11.11910277150065" id="-48415">
		<tag k="name" v="Jerpdalen" />
		<tag k="natural" v="valley" />
		<tag k="place" v="locality" />
		<tag k="ssr:stedsnr" v="574117" />
	</node>
	<node lat="63.977772224102225" lon="11.874808334306273" id="-48421">
		<tag k="name" v="Vesterdalen" />
		<tag k="natural" v="valley" />
		<tag k="place" v="locality" />
		<tag k="ssr:stedsnr" v="574018" />
	</node>
	<node lat="64.16504166428187" lon="11.705474994179895" id="-48423">
		<tag k="name" v="Kvennhusdalen" />
		<tag k="natural" v="valley" />
		<tag k="place" v="locality" />
		<tag k="ssr:stedsnr" v="574037" />
	</node>
	<node lat="63.82311944572387" lon="10.612561115767914" id="-48425">
		<tag k="name" v="Raudtinddalen" />
		<tag k="natural" v="valley" />
		<tag k="place" v="locality" />
		<tag k="ssr:stedsnr" v="574061" />
	</node>
	<node lat="64.1733222228031" lon="11.712130546553519" id="-48428">
		<tag k="name" v="Stygghaugen" />
		<tag k="natural" v="hill" />
		<tag k="place" v="locality" />
		<tag k="ssr:stedsnr" v="574097" />
	</node>
	<node lat="64.03539722246457" lon="11.683536101388817" id="-48429">
		<tag k="fixme" v="consider natural=peak for the most distinct mountains in the district" />
		<tag k="name" v="Reinsåsen" />
		<tag k="natural" v="hill" />
		<tag k="place" v="locality" />
		<tag k="ssr:stedsnr" v="574253" />
	</node>
	<node lat="64.11360000109765" lon="11.675097221582238" id="-48431">
		<tag k="name" v="Markaberga" />
		<tag k="natural" v="hill" />
		<tag k="place" v="locality" />
		<tag k="ssr:stedsnr" v="574262" />
	</node>
	<node lat="64.00898333681056" lon="11.644516664820044" id="-48434">
		<tag k="name" v="Stordalen" />
		<tag k="natural" v="valley" />
		<tag k="place" v="locality" />
		<tag k="ssr:stedsnr" v="574406" />
	</node>
	<node lat="64.01185000174982" lon="11.712830559466845" id="-48435">
		<tag k="name" v="Andershaugen" />
		<tag k="natural" v="hill" />
		<tag k="place" v="locality" />
		<tag k="ssr:stedsnr" v="574419" />
	</node>
	<node lat="64.14931111084107" lon="11.734144443047787" id="-48437">
		<tag k="name" v="Krikåsberget" />
		<tag k="natural" v="hill" />
		<tag k="place" v="locality" />
		<tag k="ssr:stedsnr" v="574195" />
	</node>
	<node lat="64.00328055574444" lon="11.744355560019363" id="-48439">
		<tag k="name" v="Dalan" />
		<tag k="natural" v="valley" />
		<tag k="place" v="locality" />
		<tag k="ssr:stedsnr" v="574303" />
	</node>
	<node lat="63.95768333373235" lon="11.66619445342306" id="-48441">
		<tag k="fixme" v="consider natural=peak for the most distinct mountains in the district" />
		<tag k="name" v="Vallskiftåsen" />
		<tag k="natural" v="hill" />
		<tag k="place" v="locality" />
		<tag k="ssr:stedsnr" v="574401" />
	</node>
	<node lat="64.19904721882787" lon="11.869619438693745" id="-48442">
		<tag k="name" v="Høghaugen" />
		<tag k="natural" v="hill" />
		<tag k="place" v="locality" />
		<tag k="ssr:stedsnr" v="574807" />
	</node>
	<node lat="64.18131110806738" lon="11.805088887470122" id="-48445">
		<tag k="name" v="Stokkdalen" />
		<tag k="natural" v="valley" />
		<tag k="place" v="locality" />
		<tag k="ssr:stedsnr" v="574815" />
	</node>
	<node lat="63.97513055927508" lon="11.60974444582443" id="-48446">
		<tag k="name" v="Svartberget" />
		<tag k="natural" v="hill" />
		<tag k="place" v="locality" />
		<tag k="ssr:stedsnr" v="574903" />
	</node>
	<node lat="64.17264444532111" lon="11.774444445630582" id="-48449">
		<tag k="name" v="Seterhaugen" />
		<tag k="natural" v="hill" />
		<tag k="place" v="locality" />
		<tag k="ssr:stedsnr" v="574913" />
	</node>
	<node lat="64.12697777438842" lon="11.819111104542127" id="-48457">
		<tag k="fixme" v="consider natural=peak for the most distinct mountains in the district" />
		<tag k="name" v="Rognåsen" />
		<tag k="natural" v="hill" />
		<tag k="place" v="locality" />
		<tag k="ssr:stedsnr" v="575798" />
	</node>
	<node lat="64.16536944629577" lon="11.722644447609495" id="-48460">
		<tag k="name" v="Bård-Millikammen" />
		<tag k="natural" v="ridge" />
		<tag k="place" v="locality" />
		<tag k="ssr:stedsnr" v="696033" />
	</node>
	<node lat="64.03170833185936" lon="11.44066944060885" id="-48461">
		<tag k="name" v="Lundberga" />
		<tag k="natural" v="hill" />
		<tag k="place" v="locality" />
		<tag k="ssr:stedsnr" v="696888" />
	</node>
	<node lat="63.97090000100884" lon="11.066369438689708" id="-48463">
		<tag k="name" v="Aspvikdalen" />
		<tag k="natural" v="valley" />
		<tag k="place" v="locality" />
		<tag k="ssr:stedsnr" v="696086" />
	</node>
	<node lat="63.893158332434716" lon="10.83916111985024" id="-48465">
		<tag k="name" v="Haramyrheia" />
		<tag k="natural" v="hill" />
		<tag k="place" v="locality" />
		<tag k="ssr:stedsnr" v="696100" />
	</node>
	<node lat="64.07976666239894" lon="11.753180553951665" id="-48473">
		<tag k="fixme" v="consider natural=peak for the most distinct mountains in the district" />
		<tag k="name" v="Grønsåsen" />
		<tag k="natural" v="hill" />
		<tag k="place" v="locality" />
		<tag k="ssr:stedsnr" v="696143" />
	</node>
	<node lat="64.11144722499088" lon="11.706597232318055" id="-48476">
		<tag k="name" v="Litlengberget" />
		<tag k="natural" v="hill" />
		<tag k="place" v="locality" />
		<tag k="ssr:stedsnr" v="696161" />
	</node>
	<node lat="63.99078055783969" lon="11.713372218145823" id="-48482">
		<tag k="fixme" v="consider natural=peak for the most distinct mountains in the district" />
		<tag k="name" v="Lauvåsen" />
		<tag k="natural" v="hill" />
		<tag k="place" v="locality" />
		<tag k="ssr:stedsnr" v="696261" />
	</node>
	<node lat="63.92707097665482" lon="11.6427214024193" id="-48485">
		<tag k="alt_name" v="Durmålhaugen" />
		<tag k="name" v="Durmålshaugen" />
		<tag k="natural" v="hill" />
		<tag k="place" v="locality" />
		<tag k="ssr:stedsnr" v="696341" />
	</node>
	<node lat="63.95052222061737" lon="11.637797225614941" id="-48488">
		<tag k="name" v="Okstaddalen" />
		<tag k="natural" v="valley" />
		<tag k="place" v="locality" />
		<tag k="ssr:stedsnr" v="696386" />
	</node>
	<node lat="64.16591388511003" lon="11.775238893141559" id="-48494">
		<tag k="name" v="Bjørnamyrdalen" />
		<tag k="natural" v="valley" />
		<tag k="place" v="locality" />
		<tag k="ssr:stedsnr" v="696855" />
	</node>
	<node lat="64.16905555171583" lon="11.802872228040798" id="-48495">
		<tag k="name" v="Småbergekkerhaugen" />
		<tag k="natural" v="hill" />
		<tag k="place" v="locality" />
		<tag k="ssr:stedsnr" v="696857" />
	</node>
	<node lat="63.97767777632424" lon="11.614375005257815" id="-48496">
		<tag k="fixme" v="consider natural=peak for the most distinct mountains in the district" />
		<tag k="name" v="Ratåsen" />
		<tag k="natural" v="hill" />
		<tag k="place" v="locality" />
		<tag k="ssr:stedsnr" v="696862" />
	</node>
	<node lat="63.99293888501981" lon="11.469275005645098" id="-48500">
		<tag k="name" v="Orrhanebakken" />
		<tag k="natural" v="slope" />
		<tag k="place" v="locality" />
		<tag k="ssr:stedsnr" v="696944" />
	</node>
	<node lat="64.20447499982508" lon="11.977366663901332" id="-48506">
		<tag k="fixme" v="consider natural=peak for the most distinct mountains in the district" />
		<tag k="name" v="Storhalla" />
		<tag k="natural" v="hill" />
		<tag k="place" v="locality" />
		<tag k="ssr:stedsnr" v="696992" />
	</node>
	<node lat="64.04171110743127" lon="11.190158328730973" id="-48507">
		<tag k="name" v="Kjerrholet" />
		<tag k="natural" v="valley" />
		<tag k="place" v="locality" />
		<tag k="ssr:stedsnr" v="696994" />
	</node>
	<node lat="64.21750278123386" lon="11.973547230229872" id="-48508">
		<tag k="fixme" v="consider natural=peak for the most distinct mountains in the district" />
		<tag k="name" v="Lekksjøhalla" />
		<tag k="natural" v="hill" />
		<tag k="place" v="locality" />
		<tag k="ssr:stedsnr" v="696995" />
	</node>
	<node lat="64.20510277629569" lon="12.00373888995748" id="-48509">
		<tag k="name" v="Høysveet" />
		<tag k="place" v="locality" />
		<tag k="ssr:stedsnr" v="697000" />
	</node>
	<node lat="64.11086666254627" lon="11.011516662464555" id="-48514">
		<tag k="fixme" v="consider natural=peak for the most distinct mountains in the district" />
		<tag k="name" v="Langvasskurvan" />
		<tag k="natural" v="hill" />
		<tag k="place" v="locality" />
		<tag k="ssr:stedsnr" v="593609" />
	</node>
	<node lat="63.98668055887864" lon="11.911322226464845" id="-48516">
		<tag k="name" v="Hestdalen" />
		<tag k="natural" v="valley" />
		<tag k="place" v="locality" />
		<tag k="ssr:stedsnr" v="593858" />
	</node>
	<node lat="64.06979444832183" lon="11.799563883269583" id="-48519">
		<tag k="fixme" v="consider natural=peak for the most distinct mountains in the district" />
		<tag k="name" v="Storåsen" />
		<tag k="natural" v="hill" />
		<tag k="place" v="locality" />
		<tag k="ssr:stedsnr" v="593956" />
	</node>
	<node lat="64.05676944546134" lon="11.79824166847043" id="-48520">
		<tag k="name" v="Slåttadalen" />
		<tag k="natural" v="valley" />
		<tag k="place" v="locality" />
		<tag k="ssr:stedsnr" v="593960" />
	</node>
	<node lat="64.17815832952189" lon="11.646699992674579" id="-48523">
		<tag k="name" v="Stygghaugen" />
		<tag k="natural" v="hill" />
		<tag k="place" v="locality" />
		<tag k="ssr:stedsnr" v="594151" />
	</node>
	<node lat="64.22665555327401" lon="11.676055549951155" id="-48525">
		<tag k="name" v="Grønhaugen" />
		<tag k="natural" v="hill" />
		<tag k="place" v="locality" />
		<tag k="ssr:stedsnr" v="594211" />
	</node>
	<node lat="63.92592499866476" lon="11.935044435795584" id="-48530">
		<tag k="name" v="Pilhaugen" />
		<tag k="natural" v="hill" />
		<tag k="place" v="locality" />
		<tag k="ssr:stedsnr" v="594502" />
	</node>
	<node lat="64.04466666766028" lon="11.114183328962172" id="-48533">
		<tag k="name" v="Tømtdalen" />
		<tag k="natural" v="valley" />
		<tag k="place" v="locality" />
		<tag k="ssr:stedsnr" v="594449" />
	</node>
	<node lat="64.03526944263814" lon="10.953355550147126" id="-48536">
		<tag k="name" v="Heimholet" />
		<tag k="natural" v="valley" />
		<tag k="place" v="locality" />
		<tag k="ssr:stedsnr" v="594607" />
	</node>
	<node lat="63.95964444655112" lon="11.742466675355294" id="-48541">
		<tag k="name" v="Jakobdalen" />
		<tag k="natural" v="valley" />
		<tag k="place" v="locality" />
		<tag k="ssr:stedsnr" v="594910" />
	</node>
	<node lat="63.90074166658405" lon="10.64838055573931" id="-48569">
		<tag k="name" v="Steindalen" />
		<tag k="natural" v="valley" />
		<tag k="place" v="locality" />
		<tag k="ssr:stedsnr" v="619324" />
	</node>
	<node lat="64.0846972195852" lon="11.247644442235789" id="-48591">
		<tag k="fixme" v="consider natural=peak for the most distinct mountains in the district" />
		<tag k="name" v="Høghalla" />
		<tag k="natural" v="hill" />
		<tag k="place" v="locality" />
		<tag k="ssr:stedsnr" v="620184" />
	</node>
	<node lat="63.99068333173292" lon="11.741966658195961" id="-48605">
		<tag k="fixme" v="consider natural=peak for the most distinct mountains in the district" />
		<tag k="name" v="Lauvåskammen" />
		<tag k="natural" v="hill" />
		<tag k="place" v="locality" />
		<tag k="ssr:stedsnr" v="620382" />
	</node>
	<node lat="63.96283333117645" lon="12.302380563091702" id="-48612">
		<tag k="name" v="Skjækerlia - Jijjenvaartoe" />
		<tag k="name:no" v="Skjækerlia" />
		<tag k="name:sma" v="Jijjenvaartoe" />
		<tag k="natural" v="slope" />
		<tag k="place" v="locality" />
		<tag k="ssr:stedsnr" v="620620" />
	</node>
	<node lat="64.18760277660289" lon="11.620711106453255" id="-48615">
		<tag k="alt_name" v="Grønlihaugen" />
		<tag k="name" v="Grønhaugen" />
		<tag k="natural" v="hill" />
		<tag k="place" v="locality" />
		<tag k="ssr:stedsnr" v="620821" />
	</node>
	<node lat="64.13807499973258" lon="11.52226943943571" id="-48618">
		<tag k="name" v="Endlausdalen" />
		<tag k="natural" v="valley" />
		<tag k="place" v="locality" />
		<tag k="ssr:stedsnr" v="620780" />
	</node>
	<node lat="63.89241111488969" lon="11.549980547790339" id="-48628">
		<tag k="fixme" v="consider natural=peak for the most distinct mountains in the district" />
		<tag k="name" v="Hodalsåsen" />
		<tag k="natural" v="hill" />
		<tag k="place" v="locality" />
		<tag k="ssr:stedsnr" v="629551" />
	</node>
	<node lat="64.15231944579622" lon="11.52758333208951" id="-48631">
		<tag k="name" v="Harpa" />
		<tag k="natural" v="hill" />
		<tag k="place" v="locality" />
		<tag k="ssr:stedsnr" v="629643" />
	</node>
	<node lat="64.09998888460936" lon="11.310180549421364" id="-48632">
		<tag k="name" v="Kleiva" />
		<tag k="place" v="locality" />
		<tag k="ssr:stedsnr" v="629804" />
	</node>
	<node lat="64.11343333719299" lon="11.319897218020337" id="-48634">
		<tag k="name" v="Osberget" />
		<tag k="natural" v="hill" />
		<tag k="place" v="locality" />
		<tag k="ssr:stedsnr" v="629811" />
	</node>
	<node lat="64.08588333752945" lon="11.244972215855542" id="-48636">
		<tag k="name" v="Storberget" />
		<tag k="natural" v="hill" />
		<tag k="place" v="locality" />
		<tag k="ssr:stedsnr" v="629830" />
	</node>
	<node lat="64.09006944561905" lon="11.28401111837622" id="-48637">
		<tag k="fixme" v="consider natural=peak for the most distinct mountains in the district" />
		<tag k="name" v="Flatåsen" />
		<tag k="natural" v="hill" />
		<tag k="place" v="locality" />
		<tag k="ssr:stedsnr" v="629840" />
	</node>
	<node lat="64.08627222165475" lon="11.261580555738552" id="-48639">
		<tag k="name" v="Øvre Grønnsvedalshalla" />
		<tag k="natural" v="slope" />
		<tag k="place" v="locality" />
		<tag k="ssr:stedsnr" v="629853" />
	</node>
	<node lat="64.02066666458329" lon="11.385833329948097" id="-48643">
		<tag k="name" v="Vekthaugen" />
		<tag k="natural" v="hill" />
		<tag k="place" v="locality" />
		<tag k="ssr:stedsnr" v="629918" />
	</node>
	<node lat="63.885616665336116" lon="11.442183335836138" id="-48645">
		<tag k="name" v="Templet" />
		<tag k="natural" v="hill" />
		<tag k="place" v="locality" />
		<tag k="ssr:stedsnr" v="629957" />
	</node>
	<node lat="64.14850555171927" lon="11.771811108957529" id="-48650">
		<tag k="name" v="Johaugen" />
		<tag k="natural" v="hill" />
		<tag k="place" v="locality" />
		<tag k="ssr:stedsnr" v="635027" />
	</node>
	<node lat="63.96278333354839" lon="11.042269435921433" id="-48651">
		<tag k="name" v="Nebben" />
		<tag k="natural" v="hill" />
		<tag k="place" v="locality" />
		<tag k="ssr:stedsnr" v="635106" />
	</node>
	<node lat="64.13446944868106" lon="11.581805563445101" id="-48660">
		<tag k="fixme" v="consider natural=peak for the most distinct mountains in the district" />
		<tag k="name" v="Kalvtjønnåsen" />
		<tag k="natural" v="hill" />
		<tag k="place" v="locality" />
		<tag k="ssr:stedsnr" v="635414" />
	</node>
	<node lat="63.96481666396971" lon="11.688716657399048" id="-48662">
		<tag k="name" v="Asphalla" />
		<tag k="natural" v="slope" />
		<tag k="place" v="locality" />
		<tag k="ssr:stedsnr" v="635381" />
	</node>
	<node lat="64.1011111117764" lon="11.577372229002487" id="-48666">
		<tag k="name" v="Dalskleiva" />
		<tag k="natural" v="valley" />
		<tag k="place" v="locality" />
		<tag k="ssr:stedsnr" v="635509" />
	</node>
	<node lat="64.11940555206694" lon="11.831102776978778" id="-48668">
		<tag k="fixme" v="consider natural=peak for the most distinct mountains in the district" />
		<tag k="name" v="Nordfjellhalla" />
		<tag k="natural" v="hill" />
		<tag k="place" v="locality" />
		<tag k="ssr:stedsnr" v="635790" />
	</node>
	<node lat="64.1140583348915" lon="11.917944446845665" id="-48673">
		<tag k="name" v="Helvetet" />
		<tag k="natural" v="valley" />
		<tag k="place" v="locality" />
		<tag k="ssr:stedsnr" v="635886" />
	</node>
	<node lat="64.159452775909" lon="12.020380564043395" id="-48678">
		<tag k="name" v="Joneset" />
		<tag k="place" v="locality" />
		<tag k="ssr:stedsnr" v="635982" />
	</node>
	<node lat="64.09745278152968" lon="11.19975000056998" id="-48687">
		<tag k="fixme" v="consider natural=peak for the most distinct mountains in the district" />
		<tag k="name" v="Lauvåsen" />
		<tag k="natural" v="hill" />
		<tag k="place" v="locality" />
		<tag k="ssr:stedsnr" v="706736" />
	</node>
	<node lat="63.98890555911875" lon="10.824638886161464" id="-48702">
		<tag k="name" v="Storheia" />
		<tag k="natural" v="hill" />
		<tag k="place" v="locality" />
		<tag k="ssr:stedsnr" v="654112" />
	</node>
	<node lat="64.06357222389342" lon="11.125141660739597" id="-48704">
		<tag k="fixme" v="consider natural=peak for the most distinct mountains in the district" />
		<tag k="name" v="Litlengåsen" />
		<tag k="natural" v="hill" />
		<tag k="place" v="locality" />
		<tag k="ssr:stedsnr" v="654700" />
	</node>
	<node lat="64.16638055430816" lon="11.3643833282516" id="-48705">
		<tag k="fixme" v="consider natural=peak for the most distinct mountains in the district" />
		<tag k="name" v="Kvinnvasshalla" />
		<tag k="natural" v="hill" />
		<tag k="place" v="locality" />
		<tag k="ssr:stedsnr" v="654708" />
	</node>
	<node lat="64.01659166568218" lon="12.236469450679563" id="-48709">
		<tag k="name" v="Nord-Vintertjønndalen" />
		<tag k="natural" v="valley" />
		<tag k="place" v="locality" />
		<tag k="ssr:stedsnr" v="655303" />
	</node>
	<node lat="64.23660832972311" lon="11.873627785692612" id="-48718">
		<tag k="name" v="Svartdalen" />
		<tag k="natural" v="valley" />
		<tag k="place" v="locality" />
		<tag k="ssr:stedsnr" v="655834" />
	</node>
	<node lat="64.09249166372632" lon="11.79468054597274" id="-48720">
		<tag k="fixme" v="consider natural=peak for the most distinct mountains in the district" />
		<tag k="name" v="Hatlingfjellet" />
		<tag k="natural" v="hill" />
		<tag k="place" v="locality" />
		<tag k="ssr:stedsnr" v="655800" />
	</node>
	<node lat="64.06251666574282" lon="11.446975000943214" id="-48775">
		<tag k="name" v="Dragin" />
		<tag k="natural" v="slope" />
		<tag k="place" v="locality" />
		<tag k="ssr:stedsnr" v="681058" />
	</node>
	<node lat="63.88875555807687" lon="11.529713896743505" id="-48779">
		<tag k="fixme" v="consider natural=peak for the most distinct mountains in the district" />
		<tag k="name" v="Johalla" />
		<tag k="natural" v="hill" />
		<tag k="place" v="locality" />
		<tag k="ssr:stedsnr" v="681067" />
	</node>
	<node lat="64.11040000340135" lon="11.508258339073668" id="-48784">
		<tag k="name" v="Perberget" />
		<tag k="natural" v="hill" />
		<tag k="place" v="locality" />
		<tag k="ssr:stedsnr" v="681160" />
	</node>
	<node lat="63.93086111515746" lon="10.904399993350369" id="-48788">
		<tag k="name" v="Reinfannhaugen" />
		<tag k="natural" v="hill" />
		<tag k="place" v="locality" />
		<tag k="ssr:stedsnr" v="681523" />
	</node>
	<node lat="64.12618610836702" lon="11.807675005896439" id="-48794">
		<tag k="alt_name" v="Austeråsen" />
		<tag k="fixme" v="consider natural=peak for the most distinct mountains in the district" />
		<tag k="name" v="Tiltneshalla" />
		<tag k="natural" v="hill" />
		<tag k="place" v="locality" />
		<tag k="ssr:stedsnr" v="681265" />
	</node>
	<node lat="64.13378333211213" lon="11.962263884124232" id="-48796">
		<tag k="fixme" v="consider natural=peak for the most distinct mountains in the district" />
		<tag k="name" v="Tømmeråsen" />
		<tag k="natural" v="hill" />
		<tag k="place" v="locality" />
		<tag k="ssr:stedsnr" v="681268" />
	</node>
	<node lat="63.9890821411764" lon="12.137648716222598" id="-48799">
		<tag k="alt_name" v="Stor-Gaulstadhøgda" />
		<tag k="name" v="Storgaulstadhøgda" />
		<tag k="natural" v="hill" />
		<tag k="place" v="locality" />
		<tag k="ssr:stedsnr" v="681406" />
	</node>
	<node lat="64.20133333661343" lon="11.764030552933766" id="-48807">
		<tag k="name" v="Veineshaugen" />
		<tag k="natural" v="hill" />
		<tag k="place" v="locality" />
		<tag k="ssr:stedsnr" v="681476" />
	</node>
	<node lat="63.94306666352707" lon="10.944580548249633" id="-48808">
		<tag k="name" v="Knorthaugen" />
		<tag k="natural" v="hill" />
		<tag k="place" v="locality" />
		<tag k="ssr:stedsnr" v="681607" />
	</node>
	<node lat="64.14408610704353" lon="11.451369438904978" id="-48814">
		<tag k="name" v="Gullhaugen" />
		<tag k="natural" v="hill" />
		<tag k="place" v="locality" />
		<tag k="ssr:stedsnr" v="681763" />
	</node>
	<node lat="64.21847777731959" lon="11.481008336030785" id="-48820">
		<tag k="alt_name" v="Grønlin" />
		<tag k="name" v="Grønlia" />
		<tag k="natural" v="slope" />
		<tag k="place" v="locality" />
		<tag k="ssr:stedsnr" v="681923" />
	</node>
	<node lat="64.08842222463802" lon="11.562080545707476" id="-48824">
		<tag k="fixme" v="consider natural=peak for the most distinct mountains in the district" />
		<tag k="name" v="Åsan" />
		<tag k="natural" v="hill" />
		<tag k="place" v="locality" />
		<tag k="ssr:stedsnr" v="689605" />
	</node>
	<node lat="64.08429166496835" lon="11.550844443021758" id="-48825">
		<tag k="fixme" v="consider natural=peak for the most distinct mountains in the district" />
		<tag k="name" v="Rotningåsen" />
		<tag k="natural" v="hill" />
		<tag k="place" v="locality" />
		<tag k="ssr:stedsnr" v="689607" />
	</node>
	<node lat="64.01721110837666" lon="11.345911101663019" id="-48829">
		<tag k="name" v="Skruvlin" />
		<tag k="natural" v="valley" />
		<tag k="place" v="locality" />
		<tag k="ssr:stedsnr" v="690200" />
	</node>
	<node lat="64.11562222360591" lon="11.433416664068043" id="-48832">
		<tag k="fixme" v="consider natural=peak for the most distinct mountains in the district" />
		<tag k="name" v="Aunåsen" />
		<tag k="natural" v="hill" />
		<tag k="place" v="locality" />
		<tag k="ssr:stedsnr" v="690613" />
	</node>
	<node lat="64.11053611391166" lon="11.413783334785297" id="-48833">
		<tag k="name" v="Moltberget" />
		<tag k="natural" v="hill" />
		<tag k="place" v="locality" />
		<tag k="ssr:stedsnr" v="690628" />
	</node>
	<node lat="64.12446388969637" lon="11.467341671911335" id="-48836">
		<tag k="name" v="Smølhaugen" />
		<tag k="natural" v="hill" />
		<tag k="place" v="locality" />
		<tag k="ssr:stedsnr" v="690596" />
	</node>
	<node lat="64.08959166769633" lon="11.368927772864895" id="-48847">
		<tag k="fixme" v="consider natural=peak for the most distinct mountains in the district" />
		<tag k="name" v="Vestvikhøgda" />
		<tag k="natural" v="hill" />
		<tag k="place" v="locality" />
		<tag k="ssr:stedsnr" v="690889" />
	</node>
	<node lat="63.92345277490031" lon="10.931916663771576" id="-48849">
		<tag k="fixme" v="consider natural=peak for the most distinct mountains in the district" />
		<tag k="name" v="Gammelseterkammen" />
		<tag k="natural" v="hill" />
		<tag k="place" v="locality" />
		<tag k="ssr:stedsnr" v="693813" />
	</node>
	<node lat="63.77962499663406" lon="10.467263888547974" id="-48851">
		<tag k="name" v="Hippeliberga" />
		<tag k="natural" v="hill" />
		<tag k="place" v="locality" />
		<tag k="ssr:stedsnr" v="696010" />
	</node>
	<node lat="63.85479444534179" lon="10.702188883133608" id="-48855">
		<tag k="name" v="Moldaunlia" />
		<tag k="natural" v="slope" />
		<tag k="place" v="locality" />
		<tag k="ssr:stedsnr" v="696065" />
	</node>
	<node lat="63.88729722557933" lon="10.850538889352224" id="-48859">
		<tag k="name" v="Stavremslia" />
		<tag k="natural" v="slope" />
		<tag k="place" v="locality" />
		<tag k="ssr:stedsnr" v="696081" />
	</node>
	<node lat="64.16844166946433" lon="11.740519449471934" id="-48862">
		<tag k="name" v="Svartdalen" />
		<tag k="natural" v="valley" />
		<tag k="place" v="locality" />
		<tag k="ssr:stedsnr" v="696114" />
	</node>
	<node lat="64.14892222516849" lon="11.619363881607322" id="-48867">
		<tag k="name" v="Seterdalen" />
		<tag k="natural" v="valley" />
		<tag k="place" v="locality" />
		<tag k="ssr:stedsnr" v="696421" />
	</node>
	<node lat="64.15282499925823" lon="11.587586120295153" id="-48868">
		<tag k="name" v="Himmelriket" />
		<tag k="natural" v="hill" />
		<tag k="place" v="locality" />
		<tag k="ssr:stedsnr" v="696423" />
	</node>
	<node lat="63.98813889037689" lon="11.512066676578476" id="-48869">
		<tag k="name" v="Ramsdalen" />
		<tag k="natural" v="valley" />
		<tag k="place" v="locality" />
		<tag k="ssr:stedsnr" v="696506" />
	</node>
	<node lat="63.991744444920215" lon="11.581375008743764" id="-48870">
		<tag k="name" v="Nyengberget" />
		<tag k="natural" v="hill" />
		<tag k="place" v="locality" />
		<tag k="ssr:stedsnr" v="696507" />
	</node>
	<node lat="64.05038888980243" lon="11.509633341891435" id="-48872">
		<tag k="name" v="Langmyrberga" />
		<tag k="natural" v="hill" />
		<tag k="place" v="locality" />
		<tag k="ssr:stedsnr" v="696517" />
	</node>
	<node lat="64.12372777509906" lon="11.773905546886738" id="-48874">
		<tag k="name" v="Svartberget" />
		<tag k="natural" v="hill" />
		<tag k="place" v="locality" />
		<tag k="ssr:stedsnr" v="696816" />
	</node>
	<node lat="64.03686110798228" lon="11.476047225244239" id="-48876">
		<tag k="name" v="Håven" />
		<tag k="place" v="locality" />
		<tag k="ssr:stedsnr" v="696885" />
	</node>
	<node lat="64.19331388456044" lon="11.797047229800722" id="-48877">
		<tag k="name" v="Høgfjellet" />
		<tag k="natural" v="mountain_range" />
		<tag k="ssr:stedsnr" v="696764" />
	</node>
	<node lat="63.976797220567796" lon="11.578052769015763" id="-48879">
		<tag k="name" v="Bjønnabettberget" />
		<tag k="natural" v="hill" />
		<tag k="place" v="locality" />
		<tag k="ssr:stedsnr" v="696915" />
	</node>
	<node lat="64.07243332963361" lon="11.211180549909722" id="-48884">
		<tag k="name" v="Malmlia" />
		<tag k="natural" v="slope" />
		<tag k="place" v="locality" />
		<tag k="ssr:stedsnr" v="696977" />
	</node>
	<node lat="64.16814444535264" lon="11.677847224666252" id="-48889">
		<tag k="name" v="Hyttmoen" />
		<tag k="place" v="locality" />
		<tag k="ssr:stedsnr" v="898226" />
	</node>
	<node lat="64.20035555961606" lon="11.757569444872816" id="-48891">
		<tag k="name" v="Storliin" />
		<tag k="natural" v="slope" />
		<tag k="place" v="locality" />
		<tag k="ssr:stedsnr" v="898240" />
	</node>
	<node lat="64.00453888478492" lon="11.991152770719529" id="-48892">
		<tag k="fixme" v="consider natural=peak for the most distinct mountains in the district" />
		<tag k="name" v="Finntjønnhøgda" />
		<tag k="natural" v="hill" />
		<tag k="place" v="locality" />
		<tag k="ssr:stedsnr" v="898244" />
	</node>
	<node lat="63.99723889089337" lon="10.890552780941501" id="-48895">
		<tag k="fixme" v="consider natural=peak for the most distinct mountains in the district" />
		<tag k="name" v="Litlgodliheia" />
		<tag k="natural" v="hill" />
		<tag k="place" v="locality" />
		<tag k="ssr:stedsnr" v="897119" />
	</node>
	<node lat="64.00104444587569" lon="10.832347213227663" id="-48896">
		<tag k="fixme" v="consider natural=peak for the most distinct mountains in the district" />
		<tag k="name" v="Bybekkåsen" />
		<tag k="natural" v="hill" />
		<tag k="place" v="locality" />
		<tag k="ssr:stedsnr" v="897126" />
	</node>
	<node lat="63.9905944456353" lon="10.943383335596407" id="-48899">
		<tag k="fixme" v="consider natural=peak for the most distinct mountains in the district" />
		<tag k="name" v="Tortholheia" />
		<tag k="natural" v="hill" />
		<tag k="place" v="locality" />
		<tag k="ssr:stedsnr" v="897077" />
	</node>
	<node lat="63.99864722103347" lon="10.856288889701014" id="-48901">
		<tag k="name" v="Magnhildhalsen" />
		<tag k="natural" v="valley" />
		<tag k="place" v="locality" />
		<tag k="ssr:stedsnr" v="897091" />
	</node>
	<node lat="64.00185278025172" lon="10.862047228162613" id="-48902">
		<tag k="fixme" v="consider natural=peak for the most distinct mountains in the district" />
		<tag k="name" v="Grønnlidalsheia" />
		<tag k="natural" v="hill" />
		<tag k="place" v="locality" />
		<tag k="ssr:stedsnr" v="897093" />
	</node>
	<node lat="63.97937222599673" lon="10.853888898869666" id="-48904">
		<tag k="name" v="Trongskaret" />
		<tag k="natural" v="valley" />
		<tag k="place" v="locality" />
		<tag k="ssr:stedsnr" v="897152" />
	</node>
	<node lat="63.937869443998856" lon="10.90002221970116" id="-48905">
		<tag k="name" v="Bokkhammaren" />
		<tag k="natural" v="hill" />
		<tag k="place" v="locality" />
		<tag k="ssr:stedsnr" v="897202" />
	</node>
	<node lat="63.873827781797736" lon="10.692322216921395" id="-48906">
		<tag k="name" v="Kammen" />
		<tag k="natural" v="hill" />
		<tag k="place" v="locality" />
		<tag k="ssr:stedsnr" v="897231" />
	</node>
	<node lat="64.16578333681946" lon="11.470972229815754" id="-48911">
		<tag k="name" v="Storskaret" />
		<tag k="natural" v="valley" />
		<tag k="place" v="locality" />
		<tag k="ssr:stedsnr" v="897452" />
	</node>
	<node lat="64.14551666914912" lon="11.433383327563444" id="-48912">
		<tag k="name" v="Bergfrøshaugen" />
		<tag k="natural" v="hill" />
		<tag k="place" v="locality" />
		<tag k="ssr:stedsnr" v="897472" />
	</node>
	<node lat="64.15467222485285" lon="11.430308327691067" id="-48913">
		<tag k="name" v="Tessemseterhaugen" />
		<tag k="natural" v="hill" />
		<tag k="place" v="locality" />
		<tag k="ssr:stedsnr" v="897473" />
	</node>
	<node lat="64.14963055422865" lon="11.396544447868171" id="-48915">
		<tag k="name" v="Holbrakka" />
		<tag k="natural" v="slope" />
		<tag k="place" v="locality" />
		<tag k="ssr:stedsnr" v="897478" />
	</node>
	<node lat="64.15574444240482" lon="11.332180548584077" id="-48916">
		<tag k="name" v="Tråmyra" />
		<tag k="natural" v="hill" />
		<tag k="place" v="locality" />
		<tag k="ssr:stedsnr" v="897481" />
	</node>
	<node lat="64.14590833734292" lon="11.313822229140214" id="-48917">
		<tag k="name" v="Storskarberget" />
		<tag k="natural" v="hill" />
		<tag k="place" v="locality" />
		<tag k="ssr:stedsnr" v="897491" />
	</node>
	<node lat="64.20332499849815" lon="11.955033328918542" id="-48921">
		<tag k="name" v="Tjønnhaugen" />
		<tag k="natural" v="hill" />
		<tag k="place" v="locality" />
		<tag k="ssr:stedsnr" v="897790" />
	</node>
	<node lat="63.96771666421487" lon="11.734838897427244" id="-48926">
		<tag k="name" v="Helvetesveita" />
		<tag k="natural" v="valley" />
		<tag k="place" v="locality" />
		<tag k="ssr:stedsnr" v="897871" />
	</node>
	<node lat="64.00601944164752" lon="11.966463889282053" id="-48929">
		<tag k="name" v="Fuldalen" />
		<tag k="natural" v="valley" />
		<tag k="place" v="locality" />
		<tag k="ssr:stedsnr" v="897893" />
	</node>
	<node lat="64.0186305513149" lon="11.08426667089606" id="-48933">
		<tag k="fixme" v="consider natural=peak for the most distinct mountains in the district" />
		<tag k="name" v="Brennberghalla" />
		<tag k="natural" v="hill" />
		<tag k="place" v="locality" />
		<tag k="ssr:stedsnr" v="898050" />
	</node>
	<node lat="64.25046389009205" lon="11.70469722493991" id="-48934">
		<tag k="name" v="Klokkafirhaugen" />
		<tag k="natural" v="hill" />
		<tag k="place" v="locality" />
		<tag k="ssr:stedsnr" v="898100" />
	</node>
	<node lat="64.16550555906291" lon="11.599319451311462" id="-48936">
		<tag k="name" v="Damhaugen" />
		<tag k="natural" v="hill" />
		<tag k="place" v="locality" />
		<tag k="ssr:stedsnr" v="898169" />
	</node>
	<node lat="64.21833333148976" lon="11.748627773406415" id="-48938">
		<tag k="name" v="Gammelseterdalen" />
		<tag k="natural" v="valley" />
		<tag k="place" v="locality" />
		<tag k="ssr:stedsnr" v="898175" />
	</node>
	<node lat="64.20553611125851" lon="11.759066674524167" id="-48939">
		<tag k="fixme" v="consider natural=peak for the most distinct mountains in the district" />
		<tag k="name" v="Grøtåsen" />
		<tag k="natural" v="hill" />
		<tag k="place" v="locality" />
		<tag k="ssr:stedsnr" v="898177" />
	</node>
	<node lat="64.17386389057906" lon="11.683761118849647" id="-48943">
		<tag k="name" v="Lauvåsklompen" />
		<tag k="natural" v="hill" />
		<tag k="place" v="locality" />
		<tag k="ssr:stedsnr" v="898148" />
	</node>
	<node lat="64.19162401908878" lon="11.667710635262328" id="-48944">
		<tag k="name" v="Persgardsdalen" />
		<tag k="natural" v="valley" />
		<tag k="place" v="locality" />
		<tag k="ssr:stedsnr" v="898193" />
	</node>
	<node lat="64.02029999598246" lon="12.133619445378915" id="-48945">
		<tag k="name" v="Liahalla" />
		<tag k="natural" v="slope" />
		<tag k="place" v="locality" />
		<tag k="ssr:stedsnr" v="898260" />
	</node>
	<node lat="64.05158055342095" lon="10.988563889218256" id="-48952">
		<tag k="fixme" v="consider natural=peak for the most distinct mountains in the district" />
		<tag k="name" v="Spillernyhalla" />
		<tag k="natural" v="hill" />
		<tag k="place" v="locality" />
		<tag k="ssr:stedsnr" v="898731" />
	</node>
	<node lat="64.04990555793809" lon="12.009977777761133" id="-48956">
		<tag k="name" v="Stamntjønndalen" />
		<tag k="natural" v="valley" />
		<tag k="place" v="locality" />
		<tag k="ssr:stedsnr" v="898448" />
	</node>
	<node lat="63.92377221857189" lon="11.863280561222549" id="-48960">
		<tag k="name" v="Lamhaugen" />
		<tag k="natural" v="hill" />
		<tag k="place" v="locality" />
		<tag k="ssr:stedsnr" v="898578" />
	</node>
	<node lat="64.12329722303255" lon="11.077786110853099" id="-48966">
		<tag k="fixme" v="consider natural=peak for the most distinct mountains in the district" />
		<tag k="name" v="Ferjheia" />
		<tag k="natural" v="hill" />
		<tag k="place" v="locality" />
		<tag k="ssr:stedsnr" v="898551" />
	</node>
	<node lat="64.05473055164835" lon="10.972377770126368" id="-48968">
		<tag k="name" v="Spillernyhevlan" />
		<tag k="natural" v="ridge" />
		<tag k="place" v="locality" />
		<tag k="ssr:stedsnr" v="898615" />
	</node>
	<node lat="64.11135000433043" lon="11.856477768872999" id="-48971">
		<tag k="fixme" v="consider natural=peak for the most distinct mountains in the district" />
		<tag k="name" v="Nordtonen" />
		<tag k="natural" v="hill" />
		<tag k="place" v="locality" />
		<tag k="ssr:stedsnr" v="898789" />
	</node>
	<node lat="64.03413611179211" lon="10.865422221401237" id="-48973">
		<tag k="name" v="Sillerbråttet" />
		<tag k="natural" v="hill" />
		<tag k="place" v="locality" />
		<tag k="ssr:stedsnr" v="714593" />
	</node>
	<node lat="64.06891944293005" lon="11.162219452255163" id="-48975">
		<tag k="fixme" v="consider natural=peak for the most distinct mountains in the district" />
		<tag k="name" v="Måssåmyrhøgda" />
		<tag k="natural" v="hill" />
		<tag k="place" v="locality" />
		<tag k="ssr:stedsnr" v="898698" />
	</node>
	<node lat="63.96355555246982" lon="12.150519444812984" id="-48976">
		<tag k="name" v="Kringsjå" />
		<tag k="natural" v="hill" />
		<tag k="place" v="locality" />
		<tag k="ssr:stedsnr" v="898700" />
	</node>
	<node lat="63.96515277441394" lon="12.119594452291707" id="-48977">
		<tag k="name" v="Ryphaugen" />
		<tag k="natural" v="hill" />
		<tag k="place" v="locality" />
		<tag k="ssr:stedsnr" v="898702" />
	</node>
	<node lat="64.31241389341827" lon="11.879663880139152" id="-48981">
		<tag k="name" v="Abelliin" />
		<tag k="natural" v="slope" />
		<tag k="place" v="locality" />
		<tag k="ssr:stedsnr" v="898827" />
	</node>
	<node lat="64.1451527783494" lon="11.423266675976791" id="-48982">
		<tag k="name" v="Svarvaenget" />
		<tag k="place" v="locality" />
		<tag k="ssr:stedsnr" v="715525" />
	</node>
	<node lat="64.13879166663743" lon="11.351052785732714" id="-48983">
		<tag k="name" v="Raudmyra" />
		<tag k="natural" v="hill" />
		<tag k="place" v="locality" />
		<tag k="ssr:stedsnr" v="715529" />
	</node>
	<node lat="64.07815555355896" lon="10.904033336841474" id="-48984">
		<tag k="fixme" v="consider natural=peak for the most distinct mountains in the district" />
		<tag k="name" v="Tørrisheimåsen" />
		<tag k="natural" v="hill" />
		<tag k="place" v="locality" />
		<tag k="ssr:stedsnr" v="715675" />
	</node>
	<node lat="63.9718194454537" lon="11.721613880111194" id="-48988">
		<tag k="name" v="Sagengberget" />
		<tag k="natural" v="hill" />
		<tag k="place" v="locality" />
		<tag k="ssr:stedsnr" v="715932" />
	</node>
	<node lat="64.05265833317507" lon="11.097197218595733" id="-48992">
		<tag k="name" v="Småhaugan" />
		<tag k="natural" v="hill" />
		<tag k="place" v="locality" />
		<tag k="ssr:stedsnr" v="716023" />
	</node>
	<node lat="64.2028527756019" lon="11.688677782035738" id="-48995">
		<tag k="name" v="Kjellarhalla" />
		<tag k="natural" v="slope" />
		<tag k="place" v="locality" />
		<tag k="ssr:stedsnr" v="716224" />
	</node>
	<node lat="64.20342500156025" lon="11.759544438923616" id="-48997">
		<tag k="name" v="Grøtdalen" />
		<tag k="natural" v="valley" />
		<tag k="place" v="locality" />
		<tag k="ssr:stedsnr" v="716210" />
	</node>
	<node lat="64.25647777989825" lon="11.709427769115003" id="-49001">
		<tag k="name" v="Bjørtjønndalen" />
		<tag k="natural" v="valley" />
		<tag k="place" v="locality" />
		<tag k="ssr:stedsnr" v="716108" />
	</node>
	<node lat="64.17408888664086" lon="11.693127780414" id="-49004">
		<tag k="fixme" v="consider natural=peak for the most distinct mountains in the district" />
		<tag k="name" v="Kaukarberget" />
		<tag k="natural" v="hill" />
		<tag k="place" v="locality" />
		<tag k="ssr:stedsnr" v="716174" />
	</node>
	<node lat="64.03283333260696" lon="12.117066659847639" id="-49009">
		<tag k="name" v="Dantjønnhaugen" />
		<tag k="natural" v="hill" />
		<tag k="place" v="locality" />
		<tag k="ssr:stedsnr" v="716495" />
	</node>
	<node lat="63.90286111359895" lon="11.731319437322412" id="-49011">
		<tag k="name" v="Bjerkemsletthaugen" />
		<tag k="natural" v="hill" />
		<tag k="place" v="locality" />
		<tag k="ssr:stedsnr" v="716581" />
	</node>
	<node lat="63.966055557039425" lon="12.100450001340775" id="-49013">
		<tag k="name" v="Nauringberget" />
		<tag k="natural" v="hill" />
		<tag k="place" v="locality" />
		<tag k="ssr:stedsnr" v="716724" />
	</node>
	<node lat="63.946961107304524" lon="11.740658335055526" id="-49017">
		<tag k="fixme" v="consider natural=peak for the most distinct mountains in the district" />
		<tag k="name" v="Aunåsen" />
		<tag k="natural" v="hill" />
		<tag k="place" v="locality" />
		<tag k="ssr:stedsnr" v="716909" />
	</node>
	<node lat="63.95016388850153" lon="11.750102768204693" id="-49032">
		<tag k="fixme" v="consider natural=peak for the most distinct mountains in the district" />
		<tag k="name" v="Bruemsslættåsen" />
		<tag k="natural" v="hill" />
		<tag k="place" v="locality" />
		<tag k="ssr:stedsnr" v="722833" />
	</node>
	<node lat="64.04959444290584" lon="11.561977773688941" id="-49045">
		<tag k="fixme" v="consider natural=peak for the most distinct mountains in the district" />
		<tag k="name" v="Reinsheia" />
		<tag k="natural" v="hill" />
		<tag k="place" v="locality" />
		<tag k="ssr:stedsnr" v="741008" />
	</node>
	<node lat="64.1943166710779" lon="11.979941661875907" id="-49049">
		<tag k="alt_name" v="Bonsottoberga" />
		<tag k="name" v="Naustenghalla" />
		<tag k="natural" v="hill" />
		<tag k="place" v="locality" />
		<tag k="ssr:stedsnr" v="741589" />
	</node>
	<node lat="64.06582777900974" lon="11.532505552554396" id="-49052">
		<tag k="fixme" v="consider natural=peak for the most distinct mountains in the district" />
		<tag k="name" v="Seteråsen" />
		<tag k="natural" v="hill" />
		<tag k="place" v="locality" />
		<tag k="ssr:stedsnr" v="742033" />
	</node>
	<node lat="64.08945555245292" lon="11.575924990470824" id="-49056">
		<tag k="alt_name" v="Holaberga" />
		<tag k="name" v="Holaberget" />
		<tag k="natural" v="hill" />
		<tag k="place" v="locality" />
		<tag k="ssr:stedsnr" v="742223" />
	</node>
	<node lat="63.93520277932568" lon="10.908897216786752" id="-49073">
		<tag k="name" v="Langådalen" />
		<tag k="natural" v="valley" />
		<tag k="place" v="locality" />
		<tag k="ssr:stedsnr" v="742490" />
	</node>
	<node lat="63.93676944021875" lon="10.88325555663663" id="-49078">
		<tag k="name" v="Vergdalen" />
		<tag k="natural" v="valley" />
		<tag k="place" v="locality" />
		<tag k="ssr:stedsnr" v="742582" />
	</node>
	<node lat="63.94744167045579" lon="10.801972231927147" id="-49079">
		<tag k="fixme" v="consider natural=peak for the most distinct mountains in the district" />
		<tag k="name" v="Lysvassheia" />
		<tag k="natural" v="hill" />
		<tag k="place" v="locality" />
		<tag k="ssr:stedsnr" v="742586" />
	</node>
	<node lat="63.95468055240422" lon="10.889072217381875" id="-49085">
		<tag k="fixme" v="consider natural=peak for the most distinct mountains in the district" />
		<tag k="name" v="Reinstjønnheia" />
		<tag k="natural" v="hill" />
		<tag k="place" v="locality" />
		<tag k="ssr:stedsnr" v="742599" />
	</node>
	<node lat="64.02549167111891" lon="11.082149994506096" id="-49090">
		<tag k="fixme" v="consider natural=peak for the most distinct mountains in the district" />
		<tag k="name" v="Malbuheia" />
		<tag k="natural" v="hill" />
		<tag k="place" v="locality" />
		<tag k="ssr:stedsnr" v="742991" />
	</node>
	<node lat="64.02976666836656" lon="11.100119437611044" id="-49092">
		<tag k="name" v="Almlilia" />
		<tag k="natural" v="slope" />
		<tag k="place" v="locality" />
		<tag k="ssr:stedsnr" v="742997" />
	</node>
	<node lat="64.13185555693131" lon="11.41634443668055" id="-49108">
		<tag k="name" v="Brannberget" />
		<tag k="natural" v="hill" />
		<tag k="place" v="locality" />
		<tag k="ssr:stedsnr" v="750476" />
	</node>
	<node lat="64.13712777379425" lon="11.418038897752645" id="-49109">
		<tag k="fixme" v="consider natural=peak for the most distinct mountains in the district" />
		<tag k="name" v="Melgårdshaugen" />
		<tag k="natural" v="hill" />
		<tag k="place" v="locality" />
		<tag k="ssr:stedsnr" v="750477" />
	</node>
	<node lat="64.11529444654131" lon="11.357216666714443" id="-49116">
		<tag k="name" v="Storberget" />
		<tag k="natural" v="hill" />
		<tag k="place" v="locality" />
		<tag k="ssr:stedsnr" v="750805" />
	</node>
	<node lat="63.88623333605825" lon="11.448394442516234" id="-49121">
		<tag k="name" v="Gåsberget" />
		<tag k="natural" v="hill" />
		<tag k="place" v="locality" />
		<tag k="ssr:stedsnr" v="750927" />
	</node>
	<node lat="63.89578888553629" lon="11.491875007508213" id="-49122">
		<tag k="name" v="Tømtberget" />
		<tag k="natural" v="hill" />
		<tag k="place" v="locality" />
		<tag k="ssr:stedsnr" v="750934" />
	</node>
	<node lat="63.998141662191664" lon="11.102058339008085" id="-49141">
		<tag k="name" v="Gomdalberget" />
		<tag k="natural" v="hill" />
		<tag k="place" v="locality" />
		<tag k="ssr:stedsnr" v="756109" />
	</node>
	<node lat="63.97593055209243" lon="11.678863886932465" id="-49148">
		<tag k="fixme" v="consider natural=peak for the most distinct mountains in the district" />
		<tag k="name" v="Finnkoiåsen" />
		<tag k="natural" v="hill" />
		<tag k="place" v="locality" />
		<tag k="ssr:stedsnr" v="756364" />
	</node>
	<node lat="64.14618333725625" lon="11.619380555079136" id="-49149">
		<tag k="name" v="Merkesdalen" />
		<tag k="natural" v="valley" />
		<tag k="place" v="locality" />
		<tag k="ssr:stedsnr" v="756397" />
	</node>
	<node lat="64.12816666914829" lon="11.608933323514286" id="-49151">
		<tag k="fixme" v="consider natural=peak for the most distinct mountains in the district" />
		<tag k="name" v="Halvardengåsen" />
		<tag k="natural" v="hill" />
		<tag k="place" v="locality" />
		<tag k="ssr:stedsnr" v="756420" />
	</node>
	<node lat="64.17439999712708" lon="11.833769434170891" id="-49154">
		<tag k="fixme" v="consider natural=peak for the most distinct mountains in the district" />
		<tag k="name" v="Rahalla" />
		<tag k="natural" v="hill" />
		<tag k="place" v="locality" />
		<tag k="ssr:stedsnr" v="756908" />
	</node>
	<node lat="64.16887500391796" lon="11.792422215360359" id="-49156">
		<tag k="name" v="Jøtaberga" />
		<tag k="natural" v="hill" />
		<tag k="place" v="locality" />
		<tag k="ssr:stedsnr" v="756897" />
	</node>
	<node lat="64.1750583360189" lon="11.458347212338618" id="-49169">
		<tag k="name" v="Visetengdalen" />
		<tag k="natural" v="valley" />
		<tag k="place" v="locality" />
		<tag k="ssr:stedsnr" v="775462" />
	</node>
	<node lat="64.18446388643285" lon="11.409838881918716" id="-49170">
		<tag k="name" v="Sveskaret" />
		<tag k="natural" v="valley" />
		<tag k="place" v="locality" />
		<tag k="ssr:stedsnr" v="775463" />
	</node>
	<node lat="63.980613887408936" lon="10.908158334549675" id="-49175">
		<tag k="name" v="Holmheia" />
		<tag k="natural" v="hill" />
		<tag k="place" v="locality" />
		<tag k="ssr:stedsnr" v="776151" />
	</node>
	<node lat="63.93036666421055" lon="10.816636106041106" id="-49177">
		<tag k="fixme" v="consider natural=peak for the most distinct mountains in the district" />
		<tag k="name" v="Finnåsen" />
		<tag k="natural" v="hill" />
		<tag k="place" v="locality" />
		<tag k="ssr:stedsnr" v="776156" />
	</node>
	<node lat="63.995922226379115" lon="11.023180559941615" id="-49180">
		<tag k="name" v="Todalen" />
		<tag k="natural" v="valley" />
		<tag k="place" v="locality" />
		<tag k="ssr:stedsnr" v="776059" />
	</node>
	<node lat="64.21368333067203" lon="11.52560832851378" id="-49182">
		<tag k="name" v="Måsåberget" />
		<tag k="natural" v="hill" />
		<tag k="place" v="locality" />
		<tag k="ssr:stedsnr" v="776063" />
	</node>
	<node lat="64.02986111160388" lon="10.885880564314466" id="-49184">
		<tag k="name" v="Sandvasslia" />
		<tag k="natural" v="slope" />
		<tag k="place" v="locality" />
		<tag k="ssr:stedsnr" v="776071" />
	</node>
	<node lat="64.15829444357722" lon="11.70059167667342" id="-49186">
		<tag k="name" v="Mulin" />
		<tag k="natural" v="hill" />
		<tag k="place" v="locality" />
		<tag k="ssr:stedsnr" v="776218" />
	</node>
	<node lat="64.04243888970993" lon="11.842663880165139" id="-49188">
		<tag k="fixme" v="consider natural=peak for the most distinct mountains in the district" />
		<tag k="name" v="Buåsen" />
		<tag k="natural" v="hill" />
		<tag k="place" v="locality" />
		<tag k="ssr:stedsnr" v="776909" />
	</node>
	<node lat="63.9764888887893" lon="11.730133341930236" id="-49191">
		<tag k="name" v="Lauvhaugen" />
		<tag k="natural" v="hill" />
		<tag k="place" v="locality" />
		<tag k="ssr:stedsnr" v="776937" />
	</node>
	<node lat="64.21330000205852" lon="11.864605560944982" id="-49196">
		<tag k="fixme" v="consider natural=peak for the most distinct mountains in the district" />
		<tag k="name" v="Tosttjønnfjellet" />
		<tag k="natural" v="hill" />
		<tag k="place" v="locality" />
		<tag k="ssr:stedsnr" v="776822" />
	</node>
	<node lat="64.00133611385635" lon="12.288758334471009" id="-49197">
		<tag k="name" v="Kjølen" />
		<tag k="natural" v="ridge" />
		<tag k="place" v="locality" />
		<tag k="ssr:stedsnr" v="777310" />
	</node>
	<node lat="64.02124166664404" lon="12.088111106577918" id="-49198">
		<tag k="fixme" v="consider natural=peak for the most distinct mountains in the district" />
		<tag k="name" v="Kroktjønnhalla" />
		<tag k="natural" v="hill" />
		<tag k="place" v="locality" />
		<tag k="ssr:stedsnr" v="777266" />
	</node>
	<node lat="63.930572221514176" lon="11.658561113472176" id="-49240">
		<tag k="fixme" v="multiple name tags, choose one and add the other to alt_name" />
		<tag k="name" v="Øveråsen;Bildstadhaugen" />
		<tag k="natural" v="hill" />
		<tag k="old_name" v="Bildstad haugen" />
		<tag k="place" v="locality" />
		<tag k="ssr:stedsnr" v="802076" />
	</node>
	<node lat="64.05512500349383" lon="11.900519440441977" id="-49245">
		<tag k="name" v="Gammelbustadhaugen" />
		<tag k="natural" v="hill" />
		<tag k="place" v="locality" />
		<tag k="ssr:stedsnr" v="802367" />
	</node>
	<node lat="64.08900277564076" lon="11.76847500619729" id="-49253">
		<tag k="alt_name" v="Nolden" />
		<tag k="fixme" v="consider natural=peak for the most distinct mountains in the district" />
		<tag k="name" v="Nollen" />
		<tag k="natural" v="hill" />
		<tag k="place" v="locality" />
		<tag k="ssr:stedsnr" v="803359" />
	</node>
	<node lat="64.10497221886479" lon="12.002722230745979" id="-49255">
		<tag k="name" v="Reintjønnhøgda" />
		<tag k="natural" v="hill" />
		<tag k="place" v="locality" />
		<tag k="ssr:stedsnr" v="803374" />
	</node>
	<node lat="64.07640833738083" lon="11.650311104989527" id="-49259">
		<tag k="alt_name" v="Høgåsen" />
		<tag k="fixme" v="consider natural=peak for the most distinct mountains in the district" />
		<tag k="name" v="Forsethalla" />
		<tag k="natural" v="hill" />
		<tag k="place" v="locality" />
		<tag k="ssr:stedsnr" v="803208" />
	</node>
	<node lat="64.10210000110455" lon="11.892066660331055" id="-49263">
		<tag k="name" v="Raudsjøhøgda" />
		<tag k="natural" v="hill" />
		<tag k="place" v="locality" />
		<tag k="ssr:stedsnr" v="803259" />
	</node>
	<node lat="63.88633055906411" lon="10.824594450913631" id="-49277">
		<tag k="fixme" v="consider natural=peak for the most distinct mountains in the district" />
		<tag k="loc_name" v="Lomtjønnheia" />
		<tag k="name" v="Stavremsheia" />
		<tag k="natural" v="hill" />
		<tag k="place" v="locality" />
		<tag k="ssr:stedsnr" v="803560" />
	</node>
	<node lat="64.0724222181123" lon="11.147463896197294" id="-49278">
		<tag k="fixme" v="consider natural=peak for the most distinct mountains in the district" />
		<tag k="name" v="Aunkammen" />
		<tag k="natural" v="hill" />
		<tag k="place" v="locality" />
		<tag k="ssr:stedsnr" v="803561" />
	</node>
	<node lat="64.06671667054931" lon="10.943255548223775" id="-49281">
		<tag k="fixme" v="consider natural=peak for the most distinct mountains in the district" />
		<tag k="name" v="Stuvågfjellet" />
		<tag k="natural" v="hill" />
		<tag k="place" v="locality" />
		<tag k="ssr:stedsnr" v="803572" />
	</node>
	<node lat="63.97651944726207" lon="10.929472214264234" id="-49282">
		<tag k="fixme" v="consider natural=peak for the most distinct mountains in the district" />
		<tag k="name" v="Vakkerheia" />
		<tag k="natural" v="hill" />
		<tag k="place" v="locality" />
		<tag k="ssr:stedsnr" v="803578" />
	</node>
	<node lat="64.26528610888131" lon="11.782699994357637" id="-49287">
		<tag k="alt_name" v="Austerdalen" />
		<tag k="name" v="Øysterdalen" />
		<tag k="natural" v="valley" />
		<tag k="place" v="locality" />
		<tag k="ssr:stedsnr" v="803618" />
	</node>
	<node lat="63.95063055899701" lon="10.981936120871906" id="-49289">
		<tag k="name" v="Rundhaugen" />
		<tag k="natural" v="hill" />
		<tag k="place" v="locality" />
		<tag k="ssr:stedsnr" v="803623" />
	</node>
</osm>
