<?xml version="1.0" encoding="UTF-8"?>
<osm version="0.6" generator="osmapis">
	<node lat="63.98110277693686" lon="11.799602778023761" id="-40523">
		<tag k="historic" v="shieling" />
		<tag k="name" v="Håmmårseteren" />
		<tag k="place" v="isolated_dwelling" />
		<tag k="ssr:stedsnr" v="230573" />
	</node>
	<node lat="64.13398055772714" lon="11.641308333182506" id="-40550">
		<tag k="name" v="Knedalen" />
		<tag k="place" v="farm" />
		<tag k="ssr:stedsnr" v="13807" />
	</node>
	<node lat="63.921266663772116" lon="11.481669446242226" id="-40551">
		<tag k="alt_name" v="Dalsve" />
		<tag k="name" v="Dalsveet" />
		<tag k="place" v="farm" />
		<tag k="ssr:stedsnr" v="14003" />
	</node>
	<node lat="64.04723939042226" lon="11.487003321469041" id="-40552">
		<tag k="fixme" v="consider place=hamlet" />
		<tag k="name" v="Sneve" />
		<tag k="place" v="farm" />
		<tag k="ssr:stedsnr" v="14008" />
	</node>
	<node lat="63.97032499793594" lon="11.654302783176027" id="-40557">
		<tag k="name" v="Fredly" />
		<tag k="place" v="farm" />
		<tag k="ssr:stedsnr" v="13995" />
	</node>
	<node lat="63.96960833286425" lon="11.663230554882254" id="-40559">
		<tag k="alt_name" v="Fjesme nedre" />
		<tag k="name" v="Nedre Fjesme" />
		<tag k="place" v="farm" />
		<tag k="ssr:stedsnr" v="13997" />
	</node>
	<node lat="63.908350001008095" lon="11.422602770615352" id="-40560">
		<tag k="name" v="Nedre Barkalden" />
		<tag k="old_name" v="Barkald, nedre" />
		<tag k="place" v="farm" />
		<tag k="ssr:stedsnr" v="14101" />
	</node>
	<node lat="64.03725739970339" lon="11.381175749236295" id="-40561">
		<tag k="fixme" v="consider place=hamlet" />
		<tag k="name" v="Lagtu" />
		<tag k="place" v="farm" />
		<tag k="ssr:stedsnr" v="14102" />
	</node>
	<node lat="64.03918919277129" lon="11.3967951970815" id="-40563">
		<tag k="fixme" v="consider place=hamlet" />
		<tag k="name" v="Jenshus" />
		<tag k="place" v="farm" />
		<tag k="ssr:stedsnr" v="14096" />
	</node>
	<node lat="63.91412708728114" lon="11.388862373864415" id="-40564">
		<tag k="fixme" v="consider place=hamlet" />
		<tag k="name" v="Våset" />
		<tag k="place" v="farm" />
		<tag k="ssr:stedsnr" v="14100" />
	</node>
	<node lat="63.993399995565824" lon="11.832422229656279" id="-40566">
		<tag k="name" v="Gran" />
		<tag k="place" v="farm" />
		<tag k="ssr:stedsnr" v="14258" />
	</node>
	<node lat="64.07933604423907" lon="11.723180095156966" id="-40567">
		<tag k="fixme" v="consider place=hamlet" />
		<tag k="name" v="Skjerve" />
		<tag k="place" v="farm" />
		<tag k="ssr:stedsnr" v="14260" />
	</node>
	<node lat="63.971174998156734" lon="12.01901666535742" id="-40577">
		<tag k="name" v="Moaseteren" />
		<tag k="place" v="isolated_dwelling" />
		<tag k="ssr:stedsnr" v="14306" />
	</node>
	<node lat="63.97637499549984" lon="12.104588898476656" id="-40580">
		<tag k="name" v="Elvereng" />
		<tag k="place" v="farm" />
		<tag k="ssr:stedsnr" v="14311" />
	</node>
	<node lat="64.0045472260144" lon="11.658352772188977" id="-40583">
		<tag k="name" v="Ås" />
		<tag k="place" v="farm" />
		<tag k="ssr:stedsnr" v="14328" />
	</node>
	<node lat="63.991416662880766" lon="12.01383611914336" id="-40585">
		<tag k="name" v="Damstua" />
		<tag k="place" v="isolated_dwelling" />
		<tag k="ssr:stedsnr" v="14337" />
	</node>
	<node lat="64.01724444412046" lon="11.548222217840546" id="-40586">
		<tag k="alt_name" v="Nybo" />
		<tag k="name" v="Nyborg" />
		<tag k="place" v="farm" />
		<tag k="ssr:stedsnr" v="14338" />
	</node>
	<node lat="64.16142777922126" lon="11.801563894043726" id="-40590">
		<tag k="name" v="Skogheim" />
		<tag k="place" v="farm" />
		<tag k="ssr:stedsnr" v="14378" />
	</node>
	<node lat="64.1279961352172" lon="11.42910124193358" id="-40599">
		<tag k="name" v="Haugen" />
		<tag k="place" v="hamlet" />
		<tag k="ssr:stedsnr" v="14770" />
	</node>
	<node lat="64.0014083321152" lon="11.179030552077398" id="-40606">
		<tag k="alt_name" v="Sagen" />
		<tag k="name" v="Saga" />
		<tag k="place" v="farm" />
		<tag k="ssr:stedsnr" v="14872" />
	</node>
	<node lat="64.01085277858868" lon="11.203583337199476" id="-40607">
		<tag k="name" v="Nordgard" />
		<tag k="place" v="farm" />
		<tag k="ssr:stedsnr" v="14875" />
	</node>
	<node lat="63.9842777761049" lon="11.609949990573227" id="-40609">
		<tag k="name" v="Røliaunet" />
		<tag k="place" v="farm" />
		<tag k="ssr:stedsnr" v="14961" />
	</node>
	<node lat="63.98498610898471" lon="11.612897216283491" id="-40610">
		<tag k="alt_name" v="Rølihaugen" />
		<tag k="name" v="Haugen" />
		<tag k="place" v="farm" />
		<tag k="ssr:stedsnr" v="14962" />
	</node>
	<node lat="64.05711533610227" lon="11.148766452040466" id="-40611">
		<tag k="fixme" v="consider place=hamlet" />
		<tag k="name" v="Rennmoen" />
		<tag k="place" v="farm" />
		<tag k="ssr:stedsnr" v="14964" />
	</node>
	<node lat="64.0476111142863" lon="11.33860555011824" id="-40614">
		<tag k="name" v="Innlegget" />
		<tag k="place" v="farm" />
		<tag k="ssr:stedsnr" v="22184" />
	</node>
	<node lat="64.11779722370564" lon="11.399288891730006" id="-40617">
		<tag k="name" v="Ner-Velle" />
		<tag k="place" v="farm" />
		<tag k="ssr:stedsnr" v="22482" />
	</node>
	<node lat="63.905011114343004" lon="11.549177782560148" id="-40620">
		<tag k="name" v="Rømo" />
		<tag k="place" v="farm" />
		<tag k="ssr:stedsnr" v="22706" />
	</node>
	<node lat="64.13141111360936" lon="11.324394454164526" id="-40625">
		<tag k="alt_name" v="Gladse" />
		<tag k="name" v="Midtre Gladse" />
		<tag k="place" v="farm" />
		<tag k="ssr:stedsnr" v="22804" />
	</node>
	<node lat="64.11341798468244" lon="11.327678678234935" id="-40629">
		<tag k="name" v="Ner-Hjellan" />
		<tag k="place" v="farm" />
		<tag k="ssr:stedsnr" v="22829" />
	</node>
	<node lat="63.96161388827533" lon="11.39423888855958" id="-40631">
		<tag k="name" v="Holan" />
		<tag k="place" v="farm" />
		<tag k="ssr:stedsnr" v="22883" />
	</node>
	<node lat="63.9164166630856" lon="11.391188878641806" id="-40636">
		<tag k="name" v="Granheim" />
		<tag k="place" v="farm" />
		<tag k="ssr:stedsnr" v="22986" />
	</node>
	<node lat="63.90163611015179" lon="11.378705562128882" id="-40637">
		<tag k="name" v="Bulungsskardet" />
		<tag k="place" v="farm" />
		<tag k="ssr:stedsnr" v="22987" />
	</node>
	<node lat="64.09990674459051" lon="11.381771116470773" id="-40639">
		<tag k="fixme" v="consider place=hamlet" />
		<tag k="name" v="Vikan" />
		<tag k="place" v="farm" />
		<tag k="ssr:stedsnr" v="26201" />
	</node>
	<node lat="64.17771388987946" lon="11.737575000665117" id="-40653">
		<tag k="name" v="Skogplassen" />
		<tag k="place" v="locality" />
		<tag k="ssr:stedsnr" v="28121" />
	</node>
	<node lat="64.09780555799509" lon="11.725252773102056" id="-40654">
		<tag k="fixme" v="multiple name tags, choose one and add the other to alt_name" />
		<tag k="name" v="Åsan;Austre Åsan" />
		<tag k="place" v="farm" />
		<tag k="ssr:stedsnr" v="28171" />
	</node>
	<node lat="64.14931944478367" lon="11.753230548804474" id="-40655">
		<tag k="name" v="Olaåsen" />
		<tag k="place" v="locality" />
		<tag k="ssr:stedsnr" v="28176" />
	</node>
	<node lat="64.05437777667494" lon="11.660955560424918" id="-40659">
		<tag k="name" v="Brekka" />
		<tag k="place" v="locality" />
		<tag k="ssr:stedsnr" v="28307" />
	</node>
	<node lat="64.0773583310251" lon="11.746661108635251" id="-40660">
		<tag k="name" v="Klæbu" />
		<tag k="place" v="farm" />
		<tag k="ssr:stedsnr" v="28202" />
	</node>
	<node lat="64.01859721887946" lon="11.760669442067215" id="-40664">
		<tag k="alt_name" v="Åsan vestre" />
		<tag k="name" v="Vestre Åsan" />
		<tag k="place" v="farm" />
		<tag k="ssr:stedsnr" v="28403" />
	</node>
	<node lat="64.04757499660712" lon="11.585697226326529" id="-40670">
		<tag k="name" v="Trappneset" />
		<tag k="place" v="farm" />
		<tag k="ssr:stedsnr" v="28519" />
	</node>
	<node lat="63.94651944025202" lon="11.389191659018474" id="-40681">
		<tag k="alt_name" v="Lønnem" />
		<tag k="name" v="Nedre Lønnem" />
		<tag k="place" v="farm" />
		<tag k="ssr:stedsnr" v="30785" />
	</node>
	<node lat="63.98828888863106" lon="10.889455547735512" id="-40724">
		<tag k="alt_name" v="Sandseter østre" />
		<tag k="name" v="Østre Sandseter" />
		<tag k="place" v="farm" />
		<tag k="ssr:stedsnr" v="47101" />
	</node>
	<node lat="63.956930555474045" lon="11.610263885500899" id="-40749">
		<tag k="name" v="Skarpnes boligfelt" />
		<tag k="place" v="quarter" />
		<tag k="ssr:stedsnr" v="239321" />
	</node>
	<node lat="63.956930551384346" lon="11.613308323062865" id="-40768">
		<tag k="name" v="Granstubben boligfelt" />
		<tag k="place" v="quarter" />
		<tag k="ssr:stedsnr" v="57303" />
	</node>
	<node lat="64.11183055633917" lon="11.732113897481247" id="-40770">
		<tag k="name" v="Nordgard" />
		<tag k="place" v="farm" />
		<tag k="ssr:stedsnr" v="59876" />
	</node>
	<node lat="64.0289555547417" lon="11.542636102761795" id="-40771">
		<tag k="amenity" v="school" />
		<tag k="name" v="Byafossen skole" />
		<tag k="ssr:stedsnr" v="241019" />
	</node>
	<node lat="64.07000277338074" lon="11.215927774652181" id="-40772">
		<tag k="amenity" v="school" />
		<tag k="name" v="Malm skole" />
		<tag k="ssr:stedsnr" v="241213" />
	</node>
	<node lat="63.92190833426167" lon="11.419913889859652" id="-40782">
		<tag k="name" v="Risholt" />
		<tag k="place" v="farm" />
		<tag k="ssr:stedsnr" v="74017" />
	</node>
	<node lat="63.91861709669323" lon="11.40585489093253" id="-40783">
		<tag k="fixme" v="consider place=hamlet" />
		<tag k="name" v="Braset" />
		<tag k="place" v="farm" />
		<tag k="ssr:stedsnr" v="74019" />
	</node>
	<node lat="63.92163954524008" lon="11.457565001611314" id="-40784">
		<tag k="name" v="Nordgården" />
		<tag k="place" v="hamlet" />
		<tag k="ssr:stedsnr" v="74028" />
	</node>
	<node lat="63.9275539800623" lon="11.516141865692935" id="-40785">
		<tag k="fixme" v="consider place=hamlet" />
		<tag k="name" v="Stevra" />
		<tag k="place" v="farm" />
		<tag k="ssr:stedsnr" v="74030" />
	</node>
	<node lat="63.93012777656666" lon="11.59193056060323" id="-40786">
		<tag k="alt_name" v="Langli ned:" />
		<tag k="name" v="Langli" />
		<tag k="place" v="farm" />
		<tag k="ssr:stedsnr" v="74039" />
	</node>
	<node lat="64.04300277452352" lon="11.618188879068692" id="-40788">
		<tag k="name" v="Ner-Råde" />
		<tag k="place" v="farm" />
		<tag k="ssr:stedsnr" v="74105" />
	</node>
	<node lat="64.04061621767428" lon="11.557747278960724" id="-40789">
		<tag k="name" v="Rein" />
		<tag k="place" v="farm" />
		<tag k="ssr:stedsnr" v="74107" />
	</node>
	<node lat="64.03918055897707" lon="11.502247217645197" id="-40790">
		<tag k="name" v="Lia" />
		<tag k="place" v="farm" />
		<tag k="ssr:stedsnr" v="74108" />
	</node>
	<node lat="63.91965277940916" lon="11.588677769597158" id="-40791">
		<tag k="name" v="Nordnes" />
		<tag k="place" v="farm" />
		<tag k="ssr:stedsnr" v="74116" />
	</node>
	<node lat="64.08688611570147" lon="11.325977771063753" id="-40792">
		<tag k="name" v="Austli" />
		<tag k="place" v="farm" />
		<tag k="ssr:stedsnr" v="74173" />
	</node>
	<node lat="64.11448889208995" lon="12.02281666915326" id="-40793">
		<tag k="historic" v="shieling" />
		<tag k="name" v="Strandviksetran" />
		<tag k="place" v="isolated_dwelling" />
		<tag k="ssr:stedsnr" v="74273" />
	</node>
	<node lat="63.98215833039938" lon="11.886141667050659" id="-40794">
		<tag k="name" v="Øvre Kjesbua" />
		<tag k="place" v="farm" />
		<tag k="ssr:stedsnr" v="74408" />
	</node>
	<node lat="64.19522499984645" lon="11.953005552832018" id="-40795">
		<tag k="name" v="Heggestrøa" />
		<tag k="place" v="farm" />
		<tag k="ssr:stedsnr" v="74502" />
	</node>
	<node lat="64.12242222510176" lon="11.585902779838465" id="-40807">
		<tag k="name" v="Kolberg" />
		<tag k="place" v="farm" />
		<tag k="ssr:stedsnr" v="74772" />
	</node>
	<node lat="63.95633971690937" lon="11.423082765964143" id="-40808">
		<tag k="fixme" v="consider place=hamlet" />
		<tag k="name" v="Lånkan" />
		<tag k="place" v="farm" />
		<tag k="ssr:stedsnr" v="74902" />
	</node>
	<node lat="64.04709444723234" lon="11.101300005816386" id="-40813">
		<tag k="alt_name" v="Folladal nedre" />
		<tag k="name" v="Folladal" />
		<tag k="place" v="farm" />
		<tag k="ssr:stedsnr" v="74962" />
	</node>
	<node lat="64.06018333780489" lon="11.66793888352119" id="-40815">
		<tag k="alt_name" v="Tvestadlia" />
		<tag k="name" v="Tvestad" />
		<tag k="place" v="farm" />
		<tag k="ssr:stedsnr" v="75003" />
	</node>
	<node lat="64.02498642038393" lon="11.635908012463583" id="-40818">
		<tag k="name" v="Øyster-Skei" />
		<tag k="place" v="hamlet" />
		<tag k="ssr:stedsnr" v="75073" />
	</node>
	<node lat="64.03677564558377" lon="11.467419420885909" id="-40820">
		<tag k="alt_name" v="Østby" />
		<tag k="name" v="Austby" />
		<tag k="place" v="hamlet" />
		<tag k="ssr:stedsnr" v="75115" />
	</node>
	<node lat="63.97335555702973" lon="12.111416659275308" id="-40821">
		<tag k="alt_name" v="Bakken, nedre;Nedre Bakken" />
		<tag k="name" v="Ner-Bakken" />
		<tag k="place" v="farm" />
		<tag k="ssr:stedsnr" v="75405" />
	</node>
	<node lat="64.00461110857455" lon="11.51938610967453" id="-40824">
		<tag k="name" v="Ner-Trana" />
		<tag k="place" v="farm" />
		<tag k="ssr:stedsnr" v="75450" />
	</node>
	<node lat="64.00598611004588" lon="11.580219437904296" id="-40825">
		<tag k="name" v="Bruåsen" />
		<tag k="place" v="farm" />
		<tag k="ssr:stedsnr" v="75454" />
	</node>
	<node lat="63.938191668717145" lon="11.768086119593606" id="-40826">
		<tag k="name" v="Tømmeråsseteren" />
		<tag k="place" v="locality" />
		<tag k="ssr:stedsnr" v="75500" />
	</node>
	<node lat="64.01892777429465" lon="11.763561103583344" id="-40829">
		<tag k="alt_name" v="Østre Åsan;Åsan østre" />
		<tag k="name" v="Åsen" />
		<tag k="place" v="farm" />
		<tag k="ssr:stedsnr" v="75706" />
	</node>
	<node lat="64.0095277793233" lon="11.863344436917435" id="-40833">
		<tag k="alt_name" v="Nygård" />
		<tag k="name" v="Nygard" />
		<tag k="place" v="farm" />
		<tag k="ssr:stedsnr" v="75715" />
	</node>
	<node lat="63.950477779224876" lon="11.000188896911578" id="-40837">
		<tag k="fixme" v="multiple name tags, choose one and add the other to alt_name" />
		<tag k="name" v="Svean;Haugen" />
		<tag k="place" v="farm" />
		<tag k="ssr:stedsnr" v="75658" />
	</node>
	<node lat="64.06278952406936" lon="11.253826088152218" id="-40840">
		<tag k="fixme" v="consider place=hamlet" />
		<tag k="name" v="Holia" />
		<tag k="place" v="farm" />
		<tag k="ssr:stedsnr" v="83119" />
	</node>
	<node lat="63.894616668296806" lon="11.394866658071221" id="-40848">
		<tag k="name" v="Nordenget" />
		<tag k="place" v="farm" />
		<tag k="ssr:stedsnr" v="83817" />
	</node>
	<node lat="63.96252222526826" lon="11.447011108173047" id="-40852">
		<tag k="name" v="Granli" />
		<tag k="place" v="farm" />
		<tag k="ssr:stedsnr" v="83905" />
	</node>
	<node lat="63.92408055572395" lon="11.464424996502812" id="-40854">
		<tag k="name" v="Bardal" />
		<tag k="place" v="farm" />
		<tag k="ssr:stedsnr" v="83982" />
	</node>
	<node lat="63.90857221917077" lon="11.465288886314584" id="-40856">
		<tag k="name" v="Landstadkåret" />
		<tag k="place" v="farm" />
		<tag k="ssr:stedsnr" v="83999" />
	</node>
	<node lat="63.919933329336075" lon="11.57446388688626" id="-40877">
		<tag k="name" v="Finstad" />
		<tag k="place" v="farm" />
		<tag k="ssr:stedsnr" v="89905" />
	</node>
	<node lat="64.03213888689235" lon="11.475277769551019" id="-40881">
		<tag k="name" v="Elvrom" />
		<tag k="place" v="farm" />
		<tag k="ssr:stedsnr" v="102012" />
	</node>
	<node lat="64.08899722046242" lon="11.773549997303538" id="-40916">
		<tag k="name" v="Ebbersrønningen" />
		<tag k="place" v="locality" />
		<tag k="ssr:stedsnr" v="109781" />
	</node>
	<node lat="63.99668611228001" lon="11.480158333882287" id="-40941">
		<tag k="name" v="Løhaugen" />
		<tag k="place" v="quarter" />
		<tag k="ssr:stedsnr" v="118412" />
	</node>
	<node lat="64.12633333527192" lon="11.10564167271072" id="-40942">
		<tag k="name" v="Sundet" />
		<tag k="place" v="neighbourhood" />
		<tag k="ssr:stedsnr" v="118881" />
	</node>
	<node lat="64.0489805552694" lon="11.54148889664308" id="-40943">
		<tag k="fixme" v="consider tourism=alpine_hut or tourism=chalet" />
		<tag k="name" v="Svarttjønnbua" />
		<tag k="ssr:stedsnr" v="119127" />
		<tag k="tourism" v="wilderness_hut" />
	</node>
	<node lat="64.02222949991506" lon="11.463022622320826" id="-40949">
		<tag k="fixme" v="consider place=hamlet" />
		<tag k="name" v="Egge" />
		<tag k="place" v="farm" />
		<tag k="ssr:stedsnr" v="128594" />
	</node>
	<node lat="64.09626050687008" lon="11.240718968114704" id="-40952">
		<tag k="alt_name" v="Tverås" />
		<tag k="name" v="Tverrås" />
		<tag k="place" v="hamlet" />
		<tag k="ssr:stedsnr" v="134257" />
	</node>
	<node lat="64.05825833406043" lon="11.878741657688652" id="-40954">
		<tag k="name" v="Høgåsen" />
		<tag k="place" v="locality" />
		<tag k="ssr:stedsnr" v="134370" />
	</node>
	<node lat="64.18644065830392" lon="11.865978979784927" id="-40955">
		<tag k="alt_name" v="Nordaunet" />
		<tag k="name" v="Støstad" />
		<tag k="place" v="hamlet" />
		<tag k="ssr:stedsnr" v="134520" />
	</node>
	<node lat="64.1877666683953" lon="11.85207500966476" id="-40956">
		<tag k="name" v="Tangen" />
		<tag k="place" v="farm" />
		<tag k="ssr:stedsnr" v="134521" />
	</node>
	<node lat="64.22796944822066" lon="11.887166658992212" id="-40957">
		<tag k="name" v="Kjerkolsetran" />
		<tag k="place" v="locality" />
		<tag k="ssr:stedsnr" v="134455" />
	</node>
	<node lat="64.13073888666985" lon="11.649675005506708" id="-40959">
		<tag k="alt_name" v="Nyrø" />
		<tag k="name" v="Nordberg" />
		<tag k="place" v="farm" />
		<tag k="ssr:stedsnr" v="134818" />
	</node>
	<node lat="63.9204805513741" lon="11.397449997022473" id="-40960">
		<tag k="name" v="Myrvoll" />
		<tag k="place" v="farm" />
		<tag k="ssr:stedsnr" v="135005" />
	</node>
	<node lat="63.91963055800957" lon="11.464105563377279" id="-40961">
		<tag k="name" v="Melgården" />
		<tag k="place" v="farm" />
		<tag k="ssr:stedsnr" v="135009" />
	</node>
	<node lat="63.91375555337889" lon="11.51107222859646" id="-40963">
		<tag k="name" v="Hustad" />
		<tag k="place" v="farm" />
		<tag k="ssr:stedsnr" v="135014" />
	</node>
	<node lat="64.04528055945362" lon="11.340394452465452" id="-40964">
		<tag k="name" v="Øyster-Elnan" />
		<tag k="place" v="farm" />
		<tag k="ssr:stedsnr" v="135016" />
	</node>
	<node lat="64.04526146072692" lon="11.4244911786739" id="-40965">
		<tag k="name" v="Hoset" />
		<tag k="place" v="hamlet" />
		<tag k="ssr:stedsnr" v="135018" />
	</node>
	<node lat="64.04291726044619" lon="11.40749021112415" id="-40966">
		<tag k="fixme" v="multiple name tags, choose one and add the other to alt_name" />
		<tag k="name" v="Hosetaunet;Hoset vestre;Vestre Hoset" />
		<tag k="place" v="farm" />
		<tag k="ssr:stedsnr" v="135019" />
	</node>
	<node lat="64.03468895194624" lon="11.434185977443148" id="-40969">
		<tag k="name" v="Ovrein" />
		<tag k="place" v="hamlet" />
		<tag k="ssr:stedsnr" v="135110" />
	</node>
	<node lat="63.910965249346475" lon="11.468747400304085" id="-40970">
		<tag k="fixme" v="consider place=hamlet" />
		<tag k="name" v="Oppem" />
		<tag k="place" v="farm" />
		<tag k="ssr:stedsnr" v="135113" />
	</node>
	<node lat="63.994008330113715" lon="11.834463885339437" id="-40971">
		<tag k="name" v="Granli" />
		<tag k="place" v="farm" />
		<tag k="ssr:stedsnr" v="135311" />
	</node>
	<node lat="64.0863292495599" lon="11.778454571386966" id="-40973">
		<tag k="fixme" v="consider place=hamlet" />
		<tag k="name" v="Eidberg" />
		<tag k="place" v="farm" />
		<tag k="ssr:stedsnr" v="135318" />
	</node>
	<node lat="64.07777332257649" lon="11.292779016955278" id="-40975">
		<tag k="fixme" v="consider place=hamlet" />
		<tag k="name" v="Aursåsen" />
		<tag k="place" v="farm" />
		<tag k="ssr:stedsnr" v="135202" />
	</node>
	<node lat="64.08307583427161" lon="11.657595921558125" id="-40978">
		<tag k="fixme" v="consider place=hamlet" />
		<tag k="name" v="Husan" />
		<tag k="place" v="farm" />
		<tag k="ssr:stedsnr" v="135230" />
	</node>
	<node lat="64.08843333672796" lon="11.640455557042113" id="-40979">
		<tag k="alt_name" v="Nyrø" />
		<tag k="name" v="Nyrød" />
		<tag k="place" v="farm" />
		<tag k="ssr:stedsnr" v="135232" />
	</node>
	<node lat="64.11679598071964" lon="11.827044698034442" id="-40980">
		<tag k="fixme" v="consider place=hamlet" />
		<tag k="name" v="Nordfjellet" />
		<tag k="place" v="farm" />
		<tag k="ssr:stedsnr" v="135253" />
	</node>
	<node lat="64.24737500394079" lon="11.866213883133227" id="-40981">
		<tag k="name" v="Øksnessetran" />
		<tag k="place" v="isolated_dwelling" />
		<tag k="ssr:stedsnr" v="135404" />
	</node>
	<node lat="63.99253333057168" lon="11.871502772629263" id="-40982">
		<tag k="name" v="Myr" />
		<tag k="place" v="farm" />
		<tag k="ssr:stedsnr" v="135410" />
	</node>
	<node lat="64.00064444390102" lon="11.570480556333457" id="-40986">
		<tag k="name" v="Saur" />
		<tag k="place" v="farm" />
		<tag k="ssr:stedsnr" v="135401" />
	</node>
	<node lat="63.94445833352431" lon="11.890633332428717" id="-40992">
		<tag k="name" v="Tjuruholstua" />
		<tag k="place" v="isolated_dwelling" />
		<tag k="ssr:stedsnr" v="135465" />
	</node>
	<node lat="64.03943610849207" lon="11.860491656530481" id="-40995">
		<tag k="name" v="Heggnesa" />
		<tag k="place" v="locality" />
		<tag k="ssr:stedsnr" v="135620" />
	</node>
	<node lat="64.01683333068368" lon="12.000999994715155" id="-40996">
		<tag k="name" v="Myggheimen" />
		<tag k="place" v="isolated_dwelling" />
		<tag k="ssr:stedsnr" v="135656" />
	</node>
	<node lat="63.99023055648076" lon="11.68807499578521" id="-40999">
		<tag k="name" v="Arnstad" />
		<tag k="place" v="farm" />
		<tag k="ssr:stedsnr" v="135949" />
	</node>
	<node lat="64.01986111072654" lon="11.11143056181784" id="-41000">
		<tag k="name" v="Vadamelen" />
		<tag k="place" v="farm" />
		<tag k="ssr:stedsnr" v="135981" />
	</node>
	<node lat="64.02405832987675" lon="10.991566662480855" id="-41001">
		<tag k="alt_name" v="Midterheia" />
		<tag k="historic" v="shieling" />
		<tag k="name" v="Midterheiseteren" />
		<tag k="old_name" v="Midtreheiaseteren" />
		<tag k="place" v="isolated_dwelling" />
		<tag k="ssr:stedsnr" v="135984" />
	</node>
	<node lat="63.921219066169336" lon="11.375978352474538" id="-41004">
		<tag k="fixme" v="consider place=hamlet" />
		<tag k="name" v="Tønne" />
		<tag k="place" v="farm" />
		<tag k="ssr:stedsnr" v="256014" />
	</node>
	<node lat="64.09587777494268" lon="11.261758326964264" id="-41018">
		<tag k="name" v="Vassenget" />
		<tag k="place" v="farm" />
		<tag k="ssr:stedsnr" v="143803" />
	</node>
	<node lat="63.91397221871504" lon="11.440911114367262" id="-41032">
		<tag k="name" v="Leirdal" />
		<tag k="place" v="farm" />
		<tag k="ssr:stedsnr" v="256116" />
	</node>
	<node lat="63.91905773903187" lon="11.432951998194083" id="-41033">
		<tag k="name" v="Sparbu" />
		<tag k="place" v="village" />
		<tag k="ssr:stedsnr" v="256024" />
	</node>
	<node lat="63.932863104648014" lon="11.379512927177718" id="-41035">
		<tag k="fixme" v="consider place=hamlet" />
		<tag k="name" v="Naust" />
		<tag k="place" v="farm" />
		<tag k="ssr:stedsnr" v="256032" />
	</node>
	<node lat="64.05322777607729" lon="11.630788882492029" id="-41036">
		<tag k="name" v="Rådsaunet" />
		<tag k="place" v="farm" />
		<tag k="ssr:stedsnr" v="256039" />
	</node>
	<node lat="64.07103200602872" lon="11.3380019536729" id="-41037">
		<tag k="fixme" v="consider place=hamlet" />
		<tag k="name" v="Morkved" />
		<tag k="place" v="farm" />
		<tag k="ssr:stedsnr" v="256046" />
	</node>
	<node lat="63.89727237209581" lon="11.520466123976078" id="-41038">
		<tag k="fixme" v="consider place=hamlet" />
		<tag k="name" v="Dyrstad" />
		<tag k="place" v="farm" />
		<tag k="ssr:stedsnr" v="256092" />
	</node>
	<node lat="63.91232787740849" lon="11.58680194129082" id="-41039">
		<tag k="fixme" v="multiple name tags, choose one and add the other to alt_name; consider place=hamlet" />
		<tag k="name" v="Fisknes;Nedre Fisknes" />
		<tag k="place" v="farm" />
		<tag k="ssr:stedsnr" v="256106" />
	</node>
	<node lat="64.08718145965197" lon="11.288445285440156" id="-41040">
		<tag k="fixme" v="consider place=hamlet" />
		<tag k="name" v="Såggåstad" />
		<tag k="place" v="farm" />
		<tag k="ssr:stedsnr" v="256192" />
	</node>
	<node lat="64.1193388889239" lon="11.767452775943433" id="-41041">
		<tag k="name" v="Nordli" />
		<tag k="place" v="farm" />
		<tag k="ssr:stedsnr" v="149103" />
	</node>
	<node lat="64.12918888990018" lon="11.74150278234671" id="-41048">
		<tag k="name" v="Solnes" />
		<tag k="place" v="farm" />
		<tag k="ssr:stedsnr" v="256268" />
	</node>
	<node lat="63.84337222626859" lon="10.681433328096084" id="-41050">
		<tag k="name" v="Litl-Molden" />
		<tag k="place" v="farm" />
		<tag k="ssr:stedsnr" v="149054" />
	</node>
	<node lat="64.08986316330335" lon="11.331380631211577" id="-41053">
		<tag k="fixme" v="consider place=hamlet" />
		<tag k="name" v="Solberg" />
		<tag k="place" v="farm" />
		<tag k="ssr:stedsnr" v="256239" />
	</node>
	<node lat="64.03587778039635" lon="11.49653055766584" id="-41067">
		<tag k="leisure" v="pitch" />
		<tag k="name" v="Steinkjer skistadion" />
		<tag k="old_name" v="Skistadion" />
		<tag k="ssr:stedsnr" v="149917" />
	</node>
	<node lat="63.97968333777472" lon="12.11503888754951" id="-41075">
		<tag k="name" v="Lia" />
		<tag k="place" v="farm" />
		<tag k="ssr:stedsnr" v="256398" />
	</node>
	<node lat="64.18225232012358" lon="11.919215567505564" id="-41078">
		<tag k="fixme" v="consider place=hamlet" />
		<tag k="name" v="Auster-Ol" />
		<tag k="place" v="farm" />
		<tag k="ssr:stedsnr" v="256418" />
	</node>
	<node lat="63.999491669103364" lon="12.199800002418032" id="-41084">
		<tag k="name" v="Ragnhildholet" />
		<tag k="place" v="isolated_dwelling" />
		<tag k="ssr:stedsnr" v="256320" />
	</node>
	<node lat="63.895764020471155" lon="10.890008160540622" id="-41093">
		<tag k="fixme" v="consider place=hamlet" />
		<tag k="name" v="Bolmset" />
		<tag k="place" v="farm" />
		<tag k="ssr:stedsnr" v="256521" />
	</node>
	<node lat="63.99215972670689" lon="11.120925216160764" id="-41096">
		<tag k="name" v="Vassbakken" />
		<tag k="old_name" v="Vandbakken" />
		<tag k="place" v="locality" />
		<tag k="ssr:stedsnr" v="256553" />
	</node>
	<node lat="64.02507500393403" lon="11.842861108792416" id="-41098">
		<tag k="name" v="Åsheim" />
		<tag k="place" v="farm" />
		<tag k="ssr:stedsnr" v="256631" />
	</node>
	<node lat="64.02086944125479" lon="11.838319446884977" id="-41099">
		<tag k="name" v="Solbu" />
		<tag k="place" v="farm" />
		<tag k="ssr:stedsnr" v="256634" />
	</node>
	<node lat="64.02228683559116" lon="11.773632020862687" id="-41100">
		<tag k="fixme" v="consider place=hamlet" />
		<tag k="name" v="Finnstad" />
		<tag k="place" v="farm" />
		<tag k="ssr:stedsnr" v="256638" />
	</node>
	<node lat="64.12094999917018" lon="11.123269439195374" id="-41103">
		<tag k="name" v="Storlisetran" />
		<tag k="place" v="locality" />
		<tag k="ssr:stedsnr" v="256588" />
	</node>
	<node lat="63.88490833206256" lon="10.854688890266399" id="-41107">
		<tag k="name" v="Ytter-Stavrem" />
		<tag k="place" v="farm" />
		<tag k="ssr:stedsnr" v="256674" />
	</node>
	<node lat="64.12374721983832" lon="11.31294167373831" id="-41113">
		<tag k="name" v="Sprovmarka" />
		<tag k="place" v="farm" />
		<tag k="ssr:stedsnr" v="256747" />
	</node>
	<node lat="64.23248055228554" lon="11.587536114413675" id="-41114">
		<tag k="name" v="Guinsetran" />
		<tag k="place" v="locality" />
		<tag k="ssr:stedsnr" v="256919" />
	</node>
	<node lat="63.948355555834894" lon="11.547105560330898" id="-41116">
		<tag k="name" v="Sotberg" />
		<tag k="place" v="farm" />
		<tag k="ssr:stedsnr" v="256886" />
	</node>
	<node lat="63.95433333200346" lon="11.53302221845833" id="-41117">
		<tag k="name" v="Kolstad" />
		<tag k="place" v="farm" />
		<tag k="ssr:stedsnr" v="256888" />
	</node>
	<node lat="64.04346666335539" lon="11.083799993581954" id="-41119">
		<tag k="building" v="industrial" />
		<tag k="industrial" v="factory" />
		<tag k="name" v="Brattingfoss" />
		<tag k="ssr:stedsnr" v="256934" />
	</node>
	<node lat="63.998004455837105" lon="11.606265989496139" id="-41120">
		<tag k="fixme" v="consider place=hamlet" />
		<tag k="name" v="Fjeset" />
		<tag k="place" v="farm" />
		<tag k="ssr:stedsnr" v="256939" />
	</node>
	<node lat="63.99149722422088" lon="11.675966663336625" id="-41123">
		<tag k="name" v="Asphaugen" />
		<tag k="place" v="farm" />
		<tag k="ssr:stedsnr" v="256948" />
	</node>
	<node lat="63.93149225825537" lon="11.548632992408747" id="-41125">
		<tag k="fixme" v="consider place=hamlet" />
		<tag k="name" v="Heggstad" />
		<tag k="place" v="farm" />
		<tag k="ssr:stedsnr" v="257034" />
	</node>
	<node lat="63.944183333412845" lon="11.580736111596464" id="-41126">
		<tag k="name" v="Holum" />
		<tag k="place" v="farm" />
		<tag k="ssr:stedsnr" v="257043" />
	</node>
	<node lat="64.10968702230846" lon="11.535294052899461" id="-41127">
		<tag k="fixme" v="consider place=hamlet" />
		<tag k="name" v="Ulven" />
		<tag k="place" v="farm" />
		<tag k="ssr:stedsnr" v="257133" />
	</node>
	<node lat="64.0432444485629" lon="11.237730548174202" id="-41132">
		<tag k="name" v="Nord-Rones" />
		<tag k="place" v="farm" />
		<tag k="ssr:stedsnr" v="257098" />
	</node>
	<node lat="64.09654752520221" lon="11.393007888881359" id="-41133">
		<tag k="fixme" v="consider place=hamlet" />
		<tag k="name" v="Kvarving" />
		<tag k="place" v="farm" />
		<tag k="ssr:stedsnr" v="257159" />
	</node>
	<node lat="64.09925785716699" lon="11.649092476329486" id="-41134">
		<tag k="alt_name" v="Nygården" />
		<tag k="fixme" v="consider place=hamlet" />
		<tag k="name" v="Nygård" />
		<tag k="place" v="farm" />
		<tag k="ssr:stedsnr" v="257246" />
	</node>
	<node lat="63.97191944633016" lon="12.110477768804595" id="-41137">
		<tag k="alt_name" v="Bakken, øvre;Øvre Bakken" />
		<tag k="name" v="Øver-Bakken" />
		<tag k="place" v="farm" />
		<tag k="ssr:stedsnr" v="257441" />
	</node>
	<node lat="63.929577777281125" lon="12.091283339489351" id="-41139">
		<tag k="name" v="Mokkabakkseteren" />
		<tag k="place" v="isolated_dwelling" />
		<tag k="ssr:stedsnr" v="257539" />
	</node>
	<node lat="64.00314444392838" lon="12.188961106646593" id="-41143">
		<tag k="historic" v="shieling" />
		<tag k="name" v="Finnhaugsetran" />
		<tag k="place" v="isolated_dwelling" />
		<tag k="ssr:stedsnr" v="257734" />
	</node>
	<node lat="64.15633888641416" lon="11.427013892774086" id="-41144">
		<tag k="historic" v="shieling" />
		<tag k="name" v="Tessemsetran" />
		<tag k="place" v="isolated_dwelling" />
		<tag k="ssr:stedsnr" v="257821" />
	</node>
	<node lat="64.14628333790716" lon="11.247011106359206" id="-41145">
		<tag k="name" v="Tisløv" />
		<tag k="place" v="farm" />
		<tag k="ssr:stedsnr" v="257828" />
	</node>
	<node lat="64.00473611483483" lon="11.186922212693405" id="-41146">
		<tag k="name" v="Godthåp" />
		<tag k="place" v="farm" />
		<tag k="ssr:stedsnr" v="257929" />
	</node>
	<node lat="63.974974998683294" lon="11.449802786934708" id="-41149">
		<tag k="name" v="Haugen" />
		<tag k="place" v="farm" />
		<tag k="ssr:stedsnr" v="257988" />
	</node>
	<node lat="63.897616663762626" lon="10.89240832874757" id="-41154">
		<tag k="name" v="Sjømarka" />
		<tag k="place" v="isolated_dwelling" />
		<tag k="ssr:stedsnr" v="167965" />
	</node>
	<node lat="64.00488055309854" lon="10.796652787620756" id="-41159">
		<tag k="name" v="Sela østre" />
		<tag k="place" v="farm" />
		<tag k="ssr:stedsnr" v="169111" />
	</node>
	<node lat="64.03812500143223" lon="11.806774995668652" id="-41172">
		<tag k="name" v="Godthåpseteren" />
		<tag k="place" v="locality" />
		<tag k="ssr:stedsnr" v="169885" />
	</node>
	<node lat="63.92147500243878" lon="11.75695555323734" id="-41181">
		<tag k="alt_name" v="Hegstadseteren" />
		<tag k="historic" v="shieling" />
		<tag k="name" v="Heggstadseteren" />
		<tag k="place" v="isolated_dwelling" />
		<tag k="ssr:stedsnr" v="170574" />
	</node>
	<node lat="63.93544166898757" lon="11.4437083422579" id="-41192">
		<tag k="name" v="Jøremsenget" />
		<tag k="place" v="farm" />
		<tag k="ssr:stedsnr" v="176478" />
	</node>
	<node lat="64.01548610927446" lon="10.800402772377929" id="-41196">
		<tag k="name" v="Leirskolen - Krievviegiedtie" />
		<tag k="name:no" v="Leirskolen" />
		<tag k="name:sma" v="Krievviegiedtie" />
		<tag k="place" v="farm" />
		<tag k="ssr:stedsnr" v="180706" />
	</node>
	<node lat="63.91976666908213" lon="11.563074997977958" id="-41200">
		<tag k="name" v="Lysheim" />
		<tag k="place" v="farm" />
		<tag k="ssr:stedsnr" v="263564" />
	</node>
	<node lat="63.915402778683365" lon="11.545599996900505" id="-41206">
		<tag k="name" v="Myrsve" />
		<tag k="place" v="farm" />
		<tag k="ssr:stedsnr" v="265753" />
	</node>
	<node lat="63.945919447099286" lon="11.513913888670674" id="-41207">
		<tag k="name" v="Vester-Hofstad" />
		<tag k="place" v="farm" />
		<tag k="ssr:stedsnr" v="265767" />
	</node>
	<node lat="64.09194235061949" lon="11.313746830064526" id="-41212">
		<tag k="name" v="Strømnesaunet" />
		<tag k="place" v="farm" />
		<tag k="ssr:stedsnr" v="265872" />
	</node>
	<node lat="64.0603194429583" lon="11.244136106970652" id="-41214">
		<tag k="name" v="Midter-Bartnes" />
		<tag k="place" v="farm" />
		<tag k="ssr:stedsnr" v="265256" />
	</node>
	<node lat="64.0578950109719" lon="11.253071982074687" id="-41215">
		<tag k="name" v="Bartnestrøa" />
		<tag k="place" v="farm" />
		<tag k="ssr:stedsnr" v="265258" />
	</node>
	<node lat="64.03746111057092" lon="11.28393888519019" id="-41219">
		<tag k="name" v="Reitvika" />
		<tag k="place" v="farm" />
		<tag k="ssr:stedsnr" v="265224" />
	</node>
	<node lat="63.89248889153128" lon="11.369816661195882" id="-41231">
		<tag k="name" v="Marka" />
		<tag k="place" v="farm" />
		<tag k="ssr:stedsnr" v="265832" />
	</node>
	<node lat="64.0527208088182" lon="11.238307855072687" id="-41238">
		<tag k="name" v="Øver-Grandhus" />
		<tag k="place" v="farm" />
		<tag k="ssr:stedsnr" v="196030" />
	</node>
	<node lat="64.07035997511282" lon="11.670550736493029" id="-41241">
		<tag k="alt_name" v="Indbryn" />
		<tag k="fixme" v="consider place=hamlet" />
		<tag k="name" v="Innbryn" />
		<tag k="place" v="farm" />
		<tag k="ssr:stedsnr" v="196038" />
	</node>
	<node lat="64.07047222356013" lon="11.510438887130787" id="-41242">
		<tag k="name" v="Bruheim" />
		<tag k="place" v="farm" />
		<tag k="ssr:stedsnr" v="196042" />
	</node>
	<node lat="64.06083611208487" lon="11.65574167296808" id="-41243">
		<tag k="name" v="Tvestad" />
		<tag k="place" v="farm" />
		<tag k="ssr:stedsnr" v="196044" />
	</node>
	<node lat="63.94112773125963" lon="11.398005308622569" id="-41244">
		<tag k="fixme" v="consider place=hamlet" />
		<tag k="name" v="Gilberg" />
		<tag k="place" v="farm" />
		<tag k="ssr:stedsnr" v="196054" />
	</node>
	<node lat="63.89452938202833" lon="11.468495220056571" id="-41245">
		<tag k="fixme" v="consider place=hamlet" />
		<tag k="name" v="Andstad" />
		<tag k="place" v="farm" />
		<tag k="ssr:stedsnr" v="196065" />
	</node>
	<node lat="64.02107341650553" lon="11.528465222626036" id="-41246">
		<tag k="fixme" v="consider place=hamlet" />
		<tag k="name" v="Midjo" />
		<tag k="place" v="farm" />
		<tag k="ssr:stedsnr" v="196067" />
	</node>
	<node lat="64.04447222281225" lon="11.617916664109165" id="-41247">
		<tag k="name" v="Øver-Råde" />
		<tag k="place" v="farm" />
		<tag k="ssr:stedsnr" v="196103" />
	</node>
	<node lat="63.912019614396286" lon="11.371201255854526" id="-41248">
		<tag k="name" v="Fagervik" />
		<tag k="place" v="farm" />
		<tag k="ssr:stedsnr" v="196122" />
	</node>
	<node lat="64.10830833613356" lon="11.425799997909339" id="-41249">
		<tag k="name" v="Vestberg" />
		<tag k="place" v="farm" />
		<tag k="ssr:stedsnr" v="196123" />
	</node>
	<node lat="64.10672777816802" lon="11.442386100937235" id="-41250">
		<tag k="name" v="Nybø" />
		<tag k="place" v="farm" />
		<tag k="ssr:stedsnr" v="196124" />
	</node>
	<node lat="64.10436944280222" lon="11.550433341774262" id="-41251">
		<tag k="name" v="Nybrott" />
		<tag k="place" v="farm" />
		<tag k="ssr:stedsnr" v="196135" />
	</node>
	<node lat="64.10034166319475" lon="11.540530552877128" id="-41252">
		<tag k="name" v="Nord-Følling" />
		<tag k="place" v="farm" />
		<tag k="ssr:stedsnr" v="196138" />
	</node>
	<node lat="64.10163888756041" lon="11.641216667229559" id="-41253">
		<tag k="name" v="Retlo" />
		<tag k="place" v="farm" />
		<tag k="ssr:stedsnr" v="196146" />
	</node>
	<node lat="64.08010555961481" lon="11.711888883953417" id="-41255">
		<tag k="alt_name" v="Elvarhaug" />
		<tag k="name" v="Elvarheim" />
		<tag k="place" v="farm" />
		<tag k="ssr:stedsnr" v="196212" />
	</node>
	<node lat="64.09057222682516" lon="11.96522221391657" id="-41262">
		<tag k="name" v="Langsetran" />
		<tag k="place" v="locality" />
		<tag k="ssr:stedsnr" v="196309" />
	</node>
	<node lat="64.19764722491689" lon="11.481300008654783" id="-41269">
		<tag k="name" v="Fiskløyssetran" />
		<tag k="place" v="locality" />
		<tag k="ssr:stedsnr" v="196835" />
	</node>
	<node lat="64.15038012706748" lon="11.54810320488278" id="-41274">
		<tag k="name" v="Hatlinghus" />
		<tag k="place" v="farm" />
		<tag k="ssr:stedsnr" v="196758" />
	</node>
	<node lat="64.14681389107773" lon="11.615380546360917" id="-41275">
		<tag k="historic" v="shieling" />
		<tag k="name" v="Fivessetran" />
		<tag k="place" v="isolated_dwelling" />
		<tag k="ssr:stedsnr" v="196762" />
	</node>
	<node lat="64.12483332903976" lon="11.326027773086606" id="-41276">
		<tag k="name" v="Bostadhylla" />
		<tag k="place" v="farm" />
		<tag k="ssr:stedsnr" v="196775" />
	</node>
	<node lat="64.12681847847071" lon="11.418645409119923" id="-41277">
		<tag k="name" v="Mjendrem" />
		<tag k="place" v="hamlet" />
		<tag k="ssr:stedsnr" v="196779" />
	</node>
	<node lat="64.1261472205875" lon="11.426783334611178" id="-41278">
		<tag k="fixme" v="consider place=hamlet" />
		<tag k="name" v="Melgården" />
		<tag k="place" v="farm" />
		<tag k="ssr:stedsnr" v="196780" />
	</node>
	<node lat="63.95260135063414" lon="11.433729851131146" id="-41280">
		<tag k="fixme" v="consider place=hamlet" />
		<tag k="name" v="Haugan" />
		<tag k="place" v="farm" />
		<tag k="ssr:stedsnr" v="196903" />
	</node>
	<node lat="64.01121944256644" lon="11.049863886325179" id="-41285">
		<tag k="historic" v="shieling" />
		<tag k="name" v="Nordlisetran" />
		<tag k="place" v="isolated_dwelling" />
		<tag k="ssr:stedsnr" v="196968" />
	</node>
	<node lat="64.13622222338134" lon="11.466669448252306" id="-41294">
		<tag k="name" v="Oppdal" />
		<tag k="place" v="farm" />
		<tag k="ssr:stedsnr" v="204517" />
	</node>
	<node lat="64.12885277639687" lon="11.42535832558505" id="-41298">
		<tag k="name" v="Vester-Haugen" />
		<tag k="place" v="farm" />
		<tag k="ssr:stedsnr" v="204441" />
	</node>
	<node lat="64.13077500049124" lon="11.392597225488656" id="-41300">
		<tag k="name" v="Bakken" />
		<tag k="place" v="locality" />
		<tag k="ssr:stedsnr" v="204444" />
	</node>
	<node lat="64.05756666509562" lon="11.500116664705462" id="-41303">
		<tag k="name" v="Sørenget" />
		<tag k="place" v="locality" />
		<tag k="ssr:stedsnr" v="204938" />
	</node>
	<node lat="64.10202503515735" lon="11.543401229032117" id="-41304">
		<tag k="name" v="Følling" />
		<tag k="place" v="hamlet" />
		<tag k="ssr:stedsnr" v="204692" />
	</node>
	<node lat="64.07283889190289" lon="11.514130561538302" id="-41305">
		<tag k="name" v="Svenning" />
		<tag k="place" v="farm" />
		<tag k="ssr:stedsnr" v="204698" />
	</node>
	<node lat="63.918038891194534" lon="11.440716672787874" id="-41311">
		<tag k="name" v="Nordgårdskåret" />
		<tag k="place" v="farm" />
		<tag k="ssr:stedsnr" v="205000" />
	</node>
	<node lat="63.98766111148548" lon="11.114538888229168" id="-41315">
		<tag k="name" v="Geilbakken" />
		<tag k="place" v="farm" />
		<tag k="ssr:stedsnr" v="210105" />
	</node>
	<node lat="64.09034166988229" lon="11.71108054697146" id="-41320">
		<tag k="fixme" v="consider place=suburb, village or hamlet" />
		<tag k="name" v="Binde" />
		<tag k="place" v="quarter" />
		<tag k="ssr:stedsnr" v="210139" />
	</node>
	<node lat="64.00543611050355" lon="11.546449994687904" id="-41330">
		<tag k="name" v="Austli" />
		<tag k="place" v="farm" />
		<tag k="ssr:stedsnr" v="210488" />
	</node>
	<node lat="64.03270277653061" lon="11.48274167653405" id="-41332">
		<tag k="name" v="Kvamsenget" />
		<tag k="place" v="quarter" />
		<tag k="ssr:stedsnr" v="210914" />
	</node>
	<node lat="63.936616670493386" lon="11.597966669710699" id="-41334">
		<tag k="alt_name" v="Moen nedre" />
		<tag k="name" v="Nedre Moen" />
		<tag k="place" v="farm" />
		<tag k="ssr:stedsnr" v="210923" />
	</node>
	<node lat="63.95737222373242" lon="11.606541658546378" id="-41336">
		<tag k="name" v="Engum" />
		<tag k="place" v="farm" />
		<tag k="ssr:stedsnr" v="210887" />
	</node>
	<node lat="63.9099472219816" lon="10.926444451067482" id="-41347">
		<tag k="name" v="Storenget" />
		<tag k="place" v="farm" />
		<tag k="ssr:stedsnr" v="269838" />
	</node>
	<node lat="64.13506389127848" lon="11.190530561232846" id="-41348">
		<tag k="alt_name" v="Løvmo" />
		<tag k="historic" v="shieling" />
		<tag k="name" v="Tømtet" />
		<tag k="place" v="isolated_dwelling" />
		<tag k="ssr:stedsnr" v="220712" />
	</node>
	<node lat="64.03550555770993" lon="11.655708341558984" id="-41359">
		<tag k="name" v="Stenseng" />
		<tag k="place" v="farm" />
		<tag k="ssr:stedsnr" v="222616" />
	</node>
	<node lat="64.13053215199314" lon="11.671110630435106" id="-41361">
		<tag k="name" v="Ho" />
		<tag k="place" v="hamlet" />
		<tag k="ssr:stedsnr" v="271094" />
	</node>
	<node lat="64.11580833660445" lon="11.695883330410826" id="-41363">
		<tag k="name" v="Halvardåsen" />
		<tag k="place" v="farm" />
		<tag k="ssr:stedsnr" v="271098" />
	</node>
	<node lat="64.13884166349023" lon="11.724824993234863" id="-41364">
		<tag k="name" v="Fagre" />
		<tag k="place" v="farm" />
		<tag k="ssr:stedsnr" v="271111" />
	</node>
	<node lat="64.03936111034865" lon="11.667099995377848" id="-41370">
		<tag k="name" v="Mekalplassen" />
		<tag k="place" v="locality" />
		<tag k="ssr:stedsnr" v="271260" />
	</node>
	<node lat="64.06955832990221" lon="11.717924996284024" id="-41375">
		<tag k="name" v="Åsheim" />
		<tag k="place" v="farm" />
		<tag k="ssr:stedsnr" v="271286" />
	</node>
	<node lat="64.12601944324987" lon="11.615769439992626" id="-41377">
		<tag k="name" v="Kne" />
		<tag k="place" v="farm" />
		<tag k="ssr:stedsnr" v="224394" />
	</node>
	<node lat="63.95185278038268" lon="11.005405546470506" id="-41393">
		<tag k="name" v="Marken" />
		<tag k="place" v="farm" />
		<tag k="ssr:stedsnr" v="227694" />
	</node>
	<node lat="64.05698055249212" lon="11.769169450188928" id="-41431">
		<tag k="name" v="Månen" />
		<tag k="place" v="locality" />
		<tag k="ssr:stedsnr" v="230979" />
	</node>
	<node lat="63.983428376496015" lon="11.88553233657702" id="-41434">
		<tag k="fixme" v="consider place=hamlet" />
		<tag k="name" v="Kjesbua" />
		<tag k="place" v="farm" />
		<tag k="ssr:stedsnr" v="232108" />
	</node>
	<node lat="63.8917619535699" lon="11.447005703207768" id="-41439">
		<tag k="fixme" v="consider place=hamlet" />
		<tag k="name" v="Solberg" />
		<tag k="place" v="farm" />
		<tag k="ssr:stedsnr" v="235483" />
	</node>
	<node lat="64.03115555381119" lon="11.484530557885472" id="-41446">
		<tag k="amenity" v="school" />
		<tag k="name" v="Egge ungdomsskole" />
		<tag k="ssr:stedsnr" v="237205" />
	</node>
	<node lat="63.93840277457751" lon="11.428199996358604" id="-41453">
		<tag k="name" v="Prestegårdskogen" />
		<tag k="place" v="quarter" />
		<tag k="ssr:stedsnr" v="239435" />
	</node>
	<node lat="64.08148945335554" lon="11.4949829904489" id="-41454">
		<tag k="name" v="Oksås" />
		<tag k="place" v="hamlet" />
		<tag k="ssr:stedsnr" v="451242" />
	</node>
	<node lat="64.00127777845202" lon="11.649613885657935" id="-41459">
		<tag k="name" v="Øvre Årholt" />
		<tag k="place" v="farm" />
		<tag k="ssr:stedsnr" v="241883" />
	</node>
	<node lat="64.05401666391684" lon="11.752730546053025" id="-41461">
		<tag k="alt_name" v="Ramstad nordre" />
		<tag k="name" v="Nordre Ramstad" />
		<tag k="place" v="farm" />
		<tag k="ssr:stedsnr" v="453287" />
	</node>
	<node lat="63.90403055797874" lon="10.914780561720193" id="-41468">
		<tag k="name" v="Litl-Sand" />
		<tag k="place" v="farm" />
		<tag k="ssr:stedsnr" v="451832" />
	</node>
	<node lat="63.9984527790142" lon="11.174102781904056" id="-41477">
		<tag k="name" v="Sveet" />
		<tag k="place" v="farm" />
		<tag k="ssr:stedsnr" v="453125" />
	</node>
	<node lat="64.1023945746406" lon="11.76359978173615" id="-41482">
		<tag k="fixme" v="consider place=hamlet" />
		<tag k="name" v="Bjørdal" />
		<tag k="place" v="farm" />
		<tag k="ssr:stedsnr" v="453182" />
	</node>
	<node lat="64.09936944055853" lon="11.70839722380662" id="-41484">
		<tag k="name" v="Bindesmoen" />
		<tag k="place" v="locality" />
		<tag k="ssr:stedsnr" v="453185" />
	</node>
	<node lat="64.18647221914924" lon="11.913283325479282" id="-41501">
		<tag k="name" v="Haugly" />
		<tag k="place" v="farm" />
		<tag k="ssr:stedsnr" v="453893" />
	</node>
	<node lat="64.07355277761357" lon="11.209922228045041" id="-41504">
		<tag k="name" v="Rugsveet" />
		<tag k="place" v="locality" />
		<tag k="ssr:stedsnr" v="453984" />
	</node>
	<node lat="64.05333333744635" lon="11.209997214905613" id="-41506">
		<tag k="alt_name" v="Kjerkreit yttre;Kjerkreit;Kirkreit" />
		<tag k="name" v="Ytre Kjerkreit" />
		<tag k="place" v="farm" />
		<tag k="ssr:stedsnr" v="453987" />
	</node>
	<node lat="64.01861666358936" lon="11.46566667478142" id="-41511">
		<tag k="name" v="Bogen" />
		<tag k="place" v="quarter" />
		<tag k="ssr:stedsnr" v="453937" />
	</node>
	<node lat="64.03283055463172" lon="11.205752781566915" id="-41514">
		<tag k="historic" v="shieling" />
		<tag k="name" v="Rambergtømtet" />
		<tag k="place" v="isolated_dwelling" />
		<tag k="ssr:stedsnr" v="453954" />
	</node>
	<node lat="63.94856677245641" lon="11.390092244740652" id="-41519">
		<tag k="name" v="Lønnem" />
		<tag k="place" v="hamlet" />
		<tag k="ssr:stedsnr" v="455770" />
	</node>
	<node lat="63.89032259551036" lon="11.616499679738052" id="-41521">
		<tag k="fixme" v="consider place=hamlet" />
		<tag k="name" v="Bremset" />
		<tag k="place" v="farm" />
		<tag k="ssr:stedsnr" v="256067" />
	</node>
	<node lat="63.8803022079927" lon="11.440468652215802" id="-41522">
		<tag k="name" v="Vådal" />
		<tag k="place" v="hamlet" />
		<tag k="ssr:stedsnr" v="256070" />
	</node>
	<node lat="64.08189166409166" lon="11.625783325646688" id="-41523">
		<tag k="fixme" v="multiple name tags, choose one and add the other to alt_name" />
		<tag k="name" v="Sundan;Øvre Sundan" />
		<tag k="place" v="farm" />
		<tag k="ssr:stedsnr" v="256210" />
	</node>
	<node lat="64.07395004792987" lon="11.611875326101263" id="-41524">
		<tag k="fixme" v="consider place=hamlet" />
		<tag k="name" v="Skrattåsen" />
		<tag k="place" v="farm" />
		<tag k="ssr:stedsnr" v="256212" />
	</node>
	<node lat="64.07227777696147" lon="11.322702771901112" id="-41525">
		<tag k="name" v="Skogtun" />
		<tag k="place" v="farm" />
		<tag k="ssr:stedsnr" v="256217" />
	</node>
	<node lat="64.07786352486207" lon="11.240783184377664" id="-41526">
		<tag k="fixme" v="consider place=hamlet" />
		<tag k="name" v="Skard" />
		<tag k="place" v="farm" />
		<tag k="ssr:stedsnr" v="256220" />
	</node>
	<node lat="64.07857941077253" lon="11.262887762540892" id="-41527">
		<tag k="fixme" v="consider place=hamlet" />
		<tag k="name" v="Langnes" />
		<tag k="place" v="farm" />
		<tag k="ssr:stedsnr" v="256221" />
	</node>
	<node lat="64.12683252596193" lon="11.753973675772269" id="-41529">
		<tag k="building" v="yes" />
		<tag k="name" v="Brenna" />
		<tag k="ssr:stedsnr" v="256265" />
	</node>
	<node lat="64.12038333799904" lon="11.393183323746031" id="-41530">
		<tag k="name" v="Velle" />
		<tag k="place" v="farm" />
		<tag k="ssr:stedsnr" v="256160" />
	</node>
	<node lat="64.11206666982395" lon="11.41183610555724" id="-41531">
		<tag k="name" v="Øysterås" />
		<tag k="place" v="farm" />
		<tag k="ssr:stedsnr" v="256162" />
	</node>
	<node lat="64.11353362184107" lon="11.43450346706131" id="-41532">
		<tag k="fixme" v="consider place=hamlet" />
		<tag k="name" v="Endreberg" />
		<tag k="place" v="farm" />
		<tag k="ssr:stedsnr" v="256168" />
	</node>
	<node lat="64.16315000366077" lon="11.81186388134169" id="-41538">
		<tag k="fixme" v="consider place=hamlet" />
		<tag k="name" v="Aunvoll" />
		<tag k="place" v="farm" />
		<tag k="ssr:stedsnr" v="256412" />
	</node>
	<node lat="64.02973611433458" lon="11.82064167388405" id="-41543">
		<tag k="name" v="Heimly" />
		<tag k="place" v="farm" />
		<tag k="ssr:stedsnr" v="256615" />
	</node>
	<node lat="63.96186388770798" lon="11.486019436884185" id="-41546">
		<tag k="name" v="Roset" />
		<tag k="place" v="farm" />
		<tag k="ssr:stedsnr" v="256856" />
	</node>
	<node lat="63.96113888723917" lon="11.597741670399811" id="-41548">
		<tag k="alt_name" v="Vekre" />
		<tag k="name" v="Leite" />
		<tag k="place" v="farm" />
		<tag k="ssr:stedsnr" v="256862" />
	</node>
	<node lat="63.952677979901864" lon="11.379490410834594" id="-41550">
		<tag k="fixme" v="consider place=hamlet" />
		<tag k="name" v="Kvitvang" />
		<tag k="place" v="farm" />
		<tag k="ssr:stedsnr" v="256877" />
	</node>
	<node lat="63.95097499849092" lon="11.419708338989263" id="-41551">
		<tag k="name" v="Buan" />
		<tag k="place" v="farm" />
		<tag k="ssr:stedsnr" v="256912" />
	</node>
	<node lat="64.07265277687645" lon="11.98354167481342" id="-41559">
		<tag k="name" v="Larsheimen" />
		<tag k="place" v="locality" />
		<tag k="ssr:stedsnr" v="257361" />
	</node>
	<node lat="64.01475277713517" lon="11.556141657174797" id="-41560">
		<tag k="name" v="Elverum" />
		<tag k="place" v="farm" />
		<tag k="ssr:stedsnr" v="257473" />
	</node>
	<node lat="64.0590527789062" lon="11.050919454271337" id="-41561">
		<tag k="name" v="Holdsetran" />
		<tag k="place" v="isolated_dwelling" />
		<tag k="ssr:stedsnr" v="257613" />
	</node>
	<node lat="64.01184433171784" lon="11.866965500065943" id="-41562">
		<tag k="fixme" v="consider place=hamlet" />
		<tag k="name" v="Hollås" />
		<tag k="place" v="farm" />
		<tag k="ssr:stedsnr" v="257716" />
	</node>
	<node lat="64.00664572763058" lon="11.742215651159569" id="-41563">
		<tag k="fixme" v="consider place=hamlet" />
		<tag k="name" v="Grøtan" />
		<tag k="place" v="farm" />
		<tag k="ssr:stedsnr" v="257720" />
	</node>
	<node lat="63.96987777998001" lon="11.45226665806253" id="-41568">
		<tag k="name" v="Holtaunet" />
		<tag k="place" v="farm" />
		<tag k="ssr:stedsnr" v="257986" />
	</node>
	<node lat="64.04093333724673" lon="11.35693889341967" id="-41575">
		<tag k="name" v="Viset" />
		<tag k="place" v="farm" />
		<tag k="ssr:stedsnr" v="265206" />
	</node>
	<node lat="64.0520416650508" lon="11.246091670028338" id="-41576">
		<tag k="name" v="Bartnes" />
		<tag k="place" v="farm" />
		<tag k="ssr:stedsnr" v="265238" />
	</node>
	<node lat="64.10148332941992" lon="11.253852769051106" id="-41580">
		<tag k="name" v="Buahaugen" />
		<tag k="place" v="locality" />
		<tag k="ssr:stedsnr" v="265193" />
	</node>
	<node lat="64.07774444727049" lon="11.474902769965484" id="-41581">
		<tag k="name" v="Dyrstad" />
		<tag k="place" v="farm" />
		<tag k="ssr:stedsnr" v="265629" />
	</node>
	<node lat="64.08813611305963" lon="11.428172218057478" id="-41582">
		<tag k="name" v="Åseng" />
		<tag k="place" v="farm" />
		<tag k="ssr:stedsnr" v="265640" />
	</node>
	<node lat="63.96101388626027" lon="11.447277772133154" id="-41590">
		<tag k="name" v="Kringla" />
		<tag k="place" v="hamlet" />
		<tag k="ssr:stedsnr" v="265903" />
	</node>
	<node lat="63.91319951632375" lon="11.439457267029741" id="-41595">
		<tag k="name" v="Leira" />
		<tag k="place" v="farm" />
		<tag k="ssr:stedsnr" v="265985" />
	</node>
	<node lat="64.07479190370508" lon="11.729698025837036" id="-41605">
		<tag k="fixme" v="consider place=hamlet" />
		<tag k="name" v="Laup" />
		<tag k="place" v="farm" />
		<tag k="ssr:stedsnr" v="271213" />
	</node>
	<node lat="64.06675833435916" lon="11.685783335811067" id="-41611">
		<tag k="name" v="Gusbolhaugen" />
		<tag k="place" v="locality" />
		<tag k="ssr:stedsnr" v="271304" />
	</node>
	<node lat="63.96449721966264" lon="11.607166662706502" id="-41623">
		<tag k="alt_name" v="Vekre øvre" />
		<tag k="name" v="Øvre Vekre" />
		<tag k="place" v="farm" />
		<tag k="ssr:stedsnr" v="271900" />
	</node>
	<node lat="63.96567474378949" lon="11.572854058910417" id="-41624">
		<tag k="name" v="Ryan" />
		<tag k="place" v="hamlet" />
		<tag k="ssr:stedsnr" v="271902" />
	</node>
	<node lat="64.09619444298156" lon="11.581700006797824" id="-41631">
		<tag k="alt_name" v="Dal vestre" />
		<tag k="name" v="Vestre Dal" />
		<tag k="place" v="farm" />
		<tag k="ssr:stedsnr" v="280881" />
	</node>
	<node lat="64.07453611503693" lon="11.889269454918272" id="-41632">
		<tag k="name" v="Åsvasselva hytteområde" />
		<tag k="place" v="neighbourhood" />
		<tag k="ssr:stedsnr" v="282369" />
	</node>
	<node lat="64.03477222417077" lon="11.482413886779135" id="-41633">
		<tag k="name" v="Ryggvollhaugen" />
		<tag k="place" v="quarter" />
		<tag k="ssr:stedsnr" v="282371" />
	</node>
	<node lat="64.00683610940119" lon="11.508683325620781" id="-41634">
		<tag k="name" v="Tranabakken" />
		<tag k="place" v="quarter" />
		<tag k="ssr:stedsnr" v="282379" />
	</node>
	<node lat="64.14152222564819" lon="11.668511117060458" id="-41642">
		<tag k="alt_name" v="Grindberg øvre" />
		<tag k="name" v="Øvre Grindberg" />
		<tag k="place" v="farm" />
		<tag k="ssr:stedsnr" v="285084" />
	</node>
	<node lat="64.09535921014454" lon="11.700988079138885" id="-41643">
		<tag k="alt_name" v="Binde, nordre;Nordre Binde" />
		<tag k="name" v="Binde" />
		<tag k="place" v="farm" />
		<tag k="ssr:stedsnr" v="462180" />
	</node>
	<node lat="63.96862110984774" lon="11.668025727581371" id="-41644">
		<tag k="fixme" v="consider place=hamlet" />
		<tag k="name" v="Fjesme" />
		<tag k="place" v="farm" />
		<tag k="ssr:stedsnr" v="285886" />
	</node>
	<node lat="63.88643055221698" lon="10.856561111883204" id="-41645">
		<tag k="name" v="Trøa" />
		<tag k="place" v="isolated_dwelling" />
		<tag k="ssr:stedsnr" v="287526" />
	</node>
	<node lat="63.85079846453136" lon="10.71176927379282" id="-41649">
		<tag k="name" v="Moldaunet" />
		<tag k="place" v="farm" />
		<tag k="ssr:stedsnr" v="289781" />
	</node>
	<node lat="64.04798611411755" lon="11.858549995929868" id="-41660">
		<tag k="historic" v="shieling" />
		<tag k="name" v="Skeiseteren" />
		<tag k="place" v="isolated_dwelling" />
		<tag k="ssr:stedsnr" v="290882" />
	</node>
	<node lat="63.9226083333503" lon="12.099616658178658" id="-41673">
		<tag k="historic" v="shieling" />
		<tag k="name" v="Semsseteren" />
		<tag k="place" v="isolated_dwelling" />
		<tag k="ssr:stedsnr" v="291726" />
	</node>
	<node lat="63.93165719389503" lon="11.622273976177471" id="-41677">
		<tag k="name" v="Bildstad" />
		<tag k="place" v="farm" />
		<tag k="ssr:stedsnr" v="271932" />
	</node>
	<node lat="63.882049972446204" lon="11.59097956167675" id="-41698">
		<tag k="alt_name" v="Nesset" />
		<tag k="name" v="Neset" />
		<tag k="place" v="farm" />
		<tag k="ssr:stedsnr" v="301410" />
	</node>
	<node lat="64.02131666220986" lon="11.535777778601053" id="-41709">
		<tag k="name" v="Midjo - Risgropa" />
		<tag k="place" v="quarter" />
		<tag k="ssr:stedsnr" v="464396" />
	</node>
	<node lat="63.90926311472157" lon="11.518821298397025" id="-41715">
		<tag k="name" v="Rognan" />
		<tag k="place" v="hamlet" />
		<tag k="ssr:stedsnr" v="467146" />
	</node>
	<node lat="64.12924444562202" lon="11.310408340641846" id="-41716">
		<tag k="fixme" v="consider place=hamlet" />
		<tag k="name" v="Sprova" />
		<tag k="place" v="village" />
		<tag k="ssr:stedsnr" v="467230" />
	</node>
	<node lat="63.923642880069984" lon="11.398877405037577" id="-41718">
		<tag k="name" v="Myrstad" />
		<tag k="place" v="farm" />
		<tag k="ssr:stedsnr" v="317009" />
	</node>
	<node lat="64.05648611527926" lon="11.698911101278407" id="-41719">
		<tag k="name" v="Granmo" />
		<tag k="place" v="farm" />
		<tag k="ssr:stedsnr" v="317010" />
	</node>
	<node lat="63.92573052461259" lon="11.433503339750182" id="-41721">
		<tag k="fixme" v="consider place=hamlet" />
		<tag k="name" v="Hamrem" />
		<tag k="place" v="farm" />
		<tag k="ssr:stedsnr" v="317020" />
	</node>
	<node lat="63.92610039800739" lon="11.544997958243316" id="-41722">
		<tag k="fixme" v="consider place=hamlet" />
		<tag k="name" v="Myrsloa" />
		<tag k="place" v="farm" />
		<tag k="ssr:stedsnr" v="317025" />
	</node>
	<node lat="64.08223806062766" lon="11.527847490948059" id="-41723">
		<tag k="name" v="Saur" />
		<tag k="place" v="hamlet" />
		<tag k="ssr:stedsnr" v="317203" />
	</node>
	<node lat="64.08686666824273" lon="11.527641660017926" id="-41725">
		<tag k="name" v="Saursaunet" />
		<tag k="place" v="farm" />
		<tag k="ssr:stedsnr" v="317224" />
	</node>
	<node lat="64.03780277562356" lon="11.332538891226323" id="-41727">
		<tag k="name" v="Sør-Elnan" />
		<tag k="place" v="farm" />
		<tag k="ssr:stedsnr" v="317106" />
	</node>
	<node lat="64.1014226596729" lon="11.56278194592593" id="-41729">
		<tag k="fixme" v="consider place=hamlet" />
		<tag k="name" v="Vanderåsen" />
		<tag k="place" v="farm" />
		<tag k="ssr:stedsnr" v="317141" />
	</node>
	<node lat="64.11682222226865" lon="11.692702775134359" id="-41730">
		<tag k="alt_name" v="Austvoll" />
		<tag k="name" v="Østvoll" />
		<tag k="place" v="farm" />
		<tag k="ssr:stedsnr" v="317146" />
	</node>
	<node lat="64.12318332930982" lon="11.589547219219666" id="-41731">
		<tag k="name" v="Haugen" />
		<tag k="place" v="farm" />
		<tag k="ssr:stedsnr" v="317148" />
	</node>
	<node lat="63.973394441774374" lon="10.862936115288617" id="-41736">
		<tag k="name" v="Straumsetran" />
		<tag k="place" v="isolated_dwelling" />
		<tag k="ssr:stedsnr" v="317525" />
	</node>
	<node lat="63.99805833072184" lon="11.028716666850144" id="-41737">
		<tag k="historic" v="shieling" />
		<tag k="name" v="Todalsetran" />
		<tag k="place" v="isolated_dwelling" />
		<tag k="ssr:stedsnr" v="317550" />
	</node>
	<node lat="64.00881162209784" lon="11.902838463991943" id="-41748">
		<tag k="fixme" v="consider place=hamlet" />
		<tag k="name" v="Giskås" />
		<tag k="place" v="farm" />
		<tag k="ssr:stedsnr" v="317613" />
	</node>
	<node lat="64.1414555586019" lon="11.277172213255211" id="-41749">
		<tag k="name" v="Holtesand" />
		<tag k="place" v="farm" />
		<tag k="ssr:stedsnr" v="317708" />
	</node>
	<node lat="64.12902222266521" lon="11.667494438590435" id="-41750">
		<tag k="name" v="Ho" />
		<tag k="place" v="farm" />
		<tag k="ssr:stedsnr" v="317743" />
	</node>
	<node lat="64.13396944724147" lon="11.651316674214902" id="-41751">
		<tag k="alt_name" v="Bakken" />
		<tag k="name" v="Bakkan" />
		<tag k="place" v="farm" />
		<tag k="ssr:stedsnr" v="317744" />
	</node>
	<node lat="64.13291147611962" lon="11.651849730958926" id="-41752">
		<tag k="alt_name" v="Trøa" />
		<tag k="fixme" v="consider place=hamlet" />
		<tag k="name" v="Haugtrøa" />
		<tag k="place" v="farm" />
		<tag k="ssr:stedsnr" v="317745" />
	</node>
	<node lat="64.1841805560688" lon="11.51768889326454" id="-41754">
		<tag k="name" v="Skeissetran" />
		<tag k="place" v="locality" />
		<tag k="ssr:stedsnr" v="317752" />
	</node>
	<node lat="63.9495194404993" lon="11.453388896104201" id="-41755">
		<tag k="alt_name" v="Trudvang" />
		<tag k="name" v="Trudevang" />
		<tag k="place" v="farm" />
		<tag k="ssr:stedsnr" v="317905" />
	</node>
	<node lat="63.9988769211261" lon="11.521387176210228" id="-41756">
		<tag k="name" v="Aunlia" />
		<tag k="place" v="farm" />
		<tag k="ssr:stedsnr" v="317926" />
	</node>
	<node lat="63.996466664114536" lon="11.670469449219704" id="-41757">
		<tag k="name" v="Austad" />
		<tag k="place" v="farm" />
		<tag k="ssr:stedsnr" v="317945" />
	</node>
	<node lat="63.99057707735177" lon="11.672523873906249" id="-41759">
		<tag k="loc_name" v="Såsegga" />
		<tag k="name" v="Såsegg" />
		<tag k="place" v="hamlet" />
		<tag k="ssr:stedsnr" v="317951" />
	</node>
	<node lat="63.936722222783935" lon="11.942616667846377" id="-41768">
		<tag k="historic" v="shieling" />
		<tag k="name" v="Halvgåtthaugseteren" />
		<tag k="place" v="isolated_dwelling" />
		<tag k="ssr:stedsnr" v="324424" />
	</node>
	<node lat="63.97330277875461" lon="11.540941667041233" id="-41769">
		<tag k="name" v="Haugly" />
		<tag k="place" v="farm" />
		<tag k="ssr:stedsnr" v="325670" />
	</node>
	<node lat="64.09714444365618" lon="11.344363887791204" id="-41776">
		<tag k="name" v="Sålåtra" />
		<tag k="place" v="locality" />
		<tag k="ssr:stedsnr" v="326814" />
	</node>
	<node lat="64.09432778145027" lon="11.744597224133434" id="-41783">
		<tag k="name" v="Engan" />
		<tag k="place" v="farm" />
		<tag k="ssr:stedsnr" v="332117" />
	</node>
	<node lat="64.13795000185901" lon="11.849055553629608" id="-41786">
		<tag k="name" v="Ellingplassen" />
		<tag k="place" v="locality" />
		<tag k="ssr:stedsnr" v="332035" />
	</node>
	<node lat="64.00094166825654" lon="11.820697223879831" id="-41789">
		<tag k="name" v="Fabakken" />
		<tag k="place" v="farm" />
		<tag k="ssr:stedsnr" v="332060" />
	</node>
	<node lat="64.01333333184795" lon="11.19838887959223" id="-41792">
		<tag k="name" v="Kleiva" />
		<tag k="place" v="locality" />
		<tag k="ssr:stedsnr" v="332100" />
	</node>
	<node lat="64.02858333745795" lon="11.66857499370006" id="-41798">
		<tag k="alt_name" v="Røysing nedre" />
		<tag k="name" v="Nedre Røysing" />
		<tag k="place" v="farm" />
		<tag k="ssr:stedsnr" v="332365" />
	</node>
	<node lat="64.18455277737644" lon="11.782641666219206" id="-41799">
		<tag k="name" v="Åsen" />
		<tag k="place" v="locality" />
		<tag k="ssr:stedsnr" v="332753" />
	</node>
	<node lat="64.07650278110653" lon="11.229100008209961" id="-41803">
		<tag k="name" v="Ressem" />
		<tag k="place" v="farm" />
		<tag k="ssr:stedsnr" v="332948" />
	</node>
	<node lat="64.09717777479044" lon="11.218180558163375" id="-41823">
		<tag k="name" v="Stjernen" />
		<tag k="place" v="farm" />
		<tag k="ssr:stedsnr" v="341803" />
	</node>
	<node lat="64.06258055875107" lon="11.170127780526078" id="-41828">
		<tag k="name" v="Østre Ystmarka" />
		<tag k="place" v="farm" />
		<tag k="ssr:stedsnr" v="472679" />
	</node>
	<node lat="64.00814444088432" lon="12.107941671017777" id="-41855">
		<tag k="name" v="Heimen" />
		<tag k="place" v="isolated_dwelling" />
		<tag k="ssr:stedsnr" v="473279" />
	</node>
	<node lat="63.994591668347866" lon="12.199847225298907" id="-41861">
		<tag k="historic" v="shieling" />
		<tag k="name" v="Plassaseteren" />
		<tag k="place" v="isolated_dwelling" />
		<tag k="ssr:stedsnr" v="473343" />
	</node>
	<node lat="64.1316111121913" lon="11.136455558631098" id="-41896">
		<tag k="historic" v="shieling" />
		<tag k="name" v="Ferjtømtet" />
		<tag k="place" v="isolated_dwelling" />
		<tag k="ssr:stedsnr" v="351560" />
	</node>
	<node lat="63.96609444890323" lon="11.708630559066359" id="-41900">
		<tag k="historic" v="shieling" />
		<tag k="name" v="Fjesmeseteren" />
		<tag k="place" v="isolated_dwelling" />
		<tag k="ssr:stedsnr" v="351905" />
	</node>
	<node lat="64.01702777578403" lon="12.098733331628463" id="-41907">
		<tag k="name" v="Gramseteren" />
		<tag k="place" v="locality" />
		<tag k="ssr:stedsnr" v="352264" />
	</node>
	<node lat="63.928808329304196" lon="11.70338610869718" id="-41909">
		<tag k="historic" v="shieling" />
		<tag k="name" v="Fosseteren" />
		<tag k="place" v="isolated_dwelling" />
		<tag k="ssr:stedsnr" v="352564" />
	</node>
	<node lat="63.93659444603746" lon="11.675058343142725" id="-41935">
		<tag k="name" v="Henning hyttefelt" />
		<tag k="place" v="neighbourhood" />
		<tag k="ssr:stedsnr" v="360305" />
	</node>
	<node lat="63.93228492512606" lon="11.684632663722862" id="-41936">
		<tag k="name" v="Henningvola hytteområde" />
		<tag k="place" v="neighbourhood" />
		<tag k="ssr:stedsnr" v="360307" />
	</node>
	<node lat="64.09313332942713" lon="11.224111118095449" id="-41939">
		<tag k="alt_name" v="Tveråsaunet" />
		<tag k="name" v="Tverråsaunet" />
		<tag k="place" v="farm" />
		<tag k="ssr:stedsnr" v="271961" />
	</node>
	<node lat="64.10840833717491" lon="11.54175834125506" id="-41974">
		<tag k="name" v="Hagen" />
		<tag k="place" v="farm" />
		<tag k="ssr:stedsnr" v="378120" />
	</node>
	<node lat="64.11216944467857" lon="11.681016664072068" id="-41976">
		<tag k="name" v="Voll" />
		<tag k="place" v="farm" />
		<tag k="ssr:stedsnr" v="378170" />
	</node>
	<node lat="64.09776944605689" lon="11.755161108400268" id="-41978">
		<tag k="alt_name" v="Hatlingaunet" />
		<tag k="name" v="Nyenget" />
		<tag k="place" v="farm" />
		<tag k="ssr:stedsnr" v="378372" />
	</node>
	<node lat="64.13968611564857" lon="11.715502769242438" id="-41987">
		<tag k="name" v="Åssve" />
		<tag k="place" v="hamlet" />
		<tag k="ssr:stedsnr" v="481436" />
	</node>
	<node lat="64.14283437195837" lon="11.286813612031464" id="-41990">
		<tag k="fixme" v="consider place=hamlet" />
		<tag k="name" v="Tørring" />
		<tag k="place" v="farm" />
		<tag k="ssr:stedsnr" v="378815" />
	</node>
	<node lat="63.931486109086514" lon="11.67942777930143" id="-41991">
		<tag k="name" v="Bilstad hyttefelt" />
		<tag k="place" v="neighbourhood" />
		<tag k="ssr:stedsnr" v="482339" />
	</node>
	<node lat="64.11554721944748" lon="11.47007499282762" id="-41997">
		<tag k="name" v="Haldotrøa" />
		<tag k="place" v="locality" />
		<tag k="ssr:stedsnr" v="386544" />
	</node>
	<node lat="64.14352499636637" lon="11.244625000877221" id="-42007">
		<tag k="name" v="Jakopplassen" />
		<tag k="place" v="locality" />
		<tag k="ssr:stedsnr" v="386748" />
	</node>
	<node lat="64.0299055537873" lon="11.433333327860339" id="-42009">
		<tag k="fixme" v="consider place=hamlet" />
		<tag k="name" v="Lundtrøa" />
		<tag k="old_name" v="Brandsås" />
		<tag k="place" v="farm" />
		<tag k="ssr:stedsnr" v="386903" />
	</node>
	<node lat="64.08479722313133" lon="11.347175001890898" id="-42012">
		<tag k="name" v="Sør-Kvamseng" />
		<tag k="place" v="farm" />
		<tag k="ssr:stedsnr" v="386854" />
	</node>
	<node lat="63.98508610799582" lon="11.114019441168917" id="-42019">
		<tag k="name" v="Stor Folla" />
		<tag k="place" v="locality" />
		<tag k="ssr:stedsnr" v="392110" />
	</node>
	<node lat="63.9668055546107" lon="11.59018611934366" id="-42035">
		<tag k="name" v="Åsen" />
		<tag k="place" v="farm" />
		<tag k="ssr:stedsnr" v="392884" />
	</node>
	<node lat="63.90901889558163" lon="11.61363499488564" id="-42036">
		<tag k="alt_name" v="Nedre Sæli;Sæli nedre" />
		<tag k="fixme" v="consider place=hamlet" />
		<tag k="name" v="Nedre Seli" />
		<tag k="place" v="farm" />
		<tag k="ssr:stedsnr" v="392933" />
	</node>
	<node lat="64.20011110693319" lon="11.989274991701725" id="-42041">
		<tag k="alt_name" v="Hegge østre" />
		<tag k="name" v="Østre Hegge" />
		<tag k="place" v="farm" />
		<tag k="ssr:stedsnr" v="392997" />
	</node>
	<node lat="64.11725000121453" lon="11.769880560258601" id="-42047">
		<tag k="name" v="Haugen" />
		<tag k="place" v="farm" />
		<tag k="ssr:stedsnr" v="393806" />
	</node>
	<node lat="63.96991666268746" lon="11.428888882690945" id="-42053">
		<tag k="name" v="Kornsveet" />
		<tag k="place" v="locality" />
		<tag k="ssr:stedsnr" v="485446" />
	</node>
	<node lat="63.89988307962482" lon="10.906704595576084" id="-42060">
		<tag k="name" v="Saltbua" />
		<tag k="place" v="locality" />
		<tag k="ssr:stedsnr" v="408520" />
	</node>
	<node lat="64.03411110895935" lon="11.241130548438981" id="-42061">
		<tag k="name" v="Korneliusplassen" />
		<tag k="place" v="farm" />
		<tag k="ssr:stedsnr" v="409196" />
	</node>
	<node lat="63.972344446345545" lon="11.002713890372576" id="-42065">
		<tag k="historic" v="shieling" />
		<tag k="name" v="Sundnesseteren" />
		<tag k="place" v="isolated_dwelling" />
		<tag k="ssr:stedsnr" v="411158" />
	</node>
	<node lat="64.02601110880435" lon="12.162569449582886" id="-42072">
		<tag k="name" v="Risbergseteren" />
		<tag k="place" v="locality" />
		<tag k="ssr:stedsnr" v="412237" />
	</node>
	<node lat="64.15235617702906" lon="11.79050824529823" id="-42111">
		<tag k="name" v="Vallem" />
		<tag k="place" v="farm" />
		<tag k="ssr:stedsnr" v="423900" />
	</node>
	<node lat="64.03630000019122" lon="11.479827776435693" id="-42117">
		<tag k="name" v="Nordtrøa" />
		<tag k="place" v="quarter" />
		<tag k="ssr:stedsnr" v="424392" />
	</node>
	<node lat="64.05406769047048" lon="11.586015624340055" id="-42118">
		<tag k="name" v="Reinsvollen" />
		<tag k="place" v="farm" />
		<tag k="ssr:stedsnr" v="438005" />
	</node>
	<node lat="63.9175444435483" lon="11.388111111341562" id="-42119">
		<tag k="name" v="Myr" />
		<tag k="place" v="farm" />
		<tag k="ssr:stedsnr" v="438008" />
	</node>
	<node lat="64.09017222406828" lon="11.397830565140243" id="-42121">
		<tag k="name" v="Øyster-Tessem" />
		<tag k="place" v="farm" />
		<tag k="ssr:stedsnr" v="438217" />
	</node>
	<node lat="64.09054444507066" lon="11.35078611987109" id="-42122">
		<tag k="name" v="Nordberg" />
		<tag k="place" v="farm" />
		<tag k="ssr:stedsnr" v="438219" />
	</node>
	<node lat="64.21412222114047" lon="11.59483054711677" id="-42138">
		<tag k="fixme" v="consider place=hamlet" />
		<tag k="name" v="Bøverdalen" />
		<tag k="place" v="farm" />
		<tag k="ssr:stedsnr" v="438897" />
	</node>
	<node lat="64.03073333596556" lon="11.05756111936516" id="-42143">
		<tag k="name" v="Seljestu" />
		<tag k="place" v="locality" />
		<tag k="ssr:stedsnr" v="439000" />
	</node>
	<node lat="64.10550000131518" lon="11.541988894087496" id="-42144">
		<tag k="name" v="Bakkan" />
		<tag k="place" v="farm" />
		<tag k="ssr:stedsnr" v="439102" />
	</node>
	<node lat="64.10301388666473" lon="11.546788883648627" id="-42145">
		<tag k="name" v="Ner-Følling" />
		<tag k="place" v="farm" />
		<tag k="ssr:stedsnr" v="439103" />
	</node>
	<node lat="64.10189722214001" lon="11.716863896428192" id="-42146">
		<tag k="name" v="Åsan" />
		<tag k="place" v="farm" />
		<tag k="ssr:stedsnr" v="439113" />
	</node>
	<node lat="64.10339969910012" lon="11.304081998700363" id="-42147">
		<tag k="name" v="Holmvika" />
		<tag k="place" v="hamlet" />
		<tag k="ssr:stedsnr" v="439114" />
	</node>
	<node lat="64.07099796233108" lon="11.278796517488193" id="-42150">
		<tag k="name" v="Brekka" />
		<tag k="place" v="farm" />
		<tag k="ssr:stedsnr" v="439193" />
	</node>
	<node lat="63.87679444396791" lon="10.825563892084585" id="-42162">
		<tag k="name" v="Voll" />
		<tag k="place" v="farm" />
		<tag k="ssr:stedsnr" v="439704" />
	</node>
	<node lat="64.1427999962624" lon="11.252872215635172" id="-42163">
		<tag k="name" v="Linåbakken" />
		<tag k="place" v="farm" />
		<tag k="ssr:stedsnr" v="439794" />
	</node>
	<node lat="64.00995555672404" lon="10.797041659754866" id="-42164">
		<tag k="fixme" v="consider place=hamlet" />
		<tag k="name" v="Sela" />
		<tag k="place" v="village" />
		<tag k="ssr:stedsnr" v="439908" />
	</node>
	<node lat="63.95130555905046" lon="11.612738885611767" id="-42165">
		<tag k="alt_name" v="Gjelsås" />
		<tag k="name" v="Gjellsås" />
		<tag k="place" v="farm" />
		<tag k="ssr:stedsnr" v="439925" />
	</node>
	<node lat="63.94483333573936" lon="11.457852782591276" id="-42167">
		<tag k="name" v="Nyrø" />
		<tag k="place" v="farm" />
		<tag k="ssr:stedsnr" v="439940" />
	</node>
	<node lat="63.91250833437408" lon="11.562200010108258" id="-42171">
		<tag k="name" v="Midter-Sem" />
		<tag k="place" v="farm" />
		<tag k="ssr:stedsnr" v="446702" />
	</node>
	<node lat="64.07298055548927" lon="11.26074166061253" id="-42175">
		<tag k="name" v="Haga" />
		<tag k="place" v="farm" />
		<tag k="ssr:stedsnr" v="447125" />
	</node>
	<node lat="64.04328639290853" lon="11.3462796113423" id="-42176">
		<tag k="fixme" v="consider place=hamlet" />
		<tag k="name" v="Viset" />
		<tag k="place" v="farm" />
		<tag k="ssr:stedsnr" v="447178" />
	</node>
	<node lat="64.07688055767626" lon="11.491686104216582" id="-42182">
		<tag k="fixme" v="consider place=hamlet" />
		<tag k="name" v="Oksås" />
		<tag k="place" v="farm" />
		<tag k="ssr:stedsnr" v="447581" />
	</node>
	<node lat="64.0908972211724" lon="11.30600555303769" id="-42190">
		<tag k="name" v="Fauk" />
		<tag k="place" v="locality" />
		<tag k="ssr:stedsnr" v="447807" />
	</node>
	<node lat="64.11181944259555" lon="11.321836116360558" id="-42191">
		<tag k="name" v="Hjellneset" />
		<tag k="place" v="farm" />
		<tag k="ssr:stedsnr" v="447812" />
	</node>
	<node lat="64.15143611213385" lon="11.28785833520115" id="-42197">
		<tag k="name" v="Pålplassen" />
		<tag k="place" v="locality" />
		<tag k="ssr:stedsnr" v="447726" />
	</node>
	<node lat="63.98448889139256" lon="11.47453889412076" id="-42203">
		<tag k="name" v="Stigem" />
		<tag k="place" v="farm" />
		<tag k="ssr:stedsnr" v="447877" />
	</node>
	<node lat="63.96501388854526" lon="11.472330561006567" id="-42204">
		<tag k="name" v="Håggån" />
		<tag k="place" v="farm" />
		<tag k="ssr:stedsnr" v="447882" />
	</node>
	<node lat="64.14251944078352" lon="11.465894437216312" id="-42205">
		<tag k="name" v="Oppdalssetran" />
		<tag k="place" v="locality" />
		<tag k="ssr:stedsnr" v="448623" />
	</node>
	<node lat="63.98024697379142" lon="12.274400251258529" id="-42208">
		<tag k="fixme" v="consider tourism=alpine_hut or tourism=chalet" />
		<tag k="name" v="Lågvassbua" />
		<tag k="old_name" v="Lågvassbu" />
		<tag k="ssr:stedsnr" v="452921" />
		<tag k="tourism" v="wilderness_hut" />
	</node>
	<node lat="63.869036112391086" lon="10.720147219336074" id="-42211">
		<tag k="historic" v="shieling" />
		<tag k="name" v="Nersetern" />
		<tag k="place" v="isolated_dwelling" />
		<tag k="ssr:stedsnr" v="453106" />
	</node>
	<node lat="64.13489444527724" lon="11.673288885306338" id="-42212">
		<tag k="name" v="Gammelgården" />
		<tag k="place" v="locality" />
		<tag k="ssr:stedsnr" v="453109" />
	</node>
	<node lat="63.85385833673044" lon="10.659063889233382" id="-42215">
		<tag k="historic" v="shieling" />
		<tag k="name" v="Moldseteren" />
		<tag k="place" v="isolated_dwelling" />
		<tag k="ssr:stedsnr" v="453062" />
	</node>
	<node lat="63.95049444620153" lon="11.64096388448815" id="-42229">
		<tag k="name" v="Litlåsen" />
		<tag k="place" v="farm" />
		<tag k="ssr:stedsnr" v="453367" />
	</node>
	<node lat="63.99919166367465" lon="11.521833336354645" id="-42230">
		<tag k="name" v="Aunli" />
		<tag k="place" v="farm" />
		<tag k="ssr:stedsnr" v="453506" />
	</node>
	<node lat="63.91956111222241" lon="11.597808330040666" id="-42233">
		<tag k="alt_name" v="Fisknes nordre" />
		<tag k="name" v="Nordre Fisknes" />
		<tag k="place" v="farm" />
		<tag k="ssr:stedsnr" v="453906" />
	</node>
	<node lat="63.911244445963106" lon="11.603827776160392" id="-42234">
		<tag k="alt_name" v="Hoset nedre" />
		<tag k="name" v="Nedre Hoset" />
		<tag k="place" v="farm" />
		<tag k="ssr:stedsnr" v="453907" />
	</node>
	<node lat="63.90345000423938" lon="11.621238899092365" id="-42235">
		<tag k="name" v="Vestli" />
		<tag k="place" v="farm" />
		<tag k="ssr:stedsnr" v="453909" />
	</node>
	<node lat="64.19456667005008" lon="11.932119445918795" id="-42237">
		<tag k="name" v="Åsen" />
		<tag k="place" v="locality" />
		<tag k="ssr:stedsnr" v="453911" />
	</node>
	<node lat="63.93369838419421" lon="11.455710807562335" id="-42301">
		<tag k="alt_name" v="Lein" />
		<tag k="name" v="Øvre Lein" />
		<tag k="place" v="farm" />
		<tag k="ssr:stedsnr" v="483903" />
	</node>
	<node lat="63.89942907790217" lon="11.562109197897927" id="-42302">
		<tag k="name" v="Hodalen" />
		<tag k="place" v="farm" />
		<tag k="ssr:stedsnr" v="483905" />
	</node>
	<node lat="64.11111111538587" lon="11.732700000248748" id="-42303">
		<tag k="name" v="Nordgard" />
		<tag k="place" v="farm" />
		<tag k="ssr:stedsnr" v="483913" />
	</node>
	<node lat="64.06829646896226" lon="11.727394870144657" id="-42313">
		<tag k="alt_name" v="Finstad" />
		<tag k="fixme" v="consider place=hamlet" />
		<tag k="name" v="Finnstad" />
		<tag k="place" v="farm" />
		<tag k="ssr:stedsnr" v="681322" />
	</node>
	<node lat="63.92310555912106" lon="11.578836121512706" id="-42315">
		<tag k="name" v="Sæheim" />
		<tag k="place" v="farm" />
		<tag k="ssr:stedsnr" v="681025" />
	</node>
	<node lat="64.04350833236961" lon="11.334572214443577" id="-42316">
		<tag k="name" v="Midter-Elnan" />
		<tag k="place" v="farm" />
		<tag k="ssr:stedsnr" v="681028" />
	</node>
	<node lat="63.93425000171917" lon="11.431888896248454" id="-42318">
		<tag k="name" v="Tuvheim" />
		<tag k="place" v="farm" />
		<tag k="ssr:stedsnr" v="681031" />
	</node>
	<node lat="64.06405555234322" lon="11.676144434234388" id="-42319">
		<tag k="name" v="Furuheim" />
		<tag k="place" v="farm" />
		<tag k="ssr:stedsnr" v="681033" />
	</node>
	<node lat="63.93551939517805" lon="11.547550984368089" id="-42320">
		<tag k="fixme" v="consider place=hamlet" />
		<tag k="name" v="Hollan" />
		<tag k="place" v="farm" />
		<tag k="ssr:stedsnr" v="681036" />
	</node>
	<node lat="63.93150555854827" lon="11.564222227662743" id="-42321">
		<tag k="name" v="Melan" />
		<tag k="place" v="farm" />
		<tag k="ssr:stedsnr" v="681037" />
	</node>
	<node lat="64.0147916671804" lon="11.526283323351809" id="-42322">
		<tag k="alt_name" v="Skjefterønningen" />
		<tag k="name" v="Rønningen" />
		<tag k="place" v="farm" />
		<tag k="ssr:stedsnr" v="681079" />
	</node>
	<node lat="64.07347222146632" lon="11.346577780415005" id="-42324">
		<tag k="name" v="Sørhaug" />
		<tag k="place" v="farm" />
		<tag k="ssr:stedsnr" v="681038" />
	</node>
	<node lat="63.94261111480701" lon="11.59661944890724" id="-42326">
		<tag k="alt_name" v="Tolstad" />
		<tag k="name" v="Tollstad" />
		<tag k="place" v="farm" />
		<tag k="ssr:stedsnr" v="681049" />
	</node>
	<node lat="64.05576070795624" lon="11.63092528949961" id="-42328">
		<tag k="fixme" v="consider place=hamlet" />
		<tag k="name" v="Aksnes" />
		<tag k="place" v="farm" />
		<tag k="ssr:stedsnr" v="681052" />
	</node>
	<node lat="64.05656111121772" lon="11.583586118144302" id="-42330">
		<tag k="name" v="Skistua" />
		<tag k="place" v="isolated_dwelling" />
		<tag k="ssr:stedsnr" v="681054" />
	</node>
	<node lat="64.06639529113856" lon="11.275935568766181" id="-42331">
		<tag k="fixme" v="consider place=hamlet" />
		<tag k="name" v="Brandsåsen" />
		<tag k="place" v="farm" />
		<tag k="ssr:stedsnr" v="681056" />
	</node>
	<node lat="64.02074444118588" lon="11.687861108368526" id="-42333">
		<tag k="name" v="Auglbakken" />
		<tag k="place" v="farm" />
		<tag k="ssr:stedsnr" v="681089" />
	</node>
	<node lat="63.904344443741834" lon="11.60706388681769" id="-42334">
		<tag k="name" v="Myrvoll" />
		<tag k="place" v="farm" />
		<tag k="ssr:stedsnr" v="681093" />
	</node>
	<node lat="63.90682371179997" lon="11.615844949772045" id="-42336">
		<tag k="alt_name" v="Øvre Sæli;Sæli øvre" />
		<tag k="fixme" v="consider place=hamlet" />
		<tag k="name" v="Seli" />
		<tag k="place" v="farm" />
		<tag k="ssr:stedsnr" v="681095" />
	</node>
	<node lat="63.91026944216629" lon="11.518911115441801" id="-42337">
		<tag k="name" v="Midtre Rognan" />
		<tag k="place" v="farm" />
		<tag k="ssr:stedsnr" v="681096" />
	</node>
	<node lat="64.04273889105843" lon="11.707111119384841" id="-42338">
		<tag k="name" v="Nordgård" />
		<tag k="place" v="farm" />
		<tag k="ssr:stedsnr" v="681098" />
	</node>
	<node lat="64.08587436919404" lon="11.349523826104287" id="-42341">
		<tag k="fixme" v="consider place=hamlet" />
		<tag k="name" v="Kvamseng" />
		<tag k="place" v="farm" />
		<tag k="ssr:stedsnr" v="681185" />
	</node>
	<node lat="64.07289291258243" lon="11.683475984061703" id="-42342">
		<tag k="name" v="For" />
		<tag k="place" v="farm" />
		<tag k="ssr:stedsnr" v="681204" />
	</node>
	<node lat="64.07251111514319" lon="11.669530560884569" id="-42343">
		<tag k="loc_name" v="Ner-Berg" />
		<tag k="name" v="Berg" />
		<tag k="place" v="farm" />
		<tag k="ssr:stedsnr" v="681205" />
	</node>
	<node lat="64.07516317095204" lon="11.347510062806778" id="-42344">
		<tag k="fixme" v="consider place=hamlet" />
		<tag k="name" v="Rød" />
		<tag k="place" v="farm" />
		<tag k="ssr:stedsnr" v="681211" />
	</node>
	<node lat="64.07551110668247" lon="11.32194549705616" id="-42345">
		<tag k="name" v="Nordgard" />
		<tag k="place" v="farm" />
		<tag k="ssr:stedsnr" v="681212" />
	</node>
	<node lat="64.03986235965151" lon="11.371350784022587" id="-42346">
		<tag k="name" v="Hammar" />
		<tag k="place" v="farm" />
		<tag k="ssr:stedsnr" v="681115" />
	</node>
	<node lat="64.10804166804772" lon="11.454386112663354" id="-42347">
		<tag k="name" v="Håggån" />
		<tag k="place" v="farm" />
		<tag k="ssr:stedsnr" v="681119" />
	</node>
	<node lat="64.1037750042238" lon="11.482652773144665" id="-42348">
		<tag k="name" v="Vester-Røsegg" />
		<tag k="place" v="farm" />
		<tag k="ssr:stedsnr" v="681120" />
	</node>
	<node lat="64.0970437769512" lon="11.41993370390251" id="-42351">
		<tag k="fixme" v="consider place=hamlet" />
		<tag k="name" v="Råmmåaunet" />
		<tag k="place" v="farm" />
		<tag k="ssr:stedsnr" v="681146" />
	</node>
	<node lat="64.12383253879034" lon="11.723977366945117" id="-42356">
		<tag k="fixme" v="consider place=hamlet" />
		<tag k="name" v="Klinga" />
		<tag k="place" v="farm" />
		<tag k="ssr:stedsnr" v="681249" />
	</node>
	<node lat="64.11584569070449" lon="11.757947189256397" id="-42357">
		<tag k="alt_name" v="Hobotn" />
		<tag k="fixme" v="consider place=hamlet" />
		<tag k="name" v="Håbotn" />
		<tag k="place" v="farm" />
		<tag k="ssr:stedsnr" v="681256" />
	</node>
	<node lat="64.00225278190756" lon="11.56991388336093" id="-42358">
		<tag k="name" v="Fosslia" />
		<tag k="place" v="farm" />
		<tag k="ssr:stedsnr" v="681429" />
	</node>
	<node lat="64.09704190531308" lon="11.368436511846443" id="-42361">
		<tag k="fixme" v="consider place=hamlet" />
		<tag k="name" v="Vestvik" />
		<tag k="place" v="farm" />
		<tag k="ssr:stedsnr" v="499105" />
	</node>
	<node lat="64.15255833138714" lon="11.942580565570703" id="-42364">
		<tag k="name" v="Vikran" />
		<tag k="place" v="farm" />
		<tag k="ssr:stedsnr" v="681295" />
	</node>
	<node lat="63.975470596604076" lon="12.114057922512217" id="-42369">
		<tag k="fixme" v="consider place=hamlet" />
		<tag k="name" v="Litl-Gaulstad" />
		<tag k="place" v="farm" />
		<tag k="ssr:stedsnr" v="681385" />
	</node>
	<node lat="64.10861666655775" lon="11.448183341290044" id="-42372">
		<tag k="name" v="Slettvoll" />
		<tag k="place" v="farm" />
		<tag k="ssr:stedsnr" v="499085" />
	</node>
	<node lat="64.11650697859909" lon="11.730508364813684" id="-42377">
		<tag k="fixme" v="consider place=hamlet" />
		<tag k="name" v="Utgard" />
		<tag k="place" v="farm" />
		<tag k="ssr:stedsnr" v="499208" />
	</node>
	<node lat="64.08711111080886" lon="11.750699999583874" id="-42380">
		<tag k="alt_name" v="Toråsen;Tøråsen" />
		<tag k="name" v="Torås" />
		<tag k="place" v="farm" />
		<tag k="ssr:stedsnr" v="499289" />
	</node>
	<node lat="64.0947555516415" lon="11.73211667619848" id="-42383">
		<tag k="name" v="Vårtun" />
		<tag k="place" v="isolated_dwelling" />
		<tag k="ssr:stedsnr" v="499295" />
	</node>
	<node lat="64.09376389219513" lon="11.7408333376648" id="-42384">
		<tag k="name" v="Åseng" />
		<tag k="place" v="farm" />
		<tag k="ssr:stedsnr" v="499296" />
	</node>
	<node lat="64.08644722620356" lon="11.767988890349747" id="-42391">
		<tag k="name" v="Rønningen" />
		<tag k="place" v="farm" />
		<tag k="ssr:stedsnr" v="681342" />
	</node>
	<node lat="63.980813888264116" lon="11.609788898833825" id="-42400">
		<tag k="alt_name" v="Røli, vestre" />
		<tag k="name" v="Vestre Røli" />
		<tag k="place" v="farm" />
		<tag k="ssr:stedsnr" v="681960" />
	</node>
	<node lat="63.86740277866074" lon="10.778727778444917" id="-42402">
		<tag k="name" v="Svean" />
		<tag k="place" v="farm" />
		<tag k="ssr:stedsnr" v="499701" />
	</node>
	<node lat="64.22845000104341" lon="11.693266665651484" id="-42411">
		<tag k="historic" v="shieling" />
		<tag k="name" v="Grønlisetran" />
		<tag k="place" v="isolated_dwelling" />
		<tag k="ssr:stedsnr" v="499912" />
	</node>
	<node lat="64.176586797818" lon="11.876915077611335" id="-42414">
		<tag k="name" v="Dalheim" />
		<tag k="place" v="farm" />
		<tag k="ssr:stedsnr" v="681449" />
	</node>
	<node lat="63.97446666839094" lon="11.640347224131919" id="-42415">
		<tag k="name" v="Elisveet" />
		<tag k="place" v="farm" />
		<tag k="ssr:stedsnr" v="499985" />
	</node>
	<node lat="64.07847222492006" lon="10.828813887048764" id="-42417">
		<tag k="name" v="Tekssjøtømtet" />
		<tag k="place" v="isolated_dwelling" />
		<tag k="ssr:stedsnr" v="681534" />
	</node>
	<node lat="63.96333332933025" lon="10.803750007761582" id="-42420">
		<tag k="name" v="Simadalen" />
		<tag k="place" v="isolated_dwelling" />
		<tag k="ssr:stedsnr" v="681565" />
	</node>
	<node lat="63.9862777814533" lon="11.11380276822585" id="-42421">
		<tag k="name" v="Follafoss" />
		<tag k="place" v="village" />
		<tag k="ssr:stedsnr" v="681574" />
	</node>
	<node lat="64.27530876324782" lon="11.90266520651997" id="-42427">
		<tag k="name" v="Bangsjøhytta" />
		<tag k="place" v="isolated_dwelling" />
		<tag k="ssr:stedsnr" v="681620" />
	</node>
	<node lat="64.26637500345225" lon="11.755766676339057" id="-42434">
		<tag k="name" v="Noemsseteren" />
		<tag k="place" v="locality" />
		<tag k="ssr:stedsnr" v="681504" />
	</node>
	<node lat="64.0486618796911" lon="11.73341955776985" id="-42435">
		<tag k="fixme" v="consider place=hamlet" />
		<tag k="name" v="Kokkås" />
		<tag k="place" v="farm" />
		<tag k="ssr:stedsnr" v="681632" />
	</node>
	<node lat="64.00689166947139" lon="11.841666671265177" id="-42438">
		<tag k="name" v="Sandsve" />
		<tag k="place" v="farm" />
		<tag k="ssr:stedsnr" v="681681" />
	</node>
	<node lat="64.00759167106692" lon="11.821949993282777" id="-42439">
		<tag k="name" v="Saksenget" />
		<tag k="place" v="isolated_dwelling" />
		<tag k="ssr:stedsnr" v="681683" />
	</node>
	<node lat="64.13925834286403" lon="11.676714961282281" id="-42442">
		<tag k="fixme" v="consider place=hamlet" />
		<tag k="name" v="Gjerstad" />
		<tag k="place" v="farm" />
		<tag k="ssr:stedsnr" v="681768" />
	</node>
	<node lat="64.12539188664991" lon="11.405070259167504" id="-42446">
		<tag k="fixme" v="consider place=hamlet" />
		<tag k="name" v="Svarte" />
		<tag k="place" v="farm" />
		<tag k="ssr:stedsnr" v="681794" />
	</node>
	<node lat="64.1097499992427" lon="11.43069444781658" id="-42447">
		<tag k="name" v="Endreberg" />
		<tag k="place" v="farm" />
		<tag k="ssr:stedsnr" v="681797" />
	</node>
	<node lat="64.12027117501728" lon="11.571875391985218" id="-42448">
		<tag k="fixme" v="consider place=hamlet" />
		<tag k="name" v="Forfon" />
		<tag k="place" v="farm" />
		<tag k="ssr:stedsnr" v="681799" />
	</node>
	<node lat="64.170834797513" lon="11.707037590033954" id="-42449">
		<tag k="fixme" v="consider place=hamlet" />
		<tag k="name" v="Øysterdalen" />
		<tag k="place" v="farm" />
		<tag k="ssr:stedsnr" v="681873" />
	</node>
	<node lat="63.880628214023986" lon="10.84282126225987" id="-42450">
		<tag k="name" v="Sjømark" />
		<tag k="place" v="farm" />
		<tag k="ssr:stedsnr" v="681710" />
	</node>
	<node lat="63.985794448588194" lon="11.606861112580987" id="-42456">
		<tag k="name" v="Dalen" />
		<tag k="place" v="farm" />
		<tag k="ssr:stedsnr" v="681952" />
	</node>
	<node lat="63.97853769141453" lon="11.453524729958412" id="-42457">
		<tag k="fixme" v="consider place=hamlet" />
		<tag k="name" v="Oksur" />
		<tag k="place" v="farm" />
		<tag k="ssr:stedsnr" v="681968" />
	</node>
	<node lat="64.02933333612522" lon="11.202750003205269" id="-42459">
		<tag k="name" v="Nerenget" />
		<tag k="place" v="locality" />
		<tag k="ssr:stedsnr" v="681995" />
	</node>
	<node lat="64.13431666848702" lon="11.452525008316865" id="-42461">
		<tag k="name" v="Oppdal" />
		<tag k="place" v="farm" />
		<tag k="ssr:stedsnr" v="507559" />
	</node>
	<node lat="64.07017318488536" lon="11.276914710116877" id="-42469">
		<tag k="fixme" v="consider place=hamlet" />
		<tag k="name" v="Brekka" />
		<tag k="place" v="farm" />
		<tag k="ssr:stedsnr" v="508122" />
	</node>
	<node lat="64.10355700358954" lon="11.49315419443188" id="-42473">
		<tag k="fixme" v="consider place=hamlet" />
		<tag k="name" v="Røsegg" />
		<tag k="place" v="farm" />
		<tag k="ssr:stedsnr" v="508607" />
	</node>
	<node lat="64.12826388746538" lon="11.436080559729836" id="-42475">
		<tag k="name" v="Øyster-Haugen" />
		<tag k="place" v="farm" />
		<tag k="ssr:stedsnr" v="508561" />
	</node>
	<node lat="63.861583329742466" lon="11.545730558828815" id="-42478">
		<tag k="name" v="Landstadvollen" />
		<tag k="place" v="locality" />
		<tag k="ssr:stedsnr" v="508707" />
	</node>
	<node lat="64.09655277653196" lon="11.529594449706854" id="-42479">
		<tag k="name" v="Føllingrønningen" />
		<tag k="place" v="locality" />
		<tag k="ssr:stedsnr" v="508723" />
	</node>
	<node lat="64.12920277821057" lon="11.3194472267454" id="-42481">
		<tag k="name" v="Gladse" />
		<tag k="place" v="farm" />
		<tag k="ssr:stedsnr" v="508812" />
	</node>
	<node lat="64.05755704167723" lon="11.244285438124102" id="-42492">
		<tag k="name" v="Bartnes" />
		<tag k="place" v="hamlet" />
		<tag k="ssr:stedsnr" v="511211" />
	</node>
	<node lat="64.06461666513768" lon="11.501494451088131" id="-42493">
		<tag k="name" v="Asp" />
		<tag k="place" v="farm" />
		<tag k="ssr:stedsnr" v="511213" />
	</node>
	<node lat="64.07249999877466" lon="11.724997230606247" id="-42499">
		<tag k="name" v="Laup" />
		<tag k="place" v="farm" />
		<tag k="ssr:stedsnr" v="514208" />
	</node>
	<node lat="64.13637500238563" lon="11.707330549455877" id="-42500">
		<tag k="fixme" v="consider place=hamlet" />
		<tag k="name" v="Veines" />
		<tag k="place" v="farm" />
		<tag k="ssr:stedsnr" v="514102" />
	</node>
	<node lat="64.13354443990693" lon="11.647838898334431" id="-42501">
		<tag k="name" v="Knedalen" />
		<tag k="place" v="farm" />
		<tag k="ssr:stedsnr" v="514104" />
	</node>
	<node lat="64.03018055435022" lon="11.239577768916378" id="-42503">
		<tag k="name" v="Steinvoll" />
		<tag k="place" v="farm" />
		<tag k="ssr:stedsnr" v="514108" />
	</node>
	<node lat="64.10817222256594" lon="11.7327083237263" id="-42509">
		<tag k="name" v="Haugli" />
		<tag k="place" v="farm" />
		<tag k="ssr:stedsnr" v="514177" />
	</node>
	<node lat="64.04160833415827" lon="11.490677783058825" id="-42525">
		<tag k="name" v="Persplassen" />
		<tag k="place" v="locality" />
		<tag k="ssr:stedsnr" v="514872" />
	</node>
	<node lat="63.93275006075653" lon="11.597345763806898" id="-42526">
		<tag k="alt_name" v="Langli øvre" />
		<tag k="fixme" v="consider place=hamlet" />
		<tag k="name" v="Øvre Langli" />
		<tag k="place" v="farm" />
		<tag k="ssr:stedsnr" v="514880" />
	</node>
	<node lat="64.02373333066163" lon="11.491072220392242" id="-42530">
		<tag k="name" v="Tingvoll" />
		<tag k="ssr:stedsnr" v="514912" />
		<tag k="tourism" v="hotel" />
	</node>
	<node lat="63.999244448066676" lon="11.490641675159186" id="-42531">
		<tag k="name" v="Fossan" />
		<tag k="place" v="farm" />
		<tag k="ssr:stedsnr" v="514920" />
	</node>
	<node lat="63.881679758577846" lon="10.845706851141424" id="-42545">
		<tag k="name" v="Litlenget" />
		<tag k="place" v="isolated_dwelling" />
		<tag k="ssr:stedsnr" v="529477" />
	</node>
	<node lat="63.961066668798814" lon="11.833347223289316" id="-42571">
		<tag k="historic" v="shieling" />
		<tag k="name" v="Tolstadseteren" />
		<tag k="place" v="isolated_dwelling" />
		<tag k="ssr:stedsnr" v="534613" />
	</node>
	<node lat="64.05913611287963" lon="11.15224166992882" id="-42584">
		<tag k="name" v="Fjellgårdan" />
		<tag k="place" v="hamlet" />
		<tag k="ssr:stedsnr" v="543582" />
	</node>
	<node lat="64.07331389063674" lon="11.216541663578253" id="-42585">
		<tag k="fixme" v="consider place=suburb, village or hamlet" />
		<tag k="name" v="Malmlia" />
		<tag k="place" v="quarter" />
		<tag k="ssr:stedsnr" v="543584" />
	</node>
	<node lat="64.08113889045087" lon="11.240816659209848" id="-42586">
		<tag k="name" v="Skardset" />
		<tag k="place" v="quarter" />
		<tag k="ssr:stedsnr" v="543587" />
	</node>
	<node lat="64.07989327600113" lon="11.625981221093765" id="-42587">
		<tag k="name" v="Sundan" />
		<tag k="place" v="hamlet" />
		<tag k="ssr:stedsnr" v="543909" />
	</node>
	<node lat="63.914541666792395" lon="11.409513879925957" id="-42591">
		<tag k="name" v="Solstad" />
		<tag k="place" v="farm" />
		<tag k="ssr:stedsnr" v="544880" />
	</node>
	<node lat="63.937311890711115" lon="11.602594416979091" id="-42596">
		<tag k="name" v="Moen" />
		<tag k="place" v="hamlet" />
		<tag k="ssr:stedsnr" v="559047" />
	</node>
	<node lat="63.907322951111524" lon="11.47088600637448" id="-42597">
		<tag k="name" v="Skjerve" />
		<tag k="place" v="farm" />
		<tag k="ssr:stedsnr" v="559096" />
	</node>
	<node lat="64.09250832934804" lon="11.696283334308067" id="-42598">
		<tag k="name" v="Ryggvoll" />
		<tag k="place" v="farm" />
		<tag k="ssr:stedsnr" v="559209" />
	</node>
	<node lat="64.12120684153209" lon="11.592309250850363" id="-42601">
		<tag k="fixme" v="consider place=hamlet" />
		<tag k="name" v="Langhåmmåraunet" />
		<tag k="place" v="farm" />
		<tag k="ssr:stedsnr" v="559145" />
	</node>
	<node lat="64.12363888972018" lon="11.324113886690464" id="-42603">
		<tag k="name" v="Hjelltrøa" />
		<tag k="place" v="farm" />
		<tag k="ssr:stedsnr" v="559148" />
	</node>
	<node lat="63.90620555318184" lon="10.921094446808276" id="-42608">
		<tag k="name" v="Øyster-Sand" />
		<tag k="place" v="farm" />
		<tag k="ssr:stedsnr" v="559508" />
	</node>
	<node lat="64.23463889116738" lon="11.763358331847176" id="-42609">
		<tag k="name" v="Nessetran" />
		<tag k="place" v="locality" />
		<tag k="ssr:stedsnr" v="559403" />
	</node>
	<node lat="64.10312777755667" lon="10.92775277858333" id="-42614">
		<tag k="name" v="Torslisetran" />
		<tag k="place" v="isolated_dwelling" />
		<tag k="ssr:stedsnr" v="559497" />
	</node>
	<node lat="63.94641025313149" lon="11.004595090838862" id="-42615">
		<tag k="name" v="Øver-Tua" />
		<tag k="place" v="farm" />
		<tag k="ssr:stedsnr" v="559606" />
	</node>
	<node lat="63.99582499547656" lon="10.971233342852782" id="-42617">
		<tag k="name" v="Lomlisetran" />
		<tag k="place" v="locality" />
		<tag k="ssr:stedsnr" v="559586" />
	</node>
	<node lat="64.13184166900871" lon="11.447727783066428" id="-42619">
		<tag k="name" v="Brandsegg" />
		<tag k="place" v="farm" />
		<tag k="ssr:stedsnr" v="559797" />
	</node>
	<node lat="63.93745768002063" lon="11.625373203666731" id="-42620">
		<tag k="fixme" v="consider place=hamlet" />
		<tag k="name" v="Fossan" />
		<tag k="place" v="farm" />
		<tag k="ssr:stedsnr" v="559801" />
	</node>
	<node lat="64.05597500344113" lon="11.697466670219463" id="-42621">
		<tag k="name" v="Skogmo" />
		<tag k="place" v="farm" />
		<tag k="ssr:stedsnr" v="560006" />
	</node>
	<node lat="64.05836113877443" lon="11.248769325211388" id="-42622">
		<tag k="name" v="Heimtun" />
		<tag k="place" v="farm" />
		<tag k="ssr:stedsnr" v="560010" />
	</node>
	<node lat="63.940075003411444" lon="11.63094167546293" id="-42624">
		<tag k="name" v="Nordberg" />
		<tag k="place" v="farm" />
		<tag k="ssr:stedsnr" v="560045" />
	</node>
	<node lat="63.966284349295336" lon="11.505176182964131" id="-42625">
		<tag k="alt_name" v="Bjørka" />
		<tag k="fixme" v="consider place=hamlet" />
		<tag k="name" v="Litlbjørka" />
		<tag k="place" v="farm" />
		<tag k="ssr:stedsnr" v="559889" />
	</node>
	<node lat="64.02783466479018" lon="10.820555752001995" id="-42629">
		<tag k="fixme" v="consider place=hamlet" />
		<tag k="name" v="Ner-Silderen" />
		<tag k="place" v="farm" />
		<tag k="ssr:stedsnr" v="559993" />
	</node>
	<node lat="64.09882570324258" lon="11.384897885073544" id="-42630">
		<tag k="fixme" v="consider place=hamlet" />
		<tag k="name" v="Østvik" />
		<tag k="place" v="farm" />
		<tag k="ssr:stedsnr" v="560137" />
	</node>
	<node lat="64.09857818892885" lon="11.378904630821035" id="-42631">
		<tag k="name" v="Ner-Vikan" />
		<tag k="place" v="farm" />
		<tag k="ssr:stedsnr" v="560138" />
	</node>
	<node lat="64.03146813333302" lon="11.593424730589774" id="-42633">
		<tag k="fixme" v="consider place=hamlet" />
		<tag k="name" v="Setne" />
		<tag k="place" v="farm" />
		<tag k="ssr:stedsnr" v="560091" />
	</node>
	<node lat="64.01224444209745" lon="12.09902221321467" id="-42637">
		<tag k="name" v="Skjelstad" />
		<tag k="place" v="farm" />
		<tag k="ssr:stedsnr" v="560682" />
	</node>
	<node lat="64.1059277822695" lon="11.550788889186448" id="-42644">
		<tag k="name" v="Austli" />
		<tag k="place" v="farm" />
		<tag k="ssr:stedsnr" v="690683" />
	</node>
	<node lat="63.91443889034725" lon="11.560566667603915" id="-42645">
		<tag k="name" v="Øver-Sem" />
		<tag k="place" v="farm" />
		<tag k="ssr:stedsnr" v="689637" />
	</node>
	<node lat="64.10202837862337" lon="11.420639899574272" id="-42661">
		<tag k="fixme" v="consider place=hamlet" />
		<tag k="name" v="Øver-Kvarving" />
		<tag k="place" v="farm" />
		<tag k="ssr:stedsnr" v="690624" />
	</node>
	<node lat="64.12738611277963" lon="11.288877776360927" id="-42667">
		<tag k="name" v="Sagholet" />
		<tag k="place" v="locality" />
		<tag k="ssr:stedsnr" v="690769" />
	</node>
	<node lat="63.94180833342727" lon="11.383550008072078" id="-42676">
		<tag k="name" v="Lønnvika" />
		<tag k="place" v="farm" />
		<tag k="ssr:stedsnr" v="690967" />
	</node>
	<node lat="63.90851715034133" lon="11.421115636844938" id="-42679">
		<tag k="fixme" v="consider place=hamlet" />
		<tag k="name" v="Barkalden" />
		<tag k="place" v="farm" />
		<tag k="ssr:stedsnr" v="690989" />
	</node>
	<node lat="63.91698611402259" lon="11.442597226318558" id="-42680">
		<tag k="name" v="Nordgård" />
		<tag k="place" v="farm" />
		<tag k="ssr:stedsnr" v="690993" />
	</node>
	<node lat="63.920574999680284" lon="11.49620278293255" id="-42681">
		<tag k="name" v="Haldoplassen" />
		<tag k="place" v="locality" />
		<tag k="ssr:stedsnr" v="690995" />
	</node>
	<node lat="64.04356944282557" lon="11.334783324531262" id="-42694">
		<tag k="name" v="Elnan" />
		<tag k="place" v="farm" />
		<tag k="ssr:stedsnr" v="568209" />
	</node>
	<node lat="64.07759825517462" lon="11.51444479323795" id="-42699">
		<tag k="name" v="Trøa" />
		<tag k="place" v="farm" />
		<tag k="ssr:stedsnr" v="568612" />
	</node>
	<node lat="64.15406388603132" lon="11.51223889567203" id="-42702">
		<tag k="name" v="Liaseteren" />
		<tag k="place" v="locality" />
		<tag k="ssr:stedsnr" v="568617" />
	</node>
	<node lat="64.13811944758277" lon="11.272183333403218" id="-42711">
		<tag k="name" v="Moen" />
		<tag k="place" v="farm" />
		<tag k="ssr:stedsnr" v="568755" />
	</node>
	<node lat="63.99297778123444" lon="12.091894447828617" id="-42723">
		<tag k="fixme" v="consider place=hamlet" />
		<tag k="name" v="Tangen" />
		<tag k="place" v="farm" />
		<tag k="ssr:stedsnr" v="693666" />
	</node>
	<node lat="64.04309298274636" lon="11.332052545081819" id="-42724">
		<tag k="name" v="Elnan" />
		<tag k="place" v="hamlet" />
		<tag k="ssr:stedsnr" v="572208" />
	</node>
	<node lat="63.91340238831408" lon="10.930030005240688" id="-42725">
		<tag k="fixme" v="consider place=hamlet" />
		<tag k="name" v="Skjelstad" />
		<tag k="place" v="farm" />
		<tag k="ssr:stedsnr" v="572304" />
	</node>
	<node lat="64.01194999617576" lon="11.194377785735794" id="-42731">
		<tag k="name" v="Persplassen" />
		<tag k="place" v="locality" />
		<tag k="ssr:stedsnr" v="574120" />
	</node>
	<node lat="63.884909569325806" lon="10.854603550011717" id="-42741">
		<tag k="name" v="Stavrem" />
		<tag k="place" v="farm" />
		<tag k="ssr:stedsnr" v="694246" />
	</node>
	<node lat="64.01563333252771" lon="11.21048888357477" id="-42742">
		<tag k="name" v="Vada" />
		<tag k="place" v="farm" />
		<tag k="ssr:stedsnr" v="574096" />
	</node>
	<node lat="64.05108893553573" lon="11.658195064140338" id="-42755">
		<tag k="name" v="Holtan" />
		<tag k="place" v="locality" />
		<tag k="ssr:stedsnr" v="574314" />
	</node>
	<node lat="64.18107222296878" lon="11.844866671314088" id="-42766">
		<tag k="name" v="Brasettrøa" />
		<tag k="place" v="locality" />
		<tag k="ssr:stedsnr" v="574917" />
	</node>
	<node lat="63.966411543304794" lon="11.61333577858998" id="-42767">
		<tag k="fixme" v="consider place=hamlet" />
		<tag k="name" v="Aunet" />
		<tag k="place" v="farm" />
		<tag k="ssr:stedsnr" v="574898" />
	</node>
	<node lat="64.06318611327954" lon="11.206419435376338" id="-42769">
		<tag k="name" v="Heimdal" />
		<tag k="place" v="farm" />
		<tag k="ssr:stedsnr" v="574997" />
	</node>
	<node lat="64.09121461265596" lon="11.709914417203272" id="-42786">
		<tag k="name" v="Binde" />
		<tag k="place" v="quarter" />
		<tag k="ssr:stedsnr" v="696138" />
	</node>
	<node lat="64.09379444530492" lon="11.232863881683933" id="-42789">
		<tag k="name" v="Tverrås" />
		<tag k="place" v="quarter" />
		<tag k="ssr:stedsnr" v="585710" />
	</node>
	<node lat="64.09801110736116" lon="11.661641656381134" id="-42793">
		<tag k="name" v="Hobakken" />
		<tag k="place" v="locality" />
		<tag k="ssr:stedsnr" v="696244" />
	</node>
	<node lat="64.04958333534748" lon="11.657358339085008" id="-42794">
		<tag k="name" v="Myrvoll" />
		<tag k="place" v="farm" />
		<tag k="ssr:stedsnr" v="696255" />
	</node>
	<node lat="64.06718611209152" lon="11.668599997558742" id="-42795">
		<tag k="name" v="Annaneset" />
		<tag k="place" v="locality" />
		<tag k="ssr:stedsnr" v="696259" />
	</node>
	<node lat="63.987144441705034" lon="10.885730548715612" id="-42805">
		<tag k="loc_name" v="Sandseter nedre" />
		<tag k="name" v="Nedre Sandseter" />
		<tag k="place" v="farm" />
		<tag k="ssr:stedsnr" v="587451" />
	</node>
	<node lat="64.02627922922821" lon="11.491213996072531" id="-42813">
		<tag k="fixme" v="consider place=hamlet" />
		<tag k="name" v="Hegge" />
		<tag k="place" v="farm" />
		<tag k="ssr:stedsnr" v="696931" />
	</node>
	<node lat="63.99885000433533" lon="11.486872226952848" id="-42814">
		<tag k="amenity" v="school" />
		<tag k="name" v="Lø skole" />
		<tag k="ssr:stedsnr" v="696939" />
	</node>
	<node lat="64.04468333345892" lon="11.812905555373518" id="-42832">
		<tag k="name" v="Kokkåsseteren" />
		<tag k="place" v="locality" />
		<tag k="ssr:stedsnr" v="593868" />
	</node>
	<node lat="64.03573333666247" lon="11.05958333314563" id="-42833">
		<tag k="name" v="Olarommet" />
		<tag k="place" v="locality" />
		<tag k="ssr:stedsnr" v="594007" />
	</node>
	<node lat="64.18489722491873" lon="11.71105554915674" id="-42842">
		<tag k="name" v="Langengseteren" />
		<tag k="place" v="locality" />
		<tag k="ssr:stedsnr" v="594250" />
	</node>
	<node lat="63.96019166848067" lon="12.098561113192527" id="-42847">
		<tag k="name" v="Mokkabakken" />
		<tag k="place" v="locality" />
		<tag k="ssr:stedsnr" v="594516" />
	</node>
	<node lat="64.17712494284382" lon="11.863514446661103" id="-42858">
		<tag k="name" v="Øksnes" />
		<tag k="place" v="hamlet" />
		<tag k="ssr:stedsnr" v="600098" />
	</node>
	<node lat="64.04709444644988" lon="11.567074996889366" id="-42873">
		<tag k="name" v="Reinsvegen boligfelt" />
		<tag k="place" v="quarter" />
		<tag k="ssr:stedsnr" v="603322" />
	</node>
	<node lat="64.00845991785769" lon="11.9065745892979" id="-42874">
		<tag k="name" v="Giskås" />
		<tag k="place" v="farm" />
		<tag k="ssr:stedsnr" v="604418" />
	</node>
	<node lat="63.92106944157012" lon="11.609152783839617" id="-42875">
		<tag k="alt_name" v="Midtre Aurstad" />
		<tag k="name" v="Aurstad" />
		<tag k="place" v="farm" />
		<tag k="ssr:stedsnr" v="604419" />
	</node>
	<node lat="63.83346150658456" lon="10.658227770515104" id="-42885">
		<tag k="alt_name" v="Moldlia" />
		<tag k="name" v="Lia" />
		<tag k="place" v="isolated_dwelling" />
		<tag k="ssr:stedsnr" v="619522" />
	</node>
	<node lat="63.92452746907432" lon="11.51177884797001" id="-42887">
		<tag k="fixme" v="consider place=hamlet" />
		<tag k="name" v="Tanem" />
		<tag k="place" v="farm" />
		<tag k="ssr:stedsnr" v="620018" />
	</node>
	<node lat="63.92119166821335" lon="11.620033341468666" id="-42888">
		<tag k="name" v="Austheim" />
		<tag k="place" v="farm" />
		<tag k="ssr:stedsnr" v="620023" />
	</node>
	<node lat="63.93798055977614" lon="11.425958328694259" id="-42889">
		<tag k="fixme" v="consider place=suburb, village or hamlet" />
		<tag k="name" v="Mære" />
		<tag k="place" v="quarter" />
		<tag k="ssr:stedsnr" v="620030" />
	</node>
	<node lat="63.93729166870388" lon="11.478147231265527" id="-42890">
		<tag k="name" v="Nedre Skei" />
		<tag k="place" v="farm" />
		<tag k="ssr:stedsnr" v="620034" />
	</node>
	<node lat="64.06729813755481" lon="11.653890546107572" id="-42891">
		<tag k="fixme" v="consider place=hamlet" />
		<tag k="name" v="Fornes" />
		<tag k="place" v="farm" />
		<tag k="ssr:stedsnr" v="620036" />
	</node>
	<node lat="64.07491944778464" lon="11.352133329848993" id="-42892">
		<tag k="name" v="Nyrød" />
		<tag k="place" v="farm" />
		<tag k="ssr:stedsnr" v="620042" />
	</node>
	<node lat="64.02009444599743" lon="11.508358339023117" id="-42894">
		<tag k="alt_name" v="Guldbergaunet" />
		<tag k="leisure" v="pitch" />
		<tag k="name" v="Gullbergaunet" />
		<tag k="ssr:stedsnr" v="620071" />
	</node>
	<node lat="64.02947532221437" lon="11.44985677897261" id="-42896">
		<tag k="fixme" v="consider place=hamlet" />
		<tag k="name" v="Lund" />
		<tag k="place" v="farm" />
		<tag k="ssr:stedsnr" v="620074" />
	</node>
	<node lat="63.908262044888154" lon="11.4530301090439" id="-42898">
		<tag k="fixme" v="consider place=hamlet" />
		<tag k="name" v="Gjermstad" />
		<tag k="place" v="farm" />
		<tag k="ssr:stedsnr" v="620112" />
	</node>
	<node lat="63.90719390770973" lon="11.459789756947195" id="-42899">
		<tag k="fixme" v="consider place=hamlet" />
		<tag k="name" v="Landstad" />
		<tag k="place" v="farm" />
		<tag k="ssr:stedsnr" v="620115" />
	</node>
	<node lat="64.09900943096453" lon="11.487886174433823" id="-42900">
		<tag k="fixme" v="consider place=hamlet" />
		<tag k="name" v="Sør-Røsegg" />
		<tag k="place" v="farm" />
		<tag k="ssr:stedsnr" v="620124" />
	</node>
	<node lat="64.11153333073817" lon="11.659450005657247" id="-42901">
		<tag k="name" v="Vang" />
		<tag k="place" v="farm" />
		<tag k="ssr:stedsnr" v="620169" />
	</node>
	<node lat="64.11578610966635" lon="11.716044441096889" id="-42902">
		<tag k="name" v="Utgard" />
		<tag k="place" v="farm" />
		<tag k="ssr:stedsnr" v="620172" />
	</node>
	<node lat="64.07893888836615" lon="11.323122223542656" id="-42903">
		<tag k="name" v="Utgard" />
		<tag k="place" v="farm" />
		<tag k="ssr:stedsnr" v="620179" />
	</node>
	<node lat="64.08393055317576" lon="11.333916667226703" id="-42904">
		<tag k="name" v="Utvikhaug" />
		<tag k="place" v="farm" />
		<tag k="ssr:stedsnr" v="620180" />
	</node>
	<node lat="64.08638810922149" lon="11.331565209264383" id="-42905">
		<tag k="fixme" v="consider place=hamlet" />
		<tag k="name" v="Utvik" />
		<tag k="place" v="farm" />
		<tag k="ssr:stedsnr" v="620182" />
	</node>
	<node lat="64.08169166718854" lon="11.241577781063494" id="-42907">
		<tag k="name" v="Skardset" />
		<tag k="place" v="farm" />
		<tag k="ssr:stedsnr" v="620187" />
	</node>
	<node lat="64.09098055426053" lon="11.420152781646065" id="-42908">
		<tag k="name" v="Grønningen" />
		<tag k="place" v="farm" />
		<tag k="ssr:stedsnr" v="620223" />
	</node>
	<node lat="64.14894166946495" lon="11.748000009418483" id="-42910">
		<tag k="name" v="Lyngheim" />
		<tag k="place" v="farm" />
		<tag k="ssr:stedsnr" v="620280" />
	</node>
	<node lat="64.15259505079695" lon="11.771281287287872" id="-42911">
		<tag k="fixme" v="consider place=hamlet" />
		<tag k="name" v="Hælen" />
		<tag k="place" v="farm" />
		<tag k="ssr:stedsnr" v="620285" />
	</node>
	<node lat="64.11163611200796" lon="11.04130276950017" id="-42917">
		<tag k="name" v="Langvassetran" />
		<tag k="place" v="isolated_dwelling" />
		<tag k="ssr:stedsnr" v="620483" />
	</node>
	<node lat="63.995191668518" lon="11.865030554815927" id="-42918">
		<tag k="name" v="Hyllbrua" />
		<tag k="place" v="hamlet" />
		<tag k="ssr:stedsnr" v="620322" />
	</node>
	<node lat="64.24543055299003" lon="11.916855565465276" id="-42921">
		<tag k="name" v="Brassetsetran" />
		<tag k="place" v="locality" />
		<tag k="ssr:stedsnr" v="620384" />
	</node>
	<node lat="63.99500000372088" lon="11.915375007587636" id="-42923">
		<tag k="name" v="Giskåsstua" />
		<tag k="place" v="isolated_dwelling" />
		<tag k="ssr:stedsnr" v="620388" />
	</node>
	<node lat="64.0959111121435" lon="11.152558341819612" id="-42926">
		<tag k="name" v="Øverressemsetran" />
		<tag k="place" v="isolated_dwelling" />
		<tag k="ssr:stedsnr" v="620513" />
	</node>
	<node lat="64.01631666760511" lon="11.846986103575471" id="-42928">
		<tag k="alt_name" v="Haugum" />
		<tag k="name" v="Haugom" />
		<tag k="place" v="farm" />
		<tag k="ssr:stedsnr" v="620622" />
	</node>
	<node lat="64.20119721808545" lon="11.62671388147176" id="-42929">
		<tag k="name" v="Giltmarka" />
		<tag k="place" v="farm" />
		<tag k="ssr:stedsnr" v="620819" />
	</node>
	<node lat="64.12749444736255" lon="11.410544436933053" id="-42932">
		<tag k="name" v="Nytrøa" />
		<tag k="place" v="farm" />
		<tag k="ssr:stedsnr" v="620768" />
	</node>
	<node lat="64.18971389230339" lon="11.470922229215931" id="-42934">
		<tag k="historic" v="shieling" />
		<tag k="name" v="Huslisetran" />
		<tag k="place" v="isolated_dwelling" />
		<tag k="ssr:stedsnr" v="620785" />
	</node>
	<node lat="63.950853538703974" lon="11.399193433314574" id="-42935">
		<tag k="fixme" v="consider place=hamlet" />
		<tag k="name" v="Røtte" />
		<tag k="place" v="farm" />
		<tag k="ssr:stedsnr" v="620904" />
	</node>
	<node lat="63.94442954274166" lon="11.460141518942635" id="-42936">
		<tag k="name" v="Leinsmyra" />
		<tag k="place" v="farm" />
		<tag k="ssr:stedsnr" v="620907" />
	</node>
	<node lat="63.99350833214252" lon="11.604877777241851" id="-42937">
		<tag k="name" v="Rognan" />
		<tag k="place" v="farm" />
		<tag k="ssr:stedsnr" v="620922" />
	</node>
	<node lat="64.11628485740214" lon="11.300186582786639" id="-42950">
		<tag k="fixme" v="multiple name tags, choose one and add the other to alt_name; consider place=hamlet" />
		<tag k="name" v="Elda;Øyster-Elda" />
		<tag k="place" v="farm" />
		<tag k="ssr:stedsnr" v="629819" />
	</node>
	<node lat="64.09597189556521" lon="11.324570357249014" id="-42953">
		<tag k="fixme" v="consider place=hamlet" />
		<tag k="name" v="Strømnes" />
		<tag k="place" v="farm" />
		<tag k="ssr:stedsnr" v="629850" />
	</node>
	<node lat="63.935605553864455" lon="11.502938887700056" id="-42956">
		<tag k="name" v="Aunet" />
		<tag k="place" v="farm" />
		<tag k="ssr:stedsnr" v="629708" />
	</node>
	<node lat="64.1411694418776" lon="11.301705554823636" id="-42957">
		<tag k="name" v="Åsan" />
		<tag k="place" v="locality" />
		<tag k="ssr:stedsnr" v="629743" />
	</node>
	<node lat="63.91027221987237" lon="11.481236112055429" id="-42962">
		<tag k="name" v="Oppemsplassen" />
		<tag k="place" v="locality" />
		<tag k="ssr:stedsnr" v="629993" />
	</node>
	<node lat="63.993508337084315" lon="11.10710555414569" id="-42968">
		<tag k="name" v="Storsvebakken" />
		<tag k="place" v="locality" />
		<tag k="ssr:stedsnr" v="635112" />
	</node>
	<node lat="64.14013333378566" lon="11.73943888350998" id="-42970">
		<tag k="name" v="Kvam" />
		<tag k="place" v="hamlet" />
		<tag k="ssr:stedsnr" v="635076" />
	</node>
	<node lat="64.04215277649092" lon="11.606341665394451" id="-42980">
		<tag k="name" v="Aunet" />
		<tag k="place" v="locality" />
		<tag k="ssr:stedsnr" v="635504" />
	</node>
	<node lat="64.09495555858255" lon="11.590622217259751" id="-42982">
		<tag k="alt_name" v="Dal østre" />
		<tag k="name" v="Østre Dal" />
		<tag k="place" v="farm" />
		<tag k="ssr:stedsnr" v="635514" />
	</node>
	<node lat="63.92710000325206" lon="11.62311945445232" id="-42985">
		<tag k="name" v="Skogli" />
		<tag k="place" v="farm" />
		<tag k="ssr:stedsnr" v="635876" />
	</node>
	<node lat="63.92324444003947" lon="11.625255557746083" id="-42986">
		<tag k="name" v="Bakken" />
		<tag k="place" v="farm" />
		<tag k="ssr:stedsnr" v="635877" />
	</node>
	<node lat="64.03896944348804" lon="11.49122777691993" id="-42999">
		<tag k="name" v="Nordre Kvam" />
		<tag k="place" v="quarter" />
		<tag k="ssr:stedsnr" v="646373" />
	</node>
	<node lat="64.03656388642982" lon="11.499513892879817" id="-43000">
		<tag k="leisure" v="pitch" />
		<tag k="name" v="Hallem skistadion" />
		<tag k="ssr:stedsnr" v="646374" />
	</node>
	<node lat="64.02004444673476" lon="11.498733324762144" id="-43001">
		<tag k="name" v="Nordsidhaugen" />
		<tag k="place" v="quarter" />
		<tag k="ssr:stedsnr" v="646381" />
	</node>
	<node lat="64.1792292240223" lon="11.459692847178292" id="-43013">
		<tag k="name" v="Bleia Sør" />
		<tag k="place" v="neighbourhood" />
		<tag k="ssr:stedsnr" v="707402" />
	</node>
	<node lat="64.09001944142815" lon="11.230263888974543" id="-43014">
		<tag k="name" v="Øver-Åsen" />
		<tag k="place" v="quarter" />
		<tag k="ssr:stedsnr" v="707746" />
	</node>
	<node lat="64.09374641437223" lon="11.8623289511713" id="-43021">
		<tag k="name" v="Henningen" />
		<tag k="place" v="locality" />
		<tag k="ssr:stedsnr" v="654800" />
	</node>
	<node lat="63.91407499826752" lon="11.78765555792879" id="-43030">
		<tag k="historic" v="shieling" />
		<tag k="name" v="Tanemseteren" />
		<tag k="place" v="isolated_dwelling" />
		<tag k="ssr:stedsnr" v="655598" />
	</node>
	<node lat="63.970016669789324" lon="11.409794445475683" id="-43039">
		<tag k="name" v="Walborg" />
		<tag k="place" v="farm" />
		<tag k="ssr:stedsnr" v="708536" />
	</node>
	<node lat="63.93305000400995" lon="11.37960832883577" id="-43060">
		<tag k="name" v="Søre Naust" />
		<tag k="place" v="farm" />
		<tag k="ssr:stedsnr" v="664032" />
	</node>
	<node lat="63.881711114225176" lon="11.594049999137129" id="-43078">
		<tag k="name" v="Neset" />
		<tag k="place" v="farm" />
		<tag k="ssr:stedsnr" v="891466" />
	</node>
	<node lat="64.13127500338699" lon="11.661258334987746" id="-43084">
		<tag k="alt_name" v="Ho nordre" />
		<tag k="name" v="Nordre Ho" />
		<tag k="place" v="farm" />
		<tag k="ssr:stedsnr" v="892053" />
	</node>
	<node lat="63.91275424558096" lon="11.56027132152694" id="-43086">
		<tag k="name" v="Sem" />
		<tag k="place" v="hamlet" />
		<tag k="ssr:stedsnr" v="681015" />
	</node>
	<node lat="64.04082222513942" lon="11.442697228253056" id="-43087">
		<tag k="name" v="Rein" />
		<tag k="place" v="farm" />
		<tag k="ssr:stedsnr" v="681018" />
	</node>
	<node lat="64.04780688209209" lon="11.444174994330387" id="-43088">
		<tag k="fixme" v="consider place=hamlet" />
		<tag k="name" v="Dalekra" />
		<tag k="place" v="farm" />
		<tag k="ssr:stedsnr" v="681020" />
	</node>
	<node lat="63.928280558025556" lon="11.503008339227092" id="-43089">
		<tag k="name" v="Aunan" />
		<tag k="place" v="farm" />
		<tag k="ssr:stedsnr" v="681023" />
	</node>
	<node lat="64.06465253529151" lon="11.319600563429598" id="-43091">
		<tag k="fixme" v="consider place=hamlet" />
		<tag k="name" v="Rennan" />
		<tag k="place" v="farm" />
		<tag k="ssr:stedsnr" v="681060" />
	</node>
	<node lat="64.0216213043102" lon="11.547742870516828" id="-43092">
		<tag k="fixme" v="consider place=hamlet" />
		<tag k="name" v="Geilvoll" />
		<tag k="place" v="farm" />
		<tag k="ssr:stedsnr" v="681064" />
	</node>
	<node lat="63.89525555896466" lon="11.532102785925343" id="-43093">
		<tag k="name" v="Landstadaunet" />
		<tag k="place" v="farm" />
		<tag k="ssr:stedsnr" v="681066" />
	</node>
	<node lat="64.03106385292203" lon="11.263105080907755" id="-43096">
		<tag k="fixme" v="consider place=hamlet" />
		<tag k="name" v="Hammer" />
		<tag k="place" v="farm" />
		<tag k="ssr:stedsnr" v="681072" />
	</node>
	<node lat="64.03310555792144" lon="11.260938898054873" id="-43097">
		<tag k="name" v="Hammeråsen" />
		<tag k="place" v="farm" />
		<tag k="ssr:stedsnr" v="681073" />
	</node>
	<node lat="64.11406234726985" lon="11.454255451845569" id="-43098">
		<tag k="fixme" v="consider place=hamlet" />
		<tag k="name" v="Kolberg" />
		<tag k="place" v="farm" />
		<tag k="ssr:stedsnr" v="681159" />
	</node>
	<node lat="64.21686388479439" lon="11.913616658896553" id="-43101">
		<tag k="name" v="Ryggasetran" />
		<tag k="place" v="locality" />
		<tag k="ssr:stedsnr" v="681375" />
	</node>
	<node lat="64.1025527756999" lon="10.974597227111838" id="-43102">
		<tag k="name" v="Søresplingsetran" />
		<tag k="place" v="locality" />
		<tag k="ssr:stedsnr" v="681511" />
	</node>
	<node lat="64.09404722472804" lon="11.21646388668221" id="-43104">
		<tag k="alt_name" v="Sveet" />
		<tag k="name" v="Sve" />
		<tag k="place" v="farm" />
		<tag k="ssr:stedsnr" v="681524" />
	</node>
	<node lat="64.132066913098" lon="11.81490138471145" id="-43110">
		<tag k="alt_name" v="Strandheim" />
		<tag k="name" v="Strindheim" />
		<tag k="place" v="farm" />
		<tag k="ssr:stedsnr" v="681266" />
	</node>
	<node lat="63.991811130397096" lon="11.963545692827243" id="-43116">
		<tag k="fixme" v="consider place=hamlet" />
		<tag k="name" v="Roktgården" />
		<tag k="place" v="farm" />
		<tag k="ssr:stedsnr" v="681413" />
	</node>
	<node lat="64.19226944489321" lon="11.909258331771753" id="-43118">
		<tag k="name" v="Saurstrøa" />
		<tag k="place" v="farm" />
		<tag k="ssr:stedsnr" v="681460" />
	</node>
	<node lat="64.19126944880294" lon="11.933586113110005" id="-43119">
		<tag k="name" v="Bruheim" />
		<tag k="place" v="farm" />
		<tag k="ssr:stedsnr" v="681462" />
	</node>
	<node lat="64.03037777526559" lon="11.865566672413598" id="-43124">
		<tag k="name" v="Skjevlosetran" />
		<tag k="place" v="locality" />
		<tag k="ssr:stedsnr" v="681662" />
	</node>
	<node lat="64.01921944204747" lon="11.840444452420527" id="-43125">
		<tag k="name" v="Myrvang" />
		<tag k="place" v="farm" />
		<tag k="ssr:stedsnr" v="681663" />
	</node>
	<node lat="64.13121388993329" lon="11.43857222137944" id="-43126">
		<tag k="name" v="Oppheim" />
		<tag k="place" v="farm" />
		<tag k="ssr:stedsnr" v="681811" />
	</node>
	<node lat="64.12816389237119" lon="11.598252785121424" id="-43127">
		<tag k="name" v="Svebakk" />
		<tag k="place" v="farm" />
		<tag k="ssr:stedsnr" v="681814" />
	</node>
	<node lat="64.1456388854482" lon="11.5158805581511" id="-43130">
		<tag k="name" v="Lia" />
		<tag k="place" v="farm" />
		<tag k="ssr:stedsnr" v="681764" />
	</node>
	<node lat="64.00643333158031" lon="11.191780557003606" id="-43131">
		<tag k="name" v="Nesvoll" />
		<tag k="place" v="farm" />
		<tag k="ssr:stedsnr" v="681903" />
	</node>
	<node lat="63.952002773296144" lon="11.412869451943111" id="-43132">
		<tag k="name" v="Nordset" />
		<tag k="place" v="farm" />
		<tag k="ssr:stedsnr" v="681908" />
	</node>
	<node lat="63.95219444040533" lon="11.41818055269295" id="-43133">
		<tag k="name" v="Friheim" />
		<tag k="place" v="farm" />
		<tag k="ssr:stedsnr" v="681911" />
	</node>
	<node lat="63.9496527794962" lon="11.595308337369302" id="-43134">
		<tag k="name" v="Skogmo" />
		<tag k="place" v="farm" />
		<tag k="ssr:stedsnr" v="681917" />
	</node>
	<node lat="63.94470000016679" lon="11.39847222143184" id="-43136">
		<tag k="name" v="Myrvang" />
		<tag k="place" v="farm" />
		<tag k="ssr:stedsnr" v="681929" />
	</node>
	<node lat="64.1479611082775" lon="11.937880547282834" id="-43138">
		<tag k="name" v="Bøla" />
		<tag k="place" v="farm" />
		<tag k="ssr:stedsnr" v="688556" />
	</node>
	<node lat="64.03796666354074" lon="11.33306388192051" id="-43142">
		<tag k="name" v="Elnan" />
		<tag k="place" v="farm" />
		<tag k="ssr:stedsnr" v="690230" />
	</node>
	<node lat="64.07132778171885" lon="11.25869166825322" id="-43143">
		<tag k="name" v="Åsland" />
		<tag k="place" v="farm" />
		<tag k="ssr:stedsnr" v="690280" />
	</node>
	<node lat="64.03400000210432" lon="11.389983336902269" id="-43149">
		<tag k="name" v="Sandmo" />
		<tag k="place" v="farm" />
		<tag k="ssr:stedsnr" v="690633" />
	</node>
	<node lat="64.1472138916562" lon="11.525555560653693" id="-43152">
		<tag k="name" v="Li" />
		<tag k="place" v="hamlet" />
		<tag k="ssr:stedsnr" v="690713" />
	</node>
	<node lat="63.97254999807884" lon="11.518444446815877" id="-43153">
		<tag k="fixme" v="consider place=hamlet" />
		<tag k="name" v="Hafstad" />
		<tag k="place" v="farm" />
		<tag k="ssr:stedsnr" v="690733" />
	</node>
	<node lat="64.13295000050668" lon="11.328927782392537" id="-43157">
		<tag k="name" v="Gladse" />
		<tag k="place" v="farm" />
		<tag k="ssr:stedsnr" v="690806" />
	</node>
	<node lat="64.11592499910132" lon="11.33206944324266" id="-43159">
		<tag k="name" v="Rønningan" />
		<tag k="place" v="locality" />
		<tag k="ssr:stedsnr" v="690828" />
	</node>
	<node lat="64.10123055607659" lon="11.37127500273216" id="-43160">
		<tag k="name" v="Tørret" />
		<tag k="place" v="locality" />
		<tag k="ssr:stedsnr" v="690835" />
	</node>
	<node lat="64.02574166467717" lon="11.803725002696424" id="-43167">
		<tag k="name" v="Brenne" />
		<tag k="place" v="locality" />
		<tag k="ssr:stedsnr" v="696014" />
	</node>
	<node lat="64.1004333320097" lon="11.712163895614362" id="-43179">
		<tag k="name" v="Åstrøa" />
		<tag k="place" v="locality" />
		<tag k="ssr:stedsnr" v="696168" />
	</node>
	<node lat="64.07038333424067" lon="11.218702773078356" id="-43198">
		<tag k="name" v="Ner-Malm" />
		<tag k="place" v="farm" />
		<tag k="ssr:stedsnr" v="696976" />
	</node>
	<node lat="63.843897225500676" lon="10.684530565785744" id="-43202">
		<tag k="name" v="Tomtan" />
		<tag k="place" v="isolated_dwelling" />
		<tag k="ssr:stedsnr" v="895715" />
	</node>
	<node lat="64.12686110802134" lon="11.416838887678633" id="-43208">
		<tag k="name" v="Vestre Mjendrem" />
		<tag k="place" v="farm" />
		<tag k="ssr:stedsnr" v="705507" />
	</node>
	<node lat="64.08632791123121" lon="11.66127834015485" id="-43209">
		<tag k="fixme" v="multiple name tags, choose one and add the other to alt_name; consider place=hamlet" />
		<tag k="name" v="Eldrås;Vestre Eldrås" />
		<tag k="place" v="farm" />
		<tag k="ssr:stedsnr" v="705517" />
	</node>
	<node lat="64.17906944492297" lon="11.459650721681939" id="-43222">
		<tag k="name" v="Skjærsjøen Øst" />
		<tag k="place" v="neighbourhood" />
		<tag k="ssr:stedsnr" v="707403" />
	</node>
	<node lat="64.03601944313905" lon="11.654241664885639" id="-43224">
		<tag k="alt_name" v="Steinsenget" />
		<tag k="name" v="Steinseng" />
		<tag k="place" v="farm" />
		<tag k="ssr:stedsnr" v="707643" />
	</node>
	<node lat="63.990113886474" lon="12.160925003386781" id="-43265">
		<tag k="name" v="Smedseteren" />
		<tag k="place" v="locality" />
		<tag k="ssr:stedsnr" v="898297" />
	</node>
	<node lat="63.94934722578583" lon="11.001244434752486" id="-43268">
		<tag k="name" v="Teigen" />
		<tag k="place" v="farm" />
		<tag k="ssr:stedsnr" v="712700" />
	</node>
	<node lat="63.9159722244316" lon="11.896219448379053" id="-43272">
		<tag k="historic" v="shieling" />
		<tag k="name" v="Leinsseteren" />
		<tag k="place" v="isolated_dwelling" />
		<tag k="ssr:stedsnr" v="898478" />
	</node>
	<node lat="63.93083055694195" lon="11.86935833742218" id="-43273">
		<tag k="historic" v="shieling" />
		<tag k="name" v="Henningseteren" />
		<tag k="place" v="isolated_dwelling" />
		<tag k="ssr:stedsnr" v="898573" />
	</node>
	<node lat="63.91630277543978" lon="11.804308341293385" id="-43274">
		<tag k="historic" v="shieling" />
		<tag k="name" v="Rognåsseteren" />
		<tag k="place" v="isolated_dwelling" />
		<tag k="ssr:stedsnr" v="898574" />
	</node>
	<node lat="64.05030555677561" lon="11.098825007704106" id="-43308">
		<tag k="name" v="Lønnsbrekka" />
		<tag k="place" v="locality" />
		<tag k="ssr:stedsnr" v="716025" />
	</node>
</osm>
