<?xml version="1.0" encoding="UTF-8"?>
<osm version="0.6" generator="osmapis">
	<node lat="64.03908055499429" lon="11.946302767655848" id="-80349">
		<tag k="name" v="Ogndal Sellifjell statsallmenning" />
		<tag k="place" v="locality" />
		<tag k="ssr:stedsnr" v="230950" />
	</node>
	<node lat="63.934836112478784" lon="11.872030559001775" id="-80727">
		<tag k="name" v="Kjesbu statsallmenning" />
		<tag k="place" v="locality" />
		<tag k="ssr:stedsnr" v="109922" />
	</node>
	<node lat="63.87772222227906" lon="11.487922228344571" id="-81013">
		<tag k="name" v="Litlalmenningen" />
		<tag k="place" v="locality" />
		<tag k="ssr:stedsnr" v="265955" />
	</node>
	<node lat="64.2661861149613" lon="11.736725001357541" id="-81471">
		<tag k="name" v="Bogn og Gilten allmenning" />
		<tag k="place" v="locality" />
		<tag k="ssr:stedsnr" v="291104" />
	</node>
	<node lat="64.11852500186733" lon="10.968886117132454" id="-81697">
		<tag k="name" v="Follafoss allmenning" />
		<tag k="place" v="locality" />
		<tag k="ssr:stedsnr" v="350566" />
	</node>
	<node lat="64.04326111460767" lon="11.963250000453565" id="-81904">
		<tag k="name" v="Rokdal statsallmenning" />
		<tag k="place" v="locality" />
		<tag k="ssr:stedsnr" v="412938" />
	</node>
	<node lat="64.2051138871069" lon="11.737780564669407" id="-82094">
		<tag k="name" v="Nordsjø allmenning" />
		<tag k="place" v="locality" />
		<tag k="ssr:stedsnr" v="473205" />
	</node>
	<node lat="64.10065555182341" lon="11.893786101015063" id="-83605">
		<tag k="name" v="Stod Sellfjell statsallmenning" />
		<tag k="place" v="locality" />
		<tag k="ssr:stedsnr" v="838834" />
	</node>
	<node lat="64.16191388966003" lon="11.366027771350202" id="-84631">
		<tag k="name" v="Kvennå bygdeallmenning" />
		<tag k="place" v="locality" />
		<tag k="ssr:stedsnr" v="109681" />
	</node>
	<node lat="63.97322222014808" lon="12.378291660981068" id="-85951">
		<tag k="alt_name" v="Roktdal statsallmenning" />
		<tag k="name" v="Roktdalen statsallmenning" />
		<tag k="place" v="locality" />
		<tag k="ssr:stedsnr" v="412611" />
	</node>
	<node lat="63.99981944509523" lon="11.508347213740272" id="-86335">
		<tag k="fixme" v="specify shooting=range, clay_pigeon etc" />
		<tag k="leisure" v="pitch" />
		<tag k="name" v="Skytebane" />
		<tag k="sport" v="shooting" />
		<tag k="ssr:stedsnr" v="514499" />
	</node>
	<node lat="64.20156388561922" lon="11.475027770395426" id="-86404">
		<tag k="name" v="Kvennå statsskog" />
		<tag k="place" v="locality" />
		<tag k="ssr:stedsnr" v="533699" />
	</node>
	<node lat="63.88084722585464" lon="10.720699993593296" id="-86900">
		<tag k="name" v="Sandseter statsallmenning" />
		<tag k="place" v="locality" />
		<tag k="ssr:stedsnr" v="635070" />
	</node>
	<node lat="64.11265000146389" lon="11.870094444672933" id="-87158">
		<tag k="name" v="Strinda og Bøle bygdaallmenning" />
		<tag k="place" v="locality" />
		<tag k="ssr:stedsnr" v="715948" />
	</node>
	<node lat="63.90691944076966" lon="11.685766673984455" id="-88088">
		<tag k="name" v="Båbu statsallmenning" />
		<tag k="place" v="locality" />
		<tag k="ssr:stedsnr" v="878399" />
	</node>
</osm>
