<?xml version="1.0" encoding="UTF-8"?>
<osm version="0.6" generator="osmapis">
	<node lat="63.95774722001258" lon="12.217802783507263" id="-25288">
		<tag k="name" v="Koitangen" />
		<tag k="natural" v="cape" />
		<tag k="ssr:stedsnr" v="230616" />
	</node>
	<node lat="64.21825833184917" lon="11.63674999548541" id="-25291">
		<tag k="name" v="Småtjønnin" />
		<tag k="natural" v="water" />
		<tag k="ssr:stedsnr" v="230056" />
	</node>
	<node lat="64.00895555771092" lon="12.13571666547339" id="-25300">
		<tag k="name" v="Sela" />
		<tag k="natural" v="bay" />
		<tag k="ssr:stedsnr" v="230252" />
	</node>
	<node lat="64.04977499550287" lon="12.117708342920599" id="-25305">
		<tag k="name" v="Storfisktjønna" />
		<tag k="natural" v="water" />
		<tag k="ssr:stedsnr" v="230453" />
	</node>
	<node lat="63.94972500219122" lon="11.790419449919922" id="-25310">
		<tag k="name" v="Musperslettjønna" />
		<tag k="natural" v="water" />
		<tag k="ssr:stedsnr" v="230576" />
	</node>
	<node lat="63.97434166596062" lon="12.100016661203973" id="-25311">
		<tag k="name" v="Kvennhuselva" />
		<tag k="ssr:stedsnr" v="230672" />
		<tag k="waterway" v="river" />
	</node>
	<node lat="64.07817222575231" lon="11.773019441602786" id="-25318">
		<tag k="name" v="Killingholmen" />
		<tag k="place" v="islet" />
		<tag k="ssr:stedsnr" v="230767" />
	</node>
	<node lat="64.01069166522942" lon="11.89894999318161" id="-25324">
		<tag k="name" v="Kusåsbekken" />
		<tag k="ssr:stedsnr" v="230875" />
		<tag k="waterway" v="stream" />
	</node>
	<node lat="64.13462499620276" lon="11.859183337072983" id="-25329">
		<tag k="name" v="Godhamnbekken" />
		<tag k="ssr:stedsnr" v="13308" />
		<tag k="waterway" v="stream" />
	</node>
	<node lat="63.919361115676175" lon="10.717072214661632" id="-25332">
		<tag k="name" v="Øvre Trevatnet" />
		<tag k="natural" v="water" />
		<tag k="ssr:stedsnr" v="13363" />
		<tag k="water" v="lake" />
	</node>
	<node lat="64.18460277772782" lon="11.957783343226394" id="-25333">
		<tag k="name" v="Nestangen" />
		<tag k="natural" v="cape" />
		<tag k="ssr:stedsnr" v="13512" />
	</node>
	<node lat="64.04899722668527" lon="11.699291665482551" id="-25340">
		<tag k="name" v="Elibekken" />
		<tag k="ssr:stedsnr" v="14013" />
		<tag k="waterway" v="stream" />
	</node>
	<node lat="64.2285833321399" lon="11.624341665927377" id="-25342">
		<tag k="name" v="Rognvatnet" />
		<tag k="natural" v="water" />
		<tag k="ssr:stedsnr" v="13921" />
		<tag k="water" v="lake" />
	</node>
	<node lat="64.07956666755281" lon="12.023766659452683" id="-25355">
		<tag k="name" v="Larsheimtjønnin" />
		<tag k="natural" v="water" />
		<tag k="ssr:stedsnr" v="14263" />
	</node>
	<node lat="63.998977778075286" lon="12.077516670629224" id="-25356">
		<tag k="name" v="Lustadvatnet" />
		<tag k="natural" v="water" />
		<tag k="ssr:stedsnr" v="14264" />
		<tag k="water" v="lake" />
	</node>
	<node lat="64.09083611054362" lon="11.898449995622745" id="-25358">
		<tag k="name" v="Åsvatnet" />
		<tag k="natural" v="water" />
		<tag k="ssr:stedsnr" v="14279" />
		<tag k="water" v="lake" />
	</node>
	<node lat="63.944122218329284" lon="12.092850009544478" id="-25359">
		<tag k="name" v="Storbekken" />
		<tag k="ssr:stedsnr" v="14403" />
		<tag k="waterway" v="stream" />
	</node>
	<node lat="63.94483611271398" lon="12.04771110615408" id="-25361">
		<tag k="name" v="Storholmen" />
		<tag k="place" v="islet" />
		<tag k="ssr:stedsnr" v="14406" />
	</node>
	<node lat="63.94798889111443" lon="11.919649998026742" id="-25362">
		<tag k="name" v="Tuddurlibekken" />
		<tag k="ssr:stedsnr" v="14410" />
		<tag k="waterway" v="stream" />
	</node>
	<node lat="63.967202780062394" lon="11.997722230116905" id="-25364">
		<tag k="name" v="Furudalsbekken" />
		<tag k="ssr:stedsnr" v="14307" />
		<tag k="waterway" v="stream" />
	</node>
	<node lat="63.965063885320944" lon="12.109508342027222" id="-25367">
		<tag k="name" v="Svartåstjønna" />
		<tag k="natural" v="water" />
		<tag k="ssr:stedsnr" v="14319" />
	</node>
	<node lat="64.16533888496018" lon="11.839749990508796" id="-25375">
		<tag k="name" v="Aunvolltangen" />
		<tag k="natural" v="cape" />
		<tag k="ssr:stedsnr" v="14376" />
	</node>
	<node lat="63.94865277838129" lon="10.953072214260319" id="-25379">
		<tag k="name" v="Gammelsetertjønna" />
		<tag k="natural" v="water" />
		<tag k="ssr:stedsnr" v="14557" />
	</node>
	<node lat="63.963936112620246" lon="10.818105556333059" id="-25380">
		<tag k="name" v="Simadalsvatnet" />
		<tag k="natural" v="water" />
		<tag k="ssr:stedsnr" v="14567" />
		<tag k="water" v="lake" />
	</node>
	<node lat="64.1380111112274" lon="11.629024997784255" id="-25382">
		<tag k="name" v="Fivestjønna" />
		<tag k="natural" v="water" />
		<tag k="ssr:stedsnr" v="14718" />
	</node>
	<node lat="64.14134444196237" lon="11.643241674042265" id="-25383">
		<tag k="fixme" v="multiple name tags, choose one and add the other to alt_name" />
		<tag k="name" v="Knedalsbekken;Knedalselva" />
		<tag k="ssr:stedsnr" v="14722" />
		<tag k="waterway" v="stream" />
	</node>
	<node lat="64.12150000425767" lon="11.51287499938845" id="-25384">
		<tag k="name" v="Melhustjønna" />
		<tag k="natural" v="water" />
		<tag k="ssr:stedsnr" v="14767" />
	</node>
	<node lat="64.013716668368" lon="12.018888891729983" id="-25386">
		<tag k="name" v="Dumpholtjønna" />
		<tag k="natural" v="water" />
		<tag k="ssr:stedsnr" v="14619" />
	</node>
	<node lat="64.01353332993571" lon="12.151350003875198" id="-25387">
		<tag k="name" v="Årengtjønna" />
		<tag k="natural" v="water" />
		<tag k="ssr:stedsnr" v="14633" />
	</node>
	<node lat="64.23394722499661" lon="11.711605562287318" id="-25389">
		<tag k="name" v="Ormtjønna" />
		<tag k="natural" v="water" />
		<tag k="ssr:stedsnr" v="14857" />
	</node>
	<node lat="64.24341666411706" lon="11.675797228138077" id="-25390">
		<tag k="name" v="Urdbekken" />
		<tag k="ssr:stedsnr" v="14863" />
		<tag k="waterway" v="stream" />
	</node>
	<node lat="64.00596389174578" lon="11.129919436505237" id="-25391">
		<tag k="name" v="Marsitjønna" />
		<tag k="natural" v="water" />
		<tag k="ssr:stedsnr" v="14870" />
	</node>
	<node lat="64.08537222404318" lon="11.44271389797721" id="-25404">
		<tag k="name" v="Blåbærhaugbekken" />
		<tag k="ssr:stedsnr" v="22610" />
		<tag k="waterway" v="stream" />
	</node>
	<node lat="64.02034444074442" lon="11.77351388678022" id="-25427">
		<tag k="name" v="Kvernabekken" />
		<tag k="ssr:stedsnr" v="28001" />
		<tag k="waterway" v="stream" />
	</node>
	<node lat="64.01952500446708" lon="11.784788886876385" id="-25428">
		<tag k="name" v="Holbekken" />
		<tag k="ssr:stedsnr" v="28004" />
		<tag k="waterway" v="stream" />
	</node>
	<node lat="63.967988886148156" lon="11.87836665867914" id="-25432">
		<tag k="name" v="Flisbekken" />
		<tag k="ssr:stedsnr" v="28022" />
		<tag k="waterway" v="stream" />
	</node>
	<node lat="64.15898055659798" lon="11.75370277552347" id="-25433">
		<tag k="name" v="Okstjønna" />
		<tag k="natural" v="water" />
		<tag k="ssr:stedsnr" v="28027" />
	</node>
	<node lat="63.90351944616832" lon="10.892886112553887" id="-25437">
		<tag k="name" v="Sjøbakkbekken" />
		<tag k="ssr:stedsnr" v="28085" />
		<tag k="waterway" v="stream" />
	</node>
	<node lat="64.131391670556" lon="11.644819444465075" id="-25438">
		<tag k="name" v="Knedalsbukta" />
		<tag k="natural" v="bay" />
		<tag k="ssr:stedsnr" v="28088" />
	</node>
	<node lat="64.13591111117448" lon="11.58271111016414" id="-25452">
		<tag k="name" v="Kalvtjønna" />
		<tag k="natural" v="water" />
		<tag k="ssr:stedsnr" v="28424" />
	</node>
	<node lat="64.08941110902487" lon="11.22367777225783" id="-25463">
		<tag k="name" v="Sagfossen" />
		<tag k="natural" v="waterfall" />
		<tag k="ssr:stedsnr" v="28973" />
	</node>
	<node lat="64.00170555863271" lon="10.867891672134313" id="-25507">
		<tag k="name" v="Grønnlidalsbekken" />
		<tag k="ssr:stedsnr" v="47089" />
		<tag k="waterway" v="stream" />
	</node>
	<node lat="63.88942778122407" lon="10.707186113943893" id="-25509">
		<tag k="name" v="Midterlonet" />
		<tag k="natural" v="water" />
		<tag k="ssr:stedsnr" v="47206" />
		<tag k="water" v="lake" />
	</node>
	<node lat="63.99423333470989" lon="10.824986103127078" id="-25512">
		<tag k="name" v="Siristeinen" />
		<tag k="place" v="islet" />
		<tag k="ssr:stedsnr" v="47123" />
	</node>
	<node lat="63.99186666723186" lon="10.808591659198566" id="-25513">
		<tag k="name" v="Sagbekken" />
		<tag k="ssr:stedsnr" v="47126" />
		<tag k="waterway" v="stream" />
	</node>
	<node lat="64.01081111072853" lon="10.790966676104867" id="-25515">
		<tag k="name" v="Nordlona" />
		<tag k="natural" v="water" />
		<tag k="ssr:stedsnr" v="47179" />
		<tag k="water" v="lake" />
	</node>
	<node lat="64.15873333000874" lon="11.31212222117364" id="-25516">
		<tag k="name" v="Nerengbekken" />
		<tag k="ssr:stedsnr" v="47512" />
		<tag k="waterway" v="stream" />
	</node>
	<node lat="64.04196944790486" lon="10.851891661221266" id="-25518">
		<tag k="name" v="Ytre Andortjønna" />
		<tag k="natural" v="water" />
		<tag k="ssr:stedsnr" v="47620" />
	</node>
	<node lat="64.20350277641789" lon="11.864652782230186" id="-25522">
		<tag k="name" v="Skarillbekken" />
		<tag k="ssr:stedsnr" v="48175" />
		<tag k="waterway" v="stream" />
	</node>
	<node lat="64.02618055840551" lon="12.234822227103493" id="-25523">
		<tag k="name" v="Blekktjønna" />
		<tag k="natural" v="water" />
		<tag k="ssr:stedsnr" v="48304" />
	</node>
	<node lat="64.12382500026385" lon="11.997625001089425" id="-25525">
		<tag k="name" v="Godtjønntangen" />
		<tag k="natural" v="cape" />
		<tag k="ssr:stedsnr" v="48422" />
	</node>
	<node lat="64.11271944771242" lon="11.113500007450776" id="-25526">
		<tag k="name" v="Finnkoibekken" />
		<tag k="ssr:stedsnr" v="48505" />
		<tag k="waterway" v="stream" />
	</node>
	<node lat="64.09792222023756" lon="11.134683339562331" id="-25528">
		<tag k="name" v="Andtjønna" />
		<tag k="natural" v="water" />
		<tag k="ssr:stedsnr" v="48511" />
	</node>
	<node lat="64.21111389020184" lon="11.955772213795743" id="-25530">
		<tag k="name" v="Havda" />
		<tag k="natural" v="strait" />
		<tag k="ssr:stedsnr" v="48807" />
	</node>
	<node lat="63.93141944142994" lon="11.691950005766497" id="-25542">
		<tag k="loc_name" v="Henningslettbekken" />
		<tag k="name" v="Henningslættbekken" />
		<tag k="ssr:stedsnr" v="54371" />
		<tag k="waterway" v="stream" />
	</node>
	<node lat="63.89909444672897" lon="10.790127774508916" id="-25583">
		<tag k="name" v="Stamtjønnin" />
		<tag k="natural" v="water" />
		<tag k="ssr:stedsnr" v="74510" />
	</node>
	<node lat="63.980597220176925" lon="10.911686102419704" id="-25585">
		<tag k="fixme" v="multiple name tags, choose one and add the other to alt_name" />
		<tag k="name" v="Skardtjønna;Holmtjønna" />
		<tag k="natural" v="water" />
		<tag k="ssr:stedsnr" v="74568" />
	</node>
	<node lat="64.13646389112893" lon="11.837902775306647" id="-25588">
		<tag k="name" v="Tangen" />
		<tag k="natural" v="cape" />
		<tag k="ssr:stedsnr" v="74815" />
	</node>
	<node lat="64.20754444127274" lon="11.566699997030947" id="-25589">
		<tag k="name" v="Hesttangen" />
		<tag k="natural" v="cape" />
		<tag k="ssr:stedsnr" v="74821" />
	</node>
	<node lat="64.00768055132885" lon="12.124486117326736" id="-25590">
		<tag k="name" v="Litlfjorden" />
		<tag k="natural" v="bay" />
		<tag k="ssr:stedsnr" v="74822" />
	</node>
	<node lat="64.22063888957034" lon="11.5848833431993" id="-25595">
		<tag k="name" v="Raudmyrtjønna" />
		<tag k="natural" v="water" />
		<tag k="ssr:stedsnr" v="74908" />
	</node>
	<node lat="64.05067222265001" lon="10.88413333298265" id="-25597">
		<tag k="name" v="Andortjønnin" />
		<tag k="natural" v="water" />
		<tag k="ssr:stedsnr" v="74952" />
	</node>
	<node lat="64.0511972177456" lon="11.000713897445678" id="-25600">
		<tag k="name" v="Spildernytjønna" />
		<tag k="natural" v="water" />
		<tag k="ssr:stedsnr" v="74965" />
	</node>
	<node lat="64.03208055178501" lon="11.52035000339724" id="-25605">
		<tag k="name" v="Byaelva" />
		<tag k="ssr:stedsnr" v="75109" />
		<tag k="waterway" v="river" />
	</node>
	<node lat="63.928197220110135" lon="12.071375005949555" id="-25613">
		<tag k="name" v="Andorvatnet" />
		<tag k="natural" v="water" />
		<tag k="ssr:stedsnr" v="75508" />
	</node>
	<node lat="64.0838694461724" lon="10.82219444036584" id="-25614">
		<tag k="name" v="Finndalselva" />
		<tag k="ssr:stedsnr" v="75554" />
		<tag k="waterway" v="stream" />
	</node>
	<node lat="64.0186583324225" lon="11.891677767628835" id="-25617">
		<tag k="name" v="Lotjønna" />
		<tag k="natural" v="water" />
		<tag k="ssr:stedsnr" v="75711" />
	</node>
	<node lat="63.94843610853745" lon="10.884650009135038" id="-25621">
		<tag k="name" v="Synnavindstjønnin" />
		<tag k="natural" v="water" />
		<tag k="ssr:stedsnr" v="75654" />
	</node>
	<node lat="63.94856666896563" lon="10.90491110539525" id="-25622">
		<tag k="name" v="Lunin" />
		<tag k="natural" v="water" />
		<tag k="ssr:stedsnr" v="75656" />
	</node>
	<node lat="64.11684722516415" lon="11.548402769645945" id="-25631">
		<tag k="name" v="Emingsbekken" />
		<tag k="ssr:stedsnr" v="83681" />
		<tag k="waterway" v="stream" />
	</node>
	<node lat="64.15510000397381" lon="11.466061104592233" id="-25643">
		<tag k="name" v="Bergtjønnin" />
		<tag k="natural" v="water" />
		<tag k="ssr:stedsnr" v="84603" />
	</node>
	<node lat="64.05892499968829" lon="11.673533334858858" id="-25647">
		<tag k="name" v="Myrbekken" />
		<tag k="ssr:stedsnr" v="89313" />
		<tag k="waterway" v="stream" />
	</node>
	<node lat="63.8898527817497" lon="10.857475002955596" id="-25650">
		<tag k="name" v="Kvernbekken" />
		<tag k="ssr:stedsnr" v="89077" />
		<tag k="waterway" v="stream" />
	</node>
	<node lat="64.18064999721585" lon="11.923888891602045" id="-25660">
		<tag k="name" v="Kjerkolbukta" />
		<tag k="natural" v="bay" />
		<tag k="ssr:stedsnr" v="89891" />
	</node>
	<node lat="63.988738891381466" lon="10.852136119652085" id="-25676">
		<tag k="name" v="Otertangen" />
		<tag k="natural" v="cape" />
		<tag k="ssr:stedsnr" v="108117" />
	</node>
	<node lat="64.00213611270043" lon="10.962341676153207" id="-25679">
		<tag k="name" v="Oldernesbekken" />
		<tag k="ssr:stedsnr" v="108086" />
		<tag k="waterway" v="stream" />
	</node>
	<node lat="63.923458336393175" lon="10.842172219561148" id="-25680">
		<tag k="name" v="Steintjønnelva" />
		<tag k="ssr:stedsnr" v="108212" />
		<tag k="waterway" v="river" />
	</node>
	<node lat="64.105483330549" lon="11.844544451481097" id="-25683">
		<tag k="name" v="Tosttjønnbekken" />
		<tag k="ssr:stedsnr" v="108777" />
		<tag k="waterway" v="stream" />
	</node>
	<node lat="64.10878611031698" lon="11.867574999835579" id="-25684">
		<tag k="name" v="Tonbukta" />
		<tag k="natural" v="bay" />
		<tag k="ssr:stedsnr" v="108780" />
	</node>
	<node lat="64.26086111536435" lon="11.932261108646093" id="-25685">
		<tag k="name" v="Butjønnbekken" />
		<tag k="ssr:stedsnr" v="108796" />
		<tag k="waterway" v="stream" />
	</node>
	<node lat="64.11480000304094" lon="11.035074991255678" id="-25686">
		<tag k="name" v="Potta" />
		<tag k="natural" v="bay" />
		<tag k="ssr:stedsnr" v="108670" />
	</node>
	<node lat="64.10590555120797" lon="11.10193611724391" id="-25687">
		<tag k="name" v="Svarttjønnin" />
		<tag k="natural" v="water" />
		<tag k="ssr:stedsnr" v="108672" />
	</node>
	<node lat="64.18403333774536" lon="11.530591669911603" id="-25689">
		<tag k="name" v="Dalsetertjønna" />
		<tag k="natural" v="water" />
		<tag k="ssr:stedsnr" v="109076" />
	</node>
	<node lat="64.19567777468272" lon="11.568597213679158" id="-25690">
		<tag k="name" v="Fivestjønnin" />
		<tag k="natural" v="water" />
		<tag k="ssr:stedsnr" v="109078" />
	</node>
	<node lat="64.02217500334727" lon="12.16036388769801" id="-25692">
		<tag k="name" v="Breibekken" />
		<tag k="ssr:stedsnr" v="109271" />
		<tag k="waterway" v="stream" />
	</node>
	<node lat="64.02651944702792" lon="12.087244451722382" id="-25693">
		<tag k="name" v="Litlkroktjønna" />
		<tag k="natural" v="water" />
		<tag k="ssr:stedsnr" v="109276" />
	</node>
	<node lat="64.01067222337015" lon="12.227599994044516" id="-25694">
		<tag k="name" v="Kvinandtjønna" />
		<tag k="natural" v="water" />
		<tag k="ssr:stedsnr" v="109319" />
	</node>
	<node lat="64.00009999926215" lon="12.254891662241887" id="-25695">
		<tag k="name" v="Rognåstjønna" />
		<tag k="natural" v="water" />
		<tag k="ssr:stedsnr" v="109321" />
	</node>
	<node lat="63.99953055478457" lon="12.219697214249573" id="-25696">
		<tag k="name" v="Oddbekken" />
		<tag k="ssr:stedsnr" v="109323" />
		<tag k="waterway" v="stream" />
	</node>
	<node lat="64.0409222176748" lon="12.173733340861975" id="-25699">
		<tag k="name" v="Setertjønnin" />
		<tag k="natural" v="water" />
		<tag k="ssr:stedsnr" v="109419" />
	</node>
	<node lat="64.03149167003393" lon="11.132780550953926" id="-25700">
		<tag k="name" v="Dalengbekken" />
		<tag k="ssr:stedsnr" v="109425" />
		<tag k="waterway" v="stream" />
	</node>
	<node lat="64.08471591147266" lon="11.801141431070477" id="-25703">
		<tag k="name" v="Tolbertjønna" />
		<tag k="natural" v="water" />
		<tag k="ssr:stedsnr" v="109782" />
	</node>
	<node lat="63.991030553919074" lon="11.961097225508503" id="-25704">
		<tag k="name" v="Roktkløftet" />
		<tag k="natural" v="strait" />
		<tag k="ssr:stedsnr" v="109916" />
	</node>
	<node lat="63.93379722332213" lon="10.694738885805716" id="-25739">
		<tag k="loc_name:sma" v="Guhkiesjaevrie" />
		<tag k="name" v="Langvatnet" />
		<tag k="name:no" v="Langvatnet" />
		<tag k="natural" v="water" />
		<tag k="ssr:stedsnr" v="134364" />
		<tag k="water" v="lake" />
	</node>
	<node lat="64.0410666644465" lon="11.4104722159387" id="-25753">
		<tag k="name" v="Vassaunbekken" />
		<tag k="ssr:stedsnr" v="135020" />
		<tag k="waterway" v="stream" />
	</node>
	<node lat="63.998755557667174" lon="12.139391663073734" id="-25758">
		<tag k="name" v="Litlfjorden" />
		<tag k="natural" v="bay" />
		<tag k="ssr:stedsnr" v="135316" />
	</node>
	<node lat="63.972647223807684" lon="11.727608337863087" id="-25771">
		<tag k="name" v="Damtjønna" />
		<tag k="natural" v="water" />
		<tag k="ssr:stedsnr" v="135413" />
	</node>
	<node lat="63.952813887681295" lon="12.304077768594512" id="-25775">
		<tag k="name" v="Skjækerdammen" />
		<tag k="ssr:stedsnr" v="135704" />
		<tag k="waterway" v="dam" />
	</node>
	<node lat="63.94090555494991" lon="12.038586108316423" id="-25777">
		<tag k="name" v="Mokkavatnet" />
		<tag k="natural" v="water" />
		<tag k="ssr:stedsnr" v="135456" />
		<tag k="water" v="lake" />
	</node>
	<node lat="64.28456388723062" lon="11.841255546017896" id="-25780">
		<tag k="name" v="Brunstadsæla" />
		<tag k="natural" v="water" />
		<tag k="ssr:stedsnr" v="135605" />
	</node>
	<node lat="63.864930557977125" lon="10.622594439325304" id="-25789">
		<tag k="name" v="Rørtjønnin" />
		<tag k="natural" v="water" />
		<tag k="ssr:stedsnr" v="255290" />
	</node>
	<node lat="64.08217221998463" lon="11.374761106871304" id="-25791">
		<tag k="name" v="Kvernhusbekken" />
		<tag k="ssr:stedsnr" v="143616" />
		<tag k="waterway" v="stream" />
	</node>
	<node lat="63.87332778088959" lon="11.527022224014381" id="-25797">
		<tag k="name" v="Sølvbekken" />
		<tag k="ssr:stedsnr" v="143526" />
		<tag k="waterway" v="stream" />
	</node>
	<node lat="63.916494440164314" lon="11.521522213121782" id="-25802">
		<tag k="name" v="Rogntjønna" />
		<tag k="natural" v="water" />
		<tag k="ssr:stedsnr" v="143679" />
	</node>
	<node lat="64.13539722092794" lon="11.254813882817272" id="-25810">
		<tag k="name" v="Grodalsbekken" />
		<tag k="ssr:stedsnr" v="143729" />
		<tag k="waterway" v="stream" />
	</node>
	<node lat="64.11941388886451" lon="11.73930276963084" id="-25829">
		<tag k="name" v="Gørdalbekken" />
		<tag k="ssr:stedsnr" v="149111" />
		<tag k="waterway" v="stream" />
	</node>
	<node lat="63.981000003291896" lon="11.874941660111034" id="-25835">
		<tag k="name" v="Sagfossen" />
		<tag k="natural" v="waterfall" />
		<tag k="ssr:stedsnr" v="149012" />
	</node>
	<node lat="64.10579999664687" lon="11.57416944262006" id="-25841">
		<tag k="name" v="Semsbukta" />
		<tag k="natural" v="bay" />
		<tag k="ssr:stedsnr" v="149514" />
	</node>
	<node lat="64.05196944176525" lon="12.020177779376919" id="-25846">
		<tag k="alt_name" v="Stamntjønna" />
		<tag k="name" v="Stamtjønna" />
		<tag k="natural" v="water" />
		<tag k="ssr:stedsnr" v="256301" />
	</node>
	<node lat="64.04694167086537" lon="11.498366664043711" id="-25851">
		<tag k="name" v="Fjellbekken" />
		<tag k="ssr:stedsnr" v="149912" />
		<tag k="waterway" v="stream" />
	</node>
	<node lat="64.18955555267405" lon="11.945286118915899" id="-25854">
		<tag k="name" v="Ørabukta" />
		<tag k="natural" v="bay" />
		<tag k="ssr:stedsnr" v="149918" />
	</node>
	<node lat="63.892483332973775" lon="11.624594434293941" id="-25855">
		<tag k="name" v="Kaldsetbekken" />
		<tag k="ssr:stedsnr" v="149922" />
		<tag k="waterway" v="stream" />
	</node>
	<node lat="63.99337222172647" lon="12.090438898736977" id="-25856">
		<tag k="name" v="Tangen" />
		<tag k="natural" v="cape" />
		<tag k="ssr:stedsnr" v="256374" />
	</node>
	<node lat="63.991455558426125" lon="12.041561117838175" id="-25857">
		<tag k="name" v="Tomsåstjønnin" />
		<tag k="natural" v="water" />
		<tag k="ssr:stedsnr" v="256386" />
	</node>
	<node lat="63.986150002773385" lon="11.928399991914706" id="-25859">
		<tag k="name" v="Loktjønna" />
		<tag k="natural" v="water" />
		<tag k="ssr:stedsnr" v="256394" />
	</node>
	<node lat="63.98172499728412" lon="12.006600007412676" id="-25860">
		<tag k="name" v="Havdkløftet" />
		<tag k="place" v="locality" />
		<tag k="ssr:stedsnr" v="256396" />
	</node>
	<node lat="64.08328611518505" lon="11.172694450259403" id="-25863">
		<tag k="name" v="Danielbekken" />
		<tag k="ssr:stedsnr" v="149959" />
		<tag k="waterway" v="stream" />
	</node>
	<node lat="63.94243611512989" lon="11.999277785529792" id="-25866">
		<tag k="name" v="Kissbertjønna" />
		<tag k="natural" v="water" />
		<tag k="ssr:stedsnr" v="256432" />
	</node>
	<node lat="63.94579999821512" lon="11.949422213564581" id="-25867">
		<tag k="alt_name" v="Nedre Solåstjønna" />
		<tag k="name" v="Solåstjønna" />
		<tag k="natural" v="water" />
		<tag k="ssr:stedsnr" v="256435" />
	</node>
	<node lat="63.94960555144358" lon="12.027230552886941" id="-25868">
		<tag k="name" v="Storfjorden" />
		<tag k="natural" v="bay" />
		<tag k="ssr:stedsnr" v="256437" />
	</node>
	<node lat="63.99700277818876" lon="12.117402787381382" id="-25871">
		<tag k="alt_name" v="Valtangen, søre" />
		<tag k="name" v="Sørvaltangen" />
		<tag k="natural" v="cape" />
		<tag k="ssr:stedsnr" v="256323" />
	</node>
	<node lat="63.88905555917501" lon="10.736630558052829" id="-25877">
		<tag k="name" v="Lona" />
		<tag k="place" v="locality" />
		<tag k="ssr:stedsnr" v="256517" />
	</node>
	<node lat="63.8903333305935" lon="10.808822226763066" id="-25878">
		<tag k="name" v="Flåan" />
		<tag k="place" v="locality" />
		<tag k="ssr:stedsnr" v="256520" />
	</node>
	<node lat="64.03209166768625" lon="11.895405549995786" id="-25883">
		<tag k="name" v="Giskåstjønna" />
		<tag k="natural" v="water" />
		<tag k="ssr:stedsnr" v="256629" />
	</node>
	<node lat="64.14339166625332" lon="11.124572221575045" id="-25888">
		<tag k="name" v="Tverrelva" />
		<tag k="ssr:stedsnr" v="256586" />
		<tag k="waterway" v="stream" />
	</node>
	<node lat="64.01313333390121" lon="11.795961101627537" id="-25892">
		<tag k="name" v="Storengtjønna" />
		<tag k="natural" v="water" />
		<tag k="ssr:stedsnr" v="256652" />
	</node>
	<node lat="63.95526388573028" lon="12.218774994066125" id="-25894">
		<tag k="name" v="Stortjønna" />
		<tag k="natural" v="water" />
		<tag k="ssr:stedsnr" v="256676" />
	</node>
	<node lat="64.0734666707392" lon="12.120227775862421" id="-25896">
		<tag k="name" v="Brannåa" />
		<tag k="ssr:stedsnr" v="256792" />
		<tag k="waterway" v="river" />
	</node>
	<node lat="64.16596944521173" lon="11.606711107847591" id="-25897">
		<tag k="name" v="Moavatnet" />
		<tag k="natural" v="water" />
		<tag k="ssr:stedsnr" v="256833" />
	</node>
	<node lat="64.21069444478091" lon="11.700197215362243" id="-25904">
		<tag k="name" v="Langtjønna" />
		<tag k="natural" v="water" />
		<tag k="ssr:stedsnr" v="256890" />
	</node>
	<node lat="64.10506944514451" lon="11.573405562322144" id="-25914">
		<tag k="name" v="Semsbukta" />
		<tag k="natural" v="bay" />
		<tag k="ssr:stedsnr" v="257138" />
	</node>
	<node lat="64.10583611450107" lon="11.648308339508631" id="-25915">
		<tag k="name" v="Nordengbukta" />
		<tag k="natural" v="bay" />
		<tag k="ssr:stedsnr" v="257140" />
	</node>
	<node lat="64.08405833318452" lon="11.881141662428455" id="-25921">
		<tag k="name" v="Lomdiklet" />
		<tag k="natural" v="water" />
		<tag k="ssr:stedsnr" v="257382" />
	</node>
	<node lat="63.931136108221956" lon="11.839722215619117" id="-25926">
		<tag k="name" v="Svartbekken" />
		<tag k="ssr:stedsnr" v="257543" />
		<tag k="waterway" v="stream" />
	</node>
	<node lat="64.00446667072262" lon="12.214963895985388" id="-25928">
		<tag k="name" v="Skjellivatnet" />
		<tag k="natural" v="water" />
		<tag k="ssr:stedsnr" v="257733" />
	</node>
	<node lat="64.00805000382326" lon="10.81931666758248" id="-25933">
		<tag k="name" v="Rørtjønna" />
		<tag k="natural" v="water" />
		<tag k="ssr:stedsnr" v="257934" />
	</node>
	<node lat="63.99754166255582" lon="10.933691668421458" id="-25944">
		<tag k="name" v="Plassafjorden" />
		<tag k="natural" v="water" />
		<tag k="ssr:stedsnr" v="169071" />
	</node>
	<node lat="64.15426944198377" lon="11.394005564624369" id="-25955">
		<tag k="name" v="Kvinnvasselva" />
		<tag k="ssr:stedsnr" v="169514" />
		<tag k="waterway" v="river" />
	</node>
	<node lat="64.22618333170938" lon="11.916094441549234" id="-25957">
		<tag k="name" v="Litlelva" />
		<tag k="ssr:stedsnr" v="169807" />
		<tag k="waterway" v="stream" />
	</node>
	<node lat="64.07298611138613" lon="11.883852779763815" id="-25959">
		<tag k="name" v="Steikartangen" />
		<tag k="natural" v="cape" />
		<tag k="ssr:stedsnr" v="169960" />
	</node>
	<node lat="64.18238610729048" lon="11.736722222975477" id="-25964">
		<tag k="name" v="Hattbekken" />
		<tag k="ssr:stedsnr" v="170271" />
		<tag k="waterway" v="stream" />
	</node>
	<node lat="63.92385000406278" lon="11.411158324095743" id="-25988">
		<tag k="name" v="Leirelva" />
		<tag k="ssr:stedsnr" v="265971" />
		<tag k="waterway" v="river" />
	</node>
	<node lat="63.92102222430217" lon="11.411869450851464" id="-25990">
		<tag k="name" v="Kåbergselva" />
		<tag k="ssr:stedsnr" v="265978" />
		<tag k="waterway" v="stream" />
	</node>
	<node lat="64.09620278190523" lon="11.489241662242385" id="-26008">
		<tag k="name" v="Røseggelva" />
		<tag k="ssr:stedsnr" v="265574" />
		<tag k="waterway" v="stream" />
	</node>
	<node lat="64.15425277858989" lon="11.557449992625182" id="-26011">
		<tag k="name" v="Sagbekken" />
		<tag k="ssr:stedsnr" v="265668" />
		<tag k="waterway" v="stream" />
	</node>
	<node lat="64.15644721865533" lon="11.562258335230359" id="-26012">
		<tag k="name" v="Tvåråsbekken" />
		<tag k="ssr:stedsnr" v="265669" />
		<tag k="waterway" v="stream" />
	</node>
	<node lat="64.30291666538866" lon="11.864536119917384" id="-26021">
		<tag k="name" v="Storsandtjønna" />
		<tag k="natural" v="water" />
		<tag k="ssr:stedsnr" v="195607" />
	</node>
	<node lat="63.98117777695504" lon="12.348108336299644" id="-26023">
		<tag k="name" v="Skæhkerenjaevrie - Skjækervatnet" />
		<tag k="name:no" v="Skjækervatnet" />
		<tag k="name:sma" v="Skæhkerenjaevrie" />
		<tag k="natural" v="water" />
		<tag k="ssr:stedsnr" v="195682" />
		<tag k="water" v="lake" />
	</node>
	<node lat="64.06743333643051" lon="11.678416665841253" id="-26026">
		<tag k="name" v="Forneselva" />
		<tag k="ssr:stedsnr" v="196036" />
		<tag k="waterway" v="stream" />
	</node>
	<node lat="64.06163611050498" lon="11.743141674556817" id="-26042">
		<tag k="name" v="Nattsjøen" />
		<tag k="natural" v="water" />
		<tag k="ssr:stedsnr" v="196289" />
	</node>
	<node lat="64.06277222272394" lon="11.813549995753569" id="-26043">
		<tag k="name" v="Hundtjønna" />
		<tag k="natural" v="water" />
		<tag k="ssr:stedsnr" v="196292" />
	</node>
	<node lat="64.16642500355033" lon="11.871144453323756" id="-26045">
		<tag k="name" v="Øksnesøya" />
		<tag k="place" v="island" />
		<tag k="ssr:stedsnr" v="196410" />
	</node>
	<node lat="63.9983861077623" lon="11.969799999742705" id="-26046">
		<tag k="name" v="Fuldalsfossen" />
		<tag k="natural" v="waterfall" />
		<tag k="ssr:stedsnr" v="196302" />
	</node>
	<node lat="63.988724996159036" lon="11.981949993918455" id="-26050">
		<tag k="name" v="Hyttfossen" />
		<tag k="natural" v="waterfall" />
		<tag k="ssr:stedsnr" v="196379" />
	</node>
	<node lat="64.03409999690962" lon="12.121974990298238" id="-26051">
		<tag k="name" v="Fiskløysa" />
		<tag k="natural" v="water" />
		<tag k="ssr:stedsnr" v="196606" />
	</node>
	<node lat="64.20982777418239" lon="11.51867777372668" id="-26053">
		<tag k="name" v="Kjølbekksundet" />
		<tag k="natural" v="strait" />
		<tag k="ssr:stedsnr" v="196825" />
	</node>
	<node lat="64.13025277968896" lon="11.071313897039412" id="-26056">
		<tag k="name" v="Rundhaugvatnet" />
		<tag k="natural" v="water" />
		<tag k="ssr:stedsnr" v="196569" />
	</node>
	<node lat="64.13702499580839" lon="11.103141664973649" id="-26058">
		<tag k="name" v="Gåslona" />
		<tag k="place" v="locality" />
		<tag k="ssr:stedsnr" v="196572" />
	</node>
	<node lat="64.20528852306181" lon="11.590266386851377" id="-26067">
		<tag k="name" v="Kaukartangen" />
		<tag k="natural" v="cape" />
		<tag k="ssr:stedsnr" v="196904" />
	</node>
	<node lat="64.02021388811329" lon="10.803613897463807" id="-26072">
		<tag k="name" v="Kruvelva" />
		<tag k="ssr:stedsnr" v="196974" />
		<tag k="waterway" v="stream" />
	</node>
	<node lat="64.14051944561902" lon="11.475652768985656" id="-26074">
		<tag k="name" v="Sagbekken" />
		<tag k="ssr:stedsnr" v="266579" />
		<tag k="waterway" v="stream" />
	</node>
	<node lat="64.13188333721324" lon="11.441413890440463" id="-26079">
		<tag k="name" v="Kvernbekken" />
		<tag k="ssr:stedsnr" v="204508" />
		<tag k="waterway" v="stream" />
	</node>
	<node lat="64.09782222047822" lon="11.402047228704085" id="-26081">
		<tag k="name" v="Kvarvingselva" />
		<tag k="ssr:stedsnr" v="204539" />
		<tag k="waterway" v="stream" />
	</node>
	<node lat="64.12807777503008" lon="11.736122227976443" id="-26104">
		<tag k="name" v="Solnesbukta" />
		<tag k="natural" v="bay" />
		<tag k="ssr:stedsnr" v="210123" />
	</node>
	<node lat="64.02070277372954" lon="11.519547217420014" id="-26121">
		<tag k="name" v="Midjoholmen" />
		<tag k="place" v="islet" />
		<tag k="ssr:stedsnr" v="210881" />
	</node>
	<node lat="64.01228055828248" lon="11.754374991591492" id="-26125">
		<tag k="name" v="Sela" />
		<tag k="place" v="locality" />
		<tag k="ssr:stedsnr" v="211402" />
	</node>
	<node lat="64.143900004317" lon="11.92887499507655" id="-26130">
		<tag k="name" v="Bølbukta" />
		<tag k="natural" v="bay" />
		<tag k="ssr:stedsnr" v="211911" />
	</node>
	<node lat="64.19048333762497" lon="11.96883610741306" id="-26132">
		<tag k="name" v="Klauvgardholman" />
		<tag k="place" v="islet" />
		<tag k="ssr:stedsnr" v="211985" />
	</node>
	<node lat="64.1114472206321" lon="11.197527773172817" id="-26135">
		<tag k="name" v="Seterlibekken" />
		<tag k="ssr:stedsnr" v="220781" />
		<tag k="waterway" v="stream" />
	</node>
	<node lat="63.996811111562025" lon="11.870902785703173" id="-26137">
		<tag k="name" v="Hyllbekken" />
		<tag k="ssr:stedsnr" v="271056" />
		<tag k="waterway" v="stream" />
	</node>
	<node lat="63.83905833656757" lon="10.618536102452277" id="-26139">
		<tag k="alt_name" v="Raudtindelva" />
		<tag k="name" v="Raudtinnelva" />
		<tag k="ssr:stedsnr" v="271066" />
		<tag k="waterway" v="river" />
	</node>
	<node lat="64.2135500029245" lon="11.593747224046217" id="-26141">
		<tag k="name" v="Bøverdalsbukta" />
		<tag k="natural" v="bay" />
		<tag k="ssr:stedsnr" v="222502" />
	</node>
	<node lat="64.17697222644091" lon="11.756613894804758" id="-26154">
		<tag k="name" v="Skogholmen" />
		<tag k="natural" v="cape" />
		<tag k="ssr:stedsnr" v="271136" />
	</node>
	<node lat="64.02952221951641" lon="11.756636118331176" id="-26157">
		<tag k="name" v="Moabekken" />
		<tag k="ssr:stedsnr" v="271264" />
		<tag k="waterway" v="stream" />
	</node>
	<node lat="64.10788333366607" lon="11.653747214646613" id="-26158">
		<tag k="name" v="Føttabekken" />
		<tag k="ssr:stedsnr" v="271268" />
		<tag k="waterway" v="stream" />
	</node>
	<node lat="64.00203888557861" lon="11.761011113771211" id="-26162">
		<tag k="name" v="Bjørnåsbekken" />
		<tag k="ssr:stedsnr" v="271299" />
		<tag k="waterway" v="stream" />
	</node>
	<node lat="64.14150833063982" lon="11.609205556350853" id="-26170">
		<tag k="name" v="Seterbekken" />
		<tag k="ssr:stedsnr" v="271463" />
		<tag k="waterway" v="stream" />
	</node>
	<node lat="63.99527777984676" lon="11.556888879737935" id="-26171">
		<tag k="name" v="Fosslibekken" />
		<tag k="ssr:stedsnr" v="271538" />
		<tag k="waterway" v="stream" />
	</node>
	<node lat="64.1335777798898" lon="11.878152779554071" id="-26176">
		<tag k="name" v="Sagbekken" />
		<tag k="ssr:stedsnr" v="271836" />
		<tag k="waterway" v="stream" />
	</node>
	<node lat="64.00204444396938" lon="10.796686112571898" id="-26185">
		<tag k="name" v="Lona" />
		<tag k="natural" v="water" />
		<tag k="ssr:stedsnr" v="229131" />
		<tag k="water" v="lake" />
	</node>
	<node lat="64.00367222205858" lon="10.84525555938137" id="-26188">
		<tag k="name" v="Bybekkelva" />
		<tag k="ssr:stedsnr" v="229182" />
		<tag k="waterway" v="river" />
	</node>
	<node lat="64.2075361108444" lon="11.858313883309464" id="-26191">
		<tag k="name" v="Litlelva" />
		<tag k="ssr:stedsnr" v="229211" />
		<tag k="waterway" v="stream" />
	</node>
	<node lat="64.18906666597927" lon="11.615291661863376" id="-26199">
		<tag k="name" v="Oksåsengtjønna" />
		<tag k="natural" v="water" />
		<tag k="ssr:stedsnr" v="230083" />
	</node>
	<node lat="64.16633889202933" lon="11.664461104644637" id="-26205">
		<tag k="name" v="Sagbekken" />
		<tag k="ssr:stedsnr" v="230230" />
		<tag k="waterway" v="stream" />
	</node>
	<node lat="64.10693055578925" lon="12.017983323545302" id="-26208">
		<tag k="name" v="Storelva" />
		<tag k="ssr:stedsnr" v="230443" />
		<tag k="waterway" v="river" />
	</node>
	<node lat="63.97397500097729" lon="12.11526389460265" id="-26210">
		<tag k="name" v="Jensbekken" />
		<tag k="ssr:stedsnr" v="230682" />
		<tag k="waterway" v="stream" />
	</node>
	<node lat="63.99724444614206" lon="11.741130551596346" id="-26248">
		<tag k="name" v="Grøttjønnbekken" />
		<tag k="ssr:stedsnr" v="453298" />
		<tag k="waterway" v="stream" />
	</node>
	<node lat="63.99964444319702" lon="11.685319434261379" id="-26250">
		<tag k="name" v="Sikjesbekken" />
		<tag k="ssr:stedsnr" v="453388" />
		<tag k="waterway" v="stream" />
	</node>
	<node lat="63.94059999988188" lon="10.973972219764741" id="-26257">
		<tag k="name" v="Svartdalsbekken" />
		<tag k="ssr:stedsnr" v="453071" />
		<tag k="waterway" v="stream" />
	</node>
	<node lat="64.10915000254275" lon="11.715147230919001" id="-26267">
		<tag k="name" v="Kjølpåsbekken" />
		<tag k="ssr:stedsnr" v="453177" />
		<tag k="waterway" v="stream" />
	</node>
	<node lat="64.15179444082676" lon="11.746519450832352" id="-26272">
		<tag k="name" v="Lomtjønna" />
		<tag k="natural" v="water" />
		<tag k="ssr:stedsnr" v="453191" />
	</node>
	<node lat="64.13295833765153" lon="11.63060556060132" id="-26276">
		<tag k="name" v="Olasvebekken" />
		<tag k="ssr:stedsnr" v="453441" />
		<tag k="waterway" v="stream" />
	</node>
	<node lat="63.87995278234916" lon="11.607102772865524" id="-26288">
		<tag k="name" v="Nestangen" />
		<tag k="natural" v="cape" />
		<tag k="ssr:stedsnr" v="453895" />
	</node>
	<node lat="64.14609722434717" lon="12.016652780182103" id="-26289">
		<tag k="name" v="Deklet" />
		<tag k="natural" v="water" />
		<tag k="ssr:stedsnr" v="453897" />
	</node>
	<node lat="64.17349444541686" lon="11.853141657566738" id="-26323">
		<tag k="alt_name" v="Brasetbukta" />
		<tag k="name" v="Brassetbukta" />
		<tag k="natural" v="bay" />
		<tag k="ssr:stedsnr" v="256405" />
	</node>
	<node lat="64.10342778115914" lon="11.163977777253772" id="-26326">
		<tag k="name" v="Kattrumptjønna" />
		<tag k="natural" v="water" />
		<tag k="ssr:stedsnr" v="256476" />
	</node>
	<node lat="64.1178194413305" lon="11.05227222049288" id="-26327">
		<tag k="name" v="Sprovsetertjønnin" />
		<tag k="natural" v="water" />
		<tag k="ssr:stedsnr" v="256602" />
	</node>
	<node lat="64.04853526468912" lon="12.109845208731898" id="-26328">
		<tag k="name" v="Fisktjønnin" />
		<tag k="natural" v="water" />
		<tag k="ssr:stedsnr" v="256611" />
	</node>
	<node lat="64.19764444628314" lon="11.448347217595808" id="-26331">
		<tag k="name" v="Svarttjønna" />
		<tag k="natural" v="water" />
		<tag k="ssr:stedsnr" v="256813" />
	</node>
	<node lat="63.959288892271694" lon="11.54257778574411" id="-26333">
		<tag k="name" v="Figgja" />
		<tag k="ssr:stedsnr" v="256861" />
		<tag k="waterway" v="river" />
	</node>
	<node lat="63.95739999711178" lon="11.675875006521489" id="-26335">
		<tag k="name" v="Tjuvdalsbekken" />
		<tag k="ssr:stedsnr" v="256868" />
		<tag k="waterway" v="stream" />
	</node>
	<node lat="64.23331110885256" lon="11.582724990742786" id="-26352">
		<tag k="name" v="Langvatnet" />
		<tag k="natural" v="water" />
		<tag k="ssr:stedsnr" v="257914" />
	</node>
	<node lat="64.00662777943637" lon="10.983552777801862" id="-26353">
		<tag k="name" v="Åsabekken" />
		<tag k="ssr:stedsnr" v="257925" />
		<tag k="waterway" v="stream" />
	</node>
	<node lat="64.09555555213079" lon="11.269388878520092" id="-26360">
		<tag k="name" v="Landsemvatnet" />
		<tag k="natural" v="water" />
		<tag k="ssr:stedsnr" v="265202" />
		<tag k="water" v="lake" />
	</node>
	<node lat="64.0704638904621" lon="11.342647214098962" id="-26364">
		<tag k="name" v="Morkvedbekken" />
		<tag k="ssr:stedsnr" v="265250" />
		<tag k="waterway" v="stream" />
	</node>
	<node lat="64.08251110995418" lon="11.462280565405706" id="-26369">
		<tag k="name" v="Gulungbekken" />
		<tag k="ssr:stedsnr" v="265645" />
		<tag k="waterway" v="stream" />
	</node>
	<node lat="64.13307181849699" lon="11.562014974546635" id="-26371">
		<tag k="name" v="Finntjønna" />
		<tag k="natural" v="water" />
		<tag k="ssr:stedsnr" v="265710" />
	</node>
	<node lat="64.14823889175155" lon="11.457497232570475" id="-26385">
		<tag k="name" v="Øvre Holmfettjønna" />
		<tag k="natural" v="water" />
		<tag k="ssr:stedsnr" v="266585" />
	</node>
	<node lat="64.04688610786381" lon="10.812794445092123" id="-26386">
		<tag k="loc_name" v="Reinsjøan" />
		<tag k="name" v="Reinsjøen" />
		<tag k="natural" v="water" />
		<tag k="ssr:stedsnr" v="268182" />
		<tag k="water" v="lake" />
	</node>
	<node lat="64.15624444633632" lon="11.639761114078594" id="-26390">
		<tag k="name" v="Lomtjønnbekken" />
		<tag k="ssr:stedsnr" v="271209" />
		<tag k="waterway" v="stream" />
	</node>
	<node lat="64.0763555522106" lon="11.73653888700907" id="-26392">
		<tag k="name" v="Laupsfossen" />
		<tag k="natural" v="waterfall" />
		<tag k="ssr:stedsnr" v="271214" />
	</node>
	<node lat="64.09994722202536" lon="11.638169437264125" id="-26394">
		<tag k="name" v="Retlobukta" />
		<tag k="natural" v="bay" />
		<tag k="ssr:stedsnr" v="271271" />
	</node>
	<node lat="64.11684166268941" lon="11.580727770844343" id="-26404">
		<tag k="name" v="Forfonelva" />
		<tag k="ssr:stedsnr" v="271481" />
		<tag k="waterway" v="river" />
	</node>
	<node lat="64.16758332954576" lon="11.837158331722435" id="-26406">
		<tag k="name" v="Kråkskjæret" />
		<tag k="natural" v="cape" />
		<tag k="ssr:stedsnr" v="271891" />
	</node>
	<node lat="64.0239666621835" lon="11.507561117492166" id="-26407">
		<tag k="name" v="Steinkjerholmen" />
		<tag k="place" v="islet" />
		<tag k="ssr:stedsnr" v="271896" />
	</node>
	<node lat="63.990902779749" lon="10.915008337943927" id="-26436">
		<tag k="name" v="Bordvika" />
		<tag k="natural" v="bay" />
		<tag k="ssr:stedsnr" v="290085" />
	</node>
	<node lat="64.21121111088533" lon="11.867833325004842" id="-26437">
		<tag k="name" v="Hevildeklet" />
		<tag k="natural" v="water" />
		<tag k="ssr:stedsnr" v="290208" />
	</node>
	<node lat="64.26091389040363" lon="11.74911666967022" id="-26448">
		<tag k="name" v="Bjønnåsbekken" />
		<tag k="ssr:stedsnr" v="291096" />
		<tag k="waterway" v="stream" />
	</node>
	<node lat="63.997152775234035" lon="12.049663885496017" id="-26450">
		<tag k="name" v="Storholmen" />
		<tag k="place" v="islet" />
		<tag k="ssr:stedsnr" v="291306" />
	</node>
	<node lat="64.01714722460555" lon="12.02606389628015" id="-26452">
		<tag k="name" v="Øver-Dompen" />
		<tag k="natural" v="waterfall" />
		<tag k="ssr:stedsnr" v="291502" />
	</node>
	<node lat="63.93466388657548" lon="11.710361107513739" id="-26455">
		<tag k="name" v="Storbutjønnbekken" />
		<tag k="ssr:stedsnr" v="291575" />
		<tag k="waterway" v="stream" />
	</node>
	<node lat="64.13535833244106" lon="12.001169443054152" id="-26462">
		<tag k="name" v="Sagstutjønna" />
		<tag k="natural" v="water" />
		<tag k="ssr:stedsnr" v="271927" />
	</node>
	<node lat="64.12633889117936" lon="11.918319436077125" id="-26464">
		<tag k="name" v="Korsfossen" />
		<tag k="natural" v="waterfall" />
		<tag k="ssr:stedsnr" v="271939" />
	</node>
	<node lat="63.89179999667094" lon="11.668386103377824" id="-26468">
		<tag k="name" v="Lomtjønna" />
		<tag k="natural" v="water" />
		<tag k="ssr:stedsnr" v="297302" />
	</node>
	<node lat="63.85606388940547" lon="10.672133339923096" id="-26503">
		<tag k="name" v="Buavatnet" />
		<tag k="natural" v="water" />
		<tag k="ssr:stedsnr" v="316307" />
	</node>
	<node lat="64.09099722672005" lon="11.66227222321773" id="-26510">
		<tag k="name" v="Vesterdyen" />
		<tag k="natural" v="water" />
		<tag k="ssr:stedsnr" v="317213" />
		<tag k="water" v="lake" />
	</node>
	<node lat="64.10609166413802" lon="11.63525278533772" id="-26514">
		<tag k="name" v="Penghaugen" />
		<tag k="natural" v="cape" />
		<tag k="ssr:stedsnr" v="317120" />
	</node>
	<node lat="63.99884722465522" lon="11.80641111262526" id="-26518">
		<tag k="name" v="Storbekken" />
		<tag k="ssr:stedsnr" v="317302" />
		<tag k="waterway" v="stream" />
	</node>
	<node lat="63.99236389160463" lon="11.747080545968572" id="-26519">
		<tag k="name" v="Grøttjønna" />
		<tag k="natural" v="water" />
		<tag k="ssr:stedsnr" v="317303" />
	</node>
	<node lat="63.97095555329166" lon="10.902161111270438" id="-26521">
		<tag k="name" v="Tørkletjønna" />
		<tag k="natural" v="water" />
		<tag k="ssr:stedsnr" v="317524" />
	</node>
	<node lat="63.9971055543602" lon="10.958766667246817" id="-26524">
		<tag k="name" v="Klumptjønnbekken" />
		<tag k="ssr:stedsnr" v="317553" />
		<tag k="waterway" v="stream" />
	</node>
	<node lat="63.993263892818824" lon="10.9527722235185" id="-26525">
		<tag k="name" v="Klumptjønna" />
		<tag k="natural" v="water" />
		<tag k="ssr:stedsnr" v="317555" />
	</node>
	<node lat="63.94242777528758" lon="11.903141669201634" id="-26528">
		<tag k="alt_name" v="Grønlibekken" />
		<tag k="name" v="Grønliheibekken" />
		<tag k="ssr:stedsnr" v="317420" />
		<tag k="waterway" v="stream" />
	</node>
	<node lat="63.94257499590876" lon="11.724580556208394" id="-26530">
		<tag k="name" v="Myrslotjønna" />
		<tag k="natural" v="water" />
		<tag k="ssr:stedsnr" v="317426" />
	</node>
	<node lat="64.11500833161918" lon="10.986366676022898" id="-26532">
		<tag k="name" v="Nordesplingtjønna" />
		<tag k="natural" v="water" />
		<tag k="ssr:stedsnr" v="317444" />
	</node>
	<node lat="64.18896110852843" lon="11.462841661043965" id="-26539">
		<tag k="name" v="Bleia" />
		<tag k="natural" v="water" />
		<tag k="ssr:stedsnr" v="317747" />
		<tag k="water" v="lake" />
	</node>
	<node lat="64.04711389234124" lon="11.004477768474404" id="-26546">
		<tag k="name" v="Pissbekken" />
		<tag k="ssr:stedsnr" v="317955" />
		<tag k="waterway" v="stream" />
	</node>
	<node lat="64.25604166515046" lon="11.716808336277087" id="-26547">
		<tag k="name" v="Bjørtjønna" />
		<tag k="natural" v="water" />
		<tag k="ssr:stedsnr" v="317815" />
	</node>
	<node lat="64.0261333323262" lon="11.185708334497464" id="-26550">
		<tag k="name" v="Øvertjønna" />
		<tag k="natural" v="water" />
		<tag k="ssr:stedsnr" v="317994" />
	</node>
	<node lat="64.02973055781177" lon="10.921008328918674" id="-26551">
		<tag k="name" v="Grunntjønnbekken" />
		<tag k="ssr:stedsnr" v="317995" />
		<tag k="waterway" v="stream" />
	</node>
	<node lat="64.06150000190387" lon="11.260483330715209" id="-26558">
		<tag k="name" v="Kvernhusbekken" />
		<tag k="ssr:stedsnr" v="326109" />
		<tag k="waterway" v="stream" />
	</node>
	<node lat="64.27782777716097" lon="11.853441657303486" id="-26565">
		<tag k="name" v="Breifossen" />
		<tag k="natural" v="waterfall" />
		<tag k="ssr:stedsnr" v="329157" />
	</node>
	<node lat="63.92566111120711" lon="10.847644444429871" id="-26567">
		<tag k="name" v="Steintjønna" />
		<tag k="natural" v="water" />
		<tag k="ssr:stedsnr" v="329517" />
	</node>
	<node lat="64.12985555252571" lon="11.738030563614805" id="-26568">
		<tag k="name" v="Moatangen" />
		<tag k="natural" v="cape" />
		<tag k="ssr:stedsnr" v="332107" />
	</node>
	<node lat="63.784336107931715" lon="10.467563885815204" id="-26570">
		<tag k="name" v="Spongtjønna" />
		<tag k="natural" v="water" />
		<tag k="ssr:stedsnr" v="332004" />
	</node>
	<node lat="63.9031861080805" lon="11.684452786423298" id="-26582">
		<tag k="name" v="Bergtjønna" />
		<tag k="natural" v="water" />
		<tag k="ssr:stedsnr" v="332351" />
	</node>
	<node lat="63.86645277479643" lon="10.694891664893664" id="-26592">
		<tag k="name" v="Ormsetfossen" />
		<tag k="natural" v="waterfall" />
		<tag k="ssr:stedsnr" v="472238" />
	</node>
	<node lat="64.01511111371302" lon="10.980119451702016" id="-26594">
		<tag k="name" v="Svarttjønna" />
		<tag k="natural" v="water" />
		<tag k="ssr:stedsnr" v="472087" />
	</node>
	<node lat="63.87723055473755" lon="10.63428611392222" id="-26595">
		<tag k="name" v="Rørtjønnbekken" />
		<tag k="ssr:stedsnr" v="472184" />
		<tag k="waterway" v="stream" />
	</node>
	<node lat="64.0264944444285" lon="11.047749996009875" id="-26598">
		<tag k="name" v="Nordlielva" />
		<tag k="ssr:stedsnr" v="473072" />
		<tag k="waterway" v="river" />
	</node>
	<node lat="64.05884722379196" lon="11.029511121242948" id="-26611">
		<tag k="name" v="Hallalonet" />
		<tag k="natural" v="strait" />
		<tag k="ssr:stedsnr" v="472732" />
	</node>
	<node lat="64.17237778192832" lon="11.371227782507447" id="-26615">
		<tag k="name" v="Svarttjønnbekken" />
		<tag k="ssr:stedsnr" v="472686" />
		<tag k="waterway" v="stream" />
	</node>
	<node lat="64.1002972235217" lon="11.88148333001134" id="-26618">
		<tag k="name" v="Studalstjønna" />
		<tag k="natural" v="water" />
		<tag k="ssr:stedsnr" v="472772" />
	</node>
	<node lat="64.09340277412534" lon="11.854802775864458" id="-26619">
		<tag k="name" v="Malenaholet" />
		<tag k="natural" v="water" />
		<tag k="ssr:stedsnr" v="472774" />
	</node>
	<node lat="64.18803889165676" lon="11.720983335005286" id="-26639">
		<tag k="name" v="Perkalltjønna" />
		<tag k="natural" v="water" />
		<tag k="ssr:stedsnr" v="473254" />
	</node>
	<node lat="64.00477686347192" lon="12.157598968878089" id="-26640">
		<tag k="name" v="Krokbekken" />
		<tag k="ssr:stedsnr" v="473326" />
		<tag k="waterway" v="stream" />
	</node>
	<node lat="64.011147223906" lon="12.073922217824297" id="-26644">
		<tag k="name" v="Kattjønna" />
		<tag k="natural" v="water" />
		<tag k="ssr:stedsnr" v="473299" />
	</node>
	<node lat="64.0018805522128" lon="12.126527767865234" id="-26646">
		<tag k="name" v="Nordvalen" />
		<tag k="natural" v="shoal" />
		<tag k="place" v="locality" />
		<tag k="ssr:stedsnr" v="473336" />
	</node>
	<node lat="64.09240770516712" lon="11.988211612742152" id="-26650">
		<tag k="name" v="Langseterdalsbekken" />
		<tag k="ssr:stedsnr" v="473476" />
		<tag k="waterway" v="stream" />
	</node>
	<node lat="64.0400361099444" lon="11.114444445393268" id="-26651">
		<tag k="name" v="Kjerstifossen" />
		<tag k="natural" v="waterfall" />
		<tag k="ssr:stedsnr" v="473477" />
	</node>
	<node lat="64.05443888605984" lon="11.970216656925986" id="-26652">
		<tag k="name" v="Granåsbekken" />
		<tag k="ssr:stedsnr" v="473486" />
		<tag k="waterway" v="stream" />
	</node>
	<node lat="64.02001110956614" lon="11.981227768887184" id="-26654">
		<tag k="name" v="Ambrobekken" />
		<tag k="ssr:stedsnr" v="473500" />
		<tag k="waterway" v="stream" />
	</node>
	<node lat="63.94300000282597" lon="12.162769449959784" id="-26655">
		<tag k="name" v="Langtjønnin" />
		<tag k="natural" v="water" />
		<tag k="ssr:stedsnr" v="473554" />
	</node>
	<node lat="63.95734444253076" lon="11.76560833842243" id="-26658">
		<tag k="name" v="Tjuvtangen" />
		<tag k="natural" v="cape" />
		<tag k="ssr:stedsnr" v="473599" />
	</node>
	<node lat="63.96610555448202" lon="12.319633323268517" id="-26660">
		<tag k="name" v="Gaddbukta" />
		<tag k="natural" v="bay" />
		<tag k="ssr:stedsnr" v="473653" />
	</node>
	<node lat="64.21687500012094" lon="11.619730555908772" id="-26668">
		<tag k="name" v="Berettjønna" />
		<tag k="natural" v="water" />
		<tag k="ssr:stedsnr" v="351054" />
	</node>
	<node lat="64.21401388973767" lon="11.625363885568303" id="-26669">
		<tag k="name" v="Søndagstjønna" />
		<tag k="natural" v="water" />
		<tag k="ssr:stedsnr" v="351055" />
	</node>
	<node lat="64.01173611401684" lon="11.079433325522455" id="-26671">
		<tag k="name" v="Brennholbekken" />
		<tag k="ssr:stedsnr" v="351059" />
		<tag k="waterway" v="stream" />
	</node>
	<node lat="63.87372778198486" lon="10.6889027832327" id="-26674">
		<tag k="name" v="Lona" />
		<tag k="natural" v="water" />
		<tag k="ssr:stedsnr" v="351204" />
		<tag k="water" v="lake" />
	</node>
	<node lat="64.20329722158976" lon="11.701583336676274" id="-26675">
		<tag k="name" v="Hjarttjønna" />
		<tag k="natural" v="water" />
		<tag k="ssr:stedsnr" v="351222" />
	</node>
	<node lat="64.22667500418305" lon="11.673191663986623" id="-26676">
		<tag k="name" v="Hølbekken" />
		<tag k="ssr:stedsnr" v="351224" />
		<tag k="waterway" v="stream" />
	</node>
	<node lat="64.14437777509639" lon="11.357672211743646" id="-26678">
		<tag k="name" v="Storengbekken" />
		<tag k="ssr:stedsnr" v="351505" />
		<tag k="waterway" v="stream" />
	</node>
	<node lat="64.07895555801866" lon="11.132330558204009" id="-26685">
		<tag k="name" v="Rafsbekken" />
		<tag k="ssr:stedsnr" v="351708" />
		<tag k="waterway" v="stream" />
	</node>
	<node lat="64.03643333166644" lon="11.964358327811038" id="-26689">
		<tag k="name" v="Vardtjønna" />
		<tag k="natural" v="water" />
		<tag k="ssr:stedsnr" v="351961" />
	</node>
	<node lat="64.02401944034263" lon="12.117824990667478" id="-26690">
		<tag k="name" v="Litltjønna" />
		<tag k="natural" v="water" />
		<tag k="ssr:stedsnr" v="352252" />
	</node>
	<node lat="63.9933805563181" lon="12.049169439486073" id="-26694">
		<tag k="name" v="Tomsåsholmen" />
		<tag k="place" v="islet" />
		<tag k="ssr:stedsnr" v="352268" />
	</node>
	<node lat="63.92291657030681" lon="11.731287471432488" id="-26696">
		<tag k="name" v="Hystadtjønnin" />
		<tag k="natural" v="water" />
		<tag k="ssr:stedsnr" v="352566" />
	</node>
	<node lat="63.9528750040865" lon="11.74934721885204" id="-26711">
		<tag k="name" v="Åksjøbekken" />
		<tag k="ssr:stedsnr" v="357813" />
		<tag k="waterway" v="stream" />
	</node>
	<node lat="63.95923611505357" lon="12.183833328370952" id="-26766">
		<tag k="name" v="Heimtjønna" />
		<tag k="natural" v="water" />
		<tag k="ssr:stedsnr" v="378412" />
	</node>
	<node lat="63.95844999682757" lon="12.20814167056447" id="-26767">
		<tag k="name" v="Stortjønnin" />
		<tag k="natural" v="water" />
		<tag k="ssr:stedsnr" v="378413" />
		<tag k="water" v="lake" />
	</node>
	<node lat="64.01120277536715" lon="11.97695832706279" id="-26768">
		<tag k="name" v="Kroken" />
		<tag k="place" v="locality" />
		<tag k="ssr:stedsnr" v="378702" />
	</node>
	<node lat="64.0072555536841" lon="12.089294453209458" id="-26769">
		<tag k="name" v="Vika" />
		<tag k="natural" v="bay" />
		<tag k="ssr:stedsnr" v="378705" />
	</node>
	<node lat="63.87916666363988" lon="10.797941672365468" id="-26770">
		<tag k="name" v="Vølsetelva" />
		<tag k="ssr:stedsnr" v="378733" />
		<tag k="waterway" v="stream" />
	</node>
	<node lat="63.86828055433071" lon="10.769963897152014" id="-26771">
		<tag k="name" v="Svartbekken" />
		<tag k="ssr:stedsnr" v="378765" />
		<tag k="waterway" v="stream" />
	</node>
	<node lat="64.0192722245239" lon="12.138052784497168" id="-26775">
		<tag k="name" v="Liatjønna" />
		<tag k="natural" v="water" />
		<tag k="ssr:stedsnr" v="378682" />
	</node>
	<node lat="63.90701111197699" lon="10.78588610614452" id="-26779">
		<tag k="name" v="Småvatna" />
		<tag k="natural" v="water" />
		<tag k="ssr:stedsnr" v="482750" />
		<tag k="water" v="lake" />
	</node>
	<node lat="64.08870833712686" lon="11.460638897162264" id="-26789">
		<tag k="name" v="Heltuvelva" />
		<tag k="ssr:stedsnr" v="386614" />
		<tag k="waterway" v="stream" />
	</node>
	<node lat="64.15495277480048" lon="11.305780564575239" id="-26792">
		<tag k="name" v="Aunvatnet" />
		<tag k="natural" v="water" />
		<tag k="ssr:stedsnr" v="386744" />
		<tag k="water" v="lake" />
	</node>
	<node lat="64.0554333330022" lon="11.374430556422158" id="-26796">
		<tag k="name" v="Visetelva" />
		<tag k="ssr:stedsnr" v="386909" />
		<tag k="waterway" v="stream" />
	</node>
	<node lat="64.05982777918075" lon="11.416494452190916" id="-26799">
		<tag k="name" v="Lomtjønna" />
		<tag k="natural" v="water" />
		<tag k="ssr:stedsnr" v="386898" />
	</node>
	<node lat="64.12951389190958" lon="11.390586112051455" id="-26802">
		<tag k="name" v="Øystre Kleivabekken" />
		<tag k="ssr:stedsnr" v="387546" />
		<tag k="waterway" v="stream" />
	</node>
	<node lat="63.91872777899799" lon="11.683400009721458" id="-26812">
		<tag k="name" v="Hyllbekken" />
		<tag k="ssr:stedsnr" v="392383" />
		<tag k="waterway" v="stream" />
	</node>
	<node lat="64.19372222268753" lon="11.90804722766147" id="-26823">
		<tag k="name" v="Hyllbekken" />
		<tag k="ssr:stedsnr" v="392935" />
		<tag k="waterway" v="stream" />
	</node>
	<node lat="64.21448611327884" lon="11.994786104000234" id="-26825">
		<tag k="name" v="Seterelva" />
		<tag k="ssr:stedsnr" v="392995" />
		<tag k="waterway" v="river" />
	</node>
	<node lat="64.19988055292285" lon="11.999561103546137" id="-26826">
		<tag k="name" v="Sandvikbukta" />
		<tag k="natural" v="bay" />
		<tag k="ssr:stedsnr" v="392996" />
	</node>
	<node lat="64.14748333765206" lon="11.900838891404687" id="-26830">
		<tag k="name" v="Vardetangen" />
		<tag k="natural" v="cape" />
		<tag k="ssr:stedsnr" v="393041" />
	</node>
	<node lat="63.946486110641246" lon="10.76806943966472" id="-26840">
		<tag k="name" v="Igltjønna" />
		<tag k="natural" v="water" />
		<tag k="ssr:stedsnr" v="404294" />
	</node>
	<node lat="64.01520833200404" lon="10.880988886780793" id="-26850">
		<tag k="name" v="Vargtjønna" />
		<tag k="natural" v="water" />
		<tag k="ssr:stedsnr" v="411119" />
	</node>
	<node lat="63.89079444579406" lon="10.715775001019823" id="-26852">
		<tag k="name" v="Austerlonet" />
		<tag k="natural" v="water" />
		<tag k="ssr:stedsnr" v="411205" />
		<tag k="water" v="lake" />
	</node>
	<node lat="63.890041663159614" lon="10.679947217140928" id="-26853">
		<tag k="name" v="Setertangen" />
		<tag k="natural" v="cape" />
		<tag k="ssr:stedsnr" v="411192" />
	</node>
	<node lat="64.15623888637936" lon="11.340227779145163" id="-26855">
		<tag k="name" v="Bjønnsengbekken" />
		<tag k="ssr:stedsnr" v="411508" />
		<tag k="waterway" v="stream" />
	</node>
	<node lat="63.949338887433235" lon="11.860180564407393" id="-26861">
		<tag k="name" v="Svartbekken" />
		<tag k="ssr:stedsnr" v="412547" />
		<tag k="waterway" v="stream" />
	</node>
	<node lat="64.05775833317863" lon="11.113280564977712" id="-26863">
		<tag k="name" v="Dalengbekken" />
		<tag k="ssr:stedsnr" v="412647" />
		<tag k="waterway" v="stream" />
	</node>
	<node lat="64.22514166839696" lon="11.828497215198293" id="-26864">
		<tag k="name" v="Sølvskideklet" />
		<tag k="natural" v="water" />
		<tag k="ssr:stedsnr" v="412802" />
	</node>
	<node lat="63.96630277512894" lon="11.724091675519503" id="-26865">
		<tag k="name" v="Løssiholman" />
		<tag k="natural" v="cape" />
		<tag k="ssr:stedsnr" v="412887" />
	</node>
	<node lat="64.04102778065885" lon="12.143966665815755" id="-26874">
		<tag k="name" v="Heveltjønna" />
		<tag k="natural" v="water" />
		<tag k="ssr:stedsnr" v="413502" />
	</node>
	<node lat="64.03732222213313" lon="12.069141662105217" id="-26875">
		<tag k="name" v="Myrtjønna" />
		<tag k="natural" v="water" />
		<tag k="ssr:stedsnr" v="413506" />
	</node>
	<node lat="63.91788611023167" lon="11.901427772464466" id="-26889">
		<tag k="name" v="Leinsbekken" />
		<tag k="ssr:stedsnr" v="419315" />
		<tag k="waterway" v="stream" />
	</node>
	<node lat="64.20283889260932" lon="11.943472228784564" id="-26909">
		<tag k="name" v="Kvitestjønna" />
		<tag k="natural" v="water" />
		<tag k="ssr:stedsnr" v="438382" />
	</node>
	<node lat="64.15647778098285" lon="11.770655551097937" id="-26910">
		<tag k="name" v="Klingabekken" />
		<tag k="ssr:stedsnr" v="438304" />
		<tag k="waterway" v="stream" />
	</node>
	<node lat="64.2021138852166" lon="12.01095555446913" id="-26915">
		<tag k="name" v="Reinsviktangen" />
		<tag k="natural" v="cape" />
		<tag k="ssr:stedsnr" v="438474" />
	</node>
	<node lat="64.03205555259045" lon="12.234694434927178" id="-26918">
		<tag k="name" v="Råtjønnin" />
		<tag k="natural" v="water" />
		<tag k="ssr:stedsnr" v="438620" />
	</node>
	<node lat="64.25650833022776" lon="11.937619435703148" id="-26919">
		<tag k="name" v="Butjønna" />
		<tag k="natural" v="water" />
		<tag k="ssr:stedsnr" v="438503" />
	</node>
	<node lat="63.97705555318484" lon="10.996008333049746" id="-26921">
		<tag k="name" v="Stamtjønnin" />
		<tag k="natural" v="water" />
		<tag k="ssr:stedsnr" v="438563" />
	</node>
	<node lat="64.22911111256575" lon="11.687655559705941" id="-26926">
		<tag k="name" v="Litlgrønlivatnet" />
		<tag k="natural" v="water" />
		<tag k="ssr:stedsnr" v="438908" />
		<tag k="water" v="lake" />
	</node>
	<node lat="64.03687222297935" lon="11.200577771573936" id="-26927">
		<tag k="name" v="Litlkleivbekken" />
		<tag k="ssr:stedsnr" v="438945" />
		<tag k="waterway" v="stream" />
	</node>
	<node lat="64.08175833205338" lon="10.864041669932584" id="-26939">
		<tag k="name" v="Korsvatna" />
		<tag k="natural" v="water" />
		<tag k="ssr:stedsnr" v="439511" />
	</node>
	<node lat="64.09874721914336" lon="11.069586107599802" id="-26941">
		<tag k="name" v="Svartvatnet" />
		<tag k="natural" v="water" />
		<tag k="ssr:stedsnr" v="439498" />
	</node>
	<node lat="64.09070555440115" lon="10.96850555460434" id="-26942">
		<tag k="name" v="Søresplingstangen" />
		<tag k="natural" v="cape" />
		<tag k="ssr:stedsnr" v="439500" />
	</node>
	<node lat="63.93964722143031" lon="10.775247213505502" id="-26943">
		<tag k="name" v="Otertjønnin" />
		<tag k="natural" v="water" />
		<tag k="ssr:stedsnr" v="439607" />
	</node>
	<node lat="63.954438887054316" lon="10.880663898007873" id="-26944">
		<tag k="name" v="Reinstjønna" />
		<tag k="natural" v="water" />
		<tag k="ssr:stedsnr" v="439611" />
	</node>
	<node lat="64.02930277908533" lon="12.119944454434057" id="-26945">
		<tag k="name" v="Damtjønna" />
		<tag k="natural" v="water" />
		<tag k="ssr:stedsnr" v="439645" />
	</node>
	<node lat="64.06262222373196" lon="10.886211107325163" id="-26946">
		<tag k="name" v="Stuvågen" />
		<tag k="natural" v="bay" />
		<tag k="ssr:stedsnr" v="439543" />
	</node>
	<node lat="64.18100278007743" lon="11.685877771013635" id="-26952">
		<tag k="name" v="Tverråa" />
		<tag k="ssr:stedsnr" v="439846" />
		<tag k="waterway" v="stream" />
	</node>
	<node lat="64.11025833776739" lon="11.552361105434704" id="-26980">
		<tag k="name" v="Semselva" />
		<tag k="ssr:stedsnr" v="447702" />
		<tag k="waterway" v="river" />
	</node>
	<node lat="64.07130277646849" lon="11.547950009379111" id="-26981">
		<tag k="name" v="Finntjønna" />
		<tag k="natural" v="water" />
		<tag k="ssr:stedsnr" v="447707" />
	</node>
	<node lat="64.13615555209907" lon="11.731022215272622" id="-26995">
		<tag k="name" v="Kvamsøra" />
		<tag k="natural" v="cape" />
		<tag k="ssr:stedsnr" v="453104" />
	</node>
	<node lat="63.88232222048856" lon="10.748888890419577" id="-26996">
		<tag k="name" v="Rørtjønnelva" />
		<tag k="ssr:stedsnr" v="453105" />
		<tag k="waterway" v="river" />
	</node>
	<node lat="64.17258055653326" lon="11.729677770050017" id="-26999">
		<tag k="name" v="Brelneset" />
		<tag k="natural" v="cape" />
		<tag k="ssr:stedsnr" v="453114" />
	</node>
	<node lat="64.05566667038433" lon="11.636205556337703" id="-27012">
		<tag k="name" v="Aksnesbekken" />
		<tag k="ssr:stedsnr" v="453311" />
		<tag k="waterway" v="stream" />
	</node>
	<node lat="64.13254166461327" lon="11.856938894837148" id="-27018">
		<tag k="name" v="Godhamnbekken" />
		<tag k="ssr:stedsnr" v="453813" />
		<tag k="waterway" v="stream" />
	</node>
	<node lat="64.19552221888" lon="11.930008328272384" id="-27024">
		<tag k="name" v="Sjursengbekken" />
		<tag k="ssr:stedsnr" v="453913" />
		<tag k="waterway" v="stream" />
	</node>
	<node lat="64.16149444860012" lon="11.588738896525927" id="-27032">
		<tag k="name" v="Bjønnadalsbekken" />
		<tag k="ssr:stedsnr" v="464053" />
		<tag k="waterway" v="stream" />
	</node>
	<node lat="63.98272500231233" lon="10.866158338362222" id="-27043">
		<tag k="name" v="Straumen" />
		<tag k="ssr:stedsnr" v="472102" />
		<tag k="waterway" v="rapids" />
	</node>
	<node lat="64.02169166606448" lon="10.775244446040839" id="-27046">
		<tag k="name" v="Klomptjønnbekken" />
		<tag k="ssr:stedsnr" v="472169" />
		<tag k="waterway" v="stream" />
	</node>
	<node lat="64.06711111500586" lon="11.798538898697053" id="-27054">
		<tag k="name" v="Svarttjønna" />
		<tag k="natural" v="water" />
		<tag k="ssr:stedsnr" v="472961" />
	</node>
	<node lat="63.99716666673828" lon="12.019313895898765" id="-27062">
		<tag k="name" v="Badstudalsbukta" />
		<tag k="natural" v="bay" />
		<tag k="ssr:stedsnr" v="473265" />
	</node>
	<node lat="64.0188333349652" lon="12.14999721520843" id="-27063">
		<tag k="name" v="Meistjønna" />
		<tag k="natural" v="water" />
		<tag k="ssr:stedsnr" v="473273" />
	</node>
	<node lat="63.994236111983284" lon="12.099322227628553" id="-27065">
		<tag k="name" v="Leirbekkbukta" />
		<tag k="natural" v="bay" />
		<tag k="ssr:stedsnr" v="473315" />
	</node>
	<node lat="64.02621944626965" lon="12.191244435150699" id="-27066">
		<tag k="name" v="Råtjønnbekken" />
		<tag k="ssr:stedsnr" v="473358" />
		<tag k="waterway" v="stream" />
	</node>
	<node lat="63.966822220674956" lon="12.124286116637146" id="-27069">
		<tag k="name" v="Gruvtjønna" />
		<tag k="natural" v="water" />
		<tag k="ssr:stedsnr" v="473712" />
	</node>
	<node lat="64.0677388899779" lon="11.821333329629923" id="-27097">
		<tag k="name" v="Reintjønna" />
		<tag k="natural" v="water" />
		<tag k="ssr:stedsnr" v="681320" />
	</node>
	<node lat="64.07199166253609" lon="12.09392777353987" id="-27100">
		<tag k="name" v="Storbekken" />
		<tag k="ssr:stedsnr" v="681324" />
		<tag k="waterway" v="stream" />
	</node>
	<node lat="64.06803611339372" lon="11.636738891763562" id="-27103">
		<tag k="name" v="Fornestangen" />
		<tag k="natural" v="cape" />
		<tag k="ssr:stedsnr" v="681030" />
	</node>
	<node lat="64.0726416635256" lon="11.553736116364174" id="-27111">
		<tag k="name" v="Langvatnet" />
		<tag k="natural" v="water" />
		<tag k="ssr:stedsnr" v="681041" />
	</node>
	<node lat="64.05931378970332" lon="11.549000107744675" id="-27115">
		<tag k="name" v="Svartvatnet" />
		<tag k="natural" v="water" />
		<tag k="ssr:stedsnr" v="681053" />
	</node>
	<node lat="64.10270278119178" lon="11.623411119611427" id="-27135">
		<tag k="name" v="Bygla" />
		<tag k="place" v="islet" />
		<tag k="ssr:stedsnr" v="681130" />
	</node>
	<node lat="63.914905555436945" lon="10.712600006961376" id="-27139">
		<tag k="name" v="Midtre Trevatnet" />
		<tag k="natural" v="water" />
		<tag k="ssr:stedsnr" v="498393" />
		<tag k="water" v="lake" />
	</node>
	<node lat="64.11214166733754" lon="12.048899991563438" id="-27141">
		<tag k="name" v="Øvre Løstjønnin" />
		<tag k="natural" v="water" />
		<tag k="ssr:stedsnr" v="681248" />
	</node>
	<node lat="64.15935277939182" lon="11.822075006001505" id="-27145">
		<tag k="name" v="Mesundbukta" />
		<tag k="natural" v="bay" />
		<tag k="ssr:stedsnr" v="681444" />
	</node>
	<node lat="64.05354722554348" lon="12.143508325311384" id="-27152">
		<tag k="name" v="Flåtjønna" />
		<tag k="natural" v="water" />
		<tag k="ssr:stedsnr" v="681298" />
	</node>
	<node lat="64.06413333240572" lon="11.272105564263134" id="-27157">
		<tag k="name" v="Brandsåsvatnet" />
		<tag k="natural" v="water" />
		<tag k="ssr:stedsnr" v="499039" />
	</node>
	<node lat="64.08085000298811" lon="11.930369438169452" id="-27160">
		<tag k="name" v="Langseterelva" />
		<tag k="ssr:stedsnr" v="681333" />
		<tag k="waterway" v="stream" />
	</node>
	<node lat="64.0783673490182" lon="11.820393778488139" id="-27161">
		<tag k="alt_name" v="Selan, nedre" />
		<tag k="fixme" v="multiple name tags, choose one and add the other to alt_name" />
		<tag k="name" v="Kvennsela;Nedre Selan" />
		<tag k="ssr:stedsnr" v="681340" />
		<tag k="waterway" v="river" />
	</node>
	<node lat="64.11654166482002" lon="12.034994448165387" id="-27162">
		<tag k="name" v="Raudsteinbekken" />
		<tag k="ssr:stedsnr" v="499202" />
		<tag k="waterway" v="stream" />
	</node>
	<node lat="64.06018611556088" lon="11.935063882879211" id="-27164">
		<tag k="name" v="Lysåa" />
		<tag k="ssr:stedsnr" v="499255" />
		<tag k="waterway" v="stream" />
	</node>
	<node lat="63.994733330863056" lon="11.967330561568998" id="-27165">
		<tag k="alt_name" v="Nord-Rokta" />
		<tag k="name" v="Rokta" />
		<tag k="ssr:stedsnr" v="499256" />
		<tag k="waterway" v="river" />
	</node>
	<node lat="64.08890277560022" lon="11.83041387969915" id="-27168">
		<tag k="name" v="Blautbotnen" />
		<tag k="natural" v="water" />
		<tag k="ssr:stedsnr" v="499293" />
	</node>
	<node lat="63.94397222639633" lon="11.78148056311269" id="-27172">
		<tag k="name" v="Tømmeråstjønna" />
		<tag k="natural" v="water" />
		<tag k="ssr:stedsnr" v="499406" />
	</node>
	<node lat="63.92332500383643" lon="11.901041666934985" id="-27175">
		<tag k="name" v="Lauvvatnet" />
		<tag k="natural" v="water" />
		<tag k="ssr:stedsnr" v="499411" />
		<tag k="water" v="lake" />
	</node>
	<node lat="64.10296111302321" lon="11.117566666308667" id="-27176">
		<tag k="name" v="Svarttjønnin" />
		<tag k="natural" v="water" />
		<tag k="ssr:stedsnr" v="499434" />
	</node>
	<node lat="64.10654166325723" lon="11.818074991445783" id="-27179">
		<tag k="name" v="Brennelva" />
		<tag k="ssr:stedsnr" v="499196" />
		<tag k="waterway" v="river" />
	</node>
	<node lat="64.09951388496616" lon="12.134633333551157" id="-27181">
		<tag k="name" v="Gåstjønna" />
		<tag k="natural" v="water" />
		<tag k="ssr:stedsnr" v="499306" />
	</node>
	<node lat="64.2068027742581" lon="11.809349992479696" id="-27182">
		<tag k="alt_name" v="Løstjønna" />
		<tag k="name" v="Lystjønna" />
		<tag k="natural" v="water" />
		<tag k="ssr:stedsnr" v="499335" />
	</node>
	<node lat="64.00099166675713" lon="11.911844444109022" id="-27187">
		<tag k="name" v="Hyllbekken" />
		<tag k="ssr:stedsnr" v="499633" />
		<tag k="waterway" v="stream" />
	</node>
	<node lat="63.9493222219231" lon="11.737755547888842" id="-27189">
		<tag k="alt_name" v="Aunvatnet" />
		<tag k="name" v="Aunvatna" />
		<tag k="natural" v="water" />
		<tag k="ssr:stedsnr" v="681394" />
	</node>
	<node lat="63.958913890479174" lon="12.15140833481118" id="-27190">
		<tag k="name" v="Badstutjønnin" />
		<tag k="natural" v="water" />
		<tag k="ssr:stedsnr" v="681396" />
	</node>
	<node lat="64.22361389234543" lon="11.805402775871856" id="-27191">
		<tag k="alt_name" v="Stor-Avunna" />
		<tag k="name" v="Avunna" />
		<tag k="natural" v="water" />
		<tag k="ssr:stedsnr" v="681399" />
	</node>
	<node lat="64.07530832988334" lon="10.973966666983056" id="-27195">
		<tag k="name" v="Bjørnatangen" />
		<tag k="natural" v="cape" />
		<tag k="ssr:stedsnr" v="499743" />
	</node>
	<node lat="64.18684444055037" lon="11.432280545575452" id="-27196">
		<tag k="name" v="Skjærsjøen" />
		<tag k="natural" v="water" />
		<tag k="ssr:stedsnr" v="499783" />
		<tag k="water" v="lake" />
	</node>
	<node lat="64.05970833250763" lon="10.918069436362796" id="-27205">
		<tag k="name" v="Musvågen" />
		<tag k="natural" v="bay" />
		<tag k="ssr:stedsnr" v="681555" />
	</node>
	<node lat="64.30144444615048" lon="11.835858331024204" id="-27208">
		<tag k="name" v="Bergtjønna" />
		<tag k="natural" v="water" />
		<tag k="ssr:stedsnr" v="681594" />
	</node>
	<node lat="63.93183055221322" lon="10.934988885677168" id="-27209">
		<tag k="name" v="Snertvikstamtjønna" />
		<tag k="natural" v="water" />
		<tag k="ssr:stedsnr" v="681604" />
	</node>
	<node lat="63.95050277909346" lon="10.823380559692842" id="-27211">
		<tag k="name" v="Fiskløysa" />
		<tag k="natural" v="water" />
		<tag k="ssr:stedsnr" v="681616" />
		<tag k="water" v="lake" />
	</node>
	<node lat="64.12650833591049" lon="11.109002780475224" id="-27215">
		<tag k="name" v="Storferja" />
		<tag k="natural" v="water" />
		<tag k="ssr:stedsnr" v="681630" />
		<tag k="water" v="lake" />
	</node>
	<node lat="64.19931666903317" lon="11.996349994690242" id="-27216">
		<tag k="name" v="Kråkvika" />
		<tag k="natural" v="bay" />
		<tag k="ssr:stedsnr" v="681486" />
	</node>
	<node lat="63.93350833663707" lon="11.729436105720112" id="-27217">
		<tag k="name" v="Storbutjønna" />
		<tag k="natural" v="water" />
		<tag k="ssr:stedsnr" v="681487" />
	</node>
	<node lat="64.11407777760785" lon="11.05585555057247" id="-27218">
		<tag k="name" v="Langvatnet" />
		<tag k="natural" v="water" />
		<tag k="ssr:stedsnr" v="681488" />
		<tag k="water" v="lake" />
	</node>
	<node lat="64.03984999874743" lon="11.90719166091729" id="-27222">
		<tag k="name" v="Fossemsseterbekken" />
		<tag k="ssr:stedsnr" v="681634" />
		<tag k="waterway" v="stream" />
	</node>
	<node lat="64.02611388754333" lon="11.738283340166623" id="-27223">
		<tag k="name" v="Litlaugla" />
		<tag k="ssr:stedsnr" v="681647" />
		<tag k="waterway" v="stream" />
	</node>
	<node lat="64.01431944084383" lon="12.203849989512294" id="-27226">
		<tag k="name" v="Trollfossen" />
		<tag k="natural" v="waterfall" />
		<tag k="ssr:stedsnr" v="681688" />
	</node>
	<node lat="64.136391664596" lon="11.59400556099989" id="-27227">
		<tag k="name" v="Litltjønna" />
		<tag k="natural" v="water" />
		<tag k="ssr:stedsnr" v="681766" />
	</node>
	<node lat="64.24012500022067" lon="11.616563879528297" id="-27239">
		<tag k="name" v="Malentjønnin" />
		<tag k="natural" v="water" />
		<tag k="ssr:stedsnr" v="681887" />
	</node>
	<node lat="63.963727777700655" lon="11.70434166508449" id="-27241">
		<tag k="name" v="Fjesmetjønna" />
		<tag k="natural" v="water" />
		<tag k="ssr:stedsnr" v="681901" />
	</node>
	<node lat="64.08604166653282" lon="11.507816658087659" id="-27249">
		<tag k="name" v="Oksåselva" />
		<tag k="ssr:stedsnr" v="507656" />
		<tag k="waterway" v="stream" />
	</node>
	<node lat="64.13109444658215" lon="11.454891672003802" id="-27263">
		<tag k="name" v="Skoganeset" />
		<tag k="ssr:stedsnr" v="508596" />
		<tag k="waterway" v="river" />
	</node>
	<node lat="63.968425003418176" lon="11.496258329664865" id="-27269">
		<tag k="name" v="Fløra" />
		<tag k="ssr:stedsnr" v="508897" />
		<tag k="waterway" v="stream" />
	</node>
	<node lat="63.94714722106961" lon="11.451652784429914" id="-27271">
		<tag k="name" v="Ålbergstjønna" />
		<tag k="natural" v="water" />
		<tag k="ssr:stedsnr" v="508914" />
	</node>
	<node lat="63.92774166664393" lon="11.407361114195947" id="-27273">
		<tag k="name" v="Hamremselva" />
		<tag k="ssr:stedsnr" v="508984" />
		<tag k="waterway" v="river" />
	</node>
	<node lat="63.974769447718494" lon="11.862925009234454" id="-27282">
		<tag k="name" v="Harramyrholman" />
		<tag k="place" v="island" />
		<tag k="ssr:stedsnr" v="514005" />
	</node>
	<node lat="64.00942777473546" lon="11.785366668227011" id="-27284">
		<tag k="name" v="Talsengtjønna" />
		<tag k="natural" v="water" />
		<tag k="ssr:stedsnr" v="514073" />
	</node>
	<node lat="64.17338055950005" lon="11.719688882198211" id="-27288">
		<tag k="name" v="Sagbekken" />
		<tag k="ssr:stedsnr" v="514106" />
		<tag k="waterway" v="stream" />
	</node>
	<node lat="63.89380000432186" lon="11.654108341671998" id="-27302">
		<tag k="name" v="Strandatjønna" />
		<tag k="natural" v="water" />
		<tag k="ssr:stedsnr" v="514466" />
		<tag k="water" v="pond" />
	</node>
	<node lat="64.0472249990986" lon="11.513163882563763" id="-27304">
		<tag k="name" v="Steinsengbekken" />
		<tag k="ssr:stedsnr" v="514514" />
		<tag k="waterway" v="stream" />
	</node>
	<node lat="64.18295000271748" lon="11.94453611970992" id="-27309">
		<tag k="name" v="Forskottbukta" />
		<tag k="natural" v="bay" />
		<tag k="ssr:stedsnr" v="514866" />
	</node>
	<node lat="64.17151388850344" lon="11.852197214362876" id="-27314">
		<tag k="name" v="Brasettangen" />
		<tag k="natural" v="cape" />
		<tag k="ssr:stedsnr" v="514819" />
	</node>
	<node lat="64.14419721981409" lon="11.92147500404852" id="-27315">
		<tag k="name" v="Litløya" />
		<tag k="place" v="island" />
		<tag k="ssr:stedsnr" v="514908" />
	</node>
	<node lat="64.10773888684494" lon="11.23780000701506" id="-27323">
		<tag k="name" v="Husåselva" />
		<tag k="ssr:stedsnr" v="523803" />
		<tag k="waterway" v="river" />
	</node>
	<node lat="63.979638885123045" lon="12.01322499939744" id="-27332">
		<tag k="name" v="Tomsåssela" />
		<tag k="natural" v="water" />
		<tag k="old_name" v="Tomsås-sela" />
		<tag k="ssr:stedsnr" v="532515" />
		<tag k="water" v="lake" />
	</node>
	<node lat="63.99861111330295" lon="10.83556667093943" id="-27333">
		<tag k="name" v="Vertjønna" />
		<tag k="natural" v="water" />
		<tag k="ssr:stedsnr" v="533114" />
	</node>
	<node lat="63.9953444405822" lon="10.810830549963478" id="-27334">
		<tag k="name" v="Sagbukta" />
		<tag k="natural" v="bay" />
		<tag k="ssr:stedsnr" v="533119" />
	</node>
	<node lat="63.9850027771483" lon="10.892111111371928" id="-27336">
		<tag k="name" v="Straumseterdammen" />
		<tag k="ssr:stedsnr" v="533095" />
		<tag k="waterway" v="dam" />
	</node>
	<node lat="63.83046388704557" lon="10.522847222411421" id="-27337">
		<tag k="name" v="Skjerivasselva" />
		<tag k="ssr:stedsnr" v="533220" />
		<tag k="waterway" v="river" />
	</node>
	<node lat="64.00639722565907" lon="11.02881389055318" id="-27343">
		<tag k="name" v="Bjørklibekken" />
		<tag k="ssr:stedsnr" v="534042" />
		<tag k="waterway" v="stream" />
	</node>
	<node lat="64.05133055456625" lon="11.797438885692294" id="-27346">
		<tag k="name" v="Hundtjønna" />
		<tag k="natural" v="water" />
		<tag k="ssr:stedsnr" v="533972" />
	</node>
	<node lat="64.06313333519635" lon="11.83028054621845" id="-27347">
		<tag k="name" v="Kalddeklet" />
		<tag k="natural" v="water" />
		<tag k="ssr:stedsnr" v="533973" />
	</node>
	<node lat="63.939258332696525" lon="11.709216667877618" id="-27354">
		<tag k="name" v="Myrslobekken" />
		<tag k="ssr:stedsnr" v="534584" />
		<tag k="waterway" v="stream" />
	</node>
	<node lat="63.978283329567965" lon="12.097999997319858" id="-27356">
		<tag k="name" v="Kattjønnin" />
		<tag k="natural" v="water" />
		<tag k="ssr:stedsnr" v="534717" />
	</node>
	<node lat="63.96761111544543" lon="12.347227771626704" id="-27358">
		<tag k="name" v="Reinsskinntangen" />
		<tag k="natural" v="cape" />
		<tag k="ssr:stedsnr" v="534668" />
	</node>
	<node lat="64.10734444245986" lon="11.896599990058336" id="-27385">
		<tag k="name" v="Småvatna" />
		<tag k="natural" v="water" />
		<tag k="ssr:stedsnr" v="559241" />
	</node>
	<node lat="64.1873972192211" lon="12.024891667110131" id="-27386">
		<tag k="name" v="Snåsavatnet" />
		<tag k="name:no" v="Snåsavatnet" />
		<tag k="natural" v="water" />
		<tag k="ssr:stedsnr" v="559143" />
		<tag k="water" v="lake" />
	</node>
	<node lat="63.99099444022917" lon="11.965183332159794" id="-27392">
		<tag k="alt_name" v="Sør-Rokta" />
		<tag k="name" v="Sørrokta" />
		<tag k="ssr:stedsnr" v="559400" />
		<tag k="waterway" v="river" />
	</node>
	<node lat="64.10166111026543" lon="11.142449996388471" id="-27393">
		<tag k="name" v="Måggåtjønna" />
		<tag k="natural" v="water" />
		<tag k="ssr:stedsnr" v="559504" />
	</node>
	<node lat="64.10840277476353" lon="10.966922211856547" id="-27399">
		<tag k="name" v="Nordesplingen" />
		<tag k="natural" v="water" />
		<tag k="ssr:stedsnr" v="559495" />
	</node>
	<node lat="64.13658888726452" lon="11.507352778517232" id="-27404">
		<tag k="name" v="Kvernabekken" />
		<tag k="ssr:stedsnr" v="559796" />
		<tag k="waterway" v="stream" />
	</node>
	<node lat="64.01921666493581" lon="11.155980558921318" id="-27412">
		<tag k="name" v="Verstjønnbekken" />
		<tag k="ssr:stedsnr" v="559984" />
		<tag k="waterway" v="stream" />
	</node>
	<node lat="64.02567777794498" lon="11.16403333326293" id="-27413">
		<tag k="name" v="Verstjønna" />
		<tag k="natural" v="water" />
		<tag k="ssr:stedsnr" v="559985" />
	</node>
	<node lat="64.09829722681806" lon="11.514477772274036" id="-27418">
		<tag k="name" v="Lømsen" />
		<tag k="natural" v="water" />
		<tag k="ssr:stedsnr" v="560145" />
		<tag k="water" v="lake" />
	</node>
	<node lat="64.24392500420268" lon="11.79115834067447" id="-27420">
		<tag k="name" v="Purktjønna" />
		<tag k="natural" v="water" />
		<tag k="ssr:stedsnr" v="560400" />
	</node>
	<node lat="64.14688611223478" lon="11.658411116490017" id="-27424">
		<tag k="name" v="Grindbergstjønna" />
		<tag k="natural" v="water" />
		<tag k="ssr:stedsnr" v="560782" />
	</node>
	<node lat="64.00039999866824" lon="10.946847211947757" id="-27427">
		<tag k="name" v="Gåtvasslielva" />
		<tag k="ssr:stedsnr" v="560891" />
		<tag k="waterway" v="stream" />
	</node>
	<node lat="64.13126944323922" lon="11.539755558726473" id="-27429">
		<tag k="name" v="Lomtjønna" />
		<tag k="natural" v="water" />
		<tag k="ssr:stedsnr" v="689623" />
	</node>
	<node lat="64.11168888997214" lon="11.249711103365906" id="-27437">
		<tag k="name" v="Geilbekken" />
		<tag k="ssr:stedsnr" v="690218" />
		<tag k="waterway" v="stream" />
	</node>
	<node lat="64.05561944281396" lon="11.536472221279285" id="-27452">
		<tag k="name" v="Asplangvatnet" />
		<tag k="natural" v="water" />
		<tag k="ssr:stedsnr" v="690766" />
		<tag k="water" v="lake" />
	</node>
	<node lat="64.14931944707854" lon="11.487086102069412" id="-27473">
		<tag k="name" v="Oppdalsbekken" />
		<tag k="ssr:stedsnr" v="691569" />
		<tag k="waterway" v="stream" />
	</node>
	<node lat="64.1535388890748" lon="11.482922219864683" id="-27474">
		<tag k="name" v="Tessemengbekken" />
		<tag k="ssr:stedsnr" v="691570" />
		<tag k="waterway" v="stream" />
	</node>
	<node lat="64.15497778215565" lon="11.502172224712067" id="-27475">
		<tag k="name" v="Oksåstjønna" />
		<tag k="natural" v="water" />
		<tag k="ssr:stedsnr" v="691572" />
	</node>
	<node lat="64.12408333322318" lon="11.38729444065299" id="-27482">
		<tag k="name" v="Vestre Kleivabekken" />
		<tag k="ssr:stedsnr" v="568479" />
		<tag k="waterway" v="stream" />
	</node>
	<node lat="64.13009999744729" lon="11.503997217490264" id="-27493">
		<tag k="name" v="Storaunvatnet" />
		<tag k="natural" v="water" />
		<tag k="ssr:stedsnr" v="568522" />
		<tag k="water" v="lake" />
	</node>
	<node lat="63.99099444428446" lon="11.790394436301678" id="-27525">
		<tag k="name" v="Vestre Sjurslættbekken" />
		<tag k="ssr:stedsnr" v="574056" />
		<tag k="waterway" v="stream" />
	</node>
	<node lat="64.11145833793553" lon="11.651197215690852" id="-27531">
		<tag k="name" v="Aksneset" />
		<tag k="natural" v="cape" />
		<tag k="ssr:stedsnr" v="574259" />
	</node>
	<node lat="64.0179194448892" lon="11.669955551365202" id="-27534">
		<tag k="name" v="Fossemfossen" />
		<tag k="natural" v="waterfall" />
		<tag k="ssr:stedsnr" v="574404" />
	</node>
	<node lat="64.12005555108956" lon="11.606394452764496" id="-27537">
		<tag k="name" v="Knesbukta" />
		<tag k="natural" v="bay" />
		<tag k="ssr:stedsnr" v="574461" />
	</node>
	<node lat="64.1772027787431" lon="11.81526388775351" id="-27548">
		<tag k="name" v="Nødalfossen" />
		<tag k="natural" v="waterfall" />
		<tag k="ssr:stedsnr" v="574910" />
	</node>
	<node lat="64.17307777395737" lon="11.773505545391673" id="-27549">
		<tag k="name" v="Litlvasselva" />
		<tag k="ssr:stedsnr" v="574911" />
		<tag k="waterway" v="river" />
	</node>
	<node lat="64.18666110911461" lon="11.880313881150842" id="-27551">
		<tag k="name" v="Nastadfossen" />
		<tag k="natural" v="waterfall" />
		<tag k="ssr:stedsnr" v="574915" />
	</node>
	<node lat="64.12975833214672" lon="11.698538885549333" id="-27565">
		<tag k="name" v="Putten" />
		<tag k="place" v="locality" />
		<tag k="ssr:stedsnr" v="696094" />
	</node>
	<node lat="64.14038889265947" lon="11.779005553807256" id="-27568">
		<tag k="name" v="Måsskjæra" />
		<tag k="place" v="islet" />
		<tag k="ssr:stedsnr" v="696050" />
	</node>
	<node lat="63.98689444121167" lon="11.798430551251013" id="-27569">
		<tag k="name" v="Østre Sjurslættbekken" />
		<tag k="ssr:stedsnr" v="696062" />
		<tag k="waterway" v="stream" />
	</node>
	<node lat="63.96558888858007" lon="10.985722224099195" id="-27570">
		<tag k="name" v="Sandslielva" />
		<tag k="ssr:stedsnr" v="696129" />
		<tag k="waterway" v="river" />
	</node>
	<node lat="64.08768055728169" lon="11.200772230328557" id="-27603">
		<tag k="name" v="Skulen" />
		<tag k="natural" v="waterfall" />
		<tag k="ssr:stedsnr" v="696962" />
	</node>
	<node lat="64.19468333576394" lon="11.42054723261544" id="-27614">
		<tag k="name" v="Kvennåelva" />
		<tag k="ssr:stedsnr" v="593458" />
		<tag k="waterway" v="river" />
	</node>
	<node lat="63.97708055297113" lon="11.710752782058288" id="-27616">
		<tag k="name" v="Damtjønnbekken" />
		<tag k="ssr:stedsnr" v="593902" />
		<tag k="waterway" v="stream" />
	</node>
	<node lat="64.21420555104653" lon="11.640797226043892" id="-27625">
		<tag k="name" v="Mårnsoltjønna" />
		<tag k="natural" v="water" />
		<tag k="ssr:stedsnr" v="594206" />
	</node>
	<node lat="63.9961472262803" lon="12.065280548741118" id="-27630">
		<tag k="name" v="Orrhanetangen" />
		<tag k="natural" v="cape" />
		<tag k="ssr:stedsnr" v="594302" />
	</node>
	<node lat="64.11056666334784" lon="11.981913881195952" id="-27635">
		<tag k="name" v="Seterelva" />
		<tag k="ssr:stedsnr" v="594452" />
		<tag k="waterway" v="river" />
	</node>
	<node lat="63.95279999743414" lon="12.209675002465916" id="-27638">
		<tag k="name" v="Langtangen" />
		<tag k="natural" v="cape" />
		<tag k="ssr:stedsnr" v="594622" />
	</node>
	<node lat="64.29363611057926" lon="11.951175004344815" id="-27640">
		<tag k="name" v="Midterbogna" />
		<tag k="natural" v="strait" />
		<tag k="ssr:stedsnr" v="594753" />
	</node>
	<node lat="64.05753055919676" lon="11.314511102557633" id="-27672">
		<tag k="name" v="Liavatnet" />
		<tag k="natural" v="water" />
		<tag k="ssr:stedsnr" v="620011" />
	</node>
	<node lat="64.1434694446721" lon="11.802283339577007" id="-27695">
		<tag k="name" v="Langøya" />
		<tag k="place" v="island" />
		<tag k="ssr:stedsnr" v="620272" />
	</node>
	<node lat="63.97489999610714" lon="11.862397217180257" id="-27698">
		<tag k="name" v="Lauva" />
		<tag k="ssr:stedsnr" v="620402" />
		<tag k="waterway" v="river" />
	</node>
	<node lat="63.92383611128272" lon="11.736105564949563" id="-27700">
		<tag k="name" v="Hystadtjønna" />
		<tag k="natural" v="water" />
		<tag k="ssr:stedsnr" v="620469" />
	</node>
	<node lat="63.927507472198016" lon="11.812736984332643" id="-27701">
		<tag k="alt_name" v="Langvatnet, vestre" />
		<tag k="fixme" v="multiple name tags, choose one and add the other to alt_name" />
		<tag k="name" v="Langvatnet;Vestre Langvatnet" />
		<tag k="natural" v="water" />
		<tag k="ssr:stedsnr" v="620472" />
	</node>
	<node lat="63.93037222280679" lon="12.003783330975324" id="-27702">
		<tag k="name" v="Langtjønna" />
		<tag k="natural" v="water" />
		<tag k="ssr:stedsnr" v="620476" />
	</node>
	<node lat="64.24621389303717" lon="11.943441663392296" id="-27708">
		<tag k="name" v="Litlbutjønna" />
		<tag k="natural" v="water" />
		<tag k="ssr:stedsnr" v="620386" />
	</node>
	<node lat="63.79072222404397" lon="10.487588898537911" id="-27710">
		<tag k="name" v="Valtjønnin" />
		<tag k="natural" v="water" />
		<tag k="ssr:stedsnr" v="620389" />
	</node>
	<node lat="64.09614166450719" lon="11.096727769663367" id="-27711">
		<tag k="name" v="Litlvatnet" />
		<tag k="natural" v="water" />
		<tag k="ssr:stedsnr" v="620506" />
	</node>
	<node lat="64.19521667023689" lon="11.474647217555058" id="-27717">
		<tag k="name" v="Fiskløysa" />
		<tag k="natural" v="water" />
		<tag k="ssr:stedsnr" v="620831" />
	</node>
	<node lat="64.01604444532094" lon="10.77031667557523" id="-27724">
		<tag k="name" v="Kastbotnen" />
		<tag k="natural" v="water" />
		<tag k="ssr:stedsnr" v="620967" />
	</node>
	<node lat="64.11846111276425" lon="11.43887500130024" id="-27727">
		<tag k="name" v="Stibekken" />
		<tag k="ssr:stedsnr" v="629519" />
		<tag k="waterway" v="stream" />
	</node>
	<node lat="64.13890278169008" lon="11.436008325918749" id="-27728">
		<tag k="name" v="Kvernhusbekken" />
		<tag k="ssr:stedsnr" v="629524" />
		<tag k="waterway" v="stream" />
	</node>
	<node lat="64.12494444699149" lon="11.447627769782198" id="-27731">
		<tag k="name" v="Berghølen" />
		<tag k="ssr:stedsnr" v="629554" />
		<tag k="waterway" v="river" />
	</node>
	<node lat="64.15137222025915" lon="11.502419436989623" id="-27741">
		<tag k="name" v="Oksåsbekken" />
		<tag k="ssr:stedsnr" v="629595" />
		<tag k="waterway" v="stream" />
	</node>
	<node lat="63.97918333697155" lon="11.867652776364935" id="-27750">
		<tag k="name" v="Kvernhusfossen" />
		<tag k="natural" v="waterfall" />
		<tag k="ssr:stedsnr" v="635011" />
	</node>
	<node lat="63.980783335847725" lon="11.086016669109059" id="-27753">
		<tag k="name" v="Geitvikbekken" />
		<tag k="ssr:stedsnr" v="635108" />
		<tag k="waterway" v="stream" />
	</node>
	<node lat="64.08459999676141" lon="11.712049997175775" id="-27755">
		<tag k="name" v="Dybekken" />
		<tag k="ssr:stedsnr" v="635134" />
		<tag k="waterway" v="stream" />
	</node>
	<node lat="64.13631111273409" lon="11.719594448649632" id="-27757">
		<tag k="name" v="Flekstadbukta" />
		<tag k="natural" v="bay" />
		<tag k="ssr:stedsnr" v="635080" />
	</node>
	<node lat="64.15478333287129" lon="11.63443055810168" id="-27759">
		<tag k="name" v="Lomtjønna" />
		<tag k="natural" v="water" />
		<tag k="ssr:stedsnr" v="635410" />
	</node>
	<node lat="64.14526666358466" lon="11.939633324822909" id="-27770">
		<tag k="name" v="Haldopøla" />
		<tag k="place" v="locality" />
		<tag k="ssr:stedsnr" v="635907" />
	</node>
	<node lat="64.12091944539011" lon="11.96320833716391" id="-27776">
		<tag k="name" v="Nordbotnet" />
		<tag k="natural" v="bay" />
		<tag k="ssr:stedsnr" v="635897" />
	</node>
	<node lat="64.07491111237236" lon="11.749655556083088" id="-27778">
		<tag k="name" v="Klæbuelva" />
		<tag k="ssr:stedsnr" v="635981" />
		<tag k="waterway" v="stream" />
	</node>
	<node lat="64.02784444472456" lon="10.780041674849523" id="-27791">
		<tag k="name" v="Skamnatjønna" />
		<tag k="natural" v="water" />
		<tag k="ssr:stedsnr" v="647427" />
	</node>
	<node lat="64.07531389045167" lon="10.97397499714206" id="-27802">
		<tag k="name" v="Bjønnatangen" />
		<tag k="natural" v="cape" />
		<tag k="ssr:stedsnr" v="654107" />
	</node>
	<node lat="64.06018611044128" lon="11.117697212115496" id="-27804">
		<tag k="name" v="Merkestjønna" />
		<tag k="natural" v="water" />
		<tag k="ssr:stedsnr" v="654698" />
	</node>
	<node lat="64.00257777401428" lon="12.08635277533826" id="-27814">
		<tag k="name" v="Lustadtangen" />
		<tag k="natural" v="cape" />
		<tag k="ssr:stedsnr" v="655294" />
	</node>
	<node lat="63.92013333485809" lon="11.824633342766516" id="-27817">
		<tag k="name" v="Brigertjønna" />
		<tag k="natural" v="water" />
		<tag k="ssr:stedsnr" v="655602" />
	</node>
	<node lat="63.92585555523503" lon="10.897413879295666" id="-27847">
		<tag k="fixme" v="multiple name tags, choose one and add the other to alt_name" />
		<tag k="name" v="Steintjønna;Skjelstadsteintjønna" />
		<tag k="natural" v="water" />
		<tag k="ssr:stedsnr" v="664684" />
	</node>
	<node lat="63.853716670236835" lon="10.666072215174283" id="-27866">
		<tag k="name" v="Damvatnet" />
		<tag k="natural" v="water" />
		<tag k="ssr:stedsnr" v="680303" />
	</node>
	<node lat="63.90037500117746" lon="10.716258325286587" id="-27867">
		<tag k="name" v="Holmtjønna" />
		<tag k="natural" v="water" />
		<tag k="ssr:stedsnr" v="680315" />
	</node>
	<node lat="63.851038891838186" lon="10.654724991871202" id="-27868">
		<tag k="name" v="Setervatnet" />
		<tag k="natural" v="water" />
		<tag k="ssr:stedsnr" v="680514" />
	</node>
	<node lat="63.8455277820674" lon="10.541733323607735" id="-27869">
		<tag k="name" v="Litlskjerivatnet" />
		<tag k="natural" v="water" />
		<tag k="ssr:stedsnr" v="680520" />
	</node>
	<node lat="63.895233330373" lon="11.49640555598769" id="-27881">
		<tag k="alt_name" v="Berstadvatnet" />
		<tag k="name" v="Bergstadvatnet" />
		<tag k="natural" v="water" />
		<tag k="ssr:stedsnr" v="681069" />
		<tag k="water" v="lake" />
	</node>
	<node lat="63.96336111406337" lon="11.962591675818432" id="-27886">
		<tag k="name" v="Fånetta" />
		<tag k="ssr:stedsnr" v="681373" />
		<tag k="waterway" v="stream" />
	</node>
	<node lat="64.09203055370517" lon="10.925916659670937" id="-27891">
		<tag k="name" v="Ingertjønnin" />
		<tag k="natural" v="water" />
		<tag k="ssr:stedsnr" v="681525" />
	</node>
	<node lat="64.07508055277158" lon="11.580422225447657" id="-27892">
		<tag k="name" v="Stamvatnet" />
		<tag k="natural" v="water" />
		<tag k="ssr:stedsnr" v="681207" />
	</node>
	<node lat="64.13219999848225" lon="11.781352781504744" id="-27893">
		<tag k="name" v="Sagtangen" />
		<tag k="natural" v="cape" />
		<tag k="ssr:stedsnr" v="681258" />
	</node>
	<node lat="64.1416194441232" lon="12.031177772570532" id="-27899">
		<tag k="alt_name" v="Lauvhaugbekken" />
		<tag k="name" v="Heggesbekken" />
		<tag k="ssr:stedsnr" v="681278" />
		<tag k="waterway" v="stream" />
	</node>
	<node lat="63.98079721772199" lon="11.828647226579614" id="-27901">
		<tag k="name" v="Håmmårtjønna" />
		<tag k="natural" v="water" />
		<tag k="ssr:stedsnr" v="681409" />
	</node>
	<node lat="64.23194444229986" lon="11.7880111170239" id="-27903">
		<tag k="name" v="Flekstadtjønna" />
		<tag k="natural" v="water" />
		<tag k="ssr:stedsnr" v="681418" />
	</node>
	<node lat="64.18731666777425" lon="11.772480560748228" id="-27906">
		<tag k="fixme" v="multiple name tags, choose one and add the other to alt_name" />
		<tag k="name" v="Nollsåa;Skogelva" />
		<tag k="ssr:stedsnr" v="681464" />
		<tag k="waterway" v="stream" />
	</node>
	<node lat="63.94880555859649" lon="11.895797216349532" id="-27907">
		<tag k="name" v="Saubjørntjønna" />
		<tag k="natural" v="water" />
		<tag k="ssr:stedsnr" v="681470" />
	</node>
	<node lat="64.15862499777928" lon="11.447150005814143" id="-27914">
		<tag k="name" v="Endrebergstjønna" />
		<tag k="natural" v="water" />
		<tag k="ssr:stedsnr" v="681867" />
	</node>
	<node lat="64.03711944591002" lon="11.155908335966586" id="-27923">
		<tag k="name" v="Gokshaugtjønnin" />
		<tag k="natural" v="water" />
		<tag k="ssr:stedsnr" v="681939" />
	</node>
	<node lat="63.87334444514013" lon="11.49952221265011" id="-27940">
		<tag k="name" v="Myrbekken" />
		<tag k="ssr:stedsnr" v="690738" />
		<tag k="waterway" v="stream" />
	</node>
	<node lat="64.07261666654395" lon="11.558252769195528" id="-27942">
		<tag k="name" v="Merkestjønna" />
		<tag k="natural" v="water" />
		<tag k="ssr:stedsnr" v="690678" />
	</node>
	<node lat="64.11750832934848" lon="11.350269446397496" id="-27944">
		<tag k="name" v="Strandabekken" />
		<tag k="ssr:stedsnr" v="690807" />
		<tag k="waterway" v="stream" />
	</node>
	<node lat="64.08901110861302" lon="11.335124999276267" id="-27947">
		<tag k="name" v="Utvikelva" />
		<tag k="ssr:stedsnr" v="690884" />
		<tag k="waterway" v="stream" />
	</node>
	<node lat="63.97241666462578" lon="11.491261119785118" id="-27949">
		<tag k="name" v="Litlfløra" />
		<tag k="ssr:stedsnr" v="690898" />
		<tag k="waterway" v="stream" />
	</node>
	<node lat="63.97314444099083" lon="11.840952780542544" id="-27954">
		<tag k="name" v="Svarttjønna" />
		<tag k="natural" v="water" />
		<tag k="ssr:stedsnr" v="696017" />
	</node>
	<node lat="64.00307777777924" lon="11.78264166658231" id="-27957">
		<tag k="name" v="Talsengbekken" />
		<tag k="ssr:stedsnr" v="696069" />
		<tag k="waterway" v="stream" />
	</node>
	<node lat="63.82757500408328" lon="10.632347212742173" id="-27959">
		<tag k="name" v="Raudmoldelva" />
		<tag k="ssr:stedsnr" v="696076" />
		<tag k="waterway" v="river" />
	</node>
	<node lat="64.13298333493643" lon="11.68852499790909" id="-27961">
		<tag k="name" v="Aunelva" />
		<tag k="ssr:stedsnr" v="696104" />
		<tag k="waterway" v="river" />
	</node>
	<node lat="64.16943333001988" lon="11.723605552484303" id="-27962">
		<tag k="name" v="Grønneset" />
		<tag k="natural" v="cape" />
		<tag k="ssr:stedsnr" v="696106" />
	</node>
	<node lat="64.12008333755985" lon="11.742455563624215" id="-27964">
		<tag k="name" v="Kalltrøbekken" />
		<tag k="ssr:stedsnr" v="696118" />
		<tag k="waterway" v="stream" />
	</node>
	<node lat="64.01613611012964" lon="11.72139445169193" id="-27967">
		<tag k="name" v="Kolåsneset" />
		<tag k="natural" v="cape" />
		<tag k="ssr:stedsnr" v="696404" />
	</node>
	<node lat="64.19701666628163" lon="11.797761108413336" id="-27979">
		<tag k="name" v="Svarttjønna" />
		<tag k="natural" v="water" />
		<tag k="ssr:stedsnr" v="696768" />
	</node>
	<node lat="63.973641662438155" lon="11.920733324452108" id="-27981">
		<tag k="name" v="Sagfossen" />
		<tag k="natural" v="waterfall" />
		<tag k="ssr:stedsnr" v="696917" />
	</node>
	<node lat="63.991199995600304" lon="11.140013894981161" id="-27983">
		<tag k="name" v="Kvernabekken" />
		<tag k="ssr:stedsnr" v="696974" />
		<tag k="waterway" v="stream" />
	</node>
	<node lat="63.99551111283108" lon="10.841236110673947" id="-27998">
		<tag k="name" v="Friarbukta" />
		<tag k="natural" v="bay" />
		<tag k="ssr:stedsnr" v="897127" />
	</node>
	<node lat="63.992625002846275" lon="10.915247232336121" id="-27999">
		<tag k="name" v="Storviktangen" />
		<tag k="natural" v="cape" />
		<tag k="ssr:stedsnr" v="897076" />
	</node>
	<node lat="64.11536388970121" lon="11.100422232347663" id="-28021">
		<tag k="name" v="Finnkoibukta" />
		<tag k="natural" v="bay" />
		<tag k="ssr:stedsnr" v="897630" />
	</node>
	<node lat="64.01360833697741" lon="11.949786112502984" id="-28024">
		<tag k="name" v="Hesttjønnin" />
		<tag k="natural" v="water" />
		<tag k="ssr:stedsnr" v="897853" />
	</node>
	<node lat="64.03996944455774" lon="11.854661102421364" id="-28026">
		<tag k="name" v="Heggnesdammen" />
		<tag k="ssr:stedsnr" v="897868" />
		<tag k="waterway" v="dam" />
	</node>
	<node lat="64.20789257881465" lon="11.583489093653059" id="-28033">
		<tag k="name" v="Lauvtangen" />
		<tag k="natural" v="cape" />
		<tag k="ssr:stedsnr" v="898048" />
	</node>
	<node lat="64.02701388541095" lon="12.073536119798035" id="-28048">
		<tag k="name" v="Firkantipøla" />
		<tag k="natural" v="water" />
		<tag k="ssr:stedsnr" v="898278" />
	</node>
	<node lat="63.98898055967325" lon="12.11822778601813" id="-28050">
		<tag k="name" v="Turbekken" />
		<tag k="ssr:stedsnr" v="898296" />
		<tag k="waterway" v="stream" />
	</node>
	<node lat="63.99856388920381" lon="12.11987222391831" id="-28052">
		<tag k="name" v="Sørvalen" />
		<tag k="natural" v="shoal" />
		<tag k="place" v="locality" />
		<tag k="ssr:stedsnr" v="898298" />
	</node>
	<node lat="64.12530555857889" lon="12.025605556750147" id="-28055">
		<tag k="name" v="Råtjønnbekken" />
		<tag k="ssr:stedsnr" v="898444" />
		<tag k="waterway" v="stream" />
	</node>
	<node lat="63.94905555138776" lon="11.88887500720469" id="-28062">
		<tag k="name" v="Raudfosstjønna" />
		<tag k="natural" v="water" />
		<tag k="ssr:stedsnr" v="898583" />
	</node>
	<node lat="63.95715277756704" lon="12.054766673787634" id="-28064">
		<tag k="name" v="Grindmyrbekken" />
		<tag k="ssr:stedsnr" v="898525" />
		<tag k="waterway" v="stream" />
	</node>
	<node lat="63.9259444398106" lon="12.036433342505905" id="-28065">
		<tag k="name" v="Litlfjorden" />
		<tag k="natural" v="bay" />
		<tag k="ssr:stedsnr" v="898527" />
	</node>
	<node lat="63.91774999963013" lon="11.705730552690758" id="-28066">
		<tag k="name" v="Litl-Hosetbekken" />
		<tag k="ssr:stedsnr" v="898543" />
		<tag k="waterway" v="stream" />
	</node>
	<node lat="63.977908328746445" lon="12.176194453979551" id="-28070">
		<tag k="name" v="Merkesbekken" />
		<tag k="ssr:stedsnr" v="898632" />
		<tag k="waterway" v="stream" />
	</node>
	<node lat="64.0334527767394" lon="10.82359444890569" id="-28071">
		<tag k="name" v="Kvennhusbekken" />
		<tag k="ssr:stedsnr" v="714611" />
		<tag k="waterway" v="stream" />
	</node>
	<node lat="64.00550278091713" lon="10.954316676909963" id="-28079">
		<tag k="name" v="Kjelholmen" />
		<tag k="place" v="islet" />
		<tag k="ssr:stedsnr" v="715073" />
	</node>
	<node lat="63.99504444147102" lon="10.853922231980473" id="-28081">
		<tag k="name" v="Grønneset" />
		<tag k="natural" v="cape" />
		<tag k="ssr:stedsnr" v="715115" />
	</node>
	<node lat="64.22148055338717" lon="11.942449992427255" id="-28086">
		<tag k="name" v="Stordeklet" />
		<tag k="natural" v="water" />
		<tag k="ssr:stedsnr" v="715814" />
	</node>
	<node lat="63.954577776845035" lon="11.74566944945179" id="-28101">
		<tag k="name" v="Lomtjønna" />
		<tag k="natural" v="water" />
		<tag k="ssr:stedsnr" v="898931" />
	</node>
	<node lat="64.24592222339086" lon="11.64991388473574" id="-28103">
		<tag k="name" v="Rognvassbekken" />
		<tag k="ssr:stedsnr" v="716127" />
		<tag k="waterway" v="river" />
	</node>
	<node lat="64.17038610751591" lon="11.691394435203044" id="-28104">
		<tag k="name" v="Seterbekken" />
		<tag k="ssr:stedsnr" v="716173" />
		<tag k="waterway" v="stream" />
	</node>
	<node lat="64.03258888923467" lon="12.135944438431343" id="-28106">
		<tag k="name" v="Austerengbekken" />
		<tag k="ssr:stedsnr" v="716475" />
		<tag k="waterway" v="stream" />
	</node>
	<node lat="64.03611111535264" lon="11.160616663934606" id="-28107">
		<tag k="name" v="Øver Gaukstjønna" />
		<tag k="natural" v="water" />
		<tag k="ssr:stedsnr" v="716483" />
	</node>
	<node lat="64.12826944454925" lon="12.00847500298881" id="-28108">
		<tag k="name" v="Litlgodtjønna" />
		<tag k="natural" v="water" />
		<tag k="ssr:stedsnr" v="716485" />
	</node>
	<node lat="63.95435278224487" lon="12.070063882654676" id="-28111">
		<tag k="name" v="Lomtjønna" />
		<tag k="natural" v="water" />
		<tag k="ssr:stedsnr" v="716574" />
	</node>
	<node lat="63.96999444631879" lon="12.351419436402535" id="-28115">
		<tag k="name" v="Loråsbukta" />
		<tag k="natural" v="bay" />
		<tag k="ssr:stedsnr" v="716676" />
	</node>
	<node lat="63.954758334180255" lon="12.310163882396154" id="-28116">
		<tag k="name" v="Skiftesholmen" />
		<tag k="place" v="islet" />
		<tag k="ssr:stedsnr" v="716680" />
	</node>
	<node lat="64.26434999995199" lon="11.785683329167995" id="-28117">
		<tag k="name" v="Spøtta" />
		<tag k="ssr:stedsnr" v="716831" />
		<tag k="waterway" v="stream" />
	</node>
	<node lat="63.95566944482356" lon="11.724425001669525" id="-28119">
		<tag k="name" v="Linbekken" />
		<tag k="ssr:stedsnr" v="716915" />
		<tag k="waterway" v="stream" />
	</node>
	<node lat="63.958197223292544" lon="12.12323333470828" id="-28151">
		<tag k="name" v="Badstubekken" />
		<tag k="ssr:stedsnr" v="741837" />
		<tag k="waterway" v="stream" />
	</node>
	<node lat="64.0882472249972" lon="11.698972226884653" id="-28158">
		<tag k="name" v="Øysterdyen" />
		<tag k="natural" v="water" />
		<tag k="ssr:stedsnr" v="742231" />
		<tag k="water" v="lake" />
	</node>
	<node lat="64.10386666512498" lon="11.85329444343162" id="-28159">
		<tag k="name" v="Kvernatjønna" />
		<tag k="natural" v="water" />
		<tag k="ssr:stedsnr" v="742235" />
	</node>
	<node lat="64.11726944635237" lon="11.996874991382827" id="-28160">
		<tag k="name" v="Øyingen" />
		<tag k="natural" v="water" />
		<tag k="ssr:stedsnr" v="742240" />
		<tag k="water" v="lake" />
	</node>
	<node lat="64.06681388838463" lon="11.898413888845432" id="-28165">
		<tag k="name" v="Nordgardsneset" />
		<tag k="natural" v="cape" />
		<tag k="ssr:stedsnr" v="742307" />
	</node>
	<node lat="63.988705558645314" lon="11.825827785118447" id="-28166">
		<tag k="name" v="Rutlbekken" />
		<tag k="ssr:stedsnr" v="742310" />
		<tag k="waterway" v="stream" />
	</node>
	<node lat="64.09146666591268" lon="11.85214721805902" id="-28167">
		<tag k="name" v="Storhenningen" />
		<tag k="natural" v="water" />
		<tag k="ssr:stedsnr" v="742333" />
	</node>
	<node lat="63.799691468269096" lon="10.480838203289707" id="-28168">
		<tag k="name" v="Grønlibekken" />
		<tag k="ssr:stedsnr" v="742411" />
		<tag k="waterway" v="stream" />
	</node>
	<node lat="63.94088333498874" lon="11.821741658260079" id="-28169">
		<tag k="name" v="Myrbekken" />
		<tag k="ssr:stedsnr" v="742441" />
		<tag k="waterway" v="stream" />
	</node>
	<node lat="63.93496666658704" lon="12.05070000642414" id="-28170">
		<tag k="name" v="Hauktangen" />
		<tag k="natural" v="cape" />
		<tag k="ssr:stedsnr" v="742442" />
	</node>
	<node lat="64.07504444384455" lon="11.094916676519599" id="-28177">
		<tag k="name" v="Finntjønna" />
		<tag k="natural" v="water" />
		<tag k="ssr:stedsnr" v="742505" />
	</node>
	<node lat="64.07673055970798" lon="11.194227774256362" id="-28178">
		<tag k="name" v="Koltjønna" />
		<tag k="natural" v="water" />
		<tag k="ssr:stedsnr" v="742508" />
	</node>
	<node lat="64.129611113556" lon="11.142322224365175" id="-28182">
		<tag k="name" v="Litlferja" />
		<tag k="natural" v="water" />
		<tag k="ssr:stedsnr" v="742589" />
	</node>
	<node lat="64.01928610762673" lon="11.070983331139614" id="-28192">
		<tag k="name" v="Malbubekken" />
		<tag k="ssr:stedsnr" v="742992" />
		<tag k="waterway" v="stream" />
	</node>
	<node lat="63.79281944811372" lon="10.487550001491911" id="-28241">
		<tag k="name" v="Feitauretjønna" />
		<tag k="natural" v="water" />
		<tag k="ssr:stedsnr" v="756002" />
	</node>
	<node lat="64.12719999591691" lon="11.703411110765815" id="-28245">
		<tag k="name" v="Hølen" />
		<tag k="natural" v="shoal" />
		<tag k="place" v="locality" />
		<tag k="ssr:stedsnr" v="756099" />
	</node>
	<node lat="64.13179444753729" lon="11.709772218446492" id="-28246">
		<tag k="name" v="Hauganøra" />
		<tag k="place" v="locality" />
		<tag k="ssr:stedsnr" v="756100" />
	</node>
	<node lat="64.14556666252979" lon="11.572369450553797" id="-28251">
		<tag k="name" v="Lomtjønna" />
		<tag k="natural" v="water" />
		<tag k="ssr:stedsnr" v="756403" />
	</node>
	<node lat="64.17255277725612" lon="11.826816663806435" id="-28254">
		<tag k="name" v="Teingalneset" />
		<tag k="natural" v="cape" />
		<tag k="ssr:stedsnr" v="756906" />
	</node>
	<node lat="63.98227500375266" lon="12.006777780353035" id="-28273">
		<tag k="name" v="Havdøra" />
		<tag k="place" v="locality" />
		<tag k="ssr:stedsnr" v="775506" />
	</node>
	<node lat="64.01648333222988" lon="10.896352773511072" id="-28274">
		<tag k="name" v="Vargtjønna" />
		<tag k="natural" v="water" />
		<tag k="ssr:stedsnr" v="776103" />
	</node>
	<node lat="63.9307555552183" lon="10.812602782947387" id="-28277">
		<tag k="name" v="Lyvasselva" />
		<tag k="ssr:stedsnr" v="776155" />
		<tag k="waterway" v="river" />
	</node>
	<node lat="64.22592778092695" lon="11.576033324779841" id="-28280">
		<tag k="name" v="Munktjønna" />
		<tag k="natural" v="water" />
		<tag k="ssr:stedsnr" v="776057" />
	</node>
	<node lat="64.20442500277814" lon="11.638497226541798" id="-28282">
		<tag k="name" v="Holmtjønnbekken" />
		<tag k="ssr:stedsnr" v="776060" />
		<tag k="waterway" v="stream" />
	</node>
	<node lat="64.16643888534189" lon="11.699686106604489" id="-28286">
		<tag k="name" v="Kalvtjønnbekken" />
		<tag k="ssr:stedsnr" v="776217" />
		<tag k="waterway" v="stream" />
	</node>
	<node lat="64.01036666254004" lon="12.087797228005668" id="-28300">
		<tag k="name" v="Vikabekken" />
		<tag k="ssr:stedsnr" v="777270" />
		<tag k="waterway" v="stream" />
	</node>
	<node lat="64.00415277657793" lon="12.09066389253296" id="-28301">
		<tag k="name" v="Lomtjønna" />
		<tag k="natural" v="water" />
		<tag k="ssr:stedsnr" v="777271" />
	</node>
	<node lat="64.01653610782223" lon="12.021713883146084" id="-28302">
		<tag k="name" v="Domphølet" />
		<tag k="place" v="locality" />
		<tag k="ssr:stedsnr" v="777505" />
	</node>
	<node lat="63.969319447669655" lon="12.05711665992605" id="-28303">
		<tag k="name" v="Hyllvadbekken" />
		<tag k="ssr:stedsnr" v="777708" />
		<tag k="waterway" v="stream" />
	</node>
	<node lat="63.938094441192234" lon="12.167869434356259" id="-28304">
		<tag k="name" v="Langtjønna" />
		<tag k="natural" v="water" />
		<tag k="ssr:stedsnr" v="777711" />
	</node>
	<node lat="64.01780833698344" lon="11.7179250046143" id="-28317">
		<tag k="alt_name" v="Overreinfossen" />
		<tag k="name" v="Ovreinfossen" />
		<tag k="natural" v="waterfall" />
		<tag k="ssr:stedsnr" v="782751" />
	</node>
	<node lat="63.895183330866686" lon="10.770933335895979" id="-28331">
		<tag k="name" v="Småtjønnin" />
		<tag k="natural" v="water" />
		<tag k="ssr:stedsnr" v="785759" />
		<tag k="water" v="lake" />
	</node>
	<node lat="63.847494448528714" lon="11.60794167064817" id="-28342">
		<tag k="name" v="Leksdalsvatnet" />
		<tag k="natural" v="water" />
		<tag k="ssr:stedsnr" v="802177" />
		<tag k="water" v="lake" />
	</node>
	<node lat="64.12837222393411" lon="11.755936106996423" id="-28343">
		<tag k="name" v="Håbotsbukta" />
		<tag k="natural" v="bay" />
		<tag k="ssr:stedsnr" v="802304" />
	</node>
	<node lat="64.13102221793457" lon="11.92704166659221" id="-28344">
		<tag k="name" v="Skavdalsbekken" />
		<tag k="ssr:stedsnr" v="802320" />
		<tag k="waterway" v="stream" />
	</node>
	<node lat="64.07151389077052" lon="11.656327786093648" id="-28350">
		<tag k="name" v="Bergsbukta" />
		<tag k="natural" v="bay" />
		<tag k="ssr:stedsnr" v="803026" />
	</node>
	<node lat="64.04869166815351" lon="10.823380558817956" id="-28352">
		<tag k="alt_name" v="Reinsjøen, austre" />
		<tag k="name" v="Austre Reinsjøen" />
		<tag k="natural" v="water" />
		<tag k="ssr:stedsnr" v="802980" />
		<tag k="water" v="lake" />
	</node>
	<node lat="64.08432222582373" lon="11.412819440976" id="-28359">
		<tag k="name" v="Prisringvatnet" />
		<tag k="natural" v="water" />
		<tag k="ssr:stedsnr" v="803207" />
	</node>
	<node lat="64.11179167030178" lon="11.848047216148302" id="-28365">
		<tag k="alt_name" v="Tosttjønna" />
		<tag k="name" v="Tosstjønna" />
		<tag k="natural" v="water" />
		<tag k="ssr:stedsnr" v="803263" />
	</node>
	<node lat="64.12040000331156" lon="11.95537500790335" id="-28366">
		<tag k="alt_name" v="Svartjønnin" />
		<tag k="name" v="Svarttjønnin" />
		<tag k="natural" v="water" />
		<tag k="ssr:stedsnr" v="803265" />
	</node>
	<node lat="64.11443055791443" lon="12.006452777808788" id="-28367">
		<tag k="name" v="Storøya" />
		<tag k="place" v="islet" />
		<tag k="ssr:stedsnr" v="803273" />
	</node>
	<node lat="63.96181111248431" lon="12.195038888264342" id="-28369">
		<tag k="name" v="Damtjønna" />
		<tag k="natural" v="water" />
		<tag k="ssr:stedsnr" v="803413" />
	</node>
	<node lat="63.99452222172449" lon="12.102397215298959" id="-28370">
		<tag k="name" v="Nausttangen" />
		<tag k="natural" v="cape" />
		<tag k="ssr:stedsnr" v="803414" />
	</node>
	<node lat="63.99444166607641" lon="12.196863896238725" id="-28372">
		<tag k="name" v="Franktjønna" />
		<tag k="natural" v="water" />
		<tag k="ssr:stedsnr" v="803417" />
	</node>
	<node lat="63.98224722175421" lon="11.743758335196436" id="-28373">
		<tag k="name" v="Koltjønna" />
		<tag k="natural" v="water" />
		<tag k="ssr:stedsnr" v="803420" />
	</node>
	<node lat="64.26165277800762" lon="11.851438896797015" id="-28374">
		<tag k="name" v="Svarttjønna" />
		<tag k="natural" v="water" />
		<tag k="ssr:stedsnr" v="803508" />
	</node>
	<node lat="64.10674444216826" lon="11.012855556445128" id="-28375">
		<tag k="name" v="Skurvtjønnin" />
		<tag k="natural" v="water" />
		<tag k="ssr:stedsnr" v="803510" />
	</node>
	<node lat="64.10236388790615" lon="11.203127773237611" id="-28376">
		<tag k="name" v="Stjernbekken" />
		<tag k="ssr:stedsnr" v="803513" />
		<tag k="waterway" v="stream" />
	</node>
	<node lat="64.06844444540872" lon="11.144922228932522" id="-28377">
		<tag k="alt_name" v="Sleppingan" />
		<tag k="name" v="Sleppingen" />
		<tag k="natural" v="water" />
		<tag k="ssr:stedsnr" v="803558" />
	</node>
	<node lat="64.14298332898288" lon="11.084574996769765" id="-28387">
		<tag k="name" v="Angeltjønna" />
		<tag k="natural" v="water" />
		<tag k="ssr:stedsnr" v="803616" />
	</node>
	<node lat="63.94912500412617" lon="10.982505564761675" id="-28389">
		<tag k="name" v="Tunselva" />
		<tag k="ssr:stedsnr" v="803622" />
		<tag k="waterway" v="stream" />
	</node>
	<node lat="64.12138055269514" lon="11.492647227318665" id="-28391">
		<tag k="name" v="Kolbergselva" />
		<tag k="ssr:stedsnr" v="803803" />
		<tag k="waterway" v="stream" />
	</node>
	<node lat="64.01323055519647" lon="11.034561101811954" id="-28393">
		<tag k="name" v="Nordlitjønna" />
		<tag k="natural" v="water" />
		<tag k="ssr:stedsnr" v="803966" />
	</node>
	<node lat="64.01746388854033" lon="10.982130560791175" id="-28395">
		<tag k="name" v="Finntjønnin" />
		<tag k="natural" v="water" />
		<tag k="ssr:stedsnr" v="803968" />
	</node>
	<node lat="64.12360277541943" lon="11.418097220151926" id="-28404">
		<tag k="name" v="Håggåbekken" />
		<tag k="ssr:stedsnr" v="811481" />
		<tag k="waterway" v="stream" />
	</node>
	<node lat="64.11566944197577" lon="11.350786105300463" id="-28419">
		<tag k="name" v="Strandabekken" />
		<tag k="ssr:stedsnr" v="811786" />
		<tag k="waterway" v="stream" />
	</node>
	<node lat="63.91676388476351" lon="10.84630000453217" id="-28429">
		<tag k="name" v="Langdalsbekken" />
		<tag k="ssr:stedsnr" v="817085" />
		<tag k="waterway" v="stream" />
	</node>
	<node lat="64.1481527748227" lon="11.768255546358807" id="-28435">
		<tag k="name" v="Moabekken" />
		<tag k="ssr:stedsnr" v="817191" />
		<tag k="waterway" v="stream" />
	</node>
	<node lat="63.98600555816688" lon="11.706963887441978" id="-28437">
		<tag k="name" v="Lauvåsbekken" />
		<tag k="ssr:stedsnr" v="817269" />
		<tag k="waterway" v="stream" />
	</node>
	<node lat="64.03794166858238" lon="11.483708325153442" id="-28447">
		<tag k="name" v="Selesbekken" />
		<tag k="ssr:stedsnr" v="817921" />
		<tag k="waterway" v="stream" />
	</node>
	<node lat="64.12980000115205" lon="11.197511118215077" id="-28457">
		<tag k="name" v="Bjønnadalsbekken" />
		<tag k="ssr:stedsnr" v="827682" />
		<tag k="waterway" v="stream" />
	</node>
	<node lat="63.845597224940775" lon="10.631241672060792" id="-28463">
		<tag k="name" v="Gåsvatnet" />
		<tag k="natural" v="water" />
		<tag k="ssr:stedsnr" v="923516" />
	</node>
	<node lat="63.92550277852309" lon="11.971288890443013" id="-28465">
		<tag k="name" v="Storrundtjønna" />
		<tag k="natural" v="water" />
		<tag k="ssr:stedsnr" v="924464" />
	</node>
	<node lat="64.10886111372352" lon="11.644469441019805" id="-28484">
		<tag k="name" v="Mensøya" />
		<tag k="place" v="island" />
		<tag k="ssr:stedsnr" v="924149" />
	</node>
	<node lat="64.09380000288515" lon="11.263791676359515" id="-28489">
		<tag k="name" v="Landsemvatnet" />
		<tag k="natural" v="water" />
		<tag k="ssr:stedsnr" v="924195" />
	</node>
	<node lat="64.10715277493337" lon="11.876900005964865" id="-28496">
		<tag k="name" v="Raudsjøen" />
		<tag k="natural" v="water" />
		<tag k="ssr:stedsnr" v="924229" />
		<tag k="water" v="lake" />
	</node>
	<node lat="64.1147944486692" lon="11.907213891626842" id="-28498">
		<tag k="name" v="Skavdalsvatnet" />
		<tag k="natural" v="water" />
		<tag k="ssr:stedsnr" v="924232" />
	</node>
	<node lat="64.11627500232447" lon="11.788488880274675" id="-28499">
		<tag k="name" v="Ramstadvatnet" />
		<tag k="natural" v="water" />
		<tag k="ssr:stedsnr" v="924234" />
	</node>
	<node lat="64.11705832896818" lon="11.978277782461946" id="-28500">
		<tag k="alt_name" v="Hytteøya;Høttøya" />
		<tag k="name" v="Hyttøya" />
		<tag k="place" v="islet" />
		<tag k="ssr:stedsnr" v="924236" />
	</node>
	<node lat="64.16029166229902" lon="11.60279444543043" id="-28508">
		<tag k="name" v="Skrelbekken" />
		<tag k="ssr:stedsnr" v="837114" />
		<tag k="waterway" v="stream" />
	</node>
	<node lat="63.88774166581244" lon="10.699388886324611" id="-28514">
		<tag k="name" v="Vesterlona" />
		<tag k="natural" v="water" />
		<tag k="ssr:stedsnr" v="837183" />
		<tag k="water" v="lake" />
	</node>
	<node lat="64.13241944381218" lon="11.14833610575323" id="-28519">
		<tag k="name" v="Ferjfossen" />
		<tag k="natural" v="waterfall" />
		<tag k="ssr:stedsnr" v="837577" />
	</node>
	<node lat="64.10090833399569" lon="11.874597229823152" id="-28521">
		<tag k="name" v="Jakobtjønna" />
		<tag k="natural" v="water" />
		<tag k="ssr:stedsnr" v="837789" />
	</node>
	<node lat="64.18394722126754" lon="11.684050003529542" id="-28526">
		<tag k="name" v="Koppvatnet" />
		<tag k="natural" v="water" />
		<tag k="ssr:stedsnr" v="838226" />
	</node>
	<node lat="64.06855833483247" lon="11.798144453471203" id="-28531">
		<tag k="name" v="Kutjønna" />
		<tag k="natural" v="water" />
		<tag k="ssr:stedsnr" v="837985" />
	</node>
	<node lat="63.98937777530306" lon="12.199255557125392" id="-28534">
		<tag k="name" v="Nekolaitjønna" />
		<tag k="natural" v="water" />
		<tag k="ssr:stedsnr" v="924391" />
	</node>
	<node lat="63.953872222585915" lon="11.868975006966904" id="-28545">
		<tag k="name" v="Storbekken" />
		<tag k="ssr:stedsnr" v="838630" />
		<tag k="waterway" v="stream" />
	</node>
	<node lat="63.979949999132636" lon="12.04239722889917" id="-28548">
		<tag k="name" v="Langmyrsela" />
		<tag k="natural" v="water" />
		<tag k="ssr:stedsnr" v="838735" />
		<tag k="water" v="lake" />
	</node>
	<node lat="63.94938333224342" lon="11.754661105457155" id="-28549">
		<tag k="name" v="Svarttjønnbekken" />
		<tag k="ssr:stedsnr" v="838932" />
		<tag k="waterway" v="stream" />
	</node>
	<node lat="64.09499444208537" lon="10.933838879603302" id="-28550">
		<tag k="name" v="Torselva" />
		<tag k="ssr:stedsnr" v="924489" />
		<tag k="waterway" v="stream" />
	</node>
	<node lat="63.92597778219867" lon="10.84973055045606" id="-28553">
		<tag k="name" v="Steintjønna" />
		<tag k="natural" v="water" />
		<tag k="ssr:stedsnr" v="924497" />
	</node>
	<node lat="63.97823055747932" lon="12.332355561182395" id="-28554">
		<tag k="name" v="Johanbukta" />
		<tag k="natural" v="bay" />
		<tag k="ssr:stedsnr" v="838678" />
	</node>
	<node lat="63.95696388610989" lon="12.340130557586471" id="-28555">
		<tag k="name" v="Løbekken" />
		<tag k="ssr:stedsnr" v="838681" />
		<tag k="waterway" v="stream" />
	</node>
	<node lat="64.08150555199177" lon="11.781055554129628" id="-28556">
		<tag k="name" v="Borktangbekken" />
		<tag k="ssr:stedsnr" v="838828" />
		<tag k="waterway" v="stream" />
	</node>
	<node lat="63.990641662786" lon="10.926686117146113" id="-28558">
		<tag k="name" v="Steinseterbekken" />
		<tag k="ssr:stedsnr" v="924560" />
		<tag k="waterway" v="stream" />
	</node>
	<node lat="64.26960277361599" lon="11.925130561133251" id="-28561">
		<tag k="name" v="Ytter-Bangsjøen" />
		<tag k="natural" v="water" />
		<tag k="ssr:stedsnr" v="924595" />
		<tag k="water" v="lake" />
	</node>
	<node lat="64.02279166360093" lon="12.019172215709453" id="-28563">
		<tag k="name" v="Hollåsslættbekken" />
		<tag k="ssr:stedsnr" v="924636" />
		<tag k="waterway" v="stream" />
	</node>
	<node lat="64.01698055687226" lon="12.074750007717409" id="-28565">
		<tag k="name" v="Svarttjønna" />
		<tag k="natural" v="water" />
		<tag k="ssr:stedsnr" v="924654" />
	</node>
	<node lat="63.95029721893459" lon="12.276038895681877" id="-28570">
		<tag k="name" v="Lågvassbekken" />
		<tag k="ssr:stedsnr" v="924693" />
		<tag k="waterway" v="river" />
	</node>
	<node lat="64.18996944802412" lon="11.50214722267944" id="-28575">
		<tag k="name" v="Råvåtjønna" />
		<tag k="natural" v="water" />
		<tag k="ssr:stedsnr" v="924797" />
	</node>
	<node lat="64.18277500167389" lon="11.544905551124108" id="-28576">
		<tag k="name" v="Fiskløysa" />
		<tag k="natural" v="water" />
		<tag k="ssr:stedsnr" v="924798" />
	</node>
	<node lat="64.20939166822124" lon="11.688072214383725" id="-28578">
		<tag k="name" v="Svarttjønna" />
		<tag k="natural" v="water" />
		<tag k="ssr:stedsnr" v="924889" />
	</node>
	<node lat="64.2103138863203" lon="11.656355564364327" id="-28580">
		<tag k="name" v="Holmtjønna" />
		<tag k="natural" v="water" />
		<tag k="ssr:stedsnr" v="924891" />
	</node>
	<node lat="64.01843889077308" lon="10.92303333163536" id="-28586">
		<tag k="name" v="Sandvasselva" />
		<tag k="ssr:stedsnr" v="924966" />
		<tag k="waterway" v="stream" />
	</node>
	<node lat="63.9063333366638" lon="10.646099994264134" id="-28612">
		<tag k="loc_name:sma" v="Girkietjonne" />
		<tag k="name" v="Steintjønna" />
		<tag k="name:no" v="Steintjønna" />
		<tag k="natural" v="water" />
		<tag k="ssr:stedsnr" v="862310" />
	</node>
	<node lat="63.85298055414046" lon="10.576580550877255" id="-28615">
		<tag k="name" v="Bogatjønna" />
		<tag k="natural" v="water" />
		<tag k="ssr:stedsnr" v="863257" />
	</node>
	<node lat="64.25923611201965" lon="11.77355833583801" id="-28619">
		<tag k="name" v="Spøttjønna" />
		<tag k="natural" v="water" />
		<tag k="ssr:stedsnr" v="863523" />
	</node>
	<node lat="64.16403333516392" lon="11.979880552213647" id="-28626">
		<tag k="name" v="Bukta" />
		<tag k="natural" v="bay" />
		<tag k="ssr:stedsnr" v="863456" />
	</node>
	<node lat="63.82991944190227" lon="10.54596110417045" id="-28627">
		<tag k="loc_name:sma" v="Guhkiesjaevrie" />
		<tag k="name" v="Langvatnet" />
		<tag k="name:no" v="Langvatnet" />
		<tag k="natural" v="water" />
		<tag k="ssr:stedsnr" v="863494" />
		<tag k="water" v="lake" />
	</node>
	<node lat="64.21902777445312" lon="11.574444434745615" id="-28632">
		<tag k="name" v="Sandtjønna" />
		<tag k="natural" v="water" />
		<tag k="ssr:stedsnr" v="863908" />
	</node>
	<node lat="64.04691667068307" lon="11.067380557443371" id="-28633">
		<tag k="name" v="Stokkvedelva" />
		<tag k="ssr:stedsnr" v="863947" />
		<tag k="waterway" v="stream" />
	</node>
	<node lat="64.1677805570154" lon="11.499716662341706" id="-28635">
		<tag k="name" v="Myrkløyva" />
		<tag k="natural" v="water" />
		<tag k="ssr:stedsnr" v="863850" />
	</node>
	<node lat="64.05687778132291" lon="11.264097215525519" id="-28636">
		<tag k="name" v="Kvernhusbekken" />
		<tag k="ssr:stedsnr" v="864008" />
		<tag k="waterway" v="stream" />
	</node>
	<node lat="63.9016138885517" lon="11.49613611534908" id="-28642">
		<tag k="name" v="Buåstjønna" />
		<tag k="natural" v="water" />
		<tag k="ssr:stedsnr" v="864096" />
	</node>
	<node lat="64.00620000055913" lon="10.830744446709092" id="-28644">
		<tag k="name" v="Øverbybekkvatnet" />
		<tag k="natural" v="water" />
		<tag k="ssr:stedsnr" v="931350" />
	</node>
	<node lat="63.98258610979885" lon="11.890597222541397" id="-28655">
		<tag k="name" v="Kjesbuhølen" />
		<tag k="place" v="locality" />
		<tag k="ssr:stedsnr" v="878015" />
	</node>
	<node lat="64.13384722117286" lon="11.683569452419594" id="-28657">
		<tag k="name" v="Hoabekken" />
		<tag k="ssr:stedsnr" v="878107" />
		<tag k="waterway" v="stream" />
	</node>
	<node lat="64.08450277405528" lon="11.719958338781959" id="-28664">
		<tag k="alt_name" v="Skjerveselva" />
		<tag k="name" v="Litlelva" />
		<tag k="ssr:stedsnr" v="878162" />
		<tag k="waterway" v="river" />
	</node>
	<node lat="64.0484750031605" lon="11.529977787820506" id="-28676">
		<tag k="name" v="Svarttjønnbekken" />
		<tag k="ssr:stedsnr" v="878561" />
		<tag k="waterway" v="stream" />
	</node>
	<node lat="63.93056389113045" lon="11.60344444249403" id="-28679">
		<tag k="name" v="Fossbekken" />
		<tag k="ssr:stedsnr" v="878917" />
		<tag k="waterway" v="stream" />
	</node>
	<node lat="64.11684721823353" lon="11.9631166678886" id="-28681">
		<tag k="name" v="Vesterbotn" />
		<tag k="natural" v="bay" />
		<tag k="ssr:stedsnr" v="878921" />
	</node>
	<node lat="64.14463888630578" lon="11.24821388849245" id="-28706">
		<tag k="name" v="Linåa" />
		<tag k="ssr:stedsnr" v="933779" />
		<tag k="waterway" v="river" />
	</node>
	<node lat="64.1221111125214" lon="11.349044445035563" id="-28707">
		<tag k="name" v="Hjelltjønna" />
		<tag k="natural" v="water" />
		<tag k="ssr:stedsnr" v="933783" />
	</node>
	<node lat="64.02526666942566" lon="10.880391669571924" id="-28730">
		<tag k="name" v="Vargtjønnbekken" />
		<tag k="ssr:stedsnr" v="897107" />
		<tag k="waterway" v="stream" />
	</node>
	<node lat="64.02269722461419" lon="10.82279999601137" id="-28735">
		<tag k="name" v="Vannskiftbekken" />
		<tag k="ssr:stedsnr" v="897166" />
		<tag k="waterway" v="stream" />
	</node>
	<node lat="64.19530555665038" lon="11.515177768956764" id="-28741">
		<tag k="name" v="Råvåtjønnbekken" />
		<tag k="ssr:stedsnr" v="898058" />
		<tag k="waterway" v="stream" />
	</node>
	<node lat="64.01092222534113" lon="12.214136119995125" id="-28743">
		<tag k="name" v="Skjellibekken" />
		<tag k="ssr:stedsnr" v="898317" />
		<tag k="waterway" v="stream" />
	</node>
	<node lat="64.0324777779414" lon="12.102369441338771" id="-28744">
		<tag k="name" v="Sagfossen" />
		<tag k="natural" v="waterfall" />
		<tag k="ssr:stedsnr" v="898434" />
	</node>
	<node lat="64.01628333348353" lon="12.017122219022038" id="-28745">
		<tag k="name" v="Ner-Dompen" />
		<tag k="natural" v="waterfall" />
		<tag k="ssr:stedsnr" v="898467" />
	</node>
	<node lat="64.04444444256221" lon="11.972199991453179" id="-28746">
		<tag k="name" v="Skartjønnin" />
		<tag k="natural" v="water" />
		<tag k="ssr:stedsnr" v="898471" />
	</node>
	<node lat="64.12598333191073" lon="11.159116659582773" id="-28748">
		<tag k="name" v="Holmvikbekken" />
		<tag k="ssr:stedsnr" v="898567" />
		<tag k="waterway" v="stream" />
	</node>
	<node lat="64.1079444421189" lon="11.795400004940003" id="-28751">
		<tag k="name" v="Kattadalsbekken" />
		<tag k="ssr:stedsnr" v="898758" />
		<tag k="waterway" v="stream" />
	</node>
	<node lat="63.95371141571559" lon="12.307400743326385" id="-28753">
		<tag k="name" v="Skjækerosen" />
		<tag k="natural" v="bay" />
		<tag k="ssr:stedsnr" v="898660" />
	</node>
	<node lat="63.905947222638076" lon="11.768736119622654" id="-28763">
		<tag k="name" v="Bulderåsbekken" />
		<tag k="ssr:stedsnr" v="904663" />
		<tag k="waterway" v="stream" />
	</node>
	<node lat="63.881219447033" lon="10.691600004730542" id="-28780">
		<tag k="name" v="Jakoptjønna" />
		<tag k="natural" v="water" />
		<tag k="ssr:stedsnr" v="923287" />
	</node>
	<node lat="63.910861114831356" lon="10.71185834318648" id="-28781">
		<tag k="name" v="Nedre Trevatnet" />
		<tag k="natural" v="water" />
		<tag k="ssr:stedsnr" v="923373" />
		<tag k="water" v="lake" />
	</node>
	<node lat="64.05255555427107" lon="11.51914444357273" id="-28782">
		<tag k="name" v="Snevessetervatnet" />
		<tag k="natural" v="water" />
		<tag k="ssr:stedsnr" v="924005" />
	</node>
	<node lat="63.97576388963832" lon="11.915655554389387" id="-28793">
		<tag k="alt_name" v="Høttfossen" />
		<tag k="name" v="Hyttfossen" />
		<tag k="natural" v="waterfall" />
		<tag k="ssr:stedsnr" v="924406" />
	</node>
	<node lat="63.97855832946971" lon="12.048049997906732" id="-28794">
		<tag k="name" v="Mokkaelva" />
		<tag k="ssr:stedsnr" v="924408" />
		<tag k="waterway" v="river" />
	</node>
	<node lat="64.16500833401645" lon="11.902138893905324" id="-28796">
		<tag k="name" v="Hjartøya" />
		<tag k="place" v="islet" />
		<tag k="ssr:stedsnr" v="924424" />
	</node>
	<node lat="63.91762499576482" lon="12.011375001201857" id="-28797">
		<tag k="name" v="Hærvoltjønnbekken" />
		<tag k="ssr:stedsnr" v="924427" />
		<tag k="waterway" v="stream" />
	</node>
	<node lat="64.171330551371" lon="11.830583325801488" id="-28799">
		<tag k="name" v="Nødalsbukta" />
		<tag k="natural" v="bay" />
		<tag k="ssr:stedsnr" v="924436" />
	</node>
	<node lat="64.17788055170938" lon="11.811236115324464" id="-28801">
		<tag k="alt_name" v="Nødalelva" />
		<tag k="name" v="Nødalselva" />
		<tag k="ssr:stedsnr" v="924452" />
		<tag k="waterway" v="stream" />
	</node>
	<node lat="63.987902776398144" lon="10.898080564775897" id="-28804">
		<tag k="name" v="Kjeholmen" />
		<tag k="natural" v="cape" />
		<tag k="ssr:stedsnr" v="924567" />
	</node>
	<node lat="64.191311115056" lon="11.732691667572375" id="-28806">
		<tag k="name" v="Olknuttjønna" />
		<tag k="natural" v="water" />
		<tag k="ssr:stedsnr" v="924466" />
	</node>
	<node lat="64.29351944565775" lon="11.839738897895506" id="-28808">
		<tag k="name" v="Vakkervatna" />
		<tag k="natural" v="water" />
		<tag k="ssr:stedsnr" v="924605" />
	</node>
	<node lat="64.03815833722628" lon="11.842516669059636" id="-28810">
		<tag k="name" v="Kattjønna" />
		<tag k="natural" v="water" />
		<tag k="ssr:stedsnr" v="924616" />
	</node>
	<node lat="64.20330555635722" lon="11.529111117247298" id="-28814">
		<tag k="name" v="Gilten" />
		<tag k="natural" v="water" />
		<tag k="ssr:stedsnr" v="924822" />
		<tag k="water" v="lake" />
	</node>
	<node lat="64.03083610746184" lon="11.148583333018548" id="-28818">
		<tag k="name" v="Lomtjønna" />
		<tag k="natural" v="water" />
		<tag k="ssr:stedsnr" v="924993" />
	</node>
	<node lat="64.07439444207162" lon="11.498374996968987" id="-28830">
		<tag k="name" v="Svenningbekken" />
		<tag k="ssr:stedsnr" v="933652" />
		<tag k="waterway" v="stream" />
	</node>
	<node lat="64.14021666613498" lon="11.375816669756652" id="-28842">
		<tag k="name" v="Kordalsbekken" />
		<tag k="ssr:stedsnr" v="933811" />
		<tag k="waterway" v="stream" />
	</node>
	<node lat="63.97232499633521" lon="11.855108341079369" id="-28854">
		<tag k="name" v="Andfinnfossen" />
		<tag k="natural" v="waterfall" />
		<tag k="ssr:stedsnr" v="939016" />
	</node>
	<node lat="63.98371944113235" lon="11.848449992279708" id="-28855">
		<tag k="name" v="Lomtjønna" />
		<tag k="natural" v="water" />
		<tag k="ssr:stedsnr" v="939020" />
	</node>
	<node lat="64.16472222329124" lon="11.766624994540832" id="-28858">
		<tag k="name" v="Svarttjønnbekken" />
		<tag k="ssr:stedsnr" v="939030" />
		<tag k="waterway" v="stream" />
	</node>
	<node lat="64.00409999813766" lon="11.569325008520277" id="-28872">
		<tag k="name" v="Fosslibekken" />
		<tag k="ssr:stedsnr" v="939504" />
		<tag k="waterway" v="stream" />
	</node>
	<node lat="64.14567777613186" lon="11.926638882948096" id="-28879">
		<tag k="name" v="Storøra" />
		<tag k="place" v="locality" />
		<tag k="ssr:stedsnr" v="939933" />
	</node>
	<node lat="64.14169999774545" lon="11.309666658786782" id="-28887">
		<tag k="name" v="Geitlibekken" />
		<tag k="ssr:stedsnr" v="229514" />
		<tag k="waterway" v="stream" />
	</node>
	<node lat="64.14926944408883" lon="11.31181943922753" id="-28889">
		<tag k="name" v="Nesjan" />
		<tag k="natural" v="cape" />
		<tag k="ssr:stedsnr" v="229523" />
	</node>
	<node lat="64.03940277735359" lon="11.099886120644648" id="-28901">
		<tag k="name" v="Isnesbukta" />
		<tag k="natural" v="bay" />
		<tag k="ssr:stedsnr" v="958008" />
	</node>
	<node lat="64.03026944659514" lon="11.036644443965466" id="-28903">
		<tag k="name" v="Skogstutangen" />
		<tag k="natural" v="cape" />
		<tag k="ssr:stedsnr" v="958041" />
	</node>
	<node lat="63.97036666802316" lon="10.862094452544795" id="-28904">
		<tag k="name" v="Reinstjønnelva" />
		<tag k="ssr:stedsnr" v="958102" />
		<tag k="waterway" v="river" />
	</node>
	<node lat="64.10815833654999" lon="11.02072221843628" id="-28917">
		<tag k="name" v="Skurvtjønnbekken" />
		<tag k="ssr:stedsnr" v="958684" />
		<tag k="waterway" v="stream" />
	</node>
	<node lat="64.22006944668804" lon="11.938266670854237" id="-28919">
		<tag k="name" v="Stordeklet" />
		<tag k="natural" v="water" />
		<tag k="ssr:stedsnr" v="958836" />
	</node>
	<node lat="64.20836111355904" lon="11.76689444239553" id="-28922">
		<tag k="name" v="Litlavunna" />
		<tag k="natural" v="water" />
		<tag k="ssr:stedsnr" v="959189" />
	</node>
	<node lat="64.20047222155522" lon="11.714533336240121" id="-28926">
		<tag k="name" v="Litlvestertjønna" />
		<tag k="natural" v="water" />
		<tag k="ssr:stedsnr" v="959213" />
	</node>
	<node lat="64.20407222102992" lon="11.752808333812663" id="-28928">
		<tag k="name" v="Strømstaddalsbekken" />
		<tag k="ssr:stedsnr" v="959219" />
		<tag k="waterway" v="stream" />
	</node>
	<node lat="64.00844444054232" lon="12.127252783436735" id="-28930">
		<tag k="name" v="Tronget" />
		<tag k="natural" v="strait" />
		<tag k="ssr:stedsnr" v="959238" />
	</node>
	<node lat="64.00232222209426" lon="12.109013881737722" id="-28932">
		<tag k="name" v="Gammelnausttangen" />
		<tag k="natural" v="cape" />
		<tag k="ssr:stedsnr" v="959272" />
	</node>
	<node lat="63.91943611210026" lon="12.044675008052318" id="-28935">
		<tag k="name" v="Merratjønnbekken" />
		<tag k="ssr:stedsnr" v="959707" />
		<tag k="waterway" v="stream" />
	</node>
	<node lat="63.98319999830382" lon="10.86740832530192" id="-28971">
		<tag k="name" v="Straumhaugen" />
		<tag k="place" v="island" />
		<tag k="ssr:stedsnr" v="229097" />
	</node>
	<node lat="63.98469444363135" lon="10.907694438426713" id="-28972">
		<tag k="name" v="Nonsskarbekken" />
		<tag k="ssr:stedsnr" v="229100" />
		<tag k="waterway" v="stream" />
	</node>
	<node lat="64.01309166789754" lon="10.996008333191947" id="-28974">
		<tag k="name" v="Sneppafjorden" />
		<tag k="natural" v="water" />
		<tag k="ssr:stedsnr" v="229048" />
	</node>
	<node lat="64.13120278155817" lon="11.74334444411919" id="-28979">
		<tag k="name" v="Solnestangen" />
		<tag k="natural" v="cape" />
		<tag k="ssr:stedsnr" v="13297" />
	</node>
	<node lat="64.20521666316117" lon="11.956030550833592" id="-28985">
		<tag k="name" v="Okstjønna" />
		<tag k="natural" v="water" />
		<tag k="ssr:stedsnr" v="13423" />
	</node>
	<node lat="64.2237944411404" lon="11.719088884334415" id="-28987">
		<tag k="name" v="Grønlitjønna" />
		<tag k="natural" v="water" />
		<tag k="ssr:stedsnr" v="13435" />
	</node>
	<node lat="64.22556389239746" lon="11.932044441162539" id="-28989">
		<tag k="alt_name" v="Fiskløysa" />
		<tag k="name" v="Fiskløysvatnet" />
		<tag k="natural" v="water" />
		<tag k="ssr:stedsnr" v="13443" />
	</node>
	<node lat="64.17119999942025" lon="11.77340000606959" id="-29000">
		<tag k="alt_name" v="Litlvatnet" />
		<tag k="name" v="Brunstadvatnet" />
		<tag k="natural" v="water" />
		<tag k="ssr:stedsnr" v="14397" />
	</node>
	<node lat="64.06923333102802" lon="11.553444450934647" id="-29006">
		<tag k="name" v="Storstamnen" />
		<tag k="natural" v="water" />
		<tag k="ssr:stedsnr" v="14025" />
	</node>
	<node lat="64.05758332951825" lon="11.495308333391185" id="-29007">
		<tag k="name" v="Rungstadvatnet" />
		<tag k="natural" v="water" />
		<tag k="ssr:stedsnr" v="14028" />
	</node>
	<node lat="64.04335833656509" lon="10.80547777793905" id="-29012">
		<tag k="alt_name" v="Reinsjøen, vestre" />
		<tag k="name" v="Vestre Reinsjøen" />
		<tag k="natural" v="water" />
		<tag k="ssr:stedsnr" v="13962" />
		<tag k="water" v="lake" />
	</node>
	<node lat="64.1088916673429" lon="11.631799992404932" id="-29026">
		<tag k="name" v="Merraholmen" />
		<tag k="place" v="islet" />
		<tag k="ssr:stedsnr" v="14120" />
	</node>
	<node lat="64.09713333215986" lon="10.958677783052417" id="-29043">
		<tag k="name" v="Steintjønna" />
		<tag k="natural" v="water" />
		<tag k="ssr:stedsnr" v="14439" />
	</node>
	<node lat="64.09987500330772" lon="10.910369454603767" id="-29044">
		<tag k="name" v="Torsvatnet" />
		<tag k="natural" v="water" />
		<tag k="ssr:stedsnr" v="14440" />
		<tag k="water" v="lake" />
	</node>
	<node lat="64.09745278087553" lon="11.01803332755796" id="-29047">
		<tag k="name" v="Finndalstjønna" />
		<tag k="natural" v="water" />
		<tag k="ssr:stedsnr" v="14446" />
	</node>
	<node lat="64.09024722379473" lon="10.841711103909782" id="-29048">
		<tag k="name" v="Torsvassbekken" />
		<tag k="ssr:stedsnr" v="14451" />
		<tag k="waterway" v="stream" />
	</node>
	<node lat="64.09273055600457" lon="11.151511120191634" id="-29049">
		<tag k="name" v="Måggåtjønnbekken" />
		<tag k="ssr:stedsnr" v="14454" />
		<tag k="waterway" v="stream" />
	</node>
	<node lat="64.05681388462965" lon="10.948672230640206" id="-29050">
		<tag k="name" v="Stuvågbukta" />
		<tag k="natural" v="bay" />
		<tag k="ssr:stedsnr" v="14495" />
	</node>
	<node lat="63.99036667105524" lon="10.837772218484929" id="-29052">
		<tag k="fixme" v="multiple name tags, choose one and add the other to alt_name" />
		<tag k="name" v="Steinodden;Storodden" />
		<tag k="natural" v="cape" />
		<tag k="ssr:stedsnr" v="14523" />
	</node>
	<node lat="63.93586944158847" lon="10.936349992456915" id="-29053">
		<tag k="name" v="Svartdalstjønna" />
		<tag k="natural" v="water" />
		<tag k="ssr:stedsnr" v="14542" />
	</node>
	<node lat="64.0415388916039" lon="11.732211108762622" id="-29057">
		<tag k="alt_name" v="Augla" />
		<tag k="name" v="Storaugla" />
		<tag k="ssr:stedsnr" v="14589" />
		<tag k="waterway" v="stream" />
	</node>
	<node lat="64.00611666669974" lon="10.912449997753075" id="-29062">
		<tag k="name" v="Jovatnet" />
		<tag k="natural" v="water" />
		<tag k="ssr:stedsnr" v="14881" />
	</node>
	<node lat="64.03486667105558" lon="10.934569436482395" id="-29075">
		<tag k="name" v="Grunntjønna" />
		<tag k="natural" v="water" />
		<tag k="ssr:stedsnr" v="14999" />
	</node>
	<node lat="64.08576110818522" lon="11.531750006133336" id="-29090">
		<tag k="name" v="Skjetndalsbekken" />
		<tag k="ssr:stedsnr" v="22639" />
		<tag k="waterway" v="stream" />
	</node>
	<node lat="64.11948888997502" lon="11.257575007710072" id="-29103">
		<tag k="name" v="Stordalsbekken" />
		<tag k="ssr:stedsnr" v="22772" />
		<tag k="waterway" v="stream" />
	</node>
	<node lat="63.982308332723875" lon="11.475286102712378" id="-29113">
		<tag k="name" v="Sandbekken" />
		<tag k="ssr:stedsnr" v="22878" />
		<tag k="waterway" v="stream" />
	</node>
	<node lat="63.928208336901584" lon="11.39566667604101" id="-29114">
		<tag k="name" v="Mæreselva" />
		<tag k="ssr:stedsnr" v="22967" />
		<tag k="waterway" v="stream" />
	</node>
	<node lat="64.15475555617506" lon="11.491569441853432" id="-29118">
		<tag k="name" v="Heltuvengbekken" />
		<tag k="ssr:stedsnr" v="23626" />
		<tag k="waterway" v="stream" />
	</node>
	<node lat="64.1104388847206" lon="11.705016665949502" id="-29134">
		<tag k="name" v="Skjevlobekken" />
		<tag k="ssr:stedsnr" v="28166" />
		<tag k="waterway" v="stream" />
	</node>
	<node lat="64.12082499808672" lon="11.58976110752674" id="-29143">
		<tag k="name" v="Aunbekken" />
		<tag k="ssr:stedsnr" v="28450" />
		<tag k="waterway" v="stream" />
	</node>
	<node lat="64.10500833228096" lon="11.633511101473937" id="-29145">
		<tag k="name" v="Landøya" />
		<tag k="place" v="islet" />
		<tag k="ssr:stedsnr" v="28530" />
	</node>
	<node lat="64.17538888589748" lon="11.880263880857957" id="-29150">
		<tag k="name" v="Olstangen" />
		<tag k="natural" v="cape" />
		<tag k="ssr:stedsnr" v="28882" />
	</node>
	<node lat="64.14867777413721" lon="11.803963888107013" id="-29156">
		<tag k="name" v="Småøyin" />
		<tag k="place" v="island" />
		<tag k="ssr:stedsnr" v="29040" />
	</node>
	<node lat="64.13063611557473" lon="11.964336101944866" id="-29160">
		<tag k="name" v="Godtjønnbekken" />
		<tag k="ssr:stedsnr" v="28941" />
		<tag k="waterway" v="stream" />
	</node>
	<node lat="63.98258055296756" lon="11.896272212535571" id="-29161">
		<tag k="name" v="Storholmen" />
		<tag k="place" v="islet" />
		<tag k="ssr:stedsnr" v="28945" />
	</node>
	<node lat="64.01463055418658" lon="10.992813895993335" id="-29197">
		<tag k="name" v="Nerfjorden" />
		<tag k="natural" v="water" />
		<tag k="ssr:stedsnr" v="47038" />
	</node>
	<node lat="64.01539166388255" lon="10.968569441529624" id="-29199">
		<tag k="name" v="Finntjønnbekken" />
		<tag k="ssr:stedsnr" v="47066" />
		<tag k="waterway" v="stream" />
	</node>
	<node lat="63.99780000171857" lon="10.803522214246618" id="-29200">
		<tag k="name" v="Svartbukta" />
		<tag k="natural" v="bay" />
		<tag k="ssr:stedsnr" v="47129" />
	</node>
	<node lat="63.98739166725712" lon="10.854641667997981" id="-29201">
		<tag k="name" v="Otertangen" />
		<tag k="natural" v="cape" />
		<tag k="ssr:stedsnr" v="47098" />
	</node>
	<node lat="63.890555557423745" lon="10.686155551479105" id="-29203">
		<tag k="name" v="Hundsømmet" />
		<tag k="natural" v="strait" />
		<tag k="ssr:stedsnr" v="47198" />
	</node>
	<node lat="64.1180027814243" lon="11.082213893485282" id="-29209">
		<tag k="name" v="Nilsengtangen" />
		<tag k="natural" v="cape" />
		<tag k="ssr:stedsnr" v="48523" />
	</node>
	<node lat="63.95944722305418" lon="11.880897220118943" id="-29212">
		<tag k="name" v="Eksingtjønna" />
		<tag k="natural" v="water" />
		<tag k="ssr:stedsnr" v="48549" />
	</node>
	<node lat="64.20107777815211" lon="11.580991665005612" id="-29218">
		<tag k="name" v="Gilttangen" />
		<tag k="natural" v="cape" />
		<tag k="ssr:stedsnr" v="48068" />
	</node>
	<node lat="64.01555000265544" lon="12.159961113314585" id="-29230">
		<tag k="name" v="Kjøråsøvja" />
		<tag k="natural" v="water" />
		<tag k="ssr:stedsnr" v="48250" />
	</node>
	<node lat="63.99459444785473" lon="12.10629444976856" id="-29234">
		<tag k="name" v="Trubekkbukta" />
		<tag k="natural" v="bay" />
		<tag k="ssr:stedsnr" v="48280" />
	</node>
	<node lat="64.02554166307412" lon="12.070138889044099" id="-29237">
		<tag k="name" v="Svarttjønnbekken" />
		<tag k="ssr:stedsnr" v="48261" />
		<tag k="waterway" v="stream" />
	</node>
	<node lat="63.98156944673211" lon="11.971125003673437" id="-29240">
		<tag k="name" v="Rundtjønna" />
		<tag k="natural" v="water" />
		<tag k="ssr:stedsnr" v="48488" />
	</node>
	<node lat="64.0901388914517" lon="10.948563893179362" id="-29242">
		<tag k="name" v="Torsbukta" />
		<tag k="natural" v="bay" />
		<tag k="ssr:stedsnr" v="48515" />
	</node>
	<node lat="63.96118332942119" lon="12.214188879085068" id="-29245">
		<tag k="name" v="Nordengosen" />
		<tag k="natural" v="bay" />
		<tag k="ssr:stedsnr" v="48594" />
	</node>
	<node lat="64.07975555196039" lon="11.77736111387829" id="-29256">
		<tag k="name" v="Storneset" />
		<tag k="natural" v="cape" />
		<tag k="ssr:stedsnr" v="48784" />
	</node>
	<node lat="64.0694749973754" lon="11.102647221373585" id="-29259">
		<tag k="name" v="Seterlibekken" />
		<tag k="ssr:stedsnr" v="48730" />
		<tag k="waterway" v="stream" />
	</node>
	<node lat="64.0208638880285" lon="11.949063898995886" id="-29264">
		<tag k="name" v="Lomtjønnin" />
		<tag k="natural" v="water" />
		<tag k="ssr:stedsnr" v="48881" />
	</node>
	<node lat="64.03954721865426" lon="11.821669445214921" id="-29265">
		<tag k="name" v="Merkesbekken" />
		<tag k="ssr:stedsnr" v="48900" />
		<tag k="waterway" v="stream" />
	</node>
	<node lat="63.921683331940024" lon="11.709088898099736" id="-29269">
		<tag k="name" v="Hosetbekken" />
		<tag k="ssr:stedsnr" v="48934" />
		<tag k="waterway" v="stream" />
	</node>
	<node lat="64.09872222521564" lon="11.833727774601225" id="-29271">
		<tag k="name" v="Blautbotenbekken" />
		<tag k="ssr:stedsnr" v="48966" />
		<tag k="waterway" v="stream" />
	</node>
	<node lat="63.89971847057559" lon="11.687637153505607" id="-29314">
		<tag k="name" v="Holmtjønna" />
		<tag k="natural" v="water" />
		<tag k="ssr:stedsnr" v="74089" />
	</node>
	<node lat="64.04227221930535" lon="11.689627768436887" id="-29316">
		<tag k="name" v="Gravåstjønna" />
		<tag k="natural" v="water" />
		<tag k="ssr:stedsnr" v="74100" />
	</node>
	<node lat="64.14781389097989" lon="11.910524996203012" id="-29317">
		<tag k="name" v="Olabukta" />
		<tag k="natural" v="bay" />
		<tag k="ssr:stedsnr" v="74290" />
	</node>
	<node lat="63.99521111525531" lon="12.065947214978417" id="-29323">
		<tag k="name" v="Småholmtangen" />
		<tag k="natural" v="cape" />
		<tag k="ssr:stedsnr" v="74344" />
	</node>
	<node lat="64.16835555315986" lon="12.001608330492067" id="-29326">
		<tag k="name" v="Tjønna" />
		<tag k="natural" v="bay" />
		<tag k="ssr:stedsnr" v="74436" />
	</node>
	<node lat="64.28234722331182" lon="11.891586107381512" id="-29332">
		<tag k="name" v="Skåvåtjønna" />
		<tag k="natural" v="water" />
		<tag k="ssr:stedsnr" v="74625" />
	</node>
	<node lat="64.02354722115213" lon="11.12892499856073" id="-29335">
		<tag k="name" v="Lomtjønna" />
		<tag k="natural" v="water" />
		<tag k="ssr:stedsnr" v="74748" />
	</node>
	<node lat="64.12438888807728" lon="11.71367777782785" id="-29336">
		<tag k="name" v="Klingholmen" />
		<tag k="place" v="islet" />
		<tag k="ssr:stedsnr" v="74749" />
	</node>
	<node lat="64.02455000279551" lon="11.011908328806623" id="-29337">
		<tag k="name" v="Selja" />
		<tag k="ssr:stedsnr" v="74750" />
		<tag k="waterway" v="river" />
	</node>
	<node lat="64.0369055594266" lon="10.779094447650968" id="-29339">
		<tag k="name" v="Svartvatnet" />
		<tag k="natural" v="water" />
		<tag k="ssr:stedsnr" v="74940" />
	</node>
	<node lat="64.13053333161557" lon="11.50510277486138" id="-29348">
		<tag k="name" v="Rostadaunvatna" />
		<tag k="natural" v="water" />
		<tag k="ssr:stedsnr" v="74778" />
	</node>
	<node lat="63.92669721971876" lon="12.04761666020801" id="-29350">
		<tag k="name" v="Litlfjorden" />
		<tag k="natural" v="bay" />
		<tag k="ssr:stedsnr" v="74793" />
	</node>
	<node lat="64.06234167039199" lon="10.881416671778366" id="-29355">
		<tag k="name" v="Reinsjøbukta" />
		<tag k="natural" v="bay" />
		<tag k="ssr:stedsnr" v="75583" />
	</node>
	<node lat="64.06482499899356" lon="11.03123332849544" id="-29356">
		<tag k="name" v="Holdtangen" />
		<tag k="natural" v="cape" />
		<tag k="ssr:stedsnr" v="75590" />
	</node>
	<node lat="64.02652777640532" lon="11.585394441420283" id="-29367">
		<tag k="name" v="Setnvatnet" />
		<tag k="natural" v="water" />
		<tag k="ssr:stedsnr" v="75049" />
	</node>
	<node lat="64.07739755519941" lon="11.83429501833664" id="-29373">
		<tag k="alt_name" v="Selan øvre;Sagsela" />
		<tag k="fixme" v="multiple name tags, choose one and add the other to alt_name" />
		<tag k="name" v="Sagfosselan;Øvre Selan" />
		<tag k="ssr:stedsnr" v="75355" />
		<tag k="waterway" v="river" />
	</node>
	<node lat="64.07718333708426" lon="11.826019443548454" id="-29374">
		<tag k="name" v="Sagfossen" />
		<tag k="natural" v="waterfall" />
		<tag k="ssr:stedsnr" v="75346" />
	</node>
	<node lat="63.93901666664984" lon="10.809347217826438" id="-29376">
		<tag k="loc_name:sma" v="Lihtsejaevrie" />
		<tag k="name" v="Lysvatnet" />
		<tag k="name:no" v="Lysvatnet" />
		<tag k="natural" v="water" />
		<tag k="ssr:stedsnr" v="75635" />
	</node>
	<node lat="64.31158611024559" lon="11.918883326106045" id="-29378">
		<tag k="name" v="Trekvisla" />
		<tag k="natural" v="water" />
		<tag k="ssr:stedsnr" v="75648" />
		<tag k="water" v="lake" />
	</node>
	<node lat="64.00892221758923" lon="12.113247230891645" id="-29379">
		<tag k="name" v="Kvernabekken" />
		<tag k="ssr:stedsnr" v="75722" />
		<tag k="waterway" v="stream" />
	</node>
	<node lat="63.97590555197966" lon="12.210699995140823" id="-29381">
		<tag k="fixme" v="multiple name tags, choose one and add the other to alt_name" />
		<tag k="name" v="Rabbtjønnin;Småtjønnin" />
		<tag k="natural" v="water" />
		<tag k="ssr:stedsnr" v="75387" />
	</node>
	<node lat="63.90975555483805" lon="11.807008325656772" id="-29382">
		<tag k="name" v="Høgmannselva" />
		<tag k="ssr:stedsnr" v="75471" />
		<tag k="waterway" v="stream" />
	</node>
	<node lat="64.25323055473552" lon="11.698155565210898" id="-29385">
		<tag k="name" v="Bjørtjønnbekken" />
		<tag k="ssr:stedsnr" v="75891" />
		<tag k="waterway" v="stream" />
	</node>
	<node lat="64.01228333027001" lon="10.824625004934418" id="-29387">
		<tag k="name" v="Måggåtjønna" />
		<tag k="natural" v="water" />
		<tag k="ssr:stedsnr" v="75928" />
	</node>
	<node lat="64.01030555168252" lon="10.984449992337522" id="-29388">
		<tag k="name" v="Kjåppån - Tjuahpa" />
		<tag k="name:no" v="Kjåppån" />
		<tag k="name:sma" v="Tjuahpa" />
		<tag k="natural" v="water" />
		<tag k="ssr:stedsnr" v="75932" />
		<tag k="water" v="lake" />
	</node>
	<node lat="63.976105558705825" lon="11.708511106729969" id="-29391">
		<tag k="name" v="Røla" />
		<tag k="ssr:stedsnr" v="75990" />
		<tag k="waterway" v="stream" />
	</node>
	<node lat="64.11973333669319" lon="11.351025009787323" id="-29406">
		<tag k="name" v="Nesjbekken" />
		<tag k="ssr:stedsnr" v="83789" />
		<tag k="waterway" v="stream" />
	</node>
	<node lat="64.12983888814841" lon="11.326330560059588" id="-29407">
		<tag k="name" v="Ådalselva" />
		<tag k="ssr:stedsnr" v="83790" />
		<tag k="waterway" v="river" />
	</node>
	<node lat="63.9878138863134" lon="11.776502777582483" id="-29433">
		<tag k="name" v="Skjennbekken" />
		<tag k="ssr:stedsnr" v="89053" />
		<tag k="waterway" v="stream" />
	</node>
	<node lat="63.97413611127525" lon="11.061786108807796" id="-29439">
		<tag k="name" v="Aspvikbekken" />
		<tag k="ssr:stedsnr" v="89081" />
		<tag k="waterway" v="stream" />
	</node>
	<node lat="64.12618055430583" lon="11.70068333334707" id="-29442">
		<tag k="name" v="Hølen" />
		<tag k="natural" v="shoal" />
		<tag k="place" v="locality" />
		<tag k="ssr:stedsnr" v="89098" />
	</node>
	<node lat="63.879436108355726" lon="10.823655556103848" id="-29444">
		<tag k="name" v="Ørabekken" />
		<tag k="ssr:stedsnr" v="89110" />
		<tag k="waterway" v="stream" />
	</node>
	<node lat="63.933669446192546" lon="11.6655555580239" id="-29456">
		<tag k="alt_name" v="Bilstadtjønna" />
		<tag k="name" v="Bildstadtjønna" />
		<tag k="natural" v="water" />
		<tag k="ssr:stedsnr" v="89344" />
	</node>
	<node lat="63.912363892116566" lon="11.646283331085886" id="-29459">
		<tag k="name" v="Tjønnbekkdalen" />
		<tag k="ssr:stedsnr" v="89377" />
		<tag k="waterway" v="stream" />
	</node>
	<node lat="63.94376111042741" lon="11.632905565330127" id="-29460">
		<tag k="name" v="Sandbekken" />
		<tag k="ssr:stedsnr" v="89389" />
		<tag k="waterway" v="stream" />
	</node>
	<node lat="64.11227499770115" lon="11.585616660553338" id="-29462">
		<tag k="name" v="Langhåmmårbukta" />
		<tag k="natural" v="bay" />
		<tag k="ssr:stedsnr" v="89534" />
	</node>
	<node lat="64.10094166775842" lon="11.58695277723708" id="-29464">
		<tag k="name" v="Tangen" />
		<tag k="natural" v="cape" />
		<tag k="ssr:stedsnr" v="89537" />
	</node>
	<node lat="64.07894999839168" lon="11.593100009479063" id="-29466">
		<tag k="name" v="Stamnvassbekken" />
		<tag k="ssr:stedsnr" v="89432" />
		<tag k="waterway" v="stream" />
	</node>
	<node lat="64.20106111472971" lon="11.899800002045732" id="-29472">
		<tag k="name" v="Lekksjøbekken" />
		<tag k="ssr:stedsnr" v="89776" />
		<tag k="waterway" v="stream" />
	</node>
	<node lat="64.1302888846599" lon="11.769555545569359" id="-29495">
		<tag k="name" v="Austerøra" />
		<tag k="natural" v="beach" />
		<tag k="ssr:stedsnr" v="90802" />
	</node>
	<node lat="64.00920833248631" lon="10.788897230829777" id="-29521">
		<tag k="name" v="Dreielva" />
		<tag k="ssr:stedsnr" v="108182" />
		<tag k="waterway" v="river" />
	</node>
	<node lat="63.9917833326273" lon="12.210022213945887" id="-29525">
		<tag k="name" v="Mormortjønna" />
		<tag k="natural" v="water" />
		<tag k="ssr:stedsnr" v="109333" />
	</node>
	<node lat="64.2544499962248" lon="11.917522222734375" id="-29531">
		<tag k="name" v="Litl-Stavervatnet" />
		<tag k="natural" v="water" />
		<tag k="ssr:stedsnr" v="108799" />
	</node>
	<node lat="64.17669444307637" lon="11.438255547988296" id="-29533">
		<tag k="name" v="Pungen" />
		<tag k="natural" v="water" />
		<tag k="ssr:stedsnr" v="108735" />
	</node>
	<node lat="63.98823889317145" lon="12.112902787370468" id="-29542">
		<tag k="name" v="Linfåa" />
		<tag k="natural" v="water" />
		<tag k="ssr:stedsnr" v="109296" />
	</node>
	<node lat="63.97720833621324" lon="11.705080545627197" id="-29550">
		<tag k="name" v="Skjennfossen" />
		<tag k="natural" v="waterfall" />
		<tag k="ssr:stedsnr" v="109918" />
	</node>
	<node lat="63.949349999689744" lon="12.191030552324541" id="-29553">
		<tag k="name" v="Yttertjønna" />
		<tag k="natural" v="water" />
		<tag k="ssr:stedsnr" v="109583" />
	</node>
	<node lat="63.9819222222684" lon="12.286013891165698" id="-29554">
		<tag k="name" v="Seterbekken" />
		<tag k="ssr:stedsnr" v="109588" />
		<tag k="waterway" v="stream" />
	</node>
	<node lat="63.94797777352005" lon="12.076283332687224" id="-29560">
		<tag k="name" v="Storbekkenset" />
		<tag k="natural" v="cape" />
		<tag k="ssr:stedsnr" v="109651" />
	</node>
	<node lat="63.97016944374874" lon="12.158127779809949" id="-29566">
		<tag k="name" v="Isbekken" />
		<tag k="ssr:stedsnr" v="109677" />
		<tag k="waterway" v="stream" />
	</node>
	<node lat="63.92303055447338" lon="12.080075003777964" id="-29568">
		<tag k="name" v="Litl-Langdalsbekken" />
		<tag k="ssr:stedsnr" v="109684" />
		<tag k="waterway" v="stream" />
	</node>
	<node lat="64.18638055560741" lon="11.766169441425957" id="-29570">
		<tag k="name" v="Litlbrubekken" />
		<tag k="ssr:stedsnr" v="109709" />
		<tag k="waterway" v="stream" />
	</node>
	<node lat="64.07367222310715" lon="11.845680551856026" id="-29576">
		<tag k="name" v="Koltjønnbekken" />
		<tag k="ssr:stedsnr" v="109935" />
		<tag k="waterway" v="stream" />
	</node>
	<node lat="64.07257500350379" lon="11.872338879251636" id="-29580">
		<tag k="name" v="Vinterbukta" />
		<tag k="natural" v="bay" />
		<tag k="ssr:stedsnr" v="109966" />
	</node>
	<node lat="64.21476389175612" lon="11.972244441126499" id="-29628">
		<tag k="alt_name" v="Lekksjøen" />
		<tag k="name" v="Leksjøen" />
		<tag k="natural" v="water" />
		<tag k="ssr:stedsnr" v="134432" />
		<tag k="water" v="lake" />
	</node>
	<node lat="64.2315694422886" lon="11.890902782933335" id="-29630">
		<tag k="name" v="Nordsjøen" />
		<tag k="natural" v="water" />
		<tag k="ssr:stedsnr" v="134449" />
		<tag k="water" v="lake" />
	</node>
	<node lat="64.30029166807942" lon="11.82167777429612" id="-29634">
		<tag k="name" v="Bergtjønnbekken" />
		<tag k="ssr:stedsnr" v="134640" />
		<tag k="waterway" v="stream" />
	</node>
	<node lat="64.0685055561396" lon="11.539616675915205" id="-29643">
		<tag k="name" v="Litlstamnen" />
		<tag k="natural" v="water" />
		<tag k="ssr:stedsnr" v="135032" />
	</node>
	<node lat="63.975350004085705" lon="12.140358338161208" id="-29648">
		<tag k="name" v="Damtjønna" />
		<tag k="natural" v="water" />
		<tag k="ssr:stedsnr" v="135360" />
	</node>
	<node lat="63.959086114279785" lon="11.764472215963409" id="-29649">
		<tag k="name" v="Åksjøen" />
		<tag k="natural" v="water" />
		<tag k="ssr:stedsnr" v="135397" />
		<tag k="water" v="lake" />
	</node>
	<node lat="63.91888631383779" lon="11.868014612467675" id="-29651">
		<tag k="name" v="Sandtjønna" />
		<tag k="natural" v="water" />
		<tag k="old_name" v="Malivatnet" />
		<tag k="ssr:stedsnr" v="135468" />
	</node>
	<node lat="63.922108330958324" lon="11.839441672692596" id="-29652">
		<tag k="name" v="Svartvatnet" />
		<tag k="natural" v="water" />
		<tag k="ssr:stedsnr" v="135469" />
	</node>
	<node lat="64.12336388497361" lon="11.66752778483425" id="-29664">
		<tag k="name" v="Ormtangen" />
		<tag k="natural" v="cape" />
		<tag k="ssr:stedsnr" v="135150" />
	</node>
	<node lat="63.8001361072757" lon="10.493852772633181" id="-29680">
		<tag k="name" v="Jakoptjønna" />
		<tag k="natural" v="water" />
		<tag k="ssr:stedsnr" v="135449" />
	</node>
	<node lat="63.91497500170106" lon="10.821030558860532" id="-29681">
		<tag k="name" v="Sørenvatnet" />
		<tag k="natural" v="water" />
		<tag k="ssr:stedsnr" v="135506" />
	</node>
	<node lat="64.08215000252086" lon="11.162652773254367" id="-29685">
		<tag k="name" v="Lomtjønna" />
		<tag k="natural" v="water" />
		<tag k="ssr:stedsnr" v="135520" />
	</node>
	<node lat="64.07390000215167" lon="10.944513882682537" id="-29686">
		<tag k="name" v="Holden" />
		<tag k="natural" v="water" />
		<tag k="ssr:stedsnr" v="135523" />
		<tag k="water" v="lake" />
	</node>
	<node lat="63.88058333696595" lon="10.734377783238426" id="-29687">
		<tag k="name" v="Reinstjønna" />
		<tag k="natural" v="water" />
		<tag k="ssr:stedsnr" v="135525" />
	</node>
	<node lat="63.99104166322901" lon="10.897949999937827" id="-29697">
		<tag k="name" v="Aunbukta" />
		<tag k="natural" v="bay" />
		<tag k="ssr:stedsnr" v="135581" />
	</node>
	<node lat="63.9343000035304" lon="10.74165277528209" id="-29699">
		<tag k="name" v="Fundertjønna" />
		<tag k="natural" v="water" />
		<tag k="ssr:stedsnr" v="135592" />
	</node>
	<node lat="63.94123611483482" lon="10.88888055756116" id="-29700">
		<tag k="name" v="Tverrelva" />
		<tag k="ssr:stedsnr" v="135597" />
		<tag k="waterway" v="stream" />
	</node>
	<node lat="64.02633055998766" lon="12.087516669872878" id="-29701">
		<tag k="name" v="Kroktjønnin" />
		<tag k="natural" v="water" />
		<tag k="ssr:stedsnr" v="135629" />
	</node>
	<node lat="64.02864444122251" lon="11.871674995236976" id="-29702">
		<tag k="name" v="Svartbekken" />
		<tag k="ssr:stedsnr" v="135634" />
		<tag k="waterway" v="stream" />
	</node>
	<node lat="64.01856944171482" lon="11.903233334607389" id="-29708">
		<tag k="name" v="Kvernabekken" />
		<tag k="ssr:stedsnr" v="135815" />
		<tag k="waterway" v="stream" />
	</node>
	<node lat="64.02675278101792" lon="10.81609166100072" id="-29726">
		<tag k="name" v="Sildertjønna" />
		<tag k="natural" v="water" />
		<tag k="ssr:stedsnr" v="135992" />
	</node>
	<node lat="64.02626666524698" lon="11.194830547241162" id="-29727">
		<tag k="name" v="Nertjønna" />
		<tag k="natural" v="water" />
		<tag k="ssr:stedsnr" v="135993" />
	</node>
	<node lat="64.05708889283964" lon="11.540272226239804" id="-29740">
		<tag k="name" v="Aspsetervatnet" />
		<tag k="natural" v="water" />
		<tag k="ssr:stedsnr" v="143700" />
		<tag k="water" v="lake" />
	</node>
	<node lat="64.06873610717403" lon="11.519277777552247" id="-29741">
		<tag k="name" v="Svenningbekken" />
		<tag k="ssr:stedsnr" v="143722" />
		<tag k="waterway" v="stream" />
	</node>
	<node lat="64.08580555336287" lon="11.512322213218138" id="-29747">
		<tag k="name" v="Saursaunelva" />
		<tag k="ssr:stedsnr" v="143645" />
		<tag k="waterway" v="stream" />
	</node>
	<node lat="63.972238887795264" lon="11.445822221679679" id="-29753">
		<tag k="name" v="Holtauntjønna" />
		<tag k="natural" v="water" />
		<tag k="ssr:stedsnr" v="143876" />
	</node>
	<node lat="63.87600555236225" lon="11.476069451090535" id="-29755">
		<tag k="name" v="Svarttangen" />
		<tag k="natural" v="cape" />
		<tag k="ssr:stedsnr" v="143952" />
	</node>
	<node lat="64.19887222051902" lon="11.86153889735445" id="-29763">
		<tag k="name" v="Litlelva" />
		<tag k="ssr:stedsnr" v="149778" />
		<tag k="waterway" v="river" />
	</node>
	<node lat="64.1122388844106" lon="11.696225003279356" id="-29773">
		<tag k="name" v="Geilvollbekken" />
		<tag k="ssr:stedsnr" v="149215" />
		<tag k="waterway" v="stream" />
	</node>
	<node lat="63.91031388874817" lon="11.682900009164717" id="-29777">
		<tag k="name" v="Johannestjønna" />
		<tag k="natural" v="water" />
		<tag k="ssr:stedsnr" v="149349" />
	</node>
	<node lat="64.06313333183094" lon="11.641008325770855" id="-29780">
		<tag k="name" v="Fornesbukta" />
		<tag k="natural" v="bay" />
		<tag k="ssr:stedsnr" v="149279" />
	</node>
	<node lat="64.15767778062707" lon="11.57989999425279" id="-29782">
		<tag k="name" v="Bjørndalsbekken" />
		<tag k="ssr:stedsnr" v="149394" />
		<tag k="waterway" v="stream" />
	</node>
	<node lat="63.91113889064285" lon="11.663236121106832" id="-29784">
		<tag k="name" v="Bjørntjønna" />
		<tag k="natural" v="water" />
		<tag k="ssr:stedsnr" v="149352" />
	</node>
	<node lat="64.14933333287094" lon="11.9262111110874" id="-29791">
		<tag k="name" v="Kjerringtangen" />
		<tag k="natural" v="cape" />
		<tag k="ssr:stedsnr" v="149932" />
	</node>
	<node lat="63.98876667018214" lon="11.48400554951698" id="-29796">
		<tag k="name" v="Djupsvebekken" />
		<tag k="ssr:stedsnr" v="149950" />
		<tag k="waterway" v="stream" />
	</node>
	<node lat="64.02331388497717" lon="11.519366672385338" id="-29799">
		<tag k="name" v="Kutåholmen" />
		<tag k="place" v="islet" />
		<tag k="ssr:stedsnr" v="149882" />
	</node>
	<node lat="64.17714444286831" lon="11.772252776451413" id="-29800">
		<tag k="name" v="Vikatangen" />
		<tag k="natural" v="cape" />
		<tag k="ssr:stedsnr" v="149899" />
	</node>
	<node lat="64.07133611509425" lon="11.238930560269827" id="-29805">
		<tag k="alt_name" v="Aurriket" />
		<tag k="name" v="Auriket" />
		<tag k="natural" v="cape" />
		<tag k="ssr:stedsnr" v="149986" />
	</node>
	<node lat="64.20281666327612" lon="12.010077767921675" id="-29809">
		<tag k="name" v="Reinsvika" />
		<tag k="natural" v="bay" />
		<tag k="ssr:stedsnr" v="150000" />
	</node>
	<node lat="64.13804722461798" lon="11.796505564261498" id="-29810">
		<tag k="name" v="Dursmålholmen" />
		<tag k="place" v="islet" />
		<tag k="ssr:stedsnr" v="150028" />
	</node>
	<node lat="64.05249444582643" lon="10.886891676267243" id="-29827">
		<tag k="name" v="Fremre Andortjønna" />
		<tag k="natural" v="water" />
		<tag k="ssr:stedsnr" v="168624" />
	</node>
	<node lat="63.991858335982236" lon="12.285130551625867" id="-29830">
		<tag k="name" v="Tverrbekken" />
		<tag k="ssr:stedsnr" v="170352" />
		<tag k="waterway" v="stream" />
	</node>
	<node lat="63.986708329782225" lon="10.8656888869612" id="-29832">
		<tag k="name" v="Sandbukta" />
		<tag k="natural" v="bay" />
		<tag k="ssr:stedsnr" v="169090" />
	</node>
	<node lat="64.04130555122345" lon="11.106522220867124" id="-29834">
		<tag k="name" v="Bomfesttangen" />
		<tag k="natural" v="cape" />
		<tag k="ssr:stedsnr" v="169020" />
	</node>
	<node lat="64.20915833194661" lon="11.595016661195494" id="-29839">
		<tag k="name" v="Larstangen" />
		<tag k="natural" v="bay" />
		<tag k="ssr:stedsnr" v="169046" />
	</node>
	<node lat="64.01849722670171" lon="10.93413610189302" id="-29842">
		<tag k="name" v="Stordalsbekken" />
		<tag k="ssr:stedsnr" v="169052" />
		<tag k="waterway" v="stream" />
	</node>
	<node lat="63.9757305519178" lon="10.854261108950519" id="-29843">
		<tag k="name" v="Agnettjønna" />
		<tag k="natural" v="water" />
		<tag k="ssr:stedsnr" v="169137" />
	</node>
	<node lat="64.01061944758796" lon="11.153305548039206" id="-29849">
		<tag k="name" v="Langtangen" />
		<tag k="natural" v="cape" />
		<tag k="ssr:stedsnr" v="169480" />
	</node>
	<node lat="64.0922750004684" lon="10.99563889510165" id="-29851">
		<tag k="name" v="Finndalsbekken" />
		<tag k="ssr:stedsnr" v="169653" />
		<tag k="waterway" v="stream" />
	</node>
	<node lat="64.06851388876846" lon="10.995302784707453" id="-29852">
		<tag k="name" v="Olheitangen" />
		<tag k="natural" v="cape" />
		<tag k="ssr:stedsnr" v="169734" />
	</node>
	<node lat="64.16471111418255" lon="11.48206666806134" id="-29853">
		<tag k="name" v="Tvillingtjønnin" />
		<tag k="natural" v="water" />
		<tag k="ssr:stedsnr" v="169735" />
	</node>
	<node lat="64.03020555781485" lon="11.825802775770939" id="-29857">
		<tag k="name" v="Bårdsbekken" />
		<tag k="ssr:stedsnr" v="169875" />
		<tag k="waterway" v="stream" />
	</node>
	<node lat="64.07723611256768" lon="11.856952772950507" id="-29862">
		<tag k="name" v="Hatlingdammen" />
		<tag k="ssr:stedsnr" v="169938" />
		<tag k="waterway" v="dam" />
	</node>
	<node lat="63.96549444289959" lon="12.199377778704957" id="-29866">
		<tag k="name" v="Hammertjønna" />
		<tag k="natural" v="water" />
		<tag k="ssr:stedsnr" v="170640" />
	</node>
	<node lat="63.957824996643154" lon="11.896361120296252" id="-29870">
		<tag k="name" v="Gammelseterbekken" />
		<tag k="ssr:stedsnr" v="170515" />
		<tag k="waterway" v="stream" />
	</node>
	<node lat="64.03139444655314" lon="12.007775001619333" id="-29872">
		<tag k="name" v="Tauskjerringbekken" />
		<tag k="ssr:stedsnr" v="170499" />
		<tag k="waterway" v="stream" />
	</node>
	<node lat="63.92611110843822" lon="11.952502785153287" id="-29873">
		<tag k="name" v="Litlkroktjønna" />
		<tag k="natural" v="water" />
		<tag k="ssr:stedsnr" v="170504" />
	</node>
	<node lat="64.224733330526" lon="11.835983343069637" id="-29916">
		<tag k="name" v="Vengstadtjønna" />
		<tag k="natural" v="water" />
		<tag k="ssr:stedsnr" v="195417" />
	</node>
	<node lat="63.99923888797157" lon="12.202697223685718" id="-29922">
		<tag k="name" v="Langtjønna" />
		<tag k="natural" v="water" />
		<tag k="ssr:stedsnr" v="196299" />
	</node>
	<node lat="63.91349721887138" lon="11.988352770926761" id="-29926">
		<tag k="name" v="Hærvoltjønna" />
		<tag k="natural" v="water" />
		<tag k="ssr:stedsnr" v="196412" />
	</node>
	<node lat="63.896844445548254" lon="11.516441656916045" id="-29942">
		<tag k="name" v="Dyrstadtjønna" />
		<tag k="natural" v="water" />
		<tag k="ssr:stedsnr" v="196099" />
	</node>
	<node lat="63.966702780155245" lon="12.020047212445856" id="-29954">
		<tag k="name" v="Bjørbekken" />
		<tag k="ssr:stedsnr" v="196359" />
		<tag k="waterway" v="stream" />
	</node>
	<node lat="64.26486110963798" lon="11.81248056388754" id="-29961">
		<tag k="name" v="Gåstjønna" />
		<tag k="natural" v="water" />
		<tag k="ssr:stedsnr" v="196471" />
	</node>
	<node lat="64.08172222422749" lon="11.045716661904343" id="-29963">
		<tag k="name" v="Reklingtjønna" />
		<tag k="natural" v="water" />
		<tag k="ssr:stedsnr" v="196486" />
	</node>
	<node lat="64.07069166418641" lon="11.161047220366342" id="-29965">
		<tag k="name" v="Vasslivatnet" />
		<tag k="natural" v="water" />
		<tag k="ssr:stedsnr" v="196514" />
	</node>
	<node lat="64.01986944433135" lon="11.990944443936318" id="-29971">
		<tag k="name" v="Slettbekken" />
		<tag k="ssr:stedsnr" v="196619" />
		<tag k="waterway" v="stream" />
	</node>
	<node lat="63.95232777633192" lon="12.224402778127528" id="-29978">
		<tag k="name" v="Finntjønna" />
		<tag k="natural" v="water" />
		<tag k="ssr:stedsnr" v="196697" />
	</node>
	<node lat="64.01251111308781" lon="12.21509166714403" id="-29984">
		<tag k="name" v="Vintertjønna" />
		<tag k="natural" v="water" />
		<tag k="ssr:stedsnr" v="196653" />
	</node>
	<node lat="64.21768889295419" lon="11.694444438574626" id="-29985">
		<tag k="name" v="Storgrønlivatnet" />
		<tag k="natural" v="water" />
		<tag k="ssr:stedsnr" v="196909" />
		<tag k="water" v="lake" />
	</node>
	<node lat="64.03461944694891" lon="10.88366665713266" id="-29990">
		<tag k="name" v="Nordvargtjønna" />
		<tag k="natural" v="water" />
		<tag k="ssr:stedsnr" v="196939" />
	</node>
	<node lat="64.15473055547298" lon="11.305947215723513" id="-29993">
		<tag k="name" v="Storaunvatnet" />
		<tag k="natural" v="water" />
		<tag k="ssr:stedsnr" v="196755" />
	</node>
	<node lat="64.04328610702147" lon="11.343705549948282" id="-30000">
		<tag k="name" v="Visetelva" />
		<tag k="ssr:stedsnr" v="204175" />
		<tag k="waterway" v="stream" />
	</node>
	<node lat="63.883758333725" lon="11.505566664958431" id="-30008">
		<tag k="name" v="Holttjønna" />
		<tag k="natural" v="water" />
		<tag k="ssr:stedsnr" v="204498" />
	</node>
	<node lat="64.09198333100878" lon="11.512019449210461" id="-30011">
		<tag k="name" v="Lømselva" />
		<tag k="ssr:stedsnr" v="204619" />
		<tag k="waterway" v="stream" />
	</node>
	<node lat="64.05118888798337" lon="11.547316673999678" id="-30013">
		<tag k="name" v="Oksholet" />
		<tag k="natural" v="water" />
		<tag k="ssr:stedsnr" v="204713" />
	</node>
	<node lat="64.1307972245688" lon="11.50669444352538" id="-30025">
		<tag k="name" v="Storaunvatnet" />
		<tag k="natural" v="water" />
		<tag k="ssr:stedsnr" v="204641" />
		<tag k="water" v="lake" />
	</node>
	<node lat="64.13366388448537" lon="11.536194443011562" id="-30026">
		<tag k="name" v="Bjørktjønna" />
		<tag k="natural" v="water" />
		<tag k="ssr:stedsnr" v="204646" />
		<tag k="water" v="lake" />
	</node>
	<node lat="64.11968055784818" lon="11.597930564579453" id="-30043">
		<tag k="name" v="Auntangen" />
		<tag k="natural" v="cape" />
		<tag k="ssr:stedsnr" v="210441" />
	</node>
	<node lat="63.86466111261517" lon="10.750988891891275" id="-30044">
		<tag k="name" v="Kvitkubekken" />
		<tag k="ssr:stedsnr" v="210085" />
		<tag k="waterway" v="stream" />
	</node>
	<node lat="64.1539722181613" lon="11.699250008556787" id="-30054">
		<tag k="name" v="Langmyrbekken" />
		<tag k="ssr:stedsnr" v="210198" />
		<tag k="waterway" v="stream" />
	</node>
	<node lat="63.93156111422862" lon="10.955130550124116" id="-30059">
		<tag k="name" v="Storbekken" />
		<tag k="ssr:stedsnr" v="210066" />
		<tag k="waterway" v="stream" />
	</node>
	<node lat="64.1313972232185" lon="11.808163896238845" id="-30073">
		<tag k="name" v="Hansbukta" />
		<tag k="natural" v="bay" />
		<tag k="ssr:stedsnr" v="211033" />
	</node>
	<node lat="64.18039444861714" lon="11.785822230584476" id="-30080">
		<tag k="name" v="Breiåa" />
		<tag k="ssr:stedsnr" v="211743" />
		<tag k="waterway" v="river" />
	</node>
	<node lat="64.1890027807785" lon="11.818405565469039" id="-30082">
		<tag k="name" v="Kvernhusbekken" />
		<tag k="ssr:stedsnr" v="211747" />
		<tag k="waterway" v="stream" />
	</node>
	<node lat="64.17758055617051" lon="11.854736108932217" id="-30088">
		<tag k="name" v="Dalabekken" />
		<tag k="ssr:stedsnr" v="211841" />
		<tag k="waterway" v="stream" />
	</node>
	<node lat="64.17169444523294" lon="11.856925006880257" id="-30090">
		<tag k="name" v="Holmen" />
		<tag k="place" v="islet" />
		<tag k="ssr:stedsnr" v="211851" />
	</node>
	<node lat="64.16466944423514" lon="11.80436667156865" id="-30091">
		<tag k="name" v="Myrbekken" />
		<tag k="ssr:stedsnr" v="211854" />
		<tag k="waterway" v="river" />
	</node>
	<node lat="64.13426388983711" lon="11.233444439264286" id="-30110">
		<tag k="name" v="Linåa" />
		<tag k="ssr:stedsnr" v="281671" />
		<tag k="waterway" v="stream" />
	</node>
	<node lat="64.11818055886414" lon="11.20628333054551" id="-30111">
		<tag k="name" v="Seterbekken" />
		<tag k="ssr:stedsnr" v="281679" />
		<tag k="waterway" v="stream" />
	</node>
	<node lat="63.88652499945243" lon="10.827011116203545" id="-30113">
		<tag k="name" v="Lomtjønna" />
		<tag k="natural" v="water" />
		<tag k="ssr:stedsnr" v="282266" />
	</node>
	<node lat="63.99639166583296" lon="10.850413879577417" id="-30129">
		<tag k="name" v="Bybekksundet" />
		<tag k="natural" v="strait" />
		<tag k="ssr:stedsnr" v="290136" />
	</node>
	<node lat="63.98355277394905" lon="10.81871667549157" id="-30130">
		<tag k="name" v="Taskvasstjønna" />
		<tag k="natural" v="water" />
		<tag k="ssr:stedsnr" v="290153" />
	</node>
	<node lat="63.99576388766508" lon="10.900780548583313" id="-30133">
		<tag k="name" v="Aunbekken" />
		<tag k="ssr:stedsnr" v="290100" />
		<tag k="waterway" v="stream" />
	</node>
	<node lat="64.01882777365176" lon="10.885874997214245" id="-30134">
		<tag k="name" v="Vargtjønna" />
		<tag k="natural" v="water" />
		<tag k="ssr:stedsnr" v="290115" />
	</node>
	<node lat="64.05632222107414" lon="11.039661105500947" id="-30137">
		<tag k="name" v="Litl - Holden" />
		<tag k="natural" v="water" />
		<tag k="ssr:stedsnr" v="291014" />
		<tag k="water" v="lake" />
	</node>
	<node lat="64.20292222339828" lon="11.936402779173232" id="-30146">
		<tag k="name" v="Litlkvitesttjønna" />
		<tag k="natural" v="water" />
		<tag k="ssr:stedsnr" v="290791" />
	</node>
	<node lat="64.21688055801616" lon="11.872580560954766" id="-30147">
		<tag k="name" v="Litl-Tosttjønna" />
		<tag k="natural" v="water" />
		<tag k="ssr:stedsnr" v="290818" />
	</node>
	<node lat="63.995358333912584" lon="11.93400554715108" id="-30149">
		<tag k="name" v="Johanbekken" />
		<tag k="ssr:stedsnr" v="290914" />
		<tag k="waterway" v="stream" />
	</node>
	<node lat="64.24176666310407" lon="11.608291675053605" id="-30155">
		<tag k="name" v="Ragnhildtjønna" />
		<tag k="natural" v="water" />
		<tag k="ssr:stedsnr" v="291047" />
	</node>
	<node lat="64.16470000083524" lon="11.680422216764415" id="-30165">
		<tag k="name" v="Tåsmåsneset" />
		<tag k="natural" v="cape" />
		<tag k="ssr:stedsnr" v="291239" />
	</node>
	<node lat="64.17209444271082" lon="11.668955554337815" id="-30167">
		<tag k="name" v="Austerseterbekken" />
		<tag k="ssr:stedsnr" v="291245" />
		<tag k="waterway" v="stream" />
	</node>
	<node lat="64.18893055276341" lon="11.707250006731769" id="-30171">
		<tag k="name" v="Grindbergsengbekken" />
		<tag k="ssr:stedsnr" v="291259" />
		<tag k="waterway" v="stream" />
	</node>
	<node lat="64.00043889288298" lon="12.025797214359542" id="-30172">
		<tag k="name" v="Kvitsandbukta" />
		<tag k="natural" v="bay" />
		<tag k="ssr:stedsnr" v="291265" />
	</node>
	<node lat="63.9914888863633" lon="12.070519436284219" id="-30174">
		<tag k="name" v="Buabukta" />
		<tag k="natural" v="bay" />
		<tag k="ssr:stedsnr" v="291314" />
	</node>
	<node lat="64.01007222238455" lon="12.27446111854751" id="-30176">
		<tag k="name" v="Gåstjønnbekken" />
		<tag k="ssr:stedsnr" v="291352" />
		<tag k="waterway" v="stream" />
	</node>
	<node lat="64.1107222214937" lon="12.018577781397312" id="-30177">
		<tag k="name" v="Storelvtjønna" />
		<tag k="natural" v="water" />
		<tag k="ssr:stedsnr" v="291470" />
	</node>
	<node lat="64.04438888512817" lon="11.130452774024896" id="-30178">
		<tag k="name" v="Tømtbekken" />
		<tag k="ssr:stedsnr" v="291474" />
		<tag k="waterway" v="stream" />
	</node>
	<node lat="63.91033055773591" lon="11.744708334881803" id="-30180">
		<tag k="name" v="Moatjønna" />
		<tag k="natural" v="water" />
		<tag k="ssr:stedsnr" v="291563" />
	</node>
	<node lat="64.03435000339617" lon="12.082319437305994" id="-30183">
		<tag k="name" v="Feitfisktjønna" />
		<tag k="natural" v="water" />
		<tag k="ssr:stedsnr" v="291490" />
	</node>
	<node lat="63.917452781161245" lon="11.897483326702284" id="-30184">
		<tag k="name" v="Leinssetertjønna" />
		<tag k="natural" v="water" />
		<tag k="ssr:stedsnr" v="291515" />
	</node>
	<node lat="63.926897223792196" lon="11.862858335381155" id="-30191">
		<tag k="name" v="Lamtjønna" />
		<tag k="natural" v="water" />
		<tag k="ssr:stedsnr" v="291598" />
	</node>
	<node lat="63.929272224113944" lon="11.750536110075123" id="-30193">
		<tag k="name" v="Lomtjønna" />
		<tag k="natural" v="water" />
		<tag k="ssr:stedsnr" v="291569" />
	</node>
	<node lat="63.92696388782658" lon="11.757219437396301" id="-30194">
		<tag k="name" v="Blanktjønnin" />
		<tag k="natural" v="water" />
		<tag k="ssr:stedsnr" v="291573" />
	</node>
	<node lat="63.960133329243675" lon="12.33348055688103" id="-30196">
		<tag k="name" v="Kinnarodden" />
		<tag k="natural" v="cape" />
		<tag k="ssr:stedsnr" v="291656" />
	</node>
	<node lat="63.98403055089456" lon="12.16936667625233" id="-30199">
		<tag k="name" v="Smedseterbekken" />
		<tag k="ssr:stedsnr" v="291715" />
		<tag k="waterway" v="stream" />
	</node>
	<node lat="63.9141055541568" lon="10.654161114674281" id="-30233">
		<tag k="loc_name:sma" v="Sarvejaevrie" />
		<tag k="name" v="Stor-Mefjellsvatnet" />
		<tag k="name:no" v="Stor-Mefjellsvatnet" />
		<tag k="natural" v="water" />
		<tag k="ssr:stedsnr" v="316340" />
	</node>
	<node lat="63.98452499901603" lon="11.054552777240358" id="-30234">
		<tag k="fixme" v="multiple name tags, choose one and add the other to alt_name" />
		<tag k="name" v="Aslakdammen;Klumtjønna" />
		<tag k="natural" v="water" />
		<tag k="ssr:stedsnr" v="317535" />
	</node>
	<node lat="63.87862499738021" lon="11.476538880310219" id="-30237">
		<tag k="name" v="Vådalsvatnet" />
		<tag k="natural" v="water" />
		<tag k="ssr:stedsnr" v="317065" />
		<tag k="water" v="lake" />
	</node>
	<node lat="64.0398138916396" lon="11.62710833378082" id="-30243">
		<tag k="fixme" v="multiple name tags, choose one and add the other to alt_name" />
		<tag k="name" v="Rådsbekken;Skjevlobekken" />
		<tag k="ssr:stedsnr" v="317086" />
		<tag k="waterway" v="stream" />
	</node>
	<node lat="64.03865277587012" lon="11.583261107185178" id="-30245">
		<tag k="name" v="Reinsvatnet" />
		<tag k="natural" v="water" />
		<tag k="ssr:stedsnr" v="317090" />
		<tag k="water" v="lake" />
	</node>
	<node lat="63.92746666943661" lon="11.661511105466927" id="-30249">
		<tag k="name" v="Stamdalstjønna" />
		<tag k="natural" v="water" />
		<tag k="ssr:stedsnr" v="317030" />
	</node>
	<node lat="64.06516666648378" lon="11.573761108398664" id="-30250">
		<tag k="name" v="Hundlovatnet" />
		<tag k="natural" v="water" />
		<tag k="ssr:stedsnr" v="317031" />
	</node>
	<node lat="64.08453889123349" lon="11.42836944722598" id="-30259">
		<tag k="name" v="Vesterhusvatnet" />
		<tag k="natural" v="water" />
		<tag k="ssr:stedsnr" v="317229" />
	</node>
	<node lat="64.11658888560517" lon="11.882888893841091" id="-30262">
		<tag k="name" v="Fiskløysa" />
		<tag k="natural" v="water" />
		<tag k="ssr:stedsnr" v="317241" />
	</node>
	<node lat="64.11284167041188" lon="12.029066672187959" id="-30263">
		<tag k="name" v="Nedre Løstjønnin" />
		<tag k="natural" v="water" />
		<tag k="ssr:stedsnr" v="317244" />
	</node>
	<node lat="64.12211389315365" lon="11.801325007023738" id="-30264">
		<tag k="name" v="Tiltneselva" />
		<tag k="ssr:stedsnr" v="317250" />
		<tag k="waterway" v="stream" />
	</node>
	<node lat="64.14113888866719" lon="11.760652770547763" id="-30267">
		<tag k="name" v="Grøtøya" />
		<tag k="place" v="islet" />
		<tag k="ssr:stedsnr" v="317275" />
	</node>
	<node lat="64.14961944856526" lon="11.917444445600129" id="-30269">
		<tag k="name" v="Valløya" />
		<tag k="place" v="island" />
		<tag k="ssr:stedsnr" v="317282" />
	</node>
	<node lat="64.18075277714465" lon="11.747791664443678" id="-30285">
		<tag k="alt_name" v="Brela" />
		<tag k="name" v="Bræla" />
		<tag k="old_name" v="Breia" />
		<tag k="ssr:stedsnr" v="317430" />
		<tag k="waterway" v="stream" />
	</node>
	<node lat="63.91985555216067" lon="11.941858331002544" id="-30286">
		<tag k="name" v="Litlrundtjønna" />
		<tag k="natural" v="water" />
		<tag k="ssr:stedsnr" v="317435" />
	</node>
	<node lat="64.00498333490218" lon="11.585572219551587" id="-30292">
		<tag k="name" v="Bruemfossen" />
		<tag k="natural" v="waterfall" />
		<tag k="ssr:stedsnr" v="317384" />
	</node>
	<node lat="64.09821944311956" lon="10.971949999680625" id="-30294">
		<tag k="name" v="Søresplingen" />
		<tag k="natural" v="water" />
		<tag k="ssr:stedsnr" v="317465" />
	</node>
	<node lat="64.17012777811621" lon="11.399508337505555" id="-30309">
		<tag k="name" v="Kviksåsvatnet" />
		<tag k="natural" v="water" />
		<tag k="ssr:stedsnr" v="317837" />
	</node>
	<node lat="64.02712778172038" lon="10.900602772705058" id="-30327">
		<tag k="name" v="Sandvatna" />
		<tag k="natural" v="water" />
		<tag k="ssr:stedsnr" v="317984" />
		<tag k="water" v="lake" />
	</node>
	<node lat="64.02861389100491" lon="10.787019441592355" id="-30328">
		<tag k="name" v="Skamnavatnet" />
		<tag k="natural" v="water" />
		<tag k="ssr:stedsnr" v="317989" />
	</node>
	<node lat="64.14665833431653" lon="11.462983334630453" id="-30336">
		<tag k="name" v="Nedre Holmfettjønna" />
		<tag k="natural" v="water" />
		<tag k="ssr:stedsnr" v="326633" />
	</node>
	<node lat="63.91968055897791" lon="11.505838881430604" id="-30343">
		<tag k="name" v="Skjelja" />
		<tag k="ssr:stedsnr" v="326699" />
		<tag k="waterway" v="stream" />
	</node>
	<node lat="63.962091662549554" lon="11.379319447790074" id="-30365">
		<tag k="name" v="Langåstjønna" />
		<tag k="natural" v="water" />
		<tag k="ssr:stedsnr" v="326900" />
	</node>
	<node lat="64.12578888988314" lon="11.664375008427461" id="-30381">
		<tag k="name" v="Grønnestangen" />
		<tag k="natural" v="cape" />
		<tag k="ssr:stedsnr" v="332078" />
	</node>
	<node lat="64.16976666508346" lon="11.713019438829791" id="-30392">
		<tag k="name" v="Sørelva" />
		<tag k="ssr:stedsnr" v="332089" />
		<tag k="waterway" v="river" />
	</node>
	<node lat="64.13286944830097" lon="11.842658328803239" id="-30405">
		<tag k="name" v="Brattåsbekken" />
		<tag k="ssr:stedsnr" v="332778" />
		<tag k="waterway" v="stream" />
	</node>
	<node lat="64.14612500200423" lon="11.9596916647673" id="-30413">
		<tag k="name" v="Holbekken" />
		<tag k="ssr:stedsnr" v="332875" />
		<tag k="waterway" v="stream" />
	</node>
	<node lat="64.08574167001274" lon="11.083005554385217" id="-30459">
		<tag k="name" v="Skarseterbekken" />
		<tag k="ssr:stedsnr" v="350636" />
		<tag k="waterway" v="stream" />
	</node>
	<node lat="64.00046111053621" lon="10.955255560094207" id="-30463">
		<tag k="name" v="Flatangerbekken" />
		<tag k="ssr:stedsnr" v="351082" />
		<tag k="waterway" v="stream" />
	</node>
	<node lat="64.01085833557273" lon="10.864711101231086" id="-30465">
		<tag k="name" v="Innermarkbekken" />
		<tag k="ssr:stedsnr" v="351088" />
		<tag k="waterway" v="stream" />
	</node>
	<node lat="64.02751389148283" lon="11.010713896416668" id="-30476">
		<tag k="name" v="Heddemarkbekken" />
		<tag k="ssr:stedsnr" v="351042" />
		<tag k="waterway" v="stream" />
	</node>
	<node lat="64.2764833301149" lon="11.767694440309848" id="-30477">
		<tag k="name" v="Hattjønnin" />
		<tag k="natural" v="water" />
		<tag k="ssr:stedsnr" v="351116" />
	</node>
	<node lat="64.17748333460555" lon="11.392594452063058" id="-30485">
		<tag k="name" v="Honburutjønna" />
		<tag k="natural" v="water" />
		<tag k="ssr:stedsnr" v="351728" />
	</node>
	<node lat="64.05448055275399" lon="11.148905548496241" id="-30492">
		<tag k="name" v="Trondneset" />
		<tag k="natural" v="cape" />
		<tag k="ssr:stedsnr" v="351689" />
	</node>
	<node lat="63.98130833030419" lon="11.702283335670995" id="-30500">
		<tag k="name" v="Seterfossen" />
		<tag k="natural" v="waterfall" />
		<tag k="ssr:stedsnr" v="351939" />
	</node>
	<node lat="63.96670833160276" lon="11.752074990225395" id="-30501">
		<tag k="name" v="Svartåstjønnin" />
		<tag k="natural" v="water" />
		<tag k="ssr:stedsnr" v="351942" />
	</node>
	<node lat="64.19256111144246" lon="11.70632777332364" id="-30507">
		<tag k="name" v="Knesengbekken" />
		<tag k="ssr:stedsnr" v="352224" />
		<tag k="waterway" v="stream" />
	</node>
	<node lat="63.98791666843872" lon="12.123416665766442" id="-30510">
		<tag k="name" v="Storhola" />
		<tag k="ssr:stedsnr" v="352284" />
		<tag k="waterway" v="stream" />
	</node>
	<node lat="64.00266666367445" lon="12.128458338127059" id="-30511">
		<tag k="name" v="Nordvaltangen" />
		<tag k="natural" v="cape" />
		<tag k="ssr:stedsnr" v="352296" />
	</node>
	<node lat="64.17975555528012" lon="11.693591658923523" id="-30512">
		<tag k="name" v="Nesjan" />
		<tag k="natural" v="cape" />
		<tag k="ssr:stedsnr" v="352167" />
	</node>
	<node lat="64.20059166797799" lon="11.641561118321576" id="-30513">
		<tag k="name" v="Åssveseterbekken" />
		<tag k="ssr:stedsnr" v="352169" />
		<tag k="waterway" v="stream" />
	</node>
	<node lat="63.97788611144337" lon="11.975883332588415" id="-30517">
		<tag k="name" v="Elgtjønna" />
		<tag k="natural" v="water" />
		<tag k="ssr:stedsnr" v="352533" />
	</node>
	<node lat="64.01197222113314" lon="12.23532221383064" id="-30521">
		<tag k="name" v="Sotbekken" />
		<tag k="ssr:stedsnr" v="352316" />
		<tag k="waterway" v="stream" />
	</node>
	<node lat="64.01804721815341" lon="12.216947231412727" id="-30522">
		<tag k="name" v="Klomptjønna" />
		<tag k="natural" v="water" />
		<tag k="ssr:stedsnr" v="352325" />
	</node>
	<node lat="64.00815833496937" lon="12.20372777963693" id="-30523">
		<tag k="name" v="Flattjønna" />
		<tag k="natural" v="water" />
		<tag k="ssr:stedsnr" v="352326" />
	</node>
	<node lat="64.04879444428649" lon="12.003883324310559" id="-30525">
		<tag k="name" v="Krutjønna" />
		<tag k="natural" v="water" />
		<tag k="ssr:stedsnr" v="352463" />
	</node>
	<node lat="63.97590000306738" lon="12.093827787719153" id="-30529">
		<tag k="name" v="Holbekken" />
		<tag k="ssr:stedsnr" v="352692" />
		<tag k="waterway" v="stream" />
	</node>
	<node lat="63.96645833705945" lon="12.346711112210503" id="-30531">
		<tag k="name" v="Strugstadbukta" />
		<tag k="natural" v="bay" />
		<tag k="ssr:stedsnr" v="352646" />
	</node>
	<node lat="64.02909166373709" lon="11.463358327834447" id="-30573">
		<tag k="name" v="Lundelva" />
		<tag k="ssr:stedsnr" v="378045" />
		<tag k="waterway" v="stream" />
	</node>
	<node lat="64.05621666302658" lon="11.467963889573609" id="-30576">
		<tag k="name" v="Vassaunvatnet" />
		<tag k="natural" v="water" />
		<tag k="ssr:stedsnr" v="377006" />
	</node>
	<node lat="64.04632500029061" lon="11.586224999111707" id="-30579">
		<tag k="name" v="Trappneset" />
		<tag k="natural" v="cape" />
		<tag k="ssr:stedsnr" v="377025" />
	</node>
	<node lat="64.11232500115526" lon="11.49976389854853" id="-30583">
		<tag k="name" v="Rostadbekken" />
		<tag k="ssr:stedsnr" v="377149" />
		<tag k="waterway" v="stream" />
	</node>
	<node lat="64.14093333379813" lon="11.958336102059382" id="-30594">
		<tag k="name" v="Bøla" />
		<tag k="ssr:stedsnr" v="377275" />
		<tag k="waterway" v="river" />
	</node>
	<node lat="64.13982777847411" lon="11.96291111275949" id="-30595">
		<tag k="name" v="Råtjønna" />
		<tag k="natural" v="water" />
		<tag k="ssr:stedsnr" v="377277" />
	</node>
	<node lat="63.888058333045564" lon="10.700330555626278" id="-30596">
		<tag k="name" v="Ormsetlonan" />
		<tag k="natural" v="water" />
		<tag k="ssr:stedsnr" v="377284" />
	</node>
	<node lat="63.88788889054296" lon="10.672866665536013" id="-30597">
		<tag k="name" v="Ormsetvatnet" />
		<tag k="natural" v="water" />
		<tag k="ssr:stedsnr" v="377286" />
		<tag k="water" v="lake" />
	</node>
	<node lat="64.15427777743652" lon="11.826188893632708" id="-30598">
		<tag k="name" v="Buøya" />
		<tag k="place" v="islet" />
		<tag k="ssr:stedsnr" v="377298" />
	</node>
	<node lat="64.15622777971339" lon="11.939677778346496" id="-30599">
		<tag k="name" v="Hestnestangen" />
		<tag k="natural" v="cape" />
		<tag k="ssr:stedsnr" v="377299" />
	</node>
	<node lat="63.955072225283786" lon="11.819497229159024" id="-30605">
		<tag k="name" v="Tollstadseterbekken" />
		<tag k="ssr:stedsnr" v="377394" />
		<tag k="waterway" v="stream" />
	</node>
	<node lat="63.88016944214909" lon="10.750558335941445" id="-30607">
		<tag k="name" v="Lauvlifossen" />
		<tag k="natural" v="waterfall" />
		<tag k="ssr:stedsnr" v="377525" />
	</node>
	<node lat="63.81518055604323" lon="10.51610277709463" id="-30612">
		<tag k="name" v="Augvatnet" />
		<tag k="natural" v="water" />
		<tag k="ssr:stedsnr" v="377429" />
		<tag k="water" v="lake" />
	</node>
	<node lat="64.17705277625382" lon="11.787227780679961" id="-30613">
		<tag k="name" v="Vikatjønna" />
		<tag k="natural" v="water" />
		<tag k="ssr:stedsnr" v="377455" />
	</node>
	<node lat="64.18759999786394" lon="11.96531389054583" id="-30614">
		<tag k="name" v="Langøya" />
		<tag k="place" v="islet" />
		<tag k="ssr:stedsnr" v="377461" />
	</node>
	<node lat="64.20218888927499" lon="11.821594453506197" id="-30616">
		<tag k="name" v="Trekvisla" />
		<tag k="natural" v="water" />
		<tag k="ssr:stedsnr" v="377477" />
	</node>
	<node lat="64.10696111362984" lon="10.949369445351621" id="-30617">
		<tag k="name" v="Finntjønna" />
		<tag k="natural" v="water" />
		<tag k="ssr:stedsnr" v="377496" />
	</node>
	<node lat="64.03978889226491" lon="11.890897215322202" id="-30621">
		<tag k="name" v="Tjønnbekken" />
		<tag k="ssr:stedsnr" v="377639" />
		<tag k="waterway" v="stream" />
	</node>
	<node lat="64.03322500116909" lon="12.171480557001038" id="-30622">
		<tag k="name" v="Breibekktjønna" />
		<tag k="natural" v="water" />
		<tag k="ssr:stedsnr" v="377648" />
	</node>
	<node lat="63.96991944569292" lon="10.89134721439734" id="-30623">
		<tag k="name" v="Lauvtjønna" />
		<tag k="natural" v="water" />
		<tag k="ssr:stedsnr" v="377552" />
	</node>
	<node lat="63.958644443593094" lon="12.361108335031062" id="-30636">
		<tag k="alt_name" v="Strugstadbekken, yt" />
		<tag k="name" v="Ytre Strugstadbekken" />
		<tag k="ssr:stedsnr" v="377694" />
		<tag k="waterway" v="stream" />
	</node>
	<node lat="64.20852777972014" lon="11.542800004335394" id="-30637">
		<tag k="name" v="Litløya" />
		<tag k="place" v="islet" />
		<tag k="ssr:stedsnr" v="377821" />
	</node>
	<node lat="64.00870277351699" lon="12.255349996171235" id="-30641">
		<tag k="name" v="Sottjønnin" />
		<tag k="natural" v="water" />
		<tag k="ssr:stedsnr" v="377890" />
	</node>
	<node lat="64.0415527786228" lon="10.90746111452115" id="-30650">
		<tag k="name" v="Hyllvatnet" />
		<tag k="natural" v="water" />
		<tag k="ssr:stedsnr" v="377946" />
	</node>
	<node lat="64.0062166671416" lon="11.165311110402225" id="-30661">
		<tag k="alt_name" v="Sagelva" />
		<tag k="name" v="Sagbekken" />
		<tag k="ssr:stedsnr" v="378907" />
		<tag k="waterway" v="stream" />
	</node>
	<node lat="64.0087583305649" lon="11.106972213180624" id="-30666">
		<tag k="loc_name" v="Folla" />
		<tag k="name" v="Follaelva" />
		<tag k="ssr:stedsnr" v="377998" />
		<tag k="waterway" v="river" />
	</node>
	<node lat="64.1137222205201" lon="11.719541671363118" id="-30675">
		<tag k="name" v="Nordgardsbekken" />
		<tag k="ssr:stedsnr" v="378181" />
		<tag k="waterway" v="stream" />
	</node>
	<node lat="63.9366555522792" lon="11.898952783993947" id="-30678">
		<tag k="name" v="Olatjønna" />
		<tag k="natural" v="water" />
		<tag k="ssr:stedsnr" v="378491" />
	</node>
	<node lat="64.0705750024887" lon="11.882394441109478" id="-30680">
		<tag k="name" v="Hatlingvatnet" />
		<tag k="natural" v="water" />
		<tag k="ssr:stedsnr" v="378340" />
		<tag k="water" v="lake" />
	</node>
	<node lat="64.08040833682237" lon="11.953613896411836" id="-30681">
		<tag k="name" v="Gunnartjønna" />
		<tag k="natural" v="water" />
		<tag k="ssr:stedsnr" v="378345" />
	</node>
	<node lat="63.92406111544287" lon="11.82688610231781" id="-30686">
		<tag k="name" v="Bjørntjønna" />
		<tag k="natural" v="water" />
		<tag k="ssr:stedsnr" v="378513" />
	</node>
	<node lat="63.92307500167752" lon="11.945213898265955" id="-30687">
		<tag k="alt_name" v="Inder Langvatnet" />
		<tag k="name" v="Langvatnet" />
		<tag k="natural" v="water" />
		<tag k="ssr:stedsnr" v="378516" />
		<tag k="water" v="lake" />
	</node>
	<node lat="63.92144166287915" lon="11.760625002585545" id="-30690">
		<tag k="name" v="Heggstadtjønna" />
		<tag k="natural" v="water" />
		<tag k="ssr:stedsnr" v="378522" />
	</node>
	<node lat="63.91134166625975" lon="10.888236117150484" id="-30692">
		<tag k="name" v="Stamnan" />
		<tag k="natural" v="water" />
		<tag k="ssr:stedsnr" v="378545" />
	</node>
	<node lat="63.906744447916" lon="10.7723750070342" id="-30694">
		<tag k="name" v="Bjørntjønnin" />
		<tag k="natural" v="water" />
		<tag k="ssr:stedsnr" v="378550" />
	</node>
	<node lat="64.07731110853275" lon="11.007286101132856" id="-30703">
		<tag k="name" v="Olheibekken" />
		<tag k="ssr:stedsnr" v="378574" />
		<tag k="waterway" v="stream" />
	</node>
	<node lat="64.0708833299283" lon="11.02939722318445" id="-30704">
		<tag k="name" v="Hodalsholet" />
		<tag k="natural" v="bay" />
		<tag k="ssr:stedsnr" v="378581" />
	</node>
	<node lat="64.1342944477269" lon="11.319008326045799" id="-30710">
		<tag k="name" v="Gladsevatnet" />
		<tag k="natural" v="water" />
		<tag k="ssr:stedsnr" v="378829" />
	</node>
	<node lat="64.18622998973042" lon="11.478926888258796" id="-30712">
		<tag k="name" v="Litlbleia" />
		<tag k="natural" v="water" />
		<tag k="ssr:stedsnr" v="378839" />
	</node>
	<node lat="64.01472778104839" lon="10.881486115917541" id="-30715">
		<tag k="name" v="Vargtjønnin" />
		<tag k="natural" v="water" />
		<tag k="ssr:stedsnr" v="378972" />
	</node>
	<node lat="64.01943333336587" lon="10.839355550433947" id="-30716">
		<tag k="name" v="Lomtjønna" />
		<tag k="natural" v="water" />
		<tag k="ssr:stedsnr" v="378973" />
	</node>
	<node lat="64.01593889015878" lon="10.789913888083834" id="-30718">
		<tag k="name" v="Kruvtjønna - Giedtietjonne" />
		<tag k="name:no" v="Kruvtjønna" />
		<tag k="name:sma" v="Giedtietjonne" />
		<tag k="natural" v="water" />
		<tag k="ssr:stedsnr" v="378977" />
	</node>
	<node lat="64.15520555699345" lon="11.509244444369287" id="-30729">
		<tag k="name" v="Oksåsbekken" />
		<tag k="ssr:stedsnr" v="386631" />
		<tag k="waterway" v="stream" />
	</node>
	<node lat="64.13570555966851" lon="11.322255558562631" id="-30743">
		<tag k="name" v="Sandbekken" />
		<tag k="ssr:stedsnr" v="386775" />
		<tag k="waterway" v="stream" />
	</node>
	<node lat="64.1338694418848" lon="11.334269451392538" id="-30744">
		<tag k="name" v="Ådalsbekken" />
		<tag k="ssr:stedsnr" v="386777" />
		<tag k="waterway" v="stream" />
	</node>
	<node lat="63.87656944047163" lon="11.48598055100599" id="-30749">
		<tag k="name" v="Bjørbekken" />
		<tag k="ssr:stedsnr" v="386956" />
		<tag k="waterway" v="stream" />
	</node>
	<node lat="64.17429722007944" lon="11.759811103876613" id="-30760">
		<tag k="name" v="Grønspolen" />
		<tag k="natural" v="cape" />
		<tag k="ssr:stedsnr" v="392122" />
	</node>
	<node lat="64.09806666355577" lon="11.589702775099077" id="-30787">
		<tag k="name" v="Dalsbukta" />
		<tag k="natural" v="bay" />
		<tag k="ssr:stedsnr" v="392573" />
	</node>
	<node lat="64.16482500115595" lon="11.840905558074494" id="-30790">
		<tag k="name" v="Bruraskjæret" />
		<tag k="place" v="islet" />
		<tag k="ssr:stedsnr" v="392866" />
	</node>
	<node lat="63.97245833021788" lon="11.624888884517627" id="-30794">
		<tag k="name" v="Storbekken" />
		<tag k="ssr:stedsnr" v="392893" />
		<tag k="waterway" v="stream" />
	</node>
	<node lat="63.974002779218075" lon="11.949486109313906" id="-30803">
		<tag k="name" v="Svartbekken" />
		<tag k="ssr:stedsnr" v="392949" />
		<tag k="waterway" v="stream" />
	</node>
	<node lat="64.01641111531477" lon="11.487599999195012" id="-30804">
		<tag k="name" v="Steinkjerelva" />
		<tag k="ssr:stedsnr" v="392952" />
		<tag k="waterway" v="river" />
	</node>
	<node lat="64.12771110841602" lon="11.213058324320466" id="-30813">
		<tag k="name" v="Perengbekken" />
		<tag k="ssr:stedsnr" v="402692" />
		<tag k="waterway" v="stream" />
	</node>
	<node lat="64.10724999576729" lon="11.202747212946646" id="-30815">
		<tag k="name" v="Saugestadbekken" />
		<tag k="ssr:stedsnr" v="402795" />
		<tag k="waterway" v="stream" />
	</node>
	<node lat="64.00854444373564" lon="10.960147218748153" id="-30825">
		<tag k="name" v="Litlkjåppån" />
		<tag k="natural" v="water" />
		<tag k="ssr:stedsnr" v="411083" />
	</node>
	<node lat="64.01941389003755" lon="10.807797229108914" id="-30828">
		<tag k="name" v="Svartdyet" />
		<tag k="natural" v="water" />
		<tag k="ssr:stedsnr" v="411173" />
	</node>
	<node lat="64.17384444297329" lon="11.48879443540817" id="-30831">
		<tag k="name" v="Litlmyrkleiva" />
		<tag k="natural" v="water" />
		<tag k="ssr:stedsnr" v="411469" />
	</node>
	<node lat="63.927736114062895" lon="11.75090833549856" id="-30841">
		<tag k="name" v="Lomtjønna" />
		<tag k="natural" v="water" />
		<tag k="ssr:stedsnr" v="412519" />
	</node>
	<node lat="64.25631944805379" lon="11.760744434676953" id="-30843">
		<tag k="name" v="Spøttjønnbekken" />
		<tag k="ssr:stedsnr" v="412087" />
		<tag k="waterway" v="stream" />
	</node>
	<node lat="64.02440832982025" lon="11.037950001203468" id="-30852">
		<tag k="name" v="Holseterbekken" />
		<tag k="ssr:stedsnr" v="412040" />
		<tag k="waterway" v="stream" />
	</node>
	<node lat="64.21289166749045" lon="11.58102778013501" id="-30854">
		<tag k="name" v="Merraholbukta" />
		<tag k="natural" v="bay" />
		<tag k="ssr:stedsnr" v="412058" />
	</node>
	<node lat="64.1788611073313" lon="11.51997221753564" id="-30859">
		<tag k="name" v="Snøkulten" />
		<tag k="natural" v="water" />
		<tag k="ssr:stedsnr" v="412070" />
	</node>
	<node lat="64.19644444001887" lon="11.678163889971065" id="-30863">
		<tag k="name" v="Dalengtjønna" />
		<tag k="natural" v="water" />
		<tag k="ssr:stedsnr" v="412178" />
	</node>
	<node lat="63.996377774733176" lon="12.01076389063986" id="-30866">
		<tag k="name" v="Badstudalstjønna" />
		<tag k="natural" v="water" />
		<tag k="ssr:stedsnr" v="412225" />
	</node>
	<node lat="63.94918055957765" lon="11.880044452343913" id="-30867">
		<tag k="name" v="Raudfossen" />
		<tag k="natural" v="waterfall" />
		<tag k="ssr:stedsnr" v="412556" />
	</node>
	<node lat="64.00945833514095" lon="12.040397217466344" id="-30871">
		<tag k="name" v="Vinterstøbekken" />
		<tag k="ssr:stedsnr" v="412254" />
		<tag k="waterway" v="stream" />
	</node>
	<node lat="64.00542456890142" lon="12.1220236270406" id="-30874">
		<tag k="name" v="Lustadelvtangen" />
		<tag k="natural" v="cape" />
		<tag k="ssr:stedsnr" v="412283" />
	</node>
	<node lat="64.08081944453706" lon="11.792427768034438" id="-30877">
		<tag k="name" v="Margaretfossen" />
		<tag k="natural" v="waterfall" />
		<tag k="ssr:stedsnr" v="412760" />
	</node>
	<node lat="64.14307777353778" lon="11.05472500585612" id="-30879">
		<tag k="name" v="Alhustjønnin" />
		<tag k="natural" v="water" />
		<tag k="ssr:stedsnr" v="412530" />
	</node>
	<node lat="64.26390555688431" lon="11.934830559239956" id="-30884">
		<tag k="name" v="Butjønnlandet" />
		<tag k="natural" v="cape" />
		<tag k="ssr:stedsnr" v="412784" />
	</node>
	<node lat="64.01889722370308" lon="11.911547216213052" id="-30885">
		<tag k="name" v="Heidalsbekken" />
		<tag k="ssr:stedsnr" v="412862" />
		<tag k="waterway" v="stream" />
	</node>
	<node lat="64.04294999962184" lon="11.872530556199516" id="-30889">
		<tag k="name" v="Holbekken" />
		<tag k="ssr:stedsnr" v="412878" />
		<tag k="waterway" v="stream" />
	</node>
	<node lat="64.02997222602076" lon="11.837458334561651" id="-30890">
		<tag k="name" v="Kvennafossen" />
		<tag k="natural" v="waterfall" />
		<tag k="ssr:stedsnr" v="412885" />
	</node>
	<node lat="64.07106389259664" lon="11.87862777991309" id="-30891">
		<tag k="name" v="Synåstangen" />
		<tag k="natural" v="cape" />
		<tag k="ssr:stedsnr" v="412954" />
	</node>
	<node lat="63.947508335806106" lon="12.055841661852568" id="-30895">
		<tag k="name" v="Haldorberget" />
		<tag k="natural" v="cape" />
		<tag k="ssr:stedsnr" v="413572" />
	</node>
	<node lat="63.95678889019718" lon="12.183758338862761" id="-30897">
		<tag k="name" v="Løvertholet" />
		<tag k="natural" v="water" />
		<tag k="ssr:stedsnr" v="413655" />
	</node>
	<node lat="63.89251111137418" lon="10.748638881431033" id="-30936">
		<tag k="name" v="Litlrørtjønna" />
		<tag k="natural" v="water" />
		<tag k="ssr:stedsnr" v="421775" />
	</node>
	<node lat="64.11824166933503" lon="11.59414166679137" id="-30953">
		<tag k="name" v="Aunbukta" />
		<tag k="natural" v="bay" />
		<tag k="ssr:stedsnr" v="438159" />
	</node>
	<node lat="64.08481666433501" lon="11.451538888316628" id="-30959">
		<tag k="name" v="Lundavatnet" />
		<tag k="natural" v="water" />
		<tag k="ssr:stedsnr" v="438233" />
	</node>
	<node lat="64.0810750013662" lon="11.635122215005975" id="-30960">
		<tag k="name" v="Sundet" />
		<tag k="natural" v="strait" />
		<tag k="ssr:stedsnr" v="438238" />
	</node>
	<node lat="64.12164999803936" lon="12.013561117462848" id="-30963">
		<tag k="name" v="Kveldvedtangen" />
		<tag k="natural" v="cape" />
		<tag k="ssr:stedsnr" v="438267" />
	</node>
	<node lat="63.96363332987434" lon="12.176711104619894" id="-30967">
		<tag k="name" v="Isbekktjønna" />
		<tag k="natural" v="water" />
		<tag k="ssr:stedsnr" v="438390" />
	</node>
	<node lat="64.09168889223349" lon="11.8750138840925" id="-30970">
		<tag k="alt_name" v="Stor-Fiskløysan" />
		<tag k="name" v="Fiskløysan" />
		<tag k="natural" v="water" />
		<tag k="ssr:stedsnr" v="439339" />
	</node>
	<node lat="63.99985833543145" lon="11.00125556416396" id="-30971">
		<tag k="name" v="Åsavatnet" />
		<tag k="natural" v="water" />
		<tag k="ssr:stedsnr" v="438577" />
	</node>
	<node lat="64.29276666885515" lon="11.869624991350557" id="-30972">
		<tag k="name" v="Sandtjønnbekken" />
		<tag k="ssr:stedsnr" v="438581" />
		<tag k="waterway" v="stream" />
	</node>
	<node lat="64.02564166928099" lon="11.77765555022" id="-30974">
		<tag k="name" v="Kvernabekken" />
		<tag k="ssr:stedsnr" v="438658" />
		<tag k="waterway" v="stream" />
	</node>
	<node lat="64.03590555463816" lon="12.106788890034677" id="-30976">
		<tag k="name" v="Svensktjønna" />
		<tag k="natural" v="water" />
		<tag k="ssr:stedsnr" v="438664" />
	</node>
	<node lat="64.28966944222833" lon="11.853550009350034" id="-30979">
		<tag k="name" v="Kalvtjønna" />
		<tag k="natural" v="water" />
		<tag k="ssr:stedsnr" v="438632" />
	</node>
	<node lat="63.97822778085512" lon="12.269613891349884" id="-30984">
		<tag k="name" v="Lågvatnet" />
		<tag k="natural" v="water" />
		<tag k="ssr:stedsnr" v="438679" />
	</node>
	<node lat="64.02467222631863" lon="10.776738888250641" id="-31000">
		<tag k="name" v="Klumptjønna" />
		<tag k="natural" v="water" />
		<tag k="ssr:stedsnr" v="438992" />
	</node>
	<node lat="63.94773888971421" lon="11.939433342013935" id="-31007">
		<tag k="name" v="Øvre Solåstjønna" />
		<tag k="natural" v="water" />
		<tag k="ssr:stedsnr" v="439467" />
	</node>
	<node lat="63.913230557606326" lon="11.770538879924016" id="-31009">
		<tag k="name" v="Bulderåstjønna" />
		<tag k="natural" v="water" />
		<tag k="ssr:stedsnr" v="439440" />
	</node>
	<node lat="64.07799444150818" lon="11.113761115916441" id="-31011">
		<tag k="name" v="Storengbekken" />
		<tag k="ssr:stedsnr" v="439526" />
		<tag k="waterway" v="stream" />
	</node>
</osm>
