<?xml version="1.0" encoding="UTF-8"?>
<osm version="0.6" generator="osmapis">
	<node lat="64.02470556010307" lon="11.131044438154841" id="-27474">
		<tag k="name" v="Lomtjønnmyra" />
		<tag k="natural" v="wetland" />
		<tag k="ssr:stedsnr" v="230017" />
	</node>
	<node lat="64.0246722214412" lon="11.116969441811433" id="-27475">
		<tag k="name" v="Dalengmyra" />
		<tag k="natural" v="wetland" />
		<tag k="ssr:stedsnr" v="230021" />
	</node>
	<node lat="64.16543889038762" lon="11.543025002674566" id="-27479">
		<tag k="name" v="Dalenget" />
		<tag k="natural" v="wetland" />
		<tag k="ssr:stedsnr" v="230077" />
	</node>
	<node lat="64.19780000266036" lon="11.732883336269643" id="-27481">
		<tag k="name" v="Neråssveenget" />
		<tag k="natural" v="wetland" />
		<tag k="ssr:stedsnr" v="230223" />
	</node>
	<node lat="64.19374722661476" lon="11.740186101861372" id="-27482">
		<tag k="name" v="Sørhauganenget" />
		<tag k="natural" v="wetland" />
		<tag k="ssr:stedsnr" v="230224" />
	</node>
	<node lat="64.00268055424984" lon="12.101986115129499" id="-27483">
		<tag k="name" v="Lustadmyra" />
		<tag k="natural" v="wetland" />
		<tag k="ssr:stedsnr" v="230287" />
	</node>
	<node lat="64.0139416699654" lon="12.128080561423998" id="-27487">
		<tag k="name" v="Bjønnamyra" />
		<tag k="natural" v="wetland" />
		<tag k="ssr:stedsnr" v="230269" />
	</node>
	<node lat="63.95831111299339" lon="11.854319447307482" id="-27492">
		<tag k="name" v="Pålåsmyra" />
		<tag k="natural" v="wetland" />
		<tag k="ssr:stedsnr" v="230543" />
	</node>
	<node lat="63.95257777417987" lon="11.838355545100363" id="-27493">
		<tag k="name" v="Skarhaugmyra" />
		<tag k="natural" v="wetland" />
		<tag k="ssr:stedsnr" v="230544" />
	</node>
	<node lat="64.11146110842104" lon="11.86290554968371" id="-27502">
		<tag k="name" v="Tonmyra" />
		<tag k="natural" v="wetland" />
		<tag k="ssr:stedsnr" v="230763" />
	</node>
	<node lat="64.1027166678349" lon="11.861233335419648" id="-27504">
		<tag k="name" v="Reipan" />
		<tag k="natural" v="wetland" />
		<tag k="ssr:stedsnr" v="230770" />
	</node>
	<node lat="64.00131389109664" lon="11.92453333434329" id="-27510">
		<tag k="name" v="Hundmyra" />
		<tag k="natural" v="wetland" />
		<tag k="ssr:stedsnr" v="230876" />
	</node>
	<node lat="63.92941111133009" lon="12.031724990593583" id="-27519">
		<tag k="name" v="Stormyra" />
		<tag k="natural" v="wetland" />
		<tag k="ssr:stedsnr" v="13802" />
	</node>
	<node lat="63.966488889045536" lon="11.64453888562672" id="-27529">
		<tag k="name" v="Elimyra" />
		<tag k="natural" v="wetland" />
		<tag k="ssr:stedsnr" v="13996" />
	</node>
	<node lat="63.97353055499799" lon="11.882388880696821" id="-27558">
		<tag k="name" v="Hårråmyra" />
		<tag k="natural" v="wetland" />
		<tag k="ssr:stedsnr" v="14340" />
	</node>
	<node lat="63.98858333752989" lon="11.705769436031446" id="-27579">
		<tag k="alt_name" v="Lauvåsmyra" />
		<tag k="name" v="Lauåsmyra" />
		<tag k="natural" v="wetland" />
		<tag k="ssr:stedsnr" v="14959" />
	</node>
	<node lat="64.08261110994589" lon="11.375825004106362" id="-27590">
		<tag k="name" v="Kvernhusmyra" />
		<tag k="natural" v="wetland" />
		<tag k="ssr:stedsnr" v="22612" />
	</node>
	<node lat="64.11314166711803" lon="11.510502771541564" id="-27592">
		<tag k="name" v="Stamnmyra" />
		<tag k="natural" v="wetland" />
		<tag k="ssr:stedsnr" v="22715" />
	</node>
	<node lat="63.898958331595445" lon="11.48239721851273" id="-27595">
		<tag k="name" v="Andstadmyra" />
		<tag k="natural" v="wetland" />
		<tag k="ssr:stedsnr" v="22788" />
	</node>
	<node lat="64.08844166541398" lon="11.261822220870634" id="-27598">
		<tag k="name" v="Slættmyra" />
		<tag k="natural" v="wetland" />
		<tag k="ssr:stedsnr" v="22824" />
	</node>
	<node lat="64.08911667037736" lon="11.303363893185526" id="-27599">
		<tag k="landuse" v="meadow" />
		<tag k="name" v="Katabalvollen" />
		<tag k="ssr:stedsnr" v="22827" />
	</node>
	<node lat="63.9462055543588" lon="11.42424445080626" id="-27603">
		<tag k="name" v="Limarka" />
		<tag k="place" v="locality" />
		<tag k="ssr:stedsnr" v="22884" />
	</node>
	<node lat="63.95020278176077" lon="11.466933328184915" id="-27604">
		<tag k="name" v="Plassamyra" />
		<tag k="natural" v="wetland" />
		<tag k="ssr:stedsnr" v="22897" />
	</node>
	<node lat="64.06102777332315" lon="11.469275007385452" id="-27605">
		<tag k="name" v="Drættmyra" />
		<tag k="natural" v="wetland" />
		<tag k="ssr:stedsnr" v="22936" />
	</node>
	<node lat="64.01251388548462" lon="11.811919435324008" id="-27615">
		<tag k="name" v="Saksenget" />
		<tag k="place" v="locality" />
		<tag k="ssr:stedsnr" v="28007" />
	</node>
	<node lat="64.1578722210639" lon="11.733975009708285" id="-27619">
		<tag k="name" v="Svenningmyra" />
		<tag k="natural" v="wetland" />
		<tag k="ssr:stedsnr" v="28028" />
	</node>
	<node lat="64.15298611346888" lon="11.74174722212708" id="-27629">
		<tag k="name" v="Slåttdalsmyra" />
		<tag k="natural" v="wetland" />
		<tag k="ssr:stedsnr" v="28188" />
	</node>
	<node lat="64.0572416650884" lon="11.743250005500055" id="-27632">
		<tag k="name" v="Kartmyra" />
		<tag k="natural" v="wetland" />
		<tag k="ssr:stedsnr" v="28273" />
	</node>
	<node lat="63.98836388552944" lon="11.7560249897599" id="-27634">
		<tag k="name" v="Kvilsteinen" />
		<tag k="natural" v="stone" />
		<tag k="ssr:stedsnr" v="28283" />
	</node>
	<node lat="64.05499167043196" lon="11.573102786187278" id="-27639">
		<tag k="name" v="Torvmyra" />
		<tag k="natural" v="wetland" />
		<tag k="ssr:stedsnr" v="28508" />
	</node>
	<node lat="64.04862222580317" lon="11.559641668523666" id="-27640">
		<tag k="name" v="Merkesmyra" />
		<tag k="natural" v="wetland" />
		<tag k="ssr:stedsnr" v="28514" />
	</node>
	<node lat="64.18962222176947" lon="11.780200002306138" id="-27643">
		<tag k="name" v="Langmyra" />
		<tag k="natural" v="wetland" />
		<tag k="ssr:stedsnr" v="28818" />
	</node>
	<node lat="64.18619722650023" lon="11.832566665769491" id="-27644">
		<tag k="name" v="Soldagsmarka" />
		<tag k="place" v="locality" />
		<tag k="ssr:stedsnr" v="28822" />
	</node>
	<node lat="64.03668610927166" lon="11.494591675760663" id="-27645">
		<tag k="name" v="Høgsveet" />
		<tag k="place" v="locality" />
		<tag k="ssr:stedsnr" v="28920" />
	</node>
	<node lat="64.12197221945834" lon="11.811652768466887" id="-27651">
		<tag k="name" v="Setermyra" />
		<tag k="natural" v="wetland" />
		<tag k="ssr:stedsnr" v="29804" />
	</node>
	<node lat="64.01314444269714" lon="11.16127777506915" id="-27705">
		<tag k="name" v="Dymyra" />
		<tag k="natural" v="wetland" />
		<tag k="ssr:stedsnr" v="48022" />
	</node>
	<node lat="64.18713333329251" lon="11.69177222862592" id="-27706">
		<tag k="name" v="Taraldenget" />
		<tag k="natural" v="wetland" />
		<tag k="ssr:stedsnr" v="48173" />
	</node>
	<node lat="64.11966388736094" lon="11.119036116325935" id="-27712">
		<tag k="name" v="Storlimyra" />
		<tag k="natural" v="wetland" />
		<tag k="ssr:stedsnr" v="48508" />
	</node>
	<node lat="64.21303889209882" lon="11.941088896705919" id="-27716">
		<tag k="name" v="Langmyra" />
		<tag k="natural" v="wetland" />
		<tag k="ssr:stedsnr" v="48813" />
	</node>
	<node lat="64.20160833104389" lon="11.906430547696779" id="-27717">
		<tag k="name" v="Hamptjønnmyra" />
		<tag k="natural" v="wetland" />
		<tag k="ssr:stedsnr" v="48815" />
	</node>
	<node lat="64.06021111494789" lon="11.284138898973552" id="-27813">
		<tag k="name" v="Trøamyra" />
		<tag k="natural" v="wetland" />
		<tag k="ssr:stedsnr" v="83234" />
	</node>
	<node lat="64.1498805511846" lon="11.52234444777525" id="-27815">
		<tag k="name" v="Litlvollen" />
		<tag k="natural" v="wetland" />
		<tag k="ssr:stedsnr" v="83636" />
	</node>
	<node lat="63.978925004483465" lon="11.557402771749054" id="-27818">
		<tag k="name" v="Vargmyra" />
		<tag k="natural" v="wetland" />
		<tag k="ssr:stedsnr" v="83701" />
	</node>
	<node lat="64.1282888846704" lon="11.257375006430301" id="-27820">
		<tag k="name" v="Hesjmyra" />
		<tag k="natural" v="wetland" />
		<tag k="ssr:stedsnr" v="83780" />
	</node>
	<node lat="64.01963888651137" lon="11.777049998709263" id="-27829">
		<tag k="name" v="Fåmyra" />
		<tag k="natural" v="wetland" />
		<tag k="ssr:stedsnr" v="89004" />
	</node>
	<node lat="64.05254166420444" lon="11.667899992291344" id="-27831">
		<tag k="name" v="Middagsmyra" />
		<tag k="natural" v="wetland" />
		<tag k="ssr:stedsnr" v="89309" />
	</node>
	<node lat="63.99650555272049" lon="11.819908337146813" id="-27833">
		<tag k="name" v="Fjellmyra" />
		<tag k="natural" v="wetland" />
		<tag k="ssr:stedsnr" v="89065" />
	</node>
	<node lat="63.992344444617444" lon="11.539508323904885" id="-27838">
		<tag k="name" v="Borgmyra" />
		<tag k="natural" v="wetland" />
		<tag k="ssr:stedsnr" v="89513" />
	</node>
	<node lat="64.16401944390019" lon="11.77087500654443" id="-27839">
		<tag k="name" v="Småmyrin" />
		<tag k="natural" v="wetland" />
		<tag k="ssr:stedsnr" v="89867" />
	</node>
	<node lat="63.9703694483617" lon="11.606819454421748" id="-27840">
		<tag k="name" v="Langmyra" />
		<tag k="natural" v="wetland" />
		<tag k="ssr:stedsnr" v="89869" />
	</node>
	<node lat="64.19274722277511" lon="11.84586389189928" id="-27843">
		<tag k="name" v="Kasperrønningen" />
		<tag k="place" v="locality" />
		<tag k="ssr:stedsnr" v="89883" />
	</node>
	<node lat="64.18693888683546" lon="11.936955552629236" id="-27846">
		<tag k="name" v="Markatrøa" />
		<tag k="place" v="locality" />
		<tag k="ssr:stedsnr" v="89892" />
	</node>
	<node lat="64.00351388968072" lon="10.95282778041884" id="-27862">
		<tag k="name" v="Nøkkblomstermyra" />
		<tag k="natural" v="wetland" />
		<tag k="ssr:stedsnr" v="108075" />
	</node>
	<node lat="63.99833610828562" lon="10.918330557487714" id="-27863">
		<tag k="name" v="Vassmyra" />
		<tag k="natural" v="wetland" />
		<tag k="ssr:stedsnr" v="108084" />
	</node>
	<node lat="64.16413888825463" lon="11.349366671926346" id="-27867">
		<tag k="name" v="Øverenget" />
		<tag k="natural" v="wetland" />
		<tag k="ssr:stedsnr" v="108702" />
	</node>
	<node lat="64.01941944371528" lon="11.121824990006001" id="-27873">
		<tag k="name" v="Storengan" />
		<tag k="natural" v="wetland" />
		<tag k="ssr:stedsnr" v="109022" />
	</node>
	<node lat="64.1253555592231" lon="11.134433334054938" id="-27882">
		<tag k="name" v="Ferjengan" />
		<tag k="natural" v="wetland" />
		<tag k="ssr:stedsnr" v="109513" />
	</node>
	<node lat="64.10703888491182" lon="11.809788881166753" id="-27886">
		<tag k="name" v="Stakkmyra" />
		<tag k="natural" v="wetland" />
		<tag k="ssr:stedsnr" v="109724" />
	</node>
	<node lat="64.2175238740225" lon="11.834575408331572" id="-27891">
		<tag k="name" v="Øksnesengan" />
		<tag k="natural" v="wetland" />
		<tag k="ssr:stedsnr" v="109809" />
	</node>
	<node lat="64.05238333030881" lon="11.535791669943885" id="-27922">
		<tag k="name" v="Orrhanemyra" />
		<tag k="natural" v="wetland" />
		<tag k="ssr:stedsnr" v="134013" />
	</node>
	<node lat="64.05180832952486" lon="11.278788895754117" id="-27933">
		<tag k="name" v="Tennesmyra" />
		<tag k="natural" v="wetland" />
		<tag k="ssr:stedsnr" v="135011" />
	</node>
	<node lat="64.02701110930303" lon="11.701488885014735" id="-27939">
		<tag k="name" v="Kvitmyra" />
		<tag k="natural" v="wetland" />
		<tag k="ssr:stedsnr" v="135102" />
	</node>
	<node lat="64.08805833525027" lon="11.509961110686145" id="-27948">
		<tag k="name" v="Saursaunmyra" />
		<tag k="natural" v="wetland" />
		<tag k="ssr:stedsnr" v="135224" />
	</node>
	<node lat="64.01261110762466" lon="11.833938894122879" id="-27968">
		<tag k="alt_name" v="Saksengmyra" />
		<tag k="name" v="Saksengmyran" />
		<tag k="natural" v="wetland" />
		<tag k="ssr:stedsnr" v="135668" />
	</node>
	<node lat="64.15725277357795" lon="11.52864444021923" id="-27977">
		<tag k="name" v="Hatlinghusenget" />
		<tag k="natural" v="wetland" />
		<tag k="ssr:stedsnr" v="143633" />
	</node>
	<node lat="64.13731110720899" lon="11.394430564159919" id="-27979">
		<tag k="name" v="Dammyra" />
		<tag k="natural" v="wetland" />
		<tag k="ssr:stedsnr" v="143505" />
	</node>
	<node lat="64.11937222460925" lon="11.429672214701403" id="-27980">
		<tag k="name" v="Stølmyra" />
		<tag k="natural" v="wetland" />
		<tag k="ssr:stedsnr" v="143506" />
	</node>
	<node lat="64.11400833269138" lon="11.514700004587453" id="-27986">
		<tag k="name" v="Melhusmyran" />
		<tag k="natural" v="wetland" />
		<tag k="ssr:stedsnr" v="143713" />
	</node>
	<node lat="63.92250833176217" lon="11.524522216908766" id="-27988">
		<tag k="name" v="Tanemsmarka" />
		<tag k="place" v="locality" />
		<tag k="ssr:stedsnr" v="143690" />
	</node>
	<node lat="64.08976944867467" lon="11.273880560896734" id="-27990">
		<tag k="name" v="Stammyra" />
		<tag k="natural" v="wetland" />
		<tag k="ssr:stedsnr" v="143809" />
	</node>
	<node lat="64.07627222017246" lon="11.371147219265366" id="-27991">
		<tag k="name" v="Vargmyra" />
		<tag k="natural" v="wetland" />
		<tag k="ssr:stedsnr" v="143835" />
	</node>
	<node lat="64.07556111133393" lon="11.365138898270056" id="-27992">
		<tag k="name" v="Kippersmyra" />
		<tag k="natural" v="wetland" />
		<tag k="ssr:stedsnr" v="143836" />
	</node>
	<node lat="64.05412222415029" lon="11.416972229617496" id="-28000">
		<tag k="name" v="Vargmyra" />
		<tag k="natural" v="wetland" />
		<tag k="ssr:stedsnr" v="143911" />
	</node>
	<node lat="64.06534999818071" lon="11.49495833773349" id="-28001">
		<tag k="name" v="Nordmarka" />
		<tag k="place" v="locality" />
		<tag k="ssr:stedsnr" v="143916" />
	</node>
	<node lat="64.09076388474043" lon="11.723919451540706" id="-28015">
		<tag k="name" v="Åsmyra" />
		<tag k="natural" v="wetland" />
		<tag k="ssr:stedsnr" v="149122" />
	</node>
	<node lat="64.15602500390231" lon="11.708738888634038" id="-28016">
		<tag k="name" v="Oksmyra" />
		<tag k="natural" v="wetland" />
		<tag k="ssr:stedsnr" v="149157" />
	</node>
	<node lat="64.14535555433338" lon="11.707241673983114" id="-28017">
		<tag k="name" v="Eikmyra" />
		<tag k="natural" v="wetland" />
		<tag k="ssr:stedsnr" v="149160" />
	</node>
	<node lat="63.91030555494882" lon="10.845619447092643" id="-28022">
		<tag k="name" v="Klokkarmyrbekken" />
		<tag k="natural" v="wetland" />
		<tag k="ssr:stedsnr" v="149058" />
	</node>
	<node lat="63.974177778211335" lon="11.071938894768833" id="-28023">
		<tag k="name" v="Geitvikmyra" />
		<tag k="natural" v="wetland" />
		<tag k="ssr:stedsnr" v="149075" />
	</node>
	<node lat="64.08275555405629" lon="11.54430277254031" id="-28025">
		<tag k="name" v="Rotningmyra" />
		<tag k="natural" v="wetland" />
		<tag k="ssr:stedsnr" v="256242" />
	</node>
	<node lat="64.1519805509681" lon="11.60583334225224" id="-28028">
		<tag k="name" v="Raudmyra" />
		<tag k="natural" v="wetland" />
		<tag k="ssr:stedsnr" v="149410" />
	</node>
	<node lat="64.16801111013956" lon="11.77340555920415" id="-28033">
		<tag k="name" v="Stormyra" />
		<tag k="natural" v="wetland" />
		<tag k="ssr:stedsnr" v="149903" />
	</node>
	<node lat="64.0089055552734" lon="11.554391675754756" id="-28034">
		<tag k="name" v="Tranamarka" />
		<tag k="place" v="locality" />
		<tag k="ssr:stedsnr" v="149908" />
	</node>
	<node lat="64.01117222545894" lon="11.506394441792578" id="-28035">
		<tag k="name" v="Furuskogen" />
		<tag k="place" v="locality" />
		<tag k="ssr:stedsnr" v="149909" />
	</node>
	<node lat="63.97076111570061" lon="11.866574992429765" id="-28043">
		<tag k="name" v="Hestmyra" />
		<tag k="natural" v="wetland" />
		<tag k="ssr:stedsnr" v="256391" />
	</node>
	<node lat="64.09189444810487" lon="11.19069167362888" id="-28047">
		<tag k="name" v="Åsenget" />
		<tag k="natural" v="wetland" />
		<tag k="ssr:stedsnr" v="149957" />
	</node>
	<node lat="64.01693333063504" lon="11.787433334663021" id="-28072">
		<tag k="alt_name" v="Finstadmyra" />
		<tag k="name" v="Finnstadmyra" />
		<tag k="natural" v="wetland" />
		<tag k="ssr:stedsnr" v="256639" />
	</node>
	<node lat="64.0375972228741" lon="11.052874996048198" id="-28126">
		<tag k="name" v="Heimarka" />
		<tag k="place" v="locality" />
		<tag k="ssr:stedsnr" v="169002" />
	</node>
	<node lat="64.1445361112955" lon="11.407677767532212" id="-28136">
		<tag k="name" v="Mjendremsenget" />
		<tag k="natural" v="wetland" />
		<tag k="ssr:stedsnr" v="169504" />
	</node>
	<node lat="64.14943888983571" lon="11.400772226641699" id="-28137">
		<tag k="name" v="Kvarvingsenget" />
		<tag k="natural" v="wetland" />
		<tag k="ssr:stedsnr" v="169506" />
	</node>
	<node lat="64.14557777396504" lon="11.384180548191484" id="-28138">
		<tag k="name" v="Solbergenget" />
		<tag k="natural" v="wetland" />
		<tag k="ssr:stedsnr" v="169508" />
	</node>
	<node lat="64.18835833247091" lon="11.764122214771227" id="-28154">
		<tag k="name" v="Langmyra" />
		<tag k="natural" v="wetland" />
		<tag k="ssr:stedsnr" v="170760" />
	</node>
	<node lat="63.93211667088847" lon="11.49491945330614" id="-28174">
		<tag k="name" v="Skeifeltet" />
		<tag k="place" v="locality" />
		<tag k="ssr:stedsnr" v="265976" />
	</node>
	<node lat="64.08275555633848" lon="11.558972215622354" id="-28176">
		<tag k="name" v="Heggen" />
		<tag k="place" v="locality" />
		<tag k="ssr:stedsnr" v="264628" />
	</node>
	<node lat="64.0648361092285" lon="11.542047225522975" id="-28179">
		<tag k="name" v="Maritmyra" />
		<tag k="natural" v="wetland" />
		<tag k="ssr:stedsnr" v="265772" />
	</node>
	<node lat="64.12964166831767" lon="11.262091670336364" id="-28180">
		<tag k="landuse" v="meadow" />
		<tag k="name" v="Andreasenget" />
		<tag k="ssr:stedsnr" v="265780" />
	</node>
	<node lat="64.06537221858939" lon="11.333061115893406" id="-28184">
		<tag k="name" v="Stormyra" />
		<tag k="natural" v="wetland" />
		<tag k="ssr:stedsnr" v="265253" />
	</node>
	<node lat="63.96826944576329" lon="11.460316667487874" id="-28191">
		<tag k="name" v="Husmannsmarka" />
		<tag k="place" v="locality" />
		<tag k="ssr:stedsnr" v="265377" />
	</node>
	<node lat="64.10538611180044" lon="11.49021666189218" id="-28194">
		<tag k="name" v="Kråkmyra" />
		<tag k="natural" v="wetland" />
		<tag k="ssr:stedsnr" v="265578" />
	</node>
	<node lat="64.07333332963864" lon="11.568508323874791" id="-28199">
		<tag k="name" v="Korsmyra" />
		<tag k="natural" v="wetland" />
		<tag k="ssr:stedsnr" v="265683" />
	</node>
	<node lat="63.88264999961824" lon="11.486169440310048" id="-28200">
		<tag k="name" v="Setermarka" />
		<tag k="place" v="locality" />
		<tag k="ssr:stedsnr" v="265824" />
	</node>
	<node lat="63.90051388650209" lon="11.436136111129041" id="-28201">
		<tag k="name" v="Rambergsmyra" />
		<tag k="natural" v="wetland" />
		<tag k="ssr:stedsnr" v="265826" />
	</node>
	<node lat="64.0152527791888" lon="11.178452773708973" id="-28254">
		<tag k="name" v="Breimyra" />
		<tag k="natural" v="wetland" />
		<tag k="ssr:stedsnr" v="196966" />
	</node>
	<node lat="64.10317777709372" lon="11.256994445516876" id="-28261">
		<tag k="name" v="Moamyra" />
		<tag k="natural" v="wetland" />
		<tag k="ssr:stedsnr" v="204140" />
	</node>
	<node lat="64.08516666831716" lon="11.28667777551508" id="-28281">
		<tag k="landuse" v="meadow" />
		<tag k="name" v="Buksa" />
		<tag k="ssr:stedsnr" v="204853" />
	</node>
	<node lat="64.16814721961512" lon="11.759611104726696" id="-28285">
		<tag k="name" v="Holbekkmyra" />
		<tag k="natural" v="wetland" />
		<tag k="ssr:stedsnr" v="210102" />
	</node>
	<node lat="64.08739722268677" lon="11.695816669423523" id="-28293">
		<tag k="name" v="Leinsdyenget" />
		<tag k="place" v="locality" />
		<tag k="ssr:stedsnr" v="210144" />
	</node>
	<node lat="64.0034277784378" lon="11.760188888218725" id="-28294">
		<tag k="name" v="Vargmyra" />
		<tag k="natural" v="wetland" />
		<tag k="ssr:stedsnr" v="210306" />
	</node>
	<node lat="64.05639722217889" lon="11.65899999405383" id="-28295">
		<tag k="name" v="Pempillen" />
		<tag k="natural" v="wetland" />
		<tag k="ssr:stedsnr" v="210317" />
	</node>
	<node lat="64.01649721800133" lon="11.693425008990962" id="-28299">
		<tag k="name" v="Hesthågåmyra" />
		<tag k="natural" v="wetland" />
		<tag k="ssr:stedsnr" v="210379" />
	</node>
	<node lat="64.12437777781521" lon="11.845830563575758" id="-28313">
		<tag k="name" v="Tjurubekkmyra" />
		<tag k="natural" v="wetland" />
		<tag k="ssr:stedsnr" v="211776" />
	</node>
	<node lat="63.96673332961639" lon="11.932608323194732" id="-28316">
		<tag k="name" v="Stakkstongmyra" />
		<tag k="natural" v="wetland" />
		<tag k="ssr:stedsnr" v="211915" />
	</node>
	<node lat="64.0694888878081" lon="11.760033338131041" id="-28345">
		<tag k="name" v="Solnesmyra" />
		<tag k="natural" v="wetland" />
		<tag k="ssr:stedsnr" v="271284" />
	</node>
	<node lat="64.00670833210535" lon="11.635477769486364" id="-28349">
		<tag k="name" v="Aunmyra" />
		<tag k="natural" v="wetland" />
		<tag k="ssr:stedsnr" v="271429" />
	</node>
	<node lat="64.02028055763061" lon="11.709261113996345" id="-28350">
		<tag k="name" v="Bomskottmyra" />
		<tag k="natural" v="wetland" />
		<tag k="ssr:stedsnr" v="271440" />
	</node>
	<node lat="64.15507778148826" lon="11.596166667016385" id="-28352">
		<tag k="name" v="Vollagjøtin" />
		<tag k="natural" v="wetland" />
		<tag k="ssr:stedsnr" v="271447" />
	</node>
	<node lat="64.14224721991464" lon="11.617344443813504" id="-28354">
		<tag k="historic" v="shieling" />
		<tag k="name" v="Fivesseteren" />
		<tag k="place" v="locality" />
		<tag k="ssr:stedsnr" v="271462" />
	</node>
	<node lat="64.19568055302373" lon="11.809633336931222" id="-28360">
		<tag k="name" v="Bugjøta" />
		<tag k="natural" v="wetland" />
		<tag k="ssr:stedsnr" v="271833" />
	</node>
	<node lat="64.1896805541112" lon="11.838049994781153" id="-28363">
		<tag k="name" v="Soldagsmarka" />
		<tag k="place" v="locality" />
		<tag k="ssr:stedsnr" v="271916" />
	</node>
	<node lat="63.88143332992773" lon="10.751066665161321" id="-28375">
		<tag k="name" v="Halvgåttmyra" />
		<tag k="natural" v="wetland" />
		<tag k="ssr:stedsnr" v="229209" />
	</node>
	<node lat="64.1625555583281" lon="11.327272225609828" id="-28378">
		<tag k="name" v="Åsenget" />
		<tag k="natural" v="wetland" />
		<tag k="ssr:stedsnr" v="229710" />
	</node>
	<node lat="64.03885833297136" lon="10.840377772997224" id="-28381">
		<tag k="name" v="Kvennhusmyrin" />
		<tag k="natural" v="wetland" />
		<tag k="ssr:stedsnr" v="229630" />
	</node>
	<node lat="64.16933332933978" lon="11.639413883112782" id="-28382">
		<tag k="name" v="Dammyra" />
		<tag k="natural" v="wetland" />
		<tag k="ssr:stedsnr" v="230138" />
	</node>
	<node lat="64.12846389049965" lon="11.171844443811997" id="-28386">
		<tag k="name" v="Holtaenget" />
		<tag k="natural" v="wetland" />
		<tag k="ssr:stedsnr" v="230530" />
	</node>
	<node lat="64.03342500136051" lon="11.162047224661269" id="-28391">
		<tag k="name" v="Gauksenget" />
		<tag k="natural" v="wetland" />
		<tag k="ssr:stedsnr" v="230434" />
	</node>
	<node lat="64.04968055503183" lon="11.173361120228359" id="-28394">
		<tag k="name" v="Stålgjøta" />
		<tag k="natural" v="wetland" />
		<tag k="ssr:stedsnr" v="230444" />
	</node>
	<node lat="64.10465555776399" lon="11.7891166680765" id="-28398">
		<tag k="name" v="Iverdalmyra" />
		<tag k="natural" v="wetland" />
		<tag k="ssr:stedsnr" v="230736" />
	</node>
	<node lat="64.07537222626841" lon="11.804677768985306" id="-28399">
		<tag k="name" v="Furumyra" />
		<tag k="natural" v="wetland" />
		<tag k="ssr:stedsnr" v="230785" />
	</node>
	<node lat="64.20851110835552" lon="11.925794438929966" id="-28401">
		<tag k="name" v="Småstakkengan" />
		<tag k="place" v="locality" />
		<tag k="ssr:stedsnr" v="230800" />
	</node>
	<node lat="64.06388333531157" lon="11.773975008749067" id="-28404">
		<tag k="name" v="Buvegmyra" />
		<tag k="natural" v="wetland" />
		<tag k="ssr:stedsnr" v="230998" />
	</node>
	<node lat="63.9987305568604" lon="11.641855564421068" id="-28434">
		<tag k="name" v="Brumyra" />
		<tag k="natural" v="wetland" />
		<tag k="ssr:stedsnr" v="453386" />
	</node>
	<node lat="64.16340000386303" lon="11.728313896609052" id="-28444">
		<tag k="historic" v="shieling" />
		<tag k="name" v="Grøtseteren" />
		<tag k="place" v="locality" />
		<tag k="ssr:stedsnr" v="453029" />
	</node>
	<node lat="64.16368889187014" lon="11.767613894326837" id="-28445">
		<tag k="name" v="Småmyrin" />
		<tag k="natural" v="wetland" />
		<tag k="ssr:stedsnr" v="453032" />
	</node>
	<node lat="64.00017499766713" lon="11.833311117062424" id="-28446">
		<tag k="landuse" v="meadow" />
		<tag k="name" v="Rutlenget" />
		<tag k="ssr:stedsnr" v="453049" />
	</node>
	<node lat="63.98818333544292" lon="11.793300001339247" id="-28447">
		<tag k="name" v="Sjurslættet" />
		<tag k="natural" v="wetland" />
		<tag k="ssr:stedsnr" v="453057" />
	</node>
	<node lat="63.96255555489188" lon="10.995655545381014" id="-28449">
		<tag k="name" v="Sandslimyrin" />
		<tag k="natural" v="wetland" />
		<tag k="ssr:stedsnr" v="453138" />
	</node>
	<node lat="64.1026972217308" lon="11.747899994123713" id="-28454">
		<tag k="name" v="Gustrønningen" />
		<tag k="place" v="locality" />
		<tag k="ssr:stedsnr" v="453183" />
	</node>
	<node lat="64.14366666997529" lon="11.606649990603596" id="-28459">
		<tag k="historic" v="shieling" />
		<tag k="name" v="Knesseteren" />
		<tag k="place" v="locality" />
		<tag k="ssr:stedsnr" v="453431" />
	</node>
	<node lat="64.12157777929532" lon="11.714372216024874" id="-28463">
		<tag k="name" v="Føttan" />
		<tag k="place" v="locality" />
		<tag k="ssr:stedsnr" v="453141" />
	</node>
	<node lat="64.18058610762237" lon="11.79554167593209" id="-28468">
		<tag k="name" v="Livassmyra" />
		<tag k="natural" v="wetland" />
		<tag k="ssr:stedsnr" v="453793" />
	</node>
	<node lat="64.0089222251426" lon="11.560491663066498" id="-28469">
		<tag k="name" v="Raudmyra" />
		<tag k="natural" v="wetland" />
		<tag k="ssr:stedsnr" v="453883" />
	</node>
	<node lat="64.18562500024487" lon="11.840066675432727" id="-28470">
		<tag k="name" v="Soldagsmyra" />
		<tag k="natural" v="wetland" />
		<tag k="ssr:stedsnr" v="453886" />
	</node>
	<node lat="64.2106027736357" lon="11.98739167630902" id="-28479">
		<tag k="historic" v="shieling" />
		<tag k="name" v="Heggeseteren" />
		<tag k="place" v="locality" />
		<tag k="ssr:stedsnr" v="453995" />
	</node>
	<node lat="63.95864999801981" lon="11.658247226913472" id="-28483">
		<tag k="name" v="Geitakløyvmyra" />
		<tag k="natural" v="wetland" />
		<tag k="ssr:stedsnr" v="453939" />
	</node>
	<node lat="64.08894444098473" lon="11.18850554805366" id="-28486">
		<tag k="name" v="Bårdenget" />
		<tag k="natural" v="wetland" />
		<tag k="ssr:stedsnr" v="453958" />
	</node>
	<node lat="63.89091388872916" lon="11.651988894411938" id="-28488">
		<tag k="name" v="Kalsetslættet" />
		<tag k="place" v="locality" />
		<tag k="ssr:stedsnr" v="454457" />
	</node>
	<node lat="63.89992778089923" lon="10.84738334034558" id="-28510">
		<tag k="name" v="Holbekkmyran" />
		<tag k="natural" v="wetland" />
		<tag k="ssr:stedsnr" v="256464" />
	</node>
	<node lat="63.98544167091668" lon="11.65508333466464" id="-28523">
		<tag k="name" v="Bjørnamyra" />
		<tag k="natural" v="wetland" />
		<tag k="ssr:stedsnr" v="256967" />
	</node>
	<node lat="64.03028889216476" lon="11.548258340650552" id="-28526">
		<tag k="name" v="Helgesmarka" />
		<tag k="place" v="locality" />
		<tag k="ssr:stedsnr" v="257105" />
	</node>
	<node lat="64.06598611111573" lon="11.369300006927515" id="-28529">
		<tag k="name" v="Langmyr" />
		<tag k="natural" v="wetland" />
		<tag k="ssr:stedsnr" v="257056" />
	</node>
	<node lat="64.05385555249289" lon="11.539602780254702" id="-28544">
		<tag k="name" v="Byaslættmyran" />
		<tag k="natural" v="wetland" />
		<tag k="ssr:stedsnr" v="264745" />
	</node>
	<node lat="64.12469166683286" lon="11.558280549422369" id="-28557">
		<tag k="name" v="Spongmyra" />
		<tag k="natural" v="wetland" />
		<tag k="ssr:stedsnr" v="265716" />
	</node>
	<node lat="64.12187500398083" lon="11.277847228808431" id="-28559">
		<tag k="name" v="Tjønnmyra" />
		<tag k="natural" v="wetland" />
		<tag k="ssr:stedsnr" v="265799" />
	</node>
	<node lat="64.11801944593414" lon="11.283219445243562" id="-28560">
		<tag k="name" v="Stormyra" />
		<tag k="natural" v="wetland" />
		<tag k="ssr:stedsnr" v="265800" />
	</node>
	<node lat="64.0717444463445" lon="11.38230555430506" id="-28564">
		<tag k="name" v="Bergmyra" />
		<tag k="natural" v="wetland" />
		<tag k="ssr:stedsnr" v="265918" />
	</node>
	<node lat="63.95363611247835" lon="11.48629999029507" id="-28565">
		<tag k="name" v="Stinnmyra" />
		<tag k="natural" v="wetland" />
		<tag k="ssr:stedsnr" v="265900" />
	</node>
	<node lat="63.91627778141738" lon="11.468822231372368" id="-28567">
		<tag k="name" v="Melgårdsmyra" />
		<tag k="natural" v="wetland" />
		<tag k="ssr:stedsnr" v="265990" />
	</node>
	<node lat="64.04186944870183" lon="11.248683343326686" id="-28569">
		<tag k="name" v="Husmyra" />
		<tag k="natural" v="wetland" />
		<tag k="ssr:stedsnr" v="266235" />
	</node>
	<node lat="64.14819166210077" lon="11.651691676419679" id="-28578">
		<tag k="historic" v="shieling" />
		<tag k="name" v="Åsseteren" />
		<tag k="place" v="locality" />
		<tag k="ssr:stedsnr" v="271222" />
	</node>
	<node lat="63.97354722099996" lon="11.650288890827387" id="-28584">
		<tag k="name" v="Elisvemyra" />
		<tag k="natural" v="wetland" />
		<tag k="ssr:stedsnr" v="271420" />
	</node>
	<node lat="64.00785555161428" lon="11.705436113121035" id="-28587">
		<tag k="name" v="Limrisenget" />
		<tag k="place" v="locality" />
		<tag k="ssr:stedsnr" v="271427" />
	</node>
	<node lat="64.12246666963112" lon="11.580313880198371" id="-28588">
		<tag k="name" v="Forfontrøa" />
		<tag k="place" v="locality" />
		<tag k="ssr:stedsnr" v="271480" />
	</node>
	<node lat="64.20830000119716" lon="11.998305547032945" id="-28598">
		<tag k="name" v="Flåttamyra" />
		<tag k="natural" v="wetland" />
		<tag k="ssr:stedsnr" v="271978" />
	</node>
	<node lat="63.93899167002253" lon="11.648372215893449" id="-28599">
		<tag k="name" v="Langmyra" />
		<tag k="natural" v="wetland" />
		<tag k="ssr:stedsnr" v="272312" />
	</node>
	<node lat="64.11571110839603" lon="11.796000004836948" id="-28600">
		<tag k="name" v="Raudmyra" />
		<tag k="natural" v="wetland" />
		<tag k="ssr:stedsnr" v="272779" />
	</node>
	<node lat="64.12764722093684" lon="11.78280833855848" id="-28601">
		<tag k="name" v="Torvmyra" />
		<tag k="natural" v="wetland" />
		<tag k="ssr:stedsnr" v="272788" />
	</node>
	<node lat="63.84947222129872" lon="10.710747231125602" id="-28618">
		<tag k="name" v="Moldøra" />
		<tag k="place" v="locality" />
		<tag k="ssr:stedsnr" v="288691" />
	</node>
	<node lat="64.17155555764772" lon="11.598955558115346" id="-28625">
		<tag k="name" v="Moaenget" />
		<tag k="natural" v="wetland" />
		<tag k="ssr:stedsnr" v="290194" />
	</node>
	<node lat="64.05316943994286" lon="11.849666670288647" id="-28627">
		<tag k="name" v="Hatlingenget" />
		<tag k="natural" v="wetland" />
		<tag k="ssr:stedsnr" v="290984" />
	</node>
	<node lat="64.17518611265676" lon="11.661080560199142" id="-28629">
		<tag k="name" v="Kivillaunenget" />
		<tag k="natural" v="wetland" />
		<tag k="ssr:stedsnr" v="291131" />
	</node>
	<node lat="63.95005278048379" lon="11.724552776640989" id="-28632">
		<tag k="name" v="Aunslettet" />
		<tag k="natural" v="wetland" />
		<tag k="ssr:stedsnr" v="290890" />
	</node>
	<node lat="64.00913611287667" lon="12.064741668561773" id="-28636">
		<tag k="name" v="Dalenget" />
		<tag k="natural" v="wetland" />
		<tag k="ssr:stedsnr" v="291309" />
	</node>
	<node lat="64.09327778005711" lon="11.173041670022247" id="-28642">
		<tag k="name" v="Øver Hollerenget" />
		<tag k="natural" v="wetland" />
		<tag k="ssr:stedsnr" v="291706" />
	</node>
	<node lat="64.12718611229629" lon="11.240580547819025" id="-28668">
		<tag k="name" v="Finnkollmyra" />
		<tag k="natural" v="wetland" />
		<tag k="ssr:stedsnr" v="463627" />
	</node>
	<node lat="64.03451666579043" lon="11.040883327567057" id="-28737">
		<tag k="historic" v="shieling" />
		<tag k="name" v="Fremmerheia" />
		<tag k="place" v="locality" />
		<tag k="ssr:stedsnr" v="317999" />
	</node>
	<node lat="64.0487861133394" lon="11.303472212421424" id="-28742">
		<tag k="name" v="Liamyra" />
		<tag k="natural" v="wetland" />
		<tag k="ssr:stedsnr" v="326222" />
	</node>
	<node lat="64.10378333362814" lon="11.275311106145148" id="-28744">
		<tag k="name" v="Stormyra" />
		<tag k="natural" v="wetland" />
		<tag k="ssr:stedsnr" v="326184" />
	</node>
	<node lat="64.03938332906704" lon="11.407905559042243" id="-28745">
		<tag k="name" v="Jenshusmyra" />
		<tag k="natural" v="wetland" />
		<tag k="ssr:stedsnr" v="326613" />
	</node>
	<node lat="64.09639999733967" lon="11.313905564719313" id="-28748">
		<tag k="name" v="Småmyrin" />
		<tag k="natural" v="wetland" />
		<tag k="ssr:stedsnr" v="326815" />
	</node>
	<node lat="64.08764999589022" lon="11.293919438798998" id="-28749">
		<tag k="landuse" v="meadow" />
		<tag k="name" v="Bjørgen" />
		<tag k="ssr:stedsnr" v="326825" />
	</node>
	<node lat="64.15907222060655" lon="11.720605558094737" id="-28756">
		<tag k="name" v="Hevilmyra" />
		<tag k="natural" v="wetland" />
		<tag k="ssr:stedsnr" v="332019" />
	</node>
	<node lat="64.19215555293427" lon="11.784563883686735" id="-28771">
		<tag k="name" v="Melan" />
		<tag k="place" v="locality" />
		<tag k="ssr:stedsnr" v="332762" />
	</node>
	<node lat="64.07498610982128" lon="11.182816673418229" id="-28776">
		<tag k="name" v="Dalenget" />
		<tag k="natural" v="wetland" />
		<tag k="ssr:stedsnr" v="332961" />
	</node>
	<node lat="64.1692944459215" lon="11.439380555240437" id="-28797">
		<tag k="name" v="Vikenget" />
		<tag k="natural" v="wetland" />
		<tag k="ssr:stedsnr" v="472734" />
	</node>
	<node lat="64.17010833092372" lon="11.449416660527561" id="-28798">
		<tag k="name" v="Tessemenget" />
		<tag k="natural" v="wetland" />
		<tag k="ssr:stedsnr" v="472736" />
	</node>
	<node lat="64.07762500288183" lon="11.152497219745115" id="-28801">
		<tag k="name" v="Danielengan" />
		<tag k="natural" v="wetland" />
		<tag k="ssr:stedsnr" v="472687" />
	</node>
	<node lat="64.03794999668328" lon="11.861641669539654" id="-28807">
		<tag k="name" v="Sør Heggnesmyra" />
		<tag k="natural" v="wetland" />
		<tag k="ssr:stedsnr" v="472893" />
	</node>
	<node lat="64.04282222322041" lon="11.866997223683676" id="-28808">
		<tag k="name" v="Heggnesmyra" />
		<tag k="natural" v="wetland" />
		<tag k="ssr:stedsnr" v="472894" />
	</node>
	<node lat="64.05241111503895" lon="11.793302783946372" id="-28818">
		<tag k="name" v="Småmyran" />
		<tag k="natural" v="wetland" />
		<tag k="ssr:stedsnr" v="472997" />
	</node>
	<node lat="64.05007777507018" lon="11.063380559447433" id="-28819">
		<tag k="name" v="Storsteinslettet" />
		<tag k="natural" v="wetland" />
		<tag k="ssr:stedsnr" v="473001" />
	</node>
	<node lat="64.01257499968497" lon="12.252805558870586" id="-28834">
		<tag k="name" v="Geitakløvmyra" />
		<tag k="natural" v="wetland" />
		<tag k="ssr:stedsnr" v="473349" />
	</node>
	<node lat="64.07532338462266" lon="11.79707116637761" id="-28847">
		<tag k="name" v="Setermyra" />
		<tag k="natural" v="wetland" />
		<tag k="ssr:stedsnr" v="473819" />
	</node>
	<node lat="64.1693194426423" lon="11.54391945150301" id="-28858">
		<tag k="name" v="Lundsenget" />
		<tag k="natural" v="wetland" />
		<tag k="ssr:stedsnr" v="351070" />
	</node>
	<node lat="63.95091944573923" lon="11.7341916568029" id="-28872">
		<tag k="name" v="Aunmyran" />
		<tag k="natural" v="wetland" />
		<tag k="ssr:stedsnr" v="351907" />
	</node>
	<node lat="64.0079277805285" lon="12.116886117900481" id="-28876">
		<tag k="name" v="Rundmyra" />
		<tag k="natural" v="wetland" />
		<tag k="ssr:stedsnr" v="352256" />
	</node>
	<node lat="64.01790833757254" lon="12.112975004477002" id="-28877">
		<tag k="name" v="Kleivtjønnmyra" />
		<tag k="natural" v="wetland" />
		<tag k="ssr:stedsnr" v="352258" />
	</node>
	<node lat="63.94349721863519" lon="11.449297215831368" id="-28927">
		<tag k="name" v="Leinsmyra" />
		<tag k="natural" v="wetland" />
		<tag k="ssr:stedsnr" v="479508" />
	</node>
	<node lat="63.87280278102081" lon="11.534063889060176" id="-28946">
		<tag k="name" v="Flåmyran" />
		<tag k="natural" v="wetland" />
		<tag k="ssr:stedsnr" v="378168" />
	</node>
	<node lat="63.98296944726596" lon="11.560841676489526" id="-28963">
		<tag k="name" v="Gåsmyra" />
		<tag k="natural" v="wetland" />
		<tag k="ssr:stedsnr" v="385714" />
	</node>
	<node lat="64.04947500200822" lon="11.31031943784062" id="-28965">
		<tag k="name" v="Stormyra" />
		<tag k="natural" v="wetland" />
		<tag k="ssr:stedsnr" v="386223" />
	</node>
	<node lat="64.0770944439941" lon="11.394619443411447" id="-28970">
		<tag k="name" v="Middagsmyra" />
		<tag k="natural" v="wetland" />
		<tag k="ssr:stedsnr" v="386550" />
	</node>
	<node lat="64.11549722127651" lon="11.50375556073358" id="-28971">
		<tag k="name" v="Fjellmyra" />
		<tag k="natural" v="wetland" />
		<tag k="ssr:stedsnr" v="386559" />
	</node>
	<node lat="64.08184444461801" lon="11.383594451440638" id="-28976">
		<tag k="name" v="Åsmyra" />
		<tag k="natural" v="wetland" />
		<tag k="ssr:stedsnr" v="386620" />
	</node>
	<node lat="64.0452833309615" lon="11.264263890312238" id="-28986">
		<tag k="name" v="Stavermyra" />
		<tag k="natural" v="wetland" />
		<tag k="ssr:stedsnr" v="387245" />
	</node>
	<node lat="64.15130555808648" lon="11.4755416625537" id="-28988">
		<tag k="landuse" v="meadow" />
		<tag k="name" v="Brattbergsenget" />
		<tag k="ssr:stedsnr" v="387556" />
	</node>
	<node lat="63.99675555527538" lon="11.13974166932562" id="-28991">
		<tag k="name" v="Simaenget" />
		<tag k="natural" v="wetland" />
		<tag k="ssr:stedsnr" v="392116" />
	</node>
	<node lat="64.02571944120939" lon="11.718036119983655" id="-28998">
		<tag k="name" v="Kålhågåmyra" />
		<tag k="natural" v="wetland" />
		<tag k="ssr:stedsnr" v="392394" />
	</node>
	<node lat="64.19950833525012" lon="11.781252777377082" id="-29003">
		<tag k="name" v="Nordbuenget" />
		<tag k="natural" v="wetland" />
		<tag k="ssr:stedsnr" v="392831" />
	</node>
	<node lat="64.03700277549589" lon="11.206191662779592" id="-29009">
		<tag k="name" v="Porsmyra" />
		<tag k="natural" v="wetland" />
		<tag k="ssr:stedsnr" v="392993" />
	</node>
	<node lat="64.20289166559999" lon="11.992141660703084" id="-29013">
		<tag k="name" v="Småvollan" />
		<tag k="place" v="locality" />
		<tag k="ssr:stedsnr" v="392998" />
	</node>
	<node lat="63.92851944891335" lon="12.02857777298408" id="-29041">
		<tag k="name" v="Risbergslettet" />
		<tag k="place" v="locality" />
		<tag k="ssr:stedsnr" v="411513" />
	</node>
	<node lat="64.00800555952975" lon="12.175847220512948" id="-29044">
		<tag k="name" v="Gammelslåtten" />
		<tag k="natural" v="wetland" />
		<tag k="ssr:stedsnr" v="412292" />
	</node>
	<node lat="64.12446666831208" lon="11.149588893190135" id="-29045">
		<tag k="name" v="Såggåstadenget" />
		<tag k="natural" v="wetland" />
		<tag k="ssr:stedsnr" v="412510" />
	</node>
	<node lat="64.06838055756188" lon="11.132052782499072" id="-29047">
		<tag k="name" v="Nordmyrin" />
		<tag k="natural" v="wetland" />
		<tag k="ssr:stedsnr" v="412646" />
	</node>
	<node lat="63.9870583373726" lon="11.894891671287048" id="-29052">
		<tag k="name" v="Digerenget" />
		<tag k="place" v="locality" />
		<tag k="ssr:stedsnr" v="412904" />
	</node>
	<node lat="64.09607500114166" lon="11.910944446531834" id="-29054">
		<tag k="name" v="Bjørdalenget" />
		<tag k="natural" v="wetland" />
		<tag k="ssr:stedsnr" v="412937" />
	</node>
	<node lat="64.06996110883996" lon="11.790311102752739" id="-29056">
		<tag k="name" v="Skjelmyra" />
		<tag k="natural" v="wetland" />
		<tag k="ssr:stedsnr" v="412994" />
	</node>
	<node lat="64.07066944399023" lon="11.805152777761478" id="-29057">
		<tag k="name" v="Finn-Sivertslettet" />
		<tag k="natural" v="wetland" />
		<tag k="ssr:stedsnr" v="412996" />
	</node>
	<node lat="64.30285000132538" lon="11.928313883685249" id="-29107">
		<tag k="historic" v="shieling" />
		<tag k="name" v="Heggesseteren" />
		<tag k="place" v="locality" />
		<tag k="ssr:stedsnr" v="438600" />
	</node>
	<node lat="63.952661112793145" lon="11.559500002554342" id="-29110">
		<tag k="name" v="Båggåmyra" />
		<tag k="natural" v="wetland" />
		<tag k="ssr:stedsnr" v="438900" />
	</node>
	<node lat="64.04614722096925" lon="11.080925004165461" id="-29113">
		<tag k="name" v="Stormyra" />
		<tag k="natural" v="wetland" />
		<tag k="ssr:stedsnr" v="438962" />
	</node>
	<node lat="63.97636666943863" lon="11.565975007396466" id="-29143">
		<tag k="name" v="Storslåttamyra" />
		<tag k="natural" v="wetland" />
		<tag k="ssr:stedsnr" v="446703" />
	</node>
	<node lat="64.05088610966995" lon="11.322433325675249" id="-29149">
		<tag k="name" v="Hallsteinmyra" />
		<tag k="natural" v="wetland" />
		<tag k="ssr:stedsnr" v="447186" />
	</node>
	<node lat="64.0503750036162" lon="11.428205553422204" id="-29151">
		<tag k="name" v="Kringelmyra" />
		<tag k="natural" v="wetland" />
		<tag k="ssr:stedsnr" v="447571" />
	</node>
	<node lat="64.12549721998873" lon="11.435477773075585" id="-29154">
		<tag k="name" v="Raudmyra" />
		<tag k="natural" v="wetland" />
		<tag k="ssr:stedsnr" v="447479" />
	</node>
	<node lat="64.07996111173587" lon="11.55711944242244" id="-29159">
		<tag k="name" v="Seterenget" />
		<tag k="natural" v="wetland" />
		<tag k="ssr:stedsnr" v="447626" />
	</node>
	<node lat="63.87647499755916" lon="11.58878610367588" id="-29160">
		<tag k="name" v="Stormyra" />
		<tag k="natural" v="wetland" />
		<tag k="ssr:stedsnr" v="447683" />
	</node>
	<node lat="64.13062499911389" lon="11.271724999381076" id="-29167">
		<tag k="name" v="Hestmarka" />
		<tag k="place" v="locality" />
		<tag k="ssr:stedsnr" v="447723" />
	</node>
	<node lat="64.1457694434153" lon="11.295638895582632" id="-29169">
		<tag k="name" v="Storkleivmyra" />
		<tag k="natural" v="wetland" />
		<tag k="ssr:stedsnr" v="447728" />
	</node>
	<node lat="64.07055000388836" lon="11.50089445445121" id="-29172">
		<tag k="name" v="Oksåsmarka" />
		<tag k="place" v="locality" />
		<tag k="ssr:stedsnr" v="447910" />
	</node>
	<node lat="64.14068333122232" lon="11.64675556530325" id="-29188">
		<tag k="name" v="Grindbergsmyra" />
		<tag k="natural" v="wetland" />
		<tag k="ssr:stedsnr" v="453213" />
	</node>
	<node lat="64.13420555186875" lon="11.617538888123754" id="-29195">
		<tag k="name" v="Homyra" />
		<tag k="natural" v="wetland" />
		<tag k="ssr:stedsnr" v="453419" />
	</node>
	<node lat="64.06349999821315" lon="11.682111100746514" id="-29198">
		<tag k="alt_name" v="Indbrynsmyra" />
		<tag k="name" v="Innbrynsmyra" />
		<tag k="natural" v="wetland" />
		<tag k="ssr:stedsnr" v="453314" />
	</node>
	<node lat="63.981163888273045" lon="11.595344443625992" id="-29210">
		<tag k="name" v="Vestermyran" />
		<tag k="natural" v="wetland" />
		<tag k="ssr:stedsnr" v="453915" />
	</node>
	<node lat="63.97568888621112" lon="11.576669445772506" id="-29211">
		<tag k="name" v="Sognan" />
		<tag k="natural" v="wetland" />
		<tag k="ssr:stedsnr" v="453916" />
	</node>
	<node lat="63.97094721832663" lon="11.598691670914397" id="-29212">
		<tag k="name" v="Dølenget" />
		<tag k="place" v="locality" />
		<tag k="ssr:stedsnr" v="453872" />
	</node>
	<node lat="63.97156111481902" lon="11.620686112493074" id="-29213">
		<tag k="name" v="Årengsmyra" />
		<tag k="natural" v="wetland" />
		<tag k="ssr:stedsnr" v="453873" />
	</node>
	<node lat="63.973480553921036" lon="11.610575006289151" id="-29214">
		<tag k="name" v="Furubergmyra" />
		<tag k="natural" v="wetland" />
		<tag k="ssr:stedsnr" v="453876" />
	</node>
	<node lat="64.11530277904014" lon="11.781069451166768" id="-29215">
		<tag k="name" v="Ramstadenget" />
		<tag k="place" v="locality" />
		<tag k="ssr:stedsnr" v="454825" />
	</node>
	<node lat="64.01038333390447" lon="11.126827787764919" id="-29236">
		<tag k="name" v="Høgengan" />
		<tag k="natural" v="wetland" />
		<tag k="ssr:stedsnr" v="473023" />
	</node>
	<node lat="64.0164388929738" lon="11.133111110016037" id="-29237">
		<tag k="name" v="Oveslettet" />
		<tag k="natural" v="wetland" />
		<tag k="ssr:stedsnr" v="473025" />
	</node>
	<node lat="63.97908333610672" lon="11.722138885423073" id="-29238">
		<tag k="name" v="Treskogbergmyra" />
		<tag k="natural" v="wetland" />
		<tag k="ssr:stedsnr" v="472917" />
	</node>
	<node lat="64.06066944810034" lon="11.793744443204975" id="-29240">
		<tag k="name" v="Eliasenget" />
		<tag k="natural" v="wetland" />
		<tag k="ssr:stedsnr" v="472970" />
	</node>
	<node lat="64.1792888882623" lon="11.635463885892477" id="-29241">
		<tag k="name" v="Hallanenget" />
		<tag k="natural" v="wetland" />
		<tag k="ssr:stedsnr" v="473103" />
	</node>
	<node lat="64.18498333634591" lon="11.645611116084849" id="-29245">
		<tag k="name" v="Hoaenget" />
		<tag k="natural" v="wetland" />
		<tag k="ssr:stedsnr" v="473208" />
	</node>
	<node lat="64.18475277644833" lon="11.689466674048314" id="-29246">
		<tag k="name" v="Bakkenget" />
		<tag k="natural" v="wetland" />
		<tag k="ssr:stedsnr" v="473214" />
	</node>
	<node lat="64.09835833236589" lon="11.776527783292279" id="-29256">
		<tag k="name" v="Liamyra" />
		<tag k="natural" v="wetland" />
		<tag k="ssr:stedsnr" v="473764" />
	</node>
	<node lat="64.1069027784832" lon="11.799361101414812" id="-29257">
		<tag k="name" v="Styggmarkmyra" />
		<tag k="natural" v="wetland" />
		<tag k="ssr:stedsnr" v="473767" />
	</node>
	<node lat="64.0609888878226" lon="11.518594437345625" id="-29298">
		<tag k="name" v="Mortensengmyra" />
		<tag k="natural" v="wetland" />
		<tag k="ssr:stedsnr" v="681050" />
	</node>
	<node lat="64.04443055681338" lon="11.512922214641874" id="-29310">
		<tag k="name" v="Tjurrumyra" />
		<tag k="natural" v="wetland" />
		<tag k="ssr:stedsnr" v="681101" />
	</node>
	<node lat="64.16564444029333" lon="11.805941656790278" id="-29331">
		<tag k="name" v="Noemsmyra" />
		<tag k="natural" v="wetland" />
		<tag k="ssr:stedsnr" v="681445" />
	</node>
	<node lat="64.05856389333555" lon="11.570347220544424" id="-29341">
		<tag k="name" v="Grønmyra" />
		<tag k="natural" v="wetland" />
		<tag k="ssr:stedsnr" v="499038" />
	</node>
	<node lat="64.01870278024134" lon="11.821349994558435" id="-29379">
		<tag k="alt_name" v="Saksengmyra" />
		<tag k="name" v="Møytlamyra" />
		<tag k="natural" v="wetland" />
		<tag k="ssr:stedsnr" v="499598" />
	</node>
	<node lat="64.06560277463774" lon="11.157311110702786" id="-29389">
		<tag k="name" v="Stormyra" />
		<tag k="natural" v="wetland" />
		<tag k="ssr:stedsnr" v="681550" />
	</node>
	<node lat="63.97883889116181" lon="11.671302775468828" id="-29429">
		<tag k="name" v="Årengmyra" />
		<tag k="natural" v="wetland" />
		<tag k="ssr:stedsnr" v="681975" />
	</node>
	<node lat="64.10121388609859" lon="11.454702770433542" id="-29443">
		<tag k="name" v="Svarvasmoen" />
		<tag k="place" v="locality" />
		<tag k="ssr:stedsnr" v="508606" />
	</node>
	<node lat="64.13371111448005" lon="11.415002770626133" id="-29445">
		<tag k="name" v="Litlenget" />
		<tag k="natural" v="wetland" />
		<tag k="ssr:stedsnr" v="508556" />
	</node>
	<node lat="64.14667500283915" lon="11.45607500383389" id="-29447">
		<tag k="landuse" v="meadow" />
		<tag k="name" v="Holmfetenget" />
		<tag k="ssr:stedsnr" v="508562" />
	</node>
	<node lat="63.895161114845294" lon="11.43278333880824" id="-29451">
		<tag k="name" v="Vollan" />
		<tag k="place" v="locality" />
		<tag k="ssr:stedsnr" v="508809" />
	</node>
	<node lat="63.9620833313348" lon="11.453144439561" id="-29455">
		<tag k="name" v="Oksmyra" />
		<tag k="natural" v="wetland" />
		<tag k="ssr:stedsnr" v="508913" />
	</node>
	<node lat="63.89912500221507" lon="11.681519438990358" id="-29461">
		<tag k="name" v="Litl-varden" />
		<tag k="natural" v="stone" />
		<tag k="ssr:stedsnr" v="272432" />
	</node>
	<node lat="63.8902083306451" lon="11.64332778429164" id="-29462">
		<tag k="name" v="Benjaminsteinen" />
		<tag k="natural" v="stone" />
		<tag k="ssr:stedsnr" v="272433" />
	</node>
	<node lat="64.11942499753286" lon="11.753433324648913" id="-29476">
		<tag k="name" v="Diket" />
		<tag k="natural" v="wetland" />
		<tag k="ssr:stedsnr" v="514119" />
	</node>
	<node lat="64.0602888924955" lon="11.731361113198169" id="-29482">
		<tag k="name" v="Natsjøenget" />
		<tag k="place" v="locality" />
		<tag k="ssr:stedsnr" v="514281" />
	</node>
	<node lat="64.15575278114132" lon="11.607147216983105" id="-29486">
		<tag k="name" v="Gåsbroddmyra" />
		<tag k="natural" v="wetland" />
		<tag k="ssr:stedsnr" v="514424" />
	</node>
	<node lat="63.932355185817045" lon="11.695494621164267" id="-29488">
		<tag k="alt_name" v="Henningslettet" />
		<tag k="name" v="Henningslættet" />
		<tag k="place" v="locality" />
		<tag k="ssr:stedsnr" v="514364" />
	</node>
	<node lat="64.04795832971567" lon="11.535563898549892" id="-29490">
		<tag k="name" v="Langmyra" />
		<tag k="natural" v="wetland" />
		<tag k="ssr:stedsnr" v="514518" />
	</node>
	<node lat="64.04000000122615" lon="11.45483610300293" id="-29495">
		<tag k="name" v="Sveet" />
		<tag k="place" v="locality" />
		<tag k="ssr:stedsnr" v="514871" />
	</node>
	<node lat="64.21013610955863" lon="11.992733330221302" id="-29506">
		<tag k="name" v="Vassmyra" />
		<tag k="natural" v="wetland" />
		<tag k="ssr:stedsnr" v="514970" />
	</node>
	<node lat="64.10049444183545" lon="11.20021110507645" id="-29507">
		<tag k="name" v="Beretmyra" />
		<tag k="natural" v="wetland" />
		<tag k="ssr:stedsnr" v="523802" />
	</node>
	<node lat="64.09785555317994" lon="11.195122227894837" id="-29509">
		<tag k="name" v="Sognmyra" />
		<tag k="natural" v="wetland" />
		<tag k="ssr:stedsnr" v="523804" />
	</node>
	<node lat="64.1343222257151" lon="11.200197228195751" id="-29510">
		<tag k="name" v="Mikkelenget" />
		<tag k="natural" v="wetland" />
		<tag k="ssr:stedsnr" v="524573" />
	</node>
	<node lat="64.00063055531696" lon="10.93792500356662" id="-29520">
		<tag k="name" v="Tjønnmyra" />
		<tag k="natural" v="wetland" />
		<tag k="ssr:stedsnr" v="533077" />
	</node>
	<node lat="64.14587777538785" lon="11.377263885465743" id="-29524">
		<tag k="name" v="Vellaenget" />
		<tag k="natural" v="wetland" />
		<tag k="ssr:stedsnr" v="533505" />
	</node>
	<node lat="64.08815555279605" lon="11.161702785089652" id="-29527">
		<tag k="name" v="Røssenget" />
		<tag k="natural" v="wetland" />
		<tag k="ssr:stedsnr" v="533720" />
	</node>
	<node lat="64.04525555488003" lon="11.881450004765304" id="-29529">
		<tag k="name" v="Klæbusetermyra" />
		<tag k="natural" v="wetland" />
		<tag k="ssr:stedsnr" v="533919" />
	</node>
	<node lat="64.03655833690347" lon="11.820897232128" id="-29533">
		<tag k="name" v="Storslettet" />
		<tag k="natural" v="wetland" />
		<tag k="ssr:stedsnr" v="533985" />
	</node>
	<node lat="64.01081111330856" lon="12.129408323477715" id="-29536">
		<tag k="name" v="Litlårenget" />
		<tag k="place" v="locality" />
		<tag k="ssr:stedsnr" v="534268" />
	</node>
	<node lat="64.24645000320359" lon="11.655180564041132" id="-29613">
		<tag k="name" v="Korsmyra" />
		<tag k="natural" v="wetland" />
		<tag k="ssr:stedsnr" v="560893" />
	</node>
</osm>
