<?xml version="1.0" encoding="UTF-8"?>
<osm version="0.6" generator="osmapis">
	<node lat="60.94391388494492" lon="0.935969449141617" id="-6">
		<tag k="fixme" v="multiple name tags, choose one and add the other to alt_name" />
		<tag k="name" v="Heather;Heather" />
		<tag k="name:en" v="Heather;Heather" />
		<tag k="ssr:date" v="2016-05-10" />
		<tag k="ssr:gruppe" v="sjøbunn" />
		<tag k="ssr:hovedgruppe" v="sjø" />
		<tag k="ssr:stedsnr" v="40890" />
		<tag k="ssr:type" v="gass-OljefeltISjø" />
	</node>
	<node lat="64.12781469908744" lon="-13.714185640804267" id="-16">
		<tag k="fixme" v="multiple name tags, choose one and add the other to alt_name" />
		<tag k="name" v="Papagrunn;Papagrunn" />
		<tag k="name:is" v="Papagrunn;Papagrunn" />
		<tag k="ssr:date" v="2016-05-10" />
		<tag k="ssr:gruppe" v="sjøbunn" />
		<tag k="ssr:hovedgruppe" v="sjø" />
		<tag k="ssr:stedsnr" v="41902" />
		<tag k="ssr:type" v="bankeISjø" />
	</node>
	<node lat="63.90297897246405" lon="-14.569443264730847" id="-17">
		<tag k="fixme" v="multiple name tags, choose one and add the other to alt_name" />
		<tag k="name" v="Stokksnesgrunn;Stokksnesgrunn" />
		<tag k="name:is" v="Stokksnesgrunn;Stokksnesgrunn" />
		<tag k="ssr:date" v="2016-05-10" />
		<tag k="ssr:gruppe" v="sjøbunn" />
		<tag k="ssr:hovedgruppe" v="sjø" />
		<tag k="ssr:stedsnr" v="41900" />
		<tag k="ssr:type" v="bankeISjø" />
	</node>
	<node lat="63.306666663441995" lon="5.4166666617002415" id="-22">
		<tag k="fixme" v="multiple name tags, choose one and add the other to alt_name" />
		<tag k="name" v="Steinmaren;Steinmaren" />
		<tag k="ssr:date" v="2016-05-10" />
		<tag k="ssr:gruppe" v="farvann" />
		<tag k="ssr:hovedgruppe" v="sjø" />
		<tag k="ssr:stedsnr" v="42608" />
		<tag k="ssr:type" v="fiskeplassISjø" />
	</node>
	<node lat="69.25353660605703" lon="35.138682936764404" id="-23">
		<tag k="fixme" v="multiple name tags, choose one and add the other to alt_name" />
		<tag k="name" v="Teriberski;Teriberski" />
		<tag k="name:ru" v="Teriberski;Teriberski" />
		<tag k="ssr:date" v="2016-05-10" />
		<tag k="ssr:gruppe" v="navigasjon" />
		<tag k="ssr:hovedgruppe" v="infrastruktur" />
		<tag k="ssr:stedsnr" v="40111" />
		<tag k="ssr:type" v="fyrlykt" />
	</node>
	<node lat="74.6119305567417" lon="15.997216671172449" id="-25">
		<tag k="fixme" v="multiple name tags, choose one and add the other to alt_name" />
		<tag k="name" v="Knølegga;Knølegga" />
		<tag k="ssr:date" v="2016-05-10" />
		<tag k="ssr:gruppe" v="sjøbunn" />
		<tag k="ssr:hovedgruppe" v="sjø" />
		<tag k="ssr:stedsnr" v="56024" />
		<tag k="ssr:type" v="eggISjø" />
	</node>
	<node lat="61.24166666613492" lon="1.883333341846856" id="-27">
		<tag k="fixme" v="multiple name tags, choose one and add the other to alt_name" />
		<tag k="name" v="Statfjord;Statfjord" />
		<tag k="ssr:date" v="2016-05-10" />
		<tag k="ssr:gruppe" v="sjøbunn" />
		<tag k="ssr:hovedgruppe" v="sjø" />
		<tag k="ssr:stedsnr" v="56703" />
		<tag k="ssr:type" v="gass-OljefeltISjø" />
	</node>
	<node lat="65.14999999885698" lon="6.799999993774879" id="-28">
		<tag k="fixme" v="multiple name tags, choose one and add the other to alt_name" />
		<tag k="name" v="Åsgard;Åsgard" />
		<tag k="ssr:date" v="2016-05-10" />
		<tag k="ssr:gruppe" v="sjøbunn" />
		<tag k="ssr:hovedgruppe" v="sjø" />
		<tag k="ssr:stedsnr" v="56705" />
		<tag k="ssr:type" v="gass-OljefeltISjø" />
	</node>
	<node lat="74.26286944776884" lon="22.72999442859629" id="-36">
		<tag k="fixme" v="multiple name tags, choose one and add the other to alt_name" />
		<tag k="name" v="Gardarbanken;Gardarbanken" />
		<tag k="ssr:date" v="2016-05-10" />
		<tag k="ssr:gruppe" v="sjøbunn" />
		<tag k="ssr:hovedgruppe" v="sjø" />
		<tag k="ssr:stedsnr" v="101804" />
		<tag k="ssr:type" v="bankeISjø" />
	</node>
	<node lat="63.83017767528247" lon="-16.665505180148816" id="-38">
		<tag k="fixme" v="multiple name tags, choose one and add the other to alt_name" />
		<tag k="name" v="Ingólfshøfdi;Ingólfshøfdi" />
		<tag k="name:is" v="Ingólfshøfdi;Ingólfshøfdi" />
		<tag k="ssr:date" v="2016-05-10" />
		<tag k="ssr:gruppe" v="navigasjon" />
		<tag k="ssr:hovedgruppe" v="infrastruktur" />
		<tag k="ssr:stedsnr" v="102903" />
		<tag k="ssr:type" v="fyrstasjon" />
	</node>
	<node lat="63.06669270438558" lon="6.066796199705072" id="-39">
		<tag k="fixme" v="multiple name tags, choose one and add the other to alt_name" />
		<tag k="name" v="Onadjupet;Onadjupet" />
		<tag k="ssr:date" v="2019-09-16" />
		<tag k="ssr:gruppe" v="sjøbunn" />
		<tag k="ssr:hovedgruppe" v="sjø" />
		<tag k="ssr:stedsnr" v="103707" />
		<tag k="ssr:type" v="søkkISjø" />
	</node>
	<node lat="71.31250000092801" lon="22.2499999613389" id="-40">
		<tag k="fixme" v="multiple name tags, choose one and add the other to alt_name" />
		<tag k="name" v="Goliat;Goliat" />
		<tag k="ssr:date" v="2016-05-10" />
		<tag k="ssr:gruppe" v="sjøbunn" />
		<tag k="ssr:hovedgruppe" v="sjø" />
		<tag k="ssr:stedsnr" v="424303" />
		<tag k="ssr:type" v="gass-OljefeltISjø" />
	</node>
	<node lat="69.84192787740335" lon="31.56832754163782" id="-41">
		<tag k="fixme" v="multiple name tags, choose one and add the other to alt_name" />
		<tag k="name" v="Henøyane;Henøyane" />
		<tag k="ssr:date" v="2016-05-10" />
		<tag k="ssr:gruppe" v="navigasjon" />
		<tag k="ssr:hovedgruppe" v="infrastruktur" />
		<tag k="ssr:stedsnr" v="117069" />
		<tag k="ssr:type" v="fyrlykt" />
	</node>
	<node lat="58.93194444159606" lon="10.987499999971519" id="-43">
		<tag k="fixme" v="multiple name tags, choose one and add the other to alt_name" />
		<tag k="name" v="Klövningarna;Klövningarna" />
		<tag k="name:sv" v="Klövningarna;Klövningarna" />
		<tag k="ssr:date" v="2016-05-10" />
		<tag k="ssr:gruppe" v="navigasjon" />
		<tag k="ssr:hovedgruppe" v="infrastruktur" />
		<tag k="ssr:stedsnr" v="121807" />
		<tag k="ssr:type" v="fyrstasjon" />
	</node>
	<node lat="70.84518622138668" lon="38.660275154913" id="-46">
		<tag k="fixme" v="multiple name tags, choose one and add the other to alt_name" />
		<tag k="name" v="Kaninstrømmen;Kaninstrømmen" />
		<tag k="ssr:date" v="2016-05-10" />
		<tag k="ssr:gruppe" v="detaljISjø" />
		<tag k="ssr:hovedgruppe" v="sjø" />
		<tag k="ssr:stedsnr" v="177148" />
		<tag k="ssr:type" v="sjødetalj" />
	</node>
	<node lat="70.57554444280962" lon="19.393563890508315" id="-47">
		<tag k="fixme" v="multiple name tags, choose one and add the other to alt_name" />
		<tag k="name" v="Østhola;Østhola" />
		<tag k="ssr:date" v="2016-05-10" />
		<tag k="ssr:gruppe" v="sjøbunn" />
		<tag k="ssr:hovedgruppe" v="sjø" />
		<tag k="ssr:stedsnr" v="177695" />
		<tag k="ssr:type" v="søkkISjø" />
	</node>
	<node lat="60.81111111483755" lon="1.7333333411936924" id="-49">
		<tag k="fixme" v="multiple name tags, choose one and add the other to alt_name" />
		<tag k="name" v="Alwyn North;Alwyn North" />
		<tag k="ssr:date" v="2016-05-10" />
		<tag k="ssr:gruppe" v="sjøbunn" />
		<tag k="ssr:hovedgruppe" v="sjø" />
		<tag k="ssr:stedsnr" v="179751" />
		<tag k="ssr:type" v="gass-OljefeltISjø" />
	</node>
	<node lat="70.85833336226675" lon="30.54999845380407" id="-50">
		<tag k="fixme" v="multiple name tags, choose one and add the other to alt_name" />
		<tag k="name" v="Øvre Banken;Øvre Banken" />
		<tag k="ssr:date" v="2016-05-10" />
		<tag k="ssr:gruppe" v="sjøbunn" />
		<tag k="ssr:hovedgruppe" v="sjø" />
		<tag k="ssr:stedsnr" v="424615" />
		<tag k="ssr:type" v="bankeISjø" />
	</node>
	<node lat="59.562500003153744" lon="1.658333334870034" id="-51">
		<tag k="fixme" v="multiple name tags, choose one and add the other to alt_name" />
		<tag k="name" v="Leadon;Leadon" />
		<tag k="ssr:date" v="2016-05-10" />
		<tag k="ssr:gruppe" v="sjøbunn" />
		<tag k="ssr:hovedgruppe" v="sjø" />
		<tag k="ssr:stedsnr" v="180464" />
		<tag k="ssr:type" v="gass-OljefeltISjø" />
	</node>
	<node lat="58.47916666883041" lon="1.266666662687619" id="-53">
		<tag k="fixme" v="multiple name tags, choose one and add the other to alt_name" />
		<tag k="name" v="Tiffany;Tiffany" />
		<tag k="name:en" v="Tiffany;Tiffany" />
		<tag k="ssr:date" v="2016-05-10" />
		<tag k="ssr:gruppe" v="sjøbunn" />
		<tag k="ssr:hovedgruppe" v="sjø" />
		<tag k="ssr:stedsnr" v="181847" />
		<tag k="ssr:type" v="gass-OljefeltISjø" />
	</node>
	<node lat="56.786111111295135" lon="11.375000006474913" id="-54">
		<tag k="fixme" v="multiple name tags, choose one and add the other to alt_name" />
		<tag k="name" v="Nordvest rev;Nordvest rev" />
		<tag k="name:da" v="Nordvest rev;Nordvest rev" />
		<tag k="ssr:date" v="2016-05-10" />
		<tag k="ssr:gruppe" v="sjøbunn" />
		<tag k="ssr:hovedgruppe" v="sjø" />
		<tag k="ssr:stedsnr" v="181869" />
		<tag k="ssr:type" v="bankeISjø" />
	</node>
	<node lat="57.29999999616899" lon="11.900000004842854" id="-63">
		<tag k="fixme" v="multiple name tags, choose one and add the other to alt_name" />
		<tag k="name" v="Nidingen;Nidingen" />
		<tag k="name:sv" v="Nidingen;Nidingen" />
		<tag k="ssr:date" v="2016-05-10" />
		<tag k="ssr:gruppe" v="navigasjon" />
		<tag k="ssr:hovedgruppe" v="infrastruktur" />
		<tag k="ssr:stedsnr" v="182867" />
		<tag k="ssr:type" v="fyrstasjon" />
	</node>
	<node lat="62.36937226429744" lon="-6.813652261588463" id="-66">
		<tag k="fixme" v="multiple name tags, choose one and add the other to alt_name" />
		<tag k="name" v="Kadlur;Kadlur" />
		<tag k="ssr:date" v="2016-05-10" />
		<tag k="ssr:gruppe" v="navigasjon" />
		<tag k="ssr:hovedgruppe" v="infrastruktur" />
		<tag k="ssr:stedsnr" v="223139" />
		<tag k="ssr:type" v="fyrstasjon" />
	</node>
	<node lat="68.81131794480466" lon="37.327877856888655" id="-67">
		<tag k="fixme" v="multiple name tags, choose one and add the other to alt_name" />
		<tag k="name" v="Syeniostrovski;Syeniostrovski" />
		<tag k="name:ru" v="Syeniostrovski;Syeniostrovski" />
		<tag k="ssr:date" v="2016-05-10" />
		<tag k="ssr:gruppe" v="navigasjon" />
		<tag k="ssr:hovedgruppe" v="infrastruktur" />
		<tag k="ssr:stedsnr" v="223158" />
		<tag k="ssr:type" v="fyrlykt" />
	</node>
	<node lat="60.85583611676376" lon="-0.8808027614593104" id="-70">
		<tag k="fixme" v="multiple name tags, choose one and add the other to alt_name" />
		<tag k="name" v="Muckle Flugga;Muckle Flugga" />
		<tag k="name:en" v="Muckle Flugga;Muckle Flugga" />
		<tag k="ssr:date" v="2016-05-10" />
		<tag k="ssr:gruppe" v="navigasjon" />
		<tag k="ssr:hovedgruppe" v="infrastruktur" />
		<tag k="ssr:stedsnr" v="223236" />
		<tag k="ssr:type" v="fyrstasjon" />
	</node>
	<node lat="71.01691666584507" lon="20.281761102903754" id="-77">
		<tag k="fixme" v="multiple name tags, choose one and add the other to alt_name" />
		<tag k="name" v="Realgrunnen;Realgrunnen" />
		<tag k="ssr:date" v="2016-05-10" />
		<tag k="ssr:gruppe" v="sjøbunn" />
		<tag k="ssr:hovedgruppe" v="sjø" />
		<tag k="ssr:stedsnr" v="223675" />
		<tag k="ssr:type" v="bankeISjø" />
	</node>
	<node lat="71.04944722349508" lon="18.066311103843134" id="-83">
		<tag k="fixme" v="multiple name tags, choose one and add the other to alt_name" />
		<tag k="name" v="Teistgrunnskallan;Teistgrunnskallan" />
		<tag k="ssr:date" v="2016-05-10" />
		<tag k="ssr:gruppe" v="sjøbunn" />
		<tag k="ssr:hovedgruppe" v="sjø" />
		<tag k="ssr:stedsnr" v="223874" />
		<tag k="ssr:type" v="bankeISjø" />
	</node>
	<node lat="65.08936265445149" lon="-15.961482767205643" id="-84">
		<tag k="fixme" v="multiple name tags, choose one and add the other to alt_name" />
		<tag k="name" v="Iceland;Iceland" />
		<tag k="name:en" v="Iceland;Iceland" />
		<tag k="ssr:date" v="2016-05-10" />
		<tag k="ssr:gruppe" v="administrativeIndelinger" />
		<tag k="ssr:hovedgruppe" v="offentligAdministrasjon" />
		<tag k="ssr:stedsnr" v="223900" />
		<tag k="ssr:type" v="nasjon" />
	</node>
	<node lat="63.44583333680483" lon="6.633333327137835" id="-89">
		<tag k="fixme" v="multiple name tags, choose one and add the other to alt_name" />
		<tag k="name" v="Nordegga;Nordegga" />
		<tag k="ssr:date" v="2016-05-10" />
		<tag k="ssr:gruppe" v="sjøbunn" />
		<tag k="ssr:hovedgruppe" v="sjø" />
		<tag k="ssr:stedsnr" v="224615" />
		<tag k="ssr:type" v="eggISjø" />
	</node>
	<node lat="63.72405277402069" lon="5.218955547711239" id="-100">
		<tag k="fixme" v="multiple name tags, choose one and add the other to alt_name" />
		<tag k="name" v="Storneset;Storneset" />
		<tag k="ssr:date" v="2016-05-10" />
		<tag k="ssr:gruppe" v="sjøbunn" />
		<tag k="ssr:hovedgruppe" v="sjø" />
		<tag k="ssr:stedsnr" v="344680" />
		<tag k="ssr:type" v="ryggISjø" />
	</node>
	<node lat="58.96777777339806" lon="3.297222223098944" id="-109">
		<tag k="fixme" v="multiple name tags, choose one and add the other to alt_name" />
		<tag k="name" v="Norskerenna;Norskerenna" />
		<tag k="ssr:date" v="2019-09-11" />
		<tag k="ssr:gruppe" v="sjøbunn" />
		<tag k="ssr:hovedgruppe" v="sjø" />
		<tag k="ssr:stedsnr" v="344805" />
		<tag k="ssr:type" v="renneKløftISjø" />
	</node>
	<node lat="64.99416111301328" lon="6.547405555729735" id="-111">
		<tag k="fixme" v="multiple name tags, choose one and add the other to alt_name" />
		<tag k="name" v="Kristin;Kristin" />
		<tag k="ssr:date" v="2016-05-10" />
		<tag k="ssr:gruppe" v="sjøbunn" />
		<tag k="ssr:hovedgruppe" v="sjø" />
		<tag k="ssr:stedsnr" v="344873" />
		<tag k="ssr:type" v="gass-OljefeltISjø" />
	</node>
	<node lat="60.3820000035738" lon="2.7948138898890718" id="-114">
		<tag k="fixme" v="multiple name tags, choose one and add the other to alt_name" />
		<tag k="name" v="Oseberg Sør;Oseberg Sør" />
		<tag k="ssr:date" v="2016-05-10" />
		<tag k="ssr:gruppe" v="sjøbunn" />
		<tag k="ssr:hovedgruppe" v="sjø" />
		<tag k="ssr:stedsnr" v="420948" />
		<tag k="ssr:type" v="gass-OljefeltISjø" />
	</node>
	<node lat="63.20000000287873" lon="5.291666670756298" id="-117">
		<tag k="fixme" v="multiple name tags, choose one and add the other to alt_name" />
		<tag k="name" v="Skallen;Skallen" />
		<tag k="ssr:date" v="2016-05-10" />
		<tag k="ssr:gruppe" v="farvann" />
		<tag k="ssr:hovedgruppe" v="sjø" />
		<tag k="ssr:stedsnr" v="345628" />
		<tag k="ssr:type" v="fiskeplassISjø" />
	</node>
	<node lat="60.60833333532241" lon="2.7750000040744505" id="-121">
		<tag k="fixme" v="multiple name tags, choose one and add the other to alt_name" />
		<tag k="name" v="Oseberg C;Oseberg C" />
		<tag k="ssr:date" v="2016-05-10" />
		<tag k="ssr:gruppe" v="sjøbunn" />
		<tag k="ssr:hovedgruppe" v="sjø" />
		<tag k="ssr:stedsnr" v="404755" />
		<tag k="ssr:type" v="gass-OljefeltISjø" />
	</node>
	<node lat="57.48333333016263" lon="10.624999993113756" id="-136">
		<tag k="fixme" v="multiple name tags, choose one and add the other to alt_name" />
		<tag k="name" v="Hirsholm;Hirsholm" />
		<tag k="name:da" v="Hirsholm;Hirsholm" />
		<tag k="ssr:date" v="2016-05-10" />
		<tag k="ssr:gruppe" v="navigasjon" />
		<tag k="ssr:hovedgruppe" v="infrastruktur" />
		<tag k="ssr:stedsnr" v="242747" />
		<tag k="ssr:type" v="fyrstasjon" />
	</node>
	<node lat="66.45817050258512" lon="-15.953188749265127" id="-140">
		<tag k="fixme" v="multiple name tags, choose one and add the other to alt_name" />
		<tag k="name" v="Raufarhøfn;Raufarhøfn" />
		<tag k="name:is" v="Raufarhøfn;Raufarhøfn" />
		<tag k="ssr:date" v="2016-05-10" />
		<tag k="ssr:gruppe" v="navigasjon" />
		<tag k="ssr:hovedgruppe" v="infrastruktur" />
		<tag k="ssr:stedsnr" v="284900" />
		<tag k="ssr:type" v="fyrstasjon" />
	</node>
	<node lat="64.7341977214727" lon="-12.836155190867133" id="-141">
		<tag k="fixme" v="multiple name tags, choose one and add the other to alt_name" />
		<tag k="name" v="Skrúdsgrunn;Skrúdsgrunn" />
		<tag k="name:is" v="Skrúdsgrunn;Skrúdsgrunn" />
		<tag k="ssr:date" v="2016-05-10" />
		<tag k="ssr:gruppe" v="sjøbunn" />
		<tag k="ssr:hovedgruppe" v="sjø" />
		<tag k="ssr:stedsnr" v="284923" />
		<tag k="ssr:type" v="bankeISjø" />
	</node>
	<node lat="66.13972816455065" lon="-13.075177977266979" id="-142">
		<tag k="fixme" v="multiple name tags, choose one and add the other to alt_name" />
		<tag k="name" v="Vopnafjardargrunn;Vopnafjardargrunn" />
		<tag k="name:is" v="Vopnafjardargrunn;Vopnafjardargrunn" />
		<tag k="ssr:date" v="2016-05-10" />
		<tag k="ssr:gruppe" v="sjøbunn" />
		<tag k="ssr:hovedgruppe" v="sjø" />
		<tag k="ssr:stedsnr" v="284927" />
		<tag k="ssr:type" v="bankeISjø" />
	</node>
	<node lat="61.29176389275711" lon="0.9109249922085686" id="-143">
		<tag k="fixme" v="multiple name tags, choose one and add the other to alt_name" />
		<tag k="name" v="Tern;Tern" />
		<tag k="name:en" v="Tern;Tern" />
		<tag k="ssr:date" v="2016-05-10" />
		<tag k="ssr:gruppe" v="sjøbunn" />
		<tag k="ssr:hovedgruppe" v="sjø" />
		<tag k="ssr:stedsnr" v="404859" />
		<tag k="ssr:type" v="gass-OljefeltISjø" />
	</node>
	<node lat="70.85659445160928" lon="-7.548983131088043" id="-146">
		<tag k="fixme" v="multiple name tags, choose one and add the other to alt_name" />
		<tag k="name" v="Sarsbanke;Sarsbanke" />
		<tag k="ssr:date" v="2016-05-10" />
		<tag k="ssr:gruppe" v="sjøbunn" />
		<tag k="ssr:hovedgruppe" v="sjø" />
		<tag k="ssr:stedsnr" v="404926" />
		<tag k="ssr:type" v="bankeISjø" />
	</node>
	<node lat="74.37790833646672" lon="16.346666657357638" id="-155">
		<tag k="fixme" v="multiple name tags, choose one and add the other to alt_name" />
		<tag k="name" v="Vestbakken;Vestbakken" />
		<tag k="ssr:date" v="2016-05-10" />
		<tag k="ssr:gruppe" v="sjøbunn" />
		<tag k="ssr:hovedgruppe" v="sjø" />
		<tag k="ssr:stedsnr" v="405536" />
		<tag k="ssr:type" v="bakkeISjø" />
	</node>
	<node lat="73.8083250016621" lon="19.014802781893778" id="-156">
		<tag k="fixme" v="multiple name tags, choose one and add the other to alt_name" />
		<tag k="name" v="Sørbakken;Sørbakken" />
		<tag k="ssr:date" v="2016-05-10" />
		<tag k="ssr:gruppe" v="sjøbunn" />
		<tag k="ssr:hovedgruppe" v="sjø" />
		<tag k="ssr:stedsnr" v="405540" />
		<tag k="ssr:type" v="bakkeISjø" />
	</node>
	<node lat="59.576830557341985" lon="2.2389916632843425" id="-162">
		<tag k="fixme" v="multiple name tags, choose one and add the other to alt_name" />
		<tag k="name" v="Heimdal;Heimdal" />
		<tag k="ssr:date" v="2016-05-11" />
		<tag k="ssr:gruppe" v="sjøbunn" />
		<tag k="ssr:hovedgruppe" v="sjø" />
		<tag k="ssr:stedsnr" v="830866" />
		<tag k="ssr:type" v="gass-OljefeltISjø" />
	</node>
	<node lat="61.35937500040903" lon="2.4654499944869124" id="-163">
		<tag k="fixme" v="multiple name tags, choose one and add the other to alt_name" />
		<tag k="name" v="Visund;Visund" />
		<tag k="ssr:date" v="2016-05-11" />
		<tag k="ssr:gruppe" v="sjøbunn" />
		<tag k="ssr:hovedgruppe" v="sjø" />
		<tag k="ssr:stedsnr" v="830875" />
		<tag k="ssr:type" v="gass-OljefeltISjø" />
	</node>
	<node lat="64.42156722525043" lon="-12.958735226550894" id="-164">
		<tag k="fixme" v="multiple name tags, choose one and add the other to alt_name" />
		<tag k="name" v="Breiddalsgrunn;Breiddalsgrunn" />
		<tag k="name:is" v="Breiddalsgrunn;Breiddalsgrunn" />
		<tag k="ssr:date" v="2016-05-10" />
		<tag k="ssr:gruppe" v="sjøbunn" />
		<tag k="ssr:hovedgruppe" v="sjø" />
		<tag k="ssr:stedsnr" v="405922" />
		<tag k="ssr:type" v="bankeISjø" />
	</node>
	<node lat="66.52501145916905" lon="-13.123108752485251" id="-165">
		<tag k="fixme" v="multiple name tags, choose one and add the other to alt_name" />
		<tag k="name" v="Bakkafloadjup;Bakkafloadjup" />
		<tag k="name:is" v="Bakkafloadjup;Bakkafloadjup" />
		<tag k="ssr:date" v="2016-05-10" />
		<tag k="ssr:gruppe" v="sjøbunn" />
		<tag k="ssr:hovedgruppe" v="sjø" />
		<tag k="ssr:stedsnr" v="405934" />
		<tag k="ssr:type" v="renneKløftISjø" />
	</node>
	<node lat="65.90463688138756" lon="-14.666609576592696" id="-166">
		<tag k="fixme" v="multiple name tags, choose one and add the other to alt_name" />
		<tag k="name" v="Strandhøfn;Strandhøfn" />
		<tag k="name:is" v="Strandhøfn;Strandhøfn" />
		<tag k="ssr:date" v="2016-05-11" />
		<tag k="ssr:gruppe" v="navigasjon" />
		<tag k="ssr:hovedgruppe" v="infrastruktur" />
		<tag k="ssr:stedsnr" v="830884" />
		<tag k="ssr:type" v="fyrstasjon" />
	</node>
	<node lat="69.31715000437744" lon="15.038916665841821" id="-168">
		<tag k="fixme" v="multiple name tags, choose one and add the other to alt_name" />
		<tag k="name" v="Langenesegga;Langenesegga" />
		<tag k="ssr:date" v="2019-09-11" />
		<tag k="ssr:gruppe" v="sjøbunn" />
		<tag k="ssr:hovedgruppe" v="sjø" />
		<tag k="ssr:stedsnr" v="298040" />
		<tag k="ssr:type" v="eggISjø" />
	</node>
	<node lat="72.4321638395864" lon="32.63136784080998" id="-170">
		<tag k="fixme" v="multiple name tags, choose one and add the other to alt_name" />
		<tag k="name" v="Nordkappstrømmen, nedre;Nordkappstrømmen, nedre" />
		<tag k="ssr:date" v="2016-05-10" />
		<tag k="ssr:gruppe" v="detaljISjø" />
		<tag k="ssr:hovedgruppe" v="sjø" />
		<tag k="ssr:stedsnr" v="299142" />
		<tag k="ssr:type" v="sjødetalj" />
	</node>
	<node lat="59.254166670467406" lon="1.5083333285122686" id="-173">
		<tag k="fixme" v="multiple name tags, choose one and add the other to alt_name" />
		<tag k="name" v="Bergen Ground;Bergen Ground" />
		<tag k="name:en" v="Bergen Ground;Bergen Ground" />
		<tag k="ssr:date" v="2016-05-10" />
		<tag k="ssr:gruppe" v="sjøbunn" />
		<tag k="ssr:hovedgruppe" v="sjø" />
		<tag k="ssr:stedsnr" v="300788" />
		<tag k="ssr:type" v="bankeISjø" />
	</node>
	<node lat="61.330555559934524" lon="3.8944444487084913" id="-174">
		<tag k="fixme" v="multiple name tags, choose one and add the other to alt_name" />
		<tag k="name" v="Gjøa A;Gjøa A" />
		<tag k="ssr:date" v="2016-05-10" />
		<tag k="ssr:gruppe" v="sjøbunn" />
		<tag k="ssr:hovedgruppe" v="sjø" />
		<tag k="ssr:stedsnr" v="422764" />
		<tag k="ssr:type" v="gass-OljefeltISjø" />
	</node>
	<node lat="59.74444444215729" lon="1.6694444381213616" id="-175">
		<tag k="fixme" v="multiple name tags, choose one and add the other to alt_name" />
		<tag k="name" v="Bruce;Bruce" />
		<tag k="ssr:date" v="2016-05-10" />
		<tag k="ssr:gruppe" v="sjøbunn" />
		<tag k="ssr:hovedgruppe" v="sjø" />
		<tag k="ssr:stedsnr" v="422784" />
		<tag k="ssr:type" v="gass-OljefeltISjø" />
	</node>
	<node lat="59.430555551904376" lon="1.6750000077390346" id="-176">
		<tag k="fixme" v="multiple name tags, choose one and add the other to alt_name" />
		<tag k="name" v="Skene;Skene" />
		<tag k="ssr:date" v="2016-05-10" />
		<tag k="ssr:gruppe" v="sjøbunn" />
		<tag k="ssr:hovedgruppe" v="sjø" />
		<tag k="ssr:stedsnr" v="422785" />
		<tag k="ssr:type" v="gass-OljefeltISjø" />
	</node>
	<node lat="70.2055556694424" lon="32.666662697351306" id="-178">
		<tag k="fixme" v="multiple name tags, choose one and add the other to alt_name" />
		<tag k="name" v="Østbanken;Østbanken" />
		<tag k="ssr:date" v="2016-05-10" />
		<tag k="ssr:gruppe" v="sjøbunn" />
		<tag k="ssr:hovedgruppe" v="sjø" />
		<tag k="ssr:stedsnr" v="359178" />
		<tag k="ssr:type" v="bankeISjø" />
	</node>
	<node lat="71.34444445659618" lon="28.449999403044405" id="-179">
		<tag k="fixme" v="multiple name tags, choose one and add the other to alt_name" />
		<tag k="name" v="Djuprenna;Djuprenna" />
		<tag k="ssr:date" v="2016-05-10" />
		<tag k="ssr:gruppe" v="sjøbunn" />
		<tag k="ssr:hovedgruppe" v="sjø" />
		<tag k="ssr:stedsnr" v="359184" />
		<tag k="ssr:type" v="havdyp" />
	</node>
	<node lat="59.45416666299399" lon="2.3833333304592133" id="-184">
		<tag k="fixme" v="multiple name tags, choose one and add the other to alt_name" />
		<tag k="name" v="Jotun A;Jotun A" />
		<tag k="ssr:date" v="2016-05-10" />
		<tag k="ssr:gruppe" v="sjøbunn" />
		<tag k="ssr:hovedgruppe" v="sjø" />
		<tag k="ssr:stedsnr" v="361051" />
		<tag k="ssr:type" v="gass-OljefeltISjø" />
	</node>
	<node lat="57.116666667209046" lon="11.550000000409229" id="-185">
		<tag k="fixme" v="multiple name tags, choose one and add the other to alt_name" />
		<tag k="name" v="Groves flak;Groves flak" />
		<tag k="name:da" v="Groves flak;Groves flak" />
		<tag k="ssr:date" v="2016-05-10" />
		<tag k="ssr:gruppe" v="sjøbunn" />
		<tag k="ssr:hovedgruppe" v="sjø" />
		<tag k="ssr:stedsnr" v="424768" />
		<tag k="ssr:type" v="bankeISjø" />
	</node>
	<node lat="57.35000000305282" lon="11.066666672666962" id="-186">
		<tag k="fixme" v="multiple name tags, choose one and add the other to alt_name" />
		<tag k="name" v="Læsø NE-flak;Læsø NE-flak" />
		<tag k="name:da" v="Læsø NE-flak;Læsø NE-flak" />
		<tag k="ssr:date" v="2016-05-10" />
		<tag k="ssr:gruppe" v="sjøbunn" />
		<tag k="ssr:hovedgruppe" v="sjø" />
		<tag k="ssr:stedsnr" v="424769" />
		<tag k="ssr:type" v="bankeISjø" />
	</node>
	<node lat="60.90694444297499" lon="1.416666663948512" id="-191">
		<tag k="fixme" v="multiple name tags, choose one and add the other to alt_name" />
		<tag k="name" v="Ninian Northern;Ninian Northern" />
		<tag k="ssr:date" v="2016-05-10" />
		<tag k="ssr:gruppe" v="sjøbunn" />
		<tag k="ssr:hovedgruppe" v="sjø" />
		<tag k="ssr:stedsnr" v="361776" />
		<tag k="ssr:type" v="gass-OljefeltISjø" />
	</node>
	<node lat="69.10833333701595" lon="14.099999993112172" id="-192">
		<tag k="fixme" v="multiple name tags, choose one and add the other to alt_name" />
		<tag k="name" v="Stabbkråa;Stabbkråa" />
		<tag k="ssr:date" v="2016-05-10" />
		<tag k="ssr:gruppe" v="sjøbunn" />
		<tag k="ssr:hovedgruppe" v="sjø" />
		<tag k="ssr:stedsnr" v="363166" />
		<tag k="ssr:type" v="bakkeISjø" />
	</node>
	<node lat="57.47500000250381" lon="9.658333326064731" id="-194">
		<tag k="fixme" v="multiple name tags, choose one and add the other to alt_name" />
		<tag k="name" v="Bakken;Bakken" />
		<tag k="name:da" v="Bakken;Bakken" />
		<tag k="ssr:date" v="2016-05-10" />
		<tag k="ssr:gruppe" v="sjøbunn" />
		<tag k="ssr:hovedgruppe" v="sjø" />
		<tag k="ssr:stedsnr" v="425785" />
		<tag k="ssr:type" v="bakkeISjø" />
	</node>
	<node lat="56.954577775709275" lon="10.425411117829293" id="-195">
		<tag k="fixme" v="multiple name tags, choose one and add the other to alt_name" />
		<tag k="name" v="Hals Barre;Hals Barre" />
		<tag k="name:da" v="Hals Barre;Hals Barre" />
		<tag k="ssr:date" v="2016-05-10" />
		<tag k="ssr:gruppe" v="navigasjon" />
		<tag k="ssr:hovedgruppe" v="infrastruktur" />
		<tag k="ssr:stedsnr" v="425853" />
		<tag k="ssr:type" v="fyrstasjon" />
	</node>
	<node lat="56.27777777841229" lon="3.391666662401609" id="-201">
		<tag k="fixme" v="multiple name tags, choose one and add the other to alt_name" />
		<tag k="name" v="Valhall;Valhall" />
		<tag k="ssr:date" v="2016-05-10" />
		<tag k="ssr:gruppe" v="sjøbunn" />
		<tag k="ssr:hovedgruppe" v="sjø" />
		<tag k="ssr:stedsnr" v="363821" />
		<tag k="ssr:type" v="gass-OljefeltISjø" />
	</node>
	<node lat="56.40277778056971" lon="4.758333328370465" id="-203">
		<tag k="fixme" v="multiple name tags, choose one and add the other to alt_name" />
		<tag k="name" v="Cecilie;Cecilie" />
		<tag k="name:da" v="Cecilie;Cecilie" />
		<tag k="ssr:date" v="2016-05-10" />
		<tag k="ssr:gruppe" v="sjøbunn" />
		<tag k="ssr:hovedgruppe" v="sjø" />
		<tag k="ssr:stedsnr" v="364884" />
		<tag k="ssr:type" v="gass-OljefeltISjø" />
	</node>
	<node lat="62.72333333022742" lon="5.016666659172107" id="-204">
		<tag k="fixme" v="multiple name tags, choose one and add the other to alt_name" />
		<tag k="name" v="Langgrunnssøyla;Langgrunnssøyla" />
		<tag k="ssr:date" v="2016-05-11" />
		<tag k="ssr:gruppe" v="sjøbunn" />
		<tag k="ssr:hovedgruppe" v="sjø" />
		<tag k="ssr:stedsnr" v="831588" />
		<tag k="ssr:type" v="renneKløftISjø" />
	</node>
	<node lat="63.17777777374287" lon="5.166666669620824" id="-206">
		<tag k="fixme" v="multiple name tags, choose one and add the other to alt_name" />
		<tag k="name" v="Remma;Remma" />
		<tag k="ssr:date" v="2016-05-11" />
		<tag k="ssr:gruppe" v="farvann" />
		<tag k="ssr:hovedgruppe" v="sjø" />
		<tag k="ssr:stedsnr" v="831606" />
		<tag k="ssr:type" v="fiskeplassISjø" />
	</node>
	<node lat="59.29999999892164" lon="3.333333336536934" id="-207">
		<tag k="fixme" v="multiple name tags, choose one and add the other to alt_name" />
		<tag k="name" v="Vestrebakken;Vestrebakken" />
		<tag k="ssr:date" v="2016-05-10" />
		<tag k="ssr:gruppe" v="sjøbunn" />
		<tag k="ssr:hovedgruppe" v="sjø" />
		<tag k="ssr:stedsnr" v="662053" />
		<tag k="ssr:type" v="bakkeISjø" />
	</node>
	<node lat="57.77499999995748" lon="11.333333331651449" id="-208">
		<tag k="fixme" v="multiple name tags, choose one and add the other to alt_name" />
		<tag k="name" v="Djupa Rännan;Djupa Rännan" />
		<tag k="name:sv" v="Djupa Rännan;Djupa Rännan" />
		<tag k="ssr:date" v="2016-05-10" />
		<tag k="ssr:gruppe" v="sjøbunn" />
		<tag k="ssr:hovedgruppe" v="sjø" />
		<tag k="ssr:stedsnr" v="667709" />
		<tag k="ssr:type" v="renneKløftISjø" />
	</node>
	<node lat="70.13783055488463" lon="17.342277785404143" id="-210">
		<tag k="fixme" v="multiple name tags, choose one and add the other to alt_name" />
		<tag k="name" v="Mulegga;Mulegga" />
		<tag k="ssr:date" v="2016-05-10" />
		<tag k="ssr:gruppe" v="sjøbunn" />
		<tag k="ssr:hovedgruppe" v="sjø" />
		<tag k="ssr:stedsnr" v="541030" />
		<tag k="ssr:type" v="eggISjø" />
	</node>
	<node lat="68.85394166463583" lon="13.219336107337922" id="-211">
		<tag k="fixme" v="multiple name tags, choose one and add the other to alt_name" />
		<tag k="name" v="Hesteskoen;Hesteskoen" />
		<tag k="ssr:date" v="2016-05-10" />
		<tag k="ssr:gruppe" v="sjøbunn" />
		<tag k="ssr:hovedgruppe" v="sjø" />
		<tag k="ssr:stedsnr" v="420024" />
		<tag k="ssr:type" v="eggISjø" />
	</node>
	<node lat="69.39723082258917" lon="33.50534620544878" id="-212">
		<tag k="fixme" v="multiple name tags, choose one and add the other to alt_name" />
		<tag k="name" v="Set Navolok;Set Navolok" />
		<tag k="name:ru" v="Set Navolok;Set Navolok" />
		<tag k="ssr:date" v="2016-05-10" />
		<tag k="ssr:gruppe" v="navigasjon" />
		<tag k="ssr:hovedgruppe" v="infrastruktur" />
		<tag k="ssr:stedsnr" v="420116" />
		<tag k="ssr:type" v="fyrlykt" />
	</node>
	<node lat="67.76701388737179" lon="11.182263891301615" id="-214">
		<tag k="fixme" v="multiple name tags, choose one and add the other to alt_name" />
		<tag k="name" v="Vesterdjupet;Vesterdjupet" />
		<tag k="ssr:date" v="2016-05-10" />
		<tag k="ssr:gruppe" v="sjøbunn" />
		<tag k="ssr:hovedgruppe" v="sjø" />
		<tag k="ssr:stedsnr" v="404605" />
		<tag k="ssr:type" v="søkkISjø" />
	</node>
	<node lat="60.78451389051399" lon="2.902372215311913" id="-215">
		<tag k="fixme" v="multiple name tags, choose one and add the other to alt_name" />
		<tag k="name" v="Veslefrikk;Veslefrikk" />
		<tag k="ssr:date" v="2016-05-10" />
		<tag k="ssr:gruppe" v="sjøbunn" />
		<tag k="ssr:hovedgruppe" v="sjø" />
		<tag k="ssr:stedsnr" v="404847" />
		<tag k="ssr:type" v="gass-OljefeltISjø" />
	</node>
	<node lat="58.84583332904472" lon="1.741666659862023" id="-218">
		<tag k="fixme" v="multiple name tags, choose one and add the other to alt_name" />
		<tag k="name" v="Gudrun;Gudrun" />
		<tag k="ssr:date" v="2016-05-10" />
		<tag k="ssr:gruppe" v="sjøbunn" />
		<tag k="ssr:hovedgruppe" v="sjø" />
		<tag k="ssr:stedsnr" v="543050" />
		<tag k="ssr:type" v="gass-OljefeltISjø" />
	</node>
	<node lat="80.15692219928611" lon="29.764933715239138" id="-224">
		<tag k="fixme" v="multiple name tags, choose one and add the other to alt_name" />
		<tag k="name" v="Kvitøyrenna;Kvitøyrenna" />
		<tag k="old_name" v="Kvitøyrennma" />
		<tag k="ssr:date" v="2016-05-10" />
		<tag k="ssr:gruppe" v="sjøbunn" />
		<tag k="ssr:hovedgruppe" v="sjø" />
		<tag k="ssr:stedsnr" v="544381" />
		<tag k="ssr:type" v="renneKløftISjø" />
	</node>
	<node lat="65.70000000049615" lon="8.716666669463557" id="-228">
		<tag k="fixme" v="multiple name tags, choose one and add the other to alt_name" />
		<tag k="name" v="Sklinnadjupet;Sklinnadjupet" />
		<tag k="ssr:date" v="2016-05-10" />
		<tag k="ssr:gruppe" v="sjøbunn" />
		<tag k="ssr:hovedgruppe" v="sjø" />
		<tag k="ssr:stedsnr" v="419897" />
		<tag k="ssr:type" v="havdyp" />
	</node>
	<node lat="57.73333333199578" lon="10.629166661031922" id="-231">
		<tag k="fixme" v="multiple name tags, choose one and add the other to alt_name" />
		<tag k="name" v="Skagen;Skagen" />
		<tag k="name:da" v="Skagen;Skagen" />
		<tag k="ssr:date" v="2016-05-10" />
		<tag k="ssr:gruppe" v="navigasjon" />
		<tag k="ssr:hovedgruppe" v="infrastruktur" />
		<tag k="ssr:stedsnr" v="545743" />
		<tag k="ssr:type" v="fyrstasjon" />
	</node>
	<node lat="58.51666666499761" lon="11.66666667355881" id="-233">
		<tag k="fixme" v="multiple name tags, choose one and add the other to alt_name" />
		<tag k="name" v="Sverige;Sverige" />
		<tag k="name:sv" v="Sverige;Sverige" />
		<tag k="ssr:date" v="2016-05-10" />
		<tag k="ssr:gruppe" v="administrativeIndelinger" />
		<tag k="ssr:hovedgruppe" v="offentligAdministrasjon" />
		<tag k="ssr:stedsnr" v="545759" />
		<tag k="ssr:type" v="nasjon" />
	</node>
	<node lat="57.95555555758383" lon="1.8444444374976432" id="-235">
		<tag k="fixme" v="multiple name tags, choose one and add the other to alt_name" />
		<tag k="name" v="Armada;Armada" />
		<tag k="name:en" v="Armada;Armada" />
		<tag k="ssr:date" v="2016-05-10" />
		<tag k="ssr:gruppe" v="sjøbunn" />
		<tag k="ssr:hovedgruppe" v="sjø" />
		<tag k="ssr:stedsnr" v="545792" />
		<tag k="ssr:type" v="gass-OljefeltISjø" />
	</node>
	<node lat="57.863888891056206" lon="11.458333327493168" id="-246">
		<tag k="fixme" v="multiple name tags, choose one and add the other to alt_name" />
		<tag k="name" v="Hätteberget;Hätteberget" />
		<tag k="name:sv" v="Hätteberget;Hätteberget" />
		<tag k="ssr:date" v="2016-05-10" />
		<tag k="ssr:gruppe" v="navigasjon" />
		<tag k="ssr:hovedgruppe" v="infrastruktur" />
		<tag k="ssr:stedsnr" v="485707" />
		<tag k="ssr:type" v="fyrstasjon" />
	</node>
	<node lat="56.937499995859845" lon="10.70833333604893" id="-249">
		<tag k="fixme" v="multiple name tags, choose one and add the other to alt_name" />
		<tag k="name" v="Vestlige knold;Vestlige knold" />
		<tag k="name:da" v="Vestlige knold;Vestlige knold" />
		<tag k="ssr:date" v="2016-05-10" />
		<tag k="ssr:gruppe" v="sjøbunn" />
		<tag k="ssr:hovedgruppe" v="sjø" />
		<tag k="ssr:stedsnr" v="485819" />
		<tag k="ssr:type" v="bankeISjø" />
	</node>
	<node lat="71.46674444832968" lon="26.09011920927467" id="-253">
		<tag k="fixme" v="multiple name tags, choose one and add the other to alt_name" />
		<tag k="name" v="Nysleppen;Nysleppen" />
		<tag k="ssr:date" v="2021-06-08" />
		<tag k="ssr:gruppe" v="sjøbunn" />
		<tag k="ssr:hovedgruppe" v="sjø" />
		<tag k="ssr:stedsnr" v="570840" />
		<tag k="ssr:type" v="bankeISjø" />
	</node>
	<node lat="65.99999999847397" lon="6.4500000003236435" id="-264">
		<tag k="fixme" v="multiple name tags, choose one and add the other to alt_name" />
		<tag k="name" v="Skjoldsryggen;Skjoldsryggen" />
		<tag k="ssr:date" v="2016-05-11" />
		<tag k="ssr:gruppe" v="sjøbunn" />
		<tag k="ssr:hovedgruppe" v="sjø" />
		<tag k="ssr:stedsnr" v="845017" />
		<tag k="ssr:type" v="ryggISjø" />
	</node>
	<node lat="61.386322265954" lon="-6.696032826936412" id="-265">
		<tag k="fixme" v="multiple name tags, choose one and add the other to alt_name" />
		<tag k="name" v="Akraberg;Akraberg" />
		<tag k="ssr:date" v="2016-05-10" />
		<tag k="ssr:gruppe" v="navigasjon" />
		<tag k="ssr:hovedgruppe" v="infrastruktur" />
		<tag k="ssr:stedsnr" v="647166" />
		<tag k="ssr:type" v="fyrstasjon" />
	</node>
	<node lat="67.14999999850946" lon="9.500000001128429" id="-273">
		<tag k="fixme" v="multiple name tags, choose one and add the other to alt_name" />
		<tag k="name" v="Trænadjupet;Trænadjupet" />
		<tag k="ssr:date" v="2016-05-10" />
		<tag k="ssr:gruppe" v="sjøbunn" />
		<tag k="ssr:hovedgruppe" v="sjø" />
		<tag k="ssr:stedsnr" v="647593" />
		<tag k="ssr:type" v="havdyp" />
	</node>
	<node lat="61.43333333078886" lon="1.250000005051855" id="-278">
		<tag k="fixme" v="multiple name tags, choose one and add the other to alt_name" />
		<tag k="name" v="Tampen;Tampen" />
		<tag k="ssr:date" v="2016-05-10" />
		<tag k="ssr:gruppe" v="sjøbunn" />
		<tag k="ssr:hovedgruppe" v="sjø" />
		<tag k="ssr:stedsnr" v="647683" />
		<tag k="ssr:type" v="bankeISjø" />
	</node>
	<node lat="61.257905559761774" lon="1.1446944506570076" id="-289">
		<tag k="fixme" v="multiple name tags, choose one and add the other to alt_name" />
		<tag k="name" v="North Cormorant;North Cormorant" />
		<tag k="name:en" v="North Cormorant;North Cormorant" />
		<tag k="ssr:date" v="2016-05-10" />
		<tag k="ssr:gruppe" v="sjøbunn" />
		<tag k="ssr:hovedgruppe" v="sjø" />
		<tag k="ssr:stedsnr" v="647880" />
		<tag k="ssr:type" v="gass-OljefeltISjø" />
	</node>
	<node lat="66.7008650272085" lon="-16.35462628876149" id="-290">
		<tag k="fixme" v="multiple name tags, choose one and add the other to alt_name" />
		<tag k="name" v="Slettugrunn;Slettugrunn" />
		<tag k="name:is" v="Slettugrunn;Slettugrunn" />
		<tag k="ssr:date" v="2016-05-10" />
		<tag k="ssr:gruppe" v="sjøbunn" />
		<tag k="ssr:hovedgruppe" v="sjø" />
		<tag k="ssr:stedsnr" v="647928" />
		<tag k="ssr:type" v="bankeISjø" />
	</node>
	<node lat="70.80000008071907" lon="33.699995411936" id="-291">
		<tag k="fixme" v="multiple name tags, choose one and add the other to alt_name" />
		<tag k="name" v="Skolpenbanken;Skolpenbanken" />
		<tag k="ssr:date" v="2016-05-10" />
		<tag k="ssr:gruppe" v="sjøbunn" />
		<tag k="ssr:hovedgruppe" v="sjø" />
		<tag k="ssr:stedsnr" v="647979" />
		<tag k="ssr:type" v="bankeISjø" />
	</node>
	<node lat="64.26111111516384" lon="7.733333324921117" id="-292">
		<tag k="fixme" v="multiple name tags, choose one and add the other to alt_name" />
		<tag k="name" v="Rogn South;Rogn South" />
		<tag k="ssr:date" v="2016-05-10" />
		<tag k="ssr:gruppe" v="sjøbunn" />
		<tag k="ssr:hovedgruppe" v="sjø" />
		<tag k="ssr:stedsnr" v="603206" />
		<tag k="ssr:type" v="gass-OljefeltISjø" />
	</node>
	<node lat="61.45000000038465" lon="2.1333333412607334" id="-293">
		<tag k="fixme" v="multiple name tags, choose one and add the other to alt_name" />
		<tag k="name" v="Snorre A;Snorre A" />
		<tag k="ssr:date" v="2016-05-10" />
		<tag k="ssr:gruppe" v="sjøbunn" />
		<tag k="ssr:hovedgruppe" v="sjø" />
		<tag k="ssr:stedsnr" v="604358" />
		<tag k="ssr:type" v="gass-OljefeltISjø" />
	</node>
	<node lat="68.81666666594052" lon="13.166666661921184" id="-294">
		<tag k="fixme" v="multiple name tags, choose one and add the other to alt_name" />
		<tag k="name" v="Bratten;Bratten" />
		<tag k="ssr:date" v="2016-05-10" />
		<tag k="ssr:gruppe" v="sjøbunn" />
		<tag k="ssr:hovedgruppe" v="sjø" />
		<tag k="ssr:stedsnr" v="605208" />
		<tag k="ssr:type" v="bakkeISjø" />
	</node>
	<node lat="58.87499999990004" lon="1.5250000031932616" id="-295">
		<tag k="fixme" v="multiple name tags, choose one and add the other to alt_name" />
		<tag k="name" v="Brae;Brae" />
		<tag k="name:en" v="Brae;Brae" />
		<tag k="ssr:date" v="2016-05-11" />
		<tag k="ssr:gruppe" v="sjøbunn" />
		<tag k="ssr:hovedgruppe" v="sjø" />
		<tag k="ssr:stedsnr" v="847063" />
		<tag k="ssr:type" v="gass-OljefeltISjø" />
	</node>
	<node lat="59.54444444762886" lon="1.5333333424454916" id="-300">
		<tag k="fixme" v="multiple name tags, choose one and add the other to alt_name" />
		<tag k="name" v="Ness;Ness" />
		<tag k="ssr:date" v="2016-05-11" />
		<tag k="ssr:gruppe" v="sjøbunn" />
		<tag k="ssr:hovedgruppe" v="sjø" />
		<tag k="ssr:stedsnr" v="848494" />
		<tag k="ssr:type" v="gass-OljefeltISjø" />
	</node>
	<node lat="57.749999999518764" lon="10.591666669872932" id="-304">
		<tag k="fixme" v="multiple name tags, choose one and add the other to alt_name" />
		<tag k="name" v="Skagen W;Skagen W" />
		<tag k="name:da" v="Skagen W;Skagen W" />
		<tag k="ssr:date" v="2016-05-11" />
		<tag k="ssr:gruppe" v="navigasjon" />
		<tag k="ssr:hovedgruppe" v="infrastruktur" />
		<tag k="ssr:stedsnr" v="849803" />
		<tag k="ssr:type" v="fyrstasjon" />
	</node>
	<node lat="57.63055555819992" lon="11.603333341382879" id="-307">
		<tag k="fixme" v="multiple name tags, choose one and add the other to alt_name" />
		<tag k="name" v="Vinga;Vinga" />
		<tag k="name:sv" v="Vinga;Vinga" />
		<tag k="ssr:date" v="2016-05-11" />
		<tag k="ssr:gruppe" v="navigasjon" />
		<tag k="ssr:hovedgruppe" v="infrastruktur" />
		<tag k="ssr:stedsnr" v="849787" />
		<tag k="ssr:type" v="fyrstasjon" />
	</node>
	<node lat="58.91666666511813" lon="10.816666673838853" id="-312">
		<tag k="fixme" v="multiple name tags, choose one and add the other to alt_name" />
		<tag k="name" v="Grisbådarna;Grisbådarna" />
		<tag k="name:sv" v="Grisbådarna;Grisbådarna" />
		<tag k="ssr:date" v="2016-05-11" />
		<tag k="ssr:gruppe" v="navigasjon" />
		<tag k="ssr:hovedgruppe" v="infrastruktur" />
		<tag k="ssr:stedsnr" v="849830" />
		<tag k="ssr:type" v="lysbøye" />
	</node>
	<node lat="60.119658331772435" lon="-1.126216658315981" id="-318">
		<tag k="fixme" v="multiple name tags, choose one and add the other to alt_name" />
		<tag k="name" v="Bressay;Bressay" />
		<tag k="name:en" v="Bressay;Bressay" />
		<tag k="ssr:date" v="2016-05-11" />
		<tag k="ssr:gruppe" v="navigasjon" />
		<tag k="ssr:hovedgruppe" v="infrastruktur" />
		<tag k="ssr:stedsnr" v="708248" />
		<tag k="ssr:type" v="fyrstasjon" />
	</node>
	<node lat="67.4736777750957" lon="4.099719447547452" id="-331">
		<tag k="fixme" v="multiple name tags, choose one and add the other to alt_name" />
		<tag k="name" v="Vøringplatået;Vøringplatået" />
		<tag k="ssr:date" v="2016-05-11" />
		<tag k="ssr:gruppe" v="sjøbunn" />
		<tag k="ssr:hovedgruppe" v="sjø" />
		<tag k="ssr:stedsnr" v="708586" />
		<tag k="ssr:type" v="platåISjø" />
	</node>
	<node lat="65.37522814096279" lon="-12.432300890368339" id="-337">
		<tag k="fixme" v="multiple name tags, choose one and add the other to alt_name" />
		<tag k="name" v="Seydisfjardardjup;Seydisfjardardjup" />
		<tag k="name:is" v="Seydisfjardardjup;Seydisfjardardjup" />
		<tag k="ssr:date" v="2016-05-11" />
		<tag k="ssr:gruppe" v="sjøbunn" />
		<tag k="ssr:hovedgruppe" v="sjø" />
		<tag k="ssr:stedsnr" v="708905" />
		<tag k="ssr:type" v="renneKløftISjø" />
	</node>
	<node lat="61.62645277425079" lon="1.2928944439674181" id="-338">
		<tag k="fixme" v="multiple name tags, choose one and add the other to alt_name" />
		<tag k="name" v="Magnus;Magnus" />
		<tag k="name:en" v="Magnus;Magnus" />
		<tag k="ssr:date" v="2016-05-11" />
		<tag k="ssr:gruppe" v="sjøbunn" />
		<tag k="ssr:hovedgruppe" v="sjø" />
		<tag k="ssr:stedsnr" v="708851" />
		<tag k="ssr:type" v="gass-OljefeltISjø" />
	</node>
	<node lat="65.5222144520276" lon="-13.619870615301005" id="-339">
		<tag k="fixme" v="multiple name tags, choose one and add the other to alt_name" />
		<tag k="name" v="Glettinganes;Glettinganes" />
		<tag k="name:is" v="Glettinganes;Glettinganes" />
		<tag k="ssr:date" v="2016-05-11" />
		<tag k="ssr:gruppe" v="navigasjon" />
		<tag k="ssr:hovedgruppe" v="infrastruktur" />
		<tag k="ssr:stedsnr" v="708866" />
		<tag k="ssr:type" v="fyrstasjon" />
	</node>
	<node lat="64.24454576192154" lon="-14.99921399979342" id="-340">
		<tag k="fixme" v="multiple name tags, choose one and add the other to alt_name" />
		<tag k="name" v="Stokksnes;Stokksnes" />
		<tag k="name:is" v="Stokksnes;Stokksnes" />
		<tag k="ssr:date" v="2016-05-11" />
		<tag k="ssr:gruppe" v="navigasjon" />
		<tag k="ssr:hovedgruppe" v="infrastruktur" />
		<tag k="ssr:stedsnr" v="708893" />
		<tag k="ssr:type" v="fyrstasjon" />
	</node>
	<node lat="63.076666662730176" lon="5.303333335241715" id="-343">
		<tag k="fixme" v="multiple name tags, choose one and add the other to alt_name" />
		<tag k="name" v="Brattegga;Brattegga" />
		<tag k="ssr:date" v="2016-05-11" />
		<tag k="ssr:gruppe" v="farvann" />
		<tag k="ssr:hovedgruppe" v="sjø" />
		<tag k="ssr:stedsnr" v="709648" />
		<tag k="ssr:type" v="fiskeplassISjø" />
	</node>
	<node lat="78.26293882456092" lon="-13.43126185478539" id="-347">
		<tag k="fixme" v="multiple name tags, choose one and add the other to alt_name" />
		<tag k="name" v="Belgicabanken;Belgicabanken" />
		<tag k="ssr:date" v="2016-05-10" />
		<tag k="ssr:gruppe" v="sjøbunn" />
		<tag k="ssr:hovedgruppe" v="sjø" />
		<tag k="ssr:stedsnr" v="647894" />
		<tag k="ssr:type" v="bankeISjø" />
	</node>
	<node lat="58.611974997639905" lon="0.45504444522371573" id="-349">
		<tag k="fixme" v="multiple name tags, choose one and add the other to alt_name" />
		<tag k="name" v="Fladen grunn;Fladen grunn" />
		<tag k="ssr:date" v="2016-05-11" />
		<tag k="ssr:gruppe" v="sjøbunn" />
		<tag k="ssr:hovedgruppe" v="sjø" />
		<tag k="ssr:stedsnr" v="716421" />
		<tag k="ssr:type" v="bankeISjø" />
	</node>
	<node lat="57.1124999978786" lon="6.391666672730918" id="-352">
		<tag k="fixme" v="multiple name tags, choose one and add the other to alt_name" />
		<tag k="name" v="Midtbanken;Midtbanken" />
		<tag k="ssr:date" v="2016-05-10" />
		<tag k="ssr:gruppe" v="sjøbunn" />
		<tag k="ssr:hovedgruppe" v="sjø" />
		<tag k="ssr:stedsnr" v="662105" />
		<tag k="ssr:type" v="bankeISjø" />
	</node>
	<node lat="62.089894521732774" lon="-7.689290844040811" id="-365">
		<tag k="fixme" v="multiple name tags, choose one and add the other to alt_name" />
		<tag k="name" v="Myggenes;Myggenes" />
		<tag k="ssr:date" v="2016-05-11" />
		<tag k="ssr:gruppe" v="navigasjon" />
		<tag k="ssr:hovedgruppe" v="infrastruktur" />
		<tag k="ssr:stedsnr" v="890140" />
		<tag k="ssr:type" v="fyrstasjon" />
	</node>
	<node lat="57.878646481536684" lon="-13.582165787661559" id="-375">
		<tag k="fixme" v="multiple name tags, choose one and add the other to alt_name" />
		<tag k="name" v="Rockall Bank;Rockall Bank" />
		<tag k="name:en" v="Rockall Bank;Rockall Bank" />
		<tag k="ssr:date" v="2016-05-11" />
		<tag k="ssr:gruppe" v="sjøbunn" />
		<tag k="ssr:hovedgruppe" v="sjø" />
		<tag k="ssr:stedsnr" v="890987" />
		<tag k="ssr:type" v="bankeISjø" />
	</node>
	<node lat="59.31666793591563" lon="4.4449688328486285" id="-377">
		<tag k="fixme" v="multiple name tags, choose one and add the other to alt_name" />
		<tag k="name" v="Indrebakken;Indrebakken" />
		<tag k="ssr:date" v="2019-09-12" />
		<tag k="ssr:gruppe" v="sjøbunn" />
		<tag k="ssr:hovedgruppe" v="sjø" />
		<tag k="ssr:stedsnr" v="891122" />
		<tag k="ssr:type" v="bankeISjø" />
	</node>
	<node lat="59.11666666933637" lon="1.7166666606676924" id="-378">
		<tag k="fixme" v="multiple name tags, choose one and add the other to alt_name" />
		<tag k="name" v="Holene;Holene" />
		<tag k="ssr:date" v="2016-05-11" />
		<tag k="ssr:gruppe" v="sjøbunn" />
		<tag k="ssr:hovedgruppe" v="sjø" />
		<tag k="ssr:stedsnr" v="891803" />
		<tag k="ssr:type" v="søkkISjø" />
	</node>
	<node lat="61.950636156485004" lon="-6.638468962600875" id="-379">
		<tag k="fixme" v="multiple name tags, choose one and add the other to alt_name" />
		<tag k="name" v="Nolsøy;Nolsøy" />
		<tag k="ssr:date" v="2016-05-11" />
		<tag k="ssr:gruppe" v="navigasjon" />
		<tag k="ssr:hovedgruppe" v="infrastruktur" />
		<tag k="ssr:stedsnr" v="891151" />
		<tag k="ssr:type" v="fyrstasjon" />
	</node>
	<node lat="60.60991423457752" lon="-10.341838664479008" id="-383">
		<tag k="alt_name:en" v="Bill Bailey's Bank" />
		<tag k="fixme" v="multiple name tags, choose one and add the other to alt_name" />
		<tag k="name" v="Bill Baileys Bank;Bill Baileys Bank" />
		<tag k="name:en" v="Bill Baileys Bank;Bill Baileys Bank" />
		<tag k="ssr:date" v="2016-05-11" />
		<tag k="ssr:gruppe" v="sjøbunn" />
		<tag k="ssr:hovedgruppe" v="sjø" />
		<tag k="ssr:stedsnr" v="891271" />
		<tag k="ssr:type" v="bankeISjø" />
	</node>
	<node lat="65.85651432077782" lon="-13.156760918671939" id="-385">
		<tag k="fixme" v="multiple name tags, choose one and add the other to alt_name" />
		<tag k="name" v="Héradsdjup;Héradsdjup" />
		<tag k="name:is" v="Héradsdjup;Héradsdjup" />
		<tag k="ssr:date" v="2016-05-11" />
		<tag k="ssr:gruppe" v="sjøbunn" />
		<tag k="ssr:hovedgruppe" v="sjø" />
		<tag k="ssr:stedsnr" v="891915" />
		<tag k="ssr:type" v="renneKløftISjø" />
	</node>
	<node lat="56.94999999876589" lon="10.916666665971965" id="-395">
		<tag k="fixme" v="multiple name tags, choose one and add the other to alt_name" />
		<tag k="name" v="Øster flak;Øster flak" />
		<tag k="name:da" v="Øster flak;Øster flak" />
		<tag k="ssr:date" v="2016-05-11" />
		<tag k="ssr:gruppe" v="sjøbunn" />
		<tag k="ssr:hovedgruppe" v="sjø" />
		<tag k="ssr:stedsnr" v="910810" />
		<tag k="ssr:type" v="bankeISjø" />
	</node>
	<node lat="76.21004444222739" lon="18.917958336534674" id="-397">
		<tag k="fixme" v="multiple name tags, choose one and add the other to alt_name" />
		<tag k="name" v="Storfjordrenna;Storfjordrenna" />
		<tag k="ssr:date" v="2016-05-11" />
		<tag k="ssr:gruppe" v="sjøbunn" />
		<tag k="ssr:hovedgruppe" v="sjø" />
		<tag k="ssr:stedsnr" v="951992" />
		<tag k="ssr:type" v="renneKløftISjø" />
	</node>
	<node lat="68.09166666779208" lon="12.300000000127294" id="-398">
		<tag k="fixme" v="multiple name tags, choose one and add the other to alt_name" />
		<tag k="name" v="Kvalnesdjupet;Kvalnesdjupet" />
		<tag k="ssr:date" v="2016-05-11" />
		<tag k="ssr:gruppe" v="sjøbunn" />
		<tag k="ssr:hovedgruppe" v="sjø" />
		<tag k="ssr:stedsnr" v="951996" />
		<tag k="ssr:type" v="renneKløftISjø" />
	</node>
	<node lat="70.66666666448681" lon="18.575000002176452" id="-399">
		<tag k="fixme" v="multiple name tags, choose one and add the other to alt_name" />
		<tag k="name" v="Vesthola;Vesthola" />
		<tag k="ssr:date" v="2016-05-10" />
		<tag k="ssr:gruppe" v="sjøbunn" />
		<tag k="ssr:hovedgruppe" v="sjø" />
		<tag k="ssr:stedsnr" v="56678" />
		<tag k="ssr:type" v="søkkISjø" />
	</node>
	<node lat="60.60000000213076" lon="1.7166666665228343" id="-400">
		<tag k="fixme" v="multiple name tags, choose one and add the other to alt_name" />
		<tag k="name" v="Alwyn;Alwyn" />
		<tag k="ssr:date" v="2016-05-10" />
		<tag k="ssr:gruppe" v="sjøbunn" />
		<tag k="ssr:hovedgruppe" v="sjø" />
		<tag k="ssr:stedsnr" v="58791" />
		<tag k="ssr:type" v="gass-OljefeltISjø" />
	</node>
	<node lat="65.30781426332078" lon="6.639694248915805" id="-401">
		<tag k="fixme" v="multiple name tags, choose one and add the other to alt_name" />
		<tag k="name" v="Garsholbanken;Garsholbanken" />
		<tag k="ssr:date" v="2021-10-21" />
		<tag k="ssr:gruppe" v="sjøbunn" />
		<tag k="ssr:hovedgruppe" v="sjø" />
		<tag k="ssr:stedsnr" v="965905" />
		<tag k="ssr:type" v="bankeISjø" />
	</node>
	<node lat="57.594444448303136" lon="11.633333326348378" id="-404">
		<tag k="fixme" v="multiple name tags, choose one and add the other to alt_name" />
		<tag k="name" v="Trubaduren;Trubaduren" />
		<tag k="name:sv" v="Trubaduren;Trubaduren" />
		<tag k="ssr:date" v="2016-05-11" />
		<tag k="ssr:gruppe" v="navigasjon" />
		<tag k="ssr:hovedgruppe" v="infrastruktur" />
		<tag k="ssr:stedsnr" v="970393" />
		<tag k="ssr:type" v="fyrstasjon" />
	</node>
	<node lat="69.88333355141758" lon="33.916660087882974" id="-405">
		<tag k="fixme" v="multiple name tags, choose one and add the other to alt_name" />
		<tag k="name" v="Kildinbanken;Kildinbanken" />
		<tag k="ssr:date" v="2016-05-10" />
		<tag k="ssr:gruppe" v="sjøbunn" />
		<tag k="ssr:hovedgruppe" v="sjø" />
		<tag k="ssr:stedsnr" v="40145" />
		<tag k="ssr:type" v="bankeISjø" />
	</node>
	<node lat="60.856944448380396" lon="1.466666667647618" id="-415">
		<tag k="fixme" v="multiple name tags, choose one and add the other to alt_name" />
		<tag k="name" v="Ninian Central;Ninian Central" />
		<tag k="ssr:date" v="2016-05-10" />
		<tag k="ssr:gruppe" v="sjøbunn" />
		<tag k="ssr:hovedgruppe" v="sjø" />
		<tag k="ssr:stedsnr" v="58766" />
		<tag k="ssr:type" v="gass-OljefeltISjø" />
	</node>
	<node lat="68.86666666748128" lon="13.333333335322155" id="-417">
		<tag k="fixme" v="multiple name tags, choose one and add the other to alt_name" />
		<tag k="name" v="Bukta;Bukta" />
		<tag k="ssr:date" v="2016-05-10" />
		<tag k="ssr:gruppe" v="sjøbunn" />
		<tag k="ssr:hovedgruppe" v="sjø" />
		<tag k="ssr:stedsnr" v="60185" />
		<tag k="ssr:type" v="søkkISjø" />
	</node>
	<node lat="57.31666666538744" lon="11.200000002356386" id="-420">
		<tag k="fixme" v="multiple name tags, choose one and add the other to alt_name" />
		<tag k="name" v="Syrodde;Syrodde" />
		<tag k="name:da" v="Syrodde;Syrodde" />
		<tag k="ssr:date" v="2016-05-10" />
		<tag k="ssr:gruppe" v="navigasjon" />
		<tag k="ssr:hovedgruppe" v="infrastruktur" />
		<tag k="ssr:stedsnr" v="60774" />
		<tag k="ssr:type" v="fyrstasjon" />
	</node>
	<node lat="57.475000003483636" lon="11.233333334414151" id="-424">
		<tag k="fixme" v="multiple name tags, choose one and add the other to alt_name" />
		<tag k="name" v="Tønneberg banke;Tønneberg banke" />
		<tag k="name:da" v="Tønneberg banke;Tønneberg banke" />
		<tag k="ssr:date" v="2016-05-10" />
		<tag k="ssr:gruppe" v="sjøbunn" />
		<tag k="ssr:hovedgruppe" v="sjø" />
		<tag k="ssr:stedsnr" v="60795" />
		<tag k="ssr:type" v="bankeISjø" />
	</node>
	<node lat="56.8503111067202" lon="10.605100006063829" id="-429">
		<tag k="fixme" v="multiple name tags, choose one and add the other to alt_name" />
		<tag k="name" v="Svitringen Rende S;Svitringen Rende S" />
		<tag k="name:da" v="Svitringen Rende S;Svitringen Rende S" />
		<tag k="ssr:date" v="2016-05-10" />
		<tag k="ssr:gruppe" v="navigasjon" />
		<tag k="ssr:hovedgruppe" v="infrastruktur" />
		<tag k="ssr:stedsnr" v="60850" />
		<tag k="ssr:type" v="fyrstasjon" />
	</node>
	<node lat="56.641666666424314" lon="3.3249999993454873" id="-430">
		<tag k="fixme" v="multiple name tags, choose one and add the other to alt_name" />
		<tag k="name" v="Tor;Tor" />
		<tag k="ssr:date" v="2016-05-10" />
		<tag k="ssr:gruppe" v="sjøbunn" />
		<tag k="ssr:hovedgruppe" v="sjø" />
		<tag k="ssr:stedsnr" v="60858" />
		<tag k="ssr:type" v="gass-OljefeltISjø" />
	</node>
	<node lat="58.45972221951706" lon="1.9055555649879012" id="-431">
		<tag k="fixme" v="multiple name tags, choose one and add the other to alt_name" />
		<tag k="name" v="Volve;Volve" />
		<tag k="ssr:date" v="2016-05-10" />
		<tag k="ssr:gruppe" v="sjøbunn" />
		<tag k="ssr:hovedgruppe" v="sjø" />
		<tag k="ssr:stedsnr" v="60880" />
		<tag k="ssr:type" v="gass-OljefeltISjø" />
	</node>
	<node lat="74.31318611089725" lon="21.765172210434013" id="-432">
		<tag k="fixme" v="multiple name tags, choose one and add the other to alt_name" />
		<tag k="name" v="Fingerdjupet;Fingerdjupet" />
		<tag k="ssr:date" v="2016-05-10" />
		<tag k="ssr:gruppe" v="sjøbunn" />
		<tag k="ssr:hovedgruppe" v="sjø" />
		<tag k="ssr:stedsnr" v="41526" />
		<tag k="ssr:type" v="søkkISjø" />
	</node>
	<node lat="57.11388888619438" lon="8.599999997306895" id="-433">
		<tag k="fixme" v="multiple name tags, choose one and add the other to alt_name" />
		<tag k="name" v="Hanstholm;Hanstholm" />
		<tag k="name:da" v="Hanstholm;Hanstholm" />
		<tag k="ssr:date" v="2016-05-10" />
		<tag k="ssr:gruppe" v="navigasjon" />
		<tag k="ssr:hovedgruppe" v="infrastruktur" />
		<tag k="ssr:stedsnr" v="181769" />
		<tag k="ssr:type" v="fyrstasjon" />
	</node>
	<node lat="69.61666677165812" lon="31.133330598240125" id="-436">
		<tag k="fixme" v="multiple name tags, choose one and add the other to alt_name" />
		<tag k="name" v="Russia;Russia" />
		<tag k="name:en" v="Russia;Russia" />
		<tag k="ssr:date" v="2016-05-10" />
		<tag k="ssr:gruppe" v="administrativeIndelinger" />
		<tag k="ssr:hovedgruppe" v="offentligAdministrasjon" />
		<tag k="ssr:stedsnr" v="182579" />
		<tag k="ssr:type" v="nasjon" />
	</node>
	<node lat="68.3832003711239" lon="32.97996242882567" id="-438">
		<tag k="fixme" v="multiple name tags, choose one and add the other to alt_name" />
		<tag k="name" v="Russland;Russland" />
		<tag k="ssr:date" v="2016-05-10" />
		<tag k="ssr:gruppe" v="administrativeIndelinger" />
		<tag k="ssr:hovedgruppe" v="offentligAdministrasjon" />
		<tag k="ssr:stedsnr" v="101125" />
		<tag k="ssr:type" v="nasjon" />
	</node>
	<node lat="71.40000000779337" lon="24.716666537664906" id="-446">
		<tag k="fixme" v="multiple name tags, choose one and add the other to alt_name" />
		<tag k="name" v="Hjelmsøybanken;Hjelmsøybanken" />
		<tag k="ssr:date" v="2016-05-10" />
		<tag k="ssr:gruppe" v="sjøbunn" />
		<tag k="ssr:hovedgruppe" v="sjø" />
		<tag k="ssr:stedsnr" v="101856" />
		<tag k="ssr:type" v="bankeISjø" />
	</node>
	<node lat="59.885641669013324" lon="2.0521694375727897" id="-447">
		<tag k="fixme" v="multiple name tags, choose one and add the other to alt_name" />
		<tag k="name" v="Frigg;Frigg" />
		<tag k="ssr:date" v="2016-05-10" />
		<tag k="ssr:gruppe" v="sjøbunn" />
		<tag k="ssr:hovedgruppe" v="sjø" />
		<tag k="ssr:stedsnr" v="101883" />
		<tag k="ssr:type" v="gass-OljefeltISjø" />
	</node>
	<node lat="64.98049784708866" lon="-13.524639794084335" id="-459">
		<tag k="fixme" v="multiple name tags, choose one and add the other to alt_name" />
		<tag k="name" v="Seley;Seley" />
		<tag k="name:is" v="Seley;Seley" />
		<tag k="ssr:date" v="2016-05-10" />
		<tag k="ssr:gruppe" v="navigasjon" />
		<tag k="ssr:hovedgruppe" v="infrastruktur" />
		<tag k="ssr:stedsnr" v="102897" />
		<tag k="ssr:type" v="fyrstasjon" />
	</node>
	<node lat="66.86593677938498" lon="-15.041845921019798" id="-460">
		<tag k="fixme" v="multiple name tags, choose one and add the other to alt_name" />
		<tag k="name" v="Thistilfjardargrunn;Thistilfjardargrunn" />
		<tag k="name:is" v="Thistilfjardargrunn;Thistilfjardargrunn" />
		<tag k="ssr:date" v="2016-05-10" />
		<tag k="ssr:gruppe" v="sjøbunn" />
		<tag k="ssr:hovedgruppe" v="sjø" />
		<tag k="ssr:stedsnr" v="102927" />
		<tag k="ssr:type" v="bankeISjø" />
	</node>
	<node lat="71.55626944443513" lon="17.98066112327318" id="-462">
		<tag k="fixme" v="multiple name tags, choose one and add the other to alt_name" />
		<tag k="name" v="Tungene;Tungene" />
		<tag k="ssr:date" v="2016-05-10" />
		<tag k="ssr:gruppe" v="sjøbunn" />
		<tag k="ssr:hovedgruppe" v="sjø" />
		<tag k="ssr:stedsnr" v="116039" />
		<tag k="ssr:type" v="ryggISjø" />
	</node>
	<node lat="65.24999999575775" lon="8.266666669986503" id="-463">
		<tag k="fixme" v="multiple name tags, choose one and add the other to alt_name" />
		<tag k="name" v="Sklinnabakken;Sklinnabakken" />
		<tag k="ssr:date" v="2016-05-10" />
		<tag k="ssr:gruppe" v="sjøbunn" />
		<tag k="ssr:hovedgruppe" v="sjø" />
		<tag k="ssr:stedsnr" v="116891" />
		<tag k="ssr:type" v="bakkeISjø" />
	</node>
	<node lat="64.35432222390683" lon="7.780008340835028" id="-465">
		<tag k="fixme" v="multiple name tags, choose one and add the other to alt_name" />
		<tag k="name" v="Draugen;Draugen" />
		<tag k="ssr:date" v="2016-05-10" />
		<tag k="ssr:gruppe" v="sjøbunn" />
		<tag k="ssr:hovedgruppe" v="sjø" />
		<tag k="ssr:stedsnr" v="117678" />
		<tag k="ssr:type" v="gass-OljefeltISjø" />
	</node>
	<node lat="57.37500000206145" lon="9.699999996598942" id="-469">
		<tag k="fixme" v="multiple name tags, choose one and add the other to alt_name" />
		<tag k="name" v="Læmole;Læmole" />
		<tag k="name:da" v="Læmole;Læmole" />
		<tag k="ssr:date" v="2016-05-10" />
		<tag k="ssr:gruppe" v="navigasjon" />
		<tag k="ssr:hovedgruppe" v="infrastruktur" />
		<tag k="ssr:stedsnr" v="121770" />
		<tag k="ssr:type" v="fyrlykt" />
	</node>
	<node lat="57.454166669761214" lon="11.329166659788216" id="-470">
		<tag k="fixme" v="multiple name tags, choose one and add the other to alt_name" />
		<tag k="name" v="Kummelbanke;Kummelbanke" />
		<tag k="name:da" v="Kummelbanke;Kummelbanke" />
		<tag k="ssr:date" v="2016-05-10" />
		<tag k="ssr:gruppe" v="sjøbunn" />
		<tag k="ssr:hovedgruppe" v="sjø" />
		<tag k="ssr:stedsnr" v="121777" />
		<tag k="ssr:type" v="bankeISjø" />
	</node>
	<node lat="56.958333329446766" lon="10.774999997564915" id="-478">
		<tag k="fixme" v="multiple name tags, choose one and add the other to alt_name" />
		<tag k="name" v="Østlige knold;Østlige knold" />
		<tag k="name:da" v="Østlige knold;Østlige knold" />
		<tag k="ssr:date" v="2016-05-10" />
		<tag k="ssr:gruppe" v="sjøbunn" />
		<tag k="ssr:hovedgruppe" v="sjø" />
		<tag k="ssr:stedsnr" v="121836" />
		<tag k="ssr:type" v="bankeISjø" />
	</node>
	<node lat="57.68978888910402" lon="10.166900001038865" id="-481">
		<tag k="fixme" v="multiple name tags, choose one and add the other to alt_name" />
		<tag k="name" v="Skagbanke;Skagbanke" />
		<tag k="name:da" v="Skagbanke;Skagbanke" />
		<tag k="ssr:date" v="2016-05-10" />
		<tag k="ssr:gruppe" v="sjøbunn" />
		<tag k="ssr:hovedgruppe" v="sjø" />
		<tag k="ssr:stedsnr" v="161170" />
		<tag k="ssr:type" v="bankeISjø" />
	</node>
	<node lat="60.69999999815023" lon="2.9333333344242214" id="-482">
		<tag k="fixme" v="multiple name tags, choose one and add the other to alt_name" />
		<tag k="name" v="Oseberg Øst;Oseberg Øst" />
		<tag k="ssr:date" v="2016-05-10" />
		<tag k="ssr:gruppe" v="sjøbunn" />
		<tag k="ssr:hovedgruppe" v="sjø" />
		<tag k="ssr:stedsnr" v="161755" />
		<tag k="ssr:type" v="gass-OljefeltISjø" />
	</node>
	<node lat="60.422795426134066" lon="-12.612764479691243" id="-484">
		<tag k="fixme" v="multiple name tags, choose one and add the other to alt_name" />
		<tag k="name" v="Outer Bailey Bank;Outer Bailey Bank" />
		<tag k="name:en" v="Outer Bailey Bank;Outer Bailey Bank" />
		<tag k="ssr:date" v="2016-05-10" />
		<tag k="ssr:gruppe" v="sjøbunn" />
		<tag k="ssr:hovedgruppe" v="sjø" />
		<tag k="ssr:stedsnr" v="162220" />
		<tag k="ssr:type" v="bankeISjø" />
	</node>
	<node lat="60.63867777490161" lon="-1.3032527652229102" id="-485">
		<tag k="fixme" v="multiple name tags, choose one and add the other to alt_name" />
		<tag k="name" v="Point of Fethaland;Point of Fethaland" />
		<tag k="name:en" v="Point of Fethaland;Point of Fethaland" />
		<tag k="ssr:date" v="2016-05-10" />
		<tag k="ssr:gruppe" v="navigasjon" />
		<tag k="ssr:hovedgruppe" v="infrastruktur" />
		<tag k="ssr:stedsnr" v="162228" />
		<tag k="ssr:type" v="fyrstasjon" />
	</node>
	<node lat="60.36268333854341" lon="-1.8286138672710501" id="-486">
		<tag k="fixme" v="multiple name tags, choose one and add the other to alt_name" />
		<tag k="name" v="Ve Skerries;Ve Skerries" />
		<tag k="name:en" v="Ve Skerries;Ve Skerries" />
		<tag k="ssr:date" v="2016-05-10" />
		<tag k="ssr:gruppe" v="navigasjon" />
		<tag k="ssr:hovedgruppe" v="infrastruktur" />
		<tag k="ssr:stedsnr" v="162231" />
		<tag k="ssr:type" v="fyrstasjon" />
	</node>
	<node lat="63.70214886425157" lon="-15.276472794406374" id="-495">
		<tag k="fixme" v="multiple name tags, choose one and add the other to alt_name" />
		<tag k="name" v="Mýragrunn;Mýragrunn" />
		<tag k="name:is" v="Mýragrunn;Mýragrunn" />
		<tag k="ssr:date" v="2016-05-10" />
		<tag k="ssr:gruppe" v="sjøbunn" />
		<tag k="ssr:hovedgruppe" v="sjø" />
		<tag k="ssr:stedsnr" v="162916" />
		<tag k="ssr:type" v="bankeISjø" />
	</node>
	<node lat="74.00452222152069" lon="16.912169452896386" id="-497">
		<tag k="fixme" v="multiple name tags, choose one and add the other to alt_name" />
		<tag k="name" v="Sørvestsnaget;Sørvestsnaget" />
		<tag k="ssr:date" v="2016-05-10" />
		<tag k="ssr:gruppe" v="sjøbunn" />
		<tag k="ssr:hovedgruppe" v="sjø" />
		<tag k="ssr:stedsnr" v="162821" />
		<tag k="ssr:type" v="bakkeISjø" />
	</node>
	<node lat="59.450975000780026" lon="2.378636107573072" id="-498">
		<tag k="fixme" v="multiple name tags, choose one and add the other to alt_name" />
		<tag k="name" v="Jotun;Jotun" />
		<tag k="ssr:date" v="2016-05-10" />
		<tag k="ssr:gruppe" v="sjøbunn" />
		<tag k="ssr:hovedgruppe" v="sjø" />
		<tag k="ssr:stedsnr" v="162871" />
		<tag k="ssr:type" v="gass-OljefeltISjø" />
	</node>
	<node lat="71.48898333699819" lon="21.082436088954015" id="-499">
		<tag k="fixme" v="multiple name tags, choose one and add the other to alt_name" />
		<tag k="name" v="Albatross;Albatross" />
		<tag k="ssr:date" v="2016-05-10" />
		<tag k="ssr:gruppe" v="sjøbunn" />
		<tag k="ssr:hovedgruppe" v="sjø" />
		<tag k="ssr:stedsnr" v="162876" />
		<tag k="ssr:type" v="gass-OljefeltISjø" />
	</node>
	<node lat="56.294658861819485" lon="-14.393797945252258" id="-501">
		<tag k="fixme" v="multiple name tags, choose one and add the other to alt_name" />
		<tag k="name" v="Rockallplateau;Rockallplateau" />
		<tag k="name:en" v="Rockallplateau;Rockallplateau" />
		<tag k="ssr:date" v="2016-05-10" />
		<tag k="ssr:gruppe" v="sjøbunn" />
		<tag k="ssr:hovedgruppe" v="sjø" />
		<tag k="ssr:stedsnr" v="162987" />
		<tag k="ssr:type" v="platåISjø" />
	</node>
	<node lat="59.30000230745109" lon="4.4176707070427845" id="-502">
		<tag k="fixme" v="multiple name tags, choose one and add the other to alt_name" />
		<tag k="name" v="Austrebakken;Austrebakken" />
		<tag k="ssr:date" v="2019-09-11" />
		<tag k="ssr:gruppe" v="sjøbunn" />
		<tag k="ssr:hovedgruppe" v="sjø" />
		<tag k="ssr:stedsnr" v="163094" />
		<tag k="ssr:type" v="bakkeISjø" />
	</node>
	<node lat="63.399999998564574" lon="5.700000007579402" id="-503">
		<tag k="fixme" v="multiple name tags, choose one and add the other to alt_name" />
		<tag k="name" v="Hola;Hola" />
		<tag k="ssr:date" v="2016-05-10" />
		<tag k="ssr:gruppe" v="sjøbunn" />
		<tag k="ssr:hovedgruppe" v="sjø" />
		<tag k="ssr:stedsnr" v="163630" />
		<tag k="ssr:type" v="søkkISjø" />
	</node>
	<node lat="63.22499999795663" lon="5.333333336915004" id="-504">
		<tag k="fixme" v="multiple name tags, choose one and add the other to alt_name" />
		<tag k="name" v="Skateneset;Skateneset" />
		<tag k="ssr:date" v="2016-05-10" />
		<tag k="ssr:gruppe" v="farvann" />
		<tag k="ssr:hovedgruppe" v="sjø" />
		<tag k="ssr:stedsnr" v="163637" />
		<tag k="ssr:type" v="fiskeplassISjø" />
	</node>
	<node lat="58.858422223326905" lon="2.598319438069669" id="-505">
		<tag k="fixme" v="multiple name tags, choose one and add the other to alt_name" />
		<tag k="name" v="Utsiragrunnen;Utsiragrunnen" />
		<tag k="ssr:date" v="2016-05-10" />
		<tag k="ssr:gruppe" v="sjøbunn" />
		<tag k="ssr:hovedgruppe" v="sjø" />
		<tag k="ssr:stedsnr" v="170394" />
		<tag k="ssr:type" v="bankeISjø" />
	</node>
	<node lat="66.52618666531058" lon="-14.273569992764028" id="-515">
		<tag k="fixme" v="multiple name tags, choose one and add the other to alt_name" />
		<tag k="name" v="Langanesgrunn;Langanesgrunn" />
		<tag k="name:is" v="Langanesgrunn;Langanesgrunn" />
		<tag k="ssr:date" v="2016-05-10" />
		<tag k="ssr:gruppe" v="sjøbunn" />
		<tag k="ssr:hovedgruppe" v="sjø" />
		<tag k="ssr:stedsnr" v="223944" />
		<tag k="ssr:type" v="bankeISjø" />
	</node>
	<node lat="66.73065608548872" lon="-14.31440901916012" id="-516">
		<tag k="fixme" v="multiple name tags, choose one and add the other to alt_name" />
		<tag k="name" v="Langanesdjup;Langanesdjup" />
		<tag k="name:is" v="Langanesdjup;Langanesdjup" />
		<tag k="ssr:date" v="2016-05-10" />
		<tag k="ssr:gruppe" v="sjøbunn" />
		<tag k="ssr:hovedgruppe" v="sjø" />
		<tag k="ssr:stedsnr" v="223948" />
		<tag k="ssr:type" v="renneKløftISjø" />
	</node>
	<node lat="60.90623889195146" lon="1.4082666600436236" id="-518">
		<tag k="fixme" v="multiple name tags, choose one and add the other to alt_name" />
		<tag k="name" v="Ninian;Ninian" />
		<tag k="name:en" v="Ninian;Ninian" />
		<tag k="ssr:date" v="2016-05-10" />
		<tag k="ssr:gruppe" v="sjøbunn" />
		<tag k="ssr:hovedgruppe" v="sjø" />
		<tag k="ssr:stedsnr" v="420995" />
		<tag k="ssr:type" v="gass-OljefeltISjø" />
	</node>
	<node lat="61.09583333643903" lon="1.7166666643724502" id="-519">
		<tag k="fixme" v="multiple name tags, choose one and add the other to alt_name" />
		<tag k="name" v="Brent;Brent" />
		<tag k="name:en" v="Brent;Brent" />
		<tag k="ssr:date" v="2016-05-10" />
		<tag k="ssr:gruppe" v="sjøbunn" />
		<tag k="ssr:hovedgruppe" v="sjø" />
		<tag k="ssr:stedsnr" v="420996" />
		<tag k="ssr:type" v="gass-OljefeltISjø" />
	</node>
	<node lat="70.87990561337264" lon="33.15255181448659" id="-520">
		<tag k="fixme" v="multiple name tags, choose one and add the other to alt_name" />
		<tag k="name" v="Murmanskstrømmen;Murmanskstrømmen" />
		<tag k="ssr:date" v="2016-05-10" />
		<tag k="ssr:gruppe" v="detaljISjø" />
		<tag k="ssr:hovedgruppe" v="sjø" />
		<tag k="ssr:stedsnr" v="238151" />
		<tag k="ssr:type" v="sjødetalj" />
	</node>
	<node lat="70.68860278182625" lon="17.588644433718386" id="-521">
		<tag k="fixme" v="multiple name tags, choose one and add the other to alt_name" />
		<tag k="name" v="Ryggen;Ryggen" />
		<tag k="ssr:date" v="2016-05-10" />
		<tag k="ssr:gruppe" v="sjøbunn" />
		<tag k="ssr:hovedgruppe" v="sjø" />
		<tag k="ssr:stedsnr" v="238024" />
		<tag k="ssr:type" v="ryggISjø" />
	</node>
	<node lat="69.45374744823" lon="33.075844400111585" id="-522">
		<tag k="fixme" v="multiple name tags, choose one and add the other to alt_name" />
		<tag k="name" v="Vyev Navolok;Vyev Navolok" />
		<tag k="name:ru" v="Vyev Navolok;Vyev Navolok" />
		<tag k="ssr:date" v="2016-05-10" />
		<tag k="ssr:gruppe" v="navigasjon" />
		<tag k="ssr:hovedgruppe" v="infrastruktur" />
		<tag k="ssr:stedsnr" v="238108" />
		<tag k="ssr:type" v="fyrlykt" />
	</node>
	<node lat="58.15833333251971" lon="4.699999993771622" id="-523">
		<tag k="fixme" v="multiple name tags, choose one and add the other to alt_name" />
		<tag k="name" v="Revet;Revet" />
		<tag k="ssr:date" v="2016-05-10" />
		<tag k="ssr:gruppe" v="sjøbunn" />
		<tag k="ssr:hovedgruppe" v="sjø" />
		<tag k="ssr:stedsnr" v="238401" />
		<tag k="ssr:type" v="bankeISjø" />
	</node>
	<node lat="70.67222222406701" lon="20.016666652522666" id="-524">
		<tag k="fixme" v="multiple name tags, choose one and add the other to alt_name" />
		<tag k="name" v="Sotbakken;Sotbakken" />
		<tag k="ssr:date" v="2016-05-10" />
		<tag k="ssr:gruppe" v="sjøbunn" />
		<tag k="ssr:hovedgruppe" v="sjø" />
		<tag k="ssr:stedsnr" v="238670" />
		<tag k="ssr:type" v="bakkeISjø" />
	</node>
	<node lat="59.74816110857997" lon="2.574572216936506" id="-525">
		<tag k="fixme" v="multiple name tags, choose one and add the other to alt_name" />
		<tag k="name" v="Frøy;Frøy" />
		<tag k="ssr:date" v="2016-05-10" />
		<tag k="ssr:gruppe" v="sjøbunn" />
		<tag k="ssr:hovedgruppe" v="sjø" />
		<tag k="ssr:stedsnr" v="238945" />
		<tag k="ssr:type" v="gass-OljefeltISjø" />
	</node>
	<node lat="56.174999998268476" lon="3.4583333379659327" id="-526">
		<tag k="fixme" v="multiple name tags, choose one and add the other to alt_name" />
		<tag k="name" v="Hod;Hod" />
		<tag k="ssr:date" v="2016-05-10" />
		<tag k="ssr:gruppe" v="sjøbunn" />
		<tag k="ssr:hovedgruppe" v="sjø" />
		<tag k="ssr:stedsnr" v="242826" />
		<tag k="ssr:type" v="gass-OljefeltISjø" />
	</node>
	<node lat="59.27916666273181" lon="1.5166666609369641" id="-527">
		<tag k="fixme" v="multiple name tags, choose one and add the other to alt_name" />
		<tag k="name" v="Harding;Harding" />
		<tag k="ssr:date" v="2016-05-10" />
		<tag k="ssr:gruppe" v="sjøbunn" />
		<tag k="ssr:hovedgruppe" v="sjø" />
		<tag k="ssr:stedsnr" v="239815" />
		<tag k="ssr:type" v="gass-OljefeltISjø" />
	</node>
	<node lat="57.699999999486685" lon="10.14999999273708" id="-531">
		<tag k="fixme" v="multiple name tags, choose one and add the other to alt_name" />
		<tag k="name" v="Skagbanke;Skagbanke" />
		<tag k="name:da" v="Skagbanke;Skagbanke" />
		<tag k="ssr:date" v="2016-05-10" />
		<tag k="ssr:gruppe" v="sjøbunn" />
		<tag k="ssr:hovedgruppe" v="sjø" />
		<tag k="ssr:stedsnr" v="242761" />
		<tag k="ssr:type" v="bankeISjø" />
	</node>
	<node lat="58.54166666485298" lon="11.033333334020064" id="-536">
		<tag k="fixme" v="multiple name tags, choose one and add the other to alt_name" />
		<tag k="name" v="Väderöbod;Väderöbod" />
		<tag k="name:sv" v="Väderöbod;Väderöbod" />
		<tag k="ssr:date" v="2016-05-10" />
		<tag k="ssr:gruppe" v="navigasjon" />
		<tag k="ssr:hovedgruppe" v="infrastruktur" />
		<tag k="ssr:stedsnr" v="242735" />
		<tag k="ssr:type" v="fyrstasjon" />
	</node>
	<node lat="56.64166666800935" lon="5.325000002050406" id="-542">
		<tag k="fixme" v="multiple name tags, choose one and add the other to alt_name" />
		<tag k="name" v="Nini;Nini" />
		<tag k="name:da" v="Nini;Nini" />
		<tag k="ssr:date" v="2016-05-10" />
		<tag k="ssr:gruppe" v="sjøbunn" />
		<tag k="ssr:hovedgruppe" v="sjø" />
		<tag k="ssr:stedsnr" v="242846" />
		<tag k="ssr:type" v="gass-OljefeltISjø" />
	</node>
	<node lat="56.67499999870519" lon="5.412500006555081" id="-543">
		<tag k="fixme" v="multiple name tags, choose one and add the other to alt_name" />
		<tag k="name" v="Nini East;Nini East" />
		<tag k="name:da" v="Nini East;Nini East" />
		<tag k="ssr:date" v="2016-05-10" />
		<tag k="ssr:gruppe" v="sjøbunn" />
		<tag k="ssr:hovedgruppe" v="sjø" />
		<tag k="ssr:stedsnr" v="242848" />
		<tag k="ssr:type" v="gass-OljefeltISjø" />
	</node>
	<node lat="68.137306548887" lon="39.78306384333267" id="-545">
		<tag k="fixme" v="multiple name tags, choose one and add the other to alt_name" />
		<tag k="name" v="M Svjatoj Nos;M Svjatoj Nos" />
		<tag k="name:ru" v="M Svjatoj Nos;M Svjatoj Nos" />
		<tag k="ssr:date" v="2016-05-10" />
		<tag k="ssr:gruppe" v="navigasjon" />
		<tag k="ssr:hovedgruppe" v="infrastruktur" />
		<tag k="ssr:stedsnr" v="283117" />
		<tag k="ssr:type" v="fyrlykt" />
	</node>
	<node lat="68.370760735158" lon="38.64330405465504" id="-546">
		<tag k="fixme" v="multiple name tags, choose one and add the other to alt_name" />
		<tag k="name" v="Mys Cherny;Mys Cherny" />
		<tag k="name:ru" v="Mys Cherny;Mys Cherny" />
		<tag k="ssr:date" v="2016-05-10" />
		<tag k="ssr:gruppe" v="navigasjon" />
		<tag k="ssr:hovedgruppe" v="infrastruktur" />
		<tag k="ssr:stedsnr" v="283119" />
		<tag k="ssr:type" v="fyrlykt" />
	</node>
	<node lat="62.75000000469559" lon="4.183333339554109" id="-547">
		<tag k="fixme" v="multiple name tags, choose one and add the other to alt_name" />
		<tag k="name" v="Korallneset;Korallneset" />
		<tag k="ssr:date" v="2016-05-10" />
		<tag k="ssr:gruppe" v="sjøbunn" />
		<tag k="ssr:hovedgruppe" v="sjø" />
		<tag k="ssr:stedsnr" v="285621" />
		<tag k="ssr:type" v="bakkeISjø" />
	</node>
	<node lat="61.39826111448364" lon="1.7238527751157209" id="-548">
		<tag k="fixme" v="multiple name tags, choose one and add the other to alt_name" />
		<tag k="name" v="Murchison;Murchison" />
		<tag k="name:en" v="Murchison;Murchison" />
		<tag k="ssr:date" v="2016-05-10" />
		<tag k="ssr:gruppe" v="sjøbunn" />
		<tag k="ssr:hovedgruppe" v="sjø" />
		<tag k="ssr:stedsnr" v="299000" />
		<tag k="ssr:type" v="gass-OljefeltISjø" />
	</node>
	<node lat="64.34166666752263" lon="7.720833335744724" id="-549">
		<tag k="fixme" v="multiple name tags, choose one and add the other to alt_name" />
		<tag k="name" v="Garn West;Garn West" />
		<tag k="ssr:date" v="2016-05-10" />
		<tag k="ssr:gruppe" v="sjøbunn" />
		<tag k="ssr:hovedgruppe" v="sjø" />
		<tag k="ssr:stedsnr" v="300233" />
		<tag k="ssr:type" v="gass-OljefeltISjø" />
	</node>
	<node lat="61.38055555984712" lon="2.1111111169908776" id="-550">
		<tag k="fixme" v="multiple name tags, choose one and add the other to alt_name" />
		<tag k="name" v="Vigdis;Vigdis" />
		<tag k="ssr:date" v="2016-05-10" />
		<tag k="ssr:gruppe" v="sjøbunn" />
		<tag k="ssr:hovedgruppe" v="sjø" />
		<tag k="ssr:stedsnr" v="300770" />
		<tag k="ssr:type" v="gass-OljefeltISjø" />
	</node>
	<node lat="70.58888888873653" lon="19.250000006269904" id="-551">
		<tag k="fixme" v="multiple name tags, choose one and add the other to alt_name" />
		<tag k="name" v="Håkjerringsdjupet;Håkjerringsdjupet" />
		<tag k="ssr:date" v="2016-05-10" />
		<tag k="ssr:gruppe" v="sjøbunn" />
		<tag k="ssr:hovedgruppe" v="sjø" />
		<tag k="ssr:stedsnr" v="303010" />
		<tag k="ssr:type" v="havdyp" />
	</node>
	<node lat="57.510277777425216" lon="11.726388895582799" id="-557">
		<tag k="fixme" v="multiple name tags, choose one and add the other to alt_name" />
		<tag k="name" v="Tistlarna;Tistlarna" />
		<tag k="name:sv" v="Tistlarna;Tistlarna" />
		<tag k="ssr:date" v="2016-05-10" />
		<tag k="ssr:gruppe" v="navigasjon" />
		<tag k="ssr:hovedgruppe" v="infrastruktur" />
		<tag k="ssr:stedsnr" v="303851" />
		<tag k="ssr:type" v="fyrstasjon" />
	</node>
	<node lat="57.13333333754937" lon="9.66666665914017" id="-561">
		<tag k="fixme" v="multiple name tags, choose one and add the other to alt_name" />
		<tag k="name" v="Danmark;Danmark" />
		<tag k="name:da" v="Danmark;Danmark" />
		<tag k="ssr:date" v="2016-05-10" />
		<tag k="ssr:gruppe" v="administrativeIndelinger" />
		<tag k="ssr:hovedgruppe" v="offentligAdministrasjon" />
		<tag k="ssr:stedsnr" v="303861" />
		<tag k="ssr:type" v="nasjon" />
	</node>
	<node lat="57.177777777120276" lon="11.733333331048112" id="-562">
		<tag k="fixme" v="multiple name tags, choose one and add the other to alt_name" />
		<tag k="name" v="Fladen;Fladen" />
		<tag k="name:sv" v="Fladen;Fladen" />
		<tag k="ssr:date" v="2016-05-10" />
		<tag k="ssr:gruppe" v="sjøbunn" />
		<tag k="ssr:hovedgruppe" v="sjø" />
		<tag k="ssr:stedsnr" v="303865" />
		<tag k="ssr:type" v="bankeISjø" />
	</node>
	<node lat="59.043055557352005" lon="1.805555547530156" id="-563">
		<tag k="fixme" v="multiple name tags, choose one and add the other to alt_name" />
		<tag k="name" v="Walker Bank;Walker Bank" />
		<tag k="ssr:date" v="2016-05-10" />
		<tag k="ssr:gruppe" v="sjøbunn" />
		<tag k="ssr:hovedgruppe" v="sjø" />
		<tag k="ssr:stedsnr" v="344081" />
		<tag k="ssr:type" v="bankeISjø" />
	</node>
	<node lat="69.94583344120288" lon="31.93749666152392" id="-564">
		<tag k="fixme" v="multiple name tags, choose one and add the other to alt_name" />
		<tag k="name" v="Kap Njemetsky;Kap Njemetsky" />
		<tag k="name:ru" v="Kap Njemetsky;Kap Njemetsky" />
		<tag k="ssr:date" v="2016-05-10" />
		<tag k="ssr:gruppe" v="navigasjon" />
		<tag k="ssr:hovedgruppe" v="infrastruktur" />
		<tag k="ssr:stedsnr" v="363538" />
		<tag k="ssr:type" v="fyrlykt" />
	</node>
	<node lat="61.951986198620794" lon="25.954962956743902" id="-567">
		<tag k="alt_name:fi" v="Suomen tasavalta" />
		<tag k="alt_name:no" v="Republikken Finland" />
		<tag k="alt_name:se" v="Suoma dásseváldi" />
		<tag k="fixme" v="multiple name tags, choose one and add the other to alt_name" />
		<tag k="name" v="Finland;Finland - Suomi;Suomi - Suopma;Suopma" />
		<tag k="name:fi" v="Suomi;Suomi" />
		<tag k="name:no" v="Finland;Finland" />
		<tag k="name:se" v="Suopma;Suopma" />
		<tag k="ssr:date" v="2016-05-10" />
		<tag k="ssr:gruppe" v="administrativeIndelinger" />
		<tag k="ssr:hovedgruppe" v="offentligAdministrasjon" />
		<tag k="ssr:stedsnr" v="450808" />
		<tag k="ssr:type" v="nasjon" />
	</node>
	<node lat="60.562500001925216" lon="3.6833333341208063" id="-568">
		<tag k="fixme" v="multiple name tags, choose one and add the other to alt_name" />
		<tag k="name" v="Togi;Togi" />
		<tag k="ssr:date" v="2016-05-10" />
		<tag k="ssr:gruppe" v="sjøbunn" />
		<tag k="ssr:hovedgruppe" v="sjø" />
		<tag k="ssr:stedsnr" v="464794" />
		<tag k="ssr:type" v="gass-OljefeltISjø" />
	</node>
	<node lat="69.38455867126363" lon="34.1505140910634" id="-570">
		<tag k="fixme" v="multiple name tags, choose one and add the other to alt_name" />
		<tag k="name" v="Kildinchi Severny;Kildinchi Severny" />
		<tag k="name:ru" v="Kildinchi Severny;Kildinchi Severny" />
		<tag k="ssr:date" v="2016-05-10" />
		<tag k="ssr:gruppe" v="navigasjon" />
		<tag k="ssr:hovedgruppe" v="infrastruktur" />
		<tag k="ssr:stedsnr" v="465098" />
		<tag k="ssr:type" v="fyrlykt" />
	</node>
	<node lat="60.42454166772851" lon="-0.734074986161396" id="-571">
		<tag k="fixme" v="multiple name tags, choose one and add the other to alt_name" />
		<tag k="name" v="Out Skerries;Out Skerries" />
		<tag k="name:en" v="Out Skerries;Out Skerries" />
		<tag k="ssr:date" v="2016-05-10" />
		<tag k="ssr:gruppe" v="navigasjon" />
		<tag k="ssr:hovedgruppe" v="infrastruktur" />
		<tag k="ssr:stedsnr" v="465230" />
		<tag k="ssr:type" v="fyrstasjon" />
	</node>
	<node lat="59.85807777455049" lon="-1.2739360993507443" id="-572">
		<tag k="fixme" v="multiple name tags, choose one and add the other to alt_name" />
		<tag k="name" v="Sumburgh Head;Sumburgh Head" />
		<tag k="name:en" v="Sumburgh Head;Sumburgh Head" />
		<tag k="ssr:date" v="2016-05-10" />
		<tag k="ssr:gruppe" v="navigasjon" />
		<tag k="ssr:hovedgruppe" v="infrastruktur" />
		<tag k="ssr:stedsnr" v="465235" />
		<tag k="ssr:type" v="fyrstasjon" />
	</node>
	<node lat="71.36666666683963" lon="19.083333341998244" id="-578">
		<tag k="fixme" v="multiple name tags, choose one and add the other to alt_name" />
		<tag k="name" v="Tromsøflaket;Tromsøflaket" />
		<tag k="ssr:date" v="2016-05-10" />
		<tag k="ssr:gruppe" v="sjøbunn" />
		<tag k="ssr:hovedgruppe" v="sjø" />
		<tag k="ssr:stedsnr" v="466575" />
		<tag k="ssr:type" v="bankeISjø" />
	</node>
	<node lat="74.35036388737957" lon="20.746102784740675" id="-579">
		<tag k="fixme" v="multiple name tags, choose one and add the other to alt_name" />
		<tag k="name" v="Leirdjupet;Leirdjupet" />
		<tag k="ssr:date" v="2016-05-10" />
		<tag k="ssr:gruppe" v="sjøbunn" />
		<tag k="ssr:hovedgruppe" v="sjø" />
		<tag k="ssr:stedsnr" v="466529" />
		<tag k="ssr:type" v="søkkISjø" />
	</node>
	<node lat="63.10666666888621" lon="5.30000000480662" id="-580">
		<tag k="fixme" v="multiple name tags, choose one and add the other to alt_name" />
		<tag k="name" v="Fjørtoftneset;Fjørtoftneset" />
		<tag k="ssr:date" v="2016-05-10" />
		<tag k="ssr:gruppe" v="farvann" />
		<tag k="ssr:hovedgruppe" v="sjø" />
		<tag k="ssr:stedsnr" v="466686" />
		<tag k="ssr:type" v="fiskeplassISjø" />
	</node>
	<node lat="63.13333333159648" lon="5.400000000742204" id="-581">
		<tag k="fixme" v="multiple name tags, choose one and add the other to alt_name" />
		<tag k="name" v="Kalvhola;Kalvhola" />
		<tag k="ssr:date" v="2016-05-10" />
		<tag k="ssr:gruppe" v="farvann" />
		<tag k="ssr:hovedgruppe" v="sjø" />
		<tag k="ssr:stedsnr" v="466687" />
		<tag k="ssr:type" v="fiskeplassISjø" />
	</node>
	<node lat="66.49141797867652" lon="-16.57139123400832" id="-583">
		<tag k="fixme" v="multiple name tags, choose one and add the other to alt_name" />
		<tag k="name" v="Raudinupur;Raudinupur" />
		<tag k="name:is" v="Raudinupur;Raudinupur" />
		<tag k="ssr:date" v="2016-05-10" />
		<tag k="ssr:gruppe" v="navigasjon" />
		<tag k="ssr:hovedgruppe" v="infrastruktur" />
		<tag k="ssr:stedsnr" v="466892" />
		<tag k="ssr:type" v="fyrstasjon" />
	</node>
	<node lat="66.37911452936687" lon="-14.55392452398624" id="-584">
		<tag k="fixme" v="multiple name tags, choose one and add the other to alt_name" />
		<tag k="name" v="Langanes;Langanes" />
		<tag k="name:is" v="Langanes;Langanes" />
		<tag k="ssr:date" v="2016-05-10" />
		<tag k="ssr:gruppe" v="navigasjon" />
		<tag k="ssr:hovedgruppe" v="infrastruktur" />
		<tag k="ssr:stedsnr" v="466894" />
		<tag k="ssr:type" v="fyrstasjon" />
	</node>
	<node lat="58.74999999705085" lon="3.0333333376399603" id="-585">
		<tag k="fixme" v="multiple name tags, choose one and add the other to alt_name" />
		<tag k="name" v="Klondyke (Skotske);Klondyke (Skotske)" />
		<tag k="ssr:date" v="2016-05-10" />
		<tag k="ssr:gruppe" v="sjøbunn" />
		<tag k="ssr:hovedgruppe" v="sjø" />
		<tag k="ssr:stedsnr" v="480101" />
		<tag k="ssr:type" v="bankeISjø" />
	</node>
	<node lat="73.27367777157873" lon="28.196538663349607" id="-586">
		<tag k="fixme" v="multiple name tags, choose one and add the other to alt_name" />
		<tag k="name" v="Nordkappstrømmen, øvre;Nordkappstrømmen, øvre" />
		<tag k="ssr:date" v="2016-05-10" />
		<tag k="ssr:gruppe" v="detaljISjø" />
		<tag k="ssr:hovedgruppe" v="sjø" />
		<tag k="ssr:stedsnr" v="480131" />
		<tag k="ssr:type" v="sjødetalj" />
	</node>
	<node lat="61.07757222502041" lon="1.389936111472765" id="-587">
		<tag k="fixme" v="multiple name tags, choose one and add the other to alt_name" />
		<tag k="name" v="Hutton;Hutton" />
		<tag k="name:en" v="Hutton;Hutton" />
		<tag k="ssr:date" v="2016-05-10" />
		<tag k="ssr:gruppe" v="sjøbunn" />
		<tag k="ssr:hovedgruppe" v="sjø" />
		<tag k="ssr:stedsnr" v="480996" />
		<tag k="ssr:type" v="gass-OljefeltISjø" />
	</node>
	<node lat="59.61896388891878" lon="1.5144666689495114" id="-588">
		<tag k="fixme" v="multiple name tags, choose one and add the other to alt_name" />
		<tag k="name" v="Linnhe;Linnhe" />
		<tag k="name:en" v="Linnhe;Linnhe" />
		<tag k="ssr:date" v="2016-05-10" />
		<tag k="ssr:gruppe" v="sjøbunn" />
		<tag k="ssr:hovedgruppe" v="sjø" />
		<tag k="ssr:stedsnr" v="480998" />
		<tag k="ssr:type" v="gass-OljefeltISjø" />
	</node>
	<node lat="60.899999997289356" lon="1.2749999961650051" id="-591">
		<tag k="fixme" v="multiple name tags, choose one and add the other to alt_name" />
		<tag k="name" v="Lyell;Lyell" />
		<tag k="ssr:date" v="2016-05-10" />
		<tag k="ssr:gruppe" v="sjøbunn" />
		<tag k="ssr:hovedgruppe" v="sjø" />
		<tag k="ssr:stedsnr" v="482755" />
		<tag k="ssr:type" v="gass-OljefeltISjø" />
	</node>
	<node lat="61.08055555974365" lon="2.4916666699119596" id="-592">
		<tag k="fixme" v="multiple name tags, choose one and add the other to alt_name" />
		<tag k="name" v="Kvitebjørn;Kvitebjørn" />
		<tag k="ssr:date" v="2016-05-10" />
		<tag k="ssr:gruppe" v="sjøbunn" />
		<tag k="ssr:hovedgruppe" v="sjø" />
		<tag k="ssr:stedsnr" v="482758" />
		<tag k="ssr:type" v="gass-OljefeltISjø" />
	</node>
	<node lat="58.08333333300545" lon="1.9000000032676752" id="-596">
		<tag k="fixme" v="multiple name tags, choose one and add the other to alt_name" />
		<tag k="name" v="Varg;Varg" />
		<tag k="ssr:date" v="2016-05-10" />
		<tag k="ssr:gruppe" v="sjøbunn" />
		<tag k="ssr:hovedgruppe" v="sjø" />
		<tag k="ssr:stedsnr" v="485827" />
		<tag k="ssr:type" v="gass-OljefeltISjø" />
	</node>
	<node lat="57.18333333496266" lon="10.708333329046566" id="-597">
		<tag k="fixme" v="multiple name tags, choose one and add the other to alt_name" />
		<tag k="name" v="Læsø rende;Læsø rende" />
		<tag k="name:da" v="Læsø rende;Læsø rende" />
		<tag k="ssr:date" v="2016-05-10" />
		<tag k="ssr:gruppe" v="sjøbunn" />
		<tag k="ssr:hovedgruppe" v="sjø" />
		<tag k="ssr:stedsnr" v="485735" />
		<tag k="ssr:type" v="renneKløftISjø" />
	</node>
	<node lat="57.216666665401306" lon="10.67222222708661" id="-598">
		<tag k="fixme" v="multiple name tags, choose one and add the other to alt_name" />
		<tag k="name" v="Læsø Rende;Læsø Rende" />
		<tag k="name:da" v="Læsø Rende;Læsø Rende" />
		<tag k="ssr:date" v="2016-05-10" />
		<tag k="ssr:gruppe" v="navigasjon" />
		<tag k="ssr:hovedgruppe" v="infrastruktur" />
		<tag k="ssr:stedsnr" v="485739" />
		<tag k="ssr:type" v="fyrstasjon" />
	</node>
	<node lat="56.33333333518912" lon="3.247222216895306" id="-600">
		<tag k="fixme" v="multiple name tags, choose one and add the other to alt_name" />
		<tag k="name" v="Embla;Embla" />
		<tag k="ssr:date" v="2016-05-10" />
		<tag k="ssr:gruppe" v="sjøbunn" />
		<tag k="ssr:hovedgruppe" v="sjø" />
		<tag k="ssr:stedsnr" v="485830" />
		<tag k="ssr:type" v="gass-OljefeltISjø" />
	</node>
	<node lat="70.69192243223317" lon="38.332900741427224" id="-604">
		<tag k="fixme" v="multiple name tags, choose one and add the other to alt_name" />
		<tag k="name" v="Norddjupet;Norddjupet" />
		<tag k="ssr:date" v="2016-05-10" />
		<tag k="ssr:gruppe" v="sjøbunn" />
		<tag k="ssr:hovedgruppe" v="sjø" />
		<tag k="ssr:stedsnr" v="526141" />
		<tag k="ssr:type" v="havdyp" />
	</node>
	<node lat="63.06797222349434" lon="5.322122222834886" id="-619">
		<tag k="fixme" v="multiple name tags, choose one and add the other to alt_name" />
		<tag k="name" v="Storegga;Storegga" />
		<tag k="ssr:date" v="2016-05-10" />
		<tag k="ssr:gruppe" v="sjøbunn" />
		<tag k="ssr:hovedgruppe" v="sjø" />
		<tag k="ssr:stedsnr" v="526685" />
		<tag k="ssr:type" v="eggISjø" />
	</node>
	<node lat="70.86666666338482" lon="17.783333333395145" id="-621">
		<tag k="fixme" v="multiple name tags, choose one and add the other to alt_name" />
		<tag k="name" v="Teistgrunnen;Teistgrunnen" />
		<tag k="ssr:date" v="2016-05-10" />
		<tag k="ssr:gruppe" v="sjøbunn" />
		<tag k="ssr:hovedgruppe" v="sjø" />
		<tag k="ssr:stedsnr" v="526669" />
		<tag k="ssr:type" v="bankeISjø" />
	</node>
	<node lat="63.52624166703706" lon="5.377036116186941" id="-623">
		<tag k="fixme" v="multiple name tags, choose one and add the other to alt_name" />
		<tag k="name" v="Ormen Lange;Ormen Lange" />
		<tag k="ssr:date" v="2016-05-10" />
		<tag k="ssr:gruppe" v="sjøbunn" />
		<tag k="ssr:hovedgruppe" v="sjø" />
		<tag k="ssr:stedsnr" v="526872" />
		<tag k="ssr:type" v="gass-OljefeltISjø" />
	</node>
	<node lat="61.48333333290215" lon="2.166666669422304" id="-624">
		<tag k="fixme" v="multiple name tags, choose one and add the other to alt_name" />
		<tag k="name" v="Snorre;Snorre" />
		<tag k="ssr:date" v="2016-05-10" />
		<tag k="ssr:gruppe" v="sjøbunn" />
		<tag k="ssr:hovedgruppe" v="sjø" />
		<tag k="ssr:stedsnr" v="526873" />
		<tag k="ssr:type" v="gass-OljefeltISjø" />
	</node>
	<node lat="54.74106388553727" lon="2.5938222297553475" id="-625">
		<tag k="fixme" v="multiple name tags, choose one and add the other to alt_name" />
		<tag k="name" v="Dogger Bank;Dogger Bank" />
		<tag k="name:en" v="Dogger Bank;Dogger Bank" />
		<tag k="ssr:date" v="2016-05-10" />
		<tag k="ssr:gruppe" v="sjøbunn" />
		<tag k="ssr:hovedgruppe" v="sjø" />
		<tag k="ssr:stedsnr" v="526985" />
		<tag k="ssr:type" v="bankeISjø" />
	</node>
	<node lat="61.220125000713075" lon="2.27768056071145" id="-629">
		<tag k="fixme" v="multiple name tags, choose one and add the other to alt_name" />
		<tag k="name" v="Gullfaks;Gullfaks" />
		<tag k="ssr:date" v="2016-05-10" />
		<tag k="ssr:gruppe" v="sjøbunn" />
		<tag k="ssr:hovedgruppe" v="sjø" />
		<tag k="ssr:stedsnr" v="541695" />
		<tag k="ssr:type" v="gass-OljefeltISjø" />
	</node>
	<node lat="64.64999999707393" lon="7.666666656831263" id="-630">
		<tag k="fixme" v="multiple name tags, choose one and add the other to alt_name" />
		<tag k="name" v="Mikkel Sør;Mikkel Sør" />
		<tag k="ssr:date" v="2016-05-10" />
		<tag k="ssr:gruppe" v="sjøbunn" />
		<tag k="ssr:hovedgruppe" v="sjø" />
		<tag k="ssr:stedsnr" v="542227" />
		<tag k="ssr:type" v="gass-OljefeltISjø" />
	</node>
	<node lat="71.57877777366986" lon="21.20229165251106" id="-639">
		<tag k="fixme" v="multiple name tags, choose one and add the other to alt_name" />
		<tag k="name" v="Snøhvit;Snøhvit" />
		<tag k="ssr:date" v="2016-05-10" />
		<tag k="ssr:gruppe" v="sjøbunn" />
		<tag k="ssr:hovedgruppe" v="sjø" />
		<tag k="ssr:stedsnr" v="586865" />
		<tag k="ssr:type" v="gass-OljefeltISjø" />
	</node>
	<node lat="61.11123610944634" lon="1.068408327674518" id="-640">
		<tag k="fixme" v="multiple name tags, choose one and add the other to alt_name" />
		<tag k="name" v="Comorant;Comorant" />
		<tag k="name:en" v="Comorant;Comorant" />
		<tag k="ssr:date" v="2016-05-10" />
		<tag k="ssr:gruppe" v="sjøbunn" />
		<tag k="ssr:hovedgruppe" v="sjø" />
		<tag k="ssr:stedsnr" v="586870" />
		<tag k="ssr:type" v="gass-OljefeltISjø" />
	</node>
	<node lat="59.23171983454556" lon="-10.208102588480761" id="-641">
		<tag k="fixme" v="multiple name tags, choose one and add the other to alt_name" />
		<tag k="name" v="Rosemary Bank;Rosemary Bank" />
		<tag k="name:en" v="Rosemary Bank;Rosemary Bank" />
		<tag k="ssr:date" v="2016-05-10" />
		<tag k="ssr:gruppe" v="sjøbunn" />
		<tag k="ssr:hovedgruppe" v="sjø" />
		<tag k="ssr:stedsnr" v="586978" />
		<tag k="ssr:type" v="bankeISjø" />
	</node>
	<node lat="58.96777777339806" lon="3.297222223098944" id="-653">
		<tag k="fixme" v="multiple name tags, choose one and add the other to alt_name" />
		<tag k="name" v="Vale;Vale" />
		<tag k="ssr:date" v="2016-05-10" />
		<tag k="ssr:gruppe" v="sjøbunn" />
		<tag k="ssr:hovedgruppe" v="sjø" />
		<tag k="ssr:stedsnr" v="587798" />
		<tag k="ssr:type" v="gass-OljefeltISjø" />
	</node>
	<node lat="64.80322573935943" lon="-13.854399766112845" id="-654">
		<tag k="fixme" v="multiple name tags, choose one and add the other to alt_name" />
		<tag k="name" v="Kambanes;Kambanes" />
		<tag k="name:is" v="Kambanes;Kambanes" />
		<tag k="ssr:date" v="2016-05-10" />
		<tag k="ssr:gruppe" v="navigasjon" />
		<tag k="ssr:hovedgruppe" v="infrastruktur" />
		<tag k="ssr:stedsnr" v="587896" />
		<tag k="ssr:type" v="fyrstasjon" />
	</node>
	<node lat="69.01578055554788" lon="13.566455567945923" id="-658">
		<tag k="fixme" v="multiple name tags, choose one and add the other to alt_name" />
		<tag k="name" v="Jennegga;Jennegga" />
		<tag k="ssr:date" v="2016-05-10" />
		<tag k="ssr:gruppe" v="sjøbunn" />
		<tag k="ssr:hovedgruppe" v="sjø" />
		<tag k="ssr:stedsnr" v="601029" />
		<tag k="ssr:type" v="eggISjø" />
	</node>
	<node lat="69.95096121934492" lon="31.94437722755387" id="-659">
		<tag k="fixme" v="multiple name tags, choose one and add the other to alt_name" />
		<tag k="name" v="Niemetsky;Niemetsky" />
		<tag k="name:ru" v="Niemetsky;Niemetsky" />
		<tag k="ssr:date" v="2016-05-10" />
		<tag k="ssr:gruppe" v="navigasjon" />
		<tag k="ssr:hovedgruppe" v="infrastruktur" />
		<tag k="ssr:stedsnr" v="602071" />
		<tag k="ssr:type" v="fyrlykt" />
	</node>
	<node lat="59.44999999592877" lon="2.366666661391623" id="-661">
		<tag k="fixme" v="multiple name tags, choose one and add the other to alt_name" />
		<tag k="name" v="Jotun B;Jotun B" />
		<tag k="ssr:date" v="2016-05-10" />
		<tag k="ssr:gruppe" v="sjøbunn" />
		<tag k="ssr:hovedgruppe" v="sjø" />
		<tag k="ssr:stedsnr" v="603027" />
		<tag k="ssr:type" v="gass-OljefeltISjø" />
	</node>
	<node lat="60.641666665816636" lon="1.6569444517140386" id="-662">
		<tag k="fixme" v="multiple name tags, choose one and add the other to alt_name" />
		<tag k="name" v="Dunbar;Dunbar" />
		<tag k="ssr:date" v="2016-05-10" />
		<tag k="ssr:gruppe" v="sjøbunn" />
		<tag k="ssr:hovedgruppe" v="sjø" />
		<tag k="ssr:stedsnr" v="603724" />
		<tag k="ssr:type" v="gass-OljefeltISjø" />
	</node>
	<node lat="63.58333332927995" lon="5.533333340313865" id="-664">
		<tag k="fixme" v="multiple name tags, choose one and add the other to alt_name" />
		<tag k="name" v="Perjohanneset;Perjohanneset" />
		<tag k="ssr:date" v="2016-05-10" />
		<tag k="ssr:gruppe" v="sjøbunn" />
		<tag k="ssr:hovedgruppe" v="sjø" />
		<tag k="ssr:stedsnr" v="604160" />
		<tag k="ssr:type" v="bakkeISjø" />
	</node>
	<node lat="59.43749999773323" lon="1.5708333386937532" id="-665">
		<tag k="fixme" v="multiple name tags, choose one and add the other to alt_name" />
		<tag k="name" v="Buckland;Buckland" />
		<tag k="ssr:date" v="2016-05-11" />
		<tag k="ssr:gruppe" v="sjøbunn" />
		<tag k="ssr:hovedgruppe" v="sjø" />
		<tag k="ssr:stedsnr" v="726493" />
		<tag k="ssr:type" v="gass-OljefeltISjø" />
	</node>
	<node lat="60.85839166249632" lon="2.6474277802427832" id="-666">
		<tag k="fixme" v="multiple name tags, choose one and add the other to alt_name" />
		<tag k="name" v="Huldra;Huldra" />
		<tag k="ssr:date" v="2016-05-11" />
		<tag k="ssr:gruppe" v="sjøbunn" />
		<tag k="ssr:hovedgruppe" v="sjø" />
		<tag k="ssr:stedsnr" v="768877" />
		<tag k="ssr:type" v="gass-OljefeltISjø" />
	</node>
	<node lat="57.37500000425664" lon="11.408333328768382" id="-672">
		<tag k="fixme" v="multiple name tags, choose one and add the other to alt_name" />
		<tag k="name" v="Bøchers banke;Bøchers banke" />
		<tag k="name:da" v="Bøchers banke;Bøchers banke" />
		<tag k="ssr:date" v="2016-05-10" />
		<tag k="ssr:gruppe" v="sjøbunn" />
		<tag k="ssr:hovedgruppe" v="sjø" />
		<tag k="ssr:stedsnr" v="606773" />
		<tag k="ssr:type" v="bankeISjø" />
	</node>
	<node lat="58.36666666240453" lon="1.908333329671505" id="-674">
		<tag k="fixme" v="multiple name tags, choose one and add the other to alt_name" />
		<tag k="name" v="Sleipner;Sleipner" />
		<tag k="ssr:date" v="2016-05-10" />
		<tag k="ssr:gruppe" v="sjøbunn" />
		<tag k="ssr:hovedgruppe" v="sjø" />
		<tag k="ssr:stedsnr" v="606859" />
		<tag k="ssr:type" v="gass-OljefeltISjø" />
	</node>
	<node lat="58.570833332961655" lon="1.6958333373603518" id="-675">
		<tag k="fixme" v="multiple name tags, choose one and add the other to alt_name" />
		<tag k="name" v="Gina Krog;Gina Krog" />
		<tag k="ssr:date" v="2016-05-10" />
		<tag k="ssr:gruppe" v="sjøbunn" />
		<tag k="ssr:hovedgruppe" v="sjø" />
		<tag k="ssr:stedsnr" v="606860" />
		<tag k="ssr:type" v="gass-OljefeltISjø" />
	</node>
	<node lat="66.56666666992716" lon="7.0999999967523415" id="-676">
		<tag k="fixme" v="multiple name tags, choose one and add the other to alt_name" />
		<tag k="name" v="Trænaegga;Trænaegga" />
		<tag k="ssr:date" v="2016-05-10" />
		<tag k="ssr:gruppe" v="sjøbunn" />
		<tag k="ssr:hovedgruppe" v="sjø" />
		<tag k="ssr:stedsnr" v="662013" />
		<tag k="ssr:type" v="eggISjø" />
	</node>
	<node lat="60.474297223862585" lon="2.810258330055666" id="-677">
		<tag k="fixme" v="multiple name tags, choose one and add the other to alt_name" />
		<tag k="name" v="Oseberg;Oseberg" />
		<tag k="ssr:date" v="2016-05-10" />
		<tag k="ssr:gruppe" v="sjøbunn" />
		<tag k="ssr:hovedgruppe" v="sjø" />
		<tag k="ssr:stedsnr" v="662928" />
		<tag k="ssr:type" v="gass-OljefeltISjø" />
	</node>
	<node lat="59.74181944774617" lon="1.6670194360710944" id="-678">
		<tag k="fixme" v="multiple name tags, choose one and add the other to alt_name" />
		<tag k="name" v="Beryl;Beryl" />
		<tag k="name:en" v="Beryl;Beryl" />
		<tag k="ssr:date" v="2016-05-10" />
		<tag k="ssr:gruppe" v="sjøbunn" />
		<tag k="ssr:hovedgruppe" v="sjø" />
		<tag k="ssr:stedsnr" v="662997" />
		<tag k="ssr:type" v="gass-OljefeltISjø" />
	</node>
	<node lat="60.523611107240576" lon="3.2972222147813435" id="-680">
		<tag k="fixme" v="multiple name tags, choose one and add the other to alt_name" />
		<tag k="name" v="Bressay East Ground;Bressay East Ground" />
		<tag k="ssr:date" v="2016-05-10" />
		<tag k="ssr:gruppe" v="sjøbunn" />
		<tag k="ssr:hovedgruppe" v="sjø" />
		<tag k="ssr:stedsnr" v="664788" />
		<tag k="ssr:type" v="bankeISjø" />
	</node>
	<node lat="56.737499999794146" lon="3.83333333703502" id="-687">
		<tag k="fixme" v="multiple name tags, choose one and add the other to alt_name" />
		<tag k="name" v="Inner Shoal;Inner Shoal" />
		<tag k="ssr:date" v="2016-05-10" />
		<tag k="ssr:gruppe" v="sjøbunn" />
		<tag k="ssr:hovedgruppe" v="sjø" />
		<tag k="ssr:stedsnr" v="667822" />
		<tag k="ssr:type" v="bankeISjø" />
	</node>
	<node lat="71.95773330269306" lon="33.177075357442995" id="-703">
		<tag k="fixme" v="multiple name tags, choose one and add the other to alt_name" />
		<tag k="name" v="Tiddlybanken;Tiddlybanken" />
		<tag k="ssr:date" v="2016-05-11" />
		<tag k="ssr:gruppe" v="sjøbunn" />
		<tag k="ssr:hovedgruppe" v="sjø" />
		<tag k="ssr:stedsnr" v="723048" />
		<tag k="ssr:type" v="bankeISjø" />
	</node>
	<node lat="61.274900002561104" lon="1.5823527802676072" id="-704">
		<tag k="fixme" v="multiple name tags, choose one and add the other to alt_name" />
		<tag k="name" v="Dunlin;Dunlin" />
		<tag k="name:en" v="Dunlin;Dunlin" />
		<tag k="ssr:date" v="2016-05-11" />
		<tag k="ssr:gruppe" v="sjøbunn" />
		<tag k="ssr:hovedgruppe" v="sjø" />
		<tag k="ssr:stedsnr" v="723987" />
		<tag k="ssr:type" v="gass-OljefeltISjø" />
	</node>
	<node lat="64.70694444422215" lon="7.679166659293319" id="-705">
		<tag k="fixme" v="multiple name tags, choose one and add the other to alt_name" />
		<tag k="name" v="Mikkel;Mikkel" />
		<tag k="ssr:date" v="2016-05-11" />
		<tag k="ssr:gruppe" v="sjøbunn" />
		<tag k="ssr:hovedgruppe" v="sjø" />
		<tag k="ssr:stedsnr" v="725230" />
		<tag k="ssr:type" v="gass-OljefeltISjø" />
	</node>
	<node lat="69.83750010884313" lon="31.5583303256016" id="-707">
		<tag k="fixme" v="multiple name tags, choose one and add the other to alt_name" />
		<tag k="name" v="Store Henøy;Store Henøy" />
		<tag k="ssr:date" v="2016-05-11" />
		<tag k="ssr:gruppe" v="navigasjon" />
		<tag k="ssr:hovedgruppe" v="infrastruktur" />
		<tag k="ssr:stedsnr" v="728571" />
		<tag k="ssr:type" v="fyrlykt" />
	</node>
	<node lat="56.83333333360343" lon="6.266666664613933" id="-708">
		<tag k="fixme" v="multiple name tags, choose one and add the other to alt_name" />
		<tag k="name" v="Lille Fisker Banke;Lille Fisker Banke" />
		<tag k="name:da" v="Lille Fisker Banke;Lille Fisker Banke" />
		<tag k="ssr:date" v="2016-05-11" />
		<tag k="ssr:gruppe" v="sjøbunn" />
		<tag k="ssr:hovedgruppe" v="sjø" />
		<tag k="ssr:stedsnr" v="728734" />
		<tag k="ssr:type" v="bankeISjø" />
	</node>
	<node lat="58.75694444563486" lon="10.995833325276184" id="-711">
		<tag k="fixme" v="multiple name tags, choose one and add the other to alt_name" />
		<tag k="name" v="Ramskär;Ramskär" />
		<tag k="name:sv" v="Ramskär;Ramskär" />
		<tag k="ssr:date" v="2016-05-11" />
		<tag k="ssr:gruppe" v="navigasjon" />
		<tag k="ssr:hovedgruppe" v="infrastruktur" />
		<tag k="ssr:stedsnr" v="728754" />
		<tag k="ssr:type" v="fyrstasjon" />
	</node>
	<node lat="58.045833336872406" lon="1.404166659917368" id="-713">
		<tag k="fixme" v="multiple name tags, choose one and add the other to alt_name" />
		<tag k="name" v="Andrew;Andrew" />
		<tag k="name:en" v="Andrew;Andrew" />
		<tag k="ssr:date" v="2016-05-11" />
		<tag k="ssr:gruppe" v="sjøbunn" />
		<tag k="ssr:hovedgruppe" v="sjø" />
		<tag k="ssr:stedsnr" v="728830" />
		<tag k="ssr:type" v="gass-OljefeltISjø" />
	</node>
	<node lat="62.52176666654029" lon="3.7062000090362193" id="-718">
		<tag k="fixme" v="multiple name tags, choose one and add the other to alt_name" />
		<tag k="name" v="Aktivneset;Aktivneset" />
		<tag k="ssr:date" v="2016-05-11" />
		<tag k="ssr:gruppe" v="sjøbunn" />
		<tag k="ssr:hovedgruppe" v="sjø" />
		<tag k="ssr:stedsnr" v="767414" />
		<tag k="ssr:type" v="ryggISjø" />
	</node>
	<node lat="59.261111115127754" lon="2.4000000000740127" id="-723">
		<tag k="fixme" v="multiple name tags, choose one and add the other to alt_name" />
		<tag k="name" v="Ringhorne;Ringhorne" />
		<tag k="ssr:date" v="2016-05-11" />
		<tag k="ssr:gruppe" v="sjøbunn" />
		<tag k="ssr:hovedgruppe" v="sjø" />
		<tag k="ssr:stedsnr" v="768794" />
		<tag k="ssr:type" v="gass-OljefeltISjø" />
	</node>
	<node lat="60.544444440129716" lon="3.0499999960524087" id="-724">
		<tag k="fixme" v="multiple name tags, choose one and add the other to alt_name" />
		<tag k="name" v="Brage;Brage" />
		<tag k="ssr:date" v="2016-05-11" />
		<tag k="ssr:gruppe" v="sjøbunn" />
		<tag k="ssr:hovedgruppe" v="sjø" />
		<tag k="ssr:stedsnr" v="768800" />
		<tag k="ssr:type" v="gass-OljefeltISjø" />
	</node>
	<node lat="66.02542222418033" lon="8.07954445116862" id="-727">
		<tag k="fixme" v="multiple name tags, choose one and add the other to alt_name" />
		<tag k="name" v="Norne;Norne" />
		<tag k="ssr:date" v="2016-05-11" />
		<tag k="ssr:gruppe" v="sjøbunn" />
		<tag k="ssr:hovedgruppe" v="sjø" />
		<tag k="ssr:stedsnr" v="768881" />
		<tag k="ssr:type" v="gass-OljefeltISjø" />
	</node>
	<node lat="65.32401111512854" lon="7.301861119050248" id="-728">
		<tag k="fixme" v="multiple name tags, choose one and add the other to alt_name" />
		<tag k="name" v="Heidrun;Heidrun" />
		<tag k="ssr:date" v="2016-05-11" />
		<tag k="ssr:gruppe" v="sjøbunn" />
		<tag k="ssr:hovedgruppe" v="sjø" />
		<tag k="ssr:stedsnr" v="768883" />
		<tag k="ssr:type" v="gass-OljefeltISjø" />
	</node>
	<node lat="69.58453628124263" lon="42.38980734399212" id="-729">
		<tag k="fixme" v="multiple name tags, choose one and add the other to alt_name" />
		<tag k="name" v="Kaninbanken;Kaninbanken" />
		<tag k="ssr:date" v="2016-05-11" />
		<tag k="ssr:gruppe" v="sjøbunn" />
		<tag k="ssr:hovedgruppe" v="sjø" />
		<tag k="ssr:stedsnr" v="768975" />
		<tag k="ssr:type" v="bankeISjø" />
	</node>
	<node lat="69.07135360359128" lon="36.37108796015364" id="-730">
		<tag k="fixme" v="multiple name tags, choose one and add the other to alt_name" />
		<tag k="name" v="Ostrov Bolshoy Oleni;Ostrov Bolshoy Oleni" />
		<tag k="name:ru" v="Ostrov Bolshoy Oleni;Ostrov Bolshoy Oleni" />
		<tag k="ssr:date" v="2016-05-11" />
		<tag k="ssr:gruppe" v="navigasjon" />
		<tag k="ssr:hovedgruppe" v="infrastruktur" />
		<tag k="ssr:stedsnr" v="769097" />
		<tag k="ssr:type" v="fyrlykt" />
	</node>
	<node lat="71.49282777904203" lon="22.810469404411403" id="-740">
		<tag k="fixme" v="multiple name tags, choose one and add the other to alt_name" />
		<tag k="name" v="Ingøydjupet;Ingøydjupet" />
		<tag k="ssr:date" v="2016-05-11" />
		<tag k="ssr:gruppe" v="sjøbunn" />
		<tag k="ssr:hovedgruppe" v="sjø" />
		<tag k="ssr:stedsnr" v="769573" />
		<tag k="ssr:type" v="havdyp" />
	</node>
	<node lat="65.28133115035277" lon="-13.586420478438935" id="-742">
		<tag k="fixme" v="multiple name tags, choose one and add the other to alt_name" />
		<tag k="name" v="Dalatangi;Dalatangi" />
		<tag k="name:is" v="Dalatangi;Dalatangi" />
		<tag k="ssr:date" v="2016-05-11" />
		<tag k="ssr:gruppe" v="navigasjon" />
		<tag k="ssr:hovedgruppe" v="infrastruktur" />
		<tag k="ssr:stedsnr" v="769864" />
		<tag k="ssr:type" v="fyrstasjon" />
	</node>
	<node lat="62.72916666412472" lon="5.400000000514785" id="-747">
		<tag k="fixme" v="multiple name tags, choose one and add the other to alt_name" />
		<tag k="name" v="Jonseta;Jonseta" />
		<tag k="ssr:date" v="2016-05-11" />
		<tag k="ssr:gruppe" v="sjøbunn" />
		<tag k="ssr:hovedgruppe" v="sjø" />
		<tag k="ssr:stedsnr" v="770612" />
		<tag k="ssr:type" v="eggISjø" />
	</node>
	<node lat="63.1733333350732" lon="5.375000001817508" id="-748">
		<tag k="fixme" v="multiple name tags, choose one and add the other to alt_name" />
		<tag k="name" v="Bukta;Bukta" />
		<tag k="ssr:date" v="2016-05-11" />
		<tag k="ssr:gruppe" v="farvann" />
		<tag k="ssr:hovedgruppe" v="sjø" />
		<tag k="ssr:stedsnr" v="770621" />
		<tag k="ssr:type" v="fiskeplassISjø" />
	</node>
	<node lat="63.16666666264546" lon="6.058333325816194" id="-749">
		<tag k="fixme" v="multiple name tags, choose one and add the other to alt_name" />
		<tag k="name" v="Onaskallen;Onaskallen" />
		<tag k="ssr:date" v="2016-05-11" />
		<tag k="ssr:gruppe" v="sjøbunn" />
		<tag k="ssr:hovedgruppe" v="sjø" />
		<tag k="ssr:stedsnr" v="770719" />
		<tag k="ssr:type" v="bakketoppISjø" />
	</node>
	<node lat="64.26340000005075" lon="7.20626945118244" id="-752">
		<tag k="fixme" v="multiple name tags, choose one and add the other to alt_name" />
		<tag k="name" v="Njord;Njord" />
		<tag k="ssr:date" v="2016-05-11" />
		<tag k="ssr:gruppe" v="sjøbunn" />
		<tag k="ssr:hovedgruppe" v="sjø" />
		<tag k="ssr:stedsnr" v="784696" />
		<tag k="ssr:type" v="gass-OljefeltISjø" />
	</node>
	<node lat="59.56806666889805" lon="1.9925916626272457" id="-753">
		<tag k="fixme" v="multiple name tags, choose one and add the other to alt_name" />
		<tag k="name" v="Alvheim;Alvheim" />
		<tag k="ssr:date" v="2016-05-11" />
		<tag k="ssr:gruppe" v="sjøbunn" />
		<tag k="ssr:hovedgruppe" v="sjø" />
		<tag k="ssr:stedsnr" v="784950" />
		<tag k="ssr:type" v="gass-OljefeltISjø" />
	</node>
	<node lat="60.805555557315735" lon="1.4500277729189581" id="-756">
		<tag k="fixme" v="multiple name tags, choose one and add the other to alt_name" />
		<tag k="name" v="Ninian Southern;Ninian Southern" />
		<tag k="ssr:date" v="2016-05-11" />
		<tag k="ssr:gruppe" v="sjøbunn" />
		<tag k="ssr:hovedgruppe" v="sjø" />
		<tag k="ssr:stedsnr" v="967729" />
		<tag k="ssr:type" v="gass-OljefeltISjø" />
	</node>
	<node lat="59.358888892268986" lon="1.7194444386912757" id="-758">
		<tag k="fixme" v="multiple name tags, choose one and add the other to alt_name" />
		<tag k="name" v="Gryphon;Gryphon" />
		<tag k="ssr:date" v="2016-05-11" />
		<tag k="ssr:gruppe" v="sjøbunn" />
		<tag k="ssr:hovedgruppe" v="sjø" />
		<tag k="ssr:stedsnr" v="786784" />
		<tag k="ssr:type" v="gass-OljefeltISjø" />
	</node>
	<node lat="57.308333337170545" lon="10.799999999178178" id="-767">
		<tag k="fixme" v="multiple name tags, choose one and add the other to alt_name" />
		<tag k="name" v="Læsø NW-rev;Læsø NW-rev" />
		<tag k="name:da" v="Læsø NW-rev;Læsø NW-rev" />
		<tag k="ssr:date" v="2016-05-11" />
		<tag k="ssr:gruppe" v="sjøbunn" />
		<tag k="ssr:hovedgruppe" v="sjø" />
		<tag k="ssr:stedsnr" v="788767" />
		<tag k="ssr:type" v="bankeISjø" />
	</node>
	<node lat="58.09361110740791" lon="11.333333339436756" id="-769">
		<tag k="fixme" v="multiple name tags, choose one and add the other to alt_name" />
		<tag k="name" v="Måseskär;Måseskär" />
		<tag k="name:sv" v="Måseskär;Måseskär" />
		<tag k="ssr:date" v="2016-05-11" />
		<tag k="ssr:gruppe" v="navigasjon" />
		<tag k="ssr:hovedgruppe" v="infrastruktur" />
		<tag k="ssr:stedsnr" v="788741" />
		<tag k="ssr:type" v="fyrstasjon" />
	</node>
	<node lat="56.37499999852852" lon="3.2624999995386057" id="-775">
		<tag k="fixme" v="multiple name tags, choose one and add the other to alt_name" />
		<tag k="name" v="Eldfisk;Eldfisk" />
		<tag k="ssr:date" v="2016-05-11" />
		<tag k="ssr:gruppe" v="sjøbunn" />
		<tag k="ssr:hovedgruppe" v="sjø" />
		<tag k="ssr:stedsnr" v="788837" />
		<tag k="ssr:type" v="gass-OljefeltISjø" />
	</node>
	<node lat="56.34583332877912" lon="4.270833327478796" id="-777">
		<tag k="fixme" v="multiple name tags, choose one and add the other to alt_name" />
		<tag k="name" v="Harald;Harald" />
		<tag k="name:da" v="Harald;Harald" />
		<tag k="ssr:date" v="2016-05-11" />
		<tag k="ssr:gruppe" v="sjøbunn" />
		<tag k="ssr:hovedgruppe" v="sjø" />
		<tag k="ssr:stedsnr" v="788856" />
		<tag k="ssr:type" v="gass-OljefeltISjø" />
	</node>
	<node lat="57.2166666700238" lon="11.829166668606922" id="-778">
		<tag k="fixme" v="multiple name tags, choose one and add the other to alt_name" />
		<tag k="name" v="Fladen;Fladen" />
		<tag k="name:sv" v="Fladen;Fladen" />
		<tag k="ssr:date" v="2016-05-11" />
		<tag k="ssr:gruppe" v="navigasjon" />
		<tag k="ssr:hovedgruppe" v="infrastruktur" />
		<tag k="ssr:stedsnr" v="788865" />
		<tag k="ssr:type" v="fyrstasjon" />
	</node>
	<node lat="69.28517061381037" lon="38.01077596581281" id="-780">
		<tag k="fixme" v="multiple name tags, choose one and add the other to alt_name" />
		<tag k="name" v="Syddjupet;Syddjupet" />
		<tag k="ssr:date" v="2016-05-11" />
		<tag k="ssr:gruppe" v="sjøbunn" />
		<tag k="ssr:hovedgruppe" v="sjø" />
		<tag k="ssr:stedsnr" v="830126" />
		<tag k="ssr:type" v="havdyp" />
	</node>
	<node lat="69.20293396726333" lon="35.81566063598567" id="-781">
		<tag k="fixme" v="multiple name tags, choose one and add the other to alt_name" />
		<tag k="name" v="Ostrova Voroni Ludki;Ostrova Voroni Ludki" />
		<tag k="name:ru" v="Ostrova Voroni Ludki;Ostrova Voroni Ludki" />
		<tag k="ssr:date" v="2016-05-11" />
		<tag k="ssr:gruppe" v="navigasjon" />
		<tag k="ssr:hovedgruppe" v="infrastruktur" />
		<tag k="ssr:stedsnr" v="830092" />
		<tag k="ssr:type" v="fyrlykt" />
	</node>
	<node lat="60.485558335096364" lon="-1.6241527581552981" id="-785">
		<tag k="fixme" v="multiple name tags, choose one and add the other to alt_name" />
		<tag k="name" v="Esha Ness;Esha Ness" />
		<tag k="name:en" v="Esha Ness;Esha Ness" />
		<tag k="ssr:date" v="2016-05-11" />
		<tag k="ssr:gruppe" v="navigasjon" />
		<tag k="ssr:hovedgruppe" v="infrastruktur" />
		<tag k="ssr:stedsnr" v="830212" />
		<tag k="ssr:type" v="fyrstasjon" />
	</node>
	<node lat="70.91661388826788" lon="21.28402774680632" id="-793">
		<tag k="fixme" v="multiple name tags, choose one and add the other to alt_name" />
		<tag k="name" v="Nygrunnen;Nygrunnen" />
		<tag k="ssr:date" v="2016-05-11" />
		<tag k="ssr:gruppe" v="sjøbunn" />
		<tag k="ssr:hovedgruppe" v="sjø" />
		<tag k="ssr:stedsnr" v="830658" />
		<tag k="ssr:type" v="bankeISjø" />
	</node>
	<node lat="69.75540833414402" lon="16.974466673655535" id="-795">
		<tag k="fixme" v="multiple name tags, choose one and add the other to alt_name" />
		<tag k="name" v="Grimsbakken;Grimsbakken" />
		<tag k="ssr:date" v="2016-05-11" />
		<tag k="ssr:gruppe" v="sjøbunn" />
		<tag k="ssr:hovedgruppe" v="sjø" />
		<tag k="ssr:stedsnr" v="830693" />
		<tag k="ssr:type" v="bakkeISjø" />
	</node>
	<node lat="63.57627465089477" lon="-16.25611335049642" id="-797">
		<tag k="fixme" v="multiple name tags, choose one and add the other to alt_name" />
		<tag k="name" v="Øræfagrunn;Øræfagrunn" />
		<tag k="name:is" v="Øræfagrunn;Øræfagrunn" />
		<tag k="ssr:date" v="2016-05-11" />
		<tag k="ssr:gruppe" v="sjøbunn" />
		<tag k="ssr:hovedgruppe" v="sjø" />
		<tag k="ssr:stedsnr" v="830912" />
		<tag k="ssr:type" v="bankeISjø" />
	</node>
	<node lat="57.58333332901496" lon="4.183333330346402" id="-799">
		<tag k="fixme" v="multiple name tags, choose one and add the other to alt_name" />
		<tag k="name" v="Klondyke (Engelske);Klondyke (Engelske)" />
		<tag k="ssr:date" v="2016-05-11" />
		<tag k="ssr:gruppe" v="sjøbunn" />
		<tag k="ssr:hovedgruppe" v="sjø" />
		<tag k="ssr:stedsnr" v="905119" />
		<tag k="ssr:type" v="bankeISjø" />
	</node>
	<node lat="61.52638888668415" lon="2.2138888965084345" id="-801">
		<tag k="fixme" v="multiple name tags, choose one and add the other to alt_name" />
		<tag k="name" v="Snorre B;Snorre B" />
		<tag k="ssr:date" v="2016-05-11" />
		<tag k="ssr:gruppe" v="sjøbunn" />
		<tag k="ssr:hovedgruppe" v="sjø" />
		<tag k="ssr:stedsnr" v="907715" />
		<tag k="ssr:type" v="gass-OljefeltISjø" />
	</node>
	<node lat="56.483333333825975" lon="4.912500005333588" id="-803">
		<tag k="fixme" v="multiple name tags, choose one and add the other to alt_name" />
		<tag k="name" v="Siri;Siri" />
		<tag k="name:da" v="Siri;Siri" />
		<tag k="ssr:date" v="2016-05-11" />
		<tag k="ssr:gruppe" v="sjøbunn" />
		<tag k="ssr:hovedgruppe" v="sjø" />
		<tag k="ssr:stedsnr" v="910873" />
		<tag k="ssr:type" v="gass-OljefeltISjø" />
	</node>
	<node lat="56.79166666732177" lon="11.73333333100189" id="-804">
		<tag k="fixme" v="multiple name tags, choose one and add the other to alt_name" />
		<tag k="name" v="Fyrbanken;Fyrbanken" />
		<tag k="name:da" v="Fyrbanken;Fyrbanken" />
		<tag k="ssr:date" v="2016-05-11" />
		<tag k="ssr:gruppe" v="sjøbunn" />
		<tag k="ssr:hovedgruppe" v="sjø" />
		<tag k="ssr:stedsnr" v="910877" />
		<tag k="ssr:type" v="bankeISjø" />
	</node>
	<node lat="57.499999998177785" lon="10.30000000107082" id="-805">
		<tag k="fixme" v="multiple name tags, choose one and add the other to alt_name" />
		<tag k="name" v="Tolne Aero;Tolne Aero" />
		<tag k="name:da" v="Tolne Aero;Tolne Aero" />
		<tag k="ssr:date" v="2016-05-11" />
		<tag k="ssr:gruppe" v="navigasjon" />
		<tag k="ssr:hovedgruppe" v="infrastruktur" />
		<tag k="ssr:stedsnr" v="910753" />
		<tag k="ssr:type" v="fyrstasjon" />
	</node>
	<node lat="61.03807238250146" lon="-8.856373483512733" id="-818">
		<tag k="fixme" v="multiple name tags, choose one and add the other to alt_name" />
		<tag k="name" v="Færøybanken;Færøybanken" />
		<tag k="ssr:date" v="2016-05-11" />
		<tag k="ssr:gruppe" v="sjøbunn" />
		<tag k="ssr:hovedgruppe" v="sjø" />
		<tag k="ssr:stedsnr" v="951133" />
		<tag k="ssr:type" v="bankeISjø" />
	</node>
	<node lat="58.96777777339806" lon="3.297222223098944" id="-832">
		<tag k="fixme" v="multiple name tags, choose one and add the other to alt_name" />
		<tag k="name" v="Sirahola;Sirahola" />
		<tag k="ssr:date" v="2016-05-11" />
		<tag k="ssr:gruppe" v="sjøbunn" />
		<tag k="ssr:hovedgruppe" v="sjø" />
		<tag k="ssr:stedsnr" v="951802" />
		<tag k="ssr:type" v="søkkISjø" />
	</node>
	<node lat="61.35029166477203" lon="1.1486722169740882" id="-833">
		<tag k="fixme" v="multiple name tags, choose one and add the other to alt_name" />
		<tag k="name" v="Eider;Eider" />
		<tag k="name:en" v="Eider;Eider" />
		<tag k="ssr:date" v="2016-05-11" />
		<tag k="ssr:gruppe" v="sjøbunn" />
		<tag k="ssr:hovedgruppe" v="sjø" />
		<tag k="ssr:stedsnr" v="951868" />
		<tag k="ssr:type" v="gass-OljefeltISjø" />
	</node>
	<node lat="57.10000000213966" lon="7.54999999977097" id="-837">
		<tag k="fixme" v="multiple name tags, choose one and add the other to alt_name" />
		<tag k="name" v="Jyske Rev;Jyske Rev" />
		<tag k="name:da" v="Jyske Rev;Jyske Rev" />
		<tag k="ssr:date" v="2016-05-11" />
		<tag k="ssr:gruppe" v="sjøbunn" />
		<tag k="ssr:hovedgruppe" v="sjø" />
		<tag k="ssr:stedsnr" v="951978" />
		<tag k="ssr:type" v="bankeISjø" />
	</node>
	<node lat="69.73176408082291" lon="33.0968530887324" id="-839">
		<tag k="fixme" v="multiple name tags, choose one and add the other to alt_name" />
		<tag k="name" v="Mys Voronkovskij;Mys Voronkovskij" />
		<tag k="name:ru" v="Mys Voronkovskij;Mys Voronkovskij" />
		<tag k="ssr:date" v="2016-05-11" />
		<tag k="ssr:gruppe" v="navigasjon" />
		<tag k="ssr:hovedgruppe" v="infrastruktur" />
		<tag k="ssr:stedsnr" v="966066" />
		<tag k="ssr:type" v="fyrlykt" />
	</node>
	<node lat="70.01350277911645" lon="17.576850001105917" id="-841">
		<tag k="fixme" v="multiple name tags, choose one and add the other to alt_name" />
		<tag k="name" v="Malangsgrunnen;Malangsgrunnen" />
		<tag k="ssr:date" v="2019-09-12" />
		<tag k="ssr:gruppe" v="sjøbunn" />
		<tag k="ssr:hovedgruppe" v="sjø" />
		<tag k="ssr:stedsnr" v="966399" />
		<tag k="ssr:type" v="bankeISjø" />
	</node>
	<node lat="61.36176944307527" lon="1.5639777863605226" id="-842">
		<tag k="fixme" v="multiple name tags, choose one and add the other to alt_name" />
		<tag k="name" v="Thistle;Thistle" />
		<tag k="name:en" v="Thistle;Thistle" />
		<tag k="ssr:date" v="2016-05-11" />
		<tag k="ssr:gruppe" v="sjøbunn" />
		<tag k="ssr:hovedgruppe" v="sjø" />
		<tag k="ssr:stedsnr" v="966996" />
		<tag k="ssr:type" v="gass-OljefeltISjø" />
	</node>
	<node lat="60.599999996313606" lon="1.8388888958999972" id="-843">
		<tag k="fixme" v="multiple name tags, choose one and add the other to alt_name" />
		<tag k="name" v="Ellon &amp; Grant;Ellon &amp; Grant" />
		<tag k="ssr:date" v="2016-05-11" />
		<tag k="ssr:gruppe" v="sjøbunn" />
		<tag k="ssr:hovedgruppe" v="sjø" />
		<tag k="ssr:stedsnr" v="969042" />
		<tag k="ssr:type" v="gass-OljefeltISjø" />
	</node>
	<node lat="69.45000008339916" lon="30.416664466131593" id="-847">
		<tag k="fixme" v="multiple name tags, choose one and add the other to alt_name" />
		<tag k="name" v="Russia;Russia" />
		<tag k="name:en" v="Russia;Russia" />
		<tag k="ssr:date" v="2016-05-11" />
		<tag k="ssr:gruppe" v="administrativeIndelinger" />
		<tag k="ssr:hovedgruppe" v="offentligAdministrasjon" />
		<tag k="ssr:stedsnr" v="970133" />
		<tag k="ssr:type" v="nasjon" />
	</node>
	<node lat="57.35972222478943" lon="10.924999999941761" id="-849">
		<tag k="fixme" v="multiple name tags, choose one and add the other to alt_name" />
		<tag k="name" v="Nordre Rønner;Nordre Rønner" />
		<tag k="name:da" v="Nordre Rønner;Nordre Rønner" />
		<tag k="ssr:date" v="2016-05-11" />
		<tag k="ssr:gruppe" v="navigasjon" />
		<tag k="ssr:hovedgruppe" v="infrastruktur" />
		<tag k="ssr:stedsnr" v="970412" />
		<tag k="ssr:type" v="fyrstasjon" />
	</node>
	<node lat="58.33555555275121" lon="11.216666671628788" id="-851">
		<tag k="fixme" v="multiple name tags, choose one and add the other to alt_name" />
		<tag k="name" v="Hållö;Hållö" />
		<tag k="name:sv" v="Hållö;Hållö" />
		<tag k="ssr:date" v="2016-05-11" />
		<tag k="ssr:gruppe" v="navigasjon" />
		<tag k="ssr:hovedgruppe" v="infrastruktur" />
		<tag k="ssr:stedsnr" v="970384" />
		<tag k="ssr:type" v="fyrstasjon" />
	</node>
	<node lat="58.83194444833849" lon="10.99166667465792" id="-854">
		<tag k="fixme" v="multiple name tags, choose one and add the other to alt_name" />
		<tag k="name" v="Ursholmen;Ursholmen" />
		<tag k="name:sv" v="Ursholmen;Ursholmen" />
		<tag k="ssr:date" v="2016-05-11" />
		<tag k="ssr:gruppe" v="navigasjon" />
		<tag k="ssr:hovedgruppe" v="infrastruktur" />
		<tag k="ssr:stedsnr" v="970432" />
		<tag k="ssr:type" v="fyrstasjon" />
	</node>
	<node lat="56.980555557645616" lon="2.958333338133532" id="-856">
		<tag k="fixme" v="multiple name tags, choose one and add the other to alt_name" />
		<tag k="name" v="Tambar;Tambar" />
		<tag k="ssr:date" v="2016-05-11" />
		<tag k="ssr:gruppe" v="sjøbunn" />
		<tag k="ssr:hovedgruppe" v="sjø" />
		<tag k="ssr:stedsnr" v="970529" />
		<tag k="ssr:type" v="gass-OljefeltISjø" />
	</node>
	<node lat="56.5458333309711" lon="3.216666674585621" id="-857">
		<tag k="fixme" v="multiple name tags, choose one and add the other to alt_name" />
		<tag k="name" v="Ekofisk;Ekofisk" />
		<tag k="ssr:date" v="2016-05-11" />
		<tag k="ssr:gruppe" v="sjøbunn" />
		<tag k="ssr:hovedgruppe" v="sjø" />
		<tag k="ssr:stedsnr" v="970533" />
		<tag k="ssr:type" v="gass-OljefeltISjø" />
	</node>
	<node lat="56.095833332332454" lon="4.216666668156612" id="-859">
		<tag k="fixme" v="multiple name tags, choose one and add the other to alt_name" />
		<tag k="name" v="Syd Arne;Syd Arne" />
		<tag k="name:da" v="Syd Arne;Syd Arne" />
		<tag k="ssr:date" v="2016-05-11" />
		<tag k="ssr:gruppe" v="sjøbunn" />
		<tag k="ssr:hovedgruppe" v="sjø" />
		<tag k="ssr:stedsnr" v="970553" />
		<tag k="ssr:type" v="gass-OljefeltISjø" />
	</node>
	<node lat="56.1791666684059" lon="4.174999996114039" id="-860">
		<tag k="fixme" v="multiple name tags, choose one and add the other to alt_name" />
		<tag k="name" v="Svend;Svend" />
		<tag k="name:da" v="Svend;Svend" />
		<tag k="ssr:date" v="2016-05-11" />
		<tag k="ssr:gruppe" v="sjøbunn" />
		<tag k="ssr:hovedgruppe" v="sjø" />
		<tag k="ssr:stedsnr" v="970555" />
		<tag k="ssr:type" v="gass-OljefeltISjø" />
	</node>
</osm>
