<?xml version="1.0" encoding="UTF-8"?>
<osm version="0.6" generator="osmapis">
	<node lat="61.19099152631033" lon="7.04978566451386" id="-74433">
		<tag k="alt_name" v="Vineslykti" />
		<tag k="name" v="Vines lanterne" />
		<tag k="ssr:date" v="2020-09-01" />
		<tag k="ssr:gruppe" v="navigasjon" />
		<tag k="ssr:hovedgruppe" v="infrastruktur" />
		<tag k="ssr:stedsnr" v="252043" />
		<tag k="ssr:type" v="lanterne" />
	</node>
	<node lat="61.1823404619322" lon="6.774862926768364" id="-74526">
		<tag k="name" v="Valbrekkevegen" />
		<tag k="ssr:date" v="2019-12-27" />
		<tag k="ssr:gruppe" v="veg" />
		<tag k="ssr:hovedgruppe" v="infrastruktur" />
		<tag k="ssr:stedsnr" v="146090" />
		<tag k="ssr:type" v="adressenavn" />
	</node>
	<node lat="61.21223376453336" lon="6.567890634100268" id="-74598">
		<tag k="alt_name" v="Veganes;Veganes lykt;Veganeset" />
		<tag k="name" v="Veganeset lykt" />
		<tag k="ssr:date" v="2019-12-27" />
		<tag k="ssr:gruppe" v="navigasjon" />
		<tag k="ssr:hovedgruppe" v="infrastruktur" />
		<tag k="ssr:stedsnr" v="191650" />
		<tag k="ssr:type" v="fyrlykt" />
	</node>
	<node lat="61.14101066620397" lon="6.926909902128719" id="-74933">
		<tag k="name" v="Meisaneset lanterne" />
		<tag k="old_name" v="Meisuneset" />
		<tag k="ssr:date" v="2020-09-01" />
		<tag k="ssr:gruppe" v="navigasjon" />
		<tag k="ssr:hovedgruppe" v="infrastruktur" />
		<tag k="ssr:stedsnr" v="494866" />
		<tag k="ssr:type" v="lanterne" />
	</node>
	<node lat="61.157499999661525" lon="6.995947214958785" id="-75583">
		<tag k="alt_name" v="Nordnes;Nordnes lykt" />
		<tag k="name" v="Nornes lykt" />
		<tag k="ssr:date" v="2019-12-27" />
		<tag k="ssr:gruppe" v="navigasjon" />
		<tag k="ssr:hovedgruppe" v="infrastruktur" />
		<tag k="ssr:stedsnr" v="722440" />
		<tag k="ssr:type" v="fyrlykt" />
	</node>
	<node lat="61.1098709416241" lon="6.378105324126816" id="-75756">
		<tag k="alt_name" v="Sæleneset lykt" />
		<tag k="name" v="Sæleneset" />
		<tag k="ssr:date" v="2020-09-08" />
		<tag k="ssr:gruppe" v="navigasjon" />
		<tag k="ssr:hovedgruppe" v="infrastruktur" />
		<tag k="ssr:stedsnr" v="919634" />
		<tag k="ssr:type" v="fyrlykt" />
	</node>
	<node lat="61.193236115165334" lon="7.2231611090745655" id="-75943">
		<tag k="name" v="Myrane" />
		<tag k="ssr:date" v="2019-12-27" />
		<tag k="ssr:gruppe" v="veg" />
		<tag k="ssr:hovedgruppe" v="infrastruktur" />
		<tag k="ssr:stedsnr" v="931598" />
		<tag k="ssr:type" v="adressenavn" />
	</node>
	<node lat="61.183315302576524" lon="7.249891204859523" id="-75966">
		<tag k="name" v="Nedre Amla" />
		<tag k="ssr:date" v="2019-12-27" />
		<tag k="ssr:gruppe" v="veg" />
		<tag k="ssr:hovedgruppe" v="infrastruktur" />
		<tag k="ssr:stedsnr" v="982842" />
		<tag k="ssr:type" v="adressenavn" />
	</node>
	<node lat="61.26701238787561" lon="7.160834720673609" id="-75969">
		<tag k="name" v="Steigavegen" />
		<tag k="ssr:date" v="2019-12-27" />
		<tag k="ssr:gruppe" v="veg" />
		<tag k="ssr:hovedgruppe" v="infrastruktur" />
		<tag k="ssr:stedsnr" v="982886" />
		<tag k="ssr:type" v="adressenavn" />
	</node>
	<node lat="61.269813875499345" lon="7.162395722898571" id="-75970">
		<tag k="name" v="Årøy" />
		<tag k="ssr:date" v="2019-12-27" />
		<tag k="ssr:gruppe" v="veg" />
		<tag k="ssr:hovedgruppe" v="infrastruktur" />
		<tag k="ssr:stedsnr" v="982887" />
		<tag k="ssr:type" v="adressenavn" />
	</node>
	<node lat="61.26382378849025" lon="7.155170168747494" id="-75971">
		<tag k="name" v="Englandsvegen" />
		<tag k="ssr:date" v="2019-12-27" />
		<tag k="ssr:gruppe" v="veg" />
		<tag k="ssr:hovedgruppe" v="infrastruktur" />
		<tag k="ssr:stedsnr" v="982888" />
		<tag k="ssr:type" v="adressenavn" />
	</node>
	<node lat="61.26582587362475" lon="7.139943310092946" id="-75972">
		<tag k="name" v="Hovdane" />
		<tag k="ssr:date" v="2019-12-27" />
		<tag k="ssr:gruppe" v="veg" />
		<tag k="ssr:hovedgruppe" v="infrastruktur" />
		<tag k="ssr:stedsnr" v="982889" />
		<tag k="ssr:type" v="adressenavn" />
	</node>
	<node lat="61.231319074058995" lon="7.119185526024474" id="-75973">
		<tag k="name" v="Mannhellervegen" />
		<tag k="ssr:date" v="2019-12-27" />
		<tag k="ssr:gruppe" v="veg" />
		<tag k="ssr:hovedgruppe" v="infrastruktur" />
		<tag k="ssr:stedsnr" v="982890" />
		<tag k="ssr:type" v="adressenavn" />
	</node>
	<node lat="61.24765661746655" lon="7.13895726918756" id="-75974">
		<tag k="name" v="Einehaugvegen" />
		<tag k="ssr:date" v="2019-12-27" />
		<tag k="ssr:gruppe" v="veg" />
		<tag k="ssr:hovedgruppe" v="infrastruktur" />
		<tag k="ssr:stedsnr" v="982891" />
		<tag k="ssr:type" v="adressenavn" />
	</node>
	<node lat="61.15006119949621" lon="6.992517472421151" id="-75975">
		<tag k="name" v="Fimreitevegen" />
		<tag k="ssr:date" v="2019-12-27" />
		<tag k="ssr:gruppe" v="veg" />
		<tag k="ssr:hovedgruppe" v="infrastruktur" />
		<tag k="ssr:stedsnr" v="982892" />
		<tag k="ssr:type" v="adressenavn" />
	</node>
	<node lat="61.20273013125295" lon="7.178372006037162" id="-75976">
		<tag k="name" v="Eidsgrendi" />
		<tag k="ssr:date" v="2019-12-27" />
		<tag k="ssr:gruppe" v="veg" />
		<tag k="ssr:hovedgruppe" v="infrastruktur" />
		<tag k="ssr:stedsnr" v="982893" />
		<tag k="ssr:type" v="adressenavn" />
	</node>
	<node lat="61.14610885718419" lon="7.109008832305174" id="-75979">
		<tag k="name" v="Haukåsen" />
		<tag k="ssr:date" v="2019-12-27" />
		<tag k="ssr:gruppe" v="veg" />
		<tag k="ssr:hovedgruppe" v="infrastruktur" />
		<tag k="ssr:stedsnr" v="982896" />
		<tag k="ssr:type" v="adressenavn" />
	</node>
	<node lat="61.16319442983574" lon="7.306518592521155" id="-75980">
		<tag k="name" v="Festingdalsvegen" />
		<tag k="ssr:date" v="2019-12-27" />
		<tag k="ssr:gruppe" v="veg" />
		<tag k="ssr:hovedgruppe" v="infrastruktur" />
		<tag k="ssr:stedsnr" v="982897" />
		<tag k="ssr:type" v="adressenavn" />
	</node>
	<node lat="61.20618037526284" lon="7.203208986216275" id="-75981">
		<tag k="name" v="Vestreimsvegen" />
		<tag k="ssr:date" v="2019-12-27" />
		<tag k="ssr:gruppe" v="veg" />
		<tag k="ssr:hovedgruppe" v="infrastruktur" />
		<tag k="ssr:stedsnr" v="982898" />
		<tag k="ssr:type" v="adressenavn" />
	</node>
	<node lat="61.16110124496131" lon="6.987543080800609" id="-75982">
		<tag k="name" v="Norafjordvegen" />
		<tag k="ssr:date" v="2019-12-27" />
		<tag k="ssr:gruppe" v="veg" />
		<tag k="ssr:hovedgruppe" v="infrastruktur" />
		<tag k="ssr:stedsnr" v="982899" />
		<tag k="ssr:type" v="adressenavn" />
	</node>
	<node lat="61.21867126335519" lon="6.969900561201326" id="-75983">
		<tag k="name" v="Gardselvegen" />
		<tag k="ssr:date" v="2019-12-27" />
		<tag k="ssr:gruppe" v="veg" />
		<tag k="ssr:hovedgruppe" v="infrastruktur" />
		<tag k="ssr:stedsnr" v="982900" />
		<tag k="ssr:type" v="adressenavn" />
	</node>
	<node lat="61.16095324309977" lon="6.979547753678814" id="-75984">
		<tag k="name" v="Norneshaugane" />
		<tag k="ssr:date" v="2019-12-27" />
		<tag k="ssr:gruppe" v="veg" />
		<tag k="ssr:hovedgruppe" v="infrastruktur" />
		<tag k="ssr:stedsnr" v="982901" />
		<tag k="ssr:type" v="adressenavn" />
	</node>
	<node lat="61.158590491572305" lon="6.9841209280632" id="-75986">
		<tag k="name" v="Nornes" />
		<tag k="ssr:date" v="2019-12-27" />
		<tag k="ssr:gruppe" v="veg" />
		<tag k="ssr:hovedgruppe" v="infrastruktur" />
		<tag k="ssr:stedsnr" v="982903" />
		<tag k="ssr:type" v="adressenavn" />
	</node>
	<node lat="61.180974168524436" lon="7.0161520317027986" id="-75987">
		<tag k="name" v="Ylvisåker" />
		<tag k="ssr:date" v="2019-12-27" />
		<tag k="ssr:gruppe" v="veg" />
		<tag k="ssr:hovedgruppe" v="infrastruktur" />
		<tag k="ssr:stedsnr" v="982904" />
		<tag k="ssr:type" v="adressenavn" />
	</node>
	<node lat="61.19177875594728" lon="7.023149738667462" id="-75988">
		<tag k="name" v="Øvstedalsvegen" />
		<tag k="ssr:date" v="2019-12-27" />
		<tag k="ssr:gruppe" v="veg" />
		<tag k="ssr:hovedgruppe" v="infrastruktur" />
		<tag k="ssr:stedsnr" v="982905" />
		<tag k="ssr:type" v="adressenavn" />
	</node>
	<node lat="61.198654581136864" lon="7.025338898594684" id="-75989">
		<tag k="name" v="Øyragrendi" />
		<tag k="ssr:date" v="2019-12-27" />
		<tag k="ssr:gruppe" v="veg" />
		<tag k="ssr:hovedgruppe" v="infrastruktur" />
		<tag k="ssr:stedsnr" v="982906" />
		<tag k="ssr:type" v="adressenavn" />
	</node>
	<node lat="61.238477561205634" lon="7.1343010451975" id="-75990">
		<tag k="name" v="Barsnes" />
		<tag k="ssr:date" v="2019-12-27" />
		<tag k="ssr:gruppe" v="veg" />
		<tag k="ssr:hovedgruppe" v="infrastruktur" />
		<tag k="ssr:stedsnr" v="982907" />
		<tag k="ssr:type" v="adressenavn" />
	</node>
	<node lat="61.23034914571111" lon="7.123791152760232" id="-75991">
		<tag k="name" v="Loftesnes" />
		<tag k="ssr:date" v="2019-12-27" />
		<tag k="ssr:gruppe" v="veg" />
		<tag k="ssr:hovedgruppe" v="infrastruktur" />
		<tag k="ssr:stedsnr" v="982908" />
		<tag k="ssr:type" v="adressenavn" />
	</node>
	<node lat="61.228593651060336" lon="7.125423251241149" id="-75992">
		<tag k="name" v="Ytre Loftesnes" />
		<tag k="ssr:date" v="2019-12-27" />
		<tag k="ssr:gruppe" v="veg" />
		<tag k="ssr:hovedgruppe" v="infrastruktur" />
		<tag k="ssr:stedsnr" v="982909" />
		<tag k="ssr:type" v="adressenavn" />
	</node>
	<node lat="61.10591303694642" lon="6.992014392446438" id="-76294">
		<tag k="alt_name" v="Gagersnes" />
		<tag k="name" v="Gagersnes lykt" />
		<tag k="ssr:date" v="2020-09-08" />
		<tag k="ssr:gruppe" v="navigasjon" />
		<tag k="ssr:hovedgruppe" v="infrastruktur" />
		<tag k="ssr:stedsnr" v="130431" />
		<tag k="ssr:type" v="fyrlykt" />
	</node>
	<node lat="61.196489957053004" lon="7.222967302998637" id="-76324">
		<tag k="name" v="Vangestadvegen" />
		<tag k="ssr:date" v="2019-12-27" />
		<tag k="ssr:gruppe" v="veg" />
		<tag k="ssr:hovedgruppe" v="infrastruktur" />
		<tag k="ssr:stedsnr" v="142560" />
		<tag k="ssr:type" v="adressenavn" />
	</node>
	<node lat="61.186325205192375" lon="6.838022617849377" id="-76327">
		<tag k="name" v="Nybøstrondi" />
		<tag k="ssr:date" v="2019-12-27" />
		<tag k="ssr:gruppe" v="veg" />
		<tag k="ssr:hovedgruppe" v="infrastruktur" />
		<tag k="ssr:stedsnr" v="145159" />
		<tag k="ssr:type" v="adressenavn" />
	</node>
	<node lat="61.178041439405476" lon="6.85299022713167" id="-76437">
		<tag k="alt_name" v="Nokkaneset" />
		<tag k="name" v="Nokkanes" />
		<tag k="ssr:date" v="2020-09-08" />
		<tag k="ssr:gruppe" v="navigasjon" />
		<tag k="ssr:hovedgruppe" v="infrastruktur" />
		<tag k="ssr:stedsnr" v="191895" />
		<tag k="ssr:type" v="fyrlykt" />
	</node>
	<node lat="61.185202841493535" lon="6.8484257059852816" id="-76765">
		<tag k="name" v="Røysavegen" />
		<tag k="ssr:date" v="2019-12-27" />
		<tag k="ssr:gruppe" v="veg" />
		<tag k="ssr:hovedgruppe" v="infrastruktur" />
		<tag k="ssr:stedsnr" v="362248" />
		<tag k="ssr:type" v="adressenavn" />
	</node>
	<node lat="61.21990277569488" lon="7.101747213662378" id="-76969">
		<tag k="alt_name" v="Stedje" />
		<tag k="name" v="Stedje lykt" />
		<tag k="ssr:date" v="2019-12-27" />
		<tag k="ssr:gruppe" v="navigasjon" />
		<tag k="ssr:hovedgruppe" v="infrastruktur" />
		<tag k="ssr:stedsnr" v="435096" />
		<tag k="ssr:type" v="fyrlykt" />
	</node>
	<node lat="61.19715346726764" lon="7.219115617917907" id="-77133">
		<tag k="name" v="Kvernhushaugen" />
		<tag k="ssr:date" v="2019-12-27" />
		<tag k="ssr:gruppe" v="veg" />
		<tag k="ssr:hovedgruppe" v="infrastruktur" />
		<tag k="ssr:stedsnr" v="566587" />
		<tag k="ssr:type" v="adressenavn" />
	</node>
	<node lat="61.221847223259935" lon="7.10464721495614" id="-77425">
		<tag k="alt_name" v="Leirnes" />
		<tag k="name" v="Leirnes lykt" />
		<tag k="ssr:date" v="2019-12-27" />
		<tag k="ssr:gruppe" v="navigasjon" />
		<tag k="ssr:hovedgruppe" v="infrastruktur" />
		<tag k="ssr:stedsnr" v="722062" />
		<tag k="ssr:type" v="fyrlykt" />
	</node>
	<node lat="61.37753089671094" lon="6.752702560481368" id="-77979">
		<tag k="name" v="Bjåstadvegen" />
		<tag k="ssr:date" v="2019-12-27" />
		<tag k="ssr:gruppe" v="veg" />
		<tag k="ssr:hovedgruppe" v="infrastruktur" />
		<tag k="ssr:stedsnr" v="982845" />
		<tag k="ssr:type" v="adressenavn" />
	</node>
	<node lat="61.41601232548842" lon="6.761337962113648" id="-77980">
		<tag k="name" v="Stølaholmen" />
		<tag k="ssr:date" v="2019-12-27" />
		<tag k="ssr:gruppe" v="veg" />
		<tag k="ssr:hovedgruppe" v="infrastruktur" />
		<tag k="ssr:stedsnr" v="982846" />
		<tag k="ssr:type" v="adressenavn" />
	</node>
	<node lat="61.43488868580797" lon="6.771737719485606" id="-77982">
		<tag k="name" v="Supphellevegen" />
		<tag k="ssr:date" v="2019-12-27" />
		<tag k="ssr:gruppe" v="veg" />
		<tag k="ssr:hovedgruppe" v="infrastruktur" />
		<tag k="ssr:stedsnr" v="982848" />
		<tag k="ssr:type" v="adressenavn" />
	</node>
	<node lat="61.424662350934284" lon="6.756938830433009" id="-77983">
		<tag k="name" v="Bøyavegen" />
		<tag k="ssr:date" v="2019-12-27" />
		<tag k="ssr:gruppe" v="veg" />
		<tag k="ssr:hovedgruppe" v="infrastruktur" />
		<tag k="ssr:stedsnr" v="982849" />
		<tag k="ssr:type" v="adressenavn" />
	</node>
	<node lat="61.402732140726236" lon="6.737958673945265" id="-77984">
		<tag k="name" v="Mundalsvegen" />
		<tag k="ssr:date" v="2019-12-27" />
		<tag k="ssr:gruppe" v="veg" />
		<tag k="ssr:hovedgruppe" v="infrastruktur" />
		<tag k="ssr:stedsnr" v="982850" />
		<tag k="ssr:type" v="adressenavn" />
	</node>
	<node lat="61.32754077456756" lon="6.681883324084357" id="-77985">
		<tag k="name" v="Fjærlandsfjorden" />
		<tag k="ssr:date" v="2019-12-27" />
		<tag k="ssr:gruppe" v="veg" />
		<tag k="ssr:hovedgruppe" v="infrastruktur" />
		<tag k="ssr:stedsnr" v="982851" />
		<tag k="ssr:type" v="adressenavn" />
	</node>
	<node lat="61.424538590296265" lon="6.756026556148184" id="-77986">
		<tag k="name" v="Fruhilleren" />
		<tag k="ssr:date" v="2019-12-27" />
		<tag k="ssr:gruppe" v="veg" />
		<tag k="ssr:hovedgruppe" v="infrastruktur" />
		<tag k="ssr:stedsnr" v="982852" />
		<tag k="ssr:type" v="adressenavn" />
	</node>
	<node lat="61.43730104406087" lon="6.764274726368349" id="-77987">
		<tag k="name" v="Skeide" />
		<tag k="ssr:date" v="2019-12-27" />
		<tag k="ssr:gruppe" v="veg" />
		<tag k="ssr:hovedgruppe" v="infrastruktur" />
		<tag k="ssr:stedsnr" v="982853" />
		<tag k="ssr:type" v="adressenavn" />
	</node>
	<node lat="61.334778489319625" lon="6.716100070393404" id="-77988">
		<tag k="name" v="Lidal" />
		<tag k="ssr:date" v="2019-12-27" />
		<tag k="ssr:gruppe" v="veg" />
		<tag k="ssr:hovedgruppe" v="infrastruktur" />
		<tag k="ssr:stedsnr" v="982854" />
		<tag k="ssr:type" v="adressenavn" />
	</node>
	<node lat="61.34049715759415" lon="6.921834774903967" id="-77989">
		<tag k="name" v="Anestølsvegen" />
		<tag k="ssr:date" v="2019-12-27" />
		<tag k="ssr:gruppe" v="veg" />
		<tag k="ssr:hovedgruppe" v="infrastruktur" />
		<tag k="ssr:stedsnr" v="982855" />
		<tag k="ssr:type" v="adressenavn" />
	</node>
	<node lat="61.34019485733681" lon="6.919686079383158" id="-77990">
		<tag k="name" v="Nysetevegen" />
		<tag k="ssr:date" v="2019-12-27" />
		<tag k="ssr:gruppe" v="veg" />
		<tag k="ssr:hovedgruppe" v="infrastruktur" />
		<tag k="ssr:stedsnr" v="982856" />
		<tag k="ssr:type" v="adressenavn" />
	</node>
	<node lat="61.33329720012752" lon="6.924349329494705" id="-77991">
		<tag k="name" v="Vatnasete" />
		<tag k="ssr:date" v="2019-12-27" />
		<tag k="ssr:gruppe" v="veg" />
		<tag k="ssr:hovedgruppe" v="infrastruktur" />
		<tag k="ssr:stedsnr" v="982857" />
		<tag k="ssr:type" v="adressenavn" />
	</node>
	<node lat="61.32858747635487" lon="6.958752843170158" id="-77992">
		<tag k="name" v="Torstadhagen" />
		<tag k="ssr:date" v="2019-12-27" />
		<tag k="ssr:gruppe" v="veg" />
		<tag k="ssr:hovedgruppe" v="infrastruktur" />
		<tag k="ssr:stedsnr" v="982858" />
		<tag k="ssr:type" v="adressenavn" />
	</node>
	<node lat="61.31030799651681" lon="7.003851913255979" id="-77993">
		<tag k="name" v="Nærestadli" />
		<tag k="ssr:date" v="2019-12-27" />
		<tag k="ssr:gruppe" v="veg" />
		<tag k="ssr:hovedgruppe" v="infrastruktur" />
		<tag k="ssr:stedsnr" v="982859" />
		<tag k="ssr:type" v="adressenavn" />
	</node>
	<node lat="61.30307891853657" lon="6.998557920895261" id="-77994">
		<tag k="name" v="Storebøvegen" />
		<tag k="ssr:date" v="2019-12-27" />
		<tag k="ssr:gruppe" v="veg" />
		<tag k="ssr:hovedgruppe" v="infrastruktur" />
		<tag k="ssr:stedsnr" v="982860" />
		<tag k="ssr:type" v="adressenavn" />
	</node>
	<node lat="61.29495690762069" lon="7.001187505224763" id="-77995">
		<tag k="name" v="Vasslivegen" />
		<tag k="ssr:date" v="2019-12-27" />
		<tag k="ssr:gruppe" v="veg" />
		<tag k="ssr:hovedgruppe" v="infrastruktur" />
		<tag k="ssr:stedsnr" v="982861" />
		<tag k="ssr:type" v="adressenavn" />
	</node>
	<node lat="61.289825793653364" lon="6.976435905652332" id="-77997">
		<tag k="name" v="Fosskamben" />
		<tag k="ssr:date" v="2019-12-27" />
		<tag k="ssr:gruppe" v="veg" />
		<tag k="ssr:hovedgruppe" v="infrastruktur" />
		<tag k="ssr:stedsnr" v="982863" />
		<tag k="ssr:type" v="adressenavn" />
	</node>
	<node lat="61.29064267105362" lon="6.97856625600568" id="-77998">
		<tag k="name" v="Kambagjerdet" />
		<tag k="ssr:date" v="2019-12-27" />
		<tag k="ssr:gruppe" v="veg" />
		<tag k="ssr:hovedgruppe" v="infrastruktur" />
		<tag k="ssr:stedsnr" v="982864" />
		<tag k="ssr:type" v="adressenavn" />
	</node>
	<node lat="61.29386418822327" lon="7.01055816981536" id="-77999">
		<tag k="name" v="Kleiv" />
		<tag k="ssr:date" v="2019-12-27" />
		<tag k="ssr:gruppe" v="veg" />
		<tag k="ssr:hovedgruppe" v="infrastruktur" />
		<tag k="ssr:stedsnr" v="982865" />
		<tag k="ssr:type" v="adressenavn" />
	</node>
	<node lat="61.2901175257383" lon="7.005464221555052" id="-78000">
		<tag k="name" v="Langavellene" />
		<tag k="ssr:date" v="2019-12-27" />
		<tag k="ssr:gruppe" v="veg" />
		<tag k="ssr:hovedgruppe" v="infrastruktur" />
		<tag k="ssr:stedsnr" v="982866" />
		<tag k="ssr:type" v="adressenavn" />
	</node>
	<node lat="61.27774595727342" lon="6.984270756198023" id="-78001">
		<tag k="name" v="Kollsetevegen" />
		<tag k="ssr:date" v="2019-12-27" />
		<tag k="ssr:gruppe" v="veg" />
		<tag k="ssr:hovedgruppe" v="infrastruktur" />
		<tag k="ssr:stedsnr" v="982867" />
		<tag k="ssr:type" v="adressenavn" />
	</node>
	<node lat="61.2587345792143" lon="7.009081150497362" id="-78002">
		<tag k="name" v="Skirsetevegen" />
		<tag k="ssr:date" v="2019-12-27" />
		<tag k="ssr:gruppe" v="veg" />
		<tag k="ssr:hovedgruppe" v="infrastruktur" />
		<tag k="ssr:stedsnr" v="982868" />
		<tag k="ssr:type" v="adressenavn" />
	</node>
	<node lat="61.26456543178222" lon="7.028079405544791" id="-78004">
		<tag k="name" v="Fretlandsvegen" />
		<tag k="ssr:date" v="2019-12-27" />
		<tag k="ssr:gruppe" v="veg" />
		<tag k="ssr:hovedgruppe" v="infrastruktur" />
		<tag k="ssr:stedsnr" v="982870" />
		<tag k="ssr:type" v="adressenavn" />
	</node>
	<node lat="61.25845206477334" lon="7.0316674981998055" id="-78005">
		<tag k="name" v="Elvagjengsvegen" />
		<tag k="ssr:date" v="2019-12-27" />
		<tag k="ssr:gruppe" v="veg" />
		<tag k="ssr:hovedgruppe" v="infrastruktur" />
		<tag k="ssr:stedsnr" v="982871" />
		<tag k="ssr:type" v="adressenavn" />
	</node>
	<node lat="61.25046782422126" lon="7.023492497968049" id="-78006">
		<tag k="name" v="Notsetevegen" />
		<tag k="ssr:date" v="2019-12-27" />
		<tag k="ssr:gruppe" v="veg" />
		<tag k="ssr:hovedgruppe" v="infrastruktur" />
		<tag k="ssr:stedsnr" v="982872" />
		<tag k="ssr:type" v="adressenavn" />
	</node>
	<node lat="61.23928119345902" lon="7.0480366903736575" id="-78012">
		<tag k="name" v="Eggjagrendi" />
		<tag k="ssr:date" v="2019-12-27" />
		<tag k="ssr:gruppe" v="veg" />
		<tag k="ssr:hovedgruppe" v="infrastruktur" />
		<tag k="ssr:stedsnr" v="982875" />
		<tag k="ssr:type" v="adressenavn" />
	</node>
	<node lat="61.23925609154689" lon="7.046130130048269" id="-78013">
		<tag k="name" v="Åsavegen" />
		<tag k="ssr:date" v="2019-12-27" />
		<tag k="ssr:gruppe" v="veg" />
		<tag k="ssr:hovedgruppe" v="infrastruktur" />
		<tag k="ssr:stedsnr" v="982876" />
		<tag k="ssr:type" v="adressenavn" />
	</node>
	<node lat="61.226742409946134" lon="7.076423525896683" id="-78014">
		<tag k="name" v="Flatavegen" />
		<tag k="ssr:date" v="2019-12-27" />
		<tag k="ssr:gruppe" v="veg" />
		<tag k="ssr:hovedgruppe" v="infrastruktur" />
		<tag k="ssr:stedsnr" v="982877" />
		<tag k="ssr:type" v="adressenavn" />
	</node>
	<node lat="61.230986113771365" lon="7.07065715728733" id="-78017">
		<tag k="name" v="Kvåle" />
		<tag k="ssr:date" v="2019-12-27" />
		<tag k="ssr:gruppe" v="veg" />
		<tag k="ssr:hovedgruppe" v="infrastruktur" />
		<tag k="ssr:stedsnr" v="982880" />
		<tag k="ssr:type" v="adressenavn" />
	</node>
	<node lat="61.247453096888954" lon="6.977724559456937" id="-78018">
		<tag k="name" v="Drivdalsvegen" />
		<tag k="ssr:date" v="2019-12-27" />
		<tag k="ssr:gruppe" v="veg" />
		<tag k="ssr:hovedgruppe" v="infrastruktur" />
		<tag k="ssr:stedsnr" v="982881" />
		<tag k="ssr:type" v="adressenavn" />
	</node>
	<node lat="61.22924233994314" lon="7.094285413574419" id="-78019">
		<tag k="name" v="Fjærlandsvegen" />
		<tag k="ssr:date" v="2019-12-27" />
		<tag k="ssr:gruppe" v="veg" />
		<tag k="ssr:hovedgruppe" v="infrastruktur" />
		<tag k="ssr:stedsnr" v="982882" />
		<tag k="ssr:type" v="adressenavn" />
	</node>
	<node lat="61.2488932479105" lon="7.1170009726191275" id="-78020">
		<tag k="name" v="Kvamsvegen" />
		<tag k="ssr:date" v="2019-12-27" />
		<tag k="ssr:gruppe" v="veg" />
		<tag k="ssr:hovedgruppe" v="infrastruktur" />
		<tag k="ssr:stedsnr" v="982883" />
		<tag k="ssr:type" v="adressenavn" />
	</node>
	<node lat="61.25362744600029" lon="7.127553889756895" id="-78021">
		<tag k="name" v="Kvamsviki" />
		<tag k="ssr:date" v="2019-12-27" />
		<tag k="ssr:gruppe" v="veg" />
		<tag k="ssr:hovedgruppe" v="infrastruktur" />
		<tag k="ssr:stedsnr" v="982884" />
		<tag k="ssr:type" v="adressenavn" />
	</node>
	<node lat="61.25970168509868" lon="7.144053520849244" id="-78022">
		<tag k="name" v="Ølnes" />
		<tag k="ssr:date" v="2019-12-27" />
		<tag k="ssr:gruppe" v="veg" />
		<tag k="ssr:hovedgruppe" v="infrastruktur" />
		<tag k="ssr:stedsnr" v="982885" />
		<tag k="ssr:type" v="adressenavn" />
	</node>
	<node lat="61.22996855071626" lon="7.101513305256256" id="-78104">
		<tag k="name" v="Fossetunet" />
		<tag k="ssr:date" v="2019-12-27" />
		<tag k="ssr:gruppe" v="veg" />
		<tag k="ssr:hovedgruppe" v="infrastruktur" />
		<tag k="ssr:stedsnr" v="1052305" />
		<tag k="ssr:type" v="adressenavn" />
	</node>
	<node lat="61.23001432830381" lon="7.103094830166635" id="-78105">
		<tag k="name" v="Fjørevegen" />
		<tag k="ssr:date" v="2019-12-27" />
		<tag k="ssr:gruppe" v="veg" />
		<tag k="ssr:hovedgruppe" v="infrastruktur" />
		<tag k="ssr:stedsnr" v="1052309" />
		<tag k="ssr:type" v="adressenavn" />
	</node>
	<node lat="61.20606654562204" lon="6.528020757128496" id="-78125">
		<tag k="name" v="Balestrandvegen" />
		<tag k="old_name" v="Sognefjordvegen" />
		<tag k="ssr:date" v="2019-12-27" />
		<tag k="ssr:gruppe" v="veg" />
		<tag k="ssr:hovedgruppe" v="infrastruktur" />
		<tag k="ssr:stedsnr" v="1052176" />
		<tag k="ssr:type" v="adressenavn" />
	</node>
	<node lat="61.228939682307306" lon="7.102389843349552" id="-78126">
		<tag k="name" v="Elvebakken" />
		<tag k="ssr:date" v="2019-12-27" />
		<tag k="ssr:gruppe" v="veg" />
		<tag k="ssr:hovedgruppe" v="infrastruktur" />
		<tag k="ssr:stedsnr" v="1052245" />
		<tag k="ssr:type" v="adressenavn" />
	</node>
	<node lat="61.23008509612666" lon="7.096775805319798" id="-78127">
		<tag k="name" v="Dalavegen" />
		<tag k="ssr:date" v="2019-12-27" />
		<tag k="ssr:gruppe" v="veg" />
		<tag k="ssr:hovedgruppe" v="infrastruktur" />
		<tag k="ssr:stedsnr" v="1052272" />
		<tag k="ssr:type" v="adressenavn" />
	</node>
	<node lat="61.232827110595444" lon="7.103230963678277" id="-78128">
		<tag k="name" v="Aarvollvegen" />
		<tag k="ssr:date" v="2019-12-27" />
		<tag k="ssr:gruppe" v="veg" />
		<tag k="ssr:hovedgruppe" v="infrastruktur" />
		<tag k="ssr:stedsnr" v="1052338" />
		<tag k="ssr:type" v="adressenavn" />
	</node>
	<node lat="61.229785257441115" lon="7.101834735919742" id="-78129">
		<tag k="name" v="Almenningen" />
		<tag k="ssr:date" v="2019-12-27" />
		<tag k="ssr:gruppe" v="veg" />
		<tag k="ssr:hovedgruppe" v="infrastruktur" />
		<tag k="ssr:stedsnr" v="1052332" />
		<tag k="ssr:type" v="adressenavn" />
	</node>
	<node lat="61.23001432830381" lon="7.103094830166635" id="-78140">
		<tag k="name" v="Bryggjegota" />
		<tag k="ssr:date" v="2019-12-27" />
		<tag k="ssr:gruppe" v="veg" />
		<tag k="ssr:hovedgruppe" v="infrastruktur" />
		<tag k="ssr:stedsnr" v="1052531" />
		<tag k="ssr:type" v="adressenavn" />
	</node>
	<node lat="61.2353305891625" lon="7.0831069977807015" id="-78141">
		<tag k="name" v="Kjeldeteigen" />
		<tag k="ssr:date" v="2019-12-27" />
		<tag k="ssr:gruppe" v="veg" />
		<tag k="ssr:hovedgruppe" v="infrastruktur" />
		<tag k="ssr:stedsnr" v="1052647" />
		<tag k="ssr:type" v="adressenavn" />
	</node>
	<node lat="61.23148556359395" lon="7.117576347926206" id="-78142">
		<tag k="name" v="Helgheimsvegen" />
		<tag k="ssr:date" v="2019-12-27" />
		<tag k="ssr:gruppe" v="veg" />
		<tag k="ssr:hovedgruppe" v="infrastruktur" />
		<tag k="ssr:stedsnr" v="1052752" />
		<tag k="ssr:type" v="adressenavn" />
	</node>
	<node lat="61.23338989891755" lon="7.111548108219428" id="-78143">
		<tag k="name" v="Hagebyvegen" />
		<tag k="ssr:date" v="2019-12-27" />
		<tag k="ssr:gruppe" v="veg" />
		<tag k="ssr:hovedgruppe" v="infrastruktur" />
		<tag k="ssr:stedsnr" v="1052827" />
		<tag k="ssr:type" v="adressenavn" />
	</node>
	<node lat="61.23475801477856" lon="7.101398241664933" id="-78144">
		<tag k="name" v="Kongabergvegen" />
		<tag k="ssr:date" v="2019-12-27" />
		<tag k="ssr:gruppe" v="veg" />
		<tag k="ssr:hovedgruppe" v="infrastruktur" />
		<tag k="ssr:stedsnr" v="1052907" />
		<tag k="ssr:type" v="adressenavn" />
	</node>
	<node lat="61.230169251997665" lon="7.099315479163132" id="-78145">
		<tag k="name" v="Gildevangen" />
		<tag k="ssr:date" v="2019-12-27" />
		<tag k="ssr:gruppe" v="veg" />
		<tag k="ssr:hovedgruppe" v="infrastruktur" />
		<tag k="ssr:stedsnr" v="1052917" />
		<tag k="ssr:type" v="adressenavn" />
	</node>
	<node lat="61.225814328587816" lon="7.102505014734505" id="-78146">
		<tag k="name" v="Kyrkjevegen" />
		<tag k="ssr:date" v="2019-12-27" />
		<tag k="ssr:gruppe" v="veg" />
		<tag k="ssr:hovedgruppe" v="infrastruktur" />
		<tag k="ssr:stedsnr" v="1052850" />
		<tag k="ssr:type" v="adressenavn" />
	</node>
	<node lat="61.22738199282238" lon="7.093718676004169" id="-78147">
		<tag k="name" v="Kyrkjebakken" />
		<tag k="ssr:date" v="2019-12-27" />
		<tag k="ssr:gruppe" v="veg" />
		<tag k="ssr:hovedgruppe" v="infrastruktur" />
		<tag k="ssr:stedsnr" v="1052868" />
		<tag k="ssr:type" v="adressenavn" />
	</node>
	<node lat="61.23008509612666" lon="7.096775805319798" id="-78148">
		<tag k="name" v="Fossvegen" />
		<tag k="ssr:date" v="2019-12-27" />
		<tag k="ssr:gruppe" v="veg" />
		<tag k="ssr:hovedgruppe" v="infrastruktur" />
		<tag k="ssr:stedsnr" v="1052948" />
		<tag k="ssr:type" v="adressenavn" />
	</node>
	<node lat="61.23276618051834" lon="7.089948800866544" id="-78149">
		<tag k="name" v="Fosshaugen" />
		<tag k="ssr:date" v="2019-12-27" />
		<tag k="ssr:gruppe" v="veg" />
		<tag k="ssr:hovedgruppe" v="infrastruktur" />
		<tag k="ssr:stedsnr" v="1052950" />
		<tag k="ssr:type" v="adressenavn" />
	</node>
	<node lat="61.23278377498353" lon="7.105423524192875" id="-78158">
		<tag k="name" v="Leitevegen" />
		<tag k="ssr:date" v="2019-12-27" />
		<tag k="ssr:gruppe" v="veg" />
		<tag k="ssr:hovedgruppe" v="infrastruktur" />
		<tag k="ssr:stedsnr" v="1053255" />
		<tag k="ssr:type" v="adressenavn" />
	</node>
	<node lat="61.2285271786015" lon="7.098723295366575" id="-78165">
		<tag k="name" v="Granden" />
		<tag k="ssr:date" v="2019-12-27" />
		<tag k="ssr:gruppe" v="veg" />
		<tag k="ssr:hovedgruppe" v="infrastruktur" />
		<tag k="ssr:stedsnr" v="1053192" />
		<tag k="ssr:type" v="adressenavn" />
	</node>
	<node lat="61.22923558321481" lon="7.102740889014216" id="-78175">
		<tag k="name" v="Pettergota" />
		<tag k="ssr:date" v="2019-12-27" />
		<tag k="ssr:gruppe" v="veg" />
		<tag k="ssr:hovedgruppe" v="infrastruktur" />
		<tag k="ssr:stedsnr" v="1053214" />
		<tag k="ssr:type" v="adressenavn" />
	</node>
	<node lat="61.23032895620572" lon="7.101119119523253" id="-78176">
		<tag k="name" v="Parkvegen" />
		<tag k="ssr:date" v="2019-12-27" />
		<tag k="ssr:gruppe" v="veg" />
		<tag k="ssr:hovedgruppe" v="infrastruktur" />
		<tag k="ssr:stedsnr" v="1053215" />
		<tag k="ssr:type" v="adressenavn" />
	</node>
	<node lat="61.230673022897435" lon="7.104510557787243" id="-78177">
		<tag k="name" v="Rusebakken" />
		<tag k="ssr:date" v="2019-12-27" />
		<tag k="ssr:gruppe" v="veg" />
		<tag k="ssr:hovedgruppe" v="infrastruktur" />
		<tag k="ssr:stedsnr" v="1053226" />
		<tag k="ssr:type" v="adressenavn" />
	</node>
	<node lat="61.23307497026703" lon="7.101281274175181" id="-78178">
		<tag k="name" v="Prestadalen" />
		<tag k="ssr:date" v="2019-12-27" />
		<tag k="ssr:gruppe" v="veg" />
		<tag k="ssr:hovedgruppe" v="infrastruktur" />
		<tag k="ssr:stedsnr" v="1053232" />
		<tag k="ssr:type" v="adressenavn" />
	</node>
	<node lat="61.232104998003855" lon="7.105941021936495" id="-78179">
		<tag k="name" v="Gravensteinsgata" />
		<tag k="ssr:date" v="2019-12-27" />
		<tag k="ssr:gruppe" v="veg" />
		<tag k="ssr:hovedgruppe" v="infrastruktur" />
		<tag k="ssr:stedsnr" v="1053068" />
		<tag k="ssr:type" v="adressenavn" />
	</node>
	<node lat="61.23135819065065" lon="7.101544805935668" id="-78181">
		<tag k="name" v="Leighgota" />
		<tag k="ssr:date" v="2019-12-27" />
		<tag k="ssr:gruppe" v="veg" />
		<tag k="ssr:hovedgruppe" v="infrastruktur" />
		<tag k="ssr:stedsnr" v="1053462" />
		<tag k="ssr:type" v="adressenavn" />
	</node>
	<node lat="61.232498491639134" lon="7.106581119413652" id="-78182">
		<tag k="name" v="Navarsetevegen" />
		<tag k="ssr:date" v="2019-12-27" />
		<tag k="ssr:gruppe" v="veg" />
		<tag k="ssr:hovedgruppe" v="infrastruktur" />
		<tag k="ssr:stedsnr" v="1053546" />
		<tag k="ssr:type" v="adressenavn" />
	</node>
	<node lat="61.23368781324435" lon="7.099797915484957" id="-78183">
		<tag k="name" v="Markavegen" />
		<tag k="ssr:date" v="2019-12-27" />
		<tag k="ssr:gruppe" v="veg" />
		<tag k="ssr:hovedgruppe" v="infrastruktur" />
		<tag k="ssr:stedsnr" v="1053551" />
		<tag k="ssr:type" v="adressenavn" />
	</node>
	<node lat="61.23204881207" lon="7.096162121108304" id="-78184">
		<tag k="name" v="Trolladalen" />
		<tag k="ssr:date" v="2019-12-27" />
		<tag k="ssr:gruppe" v="veg" />
		<tag k="ssr:hovedgruppe" v="infrastruktur" />
		<tag k="ssr:stedsnr" v="1053637" />
		<tag k="ssr:type" v="adressenavn" />
	</node>
	<node lat="61.230169251997665" lon="7.099315479163132" id="-78185">
		<tag k="name" v="Trehestebakken" />
		<tag k="ssr:date" v="2019-12-27" />
		<tag k="ssr:gruppe" v="veg" />
		<tag k="ssr:hovedgruppe" v="infrastruktur" />
		<tag k="ssr:stedsnr" v="1053642" />
		<tag k="ssr:type" v="adressenavn" />
	</node>
	<node lat="61.19121622136995" lon="7.219685634083563" id="-78186">
		<tag k="name" v="Storebruvegen" />
		<tag k="ssr:date" v="2019-12-27" />
		<tag k="ssr:gruppe" v="veg" />
		<tag k="ssr:hovedgruppe" v="infrastruktur" />
		<tag k="ssr:stedsnr" v="1053643" />
		<tag k="ssr:type" v="adressenavn" />
	</node>
	<node lat="61.23019853142405" lon="7.08039167007252" id="-78187">
		<tag k="name" v="Lunnamyri" />
		<tag k="ssr:date" v="2019-12-27" />
		<tag k="ssr:gruppe" v="veg" />
		<tag k="ssr:hovedgruppe" v="infrastruktur" />
		<tag k="ssr:stedsnr" v="1053623" />
		<tag k="ssr:type" v="adressenavn" />
	</node>
	<node lat="61.188168415937454" lon="7.214316154995319" id="-78188">
		<tag k="name" v="Bråtavegen" />
		<tag k="ssr:date" v="2019-12-27" />
		<tag k="ssr:gruppe" v="veg" />
		<tag k="ssr:hovedgruppe" v="infrastruktur" />
		<tag k="ssr:stedsnr" v="1053692" />
		<tag k="ssr:type" v="adressenavn" />
	</node>
	<node lat="61.188777371695224" lon="7.218279227248367" id="-78189">
		<tag k="name" v="Steinhaugvegen" />
		<tag k="ssr:date" v="2019-12-27" />
		<tag k="ssr:gruppe" v="veg" />
		<tag k="ssr:hovedgruppe" v="infrastruktur" />
		<tag k="ssr:stedsnr" v="1053693" />
		<tag k="ssr:type" v="adressenavn" />
	</node>
	<node lat="61.19018990127403" lon="7.21956821101123" id="-78190">
		<tag k="name" v="Kvernavegen" />
		<tag k="ssr:date" v="2019-12-27" />
		<tag k="ssr:gruppe" v="veg" />
		<tag k="ssr:hovedgruppe" v="infrastruktur" />
		<tag k="ssr:stedsnr" v="1053698" />
		<tag k="ssr:type" v="adressenavn" />
	</node>
	<node lat="61.18848414774741" lon="7.217295862038333" id="-78191">
		<tag k="name" v="Holteigvegen" />
		<tag k="ssr:date" v="2019-12-27" />
		<tag k="ssr:gruppe" v="veg" />
		<tag k="ssr:hovedgruppe" v="infrastruktur" />
		<tag k="ssr:stedsnr" v="1053704" />
		<tag k="ssr:type" v="adressenavn" />
	</node>
	<node lat="61.23437261737895" lon="7.082345739271106" id="-78192">
		<tag k="name" v="Åbergevegen" />
		<tag k="ssr:date" v="2019-12-27" />
		<tag k="ssr:gruppe" v="veg" />
		<tag k="ssr:hovedgruppe" v="infrastruktur" />
		<tag k="ssr:stedsnr" v="1053647" />
		<tag k="ssr:type" v="adressenavn" />
	</node>
	<node lat="61.22913140429954" lon="7.089551127135618" id="-78193">
		<tag k="name" v="Øvre Stedjeveg" />
		<tag k="ssr:date" v="2019-12-27" />
		<tag k="ssr:gruppe" v="veg" />
		<tag k="ssr:hovedgruppe" v="infrastruktur" />
		<tag k="ssr:stedsnr" v="1053649" />
		<tag k="ssr:type" v="adressenavn" />
	</node>
	<node lat="61.225118950344886" lon="7.096771400649508" id="-78194">
		<tag k="name" v="Rødstokken" />
		<tag k="ssr:date" v="2019-12-27" />
		<tag k="ssr:gruppe" v="veg" />
		<tag k="ssr:hovedgruppe" v="infrastruktur" />
		<tag k="ssr:stedsnr" v="1053654" />
		<tag k="ssr:type" v="adressenavn" />
	</node>
	<node lat="61.23420014303037" lon="7.098255057975049" id="-78195">
		<tag k="name" v="Rutlinslid" />
		<tag k="ssr:date" v="2019-12-27" />
		<tag k="ssr:gruppe" v="veg" />
		<tag k="ssr:hovedgruppe" v="infrastruktur" />
		<tag k="ssr:stedsnr" v="1053656" />
		<tag k="ssr:type" v="adressenavn" />
	</node>
	<node lat="61.229326678016626" lon="7.102678602101983" id="-78196">
		<tag k="name" v="Steinbryggjegota" />
		<tag k="ssr:date" v="2019-12-27" />
		<tag k="ssr:gruppe" v="veg" />
		<tag k="ssr:hovedgruppe" v="infrastruktur" />
		<tag k="ssr:stedsnr" v="1053663" />
		<tag k="ssr:type" v="adressenavn" />
	</node>
	<node lat="61.22708197740652" lon="7.0994692734333285" id="-78197">
		<tag k="name" v="Stedjevegen" />
		<tag k="ssr:date" v="2019-12-27" />
		<tag k="ssr:gruppe" v="veg" />
		<tag k="ssr:hovedgruppe" v="infrastruktur" />
		<tag k="ssr:stedsnr" v="1053669" />
		<tag k="ssr:type" v="adressenavn" />
	</node>
	<node lat="61.23198552581171" lon="7.10137698665169" id="-78198">
		<tag k="name" v="Skulevegen" />
		<tag k="ssr:date" v="2019-12-27" />
		<tag k="ssr:gruppe" v="veg" />
		<tag k="ssr:hovedgruppe" v="infrastruktur" />
		<tag k="ssr:stedsnr" v="1053670" />
		<tag k="ssr:type" v="adressenavn" />
	</node>
	<node lat="61.191993080188645" lon="7.214269681963254" id="-78199">
		<tag k="name" v="Mattisstykkje" />
		<tag k="ssr:date" v="2019-12-27" />
		<tag k="ssr:gruppe" v="veg" />
		<tag k="ssr:hovedgruppe" v="infrastruktur" />
		<tag k="ssr:stedsnr" v="1053672" />
		<tag k="ssr:type" v="adressenavn" />
	</node>
	<node lat="61.18971589679266" lon="7.218578959983975" id="-78200">
		<tag k="name" v="Vetlevegen" />
		<tag k="ssr:date" v="2019-12-27" />
		<tag k="ssr:gruppe" v="veg" />
		<tag k="ssr:hovedgruppe" v="infrastruktur" />
		<tag k="ssr:stedsnr" v="1053673" />
		<tag k="ssr:type" v="adressenavn" />
	</node>
	<node lat="61.189155142767696" lon="7.218867810915946" id="-78201">
		<tag k="name" v="Groavegen" />
		<tag k="ssr:date" v="2019-12-27" />
		<tag k="ssr:gruppe" v="veg" />
		<tag k="ssr:hovedgruppe" v="infrastruktur" />
		<tag k="ssr:stedsnr" v="1053678" />
		<tag k="ssr:type" v="adressenavn" />
	</node>
	<node lat="61.19121622136995" lon="7.219685634083563" id="-78202">
		<tag k="name" v="Furuvegen" />
		<tag k="ssr:date" v="2019-12-27" />
		<tag k="ssr:gruppe" v="veg" />
		<tag k="ssr:hovedgruppe" v="infrastruktur" />
		<tag k="ssr:stedsnr" v="1053682" />
		<tag k="ssr:type" v="adressenavn" />
	</node>
	<node lat="61.19182414695787" lon="7.214734110955634" id="-78203">
		<tag k="name" v="Kjeldemyri" />
		<tag k="ssr:date" v="2019-12-27" />
		<tag k="ssr:gruppe" v="veg" />
		<tag k="ssr:hovedgruppe" v="infrastruktur" />
		<tag k="ssr:stedsnr" v="1053683" />
		<tag k="ssr:type" v="adressenavn" />
	</node>
	<node lat="61.19197358069239" lon="7.216179497338314" id="-78204">
		<tag k="name" v="Ospevegen" />
		<tag k="ssr:date" v="2019-12-27" />
		<tag k="ssr:gruppe" v="veg" />
		<tag k="ssr:hovedgruppe" v="infrastruktur" />
		<tag k="ssr:stedsnr" v="1053742" />
		<tag k="ssr:type" v="adressenavn" />
	</node>
	<node lat="61.193321615073955" lon="7.219006279108175" id="-78205">
		<tag k="name" v="Bjørkavegen" />
		<tag k="ssr:date" v="2019-12-27" />
		<tag k="ssr:gruppe" v="veg" />
		<tag k="ssr:hovedgruppe" v="infrastruktur" />
		<tag k="ssr:stedsnr" v="1053746" />
		<tag k="ssr:type" v="adressenavn" />
	</node>
	<node lat="61.194667821235065" lon="7.214574106089217" id="-78206">
		<tag k="name" v="Konvallvegen" />
		<tag k="ssr:date" v="2019-12-27" />
		<tag k="ssr:gruppe" v="veg" />
		<tag k="ssr:hovedgruppe" v="infrastruktur" />
		<tag k="ssr:stedsnr" v="1053761" />
		<tag k="ssr:type" v="adressenavn" />
	</node>
	<node lat="61.19296252656568" lon="7.218054062300708" id="-78207">
		<tag k="name" v="Tistelteigen" />
		<tag k="ssr:date" v="2019-12-27" />
		<tag k="ssr:gruppe" v="veg" />
		<tag k="ssr:hovedgruppe" v="infrastruktur" />
		<tag k="ssr:stedsnr" v="1053766" />
		<tag k="ssr:type" v="adressenavn" />
	</node>
	<node lat="61.22733546801266" lon="7.090456894974917" id="-78208">
		<tag k="name" v="Stedjebakken" />
		<tag k="ssr:date" v="2019-12-27" />
		<tag k="ssr:gruppe" v="veg" />
		<tag k="ssr:hovedgruppe" v="infrastruktur" />
		<tag k="ssr:stedsnr" v="1053768" />
		<tag k="ssr:type" v="adressenavn" />
	</node>
	<node lat="61.22843509446045" lon="7.090494534838419" id="-78209">
		<tag k="name" v="Sandbakken" />
		<tag k="ssr:date" v="2019-12-27" />
		<tag k="ssr:gruppe" v="veg" />
		<tag k="ssr:hovedgruppe" v="infrastruktur" />
		<tag k="ssr:stedsnr" v="1053769" />
		<tag k="ssr:type" v="adressenavn" />
	</node>
	<node lat="61.21243400548818" lon="7.129950875961892" id="-78210">
		<tag k="name" v="Tjødnali" />
		<tag k="ssr:date" v="2019-12-27" />
		<tag k="ssr:gruppe" v="veg" />
		<tag k="ssr:hovedgruppe" v="infrastruktur" />
		<tag k="ssr:stedsnr" v="1053770" />
		<tag k="ssr:type" v="adressenavn" />
	</node>
	<node lat="61.21201759166657" lon="7.132229402808917" id="-78211">
		<tag k="name" v="Stølen" />
		<tag k="ssr:date" v="2019-12-27" />
		<tag k="ssr:gruppe" v="veg" />
		<tag k="ssr:hovedgruppe" v="infrastruktur" />
		<tag k="ssr:stedsnr" v="1053771" />
		<tag k="ssr:type" v="adressenavn" />
	</node>
	<node lat="61.21115635056543" lon="7.126384239893201" id="-78212">
		<tag k="name" v="Kjørnessvingen" />
		<tag k="ssr:date" v="2019-12-27" />
		<tag k="ssr:gruppe" v="veg" />
		<tag k="ssr:hovedgruppe" v="infrastruktur" />
		<tag k="ssr:stedsnr" v="1053774" />
		<tag k="ssr:type" v="adressenavn" />
	</node>
	<node lat="61.234608629255526" lon="7.1064255357854265" id="-78213">
		<tag k="name" v="Klippavegen" />
		<tag k="ssr:date" v="2019-12-27" />
		<tag k="ssr:gruppe" v="veg" />
		<tag k="ssr:hovedgruppe" v="infrastruktur" />
		<tag k="ssr:stedsnr" v="1053775" />
		<tag k="ssr:type" v="adressenavn" />
	</node>
	<node lat="61.18716807549439" lon="7.2188933939002045" id="-78214">
		<tag k="name" v="Haukåssvingen" />
		<tag k="ssr:date" v="2019-12-27" />
		<tag k="ssr:gruppe" v="veg" />
		<tag k="ssr:hovedgruppe" v="infrastruktur" />
		<tag k="ssr:stedsnr" v="1053782" />
		<tag k="ssr:type" v="adressenavn" />
	</node>
	<node lat="61.232498491639134" lon="7.106581119413652" id="-78215">
		<tag k="name" v="Hovevegen" />
		<tag k="ssr:date" v="2019-12-27" />
		<tag k="ssr:gruppe" v="veg" />
		<tag k="ssr:hovedgruppe" v="infrastruktur" />
		<tag k="ssr:stedsnr" v="1053842" />
		<tag k="ssr:type" v="adressenavn" />
	</node>
	<node lat="61.234535427738535" lon="7.082244638783599" id="-78216">
		<tag k="name" v="Bårdsenvegen" />
		<tag k="ssr:date" v="2019-12-27" />
		<tag k="ssr:gruppe" v="veg" />
		<tag k="ssr:hovedgruppe" v="infrastruktur" />
		<tag k="ssr:stedsnr" v="1053843" />
		<tag k="ssr:type" v="adressenavn" />
	</node>
	<node lat="61.2114048811148" lon="7.128862362923287" id="-78218">
		<tag k="name" v="Kjørnesplatået" />
		<tag k="ssr:date" v="2019-12-27" />
		<tag k="ssr:gruppe" v="veg" />
		<tag k="ssr:hovedgruppe" v="infrastruktur" />
		<tag k="ssr:stedsnr" v="1053847" />
		<tag k="ssr:type" v="adressenavn" />
	</node>
	<node lat="61.23193588726771" lon="7.096192310168439" id="-78219">
		<tag k="name" v="Plassen" />
		<tag k="ssr:date" v="2019-12-27" />
		<tag k="ssr:gruppe" v="veg" />
		<tag k="ssr:hovedgruppe" v="infrastruktur" />
		<tag k="ssr:stedsnr" v="1053848" />
		<tag k="ssr:type" v="adressenavn" />
	</node>
	<node lat="61.18835605544721" lon="7.2167500524881945" id="-78222">
		<tag k="name" v="Dalkupvegen" />
		<tag k="ssr:date" v="2019-12-27" />
		<tag k="ssr:gruppe" v="veg" />
		<tag k="ssr:hovedgruppe" v="infrastruktur" />
		<tag k="ssr:stedsnr" v="1053706" />
		<tag k="ssr:type" v="adressenavn" />
	</node>
	<node lat="61.1939970330909" lon="7.21876579001249" id="-78223">
		<tag k="name" v="Lyngrabben" />
		<tag k="ssr:date" v="2019-12-27" />
		<tag k="ssr:gruppe" v="veg" />
		<tag k="ssr:hovedgruppe" v="infrastruktur" />
		<tag k="ssr:stedsnr" v="1053721" />
		<tag k="ssr:type" v="adressenavn" />
	</node>
	<node lat="61.19428578733067" lon="7.216413830594425" id="-78224">
		<tag k="name" v="Bregnevegen" />
		<tag k="ssr:date" v="2019-12-27" />
		<tag k="ssr:gruppe" v="veg" />
		<tag k="ssr:hovedgruppe" v="infrastruktur" />
		<tag k="ssr:stedsnr" v="1053722" />
		<tag k="ssr:type" v="adressenavn" />
	</node>
	<node lat="61.19395406216521" lon="7.217148062895644" id="-78225">
		<tag k="name" v="Røsslyngteigen" />
		<tag k="ssr:date" v="2019-12-27" />
		<tag k="ssr:gruppe" v="veg" />
		<tag k="ssr:hovedgruppe" v="infrastruktur" />
		<tag k="ssr:stedsnr" v="1053723" />
		<tag k="ssr:type" v="adressenavn" />
	</node>
	<node lat="61.18636538672314" lon="7.219147072893394" id="-78226">
		<tag k="name" v="Porsmyrvegen" />
		<tag k="ssr:date" v="2019-12-27" />
		<tag k="ssr:gruppe" v="veg" />
		<tag k="ssr:hovedgruppe" v="infrastruktur" />
		<tag k="ssr:stedsnr" v="1053724" />
		<tag k="ssr:type" v="adressenavn" />
	</node>
	<node lat="61.18626120749707" lon="7.217190174243131" id="-78227">
		<tag k="name" v="Øvre Porsmyr" />
		<tag k="ssr:date" v="2019-12-27" />
		<tag k="ssr:gruppe" v="veg" />
		<tag k="ssr:hovedgruppe" v="infrastruktur" />
		<tag k="ssr:stedsnr" v="1053725" />
		<tag k="ssr:type" v="adressenavn" />
	</node>
	<node lat="61.187600554351484" lon="7.220350620014741" id="-78228">
		<tag k="name" v="Haukåsvegen" />
		<tag k="ssr:date" v="2019-12-27" />
		<tag k="ssr:gruppe" v="veg" />
		<tag k="ssr:hovedgruppe" v="infrastruktur" />
		<tag k="ssr:stedsnr" v="1053728" />
		<tag k="ssr:type" v="adressenavn" />
	</node>
	<node lat="61.19251384054843" lon="7.2174718251676495" id="-78229">
		<tag k="name" v="Rognevegen" />
		<tag k="ssr:date" v="2019-12-27" />
		<tag k="ssr:gruppe" v="veg" />
		<tag k="ssr:hovedgruppe" v="infrastruktur" />
		<tag k="ssr:stedsnr" v="1053731" />
		<tag k="ssr:type" v="adressenavn" />
	</node>
	<node lat="61.23463499633422" lon="7.106536842469031" id="-78230">
		<tag k="name" v="Bergstien" />
		<tag k="ssr:date" v="2019-12-27" />
		<tag k="ssr:gruppe" v="veg" />
		<tag k="ssr:hovedgruppe" v="infrastruktur" />
		<tag k="ssr:stedsnr" v="1053788" />
		<tag k="ssr:type" v="adressenavn" />
	</node>
	<node lat="61.23473866773104" lon="7.105995827485469" id="-78231">
		<tag k="name" v="Fjellvegen" />
		<tag k="ssr:date" v="2019-12-27" />
		<tag k="ssr:gruppe" v="veg" />
		<tag k="ssr:hovedgruppe" v="infrastruktur" />
		<tag k="ssr:stedsnr" v="1053789" />
		<tag k="ssr:type" v="adressenavn" />
	</node>
	<node lat="61.234582239595035" lon="7.10489692288412" id="-78232">
		<tag k="name" v="Røvhaugvegen" />
		<tag k="ssr:date" v="2019-12-27" />
		<tag k="ssr:gruppe" v="veg" />
		<tag k="ssr:hovedgruppe" v="infrastruktur" />
		<tag k="ssr:stedsnr" v="1053791" />
		<tag k="ssr:type" v="adressenavn" />
	</node>
	<node lat="61.29104834962152" lon="6.969215750195252" id="-78246">
		<tag k="name" v="Rindabakkane" />
		<tag k="ssr:date" v="2019-12-27" />
		<tag k="ssr:gruppe" v="veg" />
		<tag k="ssr:hovedgruppe" v="infrastruktur" />
		<tag k="ssr:stedsnr" v="1073740" />
		<tag k="ssr:type" v="adressenavn" />
	</node>
</osm>
