<?xml version="1.0" encoding="UTF-8"?>
<osm generator="osmapis" version="0.6">
	<node id="-310304" lat="60.5450000028" lon="12.0880638842">
		<tag k="old_name" v="Brenna" />
		<tag k="place" v="isolated_dwelling" />
		<tag k="ssr:date" v="2019-12-27" />
		<tag k="ssr:gruppe" v="bolighus" />
		<tag k="ssr:hovedgruppe" v="bebyggelse" />
		<tag k="ssr:stedsnr" v="735971" />
		<tag k="ssr:type" v="eneboligMindreBoligbygg" />
	</node>
	<node id="-310746" lat="60.526258334" lon="12.0943388887">
		<tag k="old_name" v="Dalsbø;Dalsbo" />
		<tag k="place" v="isolated_dwelling" />
		<tag k="ssr:date" v="2019-12-27" />
		<tag k="ssr:gruppe" v="bolighus" />
		<tag k="ssr:hovedgruppe" v="bebyggelse" />
		<tag k="ssr:stedsnr" v="67878" />
		<tag k="ssr:type" v="eneboligMindreBoligbygg" />
	</node>
	<node id="-309817" lat="60.4059277809" lon="12.6060527867">
		<tag k="historic" v="boundary_stone" />
		<tag k="loc_name" v="Moldhaugaklintsrøysa" />
		<tag k="man_made" v="cairn" />
		<tag k="old_name" v="Stoere Moldusen;Moldhauga Klindtens Røse;Muldhauga-Klindt" />
		<tag k="place" v="locality" />
		<tag k="ssr:date" v="2019-12-27" />
		<tag k="ssr:gruppe" v="administrativeIndelinger" />
		<tag k="ssr:hovedgruppe" v="offentligAdministrasjon" />
		<tag k="ssr:stedsnr" v="474073" />
		<tag k="ssr:type" v="grensemerke" />
	</node>
	<node id="-311826" lat="60.4093444444" lon="12.0906694488">
		<tag k="old_name" v="Elserud" />
		<tag k="place" v="isolated_dwelling" />
		<tag k="ssr:date" v="2019-12-27" />
		<tag k="ssr:gruppe" v="bolighus" />
		<tag k="ssr:hovedgruppe" v="bebyggelse" />
		<tag k="ssr:stedsnr" v="856346" />
		<tag k="ssr:type" v="eneboligMindreBoligbygg" />
	</node>
	<node id="-311885" lat="60.4920805515" lon="12.6066083254">
		<tag k="historic" v="boundary_stone" />
		<tag k="loc_name" v="Storbenkmyrrøysa" />
		<tag k="man_made" v="cairn" />
		<tag k="place" v="locality" />
		<tag k="ssr:date" v="2019-12-27" />
		<tag k="ssr:gruppe" v="administrativeIndelinger" />
		<tag k="ssr:hovedgruppe" v="offentligAdministrasjon" />
		<tag k="ssr:stedsnr" v="960692" />
		<tag k="ssr:type" v="grensemerke" />
	</node>
	<node id="-310440" lat="60.4837638858" lon="11.9828972174">
		<tag k="old_name" v="Enger" />
		<tag k="place" v="farm" />
		<tag k="ssr:date" v="2019-12-27" />
		<tag k="ssr:gruppe" v="gardsbebyggelse" />
		<tag k="ssr:hovedgruppe" v="bebyggelse" />
		<tag k="ssr:stedsnr" v="916714" />
		<tag k="ssr:type" v="bruk" />
	</node>
	<node id="-311137" lat="60.3236555536" lon="12.4987944522">
		<tag k="historic" v="boundary_stone" />
		<tag k="loc_name" v="Åskogsbergsrøysa" />
		<tag k="man_made" v="cairn" />
		<tag k="old_name" v="Askogsbergs Røset" />
		<tag k="place" v="locality" />
		<tag k="ssr:date" v="2019-12-27" />
		<tag k="ssr:gruppe" v="administrativeIndelinger" />
		<tag k="ssr:hovedgruppe" v="offentligAdministrasjon" />
		<tag k="ssr:stedsnr" v="352425" />
		<tag k="ssr:type" v="grensemerke" />
	</node>
</osm>
