<?xml version="1.0" encoding="UTF-8"?>
<osm version="0.6" generator="osmapis">
	<node lat="60.45132500088809" lon="12.054888883605832" id="-22162">
		<tag k="name" v="Grue kommune" />
		<tag k="ssr:date" v="2019-12-27" />
		<tag k="ssr:gruppe" v="administrativeIndelinger" />
		<tag k="ssr:hovedgruppe" v="offentligAdministrasjon" />
		<tag k="ssr:stedsnr" v="87311" />
		<tag k="ssr:type" v="kommune" />
	</node>
	<node lat="60.392125001701345" lon="11.900519439086322" id="-22246">
		<tag k="name" v="Solør" />
		<tag k="ssr:date" v="2019-12-27" />
		<tag k="ssr:gruppe" v="terrengområder" />
		<tag k="ssr:hovedgruppe" v="terreng" />
		<tag k="ssr:stedsnr" v="146630" />
		<tag k="ssr:type" v="landskapsområde" />
	</node>
	<node lat="60.41619722565769" lon="12.140308329729585" id="-22750">
		<tag k="name" v="Åserudlinna" />
		<tag k="ssr:date" v="2019-12-27" />
		<tag k="ssr:gruppe" v="energi" />
		<tag k="ssr:hovedgruppe" v="infrastruktur" />
		<tag k="ssr:stedsnr" v="601936" />
		<tag k="ssr:type" v="kraftledning" />
	</node>
	<node lat="60.40833889203175" lon="12.10328333294091" id="-22902">
		<tag k="name" v="Åserudlinna" />
		<tag k="ssr:date" v="2019-12-27" />
		<tag k="ssr:gruppe" v="administrativeIndelinger" />
		<tag k="ssr:hovedgruppe" v="offentligAdministrasjon" />
		<tag k="ssr:stedsnr" v="754768" />
		<tag k="ssr:type" v="annenAdministrativInndeling" />
	</node>
	<node lat="60.423499343337085" lon="12.011775202939342" id="-23150">
		<tag k="name" v="Opakersundvegen vest" />
		<tag k="ssr:date" v="2019-12-27" />
		<tag k="ssr:gruppe" v="veg" />
		<tag k="ssr:hovedgruppe" v="infrastruktur" />
		<tag k="ssr:stedsnr" v="1004161" />
		<tag k="ssr:type" v="adressenavn" />
	</node>
	<node lat="60.36980300387414" lon="12.021348183398187" id="-23151">
		<tag k="name" v="Vestre Solørveg" />
		<tag k="ssr:date" v="2019-12-27" />
		<tag k="ssr:gruppe" v="veg" />
		<tag k="ssr:hovedgruppe" v="infrastruktur" />
		<tag k="ssr:stedsnr" v="1004181" />
		<tag k="ssr:type" v="adressenavn" />
	</node>
	<node lat="60.407612869619136" lon="12.206423466158405" id="-23152">
		<tag k="name" v="Frysjøberget" />
		<tag k="ssr:date" v="2019-12-27" />
		<tag k="ssr:gruppe" v="veg" />
		<tag k="ssr:hovedgruppe" v="infrastruktur" />
		<tag k="ssr:stedsnr" v="1005332" />
		<tag k="ssr:type" v="adressenavn" />
	</node>
	<node lat="60.34958473940376" lon="12.288310965850986" id="-23153">
		<tag k="name" v="Stampetorpvegen" />
		<tag k="ssr:date" v="2019-12-27" />
		<tag k="ssr:gruppe" v="veg" />
		<tag k="ssr:hovedgruppe" v="infrastruktur" />
		<tag k="ssr:stedsnr" v="1006091" />
		<tag k="ssr:type" v="adressenavn" />
	</node>
	<node lat="60.375617875257156" lon="11.89070499496564" id="-23154">
		<tag k="name" v="Nysæter" />
		<tag k="ssr:date" v="2019-12-27" />
		<tag k="ssr:gruppe" v="veg" />
		<tag k="ssr:hovedgruppe" v="infrastruktur" />
		<tag k="ssr:stedsnr" v="1005717" />
		<tag k="ssr:type" v="adressenavn" />
	</node>
	<node lat="60.50273233010169" lon="12.079305161937677" id="-23155">
		<tag k="name" v="Modalsvegen" />
		<tag k="ssr:date" v="2019-12-27" />
		<tag k="ssr:gruppe" v="veg" />
		<tag k="ssr:hovedgruppe" v="infrastruktur" />
		<tag k="ssr:stedsnr" v="1006938" />
		<tag k="ssr:type" v="adressenavn" />
	</node>
	<node lat="60.506714483585554" lon="12.081177404426262" id="-23156">
		<tag k="name" v="Modalsvegen vest" />
		<tag k="ssr:date" v="2019-12-27" />
		<tag k="ssr:gruppe" v="veg" />
		<tag k="ssr:hovedgruppe" v="infrastruktur" />
		<tag k="ssr:stedsnr" v="1006939" />
		<tag k="ssr:type" v="adressenavn" />
	</node>
	<node lat="60.3826489420254" lon="12.038039954516767" id="-23157">
		<tag k="name" v="Hveberg" />
		<tag k="ssr:date" v="2019-12-27" />
		<tag k="ssr:gruppe" v="veg" />
		<tag k="ssr:hovedgruppe" v="infrastruktur" />
		<tag k="ssr:stedsnr" v="1006943" />
		<tag k="ssr:type" v="adressenavn" />
	</node>
	<node lat="60.390987521006465" lon="12.041958374055886" id="-23158">
		<tag k="name" v="Grinderalleen" />
		<tag k="ssr:date" v="2019-12-27" />
		<tag k="ssr:gruppe" v="veg" />
		<tag k="ssr:hovedgruppe" v="infrastruktur" />
		<tag k="ssr:stedsnr" v="1006944" />
		<tag k="ssr:type" v="adressenavn" />
	</node>
	<node lat="60.411904278336415" lon="12.239605245409862" id="-23159">
		<tag k="name" v="Skaslivegen" />
		<tag k="ssr:date" v="2019-12-27" />
		<tag k="ssr:gruppe" v="veg" />
		<tag k="ssr:hovedgruppe" v="infrastruktur" />
		<tag k="ssr:stedsnr" v="1006950" />
		<tag k="ssr:type" v="adressenavn" />
	</node>
	<node lat="60.481508435653026" lon="11.94657054209943" id="-23160">
		<tag k="name" v="Granerudvegen" />
		<tag k="ssr:date" v="2019-12-27" />
		<tag k="ssr:gruppe" v="veg" />
		<tag k="ssr:hovedgruppe" v="infrastruktur" />
		<tag k="ssr:stedsnr" v="1006952" />
		<tag k="ssr:type" v="adressenavn" />
	</node>
	<node lat="60.378083211609656" lon="12.356893198110837" id="-23161">
		<tag k="name" v="Villavegen" />
		<tag k="ssr:date" v="2019-12-27" />
		<tag k="ssr:gruppe" v="veg" />
		<tag k="ssr:hovedgruppe" v="infrastruktur" />
		<tag k="ssr:stedsnr" v="1006885" />
		<tag k="ssr:type" v="adressenavn" />
	</node>
	<node lat="60.513405199419154" lon="12.539272955787006" id="-23162">
		<tag k="name" v="Vestgarden" />
		<tag k="ssr:date" v="2019-12-27" />
		<tag k="ssr:gruppe" v="veg" />
		<tag k="ssr:hovedgruppe" v="infrastruktur" />
		<tag k="ssr:stedsnr" v="1006886" />
		<tag k="ssr:type" v="adressenavn" />
	</node>
	<node lat="60.41959413437001" lon="12.42629624806024" id="-23163">
		<tag k="name" v="Karlstorpvegen" />
		<tag k="ssr:date" v="2019-12-27" />
		<tag k="ssr:gruppe" v="veg" />
		<tag k="ssr:hovedgruppe" v="infrastruktur" />
		<tag k="ssr:stedsnr" v="1006887" />
		<tag k="ssr:type" v="adressenavn" />
	</node>
	<node lat="60.420332892616806" lon="12.412233296507727" id="-23164">
		<tag k="name" v="Gamle lokalvegen" />
		<tag k="ssr:date" v="2019-12-27" />
		<tag k="ssr:gruppe" v="veg" />
		<tag k="ssr:hovedgruppe" v="infrastruktur" />
		<tag k="ssr:stedsnr" v="1006906" />
		<tag k="ssr:type" v="adressenavn" />
	</node>
	<node lat="60.48203162448255" lon="12.017167540117047" id="-23165">
		<tag k="name" v="Holmen" />
		<tag k="ssr:date" v="2019-12-27" />
		<tag k="ssr:gruppe" v="veg" />
		<tag k="ssr:hovedgruppe" v="infrastruktur" />
		<tag k="ssr:stedsnr" v="1006909" />
		<tag k="ssr:type" v="adressenavn" />
	</node>
	<node lat="60.45061110624512" lon="12.053830177908639" id="-23166">
		<tag k="name" v="Rådhusplassen" />
		<tag k="ssr:date" v="2019-12-27" />
		<tag k="ssr:gruppe" v="veg" />
		<tag k="ssr:hovedgruppe" v="infrastruktur" />
		<tag k="ssr:stedsnr" v="1006913" />
		<tag k="ssr:type" v="adressenavn" />
	</node>
	<node lat="60.4514619340263" lon="12.252097733068712" id="-23167">
		<tag k="name" v="Torpvegen" />
		<tag k="ssr:date" v="2019-12-27" />
		<tag k="ssr:gruppe" v="veg" />
		<tag k="ssr:hovedgruppe" v="infrastruktur" />
		<tag k="ssr:stedsnr" v="1006916" />
		<tag k="ssr:type" v="adressenavn" />
	</node>
	<node lat="60.33322638895578" lon="12.23536771898922" id="-23168">
		<tag k="name" v="Åsavegen" />
		<tag k="ssr:date" v="2019-12-27" />
		<tag k="ssr:gruppe" v="veg" />
		<tag k="ssr:hovedgruppe" v="infrastruktur" />
		<tag k="ssr:stedsnr" v="1006926" />
		<tag k="ssr:type" v="adressenavn" />
	</node>
	<node lat="60.45714444421766" lon="12.060047595622331" id="-23169">
		<tag k="name" v="Gruetorget" />
		<tag k="ssr:date" v="2019-12-27" />
		<tag k="ssr:gruppe" v="veg" />
		<tag k="ssr:hovedgruppe" v="infrastruktur" />
		<tag k="ssr:stedsnr" v="1006935" />
		<tag k="ssr:type" v="adressenavn" />
	</node>
	<node lat="60.4380400891379" lon="12.095887567993646" id="-23170">
		<tag k="name" v="Kvernvegen" />
		<tag k="ssr:date" v="2019-12-27" />
		<tag k="ssr:gruppe" v="veg" />
		<tag k="ssr:hovedgruppe" v="infrastruktur" />
		<tag k="ssr:stedsnr" v="1007074" />
		<tag k="ssr:type" v="adressenavn" />
	</node>
	<node lat="60.444180162180025" lon="12.563674479336559" id="-23171">
		<tag k="name" v="Øvre Skåkbergsveg" />
		<tag k="ssr:date" v="2019-12-27" />
		<tag k="ssr:gruppe" v="veg" />
		<tag k="ssr:hovedgruppe" v="infrastruktur" />
		<tag k="ssr:stedsnr" v="1007082" />
		<tag k="ssr:type" v="adressenavn" />
	</node>
	<node lat="60.43736300803069" lon="12.53350130554424" id="-23172">
		<tag k="name" v="Sjøvegen" />
		<tag k="ssr:date" v="2019-12-27" />
		<tag k="ssr:gruppe" v="veg" />
		<tag k="ssr:hovedgruppe" v="infrastruktur" />
		<tag k="ssr:stedsnr" v="1007083" />
		<tag k="ssr:type" v="adressenavn" />
	</node>
	<node lat="60.45887919343808" lon="12.556788211939724" id="-23173">
		<tag k="name" v="Løvhaugen" />
		<tag k="ssr:date" v="2019-12-27" />
		<tag k="ssr:gruppe" v="veg" />
		<tag k="ssr:hovedgruppe" v="infrastruktur" />
		<tag k="ssr:stedsnr" v="1007084" />
		<tag k="ssr:type" v="adressenavn" />
	</node>
	<node lat="60.39025807687066" lon="11.9949043206242" id="-23174">
		<tag k="name" v="Skaraberget" />
		<tag k="ssr:date" v="2019-12-27" />
		<tag k="ssr:gruppe" v="veg" />
		<tag k="ssr:hovedgruppe" v="infrastruktur" />
		<tag k="ssr:stedsnr" v="1007096" />
		<tag k="ssr:type" v="adressenavn" />
	</node>
	<node lat="60.416203737807336" lon="12.204544070241004" id="-23175">
		<tag k="name" v="Sætergrenda" />
		<tag k="ssr:date" v="2019-12-27" />
		<tag k="ssr:gruppe" v="veg" />
		<tag k="ssr:hovedgruppe" v="infrastruktur" />
		<tag k="ssr:stedsnr" v="1007101" />
		<tag k="ssr:type" v="adressenavn" />
	</node>
	<node lat="60.45826890124858" lon="12.057642762846278" id="-23176">
		<tag k="name" v="Gartnerivegen" />
		<tag k="ssr:date" v="2019-12-27" />
		<tag k="ssr:gruppe" v="veg" />
		<tag k="ssr:hovedgruppe" v="infrastruktur" />
		<tag k="ssr:stedsnr" v="1007102" />
		<tag k="ssr:type" v="adressenavn" />
	</node>
	<node lat="60.41508294316579" lon="12.394727707417989" id="-23177">
		<tag k="name" v="Råbergsvegen" />
		<tag k="ssr:date" v="2019-12-27" />
		<tag k="ssr:gruppe" v="veg" />
		<tag k="ssr:hovedgruppe" v="infrastruktur" />
		<tag k="ssr:stedsnr" v="1007105" />
		<tag k="ssr:type" v="adressenavn" />
	</node>
	<node lat="60.474342891587945" lon="12.588821100210723" id="-23178">
		<tag k="name" v="Rosalavegen" />
		<tag k="ssr:date" v="2019-12-27" />
		<tag k="ssr:gruppe" v="veg" />
		<tag k="ssr:hovedgruppe" v="infrastruktur" />
		<tag k="ssr:stedsnr" v="1073324" />
		<tag k="ssr:type" v="vegstrekning" />
	</node>
	<node lat="60.795248707246294" lon="11.082591224285064" id="-23180">
		<tag k="name" v="Innlandet fylke" />
		<tag k="ssr:date" v="2021-06-08" />
		<tag k="ssr:gruppe" v="administrativeIndelinger" />
		<tag k="ssr:hovedgruppe" v="offentligAdministrasjon" />
		<tag k="ssr:stedsnr" v="1074406" />
		<tag k="ssr:type" v="fylke" />
	</node>
	<node lat="60.43137346693795" lon="12.266909656739301" id="-23195">
		<tag k="name" v="Rådyrvegen" />
		<tag k="ssr:date" v="2020-12-16" />
		<tag k="ssr:gruppe" v="veg" />
		<tag k="ssr:hovedgruppe" v="infrastruktur" />
		<tag k="ssr:stedsnr" v="1079382" />
		<tag k="ssr:type" v="adressenavn" />
	</node>
	<node lat="60.431371030686904" lon="12.265668412247715" id="-23196">
		<tag k="name" v="Gaupestien" />
		<tag k="ssr:date" v="2020-12-16" />
		<tag k="ssr:gruppe" v="veg" />
		<tag k="ssr:hovedgruppe" v="infrastruktur" />
		<tag k="ssr:stedsnr" v="1079383" />
		<tag k="ssr:type" v="adressenavn" />
	</node>
</osm>
