<?xml version="1.0" encoding="UTF-8"?>
<osm version="0.6" generator="osmapis">
	<node lat="62.09089444670469" lon="5.743841664008104" id="-6332">
		<tag k="alt_name" v="Syvde" />
		<tag k="amenity" v="place_of_worship" />
		<tag k="denomination" v="lutheran" />
		<tag k="name" v="Syvde kyrkje" />
		<tag k="religion" v="christian" />
		<tag k="ssr:stedsnr" v="236893" />
	</node>
	<node lat="62.08728610799685" lon="5.728769435313988" id="-7110">
		<tag k="name" v="Noteplassen" />
		<tag k="place" v="locality" />
		<tag k="ssr:stedsnr" v="939907" />
	</node>
	<node lat="62.07472185893531" lon="5.525323574185889" id="-7404">
		<tag k="amenity" v="place_of_worship" />
		<tag k="denomination" v="lutheran" />
		<tag k="name" v="Vanylven kyrkje" />
		<tag k="religion" v="christian" />
		<tag k="ssr:stedsnr" v="193315" />
	</node>
	<node lat="62.176262267182295" lon="5.739751325743125" id="-7419">
		<tag k="amenity" v="place_of_worship" />
		<tag k="denomination" v="lutheran" />
		<tag k="name" v="Rovde kyrkje" />
		<tag k="religion" v="christian" />
		<tag k="ssr:stedsnr" v="202152" />
	</node>
	<node lat="62.03986111118741" lon="5.519050004197404" id="-7749">
		<tag k="alt_name" v="St. Jetmundskyrkja;Åheim" />
		<tag k="amenity" v="place_of_worship" />
		<tag k="denomination" v="lutheran" />
		<tag k="name" v="St. Jetmund kyrkje" />
		<tag k="religion" v="christian" />
		<tag k="ssr:stedsnr" v="513489" />
	</node>
	<node lat="62.197979640100485" lon="5.4905769815107535" id="-7808">
		<tag k="alt_name" v="Åram" />
		<tag k="amenity" v="place_of_worship" />
		<tag k="denomination" v="lutheran" />
		<tag k="name" v="Åram kyrkje" />
		<tag k="religion" v="christian" />
		<tag k="ssr:stedsnr" v="557517" />
	</node>
	<node lat="62.10208435416081" lon="5.457536950154403" id="-8416">
		<tag k="name" v="Sogehuset" />
		<tag k="ssr:stedsnr" v="1082094" />
		<tag k="tourism" v="museum" />
	</node>
</osm>
