<?xml version="1.0" encoding="UTF-8"?>
<osm generator="osmapis" version="0.6">
	<node id="-58875" lat="62.0774888854" lon="5.54922223106">
		<tag k="name" v="Korsnesvika" />
		<tag k="natural" v="bay" />
		<tag k="ssr:stedsnr" v="574671" />
	</node>
	<node id="-58870" lat="62.1081111156" lon="5.72423611554">
		<tag k="name" v="Oppsalvika" />
		<tag k="natural" v="bay" />
		<tag k="ssr:stedsnr" v="571748" />
	</node>
	<node id="-58356" lat="62.1910499997" lon="5.51466111247">
		<tag k="name" v="Kuberget" />
		<tag k="natural" v="cape" />
		<tag k="ssr:stedsnr" v="281962" />
	</node>
	<node id="-58349" lat="62.196866662" lon="5.82042499143">
		<tag k="name" v="Vikane" />
		<tag k="natural" v="bay" />
		<tag k="ssr:stedsnr" v="162903" />
	</node>
	<node id="-58344" lat="62.1498944428" lon="5.42269165791">
		<tag k="name" v="Moldvikneset" />
		<tag k="natural" v="cape" />
		<tag k="ssr:stedsnr" v="279860" />
	</node>
	<node id="-59956" lat="62.0751416667" lon="5.58965832654">
		<tag k="alt_name" v="Kråkeneset" />
		<tag k="name" v="Krokeneset" />
		<tag k="natural" v="cape" />
		<tag k="ssr:stedsnr" v="617344" />
	</node>
	<node id="-58342" lat="62.1999916671" lon="5.49407777669">
		<tag k="alt_name" v="Åramholmen" />
		<tag k="name" v="Åramholmane" />
		<tag k="place" v="islet" />
		<tag k="ssr:stedsnr" v="158904" />
	</node>
	<node id="-59227" lat="62.0808472178" lon="5.55602499677">
		<tag k="fixme" v="consider seamark:type=rock or natural=shoal" />
		<tag k="name" v="Flysjene" />
		<tag k="place" v="islet" />
		<tag k="ssr:stedsnr" v="938613" />
	</node>
	<node id="-58844" lat="62.1995111152" lon="5.48658889283">
		<tag k="name" v="Åramneset" />
		<tag k="natural" v="cape" />
		<tag k="ssr:stedsnr" v="704883" />
	</node>
	<node id="-58839" lat="62.0868222228" lon="5.55776110904">
		<tag k="name" v="Låtrefluda" />
		<tag k="natural" v="shoal" />
		<tag k="place" v="locality" />
		<tag k="ssr:stedsnr" v="557309" />
	</node>
	<node id="-59862" lat="62.1143666675" lon="5.41679721405">
		<tag k="name" v="Brudevika" />
		<tag k="natural" v="bay" />
		<tag k="ssr:stedsnr" v="556440" />
	</node>
	<node id="-59056" lat="62.0706499974" lon="5.59078055944">
		<tag k="name" v="Kroknes" />
		<tag k="natural" v="cape" />
		<tag k="ssr:stedsnr" v="921335" />
	</node>
	<node id="-59855" lat="62.1396027746" lon="5.40649721815">
		<tag k="name" v="Stornesfludene" />
		<tag k="natural" v="shoal" />
		<tag k="place" v="locality" />
		<tag k="ssr:stedsnr" v="542124" />
	</node>
	<node id="-58826" lat="62.1006805523" lon="5.45241111223">
		<tag k="name" v="Sighaugvika" />
		<tag k="natural" v="bay" />
		<tag k="ssr:stedsnr" v="556465" />
	</node>
	<node id="-59849" lat="62.1646638886" lon="5.58078333938">
		<tag k="name" v="Haggarvika" />
		<tag k="natural" v="bay" />
		<tag k="ssr:stedsnr" v="523920" />
	</node>
	<node id="-59336" lat="62.1942583336" lon="5.45541665758">
		<tag k="name" v="Ytstefluda" />
		<tag k="natural" v="shoal" />
		<tag k="place" v="locality" />
		<tag k="ssr:stedsnr" v="72520" />
	</node>
	<node id="-58308" lat="62.0504527756" lon="5.52671943999">
		<tag k="name" v="Neset" />
		<tag k="natural" v="cape" />
		<tag k="ssr:stedsnr" v="271650" />
	</node>
	<node id="-59382" lat="62.0313499976" lon="5.51127221751">
		<tag k="name" v="Tuevikane" />
		<tag k="natural" v="bay" />
		<tag k="ssr:stedsnr" v="88363" />
	</node>
	<node id="-59837" lat="62.1710916625" lon="5.63426110773">
		<tag k="name" v="Koparnesvika" />
		<tag k="natural" v="bay" />
		<tag k="ssr:stedsnr" v="522901" />
	</node>
	<node id="-59835" lat="62.1902666693" lon="5.51566944566">
		<tag k="name" v="Espenesvika" />
		<tag k="natural" v="bay" />
		<tag k="ssr:stedsnr" v="522888" />
	</node>
	<node id="-59322" lat="62.171991663" lon="5.55115000619">
		<tag k="name" v="Lidaneset" />
		<tag k="natural" v="cape" />
		<tag k="ssr:stedsnr" v="71565" />
	</node>
	<node id="-59832" lat="62.1431944432" lon="5.41549445329">
		<tag k="fixme" v="consider seamark:type=rock or natural=shoal" />
		<tag k="name" v="Rønstadbollane" />
		<tag k="place" v="islet" />
		<tag k="ssr:stedsnr" v="522830" />
	</node>
	<node id="-59831" lat="62.1733111113" lon="5.54855555921">
		<tag k="name" v="Morteberget" />
		<tag k="natural" v="cape" />
		<tag k="ssr:stedsnr" v="522824" />
	</node>
	<node id="-59316" lat="62.1228944445" lon="5.41816944186">
		<tag k="name" v="Randi" />
		<tag k="natural" v="cape" />
		<tag k="ssr:stedsnr" v="56106" />
	</node>
	<node id="-59315" lat="62.1730861103" lon="5.72563888397">
		<tag k="name" v="Rovdebogen" />
		<tag k="natural" v="bay" />
		<tag k="ssr:stedsnr" v="51959" />
	</node>
	<node id="-59826" lat="62.1995143381" lon="5.4967023893">
		<tag k="fixme" v="consider seamark:type=rock or natural=shoal" />
		<tag k="name" v="Åramskjeret" />
		<tag k="place" v="islet" />
		<tag k="ssr:stedsnr" v="436522" />
	</node>
	<node id="-58289" lat="62.1008027751" lon="5.52442500934">
		<tag k="name" v="Seljesteinstranda" />
		<tag k="natural" v="beach" />
		<tag k="place" v="locality" />
		<tag k="ssr:stedsnr" v="269688" />
	</node>
	<node id="-60232" lat="62.1672388852" lon="5.43646665988">
		<tag k="name" v="Bergsnevneset" />
		<tag k="natural" v="cape" />
		<tag k="ssr:stedsnr" v="825852" />
	</node>
	<node id="-59307" lat="62.1791111092" lon="5.4422777837">
		<tag k="name" v="Klovningsvika" />
		<tag k="natural" v="bay" />
		<tag k="ssr:stedsnr" v="36899" />
	</node>
	<node id="-58277" lat="62.0987138874" lon="5.55164999305">
		<tag k="name" v="Eidsberget" />
		<tag k="natural" v="cape" />
		<tag k="ssr:stedsnr" v="268634" />
	</node>
	<node id="-59809" lat="62.1849333363" lon="5.55590556109">
		<tag k="bay" v="fjord" />
		<tag k="name" v="Rovdefjorden" />
		<tag k="natural" v="bay" />
		<tag k="ssr:stedsnr" v="435537" />
	</node>
	<node id="-59806" lat="62.0283888847" lon="5.49958055822">
		<tag k="name" v="Børholmen" />
		<tag k="place" v="islet" />
		<tag k="ssr:stedsnr" v="435347" />
	</node>
	<node id="-58780" lat="62.0995694475" lon="5.55240278616">
		<tag k="name" v="Djuvika" />
		<tag k="natural" v="bay" />
		<tag k="ssr:stedsnr" v="693652" />
	</node>
	<node id="-60043" lat="62.1910111154" lon="5.46375833572">
		<tag k="name" v="Nystøylneset" />
		<tag k="natural" v="cape" />
		<tag k="ssr:stedsnr" v="738546" />
	</node>
	<node id="-58180" lat="62.1035694468" lon="5.43610000608">
		<tag k="alt_name" v="Brutangen;Sighaugneset" />
		<tag k="name" v="Bruneset" />
		<tag k="natural" v="cape" />
		<tag k="ssr:stedsnr" v="71411" />
	</node>
	<node id="-58773" lat="62.0762805523" lon="5.51751389779">
		<tag k="fixme" v="consider seamark:type=rock or natural=shoal" />
		<tag k="name" v="Bekreskjeret" />
		<tag k="place" v="islet" />
		<tag k="ssr:stedsnr" v="540206" />
	</node>
	<node id="-58763" lat="62.0692611106" lon="5.52228055459">
		<tag k="name" v="Åreneset" />
		<tag k="natural" v="cape" />
		<tag k="ssr:stedsnr" v="513715" />
	</node>
	<node id="-58762" lat="62.0367305585" lon="5.52592778383">
		<tag k="name" v="Flatholmen" />
		<tag k="place" v="islet" />
		<tag k="ssr:stedsnr" v="513463" />
	</node>
	<node id="-60297" lat="62.0669416684" lon="5.62155555786">
		<tag k="name" v="Skjerveimsbogen" />
		<tag k="natural" v="bay" />
		<tag k="ssr:stedsnr" v="951825" />
	</node>
	<node id="-58758" lat="62.0698250036" lon="5.59400555711">
		<tag k="name" v="Kræmarvika" />
		<tag k="natural" v="bay" />
		<tag k="ssr:stedsnr" v="513095" />
	</node>
	<node id="-59201" lat="62.0827916629" lon="5.54643333597">
		<tag k="name" v="Korsnesfluda" />
		<tag k="natural" v="shoal" />
		<tag k="place" v="locality" />
		<tag k="ssr:stedsnr" v="949677" />
	</node>
	<node id="-59200" lat="62.1354999958" lon="5.41014999177">
		<tag k="fixme" v="consider seamark:type=rock or natural=shoal" />
		<tag k="name" v="Bollane" />
		<tag k="place" v="islet" />
		<tag k="ssr:stedsnr" v="948995" />
	</node>
	<node id="-59262" lat="62.2046027803" lon="5.47094165938">
		<tag k="name" v="Åramsundet" />
		<tag k="natural" v="strait" />
		<tag k="ssr:stedsnr" v="11591" />
	</node>
	<node id="-60285" lat="62.1420888909" lon="5.41395833561">
		<tag k="alt_name" v="Krokvikholmen;Krokevikholmen" />
		<tag k="name" v="Krokholmen" />
		<tag k="place" v="islet" />
		<tag k="ssr:stedsnr" v="861406" />
	</node>
	<node id="-59258" lat="62.1532333321" lon="5.4290999912">
		<tag k="name" v="Halseklubben" />
		<tag k="natural" v="cape" />
		<tag k="ssr:stedsnr" v="11462" />
	</node>
	<node id="-58744" lat="62.1289111127" lon="5.39111943937">
		<tag k="fixme" v="consider seamark:type=rock or natural=shoal" />
		<tag k="name" v="Småskjera" />
		<tag k="place" v="islet" />
		<tag k="ssr:stedsnr" v="496511" />
	</node>
	<node id="-59253" lat="62.1230555594" lon="5.69418332453">
		<tag k="name" v="Uraneset" />
		<tag k="natural" v="cape" />
		<tag k="ssr:stedsnr" v="11386" />
	</node>
	<node id="-59248" lat="62.1972222221" lon="5.80272777802">
		<tag k="alt_name" v="Hesteneset" />
		<tag k="name" v="Øykjeneset" />
		<tag k="natural" v="cape" />
		<tag k="ssr:stedsnr" v="11074" />
	</node>
	<node id="-59759" lat="62.0288305554" lon="5.50722778093">
		<tag k="name" v="Tuestranda" />
		<tag k="natural" v="beach" />
		<tag k="place" v="locality" />
		<tag k="ssr:stedsnr" v="391450" />
	</node>
	<node id="-58429" lat="62.0797305534" lon="5.53507500195">
		<tag k="name" v="Lyngholmen" />
		<tag k="place" v="islet" />
		<tag k="ssr:stedsnr" v="254307" />
	</node>
	<node id="-60267" lat="62.1010541563" lon="5.61310255326">
		<tag k="name" v="Syvdseidet" />
		<tag k="place" v="locality" />
		<tag k="ssr:stedsnr" v="860483" />
	</node>
	<node id="-58218" lat="62.086952781" lon="5.51423889001">
		<tag k="bay" v="fjord" />
		<tag k="name" v="Syltefjorden" />
		<tag k="natural" v="bay" />
		<tag k="ssr:stedsnr" v="253372" />
	</node>
	<node id="-59753" lat="62.0681916654" lon="5.57771389252">
		<tag k="name" v="Storøyra" />
		<tag k="natural" v="cape" />
		<tag k="ssr:stedsnr" v="391094" />
	</node>
	<node id="-58212" lat="62.0451833337" lon="5.51416388345">
		<tag k="alt_name" v="Torvholmen" />
		<tag k="fixme" v="multiple name tags, choose one and add the other to alt_name" />
		<tag k="name" v="Torholmen;Torvikholmen" />
		<tag k="place" v="islet" />
		<tag k="ssr:stedsnr" v="253321" />
	</node>
	<node id="-58722" lat="62.1364694486" lon="5.4114361076">
		<tag k="name" v="Kviteneset" />
		<tag k="natural" v="cape" />
		<tag k="ssr:stedsnr" v="678498" />
	</node>
	<node id="-58720" lat="62.0770166672" lon="5.55880277228">
		<tag k="alt_name" v="Vikeneset" />
		<tag k="name" v="Vikneset" />
		<tag k="natural" v="cape" />
		<tag k="ssr:stedsnr" v="678340" />
	</node>
	<node id="-58719" lat="62.0773833371" lon="5.53352221663">
		<tag k="name" v="Grøtholmen" />
		<tag k="place" v="islet" />
		<tag k="ssr:stedsnr" v="678339" />
	</node>
	<node id="-58597" lat="62.0184055532" lon="5.4920999908">
		<tag k="name" v="Åreneset" />
		<tag k="natural" v="cape" />
		<tag k="ssr:stedsnr" v="392667" />
	</node>
	<node id="-59228" lat="62.0763250018" lon="5.52519722348">
		<tag k="name" v="Kråkegullhammaren" />
		<tag k="natural" v="cape" />
		<tag k="ssr:stedsnr" v="938619" />
	</node>
	<node id="-58170" lat="62.0651027794" lon="5.61955555426">
		<tag k="name" v="Vidnesfluda" />
		<tag k="natural" v="shoal" />
		<tag k="place" v="locality" />
		<tag k="ssr:stedsnr" v="55220" />
	</node>
	<node id="-59736" lat="62.0994583306" lon="5.54897777264">
		<tag k="name" v="Ragnhildberget" />
		<tag k="natural" v="cape" />
		<tag k="ssr:stedsnr" v="390627" />
	</node>
	<node id="-58168" lat="62.1342638903" lon="5.40962500697">
		<tag k="name" v="Fleene" />
		<tag k="natural" v="shoal" />
		<tag k="place" v="locality" />
		<tag k="ssr:stedsnr" v="40252" />
	</node>
	<node id="-58701" lat="62.0933722213" lon="5.56679721908">
		<tag k="name" v="Kobbesteinane" />
		<tag k="place" v="locality" />
		<tag k="seamark:type" v="rock" />
		<tag k="ssr:stedsnr" v="663232" />
	</node>
	<node id="-60235" lat="62.1918638915" lon="5.46918333249">
		<tag k="name" v="Nystøylstranda" />
		<tag k="natural" v="beach" />
		<tag k="place" v="locality" />
		<tag k="ssr:stedsnr" v="825909" />
	</node>
	<node id="-59210" lat="62.1637055581" lon="5.60131388948">
		<tag k="name" v="Seljegylvika" />
		<tag k="natural" v="bay" />
		<tag k="ssr:stedsnr" v="888922" />
	</node>
	<node id="-60233" lat="62.1534555522" lon="5.42768332966">
		<tag k="name" v="Halseneset" />
		<tag k="natural" v="cape" />
		<tag k="ssr:stedsnr" v="825853" />
	</node>
	<node id="-59720" lat="62.0629861107" lon="5.52269722095">
		<tag k="name" v="Svoringevika" />
		<tag k="natural" v="bay" />
		<tag k="ssr:stedsnr" v="375324" />
	</node>
	<node id="-58693" lat="62.0196555574" lon="5.49272778487">
		<tag k="name" v="Årvika" />
		<tag k="natural" v="bay" />
		<tag k="ssr:stedsnr" v="453621" />
	</node>
	<node id="-58692" lat="62.0230250009" lon="5.4982805618">
		<tag k="name" v="Breivika" />
		<tag k="natural" v="bay" />
		<tag k="ssr:stedsnr" v="453620" />
	</node>
	<node id="-58251" lat="62.1413361132" lon="5.67240832376">
		<tag k="name" v="Suggeneset" />
		<tag k="natural" v="cape" />
		<tag k="ssr:stedsnr" v="99962" />
	</node>
	<node id="-60224" lat="62.0880861138" lon="5.72192778307">
		<tag k="alt_name" v="Vika" />
		<tag k="name" v="Sandelvika" />
		<tag k="natural" v="bay" />
		<tag k="ssr:stedsnr" v="818888" />
	</node>
	<node id="-59957" lat="62.0736888927" lon="5.59283612">
		<tag k="alt_name" v="Mjåneset" />
		<tag k="name" v="Mjågeneset" />
		<tag k="natural" v="cape" />
		<tag k="ssr:stedsnr" v="617345" />
	</node>
	<node id="-60298" lat="62.0729333374" lon="5.55856944084">
		<tag k="name" v="Bakkevika" />
		<tag k="natural" v="bay" />
		<tag k="ssr:stedsnr" v="965230" />
	</node>
	<node id="-59194" lat="62.1378388877" lon="5.41160278132">
		<tag k="alt_name" v="Storneset" />
		<tag k="name" v="Storeneset" />
		<tag k="natural" v="cape" />
		<tag k="ssr:stedsnr" v="947852" />
	</node>
	<node id="-59193" lat="62.1429361137" lon="5.41815000901">
		<tag k="name" v="Litleholmen" />
		<tag k="place" v="islet" />
		<tag k="ssr:stedsnr" v="947850" />
	</node>
	<node id="-60216" lat="62.027377775" lon="5.49843055261">
		<tag k="name" v="Klubben" />
		<tag k="natural" v="cape" />
		<tag k="ssr:stedsnr" v="817603" />
	</node>
	<node id="-58167" lat="62.1545527771" lon="5.65862778515">
		<tag k="name" v="Krokåvika" />
		<tag k="natural" v="bay" />
		<tag k="ssr:stedsnr" v="38961" />
	</node>
	<node id="-59701" lat="62.139591666" lon="5.37510278608">
		<tag k="name" v="Tåna" />
		<tag k="natural" v="shoal" />
		<tag k="place" v="locality" />
		<tag k="ssr:stedsnr" v="359132" />
	</node>
	<node id="-58676" lat="62.1843499965" lon="5.73653333556">
		<tag k="name" v="Åttåfluda" />
		<tag k="natural" v="shoal" />
		<tag k="place" v="locality" />
		<tag k="ssr:stedsnr" v="658952" />
	</node>
	<node id="-58675" lat="62.1846361112" lon="5.74261666952">
		<tag k="fixme" v="consider seamark:type=rock or natural=shoal" />
		<tag k="name" v="Bekårskjeret" />
		<tag k="place" v="islet" />
		<tag k="ssr:stedsnr" v="658951" />
	</node>
	<node id="-59696" lat="62.1512777764" lon="5.66216944835">
		<tag k="name" v="Storneset" />
		<tag k="natural" v="cape" />
		<tag k="ssr:stedsnr" v="341959" />
	</node>
	<node id="-59183" lat="62.1322305565" lon="5.40401111524">
		<tag k="name" v="Hellesundet" />
		<tag k="natural" v="strait" />
		<tag k="ssr:stedsnr" v="846105" />
	</node>
	<node id="-58158" lat="62.1932111123" lon="5.50033056359">
		<tag k="name" v="Åramsvika" />
		<tag k="natural" v="bay" />
		<tag k="ssr:stedsnr" v="36862" />
	</node>
	<node id="-59691" lat="62.1648944462" lon="5.61243055356">
		<tag k="name" v="Såthaugvika" />
		<tag k="natural" v="bay" />
		<tag k="ssr:stedsnr" v="341932" />
	</node>
	<node id="-59684" lat="62.2007222239" lon="5.49088887919">
		<tag k="name" v="Kvitskjeret" />
		<tag k="place" v="islet" />
		<tag k="ssr:stedsnr" v="340860" />
	</node>
	<node id="-58142" lat="62.0994166663" lon="5.45982778458">
		<tag k="name" v="Hundsneset" />
		<tag k="natural" v="cape" />
		<tag k="ssr:stedsnr" v="11425" />
	</node>
	<node id="-58159" lat="62.1958555581" lon="5.49636111794">
		<tag k="name" v="Åramstranda" />
		<tag k="natural" v="beach" />
		<tag k="place" v="locality" />
		<tag k="ssr:stedsnr" v="36903" />
	</node>
	<node id="-58132" lat="62.1339500029" lon="5.69652778614">
		<tag k="name" v="Skoravika" />
		<tag k="natural" v="bay" />
		<tag k="ssr:stedsnr" v="221062" />
	</node>
	<node id="-58130" lat="62.1645361146" lon="5.58447778134">
		<tag k="name" v="Rotneset" />
		<tag k="natural" v="cape" />
		<tag k="ssr:stedsnr" v="220987" />
	</node>
	<node id="-60177" lat="62.2019527768" lon="5.4794111182">
		<tag k="fixme" v="consider seamark:type=rock or natural=shoal" />
		<tag k="name" v="Kvalen" />
		<tag k="place" v="islet" />
		<tag k="ssr:stedsnr" v="800534" />
	</node>
	<node id="-59664" lat="62.0468361087" lon="5.52442778294">
		<tag k="name" v="Saltvika" />
		<tag k="natural" v="bay" />
		<tag k="ssr:stedsnr" v="331438" />
	</node>
	<node id="-59192" lat="62.1947833301" lon="5.47633334">
		<tag k="name" v="Sætrevika" />
		<tag k="natural" v="bay" />
		<tag k="ssr:stedsnr" v="947902" />
	</node>
	<node id="-59655" lat="62.1136694462" lon="5.68057499577">
		<tag k="name" v="Buvika" />
		<tag k="natural" v="bay" />
		<tag k="ssr:stedsnr" v="331038" />
	</node>
	<node id="-59700" lat="62.1753305519" lon="5.66908056038">
		<tag k="name" v="Syvdsnesfluda" />
		<tag k="natural" v="shoal" />
		<tag k="place" v="locality" />
		<tag k="ssr:stedsnr" v="355891" />
	</node>
	<node id="-60164" lat="62.1736972209" lon="5.67362221434">
		<tag k="name" v="Syvdsneset" />
		<tag k="natural" v="cape" />
		<tag k="ssr:stedsnr" v="799542" />
	</node>
	<node id="-58838" lat="62.0799388895" lon="5.55353332849">
		<tag k="name" v="Vikeholmen" />
		<tag k="place" v="islet" />
		<tag k="ssr:stedsnr" v="557308" />
	</node>
	<node id="-60157" lat="62.1363611082" lon="5.41250555141">
		<tag k="name" v="Råna" />
		<tag k="natural" v="cape" />
		<tag k="ssr:stedsnr" v="784130" />
	</node>
	<node id="-60156" lat="62.1015111072" lon="5.44828888389">
		<tag k="fixme" v="consider seamark:type=rock or natural=shoal" />
		<tag k="name" v="Sighaugskjeret" />
		<tag k="place" v="islet" />
		<tag k="ssr:stedsnr" v="784127" />
	</node>
	<node id="-60155" lat="62.1593888901" lon="5.43600277925">
		<tag k="name" v="Håbergfluda" />
		<tag k="natural" v="shoal" />
		<tag k="place" v="locality" />
		<tag k="ssr:stedsnr" v="784063" />
	</node>
	<node id="-60154" lat="62.1393027798" lon="5.37158610682">
		<tag k="name" v="Tåna" />
		<tag k="natural" v="shoal" />
		<tag k="place" v="locality" />
		<tag k="ssr:stedsnr" v="784054" />
	</node>
	<node id="-59636" lat="62.0516444465" lon="5.61854166973">
		<tag k="name" v="Grøtneset" />
		<tag k="natural" v="cape" />
		<tag k="ssr:stedsnr" v="329100" />
	</node>
	<node id="-59091" lat="62.1056777807" lon="5.72773054996">
		<tag k="name" v="Korsneset" />
		<tag k="natural" v="cape" />
		<tag k="ssr:stedsnr" v="815857" />
	</node>
	<node id="-59118" lat="62.1717527778" lon="5.68747499332">
		<tag k="name" v="Syvdsnesstranda" />
		<tag k="natural" v="beach" />
		<tag k="place" v="locality" />
		<tag k="ssr:stedsnr" v="936500" />
	</node>
	<node id="-59111" lat="62.049772225" lon="5.61420833197">
		<tag k="name" v="Syltevika" />
		<tag k="natural" v="bay" />
		<tag k="ssr:stedsnr" v="936084" />
	</node>
	<node id="-60133" lat="62.1980833303" lon="5.8271555526">
		<tag k="name" v="Korsfurneset" />
		<tag k="natural" v="cape" />
		<tag k="ssr:stedsnr" v="758843" />
	</node>
	<node id="-58406" lat="62.069411113" lon="5.62146110147">
		<tag k="name" v="Floten" />
		<tag k="natural" v="beach" />
		<tag k="place" v="locality" />
		<tag k="ssr:stedsnr" v="451099" />
	</node>
	<node id="-58590" lat="62.1159111144" lon="5.67700278383">
		<tag k="name" v="Svarteneset" />
		<tag k="natural" v="cape" />
		<tag k="ssr:stedsnr" v="391160" />
	</node>
	<node id="-59421" lat="62.1928194443" lon="5.47791110973">
		<tag k="name" v="Bukta" />
		<tag k="natural" v="bay" />
		<tag k="ssr:stedsnr" v="99991" />
	</node>
	<node id="-58489" lat="62.1731388909" lon="5.43743888606">
		<tag k="name" v="Håkallestranda" />
		<tag k="natural" v="beach" />
		<tag k="place" v="locality" />
		<tag k="ssr:stedsnr" v="465801" />
	</node>
	<node id="-59092" lat="62.1353722248" lon="5.67629999208">
		<tag k="name" v="Øyravika" />
		<tag k="natural" v="bay" />
		<tag k="ssr:stedsnr" v="816166" />
	</node>
	<node id="-59603" lat="62.0875472237" lon="5.73292222741">
		<tag k="name" v="Naustvika" />
		<tag k="natural" v="bay" />
		<tag k="ssr:stedsnr" v="211894" />
	</node>
	<node id="-59087" lat="62.0962500032" lon="5.54983610944">
		<tag k="name" v="Fiskåholmen" />
		<tag k="place" v="islet" />
		<tag k="ssr:stedsnr" v="815655" />
	</node>
	<node id="-60110" lat="62.0734861095" lon="5.55534166703">
		<tag k="name" v="Gamlehaugvika" />
		<tag k="natural" v="bay" />
		<tag k="ssr:stedsnr" v="756663" />
	</node>
	<node id="-60109" lat="62.075986113" lon="5.53247499869">
		<tag k="name" v="Slagnesvika" />
		<tag k="natural" v="bay" />
		<tag k="ssr:stedsnr" v="756655" />
	</node>
	<node id="-58229" lat="62.189363888" lon="5.51647499872">
		<tag k="name" v="Espeneset" />
		<tag k="natural" v="cape" />
		<tag k="ssr:stedsnr" v="253587" />
	</node>
	<node id="-59593" lat="62.0629694457" lon="5.52391944444">
		<tag k="name" v="Småstranda" />
		<tag k="natural" v="beach" />
		<tag k="place" v="locality" />
		<tag k="ssr:stedsnr" v="210605" />
	</node>
	<node id="-60104" lat="62.0695166655" lon="5.58010277302">
		<tag k="name" v="Årneset" />
		<tag k="natural" v="cape" />
		<tag k="ssr:stedsnr" v="756077" />
	</node>
	<node id="-59589" lat="62.0674916675" lon="5.59962499595">
		<tag k="name" v="Hatleneset" />
		<tag k="natural" v="cape" />
		<tag k="ssr:stedsnr" v="210086" />
	</node>
	<node id="-59588" lat="62.0718388847" lon="5.58946110335">
		<tag k="alt_name" v="Vågen" />
		<tag k="name" v="Krokenesvågen" />
		<tag k="natural" v="bay" />
		<tag k="ssr:stedsnr" v="210037" />
	</node>
	<node id="-58563" lat="62.18763889" lon="5.79543611471">
		<tag k="name" v="Sundnesbogen" />
		<tag k="natural" v="bay" />
		<tag k="ssr:stedsnr" v="374116" />
	</node>
	<node id="-58912" lat="62.097672219" lon="5.46605278109">
		<tag k="name" v="Hundsnesfluda" />
		<tag k="place" v="locality" />
		<tag k="seamark:type" v="rock" />
		<tag k="ssr:stedsnr" v="646696" />
	</node>
	<node id="-58741" lat="62.0781887417" lon="5.52186759329">
		<tag k="alt_name" v="Bekreskjeret" />
		<tag k="name" v="Bekren" />
		<tag k="place" v="locality" />
		<tag k="seamark:type" v="rock" />
		<tag k="ssr:stedsnr" v="496323" />
	</node>
	<node id="-58555" lat="62.2027194472" lon="5.48418889385">
		<tag k="alt_name" v="Blæja" />
		<tag k="fixme" v="consider seamark:type=rock or natural=shoal" />
		<tag k="name" v="Bleia" />
		<tag k="place" v="islet" />
		<tag k="ssr:stedsnr" v="496606" />
	</node>
	<node id="-58996" lat="62.1857333344" lon="5.51979165809">
		<tag k="name" v="Årsetstranda" />
		<tag k="natural" v="beach" />
		<tag k="place" v="locality" />
		<tag k="ssr:stedsnr" v="888885" />
	</node>
	<node id="-59061" lat="62.0944222182" lon="5.56301667273">
		<tag k="bay" v="fjord" />
		<tag k="name" v="Vanylvsfjorden" />
		<tag k="natural" v="bay" />
		<tag k="ssr:stedsnr" v="921423" />
	</node>
	<node id="-60080" lat="62.0994888874" lon="5.46407500923">
		<tag k="name" v="Hundsnesvika" />
		<tag k="natural" v="bay" />
		<tag k="ssr:stedsnr" v="754709" />
	</node>
	<node id="-59592" lat="62.0375805537" lon="5.52319999128">
		<tag k="name" v="Klungreholmen" />
		<tag k="place" v="islet" />
		<tag k="ssr:stedsnr" v="210460" />
	</node>
	<node id="-59053" lat="62.0227055532" lon="5.49471389369">
		<tag k="name" v="Høyfarneset" />
		<tag k="natural" v="cape" />
		<tag k="ssr:stedsnr" v="921303" />
	</node>
	<node id="-59564" lat="62.1026527812" lon="5.442622218">
		<tag k="name" v="Bruvika" />
		<tag k="natural" v="bay" />
		<tag k="ssr:stedsnr" v="208727" />
	</node>
	<node id="-58993" lat="62.14628889" lon="5.67052222325">
		<tag k="name" v="Sandnestangen" />
		<tag k="natural" v="cape" />
		<tag k="ssr:stedsnr" v="888956" />
	</node>
	<node id="-59080" lat="62.1373611136" lon="5.38331666649">
		<tag k="name" v="Galgeholmen" />
		<tag k="place" v="islet" />
		<tag k="ssr:stedsnr" v="800439" />
	</node>
	<node id="-58528" lat="62.0788694435" lon="5.61225832688">
		<tag k="name" v="Bøstranda" />
		<tag k="natural" v="beach" />
		<tag k="place" v="locality" />
		<tag k="ssr:stedsnr" v="481249" />
	</node>
	<node id="-58527" lat="62.1472416681" lon="5.41870833639">
		<tag k="name" v="Røynestadbåane" />
		<tag k="natural" v="shoal" />
		<tag k="place" v="locality" />
		<tag k="ssr:stedsnr" v="481134" />
	</node>
	<node id="-58735" lat="62.1825277798" lon="5.74141110459">
		<tag k="fixme" v="consider seamark:type=rock or natural=shoal" />
		<tag k="name" v="Rovdeskjeret" />
		<tag k="place" v="islet" />
		<tag k="ssr:stedsnr" v="496103" />
	</node>
	<node id="-58564" lat="62.1880361093" lon="5.79796389777">
		<tag k="name" v="Sundnes" />
		<tag k="natural" v="cape" />
		<tag k="ssr:stedsnr" v="374120" />
	</node>
	<node id="-59541" lat="62.2074499994" lon="5.52383889398">
		<tag k="bay" v="fjord" />
		<tag k="name" v="Hallefjorden" />
		<tag k="natural" v="bay" />
		<tag k="ssr:stedsnr" v="193554" />
	</node>
	<node id="-59026" lat="62.1908388888" lon="5.45943332772">
		<tag k="name" v="Nystøylfludene" />
		<tag k="natural" v="shoal" />
		<tag k="place" v="locality" />
		<tag k="ssr:stedsnr" v="901449" />
	</node>
	<node id="-59843" lat="62.1703944477" lon="5.55498332521">
		<tag k="name" v="Lidavika" />
		<tag k="natural" v="bay" />
		<tag k="ssr:stedsnr" v="523997" />
	</node>
	<node id="-59024" lat="62.0391861088" lon="5.51889166803">
		<tag k="name" v="Åeid" />
		<tag k="place" v="locality" />
		<tag k="ssr:stedsnr" v="722221" />
	</node>
	<node id="-59531" lat="62.1946111133" lon="5.79588889589">
		<tag k="alt_name" v="Sundsneset" />
		<tag k="name" v="Sundnesneset" />
		<tag k="natural" v="cape" />
		<tag k="ssr:stedsnr" v="193088" />
	</node>
	<node id="-59017" lat="62.038211114" lon="5.51223889191">
		<tag k="fixme" v="consider seamark:type=rock or natural=shoal" />
		<tag k="name" v="Tueskjeret" />
		<tag k="place" v="islet" />
		<tag k="ssr:stedsnr" v="695469" />
	</node>
	<node id="-59016" lat="62.0365694453" lon="5.51217222469">
		<tag k="name" v="Grotholmen" />
		<tag k="place" v="islet" />
		<tag k="ssr:stedsnr" v="695468" />
	</node>
	<node id="-58503" lat="62.0508138894" lon="5.60828610364">
		<tag k="name" v="Skallevika" />
		<tag k="natural" v="bay" />
		<tag k="ssr:stedsnr" v="329102" />
	</node>
	<node id="-59525" lat="62.1719083315" lon="5.6394361061">
		<tag k="name" v="Koparneset" />
		<tag k="natural" v="cape" />
		<tag k="ssr:stedsnr" v="192554" />
	</node>
	<node id="-59523" lat="62.091755556" lon="5.7296611027">
		<tag k="bay" v="fjord" />
		<tag k="name" v="Syvdefjorden" />
		<tag k="natural" v="bay" />
		<tag k="ssr:stedsnr" v="192430" />
	</node>
	<node id="-60032" lat="62.1481527807" lon="5.66650000687">
		<tag k="name" v="Sandnesvika" />
		<tag k="natural" v="bay" />
		<tag k="ssr:stedsnr" v="647749" />
	</node>
	<node id="-60031" lat="62.1396805524" lon="5.69388888453">
		<tag k="name" v="Holeneset" />
		<tag k="natural" v="cape" />
		<tag k="ssr:stedsnr" v="645065" />
	</node>
	<node id="-60028" lat="62.1510722254" lon="5.42781110548">
		<tag k="name" v="Moldvika" />
		<tag k="natural" v="bay" />
		<tag k="ssr:stedsnr" v="644991" />
	</node>
	<node id="-59514" lat="62.1393166674" lon="5.3800333298">
		<tag k="name" v="Djupefluda" />
		<tag k="natural" v="shoal" />
		<tag k="place" v="locality" />
		<tag k="ssr:stedsnr" v="178150" />
	</node>
	<node id="-59513" lat="62.1560805539" lon="5.43210834027">
		<tag k="fixme" v="consider seamark:type=rock or natural=shoal" />
		<tag k="name" v="Myreskjera" />
		<tag k="place" v="islet" />
		<tag k="ssr:stedsnr" v="178131" />
	</node>
	<node id="-59512" lat="62.131074999" lon="5.3996166699">
		<tag k="fixme" v="consider seamark:type=rock or natural=shoal" />
		<tag k="name" v="Leiskjeret" />
		<tag k="place" v="islet" />
		<tag k="ssr:stedsnr" v="178123" />
	</node>
	<node id="-59508" lat="62.1636638927" lon="5.59727222925">
		<tag k="name" v="Uravika" />
		<tag k="natural" v="bay" />
		<tag k="ssr:stedsnr" v="159988" />
	</node>
	<node id="-60019" lat="62.1995722248" lon="5.84012500672">
		<tag k="name" v="Vikane" />
		<tag k="natural" v="bay" />
		<tag k="ssr:stedsnr" v="644794" />
	</node>
	<node id="-60017" lat="62.1996805523" lon="5.48439722951">
		<tag k="name" v="Langeneset" />
		<tag k="natural" v="cape" />
		<tag k="ssr:stedsnr" v="643903" />
	</node>
	<node id="-60016" lat="62.1916749994" lon="5.51574722743">
		<tag k="alt_name" v="Åramskjeret" />
		<tag k="fixme" v="consider seamark:type=rock or natural=shoal" />
		<tag k="name" v="Espenesskjeret" />
		<tag k="place" v="islet" />
		<tag k="ssr:stedsnr" v="643900" />
	</node>
	<node id="-58470" lat="62.0752666674" lon="5.52079721468">
		<tag k="name" v="Slagnes" />
		<tag k="natural" v="cape" />
		<tag k="ssr:stedsnr" v="271655" />
	</node>
	<node id="-59153" lat="62.069036111" lon="5.59656111225">
		<tag k="name" v="Hundehamaren" />
		<tag k="natural" v="cape" />
		<tag k="ssr:stedsnr" v="938079" />
	</node>
	<node id="-58976" lat="62.17623611" lon="5.41785000433">
		<tag k="bay" v="fjord" />
		<tag k="name" v="Haugsfjorden" />
		<tag k="natural" v="bay" />
		<tag k="ssr:stedsnr" v="678511" />
	</node>
	<node id="-60176" lat="62.0615043939" lon="5.61486180331">
		<tag k="name" v="Vidneset" />
		<tag k="natural" v="cape" />
		<tag k="ssr:stedsnr" v="800341" />
	</node>
	<node id="-59484" lat="62.076749997" lon="5.55475277942">
		<tag k="name" v="Morteberget" />
		<tag k="natural" v="cape" />
		<tag k="ssr:stedsnr" v="149632" />
	</node>
	<node id="-59482" lat="62.0270361075" lon="5.50248610578">
		<tag k="name" v="Børholmsundet" />
		<tag k="natural" v="strait" />
		<tag k="ssr:stedsnr" v="149599" />
	</node>
	<node id="-58968" lat="62.1808472253" lon="5.77825000714">
		<tag k="name" v="Vedeldstranda" />
		<tag k="natural" v="beach" />
		<tag k="place" v="locality" />
		<tag k="ssr:stedsnr" v="880902" />
	</node>
	<node id="-58382" lat="62.1458723604" lon="5.66988291097">
		<tag k="name" v="Sandnes" />
		<tag k="natural" v="cape" />
		<tag k="ssr:stedsnr" v="193510" />
	</node>
	<node id="-59350" lat="62.0614638869" lon="5.61369443793">
		<tag k="name" v="Morteberget" />
		<tag k="natural" v="cape" />
		<tag k="ssr:stedsnr" v="87081" />
	</node>
	<node id="-58210" lat="62.0787749976" lon="5.547408333">
		<tag k="name" v="Korsneset" />
		<tag k="natural" v="cape" />
		<tag k="ssr:stedsnr" v="253182" />
	</node>
	<node id="-58951" lat="62.0535388849" lon="5.52641944661">
		<tag k="name" v="Gildrevika" />
		<tag k="natural" v="bay" />
		<tag k="ssr:stedsnr" v="878650" />
	</node>
	<node id="-58412" lat="62.1021027803" lon="5.44004999652">
		<tag k="name" v="Klubben" />
		<tag k="natural" v="cape" />
		<tag k="ssr:stedsnr" v="451751" />
	</node>
	<node id="-59969" lat="62.1337777748" lon="5.41029444049">
		<tag k="name" v="Sildevika" />
		<tag k="natural" v="bay" />
		<tag k="ssr:stedsnr" v="617510" />
	</node>
	<node id="-58464" lat="62.103952777" lon="5.73069722157">
		<tag k="name" v="Hasleneset" />
		<tag k="natural" v="cape" />
		<tag k="ssr:stedsnr" v="269861" />
	</node>
	<node id="-58480" lat="62.1843944416" lon="5.45261111516">
		<tag k="alt_name" v="Hakallestranda" />
		<tag k="name" v="Klovningstranda" />
		<tag k="natural" v="beach" />
		<tag k="place" v="locality" />
		<tag k="ssr:stedsnr" v="461900" />
	</node>
	<node id="-58420" lat="62.0720361086" lon="5.71866111673">
		<tag k="name" v="Hestegylneset" />
		<tag k="natural" v="cape" />
		<tag k="ssr:stedsnr" v="451796" />
	</node>
	<node id="-59964" lat="62.1633833299" lon="5.59353889429">
		<tag k="name" v="Bjørlykkjestranda" />
		<tag k="natural" v="beach" />
		<tag k="place" v="locality" />
		<tag k="ssr:stedsnr" v="617485" />
	</node>
	<node id="-58422" lat="62.0976750017" lon="5.7100861026">
		<tag k="name" v="Årneset" />
		<tag k="natural" v="cape" />
		<tag k="ssr:stedsnr" v="451866" />
	</node>
	<node id="-59445" lat="62.1324888873" lon="5.38124999276">
		<tag k="name" v="Flatholmen" />
		<tag k="place" v="islet" />
		<tag k="ssr:stedsnr" v="132474" />
	</node>
	<node id="-59444" lat="62.1336305553" lon="5.38773611528">
		<tag k="name" v="Klubbholmen" />
		<tag k="place" v="islet" />
		<tag k="ssr:stedsnr" v="132473" />
	</node>
	<node id="-59438" lat="62.0645444411" lon="5.62064999744">
		<tag k="name" v="Bogen" />
		<tag k="natural" v="bay" />
		<tag k="ssr:stedsnr" v="132335" />
	</node>
	<node id="-58205" lat="62.0890999972" lon="5.56983056139">
		<tag k="alt_name" v="Tunheimstangen" />
		<tag k="name" v="Tunheimsneset" />
		<tag k="natural" v="cape" />
		<tag k="ssr:stedsnr" v="88004" />
	</node>
	<node id="-59436" lat="62.2017472262" lon="5.84378055897">
		<tag k="fixme" v="consider seamark:type=rock or natural=shoal" />
		<tag k="name" v="Måseskjeret" />
		<tag k="place" v="islet" />
		<tag k="ssr:stedsnr" v="132084" />
	</node>
	<node id="-59314" lat="62.1818777746" lon="5.55081111331">
		<tag k="name" v="Brandalsfluda" />
		<tag k="natural" v="shoal" />
		<tag k="place" v="locality" />
		<tag k="ssr:stedsnr" v="51483" />
	</node>
	<node id="-59943" lat="62.1829666695" lon="5.78103333111">
		<tag k="name" v="Vedeldsbukta" />
		<tag k="natural" v="bay" />
		<tag k="ssr:stedsnr" v="597969" />
	</node>
	<node id="-59942" lat="62.1941805598" lon="5.46283054639">
		<tag k="name" v="Stabben" />
		<tag k="natural" v="shoal" />
		<tag k="place" v="locality" />
		<tag k="ssr:stedsnr" v="597447" />
	</node>
	<node id="-59941" lat="62.1809083295" lon="5.53000556549">
		<tag k="name" v="Langerøsta" />
		<tag k="natural" v="cape" />
		<tag k="ssr:stedsnr" v="597443" />
	</node>
	<node id="-59939" lat="62.1940138877" lon="5.47889445134">
		<tag k="fixme" v="consider seamark:type=rock or natural=shoal" />
		<tag k="name" v="Sniken" />
		<tag k="place" v="islet" />
		<tag k="ssr:stedsnr" v="584991" />
	</node>
	<node id="-59425" lat="62.0793083304" lon="5.58185833455">
		<tag k="name" v="Tunheimsfluda" />
		<tag k="natural" v="shoal" />
		<tag k="place" v="locality" />
		<tag k="ssr:stedsnr" v="117286" />
	</node>
	<node id="-59424" lat="62.125144443" lon="5.41310554932">
		<tag k="name" v="Verpe" />
		<tag k="natural" v="cape" />
		<tag k="ssr:stedsnr" v="117134" />
	</node>
	<node id="-58488" lat="62.1364333368" lon="5.40867777899">
		<tag k="name" v="Breidemyrholmane" />
		<tag k="place" v="islet" />
		<tag k="ssr:stedsnr" v="465237" />
	</node>
	<node id="-59422" lat="62.1722055595" lon="5.6231444467">
		<tag k="fixme" v="consider seamark:type=rock or natural=shoal" />
		<tag k="name" v="Bjørlykkjeskjeret" />
		<tag k="place" v="islet" />
		<tag k="ssr:stedsnr" v="112953" />
	</node>
	<node id="-60252" lat="62.1334583312" lon="5.38111667651">
		<tag k="name" v="Bremholmane" />
		<tag k="place" v="islet" />
		<tag k="ssr:stedsnr" v="845155" />
	</node>
	<node id="-59055" lat="62.0693472184" lon="5.57048888781">
		<tag k="name" v="Vikebogen" />
		<tag k="natural" v="bay" />
		<tag k="ssr:stedsnr" v="921330" />
	</node>
	<node id="-59926" lat="62.1640083355" lon="5.43562499648">
		<tag k="name" v="Holeneset" />
		<tag k="natural" v="cape" />
		<tag k="ssr:stedsnr" v="582861" />
	</node>
	<node id="-59924" lat="62.1804027792" lon="5.75853889002">
		<tag k="alt_name" v="Åsvika" />
		<tag k="name" v="Åsevika" />
		<tag k="natural" v="bay" />
		<tag k="ssr:stedsnr" v="576963" />
	</node>
	<node id="-59406" lat="62.1972444413" lon="5.82372223078">
		<tag k="alt_name" v="Vikane" />
		<tag k="name" v="Korsfurvika" />
		<tag k="natural" v="bay" />
		<tag k="ssr:stedsnr" v="91157" />
	</node>
	<node id="-59313" lat="62.1785444413" lon="5.44178332871">
		<tag k="name" v="Klovningneset" />
		<tag k="natural" v="cape" />
		<tag k="ssr:stedsnr" v="51473" />
	</node>
</osm>
