<?xml version="1.0" encoding="UTF-8"?>
<<<<<<< HEAD
<osm version="0.6" generator="osmapis">
	<node lat="61.97644444544364" lon="5.6042694473389005" id="-2269">
		<tag k="fixme" v="multiple name tags, choose one and add the other to alt_name" />
		<tag k="name" v="Langedalsvatna;Langevatnet" />
		<tag k="natural" v="water" />
		<tag k="ssr:stedsnr" v="10041" />
	</node>
	<node lat="62.16429999654674" lon="5.734466670270896" id="-2271">
		<tag k="fixme" v="multiple name tags, choose one and add the other to alt_name" />
		<tag k="name" v="Ormegrova;Haugeelva" />
		<tag k="ssr:stedsnr" v="11010" />
		<tag k="waterway" v="stream" />
	</node>
	<node lat="62.15713055195122" lon="5.766569442957403" id="-2272">
		<tag k="name" v="Støylselva" />
		<tag k="ssr:stedsnr" v="11031" />
		<tag k="waterway" v="stream" />
	</node>
	<node lat="62.03098333478744" lon="5.558780560803286" id="-2275">
		<tag k="alt_name" v="Nipevatna" />
		<tag k="name" v="Nibbevatna" />
		<tag k="natural" v="water" />
		<tag k="ssr:stedsnr" v="11293" />
	</node>
	<node lat="62.15000277545153" lon="5.4959777774837715" id="-2278">
		<tag k="name" v="Sandvikvatnet" />
		<tag k="natural" v="water" />
		<tag k="ssr:stedsnr" v="11441" />
		<tag k="water" v="lake" />
	</node>
	<node lat="62.02385833701666" lon="5.6756972187009085" id="-2280">
		<tag k="name" v="Vassdalsvatnet" />
		<tag k="natural" v="water" />
		<tag k="ssr:stedsnr" v="11186" />
	</node>
	<node lat="62.072827775938336" lon="5.856472215533488" id="-2287">
		<tag k="alt_name" v="Tennevatnet" />
		<tag k="name" v="Ternevatnet" />
		<tag k="natural" v="water" />
		<tag k="ssr:stedsnr" v="11920" />
		<tag k="water" v="lake" />
	</node>
	<node lat="62.12756111014006" lon="5.799266670647438" id="-2294">
		<tag k="name" v="Litlevatnet" />
		<tag k="natural" v="water" />
		<tag k="ssr:stedsnr" v="26772" />
	</node>
	<node lat="62.053527775882905" lon="5.556969443809214" id="-2302">
		<tag k="name" v="Botnen" />
		<tag k="natural" v="bay" />
		<tag k="ssr:stedsnr" v="28617" />
	</node>
	<node lat="62.05384444474452" lon="5.821972220406871" id="-2307">
		<tag k="name" v="Store Skarevatnet" />
		<tag k="natural" v="water" />
		<tag k="ssr:stedsnr" v="30284" />
		<tag k="water" v="lake" />
	</node>
	<node lat="62.166855552084265" lon="5.453338895276097" id="-2312">
		<tag k="name" v="Bergsnevelva" />
		<tag k="ssr:stedsnr" v="37904" />
		<tag k="waterway" v="stream" />
	</node>
	<node lat="62.1146500024785" lon="5.517636106614873" id="-2323">
		<tag k="name" v="Strandaelva" />
		<tag k="ssr:stedsnr" v="71422" />
		<tag k="waterway" v="stream" />
	</node>
	<node lat="62.153347221182344" lon="5.585599997843249" id="-2325">
		<tag k="name" v="Koftelva" />
		<tag k="ssr:stedsnr" v="71470" />
		<tag k="waterway" v="stream" />
	</node>
	<node lat="62.166555553665496" lon="5.752399990804772" id="-2331">
		<tag k="alt_name" v="Årskagelva" />
		<tag k="name" v="Årskogelva" />
		<tag k="ssr:stedsnr" v="72004" />
		<tag k="waterway" v="stream" />
	</node>
	<node lat="62.055161109618474" lon="5.569483337196425" id="-2334">
		<tag k="name" v="Bjørdalsvatnet" />
		<tag k="natural" v="water" />
		<tag k="ssr:stedsnr" v="72329" />
	</node>
	<node lat="62.01899444082721" lon="5.578983331258637" id="-2346">
		<tag k="name" v="Kvennavasselva" />
		<tag k="ssr:stedsnr" v="87696" />
		<tag k="waterway" v="stream" />
	</node>
	<node lat="62.10944167077189" lon="5.607383328391027" id="-2355">
		<tag k="name" v="Øygardselva" />
		<tag k="ssr:stedsnr" v="88203" />
		<tag k="waterway" v="stream" />
	</node>
	<node lat="62.081602777091454" lon="5.674522214431046" id="-2360">
		<tag k="name" v="Storevatnet" />
		<tag k="natural" v="water" />
		<tag k="ssr:stedsnr" v="89080" />
		<tag k="water" v="lake" />
	</node>
	<node lat="62.016999995513515" lon="5.492738880064961" id="-2362">
		<tag k="name" v="Røytehola" />
		<tag k="natural" v="bay" />
		<tag k="ssr:stedsnr" v="89619" />
	</node>
	<node lat="62.14583332912824" lon="5.619730561071211" id="-2375">
		<tag k="name" v="Buskarvatnet" />
		<tag k="natural" v="water" />
		<tag k="ssr:stedsnr" v="99970" />
	</node>
	<node lat="62.14371666566716" lon="5.566611102539714" id="-2376">
		<tag k="name" v="Lomtjønna" />
		<tag k="natural" v="water" />
		<tag k="ssr:stedsnr" v="99971" />
	</node>
	<node lat="62.00632222471537" lon="5.721591666191611" id="-2382">
		<tag k="name" v="Langevatnet" />
		<tag k="natural" v="water" />
		<tag k="ssr:stedsnr" v="131962" />
	</node>
	<node lat="62.17058333361851" lon="5.497494445732708" id="-2387">
		<tag k="name" v="Tjønna" />
		<tag k="natural" v="water" />
		<tag k="ssr:stedsnr" v="132507" />
	</node>
	<node lat="62.02455833575803" lon="5.72745276840975" id="-2391">
		<tag k="name" v="Nipevatnet" />
		<tag k="natural" v="water" />
		<tag k="ssr:stedsnr" v="132971" />
	</node>
	<node lat="62.101813886789955" lon="5.601924992057139" id="-2400">
		<tag k="fixme" v="multiple name tags, choose one and add the other to alt_name" />
		<tag k="name" v="Storelva;Fiskåelva" />
		<tag k="ssr:stedsnr" v="253476" />
		<tag k="waterway" v="stream" />
	</node>
	<node lat="62.133827777208595" lon="5.720330548703258" id="-2406">
		<tag k="name" v="Fossane" />
		<tag k="natural" v="waterfall" />
		<tag k="ssr:stedsnr" v="253818" />
	</node>
	<node lat="62.13762222413001" lon="5.827811113904251" id="-2407">
		<tag k="name" v="Fossen" />
		<tag k="natural" v="waterfall" />
		<tag k="ssr:stedsnr" v="253819" />
	</node>
	<node lat="62.103694446580825" lon="5.8272166597639545" id="-2414">
		<tag k="name" v="Tryggesteinsvatnet" />
		<tag k="natural" v="water" />
		<tag k="ssr:stedsnr" v="253867" />
	</node>
	<node lat="62.02494851382468" lon="5.757778143638751" id="-2418">
		<tag k="name" v="Lisje Røfsdalsvatnet" />
		<tag k="natural" v="water" />
		<tag k="ssr:stedsnr" v="254960" />
	</node>
	<node lat="62.10798055872069" lon="5.538988885330463" id="-2428">
		<tag k="name" v="Strandaelva" />
		<tag k="ssr:stedsnr" v="147648" />
		<tag k="waterway" v="stream" />
	</node>
	<node lat="62.04083889067103" lon="5.6884694529772615" id="-2436">
		<tag k="name" v="Kattadalselva" />
		<tag k="ssr:stedsnr" v="150355" />
		<tag k="waterway" v="stream" />
	</node>
	<node lat="62.04007221975508" lon="5.661458326420273" id="-2454">
		<tag k="name" v="Støylsmannselva" />
		<tag k="ssr:stedsnr" v="268773" />
		<tag k="waterway" v="river" />
	</node>
	<node lat="62.1332333339764" lon="5.450649993256652" id="-2460">
		<tag k="name" v="Røyrholmane" />
		<tag k="natural" v="cape" />
		<tag k="ssr:stedsnr" v="208813" />
	</node>
	<node lat="62.15284166976753" lon="5.790861107887001" id="-2463">
		<tag k="name" v="Storgylet" />
		<tag k="ssr:stedsnr" v="208788" />
		<tag k="waterway" v="stream" />
	</node>
	<node lat="62.158277780004056" lon="5.7632055617021845" id="-2468">
		<tag k="name" v="Skåleelva" />
		<tag k="ssr:stedsnr" v="209595" />
		<tag k="waterway" v="stream" />
	</node>
	<node lat="62.128122221159714" lon="5.648005564794273" id="-2469">
		<tag k="name" v="Elvakrikane" />
		<tag k="ssr:stedsnr" v="210135" />
		<tag k="waterway" v="stream" />
	</node>
	<node lat="61.99138333504086" lon="5.5113555527353" id="-2473">
		<tag k="name" v="Kapalneset" />
		<tag k="natural" v="cape" />
		<tag k="ssr:stedsnr" v="210425" />
	</node>
	<node lat="62.03495000012182" lon="5.637180564401751" id="-2486">
		<tag k="name" v="Budalselva" />
		<tag k="ssr:stedsnr" v="269818" />
		<tag k="waterway" v="river" />
	</node>
	<node lat="62.00874444072515" lon="5.531033341715458" id="-2496">
		<tag k="name" v="Vassenden" />
		<tag k="natural" v="bay" />
		<tag k="ssr:stedsnr" v="270558" />
	</node>
	<node lat="62.16085277758908" lon="5.621022222233365" id="-2499">
		<tag k="name" v="Bjørlykkeelva" />
		<tag k="ssr:stedsnr" v="220908" />
		<tag k="waterway" v="stream" />
	</node>
	<node lat="62.15644444782335" lon="5.52663611782495" id="-2500">
		<tag k="name" v="Kjerringhylen" />
		<tag k="place" v="locality" />
		<tag k="ssr:stedsnr" v="220918" />
	</node>
	<node lat="62.05477778122541" lon="5.543508328691474" id="-2508">
		<tag k="name" v="Torvikosen" />
		<tag k="natural" v="bay" />
		<tag k="ssr:stedsnr" v="271647" />
	</node>
	<node lat="62.16661944855278" lon="5.722405546057031" id="-2513">
		<tag k="name" v="Årdalselva" />
		<tag k="ssr:stedsnr" v="450729" />
		<tag k="waterway" v="stream" />
	</node>
	<node lat="62.037999999956426" lon="5.534333323781076" id="-2534">
		<tag k="name" v="Kattagrova" />
		<tag k="ssr:stedsnr" v="452420" />
		<tag k="waterway" v="stream" />
	</node>
	<node lat="61.99846388459166" lon="5.543844439163383" id="-2536">
		<tag k="name" v="Vassdalsvatnet" />
		<tag k="natural" v="water" />
		<tag k="ssr:stedsnr" v="452519" />
	</node>
	<node lat="62.05036389259501" lon="5.74060000451583" id="-2543">
		<tag k="name" v="Olaneset" />
		<tag k="natural" v="cape" />
		<tag k="ssr:stedsnr" v="454049" />
	</node>
	<node lat="62.06798611394698" lon="5.756752785543341" id="-2545">
		<tag k="name" v="Hjellgylet" />
		<tag k="ssr:stedsnr" v="454220" />
		<tag k="waterway" v="stream" />
	</node>
	<node lat="62.034247225713315" lon="5.689866663649752" id="-2552">
		<tag k="name" v="Løken" />
		<tag k="natural" v="water" />
		<tag k="ssr:stedsnr" v="454460" />
		<tag k="water" v="lake" />
	</node>
	<node lat="62.05651666705898" lon="5.760555562641466" id="-2555">
		<tag k="name" v="Fossen" />
		<tag k="natural" v="waterfall" />
		<tag k="ssr:stedsnr" v="454848" />
	</node>
	<node lat="62.049205552527" lon="5.78259165984736" id="-2559">
		<tag k="name" v="Blæjeosen" />
		<tag k="natural" v="bay" />
		<tag k="ssr:stedsnr" v="454951" />
	</node>
	<node lat="62.05502222620282" lon="5.8338166571865315" id="-2560">
		<tag k="name" v="Brekkeelva" />
		<tag k="ssr:stedsnr" v="455241" />
		<tag k="waterway" v="river" />
	</node>
	<node lat="62.06412222197105" lon="5.835202775468683" id="-2561">
		<tag k="name" v="Bruelva" />
		<tag k="ssr:stedsnr" v="455246" />
		<tag k="waterway" v="river" />
	</node>
	<node lat="62.1836972233287" lon="5.820172221429683" id="-2562">
		<tag k="fixme" v="multiple name tags, choose one and add the other to alt_name" />
		<tag k="name" v="Skålavadelva;Skålvadelva" />
		<tag k="ssr:stedsnr" v="253119" />
		<tag k="waterway" v="stream" />
	</node>
	<node lat="61.98572777534571" lon="5.46348334008903" id="-2570">
		<tag k="alt_name" v="Skorgevatnet" />
		<tag k="name" v="Store Skorgevatnet" />
		<tag k="natural" v="water" />
		<tag k="ssr:stedsnr" v="253791" />
		<tag k="water" v="lake" />
	</node>
	<node lat="62.04399166302338" lon="5.833330560604957" id="-2571">
		<tag k="name" v="Kvanndalsvatnet" />
		<tag k="natural" v="water" />
		<tag k="ssr:stedsnr" v="253903" />
		<tag k="water" v="lake" />
	</node>
	<node lat="62.09095833324466" lon="5.7933555500237714" id="-2573">
		<tag k="name" v="Bruelva" />
		<tag k="ssr:stedsnr" v="253882" />
		<tag k="waterway" v="stream" />
	</node>
	<node lat="62.056091666353645" lon="5.842330546952488" id="-2574">
		<tag k="fixme" v="multiple name tags, choose one and add the other to alt_name" />
		<tag k="name" v="Myrkevatnet;Mørkvatnet" />
		<tag k="natural" v="water" />
		<tag k="ssr:stedsnr" v="253894" />
	</node>
	<node lat="62.160333334119464" lon="5.713263886478997" id="-2584">
		<tag k="name" v="Storetunga" />
		<tag k="natural" v="cape" />
		<tag k="ssr:stedsnr" v="268724" />
	</node>
	<node lat="61.98319444686742" lon="5.503244443146738" id="-2587">
		<tag k="name" v="Skitnevika" />
		<tag k="natural" v="bay" />
		<tag k="ssr:stedsnr" v="269276" />
	</node>
	<node lat="62.01344999851515" lon="5.5766833285591755" id="-2589">
		<tag k="name" v="Sætreneset" />
		<tag k="natural" v="cape" />
		<tag k="ssr:stedsnr" v="269693" />
	</node>
	<node lat="61.96955833240765" lon="5.57287222786995" id="-2591">
		<tag k="name" v="Midtre Skarevatnet" />
		<tag k="natural" v="water" />
		<tag k="ssr:stedsnr" v="269722" />
		<tag k="water" v="lake" />
	</node>
	<node lat="62.18365000377268" lon="5.812383328458043" id="-2602">
		<tag k="name" v="Lidastøylelva" />
		<tag k="ssr:stedsnr" v="272785" />
		<tag k="waterway" v="stream" />
	</node>
	<node lat="62.18676389091413" lon="5.47006111983362" id="-2607">
		<tag k="name" v="Nystøylelva" />
		<tag k="ssr:stedsnr" v="279903" />
		<tag k="waterway" v="stream" />
	</node>
	<node lat="62.13772777462623" lon="5.618002781792639" id="-2610">
		<tag k="name" v="Ristallane" />
		<tag k="ssr:stedsnr" v="281973" />
		<tag k="waterway" v="stream" />
	</node>
	<node lat="62.164486107903414" lon="5.448944440120899" id="-2613">
		<tag k="name" v="Holeelva" />
		<tag k="ssr:stedsnr" v="281986" />
		<tag k="waterway" v="stream" />
	</node>
	<node lat="61.988933335848294" lon="5.476369450221119" id="-2626">
		<tag k="name" v="Kyrnosvatnet" />
		<tag k="natural" v="water" />
		<tag k="ssr:stedsnr" v="313076" />
	</node>
	<node lat="62.003155558226844" lon="5.524716664370133" id="-2627">
		<tag k="name" v="Vaulvatnet" />
		<tag k="natural" v="water" />
		<tag k="ssr:stedsnr" v="313080" />
		<tag k="water" v="lake" />
	</node>
	<node lat="62.02143889267194" lon="5.506155557926945" id="-2629">
		<tag k="name" v="Børdalsvatnet" />
		<tag k="natural" v="water" />
		<tag k="ssr:stedsnr" v="314316" />
	</node>
	<node lat="62.08409444268844" lon="5.645555546218285" id="-2633">
		<tag k="alt_name" v="Ringevatnet" />
		<tag k="name" v="Ringefjellsvatnet" />
		<tag k="natural" v="water" />
		<tag k="ssr:stedsnr" v="314364" />
	</node>
	<node lat="62.14831110816955" lon="5.710544446519659" id="-2644">
		<tag k="name" v="Breiteigsfossen" />
		<tag k="natural" v="waterfall" />
		<tag k="ssr:stedsnr" v="330958" />
	</node>
	<node lat="62.01981944076252" lon="5.66689444352071" id="-2646">
		<tag k="name" v="Skinvatna" />
		<tag k="natural" v="water" />
		<tag k="ssr:stedsnr" v="330811" />
	</node>
	<node lat="61.992658332147016" lon="5.704736120349992" id="-2655">
		<tag k="name" v="Kvanndalselva" />
		<tag k="ssr:stedsnr" v="333049" />
		<tag k="waterway" v="river" />
	</node>
	<node lat="62.18925278022055" lon="5.50017499504497" id="-2670">
		<tag k="name" v="Ytste Åramelva" />
		<tag k="ssr:stedsnr" v="340900" />
		<tag k="waterway" v="stream" />
	</node>
	<node lat="61.969838886664675" lon="5.572758332184754" id="-2679">
		<tag k="name" v="Skarevatna" />
		<tag k="natural" v="water" />
		<tag k="ssr:stedsnr" v="373018" />
	</node>
	<node lat="62.12520555894055" lon="5.533216661190747" id="-2696">
		<tag k="name" v="Litlehaugvatnet" />
		<tag k="natural" v="water" />
		<tag k="ssr:stedsnr" v="389720" />
	</node>
	<node lat="62.1311138868082" lon="5.508424993804271" id="-2697">
		<tag k="name" v="Kleinosen" />
		<tag k="natural" v="bay" />
		<tag k="ssr:stedsnr" v="389724" />
	</node>
	<node lat="62.158780557981004" lon="5.763758326043043" id="-2702">
		<tag k="name" v="Støyleelva" />
		<tag k="ssr:stedsnr" v="390548" />
		<tag k="waterway" v="stream" />
	</node>
	<node lat="62.042038886455146" lon="5.625291675542735" id="-2705">
		<tag k="name" v="Myrebærelva" />
		<tag k="ssr:stedsnr" v="390799" />
		<tag k="waterway" v="stream" />
	</node>
	<node lat="61.9876805571289" lon="5.64998333205852" id="-2716">
		<tag k="name" v="Litlehorntjønna" />
		<tag k="natural" v="water" />
		<tag k="ssr:stedsnr" v="391683" />
	</node>
	<node lat="62.08649721764683" lon="5.669811102750264" id="-2717">
		<tag k="name" v="Litlevatnet" />
		<tag k="natural" v="water" />
		<tag k="ssr:stedsnr" v="392086" />
	</node>
	<node lat="62.07332777699495" lon="5.539330561191537" id="-2718">
		<tag k="name" v="Dalelva" />
		<tag k="ssr:stedsnr" v="392684" />
		<tag k="waterway" v="stream" />
	</node>
	<node lat="62.06003611291894" lon="5.721875001675921" id="-2719">
		<tag k="name" v="Fossegylet" />
		<tag k="ssr:stedsnr" v="393235" />
		<tag k="waterway" v="stream" />
	</node>
	<node lat="61.99723610692176" lon="5.691361113214591" id="-2723">
		<tag k="name" v="Slivasselva" />
		<tag k="ssr:stedsnr" v="394016" />
		<tag k="waterway" v="river" />
	</node>
	<node lat="62.07678611371939" lon="5.861286117853853" id="-2724">
		<tag k="name" v="Stordalselva" />
		<tag k="ssr:stedsnr" v="394318" />
		<tag k="waterway" v="river" />
	</node>
	<node lat="62.073997219596826" lon="5.855697221486663" id="-2725">
		<tag k="name" v="Tennevassholmen" />
		<tag k="place" v="islet" />
		<tag k="ssr:stedsnr" v="394322" />
	</node>
	<node lat="62.04427777489033" lon="5.747658327660872" id="-2733">
		<tag k="name" v="Buholmelva" />
		<tag k="ssr:stedsnr" v="272094" />
		<tag k="waterway" v="river" />
	</node>
	<node lat="62.003269446671005" lon="5.495263888994238" id="-2734">
		<tag k="name" v="Litlevatnet" />
		<tag k="natural" v="water" />
		<tag k="ssr:stedsnr" v="414524" />
		<tag k="water" v="lake" />
	</node>
	<node lat="61.98079444676142" lon="5.511877782414582" id="-2736">
		<tag k="name" v="Juvatnet" />
		<tag k="natural" v="water" />
		<tag k="ssr:stedsnr" v="435080" />
		<tag k="water" v="lake" />
	</node>
	<node lat="61.993161106888344" lon="5.669566672237282" id="-2737">
		<tag k="name" v="Brattegjølfossen" />
		<tag k="natural" v="waterfall" />
		<tag k="ssr:stedsnr" v="435085" />
	</node>
	<node lat="62.13296666485411" lon="5.552866663367477" id="-2739">
		<tag k="name" v="Børevatnet" />
		<tag k="natural" v="water" />
		<tag k="ssr:stedsnr" v="435509" />
		<tag k="water" v="lake" />
	</node>
	<node lat="62.1736972218959" lon="5.794452770188575" id="-2745">
		<tag k="name" v="Nakkevadet" />
		<tag k="place" v="locality" />
		<tag k="ssr:stedsnr" v="436022" />
	</node>
	<node lat="61.968494440797016" lon="5.545125001772443" id="-2751">
		<tag k="name" v="Dryfteholmen" />
		<tag k="place" v="islet" />
		<tag k="ssr:stedsnr" v="445527" />
	</node>
	<node lat="62.05297777386271" lon="5.620530551097486" id="-2756">
		<tag k="name" v="Sylteosen" />
		<tag k="natural" v="bay" />
		<tag k="ssr:stedsnr" v="451103" />
	</node>
	<node lat="61.97791388860058" lon="5.54844444350151" id="-2757">
		<tag k="name" v="Movassholmen" />
		<tag k="place" v="islet" />
		<tag k="ssr:stedsnr" v="451371" />
	</node>
	<node lat="62.11070277812719" lon="5.441080548247631" id="-2760">
		<tag k="name" v="Insteelva" />
		<tag k="ssr:stedsnr" v="451716" />
		<tag k="waterway" v="stream" />
	</node>
	<node lat="61.97094167009494" lon="5.617349997194522" id="-2784">
		<tag k="name" v="Krokvatnet" />
		<tag k="natural" v="water" />
		<tag k="ssr:stedsnr" v="677023" />
	</node>
	<node lat="61.98568055208383" lon="5.603508327132815" id="-2785">
		<tag k="name" v="Sædalsvatna" />
		<tag k="natural" v="water" />
		<tag k="ssr:stedsnr" v="677030" />
	</node>
	<node lat="62.07295555785812" lon="5.726877770420075" id="-2787">
		<tag k="name" v="Saurdalsvatnet" />
		<tag k="natural" v="water" />
		<tag k="ssr:stedsnr" v="678397" />
		<tag k="water" v="lake" />
	</node>
	<node lat="62.146600001639314" lon="5.579083330416585" id="-2791">
		<tag k="name" v="Måsevatna" />
		<tag k="natural" v="water" />
		<tag k="ssr:stedsnr" v="678500" />
	</node>
	<node lat="62.13953055456208" lon="5.486302781874003" id="-2792">
		<tag k="name" v="Nørdredalsvatnet" />
		<tag k="natural" v="water" />
		<tag k="ssr:stedsnr" v="678502" />
	</node>
	<node lat="61.99438610912427" lon="5.495513895945687" id="-2800">
		<tag k="name" v="Krokevatnet" />
		<tag k="natural" v="water" />
		<tag k="ssr:stedsnr" v="495062" />
	</node>
	<node lat="62.01795000016741" lon="5.660549995307743" id="-2809">
		<tag k="name" v="Trollvatnet" />
		<tag k="natural" v="water" />
		<tag k="ssr:stedsnr" v="496224" />
	</node>
	<node lat="62.01193055291665" lon="5.602061108207565" id="-2811">
		<tag k="name" v="Gusdalselva" />
		<tag k="ssr:stedsnr" v="496236" />
		<tag k="waterway" v="river" />
	</node>
	<node lat="62.03583055221256" lon="5.611538882653986" id="-2812">
		<tag k="fixme" v="multiple name tags, choose one and add the other to alt_name" />
		<tag k="name" v="Syltehornsvatnet;Syltehornvatnet" />
		<tag k="natural" v="water" />
		<tag k="ssr:stedsnr" v="496315" />
	</node>
	<node lat="62.13453888767852" lon="5.4680499948435495" id="-2822">
		<tag k="fixme" v="multiple name tags, choose one and add the other to alt_name" />
		<tag k="name" v="Krokedalsvatnet;Krokvikvatnet" />
		<tag k="natural" v="water" />
		<tag k="ssr:stedsnr" v="496503" />
		<tag k="water" v="lake" />
	</node>
	<node lat="62.04613610829253" lon="5.811786105370353" id="-2825">
		<tag k="name" v="Sandfjellelva" />
		<tag k="ssr:stedsnr" v="496898" />
		<tag k="waterway" v="stream" />
	</node>
	<node lat="62.1243194442958" lon="5.519719436548104" id="-2827">
		<tag k="name" v="Ytre Strandvatnet" />
		<tag k="natural" v="water" />
		<tag k="ssr:stedsnr" v="511702" />
	</node>
	<node lat="62.02087777774495" lon="5.605041660996053" id="-2829">
		<tag k="name" v="Slivasselva" />
		<tag k="ssr:stedsnr" v="511639" />
		<tag k="waterway" v="stream" />
	</node>
	<node lat="62.16638055452831" lon="5.801936118066888" id="-2831">
		<tag k="name" v="Litlekvisla" />
		<tag k="ssr:stedsnr" v="511914" />
		<tag k="waterway" v="stream" />
	</node>
	<node lat="61.99578333407301" lon="5.5927222215522905" id="-2838">
		<tag k="name" v="Sundalseidet" />
		<tag k="place" v="locality" />
		<tag k="ssr:stedsnr" v="512632" />
	</node>
	<node lat="62.14479167078203" lon="5.767461111648542" id="-2840">
		<tag k="name" v="Skålelva" />
		<tag k="ssr:stedsnr" v="512817" />
		<tag k="waterway" v="stream" />
	</node>
	<node lat="62.13295277407155" lon="5.774647218456239" id="-2841">
		<tag k="name" v="Jareelva" />
		<tag k="ssr:stedsnr" v="512868" />
		<tag k="waterway" v="stream" />
	</node>
	<node lat="62.02150555401922" lon="5.56034165964348" id="-2847">
		<tag k="name" v="Røyrneselva" />
		<tag k="ssr:stedsnr" v="513610" />
		<tag k="waterway" v="stream" />
	</node>
	<node lat="62.18153888604676" lon="5.765477780838818" id="-2851">
		<tag k="name" v="Litlerovdøyra" />
		<tag k="natural" v="cape" />
		<tag k="ssr:stedsnr" v="515906" />
	</node>
	<node lat="62.1475138846655" lon="5.577675007273218" id="-2856">
		<tag k="name" v="Koftevatnet" />
		<tag k="natural" v="water" />
		<tag k="ssr:stedsnr" v="523913" />
		<tag k="water" v="lake" />
	</node>
	<node lat="62.15623611155611" lon="5.542333334834686" id="-2857">
		<tag k="name" v="Ormosdalelva" />
		<tag k="ssr:stedsnr" v="523915" />
		<tag k="waterway" v="stream" />
	</node>
	<node lat="62.03569444400518" lon="5.561447227071148" id="-2866">
		<tag k="fixme" v="multiple name tags, choose one and add the other to alt_name" />
		<tag k="name" v="Svartevatnet;Mørkevatnet" />
		<tag k="natural" v="water" />
		<tag k="ssr:stedsnr" v="556313" />
	</node>
	<node lat="62.08177221810545" lon="5.675933334811687" id="-2877">
		<tag k="name" v="Taksetvatna" />
		<tag k="natural" v="water" />
		<tag k="ssr:stedsnr" v="557316" />
	</node>
	<node lat="62.10867778093187" lon="5.590730564616069" id="-2879">
		<tag k="name" v="Rysteelva" />
		<tag k="ssr:stedsnr" v="693371" />
		<tag k="waterway" v="stream" />
	</node>
	<node lat="62.03599444227813" lon="5.672172219947539" id="-2888">
		<tag k="name" v="Kilebrekkeholmen" />
		<tag k="place" v="islet" />
		<tag k="ssr:stedsnr" v="693792" />
	</node>
	<node lat="61.97423055550443" lon="5.575183324376179" id="-2900">
		<tag k="name" v="Heimste Skarevatnet" />
		<tag k="natural" v="water" />
		<tag k="ssr:stedsnr" v="572700" />
		<tag k="water" v="lake" />
	</node>
	<node lat="62.045530560122565" lon="5.6439555584026415" id="-2903">
		<tag k="fixme" v="multiple name tags, choose one and add the other to alt_name" />
		<tag k="name" v="Sylteelva;Videlva" />
		<tag k="ssr:stedsnr" v="572814" />
		<tag k="waterway" v="river" />
	</node>
	<node lat="62.10336666741209" lon="5.770191671294667" id="-2914">
		<tag k="fixme" v="multiple name tags, choose one and add the other to alt_name" />
		<tag k="name" v="Årskridelva;Plasseelva" />
		<tag k="ssr:stedsnr" v="694165" />
		<tag k="waterway" v="stream" />
	</node>
	<node lat="62.01407222169346" lon="5.702158329234848" id="-2925">
		<tag k="name" v="Fjellelva" />
		<tag k="ssr:stedsnr" v="576612" />
		<tag k="waterway" v="river" />
	</node>
	<node lat="62.17540277596264" lon="5.771805564604939" id="-2931">
		<tag k="name" v="Litlerovd-elva" />
		<tag k="ssr:stedsnr" v="694927" />
		<tag k="waterway" v="stream" />
	</node>
	<node lat="62.09766389115953" lon="5.649163879647127" id="-2936">
		<tag k="fixme" v="multiple name tags, choose one and add the other to alt_name" />
		<tag k="name" v="Storelva;Fosseelva" />
		<tag k="ssr:stedsnr" v="695215" />
		<tag k="waterway" v="stream" />
	</node>
	<node lat="62.038225002911176" lon="5.518027771216031" id="-2947">
		<tag k="name" v="Åheimselva" />
		<tag k="ssr:stedsnr" v="695586" />
		<tag k="waterway" v="river" />
	</node>
	<node lat="62.0017750001525" lon="5.726158332264381" id="-2955">
		<tag k="name" v="Litledalsvatnet" />
		<tag k="natural" v="water" />
		<tag k="ssr:stedsnr" v="697008" />
		<tag k="water" v="lake" />
	</node>
	<node lat="62.06397500102477" lon="5.714544445806032" id="-2957">
		<tag k="name" v="Vaulen" />
		<tag k="natural" v="bay" />
		<tag k="ssr:stedsnr" v="697176" />
	</node>
	<node lat="62.08397499906023" lon="5.728194440257004" id="-2963">
		<tag k="name" v="Holmane" />
		<tag k="natural" v="beach" />
		<tag k="ssr:stedsnr" v="697993" />
	</node>
	<node lat="61.98169444182849" lon="5.645494438362502" id="-2969">
		<tag k="name" v="Fossevatna" />
		<tag k="natural" v="water" />
		<tag k="ssr:stedsnr" v="616021" />
	</node>
	<node lat="62.12110833562056" lon="5.450433329799856" id="-2975">
		<tag k="name" v="Brudevikvatnet" />
		<tag k="natural" v="water" />
		<tag k="ssr:stedsnr" v="617493" />
		<tag k="water" v="lake" />
	</node>
	<node lat="62.17611388756078" lon="5.468383326169055" id="-2981">
		<tag k="name" v="Nystøylvatnet" />
		<tag k="natural" v="water" />
		<tag k="ssr:stedsnr" v="617543" />
		<tag k="water" v="lake" />
	</node>
	<node lat="62.1630166695594" lon="5.7170527817884835" id="-2988">
		<tag k="name" v="Håneselva" />
		<tag k="ssr:stedsnr" v="632715" />
		<tag k="waterway" v="stream" />
	</node>
	<node lat="62.009302777856554" lon="5.651680557596115" id="-2995">
		<tag k="name" v="Sætrehaugen" />
		<tag k="natural" v="strait" />
		<tag k="ssr:stedsnr" v="633784" />
	</node>
	<node lat="62.01359444573487" lon="5.53730833597045" id="-2998">
		<tag k="name" v="Veradalselva" />
		<tag k="ssr:stedsnr" v="634593" />
		<tag k="waterway" v="river" />
	</node>
	<node lat="61.99277777584755" lon="5.712691671571057" id="-3002">
		<tag k="name" v="Litle Kvanndalsvatnet" />
		<tag k="natural" v="water" />
		<tag k="ssr:stedsnr" v="636010" />
		<tag k="water" v="lake" />
	</node>
	<node lat="62.058086113753745" lon="5.795741660240808" id="-3009">
		<tag k="name" v="Skumstødvatna" />
		<tag k="natural" v="water" />
		<tag k="ssr:stedsnr" v="636833" />
	</node>
	<node lat="61.99629167003986" lon="5.603566659068627" id="-3038">
		<tag k="name" v="Eidevatnet" />
		<tag k="natural" v="water" />
		<tag k="ssr:stedsnr" v="677044" />
	</node>
	<node lat="62.033727776932594" lon="5.668786119499563" id="-3042">
		<tag k="name" v="Kilebrekkvatnet" />
		<tag k="natural" v="water" />
		<tag k="ssr:stedsnr" v="678304" />
	</node>
	<node lat="62.04176666806395" lon="5.649400001686074" id="-3044">
		<tag k="name" v="Støylsvatnet" />
		<tag k="natural" v="water" />
		<tag k="ssr:stedsnr" v="678279" />
	</node>
	<node lat="62.18184611552148" lon="5.520584803724436" id="-3052">
		<tag k="name" v="Arsetelva" />
		<tag k="ssr:stedsnr" v="678516" />
		<tag k="waterway" v="stream" />
	</node>
	<node lat="62.08354166991592" lon="5.844861116932641" id="-3055">
		<tag k="name" v="Stordalsvatnet" />
		<tag k="natural" v="water" />
		<tag k="ssr:stedsnr" v="678815" />
	</node>
	<node lat="62.138927775074734" lon="5.761580565409472" id="-3057">
		<tag k="fixme" v="multiple name tags, choose one and add the other to alt_name" />
		<tag k="name" v="Skålvatnet;Heimste Jarevatnet" />
		<tag k="natural" v="water" />
		<tag k="ssr:stedsnr" v="678773" />
	</node>
	<node lat="62.10540555926357" lon="5.471333323850834" id="-3062">
		<tag k="name" v="Legeelva" />
		<tag k="ssr:stedsnr" v="693713" />
		<tag k="waterway" v="stream" />
	</node>
	<node lat="61.98190277466155" lon="5.628830555868395" id="-3063">
		<tag k="name" v="Klovestøylvatnet" />
		<tag k="natural" v="water" />
		<tag k="ssr:stedsnr" v="693723" />
	</node>
	<node lat="62.15511111203464" lon="5.692588880127302" id="-3066">
		<tag k="name" v="Labergsgylet" />
		<tag k="ssr:stedsnr" v="693903" />
		<tag k="waterway" v="stream" />
	</node>
	<node lat="62.107902778163236" lon="5.449238882020705" id="-3072">
		<tag k="name" v="Sighaugelva" />
		<tag k="ssr:stedsnr" v="694712" />
		<tag k="waterway" v="stream" />
	</node>
	<node lat="62.14466667070018" lon="5.763511119567843" id="-3073">
		<tag k="name" v="Bingseelva" />
		<tag k="ssr:stedsnr" v="694775" />
		<tag k="waterway" v="stream" />
	</node>
	<node lat="61.994547223864274" lon="5.526069449205933" id="-3075">
		<tag k="name" v="Einegrova" />
		<tag k="ssr:stedsnr" v="695421" />
		<tag k="waterway" v="stream" />
	</node>
	<node lat="62.12897777972335" lon="5.493552772021259" id="-3089">
		<tag k="name" v="Olalidvatnet" />
		<tag k="natural" v="water" />
		<tag k="ssr:stedsnr" v="738404" />
		<tag k="water" v="lake" />
	</node>
	<node lat="62.1330194482936" lon="5.512299996282508" id="-3090">
		<tag k="fixme" v="multiple name tags, choose one and add the other to alt_name" />
		<tag k="name" v="Mørkevatnet;Trollevatnet" />
		<tag k="natural" v="water" />
		<tag k="ssr:stedsnr" v="738462" />
		<tag k="water" v="lake" />
	</node>
	<node lat="62.16503889046339" lon="5.740652776351089" id="-3091">
		<tag k="name" v="Bøelva" />
		<tag k="ssr:stedsnr" v="739008" />
		<tag k="waterway" v="stream" />
	</node>
	<node lat="62.0145555576703" lon="5.569141675454291" id="-3093">
		<tag k="name" v="Gusdalsvatnet" />
		<tag k="natural" v="water" />
		<tag k="ssr:stedsnr" v="739207" />
		<tag k="water" v="lake" />
	</node>
	<node lat="62.15207500019755" lon="5.570838889643039" id="-3096">
		<tag k="name" v="Lomtjørna" />
		<tag k="natural" v="water" />
		<tag k="ssr:stedsnr" v="739493" />
	</node>
	<node lat="62.113086109872434" lon="5.766574994449925" id="-3101">
		<tag k="name" v="Fremste tverrelva" />
		<tag k="ssr:stedsnr" v="754161" />
		<tag k="waterway" v="stream" />
	</node>
	<node lat="61.97780000034732" lon="5.516138885053567" id="-3104">
		<tag k="name" v="Juvassholmen" />
		<tag k="place" v="islet" />
		<tag k="ssr:stedsnr" v="754302" />
	</node>
	<node lat="62.09627222442613" lon="5.6678861115674035" id="-3112">
		<tag k="name" v="Lidaelva" />
		<tag k="ssr:stedsnr" v="755199" />
		<tag k="waterway" v="stream" />
	</node>
	<node lat="62.163836110849665" lon="5.74551943829595" id="-3115">
		<tag k="name" v="Ivassgrova" />
		<tag k="ssr:stedsnr" v="755604" />
		<tag k="waterway" v="stream" />
	</node>
	<node lat="62.109016670040894" lon="5.672091659998802" id="-3117">
		<tag k="name" v="Eidsåelva" />
		<tag k="ssr:stedsnr" v="756149" />
		<tag k="waterway" v="stream" />
	</node>
	<node lat="61.99633055242127" lon="5.518500003713863" id="-3118">
		<tag k="name" v="Smørholmen" />
		<tag k="place" v="islet" />
		<tag k="ssr:stedsnr" v="756395" />
	</node>
	<node lat="62.03614721964245" lon="5.542675002915556" id="-3119">
		<tag k="name" v="Stompegylelva" />
		<tag k="ssr:stedsnr" v="756399" />
		<tag k="waterway" v="stream" />
	</node>
	<node lat="62.040336110039966" lon="5.554702773716681" id="-3120">
		<tag k="name" v="Lomvatnet" />
		<tag k="natural" v="water" />
		<tag k="ssr:stedsnr" v="756409" />
	</node>
	<node lat="62.06983333188079" lon="5.716850000646496" id="-3121">
		<tag k="name" v="Breidskredneset" />
		<tag k="natural" v="cape" />
		<tag k="ssr:stedsnr" v="757145" />
	</node>
	<node lat="62.05299999988116" lon="5.810183339380922" id="-3124">
		<tag k="name" v="Krikane" />
		<tag k="natural" v="water" />
		<tag k="ssr:stedsnr" v="758306" />
		<tag k="water" v="lake" />
	</node>
	<node lat="62.18305832917651" lon="5.808050009015485" id="-3125">
		<tag k="name" v="Kvilaforelva" />
		<tag k="ssr:stedsnr" v="758811" />
		<tag k="waterway" v="stream" />
	</node>
	<node lat="62.18384722239556" lon="5.828952779314643" id="-3126">
		<tag k="name" v="Sneldelidgrova" />
		<tag k="ssr:stedsnr" v="758813" />
		<tag k="waterway" v="stream" />
	</node>
	<node lat="62.00225555323114" lon="5.597861119680772" id="-3131">
		<tag k="name" v="Helgehornsvatnet" />
		<tag k="natural" v="water" />
		<tag k="ssr:stedsnr" v="799218" />
	</node>
	<node lat="62.04813055999556" lon="5.572594444443944" id="-3132">
		<tag k="name" v="Juldalsvatnet" />
		<tag k="natural" v="water" />
		<tag k="ssr:stedsnr" v="799299" />
	</node>
	<node lat="62.113427774541975" lon="5.719138884380233" id="-3134">
		<tag k="name" v="Sæsselva" />
		<tag k="ssr:stedsnr" v="799793" />
		<tag k="waterway" v="stream" />
	</node>
	<node lat="62.12728889258915" lon="5.529905563528229" id="-3148">
		<tag k="fixme" v="multiple name tags, choose one and add the other to alt_name" />
		<tag k="name" v="Haugevatnet;Storehaugvatnet" />
		<tag k="natural" v="water" />
		<tag k="ssr:stedsnr" v="920365" />
		<tag k="water" v="lake" />
	</node>
	<node lat="62.17409722219629" lon="5.804308337891897" id="-3150">
		<tag k="name" v="Heggegrova" />
		<tag k="ssr:stedsnr" v="814928" />
		<tag k="waterway" v="stream" />
	</node>
	<node lat="62.027930555784266" lon="5.583502782777588" id="-3151">
		<tag k="name" v="Store Kvennavatnet" />
		<tag k="natural" v="water" />
		<tag k="ssr:stedsnr" v="814983" />
	</node>
	<node lat="61.97859722178444" lon="5.51118332600243" id="-3152">
		<tag k="name" v="Langeneset" />
		<tag k="natural" v="cape" />
		<tag k="ssr:stedsnr" v="815247" />
	</node>
	<node lat="62.025091667566585" lon="5.523761108943412" id="-3167">
		<tag k="name" v="Langhamarsgrova" />
		<tag k="ssr:stedsnr" v="816613" />
		<tag k="waterway" v="stream" />
	</node>
	<node lat="62.0234666635601" lon="5.620722227745668" id="-3173">
		<tag k="name" v="Slivatnet" />
		<tag k="natural" v="water" />
		<tag k="ssr:stedsnr" v="920066" />
	</node>
	<node lat="62.004983331234016" lon="5.717038882144153" id="-3175">
		<tag k="name" v="Heiavatna" />
		<tag k="natural" v="water" />
		<tag k="ssr:stedsnr" v="819008" />
		<tag k="water" v="lake" />
	</node>
	<node lat="62.04794722600467" lon="5.53599722525106" id="-3183">
		<tag k="name" v="Torvikelva" />
		<tag k="ssr:stedsnr" v="921287" />
		<tag k="waterway" v="stream" />
	</node>
	<node lat="62.149208337007565" lon="5.620119444930649" id="-3188">
		<tag k="name" v="Sandfjellvatnet" />
		<tag k="natural" v="water" />
		<tag k="ssr:stedsnr" v="921520" />
	</node>
	<node lat="62.08641111205044" lon="5.829291674441763" id="-3189">
		<tag k="name" v="Høgenipvatnet" />
		<tag k="natural" v="water" />
		<tag k="ssr:stedsnr" v="921826" />
	</node>
	<node lat="62.081438886300546" lon="5.81316667368549" id="-3190">
		<tag k="name" v="Løskogelva" />
		<tag k="ssr:stedsnr" v="921837" />
		<tag k="waterway" v="stream" />
	</node>
	<node lat="62.032291662883225" lon="5.767786111010813" id="-3193">
		<tag k="alt_name" v="Jolvatnet" />
		<tag k="name" v="Jolevatnet" />
		<tag k="natural" v="water" />
		<tag k="ssr:stedsnr" v="921881" />
	</node>
	<node lat="62.12662500029763" lon="5.424138892974515" id="-3209">
		<tag k="name" v="Fonnelva" />
		<tag k="ssr:stedsnr" v="860512" />
		<tag k="waterway" v="stream" />
	</node>
	<node lat="61.982080552183774" lon="5.579730552680916" id="-3219">
		<tag k="name" v="Skareelva" />
		<tag k="ssr:stedsnr" v="870511" />
		<tag k="waterway" v="stream" />
	</node>
	<node lat="62.10775833531854" lon="5.504211118462191" id="-3226">
		<tag k="name" v="Ytre Strandaelva" />
		<tag k="ssr:stedsnr" v="876654" />
		<tag k="waterway" v="river" />
	</node>
	<node lat="62.04126389154305" lon="5.515183325095661" id="-3238">
		<tag k="name" v="Bruraberget" />
		<tag k="natural" v="cape" />
		<tag k="ssr:stedsnr" v="877454" />
	</node>
	<node lat="61.97618611513279" lon="5.630344437395326" id="-3256">
		<tag k="name" v="Hellevatna" />
		<tag k="natural" v="water" />
		<tag k="ssr:stedsnr" v="920046" />
	</node>
	<node lat="62.07325555569317" lon="5.729877768676235" id="-3273">
		<tag k="name" v="Brekkebugen" />
		<tag k="natural" v="bay" />
		<tag k="ssr:stedsnr" v="936739" />
	</node>
	<node lat="62.095316664244045" lon="5.755850003236451" id="-3278">
		<tag k="fixme" v="multiple name tags, choose one and add the other to alt_name" />
		<tag k="name" v="Norddalselva;Vikelva" />
		<tag k="ssr:stedsnr" v="937215" />
		<tag k="waterway" v="river" />
	</node>
	<node lat="62.11042500429392" lon="5.746888896449925" id="-3308">
		<tag k="alt_name" v="Gryddelva" />
		<tag k="name" v="Grytelva" />
		<tag k="ssr:stedsnr" v="10851" />
		<tag k="waterway" v="stream" />
	</node>
	<node lat="62.06136666954458" lon="5.679219439396008" id="-3313">
		<tag k="name" v="Støylsmannsvatnet" />
		<tag k="natural" v="water" />
		<tag k="ssr:stedsnr" v="11346" />
	</node>
	<node lat="61.99395555657371" lon="5.56987222174918" id="-3324">
		<tag k="name" v="Grunnevasselva" />
		<tag k="ssr:stedsnr" v="26571" />
		<tag k="waterway" v="river" />
	</node>
	<node lat="62.13366944438206" lon="5.453958331830981" id="-3327">
		<tag k="name" v="Krokvikelva" />
		<tag k="ssr:stedsnr" v="26769" />
		<tag k="waterway" v="river" />
	</node>
	<node lat="62.06943610923428" lon="5.7159750071542845" id="-3345">
		<tag k="name" v="Vika" />
		<tag k="natural" v="bay" />
		<tag k="ssr:stedsnr" v="29159" />
	</node>
	<node lat="62.064141671047224" lon="5.712133329005466" id="-3346">
		<tag k="name" v="Riset" />
		<tag k="natural" v="bay" />
		<tag k="ssr:stedsnr" v="29165" />
	</node>
	<node lat="62.06180277431" lon="5.837725009325636" id="-3350">
		<tag k="name" v="Bruvatnet" />
		<tag k="natural" v="water" />
		<tag k="ssr:stedsnr" v="30297" />
	</node>
	<node lat="62.15116944759504" lon="5.510366668669933" id="-3356">
		<tag k="name" v="Grøneneset" />
		<tag k="natural" v="cape" />
		<tag k="ssr:stedsnr" v="38941" />
	</node>
	<node lat="61.99340277427371" lon="5.491400006907976" id="-3363">
		<tag k="name" v="Krokevatna" />
		<tag k="natural" v="water" />
		<tag k="ssr:stedsnr" v="55860" />
		<tag k="water" v="lake" />
	</node>
	<node lat="61.97740833219965" lon="5.697925002092634" id="-3364">
		<tag k="name" v="Bjørnalidvatnet" />
		<tag k="natural" v="water" />
		<tag k="ssr:stedsnr" v="70018" />
	</node>
	<node lat="61.9710000012215" lon="5.602888896668328" id="-3366">
		<tag k="alt_name" v="Bergevatnet" />
		<tag k="name" v="Maridalsvatnet" />
		<tag k="natural" v="water" />
		<tag k="ssr:stedsnr" v="70021" />
	</node>
	<node lat="62.018991668547294" lon="5.6769361113256585" id="-3372">
		<tag k="name" v="Skinvatna" />
		<tag k="natural" v="water" />
		<tag k="ssr:stedsnr" v="71222" />
	</node>
	<node lat="62.1541361085031" lon="5.46065277594403" id="-3382">
		<tag k="name" v="Sandvikelva" />
		<tag k="ssr:stedsnr" v="71466" />
		<tag k="waterway" v="stream" />
	</node>
	<node lat="62.095869444160776" lon="5.687822214589903" id="-3385">
		<tag k="name" v="Krikane" />
		<tag k="place" v="locality" />
		<tag k="ssr:stedsnr" v="72393" />
	</node>
	<node lat="62.04327221948804" lon="5.753991663130463" id="-3390">
		<tag k="fixme" v="multiple name tags, choose one and add the other to alt_name" />
		<tag k="loc_name" v="Vasspestvatnet" />
		<tag k="name" v="Vasspess-vatnet;Brillevatna" />
		<tag k="natural" v="water" />
		<tag k="ssr:stedsnr" v="72897" />
		<tag k="water" v="lake" />
	</node>
	<node lat="62.133347218303676" lon="5.583719443664438" id="-3393">
		<tag k="name" v="Solliholmen" />
		<tag k="place" v="islet" />
		<tag k="ssr:stedsnr" v="86345" />
	</node>
	<node lat="62.0457055587577" lon="5.660122231166679" id="-3398">
		<tag k="name" v="Støylshyllevatnet" />
		<tag k="natural" v="water" />
		<tag k="ssr:stedsnr" v="86789" />
	</node>
	<node lat="61.9875111148356" lon="5.514669452185205" id="-3406">
		<tag k="name" v="Tryftevika" />
		<tag k="natural" v="bay" />
		<tag k="ssr:stedsnr" v="88346" />
	</node>
	<node lat="62.06349722579831" lon="5.662950000538619" id="-3416">
		<tag k="name" v="Skjervheimsvatnet" />
		<tag k="natural" v="water" />
		<tag k="ssr:stedsnr" v="87943" />
	</node>
	<node lat="62.0651416655092" lon="5.6637138885227545" id="-3425">
		<tag k="name" v="Skjervheimselva" />
		<tag k="ssr:stedsnr" v="88053" />
		<tag k="waterway" v="river" />
	</node>
	<node lat="62.05226944013036" lon="5.742988887824416" id="-3433">
		<tag k="name" v="Styttestranda" />
		<tag k="natural" v="beach" />
		<tag k="ssr:stedsnr" v="90047" />
	</node>
	<node lat="62.04277777653249" lon="5.8044361164458405" id="-3435">
		<tag k="name" v="Skinastødet" />
		<tag k="place" v="islet" />
		<tag k="ssr:stedsnr" v="90941" />
	</node>
	<node lat="62.05019166849768" lon="5.831311113483761" id="-3438">
		<tag k="name" v="Naustvika" />
		<tag k="natural" v="bay" />
		<tag k="ssr:stedsnr" v="91201" />
	</node>
	<node lat="62.077277773819006" lon="5.847524992295694" id="-3441">
		<tag k="name" v="Stordalselva" />
		<tag k="ssr:stedsnr" v="91362" />
		<tag k="waterway" v="stream" />
	</node>
	<node lat="62.15224444871835" lon="5.490677781218614" id="-3451">
		<tag k="name" v="Tunga" />
		<tag k="natural" v="cape" />
		<tag k="ssr:stedsnr" v="99950" />
	</node>
	<node lat="61.98336944256085" lon="5.672355546635516" id="-3458">
		<tag k="alt_name" v="Tverrelva" />
		<tag k="name" v="Grynnevasselva" />
		<tag k="ssr:stedsnr" v="131027" />
		<tag k="waterway" v="stream" />
	</node>
	<node lat="61.98811389216975" lon="5.721905562573125" id="-3459">
		<tag k="name" v="Svartevatnet" />
		<tag k="natural" v="water" />
		<tag k="ssr:stedsnr" v="131043" />
	</node>
	<node lat="61.99848055265773" lon="5.572116665230694" id="-3461">
		<tag k="name" v="Grofsevatnet" />
		<tag k="natural" v="water" />
		<tag k="ssr:stedsnr" v="131052" />
	</node>
	<node lat="62.14010000419032" lon="5.606580554893846" id="-3464">
		<tag k="alt_name" v="Ristalsvatnet" />
		<tag k="name" v="Rysstallvatnet" />
		<tag k="natural" v="water" />
		<tag k="ssr:stedsnr" v="131457" />
	</node>
	<node lat="62.13508610683319" lon="5.801205558410473" id="-3465">
		<tag k="alt_name" v="Skoravatnet" />
		<tag k="name" v="Myrkevatnet" />
		<tag k="natural" v="water" />
		<tag k="ssr:stedsnr" v="131832" />
		<tag k="water" v="lake" />
	</node>
	<node lat="62.13675833559967" lon="5.770930547191821" id="-3466">
		<tag k="name" v="Jarevatnet" />
		<tag k="natural" v="water" />
		<tag k="ssr:stedsnr" v="131835" />
	</node>
	<node lat="62.06595277743184" lon="5.685399997296248" id="-3471">
		<tag k="name" v="Litlehornsvatnet" />
		<tag k="natural" v="water" />
		<tag k="ssr:stedsnr" v="132343" />
	</node>
	<node lat="62.135902779536416" lon="5.454738890995491" id="-3475">
		<tag k="name" v="Nørdredalselva" />
		<tag k="ssr:stedsnr" v="132458" />
		<tag k="waterway" v="river" />
	</node>
	<node lat="62.13376389192211" lon="5.421258340420219" id="-3477">
		<tag k="name" v="Kvieelva" />
		<tag k="ssr:stedsnr" v="132471" />
		<tag k="waterway" v="stream" />
	</node>
	<node lat="62.0357472255451" lon="5.571097226624793" id="-3484">
		<tag k="name" v="Skinvatna" />
		<tag k="natural" v="water" />
		<tag k="ssr:stedsnr" v="146979" />
	</node>
	<node lat="62.03010277953197" lon="5.588933341150235" id="-3485">
		<tag k="name" v="Litle Kvennavatnet" />
		<tag k="natural" v="water" />
		<tag k="ssr:stedsnr" v="146981" />
	</node>
	<node lat="62.15869167095222" lon="5.713341656920228" id="-3488">
		<tag k="name" v="Vassholeelva" />
		<tag k="ssr:stedsnr" v="146708" />
		<tag k="waterway" v="stream" />
	</node>
	<node lat="62.0026722246785" lon="5.553719446290917" id="-3500">
		<tag k="name" v="Krokeelva" />
		<tag k="ssr:stedsnr" v="147466" />
		<tag k="waterway" v="stream" />
	</node>
	<node lat="62.09605277834166" lon="5.672541669817272" id="-3505">
		<tag k="name" v="Sætreelva" />
		<tag k="ssr:stedsnr" v="148200" />
		<tag k="waterway" v="stream" />
	</node>
	<node lat="62.04827778080091" lon="5.528305553106811" id="-3508">
		<tag k="name" v="Skrubbehammaren" />
		<tag k="natural" v="cape" />
		<tag k="ssr:stedsnr" v="148449" />
	</node>
	<node lat="62.01786944032157" lon="5.560361111957346" id="-3509">
		<tag k="name" v="Røyrneset" />
		<tag k="natural" v="cape" />
		<tag k="ssr:stedsnr" v="148594" />
	</node>
	<node lat="62.06887500395335" lon="5.801541662243665" id="-3519">
		<tag k="name" v="Tunga" />
		<tag k="natural" v="cape" />
		<tag k="ssr:stedsnr" v="150327" />
	</node>
	<node lat="62.02991389106457" lon="5.693855554338923" id="-3520">
		<tag k="name" v="Krokane" />
		<tag k="place" v="islet" />
		<tag k="ssr:stedsnr" v="150439" />
	</node>
	<node lat="62.16395277904729" lon="5.817108341758549" id="-3524">
		<tag k="name" v="Gamlestøylelva" />
		<tag k="ssr:stedsnr" v="151733" />
		<tag k="waterway" v="stream" />
	</node>
	<node lat="62.071227778666284" lon="5.840394434790313" id="-3526">
		<tag k="name" v="Tenneelva" />
		<tag k="ssr:stedsnr" v="151293" />
		<tag k="waterway" v="river" />
	</node>
	<node lat="61.967233330841296" lon="5.600274997437392" id="-3552">
		<tag k="name" v="Skinevatnet" />
		<tag k="natural" v="water" />
		<tag k="ssr:stedsnr" v="192031" />
	</node>
	<node lat="61.98194721807249" lon="5.564494448101847" id="-3553">
		<tag k="name" v="Movatnet" />
		<tag k="natural" v="water" />
		<tag k="ssr:stedsnr" v="192043" />
		<tag k="water" v="lake" />
	</node>
	<node lat="61.99189166535218" lon="5.497674996227594" id="-3555">
		<tag k="name" v="Nipevatnet" />
=======
<osm generator="osmapis" version="0.6">
	<node id="-59392" lat="62.0169999955" lon="5.49273888006">
		<tag k="name" v="Røytehola" />
		<tag k="natural" v="bay" />
		<tag k="ssr:stedsnr" v="89619" />
	</node>
	<node id="-59389" lat="62.0816027771" lon="5.67452221443">
		<tag k="name" v="Storevatnet" />
		<tag k="natural" v="water" />
		<tag k="ssr:stedsnr" v="89080" />
		<tag k="water" v="lake" />
	</node>
	<node id="-59379" lat="61.9875111148" lon="5.51466945219">
		<tag k="name" v="Tryftevika" />
		<tag k="natural" v="bay" />
		<tag k="ssr:stedsnr" v="88346" />
	</node>
	<node id="-59374" lat="62.1094416708" lon="5.60738332839">
		<tag k="name" v="Øygardselva" />
		<tag k="ssr:stedsnr" v="88203" />
		<tag k="waterway" v="stream" />
	</node>
	<node id="-59370" lat="62.0634972258" lon="5.66295000054">
		<tag k="name" v="Skjervheimsvatnet" />
		<tag k="natural" v="water" />
		<tag k="ssr:stedsnr" v="87943" />
	</node>
	<node id="-59360" lat="62.0651416655" lon="5.66371388852">
		<tag k="name" v="Skjervheimselva" />
		<tag k="ssr:stedsnr" v="88053" />
		<tag k="waterway" v="river" />
	</node>
	<node id="-59354" lat="62.0189944408" lon="5.57898333126">
		<tag k="name" v="Kvennavasselva" />
		<tag k="ssr:stedsnr" v="87696" />
		<tag k="waterway" v="stream" />
	</node>
	<node id="-59347" lat="62.0457055588" lon="5.66012223117">
		<tag k="name" v="Støylshyllevatnet" />
		<tag k="natural" v="water" />
		<tag k="ssr:stedsnr" v="86789" />
	</node>
	<node id="-59340" lat="62.1333472183" lon="5.58371944366">
		<tag k="name" v="Solliholmen" />
		<tag k="place" v="islet" />
		<tag k="ssr:stedsnr" v="86345" />
	</node>
	<node id="-59337" lat="62.0432722195" lon="5.75399166313">
		<tag k="fixme" v="multiple name tags, choose one and add the other to alt_name" />
		<tag k="loc_name" v="Vasspestvatnet" />
		<tag k="name" v="Brillevatna;Vasspess-vatnet" />
		<tag k="natural" v="water" />
		<tag k="ssr:stedsnr" v="72897" />
		<tag k="water" v="lake" />
	</node>
	<node id="-59333" lat="62.0958694442" lon="5.68782221459">
		<tag k="name" v="Krikane" />
		<tag k="place" v="locality" />
		<tag k="ssr:stedsnr" v="72393" />
	</node>
	<node id="-59326" lat="62.1533472212" lon="5.58559999784">
		<tag k="name" v="Koftelva" />
		<tag k="ssr:stedsnr" v="71470" />
		<tag k="waterway" v="stream" />
	</node>
	<node id="-59325" lat="62.1541361085" lon="5.46065277594">
		<tag k="name" v="Sandvikelva" />
		<tag k="ssr:stedsnr" v="71466" />
		<tag k="waterway" v="stream" />
	</node>
	<node id="-59308" lat="62.1511694476" lon="5.51036666867">
		<tag k="name" v="Grøneneset" />
		<tag k="natural" v="cape" />
		<tag k="ssr:stedsnr" v="38941" />
	</node>
	<node id="-59302" lat="62.0618027743" lon="5.83772500933">
		<tag k="name" v="Bruvatnet" />
		<tag k="natural" v="water" />
		<tag k="ssr:stedsnr" v="30297" />
	</node>
	<node id="-59300" lat="62.0538444447" lon="5.82197222041">
		<tag k="name" v="Store Skarevatnet" />
		<tag k="natural" v="water" />
		<tag k="ssr:stedsnr" v="30284" />
		<tag k="water" v="lake" />
	</node>
	<node id="-59290" lat="62.064141671" lon="5.71213332901">
		<tag k="name" v="Riset" />
		<tag k="natural" v="bay" />
		<tag k="ssr:stedsnr" v="29165" />
	</node>
	<node id="-59289" lat="62.0535277759" lon="5.55696944381">
		<tag k="name" v="Botnen" />
		<tag k="natural" v="bay" />
		<tag k="ssr:stedsnr" v="28617" />
	</node>
	<node id="-59277" lat="62.1275611101" lon="5.79926667065">
		<tag k="name" v="Litlevatnet" />
		<tag k="natural" v="water" />
		<tag k="ssr:stedsnr" v="26772" />
	</node>
	<node id="-59276" lat="62.1336694444" lon="5.45395833183">
		<tag k="name" v="Krokvikelva" />
		<tag k="ssr:stedsnr" v="26769" />
		<tag k="waterway" v="river" />
	</node>
	<node id="-59271" lat="61.9939555566" lon="5.56987222175">
		<tag k="name" v="Grunnevasselva" />
		<tag k="ssr:stedsnr" v="26571" />
		<tag k="waterway" v="river" />
	</node>
	<node id="-59255" lat="62.0309833348" lon="5.5587805608">
		<tag k="alt_name" v="Nipevatna" />
		<tag k="name" v="Nibbevatna" />
		<tag k="natural" v="water" />
		<tag k="ssr:stedsnr" v="11293" />
	</node>
	<node id="-59254" lat="62.1500027755" lon="5.49597777748">
		<tag k="name" v="Sandvikvatnet" />
		<tag k="natural" v="water" />
		<tag k="ssr:stedsnr" v="11441" />
		<tag k="water" v="lake" />
	</node>
	<node id="-59246" lat="62.023858337" lon="5.6756972187">
		<tag k="name" v="Vassdalsvatnet" />
		<tag k="natural" v="water" />
		<tag k="ssr:stedsnr" v="11186" />
	</node>
	<node id="-59243" lat="62.157130552" lon="5.76656944296">
		<tag k="name" v="Støylselva" />
		<tag k="ssr:stedsnr" v="11031" />
		<tag k="waterway" v="stream" />
	</node>
	<node id="-59239" lat="61.9764444454" lon="5.60426944734">
		<tag k="name" v="Langedalsvatna" />
		<tag k="natural" v="water" />
		<tag k="ssr:stedsnr" v="10041" />
	</node>
	<node id="-59229" lat="62.1505999969" lon="5.83871389183">
		<tag k="name" v="Joleskarelva" />
		<tag k="ssr:stedsnr" v="940631" />
		<tag k="waterway" v="stream" />
	</node>
	<node id="-59218" lat="62.0953166642" lon="5.75585000324">
		<tag k="fixme" v="multiple name tags, choose one and add the other to alt_name" />
		<tag k="name" v="Norddalselva;Vikelva" />
		<tag k="ssr:stedsnr" v="937215" />
		<tag k="waterway" v="river" />
	</node>
	<node id="-59215" lat="62.1272888926" lon="5.52990556353">
		<tag k="fixme" v="multiple name tags, choose one and add the other to alt_name" />
		<tag k="name" v="Haugevatnet;Storehaugvatnet" />
		<tag k="natural" v="water" />
		<tag k="ssr:stedsnr" v="920365" />
		<tag k="water" v="lake" />
	</node>
	<node id="-59214" lat="62.0234666636" lon="5.62072222775">
		<tag k="name" v="Slivatnet" />
		<tag k="natural" v="water" />
		<tag k="ssr:stedsnr" v="920066" />
	</node>
	<node id="-59203" lat="61.9939305552" lon="5.48650556171">
		<tag k="name" v="Løkjen" />
		<tag k="natural" v="water" />
		<tag k="ssr:stedsnr" v="875311" />
	</node>
	<node id="-59202" lat="61.9820805522" lon="5.57973055268">
		<tag k="name" v="Skareelva" />
		<tag k="ssr:stedsnr" v="870511" />
		<tag k="waterway" v="stream" />
	</node>
	<node id="-59187" lat="62.1266250003" lon="5.42413889297">
		<tag k="name" v="Fonnelva" />
		<tag k="ssr:stedsnr" v="860512" />
		<tag k="waterway" v="stream" />
	</node>
	<node id="-59182" lat="62.0679055598" lon="5.79678611089">
		<tag k="name" v="Sveragylet" />
		<tag k="ssr:stedsnr" v="940835" />
		<tag k="waterway" v="stream" />
	</node>
	<node id="-59175" lat="62.0928916666" lon="5.81996666353">
		<tag k="name" v="Bruelva" />
		<tag k="ssr:stedsnr" v="940336" />
		<tag k="waterway" v="river" />
	</node>
	<node id="-59154" lat="62.0980194413" lon="5.67303332581">
		<tag k="name" v="Storgylelva" />
		<tag k="ssr:stedsnr" v="938182" />
		<tag k="waterway" v="stream" />
	</node>
	<node id="-59152" lat="62.0523388878" lon="5.59721388877">
		<tag k="name" v="Eikremselva" />
		<tag k="ssr:stedsnr" v="938078" />
		<tag k="waterway" v="river" />
	</node>
	<node id="-59144" lat="62.1195194402" lon="5.79331667062">
		<tag k="name" v="Trollbryggja" />
		<tag k="natural" v="strait" />
		<tag k="ssr:stedsnr" v="937863" />
	</node>
	<node id="-59128" lat="62.0198722235" lon="5.64496944412">
		<tag k="name" v="Strupen" />
		<tag k="natural" v="strait" />
		<tag k="ssr:stedsnr" v="936661" />
	</node>
	<node id="-59119" lat="62.0732555557" lon="5.72987776868">
		<tag k="name" v="Brekkebugen" />
		<tag k="natural" v="bay" />
		<tag k="ssr:stedsnr" v="936739" />
	</node>
	<node id="-59106" lat="62.0049833312" lon="5.71703888214">
		<tag k="name" v="Heiavatna" />
		<tag k="natural" v="water" />
		<tag k="ssr:stedsnr" v="819008" />
		<tag k="water" v="lake" />
	</node>
	<node id="-59095" lat="62.0250916676" lon="5.52376110894">
		<tag k="name" v="Langhamarsgrova" />
		<tag k="ssr:stedsnr" v="816613" />
		<tag k="waterway" v="stream" />
	</node>
	<node id="-59077" lat="62.1134277745" lon="5.71913888438">
		<tag k="name" v="Sæsselva" />
		<tag k="ssr:stedsnr" v="799793" />
		<tag k="waterway" v="stream" />
	</node>
	<node id="-59076" lat="62.0022555532" lon="5.59786111968">
		<tag k="name" v="Helgehornsvatnet" />
		<tag k="natural" v="water" />
		<tag k="ssr:stedsnr" v="799218" />
	</node>
	<node id="-59072" lat="61.9843305525" lon="5.70445000403">
		<tag k="name" v="Kvanndalsvatnet" />
		<tag k="natural" v="water" />
		<tag k="ssr:stedsnr" v="798024" />
	</node>
	<node id="-59071" lat="62.0322916629" lon="5.76778611101">
		<tag k="fixme" v="multiple name tags, choose one and add the other to alt_name" />
		<tag k="name" v="Jolevatnet;Jolvatnet" />
		<tag k="natural" v="water" />
		<tag k="ssr:stedsnr" v="921881" />
	</node>
	<node id="-59069" lat="62.0814388863" lon="5.81316667369">
		<tag k="name" v="Løskogelva" />
		<tag k="ssr:stedsnr" v="921837" />
		<tag k="waterway" v="stream" />
	</node>
	<node id="-59068" lat="62.0864111121" lon="5.82929167444">
		<tag k="name" v="Høgenipvatnet" />
		<tag k="natural" v="water" />
		<tag k="ssr:stedsnr" v="921826" />
	</node>
	<node id="-59065" lat="62.149208337" lon="5.62011944493">
		<tag k="name" v="Sandfjellvatnet" />
		<tag k="natural" v="water" />
		<tag k="ssr:stedsnr" v="921520" />
	</node>
	<node id="-59051" lat="62.047947226" lon="5.53599722525">
		<tag k="name" v="Torvikelva" />
		<tag k="ssr:stedsnr" v="921287" />
		<tag k="waterway" v="stream" />
	</node>
	<node id="-59044" lat="61.9761861151" lon="5.6303444374">
		<tag k="name" v="Hellevatna" />
		<tag k="natural" v="water" />
		<tag k="ssr:stedsnr" v="920046" />
	</node>
	<node id="-59043" lat="62.1414861083" lon="5.53536944338">
		<tag k="name" v="Koppevatnet" />
		<tag k="natural" v="water" />
		<tag k="ssr:stedsnr" v="766936" />
		<tag k="water" v="lake" />
	</node>
	<node id="-59037" lat="62.0529999999" lon="5.81018333938">
		<tag k="name" v="Krikane" />
		<tag k="natural" v="water" />
		<tag k="ssr:stedsnr" v="758306" />
		<tag k="water" v="lake" />
	</node>
	<node id="-59031" lat="62.1216750037" lon="5.54394443718">
		<tag k="alt_name" v="Støylsvatnet" />
		<tag k="name" v="Strandavatnet" />
		<tag k="natural" v="water" />
		<tag k="ssr:stedsnr" v="739378" />
		<tag k="water" v="lake" />
	</node>
	<node id="-59018" lat="62.0017750002" lon="5.72615833226">
		<tag k="name" v="Litledalsvatnet" />
		<tag k="natural" v="water" />
		<tag k="ssr:stedsnr" v="697008" />
		<tag k="water" v="lake" />
	</node>
	<node id="-59011" lat="62.0976638912" lon="5.64916387965">
		<tag k="fixme" v="multiple name tags, choose one and add the other to alt_name" />
		<tag k="name" v="Fosseelva;Storelva" />
		<tag k="ssr:stedsnr" v="695215" />
		<tag k="waterway" v="stream" />
	</node>
	<node id="-59008" lat="62.175402776" lon="5.7718055646">
		<tag k="name" v="Litlerovd-elva" />
		<tag k="ssr:stedsnr" v="694927" />
		<tag k="waterway" v="stream" />
	</node>
	<node id="-59007" lat="62.1446666707" lon="5.76351111957">
		<tag k="name" v="Bingseelva" />
		<tag k="ssr:stedsnr" v="694775" />
		<tag k="waterway" v="stream" />
	</node>
	<node id="-59006" lat="62.1079027782" lon="5.44923888202">
		<tag k="name" v="Sighaugelva" />
		<tag k="ssr:stedsnr" v="694712" />
		<tag k="waterway" v="stream" />
	</node>
	<node id="-59003" lat="62.155111112" lon="5.69258888013">
		<tag k="name" v="Labergsgylet" />
		<tag k="ssr:stedsnr" v="693903" />
		<tag k="waterway" v="stream" />
	</node>
	<node id="-59002" lat="61.9819027747" lon="5.62883055587">
		<tag k="name" v="Klovestøylvatnet" />
		<tag k="natural" v="water" />
		<tag k="ssr:stedsnr" v="693723" />
	</node>
	<node id="-59001" lat="62.1054055593" lon="5.47133332385">
		<tag k="name" v="Legeelva" />
		<tag k="ssr:stedsnr" v="693713" />
		<tag k="waterway" v="stream" />
	</node>
	<node id="-58999" lat="62.1086777809" lon="5.59073056462">
		<tag k="name" v="Rysteelva" />
		<tag k="ssr:stedsnr" v="693371" />
		<tag k="waterway" v="stream" />
	</node>
	<node id="-58983" lat="62.1389277751" lon="5.76158056541">
		<tag k="fixme" v="multiple name tags, choose one and add the other to alt_name" />
		<tag k="name" v="Heimste Jarevatnet;Skålvatnet" />
		<tag k="natural" v="water" />
		<tag k="ssr:stedsnr" v="678773" />
	</node>
	<node id="-58980" lat="62.0835416699" lon="5.84486111693">
		<tag k="name" v="Stordalsvatnet" />
		<tag k="natural" v="water" />
		<tag k="ssr:stedsnr" v="678815" />
	</node>
	<node id="-58977" lat="62.1818461155" lon="5.52058480372">
		<tag k="name" v="Arsetelva" />
		<tag k="ssr:stedsnr" v="678516" />
		<tag k="waterway" v="stream" />
	</node>
	<node id="-58975" lat="62.0337277769" lon="5.6687861195">
		<tag k="name" v="Kilebrekkvatnet" />
		<tag k="natural" v="water" />
		<tag k="ssr:stedsnr" v="678304" />
	</node>
	<node id="-58970" lat="61.9709416701" lon="5.61734999719">
		<tag k="name" v="Krokvatnet" />
		<tag k="natural" v="water" />
		<tag k="ssr:stedsnr" v="677023" />
	</node>
	<node id="-58958" lat="62.0679194484" lon="5.72687499072">
		<tag k="name" v="Sadelgylet" />
		<tag k="ssr:stedsnr" v="879333" />
		<tag k="waterway" v="stream" />
	</node>
	<node id="-58954" lat="62.0467888926" lon="5.73536110379">
		<tag k="name" v="Buhølen" />
		<tag k="place" v="locality" />
		<tag k="ssr:stedsnr" v="879087" />
	</node>
	<node id="-58949" lat="62.0558027736" lon="5.56366389084">
		<tag k="name" v="Bjørdalselva" />
		<tag k="ssr:stedsnr" v="878644" />
		<tag k="waterway" v="river" />
	</node>
	<node id="-58945" lat="62.01918056" lon="5.53866667538">
		<tag k="name" v="Byrkjelidelva" />
		<tag k="ssr:stedsnr" v="877599" />
		<tag k="waterway" v="stream" />
	</node>
	<node id="-58943" lat="62.0412638915" lon="5.5151833251">
		<tag k="name" v="Bruraberget" />
		<tag k="natural" v="cape" />
		<tag k="ssr:stedsnr" v="877454" />
	</node>
	<node id="-58939" lat="62.0346527755" lon="5.55590555748">
		<tag k="name" v="Litlesvartevatnet" />
		<tag k="natural" v="water" />
		<tag k="ssr:stedsnr" v="877419" />
	</node>
	<node id="-58937" lat="62.1100194478" lon="5.62557223126">
		<tag k="name" v="Matelva" />
		<tag k="ssr:stedsnr" v="877239" />
		<tag k="waterway" v="stream" />
	</node>
	<node id="-58936" lat="62.1022388858" lon="5.62855555639">
		<tag k="name" v="Sætreelva" />
		<tag k="ssr:stedsnr" v="877238" />
		<tag k="waterway" v="stream" />
	</node>
	<node id="-58933" lat="62.1041583322" lon="5.67408610304">
		<tag k="name" v="Breiteigselva" />
		<tag k="ssr:stedsnr" v="877042" />
		<tag k="waterway" v="stream" />
	</node>
	<node id="-58928" lat="62.1283527818" lon="5.78526944957">
		<tag k="name" v="Elvakrikane" />
		<tag k="ssr:stedsnr" v="876845" />
		<tag k="waterway" v="stream" />
	</node>
	<node id="-58925" lat="61.9763194467" lon="5.60343056449">
		<tag k="name" v="Langevatnet" />
		<tag k="natural" v="water" />
		<tag k="ssr:stedsnr" v="876741" />
		<tag k="water" v="lake" />
	</node>
	<node id="-58921" lat="62.0115416668" lon="5.60428332518">
		<tag k="name" v="Rustefossen" />
		<tag k="natural" v="waterfall" />
		<tag k="ssr:stedsnr" v="876700" />
	</node>
	<node id="-58920" lat="62.0236916625" lon="5.59844999585">
		<tag k="name" v="Grunnvasselva" />
		<tag k="ssr:stedsnr" v="876698" />
		<tag k="waterway" v="stream" />
	</node>
	<node id="-58915" lat="62.1077583353" lon="5.50421111846">
		<tag k="name" v="Ytre Strandaelva" />
		<tag k="ssr:stedsnr" v="876654" />
		<tag k="waterway" v="river" />
	</node>
	<node id="-58909" lat="62.0637472259" lon="5.75878333139">
		<tag k="name" v="Trøvelgylet" />
		<tag k="ssr:stedsnr" v="636167" />
		<tag k="waterway" v="stream" />
	</node>
	<node id="-58908" lat="61.9927777758" lon="5.71269167157">
		<tag k="name" v="Litle Kvanndalsvatnet" />
		<tag k="natural" v="water" />
		<tag k="ssr:stedsnr" v="636010" />
		<tag k="water" v="lake" />
	</node>
	<node id="-58907" lat="62.0135944457" lon="5.53730833597">
		<tag k="name" v="Veradalselva" />
		<tag k="ssr:stedsnr" v="634593" />
		<tag k="waterway" v="river" />
	</node>
	<node id="-58902" lat="62.1141722185" lon="5.46283055466">
		<tag k="name" v="Tvervatnet" />
		<tag k="natural" v="water" />
		<tag k="ssr:stedsnr" v="632756" />
	</node>
	<node id="-58901" lat="62.1630166696" lon="5.71705278179">
		<tag k="name" v="Håneselva" />
		<tag k="ssr:stedsnr" v="632715" />
		<tag k="waterway" v="stream" />
	</node>
	<node id="-58894" lat="61.9816055516" lon="5.49812222832">
		<tag k="name" v="Skitnevikelva" />
		<tag k="ssr:stedsnr" v="632314" />
		<tag k="waterway" v="stream" />
	</node>
	<node id="-58889" lat="61.9816944418" lon="5.64549443836">
		<tag k="name" v="Fossevatna" />
		<tag k="natural" v="water" />
		<tag k="ssr:stedsnr" v="616021" />
	</node>
	<node id="-58888" lat="62.013822222" lon="5.49923888561">
		<tag k="alt_name" v="Skorge-elva" />
		<tag k="name" v="Skorgeelva" />
		<tag k="ssr:stedsnr" v="717547" />
		<tag k="waterway" v="river" />
	</node>
	<node id="-58869" lat="62.0797472252" lon="5.72793332888">
		<tag k="name" v="Oseelva" />
		<tag k="ssr:stedsnr" v="571730" />
		<tag k="waterway" v="river" />
	</node>
	<node id="-58865" lat="62.1347777784" lon="5.57973055414">
		<tag k="name" v="Sollielva" />
		<tag k="ssr:stedsnr" v="571328" />
		<tag k="waterway" v="river" />
	</node>
	<node id="-58863" lat="62.1183694484" lon="5.60485556029">
		<tag k="name" v="Skogaelva" />
		<tag k="ssr:stedsnr" v="571322" />
		<tag k="waterway" v="river" />
	</node>
	<node id="-58843" lat="62.1485972239" lon="5.64298333138">
		<tag k="name" v="Krokåa" />
		<tag k="ssr:stedsnr" v="557472" />
		<tag k="waterway" v="stream" />
	</node>
	<node id="-58842" lat="62.1458972218" lon="5.70549721721">
		<tag k="alt_name" v="Breidteigelva" />
		<tag k="name" v="Breiteigselva" />
		<tag k="ssr:stedsnr" v="557465" />
		<tag k="waterway" v="stream" />
	</node>
	<node id="-58841" lat="62.0817722181" lon="5.67593333481">
		<tag k="name" v="Taksetvatna" />
		<tag k="natural" v="water" />
		<tag k="ssr:stedsnr" v="557316" />
	</node>
	<node id="-58833" lat="62.0668472192" lon="5.75255556241">
		<tag k="fixme" v="multiple name tags, choose one and add the other to alt_name" />
		<tag k="name" v="Refsdalselva;Ripsdalselva" />
		<tag k="ssr:stedsnr" v="556853" />
		<tag k="waterway" v="river" />
	</node>
	<node id="-58827" lat="62.0316111148" lon="5.60697777131">
		<tag k="fixme" v="multiple name tags, choose one and add the other to alt_name" />
		<tag k="name" v="Grunnavatnet;Grunnevatnet" />
		<tag k="natural" v="water" />
		<tag k="ssr:stedsnr" v="556361" />
	</node>
	<node id="-58824" lat="62.035694444" lon="5.56144722707">
		<tag k="fixme" v="multiple name tags, choose one and add the other to alt_name" />
		<tag k="name" v="Mørkevatnet;Svartevatnet" />
		<tag k="natural" v="water" />
		<tag k="ssr:stedsnr" v="556313" />
	</node>
	<node id="-58821" lat="61.9912527761" lon="5.5648583342">
		<tag k="name" v="Grunnevatnet" />
		<tag k="natural" v="water" />
		<tag k="ssr:stedsnr" v="556055" />
	</node>
	<node id="-58819" lat="62.0839749991" lon="5.72819444026">
		<tag k="name" v="Holmane" />
		<tag k="natural" v="beach" />
		<tag k="ssr:stedsnr" v="697993" />
	</node>
	<node id="-58813" lat="62.063975001" lon="5.71454444581">
		<tag k="name" v="Vaulen" />
		<tag k="natural" v="bay" />
		<tag k="ssr:stedsnr" v="697176" />
	</node>
	<node id="-58807" lat="62.0382250029" lon="5.51802777122">
		<tag k="name" v="Åheimselva" />
		<tag k="ssr:stedsnr" v="695586" />
		<tag k="waterway" v="river" />
	</node>
	<node id="-58801" lat="61.9945472239" lon="5.52606944921">
		<tag k="name" v="Einegrova" />
		<tag k="ssr:stedsnr" v="695421" />
		<tag k="waterway" v="stream" />
	</node>
	<node id="-58785" lat="62.1033666674" lon="5.77019167129">
		<tag k="fixme" v="multiple name tags, choose one and add the other to alt_name" />
		<tag k="name" v="Plasseelva;Årskridelva" />
		<tag k="ssr:stedsnr" v="694165" />
		<tag k="waterway" v="stream" />
	</node>
	<node id="-58782" lat="62.0359944423" lon="5.67217221995">
		<tag k="name" v="Kilebrekkeholmen" />
		<tag k="place" v="islet" />
		<tag k="ssr:stedsnr" v="693792" />
	</node>
	<node id="-58766" lat="62.181538886" lon="5.76547778084">
		<tag k="name" v="Litlerovdøyra" />
		<tag k="natural" v="cape" />
		<tag k="ssr:stedsnr" v="515906" />
	</node>
	<node id="-58761" lat="62.0332722183" lon="5.54450277631">
		<tag k="name" v="Kvennhuselva" />
		<tag k="ssr:stedsnr" v="513452" />
		<tag k="waterway" v="stream" />
	</node>
	<node id="-58756" lat="62.0753555575" lon="5.63113332767">
		<tag k="name" v="Storegylselva" />
		<tag k="ssr:stedsnr" v="513075" />
		<tag k="waterway" v="stream" />
	</node>
	<node id="-58748" lat="62.1444027747" lon="5.63893610389">
		<tag k="name" v="Skarvatnet" />
		<tag k="natural" v="water" />
		<tag k="ssr:stedsnr" v="496517" />
		<tag k="water" v="lake" />
	</node>
	<node id="-58745" lat="62.1412861103" lon="5.53558056436">
		<tag k="name" v="Tverrfjellvatna" />
		<tag k="natural" v="water" />
		<tag k="ssr:stedsnr" v="496513" />
	</node>
	<node id="-58742" lat="62.1345388877" lon="5.46804999484">
		<tag k="fixme" v="multiple name tags, choose one and add the other to alt_name" />
		<tag k="name" v="Krokedalsvatnet;Krokvikvatnet" />
		<tag k="natural" v="water" />
		<tag k="ssr:stedsnr" v="496503" />
		<tag k="water" v="lake" />
	</node>
	<node id="-58740" lat="62.0358305522" lon="5.61153888265">
		<tag k="fixme" v="multiple name tags, choose one and add the other to alt_name" />
		<tag k="name" v="Syltehornsvatnet;Syltehornvatnet" />
		<tag k="natural" v="water" />
		<tag k="ssr:stedsnr" v="496315" />
	</node>
	<node id="-58731" lat="61.9943861091" lon="5.49551389595">
		<tag k="name" v="Krokevatnet" />
		<tag k="natural" v="water" />
		<tag k="ssr:stedsnr" v="495062" />
	</node>
	<node id="-58724" lat="62.1395305546" lon="5.48630278187">
		<tag k="name" v="Nørdredalsvatnet" />
		<tag k="natural" v="water" />
		<tag k="ssr:stedsnr" v="678502" />
	</node>
	<node id="-58723" lat="62.1466000016" lon="5.57908333042">
		<tag k="name" v="Måsevatna" />
		<tag k="natural" v="water" />
		<tag k="ssr:stedsnr" v="678500" />
	</node>
	<node id="-58716" lat="62.0729555579" lon="5.72687777042">
		<tag k="name" v="Saurdalsvatnet" />
		<tag k="natural" v="water" />
		<tag k="ssr:stedsnr" v="678397" />
		<tag k="water" v="lake" />
	</node>
	<node id="-58710" lat="62.0417666681" lon="5.64940000169">
		<tag k="name" v="Støylsvatnet" />
		<tag k="natural" v="water" />
		<tag k="ssr:stedsnr" v="678279" />
	</node>
	<node id="-58709" lat="61.99629167" lon="5.60356665907">
		<tag k="name" v="Eidevatnet" />
		<tag k="natural" v="water" />
		<tag k="ssr:stedsnr" v="677044" />
	</node>
	<node id="-58706" lat="61.9856805521" lon="5.60350832713">
		<tag k="name" v="Sædalsvatna" />
		<tag k="natural" v="water" />
		<tag k="ssr:stedsnr" v="677030" />
	</node>
	<node id="-58696" lat="62.0679861139" lon="5.75675278554">
		<tag k="name" v="Hjellgylet" />
		<tag k="ssr:stedsnr" v="454220" />
		<tag k="waterway" v="stream" />
	</node>
	<node id="-58694" lat="62.0503638926" lon="5.74060000452">
		<tag k="name" v="Olaneset" />
		<tag k="natural" v="cape" />
		<tag k="ssr:stedsnr" v="454049" />
	</node>
	<node id="-58690" lat="62.038" lon="5.53433332378">
		<tag k="name" v="Kattagrova" />
		<tag k="ssr:stedsnr" v="452420" />
		<tag k="waterway" v="stream" />
	</node>
	<node id="-58684" lat="62.1107027781" lon="5.44108054825">
		<tag k="name" v="Insteelva" />
		<tag k="ssr:stedsnr" v="451716" />
		<tag k="waterway" v="stream" />
	</node>
	<node id="-58680" lat="62.0529777739" lon="5.6205305511">
		<tag k="name" v="Sylteosen" />
		<tag k="natural" v="bay" />
		<tag k="ssr:stedsnr" v="451103" />
	</node>
	<node id="-58677" lat="61.9684944408" lon="5.54512500177">
		<tag k="name" v="Dryfteholmen" />
		<tag k="place" v="islet" />
		<tag k="ssr:stedsnr" v="445527" />
	</node>
	<node id="-58672" lat="62.1736972219" lon="5.79445277019">
		<tag k="name" v="Nakkevadet" />
		<tag k="place" v="locality" />
		<tag k="ssr:stedsnr" v="436022" />
	</node>
	<node id="-58668" lat="62.1163694436" lon="5.49708333839">
		<tag k="name" v="Deplevatnet" />
		<tag k="natural" v="water" />
		<tag k="ssr:stedsnr" v="435445" />
	</node>
	<node id="-58663" lat="62.1329666649" lon="5.55286666337">
		<tag k="name" v="Børevatnet" />
		<tag k="natural" v="water" />
		<tag k="ssr:stedsnr" v="435509" />
		<tag k="water" v="lake" />
	</node>
	<node id="-58660" lat="61.9742222191" lon="5.64964166231">
		<tag k="name" v="Hjelleskarvatnet" />
		<tag k="natural" v="water" />
		<tag k="ssr:stedsnr" v="434013" />
	</node>
	<node id="-58655" lat="62.0767638914" lon="5.81226667035">
		<tag k="name" v="Bakkegrova" />
		<tag k="ssr:stedsnr" v="515333" />
		<tag k="waterway" v="stream" />
	</node>
	<node id="-58645" lat="62.021505554" lon="5.56034165964">
		<tag k="name" v="Røyrneselva" />
		<tag k="ssr:stedsnr" v="513610" />
		<tag k="waterway" v="stream" />
	</node>
	<node id="-58640" lat="62.0446055572" lon="5.52292221767">
		<tag k="name" v="Litle-Saltvika" />
		<tag k="natural" v="bay" />
		<tag k="ssr:stedsnr" v="513483" />
	</node>
	<node id="-58242" lat="62.0560916664" lon="5.84233054695">
		<tag k="fixme" v="multiple name tags, choose one and add the other to alt_name" />
		<tag k="name" v="Myrkevatnet;Mørkvatnet" />
		<tag k="natural" v="water" />
		<tag k="ssr:stedsnr" v="253894" />
	</node>
	<node id="-58632" lat="62.1162694458" lon="5.76068055448">
		<tag k="name" v="Grønegylet" />
		<tag k="ssr:stedsnr" v="512833" />
		<tag k="waterway" v="stream" />
	</node>
	<node id="-58631" lat="62.1447916708" lon="5.76746111165">
		<tag k="name" v="Skålelva" />
		<tag k="ssr:stedsnr" v="512817" />
		<tag k="waterway" v="stream" />
	</node>
	<node id="-58628" lat="62.1329527741" lon="5.77464721846">
		<tag k="name" v="Jareelva" />
		<tag k="ssr:stedsnr" v="512868" />
		<tag k="waterway" v="stream" />
	</node>
	<node id="-58627" lat="61.9957833341" lon="5.59272222155">
		<tag k="name" v="Sundalseidet" />
		<tag k="natural" v="strait" />
		<tag k="ssr:stedsnr" v="512632" />
	</node>
	<node id="-58625" lat="62.0032694467" lon="5.49526388899">
		<tag k="name" v="Litlevatnet" />
		<tag k="natural" v="water" />
		<tag k="ssr:stedsnr" v="414524" />
		<tag k="water" v="lake" />
	</node>
	<node id="-58613" lat="62.1663805545" lon="5.80193611807">
		<tag k="name" v="Litlekvisla" />
		<tag k="ssr:stedsnr" v="511914" />
		<tag k="waterway" v="stream" />
	</node>
	<node id="-58609" lat="62.0208777777" lon="5.605041661">
		<tag k="name" v="Slivasselva" />
		<tag k="ssr:stedsnr" v="511639" />
		<tag k="waterway" v="stream" />
	</node>
	<node id="-58607" lat="62.1243194443" lon="5.51971943655">
		<tag k="name" v="Ytre Strandvatnet" />
		<tag k="natural" v="water" />
		<tag k="ssr:stedsnr" v="511702" />
	</node>
	<node id="-58595" lat="62.0596916685" lon="5.55185834097">
		<tag k="name" v="Sandvika" />
		<tag k="natural" v="bay" />
		<tag k="ssr:stedsnr" v="392657" />
	</node>
	<node id="-58589" lat="62.1344416632" lon="5.63963889734">
		<tag k="name" v="Sandneselva" />
		<tag k="ssr:stedsnr" v="391153" />
		<tag k="waterway" v="river" />
	</node>
	<node id="-58584" lat="62.1713722232" lon="5.76543333638">
		<tag k="name" v="Åsegrova" />
		<tag k="ssr:stedsnr" v="390919" />
		<tag k="waterway" v="stream" />
	</node>
	<node id="-58575" lat="62.0142999966" lon="5.67354723056">
		<tag k="name" v="Kringlevatnet" />
		<tag k="natural" v="water" />
		<tag k="ssr:stedsnr" v="375169" />
	</node>
	<node id="-58562" lat="61.9698388867" lon="5.57275833218">
		<tag k="name" v="Skarevatna" />
		<tag k="natural" v="water" />
		<tag k="ssr:stedsnr" v="373018" />
	</node>
	<node id="-58560" lat="62.0461361083" lon="5.81178610537">
		<tag k="name" v="Sandfjellelva" />
		<tag k="ssr:stedsnr" v="496898" />
		<tag k="waterway" v="stream" />
	</node>
	<node id="-58556" lat="62.0538944471" lon="5.82255555179">
		<tag k="name" v="Skorevatna" />
		<tag k="natural" v="water" />
		<tag k="ssr:stedsnr" v="496882" />
	</node>
	<node id="-58544" lat="62.1554916709" lon="5.62170278541">
		<tag k="name" v="Bjørlykkevatnet" />
		<tag k="natural" v="water" />
		<tag k="ssr:stedsnr" v="496477" />
	</node>
	<node id="-58543" lat="62.0119305529" lon="5.60206110821">
		<tag k="name" v="Gusdalselva" />
		<tag k="ssr:stedsnr" v="496236" />
		<tag k="waterway" v="river" />
	</node>
	<node id="-58541" lat="62.0179500002" lon="5.66054999531">
		<tag k="name" v="Trollvatnet" />
		<tag k="natural" v="water" />
		<tag k="ssr:stedsnr" v="496224" />
	</node>
	<node id="-58538" lat="62.1604583363" lon="5.81321943703">
		<tag k="alt_name" v="Vedeldselva;Videilselva" />
		<tag k="fixme" v="multiple name tags, choose one and add the other to alt_name" />
		<tag k="name" v="Sundneselva;Videildselva" />
		<tag k="old_name" v="Vindeilselva" />
		<tag k="ssr:stedsnr" v="496030" />
		<tag k="waterway" v="river" />
	</node>
	<node id="-58534" lat="62.1202055565" lon="5.48572222298">
		<tag k="alt_name" v="Mosevatnet" />
		<tag k="name" v="Måsevatnet" />
		<tag k="natural" v="water" />
		<tag k="ssr:stedsnr" v="495392" />
	</node>
	<node id="-58533" lat="62.1881555544" lon="5.49378611225">
		<tag k="name" v="Åramsvatnet" />
		<tag k="natural" v="water" />
		<tag k="ssr:stedsnr" v="495551" />
	</node>
	<node id="-58512" lat="62.0198194408" lon="5.66689444352">
		<tag k="name" v="Skinvatna" />
		<tag k="natural" v="water" />
		<tag k="ssr:stedsnr" v="330811" />
	</node>
	<node id="-58506" lat="62.1298527778" lon="5.48280277384">
		<tag k="name" v="Flåneset" />
		<tag k="natural" v="cape" />
		<tag k="ssr:stedsnr" v="329747" />
	</node>
	<node id="-58505" lat="62.1255027764" lon="5.58353611452">
		<tag k="name" v="Kroken" />
		<tag k="natural" v="bay" />
		<tag k="ssr:stedsnr" v="329342" />
	</node>
	<node id="-58496" lat="62.0840944427" lon="5.64555554622">
		<tag k="alt_name" v="Ringevatnet" />
		<tag k="name" v="Ringefjellsvatnet" />
		<tag k="natural" v="water" />
		<tag k="ssr:stedsnr" v="314364" />
	</node>
	<node id="-58492" lat="62.0214388927" lon="5.50615555793">
		<tag k="name" v="Børdalsvatnet" />
		<tag k="natural" v="water" />
		<tag k="ssr:stedsnr" v="314316" />
	</node>
	<node id="-58469" lat="62.0087444407" lon="5.53103334172">
		<tag k="name" v="Vassenden" />
		<tag k="natural" v="bay" />
		<tag k="ssr:stedsnr" v="270558" />
	</node>
	<node id="-58462" lat="62.0349500001" lon="5.6371805644">
		<tag k="name" v="Budalselva" />
		<tag k="ssr:stedsnr" v="269818" />
		<tag k="waterway" v="river" />
	</node>
	<node id="-58461" lat="61.9695583324" lon="5.57287222787">
		<tag k="name" v="Midtre Skarevatnet" />
		<tag k="natural" v="water" />
		<tag k="ssr:stedsnr" v="269722" />
		<tag k="water" v="lake" />
	</node>
	<node id="-58459" lat="61.9831944469" lon="5.50324444315">
		<tag k="name" v="Skitnevika" />
		<tag k="natural" v="bay" />
		<tag k="ssr:stedsnr" v="269276" />
	</node>
	<node id="-58457" lat="62.0400722198" lon="5.66145832642">
		<tag k="name" v="Støylsmannselva" />
		<tag k="ssr:stedsnr" v="268773" />
		<tag k="waterway" v="river" />
	</node>
	<node id="-58452" lat="62.064122222" lon="5.83520277547">
		<tag k="name" v="Bruelva" />
		<tag k="ssr:stedsnr" v="455246" />
		<tag k="waterway" v="river" />
	</node>
	<node id="-58451" lat="62.0550222262" lon="5.83381665719">
		<tag k="name" v="Brekkeelva" />
		<tag k="ssr:stedsnr" v="455241" />
		<tag k="waterway" v="river" />
	</node>
	<node id="-58449" lat="62.0492055525" lon="5.78259165985">
		<tag k="name" v="Blæjeosen" />
		<tag k="natural" v="bay" />
		<tag k="ssr:stedsnr" v="454951" />
	</node>
	<node id="-58444" lat="62.0565166671" lon="5.76055556264">
		<tag k="name" v="Fossen" />
		<tag k="natural" v="waterfall" />
		<tag k="ssr:stedsnr" v="454848" />
	</node>
	<node id="-58440" lat="62.0342472257" lon="5.68986666365">
		<tag k="name" v="Løken" />
		<tag k="natural" v="water" />
		<tag k="ssr:stedsnr" v="454460" />
		<tag k="water" v="lake" />
	</node>
	<node id="-58427" lat="61.9984638846" lon="5.54384443916">
		<tag k="name" v="Vassdalsvatnet" />
		<tag k="natural" v="water" />
		<tag k="ssr:stedsnr" v="452519" />
	</node>
	<node id="-58408" lat="61.9779138886" lon="5.5484444435">
		<tag k="name" v="Movassholmen" />
		<tag k="place" v="islet" />
		<tag k="ssr:stedsnr" v="451371" />
	</node>
	<node id="-58404" lat="62.1666194486" lon="5.72240554606">
		<tag k="name" v="Årdalselva" />
		<tag k="ssr:stedsnr" v="450729" />
		<tag k="waterway" v="stream" />
	</node>
	<node id="-58394" lat="61.991383335" lon="5.51135555274">
		<tag k="name" v="Kapalneset" />
		<tag k="natural" v="cape" />
		<tag k="ssr:stedsnr" v="210425" />
	</node>
	<node id="-58391" lat="62.1281222212" lon="5.64800556479">
		<tag k="name" v="Elvakrikane" />
		<tag k="ssr:stedsnr" v="210135" />
		<tag k="waterway" v="stream" />
	</node>
	<node id="-58384" lat="62.049227777" lon="5.76783333551">
		<tag k="name" v="Ljosåna" />
		<tag k="ssr:stedsnr" v="193916" />
		<tag k="waterway" v="river" />
	</node>
	<node id="-58383" lat="62.0533972214" lon="5.74222777605">
		<tag k="fixme" v="multiple name tags, choose one and add the other to alt_name" />
		<tag k="name" v="Refsdalsvatnet;Sætrevatnet" />
		<tag k="natural" v="water" />
		<tag k="ssr:stedsnr" v="193915" />
		<tag k="water" v="lake" />
	</node>
	<node id="-58376" lat="62.0290138922" lon="5.58547776842">
		<tag k="name" v="Kvernaskarvatna" />
		<tag k="natural" v="water" />
		<tag k="ssr:stedsnr" v="193304" />
		<tag k="water" v="lake" />
	</node>
	<node id="-58373" lat="62.1627555584" lon="5.77231665733">
		<tag k="name" v="Brynegrova" />
		<tag k="ssr:stedsnr" v="193034" />
		<tag k="waterway" v="stream" />
	</node>
	<node id="-58370" lat="62.176724996" lon="5.81187221522">
		<tag k="name" v="Kvielva" />
		<tag k="ssr:stedsnr" v="193119" />
		<tag k="waterway" v="stream" />
	</node>
	<node id="-58369" lat="62.1141805522" lon="5.45629721958">
		<tag k="name" v="Sighaugvatnet" />
		<tag k="natural" v="water" />
		<tag k="ssr:stedsnr" v="192416" />
	</node>
	<node id="-58368" lat="62.123380554" lon="5.59571110253">
		<tag k="name" v="Nøkkevatnet" />
		<tag k="natural" v="water" />
		<tag k="ssr:stedsnr" v="192410" />
	</node>
	<node id="-58366" lat="62.1351305562" lon="5.80648610475">
		<tag k="name" v="Nordneset" />
		<tag k="natural" v="cape" />
		<tag k="ssr:stedsnr" v="286201" />
	</node>
	<node id="-58362" lat="62.1644861079" lon="5.44894444012">
		<tag k="name" v="Holeelva" />
		<tag k="ssr:stedsnr" v="281986" />
		<tag k="waterway" v="stream" />
	</node>
	<node id="-58359" lat="62.1377277746" lon="5.61800278179">
		<tag k="name" v="Ristallane" />
		<tag k="ssr:stedsnr" v="281973" />
		<tag k="waterway" v="stream" />
	</node>
	<node id="-58355" lat="62.1364194438" lon="5.53513332471">
		<tag k="name" v="Synste-koppevatnet" />
		<tag k="natural" v="water" />
		<tag k="ssr:stedsnr" v="281954" />
		<tag k="water" v="lake" />
	</node>
	<node id="-58353" lat="62.1517500011" lon="5.5072527757">
		<tag k="name" v="St.Helena" />
		<tag k="place" v="island" />
		<tag k="ssr:stedsnr" v="281948" />
	</node>
	<node id="-58351" lat="62.1642305529" lon="5.6192555586">
		<tag k="alt_name" v="Bjørlykkeelva" />
		<tag k="name" v="Bjørlykkjeelva" />
		<tag k="ssr:stedsnr" v="281934" />
		<tag k="waterway" v="stream" />
	</node>
	<node id="-58348" lat="62.1867638909" lon="5.47006111983">
		<tag k="name" v="Nystøylelva" />
		<tag k="ssr:stedsnr" v="279903" />
		<tag k="waterway" v="stream" />
	</node>
	<node id="-58335" lat="62.0408388907" lon="5.68846945298">
		<tag k="name" v="Kattadalselva" />
		<tag k="ssr:stedsnr" v="150355" />
		<tag k="waterway" v="stream" />
	</node>
	<node id="-58322" lat="62.158691671" lon="5.71334165692">
		<tag k="name" v="Vassholeelva" />
		<tag k="ssr:stedsnr" v="146708" />
		<tag k="waterway" v="stream" />
	</node>
	<node id="-58316" lat="62.1836500038" lon="5.81238332846">
		<tag k="name" v="Lidastøylelva" />
		<tag k="ssr:stedsnr" v="272785" />
		<tag k="waterway" v="stream" />
	</node>
	<node id="-58313" lat="62.0442777749" lon="5.74765832766">
		<tag k="name" v="Buholmelva" />
		<tag k="ssr:stedsnr" v="272094" />
		<tag k="waterway" v="river" />
	</node>
	<node id="-58307" lat="62.0547777812" lon="5.54350832869">
		<tag k="name" v="Torvikosen" />
		<tag k="natural" v="bay" />
		<tag k="ssr:stedsnr" v="271647" />
	</node>
	<node id="-58290" lat="62.0134499985" lon="5.57668332856">
		<tag k="name" v="Sætreneset" />
		<tag k="natural" v="cape" />
		<tag k="ssr:stedsnr" v="269693" />
	</node>
	<node id="-58280" lat="62.1603333341" lon="5.71326388648">
		<tag k="name" v="Storetunga" />
		<tag k="natural" v="cape" />
		<tag k="ssr:stedsnr" v="268724" />
	</node>
	<node id="-58263" lat="62.1705833336" lon="5.49749444573">
		<tag k="name" v="Tjønna" />
		<tag k="natural" v="water" />
		<tag k="ssr:stedsnr" v="132507" />
	</node>
	<node id="-58260" lat="61.9984805527" lon="5.57211666523">
		<tag k="name" v="Grofsevatnet" />
		<tag k="natural" v="water" />
		<tag k="ssr:stedsnr" v="131052" />
	</node>
	<node id="-58258" lat="61.9881138922" lon="5.72190556257">
		<tag k="name" v="Svartevatnet" />
		<tag k="natural" v="water" />
		<tag k="ssr:stedsnr" v="131043" />
	</node>
	<node id="-58257" lat="61.9833694426" lon="5.67235554664">
		<tag k="alt_name" v="Tverrelva" />
		<tag k="name" v="Grynnevasselva" />
		<tag k="ssr:stedsnr" v="131027" />
		<tag k="waterway" v="stream" />
	</node>
	<node id="-58253" lat="62.1437166657" lon="5.56661110254">
		<tag k="name" v="Lomtjønna" />
		<tag k="natural" v="water" />
		<tag k="ssr:stedsnr" v="99971" />
	</node>
	<node id="-58252" lat="62.1458333291" lon="5.61973056107">
		<tag k="name" v="Buskarvatnet" />
		<tag k="natural" v="water" />
		<tag k="ssr:stedsnr" v="99970" />
	</node>
	<node id="-58247" lat="62.0249416703" lon="5.75778055543">
		<tag k="name" v="Ripsdalsvatnet" />
		<tag k="natural" v="water" />
		<tag k="ssr:stedsnr" v="254960" />
	</node>
	<node id="-58243" lat="62.043991663" lon="5.8333305606">
		<tag k="name" v="Kvanndalsvatnet" />
		<tag k="natural" v="water" />
		<tag k="ssr:stedsnr" v="253903" />
		<tag k="water" v="lake" />
	</node>
	<node id="-60290" lat="61.9791250036" lon="5.517658326">
		<tag k="name" v="Røyrneset" />
		<tag k="natural" v="cape" />
		<tag k="ssr:stedsnr" v="875251" />
	</node>
	<node id="-58241" lat="62.0909583332" lon="5.79335555002">
		<tag k="name" v="Bruelva" />
		<tag k="ssr:stedsnr" v="253882" />
		<tag k="waterway" v="stream" />
	</node>
	<node id="-58239" lat="62.1036944466" lon="5.82721665976">
		<tag k="name" v="Tryggesteinsvatnet" />
		<tag k="natural" v="water" />
		<tag k="ssr:stedsnr" v="253867" />
	</node>
	<node id="-58232" lat="62.1376222241" lon="5.8278111139">
		<tag k="name" v="Fossen" />
		<tag k="natural" v="waterfall" />
		<tag k="ssr:stedsnr" v="253819" />
	</node>
	<node id="-58231" lat="62.1338277772" lon="5.7203305487">
		<tag k="name" v="Fossane" />
		<tag k="natural" v="waterfall" />
		<tag k="ssr:stedsnr" v="253818" />
	</node>
	<node id="-58230" lat="61.9857277753" lon="5.46348334009">
		<tag k="alt_name" v="Skorgevatnet" />
		<tag k="name" v="Store Skorgevatnet" />
		<tag k="natural" v="water" />
		<tag k="ssr:stedsnr" v="253791" />
		<tag k="water" v="lake" />
	</node>
	<node id="-60275" lat="62.0589944429" lon="5.8415333331">
		<tag k="name" v="Sætrevatnet" />
		<tag k="natural" v="water" />
		<tag k="ssr:stedsnr" v="860949" />
	</node>
	<node id="-60274" lat="62.0529166698" lon="5.77153055364">
		<tag k="name" v="Helgåna" />
		<tag k="ssr:stedsnr" v="860939" />
		<tag k="waterway" v="stream" />
	</node>
	<node id="-58225" lat="62.1018138868" lon="5.60192499206">
		<tag k="fixme" v="multiple name tags, choose one and add the other to alt_name" />
		<tag k="name" v="Fiskåelva;Storelva" />
		<tag k="ssr:stedsnr" v="253476" />
		<tag k="waterway" v="stream" />
	</node>
	<node id="-60271" lat="62.1507055602" lon="5.6016472306">
		<tag k="alt_name" v="Koftetjønna" />
		<tag k="name" v="Litlekoftvatnet" />
		<tag k="natural" v="water" />
		<tag k="ssr:stedsnr" v="860499" />
	</node>
	<node id="-60270" lat="62.1582972263" lon="5.54930833453">
		<tag k="name" v="Brandalselva" />
		<tag k="ssr:stedsnr" v="860497" />
		<tag k="waterway" v="river" />
	</node>
	<node id="-60266" lat="62.0761999977" lon="5.78437499614">
		<tag k="name" v="Løkelva" />
		<tag k="ssr:stedsnr" v="860849" />
		<tag k="waterway" v="stream" />
	</node>
	<node id="-60261" lat="62.0234250032" lon="5.5627333378">
		<tag k="name" v="Røraneselva" />
		<tag k="ssr:stedsnr" v="860344" />
		<tag k="waterway" v="stream" />
	</node>
	<node id="-58209" lat="62.1836972233" lon="5.82017222143">
		<tag k="fixme" v="multiple name tags, choose one and add the other to alt_name" />
		<tag k="name" v="Skålavadelva;Skålvadelva" />
		<tag k="ssr:stedsnr" v="253119" />
		<tag k="waterway" v="stream" />
	</node>
	<node id="-60249" lat="62.1612166703" lon="5.59048611912">
		<tag k="name" v="Nyefonna" />
		<tag k="ssr:stedsnr" v="827991" />
		<tag k="waterway" v="stream" />
	</node>
	<node id="-58190" lat="62.0551611096" lon="5.5694833372">
		<tag k="name" v="Bjørdalsvatnet" />
		<tag k="natural" v="water" />
		<tag k="ssr:stedsnr" v="72329" />
	</node>
	<node id="-60236" lat="62.1538583316" lon="5.55279444849">
		<tag k="name" v="Storelva" />
		<tag k="ssr:stedsnr" v="826037" />
		<tag k="waterway" v="stream" />
	</node>
	<node id="-58186" lat="62.1665555537" lon="5.7523999908">
		<tag k="alt_name" v="Årskagelva" />
		<tag k="name" v="Årskogelva" />
		<tag k="ssr:stedsnr" v="72004" />
		<tag k="waterway" v="stream" />
	</node>
	<node id="-60231" lat="62.1420777741" lon="5.58021666488">
		<tag k="name" v="Måsdalsvatnet" />
		<tag k="natural" v="water" />
		<tag k="ssr:stedsnr" v="825851" />
		<tag k="water" v="lake" />
	</node>
	<node id="-60230" lat="62.1401888926" lon="5.4250111189">
		<tag k="name" v="Krokevikelva" />
		<tag k="ssr:stedsnr" v="825849" />
		<tag k="waterway" v="river" />
	</node>
	<node id="-58181" lat="62.1146500025" lon="5.51763610661">
		<tag k="name" v="Strandaelva" />
		<tag k="ssr:stedsnr" v="71422" />
		<tag k="waterway" v="stream" />
	</node>
	<node id="-60227" lat="62.0686361143" lon="5.84048889428">
		<tag k="name" v="Holelva" />
		<tag k="ssr:stedsnr" v="819291" />
		<tag k="waterway" v="stream" />
	</node>
	<node id="-60226" lat="62.0517416629" lon="5.82971110684">
		<tag k="name" v="Lisse Kvandalsvatnet" />
		<tag k="natural" v="water" />
		<tag k="ssr:stedsnr" v="819286" />
	</node>
	<node id="-58174" lat="61.9710000012" lon="5.60288889667">
		<tag k="alt_name" v="Bergevatnet" />
		<tag k="name" v="Maridalsvatnet" />
		<tag k="natural" v="water" />
		<tag k="ssr:stedsnr" v="70021" />
	</node>
	<node id="-58172" lat="61.9774083322" lon="5.69792500209">
		<tag k="name" v="Bjørnalidvatnet" />
>>>>>>> e1d4bc35ff8a6074a6f2e91616a996b547c36f15
		<tag k="natural" v="water" />
		<tag k="ssr:stedsnr" v="70018" />
	</node>
<<<<<<< HEAD
	<node lat="61.98417499835789" lon="5.5057638830284406" id="-3556">
		<tag k="name" v="Bekslevatnet" />
		<tag k="natural" v="water" />
		<tag k="ssr:stedsnr" v="192060" />
		<tag k="water" v="lake" />
	</node>
	<node lat="62.036497218556754" lon="5.602108343201893" id="-3557">
		<tag k="name" v="Merkingsvatnet" />
		<tag k="natural" v="water" />
		<tag k="ssr:stedsnr" v="193246" />
	</node>
	<node lat="62.1233805539625" lon="5.595711102534281" id="-3559">
		<tag k="name" v="Nøkkevatnet" />
		<tag k="natural" v="water" />
		<tag k="ssr:stedsnr" v="192410" />
	</node>
	<node lat="62.114180552200544" lon="5.456297219578806" id="-3560">
		<tag k="name" v="Sighaugvatnet" />
		<tag k="natural" v="water" />
		<tag k="ssr:stedsnr" v="192416" />
	</node>
	<node lat="62.14474166895989" lon="5.741777786281587" id="-3566">
		<tag k="fixme" v="multiple name tags, choose one and add the other to alt_name" />
		<tag k="name" v="Trollkoppevatnet;Koppevatnet" />
		<tag k="natural" v="water" />
		<tag k="ssr:stedsnr" v="192813" />
	</node>
	<node lat="62.16275555844747" lon="5.772316657328037" id="-3571">
		<tag k="name" v="Brynegrova" />
		<tag k="ssr:stedsnr" v="193034" />
		<tag k="waterway" v="stream" />
	</node>
	<node lat="62.176724996017754" lon="5.811872215218936" id="-3574">
		<tag k="name" v="Kvielva" />
		<tag k="ssr:stedsnr" v="193119" />
		<tag k="waterway" v="stream" />
	</node>
	<node lat="62.0249638909124" lon="5.626480553826238" id="-3575">
		<tag k="name" v="Skjevatnet" />
		<tag k="natural" v="water" />
		<tag k="ssr:stedsnr" v="193196" />
	</node>
	<node lat="62.029013892228384" lon="5.585477768423089" id="-3581">
		<tag k="name" v="Kvernaskarvatna" />
		<tag k="natural" v="water" />
		<tag k="ssr:stedsnr" v="193304" />
		<tag k="water" v="lake" />
	</node>
	<node lat="62.05579166521961" lon="5.547222215796219" id="-3590">
		<tag k="name" v="Vikevatnet" />
		<tag k="natural" v="water" />
		<tag k="ssr:stedsnr" v="193362" />
	</node>
	<node lat="62.05339722141043" lon="5.742227776050927" id="-3596">
		<tag k="fixme" v="multiple name tags, choose one and add the other to alt_name" />
		<tag k="name" v="Sætrevatnet;Røfsdalsvatnet" />
		<tag k="natural" v="water" />
		<tag k="ssr:stedsnr" v="193915" />
		<tag k="water" v="lake" />
	</node>
	<node lat="62.049227777029905" lon="5.7678333355135845" id="-3597">
		<tag k="name" v="Ljosåna" />
		<tag k="ssr:stedsnr" v="193916" />
		<tag k="waterway" v="river" />
	</node>
	<node lat="62.03108610862326" lon="5.575144435621597" id="-3604">
		<tag k="name" v="Timbretjønna" />
		<tag k="natural" v="water" />
		<tag k="ssr:stedsnr" v="207972" />
	</node>
	<node lat="62.12317777524421" lon="5.656733328610096" id="-3606">
		<tag k="name" v="Katlelva" />
		<tag k="ssr:stedsnr" v="208163" />
		<tag k="waterway" v="stream" />
	</node>
	<node lat="62.10886111409104" lon="5.4933694374610935" id="-3615">
		<tag k="name" v="Myklebustelva" />
		<tag k="ssr:stedsnr" v="208720" />
		<tag k="waterway" v="stream" />
	</node>
	<node lat="62.12685833768778" lon="5.710461114551115" id="-3621">
		<tag k="name" v="Skårelva" />
		<tag k="ssr:stedsnr" v="208800" />
		<tag k="waterway" v="river" />
	</node>
	<node lat="62.0565999984039" lon="5.670075009147362" id="-3623">
		<tag k="name" v="Støylsmannselva" />
		<tag k="ssr:stedsnr" v="208918" />
		<tag k="waterway" v="river" />
	</node>
	<node lat="62.11380555858409" lon="5.603333329196083" id="-3627">
		<tag k="name" v="Tunga" />
		<tag k="natural" v="cape" />
		<tag k="ssr:stedsnr" v="209252" />
	</node>
	<node lat="62.087444446647076" lon="5.823875003385503" id="-3652">
		<tag k="name" v="Hardalselva" />
		<tag k="ssr:stedsnr" v="212394" />
		<tag k="waterway" v="river" />
	</node>
	<node lat="62.18560833487776" lon="5.82534721318632" id="-3654">
		<tag k="name" v="Langhauggrova" />
		<tag k="ssr:stedsnr" v="212766" />
		<tag k="waterway" v="stream" />
	</node>
	<node lat="62.13891111011551" lon="5.513397221959186" id="-3662">
		<tag k="name" v="Fosselva" />
		<tag k="ssr:stedsnr" v="220940" />
		<tag k="waterway" v="river" />
	</node>
	<node lat="62.164230552940154" lon="5.619255558595221" id="-3676">
		<tag k="alt_name" v="Bjørlykkeelva" />
		<tag k="name" v="Bjørlykkjeelva" />
		<tag k="ssr:stedsnr" v="281934" />
		<tag k="waterway" v="stream" />
	</node>
	<node lat="62.15175000114215" lon="5.507252775697192" id="-3678">
		<tag k="name" v="St.Helena" />
		<tag k="place" v="island" />
		<tag k="ssr:stedsnr" v="281948" />
	</node>
	<node lat="62.13641944384941" lon="5.535133324705985" id="-3680">
		<tag k="name" v="Synste-koppevatnet" />
		<tag k="natural" v="water" />
		<tag k="ssr:stedsnr" v="281954" />
		<tag k="water" v="lake" />
	</node>
	<node lat="62.13513055621574" lon="5.806486104754736" id="-3685">
		<tag k="name" v="Nordneset" />
		<tag k="natural" v="cape" />
		<tag k="ssr:stedsnr" v="286201" />
	</node>
	<node lat="62.02884166529705" lon="5.618238895253244" id="-3690">
		<tag k="name" v="Litlevatnet" />
		<tag k="natural" v="water" />
		<tag k="ssr:stedsnr" v="314333" />
	</node>
	<node lat="62.033297222574774" lon="5.593741666671907" id="-3691">
		<tag k="alt_name" v="Nykavatnet" />
		<tag k="name" v="Nykvatnet" />
		<tag k="natural" v="water" />
		<tag k="ssr:stedsnr" v="314334" />
	</node>
	<node lat="62.1307666652795" lon="5.614458336561015" id="-3694">
		<tag k="fixme" v="multiple name tags, choose one and add the other to alt_name" />
		<tag k="name" v="Sandnesvatnet;Gullidvatnet" />
		<tag k="natural" v="water" />
		<tag k="ssr:stedsnr" v="314431" />
		<tag k="water" v="lake" />
	</node>
	<node lat="62.12491944761912" lon="5.660083339137732" id="-3707">
		<tag k="name" v="Hjelleelva" />
		<tag k="ssr:stedsnr" v="329173" />
		<tag k="waterway" v="stream" />
	</node>
	<node lat="62.12550277635369" lon="5.5835361145160505" id="-3709">
		<tag k="name" v="Kroken" />
		<tag k="natural" v="bay" />
		<tag k="ssr:stedsnr" v="329342" />
	</node>
	<node lat="62.12985277778161" lon="5.48280277383953" id="-3713">
		<tag k="name" v="Flåneset" />
		<tag k="natural" v="cape" />
		<tag k="ssr:stedsnr" v="329747" />
	</node>
	<node lat="62.143272222597496" lon="5.711636112604228" id="-3716">
		<tag k="name" v="Høgstakkgylet" />
		<tag k="ssr:stedsnr" v="329968" />
		<tag k="waterway" v="stream" />
	</node>
	<node lat="62.04973611092896" lon="5.828561112078563" id="-3733">
		<tag k="name" v="Båtvika" />
		<tag k="natural" v="bay" />
		<tag k="ssr:stedsnr" v="333229" />
	</node>
	<node lat="62.09126110967582" lon="5.796299999453096" id="-3740">
		<tag k="name" v="Årdalselva" />
		<tag k="ssr:stedsnr" v="333482" />
		<tag k="waterway" v="stream" />
	</node>
	<node lat="62.16228889022843" lon="5.464377783038828" id="-3748">
		<tag k="name" v="Tverrelva" />
		<tag k="ssr:stedsnr" v="340884" />
		<tag k="waterway" v="stream" />
	</node>
	<node lat="62.15228610803677" lon="5.60985277413735" id="-3751">
		<tag k="name" v="Koftetjønna" />
		<tag k="natural" v="water" />
		<tag k="ssr:stedsnr" v="341971" />
	</node>
	<node lat="62.11777777875149" lon="5.818913882479555" id="-3758">
		<tag k="alt_name" v="Storåvatnet" />
		<tag k="name" v="Vikevatnet" />
		<tag k="natural" v="water" />
		<tag k="ssr:stedsnr" v="374782" />
	</node>
	<node lat="62.041397224037176" lon="5.5673805633708" id="-3760">
		<tag k="name" v="Spelvatna" />
		<tag k="natural" v="water" />
		<tag k="ssr:stedsnr" v="374285" />
	</node>
	<node lat="62.09868333700473" lon="5.787233329502948" id="-3769">
		<tag k="alt_name" v="Kvisla" />
		<tag k="name" v="Kvitla" />
		<tag k="ssr:stedsnr" v="374882" />
		<tag k="waterway" v="stream" />
	</node>
	<node lat="62.01429999659002" lon="5.6735472305601515" id="-3776">
		<tag k="name" v="Kringlevatnet" />
		<tag k="natural" v="water" />
		<tag k="ssr:stedsnr" v="375169" />
	</node>
	<node lat="62.121352778775794" lon="5.459261106758266" id="-3785">
		<tag k="name" v="Djupe kappen" />
		<tag k="natural" v="bay" />
		<tag k="ssr:stedsnr" v="389784" />
	</node>
	<node lat="62.09887499686532" lon="5.794722231243372" id="-3789">
		<tag k="name" v="Stigrova" />
		<tag k="ssr:stedsnr" v="390144" />
		<tag k="waterway" v="stream" />
	</node>
	<node lat="62.171372223222924" lon="5.7654333363758035" id="-3800">
		<tag k="name" v="Åsegrova" />
		<tag k="ssr:stedsnr" v="390919" />
		<tag k="waterway" v="stream" />
	</node>
	<node lat="62.13444166322595" lon="5.639638897340279" id="-3804">
		<tag k="name" v="Sandneselva" />
		<tag k="ssr:stedsnr" v="391153" />
		<tag k="waterway" v="river" />
	</node>
	<node lat="61.998127775714636" lon="5.514844435815967" id="-3809">
		<tag k="name" v="Gunnarskvia" />
		<tag k="natural" v="bay" />
		<tag k="ssr:stedsnr" v="391421" />
	</node>
	<node lat="61.99638333287855" lon="5.52100000204618" id="-3810">
		<tag k="name" v="Sandvika" />
		<tag k="natural" v="bay" />
		<tag k="ssr:stedsnr" v="391424" />
	</node>
	<node lat="62.05969166849151" lon="5.551858340974887" id="-3814">
		<tag k="name" v="Sandvika" />
		<tag k="natural" v="bay" />
		<tag k="ssr:stedsnr" v="392657" />
	</node>
	<node lat="62.0566722226978" lon="5.844169445804206" id="-3822">
		<tag k="name" v="Eidet" />
		<tag k="place" v="locality" />
		<tag k="ssr:stedsnr" v="394248" />
	</node>
	<node lat="62.166108329925976" lon="5.495988886446026" id="-3831">
		<tag k="name" v="Sætre-elva" />
		<tag k="ssr:stedsnr" v="401849" />
		<tag k="waterway" v="stream" />
	</node>
	<node lat="62.1383138864092" lon="5.560872229073735" id="-3836">
		<tag k="name" v="Langeneset" />
		<tag k="natural" v="cape" />
		<tag k="ssr:stedsnr" v="402974" />
	</node>
	<node lat="62.16264999928649" lon="5.599549998601772" id="-3839">
		<tag k="name" v="Seljegylet" />
		<tag k="ssr:stedsnr" v="402933" />
		<tag k="waterway" v="stream" />
	</node>
	<node lat="62.154438891782604" lon="5.513297229770855" id="-3841">
		<tag k="name" v="Sandvikelva" />
		<tag k="ssr:stedsnr" v="402939" />
		<tag k="waterway" v="river" />
	</node>
	<node lat="62.14406111007155" lon="5.630005564495923" id="-3842">
		<tag k="alt_name" v="Lidaelva" />
		<tag k="name" v="Buskarelva" />
		<tag k="ssr:stedsnr" v="402972" />
		<tag k="waterway" v="river" />
	</node>
	<node lat="61.97422221912512" lon="5.649641662309294" id="-3845">
		<tag k="name" v="Hjelleskarvatnet" />
		<tag k="natural" v="water" />
		<tag k="ssr:stedsnr" v="434013" />
	</node>
	<node lat="61.993675004173156" lon="5.483041659350255" id="-3847">
		<tag k="name" v="Sollidvatnet" />
		<tag k="natural" v="water" />
		<tag k="ssr:stedsnr" v="435100" />
	</node>
	<node lat="62.11636944364339" lon="5.497083338392743" id="-3854">
		<tag k="name" v="Deplevatnet" />
		<tag k="natural" v="water" />
		<tag k="ssr:stedsnr" v="435445" />
	</node>
	<node lat="62.05681389022027" lon="5.847655556206894" id="-3858">
		<tag k="alt_name" v="Sæv-vatnet" />
		<tag k="name" v="Sevvatnet" />
		<tag k="natural" v="water" />
		<tag k="ssr:stedsnr" v="435900" />
	</node>
	<node lat="62.14953611066348" lon="5.759544446885962" id="-3860">
		<tag k="name" v="Koppelva" />
		<tag k="ssr:stedsnr" v="436046" />
		<tag k="waterway" v="stream" />
	</node>
	<node lat="62.153558334318255" lon="5.737700006269984" id="-3861">
		<tag k="name" v="Rovdevatnet" />
		<tag k="natural" v="water" />
		<tag k="ssr:stedsnr" v="436053" />
	</node>
	<node lat="62.01597499884065" lon="5.631433335693752" id="-3863">
		<tag k="fixme" v="multiple name tags, choose one and add the other to alt_name" />
		<tag k="name" v="Kvennhuselva;Sætreelva" />
		<tag k="ssr:stedsnr" v="436201" />
		<tag k="waterway" v="stream" />
	</node>
	<node lat="62.05991389308817" lon="5.653736104263411" id="-3867">
		<tag k="name" v="Vidnesvatnet" />
		<tag k="natural" v="water" />
		<tag k="ssr:stedsnr" v="436339" />
	</node>
	<node lat="62.04066944887772" lon="5.806161113508455" id="-3872">
=======
	<node id="-58171" lat="61.9934027743" lon="5.49140000691">
		<tag k="name" v="Krokevatna" />
		<tag k="natural" v="water" />
		<tag k="ssr:stedsnr" v="55860" />
		<tag k="water" v="lake" />
	</node>
	<node id="-58161" lat="62.1668555521" lon="5.45333889528">
		<tag k="name" v="Bergsnevelva" />
		<tag k="ssr:stedsnr" v="37904" />
		<tag k="waterway" v="stream" />
	</node>
	<node id="-58155" lat="62.0694361092" lon="5.71597500715">
		<tag k="name" v="Vika" />
		<tag k="natural" v="bay" />
		<tag k="ssr:stedsnr" v="29159" />
	</node>
	<node id="-60195" lat="62.1583055542" lon="5.76389721554">
		<tag k="name" v="Tunga" />
		<tag k="natural" v="cape" />
		<tag k="ssr:stedsnr" v="815546" />
	</node>
	<node id="-60194" lat="62.1075194487" lon="5.54989722338">
		<tag k="name" v="Gringjølselva" />
		<tag k="ssr:stedsnr" v="815648" />
		<tag k="waterway" v="stream" />
	</node>
	<node id="-60192" lat="61.9785972218" lon="5.511183326">
		<tag k="name" v="Langeneset" />
		<tag k="natural" v="cape" />
		<tag k="ssr:stedsnr" v="815247" />
	</node>
	<node id="-58143" lat="62.0728277759" lon="5.85647221553">
		<tag k="alt_name" v="Tennevatnet" />
		<tag k="name" v="Ternevatnet" />
		<tag k="natural" v="water" />
		<tag k="ssr:stedsnr" v="11920" />
		<tag k="water" v="lake" />
	</node>
	<node id="-60190" lat="61.9815999994" lon="5.45200278704">
		<tag k="name" v="Løkane" />
		<tag k="natural" v="bay" />
		<tag k="ssr:stedsnr" v="815278" />
	</node>
	<node id="-58140" lat="62.0613666695" lon="5.6792194394">
		<tag k="name" v="Støylsmannsvatnet" />
		<tag k="natural" v="water" />
		<tag k="ssr:stedsnr" v="11346" />
	</node>
	<node id="-60186" lat="62.1740972222" lon="5.80430833789">
		<tag k="name" v="Heggegrova" />
		<tag k="ssr:stedsnr" v="814928" />
		<tag k="waterway" v="stream" />
	</node>
	<node id="-58136" lat="62.1642999965" lon="5.73446667027">
		<tag k="fixme" v="multiple name tags, choose one and add the other to alt_name" />
		<tag k="name" v="Haugeelva;Ormegrova" />
		<tag k="ssr:stedsnr" v="11010" />
		<tag k="waterway" v="stream" />
	</node>
	<node id="-60183" lat="62.0279305558" lon="5.58350278278">
		<tag k="name" v="Store Kvennavatnet" />
		<tag k="natural" v="water" />
		<tag k="ssr:stedsnr" v="814983" />
	</node>
	<node id="-58134" lat="62.1104250043" lon="5.74688889645">
		<tag k="alt_name" v="Gryddelva" />
		<tag k="name" v="Grytelva" />
		<tag k="ssr:stedsnr" v="10851" />
		<tag k="waterway" v="stream" />
	</node>
	<node id="-58126" lat="62.1389111101" lon="5.51339722196">
		<tag k="name" v="Fosselva" />
		<tag k="ssr:stedsnr" v="220940" />
		<tag k="waterway" v="river" />
	</node>
	<node id="-58123" lat="62.1564444478" lon="5.52663611782">
		<tag k="name" v="Kjerringhylen" />
		<tag k="place" v="locality" />
		<tag k="ssr:stedsnr" v="220918" />
	</node>
	<node id="-58122" lat="62.1608527776" lon="5.62102222223">
		<tag k="name" v="Bjørlykkeelva" />
		<tag k="ssr:stedsnr" v="220908" />
		<tag k="waterway" v="stream" />
	</node>
	<node id="-60163" lat="62.04813056" lon="5.57259444444">
		<tag k="name" v="Juldalsvatnet" />
		<tag k="natural" v="water" />
		<tag k="ssr:stedsnr" v="799299" />
	</node>
	<node id="-60161" lat="62.0414083372" lon="5.60599722627">
		<tag k="name" v="Merkingselva" />
		<tag k="ssr:stedsnr" v="799276" />
		<tag k="waterway" v="stream" />
	</node>
	<node id="-60131" lat="62.1838472224" lon="5.82895277931">
		<tag k="name" v="Sneldelidgrova" />
		<tag k="ssr:stedsnr" v="758813" />
		<tag k="waterway" v="stream" />
	</node>
	<node id="-60130" lat="62.1830583292" lon="5.80805000902">
		<tag k="name" v="Kvilaforelva" />
		<tag k="ssr:stedsnr" v="758811" />
		<tag k="waterway" v="stream" />
	</node>
	<node id="-60127" lat="62.0136972229" lon="5.71394445155">
		<tag k="name" v="Tverelva" />
		<tag k="ssr:stedsnr" v="758633" />
		<tag k="waterway" v="stream" />
	</node>
	<node id="-60119" lat="62.080519446" lon="5.7284611046">
		<tag k="name" v="Oselva" />
		<tag k="ssr:stedsnr" v="757978" />
		<tag k="waterway" v="river" />
	</node>
	<node id="-60114" lat="62.0386638888" lon="5.69732499421">
		<tag k="name" v="Storefossen" />
		<tag k="natural" v="waterfall" />
		<tag k="ssr:stedsnr" v="757327" />
	</node>
	<node id="-60112" lat="62.0698333319" lon="5.71685000065">
		<tag k="name" v="Breidskredneset" />
		<tag k="natural" v="cape" />
		<tag k="ssr:stedsnr" v="757145" />
	</node>
	<node id="-60108" lat="62.04033611" lon="5.55470277372">
		<tag k="name" v="Lomvatnet" />
		<tag k="natural" v="water" />
		<tag k="ssr:stedsnr" v="756409" />
	</node>
	<node id="-60107" lat="62.0361472196" lon="5.54267500292">
		<tag k="name" v="Stompegylelva" />
		<tag k="ssr:stedsnr" v="756399" />
		<tag k="waterway" v="stream" />
	</node>
	<node id="-60106" lat="61.9963305524" lon="5.51850000371">
		<tag k="name" v="Smørholmen" />
		<tag k="place" v="islet" />
		<tag k="ssr:stedsnr" v="756395" />
	</node>
	<node id="-60105" lat="62.10901667" lon="5.67209166">
		<tag k="name" v="Eidsåelva" />
		<tag k="ssr:stedsnr" v="756149" />
		<tag k="waterway" v="stream" />
	</node>
	<node id="-60101" lat="62.0936222229" lon="5.71110834036">
		<tag k="name" v="Bytegylet" />
		<tag k="ssr:stedsnr" v="755877" />
		<tag k="waterway" v="stream" />
	</node>
	<node id="-60099" lat="62.1638361108" lon="5.7455194383">
		<tag k="name" v="Ivassgrova" />
		<tag k="ssr:stedsnr" v="755604" />
		<tag k="waterway" v="stream" />
	</node>
	<node id="-60096" lat="62.0962722244" lon="5.66788611157">
		<tag k="name" v="Lidaelva" />
		<tag k="ssr:stedsnr" v="755199" />
		<tag k="waterway" v="stream" />
	</node>
	<node id="-60095" lat="62.0885916701" lon="5.64336943746">
		<tag k="name" v="Fossane" />
		<tag k="natural" v="waterfall" />
		<tag k="ssr:stedsnr" v="755080" />
	</node>
	<node id="-60091" lat="62.0304305567" lon="5.64135000464">
		<tag k="name" v="Skoraelva" />
		<tag k="ssr:stedsnr" v="754800" />
		<tag k="waterway" v="stream" />
	</node>
	<node id="-60089" lat="62.0448027801" lon="5.66437776933">
		<tag k="name" v="Skinnhylen" />
		<tag k="place" v="locality" />
		<tag k="ssr:stedsnr" v="754785" />
	</node>
	<node id="-60079" lat="61.9763222255" lon="5.56711945284">
		<tag k="name" v="Middagsvatnet" />
		<tag k="natural" v="water" />
		<tag k="ssr:stedsnr" v="754691" />
		<tag k="water" v="lake" />
	</node>
	<node id="-60077" lat="62.0195972191" lon="5.64375277957">
		<tag k="name" v="Demminga" />
		<tag k="ssr:stedsnr" v="754677" />
		<tag k="waterway" v="dam" />
	</node>
	<node id="-60075" lat="62.1355861078" lon="5.53478055812">
		<tag k="name" v="Synste Koppevatnet" />
		<tag k="natural" v="water" />
		<tag k="ssr:stedsnr" v="754638" />
		<tag k="water" v="lake" />
	</node>
	<node id="-60073" lat="61.9778000003" lon="5.51613888505">
		<tag k="name" v="Juvassholmen" />
		<tag k="place" v="islet" />
		<tag k="ssr:stedsnr" v="754302" />
	</node>
	<node id="-60188" lat="62.1110305564" lon="5.76634444375">
		<tag k="name" v="Heimste tverrelva" />
		<tag k="ssr:stedsnr" v="815138" />
		<tag k="waterway" v="stream" />
	</node>
	<node id="-60068" lat="62.1130861099" lon="5.76657499445">
		<tag k="name" v="Fremste tverrelva" />
		<tag k="ssr:stedsnr" v="754161" />
		<tag k="waterway" v="stream" />
	</node>
	<node id="-60067" lat="62.0438333353" lon="5.6173916738">
		<tag k="name" v="Syltehornelva" />
		<tag k="ssr:stedsnr" v="753732" />
		<tag k="waterway" v="stream" />
	</node>
	<node id="-60057" lat="62.1520750002" lon="5.57083888964">
		<tag k="name" v="Lomtjørna" />
		<tag k="natural" v="water" />
		<tag k="ssr:stedsnr" v="739493" />
	</node>
	<node id="-60051" lat="62.0145555577" lon="5.56914167545">
		<tag k="name" v="Gusdalsvatnet" />
		<tag k="natural" v="water" />
		<tag k="ssr:stedsnr" v="739207" />
		<tag k="water" v="lake" />
	</node>
	<node id="-60048" lat="62.1650388905" lon="5.74065277635">
		<tag k="name" v="Bøelva" />
		<tag k="ssr:stedsnr" v="739008" />
		<tag k="waterway" v="stream" />
	</node>
	<node id="-60047" lat="62.100774996" lon="5.85204443852">
		<tag k="name" v="Eggjavatnet" />
		<tag k="natural" v="water" />
		<tag k="ssr:stedsnr" v="738889" />
	</node>
	<node id="-60042" lat="62.1330194483" lon="5.51229999628">
		<tag k="fixme" v="multiple name tags, choose one and add the other to alt_name" />
		<tag k="name" v="Mørkevatnet;Trollevatnet" />
		<tag k="natural" v="water" />
		<tag k="ssr:stedsnr" v="738462" />
		<tag k="water" v="lake" />
	</node>
	<node id="-60041" lat="62.1289777797" lon="5.49355277202">
		<tag k="name" v="Olalidvatnet" />
		<tag k="natural" v="water" />
		<tag k="ssr:stedsnr" v="738404" />
		<tag k="water" v="lake" />
	</node>
	<node id="-60036" lat="61.9916555541" lon="5.67508055807">
		<tag k="name" v="Storelva" />
		<tag k="ssr:stedsnr" v="738036" />
		<tag k="waterway" v="stream" />
	</node>
	<node id="-60035" lat="61.9795250022" lon="5.66782776893">
		<tag k="name" v="Grynnevatnet" />
		<tag k="natural" v="water" />
		<tag k="ssr:stedsnr" v="738023" />
	</node>
	<node id="-60034" lat="62.1300194428" lon="5.58692500872">
		<tag k="fixme" v="multiple name tags, choose one and add the other to alt_name" />
		<tag k="name" v="Kvanndalsvatnet;Litlevatnet" />
		<tag k="natural" v="water" />
		<tag k="ssr:stedsnr" v="737381" />
		<tag k="water" v="lake" />
	</node>
	<node id="-60018" lat="62.1606916664" lon="5.54240555716">
		<tag k="name" v="Sandvikelva" />
		<tag k="ssr:stedsnr" v="643942" />
		<tag k="waterway" v="river" />
	</node>
	<node id="-60014" lat="62.0580861138" lon="5.79574166024">
		<tag k="name" v="Skumstødvatna" />
		<tag k="natural" v="water" />
		<tag k="ssr:stedsnr" v="636833" />
	</node>
	<node id="-60005" lat="62.0365805551" lon="5.68632221813">
		<tag k="name" v="Kvernhuselva" />
		<tag k="ssr:stedsnr" v="636337" />
		<tag k="waterway" v="stream" />
	</node>
	<node id="-60002" lat="62.0585944472" lon="5.85155556148">
		<tag k="name" v="Lindalselva" />
		<tag k="ssr:stedsnr" v="636251" />
		<tag k="waterway" v="stream" />
	</node>
	<node id="-59997" lat="62.077186108" lon="5.77481944002">
		<tag k="name" v="Koppedalsvatnet" />
		<tag k="natural" v="water" />
		<tag k="ssr:stedsnr" v="635493" />
	</node>
	<node id="-59993" lat="62.0216138912" lon="5.52909444124">
		<tag k="name" v="Åndeligrova" />
		<tag k="ssr:stedsnr" v="634600" />
		<tag k="waterway" v="stream" />
	</node>
	<node id="-60174" lat="62.1553333346" lon="5.5203333353">
		<tag k="name" v="Sandvikelva" />
		<tag k="ssr:stedsnr" v="800148" />
		<tag k="waterway" v="stream" />
	</node>
	<node id="-59984" lat="62.0093027779" lon="5.6516805576">
		<tag k="name" v="Sætrehaugen" />
		<tag k="natural" v="strait" />
		<tag k="ssr:stedsnr" v="633784" />
	</node>
	<node id="-59980" lat="61.963905556" lon="5.56794722221">
		<tag k="name" v="Synste Skarevatnet" />
		<tag k="natural" v="water" />
		<tag k="ssr:stedsnr" v="633733" />
		<tag k="water" v="lake" />
	</node>
	<node id="-59970" lat="62.1761138876" lon="5.46838332617">
		<tag k="name" v="Nystøylvatnet" />
		<tag k="natural" v="water" />
		<tag k="ssr:stedsnr" v="617543" />
		<tag k="water" v="lake" />
	</node>
	<node id="-59965" lat="62.1211083356" lon="5.4504333298">
		<tag k="name" v="Brudevikvatnet" />
		<tag k="natural" v="water" />
		<tag k="ssr:stedsnr" v="617493" />
		<tag k="water" v="lake" />
	</node>
	<node id="-59951" lat="62.0033777751" lon="5.49702499218">
		<tag k="fixme" v="multiple name tags, choose one and add the other to alt_name" />
		<tag k="name" v="Litle Skorgevatnet;Storevatnet" />
		<tag k="natural" v="water" />
		<tag k="ssr:stedsnr" v="617237" />
	</node>
	<node id="-59950" lat="62.0218444427" lon="5.64553055716">
		<tag k="name" v="Sætrevatnet" />
		<tag k="natural" v="water" />
		<tag k="ssr:stedsnr" v="617230" />
	</node>
	<node id="-59946" lat="61.9845111123" lon="5.53525555831">
		<tag k="name" v="Svartevatnet" />
		<tag k="natural" v="water" />
		<tag k="ssr:stedsnr" v="617072" />
	</node>
	<node id="-59935" lat="62.1536277791" lon="5.55837222856">
		<tag k="name" v="Storbakkelva" />
		<tag k="ssr:stedsnr" v="584950" />
		<tag k="waterway" v="stream" />
	</node>
	<node id="-59932" lat="62.1678833319" lon="5.53287777268">
		<tag k="name" v="Krabbestielvane" />
		<tag k="ssr:stedsnr" v="583928" />
		<tag k="waterway" v="stream" />
	</node>
	<node id="-59927" lat="62.1888055583" lon="5.50755832595">
		<tag k="name" v="Inste Åramselva" />
		<tag k="ssr:stedsnr" v="582885" />
		<tag k="waterway" v="stream" />
	</node>
	<node id="-59923" lat="62.0140722217" lon="5.70215832923">
		<tag k="name" v="Fjellelva" />
		<tag k="ssr:stedsnr" v="576612" />
		<tag k="waterway" v="river" />
	</node>
	<node id="-59920" lat="62.090841667" lon="5.71161944348">
		<tag k="name" v="Strandaelva" />
		<tag k="ssr:stedsnr" v="575980" />
		<tag k="waterway" v="stream" />
	</node>
	<node id="-59916" lat="62.0593027804" lon="5.71146111436">
		<tag k="fixme" v="multiple name tags, choose one and add the other to alt_name" />
		<tag k="name" v="Saurdalselva;Årøyelva" />
		<tag k="ssr:stedsnr" v="575233" />
		<tag k="waterway" v="river" />
	</node>
	<node id="-59910" lat="62.1514611146" lon="5.83311944242">
		<tag k="name" v="Sundnesvatnet" />
		<tag k="natural" v="water" />
		<tag k="ssr:stedsnr" v="573820" />
	</node>
	<node id="-59903" lat="62.0615277768" lon="5.63451944215">
		<tag k="name" v="Vidneselva" />
		<tag k="ssr:stedsnr" v="572968" />
		<tag k="waterway" v="stream" />
	</node>
	<node id="-59895" lat="62.0455305601" lon="5.6439555584">
		<tag k="fixme" v="multiple name tags, choose one and add the other to alt_name" />
		<tag k="name" v="Sylteelva;Videlva" />
		<tag k="ssr:stedsnr" v="572814" />
		<tag k="waterway" v="river" />
	</node>
	<node id="-59887" lat="61.9742305555" lon="5.57518332438">
		<tag k="name" v="Heimste Skarevatnet" />
		<tag k="natural" v="water" />
		<tag k="ssr:stedsnr" v="572700" />
		<tag k="water" v="lake" />
	</node>
	<node id="-59883" lat="61.9670083343" lon="5.54490832411">
		<tag k="name" v="Dryftevika" />
		<tag k="natural" v="bay" />
		<tag k="ssr:stedsnr" v="572372" />
	</node>
	<node id="-59873" lat="62.0188416701" lon="5.64847778673">
		<tag k="name" v="Litlevassløken" />
		<tag k="natural" v="bay" />
		<tag k="ssr:stedsnr" v="571673" />
	</node>
	<node id="-59864" lat="62.0412694405" lon="5.78631388706">
		<tag k="name" v="Blæjevatnet" />
		<tag k="natural" v="water" />
		<tag k="ssr:stedsnr" v="556897" />
		<tag k="water" v="lake" />
	</node>
	<node id="-59852" lat="62.1387666689" lon="5.53899444625">
		<tag k="name" v="Rundevatnet" />
		<tag k="natural" v="water" />
		<tag k="ssr:stedsnr" v="523936" />
		<tag k="water" v="lake" />
	</node>
	<node id="-59847" lat="62.1562361116" lon="5.54233333483">
		<tag k="name" v="Ormosdalelva" />
		<tag k="ssr:stedsnr" v="523915" />
		<tag k="waterway" v="stream" />
	</node>
	<node id="-59846" lat="62.1475138847" lon="5.57767500727">
		<tag k="name" v="Koftevatnet" />
		<tag k="natural" v="water" />
		<tag k="ssr:stedsnr" v="523913" />
		<tag k="water" v="lake" />
	</node>
	<node id="-59836" lat="62.1835527788" lon="5.46299721696">
		<tag k="name" v="Rindeelva" />
		<tag k="ssr:stedsnr" v="522891" />
		<tag k="waterway" v="stream" />
	</node>
	<node id="-59829" lat="62.0217222184" lon="5.73364721791">
		<tag k="name" v="Ågotevatnet" />
		<tag k="natural" v="water" />
		<tag k="ssr:stedsnr" v="436969" />
	</node>
	<node id="-59828" lat="62.0406694489" lon="5.80616111351">
>>>>>>> e1d4bc35ff8a6074a6f2e91616a996b547c36f15
		<tag k="alt_name" v="Mørkevatnet" />
		<tag k="name" v="Myrkevatnet" />
		<tag k="natural" v="water" />
		<tag k="ssr:stedsnr" v="436729" />
	</node>
<<<<<<< HEAD
	<node lat="62.02172221836467" lon="5.733647217905505" id="-3873">
		<tag k="name" v="Ågotevatnet" />
		<tag k="natural" v="water" />
		<tag k="ssr:stedsnr" v="436969" />
	</node>
	<node lat="62.12020555647136" lon="5.485722222982437" id="-3875">
		<tag k="alt_name" v="Mosevatnet" />
		<tag k="name" v="Måsevatnet" />
		<tag k="natural" v="water" />
		<tag k="ssr:stedsnr" v="495392" />
	</node>
	<node lat="62.18815555438957" lon="5.493786112245556" id="-3876">
		<tag k="name" v="Åramsvatnet" />
		<tag k="natural" v="water" />
		<tag k="ssr:stedsnr" v="495551" />
	</node>
	<node lat="62.15549167093089" lon="5.6217027854124195" id="-3879">
		<tag k="name" v="Bjørlykkevatnet" />
		<tag k="natural" v="water" />
		<tag k="ssr:stedsnr" v="496477" />
	</node>
	<node lat="62.16045833628052" lon="5.81321943703312" id="-3881">
		<tag k="alt_name" v="Vedeldselva;Videilselva" />
		<tag k="fixme" v="multiple name tags, choose one and add the other to alt_name" />
		<tag k="name" v="Sundneselva;Videildselva" />
		<tag k="old_name" v="Vindeilselva" />
		<tag k="ssr:stedsnr" v="496030" />
		<tag k="waterway" v="river" />
	</node>
	<node lat="62.141286110269284" lon="5.535580564364379" id="-3890">
		<tag k="name" v="Tverrfjellvatna" />
		<tag k="natural" v="water" />
		<tag k="ssr:stedsnr" v="496513" />
	</node>
	<node lat="62.14440277466721" lon="5.638936103893612" id="-3893">
		<tag k="name" v="Skarvatnet" />
		<tag k="natural" v="water" />
		<tag k="ssr:stedsnr" v="496517" />
		<tag k="water" v="lake" />
	</node>
	<node lat="62.05389444705177" lon="5.822555551785204" id="-3896">
		<tag k="name" v="Skorevatna" />
		<tag k="natural" v="water" />
		<tag k="ssr:stedsnr" v="496882" />
	</node>
	<node lat="62.11626944576168" lon="5.760680554483989" id="-3918">
		<tag k="name" v="Grønegylet" />
		<tag k="ssr:stedsnr" v="512833" />
		<tag k="waterway" v="stream" />
	</node>
	<node lat="62.075355557546935" lon="5.631133327669733" id="-3922">
		<tag k="name" v="Storegylselva" />
		<tag k="ssr:stedsnr" v="513075" />
		<tag k="waterway" v="stream" />
	</node>
	<node lat="62.04460555718729" lon="5.522922217674944" id="-3927">
		<tag k="name" v="Litle-Saltvika" />
		<tag k="natural" v="bay" />
		<tag k="ssr:stedsnr" v="513483" />
	</node>
	<node lat="62.033272218277226" lon="5.54450277631103" id="-3930">
		<tag k="name" v="Kvennhuselva" />
		<tag k="ssr:stedsnr" v="513452" />
		<tag k="waterway" v="stream" />
	</node>
	<node lat="62.0767638914318" lon="5.81226667035258" id="-3939">
		<tag k="name" v="Bakkegrova" />
		<tag k="ssr:stedsnr" v="515333" />
		<tag k="waterway" v="stream" />
	</node>
	<node lat="62.183552778790734" lon="5.462997216963023" id="-3948">
		<tag k="name" v="Rindeelva" />
		<tag k="ssr:stedsnr" v="522891" />
		<tag k="waterway" v="stream" />
	</node>
	<node lat="62.13876666888315" lon="5.5389944462526595" id="-3953">
		<tag k="name" v="Rundevatnet" />
		<tag k="natural" v="water" />
		<tag k="ssr:stedsnr" v="523936" />
		<tag k="water" v="lake" />
	</node>
	<node lat="61.99125277606493" lon="5.56485833419884" id="-3966">
		<tag k="name" v="Grunnevatnet" />
		<tag k="natural" v="water" />
		<tag k="ssr:stedsnr" v="556055" />
	</node>
	<node lat="62.03161111479799" lon="5.606977771314962" id="-3974">
		<tag k="fixme" v="multiple name tags, choose one and add the other to alt_name" />
		<tag k="name" v="Grunnavatnet;Grunnevatnet" />
		<tag k="natural" v="water" />
		<tag k="ssr:stedsnr" v="556361" />
	</node>
	<node lat="62.145897221780736" lon="5.705497217205955" id="-3978">
		<tag k="alt_name" v="Breidteigelva" />
		<tag k="name" v="Breiteigselva" />
		<tag k="ssr:stedsnr" v="557465" />
		<tag k="waterway" v="stream" />
	</node>
	<node lat="62.14859722392836" lon="5.642983331383797" id="-3979">
		<tag k="name" v="Krokåa" />
		<tag k="ssr:stedsnr" v="557472" />
		<tag k="waterway" v="stream" />
	</node>
	<node lat="62.04126944054223" lon="5.786313887057839" id="-3984">
		<tag k="name" v="Blæjevatnet" />
		<tag k="natural" v="water" />
		<tag k="ssr:stedsnr" v="556897" />
		<tag k="water" v="lake" />
	</node>
	<node lat="62.06684721918179" lon="5.752555562405096" id="-3986">
		<tag k="name" v="Røfsdalselva" />
		<tag k="ssr:stedsnr" v="556853" />
		<tag k="waterway" v="river" />
	</node>
	<node lat="62.118369448361285" lon="5.604855560285738" id="-3990">
		<tag k="name" v="Skogaelva" />
		<tag k="ssr:stedsnr" v="571322" />
		<tag k="waterway" v="river" />
	</node>
	<node lat="62.13477777840348" lon="5.57973055414331" id="-3992">
		<tag k="name" v="Sollielva" />
		<tag k="ssr:stedsnr" v="571328" />
		<tag k="waterway" v="river" />
	</node>
	<node lat="62.07974722516061" lon="5.727933328883048" id="-3996">
		<tag k="name" v="Oseelva" />
		<tag k="ssr:stedsnr" v="571730" />
		<tag k="waterway" v="river" />
	</node>
	<node lat="62.018841670077016" lon="5.6484777867323315" id="-3999">
		<tag k="name" v="Litlevassløken" />
		<tag k="natural" v="bay" />
		<tag k="ssr:stedsnr" v="571673" />
	</node>
	<node lat="61.967008334297866" lon="5.54490832411451" id="-4002">
		<tag k="name" v="Dryftevika" />
		<tag k="natural" v="bay" />
		<tag k="ssr:stedsnr" v="572372" />
	</node>
	<node lat="62.06152777677621" lon="5.634519442150484" id="-4010">
		<tag k="name" v="Vidneselva" />
		<tag k="ssr:stedsnr" v="572968" />
		<tag k="waterway" v="stream" />
	</node>
	<node lat="62.1514611145916" lon="5.8331194424177575" id="-4018">
		<tag k="name" v="Sundnesvatnet" />
		<tag k="natural" v="water" />
		<tag k="ssr:stedsnr" v="573820" />
	</node>
	<node lat="62.0593027804498" lon="5.711461114359282" id="-4021">
		<tag k="fixme" v="multiple name tags, choose one and add the other to alt_name" />
		<tag k="name" v="Saurdalselva;Årøyelva" />
		<tag k="ssr:stedsnr" v="575233" />
		<tag k="waterway" v="river" />
	</node>
	<node lat="62.09084166698647" lon="5.711619443479497" id="-4025">
		<tag k="name" v="Strandaelva" />
		<tag k="ssr:stedsnr" v="575980" />
		<tag k="waterway" v="stream" />
	</node>
	<node lat="62.18880555831731" lon="5.507558325945038" id="-4035">
		<tag k="name" v="Inste Åramselva" />
		<tag k="ssr:stedsnr" v="582885" />
		<tag k="waterway" v="stream" />
	</node>
	<node lat="62.16788333190115" lon="5.532877772676051" id="-4040">
		<tag k="name" v="Krabbestielvane" />
		<tag k="ssr:stedsnr" v="583928" />
		<tag k="waterway" v="stream" />
	</node>
	<node lat="62.153627779069076" lon="5.558372228560842" id="-4043">
		<tag k="name" v="Storbakkelva" />
		<tag k="ssr:stedsnr" v="584950" />
		<tag k="waterway" v="stream" />
	</node>
	<node lat="61.98451111228872" lon="5.535255558306084" id="-4050">
		<tag k="name" v="Svartevatnet" />
		<tag k="natural" v="water" />
		<tag k="ssr:stedsnr" v="617072" />
	</node>
	<node lat="62.02184444272924" lon="5.645530557161139" id="-4053">
		<tag k="name" v="Sætrevatnet" />
		<tag k="natural" v="water" />
		<tag k="ssr:stedsnr" v="617230" />
	</node>
	<node lat="62.00337777508067" lon="5.497024992181843" id="-4054">
		<tag k="fixme" v="multiple name tags, choose one and add the other to alt_name" />
		<tag k="name" v="Storevatnet;Litle Skorgevatnet" />
		<tag k="natural" v="water" />
		<tag k="ssr:stedsnr" v="617237" />
	</node>
	<node lat="61.98160555158029" lon="5.4981222283227424" id="-4068">
		<tag k="name" v="Skitnevikelva" />
		<tag k="ssr:stedsnr" v="632314" />
		<tag k="waterway" v="stream" />
	</node>
	<node lat="62.11417221852573" lon="5.462830554662376" id="-4073">
		<tag k="name" v="Tvervatnet" />
		<tag k="natural" v="water" />
		<tag k="ssr:stedsnr" v="632756" />
	</node>
	<node lat="61.9639055559964" lon="5.567947222206818" id="-4079">
		<tag k="name" v="Synste Skarevatnet" />
		<tag k="natural" v="water" />
		<tag k="ssr:stedsnr" v="633733" />
		<tag k="water" v="lake" />
	</node>
	<node lat="62.02161389121218" lon="5.529094441237812" id="-4087">
		<tag k="name" v="Åndeligrova" />
		<tag k="ssr:stedsnr" v="634600" />
		<tag k="waterway" v="stream" />
	</node>
	<node lat="62.077186107957594" lon="5.774819440024649" id="-4088">
		<tag k="name" v="Koppedalsvatnet" />
		<tag k="natural" v="water" />
		<tag k="ssr:stedsnr" v="635493" />
	</node>
	<node lat="62.06374722594569" lon="5.758783331393973" id="-4090">
		<tag k="name" v="Trøvelgylet" />
		<tag k="ssr:stedsnr" v="636167" />
		<tag k="waterway" v="stream" />
	</node>
	<node lat="62.058594447194686" lon="5.851555561484067" id="-4091">
		<tag k="name" v="Lindalselva" />
		<tag k="ssr:stedsnr" v="636251" />
		<tag k="waterway" v="stream" />
	</node>
	<node lat="62.03658055506403" lon="5.6863222181325375" id="-4092">
		<tag k="name" v="Kvernhuselva" />
		<tag k="ssr:stedsnr" v="636337" />
		<tag k="waterway" v="stream" />
	</node>
	<node lat="62.16069166641974" lon="5.542405557161278" id="-4104">
		<tag k="name" v="Sandvikelva" />
		<tag k="ssr:stedsnr" v="643942" />
		<tag k="waterway" v="river" />
	</node>
	<node lat="62.013822221965576" lon="5.499238885614992" id="-4113">
		<tag k="alt_name" v="Skorge-elva" />
		<tag k="name" v="Skorgeelva" />
		<tag k="ssr:stedsnr" v="717547" />
		<tag k="waterway" v="river" />
	</node>
	<node lat="62.130019442776636" lon="5.5869250087248545" id="-4117">
		<tag k="fixme" v="multiple name tags, choose one and add the other to alt_name" />
		<tag k="name" v="Kvanndalsvatnet;Litlevatnet" />
		<tag k="natural" v="water" />
		<tag k="ssr:stedsnr" v="737381" />
		<tag k="water" v="lake" />
	</node>
	<node lat="61.979525002190705" lon="5.667827768930581" id="-4118">
		<tag k="name" v="Grynnevatnet" />
		<tag k="natural" v="water" />
		<tag k="ssr:stedsnr" v="738023" />
	</node>
	<node lat="61.99165555413926" lon="5.675080558073986" id="-4119">
		<tag k="name" v="Storelva" />
		<tag k="ssr:stedsnr" v="738036" />
		<tag k="waterway" v="stream" />
	</node>
	<node lat="62.10077499604009" lon="5.852044438515064" id="-4126">
		<tag k="name" v="Eggjavatnet" />
		<tag k="natural" v="water" />
		<tag k="ssr:stedsnr" v="738889" />
	</node>
	<node lat="62.12167500370407" lon="5.543944437178109" id="-4131">
		<tag k="alt_name" v="Støylsvatnet" />
		<tag k="name" v="Strandavatnet" />
		<tag k="natural" v="water" />
		<tag k="ssr:stedsnr" v="739378" />
		<tag k="water" v="lake" />
	</node>
	<node lat="62.04383333530676" lon="5.617391673799153" id="-4144">
		<tag k="name" v="Syltehornelva" />
		<tag k="ssr:stedsnr" v="753732" />
		<tag k="waterway" v="stream" />
	</node>
	<node lat="62.019597219066576" lon="5.6437527795731945" id="-4148">
		<tag k="name" v="Demminga" />
		<tag k="ssr:stedsnr" v="754677" />
		<tag k="waterway" v="dam" />
	</node>
	<node lat="61.976322225521386" lon="5.56711945284242" id="-4150">
		<tag k="name" v="Middagsvatnet" />
		<tag k="natural" v="water" />
		<tag k="ssr:stedsnr" v="754691" />
		<tag k="water" v="lake" />
	</node>
	<node lat="62.04480278007165" lon="5.664377769332633" id="-4156">
		<tag k="name" v="Skinnhylen" />
		<tag k="place" v="locality" />
		<tag k="ssr:stedsnr" v="754785" />
	</node>
	<node lat="62.13558610778274" lon="5.534780558116828" id="-4158">
		<tag k="name" v="Synste Koppevatnet" />
		<tag k="natural" v="water" />
		<tag k="ssr:stedsnr" v="754638" />
		<tag k="water" v="lake" />
	</node>
	<node lat="62.03043055666383" lon="5.641350004644671" id="-4162">
		<tag k="name" v="Skoraelva" />
		<tag k="ssr:stedsnr" v="754800" />
		<tag k="waterway" v="stream" />
	</node>
	<node lat="62.08859167006045" lon="5.643369437463816" id="-4163">
		<tag k="name" v="Fossane" />
		<tag k="natural" v="waterfall" />
		<tag k="ssr:stedsnr" v="755080" />
	</node>
	<node lat="62.09362222287254" lon="5.7111083403600205" id="-4164">
		<tag k="name" v="Bytegylet" />
		<tag k="ssr:stedsnr" v="755877" />
		<tag k="waterway" v="stream" />
	</node>
	<node lat="62.03866388880765" lon="5.697324994208821" id="-4171">
		<tag k="name" v="Storefossen" />
		<tag k="natural" v="waterfall" />
		<tag k="ssr:stedsnr" v="757327" />
	</node>
	<node lat="62.080519446033165" lon="5.728461104602608" id="-4175">
		<tag k="name" v="Oselva" />
		<tag k="ssr:stedsnr" v="757978" />
		<tag k="waterway" v="river" />
	</node>
	<node lat="62.01369722289401" lon="5.713944451554724" id="-4183">
		<tag k="name" v="Tverelva" />
		<tag k="ssr:stedsnr" v="758633" />
		<tag k="waterway" v="stream" />
	</node>
	<node lat="62.14148610827567" lon="5.535369443375766" id="-4202">
		<tag k="name" v="Koppevatnet" />
		<tag k="natural" v="water" />
		<tag k="ssr:stedsnr" v="766936" />
		<tag k="water" v="lake" />
	</node>
	<node lat="61.9843305524575" lon="5.7044500040269925" id="-4212">
		<tag k="name" v="Kvanndalsvatnet" />
		<tag k="natural" v="water" />
		<tag k="ssr:stedsnr" v="798024" />
	</node>
	<node lat="62.041408337220275" lon="5.605997226270088" id="-4215">
		<tag k="name" v="Merkingselva" />
		<tag k="ssr:stedsnr" v="799276" />
		<tag k="waterway" v="stream" />
	</node>
	<node lat="62.155333334622185" lon="5.520333335297947" id="-4219">
		<tag k="name" v="Sandvikelva" />
		<tag k="ssr:stedsnr" v="800148" />
		<tag k="waterway" v="stream" />
	</node>
	<node lat="62.1583055542068" lon="5.763897215538355" id="-4229">
		<tag k="name" v="Tunga" />
		<tag k="natural" v="cape" />
		<tag k="ssr:stedsnr" v="815546" />
	</node>
	<node lat="62.11103055643307" lon="5.766344443749026" id="-4233">
		<tag k="name" v="Heimste tverrelva" />
		<tag k="ssr:stedsnr" v="815138" />
		<tag k="waterway" v="stream" />
	</node>
	<node lat="61.981599999398014" lon="5.452002787037825" id="-4235">
		<tag k="name" v="Løkane" />
		<tag k="natural" v="bay" />
		<tag k="ssr:stedsnr" v="815278" />
	</node>
	<node lat="62.1075194486901" lon="5.549897223378987" id="-4237">
		<tag k="name" v="Gringjølselva" />
		<tag k="ssr:stedsnr" v="815648" />
		<tag k="waterway" v="stream" />
	</node>
	<node lat="62.0517416628688" lon="5.8297111068437575" id="-4268">
		<tag k="name" v="Lisse Kvandalsvatnet" />
		<tag k="natural" v="water" />
		<tag k="ssr:stedsnr" v="819286" />
	</node>
	<node lat="62.06863611431935" lon="5.840488894278395" id="-4269">
		<tag k="name" v="Holelva" />
		<tag k="ssr:stedsnr" v="819291" />
		<tag k="waterway" v="stream" />
	</node>
	<node lat="62.140188892605174" lon="5.425011118903241" id="-4274">
		<tag k="name" v="Krokevikelva" />
		<tag k="ssr:stedsnr" v="825849" />
		<tag k="waterway" v="river" />
	</node>
	<node lat="62.142077774125696" lon="5.580216664876869" id="-4275">
		<tag k="name" v="Måsdalsvatnet" />
		<tag k="natural" v="water" />
		<tag k="ssr:stedsnr" v="825851" />
		<tag k="water" v="lake" />
	</node>
	<node lat="62.15385833163276" lon="5.552794448489279" id="-4278">
		<tag k="name" v="Storelva" />
		<tag k="ssr:stedsnr" v="826037" />
		<tag k="waterway" v="stream" />
	</node>
	<node lat="62.16121667033484" lon="5.590486119123842" id="-4286">
		<tag k="name" v="Nyefonna" />
		<tag k="ssr:stedsnr" v="827991" />
		<tag k="waterway" v="stream" />
	</node>
	<node lat="62.02342500321342" lon="5.562733337799493" id="-4291">
		<tag k="name" v="Røraneselva" />
		<tag k="ssr:stedsnr" v="860344" />
		<tag k="waterway" v="stream" />
	</node>
	<node lat="62.1582972263028" lon="5.54930833452909" id="-4299">
		<tag k="name" v="Brandalselva" />
		<tag k="ssr:stedsnr" v="860497" />
		<tag k="waterway" v="river" />
	</node>
	<node lat="62.150705560168355" lon="5.601647230598474" id="-4300">
		<tag k="alt_name" v="Koftetjønna" />
		<tag k="name" v="Litlekoftvatnet" />
		<tag k="natural" v="water" />
		<tag k="ssr:stedsnr" v="860499" />
	</node>
	<node lat="62.0761999977322" lon="5.784374996141452" id="-4305">
		<tag k="name" v="Løkelva" />
		<tag k="ssr:stedsnr" v="860849" />
		<tag k="waterway" v="stream" />
	</node>
	<node lat="62.052916669769075" lon="5.7715305536352695" id="-4306">
		<tag k="name" v="Helgåna" />
		<tag k="ssr:stedsnr" v="860939" />
		<tag k="waterway" v="stream" />
	</node>
	<node lat="62.05899444291772" lon="5.841533333096382" id="-4307">
		<tag k="name" v="Sætrevatnet" />
		<tag k="natural" v="water" />
		<tag k="ssr:stedsnr" v="860949" />
	</node>
	<node lat="61.97912500355059" lon="5.517658326002504" id="-4319">
		<tag k="name" v="Røyrneset" />
		<tag k="natural" v="cape" />
		<tag k="ssr:stedsnr" v="875251" />
	</node>
	<node lat="61.99393055517708" lon="5.486505561711298" id="-4320">
		<tag k="name" v="Løkjen" />
		<tag k="natural" v="water" />
		<tag k="ssr:stedsnr" v="875311" />
	</node>
	<node lat="62.02369166251928" lon="5.5984499958546845" id="-4335">
		<tag k="name" v="Grunnvasselva" />
		<tag k="ssr:stedsnr" v="876698" />
		<tag k="waterway" v="stream" />
	</node>
	<node lat="62.011541666791544" lon="5.604283325178723" id="-4336">
		<tag k="name" v="Rustefossen" />
		<tag k="natural" v="waterfall" />
		<tag k="ssr:stedsnr" v="876700" />
	</node>
	<node lat="62.12835278184594" lon="5.7852694495687444" id="-4337">
		<tag k="name" v="Elvakrikane" />
		<tag k="ssr:stedsnr" v="876845" />
		<tag k="waterway" v="stream" />
	</node>
	<node lat="62.104158332223705" lon="5.6740861030446" id="-4340">
		<tag k="name" v="Breiteigselva" />
		<tag k="ssr:stedsnr" v="877042" />
		<tag k="waterway" v="stream" />
	</node>
	<node lat="62.10223888582309" lon="5.628555556385684" id="-4342">
		<tag k="name" v="Sætreelva" />
		<tag k="ssr:stedsnr" v="877238" />
		<tag k="waterway" v="stream" />
	</node>
	<node lat="62.11001944784087" lon="5.625572231258916" id="-4343">
		<tag k="name" v="Matelva" />
		<tag k="ssr:stedsnr" v="877239" />
		<tag k="waterway" v="stream" />
	</node>
	<node lat="62.03465277550338" lon="5.5559055574764065" id="-4344">
		<tag k="name" v="Litlesvartevatnet" />
		<tag k="natural" v="water" />
		<tag k="ssr:stedsnr" v="877419" />
	</node>
	<node lat="62.01918055999922" lon="5.5386666753844676" id="-4348">
		<tag k="name" v="Byrkjelidelva" />
		<tag k="ssr:stedsnr" v="877599" />
		<tag k="waterway" v="stream" />
	</node>
	<node lat="62.055802773583096" lon="5.563663890835895" id="-4349">
		<tag k="name" v="Bjørdalselva" />
		<tag k="ssr:stedsnr" v="878644" />
		<tag k="waterway" v="river" />
	</node>
	<node lat="62.046788892621365" lon="5.735361103787257" id="-4354">
		<tag k="name" v="Buhølen" />
		<tag k="place" v="locality" />
		<tag k="ssr:stedsnr" v="879087" />
	</node>
	<node lat="62.06791944838733" lon="5.726874990716599" id="-4356">
		<tag k="name" v="Sadelgylet" />
		<tag k="ssr:stedsnr" v="879333" />
		<tag k="waterway" v="stream" />
	</node>
	<node lat="62.01987222348902" lon="5.644969444118133" id="-4373">
		<tag k="name" v="Strupen" />
		<tag k="natural" v="strait" />
		<tag k="ssr:stedsnr" v="936661" />
	</node>
	<node lat="62.119519440173754" lon="5.79331667061999" id="-4397">
		<tag k="name" v="Trollbryggja" />
		<tag k="place" v="locality" />
		<tag k="ssr:stedsnr" v="937863" />
	</node>
	<node lat="62.05233888779616" lon="5.597213888765633" id="-4406">
		<tag k="name" v="Eikremselva" />
		<tag k="ssr:stedsnr" v="938078" />
		<tag k="waterway" v="river" />
	</node>
	<node lat="62.098019441291235" lon="5.67303332581384" id="-4408">
		<tag k="name" v="Storgylelva" />
		<tag k="ssr:stedsnr" v="938182" />
		<tag k="waterway" v="stream" />
	</node>
	<node lat="62.09289166657875" lon="5.819966663534236" id="-4428">
		<tag k="name" v="Bruelva" />
		<tag k="ssr:stedsnr" v="940336" />
		<tag k="waterway" v="river" />
	</node>
	<node lat="62.15059999691431" lon="5.8387138918271395" id="-4433">
		<tag k="name" v="Joleskarelva" />
		<tag k="ssr:stedsnr" v="940631" />
		<tag k="waterway" v="stream" />
	</node>
	<node lat="62.06790555975876" lon="5.796786110891448" id="-4436">
		<tag k="name" v="Sveragylet" />
		<tag k="ssr:stedsnr" v="940835" />
		<tag k="waterway" v="stream" />
=======
	<node id="-59825" lat="62.0599138931" lon="5.65373610426">
		<tag k="name" v="Vidnesvatnet" />
		<tag k="natural" v="water" />
		<tag k="ssr:stedsnr" v="436339" />
	</node>
	<node id="-59823" lat="62.0159749988" lon="5.63143333569">
		<tag k="fixme" v="multiple name tags, choose one and add the other to alt_name" />
		<tag k="name" v="Kvennhuselva;Sætreelva" />
		<tag k="ssr:stedsnr" v="436201" />
		<tag k="waterway" v="stream" />
	</node>
	<node id="-59821" lat="62.1535583343" lon="5.73770000627">
		<tag k="name" v="Rovdevatnet" />
		<tag k="natural" v="water" />
		<tag k="ssr:stedsnr" v="436053" />
	</node>
	<node id="-59820" lat="62.1495361107" lon="5.75954444689">
		<tag k="name" v="Koppelva" />
		<tag k="ssr:stedsnr" v="436046" />
		<tag k="waterway" v="stream" />
	</node>
	<node id="-59813" lat="62.0568138902" lon="5.84765555621">
		<tag k="alt_name" v="Sæv-vatnet" />
		<tag k="name" v="Sevvatnet" />
		<tag k="natural" v="water" />
		<tag k="ssr:stedsnr" v="435900" />
	</node>
	<node id="-59804" lat="61.9936750042" lon="5.48304165935">
		<tag k="name" v="Sollidvatnet" />
		<tag k="natural" v="water" />
		<tag k="ssr:stedsnr" v="435100" />
	</node>
	<node id="-59803" lat="61.9931611069" lon="5.66956667224">
		<tag k="name" v="Brattegjølfossen" />
		<tag k="natural" v="waterfall" />
		<tag k="ssr:stedsnr" v="435085" />
	</node>
	<node id="-59802" lat="61.9807944468" lon="5.51187778241">
		<tag k="name" v="Juvatnet" />
		<tag k="natural" v="water" />
		<tag k="ssr:stedsnr" v="435080" />
		<tag k="water" v="lake" />
	</node>
	<node id="-59796" lat="62.1383138864" lon="5.56087222907">
		<tag k="name" v="Langeneset" />
		<tag k="natural" v="cape" />
		<tag k="ssr:stedsnr" v="402974" />
	</node>
	<node id="-59795" lat="62.1440611101" lon="5.6300055645">
		<tag k="alt_name" v="Lidaelva" />
		<tag k="name" v="Buskarelva" />
		<tag k="ssr:stedsnr" v="402972" />
		<tag k="waterway" v="river" />
	</node>
	<node id="-59791" lat="62.1661083299" lon="5.49598888645">
		<tag k="name" v="Sætre-elva" />
		<tag k="ssr:stedsnr" v="401849" />
		<tag k="waterway" v="stream" />
	</node>
	<node id="-59785" lat="62.1544388918" lon="5.51329722977">
		<tag k="name" v="Sandvikelva" />
		<tag k="ssr:stedsnr" v="402939" />
		<tag k="waterway" v="river" />
	</node>
	<node id="-59783" lat="62.1626499993" lon="5.5995499986">
		<tag k="name" v="Seljegylet" />
		<tag k="ssr:stedsnr" v="402933" />
		<tag k="waterway" v="stream" />
	</node>
	<node id="-59778" lat="62.0566722227" lon="5.8441694458">
		<tag k="name" v="Eidet" />
		<tag k="natural" v="strait" />
		<tag k="ssr:stedsnr" v="394248" />
	</node>
	<node id="-59774" lat="62.0739972196" lon="5.85569722149">
		<tag k="name" v="Tennevassholmen" />
		<tag k="place" v="islet" />
		<tag k="ssr:stedsnr" v="394322" />
	</node>
	<node id="-59773" lat="62.0767861137" lon="5.86128611785">
		<tag k="name" v="Stordalselva" />
		<tag k="ssr:stedsnr" v="394318" />
		<tag k="waterway" v="river" />
	</node>
	<node id="-59772" lat="61.9972361069" lon="5.69136111321">
		<tag k="name" v="Slivasselva" />
		<tag k="ssr:stedsnr" v="394016" />
		<tag k="waterway" v="river" />
	</node>
	<node id="-59764" lat="62.0600361129" lon="5.72187500168">
		<tag k="name" v="Fossegylet" />
		<tag k="ssr:stedsnr" v="393235" />
		<tag k="waterway" v="stream" />
	</node>
	<node id="-59762" lat="62.073327777" lon="5.53933056119">
		<tag k="name" v="Dalelva" />
		<tag k="ssr:stedsnr" v="392684" />
		<tag k="waterway" v="stream" />
	</node>
	<node id="-59761" lat="62.0864972176" lon="5.66981110275">
		<tag k="name" v="Litlevatnet" />
		<tag k="natural" v="water" />
		<tag k="ssr:stedsnr" v="392086" />
	</node>
	<node id="-59760" lat="61.9876805571" lon="5.64998333206">
		<tag k="name" v="Litlehorntjønna" />
		<tag k="natural" v="water" />
		<tag k="ssr:stedsnr" v="391683" />
	</node>
	<node id="-59757" lat="61.9963833329" lon="5.52100000205">
		<tag k="name" v="Sandvika" />
		<tag k="natural" v="bay" />
		<tag k="ssr:stedsnr" v="391424" />
	</node>
	<node id="-59756" lat="61.9981277757" lon="5.51484443582">
		<tag k="name" v="Gunnarskvia" />
		<tag k="natural" v="bay" />
		<tag k="ssr:stedsnr" v="391421" />
	</node>
	<node id="-59747" lat="62.0420388865" lon="5.62529167554">
		<tag k="name" v="Myrebærelva" />
		<tag k="ssr:stedsnr" v="390799" />
		<tag k="waterway" v="stream" />
	</node>
	<node id="-59740" lat="62.158780558" lon="5.76375832604">
		<tag k="name" v="Støyleelva" />
		<tag k="ssr:stedsnr" v="390548" />
		<tag k="waterway" v="stream" />
	</node>
	<node id="-59732" lat="62.0988749969" lon="5.79472223124">
		<tag k="name" v="Stigrova" />
		<tag k="ssr:stedsnr" v="390144" />
		<tag k="waterway" v="stream" />
	</node>
	<node id="-59728" lat="62.1311138868" lon="5.5084249938">
		<tag k="name" v="Kleinosen" />
		<tag k="natural" v="bay" />
		<tag k="ssr:stedsnr" v="389724" />
	</node>
	<node id="-59727" lat="62.1252055589" lon="5.53321666119">
		<tag k="name" v="Litlehaugvatnet" />
		<tag k="natural" v="water" />
		<tag k="ssr:stedsnr" v="389720" />
	</node>
	<node id="-59725" lat="62.1213527788" lon="5.45926110676">
		<tag k="name" v="Djupe kappen" />
		<tag k="natural" v="bay" />
		<tag k="ssr:stedsnr" v="389784" />
	</node>
	<node id="-59714" lat="62.098683337" lon="5.7872333295">
		<tag k="alt_name" v="Kvisla" />
		<tag k="name" v="Kvitla" />
		<tag k="ssr:stedsnr" v="374882" />
		<tag k="waterway" v="stream" />
	</node>
	<node id="-59712" lat="62.1177777788" lon="5.81891388248">
		<tag k="alt_name" v="Storåvatnet" />
		<tag k="name" v="Vikevatnet" />
		<tag k="natural" v="water" />
		<tag k="ssr:stedsnr" v="374782" />
	</node>
	<node id="-59703" lat="62.041397224" lon="5.56738056337">
		<tag k="name" v="Spelvatna" />
		<tag k="natural" v="water" />
		<tag k="ssr:stedsnr" v="374285" />
	</node>
	<node id="-59697" lat="62.152286108" lon="5.60985277414">
		<tag k="name" v="Koftetjønna" />
		<tag k="natural" v="water" />
		<tag k="ssr:stedsnr" v="341971" />
	</node>
	<node id="-59688" lat="62.1892527802" lon="5.50017499504">
		<tag k="name" v="Ytste Åramelva" />
		<tag k="ssr:stedsnr" v="340900" />
		<tag k="waterway" v="stream" />
	</node>
	<node id="-59685" lat="62.1622888902" lon="5.46437778304">
		<tag k="name" v="Tverrelva" />
		<tag k="ssr:stedsnr" v="340884" />
		<tag k="waterway" v="stream" />
	</node>
	<node id="-59679" lat="62.0912611097" lon="5.79629999945">
		<tag k="name" v="Årdalselva" />
		<tag k="ssr:stedsnr" v="333482" />
		<tag k="waterway" v="stream" />
	</node>
	<node id="-59671" lat="62.0497361109" lon="5.82856111208">
		<tag k="name" v="Båtvika" />
		<tag k="natural" v="bay" />
		<tag k="ssr:stedsnr" v="333229" />
	</node>
	<node id="-59667" lat="61.9926583321" lon="5.70473612035">
		<tag k="name" v="Kvanndalselva" />
		<tag k="ssr:stedsnr" v="333049" />
		<tag k="waterway" v="river" />
	</node>
	<node id="-59654" lat="62.1483111082" lon="5.71054444652">
		<tag k="name" v="Breiteigsfossen" />
		<tag k="natural" v="waterfall" />
		<tag k="ssr:stedsnr" v="330958" />
	</node>
	<node id="-59641" lat="62.1432722226" lon="5.7116361126">
		<tag k="name" v="Høgstakkgylet" />
		<tag k="ssr:stedsnr" v="329968" />
		<tag k="waterway" v="stream" />
	</node>
	<node id="-59637" lat="62.1249194476" lon="5.66008333914">
		<tag k="name" v="Hjelleelva" />
		<tag k="ssr:stedsnr" v="329173" />
		<tag k="waterway" v="stream" />
	</node>
	<node id="-58179" lat="62.0189916685" lon="5.67693611133">
		<tag k="name" v="Skinvatna" />
		<tag k="natural" v="water" />
		<tag k="ssr:stedsnr" v="71222" />
	</node>
	<node id="-59627" lat="62.1307666653" lon="5.61445833656">
		<tag k="fixme" v="multiple name tags, choose one and add the other to alt_name" />
		<tag k="name" v="Gullidvatnet;Sandnesvatnet" />
		<tag k="natural" v="water" />
		<tag k="ssr:stedsnr" v="314431" />
		<tag k="water" v="lake" />
	</node>
	<node id="-59625" lat="62.0332972226" lon="5.59374166667">
		<tag k="alt_name" v="Nykavatnet" />
		<tag k="name" v="Nykvatnet" />
		<tag k="natural" v="water" />
		<tag k="ssr:stedsnr" v="314334" />
	</node>
	<node id="-59624" lat="62.0288416653" lon="5.61823889525">
		<tag k="name" v="Litlevatnet" />
		<tag k="natural" v="water" />
		<tag k="ssr:stedsnr" v="314333" />
	</node>
	<node id="-59620" lat="62.0031555582" lon="5.52471666437">
		<tag k="name" v="Vaulvatnet" />
		<tag k="natural" v="water" />
		<tag k="ssr:stedsnr" v="313080" />
		<tag k="water" v="lake" />
	</node>
	<node id="-59619" lat="61.9889333358" lon="5.47636945022">
		<tag k="name" v="Kyrnosvatnet" />
		<tag k="natural" v="water" />
		<tag k="ssr:stedsnr" v="313076" />
	</node>
	<node id="-59614" lat="62.1856083349" lon="5.82534721319">
		<tag k="name" v="Langhauggrova" />
		<tag k="ssr:stedsnr" v="212766" />
		<tag k="waterway" v="stream" />
	</node>
	<node id="-59612" lat="62.0874444466" lon="5.82387500339">
		<tag k="name" v="Hardalselva" />
		<tag k="ssr:stedsnr" v="212394" />
		<tag k="waterway" v="river" />
	</node>
	<node id="-59586" lat="62.15827778" lon="5.7632055617">
		<tag k="name" v="Skåleelva" />
		<tag k="ssr:stedsnr" v="209595" />
		<tag k="waterway" v="stream" />
	</node>
	<node id="-59582" lat="62.1138055586" lon="5.6033333292">
		<tag k="name" v="Tunga" />
		<tag k="natural" v="cape" />
		<tag k="ssr:stedsnr" v="209252" />
	</node>
	<node id="-59577" lat="62.0565999984" lon="5.67007500915">
		<tag k="name" v="Støylsmannselva" />
		<tag k="ssr:stedsnr" v="208918" />
		<tag k="waterway" v="river" />
	</node>
	<node id="-59574" lat="62.133233334" lon="5.45064999326">
		<tag k="name" v="Røyrholmane" />
		<tag k="natural" v="cape" />
		<tag k="ssr:stedsnr" v="208813" />
	</node>
	<node id="-59572" lat="62.1268583377" lon="5.71046111455">
		<tag k="name" v="Skorelva" />
		<tag k="ssr:stedsnr" v="208800" />
		<tag k="waterway" v="river" />
	</node>
	<node id="-59570" lat="62.1528416698" lon="5.79086110789">
		<tag k="name" v="Storgylet" />
		<tag k="ssr:stedsnr" v="208788" />
		<tag k="waterway" v="stream" />
	</node>
	<node id="-59563" lat="62.1088611141" lon="5.49336943746">
		<tag k="name" v="Myklebustelva" />
		<tag k="ssr:stedsnr" v="208720" />
		<tag k="waterway" v="stream" />
	</node>
	<node id="-59552" lat="62.1231777752" lon="5.65673332861">
		<tag k="name" v="Katlelva" />
		<tag k="ssr:stedsnr" v="208163" />
		<tag k="waterway" v="stream" />
	</node>
	<node id="-59550" lat="62.0310861086" lon="5.57514443562">
		<tag k="name" v="Timbretjønna" />
		<tag k="natural" v="water" />
		<tag k="ssr:stedsnr" v="207972" />
	</node>
	<node id="-59540" lat="62.0364972186" lon="5.6021083432">
		<tag k="name" v="Merkingsvatnet" />
		<tag k="natural" v="water" />
		<tag k="ssr:stedsnr" v="193246" />
	</node>
	<node id="-59536" lat="62.0557916652" lon="5.5472222158">
		<tag k="name" v="Vikevatnet" />
		<tag k="natural" v="water" />
		<tag k="ssr:stedsnr" v="193362" />
	</node>
	<node id="-59533" lat="62.0249638909" lon="5.62648055383">
		<tag k="name" v="Skjevatnet" />
		<tag k="natural" v="water" />
		<tag k="ssr:stedsnr" v="193196" />
	</node>
	<node id="-59526" lat="62.144741669" lon="5.74177778628">
		<tag k="fixme" v="multiple name tags, choose one and add the other to alt_name" />
		<tag k="name" v="Koppevatnet;Trollkoppevatnet" />
		<tag k="natural" v="water" />
		<tag k="ssr:stedsnr" v="192813" />
	</node>
	<node id="-59520" lat="61.9841749984" lon="5.50576388303">
		<tag k="name" v="Bekslevatnet" />
		<tag k="natural" v="water" />
		<tag k="ssr:stedsnr" v="192060" />
		<tag k="water" v="lake" />
	</node>
	<node id="-59519" lat="61.9918916654" lon="5.49767499623">
		<tag k="name" v="Nipevatnet" />
		<tag k="natural" v="water" />
		<tag k="ssr:stedsnr" v="192058" />
	</node>
	<node id="-59517" lat="61.9819472181" lon="5.5644944481">
		<tag k="name" v="Movatnet" />
		<tag k="natural" v="water" />
		<tag k="ssr:stedsnr" v="192043" />
		<tag k="water" v="lake" />
	</node>
	<node id="-59516" lat="61.9672333308" lon="5.60027499744">
		<tag k="name" v="Skinevatnet" />
		<tag k="natural" v="water" />
		<tag k="ssr:stedsnr" v="192031" />
	</node>
	<node id="-59501" lat="62.163952779" lon="5.81710834176">
		<tag k="name" v="Gamlestøylelva" />
		<tag k="ssr:stedsnr" v="151733" />
		<tag k="waterway" v="stream" />
	</node>
	<node id="-59495" lat="62.0712277787" lon="5.84039443479">
		<tag k="name" v="Tenneelva" />
		<tag k="ssr:stedsnr" v="151293" />
		<tag k="waterway" v="river" />
	</node>
	<node id="-59489" lat="62.0299138911" lon="5.69385555434">
		<tag k="name" v="Krokane" />
		<tag k="place" v="islet" />
		<tag k="ssr:stedsnr" v="150439" />
	</node>
	<node id="-59488" lat="62.068875004" lon="5.80154166224">
		<tag k="name" v="Tunga" />
		<tag k="natural" v="cape" />
		<tag k="ssr:stedsnr" v="150327" />
	</node>
	<node id="-59479" lat="62.0178694403" lon="5.56036111196">
		<tag k="name" v="Røyrneset" />
		<tag k="natural" v="cape" />
		<tag k="ssr:stedsnr" v="148594" />
	</node>
	<node id="-59477" lat="62.0482777808" lon="5.52830555311">
		<tag k="name" v="Skrubbehammaren" />
		<tag k="natural" v="cape" />
		<tag k="ssr:stedsnr" v="148449" />
	</node>
	<node id="-59475" lat="62.0960527783" lon="5.67254166982">
		<tag k="name" v="Sætreelva" />
		<tag k="ssr:stedsnr" v="148200" />
		<tag k="waterway" v="stream" />
	</node>
	<node id="-59466" lat="62.1079805587" lon="5.53898888533">
		<tag k="name" v="Strandaelva" />
		<tag k="ssr:stedsnr" v="147648" />
		<tag k="waterway" v="stream" />
	</node>
	<node id="-59462" lat="62.0026722247" lon="5.55371944629">
		<tag k="name" v="Krokeelva" />
		<tag k="ssr:stedsnr" v="147466" />
		<tag k="waterway" v="stream" />
	</node>
	<node id="-59452" lat="62.0301027795" lon="5.58893334115">
		<tag k="name" v="Litle Kvennavatnet" />
		<tag k="natural" v="water" />
		<tag k="ssr:stedsnr" v="146981" />
	</node>
	<node id="-59451" lat="62.0357472255" lon="5.57109722662">
		<tag k="name" v="Skinvatna" />
		<tag k="natural" v="water" />
		<tag k="ssr:stedsnr" v="146979" />
	</node>
	<node id="-59447" lat="62.0245583358" lon="5.72745276841">
		<tag k="name" v="Nipevatnet" />
		<tag k="natural" v="water" />
		<tag k="ssr:stedsnr" v="132971" />
	</node>
	<node id="-59443" lat="62.1337638919" lon="5.42125834042">
		<tag k="name" v="Kvieelva" />
		<tag k="ssr:stedsnr" v="132471" />
		<tag k="waterway" v="stream" />
	</node>
	<node id="-59439" lat="62.0659527774" lon="5.6853999973">
		<tag k="name" v="Litlehornsvatnet" />
		<tag k="natural" v="water" />
		<tag k="ssr:stedsnr" v="132343" />
	</node>
	<node id="-59437" lat="62.1359027795" lon="5.454738891">
		<tag k="name" v="Nørdredalselva" />
		<tag k="ssr:stedsnr" v="132458" />
		<tag k="waterway" v="river" />
	</node>
	<node id="-59432" lat="62.0063222247" lon="5.72159166619">
		<tag k="name" v="Langevatnet" />
		<tag k="natural" v="water" />
		<tag k="ssr:stedsnr" v="131962" />
	</node>
	<node id="-59431" lat="62.1367583356" lon="5.77093054719">
		<tag k="name" v="Jarevatnet" />
		<tag k="natural" v="water" />
		<tag k="ssr:stedsnr" v="131835" />
	</node>
	<node id="-59430" lat="62.1350861068" lon="5.80120555841">
		<tag k="alt_name" v="Skoravatnet" />
		<tag k="name" v="Myrkevatnet" />
		<tag k="natural" v="water" />
		<tag k="ssr:stedsnr" v="131832" />
		<tag k="water" v="lake" />
	</node>
	<node id="-59429" lat="62.1401000042" lon="5.60658055489">
		<tag k="alt_name" v="Ristalsvatnet" />
		<tag k="name" v="Rysstallvatnet" />
		<tag k="natural" v="water" />
		<tag k="ssr:stedsnr" v="131457" />
	</node>
	<node id="-59418" lat="62.1522444487" lon="5.49067778122">
		<tag k="name" v="Tunga" />
		<tag k="natural" v="cape" />
		<tag k="ssr:stedsnr" v="99950" />
	</node>
	<node id="-59412" lat="62.0772777738" lon="5.8475249923">
		<tag k="name" v="Stordalselva" />
		<tag k="ssr:stedsnr" v="91362" />
		<tag k="waterway" v="stream" />
	</node>
	<node id="-59408" lat="62.0501916685" lon="5.83131111348">
		<tag k="name" v="Naustvika" />
		<tag k="natural" v="bay" />
		<tag k="ssr:stedsnr" v="91201" />
	</node>
	<node id="-59405" lat="62.0427777765" lon="5.80443611645">
		<tag k="name" v="Skinastødet" />
		<tag k="place" v="islet" />
		<tag k="ssr:stedsnr" v="90941" />
	</node>
	<node id="-59393" lat="62.0522694401" lon="5.74298888782">
		<tag k="name" v="Styttestranda" />
		<tag k="natural" v="beach" />
		<tag k="ssr:stedsnr" v="90047" />
>>>>>>> e1d4bc35ff8a6074a6f2e91616a996b547c36f15
	</node>
</osm>
