<?xml version="1.0" encoding="UTF-8"?>
<osm generator="osmapis" version="0.6">
	<node id="-5888" lat="62.0466166631" lon="5.67815277113">
		<tag k="name" v="Skinasvædet" />
		<tag k="place" v="locality" />
		<tag k="ssr:stedsnr" v="451847" />
	</node>
	<node id="-6652" lat="62.1752749995" lon="5.8206472263">
		<tag k="name" v="Myrane" />
		<tag k="natural" v="wetland" />
		<tag k="ssr:stedsnr" v="940738" />
	</node>
	<node id="-6646" lat="62.0732305513" lon="5.82469166621">
		<tag k="name" v="Øybø" />
		<tag k="place" v="locality" />
		<tag k="ssr:stedsnr" v="940332" />
	</node>
	<node id="-7669" lat="62.032858337" lon="5.63705834121">
		<tag k="name" v="Nonshornurene" />
		<tag k="natural" v="scree" />
		<tag k="ssr:stedsnr" v="815811" />
	</node>
	<node id="-5620" lat="62.1100166625" lon="5.67642499361">
		<tag k="name" v="Elvane" />
		<tag k="natural" v="wetland" />
		<tag k="ssr:stedsnr" v="27039" />
	</node>
	<node id="-6642" lat="62.0700055539" lon="5.76141944745">
		<tag k="name" v="Hjellurene" />
		<tag k="natural" v="scree" />
		<tag k="ssr:stedsnr" v="940223" />
	</node>
	<node id="-6129" lat="62.0731611122" lon="5.83643887949">
		<tag k="name" v="Gråura" />
		<tag k="natural" v="scree" />
		<tag k="ssr:stedsnr" v="515336" />
	</node>
	<node id="-6640" lat="62.0664416695" lon="5.74836944581">
		<tag k="name" v="Lauasåen" />
		<tag k="natural" v="wetland" />
		<tag k="ssr:stedsnr" v="940216" />
	</node>
	<node id="-5601" lat="62.1466722202" lon="5.60689444487">
		<tag k="name" v="Måsdalsmyrane" />
		<tag k="natural" v="wetland" />
		<tag k="ssr:stedsnr" v="220969" />
	</node>
	<node id="-7134" lat="62.1360888861" lon="5.67569721469">
		<tag k="name" v="Øyra" />
		<tag k="place" v="locality" />
		<tag k="ssr:stedsnr" v="331163" />
	</node>
	<node id="-5597" lat="62.1818527752" lon="5.50440554642">
		<tag k="name" v="Sæmyrane" />
		<tag k="natural" v="wetland" />
		<tag k="ssr:stedsnr" v="220934" />
	</node>
	<node id="-6617" lat="62.1011138892" lon="5.68591943912">
		<tag k="name" v="Fursura" />
		<tag k="natural" v="scree" />
		<tag k="ssr:stedsnr" v="937881" />
	</node>
	<node id="-6613" lat="62.0120083295" lon="5.665352783">
		<tag k="name" v="Vasskilje" />
		<tag k="natural" v="wetland" />
		<tag k="ssr:stedsnr" v="937796" />
	</node>
	<node id="-7124" lat="62.1015833311" lon="5.70123334265">
		<tag k="name" v="Urene" />
		<tag k="natural" v="scree" />
		<tag k="ssr:stedsnr" v="330894" />
	</node>
	<node id="-7123" lat="62.1060388866" lon="5.68528611397">
		<tag k="name" v="Nonssteinen" />
		<tag k="natural" v="stone" />
		<tag k="ssr:stedsnr" v="330891" />
	</node>
	<node id="-7632" lat="62.0199027783" lon="5.59271665986">
		<tag k="landuse" v="quarry" />
		<tag k="name" v="Gusdalsbrotet" />
		<tag k="ssr:stedsnr" v="785735" />
	</node>
	<node id="-7118" lat="62.1031111154" lon="5.79865000675">
		<tag k="name" v="Myrane" />
		<tag k="natural" v="wetland" />
		<tag k="ssr:stedsnr" v="330166" />
	</node>
	<node id="-6604" lat="62.1412972258" lon="5.70059721853">
		<tag k="name" v="Glennane" />
		<tag k="natural" v="scree" />
		<tag k="ssr:stedsnr" v="936943" />
	</node>
	<node id="-6091" lat="62.0970805553" lon="5.74685278316">
		<tag k="name" v="Vikøyrane" />
		<tag k="place" v="locality" />
		<tag k="ssr:stedsnr" v="512205" />
	</node>
	<node id="-7112" lat="62.0491027772" lon="5.64426944056">
		<tag k="name" v="Fonna" />
		<tag k="natural" v="scree" />
		<tag k="ssr:stedsnr" v="329771" />
	</node>
	<node id="-7623" lat="62.0312444472" lon="5.66514443617">
		<tag k="name" v="Ljosamyrane" />
		<tag k="natural" v="wetland" />
		<tag k="ssr:stedsnr" v="875774" />
	</node>
	<node id="-7622" lat="62.1236083291" lon="5.48520278591">
		<tag k="name" v="Breidemyra" />
		<tag k="natural" v="wetland" />
		<tag k="ssr:stedsnr" v="875769" />
	</node>
	<node id="-6082" lat="62.0725000017" lon="5.73331112039">
		<tag k="name" v="Åreskiftet" />
		<tag k="place" v="locality" />
		<tag k="ssr:stedsnr" v="511741" />
	</node>
	<node id="-7617" lat="62.1498500011" lon="5.56971667555">
		<tag k="name" v="Myrane" />
		<tag k="natural" v="wetland" />
		<tag k="ssr:stedsnr" v="766994" />
	</node>
	<node id="-6645" lat="62.0385111133" lon="5.69419166426">
		<tag k="name" v="Gråura" />
		<tag k="natural" v="scree" />
		<tag k="ssr:stedsnr" v="940326" />
	</node>
	<node id="-6070" lat="62.1802055562" lon="5.52591945376">
		<tag k="name" v="Årsetmyrane" />
		<tag k="natural" v="wetland" />
		<tag k="ssr:stedsnr" v="402907" />
	</node>
	<node id="-6576" lat="62.0322222221" lon="5.69117223022">
		<tag k="name" v="Mariøyra" />
		<tag k="place" v="locality" />
		<tag k="ssr:stedsnr" v="818459" />
	</node>
	<node id="-6571" lat="62.0416694426" lon="5.73316111684">
		<tag k="name" v="Krokane" />
		<tag k="place" v="locality" />
		<tag k="ssr:stedsnr" v="818063" />
	</node>
	<node id="-7587" lat="62.0712999995" lon="5.74227499167">
		<tag k="name" v="Øvremyra" />
		<tag k="natural" v="wetland" />
		<tag k="ssr:stedsnr" v="757369" />
	</node>
	<node id="-7068" lat="62.0103222198" lon="5.55739167042">
		<tag k="name" v="Gråura" />
		<tag k="natural" v="scree" />
		<tag k="ssr:stedsnr" v="210571" />
	</node>
	<node id="-7575" lat="62.0547583307" lon="5.60461667612">
		<tag k="name" v="Haugeøyra" />
		<tag k="place" v="locality" />
		<tag k="ssr:stedsnr" v="756070" />
	</node>
	<node id="-6026" lat="62.0983138928" lon="5.6181388812">
		<tag k="name" v="Trenaskogen" />
		<tag k="place" v="locality" />
		<tag k="ssr:stedsnr" v="496447" />
	</node>
	<node id="-7041" lat="62.0793861102" lon="5.73080833032">
		<tag k="name" v="Årøyane" />
		<tag k="place" v="locality" />
		<tag k="ssr:stedsnr" v="208779" />
	</node>
	<node id="-7020" lat="62.1787694485" lon="5.73831943896">
		<tag k="name" v="Årskogøyrane" />
		<tag k="place" v="locality" />
		<tag k="ssr:stedsnr" v="207457" />
	</node>
	<node id="-5990" lat="62.0402361144" lon="5.8343083334">
		<tag k="name" v="Myrane" />
		<tag k="natural" v="wetland" />
		<tag k="ssr:stedsnr" v="333218" />
	</node>
	<node id="-5986" lat="62.154758335" lon="5.78438055761">
		<tag k="name" v="Rindemyrane" />
		<tag k="natural" v="wetland" />
		<tag k="ssr:stedsnr" v="330833" />
	</node>
	<node id="-5976" lat="62.1215222236" lon="5.57110278601">
		<tag k="name" v="Nipemyrane" />
		<tag k="natural" v="wetland" />
		<tag k="ssr:stedsnr" v="329338" />
	</node>
	<node id="-6486" lat="62.0990666647" lon="5.5985749916">
		<tag k="name" v="Våleitet" />
		<tag k="natural" v="wetland" />
		<tag k="ssr:stedsnr" v="695266" />
	</node>
	<node id="-6484" lat="62.1037333317" lon="5.60154999564">
		<tag k="name" v="Storeidsmyrane" />
		<tag k="natural" v="wetland" />
		<tag k="ssr:stedsnr" v="695259" />
	</node>
	<node id="-6976" lat="62.1828249989" lon="5.7883138815">
		<tag k="name" v="Røysane" />
		<tag k="natural" v="scree" />
		<tag k="ssr:stedsnr" v="151896" />
	</node>
	<node id="-5948" lat="62.0255361096" lon="5.70821388596">
		<tag k="name" v="Vorskormyrane" />
		<tag k="natural" v="wetland" />
		<tag k="ssr:stedsnr" v="272574" />
	</node>
	<node id="-6459" lat="62.1635583308" lon="5.45881943946">
		<tag k="name" v="Klovsteinen" />
		<tag k="natural" v="stone" />
		<tag k="ssr:stedsnr" v="887896" />
	</node>
	<node id="-5937" lat="62.0869805557" lon="5.59938887942">
		<tag k="name" v="Løken" />
		<tag k="natural" v="wetland" />
		<tag k="ssr:stedsnr" v="270005" />
	</node>
	<node id="-7470" lat="62.0739277791" lon="5.76572222095">
		<tag k="name" v="Storemyra" />
		<tag k="natural" v="wetland" />
		<tag k="ssr:stedsnr" v="635408" />
	</node>
	<node id="-6445" lat="62.1813194451" lon="5.83043888971">
		<tag k="name" v="Kråmyra" />
		<tag k="natural" v="wetland" />
		<tag k="ssr:stedsnr" v="678130" />
	</node>
	<node id="-7468" lat="62.0526333302" lon="5.68970277497">
		<tag k="name" v="Storura" />
		<tag k="natural" v="scree" />
		<tag k="ssr:stedsnr" v="635133" />
	</node>
	<node id="-6439" lat="62.0151527745" lon="5.70336666995">
		<tag k="name" v="Bruten" />
		<tag k="natural" v="wetland" />
		<tag k="ssr:stedsnr" v="880630" />
	</node>
	<node id="-6436" lat="62.0832055541" lon="5.72200277434">
		<tag k="name" v="Koppeurene" />
		<tag k="natural" v="scree" />
		<tag k="ssr:stedsnr" v="879943" />
	</node>
	<node id="-6946" lat="62.1251861115" lon="5.63501389477">
		<tag k="name" v="Svartedeplane" />
		<tag k="natural" v="wetland" />
		<tag k="ssr:stedsnr" v="148147" />
	</node>
	<node id="-6944" lat="62.1301444446" lon="5.6285055572">
		<tag k="name" v="Løkane" />
		<tag k="natural" v="wetland" />
		<tag k="ssr:stedsnr" v="148141" />
	</node>
	<node id="-6704" lat="62.1429944413" lon="5.64803611314">
		<tag k="name" v="Stolpeurene" />
		<tag k="natural" v="scree" />
		<tag k="ssr:stedsnr" v="948965" />
	</node>
	<node id="-7454" lat="62.1041527752" lon="5.68869722992">
		<tag k="name" v="Blåsvæda" />
		<tag k="place" v="locality" />
		<tag k="ssr:stedsnr" v="633885" />
	</node>
	<node id="-6427" lat="62.0604166668" lon="5.75399722283">
		<tag k="name" v="Litlekloppmyra" />
		<tag k="natural" v="wetland" />
		<tag k="ssr:stedsnr" v="879160" />
	</node>
	<node id="-5593" lat="62.1810194473" lon="5.45288055858">
		<tag k="name" v="Slettefonna" />
		<tag k="place" v="locality" />
		<tag k="ssr:stedsnr" v="219911" />
	</node>
	<node id="-6420" lat="62.0036250005" lon="5.57969999419">
		<tag k="landuse" v="quarry" />
		<tag k="name" v="Grofsabrotet" />
		<tag k="ssr:stedsnr" v="664734" />
	</node>
	<node id="-6419" lat="62.0799444444" lon="5.67217221318">
		<tag k="name" v="Storevassura" />
		<tag k="natural" v="scree" />
		<tag k="ssr:stedsnr" v="878082" />
	</node>
	<node id="-6930" lat="62.1016055519" lon="5.79029444996">
		<tag k="name" v="Storeneset" />
		<tag k="place" v="locality" />
		<tag k="ssr:stedsnr" v="147133" />
	</node>
	<node id="-5904" lat="62.0585555535" lon="5.70661111484">
		<tag k="name" v="Åpet" />
		<tag k="place" v="locality" />
		<tag k="ssr:stedsnr" v="454234" />
	</node>
	<node id="-6413" lat="62.0332666655" lon="5.53544444469">
		<tag k="name" v="Holen" />
		<tag k="place" v="locality" />
		<tag k="ssr:stedsnr" v="877424" />
	</node>
	<node id="-6922" lat="62.1491138883" lon="5.69066666902">
		<tag k="name" v="Bergesteinane" />
		<tag k="natural" v="scree" />
		<tag k="ssr:stedsnr" v="146892" />
	</node>
	<node id="-5932" lat="62.0110722187" lon="5.62023055705">
		<tag k="name" v="Hellebostmyrane" />
		<tag k="natural" v="wetland" />
		<tag k="ssr:stedsnr" v="269705" />
	</node>
	<node id="-5893" lat="62.0765249988" lon="5.72349166915">
		<tag k="name" v="Ulasteinen" />
		<tag k="natural" v="stone" />
		<tag k="ssr:stedsnr" v="451797" />
	</node>
	<node id="-6403" lat="62.053822221" lon="5.66504444968">
		<tag k="name" v="Breidemyrane" />
		<tag k="natural" v="wetland" />
		<tag k="ssr:stedsnr" v="876911" />
	</node>
	<node id="-6913" lat="62.1023305544" lon="5.5998750062">
		<tag k="name" v="Tunheimsmyrane" />
		<tag k="natural" v="wetland" />
		<tag k="ssr:stedsnr" v="132400" />
	</node>
	<node id="-6912" lat="62.0913583345" lon="5.6276722225">
		<tag k="name" v="Togemyrane" />
		<tag k="natural" v="wetland" />
		<tag k="ssr:stedsnr" v="132390" />
	</node>
	<node id="-5882" lat="61.996438885" lon="5.55679999623">
		<tag k="name" v="Breimyrane" />
		<tag k="natural" v="wetland" />
		<tag k="ssr:stedsnr" v="451501" />
	</node>
	<node id="-5872" lat="62.1845444488" lon="5.79605556372">
		<tag k="name" v="Stranda" />
		<tag k="place" v="locality" />
		<tag k="ssr:stedsnr" v="212918" />
	</node>
	<node id="-7405" lat="62.1492638878" lon="5.47000832763">
		<tag k="name" v="Jostøylurene" />
		<tag k="natural" v="scree" />
		<tag k="ssr:stedsnr" v="583934" />
	</node>
	<node id="-5868" lat="62.0712833315" lon="5.74658054707">
		<tag k="name" v="Nedremyra" />
		<tag k="natural" v="wetland" />
		<tag k="ssr:stedsnr" v="211008" />
	</node>
	<node id="-6372" lat="62.1148527771" lon="5.52902500919">
		<tag k="name" v="Vardefjellsmyrane" />
		<tag k="natural" v="wetland" />
		<tag k="ssr:stedsnr" v="632713" />
	</node>
	<node id="-6371" lat="62.1194277778" lon="5.50534166905">
		<tag k="name" v="Løkane" />
		<tag k="natural" v="wetland" />
		<tag k="ssr:stedsnr" v="632712" />
	</node>
	<node id="-7393" lat="62.1034611121" lon="5.82478610172">
		<tag k="name" v="Trygesteinen" />
		<tag k="natural" v="stone" />
		<tag k="ssr:stedsnr" v="576278" />
	</node>
	<node id="-6364" lat="62.0005055542" lon="5.56566389574">
		<tag k="landuse" v="quarry" />
		<tag k="name" v="Halsebrotet" />
		<tag k="ssr:stedsnr" v="725701" />
	</node>
	<node id="-7384" lat="62.0912499973" lon="5.60660000099">
		<tag k="name" v="Brudemyra" />
		<tag k="natural" v="wetland" />
		<tag k="ssr:stedsnr" v="574038" />
	</node>
	<node id="-6606" lat="62.0634444442" lon="5.63017222834">
		<tag k="name" v="Storura" />
		<tag k="natural" v="scree" />
		<tag k="ssr:stedsnr" v="936950" />
	</node>
	<node id="-6866" lat="62.057136114" lon="5.68886388191">
		<tag k="name" v="Nonsura" />
		<tag k="natural" v="scree" />
		<tag k="ssr:stedsnr" v="90115" />
	</node>
	<node id="-6351" lat="62.0745000024" lon="5.82711110412">
		<tag k="name" v="Langura" />
		<tag k="natural" v="scree" />
		<tag k="ssr:stedsnr" v="576319" />
	</node>
	<node id="-5836" lat="62.1612583302" lon="5.65154166824">
		<tag k="name" v="Lidaura" />
		<tag k="natural" v="scree" />
		<tag k="ssr:stedsnr" v="281999" />
	</node>
	<node id="-7364" lat="62.1202499995" lon="5.69911944505">
		<tag k="name" v="Skaraura" />
		<tag k="natural" v="scree" />
		<tag k="ssr:stedsnr" v="572802" />
	</node>
	<node id="-6338" lat="62.1333777769" lon="5.57733610404">
		<tag k="name" v="Myrane" />
		<tag k="natural" v="wetland" />
		<tag k="ssr:stedsnr" v="571332" />
	</node>
	<node id="-6331" lat="62.1546194402" lon="5.52780834058">
		<tag k="name" v="Myrane" />
		<tag k="natural" v="wetland" />
		<tag k="ssr:stedsnr" v="705998" />
	</node>
	<node id="-6841" lat="62.1754777787" lon="5.75080832968">
		<tag k="name" v="Kimyra" />
		<tag k="natural" v="wetland" />
		<tag k="ssr:stedsnr" v="87898" />
	</node>
	<node id="-7350" lat="62.1422222254" lon="5.7048222288">
		<tag k="name" v="Blåsvedet" />
		<tag k="place" v="locality" />
		<tag k="ssr:stedsnr" v="571959" />
	</node>
	<node id="-6837" lat="62.1284833302" lon="5.73777500331">
		<tag k="name" v="Heia" />
		<tag k="natural" v="wetland" />
		<tag k="ssr:stedsnr" v="87788" />
	</node>
	<node id="-6830" lat="61.9969583308" lon="5.57451666888">
		<tag k="name" v="Løken" />
		<tag k="place" v="locality" />
		<tag k="ssr:stedsnr" v="87575" />
	</node>
	<node id="-6827" lat="62.0221055556" lon="5.6393055518">
		<tag k="name" v="Depelen" />
		<tag k="natural" v="wetland" />
		<tag k="ssr:stedsnr" v="87697" />
	</node>
	<node id="-6817" lat="62.0885083295" lon="5.68724165859">
		<tag k="name" v="Blåsvædmyra" />
		<tag k="natural" v="wetland" />
		<tag k="ssr:stedsnr" v="86833" />
	</node>
	<node id="-5790" lat="62.0420138847" lon="5.80841944294">
		<tag k="name" v="Mørkevassvollen" />
		<tag k="natural" v="wetland" />
		<tag k="ssr:stedsnr" v="273201" />
	</node>
	<node id="-7325" lat="62.1718388916" lon="5.48408055623">
		<tag k="name" v="Heida" />
		<tag k="natural" v="wetland" />
		<tag k="ssr:stedsnr" v="523943" />
	</node>
	<node id="-6292" lat="62.0178722183" lon="5.71114721379">
		<tag k="name" v="Skredene" />
		<tag k="natural" v="scree" />
		<tag k="ssr:stedsnr" v="698584" />
	</node>
	<node id="-6288" lat="62.0297472241" lon="5.68522223019">
		<tag k="name" v="Ljosemyra" />
		<tag k="natural" v="wetland" />
		<tag k="ssr:stedsnr" v="697437" />
	</node>
	<node id="-5769" lat="62.1014722204" lon="5.67927221388">
		<tag k="name" v="Sessane" />
		<tag k="natural" v="stone" />
		<tag k="ssr:stedsnr" v="270034" />
	</node>
	<node id="-6280" lat="62.0831472245" lon="5.67553611435">
		<tag k="name" v="Store-vassmyrane" />
		<tag k="natural" v="wetland" />
		<tag k="ssr:stedsnr" v="696085" />
	</node>
	<node id="-6265" lat="62.0128194431" lon="5.65174722103">
		<tag k="name" v="Sivmyra" />
		<tag k="natural" v="wetland" />
		<tag k="ssr:stedsnr" v="694749" />
	</node>
	<node id="-6263" lat="62.0948194473" lon="5.6909555504">
		<tag k="name" v="Revura" />
		<tag k="natural" v="scree" />
		<tag k="ssr:stedsnr" v="694851" />
	</node>
	<node id="-6237" lat="62.0547055545" lon="5.7065027727">
		<tag k="name" v="Trollholene" />
		<tag k="place" v="locality" />
		<tag k="ssr:stedsnr" v="515217" />
	</node>
	<node id="-5720" lat="62.1874111126" lon="5.47402500709">
		<tag k="name" v="Skinsteinen" />
		<tag k="natural" v="stone" />
		<tag k="ssr:stedsnr" v="97908" />
	</node>
	<node id="-7222" lat="62.0575444446" lon="5.63145833912">
		<tag k="name" v="Loksmyra" />
		<tag k="natural" v="wetland" />
		<tag k="ssr:stedsnr" v="390968" />
	</node>
	<node id="-7216" lat="62.0254972252" lon="5.66628889715">
		<tag k="name" v="Vassdalsmyrane" />
		<tag k="natural" v="wetland" />
		<tag k="ssr:stedsnr" v="390738" />
	</node>
	<node id="-7723" lat="62.1363499957" lon="5.81516111763">
		<tag k="name" v="Okla" />
		<tag k="natural" v="scree" />
		<tag k="ssr:stedsnr" v="832396" />
	</node>
	<node id="-7720" lat="62.1386250012" lon="5.45477222616">
		<tag k="name" v="Myrane" />
		<tag k="natural" v="wetland" />
		<tag k="ssr:stedsnr" v="827987" />
	</node>
	<node id="-5670" lat="62.0542694421" lon="5.65893888064">
		<tag k="name" v="Sævmyra" />
		<tag k="natural" v="wetland" />
		<tag k="ssr:stedsnr" v="86963" />
	</node>
	<node id="-5666" lat="62.0791722238" lon="5.72382499152">
		<tag k="name" v="Gråura" />
		<tag k="natural" v="scree" />
		<tag k="ssr:stedsnr" v="86769" />
	</node>
	<node id="-7713" lat="62.1428527741" lon="5.49588610675">
		<tag k="name" v="Nipemyrane" />
		<tag k="natural" v="wetland" />
		<tag k="ssr:stedsnr" v="827937" />
	</node>
	<node id="-6172" lat="62.1073277764" lon="5.83002499807">
		<tag k="name" v="Trygesteinheia" />
		<tag k="natural" v="wetland" />
		<tag k="ssr:stedsnr" v="455270" />
	</node>
	<node id="-6676" lat="62.1484805545" lon="5.69943889176">
		<tag k="name" v="Blankesvedet" />
		<tag k="place" v="locality" />
		<tag k="ssr:stedsnr" v="875961" />
	</node>
	<node id="-7187" lat="62.088613886" lon="5.71734721875">
		<tag k="name" v="Bulegene" />
		<tag k="place" v="locality" />
		<tag k="ssr:stedsnr" v="374892" />
	</node>
	<node id="-7682" lat="62.0366583372" lon="5.53055278655">
		<tag k="name" v="Ospene" />
		<tag k="place" v="locality" />
		<tag k="ssr:stedsnr" v="816407" />
	</node>
	<node id="-7083" lat="62.0812416682" lon="5.80719722732">
		<tag k="name" v="Fonna" />
		<tag k="place" v="locality" />
		<tag k="ssr:stedsnr" v="212356" />
	</node>
</osm>
