<?xml version="1.0" encoding="UTF-8"?>
<osm version="0.6" generator="osmapis">
	<node lat="61.97285000061343" lon="5.557300003418477" id="-2762">
		<tag k="historic" v="shieling" />
		<tag k="name" v="Grofsesætra" />
		<tag k="place" v="isolated_dwelling" />
		<tag k="ssr:stedsnr" v="10039" />
	</node>
	<node lat="61.999238186936" lon="5.620089369185139" id="-2764">
		<tag k="fixme" v="consider place=hamlet" />
		<tag k="name" v="Lida" />
		<tag k="place" v="farm" />
		<tag k="ssr:stedsnr" v="10211" />
	</node>
	<node lat="62.01601110888114" lon="5.5572777791366175" id="-2768">
		<tag k="name" v="Vika" />
		<tag k="place" v="farm" />
		<tag k="ssr:stedsnr" v="11201" />
	</node>
	<node lat="62.07051111146148" lon="5.525186118064634" id="-2770">
		<tag k="name" v="Løvik" />
		<tag k="place" v="farm" />
		<tag k="ssr:stedsnr" v="11299" />
	</node>
	<node lat="62.01514671389149" lon="5.4942731463364725" id="-2773">
		<tag k="alt_name" v="Skorge, in;Indre Skorge" />
		<tag k="fixme" v="consider place=hamlet" />
		<tag k="name" v="Skorge" />
		<tag k="place" v="farm" />
		<tag k="ssr:stedsnr" v="11183" />
	</node>
	<node lat="62.00445840351142" lon="5.562708689063865" id="-2775">
		<tag k="fixme" v="consider place=hamlet" />
		<tag k="name" v="Kroken" />
		<tag k="place" v="farm" />
		<tag k="ssr:stedsnr" v="11190" />
	</node>
	<node lat="62.16571389171294" lon="5.64375555016062" id="-2779">
		<tag k="name" v="Indretun" />
		<tag k="place" v="farm" />
		<tag k="ssr:stedsnr" v="11478" />
	</node>
	<node lat="62.16805833593099" lon="5.559497220474938" id="-2782">
		<tag k="fixme" v="consider place=hamlet" />
		<tag k="name" v="Sørbrandal" />
		<tag k="place" v="village" />
		<tag k="ssr:stedsnr" v="21308" />
	</node>
	<node lat="62.10422777496089" lon="5.545449993100857" id="-2787">
		<tag k="name" v="Tørla" />
		<tag k="place" v="farm" />
		<tag k="ssr:stedsnr" v="26620" />
	</node>
	<node lat="62.095352779422605" lon="5.679461119204053" id="-2790">
		<tag k="name" v="Grønæda" />
		<tag k="place" v="isolated_dwelling" />
		<tag k="ssr:stedsnr" v="27184" />
	</node>
	<node lat="62.165111112432065" lon="5.459855554500336" id="-2805">
		<tag k="name" v="Olastøylen" />
		<tag k="place" v="locality" />
		<tag k="ssr:stedsnr" v="37902" />
	</node>
	<node lat="62.18353055220937" lon="5.792625004134738" id="-2807">
		<tag k="name" v="Enebakk" />
		<tag k="place" v="isolated_dwelling" />
		<tag k="ssr:stedsnr" v="38801" />
	</node>
	<node lat="62.08459722174921" lon="5.731388889043181" id="-2823">
		<tag k="name" v="Myrvang" />
		<tag k="place" v="farm" />
		<tag k="ssr:stedsnr" v="71835" />
	</node>
	<node lat="62.07150555241681" lon="5.819125003430311" id="-2824">
		<tag k="name" v="Bakken" />
		<tag k="place" v="farm" />
		<tag k="ssr:stedsnr" v="71941" />
	</node>
	<node lat="62.03885833384296" lon="5.666441675483984" id="-2834">
		<tag k="name" v="Kilebrekka" />
		<tag k="place" v="locality" />
		<tag k="ssr:stedsnr" v="86773" />
	</node>
	<node lat="62.140713887490726" lon="5.792302774863878" id="-2853">
		<tag k="name" v="Riddarbu" />
		<tag k="place" v="isolated_dwelling" />
		<tag k="ssr:stedsnr" v="88885" />
	</node>
	<node lat="62.05623055595496" lon="5.70700278089464" id="-2860">
		<tag k="name" v="Koppehaugen" />
		<tag k="place" v="farm" />
		<tag k="ssr:stedsnr" v="90210" />
	</node>
	<node lat="62.16595000178769" lon="5.566733341376249" id="-2871">
		<tag k="name" v="Strand" />
		<tag k="place" v="farm" />
		<tag k="ssr:stedsnr" v="99981" />
	</node>
	<node lat="62.087348110860795" lon="5.575247258252301" id="-2877">
		<tag k="alt_name" v="Tunheim, yt" />
		<tag k="fixme" v="consider place=hamlet" />
		<tag k="name" v="Ytre Tunheim" />
		<tag k="place" v="farm" />
		<tag k="ssr:stedsnr" v="132308" />
	</node>
	<node lat="62.11340497164581" lon="5.715873099770621" id="-2879">
		<tag k="alt_name" v="Sætre, ytre" />
		<tag k="fixme" v="consider place=hamlet" />
		<tag k="name" v="Ytste Sætre" />
		<tag k="place" v="farm" />
		<tag k="ssr:stedsnr" v="132410" />
	</node>
	<node lat="62.05987221775097" lon="5.837555551245599" id="-2882">
		<tag k="historic" v="shieling" />
		<tag k="name" v="Haugen" />
		<tag k="place" v="isolated_dwelling" />
		<tag k="ssr:stedsnr" v="132905" />
	</node>
	<node lat="62.06865277498704" lon="5.829113891645878" id="-2883">
		<tag k="alt_name" v="Høgevoll" />
		<tag k="name" v="Høgvoll" />
		<tag k="place" v="farm" />
		<tag k="ssr:stedsnr" v="132913" />
	</node>
	<node lat="62.05597222653618" lon="5.7493416649224836" id="-2884">
		<tag k="historic" v="shieling" />
		<tag k="name" v="Røfsdalssætra" />
		<tag k="place" v="isolated_dwelling" />
		<tag k="ssr:stedsnr" v="132922" />
	</node>
	<node lat="62.03008888845178" lon="5.528099997663135" id="-2888">
		<tag k="fixme" v="consider place=hamlet" />
		<tag k="name" v="Tue" />
		<tag k="place" v="village" />
		<tag k="ssr:stedsnr" v="253361" />
	</node>
	<node lat="62.07324255346692" lon="5.527451260027415" id="-2889">
		<tag k="fixme" v="consider place=hamlet" />
		<tag k="name" v="Slagnes" />
		<tag k="place" v="farm" />
		<tag k="ssr:stedsnr" v="253369" />
	</node>
	<node lat="62.13255277635871" lon="5.631305546429514" id="-2896">
		<tag k="name" v="Sandnessætra" />
		<tag k="place" v="isolated_dwelling" />
		<tag k="ssr:stedsnr" v="253451" />
	</node>
	<node lat="62.16817434243827" lon="5.711407347703748" id="-2898">
		<tag k="alt_name" v="Rota" />
		<tag k="fixme" v="consider place=hamlet" />
		<tag k="name" v="Rot" />
		<tag k="place" v="farm" />
		<tag k="ssr:stedsnr" v="253495" />
	</node>
	<node lat="62.079008336301754" lon="5.739386108135407" id="-2902">
		<tag k="name" v="Reiten" />
		<tag k="place" v="farm" />
		<tag k="ssr:stedsnr" v="253842" />
	</node>
	<node lat="62.10420853953536" lon="5.737928927793002" id="-2905">
		<tag k="alt_name" v="Vidlog" />
		<tag k="fixme" v="consider place=hamlet" />
		<tag k="name" v="Vidlogane" />
		<tag k="place" v="farm" />
		<tag k="ssr:stedsnr" v="253861" />
	</node>
	<node lat="62.10703610820381" lon="5.754130563392599" id="-2906">
		<tag k="historic" v="shieling" />
		<tag k="name" v="Brenslene" />
		<tag k="place" v="isolated_dwelling" />
		<tag k="ssr:stedsnr" v="253865" />
	</node>
	<node lat="62.156008331481765" lon="5.780902773914866" id="-2911">
		<tag k="historic" v="shieling" />
		<tag k="name" v="Knarrdalsselet" />
		<tag k="place" v="isolated_dwelling" />
		<tag k="ssr:stedsnr" v="254043" />
	</node>
	<node lat="62.16247777675097" lon="5.787477784301882" id="-2914">
		<tag k="name" v="Litlerovd-støylen" />
		<tag k="place" v="locality" />
		<tag k="ssr:stedsnr" v="146912" />
	</node>
	<node lat="62.163713885011475" lon="5.802427770692638" id="-2924">
		<tag k="name" v="Vedeldstøylen" />
		<tag k="place" v="locality" />
		<tag k="ssr:stedsnr" v="147909" />
	</node>
	<node lat="62.07157500098223" lon="5.824644438186128" id="-2936">
		<tag k="name" v="Støylen" />
		<tag k="place" v="farm" />
		<tag k="ssr:stedsnr" v="263928" />
	</node>
	<node lat="62.105019751577984" lon="5.579195695515809" id="-2965">
		<tag k="name" v="Myrset" />
		<tag k="place" v="farm" />
		<tag k="ssr:stedsnr" v="210261" />
	</node>
	<node lat="62.00164444583092" lon="5.516688890360324" id="-2966">
		<tag k="historic" v="shieling" />
		<tag k="name" v="Vauleleitet" />
		<tag k="place" v="isolated_dwelling" />
		<tag k="ssr:stedsnr" v="210424" />
	</node>
	<node lat="62.072499997515486" lon="5.58592777860463" id="-2997">
		<tag k="name" v="Krokeneset" />
		<tag k="place" v="farm" />
		<tag k="ssr:stedsnr" v="271036" />
	</node>
	<node lat="62.08527222330369" lon="5.728327772844571" id="-3000">
		<tag k="historic" v="shieling" />
		<tag k="name" v="Gardsstøyl" />
		<tag k="place" v="isolated_dwelling" />
		<tag k="ssr:stedsnr" v="223783" />
	</node>
	<node lat="62.05071388839961" lon="5.733772216804912" id="-3036">
		<tag k="name" v="Nyestøylen" />
		<tag k="place" v="locality" />
		<tag k="ssr:stedsnr" v="454194" />
	</node>
	<node lat="62.02304763199292" lon="5.603703251381521" id="-3057">
		<tag k="fixme" v="consider place=hamlet" />
		<tag k="name" v="Berge" />
		<tag k="place" v="farm" />
		<tag k="ssr:stedsnr" v="253236" />
	</node>
	<node lat="62.04290724334905" lon="5.5285104951193125" id="-3059">
		<tag k="alt_name" v="Torvik, store;Prestegarden" />
		<tag k="name" v="Store Torvik" />
		<tag k="place" v="farm" />
		<tag k="ssr:stedsnr" v="253324" />
	</node>
	<node lat="62.03264167051589" lon="5.645313888178503" id="-3061">
		<tag k="fixme" v="consider place=hamlet" />
		<tag k="name" v="Årstøylen" />
		<tag k="place" v="farm" />
		<tag k="ssr:stedsnr" v="253334" />
	</node>
	<node lat="62.09310513803682" lon="5.7524893866462605" id="-3066">
		<tag k="fixme" v="consider place=hamlet" />
		<tag k="name" v="Vik" />
		<tag k="place" v="farm" />
		<tag k="ssr:stedsnr" v="253880" />
	</node>
	<node lat="62.0326833375228" lon="5.514705547543327" id="-3092">
		<tag k="name" v="Reiten" />
		<tag k="place" v="farm" />
		<tag k="ssr:stedsnr" v="270421" />
	</node>
	<node lat="62.039777775724545" lon="5.8292861197412495" id="-3097">
		<tag k="name" v="Buestøylen" />
		<tag k="place" v="locality" />
		<tag k="ssr:stedsnr" v="273204" />
	</node>
	<node lat="62.163553735762626" lon="5.443963916897292" id="-3099">
		<tag k="name" v="Håberg" />
		<tag k="place" v="hamlet" />
		<tag k="ssr:stedsnr" v="279023" />
	</node>
	<node lat="62.16735833429819" lon="5.5604500042116305" id="-3106">
		<tag k="name" v="Solvoll" />
		<tag k="place" v="farm" />
		<tag k="ssr:stedsnr" v="281985" />
	</node>
	<node lat="62.14077222628914" lon="5.670844446672546" id="-3108">
		<tag k="name" v="Årset" />
		<tag k="place" v="isolated_dwelling" />
		<tag k="ssr:stedsnr" v="283720" />
	</node>
	<node lat="62.168747220382436" lon="5.451886104827948" id="-3113">
		<tag k="name" v="Kjerringstøylen" />
		<tag k="place" v="locality" />
		<tag k="ssr:stedsnr" v="462900" />
	</node>
	<node lat="62.0433083325216" lon="5.532008337149512" id="-3114">
		<tag k="alt_name" v="Torvikfeltet" />
		<tag k="name" v="Torvika" />
		<tag k="place" v="quarter" />
		<tag k="ssr:stedsnr" v="300776" />
	</node>
	<node lat="62.15509722127874" lon="5.441849994531241" id="-3115">
		<tag k="name" v="Lote" />
		<tag k="place" v="farm" />
		<tag k="ssr:stedsnr" v="463985" />
	</node>
	<node lat="62.17804567468531" lon="5.743801662480341" id="-3122">
		<tag k="alt_name" v="Årskog" />
		<tag k="fixme" v="consider place=hamlet" />
		<tag k="name" v="Årskogane" />
		<tag k="place" v="farm" />
		<tag k="ssr:stedsnr" v="314125" />
	</node>
	<node lat="62.110641451917516" lon="5.439151164452266" id="-3124">
		<tag k="fixme" v="consider place=hamlet" />
		<tag k="name" v="Brudevika" />
		<tag k="place" v="farm" />
		<tag k="ssr:stedsnr" v="314413" />
	</node>
	<node lat="62.10274179602878" lon="5.510033771425485" id="-3126">
		<tag k="alt_name" v="Strand, yt" />
		<tag k="fixme" v="multiple name tags, choose one and add the other to alt_name; consider place=hamlet" />
		<tag k="name" v="Strand;Ytre Strand" />
		<tag k="place" v="farm" />
		<tag k="ssr:stedsnr" v="314473" />
	</node>
	<node lat="62.08827500339723" lon="5.788238888562167" id="-3128">
		<tag k="name" v="Plassen" />
		<tag k="place" v="farm" />
		<tag k="ssr:stedsnr" v="314817" />
	</node>
	<node lat="62.043827779458304" lon="5.650016656959156" id="-3131">
		<tag k="name" v="Litlestøylen" />
		<tag k="place" v="farm" />
		<tag k="ssr:stedsnr" v="329767" />
	</node>
	<node lat="62.17656388814913" lon="5.755383338418212" id="-3133">
		<tag k="name" v="Åsemyra" />
		<tag k="place" v="farm" />
		<tag k="ssr:stedsnr" v="329910" />
	</node>
	<node lat="62.09392221838947" lon="5.681719447655408" id="-3144">
		<tag k="name" v="Gamlestøylen" />
		<tag k="place" v="locality" />
		<tag k="ssr:stedsnr" v="331203" />
	</node>
	<node lat="62.0285565970496" lon="5.532416505897408" id="-3145">
		<tag k="fixme" v="consider place=hamlet" />
		<tag k="name" v="Kriken" />
		<tag k="place" v="farm" />
		<tag k="ssr:stedsnr" v="331409" />
	</node>
	<node lat="62.01564999912079" lon="5.493908334860564" id="-3148">
		<tag k="alt_name" v="Indre Skorge" />
		<tag k="name" v="Skorgetunet" />
		<tag k="place" v="farm" />
		<tag k="ssr:stedsnr" v="331603" />
	</node>
	<node lat="62.167455141200804" lon="5.5514533601420935" id="-3168">
		<tag k="fixme" v="consider place=hamlet" />
		<tag k="name" v="Nedrelid" />
		<tag k="place" v="farm" />
		<tag k="ssr:stedsnr" v="341954" />
	</node>
	<node lat="62.05072777773601" lon="5.6031027768921104" id="-3171">
		<tag k="name" v="Nova" />
		<tag k="place" v="farm" />
		<tag k="ssr:stedsnr" v="358202" />
	</node>
	<node lat="62.049531802581335" lon="5.703106462348285" id="-3176">
		<tag k="fixme" v="consider place=hamlet" />
		<tag k="name" v="Lade" />
		<tag k="place" v="farm" />
		<tag k="ssr:stedsnr" v="374298" />
	</node>
	<node lat="62.130190133184854" lon="5.6707766026833255" id="-3178">
		<tag k="fixme" v="consider place=hamlet" />
		<tag k="name" v="Kolgrova" />
		<tag k="place" v="farm" />
		<tag k="ssr:stedsnr" v="374403" />
	</node>
	<node lat="62.10612054999159" lon="5.574123793246233" id="-3179">
		<tag k="fixme" v="consider place=hamlet" />
		<tag k="name" v="Årøyane" />
		<tag k="place" v="farm" />
		<tag k="ssr:stedsnr" v="374438" />
	</node>
	<node lat="62.15271913297238" lon="5.432112337003337" id="-3180">
		<tag k="fixme" v="consider place=hamlet" />
		<tag k="name" v="Halsen" />
		<tag k="place" v="farm" />
		<tag k="ssr:stedsnr" v="374450" />
	</node>
	<node lat="62.16693373746568" lon="5.627156567346026" id="-3181">
		<tag k="fixme" v="consider place=hamlet" />
		<tag k="name" v="Bjørlykkja" />
		<tag k="place" v="farm" />
		<tag k="ssr:stedsnr" v="374455" />
	</node>
	<node lat="62.17936844814923" lon="5.445997993843415" id="-3182">
		<tag k="alt_name" v="Klovning" />
		<tag k="fixme" v="consider place=hamlet" />
		<tag k="name" v="Klovningen" />
		<tag k="place" v="farm" />
		<tag k="ssr:stedsnr" v="374494" />
	</node>
	<node lat="62.09208611336634" lon="5.773624996337812" id="-3183">
		<tag k="name" v="Espeholen" />
		<tag k="place" v="farm" />
		<tag k="ssr:stedsnr" v="374834" />
	</node>
	<node lat="61.99335894540933" lon="5.5587700494437335" id="-3229">
		<tag k="fixme" v="consider place=hamlet" />
		<tag k="name" v="Gamlesætra" />
		<tag k="place" v="farm" />
		<tag k="ssr:stedsnr" v="435073" />
	</node>
	<node lat="62.12699759388389" lon="5.413118292611639" id="-3232">
		<tag k="fixme" v="consider place=hamlet" />
		<tag k="name" v="Flugevågen" />
		<tag k="place" v="farm" />
		<tag k="ssr:stedsnr" v="435504" />
	</node>
	<node lat="62.0609614643768" lon="5.710861717061807" id="-3234">
		<tag k="fixme" v="consider place=hamlet" />
		<tag k="name" v="Saurdalen" />
		<tag k="place" v="farm" />
		<tag k="ssr:stedsnr" v="435404" />
	</node>
	<node lat="62.10239722111756" lon="5.7974416581261" id="-3237">
		<tag k="historic" v="shieling" />
		<tag k="name" v="Vikesela" />
		<tag k="place" v="isolated_dwelling" />
		<tag k="ssr:stedsnr" v="435867" />
	</node>
	<node lat="62.1976000003541" lon="5.493113886154801" id="-3244">
		<tag k="name" v="Solvang" />
		<tag k="place" v="farm" />
		<tag k="ssr:stedsnr" v="436523" />
	</node>
	<node lat="62.074155556884065" lon="5.545269442283313" id="-3246">
		<tag k="fixme" v="consider place=hamlet" />
		<tag k="name" v="Vik" />
		<tag k="place" v="village" />
		<tag k="ssr:stedsnr" v="449568" />
	</node>
	<node lat="62.08936111159401" lon="5.792869453150961" id="-3267">
		<tag k="name" v="Bakken" />
		<tag k="place" v="farm" />
		<tag k="ssr:stedsnr" v="454473" />
	</node>
	<node lat="62.14208889081879" lon="5.633830547729703" id="-3276">
		<tag k="historic" v="shieling" />
		<tag k="name" v="Lidasætra" />
		<tag k="place" v="isolated_dwelling" />
		<tag k="ssr:stedsnr" v="463967" />
	</node>
	<node lat="62.014049028433554" lon="5.635148074811292" id="-3282">
		<tag k="fixme" v="consider place=hamlet" />
		<tag k="name" v="Ekreimsætra" />
		<tag k="place" v="farm" />
		<tag k="ssr:stedsnr" v="678239" />
	</node>
	<node lat="62.092661631250124" lon="5.713306936053164" id="-3287">
		<tag k="fixme" v="consider place=hamlet" />
		<tag k="name" v="Strand" />
		<tag k="place" v="farm" />
		<tag k="ssr:stedsnr" v="678438" />
	</node>
	<node lat="62.08896666405061" lon="5.739524996876288" id="-3291">
		<tag k="name" v="Syvde" />
		<tag k="place" v="village" />
		<tag k="ssr:stedsnr" v="678846" />
	</node>
	<node lat="62.08378719108832" lon="5.734328560270314" id="-3292">
		<tag k="alt_name" v="Myklebust" />
		<tag k="fixme" v="consider place=hamlet" />
		<tag k="name" v="Myklebost" />
		<tag k="place" v="farm" />
		<tag k="ssr:stedsnr" v="678801" />
	</node>
	<node lat="61.997799996852194" lon="5.619966674662702" id="-3293">
		<tag k="name" v="Trollehaugen" />
		<tag k="place" v="farm" />
		<tag k="ssr:stedsnr" v="495058" />
	</node>
	<node lat="62.14322886806265" lon="5.693859250112958" id="-3296">
		<tag k="alt_name" v="Breidteig" />
		<tag k="fixme" v="consider place=hamlet" />
		<tag k="name" v="Breiteig" />
		<tag k="place" v="farm" />
		<tag k="ssr:stedsnr" v="495464" />
	</node>
	<node lat="62.143341666171715" lon="5.635538897248341" id="-3297">
		<tag k="name" v="Koparnessætra" />
		<tag k="place" v="isolated_dwelling" />
		<tag k="ssr:stedsnr" v="495471" />
	</node>
	<node lat="62.011447723580396" lon="5.587638219753521" id="-3304">
		<tag k="fixme" v="consider place=hamlet" />
		<tag k="name" v="Åhaug" />
		<tag k="place" v="farm" />
		<tag k="ssr:stedsnr" v="496232" />
	</node>
	<node lat="62.073758812163895" lon="5.5509259571569185" id="-3308">
		<tag k="alt_name" v="Vik, ytre" />
		<tag k="fixme" v="consider place=hamlet" />
		<tag k="name" v="Ytre Vik" />
		<tag k="place" v="farm" />
		<tag k="ssr:stedsnr" v="496332" />
	</node>
	<node lat="62.07513498786965" lon="5.622263531544954" id="-3309">
		<tag k="fixme" v="consider place=hamlet" />
		<tag k="name" v="Bakken" />
		<tag k="place" v="farm" />
		<tag k="ssr:stedsnr" v="496337" />
	</node>
	<node lat="62.10280392692854" lon="5.536841305908088" id="-3314">
		<tag k="alt_name" v="Strand, in" />
		<tag k="fixme" v="consider place=hamlet" />
		<tag k="name" v="Indre Strand" />
		<tag k="place" v="farm" />
		<tag k="ssr:stedsnr" v="496455" />
	</node>
	<node lat="62.09159878415325" lon="5.779576138513941" id="-3317">
		<tag k="fixme" v="consider place=hamlet" />
		<tag k="name" v="Brudavollane" />
		<tag k="place" v="farm" />
		<tag k="ssr:stedsnr" v="496815" />
	</node>
	<node lat="62.178597225618844" lon="5.758644438381323" id="-3324">
		<tag k="name" v="Åsvika" />
		<tag k="place" v="farm" />
		<tag k="ssr:stedsnr" v="511906" />
	</node>
	<node lat="62.07655000355149" lon="5.543291667936493" id="-3356">
		<tag k="name" v="Korsneset" />
		<tag k="place" v="quarter" />
		<tag k="ssr:stedsnr" v="525606" />
	</node>
	<node lat="62.140277773244094" lon="5.42181666153929" id="-3358">
		<tag k="fixme" v="consider place=hamlet" />
		<tag k="name" v="Nordstranda" />
		<tag k="place" v="village" />
		<tag k="ssr:stedsnr" v="544743" />
	</node>
	<node lat="62.16991051822069" lon="5.438547975909208" id="-3361">
		<tag k="alt_name" v="Kobbevika" />
		<tag k="fixme" v="consider place=hamlet" />
		<tag k="name" v="Kobbevik" />
		<tag k="place" v="farm" />
		<tag k="ssr:stedsnr" v="556560" />
	</node>
	<node lat="62.17289407566013" lon="5.676426146153739" id="-3362">
		<tag k="fixme" v="consider place=hamlet" />
		<tag k="name" v="Syvdsnes" />
		<tag k="place" v="farm" />
		<tag k="ssr:stedsnr" v="556564" />
	</node>
	<node lat="62.1021054016943" lon="5.742861439456852" id="-3363">
		<tag k="fixme" v="consider place=hamlet" />
		<tag k="name" v="Eikrem" />
		<tag k="place" v="farm" />
		<tag k="ssr:stedsnr" v="556866" />
	</node>
	<node lat="62.070755558492806" lon="5.830086103673079" id="-3364">
		<tag k="name" v="Gardsgarden" />
		<tag k="place" v="farm" />
		<tag k="ssr:stedsnr" v="556918" />
	</node>
	<node lat="62.1483122658557" lon="5.429285782060603" id="-3367">
		<tag k="fixme" v="consider place=hamlet" />
		<tag k="name" v="Molvika" />
		<tag k="place" v="farm" />
		<tag k="ssr:stedsnr" v="557420" />
	</node>
	<node lat="62.08979167137137" lon="5.716338897560611" id="-3370">
		<tag k="name" v="Oseberg" />
		<tag k="place" v="farm" />
		<tag k="ssr:stedsnr" v="557315" />
	</node>
	<node lat="62.05276388699733" lon="5.532624997062123" id="-3372">
		<tag k="name" v="Karisætra" />
		<tag k="place" v="locality" />
		<tag k="ssr:stedsnr" v="557327" />
	</node>
	<node lat="62.11737617260589" lon="5.475749043684691" id="-3385">
		<tag k="historic" v="shieling" />
		<tag k="name" v="Støylen" />
		<tag k="place" v="isolated_dwelling" />
		<tag k="ssr:stedsnr" v="571756" />
	</node>
	<node lat="62.09787222129564" lon="5.794844441402462" id="-3390">
		<tag k="name" v="Landstrykestøylen" />
		<tag k="place" v="locality" />
		<tag k="ssr:stedsnr" v="572166" />
	</node>
	<node lat="62.158222220226094" lon="5.771436105140708" id="-3393">
		<tag k="name" v="Brensla" />
		<tag k="place" v="locality" />
		<tag k="ssr:stedsnr" v="572554" />
	</node>
	<node lat="62.04523055928001" lon="5.648700007064005" id="-3398">
		<tag k="name" v="Sollid" />
		<tag k="place" v="farm" />
		<tag k="ssr:stedsnr" v="572815" />
	</node>
	<node lat="62.04734777214811" lon="5.638602298430925" id="-3399">
		<tag k="fixme" v="consider place=hamlet" />
		<tag k="name" v="Nedrebrekka" />
		<tag k="place" v="farm" />
		<tag k="ssr:stedsnr" v="572816" />
	</node>
	<node lat="62.06162499782422" lon="5.812138893595038" id="-3417">
		<tag k="name" v="Sandfjellstøylen" />
		<tag k="place" v="locality" />
		<tag k="ssr:stedsnr" v="576354" />
	</node>
	<node lat="62.06712222104337" lon="5.6632472218153005" id="-3426">
		<tag k="name" v="Skjervheimsstøylen" />
		<tag k="place" v="isolated_dwelling" />
		<tag k="ssr:stedsnr" v="694956" />
	</node>
	<node lat="62.13055833005207" lon="5.631508330349932" id="-3429">
		<tag k="name" v="Resstøylen" />
		<tag k="place" v="locality" />
		<tag k="ssr:stedsnr" v="695161" />
	</node>
	<node lat="62.186595438254415" lon="5.807388878344082" id="-3442">
		<tag k="alt_name" v="Rise" />
		<tag k="fixme" v="consider place=hamlet" />
		<tag k="name" v="Rese" />
		<tag k="place" v="farm" />
		<tag k="ssr:stedsnr" v="583744" />
	</node>
	<node lat="62.089883334182474" lon="5.7892666670960855" id="-3462">
		<tag k="name" v="Tungastøylen" />
		<tag k="place" v="farm" />
		<tag k="ssr:stedsnr" v="272452" />
	</node>
	<node lat="62.068134945221125" lon="5.595137774653458" id="-3472">
		<tag k="alt_name" v="Hatleneset" />
		<tag k="fixme" v="consider place=hamlet" />
		<tag k="name" v="Hatlenes" />
		<tag k="place" v="farm" />
		<tag k="ssr:stedsnr" v="617386" />
	</node>
	<node lat="62.080397219463855" lon="5.736208328237542" id="-3476">
		<tag k="name" v="Sjurgarden" />
		<tag k="place" v="farm" />
		<tag k="ssr:stedsnr" v="617842" />
	</node>
	<node lat="62.11207703274697" lon="5.720069270667331" id="-3477">
		<tag k="alt_name" v="Sætre, indre" />
		<tag k="fixme" v="consider place=hamlet" />
		<tag k="name" v="Inste Sætre" />
		<tag k="place" v="farm" />
		<tag k="ssr:stedsnr" v="617790" />
	</node>
	<node lat="62.1040444464569" lon="5.554013893588864" id="-3484">
		<tag k="name" v="Rabben" />
		<tag k="place" v="farm" />
		<tag k="ssr:stedsnr" v="633685" />
	</node>
	<node lat="62.11378888746943" lon="5.739308328850173" id="-3486">
		<tag k="name" v="Opsalstøylane" />
		<tag k="place" v="locality" />
		<tag k="ssr:stedsnr" v="633882" />
	</node>
	<node lat="62.07521388827423" lon="5.746405550255028" id="-3500">
		<tag k="name" v="Gamlegarden" />
		<tag k="place" v="locality" />
		<tag k="ssr:stedsnr" v="636395" />
	</node>
	<node lat="62.188144443975396" lon="5.509636110075194" id="-3521">
		<tag k="name" v="Årøyane" />
		<tag k="place" v="farm" />
		<tag k="ssr:stedsnr" v="644987" />
	</node>
	<node lat="61.98201715467737" lon="5.6186438567813335" id="-3530">
		<tag k="historic" v="shieling" />
		<tag k="name" v="Klovestøylen" />
		<tag k="place" v="isolated_dwelling" />
		<tag k="ssr:stedsnr" v="677031" />
	</node>
	<node lat="62.188991664422076" lon="5.825052782823199" id="-3533">
		<tag k="name" v="Legene" />
		<tag k="place" v="farm" />
		<tag k="ssr:stedsnr" v="678113" />
	</node>
	<node lat="62.18080584123421" lon="5.766062982125107" id="-3534">
		<tag k="alt_name" v="Litle Rovde" />
		<tag k="fixme" v="consider place=hamlet" />
		<tag k="name" v="Litlerovdane" />
		<tag k="place" v="farm" />
		<tag k="ssr:stedsnr" v="678128" />
	</node>
	<node lat="62.01869117122683" lon="5.495087702742781" id="-3537">
		<tag k="fixme" v="consider place=hamlet" />
		<tag k="name" v="Skorge" />
		<tag k="place" v="farm" />
		<tag k="ssr:stedsnr" v="678310" />
	</node>
	<node lat="62.114797224718835" lon="5.671933334927248" id="-3540">
		<tag k="fixme" v="consider place=hamlet" />
		<tag k="name" v="Eidså" />
		<tag k="place" v="village" />
		<tag k="ssr:stedsnr" v="678416" />
	</node>
	<node lat="62.08865629153482" lon="5.780718086802032" id="-3547">
		<tag k="fixme" v="consider place=hamlet" />
		<tag k="name" v="Koppen" />
		<tag k="place" v="farm" />
		<tag k="ssr:stedsnr" v="678804" />
	</node>
	<node lat="62.079708332976466" lon="5.741227778292132" id="-3548">
		<tag k="name" v="Smedbøen" />
		<tag k="place" v="farm" />
		<tag k="ssr:stedsnr" v="678812" />
	</node>
	<node lat="62.075930554442884" lon="5.8118805593003815" id="-3552">
		<tag k="fixme" v="consider place=hamlet" />
		<tag k="name" v="Norddalen" />
		<tag k="place" v="village" />
		<tag k="ssr:stedsnr" v="678903" />
	</node>
	<node lat="62.143769441340694" lon="5.42203611309337" id="-3553">
		<tag k="fixme" v="consider place=hamlet" />
		<tag k="name" v="Hakallestranda" />
		<tag k="place" v="village" />
		<tag k="ssr:stedsnr" v="688308" />
	</node>
	<node lat="62.16846226379896" lon="5.7009405548135925" id="-3555">
		<tag k="fixme" v="consider place=hamlet" />
		<tag k="name" v="Midtbø" />
		<tag k="place" v="farm" />
		<tag k="ssr:stedsnr" v="693519" />
	</node>
	<node lat="62.01248695433909" lon="5.606839816559135" id="-3588">
		<tag k="fixme" v="consider place=hamlet" />
		<tag k="name" v="Rusta" />
		<tag k="place" v="farm" />
		<tag k="ssr:stedsnr" v="739211" />
	</node>
	<node lat="62.0395333365784" lon="5.5227555560567865" id="-3589">
		<tag k="name" v="Saltvik" />
		<tag k="place" v="farm" />
		<tag k="ssr:stedsnr" v="739253" />
	</node>
	<node lat="62.07279722107729" lon="5.815847218139576" id="-3591">
		<tag k="name" v="Gullikgarden" />
		<tag k="place" v="farm" />
		<tag k="ssr:stedsnr" v="739904" />
	</node>
	<node lat="61.982861112155405" lon="5.5091166679307895" id="-3592">
		<tag k="historic" v="shieling" />
		<tag k="name" v="Bekslesætra" />
		<tag k="place" v="isolated_dwelling" />
		<tag k="ssr:stedsnr" v="748516" />
	</node>
	<node lat="62.09107499850385" lon="5.573197218606453" id="-3604">
		<tag k="name" v="Låtra" />
		<tag k="place" v="farm" />
		<tag k="ssr:stedsnr" v="755003" />
	</node>
	<node lat="61.99575183775146" lon="5.63919231886308" id="-3624">
		<tag k="fixme" v="consider place=hamlet" />
		<tag k="name" v="Åsen" />
		<tag k="place" v="farm" />
		<tag k="ssr:stedsnr" v="799042" />
	</node>
	<node lat="62.068598481303106" lon="5.834146615646491" id="-3629">
		<tag k="fixme" v="consider place=hamlet" />
		<tag k="name" v="Tverrberget" />
		<tag k="place" v="farm" />
		<tag k="ssr:stedsnr" v="799933" />
	</node>
	<node lat="62.18349475778012" lon="5.7944897098786114" id="-3630">
		<tag k="alt_name" v="Einebakke" />
		<tag k="fixme" v="consider place=hamlet" />
		<tag k="name" v="Bakkane" />
		<tag k="place" v="farm" />
		<tag k="ssr:stedsnr" v="800109" />
	</node>
	<node lat="62.086149995666275" lon="5.741647221154035" id="-3631">
		<tag k="name" v="Kviene" />
		<tag k="place" v="farm" />
		<tag k="ssr:stedsnr" v="799838" />
	</node>
	<node lat="62.08821290558257" lon="5.793703512947862" id="-3632">
		<tag k="fixme" v="consider place=hamlet" />
		<tag k="name" v="Landsverk" />
		<tag k="place" v="farm" />
		<tag k="ssr:stedsnr" v="799839" />
	</node>
	<node lat="62.098724996449995" lon="5.747986116802311" id="-3634">
		<tag k="name" v="Haggarden" />
		<tag k="place" v="farm" />
		<tag k="ssr:stedsnr" v="799889" />
	</node>
	<node lat="62.095246249885086" lon="5.7612173440720085" id="-3636">
		<tag k="alt_name" v="Bjørkeli" />
		<tag k="name" v="Bjørkelid" />
		<tag k="place" v="farm" />
		<tag k="ssr:stedsnr" v="799893" />
	</node>
	<node lat="62.17023333524552" lon="5.733844452697303" id="-3637">
		<tag k="name" v="Nybø" />
		<tag k="place" v="farm" />
		<tag k="ssr:stedsnr" v="800014" />
	</node>
	<node lat="62.08546391172618" lon="5.5813585120135185" id="-3640">
		<tag k="alt_name" v="Tunheim, midtre" />
		<tag k="fixme" v="consider place=hamlet" />
		<tag k="name" v="Midtre Tunheim" />
		<tag k="place" v="farm" />
		<tag k="ssr:stedsnr" v="800323" />
	</node>
	<node lat="62.17858888683207" lon="5.762530560672406" id="-3643">
		<tag k="name" v="Brensla" />
		<tag k="place" v="locality" />
		<tag k="ssr:stedsnr" v="814910" />
	</node>
	<node lat="62.08900555282978" lon="5.705686118925488" id="-3649">
		<tag k="name" v="Ivasætra" />
		<tag k="place" v="locality" />
		<tag k="ssr:stedsnr" v="815774" />
	</node>
	<node lat="62.16863342631918" lon="5.717819925856676" id="-3668">
		<tag k="alt_name" v="Hånes" />
		<tag k="fixme" v="consider place=hamlet" />
		<tag k="name" v="Håneset" />
		<tag k="place" v="farm" />
		<tag k="ssr:stedsnr" v="921012" />
	</node>
	<node lat="62.00677744594729" lon="5.566576281003873" id="-3675">
		<tag k="fixme" v="consider place=hamlet" />
		<tag k="name" v="Skaret" />
		<tag k="place" v="farm" />
		<tag k="ssr:stedsnr" v="921228" />
	</node>
	<node lat="62.02182499771618" lon="5.536405550419169" id="-3678">
		<tag k="name" v="Holmen" />
		<tag k="place" v="farm" />
		<tag k="ssr:stedsnr" v="921299" />
	</node>
	<node lat="62.04623508705409" lon="5.69853255528569" id="-3679">
		<tag k="alt_name" v="Berget, nedre;Nedre Berget" />
		<tag k="fixme" v="consider place=hamlet" />
		<tag k="name" v="Nedreberg" />
		<tag k="place" v="farm" />
		<tag k="ssr:stedsnr" v="921313" />
	</node>
	<node lat="62.07884444344969" lon="5.806191670732625" id="-3685">
		<tag k="name" v="Monsgarden" />
		<tag k="place" v="farm" />
		<tag k="ssr:stedsnr" v="921840" />
	</node>
	<node lat="62.11024444328929" lon="5.679930551265231" id="-3696">
		<tag k="name" v="Leitebakkane" />
		<tag k="place" v="quarter" />
		<tag k="ssr:stedsnr" v="829627" />
	</node>
	<node lat="62.04913159162732" lon="5.632064837299974" id="-3700">
		<tag k="fixme" v="multiple name tags, choose one and add the other to alt_name; consider place=hamlet" />
		<tag k="name" v="Brekka;Hatlebrekka" />
		<tag k="place" v="farm" />
		<tag k="ssr:stedsnr" v="860321" />
	</node>
	<node lat="62.04627905488594" lon="5.6482631073441265" id="-3701">
		<tag k="fixme" v="consider place=hamlet" />
		<tag k="name" v="Slåttelid" />
		<tag k="place" v="farm" />
		<tag k="ssr:stedsnr" v="860325" />
	</node>
	<node lat="62.1370486153286" lon="5.673576230702254" id="-3702">
		<tag k="fixme" v="consider place=hamlet" />
		<tag k="name" v="Øyra" />
		<tag k="place" v="farm" />
		<tag k="ssr:stedsnr" v="860509" />
	</node>
	<node lat="62.19163637240813" lon="5.50511368662658" id="-3704">
		<tag k="fixme" v="consider place=hamlet" />
		<tag k="name" v="Åram" />
		<tag k="place" v="farm" />
		<tag k="ssr:stedsnr" v="860604" />
	</node>
	<node lat="62.172417217730754" lon="5.736797674730089" id="-3706">
		<tag k="alt_name" v="Store Rovde" />
		<tag k="fixme" v="consider place=hamlet" />
		<tag k="name" v="Rovdane" />
		<tag k="place" v="farm" />
		<tag k="ssr:stedsnr" v="861008" />
	</node>
	<node lat="62.05523474916082" lon="5.6026529346367155" id="-3709">
		<tag k="fixme" v="consider place=hamlet" />
		<tag k="name" v="Haugen" />
		<tag k="place" v="farm" />
		<tag k="ssr:stedsnr" v="861319" />
	</node>
	<node lat="62.09834166434975" lon="5.774277769825234" id="-3718">
		<tag k="historic" v="shieling" />
		<tag k="name" v="Sætra" />
		<tag k="place" v="isolated_dwelling" />
		<tag k="ssr:stedsnr" v="876153" />
	</node>
	<node lat="62.063005555906" lon="5.565191670503643" id="-3729">
		<tag k="name" v="Vikestøylen" />
		<tag k="place" v="locality" />
		<tag k="ssr:stedsnr" v="877060" />
	</node>
	<node lat="62.02881667087931" lon="5.5380055561022505" id="-3749">
		<tag k="name" v="Løvollane" />
		<tag k="place" v="farm" />
		<tag k="ssr:stedsnr" v="905951" />
	</node>
	<node lat="61.99784719638135" lon="5.649183233809454" id="-3751">
		<tag k="name" v="Almklov" />
		<tag k="place" v="hamlet" />
		<tag k="ssr:stedsnr" v="920053" />
	</node>
	<node lat="62.001681766756384" lon="5.640433962939917" id="-3753">
		<tag k="fixme" v="consider place=hamlet" />
		<tag k="name" v="Kroken" />
		<tag k="place" v="farm" />
		<tag k="ssr:stedsnr" v="920215" />
	</node>
	<node lat="62.052552101781664" lon="5.629725356128939" id="-3755">
		<tag k="alt_name" v="Lundahaugen" />
		<tag k="fixme" v="consider place=hamlet" />
		<tag k="name" v="Lundehaug" />
		<tag k="place" v="farm" />
		<tag k="ssr:stedsnr" v="921280" />
	</node>
	<node lat="62.17459391734162" lon="5.440004735957547" id="-3757">
		<tag k="fixme" v="consider place=hamlet" />
		<tag k="name" v="Krakset" />
		<tag k="place" v="farm" />
		<tag k="ssr:stedsnr" v="921540" />
	</node>
	<node lat="62.060158330501864" lon="5.6212749970704285" id="-3758">
		<tag k="fixme" v="consider place=hamlet" />
		<tag k="name" v="Vidnes" />
		<tag k="place" v="village" />
		<tag k="ssr:stedsnr" v="921376" />
	</node>
	<node lat="62.05341853114687" lon="5.59662321328644" id="-3759">
		<tag k="fixme" v="consider place=hamlet" />
		<tag k="name" v="Ekreim" />
		<tag k="place" v="farm" />
		<tag k="ssr:stedsnr" v="921380" />
	</node>
	<node lat="62.06329722322097" lon="5.59840278240295" id="-3761">
		<tag k="alt_name" v="Solvoll" />
		<tag k="name" v="Krakset" />
		<tag k="place" v="farm" />
		<tag k="ssr:stedsnr" v="921388" />
	</node>
	<node lat="62.12909763037453" lon="5.6974221700908005" id="-3762">
		<tag k="name" v="Skår" />
		<tag k="place" v="hamlet" />
		<tag k="ssr:stedsnr" v="921435" />
	</node>
	<node lat="62.16328420625376" lon="5.440011275602723" id="-3763">
		<tag k="fixme" v="consider place=hamlet" />
		<tag k="name" v="Hola" />
		<tag k="place" v="farm" />
		<tag k="ssr:stedsnr" v="921489" />
	</node>
	<node lat="62.10570555158516" lon="5.630144439354721" id="-3766">
		<tag k="fixme" v="consider place=hamlet" />
		<tag k="name" v="Eide" />
		<tag k="place" v="village" />
		<tag k="ssr:stedsnr" v="936583" />
	</node>
	<node lat="62.18215000035635" lon="5.5215555647060945" id="-3785">
		<tag k="name" v="Arset" />
		<tag k="place" v="farm" />
		<tag k="ssr:stedsnr" v="947029" />
	</node>
	<node lat="62.15830833639409" lon="5.512386103661513" id="-3787">
		<tag k="name" v="Dalebøen" />
		<tag k="place" v="locality" />
		<tag k="ssr:stedsnr" v="948010" />
	</node>
	<node lat="62.17329999823783" lon="5.5384000078995435" id="-3788">
		<tag k="name" v="Sætra" />
		<tag k="place" v="locality" />
		<tag k="ssr:stedsnr" v="948992" />
	</node>
	<node lat="62.0951555563186" lon="5.571236109616981" id="-3790">
		<tag k="name" v="Myrane" />
		<tag k="place" v="quarter" />
		<tag k="ssr:stedsnr" v="950603" />
	</node>
	<node lat="62.037769445223425" lon="5.6876499960874956" id="-3791">
		<tag k="fixme" v="consider place=hamlet" />
		<tag k="name" v="Berget" />
		<tag k="place" v="farm" />
		<tag k="ssr:stedsnr" v="969438" />
	</node>
	<node lat="62.05974112367299" lon="5.619364134308775" id="-3792">
		<tag k="fixme" v="consider place=hamlet" />
		<tag k="name" v="Vidnes" />
		<tag k="place" v="farm" />
		<tag k="ssr:stedsnr" v="982776" />
	</node>
	<node lat="62.054087104441905" lon="5.625251254648558" id="-3793">
		<tag k="fixme" v="consider place=hamlet" />
		<tag k="name" v="Sylte" />
		<tag k="place" v="farm" />
		<tag k="ssr:stedsnr" v="982777" />
	</node>
	<node lat="62.03125309616877" lon="5.52679386197904" id="-3794">
		<tag k="fixme" v="consider place=hamlet" />
		<tag k="name" v="Tue" />
		<tag k="place" v="farm" />
		<tag k="ssr:stedsnr" v="982791" />
	</node>
	<node lat="62.07253432285297" lon="5.818984994239072" id="-3795">
		<tag k="fixme" v="consider place=hamlet" />
		<tag k="name" v="Norddalen" />
		<tag k="place" v="farm" />
		<tag k="ssr:stedsnr" v="982794" />
	</node>
	<node lat="62.10940310164585" lon="5.7275780589386756" id="-3801">
		<tag k="fixme" v="consider place=hamlet" />
		<tag k="name" v="Opsal" />
		<tag k="place" v="farm" />
		<tag k="ssr:stedsnr" v="10848" />
	</node>
	<node lat="62.18262499974736" lon="5.786930548791834" id="-3804">
		<tag k="fixme" v="consider place=hamlet" />
		<tag k="name" v="Vedelda" />
		<tag k="place" v="farm" />
		<tag k="ssr:stedsnr" v="11084" />
	</node>
	<node lat="62.179146192197784" lon="5.753219494140193" id="-3805">
		<tag k="alt_name" v="Knarrdal;Knardal" />
		<tag k="fixme" v="consider place=hamlet" />
		<tag k="name" v="Knarrdalen" />
		<tag k="place" v="farm" />
		<tag k="ssr:stedsnr" v="11095" />
	</node>
	<node lat="62.05606944834047" lon="5.595630563578872" id="-3806">
		<tag k="name" v="Nygard" />
		<tag k="place" v="farm" />
		<tag k="ssr:stedsnr" v="11337" />
	</node>
	<node lat="62.084054842820926" lon="5.5935040332032475" id="-3809">
		<tag k="alt_name" v="Tunheim, in" />
		<tag k="fixme" v="consider place=hamlet" />
		<tag k="name" v="Indre Tunheim" />
		<tag k="place" v="farm" />
		<tag k="ssr:stedsnr" v="11416" />
	</node>
	<node lat="62.167658337839654" lon="5.548386112847982" id="-3849">
		<tag k="name" v="Midtlid" />
		<tag k="place" v="farm" />
		<tag k="ssr:stedsnr" v="38984" />
	</node>
	<node lat="62.15353333685058" lon="5.44014723114086" id="-3853">
		<tag k="name" v="Nymark" />
		<tag k="place" v="farm" />
		<tag k="ssr:stedsnr" v="38994" />
	</node>
	<node lat="61.96650000386027" lon="5.6032333363069355" id="-3861">
		<tag k="barrier" v="fence" />
		<tag k="name" v="Steinledet" />
		<tag k="ssr:stedsnr" v="70022" />
	</node>
	<node lat="62.178552780903196" lon="5.751016665970068" id="-3862">
		<tag k="alt_name" v="Rovde" />
		<tag k="fixme" v="consider place=hamlet" />
		<tag k="name" v="Rovdane" />
		<tag k="place" v="village" />
		<tag k="ssr:stedsnr" v="71131" />
	</node>
	<node lat="61.99547410028308" lon="5.625366788533846" id="-3863">
		<tag k="fixme" v="consider place=hamlet" />
		<tag k="name" v="Kassen" />
		<tag k="place" v="farm" />
		<tag k="ssr:stedsnr" v="71043" />
	</node>
	<node lat="61.996461109063816" lon="5.697408330893881" id="-3865">
		<tag k="name" v="Nausane" />
		<tag k="place" v="locality" />
		<tag k="ssr:stedsnr" v="71055" />
	</node>
	<node lat="62.0341216467642" lon="5.535791410892509" id="-3867">
		<tag k="fixme" v="consider place=hamlet" />
		<tag k="name" v="Åheim" />
		<tag k="place" v="farm" />
		<tag k="ssr:stedsnr" v="71282" />
	</node>
	<node lat="62.16574904663185" lon="5.439014878872499" id="-3869">
		<tag k="alt_name" v="Håberg, nordre;Litle Håberg" />
		<tag k="fixme" v="consider place=hamlet" />
		<tag k="name" v="Nørdre Håberg" />
		<tag k="place" v="farm" />
		<tag k="ssr:stedsnr" v="71484" />
	</node>
	<node lat="62.0961971519913" lon="5.755876860944051" id="-3871">
		<tag k="name" v="Nordvik" />
		<tag k="old_name" v="Norvik" />
		<tag k="place" v="farm" />
		<tag k="ssr:stedsnr" v="71887" />
	</node>
	<node lat="62.18284187853505" lon="5.522973119652193" id="-3872">
		<tag k="fixme" v="consider place=hamlet" />
		<tag k="name" v="Arset" />
		<tag k="place" v="farm" />
		<tag k="ssr:stedsnr" v="71549" />
	</node>
	<node lat="62.10469301440192" lon="5.54418959383832" id="-3874">
		<tag k="fixme" v="consider place=hamlet" />
		<tag k="name" v="Tørla" />
		<tag k="place" v="farm" />
		<tag k="ssr:stedsnr" v="71453" />
	</node>
	<node lat="62.077150003359385" lon="5.807136106275625" id="-3877">
		<tag k="name" v="Lødebakken" />
		<tag k="place" v="farm" />
		<tag k="ssr:stedsnr" v="71852" />
	</node>
	<node lat="62.15460278222285" lon="5.755755564009929" id="-3878">
		<tag k="historic" v="shieling" />
		<tag k="name" v="Skålehaugane" />
		<tag k="place" v="isolated_dwelling" />
		<tag k="ssr:stedsnr" v="72050" />
	</node>
	<node lat="62.16179444087369" lon="5.648127774454059" id="-3880">
		<tag k="name" v="Fagerlid" />
		<tag k="place" v="farm" />
		<tag k="ssr:stedsnr" v="72431" />
	</node>
	<node lat="62.0492861097135" lon="5.607755557013333" id="-3888">
		<tag k="name" v="Eikremsbakken" />
		<tag k="place" v="farm" />
		<tag k="ssr:stedsnr" v="86752" />
	</node>
	<node lat="62.10314722096653" lon="5.516380561931634" id="-3897">
		<tag k="name" v="Seljebakken" />
		<tag k="place" v="farm" />
		<tag k="ssr:stedsnr" v="87649" />
	</node>
	<node lat="62.04444096552519" lon="5.640088606286111" id="-3915">
		<tag k="fixme" v="consider place=hamlet" />
		<tag k="name" v="Øvrebrekka" />
		<tag k="place" v="farm" />
		<tag k="ssr:stedsnr" v="87801" />
	</node>
	<node lat="62.10375555295557" lon="5.677902779408067" id="-3917">
		<tag k="alt_name" v="Taksetnakken" />
		<tag k="name" v="Nakkebøen" />
		<tag k="place" v="locality" />
		<tag k="ssr:stedsnr" v="88034" />
	</node>
	<node lat="62.190625000884054" lon="5.466480559672564" id="-3942">
		<tag k="name" v="Leitet" />
		<tag k="place" v="farm" />
		<tag k="ssr:stedsnr" v="99986" />
	</node>
	<node lat="62.17835555243068" lon="5.763627771790894" id="-3949">
		<tag k="name" v="Slettevold" />
		<tag k="place" v="farm" />
		<tag k="ssr:stedsnr" v="112956" />
	</node>
	<node lat="61.98217777509755" lon="5.541716662676057" id="-3956">
		<tag k="name" v="Solveigsætra" />
		<tag k="place" v="isolated_dwelling" />
		<tag k="ssr:stedsnr" v="131058" />
	</node>
	<node lat="62.00438498709263" lon="5.569955958864215" id="-3962">
		<tag k="fixme" v="consider place=hamlet" />
		<tag k="name" v="Halse" />
		<tag k="place" v="farm" />
		<tag k="ssr:stedsnr" v="132196" />
	</node>
	<node lat="62.009025000594555" lon="5.5816972130327365" id="-3963">
		<tag k="name" v="Nygard" />
		<tag k="place" v="farm" />
		<tag k="ssr:stedsnr" v="132199" />
	</node>
	<node lat="62.16951214616845" lon="5.676720680859141" id="-3968">
		<tag k="fixme" v="consider place=hamlet" />
		<tag k="name" v="Litlebø" />
		<tag k="place" v="farm" />
		<tag k="ssr:stedsnr" v="132446" />
	</node>
	<node lat="62.15294166367085" lon="5.656194452745816" id="-3974">
		<tag k="name" v="Krokå" />
		<tag k="place" v="farm" />
		<tag k="ssr:stedsnr" v="132483" />
	</node>
	<node lat="61.97580555243284" lon="5.551224992927397" id="-3990">
		<tag k="name" v="Sundalsætra" />
		<tag k="place" v="locality" />
		<tag k="ssr:stedsnr" v="147365" />
	</node>
	<node lat="62.16501389257611" lon="5.754505545634583" id="-4004">
		<tag k="name" v="Litlestøylen" />
		<tag k="place" v="locality" />
		<tag k="ssr:stedsnr" v="148628" />
	</node>
	<node lat="62.17216110989495" lon="5.826063892171995" id="-4029">
		<tag k="name" v="Lidastøylen" />
		<tag k="place" v="locality" />
		<tag k="ssr:stedsnr" v="151756" />
	</node>
	<node lat="62.0502777806203" lon="5.619558341931476" id="-4038">
		<tag k="name" v="Gjelet" />
		<tag k="place" v="isolated_dwelling" />
		<tag k="ssr:stedsnr" v="176221" />
	</node>
	<node lat="62.04953888714845" lon="5.607408337532839" id="-4039">
		<tag k="name" v="Stigabakken" />
		<tag k="place" v="farm" />
		<tag k="ssr:stedsnr" v="176222" />
	</node>
	<node lat="62.04599436704655" lon="5.531327052488839" id="-4043">
		<tag k="alt_name" v="Torvik, l" />
		<tag k="name" v="Litle Torvik" />
		<tag k="place" v="farm" />
		<tag k="ssr:stedsnr" v="192300" />
	</node>
	<node lat="61.9938470251526" lon="5.633161548994067" id="-4048">
		<tag k="fixme" v="consider place=hamlet" />
		<tag k="name" v="Duestøylen" />
		<tag k="place" v="farm" />
		<tag k="ssr:stedsnr" v="192053" />
	</node>
	<node lat="62.05016989621712" lon="5.600506285387315" id="-4052">
		<tag k="fixme" v="consider place=hamlet" />
		<tag k="name" v="Skalle" />
		<tag k="place" v="farm" />
		<tag k="ssr:stedsnr" v="192295" />
	</node>
	<node lat="62.17456156601598" lon="5.542860820637134" id="-4056">
		<tag k="alt_name" v="Krabbestien;Krabbesti" />
		<tag k="name" v="Krabbestigen" />
		<tag k="place" v="locality" />
		<tag k="ssr:stedsnr" v="192552" />
	</node>
	<node lat="62.07572716730792" lon="5.736148925889287" id="-4058">
		<tag k="name" v="Brekke" />
		<tag k="place" v="farm" />
		<tag k="ssr:stedsnr" v="192859" />
	</node>
	<node lat="62.16932320545653" lon="5.726192928834884" id="-4063">
		<tag k="alt_name" v="Ljøsåna" />
		<tag k="fixme" v="consider place=hamlet" />
		<tag k="name" v="Ljoså" />
		<tag k="place" v="farm" />
		<tag k="ssr:stedsnr" v="193007" />
	</node>
	<node lat="62.19123333456541" lon="5.8035638911295635" id="-4066">
		<tag k="name" v="Bøen" />
		<tag k="place" v="farm" />
		<tag k="ssr:stedsnr" v="193099" />
	</node>
	<node lat="62.18519084688248" lon="5.804222598273921" id="-4067">
		<tag k="name" v="Rabben" />
		<tag k="place" v="farm" />
		<tag k="ssr:stedsnr" v="193101" />
	</node>
	<node lat="62.19651876282728" lon="5.829795871522559" id="-4072">
		<tag k="fixme" v="consider place=hamlet" />
		<tag k="name" v="Korsfura" />
		<tag k="place" v="farm" />
		<tag k="ssr:stedsnr" v="193090" />
	</node>
	<node lat="62.03196143641077" lon="5.533455111570883" id="-4076">
		<tag k="fixme" v="consider place=hamlet" />
		<tag k="name" v="Årøy" />
		<tag k="place" v="farm" />
		<tag k="ssr:stedsnr" v="193307" />
	</node>
	<node lat="62.100917499075905" lon="5.461427871954273" id="-4081">
		<tag k="fixme" v="consider place=hamlet" />
		<tag k="name" v="Hundsnes" />
		<tag k="place" v="farm" />
		<tag k="ssr:stedsnr" v="193446" />
	</node>
	<node lat="62.13903035438432" lon="5.421885155073422" id="-4082">
		<tag k="fixme" v="consider place=hamlet" />
		<tag k="name" v="Krokevika" />
		<tag k="place" v="farm" />
		<tag k="ssr:stedsnr" v="193463" />
	</node>
	<node lat="62.15663239319907" lon="5.440354301966256" id="-4083">
		<tag k="fixme" v="consider place=hamlet" />
		<tag k="name" v="Sandvika" />
		<tag k="place" v="farm" />
		<tag k="ssr:stedsnr" v="193473" />
	</node>
	<node lat="62.09610555889484" lon="5.568347225864327" id="-4085">
		<tag k="name" v="Øyra" />
		<tag k="place" v="farm" />
		<tag k="ssr:stedsnr" v="193439" />
	</node>
	<node lat="62.161001710597624" lon="5.441092315578767" id="-4088">
		<tag k="alt_name" v="Håberg, s;Store Håberg" />
		<tag k="fixme" v="consider place=hamlet" />
		<tag k="name" v="Søre Håberg" />
		<tag k="place" v="farm" />
		<tag k="ssr:stedsnr" v="193479" />
	</node>
	<node lat="62.166364977215466" lon="5.559034413643812" id="-4089">
		<tag k="fixme" v="consider place=hamlet" />
		<tag k="name" v="Brandal" />
		<tag k="place" v="farm" />
		<tag k="ssr:stedsnr" v="193481" />
	</node>
	<node lat="61.986977776450814" lon="5.6385444403054645" id="-4093">
		<tag k="name" v="Brautene" />
		<tag k="place" v="isolated_dwelling" />
		<tag k="ssr:stedsnr" v="202517" />
	</node>
	<node lat="62.133688884576806" lon="5.594602772957849" id="-4095">
		<tag k="name" v="Ris-støylen" />
		<tag k="place" v="isolated_dwelling" />
		<tag k="ssr:stedsnr" v="208346" />
	</node>
	<node lat="62.065383330665014" lon="5.638941660263003" id="-4119">
		<tag k="name" v="Vidnesstøylen" />
		<tag k="place" v="isolated_dwelling" />
		<tag k="ssr:stedsnr" v="208971" />
	</node>
	<node lat="62.11380555858409" lon="5.603333329196083" id="-4120">
		<tag k="name" v="Eidsstøylen" />
		<tag k="place" v="isolated_dwelling" />
		<tag k="ssr:stedsnr" v="209250" />
	</node>
	<node lat="62.00088333655295" lon="5.697700002522466" id="-4161">
		<tag k="name" v="Rota" />
		<tag k="place" v="neighbourhood" />
		<tag k="ssr:stedsnr" v="222566" />
	</node>
	<node lat="62.07287499821692" lon="5.623155550906624" id="-4180">
		<tag k="name" v="Vangen" />
		<tag k="place" v="isolated_dwelling" />
		<tag k="ssr:stedsnr" v="299250" />
	</node>
	<node lat="62.00518515064438" lon="5.635694497319164" id="-4182">
		<tag k="alt_name" v="Hellebust, nordre;Nøre Hellebust" />
		<tag k="fixme" v="consider place=hamlet" />
		<tag k="name" v="Nordre Hellebust" />
		<tag k="place" v="farm" />
		<tag k="ssr:stedsnr" v="314230" />
	</node>
	<node lat="62.026652368372304" lon="5.540252924200283" id="-4186">
		<tag k="fixme" v="consider place=hamlet" />
		<tag k="name" v="Løvollane" />
		<tag k="place" v="farm" />
		<tag k="ssr:stedsnr" v="314338" />
	</node>
	<node lat="62.07882128598404" lon="5.614882347020462" id="-4187">
		<tag k="fixme" v="consider place=hamlet" />
		<tag k="name" v="Stranda" />
		<tag k="place" v="farm" />
		<tag k="ssr:stedsnr" v="314352" />
	</node>
	<node lat="62.10353335377089" lon="5.491970805198926" id="-4191">
		<tag k="fixme" v="consider place=hamlet" />
		<tag k="name" v="Myklebust" />
		<tag k="place" v="farm" />
		<tag k="ssr:stedsnr" v="314490" />
	</node>
	<node lat="62.15020341869657" lon="5.434318156535239" id="-4192">
		<tag k="fixme" v="consider place=hamlet" />
		<tag k="name" v="Hammaren" />
		<tag k="place" v="farm" />
		<tag k="ssr:stedsnr" v="314499" />
	</node>
	<node lat="62.193247437523716" lon="5.483430947587537" id="-4193">
		<tag k="fixme" v="consider place=hamlet" />
		<tag k="name" v="Sætrevik" />
		<tag k="place" v="farm" />
		<tag k="ssr:stedsnr" v="314576" />
	</node>
	<node lat="62.068541665643345" lon="5.623444453571636" id="-4194">
		<tag k="fixme" v="consider place=hamlet" />
		<tag k="name" v="Skjervheim" />
		<tag k="place" v="village" />
		<tag k="ssr:stedsnr" v="314397" />
	</node>
	<node lat="62.161030383062624" lon="5.648445102489225" id="-4195">
		<tag k="fixme" v="consider place=hamlet" />
		<tag k="name" v="Lid" />
		<tag k="place" v="farm" />
		<tag k="ssr:stedsnr" v="314506" />
	</node>
	<node lat="62.065208332738706" lon="5.625594451311148" id="-4208">
		<tag k="name" v="Litlebøen" />
		<tag k="place" v="farm" />
		<tag k="ssr:stedsnr" v="329941" />
	</node>
	<node lat="62.161513887423375" lon="5.745697228463908" id="-4211">
		<tag k="name" v="Barbrosætra" />
		<tag k="place" v="locality" />
		<tag k="ssr:stedsnr" v="330628" />
	</node>
	<node lat="62.070839021192" lon="5.586479914230095" id="-4221">
		<tag k="fixme" v="consider place=hamlet" />
		<tag k="name" v="Krokeneset" />
		<tag k="place" v="farm" />
		<tag k="ssr:stedsnr" v="331086" />
	</node>
	<node lat="62.17160935903927" lon="5.641867304874535" id="-4246">
		<tag k="fixme" v="consider place=hamlet" />
		<tag k="name" v="Koparnes" />
		<tag k="place" v="farm" />
		<tag k="ssr:stedsnr" v="341976" />
	</node>
	<node lat="62.18020555473723" lon="5.530630560884443" id="-4247">
		<tag k="name" v="Myrane" />
		<tag k="place" v="farm" />
		<tag k="ssr:stedsnr" v="341979" />
	</node>
	<node lat="62.03784405908456" lon="5.6881438509445985" id="-4255">
		<tag k="alt_name" v="Berget, øvre;Øvre Berget" />
		<tag k="fixme" v="consider place=hamlet" />
		<tag k="name" v="Øvreberg" />
		<tag k="place" v="farm" />
		<tag k="ssr:stedsnr" v="374328" />
	</node>
	<node lat="62.16713856408678" lon="5.439450264188821" id="-4256">
		<tag k="fixme" v="consider place=hamlet" />
		<tag k="name" v="Bergsnev" />
		<tag k="place" v="farm" />
		<tag k="ssr:stedsnr" v="374506" />
	</node>
	<node lat="62.18606245709936" lon="5.459737360864792" id="-4257">
		<tag k="fixme" v="consider place=hamlet" />
		<tag k="name" v="Nystøylen" />
		<tag k="place" v="farm" />
		<tag k="ssr:stedsnr" v="374534" />
	</node>
	<node lat="62.13743333672478" lon="5.633488886400346" id="-4260">
		<tag k="historic" v="shieling" />
		<tag k="name" v="Lidasætra" />
		<tag k="place" v="isolated_dwelling" />
		<tag k="ssr:stedsnr" v="374472" />
	</node>
	<node lat="62.07828055193813" lon="5.80709444887066" id="-4261">
		<tag k="name" v="Erikegarden" />
		<tag k="place" v="farm" />
		<tag k="ssr:stedsnr" v="374858" />
	</node>
	<node lat="62.15474166538566" lon="5.834238898137122" id="-4264">
		<tag k="historic" v="shieling" />
		<tag k="name" v="Sundnessætra" />
		<tag k="place" v="isolated_dwelling" />
		<tag k="ssr:stedsnr" v="375039" />
	</node>
	<node lat="61.991462067294066" lon="5.580629335390013" id="-4275">
		<tag k="fixme" v="consider place=hamlet" />
		<tag k="name" v="Sunndalen" />
		<tag k="place" v="farm" />
		<tag k="ssr:stedsnr" v="495055" />
	</node>
	<node lat="62.10403333763676" lon="5.541144444272496" id="-4286">
		<tag k="name" v="Hogga" />
		<tag k="place" v="farm" />
		<tag k="ssr:stedsnr" v="390623" />
	</node>
	<node lat="62.1111694443531" lon="5.681755556071823" id="-4297">
		<tag k="name" v="Leitet" />
		<tag k="place" v="farm" />
		<tag k="ssr:stedsnr" v="391047" />
	</node>
	<node lat="62.04593157096781" lon="5.528099545943582" id="-4307">
		<tag k="name" v="Torvika" />
		<tag k="place" v="hamlet" />
		<tag k="ssr:stedsnr" v="391465" />
	</node>
	<node lat="62.15838610841869" lon="5.443591669862363" id="-4324">
		<tag k="name" v="Sandvik" />
		<tag k="place" v="farm" />
		<tag k="ssr:stedsnr" v="401847" />
	</node>
	<node lat="62.166247171309024" lon="5.544755544437335" id="-4331">
		<tag k="fixme" v="consider place=hamlet" />
		<tag k="name" v="Øvrelid" />
		<tag k="place" v="farm" />
		<tag k="ssr:stedsnr" v="402977" />
	</node>
	<node lat="62.15554444112602" lon="5.552311118587915" id="-4332">
		<tag k="name" v="Lødevollane" />
		<tag k="place" v="locality" />
		<tag k="ssr:stedsnr" v="402932" />
	</node>
	<node lat="62.09859444640846" lon="5.746908324085884" id="-4337">
		<tag k="name" v="Nykreim" />
		<tag k="place" v="isolated_dwelling" />
		<tag k="ssr:stedsnr" v="405046" />
	</node>
	<node lat="62.021686108074164" lon="5.4960472183710785" id="-4338">
		<tag k="name" v="Høybakk" />
		<tag k="place" v="farm" />
		<tag k="ssr:stedsnr" v="421979" />
	</node>
	<node lat="62.17616388906262" lon="5.440177778964242" id="-4350">
		<tag k="name" v="Bellen" />
		<tag k="place" v="farm" />
		<tag k="ssr:stedsnr" v="435530" />
	</node>
	<node lat="62.01896281912022" lon="5.57704436612615" id="-4356">
		<tag k="fixme" v="consider place=hamlet" />
		<tag k="name" v="Gusdalen" />
		<tag k="place" v="farm" />
		<tag k="ssr:stedsnr" v="436185" />
	</node>
	<node lat="62.15959001781843" lon="5.6826391934005445" id="-4359">
		<tag k="fixme" v="consider place=hamlet" />
		<tag k="name" v="Haukeland" />
		<tag k="place" v="farm" />
		<tag k="ssr:stedsnr" v="436426" />
	</node>
	<node lat="62.09781549864906" lon="5.706202146532779" id="-4362">
		<tag k="name" v="Løset" />
		<tag k="place" v="hamlet" />
		<tag k="ssr:stedsnr" v="436385" />
	</node>
	<node lat="62.10199946175917" lon="5.570182121993896" id="-4363">
		<tag k="fixme" v="consider place=hamlet" />
		<tag k="name" v="Fiskå" />
		<tag k="place" v="farm" />
		<tag k="ssr:stedsnr" v="436394" />
	</node>
	<node lat="62.16627599837794" lon="5.547750972811021" id="-4364">
		<tag k="name" v="Lida" />
		<tag k="place" v="hamlet" />
		<tag k="ssr:stedsnr" v="436439" />
	</node>
	<node lat="62.038174024094204" lon="5.649897071988611" id="-4372">
		<tag k="fixme" v="consider place=hamlet" />
		<tag k="name" v="Myklebust" />
		<tag k="place" v="farm" />
		<tag k="ssr:stedsnr" v="496273" />
	</node>
	<node lat="62.17250833345478" lon="5.762947214438202" id="-4374">
		<tag k="name" v="Nytun" />
		<tag k="place" v="farm" />
		<tag k="ssr:stedsnr" v="496006" />
	</node>
	<node lat="62.06940702467055" lon="5.557915202631645" id="-4378">
		<tag k="alt_name" v="Vik, indre" />
		<tag k="fixme" v="consider place=hamlet" />
		<tag k="name" v="Indre Vik" />
		<tag k="place" v="farm" />
		<tag k="ssr:stedsnr" v="496389" />
	</node>
	<node lat="62.07075624087803" lon="5.625708728728486" id="-4379">
		<tag k="fixme" v="consider place=hamlet" />
		<tag k="name" v="Kviabakkane" />
		<tag k="place" v="farm" />
		<tag k="ssr:stedsnr" v="496397" />
	</node>
	<node lat="62.17525832925355" lon="5.753850008150554" id="-4381">
		<tag k="name" v="Åsen" />
		<tag k="place" v="farm" />
		<tag k="ssr:stedsnr" v="496117" />
	</node>
	<node lat="62.13099999937795" lon="5.6407222142430955" id="-4407">
		<tag k="name" v="Øyrasætra" />
		<tag k="place" v="isolated_dwelling" />
		<tag k="ssr:stedsnr" v="513153" />
	</node>
	<node lat="62.10658055689626" lon="5.568508326879981" id="-4420">
		<tag k="name" v="Legene" />
		<tag k="place" v="farm" />
		<tag k="ssr:stedsnr" v="513257" />
	</node>
	<node lat="62.0516000007679" lon="5.815547213566908" id="-4437">
		<tag k="barrier" v="fence" />
		<tag k="name" v="Skaregarden" />
		<tag k="ssr:stedsnr" v="515274" />
	</node>
	<node lat="62.152158329432524" lon="5.470777770287047" id="-4446">
		<tag k="name" v="Jostøylan" />
		<tag k="place" v="locality" />
		<tag k="ssr:stedsnr" v="522930" />
	</node>
	<node lat="62.1649138844461" lon="5.574683325159378" id="-4451">
		<tag k="name" v="Lunnen" />
		<tag k="place" v="farm" />
		<tag k="ssr:stedsnr" v="523976" />
	</node>
	<node lat="62.18890401106435" lon="5.818503562706487" id="-4461">
		<tag k="alt_name" v="Øygarden" />
		<tag k="fixme" v="consider place=hamlet" />
		<tag k="name" v="Hovden" />
		<tag k="place" v="farm" />
		<tag k="ssr:stedsnr" v="556128" />
	</node>
	<node lat="62.104237401770725" lon="5.4490963056704045" id="-4469">
		<tag k="fixme" v="consider place=hamlet" />
		<tag k="name" v="Sighaug" />
		<tag k="place" v="farm" />
		<tag k="ssr:stedsnr" v="556464" />
	</node>
	<node lat="62.169227775973845" lon="5.695675006581572" id="-4474">
		<tag k="alt_name" v="Strandabøen" />
		<tag k="name" v="Strandabø" />
		<tag k="place" v="farm" />
		<tag k="ssr:stedsnr" v="556508" />
	</node>
	<node lat="62.075316663998024" lon="5.811408337685959" id="-4479">
		<tag k="name" v="Bakkene" />
		<tag k="place" v="farm" />
		<tag k="ssr:stedsnr" v="556850" />
	</node>
	<node lat="62.00734722556803" lon="5.584377780716343" id="-4502">
		<tag k="name" v="Birkelid" />
		<tag k="place" v="isolated_dwelling" />
		<tag k="ssr:stedsnr" v="572689" />
	</node>
	<node lat="62.06110277641958" lon="5.842397218347256" id="-4522">
		<tag k="name" v="Sætra" />
		<tag k="place" v="locality" />
		<tag k="ssr:stedsnr" v="576272" />
	</node>
	<node lat="61.99613889048033" lon="5.651836115021554" id="-4545">
		<tag k="name" v="Haugen" />
		<tag k="place" v="farm" />
		<tag k="ssr:stedsnr" v="617075" />
	</node>
	<node lat="62.01283598057273" lon="5.580021755471847" id="-4549">
		<tag k="fixme" v="consider place=hamlet" />
		<tag k="name" v="Sætrenes" />
		<tag k="place" v="farm" />
		<tag k="ssr:stedsnr" v="617245" />
	</node>
	<node lat="62.105958218862604" lon="5.646766735296589" id="-4554">
		<tag k="fixme" v="consider place=hamlet" />
		<tag k="name" v="Lisjeeide" />
		<tag k="place" v="farm" />
		<tag k="ssr:stedsnr" v="617457" />
	</node>
	<node lat="62.145535310846356" lon="5.4254078880405725" id="-4555">
		<tag k="fixme" v="consider place=hamlet" />
		<tag k="name" v="Rønnestad" />
		<tag k="place" v="farm" />
		<tag k="ssr:stedsnr" v="617465" />
	</node>
	<node lat="62.16888611163501" lon="5.7028222276288165" id="-4558">
		<tag k="name" v="Nørdrestranda" />
		<tag k="place" v="farm" />
		<tag k="ssr:stedsnr" v="617473" />
	</node>
	<node lat="62.09745833140668" lon="5.794830559169948" id="-4572">
		<tag k="name" v="Brudavollstøylen" />
		<tag k="place" v="locality" />
		<tag k="ssr:stedsnr" v="633162" />
	</node>
	<node lat="62.02131110918064" lon="5.4961166760124485" id="-4580">
		<tag k="name" v="Ytre Skorge" />
		<tag k="place" v="farm" />
		<tag k="ssr:stedsnr" v="634639" />
	</node>
	<node lat="62.05461110807799" lon="5.601347216470234" id="-4606">
		<tag k="name" v="Espehaugen" />
		<tag k="place" v="farm" />
		<tag k="ssr:stedsnr" v="661209" />
	</node>
	<node lat="62.10315555177652" lon="5.516405551850748" id="-4609">
		<tag k="name" v="Fagerhaug" />
		<tag k="place" v="farm" />
		<tag k="ssr:stedsnr" v="724970" />
	</node>
	<node lat="62.08980833656338" lon="5.746274990959124" id="-4619">
		<tag k="name" v="Teigane" />
		<tag k="place" v="farm" />
		<tag k="ssr:stedsnr" v="738835" />
	</node>
	<node lat="62.18903055652695" lon="5.825052775282875" id="-4622">
		<tag k="name" v="Hola" />
		<tag k="place" v="farm" />
		<tag k="ssr:stedsnr" v="739091" />
	</node>
	<node lat="62.058859594762986" lon="5.59728142738252" id="-4623">
		<tag k="alt_name" v="Morset" />
		<tag k="fixme" v="consider place=hamlet" />
		<tag k="name" v="Mårset" />
		<tag k="place" v="farm" />
		<tag k="ssr:stedsnr" v="739326" />
	</node>
	<node lat="62.053563077643915" lon="5.622726386439133" id="-4624">
		<tag k="fixme" v="consider place=hamlet" />
		<tag k="name" v="Sylte" />
		<tag k="place" v="village" />
		<tag k="ssr:stedsnr" v="739333" />
	</node>
	<node lat="62.10065555310019" lon="5.5578805464966194" id="-4627">
		<tag k="alt_name" v="Fiskåbygd" />
		<tag k="fixme" v="consider place=suburb, village or hamlet" />
		<tag k="name" v="Fiskå" />
		<tag k="place" v="quarter" />
		<tag k="ssr:stedsnr" v="739414" />
	</node>
	<node lat="62.104996795400076" lon="5.5908101828374575" id="-4628">
		<tag k="fixme" v="consider place=hamlet" />
		<tag k="name" v="Rusta" />
		<tag k="place" v="farm" />
		<tag k="ssr:stedsnr" v="739416" />
	</node>
	<node lat="62.106132901621976" lon="5.62233848845377" id="-4629">
		<tag k="fixme" v="consider place=hamlet" />
		<tag k="name" v="Storeide" />
		<tag k="place" v="farm" />
		<tag k="ssr:stedsnr" v="739424" />
	</node>
	<node lat="62.16849167014261" lon="5.706552774293537" id="-4631">
		<tag k="name" v="Midtbø" />
		<tag k="place" v="farm" />
		<tag k="ssr:stedsnr" v="739449" />
	</node>
	<node lat="62.136797221427074" lon="5.415888885472488" id="-4632">
		<tag k="alt_name" v="Breidemyra;Breidmyr" />
		<tag k="name" v="Breidemyr" />
		<tag k="place" v="farm" />
		<tag k="ssr:stedsnr" v="739483" />
	</node>
	<node lat="62.116888885654255" lon="5.5529972136597525" id="-4653">
		<tag k="name" v="Torestøylen" />
		<tag k="place" v="isolated_dwelling" />
		<tag k="ssr:stedsnr" v="754737" />
	</node>
	<node lat="62.188101053852435" lon="5.801915375269147" id="-4687">
		<tag k="fixme" v="consider place=hamlet" />
		<tag k="name" v="Sundnes" />
		<tag k="place" v="farm" />
		<tag k="ssr:stedsnr" v="766784" />
	</node>
	<node lat="62.18142222213551" lon="5.527705558172429" id="-4694">
		<tag k="name" v="Haugen" />
		<tag k="place" v="farm" />
		<tag k="ssr:stedsnr" v="766977" />
	</node>
	<node lat="62.15804722336949" lon="5.449263887437345" id="-4695">
		<tag k="name" v="Kvia" />
		<tag k="place" v="farm" />
		<tag k="ssr:stedsnr" v="766982" />
	</node>
	<node lat="62.096411111647484" lon="5.7572055596456355" id="-4697">
		<tag k="name" v="Nordvika" />
		<tag k="place" v="quarter" />
		<tag k="ssr:stedsnr" v="768629" />
	</node>
	<node lat="62.071441834338124" lon="5.553229534781843" id="-4698">
		<tag k="fixme" v="consider place=hamlet" />
		<tag k="name" v="Vikebakken" />
		<tag k="place" v="farm" />
		<tag k="ssr:stedsnr" v="783191" />
	</node>
	<node lat="62.03588333659683" lon="5.530902782571755" id="-4710">
		<tag k="fixme" v="consider place=hamlet" />
		<tag k="name" v="Åheim" />
		<tag k="place" v="village" />
		<tag k="ssr:stedsnr" v="799280" />
	</node>
	<node lat="62.08253889310626" lon="5.800819439416866" id="-4712">
		<tag k="name" v="Haggarden" />
		<tag k="place" v="farm" />
		<tag k="ssr:stedsnr" v="799863" />
	</node>
	<node lat="62.098761109012" lon="5.790605555961505" id="-4728">
		<tag k="name" v="Seltufta" />
		<tag k="place" v="locality" />
		<tag k="ssr:stedsnr" v="815144" />
	</node>
	<node lat="61.99753068654201" lon="5.655561016926889" id="-4733">
		<tag k="fixme" v="multiple name tags, choose one and add the other to alt_name" />
		<tag k="name" v="Lille Almklov;Bøen" />
		<tag k="old_name" v="Almklov Lille" />
		<tag k="place" v="farm" />
		<tag k="ssr:stedsnr" v="815656" />
	</node>
	<node lat="62.095916664088826" lon="5.601302787259018" id="-4743">
		<tag k="name" v="Småsætrane" />
		<tag k="place" v="locality" />
		<tag k="ssr:stedsnr" v="816269" />
	</node>
	<node lat="62.07172777714545" lon="5.623283327361987" id="-4747">
		<tag k="name" v="Lisjebøen" />
		<tag k="place" v="farm" />
		<tag k="ssr:stedsnr" v="817442" />
	</node>
	<node lat="62.0336361117404" lon="5.689491662070776" id="-4757">
		<tag k="name" v="Gamlesetra" />
		<tag k="place" v="locality" />
		<tag k="ssr:stedsnr" v="818457" />
	</node>
	<node lat="62.004947107772225" lon="5.6324645930367705" id="-4783">
		<tag k="name" v="Hellebust" />
		<tag k="place" v="hamlet" />
		<tag k="ssr:stedsnr" v="860243" />
	</node>
	<node lat="62.122930173070046" lon="5.668705206821979" id="-4787">
		<tag k="fixme" v="consider place=hamlet" />
		<tag k="name" v="Eidså" />
		<tag k="place" v="farm" />
		<tag k="ssr:stedsnr" v="860442" />
	</node>
	<node lat="62.10700554862826" lon="5.690054040013197" id="-4791">
		<tag k="fixme" v="consider place=hamlet" />
		<tag k="name" v="Takset" />
		<tag k="place" v="farm" />
		<tag k="ssr:stedsnr" v="860490" />
	</node>
	<node lat="62.09143055580395" lon="5.751794442995309" id="-4797">
		<tag k="name" v="Haugane" />
		<tag k="place" v="farm" />
		<tag k="ssr:stedsnr" v="860837" />
	</node>
	<node lat="62.061163890574214" lon="5.8425333237203185" id="-4802">
		<tag k="historic" v="shieling" />
		<tag k="name" v="Sætra" />
		<tag k="place" v="isolated_dwelling" />
		<tag k="ssr:stedsnr" v="860950" />
	</node>
	<node lat="62.00031320964757" lon="5.580524712775942" id="-4805">
		<tag k="alt_name" v="Grubse" />
		<tag k="fixme" v="consider place=hamlet" />
		<tag k="name" v="Grofsa" />
		<tag k="place" v="farm" />
		<tag k="ssr:stedsnr" v="861191" />
	</node>
	<node lat="62.15322221928683" lon="5.817802775430466" id="-4807">
		<tag k="alt_name" v="Rovdeselet, litle" />
		<tag k="historic" v="shieling" />
		<tag k="name" v="Litle Rovdeselet" />
		<tag k="place" v="isolated_dwelling" />
		<tag k="ssr:stedsnr" v="861051" />
	</node>
	<node lat="62.14628922738913" lon="5.661577874614053" id="-4808">
		<tag k="fixme" v="consider place=hamlet" />
		<tag k="name" v="Sandnes" />
		<tag k="place" v="farm" />
		<tag k="ssr:stedsnr" v="861472" />
	</node>
	<node lat="62.11046944748075" lon="5.495791666795315" id="-4821">
		<tag k="name" v="Myklebustsetra" />
		<tag k="place" v="locality" />
		<tag k="ssr:stedsnr" v="876735" />
	</node>
	<node lat="62.10350000420354" lon="5.559613897550441" id="-4826">
		<tag k="name" v="Fredsvoll" />
		<tag k="place" v="farm" />
		<tag k="ssr:stedsnr" v="876675" />
	</node>
	<node lat="62.102369445917695" lon="5.531080558922228" id="-4828">
		<tag k="name" v="Gotene" />
		<tag k="place" v="farm" />
		<tag k="ssr:stedsnr" v="876689" />
	</node>
	<node lat="62.128361110744166" lon="5.6285305493800974" id="-4835">
		<tag k="name" v="Kolgrovstøylen" />
		<tag k="place" v="locality" />
		<tag k="ssr:stedsnr" v="877148" />
	</node>
	<node lat="62.021380558407145" lon="5.533797227573742" id="-4841">
		<tag k="name" v="Tuefjøsane" />
		<tag k="place" v="locality" />
		<tag k="ssr:stedsnr" v="877596" />
	</node>
	<node lat="62.15451388643155" lon="5.4389833427024525" id="-4858">
		<tag k="name" v="Ytstemyrane" />
		<tag k="place" v="farm" />
		<tag k="ssr:stedsnr" v="887937" />
	</node>
	<node lat="62.164630558044244" lon="5.5534944414831315" id="-4863">
		<tag k="name" v="Plassen" />
		<tag k="place" v="farm" />
		<tag k="ssr:stedsnr" v="888944" />
	</node>
	<node lat="62.00036944621084" lon="5.4939416712761435" id="-4874">
		<tag k="historic" v="shieling" />
		<tag k="name" v="Heimste Skorgesetra" />
		<tag k="place" v="isolated_dwelling" />
		<tag k="ssr:stedsnr" v="936282" />
	</node>
	<node lat="62.0340000029694" lon="5.574544435668407" id="-4883">
		<tag k="historic" v="shieling" />
		<tag k="name" v="Brenslene" />
		<tag k="place" v="isolated_dwelling" />
		<tag k="ssr:stedsnr" v="936969" />
	</node>
	<node lat="62.15368055985434" lon="5.7791722265412195" id="-4895">
		<tag k="name" v="Stølen" />
		<tag k="place" v="locality" />
		<tag k="ssr:stedsnr" v="937820" />
	</node>
	<node lat="62.10463055452471" lon="5.697669440394865" id="-4941">
		<tag k="name" v="Flatefjøra" />
		<tag k="place" v="isolated_dwelling" />
		<tag k="ssr:stedsnr" v="951757" />
	</node>
	<node lat="62.069868386844156" lon="5.623740798080921" id="-4945">
		<tag k="name" v="Skjervheim" />
		<tag k="place" v="hamlet" />
		<tag k="ssr:stedsnr" v="982775" />
	</node>
	<node lat="62.174233896429676" lon="5.54227150598804" id="-4946">
		<tag k="alt_name" v="Krabbestien" />
		<tag k="fixme" v="consider place=hamlet" />
		<tag k="name" v="Krabbestigen" />
		<tag k="place" v="farm" />
		<tag k="ssr:stedsnr" v="982809" />
	</node>
	<node lat="62.08255084478724" lon="5.740386817577139" id="-4947">
		<tag k="name" v="Gylet" />
		<tag k="place" v="farm" />
		<tag k="ssr:stedsnr" v="1072037" />
	</node>
	<node lat="62.10351114522299" lon="5.437829281625435" id="-4948">
		<tag k="name" v="Solnes" />
		<tag k="place" v="farm" />
		<tag k="ssr:stedsnr" v="1072038" />
	</node>
	<node lat="62.092759317580345" lon="5.747342575045312" id="-4949">
		<tag k="name" v="Ulasgarden" />
		<tag k="place" v="farm" />
		<tag k="ssr:stedsnr" v="1072040" />
	</node>
	<node lat="62.091630711788675" lon="5.749232082498837" id="-4950">
		<tag k="name" v="Nakkolagarden" />
		<tag k="place" v="farm" />
		<tag k="ssr:stedsnr" v="1072041" />
	</node>
	<node lat="62.087367955873574" lon="5.7381334877358885" id="-4951">
		<tag k="name" v="Røysa" />
		<tag k="place" v="farm" />
		<tag k="ssr:stedsnr" v="1072043" />
	</node>
	<node lat="62.086707743510686" lon="5.738168015313268" id="-4952">
		<tag k="name" v="Ystebakk" />
		<tag k="place" v="farm" />
		<tag k="ssr:stedsnr" v="1072044" />
	</node>
	<node lat="62.081514331951475" lon="5.73857116801175" id="-4953">
		<tag k="name" v="Villabøen" />
		<tag k="place" v="farm" />
		<tag k="ssr:stedsnr" v="1072045" />
	</node>
	<node lat="62.176267283456845" lon="5.539468585580357" id="-4954">
		<tag k="name" v="Krabbestigen" />
		<tag k="place" v="farm" />
		<tag k="ssr:stedsnr" v="1072046" />
	</node>
	<node lat="62.16900974332742" lon="5.6319459255071305" id="-4964">
		<tag k="name" v="Bjørlykkja" />
		<tag k="place" v="farm" />
		<tag k="ssr:stedsnr" v="1074625" />
	</node>
	<node lat="62.195266889910506" lon="5.4863632715913155" id="-4965">
		<tag k="name" v="Sætrevik" />
		<tag k="place" v="farm" />
		<tag k="ssr:stedsnr" v="1074626" />
	</node>
	<node lat="62.0555594162374" lon="5.600690760417801" id="-4966">
		<tag k="name" v="Haugen" />
		<tag k="place" v="farm" />
		<tag k="ssr:stedsnr" v="1074628" />
	</node>
	<node lat="62.107442974350704" lon="5.691824903175076" id="-4967">
		<tag k="name" v="Karlgarden" />
		<tag k="place" v="farm" />
		<tag k="ssr:stedsnr" v="1074631" />
	</node>
	<node lat="62.14586634708783" lon="5.666954795004404" id="-4968">
		<tag k="name" v="Pergarden" />
		<tag k="place" v="farm" />
		<tag k="ssr:stedsnr" v="1074632" />
	</node>
	<node lat="62.09592924367288" lon="5.756665019213937" id="-5022">
		<tag k="name" v="Nordvik" />
		<tag k="old_name" v="NORVIK" />
		<tag k="place" v="farm" />
		<tag k="ssr:stedsnr" v="1078710" />
	</node>
	<node lat="62.10277801411038" lon="5.739042497932329" id="-5023">
		<tag k="name" v="Eikrem" />
		<tag k="old_name" v="Ekreim" />
		<tag k="place" v="farm" />
		<tag k="ssr:stedsnr" v="1078711" />
	</node>
	<node lat="62.10216557944077" lon="5.740851810554619" id="-5024">
		<tag k="name" v="Eikrem" />
		<tag k="old_name" v="Ekreim" />
		<tag k="place" v="farm" />
		<tag k="ssr:stedsnr" v="1078715" />
	</node>
	<node lat="62.10163091056291" lon="5.741674333561125" id="-5025">
		<tag k="name" v="Eikrem" />
		<tag k="old_name" v="Ekreim" />
		<tag k="place" v="farm" />
		<tag k="ssr:stedsnr" v="1078716" />
	</node>
	<node lat="62.10107996423513" lon="5.743189440717123" id="-5026">
		<tag k="name" v="Eikrem" />
		<tag k="old_name" v="Ekreim" />
		<tag k="place" v="farm" />
		<tag k="ssr:stedsnr" v="1078717" />
	</node>
	<node lat="62.10025896217331" lon="5.744863276555" id="-5027">
		<tag k="name" v="Indre Eikrem" />
		<tag k="place" v="farm" />
		<tag k="ssr:stedsnr" v="1078718" />
	</node>
	<node lat="62.109072363193874" lon="5.72673248915482" id="-5028">
		<tag k="name" v="Opsal" />
		<tag k="place" v="farm" />
		<tag k="ssr:stedsnr" v="1078720" />
	</node>
	<node lat="62.107862585393974" lon="5.727762772515085" id="-5029">
		<tag k="name" v="Opsal" />
		<tag k="place" v="farm" />
		<tag k="ssr:stedsnr" v="1078721" />
	</node>
	<node lat="62.109603427234916" lon="5.725302296687244" id="-5030">
		<tag k="name" v="Opsal" />
		<tag k="place" v="farm" />
		<tag k="ssr:stedsnr" v="1078722" />
	</node>
	<node lat="62.12938856676539" lon="5.698518242361217" id="-5031">
		<tag k="name" v="Ytre Skår" />
		<tag k="old_name" v="Skaar yttre" />
		<tag k="place" v="farm" />
		<tag k="ssr:stedsnr" v="1078723" />
	</node>
	<node lat="62.130132039489986" lon="5.697817067646732" id="-5032">
		<tag k="name" v="Ytre Skår" />
		<tag k="old_name" v="Skaar yttre" />
		<tag k="place" v="farm" />
		<tag k="ssr:stedsnr" v="1078724" />
	</node>
	<node lat="62.12847352234881" lon="5.696350321790785" id="-5033">
		<tag k="name" v="Indre Skår" />
		<tag k="old_name" v="SKAAR. INDRE." />
		<tag k="place" v="farm" />
		<tag k="ssr:stedsnr" v="1078725" />
	</node>
	<node lat="62.12674383661754" lon="5.696311622173393" id="-5034">
		<tag k="name" v="Indre Skår" />
		<tag k="old_name" v="Skaar indre" />
		<tag k="place" v="farm" />
		<tag k="ssr:stedsnr" v="1078726" />
	</node>
	<node lat="62.14503283662258" lon="5.423939147186724" id="-5035">
		<tag k="name" v="Rønnestad" />
		<tag k="old_name" v="Røinestad" />
		<tag k="place" v="farm" />
		<tag k="ssr:stedsnr" v="1078727" />
	</node>
	<node lat="62.14691352225248" lon="5.425567471153552" id="-5036">
		<tag k="name" v="Rønnestad" />
		<tag k="old_name" v="Røinestad" />
		<tag k="place" v="farm" />
		<tag k="ssr:stedsnr" v="1078728" />
	</node>
	<node lat="62.146180246391616" lon="5.425425327584211" id="-5037">
		<tag k="name" v="Rønnestad" />
		<tag k="old_name" v="Røinestad" />
		<tag k="place" v="farm" />
		<tag k="ssr:stedsnr" v="1078729" />
	</node>
	<node lat="62.02097653166159" lon="5.543310736375594" id="-5044">
		<tag k="name" v="Lunden" />
		<tag k="place" v="farm" />
		<tag k="ssr:stedsnr" v="1080183" />
	</node>
	<node lat="62.02963174829077" lon="5.532256187517791" id="-5045">
		<tag k="name" v="Kriken" />
		<tag k="place" v="farm" />
		<tag k="ssr:stedsnr" v="1080184" />
	</node>
	<node lat="62.15951850422916" lon="5.681415903895992" id="-5046">
		<tag k="name" v="Haukeland" />
		<tag k="place" v="farm" />
		<tag k="ssr:stedsnr" v="1080186" />
	</node>
	<node lat="62.071920449155584" lon="5.553063780247184" id="-5047">
		<tag k="alt_name" v="Vikebakke" />
		<tag k="name" v="Vikebakken" />
		<tag k="place" v="farm" />
		<tag k="ssr:stedsnr" v="1080187" />
	</node>
	<node lat="62.09935935864839" lon="5.746748017361122" id="-5048">
		<tag k="alt_name" v="Lund" />
		<tag k="name" v="Ellinggarden" />
		<tag k="place" v="farm" />
		<tag k="ssr:stedsnr" v="1080188" />
	</node>
	<node lat="62.07194135500607" lon="5.552240843340691" id="-5049">
		<tag k="name" v="Vikebakken" />
		<tag k="place" v="farm" />
		<tag k="ssr:stedsnr" v="1080189" />
	</node>
	<node lat="62.02028154339953" lon="5.5432825240618095" id="-5050">
		<tag k="name" v="Lunden" />
		<tag k="place" v="farm" />
		<tag k="ssr:stedsnr" v="1080190" />
	</node>
	<node lat="62.08624082355499" lon="5.582302719590841" id="-5060">
		<tag k="name" v="Tunheim" />
		<tag k="place" v="hamlet" />
		<tag k="ssr:stedsnr" v="1080735" />
	</node>
	<node lat="62.148352332791205" lon="5.428208769880305" id="-5061">
		<tag k="name" v="Molvika" />
		<tag k="old_name" v="Moldvik" />
		<tag k="place" v="farm" />
		<tag k="ssr:stedsnr" v="1081522" />
	</node>
	<node lat="62.01988752861909" lon="5.53960725296677" id="-5062">
		<tag k="alt_name" v="Bjørketun" />
		<tag k="name" v="Birkedal" />
		<tag k="place" v="farm" />
		<tag k="ssr:stedsnr" v="1081533" />
	</node>
	<node lat="62.14884069775867" lon="5.428378226266198" id="-5063">
		<tag k="name" v="Molvika" />
		<tag k="old_name" v="Moldvik" />
		<tag k="place" v="farm" />
		<tag k="ssr:stedsnr" v="1081521" />
	</node>
	<node lat="62.10632601311694" lon="5.648426535133659" id="-5067">
		<tag k="name" v="Lilleeide" />
		<tag k="old_name" v="EIDE LILLE" />
		<tag k="place" v="farm" />
		<tag k="ssr:stedsnr" v="1082089" />
	</node>
	<node lat="62.01352383129408" lon="5.635577066491725" id="-5068">
		<tag k="name" v="Ekreimsætra" />
		<tag k="old_name" v="EKREMSÆTER" />
		<tag k="place" v="farm" />
		<tag k="ssr:stedsnr" v="1082091" />
	</node>
	<node lat="62.01394190370595" lon="5.634506904541138" id="-5069">
		<tag k="name" v="Ekreimsætra" />
		<tag k="place" v="farm" />
		<tag k="ssr:stedsnr" v="1082092" />
	</node>
	<node lat="62.10598791762795" lon="5.624227703292182" id="-5072">
		<tag k="name" v="Adamsbruket" />
		<tag k="old_name" v="EIDE STORE" />
		<tag k="place" v="farm" />
		<tag k="ssr:stedsnr" v="1082095" />
	</node>
	<node lat="62.04790746625922" lon="5.6373333460428" id="-5073">
		<tag k="name" v="Steinane" />
		<tag k="old_name" v="Nedre Brekke" />
		<tag k="place" v="farm" />
		<tag k="ssr:stedsnr" v="1082096" />
	</node>
	<node lat="61.99768737785964" lon="5.6570938687198495" id="-5074">
		<tag k="name" v="Lille Almklov" />
		<tag k="old_name" v="Bøen" />
		<tag k="place" v="farm" />
		<tag k="ssr:stedsnr" v="1082112" />
	</node>
	<node lat="62.02277483624061" lon="5.542063016800943" id="-5075">
		<tag k="fixme" v="multiple name tags, choose one and add the other to alt_name" />
		<tag k="name" v="Lynget;Fagerhol" />
		<tag k="place" v="farm" />
		<tag k="ssr:stedsnr" v="1082166" />
	</node>
</osm>
