<?xml version="1.0" encoding="UTF-8"?>
<osm generator="osmapis" version="0.6">
	<node id="-54524" lat="62.0909055578" lon="5.79873332463">
		<tag k="highway" v="path" />
		<tag k="name" v="Raudevegen" />
		<tag k="ssr:stedsnr" v="90451" />
	</node>
	<node id="-53925" lat="62.1028361153" lon="5.49345832942">
		<tag k="bridge" v="yes" />
		<tag k="layer" v="1" />
		<tag k="name" v="Myklebustbrua" />
		<tag k="ssr:stedsnr" v="695435" />
	</node>
	<node id="-54006" lat="62.1982749971" lon="5.49596110777">
		<tag k="amenity" v="ferry_terminal" />
		<tag k="name" v="Åram ferjekai" />
		<tag k="ssr:stedsnr" v="580112" />
	</node>
	<node id="-55029" lat="62.1054388891" lon="5.72870000716">
		<tag k="bridge" v="yes" />
		<tag k="layer" v="1" />
		<tag k="name" v="Grytdalsbrua" />
		<tag k="ssr:stedsnr" v="573351" />
	</node>
	<node id="-55028" lat="62.0963861103" lon="5.74899722242">
		<tag k="bridge" v="yes" />
		<tag k="layer" v="1" />
		<tag k="name" v="Vikebrua" />
		<tag k="ssr:stedsnr" v="573350" />
	</node>
	<node id="-55027" lat="62.005277781" lon="5.62790000253">
		<tag k="bridge" v="yes" />
		<tag k="layer" v="1" />
		<tag k="name" v="Hellebustbrua" />
		<tag k="ssr:stedsnr" v="573341" />
	</node>
	<node id="-53746" lat="62.0529500031" lon="5.62185833431">
		<tag k="bridge" v="yes" />
		<tag k="layer" v="1" />
		<tag k="name" v="Syltebrua" />
		<tag k="ssr:stedsnr" v="512373" />
	</node>
	<node id="-53745" lat="62.0086055555" lon="5.63065832395">
		<tag k="bridge" v="yes" />
		<tag k="layer" v="1" />
		<tag k="name" v="Sandbrautbrua" />
		<tag k="ssr:stedsnr" v="512361" />
	</node>
	<node id="-53744" lat="62.0001833364" lon="5.62574721599">
		<tag k="bridge" v="yes" />
		<tag k="layer" v="1" />
		<tag k="name" v="Lidabrua" />
		<tag k="ssr:stedsnr" v="512356" />
	</node>
	<node id="-54122" lat="62.12832778" lon="5.58561944287">
		<tag k="ford" v="yes" />
		<tag k="name" v="Trollekloppa" />
		<tag k="place" v="locality" />
		<tag k="ssr:stedsnr" v="693374" />
	</node>
	<node id="-54503" lat="62.0718611157" lon="5.82138333901">
		<tag k="bridge" v="yes" />
		<tag k="layer" v="1" />
		<tag k="name" v="Skogakloppa" />
		<tag k="ssr:stedsnr" v="88353" />
	</node>
	<node id="-54502" lat="62.0701611119" lon="5.82935277594">
		<tag k="bridge" v="yes" />
		<tag k="layer" v="1" />
		<tag k="name" v="Sætrevadkloppa" />
		<tag k="ssr:stedsnr" v="88352" />
	</node>
	<node id="-54500" lat="62.0864916674" lon="5.72666666955">
		<tag k="bridge" v="yes" />
		<tag k="layer" v="1" />
		<tag k="name" v="Osegangbrua" />
		<tag k="ssr:stedsnr" v="88319" />
	</node>
	<node id="-54499" lat="62.0869472255" lon="5.72474722833">
		<tag k="bridge" v="yes" />
		<tag k="layer" v="1" />
		<tag k="name" v="Harbakkbrua" />
		<tag k="ssr:stedsnr" v="88316" />
	</node>
	<node id="-54498" lat="61.9859166668" lon="5.50109722088">
		<tag k="bridge" v="yes" />
		<tag k="layer" v="1" />
		<tag k="name" v="Skitnevikbrua" />
		<tag k="ssr:stedsnr" v="88313" />
	</node>
	<node id="-54497" lat="62.0974194433" lon="5.56846389438">
		<tag k="bridge" v="yes" />
		<tag k="layer" v="1" />
		<tag k="name" v="Fiskåbrua" />
		<tag k="ssr:stedsnr" v="88301" />
	</node>
	<node id="-54877" lat="61.9988777769" lon="5.51862778342">
		<tag k="ford" v="yes" />
		<tag k="name" v="Vaulen" />
		<tag k="place" v="locality" />
		<tag k="ssr:stedsnr" v="391415" />
	</node>
	<node id="-55260" lat="62.1382277813" lon="5.63811110932">
		<tag k="highway" v="path" />
		<tag k="name" v="Dyrestigen" />
		<tag k="ssr:stedsnr" v="766956" />
	</node>
	<node id="-54489" lat="62.0404111144" lon="5.63859721992">
		<tag k="highway" v="path" />
		<tag k="name" v="Budalsråsa" />
		<tag k="ssr:stedsnr" v="87832" />
	</node>
	<node id="-54230" lat="62.1702666698" lon="5.64419445126">
		<tag k="amenity" v="ferry_terminal" />
		<tag k="name" v="Koparneset ferjekai" />
		<tag k="ssr:stedsnr" v="823275" />
	</node>
	<node id="-54859" lat="62.1131749995" lon="5.54801943595">
		<tag k="highway" v="path" />
		<tag k="name" v="Dyregotene" />
		<tag k="ssr:stedsnr" v="390641" />
	</node>
	<node id="-54218" lat="62.0354833316" lon="5.53021943523">
		<tag k="bridge" v="yes" />
		<tag k="layer" v="1" />
		<tag k="name" v="Åheimsbrua" />
		<tag k="ssr:stedsnr" v="816360" />
	</node>
	<node id="-53510" lat="62.1403916667" lon="5.42160832944">
		<tag k="bridge" v="yes" />
		<tag k="layer" v="1" />
		<tag k="name" v="Krokevikbrua" />
		<tag k="ssr:stedsnr" v="209423" />
	</node>
	<node id="-54342" lat="62.1682722249" lon="5.55787778545">
		<tag k="bridge" v="yes" />
		<tag k="layer" v="1" />
		<tag k="name" v="Brandalsbrua" />
		<tag k="ssr:stedsnr" v="937411" />
	</node>
	<node id="-55365" lat="62.1428527784" lon="5.65889445232">
		<tag k="bridge" v="yes" />
		<tag k="layer" v="1" />
		<tag k="name" v="Bergvadkloppa" />
		<tag k="ssr:stedsnr" v="827961" />
	</node>
	<node id="-55362" lat="62.1463305519" lon="5.55372499299">
		<tag k="ford" v="yes" />
		<tag k="name" v="Syrevadet" />
		<tag k="place" v="locality" />
		<tag k="ssr:stedsnr" v="827933" />
	</node>
	<node id="-54261" lat="62.0713638931" lon="5.622188889">
		<tag k="bridge" v="yes" />
		<tag k="layer" v="1" />
		<tag k="name" v="Skjervheimsgangbrua" />
		<tag k="ssr:stedsnr" v="937401" />
	</node>
	<node id="-55330" lat="62.1553444423" lon="5.4429722265">
		<tag k="bridge" v="yes" />
		<tag k="layer" v="1" />
		<tag k="name" v="Sandvikbrua" />
		<tag k="ssr:stedsnr" v="816390" />
	</node>
	<node id="-54260" lat="62.0713194441" lon="5.62201665963">
		<tag k="bridge" v="yes" />
		<tag k="layer" v="1" />
		<tag k="name" v="Skjervheimsbrua" />
		<tag k="ssr:stedsnr" v="937391" />
	</node>
	<node id="-55220" lat="62.1146361081" lon="5.67264444319">
		<tag k="bridge" v="yes" />
		<tag k="layer" v="1" />
		<tag k="name" v="Eidsågangbrua" />
		<tag k="ssr:stedsnr" v="755367" />
	</node>
	<node id="-54707" lat="62.1456361147" lon="5.66466388343">
		<tag k="bridge" v="yes" />
		<tag k="layer" v="1" />
		<tag k="name" v="Sandnesbrua" />
		<tag k="ssr:stedsnr" v="209388" />
	</node>
	<node id="-54706" lat="62.1763055582" lon="5.7431611105">
		<tag k="bridge" v="yes" />
		<tag k="layer" v="1" />
		<tag k="name" v="Årskogbrua" />
		<tag k="ssr:stedsnr" v="209377" />
	</node>
	<node id="-54705" lat="61.9967166698" lon="5.63042500232">
		<tag k="bridge" v="yes" />
		<tag k="layer" v="1" />
		<tag k="name" v="Kassebrua" />
		<tag k="ssr:stedsnr" v="209366" />
	</node>
	<node id="-55219" lat="62.1014555599" lon="5.53964999765">
		<tag k="bridge" v="yes" />
		<tag k="layer" v="1" />
		<tag k="name" v="Strandabrua" />
		<tag k="ssr:stedsnr" v="755359" />
	</node>
	<node id="-54068" lat="62.0181194404" lon="5.54758332452">
		<tag k="bridge" v="yes" />
		<tag k="layer" v="1" />
		<tag k="name" v="Resbrua" />
		<tag k="ssr:stedsnr" v="877607" />
	</node>
	<node id="-53418" lat="62.0531555542" lon="5.62162500655">
		<tag k="bridge" v="yes" />
		<tag k="layer" v="1" />
		<tag k="name" v="Syltegangbrua" />
		<tag k="ssr:stedsnr" v="270382" />
	</node>
	<node id="-53601" lat="62.1746666685" lon="5.43708610205">
		<tag k="man_made" v="quay" />
		<tag k="name" v="Kraksetkaia" />
		<tag k="place" v="locality" />
		<tag k="ssr:stedsnr" v="461858" />
	</node>
	<node id="-53927" lat="62.0299833311" lon="5.52608334107">
		<tag k="name" v="Sjurledet" />
		<tag k="place" v="locality" />
		<tag k="ssr:stedsnr" v="695452" />
	</node>
	<node id="-54577" lat="62.1464499965" lon="5.7049277694">
		<tag k="highway" v="path" />
		<tag k="name" v="Blautestien" />
		<tag k="ssr:stedsnr" v="146939" />
	</node>
	<node id="-53924" lat="62.04502778" lon="5.697086118">
		<tag k="bridge" v="yes" />
		<tag k="layer" v="1" />
		<tag k="name" v="Nedrebergbrua" />
		<tag k="ssr:stedsnr" v="695429" />
	</node>
	<node id="-54598" lat="62.1147083316" lon="5.67270277595">
		<tag k="bridge" v="yes" />
		<tag k="layer" v="1" />
		<tag k="name" v="Eidsåbrua" />
		<tag k="ssr:stedsnr" v="148370" />
	</node>
	<node id="-53922" lat="62.0865555572" lon="5.72668333513">
		<tag k="bridge" v="yes" />
		<tag k="layer" v="1" />
		<tag k="name" v="Osebrua" />
		<tag k="ssr:stedsnr" v="695387" />
	</node>
	<node id="-55200" lat="62.0162611094" lon="5.63174722277">
		<tag k="bridge" v="yes" />
		<tag k="layer" v="1" />
		<tag k="name" v="Furebrua" />
		<tag k="ssr:stedsnr" v="754679" />
	</node>
	<node id="-54303" lat="62.1830777788" lon="5.81897500429">
		<tag k="highway" v="path" />
		<tag k="name" v="Kjennegota" />
		<tag k="ssr:stedsnr" v="940812" />
	</node>
	<node id="-54300" lat="62.089619441" lon="5.7656500099">
		<tag k="highway" v="path" />
		<tag k="name" v="Heggegotene" />
		<tag k="ssr:stedsnr" v="940434" />
	</node>
	<node id="-55192" lat="62.0969333355" lon="5.78296389153">
		<tag k="ford" v="yes" />
		<tag k="name" v="Fløytevadet" />
		<tag k="place" v="locality" />
		<tag k="ssr:stedsnr" v="754173" />
	</node>
	<node id="-53900" lat="62.0169333351" lon="5.57473611709">
		<tag k="bridge" v="yes" />
		<tag k="layer" v="1" />
		<tag k="name" v="Gusdalsbrua" />
		<tag k="ssr:stedsnr" v="693685" />
	</node>
	<node id="-53512" lat="62.078024996" lon="5.73890555847">
		<tag k="bridge" v="yes" />
		<tag k="layer" v="1" />
		<tag k="name" v="Myklebustbrua" />
		<tag k="ssr:stedsnr" v="209426" />
	</node>
	<node id="-53511" lat="62.0503888915" lon="5.7025861138">
		<tag k="bridge" v="yes" />
		<tag k="layer" v="1" />
		<tag k="name" v="Årelvbrua" />
		<tag k="ssr:stedsnr" v="209425" />
	</node>
	<node id="-54726" lat="62.0801305526" lon="5.74172499316">
		<tag k="highway" v="path" />
		<tag k="name" v="Grønegotå" />
		<tag k="ssr:stedsnr" v="211953" />
	</node>
	<node id="-54019" lat="62.0040583368" lon="5.57488333637">
		<tag k="bridge" v="yes" />
		<tag k="layer" v="1" />
		<tag k="name" v="Halsebrua" />
		<tag k="ssr:stedsnr" v="632577" />
	</node>
</osm>
