<?xml version="1.0" encoding="UTF-8"?>
<osm generator="osmapis" version="0.6">
	<node id="-105747" lat="61.1268777774" lon="10.4040472257">
		<tag k="bridge" v="yes" />
		<tag k="layer" v="1" />
		<tag k="name" v="Kollefall" />
		<tag k="ssr:stedsnr" v="653312" />
	</node>
	<node id="-106153" lat="61.0258861086" lon="10.4476083243">
		<tag k="bridge" v="yes" />
		<tag k="layer" v="1" />
		<tag k="name" v="Bjørnstad" />
		<tag k="ssr:stedsnr" v="956382" />
	</node>
	<node id="-104935" lat="61.1257666684" lon="10.228425004">
		<tag k="bridge" v="yes" />
		<tag k="layer" v="1" />
		<tag k="name" v="Berg" />
		<tag k="ssr:stedsnr" v="896353" />
	</node>
	<node id="-104934" lat="61.1315611107" lon="10.4342194444">
		<tag k="bridge" v="yes" />
		<tag k="layer" v="1" />
		<tag k="name" v="Korgvegen" />
		<tag k="ssr:stedsnr" v="896337" />
	</node>
	<node id="-104933" lat="61.1152861136" lon="10.2852222273">
		<tag k="bridge" v="yes" />
		<tag k="layer" v="1" />
		<tag k="name" v="Ulland" />
		<tag k="ssr:stedsnr" v="896323" />
	</node>
	<node id="-104917" lat="61.0371138869" lon="10.4254944411">
		<tag k="highway" v="path" />
		<tag k="name" v="Moslivegen" />
		<tag k="ssr:stedsnr" v="890400" />
	</node>
	<node id="-104914" lat="61.0885916661" lon="10.1779972177">
		<tag k="highway" v="path" />
		<tag k="name" v="Gamle Åltjernsvegen" />
		<tag k="ssr:stedsnr" v="474793" />
	</node>
	<node id="-104911" lat="61.1036916698" lon="10.0770999947">
		<tag k="highway" v="path" />
		<tag k="name" v="Gaustumseterråket" />
		<tag k="ssr:stedsnr" v="473841" />
	</node>
	<node id="-104907" lat="61.1053388851" lon="10.0767833403">
		<tag k="highway" v="path" />
		<tag k="name" v="Endreliråket" />
		<tag k="ssr:stedsnr" v="412793" />
	</node>
	<node id="-104906" lat="61.1170138924" lon="10.4610277816">
		<tag k="bridge" v="yes" />
		<tag k="layer" v="1" />
		<tag k="name" v="Brufoss" />
		<tag k="ssr:stedsnr" v="410355" />
	</node>
	<node id="-104905" lat="61.157502774" lon="10.3920666736">
		<tag k="bridge" v="yes" />
		<tag k="layer" v="1" />
		<tag k="name" v="Gausa" />
		<tag k="ssr:stedsnr" v="410354" />
	</node>
	<node id="-105928" lat="61.1393361081" lon="10.432797223">
		<tag k="bridge" v="yes" />
		<tag k="layer" v="1" />
		<tag k="name" v="Bæla" />
		<tag k="ssr:stedsnr" v="774394" />
	</node>
	<node id="-104903" lat="61.0924388864" lon="10.4339249965">
		<tag k="bridge" v="yes" />
		<tag k="layer" v="1" />
		<tag k="name" v="Øyre" />
		<tag k="ssr:stedsnr" v="410325" />
	</node>
	<node id="-105926" lat="61.0860583349" lon="10.1246333272">
		<tag k="highway" v="path" />
		<tag k="name" v="Svartdalsseter-råket" />
		<tag k="ssr:stedsnr" v="769899" />
	</node>
	<node id="-104897" lat="61.1066055523" lon="10.1704833304">
		<tag k="highway" v="path" />
		<tag k="name" v="Storstøråket" />
		<tag k="ssr:stedsnr" v="405459" />
	</node>
	<node id="-104895" lat="61.0423666658" lon="10.2198499999">
		<tag k="highway" v="path" />
		<tag k="name" v="Nyseterråket" />
		<tag k="ssr:stedsnr" v="405194" />
	</node>
	<node id="-105866" lat="61.1281027764" lon="10.5252916741">
		<tag k="highway" v="path" />
		<tag k="name" v="Birkebeinerløypa" />
		<tag k="ssr:stedsnr" v="723790" />
	</node>
	<node id="-105850" lat="61.1137277768" lon="10.0806888931">
		<tag k="highway" v="path" />
		<tag k="name" v="Mjogsjøråket" />
		<tag k="ssr:stedsnr" v="716817" />
	</node>
	<node id="-104825" lat="61.1878777807" lon="10.2996611061">
		<tag k="bridge" v="yes" />
		<tag k="layer" v="1" />
		<tag k="name" v="Arlien" />
		<tag k="ssr:stedsnr" v="349401" />
	</node>
	<node id="-105336" lat="61.1177194406" lon="10.0598888848">
		<tag k="highway" v="path" />
		<tag k="name" v="Mjogsjøråket" />
		<tag k="ssr:stedsnr" v="231857" />
	</node>
	<node id="-105845" lat="61.1567305538" lon="10.3409555537">
		<tag k="bridge" v="yes" />
		<tag k="layer" v="1" />
		<tag k="name" v="Djupå" />
		<tag k="ssr:stedsnr" v="714298" />
	</node>
	<node id="-105844" lat="61.116102782" lon="10.4483333306">
		<tag k="bridge" v="yes" />
		<tag k="layer" v="1" />
		<tag k="name" v="Kartongen" />
		<tag k="ssr:stedsnr" v="714296" />
	</node>
	<node id="-105843" lat="61.1031500037" lon="10.4908333351">
		<tag k="bridge" v="yes" />
		<tag k="layer" v="1" />
		<tag k="name" v="Langsethsvingen" />
		<tag k="ssr:stedsnr" v="714288" />
	</node>
	<node id="-105842" lat="61.1712916677" lon="10.6098416656">
		<tag k="bridge" v="yes" />
		<tag k="layer" v="1" />
		<tag k="name" v="Nevra" />
		<tag k="ssr:stedsnr" v="714286" />
	</node>
	<node id="-105841" lat="61.1598388863" lon="10.3312249953">
		<tag k="bridge" v="yes" />
		<tag k="layer" v="1" />
		<tag k="name" v="Sagbekken" />
		<tag k="ssr:stedsnr" v="714280" />
	</node>
	<node id="-105840" lat="61.116355559" lon="10.4459527845">
		<tag k="bridge" v="yes" />
		<tag k="layer" v="1" />
		<tag k="name" v="Strandtorget" />
		<tag k="ssr:stedsnr" v="714276" />
	</node>
	<node id="-105839" lat="61.1521638883" lon="10.416163886">
		<tag k="bridge" v="yes" />
		<tag k="layer" v="1" />
		<tag k="name" v="Vormstuen" />
		<tag k="ssr:stedsnr" v="714270" />
	</node>
	<node id="-105828" lat="61.0358888915" lon="10.2967055593">
		<tag k="highway" v="path" />
		<tag k="name" v="Nyseterråket" />
		<tag k="ssr:stedsnr" v="708402" />
	</node>
	<node id="-104803" lat="61.1207694424" lon="10.2658222229">
		<tag k="highway" v="path" />
		<tag k="name" v="Gamle Saksumdalsvegen" />
		<tag k="ssr:stedsnr" v="344946" />
	</node>
	<node id="-104801" lat="61.1832166676" lon="10.5240111069">
		<tag k="highway" v="path" />
		<tag k="name" v="Gamle Reinaråket" />
		<tag k="ssr:stedsnr" v="325720" />
	</node>
	<node id="-105301" lat="61.2197472252" lon="10.4390388807">
		<tag k="landuse" v="industrial" />
		<tag k="name" v="Hunderfossen" />
		<tag k="power" v="plant" />
		<tag k="ssr:stedsnr" v="190175" />
	</node>
	<node id="-105646" lat="61.1588111155" lon="10.4351833354">
		<tag k="fixme" v="consider highway=path" />
		<tag k="highway" v="track" />
		<tag k="name" v="Vardhøgdvegen" />
		<tag k="ssr:stedsnr" v="586861" />
	</node>
	<node id="-106174" lat="61.1803833375" lon="10.6306833413">
		<tag k="highway" v="path" />
		<tag k="name" v="Sjusjøråket" />
		<tag k="ssr:stedsnr" v="966555" />
	</node>
	<node id="-105769" lat="61.1581527788" lon="10.6040750049">
		<tag k="highway" v="path" />
		<tag k="name" v="Vintervegen" />
		<tag k="ssr:stedsnr" v="662644" />
	</node>
	<node id="-105248" lat="61.0344666705" lon="10.2412416688">
		<tag k="highway" v="path" />
		<tag k="name" v="Nyseterråket" />
		<tag k="ssr:stedsnr" v="176956" />
	</node>
	<node id="-105246" lat="61.2296305579" lon="10.4273722239">
		<tag k="bridge" v="yes" />
		<tag k="layer" v="1" />
		<tag k="name" v="Gruva" />
		<tag k="ssr:stedsnr" v="168336" />
	</node>
	<node id="-105245" lat="61.1023249968" lon="10.487177771">
		<tag k="alt_name" v="Langseth" />
		<tag k="bridge" v="yes" />
		<tag k="layer" v="1" />
		<tag k="name" v="Langset" />
		<tag k="ssr:stedsnr" v="167347" />
	</node>
	<node id="-105244" lat="61.1093083294" lon="10.4423777791">
		<tag k="bridge" v="yes" />
		<tag k="layer" v="1" />
		<tag k="name" v="Lillehammer" />
		<tag k="ssr:stedsnr" v="167346" />
	</node>
	<node id="-105243" lat="61.0464277777" lon="10.4300972199">
		<tag k="bridge" v="yes" />
		<tag k="layer" v="1" />
		<tag k="name" v="Rinna" />
		<tag k="ssr:stedsnr" v="167337" />
	</node>
	<node id="-105242" lat="61.1209722222" lon="10.444730564">
		<tag k="bridge" v="yes" />
		<tag k="layer" v="1" />
		<tag k="name" v="Skurva" />
		<tag k="ssr:stedsnr" v="167334" />
	</node>
	<node id="-105750" lat="61.1166527759" lon="10.4459861112">
		<tag k="bridge" v="yes" />
		<tag k="layer" v="1" />
		<tag k="name" v="Busmoen" />
		<tag k="ssr:stedsnr" v="653331" />
	</node>
	<node id="-105749" lat="61.0776027755" lon="10.430238894">
		<tag k="bridge" v="yes" />
		<tag k="layer" v="1" />
		<tag k="name" v="Hov" />
		<tag k="ssr:stedsnr" v="653320" />
	</node>
	<node id="-104724" lat="61.0977361094" lon="10.437638882">
		<tag k="bridge" v="yes" />
		<tag k="layer" v="1" />
		<tag k="name" v="Rise" />
		<tag k="ssr:stedsnr" v="289324" />
	</node>
	<node id="-104723" lat="61.1327249978" lon="10.4441694456">
		<tag k="bridge" v="yes" />
		<tag k="layer" v="1" />
		<tag k="name" v="Smestadvegen" />
		<tag k="ssr:stedsnr" v="289316" />
	</node>
	<node id="-105746" lat="61.1153638847" lon="10.451263883">
		<tag k="bridge" v="yes" />
		<tag k="layer" v="1" />
		<tag k="name" v="Mesnadalen" />
		<tag k="ssr:stedsnr" v="653308" />
	</node>
	<node id="-105745" lat="61.1768055554" lon="10.412988898">
		<tag k="bridge" v="yes" />
		<tag k="layer" v="1" />
		<tag k="name" v="Skog" />
		<tag k="ssr:stedsnr" v="653298" />
	</node>
	<node id="-105744" lat="61.0925833312" lon="10.4336444387">
		<tag k="bridge" v="yes" />
		<tag k="layer" v="1" />
		<tag k="name" v="Øyre" />
		<tag k="ssr:stedsnr" v="653285" />
	</node>
	<node id="-105743" lat="61.1212166681" lon="10.4445083312">
		<tag k="alt_name" v="Mosodden" />
		<tag k="layer" v="-1" />
		<tag k="name" v="Mosoddtunnelen" />
		<tag k="ssr:stedsnr" v="650326" />
		<tag k="tunnel" v="yes" />
	</node>
	<node id="-105235" lat="61.1048166675" lon="10.2873166734">
		<tag k="ford" v="yes" />
		<tag k="name" v="Myrkloppa" />
		<tag k="place" v="locality" />
		<tag k="ssr:stedsnr" v="162826" />
	</node>
	<node id="-104716" lat="61.0357361073" lon="10.3368333399">
		<tag k="highway" v="path" />
		<tag k="name" v="Moslivegen" />
		<tag k="ssr:stedsnr" v="284196" />
	</node>
	<node id="-105219" lat="61.1261805584" lon="10.2537111133">
		<tag k="highway" v="path" />
		<tag k="name" v="Gammelvegen" />
		<tag k="ssr:stedsnr" v="162127" />
	</node>
	<node id="-104824" lat="61.0726916666" lon="10.3716916726">
		<tag k="bridge" v="yes" />
		<tag k="layer" v="1" />
		<tag k="name" v="Døsen" />
		<tag k="ssr:stedsnr" v="349397" />
	</node>
	<node id="-106175" lat="61.1812555573" lon="10.6127055495">
		<tag k="highway" v="path" />
		<tag k="name" v="Geitstigen" />
		<tag k="ssr:stedsnr" v="966561" />
	</node>
	<node id="-105150" lat="61.1538916706" lon="10.39212778">
		<tag k="bridge" v="yes" />
		<tag k="layer" v="1" />
		<tag k="name" v="Jørstadmoen" />
		<tag k="ssr:stedsnr" v="107327" />
	</node>
	<node id="-105149" lat="61.0583111082" lon="10.4314833336">
		<tag k="bridge" v="yes" />
		<tag k="layer" v="1" />
		<tag k="name" v="Roligheten" />
		<tag k="ssr:stedsnr" v="107318" />
	</node>
	<node id="-105148" lat="61.1996750005" lon="10.4066749944">
		<tag k="bridge" v="yes" />
		<tag k="layer" v="1" />
		<tag k="name" v="Å bru" />
		<tag k="ssr:stedsnr" v="107308" />
	</node>
	<node id="-105658" lat="61.1241583362" lon="10.3981416591">
		<tag k="bridge" v="yes" />
		<tag k="layer" v="1" />
		<tag k="name" v="Kollefall" />
		<tag k="ssr:stedsnr" v="592343" />
	</node>
	<node id="-105657" lat="61.1165972247" lon="10.4464777795">
		<tag k="bridge" v="yes" />
		<tag k="layer" v="1" />
		<tag k="name" v="Mesna rampebru" />
		<tag k="ssr:stedsnr" v="592338" />
	</node>
	<node id="-105656" lat="61.1340638926" lon="10.3869694443">
		<tag k="bridge" v="yes" />
		<tag k="layer" v="1" />
		<tag k="name" v="Nordlien" />
		<tag k="ssr:stedsnr" v="592336" />
	</node>
	<node id="-105332" lat="61.1301277776" lon="10.44506388">
		<tag k="bridge" v="yes" />
		<tag k="layer" v="1" />
		<tag k="name" v="Industrigata" />
		<tag k="ssr:stedsnr" v="228364" />
	</node>
	<node id="-105654" lat="61.047227774" lon="10.4345833252">
		<tag k="bridge" v="yes" />
		<tag k="layer" v="1" />
		<tag k="name" v="Vingromdammen" />
		<tag k="ssr:stedsnr" v="592326" />
	</node>
	<node id="-106165" lat="61.0502527806" lon="10.2002972153">
		<tag k="highway" v="path" />
		<tag k="name" v="Sjoghaugråket" />
		<tag k="ssr:stedsnr" v="965972" />
	</node>
	<node id="-105331" lat="61.115005552" lon="10.4544944453">
		<tag k="bridge" v="yes" />
		<tag k="layer" v="1" />
		<tag k="name" v="Knappefabrikken" />
		<tag k="ssr:stedsnr" v="228361" />
	</node>
	<node id="-104904" lat="61.0450416674" lon="10.4338027733">
		<tag k="bridge" v="yes" />
		<tag k="layer" v="1" />
		<tag k="name" v="Vingrom" />
		<tag k="ssr:stedsnr" v="410331" />
	</node>
	<node id="-105134" lat="61.1918305518" lon="10.5808916703">
		<tag k="highway" v="path" />
		<tag k="name" v="Gamle Reinaråket" />
		<tag k="ssr:stedsnr" v="101265" />
	</node>
	<node id="-105330" lat="61.1527583329" lon="10.4061222157">
		<tag k="bridge" v="yes" />
		<tag k="layer" v="1" />
		<tag k="name" v="Sundgården" />
		<tag k="ssr:stedsnr" v="228339" />
	</node>
	<node id="-106154" lat="61.107583337" lon="10.4426472142">
		<tag k="bridge" v="yes" />
		<tag k="layer" v="1" />
		<tag k="name" v="Jørstadmovegen" />
		<tag k="ssr:stedsnr" v="957318" />
	</node>
	<node id="-105927" lat="61.1929222238" lon="10.2898305547">
		<tag k="bridge" v="yes" />
		<tag k="layer" v="1" />
		<tag k="name" v="Ingridå" />
		<tag k="ssr:stedsnr" v="774384" />
	</node>
	<node id="-106152" lat="61.161711108" lon="10.4092111019">
		<tag k="bridge" v="yes" />
		<tag k="layer" v="1" />
		<tag k="name" v="Smerud" />
		<tag k="ssr:stedsnr" v="956358" />
	</node>
	<node id="-106151" lat="61.0919583301" lon="10.4334944408">
		<tag k="bridge" v="yes" />
		<tag k="layer" v="1" />
		<tag k="name" v="Øyre" />
		<tag k="ssr:stedsnr" v="956355" />
	</node>
	<node id="-106148" lat="61.09056389" lon="10.0829388968">
		<tag k="highway" v="path" />
		<tag k="name" v="Dølvegen" />
		<tag k="ssr:stedsnr" v="951904" />
	</node>
	<node id="-105414" lat="61.1799277774" lon="10.4903749973">
		<tag k="highway" v="path" />
		<tag k="name" v="Kneet" />
		<tag k="ssr:stedsnr" v="420744" />
	</node>
	<node id="-105333" lat="61.1479527791" lon="10.4142083347">
		<tag k="bridge" v="yes" />
		<tag k="layer" v="1" />
		<tag k="name" v="Gausdalsarmen" />
		<tag k="ssr:stedsnr" v="228368" />
	</node>
	<node id="-104726" lat="61.1123611072" lon="10.1165472216">
		<tag k="highway" v="path" />
		<tag k="name" v="Dølvegen" />
		<tag k="ssr:stedsnr" v="292823" />
	</node>
	<node id="-104725" lat="61.1246555564" lon="10.4713444472">
		<tag k="bridge" v="yes" />
		<tag k="layer" v="1" />
		<tag k="name" v="Hallbrua" />
		<tag k="ssr:stedsnr" v="289335" />
	</node>
	<node id="-105748" lat="61.1571083316" lon="10.3925527712">
		<tag k="bridge" v="yes" />
		<tag k="layer" v="1" />
		<tag k="name" v="Jorekstad" />
		<tag k="ssr:stedsnr" v="653319" />
	</node>
	<node id="-105076" lat="61.1497750015" lon="10.3413499921">
		<tag k="bridge" v="yes" />
		<tag k="layer" v="1" />
		<tag k="name" v="Djupå" />
		<tag k="ssr:stedsnr" v="46356" />
	</node>
	<node id="-105075" lat="61.0686472185" lon="10.4305833374">
		<tag k="bridge" v="yes" />
		<tag k="layer" v="1" />
		<tag k="name" v="Røine" />
		<tag k="ssr:stedsnr" v="46339" />
	</node>
	<node id="-105074" lat="61.1267722195" lon="10.3930555469">
		<tag k="bridge" v="yes" />
		<tag k="layer" v="1" />
		<tag k="name" v="Skvalbekken" />
		<tag k="ssr:stedsnr" v="46335" />
	</node>
	<node id="-105073" lat="61.1150611088" lon="10.4564555617">
		<tag k="layer" v="-1" />
		<tag k="name" v="Sorgendalstunnelen" />
		<tag k="old_name" v="Sorgendal" />
		<tag k="ssr:stedsnr" v="44719" />
		<tag k="tunnel" v="yes" />
	</node>
	<node id="-105072" lat="61.1138777737" lon="10.4626861084">
		<tag k="layer" v="-1" />
		<tag k="name" v="Jernbanetorgtunnelen" />
		<tag k="old_name" v="Jernbanetorget" />
		<tag k="ssr:stedsnr" v="44256" />
		<tag k="tunnel" v="yes" />
	</node>
	<node id="-104722" lat="61.0473388865" lon="10.4346583333">
		<tag k="bridge" v="yes" />
		<tag k="layer" v="1" />
		<tag k="name" v="Vingrom" />
		<tag k="ssr:stedsnr" v="289309" />
	</node>
	<node id="-106084" lat="61.1816277755" lon="10.6114249945">
		<tag k="highway" v="path" />
		<tag k="name" v="Krøtterråket" />
		<tag k="ssr:stedsnr" v="906549" />
	</node>
	<node id="-105569" lat="61.0995944486" lon="10.5109777824">
		<tag k="bridge" v="yes" />
		<tag k="layer" v="1" />
		<tag k="name" v="Askjellrud" />
		<tag k="ssr:stedsnr" v="532316" />
	</node>
	<node id="-105568" lat="61.1335416647" lon="10.4273694525">
		<tag k="bridge" v="yes" />
		<tag k="layer" v="1" />
		<tag k="name" v="Skikstadgutua" />
		<tag k="ssr:stedsnr" v="532300" />
	</node>
	<node id="-105567" lat="61.1566916667" lon="10.3171527712">
		<tag k="bridge" v="yes" />
		<tag k="layer" v="1" />
		<tag k="name" v="Sagbekken" />
		<tag k="ssr:stedsnr" v="532299" />
	</node>
	<node id="-105566" lat="61.1006666699" lon="10.4394250013">
		<tag k="bridge" v="yes" />
		<tag k="layer" v="1" />
		<tag k="name" v="Strand" />
		<tag k="ssr:stedsnr" v="532297" />
	</node>
	<node id="-105565" lat="61.1023277782" lon="10.4767361113">
		<tag k="bridge" v="yes" />
		<tag k="layer" v="1" />
		<tag k="name" v="Åretta" />
		<tag k="ssr:stedsnr" v="532287" />
	</node>
	<node id="-105564" lat="61.102805552" lon="10.4770944487">
		<tag k="bridge" v="yes" />
		<tag k="layer" v="1" />
		<tag k="name" v="Åretta" />
		<tag k="ssr:stedsnr" v="532286" />
	</node>
	<node id="-105552" lat="61.0922111108" lon="10.1952111189">
		<tag k="highway" v="path" />
		<tag k="name" v="Gamle Åltjernsvegen" />
		<tag k="ssr:stedsnr" v="526153" />
	</node>
	<node id="-105655" lat="61.106672222" lon="10.4775638904">
		<tag k="bridge" v="yes" />
		<tag k="layer" v="1" />
		<tag k="name" v="Trararo" />
		<tag k="ssr:stedsnr" v="592327" />
	</node>
	<node id="-105504" lat="61.17614722" lon="10.5233888797">
		<tag k="highway" v="path" />
		<tag k="name" v="Gropråket" />
		<tag k="ssr:stedsnr" v="480755" />
	</node>
	<node id="-106011" lat="61.1681111088" lon="10.4035500013">
		<tag k="bridge" v="yes" />
		<tag k="layer" v="1" />
		<tag k="name" v="Fåberg" />
		<tag k="ssr:stedsnr" v="835354" />
	</node>
	<node id="-105494" lat="61.1908083342" lon="10.2746611095">
		<tag k="bridge" v="yes" />
		<tag k="layer" v="1" />
		<tag k="name" v="Ingridå" />
		<tag k="ssr:stedsnr" v="471332" />
	</node>
	<node id="-105493" lat="61.1549750041" lon="10.4133722246">
		<tag k="bridge" v="yes" />
		<tag k="layer" v="1" />
		<tag k="name" v="Nord-Hove" />
		<tag k="ssr:stedsnr" v="471320" />
	</node>
	<node id="-105492" lat="61.2265055591" lon="10.4280333283">
		<tag k="bridge" v="yes" />
		<tag k="layer" v="1" />
		<tag k="name" v="Porten" />
		<tag k="ssr:stedsnr" v="471319" />
	</node>
	<node id="-105491" lat="61.1486277753" lon="10.4251249932">
		<tag k="bridge" v="yes" />
		<tag k="layer" v="1" />
		<tag k="name" v="Stor-Hove" />
		<tag k="ssr:stedsnr" v="471306" />
	</node>
	<node id="-105998" lat="61.0706611107" lon="10.1884500006">
		<tag k="highway" v="path" />
		<tag k="name" v="Gamle Vismundsvegen" />
		<tag k="ssr:stedsnr" v="830169" />
	</node>
	<node id="-104973" lat="61.1145657279" lon="10.4615222769">
		<tag k="name" v="Lillehammer stasjon" />
		<tag k="railway" v="station" />
		<tag k="ssr:stedsnr" v="989993" />
		<tag k="train" v="yes" />
	</node>
	<node id="-104972" lat="61.1395322783" lon="10.4216274627">
		<tag k="name" v="Hove stasjon" />
		<tag k="railway" v="station" />
		<tag k="ssr:stedsnr" v="989990" />
		<tag k="train" v="yes" />
	</node>
	<node id="-104971" lat="61.1709327848" lon="10.4051293471">
		<tag k="name" v="Fåberg stasjon" />
		<tag k="railway" v="station" />
		<tag k="ssr:stedsnr" v="989652" />
		<tag k="train" v="yes" />
	</node>
	<node id="-104970" lat="61.223474338" lon="10.4385421165">
		<tag k="name" v="Hunderfossen holdeplass" />
		<tag k="railway" v="halt" />
		<tag k="ssr:stedsnr" v="989633" />
		<tag k="train" v="yes" />
	</node>
</osm>
