<?xml version="1.0" encoding="UTF-8"?>
<osm generator="osmapis" version="0.6">
	<node id="-105969" lat="61.0265305538" lon="10.3578222162">
		<tag k="fixme" v="consider natural=peak for the most distinct mountains in the district" />
		<tag k="name" v="Høgåsen" />
		<tag k="natural" v="hill" />
		<tag k="place" v="locality" />
		<tag k="ssr:stedsnr" v="796762" />
	</node>
	<node id="-105450" lat="61.1847055575" lon="10.5312611071">
		<tag k="name" v="Huerhaugen" />
		<tag k="natural" v="hill" />
		<tag k="place" v="locality" />
		<tag k="ssr:stedsnr" v="432929" />
	</node>
	<node id="-104937" lat="61.0529277734" lon="10.3488361139">
		<tag k="name" v="Rindalslia" />
		<tag k="natural" v="slope" />
		<tag k="place" v="locality" />
		<tag k="ssr:stedsnr" v="898820" />
	</node>
	<node id="-104936" lat="61.1103833369" lon="10.0903888871">
		<tag k="name" v="Sladrehaugen" />
		<tag k="natural" v="hill" />
		<tag k="place" v="locality" />
		<tag k="ssr:stedsnr" v="898817" />
	</node>
	<node id="-104930" lat="61.232994442" lon="10.4191333369">
		<tag k="name" v="Svarverudberget" />
		<tag k="natural" v="cliff" />
		<tag k="ssr:stedsnr" v="891181" />
	</node>
	<node id="-104929" lat="61.155102782" lon="10.426691672">
		<tag k="name" v="Svartberget" />
		<tag k="natural" v="cliff" />
		<tag k="ssr:stedsnr" v="890877" />
	</node>
	<node id="-105438" lat="61.0216888882" lon="10.4002055515">
		<tag k="alt_name" v="Bjønnådalen" />
		<tag k="name" v="Bjørnådalen" />
		<tag k="natural" v="valley" />
		<tag k="place" v="locality" />
		<tag k="ssr:stedsnr" v="432715" />
	</node>
	<node id="-105947" lat="61.1569000027" lon="10.4866138953">
		<tag k="name" v="Sjøseterhøgda" />
		<tag k="natural" v="hill" />
		<tag k="place" v="locality" />
		<tag k="ssr:stedsnr" v="784865" />
	</node>
	<node id="-104919" lat="61.1625888897" lon="10.3941861033">
		<tag k="name" v="Steinkista" />
		<tag k="place" v="locality" />
		<tag k="ssr:stedsnr" v="890590" />
	</node>
	<node id="-105428" lat="61.1416166666" lon="10.2793611105">
		<tag k="name" v="Turtdalshøgda" />
		<tag k="natural" v="hill" />
		<tag k="place" v="locality" />
		<tag k="ssr:stedsnr" v="432073" />
	</node>
	<node id="-104913" lat="61.0732750017" lon="10.3471638903">
		<tag k="name" v="Døslia" />
		<tag k="natural" v="slope" />
		<tag k="place" v="locality" />
		<tag k="ssr:stedsnr" v="473865" />
	</node>
	<node id="-104910" lat="61.1182888861" lon="10.079563895">
		<tag k="name" v="Skjellbreidsfjellet" />
		<tag k="natural" v="hill" />
		<tag k="place" v="locality" />
		<tag k="ssr:stedsnr" v="473835" />
	</node>
	<node id="-104909" lat="61.116602774" lon="10.0972472294">
		<tag k="name" v="Kokslihaugen" />
		<tag k="natural" v="hill" />
		<tag k="place" v="locality" />
		<tag k="ssr:stedsnr" v="473824" />
	</node>
	<node id="-105415" lat="61.1050527803" lon="10.4956444489">
		<tag k="name" v="Saudalen" />
		<tag k="natural" v="valley" />
		<tag k="place" v="locality" />
		<tag k="ssr:stedsnr" v="420763" />
	</node>
	<node id="-104901" lat="61.134869443" lon="10.4183305528">
		<tag k="name" v="Kobberslagergrøpene" />
		<tag k="natural" v="valley" />
		<tag k="place" v="locality" />
		<tag k="ssr:stedsnr" v="405807" />
	</node>
	<node id="-104898" lat="61.2084805517" lon="10.3782888881">
		<tag k="name" v="Trolldalen" />
		<tag k="natural" v="valley" />
		<tag k="place" v="locality" />
		<tag k="ssr:stedsnr" v="405618" />
	</node>
	<node id="-105921" lat="61.1840583312" lon="10.2213027689">
		<tag k="fixme" v="consider natural=peak for the most distinct mountains in the district" />
		<tag k="name" v="Stølkjølen" />
		<tag k="natural" v="hill" />
		<tag k="place" v="locality" />
		<tag k="ssr:stedsnr" v="769238" />
	</node>
	<node id="-104893" lat="61.1674583345" lon="10.4239944383">
		<tag k="name" v="Døldbakken" />
		<tag k="natural" v="slope" />
		<tag k="place" v="locality" />
		<tag k="ssr:stedsnr" v="404852" />
	</node>
	<node id="-105916" lat="61.1629777775" lon="10.4660611058">
		<tag k="name" v="Lundesvelia" />
		<tag k="natural" v="slope" />
		<tag k="place" v="locality" />
		<tag k="ssr:stedsnr" v="768659" />
	</node>
	<node id="-104887" lat="61.1698166645" lon="10.4787611151">
		<tag k="name" v="Rabben" />
		<tag k="natural" v="slope" />
		<tag k="place" v="locality" />
		<tag k="ssr:stedsnr" v="372918" />
	</node>
	<node id="-104886" lat="61.1095805513" lon="10.4118166702">
		<tag k="name" v="Korpeberget" />
		<tag k="natural" v="hill" />
		<tag k="place" v="locality" />
		<tag k="ssr:stedsnr" v="372836" />
	</node>
	<node id="-105397" lat="61.1999666703" lon="10.5340694382">
		<tag k="name" v="Kvitmåsåberget" />
		<tag k="natural" v="hill" />
		<tag k="place" v="locality" />
		<tag k="ssr:stedsnr" v="265770" />
	</node>
	<node id="-105395" lat="61.136922222" lon="10.4118861186">
		<tag k="name" v="Hovemoen" />
		<tag k="place" v="locality" />
		<tag k="ssr:stedsnr" v="250995" />
	</node>
	<node id="-105394" lat="61.1496833299" lon="10.5769249917">
		<tag k="alt_name" v="Sjøseteråsen" />
		<tag k="fixme" v="consider natural=peak for the most distinct mountains in the district" />
		<tag k="name" v="Sjøsæterhøgda" />
		<tag k="natural" v="hill" />
		<tag k="place" v="locality" />
		<tag k="ssr:stedsnr" v="250984" />
	</node>
	<node id="-104880" lat="61.1003694473" lon="10.0715138843">
		<tag k="alt_name" v="Bleikjefjellet" />
		<tag k="fixme" v="consider natural=peak for the most distinct mountains in the district" />
		<tag k="name" v="Bleikefjellet" />
		<tag k="natural" v="hill" />
		<tag k="place" v="locality" />
		<tag k="ssr:stedsnr" v="372036" />
	</node>
	<node id="-104874" lat="61.1779305518" lon="10.580047231">
		<tag k="fixme" v="consider natural=peak for the most distinct mountains in the district" />
		<tag k="name" v="Grøtåshaugen" />
		<tag k="natural" v="hill" />
		<tag k="place" v="locality" />
		<tag k="ssr:stedsnr" v="371897" />
	</node>
	<node id="-105384" lat="61.1861166698" lon="10.3649611105">
		<tag k="name" v="Tjernshaugen" />
		<tag k="natural" v="hill" />
		<tag k="place" v="locality" />
		<tag k="ssr:stedsnr" v="250920" />
	</node>
	<node id="-105383" lat="61.193616669" lon="10.6465138817">
		<tag k="fixme" v="consider natural=peak for the most distinct mountains in the district" />
		<tag k="name" v="Løvisåsen" />
		<tag k="natural" v="hill" />
		<tag k="place" v="locality" />
		<tag k="ssr:stedsnr" v="250914" />
	</node>
	<node id="-105381" lat="61.2044472251" lon="10.5670083299">
		<tag k="name" v="Nevelfjell" />
		<tag k="natural" v="hill" />
		<tag k="place" v="locality" />
		<tag k="ssr:stedsnr" v="250906" />
	</node>
	<node id="-104868" lat="61.1150305536" lon="10.3469361077">
		<tag k="name" v="Tjernshaugen" />
		<tag k="natural" v="hill" />
		<tag k="place" v="locality" />
		<tag k="ssr:stedsnr" v="371810" />
	</node>
	<node id="-104860" lat="61.2395194414" lon="10.370497216">
		<tag k="fixme" v="consider natural=peak for the most distinct mountains in the district" />
		<tag k="name" v="Lønstølhaugen" />
		<tag k="natural" v="hill" />
		<tag k="place" v="locality" />
		<tag k="ssr:stedsnr" v="371132" />
	</node>
	<node id="-104858" lat="61.1210583374" lon="10.071305558">
		<tag k="fixme" v="consider natural=peak for the most distinct mountains in the district" />
		<tag k="name" v="Skjellbreida" />
		<tag k="natural" v="hill" />
		<tag k="place" v="locality" />
		<tag k="ssr:stedsnr" v="371091" />
	</node>
	<node id="-105872" lat="61.2159916682" lon="10.7070055568">
		<tag k="name" v="Mellsjøhøgda" />
		<tag k="natural" v="hill" />
		<tag k="place" v="locality" />
		<tag k="ssr:stedsnr" v="735174" />
	</node>
	<node id="-105869" lat="61.06046389" lon="10.2340305512">
		<tag k="alt_name" v="Sjoghaugen" />
		<tag k="name" v="Sjogehaugen" />
		<tag k="natural" v="hill" />
		<tag k="place" v="locality" />
		<tag k="ssr:stedsnr" v="735053" />
	</node>
	<node id="-104842" lat="61.1874722222" lon="10.6266416695">
		<tag k="name" v="Snauskallen" />
		<tag k="natural" v="hill" />
		<tag k="place" v="locality" />
		<tag k="ssr:stedsnr" v="359588" />
	</node>
	<node id="-104841" lat="61.1833166637" lon="10.6212944522">
		<tag k="name" v="Kaus" />
		<tag k="place" v="locality" />
		<tag k="ssr:stedsnr" v="359546" />
	</node>
	<node id="-104839" lat="61.0953361131" lon="10.413872216">
		<tag k="name" v="Vottestadkampen" />
		<tag k="natural" v="hill" />
		<tag k="place" v="locality" />
		<tag k="ssr:stedsnr" v="359489" />
	</node>
	<node id="-105349" lat="61.0971055548" lon="10.4292166624">
		<tag k="name" v="Brettengshaugen" />
		<tag k="natural" v="hill" />
		<tag k="place" v="locality" />
		<tag k="ssr:stedsnr" v="238665" />
	</node>
	<node id="-105348" lat="61.1176888868" lon="10.3583722168">
		<tag k="name" v="Drita" />
		<tag k="place" v="locality" />
		<tag k="ssr:stedsnr" v="238636" />
	</node>
	<node id="-104835" lat="61.0452972214" lon="10.4307333255">
		<tag k="name" v="Moalunden" />
		<tag k="place" v="locality" />
		<tag k="ssr:stedsnr" v="359320" />
	</node>
	<node id="-105346" lat="61.0442444488" lon="10.3818361063">
		<tag k="name" v="Haugerlia" />
		<tag k="natural" v="slope" />
		<tag k="place" v="locality" />
		<tag k="ssr:stedsnr" v="238320" />
	</node>
	<node id="-105856" lat="61.1030166663" lon="10.4367000041">
		<tag k="name" v="Hustruberget" />
		<tag k="natural" v="cliff" />
		<tag k="ssr:stedsnr" v="723269" />
	</node>
	<node id="-104822" lat="61.1546444458" lon="10.440236113">
		<tag k="name" v="Varddokka" />
		<tag k="natural" v="valley" />
		<tag k="place" v="locality" />
		<tag k="ssr:stedsnr" v="344859" />
	</node>
	<node id="-104817" lat="61.1890250022" lon="10.3648638818">
		<tag k="name" v="Tjernshaugen" />
		<tag k="natural" v="hill" />
		<tag k="place" v="locality" />
		<tag k="ssr:stedsnr" v="344603" />
	</node>
	<node id="-105838" lat="61.0890611153" lon="10.0560194387">
		<tag k="fixme" v="consider natural=peak for the most distinct mountains in the district" />
		<tag k="name" v="Kufjellflågån" />
		<tag k="natural" v="hill" />
		<tag k="place" v="locality" />
		<tag k="ssr:stedsnr" v="708913" />
	</node>
	<node id="-105325" lat="61.2200305558" lon="10.3664861157">
		<tag k="fixme" v="consider natural=peak for the most distinct mountains in the district" />
		<tag k="name" v="Bakseterkjølen" />
		<tag k="natural" v="hill" />
		<tag k="place" v="locality" />
		<tag k="ssr:stedsnr" v="223204" />
	</node>
	<node id="-104812" lat="61.0366111152" lon="10.4019805523">
		<tag k="name" v="Hågåsletta" />
		<tag k="place" v="locality" />
		<tag k="ssr:stedsnr" v="344574" />
	</node>
	<node id="-105323" lat="61.153388888" lon="10.4256666596">
		<tag k="name" v="Kalykjeberget" />
		<tag k="natural" v="cliff" />
		<tag k="ssr:stedsnr" v="222847" />
	</node>
	<node id="-104810" lat="61.1819749965" lon="10.3870444404">
		<tag k="name" v="Rugsveberget" />
		<tag k="natural" v="cliff" />
		<tag k="ssr:stedsnr" v="344524" />
	</node>
	<node id="-104807" lat="61.0710638917" lon="10.19370834">
		<tag k="name" v="Kopnageln" />
		<tag k="natural" v="hill" />
		<tag k="place" v="locality" />
		<tag k="ssr:stedsnr" v="344190" />
	</node>
	<node id="-105829" lat="61.1219777765" lon="10.2182388963">
		<tag k="name" v="Bergslia" />
		<tag k="natural" v="slope" />
		<tag k="place" v="locality" />
		<tag k="ssr:stedsnr" v="708430" />
	</node>
	<node id="-104799" lat="61.1330194425" lon="10.3554083341">
		<tag k="fixme" v="consider natural=peak for the most distinct mountains in the district" />
		<tag k="name" v="Fuglbakken" />
		<tag k="natural" v="hill" />
		<tag k="place" v="locality" />
		<tag k="ssr:stedsnr" v="311965" />
	</node>
	<node id="-104798" lat="61.1380444454" lon="10.5676722294">
		<tag k="name" v="Inngjerdingshaugen" />
		<tag k="natural" v="hill" />
		<tag k="place" v="locality" />
		<tag k="ssr:stedsnr" v="311959" />
	</node>
	<node id="-104793" lat="61.1999638903" lon="10.5341611051">
		<tag k="alt_name" v="Turthaugen" />
		<tag k="name" v="Turthaugane" />
		<tag k="natural" v="hill" />
		<tag k="place" v="locality" />
		<tag k="ssr:stedsnr" v="311937" />
	</node>
	<node id="-104788" lat="61.1751305574" lon="10.664702772">
		<tag k="fixme" v="consider natural=peak for the most distinct mountains in the district" />
		<tag k="name" v="Lunkefjell" />
		<tag k="natural" v="hill" />
		<tag k="place" v="locality" />
		<tag k="ssr:stedsnr" v="311912" />
	</node>
	<node id="-105299" lat="61.123383333" lon="10.3374527734">
		<tag k="fixme" v="consider natural=peak for the most distinct mountains in the district" />
		<tag k="name" v="Korsåsen" />
		<tag k="natural" v="hill" />
		<tag k="place" v="locality" />
		<tag k="ssr:stedsnr" v="190132" />
	</node>
	<node id="-104780" lat="61.0571333357" lon="10.3513138814">
		<tag k="name" v="Djupdalen" />
		<tag k="natural" v="valley" />
		<tag k="place" v="locality" />
		<tag k="ssr:stedsnr" v="311516" />
	</node>
	<node id="-104770" lat="61.2142833343" lon="10.3469472268">
		<tag k="name" v="Trolldalen" />
		<tag k="natural" v="valley" />
		<tag k="place" v="locality" />
		<tag k="ssr:stedsnr" v="311223" />
	</node>
	<node id="-104767" lat="61.2340888879" lon="10.4012611047">
		<tag k="name" v="Hokneknappen" />
		<tag k="natural" v="hill" />
		<tag k="place" v="locality" />
		<tag k="ssr:stedsnr" v="311187" />
	</node>
	<node id="-105783" lat="61.1017805555" lon="10.2748944487">
		<tag k="name" v="Amerika" />
		<tag k="place" v="locality" />
		<tag k="ssr:stedsnr" v="675008" />
	</node>
	<node id="-105264" lat="61.0770916635" lon="10.3008138826">
		<tag k="name" v="Kniphaugen" />
		<tag k="natural" v="hill" />
		<tag k="place" v="locality" />
		<tag k="ssr:stedsnr" v="188036" />
	</node>
	<node id="-105260" lat="61.1607666666" lon="10.4934305483">
		<tag k="name" v="Langmyrrabben" />
		<tag k="natural" v="hill" />
		<tag k="place" v="locality" />
		<tag k="ssr:stedsnr" v="177862" />
	</node>
	<node id="-105258" lat="61.1444416646" lon="10.550880561">
		<tag k="name" v="Finnsvehaugen" />
		<tag k="natural" v="hill" />
		<tag k="place" v="locality" />
		<tag k="ssr:stedsnr" v="177809" />
	</node>
	<node id="-105760" lat="61.1444027743" lon="10.4724638842">
		<tag k="name" v="Hansvehaugen" />
		<tag k="natural" v="hill" />
		<tag k="place" v="locality" />
		<tag k="ssr:stedsnr" v="662199" />
	</node>
	<node id="-104733" lat="61.0981250026" lon="10.4389999976">
		<tag k="name" v="Riselandet" />
		<tag k="place" v="locality" />
		<tag k="ssr:stedsnr" v="298645" />
	</node>
	<node id="-105241" lat="61.0936055548" lon="10.1033333268">
		<tag k="name" v="Lunkehaugen" />
		<tag k="natural" v="hill" />
		<tag k="place" v="locality" />
		<tag k="ssr:stedsnr" v="162914" />
	</node>
	<node id="-105240" lat="61.0929194482" lon="10.0748222256">
		<tag k="name" v="Hiberget" />
		<tag k="natural" v="cliff" />
		<tag k="ssr:stedsnr" v="162894" />
	</node>
	<node id="-104727" lat="61.0780055539" lon="10.3136083246">
		<tag k="name" v="Knipplia" />
		<tag k="natural" v="slope" />
		<tag k="place" v="locality" />
		<tag k="ssr:stedsnr" v="292850" />
	</node>
	<node id="-105232" lat="61.1532777799" lon="10.4714277693">
		<tag k="name" v="Menkelia" />
		<tag k="natural" v="slope" />
		<tag k="place" v="locality" />
		<tag k="ssr:stedsnr" v="162681" />
	</node>
	<node id="-104717" lat="61.1229305544" lon="10.3929750016">
		<tag k="name" v="Jørudbakken" />
		<tag k="natural" v="slope" />
		<tag k="place" v="locality" />
		<tag k="ssr:stedsnr" v="284357" />
	</node>
	<node id="-105225" lat="61.0334027796" lon="10.3510416719">
		<tag k="name" v="Revhaugen" />
		<tag k="natural" v="hill" />
		<tag k="place" v="locality" />
		<tag k="ssr:stedsnr" v="162419" />
	</node>
	<node id="-105223" lat="61.1687472234" lon="10.3978777776">
		<tag k="name" v="Jeistadroa" />
		<tag k="place" v="locality" />
		<tag k="ssr:stedsnr" v="162219" />
	</node>
	<node id="-105733" lat="61.1841861084" lon="10.553091674">
		<tag k="name" v="Kruggerudberget" />
		<tag k="natural" v="hill" />
		<tag k="place" v="locality" />
		<tag k="ssr:stedsnr" v="629298" />
	</node>
	<node id="-104708" lat="61.154280552" lon="10.4524833278">
		<tag k="name" v="Langsletta" />
		<tag k="place" v="locality" />
		<tag k="ssr:stedsnr" v="283631" />
	</node>
	<node id="-105731" lat="61.1262555575" lon="10.5775777718">
		<tag k="name" v="Mesnhaugen" />
		<tag k="natural" v="hill" />
		<tag k="place" v="locality" />
		<tag k="ssr:stedsnr" v="614968" />
	</node>
	<node id="-104706" lat="61.2095138893" lon="10.3913833378">
		<tag k="name" v="Bjørnhilia" />
		<tag k="natural" v="slope" />
		<tag k="place" v="locality" />
		<tag k="ssr:stedsnr" v="283536" />
	</node>
	<node id="-105728" lat="61.1277666693" lon="10.4934694509">
		<tag k="name" v="Kanthaugen" />
		<tag k="natural" v="hill" />
		<tag k="place" v="locality" />
		<tag k="ssr:stedsnr" v="614954" />
	</node>
	<node id="-105721" lat="61.1618083299" lon="10.6526055543">
		<tag k="fixme" v="consider natural=peak for the most distinct mountains in the district" />
		<tag k="name" v="Heståsen" />
		<tag k="natural" v="hill" />
		<tag k="place" v="locality" />
		<tag k="ssr:stedsnr" v="614898" />
	</node>
	<node id="-105708" lat="61.1804361096" lon="10.2204944443">
		<tag k="fixme" v="consider natural=peak for the most distinct mountains in the district" />
		<tag k="name" v="Kinnkjølen" />
		<tag k="natural" v="hill" />
		<tag k="place" v="locality" />
		<tag k="ssr:stedsnr" v="614380" />
	</node>
	<node id="-105752" lat="61.1137166644" lon="10.1174305598">
		<tag k="name" v="Veslehaugen" />
		<tag k="natural" v="hill" />
		<tag k="place" v="locality" />
		<tag k="ssr:stedsnr" v="655817" />
	</node>
	<node id="-105184" lat="61.1350222191" lon="10.3399694359">
		<tag k="name" v="Ljøsbakken" />
		<tag k="natural" v="slope" />
		<tag k="place" v="locality" />
		<tag k="ssr:stedsnr" v="128939" />
	</node>
	<node id="-105421" lat="61.1659277747" lon="10.5001611166">
		<tag k="name" v="Høgrabben" />
		<tag k="natural" v="hill" />
		<tag k="place" v="locality" />
		<tag k="ssr:stedsnr" v="420861" />
	</node>
	<node id="-105686" lat="61.1713333306" lon="10.6111583336">
		<tag k="name" v="Sandbakken" />
		<tag k="place" v="locality" />
		<tag k="ssr:stedsnr" v="602525" />
	</node>
	<node id="-105171" lat="61.0888138858" lon="10.0668583315">
		<tag k="fixme" v="consider natural=peak for the most distinct mountains in the district" />
		<tag k="name" v="Kufjellet" />
		<tag k="natural" v="hill" />
		<tag k="place" v="locality" />
		<tag k="ssr:stedsnr" v="128015" />
	</node>
	<node id="-105170" lat="61.1264805598" lon="10.3202055493">
		<tag k="fixme" v="consider natural=peak for the most distinct mountains in the district" />
		<tag k="name" v="Korsåsen" />
		<tag k="natural" v="hill" />
		<tag k="place" v="locality" />
		<tag k="ssr:stedsnr" v="124209" />
	</node>
	<node id="-105677" lat="61.1552083378" lon="10.5766999934">
		<tag k="name" v="Sjødalslia" />
		<tag k="natural" v="slope" />
		<tag k="place" v="locality" />
		<tag k="ssr:stedsnr" v="601833" />
	</node>
	<node id="-105676" lat="61.163591667" lon="10.5946277689">
		<tag k="name" v="Svahella" />
		<tag k="place" v="locality" />
		<tag k="ssr:stedsnr" v="601831" />
	</node>
	<node id="-105162" lat="61.1552638917" lon="10.483599993">
		<tag k="name" v="Tjonerudlia" />
		<tag k="natural" v="slope" />
		<tag k="place" v="locality" />
		<tag k="ssr:stedsnr" v="116839" />
	</node>
	<node id="-105671" lat="61.1060416641" lon="10.4955055596">
		<tag k="name" v="Sauhaugen" />
		<tag k="natural" v="hill" />
		<tag k="place" v="locality" />
		<tag k="ssr:stedsnr" v="601739" />
	</node>
	<node id="-106176" lat="61.1107027742" lon="10.6028388882">
		<tag k="name" v="Baklia" />
		<tag k="natural" v="slope" />
		<tag k="place" v="locality" />
		<tag k="ssr:stedsnr" v="966611" />
	</node>
	<node id="-105663" lat="61.1055611068" lon="10.0870333332">
		<tag k="name" v="Saltbakken" />
		<tag k="natural" v="slope" />
		<tag k="place" v="locality" />
		<tag k="ssr:stedsnr" v="595807" />
	</node>
	<node id="-105147" lat="61.1728555542" lon="10.4033416581">
		<tag k="name" v="Skogsvarpet" />
		<tag k="place" v="locality" />
		<tag k="ssr:stedsnr" v="102297" />
	</node>
	<node id="-105146" lat="61.1824027749" lon="10.4118361101">
		<tag k="name" v="Drotten" />
		<tag k="place" v="locality" />
		<tag k="ssr:stedsnr" v="102292" />
	</node>
	<node id="-105380" lat="61.1825083323" lon="10.6597916613">
		<tag k="fixme" v="consider natural=peak for the most distinct mountains in the district" />
		<tag k="name" v="Høgfjellet" />
		<tag k="natural" v="hill" />
		<tag k="place" v="locality" />
		<tag k="ssr:stedsnr" v="250862" />
	</node>
	<node id="-105652" lat="61.1302416693" lon="10.4187555583">
		<tag k="name" v="Fagerholt" />
		<tag k="place" v="locality" />
		<tag k="ssr:stedsnr" v="587795" />
	</node>
	<node id="-105137" lat="61.1079027811" lon="10.1884555567">
		<tag k="name" v="Bergshaugen" />
		<tag k="natural" v="hill" />
		<tag k="place" v="locality" />
		<tag k="ssr:stedsnr" v="101439" />
	</node>
	<node id="-106160" lat="61.1007111082" lon="10.5369027706">
		<tag k="fixme" v="consider natural=peak for the most distinct mountains in the district" />
		<tag k="name" v="Askjellerudåsen" />
		<tag k="natural" v="hill" />
		<tag k="place" v="locality" />
		<tag k="ssr:stedsnr" v="965015" />
	</node>
	<node id="-105647" lat="61.2028305542" lon="10.4161944526">
		<tag k="name" v="Brattsveen" />
		<tag k="natural" v="slope" />
		<tag k="place" v="locality" />
		<tag k="ssr:stedsnr" v="587257" />
	</node>
	<node id="-105132" lat="61.0994388851" lon="10.1851527692">
		<tag k="name" v="Svartåsen" />
		<tag k="natural" v="hill" />
		<tag k="place" v="locality" />
		<tag k="ssr:stedsnr" v="101139" />
	</node>
	<node id="-105642" lat="61.1558833355" lon="10.4008583279">
		<tag k="name" v="Sundstranda" />
		<tag k="place" v="locality" />
		<tag k="ssr:stedsnr" v="586560" />
	</node>
	<node id="-106067" lat="61.2138166677" lon="10.3413999926">
		<tag k="name" v="Landskampen" />
		<tag k="natural" v="hill" />
		<tag k="place" v="locality" />
		<tag k="ssr:stedsnr" v="878283" />
	</node>
	<node id="-106149" lat="61.1073166679" lon="10.262075004">
		<tag k="name" v="Saksumslia" />
		<tag k="natural" v="slope" />
		<tag k="place" v="locality" />
		<tag k="ssr:stedsnr" v="951946" />
	</node>
	<node id="-105634" lat="61.1563861156" lon="10.4974611026">
		<tag k="fixme" v="consider natural=peak for the most distinct mountains in the district" />
		<tag k="name" v="Høgsvelia" />
		<tag k="natural" v="hill" />
		<tag k="place" v="locality" />
		<tag k="ssr:stedsnr" v="554980" />
	</node>
	<node id="-105119" lat="61.1513361097" lon="10.4597999962">
		<tag k="name" v="Rundhaugen" />
		<tag k="natural" v="hill" />
		<tag k="place" v="locality" />
		<tag k="ssr:stedsnr" v="68982" />
	</node>
	<node id="-106140" lat="61.0935555568" lon="10.2798305638">
		<tag k="name" v="Hovlandsliene" />
		<tag k="natural" v="slope" />
		<tag k="place" v="locality" />
		<tag k="ssr:stedsnr" v="951659" />
	</node>
	<node id="-106137" lat="61.1762222183" lon="10.3885777857">
		<tag k="name" v="Nåsån" />
		<tag k="natural" v="hill" />
		<tag k="place" v="locality" />
		<tag k="ssr:stedsnr" v="951564" />
	</node>
	<node id="-106135" lat="61.1770083313" lon="10.4473916651">
		<tag k="fixme" v="consider natural=peak for the most distinct mountains in the district" />
		<tag k="name" v="Kvesåsen" />
		<tag k="natural" v="hill" />
		<tag k="place" v="locality" />
		<tag k="ssr:stedsnr" v="951529" />
	</node>
	<node id="-105110" lat="61.2010916645" lon="10.6401666683">
		<tag k="alt_name" v="Nysæterhøgda, ytre" />
		<tag k="name" v="Ytre Nysæterhøgda" />
		<tag k="natural" v="hill" />
		<tag k="place" v="locality" />
		<tag k="ssr:stedsnr" v="68915" />
	</node>
	<node id="-105326" lat="61.1677777741" lon="10.4624555534">
		<tag k="name" v="Kolbottenbakka" />
		<tag k="natural" v="slope" />
		<tag k="place" v="locality" />
		<tag k="ssr:stedsnr" v="223233" />
	</node>
	<node id="-106130" lat="61.1733027799" lon="10.4018166577">
		<tag k="name" v="Tolden" />
		<tag k="place" v="locality" />
		<tag k="ssr:stedsnr" v="951240" />
	</node>
	<node id="-105615" lat="61.1957027753" lon="10.6609694527">
		<tag k="fixme" v="consider natural=peak for the most distinct mountains in the district" />
		<tag k="name" v="Høgåsen" />
		<tag k="natural" v="hill" />
		<tag k="place" v="locality" />
		<tag k="ssr:stedsnr" v="553464" />
	</node>
	<node id="-105102" lat="61.2364111103" lon="10.7436250002">
		<tag k="name" v="Matfarhaugen" />
		<tag k="natural" v="hill" />
		<tag k="place" v="locality" />
		<tag k="ssr:stedsnr" v="68712" />
	</node>
	<node id="-104813" lat="61.1619194412" lon="10.4162361018">
		<tag k="name" v="Kjølgårdshaugen" />
		<tag k="natural" v="hill" />
		<tag k="place" v="locality" />
		<tag k="ssr:stedsnr" v="344578" />
	</node>
	<node id="-105606" lat="61.1219694481" lon="10.0708361164">
		<tag k="name" v="Myssmørhelje" />
		<tag k="natural" v="ridge" />
		<tag k="place" v="locality" />
		<tag k="ssr:stedsnr" v="553093" />
	</node>
	<node id="-106117" lat="61.2031694422" lon="10.5909722201">
		<tag k="fixme" v="consider natural=peak for the most distinct mountains in the district" />
		<tag k="name" v="Nevelåsen" />
		<tag k="natural" v="hill" />
		<tag k="place" v="locality" />
		<tag k="ssr:stedsnr" v="918936" />
	</node>
	<node id="-104736" lat="61.1138361101" lon="10.5300972296">
		<tag k="name" v="Baklia" />
		<tag k="natural" v="slope" />
		<tag k="place" v="locality" />
		<tag k="ssr:stedsnr" v="298721" />
	</node>
	<node id="-104787" lat="61.178847219" lon="10.5115611023">
		<tag k="fixme" v="consider natural=peak for the most distinct mountains in the district" />
		<tag k="name" v="Venåsen" />
		<tag k="natural" v="hill" />
		<tag k="place" v="locality" />
		<tag k="ssr:stedsnr" v="311906" />
	</node>
	<node id="-105596" lat="61.1622499981" lon="10.5062694535">
		<tag k="name" v="Skotlimyrrabben" />
		<tag k="natural" v="hill" />
		<tag k="place" v="locality" />
		<tag k="ssr:stedsnr" v="541861" />
	</node>
	<node id="-105078" lat="61.0668000001" lon="10.3308027817">
		<tag k="name" v="Stillia" />
		<tag k="natural" v="slope" />
		<tag k="place" v="locality" />
		<tag k="ssr:stedsnr" v="49840" />
	</node>
	<node id="-105587" lat="61.1908111117" lon="10.6783111065">
		<tag k="name" v="Grønnbekkdalen" />
		<tag k="natural" v="valley" />
		<tag k="place" v="locality" />
		<tag k="ssr:stedsnr" v="541579" />
	</node>
	<node id="-106098" lat="61.1369055575" lon="10.2761055464">
		<tag k="name" v="Turtdalen" />
		<tag k="natural" v="valley" />
		<tag k="place" v="locality" />
		<tag k="ssr:stedsnr" v="918107" />
	</node>
	<node id="-105070" lat="61.1137305557" lon="10.246480556">
		<tag k="name" v="Sveslia" />
		<tag k="natural" v="slope" />
		<tag k="place" v="locality" />
		<tag k="ssr:stedsnr" v="41937" />
	</node>
	<node id="-105068" lat="61.1705555554" lon="10.4010083347">
		<tag k="name" v="Lortvarpet" />
		<tag k="place" v="locality" />
		<tag k="ssr:stedsnr" v="41249" />
	</node>
	<node id="-106002" lat="61.1565666655" lon="10.4033416606">
		<tag k="name" v="Hellberget" />
		<tag k="place" v="locality" />
		<tag k="ssr:stedsnr" v="830562" />
	</node>
	<node id="-105571" lat="61.1044083372" lon="10.0761027776">
		<tag k="name" v="Endrelia" />
		<tag k="natural" v="slope" />
		<tag k="place" v="locality" />
		<tag k="ssr:stedsnr" v="534826" />
	</node>
	<node id="-106079" lat="61.1026499975" lon="10.43319444">
		<tag k="name" v="Snauhaugen" />
		<tag k="natural" v="hill" />
		<tag k="place" v="locality" />
		<tag k="ssr:stedsnr" v="905688" />
	</node>
	<node id="-105053" lat="61.1099555518" lon="10.56398055">
		<tag k="name" v="Baklia" />
		<tag k="natural" v="slope" />
		<tag k="place" v="locality" />
		<tag k="ssr:stedsnr" v="8813" />
	</node>
	<node id="-105999" lat="61.2285027775" lon="10.4100083358">
		<tag k="name" v="Husekampen" />
		<tag k="natural" v="hill" />
		<tag k="place" v="locality" />
		<tag k="ssr:stedsnr" v="830180" />
	</node>
	<node id="-105560" lat="61.0855583369" lon="10.273872219">
		<tag k="name" v="Bubekkdalen" />
		<tag k="natural" v="valley" />
		<tag k="place" v="locality" />
		<tag k="ssr:stedsnr" v="526656" />
	</node>
	<node id="-105555" lat="61.1084500016" lon="10.1997583271">
		<tag k="name" v="Auggelia" />
		<tag k="natural" v="slope" />
		<tag k="place" v="locality" />
		<tag k="ssr:stedsnr" v="526441" />
	</node>
	<node id="-105554" lat="61.1057388917" lon="10.2257388831">
		<tag k="name" v="Sveseterlia" />
		<tag k="natural" v="slope" />
		<tag k="place" v="locality" />
		<tag k="ssr:stedsnr" v="526415" />
	</node>
	<node id="-106065" lat="61.156475001" lon="10.4428472161">
		<tag k="fixme" v="multiple name tags, choose one and add the other to alt_name" />
		<tag k="name" v="Balbergkampen;Vardhøgda" />
		<tag k="natural" v="hill" />
		<tag k="place" v="locality" />
		<tag k="ssr:stedsnr" v="858961" />
	</node>
	<node id="-105547" lat="61.1897777785" lon="10.5851250041">
		<tag k="name" v="Skogshaugen" />
		<tag k="natural" v="hill" />
		<tag k="place" v="locality" />
		<tag k="ssr:stedsnr" v="493938" />
	</node>
	<node id="-105542" lat="61.1059249977" lon="10.5661194531">
		<tag k="fixme" v="consider natural=peak for the most distinct mountains in the district" />
		<tag k="name" v="Sollihøgda" />
		<tag k="natural" v="hill" />
		<tag k="place" v="locality" />
		<tag k="ssr:stedsnr" v="493768" />
	</node>
	<node id="-106053" lat="61.2070027802" lon="10.651252787">
		<tag k="alt_name" v="Nysæterhøgda, indre" />
		<tag k="name" v="Indre Nysæterhøgda" />
		<tag k="natural" v="hill" />
		<tag k="place" v="locality" />
		<tag k="ssr:stedsnr" v="857904" />
	</node>
	<node id="-105027" lat="61.2180250014" lon="10.3569583317">
		<tag k="name" v="Svartdalen" />
		<tag k="natural" v="valley" />
		<tag k="place" v="locality" />
		<tag k="ssr:stedsnr" v="7182" />
	</node>
	<node id="-105025" lat="61.0841138874" lon="10.3921416637">
		<tag k="loc_name" v="Brattberghøgda;Brattbergkjølen" />
		<tag k="name" v="Vottestadhøgda" />
		<tag k="natural" v="hill" />
		<tag k="old_name" v="Vaatestadhøiden" />
		<tag k="place" v="locality" />
		<tag k="ssr:stedsnr" v="6857" />
	</node>
	<node id="-105536" lat="61.1996055543" lon="10.5840166655">
		<tag k="name" v="Fjelldokka" />
		<tag k="natural" v="valley" />
		<tag k="place" v="locality" />
		<tag k="ssr:stedsnr" v="493928" />
	</node>
	<node id="-105530" lat="61.1184777776" lon="10.1171166591">
		<tag k="name" v="Storhaugen" />
		<tag k="natural" v="hill" />
		<tag k="place" v="locality" />
		<tag k="ssr:stedsnr" v="493123" />
	</node>
	<node id="-105311" lat="61.1831972251" lon="10.6519222205">
		<tag k="name" v="Nordsæterfjellet" />
		<tag k="natural" v="hill" />
		<tag k="place" v="locality" />
		<tag k="ssr:stedsnr" v="190885" />
	</node>
	<node id="-106039" lat="61.1277055518" lon="10.2682722267">
		<tag k="fixme" v="consider natural=peak for the most distinct mountains in the district" />
		<tag k="name" v="Ullandsåsen" />
		<tag k="natural" v="hill" />
		<tag k="place" v="locality" />
		<tag k="ssr:stedsnr" v="857133" />
	</node>
	<node id="-105526" lat="61.1096861088" lon="10.0753722164">
		<tag k="name" v="Prestkjerringa" />
		<tag k="natural" v="hill" />
		<tag k="place" v="locality" />
		<tag k="ssr:stedsnr" v="493001" />
	</node>
	<node id="-106036" lat="61.1243750026" lon="10.0717888916">
		<tag k="alt_name" v="Gammel-Hans" />
		<tag k="fixme" v="consider natural=peak for the most distinct mountains in the district" />
		<tag k="name" v="Gammelhans" />
		<tag k="natural" v="hill" />
		<tag k="place" v="locality" />
		<tag k="ssr:stedsnr" v="857108" />
	</node>
	<node id="-105512" lat="61.0390972183" lon="10.2609166745">
		<tag k="name" v="Fløythaugen" />
		<tag k="natural" v="hill" />
		<tag k="place" v="locality" />
		<tag k="ssr:stedsnr" v="492152" />
	</node>
	<node id="-105506" lat="61.1574305578" lon="10.5809555493">
		<tag k="name" v="Geitryggen" />
		<tag k="natural" v="hill" />
		<tag k="place" v="locality" />
		<tag k="ssr:stedsnr" v="480859" />
	</node>
	<node id="-105136" lat="61.1124277822" lon="10.234683326">
		<tag k="name" v="Bekkebakken" />
		<tag k="natural" v="slope" />
		<tag k="place" v="locality" />
		<tag k="ssr:stedsnr" v="101404" />
	</node>
	<node id="-105496" lat="61.1083694399" lon="10.4323027828">
		<tag k="name" v="Pinnikhaugen" />
		<tag k="natural" v="hill" />
		<tag k="place" v="locality" />
		<tag k="ssr:stedsnr" v="480226" />
	</node>
	<node id="-105490" lat="61.0922583301" lon="10.0753194394">
		<tag k="name" v="Bokkesletta" />
		<tag k="place" v="locality" />
		<tag k="ssr:stedsnr" v="466920" />
	</node>
	<node id="-106000" lat="61.1175666675" lon="10.2323972221">
		<tag k="name" v="Rindalslia" />
		<tag k="natural" v="slope" />
		<tag k="place" v="locality" />
		<tag k="ssr:stedsnr" v="830402" />
	</node>
	<node id="-105487" lat="61.0329666675" lon="10.4015722157">
		<tag k="name" v="Rødsletta" />
		<tag k="place" v="locality" />
		<tag k="ssr:stedsnr" v="466570" />
	</node>
	<node id="-105488" lat="61.0343722226" lon="10.3923638908">
		<tag k="name" v="Moslia" />
		<tag k="natural" v="slope" />
		<tag k="place" v="locality" />
		<tag k="ssr:stedsnr" v="466616" />
	</node>
	<node id="-105484" lat="61.1729055511" lon="10.4647555614">
		<tag k="name" v="Esdragsletta" />
		<tag k="place" v="locality" />
		<tag k="ssr:stedsnr" v="466266" />
	</node>
	<node id="-105478" lat="61.162730555" lon="10.3951027761">
		<tag k="name" v="Rundtomodden" />
		<tag k="place" v="locality" />
		<tag k="ssr:stedsnr" v="465549" />
	</node>
	<node id="-105474" lat="61.0684138847" lon="10.1416305521">
		<tag k="name" v="Svartdalen" />
		<tag k="natural" v="valley" />
		<tag k="place" v="locality" />
		<tag k="ssr:stedsnr" v="465162" />
	</node>
</osm>
