<?xml version="1.0" encoding="UTF-8"?>
<osm generator="osmapis" version="0.6">
	<node id="-167424" lat="59.978136111" lon="10.3260999915">
		<tag k="name" v="Finnedal" />
		<tag k="natural" v="hill" />
		<tag k="place" v="locality" />
		<tag k="ssr:stedsnr" v="208273" />
	</node>
	<node id="-167422" lat="60.0135833318" lon="10.3853611167">
		<tag k="name" v="Damersplassbakkane" />
		<tag k="natural" v="slope" />
		<tag k="place" v="locality" />
		<tag k="ssr:stedsnr" v="208071" />
	</node>
	<node id="-167413" lat="60.1065222187" lon="10.2464222209">
		<tag k="name" v="Mosmoen" />
		<tag k="place" v="locality" />
		<tag k="ssr:stedsnr" v="186751" />
	</node>
	<node id="-167404" lat="60.0836777815" lon="10.2692249934">
		<tag k="fixme" v="consider natural=peak for the most distinct mountains in the district" />
		<tag k="name" v="Viksåsen" />
		<tag k="natural" v="hill" />
		<tag k="place" v="locality" />
		<tag k="ssr:stedsnr" v="186315" />
	</node>
	<node id="-167399" lat="60.0447111144" lon="10.4506611155">
		<tag k="alt_name" v="Seterhaugen" />
		<tag k="fixme" v="consider natural=peak for the most distinct mountains in the district" />
		<tag k="name" v="Sæterhaugen" />
		<tag k="natural" v="hill" />
		<tag k="place" v="locality" />
		<tag k="ssr:stedsnr" v="174976" />
	</node>
	<node id="-167389" lat="59.9996249996" lon="10.3419555472">
		<tag k="fixme" v="consider natural=peak for the most distinct mountains in the district" />
		<tag k="name" v="Finnehøgda" />
		<tag k="natural" v="hill" />
		<tag k="place" v="locality" />
		<tag k="ssr:stedsnr" v="147368" />
	</node>
	<node id="-167387" lat="59.9774722207" lon="10.3203972298">
		<tag k="name" v="Nordlandsdalen" />
		<tag k="natural" v="valley" />
		<tag k="place" v="locality" />
		<tag k="ssr:stedsnr" v="147346" />
	</node>
	<node id="-167379" lat="60.0103833327" lon="10.2857305473">
		<tag k="name" v="Nesseterdalen" />
		<tag k="natural" v="valley" />
		<tag k="place" v="locality" />
		<tag k="ssr:stedsnr" v="127436" />
	</node>
	<node id="-167376" lat="60.0461666677" lon="10.4669388944">
		<tag k="fixme" v="consider natural=peak for the most distinct mountains in the district" />
		<tag k="name" v="Mørkreiåsen" />
		<tag k="natural" v="hill" />
		<tag k="place" v="locality" />
		<tag k="ssr:stedsnr" v="126949" />
	</node>
	<node id="-167373" lat="60.1102861121" lon="10.309899995">
		<tag k="fixme" v="consider natural=peak for the most distinct mountains in the district" />
		<tag k="name" v="Loreåsen" />
		<tag k="natural" v="hill" />
		<tag k="place" v="locality" />
		<tag k="ssr:stedsnr" v="126708" />
	</node>
	<node id="-167351" lat="60.0617138862" lon="10.2485944499">
		<tag k="name" v="Roberget" />
		<tag k="natural" v="hill" />
		<tag k="place" v="locality" />
		<tag k="ssr:stedsnr" v="87585" />
	</node>
	<node id="-167350" lat="60.0502944431" lon="10.2401972147">
		<tag k="name" v="Vestmarka" />
		<tag k="natural" v="slope" />
		<tag k="place" v="locality" />
		<tag k="ssr:stedsnr" v="87580" />
	</node>
	<node id="-167342" lat="60.1237554108" lon="10.2992126209">
		<tag k="fixme" v="consider natural=peak for the most distinct mountains in the district" />
		<tag k="name" v="Hurumåsen" />
		<tag k="natural" v="hill" />
		<tag k="place" v="locality" />
		<tag k="ssr:stedsnr" v="86474" />
	</node>
	<node id="-167334" lat="60.0611999956" lon="10.4013166627">
		<tag k="fixme" v="consider natural=peak for the most distinct mountains in the district" />
		<tag k="name" v="Elgsbrenna" />
		<tag k="natural" v="hill" />
		<tag k="place" v="locality" />
		<tag k="ssr:stedsnr" v="66203" />
	</node>
	<node id="-167838" lat="60.0389611076" lon="10.4573222194">
		<tag k="fixme" v="consider natural=peak for the most distinct mountains in the district" />
		<tag k="name" v="Kampeseterbrenna" />
		<tag k="natural" v="hill" />
		<tag k="place" v="locality" />
		<tag k="ssr:stedsnr" v="937035" />
	</node>
	<node id="-167323" lat="60.0365158867" lon="10.2880642856">
		<tag k="alt_name" v="Mannskardet" />
		<tag k="name" v="Manaskardet" />
		<tag k="natural" v="valley" />
		<tag k="place" v="locality" />
		<tag k="ssr:stedsnr" v="65302" />
	</node>
	<node id="-167831" lat="60.0521972209" lon="10.2526249976">
		<tag k="name" v="Gulshaugen" />
		<tag k="natural" v="hill" />
		<tag k="place" v="locality" />
		<tag k="ssr:stedsnr" v="936574" />
	</node>
	<node id="-167824" lat="60.0229750002" lon="10.4103222168">
		<tag k="alt_name" v="Lauvhaugene" />
		<tag k="fixme" v="consider natural=peak for the most distinct mountains in the district" />
		<tag k="name" v="Lauvhaugane" />
		<tag k="natural" v="hill" />
		<tag k="place" v="locality" />
		<tag k="ssr:stedsnr" v="916975" />
	</node>
	<node id="-167822" lat="60.0595138844" lon="10.359050008">
		<tag k="fixme" v="consider natural=peak for the most distinct mountains in the district" />
		<tag k="name" v="Bukkehøgda" />
		<tag k="natural" v="hill" />
		<tag k="place" v="locality" />
		<tag k="ssr:stedsnr" v="916230" />
	</node>
	<node id="-167820" lat="60.0528972221" lon="10.3943194394">
		<tag k="alt_name" v="Svingkringen" />
		<tag k="fixme" v="consider natural=peak for the most distinct mountains in the district" />
		<tag k="name" v="Svingomkringen" />
		<tag k="natural" v="hill" />
		<tag k="place" v="locality" />
		<tag k="ssr:stedsnr" v="916207" />
	</node>
	<node id="-167306" lat="59.9962444478" lon="10.2959583401">
		<tag k="fixme" v="consider natural=peak for the most distinct mountains in the district" />
		<tag k="name" v="Bråtafjellet" />
		<tag k="natural" v="hill" />
		<tag k="place" v="locality" />
		<tag k="ssr:stedsnr" v="26387" />
	</node>
	<node id="-167816" lat="60.111286112" lon="10.2507222258">
		<tag k="name" v="Lamoen" />
		<tag k="place" v="locality" />
		<tag k="ssr:stedsnr" v="915682" />
	</node>
	<node id="-167294" lat="60.0252222258" lon="10.3691805636">
		<tag k="name" v="Rundtom" />
		<tag k="natural" v="hill" />
		<tag k="place" v="locality" />
		<tag k="ssr:stedsnr" v="5999" />
	</node>
	<node id="-167804" lat="60.0776393452" lon="10.2840466432">
		<tag k="name" v="Raudberget" />
		<tag k="natural" v="hill" />
		<tag k="place" v="locality" />
		<tag k="ssr:stedsnr" v="877537" />
	</node>
	<node id="-167280" lat="60.092716671" lon="10.2827972181">
		<tag k="fixme" v="consider natural=peak for the most distinct mountains in the district" />
		<tag k="name" v="Steinsåsen" />
		<tag k="natural" v="hill" />
		<tag k="place" v="locality" />
		<tag k="ssr:stedsnr" v="4290" />
	</node>
	<node id="-167273" lat="59.9824944455" lon="10.381016674">
		<tag k="fixme" v="consider natural=peak for the most distinct mountains in the district" />
		<tag k="name" v="Kallmyråsen" />
		<tag k="natural" v="hill" />
		<tag k="old_name" v="Kalomyråsen" />
		<tag k="place" v="locality" />
		<tag k="ssr:stedsnr" v="4110" />
	</node>
	<node id="-167782" lat="60.05103889" lon="10.4370388923">
		<tag k="fixme" v="consider natural=peak for the most distinct mountains in the district" />
		<tag k="name" v="Rustbråtåbrenna" />
		<tag k="natural" v="hill" />
		<tag k="place" v="locality" />
		<tag k="ssr:stedsnr" v="855204" />
	</node>
	<node id="-167269" lat="60.1347222237" lon="10.5716611029">
		<tag k="name" v="Nordmarka" />
		<tag k="natural" v="wood" />
		<tag k="ssr:stedsnr" v="874528" />
	</node>
	<node id="-167778" lat="59.9926333352" lon="10.3242472303">
		<tag k="fixme" v="consider natural=peak for the most distinct mountains in the district" />
		<tag k="name" v="Høgås" />
		<tag k="natural" v="hill" />
		<tag k="old_name" v="Høgåsen;Højaas" />
		<tag k="place" v="locality" />
		<tag k="ssr:stedsnr" v="854452" />
	</node>
	<node id="-167141" lat="59.9822083305" lon="10.3109888911">
		<tag k="name" v="Lauvkastet" />
		<tag k="natural" v="slope" />
		<tag k="place" v="locality" />
		<tag k="ssr:stedsnr" v="269322" />
	</node>
	<node id="-167769" lat="59.98333611" lon="10.3994000035">
		<tag k="name" v="Gaupehaugen" />
		<tag k="natural" v="hill" />
		<tag k="place" v="locality" />
		<tag k="ssr:stedsnr" v="854097" />
	</node>
	<node id="-167768" lat="59.9948749962" lon="10.3907111159">
		<tag k="alt_name" v="Briskehøgda" />
		<tag k="fixme" v="consider natural=peak for the most distinct mountains in the district" />
		<tag k="name" v="Briskehaugen" />
		<tag k="natural" v="hill" />
		<tag k="place" v="locality" />
		<tag k="ssr:stedsnr" v="854075" />
	</node>
	<node id="-167767" lat="59.9944916692" lon="10.4032277755">
		<tag k="name" v="Salmakerdalen" />
		<tag k="natural" v="valley" />
		<tag k="place" v="locality" />
		<tag k="ssr:stedsnr" v="853060" />
	</node>
	<node id="-167227" lat="60.048861113" lon="10.253516662">
		<tag k="name" v="Kvisla" />
		<tag k="natural" v="slope" />
		<tag k="place" v="locality" />
		<tag k="ssr:stedsnr" v="390547" />
	</node>
	<node id="-167224" lat="59.9776527776" lon="10.3267527722">
		<tag k="name" v="Skjærebenken" />
		<tag k="natural" v="hill" />
		<tag k="place" v="locality" />
		<tag k="ssr:stedsnr" v="390265" />
	</node>
	<node id="-167223" lat="60.0334055539" lon="10.3828111147">
		<tag k="name" v="Øskjevallbakkane" />
		<tag k="natural" v="slope" />
		<tag k="place" v="locality" />
		<tag k="ssr:stedsnr" v="390012" />
	</node>
	<node id="-167733" lat="60.0092277772" lon="10.2955861108">
		<tag k="alt_name" v="Skarpsnoås" />
		<tag k="fixme" v="consider natural=peak for the most distinct mountains in the district" />
		<tag k="name" v="Skarpsnoåsen" />
		<tag k="natural" v="hill" />
		<tag k="place" v="locality" />
		<tag k="ssr:stedsnr" v="794383" />
	</node>
	<node id="-167220" lat="60.0851194479" lon="10.2529833326">
		<tag k="name" v="Kjellerberget" />
		<tag k="natural" v="hill" />
		<tag k="place" v="locality" />
		<tag k="ssr:stedsnr" v="389767" />
	</node>
	<node id="-167213" lat="60.034177777" lon="10.2859555607">
		<tag k="fixme" v="consider natural=peak for the most distinct mountains in the district" />
		<tag k="name" v="Solkollen" />
		<tag k="natural" v="hill" />
		<tag k="place" v="locality" />
		<tag k="ssr:stedsnr" v="369384" />
	</node>
	<node id="-167723" lat="60.0720583325" lon="10.2867305598">
		<tag k="fixme" v="consider natural=peak for the most distinct mountains in the district" />
		<tag k="name" v="Gjesvalåsen" />
		<tag k="natural" v="hill" />
		<tag k="place" v="locality" />
		<tag k="ssr:stedsnr" v="793266" />
	</node>
	<node id="-167720" lat="59.9935444475" lon="10.4086388861">
		<tag k="fixme" v="consider natural=peak for the most distinct mountains in the district" />
		<tag k="name" v="Barlindåsen" />
		<tag k="natural" v="hill" />
		<tag k="place" v="locality" />
		<tag k="ssr:stedsnr" v="793086" />
	</node>
	<node id="-167715" lat="60.0666944484" lon="10.2167027801">
		<tag k="name" v="Stamnesbakken" />
		<tag k="natural" v="slope" />
		<tag k="place" v="locality" />
		<tag k="ssr:stedsnr" v="755577" />
	</node>
	<node id="-167712" lat="60.0740111069" lon="10.3695500059">
		<tag k="name" v="Fjellseterdalen" />
		<tag k="natural" v="valley" />
		<tag k="place" v="locality" />
		<tag k="ssr:stedsnr" v="754939" />
	</node>
	<node id="-167708" lat="59.9679916643" lon="10.3380027736">
		<tag k="name" v="Briskehaugen" />
		<tag k="natural" v="hill" />
		<tag k="place" v="locality" />
		<tag k="ssr:stedsnr" v="754327" />
	</node>
	<node id="-167707" lat="60.0054472191" lon="10.3902111187">
		<tag k="name" v="Øyerseterbakkane" />
		<tag k="natural" v="slope" />
		<tag k="place" v="locality" />
		<tag k="ssr:stedsnr" v="754089" />
	</node>
	<node id="-167705" lat="60.0883305557" lon="10.2396777743">
		<tag k="name" v="Hardbakka" />
		<tag k="natural" v="slope" />
		<tag k="place" v="locality" />
		<tag k="ssr:stedsnr" v="753984" />
	</node>
	<node id="-167703" lat="60.0778500026" lon="10.1976861143">
		<tag k="name" v="Skinnillen" />
		<tag k="natural" v="slope" />
		<tag k="place" v="locality" />
		<tag k="ssr:stedsnr" v="753852" />
	</node>
	<node id="-167187" lat="60.0569805574" lon="10.4265694507">
		<tag k="fixme" v="consider natural=peak for the most distinct mountains in the district" />
		<tag k="name" v="Presthaugen" />
		<tag k="natural" v="hill" />
		<tag k="place" v="locality" />
		<tag k="ssr:stedsnr" v="330047" />
	</node>
	<node id="-167186" lat="60.0838750037" lon="10.359097229">
		<tag k="name" v="Rennedalen" />
		<tag k="natural" v="valley" />
		<tag k="place" v="locality" />
		<tag k="ssr:stedsnr" v="329953" />
	</node>
	<node id="-167695" lat="60.0234833335" lon="10.28145833">
		<tag k="fixme" v="consider natural=peak for the most distinct mountains in the district" />
		<tag k="name" v="Tømmerås" />
		<tag k="natural" v="hill" />
		<tag k="place" v="locality" />
		<tag k="ssr:stedsnr" v="753412" />
	</node>
	<node id="-167694" lat="60.0458784074" lon="10.3058567086">
		<tag k="name" v="Kavledalen" />
		<tag k="natural" v="valley" />
		<tag k="place" v="locality" />
		<tag k="ssr:stedsnr" v="752527" />
	</node>
	<node id="-167181" lat="60.048783337" lon="10.4635416729">
		<tag k="name" v="Gullikskollen" />
		<tag k="natural" v="valley" />
		<tag k="place" v="locality" />
		<tag k="ssr:stedsnr" v="329003" />
	</node>
	<node id="-167692" lat="60.0254555552" lon="10.4242805592">
		<tag k="name" v="Steffensberget" />
		<tag k="natural" v="hill" />
		<tag k="place" v="locality" />
		<tag k="ssr:stedsnr" v="733978" />
	</node>
	<node id="-167178" lat="60.0059999962" lon="10.3107583327">
		<tag k="fixme" v="consider natural=peak for the most distinct mountains in the district" />
		<tag k="name" v="Ullernåsen" />
		<tag k="natural" v="hill" />
		<tag k="place" v="locality" />
		<tag k="ssr:stedsnr" v="309484" />
	</node>
	<node id="-167177" lat="60.049450002" lon="10.3966888878">
		<tag k="name" v="Gampedalen" />
		<tag k="natural" v="valley" />
		<tag k="place" v="locality" />
		<tag k="ssr:stedsnr" v="309222" />
	</node>
	<node id="-167176" lat="60.0319944473" lon="10.4473194407">
		<tag k="fixme" v="consider natural=peak for the most distinct mountains in the district" />
		<tag k="name" v="Slåttmyråsen" />
		<tag k="natural" v="hill" />
		<tag k="place" v="locality" />
		<tag k="ssr:stedsnr" v="308939" />
	</node>
	<node id="-167684" lat="60.027388889" lon="10.2850999952">
		<tag k="alt_name" v="Tømmerås" />
		<tag k="fixme" v="consider natural=peak for the most distinct mountains in the district" />
		<tag k="name" v="Tømmeråsen" />
		<tag k="natural" v="hill" />
		<tag k="place" v="locality" />
		<tag k="ssr:stedsnr" v="733312" />
	</node>
	<node id="-167170" lat="60.0293999965" lon="10.3185222149">
		<tag k="fixme" v="consider natural=peak for the most distinct mountains in the district" />
		<tag k="name" v="Geitstigen" />
		<tag k="natural" v="hill" />
		<tag k="place" v="locality" />
		<tag k="ssr:stedsnr" v="308294" />
	</node>
	<node id="-167669" lat="60.0791638847" lon="10.2078527802">
		<tag k="name" v="Skrangledalen" />
		<tag k="natural" v="valley" />
		<tag k="place" v="locality" />
		<tag k="ssr:stedsnr" v="693781" />
	</node>
	<node id="-167665" lat="60.0531027772" lon="10.1692333294">
		<tag k="name" v="Høgberga" />
		<tag k="natural" v="hill" />
		<tag k="place" v="locality" />
		<tag k="ssr:stedsnr" v="693722" />
	</node>
	<node id="-167662" lat="60.0497027737" lon="10.2558555602">
		<tag k="name" v="Hansehaugen" />
		<tag k="natural" v="hill" />
		<tag k="place" v="locality" />
		<tag k="ssr:stedsnr" v="693593" />
	</node>
	<node id="-167148" lat="59.9745138897" lon="10.3552444427">
		<tag k="fixme" v="consider natural=peak for the most distinct mountains in the district" />
		<tag k="name" v="Leikemyrveien" />
		<tag k="natural" v="hill" />
		<tag k="place" v="locality" />
		<tag k="ssr:stedsnr" v="270284" />
	</node>
	<node id="-167147" lat="60.0643972256" lon="10.2823138826">
		<tag k="alt_name" v="Fekjæråsen" />
		<tag k="fixme" v="consider natural=peak for the most distinct mountains in the district" />
		<tag k="name" v="Fetjaråsen" />
		<tag k="natural" v="hill" />
		<tag k="place" v="locality" />
		<tag k="ssr:stedsnr" v="269737" />
	</node>
	<node id="-167143" lat="59.9923750038" lon="10.2984638873">
		<tag k="fixme" v="consider natural=peak for the most distinct mountains in the district" />
		<tag k="name" v="Østbråtakollen" />
		<tag k="natural" v="hill" />
		<tag k="place" v="locality" />
		<tag k="ssr:stedsnr" v="269466" />
	</node>
	<node id="-167653" lat="60.0343749999" lon="10.3629000087">
		<tag k="fixme" v="consider natural=peak for the most distinct mountains in the district" />
		<tag k="name" v="Øskjevallsbrenna" />
		<tag k="natural" v="hill" />
		<tag k="place" v="locality" />
		<tag k="ssr:stedsnr" v="673948" />
	</node>
	<node id="-167652" lat="60.0182111106" lon="10.4240416665">
		<tag k="fixme" v="consider natural=peak for the most distinct mountains in the district" />
		<tag k="name" v="Soterudleiken" />
		<tag k="natural" v="hill" />
		<tag k="place" v="locality" />
		<tag k="ssr:stedsnr" v="673921" />
	</node>
	<node id="-167651" lat="60.0546249983" lon="10.4563388852">
		<tag k="fixme" v="consider natural=peak for the most distinct mountains in the district" />
		<tag k="name" v="Kattjernåsen" />
		<tag k="natural" v="hill" />
		<tag k="place" v="locality" />
		<tag k="ssr:stedsnr" v="673216" />
	</node>
	<node id="-167644" lat="60.0576333323" lon="10.3252361173">
		<tag k="name" v="Nordkleiva" />
		<tag k="natural" v="slope" />
		<tag k="place" v="locality" />
		<tag k="ssr:stedsnr" v="672326" />
	</node>
	<node id="-167626" lat="60.0957444449" lon="10.2782111026">
		<tag k="name" v="Kjerkebakke" />
		<tag k="natural" v="slope" />
		<tag k="place" v="locality" />
		<tag k="ssr:stedsnr" v="633723" />
	</node>
	<node id="-167625" lat="60.0961555529" lon="10.2968444417">
		<tag k="name" v="Berga" />
		<tag k="natural" v="hill" />
		<tag k="place" v="locality" />
		<tag k="ssr:stedsnr" v="633718" />
	</node>
	<node id="-167624" lat="60.1099055541" lon="10.2772111115">
		<tag k="name" v="Knausen" />
		<tag k="natural" v="hill" />
		<tag k="place" v="locality" />
		<tag k="ssr:stedsnr" v="633717" />
	</node>
	<node id="-167608" lat="60.0538638847" lon="10.4376888896">
		<tag k="name" v="Steinbråtadalen" />
		<tag k="natural" v="valley" />
		<tag k="place" v="locality" />
		<tag k="ssr:stedsnr" v="632004" />
	</node>
	<node id="-167607" lat="59.9739388886" lon="10.3192444438">
		<tag k="name" v="Skaret" />
		<tag k="natural" v="valley" />
		<tag k="place" v="locality" />
		<tag k="ssr:stedsnr" v="631867" />
	</node>
	<node id="-167601" lat="60.0413388871" lon="10.3726611081">
		<tag k="name" v="Borgenbakkane" />
		<tag k="natural" v="slope" />
		<tag k="place" v="locality" />
		<tag k="ssr:stedsnr" v="611972" />
	</node>
	<node id="-167594" lat="60.0919000033" lon="10.2442416626">
		<tag k="alt_name" v="Flatmoen" />
		<tag k="name" v="Bymoen" />
		<tag k="place" v="locality" />
		<tag k="ssr:stedsnr" v="611274" />
	</node>
	<node id="-167593" lat="60.0689000038" lon="10.1856277775">
		<tag k="fixme" v="consider natural=peak for the most distinct mountains in the district" />
		<tag k="name" v="Leinåsen" />
		<tag k="natural" v="hill" />
		<tag k="place" v="locality" />
		<tag k="ssr:stedsnr" v="611269" />
	</node>
	<node id="-167196" lat="60.0858305544" lon="10.2553083279">
		<tag k="name" v="Kjellerbergenga" />
		<tag k="natural" v="hill" />
		<tag k="place" v="locality" />
		<tag k="ssr:stedsnr" v="341804" />
	</node>
	<node id="-167579" lat="60.048480559" lon="10.2500944405">
		<tag k="name" v="Kvislahaugen" />
		<tag k="natural" v="hill" />
		<tag k="place" v="locality" />
		<tag k="ssr:stedsnr" v="572583" />
	</node>
	<node id="-167576" lat="60.0238638925" lon="10.4316888916">
		<tag k="name" v="Steffensberget" />
		<tag k="natural" v="hill" />
		<tag k="place" v="locality" />
		<tag k="ssr:stedsnr" v="572177" />
	</node>
	<node id="-167574" lat="60.0397999973" lon="10.4031638869">
		<tag k="fixme" v="consider natural=peak for the most distinct mountains in the district" />
		<tag k="name" v="Kallebråtaåsen" />
		<tag k="natural" v="hill" />
		<tag k="place" v="locality" />
		<tag k="ssr:stedsnr" v="572030" />
	</node>
	<node id="-167553" lat="60.0137083364" lon="10.2835277706">
		<tag k="fixme" v="consider natural=peak for the most distinct mountains in the district" />
		<tag k="name" v="Hvalpåsen" />
		<tag k="natural" v="hill" />
		<tag k="place" v="locality" />
		<tag k="ssr:stedsnr" v="551388" />
	</node>
	<node id="-167542" lat="60.0440916693" lon="10.3542138821">
		<tag k="alt_name" v="Torgseterhøgda" />
		<tag k="fixme" v="consider natural=peak for the most distinct mountains in the district" />
		<tag k="name" v="Torgeseterhøgda" />
		<tag k="natural" v="hill" />
		<tag k="place" v="locality" />
		<tag k="ssr:stedsnr" v="538971" />
	</node>
	<node id="-167534" lat="59.9817527797" lon="10.317388891">
		<tag k="name" v="Utsikten" />
		<tag k="natural" v="hill" />
		<tag k="place" v="locality" />
		<tag k="ssr:stedsnr" v="512343" />
	</node>
	<node id="-167533" lat="60.0619166674" lon="10.4101861053">
		<tag k="fixme" v="consider natural=peak for the most distinct mountains in the district" />
		<tag k="name" v="Snertumsåsen" />
		<tag k="natural" v="hill" />
		<tag k="place" v="locality" />
		<tag k="ssr:stedsnr" v="512034" />
	</node>
	<node id="-167270" lat="60.0734666627" lon="10.4083777781">
		<tag k="name" v="Krokskogen" />
		<tag k="natural" v="wood" />
		<tag k="ssr:stedsnr" v="308206" />
	</node>
	<node id="-167520" lat="60.0503055569" lon="10.4083972311">
		<tag k="fixme" v="consider natural=peak for the most distinct mountains in the district" />
		<tag k="name" v="Dåstjernbrenna" />
		<tag k="natural" v="hill" />
		<tag k="place" v="locality" />
		<tag k="ssr:stedsnr" v="491197" />
	</node>
	<node id="-167507" lat="59.9831416647" lon="10.3658055592">
		<tag k="alt_name" v="Kallåsen" />
		<tag k="fixme" v="consider natural=peak for the most distinct mountains in the district" />
		<tag k="name" v="Kaloåsen" />
		<tag k="natural" v="hill" />
		<tag k="place" v="locality" />
		<tag k="ssr:stedsnr" v="489124" />
	</node>
	<node id="-167505" lat="59.9773611103" lon="10.3690194442">
		<tag k="fixme" v="consider natural=peak for the most distinct mountains in the district" />
		<tag k="name" v="Bjørnetjernåsen" />
		<tag k="natural" v="hill" />
		<tag k="place" v="locality" />
		<tag k="ssr:stedsnr" v="452264" />
	</node>
	<node id="-167495" lat="59.9805611074" lon="10.3331111022">
		<tag k="name" v="Kjerringhaugen" />
		<tag k="natural" v="hill" />
		<tag k="place" v="locality" />
		<tag k="ssr:stedsnr" v="451296" />
	</node>
	<node id="-167486" lat="60.0408416685" lon="10.4240638813">
		<tag k="fixme" v="consider natural=peak for the most distinct mountains in the district" />
		<tag k="name" v="Brennåsen" />
		<tag k="natural" v="hill" />
		<tag k="place" v="locality" />
		<tag k="ssr:stedsnr" v="430403" />
	</node>
	<node id="-167482" lat="60.0369302242" lon="10.3066685295">
		<tag k="alt_name" v="Abborås" />
		<tag k="fixme" v="consider natural=peak for the most distinct mountains in the district" />
		<tag k="name" v="Åboråsen" />
		<tag k="natural" v="hill" />
		<tag k="place" v="locality" />
		<tag k="ssr:stedsnr" v="430318" />
	</node>
	<node id="-167480" lat="60.0369866365" lon="10.2866010245">
		<tag k="fixme" v="consider natural=peak for the most distinct mountains in the district" />
		<tag k="name" v="Gjertrussen" />
		<tag k="natural" v="hill" />
		<tag k="place" v="locality" />
		<tag k="ssr:stedsnr" v="430317" />
	</node>
	<node id="-167475" lat="59.9880194445" lon="10.3810527852">
		<tag k="name" v="Djupedalen" />
		<tag k="natural" v="valley" />
		<tag k="place" v="locality" />
		<tag k="ssr:stedsnr" v="429078" />
	</node>
	<node id="-167460" lat="59.993005557" lon="10.3136916651">
		<tag k="fixme" v="consider natural=peak for the most distinct mountains in the district" />
		<tag k="name" v="Nordlandsåsen" />
		<tag k="natural" v="hill" />
		<tag k="place" v="locality" />
		<tag k="ssr:stedsnr" v="247438" />
	</node>
	<node id="-167459" lat="60.053024996" lon="10.315583333">
		<tag k="name" v="Krokkleiva" />
		<tag k="natural" v="valley" />
		<tag k="place" v="locality" />
		<tag k="ssr:stedsnr" v="247346" />
	</node>
	<node id="-167449" lat="59.9890277775" lon="10.3518027779">
		<tag k="fixme" v="consider natural=peak for the most distinct mountains in the district" />
		<tag k="name" v="Rønningsåsen" />
		<tag k="natural" v="hill" />
		<tag k="place" v="locality" />
		<tag k="ssr:stedsnr" v="247076" />
	</node>
	<node id="-167439" lat="60.0815717915" lon="10.2731645944">
		<tag k="name" v="Skredderrudberget" />
		<tag k="natural" v="hill" />
		<tag k="place" v="locality" />
		<tag k="ssr:stedsnr" v="210522" />
	</node>
	<node id="-167438" lat="60.0441777799" lon="10.241791668">
		<tag k="alt_name" v="Dypdalen" />
		<tag k="name" v="Djupdalen" />
		<tag k="natural" v="valley" />
		<tag k="place" v="locality" />
		<tag k="ssr:stedsnr" v="209722" />
	</node>
	<node id="-167425" lat="59.9986944428" lon="10.3182388901">
		<tag k="fixme" v="consider natural=peak for the most distinct mountains in the district" />
		<tag k="name" v="Preståsen" />
		<tag k="natural" v="hill" />
		<tag k="place" v="locality" />
		<tag k="ssr:stedsnr" v="208358" />
	</node>
</osm>
