<?xml version="1.0" encoding="UTF-8"?>
<osm generator="osmapis" version="0.6">
	<node id="-167296" lat="60.0072694447" lon="10.3622333411">
		<tag k="fixme" v="multiple name tags, choose one and add the other to alt_name" />
		<tag k="historic" v="shieling" />
		<tag k="name" v="Nedre Steinlausa;Nedre Steinlaussetra" />
		<tag k="old_name" v="Ned SteinlaussSr" />
		<tag k="place" v="locality" />
		<tag k="ssr:stedsnr" v="6895" />
	</node>
	<node id="-167420" lat="60.0518250018" lon="10.2595777794">
		<tag k="name" v="Rosenlundjordet" />
		<tag k="place" v="locality" />
		<tag k="ssr:stedsnr" v="207626" />
	</node>
	<node id="-167674" lat="60.0540916642" lon="10.2659722276">
		<tag k="landuse" v="meadow" />
		<tag k="name" v="Rosenlund" />
		<tag k="ssr:stedsnr" v="694710" />
	</node>
	<node id="-167673" lat="60.0901305517" lon="10.1986944401">
		<tag k="name" v="Åsjordet" />
		<tag k="place" v="locality" />
		<tag k="ssr:stedsnr" v="694640" />
	</node>
	<node id="-167672" lat="60.0645789138" lon="10.2125560346">
		<tag k="name" v="Dokka" />
		<tag k="place" v="locality" />
		<tag k="ssr:stedsnr" v="694559" />
	</node>
	<node id="-167543" lat="59.9823527812" lon="10.3595805492">
		<tag k="name" v="Leikemyr" />
		<tag k="natural" v="wetland" />
		<tag k="ssr:stedsnr" v="550118" />
	</node>
	<node id="-167798" lat="60.1093277748" lon="10.2736583383">
		<tag k="name" v="Gongjordet" />
		<tag k="place" v="locality" />
		<tag k="ssr:stedsnr" v="876684" />
	</node>
	<node id="-167797" lat="60.0454943215" lon="10.4400684927">
		<tag k="name" v="Vintervegmyra" />
		<tag k="natural" v="wetland" />
		<tag k="ssr:stedsnr" v="876036" />
	</node>
	<node id="-167796" lat="60.0468222235" lon="10.4080305476">
		<tag k="name" v="Furumyr" />
		<tag k="natural" v="wetland" />
		<tag k="ssr:stedsnr" v="876029" />
	</node>
	<node id="-167358" lat="60.1093611142" lon="10.2599749919">
		<tag k="name" v="Hanserud" />
		<tag k="place" v="locality" />
		<tag k="ssr:stedsnr" v="87675" />
	</node>
	<node id="-167788" lat="60.0972722179" lon="10.206866666">
		<tag k="name" v="Mønstreplassen" />
		<tag k="place" v="locality" />
		<tag k="ssr:stedsnr" v="875658" />
	</node>
	<node id="-167442" lat="60.07079722" lon="10.2027027704">
		<tag k="name" v="Steinbakken" />
		<tag k="place" v="locality" />
		<tag k="ssr:stedsnr" v="268987" />
	</node>
	<node id="-167786" lat="60.0856777794" lon="10.2262027731">
		<tag k="name" v="Utenga" />
		<tag k="place" v="locality" />
		<tag k="ssr:stedsnr" v="875756" />
	</node>
	<node id="-167145" lat="60.1024638925" lon="10.2959527849">
		<tag k="name" v="Sopet" />
		<tag k="place" v="locality" />
		<tag k="ssr:stedsnr" v="269681" />
	</node>
	<node id="-167356" lat="60.0993249958" lon="10.2968944409">
		<tag k="name" v="Strandjordet" />
		<tag k="place" v="locality" />
		<tag k="ssr:stedsnr" v="87666" />
	</node>
	<node id="-167398" lat="60.0072385721" lon="10.3621895659">
		<tag k="fixme" v="multiple name tags, choose one and add the other to alt_name" />
		<tag k="historic" v="shieling" />
		<tag k="name" v="Nedre Steinlausa;Steinlaussetra" />
		<tag k="place" v="locality" />
		<tag k="ssr:stedsnr" v="162780" />
	</node>
	<node id="-167833" lat="60.102886112" lon="10.2220444447">
		<tag k="name" v="Helvetesmyra" />
		<tag k="natural" v="wetland" />
		<tag k="ssr:stedsnr" v="936674" />
	</node>
	<node id="-167779" lat="60.1165500035" lon="10.2370166708">
		<tag k="name" v="Lamyra" />
		<tag k="natural" v="wetland" />
		<tag k="ssr:stedsnr" v="854683" />
	</node>
	<node id="-167394" lat="60.0713194415" lon="10.1878055468">
		<tag k="name" v="Kalvbråtan" />
		<tag k="place" v="locality" />
		<tag k="ssr:stedsnr" v="147792" />
	</node>
	<node id="-167327" lat="59.9861194483" lon="10.3494555531">
		<tag k="name" v="Stormyr" />
		<tag k="natural" v="wetland" />
		<tag k="ssr:stedsnr" v="65097" />
	</node>
	<node id="-167502" lat="60.104674999" lon="10.2996472134">
		<tag k="name" v="Storren" />
		<tag k="natural" v="wetland" />
		<tag k="ssr:stedsnr" v="451702" />
	</node>
	<node id="-167500" lat="60.064500004" lon="10.2570666659">
		<tag k="name" v="Klaserud" />
		<tag k="place" v="locality" />
		<tag k="ssr:stedsnr" v="451593" />
	</node>
	<node id="-167159" lat="60.0075500036" lon="10.3550888818">
		<tag k="historic" v="shieling" />
		<tag k="name" v="Øvre Steinlaussetra" />
		<tag k="place" v="locality" />
		<tag k="ssr:stedsnr" v="296881" />
	</node>
	<node id="-167628" lat="60.0740161391" lon="10.2709397794">
		<tag k="name" v="Smiujordet" />
		<tag k="place" v="locality" />
		<tag k="ssr:stedsnr" v="634566" />
	</node>
	<node id="-167494" lat="60.0432333311" lon="10.4081722151">
		<tag k="name" v="Rosentorvmyra" />
		<tag k="natural" v="wetland" />
		<tag k="ssr:stedsnr" v="451029" />
	</node>
	<node id="-167493" lat="60.0820388906" lon="10.2014472251">
		<tag k="name" v="Vestjordet" />
		<tag k="place" v="locality" />
		<tag k="ssr:stedsnr" v="450993" />
	</node>
	<node id="-167670" lat="60.070249996" lon="10.1875166706">
		<tag k="name" v="Persmyr" />
		<tag k="natural" v="wetland" />
		<tag k="ssr:stedsnr" v="693807" />
	</node>
	<node id="-167490" lat="60.0137138931" lon="10.3083194461">
		<tag k="name" v="Nylandsmyra" />
		<tag k="natural" v="wetland" />
		<tag k="ssr:stedsnr" v="450477" />
	</node>
	<node id="-167231" lat="60.1036166647" lon="10.277961106">
		<tag k="name" v="Danmark" />
		<tag k="place" v="locality" />
		<tag k="ssr:stedsnr" v="390649" />
	</node>
	<node id="-167614" lat="60.0801777821" lon="10.229000004">
		<tag k="name" v="Bergehagan" />
		<tag k="place" v="locality" />
		<tag k="ssr:stedsnr" v="632743" />
	</node>
	<node id="-167357" lat="60.1067444487" lon="10.2741249979">
		<tag k="name" v="Stalljordet" />
		<tag k="place" v="locality" />
		<tag k="ssr:stedsnr" v="87670" />
	</node>
	<node id="-167612" lat="60.1078249977" lon="10.2419083366">
		<tag k="name" v="Sørmoen" />
		<tag k="place" v="locality" />
		<tag k="ssr:stedsnr" v="632674" />
	</node>
	<node id="-167737" lat="60.0656111085" lon="10.2594749966">
		<tag k="name" v="Hvelven" />
		<tag k="place" v="locality" />
		<tag k="ssr:stedsnr" v="813624" />
	</node>
	<node id="-167352" lat="60.0532416628" lon="10.2484833361">
		<tag k="name" v="Nordjordet" />
		<tag k="place" v="locality" />
		<tag k="ssr:stedsnr" v="87592" />
	</node>
	<node id="-167305" lat="59.9690611069" lon="10.3535138965">
		<tag k="historic" v="shieling" />
		<tag k="name" v="Furumoen" />
		<tag k="place" v="locality" />
		<tag k="ssr:stedsnr" v="26313" />
	</node>
	<node id="-167582" lat="60.1056416661" lon="10.2636777849">
		<tag k="name" v="Låvestykket" />
		<tag k="place" v="locality" />
		<tag k="ssr:stedsnr" v="572673" />
	</node>
	<node id="-167471" lat="60.0756833329" lon="10.1704527827">
		<tag k="name" v="Langpløya" />
		<tag k="place" v="locality" />
		<tag k="ssr:stedsnr" v="268838" />
	</node>
	<node id="-167598" lat="60.1109055586" lon="10.2597388902">
		<tag k="alt_name" v="Lamyra" />
		<tag k="name" v="Mosmyra" />
		<tag k="natural" v="wetland" />
		<tag k="ssr:stedsnr" v="611759" />
	</node>
	<node id="-167581" lat="60.1095638858" lon="10.2964194511">
		<tag k="name" v="Hårkenga" />
		<tag k="place" v="locality" />
		<tag k="ssr:stedsnr" v="572670" />
	</node>
	<node id="-167623" lat="60.0968972202" lon="10.1892583379">
		<tag k="landuse" v="meadow" />
		<tag k="name" v="Stadumsenga" />
		<tag k="ssr:stedsnr" v="633675" />
	</node>
	<node id="-167336" lat="60.0221777747" lon="10.4168194494">
		<tag k="name" v="Puttmyrene" />
		<tag k="natural" v="wetland" />
		<tag k="ssr:stedsnr" v="268079" />
	</node>
	<node id="-167718" lat="60.0713895438" lon="10.2895078314">
		<tag k="name" v="Åsplassen" />
		<tag k="place" v="locality" />
		<tag k="ssr:stedsnr" v="756532" />
	</node>
	<node id="-167238" lat="60.0653749955" lon="10.4004027828">
		<tag k="name" v="Elgsmyr" />
		<tag k="natural" v="wetland" />
		<tag k="ssr:stedsnr" v="269105" />
	</node>
	<node id="-167457" lat="60.0211083327" lon="10.3118999984">
		<tag k="alt_name" v="Uksemyra" />
		<tag k="name" v="Oksemyr" />
		<tag k="natural" v="wetland" />
		<tag k="ssr:stedsnr" v="247316" />
	</node>
	<node id="-167840" lat="60.1079444412" lon="10.295199992">
		<tag k="name" v="Pommern" />
		<tag k="place" v="locality" />
		<tag k="ssr:stedsnr" v="937715" />
	</node>
	<node id="-167583" lat="60.1083666633" lon="10.281438891">
		<tag k="name" v="Skolejordet" />
		<tag k="place" v="locality" />
		<tag k="ssr:stedsnr" v="572678" />
	</node>
	<node id="-167710" lat="60.1101138904" lon="10.2700333418">
		<tag k="name" v="Haugejordet" />
		<tag k="place" v="locality" />
		<tag k="ssr:stedsnr" v="754668" />
	</node>
	<node id="-167709" lat="60.10824167" lon="10.2633722173">
		<tag k="name" v="Storjordet" />
		<tag k="place" v="locality" />
		<tag k="ssr:stedsnr" v="754665" />
	</node>
	<node id="-167839" lat="60.1002277768" lon="10.2905527694">
		<tag k="name" v="Damjordet" />
		<tag k="place" v="locality" />
		<tag k="ssr:stedsnr" v="937709" />
	</node>
	<node id="-167575" lat="60.0446305538" lon="10.4557500015">
		<tag k="name" v="Heimkleivmyra" />
		<tag k="natural" v="wetland" />
		<tag k="ssr:stedsnr" v="572039" />
	</node>
	<node id="-167573" lat="60.0725972208" lon="10.2019361113">
		<tag k="name" v="Skolejordet" />
		<tag k="place" v="locality" />
		<tag k="ssr:stedsnr" v="571983" />
	</node>
	<node id="-167188" lat="60.0643138909" lon="10.2021222206">
		<tag k="name" v="Veslemyra" />
		<tag k="natural" v="wetland" />
		<tag k="ssr:stedsnr" v="330600" />
	</node>
	<node id="-167443" lat="60.0879222195" lon="10.2529805639">
		<tag k="name" v="Hvitmyr" />
		<tag k="natural" v="wetland" />
		<tag k="ssr:stedsnr" v="268989" />
	</node>
	<node id="-167570" lat="60.0850416623" lon="10.2430499929">
		<tag k="name" v="Sandstranda" />
		<tag k="natural" v="beach" />
		<tag k="ssr:stedsnr" v="571739" />
		<tag k="surface" v="sand" />
	</node>
	<node id="-167313" lat="60.1026722191" lon="10.2909722307">
		<tag k="name" v="Sørjordet" />
		<tag k="place" v="locality" />
		<tag k="ssr:stedsnr" v="26642" />
	</node>
	<node id="-167312" lat="60.0974333315" lon="10.2836333294">
		<tag k="name" v="Steinsåkeren" />
		<tag k="place" v="locality" />
		<tag k="ssr:stedsnr" v="26641" />
	</node>
	<node id="-167561" lat="60.0641083324" lon="10.2792833278">
		<tag k="name" v="Langåkeren" />
		<tag k="place" v="locality" />
		<tag k="ssr:stedsnr" v="570598" />
	</node>
	<node id="-167304" lat="60.0408194456" lon="10.4619361034">
		<tag k="name" v="Kryssbystupmyra" />
		<tag k="natural" v="wetland" />
		<tag k="ssr:stedsnr" v="26024" />
	</node>
	<node id="-167431" lat="60.1018722265" lon="10.2828555575">
		<tag k="name" v="Storåkeren" />
		<tag k="place" v="locality" />
		<tag k="ssr:stedsnr" v="208661" />
	</node>
	<node id="-167751" lat="60.1067944408" lon="10.2917277715">
		<tag k="name" v="Nordjordet" />
		<tag k="place" v="locality" />
		<tag k="ssr:stedsnr" v="815637" />
	</node>
	<node id="-167429" lat="60.049355559" lon="10.2485388842">
		<tag k="name" v="Ollejordet" />
		<tag k="place" v="locality" />
		<tag k="ssr:stedsnr" v="208575" />
	</node>
	<node id="-167298" lat="60.1189969793" lon="10.2934693695">
		<tag k="landuse" v="meadow" />
		<tag k="name" v="Vekkeren" />
		<tag k="ssr:stedsnr" v="25377" />
	</node>
	<node id="-167329" lat="60.0212194423" lon="10.3773749924">
		<tag k="name" v="Helvetesmyra" />
		<tag k="natural" v="wetland" />
		<tag k="ssr:stedsnr" v="66964" />
	</node>
</osm>
