<?xml version="1.0" encoding="UTF-8"?>
<osm generator="osmapis" version="0.6">
	<node id="-167423" lat="60.0586416701" lon="10.3744722278">
		<tag k="name" v="Lorttjern" />
		<tag k="natural" v="water" />
		<tag k="ssr:stedsnr" v="208087" />
	</node>
	<node id="-167416" lat="60.0515227862" lon="10.2536604446">
		<tag k="name" v="Storøya" />
		<tag k="place" v="island" />
		<tag k="ssr:stedsnr" v="187343" />
	</node>
	<node id="-167415" lat="60.010825002" lon="10.3163638837">
		<tag k="name" v="Dalebekken" />
		<tag k="ssr:stedsnr" v="187405" />
		<tag k="waterway" v="stream" />
	</node>
	<node id="-167410" lat="60.1150999968" lon="10.2655583294">
		<tag k="alt_name" v="Motjernet" />
		<tag k="name" v="Mostjern" />
		<tag k="natural" v="water" />
		<tag k="ssr:stedsnr" v="186720" />
	</node>
	<node id="-167407" lat="60.0929388854" lon="10.177399994">
		<tag k="name" v="Onsakervika" />
		<tag k="natural" v="bay" />
		<tag k="ssr:stedsnr" v="186279" />
	</node>
	<node id="-167406" lat="60.0689499978" lon="10.3497972184">
		<tag k="alt_name" v="Lårviktjernet" />
		<tag k="name" v="Lårviktjern" />
		<tag k="natural" v="water" />
		<tag k="ssr:stedsnr" v="186241" />
	</node>
	<node id="-167403" lat="59.9842527807" lon="10.3490805505">
		<tag k="alt_name" v="Nissetjern" />
		<tag k="name" v="Nisseputten" />
		<tag k="natural" v="water" />
		<tag k="ssr:stedsnr" v="186111" />
		<tag k="water" v="pond" />
	</node>
	<node id="-167402" lat="59.9930138877" lon="10.3479638862">
		<tag k="fixme" v="multiple name tags, choose one and add the other to alt_name" />
		<tag k="name" v="Plassevatnet;Toresplasstjern" />
		<tag k="natural" v="water" />
		<tag k="ssr:stedsnr" v="186089" />
	</node>
	<node id="-167395" lat="60.0395222216" lon="10.2478527842">
		<tag k="name" v="Bombeøya" />
		<tag k="place" v="island" />
		<tag k="ssr:stedsnr" v="148734" />
	</node>
	<node id="-167392" lat="60.0649944466" lon="10.2468777692">
		<tag k="name" v="Verkensvika" />
		<tag k="natural" v="bay" />
		<tag k="ssr:stedsnr" v="147528" />
	</node>
	<node id="-167388" lat="59.9850027755" lon="10.3292611087">
		<tag k="name" v="Tvetjerna" />
		<tag k="natural" v="water" />
		<tag k="ssr:stedsnr" v="147349" />
	</node>
	<node id="-167380" lat="60.0060666626" lon="10.3359388971">
		<tag k="name" v="Auretjern" />
		<tag k="natural" v="water" />
		<tag k="ssr:stedsnr" v="127458" />
	</node>
	<node id="-167375" lat="60.040072219" lon="10.3967611101">
		<tag k="name" v="Plassedammen" />
		<tag k="natural" v="water" />
		<tag k="ssr:stedsnr" v="126934" />
		<tag k="water" v="lake" />
	</node>
	<node id="-167370" lat="60.0780916625" lon="10.2283361185">
		<tag k="alt_name" v="Ullerentangen" />
		<tag k="name" v="Ullerntangen" />
		<tag k="natural" v="cape" />
		<tag k="ssr:stedsnr" v="126246" />
	</node>
	<node id="-167364" lat="59.9304722235" lon="10.3282250043">
		<tag k="name" v="Holsfjorden" />
		<tag k="natural" v="water" />
		<tag k="ssr:stedsnr" v="124411" />
	</node>
	<node id="-167349" lat="60.0566611141" lon="10.209888894">
		<tag k="name" v="Svartøysundet" />
		<tag k="natural" v="strait" />
		<tag k="ssr:stedsnr" v="87567" />
	</node>
	<node id="-167348" lat="60.0664305542" lon="10.2445222275">
		<tag k="name" v="Haugertangen" />
		<tag k="natural" v="cape" />
		<tag k="ssr:stedsnr" v="87562" />
	</node>
	<node id="-167347" lat="60.0630249987" lon="10.2169361092">
		<tag k="name" v="Snekkerstuvika" />
		<tag k="natural" v="bay" />
		<tag k="ssr:stedsnr" v="87548" />
	</node>
	<node id="-167344" lat="60.0744838772" lon="10.2983421179">
		<tag k="name" v="Paddevika" />
		<tag k="natural" v="bay" />
		<tag k="ssr:stedsnr" v="86872" />
	</node>
	<node id="-167343" lat="60.1063888872" lon="10.2036138937">
		<tag k="name" v="Evja" />
		<tag k="ssr:stedsnr" v="86680" />
		<tag k="waterway" v="river" />
	</node>
	<node id="-167341" lat="60.0662999986" lon="10.2634861084">
		<tag k="name" v="Borgenvika" />
		<tag k="natural" v="bay" />
		<tag k="ssr:stedsnr" v="85607" />
	</node>
	<node id="-167340" lat="60.0557861073" lon="10.2702750005">
		<tag k="name" v="Vinterguten" />
		<tag k="natural" v="cape" />
		<tag k="ssr:stedsnr" v="85599" />
	</node>
	<node id="-167337" lat="60.0413916676" lon="10.3299361137">
		<tag k="name" v="Djupedalsbekken" />
		<tag k="ssr:stedsnr" v="85433" />
		<tag k="waterway" v="stream" />
	</node>
	<node id="-167335" lat="59.9725274255" lon="10.3636401461">
		<tag k="alt_name" v="Niskinnvannet" />
		<tag k="fixme" v="multiple name tags, choose one and add the other to alt_name" />
		<tag k="name" v="Holmevatnet;Niskinnvatnet" />
		<tag k="natural" v="water" />
		<tag k="ssr:stedsnr" v="83026" />
		<tag k="water" v="lake" />
	</node>
	<node id="-167841" lat="60.1026055513" lon="10.3042222199">
		<tag k="name" v="Langengskjæret" />
		<tag k="place" v="islet" />
		<tag k="ssr:stedsnr" v="937728" />
	</node>
	<node id="-167328" lat="60.0448666671" lon="10.3827111075">
		<tag k="alt_name" v="Bukkebekk" />
		<tag k="name" v="Bukkebekken" />
		<tag k="ssr:stedsnr" v="66957" />
		<tag k="waterway" v="stream" />
	</node>
	<node id="-167324" lat="60.0559333345" lon="10.1784805492">
		<tag k="alt_name" v="Breidvika" />
		<tag k="name" v="Breivika" />
		<tag k="natural" v="bay" />
		<tag k="ssr:stedsnr" v="65335" />
	</node>
	<node id="-167835" lat="60.0763412353" lon="10.294709799">
		<tag k="name" v="Løkkevika" />
		<tag k="natural" v="bay" />
		<tag k="ssr:stedsnr" v="936859" />
	</node>
	<node id="-167829" lat="60.0167666638" lon="10.2862444456">
		<tag k="name" v="Kuputten" />
		<tag k="natural" v="water" />
		<tag k="ssr:stedsnr" v="935479" />
	</node>
	<node id="-167314" lat="60.0611944452" lon="10.2876527841">
		<tag k="name" v="Rudstangen" />
		<tag k="natural" v="cape" />
		<tag k="ssr:stedsnr" v="26643" />
	</node>
	<node id="-167825" lat="60.0248694433" lon="10.3865166612">
		<tag k="name" v="Tverrelva" />
		<tag k="ssr:stedsnr" v="916977" />
		<tag k="waterway" v="stream" />
	</node>
	<node id="-167309" lat="60.0480277769" lon="10.2364972241">
		<tag k="name" v="Abborvika" />
		<tag k="natural" v="bay" />
		<tag k="ssr:stedsnr" v="26554" />
	</node>
	<node id="-167819" lat="60.0028333331" lon="10.3515416647">
		<tag k="name" v="Tapatjern" />
		<tag k="natural" v="water" />
		<tag k="ssr:stedsnr" v="915921" />
	</node>
	<node id="-167818" lat="60.1088555549" lon="10.20920833">
		<tag k="name" v="Tjernet" />
		<tag k="natural" v="water" />
		<tag k="ssr:stedsnr" v="915736" />
	</node>
	<node id="-167303" lat="60.0366944456" lon="10.3987805594">
		<tag k="name" v="Steinvika" />
		<tag k="natural" v="bay" />
		<tag k="ssr:stedsnr" v="26008" />
	</node>
	<node id="-167814" lat="60.0554888908" lon="10.339338896">
		<tag k="name" v="Retthelltjernet" />
		<tag k="natural" v="water" />
		<tag k="ssr:stedsnr" v="915338" />
	</node>
	<node id="-167813" lat="60.0599500015" lon="10.2435055495">
		<tag k="alt_name" v="Lemostangen" />
		<tag k="name" v="Limovnstangen" />
		<tag k="natural" v="cape" />
		<tag k="ssr:stedsnr" v="915335" />
	</node>
	<node id="-167300" lat="60.0541722236" lon="10.1824805513">
		<tag k="name" v="Sørtangen" />
		<tag k="natural" v="cape" />
		<tag k="ssr:stedsnr" v="25697" />
	</node>
	<node id="-167810" lat="60.0795833352" lon="10.2370194444">
		<tag k="name" v="Sælabonn" />
		<tag k="natural" v="bay" />
		<tag k="ssr:stedsnr" v="915249" />
	</node>
	<node id="-167292" lat="60.0003916651" lon="10.3692416723">
		<tag k="name" v="Isielva" />
		<tag k="ssr:stedsnr" v="5919" />
		<tag k="waterway" v="stream" />
	</node>
	<node id="-167291" lat="60.0489638891" lon="10.177533337">
		<tag k="name" v="Frognøya" />
		<tag k="place" v="island" />
		<tag k="ssr:stedsnr" v="5354" />
	</node>
	<node id="-167802" lat="60.0629361104" lon="10.3022805558">
		<tag k="name" v="Sundøya" />
		<tag k="place" v="island" />
		<tag k="ssr:stedsnr" v="876740" />
	</node>
	<node id="-167801" lat="60.1058055574" lon="10.2971861193">
		<tag k="name" v="Snekkerevja" />
		<tag k="natural" v="water" />
		<tag k="ssr:stedsnr" v="876708" />
		<tag k="water" v="lake" />
	</node>
	<node id="-167799" lat="60.099425002" lon="10.3140944476">
		<tag k="name" v="Maurøya" />
		<tag k="place" v="island" />
		<tag k="ssr:stedsnr" v="876703" />
	</node>
	<node id="-167285" lat="60.102113891" lon="10.3014944368">
		<tag k="name" v="Steinsvika" />
		<tag k="natural" v="bay" />
		<tag k="ssr:stedsnr" v="4741" />
	</node>
	<node id="-167795" lat="60.0739555579" lon="10.2528722264">
		<tag k="name" v="Tangen" />
		<tag k="natural" v="cape" />
		<tag k="ssr:stedsnr" v="875997" />
	</node>
	<node id="-167282" lat="59.9878388888" lon="10.3318416747">
		<tag k="name" v="Langtjern" />
		<tag k="natural" v="water" />
		<tag k="ssr:stedsnr" v="4445" />
	</node>
	<node id="-167278" lat="60.0903999963" lon="10.3095999957">
		<tag k="alt_name" v="Småøyane" />
		<tag k="name" v="Småøyene" />
		<tag k="place" v="island" />
		<tag k="ssr:stedsnr" v="4287" />
	</node>
	<node id="-167787" lat="59.9916138893" lon="10.30010277">
		<tag k="name" v="Sønsterudelva" />
		<tag k="ssr:stedsnr" v="875487" />
		<tag k="waterway" v="river" />
	</node>
	<node id="-167785" lat="60.0654916623" lon="10.2713083346">
		<tag k="alt_name" v="Fekjærvika" />
		<tag k="name" v="Fetjarvika" />
		<tag k="natural" v="bay" />
		<tag k="ssr:stedsnr" v="874677" />
	</node>
	<node id="-167272" lat="59.9791892029" lon="10.3705420406">
		<tag k="name" v="Bjørntjernet" />
		<tag k="natural" v="water" />
		<tag k="ssr:stedsnr" v="4109" />
	</node>
	<node id="-167783" lat="60.0669222231" lon="10.3626611177">
		<tag k="alt_name" v="Myromstjernet" />
		<tag k="name" v="Myromstjern" />
		<tag k="natural" v="water" />
		<tag k="ssr:stedsnr" v="855212" />
	</node>
	<node id="-167770" lat="60.0734833291" lon="10.2552499951">
		<tag k="name" v="Borgenvika" />
		<tag k="natural" v="bay" />
		<tag k="ssr:stedsnr" v="854232" />
	</node>
	<node id="-167763" lat="60.0288805555" lon="10.4003277812">
		<tag k="alt_name" v="Lille Lomma" />
		<tag k="name" v="Vesle Lomma" />
		<tag k="ssr:stedsnr" v="842184" />
		<tag k="waterway" v="river" />
	</node>
	<node id="-167759" lat="60.042433332" lon="10.4396527846">
		<tag k="name" v="Bjørnstadbekken" />
		<tag k="ssr:stedsnr" v="815968" />
		<tag k="waterway" v="stream" />
	</node>
	<node id="-167756" lat="60.0626388848" lon="10.2936666753">
		<tag k="name" v="Tangen" />
		<tag k="natural" v="cape" />
		<tag k="ssr:stedsnr" v="815713" />
	</node>
	<node id="-167754" lat="60.1015611116" lon="10.3086222255">
		<tag k="name" v="Rognsvika" />
		<tag k="natural" v="bay" />
		<tag k="ssr:stedsnr" v="815663" />
	</node>
	<node id="-167753" lat="60.0618361067" lon="10.2810916753">
		<tag k="name" v="Hammeren" />
		<tag k="natural" v="cape" />
		<tag k="ssr:stedsnr" v="815640" />
	</node>
	<node id="-167752" lat="60.064455559" lon="10.2996055539">
		<tag k="name" v="Slettøya" />
		<tag k="place" v="island" />
		<tag k="ssr:stedsnr" v="815638" />
	</node>
	<node id="-167749" lat="60.062008333" lon="10.216305555">
		<tag k="name" v="Svarstadstøa" />
		<tag k="natural" v="bay" />
		<tag k="ssr:stedsnr" v="815514" />
	</node>
	<node id="-167745" lat="60.0798388895" lon="10.2442027733">
		<tag k="name" v="Evangelieholmen" />
		<tag k="place" v="islet" />
		<tag k="ssr:stedsnr" v="814972" />
	</node>
	<node id="-167230" lat="60.103486107" lon="10.1869944415">
		<tag k="name" v="Strandingsevja" />
		<tag k="natural" v="bay" />
		<tag k="ssr:stedsnr" v="390608" />
	</node>
	<node id="-167228" lat="60.0561055579" lon="10.2540972139">
		<tag k="name" v="Telefontangen" />
		<tag k="natural" v="cape" />
		<tag k="ssr:stedsnr" v="390559" />
	</node>
	<node id="-167739" lat="60.0476777781" lon="10.2616444444">
		<tag k="name" v="Blomsplassvika" />
		<tag k="natural" v="bay" />
		<tag k="ssr:stedsnr" v="813637" />
	</node>
	<node id="-167225" lat="59.9762805548" lon="10.3122611057">
		<tag k="name" v="Geiterenna" />
		<tag k="ssr:stedsnr" v="390317" />
		<tag k="waterway" v="stream" />
	</node>
	<node id="-167735" lat="60.03944167" lon="10.3511527806">
		<tag k="alt_name" v="Torgetjernet;Torgtjern" />
		<tag k="name" v="Torgetjern" />
		<tag k="natural" v="water" />
		<tag k="ssr:stedsnr" v="794962" />
	</node>
	<node id="-167222" lat="60.0742611133" lon="10.2554916617">
		<tag k="name" v="Jansvika" />
		<tag k="natural" v="bay" />
		<tag k="ssr:stedsnr" v="389999" />
	</node>
	<node id="-167732" lat="60.049513886" lon="10.4539583261">
		<tag k="name" v="Kattjern" />
		<tag k="natural" v="water" />
		<tag k="ssr:stedsnr" v="794188" />
	</node>
	<node id="-167730" lat="60.0990583333" lon="10.3073305622">
		<tag k="name" v="Loretangen" />
		<tag k="natural" v="cape" />
		<tag k="ssr:stedsnr" v="793748" />
	</node>
	<node id="-167217" lat="60.0653777784" lon="10.2682166599">
		<tag k="name" v="Bjørketangen" />
		<tag k="natural" v="cape" />
		<tag k="ssr:stedsnr" v="389674" />
	</node>
	<node id="-167727" lat="60.0384249959" lon="10.3316111105">
		<tag k="name" v="Nordsetertjern" />
		<tag k="natural" v="water" />
		<tag k="ssr:stedsnr" v="793336" />
	</node>
	<node id="-167725" lat="60.0776888918" lon="10.293150006">
		<tag k="name" v="Garntangen" />
		<tag k="natural" v="cape" />
		<tag k="ssr:stedsnr" v="793275" />
	</node>
	<node id="-167724" lat="60.0754361122" lon="10.3212583303">
		<tag k="name" v="Ulvøya" />
		<tag k="place" v="island" />
		<tag k="ssr:stedsnr" v="793274" />
	</node>
	<node id="-167209" lat="60.0164166663" lon="10.3204638968">
		<tag k="name" v="Govletjern" />
		<tag k="natural" v="water" />
		<tag k="ssr:stedsnr" v="369315" />
	</node>
	<node id="-167208" lat="60.0398000035" lon="10.3103388975">
		<tag k="alt_name" v="Abbortjern" />
		<tag k="name" v="Åbortjern" />
		<tag k="natural" v="water" />
		<tag k="ssr:stedsnr" v="369303" />
	</node>
	<node id="-167207" lat="60.0501972259" lon="10.4450111141">
		<tag k="name" v="Gampetjern" />
		<tag k="natural" v="water" />
		<tag k="ssr:stedsnr" v="369189" />
	</node>
	<node id="-167717" lat="60.0524638926" lon="10.2729416736">
		<tag k="name" v="Storøyskjæret" />
		<tag k="place" v="island" />
		<tag k="ssr:stedsnr" v="755732" />
	</node>
	<node id="-167714" lat="60.0217777819" lon="10.3512777752">
		<tag k="name" v="Djupedalsbekken" />
		<tag k="ssr:stedsnr" v="755488" />
		<tag k="waterway" v="stream" />
	</node>
	<node id="-167713" lat="60.0444444414" lon="10.4319388803">
		<tag k="name" v="Monsebråtavika" />
		<tag k="natural" v="bay" />
		<tag k="ssr:stedsnr" v="754965" />
	</node>
	<node id="-167200" lat="60.0710138853" lon="10.2145888904">
		<tag k="name" v="Svarstadvika" />
		<tag k="natural" v="bay" />
		<tag k="ssr:stedsnr" v="368285" />
	</node>
	<node id="-167711" lat="60.0970277794" lon="10.2723166676">
		<tag k="name" v="Seltebekken" />
		<tag k="ssr:stedsnr" v="754678" />
		<tag k="waterway" v="stream" />
	</node>
	<node id="-167195" lat="60.0569666672" lon="10.1933361137">
		<tag k="name" v="Bønsnestangen" />
		<tag k="natural" v="cape" />
		<tag k="ssr:stedsnr" v="126351" />
	</node>
	<node id="-167706" lat="60.0829222254" lon="10.2306472271">
		<tag k="name" v="Evja" />
		<tag k="natural" v="bay" />
		<tag k="ssr:stedsnr" v="753996" />
	</node>
	<node id="-167185" lat="60.0702611098" lon="10.3568388931">
		<tag k="name" v="Kirketjern" />
		<tag k="natural" v="water" />
		<tag k="ssr:stedsnr" v="329873" />
	</node>
	<node id="-167184" lat="60.0826073548" lon="10.2895926971">
		<tag k="name" v="Kråkevika" />
		<tag k="natural" v="bay" />
		<tag k="ssr:stedsnr" v="329865" />
	</node>
	<node id="-167182" lat="60.0609361093" lon="10.2515666587">
		<tag k="name" v="Telefontangen" />
		<tag k="natural" v="cape" />
		<tag k="ssr:stedsnr" v="329573" />
	</node>
	<node id="-167691" lat="60.0381611153" lon="10.4278444424">
		<tag k="alt_name" v="Stemnålstjernet" />
		<tag k="name" v="Stemmenålstjern" />
		<tag k="natural" v="water" />
		<tag k="ssr:stedsnr" v="733925" />
	</node>
	<node id="-167175" lat="60.1021527805" lon="10.3184611032">
		<tag k="name" v="Herøya" />
		<tag k="place" v="island" />
		<tag k="ssr:stedsnr" v="308700" />
	</node>
	<node id="-167173" lat="60.0429805593" lon="10.2350749913">
		<tag k="name" v="Purkøya" />
		<tag k="place" v="island" />
		<tag k="ssr:stedsnr" v="308341" />
	</node>
	<node id="-167171" lat="60.0632500042" lon="10.2998055544">
		<tag k="name" v="Kroksund" />
		<tag k="natural" v="strait" />
		<tag k="ssr:stedsnr" v="308315" />
	</node>
	<node id="-167680" lat="60.0186333328" lon="10.2447111158">
		<tag k="name" v="Tyrifjorden" />
		<tag k="natural" v="water" />
		<tag k="ssr:stedsnr" v="732462" />
		<tag k="water" v="lake" />
	</node>
	<node id="-167679" lat="59.9988694445" lon="10.363308342">
		<tag k="name" v="Plassebekken" />
		<tag k="ssr:stedsnr" v="732110" />
		<tag k="waterway" v="stream" />
	</node>
	<node id="-167164" lat="59.9830944419" lon="10.4158277828">
		<tag k="alt_name" v="Langbrutjernet" />
		<tag k="name" v="Langebrutjern" />
		<tag k="natural" v="water" />
		<tag k="ssr:stedsnr" v="307124" />
	</node>
	<node id="-167163" lat="59.989813891" lon="10.3647722285">
		<tag k="name" v="Rønningsbekken" />
		<tag k="ssr:stedsnr" v="307104" />
		<tag k="waterway" v="stream" />
	</node>
	<node id="-167671" lat="59.9810805555" lon="10.3199944448">
		<tag k="name" v="Nordlandsbekken" />
		<tag k="ssr:stedsnr" v="694244" />
		<tag k="waterway" v="stream" />
	</node>
	<node id="-167661" lat="60.0623777796" lon="10.2770083323">
		<tag k="alt_name" v="Fekjærtangen" />
		<tag k="name" v="Fetjartangen" />
		<tag k="natural" v="cape" />
		<tag k="ssr:stedsnr" v="692641" />
	</node>
	<node id="-167660" lat="60.1162728352" lon="10.2899224209">
		<tag k="name" v="Vestigardsbekken" />
		<tag k="ssr:stedsnr" v="692347" />
		<tag k="waterway" v="stream" />
	</node>
	<node id="-167657" lat="60.0582750034" lon="10.178286116">
		<tag k="name" v="Strandvika" />
		<tag k="natural" v="bay" />
		<tag k="ssr:stedsnr" v="693549" />
	</node>
	<node id="-167650" lat="60.0113083324" lon="10.4146138942">
		<tag k="name" v="Ristjern" />
		<tag k="natural" v="water" />
		<tag k="ssr:stedsnr" v="672885" />
	</node>
	<node id="-167646" lat="60.0457888846" lon="10.2795833309">
		<tag k="name" v="Manaskardbekken" />
		<tag k="ssr:stedsnr" v="672343" />
		<tag k="waterway" v="stream" />
	</node>
	<node id="-167645" lat="60.0485361152" lon="10.3403666634">
		<tag k="alt_name" v="Bønnerudtjernet" />
		<tag k="name" v="Bønnerudtjern" />
		<tag k="natural" v="water" />
		<tag k="ssr:stedsnr" v="672340" />
	</node>
	<node id="-167643" lat="60.0558138847" lon="10.2174500078">
		<tag k="name" v="Store Svartøya" />
		<tag k="place" v="island" />
		<tag k="ssr:stedsnr" v="672320" />
	</node>
	<node id="-167642" lat="60.0574777789" lon="10.2250916676">
		<tag k="name" v="Lille Svartøya" />
		<tag k="place" v="island" />
		<tag k="ssr:stedsnr" v="672319" />
	</node>
	<node id="-167641" lat="60.0594555563" lon="10.2592555591">
		<tag k="name" v="Storøysundet" />
		<tag k="natural" v="strait" />
		<tag k="ssr:stedsnr" v="672316" />
	</node>
	<node id="-167640" lat="60.0790805515" lon="10.304383325">
		<tag k="name" v="Braksøya" />
		<tag k="place" v="island" />
		<tag k="ssr:stedsnr" v="672273" />
	</node>
	<node id="-167289" lat="60.0557749969" lon="10.2478388927">
		<tag k="alt_name" v="Hareøya" />
		<tag k="name" v="Haraøya" />
		<tag k="place" v="island" />
		<tag k="ssr:stedsnr" v="5342" />
	</node>
	<node id="-167240" lat="60.0545944466" lon="10.4096222185">
		<tag k="name" v="Dåstjern" />
		<tag k="natural" v="water" />
		<tag k="ssr:stedsnr" v="430190" />
	</node>
	<node id="-167627" lat="60.1036444422" lon="10.2972138871">
		<tag k="name" v="Evja" />
		<tag k="natural" v="water" />
		<tag k="ssr:stedsnr" v="633722" />
		<tag k="water" v="lake" />
	</node>
	<node id="-167287" lat="60.0184888884" lon="10.2942500044">
		<tag k="name" v="Kroktjern" />
		<tag k="natural" v="water" />
		<tag k="ssr:stedsnr" v="5322" />
	</node>
	<node id="-167621" lat="60.0213222195" lon="10.3241499981">
		<tag k="name" v="Løkketjern" />
		<tag k="natural" v="water" />
		<tag k="ssr:stedsnr" v="633497" />
	</node>
	<node id="-167619" lat="60.0817361076" lon="10.2306111106">
		<tag k="name" v="Skjæret" />
		<tag k="place" v="islet" />
		<tag k="ssr:stedsnr" v="632996" />
	</node>
	<node id="-167199" lat="60.0718249991" lon="10.3087138969">
		<tag k="name" v="Amundøya" />
		<tag k="place" v="island" />
		<tag k="ssr:stedsnr" v="368281" />
	</node>
	<node id="-167606" lat="60.0179972268" lon="10.314166661">
		<tag k="name" v="Dalebekken" />
		<tag k="ssr:stedsnr" v="631446" />
		<tag k="waterway" v="stream" />
	</node>
	<node id="-167605" lat="60.01098611" lon="10.2749194416">
		<tag k="name" v="Heggedalsvannet" />
		<tag k="natural" v="water" />
		<tag k="ssr:stedsnr" v="631444" />
	</node>
	<node id="-167603" lat="60.0259722232" lon="10.37203611">
		<tag k="alt_name" v="Rundtomtjernet" />
		<tag k="name" v="Rundtomtjern" />
		<tag k="natural" v="water" />
		<tag k="old_name" v="Runtom Tj." />
		<tag k="ssr:stedsnr" v="612999" />
	</node>
	<node id="-167602" lat="60.0641027778" lon="10.3538499932">
		<tag k="name" v="Olasputt" />
		<tag k="natural" v="water" />
		<tag k="ssr:stedsnr" v="612233" />
	</node>
	<node id="-167307" lat="59.9969555563" lon="10.2798944513">
		<tag k="name" v="Nesvika" />
		<tag k="natural" v="bay" />
		<tag k="ssr:stedsnr" v="26389" />
	</node>
	<node id="-167600" lat="60.008836111" lon="10.3751194474">
		<tag k="name" v="Midtskogtjerna" />
		<tag k="natural" v="water" />
		<tag k="ssr:stedsnr" v="611899" />
	</node>
	<node id="-167590" lat="60.0722416623" lon="10.3166250003">
		<tag k="alt_name" v="Grisøya" />
		<tag k="name" v="Svinøya" />
		<tag k="place" v="island" />
		<tag k="ssr:stedsnr" v="611263" />
	</node>
	<node id="-167578" lat="60.0590500011" lon="10.1786666664">
		<tag k="name" v="Leinestranda" />
		<tag k="natural" v="beach" />
		<tag k="ssr:stedsnr" v="572542" />
	</node>
	<node id="-167568" lat="60.105733332" lon="10.2015222139">
		<tag k="name" v="Engetangen" />
		<tag k="natural" v="cape" />
		<tag k="ssr:stedsnr" v="571644" />
	</node>
	<node id="-167563" lat="60.0624277804" lon="10.2914611059">
		<tag k="name" v="Pilevika" />
		<tag k="natural" v="bay" />
		<tag k="ssr:stedsnr" v="570628" />
	</node>
	<node id="-167558" lat="60.07736667" lon="10.1972638874">
		<tag k="name" v="Røyse" />
		<tag k="natural" v="cape" />
		<tag k="ssr:stedsnr" v="566177" />
	</node>
	<node id="-167556" lat="60.0419972236" lon="10.4351916633">
		<tag k="name" v="Trehørningen" />
		<tag k="natural" v="water" />
		<tag k="ssr:stedsnr" v="551969" />
		<tag k="water" v="lake" />
	</node>
	<node id="-167555" lat="60.0220417962" lon="10.4281602384">
		<tag k="name" v="Steffenstjernet" />
		<tag k="natural" v="water" />
		<tag k="ssr:stedsnr" v="551904" />
	</node>
	<node id="-167554" lat="60.0093555528" lon="10.3420583339">
		<tag k="name" v="Auretjernsbekken" />
		<tag k="ssr:stedsnr" v="551891" />
		<tag k="waterway" v="stream" />
	</node>
	<node id="-167550" lat="59.9810027803" lon="10.3366555566">
		<tag k="name" v="Damtjern" />
		<tag k="natural" v="water" />
		<tag k="ssr:stedsnr" v="550442" />
	</node>
	<node id="-167540" lat="60.0486111097" lon="10.1834333351">
		<tag k="name" v="Auredjupet" />
		<tag k="natural" v="shoal" />
		<tag k="place" v="locality" />
		<tag k="ssr:stedsnr" v="512756" />
	</node>
	<node id="-167538" lat="60.1196805544" lon="10.3102472189">
		<tag k="name" v="Myrabekken" />
		<tag k="ssr:stedsnr" v="512723" />
		<tag k="waterway" v="stream" />
	</node>
	<node id="-167536" lat="60.1043249982" lon="10.3027249932">
		<tag k="name" v="Gruvika" />
		<tag k="natural" v="bay" />
		<tag k="ssr:stedsnr" v="512716" />
	</node>
	<node id="-167532" lat="60.0378083308" lon="10.4467805533">
		<tag k="name" v="Kampesetervika" />
		<tag k="natural" v="bay" />
		<tag k="ssr:stedsnr" v="512027" />
	</node>
	<node id="-167521" lat="60.0429204006" lon="10.3114272277">
		<tag k="name" v="Abboråsbekken" />
		<tag k="ssr:stedsnr" v="509529" />
		<tag k="waterway" v="stream" />
	</node>
	<node id="-167519" lat="60.0414527772" lon="10.3593305643">
		<tag k="alt_name" v="Stormyrtjernet" />
		<tag k="name" v="Stormyrtjern" />
		<tag k="natural" v="water" />
		<tag k="old_name" v="Stormyr Tj." />
		<tag k="ssr:stedsnr" v="490970" />
	</node>
	<node id="-167518" lat="60.0983305595" lon="10.3299611195">
		<tag k="name" v="Avskjæret" />
		<tag k="place" v="islet" />
		<tag k="ssr:stedsnr" v="490734" />
	</node>
	<node id="-167517" lat="60.0998138865" lon="10.3153111103">
		<tag k="name" v="Maurøya" />
		<tag k="place" v="island" />
		<tag k="ssr:stedsnr" v="490731" />
	</node>
	<node id="-167511" lat="60.0923388859" lon="10.3139333244">
		<tag k="name" v="Tjuvholmen" />
		<tag k="place" v="island" />
		<tag k="ssr:stedsnr" v="490274" />
	</node>
	<node id="-167201" lat="60.0681111119" lon="10.2228805598">
		<tag k="name" v="Stamnes" />
		<tag k="natural" v="cape" />
		<tag k="ssr:stedsnr" v="368294" />
	</node>
	<node id="-167489" lat="60.0366722221" lon="10.3368111083">
		<tag k="name" v="Svarttjern" />
		<tag k="natural" v="water" />
		<tag k="ssr:stedsnr" v="449440" />
	</node>
	<node id="-167488" lat="60.0182666634" lon="10.3743944356">
		<tag k="alt_name" v="Sakromstjernet" />
		<tag k="name" v="Sakromstjern" />
		<tag k="natural" v="water" />
		<tag k="ssr:stedsnr" v="430974" />
	</node>
	<node id="-167481" lat="60.0373388906" lon="10.2408083293">
		<tag k="name" v="Geitøya" />
		<tag k="place" v="island" />
		<tag k="ssr:stedsnr" v="430316" />
	</node>
	<node id="-167478" lat="60.0675027769" lon="10.3035499958">
		<tag k="name" v="Pålsøya" />
		<tag k="place" v="island" />
		<tag k="ssr:stedsnr" v="429312" />
	</node>
	<node id="-167477" lat="60.08185278" lon="10.304583338">
		<tag k="alt_name" v="Pipeøya" />
		<tag k="name" v="Pipøya" />
		<tag k="place" v="island" />
		<tag k="ssr:stedsnr" v="429281" />
	</node>
	<node id="-167473" lat="60.0775388922" lon="10.1935222308">
		<tag k="name" v="Røysetangen" />
		<tag k="natural" v="cape" />
		<tag k="ssr:stedsnr" v="429237" />
	</node>
	<node id="-167469" lat="60.0560638874" lon="10.2623888912">
		<tag k="name" v="Heslebergvika" />
		<tag k="natural" v="bay" />
		<tag k="ssr:stedsnr" v="267631" />
	</node>
	<node id="-167465" lat="60.0353555595" lon="10.3565138916">
		<tag k="name" v="Attogfram" />
		<tag k="natural" v="water" />
		<tag k="ssr:stedsnr" v="248956" />
	</node>
	<node id="-167463" lat="60.0091138854" lon="10.3142166651">
		<tag k="name" v="Rokketjern" />
		<tag k="natural" v="water" />
		<tag k="ssr:stedsnr" v="248416" />
	</node>
	<node id="-167462" lat="60.0034749961" lon="10.3171055471">
		<tag k="name" v="Ormetjern" />
		<tag k="natural" v="water" />
		<tag k="ssr:stedsnr" v="248409" />
	</node>
	<node id="-167458" lat="60.0255499959" lon="10.2508333284">
		<tag k="name" v="Utøya" />
		<tag k="place" v="island" />
		<tag k="ssr:stedsnr" v="247315" />
	</node>
	<node id="-167454" lat="60.1199305583" lon="10.3338222204">
		<tag k="name" v="Steinsfjorden" />
		<tag k="natural" v="water" />
		<tag k="ssr:stedsnr" v="247269" />
	</node>
	<node id="-167452" lat="60.0738333363" lon="10.3137361025">
		<tag k="name" v="Tvehjulingen" />
		<tag k="place" v="island" />
		<tag k="ssr:stedsnr" v="247243" />
	</node>
	<node id="-167450" lat="59.9905861151" lon="10.4065416679">
		<tag k="name" v="Svarttjern" />
		<tag k="natural" v="water" />
		<tag k="ssr:stedsnr" v="247077" />
	</node>
	<node id="-167445" lat="60.0385166706" lon="10.3813944516">
		<tag k="name" v="Dælihøggbekken" />
		<tag k="ssr:stedsnr" v="269020" />
		<tag k="waterway" v="stream" />
	</node>
	<node id="-167444" lat="60.0462888901" lon="10.3952388804">
		<tag k="name" v="Gampedalsbekken" />
		<tag k="ssr:stedsnr" v="269019" />
		<tag k="waterway" v="stream" />
	</node>
	<node id="-167740" lat="60.0632166629" lon="10.2751472206">
		<tag k="name" v="Furutangen" />
		<tag k="natural" v="cape" />
		<tag k="ssr:stedsnr" v="813644" />
	</node>
	<node id="-167435" lat="59.9746222188" lon="10.336691663">
		<tag k="name" v="Damtjernbekken" />
		<tag k="ssr:stedsnr" v="209291" />
		<tag k="waterway" v="stream" />
	</node>
	<node id="-167432" lat="60.1198625814" lon="10.3200185775">
		<tag k="name" v="Framdalsvika" />
		<tag k="natural" v="bay" />
		<tag k="ssr:stedsnr" v="208699" />
	</node>
	<node id="-167430" lat="60.0974166708" lon="10.1867888909">
		<tag k="name" v="Tjernet" />
		<tag k="natural" v="water" />
		<tag k="ssr:stedsnr" v="208618" />
	</node>
	<node id="-167428" lat="60.0563777809" lon="10.2574138831">
		<tag k="name" v="Sjølyst" />
		<tag k="natural" v="cape" />
		<tag k="ssr:stedsnr" v="208574" />
	</node>
	<node id="-167426" lat="60.0533306152" lon="10.1796674281">
		<tag k="name" v="Bakkestøvika" />
		<tag k="natural" v="bay" />
		<tag k="ssr:stedsnr" v="208532" />
	</node>
</osm>
