<?xml version="1.0" encoding="UTF-8"?>
<osm generator="osmapis" version="0.6">
	<node id="-167936" lat="60.0825194447" lon="10.251169436">
		<tag k="name" v="Faltinrud" />
		<tag k="place" v="farm" />
		<tag k="ssr:stedsnr" v="936964" />
	</node>
	<node id="-167934" lat="60.0798611129" lon="10.1983555598">
		<tag k="leisure" v="pitch" />
		<tag k="name" v="Vestjordsbakken" />
		<tag k="ssr:stedsnr" v="936849" />
	</node>
	<node id="-167421" lat="60.0878222183" lon="10.2316722278">
		<tag k="name" v="Svensrud" />
		<tag k="place" v="quarter" />
		<tag k="ssr:stedsnr" v="65278" />
	</node>
	<node id="-167932" lat="60.0955749975" lon="10.2203194524">
		<tag k="name" v="Sauløkka" />
		<tag k="place" v="farm" />
		<tag k="ssr:stedsnr" v="936614" />
	</node>
	<node id="-167418" lat="60.074977776" lon="10.2802750056">
		<tag k="name" v="Nordre Gjesval" />
		<tag k="place" v="farm" />
		<tag k="ssr:stedsnr" v="28651" />
	</node>
	<node id="-167417" lat="60.0845134968" lon="10.3462230384">
		<tag k="name" v="Bråtan" />
		<tag k="place" v="farm" />
		<tag k="ssr:stedsnr" v="26936" />
	</node>
	<node id="-167928" lat="60.1164277792" lon="10.3010250062">
		<tag k="name" v="Hårum" />
		<tag k="place" v="farm" />
		<tag k="ssr:stedsnr" v="935464" />
	</node>
	<node id="-167415" lat="60.0998741428" lon="10.2057686632">
		<tag k="name" v="Hafnor" />
		<tag k="place" v="farm" />
		<tag k="ssr:stedsnr" v="26681" />
	</node>
	<node id="-167926" lat="60.0152222207" lon="10.3901333298">
		<tag k="alt_name" v="Dammersplass" />
		<tag k="name" v="Dammersplassen" />
		<tag k="place" v="isolated_dwelling" />
		<tag k="ssr:stedsnr" v="916978" />
	</node>
	<node id="-167923" lat="60.0026583356" lon="10.2681277782">
		<tag k="alt_name" v="Nes Store" />
		<tag k="fixme" v="multiple name tags, choose one and add the other to alt_name" />
		<tag k="name" v="Øvre Nes;Store Nes" />
		<tag k="place" v="farm" />
		<tag k="ssr:stedsnr" v="916452" />
	</node>
	<node id="-167410" lat="60.0615390166" lon="10.2106071162">
		<tag k="name" v="Engen" />
		<tag k="place" v="farm" />
		<tag k="ssr:stedsnr" v="26560" />
	</node>
	<node id="-167921" lat="60.0542055546" lon="10.3778027828">
		<tag k="name" v="Fjellstadhytta" />
		<tag k="place" v="isolated_dwelling" />
		<tag k="ssr:stedsnr" v="916211" />
	</node>
	<node id="-167408" lat="60.0628361071" lon="10.1830222175">
		<tag k="name" v="Søndre Leine" />
		<tag k="place" v="farm" />
		<tag k="ssr:stedsnr" v="26522" />
	</node>
	<node id="-167917" lat="60.1087999988" lon="10.2958249994">
		<tag k="name" v="Hungerholt" />
		<tag k="place" v="farm" />
		<tag k="ssr:stedsnr" v="915732" />
	</node>
	<node id="-167915" lat="60.0128666702" lon="10.2658944374">
		<tag k="name" v="Berget" />
		<tag k="place" v="farm" />
		<tag k="ssr:stedsnr" v="915391" />
	</node>
	<node id="-167401" lat="60.0757583362" lon="10.1800638942">
		<tag k="name" v="Stubberud" />
		<tag k="place" v="farm" />
		<tag k="ssr:stedsnr" v="25746" />
	</node>
	<node id="-167912" lat="60.0347583347" lon="10.3391666599">
		<tag k="name" v="Bureheim" />
		<tag k="place" v="isolated_dwelling" />
		<tag k="ssr:stedsnr" v="915307" />
	</node>
	<node id="-167420" lat="60.0609499966" lon="10.1975916745">
		<tag k="fixme" v="consider place=hamlet" />
		<tag k="name" v="Bønsnes" />
		<tag k="place" v="farm" />
		<tag k="ssr:stedsnr" v="65252" />
	</node>
	<node id="-167909" lat="60.0706361073" lon="10.2928027797">
		<tag k="alt_name" v="Sundet" />
		<tag k="name" v="Kroksundøgarden" />
		<tag k="place" v="farm" />
		<tag k="ssr:stedsnr" v="915245" />
	</node>
	<node id="-167908" lat="60.0725500006" lon="10.1726999957">
		<tag k="alt_name" v="Rud vestre;Rud" />
		<tag k="fixme" v="consider place=hamlet" />
		<tag k="name" v="Vestre Rud" />
		<tag k="place" v="farm" />
		<tag k="ssr:stedsnr" v="915234" />
	</node>
	<node id="-167907" lat="59.9877027788" lon="10.397330555">
		<tag k="historic" v="shieling" />
		<tag k="name" v="Steinsvollen" />
		<tag k="place" v="locality" />
		<tag k="ssr:stedsnr" v="914110" />
	</node>
	<node id="-167906" lat="59.9691055563" lon="10.347927782">
		<tag k="name" v="Høymyr" />
		<tag k="place" v="farm" />
		<tag k="ssr:stedsnr" v="914030" />
	</node>
	<node id="-167905" lat="60.0910111073" lon="10.2194138944">
		<tag k="amenity" v="school" />
		<tag k="name" v="Røyse skole" />
		<tag k="ssr:stedsnr" v="878830" />
	</node>
	<node id="-167903" lat="60.0883770015" lon="10.2662437667">
		<tag k="name" v="Åsstua" />
		<tag k="place" v="farm" />
		<tag k="ssr:stedsnr" v="877535" />
	</node>
	<node id="-167390" lat="60.0568944403" lon="10.2982166631">
		<tag k="name" v="Tyriheim" />
		<tag k="old_name" v="Tyriheimen" />
		<tag k="place" v="isolated_dwelling" />
		<tag k="ssr:stedsnr" v="5348" />
	</node>
	<node id="-167388" lat="60.0664805552" lon="10.2972388947">
		<tag k="name" v="Kroksund" />
		<tag k="place" v="farm" />
		<tag k="ssr:stedsnr" v="5328" />
	</node>
	<node id="-167247" lat="60.0906888849" lon="10.2641361175">
		<tag k="name" v="Storbråtan" />
		<tag k="place" v="farm" />
		<tag k="ssr:stedsnr" v="269712" />
	</node>
	<node id="-167384" lat="60.1176913302" lon="10.2831382773">
		<tag k="fixme" v="consider place=hamlet" />
		<tag k="name" v="Sonerud" />
		<tag k="place" v="farm" />
		<tag k="ssr:stedsnr" v="4705" />
	</node>
	<node id="-167383" lat="59.9965750021" lon="10.2848249913">
		<tag k="name" v="Oreløkka" />
		<tag k="place" v="isolated_dwelling" />
		<tag k="ssr:stedsnr" v="4454" />
	</node>
	<node id="-167381" lat="60.0848035572" lon="10.1899680291">
		<tag k="fixme" v="consider place=hamlet" />
		<tag k="name" v="Dæli" />
		<tag k="place" v="farm" />
		<tag k="ssr:stedsnr" v="4292" />
	</node>
	<node id="-167892" lat="60.0788847744" lon="10.2822674261">
		<tag k="amenity" v="school" />
		<tag k="name" v="Vik skole" />
		<tag k="ssr:stedsnr" v="875911" />
	</node>
	<node id="-167891" lat="60.0815365743" lon="10.2647193703">
		<tag k="name" v="Borgeng" />
		<tag k="place" v="farm" />
		<tag k="ssr:stedsnr" v="875890" />
	</node>
	<node id="-167890" lat="60.0807750003" lon="10.1979444394">
		<tag k="amenity" v="nursing_home" />
		<tag k="name" v="Røysetoppen" />
		<tag k="ssr:stedsnr" v="875849" />
	</node>
	<node id="-167889" lat="60.1106416669" lon="10.2075583345">
		<tag k="name" v="Tjernet" />
		<tag k="place" v="farm" />
		<tag k="ssr:stedsnr" v="875661" />
	</node>
	<node id="-167376" lat="60.0744301104" lon="10.3307695539">
		<tag k="alt_name" v="Lårvika" />
		<tag k="fixme" v="consider place=hamlet" />
		<tag k="name" v="Lorvika" />
		<tag k="place" v="farm" />
		<tag k="ssr:stedsnr" v="4266" />
	</node>
	<node id="-167416" lat="60.0683166706" lon="10.166824992">
		<tag k="name" v="Roaløkka" />
		<tag k="place" v="farm" />
		<tag k="ssr:stedsnr" v="26771" />
	</node>
	<node id="-167374" lat="59.9852301851" lon="10.4109864353">
		<tag k="alt_name" v="Langbru" />
		<tag k="fixme" v="consider place=hamlet" />
		<tag k="name" v="Langebru" />
		<tag k="place" v="farm" />
		<tag k="ssr:stedsnr" v="4113" />
	</node>
	<node id="-167884" lat="60.0487583333" lon="10.2627250036">
		<tag k="name" v="Blomsplassen" />
		<tag k="place" v="farm" />
		<tag k="ssr:stedsnr" v="874652" />
	</node>
	<node id="-167881" lat="60.097891668" lon="10.2207666623">
		<tag k="name" v="Østvoll" />
		<tag k="place" v="farm" />
		<tag k="ssr:stedsnr" v="854713" />
	</node>
	<node id="-167880" lat="60.0999083374" lon="10.2763416627">
		<tag k="name" v="Selte" />
		<tag k="old_name" v="Sælte" />
		<tag k="place" v="farm" />
		<tag k="ssr:stedsnr" v="854709" />
	</node>
	<node id="-167877" lat="60.0566719683" lon="10.2901988562">
		<tag k="name" v="Rørvika" />
		<tag k="place" v="farm" />
		<tag k="ssr:stedsnr" v="854329" />
	</node>
	<node id="-167876" lat="60.0801249982" lon="10.2484722237">
		<tag k="name" v="Pålerud" />
		<tag k="place" v="isolated_dwelling" />
		<tag k="ssr:stedsnr" v="854284" />
	</node>
	<node id="-167875" lat="60.0770611092" lon="10.2790777847">
		<tag k="name" v="Vik" />
		<tag k="place" v="village" />
		<tag k="ssr:stedsnr" v="854282" />
	</node>
	<node id="-167874" lat="60.084011115" lon="10.2757500033">
		<tag k="fixme" v="multiple name tags, choose one and add the other to alt_name" />
		<tag k="name" v="Halden;Viksbråtan" />
		<tag k="place" v="farm" />
		<tag k="ssr:stedsnr" v="854280" />
	</node>
	<node id="-167873" lat="60.0926750023" lon="10.2685638881">
		<tag k="fixme" v="multiple name tags, choose one and add the other to alt_name" />
		<tag k="name" v="Haugen;Sørumshaugen" />
		<tag k="place" v="farm" />
		<tag k="ssr:stedsnr" v="854265" />
	</node>
	<node id="-167872" lat="60.090436886" lon="10.2212185135">
		<tag k="fixme" v="consider place=hamlet" />
		<tag k="name" v="Mo" />
		<tag k="place" v="farm" />
		<tag k="ssr:stedsnr" v="854248" />
	</node>
	<node id="-167871" lat="60.0650277762" lon="10.1869805496">
		<tag k="alt_name" v="Nordre Leine" />
		<tag k="name" v="Leine" />
		<tag k="place" v="farm" />
		<tag k="ssr:stedsnr" v="854245" />
	</node>
	<node id="-167358" lat="60.0849456061" lon="10.1767155783">
		<tag k="fixme" v="consider place=hamlet" />
		<tag k="name" v="Gomnes" />
		<tag k="place" v="farm" />
		<tag k="ssr:stedsnr" v="989016" />
	</node>
	<node id="-167357" lat="60.0751614294" lon="10.1889350069">
		<tag k="fixme" v="consider place=hamlet" />
		<tag k="name" v="Fjell" />
		<tag k="place" v="farm" />
		<tag k="ssr:stedsnr" v="988954" />
	</node>
	<node id="-167356" lat="60.0657929311" lon="10.1875354977">
		<tag k="name" v="Leine" />
		<tag k="place" v="hamlet" />
		<tag k="ssr:stedsnr" v="988953" />
	</node>
	<node id="-167355" lat="60.0735894531" lon="10.1999542855">
		<tag k="name" v="Hundstad" />
		<tag k="place" v="hamlet" />
		<tag k="ssr:stedsnr" v="988952" />
	</node>
	<node id="-167866" lat="60.0406055578" lon="10.4508583423">
		<tag k="historic" v="shieling" />
		<tag k="name" v="Kampesetra" />
		<tag k="place" v="locality" />
		<tag k="ssr:stedsnr" v="843943" />
	</node>
	<node id="-167865" lat="60.0327833311" lon="10.3755694521">
		<tag k="alt_name" v="Øskjevallsetrene" />
		<tag k="historic" v="shieling" />
		<tag k="name" v="Øskjevallsetra" />
		<tag k="place" v="locality" />
		<tag k="ssr:stedsnr" v="842956" />
	</node>
	<node id="-167864" lat="60.0325821378" lon="10.4126284129">
		<tag k="historic" v="shieling" />
		<tag k="name" v="Myrsetra" />
		<tag k="place" v="locality" />
		<tag k="ssr:stedsnr" v="842954" />
	</node>
	<node id="-167351" lat="60.0727109882" lon="10.297040873">
		<tag k="fixme" v="consider place=hamlet" />
		<tag k="name" v="Sundet" />
		<tag k="place" v="farm" />
		<tag k="ssr:stedsnr" v="988948" />
	</node>
	<node id="-167350" lat="60.0742772031" lon="10.2795254044">
		<tag k="name" v="Gjesval" />
		<tag k="place" v="hamlet" />
		<tag k="ssr:stedsnr" v="988947" />
	</node>
	<node id="-167861" lat="60.0845145858" lon="10.1772448207">
		<tag k="alt_name" v="Gomnes" />
		<tag k="name" v="Søndre Gomnes" />
		<tag k="place" v="farm" />
		<tag k="ssr:stedsnr" v="829303" />
	</node>
	<node id="-167860" lat="60.0775001979" lon="10.2768600938">
		<tag k="alt_name" v="Vik Søndre" />
		<tag k="name" v="Søndre Vik" />
		<tag k="place" v="farm" />
		<tag k="ssr:stedsnr" v="817610" />
	</node>
	<node id="-167858" lat="60.0776944404" lon="10.2683722156">
		<tag k="name" v="Løkenmoen" />
		<tag k="place" v="hamlet" />
		<tag k="ssr:stedsnr" v="815939" />
	</node>
	<node id="-167857" lat="60.0863161553" lon="10.283280447">
		<tag k="amenity" v="school" />
		<tag k="name" v="Hole ungdomsskole" />
		<tag k="ssr:stedsnr" v="815931" />
	</node>
	<node id="-167855" lat="60.0955361114" lon="10.2664416731">
		<tag k="name" v="Sørmoen" />
		<tag k="place" v="farm" />
		<tag k="ssr:stedsnr" v="815667" />
	</node>
	<node id="-167850" lat="60.0933527818" lon="10.1960555553">
		<tag k="name" v="Frøyshov" />
		<tag k="place" v="farm" />
		<tag k="ssr:stedsnr" v="815576" />
	</node>
	<node id="-167848" lat="60.0639527815" lon="10.1974222199">
		<tag k="name" v="Rønningen" />
		<tag k="place" v="farm" />
		<tag k="ssr:stedsnr" v="815503" />
	</node>
	<node id="-167846" lat="60.081227777" lon="10.2076027727">
		<tag k="name" v="Nedre Fjelstad" />
		<tag k="place" v="farm" />
		<tag k="ssr:stedsnr" v="814979" />
	</node>
	<node id="-167333" lat="60.0873022367" lon="10.2678107929">
		<tag k="name" v="Halvorsbråtan" />
		<tag k="place" v="farm" />
		<tag k="ssr:stedsnr" v="391660" />
	</node>
	<node id="-167844" lat="60.0859361087" lon="10.2378249982">
		<tag k="name" v="Sjellom" />
		<tag k="place" v="farm" />
		<tag k="ssr:stedsnr" v="814968" />
	</node>
	<node id="-167843" lat="60.1049249991" lon="10.2154694365">
		<tag k="name" v="Bråtan" />
		<tag k="place" v="farm" />
		<tag k="ssr:stedsnr" v="814673" />
	</node>
	<node id="-167842" lat="60.0107916646" lon="10.2659055515">
		<tag k="name" v="Nes" />
		<tag k="place" v="farm" />
		<tag k="ssr:stedsnr" v="814493" />
	</node>
	<node id="-167841" lat="60.1220941536" lon="10.2813936339">
		<tag k="name" v="Gile" />
		<tag k="place" v="farm" />
		<tag k="ssr:stedsnr" v="814417" />
	</node>
	<node id="-167838" lat="60.0547694473" lon="10.2590694467">
		<tag k="name" v="Gulsplassen" />
		<tag k="place" v="farm" />
		<tag k="ssr:stedsnr" v="813630" />
	</node>
	<node id="-167836" lat="60.0637611074" lon="10.3075500056">
		<tag k="fixme" v="consider place=hamlet" />
		<tag k="name" v="Sundvollen" />
		<tag k="place" v="farm" />
		<tag k="ssr:stedsnr" v="813618" />
	</node>
	<node id="-167834" lat="60.037172219" lon="10.3474333267">
		<tag k="name" v="Oterbu" />
		<tag k="place" v="isolated_dwelling" />
		<tag k="ssr:stedsnr" v="794961" />
	</node>
	<node id="-167321" lat="60.0836972251" lon="10.2491055482">
		<tag k="name" v="Hunangen" />
		<tag k="place" v="farm" />
		<tag k="ssr:stedsnr" v="389969" />
	</node>
	<node id="-167541" lat="60.1147083298" lon="10.2352861184">
		<tag k="name" v="Helgelandsmoen" />
		<tag k="old_name" v="Snadden" />
		<tag k="place" v="quarter" />
		<tag k="ssr:stedsnr" v="222326" />
	</node>
	<node id="-167831" lat="60.1091106962" lon="10.270189184">
		<tag k="fixme" v="consider place=hamlet" />
		<tag k="name" v="Mo" />
		<tag k="place" v="farm" />
		<tag k="ssr:stedsnr" v="793765" />
	</node>
	<node id="-167318" lat="60.0854027739" lon="10.1831027717">
		<tag k="name" v="Tuløkka" />
		<tag k="place" v="farm" />
		<tag k="ssr:stedsnr" v="389737" />
	</node>
	<node id="-167829" lat="60.0288972249" lon="10.2858833296">
		<tag k="historic" v="shieling" />
		<tag k="name" v="By-Flaksetra" />
		<tag k="place" v="locality" />
		<tag k="ssr:stedsnr" v="793346" />
	</node>
	<node id="-167828" lat="60.0324277796" lon="10.2625027778">
		<tag k="alt_name" v="Sørbråtan" />
		<tag k="name" v="Sørbråten" />
		<tag k="place" v="farm" />
		<tag k="ssr:stedsnr" v="793342" />
	</node>
	<node id="-167826" lat="60.0879250044" lon="10.2815416691">
		<tag k="fixme" v="consider place=hamlet" />
		<tag k="name" v="Koksrud" />
		<tag k="place" v="farm" />
		<tag k="ssr:stedsnr" v="793305" />
	</node>
	<node id="-167312" lat="60.0499805548" lon="10.285402771">
		<tag k="name" v="Klokkerbråtan" />
		<tag k="place" v="isolated_dwelling" />
		<tag k="ssr:stedsnr" v="369344" />
	</node>
	<node id="-167311" lat="60.0436499996" lon="10.2684611135">
		<tag k="alt_name" v="Bråtan" />
		<tag k="name" v="Bråten" />
		<tag k="place" v="isolated_dwelling" />
		<tag k="ssr:stedsnr" v="369345" />
	</node>
	<node id="-167822" lat="60.0773722245" lon="10.190330555">
		<tag k="name" v="Fjell" />
		<tag k="place" v="farm" />
		<tag k="ssr:stedsnr" v="793262" />
	</node>
	<node id="-167821" lat="59.9866694404" lon="10.3558305524">
		<tag k="fixme" v="multiple name tags, choose one and add the other to alt_name" />
		<tag k="name" v="Rønningen;Rønningsetra" />
		<tag k="place" v="locality" />
		<tag k="ssr:stedsnr" v="793108" />
	</node>
	<node id="-167306" lat="60.0506027818" lon="10.420783328">
		<tag k="name" v="Monsebråtan" />
		<tag k="place" v="farm" />
		<tag k="ssr:stedsnr" v="369186" />
	</node>
	<node id="-167319" lat="60.0768972192" lon="10.2137083362">
		<tag k="amenity" v="nursing_home" />
		<tag k="name" v="Pleiehjem" />
		<tag k="ssr:stedsnr" v="389759" />
	</node>
	<node id="-167304" lat="60.0822500019" lon="10.2064249958">
		<tag k="name" v="Fjelstad" />
		<tag k="place" v="farm" />
		<tag k="ssr:stedsnr" v="368313" />
	</node>
	<node id="-167303" lat="60.0891527744" lon="10.2630750044">
		<tag k="fixme" v="multiple name tags, choose one and add the other to alt_name" />
		<tag k="name" v="Bråtan;Storbråtan" />
		<tag k="place" v="farm" />
		<tag k="ssr:stedsnr" v="368310" />
	</node>
	<node id="-167302" lat="60.0643916663" lon="10.2545861037">
		<tag k="alt_name" v="Rytteraker" />
		<tag k="name" v="Rytteråker" />
		<tag k="place" v="farm" />
		<tag k="ssr:stedsnr" v="368299" />
	</node>
	<node id="-167298" lat="60.0423057198" lon="10.3430144293">
		<tag k="historic" v="shieling" />
		<tag k="name" v="Torgesetra" />
		<tag k="place" v="locality" />
		<tag k="ssr:stedsnr" v="356970" />
	</node>
	<node id="-167295" lat="60.0214833288" lon="10.2613833416">
		<tag k="name" v="Lia" />
		<tag k="place" v="farm" />
		<tag k="ssr:stedsnr" v="126338" />
	</node>
	<node id="-167294" lat="60.0872492147" lon="10.2624013543">
		<tag k="name" v="Jenserud" />
		<tag k="place" v="farm" />
		<tag k="ssr:stedsnr" v="331640" />
	</node>
	<node id="-167293" lat="60.0815829878" lon="10.280275023">
		<tag k="fixme" v="consider place=hamlet" />
		<tag k="name" v="Vik" />
		<tag k="place" v="farm" />
		<tag k="ssr:stedsnr" v="331628" />
	</node>
	<node id="-167804" lat="60.0862444466" lon="10.2195833366">
		<tag k="name" v="Smiubakken" />
		<tag k="place" v="farm" />
		<tag k="ssr:stedsnr" v="753981" />
	</node>
	<node id="-167802" lat="60.0687777792" lon="10.1759750043">
		<tag k="name" v="Gata" />
		<tag k="place" v="farm" />
		<tag k="ssr:stedsnr" v="753847" />
	</node>
	<node id="-167801" lat="60.0847333314" lon="10.1712722269">
		<tag k="name" v="Olastua" />
		<tag k="place" v="isolated_dwelling" />
		<tag k="ssr:stedsnr" v="753828" />
	</node>
	<node id="-167800" lat="60.0765277767" lon="10.1683916627">
		<tag k="name" v="Plassen" />
		<tag k="place" v="farm" />
		<tag k="ssr:stedsnr" v="753778" />
	</node>
	<node id="-167799" lat="60.0778166706" lon="10.2463138807">
		<tag k="name" v="Rolighet" />
		<tag k="place" v="isolated_dwelling" />
		<tag k="ssr:stedsnr" v="753750" />
	</node>
	<node id="-167798" lat="60.0747277755" lon="10.1977805541">
		<tag k="name" v="Hundstad lille" />
		<tag k="place" v="farm" />
		<tag k="ssr:stedsnr" v="753710" />
	</node>
	<node id="-167797" lat="60.0867388929" lon="10.1786055564">
		<tag k="name" v="Tyribakken" />
		<tag k="place" v="farm" />
		<tag k="ssr:stedsnr" v="753708" />
	</node>
	<node id="-167796" lat="60.0958805518" lon="10.2138805502">
		<tag k="name" v="Kirkevoll" />
		<tag k="place" v="farm" />
		<tag k="ssr:stedsnr" v="753639" />
	</node>
	<node id="-167793" lat="60.0197583294" lon="10.4045499961">
		<tag k="name" v="Soterud" />
		<tag k="place" v="isolated_dwelling" />
		<tag k="ssr:stedsnr" v="734984" />
	</node>
	<node id="-167790" lat="60.1041916664" lon="10.2015000081">
		<tag k="fixme" v="consider place=hamlet" />
		<tag k="name" v="Domholt" />
		<tag k="place" v="farm" />
		<tag k="ssr:stedsnr" v="733703" />
	</node>
	<node id="-167789" lat="60.1048170199" lon="10.268009466">
		<tag k="fixme" v="consider place=hamlet" />
		<tag k="name" v="Sørum" />
		<tag k="place" v="farm" />
		<tag k="ssr:stedsnr" v="733702" />
	</node>
	<node id="-167788" lat="60.0526025559" lon="10.280327381">
		<tag k="alt_name" v="Elgstangen" />
		<tag k="fixme" v="consider place=hamlet" />
		<tag k="name" v="Elstangen" />
		<tag k="place" v="farm" />
		<tag k="ssr:stedsnr" v="733336" />
	</node>
	<node id="-167314" lat="60.004991671" lon="10.3969277774">
		<tag k="historic" v="shieling" />
		<tag k="name" v="Øyersetra" />
		<tag k="place" v="locality" />
		<tag k="ssr:stedsnr" v="369876" />
	</node>
	<node id="-167786" lat="60.0202472262" lon="10.3281083331">
		<tag k="historic" v="shieling" />
		<tag k="name" v="Sørsetra" />
		<tag k="place" v="locality" />
		<tag k="ssr:stedsnr" v="733317" />
	</node>
	<node id="-167911" lat="60.095055552" lon="10.2637805612">
		<tag k="name" v="Bråtan" />
		<tag k="place" v="farm" />
		<tag k="ssr:stedsnr" v="915280" />
	</node>
	<node id="-167484" lat="60.0004694447" lon="10.3811388896">
		<tag k="name" v="Bjerkesetra" />
		<tag k="place" v="locality" />
		<tag k="ssr:stedsnr" v="147155" />
	</node>
	<node id="-167783" lat="60.0241749991" lon="10.2891555612">
		<tag k="name" v="Hundstadhytta" />
		<tag k="place" v="isolated_dwelling" />
		<tag k="ssr:stedsnr" v="733311" />
	</node>
	<node id="-167782" lat="60.080449996" lon="10.2683638813">
		<tag k="fixme" v="consider place=hamlet" />
		<tag k="name" v="Bili" />
		<tag k="place" v="farm" />
		<tag k="ssr:stedsnr" v="733294" />
	</node>
	<node id="-167781" lat="60.0889250027" lon="10.2879472161">
		<tag k="name" v="Steinsåsen" />
		<tag k="place" v="quarter" />
		<tag k="ssr:stedsnr" v="733276" />
	</node>
	<node id="-167268" lat="60.0801922813" lon="10.2185013484">
		<tag k="alt_name" v="Ulleren" />
		<tag k="fixme" v="consider place=hamlet" />
		<tag k="name" v="Ullern" />
		<tag k="place" v="farm" />
		<tag k="ssr:stedsnr" v="308274" />
	</node>
	<node id="-167267" lat="59.9987893766" lon="10.2801197405">
		<tag k="name" v="Nedre Nes" />
		<tag k="place" v="farm" />
		<tag k="ssr:stedsnr" v="307479" />
	</node>
	<node id="-167266" lat="60.0638000003" lon="10.1733250017">
		<tag k="alt_name" v="Hodt" />
		<tag k="name" v="Hott" />
		<tag k="place" v="farm" />
		<tag k="ssr:stedsnr" v="308251" />
	</node>
	<node id="-167776" lat="60.0735218954" lon="10.2614899128">
		<tag k="name" v="Borgen" />
		<tag k="place" v="farm" />
		<tag k="ssr:stedsnr" v="696623" />
	</node>
	<node id="-167775" lat="60.0872962648" lon="10.2635431855">
		<tag k="name" v="Jomfruland" />
		<tag k="place" v="farm" />
		<tag k="ssr:stedsnr" v="695654" />
	</node>
	<node id="-167316" lat="60.1195782288" lon="10.3056962992">
		<tag k="name" v="Fossum" />
		<tag k="place" v="isolated_dwelling" />
		<tag k="ssr:stedsnr" v="389488" />
	</node>
	<node id="-167397" lat="59.9612555579" lon="10.3390305488">
		<tag k="name" v="Skaustua" />
		<tag k="place" v="isolated_dwelling" />
		<tag k="ssr:stedsnr" v="22575" />
	</node>
	<node id="-167768" lat="60.0751972184" lon="10.1877611141">
		<tag k="name" v="Fjell" />
		<tag k="place" v="farm" />
		<tag k="ssr:stedsnr" v="693763" />
	</node>
	<node id="-167767" lat="60.0806027773" lon="10.1685222135">
		<tag k="name" v="Hassellykkja" />
		<tag k="place" v="farm" />
		<tag k="ssr:stedsnr" v="693762" />
	</node>
	<node id="-167766" lat="60.0821361074" lon="10.1919944419">
		<tag k="name" v="Nordenga" />
		<tag k="place" v="farm" />
		<tag k="ssr:stedsnr" v="693758" />
	</node>
	<node id="-167764" lat="60.1007555564" lon="10.2304694474">
		<tag k="name" v="Prestemoen" />
		<tag k="place" v="farm" />
		<tag k="ssr:stedsnr" v="693696" />
	</node>
	<node id="-167763" lat="60.0951555549" lon="10.2257555567">
		<tag k="name" v="Nygård" />
		<tag k="place" v="farm" />
		<tag k="ssr:stedsnr" v="693641" />
	</node>
	<node id="-167250" lat="60.0888720577" lon="10.2738309925">
		<tag k="name" v="Steinsrud" />
		<tag k="place" v="farm" />
		<tag k="ssr:stedsnr" v="271696" />
	</node>
	<node id="-167395" lat="60.0592666663" lon="10.3475361081">
		<tag k="historic" v="shieling" />
		<tag k="name" v="Retthella" />
		<tag k="place" v="locality" />
		<tag k="ssr:stedsnr" v="6213" />
	</node>
	<node id="-167759" lat="60.0569611132" lon="10.1951472239">
		<tag k="name" v="Tangerud" />
		<tag k="place" v="farm" />
		<tag k="ssr:stedsnr" v="693555" />
	</node>
	<node id="-167758" lat="60.0674305591" lon="10.1913527841">
		<tag k="name" v="Kolsås" />
		<tag k="place" v="hamlet" />
		<tag k="ssr:stedsnr" v="693552" />
	</node>
	<node id="-167245" lat="60.096877774" lon="10.1842638888">
		<tag k="name" v="Rundtom" />
		<tag k="place" v="isolated_dwelling" />
		<tag k="ssr:stedsnr" v="269657" />
	</node>
	<node id="-167756" lat="60.0661833365" lon="10.1895027728">
		<tag k="name" v="Øvre Leine" />
		<tag k="place" v="farm" />
		<tag k="ssr:stedsnr" v="693547" />
	</node>
	<node id="-167755" lat="60.0620888864" lon="10.1983333245">
		<tag k="name" v="Nylendet" />
		<tag k="place" v="farm" />
		<tag k="ssr:stedsnr" v="693545" />
	</node>
	<node id="-167754" lat="59.9595777781" lon="10.3401222156">
		<tag k="name" v="Rotaryhytta" />
		<tag k="place" v="isolated_dwelling" />
		<tag k="ssr:stedsnr" v="690634" />
	</node>
	<node id="-167329" lat="60.0958557482" lon="10.1892458572">
		<tag k="name" v="Stadum" />
		<tag k="place" v="farm" />
		<tag k="ssr:stedsnr" v="390589" />
	</node>
	<node id="-167749" lat="60.1092166628" lon="10.2767000044">
		<tag k="fixme" v="consider place=hamlet" />
		<tag k="name" v="Bjørnstad" />
		<tag k="place" v="farm" />
		<tag k="ssr:stedsnr" v="672740" />
	</node>
	<node id="-167748" lat="60.1012498562" lon="10.2961308371">
		<tag k="fixme" v="consider place=hamlet" />
		<tag k="name" v="Stein" />
		<tag k="place" v="farm" />
		<tag k="ssr:stedsnr" v="672718" />
	</node>
	<node id="-167747" lat="60.1157749978" lon="10.2928305634">
		<tag k="name" v="Hårum" />
		<tag k="place" v="farm" />
		<tag k="ssr:stedsnr" v="672674" />
	</node>
	<node id="-167739" lat="60.0930941788" lon="10.2030240242">
		<tag k="name" v="Frøyshov" />
		<tag k="place" v="farm" />
		<tag k="ssr:stedsnr" v="672256" />
	</node>
	<node id="-167738" lat="60.0890027789" lon="10.2150666648">
		<tag k="name" v="Frøyhov" />
		<tag k="old_name" v="Frøyshov" />
		<tag k="place" v="farm" />
		<tag k="ssr:stedsnr" v="672253" />
	</node>
	<node id="-167737" lat="60.0659067148" lon="10.2800307344">
		<tag k="alt_name" v="Fekjær" />
		<tag k="fixme" v="consider place=hamlet" />
		<tag k="name" v="Fetjar" />
		<tag k="old_name" v="Fækjær;Fekjer" />
		<tag k="place" v="farm" />
		<tag k="ssr:stedsnr" v="672247" />
	</node>
	<node id="-167736" lat="60.0752027765" lon="10.2502499935">
		<tag k="name" v="Sandvika" />
		<tag k="place" v="isolated_dwelling" />
		<tag k="ssr:stedsnr" v="672238" />
	</node>
	<node id="-167735" lat="60.0715305585" lon="10.2605499944">
		<tag k="name" v="Borgen" />
		<tag k="place" v="farm" />
		<tag k="ssr:stedsnr" v="672235" />
	</node>
	<node id="-167734" lat="59.9934777742" lon="10.2875916624">
		<tag k="alt_name" v="Skjelegarden" />
		<tag k="name" v="Skjellegård" />
		<tag k="place" v="farm" />
		<tag k="ssr:stedsnr" v="671459" />
	</node>
	<node id="-167733" lat="59.9638583301" lon="10.3456555528">
		<tag k="name" v="Sollihøgda" />
		<tag k="old_name" v="Solihøjden" />
		<tag k="place" v="village" />
		<tag k="ssr:stedsnr" v="671044" />
	</node>
	<node id="-167732" lat="59.9700249986" lon="10.3601638858">
		<tag k="name" v="Niskinn" />
		<tag k="place" v="farm" />
		<tag k="ssr:stedsnr" v="671033" />
	</node>
	<node id="-167731" lat="60.0654972243" lon="10.3781805614">
		<tag k="alt_name" v="Fjellsetrene" />
		<tag k="historic" v="shieling" />
		<tag k="name" v="Fjellsetra" />
		<tag k="place" v="locality" />
		<tag k="ssr:stedsnr" v="660213" />
	</node>
	<node id="-167730" lat="60.0202016373" lon="10.3237802316">
		<tag k="fixme" v="consider tourism=alpine_hut or tourism=chalet" />
		<tag k="name" v="Jørgenhytta" />
		<tag k="ssr:stedsnr" v="648009" />
		<tag k="tourism" v="wilderness_hut" />
	</node>
	<node id="-167729" lat="60.0818035525" lon="10.258291384">
		<tag k="name" v="Rønningen" />
		<tag k="place" v="farm" />
		<tag k="ssr:stedsnr" v="634659" />
	</node>
	<node id="-167243" lat="59.9921388867" lon="10.3415583354">
		<tag k="historic" v="shieling" />
		<tag k="name" v="Nysetra" />
		<tag k="place" v="locality" />
		<tag k="ssr:stedsnr" v="269345" />
	</node>
	<node id="-167722" lat="60.1030138853" lon="10.1992111026">
		<tag k="name" v="Tomta" />
		<tag k="place" v="isolated_dwelling" />
		<tag k="ssr:stedsnr" v="633673" />
	</node>
	<node id="-167720" lat="59.9752305521" lon="10.3329222193">
		<tag k="name" v="Berntsegård" />
		<tag k="place" v="farm" />
		<tag k="ssr:stedsnr" v="633301" />
	</node>
	<node id="-167718" lat="60.0779388904" lon="10.3392750055">
		<tag k="name" v="Hagabråtan" />
		<tag k="place" v="farm" />
		<tag k="ssr:stedsnr" v="632947" />
	</node>
	<node id="-167717" lat="60.0784972256" lon="10.3338249929">
		<tag k="name" v="Korneliusbråten" />
		<tag k="place" v="farm" />
		<tag k="ssr:stedsnr" v="632944" />
	</node>
	<node id="-167716" lat="60.0846653415" lon="10.2896663377">
		<tag k="name" v="Kroksvik" />
		<tag k="place" v="farm" />
		<tag k="ssr:stedsnr" v="632920" />
	</node>
	<node id="-167715" lat="60.0790027696" lon="10.1697687551">
		<tag k="name" v="Gomnesbråten" />
		<tag k="old_name" v="Braataan;Braaten" />
		<tag k="place" v="farm" />
		<tag k="ssr:stedsnr" v="632779" />
	</node>
	<node id="-167713" lat="60.077516666" lon="10.1955361083">
		<tag k="name" v="Fjell" />
		<tag k="place" v="farm" />
		<tag k="ssr:stedsnr" v="632726" />
	</node>
	<node id="-167710" lat="60.0989999991" lon="10.217286105">
		<tag k="fixme" v="consider place=hamlet" />
		<tag k="name" v="Hole prestegård" />
		<tag k="place" v="farm" />
		<tag k="ssr:stedsnr" v="632667" />
	</node>
	<node id="-167709" lat="60.0942500028" lon="10.218886117">
		<tag k="name" v="Nedre Libakke" />
		<tag k="place" v="farm" />
		<tag k="ssr:stedsnr" v="632602" />
	</node>
	<node id="-167261" lat="59.9991728374" lon="10.2803570693">
		<tag k="fixme" v="consider place=hamlet" />
		<tag k="name" v="Nes" />
		<tag k="place" v="farm" />
		<tag k="ssr:stedsnr" v="301808" />
	</node>
	<node id="-167704" lat="60.1202156328" lon="10.2960912854">
		<tag k="name" v="Hagen" />
		<tag k="place" v="isolated_dwelling" />
		<tag k="ssr:stedsnr" v="631353" />
	</node>
	<node id="-167697" lat="60.0748055532" lon="10.1878527704">
		<tag k="name" v="Fjell" />
		<tag k="place" v="farm" />
		<tag k="ssr:stedsnr" v="611441" />
	</node>
	<node id="-167695" lat="60.0854583324" lon="10.3409305584">
		<tag k="name" v="Hellerud" />
		<tag k="place" v="farm" />
		<tag k="ssr:stedsnr" v="611299" />
	</node>
	<node id="-167692" lat="60.0658166639" lon="10.1699222225">
		<tag k="name" v="Solheim" />
		<tag k="place" v="isolated_dwelling" />
		<tag k="ssr:stedsnr" v="611267" />
	</node>
	<node id="-167691" lat="60.0667257363" lon="10.2109081458">
		<tag k="fixme" v="consider place=hamlet" />
		<tag k="name" v="Svarstad" />
		<tag k="place" v="farm" />
		<tag k="ssr:stedsnr" v="611265" />
	</node>
	<node id="-167689" lat="60.0726249967" lon="10.1875388847">
		<tag k="name" v="Myra" />
		<tag k="place" v="farm" />
		<tag k="ssr:stedsnr" v="611257" />
	</node>
	<node id="-167687" lat="60.0326194427" lon="10.412580557">
		<tag k="fixme" v="consider tourism=alpine_hut or tourism=chalet" />
		<tag k="name" v="Myrsetra" />
		<tag k="old_name" v="Myrseter" />
		<tag k="ssr:stedsnr" v="600554" />
		<tag k="tourism" v="wilderness_hut" />
	</node>
	<node id="-167686" lat="60.0887583376" lon="10.2144222168">
		<tag k="name" v="Frøyhov" />
		<tag k="place" v="farm" />
		<tag k="ssr:stedsnr" v="594139" />
	</node>
	<node id="-167680" lat="60.0935944457" lon="10.1850722289">
		<tag k="name" v="Onsakerbråten" />
		<tag k="place" v="farm" />
		<tag k="ssr:stedsnr" v="572633" />
	</node>
	<node id="-167446" lat="60.0135833318" lon="10.3853611167">
		<tag k="name" v="Hygga" />
		<tag k="place" v="isolated_dwelling" />
		<tag k="ssr:stedsnr" v="87074" />
	</node>
	<node id="-167677" lat="60.0578888896" lon="10.1937305641">
		<tag k="name" v="Pålerud" />
		<tag k="place" v="farm" />
		<tag k="ssr:stedsnr" v="572543" />
	</node>
	<node id="-167672" lat="60.0746861081" lon="10.2541194484">
		<tag k="name" v="Vestbråtan" />
		<tag k="place" v="farm" />
		<tag k="ssr:stedsnr" v="571971" />
	</node>
	<node id="-167671" lat="60.0755888888" lon="10.3334638969">
		<tag k="name" v="Skogli" />
		<tag k="place" v="farm" />
		<tag k="ssr:stedsnr" v="571944" />
	</node>
	<node id="-167669" lat="60.0727777773" lon="10.1818888915">
		<tag k="name" v="Bråtan" />
		<tag k="place" v="farm" />
		<tag k="ssr:stedsnr" v="571703" />
	</node>
	<node id="-167667" lat="60.0999777806" lon="10.2150222286">
		<tag k="name" v="Ringhol" />
		<tag k="place" v="farm" />
		<tag k="ssr:stedsnr" v="571613" />
	</node>
	<node id="-167666" lat="60.0954944446" lon="10.227780553">
		<tag k="name" v="Skogstad" />
		<tag k="place" v="farm" />
		<tag k="ssr:stedsnr" v="571605" />
	</node>
	<node id="-167665" lat="60.0058944454" lon="10.2657277759">
		<tag k="alt_name" v="Appendiks" />
		<tag k="name" v="Rovestuen" />
		<tag k="place" v="isolated_dwelling" />
		<tag k="ssr:stedsnr" v="571486" />
	</node>
	<node id="-167664" lat="60.1254642771" lon="10.3079161838">
		<tag k="name" v="Sjåheim" />
		<tag k="place" v="isolated_dwelling" />
		<tag k="ssr:stedsnr" v="571479" />
	</node>
	<node id="-167662" lat="60.0683250596" lon="10.2969688177">
		<tag k="name" v="Øverjordet" />
		<tag k="place" v="farm" />
		<tag k="ssr:stedsnr" v="570600" />
	</node>
	<node id="-167660" lat="60.0527111085" lon="10.2666555576">
		<tag k="name" v="Kuskeplassen" />
		<tag k="place" v="farm" />
		<tag k="ssr:stedsnr" v="570595" />
	</node>
	<node id="-167659" lat="59.9807638919" lon="10.3122583418">
		<tag k="name" v="Humledal" />
		<tag k="place" v="farm" />
		<tag k="ssr:stedsnr" v="570438" />
	</node>
	<node id="-167657" lat="60.0259068372" lon="10.3598227203">
		<tag k="alt_name" v="Bruløkka" />
		<tag k="fixme" v="consider place=hamlet" />
		<tag k="name" v="Bruløkkene" />
		<tag k="place" v="farm" />
		<tag k="ssr:stedsnr" v="551999" />
	</node>
	<node id="-167360" lat="60.0967903952" lon="10.1931459346">
		<tag k="fixme" v="consider place=hamlet" />
		<tag k="name" v="Stadum" />
		<tag k="place" v="farm" />
		<tag k="ssr:stedsnr" v="989041" />
	</node>
	<node id="-167292" lat="60.0760424986" lon="10.2623569926">
		<tag k="name" v="Østeng" />
		<tag k="place" v="farm" />
		<tag k="ssr:stedsnr" v="331629" />
	</node>
	<node id="-167377" lat="60.0919780966" lon="10.1899866891">
		<tag k="fixme" v="consider place=hamlet" />
		<tag k="name" v="Onsaker" />
		<tag k="place" v="farm" />
		<tag k="ssr:stedsnr" v="4273" />
	</node>
	<node id="-167411" lat="60.0561941267" lon="10.2898912653">
		<tag k="name" v="Rørvik Camping" />
		<tag k="ssr:stedsnr" v="26612" />
		<tag k="tourism" v="camp_site" />
	</node>
	<node id="-167651" lat="59.9899262776" lon="10.2927376417">
		<tag k="fixme" v="consider place=hamlet" />
		<tag k="name" v="Sønsterud" />
		<tag k="place" v="farm" />
		<tag k="ssr:stedsnr" v="550452" />
	</node>
	<node id="-167649" lat="60.0797305587" lon="10.2649388804">
		<tag k="name" v="Borgestad" />
		<tag k="place" v="farm" />
		<tag k="ssr:stedsnr" v="550292" />
	</node>
	<node id="-167648" lat="60.0668999994" lon="10.1752416683">
		<tag k="name" v="Vestbråtan" />
		<tag k="place" v="farm" />
		<tag k="ssr:stedsnr" v="550268" />
	</node>
	<node id="-167647" lat="60.0727166626" lon="10.3319499915">
		<tag k="name" v="Lyse" />
		<tag k="place" v="farm" />
		<tag k="ssr:stedsnr" v="550263" />
	</node>
	<node id="-167646" lat="60.0760117622" lon="10.2105383388">
		<tag k="fixme" v="consider place=hamlet" />
		<tag k="name" v="Søhol" />
		<tag k="place" v="farm" />
		<tag k="ssr:stedsnr" v="550256" />
	</node>
	<node id="-167645" lat="60.0752750022" lon="10.2685944505">
		<tag k="fixme" v="consider place=hamlet" />
		<tag k="name" v="Løken" />
		<tag k="place" v="farm" />
		<tag k="ssr:stedsnr" v="550253" />
	</node>
	<node id="-167644" lat="60.0738777758" lon="10.1700833275">
		<tag k="name" v="Sersjantløkka" />
		<tag k="place" v="farm" />
		<tag k="ssr:stedsnr" v="550250" />
	</node>
	<node id="-167375" lat="60.0717833362" lon="10.2780388836">
		<tag k="name" v="Gjesval" />
		<tag k="place" v="farm" />
		<tag k="ssr:stedsnr" v="4256" />
	</node>
	<node id="-167637" lat="60.0922638859" lon="10.2652999981">
		<tag k="name" v="Sønsteby" />
		<tag k="place" v="farm" />
		<tag k="ssr:stedsnr" v="512722" />
	</node>
	<node id="-167635" lat="59.9947138889" lon="10.2908666661">
		<tag k="name" v="Bråtan" />
		<tag k="place" v="hamlet" />
		<tag k="ssr:stedsnr" v="512388" />
	</node>
	<node id="-167942" lat="60.1166527761" lon="10.3156444452">
		<tag k="name" v="Loreåsen" />
		<tag k="place" v="neighbourhood" />
		<tag k="ssr:stedsnr" v="937729" />
	</node>
	<node id="-167631" lat="60.0857194422" lon="10.2090805541">
		<tag k="name" v="Øvre Fjelstad" />
		<tag k="place" v="farm" />
		<tag k="ssr:stedsnr" v="511971" />
	</node>
	<node id="-167630" lat="60.0871593818" lon="10.2912206604">
		<tag k="name" v="Rudshagan" />
		<tag k="place" v="farm" />
		<tag k="ssr:stedsnr" v="511916" />
	</node>
	<node id="-167629" lat="60.0690257402" lon="10.2636132586">
		<tag k="name" v="Flata" />
		<tag k="place" v="farm" />
		<tag k="ssr:stedsnr" v="511882" />
	</node>
	<node id="-167628" lat="60.070602782" lon="10.2570861118">
		<tag k="name" v="Borgen" />
		<tag k="place" v="farm" />
		<tag k="ssr:stedsnr" v="511733" />
	</node>
	<node id="-167627" lat="60.0944166654" lon="10.2087277762">
		<tag k="name" v="Bredvoll" />
		<tag k="place" v="farm" />
		<tag k="ssr:stedsnr" v="511656" />
	</node>
	<node id="-167626" lat="60.1051777749" lon="10.2199055585">
		<tag k="name" v="Skog" />
		<tag k="place" v="farm" />
		<tag k="ssr:stedsnr" v="511650" />
	</node>
	<node id="-167625" lat="60.0959722236" lon="10.2238388894">
		<tag k="name" v="Klokkerplassen" />
		<tag k="place" v="farm" />
		<tag k="ssr:stedsnr" v="511601" />
	</node>
	<node id="-167624" lat="60.0197583294" lon="10.4045499961">
		<tag k="name" v="Soterudsetrene" />
		<tag k="place" v="locality" />
		<tag k="ssr:stedsnr" v="511067" />
	</node>
	<node id="-167623" lat="60.1223555522" lon="10.3025138824">
		<tag k="name" v="Åserud" />
		<tag k="place" v="farm" />
		<tag k="ssr:stedsnr" v="510453" />
	</node>
	<node id="-167622" lat="60.1243358352" lon="10.30837968">
		<tag k="fixme" v="consider place=hamlet" />
		<tag k="name" v="Hårum" />
		<tag k="old_name" v="Haarum" />
		<tag k="place" v="farm" />
		<tag k="ssr:stedsnr" v="509898" />
	</node>
	<node id="-167785" lat="60.0217888915" lon="10.3056472187">
		<tag k="historic" v="shieling" />
		<tag k="name" v="Finneflaksetra" />
		<tag k="place" v="locality" />
		<tag k="ssr:stedsnr" v="733318" />
	</node>
	<node id="-167616" lat="60.0467388874" lon="10.3219249972">
		<tag k="name" v="Kleivstua" />
		<tag k="ssr:stedsnr" v="490358" />
		<tag k="tourism" v="hotel" />
	</node>
	<node id="-167615" lat="60.0626861111" lon="10.3072833251">
		<tag k="fixme" v="consider place=suburb, village or hamlet" />
		<tag k="name" v="Sundvollen" />
		<tag k="place" v="quarter" />
		<tag k="ssr:stedsnr" v="490334" />
	</node>
	<node id="-167614" lat="60.0423906128" lon="10.3419222845">
		<tag k="name" v="Torget" />
		<tag k="place" v="farm" />
		<tag k="ssr:stedsnr" v="490313" />
	</node>
	<node id="-167613" lat="60.0355416624" lon="10.3233805611">
		<tag k="historic" v="shieling" />
		<tag k="name" v="Nordsetra" />
		<tag k="place" v="locality" />
		<tag k="ssr:stedsnr" v="490312" />
	</node>
	<node id="-167612" lat="60.0786583326" lon="10.3359111172">
		<tag k="name" v="Baserud" />
		<tag k="place" v="farm" />
		<tag k="ssr:stedsnr" v="490290" />
	</node>
	<node id="-167610" lat="60.0932083366" lon="10.2182361163">
		<tag k="name" v="Libakke" />
		<tag k="place" v="farm" />
		<tag k="ssr:stedsnr" v="490264" />
	</node>
	<node id="-167609" lat="60.0646750033" lon="10.2900500046">
		<tag k="name" v="Rudsøgarden" />
		<tag k="place" v="farm" />
		<tag k="ssr:stedsnr" v="490260" />
	</node>
	<node id="-167608" lat="60.1111222234" lon="10.2981805489">
		<tag k="name" v="Hårum" />
		<tag k="place" v="farm" />
		<tag k="ssr:stedsnr" v="490412" />
	</node>
	<node id="-167284" lat="60.0887749972" lon="10.1874138949">
		<tag k="name" v="Teigen" />
		<tag k="place" v="farm" />
		<tag k="ssr:stedsnr" v="329714" />
	</node>
	<node id="-167603" lat="60.0749055557" lon="10.1692111123">
		<tag k="name" v="Langløkka" />
		<tag k="place" v="farm" />
		<tag k="ssr:stedsnr" v="451828" />
	</node>
	<node id="-167601" lat="60.0960638849" lon="10.2713944518">
		<tag k="name" v="Bekkebråtan" />
		<tag k="place" v="farm" />
		<tag k="ssr:stedsnr" v="451696" />
	</node>
	<node id="-167599" lat="60.0644833312" lon="10.1973972148">
		<tag k="name" v="Sandhaugen" />
		<tag k="place" v="farm" />
		<tag k="ssr:stedsnr" v="451544" />
	</node>
	<node id="-167598" lat="60.0657638891" lon="10.1970166585">
		<tag k="name" v="Jurpland" />
		<tag k="place" v="farm" />
		<tag k="ssr:stedsnr" v="451542" />
	</node>
	<node id="-167597" lat="59.9815166662" lon="10.3103527763">
		<tag k="name" v="Furuhaugen" />
		<tag k="place" v="isolated_dwelling" />
		<tag k="ssr:stedsnr" v="451354" />
	</node>
	<node id="-167596" lat="59.96982222" lon="10.3551249955">
		<tag k="historic" v="shieling" />
		<tag k="name" v="Sørumsetra" />
		<tag k="place" v="locality" />
		<tag k="ssr:stedsnr" v="451299" />
	</node>
	<node id="-167592" lat="60.0838472222" lon="10.2307416709">
		<tag k="name" v="Gunnhaug" />
		<tag k="place" v="farm" />
		<tag k="ssr:stedsnr" v="450986" />
	</node>
	<node id="-167591" lat="60.0164777783" lon="10.263997225">
		<tag k="name" v="Portebakken" />
		<tag k="place" v="hamlet" />
		<tag k="ssr:stedsnr" v="450481" />
	</node>
	<node id="-167281" lat="60.1198897672" lon="10.2736701453">
		<tag k="name" v="Bergerstua" />
		<tag k="place" v="isolated_dwelling" />
		<tag k="ssr:stedsnr" v="328349" />
	</node>
	<node id="-167275" lat="60.0492388849" lon="10.2455277714">
		<tag k="alt_name" v="Storøen" />
		<tag k="fixme" v="consider place=hamlet" />
		<tag k="name" v="Storøya" />
		<tag k="place" v="farm" />
		<tag k="ssr:stedsnr" v="308348" />
	</node>
	<node id="-167587" lat="60.0060777792" lon="10.3818944383">
		<tag k="name" v="Benteplassen" />
		<tag k="place" v="isolated_dwelling" />
		<tag k="ssr:stedsnr" v="430872" />
	</node>
	<node id="-167585" lat="60.0057888924" lon="10.2714249924">
		<tag k="alt_name" v="Øgarden" />
		<tag k="name" v="Øvre Nes" />
		<tag k="place" v="farm" />
		<tag k="ssr:stedsnr" v="430392" />
	</node>
	<node id="-167584" lat="60.0073007209" lon="10.2645475018">
		<tag k="name" v="Kløvvika" />
		<tag k="place" v="farm" />
		<tag k="ssr:stedsnr" v="430390" />
	</node>
	<node id="-167583" lat="60.0214861111" lon="10.338661117">
		<tag k="alt_name" v="Kneikasetra" />
		<tag k="historic" v="shieling" />
		<tag k="name" v="Kneika" />
		<tag k="place" v="locality" />
		<tag k="ssr:stedsnr" v="430337" />
	</node>
	<node id="-167305" lat="60.0608694432" lon="10.3175944377">
		<tag k="name" v="Grøndokka" />
		<tag k="place" v="quarter" />
		<tag k="ssr:stedsnr" v="368360" />
	</node>
	<node id="-167579" lat="60.1011844189" lon="10.211643378">
		<tag k="fixme" v="consider place=hamlet" />
		<tag k="name" v="Helgeland" />
		<tag k="place" v="farm" />
		<tag k="ssr:stedsnr" v="429723" />
	</node>
	<node id="-167576" lat="59.9943555565" lon="10.3198138839">
		<tag k="name" v="Møllbakk" />
		<tag k="place" v="isolated_dwelling" />
		<tag k="ssr:stedsnr" v="429449" />
	</node>
	<node id="-167364" lat="60.0628002324" lon="10.3160918885">
		<tag k="name" v="Jonsbråten" />
		<tag k="place" v="locality" />
		<tag k="ssr:stedsnr" v="989045" />
	</node>
	<node id="-167574" lat="59.9784138891" lon="10.3403861114">
		<tag k="name" v="Løkenmyra" />
		<tag k="place" v="locality" />
		<tag k="ssr:stedsnr" v="428448" />
	</node>
	<node id="-167572" lat="60.0700027743" lon="10.1907527745">
		<tag k="leisure" v="park" />
		<tag k="name" v="Røyseparken" />
		<tag k="ssr:stedsnr" v="268854" />
	</node>
	<node id="-167570" lat="60.1179472255" lon="10.2822833398">
		<tag k="name" v="Vangen" />
		<tag k="place" v="farm" />
		<tag k="ssr:stedsnr" v="268365" />
	</node>
	<node id="-167363" lat="60.0235133587" lon="10.2478684593">
		<tag k="fixme" v="consider place=hamlet" />
		<tag k="name" v="Utøya" />
		<tag k="place" v="farm" />
		<tag k="ssr:stedsnr" v="989043" />
	</node>
	<node id="-167568" lat="59.9577138899" lon="10.3407166674">
		<tag k="name" v="Seimskollen" />
		<tag k="place" v="isolated_dwelling" />
		<tag k="ssr:stedsnr" v="265608" />
	</node>
	<node id="-167567" lat="59.9587861114" lon="10.3423166651">
		<tag k="name" v="Lille B" />
		<tag k="place" v="isolated_dwelling" />
		<tag k="ssr:stedsnr" v="265607" />
	</node>
	<node id="-167566" lat="60.0293166627" lon="10.4083111048">
		<tag k="name" v="Myrehytta" />
		<tag k="place" v="isolated_dwelling" />
		<tag k="ssr:stedsnr" v="248985" />
	</node>
	<node id="-167564" lat="60.0126472191" lon="10.4026694361">
		<tag k="name" v="Soterudhytta" />
		<tag k="place" v="isolated_dwelling" />
		<tag k="ssr:stedsnr" v="248891" />
	</node>
	<node id="-167393" lat="60.0159944429" lon="10.3686194429">
		<tag k="name" v="Frøshaug" />
		<tag k="place" v="isolated_dwelling" />
		<tag k="ssr:stedsnr" v="5962" />
	</node>
	<node id="-167561" lat="60.0134000002" lon="10.2919277851">
		<tag k="historic" v="shieling" />
		<tag k="name" v="Nessetra" />
		<tag k="place" v="locality" />
		<tag k="ssr:stedsnr" v="248388" />
	</node>
	<node id="-167361" lat="60.0990979938" lon="10.2047546283">
		<tag k="fixme" v="consider place=hamlet" />
		<tag k="name" v="Hafnor" />
		<tag k="place" v="farm" />
		<tag k="ssr:stedsnr" v="989042" />
	</node>
	<node id="-167556" lat="60.0390652436" lon="10.2717558408">
		<tag k="name" v="Høgkastet" />
		<tag k="place" v="isolated_dwelling" />
		<tag k="ssr:stedsnr" v="247301" />
	</node>
	<node id="-167555" lat="60.0869500026" lon="10.2317249911">
		<tag k="alt_name" v="Lille By" />
		<tag k="name" v="Lilleby" />
		<tag k="place" v="farm" />
		<tag k="ssr:stedsnr" v="247289" />
	</node>
	<node id="-167553" lat="60.0692249998" lon="10.198650008">
		<tag k="name" v="Mosenga" />
		<tag k="place" v="farm" />
		<tag k="ssr:stedsnr" v="247252" />
	</node>
	<node id="-167551" lat="60.076524998" lon="10.2163805529">
		<tag k="amenity" v="nursing_home" />
		<tag k="name" v="Nøstret" />
		<tag k="ssr:stedsnr" v="247244" />
	</node>
	<node id="-167359" lat="60.0933402258" lon="10.2038178801">
		<tag k="fixme" v="consider place=hamlet" />
		<tag k="name" v="Frøyshov" />
		<tag k="place" v="farm" />
		<tag k="ssr:stedsnr" v="989017" />
	</node>
	<node id="-167273" lat="60.0536361138" lon="10.2908999962">
		<tag k="name" v="Rørvikberget" />
		<tag k="place" v="isolated_dwelling" />
		<tag k="ssr:stedsnr" v="308333" />
	</node>
	<node id="-167540" lat="60.0838270711" lon="10.2617450722">
		<tag k="name" v="Skredshaugen" />
		<tag k="place" v="farm" />
		<tag k="ssr:stedsnr" v="210648" />
	</node>
	<node id="-167534" lat="60.0747666646" lon="10.1941805534">
		<tag k="name" v="Fjell" />
		<tag k="place" v="farm" />
		<tag k="ssr:stedsnr" v="208814" />
	</node>
	<node id="-167527" lat="60.0603416709" lon="10.2072250058">
		<tag k="name" v="Søndre Svarstad" />
		<tag k="place" v="farm" />
		<tag k="ssr:stedsnr" v="208561" />
	</node>
	<node id="-167270" lat="60.0272307146" lon="10.2617454774">
		<tag k="fixme" v="consider place=hamlet" />
		<tag k="name" v="Utvika" />
		<tag k="place" v="farm" />
		<tag k="ssr:stedsnr" v="308290" />
	</node>
	<node id="-167521" lat="60.0955222202" lon="10.2113527754">
		<tag k="name" v="Lysgård" />
		<tag k="place" v="farm" />
		<tag k="ssr:stedsnr" v="207660" />
	</node>
	<node id="-167519" lat="59.9606222228" lon="10.3403805468">
		<tag k="name" v="Skrenten" />
		<tag k="place" v="isolated_dwelling" />
		<tag k="ssr:stedsnr" v="204540" />
	</node>
	<node id="-167518" lat="60.0001583379" lon="10.3007249922">
		<tag k="historic" v="shieling" />
		<tag k="name" v="Sønsterudsetra" />
		<tag k="place" v="locality" />
		<tag k="ssr:stedsnr" v="188476" />
	</node>
	<node id="-167517" lat="60.0436315003" lon="10.3957590724">
		<tag k="fixme" v="consider place=hamlet" />
		<tag k="name" v="Mattisplassen" />
		<tag k="place" v="farm" />
		<tag k="ssr:stedsnr" v="187959" />
	</node>
	<node id="-167362" lat="60.0901722576" lon="10.3450660143">
		<tag k="fixme" v="consider place=hamlet" />
		<tag k="name" v="Steinsetra" />
		<tag k="old_name" v="Steinsæteren" />
		<tag k="place" v="farm" />
		<tag k="ssr:stedsnr" v="430128" />
	</node>
	<node id="-167354" lat="60.0849139647" lon="10.2086169811">
		<tag k="fixme" v="consider place=hamlet" />
		<tag k="name" v="Fjelstad" />
		<tag k="place" v="farm" />
		<tag k="ssr:stedsnr" v="988951" />
	</node>
	<node id="-167514" lat="60.0966499987" lon="10.2344416744">
		<tag k="name" v="Svingerud" />
		<tag k="place" v="farm" />
		<tag k="ssr:stedsnr" v="186752" />
	</node>
	<node id="-167512" lat="60.1248673665" lon="10.2979139213">
		<tag k="alt_name" v="Kleiva" />
		<tag k="name" v="Kleven" />
		<tag k="place" v="farm" />
		<tag k="ssr:stedsnr" v="186742" />
	</node>
	<node id="-167511" lat="60.1204777772" lon="10.2803111181">
		<tag k="alt_name" v="Øde-Rå" />
		<tag k="name" v="Øderå" />
		<tag k="place" v="farm" />
		<tag k="ssr:stedsnr" v="186723" />
	</node>
	<node id="-167509" lat="59.9697819712" lon="10.3232692261">
		<tag k="fixme" v="consider place=hamlet" />
		<tag k="name" v="Fjulsrud" />
		<tag k="place" v="farm" />
		<tag k="ssr:stedsnr" v="186532" />
	</node>
	<node id="-167508" lat="60.0819472197" lon="10.1701694442">
		<tag k="alt_name" v="Hagastu" />
		<tag k="name" v="Hagastua" />
		<tag k="place" v="farm" />
		<tag k="ssr:stedsnr" v="186299" />
	</node>
	<node id="-167379" lat="60.092470555" lon="10.2921554311">
		<tag k="alt_name" v="Rud" />
		<tag k="fixme" v="consider place=hamlet" />
		<tag k="name" v="Østre Rud" />
		<tag k="place" v="farm" />
		<tag k="ssr:stedsnr" v="4289" />
	</node>
	<node id="-167505" lat="60.0840277748" lon="10.2646527741">
		<tag k="name" v="Viksenga" />
		<tag k="place" v="farm" />
		<tag k="ssr:stedsnr" v="186317" />
	</node>
	<node id="-167352" lat="60.0711964122" lon="10.2603520902">
		<tag k="fixme" v="consider place=hamlet" />
		<tag k="name" v="Borgen" />
		<tag k="place" v="farm" />
		<tag k="ssr:stedsnr" v="988949" />
	</node>
	<node id="-167652" lat="60.1239150473" lon="10.3085967907">
		<tag k="name" v="Hårum" />
		<tag k="place" v="farm" />
		<tag k="ssr:stedsnr" v="550692" />
	</node>
	<node id="-167501" lat="60.1144305516" lon="10.2313527729">
		<tag k="name" v="Helgelandsmoen Næringspark AS" />
		<tag k="place" v="quarter" />
		<tag k="ssr:stedsnr" v="179992" />
	</node>
	<node id="-167500" lat="60.0943277768" lon="10.2114777824">
		<tag k="name" v="Kirkenær" />
		<tag k="place" v="farm" />
		<tag k="ssr:stedsnr" v="268663" />
	</node>
	<node id="-167497" lat="60.0777728712" lon="10.2596971949">
		<tag k="name" v="Bråtan" />
		<tag k="place" v="farm" />
		<tag k="ssr:stedsnr" v="149628" />
	</node>
	<node id="-167496" lat="60.0764722201" lon="10.275219438">
		<tag k="name" v="Sørenga" />
		<tag k="place" v="farm" />
		<tag k="ssr:stedsnr" v="149618" />
	</node>
	<node id="-167493" lat="60.0981111126" lon="10.2687611176">
		<tag k="name" v="Solvang" />
		<tag k="place" v="farm" />
		<tag k="ssr:stedsnr" v="147655" />
	</node>
	<node id="-167491" lat="60.0638416653" lon="10.1777805564">
		<tag k="name" v="Leinetajet" />
		<tag k="place" v="hamlet" />
		<tag k="ssr:stedsnr" v="147521" />
	</node>
	<node id="-167490" lat="60.0581638924" lon="10.1861138819">
		<tag k="name" v="Elstøa" />
		<tag k="place" v="farm" />
		<tag k="ssr:stedsnr" v="147514" />
	</node>
	<node id="-167485" lat="59.9654055582" lon="10.3400555506">
		<tag k="name" v="Kleiva" />
		<tag k="place" v="farm" />
		<tag k="ssr:stedsnr" v="147274" />
	</node>
	<node id="-167269" lat="60.0375361118" lon="10.2657111057">
		<tag k="fixme" v="consider place=hamlet" />
		<tag k="name" v="Øverby" />
		<tag k="place" v="farm" />
		<tag k="ssr:stedsnr" v="308282" />
	</node>
	<node id="-167482" lat="60.1132499991" lon="10.3006333357">
		<tag k="name" v="Hårum" />
		<tag k="place" v="farm" />
		<tag k="ssr:stedsnr" v="146411" />
	</node>
	<node id="-167263" lat="59.9964277747" lon="10.3503611059">
		<tag k="name" v="Toresplassen" />
		<tag k="place" v="farm" />
		<tag k="ssr:stedsnr" v="307095" />
	</node>
	<node id="-167478" lat="60.0310416653" lon="10.4008472268">
		<tag k="alt_name" v="Lomvollhytta" />
		<tag k="name" v="Lomvoll" />
		<tag k="place" v="isolated_dwelling" />
		<tag k="ssr:stedsnr" v="127000" />
	</node>
	<node id="-167477" lat="60.0122305518" lon="10.3772527856">
		<tag k="fixme" v="consider place=hamlet" />
		<tag k="name" v="Midtskogen" />
		<tag k="place" v="farm" />
		<tag k="ssr:stedsnr" v="126878" />
	</node>
	<node id="-167787" lat="60.0531333337" lon="10.2458166601">
		<tag k="name" v="Sundland" />
		<tag k="place" v="isolated_dwelling" />
		<tag k="ssr:stedsnr" v="733332" />
	</node>
	<node id="-167262" lat="60.0707138859" lon="10.1668194393">
		<tag k="amenity" v="school" />
		<tag k="name" v="Tyrifjord videregående skole" />
		<tag k="old_name" v="Tyrifjord høyere skole" />
		<tag k="ssr:stedsnr" v="301895" />
	</node>
	<node id="-167474" lat="60.1129319662" lon="10.2754887518">
		<tag k="name" v="Bjørke" />
		<tag k="place" v="hamlet" />
		<tag k="ssr:stedsnr" v="126715" />
	</node>
	<node id="-167472" lat="60.1132885741" lon="10.3090383694">
		<tag k="alt_name" v="Lore søndre" />
		<tag k="fixme" v="consider place=hamlet" />
		<tag k="name" v="Lore" />
		<tag k="place" v="farm" />
		<tag k="ssr:stedsnr" v="126709" />
	</node>
	<node id="-167471" lat="60.0982744347" lon="10.2031951038">
		<tag k="alt_name" v="Hamnor" />
		<tag k="name" v="Hafnor" />
		<tag k="place" v="farm" />
		<tag k="ssr:stedsnr" v="126701" />
	</node>
	<node id="-167422" lat="60.0852527757" lon="10.2181055552">
		<tag k="alt_name" v="Søndre By" />
		<tag k="fixme" v="consider place=hamlet" />
		<tag k="name" v="By" />
		<tag k="place" v="farm" />
		<tag k="ssr:stedsnr" v="65280" />
	</node>
	<node id="-167469" lat="60.0724722222" lon="10.2000722295">
		<tag k="alt_name" v="Hundstad Store" />
		<tag k="name" v="Hundstad" />
		<tag k="place" v="farm" />
		<tag k="ssr:stedsnr" v="126241" />
	</node>
	<node id="-167468" lat="60.0836166703" lon="10.2271583257">
		<tag k="fixme" v="consider place=hamlet" />
		<tag k="name" v="Berg" />
		<tag k="place" v="farm" />
		<tag k="ssr:stedsnr" v="126297" />
	</node>
	<node id="-167467" lat="60.078224997" lon="10.1743194511">
		<tag k="name" v="Gomnes" />
		<tag k="place" v="quarter" />
		<tag k="ssr:stedsnr" v="126286" />
	</node>
	<node id="-167466" lat="60.0765499978" lon="10.1817305571">
		<tag k="name" v="Øgarden" />
		<tag k="place" v="isolated_dwelling" />
		<tag k="ssr:stedsnr" v="126282" />
	</node>
	<node id="-167465" lat="60.0887555578" lon="10.3425388942">
		<tag k="name" v="Bjørnsvika" />
		<tag k="place" v="farm" />
		<tag k="ssr:stedsnr" v="126273" />
	</node>
	<node id="-167462" lat="60.0904688296" lon="10.1745810465">
		<tag k="alt_name" v="Gomnes" />
		<tag k="name" v="Nordre Gomnes" />
		<tag k="place" v="farm" />
		<tag k="ssr:stedsnr" v="101266" />
	</node>
	<node id="-167461" lat="60.0730666654" lon="10.2986138855">
		<tag k="name" v="Sundet" />
		<tag k="place" v="farm" />
		<tag k="ssr:stedsnr" v="89611" />
	</node>
	<node id="-167460" lat="60.0764453817" lon="10.2833394635">
		<tag k="name" v="Tajet" />
		<tag k="place" v="locality" />
		<tag k="ssr:stedsnr" v="88449" />
	</node>
	<node id="-167459" lat="60.0941999989" lon="10.2727499997">
		<tag k="name" v="Bergebråtan" />
		<tag k="place" v="farm" />
		<tag k="ssr:stedsnr" v="87694" />
	</node>
	<node id="-167455" lat="60.0938527777" lon="10.1975388935">
		<tag k="name" v="Frøyshov" />
		<tag k="place" v="farm" />
		<tag k="ssr:stedsnr" v="87642" />
	</node>
	<node id="-167454" lat="60.0956492228" lon="10.1969126266">
		<tag k="name" v="Stadum" />
		<tag k="place" v="farm" />
		<tag k="ssr:stedsnr" v="87614" />
	</node>
	<node id="-167453" lat="60.0951055534" lon="10.194500002">
		<tag k="name" v="Frøystad" />
		<tag k="place" v="farm" />
		<tag k="ssr:stedsnr" v="87612" />
	</node>
	<node id="-167353" lat="60.0887027704" lon="10.2160431272">
		<tag k="fixme" v="consider place=hamlet" />
		<tag k="name" v="Frøyhov" />
		<tag k="place" v="farm" />
		<tag k="ssr:stedsnr" v="988950" />
	</node>
	<node id="-167445" lat="60.0793166654" lon="10.2031055491">
		<tag k="name" v="Sørdalen" />
		<tag k="place" v="farm" />
		<tag k="ssr:stedsnr" v="86982" />
	</node>
	<node id="-167399" lat="60.0365833354" lon="10.337044446">
		<tag k="name" v="Grantopp" />
		<tag k="place" v="isolated_dwelling" />
		<tag k="ssr:stedsnr" v="25488" />
	</node>
	<node id="-167438" lat="60.0413916676" lon="10.3299361137">
		<tag k="name" v="Holiattentitt" />
		<tag k="place" v="isolated_dwelling" />
		<tag k="ssr:stedsnr" v="85435" />
	</node>
	<node id="-167946" lat="60.068007743" lon="10.3233953198">
		<tag k="name" v="Sundvollen næringspark" />
		<tag k="place" v="quarter" />
		<tag k="ssr:stedsnr" v="978846" />
	</node>
	<node id="-167433" lat="60.0988777592" lon="10.1939443994">
		<tag k="name" v="Stadum" />
		<tag k="place" v="farm" />
		<tag k="ssr:stedsnr" v="65734" />
	</node>
	<node id="-167432" lat="60.0971555583" lon="10.2676416597">
		<tag k="name" v="Brenna" />
		<tag k="place" v="farm" />
		<tag k="ssr:stedsnr" v="65725" />
	</node>
	<node id="-167431" lat="60.1222500007" lon="10.2964500055">
		<tag k="alt_name" v="Veisten søndre" />
		<tag k="fixme" v="multiple name tags, choose one and add the other to alt_name" />
		<tag k="name" v="Kongelv;Veisten" />
		<tag k="place" v="farm" />
		<tag k="ssr:stedsnr" v="65698" />
	</node>
	<node id="-167430" lat="60.0517250029" lon="10.1782583298">
		<tag k="fixme" v="consider place=hamlet" />
		<tag k="name" v="Frognøya" />
		<tag k="place" v="farm" />
		<tag k="ssr:stedsnr" v="65354" />
	</node>
	<node id="-167937" lat="60.0806638864" lon="10.2540527843">
		<tag k="name" v="Byrhaugen" />
		<tag k="place" v="farm" />
		<tag k="ssr:stedsnr" v="936965" />
	</node>
	<node id="-167426" lat="59.97203889" lon="10.3232527794">
		<tag k="name" v="Nordland" />
		<tag k="place" v="farm" />
		<tag k="ssr:stedsnr" v="64485" />
	</node>
	<node id="-167425" lat="59.9684166626" lon="10.3290194444">
		<tag k="name" v="Myra" />
		<tag k="place" v="locality" />
		<tag k="ssr:stedsnr" v="64470" />
	</node>
</osm>
