<?xml version="1.0" encoding="UTF-8"?>
<osm generator="osmapis" version="0.6">
	<node changeset="58620907" id="2350983713" lat="69.864964" lon="23.28175" timestamp="2018-05-02T17:03:46Z" uid="3497659" user="NKA" version="2">
		<tag k="name" v="Peskanuten" />
		<tag k="name:no" v="Peskanuten" />
		<tag k="natural" v="peak" />
		<tag k="source" v="Kartverket" />
		<tag k="ssr:stedsnr" v="444249" />
	</node>
	<node changeset="58620907" id="2353384259" lat="69.989728" lon="23.2633" timestamp="2018-05-02T17:03:49Z" uid="3497659" user="NKA" version="3">
		<tag k="area" v="yes" />
		<tag k="historic" v="archaeological_site" />
		<tag k="name" v="Kjerringa" />
		<tag k="name:no" v="Kjerringa" />
		<tag k="site_type" v="sacrificial_site" />
		<tag k="source" v="Kartverket" />
		<tag k="ssr:stedsnr" v="936212" />
	</node>
	<node changeset="58620907" id="2350985188" lat="69.978169" lon="23.454867" timestamp="2018-05-02T17:03:47Z" uid="3497659" user="NKA" version="2">
		<tag k="name" v="Rismyr" />
		<tag k="name:no" v="Rismyr" />
		<tag k="place" v="farm" />
		<tag k="source" v="Kartverket" />
		<tag k="ssr:stedsnr" v="747268" />
	</node>
	<node changeset="61433683" id="5814778342" lat="69.3158958" lon="22.9573032" timestamp="2018-08-07T12:30:19Z" uid="3497659" user="NKA" version="1" />
	<node changeset="58620907" id="2353286247" lat="70.167931" lon="22.943531" timestamp="2018-05-02T17:03:48Z" uid="3497659" user="NKA" version="2">
		<tag k="name" v="Lia" />
		<tag k="name:no" v="Lia" />
		<tag k="natural" v="hillside" />
		<tag k="source" v="Kartverket" />
		<tag k="ssr:stedsnr" v="626692" />
	</node>
	<node changeset="61433683" id="5814778344" lat="69.7628088" lon="25.8933966" timestamp="2018-08-07T12:30:19Z" uid="3497659" user="NKA" version="1" />
	<node changeset="58620907" id="2350058444" lat="69.890794" lon="23.212722" timestamp="2018-05-02T17:03:46Z" uid="3497659" user="NKA" version="2">
		<tag k="name" v="Valset" />
		<tag k="name:no" v="Valset" />
		<tag k="place" v="farm" />
		<tag k="source" v="Kartverket" />
		<tag k="ssr:stedsnr" v="322360" />
	</node>
	<node changeset="61433683" id="5814778346" lat="68.6865261" lon="24.8840277" timestamp="2018-08-07T12:30:20Z" uid="3497659" user="NKA" version="1" />
	<node changeset="61433683" id="5814778343" lat="69.7223925" lon="23.8265936" timestamp="2018-08-07T12:30:19Z" uid="3497659" user="NKA" version="1" />
	<node changeset="61433683" id="5814778348" lat="69.0558056" lon="22.0742743" timestamp="2018-08-07T12:30:20Z" uid="3497659" user="NKA" version="1" />
	<node changeset="58620907" id="2350063632" lat="70.140775" lon="23.254453" timestamp="2018-05-02T17:03:46Z" uid="3497659" user="NKA" version="2">
		<tag k="name" v="Jektevika" />
		<tag k="name:no" v="Jektevika" />
		<tag k="natural" v="bay" />
		<tag k="source" v="Kartverket" />
		<tag k="ssr:stedsnr" v="565645" />
	</node>
	<node changeset="58620907" id="2351011062" lat="69.873328" lon="23.620297" timestamp="2018-05-02T17:03:47Z" uid="3497659" user="NKA" version="2">
		<tag k="landuse" v="quarry" />
		<tag k="name" v="Stilla" />
		<tag k="name:no" v="Stilla" />
		<tag k="source" v="Kartverket" />
		<tag k="ssr:stedsnr" v="323646" />
	</node>
	<node changeset="61433683" id="5814778345" lat="69.0155153" lon="25.5487006" timestamp="2018-08-07T12:30:20Z" uid="3497659" user="NKA" version="1" />
	<node changeset="58620907" id="2353329048" lat="69.740344" lon="23.801758" timestamp="2018-05-02T17:03:49Z" uid="3497659" user="NKA" version="2">
		<tag k="name" v="Ryggen" />
		<tag k="name:no" v="Ryggen" />
		<tag k="natural" v="peak" />
		<tag k="source" v="Kartverket" />
		<tag k="ssr:stedsnr" v="201640" />
	</node>
	<node changeset="58620907" id="2350924026" lat="70.22015" lon="22.64895" timestamp="2018-05-02T17:03:46Z" uid="3497659" user="NKA" version="2">
		<tag k="name" v="Tungsjøneset" />
		<tag k="name:no" v="Tungsjøneset" />
		<tag k="natural" v="cape" />
		<tag k="source" v="Kartverket" />
		<tag k="ssr:stedsnr" v="808377" />
	</node>
	<node changeset="58620907" id="2350952540" lat="70.343164" lon="22.800581" timestamp="2018-05-02T17:03:46Z" uid="3497659" user="NKA" version="2">
		<tag k="name" v="Pollen" />
		<tag k="name:no" v="Pollen" />
		<tag k="natural" v="bay" />
		<tag k="source" v="Kartverket" />
		<tag k="ssr:stedsnr" v="202150" />
	</node>
	<node changeset="58620907" id="2353385501" lat="70.013761" lon="23.566264" timestamp="2018-05-02T17:03:49Z" uid="3497659" user="NKA" version="2">
		<tag k="name" v="Moen" />
		<tag k="name:no" v="Moen" />
		<tag k="place" v="farm" />
		<tag k="source" v="Kartverket" />
		<tag k="ssr:stedsnr" v="694440" />
	</node>
	<node changeset="61433683" id="5814778347" lat="68.7662476" lon="22.549433" timestamp="2018-08-07T12:30:20Z" uid="3497659" user="NKA" version="1" />
	<way changeset="61433683" id="614791809" timestamp="2018-08-07T12:30:20Z" uid="3497659" user="NKA" version="1">
		<tag k="name" v="Finnmarksvidda" />
		<tag k="natural" v="mountain_range" />
		<tag k="note" v="Please refine boundary based on local knowledge" />
		<tag k="ssr:stedsnr" v="754051" />
		<tag k="ssr:type" v="fjellområde" />
		<nd ref="5814778348" />
		<nd ref="5814778347" />
		<nd ref="5814778346" />
		<nd ref="5814778345" />
		<nd ref="5814778344" />
		<nd ref="5814778343" />
		<nd ref="5814778342" />
		<nd ref="5814778348" />
	</way>
</osm>
