<?xml version="1.0" encoding="UTF-8"?>
<<<<<<< HEAD
<osm version="0.6" generator="osmapis">
	<node lat="61.39967500373482" lon="9.918827782283918" id="-18610">
		<tag k="highway" v="path" />
		<tag k="name" v="Leikvamsråket" />
		<tag k="ssr:stedsnr" v="234263" />
	</node>
	<node lat="61.6475555547537" lon="9.936500006640891" id="-18627">
		<tag k="highway" v="path" />
		<tag k="name" v="Krøklråket" />
		<tag k="ssr:stedsnr" v="234666" />
	</node>
	<node lat="61.488066664546956" lon="9.611094440457261" id="-18630">
		<tag k="highway" v="path" />
		<tag k="name" v="Essdalsråket" />
		<tag k="ssr:stedsnr" v="234756" />
	</node>
	<node lat="61.641980552477754" lon="9.941016665125424" id="-18669">
		<tag k="highway" v="path" />
		<tag k="name" v="Rabberåket" />
		<tag k="ssr:stedsnr" v="52621" />
	</node>
	<node lat="61.723830558184645" lon="9.981183333735355" id="-18691">
		<tag k="highway" v="path" />
		<tag k="name" v="Buflatråket" />
		<tag k="ssr:stedsnr" v="112527" />
	</node>
	<node lat="61.57914722123167" lon="9.961913886157934" id="-18706">
		<tag k="fixme" v="consider highway=path" />
		<tag k="highway" v="track" />
		<tag k="name" v="Beitdokkvegen" />
		<tag k="ssr:stedsnr" v="113316" />
	</node>
	<node lat="61.51928055264605" lon="9.933594443647621" id="-18709">
		<tag k="highway" v="path" />
		<tag k="name" v="Gammelskikjubakken" />
		<tag k="ssr:stedsnr" v="113212" />
	</node>
	<node lat="61.5479972183851" lon="10.040544445765072" id="-18832">
		<tag k="bridge" v="yes" />
		<tag k="layer" v="1" />
		<tag k="name" v="Frya" />
		<tag k="ssr:stedsnr" v="228037" />
	</node>
	<node lat="61.55596111029307" lon="9.94030278629391" id="-18833">
		<tag k="bridge" v="yes" />
		<tag k="layer" v="1" />
		<tag k="name" v="Hundorp" />
		<tag k="ssr:stedsnr" v="228044" />
	</node>
	<node lat="61.53353055391471" lon="9.976977786093386" id="-18880">
		<tag k="bridge" v="yes" />
		<tag k="layer" v="1" />
		<tag k="name" v="Fosså øvre" />
		<tag k="ssr:stedsnr" v="289028" />
	</node>
	<node lat="61.523261112105935" lon="9.956666667845267" id="-18884">
		<tag k="junction" v="yes" />
		<tag k="name" v="Stongbrunnet" />
		<tag k="place" v="locality" />
		<tag k="ssr:stedsnr" v="295022" />
	</node>
	<node lat="61.561455556669486" lon="9.79810276989022" id="-18892">
		<tag k="landuse" v="industrial" />
		<tag k="name" v="Nedre Vinstra kraftstasjon" />
		<tag k="power" v="plant" />
		<tag k="ssr:stedsnr" v="294976" />
	</node>
	<node lat="61.44739444790378" lon="9.99253333034209" id="-18899">
		<tag k="highway" v="path" />
		<tag k="name" v="Øvre Gravdalsråket" />
		<tag k="ssr:stedsnr" v="295492" />
	</node>
	<node lat="61.568924997905796" lon="9.84433611601062" id="-18925">
		<tag k="bridge" v="yes" />
		<tag k="layer" v="1" />
		<tag k="name" v="Skurdal" />
		<tag k="ssr:stedsnr" v="350054" />
	</node>
	<node lat="61.45073610850483" lon="9.425597218711015" id="-18972">
		<tag k="highway" v="path" />
		<tag k="name" v="Freksæterråket" />
		<tag k="ssr:stedsnr" v="477582" />
	</node>
	<node lat="61.648563886579886" lon="9.913999997285357" id="-19009">
		<tag k="highway" v="path" />
		<tag k="name" v="Tjønnråket" />
		<tag k="ssr:stedsnr" v="416602" />
	</node>
	<node lat="61.532049998993486" lon="9.836836101857184" id="-19085">
		<tag k="highway" v="path" />
		<tag k="name" v="Breiråket" />
		<tag k="ssr:stedsnr" v="477975" />
	</node>
	<node lat="61.50557221834416" lon="9.859752784125057" id="-19177">
=======
<osm generator="osmapis" version="0.6">
	<node id="-375551" lat="61.4547999957" lon="9.93308611276">
>>>>>>> e1d4bc35ff8a6074a6f2e91616a996b547c36f15
		<tag k="highway" v="path" />
		<tag k="name" v="Langvassdalråket" />
		<tag k="ssr:stedsnr" v="598566" />
	</node>
	<node lat="61.649305552510754" lon="9.9474944513509" id="-19180">
		<tag k="highway" v="path" />
		<tag k="name" v="Hettråket" />
		<tag k="ssr:stedsnr" v="598654" />
	</node>
<<<<<<< HEAD
	<node lat="61.55991666821912" lon="9.901669445973809" id="-19214">
=======
	<node id="-375678" lat="61.5480749993" lon="10.0311055626">
>>>>>>> e1d4bc35ff8a6074a6f2e91616a996b547c36f15
		<tag k="bridge" v="yes" />
		<tag k="layer" v="1" />
		<tag k="name" v="Haugland" />
		<tag k="ssr:stedsnr" v="653033" />
	</node>
	<node lat="61.744419448804805" lon="9.984888885125697" id="-19249">
		<tag k="highway" v="path" />
		<tag k="name" v="Stegaråket" />
		<tag k="ssr:stedsnr" v="659542" />
	</node>
	<node lat="61.57020555378134" lon="9.968044437853552" id="-19254">
		<tag k="fixme" v="consider highway=path" />
		<tag k="highway" v="track" />
		<tag k="name" v="Beitdokkvegen" />
		<tag k="ssr:stedsnr" v="659843" />
	</node>
	<node lat="61.570813889432685" lon="9.919272227115249" id="-19287">
		<tag k="bridge" v="yes" />
		<tag k="layer" v="1" />
		<tag k="name" v="Brandrud" />
		<tag k="ssr:stedsnr" v="896026" />
	</node>
<<<<<<< HEAD
	<node lat="61.73794999616255" lon="9.990116663931747" id="-19391">
=======
	<node id="-374293" lat="61.4880666645" lon="9.61109444046">
		<tag k="highway" v="path" />
		<tag k="name" v="Essdalsråket" />
		<tag k="ssr:stedsnr" v="234756" />
	</node>
	<node id="-375932" lat="61.7379499962" lon="9.99011666393">
>>>>>>> e1d4bc35ff8a6074a6f2e91616a996b547c36f15
		<tag k="highway" v="path" />
		<tag k="name" v="Tombakk" />
		<tag k="ssr:stedsnr" v="780489" />
	</node>
<<<<<<< HEAD
	<node lat="61.50221944364884" lon="10.016713888917378" id="-19449">
=======
	<node id="-375802" lat="61.450002775" lon="9.97387500912">
>>>>>>> e1d4bc35ff8a6074a6f2e91616a996b547c36f15
		<tag k="highway" v="path" />
		<tag k="name" v="Øvre Ormsæterråket" />
		<tag k="ssr:stedsnr" v="841333" />
	</node>
<<<<<<< HEAD
	<node lat="61.4382416666027" lon="9.968008339203157" id="-19452">
=======
	<node id="-374399" lat="61.5337194416" lon="10.0138749973">
		<tag k="junction" v="yes" />
		<tag k="name" v="Heggesvingen" />
		<tag k="place" v="locality" />
		<tag k="ssr:stedsnr" v="99663" />
	</node>
	<node id="-374260" lat="61.3996750037" lon="9.91882778228">
>>>>>>> e1d4bc35ff8a6074a6f2e91616a996b547c36f15
		<tag k="highway" v="path" />
		<tag k="name" v="Nedre Gråsteinråket" />
		<tag k="ssr:stedsnr" v="841280" />
	</node>
<<<<<<< HEAD
	<node lat="61.58164722087544" lon="9.841955552675712" id="-19481">
		<tag k="landuse" v="industrial" />
		<tag k="name" v="Harpefossen kraftstasjon" />
		<tag k="power" v="plant" />
		<tag k="ssr:stedsnr" v="902067" />
	</node>
	<node lat="61.44324167064822" lon="9.886630546431906" id="-19490">
=======
	<node id="-375230" lat="61.5350361114" lon="9.97731666449">
		<tag k="bridge" v="yes" />
		<tag k="layer" v="1" />
		<tag k="name" v="Fosså nedre" />
		<tag k="ssr:stedsnr" v="46025" />
	</node>
	<node id="-375407" lat="61.5888249974" lon="9.88576388745">
>>>>>>> e1d4bc35ff8a6074a6f2e91616a996b547c36f15
		<tag k="highway" v="path" />
		<tag k="name" v="Lauvåsråket" />
		<tag k="ssr:stedsnr" v="902514" />
	</node>
	<node lat="61.5201277769555" lon="9.93413612039557" id="-19534">
		<tag k="fixme" v="consider highway=path" />
		<tag k="highway" v="track" />
		<tag k="name" v="Sørensenvegen" />
		<tag k="ssr:stedsnr" v="962208" />
	</node>
<<<<<<< HEAD
	<node lat="61.4916388909745" lon="9.747155564244602" id="-19542">
		<tag k="highway" v="path" />
		<tag k="name" v="Stigen" />
		<tag k="ssr:stedsnr" v="962134" />
	</node>
	<node lat="61.64037222132072" lon="9.940491668537069" id="-19552">
		<tag k="highway" v="path" />
		<tag k="name" v="Varåket" />
		<tag k="ssr:stedsnr" v="962634" />
	</node>
	<node lat="61.53503611138525" lon="9.977316664490298" id="-19601">
=======
	<node id="-375918" lat="61.6077833296" lon="9.91067223041">
		<tag k="ford" v="yes" />
		<tag k="name" v="Rørosvadet" />
		<tag k="place" v="locality" />
		<tag k="ssr:stedsnr" v="780319" />
	</node>
	<node id="-375528" lat="61.5689249979" lon="9.84433611601">
>>>>>>> e1d4bc35ff8a6074a6f2e91616a996b547c36f15
		<tag k="bridge" v="yes" />
		<tag k="layer" v="1" />
		<tag k="name" v="Fosså nedre" />
		<tag k="ssr:stedsnr" v="46025" />
	</node>
<<<<<<< HEAD
	<node lat="61.43274166693109" lon="9.902725000363626" id="-19631">
		<tag k="highway" v="path" />
		<tag k="name" v="Kantliråket" />
		<tag k="ssr:stedsnr" v="52252" />
	</node>
	<node lat="61.44058332941305" lon="9.976050007167172" id="-19632">
		<tag k="highway" v="path" />
		<tag k="name" v="Øvre Gråsteinråket" />
		<tag k="ssr:stedsnr" v="52255" />
	</node>
	<node lat="61.57259166245837" lon="10.013216663350086" id="-19650">
=======
	<node id="-375527" lat="61.5776250009" lon="9.85693056362">
		<tag k="bridge" v="yes" />
		<tag k="layer" v="1" />
		<tag k="name" v="Skoglyporten" />
		<tag k="ssr:stedsnr" v="350052" />
	</node>
	<node id="-375270" lat="61.5725916625" lon="10.0132166634">
>>>>>>> e1d4bc35ff8a6074a6f2e91616a996b547c36f15
		<tag k="highway" v="path" />
		<tag k="name" v="Bakselabakken" />
		<tag k="ssr:stedsnr" v="52932" />
	</node>
<<<<<<< HEAD
	<node lat="61.53371944158805" lon="10.01387499732575" id="-19688">
		<tag k="junction" v="yes" />
		<tag k="name" v="Heggesvingen" />
		<tag k="place" v="locality" />
		<tag k="ssr:stedsnr" v="99663" />
	</node>
	<node lat="61.58577222672006" lon="9.83967222005159" id="-19701">
=======
	<node id="-374289" lat="61.6475555548" lon="9.93650000664">
		<tag k="highway" v="path" />
		<tag k="name" v="Krøklråket" />
		<tag k="ssr:stedsnr" v="234666" />
	</node>
	<node id="-375395" lat="61.4771305589" lon="9.42891389287">
>>>>>>> e1d4bc35ff8a6074a6f2e91616a996b547c36f15
		<tag k="highway" v="path" />
		<tag k="name" v="Skarsvegen" />
		<tag k="ssr:stedsnr" v="113061" />
	</node>
<<<<<<< HEAD
	<node lat="61.4391444428102" lon="9.972427768697097" id="-19713">
=======
	<node id="-374602" lat="61.5688500014" lon="9.84472778695">
		<tag k="bridge" v="yes" />
		<tag k="layer" v="1" />
		<tag k="name" v="Jota" />
		<tag k="ssr:stedsnr" v="350027" />
	</node>
	<node id="-375648" lat="61.5497999987" lon="9.7906250016">
>>>>>>> e1d4bc35ff8a6074a6f2e91616a996b547c36f15
		<tag k="highway" v="path" />
		<tag k="name" v="Midtre Gråsteinråket" />
		<tag k="ssr:stedsnr" v="113263" />
	</node>
<<<<<<< HEAD
	<node lat="61.588824997404636" lon="9.885763887449997" id="-19767">
		<tag k="highway" v="path" />
		<tag k="name" v="Timmerkleiva" />
		<tag k="ssr:stedsnr" v="173114" />
	</node>
	<node lat="61.46400555390873" lon="9.967630561797566" id="-19782">
=======
	<node id="-374751" lat="61.5702055538" lon="9.96804443785">
		<tag k="fixme" v="consider highway=path" />
		<tag k="highway" v="track" />
		<tag k="name" v="Beitdokkvegen" />
		<tag k="ssr:stedsnr" v="659843" />
	</node>
	<node id="-375390" lat="61.4640055539" lon="9.9676305618">
>>>>>>> e1d4bc35ff8a6074a6f2e91616a996b547c36f15
		<tag k="highway" v="path" />
		<tag k="name" v="Nysæterråket" />
		<tag k="ssr:stedsnr" v="173435" />
	</node>
<<<<<<< HEAD
	<node lat="61.47713055890813" lon="9.428913892874645" id="-19786">
		<tag k="highway" v="path" />
		<tag k="name" v="Sagbordvegen" />
		<tag k="ssr:stedsnr" v="173499" />
	</node>
	<node lat="61.56885000135257" lon="9.844727786952962" id="-19887">
		<tag k="bridge" v="yes" />
		<tag k="layer" v="1" />
		<tag k="name" v="Jota" />
		<tag k="ssr:stedsnr" v="350027" />
	</node>
	<node lat="61.57762500090102" lon="9.856930563615387" id="-19888">
=======
	<node id="-375162" lat="61.520127777" lon="9.9341361204">
		<tag k="fixme" v="consider highway=path" />
		<tag k="highway" v="track" />
		<tag k="name" v="Sørensenvegen" />
		<tag k="ssr:stedsnr" v="962208" />
	</node>
	<node id="-375130" lat="61.4432416706" lon="9.88663054643">
		<tag k="highway" v="path" />
		<tag k="name" v="Lauvåsråket" />
		<tag k="ssr:stedsnr" v="902514" />
	</node>
	<node id="-376025" lat="61.5022194436" lon="10.0167138889">
		<tag k="highway" v="path" />
		<tag k="name" v="Øvre Ormsæterråket" />
		<tag k="ssr:stedsnr" v="841333" />
	</node>
	<node id="-375332" lat="61.4391444428" lon="9.9724277687">
		<tag k="highway" v="path" />
		<tag k="name" v="Midtre Gråsteinråket" />
		<tag k="ssr:stedsnr" v="113263" />
	</node>
	<node id="-374230" lat="61.5479972184" lon="10.0405444458">
>>>>>>> e1d4bc35ff8a6074a6f2e91616a996b547c36f15
		<tag k="bridge" v="yes" />
		<tag k="layer" v="1" />
		<tag k="name" v="Skoglyporten" />
		<tag k="ssr:stedsnr" v="350052" />
	</node>
<<<<<<< HEAD
	<node lat="61.454799995687786" lon="9.933086112759812" id="-19904">
=======
	<node id="-376021" lat="61.4382416666" lon="9.9680083392">
>>>>>>> e1d4bc35ff8a6074a6f2e91616a996b547c36f15
		<tag k="highway" v="path" />
		<tag k="name" v="Vendalsråket" />
		<tag k="ssr:stedsnr" v="355432" />
	</node>
<<<<<<< HEAD
	<node lat="61.654616669812945" lon="9.963552780173709" id="-19911">
		<tag k="barrier" v="lift_gate" />
		<tag k="name" v="Jonslykkja" />
		<tag k="place" v="locality" />
		<tag k="ssr:stedsnr" v="355534" />
	</node>
	<node lat="61.426005555265206" lon="9.68353888690674" id="-19917">
		<tag k="highway" v="path" />
		<tag k="name" v="Vinterråket" />
		<tag k="ssr:stedsnr" v="355840" />
	</node>
	<node lat="61.53756110937377" lon="9.979416662710527" id="-19956">
		<tag k="bridge" v="yes" />
		<tag k="layer" v="1" />
		<tag k="name" v="Lidarende" />
		<tag k="ssr:stedsnr" v="410030" />
	</node>
	<node lat="61.495697226321525" lon="10.017444441069602" id="-19961">
		<tag k="highway" v="path" />
		<tag k="name" v="Nedre Ormsæterråket" />
		<tag k="ssr:stedsnr" v="416320" />
	</node>
	<node lat="61.5497999987253" lon="9.790625001601434" id="-19994">
		<tag k="highway" v="path" />
		<tag k="name" v="Svartdalsvegen" />
		<tag k="ssr:stedsnr" v="416921" />
	</node>
	<node lat="61.54807499929545" lon="10.031105562620453" id="-20039">
		<tag k="bridge" v="yes" />
		<tag k="layer" v="1" />
		<tag k="name" v="Forr" />
		<tag k="ssr:stedsnr" v="532034" />
	</node>
	<node lat="61.765616670339256" lon="9.993702786369134" id="-20051">
=======
	<node id="-374867" lat="61.6493055525" lon="9.94749445135">
		<tag k="highway" v="path" />
		<tag k="name" v="Hettråket" />
		<tag k="ssr:stedsnr" v="598654" />
	</node>
	<node id="-374478" lat="61.5232611121" lon="9.95666666785">
		<tag k="junction" v="yes" />
		<tag k="name" v="Stongbrunnet" />
		<tag k="place" v="locality" />
		<tag k="ssr:stedsnr" v="295022" />
	</node>
	<node id="-374860" lat="61.5550083369" lon="9.90368333653">
		<tag k="bridge" v="yes" />
		<tag k="layer" v="1" />
		<tag k="name" v="Ulberg" />
		<tag k="ssr:stedsnr" v="714052" />
	</node>
	<node id="-374474" lat="61.5614555567" lon="9.79810276989">
		<tag k="landuse" v="industrial" />
		<tag k="name" v="Nedre Vinstra kraftstasjon" />
		<tag k="power" v="plant" />
		<tag k="ssr:stedsnr" v="294976" />
	</node>
	<node id="-374727" lat="61.7444194488" lon="9.98488888513">
>>>>>>> e1d4bc35ff8a6074a6f2e91616a996b547c36f15
		<tag k="highway" v="path" />
		<tag k="name" v="Vulutjønnråket" />
		<tag k="ssr:stedsnr" v="537536" />
	</node>
<<<<<<< HEAD
	<node lat="61.450002775042556" lon="9.973875009122" id="-20138">
=======
	<node id="-374598" lat="61.532049999" lon="9.83683610186">
>>>>>>> e1d4bc35ff8a6074a6f2e91616a996b547c36f15
		<tag k="highway" v="path" />
		<tag k="name" v="Gråsteinråket" />
		<tag k="ssr:stedsnr" v="598474" />
	</node>
<<<<<<< HEAD
	<node lat="61.55132499924297" lon="10.055624995493716" id="-20174">
		<tag k="bridge" v="yes" />
		<tag k="layer" v="1" />
		<tag k="name" v="Frya" />
		<tag k="ssr:stedsnr" v="652616" />
	</node>
	<node lat="61.57476666763956" lon="9.85651945207487" id="-20175">
		<tag k="bridge" v="yes" />
		<tag k="layer" v="1" />
		<tag k="name" v="Harpefoss" />
		<tag k="ssr:stedsnr" v="653034" />
	</node>
	<node lat="61.52630555438235" lon="9.908569441688908" id="-20181">
=======
	<node id="-374466" lat="61.5335305539" lon="9.97697778609">
		<tag k="bridge" v="yes" />
		<tag k="layer" v="1" />
		<tag k="name" v="Fosså øvre" />
		<tag k="ssr:stedsnr" v="289028" />
	</node>
	<node id="-374721" lat="61.5263055544" lon="9.90856944169">
>>>>>>> e1d4bc35ff8a6074a6f2e91616a996b547c36f15
		<tag k="highway" v="path" />
		<tag k="name" v="Gammelsætervegen" />
		<tag k="ssr:stedsnr" v="659229" />
	</node>
<<<<<<< HEAD
	<node lat="61.56447778182884" lon="9.906483338038504" id="-20217">
		<tag k="bridge" v="yes" />
		<tag k="layer" v="1" />
		<tag k="name" v="Breivegen" />
		<tag k="ssr:stedsnr" v="714037" />
	</node>
	<node lat="61.563930555205886" lon="9.93422778531823" id="-20218">
=======
	<node id="-376000" lat="61.5683416671" lon="9.83603889402">
		<tag k="bridge" v="yes" />
		<tag k="layer" v="1" />
		<tag k="name" v="Maurhaugen" />
		<tag k="ssr:stedsnr" v="835049" />
	</node>
	<node id="-375999" lat="61.5746027761" lon="9.86100000254">
		<tag k="bridge" v="yes" />
		<tag k="layer" v="1" />
		<tag k="name" v="Grøntuva" />
		<tag k="ssr:stedsnr" v="835032" />
	</node>
	<node id="-375998" lat="61.5728805583" lon="9.91295277401">
>>>>>>> e1d4bc35ff8a6074a6f2e91616a996b547c36f15
		<tag k="bridge" v="yes" />
		<tag k="layer" v="1" />
		<tag k="name" v="Jørstad" />
		<tag k="ssr:stedsnr" v="714039" />
	</node>
<<<<<<< HEAD
	<node lat="61.555008336943224" lon="9.903683336528463" id="-20219">
=======
	<node id="-374409" lat="61.5192805526" lon="9.93359444365">
		<tag k="highway" v="path" />
		<tag k="name" v="Gammelskikjubakken" />
		<tag k="ssr:stedsnr" v="113212" />
	</node>
	<node id="-375611" lat="61.5375611094" lon="9.97941666271">
>>>>>>> e1d4bc35ff8a6074a6f2e91616a996b547c36f15
		<tag k="bridge" v="yes" />
		<tag k="layer" v="1" />
		<tag k="name" v="Ulberg" />
		<tag k="ssr:stedsnr" v="714052" />
	</node>
<<<<<<< HEAD
	<node lat="61.60778332963978" lon="9.910672230407934" id="-20283">
		<tag k="ford" v="yes" />
		<tag k="name" v="Rørosvadet" />
		<tag k="place" v="locality" />
		<tag k="ssr:stedsnr" v="780319" />
	</node>
	<node lat="61.57288055834569" lon="9.912952774013736" id="-20351">
=======
	<node id="-375861" lat="61.5747666676" lon="9.85651945207">
>>>>>>> e1d4bc35ff8a6074a6f2e91616a996b547c36f15
		<tag k="bridge" v="yes" />
		<tag k="layer" v="1" />
		<tag k="name" v="Augla" />
		<tag k="ssr:stedsnr" v="835030" />
	</node>
<<<<<<< HEAD
	<node lat="61.57460277605022" lon="9.86100000253827" id="-20352">
=======
	<node id="-375860" lat="61.5599166682" lon="9.90166944597">
>>>>>>> e1d4bc35ff8a6074a6f2e91616a996b547c36f15
		<tag k="bridge" v="yes" />
		<tag k="layer" v="1" />
		<tag k="name" v="Grøntuva" />
		<tag k="ssr:stedsnr" v="835032" />
	</node>
<<<<<<< HEAD
	<node lat="61.56834166708985" lon="9.83603889401573" id="-20353">
=======
	<node id="-375859" lat="61.5513249992" lon="10.0556249955">
>>>>>>> e1d4bc35ff8a6074a6f2e91616a996b547c36f15
		<tag k="bridge" v="yes" />
		<tag k="layer" v="1" />
		<tag k="name" v="Maurhaugen" />
		<tag k="ssr:stedsnr" v="835049" />
	</node>
<<<<<<< HEAD
	<node lat="61.478894441858706" lon="10.01990833313769" id="-20367">
=======
	<node id="-374578" lat="61.4507361085" lon="9.42559721871">
>>>>>>> e1d4bc35ff8a6074a6f2e91616a996b547c36f15
		<tag k="highway" v="path" />
		<tag k="name" v="Søljudokkråket" />
		<tag k="ssr:stedsnr" v="841365" />
	</node>
<<<<<<< HEAD
	<node lat="61.46161944005262" lon="9.963355559603338" id="-20376">
		<tag k="highway" v="path" />
		<tag k="name" v="Svarttjønnråket" />
		<tag k="ssr:stedsnr" v="841472" />
	</node>
	<node lat="61.42458055900863" lon="9.528058335681935" id="-20437">
		<tag k="bridge" v="yes" />
		<tag k="layer" v="1" />
		<tag k="name" v="Sprena" />
		<tag k="ssr:stedsnr" v="957057" />
	</node>
	<node lat="61.5805805599781" lon="9.94265556364815" id="-20448">
		<tag k="junction" v="yes" />
		<tag k="name" v="Vegaskjelet" />
		<tag k="place" v="locality" />
		<tag k="ssr:stedsnr" v="962295" />
	</node>
	<node lat="61.59063611010161" lon="9.9496916614112" id="-20451">
		<tag k="junction" v="yes" />
		<tag k="name" v="Korsbakk" />
		<tag k="place" v="locality" />
		<tag k="ssr:stedsnr" v="962303" />
	</node>
	<node lat="61.45021111524664" lon="9.995786102249767" id="-20457">
=======
	<node id="-376111" lat="61.6403722213" lon="9.94049166854">
		<tag k="highway" v="path" />
		<tag k="name" v="Varåket" />
		<tag k="ssr:stedsnr" v="962634" />
	</node>
	<node id="-374958" lat="61.5708138894" lon="9.91927222712">
		<tag k="bridge" v="yes" />
		<tag k="layer" v="1" />
		<tag k="name" v="Brandrud" />
		<tag k="ssr:stedsnr" v="896026" />
	</node>
	<node id="-374957" lat="61.5639305552" lon="9.93422778532">
		<tag k="bridge" v="yes" />
		<tag k="layer" v="1" />
		<tag k="name" v="Jørstad" />
		<tag k="ssr:stedsnr" v="714039" />
	</node>
	<node id="-374336" lat="61.4405833294" lon="9.97605000717">
		<tag k="highway" v="path" />
		<tag k="name" v="Øvre Gråsteinråket" />
		<tag k="ssr:stedsnr" v="52255" />
	</node>
	<node id="-374343" lat="61.6419805525" lon="9.94101666513">
		<tag k="highway" v="path" />
		<tag k="name" v="Rabberåket" />
		<tag k="ssr:stedsnr" v="52621" />
	</node>
	<node id="-376100" lat="61.4502111152" lon="9.99578610225">
		<tag k="highway" v="path" />
		<tag k="name" v="Nedre Gravdalsråket" />
		<tag k="ssr:stedsnr" v="962477" />
	</node>
	<node id="-374662" lat="61.4956972263" lon="10.0174444411">
		<tag k="highway" v="path" />
		<tag k="name" v="Nedre Ormsæterråket" />
		<tag k="ssr:stedsnr" v="416320" />
	</node>
	<node id="-375072" lat="61.4616194401" lon="9.9633555596">
		<tag k="highway" v="path" />
		<tag k="name" v="Svarttjønnråket" />
		<tag k="ssr:stedsnr" v="841472" />
	</node>
	<node id="-376095" lat="61.58058056" lon="9.94265556365">
		<tag k="junction" v="yes" />
		<tag k="name" v="Vegaskjelet" />
		<tag k="place" v="locality" />
		<tag k="ssr:stedsnr" v="962295" />
	</node>
	<node id="-375325" lat="61.5857722267" lon="9.83967222005">
		<tag k="highway" v="path" />
		<tag k="name" v="Skarsvegen" />
		<tag k="ssr:stedsnr" v="113061" />
	</node>
	<node id="-376092" lat="61.491638891" lon="9.74715556424">
		<tag k="highway" v="path" />
		<tag k="name" v="Stigen" />
		<tag k="ssr:stedsnr" v="962134" />
	</node>
	<node id="-375064" lat="61.4788944419" lon="10.0199083331">
		<tag k="highway" v="path" />
		<tag k="name" v="Søljudokkråket" />
		<tag k="ssr:stedsnr" v="841365" />
	</node>
	<node id="-375318" lat="61.7238305582" lon="9.98118333374">
		<tag k="highway" v="path" />
		<tag k="name" v="Buflatråket" />
		<tag k="ssr:stedsnr" v="112527" />
	</node>
	<node id="-375573" lat="61.4260055553" lon="9.68353888691">
		<tag k="highway" v="path" />
		<tag k="name" v="Vinterråket" />
		<tag k="ssr:stedsnr" v="355840" />
	</node>
	<node id="-374510" lat="61.4473944479" lon="9.99253333034">
		<tag k="highway" v="path" />
		<tag k="name" v="Øvre Gravdalsråket" />
		<tag k="ssr:stedsnr" v="295492" />
	</node>
	<node id="-374418" lat="61.5791472212" lon="9.96191388616">
		<tag k="fixme" v="consider highway=path" />
		<tag k="highway" v="track" />
		<tag k="name" v="Beitdokkvegen" />
		<tag k="ssr:stedsnr" v="113316" />
	</node>
	<node id="-375697" lat="61.7656166703" lon="9.99370278637">
		<tag k="highway" v="path" />
		<tag k="name" v="Vulutjønnråket" />
		<tag k="ssr:stedsnr" v="537536" />
	</node>
	<node id="-374231" lat="61.5559611103" lon="9.94030278629">
		<tag k="bridge" v="yes" />
		<tag k="layer" v="1" />
		<tag k="name" v="Hundorp" />
		<tag k="ssr:stedsnr" v="228044" />
	</node>
	<node id="-374335" lat="61.4327416669" lon="9.90272500036">
>>>>>>> e1d4bc35ff8a6074a6f2e91616a996b547c36f15
		<tag k="highway" v="path" />
		<tag k="name" v="Kantliråket" />
		<tag k="ssr:stedsnr" v="52252" />
	</node>
	<node id="-375106" lat="61.5816472209" lon="9.84195555268">
		<tag k="landuse" v="industrial" />
		<tag k="name" v="Harpefossen kraftstasjon" />
		<tag k="power" v="plant" />
		<tag k="ssr:stedsnr" v="902067" />
	</node>
	<node id="-376074" lat="61.424580559" lon="9.52805833568">
		<tag k="bridge" v="yes" />
		<tag k="layer" v="1" />
		<tag k="name" v="Sprena" />
		<tag k="ssr:stedsnr" v="957057" />
	</node>
	<node id="-374871" lat="61.5055722183" lon="9.85975278413">
		<tag k="highway" v="path" />
		<tag k="name" v="Langvassdalråket" />
		<tag k="ssr:stedsnr" v="598566" />
	</node>
	<node id="-374956" lat="61.5644777818" lon="9.90648333804">
		<tag k="bridge" v="yes" />
		<tag k="layer" v="1" />
		<tag k="name" v="Breivegen" />
		<tag k="ssr:stedsnr" v="714037" />
	</node>
	<node id="-375558" lat="61.6546166698" lon="9.96355278017">
		<tag k="barrier" v="lift_gate" />
		<tag k="name" v="Jonslykkja" />
		<tag k="place" v="locality" />
		<tag k="ssr:stedsnr" v="355534" />
	</node>
	<node id="-375170" lat="61.5906361101" lon="9.94969166141">
		<tag k="junction" v="yes" />
		<tag k="name" v="Korsbakk" />
		<tag k="place" v="locality" />
		<tag k="ssr:stedsnr" v="962303" />
	</node>
	<node id="-374667" lat="61.6485638866" lon="9.91399999729">
		<tag k="highway" v="path" />
		<tag k="name" v="Tjønnråket" />
		<tag k="ssr:stedsnr" v="416602" />
	</node>
</osm>
