<?xml version="1.0" encoding="UTF-8"?>
<osm version="0.6" generator="osmapis">
	<node lat="61.46562500135732" lon="9.50112499854731" id="-22653">
		<tag k="alt_name" v="Ryta, vesle" />
		<tag k="name" v="Vesle Ryta" />
		<tag k="ssr:stedsnr" v="8410" />
		<tag k="waterway" v="stream" />
	</node>
	<node lat="61.36609166996886" lon="9.42654443958316" id="-22656">
		<tag k="name" v="Brenntjønnin" />
		<tag k="natural" v="water" />
		<tag k="ssr:stedsnr" v="8478" />
		<tag k="water" v="lake" />
	</node>
	<node lat="61.42933889090858" lon="9.916402770878904" id="-22659">
		<tag k="alt_name" v="Amundtjørna" />
		<tag k="name" v="Ommundtjønna" />
		<tag k="natural" v="water" />
		<tag k="ssr:stedsnr" v="8360" />
	</node>
	<node lat="61.433786107398134" lon="9.770930564705475" id="-22660">
		<tag k="alt_name" v="Kristentjørna" />
		<tag k="name" v="Kristentjønna" />
		<tag k="natural" v="water" />
		<tag k="ssr:stedsnr" v="8361" />
	</node>
	<node lat="61.39097500157565" lon="9.700027777594622" id="-22661">
		<tag k="name" v="Gryta" />
		<tag k="ssr:stedsnr" v="8395" />
		<tag k="waterway" v="stream" />
	</node>
	<node lat="61.55669444811208" lon="9.773016663337705" id="-22665">
		<tag k="alt_name" v="Jora" />
		<tag k="name" v="Jorda" />
		<tag k="ssr:stedsnr" v="10616" />
		<tag k="waterway" v="stream" />
	</node>
	<node lat="61.56162500402792" lon="9.92234999714069" id="-22669">
		<tag k="name" v="Kviksøya" />
		<tag k="place" v="islet" />
		<tag k="ssr:stedsnr" v="10891" />
	</node>
	<node lat="61.545997220357684" lon="9.988358325718158" id="-22686">
		<tag k="name" v="Jetlundsanda" />
		<tag k="place" v="islet" />
		<tag k="ssr:stedsnr" v="234219" />
	</node>
	<node lat="61.53078333347486" lon="10.016669451306152" id="-22687">
		<tag k="name" v="Storbekken" />
		<tag k="ssr:stedsnr" v="234316" />
		<tag k="waterway" v="stream" />
	</node>
	<node lat="61.49003055198612" lon="10.0054805617186" id="-22695">
		<tag k="name" v="Dalaholmen" />
		<tag k="place" v="islet" />
		<tag k="ssr:stedsnr" v="234345" />
	</node>
	<node lat="61.42733888780757" lon="9.509508327482177" id="-22706">
		<tag k="name" v="Gråndalsnebbin" />
		<tag k="natural" v="cape" />
		<tag k="ssr:stedsnr" v="234616" />
	</node>
	<node lat="61.43849721858704" lon="9.491447218073759" id="-22709">
		<tag k="name" v="Valdresvika" />
		<tag k="natural" v="bay" />
		<tag k="ssr:stedsnr" v="234624" />
	</node>
	<node lat="61.54000833028253" lon="9.817111115921426" id="-22724">
		<tag k="name" v="Skodalsåa" />
		<tag k="ssr:stedsnr" v="234954" />
		<tag k="waterway" v="stream" />
	</node>
	<node lat="61.48829166458577" lon="10.018625008505735" id="-22741">
		<tag k="name" v="Langholmen" />
		<tag k="place" v="islet" />
		<tag k="ssr:stedsnr" v="52316" />
	</node>
	<node lat="61.51720833230836" lon="9.816252770586827" id="-22749">
		<tag k="name" v="Gålålandet" />
		<tag k="natural" v="beach" />
		<tag k="ssr:stedsnr" v="52582" />
	</node>
	<node lat="61.70207500132568" lon="9.954430552288393" id="-22752">
		<tag k="name" v="Fryfallet" />
		<tag k="natural" v="waterfall" />
		<tag k="ssr:stedsnr" v="52716" />
	</node>
	<node lat="61.487763890297444" lon="9.851113894341513" id="-22759">
		<tag k="name" v="Hellåbekken" />
		<tag k="ssr:stedsnr" v="69281" />
		<tag k="waterway" v="stream" />
	</node>
	<node lat="61.48673333750363" lon="9.868269438496402" id="-22760">
		<tag k="alt_name" v="Andortjørna" />
		<tag k="name" v="Andortjønna" />
		<tag k="natural" v="water" />
		<tag k="ssr:stedsnr" v="69282" />
	</node>
	<node lat="61.48951110906195" lon="9.838569449333631" id="-22761">
		<tag k="alt_name" v="Steinbutjørna" />
		<tag k="name" v="Steinbutjønna" />
		<tag k="natural" v="water" />
		<tag k="ssr:stedsnr" v="69283" />
	</node>
	<node lat="61.35046012174083" lon="9.3151522843599" id="-22764">
		<tag k="alt_name" v="Hersjøen, nedre;Hersjøen" />
		<tag k="name" v="Nedre Hersjøen" />
		<tag k="natural" v="water" />
		<tag k="ssr:stedsnr" v="69479" />
		<tag k="water" v="lake" />
	</node>
	<node lat="61.45790555370553" lon="9.51461944082474" id="-22765">
		<tag k="name" v="Måsåtjønna" />
		<tag k="natural" v="water" />
		<tag k="ssr:stedsnr" v="69387" />
	</node>
	<node lat="61.541130558527364" lon="9.885297229973522" id="-22771">
		<tag k="name" v="Ulbergsåa" />
		<tag k="ssr:stedsnr" v="71922" />
		<tag k="waterway" v="stream" />
	</node>
	<node lat="61.52709166617481" lon="9.897130559295077" id="-22772">
		<tag k="name" v="Nørdre Bladtjønna" />
		<tag k="natural" v="water" />
		<tag k="ssr:stedsnr" v="71926" />
	</node>
	<node lat="61.51935277450642" lon="9.817036119001209" id="-22773">
		<tag k="name" v="Svintjønna" />
		<tag k="natural" v="water" />
		<tag k="ssr:stedsnr" v="71935" />
	</node>
	<node lat="61.59534444386904" lon="9.922358333821295" id="-22784">
		<tag k="name" v="Øvre Fallet" />
		<tag k="natural" v="waterfall" />
		<tag k="ssr:stedsnr" v="113121" />
	</node>
	<node lat="61.487758331413154" lon="9.749380560600622" id="-22785">
		<tag k="name" v="Sygardsodden" />
		<tag k="natural" v="cape" />
		<tag k="ssr:stedsnr" v="113123" />
	</node>
	<node lat="61.41154166241954" lon="9.936050002466457" id="-22799">
		<tag k="name" v="Hovsæterdammen" />
		<tag k="ssr:stedsnr" v="113276" />
		<tag k="waterway" v="dam" />
	</node>
	<node lat="61.48398055676717" lon="9.437102771487114" id="-22800">
		<tag k="name" v="Øvre Dyrtjønna" />
		<tag k="natural" v="water" />
		<tag k="ssr:stedsnr" v="113503" />
	</node>
	<node lat="61.88402499959947" lon="10.116241672734557" id="-22805">
		<tag k="name" v="Veslebuvika" />
		<tag k="natural" v="bay" />
		<tag k="ssr:stedsnr" v="113578" />
	</node>
	<node lat="61.43477221798799" lon="9.624066660806351" id="-22814">
		<tag k="name" v="Storholmen" />
		<tag k="ssr:stedsnr" v="113774" />
		<tag k="waterway" v="stream" />
	</node>
	<node lat="61.41181111221177" lon="9.655594440657582" id="-22817">
		<tag k="alt_name" v="Gryttjørnin" />
		<tag k="name" v="Nedre Gryttjønnin" />
		<tag k="natural" v="water" />
		<tag k="ssr:stedsnr" v="250310" />
	</node>
	<node lat="61.410449996846566" lon="9.676711105666273" id="-22818">
		<tag k="name" v="Grytbekken" />
		<tag k="ssr:stedsnr" v="250326" />
		<tag k="waterway" v="stream" />
	</node>
	<node lat="61.408252779502405" lon="9.900552782902508" id="-22820">
		<tag k="name" v="Gåsa" />
		<tag k="ssr:stedsnr" v="250361" />
		<tag k="waterway" v="stream" />
	</node>
	<node lat="61.48223055962546" lon="9.854586104078889" id="-22822">
		<tag k="name" v="Jetningselva" />
		<tag k="ssr:stedsnr" v="251336" />
		<tag k="waterway" v="stream" />
	</node>
	<node lat="61.45175000120652" lon="9.723988897592507" id="-22824">
		<tag k="alt_name" v="Håkåsæterelva" />
		<tag k="name" v="Håkåsæteråa" />
		<tag k="ssr:stedsnr" v="251312" />
		<tag k="waterway" v="stream" />
	</node>
	<node lat="61.46004721928674" lon="9.944530562993842" id="-22825">
		<tag k="alt_name" v="Svarttjørnin, in" />
		<tag k="name" v="Indre Svarttjønna" />
		<tag k="natural" v="water" />
		<tag k="ssr:stedsnr" v="251316" />
	</node>
	<node lat="61.43597352183363" lon="9.6212855517204" id="-22829">
		<tag k="alt_name" v="Børkdalsvatnet, øvre" />
		<tag k="name" v="Øvre Børkdalsvatnet" />
		<tag k="natural" v="water" />
		<tag k="old_name" v="Øvre Bjørkdalsvatnet" />
		<tag k="ssr:stedsnr" v="251359" />
		<tag k="water" v="lake" />
	</node>
	<node lat="61.352611113944675" lon="9.39770554829236" id="-22835">
		<tag k="name" v="Raudgrova" />
		<tag k="ssr:stedsnr" v="251454" />
		<tag k="waterway" v="stream" />
	</node>
	<node lat="61.386833334275146" lon="9.3936416625947" id="-22836">
		<tag k="name" v="Svartbekken" />
		<tag k="ssr:stedsnr" v="251473" />
		<tag k="waterway" v="stream" />
	</node>
	<node lat="61.493686113336814" lon="9.992136114972654" id="-22837">
		<tag k="name" v="Svarttjønn" />
		<tag k="natural" v="water" />
		<tag k="ssr:stedsnr" v="251544" />
	</node>
	<node lat="61.4533883142675" lon="9.84446113437846" id="-22841">
		<tag k="name" v="Øyangen" />
		<tag k="natural" v="water" />
		<tag k="ssr:stedsnr" v="129303" />
		<tag k="water" v="lake" />
	</node>
	<node lat="61.480519445617006" lon="9.680183339766634" id="-22842">
		<tag k="name" v="Fagerlivatnet" />
		<tag k="natural" v="water" />
		<tag k="ssr:stedsnr" v="129305" />
		<tag k="water" v="lake" />
	</node>
	<node lat="61.47695000115273" lon="9.758966667088613" id="-22843">
		<tag k="name" v="Trilta" />
		<tag k="ssr:stedsnr" v="129309" />
		<tag k="waterway" v="stream" />
	</node>
	<node lat="61.414316665795155" lon="9.951822222533895" id="-22847">
		<tag k="alt_name" v="Larvheitjørnin" />
		<tag k="name" v="Larveheitjønnin" />
		<tag k="natural" v="water" />
		<tag k="ssr:stedsnr" v="129327" />
		<tag k="water" v="lake" />
	</node>
	<node lat="61.4339944473098" lon="9.790713892050594" id="-22851">
		<tag k="alt_name" v="Årstultjørnin" />
		<tag k="name" v="Søre Årstultjønnin" />
		<tag k="natural" v="water" />
		<tag k="ssr:stedsnr" v="129344" />
	</node>
	<node lat="61.883505556694786" lon="10.023724991318748" id="-22854">
		<tag k="name" v="Musvoltjønna" />
		<tag k="natural" v="water" />
		<tag k="ssr:stedsnr" v="252540" />
	</node>
	<node lat="61.44319346806407" lon="9.555814240377167" id="-22855">
		<tag k="name" v="Sprentjønnin" />
		<tag k="natural" v="water" />
		<tag k="ssr:stedsnr" v="130379" />
		<tag k="water" v="lake" />
	</node>
	<node lat="61.879663890766665" lon="10.012716668943527" id="-22858">
		<tag k="name" v="Bergetjønna" />
		<tag k="natural" v="water" />
		<tag k="ssr:stedsnr" v="131580" />
	</node>
	<node lat="61.64128055301242" lon="9.925197221373622" id="-22863">
		<tag k="name" v="Kusårn" />
		<tag k="ssr:stedsnr" v="252703" />
		<tag k="waterway" v="stream" />
	</node>
	<node lat="61.72373611199675" lon="10.03045556236591" id="-22871">
		<tag k="name" v="Svartåa" />
		<tag k="ssr:stedsnr" v="253954" />
		<tag k="waterway" v="river" />
	</node>
	<node lat="61.5265153788384" lon="9.871280632542973" id="-22873">
		<tag k="name" v="Langvatnet" />
		<tag k="natural" v="water" />
		<tag k="ssr:stedsnr" v="253909" />
		<tag k="water" v="lake" />
	</node>
	<node lat="61.6045472188202" lon="9.969111111776662" id="-22888">
		<tag k="name" v="Standarstulbekken" />
		<tag k="ssr:stedsnr" v="173307" />
		<tag k="waterway" v="stream" />
	</node>
	<node lat="61.49596110724955" lon="10.022997227565355" id="-22889">
		<tag k="name" v="Lorttjønna" />
		<tag k="natural" v="water" />
		<tag k="ssr:stedsnr" v="173308" />
	</node>
	<node lat="61.881166667465465" lon="10.123313881147705" id="-22894">
		<tag k="name" v="Buvika" />
		<tag k="natural" v="bay" />
		<tag k="ssr:stedsnr" v="173570" />
	</node>
	<node lat="61.8802694419909" lon="10.161352779322547" id="-22895">
		<tag k="name" v="Nordre Tuven" />
		<tag k="natural" v="cape" />
		<tag k="ssr:stedsnr" v="173571" />
	</node>
	<node lat="61.88429722210657" lon="10.115000003177544" id="-22896">
		<tag k="name" v="Saujørnodden" />
		<tag k="natural" v="cape" />
		<tag k="ssr:stedsnr" v="173572" />
	</node>
	<node lat="61.44306944007192" lon="9.96957778285367" id="-22901">
		<tag k="name" v="Øvre Gråsteintjønna" />
		<tag k="natural" v="water" />
		<tag k="ssr:stedsnr" v="174315" />
	</node>
	<node lat="61.420290879286505" lon="9.834485235261534" id="-22902">
		<tag k="name" v="Sjutjønnin" />
		<tag k="natural" v="water" />
		<tag k="ssr:stedsnr" v="174524" />
		<tag k="water" v="lake" />
	</node>
	<node lat="61.54786944853575" lon="9.942366658159434" id="-22905">
		<tag k="loc_name" v="Rykkhustjønnin" />
		<tag k="name" v="Rykkhustjønna" />
		<tag k="natural" v="water" />
		<tag k="ssr:stedsnr" v="174619" />
	</node>
	<node lat="61.44881944063097" lon="9.621802786419758" id="-22909">
		<tag k="name" v="Massingbekken" />
		<tag k="ssr:stedsnr" v="190305" />
		<tag k="waterway" v="stream" />
	</node>
	<node lat="61.46926944215845" lon="9.654925001166893" id="-22910">
		<tag k="alt_name" v="Tverråtjørna" />
		<tag k="name" v="Tverråtjønna" />
		<tag k="natural" v="water" />
		<tag k="ssr:stedsnr" v="190319" />
	</node>
	<node lat="61.42522499755476" lon="9.95962777683621" id="-22911">
		<tag k="name" v="Knappbekken" />
		<tag k="ssr:stedsnr" v="190321" />
		<tag k="waterway" v="stream" />
	</node>
	<node lat="61.40920555374633" lon="9.741213889762712" id="-22914">
		<tag k="name" v="Svanåa" />
		<tag k="ssr:stedsnr" v="190372" />
		<tag k="waterway" v="stream" />
	</node>
	<node lat="61.52256666312504" lon="10.031436118244802" id="-22934">
		<tag k="name" v="Skotåa" />
		<tag k="ssr:stedsnr" v="234310" />
		<tag k="waterway" v="stream" />
	</node>
	<node lat="61.907794448971075" lon="10.072463887783883" id="-22941">
		<tag k="name" v="Steintjønna" />
		<tag k="natural" v="water" />
		<tag k="ssr:stedsnr" v="234584" />
	</node>
	<node lat="61.86102499911215" lon="10.118008339553997" id="-22944">
		<tag k="name" v="Hanstjønna" />
		<tag k="ssr:stedsnr" v="234602" />
		<tag k="waterway" v="stream" />
	</node>
	<node lat="61.41906666237713" lon="9.721869447193901" id="-22948">
		<tag k="name" v="Langodden" />
		<tag k="natural" v="cape" />
		<tag k="ssr:stedsnr" v="234806" />
	</node>
	<node lat="61.44223055370972" lon="9.559977773842373" id="-22951">
		<tag k="loc_name" v="Lange Sprentjønna" />
		<tag k="name" v="Lange Sprentjønnin" />
		<tag k="natural" v="water" />
		<tag k="ssr:stedsnr" v="234794" />
	</node>
	<node lat="61.55497777809847" lon="9.99982778263009" id="-22953">
		<tag k="name" v="Rudlandsbekken" />
		<tag k="ssr:stedsnr" v="234996" />
		<tag k="waterway" v="stream" />
	</node>
	<node lat="61.54151944373953" lon="10.007286109714853" id="-22962">
		<tag k="name" v="Olstadtjønna" />
		<tag k="natural" v="water" />
		<tag k="ssr:stedsnr" v="282617" />
	</node>
	<node lat="61.708166664500396" lon="9.94134722880439" id="-22965">
		<tag k="name" v="Bjønnhølan" />
		<tag k="place" v="locality" />
		<tag k="ssr:stedsnr" v="294512" />
	</node>
	<node lat="61.72123333550105" lon="9.990549995100523" id="-22966">
		<tag k="name" v="Rupbekken" />
		<tag k="ssr:stedsnr" v="294530" />
		<tag k="waterway" v="stream" />
	</node>
	<node lat="61.572436106941524" lon="9.859552786429859" id="-22969">
		<tag k="name" v="Hella" />
		<tag k="natural" v="cape" />
		<tag k="ssr:stedsnr" v="295080" />
	</node>
	<node lat="61.47659444715623" lon="9.870199997517348" id="-22984">
		<tag k="name" v="Kjøetjønna" />
		<tag k="natural" v="water" />
		<tag k="ssr:stedsnr" v="295609" />
	</node>
	<node lat="61.506599999012714" lon="9.869191659073266" id="-22990">
		<tag k="name" v="Ormbekken" />
		<tag k="ssr:stedsnr" v="295584" />
		<tag k="waterway" v="stream" />
	</node>
	<node lat="61.46276048833055" lon="9.805952687987718" id="-22995">
		<tag k="alt_name" v="Fiskjeløyse" />
		<tag k="name" v="Fiskeløysa" />
		<tag k="natural" v="water" />
		<tag k="ssr:stedsnr" v="311374" />
		<tag k="water" v="lake" />
	</node>
	<node lat="61.460725000812324" lon="9.936930546494096" id="-22996">
		<tag k="name" v="Kvadraten" />
		<tag k="natural" v="water" />
		<tag k="ssr:stedsnr" v="312280" />
	</node>
	<node lat="61.447736112484286" lon="9.794719443982714" id="-22998">
		<tag k="name" v="Tollportbekken" />
		<tag k="old_name" v="Trollportbekken" />
		<tag k="ssr:stedsnr" v="312290" />
		<tag k="waterway" v="stream" />
	</node>
	<node lat="61.53421111246797" lon="9.760986110138408" id="-23005">
		<tag k="name" v="Åbortjønna" />
		<tag k="natural" v="water" />
		<tag k="ssr:stedsnr" v="313921" />
	</node>
	<node lat="61.58066944736134" lon="9.840477782211256" id="-23013">
		<tag k="name" v="Solbråfossen" />
		<tag k="natural" v="waterfall" />
		<tag k="ssr:stedsnr" v="355107" />
	</node>
	<node lat="61.546383335264046" lon="9.95752499482308" id="-23018">
		<tag k="name" v="Hovevika" />
		<tag k="natural" v="bay" />
		<tag k="ssr:stedsnr" v="355565" />
	</node>
	<node lat="61.47593332980996" lon="9.831186111031482" id="-23027">
		<tag k="name" v="Storvika" />
		<tag k="natural" v="bay" />
		<tag k="ssr:stedsnr" v="356599" />
	</node>
	<node lat="61.395669442997196" lon="9.456677770817413" id="-23031">
		<tag k="name" v="Rompa" />
		<tag k="natural" v="bay" />
		<tag k="ssr:stedsnr" v="476556" />
	</node>
	<node lat="61.4830416692181" lon="9.74731388683473" id="-23032">
		<tag k="name" v="Kaldbekken" />
		<tag k="ssr:stedsnr" v="477131" />
		<tag k="waterway" v="stream" />
	</node>
	<node lat="61.526438886939985" lon="9.977938892815107" id="-23033">
		<tag k="name" v="Bakkafallet" />
		<tag k="natural" v="waterfall" />
		<tag k="ssr:stedsnr" v="477060" />
	</node>
	<node lat="61.41757778191049" lon="9.724199993253784" id="-23052">
		<tag k="name" v="Lortsøla" />
		<tag k="natural" v="water" />
		<tag k="ssr:stedsnr" v="477843" />
		<tag k="water" v="pond" />
	</node>
	<node lat="61.410383330877046" lon="9.752200008531192" id="-23053">
		<tag k="name" v="Stubben" />
		<tag k="ssr:stedsnr" v="477847" />
		<tag k="waterway" v="stream" />
	</node>
	<node lat="61.41986666740602" lon="9.52757778129351" id="-23057">
		<tag k="name" v="Merosholmen" />
		<tag k="place" v="islet" />
		<tag k="ssr:stedsnr" v="477590" />
	</node>
	<node lat="61.496241669466976" lon="9.759480562140588" id="-23059">
		<tag k="name" v="Valsbekken" />
		<tag k="ssr:stedsnr" v="477597" />
		<tag k="waterway" v="stream" />
	</node>
	<node lat="61.52728055798323" lon="9.79812223082844" id="-23061">
		<tag k="name" v="Djupbekken" />
		<tag k="ssr:stedsnr" v="477631" />
		<tag k="waterway" v="stream" />
	</node>
	<node lat="61.86476388697648" lon="10.13144445327994" id="-23063">
		<tag k="name" v="Kvannkjelda" />
		<tag k="ssr:stedsnr" v="477633" />
		<tag k="waterway" v="stream" />
	</node>
	<node lat="61.4814388862606" lon="9.959044445473145" id="-23065">
		<tag k="name" v="Danieltjønnbekken" />
		<tag k="ssr:stedsnr" v="477526" />
		<tag k="waterway" v="stream" />
	</node>
	<node lat="61.43169999857344" lon="9.961533333698348" id="-23074">
		<tag k="alt_name" v="Vendalåa" />
		<tag k="name" v="Vendalselva" />
		<tag k="ssr:stedsnr" v="372361" />
		<tag k="waterway" v="stream" />
	</node>
	<node lat="61.67990277583493" lon="9.925505555751801" id="-23077">
		<tag k="alt_name" v="Himlysa" />
		<tag k="name" v="Lysa" />
		<tag k="ssr:stedsnr" v="374706" />
		<tag k="waterway" v="stream" />
	</node>
	<node lat="61.47549721921869" lon="9.996980548642014" id="-23092">
		<tag k="name" v="Auretjønna" />
		<tag k="natural" v="water" />
		<tag k="ssr:stedsnr" v="416436" />
	</node>
	<node lat="61.67052222499523" lon="9.954269452005185" id="-23095">
		<tag k="name" v="Lysfallet" />
		<tag k="natural" v="waterfall" />
		<tag k="ssr:stedsnr" v="416628" />
	</node>
	<node lat="61.494555557583666" lon="9.798886117044312" id="-23101">
		<tag k="name" v="Lomtjønna" />
		<tag k="ssr:stedsnr" v="417612" />
		<tag k="waterway" v="stream" />
	</node>
	<node lat="61.4063249965259" lon="9.710483328821658" id="-23104">
		<tag k="name" v="Børka" />
		<tag k="ssr:stedsnr" v="432305" />
		<tag k="waterway" v="stream" />
	</node>
	<node lat="61.46683055977919" lon="9.926924993427688" id="-23105">
		<tag k="alt_name" v="Rundtjørna" />
		<tag k="name" v="Rundtjønna" />
		<tag k="natural" v="water" />
		<tag k="ssr:stedsnr" v="433304" />
	</node>
	<node lat="61.46050000177795" lon="9.951597218278382" id="-23106">
		<tag k="alt_name" v="Svarttjørnin, midtre" />
		<tag k="name" v="Midtre Svarttjønna" />
		<tag k="natural" v="water" />
		<tag k="ssr:stedsnr" v="433289" />
	</node>
	<node lat="61.48779283549188" lon="9.962521174222294" id="-23107">
		<tag k="alt_name" v="Skurtjørna, nedre" />
		<tag k="name" v="Nedre Skuritjønna" />
		<tag k="natural" v="water" />
		<tag k="ssr:stedsnr" v="433297" />
	</node>
	<node lat="61.47466944367997" lon="9.81833888882179" id="-23108">
		<tag k="name" v="Meåa" />
		<tag k="ssr:stedsnr" v="433299" />
		<tag k="waterway" v="stream" />
	</node>
	<node lat="61.47565277778659" lon="9.805413890437121" id="-23109">
		<tag k="name" v="Stubben" />
		<tag k="ssr:stedsnr" v="433300" />
		<tag k="waterway" v="stream" />
	</node>
	<node lat="61.476997221794555" lon="9.96009722278254" id="-23110">
		<tag k="alt_name" v="Danielstjørna" />
		<tag k="name" v="Danieltjønna" />
		<tag k="natural" v="water" />
		<tag k="ssr:stedsnr" v="433301" />
	</node>
	<node lat="61.49695832921107" lon="9.81553610245929" id="-23113">
		<tag k="alt_name" v="Storstultjørna" />
		<tag k="name" v="Storstultjønna" />
		<tag k="natural" v="water" />
		<tag k="ssr:stedsnr" v="434228" />
	</node>
	<node lat="61.47597642201024" lon="9.95313478905923" id="-23126">
		<tag k="alt_name" v="Langtjørna" />
		<tag k="name" v="Langtjønna" />
		<tag k="natural" v="water" />
		<tag k="ssr:stedsnr" v="493310" />
	</node>
	<node lat="61.430000002819675" lon="9.72301944013248" id="-23127">
		<tag k="name" v="Håkåsætervatnet" />
		<tag k="natural" v="water" />
		<tag k="ssr:stedsnr" v="493342" />
		<tag k="water" v="lake" />
	</node>
	<node lat="61.43336666969471" lon="9.844386106639856" id="-23128">
		<tag k="alt_name" v="Bjørntjørnin" />
		<tag k="name" v="Bjønntjønnin" />
		<tag k="natural" v="water" />
		<tag k="ssr:stedsnr" v="493345" />
		<tag k="water" v="lake" />
	</node>
	<node lat="61.38801567322898" lon="9.461125183676002" id="-23129">
		<tag k="name" v="Nedre Ågnsjøen" />
		<tag k="natural" v="water" />
		<tag k="ssr:stedsnr" v="493444" />
		<tag k="water" v="lake" />
	</node>
	<node lat="61.46685000235588" lon="9.418475000225941" id="-23130">
		<tag k="name" v="Espa" />
		<tag k="ssr:stedsnr" v="494373" />
		<tag k="waterway" v="river" />
	</node>
	<node lat="61.49174999626678" lon="9.43762499422593" id="-23133">
		<tag k="alt_name" v="Høgtjørn" />
		<tag k="name" v="Høgtjønna" />
		<tag k="natural" v="water" />
		<tag k="ssr:stedsnr" v="676120" />
	</node>
	<node lat="61.45622777602705" lon="9.537630556409278" id="-23135">
		<tag k="name" v="Bingstjønna" />
		<tag k="natural" v="water" />
		<tag k="ssr:stedsnr" v="676370" />
	</node>
	<node lat="61.43682499712054" lon="9.49480277126123" id="-23136">
		<tag k="alt_name" v="Nedre Verket" />
		<tag k="name" v="Verket" />
		<tag k="natural" v="cape" />
		<tag k="ssr:stedsnr" v="676422" />
	</node>
	<node lat="61.57748888517803" lon="9.930536107881553" id="-23150">
		<tag k="name" v="Ånneåa" />
		<tag k="ssr:stedsnr" v="477169" />
		<tag k="waterway" v="stream" />
	</node>
	<node lat="61.90024166441696" lon="10.091408331029443" id="-23174">
		<tag k="name" v="Svarttjønna" />
		<tag k="natural" v="water" />
		<tag k="ssr:stedsnr" v="677571" />
	</node>
	<node lat="61.464925002123785" lon="9.858600003017834" id="-23179">
		<tag k="alt_name" v="Lontjørna" />
		<tag k="name" v="Lontjønna" />
		<tag k="natural" v="water" />
		<tag k="ssr:stedsnr" v="493321" />
	</node>
	<node lat="61.49159802588151" lon="9.929870188277912" id="-23180">
		<tag k="alt_name" v="Svarttjørna" />
		<tag k="name" v="Håmmårtjønna" />
		<tag k="natural" v="water" />
		<tag k="ssr:stedsnr" v="493266" />
	</node>
	<node lat="61.486064346774704" lon="9.904825758602994" id="-23181">
		<tag k="name" v="Grevssjøen" />
		<tag k="natural" v="water" />
		<tag k="ssr:stedsnr" v="493271" />
	</node>
	<node lat="61.42625278018094" lon="9.55047499479036" id="-23182">
		<tag k="name" v="Grimstjønna" />
		<tag k="natural" v="water" />
		<tag k="ssr:stedsnr" v="493402" />
	</node>
	<node lat="61.452309605204334" lon="9.43499572910345" id="-23184">
		<tag k="name" v="Andreastjønnin" />
		<tag k="natural" v="water" />
		<tag k="ssr:stedsnr" v="494412" />
		<tag k="water" v="lake" />
	</node>
	<node lat="61.55303055286465" lon="10.031061106909448" id="-23195">
		<tag k="name" v="Kålgardsbekken" />
		<tag k="ssr:stedsnr" v="524602" />
		<tag k="waterway" v="stream" />
	</node>
	<node lat="61.43419444329289" lon="9.636830551382287" id="-23196">
		<tag k="name" v="Lonin" />
		<tag k="natural" v="water" />
		<tag k="ssr:stedsnr" v="535482" />
		<tag k="water" v="lake" />
	</node>
	<node lat="61.498041666812405" lon="9.997280558772061" id="-23200">
		<tag k="alt_name" v="Karustjønna" />
		<tag k="name" v="Karusstjønna" />
		<tag k="natural" v="water" />
		<tag k="ssr:stedsnr" v="537311" />
	</node>
	<node lat="61.48952778025072" lon="9.969622215631388" id="-23210">
		<tag k="name" v="Skuritjønnbekken" />
		<tag k="ssr:stedsnr" v="538084" />
		<tag k="waterway" v="stream" />
	</node>
	<node lat="61.46011389241288" lon="10.005083327298276" id="-23213">
		<tag k="name" v="Finnstillvika" />
		<tag k="natural" v="bay" />
		<tag k="ssr:stedsnr" v="538373" />
	</node>
	<node lat="61.456633329552375" lon="9.947855559775405" id="-23214">
		<tag k="name" v="Svarttjønnlonein" />
		<tag k="natural" v="water" />
		<tag k="ssr:stedsnr" v="538507" />
		<tag k="water" v="lake" />
	</node>
	<node lat="61.483680554960664" lon="9.880872225658738" id="-23215">
		<tag k="name" v="Vesleskjervongen" />
		<tag k="natural" v="water" />
		<tag k="ssr:stedsnr" v="538516" />
	</node>
	<node lat="61.41996388498007" lon="9.716708337866658" id="-23217">
		<tag k="name" v="Svartvika" />
		<tag k="natural" v="bay" />
		<tag k="ssr:stedsnr" v="538807" />
	</node>
	<node lat="61.40691944126455" lon="9.735225004902983" id="-23221">
		<tag k="name" v="Lebba" />
		<tag k="ssr:stedsnr" v="553352" />
		<tag k="waterway" v="river" />
	</node>
	<node lat="61.407925000629696" lon="9.75631388895788" id="-23222">
		<tag k="alt_name" v="Svana, store;Svana" />
		<tag k="name" v="Store Svana" />
		<tag k="natural" v="water" />
		<tag k="ssr:stedsnr" v="553353" />
	</node>
	<node lat="61.48869541581545" lon="9.882887599334717" id="-23228">
		<tag k="alt_name" v="Skjervongen" />
		<tag k="name" v="Skjervungen" />
		<tag k="natural" v="water" />
		<tag k="ssr:stedsnr" v="554285" />
		<tag k="water" v="lake" />
	</node>
	<node lat="61.74082222432309" lon="10.782286119887603" id="-23229">
		<tag k="name" v="Atna" />
		<tag k="ssr:stedsnr" v="555186" />
		<tag k="waterway" v="river" />
	</node>
	<node lat="61.76975277674352" lon="9.971730548851927" id="-23230">
		<tag k="name" v="Eldåa" />
		<tag k="ssr:stedsnr" v="555376" />
		<tag k="waterway" v="stream" />
	</node>
	<node lat="61.51801388759281" lon="9.93348888019956" id="-23235">
		<tag k="alt_name" v="Skikjua" />
		<tag k="name" v="Skikju" />
		<tag k="ssr:stedsnr" v="556922" />
		<tag k="waterway" v="stream" />
	</node>
	<node lat="61.413338888669635" lon="9.526777778452832" id="-23258">
		<tag k="name" v="Gravskarlibekken" />
		<tag k="ssr:stedsnr" v="598554" />
		<tag k="waterway" v="stream" />
	</node>
	<node lat="61.398319445860224" lon="9.943994438216945" id="-23271">
		<tag k="alt_name" v="Hovetjørna" />
		<tag k="name" v="Rundtjønna" />
		<tag k="natural" v="water" />
		<tag k="ssr:stedsnr" v="614360" />
	</node>
	<node lat="61.43315277655965" lon="9.539775006641733" id="-23272">
		<tag k="name" v="Sprena" />
		<tag k="ssr:stedsnr" v="615405" />
		<tag k="waterway" v="stream" />
	</node>
	<node lat="61.460138888854786" lon="9.586308340794275" id="-23278">
		<tag k="name" v="Heståa" />
		<tag k="ssr:stedsnr" v="615347" />
		<tag k="waterway" v="stream" />
	</node>
	<node lat="61.59327500322904" lon="9.893299999659712" id="-23281">
		<tag k="name" v="Lauvåa" />
		<tag k="ssr:stedsnr" v="616522" />
		<tag k="waterway" v="stream" />
	</node>
	<node lat="61.736638892788015" lon="9.918988895558552" id="-23284">
		<tag k="alt_name" v="Søre Glugga" />
		<tag k="name" v="Glugga" />
		<tag k="ssr:stedsnr" v="616644" />
		<tag k="waterway" v="stream" />
	</node>
	<node lat="61.525080555142345" lon="9.98223610577361" id="-23306">
		<tag k="name" v="Buhågåbekken" />
		<tag k="ssr:stedsnr" v="659006" />
		<tag k="waterway" v="stream" />
	</node>
	<node lat="61.495569444389176" lon="10.001525003668993" id="-23320">
		<tag k="name" v="Langtjønna" />
		<tag k="natural" v="water" />
		<tag k="ssr:stedsnr" v="659338" />
	</node>
	<node lat="61.60343611210124" lon="9.90973334129494" id="-23321">
		<tag k="name" v="Stormyrbekken" />
		<tag k="ssr:stedsnr" v="659343" />
		<tag k="waterway" v="stream" />
	</node>
	<node lat="61.51919167101022" lon="9.859583339087257" id="-23329">
		<tag k="name" v="Langvassbekken" />
		<tag k="ssr:stedsnr" v="659630" />
		<tag k="waterway" v="stream" />
	</node>
	<node lat="61.48507500126905" lon="9.865594446352572" id="-23335">
		<tag k="name" v="Hårrbekken" />
		<tag k="ssr:stedsnr" v="659590" />
		<tag k="waterway" v="stream" />
	</node>
	<node lat="61.43232500133213" lon="9.626458325217337" id="-23340">
		<tag k="name" v="Langodden" />
		<tag k="natural" v="cape" />
		<tag k="ssr:stedsnr" v="659786" />
	</node>
	<node lat="61.363211922884226" lon="9.187272374326813" id="-23344">
		<tag k="name" v="Kaldfjorden" />
		<tag k="natural" v="water" />
		<tag k="ssr:stedsnr" v="675048" />
		<tag k="water" v="lake" />
	</node>
	<node lat="61.48718711959329" lon="9.752102166231964" id="-23345">
		<tag k="name" v="Valsvatnet" />
		<tag k="natural" v="water" />
		<tag k="ssr:stedsnr" v="675298" />
		<tag k="water" v="lake" />
	</node>
	<node lat="61.41277777523011" lon="9.909191662777811" id="-23346">
		<tag k="alt_name" v="Langtjørna" />
		<tag k="name" v="Langtjønna" />
		<tag k="natural" v="water" />
		<tag k="ssr:stedsnr" v="675354" />
	</node>
	<node lat="61.433077780555685" lon="9.654941661404141" id="-23347">
		<tag k="alt_name" v="Børkdalsvatnet, nedre" />
		<tag k="name" v="Nedre Børkdalsvatnet" />
		<tag k="natural" v="water" />
		<tag k="old_name" v="Nedre Bjørkdalsvatnet" />
		<tag k="ssr:stedsnr" v="675356" />
	</node>
	<node lat="61.33099999910166" lon="9.322125002021822" id="-23350">
		<tag k="alt_name" v="Langsubekken" />
		<tag k="name" v="Langsudalsbekken" />
		<tag k="ssr:stedsnr" v="676493" />
		<tag k="waterway" v="stream" />
	</node>
	<node lat="61.34556388663328" lon="9.250094449241448" id="-23352">
		<tag k="name" v="Gåsøya" />
		<tag k="place" v="islet" />
		<tag k="ssr:stedsnr" v="676499" />
	</node>
	<node lat="61.46757777347965" lon="9.412300001806374" id="-23353">
		<tag k="name" v="Espefossen" />
		<tag k="natural" v="waterfall" />
		<tag k="ssr:stedsnr" v="676395" />
	</node>
	<node lat="61.792433333338884" lon="10.088980551372963" id="-23355">
		<tag k="name" v="Styggskardbekken" />
		<tag k="ssr:stedsnr" v="677401" />
		<tag k="waterway" v="stream" />
	</node>
	<node lat="61.897649996330834" lon="10.096913887168267" id="-23387">
		<tag k="name" v="Svarttjønnkroken" />
		<tag k="natural" v="water" />
		<tag k="ssr:stedsnr" v="720578" />
		<tag k="water" v="lake" />
	</node>
	<node lat="61.49784444317898" lon="9.76315000358777" id="-23390">
		<tag k="name" v="Rausteinbekken" />
		<tag k="ssr:stedsnr" v="720588" />
		<tag k="waterway" v="stream" />
	</node>
	<node lat="61.43138889073051" lon="9.624972220565903" id="-23395">
		<tag k="name" v="Fjellbekkvika" />
		<tag k="natural" v="bay" />
		<tag k="ssr:stedsnr" v="720806" />
	</node>
	<node lat="61.39296944298319" lon="9.466766675713703" id="-23401">
		<tag k="name" v="Storvika" />
		<tag k="natural" v="bay" />
		<tag k="ssr:stedsnr" v="901580" />
	</node>
	<node lat="61.41136111130552" lon="9.771647219384208" id="-23404">
		<tag k="name" v="Olderbekken" />
		<tag k="ssr:stedsnr" v="736320" />
		<tag k="waterway" v="stream" />
	</node>
	<node lat="61.468774997324644" lon="9.500024991978195" id="-23405">
		<tag k="name" v="Ryta" />
		<tag k="ssr:stedsnr" v="736375" />
		<tag k="waterway" v="stream" />
	</node>
	<node lat="61.46937777696238" lon="9.540163895240033" id="-23406">
		<tag k="name" v="Ruttjønna" />
		<tag k="natural" v="water" />
		<tag k="ssr:stedsnr" v="736377" />
	</node>
	<node lat="61.425902780687174" lon="9.983638895465887" id="-23413">
		<tag k="name" v="Tverråa" />
		<tag k="ssr:stedsnr" v="736914" />
		<tag k="waterway" v="stream" />
	</node>
	<node lat="61.48363516084272" lon="9.993849437899861" id="-23422">
		<tag k="alt_name" v="Hattsto" />
		<tag k="name" v="Hattstod" />
		<tag k="natural" v="water" />
		<tag k="ssr:stedsnr" v="737509" />
		<tag k="water" v="lake" />
	</node>
	<node lat="61.468097220482655" lon="9.879061118029215" id="-23429">
		<tag k="name" v="Listulbekken" />
		<tag k="ssr:stedsnr" v="902536" />
		<tag k="waterway" v="stream" />
	</node>
	<node lat="61.46659444683069" lon="9.460472213017782" id="-23434">
		<tag k="name" v="Vermbekken" />
		<tag k="ssr:stedsnr" v="902566" />
		<tag k="waterway" v="stream" />
	</node>
	<node lat="61.90594166490358" lon="10.082322216644464" id="-23435">
		<tag k="name" v="Blekutjønna" />
		<tag k="natural" v="water" />
		<tag k="ssr:stedsnr" v="738562" />
	</node>
	<node lat="61.526091665290224" lon="9.850744440364132" id="-23440">
		<tag k="name" v="Merratjønna" />
		<tag k="natural" v="water" />
		<tag k="ssr:stedsnr" v="902639" />
	</node>
	<node lat="61.5234388853746" lon="9.872844435999381" id="-23441">
		<tag k="name" v="Rundtjønna" />
		<tag k="natural" v="water" />
		<tag k="ssr:stedsnr" v="902642" />
	</node>
	<node lat="61.529980551416095" lon="9.862536117982245" id="-23442">
		<tag k="name" v="Legtjønna" />
		<tag k="natural" v="water" />
		<tag k="ssr:stedsnr" v="902643" />
	</node>
	<node lat="61.51857222633527" lon="9.845094445285758" id="-23443">
		<tag k="name" v="Øvre Bjønntjønna" />
		<tag k="natural" v="water" />
		<tag k="ssr:stedsnr" v="902644" />
	</node>
	<node lat="61.4030944450385" lon="9.930836116418593" id="-23466">
		<tag k="name" v="Storgrovbekken" />
		<tag k="ssr:stedsnr" v="780269" />
		<tag k="waterway" v="stream" />
	</node>
	<node lat="61.47909444017099" lon="9.680738882395346" id="-23470">
		<tag k="name" v="Djupnebbin" />
		<tag k="natural" v="cape" />
		<tag k="ssr:stedsnr" v="780159" />
	</node>
	<node lat="61.47589444274496" lon="9.397574997846093" id="-23473">
		<tag k="name" v="Blokknebbin" />
		<tag k="natural" v="cape" />
		<tag k="ssr:stedsnr" v="780484" />
	</node>
	<node lat="61.45274722185088" lon="9.448747227143267" id="-23476">
		<tag k="name" v="Andreasbekken" />
		<tag k="ssr:stedsnr" v="780499" />
		<tag k="waterway" v="stream" />
	</node>
	<node lat="61.45356944367005" lon="9.428241670708077" id="-23477">
		<tag k="name" v="Langtjønna" />
		<tag k="natural" v="water" />
		<tag k="ssr:stedsnr" v="780501" />
	</node>
	<node lat="61.41644444872579" lon="9.702325006984179" id="-23482">
		<tag k="name" v="Lortsøla" />
		<tag k="natural" v="water" />
		<tag k="ssr:stedsnr" v="780755" />
		<tag k="water" v="pond" />
	</node>
	<node lat="61.42693055504682" lon="9.724369441028218" id="-23490">
		<tag k="name" v="Meodden" />
		<tag k="natural" v="cape" />
		<tag k="ssr:stedsnr" v="780811" />
	</node>
	<node lat="61.48470833607142" lon="9.435922225914052" id="-23494">
		<tag k="name" v="Dyrtjønnin" />
		<tag k="natural" v="water" />
		<tag k="ssr:stedsnr" v="797123" />
		<tag k="water" v="lake" />
	</node>
	<node lat="61.453008332607006" lon="9.948199995639346" id="-23508">
		<tag k="name" v="Bjorhusbekken" />
		<tag k="ssr:stedsnr" v="919287" />
		<tag k="waterway" v="stream" />
	</node>
	<node lat="61.44567060012158" lon="9.573462790757691" id="-23509">
		<tag k="name" v="Svarttjønnin" />
		<tag k="natural" v="water" />
		<tag k="ssr:stedsnr" v="919426" />
		<tag k="water" v="lake" />
	</node>
	<node lat="61.52266111388237" lon="9.883805547526581" id="-23512">
		<tag k="name" v="Øvre Kringletjønna" />
		<tag k="natural" v="water" />
		<tag k="ssr:stedsnr" v="920926" />
	</node>
	<node lat="61.88743333616009" lon="10.086858324922112" id="-23514">
		<tag k="name" v="Djupbekken" />
		<tag k="ssr:stedsnr" v="920557" />
		<tag k="waterway" v="stream" />
	</node>
	<node lat="61.72726389331072" lon="9.952150008255868" id="-23518">
		<tag k="name" v="Storeldåa" />
		<tag k="ssr:stedsnr" v="920681" />
		<tag k="waterway" v="stream" />
	</node>
	<node lat="61.549147220963555" lon="10.008972219422217" id="-23521">
		<tag k="name" v="Gulltjønnet" />
		<tag k="natural" v="water" />
		<tag k="ssr:stedsnr" v="828607" />
	</node>
	<node lat="61.57240277845273" lon="9.84859999509388" id="-23524">
		<tag k="name" v="Jotbekken" />
		<tag k="ssr:stedsnr" v="841121" />
		<tag k="waterway" v="stream" />
	</node>
	<node lat="61.46859721835625" lon="9.698744452501979" id="-23528">
		<tag k="name" v="Lonin" />
		<tag k="natural" v="water" />
		<tag k="ssr:stedsnr" v="841131" />
		<tag k="water" v="lake" />
	</node>
	<node lat="61.4830777784254" lon="9.82989443967618" id="-23544">
		<tag k="name" v="Jetningsholmen" />
		<tag k="place" v="islet" />
		<tag k="ssr:stedsnr" v="842607" />
	</node>
	<node lat="61.393836107701404" lon="9.936538879768083" id="-23546">
		<tag k="alt_name" v="Gardtjørna, nedre" />
		<tag k="name" v="Nedre Gardtjønna" />
		<tag k="natural" v="water" />
		<tag k="ssr:stedsnr" v="857404" />
	</node>
	<node lat="61.465527774434776" lon="9.440305550042835" id="-23548">
		<tag k="alt_name" v="Ramstjørna" />
		<tag k="name" v="Ramstjønna" />
		<tag k="natural" v="water" />
		<tag k="ssr:stedsnr" v="858411" />
	</node>
	<node lat="61.389681060174766" lon="9.441040682459095" id="-23549">
		<tag k="alt_name" v="Vardtjønna" />
		<tag k="name" v="Ågnsjøtjønna" />
		<tag k="natural" v="water" />
		<tag k="ssr:stedsnr" v="858477" />
	</node>
	<node lat="61.669099998727" lon="9.91730554694885" id="-23550">
		<tag k="name" v="Høgsæterbekken" />
		<tag k="ssr:stedsnr" v="859661" />
		<tag k="waterway" v="stream" />
	</node>
	<node lat="61.589525002714915" lon="9.919424997321928" id="-23551">
		<tag k="name" v="Augla" />
		<tag k="ssr:stedsnr" v="860569" />
		<tag k="waterway" v="stream" />
	</node>
	<node lat="61.58379166902308" lon="9.843213884243584" id="-23564">
		<tag k="name" v="Gjerdumsbekken" />
		<tag k="ssr:stedsnr" v="902063" />
		<tag k="waterway" v="stream" />
	</node>
	<node lat="61.48958611400058" lon="9.978272218613206" id="-23567">
		<tag k="name" v="Svalonein" />
		<tag k="natural" v="water" />
		<tag k="ssr:stedsnr" v="902069" />
		<tag k="water" v="lake" />
	</node>
	<node lat="61.49051388547259" lon="9.850313893430735" id="-23576">
		<tag k="name" v="Påsån" />
		<tag k="ssr:stedsnr" v="902606" />
		<tag k="waterway" v="stream" />
	</node>
	<node lat="61.484858330449" lon="9.8626333370778" id="-23578">
		<tag k="name" v="Hårrtjønna" />
		<tag k="natural" v="water" />
		<tag k="ssr:stedsnr" v="902618" />
	</node>
	<node lat="61.48258610663535" lon="9.863761114497668" id="-23585">
		<tag k="alt_name" v="Aurtjørnet" />
		<tag k="name" v="Aurtjønnet" />
		<tag k="natural" v="water" />
		<tag k="ssr:stedsnr" v="918313" />
	</node>
	<node lat="61.45695555922085" lon="9.6255305474725" id="-23586">
		<tag k="alt_name" v="Massingtjørna, nedre" />
		<tag k="name" v="Nedre Massingtjønna" />
		<tag k="natural" v="water" />
		<tag k="ssr:stedsnr" v="918324" />
	</node>
	<node lat="61.39464722233491" lon="9.406394439754589" id="-23588">
		<tag k="name" v="Svarttjønna" />
		<tag k="natural" v="water" />
		<tag k="ssr:stedsnr" v="918523" />
	</node>
	<node lat="61.82838610768063" lon="10.014805562701525" id="-23594">
		<tag k="name" v="Indre Vulutjønna" />
		<tag k="natural" v="water" />
		<tag k="ssr:stedsnr" v="920350" />
	</node>
	<node lat="61.61464722648395" lon="9.9038694496767" id="-23596">
		<tag k="name" v="Kollbergbekken" />
		<tag k="ssr:stedsnr" v="920486" />
		<tag k="waterway" v="stream" />
	</node>
	<node lat="61.44643611149584" lon="9.570094449097288" id="-23609">
		<tag k="name" v="Øvre Svarttjønna" />
		<tag k="natural" v="water" />
		<tag k="ssr:stedsnr" v="961809" />
	</node>
	<node lat="61.421941665047264" lon="9.843216671187728" id="-23631">
		<tag k="name" v="Bjønntjønnin" />
		<tag k="natural" v="water" />
		<tag k="ssr:stedsnr" v="962470" />
		<tag k="water" v="lake" />
	</node>
	<node lat="61.43091667005555" lon="9.49670554955571" id="-23634">
		<tag k="name" v="Nørdre Gulliksvollvika" />
		<tag k="natural" v="bay" />
		<tag k="ssr:stedsnr" v="962605" />
	</node>
	<node lat="61.54028611258114" lon="9.841924998665228" id="-23641">
		<tag k="name" v="Flåtjønna" />
		<tag k="natural" v="water" />
		<tag k="ssr:stedsnr" v="962942" />
	</node>
	<node lat="61.57237777410056" lon="9.917452778526968" id="-23645">
		<tag k="name" v="Trilla" />
		<tag k="ssr:stedsnr" v="962838" />
		<tag k="waterway" v="stream" />
	</node>
	<node lat="61.436713891503636" lon="9.719786102017528" id="-23646">
		<tag k="name" v="Naustervika" />
		<tag k="natural" v="bay" />
		<tag k="ssr:stedsnr" v="962846" />
	</node>
	<node lat="61.71181455083875" lon="9.952495712126172" id="-23650">
		<tag k="name" v="Seggelstadbekken" />
		<tag k="ssr:stedsnr" v="984354" />
		<tag k="waterway" v="stream" />
	</node>
	<node lat="61.4914749997628" lon="9.445030557286719" id="-23655">
		<tag k="name" v="Langtjønna" />
		<tag k="natural" v="water" />
		<tag k="ssr:stedsnr" v="8131" />
	</node>
	<node lat="61.44716944012921" lon="9.85471110664222" id="-23658">
		<tag k="alt_name" v="Dagstjørnbekken" />
		<tag k="name" v="Dagstjønnbekken" />
		<tag k="ssr:stedsnr" v="8324" />
		<tag k="waterway" v="stream" />
	</node>
	<node lat="61.41718333212719" lon="9.332738883393878" id="-23664">
		<tag k="name" v="Vinstra" />
		<tag k="ssr:stedsnr" v="8436" />
		<tag k="waterway" v="river" />
	</node>
	<node lat="61.340286114482794" lon="9.273227770718714" id="-23666">
		<tag k="name" v="Kjørbekken" />
		<tag k="ssr:stedsnr" v="8526" />
		<tag k="waterway" v="stream" />
	</node>
	<node lat="61.440311111486615" lon="9.452055560837312" id="-23667">
		<tag k="name" v="Skurva" />
		<tag k="ssr:stedsnr" v="9417" />
		<tag k="waterway" v="stream" />
	</node>
	<node lat="61.434336115446825" lon="9.40963055159183" id="-23668">
		<tag k="alt_name" v="Tjønnhøtjønna" />
		<tag k="name" v="Vesletjønna" />
		<tag k="natural" v="water" />
		<tag k="ssr:stedsnr" v="9419" />
	</node>
	<node lat="61.45078406029794" lon="9.4698605433867" id="-23669">
		<tag k="alt_name" v="Breidsjøen" />
		<tag k="name" v="Breisjøen" />
		<tag k="natural" v="water" />
		<tag k="ssr:stedsnr" v="9424" />
		<tag k="water" v="lake" />
	</node>
	<node lat="61.51517153628945" lon="9.756114544662546" id="-23679">
		<tag k="name" v="Gålåvatnet" />
		<tag k="natural" v="water" />
		<tag k="old_name" v="Gålån" />
		<tag k="ssr:stedsnr" v="10925" />
		<tag k="water" v="lake" />
	</node>
	<node lat="61.429044441131175" lon="9.614636108654336" id="-23686">
		<tag k="name" v="Fjellbekken" />
		<tag k="ssr:stedsnr" v="51795" />
		<tag k="waterway" v="stream" />
	</node>
	<node lat="61.56149166804749" lon="9.85287499326382" id="-23698">
		<tag k="name" v="Trolldalsbekken" />
		<tag k="ssr:stedsnr" v="52100" />
		<tag k="waterway" v="stream" />
	</node>
	<node lat="61.48854166545654" lon="9.74963610372133" id="-23702">
		<tag k="name" v="Sygardsvika" />
		<tag k="natural" v="bay" />
		<tag k="ssr:stedsnr" v="52115" />
	</node>
	<node lat="61.49530555689636" lon="10.024738895865246" id="-23707">
		<tag k="name" v="Lorttjønnbekken" />
		<tag k="ssr:stedsnr" v="52294" />
		<tag k="waterway" v="stream" />
	</node>
	<node lat="61.40825277399353" lon="9.92608056047486" id="-23716">
		<tag k="name" v="Steinbutjønna" />
		<tag k="natural" v="water" />
		<tag k="ssr:stedsnr" v="52260" />
	</node>
	<node lat="61.59644722137903" lon="9.850388888416218" id="-23725">
		<tag k="name" v="Solbråsdammen" />
		<tag k="ssr:stedsnr" v="52547" />
		<tag k="waterway" v="dam" />
	</node>
	<node lat="61.7544055597584" lon="9.987944446752689" id="-23729">
		<tag k="name" v="Storbekken" />
		<tag k="ssr:stedsnr" v="52511" />
		<tag k="waterway" v="stream" />
	</node>
	<node lat="61.43048055922883" lon="9.65635277496083" id="-23732">
		<tag k="name" v="Øvre Lon" />
		<tag k="natural" v="water" />
		<tag k="ssr:stedsnr" v="52857" />
		<tag k="water" v="lake" />
	</node>
	<node lat="61.582527773801" lon="10.034433336753285" id="-23734">
		<tag k="name" v="Djupdalsbekken" />
		<tag k="ssr:stedsnr" v="52934" />
		<tag k="waterway" v="stream" />
	</node>
	<node lat="61.422127780716494" lon="9.936644446633533" id="-23741">
		<tag k="alt_name" v="Tapptjørna" />
		<tag k="name" v="Tapptjønna" />
		<tag k="natural" v="water" />
		<tag k="ssr:stedsnr" v="68329" />
	</node>
	<node lat="61.423444443593375" lon="9.895541674796482" id="-23742">
		<tag k="alt_name" v="Kantlitjørnin, nedre" />
		<tag k="name" v="Nedre Kantlitjønna" />
		<tag k="natural" v="water" />
		<tag k="ssr:stedsnr" v="68334" />
	</node>
	<node lat="61.40598055510412" lon="9.933925006285246" id="-23744">
		<tag k="name" v="Storrgrova" />
		<tag k="natural" v="water" />
		<tag k="ssr:stedsnr" v="68373" />
	</node>
	<node lat="61.48990000315505" lon="9.978750006576773" id="-23746">
		<tag k="name" v="Steinåa" />
		<tag k="ssr:stedsnr" v="69562" />
		<tag k="waterway" v="stream" />
	</node>
	<node lat="61.48485541159548" lon="9.959767442038558" id="-23747">
		<tag k="alt_name" v="Skurtjørna, øvre" />
		<tag k="name" v="Øvre Skuritjønna" />
		<tag k="natural" v="water" />
		<tag k="ssr:stedsnr" v="69320" />
	</node>
	<node lat="61.466205551766656" lon="9.864300001536183" id="-23752">
		<tag k="name" v="Øyangselva" />
		<tag k="ssr:stedsnr" v="69330" />
		<tag k="waterway" v="stream" />
	</node>
	<node lat="61.424274999585464" lon="9.485049991467001" id="-23753">
		<tag k="alt_name" v="Gulliksbekken" />
		<tag k="name" v="Gulleiksvollbekken" />
		<tag k="ssr:stedsnr" v="69451" />
		<tag k="waterway" v="stream" />
	</node>
	<node lat="61.73860000230159" lon="9.991855554039246" id="-23768">
		<tag k="alt_name" v="Eldåa, vesle" />
		<tag k="name" v="Vesle Eldåa" />
		<tag k="ssr:stedsnr" v="71962" />
		<tag k="waterway" v="stream" />
	</node>
	<node lat="61.50201944408826" lon="9.964324997595188" id="-23785">
		<tag k="name" v="Kaldvassbrunnet" />
		<tag k="natural" v="spring" />
		<tag k="ssr:stedsnr" v="113064" />
	</node>
	<node lat="61.49068611447626" lon="9.999216663273348" id="-23798">
		<tag k="name" v="Salbråtåvika" />
		<tag k="natural" v="bay" />
		<tag k="ssr:stedsnr" v="113325" />
	</node>
	<node lat="61.4941388875416" lon="10.01935833877115" id="-23800">
		<tag k="name" v="Raubekken" />
		<tag k="ssr:stedsnr" v="113340" />
		<tag k="waterway" v="stream" />
	</node>
	<node lat="61.232741671063216" lon="10.4370611119802" id="-23817">
		<tag k="loc_name" v="Gudbrandsdalslågen" />
		<tag k="name" v="Lågen" />
		<tag k="ssr:stedsnr" v="129173" />
		<tag k="waterway" v="river" />
	</node>
	<node lat="61.49083055282607" lon="9.8505222284652" id="-23819">
		<tag k="name" v="Hita" />
		<tag k="natural" v="water" />
		<tag k="ssr:stedsnr" v="129276" />
	</node>
	<node lat="61.781719442394156" lon="10.043922224850743" id="-23823">
		<tag k="name" v="Bågåskardstjønna" />
		<tag k="natural" v="water" />
		<tag k="ssr:stedsnr" v="131408" />
	</node>
	<node lat="61.50660278131327" lon="9.906127780767928" id="-23833">
		<tag k="name" v="Fossåa" />
		<tag k="ssr:stedsnr" v="131951" />
		<tag k="waterway" v="river" />
	</node>
	<node lat="61.46214999936426" lon="9.443158330109952" id="-23834">
		<tag k="name" v="Stabbursvika" />
		<tag k="natural" v="bay" />
		<tag k="ssr:stedsnr" v="143147" />
	</node>
	<node lat="61.593649996098414" lon="9.921477780445224" id="-23849">
		<tag k="name" v="Nedre Fallet" />
		<tag k="natural" v="waterfall" />
		<tag k="ssr:stedsnr" v="173111" />
	</node>
	<node lat="61.480455559409364" lon="9.68504722806377" id="-23852">
		<tag k="name" v="Furuodden" />
		<tag k="natural" v="cape" />
		<tag k="ssr:stedsnr" v="173131" />
	</node>
	<node lat="61.63780277796091" lon="9.92150555607598" id="-23860">
		<tag k="name" v="Tronomyrbekken" />
		<tag k="ssr:stedsnr" v="173373" />
		<tag k="waterway" v="stream" />
	</node>
	<node lat="61.482817423148525" lon="9.9542108998671" id="-23867">
		<tag k="name" v="Buhågåtjønna" />
		<tag k="natural" v="water" />
		<tag k="ssr:stedsnr" v="173441" />
	</node>
	<node lat="61.45118611191187" lon="9.998500001684567" id="-23882">
		<tag k="name" v="Grøndokkvika" />
		<tag k="natural" v="bay" />
		<tag k="ssr:stedsnr" v="174385" />
	</node>
	<node lat="61.44737499583093" lon="9.482480553265745" id="-23885">
		<tag k="name" v="Brånånebbin" />
		<tag k="natural" v="cape" />
		<tag k="ssr:stedsnr" v="174645" />
	</node>
	<node lat="61.45389714620526" lon="9.539426393731203" id="-23887">
		<tag k="name" v="Bingstjønnin" />
		<tag k="natural" v="water" />
		<tag k="ssr:stedsnr" v="174650" />
		<tag k="water" v="lake" />
	</node>
	<node lat="61.43962222311147" lon="9.49349166733726" id="-23888">
		<tag k="name" v="Stubben" />
		<tag k="ssr:stedsnr" v="174652" />
		<tag k="waterway" v="river" />
	</node>
	<node lat="61.40861388592083" lon="9.756880549708443" id="-23889">
		<tag k="name" v="Svanholmen" />
		<tag k="natural" v="bay" />
		<tag k="ssr:stedsnr" v="174828" />
	</node>
	<node lat="61.428875003105205" lon="9.66011666806793" id="-23892">
		<tag k="name" v="Lonin" />
		<tag k="natural" v="water" />
		<tag k="ssr:stedsnr" v="174878" />
		<tag k="water" v="lake" />
	</node>
	<node lat="61.41432499962188" lon="9.864311112347156" id="-23894">
		<tag k="alt_name" v="Bjørna" />
		<tag k="name" v="Bjønna" />
		<tag k="ssr:stedsnr" v="190330" />
		<tag k="waterway" v="stream" />
	</node>
	<node lat="61.81613055205026" lon="10.011308332116005" id="-23899">
		<tag k="name" v="Fremre Vulutjønna" />
		<tag k="natural" v="water" />
		<tag k="ssr:stedsnr" v="192403" />
	</node>
	<node lat="61.870797225336695" lon="10.132019444564907" id="-23902">
		<tag k="name" v="Søre Lausåa" />
		<tag k="ssr:stedsnr" v="192605" />
		<tag k="waterway" v="stream" />
	</node>
	<node lat="61.68903055979711" lon="9.920180555461531" id="-23904">
		<tag k="name" v="Reiptjønna" />
		<tag k="natural" v="water" />
		<tag k="ssr:stedsnr" v="192705" />
	</node>
	<node lat="61.52198888670637" lon="10.051724991357142" id="-23906">
		<tag k="name" v="Solfrittbekken" />
		<tag k="ssr:stedsnr" v="192875" />
		<tag k="waterway" v="stream" />
	</node>
	<node lat="61.53643286900717" lon="9.834844232436835" id="-23909">
		<tag k="name" v="Daudtjønna" />
		<tag k="natural" v="water" />
		<tag k="ssr:stedsnr" v="192920" />
	</node>
	<node lat="61.5234527755541" lon="9.89625556059266" id="-23910">
		<tag k="name" v="Søre Bladtjønna" />
		<tag k="natural" v="water" />
		<tag k="ssr:stedsnr" v="192922" />
	</node>
	<node lat="61.51335277975565" lon="9.89900833883665" id="-23912">
		<tag k="name" v="Svarttjønna" />
		<tag k="natural" v="water" />
		<tag k="ssr:stedsnr" v="192938" />
	</node>
	<node lat="61.54218611056895" lon="9.998847230428352" id="-23916">
		<tag k="name" v="Grafferdammen" />
		<tag k="natural" v="water" />
		<tag k="ssr:stedsnr" v="282616" />
	</node>
	<node lat="61.448383328990865" lon="9.80538888224415" id="-23932">
		<tag k="name" v="Fiskjeløyshola" />
		<tag k="natural" v="water" />
		<tag k="ssr:stedsnr" v="295457" />
	</node>
	<node lat="61.41464444733818" lon="9.763472229313454" id="-23935">
		<tag k="name" v="Årstulåa" />
		<tag k="ssr:stedsnr" v="295499" />
		<tag k="waterway" v="stream" />
	</node>
	<node lat="61.449152774798286" lon="9.550769452499273" id="-23937">
		<tag k="alt_name" v="Runde Sprentjønnin" />
		<tag k="name" v="Rundetjønna" />
		<tag k="natural" v="water" />
		<tag k="ssr:stedsnr" v="295633" />
	</node>
	<node lat="61.47075555729309" lon="9.40813888508513" id="-23940">
		<tag k="name" v="Hammervika" />
		<tag k="natural" v="bay" />
		<tag k="ssr:stedsnr" v="295544" />
	</node>
	<node lat="61.54730555361427" lon="9.812027770575073" id="-23945">
		<tag k="name" v="Skurdalsåa" />
		<tag k="ssr:stedsnr" v="295944" />
		<tag k="waterway" v="stream" />
	</node>
	<node lat="61.48132033063579" lon="9.811772993393408" id="-23947">
		<tag k="alt_name" v="Jetningen, Vesle" />
		<tag k="name" v="Veslejetningen" />
		<tag k="natural" v="water" />
		<tag k="ssr:stedsnr" v="311330" />
	</node>
	<node lat="61.46708333741854" lon="9.635341675508032" id="-23948">
		<tag k="alt_name" v="Massingtjørna, øvre" />
		<tag k="name" v="Øvre Massingtjønna" />
		<tag k="natural" v="water" />
		<tag k="ssr:stedsnr" v="311369" />
	</node>
	<node lat="61.71039167053835" lon="9.966947215803414" id="-23972">
		<tag k="name" v="Storrputten" />
		<tag k="natural" v="water" />
		<tag k="ssr:stedsnr" v="355454" />
		<tag k="water" v="pond" />
	</node>
	<node lat="61.48233610859506" lon="9.752663891240529" id="-23981">
		<tag k="name" v="Sy-landet" />
		<tag k="natural" v="beach" />
		<tag k="ssr:stedsnr" v="355140" />
	</node>
	<node lat="61.495975003287796" lon="9.725013885776908" id="-23982">
		<tag k="name" v="Tvibyttingstjønna" />
		<tag k="natural" v="water" />
		<tag k="ssr:stedsnr" v="355148" />
	</node>
	<node lat="61.53597500367692" lon="9.977069435335435" id="-23986">
		<tag k="name" v="Isumfossen" />
		<tag k="natural" v="waterfall" />
		<tag k="ssr:stedsnr" v="355245" />
	</node>
	<node lat="61.48937222402886" lon="9.85971389643191" id="-23995">
		<tag k="name" v="Ravdalsbekken" />
		<tag k="ssr:stedsnr" v="355540" />
		<tag k="waterway" v="stream" />
	</node>
	<node lat="61.4638694486845" lon="9.730580562949617" id="-23999">
		<tag k="name" v="Dritudalsbekken" />
		<tag k="ssr:stedsnr" v="355834" />
		<tag k="waterway" v="stream" />
	</node>
	<node lat="61.544522220411466" lon="9.829711102864387" id="-24006">
		<tag k="name" v="Liabekken" />
		<tag k="ssr:stedsnr" v="355946" />
		<tag k="waterway" v="stream" />
	</node>
	<node lat="61.35213888905238" lon="9.211005564221395" id="-24010">
		<tag k="name" v="Innbutangen" />
		<tag k="natural" v="cape" />
		<tag k="ssr:stedsnr" v="371036" />
	</node>
	<node lat="61.48638055411247" lon="9.922191658653615" id="-24012">
		<tag k="alt_name" v="Raudbakktjørna" />
		<tag k="name" v="Raubakktjønna" />
		<tag k="natural" v="water" />
		<tag k="ssr:stedsnr" v="372286" />
	</node>
	<node lat="61.48809478462794" lon="9.949620977346909" id="-24013">
		<tag k="alt_name" v="Grønbekktjørna" />
		<tag k="name" v="Grønbekktjønna" />
		<tag k="natural" v="water" />
		<tag k="ssr:stedsnr" v="372322" />
	</node>
	<node lat="61.41505833180741" lon="9.7636499952069" id="-24017">
		<tag k="name" v="Årstulbekken" />
		<tag k="ssr:stedsnr" v="372339" />
		<tag k="waterway" v="stream" />
	</node>
	<node lat="61.42636389149477" lon="9.88535276920453" id="-24018">
		<tag k="alt_name" v="Kantlitjørnin, øvre" />
		<tag k="name" v="Øvre Kantlitjønna" />
		<tag k="natural" v="water" />
		<tag k="ssr:stedsnr" v="372342" />
	</node>
	<node lat="61.44581944100297" lon="9.888250006360154" id="-24019">
		<tag k="alt_name" v="Lauvåstjørna" />
		<tag k="name" v="Lauvåstjønna" />
		<tag k="natural" v="water" />
		<tag k="ssr:stedsnr" v="372349" />
	</node>
	<node lat="61.361999997999604" lon="9.343561116581492" id="-24020">
		<tag k="name" v="Kroklonin" />
		<tag k="place" v="locality" />
		<tag k="ssr:stedsnr" v="372468" />
	</node>
	<node lat="61.43988055983262" lon="9.487211105469614" id="-24022">
		<tag k="alt_name" v="Åbortjørna" />
		<tag k="name" v="Åbortjønna" />
		<tag k="natural" v="water" />
		<tag k="ssr:stedsnr" v="372444" />
	</node>
	<node lat="61.77533425350001" lon="10.047542807731762" id="-24024">
		<tag k="name" v="Bågåskardbekken" />
		<tag k="ssr:stedsnr" v="373690" />
		<tag k="waterway" v="stream" />
	</node>
	<node lat="61.5137555560737" lon="9.802622231070682" id="-24031">
		<tag k="alt_name" v="Bladtjørna" />
		<tag k="name" v="Blandtjønna" />
		<tag k="natural" v="water" />
		<tag k="old_name" v="Bladtjørn" />
		<tag k="ssr:stedsnr" v="374951" />
	</node>
	<node lat="61.377105555747555" lon="9.466369453637887" id="-24040">
		<tag k="name" v="Gravbekken" />
		<tag k="natural" v="bay" />
		<tag k="ssr:stedsnr" v="415609" />
	</node>
	<node lat="61.50516666412375" lon="9.97722500850322" id="-24056">
		<tag k="name" v="Djupdalsbekken" />
		<tag k="ssr:stedsnr" v="416119" />
		<tag k="waterway" v="stream" />
	</node>
	<node lat="61.47602500078777" lon="9.734866661323556" id="-24058">
		<tag k="name" v="Storslåbekken" />
		<tag k="ssr:stedsnr" v="416126" />
		<tag k="waterway" v="stream" />
	</node>
	<node lat="61.411194442615056" lon="9.957088894785192" id="-24069">
		<tag k="name" v="Mårråverdstjønna" />
		<tag k="natural" v="water" />
		<tag k="ssr:stedsnr" v="416258" />
	</node>
	<node lat="61.448013890204955" lon="9.97452222097331" id="-24071">
		<tag k="name" v="Nedre Gråsteintjønna" />
		<tag k="natural" v="water" />
		<tag k="ssr:stedsnr" v="416431" />
	</node>
	<node lat="61.45878889183006" lon="9.42046389246044" id="-24072">
		<tag k="name" v="Storrtjønna" />
		<tag k="natural" v="water" />
		<tag k="ssr:stedsnr" v="416519" />
	</node>
	<node lat="61.572983331569176" lon="9.92287777037912" id="-24074">
		<tag k="name" v="Brandrudsåa" />
		<tag k="ssr:stedsnr" v="416828" />
		<tag k="waterway" v="stream" />
	</node>
	<node lat="61.44162778232161" lon="9.481622213767341" id="-24079">
		<tag k="name" v="Timmervika" />
		<tag k="natural" v="bay" />
		<tag k="ssr:stedsnr" v="416572" />
	</node>
	<node lat="61.43413889203194" lon="9.631077786982699" id="-24080">
		<tag k="name" v="Gammelosen" />
		<tag k="natural" v="bay" />
		<tag k="ssr:stedsnr" v="416748" />
	</node>
	<node lat="61.41778055454606" lon="9.7225638969213" id="-24081">
		<tag k="name" v="Lebbosen" />
		<tag k="natural" v="bay" />
		<tag k="ssr:stedsnr" v="416760" />
	</node>
	<node lat="61.4266944417269" lon="9.671694453306497" id="-24083">
		<tag k="name" v="Moldhølen" />
		<tag k="place" v="locality" />
		<tag k="ssr:stedsnr" v="416836" />
	</node>
	<node lat="61.55190833653505" lon="9.817197225982289" id="-24086">
		<tag k="name" v="Kaldbekken" />
		<tag k="ssr:stedsnr" v="416927" />
		<tag k="waterway" v="stream" />
	</node>
	<node lat="61.407030558147774" lon="9.887522221533848" id="-24091">
		<tag k="alt_name" v="Lykkjetjørna" />
		<tag k="name" v="Lykkjetjønna" />
		<tag k="natural" v="water" />
		<tag k="ssr:stedsnr" v="432334" />
	</node>
	<node lat="61.4453166699816" lon="9.660741659920584" id="-24092">
		<tag k="alt_name" v="Budalsbekken" />
		<tag k="name" v="Bubekken" />
		<tag k="ssr:stedsnr" v="433318" />
		<tag k="waterway" v="stream" />
	</node>
	<node lat="61.486441669291416" lon="9.691091660826114" id="-24093">
		<tag k="alt_name" v="Turu" />
		<tag k="name" v="Turubekken" />
		<tag k="ssr:stedsnr" v="433247" />
		<tag k="waterway" v="stream" />
	</node>
	<node lat="61.43413610770601" lon="9.494488893878227" id="-24097">
		<tag k="name" v="Valdrestjønna" />
		<tag k="natural" v="water" />
		<tag k="ssr:stedsnr" v="434386" />
	</node>
	<node lat="61.54646509964776" lon="9.926358707686441" id="-24099">
		<tag k="name" v="Langøya" />
		<tag k="place" v="islet" />
		<tag k="ssr:stedsnr" v="435908" />
	</node>
	<node lat="61.744722225046196" lon="9.855644451913385" id="-24111">
		<tag k="name" v="Frya" />
		<tag k="ssr:stedsnr" v="495633" />
		<tag k="waterway" v="river" />
	</node>
	<node lat="61.50239722207319" lon="9.84749722433257" id="-24118">
		<tag k="name" v="Ravdalstjønna" />
		<tag k="natural" v="water" />
		<tag k="ssr:stedsnr" v="495941" />
	</node>
	<node lat="61.72080277754286" lon="9.985416657838433" id="-24124">
		<tag k="name" v="Tunga" />
		<tag k="natural" v="cape" />
		<tag k="ssr:stedsnr" v="537495" />
	</node>
	<node lat="61.39500277525465" lon="9.940827778501943" id="-24131">
		<tag k="name" v="Gardtjønnbekken" />
		<tag k="ssr:stedsnr" v="537345" />
		<tag k="waterway" v="stream" />
	</node>
	<node lat="61.59162777412781" lon="10.034438897900241" id="-24136">
		<tag k="name" v="Guribergsøra" />
		<tag k="natural" v="water" />
		<tag k="ssr:stedsnr" v="537544" />
		<tag k="water" v="lake" />
	</node>
	<node lat="61.33811110710608" lon="9.404386103871087" id="-24137">
		<tag k="name" v="Raugrovtjønnin" />
		<tag k="natural" v="water" />
		<tag k="ssr:stedsnr" v="537562" />
		<tag k="water" v="lake" />
	</node>
	<node lat="61.46135277519668" lon="9.805663894228381" id="-24138">
		<tag k="name" v="Fiskjeløysholmen" />
		<tag k="place" v="islet" />
		<tag k="ssr:stedsnr" v="538490" />
	</node>
	<node lat="61.41706944643185" lon="9.824080562528989" id="-24139">
		<tag k="name" v="Storrtjønnet" />
		<tag k="natural" v="water" />
		<tag k="ssr:stedsnr" v="538501" />
	</node>
	<node lat="61.52963610955169" lon="10.005152769455375" id="-24157">
		<tag k="name" v="Stavnbekken" />
		<tag k="ssr:stedsnr" v="538331" />
		<tag k="waterway" v="stream" />
	</node>
	<node lat="61.51800833378929" lon="9.851102784148908" id="-24160">
		<tag k="name" v="Nedre Bjønntjønna" />
		<tag k="natural" v="water" />
		<tag k="ssr:stedsnr" v="538632" />
	</node>
	<node lat="61.43268611085296" lon="9.625508339912084" id="-24168">
		<tag k="name" v="Månin" />
		<tag k="natural" v="beach" />
		<tag k="ssr:stedsnr" v="538798" />
	</node>
	<node lat="61.41938055847272" lon="9.901269449973363" id="-24174">
		<tag k="name" v="Gåslona" />
		<tag k="natural" v="water" />
		<tag k="ssr:stedsnr" v="553301" />
	</node>
	<node lat="61.435266667419555" lon="9.632630552168417" id="-24175">
		<tag k="name" v="Stubben" />
		<tag k="ssr:stedsnr" v="554354" />
		<tag k="waterway" v="stream" />
	</node>
	<node lat="61.428494444500565" lon="9.459108341118768" id="-24176">
		<tag k="name" v="Austre Ågna" />
		<tag k="ssr:stedsnr" v="554442" />
		<tag k="waterway" v="stream" />
	</node>
	<node lat="61.40160555229788" lon="9.56712222637247" id="-24179">
		<tag k="name" v="Espedalsvatnet" />
		<tag k="natural" v="water" />
		<tag k="ssr:stedsnr" v="554498" />
		<tag k="water" v="lake" />
	</node>
	<node lat="61.48972777439259" lon="10.01344999705408" id="-24181">
		<tag k="name" v="Gumpen" />
		<tag k="natural" v="water" />
		<tag k="ssr:stedsnr" v="554554" />
		<tag k="water" v="lake" />
	</node>
	<node lat="61.814302781815506" lon="10.107955557821036" id="-24182">
		<tag k="name" v="Valdresbekken" />
		<tag k="ssr:stedsnr" v="555329" />
		<tag k="waterway" v="stream" />
	</node>
	<node lat="61.41203055683623" lon="9.947536118010673" id="-24201">
		<tag k="name" v="Innistugubekken" />
		<tag k="ssr:stedsnr" v="598270" />
		<tag k="waterway" v="stream" />
	</node>
	<node lat="61.463249998494916" lon="9.445088897214896" id="-24205">
		<tag k="name" v="Stubben" />
		<tag k="natural" v="strait" />
		<tag k="ssr:stedsnr" v="598542" />
	</node>
	<node lat="61.45523889277331" lon="9.459444440944822" id="-24206">
		<tag k="name" v="Stornebbin" />
		<tag k="natural" v="cape" />
		<tag k="ssr:stedsnr" v="598543" />
	</node>
	<node lat="61.42868055884304" lon="9.501161112522931" id="-24207">
		<tag k="name" v="Søre Gulliksvollvika" />
		<tag k="natural" v="bay" />
		<tag k="ssr:stedsnr" v="598614" />
	</node>
	<node lat="61.4357749978587" lon="9.495247219552994" id="-24208">
		<tag k="name" v="Verksodden" />
		<tag k="natural" v="cape" />
		<tag k="ssr:stedsnr" v="598616" />
	</node>
	<node lat="61.44903610669148" lon="9.863038884874658" id="-24212">
		<tag k="name" v="Lauvåsbekken" />
		<tag k="ssr:stedsnr" v="598448" />
		<tag k="waterway" v="stream" />
	</node>
	<node lat="61.43925833559568" lon="9.783486116299985" id="-24222">
		<tag k="name" v="Nørdre Årstultjønnin" />
		<tag k="natural" v="water" />
		<tag k="ssr:stedsnr" v="598478" />
	</node>
	<node lat="61.4885194443197" lon="9.995474991062158" id="-24223">
		<tag k="name" v="Sveaholmen" />
		<tag k="place" v="islet" />
		<tag k="ssr:stedsnr" v="598480" />
	</node>
	<node lat="61.4832249982976" lon="9.875497223988797" id="-24225">
		<tag k="name" v="Andorbekken" />
		<tag k="ssr:stedsnr" v="598590" />
		<tag k="waterway" v="stream" />
	</node>
	<node lat="61.41161666259081" lon="9.703436113884162" id="-24227">
		<tag k="name" v="Barlundhølen" />
		<tag k="place" v="locality" />
		<tag k="ssr:stedsnr" v="598786" />
	</node>
	<node lat="61.4794963940086" lon="9.829733091352047" id="-24233">
		<tag k="alt_name" v="Storjetningen" />
		<tag k="name" v="Jetningen" />
		<tag k="natural" v="water" />
		<tag k="ssr:stedsnr" v="614298" />
		<tag k="water" v="lake" />
	</node>
	<node lat="61.47893055376636" lon="9.872708332509086" id="-24234">
		<tag k="alt_name" v="Nettjørna" />
		<tag k="name" v="Nettjønna" />
		<tag k="natural" v="water" />
		<tag k="ssr:stedsnr" v="614299" />
	</node>
	<node lat="61.35410278019547" lon="9.465355546997577" id="-24240">
		<tag k="name" v="Krusgravbekken" />
		<tag k="ssr:stedsnr" v="615428" />
		<tag k="waterway" v="stream" />
	</node>
	<node lat="61.537366669299395" lon="9.857363887362759" id="-24249">
		<tag k="name" v="Geittjønna" />
		<tag k="natural" v="water" />
		<tag k="ssr:stedsnr" v="616924" />
	</node>
	<node lat="61.41532500109548" lon="9.536927773203912" id="-24280">
		<tag k="name" v="Langveggodden" />
		<tag k="natural" v="cape" />
		<tag k="ssr:stedsnr" v="659566" />
	</node>
	<node lat="61.41746110731017" lon="9.550733333663414" id="-24281">
		<tag k="name" v="Sagbekken" />
		<tag k="ssr:stedsnr" v="659567" />
		<tag k="waterway" v="stream" />
	</node>
	<node lat="61.634984709183804" lon="9.91140744817472" id="-24284">
		<tag k="name" v="Tronomyrtjønnin" />
		<tag k="natural" v="water" />
		<tag k="ssr:stedsnr" v="659424" />
		<tag k="water" v="lake" />
	</node>
	<node lat="61.491536114386534" lon="9.82360833635394" id="-24286">
		<tag k="name" v="Langtjønna" />
		<tag k="ssr:stedsnr" v="659573" />
		<tag k="waterway" v="stream" />
	</node>
	<node lat="61.42681388499176" lon="9.669836108575767" id="-24303">
		<tag k="name" v="Flæin" />
		<tag k="natural" v="water" />
		<tag k="ssr:stedsnr" v="717504" />
		<tag k="water" v="lake" />
	</node>
	<node lat="61.572094448071375" lon="9.858074997829375" id="-24304">
		<tag k="name" v="Strandtjønna" />
		<tag k="natural" v="water" />
		<tag k="ssr:stedsnr" v="719070" />
	</node>
	<node lat="61.49873333231022" lon="9.92175833539587" id="-24313">
		<tag k="name" v="Kolltjønnbekken" />
		<tag k="ssr:stedsnr" v="720381" />
		<tag k="waterway" v="stream" />
	</node>
	<node lat="61.54054721817225" lon="9.850661108647408" id="-24318">
		<tag k="loc_name" v="Nedre Karusstjønna" />
		<tag k="name" v="Nedre Karustjønna" />
		<tag k="natural" v="water" />
		<tag k="ssr:stedsnr" v="719937" />
	</node>
	<node lat="61.515591667039274" lon="9.966755564732802" id="-24321">
		<tag k="name" v="Nesset" />
		<tag k="natural" v="cape" />
		<tag k="ssr:stedsnr" v="720033" />
	</node>
	<node lat="61.57686111428466" lon="9.962647224425751" id="-24325">
		<tag k="name" v="Kvikstadåa" />
		<tag k="ssr:stedsnr" v="720330" />
		<tag k="waterway" v="stream" />
	</node>
	<node lat="61.475497219637134" lon="9.993619439535514" id="-24328">
		<tag k="name" v="Auretjønnbekken" />
		<tag k="ssr:stedsnr" v="720499" />
		<tag k="waterway" v="stream" />
	</node>
	<node lat="61.53408611052314" lon="9.850597218700058" id="-24334">
		<tag k="alt_name" v="Øvre Karustjønna" />
		<tag k="name" v="Øvre Karusstjønna" />
		<tag k="natural" v="water" />
		<tag k="ssr:stedsnr" v="720967" />
	</node>
	<node lat="61.37736325008282" lon="9.45449304922689" id="-24336">
		<tag k="name" v="Øvre Ågnsjøen" />
		<tag k="natural" v="water" />
		<tag k="ssr:stedsnr" v="736452" />
		<tag k="water" v="lake" />
	</node>
	<node lat="61.45795753374179" lon="9.994895218622222" id="-24337">
		<tag k="name" v="Vendalsvatnet" />
		<tag k="natural" v="water" />
		<tag k="ssr:stedsnr" v="737557" />
		<tag k="water" v="lake" />
	</node>
	<node lat="61.77140555424071" lon="9.978691672646315" id="-24341">
		<tag k="name" v="Djupbekken" />
		<tag k="ssr:stedsnr" v="738430" />
		<tag k="waterway" v="stream" />
	</node>
	<node lat="61.69379999904996" lon="9.928472230930977" id="-24345">
		<tag k="name" v="Fisken" />
		<tag k="ssr:stedsnr" v="738677" />
		<tag k="waterway" v="river" />
	</node>
	<node lat="61.402049995820065" lon="9.437249997850635" id="-24350">
		<tag k="name" v="Skarvtjønna" />
		<tag k="natural" v="water" />
		<tag k="ssr:stedsnr" v="750145" />
	</node>
	<node lat="61.34895000414628" lon="9.266397215652443" id="-24352">
		<tag k="name" v="Øyvassosen" />
		<tag k="natural" v="bay" />
		<tag k="ssr:stedsnr" v="750154" />
	</node>
	<node lat="61.48663611224244" lon="9.75545833149642" id="-24356">
		<tag k="name" v="Hølmvika" />
		<tag k="natural" v="bay" />
		<tag k="ssr:stedsnr" v="780137" />
	</node>
	<node lat="61.70615277797754" lon="9.96640833824786" id="-24370">
		<tag k="name" v="Kleman" />
		<tag k="place" v="locality" />
		<tag k="ssr:stedsnr" v="780448" />
	</node>
	<node lat="61.438113890781295" lon="9.788036104211681" id="-24374">
		<tag k="name" v="Midtre Årstultjønnin" />
		<tag k="natural" v="water" />
		<tag k="ssr:stedsnr" v="780428" />
	</node>
	<node lat="61.45218332988247" lon="9.981997216861798" id="-24375">
		<tag k="name" v="Klemdalsbekken" />
		<tag k="ssr:stedsnr" v="780429" />
		<tag k="waterway" v="stream" />
	</node>
	<node lat="61.48185833508268" lon="9.989830556320399" id="-24376">
		<tag k="name" v="Veslebråtan" />
		<tag k="natural" v="cape" />
		<tag k="ssr:stedsnr" v="780433" />
	</node>
	<node lat="61.444308632251186" lon="9.551514901034679" id="-24380">
		<tag k="alt_name" v="Store Sprentjønnin" />
		<tag k="name" v="Store Sprentjønna" />
		<tag k="natural" v="water" />
		<tag k="ssr:stedsnr" v="780554" />
	</node>
	<node lat="61.40721274656439" lon="9.658482924857745" id="-24384">
		<tag k="name" v="Øvre Gryttjønnin" />
		<tag k="natural" v="water" />
		<tag k="ssr:stedsnr" v="780773" />
		<tag k="water" v="lake" />
	</node>
	<node lat="61.56068611492283" lon="10.039772214441289" id="-24385">
		<tag k="name" v="Tolstadbekken" />
		<tag k="ssr:stedsnr" v="780992" />
		<tag k="waterway" v="stream" />
	</node>
	<node lat="61.43455277699678" lon="9.62349444996582" id="-24386">
		<tag k="name" v="Vesleholmen" />
		<tag k="ssr:stedsnr" v="780739" />
		<tag k="waterway" v="stream" />
	</node>
	<node lat="61.434263884661725" lon="9.727266660111475" id="-24388">
		<tag k="name" v="Fiskevika" />
		<tag k="natural" v="bay" />
		<tag k="ssr:stedsnr" v="780834" />
	</node>
	<node lat="61.43030833344241" lon="9.665427778055161" id="-24390">
		<tag k="name" v="Nedre Lon" />
		<tag k="natural" v="water" />
		<tag k="ssr:stedsnr" v="780841" />
		<tag k="water" v="lake" />
	</node>
	<node lat="61.5039444425401" lon="9.770247213851702" id="-24392">
		<tag k="name" v="Kjerringvika" />
		<tag k="natural" v="bay" />
		<tag k="ssr:stedsnr" v="781582" />
	</node>
	<node lat="61.45317500433338" lon="9.361574998357177" id="-24397">
		<tag k="name" v="Snubba" />
		<tag k="ssr:stedsnr" v="797369" />
		<tag k="waterway" v="stream" />
	</node>
	<node lat="61.46597499617773" lon="9.954655551325573" id="-24399">
		<tag k="alt_name" v="Svarttjørnin, nedre" />
		<tag k="name" v="Nedre Svarttjønna" />
		<tag k="natural" v="water" />
		<tag k="ssr:stedsnr" v="797273" />
	</node>
	<node lat="61.45422777955594" lon="9.96644999684471" id="-24402">
		<tag k="alt_name" v="Malitjørna" />
		<tag k="name" v="Maritjønna" />
		<tag k="natural" v="water" />
		<tag k="ssr:stedsnr" v="797287" />
	</node>
	<node lat="61.411136107837365" lon="9.750999991845681" id="-24403">
		<tag k="alt_name" v="Svana, vesle" />
		<tag k="name" v="Veslesvana" />
		<tag k="natural" v="water" />
		<tag k="ssr:stedsnr" v="797305" />
	</node>
	<node lat="61.43783053761973" lon="9.855509122560546" id="-24406">
		<tag k="alt_name" v="Dagstjørna, nedre" />
		<tag k="name" v="Dagstjønnin" />
		<tag k="natural" v="water" />
		<tag k="ssr:stedsnr" v="797321" />
		<tag k="water" v="lake" />
	</node>
	<node lat="61.4504249969266" lon="9.564208329281838" id="-24407">
		<tag k="name" v="Svartbekken" />
		<tag k="ssr:stedsnr" v="797432" />
		<tag k="waterway" v="stream" />
	</node>
	<node lat="61.356272224501645" lon="9.33784722016243" id="-24408">
		<tag k="name" v="Semmelbekken" />
		<tag k="ssr:stedsnr" v="797433" />
		<tag k="waterway" v="stream" />
	</node>
	<node lat="61.4720522964365" lon="9.988165926515139" id="-24409">
		<tag k="alt_name" v="Jomfrustod" />
		<tag k="name" v="Jamfrusto" />
		<tag k="natural" v="water" />
		<tag k="ssr:stedsnr" v="797617" />
		<tag k="water" v="lake" />
	</node>
	<node lat="61.43363055543369" lon="9.496983334131144" id="-24412">
		<tag k="name" v="Gravholmen" />
		<tag k="natural" v="cape" />
		<tag k="ssr:stedsnr" v="798383" />
	</node>
	<node lat="61.5765222208785" lon="9.850933327777291" id="-24416">
		<tag k="name" v="Harpefossen" />
		<tag k="natural" v="waterfall" />
		<tag k="ssr:stedsnr" v="799580" />
	</node>
	<node lat="61.5192361152042" lon="9.888952784256004" id="-24421">
		<tag k="alt_name" v="Kringleåstjørna, nedre;Nedre Kringletjørna" />
		<tag k="name" v="Nedre Kringlåstjønna" />
		<tag k="natural" v="water" />
		<tag k="ssr:stedsnr" v="799927" />
	</node>
	<node lat="61.419055558233275" lon="9.933313895799" id="-24444">
		<tag k="name" v="Tapptjønnbekken" />
		<tag k="ssr:stedsnr" v="841287" />
		<tag k="waterway" v="stream" />
	</node>
	<node lat="61.48571111503344" lon="9.896133339207699" id="-24451">
		<tag k="name" v="Grevssjøbekken" />
		<tag k="ssr:stedsnr" v="841476" />
		<tag k="waterway" v="stream" />
	</node>
	<node lat="61.45170277597037" lon="9.995919444683867" id="-24458">
		<tag k="name" v="Hernebben" />
		<tag k="natural" v="cape" />
		<tag k="ssr:stedsnr" v="841468" />
	</node>
	<node lat="61.898363893276816" lon="10.096061117367377" id="-24460">
		<tag k="name" v="Svarttjønnkvilta" />
		<tag k="ssr:stedsnr" v="841545" />
		<tag k="waterway" v="stream" />
	</node>
	<node lat="61.49802222287262" lon="9.872561104832242" id="-24466">
		<tag k="name" v="Mysubekken" />
		<tag k="ssr:stedsnr" v="841570" />
		<tag k="waterway" v="stream" />
	</node>
	<node lat="61.66396666994452" lon="9.961530550785556" id="-24469">
		<tag k="name" v="Ommundgardsøra" />
		<tag k="place" v="islet" />
		<tag k="ssr:stedsnr" v="841649" />
	</node>
	<node lat="61.71840555666506" lon="9.926091662226945" id="-24470">
		<tag k="name" v="Fløtardammen" />
		<tag k="ssr:stedsnr" v="841742" />
		<tag k="waterway" v="dam" />
	</node>
	<node lat="61.44853610708474" lon="9.579897221439046" id="-24472">
		<tag k="name" v="Nedre Svarttjønna" />
		<tag k="natural" v="water" />
		<tag k="ssr:stedsnr" v="841770" />
	</node>
	<node lat="61.397900000938975" lon="9.906988888977752" id="-24487">
		<tag k="name" v="Branttjønnet" />
		<tag k="natural" v="water" />
		<tag k="ssr:stedsnr" v="841266" />
	</node>
	<node lat="61.59672222149046" lon="9.899169439767235" id="-24489">
		<tag k="name" v="Spelarosmyra" />
		<tag k="ssr:stedsnr" v="841345" />
		<tag k="waterway" v="stream" />
	</node>
	<node lat="61.43523888983075" lon="9.863897215816413" id="-24493">
		<tag k="alt_name" v="Dagstjørna, øvre" />
		<tag k="name" v="Tapptjønna" />
		<tag k="natural" v="water" />
		<tag k="ssr:stedsnr" v="857364" />
	</node>
	<node lat="61.49138454415834" lon="9.916413208915397" id="-24498">
		<tag k="alt_name" v="Grevssjøen, øvre" />
		<tag k="name" v="Øvre Grevssjøen" />
		<tag k="natural" v="water" />
		<tag k="ssr:stedsnr" v="858258" />
	</node>
	<node lat="61.44224444015014" lon="9.940088891141889" id="-24499">
		<tag k="name" v="Hallbekken" />
		<tag k="ssr:stedsnr" v="858335" />
		<tag k="waterway" v="stream" />
	</node>
	<node lat="61.42483610941268" lon="9.542725009247835" id="-24501">
		<tag k="name" v="Grimsa" />
		<tag k="ssr:stedsnr" v="858435" />
		<tag k="waterway" v="stream" />
	</node>
	<node lat="61.45611944185059" lon="9.570549991263345" id="-24502">
		<tag k="name" v="Baldartjønna" />
		<tag k="natural" v="water" />
		<tag k="ssr:stedsnr" v="858458" />
	</node>
	<node lat="61.89807500041125" lon="10.05270000692451" id="-24505">
		<tag k="name" v="Gjermundstjønna" />
		<tag k="natural" v="water" />
		<tag k="ssr:stedsnr" v="859543" />
	</node>
	<node lat="61.87408333027405" lon="10.107952782161929" id="-24506">
		<tag k="fixme" v="multiple name tags, choose one and add the other to alt_name" />
		<tag k="name" v="Nørdre Lausåa;Lausåa" />
		<tag k="ssr:stedsnr" v="859548" />
		<tag k="waterway" v="stream" />
	</node>
	<node lat="61.43802777606929" lon="9.60253055323772" id="-24521">
		<tag k="name" v="Notstulbekken" />
		<tag k="ssr:stedsnr" v="960476" />
		<tag k="waterway" v="stream" />
	</node>
	<node lat="61.44702777694051" lon="9.96981943717451" id="-24539">
		<tag k="name" v="Midtre Gråsteintjønna" />
		<tag k="natural" v="water" />
		<tag k="ssr:stedsnr" v="962474" />
	</node>
	<node lat="61.48186666331795" lon="9.996399998285373" id="-24541">
		<tag k="name" v="Geitryggbråtan" />
		<tag k="natural" v="cape" />
		<tag k="ssr:stedsnr" v="962481" />
	</node>
	<node lat="61.904719443675624" lon="10.084897216154335" id="-24542">
		<tag k="name" v="Blekatjønnkroken" />
		<tag k="natural" v="water" />
		<tag k="ssr:stedsnr" v="962547" />
		<tag k="water" v="lake" />
	</node>
	<node lat="61.65017777919253" lon="9.973963889898464" id="-24548">
		<tag k="name" v="Rolegkroken" />
		<tag k="place" v="locality" />
		<tag k="ssr:stedsnr" v="962618" />
	</node>
	<node lat="61.54697050594305" lon="9.944931388887571" id="-24589">
		<tag k="name" v="Svarttjønna" />
		<tag k="natural" v="water" />
		<tag k="ssr:stedsnr" v="1082872" />
	</node>
</osm>
