<?xml version="1.0" encoding="UTF-8"?>
<osm generator="osmapis" version="0.6">
	<node id="-325631" lat="61.4371555533" lon="9.40625555755">
		<tag k="name" v="Tjønnhøa" />
		<tag k="natural" v="hill" />
		<tag k="place" v="locality" />
		<tag k="ssr:stedsnr" v="919430" />
	</node>
	<node id="-325623" lat="61.4392583349" lon="9.99390278108">
		<tag k="alt_name" v="Gravdalsberga" />
		<tag k="name" v="Gravdalsberget" />
		<tag k="natural" v="hill" />
		<tag k="place" v="locality" />
		<tag k="ssr:stedsnr" v="918644" />
	</node>
	<node id="-325622" lat="61.4221111087" lon="9.65247500743">
		<tag k="name" v="Grytranden" />
		<tag k="place" v="locality" />
		<tag k="ssr:stedsnr" v="918388" />
	</node>
	<node id="-325616" lat="61.4344916673" lon="9.55348054817">
		<tag k="name" v="Svartkampen" />
		<tag k="natural" v="hill" />
		<tag k="place" v="locality" />
		<tag k="ssr:stedsnr" v="902825" />
	</node>
	<node id="-325615" lat="61.410955558" lon="9.68941389455">
		<tag k="name" v="Lia" />
		<tag k="natural" v="slope" />
		<tag k="place" v="locality" />
		<tag k="ssr:stedsnr" v="902820" />
	</node>
	<node id="-325613" lat="61.4605499964" lon="9.54010833155">
		<tag k="name" v="Bingsberga" />
		<tag k="natural" v="hill" />
		<tag k="place" v="locality" />
		<tag k="ssr:stedsnr" v="902645" />
	</node>
	<node id="-325605" lat="61.6371861107" lon="9.95649166765">
		<tag k="name" v="Bjønnmyrbakken" />
		<tag k="natural" v="slope" />
		<tag k="place" v="locality" />
		<tag k="ssr:stedsnr" v="902438" />
	</node>
	<node id="-325603" lat="61.5373888896" lon="9.97493055275">
		<tag k="name" v="Fossehaugen" />
		<tag k="natural" v="hill" />
		<tag k="place" v="locality" />
		<tag k="ssr:stedsnr" v="902244" />
	</node>
	<node id="-325601" lat="61.5850000007" lon="9.99359444144">
		<tag k="name" v="Nordre Raudhaugen" />
		<tag k="natural" v="hill" />
		<tag k="place" v="locality" />
		<tag k="ssr:stedsnr" v="902342" />
	</node>
	<node id="-325599" lat="61.4087472255" lon="9.96535000486">
		<tag k="name" v="Steinknappan" />
		<tag k="natural" v="hill" />
		<tag k="place" v="locality" />
		<tag k="ssr:stedsnr" v="902284" />
	</node>
	<node id="-325598" lat="61.4356444419" lon="9.97712222567">
		<tag k="name" v="Loeslettin" />
		<tag k="place" v="locality" />
		<tag k="ssr:stedsnr" v="902281" />
	</node>
	<node id="-325597" lat="61.5847138897" lon="9.89740000858">
		<tag k="name" v="Lauvådalen" />
		<tag k="natural" v="valley" />
		<tag k="place" v="locality" />
		<tag k="ssr:stedsnr" v="902142" />
	</node>
	<node id="-325593" lat="61.5152083296" lon="9.96238611169">
		<tag k="name" v="Nesrabben" />
		<tag k="natural" v="ridge" />
		<tag k="place" v="locality" />
		<tag k="ssr:stedsnr" v="902022" />
	</node>
	<node id="-325590" lat="61.5272388927" lon="9.99103611996">
		<tag k="name" v="Erlandsrudtræet" />
		<tag k="natural" v="slope" />
		<tag k="place" v="locality" />
		<tag k="ssr:stedsnr" v="902002" />
	</node>
	<node id="-325583" lat="61.5686750024" lon="10.0120805472">
		<tag k="name" v="Skarvan" />
		<tag k="natural" v="hill" />
		<tag k="place" v="locality" />
		<tag k="ssr:stedsnr" v="720961" />
	</node>
	<node id="-325580" lat="61.6238722237" lon="9.94119166074">
		<tag k="name" v="Pepparhaugen" />
		<tag k="natural" v="hill" />
		<tag k="place" v="locality" />
		<tag k="ssr:stedsnr" v="720416" />
	</node>
	<node id="-325577" lat="61.4793583333" lon="10.019558328">
		<tag k="name" v="Mørkgongshøgda" />
		<tag k="natural" v="hill" />
		<tag k="place" v="locality" />
		<tag k="ssr:stedsnr" v="720359" />
	</node>
	<node id="-325576" lat="61.4807777823" lon="10.0181749978">
		<tag k="name" v="Kvilingsstulslettin" />
		<tag k="place" v="locality" />
		<tag k="ssr:stedsnr" v="720358" />
	</node>
	<node id="-325565" lat="61.7676222229" lon="9.94780555235">
		<tag k="fixme" v="consider natural=peak for the most distinct mountains in the district" />
		<tag k="name" v="Søre Eldåkampen" />
		<tag k="natural" v="hill" />
		<tag k="place" v="locality" />
		<tag k="ssr:stedsnr" v="678513" />
	</node>
	<node id="-325564" lat="61.7615638911" lon="9.7878111152">
		<tag k="name" v="Frydalen" />
		<tag k="natural" v="valley" />
		<tag k="place" v="locality" />
		<tag k="ssr:stedsnr" v="678507" />
	</node>
	<node id="-325558" lat="61.8478999959" lon="10.1468833267">
		<tag k="name" v="Voldalen" />
		<tag k="natural" v="valley" />
		<tag k="place" v="locality" />
		<tag k="ssr:stedsnr" v="677370" />
	</node>
	<node id="-325557" lat="61.8410611104" lon="10.0756249913">
		<tag k="fixme" v="consider natural=peak for the most distinct mountains in the district" />
		<tag k="name" v="Geitsida" />
		<tag k="natural" v="hill" />
		<tag k="place" v="locality" />
		<tag k="ssr:stedsnr" v="677369" />
	</node>
	<node id="-325546" lat="61.4647083299" lon="9.84251943862">
		<tag k="name" v="Buhaugskaret" />
		<tag k="natural" v="valley" />
		<tag k="place" v="locality" />
		<tag k="ssr:stedsnr" v="659462" />
	</node>
	<node id="-325542" lat="61.5398249973" lon="9.87249166021">
		<tag k="name" v="Beithaugdalen" />
		<tag k="natural" v="valley" />
		<tag k="place" v="locality" />
		<tag k="ssr:stedsnr" v="658935" />
	</node>
	<node id="-325540" lat="61.560350002" lon="9.82080833246">
		<tag k="name" v="Skallen" />
		<tag k="natural" v="hill" />
		<tag k="place" v="locality" />
		<tag k="ssr:stedsnr" v="658910" />
	</node>
	<node id="-325538" lat="61.4665916629" lon="9.42357221975">
		<tag k="name" v="Grytberga" />
		<tag k="natural" v="hill" />
		<tag k="place" v="locality" />
		<tag k="ssr:stedsnr" v="658538" />
	</node>
	<node id="-325527" lat="61.4428944408" lon="9.68580833906">
		<tag k="fixme" v="consider natural=peak for the most distinct mountains in the district" />
		<tag k="name" v="Grønslåhøgda" />
		<tag k="natural" v="hill" />
		<tag k="place" v="locality" />
		<tag k="ssr:stedsnr" v="720881" />
	</node>
	<node id="-325522" lat="61.6529888892" lon="9.9469111104">
		<tag k="name" v="Bjønnsletta" />
		<tag k="place" v="locality" />
		<tag k="ssr:stedsnr" v="720669" />
	</node>
	<node id="-325520" lat="61.426497219" lon="9.79404166592">
		<tag k="name" v="Orrhaugen" />
		<tag k="natural" v="hill" />
		<tag k="place" v="locality" />
		<tag k="ssr:stedsnr" v="720489" />
	</node>
	<node id="-325519" lat="61.4325611089" lon="9.50725833318">
		<tag k="name" v="Innleggen" />
		<tag k="place" v="locality" />
		<tag k="ssr:stedsnr" v="720635" />
	</node>
	<node id="-325516" lat="61.4324916647" lon="9.54565276961">
		<tag k="name" v="Rundhaugen" />
		<tag k="natural" v="hill" />
		<tag k="place" v="locality" />
		<tag k="ssr:stedsnr" v="720589" />
	</node>
	<node id="-325508" lat="61.5048888896" lon="9.9870555478">
		<tag k="name" v="Brånån" />
		<tag k="natural" v="slope" />
		<tag k="place" v="locality" />
		<tag k="ssr:stedsnr" v="720140" />
	</node>
	<node id="-325507" lat="61.5174916676" lon="9.96774166091">
		<tag k="name" v="Kamsdalen" />
		<tag k="natural" v="valley" />
		<tag k="place" v="locality" />
		<tag k="ssr:stedsnr" v="720123" />
	</node>
	<node id="-325505" lat="61.5455222207" lon="9.85383056403">
		<tag k="name" v="Veslrandikamp" />
		<tag k="natural" v="hill" />
		<tag k="place" v="locality" />
		<tag k="ssr:stedsnr" v="719936" />
	</node>
	<node id="-325503" lat="61.5392861091" lon="9.80980000462">
		<tag k="name" v="Kongshaugan" />
		<tag k="natural" v="hill" />
		<tag k="place" v="locality" />
		<tag k="ssr:stedsnr" v="719931" />
	</node>
	<node id="-325498" lat="61.6818083307" lon="9.96704166064">
		<tag k="name" v="Beitdokkløypa" />
		<tag k="natural" v="slope" />
		<tag k="place" v="locality" />
		<tag k="ssr:stedsnr" v="719635" />
	</node>
	<node id="-325494" lat="61.5685749997" lon="9.84223334108">
		<tag k="name" v="Sagabakken" />
		<tag k="natural" v="slope" />
		<tag k="place" v="locality" />
		<tag k="ssr:stedsnr" v="719111" />
	</node>
	<node id="-325485" lat="61.5323666644" lon="9.76276111226">
		<tag k="name" v="Åbbårtjønnsletta" />
		<tag k="place" v="locality" />
		<tag k="ssr:stedsnr" v="598961" />
	</node>
	<node id="-325477" lat="61.4725444465" lon="9.50734167438">
		<tag k="name" v="Rytdalen" />
		<tag k="natural" v="valley" />
		<tag k="place" v="locality" />
		<tag k="ssr:stedsnr" v="598649" />
	</node>
	<node id="-325475" lat="61.4405055569" lon="9.48390832725">
		<tag k="name" v="Åbortjønnrandin" />
		<tag k="natural" v="hill" />
		<tag k="place" v="locality" />
		<tag k="ssr:stedsnr" v="598617" />
	</node>
	<node id="-325472" lat="61.5204694462" lon="9.84426944965">
		<tag k="name" v="Bjønntjønnberga" />
		<tag k="natural" v="hill" />
		<tag k="place" v="locality" />
		<tag k="ssr:stedsnr" v="598612" />
	</node>
	<node id="-325465" lat="61.5190750012" lon="9.93963333981">
		<tag k="name" v="Borolia" />
		<tag k="natural" v="slope" />
		<tag k="place" v="locality" />
		<tag k="ssr:stedsnr" v="556923" />
	</node>
	<node id="-325462" lat="61.5518027796" lon="9.84060000325">
		<tag k="alt_name" v="Skurdalslia" />
		<tag k="name" v="Skordalslia" />
		<tag k="natural" v="slope" />
		<tag k="place" v="locality" />
		<tag k="ssr:stedsnr" v="555855" />
	</node>
	<node id="-325461" lat="61.683972223" lon="9.93902499611">
		<tag k="fixme" v="consider natural=peak for the most distinct mountains in the district" />
		<tag k="name" v="Veslfjell" />
		<tag k="natural" v="hill" />
		<tag k="place" v="locality" />
		<tag k="ssr:stedsnr" v="555684" />
	</node>
	<node id="-325458" lat="61.3673249998" lon="9.44570000875">
		<tag k="name" v="Brennhøa" />
		<tag k="natural" v="hill" />
		<tag k="place" v="locality" />
		<tag k="ssr:stedsnr" v="554471" />
	</node>
	<node id="-325455" lat="61.5335611104" lon="9.82333333323">
		<tag k="name" v="Buhaugen" />
		<tag k="natural" v="hill" />
		<tag k="place" v="locality" />
		<tag k="ssr:stedsnr" v="538957" />
	</node>
	<node id="-325454" lat="61.4361277778" lon="9.56631388467">
		<tag k="fixme" v="consider natural=peak for the most distinct mountains in the district" />
		<tag k="name" v="Nørdre Gråhøa" />
		<tag k="natural" v="hill" />
		<tag k="ssr:stedsnr" v="538794" />
	</node>
	<node id="-325453" lat="61.4398361122" lon="9.51121111028">
		<tag k="name" v="Bølelia" />
		<tag k="natural" v="slope" />
		<tag k="place" v="locality" />
		<tag k="ssr:stedsnr" v="538635" />
	</node>
	<node id="-325449" lat="61.4864722253" lon="9.82065556362">
		<tag k="name" v="Baulhaugan" />
		<tag k="natural" v="hill" />
		<tag k="place" v="locality" />
		<tag k="ssr:stedsnr" v="538611" />
	</node>
	<node id="-325438" lat="61.8796138889" lon="10.1593305486">
		<tag k="name" v="Tuven" />
		<tag k="natural" v="hill" />
		<tag k="place" v="locality" />
		<tag k="ssr:stedsnr" v="537583" />
	</node>
	<node id="-325433" lat="61.537825003" lon="9.79809165856">
		<tag k="alt_name" v="Skårstulhaugen" />
		<tag k="name" v="Skorstulhøgda" />
		<tag k="natural" v="hill" />
		<tag k="place" v="locality" />
		<tag k="ssr:stedsnr" v="495916" />
	</node>
	<node id="-325413" lat="61.8887638882" lon="10.0365638903">
		<tag k="fixme" v="consider natural=peak for the most distinct mountains in the district" />
		<tag k="name" v="Musvolkampen" />
		<tag k="natural" v="hill" />
		<tag k="place" v="locality" />
		<tag k="ssr:stedsnr" v="677558" />
	</node>
	<node id="-325411" lat="61.477702782" lon="9.96984444548">
		<tag k="fixme" v="multiple name tags, choose one and add the other to alt_name; consider natural=peak for the most distinct mountains in the district" />
		<tag k="name" v="Gausdalsberget;Nysæteråsen" />
		<tag k="natural" v="hill" />
		<tag k="place" v="locality" />
		<tag k="ssr:stedsnr" v="676601" />
	</node>
	<node id="-325409" lat="61.3351249979" lon="9.29195000281">
		<tag k="name" v="Veslehøa" />
		<tag k="natural" v="hill" />
		<tag k="place" v="locality" />
		<tag k="ssr:stedsnr" v="676497" />
	</node>
	<node id="-325407" lat="61.3585333304" lon="9.41412499524">
		<tag k="name" v="Brennhøa" />
		<tag k="natural" v="hill" />
		<tag k="place" v="locality" />
		<tag k="ssr:stedsnr" v="676442" />
	</node>
	<node id="-325403" lat="61.459813886" lon="9.61241666758">
		<tag k="name" v="Fagerlifjellet" />
		<tag k="natural" v="mountain_range" />
		<tag k="ssr:stedsnr" v="676275" />
	</node>
	<node id="-325396" lat="61.5742805559" lon="9.96159999569">
		<tag k="fixme" v="consider natural=peak for the most distinct mountains in the district" />
		<tag k="name" v="Brennhågåsberget" />
		<tag k="natural" v="hill" />
		<tag k="place" v="locality" />
		<tag k="ssr:stedsnr" v="477905" />
	</node>
	<node id="-325395" lat="61.5637333303" lon="9.87714443981">
		<tag k="name" v="Rota" />
		<tag k="place" v="locality" />
		<tag k="ssr:stedsnr" v="477902" />
	</node>
	<node id="-325388" lat="61.4544749994" lon="9.79583333747">
		<tag k="name" v="Fiskjeløyslia" />
		<tag k="natural" v="slope" />
		<tag k="place" v="locality" />
		<tag k="ssr:stedsnr" v="477480" />
	</node>
	<node id="-325376" lat="61.4939999989" lon="9.95047500845">
		<tag k="name" v="Heggerustberget" />
		<tag k="natural" v="hill" />
		<tag k="place" v="locality" />
		<tag k="ssr:stedsnr" v="477074" />
	</node>
	<node id="-325368" lat="61.5564222258" lon="10.052600005">
		<tag k="name" v="Dalshaugan" />
		<tag k="natural" v="hill" />
		<tag k="place" v="locality" />
		<tag k="ssr:stedsnr" v="659996" />
	</node>
	<node id="-325363" lat="61.5648888879" lon="9.97874722944">
		<tag k="name" v="Høgberget" />
		<tag k="natural" v="hill" />
		<tag k="place" v="locality" />
		<tag k="ssr:stedsnr" v="659848" />
	</node>
	<node id="-325357" lat="61.5839388885" lon="10.0052555635">
		<tag k="name" v="Rav" />
		<tag k="natural" v="slope" />
		<tag k="place" v="locality" />
		<tag k="ssr:stedsnr" v="659962" />
	</node>
	<node id="-325356" lat="61.5300861068" lon="9.76880833513">
		<tag k="name" v="Gålåflatin" />
		<tag k="place" v="locality" />
		<tag k="ssr:stedsnr" v="659638" />
	</node>
	<node id="-325354" lat="61.4229194461" lon="9.47566667584">
		<tag k="name" v="Storhaugen" />
		<tag k="natural" v="hill" />
		<tag k="place" v="locality" />
		<tag k="ssr:stedsnr" v="659623" />
	</node>
	<node id="-325350" lat="61.5475527742" lon="9.94820555203">
		<tag k="name" v="Svartberget" />
		<tag k="natural" v="hill" />
		<tag k="place" v="locality" />
		<tag k="ssr:stedsnr" v="659613" />
	</node>
	<node id="-325349" lat="61.8838166664" lon="10.1139277817">
		<tag k="name" v="Saujørn" />
		<tag k="natural" v="valley" />
		<tag k="place" v="locality" />
		<tag k="ssr:stedsnr" v="659610" />
	</node>
	<node id="-325345" lat="61.5053944405" lon="9.79201110368">
		<tag k="name" v="Lokkarsletta" />
		<tag k="place" v="locality" />
		<tag k="ssr:stedsnr" v="659577" />
	</node>
	<node id="-325341" lat="61.4200722246" lon="9.53489167154">
		<tag k="name" v="Dalastuguflata" />
		<tag k="place" v="locality" />
		<tag k="ssr:stedsnr" v="659565" />
	</node>
	<node id="-325337" lat="61.7448055593" lon="9.95745555253">
		<tag k="name" v="Steinbakken" />
		<tag k="natural" v="slope" />
		<tag k="place" v="locality" />
		<tag k="ssr:stedsnr" v="659539" />
	</node>
	<node id="-325325" lat="61.4717749959" lon="10.002244448">
		<tag k="name" v="Åsalia" />
		<tag k="natural" v="slope" />
		<tag k="place" v="locality" />
		<tag k="ssr:stedsnr" v="659358" />
	</node>
	<node id="-325324" lat="61.4856111102" lon="10.0121722165">
		<tag k="name" v="Hulderhaugberget" />
		<tag k="natural" v="hill" />
		<tag k="place" v="locality" />
		<tag k="ssr:stedsnr" v="659354" />
	</node>
	<node id="-325320" lat="61.5863638872" lon="9.96234166309">
		<tag k="name" v="Veslsætersletta" />
		<tag k="place" v="locality" />
		<tag k="ssr:stedsnr" v="659332" />
	</node>
	<node id="-325313" lat="61.4980916624" lon="9.9860888919">
		<tag k="name" v="Gråberget" />
		<tag k="natural" v="hill" />
		<tag k="place" v="locality" />
		<tag k="ssr:stedsnr" v="659090" />
	</node>
	<node id="-325304" lat="61.486055556" lon="9.76465554755">
		<tag k="name" v="Saltsletta" />
		<tag k="place" v="locality" />
		<tag k="ssr:stedsnr" v="658572" />
	</node>
	<node id="-325301" lat="61.4743750013" lon="9.68896666993">
		<tag k="name" v="Buhaugen" />
		<tag k="natural" v="hill" />
		<tag k="place" v="locality" />
		<tag k="ssr:stedsnr" v="658151" />
	</node>
	<node id="-325300" lat="61.5437999999" lon="9.79402221461">
		<tag k="name" v="Hovda" />
		<tag k="natural" v="hill" />
		<tag k="place" v="locality" />
		<tag k="ssr:stedsnr" v="435903" />
	</node>
	<node id="-325298" lat="61.6374055523" lon="9.88796388425">
		<tag k="alt_name" v="Veslefjell" />
		<tag k="fixme" v="multiple name tags, choose one and add the other to alt_name; consider natural=peak for the most distinct mountains in the district" />
		<tag k="name" v="Grønfjell;Veslfjell" />
		<tag k="natural" v="hill" />
		<tag k="place" v="locality" />
		<tag k="ssr:stedsnr" v="435745" />
	</node>
	<node id="-325292" lat="61.4487083316" lon="9.54085000653">
		<tag k="fixme" v="consider natural=peak for the most distinct mountains in the district" />
		<tag k="name" v="Sprenpiggen" />
		<tag k="natural" v="hill" />
		<tag k="place" v="locality" />
		<tag k="ssr:stedsnr" v="433414" />
	</node>
	<node id="-325288" lat="61.4572861081" lon="9.87507777232">
		<tag k="fixme" v="consider natural=peak for the most distinct mountains in the district" />
		<tag k="name" v="Lauvåsen" />
		<tag k="natural" v="hill" />
		<tag k="place" v="locality" />
		<tag k="ssr:stedsnr" v="417631" />
	</node>
	<node id="-325287" lat="61.4995666623" lon="9.76548055867">
		<tag k="name" v="Borgen" />
		<tag k="place" v="locality" />
		<tag k="ssr:stedsnr" v="417621" />
	</node>
	<node id="-325284" lat="61.427033333" lon="9.69611388625">
		<tag k="name" v="Kjeldhaugen" />
		<tag k="natural" v="hill" />
		<tag k="place" v="locality" />
		<tag k="ssr:stedsnr" v="416837" />
	</node>
	<node id="-325279" lat="61.6481138881" lon="9.97048611095">
		<tag k="name" v="Roberget" />
		<tag k="natural" v="hill" />
		<tag k="place" v="locality" />
		<tag k="ssr:stedsnr" v="416605" />
	</node>
	<node id="-325272" lat="61.6173805511" lon="9.97894167289">
		<tag k="name" v="Liuløypa" />
		<tag k="natural" v="slope" />
		<tag k="place" v="locality" />
		<tag k="ssr:stedsnr" v="416308" />
	</node>
	<node id="-325269" lat="61.5169222235" lon="9.93677222214">
		<tag k="name" v="Slettbakken" />
		<tag k="natural" v="slope" />
		<tag k="place" v="locality" />
		<tag k="ssr:stedsnr" v="416023" />
	</node>
	<node id="-325266" lat="61.5828777809" lon="9.87618888017">
		<tag k="name" v="Høgberget" />
		<tag k="natural" v="hill" />
		<tag k="place" v="locality" />
		<tag k="ssr:stedsnr" v="416130" />
	</node>
	<node id="-325262" lat="61.5734833311" lon="9.85052499525">
		<tag k="name" v="Steindalsbakken" />
		<tag k="natural" v="slope" />
		<tag k="place" v="locality" />
		<tag k="ssr:stedsnr" v="416117" />
	</node>
	<node id="-325259" lat="61.4580277769" lon="9.47555555282">
		<tag k="name" v="Breisjølia" />
		<tag k="natural" v="slope" />
		<tag k="place" v="locality" />
		<tag k="ssr:stedsnr" v="508182" />
	</node>
	<node id="-325250" lat="61.4290000007" lon="9.83339444614">
		<tag k="alt_name" v="Bjørnhaugen" />
		<tag k="name" v="Bjønnhaugen" />
		<tag k="natural" v="hill" />
		<tag k="place" v="locality" />
		<tag k="ssr:stedsnr" v="372363" />
	</node>
	<node id="-325248" lat="61.4331277759" lon="9.69870556078">
		<tag k="fixme" v="consider natural=peak for the most distinct mountains in the district" />
		<tag k="name" v="Storlebba" />
		<tag k="natural" v="hill" />
		<tag k="place" v="locality" />
		<tag k="ssr:stedsnr" v="372355" />
	</node>
	<node id="-325247" lat="61.4879194457" lon="9.4285111042">
		<tag k="name" v="Dyrtjønnhaugan" />
		<tag k="natural" v="hill" />
		<tag k="place" v="locality" />
		<tag k="ssr:stedsnr" v="372126" />
	</node>
	<node id="-325241" lat="61.5028499997" lon="9.72088055189">
		<tag k="fixme" v="consider natural=peak for the most distinct mountains in the district" />
		<tag k="name" v="Skardhaugen" />
		<tag k="natural" v="hill" />
		<tag k="place" v="locality" />
		<tag k="ssr:stedsnr" v="495938" />
	</node>
	<node id="-325239" lat="61.5240222182" lon="9.83821110488">
		<tag k="alt_name" v="Skjeraldkampen" />
		<tag k="name" v="Skjerellkampen" />
		<tag k="natural" v="hill" />
		<tag k="old_name" v="Kristislåhøgda" />
		<tag k="place" v="locality" />
		<tag k="ssr:stedsnr" v="495927" />
	</node>
	<node id="-325232" lat="61.7841583345" lon="10.0652027799">
		<tag k="fixme" v="consider natural=peak for the most distinct mountains in the district" />
		<tag k="name" v="Styggskardshøa" />
		<tag k="natural" v="hill" />
		<tag k="place" v="locality" />
		<tag k="ssr:stedsnr" v="495426" />
	</node>
	<node id="-325230" lat="61.615849996" lon="9.87677500081">
		<tag k="name" v="Kollbergholet" />
		<tag k="natural" v="valley" />
		<tag k="place" v="locality" />
		<tag k="ssr:stedsnr" v="495489" />
	</node>
	<node id="-325221" lat="61.4309330942" lon="9.60387907906">
		<tag k="fixme" v="multiple name tags, choose one and add the other to alt_name; consider natural=peak for the most distinct mountains in the district" />
		<tag k="name" v="Brennhøa;Grautfatet" />
		<tag k="natural" v="hill" />
		<tag k="place" v="locality" />
		<tag k="ssr:stedsnr" v="493336" />
	</node>
	<node id="-325210" lat="61.5568027792" lon="10.012088897">
		<tag k="name" v="Skomakerberget" />
		<tag k="natural" v="hill" />
		<tag k="place" v="locality" />
		<tag k="ssr:stedsnr" v="477991" />
	</node>
	<node id="-325208" lat="61.5644944482" lon="9.87526110717">
		<tag k="name" v="Roleg" />
		<tag k="place" v="locality" />
		<tag k="ssr:stedsnr" v="477901" />
	</node>
	<node id="-325205" lat="61.6398499998" lon="9.90051388209">
		<tag k="name" v="Svartholet" />
		<tag k="natural" v="valley" />
		<tag k="place" v="locality" />
		<tag k="ssr:stedsnr" v="477681" />
	</node>
	<node id="-325204" lat="61.472930557" lon="9.49301944832">
		<tag k="name" v="Veslehøa" />
		<tag k="natural" v="hill" />
		<tag k="place" v="locality" />
		<tag k="ssr:stedsnr" v="477663" />
	</node>
	<node id="-325203" lat="61.4914055527" lon="9.91008332785">
		<tag k="name" v="Grevssjøberget" />
		<tag k="natural" v="hill" />
		<tag k="place" v="locality" />
		<tag k="ssr:stedsnr" v="477532" />
	</node>
	<node id="-325202" lat="61.5435055549" lon="9.85683889082">
		<tag k="name" v="Kampeholet" />
		<tag k="natural" v="valley" />
		<tag k="place" v="locality" />
		<tag k="ssr:stedsnr" v="477971" />
	</node>
	<node id="-325201" lat="61.5732361089" lon="9.99752221546">
		<tag k="name" v="Hestbotnan" />
		<tag k="natural" v="slope" />
		<tag k="place" v="locality" />
		<tag k="ssr:stedsnr" v="477968" />
	</node>
	<node id="-325198" lat="61.4183277821" lon="9.74225277594">
		<tag k="name" v="Tiurberget" />
		<tag k="natural" v="hill" />
		<tag k="place" v="locality" />
		<tag k="ssr:stedsnr" v="477837" />
	</node>
	<node id="-325195" lat="61.5295083298" lon="9.80371389606">
		<tag k="name" v="Skaret" />
		<tag k="natural" v="valley" />
		<tag k="place" v="locality" />
		<tag k="ssr:stedsnr" v="477632" />
	</node>
	<node id="-325193" lat="61.5123416646" lon="9.77767500529">
		<tag k="name" v="Gålålia" />
		<tag k="natural" v="slope" />
		<tag k="place" v="locality" />
		<tag k="ssr:stedsnr" v="477630" />
	</node>
	<node id="-325188" lat="61.4961916682" lon="9.90761110949">
		<tag k="name" v="Lyhaugen" />
		<tag k="natural" v="hill" />
		<tag k="place" v="locality" />
		<tag k="ssr:stedsnr" v="477384" />
	</node>
	<node id="-325182" lat="61.4174694417" lon="9.94756945295">
		<tag k="name" v="Larvehei" />
		<tag k="natural" v="hill" />
		<tag k="place" v="locality" />
		<tag k="ssr:stedsnr" v="477285" />
	</node>
	<node id="-325180" lat="61.5559666693" lon="9.89120000344">
		<tag k="name" v="Reiret" />
		<tag k="place" v="locality" />
		<tag k="ssr:stedsnr" v="477188" />
	</node>
	<node id="-325173" lat="61.5352555581" lon="9.80423887989">
		<tag k="name" v="Pikhaugen" />
		<tag k="natural" v="hill" />
		<tag k="place" v="locality" />
		<tag k="ssr:stedsnr" v="476945" />
	</node>
	<node id="-325172" lat="61.5368888917" lon="9.79883333072">
		<tag k="name" v="Skårstulskaret" />
		<tag k="natural" v="valley" />
		<tag k="place" v="locality" />
		<tag k="ssr:stedsnr" v="476943" />
	</node>
	<node id="-325168" lat="61.4745000018" lon="9.4185805475">
		<tag k="name" v="Killingberget" />
		<tag k="natural" v="hill" />
		<tag k="place" v="locality" />
		<tag k="ssr:stedsnr" v="476529" />
	</node>
	<node id="-325167" lat="61.4712083299" lon="9.43010555408">
		<tag k="name" v="Damdokka" />
		<tag k="natural" v="valley" />
		<tag k="place" v="locality" />
		<tag k="ssr:stedsnr" v="476528" />
	</node>
	<node id="-325165" lat="61.8608358963" lon="10.0987546909">
		<tag k="fixme" v="consider natural=peak for the most distinct mountains in the district" />
		<tag k="name" v="Søre Geitsida" />
		<tag k="natural" v="hill" />
		<tag k="place" v="locality" />
		<tag k="ssr:stedsnr" v="474310" />
	</node>
	<node id="-325160" lat="61.5855583349" lon="9.83617500481">
		<tag k="alt_name" v="Hestskobakken" />
		<tag k="name" v="Hesteskobakken" />
		<tag k="natural" v="slope" />
		<tag k="place" v="locality" />
		<tag k="ssr:stedsnr" v="313610" />
	</node>
	<node id="-325153" lat="61.4611138907" lon="9.75421943764">
		<tag k="fixme" v="consider natural=peak for the most distinct mountains in the district" />
		<tag k="name" v="Tåkåstadåsen" />
		<tag k="natural" v="hill" />
		<tag k="place" v="locality" />
		<tag k="ssr:stedsnr" v="450157" />
	</node>
	<node id="-325151" lat="61.4018250012" lon="9.45182500092">
		<tag k="name" v="Gammelbulægret" />
		<tag k="place" v="locality" />
		<tag k="ssr:stedsnr" v="447153" />
	</node>
	<node id="-325148" lat="61.4391611072" lon="9.49285556267">
		<tag k="name" v="Kruthaugen" />
		<tag k="natural" v="hill" />
		<tag k="place" v="locality" />
		<tag k="ssr:stedsnr" v="234623" />
	</node>
	<node id="-325147" lat="61.4375805514" lon="9.5350444488">
		<tag k="name" v="Nedre Sprenhøa" />
		<tag k="natural" v="ridge" />
		<tag k="place" v="locality" />
		<tag k="ssr:stedsnr" v="234620" />
	</node>
	<node id="-325145" lat="61.5277277756" lon="9.84970277051">
		<tag k="name" v="Merratjønndalen" />
		<tag k="natural" v="valley" />
		<tag k="place" v="locality" />
		<tag k="ssr:stedsnr" v="234605" />
	</node>
	<node id="-325141" lat="61.523161113" lon="9.96100834106">
		<tag k="name" v="Øverjordshaugen" />
		<tag k="natural" v="hill" />
		<tag k="place" v="locality" />
		<tag k="ssr:stedsnr" v="234011" />
	</node>
	<node id="-325139" lat="61.5493194408" lon="9.86094721466">
		<tag k="name" v="Brattkampen" />
		<tag k="natural" v="slope" />
		<tag k="place" v="locality" />
		<tag k="ssr:stedsnr" v="295945" />
	</node>
	<node id="-325133" lat="61.440341666" lon="9.62133889691">
		<tag k="name" v="Gubbin" />
		<tag k="place" v="locality" />
		<tag k="ssr:stedsnr" v="295796" />
	</node>
	<node id="-325132" lat="61.5155916705" lon="9.85654445159">
		<tag k="name" v="Langvassdalen" />
		<tag k="natural" v="valley" />
		<tag k="place" v="locality" />
		<tag k="ssr:stedsnr" v="295634" />
	</node>
	<node id="-325125" lat="61.4719555551" lon="9.40361944405">
		<tag k="name" v="Hammerberget" />
		<tag k="natural" v="hill" />
		<tag k="place" v="locality" />
		<tag k="ssr:stedsnr" v="295557" />
	</node>
	<node id="-325123" lat="61.47455556" lon="9.97195277735">
		<tag k="name" v="Veslegausdal" />
		<tag k="natural" v="valley" />
		<tag k="place" v="locality" />
		<tag k="ssr:stedsnr" v="295503" />
	</node>
	<node id="-325117" lat="61.4900916623" lon="9.92804444141">
		<tag k="name" v="Svarthåmmåren" />
		<tag k="natural" v="hill" />
		<tag k="place" v="locality" />
		<tag k="ssr:stedsnr" v="295385" />
	</node>
	<node id="-325107" lat="61.5762138865" lon="9.9109333319">
		<tag k="name" v="Rudihaugen" />
		<tag k="natural" v="hill" />
		<tag k="place" v="locality" />
		<tag k="ssr:stedsnr" v="295170" />
	</node>
	<node id="-325101" lat="61.5678222245" lon="9.84392777335">
		<tag k="name" v="Sygardsbakken" />
		<tag k="natural" v="slope" />
		<tag k="place" v="locality" />
		<tag k="ssr:stedsnr" v="295122" />
	</node>
	<node id="-325091" lat="61.5172666687" lon="9.95946111598">
		<tag k="name" v="Lostadslettin" />
		<tag k="place" v="locality" />
		<tag k="ssr:stedsnr" v="295043" />
	</node>
	<node id="-325083" lat="61.4583999994" lon="9.58321388585">
		<tag k="name" v="Hesten" />
		<tag k="place" v="locality" />
		<tag k="ssr:stedsnr" v="294788" />
	</node>
	<node id="-325075" lat="61.8914222196" lon="10.0679805516">
		<tag k="name" v="Kvilarhaugen" />
		<tag k="natural" v="hill" />
		<tag k="place" v="locality" />
		<tag k="ssr:stedsnr" v="173509" />
	</node>
	<node id="-325062" lat="61.4316027784" lon="9.74595276933">
		<tag k="alt_name" v="Mosåranden" />
		<tag k="fixme" v="consider natural=peak for the most distinct mountains in the district" />
		<tag k="loc_name" v="Måsåranden" />
		<tag k="name" v="Måsårandin" />
		<tag k="natural" v="hill" />
		<tag k="place" v="locality" />
		<tag k="ssr:stedsnr" v="131804" />
	</node>
	<node id="-325059" lat="61.7719277803" lon="10.0697611142">
		<tag k="alt_name" v="Storslette" />
		<tag k="name" v="Storslættet" />
		<tag k="place" v="locality" />
		<tag k="ssr:stedsnr" v="131410" />
	</node>
	<node id="-325055" lat="61.4174499962" lon="9.70326110223">
		<tag k="name" v="Kjellhaugen" />
		<tag k="natural" v="ridge" />
		<tag k="place" v="locality" />
		<tag k="ssr:stedsnr" v="129321" />
	</node>
	<node id="-325054" lat="61.4811861124" lon="9.94723334037">
		<tag k="name" v="Heggesæterhøgda" />
		<tag k="natural" v="ridge" />
		<tag k="place" v="locality" />
		<tag k="ssr:stedsnr" v="129312" />
	</node>
	<node id="-325053" lat="61.4687777819" lon="9.60350832864">
		<tag k="alt_name" v="Grytingshøa" />
		<tag k="fixme" v="consider natural=peak for the most distinct mountains in the district" />
		<tag k="name" v="Gryttingshøa" />
		<tag k="natural" v="hill" />
		<tag k="place" v="locality" />
		<tag k="ssr:stedsnr" v="129310" />
	</node>
	<node id="-325049" lat="61.4491499978" lon="9.87517499707">
		<tag k="name" v="Lauvåslia" />
		<tag k="natural" v="slope" />
		<tag k="place" v="locality" />
		<tag k="ssr:stedsnr" v="129302" />
	</node>
	<node id="-325046" lat="61.540616668" lon="9.8669972166">
		<tag k="name" v="Beithaugen" />
		<tag k="natural" v="hill" />
		<tag k="place" v="locality" />
		<tag k="ssr:stedsnr" v="113940" />
	</node>
	<node id="-325043" lat="61.4116444408" lon="9.38827222717">
		<tag k="name" v="Glupen" />
		<tag k="natural" v="valley" />
		<tag k="place" v="locality" />
		<tag k="ssr:stedsnr" v="113531" />
	</node>
	<node id="-325042" lat="61.4636638903" lon="9.43090554791">
		<tag k="name" v="Espehalsen" />
		<tag k="place" v="locality" />
		<tag k="ssr:stedsnr" v="113522" />
	</node>
	<node id="-325041" lat="61.4779083363" lon="9.39962777353">
		<tag k="name" v="Haukberget" />
		<tag k="natural" v="hill" />
		<tag k="place" v="locality" />
		<tag k="ssr:stedsnr" v="113514" />
	</node>
	<node id="-325035" lat="61.6427000034" lon="9.97008889469">
		<tag k="name" v="Vassdalen" />
		<tag k="natural" v="valley" />
		<tag k="place" v="locality" />
		<tag k="ssr:stedsnr" v="113626" />
	</node>
	<node id="-325030" lat="61.5001916672" lon="10.0135861122">
		<tag k="name" v="Limushaugan" />
		<tag k="natural" v="hill" />
		<tag k="place" v="locality" />
		<tag k="ssr:stedsnr" v="113319" />
	</node>
	<node id="-325022" lat="61.5489305553" lon="9.88815556388">
		<tag k="name" v="Øygardshaugen" />
		<tag k="natural" v="hill" />
		<tag k="place" v="locality" />
		<tag k="ssr:stedsnr" v="113243" />
	</node>
	<node id="-325013" lat="61.5005638899" lon="9.93883888961">
		<tag k="name" v="Bågåskar" />
		<tag k="natural" v="valley" />
		<tag k="place" v="locality" />
		<tag k="ssr:stedsnr" v="113113" />
	</node>
	<node id="-325008" lat="61.5024749984" lon="9.94065276965">
		<tag k="alt_name" v="Rundhøgda" />
		<tag k="fixme" v="consider natural=peak for the most distinct mountains in the district" />
		<tag k="name" v="Rundhaugen" />
		<tag k="natural" v="hill" />
		<tag k="place" v="locality" />
		<tag k="ssr:stedsnr" v="253940" />
	</node>
	<node id="-325006" lat="61.5282805579" lon="9.80785555642">
		<tag k="fixme" v="consider natural=peak for the most distinct mountains in the district" />
		<tag k="name" v="Skarvan" />
		<tag k="natural" v="hill" />
		<tag k="place" v="locality" />
		<tag k="ssr:stedsnr" v="253915" />
	</node>
	<node id="-325003" lat="61.5388500006" lon="9.90958332837">
		<tag k="alt_name" v="Skårdalen" />
		<tag k="name" v="Skordalen" />
		<tag k="natural" v="valley" />
		<tag k="place" v="locality" />
		<tag k="ssr:stedsnr" v="253901" />
	</node>
	<node id="-325001" lat="61.5800277747" lon="9.99850000143">
		<tag k="alt_name" v="Søre Raudhaugen" />
		<tag k="fixme" v="consider natural=peak for the most distinct mountains in the district" />
		<tag k="name" v="Raudhaugen" />
		<tag k="natural" v="hill" />
		<tag k="place" v="locality" />
		<tag k="ssr:stedsnr" v="253814" />
	</node>
	<node id="-324992" lat="61.8571833305" lon="10.0846499969">
		<tag k="name" v="Søre Lausådalen" />
		<tag k="natural" v="valley" />
		<tag k="place" v="locality" />
		<tag k="ssr:stedsnr" v="252537" />
	</node>
	<node id="-324991" lat="61.8914222178" lon="10.0441944465">
		<tag k="name" v="Vassbulia" />
		<tag k="natural" v="slope" />
		<tag k="place" v="locality" />
		<tag k="ssr:stedsnr" v="252530" />
	</node>
	<node id="-324990" lat="61.7707694451" lon="10.0447833426">
		<tag k="fixme" v="consider natural=peak for the most distinct mountains in the district" />
		<tag k="name" v="Gråhøa" />
		<tag k="natural" v="hill" />
		<tag k="place" v="locality" />
		<tag k="ssr:stedsnr" v="252400" />
	</node>
	<node id="-324989" lat="61.800374999" lon="10.0511638877">
		<tag k="fixme" v="consider natural=peak for the most distinct mountains in the district" />
		<tag k="name" v="Storflågån" />
		<tag k="natural" v="hill" />
		<tag k="place" v="locality" />
		<tag k="ssr:stedsnr" v="252385" />
	</node>
	<node id="-324987" lat="61.3135361121" lon="9.32135833402">
		<tag k="name" v="Langsudalen" />
		<tag k="natural" v="valley" />
		<tag k="place" v="locality" />
		<tag k="ssr:stedsnr" v="251507" />
	</node>
	<node id="-324984" lat="61.4263333324" lon="9.49436666512">
		<tag k="name" v="Espedalen" />
		<tag k="natural" v="valley" />
		<tag k="place" v="locality" />
		<tag k="ssr:stedsnr" v="251446" />
	</node>
	<node id="-324983" lat="61.4260861097" lon="9.42358610779">
		<tag k="fixme" v="consider natural=peak for the most distinct mountains in the district" />
		<tag k="name" v="Fredriksæterfjellet" />
		<tag k="natural" v="hill" />
		<tag k="place" v="locality" />
		<tag k="ssr:stedsnr" v="251438" />
	</node>
	<node id="-324981" lat="61.4164805596" lon="9.39442778691">
		<tag k="name" v="Storhøa" />
		<tag k="natural" v="hill" />
		<tag k="place" v="locality" />
		<tag k="ssr:stedsnr" v="251422" />
	</node>
	<node id="-324978" lat="61.4360611091" lon="9.88787222872">
		<tag k="name" v="Kantliknappen" />
		<tag k="natural" v="hill" />
		<tag k="place" v="locality" />
		<tag k="ssr:stedsnr" v="251357" />
	</node>
	<node id="-324970" lat="61.3675162038" lon="9.44608889436">
		<tag k="name" v="Brennhøa" />
		<tag k="natural" v="hill" />
		<tag k="place" v="locality" />
		<tag k="ssr:stedsnr" v="82178" />
	</node>
	<node id="-324966" lat="61.5667027817" lon="10.0255027818">
		<tag k="name" v="Kvasskampen" />
		<tag k="natural" v="hill" />
		<tag k="place" v="locality" />
		<tag k="ssr:stedsnr" v="71810" />
	</node>
	<node id="-324965" lat="61.5899500042" lon="9.867174991">
		<tag k="name" v="Skutelen" />
		<tag k="natural" v="hill" />
		<tag k="place" v="locality" />
		<tag k="ssr:stedsnr" v="71623" />
	</node>
	<node id="-324962" lat="61.3987361089" lon="9.38585832731">
		<tag k="fixme" v="consider natural=peak for the most distinct mountains in the district" />
		<tag k="name" v="Febuknappen" />
		<tag k="natural" v="hill" />
		<tag k="place" v="locality" />
		<tag k="ssr:stedsnr" v="69502" />
	</node>
	<node id="-324960" lat="61.4742250025" lon="9.83377500905">
		<tag k="name" v="Jetningslia" />
		<tag k="natural" v="slope" />
		<tag k="place" v="locality" />
		<tag k="ssr:stedsnr" v="69325" />
	</node>
	<node id="-324952" lat="61.5791861093" lon="9.85426388129">
		<tag k="name" v="Solbråshaugen" />
		<tag k="natural" v="hill" />
		<tag k="place" v="locality" />
		<tag k="ssr:stedsnr" v="52555" />
	</node>
	<node id="-324951" lat="61.4261388931" lon="9.43133888542">
		<tag k="name" v="Tuneskriu" />
		<tag k="natural" v="slope" />
		<tag k="place" v="locality" />
		<tag k="ssr:stedsnr" v="52521" />
	</node>
	<node id="-324949" lat="61.7181638849" lon="9.95614721468">
		<tag k="name" v="Søre Eldålia" />
		<tag k="natural" v="slope" />
		<tag k="place" v="locality" />
		<tag k="ssr:stedsnr" v="52459" />
	</node>
	<node id="-324941" lat="61.597397219" lon="9.88327221864">
		<tag k="name" v="Bingen" />
		<tag k="natural" v="valley" />
		<tag k="place" v="locality" />
		<tag k="ssr:stedsnr" v="52302" />
	</node>
	<node id="-324938" lat="61.4924166689" lon="9.75573056107">
		<tag k="name" v="Randin" />
		<tag k="natural" v="hill" />
		<tag k="place" v="locality" />
		<tag k="ssr:stedsnr" v="52121" />
	</node>
	<node id="-324937" lat="61.5852555594" lon="9.88196110527">
		<tag k="name" v="Geitkleiva" />
		<tag k="natural" v="slope" />
		<tag k="place" v="locality" />
		<tag k="ssr:stedsnr" v="52119" />
	</node>
	<node id="-324935" lat="61.5899944486" lon="9.91162777698">
		<tag k="name" v="Olkilhaugen" />
		<tag k="natural" v="hill" />
		<tag k="place" v="locality" />
		<tag k="ssr:stedsnr" v="52112" />
	</node>
	<node id="-324931" lat="61.4983666647" lon="9.96781110552">
		<tag k="name" v="Kleivberget" />
		<tag k="natural" v="hill" />
		<tag k="place" v="locality" />
		<tag k="ssr:stedsnr" v="52101" />
	</node>
	<node id="-324927" lat="61.5230555534" lon="9.94071667421">
		<tag k="name" v="Krokhaugen" />
		<tag k="natural" v="hill" />
		<tag k="place" v="locality" />
		<tag k="ssr:stedsnr" v="52017" />
	</node>
	<node id="-324921" lat="61.5484944409" lon="9.83053888458">
		<tag k="name" v="Liabekkskaret" />
		<tag k="natural" v="valley" />
		<tag k="place" v="locality" />
		<tag k="ssr:stedsnr" v="234951" />
	</node>
	<node id="-324916" lat="61.5653638908" lon="9.82450277683">
		<tag k="name" v="Krokhaugen" />
		<tag k="natural" v="hill" />
		<tag k="place" v="locality" />
		<tag k="ssr:stedsnr" v="234923" />
	</node>
	<node id="-324914" lat="61.5685638911" lon="9.90260833484">
		<tag k="name" v="Auglmoen" />
		<tag k="place" v="locality" />
		<tag k="ssr:stedsnr" v="234874" />
	</node>
	<node id="-324911" lat="61.5554027741" lon="9.95754722635">
		<tag k="name" v="Bakkaflata" />
		<tag k="place" v="locality" />
		<tag k="ssr:stedsnr" v="234855" />
	</node>
	<node id="-324907" lat="61.4131305585" lon="9.7165527716">
		<tag k="name" v="Pikhaugen" />
		<tag k="natural" v="hill" />
		<tag k="place" v="locality" />
		<tag k="ssr:stedsnr" v="234813" />
	</node>
	<node id="-324903" lat="61.6883805548" lon="9.93102222048">
		<tag k="fixme" v="consider natural=peak for the most distinct mountains in the district" />
		<tag k="name" v="Reiptjønnfjellet" />
		<tag k="natural" v="hill" />
		<tag k="place" v="locality" />
		<tag k="ssr:stedsnr" v="234755" />
	</node>
	<node id="-324902" lat="61.6771944445" lon="9.95516110178">
		<tag k="name" v="Jørånholet" />
		<tag k="natural" v="valley" />
		<tag k="place" v="locality" />
		<tag k="ssr:stedsnr" v="234679" />
	</node>
	<node id="-324899" lat="61.6514694472" lon="9.91083056217">
		<tag k="name" v="Snøfonndokka" />
		<tag k="natural" v="slope" />
		<tag k="place" v="locality" />
		<tag k="ssr:stedsnr" v="234659" />
	</node>
	<node id="-324895" lat="61.4874416665" lon="9.80992777188">
		<tag k="name" v="Jetningsdalen" />
		<tag k="natural" v="valley" />
		<tag k="place" v="locality" />
		<tag k="ssr:stedsnr" v="234572" />
	</node>
	<node id="-324892" lat="61.423491671" lon="9.38327500588">
		<tag k="name" v="Skarvrandin" />
		<tag k="place" v="locality" />
		<tag k="ssr:stedsnr" v="234544" />
	</node>
	<node id="-324890" lat="61.4435416706" lon="9.7863916745">
		<tag k="name" v="Tollporten" />
		<tag k="place" v="locality" />
		<tag k="ssr:stedsnr" v="234475" />
	</node>
	<node id="-324883" lat="61.6001555546" lon="9.90130278284">
		<tag k="name" v="Risplassen" />
		<tag k="place" v="locality" />
		<tag k="ssr:stedsnr" v="234330" />
	</node>
	<node id="-324880" lat="61.5066055583" lon="10.0028111179">
		<tag k="fixme" v="consider natural=peak for the most distinct mountains in the district" />
		<tag k="name" v="Veslefjell" />
		<tag k="natural" v="hill" />
		<tag k="place" v="locality" />
		<tag k="ssr:stedsnr" v="234321" />
	</node>
	<node id="-324879" lat="61.5075722263" lon="10.0179277711">
		<tag k="fixme" v="consider natural=peak for the most distinct mountains in the district" />
		<tag k="name" v="Nørdre Nårkampen" />
		<tag k="natural" v="hill" />
		<tag k="place" v="locality" />
		<tag k="ssr:stedsnr" v="234320" />
	</node>
	<node id="-324878" lat="61.4970194424" lon="10.0005722185">
		<tag k="name" v="Søre Rundhaugen" />
		<tag k="natural" v="hill" />
		<tag k="place" v="locality" />
		<tag k="ssr:stedsnr" v="234319" />
	</node>
	<node id="-324873" lat="61.4055111073" lon="9.95009444247">
		<tag k="name" v="Stølhaugen" />
		<tag k="natural" v="hill" />
		<tag k="place" v="locality" />
		<tag k="ssr:stedsnr" v="234283" />
	</node>
	<node id="-324872" lat="61.4075611097" lon="9.96276110428">
		<tag k="name" v="Dørdalsglupen" />
		<tag k="natural" v="valley" />
		<tag k="place" v="locality" />
		<tag k="ssr:stedsnr" v="234279" />
	</node>
	<node id="-324868" lat="61.5263416704" lon="9.92236388417">
		<tag k="name" v="Bjønnslåskaret" />
		<tag k="natural" v="valley" />
		<tag k="place" v="locality" />
		<tag k="ssr:stedsnr" v="234214" />
	</node>
	<node id="-324867" lat="61.5174499984" lon="9.91336666494">
		<tag k="name" v="Rønningslia" />
		<tag k="natural" v="slope" />
		<tag k="place" v="locality" />
		<tag k="ssr:stedsnr" v="234209" />
	</node>
	<node id="-324860" lat="61.583638888" lon="9.91000555816">
		<tag k="name" v="Håmmåren" />
		<tag k="natural" v="hill" />
		<tag k="place" v="locality" />
		<tag k="ssr:stedsnr" v="234142" />
	</node>
	<node id="-324859" lat="61.4906138875" lon="9.71099444122">
		<tag k="name" v="Storskaret" />
		<tag k="natural" v="valley" />
		<tag k="place" v="locality" />
		<tag k="ssr:stedsnr" v="234139" />
	</node>
	<node id="-324857" lat="61.5893500031" lon="9.91640832995">
		<tag k="name" v="Sålåberga" />
		<tag k="natural" v="hill" />
		<tag k="place" v="locality" />
		<tag k="ssr:stedsnr" v="234129" />
	</node>
	<node id="-324854" lat="61.5731583316" lon="9.8614138891">
		<tag k="name" v="Grøntuvholet" />
		<tag k="natural" v="valley" />
		<tag k="place" v="locality" />
		<tag k="ssr:stedsnr" v="234079" />
	</node>
	<node id="-324853" lat="61.5732944438" lon="9.85764721484">
		<tag k="name" v="Kleivin" />
		<tag k="natural" v="hill" />
		<tag k="place" v="locality" />
		<tag k="ssr:stedsnr" v="234076" />
	</node>
	<node id="-324852" lat="61.497730552" lon="9.98940277576">
		<tag k="name" v="Nørdre Rundhaugen" />
		<tag k="natural" v="hill" />
		<tag k="place" v="locality" />
		<tag k="ssr:stedsnr" v="234064" />
	</node>
	<node id="-324845" lat="61.4688444484" lon="9.41156665905">
		<tag k="name" v="Espelandet" />
		<tag k="place" v="locality" />
		<tag k="ssr:stedsnr" v="234519" />
	</node>
	<node id="-324839" lat="61.5290499985" lon="9.85429999854">
		<tag k="name" v="Storhaugen" />
		<tag k="natural" v="hill" />
		<tag k="place" v="locality" />
		<tag k="ssr:stedsnr" v="10917" />
	</node>
	<node id="-324828" lat="61.4687194437" lon="9.96864167242">
		<tag k="fixme" v="consider natural=peak for the most distinct mountains in the district" />
		<tag k="name" v="Vendalshøgda" />
		<tag k="natural" v="hill" />
		<tag k="place" v="locality" />
		<tag k="ssr:stedsnr" v="9612" />
	</node>
	<node id="-324826" lat="61.4156750018" lon="9.52168056284">
		<tag k="fixme" v="consider natural=peak for the most distinct mountains in the district" />
		<tag k="name" v="Gravskardliberga" />
		<tag k="natural" v="hill" />
		<tag k="place" v="locality" />
		<tag k="ssr:stedsnr" v="8434" />
	</node>
	<node id="-324825" lat="61.4875361138" lon="9.47810556189">
		<tag k="alt_name" v="Steinhamran" />
		<tag k="fixme" v="consider natural=peak for the most distinct mountains in the district" />
		<tag k="name" v="Steinhamrom" />
		<tag k="natural" v="hill" />
		<tag k="place" v="locality" />
		<tag k="ssr:stedsnr" v="8428" />
	</node>
	<node id="-324821" lat="61.4629611093" lon="9.66706110732">
		<tag k="fixme" v="consider natural=peak for the most distinct mountains in the district" />
		<tag k="name" v="Svartkampen" />
		<tag k="natural" v="hill" />
		<tag k="place" v="locality" />
		<tag k="ssr:stedsnr" v="8315" />
	</node>
	<node id="-326732" lat="61.432833333" lon="9.73669999636">
		<tag k="name" v="Håkåsæterlia" />
		<tag k="natural" v="slope" />
		<tag k="place" v="locality" />
		<tag k="ssr:stedsnr" v="962847" />
	</node>
	<node id="-326724" lat="61.5429444489" lon="9.79586944113">
		<tag k="name" v="Kvitberget" />
		<tag k="natural" v="hill" />
		<tag k="place" v="locality" />
		<tag k="ssr:stedsnr" v="962940" />
	</node>
	<node id="-326719" lat="61.4324111098" lon="9.50399166639">
		<tag k="name" v="Steinberget" />
		<tag k="natural" v="hill" />
		<tag k="place" v="locality" />
		<tag k="ssr:stedsnr" v="962600" />
	</node>
	<node id="-326715" lat="61.410547218" lon="9.42570832643">
		<tag k="fixme" v="consider natural=peak for the most distinct mountains in the district" />
		<tag k="name" v="Agnsjøhøa" />
		<tag k="natural" v="hill" />
		<tag k="ssr:stedsnr" v="962542" />
	</node>
	<node id="-326714" lat="61.7177472242" lon="9.97955000009">
		<tag k="name" v="Bjønndalen" />
		<tag k="natural" v="valley" />
		<tag k="place" v="locality" />
		<tag k="ssr:stedsnr" v="962498" />
	</node>
	<node id="-326710" lat="61.3971500016" lon="9.94758611532">
		<tag k="name" v="Pigghaugen" />
		<tag k="natural" v="hill" />
		<tag k="place" v="locality" />
		<tag k="ssr:stedsnr" v="962351" />
	</node>
	<node id="-326704" lat="61.4697027736" lon="9.68345555307">
		<tag k="name" v="Sleoberget" />
		<tag k="natural" v="hill" />
		<tag k="place" v="locality" />
		<tag k="ssr:stedsnr" v="962141" />
	</node>
	<node id="-326702" lat="61.4972944477" lon="9.74356110992">
		<tag k="fixme" v="consider natural=peak for the most distinct mountains in the district" />
		<tag k="name" v="Veslefjell" />
		<tag k="natural" v="hill" />
		<tag k="place" v="locality" />
		<tag k="ssr:stedsnr" v="962133" />
	</node>
	<node id="-326701" lat="61.5812777789" lon="9.87578056138">
		<tag k="name" v="Styggdalen" />
		<tag k="natural" v="valley" />
		<tag k="place" v="locality" />
		<tag k="ssr:stedsnr" v="962131" />
	</node>
	<node id="-326686" lat="61.8730638895" lon="10.0348083346">
		<tag k="fixme" v="consider natural=peak for the most distinct mountains in the district" />
		<tag k="name" v="Nørdre Geitsida" />
		<tag k="natural" v="hill" />
		<tag k="place" v="locality" />
		<tag k="ssr:stedsnr" v="960301" />
	</node>
	<node id="-326679" lat="61.6039499978" lon="9.87055000906">
		<tag k="fixme" v="consider natural=peak for the most distinct mountains in the district" />
		<tag k="name" v="Åsen" />
		<tag k="natural" v="hill" />
		<tag k="place" v="locality" />
		<tag k="ssr:stedsnr" v="860591" />
	</node>
	<node id="-326670" lat="61.4679111121" lon="9.5736249948">
		<tag k="name" v="Hestådalen" />
		<tag k="natural" v="valley" />
		<tag k="place" v="locality" />
		<tag k="ssr:stedsnr" v="858402" />
	</node>
	<node id="-326669" lat="61.4535000011" lon="9.66216667101">
		<tag k="alt_name" v="Budalen" />
		<tag k="name" v="Bubekkdalen" />
		<tag k="natural" v="valley" />
		<tag k="place" v="locality" />
		<tag k="ssr:stedsnr" v="858336" />
	</node>
	<node id="-326667" lat="61.4261555535" lon="9.81477499258">
		<tag k="name" v="Årstulhøgda" />
		<tag k="natural" v="ridge" />
		<tag k="place" v="locality" />
		<tag k="ssr:stedsnr" v="858302" />
	</node>
	<node id="-326665" lat="61.4550833325" lon="9.77298334047">
		<tag k="alt_name" v="Trollhaugan" />
		<tag k="name" v="Trollhaugen" />
		<tag k="natural" v="hill" />
		<tag k="place" v="locality" />
		<tag k="ssr:stedsnr" v="858299" />
	</node>
	<node id="-326664" lat="61.4547499975" lon="9.91906110958">
		<tag k="fixme" v="consider natural=peak for the most distinct mountains in the district" />
		<tag k="name" v="Listulfjellet" />
		<tag k="natural" v="hill" />
		<tag k="place" v="locality" />
		<tag k="ssr:stedsnr" v="858296" />
	</node>
	<node id="-326661" lat="61.4428083308" lon="9.59701666016">
		<tag k="name" v="Notstulhøgda" />
		<tag k="natural" v="hill" />
		<tag k="place" v="locality" />
		<tag k="ssr:stedsnr" v="849103" />
	</node>
	<node id="-326655" lat="61.5710999961" lon="9.91246111245">
		<tag k="name" v="Galjehaugen" />
		<tag k="natural" v="hill" />
		<tag k="place" v="locality" />
		<tag k="ssr:stedsnr" v="841848" />
	</node>
	<node id="-326646" lat="61.86116111" lon="10.1331277704">
		<tag k="name" v="Kvannkjeldberget" />
		<tag k="natural" v="hill" />
		<tag k="place" v="locality" />
		<tag k="ssr:stedsnr" v="841597" />
	</node>
	<node id="-326638" lat="61.6054777756" lon="9.94150278507">
		<tag k="name" v="Kroksletthaugen" />
		<tag k="natural" v="hill" />
		<tag k="place" v="locality" />
		<tag k="ssr:stedsnr" v="841338" />
	</node>
	<node id="-326635" lat="61.5797388846" lon="9.95231666595">
		<tag k="name" v="Ormberget" />
		<tag k="natural" v="hill" />
		<tag k="place" v="locality" />
		<tag k="ssr:stedsnr" v="841328" />
	</node>
	<node id="-326634" lat="61.4094916684" lon="9.93700277654">
		<tag k="name" v="Gartjønnlia" />
		<tag k="natural" v="slope" />
		<tag k="place" v="locality" />
		<tag k="ssr:stedsnr" v="841289" />
	</node>
	<node id="-326621" lat="61.5882388865" lon="9.83681665989">
		<tag k="name" v="Knefallet" />
		<tag k="natural" v="slope" />
		<tag k="place" v="locality" />
		<tag k="ssr:stedsnr" v="841074" />
	</node>
	<node id="-326604" lat="61.747999998" lon="9.98670000847">
		<tag k="name" v="Hallhaugen" />
		<tag k="natural" v="hill" />
		<tag k="place" v="locality" />
		<tag k="ssr:stedsnr" v="799947" />
	</node>
	<node id="-326601" lat="61.5030999964" lon="9.77262500611">
		<tag k="name" v="Gudshaugen" />
		<tag k="natural" v="hill" />
		<tag k="place" v="locality" />
		<tag k="ssr:stedsnr" v="799941" />
	</node>
	<node id="-326599" lat="61.5521250023" lon="9.79074722713">
		<tag k="name" v="Svarthaugen" />
		<tag k="natural" v="hill" />
		<tag k="place" v="locality" />
		<tag k="ssr:stedsnr" v="799910" />
	</node>
	<node id="-326591" lat="61.7735583372" lon="10.0211472187">
		<tag k="name" v="Søre Bågåskardet" />
		<tag k="natural" v="valley" />
		<tag k="place" v="locality" />
		<tag k="ssr:stedsnr" v="799450" />
	</node>
	<node id="-326583" lat="61.3374083343" lon="9.39664721407">
		<tag k="name" v="Semmelhøa" />
		<tag k="natural" v="hill" />
		<tag k="place" v="locality" />
		<tag k="ssr:stedsnr" v="797498" />
	</node>
	<node id="-326582" lat="61.410230558" lon="9.40935833723">
		<tag k="fixme" v="consider natural=peak for the most distinct mountains in the district" />
		<tag k="name" v="Reinsknappen" />
		<tag k="natural" v="hill" />
		<tag k="place" v="locality" />
		<tag k="ssr:stedsnr" v="797465" />
	</node>
	<node id="-326581" lat="61.4765999995" lon="9.46890833982">
		<tag k="name" v="Stamphaugen" />
		<tag k="natural" v="hill" />
		<tag k="place" v="locality" />
		<tag k="ssr:stedsnr" v="797396" />
	</node>
	<node id="-326577" lat="61.4142222231" lon="9.60440833634">
		<tag k="name" v="Gråhøin" />
		<tag k="natural" v="mountain_range" />
		<tag k="ssr:stedsnr" v="797312" />
	</node>
	<node id="-326575" lat="61.4556777805" lon="9.66355000253">
		<tag k="alt_name" v="Svartkampflåa" />
		<tag k="name" v="Svartkampflåin" />
		<tag k="natural" v="valley" />
		<tag k="place" v="locality" />
		<tag k="ssr:stedsnr" v="797282" />
	</node>
	<node id="-326574" lat="61.4492305565" lon="9.73402500145">
		<tag k="name" v="Håkåsæterdalen" />
		<tag k="natural" v="valley" />
		<tag k="place" v="locality" />
		<tag k="ssr:stedsnr" v="797278" />
	</node>
	<node id="-326566" lat="61.464408334" lon="9.84603611754">
		<tag k="name" v="Buhaughøgda" />
		<tag k="natural" v="hill" />
		<tag k="place" v="locality" />
		<tag k="ssr:stedsnr" v="781463" />
	</node>
	<node id="-326561" lat="61.5317388873" lon="9.80440000607">
		<tag k="name" v="Skaret" />
		<tag k="natural" v="valley" />
		<tag k="place" v="locality" />
		<tag k="ssr:stedsnr" v="780917" />
	</node>
	<node id="-326554" lat="61.6861472217" lon="9.9580750066">
		<tag k="name" v="Fiskbakken" />
		<tag k="natural" v="slope" />
		<tag k="place" v="locality" />
		<tag k="ssr:stedsnr" v="780689" />
	</node>
	<node id="-326553" lat="61.4733750026" lon="9.48585000887">
		<tag k="name" v="Rytlia" />
		<tag k="natural" v="slope" />
		<tag k="place" v="locality" />
		<tag k="ssr:stedsnr" v="780589" />
	</node>
	<node id="-326550" lat="61.4522611145" lon="9.47400556097">
		<tag k="name" v="Kopparberget" />
		<tag k="natural" v="hill" />
		<tag k="place" v="locality" />
		<tag k="ssr:stedsnr" v="780545" />
	</node>
	<node id="-326546" lat="61.4746194411" lon="9.80236665766">
		<tag k="name" v="Stubberga" />
		<tag k="natural" v="hill" />
		<tag k="place" v="locality" />
		<tag k="ssr:stedsnr" v="780514" />
	</node>
	<node id="-326535" lat="61.4552250018" lon="9.98676110817">
		<tag k="name" v="Åberget" />
		<tag k="natural" v="hill" />
		<tag k="place" v="locality" />
		<tag k="ssr:stedsnr" v="780426" />
	</node>
	<node id="-326531" lat="61.6288583296" lon="9.93897222405">
		<tag k="name" v="Holsæterlia" />
		<tag k="natural" v="slope" />
		<tag k="place" v="locality" />
		<tag k="ssr:stedsnr" v="780363" />
	</node>
	<node id="-326522" lat="61.5489333336" lon="9.89599721705">
		<tag k="name" v="Pikhaugen" />
		<tag k="place" v="locality" />
		<tag k="ssr:stedsnr" v="780238" />
	</node>
	<node id="-326520" lat="61.5197166661" lon="9.92997500092">
		<tag k="name" v="Trollkyrkja" />
		<tag k="natural" v="hill" />
		<tag k="place" v="locality" />
		<tag k="ssr:stedsnr" v="780216" />
	</node>
	<node id="-326519" lat="61.5148999961" lon="9.9286333296">
		<tag k="name" v="Onnåsen" />
		<tag k="natural" v="slope" />
		<tag k="place" v="locality" />
		<tag k="ssr:stedsnr" v="780213" />
	</node>
	<node id="-326510" lat="61.5842333362" lon="9.90586667011">
		<tag k="name" v="Haugen" />
		<tag k="natural" v="hill" />
		<tag k="place" v="locality" />
		<tag k="ssr:stedsnr" v="780150" />
	</node>
	<node id="-326507" lat="61.4572666624" lon="9.55414722379">
		<tag k="fixme" v="consider natural=peak for the most distinct mountains in the district" />
		<tag k="name" v="Balstarsteinhøa" />
		<tag k="natural" v="hill" />
		<tag k="ssr:stedsnr" v="779786" />
	</node>
	<node id="-326506" lat="61.8805027809" lon="10.0328916601">
		<tag k="name" v="Dallia" />
		<tag k="natural" v="slope" />
		<tag k="place" v="locality" />
		<tag k="ssr:stedsnr" v="778315" />
	</node>
	<node id="-326501" lat="61.4061000028" lon="9.42859999101">
		<tag k="fixme" v="consider natural=peak for the most distinct mountains in the district" />
		<tag k="name" v="Gråurdhøa" />
		<tag k="natural" v="hill" />
		<tag k="place" v="locality" />
		<tag k="ssr:stedsnr" v="750146" />
	</node>
	<node id="-326496" lat="61.5731250039" lon="10.020086118">
		<tag k="name" v="Ommundlikampen" />
		<tag k="natural" v="hill" />
		<tag k="place" v="locality" />
		<tag k="ssr:stedsnr" v="738803" />
	</node>
	<node id="-326491" lat="61.5587111133" lon="9.79816389168">
		<tag k="alt_name" v="Baukholhaugen" />
		<tag k="name" v="Baukålshaugen" />
		<tag k="natural" v="hill" />
		<tag k="old_name" v="Baukålhaugen" />
		<tag k="place" v="locality" />
		<tag k="ssr:stedsnr" v="738589" />
	</node>
	<node id="-326488" lat="61.8708055529" lon="10.0044527718">
		<tag k="name" v="Skjerdalen" />
		<tag k="natural" v="valley" />
		<tag k="place" v="locality" />
		<tag k="ssr:stedsnr" v="738568" />
	</node>
	<node id="-326482" lat="61.7821916623" lon="10.077130551">
		<tag k="name" v="Styggskardet" />
		<tag k="natural" v="valley" />
		<tag k="place" v="locality" />
		<tag k="ssr:stedsnr" v="738428" />
	</node>
	<node id="-326479" lat="61.4436722243" lon="9.38858611141">
		<tag k="name" v="Vakthaugen" />
		<tag k="natural" v="hill" />
		<tag k="place" v="locality" />
		<tag k="ssr:stedsnr" v="737407" />
	</node>
	<node id="-326478" lat="61.4688583326" lon="9.55532777387">
		<tag k="fixme" v="consider natural=peak for the most distinct mountains in the district" />
		<tag k="name" v="Ruten" />
		<tag k="natural" v="hill" />
		<tag k="place" v="locality" />
		<tag k="ssr:stedsnr" v="737359" />
	</node>
	<node id="-326475" lat="61.3651749981" lon="9.46152499314">
		<tag k="fixme" v="consider natural=peak for the most distinct mountains in the district" />
		<tag k="name" v="Krusgravkampen" />
		<tag k="natural" v="hill" />
		<tag k="place" v="locality" />
		<tag k="ssr:stedsnr" v="736440" />
	</node>
	<node id="-326459" lat="61.5102555557" lon="9.73064999561">
		<tag k="name" v="Sandslia" />
		<tag k="natural" v="slope" />
		<tag k="place" v="locality" />
		<tag k="ssr:stedsnr" v="616941" />
	</node>
	<node id="-326444" lat="61.753422221" lon="10.0460527811">
		<tag k="fixme" v="consider natural=peak for the most distinct mountains in the district" />
		<tag k="name" v="Rundhøa" />
		<tag k="natural" v="hill" />
		<tag k="place" v="locality" />
		<tag k="ssr:stedsnr" v="616399" />
	</node>
	<node id="-326441" lat="61.3390500028" lon="9.35994999658">
		<tag k="name" v="Langsudalslia" />
		<tag k="natural" v="slope" />
		<tag k="place" v="locality" />
		<tag k="ssr:stedsnr" v="615480" />
	</node>
	<node id="-326439" lat="61.4374861133" lon="9.35183332641">
		<tag k="name" v="Snubbhøa" />
		<tag k="natural" v="hill" />
		<tag k="place" v="locality" />
		<tag k="ssr:stedsnr" v="615422" />
	</node>
	<node id="-326438" lat="61.422161108" lon="9.42690554761">
		<tag k="fixme" v="consider natural=peak for the most distinct mountains in the district" />
		<tag k="name" v="Tunehornet" />
		<tag k="natural" v="hill" />
		<tag k="place" v="locality" />
		<tag k="ssr:stedsnr" v="615415" />
	</node>
	<node id="-326435" lat="61.4470611087" lon="9.59414722784">
		<tag k="name" v="Børkdalsfjellet" />
		<tag k="natural" v="mountain_range" />
		<tag k="ssr:stedsnr" v="615303" />
	</node>
	<node id="-326433" lat="61.4320805516" lon="9.51505000485">
		<tag k="name" v="Rutli" />
		<tag k="natural" v="slope" />
		<tag k="place" v="locality" />
		<tag k="ssr:stedsnr" v="615411" />
	</node>
	<node id="-326432" lat="61.4283583294" lon="9.36415000583">
		<tag k="name" v="Storhaugen" />
		<tag k="natural" v="hill" />
		<tag k="place" v="locality" />
		<tag k="ssr:stedsnr" v="615406" />
	</node>
	<node id="-326427" lat="61.4704083343" lon="9.77574721885">
		<tag k="fixme" v="consider natural=peak for the most distinct mountains in the district" />
		<tag k="name" v="Triltåsen" />
		<tag k="natural" v="hill" />
		<tag k="place" v="locality" />
		<tag k="ssr:stedsnr" v="614267" />
	</node>
	<node id="-326425" lat="61.5325999959" lon="9.8396777792">
		<tag k="name" v="Milthaugen" />
		<tag k="natural" v="hill" />
		<tag k="place" v="locality" />
		<tag k="ssr:stedsnr" v="598944" />
	</node>
	<node id="-326423" lat="61.5510805543" lon="9.81541665846">
		<tag k="name" v="Moldbakken" />
		<tag k="natural" v="slope" />
		<tag k="place" v="locality" />
		<tag k="ssr:stedsnr" v="598938" />
	</node>
	<node id="-326420" lat="61.6655388898" lon="9.9509583336">
		<tag k="name" v="Nysæterlia" />
		<tag k="natural" v="slope" />
		<tag k="place" v="locality" />
		<tag k="ssr:stedsnr" v="598671" />
	</node>
	<node id="-326412" lat="61.4176055566" lon="9.77984722407">
		<tag k="name" v="Årstullia" />
		<tag k="natural" v="slope" />
		<tag k="place" v="locality" />
		<tag k="ssr:stedsnr" v="598469" />
	</node>
	<node id="-326409" lat="61.5985305539" lon="9.90270278176">
		<tag k="name" v="Atndalshaugen" />
		<tag k="natural" v="hill" />
		<tag k="place" v="locality" />
		<tag k="ssr:stedsnr" v="598318" />
	</node>
	<node id="-326407" lat="61.5773249979" lon="9.97022223071">
		<tag k="name" v="Kvitberget" />
		<tag k="natural" v="hill" />
		<tag k="place" v="locality" />
		<tag k="ssr:stedsnr" v="598307" />
	</node>
	<node id="-326402" lat="61.4354249987" lon="9.99622222728">
		<tag k="name" v="Gravdalen" />
		<tag k="natural" v="valley" />
		<tag k="place" v="locality" />
		<tag k="ssr:stedsnr" v="598269" />
	</node>
	<node id="-326400" lat="61.517127782" lon="9.93381944964">
		<tag k="name" v="Heggerusta" />
		<tag k="natural" v="slope" />
		<tag k="place" v="locality" />
		<tag k="ssr:stedsnr" v="598211" />
	</node>
	<node id="-326395" lat="61.5840666657" lon="9.87956667292">
		<tag k="name" v="Geitsettan" />
		<tag k="natural" v="hill" />
		<tag k="place" v="locality" />
		<tag k="ssr:stedsnr" v="598136" />
	</node>
	<node id="-326392" lat="61.4804944449" lon="9.74125555747">
		<tag k="fixme" v="consider natural=peak for the most distinct mountains in the district" />
		<tag k="name" v="Skriukampen" />
		<tag k="natural" v="hill" />
		<tag k="place" v="locality" />
		<tag k="ssr:stedsnr" v="598126" />
	</node>
	<node id="-326387" lat="61.584999999" lon="9.8607861021">
		<tag k="name" v="Trummhaugen" />
		<tag k="natural" v="hill" />
		<tag k="place" v="locality" />
		<tag k="ssr:stedsnr" v="598060" />
	</node>
	<node id="-326381" lat="61.4856472217" lon="9.68799167532">
		<tag k="name" v="Turukluftin" />
		<tag k="natural" v="valley" />
		<tag k="place" v="locality" />
		<tag k="ssr:stedsnr" v="597149" />
	</node>
	<node id="-326378" lat="61.5736083347" lon="9.88334999728">
		<tag k="name" v="Gryttingshaugen" />
		<tag k="natural" v="hill" />
		<tag k="place" v="locality" />
		<tag k="ssr:stedsnr" v="598850" />
	</node>
	<node id="-326377" lat="61.4633416705" lon="9.70062221528">
		<tag k="name" v="Gravhaugan" />
		<tag k="natural" v="hill" />
		<tag k="place" v="locality" />
		<tag k="ssr:stedsnr" v="598845" />
	</node>
	<node id="-326376" lat="61.5594750044" lon="9.96674166675">
		<tag k="name" v="Tingflata" />
		<tag k="place" v="locality" />
		<tag k="ssr:stedsnr" v="598836" />
	</node>
	<node id="-326371" lat="61.4188361113" lon="9.74433333752">
		<tag k="name" v="Bjønndalen" />
		<tag k="natural" v="valley" />
		<tag k="place" v="locality" />
		<tag k="ssr:stedsnr" v="598771" />
	</node>
	<node id="-326369" lat="61.42174167" lon="9.54255832402">
		<tag k="alt_name" v="Seterberga" />
		<tag k="loc_name" v="Langveggberget" />
		<tag k="name" v="Sæterberga" />
		<tag k="natural" v="hill" />
		<tag k="place" v="locality" />
		<tag k="ssr:stedsnr" v="587612" />
	</node>
	<node id="-326368" lat="61.5266666645" lon="9.82942499988">
		<tag k="name" v="Kirstislåhøgda" />
		<tag k="natural" v="hill" />
		<tag k="place" v="locality" />
		<tag k="ssr:stedsnr" v="576424" />
	</node>
	<node id="-326366" lat="61.7330333345" lon="10.0291555494">
		<tag k="fixme" v="consider natural=peak for the most distinct mountains in the district" />
		<tag k="name" v="Svartkampen" />
		<tag k="natural" v="hill" />
		<tag k="place" v="locality" />
		<tag k="ssr:stedsnr" v="556943" />
	</node>
	<node id="-326359" lat="61.3152583335" lon="9.31469999899">
		<tag k="name" v="Grønfly" />
		<tag k="natural" v="hill" />
		<tag k="place" v="locality" />
		<tag k="ssr:stedsnr" v="554525" />
	</node>
	<node id="-326358" lat="61.2978027756" lon="9.34685555377">
		<tag k="alt_name" v="Langsua, s" />
		<tag k="fixme" v="consider natural=peak for the most distinct mountains in the district" />
		<tag k="name" v="Søre Langsua" />
		<tag k="natural" v="hill" />
		<tag k="place" v="locality" />
		<tag k="ssr:stedsnr" v="554510" />
	</node>
	<node id="-326356" lat="61.408375003" lon="9.38013333299">
		<tag k="fixme" v="consider natural=peak for the most distinct mountains in the district" />
		<tag k="name" v="Storhøpiggen" />
		<tag k="natural" v="hill" />
		<tag k="place" v="locality" />
		<tag k="ssr:stedsnr" v="554494" />
	</node>
	<node id="-326354" lat="61.4818194465" lon="9.91392499105">
		<tag k="name" v="Grevssjødalen" />
		<tag k="natural" v="valley" />
		<tag k="place" v="locality" />
		<tag k="ssr:stedsnr" v="554322" />
	</node>
	<node id="-326352" lat="61.458113893" lon="9.65566111658">
		<tag k="fixme" v="consider natural=peak for the most distinct mountains in the district" />
		<tag k="name" v="Tverrfjellet" />
		<tag k="natural" v="hill" />
		<tag k="place" v="locality" />
		<tag k="ssr:stedsnr" v="554308" />
	</node>
	<node id="-326350" lat="61.4991833324" lon="9.85428055782">
		<tag k="name" v="Isumhøgda" />
		<tag k="natural" v="hill" />
		<tag k="place" v="locality" />
		<tag k="ssr:stedsnr" v="554273" />
	</node>
	<node id="-326338" lat="61.5716277792" lon="9.96243610718">
		<tag k="name" v="Saltingen" />
		<tag k="place" v="locality" />
		<tag k="ssr:stedsnr" v="538880" />
	</node>
	<node id="-326335" lat="61.5538749985" lon="9.96031388271">
		<tag k="name" v="Bergehaugen" />
		<tag k="natural" v="hill" />
		<tag k="place" v="locality" />
		<tag k="ssr:stedsnr" v="538846" />
	</node>
	<node id="-326333" lat="61.4024111101" lon="9.72457222941">
		<tag k="name" v="Storfossberga" />
		<tag k="natural" v="hill" />
		<tag k="place" v="locality" />
		<tag k="ssr:stedsnr" v="538811" />
	</node>
	<node id="-326311" lat="61.6918027816" lon="9.91889722624">
		<tag k="name" v="Reiptjønnhøgda" />
		<tag k="natural" v="hill" />
		<tag k="place" v="locality" />
		<tag k="ssr:stedsnr" v="537715" />
	</node>
	<node id="-326309" lat="61.7671555517" lon="9.99432778309">
		<tag k="name" v="Bågåskarsmillom" />
		<tag k="natural" v="slope" />
		<tag k="place" v="locality" />
		<tag k="ssr:stedsnr" v="537537" />
	</node>
	<node id="-326305" lat="61.7205944408" lon="9.93500000177">
		<tag k="name" v="Nørdre Eldålia" />
		<tag k="natural" v="slope" />
		<tag k="place" v="locality" />
		<tag k="ssr:stedsnr" v="537480" />
	</node>
	<node id="-326304" lat="61.3958694477" lon="9.93232778203">
		<tag k="name" v="Gardtjønnhaugan" />
		<tag k="natural" v="hill" />
		<tag k="place" v="locality" />
		<tag k="ssr:stedsnr" v="537347" />
	</node>
	<node id="-326287" lat="61.5361222199" lon="10.0255527732">
		<tag k="name" v="Åbakkdalen" />
		<tag k="natural" v="valley" />
		<tag k="place" v="locality" />
		<tag k="ssr:stedsnr" v="524587" />
	</node>
	<node id="-326285" lat="61.5318305538" lon="9.91914722523">
		<tag k="name" v="Hungerlia" />
		<tag k="natural" v="slope" />
		<tag k="place" v="locality" />
		<tag k="ssr:stedsnr" v="435917" />
	</node>
	<node id="-326277" lat="61.8635944413" lon="10.0683777804">
		<tag k="name" v="Nørdre Lausådalen" />
		<tag k="natural" v="valley" />
		<tag k="place" v="locality" />
		<tag k="ssr:stedsnr" v="434565" />
	</node>
	<node id="-326275" lat="61.4315833335" lon="9.53313889124">
		<tag k="fixme" v="consider natural=peak for the most distinct mountains in the district" />
		<tag k="name" v="Sprenberga" />
		<tag k="natural" v="hill" />
		<tag k="place" v="locality" />
		<tag k="ssr:stedsnr" v="434379" />
	</node>
	<node id="-326267" lat="61.4869444453" lon="9.72095833602">
		<tag k="fixme" v="consider natural=peak for the most distinct mountains in the district" />
		<tag k="name" v="Valsfjellet" />
		<tag k="natural" v="hill" />
		<tag k="place" v="locality" />
		<tag k="ssr:stedsnr" v="433250" />
	</node>
	<node id="-326265" lat="61.3875055531" lon="9.43367500119">
		<tag k="fixme" v="consider natural=peak for the most distinct mountains in the district" />
		<tag k="name" v="Vardeknappen" />
		<tag k="natural" v="hill" />
		<tag k="place" v="locality" />
		<tag k="ssr:stedsnr" v="433451" />
	</node>
	<node id="-326254" lat="61.4191388855" lon="9.61736667058">
		<tag k="name" v="Grautfatet" />
		<tag k="natural" v="valley" />
		<tag k="place" v="locality" />
		<tag k="ssr:stedsnr" v="416773" />
	</node>
	<node id="-326250" lat="61.482050003" lon="9.48164999637">
		<tag k="name" v="Gråståkån" />
		<tag k="place" v="locality" />
		<tag k="ssr:stedsnr" v="416601" />
	</node>
	<node id="-326246" lat="61.8999444402" lon="10.0145166675">
		<tag k="fixme" v="consider natural=peak for the most distinct mountains in the district" />
		<tag k="name" v="Myldingsfjellet" />
		<tag k="natural" v="hill" />
		<tag k="place" v="locality" />
		<tag k="ssr:stedsnr" v="416560" />
	</node>
	<node id="-326242" lat="61.5353805563" lon="9.99009444631">
		<tag k="name" v="Torjeflata" />
		<tag k="place" v="locality" />
		<tag k="ssr:stedsnr" v="416184" />
	</node>
	<node id="-326234" lat="61.5921385703" lon="9.84297104178">
		<tag k="name" v="Glupen" />
		<tag k="natural" v="valley" />
		<tag k="place" v="locality" />
		<tag k="ssr:stedsnr" v="416072" />
	</node>
	<node id="-326232" lat="61.5827500034" lon="9.86832222373">
		<tag k="name" v="Skarshaugen" />
		<tag k="natural" v="hill" />
		<tag k="place" v="locality" />
		<tag k="ssr:stedsnr" v="416065" />
	</node>
	<node id="-326226" lat="61.43840278" lon="9.62463333558">
		<tag k="name" v="Månin" />
		<tag k="place" v="locality" />
		<tag k="ssr:stedsnr" v="415812" />
	</node>
	<node id="-326205" lat="61.7933416659" lon="10.0389638842">
		<tag k="fixme" v="consider natural=peak for the most distinct mountains in the district" />
		<tag k="name" v="Bågåskardshøgdin" />
		<tag k="natural" v="hill" />
		<tag k="place" v="locality" />
		<tag k="ssr:stedsnr" v="373432" />
	</node>
	<node id="-326200" lat="61.4694583333" lon="9.93214166219">
		<tag k="name" v="Svepberget" />
		<tag k="natural" v="hill" />
		<tag k="place" v="locality" />
		<tag k="ssr:stedsnr" v="372335" />
	</node>
	<node id="-326199" lat="61.4785694441" lon="9.92056944643">
		<tag k="name" v="Toftsæterhøgda" />
		<tag k="natural" v="hill" />
		<tag k="place" v="locality" />
		<tag k="ssr:stedsnr" v="372331" />
	</node>
	<node id="-326189" lat="61.5442472186" lon="9.84239444575">
		<tag k="name" v="Storrandikamp" />
		<tag k="natural" v="hill" />
		<tag k="place" v="locality" />
		<tag k="ssr:stedsnr" v="355949" />
	</node>
	<node id="-326187" lat="61.5447361133" lon="9.77842222769">
		<tag k="name" v="Bakselabakkan" />
		<tag k="natural" v="slope" />
		<tag k="place" v="locality" />
		<tag k="ssr:stedsnr" v="355936" />
	</node>
	<node id="-326181" lat="61.5651305527" lon="9.96888056404">
		<tag k="name" v="Pyntaberget" />
		<tag k="natural" v="hill" />
		<tag k="place" v="locality" />
		<tag k="ssr:stedsnr" v="355802" />
	</node>
	<node id="-326180" lat="61.5661722237" lon="9.97390000729">
		<tag k="fixme" v="consider natural=peak for the most distinct mountains in the district" />
		<tag k="name" v="Håmmårshøgda" />
		<tag k="natural" v="hill" />
		<tag k="place" v="locality" />
		<tag k="ssr:stedsnr" v="355801" />
	</node>
	<node id="-326179" lat="61.5620638911" lon="9.98041389739">
		<tag k="fixme" v="consider natural=peak for the most distinct mountains in the district" />
		<tag k="name" v="Bingen" />
		<tag k="natural" v="hill" />
		<tag k="place" v="locality" />
		<tag k="ssr:stedsnr" v="355794" />
	</node>
	<node id="-326176" lat="61.674008333" lon="9.93611110285">
		<tag k="name" v="Høysæterlia" />
		<tag k="natural" v="slope" />
		<tag k="place" v="locality" />
		<tag k="ssr:stedsnr" v="355635" />
	</node>
	<node id="-326167" lat="61.4445277805" lon="9.44867499632">
		<tag k="name" v="Langberget" />
		<tag k="natural" v="hill" />
		<tag k="place" v="locality" />
		<tag k="ssr:stedsnr" v="355521" />
	</node>
	<node id="-326163" lat="61.4707000001" lon="9.89370000924">
		<tag k="name" v="Saltbakken" />
		<tag k="natural" v="slope" />
		<tag k="place" v="locality" />
		<tag k="ssr:stedsnr" v="355446" />
	</node>
	<node id="-326155" lat="61.5348944479" lon="9.99322499928">
		<tag k="name" v="Falebakken" />
		<tag k="natural" v="slope" />
		<tag k="place" v="locality" />
		<tag k="ssr:stedsnr" v="355211" />
	</node>
	<node id="-326150" lat="61.5724583351" lon="9.85303889213">
		<tag k="name" v="Brudalen" />
		<tag k="natural" v="valley" />
		<tag k="place" v="locality" />
		<tag k="ssr:stedsnr" v="355128" />
	</node>
	<node id="-326148" lat="61.4974194405" lon="9.97508333222">
		<tag k="name" v="Risgrånbakken" />
		<tag k="natural" v="slope" />
		<tag k="place" v="locality" />
		<tag k="ssr:stedsnr" v="355071" />
	</node>
	<node id="-326147" lat="61.5879833308" lon="9.84062777255">
		<tag k="name" v="Gaupåsen" />
		<tag k="natural" v="slope" />
		<tag k="place" v="locality" />
		<tag k="ssr:stedsnr" v="355070" />
	</node>
	<node id="-326146" lat="61.5916944422" lon="9.83835555454">
		<tag k="name" v="Svartholet" />
		<tag k="natural" v="valley" />
		<tag k="place" v="locality" />
		<tag k="ssr:stedsnr" v="355069" />
	</node>
	<node id="-326145" lat="61.5886333322" lon="9.83251110775">
		<tag k="name" v="Skarsberget" />
		<tag k="natural" v="hill" />
		<tag k="place" v="locality" />
		<tag k="ssr:stedsnr" v="355067" />
	</node>
	<node id="-326134" lat="61.3796805523" lon="9.48560000131">
		<tag k="name" v="Rundhøa" />
		<tag k="natural" v="hill" />
		<tag k="place" v="locality" />
		<tag k="ssr:stedsnr" v="325191" />
	</node>
	<node id="-326132" lat="61.5222444448" lon="9.93408333074">
		<tag k="name" v="Langleitet" />
		<tag k="natural" v="slope" />
		<tag k="place" v="locality" />
		<tag k="ssr:stedsnr" v="313943" />
	</node>
	<node id="-326127" lat="61.6776249989" lon="9.88795277536">
		<tag k="name" v="Lyslia" />
		<tag k="natural" v="slope" />
		<tag k="place" v="locality" />
		<tag k="ssr:stedsnr" v="313690" />
	</node>
	<node id="-326123" lat="61.8464555565" lon="10.0432861145">
		<tag k="fixme" v="consider natural=peak for the most distinct mountains in the district" />
		<tag k="name" v="Blåkollen" />
		<tag k="natural" v="hill" />
		<tag k="place" v="locality" />
		<tag k="ssr:stedsnr" v="313399" />
	</node>
	<node id="-326121" lat="61.4469000036" lon="9.39958055892">
		<tag k="alt_name" v="Bjørnhaugskardet" />
		<tag k="name" v="Bjønnhaugskardet" />
		<tag k="natural" v="valley" />
		<tag k="place" v="locality" />
		<tag k="ssr:stedsnr" v="312431" />
	</node>
	<node id="-326120" lat="61.4576722219" lon="9.52036665804">
		<tag k="alt_name" v="Mosåhøa" />
		<tag k="name" v="Måsåhøa" />
		<tag k="natural" v="hill" />
		<tag k="place" v="locality" />
		<tag k="ssr:stedsnr" v="312429" />
	</node>
	<node id="-326119" lat="61.4532000044" lon="9.53742499305">
		<tag k="name" v="Veslebingen" />
		<tag k="place" v="locality" />
		<tag k="ssr:stedsnr" v="312425" />
	</node>
	<node id="-326115" lat="61.4510638922" lon="9.59727500464">
		<tag k="name" v="Geitryggen" />
		<tag k="natural" v="ridge" />
		<tag k="place" v="locality" />
		<tag k="ssr:stedsnr" v="312285" />
	</node>
	<node id="-326113" lat="61.4095999992" lon="9.97870555046">
		<tag k="fixme" v="consider natural=peak for the most distinct mountains in the district" />
		<tag k="name" v="Røgnhøgda" />
		<tag k="natural" v="hill" />
		<tag k="place" v="locality" />
		<tag k="ssr:stedsnr" v="311933" />
	</node>
	<node id="-326111" lat="61.4010333358" lon="9.95834444766">
		<tag k="fixme" v="consider natural=peak for the most distinct mountains in the district" />
		<tag k="name" v="Dørdalsknappan" />
		<tag k="natural" v="hill" />
		<tag k="place" v="locality" />
		<tag k="ssr:stedsnr" v="311430" />
	</node>
	<node id="-326107" lat="61.4945055544" lon="10.0056805547">
		<tag k="name" v="Gumpberga" />
		<tag k="natural" v="hill" />
		<tag k="place" v="locality" />
		<tag k="ssr:stedsnr" v="312530" />
	</node>
	<node id="-326098" lat="61.5960638926" lon="9.97962499793">
		<tag k="alt_name" v="Kvithaugen" />
		<tag k="fixme" v="consider natural=peak for the most distinct mountains in the district" />
		<tag k="name" v="Kvitberget" />
		<tag k="natural" v="hill" />
		<tag k="place" v="locality" />
		<tag k="ssr:stedsnr" v="192791" />
	</node>
	<node id="-326096" lat="61.6095750015" lon="9.95222221927">
		<tag k="name" v="Langhaugen" />
		<tag k="natural" v="hill" />
		<tag k="place" v="locality" />
		<tag k="ssr:stedsnr" v="192527" />
	</node>
	<node id="-326095" lat="61.7516166688" lon="10.0151750002">
		<tag k="name" v="Brennhøa" />
		<tag k="natural" v="hill" />
		<tag k="place" v="locality" />
		<tag k="ssr:stedsnr" v="192440" />
	</node>
	<node id="-326094" lat="61.4377500012" lon="9.37865555836">
		<tag k="name" v="Snubbdalen" />
		<tag k="natural" v="valley" />
		<tag k="place" v="locality" />
		<tag k="ssr:stedsnr" v="191396" />
	</node>
	<node id="-326093" lat="61.4316999976" lon="9.98170276962">
		<tag k="alt_name" v="Kvennslålia" />
		<tag k="fixme" v="consider natural=peak for the most distinct mountains in the district" />
		<tag k="name" v="Kvernslålia" />
		<tag k="natural" v="hill" />
		<tag k="place" v="locality" />
		<tag k="ssr:stedsnr" v="190934" />
	</node>
	<node id="-326092" lat="61.3948444476" lon="9.50992777734">
		<tag k="fixme" v="consider natural=peak for the most distinct mountains in the district" />
		<tag k="name" v="Megrundskampen" />
		<tag k="natural" v="hill" />
		<tag k="place" v="locality" />
		<tag k="ssr:stedsnr" v="190478" />
	</node>
	<node id="-326091" lat="61.4699222219" lon="9.49111111666">
		<tag k="name" v="Rythaugen" />
		<tag k="natural" v="hill" />
		<tag k="place" v="locality" />
		<tag k="ssr:stedsnr" v="190409" />
	</node>
	<node id="-326089" lat="61.4289749968" lon="9.93616389545">
		<tag k="name" v="Storhaugen" />
		<tag k="natural" v="ridge" />
		<tag k="place" v="locality" />
		<tag k="ssr:stedsnr" v="190341" />
	</node>
	<node id="-326082" lat="61.4522083334" lon="9.67724166515">
		<tag k="fixme" v="consider natural=peak for the most distinct mountains in the district" />
		<tag k="name" v="Håkåsæterfjellet" />
		<tag k="natural" v="hill" />
		<tag k="place" v="locality" />
		<tag k="ssr:stedsnr" v="190302" />
	</node>
	<node id="-326079" lat="61.4424583369" lon="9.725955556">
		<tag k="name" v="Kvila" />
		<tag k="place" v="locality" />
		<tag k="ssr:stedsnr" v="174872" />
	</node>
	<node id="-326073" lat="61.4467138866" lon="9.53988056048">
		<tag k="name" v="Øvre Sprenhøa" />
		<tag k="natural" v="ridge" />
		<tag k="place" v="locality" />
		<tag k="ssr:stedsnr" v="174648" />
	</node>
	<node id="-326069" lat="61.473802782" lon="9.85693610935">
		<tag k="name" v="Toftberget" />
		<tag k="natural" v="hill" />
		<tag k="place" v="locality" />
		<tag k="ssr:stedsnr" v="174616" />
	</node>
	<node id="-326068" lat="61.4920888929" lon="9.76507222157">
		<tag k="name" v="Grufsan" />
		<tag k="natural" v="slope" />
		<tag k="place" v="locality" />
		<tag k="ssr:stedsnr" v="174607" />
	</node>
	<node id="-326052" lat="61.5535277809" lon="9.94493332527">
		<tag k="name" v="Rundhaugen" />
		<tag k="natural" v="hill" />
		<tag k="place" v="locality" />
		<tag k="ssr:stedsnr" v="173820" />
	</node>
	<node id="-326048" lat="61.4075694473" lon="9.68452777234">
		<tag k="name" v="Nedre Grytrandin" />
		<tag k="natural" v="hill" />
		<tag k="place" v="locality" />
		<tag k="ssr:stedsnr" v="173784" />
	</node>
	<node id="-326047" lat="61.4211361092" lon="9.55456110223">
		<tag k="name" v="Megrundsknatten" />
		<tag k="natural" v="hill" />
		<tag k="place" v="locality" />
		<tag k="ssr:stedsnr" v="173782" />
	</node>
	<node id="-326046" lat="61.6696888913" lon="9.95296943906">
		<tag k="name" v="Furusæterberget" />
		<tag k="natural" v="hill" />
		<tag k="place" v="locality" />
		<tag k="ssr:stedsnr" v="173630" />
	</node>
	<node id="-326045" lat="61.6652388922" lon="9.95946111087">
		<tag k="name" v="Korstadløypa" />
		<tag k="natural" v="slope" />
		<tag k="place" v="locality" />
		<tag k="ssr:stedsnr" v="173627" />
	</node>
	<node id="-326044" lat="61.6456499968" lon="9.96950832866">
		<tag k="name" v="Rolegløypa" />
		<tag k="natural" v="slope" />
		<tag k="place" v="locality" />
		<tag k="ssr:stedsnr" v="173618" />
	</node>
	<node id="-326043" lat="61.6500055591" lon="9.95876110756">
		<tag k="name" v="Jensåslia" />
		<tag k="natural" v="slope" />
		<tag k="place" v="locality" />
		<tag k="ssr:stedsnr" v="173617" />
	</node>
	<node id="-326038" lat="61.4114805569" lon="9.4410750058">
		<tag k="name" v="Bjørkehøgda" />
		<tag k="natural" v="hill" />
		<tag k="place" v="locality" />
		<tag k="ssr:stedsnr" v="173513" />
	</node>
	<node id="-326031" lat="61.5837861082" lon="9.97021667409">
		<tag k="name" v="Ljoslia" />
		<tag k="natural" v="slope" />
		<tag k="place" v="locality" />
		<tag k="ssr:stedsnr" v="173302" />
	</node>
	<node id="-326030" lat="61.5778416637" lon="9.96149443581">
		<tag k="name" v="Uksbaukan" />
		<tag k="natural" v="hill" />
		<tag k="place" v="locality" />
		<tag k="ssr:stedsnr" v="173299" />
	</node>
	<node id="-326027" lat="61.5236249995" lon="9.90922221523">
		<tag k="name" v="Finnbrekka" />
		<tag k="natural" v="slope" />
		<tag k="place" v="locality" />
		<tag k="ssr:stedsnr" v="173208" />
	</node>
	<node id="-326025" lat="61.5102777775" lon="9.91765000686">
		<tag k="name" v="Slettonnåsen" />
		<tag k="natural" v="slope" />
		<tag k="place" v="locality" />
		<tag k="ssr:stedsnr" v="173202" />
	</node>
	<node id="-326022" lat="61.5748638883" lon="9.90400277271">
		<tag k="name" v="Kleberhaugen" />
		<tag k="natural" v="hill" />
		<tag k="place" v="locality" />
		<tag k="ssr:stedsnr" v="173146" />
	</node>
	<node id="-326021" lat="61.4813916648" lon="9.68664999064">
		<tag k="name" v="Rundhaugen" />
		<tag k="natural" v="hill" />
		<tag k="place" v="locality" />
		<tag k="ssr:stedsnr" v="173134" />
	</node>
	<node id="-326019" lat="61.4951944471" lon="9.71882500894">
		<tag k="name" v="Tvibyttingshaugen" />
		<tag k="natural" v="hill" />
		<tag k="place" v="locality" />
		<tag k="ssr:stedsnr" v="173118" />
	</node>
	<node id="-326013" lat="61.5795055563" lon="9.86794167034">
		<tag k="name" v="Moaberga" />
		<tag k="natural" v="hill" />
		<tag k="place" v="locality" />
		<tag k="ssr:stedsnr" v="173071" />
	</node>
	<node id="-326012" lat="61.595138887" lon="9.8522333272">
		<tag k="name" v="Slettbakkhaugen" />
		<tag k="natural" v="hill" />
		<tag k="place" v="locality" />
		<tag k="ssr:stedsnr" v="173060" />
	</node>
	<node id="-326011" lat="61.5882916689" lon="9.86225833384">
		<tag k="name" v="Gråberget" />
		<tag k="natural" v="hill" />
		<tag k="place" v="locality" />
		<tag k="ssr:stedsnr" v="173057" />
	</node>
	<node id="-326007" lat="61.4647611136" lon="9.42606389059">
		<tag k="name" v="Espeholet" />
		<tag k="natural" v="valley" />
		<tag k="place" v="locality" />
		<tag k="ssr:stedsnr" v="173511" />
	</node>
	<node id="-326004" lat="61.4805750003" lon="9.9335416739">
		<tag k="name" v="Heggesæterhøgda" />
		<tag k="natural" v="hill" />
		<tag k="place" v="locality" />
		<tag k="ssr:stedsnr" v="173443" />
	</node>
	<node id="-325998" lat="61.5496305514" lon="10.0048999991">
		<tag k="name" v="Stebergsberget" />
		<tag k="natural" v="hill" />
		<tag k="place" v="locality" />
		<tag k="ssr:stedsnr" v="160589" />
	</node>
	<node id="-325989" lat="61.6569972259" lon="9.9173222302">
		<tag k="fixme" v="consider natural=peak for the most distinct mountains in the district" />
		<tag k="name" v="Krøkla" />
		<tag k="natural" v="hill" />
		<tag k="place" v="locality" />
		<tag k="ssr:stedsnr" v="131748" />
	</node>
	<node id="-325985" lat="61.6970472212" lon="9.92660277105">
		<tag k="alt_name" v="Resshøgda" />
		<tag k="name" v="Reshøgda" />
		<tag k="natural" v="hill" />
		<tag k="place" v="locality" />
		<tag k="ssr:stedsnr" v="131674" />
	</node>
	<node id="-325984" lat="61.4773749978" lon="10.0178527858">
		<tag k="fixme" v="consider natural=peak for the most distinct mountains in the district" />
		<tag k="name" v="Digeråsen" />
		<tag k="natural" v="hill" />
		<tag k="place" v="locality" />
		<tag k="ssr:stedsnr" v="130584" />
	</node>
	<node id="-325979" lat="61.4356583313" lon="9.71193056239">
		<tag k="loc_name" v="Vesllebba" />
		<tag k="name" v="Veslelebba" />
		<tag k="place" v="locality" />
		<tag k="ssr:stedsnr" v="129343" />
	</node>
	<node id="-325975" lat="61.5629972256" lon="10.0267555592">
		<tag k="name" v="Kampen" />
		<tag k="natural" v="hill" />
		<tag k="place" v="locality" />
		<tag k="ssr:stedsnr" v="113989" />
	</node>
	<node id="-325972" lat="61.8509888846" lon="10.1378999947">
		<tag k="name" v="Nysæterhøgda" />
		<tag k="natural" v="hill" />
		<tag k="place" v="locality" />
		<tag k="ssr:stedsnr" v="113893" />
	</node>
	<node id="-325971" lat="61.5721444473" lon="9.95677777397">
		<tag k="name" v="Flata" />
		<tag k="place" v="locality" />
		<tag k="ssr:stedsnr" v="113862" />
	</node>
	<node id="-325969" lat="61.4561694448" lon="9.69911388859">
		<tag k="name" v="Stokkflågan" />
		<tag k="natural" v="hill" />
		<tag k="place" v="locality" />
		<tag k="ssr:stedsnr" v="113855" />
	</node>
	<node id="-325966" lat="61.4401194457" lon="9.72886111045">
		<tag k="name" v="Kolbotn" />
		<tag k="place" v="locality" />
		<tag k="ssr:stedsnr" v="113848" />
	</node>
	<node id="-325964" lat="61.4286555577" lon="9.71125555978">
		<tag k="name" v="Elsesletta" />
		<tag k="place" v="locality" />
		<tag k="ssr:stedsnr" v="113845" />
	</node>
	<node id="-325961" lat="61.6800777803" lon="9.95588333266">
		<tag k="name" v="Kleiva" />
		<tag k="natural" v="slope" />
		<tag k="place" v="locality" />
		<tag k="ssr:stedsnr" v="113650" />
	</node>
	<node id="-325954" lat="61.4537361113" lon="9.9853916579">
		<tag k="name" v="Geitryggen" />
		<tag k="natural" v="hill" />
		<tag k="place" v="locality" />
		<tag k="ssr:stedsnr" v="113460" />
	</node>
	<node id="-325953" lat="61.4277666659" lon="9.85185834032">
		<tag k="name" v="Bjønndalen" />
		<tag k="natural" v="valley" />
		<tag k="place" v="locality" />
		<tag k="ssr:stedsnr" v="113456" />
	</node>
	<node id="-325949" lat="61.410886111" lon="9.95486666144">
		<tag k="name" v="Mårråverdshaugen" />
		<tag k="natural" v="hill" />
		<tag k="place" v="locality" />
		<tag k="ssr:stedsnr" v="113269" />
	</node>
	<node id="-325945" lat="61.5629277751" lon="9.87598054863">
		<tag k="name" v="Dalan" />
		<tag k="natural" v="valley" />
		<tag k="place" v="locality" />
		<tag k="ssr:stedsnr" v="113161" />
	</node>
	<node id="-325935" lat="61.4925805523" lon="9.966636106">
		<tag k="name" v="Middagshaugen" />
		<tag k="natural" v="hill" />
		<tag k="place" v="locality" />
		<tag k="ssr:stedsnr" v="113060" />
	</node>
	<node id="-325928" lat="61.8713083303" lon="10.0761472168">
		<tag k="name" v="Svartberget" />
		<tag k="natural" v="hill" />
		<tag k="place" v="locality" />
		<tag k="ssr:stedsnr" v="111329" />
	</node>
	<node id="-325914" lat="61.5483222189" lon="9.90677222245">
		<tag k="name" v="Høgsnåttån" />
		<tag k="natural" v="hill" />
		<tag k="place" v="locality" />
		<tag k="ssr:stedsnr" v="70891" />
	</node>
	<node id="-325910" lat="61.5576333313" lon="9.91287499344">
		<tag k="name" v="Ulbergshaugen" />
		<tag k="natural" v="hill" />
		<tag k="place" v="locality" />
		<tag k="ssr:stedsnr" v="70855" />
	</node>
	<node id="-325907" lat="61.802761111" lon="10.0113194527">
		<tag k="alt_name" v="Vesleflågån" />
		<tag k="fixme" v="consider natural=peak for the most distinct mountains in the district" />
		<tag k="name" v="Veslflågån" />
		<tag k="natural" v="hill" />
		<tag k="place" v="locality" />
		<tag k="ssr:stedsnr" v="70360" />
	</node>
	<node id="-325896" lat="61.4909166703" lon="9.78503610879">
		<tag k="alt_name" v="Blåbærhaugen" />
		<tag k="fixme" v="consider natural=peak for the most distinct mountains in the district" />
		<tag k="name" v="Blåbærfjellet" />
		<tag k="natural" v="hill" />
		<tag k="place" v="locality" />
		<tag k="ssr:stedsnr" v="69261" />
	</node>
	<node id="-325894" lat="61.4061083376" lon="9.75248888674">
		<tag k="alt_name" v="Svarthaugen, Vesle" />
		<tag k="name" v="Vesle Svarthaugen" />
		<tag k="natural" v="hill" />
		<tag k="place" v="locality" />
		<tag k="ssr:stedsnr" v="68376" />
	</node>
	<node id="-325887" lat="61.5539694453" lon="10.0300444435">
		<tag k="name" v="Skjærpingen" />
		<tag k="natural" v="slope" />
		<tag k="place" v="locality" />
		<tag k="ssr:stedsnr" v="53000" />
	</node>
	<node id="-325886" lat="61.556627779" lon="10.0237194438">
		<tag k="name" v="Steberglykkjeberget" />
		<tag k="natural" v="hill" />
		<tag k="place" v="locality" />
		<tag k="ssr:stedsnr" v="52999" />
	</node>
	<node id="-325885" lat="61.5836888921" lon="9.9967888952">
		<tag k="name" v="Raudhaugholet" />
		<tag k="natural" v="valley" />
		<tag k="place" v="locality" />
		<tag k="ssr:stedsnr" v="52949" />
	</node>
	<node id="-325877" lat="61.6787972239" lon="9.95608611407">
		<tag k="name" v="Kleivberget" />
		<tag k="natural" v="hill" />
		<tag k="place" v="locality" />
		<tag k="ssr:stedsnr" v="52637" />
	</node>
	<node id="-325874" lat="61.5065805529" lon="9.7713333406">
		<tag k="name" v="Mørkgånga" />
		<tag k="natural" v="slope" />
		<tag k="place" v="locality" />
		<tag k="ssr:stedsnr" v="52543" />
	</node>
	<node id="-325869" lat="61.5260222217" lon="9.83306110974">
		<tag k="name" v="Glettaberget" />
		<tag k="natural" v="hill" />
		<tag k="place" v="locality" />
		<tag k="ssr:stedsnr" v="52578" />
	</node>
	<node id="-325863" lat="61.4865722252" lon="10.0022972207">
		<tag k="name" v="Gråberget" />
		<tag k="natural" v="hill" />
		<tag k="place" v="locality" />
		<tag k="ssr:stedsnr" v="52318" />
	</node>
	<node id="-325860" lat="61.5135305565" lon="10.0072166609">
		<tag k="name" v="Bjønndalsskaret" />
		<tag k="natural" v="valley" />
		<tag k="place" v="locality" />
		<tag k="ssr:stedsnr" v="52300" />
	</node>
	<node id="-325839" lat="61.5532111108" lon="10.0292527819">
		<tag k="name" v="Storrabben" />
		<tag k="natural" v="hill" />
		<tag k="place" v="locality" />
		<tag k="ssr:stedsnr" v="39586" />
	</node>
	<node id="-325836" lat="61.3782027787" lon="9.39634999897">
		<tag k="name" v="Høghaugen" />
		<tag k="natural" v="hill" />
		<tag k="place" v="locality" />
		<tag k="ssr:stedsnr" v="22156" />
	</node>
	<node id="-325831" lat="61.5052055515" lon="10.02862778">
		<tag k="alt_name" v="Søre Nårkampen" />
		<tag k="fixme" v="consider natural=peak for the most distinct mountains in the district" />
		<tag k="name" v="Nårkampen" />
		<tag k="natural" v="hill" />
		<tag k="place" v="locality" />
		<tag k="ssr:stedsnr" v="10869" />
	</node>
	<node id="-325825" lat="61.4395805562" lon="9.58380278694">
		<tag k="fixme" v="multiple name tags, choose one and add the other to alt_name" />
		<tag k="name" v="Børkdalen;Notstuldalen" />
		<tag k="natural" v="valley" />
		<tag k="place" v="locality" />
		<tag k="ssr:stedsnr" v="9411" />
	</node>
	<node id="-325824" lat="61.4494166685" lon="9.39534999708">
		<tag k="alt_name" v="Bjørnehaugen" />
		<tag k="name" v="Bjønnhaugen" />
		<tag k="natural" v="hill" />
		<tag k="place" v="locality" />
		<tag k="ssr:stedsnr" v="9370" />
	</node>
	<node id="-325822" lat="61.4085527797" lon="9.50558610775">
		<tag k="fixme" v="consider natural=peak for the most distinct mountains in the district" />
		<tag k="name" v="Venhøa" />
		<tag k="natural" v="hill" />
		<tag k="place" v="locality" />
		<tag k="ssr:stedsnr" v="8497" />
	</node>
	<node id="-325816" lat="61.4299749961" lon="9.90121665871">
		<tag k="name" v="Kantlidalen" />
		<tag k="natural" v="valley" />
		<tag k="place" v="locality" />
		<tag k="ssr:stedsnr" v="8356" />
	</node>
	<node id="-325815" lat="61.425519742" lon="9.7569778945">
		<tag k="fixme" v="multiple name tags, choose one and add the other to alt_name" />
		<tag k="name" v="Haverstadberget;Isumberget" />
		<tag k="natural" v="hill" />
		<tag k="place" v="locality" />
		<tag k="ssr:stedsnr" v="8339" />
	</node>
	<node id="-325813" lat="61.4710694428" lon="9.71562777796">
		<tag k="fixme" v="consider natural=peak for the most distinct mountains in the district" />
		<tag k="name" v="Snauskallen" />
		<tag k="natural" v="hill" />
		<tag k="old_name" v="Mosåranden" />
		<tag k="place" v="locality" />
		<tag k="ssr:stedsnr" v="8334" />
	</node>
	<node id="-325809" lat="61.4068694424" lon="9.72057776942">
		<tag k="name" v="Svartholet" />
		<tag k="natural" v="ridge" />
		<tag k="place" v="locality" />
		<tag k="ssr:stedsnr" v="7322" />
	</node>
	<node id="-325808" lat="61.3128361137" lon="9.38357500817">
		<tag k="alt_name" v="Langsua, nordre" />
		<tag k="fixme" v="consider natural=peak for the most distinct mountains in the district" />
		<tag k="name" v="Nordre Langsua" />
		<tag k="natural" v="hill" />
		<tag k="place" v="locality" />
		<tag k="ssr:stedsnr" v="8510" />
	</node>
	<node id="-325795" lat="61.5932416686" lon="10.0199944428">
		<tag k="name" v="Guriberget" />
		<tag k="natural" v="hill" />
		<tag k="place" v="locality" />
		<tag k="ssr:stedsnr" v="962954" />
	</node>
	<node id="-325793" lat="61.5552388877" lon="9.93636945267">
		<tag k="name" v="Flatmoen" />
		<tag k="place" v="locality" />
		<tag k="ssr:stedsnr" v="962824" />
	</node>
	<node id="-325784" lat="61.4082527789" lon="9.98487221916">
		<tag k="name" v="Stordokka" />
		<tag k="natural" v="valley" />
		<tag k="place" v="locality" />
		<tag k="ssr:stedsnr" v="962265" />
	</node>
	<node id="-325783" lat="61.4943555558" lon="10.0094194509">
		<tag k="name" v="Lokkarskaret" />
		<tag k="natural" v="valley" />
		<tag k="place" v="locality" />
		<tag k="ssr:stedsnr" v="962305" />
	</node>
	<node id="-325782" lat="61.6077916691" lon="9.96206110353">
		<tag k="name" v="Melgardsbakken" />
		<tag k="natural" v="slope" />
		<tag k="place" v="locality" />
		<tag k="ssr:stedsnr" v="962304" />
	</node>
	<node id="-325780" lat="61.5765527808" lon="9.89684444328">
		<tag k="name" v="Kjempehaugen" />
		<tag k="natural" v="hill" />
		<tag k="place" v="locality" />
		<tag k="ssr:stedsnr" v="962162" />
	</node>
	<node id="-325779" lat="61.5555000028" lon="9.89546389746">
		<tag k="name" v="Dokkaberget" />
		<tag k="natural" v="hill" />
		<tag k="place" v="locality" />
		<tag k="ssr:stedsnr" v="962158" />
	</node>
	<node id="-325771" lat="61.518047226" lon="9.94865834174">
		<tag k="name" v="Trøstuguberget" />
		<tag k="natural" v="hill" />
		<tag k="place" v="locality" />
		<tag k="ssr:stedsnr" v="962015" />
	</node>
	<node id="-325769" lat="61.4193027766" lon="9.51103611467">
		<tag k="name" v="Gråndalsglupen" />
		<tag k="natural" v="slope" />
		<tag k="place" v="locality" />
		<tag k="ssr:stedsnr" v="961572" />
	</node>
	<node id="-325765" lat="61.7904611093" lon="10.0140861154">
		<tag k="name" v="Nørdre Bågåskardet" />
		<tag k="natural" v="valley" />
		<tag k="place" v="locality" />
		<tag k="ssr:stedsnr" v="920393" />
	</node>
	<node id="-325764" lat="61.4427249999" lon="9.53077776973">
		<tag k="name" v="Sprenhøa" />
		<tag k="natural" v="hill" />
		<tag k="place" v="locality" />
		<tag k="ssr:stedsnr" v="919428" />
	</node>
	<node id="-325762" lat="61.4588499972" lon="9.55882500245">
		<tag k="alt_name" v="Bingen" />
		<tag k="name" v="Storbingen" />
		<tag k="natural" v="valley" />
		<tag k="place" v="locality" />
		<tag k="ssr:stedsnr" v="919366" />
	</node>
	<node id="-325761" lat="61.4144249997" lon="9.52017499133">
		<tag k="name" v="Gravskardlia" />
		<tag k="natural" v="slope" />
		<tag k="place" v="locality" />
		<tag k="ssr:stedsnr" v="918467" />
	</node>
	<node id="-325756" lat="61.4558750019" lon="9.82823333281">
		<tag k="name" v="Tverrlia" />
		<tag k="natural" v="hill" />
		<tag k="place" v="locality" />
		<tag k="ssr:stedsnr" v="918328" />
	</node>
	<node id="-325750" lat="61.5684166697" lon="10.0025083391">
		<tag k="name" v="Kringlåthaugen" />
		<tag k="natural" v="hill" />
		<tag k="place" v="locality" />
		<tag k="ssr:stedsnr" v="902963" />
	</node>
	<node id="-325742" lat="61.447949996" lon="9.98063334217">
		<tag k="name" v="Klemdalsberga" />
		<tag k="natural" v="hill" />
		<tag k="place" v="locality" />
		<tag k="ssr:stedsnr" v="902516" />
	</node>
	<node id="-325740" lat="61.5986638917" lon="9.8879111082">
		<tag k="name" v="Bingshaugen" />
		<tag k="natural" v="hill" />
		<tag k="place" v="locality" />
		<tag k="ssr:stedsnr" v="902361" />
	</node>
	<node id="-325738" lat="61.6008388904" lon="9.96720555335">
		<tag k="name" v="Steindalen" />
		<tag k="natural" v="valley" />
		<tag k="place" v="locality" />
		<tag k="ssr:stedsnr" v="902355" />
	</node>
	<node id="-325731" lat="61.5590972265" lon="9.88349721563">
		<tag k="name" v="Smørøsja" />
		<tag k="place" v="locality" />
		<tag k="ssr:stedsnr" v="902173" />
	</node>
	<node id="-325727" lat="61.5587527803" lon="9.84858889435">
		<tag k="name" v="Kvitberget" />
		<tag k="natural" v="hill" />
		<tag k="place" v="locality" />
		<tag k="ssr:stedsnr" v="902120" />
	</node>
	<node id="-325726" lat="61.5544833344" lon="9.86725556183">
		<tag k="name" v="Kongskarlsletta" />
		<tag k="place" v="locality" />
		<tag k="ssr:stedsnr" v="902119" />
	</node>
	<node id="-325720" lat="61.4901305595" lon="9.97456110313">
		<tag k="name" v="Bjørnstulskleiva" />
		<tag k="natural" v="slope" />
		<tag k="place" v="locality" />
		<tag k="ssr:stedsnr" v="902070" />
	</node>
	<node id="-325711" lat="61.5528222235" lon="10.023336109">
		<tag k="name" v="Forråbakkan" />
		<tag k="natural" v="slope" />
		<tag k="place" v="locality" />
		<tag k="ssr:stedsnr" v="949588" />
	</node>
	<node id="-325703" lat="61.8050916681" lon="10.1014777778">
		<tag k="name" v="Vuludalen" />
		<tag k="natural" v="valley" />
		<tag k="place" v="locality" />
		<tag k="ssr:stedsnr" v="859355" />
	</node>
	<node id="-325699" lat="61.4340166637" lon="9.94073888282">
		<tag k="name" v="Sjøsjålia" />
		<tag k="natural" v="slope" />
		<tag k="place" v="locality" />
		<tag k="ssr:stedsnr" v="857357" />
	</node>
	<node id="-325690" lat="61.43840278" lon="9.62463333558">
		<tag k="name" v="Månin" />
		<tag k="place" v="locality" />
		<tag k="ssr:stedsnr" v="841766" />
	</node>
	<node id="-325687" lat="61.5009583349" lon="9.85114723025">
		<tag k="name" v="Ravdalslia" />
		<tag k="natural" v="slope" />
		<tag k="place" v="locality" />
		<tag k="ssr:stedsnr" v="841569" />
	</node>
	<node id="-325686" lat="61.4243527798" lon="9.54581945189">
		<tag k="name" v="Fallbakken" />
		<tag k="natural" v="slope" />
		<tag k="place" v="locality" />
		<tag k="ssr:stedsnr" v="841566" />
	</node>
	<node id="-325685" lat="61.4142416672" lon="9.53789722129">
		<tag k="name" v="Langveggberget" />
		<tag k="natural" v="hill" />
		<tag k="place" v="locality" />
		<tag k="ssr:stedsnr" v="841564" />
	</node>
	<node id="-325681" lat="61.4431833296" lon="9.85435277217">
		<tag k="alt_name" v="Dagstjønnhaugan" />
		<tag k="name" v="Dagstjønnhaugen" />
		<tag k="natural" v="hill" />
		<tag k="place" v="locality" />
		<tag k="ssr:stedsnr" v="841461" />
	</node>
	<node id="-325680" lat="61.4300222184" lon="9.93198888085">
		<tag k="name" v="Storhaugberget" />
		<tag k="natural" v="hill" />
		<tag k="place" v="locality" />
		<tag k="ssr:stedsnr" v="841276" />
	</node>
	<node id="-325676" lat="61.5061555546" lon="9.92480000511">
		<tag k="name" v="Kolltjønndalen" />
		<tag k="natural" v="valley" />
		<tag k="place" v="locality" />
		<tag k="ssr:stedsnr" v="841380" />
	</node>
	<node id="-325673" lat="61.5846555543" lon="9.91472500637">
		<tag k="name" v="Geitstuguranden" />
		<tag k="natural" v="slope" />
		<tag k="place" v="locality" />
		<tag k="ssr:stedsnr" v="841162" />
	</node>
	<node id="-325670" lat="61.3797750007" lon="9.45629999607">
		<tag k="name" v="Vassmillomhøa" />
		<tag k="natural" v="hill" />
		<tag k="place" v="locality" />
		<tag k="ssr:stedsnr" v="932185" />
	</node>
	<node id="-325668" lat="61.5960500039" lon="9.86880556392">
		<tag k="name" v="Koto" />
		<tag k="natural" v="hill" />
		<tag k="place" v="locality" />
		<tag k="ssr:stedsnr" v="799559" />
	</node>
	<node id="-325663" lat="61.8270194434" lon="10.0318250039">
		<tag k="alt_name" v="Rjupflågån" />
		<tag k="fixme" v="consider natural=peak for the most distinct mountains in the district" />
		<tag k="name" v="Rupflågån" />
		<tag k="natural" v="hill" />
		<tag k="place" v="locality" />
		<tag k="ssr:stedsnr" v="799383" />
	</node>
	<node id="-325662" lat="61.4665027779" lon="9.54399722597">
		<tag k="alt_name" v="Ruten, vesle" />
		<tag k="fixme" v="consider natural=peak for the most distinct mountains in the district" />
		<tag k="name" v="Vesle Ruten" />
		<tag k="natural" v="hill" />
		<tag k="place" v="locality" />
		<tag k="ssr:stedsnr" v="797362" />
	</node>
	<node id="-325658" lat="61.4086333346" lon="9.64417777716">
		<tag k="name" v="Veslehøa" />
		<tag k="natural" v="hill" />
		<tag k="place" v="locality" />
		<tag k="ssr:stedsnr" v="797309" />
	</node>
	<node id="-325655" lat="61.5137500011" lon="9.79497499876">
		<tag k="alt_name" v="Utsikten" />
		<tag k="name" v="Utsiktshøgda" />
		<tag k="natural" v="hill" />
		<tag k="place" v="locality" />
		<tag k="ssr:stedsnr" v="920932" />
	</node>
	<node id="-325652" lat="61.5335750014" lon="9.80220000218">
		<tag k="name" v="Grønsletta" />
		<tag k="place" v="locality" />
		<tag k="ssr:stedsnr" v="920918" />
	</node>
	<node id="-325650" lat="61.53498611" lon="9.9019111172">
		<tag k="alt_name" v="Skåra" />
		<tag k="fixme" v="consider natural=peak for the most distinct mountains in the district" />
		<tag k="name" v="Skora" />
		<tag k="natural" v="hill" />
		<tag k="place" v="locality" />
		<tag k="ssr:stedsnr" v="920908" />
	</node>
	<node id="-325643" lat="61.8343416667" lon="10.123455555">
		<tag k="alt_name" v="Valdresskaret" />
		<tag k="name" v="Valdresskardet" />
		<tag k="natural" v="valley" />
		<tag k="place" v="locality" />
		<tag k="ssr:stedsnr" v="920349" />
	</node>
	<node id="-325642" lat="61.6233722253" lon="9.91908055267">
		<tag k="name" v="Gråsteinsletta" />
		<tag k="place" v="locality" />
		<tag k="ssr:stedsnr" v="920494" />
	</node>
</osm>
