<?xml version="1.0" encoding="UTF-8"?>
<osm version="0.6" generator="osmapis">
	<node lat="60.16175277783035" lon="5.899547225118627" id="-71041">
		<tag k="fixme" v="consider boundary=protected_area and relevant protect_class if not nature reserve" />
		<tag k="leisure" v="nature_reserve" />
		<tag k="name" v="Mundheim naturreservat" />
		<tag k="ssr:stedsnr" v="286323" />
	</node>
	<node lat="60.46844344899705" lon="6.231945574479806" id="-72086">
		<tag k="fixme" v="consider boundary=protected_area and relevant protect_class if not nature reserve" />
		<tag k="leisure" v="nature_reserve" />
		<tag k="name" v="Fyksesund naturreservat" />
		<tag k="ssr:stedsnr" v="988996" />
	</node>
	<node lat="60.32341944639279" lon="6.181558324831664" id="-72251">
		<tag k="fixme" v="consider boundary=protected_area and relevant protect_class if not nature reserve" />
		<tag k="leisure" v="nature_reserve" />
		<tag k="name" v="Vangdalsberget naturreservat" />
		<tag k="ssr:stedsnr" v="105905" />
	</node>
	<node lat="60.27611245722037" lon="6.150533959387937" id="-72902">
		<tag k="fixme" v="consider boundary=protected_area and relevant protect_class if not nature reserve" />
		<tag k="leisure" v="nature_reserve" />
		<tag k="name" v="Eidesvatnet naturreservat" />
		<tag k="ssr:stedsnr" v="590900" />
	</node>
	<node lat="60.45132499732961" lon="6.50047777376638" id="-73273">
		<tag k="fixme" v="consider boundary=protected_area and relevant protect_class if not nature reserve" />
		<tag k="leisure" v="nature_reserve" />
		<tag k="name" v="Uranes naturreservat" />
		<tag k="ssr:stedsnr" v="949822" />
	</node>
</osm>
