<?xml version="1.0" encoding="UTF-8"?>
<<<<<<< HEAD
<osm version="0.6" generator="osmapis">
	<node lat="60.43326944403274" lon="6.02877778673584" id="-28007">
		<tag k="name" v="Bjørnasteinane" />
		<tag k="natural" v="stone" />
		<tag k="ssr:stedsnr" v="287825" />
	</node>
	<node lat="60.398725001698196" lon="6.295772223750648" id="-28021">
		<tag k="landuse" v="meadow" />
		<tag k="name" v="Kalvahagen" />
		<tag k="ssr:stedsnr" v="44432" />
	</node>
	<node lat="60.26901389050125" lon="6.131058335241932" id="-28023">
		<tag k="name" v="Skotamyra" />
=======
<osm generator="osmapis" version="0.6">
	<node id="-627191" lat="60.394674999" lon="6.01770277349">
		<tag k="name" v="Kvanndalsuri" />
		<tag k="natural" v="scree" />
		<tag k="ssr:stedsnr" v="165864" />
	</node>
	<node id="-628392" lat="60.2690138905" lon="6.13105833524">
		<tag k="name" v="Skotamyra" />
		<tag k="natural" v="wetland" />
		<tag k="ssr:stedsnr" v="44525" />
	</node>
	<node id="-627181" lat="60.3264333293" lon="6.04539722761">
		<tag k="name" v="Smørlaupen" />
		<tag k="natural" v="wetland" />
		<tag k="ssr:stedsnr" v="165724" />
	</node>
	<node id="-627692" lat="60.4187361101" lon="6.18356667349">
		<tag k="name" v="Vassura" />
		<tag k="natural" v="scree" />
		<tag k="ssr:stedsnr" v="577335" />
	</node>
	<node id="-627179" lat="60.4357055517" lon="6.46138889583">
		<tag k="name" v="Husaflot" />
		<tag k="place" v="locality" />
		<tag k="ssr:stedsnr" v="165466" />
	</node>
	<node id="-629226" lat="60.2602555515" lon="6.11123333497">
		<tag k="landuse" v="meadow" />
		<tag k="name" v="Øykhagen" />
		<tag k="ssr:stedsnr" v="590607" />
	</node>
	<node id="-629223" lat="60.304077781" lon="6.04848888127">
		<tag k="name" v="Teigen" />
		<tag k="place" v="locality" />
		<tag k="ssr:stedsnr" v="590562" />
	</node>
	<node id="-627681" lat="60.3131416687" lon="6.1361194522">
		<tag k="name" v="Perslemarki" />
		<tag k="place" v="locality" />
		<tag k="ssr:stedsnr" v="530611" />
	</node>
	<node id="-628704" lat="60.4048999962" lon="6.21286944499">
		<tag k="name" v="Storemyrane" />
		<tag k="natural" v="wetland" />
		<tag k="ssr:stedsnr" v="187676" />
	</node>
	<node id="-627676" lat="60.4401277736" lon="6.00741111041">
		<tag k="name" v="Gråuri" />
		<tag k="natural" v="scree" />
		<tag k="ssr:stedsnr" v="529841" />
	</node>
	<node id="-628185" lat="60.5077805595" lon="6.15865834147">
		<tag k="name" v="Sundagsbeitet" />
		<tag k="place" v="locality" />
		<tag k="ssr:stedsnr" v="942708" />
	</node>
	<node id="-628696" lat="60.3740277783" lon="6.17045278679">
		<tag k="name" v="Tolomarka" />
		<tag k="place" v="locality" />
		<tag k="ssr:stedsnr" v="187594" />
	</node>
	<node id="-629207" lat="60.3983222254" lon="6.31961943614">
		<tag k="name" v="Markeskarv" />
		<tag k="place" v="locality" />
		<tag k="ssr:stedsnr" v="590012" />
	</node>
	<node id="-627158" lat="60.2822666625" lon="6.0035361035">
		<tag k="name" v="Tona" />
		<tag k="place" v="locality" />
		<tag k="ssr:stedsnr" v="275840" />
	</node>
	<node id="-628179" lat="60.3224722253" lon="6.18290000416">
		<tag k="name" v="Verkjen" />
		<tag k="natural" v="stone" />
		<tag k="ssr:stedsnr" v="833924" />
	</node>
	<node id="-627153" lat="60.4048888862" lon="6.18148056128">
		<tag k="name" v="Skisetemarka" />
		<tag k="place" v="locality" />
		<tag k="ssr:stedsnr" v="274697" />
	</node>
	<node id="-629199" lat="60.3688666692" lon="6.17576667275">
		<tag k="name" v="Urane" />
		<tag k="natural" v="wetland" />
		<tag k="ssr:stedsnr" v="589024" />
	</node>
	<node id="-628171" lat="60.2704638847" lon="6.04169722346">
		<tag k="name" v="Øyjorda" />
		<tag k="place" v="locality" />
		<tag k="ssr:stedsnr" v="833671" />
	</node>
	<node id="-628168" lat="60.3239833326" lon="6.06619443922">
		<tag k="alt_name" v="Huksteinen" />
		<tag k="name" v="Hukstein" />
		<tag k="natural" v="stone" />
		<tag k="ssr:stedsnr" v="833580" />
	</node>
	<node id="-628658" lat="60.2935361106" lon="5.98288888877">
		<tag k="name" v="Andersteigen" />
		<tag k="place" v="locality" />
		<tag k="ssr:stedsnr" v="165736" />
	</node>
	<node id="-629166" lat="60.3781500005" lon="6.06210278046">
		<tag k="name" v="Klokkarhola" />
		<tag k="natural" v="wetland" />
		<tag k="ssr:stedsnr" v="551678" />
	</node>
	<node id="-628643" lat="60.3359638899" lon="6.15727777057">
		<tag k="name" v="Holten" />
		<tag k="place" v="locality" />
		<tag k="ssr:stedsnr" v="165148" />
	</node>
	<node id="-627596" lat="60.3411888905" lon="6.01860555867">
		<tag k="name" v="Longelimyrane" />
>>>>>>> e1d4bc35ff8a6074a6f2e91616a996b547c36f15
		<tag k="natural" v="wetland" />
		<tag k="ssr:stedsnr" v="44525" />
	</node>
<<<<<<< HEAD
	<node lat="60.27070000203932" lon="6.144266657950768" id="-28024">
		<tag k="name" v="Kvitasteinurda" />
=======
	<node id="-629130" lat="60.3184805579" lon="5.94134165777">
		<tag k="alt_name" v="Storavassurda" />
		<tag k="name" v="Storavassura" />
>>>>>>> e1d4bc35ff8a6074a6f2e91616a996b547c36f15
		<tag k="natural" v="scree" />
		<tag k="ssr:stedsnr" v="44529" />
	</node>
<<<<<<< HEAD
	<node lat="60.266505552339304" lon="6.1219249916368215" id="-28025">
		<tag k="name" v="Øyjorde" />
=======
	<node id="-628102" lat="60.3782527771" lon="6.01801944045">
		<tag k="name" v="Kvernaskogen" />
>>>>>>> e1d4bc35ff8a6074a6f2e91616a996b547c36f15
		<tag k="place" v="locality" />
		<tag k="ssr:stedsnr" v="44531" />
	</node>
<<<<<<< HEAD
	<node lat="60.40860555529422" lon="6.1262777865126905" id="-28138">
		<tag k="name" v="Jorunnsfonn" />
		<tag k="place" v="locality" />
		<tag k="ssr:stedsnr" v="105177" />
	</node>
	<node lat="60.4296444474872" lon="6.237463889501976" id="-28141">
=======
	<node id="-629122" lat="60.287994441" lon="5.9880361061">
		<tag k="name" v="Skitneteigen" />
		<tag k="place" v="locality" />
		<tag k="ssr:stedsnr" v="529726" />
	</node>
	<node id="-627576" lat="60.2549250036" lon="6.15589165995">
		<tag k="name" v="Lunadiksmyra" />
		<tag k="natural" v="wetland" />
		<tag k="ssr:stedsnr" v="469633" />
	</node>
	<node id="-628085" lat="60.4208527817" lon="5.99586666564">
		<tag k="name" v="Iendefjellsurane" />
		<tag k="natural" v="scree" />
		<tag k="ssr:stedsnr" v="772803" />
	</node>
	<node id="-628082" lat="60.236255557" lon="6.00541110484">
		<tag k="name" v="Sælstein" />
		<tag k="natural" v="stone" />
		<tag k="ssr:stedsnr" v="772666" />
	</node>
	<node id="-627531" lat="60.301727775" lon="6.15069721973">
>>>>>>> e1d4bc35ff8a6074a6f2e91616a996b547c36f15
		<tag k="landuse" v="meadow" />
		<tag k="name" v="Klyvehagen" />
		<tag k="ssr:stedsnr" v="105423" />
	</node>
<<<<<<< HEAD
	<node lat="60.405530556001786" lon="6.181041663079764" id="-28143">
		<tag k="name" v="Skitsetemarka" />
=======
	<node id="-628037" lat="60.266977774" lon="6.11847221437">
		<tag k="name" v="Røshagen" />
>>>>>>> e1d4bc35ff8a6074a6f2e91616a996b547c36f15
		<tag k="place" v="locality" />
		<tag k="ssr:stedsnr" v="105479" />
	</node>
<<<<<<< HEAD
	<node lat="60.31191666655548" lon="6.014355553251478" id="-28151">
		<tag k="name" v="Kampstein" />
		<tag k="natural" v="stone" />
		<tag k="ssr:stedsnr" v="105737" />
	</node>
	<node lat="60.511713886410966" lon="6.029630563288201" id="-28156">
=======
	<node id="-627520" lat="60.2705833335" lon="6.00258056214">
		<tag k="name" v="Prestøyra" />
		<tag k="place" v="locality" />
		<tag k="ssr:stedsnr" v="407703" />
	</node>
	<node id="-628534" lat="60.5117138864" lon="6.02963056329">
>>>>>>> e1d4bc35ff8a6074a6f2e91616a996b547c36f15
		<tag k="name" v="Kjerringasteinen" />
		<tag k="natural" v="stone" />
		<tag k="ssr:stedsnr" v="105778" />
	</node>
<<<<<<< HEAD
	<node lat="60.43570555174513" lon="6.461388895834123" id="-28215">
		<tag k="name" v="Husaflot" />
		<tag k="place" v="locality" />
		<tag k="ssr:stedsnr" v="165466" />
	</node>
	<node lat="60.39467499897375" lon="6.017702773487763" id="-28225">
		<tag k="name" v="Kvanndalsuri" />
		<tag k="natural" v="scree" />
		<tag k="ssr:stedsnr" v="165864" />
	</node>
	<node lat="60.40489999619961" lon="6.21286944499466" id="-28248">
		<tag k="name" v="Storemyrane" />
=======
	<node id="-629551" lat="60.4047666686" lon="6.23007500851">
		<tag k="name" v="Nedramarka" />
		<tag k="place" v="locality" />
		<tag k="ssr:stedsnr" v="954085" />
	</node>
	<node id="-628525" lat="60.3119166666" lon="6.01435555325">
		<tag k="name" v="Kampstein" />
		<tag k="natural" v="stone" />
		<tag k="ssr:stedsnr" v="105737" />
	</node>
	<node id="-628523" lat="60.3088194401" lon="5.98119444566">
		<tag k="name" v="Dyrakriken" />
		<tag k="place" v="locality" />
		<tag k="ssr:stedsnr" v="105720" />
	</node>
	<node id="-629546" lat="60.3667388877" lon="6.2713583263">
		<tag k="landuse" v="meadow" />
		<tag k="name" v="Fleteng" />
		<tag k="ssr:stedsnr" v="954035" />
	</node>
	<node id="-628512" lat="60.405530556" lon="6.18104166308">
		<tag k="name" v="Skitsetemarka" />
		<tag k="place" v="locality" />
		<tag k="ssr:stedsnr" v="105479" />
	</node>
	<node id="-629022" lat="60.3836999973" lon="6.0769972225">
		<tag k="name" v="Langelimyrane" />
>>>>>>> e1d4bc35ff8a6074a6f2e91616a996b547c36f15
		<tag k="natural" v="wetland" />
		<tag k="ssr:stedsnr" v="187676" />
	</node>
<<<<<<< HEAD
	<node lat="60.51452500087882" lon="6.153400001369069" id="-28330">
		<tag k="name" v="Leitet" />
		<tag k="natural" v="wetland" />
		<tag k="ssr:stedsnr" v="456687" />
	</node>
	<node lat="60.25916111154833" lon="6.16608055001781" id="-28342">
		<tag k="name" v="Gråura" />
		<tag k="natural" v="scree" />
		<tag k="ssr:stedsnr" v="286682" />
	</node>
	<node lat="60.30218610715868" lon="5.981275008049753" id="-28371">
		<tag k="name" v="Langeteigen" />
=======
	<node id="-627997" lat="60.2586972243" lon="6.12125277166">
		<tag k="name" v="Tveitemarka" />
		<tag k="place" v="locality" />
		<tag k="ssr:stedsnr" v="894630" />
	</node>
	<node id="-628508" lat="60.4296444475" lon="6.2374638895">
		<tag k="landuse" v="meadow" />
		<tag k="name" v="Klyvehagen" />
		<tag k="ssr:stedsnr" v="105423" />
	</node>
	<node id="-628499" lat="60.4086055553" lon="6.12627778651">
		<tag k="name" v="Jorunnsfonn" />
>>>>>>> e1d4bc35ff8a6074a6f2e91616a996b547c36f15
		<tag k="place" v="locality" />
		<tag k="ssr:stedsnr" v="287746" />
	</node>
<<<<<<< HEAD
	<node lat="60.211788884827875" lon="5.9473166720843045" id="-28410">
		<tag k="name" v="Fossamyr" />
		<tag k="natural" v="wetland" />
		<tag k="ssr:stedsnr" v="468684" />
	</node>
	<node lat="60.254925003585235" lon="6.155891659952256" id="-28432">
		<tag k="name" v="Lunadiksmyra" />
		<tag k="natural" v="wetland" />
		<tag k="ssr:stedsnr" v="469633" />
	</node>
	<node lat="60.31144444305932" lon="6.012194435991477" id="-28441">
		<tag k="name" v="Breimyr" />
		<tag k="natural" v="wetland" />
		<tag k="ssr:stedsnr" v="469739" />
	</node>
	<node lat="60.403402775888" lon="6.178941673965967" id="-28461">
		<tag k="name" v="Breimyr" />
		<tag k="natural" v="wetland" />
		<tag k="ssr:stedsnr" v="347068" />
	</node>
	<node lat="60.31157778131154" lon="6.014441671469847" id="-28521">
		<tag k="name" v="Breidmyr" />
		<tag k="natural" v="wetland" />
		<tag k="ssr:stedsnr" v="369966" />
	</node>
	<node lat="60.270583333545424" lon="6.002580562139632" id="-28536">
		<tag k="name" v="Prestøyra" />
=======
	<node id="-626962" lat="60.3263222206" lon="6.18072777325">
		<tag k="name" v="Katheller" />
		<tag k="natural" v="stone" />
		<tag k="ssr:stedsnr" v="225973" />
	</node>
	<node id="-628496" lat="60.3686666652" lon="6.16359722778">
		<tag k="name" v="Tolohagane" />
		<tag k="place" v="locality" />
		<tag k="ssr:stedsnr" v="105155" />
	</node>
	<node id="-628494" lat="60.3892869664" lon="6.27010126938">
		<tag k="name" v="Grustak" />
		<tag k="natural" v="beach" />
		<tag k="ssr:stedsnr" v="105116" />
		<tag k="surface" v="sand" />
	</node>
	<node id="-628183" lat="60.4348944486" lon="6.213249995">
		<tag k="name" v="Gråura" />
		<tag k="natural" v="scree" />
		<tag k="ssr:stedsnr" v="942310" />
	</node>
	<node id="-628999" lat="60.2396027782" lon="6.00211666125">
		<tag k="name" v="Bakkasanden" />
		<tag k="natural" v="beach" />
		<tag k="ssr:stedsnr" v="408664" />
		<tag k="surface" v="sand" />
	</node>
	<node id="-628997" lat="60.257641671" lon="6.12967777692">
		<tag k="name" v="Hjartnesmarka" />
>>>>>>> e1d4bc35ff8a6074a6f2e91616a996b547c36f15
		<tag k="place" v="locality" />
		<tag k="ssr:stedsnr" v="407703" />
	</node>
<<<<<<< HEAD
	<node lat="60.28592777378971" lon="5.987983337160934" id="-28759">
		<tag k="name" v="Helvetesurane" />
		<tag k="natural" v="scree" />
		<tag k="ssr:stedsnr" v="469569" />
	</node>
	<node lat="60.42770277773518" lon="6.163286114711718" id="-28772">
		<tag k="landuse" v="meadow" />
		<tag k="name" v="Feta" />
		<tag k="ssr:stedsnr" v="490433" />
	</node>
	<node lat="60.28799444104002" lon="5.988036106101318" id="-28820">
		<tag k="name" v="Skitneteigen" />
=======
	<node id="-628011" lat="60.2597111096" lon="6.16023888273">
		<tag k="name" v="Gjelamyra" />
		<tag k="natural" v="wetland" />
		<tag k="ssr:stedsnr" v="712596" />
	</node>
	<node id="-627965" lat="60.3679888855" lon="6.04674166405">
		<tag k="name" v="Furekjosane" />
>>>>>>> e1d4bc35ff8a6074a6f2e91616a996b547c36f15
		<tag k="place" v="locality" />
		<tag k="ssr:stedsnr" v="529726" />
	</node>
<<<<<<< HEAD
	<node lat="60.44012777355214" lon="6.007411110405679" id="-28825">
		<tag k="name" v="Gråuri" />
=======
	<node id="-628476" lat="60.2675805539" lon="6.18038332725">
		<tag k="name" v="Munkarøysa" />
>>>>>>> e1d4bc35ff8a6074a6f2e91616a996b547c36f15
		<tag k="natural" v="scree" />
		<tag k="ssr:stedsnr" v="529841" />
	</node>
<<<<<<< HEAD
	<node lat="60.313141668715275" lon="6.136119452198128" id="-28835">
		<tag k="name" v="Perslemarki" />
		<tag k="place" v="locality" />
		<tag k="ssr:stedsnr" v="530611" />
	</node>
	<node lat="60.39129722291212" lon="6.143938890175739" id="-28848">
		<tag k="name" v="Djønnemyri" />
=======
	<node id="-627327" lat="60.2117888848" lon="5.94731667208">
		<tag k="name" v="Fossamyr" />
		<tag k="natural" v="wetland" />
		<tag k="ssr:stedsnr" v="468684" />
	</node>
	<node id="-627958" lat="60.5106231598" lon="6.08772882167">
		<tag k="name" v="Vieren" />
>>>>>>> e1d4bc35ff8a6074a6f2e91616a996b547c36f15
		<tag k="natural" v="wetland" />
		<tag k="ssr:stedsnr" v="551709" />
	</node>
<<<<<<< HEAD
	<node lat="60.398322225434725" lon="6.319619436136632" id="-28880">
		<tag k="name" v="Markeskarv" />
		<tag k="place" v="locality" />
		<tag k="ssr:stedsnr" v="590012" />
	</node>
	<node lat="60.264216666139696" lon="6.164683335499587" id="-28893">
		<tag k="name" v="Storåsmyra" />
=======
	<node id="-627956" lat="60.5109916628" lon="6.07573333169">
		<tag k="name" v="Stølsmyr" />
>>>>>>> e1d4bc35ff8a6074a6f2e91616a996b547c36f15
		<tag k="natural" v="wetland" />
		<tag k="ssr:stedsnr" v="590603" />
	</node>
<<<<<<< HEAD
	<node lat="60.26025555146146" lon="6.111233334967153" id="-28894">
=======
	<node id="-629486" lat="60.2612305586" lon="6.07313055609">
>>>>>>> e1d4bc35ff8a6074a6f2e91616a996b547c36f15
		<tag k="landuse" v="meadow" />
		<tag k="name" v="Øykhagen" />
		<tag k="ssr:stedsnr" v="590607" />
	</node>
<<<<<<< HEAD
	<node lat="60.270549995510805" lon="6.094161108989122" id="-28905">
		<tag k="name" v="Knutstein" />
		<tag k="natural" v="stone" />
		<tag k="ssr:stedsnr" v="712496" />
	</node>
	<node lat="60.281391668462604" lon="5.994233338704734" id="-28942">
=======
	<node id="-627436" lat="60.4277027777" lon="6.16328611471">
>>>>>>> e1d4bc35ff8a6074a6f2e91616a996b547c36f15
		<tag k="landuse" v="meadow" />
		<tag k="name" v="Skogaselshagen" />
		<tag k="ssr:stedsnr" v="650603" />
	</node>
<<<<<<< HEAD
	<node lat="60.39791389142432" lon="6.244725003478293" id="-28949">
		<tag k="historic" v="shieling" />
		<tag k="name" v="Heststøl" />
=======
	<node id="-627945" lat="60.3522888865" lon="6.09860833181">
		<tag k="name" v="Drivane" />
>>>>>>> e1d4bc35ff8a6074a6f2e91616a996b547c36f15
		<tag k="place" v="locality" />
		<tag k="ssr:stedsnr" v="651105" />
	</node>
<<<<<<< HEAD
	<node lat="60.39809444468525" lon="6.149122228332085" id="-28952">
		<tag k="name" v="Legena" />
		<tag k="place" v="locality" />
		<tag k="ssr:stedsnr" v="651211" />
	</node>
	<node lat="60.3411888905447" lon="6.018605558669185" id="-28981">
		<tag k="name" v="Longelimyrane" />
		<tag k="natural" v="wetland" />
		<tag k="ssr:stedsnr" v="672561" />
	</node>
	<node lat="60.5109916628103" lon="6.075733331690881" id="-29026">
		<tag k="name" v="Stølsmyr" />
		<tag k="natural" v="wetland" />
		<tag k="ssr:stedsnr" v="894273" />
	</node>
	<node lat="60.510623159767704" lon="6.08772882166619" id="-29028">
		<tag k="name" v="Vieren" />
=======
	<node id="-628455" lat="60.3159444414" lon="5.97073610569">
		<tag k="name" v="Reinfloturane" />
		<tag k="natural" v="scree" />
		<tag k="ssr:stedsnr" v="66975" />
	</node>
	<node id="-629477" lat="60.2715750009" lon="6.06535554793">
		<tag k="alt_name" v="Storemyra" />
		<tag k="name" v="Storemyr" />
		<tag k="natural" v="wetland" />
		<tag k="ssr:stedsnr" v="833529" />
	</node>
	<node id="-629470" lat="60.4082944405" lon="6.08983611462">
		<tag k="name" v="Lendet" />
		<tag k="place" v="locality" />
		<tag k="ssr:stedsnr" v="833152" />
	</node>
	<node id="-627922" lat="60.5008972236" lon="6.128030561">
		<tag k="name" v="Klovningastein" />
		<tag k="natural" v="stone" />
		<tag k="ssr:stedsnr" v="893021" />
	</node>
	<node id="-628944" lat="60.3115777813" lon="6.01444167147">
		<tag k="name" v="Breidmyr" />
>>>>>>> e1d4bc35ff8a6074a6f2e91616a996b547c36f15
		<tag k="natural" v="wetland" />
		<tag k="ssr:stedsnr" v="894275" />
	</node>
<<<<<<< HEAD
	<node lat="60.25869722427056" lon="6.121252771663115" id="-29038">
		<tag k="name" v="Tveitemarka" />
=======
	<node id="-629447" lat="60.273647219" lon="6.18113611128">
		<tag k="name" v="Horggjona" />
>>>>>>> e1d4bc35ff8a6074a6f2e91616a996b547c36f15
		<tag k="place" v="locality" />
		<tag k="ssr:stedsnr" v="894630" />
	</node>
<<<<<<< HEAD
	<node lat="60.25971110956444" lon="6.160238882727681" id="-29086">
		<tag k="name" v="Gjelamyra" />
=======
	<node id="-627388" lat="60.4034027759" lon="6.17894167397">
		<tag k="name" v="Breimyr" />
>>>>>>> e1d4bc35ff8a6074a6f2e91616a996b547c36f15
		<tag k="natural" v="wetland" />
		<tag k="ssr:stedsnr" v="712596" />
	</node>
<<<<<<< HEAD
	<node lat="60.300677778391496" lon="5.9805888942526435" id="-29089">
		<tag k="name" v="Storeteigen" />
		<tag k="place" v="locality" />
		<tag k="ssr:stedsnr" v="712702" />
	</node>
	<node lat="60.30216666285598" lon="6.120466661815571" id="-29097">
		<tag k="name" v="Synnevakjosane" />
=======
	<node id="-627383" lat="60.3912972229" lon="6.14393889018">
		<tag k="name" v="Djønnemyri" />
		<tag k="natural" v="wetland" />
		<tag k="ssr:stedsnr" v="551709" />
	</node>
	<node id="-628394" lat="60.2665055523" lon="6.12192499164">
		<tag k="name" v="Øyjorde" />
>>>>>>> e1d4bc35ff8a6074a6f2e91616a996b547c36f15
		<tag k="place" v="locality" />
		<tag k="ssr:stedsnr" v="712928" />
	</node>
<<<<<<< HEAD
	<node lat="60.32271944759338" lon="6.170436101787006" id="-29101">
		<tag k="name" v="Hondsvåka" />
		<tag k="natural" v="stone" />
		<tag k="ssr:stedsnr" v="712907" />
	</node>
	<node lat="60.23625555702765" lon="6.005411104838996" id="-29143">
		<tag k="name" v="Sælstein" />
		<tag k="natural" v="stone" />
		<tag k="ssr:stedsnr" v="772666" />
	</node>
	<node lat="60.4208527816582" lon="5.995866665637418" id="-29145">
		<tag k="name" v="Iendefjellsurane" />
		<tag k="natural" v="scree" />
		<tag k="ssr:stedsnr" v="772803" />
	</node>
	<node lat="60.21102222252816" lon="5.954991664665979" id="-29189">
=======
	<node id="-628393" lat="60.270700002" lon="6.14426665795">
		<tag k="name" v="Kvitasteinurda" />
		<tag k="natural" v="scree" />
		<tag k="ssr:stedsnr" v="44529" />
	</node>
	<node id="-627880" lat="60.3979138914" lon="6.24472500348">
		<tag k="historic" v="shieling" />
		<tag k="name" v="Heststøl" />
		<tag k="place" v="locality" />
		<tag k="ssr:stedsnr" v="651105" />
	</node>
	<node id="-628387" lat="60.3987250017" lon="6.29577222375">
		<tag k="landuse" v="meadow" />
		<tag k="name" v="Kalvahagen" />
		<tag k="ssr:stedsnr" v="44432" />
	</node>
	<node id="-628897" lat="60.4220305528" lon="6.15134721532">
		<tag k="name" v="Kløvmyrane" />
		<tag k="natural" v="wetland" />
		<tag k="ssr:stedsnr" v="369401" />
	</node>
	<node id="-629408" lat="60.2110222225" lon="5.95499166467">
>>>>>>> e1d4bc35ff8a6074a6f2e91616a996b547c36f15
		<tag k="name" v="Vadbakka" />
		<tag k="place" v="locality" />
		<tag k="ssr:stedsnr" v="794864" />
	</node>
<<<<<<< HEAD
	<node lat="60.27364721904714" lon="6.18113611127829" id="-29246">
		<tag k="name" v="Horggjona" />
		<tag k="place" v="locality" />
		<tag k="ssr:stedsnr" v="820677" />
	</node>
	<node lat="60.27157500087419" lon="6.065355547932395" id="-29263">
		<tag k="alt_name" v="Storemyra" />
		<tag k="name" v="Storemyr" />
=======
	<node id="-627356" lat="60.3114444431" lon="6.01219443599">
		<tag k="name" v="Breimyr" />
>>>>>>> e1d4bc35ff8a6074a6f2e91616a996b547c36f15
		<tag k="natural" v="wetland" />
		<tag k="ssr:stedsnr" v="833529" />
	</node>
<<<<<<< HEAD
	<node lat="60.32398333263392" lon="6.066194439217451" id="-29264">
		<tag k="alt_name" v="Huksteinen" />
		<tag k="name" v="Hukstein" />
		<tag k="natural" v="stone" />
		<tag k="ssr:stedsnr" v="833580" />
	</node>
	<node lat="60.50089722356552" lon="6.128030561001288" id="-29303">
		<tag k="name" v="Klovningastein" />
		<tag k="natural" v="stone" />
		<tag k="ssr:stedsnr" v="893021" />
	</node>
	<node lat="60.35228888647714" lon="6.098608331811537" id="-29315">
		<tag k="name" v="Drivane" />
=======
	<node id="-627349" lat="60.2859277738" lon="5.98798333716">
		<tag k="name" v="Helvetesurane" />
		<tag k="natural" v="scree" />
		<tag k="ssr:stedsnr" v="469569" />
	</node>
	<node id="-629375" lat="60.2566527765" lon="6.08397499811">
		<tag k="name" v="Lingamarka" />
		<tag k="place" v="locality" />
		<tag k="ssr:stedsnr" v="772607" />
	</node>
	<node id="-629368" lat="60.3097611142" lon="6.04464444932">
		<tag k="name" v="Teigen" />
>>>>>>> e1d4bc35ff8a6074a6f2e91616a996b547c36f15
		<tag k="place" v="locality" />
		<tag k="ssr:stedsnr" v="894164" />
	</node>
<<<<<<< HEAD
	<node lat="60.31150000200274" lon="5.995863880368399" id="-29360">
		<tag k="name" v="Storemyrane" />
		<tag k="natural" v="wetland" />
		<tag k="ssr:stedsnr" v="915970" />
	</node>
	<node lat="60.37825277709534" lon="6.018019440447425" id="-29364">
		<tag k="name" v="Kvernaskogen" />
		<tag k="place" v="locality" />
		<tag k="ssr:stedsnr" v="916718" />
	</node>
	<node lat="60.404766668645834" lon="6.23007500851248" id="-29382">
		<tag k="name" v="Nedramarka" />
		<tag k="place" v="locality" />
		<tag k="ssr:stedsnr" v="954085" />
	</node>
	<node lat="60.27401666401411" lon="6.057250002105409" id="-29442">
=======
	<node id="-627306" lat="60.433269444" lon="6.02877778674">
		<tag k="name" v="Bjørnasteinane" />
		<tag k="natural" v="stone" />
		<tag k="ssr:stedsnr" v="287825" />
	</node>
	<node id="-628319" lat="60.274016664" lon="6.05725000211">
>>>>>>> e1d4bc35ff8a6074a6f2e91616a996b547c36f15
		<tag k="name" v="Røsmarka" />
		<tag k="place" v="locality" />
		<tag k="ssr:stedsnr" v="5787" />
	</node>
<<<<<<< HEAD
	<node lat="60.31594444136835" lon="5.97073610569034" id="-29537">
		<tag k="name" v="Reinfloturane" />
		<tag k="natural" v="scree" />
		<tag k="ssr:stedsnr" v="66975" />
	</node>
	<node lat="60.389286966410765" lon="6.270101269384143" id="-29564">
		<tag k="name" v="Grustak" />
		<tag k="natural" v="beach" />
		<tag k="ssr:stedsnr" v="105116" />
		<tag k="surface" v="sand" />
	</node>
	<node lat="60.2675805539156" lon="6.180383327253745" id="-29565">
		<tag k="name" v="Munkarøysa" />
		<tag k="natural" v="scree" />
		<tag k="ssr:stedsnr" v="104642" />
	</node>
	<node lat="60.36866666518895" lon="6.16359722778342" id="-29573">
		<tag k="name" v="Tolohagane" />
=======
	<node id="-627724" lat="60.377094446" lon="6.19435555159">
		<tag k="name" v="Bjørketeigen" />
		<tag k="place" v="locality" />
		<tag k="ssr:stedsnr" v="590112" />
	</node>
	<node id="-629310" lat="60.3980944447" lon="6.14912222833">
		<tag k="name" v="Legena" />
>>>>>>> e1d4bc35ff8a6074a6f2e91616a996b547c36f15
		<tag k="place" v="locality" />
		<tag k="ssr:stedsnr" v="105155" />
	</node>
<<<<<<< HEAD
	<node lat="60.30881944009745" lon="5.981194445655919" id="-29586">
		<tag k="name" v="Dyrakriken" />
		<tag k="place" v="locality" />
		<tag k="ssr:stedsnr" v="105720" />
	</node>
	<node lat="60.33596388994771" lon="6.157277770571062" id="-29663">
		<tag k="name" v="Holten" />
		<tag k="place" v="locality" />
		<tag k="ssr:stedsnr" v="165148" />
	</node>
	<node lat="60.32643332933073" lon="6.045397227609447" id="-29679">
		<tag k="name" v="Smørlaupen" />
=======
	<node id="-627259" lat="60.5145250009" lon="6.15340000137">
		<tag k="name" v="Leitet" />
>>>>>>> e1d4bc35ff8a6074a6f2e91616a996b547c36f15
		<tag k="natural" v="wetland" />
		<tag k="ssr:stedsnr" v="165724" />
	</node>
<<<<<<< HEAD
	<node lat="60.29353611056963" lon="5.9828888887684215" id="-29680">
		<tag k="name" v="Andersteigen" />
		<tag k="place" v="locality" />
		<tag k="ssr:stedsnr" v="165736" />
	</node>
	<node lat="60.37402777825201" lon="6.170452786785154" id="-29691">
		<tag k="name" v="Tolomarka" />
=======
	<node id="-629303" lat="60.2813916685" lon="5.9942333387">
		<tag k="landuse" v="meadow" />
		<tag k="name" v="Skogaselshagen" />
		<tag k="ssr:stedsnr" v="650603" />
	</node>
	<node id="-627766" lat="60.3021666629" lon="6.12046666182">
		<tag k="name" v="Synnevakjosane" />
>>>>>>> e1d4bc35ff8a6074a6f2e91616a996b547c36f15
		<tag k="place" v="locality" />
		<tag k="ssr:stedsnr" v="187594" />
	</node>
<<<<<<< HEAD
	<node lat="60.293658334695536" lon="6.063716659733869" id="-29734">
		<tag k="name" v="Storekleivmyrane" />
		<tag k="natural" v="wetland" />
		<tag k="ssr:stedsnr" v="214267" />
	</node>
	<node lat="60.32632222056346" lon="6.180727773245114" id="-29742">
		<tag k="name" v="Katheller" />
=======
	<node id="-627765" lat="60.3227194476" lon="6.17043610179">
		<tag k="name" v="Hondsvåka" />
		<tag k="natural" v="stone" />
		<tag k="ssr:stedsnr" v="712907" />
	</node>
	<node id="-627751" lat="60.2705499955" lon="6.09416110899">
		<tag k="name" v="Knutstein" />
>>>>>>> e1d4bc35ff8a6074a6f2e91616a996b547c36f15
		<tag k="natural" v="stone" />
		<tag k="ssr:stedsnr" v="225973" />
	</node>
<<<<<<< HEAD
	<node lat="60.40488888619628" lon="6.181480561279819" id="-29778">
		<tag k="name" v="Skisetemarka" />
=======
	<node id="-627745" lat="60.3006777784" lon="5.98058889425">
		<tag k="name" v="Storeteigen" />
>>>>>>> e1d4bc35ff8a6074a6f2e91616a996b547c36f15
		<tag k="place" v="locality" />
		<tag k="ssr:stedsnr" v="274697" />
	</node>
<<<<<<< HEAD
	<node lat="60.2822666624806" lon="6.003536103502272" id="-29785">
		<tag k="name" v="Tona" />
=======
	<node id="-627230" lat="60.3021861072" lon="5.98127500805">
		<tag k="name" v="Langeteigen" />
>>>>>>> e1d4bc35ff8a6074a6f2e91616a996b547c36f15
		<tag k="place" v="locality" />
		<tag k="ssr:stedsnr" v="275840" />
	</node>
<<<<<<< HEAD
	<node lat="60.40188333091038" lon="6.004402778097556" id="-29837">
=======
	<node id="-628765" lat="60.4018833309" lon="6.0044027781">
>>>>>>> e1d4bc35ff8a6074a6f2e91616a996b547c36f15
		<tag k="name" v="Tjørnane" />
		<tag k="natural" v="wetland" />
		<tag k="ssr:stedsnr" v="308434" />
	</node>
<<<<<<< HEAD
	<node lat="60.42203055284283" lon="6.151347215323507" id="-29953">
		<tag k="name" v="Kløvmyrane" />
=======
	<node id="-627738" lat="60.4072305598" lon="6.1880722223">
		<tag k="name" v="Øktarsteinen" />
		<tag k="natural" v="stone" />
		<tag k="ssr:stedsnr" v="712073" />
	</node>
	<node id="-627734" lat="60.2642166661" lon="6.1646833355">
		<tag k="name" v="Storåsmyra" />
>>>>>>> e1d4bc35ff8a6074a6f2e91616a996b547c36f15
		<tag k="natural" v="wetland" />
		<tag k="ssr:stedsnr" v="369401" />
	</node>
<<<<<<< HEAD
	<node lat="60.25764167099727" lon="6.129677776916477" id="-29999">
		<tag k="name" v="Hjartnesmarka" />
		<tag k="place" v="locality" />
		<tag k="ssr:stedsnr" v="408618" />
	</node>
	<node lat="60.23960277820501" lon="6.002116661254947" id="-30013">
		<tag k="name" v="Bakkasanden" />
		<tag k="natural" v="beach" />
		<tag k="ssr:stedsnr" v="408664" />
		<tag k="surface" v="sand" />
	</node>
	<node lat="60.38369999729097" lon="6.076997222498032" id="-30053">
		<tag k="name" v="Langelimyrane" />
		<tag k="natural" v="wetland" />
		<tag k="ssr:stedsnr" v="430667" />
	</node>
	<node lat="60.36798888549648" lon="6.046741664052095" id="-30068">
		<tag k="name" v="Furekjosane" />
		<tag k="place" v="locality" />
		<tag k="ssr:stedsnr" v="710800" />
	</node>
	<node lat="60.30172777499572" lon="6.150697219729478" id="-30071">
		<tag k="landuse" v="meadow" />
		<tag k="name" v="Oppsåtene" />
		<tag k="ssr:stedsnr" v="516298" />
	</node>
	<node lat="60.318480557851224" lon="5.9413416577661895" id="-30108">
		<tag k="alt_name" v="Storavassurda" />
		<tag k="name" v="Storavassura" />
		<tag k="natural" v="scree" />
		<tag k="ssr:stedsnr" v="530733" />
	</node>
	<node lat="60.37815000047907" lon="6.062102780463192" id="-30129">
		<tag k="name" v="Klokkarhola" />
		<tag k="natural" v="wetland" />
		<tag k="ssr:stedsnr" v="551678" />
	</node>
	<node lat="60.41873611006963" lon="6.1835666734944805" id="-30136">
		<tag k="name" v="Vassura" />
		<tag k="natural" v="scree" />
		<tag k="ssr:stedsnr" v="577335" />
	</node>
	<node lat="60.36886666924283" lon="6.175766672746249" id="-30143">
		<tag k="name" v="Urane" />
		<tag k="natural" v="wetland" />
		<tag k="ssr:stedsnr" v="589024" />
	</node>
	<node lat="60.377094445961404" lon="6.194355551594332" id="-30167">
		<tag k="name" v="Bjørketeigen" />
		<tag k="place" v="locality" />
		<tag k="ssr:stedsnr" v="590112" />
	</node>
	<node lat="60.4257611108325" lon="6.208288896561229" id="-30169">
		<tag k="historic" v="shieling" />
		<tag k="name" v="Øystøl" />
		<tag k="place" v="locality" />
		<tag k="ssr:stedsnr" v="590141" />
	</node>
	<node lat="60.30407778097672" lon="6.048488881273827" id="-30170">
		<tag k="name" v="Teigen" />
		<tag k="place" v="locality" />
		<tag k="ssr:stedsnr" v="590562" />
	</node>
	<node lat="60.28141388906074" lon="6.000022214205781" id="-30279">
		<tag k="landuse" v="meadow" />
		<tag k="name" v="Oykhagane" />
		<tag k="ssr:stedsnr" v="711650" />
	</node>
	<node lat="60.40723055980046" lon="6.188072222301137" id="-30285">
		<tag k="name" v="Øktarsteinen" />
		<tag k="natural" v="stone" />
		<tag k="ssr:stedsnr" v="712073" />
	</node>
	<node lat="60.26697777404325" lon="6.118472214367174" id="-30351">
		<tag k="name" v="Røshagen" />
		<tag k="place" v="locality" />
		<tag k="ssr:stedsnr" v="760437" />
	</node>
	<node lat="60.25665277648159" lon="6.083974998109114" id="-30382">
		<tag k="name" v="Lingamarka" />
		<tag k="place" v="locality" />
		<tag k="ssr:stedsnr" v="772607" />
	</node>
	<node lat="60.30976111421265" lon="6.044644449315405" id="-30387">
		<tag k="name" v="Teigen" />
		<tag k="place" v="locality" />
		<tag k="ssr:stedsnr" v="772733" />
	</node>
	<node lat="60.40829444052278" lon="6.089836114622744" id="-30468">
		<tag k="name" v="Lendet" />
		<tag k="place" v="locality" />
		<tag k="ssr:stedsnr" v="833152" />
	</node>
	<node lat="60.26123055862706" lon="6.073130556091186" id="-30487">
		<tag k="landuse" v="meadow" />
		<tag k="name" v="Vetlehagen" />
		<tag k="ssr:stedsnr" v="833626" />
	</node>
	<node lat="60.27046388465276" lon="6.041697223460963" id="-30492">
		<tag k="name" v="Øyjorda" />
		<tag k="place" v="locality" />
		<tag k="ssr:stedsnr" v="833671" />
	</node>
	<node lat="60.32247222533509" lon="6.182900004156298" id="-30498">
		<tag k="name" v="Verkjen" />
		<tag k="natural" v="stone" />
		<tag k="ssr:stedsnr" v="833924" />
	</node>
	<node lat="60.50778055952084" lon="6.158658341466135" id="-30558">
		<tag k="name" v="Sundagsbeitet" />
		<tag k="place" v="locality" />
		<tag k="ssr:stedsnr" v="942708" />
	</node>
	<node lat="60.43489444857825" lon="6.213249994996367" id="-30559">
		<tag k="name" v="Gråura" />
		<tag k="natural" v="scree" />
		<tag k="ssr:stedsnr" v="942310" />
	</node>
	<node lat="60.36673888769291" lon="6.271358326295142" id="-30578">
		<tag k="landuse" v="meadow" />
		<tag k="name" v="Fleteng" />
		<tag k="ssr:stedsnr" v="954035" />
	</node>
=======
	<node id="-627726" lat="60.4257611108" lon="6.20828889656">
		<tag k="historic" v="shieling" />
		<tag k="name" v="Øystøl" />
		<tag k="place" v="locality" />
		<tag k="ssr:stedsnr" v="590141" />
	</node>
	<node id="-628236" lat="60.311500002" lon="5.99586388037">
		<tag k="name" v="Storemyrane" />
		<tag k="natural" v="wetland" />
		<tag k="ssr:stedsnr" v="915970" />
	</node>
	<node id="-627721" lat="60.2814138891" lon="6.00002221421">
		<tag k="landuse" v="meadow" />
		<tag k="name" v="Oykhagane" />
		<tag k="ssr:stedsnr" v="711650" />
	</node>
	<node id="-628741" lat="60.2936583347" lon="6.06371665973">
		<tag k="name" v="Storekleivmyrane" />
		<tag k="natural" v="wetland" />
		<tag k="ssr:stedsnr" v="214267" />
	</node>
	<node id="-627201" lat="60.2591611115" lon="6.16608055002">
		<tag k="name" v="Gråura" />
		<tag k="natural" v="scree" />
		<tag k="ssr:stedsnr" v="286682" />
	</node>
>>>>>>> e1d4bc35ff8a6074a6f2e91616a996b547c36f15
</osm>
