<?xml version="1.0" encoding="UTF-8"?>
<osm version="0.6" generator="osmapis">
	<node lat="60.46241110856117" lon="6.282091675485509" id="-70655">
		<tag k="name" v="Kastdalen" />
		<tag k="place" v="locality" />
		<tag k="ssr:stedsnr" v="5215" />
	</node>
	<node lat="60.20336911175931" lon="5.962360638755398" id="-70660">
		<tag k="fixme" v="consider place=hamlet" />
		<tag k="name" v="Dysvik" />
		<tag k="place" v="farm" />
		<tag k="ssr:stedsnr" v="5481" />
	</node>
	<node lat="60.372411107545474" lon="6.15428610446116" id="-70662">
		<tag k="fixme" v="consider place=hamlet" />
		<tag k="name" v="Tolo" />
		<tag k="place" v="farm" />
		<tag k="ssr:stedsnr" v="5622" />
	</node>
	<node lat="60.18138910100625" lon="5.898438224286814" id="-70663">
		<tag k="fixme" v="consider place=hamlet" />
		<tag k="name" v="Tveit" />
		<tag k="place" v="farm" />
		<tag k="ssr:stedsnr" v="5512" />
	</node>
	<node lat="60.29371944574277" lon="6.161622228361714" id="-70673">
		<tag k="name" v="Vang" />
		<tag k="place" v="farm" />
		<tag k="ssr:stedsnr" v="5855" />
	</node>
	<node lat="60.29474721800098" lon="6.172011102879694" id="-70674">
		<tag k="name" v="Solheim" />
		<tag k="place" v="farm" />
		<tag k="ssr:stedsnr" v="5856" />
	</node>
	<node lat="60.29121666679184" lon="6.130269442418505" id="-70676">
		<tag k="alt_name" v="Ryssing" />
		<tag k="historic" v="shieling" />
		<tag k="name" v="Ryssingen" />
		<tag k="place" v="isolated_dwelling" />
		<tag k="ssr:stedsnr" v="5864" />
	</node>
	<node lat="60.2581166627563" lon="6.006008337151031" id="-70680">
		<tag k="name" v="Solbakken" />
		<tag k="place" v="farm" />
		<tag k="ssr:stedsnr" v="5772" />
	</node>
	<node lat="60.180575001605284" lon="5.91740277631055" id="-70688">
		<tag k="name" v="Steinen" />
		<tag k="place" v="farm" />
		<tag k="ssr:stedsnr" v="287371" />
	</node>
	<node lat="60.38795555200631" lon="6.272352775847764" id="-70690">
		<tag k="name" v="Kaldavadet" />
		<tag k="place" v="farm" />
		<tag k="ssr:stedsnr" v="43024" />
	</node>
	<node lat="60.350844445834994" lon="6.182052776561993" id="-70691">
		<tag k="name" v="Framnes" />
		<tag k="place" v="farm" />
		<tag k="ssr:stedsnr" v="43031" />
	</node>
	<node lat="60.3697555544308" lon="6.19591944591819" id="-70693">
		<tag k="name" v="Sollund" />
		<tag k="place" v="farm" />
		<tag k="ssr:stedsnr" v="43944" />
	</node>
	<node lat="60.39584999764218" lon="6.175591666036944" id="-70694">
		<tag k="name" v="Austlid" />
		<tag k="place" v="farm" />
		<tag k="ssr:stedsnr" v="44075" />
	</node>
	<node lat="60.407824996246646" lon="6.270777774679953" id="-70695">
		<tag k="name" v="Fleto" />
		<tag k="place" v="farm" />
		<tag k="ssr:stedsnr" v="44082" />
	</node>
	<node lat="60.42156944439096" lon="6.372638886254367" id="-70701">
		<tag k="historic" v="shieling" />
		<tag k="name" v="Løena" />
		<tag k="place" v="isolated_dwelling" />
		<tag k="ssr:stedsnr" v="44412" />
	</node>
	<node lat="60.232344441955796" lon="5.9606777706961935" id="-70718">
		<tag k="historic" v="shieling" />
		<tag k="name" v="Nygardsstølen" />
		<tag k="place" v="isolated_dwelling" />
		<tag k="ssr:stedsnr" v="65747" />
	</node>
	<node lat="60.24734444763604" lon="6.007247221322952" id="-70719">
		<tag k="name" v="Eikenes" />
		<tag k="ssr:stedsnr" v="65750" />
		<tag k="tourism" v="hotel" />
	</node>
	<node lat="60.247319446326735" lon="6.155952777104442" id="-70720">
		<tag k="name" v="Tangen" />
		<tag k="place" v="farm" />
		<tag k="ssr:stedsnr" v="65757" />
	</node>
	<node lat="60.386991664447585" lon="6.237213890315724" id="-70722">
		<tag k="name" v="Bergehagen" />
		<tag k="place" v="farm" />
		<tag k="ssr:stedsnr" v="66158" />
	</node>
	<node lat="60.378766664348895" lon="6.244594436751324" id="-70723">
		<tag k="fixme" v="consider place=hamlet" />
		<tag k="name" v="Berge" />
		<tag k="place" v="farm" />
		<tag k="ssr:stedsnr" v="66162" />
	</node>
	<node lat="60.359233332168564" lon="6.1164222247571125" id="-70733">
		<tag k="historic" v="shieling" />
		<tag k="name" v="Liastøl" />
		<tag k="place" v="isolated_dwelling" />
		<tag k="ssr:stedsnr" v="66595" />
	</node>
	<node lat="60.361327773236866" lon="6.062038882271446" id="-70738">
		<tag k="leisure" v="pitch" />
		<tag k="name" v="Eikehaugen" />
		<tag k="ssr:stedsnr" v="66604" />
	</node>
	<node lat="60.3748749957399" lon="6.147774998756437" id="-70740">
		<tag k="fixme" v="consider place=hamlet" />
		<tag k="name" v="Norheim" />
		<tag k="place" v="farm" />
		<tag k="ssr:stedsnr" v="66626" />
	</node>
	<node lat="60.371474732191245" lon="6.109702081112849" id="-70741">
		<tag k="fixme" v="consider place=hamlet" />
		<tag k="name" v="Århus" />
		<tag k="place" v="farm" />
		<tag k="ssr:stedsnr" v="66628" />
	</node>
	<node lat="60.27400971757561" lon="6.033950912103717" id="-70751">
		<tag k="alt_name" v="Fosse, store;Fosse" />
		<tag k="fixme" v="consider place=hamlet" />
		<tag k="name" v="Store Fosse" />
		<tag k="place" v="farm" />
		<tag k="ssr:stedsnr" v="67592" />
	</node>
	<node lat="60.223381547320784" lon="5.978181608601834" id="-70759">
		<tag k="alt_name" v="Nygård;Nygard" />
		<tag k="fixme" v="consider place=hamlet" />
		<tag k="name" v="Nygarden" />
		<tag k="place" v="farm" />
		<tag k="ssr:stedsnr" v="247711" />
	</node>
	<node lat="60.42183889180654" lon="6.267149998681346" id="-70767">
		<tag k="historic" v="shieling" />
		<tag k="name" v="Rymbedalen" />
		<tag k="place" v="isolated_dwelling" />
		<tag k="ssr:stedsnr" v="248148" />
	</node>
	<node lat="60.43760885766302" lon="6.462749684119374" id="-70769">
		<tag k="alt_name" v="Vesle Tveit;Lilletveit" />
		<tag k="fixme" v="consider place=hamlet" />
		<tag k="name" v="Litletveit" />
		<tag k="place" v="farm" />
		<tag k="ssr:stedsnr" v="248234" />
	</node>
	<node lat="60.44445000454666" lon="6.490813895039441" id="-70770">
		<tag k="alt_name" v="Fløten" />
		<tag k="name" v="Floten" />
		<tag k="place" v="isolated_dwelling" />
		<tag k="ssr:stedsnr" v="248236" />
	</node>
	<node lat="60.481352777062476" lon="6.021888893911273" id="-70772">
		<tag k="historic" v="shieling" />
		<tag k="name" v="Kjerringadalen" />
		<tag k="place" v="isolated_dwelling" />
		<tag k="ssr:stedsnr" v="248347" />
	</node>
	<node lat="60.42015555515591" lon="5.958327774925883" id="-70777">
		<tag k="historic" v="shieling" />
		<tag k="name" v="Juvik" />
		<tag k="place" v="isolated_dwelling" />
		<tag k="ssr:stedsnr" v="248445" />
	</node>
	<node lat="60.36499166343324" lon="6.070250001660366" id="-70782">
		<tag k="name" v="Nygard" />
		<tag k="place" v="farm" />
		<tag k="ssr:stedsnr" v="248629" />
	</node>
	<node lat="60.377716664958136" lon="6.195630557486333" id="-70789">
		<tag k="building" v="industrial" />
		<tag k="industrial" v="factory" />
		<tag k="name" v="Bjørketeigen" />
		<tag k="ssr:stedsnr" v="248674" />
	</node>
	<node lat="60.379221953978266" lon="6.161670064364308" id="-70790">
		<tag k="fixme" v="consider place=hamlet" />
		<tag k="name" v="Skålheim" />
		<tag k="place" v="farm" />
		<tag k="ssr:stedsnr" v="248680" />
	</node>
	<node lat="60.381260227338636" lon="6.1473232591295295" id="-70791">
		<tag k="name" v="Seberg" />
		<tag k="place" v="farm" />
		<tag k="ssr:stedsnr" v="248681" />
	</node>
	<node lat="60.395300001905824" lon="6.175777768693934" id="-70793">
		<tag k="fixme" v="consider place=hamlet" />
		<tag k="name" v="Stuve" />
		<tag k="place" v="farm" />
		<tag k="ssr:stedsnr" v="248697" />
	</node>
	<node lat="60.50126944530398" lon="6.205319451260111" id="-70797">
		<tag k="historic" v="shieling" />
		<tag k="name" v="Flatabøstølen" />
		<tag k="place" v="isolated_dwelling" />
		<tag k="ssr:stedsnr" v="248788" />
	</node>
	<node lat="60.272702777159" lon="6.021786111651413" id="-70801">
		<tag k="name" v="Klubbavik" />
		<tag k="place" v="farm" />
		<tag k="ssr:stedsnr" v="248833" />
	</node>
	<node lat="60.40558333045856" lon="6.262794436570357" id="-70814">
		<tag k="name" v="Brunnen" />
		<tag k="place" v="farm" />
		<tag k="ssr:stedsnr" v="105014" />
	</node>
	<node lat="60.40757499642502" lon="6.2613916715636515" id="-70815">
		<tag k="name" v="Ørevik" />
		<tag k="place" v="farm" />
		<tag k="ssr:stedsnr" v="105015" />
	</node>
	<node lat="60.41228611333689" lon="6.229377782324378" id="-70817">
		<tag k="name" v="Øverland" />
		<tag k="place" v="farm" />
		<tag k="ssr:stedsnr" v="105088" />
	</node>
	<node lat="60.46430027345568" lon="6.220457460565576" id="-70823">
		<tag k="name" v="Jarane" />
		<tag k="place" v="farm" />
		<tag k="ssr:stedsnr" v="105414" />
	</node>
	<node lat="60.42986666806051" lon="6.404549995657421" id="-70846">
		<tag k="alt_name" v="Vikadal" />
		<tag k="name" v="Vikedal" />
		<tag k="place" v="quarter" />
		<tag k="ssr:stedsnr" v="118202" />
	</node>
	<node lat="60.1647327911789" lon="5.907587323966008" id="-70848">
		<tag k="fixme" v="consider place=hamlet" />
		<tag k="name" v="Mundheim" />
		<tag k="place" v="farm" />
		<tag k="ssr:stedsnr" v="125597" />
	</node>
	<node lat="60.38425947368852" lon="6.231305056493855" id="-70849">
		<tag k="fixme" v="consider place=hamlet" />
		<tag k="name" v="Laupsa" />
		<tag k="place" v="farm" />
		<tag k="ssr:stedsnr" v="126155" />
	</node>
	<node lat="60.36369444053994" lon="6.278511104219827" id="-70850">
		<tag k="name" v="Nystad" />
		<tag k="place" v="farm" />
		<tag k="ssr:stedsnr" v="126088" />
	</node>
	<node lat="60.428249999688376" lon="6.138894451991688" id="-70857">
		<tag k="historic" v="shieling" />
		<tag k="name" v="Ruedal" />
		<tag k="place" v="isolated_dwelling" />
		<tag k="ssr:stedsnr" v="126452" />
	</node>
	<node lat="60.27046944425879" lon="6.12548888516858" id="-70861">
		<tag k="fixme" v="consider place=hamlet" />
		<tag k="name" v="Ugletveit" />
		<tag k="place" v="farm" />
		<tag k="ssr:stedsnr" v="126809" />
	</node>
	<node lat="60.318711108395306" lon="6.124902769350058" id="-70864">
		<tag k="historic" v="shieling" />
		<tag k="name" v="Grøndalen" />
		<tag k="place" v="isolated_dwelling" />
		<tag k="ssr:stedsnr" v="126992" />
	</node>
	<node lat="60.33285493251539" lon="6.2063896931450895" id="-70866">
		<tag k="alt_name" v="Aksnes, øvre" />
		<tag k="fixme" v="consider place=hamlet" />
		<tag k="name" v="Øvre Aksnes" />
		<tag k="place" v="farm" />
		<tag k="ssr:stedsnr" v="127590" />
	</node>
	<node lat="60.29979166247941" lon="6.149613886572201" id="-70871">
		<tag k="name" v="Brattli" />
		<tag k="place" v="farm" />
		<tag k="ssr:stedsnr" v="127915" />
	</node>
	<node lat="60.23249722658318" lon="5.961255556032261" id="-70884">
		<tag k="name" v="Rolegheita" />
		<tag k="place" v="farm" />
		<tag k="ssr:stedsnr" v="164425" />
	</node>
	<node lat="60.3907972202746" lon="6.185997220509677" id="-70897">
		<tag k="name" v="Steinhus" />
		<tag k="place" v="farm" />
		<tag k="ssr:stedsnr" v="165310" />
	</node>
	<node lat="60.43568333026147" lon="6.427758337586612" id="-70899">
		<tag k="name" v="Byrkjedalsteigen" />
		<tag k="place" v="farm" />
		<tag k="ssr:stedsnr" v="165413" />
	</node>
	<node lat="60.365980625365935" lon="6.1012281361404685" id="-70909">
		<tag k="name" v="Årtun" />
		<tag k="place" v="farm" />
		<tag k="ssr:stedsnr" v="165815" />
	</node>
	<node lat="60.360961107099726" lon="6.157099995137992" id="-70916">
		<tag k="name" v="Veanes" />
		<tag k="place" v="farm" />
		<tag k="ssr:stedsnr" v="165915" />
	</node>
	<node lat="60.480048257109466" lon="6.208893256146866" id="-70919">
		<tag k="fixme" v="consider place=hamlet" />
		<tag k="name" v="Flatabø" />
		<tag k="place" v="farm" />
		<tag k="ssr:stedsnr" v="187322" />
	</node>
	<node lat="60.47594999566496" lon="6.205880549953201" id="-70920">
		<tag k="name" v="Træet" />
		<tag k="place" v="farm" />
		<tag k="ssr:stedsnr" v="187374" />
	</node>
	<node lat="60.43319166441178" lon="6.270919440434389" id="-70926">
		<tag k="alt_name" v="Mødal" />
		<tag k="historic" v="shieling" />
		<tag k="name" v="Mødalen" />
		<tag k="place" v="isolated_dwelling" />
		<tag k="ssr:stedsnr" v="187231" />
	</node>
	<node lat="60.393436110866915" lon="5.938199991140467" id="-70927">
		<tag k="name" v="Kleiva" />
		<tag k="old_name" v="Kleivi" />
		<tag k="place" v="farm" />
		<tag k="ssr:stedsnr" v="187287" />
	</node>
	<node lat="60.42710277462008" lon="6.170094441304251" id="-70928">
		<tag k="historic" v="shieling" />
		<tag k="name" v="Liland" />
		<tag k="place" v="isolated_dwelling" />
		<tag k="ssr:stedsnr" v="187413" />
	</node>
	<node lat="60.367082806153235" lon="6.09009105749181" id="-70930">
		<tag k="fixme" v="consider place=hamlet" />
		<tag k="name" v="Skeie" />
		<tag k="place" v="farm" />
		<tag k="ssr:stedsnr" v="187604" />
	</node>
	<node lat="60.371833179661984" lon="6.09048576518197" id="-70931">
		<tag k="fixme" v="consider place=hamlet" />
		<tag k="name" v="Rosseland" />
		<tag k="place" v="farm" />
		<tag k="ssr:stedsnr" v="187607" />
	</node>
	<node lat="60.3779777799343" lon="6.142980549175508" id="-70932">
		<tag k="name" v="Solberg" />
		<tag k="place" v="farm" />
		<tag k="ssr:stedsnr" v="187639" />
	</node>
	<node lat="60.4011527746504" lon="6.111163881434804" id="-70935">
		<tag k="historic" v="shieling" />
		<tag k="name" v="Krok" />
		<tag k="place" v="isolated_dwelling" />
		<tag k="ssr:stedsnr" v="187690" />
	</node>
	<node lat="60.25513611070191" lon="6.0120833340030035" id="-70940">
		<tag k="name" v="Nymark" />
		<tag k="place" v="farm" />
		<tag k="ssr:stedsnr" v="187784" />
	</node>
	<node lat="60.26982500192537" lon="6.040625003384434" id="-70941">
		<tag k="alt_name" v="Fosse, l;Lillefosse" />
		<tag k="fixme" v="consider place=hamlet" />
		<tag k="name" v="Litle Fosse" />
		<tag k="place" v="farm" />
		<tag k="ssr:stedsnr" v="187792" />
	</node>
	<node lat="60.41875142297223" lon="6.373910515378839" id="-70949">
		<tag k="name" v="Krokatveit" />
		<tag k="place" v="farm" />
		<tag k="ssr:stedsnr" v="188179" />
	</node>
	<node lat="60.32128333211806" lon="5.968611108963273" id="-70950">
		<tag k="historic" v="shieling" />
		<tag k="name" v="Gamlestølane" />
		<tag k="place" v="isolated_dwelling" />
		<tag k="ssr:stedsnr" v="188570" />
	</node>
	<node lat="60.28034721977601" lon="5.985080555702975" id="-70976">
		<tag k="name" v="Kytingen" />
		<tag k="place" v="farm" />
		<tag k="ssr:stedsnr" v="226707" />
	</node>
	<node lat="60.4121333291877" lon="5.989302770870163" id="-70977">
		<tag k="historic" v="shieling" />
		<tag k="name" v="Fannastølen" />
		<tag k="place" v="isolated_dwelling" />
		<tag k="ssr:stedsnr" v="226884" />
	</node>
	<node lat="60.4658638873172" lon="6.125688892265291" id="-70981">
		<tag k="fixme" v="consider tourism=alpine_hut or tourism=chalet" />
		<tag k="name" v="Breidablik" />
		<tag k="ssr:stedsnr" v="239797" />
		<tag k="tourism" v="wilderness_hut" />
	</node>
	<node lat="60.45302222373263" lon="6.013669440138258" id="-70993">
		<tag k="historic" v="shieling" />
		<tag k="name" v="Frostadstølen" />
		<tag k="place" v="isolated_dwelling" />
		<tag k="ssr:stedsnr" v="248363" />
	</node>
	<node lat="60.33228888463228" lon="6.044591669074872" id="-71004">
		<tag k="name" v="Stakkshogget" />
		<tag k="place" v="locality" />
		<tag k="ssr:stedsnr" v="248564" />
	</node>
	<node lat="60.38694498648498" lon="6.147421770273031" id="-71008">
		<tag k="fixme" v="consider place=hamlet" />
		<tag k="name" v="Åsheim" />
		<tag k="place" v="farm" />
		<tag k="ssr:stedsnr" v="248715" />
	</node>
	<node lat="60.26728333461397" lon="6.122350007655703" id="-71011">
		<tag k="historic" v="shieling" />
		<tag k="name" v="Øyjorda" />
		<tag k="place" v="isolated_dwelling" />
		<tag k="ssr:stedsnr" v="248811" />
	</node>
	<node lat="60.32114044858241" lon="6.14975290576412" id="-71014">
		<tag k="name" v="Heradstveit" />
		<tag k="place" v="hamlet" />
		<tag k="ssr:stedsnr" v="248997" />
	</node>
	<node lat="60.390502774101954" lon="6.269036115189217" id="-71027">
		<tag k="name" v="Stokkaland" />
		<tag k="place" v="farm" />
		<tag k="ssr:stedsnr" v="286032" />
	</node>
	<node lat="60.381558329590845" lon="6.165888895654797" id="-71034">
		<tag k="name" v="Dalane" />
		<tag k="place" v="farm" />
		<tag k="ssr:stedsnr" v="287235" />
	</node>
	<node lat="60.36638610975748" lon="6.076077768945294" id="-71061">
		<tag k="name" v="Øyjorda" />
		<tag k="place" v="farm" />
		<tag k="ssr:stedsnr" v="287801" />
	</node>
	<node lat="60.37890555448366" lon="5.980658332904041" id="-71065">
		<tag k="name" v="Furedalen" />
		<tag k="place" v="neighbourhood" />
		<tag k="ssr:stedsnr" v="464238" />
	</node>
	<node lat="60.39566944530381" lon="5.921536109554887" id="-71074">
		<tag k="name" v="Teigen" />
		<tag k="place" v="farm" />
		<tag k="ssr:stedsnr" v="308706" />
	</node>
	<node lat="60.413424997143046" lon="6.3594249948106585" id="-71078">
		<tag k="name" v="Salbustad" />
		<tag k="place" v="farm" />
		<tag k="ssr:stedsnr" v="309142" />
	</node>
	<node lat="60.42203888990235" lon="6.241508341458849" id="-71082">
		<tag k="fixme" v="consider place=hamlet" />
		<tag k="name" v="Klyve" />
		<tag k="place" v="farm" />
		<tag k="ssr:stedsnr" v="309191" />
	</node>
	<node lat="60.326450000623616" lon="6.086988880696776" id="-71083">
		<tag k="historic" v="shieling" />
		<tag k="name" v="Nystøl" />
		<tag k="place" v="isolated_dwelling" />
		<tag k="ssr:stedsnr" v="309538" />
	</node>
	<node lat="60.358994445267264" lon="6.0613611161941146" id="-71084">
		<tag k="name" v="Netelandshagen" />
		<tag k="place" v="farm" />
		<tag k="ssr:stedsnr" v="309635" />
	</node>
	<node lat="60.3498265918374" lon="6.172579051947063" id="-71095">
		<tag k="alt_name" v="Vikøy prestegard" />
		<tag k="fixme" v="consider place=hamlet" />
		<tag k="name" v="Vikøy" />
		<tag k="place" v="farm" />
		<tag k="ssr:stedsnr" v="468033" />
	</node>
	<node lat="60.47519722503748" lon="6.210225007626144" id="-71097">
		<tag k="name" v="Haugen" />
		<tag k="place" v="farm" />
		<tag k="ssr:stedsnr" v="468005" />
	</node>
	<node lat="60.42178888806822" lon="6.267616674565968" id="-71110">
		<tag k="name" v="Rymbedal" />
		<tag k="place" v="farm" />
		<tag k="ssr:stedsnr" v="469428" />
	</node>
	<node lat="60.275011109575324" lon="6.128811113523928" id="-71119">
		<tag k="name" v="Hellestveit" />
		<tag k="place" v="farm" />
		<tag k="ssr:stedsnr" v="469559" />
	</node>
	<node lat="60.28916666748442" lon="6.172188891877341" id="-71123">
		<tag k="name" v="Kjelby" />
		<tag k="place" v="farm" />
		<tag k="ssr:stedsnr" v="469646" />
	</node>
	<node lat="60.353427775739206" lon="6.087691675659655" id="-71125">
		<tag k="historic" v="shieling" />
		<tag k="name" v="Tveitestølen" />
		<tag k="place" v="isolated_dwelling" />
		<tag k="ssr:stedsnr" v="469778" />
	</node>
	<node lat="60.387869444490256" lon="6.165347223480989" id="-71152">
		<tag k="name" v="Tveiti" />
		<tag k="place" v="farm" />
		<tag k="ssr:stedsnr" v="347207" />
	</node>
	<node lat="60.41510486682356" lon="6.2356531952908965" id="-71158">
		<tag k="name" v="Porsmyr" />
		<tag k="place" v="farm" />
		<tag k="ssr:stedsnr" v="347404" />
	</node>
	<node lat="60.41552859436254" lon="6.373411586720903" id="-71170">
		<tag k="name" v="Leitet" />
		<tag k="place" v="farm" />
		<tag k="ssr:stedsnr" v="347571" />
	</node>
	<node lat="60.294750001502436" lon="6.171791662863424" id="-71179">
		<tag k="name" v="Solheim" />
		<tag k="place" v="farm" />
		<tag k="ssr:stedsnr" v="347927" />
	</node>
	<node lat="60.47416666733683" lon="6.075408333318483" id="-71180">
		<tag k="fixme" v="consider tourism=alpine_hut or tourism=chalet" />
		<tag k="name" v="Vending turisthytte" />
		<tag k="ssr:stedsnr" v="354809" />
		<tag k="tourism" v="wilderness_hut" />
	</node>
	<node lat="60.41153207074184" lon="6.338406400971695" id="-71181">
		<tag k="historic" v="shieling" />
		<tag k="name" v="Bjørndal" />
		<tag k="place" v="isolated_dwelling" />
		<tag k="ssr:stedsnr" v="369119" />
	</node>
	<node lat="60.39818333688687" lon="6.284252772712432" id="-71183">
		<tag k="fixme" v="consider place=hamlet" />
		<tag k="name" v="Bjørke" />
		<tag k="place" v="farm" />
		<tag k="ssr:stedsnr" v="369174" />
	</node>
	<node lat="60.42826666530079" lon="6.161194444747086" id="-71187">
		<tag k="historic" v="shieling" />
		<tag k="name" v="Fitjadalen" />
		<tag k="place" v="isolated_dwelling" />
		<tag k="ssr:stedsnr" v="369403" />
	</node>
	<node lat="60.357158329225264" lon="6.164769443029901" id="-71193">
		<tag k="name" v="Lii" />
		<tag k="place" v="farm" />
		<tag k="ssr:stedsnr" v="369522" />
	</node>
	<node lat="60.407549997112746" lon="6.215783332719607" id="-71199">
		<tag k="name" v="Årbø" />
		<tag k="place" v="farm" />
		<tag k="ssr:stedsnr" v="369713" />
	</node>
	<node lat="60.237729350807605" lon="5.992379074563868" id="-71200">
		<tag k="fixme" v="consider place=hamlet" />
		<tag k="name" v="Lambadalen" />
		<tag k="place" v="farm" />
		<tag k="ssr:stedsnr" v="369714" />
	</node>
	<node lat="60.38611353441013" lon="6.219870098255147" id="-71206">
		<tag k="fixme" v="consider place=hamlet" />
		<tag k="name" v="Torpe" />
		<tag k="place" v="farm" />
		<tag k="ssr:stedsnr" v="369617" />
	</node>
	<node lat="60.27674166476095" lon="6.168211106513442" id="-71207">
		<tag k="fixme" v="consider place=hamlet" />
		<tag k="name" v="Eide" />
		<tag k="place" v="farm" />
		<tag k="ssr:stedsnr" v="369810" />
	</node>
	<node lat="60.262536114871885" lon="6.013147216755593" id="-71209">
		<tag k="name" v="Ploganes" />
		<tag k="place" v="farm" />
		<tag k="ssr:stedsnr" v="369767" />
	</node>
	<node lat="60.26150508305893" lon="6.065973223055126" id="-71210">
		<tag k="alt_name" v="Linga, l;Vetle Linga;Litle-Linga" />
		<tag k="fixme" v="consider place=hamlet" />
		<tag k="name" v="Litle Linga" />
		<tag k="place" v="farm" />
		<tag k="ssr:stedsnr" v="369768" />
	</node>
	<node lat="60.31621111428912" lon="6.14437777063103" id="-71216">
		<tag k="historic" v="shieling" />
		<tag k="name" v="Revshaug" />
		<tag k="place" v="isolated_dwelling" />
		<tag k="ssr:stedsnr" v="369999" />
	</node>
	<node lat="60.391413887573435" lon="5.96608055211249" id="-71222">
		<tag k="name" v="Dalen" />
		<tag k="place" v="neighbourhood" />
		<tag k="ssr:stedsnr" v="403137" />
	</node>
	<node lat="60.41391389303371" lon="6.249830562102493" id="-71229">
		<tag k="name" v="Grytenes" />
		<tag k="place" v="farm" />
		<tag k="ssr:stedsnr" v="408019" />
	</node>
	<node lat="60.3344434905749" lon="6.209159304165775" id="-71236">
		<tag k="name" v="Aksnes" />
		<tag k="place" v="hamlet" />
		<tag k="ssr:stedsnr" v="408414" />
	</node>
	<node lat="60.320117780074476" lon="6.148136431182814" id="-71246">
		<tag k="name" v="Utitun" />
		<tag k="place" v="locality" />
		<tag k="ssr:stedsnr" v="408591" />
	</node>
	<node lat="60.365547225899086" lon="6.070766658665805" id="-71248">
		<tag k="name" v="Nygård" />
		<tag k="place" v="farm" />
		<tag k="ssr:stedsnr" v="408797" />
	</node>
	<node lat="60.39289269470965" lon="6.2851979153289195" id="-71252">
		<tag k="fixme" v="consider place=hamlet" />
		<tag k="name" v="Steinstø" />
		<tag k="place" v="farm" />
		<tag k="ssr:stedsnr" v="490173" />
	</node>
	<node lat="60.41328611027926" lon="5.9475250039602665" id="-71262">
		<tag k="historic" v="shieling" />
		<tag k="name" v="Herand" />
		<tag k="place" v="isolated_dwelling" />
		<tag k="ssr:stedsnr" v="490476" />
	</node>
	<node lat="60.376977781795105" lon="6.130800004397079" id="-71265">
		<tag k="fixme" v="consider place=hamlet" />
		<tag k="name" v="Skutlaberg" />
		<tag k="place" v="farm" />
		<tag k="ssr:stedsnr" v="490678" />
	</node>
	<node lat="60.38540000078945" lon="6.183950008173557" id="-71276">
		<tag k="fixme" v="consider place=hamlet" />
		<tag k="name" v="Mo" />
		<tag k="place" v="farm" />
		<tag k="ssr:stedsnr" v="490674" />
	</node>
	<node lat="60.385995076611344" lon="6.19256101668475" id="-71277">
		<tag k="name" v="Vik" />
		<tag k="place" v="hamlet" />
		<tag k="ssr:stedsnr" v="490676" />
	</node>
	<node lat="60.41275000187784" lon="6.214391673849284" id="-71279">
		<tag k="fixme" v="consider place=hamlet" />
		<tag k="name" v="Hovland" />
		<tag k="place" v="farm" />
		<tag k="ssr:stedsnr" v="490753" />
	</node>
	<node lat="60.245872219240795" lon="6.00380000347073" id="-71281">
		<tag k="alt_name" v="Børsheim, yt" />
		<tag k="fixme" v="consider place=hamlet" />
		<tag k="name" v="Ytre Børsheim" />
		<tag k="place" v="farm" />
		<tag k="ssr:stedsnr" v="490757" />
	</node>
	<node lat="60.389058332223705" lon="6.1465666624333" id="-71283">
		<tag k="fixme" v="consider place=hamlet" />
		<tag k="name" v="Djønne" />
		<tag k="place" v="farm" />
		<tag k="ssr:stedsnr" v="490700" />
	</node>
	<node lat="60.15801944410378" lon="5.923724994443936" id="-71285">
		<tag k="name" v="Sydnes" />
		<tag k="place" v="farm" />
		<tag k="ssr:stedsnr" v="429577" />
	</node>
	<node lat="60.293574998183196" lon="6.025025006803546" id="-71286">
		<tag k="alt_name" v="Tuften" />
		<tag k="fixme" v="consider place=hamlet" />
		<tag k="name" v="Tufto" />
		<tag k="place" v="farm" />
		<tag k="ssr:stedsnr" v="490887" />
	</node>
	<node lat="60.274441670372155" lon="6.006102774172775" id="-71287">
		<tag k="alt_name" v="Håbrekka" />
		<tag k="fixme" v="consider place=hamlet" />
		<tag k="name" v="Håbrekke" />
		<tag k="place" v="farm" />
		<tag k="ssr:stedsnr" v="490889" />
	</node>
	<node lat="60.463741666771014" lon="6.328811112673779" id="-71288">
		<tag k="historic" v="shieling" />
		<tag k="name" v="Muren" />
		<tag k="place" v="isolated_dwelling" />
		<tag k="ssr:stedsnr" v="430204" />
	</node>
	<node lat="60.46491940942876" lon="6.229904973621448" id="-71290">
		<tag k="alt_name" v="Skår" />
		<tag k="fixme" v="consider place=hamlet" />
		<tag k="name" v="Skoro" />
		<tag k="place" v="farm" />
		<tag k="ssr:stedsnr" v="430211" />
	</node>
	<node lat="60.38260833260819" lon="6.267391671082587" id="-71293">
		<tag k="fixme" v="consider place=hamlet" />
		<tag k="name" v="Rykkje" />
		<tag k="place" v="farm" />
		<tag k="ssr:stedsnr" v="430162" />
	</node>
	<node lat="60.4768694466311" lon="6.0587999968318895" id="-71297">
		<tag k="alt_name" v="Søyene" />
		<tag k="historic" v="shieling" />
		<tag k="name" v="Søyasete" />
		<tag k="place" v="isolated_dwelling" />
		<tag k="ssr:stedsnr" v="430360" />
	</node>
	<node lat="60.31395833760434" lon="6.125702776737721" id="-71300">
		<tag k="historic" v="shieling" />
		<tag k="name" v="Sjusete" />
		<tag k="place" v="isolated_dwelling" />
		<tag k="ssr:stedsnr" v="490997" />
	</node>
	<node lat="60.41382777975587" lon="6.160780555892663" id="-71306">
		<tag k="historic" v="shieling" />
		<tag k="name" v="Lauvvikane" />
		<tag k="place" v="isolated_dwelling" />
		<tag k="ssr:stedsnr" v="430467" />
	</node>
	<node lat="60.349605554341665" lon="5.974986116717251" id="-71310">
		<tag k="historic" v="shieling" />
		<tag k="name" v="Mødal" />
		<tag k="place" v="isolated_dwelling" />
		<tag k="ssr:stedsnr" v="430603" />
	</node>
	<node lat="60.43365277625075" lon="6.446302784431936" id="-71313">
		<tag k="name" v="Auganes" />
		<tag k="old_name" v="Huganes" />
		<tag k="place" v="farm" />
		<tag k="ssr:stedsnr" v="491221" />
	</node>
	<node lat="60.34866111536002" lon="6.191074998822606" id="-71317">
		<tag k="name" v="Nesheim" />
		<tag k="place" v="farm" />
		<tag k="ssr:stedsnr" v="430557" />
	</node>
	<node lat="60.2287583373532" lon="5.996869438972252" id="-71321">
		<tag k="alt_name" v="Breidemne" />
		<tag k="fixme" v="consider place=hamlet" />
		<tag k="name" v="Breievne" />
		<tag k="place" v="farm" />
		<tag k="ssr:stedsnr" v="430713" />
	</node>
	<node lat="60.2529803214538" lon="6.121521467716554" id="-71323">
		<tag k="fixme" v="consider place=hamlet" />
		<tag k="name" v="Hjartnes" />
		<tag k="place" v="farm" />
		<tag k="ssr:stedsnr" v="430744" />
	</node>
	<node lat="60.38667500110932" lon="6.200744450515613" id="-71325">
		<tag k="name" v="Øystese" />
		<tag k="place" v="village" />
		<tag k="ssr:stedsnr" v="430660" />
	</node>
	<node lat="60.2499944486321" lon="5.999063884447591" id="-71339">
		<tag k="name" v="Træet" />
		<tag k="place" v="farm" />
		<tag k="ssr:stedsnr" v="430798" />
	</node>
	<node lat="60.42213055342269" lon="6.316327778031796" id="-71344">
		<tag k="alt_name" v="Stavdalstølen" />
		<tag k="historic" v="shieling" />
		<tag k="name" v="Stavdal" />
		<tag k="place" v="isolated_dwelling" />
		<tag k="ssr:stedsnr" v="491153" />
	</node>
	<node lat="60.25004722051903" lon="6.000416664453035" id="-71357">
		<tag k="name" v="Øvrebøen" />
		<tag k="place" v="farm" />
		<tag k="ssr:stedsnr" v="491797" />
	</node>
	<node lat="60.25523087342535" lon="6.110993327809959" id="-71358">
		<tag k="alt_name" v="Røyrvika" />
		<tag k="fixme" v="consider place=hamlet" />
		<tag k="name" v="Røyrvik" />
		<tag k="place" v="farm" />
		<tag k="ssr:stedsnr" v="491740" />
	</node>
	<node lat="60.27437499549689" lon="6.127786104389998" id="-71364">
		<tag k="name" v="Hellestveit" />
		<tag k="place" v="locality" />
		<tag k="ssr:stedsnr" v="491817" />
	</node>
	<node lat="60.309941663605315" lon="6.135963886855522" id="-71367">
		<tag k="historic" v="shieling" />
		<tag k="name" v="Perslesælet" />
		<tag k="place" v="isolated_dwelling" />
		<tag k="ssr:stedsnr" v="491944" />
	</node>
	<node lat="60.29354166534584" lon="6.008355552459231" id="-71369">
		<tag k="historic" v="shieling" />
		<tag k="name" v="Botnen" />
		<tag k="place" v="isolated_dwelling" />
		<tag k="ssr:stedsnr" v="491959" />
	</node>
	<node lat="60.2053677218428" lon="5.96589994156828" id="-71372">
		<tag k="name" v="Fredheim" />
		<tag k="place" v="farm" />
		<tag k="ssr:stedsnr" v="449104" />
	</node>
	<node lat="60.43622777616782" lon="6.135791662922032" id="-71379">
		<tag k="alt_name" v="Flatebotnane" />
		<tag k="historic" v="shieling" />
		<tag k="name" v="Botnane" />
		<tag k="place" v="isolated_dwelling" />
		<tag k="ssr:stedsnr" v="672433" />
	</node>
	<node lat="60.382019441718214" lon="6.188561105740007" id="-71391">
		<tag k="name" v="Hovdane" />
		<tag k="place" v="farm" />
		<tag k="ssr:stedsnr" v="672648" />
	</node>
	<node lat="60.319924996817065" lon="6.157838888925343" id="-71404">
		<tag k="name" v="Nyland" />
		<tag k="place" v="farm" />
		<tag k="ssr:stedsnr" v="672999" />
	</node>
	<node lat="60.47707500404217" lon="6.287836105574129" id="-71422">
		<tag k="historic" v="shieling" />
		<tag k="name" v="Goddalstølen" />
		<tag k="place" v="isolated_dwelling" />
		<tag k="ssr:stedsnr" v="673763" />
	</node>
	<node lat="60.25923918887682" lon="6.076894441768192" id="-71425">
		<tag k="alt_name" v="Linga, store;Linga;Store-Linga" />
		<tag k="fixme" v="consider place=hamlet" />
		<tag k="name" v="Store Linga" />
		<tag k="place" v="farm" />
		<tag k="ssr:stedsnr" v="673788" />
	</node>
	<node lat="60.27351388638421" lon="6.008669439669184" id="-71426">
		<tag k="name" v="Kjoberg" />
		<tag k="place" v="farm" />
		<tag k="ssr:stedsnr" v="673879" />
	</node>
	<node lat="60.230419440079636" lon="5.95313889254607" id="-71430">
		<tag k="historic" v="shieling" />
		<tag k="name" v="Stuastølen" />
		<tag k="place" v="isolated_dwelling" />
		<tag k="ssr:stedsnr" v="467375" />
	</node>
	<node lat="60.27264166497613" lon="6.007294436031198" id="-71432">
		<tag k="fixme" v="consider place=hamlet" />
		<tag k="name" v="Prestegarden" />
		<tag k="place" v="farm" />
		<tag k="ssr:stedsnr" v="467664" />
	</node>
	<node lat="60.4322833336894" lon="6.437850001061364" id="-71449">
		<tag k="name" v="Skjeret" />
		<tag k="place" v="farm" />
		<tag k="ssr:stedsnr" v="469491" />
	</node>
	<node lat="60.30786111036487" lon="6.062658326958488" id="-71478">
		<tag k="alt_name" v="Fagerseter" />
		<tag k="historic" v="shieling" />
		<tag k="name" v="Fagersete" />
		<tag k="place" v="isolated_dwelling" />
		<tag k="ssr:stedsnr" v="490937" />
	</node>
	<node lat="60.359455557985925" lon="6.069333331269756" id="-71481">
		<tag k="alt_name" v="Byrkjeland, øvre;Byrkjeland" />
		<tag k="fixme" v="consider place=hamlet" />
		<tag k="name" v="Øvre Byrkjeland" />
		<tag k="place" v="farm" />
		<tag k="ssr:stedsnr" v="491623" />
	</node>
	<node lat="60.27123665302084" lon="6.019368166457736" id="-71485">
		<tag k="fixme" v="consider place=hamlet" />
		<tag k="name" v="Berge" />
		<tag k="place" v="farm" />
		<tag k="ssr:stedsnr" v="491873" />
	</node>
	<node lat="60.393027775723134" lon="5.969452776449237" id="-71493">
		<tag k="name" v="Skeisskarane" />
		<tag k="place" v="neighbourhood" />
		<tag k="ssr:stedsnr" v="525165" />
	</node>
	<node lat="60.37272777345934" lon="6.023508337987689" id="-71494">
		<tag k="name" v="Fureberghovden" />
		<tag k="place" v="neighbourhood" />
		<tag k="ssr:stedsnr" v="525169" />
	</node>
	<node lat="60.27617500441665" lon="6.069386119497123" id="-71512">
		<tag k="historic" v="shieling" />
		<tag k="name" v="Torstølen" />
		<tag k="place" v="isolated_dwelling" />
		<tag k="ssr:stedsnr" v="529507" />
	</node>
	<node lat="60.453119446227724" lon="6.012041673442025" id="-71519">
		<tag k="historic" v="shieling" />
		<tag k="name" v="Frostadstølen" />
		<tag k="place" v="isolated_dwelling" />
		<tag k="ssr:stedsnr" v="529847" />
	</node>
	<node lat="60.39394166677797" lon="5.957341675128843" id="-71520">
		<tag k="name" v="Kleven" />
		<tag k="place" v="farm" />
		<tag k="ssr:stedsnr" v="529880" />
	</node>
	<node lat="60.487324998652056" lon="6.214513886439214" id="-71533">
		<tag k="name" v="Morki" />
		<tag k="place" v="farm" />
		<tag k="ssr:stedsnr" v="551349" />
	</node>
	<node lat="60.186200331578206" lon="5.893515407889081" id="-71536">
		<tag k="fixme" v="consider place=hamlet" />
		<tag k="name" v="Leirstein" />
		<tag k="place" v="farm" />
		<tag k="ssr:stedsnr" v="551541" />
	</node>
	<node lat="60.34570555210581" lon="6.19156112046283" id="-71537">
		<tag k="name" v="Sørheim" />
		<tag k="place" v="farm" />
		<tag k="ssr:stedsnr" v="551545" />
	</node>
	<node lat="60.432744441090115" lon="6.43163611547902" id="-71539">
		<tag k="alt_name" v="Ålvik, in;Indre Ålvik" />
		<tag k="name" v="Ålvik" />
		<tag k="place" v="village" />
		<tag k="ssr:stedsnr" v="551244" />
	</node>
	<node lat="60.363169445470994" lon="6.095230555064157" id="-71541">
		<tag k="name" v="Trones" />
		<tag k="place" v="farm" />
		<tag k="ssr:stedsnr" v="551607" />
	</node>
	<node lat="60.41163611061799" lon="6.204133330414646" id="-71546">
		<tag k="name" v="Aldalen" />
		<tag k="place" v="farm" />
		<tag k="ssr:stedsnr" v="551745" />
	</node>
	<node lat="60.30364989614762" lon="6.139633173075125" id="-71550">
		<tag k="fixme" v="consider place=hamlet" />
		<tag k="name" v="Tveiten" />
		<tag k="place" v="farm" />
		<tag k="ssr:stedsnr" v="551916" />
	</node>
	<node lat="60.2945638903224" lon="6.01910554875695" id="-71551">
		<tag k="alt_name" v="Haukås, nedre" />
		<tag k="fixme" v="consider place=hamlet" />
		<tag k="name" v="Nedre Haukås" />
		<tag k="place" v="farm" />
		<tag k="ssr:stedsnr" v="551922" />
	</node>
	<node lat="60.36836100875754" lon="6.145390581029656" id="-71552">
		<tag k="alt_name" v="Sandvin" />
		<tag k="fixme" v="consider place=hamlet" />
		<tag k="name" v="Sandven" />
		<tag k="place" v="farm" />
		<tag k="ssr:stedsnr" v="551645" />
	</node>
	<node lat="60.27408055697692" lon="6.026433336170666" id="-71554">
		<tag k="name" v="Holen" />
		<tag k="place" v="farm" />
		<tag k="ssr:stedsnr" v="551833" />
	</node>
	<node lat="60.231072221032875" lon="5.956863890153032" id="-71570">
		<tag k="historic" v="shieling" />
		<tag k="name" v="Gamlestølen" />
		<tag k="place" v="isolated_dwelling" />
		<tag k="ssr:stedsnr" v="589359" />
	</node>
	<node lat="60.28034444716964" lon="6.0219361082034215" id="-71573">
		<tag k="name" v="Nytveit" />
		<tag k="place" v="farm" />
		<tag k="ssr:stedsnr" v="589620" />
	</node>
	<node lat="60.270486819006216" lon="6.010259572027153" id="-71591">
		<tag k="alt_name" v="Bru øvre" />
		<tag k="fixme" v="consider place=hamlet" />
		<tag k="name" v="Øvre Bru" />
		<tag k="place" v="farm" />
		<tag k="ssr:stedsnr" v="590661" />
	</node>
	<node lat="60.35784166720134" lon="6.134099997691017" id="-71607">
		<tag k="historic" v="shieling" />
		<tag k="name" v="Nystølen" />
		<tag k="place" v="isolated_dwelling" />
		<tag k="ssr:stedsnr" v="611613" />
	</node>
	<node lat="60.226700002954885" lon="5.945719442162314" id="-71610">
		<tag k="name" v="Raudkleiv" />
		<tag k="place" v="isolated_dwelling" />
		<tag k="ssr:stedsnr" v="611744" />
	</node>
	<node lat="60.362905555758175" lon="6.081538885446438" id="-71614">
		<tag k="fixme" v="consider place=hamlet" />
		<tag k="name" v="Steine" />
		<tag k="place" v="farm" />
		<tag k="ssr:stedsnr" v="612625" />
	</node>
	<node lat="60.37714335335429" lon="6.090865988332054" id="-71616">
		<tag k="alt_name" v="Åsæte" />
		<tag k="historic" v="shieling" />
		<tag k="name" v="Åsete" />
		<tag k="place" v="isolated_dwelling" />
		<tag k="ssr:stedsnr" v="612678" />
	</node>
	<node lat="60.27479891308811" lon="6.1517162638601315" id="-71620">
		<tag k="alt_name" v="Kvitasteinen" />
		<tag k="fixme" v="consider place=hamlet" />
		<tag k="name" v="Kvitastein" />
		<tag k="place" v="farm" />
		<tag k="ssr:stedsnr" v="612822" />
	</node>
	<node lat="60.36210833634741" lon="6.073902777460165" id="-71625">
		<tag k="name" v="Bøen" />
		<tag k="place" v="farm" />
		<tag k="ssr:stedsnr" v="613603" />
	</node>
	<node lat="60.38821666825392" lon="5.9626388864344575" id="-71628">
		<tag k="name" v="Jonshøgdi" />
		<tag k="place" v="neighbourhood" />
		<tag k="ssr:stedsnr" v="707239" />
	</node>
	<node lat="60.40008544153769" lon="6.257920460818915" id="-71643">
		<tag k="alt_name" v="Nygård" />
		<tag k="fixme" v="consider place=hamlet" />
		<tag k="name" v="Nygard" />
		<tag k="place" v="farm" />
		<tag k="ssr:stedsnr" v="651104" />
	</node>
	<node lat="60.40618333500315" lon="6.2686666708817524" id="-71645">
		<tag k="name" v="Nipen" />
		<tag k="place" v="farm" />
		<tag k="ssr:stedsnr" v="651107" />
	</node>
	<node lat="60.39378333378995" lon="6.188169445995122" id="-71646">
		<tag k="name" v="Løyning" />
		<tag k="place" v="farm" />
		<tag k="ssr:stedsnr" v="651093" />
	</node>
	<node lat="60.41904444510374" lon="6.370324993516179" id="-71648">
		<tag k="name" v="Kolhaug" />
		<tag k="place" v="farm" />
		<tag k="ssr:stedsnr" v="651435" />
	</node>
	<node lat="60.40470555097593" lon="6.3479999913156995" id="-71650">
		<tag k="name" v="Skeiane" />
		<tag k="place" v="farm" />
		<tag k="ssr:stedsnr" v="651445" />
	</node>
	<node lat="60.420277779698296" lon="6.2955361175909195" id="-71659">
		<tag k="alt_name" v="Syrdalstølen" />
		<tag k="historic" v="shieling" />
		<tag k="name" v="Syrdal" />
		<tag k="place" v="isolated_dwelling" />
		<tag k="ssr:stedsnr" v="651885" />
	</node>
	<node lat="60.30310278204748" lon="6.129597228943872" id="-71664">
		<tag k="historic" v="shieling" />
		<tag k="name" v="Nystølen" />
		<tag k="place" v="isolated_dwelling" />
		<tag k="ssr:stedsnr" v="651942" />
	</node>
	<node lat="60.39388610823559" lon="6.266300005391618" id="-71670">
		<tag k="name" v="Saltkjelen" />
		<tag k="place" v="farm" />
		<tag k="ssr:stedsnr" v="672165" />
	</node>
	<node lat="60.36237500026895" lon="6.089299994764772" id="-71686">
		<tag k="name" v="Grøntveit" />
		<tag k="place" v="farm" />
		<tag k="ssr:stedsnr" v="673635" />
	</node>
	<node lat="60.271977778350696" lon="6.09250556157635" id="-71695">
		<tag k="historic" v="shieling" />
		<tag k="name" v="Olshiller" />
		<tag k="place" v="isolated_dwelling" />
		<tag k="ssr:stedsnr" v="673820" />
	</node>
	<node lat="60.37160833418015" lon="6.196902785702436" id="-71698">
		<tag k="fixme" v="consider place=hamlet" />
		<tag k="name" v="Børve" />
		<tag k="place" v="farm" />
		<tag k="ssr:stedsnr" v="674616" />
	</node>
	<node lat="60.369199996910154" lon="6.18034722918867" id="-71699">
		<tag k="name" v="Heimstad" />
		<tag k="place" v="farm" />
		<tag k="ssr:stedsnr" v="893934" />
	</node>
	<node lat="60.23161944852736" lon="6.0017777698017385" id="-71704">
		<tag k="historic" v="shieling" />
		<tag k="name" v="Skjeringastølen" />
		<tag k="place" v="isolated_dwelling" />
		<tag k="ssr:stedsnr" v="893653" />
	</node>
	<node lat="60.38550000358084" lon="6.19203333753587" id="-71709">
		<tag k="alt_name" v="Vik Øvre" />
		<tag k="fixme" v="consider place=hamlet" />
		<tag k="name" v="Øvre Vik" />
		<tag k="place" v="farm" />
		<tag k="ssr:stedsnr" v="894114" />
	</node>
	<node lat="60.51358333550923" lon="6.093077783923052" id="-71726">
		<tag k="name" v="Klubben" />
		<tag k="place" v="farm" />
		<tag k="ssr:stedsnr" v="894276" />
	</node>
	<node lat="60.31199444089472" lon="6.0411194496386145" id="-71736">
		<tag k="historic" v="shieling" />
		<tag k="name" v="Nysete" />
		<tag k="place" v="isolated_dwelling" />
		<tag k="ssr:stedsnr" v="894734" />
	</node>
	<node lat="60.27780832972187" lon="5.998780558149827" id="-71764">
		<tag k="name" v="Slottet" />
		<tag k="place" v="farm" />
		<tag k="ssr:stedsnr" v="711628" />
	</node>
	<node lat="60.41387777725503" lon="6.36984167292017" id="-71773">
		<tag k="name" v="Ytre Ålvik" />
		<tag k="place" v="farm" />
		<tag k="ssr:stedsnr" v="712403" />
	</node>
	<node lat="60.476675893686505" lon="6.202573734674535" id="-71776">
		<tag k="name" v="Røyneflåten" />
		<tag k="place" v="farm" />
		<tag k="ssr:stedsnr" v="712377" />
	</node>
	<node lat="60.28798055148348" lon="6.060836111167254" id="-71780">
		<tag k="name" v="Øyane" />
		<tag k="place" v="farm" />
		<tag k="ssr:stedsnr" v="712573" />
	</node>
	<node lat="60.35002777640549" lon="6.183288883394366" id="-71811">
		<tag k="amenity" v="school" />
		<tag k="name" v="Framnes kristne vidaregåande skule" />
		<tag k="ssr:stedsnr" v="733546" />
	</node>
	<node lat="60.27869999837954" lon="6.108625006650984" id="-71817">
		<tag k="historic" v="shieling" />
		<tag k="name" v="Gjuva" />
		<tag k="place" v="isolated_dwelling" />
		<tag k="ssr:stedsnr" v="733852" />
	</node>
	<node lat="60.41006944068038" lon="6.23876389529918" id="-71824">
		<tag k="fixme" v="consider place=hamlet" />
		<tag k="name" v="Froastad" />
		<tag k="place" v="farm" />
		<tag k="ssr:stedsnr" v="734147" />
	</node>
	<node lat="60.255341668104386" lon="6.012483326316283" id="-71828">
		<tag k="name" v="Kjelsvik" />
		<tag k="place" v="farm" />
		<tag k="ssr:stedsnr" v="752062" />
	</node>
	<node lat="60.39196388894499" lon="6.2031388800683676" id="-71832">
		<tag k="name" v="Skårdalen" />
		<tag k="place" v="quarter" />
		<tag k="ssr:stedsnr" v="767194" />
	</node>
	<node lat="60.419283329149124" lon="6.244852781164914" id="-71836">
		<tag k="name" v="Sundheim" />
		<tag k="place" v="farm" />
		<tag k="ssr:stedsnr" v="772022" />
	</node>
	<node lat="60.40737778169083" lon="6.215511117921117" id="-71837">
		<tag k="name" v="Årbø" />
		<tag k="place" v="farm" />
		<tag k="ssr:stedsnr" v="772062" />
	</node>
	<node lat="60.214180554902505" lon="5.939327776357662" id="-71846">
		<tag k="historic" v="shieling" />
		<tag k="name" v="Vikestølen" />
		<tag k="place" v="isolated_dwelling" />
		<tag k="ssr:stedsnr" v="772671" />
	</node>
	<node lat="60.325583336055935" lon="6.199547227431278" id="-71848">
		<tag k="name" v="Vangsvik" />
		<tag k="place" v="isolated_dwelling" />
		<tag k="ssr:stedsnr" v="772859" />
	</node>
	<node lat="60.34550833203831" lon="6.018477775282894" id="-71851">
		<tag k="historic" v="shieling" />
		<tag k="name" v="Nystøl" />
		<tag k="place" v="isolated_dwelling" />
		<tag k="ssr:stedsnr" v="772556" />
	</node>
	<node lat="60.447300000495716" lon="6.45805000005097" id="-71860">
		<tag k="historic" v="shieling" />
		<tag k="name" v="Båsgjelstølen" />
		<tag k="place" v="isolated_dwelling" />
		<tag k="ssr:stedsnr" v="794221" />
	</node>
	<node lat="60.415394444220745" lon="6.355541665107803" id="-71862">
		<tag k="alt_name" v="Hjello" />
		<tag k="fixme" v="consider place=hamlet" />
		<tag k="name" v="Hjøllo" />
		<tag k="place" v="farm" />
		<tag k="ssr:stedsnr" v="794125" />
	</node>
	<node lat="60.457480551149466" lon="6.211544443769975" id="-71864">
		<tag k="name" v="Røyneteigen" />
		<tag k="place" v="locality" />
		<tag k="ssr:stedsnr" v="794423" />
	</node>
	<node lat="60.4133750004196" lon="5.959999993460868" id="-71865">
		<tag k="historic" v="shieling" />
		<tag k="name" v="Gamlestølen" />
		<tag k="place" v="isolated_dwelling" />
		<tag k="ssr:stedsnr" v="794475" />
	</node>
	<node lat="60.36386389098285" lon="6.078499992041735" id="-71869">
		<tag k="building" v="industrial" />
		<tag k="industrial" v="factory" />
		<tag k="name" v="Li" />
		<tag k="ssr:stedsnr" v="794611" />
	</node>
	<node lat="60.36754462190647" lon="6.18865968416132" id="-71870">
		<tag k="fixme" v="consider place=hamlet" />
		<tag k="name" v="Nes" />
		<tag k="place" v="farm" />
		<tag k="ssr:stedsnr" v="794624" />
	</node>
	<node lat="60.34739167073664" lon="6.166761116131296" id="-71873">
		<tag k="name" v="Fosso" />
		<tag k="place" v="farm" />
		<tag k="ssr:stedsnr" v="794566" />
	</node>
	<node lat="60.35996666876983" lon="6.160827784034158" id="-71874">
		<tag k="name" v="Seland" />
		<tag k="place" v="farm" />
		<tag k="ssr:stedsnr" v="794571" />
	</node>
	<node lat="60.39811944682356" lon="6.129119452164257" id="-71876">
		<tag k="historic" v="shieling" />
		<tag k="name" v="Flyane" />
		<tag k="place" v="isolated_dwelling" />
		<tag k="ssr:stedsnr" v="794715" />
	</node>
	<node lat="60.4709638846607" lon="6.248750005013528" id="-71878">
		<tag k="name" v="Midtstølen" />
		<tag k="place" v="locality" />
		<tag k="ssr:stedsnr" v="794772" />
	</node>
	<node lat="60.266066668401656" lon="6.0465694425642305" id="-71879">
		<tag k="alt_name" v="Apalhaug" />
		<tag k="name" v="Apalhaugen" />
		<tag k="place" v="farm" />
		<tag k="ssr:stedsnr" v="794778" />
	</node>
	<node lat="60.26289090644874" lon="6.136119859006943" id="-71881">
		<tag k="alt_name" v="Koltveit" />
		<tag k="fixme" v="consider place=hamlet" />
		<tag k="name" v="Kolltveit" />
		<tag k="place" v="farm" />
		<tag k="ssr:stedsnr" v="794785" />
	</node>
	<node lat="60.26404167087726" lon="6.1477694403921745" id="-71883">
		<tag k="fixme" v="consider place=hamlet" />
		<tag k="name" v="Ljones" />
		<tag k="place" v="farm" />
		<tag k="ssr:stedsnr" v="794788" />
	</node>
	<node lat="60.29741111448737" lon="6.031138892107814" id="-71887">
		<tag k="fixme" v="consider place=hamlet" />
		<tag k="name" v="Solberg" />
		<tag k="place" v="farm" />
		<tag k="ssr:stedsnr" v="794922" />
	</node>
	<node lat="60.253090010037596" lon="6.00641426764131" id="-71891">
		<tag k="alt_name" v="Risanes" />
		<tag k="fixme" v="consider place=hamlet" />
		<tag k="name" v="Risa" />
		<tag k="place" v="farm" />
		<tag k="ssr:stedsnr" v="794806" />
	</node>
	<node lat="60.291297219628134" lon="6.1745194412497755" id="-71894">
		<tag k="name" v="Erdal" />
		<tag k="place" v="farm" />
		<tag k="ssr:stedsnr" v="794871" />
	</node>
	<node lat="60.293680555156875" lon="6.161136119048107" id="-71895">
		<tag k="name" v="Nygard" />
		<tag k="place" v="farm" />
		<tag k="ssr:stedsnr" v="794875" />
	</node>
	<node lat="60.28595277646486" lon="6.0767861088204365" id="-71896">
		<tag k="historic" v="shieling" />
		<tag k="name" v="Lingheller" />
		<tag k="place" v="isolated_dwelling" />
		<tag k="ssr:stedsnr" v="794881" />
	</node>
	<node lat="60.470827777697465" lon="6.09708887988411" id="-71902">
		<tag k="alt_name" v="Solheimdalen" />
		<tag k="historic" v="shieling" />
		<tag k="name" v="Solheimedalen" />
		<tag k="place" v="isolated_dwelling" />
		<tag k="ssr:stedsnr" v="915332" />
	</node>
	<node lat="60.287708330543445" lon="6.049230553069152" id="-71904">
		<tag k="alt_name" v="Midtbø" />
		<tag k="name" v="Eide" />
		<tag k="place" v="farm" />
		<tag k="ssr:stedsnr" v="915887" />
	</node>
	<node lat="60.379488889635105" lon="6.189088885670674" id="-71913">
		<tag k="name" v="Borge" />
		<tag k="place" v="farm" />
		<tag k="ssr:stedsnr" v="915649" />
	</node>
	<node lat="60.38004999802679" lon="6.178569446382509" id="-71914">
		<tag k="name" v="Åsen" />
		<tag k="place" v="farm" />
		<tag k="ssr:stedsnr" v="915653" />
	</node>
	<node lat="60.16492277326923" lon="5.931490437577668" id="-71919">
		<tag k="fixme" v="consider place=hamlet" />
		<tag k="name" v="Nes" />
		<tag k="place" v="farm" />
		<tag k="ssr:stedsnr" v="915565" />
	</node>
	<node lat="60.43100555147625" lon="6.4317138851915905" id="-71934">
		<tag k="building" v="industrial" />
		<tag k="industrial" v="factory" />
		<tag k="name" v="Elkem Bjølvefossen" />
		<tag k="old_name" v="Bjølvefossen" />
		<tag k="ssr:stedsnr" v="916240" />
	</node>
	<node lat="60.35815833105427" lon="6.054125003112294" id="-71939">
		<tag k="fixme" v="consider place=hamlet" />
		<tag k="name" v="Neteland" />
		<tag k="place" v="farm" />
		<tag k="ssr:stedsnr" v="916659" />
	</node>
	<node lat="60.47188055596341" lon="6.234527781289667" id="-71944">
		<tag k="historic" v="shieling" />
		<tag k="name" v="Gamlestølen" />
		<tag k="place" v="isolated_dwelling" />
		<tag k="ssr:stedsnr" v="916800" />
	</node>
	<node lat="60.41063888640331" lon="6.256766672582678" id="-71957">
		<tag k="fixme" v="consider place=hamlet" />
		<tag k="name" v="Telstø" />
		<tag k="place" v="farm" />
		<tag k="ssr:stedsnr" v="833079" />
	</node>
	<node lat="60.40389166275138" lon="6.298583334963522" id="-71966">
		<tag k="name" v="Tuftale" />
		<tag k="place" v="farm" />
		<tag k="ssr:stedsnr" v="833392" />
	</node>
	<node lat="60.46174025251838" lon="6.086471790655241" id="-71976">
		<tag k="historic" v="shieling" />
		<tag k="name" v="Fugladalen" />
		<tag k="place" v="isolated_dwelling" />
		<tag k="ssr:stedsnr" v="855387" />
	</node>
	<node lat="60.47186667065441" lon="6.212113897454245" id="-71977">
		<tag k="fixme" v="consider place=hamlet" />
		<tag k="name" v="Botnen" />
		<tag k="place" v="farm" />
		<tag k="ssr:stedsnr" v="855399" />
	</node>
	<node lat="60.32448611537252" lon="6.158186116215806" id="-71981">
		<tag k="name" v="Pundsteigen" />
		<tag k="place" v="farm" />
		<tag k="ssr:stedsnr" v="855495" />
	</node>
	<node lat="60.36421666591294" lon="6.104027779493203" id="-71984">
		<tag k="alt_name" v="Nyagjere" />
		<tag k="name" v="Nyagjerdet" />
		<tag k="place" v="farm" />
		<tag k="ssr:stedsnr" v="855622" />
	</node>
	<node lat="60.221085450015394" lon="5.978518071614834" id="-71986">
		<tag k="name" v="Oma" />
		<tag k="place" v="hamlet" />
		<tag k="ssr:stedsnr" v="855740" />
	</node>
	<node lat="60.30283155044262" lon="6.129575390898924" id="-71992">
		<tag k="alt_name" v="Nystølen" />
		<tag k="historic" v="shieling" />
		<tag k="name" v="Tveitstølen" />
		<tag k="place" v="isolated_dwelling" />
		<tag k="ssr:stedsnr" v="855915" />
	</node>
	<node lat="60.29540833526997" lon="6.095763883904193" id="-71993">
		<tag k="historic" v="shieling" />
		<tag k="name" v="Bottsvasslia" />
		<tag k="place" v="isolated_dwelling" />
		<tag k="ssr:stedsnr" v="855916" />
	</node>
	<node lat="60.30491896937604" lon="6.152394119933254" id="-71994">
		<tag k="fixme" v="consider place=hamlet" />
		<tag k="name" v="Tørvik" />
		<tag k="place" v="farm" />
		<tag k="ssr:stedsnr" v="855918" />
	</node>
	<node lat="60.27601944468644" lon="6.00136944905574" id="-71998">
		<tag k="fixme" v="consider place=hamlet" />
		<tag k="name" v="Skogasel" />
		<tag k="place" v="farm" />
		<tag k="ssr:stedsnr" v="855897" />
	</node>
	<node lat="60.38393610920637" lon="6.196291670127039" id="-71999">
		<tag k="name" v="Vik" />
		<tag k="place" v="farm" />
		<tag k="ssr:stedsnr" v="856642" />
	</node>
	<node lat="60.37107500114883" lon="6.157813896092004" id="-72018">
		<tag k="name" v="Seljenes" />
		<tag k="place" v="farm" />
		<tag k="ssr:stedsnr" v="894158" />
	</node>
	<node lat="60.424950004090014" lon="6.239141672384724" id="-72027">
		<tag k="name" v="Eikane" />
		<tag k="place" v="farm" />
		<tag k="ssr:stedsnr" v="894453" />
	</node>
	<node lat="60.43099722642876" lon="6.412536103878469" id="-72029">
		<tag k="name" v="Kåskjer" />
		<tag k="place" v="farm" />
		<tag k="ssr:stedsnr" v="894510" />
	</node>
	<node lat="60.364701391804935" lon="6.276448701934332" id="-72048">
		<tag k="name" v="Træstad" />
		<tag k="place" v="farm" />
		<tag k="ssr:stedsnr" v="915091" />
	</node>
	<node lat="60.463811110472086" lon="6.369324999343439" id="-72051">
		<tag k="historic" v="shieling" />
		<tag k="name" v="Bjølsegrostølen" />
		<tag k="place" v="isolated_dwelling" />
		<tag k="ssr:stedsnr" v="915189" />
	</node>
	<node lat="60.42287777796096" lon="6.2162527832631405" id="-72056">
		<tag k="historic" v="shieling" />
		<tag k="name" v="Sekk" />
		<tag k="place" v="isolated_dwelling" />
		<tag k="ssr:stedsnr" v="915415" />
	</node>
	<node lat="60.13626388619905" lon="5.896427771975008" id="-72059">
		<tag k="alt_name" v="Troppi" />
		<tag k="name" v="Troppa" />
		<tag k="place" v="farm" />
		<tag k="ssr:stedsnr" v="915578" />
	</node>
	<node lat="60.254791666215475" lon="6.122288882070034" id="-72070">
		<tag k="fixme" v="consider place=hamlet" />
		<tag k="name" v="Tveit" />
		<tag k="place" v="farm" />
		<tag k="ssr:stedsnr" v="916774" />
	</node>
	<node lat="60.36944811289229" lon="6.119117086141415" id="-72074">
		<tag k="fixme" v="consider place=hamlet" />
		<tag k="name" v="Mo" />
		<tag k="place" v="farm" />
		<tag k="ssr:stedsnr" v="916678" />
	</node>
	<node lat="60.27469166379435" lon="6.030652770690305" id="-72079">
		<tag k="name" v="Vikane" />
		<tag k="place" v="farm" />
		<tag k="ssr:stedsnr" v="934111" />
	</node>
	<node lat="60.37548889175539" lon="6.20034444989709" id="-72084">
		<tag k="fixme" v="consider place=hamlet" />
		<tag k="name" v="Råi" />
		<tag k="place" v="farm" />
		<tag k="ssr:stedsnr" v="953914" />
	</node>
	<node lat="60.41506388540077" lon="6.235147215867252" id="-72116">
		<tag k="name" v="Porsmyr" />
		<tag k="place" v="farm" />
		<tag k="ssr:stedsnr" v="5152" />
	</node>
	<node lat="60.32738738838024" lon="6.194000471887307" id="-72133">
		<tag k="fixme" v="consider place=hamlet" />
		<tag k="name" v="Vangdal" />
		<tag k="place" v="farm" />
		<tag k="ssr:stedsnr" v="5491" />
	</node>
	<node lat="60.3920113375413" lon="6.19201696799674" id="-72134">
		<tag k="fixme" v="consider place=hamlet" />
		<tag k="name" v="Øystese" />
		<tag k="place" v="farm" />
		<tag k="ssr:stedsnr" v="5669" />
	</node>
	<node lat="60.3799277777655" lon="5.932044437341589" id="-72135">
		<tag k="historic" v="shieling" />
		<tag k="name" v="Tordalen" />
		<tag k="place" v="isolated_dwelling" />
		<tag k="ssr:stedsnr" v="5672" />
	</node>
	<node lat="60.40250555189193" lon="6.206411111191957" id="-72136">
		<tag k="name" v="Einsteigane" />
		<tag k="place" v="farm" />
		<tag k="ssr:stedsnr" v="5682" />
	</node>
	<node lat="60.21973695866513" lon="5.974006870082833" id="-72137">
		<tag k="alt_name" v="Ytreoma" />
		<tag k="fixme" v="consider place=hamlet" />
		<tag k="name" v="Ytre Oma" />
		<tag k="place" v="farm" />
		<tag k="ssr:stedsnr" v="5693" />
	</node>
	<node lat="60.40396110738254" lon="6.155575002595724" id="-72141">
		<tag k="historic" v="shieling" />
		<tag k="name" v="Nystøl" />
		<tag k="place" v="isolated_dwelling" />
		<tag k="ssr:stedsnr" v="5736" />
	</node>
	<node lat="60.297274999880315" lon="6.1501944504553965" id="-72149">
		<tag k="alt_name" v="Lysen" />
		<tag k="fixme" v="consider place=hamlet" />
		<tag k="name" v="Lyso" />
		<tag k="place" v="farm" />
		<tag k="ssr:stedsnr" v="5891" />
	</node>
	<node lat="60.514880558401806" lon="6.201513885387591" id="-72171">
		<tag k="fixme" v="consider tourism=alpine_hut or tourism=chalet" />
		<tag k="name" v="Kiellandbu" />
		<tag k="ssr:stedsnr" v="40740" />
		<tag k="tourism" v="wilderness_hut" />
	</node>
	<node lat="60.27824999989983" lon="6.0014888926663374" id="-72178">
		<tag k="name" v="Teigen" />
		<tag k="place" v="farm" />
		<tag k="ssr:stedsnr" v="43634" />
	</node>
	<node lat="60.2696305550014" lon="5.996883330123481" id="-72180">
		<tag k="loc_name" v="Skotet" />
		<tag k="name" v="Skåte" />
		<tag k="place" v="farm" />
		<tag k="ssr:stedsnr" v="43649" />
	</node>
	<node lat="60.217236115427006" lon="5.946927772340583" id="-72181">
		<tag k="historic" v="shieling" />
		<tag k="name" v="Nystøl" />
		<tag k="place" v="isolated_dwelling" />
		<tag k="ssr:stedsnr" v="43660" />
	</node>
	<node lat="60.10569444032068" lon="5.887244441959526" id="-72187">
		<tag k="name" v="Skogrusta" />
		<tag k="place" v="farm" />
		<tag k="ssr:stedsnr" v="43910" />
	</node>
	<node lat="60.36697500086948" lon="6.108913881795024" id="-72200">
		<tag k="name" v="Nestås" />
		<tag k="place" v="farm" />
		<tag k="ssr:stedsnr" v="44770" />
	</node>
	<node lat="60.41571388966654" lon="6.083074993474798" id="-72213">
		<tag k="historic" v="shieling" />
		<tag k="name" v="Vatnadalen" />
		<tag k="place" v="isolated_dwelling" />
		<tag k="ssr:stedsnr" v="66452" />
	</node>
	<node lat="60.416371010744534" lon="6.387375048829659" id="-72215">
		<tag k="fixme" v="consider place=hamlet" />
		<tag k="name" v="Tveit" />
		<tag k="place" v="farm" />
		<tag k="ssr:stedsnr" v="66122" />
	</node>
	<node lat="60.36566944878881" lon="6.273158326691974" id="-72217">
		<tag k="alt_name" v="Øyjord" />
		<tag k="name" v="Øyjordi" />
		<tag k="place" v="farm" />
		<tag k="ssr:stedsnr" v="66082" />
	</node>
	<node lat="60.444552779274446" lon="6.483105561332463" id="-72218">
		<tag k="fixme" v="consider place=hamlet" />
		<tag k="name" v="Kjepso" />
		<tag k="place" v="farm" />
		<tag k="ssr:stedsnr" v="66226" />
	</node>
	<node lat="60.34761666577445" lon="6.173469441723578" id="-72225">
		<tag k="name" v="Teigen" />
		<tag k="place" v="farm" />
		<tag k="ssr:stedsnr" v="66552" />
	</node>
	<node lat="60.36577426230043" lon="6.085582778883982" id="-72227">
		<tag k="fixme" v="consider place=hamlet" />
		<tag k="name" v="Li" />
		<tag k="place" v="farm" />
		<tag k="ssr:stedsnr" v="66585" />
	</node>
	<node lat="60.35878055466688" lon="6.075291667347353" id="-72228">
		<tag k="alt_name" v="Byrkjeland, nedre" />
		<tag k="fixme" v="consider place=hamlet" />
		<tag k="name" v="Nedre Byrkjeland" />
		<tag k="place" v="farm" />
		<tag k="ssr:stedsnr" v="66588" />
	</node>
	<node lat="60.3353982082431" lon="6.21260375858489" id="-72233">
		<tag k="alt_name" v="Aksnes, nedre" />
		<tag k="fixme" v="consider place=hamlet" />
		<tag k="name" v="Nedre Aksnes" />
		<tag k="place" v="farm" />
		<tag k="ssr:stedsnr" v="66514" />
	</node>
	<node lat="60.336649998914986" lon="6.15817777276827" id="-72235">
		<tag k="historic" v="shieling" />
		<tag k="name" v="Aksnesholten" />
		<tag k="place" v="isolated_dwelling" />
		<tag k="ssr:stedsnr" v="66521" />
	</node>
	<node lat="60.34427500176522" lon="6.192519438078341" id="-72236">
		<tag k="name" v="Ospelund" />
		<tag k="place" v="farm" />
		<tag k="ssr:stedsnr" v="66527" />
	</node>
	<node lat="60.34890555592138" lon="6.188913885685249" id="-72237">
		<tag k="name" v="Haugen" />
		<tag k="place" v="farm" />
		<tag k="ssr:stedsnr" v="66529" />
	</node>
	<node lat="60.523936109511105" lon="6.23065277096246" id="-72255">
		<tag k="historic" v="shieling" />
		<tag k="name" v="Songrø" />
		<tag k="place" v="isolated_dwelling" />
		<tag k="ssr:stedsnr" v="68625" />
	</node>
	<node lat="60.17204166621138" lon="5.943986106865275" id="-72256">
		<tag k="name" v="Nybru" />
		<tag k="place" v="farm" />
		<tag k="ssr:stedsnr" v="85025" />
	</node>
	<node lat="60.386222225050446" lon="5.959486116857555" id="-72264">
		<tag k="name" v="Vetlavatnet" />
		<tag k="place" v="neighbourhood" />
		<tag k="ssr:stedsnr" v="100194" />
	</node>
	<node lat="60.410713891890396" lon="6.229538896170875" id="-72269">
		<tag k="name" v="Haugen" />
		<tag k="place" v="farm" />
		<tag k="ssr:stedsnr" v="105100" />
	</node>
	<node lat="60.38322777845428" lon="6.198469436659818" id="-72270">
		<tag k="name" v="Vikelandet" />
		<tag k="place" v="farm" />
		<tag k="ssr:stedsnr" v="105115" />
	</node>
	<node lat="60.247730551657746" lon="6.0028555593017705" id="-72287">
		<tag k="name" v="Børsheim" />
		<tag k="place" v="hamlet" />
		<tag k="ssr:stedsnr" v="105755" />
	</node>
	<node lat="60.35970000069986" lon="6.086438897605914" id="-72288">
		<tag k="name" v="Midtun" />
		<tag k="place" v="farm" />
		<tag k="ssr:stedsnr" v="105760" />
	</node>
	<node lat="60.36261944310194" lon="6.093680557612061" id="-72294">
		<tag k="name" v="Trones" />
		<tag k="place" v="farm" />
		<tag k="ssr:stedsnr" v="105766" />
	</node>
	<node lat="60.36275833459033" lon="6.061277784880175" id="-72295">
		<tag k="name" v="Nybø" />
		<tag k="place" v="farm" />
		<tag k="ssr:stedsnr" v="105769" />
	</node>
	<node lat="60.39452221911254" lon="5.9282388975671" id="-72296">
		<tag k="alt_name" v="Kleivi" />
		<tag k="name" v="Kleiva" />
		<tag k="place" v="farm" />
		<tag k="ssr:stedsnr" v="105899" />
	</node>
	<node lat="60.345947221205506" lon="6.179416670240185" id="-72298">
		<tag k="name" v="Hegrehaugen" />
		<tag k="place" v="quarter" />
		<tag k="ssr:stedsnr" v="119292" />
	</node>
	<node lat="60.275047219583406" lon="6.002938883015295" id="-72305">
		<tag k="name" v="Solheim" />
		<tag k="place" v="farm" />
		<tag k="ssr:stedsnr" v="126866" />
	</node>
	<node lat="60.269630598921964" lon="6.010596515557426" id="-72306">
		<tag k="name" v="Bru" />
		<tag k="place" v="hamlet" />
		<tag k="ssr:stedsnr" v="126870" />
	</node>
	<node lat="60.42821666694093" lon="6.196602785623223" id="-72313">
		<tag k="historic" v="shieling" />
		<tag k="name" v="Hyrting" />
		<tag k="place" v="isolated_dwelling" />
		<tag k="ssr:stedsnr" v="126435" />
	</node>
	<node lat="60.155277782063955" lon="5.944155562056799" id="-72316">
		<tag k="alt_name" v="Kråka" />
		<tag k="name" v="Kråke" />
		<tag k="place" v="farm" />
		<tag k="ssr:stedsnr" v="126570" />
	</node>
	<node lat="60.34050697934384" lon="6.212805919859987" id="-72317">
		<tag k="fixme" v="consider place=hamlet" />
		<tag k="name" v="Fonnaland" />
		<tag k="place" v="farm" />
		<tag k="ssr:stedsnr" v="126536" />
	</node>
	<node lat="60.35985833047254" lon="5.957602780744637" id="-72318">
		<tag k="historic" v="shieling" />
		<tag k="name" v="Fossdal" />
		<tag k="place" v="isolated_dwelling" />
		<tag k="ssr:stedsnr" v="126617" />
	</node>
	<node lat="60.372891663537516" lon="6.0796833343391885" id="-72320">
		<tag k="historic" v="shieling" />
		<tag k="name" v="Freden" />
		<tag k="place" v="isolated_dwelling" />
		<tag k="ssr:stedsnr" v="126639" />
	</node>
	<node lat="60.24363584622672" lon="6.002907895944176" id="-72322">
		<tag k="fixme" v="consider place=hamlet" />
		<tag k="name" v="Bakka" />
		<tag k="place" v="farm" />
		<tag k="ssr:stedsnr" v="126717" />
	</node>
	<node lat="60.25441388708498" lon="6.081536102275903" id="-72326">
		<tag k="alt_name" v="Skora" />
		<tag k="name" v="Skori" />
		<tag k="place" v="farm" />
		<tag k="ssr:stedsnr" v="126732" />
	</node>
	<node lat="60.25036388942656" lon="6.004600000935142" id="-72336">
		<tag k="alt_name" v="Børsheim, in" />
		<tag k="fixme" v="consider place=hamlet" />
		<tag k="name" v="Indre Børsheim" />
		<tag k="place" v="farm" />
		<tag k="ssr:stedsnr" v="126782" />
	</node>
	<node lat="60.35800278021055" lon="6.078644443585324" id="-72341">
		<tag k="name" v="Træbakken" />
		<tag k="place" v="farm" />
		<tag k="ssr:stedsnr" v="127661" />
	</node>
	<node lat="60.41481388820686" lon="6.372633339794077" id="-72348">
		<tag k="alt_name" v="Ålvik, yt" />
		<tag k="fixme" v="consider place=hamlet" />
		<tag k="name" v="Ytre Ålvik" />
		<tag k="place" v="village" />
		<tag k="ssr:stedsnr" v="127127" />
	</node>
	<node lat="60.372880559674634" lon="5.993483324668593" id="-72359">
		<tag k="name" v="Kvinnhovden" />
		<tag k="place" v="neighbourhood" />
		<tag k="ssr:stedsnr" v="161242" />
	</node>
	<node lat="60.37781666729518" lon="6.263311112620851" id="-72403">
		<tag k="fixme" v="consider place=hamlet" />
		<tag k="name" v="Flotve" />
		<tag k="place" v="farm" />
		<tag k="ssr:stedsnr" v="187170" />
	</node>
	<node lat="60.316499996169" lon="6.123613891817669" id="-72407">
		<tag k="historic" v="shieling" />
		<tag k="name" v="Osadal" />
		<tag k="place" v="isolated_dwelling" />
		<tag k="ssr:stedsnr" v="187993" />
	</node>
	<node lat="60.347386113850696" lon="6.168522230841088" id="-72418">
		<tag k="name" v="Utrunningen" />
		<tag k="place" v="farm" />
		<tag k="ssr:stedsnr" v="187541" />
	</node>
	<node lat="60.352005554737275" lon="6.168774994218575" id="-72419">
		<tag k="name" v="Tindland" />
		<tag k="place" v="farm" />
		<tag k="ssr:stedsnr" v="187546" />
	</node>
	<node lat="60.370886110567675" lon="6.145638894136944" id="-72424">
		<tag k="name" v="Norheimsund" />
		<tag k="place" v="village" />
		<tag k="ssr:stedsnr" v="187596" />
	</node>
	<node lat="60.26382221967168" lon="6.011183340348165" id="-72426">
		<tag k="alt_name" v="Eikeflaten" />
		<tag k="name" v="Eikefloti" />
		<tag k="place" v="farm" />
		<tag k="ssr:stedsnr" v="187767" />
	</node>
	<node lat="60.2854555593221" lon="6.063100005967106" id="-72427">
		<tag k="fixme" v="consider place=hamlet" />
		<tag k="name" v="Byrkjenes" />
		<tag k="place" v="farm" />
		<tag k="ssr:stedsnr" v="187834" />
	</node>
	<node lat="60.31000278073663" lon="6.1557138954334185" id="-72435">
		<tag k="alt_name" v="Tuften" />
		<tag k="fixme" v="consider place=hamlet" />
		<tag k="name" v="Tufto" />
		<tag k="place" v="farm" />
		<tag k="ssr:stedsnr" v="187955" />
	</node>
	<node lat="60.253044446777004" lon="6.087302778358378" id="-72448">
		<tag k="name" v="Lingavikane" />
		<tag k="place" v="neighbourhood" />
		<tag k="ssr:stedsnr" v="222242" />
	</node>
	<node lat="60.40952777658075" lon="6.205838892591778" id="-72457">
		<tag k="fixme" v="consider place=hamlet" />
		<tag k="name" v="Soldal" />
		<tag k="place" v="farm" />
		<tag k="ssr:stedsnr" v="226063" />
	</node>
	<node lat="60.27519722540845" lon="6.16561388601285" id="-72468">
		<tag k="name" v="Eide" />
		<tag k="place" v="farm" />
		<tag k="ssr:stedsnr" v="226567" />
	</node>
	<node lat="60.29308610890034" lon="6.048947229055401" id="-72482">
		<tag k="alt_name" v="Tordalen" />
		<tag k="fixme" v="consider place=hamlet" />
		<tag k="name" v="Tordal" />
		<tag k="place" v="farm" />
		<tag k="ssr:stedsnr" v="226907" />
	</node>
	<node lat="60.313274995949115" lon="6.167755548742585" id="-72485">
		<tag k="name" v="Gamlehamnen" />
		<tag k="place" v="farm" />
		<tag k="ssr:stedsnr" v="226923" />
	</node>
	<node lat="60.3718666672222" lon="6.140872227139317" id="-72508">
		<tag k="name" v="Sandven" />
		<tag k="place" v="farm" />
		<tag k="ssr:stedsnr" v="287220" />
	</node>
	<node lat="60.413897225166714" lon="6.385652784132471" id="-72521">
		<tag k="name" v="Vedanes" />
		<tag k="place" v="farm" />
		<tag k="ssr:stedsnr" v="287458" />
	</node>
	<node lat="60.41708493804629" lon="6.230198797315166" id="-72536">
		<tag k="alt_name" v="Skåre" />
		<tag k="fixme" v="consider place=hamlet" />
		<tag k="name" v="Skore" />
		<tag k="place" v="farm" />
		<tag k="ssr:stedsnr" v="295167" />
	</node>
	<node lat="60.3422499997286" lon="6.182216669995422" id="-72541">
		<tag k="fixme" v="consider place=hamlet" />
		<tag k="name" v="Byrkjeland" />
		<tag k="place" v="farm" />
		<tag k="ssr:stedsnr" v="308549" />
	</node>
	<node lat="60.433969445613066" lon="6.178927773607432" id="-72545">
		<tag k="historic" v="shieling" />
		<tag k="name" v="Laupsaflyane" />
		<tag k="place" v="isolated_dwelling" />
		<tag k="ssr:stedsnr" v="308427" />
	</node>
	<node lat="60.32727499847631" lon="6.198527778807483" id="-72561">
		<tag k="name" v="Stien" />
		<tag k="place" v="farm" />
		<tag k="ssr:stedsnr" v="308468" />
	</node>
	<node lat="60.347827774207445" lon="6.193141670356779" id="-72562">
		<tag k="name" v="Oddland" />
		<tag k="place" v="farm" />
		<tag k="ssr:stedsnr" v="308523" />
	</node>
	<node lat="60.393977780877776" lon="6.0922749974638135" id="-72565">
		<tag k="historic" v="shieling" />
		<tag k="name" v="Norheimsdalen" />
		<tag k="place" v="isolated_dwelling" />
		<tag k="ssr:stedsnr" v="308663" />
	</node>
	<node lat="60.228176616766746" lon="5.976805094084664" id="-72568">
		<tag k="fixme" v="consider place=hamlet" />
		<tag k="name" v="Åse" />
		<tag k="place" v="farm" />
		<tag k="ssr:stedsnr" v="308695" />
	</node>
	<node lat="60.296772615928916" lon="6.018935584214663" id="-72582">
		<tag k="alt_name" v="Haukås, øvre" />
		<tag k="fixme" v="consider place=hamlet" />
		<tag k="name" v="Øvre Haukås" />
		<tag k="place" v="farm" />
		<tag k="ssr:stedsnr" v="309924" />
	</node>
	<node lat="60.371986114547866" lon="6.106802785850903" id="-72587">
		<tag k="alt_name" v="Midthus" />
		<tag k="fixme" v="consider place=hamlet" />
		<tag k="name" v="Midhus" />
		<tag k="place" v="farm" />
		<tag k="ssr:stedsnr" v="309668" />
	</node>
	<node lat="60.31040940663" lon="6.1503862857823" id="-72598">
		<tag k="fixme" v="consider place=hamlet" />
		<tag k="name" v="Hallaråker" />
		<tag k="place" v="farm" />
		<tag k="ssr:stedsnr" v="309942" />
	</node>
	<node lat="60.394541668003455" lon="5.95634721931362" id="-72605">
		<tag k="name" v="Kleven" />
		<tag k="place" v="neighbourhood" />
		<tag k="ssr:stedsnr" v="342133" />
	</node>
	<node lat="60.36677499621406" lon="6.022127781734647" id="-72606">
		<tag k="name" v="Klubben" />
		<tag k="place" v="neighbourhood" />
		<tag k="ssr:stedsnr" v="342134" />
	</node>
	<node lat="60.40625555565848" lon="6.245355555672759" id="-72607">
		<tag k="name" v="Høyvika" />
		<tag k="old_name" v="Høyvik" />
		<tag k="place" v="locality" />
		<tag k="ssr:stedsnr" v="347019" />
	</node>
	<node lat="60.365599996182254" lon="6.2837166677273935" id="-72608">
		<tag k="name" v="Nystad" />
		<tag k="place" v="farm" />
		<tag k="ssr:stedsnr" v="347032" />
	</node>
	<node lat="60.34304999852104" lon="6.19809721499025" id="-72611">
		<tag k="name" v="Øyjorda" />
		<tag k="place" v="farm" />
		<tag k="ssr:stedsnr" v="347048" />
	</node>
	<node lat="60.312947223824885" lon="6.0728472167726055" id="-72615">
		<tag k="historic" v="shieling" />
		<tag k="name" v="Kolldal" />
		<tag k="place" v="isolated_dwelling" />
		<tag k="ssr:stedsnr" v="346973" />
	</node>
	<node lat="60.38680572448637" lon="6.193179229885233" id="-72617">
		<tag k="alt_name" v="Vik nedre" />
		<tag k="fixme" v="consider place=hamlet" />
		<tag k="name" v="Nedre Vik" />
		<tag k="place" v="farm" />
		<tag k="ssr:stedsnr" v="347096" />
	</node>
	<node lat="60.415888889620796" lon="6.372294439246283" id="-72619">
		<tag k="name" v="Varhaug" />
		<tag k="place" v="farm" />
		<tag k="ssr:stedsnr" v="347425" />
	</node>
	<node lat="60.37188055697713" lon="6.1184555611374" id="-72630">
		<tag k="name" v="Mo" />
		<tag k="place" v="farm" />
		<tag k="ssr:stedsnr" v="347200" />
	</node>
	<node lat="60.30246388516531" lon="5.967775002789667" id="-72634">
		<tag k="historic" v="shieling" />
		<tag k="name" v="Skor" />
		<tag k="place" v="isolated_dwelling" />
		<tag k="ssr:stedsnr" v="347722" />
	</node>
	<node lat="60.363858329256836" lon="6.077652780897616" id="-72645">
		<tag k="name" v="Lid" />
		<tag k="place" v="farm" />
		<tag k="ssr:stedsnr" v="347799" />
	</node>
	<node lat="60.36820833417029" lon="6.0944277839590475" id="-72646">
		<tag k="name" v="Reistveit" />
		<tag k="place" v="farm" />
		<tag k="ssr:stedsnr" v="347801" />
	</node>
	<node lat="60.296531321392315" lon="6.167328839993975" id="-72656">
		<tag k="fixme" v="consider place=hamlet" />
		<tag k="name" v="Drage" />
		<tag k="place" v="farm" />
		<tag k="ssr:stedsnr" v="369872" />
	</node>
	<node lat="60.37513610786583" lon="6.121255549603263" id="-72663">
		<tag k="fixme" v="consider place=hamlet" />
		<tag k="name" v="Nesthus" />
		<tag k="place" v="farm" />
		<tag k="ssr:stedsnr" v="369596" />
	</node>
	<node lat="60.37331944428988" lon="6.252780559344271" id="-72667">
		<tag k="fixme" v="consider place=hamlet" />
		<tag k="name" v="Bergstø" />
		<tag k="place" v="farm" />
		<tag k="ssr:stedsnr" v="369146" />
	</node>
	<node lat="60.25310277505663" lon="6.08309999425434" id="-72677">
		<tag k="name" v="Skoglund" />
		<tag k="place" v="farm" />
		<tag k="ssr:stedsnr" v="369737" />
	</node>
	<node lat="60.13266136050295" lon="5.893077896255321" id="-72678">
		<tag k="fixme" v="consider place=hamlet" />
		<tag k="name" v="Gravdal" />
		<tag k="place" v="farm" />
		<tag k="ssr:stedsnr" v="369542" />
	</node>
	<node lat="60.3639000034329" lon="6.098302778390938" id="-72680">
		<tag k="name" v="Symra" />
		<tag k="place" v="farm" />
		<tag k="ssr:stedsnr" v="369560" />
	</node>
	<node lat="60.368100002382405" lon="6.096263882333804" id="-72682">
		<tag k="alt_name" v="Reigstveit" />
		<tag k="fixme" v="consider place=hamlet" />
		<tag k="name" v="Reistveit" />
		<tag k="place" v="farm" />
		<tag k="ssr:stedsnr" v="369601" />
	</node>
	<node lat="60.310135415759184" lon="6.024413949484199" id="-72686">
		<tag k="historic" v="shieling" />
		<tag k="name" v="Botnane" />
		<tag k="place" v="isolated_dwelling" />
		<tag k="ssr:stedsnr" v="369938" />
	</node>
	<node lat="60.29543055408486" lon="5.981083324616092" id="-72687">
		<tag k="historic" v="shieling" />
		<tag k="name" v="Fagrabakka" />
		<tag k="place" v="isolated_dwelling" />
		<tag k="ssr:stedsnr" v="369949" />
	</node>
	<node lat="60.308833336383636" lon="6.168238885973335" id="-72688">
		<tag k="name" v="Stekka" />
		<tag k="place" v="farm" />
		<tag k="ssr:stedsnr" v="369950" />
	</node>
	<node lat="60.5146749988949" lon="6.1472749979391965" id="-72690">
		<tag k="historic" v="shieling" />
		<tag k="name" v="Blåkoll" />
		<tag k="place" v="isolated_dwelling" />
		<tag k="ssr:stedsnr" v="370787" />
	</node>
	<node lat="60.16469722593702" lon="5.912016660538996" id="-72700">
		<tag k="name" v="Kalhagen" />
		<tag k="place" v="farm" />
		<tag k="ssr:stedsnr" v="407354" />
	</node>
	<node lat="60.40848333342209" lon="6.218772229265141" id="-72705">
		<tag k="name" v="Skjepakleiv" />
		<tag k="place" v="farm" />
		<tag k="ssr:stedsnr" v="408064" />
	</node>
	<node lat="60.50153055464403" lon="6.205247229075239" id="-72709">
		<tag k="name" v="Dalen" />
		<tag k="place" v="farm" />
		<tag k="ssr:stedsnr" v="408421" />
	</node>
	<node lat="60.41329722338401" lon="6.358224995598297" id="-72719">
		<tag k="name" v="Solbustad" />
		<tag k="place" v="farm" />
		<tag k="ssr:stedsnr" v="408468" />
	</node>
	<node lat="60.35029722257857" lon="5.975941671761454" id="-72725">
		<tag k="leisure" v="park" />
		<tag k="name" v="Parken" />
		<tag k="ssr:stedsnr" v="408879" />
	</node>
	<node lat="60.25348611524175" lon="5.977383324405579" id="-72728">
		<tag k="name" v="Klepp" />
		<tag k="place" v="farm" />
		<tag k="ssr:stedsnr" v="408755" />
	</node>
	<node lat="60.35928055140634" lon="6.085419444472832" id="-72739">
		<tag k="name" v="Midtun" />
		<tag k="place" v="farm" />
		<tag k="ssr:stedsnr" v="430616" />
	</node>
	<node lat="60.39909041039015" lon="6.25851784655282" id="-72745">
		<tag k="alt_name" v="Stranden;Strondi" />
		<tag k="name" v="Nygardstrondi" />
		<tag k="place" v="farm" />
		<tag k="ssr:stedsnr" v="430175" />
	</node>
	<node lat="60.208375004464486" lon="5.927166673696206" id="-72758">
		<tag k="name" v="Grov" />
		<tag k="place" v="isolated_dwelling" />
		<tag k="ssr:stedsnr" v="430484" />
	</node>
	<node lat="60.205171469587526" lon="5.966777507395731" id="-72760">
		<tag k="name" v="Årsnes" />
		<tag k="place" v="farm" />
		<tag k="ssr:stedsnr" v="430487" />
	</node>
	<node lat="60.205138884946386" lon="5.960724997173558" id="-72761">
		<tag k="name" v="Haugen" />
		<tag k="place" v="farm" />
		<tag k="ssr:stedsnr" v="430489" />
	</node>
	<node lat="60.35017500099723" lon="6.166577769145115" id="-72766">
		<tag k="name" v="Fossli" />
		<tag k="place" v="farm" />
		<tag k="ssr:stedsnr" v="430588" />
	</node>
	<node lat="60.35290555942918" lon="6.164233341286908" id="-72767">
		<tag k="fixme" v="consider place=hamlet" />
		<tag k="name" v="Tveit" />
		<tag k="place" v="farm" />
		<tag k="ssr:stedsnr" v="430589" />
	</node>
	<node lat="60.25453333362392" lon="6.110036114412537" id="-72772">
		<tag k="fixme" v="consider place=hamlet" />
		<tag k="name" v="Innstranda" />
		<tag k="place" v="village" />
		<tag k="ssr:stedsnr" v="430748" />
	</node>
	<node lat="60.264883331697376" lon="6.010508332781643" id="-72773">
		<tag k="name" v="Revsgard" />
		<tag k="place" v="farm" />
		<tag k="ssr:stedsnr" v="430774" />
	</node>
	<node lat="60.290674997630425" lon="6.077305560624926" id="-72780">
		<tag k="alt_name" v="Fadnastøl" />
		<tag k="historic" v="shieling" />
		<tag k="name" v="Fadnastølen" />
		<tag k="place" v="isolated_dwelling" />
		<tag k="ssr:stedsnr" v="430882" />
	</node>
	<node lat="60.28897499626904" lon="6.031399998202523" id="-72781">
		<tag k="alt_name" v="Engjadal;Engjedalen" />
		<tag k="name" v="Engjadalen" />
		<tag k="place" v="farm" />
		<tag k="ssr:stedsnr" v="430885" />
	</node>
	<node lat="60.313487042925935" lon="6.162441954974668" id="-72782">
		<tag k="fixme" v="consider place=hamlet" />
		<tag k="name" v="Berge" />
		<tag k="place" v="farm" />
		<tag k="ssr:stedsnr" v="430968" />
	</node>
	<node lat="60.16117222149775" lon="5.943963881232129" id="-72795">
		<tag k="name" v="Moldhusstølen" />
		<tag k="place" v="farm" />
		<tag k="ssr:stedsnr" v="528425" />
	</node>
	<node lat="60.41130833217076" lon="6.182816661782252" id="-72799">
		<tag k="historic" v="shieling" />
		<tag k="name" v="Sælesete" />
		<tag k="place" v="isolated_dwelling" />
		<tag k="ssr:stedsnr" v="529056" />
	</node>
	<node lat="60.19214722424796" lon="5.90461666488642" id="-72812">
		<tag k="name" v="Rusta" />
		<tag k="place" v="farm" />
		<tag k="ssr:stedsnr" v="529328" />
	</node>
	<node lat="60.360770834571916" lon="6.066136139428262" id="-72816">
		<tag k="name" v="Bøen" />
		<tag k="place" v="farm" />
		<tag k="ssr:stedsnr" v="529795" />
	</node>
	<node lat="60.24187222074452" lon="5.997194435782139" id="-72827">
		<tag k="name" v="Haugen" />
		<tag k="place" v="farm" />
		<tag k="ssr:stedsnr" v="530743" />
	</node>
	<node lat="60.1599222192489" lon="5.901572217715534" id="-72830">
		<tag k="name" v="Storhamn" />
		<tag k="place" v="isolated_dwelling" />
		<tag k="ssr:stedsnr" v="550580" />
	</node>
	<node lat="60.45150278169172" lon="5.997066659315124" id="-72833">
		<tag k="historic" v="shieling" />
		<tag k="name" v="Dyravadlægeret" />
		<tag k="place" v="isolated_dwelling" />
		<tag k="ssr:stedsnr" v="551366" />
	</node>
	<node lat="60.24234166447488" lon="5.9691500077282145" id="-72841">
		<tag k="name" v="Svartahola" />
		<tag k="place" v="isolated_dwelling" />
		<tag k="ssr:stedsnr" v="551699" />
	</node>
	<node lat="60.377777776517846" lon="6.157116664479372" id="-72846">
		<tag k="name" v="Kriken" />
		<tag k="place" v="farm" />
		<tag k="ssr:stedsnr" v="551665" />
	</node>
	<node lat="60.36752499887433" lon="6.1711888932784005" id="-72863">
		<tag k="name" v="Vallandshaugane" />
		<tag k="place" v="farm" />
		<tag k="ssr:stedsnr" v="589039" />
	</node>
	<node lat="60.14091441013222" lon="5.90168944454705" id="-72866">
		<tag k="name" v="Bjånes" />
		<tag k="place" v="farm" />
		<tag k="ssr:stedsnr" v="589967" />
	</node>
	<node lat="60.324316668398495" lon="6.195216661106099" id="-72900">
		<tag k="name" v="Ytstheim" />
		<tag k="place" v="farm" />
		<tag k="ssr:stedsnr" v="590840" />
	</node>
	<node lat="60.40820555235114" lon="5.924749993283581" id="-72910">
		<tag k="name" v="Kråni" />
		<tag k="place" v="locality" />
		<tag k="ssr:stedsnr" v="611446" />
	</node>
	<node lat="60.216741173356155" lon="5.964377348974932" id="-72915">
		<tag k="fixme" v="consider place=hamlet" />
		<tag k="name" v="Gjerde" />
		<tag k="place" v="farm" />
		<tag k="ssr:stedsnr" v="611521" />
	</node>
	<node lat="60.34210555377562" lon="6.089761112027559" id="-72929">
		<tag k="historic" v="shieling" />
		<tag k="name" v="Kjoshella" />
		<tag k="place" v="isolated_dwelling" />
		<tag k="ssr:stedsnr" v="612585" />
	</node>
	<node lat="60.36615555183658" lon="6.075333335211523" id="-72934">
		<tag k="name" v="Øyjordi" />
		<tag k="place" v="farm" />
		<tag k="ssr:stedsnr" v="612654" />
	</node>
	<node lat="60.40808611416601" lon="6.211616670034653" id="-72943">
		<tag k="name" v="Kampen" />
		<tag k="place" v="farm" />
		<tag k="ssr:stedsnr" v="612745" />
	</node>
	<node lat="60.278374996462105" lon="6.031455557035866" id="-72946">
		<tag k="fixme" v="consider place=hamlet" />
		<tag k="name" v="Brekke" />
		<tag k="place" v="farm" />
		<tag k="ssr:stedsnr" v="612898" />
	</node>
	<node lat="60.37700000022047" lon="6.158405554351259" id="-72965">
		<tag k="name" v="Kriken" />
		<tag k="place" v="farm" />
		<tag k="ssr:stedsnr" v="650182" />
	</node>
	<node lat="60.43004444517194" lon="6.406352775358792" id="-72977">
		<tag k="name" v="Vikedal" />
		<tag k="place" v="farm" />
		<tag k="ssr:stedsnr" v="651473" />
	</node>
	<node lat="60.359287237792444" lon="6.072190967168093" id="-72985">
		<tag k="name" v="Byrkjeland" />
		<tag k="place" v="hamlet" />
		<tag k="ssr:stedsnr" v="651768" />
	</node>
	<node lat="60.344850002465684" lon="6.207811115704991" id="-72987">
		<tag k="name" v="Nesland" />
		<tag k="place" v="farm" />
		<tag k="ssr:stedsnr" v="651856" />
	</node>
	<node lat="60.38503333482782" lon="6.195747230489446" id="-72995">
		<tag k="name" v="Nedre Vik" />
		<tag k="place" v="quarter" />
		<tag k="ssr:stedsnr" v="665334" />
	</node>
	<node lat="60.409353774679786" lon="6.242006811626565" id="-73009">
		<tag k="name" v="Nylebø" />
		<tag k="place" v="farm" />
		<tag k="ssr:stedsnr" v="712022" />
	</node>
	<node lat="60.26620116558994" lon="6.010371364090971" id="-73010">
		<tag k="fixme" v="consider place=hamlet" />
		<tag k="name" v="Nedre Bru" />
		<tag k="place" v="farm" />
		<tag k="ssr:stedsnr" v="712640" />
	</node>
	<node lat="60.29139722234171" lon="6.169461103214337" id="-73015">
		<tag k="name" v="Solheim" />
		<tag k="place" v="farm" />
		<tag k="ssr:stedsnr" v="712609" />
	</node>
	<node lat="60.389884539087944" lon="6.2219644142212305" id="-73021">
		<tag k="fixme" v="consider place=hamlet" />
		<tag k="name" v="Hellestveit" />
		<tag k="place" v="farm" />
		<tag k="ssr:stedsnr" v="733177" />
	</node>
	<node lat="60.443891669153295" lon="6.429900001217731" id="-73023">
		<tag k="name" v="Oskarborg" />
		<tag k="place" v="isolated_dwelling" />
		<tag k="ssr:stedsnr" v="733229" />
	</node>
	<node lat="60.477502774576436" lon="6.209405554807596" id="-73030">
		<tag k="alt_name" v="Kannikkeberg" />
		<tag k="fixme" v="consider place=hamlet" />
		<tag k="name" v="Kannikeberg" />
		<tag k="place" v="farm" />
		<tag k="ssr:stedsnr" v="733378" />
	</node>
	<node lat="60.217386107416594" lon="5.97234166449384" id="-73035">
		<tag k="fixme" v="consider place=hamlet" />
		<tag k="name" v="Omastranda" />
		<tag k="place" v="village" />
		<tag k="ssr:stedsnr" v="733480" />
	</node>
	<node lat="60.36850832999305" lon="6.17878610873016" id="-73046">
		<tag k="name" v="Skipadalen" />
		<tag k="place" v="farm" />
		<tag k="ssr:stedsnr" v="733605" />
	</node>
	<node lat="60.37046388476203" lon="6.1050500032561414" id="-73049">
		<tag k="fixme" v="consider place=hamlet" />
		<tag k="name" v="Øvsthus" />
		<tag k="place" v="farm" />
		<tag k="ssr:stedsnr" v="733619" />
	</node>
	<node lat="60.37212500327306" lon="6.064291664142531" id="-73050">
		<tag k="historic" v="shieling" />
		<tag k="name" v="Furekamben" />
		<tag k="place" v="isolated_dwelling" />
		<tag k="ssr:stedsnr" v="733620" />
	</node>
	<node lat="60.31654166882573" lon="6.168983341105815" id="-73055">
		<tag k="name" v="Liland" />
		<tag k="place" v="farm" />
		<tag k="ssr:stedsnr" v="733979" />
	</node>
	<node lat="60.36481388973711" lon="6.146569441875072" id="-73056">
		<tag k="fixme" v="consider place=hamlet" />
		<tag k="name" v="Kaldestad" />
		<tag k="place" v="farm" />
		<tag k="ssr:stedsnr" v="734652" />
	</node>
	<node lat="60.366230554178664" lon="6.172858333622584" id="-73059">
		<tag k="fixme" v="consider place=hamlet" />
		<tag k="name" v="Valland" />
		<tag k="place" v="farm" />
		<tag k="ssr:stedsnr" v="734659" />
	</node>
	<node lat="60.345947221205506" lon="6.179416670240185" id="-73121">
		<tag k="name" v="Laupsa" />
		<tag k="place" v="quarter" />
		<tag k="ssr:stedsnr" v="786283" />
	</node>
	<node lat="60.363405558707726" lon="6.1719055504807345" id="-73122">
		<tag k="name" v="Holmsund" />
		<tag k="place" v="farm" />
		<tag k="ssr:stedsnr" v="788693" />
	</node>
	<node lat="60.388391662845095" lon="6.247516667506901" id="-73130">
		<tag k="fixme" v="consider place=hamlet" />
		<tag k="name" v="Melstveit" />
		<tag k="place" v="farm" />
		<tag k="ssr:stedsnr" v="794163" />
	</node>
	<node lat="60.326533334926815" lon="6.200280555633916" id="-73132">
		<tag k="name" v="Hamre" />
		<tag k="place" v="farm" />
		<tag k="ssr:stedsnr" v="794490" />
	</node>
	<node lat="60.32606110684886" lon="5.961819449221472" id="-73134">
		<tag k="historic" v="shieling" />
		<tag k="name" v="Kviteberg" />
		<tag k="place" v="isolated_dwelling" />
		<tag k="ssr:stedsnr" v="794500" />
	</node>
	<node lat="60.35016111146045" lon="6.03431943913301" id="-73137">
		<tag k="historic" v="shieling" />
		<tag k="name" v="Netelandsstølen" />
		<tag k="place" v="isolated_dwelling" />
		<tag k="ssr:stedsnr" v="794595" />
	</node>
	<node lat="60.354974996314034" lon="6.00640832668551" id="-73138">
		<tag k="historic" v="shieling" />
		<tag k="name" v="Svartaberg" />
		<tag k="place" v="isolated_dwelling" />
		<tag k="ssr:stedsnr" v="794598" />
	</node>
	<node lat="60.36827500371104" lon="6.111338894095811" id="-73150">
		<tag k="name" v="Mo" />
		<tag k="place" v="farm" />
		<tag k="ssr:stedsnr" v="794658" />
	</node>
	<node lat="60.28503333623711" lon="6.180430560331319" id="-73159">
		<tag k="name" v="Eidesvågen" />
		<tag k="place" v="farm" />
		<tag k="ssr:stedsnr" v="794843" />
	</node>
	<node lat="60.31115833195886" lon="6.054858340558895" id="-73169">
		<tag k="historic" v="shieling" />
		<tag k="name" v="Nipe" />
		<tag k="place" v="isolated_dwelling" />
		<tag k="ssr:stedsnr" v="794960" />
	</node>
	<node lat="60.51271111270461" lon="6.075175001783311" id="-73171">
		<tag k="historic" v="shieling" />
		<tag k="name" v="Lii" />
		<tag k="place" v="isolated_dwelling" />
		<tag k="ssr:stedsnr" v="795771" />
	</node>
	<node lat="60.50304999885155" lon="6.120530551854464" id="-73172">
		<tag k="alt_name" v="Hamlagrø, søre" />
		<tag k="historic" v="shieling" />
		<tag k="name" v="Søre Hamlagrø" />
		<tag k="place" v="isolated_dwelling" />
		<tag k="ssr:stedsnr" v="795773" />
	</node>
	<node lat="60.41815000343102" lon="6.37874166174386" id="-73185">
		<tag k="name" v="Klungerstykket" />
		<tag k="place" v="farm" />
		<tag k="ssr:stedsnr" v="833048" />
	</node>
	<node lat="60.40841666494568" lon="6.162283340954109" id="-73192">
		<tag k="name" v="Klubben" />
		<tag k="place" v="farm" />
		<tag k="ssr:stedsnr" v="833170" />
	</node>
	<node lat="60.444600003892" lon="6.491002774821443" id="-73200">
		<tag k="name" v="Floten" />
		<tag k="place" v="farm" />
		<tag k="ssr:stedsnr" v="833487" />
	</node>
	<node lat="60.418028732528505" lon="6.361246037187549" id="-73226">
		<tag k="fixme" v="consider place=hamlet" />
		<tag k="name" v="Fosse" />
		<tag k="place" v="farm" />
		<tag k="ssr:stedsnr" v="855141" />
	</node>
	<node lat="60.40156666861058" lon="6.268925005574259" id="-73229">
		<tag k="fixme" v="consider place=hamlet" />
		<tag k="name" v="Fykse" />
		<tag k="place" v="farm" />
		<tag k="ssr:stedsnr" v="855178" />
	</node>
	<node lat="60.45410833414899" lon="6.49067500399359" id="-73238">
		<tag k="historic" v="shieling" />
		<tag k="name" v="Kjepsostølen" />
		<tag k="place" v="isolated_dwelling" />
		<tag k="ssr:stedsnr" v="855251" />
	</node>
	<node lat="60.32793333506515" lon="5.9891888863812826" id="-73244">
		<tag k="historic" v="shieling" />
		<tag k="name" v="Grønli" />
		<tag k="place" v="isolated_dwelling" />
		<tag k="ssr:stedsnr" v="855561" />
	</node>
	<node lat="60.345813887238194" lon="6.148513897095384" id="-73245">
		<tag k="historic" v="shieling" />
		<tag k="name" v="Gamlestølen" />
		<tag k="place" v="isolated_dwelling" />
		<tag k="ssr:stedsnr" v="855572" />
	</node>
	<node lat="60.34785000275043" lon="6.17176389737945" id="-73246">
		<tag k="name" v="Tueteigen" />
		<tag k="place" v="farm" />
		<tag k="ssr:stedsnr" v="855578" />
	</node>
	<node lat="60.26497222052761" lon="6.015183339757615" id="-73251">
		<tag k="name" v="Skorane" />
		<tag k="place" v="farm" />
		<tag k="ssr:stedsnr" v="855817" />
	</node>
	<node lat="60.30157778042365" lon="6.16908611762883" id="-73261">
		<tag k="fixme" v="consider place=hamlet" />
		<tag k="name" v="Tørvikbygd" />
		<tag k="place" v="village" />
		<tag k="ssr:stedsnr" v="855944" />
	</node>
	<node lat="60.313019441725274" lon="6.072880559351508" id="-73264">
		<tag k="historic" v="shieling" />
		<tag k="name" v="Koldal" />
		<tag k="place" v="isolated_dwelling" />
		<tag k="ssr:stedsnr" v="855980" />
	</node>
	<node lat="60.4070861088397" lon="6.200702780317265" id="-73285">
		<tag k="alt_name" v="Tegland" />
		<tag k="name" v="Nerebø" />
		<tag k="place" v="locality" />
		<tag k="ssr:stedsnr" v="942751" />
	</node>
	<node lat="60.409305555799385" lon="6.220313895011779" id="-73296">
		<tag k="name" v="Nymark" />
		<tag k="place" v="farm" />
		<tag k="ssr:stedsnr" v="954057" />
	</node>
	<node lat="60.35187777365086" lon="6.172802782787454" id="-73300">
		<tag k="name" v="Blyberg" />
		<tag k="place" v="farm" />
		<tag k="ssr:stedsnr" v="954031" />
	</node>
	<node lat="60.30465976880214" lon="6.166179782092588" id="-73328">
		<tag k="name" v="Hovden" />
		<tag k="place" v="quarter" />
		<tag k="ssr:stedsnr" v="982039" />
	</node>
	<node lat="60.32222957082098" lon="6.151301439747488" id="-73334">
		<tag k="name" v="Innitun" />
		<tag k="place" v="locality" />
		<tag k="ssr:stedsnr" v="985336" />
	</node>
	<node lat="60.39749491643148" lon="6.25961308214183" id="-73336">
		<tag k="name" v="Strandvik" />
		<tag k="place" v="farm" />
		<tag k="ssr:stedsnr" v="987881" />
	</node>
	<node lat="60.26022763819495" lon="6.072242590679397" id="-73337">
		<tag k="name" v="Linga" />
		<tag k="place" v="hamlet" />
		<tag k="ssr:stedsnr" v="987907" />
	</node>
	<node lat="60.27142963489593" lon="6.038077739883913" id="-73338">
		<tag k="name" v="Fosse" />
		<tag k="place" v="hamlet" />
		<tag k="ssr:stedsnr" v="987913" />
	</node>
	<node lat="60.29576823498832" lon="6.019153870921269" id="-73339">
		<tag k="name" v="Haukås" />
		<tag k="place" v="hamlet" />
		<tag k="ssr:stedsnr" v="987914" />
	</node>
	<node lat="60.27088975249116" lon="6.011565080039189" id="-73340">
		<tag k="fixme" v="consider place=hamlet" />
		<tag k="name" v="Strandebarm" />
		<tag k="place" v="village" />
		<tag k="ssr:stedsnr" v="990324" />
	</node>
</osm>
