<?xml version="1.0" encoding="UTF-8"?>
<osm version="0.6" generator="osmapis">
	<node lat="60.27032499863019" lon="6.109730551348974" id="-34351">
		<tag k="highway" v="path" />
		<tag k="name" v="Ivarstigen" />
		<tag k="ssr:stedsnr" v="248839" />
	</node>
	<node lat="60.2930972211741" lon="6.017922231301149" id="-34393">
		<tag k="bridge" v="yes" />
		<tag k="layer" v="1" />
		<tag k="name" v="Svartavass" />
		<tag k="ssr:stedsnr" v="108133" />
	</node>
	<node lat="60.474858332473666" lon="6.086699998779889" id="-34401">
		<tag k="highway" v="path" />
		<tag k="name" v="Vending" />
		<tag k="ssr:stedsnr" v="126359" />
	</node>
	<node lat="60.38395555766014" lon="6.165530550677586" id="-34525">
		<tag k="bridge" v="yes" />
		<tag k="layer" v="1" />
		<tag k="name" v="Mo" />
		<tag k="ssr:stedsnr" v="229133" />
	</node>
	<node lat="60.170325003684354" lon="5.8958305637128765" id="-34526">
		<tag k="name" v="Grind" />
		<tag k="place" v="locality" />
		<tag k="ssr:stedsnr" v="450301" />
	</node>
	<node lat="60.31252777624498" lon="6.015886115661584" id="-34604">
		<tag k="alt_name" v="Breidavad" />
		<tag k="ford" v="yes" />
		<tag k="name" v="Breiavad" />
		<tag k="place" v="locality" />
		<tag k="ssr:stedsnr" v="287749" />
	</node>
	<node lat="60.36440555438168" lon="6.151091662548535" id="-34684">
		<tag k="bridge" v="yes" />
		<tag k="layer" v="1" />
		<tag k="name" v="Kallestad" />
		<tag k="ssr:stedsnr" v="471126" />
	</node>
	<node lat="60.39702222103265" lon="6.272416664970116" id="-34685">
		<tag k="bridge" v="yes" />
		<tag k="layer" v="1" />
		<tag k="name" v="Klyve" />
		<tag k="ssr:stedsnr" v="471127" />
	</node>
	<node lat="60.389505557335774" lon="6.193330556694195" id="-34689">
		<tag k="bridge" v="yes" />
		<tag k="layer" v="1" />
		<tag k="name" v="Vik" />
		<tag k="ssr:stedsnr" v="472146" />
	</node>
	<node lat="60.443150002292576" lon="6.4431750063261655" id="-34792">
		<tag k="barrier" v="toll_booth" />
		<tag k="name" v="Krossfura" />
		<tag k="ssr:stedsnr" v="490227" />
	</node>
	<node lat="60.134013889500245" lon="5.896874994949531" id="-34996">
		<tag k="bridge" v="yes" />
		<tag k="layer" v="1" />
		<tag k="name" v="Gravdal" />
		<tag k="ssr:stedsnr" v="471125" />
	</node>
	<node lat="60.28681944177482" lon="6.034019447484415" id="-35062">
		<tag k="name" v="Velte" />
		<tag k="place" v="locality" />
		<tag k="ssr:stedsnr" v="530577" />
	</node>
	<node lat="60.389413884883595" lon="6.130536111963548" id="-35253">
		<tag k="ford" v="yes" />
		<tag k="name" v="Ryssevad" />
		<tag k="place" v="locality" />
		<tag k="ssr:stedsnr" v="894224" />
	</node>
	<node lat="60.16418055224284" lon="5.908772230062368" id="-35280">
		<tag k="bridge" v="yes" />
		<tag k="layer" v="1" />
		<tag k="name" v="Mundheim Nedre" />
		<tag k="ssr:stedsnr" v="897131" />
	</node>
	<node lat="60.21665832912896" lon="5.971211106043562" id="-35281">
		<tag k="bridge" v="yes" />
		<tag k="layer" v="1" />
		<tag k="name" v="Oma" />
		<tag k="ssr:stedsnr" v="897134" />
	</node>
	<node lat="60.377002780653164" lon="5.988969440118349" id="-35282">
		<tag k="bridge" v="yes" />
		<tag k="layer" v="1" />
		<tag k="name" v="Røyro" />
		<tag k="ssr:stedsnr" v="897135" />
	</node>
	<node lat="60.38235833189846" lon="6.234327777732238" id="-35283">
		<tag k="bridge" v="yes" />
		<tag k="layer" v="1" />
		<tag k="name" v="Laupsa" />
		<tag k="ssr:stedsnr" v="897139" />
	</node>
	<node lat="60.38613888962933" lon="6.200044441363546" id="-35284">
		<tag k="bridge" v="yes" />
		<tag k="layer" v="1" />
		<tag k="name" v="Øystese" />
		<tag k="ssr:stedsnr" v="897148" />
	</node>
	<node lat="60.16474721910186" lon="5.908869448750541" id="-35384">
		<tag k="bridge" v="yes" />
		<tag k="layer" v="1" />
		<tag k="name" v="Mundheim Øvre" />
		<tag k="ssr:stedsnr" v="775116" />
	</node>
	<node lat="60.27025833258599" lon="6.038386113973543" id="-35385">
		<tag k="bridge" v="yes" />
		<tag k="layer" v="1" />
		<tag k="name" v="Litlefosse" />
		<tag k="ssr:stedsnr" v="775120" />
	</node>
	<node lat="60.2594055600694" lon="6.148900008625538" id="-35498">
		<tag k="highway" v="path" />
		<tag k="name" v="Dyrastien" />
		<tag k="ssr:stedsnr" v="833632" />
	</node>
	<node lat="60.4083527809956" lon="6.217530554470346" id="-35501">
		<tag k="bridge" v="yes" />
		<tag k="layer" v="1" />
		<tag k="name" v="Skore" />
		<tag k="ssr:stedsnr" v="836105" />
	</node>
	<node lat="60.270044826041" lon="6.0104966022333635" id="-35573">
		<tag k="bridge" v="yes" />
		<tag k="layer" v="1" />
		<tag k="name" v="Bru" />
		<tag k="ssr:stedsnr" v="896108" />
	</node>
	<node lat="60.41168888764839" lon="6.355991671634425" id="-35626">
		<tag k="bridge" v="yes" />
		<tag k="layer" v="1" />
		<tag k="name" v="Salbustad" />
		<tag k="ssr:stedsnr" v="958147" />
	</node>
	<node lat="60.30078201069229" lon="6.171893719673406" id="-35627">
		<tag k="amenity" v="ferry_terminal" />
		<tag k="name" v="Tørvikbygd ferjekai" />
		<tag k="ssr:stedsnr" v="978600" />
	</node>
	<node lat="60.41529721942892" lon="6.386749994334908" id="-35640">
		<tag k="bridge" v="yes" />
		<tag k="layer" v="1" />
		<tag k="name" v="Tveit" />
		<tag k="ssr:stedsnr" v="229148" />
	</node>
	<node lat="60.36089722035076" lon="6.089819445410628" id="-35731">
		<tag k="bridge" v="yes" />
		<tag k="layer" v="1" />
		<tag k="name" v="Træbakkelv" />
		<tag k="ssr:stedsnr" v="47143" />
	</node>
	<node lat="60.41061667001832" lon="6.3538138819036485" id="-35732">
		<tag k="bridge" v="yes" />
		<tag k="layer" v="1" />
		<tag k="name" v="Bjørndøla" />
		<tag k="ssr:stedsnr" v="229125" />
	</node>
	<node lat="60.36348610745049" lon="6.095380560959717" id="-35822">
		<tag k="bridge" v="yes" />
		<tag k="layer" v="1" />
		<tag k="name" v="Tronesgjel" />
		<tag k="ssr:stedsnr" v="108137" />
	</node>
	<node lat="60.41892222101174" lon="6.155561112094923" id="-35827">
		<tag k="highway" v="path" />
		<tag k="name" v="Kløvet" />
		<tag k="ssr:stedsnr" v="126485" />
	</node>
	<node lat="60.5313999993248" lon="6.22257223050803" id="-35898">
		<tag k="highway" v="path" />
		<tag k="name" v="Smalastigen" />
		<tag k="ssr:stedsnr" v="165389" />
	</node>
	<node lat="60.14841666624512" lon="5.883263883615255" id="-35964">
		<tag k="highway" v="path" />
		<tag k="name" v="Geitastigen" />
		<tag k="ssr:stedsnr" v="207213" />
	</node>
	<node lat="60.18950555379117" lon="5.945883340716159" id="-36027">
		<tag k="ford" v="yes" />
		<tag k="name" v="Stokkavae" />
		<tag k="place" v="locality" />
		<tag k="ssr:stedsnr" v="286376" />
	</node>
	<node lat="60.32637777998385" lon="6.200652783979159" id="-36055">
		<tag k="bridge" v="yes" />
		<tag k="layer" v="1" />
		<tag k="name" v="Vangdal" />
		<tag k="ssr:stedsnr" v="290152" />
	</node>
	<node lat="60.369180554357854" lon="6.103447229304804" id="-36056">
		<tag k="bridge" v="yes" />
		<tag k="layer" v="1" />
		<tag k="name" v="Steinsdalen" />
		<tag k="ssr:stedsnr" v="290159" />
	</node>
	<node lat="60.16421111500767" lon="5.911702772583657" id="-36171">
		<tag k="bridge" v="yes" />
		<tag k="layer" v="1" />
		<tag k="name" v="Skarvebekken" />
		<tag k="ssr:stedsnr" v="350131" />
	</node>
	<node lat="60.36576944352692" lon="6.087311102127617" id="-36172">
		<tag k="bridge" v="yes" />
		<tag k="layer" v="1" />
		<tag k="name" v="Skeie" />
		<tag k="ssr:stedsnr" v="350132" />
	</node>
	<node lat="60.31363611083292" lon="6.141111110106828" id="-36204">
		<tag k="barrier" v="toll_booth" />
		<tag k="name" v="Kvitingabakka" />
		<tag k="ssr:stedsnr" v="369933" />
	</node>
	<node lat="60.367847616989856" lon="6.279745024960443" id="-36222">
		<tag k="landuse" v="harbour" />
		<tag k="name" v="Havnen" />
		<tag k="seamark:type" v="harbour" />
		<tag k="ssr:stedsnr" v="408036" />
	</node>
	<node lat="60.2210388922921" lon="5.979897224408873" id="-36250">
		<tag k="bridge" v="yes" />
		<tag k="layer" v="1" />
		<tag k="name" v="Gjerde" />
		<tag k="ssr:stedsnr" v="411132" />
	</node>
	<node lat="60.36980555549283" lon="6.116211115021921" id="-36251">
		<tag k="bridge" v="yes" />
		<tag k="layer" v="1" />
		<tag k="name" v="Mo Øvre" />
		<tag k="ssr:stedsnr" v="411136" />
	</node>
	<node lat="60.3595111111326" lon="6.0838694367043" id="-36252">
		<tag k="bridge" v="yes" />
		<tag k="layer" v="1" />
		<tag k="name" v="Nitun" />
		<tag k="ssr:stedsnr" v="411137" />
	</node>
	<node lat="60.18684167101808" lon="5.956150001584424" id="-36253">
		<tag k="bridge" v="yes" />
		<tag k="layer" v="1" />
		<tag k="name" v="Horn" />
		<tag k="ssr:stedsnr" v="411139" />
	</node>
	<node lat="60.403522218126604" lon="6.211572214598145" id="-36343">
		<tag k="bridge" v="yes" />
		<tag k="layer" v="1" />
		<tag k="name" v="Soldal" />
		<tag k="ssr:stedsnr" v="533140" />
	</node>
	<node lat="60.43688611473894" lon="6.4336805508643025" id="-36398">
		<tag k="highway" v="path" />
		<tag k="name" v="Hellerstien" />
		<tag k="ssr:stedsnr" v="590286" />
	</node>
	<node lat="60.210566666545304" lon="5.962258324879146" id="-36506">
		<tag k="bridge" v="yes" />
		<tag k="layer" v="1" />
		<tag k="name" v="Tresnes" />
		<tag k="ssr:stedsnr" v="654124" />
	</node>
	<node lat="60.254494443945994" lon="6.109105549902887" id="-36507">
		<tag k="bridge" v="yes" />
		<tag k="layer" v="1" />
		<tag k="name" v="Røyrvik" />
		<tag k="ssr:stedsnr" v="654129" />
	</node>
	<node lat="60.254433330861296" lon="6.006911113701743" id="-36529">
		<tag k="bridge" v="yes" />
		<tag k="layer" v="1" />
		<tag k="name" v="Risa" />
		<tag k="ssr:stedsnr" v="715134" />
	</node>
	<node lat="60.39680833534291" lon="5.917300007480816" id="-36625">
		<tag k="bridge" v="yes" />
		<tag k="layer" v="1" />
		<tag k="name" v="Teigen" />
		<tag k="ssr:stedsnr" v="775124" />
	</node>
	<node lat="60.37165000131884" lon="6.01609721418122" id="-36626">
		<tag k="bridge" v="yes" />
		<tag k="layer" v="1" />
		<tag k="name" v="Skarbekk" />
		<tag k="ssr:stedsnr" v="775128" />
	</node>
	<node lat="60.41457499721703" lon="6.366980556252925" id="-36627">
		<tag k="bridge" v="yes" />
		<tag k="layer" v="1" />
		<tag k="name" v="Ålvik Ytre" />
		<tag k="ssr:stedsnr" v="775134" />
	</node>
	<node lat="60.37448333020318" lon="6.010055553738695" id="-36731">
		<tag k="bridge" v="yes" />
		<tag k="layer" v="1" />
		<tag k="name" v="Kvennsvoll" />
		<tag k="ssr:stedsnr" v="836098" />
	</node>
	<node lat="60.246947226148706" lon="6.003016664628108" id="-36830">
		<tag k="bridge" v="yes" />
		<tag k="layer" v="1" />
		<tag k="name" v="Børsheim" />
		<tag k="ssr:stedsnr" v="957119" />
	</node>
	<node lat="60.18975833381797" lon="5.9574277823703" id="-36831">
		<tag k="bridge" v="yes" />
		<tag k="layer" v="1" />
		<tag k="name" v="Eikeneset" />
		<tag k="ssr:stedsnr" v="957120" />
	</node>
	<node lat="60.157902779234625" lon="5.8994083398980175" id="-36832">
		<tag k="bridge" v="yes" />
		<tag k="layer" v="1" />
		<tag k="name" v="Kvitelva" />
		<tag k="ssr:stedsnr" v="957132" />
	</node>
</osm>
