<?xml version="1.0" encoding="UTF-8"?>
<osm version="0.6" generator="osmapis">
	<node lat="60.43467777620479" lon="6.431008339675208" id="-68058">
		<tag k="alt_name" v="Ålvik" />
		<tag k="amenity" v="place_of_worship" />
		<tag k="denomination" v="lutheran" />
		<tag k="name" v="Ålvik kyrkje" />
		<tag k="religion" v="christian" />
		<tag k="ssr:stedsnr" v="66219" />
	</node>
	<node lat="60.34909713000066" lon="6.176363421327709" id="-68111">
		<tag k="alt_name" v="Vikøy" />
		<tag k="amenity" v="place_of_worship" />
		<tag k="denomination" v="lutheran" />
		<tag k="name" v="Vikøy kyrkje" />
		<tag k="religion" v="christian" />
		<tag k="ssr:stedsnr" v="248595" />
	</node>
	<node lat="60.387927778295015" lon="5.963913894090047" id="-68119">
		<tag k="amenity" v="community_centre" />
		<tag k="name" v="Jonshøgdi" />
		<tag k="ssr:stedsnr" v="248733" />
	</node>
	<node lat="60.38934722165504" lon="6.067755558211805" id="-69663">
		<tag k="name" v="Sælesete" />
		<tag k="place" v="locality" />
		<tag k="ssr:stedsnr" v="126678" />
	</node>
	<node lat="60.269394447511296" lon="6.013188882119092" id="-69669">
		<tag k="alt_name" v="Strandebarm" />
		<tag k="amenity" v="place_of_worship" />
		<tag k="denomination" v="lutheran" />
		<tag k="name" v="Strandebarm kyrkje" />
		<tag k="religion" v="christian" />
		<tag k="ssr:stedsnr" v="126787" />
	</node>
	<node lat="60.3876499996597" lon="6.203147215015073" id="-70369">
		<tag k="alt_name" v="Øystese" />
		<tag k="amenity" v="place_of_worship" />
		<tag k="denomination" v="lutheran" />
		<tag k="name" v="Øystese kyrkje" />
		<tag k="religion" v="christian" />
		<tag k="ssr:stedsnr" v="733641" />
	</node>
	<node lat="60.36850199892604" lon="6.143845927260753" id="-70844">
		<tag k="amenity" v="place_of_worship" />
		<tag k="fixme" v="specify religion=*, denomination=*, building=* etc" />
		<tag k="name" v="Norheimsund kyrkje" />
		<tag k="ssr:stedsnr" v="1079649" />
	</node>
</osm>
