<?xml version="1.0" encoding="UTF-8"?>
<<<<<<< HEAD
<osm version="0.6" generator="osmapis">
	<node lat="60.437335130003206" lon="5.967259711699998" id="-27975">
		<tag k="name" v="Kråketjørna" />
		<tag k="natural" v="water" />
		<tag k="ssr:stedsnr" v="5409" />
	</node>
	<node lat="60.42147777394022" lon="6.174541669564108" id="-27976">
		<tag k="name" v="Krossnes" />
=======
<osm generator="osmapis" version="0.6">
	<node id="-628735" lat="60.5069027816" lon="6.01937778597">
		<tag k="alt_name" v="Moagjeltjørni" />
		<tag k="name" v="Moagjelsvatnet" />
		<tag k="natural" v="water" />
		<tag k="ssr:stedsnr" v="188982" />
	</node>
	<node id="-628729" lat="60.3250655186" lon="6.10966697622">
		<tag k="name" v="Finnhellersvatnet" />
		<tag k="natural" v="water" />
		<tag k="ssr:stedsnr" v="188562" />
		<tag k="water" v="lake" />
	</node>
	<node id="-628719" lat="60.3113325562" lon="6.03445339602">
		<tag k="name" v="Eikhaugtjørn" />
		<tag k="natural" v="water" />
		<tag k="ssr:stedsnr" v="187936" />
	</node>
	<node id="-628717" lat="60.2903222262" lon="6.01091666891">
		<tag k="name" v="Svartavatnet" />
		<tag k="natural" v="water" />
		<tag k="ssr:stedsnr" v="187910" />
	</node>
	<node id="-628716" lat="60.2893277744" lon="5.98791389113">
		<tag k="name" v="Strandadalselva" />
		<tag k="ssr:stedsnr" v="187907" />
		<tag k="waterway" v="river" />
	</node>
	<node id="-628708" lat="60.4028750029" lon="6.09661110688">
		<tag k="name" v="Kalderassen" />
		<tag k="natural" v="water" />
		<tag k="ssr:stedsnr" v="187719" />
	</node>
	<node id="-628706" lat="60.3979666632" lon="6.04943611069">
		<tag k="name" v="Sunnvoredalsvatnet" />
		<tag k="natural" v="water" />
		<tag k="ssr:stedsnr" v="187703" />
	</node>
	<node id="-628690" lat="60.3351388865" lon="6.03756943795">
		<tag k="name" v="Smørlaupen" />
		<tag k="place" v="locality" />
		<tag k="ssr:stedsnr" v="187522" />
	</node>
	<node id="-628687" lat="60.1827353278" lon="5.91782644556">
		<tag k="name" v="Vatnadalsvatnet" />
		<tag k="natural" v="water" />
		<tag k="ssr:stedsnr" v="187504" />
	</node>
	<node id="-628686" lat="60.4182519647" lon="6.04036241577">
		<tag k="name" v="Fotasperrtjørna" />
		<tag k="natural" v="water" />
		<tag k="ssr:stedsnr" v="187464" />
	</node>
	<node id="-628685" lat="60.4118611175" lon="6.01666588463">
		<tag k="fixme" v="multiple name tags, choose one and add the other to alt_name" />
		<tag k="name" v="Øvra Kvanndalsvatnet;Øvra Steinskvanndalsvatnet" />
		<tag k="natural" v="water" />
		<tag k="ssr:stedsnr" v="187463" />
	</node>
	<node id="-628682" lat="60.430630555" lon="6.14937499203">
		<tag k="name" v="Storaelvi" />
		<tag k="ssr:stedsnr" v="187421" />
		<tag k="waterway" v="stream" />
	</node>
	<node id="-628679" lat="60.4315990365" lon="6.11203318584">
		<tag k="name" v="Vetlavatn" />
		<tag k="natural" v="water" />
		<tag k="ssr:stedsnr" v="187378" />
	</node>
	<node id="-627019" lat="60.2651722229" lon="6.17559165825">
		<tag k="name" v="Bjørgjena" />
		<tag k="natural" v="bay" />
		<tag k="ssr:stedsnr" v="226924" />
	</node>
	<node id="-628670" lat="60.4406138885" lon="6.44429722571">
		<tag k="name" v="Båsgjelselva" />
		<tag k="ssr:stedsnr" v="187226" />
		<tag k="waterway" v="river" />
	</node>
	<node id="-628662" lat="60.430088891" lon="5.98081388061">
		<tag k="name" v="Stegafossen" />
		<tag k="natural" v="waterfall" />
		<tag k="ssr:stedsnr" v="165849" />
	</node>
	<node id="-628656" lat="60.3057333339" lon="6.02293054901">
		<tag k="name" v="Krokholm" />
>>>>>>> e1d4bc35ff8a6074a6f2e91616a996b547c36f15
		<tag k="natural" v="cape" />
		<tag k="ssr:stedsnr" v="5468" />
	</node>
<<<<<<< HEAD
	<node lat="60.34713610991557" lon="6.1363472256114475" id="-27983">
		<tag k="name" v="Lende" />
		<tag k="place" v="locality" />
		<tag k="ssr:stedsnr" v="5565" />
	</node>
	<node lat="60.34549130123693" lon="6.123859968951291" id="-27984">
		<tag k="alt_name" v="Krokavatn" />
		<tag k="name" v="Krokavatnet" />
		<tag k="natural" v="water" />
		<tag k="ssr:stedsnr" v="5568" />
		<tag k="water" v="lake" />
	</node>
	<node lat="60.342036739711816" lon="5.969765110745826" id="-27986">
		<tag k="name" v="Svartatjørna" />
=======
	<node id="-627016" lat="60.3639861093" lon="5.93719444793">
		<tag k="name" v="Kvanngrø" />
		<tag k="ssr:stedsnr" v="226911" />
		<tag k="waterway" v="stream" />
	</node>
	<node id="-628618" lat="60.5226234331" lon="6.22622250932">
		<tag k="alt_name" v="Sangrevatn" />
		<tag k="name" v="Songrøvatnet" />
		<tag k="natural" v="water" />
		<tag k="ssr:stedsnr" v="128489" />
	</node>
	<node id="-628617" lat="60.511688888" lon="6.12774443886">
		<tag k="alt_name" v="Kyrkjevik" />
		<tag k="name" v="Kyrkjeviki" />
		<tag k="natural" v="bay" />
		<tag k="ssr:stedsnr" v="127801" />
	</node>
	<node id="-628616" lat="60.4771941017" lon="6.27018353171">
		<tag k="name" v="Varlivatnet" />
>>>>>>> e1d4bc35ff8a6074a6f2e91616a996b547c36f15
		<tag k="natural" v="water" />
		<tag k="ssr:stedsnr" v="5578" />
	</node>
<<<<<<< HEAD
	<node lat="60.39297006014208" lon="6.110656969809808" id="-28015">
		<tag k="name" v="Forsetfossen" />
		<tag k="natural" v="waterfall" />
		<tag k="ssr:stedsnr" v="44304" />
	</node>
	<node lat="60.41403055174095" lon="5.953730552735129" id="-28028">
		<tag k="name" v="Flugeholmen" />
		<tag k="place" v="islet" />
		<tag k="ssr:stedsnr" v="44803" />
	</node>
	<node lat="60.46151501262697" lon="6.158204776426286" id="-28043">
		<tag k="name" v="Håstabbetjørn" />
=======
	<node id="-628615" lat="60.4821102259" lon="6.30798396289">
		<tag k="name" v="Jaradalsvatnet" />
		<tag k="natural" v="water" />
		<tag k="ssr:stedsnr" v="127796" />
	</node>
	<node id="-628614" lat="60.5146333312" lon="6.1031749936">
		<tag k="name" v="Dyraneset" />
		<tag k="natural" v="cape" />
		<tag k="ssr:stedsnr" v="127794" />
	</node>
	<node id="-628613" lat="60.4912762617" lon="6.27851000257">
		<tag k="alt_name" v="Torfinnsvatnet, vetla" />
		<tag k="name" v="Vetla Torfinnsvatnet" />
>>>>>>> e1d4bc35ff8a6074a6f2e91616a996b547c36f15
		<tag k="natural" v="water" />
		<tag k="ssr:stedsnr" v="66371" />
	</node>
<<<<<<< HEAD
	<node lat="60.33790833530896" lon="6.073880550761586" id="-28049">
		<tag k="name" v="Gullvotnevatnet" />
=======
	<node id="-628604" lat="60.3104111126" lon="5.9517361042">
		<tag k="name" v="Vetlavatnet" />
>>>>>>> e1d4bc35ff8a6074a6f2e91616a996b547c36f15
		<tag k="natural" v="water" />
		<tag k="ssr:stedsnr" v="66508" />
	</node>
<<<<<<< HEAD
	<node lat="60.39934166893749" lon="6.1780611116459125" id="-28052">
		<tag k="name" v="Øysteseelva" />
		<tag k="ssr:stedsnr" v="66714" />
		<tag k="waterway" v="stream" />
	</node>
	<node lat="60.39412049605024" lon="5.987429914451997" id="-28053">
		<tag k="name" v="Tryglakleivtjørnane" />
=======
	<node id="-628601" lat="60.3086604611" lon="6.16018527235">
		<tag k="name" v="Bergsvatnet" />
		<tag k="natural" v="water" />
		<tag k="ssr:stedsnr" v="126959" />
	</node>
	<node id="-628597" lat="60.2857388869" lon="6.04964167492">
		<tag k="name" v="Eidesvatnet" />
>>>>>>> e1d4bc35ff8a6074a6f2e91616a996b547c36f15
		<tag k="natural" v="water" />
		<tag k="ssr:stedsnr" v="66717" />
		<tag k="water" v="lake" />
	</node>
<<<<<<< HEAD
	<node lat="60.374747225919855" lon="6.034247213746337" id="-28060">
		<tag k="name" v="Hjartåna" />
		<tag k="ssr:stedsnr" v="66647" />
		<tag k="waterway" v="river" />
	</node>
	<node lat="60.36308055748668" lon="5.987341658127481" id="-28061">
		<tag k="name" v="Hjeltelibekken" />
		<tag k="ssr:stedsnr" v="66649" />
		<tag k="waterway" v="stream" />
	</node>
	<node lat="60.38708611280514" lon="6.013430549500341" id="-28062">
		<tag k="name" v="Fljoto" />
		<tag k="ssr:stedsnr" v="66676" />
		<tag k="waterway" v="stream" />
	</node>
	<node lat="60.39024444561906" lon="6.132366667250054" id="-28063">
		<tag k="name" v="Sjusetevatnet" />
=======
	<node id="-628596" lat="60.2886416647" lon="6.1349305632">
		<tag k="name" v="Kvanndalselva" />
		<tag k="ssr:stedsnr" v="126874" />
		<tag k="waterway" v="stream" />
	</node>
	<node id="-628592" lat="60.2569833353" lon="5.98661666404">
		<tag k="name" v="Risaelva" />
		<tag k="ssr:stedsnr" v="126834" />
		<tag k="waterway" v="stream" />
	</node>
	<node id="-628590" lat="60.2649749994" lon="6.10660278418">
		<tag k="name" v="Knutsteinelva" />
		<tag k="ssr:stedsnr" v="126811" />
		<tag k="waterway" v="stream" />
	</node>
	<node id="-628583" lat="60.4065161967" lon="6.10715101107">
		<tag k="name" v="Nedra Jørstavatnet" />
>>>>>>> e1d4bc35ff8a6074a6f2e91616a996b547c36f15
		<tag k="natural" v="water" />
		<tag k="ssr:stedsnr" v="66693" />
		<tag k="water" v="lake" />
	</node>
<<<<<<< HEAD
	<node lat="60.262723688473486" lon="6.1152172238942155" id="-28064">
		<tag k="name" v="Vetlavatnet" />
=======
	<node id="-628575" lat="60.3761972214" lon="6.06758055574">
		<tag k="name" v="Teigatjørna" />
>>>>>>> e1d4bc35ff8a6074a6f2e91616a996b547c36f15
		<tag k="natural" v="water" />
		<tag k="ssr:stedsnr" v="66792" />
	</node>
<<<<<<< HEAD
	<node lat="60.10806110662335" lon="5.88354999793551" id="-28067">
		<tag k="alt_name" v="Træstjørn" />
		<tag k="name" v="Trædstjørna" />
=======
	<node id="-628572" lat="60.3734775808" lon="6.13367572487">
		<tag k="name" v="Movatnet" />
>>>>>>> e1d4bc35ff8a6074a6f2e91616a996b547c36f15
		<tag k="natural" v="water" />
		<tag k="ssr:stedsnr" v="66880" />
	</node>
<<<<<<< HEAD
	<node lat="60.45437500050348" lon="6.374561111433334" id="-28068">
		<tag k="name" v="Storavatnet" />
=======
	<node id="-628558" lat="60.4602359802" lon="6.09222542523">
		<tag k="name" v="Fugladalsvatnet" />
>>>>>>> e1d4bc35ff8a6074a6f2e91616a996b547c36f15
		<tag k="natural" v="water" />
		<tag k="ssr:stedsnr" v="67589" />
		<tag k="water" v="lake" />
	</node>
<<<<<<< HEAD
	<node lat="60.20991495280496" lon="5.914125829548945" id="-28077">
		<tag k="name" v="Vindfatetjørna" />
=======
	<node id="-628556" lat="60.474368322" lon="6.03634669188">
		<tag k="name" v="Søyevatnet" />
>>>>>>> e1d4bc35ff8a6074a6f2e91616a996b547c36f15
		<tag k="natural" v="water" />
		<tag k="ssr:stedsnr" v="247713" />
	</node>
<<<<<<< HEAD
	<node lat="60.22565278060541" lon="5.958824994698309" id="-28078">
		<tag k="name" v="Omaelva" />
		<tag k="ssr:stedsnr" v="247725" />
		<tag k="waterway" v="stream" />
	</node>
	<node lat="60.468569448962924" lon="6.508461113915166" id="-28082">
		<tag k="name" v="Bleia" />
		<tag k="ssr:stedsnr" v="248198" />
		<tag k="waterway" v="stream" />
	</node>
	<node lat="60.444852782322506" lon="6.296547223611129" id="-28088">
		<tag k="alt_name" v="Svartaputten;Pytten" />
		<tag k="name" v="Svartepytten" />
		<tag k="natural" v="water" />
		<tag k="ssr:stedsnr" v="248244" />
		<tag k="water" v="pond" />
	</node>
	<node lat="60.47849972661284" lon="6.019793765488724" id="-28090">
		<tag k="name" v="Kjerringadalsvatnet" />
=======
	<node id="-628554" lat="60.4705634262" lon="6.17638067125">
		<tag k="name" v="Langhaugetjørna" />
		<tag k="natural" v="water" />
		<tag k="ssr:stedsnr" v="126356" />
	</node>
	<node id="-628552" lat="60.44851944" lon="6.34024444024">
		<tag k="name" v="Dyranes" />
		<tag k="natural" v="cape" />
		<tag k="ssr:stedsnr" v="126235" />
	</node>
	<node id="-628551" lat="60.452150001" lon="6.43917500153">
		<tag k="name" v="Dalselvi" />
		<tag k="ssr:stedsnr" v="126234" />
		<tag k="waterway" v="river" />
	</node>
	<node id="-628549" lat="60.4703112723" lon="6.34627636125">
		<tag k="name" v="Vikavatnet" />
>>>>>>> e1d4bc35ff8a6074a6f2e91616a996b547c36f15
		<tag k="natural" v="water" />
		<tag k="ssr:stedsnr" v="248349" />
	</node>
<<<<<<< HEAD
	<node lat="60.361341667555934" lon="6.003830562392568" id="-28103">
		<tag k="name" v="Krokvassbekken" />
		<tag k="ssr:stedsnr" v="248647" />
		<tag k="waterway" v="stream" />
	</node>
	<node lat="60.47362101942535" lon="6.3516752569277095" id="-28113">
		<tag k="name" v="Kulo" />
		<tag k="natural" v="water" />
		<tag k="ssr:stedsnr" v="248787" />
	</node>
	<node lat="60.296122634657934" lon="6.154264395814778" id="-28116">
		<tag k="name" v="Vetlavatnet" />
		<tag k="natural" v="water" />
		<tag k="ssr:stedsnr" v="248888" />
	</node>
	<node lat="60.30201666880438" lon="6.058766661163119" id="-28120">
		<tag k="name" v="Fagersetelva" />
		<tag k="ssr:stedsnr" v="248930" />
		<tag k="waterway" v="stream" />
	</node>
	<node lat="60.365444444075635" lon="6.021074994972787" id="-28129">
		<tag k="name" v="Klubben" />
		<tag k="natural" v="cape" />
		<tag k="ssr:stedsnr" v="104797" />
	</node>
	<node lat="60.34672499842634" lon="6.126130554290407" id="-28137">
		<tag k="name" v="Langaneset" />
		<tag k="natural" v="cape" />
		<tag k="ssr:stedsnr" v="105172" />
	</node>
	<node lat="60.25989444186509" lon="6.107333334241067" id="-28144">
=======
	<node id="-628548" lat="60.4549277821" lon="6.34901666593">
		<tag k="name" v="Dyranes" />
		<tag k="place" v="islet" />
		<tag k="ssr:stedsnr" v="126188" />
	</node>
	<node id="-628537" lat="60.452550003" lon="6.00879166997">
		<tag k="name" v="Blankelvi" />
		<tag k="ssr:stedsnr" v="105833" />
		<tag k="waterway" v="river" />
	</node>
	<node id="-628530" lat="60.3600944453" lon="6.09190833202">
		<tag k="name" v="Hessgjelsbekken" />
		<tag k="ssr:stedsnr" v="105761" />
		<tag k="waterway" v="stream" />
	</node>
	<node id="-628524" lat="60.315216664" lon="6.02448055569">
		<tag k="name" v="Seglet" />
		<tag k="ssr:stedsnr" v="105735" />
		<tag k="waterway" v="stream" />
	</node>
	<node id="-628521" lat="60.2598944419" lon="6.10733333424">
>>>>>>> e1d4bc35ff8a6074a6f2e91616a996b547c36f15
		<tag k="name" v="Instavassvika" />
		<tag k="natural" v="bay" />
		<tag k="ssr:stedsnr" v="105624" />
	</node>
<<<<<<< HEAD
	<node lat="60.31521666396528" lon="6.024480555694196" id="-28150">
		<tag k="name" v="Seglet" />
		<tag k="ssr:stedsnr" v="105735" />
		<tag k="waterway" v="stream" />
	</node>
	<node lat="60.4525500029812" lon="6.008791669969592" id="-28153">
		<tag k="name" v="Blankelvi" />
		<tag k="ssr:stedsnr" v="105833" />
		<tag k="waterway" v="river" />
	</node>
	<node lat="60.470311272295646" lon="6.346276361248232" id="-28167">
		<tag k="name" v="Vikavatnet" />
		<tag k="natural" v="water" />
		<tag k="ssr:stedsnr" v="126199" />
	</node>
	<node lat="60.4705634261821" lon="6.176380671246728" id="-28168">
		<tag k="name" v="Langhaugetjørna" />
=======
	<node id="-628502" lat="60.3730833311" lon="6.14509722556">
		<tag k="name" v="Straumen" />
		<tag k="place" v="locality" />
		<tag k="ssr:stedsnr" v="105217" />
	</node>
	<node id="-628498" lat="60.3467249984" lon="6.12613055429">
		<tag k="name" v="Langaneset" />
		<tag k="natural" v="cape" />
		<tag k="ssr:stedsnr" v="105172" />
	</node>
	<node id="-628481" lat="60.3654444441" lon="6.02107499497">
		<tag k="name" v="Klubben" />
		<tag k="natural" v="cape" />
		<tag k="ssr:stedsnr" v="104797" />
	</node>
	<node id="-628469" lat="60.430752778" lon="6.38331387979">
		<tag k="name" v="Gåsatjørn" />
>>>>>>> e1d4bc35ff8a6074a6f2e91616a996b547c36f15
		<tag k="natural" v="water" />
		<tag k="ssr:stedsnr" v="126356" />
	</node>
<<<<<<< HEAD
	<node lat="60.26497499935564" lon="6.106602784180197" id="-28177">
		<tag k="name" v="Knutsteinelva" />
		<tag k="ssr:stedsnr" v="126811" />
		<tag k="waterway" v="stream" />
	</node>
	<node lat="60.51463333117495" lon="6.103174993604667" id="-28182">
		<tag k="name" v="Dyraneset" />
		<tag k="natural" v="cape" />
		<tag k="ssr:stedsnr" v="127794" />
	</node>
	<node lat="60.48211022594789" lon="6.3079839628938865" id="-28183">
		<tag k="name" v="Jaradalsvatnet" />
=======
	<node id="-628467" lat="60.4019166699" lon="5.91699722806">
		<tag k="name" v="Teigaelva" />
		<tag k="ssr:stedsnr" v="91636" />
		<tag k="waterway" v="river" />
	</node>
	<node id="-628464" lat="60.5173967785" lon="6.07512505015">
		<tag k="alt_name" v="Kjerringatjørn" />
		<tag k="name" v="Kjerringtjørni" />
>>>>>>> e1d4bc35ff8a6074a6f2e91616a996b547c36f15
		<tag k="natural" v="water" />
		<tag k="ssr:stedsnr" v="127796" />
	</node>
<<<<<<< HEAD
	<node lat="60.47719410171533" lon="6.2701835317149595" id="-28184">
		<tag k="name" v="Varlivatnet" />
=======
	<node id="-628460" lat="60.4543750005" lon="6.37456111143">
		<tag k="name" v="Storavatnet" />
>>>>>>> e1d4bc35ff8a6074a6f2e91616a996b547c36f15
		<tag k="natural" v="water" />
		<tag k="ssr:stedsnr" v="127797" />
	</node>
<<<<<<< HEAD
	<node lat="60.511688887950854" lon="6.127744438855675" id="-28185">
		<tag k="alt_name" v="Kyrkjevik" />
		<tag k="name" v="Kyrkjeviki" />
		<tag k="natural" v="bay" />
		<tag k="ssr:stedsnr" v="127801" />
	</node>
	<node lat="60.522623433114276" lon="6.2262225093194" id="-28188">
		<tag k="alt_name" v="Sangrevatn" />
		<tag k="name" v="Songrøvatnet" />
=======
	<node id="-628453" lat="60.3184472183" lon="6.00383610667">
		<tag k="name" v="Holsetevatnet" />
>>>>>>> e1d4bc35ff8a6074a6f2e91616a996b547c36f15
		<tag k="natural" v="water" />
		<tag k="ssr:stedsnr" v="128489" />
	</node>
<<<<<<< HEAD
	<node lat="60.241519443656294" lon="5.9667583258171915" id="-28192">
		<tag k="name" v="Lomatjørn" />
=======
	<node id="-628450" lat="60.3030083353" lon="6.03877777772">
		<tag k="name" v="Dalatjørna" />
>>>>>>> e1d4bc35ff8a6074a6f2e91616a996b547c36f15
		<tag k="natural" v="water" />
		<tag k="ssr:stedsnr" v="152716" />
	</node>
<<<<<<< HEAD
	<node lat="60.2753166707208" lon="6.163219445859997" id="-28218">
		<tag k="alt_name" v="Kalvhageneset" />
		<tag k="name" v="Kalhageneset" />
		<tag k="natural" v="cape" />
		<tag k="ssr:stedsnr" v="165519" />
	</node>
	<node lat="60.47596829403034" lon="5.98344707761764" id="-28224">
		<tag k="name" v="Øystra Trongasmogtjørni" />
=======
	<node id="-628447" lat="60.2627236885" lon="6.11521722389">
		<tag k="name" v="Vetlavatnet" />
>>>>>>> e1d4bc35ff8a6074a6f2e91616a996b547c36f15
		<tag k="natural" v="water" />
		<tag k="ssr:stedsnr" v="165823" />
	</node>
<<<<<<< HEAD
	<node lat="60.43159903653569" lon="6.11203318583706" id="-28235">
		<tag k="name" v="Vetlavatn" />
=======
	<node id="-628446" lat="60.1080611066" lon="5.88354999794">
		<tag k="alt_name" v="Træstjørn" />
		<tag k="name" v="Trædstjørna" />
>>>>>>> e1d4bc35ff8a6074a6f2e91616a996b547c36f15
		<tag k="natural" v="water" />
		<tag k="ssr:stedsnr" v="187378" />
	</node>
<<<<<<< HEAD
	<node lat="60.182735327778396" lon="5.9178264455596645" id="-28237">
		<tag k="name" v="Vatnadalsvatnet" />
=======
	<node id="-628444" lat="60.3902444456" lon="6.13236666725">
		<tag k="name" v="Sjusetevatnet" />
>>>>>>> e1d4bc35ff8a6074a6f2e91616a996b547c36f15
		<tag k="natural" v="water" />
		<tag k="ssr:stedsnr" v="187504" />
	</node>
<<<<<<< HEAD
	<node lat="60.43063055502448" lon="6.149374992029416" id="-28243">
		<tag k="name" v="Storaelvi" />
		<tag k="ssr:stedsnr" v="187421" />
		<tag k="waterway" v="stream" />
	</node>
	<node lat="60.39796666317203" lon="6.049436110689884" id="-28250">
		<tag k="name" v="Sunnvoredalsvatnet" />
		<tag k="natural" v="water" />
		<tag k="ssr:stedsnr" v="187703" />
	</node>
	<node lat="60.289327774351" lon="5.98791389112829" id="-28257">
		<tag k="name" v="Strandadalselva" />
		<tag k="ssr:stedsnr" v="187907" />
		<tag k="waterway" v="river" />
	</node>
	<node lat="60.29032222623483" lon="6.0109166689122056" id="-28258">
		<tag k="name" v="Svartavatnet" />
=======
	<node id="-628443" lat="60.3870861128" lon="6.0134305495">
		<tag k="name" v="Fljoto" />
		<tag k="ssr:stedsnr" v="66676" />
		<tag k="waterway" v="stream" />
	</node>
	<node id="-628442" lat="60.3630805575" lon="5.98734165813">
		<tag k="name" v="Hjeltelibekken" />
		<tag k="ssr:stedsnr" v="66649" />
		<tag k="waterway" v="stream" />
	</node>
	<node id="-628441" lat="60.3747472259" lon="6.03424721375">
		<tag k="name" v="Hjartåna" />
		<tag k="ssr:stedsnr" v="66647" />
		<tag k="waterway" v="river" />
	</node>
	<node id="-628440" lat="60.510338885" lon="6.15029444952">
		<tag k="name" v="Blåkollvatnet" />
>>>>>>> e1d4bc35ff8a6074a6f2e91616a996b547c36f15
		<tag k="natural" v="water" />
		<tag k="ssr:stedsnr" v="187910" />
	</node>
<<<<<<< HEAD
	<node lat="60.50690278155899" lon="6.0193777859674436" id="-28266">
		<tag k="alt_name" v="Moagjeltjørni" />
		<tag k="name" v="Moagjelsvatnet" />
=======
	<node id="-628439" lat="60.5148499981" lon="6.12423610423">
		<tag k="name" v="Hestaneset" />
		<tag k="natural" v="cape" />
		<tag k="ssr:stedsnr" v="66765" />
	</node>
	<node id="-628431" lat="60.3451250043" lon="6.11846387981">
		<tag k="name" v="Mosholmen" />
		<tag k="place" v="islet" />
		<tag k="ssr:stedsnr" v="66546" />
	</node>
	<node id="-628423" lat="60.4292833306" lon="6.0777694472">
		<tag k="alt_name" v="Fugladalstjørn" />
		<tag k="name" v="Fugladalstjørnane" />
		<tag k="natural" v="water" />
		<tag k="ssr:stedsnr" v="66389" />
		<tag k="water" v="lake" />
	</node>
	<node id="-628422" lat="60.4615150126" lon="6.15820477643">
		<tag k="name" v="Håstabbetjørn" />
>>>>>>> e1d4bc35ff8a6074a6f2e91616a996b547c36f15
		<tag k="natural" v="water" />
		<tag k="ssr:stedsnr" v="188982" />
	</node>
<<<<<<< HEAD
	<node lat="60.50473610818696" lon="6.092619450181309" id="-28272">
		<tag k="name" v="Krossfossen" />
=======
	<node id="-628381" lat="60.3929700601" lon="6.11065696981">
		<tag k="name" v="Forsetfossen" />
>>>>>>> e1d4bc35ff8a6074a6f2e91616a996b547c36f15
		<tag k="natural" v="waterfall" />
		<tag k="ssr:stedsnr" v="226005" />
	</node>
<<<<<<< HEAD
	<node lat="60.522669439992384" lon="6.079788884800131" id="-28273">
		<tag k="name" v="Osen" />
		<tag k="natural" v="bay" />
		<tag k="ssr:stedsnr" v="225909" />
	</node>
	<node lat="60.180902778149445" lon="5.897100008838646" id="-28283">
		<tag k="name" v="Apalbekken" />
		<tag k="ssr:stedsnr" v="226391" />
		<tag k="waterway" v="stream" />
	</node>
	<node lat="60.135365104615055" lon="5.877967893160262" id="-28296">
		<tag k="alt_name" v="Annevatnet" />
		<tag k="name" v="Ådnevatnet" />
=======
	<node id="-628375" lat="60.3707916658" lon="6.10288611303">
		<tag k="name" v="Steinsdalsfossen" />
		<tag k="natural" v="waterfall" />
		<tag k="ssr:stedsnr" v="44190" />
	</node>
	<node id="-628349" lat="60.2894222266" lon="6.07031666358">
		<tag k="name" v="Fannastølselva" />
		<tag k="ssr:stedsnr" v="32259" />
		<tag k="waterway" v="river" />
	</node>
	<node id="-628337" lat="60.524287384" lon="6.07849378289">
		<tag k="alt_name" v="Vesletjørn" />
		<tag k="name" v="Vesletjørni" />
>>>>>>> e1d4bc35ff8a6074a6f2e91616a996b547c36f15
		<tag k="natural" v="water" />
		<tag k="ssr:stedsnr" v="247576" />
	</node>
<<<<<<< HEAD
	<node lat="60.247258334287366" lon="5.94953332733852" id="-28297">
		<tag k="name" v="Banktjørn" />
=======
	<node id="-628298" lat="60.3420367397" lon="5.96976511075">
		<tag k="name" v="Svartatjørna" />
>>>>>>> e1d4bc35ff8a6074a6f2e91616a996b547c36f15
		<tag k="natural" v="water" />
		<tag k="ssr:stedsnr" v="247665" />
	</node>
<<<<<<< HEAD
	<node lat="60.46381827273693" lon="6.353278984975738" id="-28300">
		<tag k="name" v="Øvstavatnet" />
=======
	<node id="-628296" lat="60.3454913012" lon="6.12385996895">
		<tag k="alt_name" v="Krokavatn" />
		<tag k="name" v="Krokavatnet" />
>>>>>>> e1d4bc35ff8a6074a6f2e91616a996b547c36f15
		<tag k="natural" v="water" />
		<tag k="ssr:stedsnr" v="248204" />
		<tag k="water" v="lake" />
	</node>
<<<<<<< HEAD
	<node lat="60.46789999901811" lon="6.2759749910939675" id="-28301">
		<tag k="name" v="Bufarvatnet" />
=======
	<node id="-628295" lat="60.3471361099" lon="6.13634722561">
		<tag k="name" v="Lende" />
		<tag k="natural" v="strait" />
		<tag k="ssr:stedsnr" v="5565" />
	</node>
	<node id="-628288" lat="60.4214777739" lon="6.17454166956">
		<tag k="name" v="Krossnes" />
		<tag k="natural" v="cape" />
		<tag k="ssr:stedsnr" v="5468" />
	</node>
	<node id="-628286" lat="60.4231846277" lon="6.03157177412">
		<tag k="name" v="Skolappstjørna" />
>>>>>>> e1d4bc35ff8a6074a6f2e91616a996b547c36f15
		<tag k="natural" v="water" />
		<tag k="ssr:stedsnr" v="248207" />
	</node>
<<<<<<< HEAD
	<node lat="60.47396132143177" lon="6.386345624398443" id="-28302">
		<tag k="name" v="Rundatjørni" />
=======
	<node id="-628285" lat="60.43733513" lon="5.9672597117">
		<tag k="name" v="Kråketjørna" />
>>>>>>> e1d4bc35ff8a6074a6f2e91616a996b547c36f15
		<tag k="natural" v="water" />
		<tag k="ssr:stedsnr" v="248220" />
	</node>
<<<<<<< HEAD
	<node lat="60.39476389326661" lon="6.233377776371611" id="-28304">
		<tag k="alt_name" v="Laupsaelva" />
		<tag k="name" v="Laupsaelvi" />
		<tag k="ssr:stedsnr" v="248168" />
		<tag k="waterway" v="river" />
	</node>
	<node lat="60.42829999867451" lon="6.128263880304204" id="-28312">
		<tag k="name" v="Bytesåna" />
		<tag k="ssr:stedsnr" v="248452" />
		<tag k="waterway" v="river" />
	</node>
	<node lat="60.43197500199598" lon="6.17074166577954" id="-28313">
		<tag k="name" v="Kjellarbekken" />
		<tag k="ssr:stedsnr" v="248455" />
		<tag k="waterway" v="stream" />
	</node>
	<node lat="60.38587675886559" lon="5.964558557261631" id="-28323">
		<tag k="name" v="Vetlavatnet" />
=======
	<node id="-628282" lat="60.4737888885" lon="6.20728888548">
		<tag k="name" v="Botnaelva" />
		<tag k="ssr:stedsnr" v="5386" />
		<tag k="waterway" v="river" />
	</node>
	<node id="-628280" lat="60.4676777812" lon="6.02259999167">
		<tag k="name" v="Søyelva" />
		<tag k="ssr:stedsnr" v="5335" />
		<tag k="waterway" v="stream" />
	</node>
	<node id="-628279" lat="60.4442666691" lon="6.34915832594">
		<tag k="name" v="Vetlavatnet" />
		<tag k="natural" v="water" />
		<tag k="ssr:stedsnr" v="5252" />
		<tag k="water" v="lake" />
	</node>
	<node id="-628273" lat="60.4445750029" lon="6.25118055738">
		<tag k="alt_name" v="Kastdalselva" />
		<tag k="name" v="Kastdalselvi" />
		<tag k="ssr:stedsnr" v="5197" />
		<tag k="waterway" v="river" />
	</node>
	<node id="-628272" lat="60.4063444433" lon="6.30160833802">
		<tag k="alt_name" v="Nyasettjørn" />
		<tag k="name" v="Nyasettjørni" />
		<tag k="natural" v="water" />
		<tag k="ssr:stedsnr" v="5192" />
	</node>
	<node id="-628249" lat="60.5136333313" lon="6.06606943679">
		<tag k="alt_name" v="Viertjørni" />
		<tag k="name" v="Viertjørn" />
		<tag k="natural" v="water" />
		<tag k="ssr:stedsnr" v="917971" />
	</node>
	<node id="-628242" lat="60.3378888915" lon="6.13652499334">
		<tag k="name" v="Myrtjørnane" />
		<tag k="natural" v="water" />
		<tag k="ssr:stedsnr" v="916567" />
	</node>
	<node id="-628241" lat="60.3370333321" lon="6.16882500805">
		<tag k="name" v="Tjørnshaugtjørn" />
		<tag k="place" v="locality" />
		<tag k="ssr:stedsnr" v="916563" />
	</node>
	<node id="-628239" lat="60.3564056466" lon="5.99200410135">
		<tag k="name" v="Krokavatnet" />
		<tag k="natural" v="water" />
		<tag k="ssr:stedsnr" v="916661" />
		<tag k="water" v="lake" />
	</node>
	<node id="-628237" lat="60.3515788411" lon="5.99801913966">
		<tag k="name" v="Skånavotna" />
>>>>>>> e1d4bc35ff8a6074a6f2e91616a996b547c36f15
		<tag k="natural" v="water" />
		<tag k="ssr:stedsnr" v="248717" />
	</node>
<<<<<<< HEAD
	<node lat="60.36042500271463" lon="5.978794444964806" id="-28324">
		<tag k="name" v="Mødalselva" />
		<tag k="ssr:stedsnr" v="248653" />
		<tag k="waterway" v="stream" />
	</node>
	<node lat="60.26411388898883" lon="6.123313883649469" id="-28326">
		<tag k="name" v="Øyjordsvatnet" />
=======
	<node id="-628229" lat="60.4157166666" lon="5.94551944974">
		<tag k="name" v="Sandåna" />
		<tag k="ssr:stedsnr" v="915478" />
		<tag k="waterway" v="stream" />
	</node>
	<node id="-628228" lat="60.4198716116" lon="6.16825887057">
		<tag k="name" v="Fitjadalsvatnet" />
>>>>>>> e1d4bc35ff8a6074a6f2e91616a996b547c36f15
		<tag k="natural" v="water" />
		<tag k="ssr:stedsnr" v="248798" />
		<tag k="water" v="lake" />
	</node>
<<<<<<< HEAD
	<node lat="60.30150277624149" lon="6.015249991944448" id="-28327">
		<tag k="name" v="Tverrelva" />
		<tag k="ssr:stedsnr" v="248967" />
		<tag k="waterway" v="stream" />
	</node>
	<node lat="60.348283334247775" lon="6.120566658481605" id="-28331">
		<tag k="name" v="Mosvika" />
=======
	<node id="-628225" lat="60.4436416625" lon="6.35791667401">
		<tag k="name" v="Dammen" />
		<tag k="ssr:stedsnr" v="915226" />
		<tag k="waterway" v="dam" />
	</node>
	<node id="-628224" lat="60.4505166637" lon="6.33548055072">
		<tag k="name" v="Bjørkeviki" />
>>>>>>> e1d4bc35ff8a6074a6f2e91616a996b547c36f15
		<tag k="natural" v="bay" />
		<tag k="ssr:stedsnr" v="457222" />
	</node>
<<<<<<< HEAD
	<node lat="60.18135555367029" lon="5.888172223745329" id="-28333">
		<tag k="name" v="Gjelbekken" />
		<tag k="ssr:stedsnr" v="268314" />
		<tag k="waterway" v="stream" />
	</node>
	<node lat="60.28929722587938" lon="6.055091672592813" id="-28337">
		<tag k="name" v="Oselva" />
		<tag k="ssr:stedsnr" v="275272" />
		<tag k="waterway" v="river" />
	</node>
	<node lat="60.51384380170404" lon="6.136423618620761" id="-28339">
		<tag k="name" v="Orfallstjørn" />
=======
	<node id="-628218" lat="60.3658607402" lon="6.01153175396">
		<tag k="name" v="Tverrbekken" />
		<tag k="ssr:stedsnr" v="893829" />
		<tag k="waterway" v="stream" />
	</node>
	<node id="-628211" lat="60.2993725311" lon="6.02048737438">
		<tag k="name" v="Sneldevatnet" />
>>>>>>> e1d4bc35ff8a6074a6f2e91616a996b547c36f15
		<tag k="natural" v="water" />
		<tag k="ssr:stedsnr" v="286012" />
	</node>
<<<<<<< HEAD
	<node lat="60.33172738133489" lon="6.0607984687113765" id="-28343">
		<tag k="name" v="Tjønnadalsbekken" />
		<tag k="ssr:stedsnr" v="286815" />
		<tag k="waterway" v="stream" />
	</node>
	<node lat="60.41182499656015" lon="6.087999998365344" id="-28353">
		<tag k="name" v="Hestaneset" />
=======
	<node id="-628207" lat="60.2993999996" lon="6.15535555645">
		<tag k="name" v="Lyseneset" />
>>>>>>> e1d4bc35ff8a6074a6f2e91616a996b547c36f15
		<tag k="natural" v="cape" />
		<tag k="ssr:stedsnr" v="287177" />
	</node>
<<<<<<< HEAD
	<node lat="60.40743889157215" lon="6.166397216871374" id="-28354">
		<tag k="name" v="Soget" />
		<tag k="ssr:stedsnr" v="287190" />
		<tag k="waterway" v="river" />
	</node>
	<node lat="60.50929166462137" lon="6.1556138801463565" id="-28361">
		<tag k="name" v="Sundagsbeiteelva" />
		<tag k="ssr:stedsnr" v="287512" />
		<tag k="waterway" v="river" />
	</node>
	<node lat="60.33565977796024" lon="5.987661526254646" id="-28365">
		<tag k="name" v="Langavatnet" />
=======
	<node id="-628205" lat="60.3715388924" lon="6.05691110241">
		<tag k="name" v="Nyasetbekken" />
		<tag k="ssr:stedsnr" v="855674" />
		<tag k="waterway" v="stream" />
	</node>
	<node id="-628202" lat="60.4978401968" lon="6.32828113446">
		<tag k="name" v="Kvitavatnet" />
		<tag k="natural" v="water" />
		<tag k="ssr:stedsnr" v="855779" />
	</node>
	<node id="-628196" lat="60.3294652608" lon="6.01101911301">
		<tag k="name" v="Heggvatnet" />
>>>>>>> e1d4bc35ff8a6074a6f2e91616a996b547c36f15
		<tag k="natural" v="water" />
		<tag k="ssr:stedsnr" v="287533" />
		<tag k="water" v="lake" />
	</node>
<<<<<<< HEAD
	<node lat="60.366986113390325" lon="6.068066663577894" id="-28374">
		<tag k="name" v="Steinsbekken" />
		<tag k="ssr:stedsnr" v="287799" />
		<tag k="waterway" v="stream" />
	</node>
	<node lat="60.42609166831571" lon="6.191502783215775" id="-28385">
		<tag k="name" v="Lomtjørn" />
		<tag k="natural" v="water" />
		<tag k="ssr:stedsnr" v="308393" />
	</node>
	<node lat="60.47875529805062" lon="6.3543578554771925" id="-28387">
		<tag k="name" v="Djuphølen" />
		<tag k="natural" v="water" />
		<tag k="ssr:stedsnr" v="308765" />
	</node>
	<node lat="60.40893888883389" lon="6.311766658289692" id="-28389">
		<tag k="alt_name" v="Fagertjørn" />
		<tag k="name" v="Fagertjørni" />
=======
	<node id="-628181" lat="60.374900001" lon="6.04699166219">
		<tag k="name" v="Tokagjelsbekken" />
		<tag k="ssr:stedsnr" v="941391" />
		<tag k="waterway" v="stream" />
	</node>
	<node id="-628173" lat="60.4930527745" lon="6.01535000538">
		<tag k="name" v="Holmen" />
		<tag k="place" v="islet" />
		<tag k="ssr:stedsnr" v="833818" />
	</node>
	<node id="-628169" lat="60.3099153377" lon="6.16083666369">
		<tag k="name" v="Bergsholmen" />
		<tag k="place" v="islet" />
		<tag k="ssr:stedsnr" v="833595" />
	</node>
	<node id="-628166" lat="60.3398988632" lon="6.13601703554">
		<tag k="name" v="Mytjørn" />
>>>>>>> e1d4bc35ff8a6074a6f2e91616a996b547c36f15
		<tag k="natural" v="water" />
		<tag k="ssr:stedsnr" v="309139" />
	</node>
<<<<<<< HEAD
	<node lat="60.292297223623095" lon="6.042591673653054" id="-28392">
		<tag k="alt_name" v="Torsteintjørni;Torsteinstjønn" />
		<tag k="name" v="Torsteinstjørn" />
		<tag k="natural" v="water" />
		<tag k="ssr:stedsnr" v="308886" />
	</node>
	<node lat="60.110499999253506" lon="5.873019438463988" id="-28393">
		<tag k="alt_name" v="Svidvatnet" />
		<tag k="name" v="Svevatnet" />
		<tag k="natural" v="water" />
		<tag k="ssr:stedsnr" v="308901" />
	</node>
	<node lat="60.267324996162976" lon="6.063583331706743" id="-28399">
		<tag k="alt_name" v="Litlelings-elva" />
		<tag k="name" v="Litlelingselva" />
		<tag k="ssr:stedsnr" v="309816" />
		<tag k="waterway" v="stream" />
	</node>
	<node lat="60.33354032741045" lon="6.1316685898742245" id="-28400">
		<tag k="alt_name" v="Svartavatn" />
		<tag k="name" v="Svartavatnet" />
=======
	<node id="-628162" lat="60.4401555594" lon="6.12658333036">
		<tag k="name" v="Vossadalselva" />
		<tag k="ssr:stedsnr" v="833219" />
		<tag k="waterway" v="river" />
	</node>
	<node id="-628158" lat="60.3693416666" lon="6.06120277178">
		<tag k="name" v="Risbruelva" />
		<tag k="ssr:stedsnr" v="833304" />
		<tag k="waterway" v="river" />
	</node>
	<node id="-628151" lat="60.5074166662" lon="6.0911000005">
		<tag k="name" v="Nystølelvi" />
		<tag k="ssr:stedsnr" v="795769" />
		<tag k="waterway" v="stream" />
	</node>
	<node id="-628145" lat="60.2633314116" lon="6.1317718731">
		<tag k="name" v="Kolltveittjørna" />
>>>>>>> e1d4bc35ff8a6074a6f2e91616a996b547c36f15
		<tag k="natural" v="water" />
		<tag k="ssr:stedsnr" v="309586" />
	</node>
<<<<<<< HEAD
	<node lat="60.29907569743456" lon="6.160218509713162" id="-28404">
		<tag k="loc_name" v="Tørvikavatnet" />
		<tag k="name" v="Tørvikevatnet" />
=======
	<node id="-628139" lat="60.3418916628" lon="6.09801111358">
		<tag k="name" v="Tjørnane" />
>>>>>>> e1d4bc35ff8a6074a6f2e91616a996b547c36f15
		<tag k="natural" v="water" />
		<tag k="ssr:stedsnr" v="309915" />
		<tag k="water" v="lake" />
	</node>
<<<<<<< HEAD
	<node lat="60.43283163395318" lon="6.272657397739572" id="-28422">
		<tag k="name" v="Mødalsvatn" />
=======
	<node id="-628138" lat="60.3292805589" lon="6.00624444988">
		<tag k="name" v="Smørbottvatnet" />
		<tag k="place" v="locality" />
		<tag k="ssr:stedsnr" v="794556" />
	</node>
	<node id="-628135" lat="60.2828718975" lon="6.05462860808">
		<tag k="name" v="Byrkjenesvatnet" />
>>>>>>> e1d4bc35ff8a6074a6f2e91616a996b547c36f15
		<tag k="natural" v="water" />
		<tag k="ssr:stedsnr" v="469441" />
		<tag k="water" v="lake" />
	</node>
<<<<<<< HEAD
	<node lat="60.25789166685693" lon="6.111427768881781" id="-28433">
		<tag k="name" v="Røyrvikelva" />
		<tag k="ssr:stedsnr" v="469636" />
		<tag k="waterway" v="river" />
	</node>
	<node lat="60.3936666650493" lon="6.012877776302278" id="-28443">
		<tag k="name" v="Smørsund" />
		<tag k="natural" v="strait" />
		<tag k="ssr:stedsnr" v="469836" />
	</node>
	<node lat="60.32516307179982" lon="5.99659329363249" id="-28449">
		<tag k="alt_name" v="Bjornspet" />
		<tag k="name" v="Bjørnspet" />
=======
	<node id="-628134" lat="60.2836999972" lon="6.04338610726">
		<tag k="name" v="Engjadalsvatnet" />
		<tag k="natural" v="water" />
		<tag k="old_name" v="Engedalsvatnet" />
		<tag k="ssr:stedsnr" v="794830" />
	</node>
	<node id="-628120" lat="60.1606861141" lon="5.88280277907">
		<tag k="name" v="Setratjørna" />
>>>>>>> e1d4bc35ff8a6074a6f2e91616a996b547c36f15
		<tag k="natural" v="water" />
		<tag k="ssr:stedsnr" v="469900" />
	</node>
<<<<<<< HEAD
	<node lat="60.29399080821026" lon="6.137619786348197" id="-28454">
		<tag k="alt_name" v="Tjørnsdalstjørna" />
		<tag k="name" v="Øletjørn" />
		<tag k="natural" v="water" />
		<tag k="ssr:stedsnr" v="334263" />
	</node>
	<node lat="60.40405555622648" lon="6.291877775732293" id="-28455">
		<tag k="name" v="Langhammartjørn" />
=======
	<node id="-628119" lat="60.4050222227" lon="6.00559167201">
		<tag k="name" v="Raudåna" />
		<tag k="ssr:stedsnr" v="917596" />
		<tag k="waterway" v="stream" />
	</node>
	<node id="-628118" lat="60.5231361113" lon="6.24590555636">
		<tag k="name" v="Smalastigtjørnane" />
>>>>>>> e1d4bc35ff8a6074a6f2e91616a996b547c36f15
		<tag k="natural" v="water" />
		<tag k="ssr:stedsnr" v="335358" />
	</node>
<<<<<<< HEAD
	<node lat="60.3675527810253" lon="6.052272219384268" id="-28460">
		<tag k="name" v="Løgjelsbekken" />
		<tag k="ssr:stedsnr" v="346803" />
		<tag k="waterway" v="stream" />
	</node>
	<node lat="60.40140833252441" lon="6.062913898011942" id="-28467">
		<tag k="name" v="Sunnvoredalsvika" />
		<tag k="natural" v="bay" />
		<tag k="ssr:stedsnr" v="347175" />
	</node>
	<node lat="60.42363611468363" lon="6.270822228677157" id="-28469">
		<tag k="alt_name" v="Vetleelvi" />
		<tag k="name" v="Vetle-elv" />
		<tag k="ssr:stedsnr" v="347408" />
		<tag k="waterway" v="river" />
	</node>
	<node lat="60.38271944420625" lon="5.923766658886618" id="-28486">
		<tag k="name" v="Tordalselva" />
		<tag k="ssr:stedsnr" v="347918" />
		<tag k="waterway" v="river" />
	</node>
	<node lat="60.46622349666506" lon="6.453435867607272" id="-28494">
		<tag k="name" v="Grubbatjørnane" />
=======
	<node id="-628113" lat="60.2761293631" lon="6.10855261561">
		<tag k="name" v="Gjuvaelva" />
		<tag k="ssr:stedsnr" v="916836" />
		<tag k="waterway" v="stream" />
	</node>
	<node id="-628107" lat="60.4716388846" lon="6.28483333212">
		<tag k="alt_name" v="Goddalsvatnet, midtre" />
		<tag k="name" v="Midtre Goddalsvatnet" />
>>>>>>> e1d4bc35ff8a6074a6f2e91616a996b547c36f15
		<tag k="natural" v="water" />
		<tag k="ssr:stedsnr" v="369192" />
		<tag k="water" v="lake" />
	</node>
<<<<<<< HEAD
	<node lat="60.44269742335723" lon="6.372997855796313" id="-28496">
		<tag k="name" v="Kaldakjelen" />
=======
	<node id="-628105" lat="60.5065888875" lon="6.12800000581">
		<tag k="alt_name" v="Svortevik" />
		<tag k="name" v="Svorteviki" />
		<tag k="natural" v="bay" />
		<tag k="ssr:stedsnr" v="916792" />
	</node>
	<node id="-628098" lat="60.4967694482" lon="6.03242500162">
		<tag k="name" v="Djupatjørna" />
>>>>>>> e1d4bc35ff8a6074a6f2e91616a996b547c36f15
		<tag k="natural" v="water" />
		<tag k="ssr:stedsnr" v="369224" />
	</node>
<<<<<<< HEAD
	<node lat="60.42778370724087" lon="5.934692064842821" id="-28500">
		<tag k="name" v="Skeisskartjørna" />
		<tag k="natural" v="water" />
		<tag k="ssr:stedsnr" v="369367" />
	</node>
	<node lat="60.3465928346958" lon="6.095904506298612" id="-28502">
		<tag k="name" v="Kjoshellevatnet" />
		<tag k="natural" v="water" />
		<tag k="ssr:stedsnr" v="369510" />
	</node>
	<node lat="60.33836944668944" lon="6.114011117058424" id="-28512">
		<tag k="name" v="Fonnalandsøya" />
		<tag k="place" v="island" />
		<tag k="ssr:stedsnr" v="369468" />
	</node>
	<node lat="60.33014294440238" lon="6.045211692452599" id="-28514">
		<tag k="name" v="Vålavatnet" />
		<tag k="natural" v="water" />
		<tag k="ssr:stedsnr" v="369478" />
	</node>
	<node lat="60.47558824347921" lon="6.2896343657557825" id="-28518">
		<tag k="alt_name" v="Goddalsvatnet, øvre" />
		<tag k="name" v="Øvre Goddalsvatnet" />
=======
	<node id="-628092" lat="60.3020222584" lon="6.0046536711">
		<tag k="name" v="Svartatjørn" />
		<tag k="natural" v="water" />
		<tag k="ssr:stedsnr" v="915943" />
	</node>
	<node id="-628088" lat="60.2809138897" lon="6.03497221733">
		<tag k="name" v="Gjelelva" />
		<tag k="ssr:stedsnr" v="915891" />
		<tag k="waterway" v="stream" />
	</node>
	<node id="-628086" lat="60.2918972241" lon="6.15283610217">
		<tag k="name" v="Lyselva" />
		<tag k="ssr:stedsnr" v="915882" />
		<tag k="waterway" v="stream" />
	</node>
	<node id="-628078" lat="60.3378555521" lon="6.09550000396">
		<tag k="name" v="Grønevik" />
		<tag k="natural" v="bay" />
		<tag k="ssr:stedsnr" v="772923" />
	</node>
	<node id="-628069" lat="60.3462138858" lon="6.03496943606">
		<tag k="name" v="Teigelva" />
		<tag k="ssr:stedsnr" v="915579" />
		<tag k="waterway" v="river" />
	</node>
	<node id="-628066" lat="60.3679143239" lon="6.01740054757">
		<tag k="name" v="Langvotnevatnet" />
>>>>>>> e1d4bc35ff8a6074a6f2e91616a996b547c36f15
		<tag k="natural" v="water" />
		<tag k="ssr:stedsnr" v="369765" />
		<tag k="water" v="lake" />
	</node>
<<<<<<< HEAD
	<node lat="60.316711113973305" lon="6.0414527688633735" id="-28522">
		<tag k="name" v="Fureneset" />
		<tag k="natural" v="cape" />
		<tag k="ssr:stedsnr" v="369967" />
	</node>
	<node lat="60.521541667991315" lon="6.076674997053328" id="-28527">
		<tag k="name" v="Osen" />
		<tag k="natural" v="bay" />
		<tag k="ssr:stedsnr" v="370810" />
	</node>
	<node lat="60.3442194482402" lon="6.16883055927499" id="-28540">
		<tag k="name" v="Ondalselva" />
		<tag k="ssr:stedsnr" v="408043" />
		<tag k="waterway" v="river" />
	</node>
	<node lat="60.51385618931636" lon="6.069687301504181" id="-28545">
		<tag k="alt_name" v="Haugatjørni" />
		<tag k="name" v="Haugatjørn" />
=======
	<node id="-628053" lat="60.4230999959" lon="5.96594444073">
		<tag k="name" v="Raudåna" />
		<tag k="ssr:stedsnr" v="915438" />
		<tag k="waterway" v="stream" />
	</node>
	<node id="-628052" lat="60.4234805545" lon="5.95231389661">
		<tag k="name" v="Botnåna" />
		<tag k="ssr:stedsnr" v="915437" />
		<tag k="waterway" v="stream" />
	</node>
	<node id="-628050" lat="60.2248916627" lon="5.98297499266">
		<tag k="name" v="Kalhagebekken" />
		<tag k="ssr:stedsnr" v="771698" />
		<tag k="waterway" v="stream" />
	</node>
	<node id="-628048" lat="60.2778861153" lon="6.03873333576">
		<tag k="name" v="Skulafossen" />
		<tag k="natural" v="waterfall" />
		<tag k="ssr:stedsnr" v="771655" />
	</node>
	<node id="-628047" lat="60.4315346292" lon="6.05055431456">
		<tag k="name" v="Svartebekktjørna" />
>>>>>>> e1d4bc35ff8a6074a6f2e91616a996b547c36f15
		<tag k="natural" v="water" />
		<tag k="ssr:stedsnr" v="408250" />
	</node>
<<<<<<< HEAD
	<node lat="60.4015027760255" lon="6.020800002915927" id="-28553">
		<tag k="name" v="Daurmålsbekken" />
		<tag k="ssr:stedsnr" v="408849" />
		<tag k="waterway" v="stream" />
	</node>
	<node lat="60.34225555546091" lon="6.186272218951475" id="-28562">
		<tag k="name" v="Hestadbekken" />
		<tag k="ssr:stedsnr" v="490291" />
		<tag k="waterway" v="stream" />
	</node>
	<node lat="60.4493496806416" lon="6.094204743874224" id="-28565">
		<tag k="name" v="Vossadalsvatnet" />
=======
	<node id="-628046" lat="60.4350194486" lon="6.12293889466">
		<tag k="name" v="Eivindesetelva" />
		<tag k="ssr:stedsnr" v="915387" />
		<tag k="waterway" v="stream" />
	</node>
	<node id="-628044" lat="60.4549499985" lon="6.38765000466">
		<tag k="name" v="Neset" />
		<tag k="natural" v="cape" />
		<tag k="ssr:stedsnr" v="915181" />
	</node>
	<node id="-628041" lat="60.4595555602" lon="6.39831667148">
		<tag k="name" v="Synken" />
		<tag k="natural" v="bay" />
		<tag k="ssr:stedsnr" v="915179" />
	</node>
	<node id="-628034" lat="60.4639194461" lon="6.3766805611">
		<tag k="name" v="Bjølsegrotjørni" />
>>>>>>> e1d4bc35ff8a6074a6f2e91616a996b547c36f15
		<tag k="natural" v="water" />
		<tag k="ssr:stedsnr" v="490363" />
		<tag k="water" v="lake" />
	</node>
<<<<<<< HEAD
	<node lat="60.450008096933495" lon="6.004852051901298" id="-28566">
		<tag k="name" v="Dragatjørna" />
=======
	<node id="-628033" lat="60.4673244852" lon="6.41993001223">
		<tag k="name" v="Karaldevatnet" />
>>>>>>> e1d4bc35ff8a6074a6f2e91616a996b547c36f15
		<tag k="natural" v="water" />
		<tag k="ssr:stedsnr" v="490366" />
	</node>
<<<<<<< HEAD
	<node lat="60.45758610761185" lon="6.016299998973028" id="-28567">
		<tag k="name" v="Frostadvatnet" />
=======
	<node id="-628025" lat="60.3345777762" lon="6.10294166871">
		<tag k="name" v="Krokavatn" />
>>>>>>> e1d4bc35ff8a6074a6f2e91616a996b547c36f15
		<tag k="natural" v="water" />
		<tag k="ssr:stedsnr" v="490375" />
		<tag k="water" v="lake" />
	</node>
<<<<<<< HEAD
	<node lat="60.37721666757033" lon="6.102261114755649" id="-28575">
		<tag k="name" v="Fosselva" />
		<tag k="ssr:stedsnr" v="490679" />
		<tag k="waterway" v="river" />
	</node>
	<node lat="60.37250149808652" lon="5.9565893750393215" id="-28577">
		<tag k="name" v="Heiavatnet" />
		<tag k="natural" v="water" />
		<tag k="ssr:stedsnr" v="490690" />
	</node>
	<node lat="60.36526086727785" lon="5.962451654577295" id="-28583">
		<tag k="name" v="Fossdalsvatnet" />
		<tag k="natural" v="water" />
		<tag k="ssr:stedsnr" v="490663" />
	</node>
	<node lat="60.406769441007995" lon="5.917780550030828" id="-28614">
		<tag k="name" v="Teigaelva" />
		<tag k="ssr:stedsnr" v="430457" />
		<tag k="waterway" v="stream" />
	</node>
	<node lat="60.34616110679978" lon="5.958083335566804" id="-28620">
		<tag k="name" v="Kjelsbekken" />
		<tag k="ssr:stedsnr" v="430606" />
		<tag k="waterway" v="stream" />
	</node>
	<node lat="60.39718055489036" lon="6.014677783487788" id="-28631">
		<tag k="alt_name" v="Kvanndalsvatnet" />
		<tag k="name" v="Steinskvanndalsvatnet" />
		<tag k="natural" v="water" />
		<tag k="ssr:stedsnr" v="430723" />
	</node>
	<node lat="60.27546763423746" lon="6.117055757803493" id="-28639">
		<tag k="name" v="Svartavatnet" />
		<tag k="natural" v="water" />
		<tag k="ssr:stedsnr" v="430814" />
	</node>
	<node lat="60.27094444101418" lon="6.158386118538974" id="-28640">
		<tag k="name" v="Halvgjengeneset" />
		<tag k="natural" v="cape" />
		<tag k="ssr:stedsnr" v="430821" />
	</node>
	<node lat="60.2729332767653" lon="6.157069049663559" id="-28641">
		<tag k="name" v="Eidesvatnet" />
		<tag k="natural" v="water" />
		<tag k="ssr:stedsnr" v="430824" />
		<tag k="water" v="lake" />
	</node>
	<node lat="60.284269232988166" lon="6.091473568144728" id="-28642">
		<tag k="name" v="Ljosavatnet" />
		<tag k="natural" v="water" />
		<tag k="ssr:stedsnr" v="430843" />
	</node>
	<node lat="60.282147223190485" lon="6.0868333245198984" id="-28643">
		<tag k="name" v="Veghamretjørna" />
		<tag k="natural" v="water" />
		<tag k="ssr:stedsnr" v="430844" />
	</node>
	<node lat="60.274019598308804" lon="5.978956715614093" id="-28645">
		<tag k="name" v="Hestabergtjørna" />
		<tag k="natural" v="water" />
		<tag k="ssr:stedsnr" v="430894" />
	</node>
	<node lat="60.25070516213755" lon="5.956054839294157" id="-28647">
		<tag k="name" v="Rishaugtjørna" />
		<tag k="natural" v="water" />
		<tag k="ssr:stedsnr" v="430796" />
	</node>
	<node lat="60.307167144320424" lon="6.0435833894675355" id="-28651">
		<tag k="name" v="Svartetjørn" />
		<tag k="natural" v="water" />
		<tag k="ssr:stedsnr" v="430950" />
	</node>
	<node lat="60.49827357158181" lon="6.144349595909169" id="-28656">
		<tag k="name" v="Breisetevatnet" />
=======
	<node id="-628020" lat="60.3829777741" lon="6.02754166772">
		<tag k="name" v="Skarbekken" />
		<tag k="ssr:stedsnr" v="894850" />
		<tag k="waterway" v="stream" />
	</node>
	<node id="-628018" lat="60.3714027785" lon="5.99075555401">
		<tag k="name" v="Løken" />
		<tag k="ssr:stedsnr" v="894848" />
		<tag k="waterway" v="river" />
	</node>
	<node id="-628000" lat="60.2675166631" lon="6.01382499816">
		<tag k="name" v="Bruosen" />
		<tag k="natural" v="bay" />
		<tag k="ssr:stedsnr" v="894682" />
	</node>
	<node id="-627993" lat="60.3617361137" lon="6.09648611431">
		<tag k="name" v="Ruflebekken" />
		<tag k="ssr:stedsnr" v="711785" />
		<tag k="waterway" v="stream" />
	</node>
	<node id="-627986" lat="60.4400527788" lon="6.43700278616">
		<tag k="name" v="Dalaelva" />
		<tag k="ssr:stedsnr" v="894512" />
		<tag k="waterway" v="river" />
	</node>
	<node id="-627970" lat="60.3755250033" lon="6.13968055102">
		<tag k="name" v="Sundsvik" />
		<tag k="natural" v="bay" />
		<tag k="ssr:stedsnr" v="711213" />
	</node>
	<node id="-627966" lat="60.1795527815" lon="5.89697777203">
		<tag k="name" v="Storelva" />
		<tag k="ssr:stedsnr" v="894381" />
		<tag k="waterway" v="river" />
	</node>
	<node id="-627962" lat="60.4813194484" lon="6.20618889391">
		<tag k="name" v="Flatabøelva" />
		<tag k="ssr:stedsnr" v="894301" />
		<tag k="waterway" v="river" />
	</node>
	<node id="-627961" lat="60.4798194426" lon="6.19995556063">
		<tag k="name" v="Flydlielva" />
		<tag k="ssr:stedsnr" v="894300" />
		<tag k="waterway" v="river" />
	</node>
	<node id="-627953" lat="60.4707999969" lon="6.06404443801">
		<tag k="name" v="Tverrelvane" />
		<tag k="ssr:stedsnr" v="894261" />
		<tag k="waterway" v="river" />
	</node>
	<node id="-627943" lat="60.3595166703" lon="6.11006666581">
		<tag k="name" v="Kvålselva" />
		<tag k="ssr:stedsnr" v="894155" />
		<tag k="waterway" v="river" />
	</node>
	<node id="-627942" lat="60.3598861072" lon="6.13614722923">
		<tag k="name" v="Sandvenelva" />
		<tag k="ssr:stedsnr" v="894154" />
		<tag k="waterway" v="river" />
	</node>
	<node id="-627928" lat="60.1835666702" lon="5.95270556114">
		<tag k="name" v="Kolabekken" />
		<tag k="ssr:stedsnr" v="893368" />
		<tag k="waterway" v="stream" />
	</node>
	<node id="-627921" lat="60.5109055598" lon="6.14436389365">
		<tag k="name" v="Naustvik" />
		<tag k="natural" v="bay" />
		<tag k="ssr:stedsnr" v="893012" />
	</node>
	<node id="-627919" lat="60.4299083317" lon="6.26933055954">
		<tag k="name" v="Vetlavatnet" />
>>>>>>> e1d4bc35ff8a6074a6f2e91616a996b547c36f15
		<tag k="natural" v="water" />
		<tag k="ssr:stedsnr" v="431343" />
	</node>
<<<<<<< HEAD
	<node lat="60.4766710721756" lon="6.297008423668403" id="-28657">
		<tag k="name" v="Svartedalsvatnet" />
		<tag k="natural" v="water" />
		<tag k="ssr:stedsnr" v="431795" />
	</node>
	<node lat="60.496345200726886" lon="6.158208880195825" id="-28659">
		<tag k="name" v="Gråurvatnet" />
		<tag k="natural" v="water" />
		<tag k="ssr:stedsnr" v="491335" />
	</node>
	<node lat="60.3362623538777" lon="6.1231670953598885" id="-28660">
		<tag k="name" v="Torsteinsvatnet" />
		<tag k="natural" v="water" />
		<tag k="ssr:stedsnr" v="491552" />
	</node>
	<node lat="60.33132221765906" lon="6.0609527723966" id="-28662">
		<tag k="name" v="Tjørndalsbekken" />
		<tag k="ssr:stedsnr" v="491561" />
		<tag k="waterway" v="stream" />
	</node>
	<node lat="60.26909166327703" lon="6.119930552803481" id="-28672">
		<tag k="name" v="Sagbekken" />
		<tag k="ssr:stedsnr" v="491813" />
		<tag k="waterway" v="stream" />
	</node>
	<node lat="60.50669166554582" lon="6.075625001527793" id="-28680">
		<tag k="name" v="Stølselvi" />
		<tag k="ssr:stedsnr" v="492758" />
		<tag k="waterway" v="stream" />
	</node>
	<node lat="60.434880551482394" lon="6.017399999899661" id="-28690">
		<tag k="name" v="Skukkatjørnane" />
		<tag k="natural" v="water" />
		<tag k="ssr:stedsnr" v="672390" />
		<tag k="water" v="lake" />
	</node>
	<node lat="60.35481111295057" lon="6.109350005307314" id="-28695">
		<tag k="name" v="Liastølselva" />
		<tag k="ssr:stedsnr" v="672581" />
		<tag k="waterway" v="stream" />
	</node>
	<node lat="60.34264056868466" lon="5.952617850058939" id="-28698">
		<tag k="alt_name" v="Kjelsvatn" />
		<tag k="name" v="Kjelsvatnet" />
=======
	<node id="-627916" lat="60.4127861115" lon="6.16269166557">
		<tag k="name" v="Lauvvikeneset" />
		<tag k="natural" v="cape" />
		<tag k="ssr:stedsnr" v="882334" />
	</node>
	<node id="-627904" lat="60.280661115" lon="6.05684444958">
		<tag k="name" v="Sandvika" />
		<tag k="natural" v="bay" />
		<tag k="ssr:stedsnr" v="881361" />
	</node>
	<node id="-627901" lat="60.2198325589" lon="5.96303571139">
		<tag k="name" v="Gjerdaelva" />
		<tag k="ssr:stedsnr" v="672486" />
		<tag k="waterway" v="river" />
	</node>
	<node id="-627896" lat="60.3816833292" lon="5.92054165975">
		<tag k="name" v="Sevjena" />
		<tag k="ssr:stedsnr" v="651894" />
		<tag k="waterway" v="stream" />
	</node>
	<node id="-627890" lat="60.1850166657" lon="5.90046388253">
		<tag k="name" v="Tverrelva" />
		<tag k="ssr:stedsnr" v="651911" />
		<tag k="waterway" v="river" />
	</node>
	<node id="-627889" lat="60.2942249986" lon="6.16793888733">
		<tag k="name" v="Dragselv" />
		<tag k="ssr:stedsnr" v="651907" />
		<tag k="waterway" v="river" />
	</node>
	<node id="-627871" lat="60.2963944471" lon="6.05487500505">
		<tag k="name" v="Kvernelva" />
		<tag k="ssr:stedsnr" v="734912" />
		<tag k="waterway" v="river" />
	</node>
	<node id="-627865" lat="60.161147219" lon="5.89522777707">
		<tag k="name" v="Kvitelva" />
		<tag k="ssr:stedsnr" v="649338" />
		<tag k="waterway" v="river" />
	</node>
	<node id="-627864" lat="60.3630222217" lon="6.01739166297">
		<tag k="name" v="Longvotnebekken" />
		<tag k="ssr:stedsnr" v="734667" />
		<tag k="waterway" v="stream" />
	</node>
	<node id="-627859" lat="60.3232486577" lon="6.01266504194">
		<tag k="name" v="Kvelpatjørn" />
>>>>>>> e1d4bc35ff8a6074a6f2e91616a996b547c36f15
		<tag k="natural" v="water" />
		<tag k="ssr:stedsnr" v="672553" />
	</node>
<<<<<<< HEAD
	<node lat="60.28569357997834" lon="6.098775258056876" id="-28709">
		<tag k="alt_name" v="Snøfannatjørna;Krokavasstjønn" />
		<tag k="name" v="Krokavasstjørna" />
=======
	<node id="-627852" lat="60.3070836092" lon="6.02597029292">
		<tag k="name" v="Botnavatnet" />
>>>>>>> e1d4bc35ff8a6074a6f2e91616a996b547c36f15
		<tag k="natural" v="water" />
		<tag k="ssr:stedsnr" v="672893" />
	</node>
<<<<<<< HEAD
	<node lat="60.11791739331965" lon="5.896861047358084" id="-28711">
		<tag k="alt_name" v="Svartatjørn" />
		<tag k="name" v="Svartatjørna" />
		<tag k="natural" v="water" />
		<tag k="ssr:stedsnr" v="672912" />
	</node>
	<node lat="60.431762774369716" lon="6.28374262422897" id="-28718">
		<tag k="alt_name" v="Grønhovdetjørn" />
		<tag k="name" v="Grønhovdetjørni" />
=======
	<node id="-627851" lat="60.2797749964" lon="6.00588888652">
		<tag k="name" v="Hjellebekken" />
		<tag k="ssr:stedsnr" v="733888" />
		<tag k="waterway" v="stream" />
	</node>
	<node id="-627848" lat="60.2854553687" lon="6.10584472041">
		<tag k="name" v="Varøyratjørna" />
>>>>>>> e1d4bc35ff8a6074a6f2e91616a996b547c36f15
		<tag k="natural" v="water" />
		<tag k="ssr:stedsnr" v="673250" />
	</node>
<<<<<<< HEAD
	<node lat="60.490136541613175" lon="6.016607862960565" id="-28721">
		<tag k="name" v="Båtvatnet" />
=======
	<node id="-627846" lat="60.261655558" lon="6.10696666831">
		<tag k="name" v="Storavatnet" />
>>>>>>> e1d4bc35ff8a6074a6f2e91616a996b547c36f15
		<tag k="natural" v="water" />
		<tag k="ssr:stedsnr" v="673352" />
	</node>
<<<<<<< HEAD
	<node lat="60.409329992127724" lon="6.098097923056593" id="-28726">
		<tag k="name" v="Svartavatnet" />
=======
	<node id="-627845" lat="60.2648337357" lon="6.09181769833">
		<tag k="name" v="Lingavatnet" />
>>>>>>> e1d4bc35ff8a6074a6f2e91616a996b547c36f15
		<tag k="natural" v="water" />
		<tag k="ssr:stedsnr" v="673737" />
	</node>
<<<<<<< HEAD
	<node lat="60.38829999954795" lon="6.064886114782975" id="-28729">
		<tag k="name" v="Sælesetetjørna" />
		<tag k="natural" v="water" />
		<tag k="ssr:stedsnr" v="673696" />
	</node>
	<node lat="60.39072777727481" lon="5.97158611343585" id="-28730">
		<tag k="name" v="Røyro" />
		<tag k="ssr:stedsnr" v="673702" />
		<tag k="waterway" v="stream" />
	</node>
	<node lat="60.50232777497855" lon="6.047980560547191" id="-28738">
		<tag k="name" v="Tjørnadalstjørni" />
=======
	<node id="-627841" lat="60.4011833349" lon="6.00750278459">
		<tag k="name" v="Tjørnelvi" />
		<tag k="ssr:stedsnr" v="733700" />
		<tag k="waterway" v="stream" />
	</node>
	<node id="-627835" lat="60.3791527789" lon="6.07634167405">
		<tag k="name" v="Svortetjørna" />
>>>>>>> e1d4bc35ff8a6074a6f2e91616a996b547c36f15
		<tag k="natural" v="water" />
		<tag k="ssr:stedsnr" v="674975" />
	</node>
<<<<<<< HEAD
	<node lat="60.35944721962174" lon="6.0112555592583" id="-28742">
		<tag k="name" v="Langvotnebekken" />
		<tag k="ssr:stedsnr" v="467825" />
		<tag k="waterway" v="stream" />
	</node>
	<node lat="60.50385000252505" lon="6.152230549351624" id="-28744">
		<tag k="name" v="Vassenden" />
		<tag k="natural" v="shoal" />
		<tag k="place" v="locality" />
		<tag k="ssr:stedsnr" v="468019" />
	</node>
	<node lat="60.253308334755765" lon="6.010633333435409" id="-28748">
		<tag k="fixme" v="multiple name tags, choose one and add the other to alt_name" />
		<tag k="name" v="Osen;Risosen" />
		<tag k="natural" v="bay" />
		<tag k="ssr:stedsnr" v="468771" />
	</node>
	<node lat="60.40554757386992" lon="6.214068417945776" id="-28749">
		<tag k="name" v="Myratjønn" />
=======
	<node id="-627827" lat="60.3493536237" lon="6.09789341903">
		<tag k="name" v="Leitestjørna" />
>>>>>>> e1d4bc35ff8a6074a6f2e91616a996b547c36f15
		<tag k="natural" v="water" />
		<tag k="ssr:stedsnr" v="469080" />
	</node>
<<<<<<< HEAD
	<node lat="60.323436113473555" lon="6.1120194502405445" id="-28758">
		<tag k="name" v="Orfallet" />
		<tag k="ssr:stedsnr" v="469611" />
		<tag k="waterway" v="rapids" />
	</node>
	<node lat="60.31729721960007" lon="6.041038895336693" id="-28761">
		<tag k="name" v="Furenes" />
=======
	<node id="-627826" lat="60.3564972267" lon="6.09365000257">
		<tag k="name" v="Hestgjelsbekken" />
		<tag k="ssr:stedsnr" v="733567" />
		<tag k="waterway" v="stream" />
	</node>
	<node id="-627824" lat="60.3480250014" lon="6.12634999921">
		<tag k="name" v="Langneset" />
>>>>>>> e1d4bc35ff8a6074a6f2e91616a996b547c36f15
		<tag k="natural" v="cape" />
		<tag k="ssr:stedsnr" v="469711" />
	</node>
<<<<<<< HEAD
	<node lat="60.406422991464545" lon="6.312987956506214" id="-28767">
		<tag k="alt_name" v="Eitertjørn" />
		<tag k="name" v="Eitertjørni" />
		<tag k="natural" v="water" />
		<tag k="ssr:stedsnr" v="490182" />
	</node>
	<node lat="60.198488892885074" lon="5.9197694361532545" id="-28774">
		<tag k="name" v="Grovvatnet" />
=======
	<node id="-627817" lat="60.4351083292" lon="6.16101388468">
		<tag k="name" v="Kjølo" />
		<tag k="ssr:stedsnr" v="733428" />
		<tag k="waterway" v="stream" />
	</node>
	<node id="-627813" lat="60.4555833373" lon="5.98421388469">
		<tag k="alt_name" v="Holmevatnet" />
		<tag k="name" v="Holmavatnet" />
>>>>>>> e1d4bc35ff8a6074a6f2e91616a996b547c36f15
		<tag k="natural" v="water" />
		<tag k="ssr:stedsnr" v="490495" />
	</node>
<<<<<<< HEAD
	<node lat="60.40408888802484" lon="6.165158331107251" id="-28782">
		<tag k="name" v="Nystølelva" />
		<tag k="ssr:stedsnr" v="490737" />
		<tag k="waterway" v="stream" />
	</node>
	<node lat="60.402911110034765" lon="6.0212583381245315" id="-28793">
		<tag k="name" v="Sandåni" />
		<tag k="ssr:stedsnr" v="492584" />
		<tag k="waterway" v="stream" />
	</node>
	<node lat="60.220694187967894" lon="5.953454039081447" id="-28805">
		<tag k="name" v="Gjerdeelva" />
		<tag k="ssr:stedsnr" v="528673" />
		<tag k="waterway" v="river" />
	</node>
	<node lat="60.35821389136649" lon="6.000358324131099" id="-28806">
		<tag k="name" v="Krokavassbekken" />
		<tag k="ssr:stedsnr" v="528803" />
		<tag k="waterway" v="stream" />
	</node>
	<node lat="60.51541111165133" lon="6.160461112405662" id="-28809">
		<tag k="name" v="Fossane" />
		<tag k="natural" v="waterfall" />
		<tag k="ssr:stedsnr" v="529012" />
	</node>
	<node lat="60.47478453992696" lon="6.078695188091923" id="-28810">
		<tag k="name" v="Vendingstjørn" />
=======
	<node id="-627809" lat="60.478200001" lon="6.01546110219">
		<tag k="name" v="Sputtebekken" />
		<tag k="ssr:stedsnr" v="733352" />
		<tag k="waterway" v="stream" />
	</node>
	<node id="-627807" lat="60.4690083356" lon="6.01696389096">
		<tag k="name" v="Nordelva" />
		<tag k="ssr:stedsnr" v="733328" />
		<tag k="waterway" v="stream" />
	</node>
	<node id="-627806" lat="60.4577472196" lon="6.34526110733">
		<tag k="name" v="Bjølsegrøvvatnet" />
		<tag k="natural" v="water" />
		<tag k="ssr:stedsnr" v="733195" />
		<tag k="water" v="lake" />
	</node>
	<node id="-627793" lat="60.4786093582" lon="6.36892793167">
		<tag k="name" v="Kalavatnet" />
		<tag k="natural" v="water" />
		<tag k="ssr:stedsnr" v="612764" />
		<tag k="water" v="lake" />
	</node>
	<node id="-627792" lat="60.4947225191" lon="6.35428796885">
		<tag k="name" v="Djupebottvatnet" />
		<tag k="natural" v="water" />
		<tag k="ssr:stedsnr" v="612756" />
		<tag k="water" v="lake" />
	</node>
	<node id="-627787" lat="60.3852833352" lon="5.99849166351">
		<tag k="name" v="Røyrlitjørn" />
		<tag k="natural" v="water" />
		<tag k="ssr:stedsnr" v="612716" />
	</node>
	<node id="-627786" lat="60.386569449" lon="6.12895834181">
		<tag k="name" v="Vetlavatnet" />
>>>>>>> e1d4bc35ff8a6074a6f2e91616a996b547c36f15
		<tag k="natural" v="water" />
		<tag k="ssr:stedsnr" v="529211" />
	</node>
<<<<<<< HEAD
	<node lat="60.20462499699513" lon="5.927419443121427" id="-28821">
		<tag k="name" v="Kamshovebekken" />
		<tag k="ssr:stedsnr" v="529905" />
		<tag k="waterway" v="stream" />
	</node>
	<node lat="60.24302499644504" lon="5.9776305570647645" id="-28832">
		<tag k="name" v="Træå" />
		<tag k="ssr:stedsnr" v="530724" />
		<tag k="waterway" v="stream" />
	</node>
	<node lat="60.505172219238375" lon="6.142833327624937" id="-28854">
		<tag k="name" v="Svartedalstjørna" />
=======
	<node id="-627212" lat="60.4074388916" lon="6.16639721687">
		<tag k="name" v="Soget" />
		<tag k="ssr:stedsnr" v="287190" />
		<tag k="waterway" v="river" />
	</node>
	<node id="-627770" lat="60.4620764427" lon="6.25570476965">
		<tag k="name" v="Krokavatnet" />
		<tag k="natural" v="water" />
		<tag k="ssr:stedsnr" v="611206" />
	</node>
	<node id="-627759" lat="60.4064722223" lon="6.03302222796">
		<tag k="name" v="Goddalsbekken" />
		<tag k="ssr:stedsnr" v="712833" />
		<tag k="waterway" v="stream" />
	</node>
	<node id="-627758" lat="60.4438813845" lon="5.9794882381">
		<tag k="name" v="Rundatjørni" />
>>>>>>> e1d4bc35ff8a6074a6f2e91616a996b547c36f15
		<tag k="natural" v="water" />
		<tag k="ssr:stedsnr" v="551799" />
	</node>
<<<<<<< HEAD
	<node lat="60.50961797981598" lon="6.0896438024044155" id="-28864">
		<tag k="alt_name" v="Haldreifossen" />
		<tag k="name" v="Hallreifossen" />
		<tag k="natural" v="waterfall" />
		<tag k="ssr:stedsnr" v="552786" />
	</node>
	<node lat="60.36210555599081" lon="5.990877783299641" id="-28867">
		<tag k="name" v="Nystølstjørn" />
=======
	<node id="-627749" lat="60.5200155024" lon="6.1545267985">
		<tag k="name" v="Tjørnadalstjørna" />
>>>>>>> e1d4bc35ff8a6074a6f2e91616a996b547c36f15
		<tag k="natural" v="water" />
		<tag k="ssr:stedsnr" v="576051" />
	</node>
<<<<<<< HEAD
	<node lat="60.51248055931865" lon="6.15248333505056" id="-28869">
		<tag k="name" v="Neselva" />
		<tag k="ssr:stedsnr" v="577710" />
		<tag k="waterway" v="river" />
	</node>
	<node lat="60.41547222051365" lon="6.147075003777055" id="-28870">
		<tag k="name" v="Torelona" />
		<tag k="place" v="locality" />
		<tag k="ssr:stedsnr" v="577718" />
	</node>
	<node lat="60.251200002800715" lon="5.973555553149535" id="-28873">
		<tag k="name" v="Lonene" />
		<tag k="natural" v="water" />
		<tag k="ssr:stedsnr" v="578817" />
		<tag k="water" v="lake" />
	</node>
	<node lat="60.511427776328766" lon="6.129388897870403" id="-28874">
		<tag k="name" v="Kyrkjeholmen" />
		<tag k="place" v="islet" />
		<tag k="ssr:stedsnr" v="589011" />
	</node>
	<node lat="60.447575628128234" lon="6.07871154667654" id="-28881">
		<tag k="name" v="Øvre Fugladalsvatnet" />
		<tag k="natural" v="water" />
		<tag k="ssr:stedsnr" v="590211" />
		<tag k="water" v="lake" />
	</node>
	<node lat="60.38608055546809" lon="6.1407055560865125" id="-28883">
		<tag k="name" v="Åsheimselva" />
		<tag k="ssr:stedsnr" v="590215" />
		<tag k="waterway" v="river" />
	</node>
	<node lat="60.51452777903187" lon="6.10010832548654" id="-28886">
		<tag k="name" v="Dyrnes" />
		<tag k="natural" v="cape" />
		<tag k="ssr:stedsnr" v="590240" />
	</node>
	<node lat="60.373513892069504" lon="6.121022216494528" id="-28888">
		<tag k="alt_name" v="Steinsdalselvi" />
		<tag k="name" v="Steinsdalselva" />
		<tag k="ssr:stedsnr" v="590310" />
		<tag k="waterway" v="river" />
	</node>
	<node lat="60.336230559386074" lon="6.147716670071975" id="-28889">
		<tag k="name" v="Hestabakken" />
		<tag k="ssr:stedsnr" v="590313" />
		<tag k="waterway" v="stream" />
	</node>
	<node lat="60.35713610932023" lon="6.077961118568049" id="-28899">
		<tag k="name" v="Træbakkelva" />
		<tag k="ssr:stedsnr" v="590763" />
		<tag k="waterway" v="river" />
	</node>
	<node lat="60.29669244942644" lon="6.172160627149425" id="-28900">
		<tag k="name" v="Straumen" />
		<tag k="natural" v="bay" />
		<tag k="ssr:stedsnr" v="590903" />
	</node>
	<node lat="60.429908331653635" lon="6.269330559539909" id="-28903">
		<tag k="name" v="Vetlavatnet" />
		<tag k="natural" v="water" />
		<tag k="ssr:stedsnr" v="699354" />
		<tag k="water" v="lake" />
	</node>
	<node lat="60.462076442692506" lon="6.255704769651201" id="-28908">
		<tag k="name" v="Krokavatnet" />
		<tag k="natural" v="water" />
		<tag k="ssr:stedsnr" v="611206" />
	</node>
	<node lat="60.385283335204925" lon="5.998491663512447" id="-28926">
		<tag k="name" v="Røyrlitjørn" />
		<tag k="natural" v="water" />
		<tag k="ssr:stedsnr" v="612716" />
	</node>
	<node lat="60.47860935823606" lon="6.368927931673511" id="-28927">
		<tag k="name" v="Kalavatnet" />
=======
	<node id="-627740" lat="60.4210194406" lon="6.21936388754">
		<tag k="name" v="Sekkelva" />
		<tag k="ssr:stedsnr" v="712124" />
		<tag k="waterway" v="river" />
	</node>
	<node id="-627736" lat="60.2988777764" lon="6.15490556285">
		<tag k="name" v="Løken" />
		<tag k="natural" v="beach" />
		<tag k="ssr:stedsnr" v="590934" />
	</node>
	<node id="-627735" lat="60.2966924494" lon="6.17216062715">
		<tag k="name" v="Straumen" />
		<tag k="natural" v="bay" />
		<tag k="ssr:stedsnr" v="590903" />
	</node>
	<node id="-627729" lat="60.2690083339" lon="6.15219721936">
		<tag k="name" v="Langaneset" />
		<tag k="natural" v="cape" />
		<tag k="ssr:stedsnr" v="590545" />
	</node>
	<node id="-627723" lat="60.3844055553" lon="6.18947777838">
		<tag k="name" v="Vikelva" />
		<tag k="ssr:stedsnr" v="590104" />
		<tag k="waterway" v="river" />
	</node>
	<node id="-627713" lat="60.2170361094" lon="5.97548888132">
		<tag k="name" v="Fjellstrand" />
		<tag k="natural" v="beach" />
		<tag k="ssr:stedsnr" v="589674" />
	</node>
	<node id="-627708" lat="60.1280194457" lon="5.87351388334">
		<tag k="name" v="Kvitebergselva" />
		<tag k="ssr:stedsnr" v="711301" />
		<tag k="waterway" v="river" />
	</node>
	<node id="-627705" lat="60.3760166635" lon="6.05958612022">
		<tag k="name" v="Botegotene" />
		<tag k="natural" v="water" />
		<tag k="ssr:stedsnr" v="711196" />
		<tag k="water" v="lake" />
	</node>
	<node id="-627695" lat="60.4154722205" lon="6.14707500378">
		<tag k="name" v="Torelona" />
		<tag k="place" v="locality" />
		<tag k="ssr:stedsnr" v="577718" />
	</node>
	<node id="-627694" lat="60.5124805593" lon="6.15248333505">
		<tag k="name" v="Neselva" />
		<tag k="ssr:stedsnr" v="577710" />
		<tag k="waterway" v="river" />
	</node>
	<node id="-627678" lat="60.4461638928" lon="5.99742499316">
		<tag k="name" v="Viervollo" />
		<tag k="ssr:stedsnr" v="529849" />
		<tag k="waterway" v="river" />
	</node>
	<node id="-627666" lat="60.5154111117" lon="6.16046111241">
		<tag k="name" v="Fossane" />
		<tag k="natural" v="waterfall" />
		<tag k="ssr:stedsnr" v="529012" />
	</node>
	<node id="-627649" lat="60.502327775" lon="6.04798056055">
		<tag k="name" v="Tjørnadalstjørni" />
>>>>>>> e1d4bc35ff8a6074a6f2e91616a996b547c36f15
		<tag k="natural" v="water" />
		<tag k="ssr:stedsnr" v="612764" />
		<tag k="water" v="lake" />
	</node>
<<<<<<< HEAD
	<node lat="60.518663886188605" lon="6.155999993560262" id="-28929">
		<tag k="name" v="Stølselvi" />
		<tag k="ssr:stedsnr" v="613033" />
		<tag k="waterway" v="stream" />
	</node>
	<node lat="60.16114721898295" lon="5.895227777067978" id="-28934">
		<tag k="name" v="Kvitelva" />
		<tag k="ssr:stedsnr" v="649338" />
		<tag k="waterway" v="river" />
	</node>
	<node lat="60.1905055551004" lon="5.898794442564142" id="-28944">
		<tag k="name" v="Leitefossen" />
		<tag k="natural" v="waterfall" />
		<tag k="ssr:stedsnr" v="650896" />
	</node>
	<node lat="60.38168332916633" lon="5.920541659745737" id="-28965">
		<tag k="name" v="Sevjena" />
		<tag k="ssr:stedsnr" v="651894" />
		<tag k="waterway" v="stream" />
	</node>
	<node lat="60.294224998572304" lon="6.1679388873338175" id="-28966">
		<tag k="name" v="Dragselv" />
		<tag k="ssr:stedsnr" v="651907" />
		<tag k="waterway" v="river" />
	</node>
	<node lat="60.1850166657223" lon="5.90046388252931" id="-28967">
		<tag k="name" v="Tverrelva" />
		<tag k="ssr:stedsnr" v="651911" />
		<tag k="waterway" v="river" />
	</node>
	<node lat="60.45565555131904" lon="6.189658330676106" id="-28974">
		<tag k="name" v="Oaldstjørn" />
=======
	<node id="-627646" lat="60.2728833354" lon="6.1092138916">
		<tag k="name" v="Ivarstegelva" />
		<tag k="ssr:stedsnr" v="673826" />
		<tag k="waterway" v="stream" />
	</node>
	<node id="-627636" lat="60.4093299921" lon="6.09809792306">
		<tag k="name" v="Svartavatnet" />
		<tag k="natural" v="water" />
		<tag k="ssr:stedsnr" v="673737" />
	</node>
	<node id="-627632" lat="60.3907277773" lon="5.97158611344">
		<tag k="name" v="Røyro" />
		<tag k="ssr:stedsnr" v="673702" />
		<tag k="waterway" v="stream" />
	</node>
	<node id="-627631" lat="60.3882999995" lon="6.06488611478">
		<tag k="name" v="Sælesetetjørna" />
		<tag k="natural" v="water" />
		<tag k="ssr:stedsnr" v="673696" />
	</node>
	<node id="-627624" lat="60.3509051447" lon="5.998521908">
		<tag k="name" v="Storavatnet" />
		<tag k="natural" v="water" />
		<tag k="ssr:stedsnr" v="673614" />
	</node>
	<node id="-627618" lat="60.4901365416" lon="6.01660786296">
		<tag k="name" v="Båtvatnet" />
>>>>>>> e1d4bc35ff8a6074a6f2e91616a996b547c36f15
		<tag k="natural" v="water" />
		<tag k="ssr:stedsnr" v="672414" />
	</node>
<<<<<<< HEAD
	<node lat="60.21983255892294" lon="5.963035711387986" id="-28978">
		<tag k="name" v="Gjerdaelva" />
		<tag k="ssr:stedsnr" v="672486" />
		<tag k="waterway" v="river" />
	</node>
	<node lat="60.31304961117813" lon="6.032184518823127" id="-28983">
=======
	<node id="-627615" lat="60.4317627744" lon="6.28374262423">
		<tag k="alt_name" v="Grønhovdetjørn" />
		<tag k="name" v="Grønhovdetjørni" />
		<tag k="natural" v="water" />
		<tag k="ssr:stedsnr" v="673250" />
	</node>
	<node id="-627607" lat="60.3130496112" lon="6.03218451882">
>>>>>>> e1d4bc35ff8a6074a6f2e91616a996b547c36f15
		<tag k="name" v="Oshaugtjørn" />
		<tag k="natural" v="water" />
		<tag k="ssr:stedsnr" v="672978" />
	</node>
<<<<<<< HEAD
	<node lat="60.35090514465187" lon="5.998521907998564" id="-28988">
		<tag k="name" v="Storavatnet" />
=======
	<node id="-627604" lat="60.1179173933" lon="5.89686104736">
		<tag k="alt_name" v="Svartatjørn" />
		<tag k="name" v="Svartatjørna" />
>>>>>>> e1d4bc35ff8a6074a6f2e91616a996b547c36f15
		<tag k="natural" v="water" />
		<tag k="ssr:stedsnr" v="673614" />
	</node>
<<<<<<< HEAD
	<node lat="60.272883335402575" lon="6.109213891604649" id="-28999">
		<tag k="name" v="Ivarstegelva" />
		<tag k="ssr:stedsnr" v="673826" />
		<tag k="waterway" v="stream" />
	</node>
	<node lat="60.18356667023046" lon="5.952705561144014" id="-29006">
		<tag k="name" v="Kolabekken" />
		<tag k="ssr:stedsnr" v="893368" />
		<tag k="waterway" v="stream" />
	</node>
	<node lat="60.36586074024301" lon="6.011531753955875" id="-29009">
		<tag k="name" v="Tverrbekken" />
		<tag k="ssr:stedsnr" v="893829" />
		<tag k="waterway" v="stream" />
	</node>
	<node lat="60.35988610720233" lon="6.136147229226896" id="-29017">
		<tag k="name" v="Sandvenelva" />
		<tag k="ssr:stedsnr" v="894154" />
		<tag k="waterway" v="river" />
	</node>
	<node lat="60.35951667025655" lon="6.110066665806664" id="-29018">
		<tag k="name" v="Kvålselva" />
		<tag k="ssr:stedsnr" v="894155" />
		<tag k="waterway" v="river" />
	</node>
	<node lat="60.47079999692032" lon="6.064044438010952" id="-29023">
		<tag k="name" v="Tverrelvane" />
		<tag k="ssr:stedsnr" v="894261" />
		<tag k="waterway" v="river" />
	</node>
	<node lat="60.47981944260444" lon="6.199955560632787" id="-29031">
		<tag k="name" v="Flydlielva" />
		<tag k="ssr:stedsnr" v="894300" />
		<tag k="waterway" v="river" />
	</node>
	<node lat="60.48131944839516" lon="6.206188893905375" id="-29032">
		<tag k="name" v="Flatabøelva" />
		<tag k="ssr:stedsnr" v="894301" />
		<tag k="waterway" v="river" />
	</node>
	<node lat="60.37140277851176" lon="5.990755554005213" id="-29041">
		<tag k="name" v="Løken" />
		<tag k="ssr:stedsnr" v="894848" />
		<tag k="waterway" v="river" />
	</node>
	<node lat="60.38297777408117" lon="6.027541667721043" id="-29043">
		<tag k="name" v="Skarbekken" />
		<tag k="ssr:stedsnr" v="894850" />
		<tag k="waterway" v="stream" />
	</node>
	<node lat="60.37552500327424" lon="6.139680551017795" id="-29060">
		<tag k="name" v="Sundsvik" />
		<tag k="natural" v="bay" />
		<tag k="ssr:stedsnr" v="711213" />
	</node>
	<node lat="60.1280194456596" lon="5.873513883343244" id="-29063">
		<tag k="name" v="Kvitebergselva" />
		<tag k="ssr:stedsnr" v="711301" />
		<tag k="waterway" v="river" />
	</node>
	<node lat="60.361736113700545" lon="6.096486114306835" id="-29069">
		<tag k="name" v="Ruflebekken" />
		<tag k="ssr:stedsnr" v="711785" />
		<tag k="waterway" v="stream" />
	</node>
	<node lat="60.42101944062336" lon="6.219363887542141" id="-29073">
		<tag k="name" v="Sekkelva" />
		<tag k="ssr:stedsnr" v="712124" />
		<tag k="waterway" v="river" />
	</node>
	<node lat="60.52001550240905" lon="6.154526798498896" id="-29077">
		<tag k="name" v="Tjørnadalstjørna" />
=======
	<node id="-627603" lat="60.28569358" lon="6.09877525806">
		<tag k="alt_name" v="Snøfannatjørna;Krokavasstjønn" />
		<tag k="name" v="Krokavasstjørna" />
		<tag k="natural" v="water" />
		<tag k="ssr:stedsnr" v="672893" />
	</node>
	<node id="-627597" lat="60.354811113" lon="6.10935000531">
		<tag k="name" v="Liastølselva" />
		<tag k="ssr:stedsnr" v="672581" />
		<tag k="waterway" v="stream" />
	</node>
	<node id="-627595" lat="60.3426405687" lon="5.95261785006">
		<tag k="alt_name" v="Kjelsvatn" />
		<tag k="name" v="Kjelsvatnet" />
		<tag k="natural" v="water" />
		<tag k="ssr:stedsnr" v="672553" />
	</node>
	<node id="-627585" lat="60.4556555513" lon="6.18965833068">
		<tag k="name" v="Oaldstjørn" />
		<tag k="natural" v="water" />
		<tag k="ssr:stedsnr" v="672414" />
	</node>
	<node id="-627584" lat="60.4348805515" lon="6.0173999999">
		<tag k="name" v="Skukkatjørnane" />
		<tag k="natural" v="water" />
		<tag k="ssr:stedsnr" v="672390" />
	</node>
	<node id="-627577" lat="60.2578916669" lon="6.11142776888">
		<tag k="name" v="Røyrvikelva" />
		<tag k="ssr:stedsnr" v="469636" />
		<tag k="waterway" v="river" />
	</node>
	<node id="-627575" lat="60.3234361135" lon="6.11201945024">
		<tag k="name" v="Orfallet" />
		<tag k="ssr:stedsnr" v="469611" />
		<tag k="waterway" v="rapids" />
	</node>
	<node id="-627570" lat="60.3594472196" lon="6.01125555926">
		<tag k="name" v="Langvotnebekken" />
		<tag k="ssr:stedsnr" v="467825" />
		<tag k="waterway" v="stream" />
	</node>
	<node id="-629612" lat="60.3894923906" lon="5.91687005227">
		<tag k="name" v="Eikedalsvatnet" />
		<tag k="natural" v="water" />
		<tag k="ssr:stedsnr" v="794737" />
		<tag k="water" v="lake" />
	</node>
	<node id="-629611" lat="60.4277837072" lon="5.93469206484">
		<tag k="name" v="Skeisskartjørna" />
		<tag k="natural" v="water" />
		<tag k="ssr:stedsnr" v="369367" />
	</node>
	<node id="-627561" lat="60.4982735716" lon="6.14434959591">
		<tag k="name" v="Breisetevatnet" />
		<tag k="natural" v="water" />
		<tag k="ssr:stedsnr" v="431343" />
	</node>
	<node id="-627558" lat="60.3704892332" lon="6.04174083687">
		<tag k="name" v="Tokagjelselva" />
		<tag k="ssr:stedsnr" v="517383" />
		<tag k="waterway" v="river" />
	</node>
	<node id="-627552" lat="60.4072013091" lon="6.10339154322">
		<tag k="name" v="Øvra Jørstavatnet" />
		<tag k="natural" v="water" />
		<tag k="ssr:stedsnr" v="430731" />
	</node>
	<node id="-627551" lat="60.3971805549" lon="6.01467778349">
		<tag k="alt_name" v="Kvanndalsvatnet" />
		<tag k="name" v="Steinskvanndalsvatnet" />
>>>>>>> e1d4bc35ff8a6074a6f2e91616a996b547c36f15
		<tag k="natural" v="water" />
		<tag k="ssr:stedsnr" v="712465" />
	</node>
<<<<<<< HEAD
	<node lat="60.40647222225667" lon="6.0330222279565655" id="-29090">
		<tag k="name" v="Goddalsbekken" />
		<tag k="ssr:stedsnr" v="712833" />
		<tag k="waterway" v="stream" />
	</node>
	<node lat="60.46732448521383" lon="6.419930012225594" id="-29103">
		<tag k="name" v="Karaldevatnet" />
		<tag k="natural" v="water" />
		<tag k="ssr:stedsnr" v="733203" />
		<tag k="water" v="lake" />
	</node>
	<node lat="60.46391944606285" lon="6.376680561103718" id="-29104">
		<tag k="name" v="Bjølsegrotjørni" />
=======
	<node id="-627544" lat="60.3621000008" lon="6.13695556446">
		<tag k="name" v="Sandveelvi" />
		<tag k="ssr:stedsnr" v="430617" />
		<tag k="waterway" v="stream" />
	</node>
	<node id="-627542" lat="60.3461611068" lon="5.95808333557">
		<tag k="name" v="Kjelsbekken" />
		<tag k="ssr:stedsnr" v="430606" />
		<tag k="waterway" v="stream" />
	</node>
	<node id="-627533" lat="60.4149529245" lon="6.27887299018">
		<tag k="name" v="Lomatjørni" />
>>>>>>> e1d4bc35ff8a6074a6f2e91616a996b547c36f15
		<tag k="natural" v="water" />
		<tag k="ssr:stedsnr" v="733204" />
	</node>
<<<<<<< HEAD
	<node lat="60.45774721964592" lon="6.3452611073312175" id="-29105">
		<tag k="name" v="Bjølsegrøvvatnet" />
=======
	<node id="-629579" lat="60.3907937876" lon="5.95710834769">
		<tag k="name" v="Måvotsvatnet" />
>>>>>>> e1d4bc35ff8a6074a6f2e91616a996b547c36f15
		<tag k="natural" v="water" />
		<tag k="ssr:stedsnr" v="733195" />
		<tag k="water" v="lake" />
	</node>
<<<<<<< HEAD
	<node lat="60.34802500135711" lon="6.126349999210164" id="-29109">
		<tag k="name" v="Langneset" />
		<tag k="natural" v="cape" />
		<tag k="ssr:stedsnr" v="733536" />
	</node>
	<node lat="60.40118333493634" lon="6.007502784592773" id="-29114">
		<tag k="name" v="Tjørnelvi" />
		<tag k="ssr:stedsnr" v="733700" />
		<tag k="waterway" v="stream" />
	</node>
	<node lat="60.264833735655955" lon="6.091817698334107" id="-29119">
		<tag k="name" v="Lingavatnet" />
		<tag k="natural" v="water" />
		<tag k="ssr:stedsnr" v="733778" />
	</node>
	<node lat="60.2616555580236" lon="6.1069666683093615" id="-29120">
		<tag k="name" v="Storavatnet" />
		<tag k="natural" v="water" />
		<tag k="ssr:stedsnr" v="733780" />
		<tag k="water" v="lake" />
	</node>
	<node lat="60.3070836092045" lon="6.02597029292173" id="-29121">
		<tag k="name" v="Botnavatnet" />
		<tag k="natural" v="water" />
		<tag k="ssr:stedsnr" v="733944" />
	</node>
	<node lat="60.2963944470647" lon="6.054875005045968" id="-29125">
		<tag k="name" v="Kvernelva" />
		<tag k="ssr:stedsnr" v="734912" />
		<tag k="waterway" v="river" />
	</node>
	<node lat="60.3652277759168" lon="6.008830551837682" id="-29128">
		<tag k="name" v="Gåsabotntjørn" />
=======
	<node id="-629573" lat="60.3081791869" lon="6.1604271678">
		<tag k="name" v="Tuftaholmen" />
		<tag k="place" v="islet" />
		<tag k="ssr:stedsnr" v="954575" />
	</node>
	<node id="-629568" lat="60.4036944491" lon="6.15907500757">
		<tag k="name" v="Nystølelva" />
		<tag k="ssr:stedsnr" v="954493" />
		<tag k="waterway" v="river" />
	</node>
	<node id="-629562" lat="60.41780278" lon="6.36438611191">
		<tag k="name" v="Bjølvefossen" />
		<tag k="natural" v="waterfall" />
		<tag k="ssr:stedsnr" v="954306" />
	</node>
	<node id="-629561" lat="60.1149164439" lon="5.89681434706">
		<tag k="name" v="Gruvetjørna" />
		<tag k="natural" v="water" />
		<tag k="ssr:stedsnr" v="954297" />
	</node>
	<node id="-629558" lat="60.4150250009" lon="6.09122778329">
		<tag k="name" v="Gråursviki" />
		<tag k="natural" v="bay" />
		<tag k="ssr:stedsnr" v="954214" />
	</node>
	<node id="-627508" lat="60.5066916655" lon="6.07562500153">
		<tag k="name" v="Stølselvi" />
		<tag k="ssr:stedsnr" v="492758" />
		<tag k="waterway" v="stream" />
	</node>
	<node id="-627506" lat="60.40291111" lon="6.02125833812">
		<tag k="name" v="Sandåni" />
		<tag k="ssr:stedsnr" v="492584" />
		<tag k="waterway" v="stream" />
	</node>
	<node id="-629553" lat="60.4301055541" lon="6.16909444914">
		<tag k="name" v="Flyaelva" />
		<tag k="ssr:stedsnr" v="954125" />
		<tag k="waterway" v="river" />
	</node>
	<node id="-627497" lat="60.2690916633" lon="6.1199305528">
		<tag k="name" v="Sagbekken" />
		<tag k="ssr:stedsnr" v="491813" />
		<tag k="waterway" v="stream" />
	</node>
	<node id="-629544" lat="60.2087722262" lon="5.95573611295">
		<tag k="name" v="Tresneselva" />
		<tag k="ssr:stedsnr" v="954677" />
		<tag k="waterway" v="river" />
	</node>
	<node id="-629538" lat="60.5003946573" lon="6.03695752535">
		<tag k="name" v="Langtjørni" />
>>>>>>> e1d4bc35ff8a6074a6f2e91616a996b547c36f15
		<tag k="natural" v="water" />
		<tag k="ssr:stedsnr" v="759397" />
	</node>
<<<<<<< HEAD
	<node lat="60.508488887082656" lon="6.0743416724212596" id="-29134">
		<tag k="name" v="Kjelafossen" />
		<tag k="natural" v="waterfall" />
		<tag k="ssr:stedsnr" v="772016" />
	</node>
	<node lat="60.16068611406082" lon="5.882802779067268" id="-29155">
		<tag k="name" v="Setratjørna" />
		<tag k="natural" v="water" />
		<tag k="ssr:stedsnr" v="793618" />
	</node>
	<node lat="60.412890003514306" lon="6.072392064785173" id="-29163">
		<tag k="name" v="Myklavatnet" />
=======
	<node id="-629537" lat="60.5159138847" lon="6.05906389651">
		<tag k="name" v="Kjerringabekken" />
		<tag k="ssr:stedsnr" v="856977" />
		<tag k="waterway" v="stream" />
	</node>
	<node id="-627484" lat="60.3313222177" lon="6.0609527724">
		<tag k="name" v="Tjørndalsbekken" />
		<tag k="ssr:stedsnr" v="491561" />
		<tag k="waterway" v="stream" />
	</node>
	<node id="-627483" lat="60.3362623539" lon="6.12316709536">
		<tag k="name" v="Torsteinsvatnet" />
>>>>>>> e1d4bc35ff8a6074a6f2e91616a996b547c36f15
		<tag k="natural" v="water" />
		<tag k="ssr:stedsnr" v="794479" />
		<tag k="water" v="lake" />
	</node>
<<<<<<< HEAD
	<node lat="60.32294445772748" lon="6.059042682147702" id="-29164">
		<tag k="name" v="Hågelivatnet" />
=======
	<node id="-627482" lat="60.4963452007" lon="6.1582088802">
		<tag k="name" v="Gråurvatnet" />
		<tag k="natural" v="water" />
		<tag k="ssr:stedsnr" v="491335" />
	</node>
	<node id="-629529" lat="60.2597392815" lon="6.12197124927">
		<tag k="name" v="Tveitatjørna" />
>>>>>>> e1d4bc35ff8a6074a6f2e91616a996b547c36f15
		<tag k="natural" v="water" />
		<tag k="ssr:stedsnr" v="794487" />
	</node>
<<<<<<< HEAD
	<node lat="60.3418916628453" lon="6.09801111357505" id="-29169">
		<tag k="name" v="Tjørnane" />
=======
	<node id="-629526" lat="60.4756249978" lon="6.33251110685">
		<tag k="name" v="Kistefjellstjørnane" />
>>>>>>> e1d4bc35ff8a6074a6f2e91616a996b547c36f15
		<tag k="natural" v="water" />
		<tag k="ssr:stedsnr" v="794565" />
		<tag k="water" v="lake" />
	</node>
<<<<<<< HEAD
	<node lat="60.40040555289388" lon="6.17315555544124" id="-29174">
		<tag k="alt_name" v="Ørdalsfossen" />
		<tag k="name" v="Ørredalsfossen" />
		<tag k="natural" v="waterfall" />
		<tag k="ssr:stedsnr" v="794716" />
	</node>
	<node lat="60.26333141161606" lon="6.131771873104741" id="-29179">
		<tag k="name" v="Kolltveittjørna" />
=======
	<node id="-629518" lat="60.390416532" lon="6.0452114001">
		<tag k="name" v="Botnatjørn" />
>>>>>>> e1d4bc35ff8a6074a6f2e91616a996b547c36f15
		<tag k="natural" v="water" />
		<tag k="ssr:stedsnr" v="794786" />
	</node>
<<<<<<< HEAD
	<node lat="60.26949444317522" lon="5.987077772939366" id="-29190">
		<tag k="name" v="Skardselva" />
		<tag k="ssr:stedsnr" v="794867" />
		<tag k="waterway" v="stream" />
	</node>
	<node lat="60.29098055280007" lon="6.048536111370294" id="-29194">
		<tag k="name" v="Tordalsvatnet" />
=======
	<node id="-629517" lat="60.3888555537" lon="6.10610555428">
		<tag k="name" v="Alkleivselva" />
		<tag k="ssr:stedsnr" v="855723" />
		<tag k="waterway" v="stream" />
	</node>
	<node id="-629516" lat="60.3785722252" lon="6.06854443771">
		<tag k="name" v="Vetlademma" />
>>>>>>> e1d4bc35ff8a6074a6f2e91616a996b547c36f15
		<tag k="natural" v="water" />
		<tag k="ssr:stedsnr" v="794884" />
	</node>
<<<<<<< HEAD
	<node lat="60.43501944857716" lon="6.1229388946566194" id="-29197">
		<tag k="name" v="Eivindesetelva" />
		<tag k="ssr:stedsnr" v="915387" />
		<tag k="waterway" v="stream" />
	</node>
	<node lat="60.43153462919125" lon="6.05055431455823" id="-29198">
		<tag k="name" v="Svartebekktjørna" />
=======
	<node id="-627461" lat="60.3725014981" lon="5.95658937504">
		<tag k="name" v="Heiavatnet" />
>>>>>>> e1d4bc35ff8a6074a6f2e91616a996b547c36f15
		<tag k="natural" v="water" />
		<tag k="ssr:stedsnr" v="915390" />
	</node>
<<<<<<< HEAD
	<node lat="60.29189722405641" lon="6.152836102165787" id="-29200">
		<tag k="name" v="Lyselva" />
		<tag k="ssr:stedsnr" v="915882" />
		<tag k="waterway" v="stream" />
	</node>
	<node lat="60.28091388968604" lon="6.034972217327044" id="-29202">
		<tag k="name" v="Gjelelva" />
		<tag k="ssr:stedsnr" v="915891" />
		<tag k="waterway" v="stream" />
	</node>
	<node lat="60.42348055448307" lon="5.952313896608984" id="-29204">
		<tag k="name" v="Botnåna" />
		<tag k="ssr:stedsnr" v="915437" />
		<tag k="waterway" v="stream" />
	</node>
	<node lat="60.4230999959358" lon="5.965944440727281" id="-29205">
		<tag k="name" v="Raudåna" />
		<tag k="ssr:stedsnr" v="915438" />
		<tag k="waterway" v="stream" />
	</node>
	<node lat="60.36791432388707" lon="6.017400547569021" id="-29209">
		<tag k="name" v="Langvotnevatnet" />
		<tag k="natural" v="water" />
		<tag k="ssr:stedsnr" v="915638" />
		<tag k="water" v="lake" />
	</node>
	<node lat="60.30202225838275" lon="6.004653671097145" id="-29221">
		<tag k="name" v="Svartatjørn" />
		<tag k="natural" v="water" />
		<tag k="ssr:stedsnr" v="915943" />
	</node>
	<node lat="60.2761293630857" lon="6.108552615611636" id="-29224">
		<tag k="name" v="Gjuvaelva" />
		<tag k="ssr:stedsnr" v="916836" />
		<tag k="waterway" v="stream" />
	</node>
	<node lat="60.49676944815965" lon="6.032425001615992" id="-29233">
		<tag k="name" v="Djupatjørna" />
=======
	<node id="-627459" lat="60.3772166676" lon="6.10226111476">
		<tag k="name" v="Fosselva" />
		<tag k="ssr:stedsnr" v="490679" />
		<tag k="waterway" v="river" />
	</node>
	<node id="-627454" lat="60.3652608673" lon="5.96245165458">
		<tag k="name" v="Fossdalsvatnet" />
		<tag k="natural" v="water" />
		<tag k="ssr:stedsnr" v="490663" />
	</node>
	<node id="-629498" lat="60.4161669163" lon="5.9582071187">
		<tag k="alt_name" v="Skeis-Kvanndalsvatnet" />
		<tag k="name" v="Skeiskvanndalsvatnet" />
		<tag k="natural" v="water" />
		<tag k="ssr:stedsnr" v="855480" />
	</node>
	<node id="-629497" lat="60.4812861144" lon="6.19346389752">
		<tag k="name" v="Frytlielva" />
		<tag k="ssr:stedsnr" v="855330" />
		<tag k="waterway" v="stream" />
	</node>
	<node id="-629495" lat="60.241308337" lon="5.99205277441">
		<tag k="name" v="Børsheimselva" />
		<tag k="ssr:stedsnr" v="854728" />
		<tag k="waterway" v="stream" />
	</node>
	<node id="-629493" lat="60.1313194408" lon="5.87135278701">
		<tag k="name" v="Veslahorgsvatnet" />
>>>>>>> e1d4bc35ff8a6074a6f2e91616a996b547c36f15
		<tag k="natural" v="water" />
		<tag k="ssr:stedsnr" v="916343" />
	</node>
<<<<<<< HEAD
	<node lat="60.35157884110069" lon="5.998019139657925" id="-29234">
		<tag k="name" v="Skånavotna" />
=======
	<node id="-627442" lat="60.1984888929" lon="5.91976943615">
		<tag k="name" v="Grovvatnet" />
>>>>>>> e1d4bc35ff8a6074a6f2e91616a996b547c36f15
		<tag k="natural" v="water" />
		<tag k="ssr:stedsnr" v="916628" />
		<tag k="water" v="lake" />
	</node>
<<<<<<< HEAD
	<node lat="60.50658888750719" lon="6.128000005813955" id="-29238">
		<tag k="alt_name" v="Svortevik" />
		<tag k="name" v="Svorteviki" />
		<tag k="natural" v="bay" />
		<tag k="ssr:stedsnr" v="916792" />
	</node>
	<node lat="60.47163888460211" lon="6.28483333212396" id="-29240">
		<tag k="alt_name" v="Goddalsvatnet, midtre" />
		<tag k="name" v="Midtre Goddalsvatnet" />
=======
	<node id="-629481" lat="60.4637472217" lon="6.22352500547">
		<tag k="alt_name" v="Skårelvi;Skåroelva" />
		<tag k="name" v="Skoroelva" />
		<tag k="ssr:stedsnr" v="833396" />
		<tag k="waterway" v="river" />
	</node>
	<node id="-627431" lat="60.4575861076" lon="6.01629999897">
		<tag k="name" v="Frostadvatnet" />
>>>>>>> e1d4bc35ff8a6074a6f2e91616a996b547c36f15
		<tag k="natural" v="water" />
		<tag k="ssr:stedsnr" v="916797" />
		<tag k="water" v="lake" />
	</node>
<<<<<<< HEAD
	<node lat="60.52313611128843" lon="6.245905556355989" id="-29242">
		<tag k="name" v="Smalastigtjørnane" />
=======
	<node id="-627430" lat="60.4500080969" lon="6.0048520519">
		<tag k="name" v="Dragatjørna" />
		<tag k="natural" v="water" />
		<tag k="ssr:stedsnr" v="490366" />
	</node>
	<node id="-627429" lat="60.4493496806" lon="6.09420474387">
		<tag k="name" v="Vossadalsvatnet" />
>>>>>>> e1d4bc35ff8a6074a6f2e91616a996b547c36f15
		<tag k="natural" v="water" />
		<tag k="ssr:stedsnr" v="917590" />
		<tag k="water" v="lake" />
	</node>
<<<<<<< HEAD
	<node lat="60.40502222274187" lon="6.005591672006504" id="-29243">
		<tag k="name" v="Raudåna" />
		<tag k="ssr:stedsnr" v="917596" />
		<tag k="waterway" v="stream" />
	</node>
	<node lat="60.51363333131963" lon="6.0660694367918255" id="-29244">
		<tag k="alt_name" v="Viertjørni" />
		<tag k="name" v="Viertjørn" />
		<tag k="natural" v="water" />
		<tag k="ssr:stedsnr" v="917971" />
	</node>
	<node lat="60.506155560095806" lon="6.146950003073904" id="-29247">
		<tag k="name" v="Svartedalsvika" />
		<tag k="natural" v="bay" />
		<tag k="ssr:stedsnr" v="820681" />
	</node>
	<node lat="60.5098148544082" lon="6.072486395892787" id="-29252">
=======
	<node id="-627426" lat="60.3422555555" lon="6.18627221895">
		<tag k="name" v="Hestadbekken" />
		<tag k="ssr:stedsnr" v="490291" />
		<tag k="waterway" v="stream" />
	</node>
	<node id="-627424" lat="60.4064229915" lon="6.31298795651">
		<tag k="alt_name" v="Eitertjørn" />
		<tag k="name" v="Eitertjørni" />
		<tag k="natural" v="water" />
		<tag k="ssr:stedsnr" v="490182" />
	</node>
	<node id="-629468" lat="60.3602250008" lon="6.14639721347">
		<tag k="alt_name" v="Kaldestadelvi" />
		<tag k="name" v="Kaldestadelva" />
		<tag k="ssr:stedsnr" v="833136" />
		<tag k="waterway" v="river" />
	</node>
	<node id="-629467" lat="60.3568333351" lon="6.11398333831">
		<tag k="name" v="Liastølselva" />
		<tag k="ssr:stedsnr" v="833133" />
		<tag k="waterway" v="river" />
	</node>
	<node id="-627414" lat="60.3827194442" lon="5.92376665889">
		<tag k="name" v="Tordalselva" />
		<tag k="ssr:stedsnr" v="347918" />
		<tag k="waterway" v="river" />
	</node>
	<node id="-629458" lat="60.5098148544" lon="6.07248639589">
>>>>>>> e1d4bc35ff8a6074a6f2e91616a996b547c36f15
		<tag k="name" v="Lomatjørn" />
		<tag k="natural" v="water" />
		<tag k="ssr:stedsnr" v="833004" />
	</node>
<<<<<<< HEAD
	<node lat="60.33989886318715" lon="6.136017035543277" id="-29257">
		<tag k="name" v="Mytjørn" />
=======
	<node id="-629456" lat="60.1487363717" lon="5.88598683281">
		<tag k="name" v="Setratjørna" />
>>>>>>> e1d4bc35ff8a6074a6f2e91616a996b547c36f15
		<tag k="natural" v="water" />
		<tag k="ssr:stedsnr" v="833459" />
	</node>
<<<<<<< HEAD
	<node lat="60.35683333505084" lon="6.113983338311479" id="-29259">
		<tag k="name" v="Liastølselva" />
		<tag k="ssr:stedsnr" v="833133" />
		<tag k="waterway" v="river" />
	</node>
	<node lat="60.36022500078069" lon="6.146397213465469" id="-29260">
		<tag k="alt_name" v="Kaldestadelvi" />
		<tag k="name" v="Kaldestadelva" />
		<tag k="ssr:stedsnr" v="833136" />
		<tag k="waterway" v="river" />
	</node>
	<node lat="60.36934166663892" lon="6.06120277178065" id="-29261">
		<tag k="name" v="Risbruelva" />
		<tag k="ssr:stedsnr" v="833304" />
		<tag k="waterway" v="river" />
	</node>
	<node lat="60.30991533766759" lon="6.160836663694983" id="-29265">
		<tag k="name" v="Bergsholmen" />
		<tag k="place" v="islet" />
		<tag k="ssr:stedsnr" v="833595" />
	</node>
	<node lat="60.416166916304725" lon="5.958207118700826" id="-29274">
		<tag k="alt_name" v="Skeis-Kvanndalsvatnet" />
		<tag k="name" v="Skeiskvanndalsvatnet" />
=======
	<node id="-629448" lat="60.5061555601" lon="6.14695000307">
		<tag k="name" v="Svartedalsvika" />
		<tag k="natural" v="bay" />
		<tag k="ssr:stedsnr" v="820681" />
	</node>
	<node id="-627397" lat="60.4236361147" lon="6.27082222868">
		<tag k="alt_name" v="Vetleelvi" />
		<tag k="name" v="Vetle-elv" />
		<tag k="ssr:stedsnr" v="347408" />
		<tag k="waterway" v="river" />
	</node>
	<node id="-627395" lat="60.4014083325" lon="6.06291389801">
		<tag k="name" v="Sunnvoredalsvika" />
		<tag k="natural" v="bay" />
		<tag k="ssr:stedsnr" v="347175" />
	</node>
	<node id="-629440" lat="60.3184429742" lon="5.94815492207">
		<tag k="name" v="Storavatnet" />
>>>>>>> e1d4bc35ff8a6074a6f2e91616a996b547c36f15
		<tag k="natural" v="water" />
		<tag k="ssr:stedsnr" v="855480" />
	</node>
<<<<<<< HEAD
	<node lat="60.49784019682734" lon="6.328281134460184" id="-29284">
		<tag k="name" v="Kvitavatnet" />
		<tag k="natural" v="water" />
		<tag k="ssr:stedsnr" v="855779" />
	</node>
	<node lat="60.4756249977692" lon="6.332511106849257" id="-29286">
		<tag k="name" v="Kistefjellstjørnane" />
		<tag k="natural" v="water" />
		<tag k="ssr:stedsnr" v="855802" />
		<tag k="water" v="lake" />
	</node>
	<node lat="60.29939999957141" lon="6.155355556453826" id="-29287">
		<tag k="name" v="Lyseneset" />
		<tag k="natural" v="cape" />
		<tag k="ssr:stedsnr" v="855913" />
	</node>
	<node lat="60.29937253109023" lon="6.02048737437694" id="-29291">
		<tag k="name" v="Sneldevatnet" />
=======
	<node id="-629437" lat="60.3989611089" lon="6.00227500228">
		<tag k="name" v="Skogstjørn" />
		<tag k="natural" v="water" />
		<tag k="ssr:stedsnr" v="794721" />
	</node>
	<node id="-629436" lat="60.4004055529" lon="6.17315555544">
		<tag k="alt_name" v="Ørdalsfossen" />
		<tag k="name" v="Ørredalsfossen" />
		<tag k="natural" v="waterfall" />
		<tag k="ssr:stedsnr" v="794716" />
	</node>
	<node id="-627387" lat="60.367552781" lon="6.05227221938">
		<tag k="name" v="Løgjelsbekken" />
		<tag k="ssr:stedsnr" v="346803" />
		<tag k="waterway" v="stream" />
	</node>
	<node id="-629433" lat="60.2446111151" lon="5.97557499833">
		<tag k="name" v="Træda" />
		<tag k="ssr:stedsnr" v="794706" />
		<tag k="waterway" v="stream" />
	</node>
	<node id="-627382" lat="60.2673249962" lon="6.06358333171">
		<tag k="alt_name" v="Litlelings-elva" />
		<tag k="name" v="Litlelingselva" />
		<tag k="ssr:stedsnr" v="309816" />
		<tag k="waterway" v="stream" />
	</node>
	<node id="-627369" lat="60.3251630718" lon="5.99659329363">
		<tag k="alt_name" v="Bjornspet" />
		<tag k="name" v="Bjørnspet" />
>>>>>>> e1d4bc35ff8a6074a6f2e91616a996b547c36f15
		<tag k="natural" v="water" />
		<tag k="ssr:stedsnr" v="855925" />
	</node>
<<<<<<< HEAD
	<node lat="60.37857222516106" lon="6.068544437705067" id="-29292">
		<tag k="name" v="Vetlademma" />
		<tag k="natural" v="water" />
		<tag k="ssr:stedsnr" v="855700" />
	</node>
	<node lat="60.280661115043486" lon="6.056844449575769" id="-29297">
		<tag k="name" v="Sandvika" />
		<tag k="natural" v="bay" />
		<tag k="ssr:stedsnr" v="881361" />
	</node>
	<node lat="60.51090555982618" lon="6.144363893653608" id="-29302">
		<tag k="name" v="Naustvik" />
		<tag k="natural" v="bay" />
		<tag k="ssr:stedsnr" v="893012" />
	</node>
	<node lat="60.17955278154495" lon="5.89697777203143" id="-29317">
		<tag k="name" v="Storelva" />
		<tag k="ssr:stedsnr" v="894381" />
		<tag k="waterway" v="river" />
	</node>
	<node lat="60.44005277876475" lon="6.437002786162891" id="-29326">
		<tag k="name" v="Dalaelva" />
		<tag k="ssr:stedsnr" v="894512" />
		<tag k="waterway" v="river" />
	</node>
	<node lat="60.267516663079675" lon="6.013824998163815" id="-29335">
		<tag k="name" v="Bruosen" />
		<tag k="natural" v="bay" />
		<tag k="ssr:stedsnr" v="894682" />
	</node>
	<node lat="60.334577776192624" lon="6.102941668711213" id="-29340">
		<tag k="name" v="Krokavatn" />
=======
	<node id="-629413" lat="60.2909805528" lon="6.04853611137">
		<tag k="name" v="Tordalsvatnet" />
		<tag k="natural" v="water" />
		<tag k="ssr:stedsnr" v="794884" />
	</node>
	<node id="-627363" lat="60.393666665" lon="6.0128777763">
		<tag k="name" v="Smørsund" />
		<tag k="natural" v="strait" />
		<tag k="ssr:stedsnr" v="469836" />
	</node>
	<node id="-629409" lat="60.2694944432" lon="5.98707777294">
		<tag k="name" v="Skardselva" />
		<tag k="ssr:stedsnr" v="794867" />
		<tag k="waterway" v="stream" />
	</node>
	<node id="-629406" lat="60.3361805531" lon="6.05348332663">
		<tag k="name" v="Svortetjørn" />
		<tag k="place" v="locality" />
		<tag k="ssr:stedsnr" v="794547" />
	</node>
	<node id="-629404" lat="60.3314750039" lon="6.1122222228">
		<tag k="alt_name" v="Lomtjørn" />
		<tag k="name" v="Lomtjørni" />
		<tag k="place" v="locality" />
		<tag k="ssr:stedsnr" v="794519" />
	</node>
	<node id="-629403" lat="60.3213722237" lon="5.95811110249">
		<tag k="name" v="Spræno" />
		<tag k="ssr:stedsnr" v="794501" />
		<tag k="waterway" v="stream" />
	</node>
	<node id="-627352" lat="60.3172972196" lon="6.04103889534">
		<tag k="name" v="Furenes" />
		<tag k="natural" v="cape" />
		<tag k="ssr:stedsnr" v="469711" />
	</node>
	<node id="-629398" lat="60.3229444577" lon="6.05904268215">
		<tag k="name" v="Hågelivatnet" />
		<tag k="natural" v="water" />
		<tag k="ssr:stedsnr" v="794487" />
	</node>
	<node id="-629397" lat="60.4128900035" lon="6.07239206479">
		<tag k="name" v="Myklavatnet" />
>>>>>>> e1d4bc35ff8a6074a6f2e91616a996b547c36f15
		<tag k="natural" v="water" />
		<tag k="ssr:stedsnr" v="894923" />
		<tag k="water" v="lake" />
	</node>
<<<<<<< HEAD
	<node lat="60.45955556017095" lon="6.39831667147556" id="-29344">
		<tag k="name" v="Synken" />
		<tag k="natural" v="bay" />
		<tag k="ssr:stedsnr" v="915179" />
	</node>
	<node lat="60.45494999846136" lon="6.387650004662425" id="-29345">
		<tag k="name" v="Neset" />
		<tag k="natural" v="cape" />
		<tag k="ssr:stedsnr" v="915181" />
	</node>
	<node lat="60.450516663724535" lon="6.335480550719523" id="-29348">
		<tag k="name" v="Bjørkeviki" />
		<tag k="natural" v="bay" />
		<tag k="ssr:stedsnr" v="915221" />
	</node>
	<node lat="60.44364166251746" lon="6.357916674010521" id="-29349">
		<tag k="name" v="Dammen" />
		<tag k="ssr:stedsnr" v="915226" />
		<tag k="waterway" v="dam" />
	</node>
	<node lat="60.419871611616564" lon="6.168258870567772" id="-29352">
		<tag k="name" v="Fitjadalsvatnet" />
		<tag k="natural" v="water" />
		<tag k="ssr:stedsnr" v="915475" />
		<tag k="water" v="lake" />
	</node>
	<node lat="60.41571666657973" lon="5.945519449742472" id="-29353">
		<tag k="name" v="Sandåna" />
		<tag k="ssr:stedsnr" v="915478" />
		<tag k="waterway" v="stream" />
	</node>
	<node lat="60.34621388583542" lon="6.034969436057816" id="-29355">
		<tag k="name" v="Teigelva" />
		<tag k="ssr:stedsnr" v="915579" />
		<tag k="waterway" v="river" />
	</node>
	<node lat="60.3370333321216" lon="6.168825008051304" id="-29362">
		<tag k="name" v="Tjørnshaugtjørn" />
		<tag k="place" v="locality" />
		<tag k="ssr:stedsnr" v="916563" />
	</node>
	<node lat="60.33788889146171" lon="6.136524993341931" id="-29363">
		<tag k="name" v="Myrtjørnane" />
=======
	<node id="-629393" lat="60.4699254399" lon="6.09343332846">
		<tag k="alt_name" v="Solheimdalsvatnet" />
		<tag k="name" v="Solheimedalsvatnet" />
		<tag k="natural" v="water" />
		<tag k="ssr:stedsnr" v="794337" />
	</node>
	<node id="-629392" lat="60.4684638929" lon="6.15188054705">
		<tag k="name" v="Skrottatjørn" />
		<tag k="natural" v="water" />
		<tag k="ssr:stedsnr" v="794334" />
	</node>
	<node id="-627343" lat="60.432831634" lon="6.27265739774">
		<tag k="name" v="Mødalsvatn" />
		<tag k="natural" v="water" />
		<tag k="ssr:stedsnr" v="469441" />
		<tag k="water" v="lake" />
	</node>
	<node id="-629379" lat="60.3842444418" lon="5.91732778034">
		<tag k="name" v="Neset" />
		<tag k="natural" v="cape" />
		<tag k="ssr:stedsnr" v="772887" />
	</node>
	<node id="-627329" lat="60.4055475739" lon="6.21406841795">
		<tag k="name" v="Myratjønn" />
		<tag k="natural" v="water" />
		<tag k="ssr:stedsnr" v="469080" />
	</node>
	<node id="-627328" lat="60.2533083348" lon="6.01063333344">
		<tag k="fixme" v="multiple name tags, choose one and add the other to alt_name" />
		<tag k="name" v="Osen;Risosen" />
		<tag k="natural" v="bay" />
		<tag k="ssr:stedsnr" v="468771" />
	</node>
	<node id="-627317" lat="60.5038500025" lon="6.15223054935">
		<tag k="name" v="Vassenden" />
		<tag k="natural" v="shoal" />
		<tag k="place" v="locality" />
		<tag k="ssr:stedsnr" v="468019" />
	</node>
	<node id="-629360" lat="60.3767611074" lon="6.01126110628">
		<tag k="name" v="Kvennelvi" />
		<tag k="ssr:stedsnr" v="772497" />
		<tag k="waterway" v="river" />
	</node>
	<node id="-629355" lat="60.4060186373" lon="6.32447233595">
		<tag k="name" v="Lomatjørn" />
		<tag k="natural" v="water" />
		<tag k="ssr:stedsnr" v="772299" />
	</node>
	<node id="-629352" lat="60.5084888871" lon="6.07434167242">
		<tag k="name" v="Kjelafossen" />
		<tag k="natural" v="waterfall" />
		<tag k="ssr:stedsnr" v="772016" />
	</node>
	<node id="-629350" lat="60.3410276819" lon="6.06140463508">
		<tag k="name" v="Toppatjørn" />
		<tag k="natural" v="water" />
		<tag k="ssr:stedsnr" v="771980" />
	</node>
	<node id="-627299" lat="60.5092916646" lon="6.15561388015">
		<tag k="name" v="Sundagsbeiteelva" />
		<tag k="ssr:stedsnr" v="287512" />
		<tag k="waterway" v="river" />
	</node>
	<node id="-627290" lat="60.4118249966" lon="6.08799999837">
		<tag k="name" v="Hestaneset" />
		<tag k="natural" v="cape" />
		<tag k="ssr:stedsnr" v="287177" />
	</node>
	<node id="-629337" lat="60.3652277759" lon="6.00883055184">
		<tag k="name" v="Gåsabotntjørn" />
>>>>>>> e1d4bc35ff8a6074a6f2e91616a996b547c36f15
		<tag k="natural" v="water" />
		<tag k="ssr:stedsnr" v="916567" />
		<tag k="water" v="lake" />
	</node>
<<<<<<< HEAD
	<node lat="60.35640564660568" lon="5.992004101353267" id="-29367">
		<tag k="name" v="Krokavatnet" />
		<tag k="natural" v="water" />
		<tag k="ssr:stedsnr" v="916661" />
		<tag k="water" v="lake" />
	</node>
	<node lat="60.11491644388933" lon="5.89681434706343" id="-29385">
		<tag k="name" v="Gruvetjørna" />
		<tag k="natural" v="water" />
		<tag k="ssr:stedsnr" v="954297" />
	</node>
	<node lat="60.39079378763816" lon="5.957108347685917" id="-29388">
		<tag k="name" v="Måvotsvatnet" />
		<tag k="natural" v="water" />
		<tag k="ssr:stedsnr" v="954855" />
		<tag k="water" v="lake" />
	</node>
	<node lat="60.40634444326092" lon="6.301608338022573" id="-29409">
		<tag k="alt_name" v="Nyasettjørn" />
		<tag k="name" v="Nyasettjørni" />
=======
	<node id="-627286" lat="60.3317273813" lon="6.06079846871">
		<tag k="name" v="Tjønnadalsbekken" />
		<tag k="ssr:stedsnr" v="286815" />
		<tag k="waterway" v="stream" />
	</node>
	<node id="-629331" lat="60.4398305566" lon="5.96885833642">
		<tag k="name" v="Vadet" />
		<tag k="ssr:stedsnr" v="651825" />
		<tag k="waterway" v="stream" />
	</node>
	<node id="-627280" lat="60.2382944485" lon="5.98373611588">
		<tag k="name" v="Elvakrok" />
		<tag k="ssr:stedsnr" v="286357" />
		<tag k="waterway" v="river" />
	</node>
	<node id="-627278" lat="60.5138438017" lon="6.13642361862">
		<tag k="name" v="Orfallstjørn" />
>>>>>>> e1d4bc35ff8a6074a6f2e91616a996b547c36f15
		<tag k="natural" v="water" />
		<tag k="ssr:stedsnr" v="5192" />
	</node>
<<<<<<< HEAD
	<node lat="60.44457500285385" lon="6.251180557378885" id="-29410">
		<tag k="alt_name" v="Kastdalselva" />
		<tag k="name" v="Kastdalselvi" />
		<tag k="ssr:stedsnr" v="5197" />
		<tag k="waterway" v="river" />
	</node>
	<node lat="60.444266669056994" lon="6.349158325935884" id="-29415">
		<tag k="name" v="Vetlavatnet" />
		<tag k="natural" v="water" />
		<tag k="ssr:stedsnr" v="5252" />
		<tag k="water" v="lake" />
	</node>
	<node lat="60.467677781185785" lon="6.022599991671805" id="-29416">
		<tag k="name" v="Søyelva" />
		<tag k="ssr:stedsnr" v="5335" />
		<tag k="waterway" v="stream" />
	</node>
	<node lat="60.47378888851366" lon="6.207288885482834" id="-29418">
		<tag k="name" v="Botnaelva" />
		<tag k="ssr:stedsnr" v="5386" />
		<tag k="waterway" v="river" />
	</node>
	<node lat="60.423184627730244" lon="6.031571774118441" id="-29426">
		<tag k="name" v="Skolappstjørna" />
=======
	<node id="-627469" lat="60.404088888" lon="6.16515833111">
		<tag k="name" v="Nystølelva" />
		<tag k="ssr:stedsnr" v="490737" />
		<tag k="waterway" v="stream" />
	</node>
	<node id="-627272" lat="60.5190222267" lon="6.13917500755">
		<tag k="name" v="Ambjørgselva" />
		<tag k="ssr:stedsnr" v="274667" />
		<tag k="waterway" v="river" />
	</node>
	<node id="-627269" lat="60.1813555537" lon="5.88817222375">
		<tag k="name" v="Gjelbekken" />
		<tag k="ssr:stedsnr" v="268314" />
		<tag k="waterway" v="stream" />
	</node>
	<node id="-627266" lat="60.3482833342" lon="6.12056665848">
		<tag k="name" v="Mosvika" />
		<tag k="natural" v="bay" />
		<tag k="ssr:stedsnr" v="457222" />
	</node>
	<node id="-629308" lat="60.1905055551" lon="5.89879444256">
		<tag k="name" v="Leitefossen" />
		<tag k="natural" v="waterfall" />
		<tag k="ssr:stedsnr" v="650896" />
	</node>
	<node id="-627246" lat="60.52266944" lon="6.0797888848">
		<tag k="name" v="Osen" />
		<tag k="natural" v="bay" />
		<tag k="ssr:stedsnr" v="225909" />
	</node>
	<node id="-627244" lat="60.3410608854" lon="6.07700206343">
		<tag k="name" v="Vetlavatnet" />
>>>>>>> e1d4bc35ff8a6074a6f2e91616a996b547c36f15
		<tag k="natural" v="water" />
		<tag k="ssr:stedsnr" v="5444" />
	</node>
<<<<<<< HEAD
	<node lat="60.524287384037656" lon="6.07849378288703" id="-29452">
		<tag k="alt_name" v="Vesletjørn" />
		<tag k="name" v="Vesletjørni" />
=======
	<node id="-629291" lat="60.514839332" lon="6.1419914129">
		<tag k="name" v="Vasset" />
>>>>>>> e1d4bc35ff8a6074a6f2e91616a996b547c36f15
		<tag k="natural" v="water" />
		<tag k="ssr:stedsnr" v="6774" />
	</node>
<<<<<<< HEAD
	<node lat="60.189787649756745" lon="5.913316105355745" id="-29455">
		<tag k="name" v="Setratjørna" />
=======
	<node id="-627241" lat="60.2691731804" lon="5.97440410123">
		<tag k="name" v="Skarsdemma" />
>>>>>>> e1d4bc35ff8a6074a6f2e91616a996b547c36f15
		<tag k="natural" v="water" />
		<tag k="ssr:stedsnr" v="25265" />
	</node>
<<<<<<< HEAD
	<node lat="60.28942222664309" lon="6.070316663581954" id="-29465">
		<tag k="name" v="Fannastølselva" />
		<tag k="ssr:stedsnr" v="32259" />
		<tag k="waterway" v="river" />
	</node>
	<node lat="60.37079166576173" lon="6.102886113027707" id="-29488">
		<tag k="name" v="Steinsdalsfossen" />
		<tag k="natural" v="waterfall" />
		<tag k="ssr:stedsnr" v="44190" />
	</node>
	<node lat="60.429283330630255" lon="6.0777694472021135" id="-29505">
		<tag k="alt_name" v="Fugladalstjørn" />
		<tag k="name" v="Fugladalstjørnane" />
=======
	<node id="-629288" lat="60.3596055584" lon="6.04180000428">
		<tag k="name" v="Dyraskarbekken" />
		<tag k="ssr:stedsnr" v="649820" />
		<tag k="waterway" v="stream" />
	</node>
	<node id="-627239" lat="60.2833191136" lon="6.10059999178">
		<tag k="alt_name" v="Krokavatn" />
		<tag k="name" v="Sneldevatnet" />
>>>>>>> e1d4bc35ff8a6074a6f2e91616a996b547c36f15
		<tag k="natural" v="water" />
		<tag k="ssr:stedsnr" v="66389" />
		<tag k="water" v="lake" />
	</node>
<<<<<<< HEAD
	<node lat="60.34512500431635" lon="6.1184638798100695" id="-29516">
		<tag k="name" v="Mosholmen" />
		<tag k="place" v="islet" />
		<tag k="ssr:stedsnr" v="66546" />
	</node>
	<node lat="60.51484999809017" lon="6.124236104226082" id="-29522">
		<tag k="name" v="Hestaneset" />
		<tag k="natural" v="cape" />
		<tag k="ssr:stedsnr" v="66765" />
	</node>
	<node lat="60.510338884962344" lon="6.150294449523937" id="-29523">
		<tag k="name" v="Blåkollvatnet" />
		<tag k="natural" v="water" />
		<tag k="ssr:stedsnr" v="66768" />
		<tag k="water" v="lake" />
	</node>
	<node lat="60.318447218283495" lon="6.003836106673965" id="-29535">
		<tag k="name" v="Holsetevatnet" />
=======
	<node id="-629283" lat="60.4552777758" lon="6.19821944674">
		<tag k="alt_name" v="Kalleråsen;Kattrassen" />
		<tag k="name" v="Kaldrassen" />
		<tag k="ssr:stedsnr" v="648439" />
		<tag k="waterway" v="stream" />
	</node>
	<node id="-627233" lat="60.3669861134" lon="6.06806666358">
		<tag k="name" v="Steinsbekken" />
		<tag k="ssr:stedsnr" v="287799" />
		<tag k="waterway" v="stream" />
	</node>
	<node id="-629279" lat="60.4987619685" lon="6.28226674556">
		<tag k="name" v="Juklavatnet" />
		<tag k="natural" v="water" />
		<tag k="ssr:stedsnr" v="614518" />
	</node>
	<node id="-629272" lat="60.5186638862" lon="6.15599999356">
		<tag k="name" v="Stølselvi" />
		<tag k="ssr:stedsnr" v="613033" />
		<tag k="waterway" v="stream" />
	</node>
	<node id="-627221" lat="60.335659778" lon="5.98766152625">
		<tag k="name" v="Langavatnet" />
>>>>>>> e1d4bc35ff8a6074a6f2e91616a996b547c36f15
		<tag k="natural" v="water" />
		<tag k="ssr:stedsnr" v="66961" />
	</node>
<<<<<<< HEAD
	<node lat="60.30300833530112" lon="6.038777777721832" id="-29542">
		<tag k="name" v="Dalatjørna" />
=======
	<node id="-629263" lat="60.3283086769" lon="6.09084688653">
		<tag k="name" v="Nystølstjørna" />
>>>>>>> e1d4bc35ff8a6074a6f2e91616a996b547c36f15
		<tag k="natural" v="water" />
		<tag k="ssr:stedsnr" v="66941" />
	</node>
<<<<<<< HEAD
	<node lat="60.5173967784656" lon="6.075125050150878" id="-29547">
		<tag k="alt_name" v="Kjerringatjørn" />
		<tag k="name" v="Kjerringtjørni" />
=======
	<node id="-629262" lat="60.3287454173" lon="6.14249883823">
		<tag k="name" v="Skoratjørn" />
>>>>>>> e1d4bc35ff8a6074a6f2e91616a996b547c36f15
		<tag k="natural" v="water" />
		<tag k="ssr:stedsnr" v="67982" />
	</node>
<<<<<<< HEAD
	<node lat="60.4019166699462" lon="5.9169972280636935" id="-29551">
		<tag k="name" v="Teigaelva" />
		<tag k="ssr:stedsnr" v="91636" />
		<tag k="waterway" v="river" />
	</node>
	<node lat="60.43075277801091" lon="6.38331387978725" id="-29554">
		<tag k="name" v="Gåsatjørn" />
		<tag k="natural" v="water" />
		<tag k="ssr:stedsnr" v="92357" />
	</node>
	<node lat="60.37308333111797" lon="6.145097225564382" id="-29568">
		<tag k="name" v="Straumen" />
		<tag k="place" v="locality" />
		<tag k="ssr:stedsnr" v="105217" />
	</node>
	<node lat="60.36009444533399" lon="6.091908332024554" id="-29582">
		<tag k="name" v="Hessgjelsbekken" />
		<tag k="ssr:stedsnr" v="105761" />
		<tag k="waterway" v="stream" />
	</node>
	<node lat="60.47436832203671" lon="6.036346691880452" id="-29592">
		<tag k="name" v="Søyevatnet" />
		<tag k="natural" v="water" />
		<tag k="ssr:stedsnr" v="126374" />
	</node>
	<node lat="60.46023598019344" lon="6.092225425227705" id="-29594">
		<tag k="name" v="Fugladalsvatnet" />
=======
	<node id="-629260" lat="60.4037833341" lon="6.01796388429">
		<tag k="name" v="Stølso" />
		<tag k="ssr:stedsnr" v="612499" />
		<tag k="waterway" v="river" />
	</node>
	<node id="-627206" lat="60.4318722228" lon="6.21738610754">
		<tag k="name" v="Sprengsfossen" />
		<tag k="natural" v="waterfall" />
		<tag k="ssr:stedsnr" v="287150" />
	</node>
	<node id="-629251" lat="60.4197944412" lon="5.96872500679">
		<tag k="name" v="Fossåna" />
		<tag k="ssr:stedsnr" v="611459" />
		<tag k="waterway" v="stream" />
	</node>
	<node id="-627199" lat="60.1724361088" lon="5.95039167566">
		<tag k="name" v="Nybrufjøra" />
		<tag k="natural" v="beach" />
		<tag k="ssr:stedsnr" v="286380" />
	</node>
	<node id="-629246" lat="60.4673570564" lon="6.38488007422">
		<tag k="name" v="Langeløken" />
>>>>>>> e1d4bc35ff8a6074a6f2e91616a996b547c36f15
		<tag k="natural" v="water" />
		<tag k="ssr:stedsnr" v="126384" />
		<tag k="water" v="lake" />
	</node>
<<<<<<< HEAD
	<node lat="60.45492778206674" lon="6.349016665929535" id="-29596">
		<tag k="name" v="Dyranes" />
		<tag k="place" v="islet" />
		<tag k="ssr:stedsnr" v="126188" />
	</node>
	<node lat="60.28864166473274" lon="6.134930563202743" id="-29600">
		<tag k="name" v="Kvanndalselva" />
		<tag k="ssr:stedsnr" v="126874" />
		<tag k="waterway" v="stream" />
	</node>
	<node lat="60.28573888691603" lon="6.049641674919922" id="-29601">
		<tag k="name" v="Eidesvatnet" />
=======
	<node id="-629238" lat="60.3714948744" lon="6.03753777044">
		<tag k="name" v="Steindalselvi" />
		<tag k="ssr:stedsnr" v="590819" />
		<tag k="waterway" v="river" />
	</node>
	<node id="-627189" lat="60.475968294" lon="5.98344707762">
		<tag k="name" v="Øystra Trongasmogtjørni" />
		<tag k="natural" v="water" />
		<tag k="ssr:stedsnr" v="165823" />
	</node>
	<node id="-629236" lat="60.4264714318" lon="6.05205572578">
		<tag k="name" v="Svartavatnet" />
>>>>>>> e1d4bc35ff8a6074a6f2e91616a996b547c36f15
		<tag k="natural" v="water" />
		<tag k="ssr:stedsnr" v="126880" />
	</node>
<<<<<<< HEAD
	<node lat="60.452150001039506" lon="6.4391750015250295" id="-29602">
		<tag k="name" v="Dalselvi" />
		<tag k="ssr:stedsnr" v="126234" />
		<tag k="waterway" v="river" />
	</node>
	<node lat="60.448519439997376" lon="6.34024444024222" id="-29603">
		<tag k="name" v="Dyranes" />
		<tag k="natural" v="cape" />
		<tag k="ssr:stedsnr" v="126235" />
	</node>
	<node lat="60.37347758083148" lon="6.133675724871968" id="-29612">
		<tag k="name" v="Movatnet" />
		<tag k="natural" v="water" />
		<tag k="old_name" v="Movatn" />
		<tag k="ssr:stedsnr" v="126632" />
	</node>
	<node lat="60.406516196685764" lon="6.107151011071044" id="-29618">
		<tag k="name" v="Nedra Jørstavatnet" />
		<tag k="natural" v="water" />
		<tag k="ssr:stedsnr" v="126725" />
	</node>
	<node lat="60.308660461079235" lon="6.160185272351492" id="-29621">
		<tag k="name" v="Bergsvatnet" />
		<tag k="natural" v="water" />
		<tag k="ssr:stedsnr" v="126959" />
	</node>
	<node lat="60.37619722144066" lon="6.067580555743271" id="-29624">
		<tag k="name" v="Teigatjørna" />
=======
	<node id="-629235" lat="60.3571361093" lon="6.07796111857">
		<tag k="name" v="Træbakkelva" />
		<tag k="ssr:stedsnr" v="590763" />
		<tag k="waterway" v="river" />
	</node>
	<node id="-627173" lat="60.2753166707" lon="6.16321944586">
		<tag k="alt_name" v="Kalvhageneset" />
		<tag k="name" v="Kalhageneset" />
		<tag k="natural" v="cape" />
		<tag k="ssr:stedsnr" v="165519" />
	</node>
	<node id="-629218" lat="60.3362305594" lon="6.14771667007">
		<tag k="name" v="Hestabakken" />
		<tag k="ssr:stedsnr" v="590313" />
		<tag k="waterway" v="stream" />
	</node>
	<node id="-629217" lat="60.3735138921" lon="6.12102221649">
		<tag k="alt_name" v="Steinsdalselvi" />
		<tag k="name" v="Steinsdalselva" />
		<tag k="ssr:stedsnr" v="590310" />
		<tag k="waterway" v="river" />
	</node>
	<node id="-629216" lat="60.514527779" lon="6.10010832549">
		<tag k="name" v="Dyrnes" />
		<tag k="natural" v="cape" />
		<tag k="ssr:stedsnr" v="590240" />
	</node>
	<node id="-629213" lat="60.3860805555" lon="6.14070555609">
		<tag k="name" v="Åsheimselva" />
		<tag k="ssr:stedsnr" v="590215" />
		<tag k="waterway" v="river" />
	</node>
	<node id="-629211" lat="60.4475756281" lon="6.07871154668">
		<tag k="name" v="Øvre Fugladalsvatnet" />
>>>>>>> e1d4bc35ff8a6074a6f2e91616a996b547c36f15
		<tag k="natural" v="water" />
		<tag k="ssr:stedsnr" v="126667" />
	</node>
<<<<<<< HEAD
	<node lat="60.25698333531072" lon="5.986616664036514" id="-29632">
		<tag k="name" v="Risaelva" />
		<tag k="ssr:stedsnr" v="126834" />
		<tag k="waterway" v="stream" />
	</node>
	<node lat="60.31041111263096" lon="5.951736104195336" id="-29638">
		<tag k="name" v="Vetlavatnet" />
=======
	<node id="-629209" lat="60.3958444474" lon="6.13160832565">
		<tag k="name" v="Skorabekken" />
		<tag k="ssr:stedsnr" v="590200" />
		<tag k="waterway" v="stream" />
	</node>
	<node id="-627155" lat="60.2415194437" lon="5.96675832582">
		<tag k="name" v="Lomatjørn" />
>>>>>>> e1d4bc35ff8a6074a6f2e91616a996b547c36f15
		<tag k="natural" v="water" />
		<tag k="ssr:stedsnr" v="126978" />
	</node>
<<<<<<< HEAD
	<node lat="60.49127626167463" lon="6.278510002566501" id="-29644">
		<tag k="alt_name" v="Torfinnsvatnet, vetla" />
		<tag k="name" v="Vetla Torfinnsvatnet" />
		<tag k="natural" v="water" />
		<tag k="ssr:stedsnr" v="127786" />
	</node>
	<node lat="60.55231388723356" lon="6.154136103653867" id="-29645">
=======
	<node id="-627152" lat="60.279908056" lon="6.18640292281">
		<tag k="fixme" v="multiple name tags, choose one and add the other to alt_name" />
		<tag k="name" v="Straumasteinstjørna;Tjørni" />
		<tag k="natural" v="water" />
		<tag k="ssr:stedsnr" v="274382" />
	</node>
	<node id="-629198" lat="60.5114277763" lon="6.12938889787">
		<tag k="name" v="Kyrkjeholmen" />
		<tag k="place" v="islet" />
		<tag k="ssr:stedsnr" v="589011" />
	</node>
	<node id="-627144" lat="60.5523138872" lon="6.15413610365">
>>>>>>> e1d4bc35ff8a6074a6f2e91616a996b547c36f15
		<tag k="alt_name" v="Hamlagrøvatn" />
		<tag k="name" v="Hamlagrøvatnet" />
		<tag k="natural" v="water" />
		<tag k="ssr:stedsnr" v="127822" />
		<tag k="water" v="lake" />
	</node>
<<<<<<< HEAD
	<node lat="60.30573333393086" lon="6.022930549008402" id="-29673">
		<tag k="name" v="Krokholm" />
		<tag k="natural" v="cape" />
		<tag k="ssr:stedsnr" v="165541" />
	</node>
	<node lat="60.430088890984976" lon="5.980813880611842" id="-29682">
		<tag k="name" v="Stegafossen" />
		<tag k="natural" v="waterfall" />
		<tag k="ssr:stedsnr" v="165849" />
	</node>
	<node lat="60.440613888490866" lon="6.4442972257103515" id="-29693">
		<tag k="name" v="Båsgjelselva" />
		<tag k="ssr:stedsnr" v="187226" />
		<tag k="waterway" v="river" />
	</node>
	<node lat="60.40287500287589" lon="6.096611106877382" id="-29695">
		<tag k="name" v="Kalderassen" />
=======
	<node id="-629191" lat="60.2512000028" lon="5.97355555315">
		<tag k="name" v="Lonene" />
>>>>>>> e1d4bc35ff8a6074a6f2e91616a996b547c36f15
		<tag k="natural" v="water" />
		<tag k="ssr:stedsnr" v="187719" />
	</node>
<<<<<<< HEAD
	<node lat="60.41186111751794" lon="6.016665884626805" id="-29703">
		<tag k="fixme" v="multiple name tags, choose one and add the other to alt_name" />
		<tag k="name" v="Øvra Kvanndalsvatnet;Øvra Steinskvanndalsvatnet" />
=======
	<node id="-629186" lat="60.362105556" lon="5.9908777833">
		<tag k="name" v="Nystølstjørn" />
>>>>>>> e1d4bc35ff8a6074a6f2e91616a996b547c36f15
		<tag k="natural" v="water" />
		<tag k="ssr:stedsnr" v="187463" />
	</node>
<<<<<<< HEAD
	<node lat="60.41825196469648" lon="6.040362415770668" id="-29704">
		<tag k="name" v="Fotasperrtjørna" />
		<tag k="natural" v="water" />
		<tag k="ssr:stedsnr" v="187464" />
	</node>
	<node lat="60.33513888647617" lon="6.037569437947934" id="-29705">
		<tag k="name" v="Smørlaupen" />
		<tag k="place" v="locality" />
		<tag k="ssr:stedsnr" v="187522" />
	</node>
	<node lat="60.2833191135629" lon="6.100599991779623" id="-29718">
		<tag k="alt_name" v="Krokavatn" />
		<tag k="name" v="Sneldevatnet" />
		<tag k="natural" v="water" />
		<tag k="ssr:stedsnr" v="187841" />
	</node>
	<node lat="60.26917318035215" lon="5.974404101228044" id="-29720">
		<tag k="name" v="Skarsdemma" />
		<tag k="natural" v="water" />
		<tag k="ssr:stedsnr" v="187860" />
	</node>
	<node lat="60.31133255618254" lon="6.034453396021139" id="-29721">
		<tag k="name" v="Eikhaugtjørn" />
=======
	<node id="-629185" lat="60.5096179798" lon="6.0896438024">
		<tag k="alt_name" v="Haldreifossen" />
		<tag k="name" v="Hallreifossen" />
		<tag k="natural" v="waterfall" />
		<tag k="ssr:stedsnr" v="552786" />
	</node>
	<node id="-627132" lat="60.3015027762" lon="6.01524999194">
		<tag k="name" v="Tverrelva" />
		<tag k="ssr:stedsnr" v="248967" />
		<tag k="waterway" v="stream" />
	</node>
	<node id="-627130" lat="60.3020166688" lon="6.05876666116">
		<tag k="name" v="Fagersetelva" />
		<tag k="ssr:stedsnr" v="248930" />
		<tag k="waterway" v="stream" />
	</node>
	<node id="-627127" lat="60.2961226347" lon="6.15426439581">
		<tag k="name" v="Vetlavatnet" />
>>>>>>> e1d4bc35ff8a6074a6f2e91616a996b547c36f15
		<tag k="natural" v="water" />
		<tag k="ssr:stedsnr" v="187936" />
	</node>
<<<<<<< HEAD
	<node lat="60.32506551861063" lon="6.1096669762188816" id="-29726">
		<tag k="name" v="Finnhellersvatnet" />
=======
	<node id="-627123" lat="60.264113889" lon="6.12331388365">
		<tag k="name" v="Øyjordsvatnet" />
>>>>>>> e1d4bc35ff8a6074a6f2e91616a996b547c36f15
		<tag k="natural" v="water" />
		<tag k="ssr:stedsnr" v="188562" />
		<tag k="water" v="lake" />
	</node>
<<<<<<< HEAD
	<node lat="60.487086110740016" lon="6.058733326568472" id="-29749">
		<tag k="name" v="Smørlaupen" />
		<tag k="ssr:stedsnr" v="226245" />
		<tag k="waterway" v="stream" />
	</node>
	<node lat="60.140891666303595" lon="5.881052785004566" id="-29750">
		<tag k="alt_name" v="Sakresvatnet;Sakrisvatnet" />
		<tag k="name" v="Sakresvatn" />
=======
	<node id="-627120" lat="60.4736210194" lon="6.35167525693">
		<tag k="name" v="Kulo" />
		<tag k="natural" v="water" />
		<tag k="ssr:stedsnr" v="248787" />
	</node>
	<node id="-627115" lat="60.3858767589" lon="5.96455855726">
		<tag k="name" v="Vetlavatnet" />
>>>>>>> e1d4bc35ff8a6074a6f2e91616a996b547c36f15
		<tag k="natural" v="water" />
		<tag k="ssr:stedsnr" v="226323" />
		<tag k="water" v="lake" />
	</node>
<<<<<<< HEAD
	<node lat="60.423198335772256" lon="5.965989665940829" id="-29765">
		<tag k="name" v="Raudåni" />
		<tag k="ssr:stedsnr" v="226879" />
		<tag k="waterway" v="river" />
	</node>
	<node lat="60.35331146201784" lon="5.983780383187065" id="-29769">
		<tag k="name" v="Husaleitetjørna" />
		<tag k="natural" v="water" />
		<tag k="ssr:stedsnr" v="226903" />
	</node>
	<node lat="60.363986109328685" lon="5.937194447925202" id="-29772">
		<tag k="name" v="Kvanngrø" />
		<tag k="ssr:stedsnr" v="226911" />
		<tag k="waterway" v="stream" />
	</node>
	<node lat="60.26517222286424" lon="6.175591658250243" id="-29775">
		<tag k="name" v="Bjørgjena" />
		<tag k="natural" v="bay" />
		<tag k="ssr:stedsnr" v="226924" />
	</node>
	<node lat="60.27990805602935" lon="6.186402922806507" id="-29777">
		<tag k="fixme" v="multiple name tags, choose one and add the other to alt_name" />
		<tag k="name" v="Straumasteinstjørna;Tjørni" />
=======
	<node id="-627106" lat="60.3604250027" lon="5.97879444496">
		<tag k="name" v="Mødalselva" />
		<tag k="ssr:stedsnr" v="248653" />
		<tag k="waterway" v="stream" />
	</node>
	<node id="-627105" lat="60.3613416676" lon="6.00383056239">
		<tag k="name" v="Krokvassbekken" />
		<tag k="ssr:stedsnr" v="248647" />
		<tag k="waterway" v="stream" />
	</node>
	<node id="-629152" lat="60.4183555521" lon="6.07052221894">
		<tag k="name" v="Fugladalsvika" />
		<tag k="natural" v="bay" />
		<tag k="ssr:stedsnr" v="551486" />
	</node>
	<node id="-629149" lat="60.4286638906" lon="6.17855554859">
		<tag k="name" v="Klebansbekken" />
		<tag k="ssr:stedsnr" v="551434" />
		<tag k="waterway" v="stream" />
	</node>
	<node id="-629146" lat="60.4605307076" lon="6.1320359404">
		<tag k="name" v="Steinladetjørn" />
>>>>>>> e1d4bc35ff8a6074a6f2e91616a996b547c36f15
		<tag k="natural" v="water" />
		<tag k="ssr:stedsnr" v="274382" />
	</node>
<<<<<<< HEAD
	<node lat="60.51902222669512" lon="6.13917500755246" id="-29781">
		<tag k="name" v="Ambjørgselva" />
		<tag k="ssr:stedsnr" v="274667" />
		<tag k="waterway" v="river" />
	</node>
	<node lat="60.172436108835186" lon="5.950391675661362" id="-29790">
		<tag k="name" v="Nybrufjøra" />
		<tag k="natural" v="beach" />
		<tag k="ssr:stedsnr" v="286380" />
	</node>
	<node lat="60.238294448505314" lon="5.983736115879173" id="-29793">
		<tag k="name" v="Elvakrok" />
		<tag k="ssr:stedsnr" v="286357" />
		<tag k="waterway" v="river" />
	</node>
	<node lat="60.431872222755544" lon="6.217386107536117" id="-29803">
		<tag k="name" v="Sprengsfossen" />
		<tag k="natural" v="waterfall" />
		<tag k="ssr:stedsnr" v="287150" />
	</node>
	<node lat="60.34106088543721" lon="6.077002063432011" id="-29826">
		<tag k="name" v="Vetlavatnet" />
=======
	<node id="-627097" lat="60.431975002" lon="6.17074166578">
		<tag k="name" v="Kjellarbekken" />
		<tag k="ssr:stedsnr" v="248455" />
		<tag k="waterway" v="stream" />
	</node>
	<node id="-627096" lat="60.4282999987" lon="6.1282638803">
		<tag k="name" v="Bytesåna" />
		<tag k="ssr:stedsnr" v="248452" />
		<tag k="waterway" v="river" />
	</node>
	<node id="-629143" lat="60.4967581344" lon="6.01726974065">
		<tag k="name" v="Instavatnet" />
>>>>>>> e1d4bc35ff8a6074a6f2e91616a996b547c36f15
		<tag k="natural" v="water" />
		<tag k="ssr:stedsnr" v="298258" />
	</node>
<<<<<<< HEAD
	<node lat="60.47775853330085" lon="5.982036550052668" id="-29828">
		<tag k="name" v="Trongasmogtjørna" />
=======
	<node id="-627277" lat="60.2892972259" lon="6.05509167259">
		<tag k="name" v="Oselva" />
		<tag k="ssr:stedsnr" v="275272" />
		<tag k="waterway" v="river" />
	</node>
	<node id="-629138" lat="60.1655186371" lon="5.93747141637">
		<tag k="name" v="Nesvatnet" />
>>>>>>> e1d4bc35ff8a6074a6f2e91616a996b547c36f15
		<tag k="natural" v="water" />
		<tag k="ssr:stedsnr" v="308339" />
	</node>
<<<<<<< HEAD
	<node lat="60.34774444276696" lon="6.089550001674036" id="-29829">
		<tag k="name" v="Nottatjørnane" />
=======
	<node id="-629135" lat="60.5051722192" lon="6.14283332762">
		<tag k="name" v="Svartedalstjørna" />
>>>>>>> e1d4bc35ff8a6074a6f2e91616a996b547c36f15
		<tag k="natural" v="water" />
		<tag k="ssr:stedsnr" v="308542" />
		<tag k="water" v="lake" />
	</node>
<<<<<<< HEAD
	<node lat="60.32408440360152" lon="6.042219234747554" id="-29839">
		<tag k="name" v="Paristjørna" />
=======
	<node id="-627086" lat="60.4784997266" lon="6.01979376549">
		<tag k="name" v="Kjerringadalsvatnet" />
>>>>>>> e1d4bc35ff8a6074a6f2e91616a996b547c36f15
		<tag k="natural" v="water" />
		<tag k="ssr:stedsnr" v="309566" />
	</node>
<<<<<<< HEAD
	<node lat="60.333291668934116" lon="6.078224996702838" id="-29841">
		<tag k="alt_name" v="Smørskårtjørnane" />
		<tag k="name" v="Smørskortjørnane" />
		<tag k="natural" v="water" />
		<tag k="ssr:stedsnr" v="309574" />
		<tag k="water" v="lake" />
	</node>
	<node lat="60.4459717508401" lon="6.112484208559863" id="-29845">
		<tag k="name" v="Kjetilstjørn" />
=======
	<node id="-629131" lat="60.3223777787" lon="5.96336666325">
		<tag k="name" v="Sprenå" />
		<tag k="ssr:stedsnr" v="530739" />
		<tag k="waterway" v="stream" />
	</node>
	<node id="-627081" lat="60.4448527823" lon="6.29654722361">
		<tag k="alt_name" v="Svartaputten;Pytten" />
		<tag k="name" v="Svartepytten" />
>>>>>>> e1d4bc35ff8a6074a6f2e91616a996b547c36f15
		<tag k="natural" v="water" />
		<tag k="ssr:stedsnr" v="308386" />
	</node>
<<<<<<< HEAD
	<node lat="60.45081666362546" lon="6.207550003545882" id="-29847">
		<tag k="name" v="Fossabekken" />
		<tag k="ssr:stedsnr" v="308390" />
		<tag k="waterway" v="stream" />
	</node>
	<node lat="60.41517222192083" lon="6.093011108614192" id="-29848">
		<tag k="name" v="Gråursvika" />
		<tag k="natural" v="bay" />
		<tag k="ssr:stedsnr" v="308448" />
	</node>
	<node lat="60.31651110793" lon="6.0364194509825815" id="-29861">
		<tag k="name" v="Lauvsetevatnet" />
=======
	<node id="-629127" lat="60.2430249964" lon="5.97763055706">
		<tag k="name" v="Træå" />
		<tag k="ssr:stedsnr" v="530724" />
		<tag k="waterway" v="stream" />
	</node>
	<node id="-627076" lat="60.4739613214" lon="6.3863456244">
		<tag k="name" v="Rundatjørni" />
		<tag k="natural" v="water" />
		<tag k="ssr:stedsnr" v="248220" />
	</node>
	<node id="-627075" lat="60.467899999" lon="6.27597499109">
		<tag k="name" v="Bufarvatnet" />
>>>>>>> e1d4bc35ff8a6074a6f2e91616a996b547c36f15
		<tag k="natural" v="water" />
		<tag k="ssr:stedsnr" v="308970" />
	</node>
<<<<<<< HEAD
	<node lat="60.412287060367504" lon="6.2757308946937576" id="-29864">
		<tag k="name" v="Svortetjørni" />
		<tag k="natural" v="water" />
		<tag k="ssr:stedsnr" v="309157" />
	</node>
	<node lat="60.41121676704167" lon="6.225682462688489" id="-29865">
		<tag k="alt_name" v="Skårsvatnet" />
		<tag k="name" v="Skorsvatnet" />
		<tag k="natural" v="water" />
		<tag k="ssr:stedsnr" v="309162" />
	</node>
	<node lat="60.42453610710111" lon="6.359849992611874" id="-29867">
		<tag k="name" v="Bjølvo" />
		<tag k="ssr:stedsnr" v="309178" />
		<tag k="waterway" v="river" />
	</node>
	<node lat="60.3525277734218" lon="5.996299993061736" id="-29873">
		<tag k="name" v="Liavatnet" />
		<tag k="natural" v="water" />
		<tag k="ssr:stedsnr" v="309628" />
	</node>
	<node lat="60.35226348795374" lon="6.000200374051876" id="-29874">
		<tag k="name" v="Skarvavatnet" />
=======
	<node id="-627074" lat="60.4638182727" lon="6.35327898498">
		<tag k="name" v="Øvstavatnet" />
		<tag k="natural" v="water" />
		<tag k="ssr:stedsnr" v="248204" />
		<tag k="water" v="lake" />
	</node>
	<node id="-627072" lat="60.468569449" lon="6.50846111392">
		<tag k="name" v="Bleia" />
		<tag k="ssr:stedsnr" v="248198" />
		<tag k="waterway" v="stream" />
	</node>
	<node id="-629119" lat="60.2599666692" lon="6.10421388802">
		<tag k="name" v="Ystavassvika" />
		<tag k="natural" v="bay" />
		<tag k="ssr:stedsnr" v="529595" />
	</node>
	<node id="-627070" lat="60.3947638933" lon="6.23337777637">
		<tag k="alt_name" v="Laupsaelva" />
		<tag k="name" v="Laupsaelvi" />
		<tag k="ssr:stedsnr" v="248168" />
		<tag k="waterway" v="river" />
	</node>
	<node id="-629115" lat="60.204624997" lon="5.92741944312">
		<tag k="name" v="Kamshovebekken" />
		<tag k="ssr:stedsnr" v="529905" />
		<tag k="waterway" v="stream" />
	</node>
	<node id="-627065" lat="60.2256527806" lon="5.9588249947">
		<tag k="name" v="Omaelva" />
		<tag k="ssr:stedsnr" v="247725" />
		<tag k="waterway" v="stream" />
	</node>
	<node id="-627064" lat="60.2099149528" lon="5.91412582955">
		<tag k="name" v="Vindfatetjørna" />
>>>>>>> e1d4bc35ff8a6074a6f2e91616a996b547c36f15
		<tag k="natural" v="water" />
		<tag k="ssr:stedsnr" v="309629" />
	</node>
<<<<<<< HEAD
	<node lat="60.484568233012894" lon="6.353537870944414" id="-29880">
		<tag k="name" v="Tverrelvvatnet" />
=======
	<node id="-627062" lat="60.2472583343" lon="5.94953332734">
		<tag k="name" v="Banktjørn" />
>>>>>>> e1d4bc35ff8a6074a6f2e91616a996b547c36f15
		<tag k="natural" v="water" />
		<tag k="ssr:stedsnr" v="309765" />
	</node>
<<<<<<< HEAD
	<node lat="60.51762658988439" lon="6.182298903701358" id="-29882">
		<tag k="alt_name" v="Løkedalstjørnane" />
		<tag k="name" v="Løkjesdalstjørnane" />
=======
	<node id="-627061" lat="60.1353651046" lon="5.87796789316">
		<tag k="alt_name" v="Annevatnet" />
		<tag k="name" v="Ådnevatnet" />
>>>>>>> e1d4bc35ff8a6074a6f2e91616a996b547c36f15
		<tag k="natural" v="water" />
		<tag k="ssr:stedsnr" v="309773" />
		<tag k="water" v="lake" />
	</node>
<<<<<<< HEAD
	<node lat="60.46937521384739" lon="6.276184024231686" id="-29883">
		<tag k="alt_name" v="Goddalsvatnet, nedre" />
		<tag k="name" v="Nedre Goddalsvatnet" />
=======
	<node id="-627055" lat="60.3942000026" lon="5.98956666736">
		<tag k="name" v="Tryglakleivtjørnane" />
>>>>>>> e1d4bc35ff8a6074a6f2e91616a996b547c36f15
		<tag k="natural" v="water" />
		<tag k="ssr:stedsnr" v="309774" />
		<tag k="water" v="lake" />
	</node>
<<<<<<< HEAD
	<node lat="60.272646848234366" lon="5.965341138662586" id="-29886">
		<tag k="name" v="Røyndalsvatnet" />
		<tag k="natural" v="water" />
		<tag k="ssr:stedsnr" v="309868" />
	</node>
	<node lat="60.34557777987878" lon="6.176766663321995" id="-29899">
		<tag k="alt_name" v="Kyrkjeelvi" />
		<tag k="name" v="Kyrkjeelva" />
		<tag k="ssr:stedsnr" v="347045" />
		<tag k="waterway" v="river" />
	</node>
	<node lat="60.27880555657287" lon="6.040094447193544" id="-29903">
		<tag k="name" v="Safossen" />
		<tag k="natural" v="waterfall" />
		<tag k="ssr:stedsnr" v="346653" />
	</node>
	<node lat="60.19598121866216" lon="5.929458848605266" id="-29907">
		<tag k="name" v="Svartavatnet" />
=======
	<node id="-627054" lat="60.3993416689" lon="6.17806111165">
		<tag k="name" v="Øysteseelva" />
		<tag k="ssr:stedsnr" v="66714" />
		<tag k="waterway" v="stream" />
	</node>
	<node id="-629101" lat="60.3626111117" lon="6.11268334129">
		<tag k="name" v="Mylleshaugelva" />
		<tag k="ssr:stedsnr" v="529150" />
		<tag k="waterway" v="river" />
	</node>
	<node id="-629094" lat="60.4747845399" lon="6.07869518809">
		<tag k="name" v="Vendingstjørn" />
>>>>>>> e1d4bc35ff8a6074a6f2e91616a996b547c36f15
		<tag k="natural" v="water" />
		<tag k="ssr:stedsnr" v="347334" />
		<tag k="water" v="lake" />
	</node>
<<<<<<< HEAD
	<node lat="60.30249092921484" lon="5.954179236708368" id="-29922">
		<tag k="name" v="Bratthustjørna" />
=======
	<node id="-627045" lat="60.3379083353" lon="6.07388055076">
		<tag k="name" v="Gullvotnevatnet" />
>>>>>>> e1d4bc35ff8a6074a6f2e91616a996b547c36f15
		<tag k="natural" v="water" />
		<tag k="ssr:stedsnr" v="347720" />
	</node>
<<<<<<< HEAD
	<node lat="60.315541662738596" lon="6.017230550895991" id="-29924">
		<tag k="name" v="Fossteinspollen" />
		<tag k="natural" v="water" />
		<tag k="ssr:stedsnr" v="347739" />
	</node>
	<node lat="60.50492777597759" lon="6.122966666957254" id="-29929">
		<tag k="alt_name" v="Båtavik" />
		<tag k="name" v="Båtavika" />
		<tag k="natural" v="bay" />
		<tag k="ssr:stedsnr" v="347481" />
	</node>
	<node lat="60.448683911065295" lon="5.988569190773522" id="-29936">
		<tag k="name" v="Langatjørni" />
=======
	<node id="-629091" lat="60.220694188" lon="5.95345403908">
		<tag k="name" v="Gjerdeelva" />
		<tag k="ssr:stedsnr" v="528673" />
		<tag k="waterway" v="river" />
	</node>
	<node id="-629089" lat="60.3582138914" lon="6.00035832413">
		<tag k="name" v="Krokavassbekken" />
		<tag k="ssr:stedsnr" v="528803" />
		<tag k="waterway" v="stream" />
	</node>
	<node id="-629084" lat="60.4766710722" lon="6.29700842367">
		<tag k="name" v="Svartedalsvatnet" />
>>>>>>> e1d4bc35ff8a6074a6f2e91616a996b547c36f15
		<tag k="natural" v="water" />
		<tag k="ssr:stedsnr" v="347849" />
	</node>
<<<<<<< HEAD
	<node lat="60.27068333540762" lon="5.991166662400232" id="-29943">
		<tag k="name" v="Svartelva" />
		<tag k="ssr:stedsnr" v="369866" />
		<tag k="waterway" v="stream" />
	</node>
	<node lat="60.293989369132454" lon="6.092040188726685" id="-29946">
		<tag k="name" v="Bottsvatnet" />
=======
	<node id="-629080" lat="60.3071671443" lon="6.04358338947">
		<tag k="name" v="Svartetjørn" />
>>>>>>> e1d4bc35ff8a6074a6f2e91616a996b547c36f15
		<tag k="natural" v="water" />
		<tag k="ssr:stedsnr" v="369881" />
	</node>
<<<<<<< HEAD
	<node lat="60.44322071458146" lon="6.021687250147552" id="-29951">
		<tag k="name" v="Gråursvatnet" />
=======
	<node id="-629078" lat="60.2740195983" lon="5.97895671561">
		<tag k="name" v="Hestabergtjørna" />
>>>>>>> e1d4bc35ff8a6074a6f2e91616a996b547c36f15
		<tag k="natural" v="water" />
		<tag k="ssr:stedsnr" v="369382" />
	</node>
<<<<<<< HEAD
	<node lat="60.46078611188938" lon="6.029888893999851" id="-29955">
		<tag k="name" v="Fossane" />
		<tag k="natural" v="waterfall" />
		<tag k="ssr:stedsnr" v="369354" />
	</node>
	<node lat="60.284618243287234" lon="5.976144028145189" id="-29971">
		<tag k="name" v="Akssetetjørn" />
		<tag k="natural" v="water" />
		<tag k="ssr:stedsnr" v="369916" />
	</node>
	<node lat="60.505052850722834" lon="6.1338602799225495" id="-29978">
		<tag k="name" v="Lomatjørni" />
=======
	<node id="-627029" lat="60.4140305517" lon="5.95373055274">
		<tag k="name" v="Flugeholmen" />
		<tag k="place" v="islet" />
		<tag k="ssr:stedsnr" v="44803" />
	</node>
	<node id="-629074" lat="60.1265455297" lon="5.87240080983">
		<tag k="name" v="Dyratjørna" />
>>>>>>> e1d4bc35ff8a6074a6f2e91616a996b547c36f15
		<tag k="natural" v="water" />
		<tag k="ssr:stedsnr" v="370791" />
	</node>
<<<<<<< HEAD
	<node lat="60.42612499919518" lon="6.1597583406244745" id="-29983">
		<tag k="name" v="Storelva" />
		<tag k="ssr:stedsnr" v="395723" />
		<tag k="waterway" v="river" />
	</node>
	<node lat="60.33432799578415" lon="6.089866048954372" id="-29991">
		<tag k="alt_name" v="Godalstjørnane" />
		<tag k="name" v="Goddalstjørnane" />
=======
	<node id="-629072" lat="60.2821472232" lon="6.08683332452">
		<tag k="name" v="Veghamretjørna" />
		<tag k="natural" v="water" />
		<tag k="ssr:stedsnr" v="430844" />
	</node>
	<node id="-629071" lat="60.284269233" lon="6.09147356814">
		<tag k="name" v="Ljosavatnet" />
>>>>>>> e1d4bc35ff8a6074a6f2e91616a996b547c36f15
		<tag k="natural" v="water" />
		<tag k="ssr:stedsnr" v="407984" />
		<tag k="water" v="lake" />
	</node>
<<<<<<< HEAD
	<node lat="60.124947221479395" lon="5.882863896697051" id="-29994">
		<tag k="name" v="Dalelva" />
		<tag k="ssr:stedsnr" v="408312" />
		<tag k="waterway" v="river" />
	</node>
	<node lat="60.51852574854663" lon="6.077864635174812" id="-30000">
		<tag k="name" v="Kjerringaholmen" />
		<tag k="place" v="islet" />
		<tag k="ssr:stedsnr" v="408265" />
	</node>
	<node lat="60.41726157578667" lon="6.272003031782591" id="-30001">
		<tag k="name" v="Dagreidtjørn" />
=======
	<node id="-629070" lat="60.2599223684" lon="5.96295455225">
		<tag k="name" v="Bukkatjørn" />
		<tag k="natural" v="water" />
		<tag k="ssr:stedsnr" v="430838" />
	</node>
	<node id="-629067" lat="60.2507051621" lon="5.95605483929">
		<tag k="name" v="Rishaugtjørna" />
>>>>>>> e1d4bc35ff8a6074a6f2e91616a996b547c36f15
		<tag k="natural" v="water" />
		<tag k="ssr:stedsnr" v="408286" />
	</node>
<<<<<<< HEAD
	<node lat="60.47912777861938" lon="6.05433055952427" id="-30009">
		<tag k="name" v="Dyradalsvatnet" />
=======
	<node id="-629066" lat="60.2729332768" lon="6.15706904966">
		<tag k="name" v="Eidesvatnet" />
>>>>>>> e1d4bc35ff8a6074a6f2e91616a996b547c36f15
		<tag k="natural" v="water" />
		<tag k="ssr:stedsnr" v="408237" />
		<tag k="water" v="lake" />
	</node>
<<<<<<< HEAD
	<node lat="60.36210000084568" lon="6.136955564462678" id="-30024">
		<tag k="name" v="Sandveelvi" />
		<tag k="ssr:stedsnr" v="430617" />
		<tag k="waterway" v="stream" />
	</node>
	<node lat="60.46638333122237" lon="6.50786389755332" id="-30032">
		<tag k="name" v="Bleiesonen" />
		<tag k="ssr:stedsnr" v="430193" />
		<tag k="waterway" v="stream" />
	</node>
	<node lat="60.41495292446711" lon="6.278872990180606" id="-30033">
		<tag k="name" v="Lomatjørni" />
=======
	<node id="-629065" lat="60.270944441" lon="6.15838611854">
		<tag k="name" v="Halvgjengeneset" />
		<tag k="natural" v="cape" />
		<tag k="ssr:stedsnr" v="430821" />
	</node>
	<node id="-629064" lat="60.2754676342" lon="6.1170557578">
		<tag k="name" v="Svartavatnet" />
		<tag k="natural" v="water" />
		<tag k="ssr:stedsnr" v="430814" />
	</node>
	<node id="-627013" lat="60.353311462" lon="5.98378038319">
		<tag k="name" v="Husaleitetjørna" />
>>>>>>> e1d4bc35ff8a6074a6f2e91616a996b547c36f15
		<tag k="natural" v="water" />
		<tag k="ssr:stedsnr" v="430125" />
	</node>
<<<<<<< HEAD
	<node lat="60.44283611266203" lon="6.358436112462132" id="-30034">
		<tag k="name" v="Orfallet" />
		<tag k="natural" v="bay" />
		<tag k="ssr:stedsnr" v="430232" />
	</node>
	<node lat="60.45612784913619" lon="6.079983175577408" id="-30037">
		<tag k="name" v="Fossavatnet" />
		<tag k="natural" v="water" />
		<tag k="ssr:stedsnr" v="430380" />
	</node>
	<node lat="60.45618186467265" lon="5.965294786750401" id="-30038">
		<tag k="name" v="Svartavatnet" />
		<tag k="natural" v="water" />
		<tag k="ssr:stedsnr" v="430384" />
		<tag k="water" v="lake" />
	</node>
	<node lat="60.43095245762058" lon="6.034926520498039" id="-30039">
=======
	<node id="-629059" lat="60.3399200961" lon="6.0435296681">
		<tag k="name" v="Stiksvatnet" />
		<tag k="natural" v="water" />
		<tag k="ssr:stedsnr" v="430572" />
	</node>
	<node id="-629058" lat="60.342489777" lon="6.05159323342">
		<tag k="name" v="Holmadalsvatnet" />
		<tag k="natural" v="water" />
		<tag k="ssr:stedsnr" v="430569" />
	</node>
	<node id="-627009" lat="60.4231983358" lon="5.96598966594">
		<tag k="name" v="Raudåni" />
		<tag k="ssr:stedsnr" v="226879" />
		<tag k="waterway" v="river" />
	</node>
	<node id="-629042" lat="60.406769441" lon="5.91778055003">
		<tag k="name" v="Teigaelva" />
		<tag k="ssr:stedsnr" v="430457" />
		<tag k="waterway" v="stream" />
	</node>
	<node id="-629040" lat="60.4309524576" lon="6.0349265205">
>>>>>>> e1d4bc35ff8a6074a6f2e91616a996b547c36f15
		<tag k="fixme" v="multiple name tags, choose one and add the other to alt_name" />
		<tag k="name" v="Kvitebekkstjørna;Kvitebekken" />
		<tag k="natural" v="water" />
		<tag k="ssr:stedsnr" v="430394" />
	</node>
<<<<<<< HEAD
	<node lat="60.342489776973245" lon="6.051593233415368" id="-30046">
		<tag k="name" v="Holmadalsvatnet" />
=======
	<node id="-629039" lat="60.4561818647" lon="5.96529478675">
		<tag k="name" v="Svartavatnet" />
>>>>>>> e1d4bc35ff8a6074a6f2e91616a996b547c36f15
		<tag k="natural" v="water" />
		<tag k="ssr:stedsnr" v="430569" />
	</node>
<<<<<<< HEAD
	<node lat="60.33992009605325" lon="6.043529668098199" id="-30047">
		<tag k="name" v="Stiksvatnet" />
		<tag k="natural" v="water" />
		<tag k="ssr:stedsnr" v="430572" />
	</node>
	<node lat="60.40720130914024" lon="6.103391543219078" id="-30058">
		<tag k="name" v="Øvra Jørstavatnet" />
=======
	<node id="-629038" lat="60.4561278491" lon="6.07998317558">
		<tag k="name" v="Fossavatnet" />
		<tag k="natural" v="water" />
		<tag k="ssr:stedsnr" v="430380" />
	</node>
	<node id="-626985" lat="60.1809027781" lon="5.89710000884">
		<tag k="name" v="Apalbekken" />
		<tag k="ssr:stedsnr" v="226391" />
		<tag k="waterway" v="stream" />
	</node>
	<node id="-629032" lat="60.4428361127" lon="6.35843611246">
		<tag k="name" v="Orfallet" />
		<tag k="natural" v="bay" />
		<tag k="ssr:stedsnr" v="430232" />
	</node>
	<node id="-626980" lat="60.1408916663" lon="5.881052785">
		<tag k="alt_name" v="Sakresvatnet;Sakrisvatnet" />
		<tag k="name" v="Sakresvatn" />
>>>>>>> e1d4bc35ff8a6074a6f2e91616a996b547c36f15
		<tag k="natural" v="water" />
		<tag k="ssr:stedsnr" v="430731" />
	</node>
<<<<<<< HEAD
	<node lat="60.25992236836945" lon="5.962954552245911" id="-30061">
		<tag k="name" v="Bukkatjørn" />
=======
	<node id="-626976" lat="60.1897876498" lon="5.91331610536">
		<tag k="name" v="Setratjørna" />
>>>>>>> e1d4bc35ff8a6074a6f2e91616a996b547c36f15
		<tag k="natural" v="water" />
		<tag k="ssr:stedsnr" v="430838" />
	</node>
<<<<<<< HEAD
	<node lat="60.126545529677415" lon="5.872400809833602" id="-30063">
		<tag k="name" v="Dyratjørna" />
		<tag k="natural" v="water" />
		<tag k="ssr:stedsnr" v="430878" />
	</node>
	<node lat="60.37048923316229" lon="6.041740836865024" id="-30076">
		<tag k="name" v="Tokagjelselva" />
		<tag k="ssr:stedsnr" v="517383" />
		<tag k="waterway" v="river" />
	</node>
	<node lat="60.362611111717" lon="6.112683341285031" id="-30087">
		<tag k="name" v="Mylleshaugelva" />
		<tag k="ssr:stedsnr" v="529150" />
		<tag k="waterway" v="river" />
	</node>
	<node lat="60.25996666920175" lon="6.104213888023827" id="-30095">
		<tag k="name" v="Ystavassvika" />
		<tag k="natural" v="bay" />
		<tag k="ssr:stedsnr" v="529595" />
	</node>
	<node lat="60.446163892814255" lon="5.997424993160856" id="-30102">
		<tag k="name" v="Viervollo" />
		<tag k="ssr:stedsnr" v="529849" />
		<tag k="waterway" v="river" />
	</node>
	<node lat="60.32237777871365" lon="5.963366663251206" id="-30109">
		<tag k="name" v="Sprenå" />
		<tag k="ssr:stedsnr" v="530739" />
		<tag k="waterway" v="stream" />
	</node>
	<node lat="60.165518637087224" lon="5.93747141636581" id="-30113">
		<tag k="name" v="Nesvatnet" />
=======
	<node id="-626975" lat="60.4870861107" lon="6.05873332657">
		<tag k="name" v="Smørlaupen" />
		<tag k="ssr:stedsnr" v="226245" />
		<tag k="waterway" v="stream" />
	</node>
	<node id="-629018" lat="60.4663833312" lon="6.50786389755">
		<tag k="name" v="Bleiesonen" />
		<tag k="ssr:stedsnr" v="430193" />
		<tag k="waterway" v="stream" />
	</node>
	<node id="-626963" lat="60.5047361082" lon="6.09261945018">
		<tag k="name" v="Krossfossen" />
		<tag k="natural" v="waterfall" />
		<tag k="ssr:stedsnr" v="226005" />
	</node>
	<node id="-628985" lat="60.401502776" lon="6.02080000292">
		<tag k="name" v="Daurmålsbekken" />
		<tag k="ssr:stedsnr" v="408849" />
		<tag k="waterway" v="stream" />
	</node>
	<node id="-628980" lat="60.1249472215" lon="5.8828638967">
		<tag k="name" v="Dalelva" />
		<tag k="ssr:stedsnr" v="408312" />
		<tag k="waterway" v="river" />
	</node>
	<node id="-628979" lat="60.4172615758" lon="6.27200303178">
		<tag k="name" v="Dagreidtjørn" />
		<tag k="natural" v="water" />
		<tag k="ssr:stedsnr" v="408286" />
	</node>
	<node id="-628978" lat="60.5185257485" lon="6.07786463517">
		<tag k="name" v="Kjerringaholmen" />
		<tag k="place" v="islet" />
		<tag k="ssr:stedsnr" v="408265" />
	</node>
	<node id="-628977" lat="60.5138561893" lon="6.0696873015">
		<tag k="alt_name" v="Haugatjørni" />
		<tag k="name" v="Haugatjørn" />
>>>>>>> e1d4bc35ff8a6074a6f2e91616a996b547c36f15
		<tag k="natural" v="water" />
		<tag k="ssr:stedsnr" v="550583" />
	</node>
<<<<<<< HEAD
	<node lat="60.49675813441891" lon="6.017269740648501" id="-30116">
		<tag k="name" v="Instavatnet" />
		<tag k="natural" v="water" />
		<tag k="ssr:stedsnr" v="551315" />
	</node>
	<node lat="60.46053070757911" lon="6.13203594039775" id="-30117">
		<tag k="name" v="Steinladetjørn" />
		<tag k="natural" v="water" />
		<tag k="ssr:stedsnr" v="551376" />
	</node>
	<node lat="60.41835555205401" lon="6.0705222189441175" id="-30120">
		<tag k="name" v="Fugladalsvika" />
=======
	<node id="-628975" lat="60.4791277786" lon="6.05433055952">
		<tag k="name" v="Dyradalsvatnet" />
		<tag k="natural" v="water" />
		<tag k="ssr:stedsnr" v="408237" />
		<tag k="water" v="lake" />
	</node>
	<node id="-628972" lat="60.3442194482" lon="6.16883055927">
		<tag k="name" v="Ondalselva" />
		<tag k="ssr:stedsnr" v="408043" />
		<tag k="waterway" v="river" />
	</node>
	<node id="-628966" lat="60.3343279958" lon="6.08986604895">
		<tag k="alt_name" v="Godalstjørnane" />
		<tag k="name" v="Goddalstjørnane" />
		<tag k="natural" v="water" />
		<tag k="ssr:stedsnr" v="407984" />
		<tag k="water" v="lake" />
	</node>
	<node id="-627408" lat="60.3024909292" lon="5.95417923671">
		<tag k="name" v="Bratthustjørna" />
		<tag k="natural" v="water" />
		<tag k="ssr:stedsnr" v="347720" />
	</node>
	<node id="-628956" lat="60.4261249992" lon="6.15975834062">
		<tag k="name" v="Storelva" />
		<tag k="ssr:stedsnr" v="395723" />
		<tag k="waterway" v="river" />
	</node>
	<node id="-628953" lat="60.521541668" lon="6.07667499705">
		<tag k="name" v="Osen" />
>>>>>>> e1d4bc35ff8a6074a6f2e91616a996b547c36f15
		<tag k="natural" v="bay" />
		<tag k="ssr:stedsnr" v="551486" />
	</node>
<<<<<<< HEAD
	<node lat="60.42866389057378" lon="6.17855554859145" id="-30124">
		<tag k="name" v="Klebansbekken" />
		<tag k="ssr:stedsnr" v="551434" />
		<tag k="waterway" v="stream" />
	</node>
	<node lat="60.21703610939895" lon="5.975488881319435" id="-30150">
		<tag k="name" v="Fjellstrand" />
		<tag k="natural" v="beach" />
		<tag k="ssr:stedsnr" v="589674" />
	</node>
	<node lat="60.3844055553346" lon="6.189477778384767" id="-30155">
		<tag k="name" v="Vikelva" />
		<tag k="ssr:stedsnr" v="590104" />
		<tag k="waterway" v="river" />
	</node>
	<node lat="60.39584444738774" lon="6.131608325646365" id="-30164">
		<tag k="name" v="Skorabekken" />
		<tag k="ssr:stedsnr" v="590200" />
		<tag k="waterway" v="stream" />
	</node>
	<node lat="60.26900833394005" lon="6.152197219359987" id="-30175">
		<tag k="name" v="Langaneset" />
		<tag k="natural" v="cape" />
		<tag k="ssr:stedsnr" v="590545" />
	</node>
	<node lat="60.37149487440046" lon="6.037537770440375" id="-30180">
		<tag k="name" v="Steindalselvi" />
		<tag k="ssr:stedsnr" v="590819" />
		<tag k="waterway" v="river" />
	</node>
	<node lat="60.298877776419516" lon="6.154905562846717" id="-30184">
		<tag k="name" v="Løken" />
		<tag k="natural" v="beach" />
		<tag k="ssr:stedsnr" v="590934" />
	</node>
	<node lat="60.42647143175682" lon="6.052055725782922" id="-30185">
		<tag k="name" v="Svartavatnet" />
=======
	<node id="-628952" lat="60.5050528507" lon="6.13386027992">
		<tag k="name" v="Lomatjørni" />
		<tag k="natural" v="water" />
		<tag k="ssr:stedsnr" v="370791" />
	</node>
	<node id="-628945" lat="60.316711114" lon="6.04145276886">
		<tag k="name" v="Fureneset" />
		<tag k="natural" v="cape" />
		<tag k="ssr:stedsnr" v="369967" />
	</node>
	<node id="-628938" lat="60.2846182433" lon="5.97614402815">
		<tag k="name" v="Akssetetjørn" />
		<tag k="natural" v="water" />
		<tag k="ssr:stedsnr" v="369916" />
	</node>
	<node id="-628937" lat="60.2939893691" lon="6.09204018873">
		<tag k="name" v="Bottsvatnet" />
		<tag k="natural" v="water" />
		<tag k="ssr:stedsnr" v="369881" />
	</node>
	<node id="-628934" lat="60.2706833354" lon="5.9911666624">
		<tag k="name" v="Svartelva" />
		<tag k="ssr:stedsnr" v="369866" />
		<tag k="waterway" v="stream" />
	</node>
	<node id="-628927" lat="60.4755882435" lon="6.28963436576">
		<tag k="alt_name" v="Goddalsvatnet, øvre" />
		<tag k="name" v="Øvre Goddalsvatnet" />
>>>>>>> e1d4bc35ff8a6074a6f2e91616a996b547c36f15
		<tag k="natural" v="water" />
		<tag k="ssr:stedsnr" v="590798" />
		<tag k="water" v="lake" />
	</node>
<<<<<<< HEAD
	<node lat="60.46735705635491" lon="6.3848800742215195" id="-30188">
		<tag k="name" v="Langeløken" />
=======
	<node id="-628908" lat="60.3465928347" lon="6.0959045063">
		<tag k="name" v="Kjoshellevatnet" />
		<tag k="natural" v="water" />
		<tag k="ssr:stedsnr" v="369510" />
	</node>
	<node id="-628906" lat="60.3301429444" lon="6.04521169245">
		<tag k="name" v="Vålavatnet" />
>>>>>>> e1d4bc35ff8a6074a6f2e91616a996b547c36f15
		<tag k="natural" v="water" />
		<tag k="ssr:stedsnr" v="611201" />
	</node>
<<<<<<< HEAD
	<node lat="60.41979444120099" lon="5.968725006786547" id="-30194">
		<tag k="name" v="Fossåna" />
		<tag k="ssr:stedsnr" v="611459" />
		<tag k="waterway" v="stream" />
	</node>
	<node lat="60.32874541726725" lon="6.142498838230997" id="-30202">
		<tag k="name" v="Skoratjørn" />
		<tag k="natural" v="water" />
		<tag k="ssr:stedsnr" v="612533" />
	</node>
	<node lat="60.32830867689712" lon="6.090846886531179" id="-30203">
		<tag k="name" v="Nystølstjørna" />
=======
	<node id="-628904" lat="60.3383694467" lon="6.11401111706">
		<tag k="name" v="Fonnalandsøya" />
		<tag k="place" v="island" />
		<tag k="ssr:stedsnr" v="369468" />
	</node>
	<node id="-628895" lat="60.4432207146" lon="6.02168725015">
		<tag k="name" v="Gråursvatnet" />
		<tag k="natural" v="water" />
		<tag k="ssr:stedsnr" v="369382" />
	</node>
	<node id="-628892" lat="60.4607861119" lon="6.029888894">
		<tag k="name" v="Fossane" />
		<tag k="natural" v="waterfall" />
		<tag k="ssr:stedsnr" v="369354" />
	</node>
	<node id="-628890" lat="60.4426974234" lon="6.3729978558">
		<tag k="name" v="Kaldakjelen" />
>>>>>>> e1d4bc35ff8a6074a6f2e91616a996b547c36f15
		<tag k="natural" v="water" />
		<tag k="ssr:stedsnr" v="612536" />
	</node>
<<<<<<< HEAD
	<node lat="60.40378333405722" lon="6.017963884289548" id="-30212">
		<tag k="name" v="Stølso" />
		<tag k="ssr:stedsnr" v="612499" />
		<tag k="waterway" v="river" />
	</node>
	<node lat="60.386569448979486" lon="6.128958341814288" id="-30217">
		<tag k="name" v="Vetlavatnet" />
=======
	<node id="-628889" lat="60.4662234967" lon="6.45343586761">
		<tag k="name" v="Grubbatjørnane" />
		<tag k="natural" v="water" />
		<tag k="ssr:stedsnr" v="369192" />
		<tag k="water" v="lake" />
	</node>
	<node id="-628875" lat="60.4486839111" lon="5.98856919077">
		<tag k="name" v="Langatjørni" />
>>>>>>> e1d4bc35ff8a6074a6f2e91616a996b547c36f15
		<tag k="natural" v="water" />
		<tag k="ssr:stedsnr" v="612709" />
	</node>
<<<<<<< HEAD
	<node lat="60.494722519107576" lon="6.354287968846491" id="-30226">
		<tag k="name" v="Djupebottvatnet" />
=======
	<node id="-628872" lat="60.3155416627" lon="6.0172305509">
		<tag k="name" v="Fossteinspollen" />
>>>>>>> e1d4bc35ff8a6074a6f2e91616a996b547c36f15
		<tag k="natural" v="water" />
		<tag k="ssr:stedsnr" v="612756" />
		<tag k="water" v="lake" />
	</node>
<<<<<<< HEAD
	<node lat="60.49876196849749" lon="6.282266745564058" id="-30228">
		<tag k="name" v="Juklavatnet" />
=======
	<node id="-628861" lat="60.1959812187" lon="5.92945884861">
		<tag k="name" v="Svartavatnet" />
>>>>>>> e1d4bc35ff8a6074a6f2e91616a996b547c36f15
		<tag k="natural" v="water" />
		<tag k="ssr:stedsnr" v="614518" />
	</node>
<<<<<<< HEAD
	<node lat="60.455277775768145" lon="6.198219446743443" id="-30236">
		<tag k="alt_name" v="Kalleråsen;Kattrassen" />
		<tag k="name" v="Kaldrassen" />
		<tag k="ssr:stedsnr" v="648439" />
		<tag k="waterway" v="stream" />
	</node>
	<node lat="60.35960555836725" lon="6.041800004275387" id="-30240">
		<tag k="name" v="Dyraskarbekken" />
		<tag k="ssr:stedsnr" v="649820" />
		<tag k="waterway" v="stream" />
	</node>
	<node lat="60.51483933197821" lon="6.141991412897284" id="-30243">
		<tag k="name" v="Vasset" />
=======
	<node id="-628859" lat="60.504927776" lon="6.12296666696">
		<tag k="alt_name" v="Båtavik" />
		<tag k="name" v="Båtavika" />
		<tag k="natural" v="bay" />
		<tag k="ssr:stedsnr" v="347481" />
	</node>
	<node id="-628846" lat="60.3455777799" lon="6.17676666332">
		<tag k="alt_name" v="Kyrkjeelvi" />
		<tag k="name" v="Kyrkjeelva" />
		<tag k="ssr:stedsnr" v="347045" />
		<tag k="waterway" v="river" />
	</node>
	<node id="-628833" lat="60.4040555562" lon="6.29187777573">
		<tag k="name" v="Langhammartjørn" />
>>>>>>> e1d4bc35ff8a6074a6f2e91616a996b547c36f15
		<tag k="natural" v="water" />
		<tag k="ssr:stedsnr" v="650013" />
		<tag k="water" v="lake" />
	</node>
<<<<<<< HEAD
	<node lat="60.43983055663457" lon="5.968858336421578" id="-30273">
		<tag k="name" v="Vadet" />
		<tag k="ssr:stedsnr" v="651825" />
		<tag k="waterway" v="stream" />
	</node>
	<node lat="60.376016663468384" lon="6.059586120218306" id="-30277">
		<tag k="name" v="Botegotene" />
=======
	<node id="-628829" lat="60.2939908082" lon="6.13761978635">
		<tag k="alt_name" v="Tjørnsdalstjørna" />
		<tag k="name" v="Øletjørn" />
		<tag k="natural" v="water" />
		<tag k="ssr:stedsnr" v="334263" />
	</node>
	<node id="-628821" lat="60.2990756974" lon="6.16021850971">
		<tag k="loc_name" v="Tørvikavatnet" />
		<tag k="name" v="Tørvikevatnet" />
>>>>>>> e1d4bc35ff8a6074a6f2e91616a996b547c36f15
		<tag k="natural" v="water" />
		<tag k="ssr:stedsnr" v="711196" />
		<tag k="water" v="lake" />
	</node>
<<<<<<< HEAD
	<node lat="60.44388138447942" lon="5.979488238095554" id="-30296">
		<tag k="name" v="Rundatjørni" />
=======
	<node id="-628820" lat="60.2726468482" lon="5.96534113866">
		<tag k="name" v="Røyndalsvatnet" />
>>>>>>> e1d4bc35ff8a6074a6f2e91616a996b547c36f15
		<tag k="natural" v="water" />
		<tag k="ssr:stedsnr" v="712811" />
	</node>
<<<<<<< HEAD
	<node lat="60.469008335587766" lon="6.0169638909613035" id="-30302">
		<tag k="name" v="Nordelva" />
		<tag k="ssr:stedsnr" v="733328" />
		<tag k="waterway" v="stream" />
	</node>
	<node lat="60.47820000100788" lon="6.015461102188634" id="-30303">
		<tag k="name" v="Sputtebekken" />
		<tag k="ssr:stedsnr" v="733352" />
		<tag k="waterway" v="stream" />
	</node>
	<node lat="60.45558333732614" lon="5.984213884685956" id="-30307">
		<tag k="alt_name" v="Holmevatnet" />
		<tag k="name" v="Holmavatnet" />
=======
	<node id="-628817" lat="60.4693752138" lon="6.27618402423">
		<tag k="alt_name" v="Goddalsvatnet, nedre" />
		<tag k="name" v="Nedre Goddalsvatnet" />
		<tag k="natural" v="water" />
		<tag k="ssr:stedsnr" v="309774" />
		<tag k="water" v="lake" />
	</node>
	<node id="-628816" lat="60.5176265899" lon="6.1822989037">
		<tag k="alt_name" v="Løkedalstjørnane" />
		<tag k="name" v="Løkjesdalstjørnane" />
>>>>>>> e1d4bc35ff8a6074a6f2e91616a996b547c36f15
		<tag k="natural" v="water" />
		<tag k="ssr:stedsnr" v="733372" />
		<tag k="water" v="lake" />
	</node>
<<<<<<< HEAD
	<node lat="60.43510832922493" lon="6.161013884684593" id="-30309">
		<tag k="name" v="Kjølo" />
		<tag k="ssr:stedsnr" v="733428" />
		<tag k="waterway" v="stream" />
	</node>
	<node lat="60.356497226725445" lon="6.09365000256727" id="-30314">
		<tag k="name" v="Hestgjelsbekken" />
		<tag k="ssr:stedsnr" v="733567" />
		<tag k="waterway" v="stream" />
	</node>
	<node lat="60.349353623740114" lon="6.097893419027089" id="-30315">
		<tag k="name" v="Leitestjørna" />
=======
	<node id="-628808" lat="60.352263488" lon="6.00020037405">
		<tag k="name" v="Skarvavatnet" />
		<tag k="natural" v="water" />
		<tag k="ssr:stedsnr" v="309629" />
	</node>
	<node id="-628807" lat="60.3525277734" lon="5.99629999306">
		<tag k="name" v="Liavatnet" />
		<tag k="natural" v="water" />
		<tag k="ssr:stedsnr" v="309628" />
	</node>
	<node id="-628803" lat="60.3335403274" lon="6.13166858987">
		<tag k="alt_name" v="Svartavatn" />
		<tag k="name" v="Svartavatnet" />
>>>>>>> e1d4bc35ff8a6074a6f2e91616a996b547c36f15
		<tag k="natural" v="water" />
		<tag k="ssr:stedsnr" v="733571" />
	</node>
<<<<<<< HEAD
	<node lat="60.37915277885856" lon="6.0763416740502345" id="-30318">
		<tag k="name" v="Svortetjørna" />
=======
	<node id="-628801" lat="60.3332916689" lon="6.0782249967">
		<tag k="alt_name" v="Smørskårtjørnane" />
		<tag k="name" v="Smørskortjørnane" />
>>>>>>> e1d4bc35ff8a6074a6f2e91616a996b547c36f15
		<tag k="natural" v="water" />
		<tag k="ssr:stedsnr" v="733653" />
	</node>
<<<<<<< HEAD
	<node lat="60.285455368698926" lon="6.10584472041461" id="-30330">
		<tag k="name" v="Varøyratjørna" />
=======
	<node id="-628799" lat="60.3240844036" lon="6.04221923475">
		<tag k="name" v="Paristjørna" />
>>>>>>> e1d4bc35ff8a6074a6f2e91616a996b547c36f15
		<tag k="natural" v="water" />
		<tag k="ssr:stedsnr" v="733846" />
	</node>
<<<<<<< HEAD
	<node lat="60.27977499640916" lon="6.005888886517202" id="-30331">
		<tag k="name" v="Hjellebekken" />
		<tag k="ssr:stedsnr" v="733888" />
		<tag k="waterway" v="stream" />
	</node>
	<node lat="60.36302222173408" lon="6.017391662970569" id="-30338">
		<tag k="name" v="Longvotnebekken" />
		<tag k="ssr:stedsnr" v="734667" />
		<tag k="waterway" v="stream" />
	</node>
	<node lat="60.323248657728385" lon="6.012665041941038" id="-30343">
		<tag k="name" v="Kvelpatjørn" />
=======
	<node id="-628793" lat="60.4245361071" lon="6.35984999261">
		<tag k="name" v="Bjølvo" />
		<tag k="ssr:stedsnr" v="309178" />
		<tag k="waterway" v="river" />
	</node>
	<node id="-628791" lat="60.411216767" lon="6.22568246269">
		<tag k="alt_name" v="Skårsvatnet" />
		<tag k="name" v="Skorsvatnet" />
		<tag k="natural" v="water" />
		<tag k="ssr:stedsnr" v="309162" />
	</node>
	<node id="-628790" lat="60.4122870604" lon="6.27573089469">
		<tag k="name" v="Svortetjørni" />
>>>>>>> e1d4bc35ff8a6074a6f2e91616a996b547c36f15
		<tag k="natural" v="water" />
		<tag k="ssr:stedsnr" v="734575" />
	</node>
<<<<<<< HEAD
	<node lat="60.27788611532605" lon="6.038733335759214" id="-30358">
		<tag k="name" v="Skulafossen" />
		<tag k="natural" v="waterfall" />
		<tag k="ssr:stedsnr" v="771655" />
	</node>
	<node lat="60.22489166265499" lon="5.982974992658833" id="-30360">
		<tag k="name" v="Kalhagebekken" />
		<tag k="ssr:stedsnr" v="771698" />
		<tag k="waterway" v="stream" />
	</node>
	<node lat="60.34102768194906" lon="6.061404635079987" id="-30367">
		<tag k="name" v="Toppatjørn" />
=======
	<node id="-628788" lat="60.4089388888" lon="6.31176665829">
		<tag k="alt_name" v="Fagertjørn" />
		<tag k="name" v="Fagertjørni" />
		<tag k="natural" v="water" />
		<tag k="ssr:stedsnr" v="309139" />
	</node>
	<node id="-628786" lat="60.3165111079" lon="6.03641945098">
		<tag k="name" v="Lauvsetevatnet" />
		<tag k="natural" v="water" />
		<tag k="ssr:stedsnr" v="308970" />
	</node>
	<node id="-628785" lat="60.1104999993" lon="5.87301943846">
		<tag k="alt_name" v="Svidvatnet" />
		<tag k="name" v="Svevatnet" />
>>>>>>> e1d4bc35ff8a6074a6f2e91616a996b547c36f15
		<tag k="natural" v="water" />
		<tag k="ssr:stedsnr" v="771980" />
	</node>
<<<<<<< HEAD
	<node lat="60.38424444176302" lon="5.917327780341519" id="-30368">
		<tag k="name" v="Neset" />
		<tag k="natural" v="cape" />
		<tag k="ssr:stedsnr" v="772887" />
	</node>
	<node lat="60.40601863731998" lon="6.324472335953416" id="-30374">
		<tag k="name" v="Lomatjørn" />
=======
	<node id="-628784" lat="60.2922972236" lon="6.04259167365">
		<tag k="alt_name" v="Torsteintjørni;Torsteinstjønn" />
		<tag k="name" v="Torsteinstjørn" />
		<tag k="natural" v="water" />
		<tag k="ssr:stedsnr" v="308886" />
	</node>
	<node id="-628782" lat="60.4787552981" lon="6.35435785548">
		<tag k="name" v="Djuphølen" />
>>>>>>> e1d4bc35ff8a6074a6f2e91616a996b547c36f15
		<tag k="natural" v="water" />
		<tag k="ssr:stedsnr" v="772299" />
	</node>
<<<<<<< HEAD
	<node lat="60.37676110736039" lon="6.011261106280245" id="-30375">
		<tag k="name" v="Kvennelvi" />
		<tag k="ssr:stedsnr" v="772497" />
		<tag k="waterway" v="river" />
	</node>
	<node lat="60.337855552118" lon="6.095500003955431" id="-30391">
		<tag k="name" v="Grønevik" />
=======
	<node id="-628773" lat="60.3477444428" lon="6.08955000167">
		<tag k="name" v="Nottatjørnane" />
		<tag k="natural" v="water" />
		<tag k="ssr:stedsnr" v="308542" />
		<tag k="water" v="lake" />
	</node>
	<node id="-628766" lat="60.4151722219" lon="6.09301110861">
		<tag k="name" v="Gråursvika" />
>>>>>>> e1d4bc35ff8a6074a6f2e91616a996b547c36f15
		<tag k="natural" v="bay" />
		<tag k="ssr:stedsnr" v="772923" />
	</node>
<<<<<<< HEAD
	<node lat="60.31844297415484" lon="5.94815492206707" id="-30404">
		<tag k="name" v="Storavatnet" />
=======
	<node id="-628761" lat="60.4260916683" lon="6.19150278322">
		<tag k="name" v="Lomtjørn" />
>>>>>>> e1d4bc35ff8a6074a6f2e91616a996b547c36f15
		<tag k="natural" v="water" />
		<tag k="ssr:stedsnr" v="794984" />
	</node>
<<<<<<< HEAD
	<node lat="60.32137222374897" lon="5.95811110248699" id="-30412">
		<tag k="name" v="Spræno" />
		<tag k="ssr:stedsnr" v="794501" />
		<tag k="waterway" v="stream" />
	</node>
	<node lat="60.46846389290556" lon="6.151880547049617" id="-30417">
		<tag k="name" v="Skrottatjørn" />
=======
	<node id="-628760" lat="60.4508166636" lon="6.20755000355">
		<tag k="name" v="Fossabekken" />
		<tag k="ssr:stedsnr" v="308390" />
		<tag k="waterway" v="stream" />
	</node>
	<node id="-628758" lat="60.4459717508" lon="6.11248420856">
		<tag k="name" v="Kjetilstjørn" />
>>>>>>> e1d4bc35ff8a6074a6f2e91616a996b547c36f15
		<tag k="natural" v="water" />
		<tag k="ssr:stedsnr" v="794334" />
	</node>
<<<<<<< HEAD
	<node lat="60.46992543986757" lon="6.093433328458043" id="-30418">
		<tag k="alt_name" v="Solheimdalsvatnet" />
		<tag k="name" v="Solheimedalsvatnet" />
=======
	<node id="-627385" lat="60.2788055566" lon="6.04009444719">
		<tag k="name" v="Safossen" />
		<tag k="natural" v="waterfall" />
		<tag k="ssr:stedsnr" v="346653" />
	</node>
	<node id="-628755" lat="60.4777585333" lon="5.98203655005">
		<tag k="name" v="Trongasmogtjørna" />
>>>>>>> e1d4bc35ff8a6074a6f2e91616a996b547c36f15
		<tag k="natural" v="water" />
		<tag k="ssr:stedsnr" v="794337" />
	</node>
<<<<<<< HEAD
	<node lat="60.33147500392715" lon="6.112222222802126" id="-30423">
		<tag k="alt_name" v="Lomtjørn" />
		<tag k="name" v="Lomtjørni" />
		<tag k="place" v="locality" />
		<tag k="ssr:stedsnr" v="794519" />
	</node>
	<node lat="60.33618055305742" lon="6.053483326633659" id="-30425">
		<tag k="name" v="Svortetjørn" />
		<tag k="place" v="locality" />
		<tag k="ssr:stedsnr" v="794547" />
	</node>
	<node lat="60.32928055892169" lon="6.006244449882722" id="-30426">
		<tag k="name" v="Smørbottvatnet" />
		<tag k="place" v="locality" />
		<tag k="ssr:stedsnr" v="794556" />
	</node>
	<node lat="60.39896110889631" lon="6.002275002279873" id="-30428">
		<tag k="name" v="Skogstjørn" />
		<tag k="natural" v="water" />
		<tag k="ssr:stedsnr" v="794721" />
	</node>
	<node lat="60.389492390591364" lon="5.916870052269298" id="-30431">
		<tag k="name" v="Eikedalsvatnet" />
		<tag k="natural" v="water" />
		<tag k="ssr:stedsnr" v="794737" />
		<tag k="water" v="lake" />
	</node>
	<node lat="60.28369999721273" lon="6.043386107257158" id="-30432">
		<tag k="name" v="Engjadalsvatnet" />
		<tag k="natural" v="water" />
		<tag k="old_name" v="Engedalsvatnet" />
		<tag k="ssr:stedsnr" v="794830" />
	</node>
	<node lat="60.282871897457476" lon="6.0546286080829566" id="-30433">
		<tag k="name" v="Byrkjenesvatnet" />
		<tag k="natural" v="water" />
		<tag k="old_name" v="Byrkesnesvatnet" />
		<tag k="ssr:stedsnr" v="794832" />
		<tag k="water" v="lake" />
	</node>
	<node lat="60.244611115149226" lon="5.975574998330559" id="-30443">
		<tag k="name" v="Træda" />
		<tag k="ssr:stedsnr" v="794706" />
		<tag k="waterway" v="stream" />
	</node>
	<node lat="60.50741666618556" lon="6.091100000501732" id="-30447">
		<tag k="name" v="Nystølelvi" />
		<tag k="ssr:stedsnr" v="795769" />
		<tag k="waterway" v="stream" />
	</node>
	<node lat="60.148736371694646" lon="5.885986832811624" id="-30459">
		<tag k="name" v="Setratjørna" />
		<tag k="natural" v="water" />
		<tag k="ssr:stedsnr" v="832951" />
	</node>
	<node lat="60.440155559377864" lon="6.126583330360099" id="-30471">
		<tag k="name" v="Vossadalselva" />
		<tag k="ssr:stedsnr" v="833219" />
		<tag k="waterway" v="river" />
	</node>
	<node lat="60.463747221737485" lon="6.2235250054685185" id="-30474">
		<tag k="alt_name" v="Skårelvi;Skåroelva" />
		<tag k="name" v="Skoroelva" />
		<tag k="ssr:stedsnr" v="833396" />
		<tag k="waterway" v="river" />
	</node>
	<node lat="60.49305277445116" lon="6.015350005378865" id="-30494">
		<tag k="name" v="Holmen" />
		<tag k="place" v="islet" />
		<tag k="ssr:stedsnr" v="833818" />
	</node>
	<node lat="60.24130833699836" lon="5.992052774411052" id="-30501">
		<tag k="name" v="Børsheimselva" />
		<tag k="ssr:stedsnr" v="854728" />
		<tag k="waterway" v="stream" />
	</node>
	<node lat="60.13131944080971" lon="5.871352787008044" id="-30502">
		<tag k="name" v="Veslahorgsvatnet" />
		<tag k="natural" v="water" />
		<tag k="ssr:stedsnr" v="854585" />
	</node>
	<node lat="60.48128611442115" lon="6.193463897521923" id="-30508">
		<tag k="name" v="Frytlielva" />
		<tag k="ssr:stedsnr" v="855330" />
		<tag k="waterway" v="stream" />
	</node>
	<node lat="60.329465260808014" lon="6.011019113005775" id="-30520">
		<tag k="name" v="Heggvatnet" />
		<tag k="natural" v="water" />
		<tag k="ssr:stedsnr" v="855556" />
	</node>
	<node lat="60.38885555372028" lon="6.106105554275666" id="-30525">
		<tag k="name" v="Alkleivselva" />
		<tag k="ssr:stedsnr" v="855723" />
		<tag k="waterway" v="stream" />
	</node>
	<node lat="60.390416531954564" lon="6.045211400095121" id="-30526">
		<tag k="name" v="Botnatjørn" />
		<tag k="natural" v="water" />
		<tag k="ssr:stedsnr" v="855730" />
	</node>
	<node lat="60.25973928148714" lon="6.121971249274197" id="-30529">
		<tag k="name" v="Tveitatjørna" />
		<tag k="natural" v="water" />
		<tag k="ssr:stedsnr" v="855820" />
	</node>
	<node lat="60.3715388924319" lon="6.056911102408446" id="-30533">
		<tag k="name" v="Nyasetbekken" />
		<tag k="ssr:stedsnr" v="855674" />
		<tag k="waterway" v="stream" />
	</node>
	<node lat="60.515913884652036" lon="6.059063896513315" id="-30542">
		<tag k="name" v="Kjerringabekken" />
		<tag k="ssr:stedsnr" v="856977" />
		<tag k="waterway" v="stream" />
	</node>
	<node lat="60.500394657275486" lon="6.036957525345416" id="-30543">
		<tag k="name" v="Langtjørni" />
		<tag k="natural" v="water" />
		<tag k="ssr:stedsnr" v="856979" />
	</node>
	<node lat="60.412786111478795" lon="6.162691665566702" id="-30553">
		<tag k="name" v="Lauvvikeneset" />
		<tag k="natural" v="cape" />
		<tag k="ssr:stedsnr" v="882334" />
	</node>
	<node lat="60.37490000099649" lon="6.046991662187224" id="-30557">
		<tag k="name" v="Tokagjelsbekken" />
		<tag k="ssr:stedsnr" v="941391" />
		<tag k="waterway" v="stream" />
=======
	<node id="-627032" lat="60.484568233" lon="6.35353787094">
		<tag k="name" v="Tverrelvvatnet" />
		<tag k="natural" v="water" />
		<tag k="ssr:stedsnr" v="309765" />
>>>>>>> e1d4bc35ff8a6074a6f2e91616a996b547c36f15
	</node>
	<node lat="60.430105554100706" lon="6.169094449137298" id="-30579">
		<tag k="name" v="Flyaelva" />
		<tag k="ssr:stedsnr" v="954125" />
		<tag k="waterway" v="river" />
	</node>
	<node lat="60.41502500089239" lon="6.091227783293321" id="-30580">
		<tag k="name" v="Gråursviki" />
		<tag k="natural" v="bay" />
		<tag k="ssr:stedsnr" v="954214" />
	</node>
	<node lat="60.417802779953654" lon="6.364386111908764" id="-30582">
		<tag k="name" v="Bjølvefossen" />
		<tag k="natural" v="waterfall" />
		<tag k="ssr:stedsnr" v="954306" />
	</node>
	<node lat="60.30817918685464" lon="6.160427167797742" id="-30586">
		<tag k="name" v="Tuftaholmen" />
		<tag k="place" v="islet" />
		<tag k="ssr:stedsnr" v="954575" />
	</node>
	<node lat="60.40369444911123" lon="6.159075007570648" id="-30587">
		<tag k="name" v="Nystølelva" />
		<tag k="ssr:stedsnr" v="954493" />
		<tag k="waterway" v="river" />
	</node>
	<node lat="60.20877222615179" lon="5.955736112950408" id="-30592">
		<tag k="name" v="Tresneselva" />
		<tag k="ssr:stedsnr" v="954677" />
		<tag k="waterway" v="river" />
	</node>
</osm>
