<?xml version="1.0" encoding="UTF-8"?>
<osm version="0.6" generator="osmapis">
	<node lat="60.37247500353703" lon="6.246680547797718" id="-70656">
		<tag k="alt_name" v="Buanes" />
		<tag k="name" v="Buaneset" />
		<tag k="natural" v="cape" />
		<tag k="ssr:stedsnr" v="5163" />
	</node>
	<node lat="60.25752222453489" lon="6.017905556816037" id="-70678">
		<tag k="alt_name" v="Tangeråsnes" />
		<tag k="name" v="Tangaråsneset" />
		<tag k="natural" v="cape" />
		<tag k="ssr:stedsnr" v="5765" />
	</node>
	<node lat="60.2655583298813" lon="6.016902786994594" id="-70681">
		<tag k="alt_name" v="Laksnes" />
		<tag k="name" v="Laksneset" />
		<tag k="natural" v="cape" />
		<tag k="ssr:stedsnr" v="5773" />
	</node>
	<node lat="60.130186113383246" lon="5.90521667158844" id="-70684">
		<tag k="name" v="Storflua" />
		<tag k="natural" v="shoal" />
		<tag k="place" v="locality" />
		<tag k="ssr:stedsnr" v="24047" />
	</node>
	<node lat="60.25674999919812" lon="6.075183340913305" id="-70715">
		<tag k="name" v="Naustneset" />
		<tag k="place" v="islet" />
		<tag k="ssr:stedsnr" v="44724" />
	</node>
	<node lat="60.3827416712297" lon="6.278591669534139" id="-70724">
		<tag k="name" v="Bjelkaneset" />
		<tag k="natural" v="cape" />
		<tag k="ssr:stedsnr" v="66164" />
	</node>
	<node lat="60.36881105325715" lon="6.2722191508561815" id="-70763">
		<tag k="alt_name" v="Storavikjæ" />
		<tag k="name" v="Storaviki" />
		<tag k="natural" v="bay" />
		<tag k="ssr:stedsnr" v="248087" />
	</node>
	<node lat="60.44967500317228" lon="6.220999998131133" id="-70764">
		<tag k="alt_name" v="Spjotnes" />
		<tag k="name" v="Spjotneset" />
		<tag k="natural" v="cape" />
		<tag k="ssr:stedsnr" v="248194" />
	</node>
	<node lat="60.26343611475988" lon="6.047352769107151" id="-70779">
		<tag k="name" v="Otraneset" />
		<tag k="natural" v="cape" />
		<tag k="ssr:stedsnr" v="248586" />
	</node>
	<node lat="60.1504027779694" lon="5.924888884822477" id="-70785">
		<tag k="name" v="Langaneset" />
		<tag k="natural" v="cape" />
		<tag k="ssr:stedsnr" v="248641" />
	</node>
	<node lat="60.200455773400925" lon="5.964714208321642" id="-70810">
		<tag k="name" v="Dysvika" />
		<tag k="natural" v="bay" />
		<tag k="ssr:stedsnr" v="104696" />
	</node>
	<node lat="60.411613888055776" lon="6.2524361032259845" id="-70811">
		<tag k="name" v="Kassen" />
		<tag k="natural" v="cape" />
		<tag k="ssr:stedsnr" v="104790" />
	</node>
	<node lat="60.361244447017896" lon="6.181397220593129" id="-70885">
		<tag k="name" v="Vallandsgrunnen" />
		<tag k="natural" v="shoal" />
		<tag k="place" v="locality" />
		<tag k="ssr:stedsnr" v="164914" />
	</node>
	<node lat="60.380024996704776" lon="6.274666673798181" id="-70890">
		<tag k="name" v="Rykkjeneset" />
		<tag k="natural" v="cape" />
		<tag k="ssr:stedsnr" v="165102" />
	</node>
	<node lat="60.14838333138366" lon="5.900924997774805" id="-70917">
		<tag k="alt_name" v="Hellersvika" />
		<tag k="name" v="Hillersvika" />
		<tag k="natural" v="bay" />
		<tag k="ssr:stedsnr" v="186626" />
	</node>
	<node lat="60.36893716820545" lon="6.263461795555171" id="-70918">
		<tag k="alt_name" v="Øykalven" />
		<tag k="fixme" v="multiple name tags, choose one and add the other to alt_name" />
		<tag k="name" v="Tjuvaholmen;Øyakalven" />
		<tag k="place" v="islet" />
		<tag k="ssr:stedsnr" v="187073" />
	</node>
	<node lat="60.216032437293286" lon="5.974840177580962" id="-70954">
		<tag k="name" v="Gjerdavika" />
		<tag k="natural" v="bay" />
		<tag k="ssr:stedsnr" v="206115" />
	</node>
	<node lat="60.368582260643976" lon="6.267203077936136" id="-70984">
		<tag k="alt_name" v="Øykalvsundet" />
		<tag k="name" v="Øyakalvsundet" />
		<tag k="natural" v="strait" />
		<tag k="ssr:stedsnr" v="248075" />
	</node>
	<node lat="60.43200555334799" lon="6.4466138875403844" id="-70989">
		<tag k="name" v="Gråaneset" />
		<tag k="natural" v="cape" />
		<tag k="ssr:stedsnr" v="248224" />
	</node>
	<node lat="60.19606037284897" lon="5.966649836415644" id="-71003">
		<tag k="alt_name" v="Storeholmen" />
		<tag k="name" v="Dysvikeholmen" />
		<tag k="place" v="islet" />
		<tag k="ssr:stedsnr" v="248505" />
	</node>
	<node lat="60.13819444904344" lon="5.9007166742924735" id="-71018">
		<tag k="name" v="Brytesneset" />
		<tag k="natural" v="cape" />
		<tag k="ssr:stedsnr" v="267014" />
	</node>
	<node lat="60.42026388923429" lon="6.239569443784508" id="-71044">
		<tag k="name" v="Klyvenes" />
		<tag k="natural" v="cape" />
		<tag k="ssr:stedsnr" v="287433" />
	</node>
	<node lat="60.37099722383251" lon="6.257944446282162" id="-71100">
		<tag k="name" v="Storasundet" />
		<tag k="natural" v="strait" />
		<tag k="ssr:stedsnr" v="469118" />
	</node>
	<node lat="60.37096111171866" lon="6.252230560428754" id="-71101">
		<tag k="name" v="Hattastruten" />
		<tag k="natural" v="cape" />
		<tag k="ssr:stedsnr" v="469119" />
	</node>
	<node lat="60.217233336168185" lon="5.981033332576269" id="-71140">
		<tag k="name" v="Omasund" />
		<tag k="natural" v="strait" />
		<tag k="ssr:stedsnr" v="529689" />
	</node>
	<node lat="60.24926389253367" lon="6.1373833267402995" id="-71149">
		<tag k="name" v="Klubbeneset" />
		<tag k="natural" v="cape" />
		<tag k="ssr:stedsnr" v="346673" />
	</node>
	<node lat="60.35478466715548" lon="6.17924923281607" id="-71194">
		<tag k="fixme" v="consider seamark:type=rock or natural=shoal" />
		<tag k="name" v="Blybergskjeret" />
		<tag k="place" v="islet" />
		<tag k="ssr:stedsnr" v="369525" />
	</node>
	<node lat="60.38027204123653" lon="6.204727691826584" id="-71275">
		<tag k="alt_name" v="Lundanes" />
		<tag k="name" v="Lundaneset" />
		<tag k="natural" v="cape" />
		<tag k="ssr:stedsnr" v="490670" />
	</node>
	<node lat="60.246783329963215" lon="6.13942499413127" id="-71280">
		<tag k="alt_name" v="Salbuvika" />
		<tag k="name" v="Saltbuvika" />
		<tag k="natural" v="bay" />
		<tag k="ssr:stedsnr" v="490755" />
	</node>
	<node lat="60.43060833163301" lon="6.225861113340558" id="-71291">
		<tag k="alt_name" v="Mjåsundet" />
		<tag k="name" v="Mjåsund" />
		<tag k="natural" v="strait" />
		<tag k="ssr:stedsnr" v="430221" />
	</node>
	<node lat="60.21843889295353" lon="5.983563889402104" id="-71309">
		<tag k="name" v="Omaholmen" />
		<tag k="place" v="islet" />
		<tag k="ssr:stedsnr" v="430499" />
	</node>
	<node lat="60.269414236100005" lon="6.020579277420707" id="-71329">
		<tag k="name" v="Bergsneset" />
		<tag k="natural" v="cape" />
		<tag k="ssr:stedsnr" v="430803" />
	</node>
	<node lat="60.11742500398798" lon="5.925063893588945" id="-71340">
		<tag k="bay" v="fjord" />
		<tag k="name" v="Øynefjorden" />
		<tag k="natural" v="bay" />
		<tag k="ssr:stedsnr" v="430905" />
	</node>
	<node lat="60.26267500177254" lon="6.177077785433016" id="-71356">
		<tag k="name" v="Djevlevika" />
		<tag k="natural" v="bay" />
		<tag k="ssr:stedsnr" v="491794" />
	</node>
	<node lat="60.252919227616516" lon="6.081958616508997" id="-71359">
		<tag k="alt_name" v="Linganes" />
		<tag k="name" v="Linganeset" />
		<tag k="natural" v="cape" />
		<tag k="ssr:stedsnr" v="491743" />
	</node>
	<node lat="60.27289722059635" lon="6.185438888196608" id="-71365">
		<tag k="alt_name" v="Hårjona" />
		<tag k="name" v="Hardingholo" />
		<tag k="natural" v="bay" />
		<tag k="ssr:stedsnr" v="491819" />
	</node>
	<node lat="60.35126683450421" lon="6.182108692874298" id="-71387">
		<tag k="alt_name" v="Holmen" />
		<tag k="name" v="Framnes" />
		<tag k="natural" v="cape" />
		<tag k="ssr:stedsnr" v="672545" />
	</node>
	<node lat="60.40876111243836" lon="6.352627773379684" id="-71407">
		<tag k="name" v="Djupevik" />
		<tag k="natural" v="bay" />
		<tag k="old_name" v="Djupeviki" />
		<tag k="ssr:stedsnr" v="673140" />
	</node>
	<node lat="60.41411388685886" lon="6.3962805562615985" id="-71408">
		<tag k="name" v="Kolneset" />
		<tag k="natural" v="cape" />
		<tag k="ssr:stedsnr" v="673145" />
	</node>
	<node lat="60.367561108920995" lon="6.1925861053326114" id="-71434">
		<tag k="name" v="Nesvika" />
		<tag k="natural" v="bay" />
		<tag k="ssr:stedsnr" v="468018" />
	</node>
	<node lat="60.33226666640115" lon="6.221316672459435" id="-71459">
		<tag k="name" v="Aksneset" />
		<tag k="natural" v="cape" />
		<tag k="ssr:stedsnr" v="490034" />
	</node>
	<node lat="60.21285555962165" lon="5.96495556212829" id="-71470">
		<tag k="alt_name" v="Saltvik" />
		<tag k="name" v="Saltvika" />
		<tag k="natural" v="bay" />
		<tag k="ssr:stedsnr" v="490514" />
	</node>
	<node lat="60.361163886855884" lon="6.160708331580158" id="-71482">
		<tag k="alt_name" v="Laksastineset" />
		<tag k="name" v="Laksastigneset" />
		<tag k="natural" v="cape" />
		<tag k="ssr:stedsnr" v="491630" />
	</node>
	<node lat="60.34111944318972" lon="6.215541668439259" id="-71535">
		<tag k="alt_name" v="Landholmenes" />
		<tag k="name" v="Landholmaneset" />
		<tag k="natural" v="cape" />
		<tag k="ssr:stedsnr" v="551529" />
	</node>
	<node lat="60.130361115451876" lon="5.904299999217568" id="-71560">
		<tag k="name" v="Ytrevågen" />
		<tag k="natural" v="bay" />
		<tag k="ssr:stedsnr" v="570061" />
	</node>
	<node lat="60.185849372074756" lon="5.961169362110678" id="-71571">
		<tag k="name" v="Knappen" />
		<tag k="natural" v="cape" />
		<tag k="ssr:stedsnr" v="589366" />
	</node>
	<node lat="60.46123610889156" lon="6.221794442519729" id="-71584">
		<tag k="name" v="Holeneset" />
		<tag k="natural" v="cape" />
		<tag k="ssr:stedsnr" v="590396" />
	</node>
	<node lat="60.15336666398972" lon="5.924397226889183" id="-71627">
		<tag k="name" v="Hansvågen" />
		<tag k="natural" v="bay" />
		<tag k="ssr:stedsnr" v="631001" />
	</node>
	<node lat="60.366597222217166" lon="6.1830694511814" id="-71635">
		<tag k="name" v="Skiparvika" />
		<tag k="natural" v="bay" />
		<tag k="ssr:stedsnr" v="650290" />
	</node>
	<node lat="60.26210555288594" lon="6.1769111129547785" id="-71638">
		<tag k="name" v="Djevlevikneset" />
		<tag k="natural" v="cape" />
		<tag k="ssr:stedsnr" v="650616" />
	</node>
	<node lat="60.396380557847465" lon="6.3129277729144775" id="-71651">
		<tag k="alt_name" v="Olderflaten" />
		<tag k="name" v="Orreflåten" />
		<tag k="natural" v="cape" />
		<tag k="ssr:stedsnr" v="651449" />
	</node>
	<node lat="60.19574444004012" lon="5.96341944261451" id="-71668">
		<tag k="name" v="Vikane" />
		<tag k="natural" v="bay" />
		<tag k="ssr:stedsnr" v="710400" />
	</node>
	<node lat="60.214944444497455" lon="5.975530559586063" id="-71676">
		<tag k="name" v="Gjerdaneset" />
		<tag k="natural" v="cape" />
		<tag k="ssr:stedsnr" v="672488" />
	</node>
	<node lat="60.368084162432474" lon="6.274306821058796" id="-71683">
		<tag k="alt_name" v="Vetlavikjæ" />
		<tag k="name" v="Vetlaviki" />
		<tag k="natural" v="bay" />
		<tag k="ssr:stedsnr" v="673111" />
	</node>
	<node lat="60.25950833518313" lon="6.035555556789127" id="-71694">
		<tag k="name" v="Strandebarmsbukta" />
		<tag k="natural" v="bay" />
		<tag k="ssr:stedsnr" v="673809" />
	</node>
	<node lat="60.1893388894654" lon="5.9589138920082005" id="-71701">
		<tag k="name" v="Eikenes" />
		<tag k="natural" v="cape" />
		<tag k="ssr:stedsnr" v="893364" />
	</node>
	<node lat="60.19606666245459" lon="5.966241660767549" id="-71702">
		<tag k="name" v="Dysvikholmen" />
		<tag k="place" v="islet" />
		<tag k="ssr:stedsnr" v="893365" />
	</node>
	<node lat="60.4207750024861" lon="6.230536106938367" id="-71777">
		<tag k="alt_name" v="Kjikkenes" />
		<tag k="name" v="Kikeneset" />
		<tag k="natural" v="cape" />
		<tag k="ssr:stedsnr" v="712381" />
	</node>
	<node lat="60.25340000200234" lon="6.100350005789311" id="-71781">
		<tag k="name" v="Urevik" />
		<tag k="natural" v="bay" />
		<tag k="ssr:stedsnr" v="712578" />
	</node>
	<node lat="60.25726110797034" lon="6.068861116651323" id="-71819">
		<tag k="alt_name" v="Lingasund" />
		<tag k="name" v="Lingasundet" />
		<tag k="natural" v="strait" />
		<tag k="ssr:stedsnr" v="733775" />
	</node>
	<node lat="60.300308331607546" lon="6.17156666311671" id="-71827">
		<tag k="alt_name" v="Skutevik" />
		<tag k="name" v="Skuteviki" />
		<tag k="natural" v="bay" />
		<tag k="ssr:stedsnr" v="734934" />
	</node>
	<node lat="60.13408888491758" lon="5.903358337466518" id="-71839">
		<tag k="name" v="Mørkevåg" />
		<tag k="natural" v="bay" />
		<tag k="ssr:stedsnr" v="772303" />
	</node>
	<node lat="60.426424998921135" lon="6.228366669786896" id="-71842">
		<tag k="name" v="Nolten" />
		<tag k="natural" v="cape" />
		<tag k="ssr:stedsnr" v="772419" />
	</node>
	<node lat="59.94999999761597" lon="5.708333330211666" id="-71857">
		<tag k="bay" v="fjord" />
		<tag k="name" v="Hardangerfjorden" />
		<tag k="natural" v="bay" />
		<tag k="ssr:stedsnr" v="793474" />
	</node>
	<node lat="60.15693055276886" lon="5.922925001230169" id="-71859">
		<tag k="name" v="Nisebergvågen" />
		<tag k="natural" v="bay" />
		<tag k="ssr:stedsnr" v="793620" />
	</node>
	<node lat="60.41218055249198" lon="6.387936103575267" id="-71861">
		<tag k="alt_name" v="Tveitaneset" />
		<tag k="name" v="Tveitneset" />
		<tag k="natural" v="cape" />
		<tag k="ssr:stedsnr" v="794124" />
	</node>
	<node lat="60.258652782173804" lon="6.06206944942231" id="-71884">
		<tag k="alt_name" v="Larsholmen" />
		<tag k="name" v="Larsaholmen" />
		<tag k="place" v="islet" />
		<tag k="ssr:stedsnr" v="794789" />
	</node>
	<node lat="60.43315990321158" lon="6.23365322035056" id="-71899">
		<tag k="alt_name" v="Vikaneset" />
		<tag k="name" v="Vikanes" />
		<tag k="natural" v="cape" />
		<tag k="ssr:stedsnr" v="915212" />
	</node>
	<node lat="60.34623055266621" lon="6.208597226379637" id="-71915">
		<tag k="name" v="Kyraneset" />
		<tag k="natural" v="cape" />
		<tag k="ssr:stedsnr" v="915529" />
	</node>
	<node lat="60.347000003303634" lon="6.20718888252031" id="-71916">
		<tag k="name" v="Langaneset" />
		<tag k="natural" v="cape" />
		<tag k="ssr:stedsnr" v="915531" />
	</node>
	<node lat="60.296819447073915" lon="6.174019441190754" id="-71931">
		<tag k="alt_name" v="Drageholmen" />
		<tag k="name" v="Dragsholmen" />
		<tag k="place" v="islet" />
		<tag k="ssr:stedsnr" v="916942" />
	</node>
	<node lat="60.453016670504496" lon="6.21749165933099" id="-71954">
		<tag k="fixme" v="consider seamark:type=rock or natural=shoal" />
		<tag k="loc_name" v="Kobbaskjer" />
		<tag k="name" v="Kobbaskjær" />
		<tag k="place" v="islet" />
		<tag k="ssr:stedsnr" v="833109" />
	</node>
	<node lat="60.43029166425033" lon="6.438408342169252" id="-71962">
		<tag k="name" v="Kvalen" />
		<tag k="natural" v="cape" />
		<tag k="ssr:stedsnr" v="833462" />
	</node>
	<node lat="60.15179166732993" lon="5.944874996336693" id="-71975">
		<tag k="alt_name" v="Bondesundet" />
		<tag k="name" v="Bondesund" />
		<tag k="natural" v="strait" />
		<tag k="ssr:stedsnr" v="854603" />
	</node>
	<node lat="60.350455460258836" lon="6.185414701638909" id="-72008">
		<tag k="alt_name" v="Friarskjeret" />
		<tag k="fixme" v="consider seamark:type=rock or natural=shoal" />
		<tag k="name" v="Friarskjer" />
		<tag k="place" v="islet" />
		<tag k="ssr:stedsnr" v="893026" />
	</node>
	<node lat="60.33195277904691" lon="6.218988883360523" id="-72014">
		<tag k="name" v="Nesjaklumpen" />
		<tag k="natural" v="cape" />
		<tag k="ssr:stedsnr" v="894059" />
	</node>
	<node lat="60.45345555824278" lon="6.228372213762895" id="-72016">
		<tag k="name" v="Bjørnsteinen" />
		<tag k="natural" v="cape" />
		<tag k="ssr:stedsnr" v="894076" />
	</node>
	<node lat="60.42415833642428" lon="6.2287055608356185" id="-72026">
		<tag k="name" v="Djupevik" />
		<tag k="natural" v="bay" />
		<tag k="ssr:stedsnr" v="894452" />
	</node>
	<node lat="60.28559999744386" lon="6.176544447022044" id="-72077">
		<tag k="name" v="Eidesvågen" />
		<tag k="natural" v="bay" />
		<tag k="ssr:stedsnr" v="916871" />
	</node>
	<node lat="60.13522010361555" lon="5.898625798761588" id="-72112">
		<tag k="name" v="Gravdalsholmen" />
		<tag k="place" v="islet" />
		<tag k="ssr:stedsnr" v="990460" />
	</node>
	<node lat="60.3091816473924" lon="6.169484604721813" id="-72146">
		<tag k="alt_name" v="Banketunnevik" />
		<tag k="name" v="Banketunnevika" />
		<tag k="natural" v="bay" />
		<tag k="ssr:stedsnr" v="5954" />
	</node>
	<node lat="60.303185170294874" lon="6.174838864592465" id="-72150">
		<tag k="alt_name" v="Fagervik" />
		<tag k="name" v="Fogervik" />
		<tag k="natural" v="bay" />
		<tag k="ssr:stedsnr" v="5894" />
	</node>
	<node lat="60.328900003489174" lon="6.216474996102553" id="-72154">
		<tag k="name" v="Krossnes" />
		<tag k="natural" v="cape" />
		<tag k="ssr:stedsnr" v="6634" />
	</node>
	<node lat="60.19649613308113" lon="5.96718904373164" id="-72176">
		<tag k="alt_name" v="Store Dysvikholmen" />
		<tag k="name" v="Storeholmen" />
		<tag k="place" v="islet" />
		<tag k="ssr:stedsnr" v="43364" />
	</node>
	<node lat="60.22499166252882" lon="5.990413888753206" id="-72182">
		<tag k="name" v="Storeklubben" />
		<tag k="natural" v="cape" />
		<tag k="ssr:stedsnr" v="43664" />
	</node>
	<node lat="60.33102500159512" lon="6.218761104242754" id="-72189">
		<tag k="name" v="Bruravika" />
		<tag k="natural" v="bay" />
		<tag k="ssr:stedsnr" v="44054" />
	</node>
	<node lat="60.44343333727305" lon="6.489086102426172" id="-72196">
		<tag k="alt_name" v="Naustviki" />
		<tag k="name" v="Naustvika" />
		<tag k="natural" v="bay" />
		<tag k="ssr:stedsnr" v="44464" />
	</node>
	<node lat="60.272227885212516" lon="6.022469457134331" id="-72198">
		<tag k="name" v="Klubbavika" />
		<tag k="natural" v="bay" />
		<tag k="ssr:stedsnr" v="44652" />
	</node>
	<node lat="60.19824999809576" lon="5.970100008615918" id="-72231">
		<tag k="name" v="Vesleholmen" />
		<tag k="place" v="islet" />
		<tag k="ssr:stedsnr" v="66483" />
	</node>
	<node lat="60.319727775969035" lon="6.175936103107192" id="-72252">
		<tag k="name" v="Saltkjelen" />
		<tag k="natural" v="bay" />
		<tag k="ssr:stedsnr" v="67628" />
	</node>
	<node lat="60.363502776551336" lon="6.276380548713" id="-72265">
		<tag k="name" v="Lyseknoppen" />
		<tag k="natural" v="cape" />
		<tag k="ssr:stedsnr" v="104034" />
	</node>
	<node lat="60.24595555290301" lon="6.140702784818531" id="-72278">
		<tag k="name" v="Flatetangen" />
		<tag k="natural" v="cape" />
		<tag k="ssr:stedsnr" v="105633" />
	</node>
	<node lat="60.366283335642734" lon="6.161866666401478" id="-72279">
		<tag k="name" v="Krægdeneset" />
		<tag k="natural" v="cape" />
		<tag k="ssr:stedsnr" v="105154" />
	</node>
	<node lat="60.25914166700906" lon="6.0679972179038435" id="-72284">
		<tag k="name" v="Nesjane" />
		<tag k="natural" v="cape" />
		<tag k="ssr:stedsnr" v="105617" />
	</node>
	<node lat="60.248744445194006" lon="6.024361110955943" id="-72321">
		<tag k="alt_name" v="Svanholm" />
		<tag k="name" v="Svanholmane" />
		<tag k="place" v="islet" />
		<tag k="ssr:stedsnr" v="126711" />
	</node>
	<node lat="60.3668277789764" lon="6.1573277814051615" id="-72342">
		<tag k="alt_name" v="Sandveholmen;Sandvinholmen" />
		<tag k="name" v="Sandvenholmen" />
		<tag k="place" v="islet" />
		<tag k="ssr:stedsnr" v="127662" />
	</node>
	<node lat="60.20487222558004" lon="5.967663888879144" id="-72363">
		<tag k="name" v="Årsnes" />
		<tag k="natural" v="cape" />
		<tag k="ssr:stedsnr" v="164727" />
	</node>
	<node lat="60.36684721974951" lon="6.191000003710149" id="-72365">
		<tag k="name" v="Nesodden" />
		<tag k="natural" v="cape" />
		<tag k="ssr:stedsnr" v="164936" />
	</node>
	<node lat="60.46922500308379" lon="6.216416659756364" id="-72366">
		<tag k="name" v="Kalvaneset" />
		<tag k="natural" v="cape" />
		<tag k="ssr:stedsnr" v="165004" />
	</node>
	<node lat="60.43253610735677" lon="6.452191663477186" id="-72380">
		<tag k="alt_name" v="Grasviki" />
		<tag k="name" v="Grasvika" />
		<tag k="natural" v="bay" />
		<tag k="ssr:stedsnr" v="165457" />
	</node>
	<node lat="60.25437499776934" lon="6.139016659220288" id="-72382">
		<tag k="alt_name" v="Kvitaneset" />
		<tag k="name" v="Kvitanes" />
		<tag k="natural" v="cape" />
		<tag k="ssr:stedsnr" v="165620" />
	</node>
	<node lat="60.256727775809374" lon="6.141741672355079" id="-72383">
		<tag k="name" v="Skjeljavika" />
		<tag k="natural" v="bay" />
		<tag k="ssr:stedsnr" v="165621" />
	</node>
	<node lat="60.343883330611035" lon="6.216994443893481" id="-72384">
		<tag k="name" v="Aksnesholmane" />
		<tag k="place" v="islet" />
		<tag k="ssr:stedsnr" v="165629" />
	</node>
	<node lat="60.25182499790304" lon="6.120347225288784" id="-72423">
		<tag k="name" v="Hjartneskvalen" />
		<tag k="natural" v="cape" />
		<tag k="ssr:stedsnr" v="187731" />
	</node>
	<node lat="60.312776440996956" lon="6.170033221911269" id="-72433">
		<tag k="name" v="Fureholmen" />
		<tag k="place" v="islet" />
		<tag k="ssr:stedsnr" v="187951" />
	</node>
	<node lat="60.31007222063932" lon="6.167227772115914" id="-72434">
		<tag k="alt_name" v="Stekkavik" />
		<tag k="name" v="Stekkavika" />
		<tag k="natural" v="bay" />
		<tag k="ssr:stedsnr" v="187953" />
	</node>
	<node lat="60.16400832928974" lon="5.913791662096579" id="-72441">
		<tag k="name" v="Årsnes" />
		<tag k="natural" v="cape" />
		<tag k="ssr:stedsnr" v="206030" />
	</node>
	<node lat="60.3488194405328" lon="6.18092221869412" id="-72454">
		<tag k="name" v="Vågen" />
		<tag k="natural" v="bay" />
		<tag k="ssr:stedsnr" v="226033" />
	</node>
	<node lat="60.41411388968764" lon="6.395263897825994" id="-72464">
		<tag k="name" v="Kålnes" />
		<tag k="natural" v="cape" />
		<tag k="ssr:stedsnr" v="226463" />
	</node>
	<node lat="60.1546944427362" lon="5.912013888793193" id="-72484">
		<tag k="name" v="Mundheimsvika" />
		<tag k="natural" v="bay" />
		<tag k="ssr:stedsnr" v="226917" />
	</node>
	<node lat="60.36607500131316" lon="6.179047224254614" id="-72498">
		<tag k="name" v="Vedanes" />
		<tag k="natural" v="cape" />
		<tag k="ssr:stedsnr" v="286023" />
	</node>
	<node lat="60.15778333708654" lon="5.949138879598971" id="-72502">
		<tag k="name" v="Kråkeneset" />
		<tag k="natural" v="cape" />
		<tag k="ssr:stedsnr" v="286386" />
	</node>
	<node lat="60.25251666401003" lon="6.087663885705439" id="-72526">
		<tag k="name" v="Lingavikane" />
		<tag k="natural" v="bay" />
		<tag k="ssr:stedsnr" v="287632" />
	</node>
	<node lat="60.23866388891146" lon="6.004619445295313" id="-72571">
		<tag k="name" v="Småholmane" />
		<tag k="place" v="islet" />
		<tag k="ssr:stedsnr" v="308716" />
	</node>
	<node lat="60.43207777689361" lon="6.450949999296137" id="-72580">
		<tag k="alt_name" v="Kvitaneset" />
		<tag k="name" v="Kvitanes" />
		<tag k="natural" v="cape" />
		<tag k="ssr:stedsnr" v="309253" />
	</node>
	<node lat="60.25551666342039" lon="6.066925008512044" id="-72588">
		<tag k="name" v="Lingaholmen" />
		<tag k="place" v="islet" />
		<tag k="ssr:stedsnr" v="309749" />
	</node>
	<node lat="60.303938885625094" lon="6.1995888823137815" id="-72599">
		<tag k="alt_name" v="Samlafjorden, ytre;Ytre Samlen" />
		<tag k="bay" v="fjord" />
		<tag k="name" v="Ytre Samlafjorden" />
		<tag k="natural" v="bay" />
		<tag k="ssr:stedsnr" v="309971" />
	</node>
	<node lat="60.427386115476146" lon="6.405419437837183" id="-72612">
		<tag k="name" v="Selholm" />
		<tag k="natural" v="cape" />
		<tag k="ssr:stedsnr" v="347051" />
	</node>
	<node lat="60.407338891535524" lon="6.258938892448096" id="-72616">
		<tag k="name" v="Ørrevika" />
		<tag k="natural" v="bay" />
		<tag k="ssr:stedsnr" v="347081" />
	</node>
	<node lat="60.25468611310172" lon="6.014219443885446" id="-72636">
		<tag k="alt_name" v="Kjelsvika" />
		<tag k="name" v="Kjelsvik" />
		<tag k="natural" v="bay" />
		<tag k="ssr:stedsnr" v="347742" />
	</node>
	<node lat="60.16969444732931" lon="5.951933331984903" id="-72638">
		<tag k="name" v="Flatesvik" />
		<tag k="natural" v="bay" />
		<tag k="ssr:stedsnr" v="347387" />
	</node>
	<node lat="60.22219999785425" lon="5.983605564531761" id="-72643">
		<tag k="name" v="Kalhageneset" />
		<tag k="natural" v="cape" />
		<tag k="ssr:stedsnr" v="347673" />
	</node>
	<node lat="60.15666666706376" lon="5.950136108069199" id="-72661">
		<tag k="alt_name" v="Kråkaflua" />
		<tag k="name" v="Kråkeflua" />
		<tag k="natural" v="shoal" />
		<tag k="place" v="locality" />
		<tag k="ssr:stedsnr" v="368650" />
	</node>
	<node lat="60.24263888666285" lon="6.152238887188385" id="-72675">
		<tag k="alt_name" v="Vikingnes;Vikingneset" />
		<tag k="name" v="Vikingenes" />
		<tag k="natural" v="cape" />
		<tag k="ssr:stedsnr" v="369728" />
	</node>
	<node lat="60.25632778005505" lon="6.1424611165782235" id="-72676">
		<tag k="name" v="Naustneset" />
		<tag k="natural" v="cape" />
		<tag k="ssr:stedsnr" v="369730" />
	</node>
	<node lat="60.166080553451586" lon="5.9239999946502415" id="-72692">
		<tag k="alt_name" v="Furevik" />
		<tag k="name" v="Furevika" />
		<tag k="natural" v="bay" />
		<tag k="ssr:stedsnr" v="388002" />
	</node>
	<node lat="60.16511666581331" lon="5.920897228612475" id="-72701">
		<tag k="name" v="Nesvika" />
		<tag k="natural" v="bay" />
		<tag k="ssr:stedsnr" v="407355" />
	</node>
	<node lat="60.24710277926627" lon="6.154711115153354" id="-72730">
		<tag k="name" v="Tangen" />
		<tag k="natural" v="cape" />
		<tag k="ssr:stedsnr" v="408626" />
	</node>
	<node lat="60.13460555621693" lon="5.901177783294978" id="-72741">
		<tag k="name" v="Eikeneset" />
		<tag k="natural" v="cape" />
		<tag k="ssr:stedsnr" v="430619" />
	</node>
	<node lat="60.23098333239617" lon="6.0061027695064215" id="-72785">
		<tag k="alt_name" v="Skjerdingen" />
		<tag k="name" v="Skjering" />
		<tag k="natural" v="cape" />
		<tag k="ssr:stedsnr" v="510109" />
	</node>
	<node lat="60.17444721899042" lon="5.95302777982756" id="-72807">
		<tag k="name" v="Asalvika" />
		<tag k="natural" v="bay" />
		<tag k="ssr:stedsnr" v="529379" />
	</node>
	<node lat="60.227155552893535" lon="5.99527222270713" id="-72815">
		<tag k="name" v="Breievnsneset" />
		<tag k="natural" v="cape" />
		<tag k="ssr:stedsnr" v="529668" />
	</node>
	<node lat="60.25298888864882" lon="6.128383336668129" id="-72822">
		<tag k="name" v="Kamsteinevika" />
		<tag k="natural" v="bay" />
		<tag k="ssr:stedsnr" v="530635" />
	</node>
	<node lat="60.27360103233964" lon="6.030569931805611" id="-72823">
		<tag k="name" v="Fossvågen" />
		<tag k="natural" v="bay" />
		<tag k="ssr:stedsnr" v="530654" />
	</node>
	<node lat="60.35718889144237" lon="6.193116664386938" id="-72840">
		<tag k="bay" v="fjord" />
		<tag k="name" v="Samlafjorden" />
		<tag k="natural" v="bay" />
		<tag k="ssr:stedsnr" v="551571" />
	</node>
	<node lat="60.36256388986291" lon="6.175094435413017" id="-72843">
		<tag k="name" v="Vallandsholmane" />
		<tag k="place" v="islet" />
		<tag k="ssr:stedsnr" v="551619" />
	</node>
	<node lat="60.367494448716506" lon="6.159269437525617" id="-72880">
		<tag k="name" v="Holmsundet" />
		<tag k="natural" v="strait" />
		<tag k="ssr:stedsnr" v="590162" />
	</node>
	<node lat="60.37532778187219" lon="6.257116659322423" id="-72886">
		<tag k="name" v="Vomsvik" />
		<tag k="natural" v="bay" />
		<tag k="ssr:stedsnr" v="590119" />
	</node>
	<node lat="60.46236389246925" lon="6.215711106718161" id="-72908">
		<tag k="bay" v="fjord" />
		<tag k="name" v="Fyksesund" />
		<tag k="natural" v="bay" />
		<tag k="ssr:stedsnr" v="611401" />
	</node>
	<node lat="60.142711107412985" lon="5.901891666970255" id="-72919">
		<tag k="alt_name" v="Sagvik" />
		<tag k="name" v="Sagvika" />
		<tag k="natural" v="bay" />
		<tag k="ssr:stedsnr" v="611635" />
	</node>
	<node lat="60.25747777966879" lon="6.14141666534754" id="-72944">
		<tag k="name" v="Ljonesvågen" />
		<tag k="natural" v="bay" />
		<tag k="ssr:stedsnr" v="612750" />
	</node>
	<node lat="60.252611107716035" lon="6.010791672352351" id="-72984">
		<tag k="name" v="Risanes" />
		<tag k="natural" v="cape" />
		<tag k="ssr:stedsnr" v="651758" />
	</node>
	<node lat="60.229899996678846" lon="6.000486109980817" id="-73004">
		<tag k="name" v="Badnafjera" />
		<tag k="natural" v="beach" />
		<tag k="ssr:stedsnr" v="711667" />
	</node>
	<node lat="60.335008335572404" lon="6.2209805545657835" id="-73005">
		<tag k="fixme" v="consider seamark:type=rock or natural=shoal" />
		<tag k="name" v="Toskjer" />
		<tag k="place" v="islet" />
		<tag k="ssr:stedsnr" v="712067" />
	</node>
	<node lat="60.198302780979745" lon="5.96614166915881" id="-73034">
		<tag k="alt_name" v="Dysvikeneset;Dysvikneset" />
		<tag k="name" v="Dysvikaneset" />
		<tag k="natural" v="cape" />
		<tag k="ssr:stedsnr" v="733467" />
	</node>
	<node lat="60.26837777431563" lon="6.041297227437178" id="-73066">
		<tag k="name" v="Sutarvika" />
		<tag k="natural" v="bay" />
		<tag k="ssr:stedsnr" v="734818" />
	</node>
	<node lat="60.417583335515545" lon="6.402077773263208" id="-73078">
		<tag k="name" v="Teisteberget" />
		<tag k="natural" v="cape" />
		<tag k="ssr:stedsnr" v="772101" />
	</node>
	<node lat="60.306603022762125" lon="6.174339399321824" id="-73091">
		<tag k="name" v="Hetlevik" />
		<tag k="natural" v="bay" />
		<tag k="ssr:stedsnr" v="772901" />
	</node>
	<node lat="60.254211938266906" lon="6.110700543569834" id="-73106">
		<tag k="name" v="Røyrvikavika" />
		<tag k="natural" v="bay" />
		<tag k="ssr:stedsnr" v="772623" />
	</node>
	<node lat="60.36687810553105" lon="6.282911062522431" id="-73125">
		<tag k="alt_name" v="Evja" />
		<tag k="name" v="Evjo" />
		<tag k="natural" v="bay" />
		<tag k="ssr:stedsnr" v="794085" />
	</node>
	<node lat="60.257719440461884" lon="6.163022230484116" id="-73168">
		<tag k="name" v="Gjelet" />
		<tag k="natural" v="bay" />
		<tag k="ssr:stedsnr" v="794762" />
	</node>
	<node lat="60.13485833285502" lon="5.897536105675646" id="-73174">
		<tag k="name" v="Gravdalsvika" />
		<tag k="natural" v="bay" />
		<tag k="ssr:stedsnr" v="813063" />
	</node>
	<node lat="60.382169440901045" lon="6.222577783544986" id="-73179">
		<tag k="name" v="Laupsanes" />
		<tag k="natural" v="cape" />
		<tag k="ssr:stedsnr" v="833096" />
	</node>
	<node lat="60.38282222508339" lon="6.228413895785988" id="-73180">
		<tag k="name" v="Laupsafjøro" />
		<tag k="natural" v="bay" />
		<tag k="ssr:stedsnr" v="833101" />
	</node>
	<node lat="60.44599374269148" lon="6.495186151191777" id="-73199">
		<tag k="alt_name" v="Urdaviki" />
		<tag k="name" v="Uravika" />
		<tag k="natural" v="bay" />
		<tag k="ssr:stedsnr" v="833485" />
	</node>
	<node lat="60.253111107961" lon="6.103147216918471" id="-73209">
		<tag k="fixme" v="consider seamark:type=rock or natural=shoal" />
		<tag k="name" v="Ugletveitskjeret" />
		<tag k="place" v="islet" />
		<tag k="ssr:stedsnr" v="833616" />
	</node>
	<node lat="60.26365833513962" lon="6.015025002247396" id="-73214">
		<tag k="name" v="Leirvika" />
		<tag k="natural" v="bay" />
		<tag k="ssr:stedsnr" v="833660" />
	</node>
	<node lat="60.365534996724094" lon="6.27762211184058" id="-73223">
		<tag k="name" v="Kvamsøy" />
		<tag k="place" v="island" />
		<tag k="ssr:stedsnr" v="855067" />
	</node>
	<node lat="60.4345749993728" lon="6.459661119562673" id="-73230">
		<tag k="name" v="Bersestrondi" />
		<tag k="natural" v="beach" />
		<tag k="ssr:stedsnr" v="855227" />
	</node>
	<node lat="60.42958610814041" lon="6.431338896673975" id="-73237">
		<tag k="alt_name" v="Hamnaneset" />
		<tag k="name" v="Havnaneset" />
		<tag k="natural" v="cape" />
		<tag k="ssr:stedsnr" v="855233" />
	</node>
	<node lat="60.26073610741755" lon="6.1752527794803145" id="-73253">
		<tag k="name" v="Høgebjørgodden" />
		<tag k="natural" v="cape" />
		<tag k="ssr:stedsnr" v="855829" />
	</node>
	<node lat="60.36665710553767" lon="6.181459116585559" id="-73299">
		<tag k="name" v="Kråkeskolten" />
		<tag k="natural" v="cape" />
		<tag k="ssr:stedsnr" v="954017" />
	</node>
	<node lat="60.24408611004854" lon="6.144563888889774" id="-73314">
		<tag k="name" v="Asalvika" />
		<tag k="natural" v="bay" />
		<tag k="ssr:stedsnr" v="954610" />
	</node>
	<node lat="60.2624027756792" lon="6.177836109758868" id="-73318">
		<tag k="name" v="Jevlevik" />
		<tag k="natural" v="bay" />
		<tag k="ssr:stedsnr" v="954915" />
	</node>
</osm>
