<?xml version="1.0" encoding="UTF-8"?>
<osm generator="osmapis" version="0.6">
	<node id="-825656" lat="64.5931027808" lon="11.3803000095">
		<tag k="amenity" v="community_centre" />
		<tag k="name" v="Plassen" />
		<tag k="ssr:stedsnr" v="653565" />
	</node>
	<node id="-825676" lat="64.4694361076" lon="11.4955638883">
		<tag k="name" v="Fredriksbergparken" />
		<tag k="place" v="locality" />
		<tag k="ssr:stedsnr" v="575532" />
	</node>
	<node id="-825710" lat="64.5166602808" lon="11.5417920177">
		<tag k="amenity" v="place_of_worship" />
		<tag k="denomination" v="lutheran" />
		<tag k="name" v="Vemundvik kirke" />
		<tag k="religion" v="christian" />
		<tag k="ssr:stedsnr" v="500166" />
	</node>
	<node id="-826532" lat="64.5109850258" lon="11.2983608514">
		<tag k="amenity" v="place_of_worship" />
		<tag k="denomination" v="lutheran" />
		<tag k="name" v="OtterÃ¸y kirke" />
		<tag k="religion" v="christian" />
		<tag k="ssr:stedsnr" v="803154" />
	</node>
	<node id="-826162" lat="64.4062546915" lon="11.4836396624">
		<tag k="alt_name" v="Klinga" />
		<tag k="amenity" v="place_of_worship" />
		<tag k="denomination" v="lutheran" />
		<tag k="name" v="Klinga kirke" />
		<tag k="religion" v="christian" />
		<tag k="ssr:stedsnr" v="742073" />
	</node>
</osm>
