<?xml version="1.0" encoding="UTF-8"?>
<osm generator="osmapis" version="0.6">
	<node id="-818175" lat="64.5928611079" lon="11.1259833269">
		<tag k="name" v="Stakkmyra" />
		<tag k="natural" v="wetland" />
		<tag k="ssr:stedsnr" v="108538" />
	</node>
	<node id="-820728" lat="64.4088027795" lon="11.443247225">
		<tag k="name" v="Storstaggamyra" />
		<tag k="natural" v="wetland" />
		<tag k="ssr:stedsnr" v="99778" />
	</node>
	<node id="-820726" lat="64.3394749997" lon="11.3928305532">
		<tag k="name" v="Gjermundsmomyra" />
		<tag k="natural" v="wetland" />
		<tag k="ssr:stedsnr" v="655792" />
	</node>
	<node id="-819700" lat="64.3676277813" lon="11.4364944452">
		<tag k="name" v="Storkleivmyra" />
		<tag k="natural" v="wetland" />
		<tag k="ssr:stedsnr" v="863955" />
	</node>
	<node id="-820723" lat="64.340894443" lon="11.3700027854">
		<tag k="name" v="Setermyra" />
		<tag k="natural" v="wetland" />
		<tag k="ssr:stedsnr" v="595741" />
	</node>
	<node id="-820209" lat="64.3361027819" lon="11.3944638972">
		<tag k="name" v="Lonmyra" />
		<tag k="natural" v="wetland" />
		<tag k="ssr:stedsnr" v="716798" />
	</node>
	<node id="-820720" lat="64.5304194485" lon="11.3281833302">
		<tag k="name" v="Stormyra" />
		<tag k="natural" v="wetland" />
		<tag k="ssr:stedsnr" v="333790" />
	</node>
	<node id="-818656" lat="64.391002777" lon="11.4272944482">
		<tag k="name" v="Storbakkmyra" />
		<tag k="natural" v="wetland" />
		<tag k="ssr:stedsnr" v="948783" />
	</node>
	<node id="-819282" lat="64.4220583295" lon="11.4787138889">
		<tag k="name" v="Oldervikmarka" />
		<tag k="place" v="locality" />
		<tag k="ssr:stedsnr" v="196119" />
	</node>
	<node id="-820713" lat="64.5663444481" lon="11.6785055548">
		<tag k="name" v="Strandamarka" />
		<tag k="place" v="locality" />
		<tag k="ssr:stedsnr" v="136022" />
	</node>
	<node id="-819173" lat="64.4251583364" lon="11.4583249937">
		<tag k="name" v="Vikamarka" />
		<tag k="place" v="locality" />
		<tag k="ssr:stedsnr" v="75124" />
	</node>
	<node id="-818148" lat="64.5771027795" lon="11.5282722315">
		<tag k="name" v="Gammelsetermyra" />
		<tag k="natural" v="wetland" />
		<tag k="ssr:stedsnr" v="170692" />
	</node>
	<node id="-819683" lat="64.6047972196" lon="11.6280333234">
		<tag k="name" v="Kløverbergmyra" />
		<tag k="natural" v="wetland" />
		<tag k="ssr:stedsnr" v="593657" />
	</node>
	<node id="-820194" lat="64.4895000018" lon="11.5491194486">
		<tag k="name" v="Fuglmyra" />
		<tag k="natural" v="wetland" />
		<tag k="ssr:stedsnr" v="439224" />
	</node>
	<node id="-820705" lat="64.3745888893" lon="11.4477722233">
		<tag k="name" v="Setermyra" />
		<tag k="natural" v="wetland" />
		<tag k="ssr:stedsnr" v="317950" />
	</node>
	<node id="-820704" lat="64.4838416678" lon="11.4009222268">
		<tag k="name" v="Øykmarka" />
		<tag k="place" v="locality" />
		<tag k="ssr:stedsnr" v="939729" />
	</node>
	<node id="-818655" lat="64.5811583366" lon="11.2597666771">
		<tag k="name" v="Mørkmarka" />
		<tag k="natural" v="wetland" />
		<tag k="ssr:stedsnr" v="48547" />
	</node>
	<node id="-820700" lat="64.2515611097" lon="11.6221027718">
		<tag k="name" v="Dekkelmyra" />
		<tag k="natural" v="wetland" />
		<tag k="ssr:stedsnr" v="560849" />
	</node>
	<node id="-820186" lat="64.5117944441" lon="11.5036944483">
		<tag k="name" v="Liamyra" />
		<tag k="natural" v="wetland" />
		<tag k="ssr:stedsnr" v="635562" />
	</node>
	<node id="-819672" lat="64.5758861066" lon="11.75134723">
		<tag k="name" v="Nåvamyra" />
		<tag k="natural" v="wetland" />
		<tag k="ssr:stedsnr" v="169362" />
	</node>
	<node id="-819671" lat="64.3495138919" lon="11.3017555585">
		<tag k="name" v="Tomasmyra" />
		<tag k="natural" v="wetland" />
		<tag k="ssr:stedsnr" v="75978" />
	</node>
	<node id="-820694" lat="64.5974611133" lon="11.6319333322">
		<tag k="name" v="Stormyra" />
		<tag k="natural" v="wetland" />
		<tag k="ssr:stedsnr" v="621490" />
	</node>
	<node id="-820692" lat="64.4099027796" lon="11.4631444355">
		<tag k="name" v="Dølengmyra" />
		<tag k="natural" v="wetland" />
		<tag k="ssr:stedsnr" v="90796" />
	</node>
	<node id="-818643" lat="64.3586833359" lon="11.5844555459">
		<tag k="name" v="Grytmyra" />
		<tag k="natural" v="wetland" />
		<tag k="ssr:stedsnr" v="897440" />
	</node>
	<node id="-819665" lat="64.5156999981" lon="11.5697388851">
		<tag k="name" v="Alhusmyran" />
		<tag k="natural" v="wetland" />
		<tag k="ssr:stedsnr" v="682169" />
	</node>
	<node id="-820685" lat="64.6148638929" lon="11.0917444358">
		<tag k="name" v="Bjørvika" />
		<tag k="natural" v="wetland" />
		<tag k="ssr:stedsnr" v="169518" />
	</node>
	<node id="-818634" lat="64.3823750034" lon="11.4624944431">
		<tag k="historic" v="shieling" />
		<tag k="name" v="Bergsetran" />
		<tag k="place" v="locality" />
		<tag k="ssr:stedsnr" v="948787" />
	</node>
	<node id="-820680" lat="64.5132361105" lon="11.4925555635">
		<tag k="name" v="Heimyra" />
		<tag k="natural" v="wetland" />
		<tag k="ssr:stedsnr" v="697543" />
	</node>
	<node id="-820677" lat="64.4163527769" lon="11.5048333347">
		<tag k="name" v="Barstadstormyra" />
		<tag k="natural" v="wetland" />
		<tag k="ssr:stedsnr" v="272676" />
	</node>
	<node id="-818618" lat="64.6061805536" lon="11.1517722158">
		<tag k="name" v="Kjarramarka" />
		<tag k="natural" v="wetland" />
		<tag k="ssr:stedsnr" v="230506" />
	</node>
	<node id="-820638" lat="64.6201722202" lon="11.6484444399">
		<tag k="name" v="Vassenget" />
		<tag k="natural" v="wetland" />
		<tag k="ssr:stedsnr" v="412649" />
	</node>
	<node id="-818610" lat="64.5027166701" lon="11.4840472131">
		<tag k="name" v="Setermarka" />
		<tag k="place" v="locality" />
		<tag k="ssr:stedsnr" v="257277" />
	</node>
	<node id="-820657" lat="64.5844583353" lon="11.2621916718">
		<tag k="name" v="Årnesmyra" />
		<tag k="natural" v="wetland" />
		<tag k="ssr:stedsnr" v="473594" />
	</node>
	<node id="-819119" lat="64.5137027787" lon="11.3423444442">
		<tag k="name" v="Brumyra" />
		<tag k="natural" v="wetland" />
		<tag k="ssr:stedsnr" v="716662" />
	</node>
	<node id="-820142" lat="64.5715666676" lon="11.2435777799">
		<tag k="name" v="Flymyra" />
		<tag k="natural" v="wetland" />
		<tag k="ssr:stedsnr" v="864015" />
	</node>
	<node id="-818604" lat="64.58050556" lon="11.72121388">
		<tag k="name" v="Brumoen" />
		<tag k="place" v="locality" />
		<tag k="ssr:stedsnr" v="958375" />
	</node>
	<node id="-820651" lat="64.5513500029" lon="11.5361638917">
		<tag k="name" v="Stormyra" />
		<tag k="natural" v="wetland" />
		<tag k="ssr:stedsnr" v="170669" />
	</node>
	<node id="-820648" lat="64.6405972228" lon="11.1168416656">
		<tag k="name" v="Merradikmyra" />
		<tag k="natural" v="wetland" />
		<tag k="ssr:stedsnr" v="48456" />
	</node>
	<node id="-819111" lat="64.5849472213" lon="11.5329972147">
		<tag k="historic" v="shieling" />
		<tag k="name" v="Blikkengsetran" />
		<tag k="place" v="locality" />
		<tag k="ssr:stedsnr" v="742040" />
	</node>
	<node id="-820131" lat="64.4943055523" lon="11.6107666718">
		<tag k="name" v="Blakmyra" />
		<tag k="natural" v="wetland" />
		<tag k="ssr:stedsnr" v="690362" />
	</node>
	<node id="-820639" lat="64.5412333306" lon="11.5259000062">
		<tag k="name" v="Stormyra" />
		<tag k="natural" v="wetland" />
		<tag k="ssr:stedsnr" v="29554" />
	</node>
	<node id="-818590" lat="64.6016111071" lon="11.6297027767">
		<tag k="name" v="Langmyra" />
		<tag k="natural" v="wetland" />
		<tag k="ssr:stedsnr" v="837708" />
	</node>
	<node id="-820634" lat="64.2965111153" lon="11.4479944529">
		<tag k="name" v="Knutmyra" />
		<tag k="natural" v="wetland" />
		<tag k="ssr:stedsnr" v="534653" />
	</node>
	<node id="-819098" lat="64.5868388929" lon="11.6281444465">
		<tag k="name" v="Stakkmyra" />
		<tag k="natural" v="wetland" />
		<tag k="ssr:stedsnr" v="351643" />
	</node>
	<node id="-820632" lat="64.6648722212" lon="11.7213444411">
		<tag k="name" v="Krokmyra" />
		<tag k="natural" v="wetland" />
		<tag k="ssr:stedsnr" v="109705" />
	</node>
	<node id="-819094" lat="64.4800416665" lon="11.4042583328">
		<tag k="name" v="Geitakløyvmyra" />
		<tag k="natural" v="wetland" />
		<tag k="ssr:stedsnr" v="393523" />
	</node>
	<node id="-819596" lat="64.5211361132" lon="11.2235333431">
		<tag k="name" v="Åsmyra" />
		<tag k="natural" v="wetland" />
		<tag k="ssr:stedsnr" v="804200" />
	</node>
	<node id="-819522" lat="64.5213611113" lon="11.2613416672">
		<tag k="name" v="Otterøymyran" />
		<tag k="natural" v="wetland" />
		<tag k="ssr:stedsnr" v="379166" />
	</node>
	<node id="-818569" lat="64.4163500018" lon="11.467591672">
		<tag k="name" v="Galtfjellmyra" />
		<tag k="natural" v="wetland" />
		<tag k="ssr:stedsnr" v="635706" />
	</node>
	<node id="-819077" lat="64.4658500029" lon="11.2322138965">
		<tag k="name" v="Kålmarkmyra" />
		<tag k="natural" v="wetland" />
		<tag k="ssr:stedsnr" v="74047" />
	</node>
	<node id="-819070" lat="64.5220416702" lon="11.2176972156">
		<tag k="name" v="Skarmyra" />
		<tag k="natural" v="wetland" />
		<tag k="ssr:stedsnr" v="272831" />
	</node>
	<node id="-819581" lat="64.2798750009" lon="11.634691658">
		<tag k="name" v="Skognbakkmyra" />
		<tag k="natural" v="wetland" />
		<tag k="ssr:stedsnr" v="620815" />
	</node>
	<node id="-818554" lat="64.3806611112" lon="11.4540694544">
		<tag k="name" v="Øyamyra" />
		<tag k="natural" v="wetland" />
		<tag k="ssr:stedsnr" v="888687" />
	</node>
	<node id="-820597" lat="64.3900083355" lon="11.3556305547">
		<tag k="name" v="Stormyra" />
		<tag k="natural" v="wetland" />
		<tag k="ssr:stedsnr" v="584734" />
	</node>
	<node id="-820591" lat="64.4135111114" lon="11.4952166607">
		<tag k="name" v="Klingstormyra" />
		<tag k="natural" v="wetland" />
		<tag k="ssr:stedsnr" v="864065" />
	</node>
	<node id="-818538" lat="64.4234194486" lon="11.4670388922">
		<tag k="name" v="Hallarengmyra" />
		<tag k="natural" v="wetland" />
		<tag k="ssr:stedsnr" v="635726" />
	</node>
	<node id="-820455" lat="64.3933333362" lon="11.5241638804">
		<tag k="name" v="Østerenget" />
		<tag k="natural" v="wetland" />
		<tag k="ssr:stedsnr" v="463674" />
	</node>
	<node id="-820201" lat="64.3335138915" lon="11.3997583322">
		<tag k="name" v="Strømfermyra" />
		<tag k="natural" v="wetland" />
		<tag k="ssr:stedsnr" v="716799" />
	</node>
	<node id="-820070" lat="64.6101027784" lon="11.1475944408">
		<tag k="name" v="Raudmyra" />
		<tag k="natural" v="wetland" />
		<tag k="ssr:stedsnr" v="837534" />
	</node>
	<node id="-819556" lat="64.6360972254" lon="11.1010888934">
		<tag k="name" v="Stormyra" />
		<tag k="natural" v="wetland" />
		<tag k="ssr:stedsnr" v="897960" />
	</node>
	<node id="-820064" lat="64.4841416709" lon="11.6103638939">
		<tag k="name" v="Stakkstongmyra" />
		<tag k="natural" v="wetland" />
		<tag k="ssr:stedsnr" v="204278" />
	</node>
	<node id="-820197" lat="64.5901500004" lon="11.6398638786">
		<tag k="alt_name" v="Brannmyra" />
		<tag k="name" v="Kjerringrokkmyra" />
		<tag k="natural" v="wetland" />
		<tag k="ssr:stedsnr" v="269710" />
	</node>
	<node id="-820058" lat="64.5100083347" lon="11.4568444351">
		<tag k="name" v="Torvmyra" />
		<tag k="natural" v="wetland" />
		<tag k="ssr:stedsnr" v="818589" />
	</node>
	<node id="-820054" lat="64.4224777805" lon="11.5018555521">
		<tag k="name" v="Barstadmomyra" />
		<tag k="natural" v="wetland" />
		<tag k="ssr:stedsnr" v="575711" />
	</node>
	<node id="-819024" lat="64.541536113" lon="11.5758472191">
		<tag k="name" v="Kvernmyra" />
		<tag k="natural" v="wetland" />
		<tag k="ssr:stedsnr" v="818426" />
	</node>
	<node id="-818509" lat="64.497736109" lon="11.3917222264">
		<tag k="name" v="Tjønnmyra" />
		<tag k="natural" v="wetland" />
		<tag k="ssr:stedsnr" v="14205" />
	</node>
	<node id="-820556" lat="64.3359944403" lon="11.5577666652">
		<tag k="name" v="Stakkmoen" />
		<tag k="place" v="locality" />
		<tag k="ssr:stedsnr" v="644601" />
	</node>
	<node id="-818503" lat="64.4871194431" lon="11.3169083425">
		<tag k="name" v="Nermarka" />
		<tag k="place" v="locality" />
		<tag k="ssr:stedsnr" v="620186" />
	</node>
	<node id="-820034" lat="64.3501111124" lon="11.394983331">
		<tag k="name" v="Stormyra" />
		<tag k="natural" v="wetland" />
		<tag k="ssr:stedsnr" v="377861" />
	</node>
	<node id="-819007" lat="64.4342666641" lon="11.4706138815">
		<tag k="name" v="Merramyra" />
		<tag k="natural" v="wetland" />
		<tag k="ssr:stedsnr" v="697738" />
	</node>
	<node id="-820021" lat="64.3686305534" lon="11.3418277826">
		<tag k="name" v="Krokmyra" />
		<tag k="natural" v="wetland" />
		<tag k="ssr:stedsnr" v="74939" />
	</node>
	<node id="-818492" lat="64.489574996" lon="11.6265277698">
		<tag k="alt_name" v="Tretvikmyra" />
		<tag k="name" v="Trettvikmyra" />
		<tag k="natural" v="wetland" />
		<tag k="ssr:stedsnr" v="378232" />
	</node>
	<node id="-819003" lat="64.335780553" lon="11.5336249973">
		<tag k="name" v="Kvitsteinmyra" />
		<tag k="natural" v="wetland" />
		<tag k="ssr:stedsnr" v="341628" />
	</node>
	<node id="-818740" lat="64.363569444" lon="11.5000194381">
		<tag k="name" v="Seterengmyra" />
		<tag k="natural" v="wetland" />
		<tag k="ssr:stedsnr" v="109806" />
	</node>
	<node id="-818997" lat="64.479552775" lon="11.5175166672">
		<tag k="name" v="Stormyra" />
		<tag k="natural" v="wetland" />
		<tag k="ssr:stedsnr" v="575528" />
	</node>
	<node id="-819506" lat="64.3847333366" lon="11.3647111112">
		<tag k="name" v="Snorromyra" />
		<tag k="natural" v="wetland" />
		<tag k="ssr:stedsnr" v="74092" />
	</node>
	<node id="-820014" lat="64.5511694403" lon="11.5600749949">
		<tag k="name" v="Helgefjellmyra" />
		<tag k="natural" v="wetland" />
		<tag k="ssr:stedsnr" v="109609" />
	</node>
	<node id="-818989" lat="64.6682805549" lon="11.7555388847">
		<tag k="name" v="Klakkan" />
		<tag k="place" v="locality" />
		<tag k="ssr:stedsnr" v="473743" />
	</node>
	<node id="-820010" lat="64.4020749972" lon="11.5210166763">
		<tag k="name" v="Gåsbumyra" />
		<tag k="natural" v="wetland" />
		<tag k="ssr:stedsnr" v="351369" />
	</node>
	<node id="-818471" lat="64.3748777777" lon="11.4590333328">
		<tag k="name" v="Bjørkamyra" />
		<tag k="natural" v="wetland" />
		<tag k="ssr:stedsnr" v="705755" />
	</node>
	<node id="-820513" lat="64.3849666709" lon="11.3713138996">
		<tag k="name" v="Stråmyra" />
		<tag k="natural" v="wetland" />
		<tag k="ssr:stedsnr" v="463697" />
	</node>
	<node id="-820510" lat="64.4882194448" lon="11.3113777682">
		<tag k="name" v="Stormyra" />
		<tag k="natural" v="wetland" />
		<tag k="ssr:stedsnr" v="230398" />
	</node>
	<node id="-820507" lat="64.5010055543" lon="11.5605555526">
		<tag k="name" v="Jermundsmyra" />
		<tag k="natural" v="wetland" />
		<tag k="ssr:stedsnr" v="150549" />
	</node>
	<node id="-819479" lat="64.4085638847" lon="11.4322833326">
		<tag k="name" v="Sletta" />
		<tag k="natural" v="wetland" />
		<tag k="ssr:stedsnr" v="38788" />
	</node>
	<node id="-818454" lat="64.4029388927" lon="11.4709611038">
		<tag k="name" v="Bognmyra" />
		<tag k="natural" v="wetland" />
		<tag k="ssr:stedsnr" v="635686" />
	</node>
	<node id="-818452" lat="64.5984333357" lon="11.6962222207">
		<tag k="name" v="Lunnamyra" />
		<tag k="natural" v="wetland" />
		<tag k="ssr:stedsnr" v="594272" />
	</node>
	<node id="-820497" lat="64.5276527745" lon="11.1772833312">
		<tag k="name" v="Langkriken" />
		<tag k="natural" v="wetland" />
		<tag k="ssr:stedsnr" v="716476" />
	</node>
	<node id="-819416" lat="64.4133444438" lon="11.4601055647">
		<tag k="name" v="Kvernagjøtin" />
		<tag k="natural" v="wetland" />
		<tag k="ssr:stedsnr" v="757783" />
	</node>
	<node id="-819982" lat="64.5868000017" lon="11.6502111127">
		<tag k="name" v="Rødbergvikmyra" />
		<tag k="natural" v="wetland" />
		<tag k="ssr:stedsnr" v="838677" />
	</node>
	<node id="-819466" lat="64.2664388862" lon="11.6416694502">
		<tag k="name" v="Djupkjeppmyra" />
		<tag k="natural" v="wetland" />
		<tag k="ssr:stedsnr" v="681874" />
	</node>
	<node id="-819976" lat="64.3546916664" lon="11.3610805643">
		<tag k="name" v="Hersemyra" />
		<tag k="natural" v="wetland" />
		<tag k="ssr:stedsnr" v="281555" />
	</node>
	<node id="-818439" lat="64.6052166694" lon="11.1616611163">
		<tag k="name" v="Stråmyra" />
		<tag k="natural" v="wetland" />
		<tag k="ssr:stedsnr" v="290473" />
	</node>
	<node id="-819461" lat="64.5851555521" lon="11.6406138985">
		<tag k="name" v="Dalan" />
		<tag k="place" v="locality" />
		<tag k="ssr:stedsnr" v="959673" />
	</node>
	<node id="-818436" lat="64.2644111131" lon="11.54541944">
		<tag k="name" v="Heibergmyra" />
		<tag k="natural" v="wetland" />
		<tag k="ssr:stedsnr" v="864880" />
	</node>
	<node id="-819455" lat="64.6032944454" lon="11.5351277679">
		<tag k="name" v="Vestgøtmyra" />
		<tag k="natural" v="wetland" />
		<tag k="ssr:stedsnr" v="48666" />
	</node>
	<node id="-819962" lat="64.4665666685" lon="11.2473499999">
		<tag k="name" v="Fjellmarkmyra" />
		<tag k="natural" v="wetland" />
		<tag k="ssr:stedsnr" v="741065" />
	</node>
	<node id="-818937" lat="64.477950002" lon="11.5134583231">
		<tag k="name" v="Prestgårdsmyra" />
		<tag k="natural" v="wetland" />
		<tag k="ssr:stedsnr" v="575538" />
	</node>
	<node id="-818424" lat="64.5954527805" lon="11.7220333389">
		<tag k="name" v="Loddoenget" />
		<tag k="natural" v="wetland" />
		<tag k="ssr:stedsnr" v="837279" />
	</node>
	<node id="-820180" lat="64.5422499979" lon="11.2357611054">
		<tag k="name" v="Høgmyra" />
		<tag k="natural" v="wetland" />
		<tag k="ssr:stedsnr" v="697458" />
	</node>
	<node id="-818729" lat="64.4246361072" lon="11.5207388941">
		<tag k="name" v="Stakkmyra" />
		<tag k="natural" v="wetland" />
		<tag k="ssr:stedsnr" v="715399" />
	</node>
	<node id="-818930" lat="64.5676249966" lon="11.2590166621">
		<tag k="name" v="Ølenvikmyra" />
		<tag k="natural" v="wetland" />
		<tag k="ssr:stedsnr" v="621020" />
	</node>
	<node id="-820179" lat="64.4134499979" lon="11.5308500039">
		<tag k="name" v="Høgmyra" />
		<tag k="natural" v="wetland" />
		<tag k="ssr:stedsnr" v="290345" />
	</node>
	<node id="-820461" lat="64.298197222" lon="11.4703333401">
		<tag k="alt_name" v="Setermyran" />
		<tag k="name" v="Nordre Dalmyra" />
		<tag k="natural" v="wetland" />
		<tag k="ssr:stedsnr" v="924900" />
	</node>
	<node id="-820460" lat="64.3594777761" lon="11.335952769">
		<tag k="name" v="Brannhaugmyra" />
		<tag k="natural" v="wetland" />
		<tag k="ssr:stedsnr" v="74984" />
	</node>
	<node id="-818983" lat="64.3478722203" lon="11.4773694387">
		<tag k="name" v="Rundkollmyra" />
		<tag k="natural" v="wetland" />
		<tag k="ssr:stedsnr" v="412797" />
	</node>
	<node id="-818407" lat="64.6089444481" lon="11.5594083287">
		<tag k="name" v="Kristoffervikmyra" />
		<tag k="natural" v="wetland" />
		<tag k="ssr:stedsnr" v="534697" />
	</node>
	<node id="-819975" lat="64.5049333294" lon="11.5857083321">
		<tag k="name" v="Vemundvikmyran" />
		<tag k="natural" v="wetland" />
		<tag k="ssr:stedsnr" v="257143" />
	</node>
	<node id="-820451" lat="64.5681853653" lon="11.6384221366">
		<tag k="name" v="Kvitura" />
		<tag k="natural" v="scree" />
		<tag k="ssr:stedsnr" v="560013" />
	</node>
	<node id="-819578" lat="64.3484277789" lon="11.5937166584">
		<tag k="name" v="Bjønnengmyra" />
		<tag k="natural" v="wetland" />
		<tag k="ssr:stedsnr" v="837458" />
	</node>
	<node id="-820442" lat="64.3678527818" lon="11.4438722214">
		<tag k="name" v="Kvennamyra" />
		<tag k="natural" v="wetland" />
		<tag k="ssr:stedsnr" v="948634" />
	</node>
	<node id="-819928" lat="64.3530888852" lon="11.5444777776">
		<tag k="name" v="Mølnhattmyra" />
		<tag k="natural" v="wetland" />
		<tag k="ssr:stedsnr" v="499992" />
	</node>
	<node id="-820145" lat="64.4403805593" lon="11.4906166587">
		<tag k="name" v="Prestvikmyra" />
		<tag k="natural" v="wetland" />
		<tag k="ssr:stedsnr" v="317084" />
	</node>
	<node id="-819410" lat="64.6012388913" lon="11.7431972197">
		<tag k="name" v="Langmyra" />
		<tag k="natural" v="wetland" />
		<tag k="ssr:stedsnr" v="716291" />
	</node>
	<node id="-819409" lat="64.593716671" lon="11.7398472317">
		<tag k="name" v="Fossvikmarka" />
		<tag k="place" v="locality" />
		<tag k="ssr:stedsnr" v="776254" />
	</node>
	<node id="-820431" lat="64.5237972226" lon="11.4390972134">
		<tag k="historic" v="shieling" />
		<tag k="name" v="Kroknessetra" />
		<tag k="place" v="locality" />
		<tag k="ssr:stedsnr" v="586194" />
	</node>
	<node id="-820343" lat="64.6155027774" lon="11.0657805602">
		<tag k="alt_name" v="Fossan" />
		<tag k="name" v="Fossmyra" />
		<tag k="natural" v="wetland" />
		<tag k="ssr:stedsnr" v="75523" />
	</node>
	<node id="-819910" lat="64.5573083307" lon="11.4872000008">
		<tag k="name" v="Valmarka" />
		<tag k="place" v="locality" />
		<tag k="ssr:stedsnr" v="378099" />
	</node>
	<node id="-820001" lat="64.3318000011" lon="11.5569111126">
		<tag k="name" v="Stakkmyra" />
		<tag k="natural" v="wetland" />
		<tag k="ssr:stedsnr" v="402592" />
	</node>
	<node id="-819906" lat="64.5908972265" lon="11.6115944463">
		<tag k="name" v="Moen" />
		<tag k="place" v="locality" />
		<tag k="ssr:stedsnr" v="206367" />
	</node>
	<node id="-818367" lat="64.3836416709" lon="11.5220222128">
		<tag k="landuse" v="meadow" />
		<tag k="name" v="Hølneset" />
		<tag k="ssr:stedsnr" v="281723" />
	</node>
	<node id="-819573" lat="64.4791694407" lon="11.4101638844">
		<tag k="name" v="Krokvikmoan" />
		<tag k="place" v="locality" />
		<tag k="ssr:stedsnr" v="454531" />
	</node>
	<node id="-819658" lat="64.5215166656" lon="11.29128611">
		<tag k="name" v="Salamonmyran" />
		<tag k="natural" v="wetland" />
		<tag k="ssr:stedsnr" v="136187" />
	</node>
	<node id="-820408" lat="64.3723861066" lon="11.4514250065">
		<tag k="name" v="Stordalsmyra" />
		<tag k="natural" v="wetland" />
		<tag k="ssr:stedsnr" v="351840" />
	</node>
	<node id="-818357" lat="64.3836611099" lon="11.5148666589">
		<tag k="name" v="Stråmyra" />
		<tag k="natural" v="wetland" />
		<tag k="ssr:stedsnr" v="281722" />
	</node>
	<node id="-820401" lat="64.3501694417" lon="11.3216444345">
		<tag k="alt_name" v="Østermyran" />
		<tag k="name" v="Austermyran" />
		<tag k="natural" v="wetland" />
		<tag k="ssr:stedsnr" v="681959" />
	</node>
	<node id="-819376" lat="64.4843166659" lon="11.4868277774">
		<tag k="alt_name" v="Stormyra" />
		<tag k="name" v="Torvmyra" />
		<tag k="natural" v="wetland" />
		<tag k="ssr:stedsnr" v="741258" />
	</node>
	<node id="-819206" lat="64.3471999974" lon="11.482172215">
		<tag k="name" v="Setermyra" />
		<tag k="natural" v="wetland" />
		<tag k="ssr:stedsnr" v="170844" />
	</node>
	<node id="-818862" lat="64.5791333299" lon="11.4106638782">
		<tag k="name" v="Engan" />
		<tag k="natural" v="wetland" />
		<tag k="ssr:stedsnr" v="48577" />
	</node>
	<node id="-818858" lat="64.4685694412" lon="11.2658472245">
		<tag k="name" v="Finnkolmyra" />
		<tag k="natural" v="wetland" />
		<tag k="ssr:stedsnr" v="593125" />
	</node>
	<node id="-819367" lat="64.394930556" lon="11.533700009">
		<tag k="name" v="Vakkerglennan" />
		<tag k="place" v="locality" />
		<tag k="ssr:stedsnr" v="766718" />
	</node>
	<node id="-818342" lat="64.4954083311" lon="11.4871944375">
		<tag k="name" v="Setermarka" />
		<tag k="place" v="locality" />
		<tag k="ssr:stedsnr" v="742229" />
	</node>
	<node id="-818340" lat="64.520808334" lon="11.5499166568">
		<tag k="name" v="Torvmyra" />
		<tag k="natural" v="wetland" />
		<tag k="ssr:stedsnr" v="90407" />
	</node>
	<node id="-819874" lat="64.4772833352" lon="11.5497944513">
		<tag k="name" v="Husmyra" />
		<tag k="natural" v="wetland" />
		<tag k="ssr:stedsnr" v="620040" />
	</node>
	<node id="-819361" lat="64.3314416625" lon="11.4661222303">
		<tag k="name" v="Sørholmyra" />
		<tag k="natural" v="wetland" />
		<tag k="ssr:stedsnr" v="837829" />
	</node>
	<node id="-820380" lat="64.5669305553" lon="11.5394055634">
		<tag k="name" v="Blikkengura" />
		<tag k="natural" v="scree" />
		<tag k="ssr:stedsnr" v="412617" />
	</node>
	<node id="-819355" lat="64.375224996" lon="11.4488472222">
		<tag k="name" v="Torvmyra" />
		<tag k="natural" v="wetland" />
		<tag k="ssr:stedsnr" v="159764" />
	</node>
	<node id="-819863" lat="64.4790750009" lon="11.5814333246">
		<tag k="name" v="Urda" />
		<tag k="natural" v="scree" />
		<tag k="ssr:stedsnr" v="499161" />
	</node>
	<node id="-818326" lat="64.532324999" lon="11.4032194531">
		<tag k="historic" v="shieling" />
		<tag k="name" v="Kjerstisetra" />
		<tag k="place" v="locality" />
		<tag k="ssr:stedsnr" v="525211" />
	</node>
	<node id="-818824" lat="64.2748527806" lon="11.5815055602">
		<tag k="name" v="Vestersetermyran" />
		<tag k="natural" v="wetland" />
		<tag k="ssr:stedsnr" v="317761" />
	</node>
	<node id="-819844" lat="64.5340944456" lon="11.2645638924">
		<tag k="name" v="Osamyra" />
		<tag k="natural" v="wetland" />
		<tag k="ssr:stedsnr" v="136202" />
	</node>
	<node id="-818306" lat="64.5391916702" lon="11.262441659">
		<tag k="name" v="Gardsmyra" />
		<tag k="natural" v="wetland" />
		<tag k="ssr:stedsnr" v="864076" />
	</node>
	<node id="-818817" lat="64.3205861089" lon="11.3952944351">
		<tag k="fixme" v="multiple name tags, choose one and add the other to alt_name" />
		<tag k="name" v="Engesmyra;Stemningsmyran" />
		<tag k="natural" v="wetland" />
		<tag k="ssr:stedsnr" v="196882" />
	</node>
	<node id="-818301" lat="64.5130472178" lon="11.1862833359">
		<tag k="name" v="Kjerringmarka" />
		<tag k="place" v="locality" />
		<tag k="ssr:stedsnr" v="515875" />
	</node>
	<node id="-819324" lat="64.5226527798" lon="11.212919445">
		<tag k="name" v="Gamlandsmyra" />
		<tag k="natural" v="wetland" />
		<tag k="ssr:stedsnr" v="136697" />
	</node>
	<node id="-818295" lat="64.5378694468" lon="11.2474000081">
		<tag k="name" v="Liamyra" />
		<tag k="natural" v="wetland" />
		<tag k="ssr:stedsnr" v="500092" />
	</node>
	<node id="-819561" lat="64.3701500043" lon="11.4429555567">
		<tag k="name" v="Raudmyra" />
		<tag k="natural" v="wetland" />
		<tag k="ssr:stedsnr" v="584551" />
	</node>
	<node id="-818802" lat="64.4201138869" lon="11.4038611167">
		<tag k="name" v="Danmark" />
		<tag k="natural" v="wetland" />
		<tag k="ssr:stedsnr" v="948818" />
	</node>
	<node id="-819560" lat="64.3292444404" lon="11.3243638907">
		<tag k="name" v="Aursundlimyran" />
		<tag k="natural" v="wetland" />
		<tag k="ssr:stedsnr" v="14856" />
	</node>
	<node id="-818795" lat="64.4269527806" lon="11.3985583298">
		<tag k="name" v="Stormyra" />
		<tag k="natural" v="wetland" />
		<tag k="ssr:stedsnr" v="644775" />
	</node>
	<node id="-818875" lat="64.5618759622" lon="11.4124322834">
		<tag k="historic" v="shieling" />
		<tag k="name" v="Beisvågsetran" />
		<tag k="place" v="locality" />
		<tag k="ssr:stedsnr" v="499080" />
	</node>
	<node id="-818784" lat="64.4158361133" lon="11.4324666726">
		<tag k="name" v="Selnesmyra" />
		<tag k="natural" v="wetland" />
		<tag k="ssr:stedsnr" v="281785" />
	</node>
	<node id="-820319" lat="64.340797219" lon="11.5322416727">
		<tag k="name" v="Moamyra" />
		<tag k="natural" v="wetland" />
		<tag k="ssr:stedsnr" v="644592" />
	</node>
	<node id="-818777" lat="64.4082583335" lon="11.4079388831">
		<tag k="name" v="Seksomyra" />
		<tag k="natural" v="wetland" />
		<tag k="ssr:stedsnr" v="281783" />
	</node>
	<node id="-818770" lat="64.2898000035" lon="11.6984416736">
		<tag k="name" v="Spillumsurda" />
		<tag k="natural" v="scree" />
		<tag k="ssr:stedsnr" v="135823" />
	</node>
	<node id="-820304" lat="64.3738749964" lon="11.4413027843">
		<tag k="name" v="Bjørkamyra" />
		<tag k="natural" v="wetland" />
		<tag k="ssr:stedsnr" v="948613" />
	</node>
	<node id="-820300" lat="64.5186444439" lon="11.1824805653">
		<tag k="alt_name" v="Flymyrin" />
		<tag k="name" v="Flymyran" />
		<tag k="natural" v="wetland" />
		<tag k="ssr:stedsnr" v="621747" />
	</node>
	<node id="-818763" lat="64.3535916645" lon="11.4084888809">
		<tag k="name" v="Storbakkmyra" />
		<tag k="natural" v="wetland" />
		<tag k="ssr:stedsnr" v="523644" />
	</node>
	<node id="-819274" lat="64.5438388906" lon="11.2119444359">
		<tag k="name" v="Koven" />
		<tag k="natural" v="wetland" />
		<tag k="ssr:stedsnr" v="454472" />
	</node>
	<node id="-818785" lat="64.5937305593" lon="11.7600194546">
		<tag k="name" v="Avløftmarka" />
		<tag k="place" v="locality" />
		<tag k="ssr:stedsnr" v="291299" />
	</node>
	<node id="-818753" lat="64.4271888928" lon="11.5282444536">
		<tag k="name" v="Stråmyra" />
		<tag k="natural" v="wetland" />
		<tag k="ssr:stedsnr" v="47375" />
	</node>
	<node id="-820284" lat="64.3546277814" lon="11.5203555587">
		<tag k="name" v="Langmyra" />
		<tag k="natural" v="wetland" />
		<tag k="ssr:stedsnr" v="559995" />
	</node>
	<node id="-819168" lat="64.5750916655" lon="11.7646111052">
		<tag k="name" v="Fuglmyra" />
		<tag k="natural" v="wetland" />
		<tag k="ssr:stedsnr" v="594378" />
	</node>
	<node id="-818744" lat="64.6369305545" lon="11.1253833422">
		<tag k="name" v="Harramyra" />
		<tag k="natural" v="wetland" />
		<tag k="ssr:stedsnr" v="532388" />
	</node>
	<node id="-818228" lat="64.6202944421" lon="11.621149995">
		<tag k="name" v="Ganesvikmyra" />
		<tag k="natural" v="wetland" />
		<tag k="ssr:stedsnr" v="654667" />
	</node>
	<node id="-819635" lat="64.6084444413" lon="11.647544441">
		<tag k="name" v="Storenget" />
		<tag k="natural" v="wetland" />
		<tag k="ssr:stedsnr" v="351719" />
	</node>
	<node id="-819247" lat="64.490450004" lon="11.3697555557">
		<tag k="name" v="Tjurublakkmyra" />
		<tag k="natural" v="wetland" />
		<tag k="ssr:stedsnr" v="958079" />
	</node>
	<node id="-818733" lat="64.5580555534" lon="11.3961777873">
		<tag k="name" v="Hestmarka" />
		<tag k="place" v="locality" />
		<tag k="ssr:stedsnr" v="898616" />
	</node>
	<node id="-819754" lat="64.3981499998" lon="11.5410972143">
		<tag k="name" v="Stortjønnmyra" />
		<tag k="natural" v="wetland" />
		<tag k="ssr:stedsnr" v="108372" />
	</node>
	<node id="-820487" lat="64.3688027742" lon="11.4820444534">
		<tag k="name" v="Per - Polsamyran" />
		<tag k="natural" v="wetland" />
		<tag k="ssr:stedsnr" v="48825" />
	</node>
	<node id="-819730" lat="64.4075805597" lon="11.5198500056">
		<tag k="name" v="Svemyra" />
		<tag k="natural" v="wetland" />
		<tag k="ssr:stedsnr" v="169370" />
	</node>
	<node id="-818353" lat="64.3508305516" lon="11.3650194346">
		<tag k="name" v="Sagtjønnmyra" />
		<tag k="natural" v="wetland" />
		<tag k="ssr:stedsnr" v="292761" />
	</node>
	<node id="-818724" lat="64.4744111099" lon="11.5906611063">
		<tag k="name" v="Storøra" />
		<tag k="place" v="locality" />
		<tag k="ssr:stedsnr" v="83343" />
	</node>
	<node id="-818694" lat="64.4036861118" lon="11.4235388926">
		<tag k="name" v="Stormyra" />
		<tag k="natural" v="wetland" />
		<tag k="ssr:stedsnr" v="644760" />
	</node>
	<node id="-818722" lat="64.377533336" lon="11.4382583292">
		<tag k="name" v="Bognmyra" />
		<tag k="natural" v="wetland" />
		<tag k="ssr:stedsnr" v="644736" />
	</node>
	<node id="-819745" lat="64.363713885" lon="11.3428805479">
		<tag k="name" v="Stormyra" />
		<tag k="natural" v="wetland" />
		<tag k="ssr:stedsnr" v="196986" />
	</node>
	<node id="-819743" lat="64.399366667" lon="11.3054666641">
		<tag k="name" v="Tjønnmyra" />
		<tag k="natural" v="wetland" />
		<tag k="ssr:stedsnr" v="898766" />
	</node>
	<node id="-818205" lat="64.503163891" lon="11.5121444366">
		<tag k="name" v="Flymyra" />
		<tag k="natural" v="wetland" />
		<tag k="ssr:stedsnr" v="318245" />
	</node>
	<node id="-819739" lat="64.2939333337" lon="11.4735583375">
		<tag k="name" v="Storbakkmyra" />
		<tag k="natural" v="wetland" />
		<tag k="ssr:stedsnr" v="655648" />
	</node>
	<node id="-820248" lat="64.5953222207" lon="11.7095611123">
		<tag k="name" v="Myran" />
		<tag k="natural" v="wetland" />
		<tag k="ssr:stedsnr" v="109261" />
	</node>
	<node id="-819218" lat="64.5992166706" lon="11.7120638795">
		<tag k="name" v="Jomyra" />
		<tag k="natural" v="wetland" />
		<tag k="ssr:stedsnr" v="48242" />
	</node>
	<node id="-820244" lat="64.5376638905" lon="11.2522416571">
		<tag k="name" v="Kringelmyra" />
		<tag k="natural" v="wetland" />
		<tag k="ssr:stedsnr" v="90729" />
	</node>
	<node id="-819610" lat="64.4154222242" lon="11.4555361116">
		<tag k="name" v="Stakkholet" />
		<tag k="natural" v="wetland" />
		<tag k="ssr:stedsnr" v="940814" />
	</node>
	<node id="-818194" lat="64.6174166697" lon="11.6715055516">
		<tag k="landuse" v="meadow" />
		<tag k="name" v="Seterenget" />
		<tag k="ssr:stedsnr" v="621519" />
	</node>
	<node id="-818192" lat="64.5224472235" lon="11.3098861025">
		<tag k="name" v="Skiftesmyra" />
		<tag k="natural" v="wetland" />
		<tag k="ssr:stedsnr" v="393789" />
	</node>
	<node id="-818188" lat="64.4203750011" lon="11.472911104">
		<tag k="name" v="Hallarenget" />
		<tag k="place" v="locality" />
		<tag k="ssr:stedsnr" v="272690" />
	</node>
	<node id="-818184" lat="64.408627776" lon="11.4881027786">
		<tag k="name" v="Raudmyra" />
		<tag k="natural" v="wetland" />
		<tag k="ssr:stedsnr" v="818734" />
	</node>
	<node id="-820140" lat="64.6553277808" lon="11.7267083276">
		<tag k="name" v="Uggsetet" />
		<tag k="place" v="locality" />
		<tag k="ssr:stedsnr" v="655732" />
	</node>
	<node id="-818182" lat="64.3509138888" lon="11.32743611">
		<tag k="name" v="Storolsengmyra" />
		<tag k="natural" v="wetland" />
		<tag k="ssr:stedsnr" v="317963" />
	</node>
	<node id="-819542" lat="64.4075805558" lon="11.4154583419">
		<tag k="name" v="Selneslangmyra" />
		<tag k="natural" v="wetland" />
		<tag k="ssr:stedsnr" v="523796" />
	</node>
	<node id="-818177" lat="64.5041833299" lon="11.4751694362">
		<tag k="name" v="Langmyra" />
		<tag k="natural" v="wetland" />
		<tag k="ssr:stedsnr" v="29576" />
	</node>
</osm>
