<?xml version="1.0" encoding="UTF-8"?>
<osm generator="osmapis" version="0.6">
	<node id="-819197" lat="64.5464499962" lon="11.585116671">
		<tag k="alt_name" v="Lykkjmoen" />
		<tag k="name" v="Granly" />
		<tag k="place" v="farm" />
		<tag k="ssr:stedsnr" v="682099" />
	</node>
	<node id="-819196" lat="64.4868611122" lon="11.2582805607">
		<tag k="name" v="Ørnskaget" />
		<tag k="place" v="locality" />
		<tag k="ssr:stedsnr" v="741240" />
	</node>
	<node id="-819186" lat="64.581119446" lon="11.4775250035">
		<tag k="name" v="Bausneset" />
		<tag k="place" v="farm" />
		<tag k="ssr:stedsnr" v="621048" />
	</node>
	<node id="-819179" lat="64.5377805999" lon="11.3202269744">
		<tag k="fixme" v="consider place=hamlet" />
		<tag k="name" v="Husvika" />
		<tag k="place" v="farm" />
		<tag k="ssr:stedsnr" v="621065" />
	</node>
	<node id="-819175" lat="64.4683583369" lon="11.5988361168">
		<tag k="name" v="Strandmoen" />
		<tag k="place" v="farm" />
		<tag k="ssr:stedsnr" v="447308" />
	</node>
	<node id="-819172" lat="64.4854111129" lon="11.3463833414">
		<tag k="name" v="Sandvika" />
		<tag k="place" v="farm" />
		<tag k="ssr:stedsnr" v="13201" />
	</node>
	<node id="-819171" lat="64.5511999995" lon="11.1467333422">
		<tag k="name" v="Djuphøljan" />
		<tag k="place" v="locality" />
		<tag k="ssr:stedsnr" v="439636" />
	</node>
	<node id="-819170" lat="64.5738290986" lon="11.1636827983">
		<tag k="name" v="Skorstad" />
		<tag k="place" v="farm" />
		<tag k="ssr:stedsnr" v="49020" />
	</node>
	<node id="-818512" lat="64.5372444431" lon="11.3237500043">
		<tag k="name" v="Husvika" />
		<tag k="place" v="farm" />
		<tag k="ssr:stedsnr" v="818789" />
	</node>
	<node id="-819161" lat="64.5605749999" lon="11.2743000034">
		<tag k="name" v="Svemoen" />
		<tag k="place" v="farm" />
		<tag k="ssr:stedsnr" v="379132" />
	</node>
	<node id="-819146" lat="64.474058329" lon="11.4638611188">
		<tag k="name" v="Gullvikmoen" />
		<tag k="place" v="quarter" />
		<tag k="ssr:stedsnr" v="90551" />
	</node>
	<node id="-819143" lat="64.5493305526" lon="11.4662333392">
		<tag k="fixme" v="consider place=hamlet" />
		<tag k="name" v="Spjutnes" />
		<tag k="place" v="farm" />
		<tag k="ssr:stedsnr" v="803086" />
	</node>
	<node id="-819122" lat="64.5238805567" lon="11.2757166674">
		<tag k="name" v="Nordli" />
		<tag k="place" v="farm" />
		<tag k="ssr:stedsnr" v="500190" />
	</node>
	<node id="-819120" lat="64.580305558" lon="11.2638694485">
		<tag k="alt_name" v="Skogly" />
		<tag k="name" v="Skogli" />
		<tag k="place" v="farm" />
		<tag k="ssr:stedsnr" v="378030" />
	</node>
	<node id="-819092" lat="64.53963889" lon="11.5438916567">
		<tag k="alt_name" v="Hjelmset" />
		<tag k="name" v="Hjelmsete" />
		<tag k="place" v="farm" />
		<tag k="ssr:stedsnr" v="318070" />
	</node>
	<node id="-819091" lat="64.6208042452" lon="11.1433811933">
		<tag k="fixme" v="consider place=hamlet" />
		<tag k="name" v="Finnanger" />
		<tag k="place" v="farm" />
		<tag k="ssr:stedsnr" v="971450" />
	</node>
	<node id="-819088" lat="64.4714111092" lon="11.5591500021">
		<tag k="fixme" v="consider place=hamlet" />
		<tag k="name" v="Høknes" />
		<tag k="place" v="farm" />
		<tag k="ssr:stedsnr" v="402005" />
	</node>
	<node id="-819075" lat="64.5165027786" lon="11.2471444354">
		<tag k="name" v="Gangarvika" />
		<tag k="place" v="farm" />
		<tag k="ssr:stedsnr" v="560142" />
	</node>
	<node id="-818837" lat="64.3447924248" lon="11.539564889">
		<tag k="fixme" v="consider place=hamlet" />
		<tag k="name" v="Berge" />
		<tag k="place" v="farm" />
		<tag k="ssr:stedsnr" v="560927" />
	</node>
	<node id="-819068" lat="64.5735583379" lon="11.5703888854">
		<tag k="name" v="Haltneset" />
		<tag k="place" v="farm" />
		<tag k="ssr:stedsnr" v="378018" />
	</node>
	<node id="-819064" lat="64.5410296667" lon="11.4992424407">
		<tag k="name" v="Sauvika" />
		<tag k="place" v="farm" />
		<tag k="ssr:stedsnr" v="803060" />
	</node>
	<node id="-819060" lat="64.5170194427" lon="11.2607138784">
		<tag k="name" v="Otterøystranda" />
		<tag k="place" v="farm" />
		<tag k="ssr:stedsnr" v="560144" />
	</node>
	<node id="-819058" lat="64.4101527816" lon="11.4742166735">
		<tag k="name" v="Klingenberg" />
		<tag k="place" v="farm" />
		<tag k="ssr:stedsnr" v="29717" />
	</node>
	<node id="-819057" lat="64.5872694487" lon="11.3746888936">
		<tag k="name" v="Lyngholmskjæret" />
		<tag k="place" v="isolated_dwelling" />
		<tag k="ssr:stedsnr" v="230572" />
	</node>
	<node id="-818493" lat="64.2407555559" lon="11.5811305619">
		<tag k="name" v="Gjerstadsetran" />
		<tag k="place" v="locality" />
		<tag k="ssr:stedsnr" v="499857" />
	</node>
	<node id="-819044" lat="64.4701305525" lon="11.5096388902">
		<tag k="amenity" v="school" />
		<tag k="name" v="Namsos ungdomsskole" />
		<tag k="ssr:stedsnr" v="119206" />
	</node>
	<node id="-819041" lat="64.4884277757" lon="11.4098972179">
		<tag k="name" v="Østgård" />
		<tag k="place" v="farm" />
		<tag k="ssr:stedsnr" v="697717" />
	</node>
	<node id="-819023" lat="64.5770083297" lon="11.3882555625">
		<tag k="name" v="Frøvarpsetran" />
		<tag k="place" v="locality" />
		<tag k="ssr:stedsnr" v="621033" />
	</node>
	<node id="-819021" lat="64.5603694464" lon="11.3707444446">
		<tag k="fixme" v="consider place=hamlet" />
		<tag k="name" v="Kaldklauva" />
		<tag k="place" v="farm" />
		<tag k="ssr:stedsnr" v="440153" />
	</node>
	<node id="-819019" lat="64.3694662238" lon="11.3641547863">
		<tag k="name" v="Fjær" />
		<tag k="place" v="farm" />
		<tag k="ssr:stedsnr" v="220606" />
	</node>
	<node id="-819006" lat="64.528602777" lon="11.6318888856">
		<tag k="name" v="Løddingsetran" />
		<tag k="place" v="locality" />
		<tag k="ssr:stedsnr" v="76186" />
	</node>
	<node id="-819002" lat="64.4580194467" lon="11.5357944544">
		<tag k="name" v="Spillumstranda" />
		<tag k="place" v="quarter" />
		<tag k="ssr:stedsnr" v="385548" />
	</node>
	<node id="-818994" lat="64.5626666654" lon="11.3868944545">
		<tag k="name" v="Kaldklauvsetran" />
		<tag k="place" v="locality" />
		<tag k="ssr:stedsnr" v="925013" />
	</node>
	<node id="-820531" lat="64.5791250011" lon="11.1834166586">
		<tag k="name" v="Myra" />
		<tag k="place" v="farm" />
		<tag k="ssr:stedsnr" v="13597" />
	</node>
	<node id="-818482" lat="64.5040527757" lon="11.5958333395">
		<tag k="alt_name" v="Hakkmo" />
		<tag k="name" v="Hakkmoen" />
		<tag k="place" v="locality" />
		<tag k="ssr:stedsnr" v="257268" />
	</node>
	<node id="-818981" lat="64.3337249956" lon="11.3945111106">
		<tag k="name" v="Gjermundmoen" />
		<tag k="place" v="isolated_dwelling" />
		<tag k="ssr:stedsnr" v="534800" />
	</node>
	<node id="-818977" lat="64.5308583312" lon="11.31396389">
		<tag k="name" v="Åsen" />
		<tag k="place" v="farm" />
		<tag k="ssr:stedsnr" v="864161" />
	</node>
	<node id="-818975" lat="64.3997749994" lon="11.415750009">
		<tag k="name" v="Fjellstad" />
		<tag k="place" v="farm" />
		<tag k="ssr:stedsnr" v="196085" />
	</node>
	<node id="-818972" lat="64.5781500041" lon="11.2058333241">
		<tag k="name" v="Hallaren" />
		<tag k="place" v="farm" />
		<tag k="ssr:stedsnr" v="195584" />
	</node>
	<node id="-818936" lat="64.4427111108" lon="11.4904277791">
		<tag k="name" v="Storvika" />
		<tag k="place" v="farm" />
		<tag k="ssr:stedsnr" v="514704" />
	</node>
	<node id="-818923" lat="64.6345972182" lon="11.0884805643">
		<tag k="name" v="Grova" />
		<tag k="place" v="farm" />
		<tag k="ssr:stedsnr" v="897459" />
	</node>
	<node id="-818919" lat="64.5089694458" lon="11.4022750051">
		<tag k="historic" v="shieling" />
		<tag k="name" v="Øversetran" />
		<tag k="place" v="locality" />
		<tag k="ssr:stedsnr" v="898645" />
	</node>
	<node id="-818911" lat="64.5778529689" lon="11.7071209256">
		<tag k="fixme" v="consider place=hamlet" />
		<tag k="name" v="Vetterhus" />
		<tag k="place" v="farm" />
		<tag k="ssr:stedsnr" v="257039" />
	</node>
	<node id="-818891" lat="64.5737666641" lon="11.2382444426">
		<tag k="name" v="Åsheim" />
		<tag k="place" v="farm" />
		<tag k="ssr:stedsnr" v="803039" />
	</node>
	<node id="-818888" lat="64.5160555578" lon="11.2651138809">
		<tag k="name" v="Sandmoen" />
		<tag k="place" v="farm" />
		<tag k="ssr:stedsnr" v="424278" />
	</node>
	<node id="-818879" lat="64.4900527763" lon="11.4537250055">
		<tag k="name" v="Hals" />
		<tag k="place" v="farm" />
		<tag k="ssr:stedsnr" v="802246" />
	</node>
	<node id="-818872" lat="64.4414944437" lon="11.5254055595">
		<tag k="name" v="Lønset" />
		<tag k="place" v="farm" />
		<tag k="ssr:stedsnr" v="575523" />
	</node>
	<node id="-818851" lat="64.4542777789" lon="11.4560694371">
		<tag k="name" v="Grautvika" />
		<tag k="place" v="hamlet" />
		<tag k="ssr:stedsnr" v="438003" />
	</node>
	<node id="-818847" lat="64.5916583354" lon="11.7253305605">
		<tag k="name" v="Fossvika" />
		<tag k="place" v="farm" />
		<tag k="ssr:stedsnr" v="925823" />
	</node>
	<node id="-818845" lat="64.5888870535" lon="11.3766919743">
		<tag k="alt_name" v="Strømmen" />
		<tag k="fixme" v="consider place=hamlet" />
		<tag k="name" v="Straumen" />
		<tag k="place" v="farm" />
		<tag k="ssr:stedsnr" v="803050" />
	</node>
	<node id="-818839" lat="64.5695027774" lon="11.5318305604">
		<tag k="name" v="Bårdengstranda" />
		<tag k="place" v="farm" />
		<tag k="ssr:stedsnr" v="257027" />
	</node>
	<node id="-820505" lat="64.5025249972" lon="11.4992055635">
		<tag k="name" v="Finnhustomta" />
		<tag k="place" v="locality" />
		<tag k="ssr:stedsnr" v="29528" />
	</node>
	<node id="-818833" lat="64.3063944446" lon="11.3878722211">
		<tag k="alt_name" v="Skistakkelva" />
		<tag k="name" v="Skistavkleiva" />
		<tag k="place" v="locality" />
		<tag k="ssr:stedsnr" v="863892" />
	</node>
	<node id="-818832" lat="64.5127388847" lon="11.5134638848">
		<tag k="name" v="Bekken" />
		<tag k="place" v="farm" />
		<tag k="ssr:stedsnr" v="560119" />
	</node>
	<node id="-818816" lat="64.5897806494" lon="11.2334036696">
		<tag k="fixme" v="consider place=hamlet" />
		<tag k="name" v="Alte" />
		<tag k="place" v="farm" />
		<tag k="ssr:stedsnr" v="803047" />
	</node>
	<node id="-818815" lat="64.5921888875" lon="11.7221861211">
		<tag k="name" v="Kårmoen" />
		<tag k="place" v="isolated_dwelling" />
		<tag k="ssr:stedsnr" v="898270" />
	</node>
	<node id="-818813" lat="64.536816214" lon="11.415829499">
		<tag k="fixme" v="consider place=hamlet" />
		<tag k="name" v="Survika" />
		<tag k="place" v="farm" />
		<tag k="ssr:stedsnr" v="682081" />
	</node>
	<node id="-818812" lat="64.5123277775" lon="11.510111101">
		<tag k="alt_name" v="Moen" />
		<tag k="name" v="Ramsvikmoen" />
		<tag k="place" v="farm" />
		<tag k="ssr:stedsnr" v="560122" />
	</node>
	<node id="-818808" lat="64.5444916704" lon="11.437794445">
		<tag k="alt_name" v="Stranda" />
		<tag k="name" v="Beisvågstranda" />
		<tag k="place" v="farm" />
		<tag k="ssr:stedsnr" v="75086" />
	</node>
	<node id="-818804" lat="64.5751555592" lon="11.7386527784">
		<tag k="name" v="Tobakksmoen" />
		<tag k="place" v="locality" />
		<tag k="ssr:stedsnr" v="837365" />
	</node>
	<node id="-818803" lat="64.5789527777" lon="11.2833944444">
		<tag k="name" v="Østenvika" />
		<tag k="place" v="farm" />
		<tag k="ssr:stedsnr" v="15044" />
	</node>
	<node id="-818797" lat="64.5490083352" lon="11.2602388841">
		<tag k="name" v="Granheim" />
		<tag k="place" v="farm" />
		<tag k="ssr:stedsnr" v="439071" />
	</node>
	<node id="-818793" lat="64.5372611071" lon="11.5701500013">
		<tag k="name" v="Åsheim" />
		<tag k="place" v="farm" />
		<tag k="ssr:stedsnr" v="743095" />
	</node>
	<node id="-818771" lat="64.3941361091" lon="11.378880556">
		<tag k="name" v="Bangsund" />
		<tag k="place" v="farm" />
		<tag k="ssr:stedsnr" v="499056" />
	</node>
	<node id="-818764" lat="64.5778638887" lon="11.2058166624">
		<tag k="name" v="Skorstad" />
		<tag k="place" v="farm" />
		<tag k="ssr:stedsnr" v="533600" />
	</node>
	<node id="-818754" lat="64.4870926996" lon="11.3977793399">
		<tag k="fixme" v="consider place=hamlet" />
		<tag k="name" v="Hovika" />
		<tag k="place" v="farm" />
		<tag k="ssr:stedsnr" v="803853" />
	</node>
	<node id="-818749" lat="64.5714333331" lon="11.2323472169">
		<tag k="name" v="Setran" />
		<tag k="place" v="farm" />
		<tag k="ssr:stedsnr" v="318022" />
	</node>
	<node id="-818745" lat="64.6153916699" lon="11.5859750083">
		<tag k="name" v="Haukøysetran" />
		<tag k="place" v="isolated_dwelling" />
		<tag k="ssr:stedsnr" v="925517" />
	</node>
	<node id="-818738" lat="64.5789250025" lon="11.1882638787">
		<tag k="name" v="Skorstad" />
		<tag k="place" v="farm" />
		<tag k="ssr:stedsnr" v="776550" />
	</node>
	<node id="-820488" lat="64.4476027796" lon="11.5267055523">
		<tag k="name" v="Spillum" />
		<tag k="place" v="farm" />
		<tag k="ssr:stedsnr" v="697541" />
	</node>
	<node id="-818731" lat="64.4964833334" lon="11.6253888858">
		<tag k="name" v="Engan" />
		<tag k="place" v="farm" />
		<tag k="ssr:stedsnr" v="317225" />
	</node>
	<node id="-818708" lat="64.5422611124" lon="11.2276944515">
		<tag k="historic" v="shieling" />
		<tag k="name" v="Nersetran" />
		<tag k="place" v="locality" />
		<tag k="ssr:stedsnr" v="393457" />
	</node>
	<node id="-818706" lat="64.5908972265" lon="11.6115944463">
		<tag k="name" v="Heimdalen" />
		<tag k="place" v="isolated_dwelling" />
		<tag k="ssr:stedsnr" v="328388" />
	</node>
	<node id="-818699" lat="64.6331179722" lon="11.1258062252">
		<tag k="fixme" v="consider place=hamlet" />
		<tag k="name" v="Jevika" />
		<tag k="place" v="farm" />
		<tag k="ssr:stedsnr" v="257556" />
	</node>
	<node id="-818696" lat="64.2839416626" lon="11.4411361155">
		<tag k="name" v="Langvassmoen" />
		<tag k="place" v="farm" />
		<tag k="ssr:stedsnr" v="135816" />
	</node>
	<node id="-818687" lat="64.6348579883" lon="11.0768030469">
		<tag k="name" v="Årvika" />
		<tag k="place" v="farm" />
		<tag k="ssr:stedsnr" v="257557" />
	</node>
	<node id="-818684" lat="64.4144916703" lon="11.4870027693">
		<tag k="name" v="Myrvang" />
		<tag k="place" v="farm" />
		<tag k="ssr:stedsnr" v="757691" />
	</node>
	<node id="-818682" lat="64.5782944462" lon="11.3502249986">
		<tag k="fixme" v="consider place=hamlet" />
		<tag k="name" v="Frøvarp" />
		<tag k="place" v="village" />
		<tag k="ssr:stedsnr" v="776565" />
	</node>
	<node id="-818679" lat="64.5896694465" lon="11.5332805587">
		<tag k="name" v="Stordalsfjellstua" />
		<tag k="place" v="isolated_dwelling" />
		<tag k="ssr:stedsnr" v="473695" />
	</node>
	<node id="-820724" lat="64.5903795191" lon="11.2662230042">
		<tag k="fixme" v="consider place=hamlet" />
		<tag k="name" v="Årnes" />
		<tag k="place" v="farm" />
		<tag k="ssr:stedsnr" v="500073" />
	</node>
	<node id="-818673" lat="64.4645861083" lon="11.5891249934">
		<tag k="alt_name" v="Myrvold" />
		<tag k="name" v="Myrvoll" />
		<tag k="place" v="farm" />
		<tag k="ssr:stedsnr" v="508355" />
	</node>
	<node id="-818669" lat="64.5363416712" lon="11.307755556">
		<tag k="name" v="Høgøyra" />
		<tag k="place" v="farm" />
		<tag k="ssr:stedsnr" v="439049" />
	</node>
	<node id="-818668" lat="64.4760166697" lon="11.5313861101">
		<tag k="name" v="Kleppen" />
		<tag k="place" v="suburb" />
		<tag k="ssr:stedsnr" v="802239" />
	</node>
	<node id="-820715" lat="64.623330557" lon="11.1389583362">
		<tag k="alt_name" v="Finnanger vestre" />
		<tag k="name" v="Vestre Finnanger" />
		<tag k="place" v="farm" />
		<tag k="ssr:stedsnr" v="108527" />
	</node>
	<node id="-820714" lat="64.4442805562" lon="11.5145416728">
		<tag k="fixme" v="consider place=hamlet" />
		<tag k="name" v="Spillum" />
		<tag k="place" v="farm" />
		<tag k="ssr:stedsnr" v="818703" />
	</node>
	<node id="-820710" lat="64.4757055555" lon="11.2567583339">
		<tag k="name" v="Kleiva" />
		<tag k="place" v="farm" />
		<tag k="ssr:stedsnr" v="195234" />
	</node>
	<node id="-820709" lat="64.5137916696" lon="11.3046833279">
		<tag k="name" v="Ner-Engan" />
		<tag k="place" v="farm" />
		<tag k="ssr:stedsnr" v="317144" />
	</node>
	<node id="-818658" lat="64.5330333327" lon="11.5536833435">
		<tag k="fixme" v="consider place=hamlet" />
		<tag k="name" v="Heimdal" />
		<tag k="place" v="farm" />
		<tag k="ssr:stedsnr" v="333446" />
	</node>
	<node id="-818657" lat="64.3610093079" lon="11.3105397132">
		<tag k="fixme" v="consider place=hamlet" />
		<tag k="name" v="Reitan" />
		<tag k="place" v="farm" />
		<tag k="ssr:stedsnr" v="377983" />
	</node>
	<node id="-818651" lat="64.5888138929" lon="11.2715999949">
		<tag k="alt_name" v="Nygård" />
		<tag k="name" v="Nygard" />
		<tag k="place" v="farm" />
		<tag k="ssr:stedsnr" v="682065" />
	</node>
	<node id="-818647" lat="64.560444448" lon="11.6113277719">
		<tag k="name" v="Bjørkan" />
		<tag k="place" v="isolated_dwelling" />
		<tag k="ssr:stedsnr" v="257004" />
	</node>
	<node id="-820671" lat="64.3562933956" lon="11.5302896696">
		<tag k="fixme" v="consider place=hamlet" />
		<tag k="name" v="Andsjøen" />
		<tag k="place" v="farm" />
		<tag k="ssr:stedsnr" v="438997" />
	</node>
	<node id="-820662" lat="64.5841472265" lon="11.6480361056">
		<tag k="name" v="Bakkan" />
		<tag k="place" v="farm" />
		<tag k="ssr:stedsnr" v="378483" />
	</node>
	<node id="-820658" lat="64.5350638854" lon="11.2804027794">
		<tag k="name" v="Otterøyaunet" />
		<tag k="place" v="farm" />
		<tag k="ssr:stedsnr" v="925186" />
	</node>
	<node id="-818608" lat="64.3900805562" lon="11.3728083236">
		<tag k="name" v="Botnet" />
		<tag k="place" v="farm" />
		<tag k="ssr:stedsnr" v="888690" />
	</node>
	<node id="-820655" lat="64.5776134905" lon="11.3508044825">
		<tag k="fixme" v="consider place=hamlet" />
		<tag k="name" v="Frøvarp" />
		<tag k="place" v="farm" />
		<tag k="ssr:stedsnr" v="560026" />
	</node>
	<node id="-820641" lat="64.5325333345" lon="11.2834361169">
		<tag k="name" v="Bjørkvang" />
		<tag k="place" v="farm" />
		<tag k="ssr:stedsnr" v="925187" />
	</node>
	<node id="-818592" lat="64.4198495879" lon="11.5113139075">
		<tag k="fixme" v="consider place=hamlet" />
		<tag k="name" v="Barstad" />
		<tag k="place" v="farm" />
		<tag k="ssr:stedsnr" v="864111" />
	</node>
	<node id="-820633" lat="64.527691667" lon="11.3286861156">
		<tag k="fixme" v="consider place=hamlet" />
		<tag k="name" v="Vindset" />
		<tag k="place" v="farm" />
		<tag k="ssr:stedsnr" v="378172" />
	</node>
	<node id="-820631" lat="64.5828694445" lon="11.530611102">
		<tag k="name" v="Bårdengsetran" />
		<tag k="place" v="locality" />
		<tag k="ssr:stedsnr" v="500069" />
	</node>
	<node id="-818580" lat="64.5347805545" lon="11.3049638829">
		<tag k="name" v="Stortrømoen" />
		<tag k="place" v="farm" />
		<tag k="ssr:stedsnr" v="879743" />
	</node>
	<node id="-818579" lat="64.3663277804" lon="11.3198083433">
		<tag k="name" v="Nord-Reitan" />
		<tag k="place" v="farm" />
		<tag k="ssr:stedsnr" v="13941" />
	</node>
	<node id="-818578" lat="64.5559583315" lon="11.2743500067">
		<tag k="name" v="Skaget" />
		<tag k="place" v="farm" />
		<tag k="ssr:stedsnr" v="500133" />
	</node>
	<node id="-818572" lat="64.5374083361" lon="11.3142722194">
		<tag k="name" v="Meldalmoen" />
		<tag k="place" v="farm" />
		<tag k="ssr:stedsnr" v="333880" />
	</node>
	<node id="-820619" lat="64.5351694418" lon="11.3258611021">
		<tag k="name" v="Lia" />
		<tag k="place" v="farm" />
		<tag k="ssr:stedsnr" v="925188" />
	</node>
	<node id="-820616" lat="64.6272333323" lon="11.0956138965">
		<tag k="historic" v="shieling" />
		<tag k="name" v="Agelsetran" />
		<tag k="place" v="locality" />
		<tag k="ssr:stedsnr" v="169515" />
	</node>
	<node id="-820612" lat="64.5275916626" lon="11.354013882">
		<tag k="historic" v="shieling" />
		<tag k="name" v="Pettersetran" />
		<tag k="place" v="locality" />
		<tag k="ssr:stedsnr" v="333784" />
	</node>
	<node id="-818560" lat="64.5268308193" lon="11.2763544708">
		<tag k="fixme" v="consider place=hamlet" />
		<tag k="name" v="Otterøy" />
		<tag k="place" v="farm" />
		<tag k="ssr:stedsnr" v="879748" />
	</node>
	<node id="-820607" lat="64.5266527813" lon="11.306227783">
		<tag k="name" v="Heimdal" />
		<tag k="place" v="farm" />
		<tag k="ssr:stedsnr" v="925182" />
	</node>
	<node id="-820601" lat="64.4082999976" lon="11.4800694519">
		<tag k="name" v="Klingen" />
		<tag k="place" v="farm" />
		<tag k="ssr:stedsnr" v="879680" />
	</node>
	<node id="-818550" lat="64.4032027769" lon="11.2697916676">
		<tag k="historic" v="shieling" />
		<tag k="name" v="Hemnafjellsetran" />
		<tag k="place" v="locality" />
		<tag k="ssr:stedsnr" v="451149" />
	</node>
	<node id="-820594" lat="64.3646249996" lon="11.3897583418">
		<tag k="name" v="Sagmoen" />
		<tag k="place" v="isolated_dwelling" />
		<tag k="ssr:stedsnr" v="74998" />
	</node>
	<node id="-820592" lat="64.5164867596" lon="11.2316953982">
		<tag k="name" v="Hamnes" />
		<tag k="place" v="farm" />
		<tag k="ssr:stedsnr" v="257762" />
	</node>
	<node id="-820586" lat="64.4391027772" lon="11.4074944455">
		<tag k="loc_name" v="Kvarvan" />
		<tag k="name" v="Kvarvang" />
		<tag k="place" v="farm" />
		<tag k="ssr:stedsnr" v="28315" />
	</node>
	<node id="-818535" lat="64.5307805514" lon="11.5411749971">
		<tag k="amenity" v="school" />
		<tag k="name" v="Sørenget oppvekstsenter" />
		<tag k="ssr:stedsnr" v="969227" />
	</node>
	<node id="-820582" lat="64.4836476741" lon="11.2318670383">
		<tag k="fixme" v="consider place=hamlet" />
		<tag k="name" v="Ytre Hoddøya" />
		<tag k="place" v="farm" />
		<tag k="ssr:stedsnr" v="195214" />
	</node>
	<node id="-820578" lat="64.429736108" lon="11.493830545">
		<tag k="fixme" v="consider place=hamlet" />
		<tag k="name" v="Sævik" />
		<tag k="place" v="farm" />
		<tag k="ssr:stedsnr" v="924081" />
	</node>
	<node id="-818527" lat="64.5956749989" lon="11.1334388855">
		<tag k="historic" v="shieling" />
		<tag k="name" v="Finnangersetran" />
		<tag k="place" v="locality" />
		<tag k="ssr:stedsnr" v="290478" />
	</node>
	<node id="-818526" lat="64.427733336" lon="11.5069027723">
		<tag k="name" v="Barstadmoen" />
		<tag k="place" v="locality" />
		<tag k="ssr:stedsnr" v="635724" />
	</node>
	<node id="-818522" lat="64.2365694455" lon="11.519544435">
		<tag k="name" v="Klingsetran" />
		<tag k="place" v="locality" />
		<tag k="ssr:stedsnr" v="499854" />
	</node>
	<node id="-818518" lat="64.4383555586" lon="11.6281722253">
		<tag k="historic" v="shieling" />
		<tag k="name" v="Strandsetran" />
		<tag k="place" v="locality" />
		<tag k="ssr:stedsnr" v="508327" />
	</node>
	<node id="-820562" lat="64.5133777778" lon="11.6008888806">
		<tag k="name" v="Heimdalsetran" />
		<tag k="place" v="locality" />
		<tag k="ssr:stedsnr" v="925165" />
	</node>
	<node id="-820560" lat="64.574142945" lon="11.1797793722">
		<tag k="name" v="Blossenborg" />
		<tag k="place" v="farm" />
		<tag k="ssr:stedsnr" v="970901" />
	</node>
	<node id="-820557" lat="64.5825108648" lon="11.4913584889">
		<tag k="loc_name" v="Storondvika" />
		<tag k="name" v="Storandvika" />
		<tag k="place" v="farm" />
		<tag k="ssr:stedsnr" v="500059" />
	</node>
	<node id="-818496" lat="64.5929500025" lon="11.7092166586">
		<tag k="name" v="Loddovika" />
		<tag k="place" v="isolated_dwelling" />
		<tag k="ssr:stedsnr" v="924425" />
	</node>
	<node id="-820541" lat="64.6074277796" lon="11.2455500104">
		<tag k="name" v="Øvervika" />
		<tag k="place" v="isolated_dwelling" />
		<tag k="ssr:stedsnr" v="135470" />
	</node>
	<node id="-820536" lat="64.5783944431" lon="11.2432833308">
		<tag k="name" v="Myrvoll" />
		<tag k="place" v="farm" />
		<tag k="ssr:stedsnr" v="864036" />
	</node>
	<node id="-818487" lat="64.5838499987" lon="11.6532333407">
		<tag k="name" v="Raudbergvika" />
		<tag k="place" v="farm" />
		<tag k="ssr:stedsnr" v="682051" />
	</node>
	<node id="-820532" lat="64.5949583339" lon="11.6213027702">
		<tag k="name" v="Stamoen" />
		<tag k="place" v="farm" />
		<tag k="ssr:stedsnr" v="378465" />
	</node>
	<node id="-818483" lat="64.5628972189" lon="11.6523388793">
		<tag k="name" v="Bjørkasetran" />
		<tag k="place" v="locality" />
		<tag k="ssr:stedsnr" v="15011" />
	</node>
	<node id="-820530" lat="64.5243666692" lon="11.3276527867">
		<tag k="fixme" v="multiple name tags, choose one and add the other to alt_name" />
		<tag k="name" v="Granli;Vindset" />
		<tag k="place" v="farm" />
		<tag k="ssr:stedsnr" v="135186" />
	</node>
	<node id="-820524" lat="64.5383861115" lon="11.2248305473">
		<tag k="historic" v="shieling" />
		<tag k="name" v="Øversetran" />
		<tag k="place" v="locality" />
		<tag k="ssr:stedsnr" v="211469" />
	</node>
	<node id="-820103" lat="64.4743821351" lon="11.2511335468">
		<tag k="fixme" v="consider place=hamlet" />
		<tag k="name" v="Indre Hoddøya" />
		<tag k="place" v="farm" />
		<tag k="ssr:stedsnr" v="741063" />
	</node>
	<node id="-820519" lat="64.5276333373" lon="11.5260000074">
		<tag k="name" v="Strandholmen" />
		<tag k="place" v="farm" />
		<tag k="ssr:stedsnr" v="621186" />
	</node>
	<node id="-820517" lat="64.3448166702" lon="11.5340666705">
		<tag k="name" v="Bergenget" />
		<tag k="place" v="farm" />
		<tag k="ssr:stedsnr" v="644594" />
	</node>
	<node id="-820515" lat="64.3958861072" lon="11.4011138916">
		<tag k="fixme" v="consider place=hamlet" />
		<tag k="name" v="Bangsund" />
		<tag k="place" v="farm" />
		<tag k="ssr:stedsnr" v="99747" />
	</node>
	<node id="-818462" lat="64.5138333348" lon="11.2734944496">
		<tag k="alt_name" v="Skomsvoll" />
		<tag k="name" v="Rønningen" />
		<tag k="place" v="farm" />
		<tag k="ssr:stedsnr" v="924129" />
	</node>
	<node id="-818457" lat="64.5667583352" lon="11.219769453">
		<tag k="name" v="Fjellstua" />
		<tag k="place" v="isolated_dwelling" />
		<tag k="ssr:stedsnr" v="682029" />
	</node>
	<node id="-818455" lat="64.4793967252" lon="11.4424973582">
		<tag k="alt_name" v="Katmarka" />
		<tag k="fixme" v="consider place=hamlet" />
		<tag k="name" v="Kattmarka" />
		<tag k="place" v="farm" />
		<tag k="ssr:stedsnr" v="499025" />
	</node>
	<node id="-818443" lat="64.5674722223" lon="11.5471388847">
		<tag k="name" v="Blikkenget" />
		<tag k="place" v="farm" />
		<tag k="ssr:stedsnr" v="15006" />
	</node>
	<node id="-818442" lat="64.5527583351" lon="11.2711638977">
		<tag k="alt_name" v="Granmoen" />
		<tag k="name" v="Granmo" />
		<tag k="place" v="farm" />
		<tag k="ssr:stedsnr" v="864093" />
	</node>
	<node id="-818440" lat="64.5002611117" lon="11.3924027816">
		<tag k="historic" v="shieling" />
		<tag k="name" v="Gammelsetran" />
		<tag k="place" v="locality" />
		<tag k="ssr:stedsnr" v="879718" />
	</node>
	<node id="-820480" lat="64.5134500023" lon="11.5537527867">
		<tag k="name" v="Kvernbakkan" />
		<tag k="place" v="farm" />
		<tag k="ssr:stedsnr" v="317121" />
	</node>
	<node id="-818426" lat="64.5168517306" lon="11.2401253947">
		<tag k="fixme" v="consider place=hamlet" />
		<tag k="name" v="Engesvika" />
		<tag k="place" v="farm" />
		<tag k="ssr:stedsnr" v="924126" />
	</node>
	<node id="-820471" lat="64.5715499998" lon="11.4699111194">
		<tag k="name" v="Ytterenget" />
		<tag k="place" v="farm" />
		<tag k="ssr:stedsnr" v="500050" />
	</node>
	<node id="-818422" lat="64.4952527779" lon="11.3061444349">
		<tag k="fixme" v="consider place=hamlet" />
		<tag k="name" v="Broem" />
		<tag k="place" v="farm" />
		<tag k="ssr:stedsnr" v="863825" />
	</node>
	<node id="-820454" lat="64.4353722207" lon="11.4854055563">
		<tag k="name" v="Haugen" />
		<tag k="place" v="farm" />
		<tag k="ssr:stedsnr" v="333745" />
	</node>
	<node id="-818396" lat="64.5435237809" lon="11.5591278818">
		<tag k="fixme" v="consider place=hamlet" />
		<tag k="name" v="Hammarsøya" />
		<tag k="place" v="farm" />
		<tag k="ssr:stedsnr" v="500102" />
	</node>
	<node id="-820438" lat="64.4134543084" lon="11.4791357682">
		<tag k="name" v="Fossheim" />
		<tag k="place" v="farm" />
		<tag k="ssr:stedsnr" v="979071" />
	</node>
	<node id="-818389" lat="64.3336527792" lon="11.5468138953">
		<tag k="name" v="Heimly" />
		<tag k="place" v="farm" />
		<tag k="ssr:stedsnr" v="766562" />
	</node>
	<node id="-818386" lat="64.3551777779" lon="11.3483083399">
		<tag k="name" v="Estenbrannen" />
		<tag k="place" v="locality" />
		<tag k="ssr:stedsnr" v="620976" />
	</node>
	<node id="-818381" lat="64.4886006598" lon="11.4995778502">
		<tag k="fixme" v="consider place=hamlet" />
		<tag k="name" v="Havika" />
		<tag k="place" v="farm" />
		<tag k="ssr:stedsnr" v="742230" />
	</node>
	<node id="-818377" lat="64.3820249968" lon="11.5204000091">
		<tag k="name" v="Myrvang" />
		<tag k="place" v="farm" />
		<tag k="ssr:stedsnr" v="377952" />
	</node>
	<node id="-818374" lat="64.5146145338" lon="11.284685372">
		<tag k="fixme" v="consider place=hamlet" />
		<tag k="name" v="Skomsvoll" />
		<tag k="place" v="farm" />
		<tag k="ssr:stedsnr" v="924131" />
	</node>
	<node id="-818373" lat="64.5439191454" lon="11.5792820258">
		<tag k="fixme" v="consider place=hamlet" />
		<tag k="name" v="Lødding" />
		<tag k="place" v="farm" />
		<tag k="ssr:stedsnr" v="971379" />
	</node>
	<node id="-820419" lat="64.5892027773" lon="11.3663138923">
		<tag k="name" v="Odden" />
		<tag k="place" v="farm" />
		<tag k="ssr:stedsnr" v="864050" />
	</node>
	<node id="-818370" lat="64.4840750022" lon="11.3599249955">
		<tag k="name" v="Otterdalen" />
		<tag k="place" v="isolated_dwelling" />
		<tag k="ssr:stedsnr" v="317180" />
	</node>
	<node id="-818361" lat="64.5500111101" lon="11.2700777873">
		<tag k="name" v="Lauvli" />
		<tag k="place" v="farm" />
		<tag k="ssr:stedsnr" v="864095" />
	</node>
	<node id="-820425" lat="64.5739499977" lon="11.671608336">
		<tag k="name" v="Kvernmoen" />
		<tag k="place" v="farm" />
		<tag k="ssr:stedsnr" v="560015" />
	</node>
	<node id="-820396" lat="64.4105722258" lon="11.4749388899">
		<tag k="amenity" v="school" />
		<tag k="name" v="Bjørkly skole" />
		<tag k="ssr:stedsnr" v="707250" />
	</node>
	<node id="-818346" lat="64.5396916623" lon="11.2917055637">
		<tag k="name" v="Nordstrand" />
		<tag k="place" v="farm" />
		<tag k="ssr:stedsnr" v="560070" />
	</node>
	<node id="-820389" lat="64.5716249965" lon="11.1622055586">
		<tag k="name" v="Fredheim" />
		<tag k="place" v="farm" />
		<tag k="ssr:stedsnr" v="924601" />
	</node>
	<node id="-818332" lat="64.4300444459" lon="11.4891805627">
		<tag k="name" v="Sævik" />
		<tag k="place" v="farm" />
		<tag k="ssr:stedsnr" v="879734" />
	</node>
	<node id="-820379" lat="64.4305722232" lon="11.4469333257">
		<tag k="name" v="Selnes" />
		<tag k="place" v="isolated_dwelling" />
		<tag k="ssr:stedsnr" v="705612" />
	</node>
	<node id="-820378" lat="64.4719722182" lon="11.5416027862">
		<tag k="amenity" v="school" />
		<tag k="name" v="Olav Duun videregående skole" />
		<tag k="ssr:stedsnr" v="241207" />
	</node>
	<node id="-818329" lat="64.5026916643" lon="11.4475888855">
		<tag k="name" v="Lænnasjøen" />
		<tag k="place" v="farm" />
		<tag k="ssr:stedsnr" v="135231" />
	</node>
	<node id="-820375" lat="64.3380722238" lon="11.4692805556">
		<tag k="historic" v="shieling" />
		<tag k="name" v="Flakksetran" />
		<tag k="place" v="locality" />
		<tag k="ssr:stedsnr" v="716823" />
	</node>
	<node id="-820374" lat="64.4729999983" lon="11.5350805597">
		<tag k="amenity" v="school" />
		<tag k="name" v="Høknes barneskole" />
		<tag k="ssr:stedsnr" v="362238" />
	</node>
	<node id="-820371" lat="64.6207000032" lon="11.1454000036">
		<tag k="fixme" v="consider place=hamlet" />
		<tag k="name" v="Finnanger" />
		<tag k="place" v="village" />
		<tag k="ssr:stedsnr" v="864558" />
	</node>
	<node id="-820370" lat="64.3017149208" lon="11.5396917309">
		<tag k="alt_name" v="Bergsaunet" />
		<tag k="fixme" v="consider place=hamlet" />
		<tag k="name" v="Aunet" />
		<tag k="place" v="farm" />
		<tag k="ssr:stedsnr" v="802933" />
	</node>
	<node id="-818371" lat="64.4684805513" lon="11.5398638821">
		<tag k="alt_name" v="Høkneshylla" />
		<tag k="name" v="Hylla" />
		<tag k="place" v="farm" />
		<tag k="ssr:stedsnr" v="969567" />
	</node>
	<node id="-820362" lat="64.3919749969" lon="11.3982611136">
		<tag k="amenity" v="school" />
		<tag k="name" v="Bangsund skole" />
		<tag k="ssr:stedsnr" v="707248" />
	</node>
	<node id="-820358" lat="64.3917776833" lon="11.5108539575">
		<tag k="alt_name" v="Fjeldset" />
		<tag k="fixme" v="consider place=hamlet" />
		<tag k="name" v="Fjellset" />
		<tag k="place" v="farm" />
		<tag k="ssr:stedsnr" v="620091" />
	</node>
	<node id="-818308" lat="64.5837861069" lon="11.4870027872">
		<tag k="name" v="Litlandvika" />
		<tag k="place" v="isolated_dwelling" />
		<tag k="ssr:stedsnr" v="75031" />
	</node>
	<node id="-820337" lat="64.5929916703" lon="11.2650305645">
		<tag k="name" v="Sørli" />
		<tag k="place" v="farm" />
		<tag k="ssr:stedsnr" v="803478" />
	</node>
	<node id="-820335" lat="64.5801615359" lon="11.1920943052">
		<tag k="name" v="Skorstad" />
		<tag k="place" v="farm" />
		<tag k="ssr:stedsnr" v="959026" />
	</node>
	<node id="-820334" lat="64.5328138872" lon="11.4139805658">
		<tag k="name" v="Survika" />
		<tag k="place" v="farm" />
		<tag k="ssr:stedsnr" v="465184" />
	</node>
	<node id="-820333" lat="64.5039750028" lon="11.5831361192">
		<tag k="name" v="Midtgard" />
		<tag k="place" v="farm" />
		<tag k="ssr:stedsnr" v="75244" />
	</node>
	<node id="-820331" lat="64.4015143771" lon="11.4869068187">
		<tag k="fixme" v="consider place=hamlet" />
		<tag k="name" v="Klinga" />
		<tag k="place" v="farm" />
		<tag k="ssr:stedsnr" v="924063" />
	</node>
	<node id="-818276" lat="64.5910229156" lon="11.8023298048">
		<tag k="fixme" v="consider place=hamlet" />
		<tag k="name" v="Duna" />
		<tag k="place" v="farm" />
		<tag k="ssr:stedsnr" v="682822" />
	</node>
	<node id="-820322" lat="64.5276861114" lon="11.3231861029">
		<tag k="name" v="Vindset" />
		<tag k="place" v="farm" />
		<tag k="ssr:stedsnr" v="575766" />
	</node>
	<node id="-820321" lat="64.4891138921" lon="11.4683277845">
		<tag k="fixme" v="consider place=hamlet" />
		<tag k="name" v="Hals" />
		<tag k="place" v="farm" />
		<tag k="ssr:stedsnr" v="757516" />
	</node>
	<node id="-818272" lat="64.5651611132" lon="11.5331611065">
		<tag k="name" v="Bårdenget" />
		<tag k="place" v="isolated_dwelling" />
		<tag k="ssr:stedsnr" v="682007" />
	</node>
	<node id="-818271" lat="64.464547218" lon="11.5893861105">
		<tag k="name" v="Myrvoll" />
		<tag k="place" v="farm" />
		<tag k="ssr:stedsnr" v="392567" />
	</node>
	<node id="-820318" lat="64.5782555543" lon="11.6122000093">
		<tag k="name" v="Rypneset" />
		<tag k="place" v="farm" />
		<tag k="ssr:stedsnr" v="864032" />
	</node>
	<node id="-820315" lat="64.5060416633" lon="11.5797916566">
		<tag k="name" v="Alfheim" />
		<tag k="place" v="farm" />
		<tag k="ssr:stedsnr" v="14119" />
	</node>
	<node id="-818266" lat="64.5400305548" lon="11.5729499963">
		<tag k="name" v="Sagelvmoen" />
		<tag k="place" v="isolated_dwelling" />
		<tag k="ssr:stedsnr" v="560059" />
	</node>
	<node id="-820311" lat="64.5634138889" lon="11.5211222193">
		<tag k="name" v="Kjettøya" />
		<tag k="place" v="farm" />
		<tag k="ssr:stedsnr" v="511653" />
	</node>
	<node id="-818262" lat="64.5849305576" lon="11.6491444421">
		<tag k="name" v="Myrmo" />
		<tag k="place" v="farm" />
		<tag k="ssr:stedsnr" v="170700" />
	</node>
	<node id="-818259" lat="64.588250002" lon="11.6230611069">
		<tag k="name" v="Leirvika" />
		<tag k="place" v="farm" />
		<tag k="ssr:stedsnr" v="621510" />
	</node>
	<node id="-818252" lat="64.4733305588" lon="11.2571472146">
		<tag k="name" v="Moen" />
		<tag k="place" v="farm" />
		<tag k="ssr:stedsnr" v="351121" />
	</node>
	<node id="-820298" lat="64.5338361085" lon="11.3061527735">
		<tag k="name" v="Vindsetmoen" />
		<tag k="place" v="farm" />
		<tag k="ssr:stedsnr" v="515776" />
	</node>
	<node id="-820296" lat="64.5078638922" lon="11.4602166635">
		<tag k="name" v="Solheim" />
		<tag k="place" v="farm" />
		<tag k="ssr:stedsnr" v="14116" />
	</node>
	<node id="-818247" lat="64.5308333332" lon="11.5491166711">
		<tag k="name" v="Sørenget" />
		<tag k="place" v="farm" />
		<tag k="ssr:stedsnr" v="515431" />
	</node>
	<node id="-820294" lat="64.5159583366" lon="11.2876777876">
		<tag k="name" v="Østre Skomsvoll" />
		<tag k="place" v="farm" />
		<tag k="ssr:stedsnr" v="766009" />
	</node>
	<node id="-818237" lat="64.5464833375" lon="11.5431500105">
		<tag k="name" v="Rønningen" />
		<tag k="place" v="farm" />
		<tag k="ssr:stedsnr" v="594638" />
	</node>
	<node id="-818234" lat="64.5011638918" lon="11.2890388989">
		<tag k="name" v="Sandvik" />
		<tag k="place" v="farm" />
		<tag k="ssr:stedsnr" v="135222" />
	</node>
	<node id="-820265" lat="64.4338833322" lon="11.4292499984">
		<tag k="name" v="Stranda" />
		<tag k="place" v="farm" />
		<tag k="ssr:stedsnr" v="377098" />
	</node>
	<node id="-820264" lat="64.3445277763" lon="11.4836916738">
		<tag k="historic" v="shieling" />
		<tag k="name" v="Flakksetran" />
		<tag k="place" v="locality" />
		<tag k="ssr:stedsnr" v="776811" />
	</node>
	<node id="-818215" lat="64.3684749971" lon="11.3501083366">
		<tag k="name" v="Brennlia" />
		<tag k="place" v="farm" />
		<tag k="ssr:stedsnr" v="924932" />
	</node>
	<node id="-820258" lat="64.4729444444" lon="11.5512250022">
		<tag k="name" v="Vestre Høknes" />
		<tag k="place" v="farm" />
		<tag k="ssr:stedsnr" v="38006" />
	</node>
	<node id="-818209" lat="64.2838542289" lon="11.6131242949">
		<tag k="fixme" v="consider place=hamlet" />
		<tag k="name" v="Solem" />
		<tag k="place" v="farm" />
		<tag k="ssr:stedsnr" v="196822" />
	</node>
	<node id="-818207" lat="64.5144137965" lon="11.215835169">
		<tag k="fixme" v="consider place=hamlet" />
		<tag k="name" v="Hamnes" />
		<tag k="place" v="farm" />
		<tag k="ssr:stedsnr" v="924123" />
	</node>
	<node id="-820241" lat="64.499380558" lon="11.4453361197">
		<tag k="name" v="Varpneset" />
		<tag k="place" v="farm" />
		<tag k="ssr:stedsnr" v="766004" />
	</node>
	<node id="-820240" lat="64.478263885" lon="11.4742499939">
		<tag k="name" v="Gullvika" />
		<tag k="place" v="farm" />
		<tag k="ssr:stedsnr" v="697501" />
	</node>
	<node id="-820239" lat="64.5799472259" lon="11.2053777776">
		<tag k="name" v="Lennavika" />
		<tag k="place" v="locality" />
		<tag k="ssr:stedsnr" v="58544" />
	</node>
	<node id="-818185" lat="64.5415055534" lon="11.2666166607">
		<tag k="name" v="Fosslandsosen" />
		<tag k="place" v="farm" />
		<tag k="ssr:stedsnr" v="864081" />
	</node>
	<node id="-820627" lat="64.5872416681" lon="11.5159305629">
		<tag k="name" v="Olderviksetran" />
		<tag k="place" v="isolated_dwelling" />
		<tag k="ssr:stedsnr" v="378467" />
	</node>
	<node id="-818181" lat="64.5808444403" lon="11.3533249997">
		<tag k="name" v="Sandmoen" />
		<tag k="place" v="farm" />
		<tag k="ssr:stedsnr" v="560052" />
	</node>
	<node id="-820228" lat="64.5933333368" lon="11.6827055513">
		<tag k="name" v="Langstranda" />
		<tag k="place" v="farm" />
		<tag k="ssr:stedsnr" v="742415" />
	</node>
	<node id="-820207" lat="64.5984042545" lon="11.2521258511">
		<tag k="fixme" v="consider place=hamlet" />
		<tag k="name" v="Årvika" />
		<tag k="place" v="farm" />
		<tag k="ssr:stedsnr" v="803463" />
	</node>
	<node id="-820199" lat="64.5146833302" lon="11.4683166721">
		<tag k="name" v="Åkervika" />
		<tag k="place" v="farm" />
		<tag k="ssr:stedsnr" v="742127" />
	</node>
	<node id="-818149" lat="64.3794527792" lon="11.5427500073">
		<tag k="name" v="Heia" />
		<tag k="place" v="locality" />
		<tag k="ssr:stedsnr" v="256960" />
	</node>
	<node id="-820192" lat="64.572292219" lon="11.5123617308">
		<tag k="name" v="Ånenget" />
		<tag k="place" v="farm" />
		<tag k="ssr:stedsnr" v="197031" />
	</node>
	<node id="-820190" lat="64.4703833372" lon="11.4703555609">
		<tag k="amenity" v="school" />
		<tag k="name" v="Vestbyen skole" />
		<tag k="ssr:stedsnr" v="483238" />
	</node>
	<node id="-818341" lat="64.3633944464" lon="11.3146138932">
		<tag k="name" v="Reitan" />
		<tag k="place" v="farm" />
		<tag k="ssr:stedsnr" v="766554" />
	</node>
	<node id="-820183" lat="64.4444194477" lon="11.5283361216">
		<tag k="name" v="Lia" />
		<tag k="place" v="farm" />
		<tag k="ssr:stedsnr" v="635560" />
	</node>
	<node id="-820182" lat="64.3178666686" lon="11.5351861047">
		<tag k="name" v="Romstadmoen" />
		<tag k="place" v="farm" />
		<tag k="ssr:stedsnr" v="256903" />
	</node>
	<node id="-820178" lat="64.5665260873" lon="11.2739117795">
		<tag k="fixme" v="consider place=hamlet" />
		<tag k="name" v="Ølenvika" />
		<tag k="place" v="farm" />
		<tag k="ssr:stedsnr" v="500029" />
	</node>
	<node id="-820177" lat="64.5556861121" lon="11.4494833275">
		<tag k="name" v="Vikasetran" />
		<tag k="place" v="locality" />
		<tag k="ssr:stedsnr" v="317097" />
	</node>
	<node id="-820173" lat="64.3570083303" lon="11.2995861208">
		<tag k="name" v="Lian" />
		<tag k="place" v="farm" />
		<tag k="ssr:stedsnr" v="378970" />
	</node>
	<node id="-820165" lat="64.6474472204" lon="11.0935916624">
		<tag k="historic" v="shieling" />
		<tag k="name" v="Setran" />
		<tag k="place" v="locality" />
		<tag k="ssr:stedsnr" v="412968" />
	</node>
	<node id="-820162" lat="64.4304111103" lon="11.432450007">
		<tag k="name" v="Selnesmoen" />
		<tag k="place" v="farm" />
		<tag k="ssr:stedsnr" v="317087" />
	</node>
	<node id="-820161" lat="64.5099222228" lon="11.2963611086">
		<tag k="fixme" v="consider place=hamlet" />
		<tag k="name" v="Vik" />
		<tag k="place" v="farm" />
		<tag k="ssr:stedsnr" v="135146" />
	</node>
	<node id="-820158" lat="64.5939111131" lon="11.6864249969">
		<tag k="name" v="Sommarhus" />
		<tag k="place" v="farm" />
		<tag k="ssr:stedsnr" v="803470" />
	</node>
	<node id="-820141" lat="64.4705138884" lon="11.5140027679">
		<tag k="amenity" v="school" />
		<tag k="name" v="Namsos barneskole" />
		<tag k="ssr:stedsnr" v="604221" />
	</node>
	<node id="-820139" lat="64.4303527784" lon="11.4825583317">
		<tag k="name" v="Solheim" />
		<tag k="place" v="farm" />
		<tag k="ssr:stedsnr" v="256093" />
	</node>
	<node id="-820130" lat="64.5170805542" lon="11.2584694391">
		<tag k="name" v="Solvika" />
		<tag k="place" v="farm" />
		<tag k="ssr:stedsnr" v="363265" />
	</node>
	<node id="-820115" lat="64.6124777742" lon="11.2040277823">
		<tag k="name" v="Tømmervika" />
		<tag k="place" v="farm" />
		<tag k="ssr:stedsnr" v="864546" />
	</node>
	<node id="-820109" lat="64.3429138884" lon="11.5446888903">
		<tag k="name" v="Elvheim" />
		<tag k="place" v="farm" />
		<tag k="ssr:stedsnr" v="281579" />
	</node>
	<node id="-820108" lat="64.472686109" lon="11.2773583408">
		<tag k="name" v="Strandval" />
		<tag k="place" v="farm" />
		<tag k="ssr:stedsnr" v="741062" />
	</node>
	<node id="-820716" lat="64.5162222252" lon="11.4698805507">
		<tag k="name" v="Gåsneset" />
		<tag k="place" v="farm" />
		<tag k="ssr:stedsnr" v="29562" />
	</node>
	<node id="-820087" lat="64.257383335" lon="11.6099777799">
		<tag k="name" v="Mortenhølstua" />
		<tag k="place" v="isolated_dwelling" />
		<tag k="ssr:stedsnr" v="924839" />
	</node>
	<node id="-820065" lat="64.471450001" lon="11.4458583249">
		<tag k="loc_name" v="Gullholmstrand" />
		<tag k="name" v="Stranda" />
		<tag k="place" v="quarter" />
		<tag k="ssr:stedsnr" v="693069" />
	</node>
	<node id="-820060" lat="64.4890249997" lon="11.3935805579">
		<tag k="name" v="Hovik" />
		<tag k="place" v="farm" />
		<tag k="ssr:stedsnr" v="863197" />
	</node>
	<node id="-820055" lat="64.5515706763" lon="11.5032738652">
		<tag k="name" v="Haukøya" />
		<tag k="place" v="farm" />
		<tag k="ssr:stedsnr" v="14088" />
	</node>
	<node id="-820045" lat="64.3579555551" lon="11.3158472146">
		<tag k="alt_name" v="Steinklevmoen" />
		<tag k="name" v="Steinkleivmoen" />
		<tag k="place" v="farm" />
		<tag k="ssr:stedsnr" v="863989" />
	</node>
	<node id="-820038" lat="64.3495694408" lon="11.5365694513">
		<tag k="name" v="Berge" />
		<tag k="place" v="farm" />
		<tag k="ssr:stedsnr" v="803975" />
	</node>
	<node id="-820031" lat="64.5545416663" lon="11.5251194373">
		<tag k="name" v="Ytterby" />
		<tag k="place" v="farm" />
		<tag k="ssr:stedsnr" v="14087" />
	</node>
	<node id="-820028" lat="64.3645361107" lon="11.3693166741">
		<tag k="name" v="Vollen" />
		<tag k="place" v="farm" />
		<tag k="ssr:stedsnr" v="863988" />
	</node>
	<node id="-820026" lat="64.4172833371" lon="11.4915833273">
		<tag k="alt_name" v="Myrmo" />
		<tag k="name" v="Myrmoen" />
		<tag k="place" v="farm" />
		<tag k="ssr:stedsnr" v="378109" />
	</node>
	<node id="-820017" lat="64.3583777822" lon="11.4619499915">
		<tag k="name" v="Gavlen" />
		<tag k="place" v="locality" />
		<tag k="ssr:stedsnr" v="863998" />
	</node>
	<node id="-820016" lat="64.5330156996" lon="11.5133721254">
		<tag k="fixme" v="consider place=hamlet" />
		<tag k="name" v="Ganes" />
		<tag k="place" v="farm" />
		<tag k="ssr:stedsnr" v="682205" />
	</node>
	<node id="-820008" lat="64.5931333313" lon="11.620899994">
		<tag k="name" v="Foss" />
		<tag k="place" v="farm" />
		<tag k="ssr:stedsnr" v="439456" />
	</node>
	<node id="-820003" lat="64.5181166666" lon="11.2553250018">
		<tag k="name" v="Brumoen" />
		<tag k="place" v="farm" />
		<tag k="ssr:stedsnr" v="15162" />
	</node>
	<node id="-820699" lat="64.3890638929" lon="11.5113777868">
		<tag k="name" v="Skattmoen" />
		<tag k="place" v="farm" />
		<tag k="ssr:stedsnr" v="256957" />
	</node>
	<node id="-819998" lat="64.6160583327" lon="11.6265388981">
		<tag k="name" v="Kjelheimen" />
		<tag k="place" v="isolated_dwelling" />
		<tag k="ssr:stedsnr" v="500556" />
	</node>
	<node id="-819984" lat="64.5169055537" lon="11.3510916586">
		<tag k="name" v="Vikasetran" />
		<tag k="place" v="isolated_dwelling" />
		<tag k="ssr:stedsnr" v="742122" />
	</node>
	<node id="-819977" lat="64.5921249993" lon="11.7762750071">
		<tag k="name" v="Avløyftin" />
		<tag k="place" v="farm" />
		<tag k="ssr:stedsnr" v="560779" />
	</node>
	<node id="-819970" lat="64.503277973" lon="11.4609673276">
		<tag k="name" v="Lænn" />
		<tag k="place" v="farm" />
		<tag k="ssr:stedsnr" v="706008" />
	</node>
	<node id="-819968" lat="64.4683305525" lon="11.4765583405">
		<tag k="name" v="Prærien" />
		<tag k="place" v="suburb" />
		<tag k="ssr:stedsnr" v="741068" />
	</node>
	<node id="-819965" lat="64.6199027795" lon="11.6669999967">
		<tag k="historic" v="shieling" />
		<tag k="name" v="Fossetran" />
		<tag k="place" v="locality" />
		<tag k="ssr:stedsnr" v="317357" />
	</node>
	<node id="-819961" lat="64.5038216416" lon="11.4601775004">
		<tag k="fixme" v="consider place=hamlet" />
		<tag k="name" v="Lænn" />
		<tag k="place" v="farm" />
		<tag k="ssr:stedsnr" v="500283" />
	</node>
	<node id="-819959" lat="64.3868250001" lon="11.3769833239">
		<tag k="name" v="Berg" />
		<tag k="place" v="farm" />
		<tag k="ssr:stedsnr" v="256079" />
	</node>
	<node id="-819950" lat="64.651008335" lon="11.7811888835">
		<tag k="name" v="Storenghytta" />
		<tag k="place" v="isolated_dwelling" />
		<tag k="ssr:stedsnr" v="230702" />
	</node>
	<node id="-819929" lat="64.6271694462" lon="11.1453944388">
		<tag k="name" v="Jevikmoen" />
		<tag k="place" v="farm" />
		<tag k="ssr:stedsnr" v="837504" />
	</node>
	<node id="-819925" lat="64.4850606844" lon="11.4780666484">
		<tag k="fixme" v="consider place=hamlet" />
		<tag k="name" v="Toddom" />
		<tag k="place" v="farm" />
		<tag k="ssr:stedsnr" v="499169" />
	</node>
	<node id="-819918" lat="64.5296999962" lon="11.5397138823">
		<tag k="name" v="Heivika" />
		<tag k="place" v="farm" />
		<tag k="ssr:stedsnr" v="136217" />
	</node>
	<node id="-819916" lat="64.5732066546" lon="11.1648825645">
		<tag k="fixme" v="consider place=hamlet" />
		<tag k="name" v="Skorstad" />
		<tag k="place" v="farm" />
		<tag k="ssr:stedsnr" v="802624" />
	</node>
	<node id="-819913" lat="64.3056250007" lon="11.3571277714">
		<tag k="historic" v="shieling" />
		<tag k="name" v="Fjærsetran" />
		<tag k="place" v="locality" />
		<tag k="ssr:stedsnr" v="110361" />
	</node>
	<node id="-819892" lat="64.365483336" lon="11.3595944388">
		<tag k="name" v="Berg" />
		<tag k="place" v="farm" />
		<tag k="ssr:stedsnr" v="135932" />
	</node>
	<node id="-819888" lat="64.4151694442" lon="11.4717722287">
		<tag k="name" v="Valmoen" />
		<tag k="place" v="farm" />
		<tag k="ssr:stedsnr" v="575686" />
	</node>
	<node id="-819886" lat="64.5347333303" lon="11.3118749923">
		<tag k="name" v="Vindsetmoan" />
		<tag k="place" v="farm" />
		<tag k="ssr:stedsnr" v="136207" />
	</node>
	<node id="-819884" lat="64.5141833377" lon="11.5555027843">
		<tag k="name" v="Aunmoen" />
		<tag k="place" v="farm" />
		<tag k="ssr:stedsnr" v="15152" />
	</node>
	<node id="-819871" lat="64.5389083365" lon="11.2953305511">
		<tag k="name" v="Øyamoen" />
		<tag k="place" v="farm" />
		<tag k="ssr:stedsnr" v="925089" />
	</node>
	<node id="-819869" lat="64.5177138913" lon="11.5420555542">
		<tag k="fixme" v="consider place=hamlet" />
		<tag k="name" v="Vemundvik" />
		<tag k="place" v="farm" />
		<tag k="ssr:stedsnr" v="940417" />
	</node>
	<node id="-818287" lat="64.5941633343" lon="11.6026808749">
		<tag k="name" v="Jektvika" />
		<tag k="place" v="farm" />
		<tag k="ssr:stedsnr" v="621513" />
	</node>
	<node id="-819862" lat="64.4729166702" lon="11.5513250073">
		<tag k="name" v="Høknes" />
		<tag k="place" v="farm" />
		<tag k="ssr:stedsnr" v="741055" />
	</node>
	<node id="-818285" lat="64.3459027806" lon="11.6181194543">
		<tag k="historic" v="shieling" />
		<tag k="name" v="Ramstadsetran" />
		<tag k="place" v="locality" />
		<tag k="ssr:stedsnr" v="230439" />
	</node>
	<node id="-819845" lat="64.4743861072" lon="11.2205083319">
		<tag k="name" v="Håkilan" />
		<tag k="place" v="farm" />
		<tag k="ssr:stedsnr" v="377043" />
	</node>
	<node id="-819839" lat="64.4643611151" lon="11.5889583254">
		<tag k="name" v="Lauvhammaren" />
		<tag k="place" v="farm" />
		<tag k="ssr:stedsnr" v="142526" />
	</node>
	<node id="-819830" lat="64.478886112" lon="11.4718750067">
		<tag k="fixme" v="consider place=hamlet" />
		<tag k="name" v="Gullvika" />
		<tag k="place" v="farm" />
		<tag k="ssr:stedsnr" v="635527" />
	</node>
	<node id="-819824" lat="64.4730249965" lon="11.4043749917">
		<tag k="alt_name" v="Ansnes" />
		<tag k="name" v="Andsnes" />
		<tag k="place" v="farm" />
		<tag k="ssr:stedsnr" v="924022" />
	</node>
	<node id="-819823" lat="64.4751916696" lon="11.4663166595">
		<tag k="name" v="Gullvika" />
		<tag k="place" v="suburb" />
		<tag k="ssr:stedsnr" v="377041" />
	</node>
	<node id="-819821" lat="64.500888893" lon="11.3124055514">
		<tag k="name" v="Granmo" />
		<tag k="place" v="farm" />
		<tag k="ssr:stedsnr" v="864248" />
	</node>
	<node id="-819819" lat="64.5916861126" lon="11.2328249904">
		<tag k="name" v="Årset" />
		<tag k="place" v="farm" />
		<tag k="ssr:stedsnr" v="439438" />
	</node>
	<node id="-819815" lat="64.4738138932" lon="11.5336583386">
		<tag k="amenity" v="school" />
		<tag k="name" v="Høknes ungdomsskole" />
		<tag k="ssr:stedsnr" v="59211" />
	</node>
	<node id="-819813" lat="64.5185833333" lon="11.2514805461">
		<tag k="alt_name" v="Engesli" />
		<tag k="name" v="Engeslia" />
		<tag k="place" v="farm" />
		<tag k="ssr:stedsnr" v="803151" />
	</node>
	<node id="-819802" lat="64.4695817485" lon="11.4811744289">
		<tag k="fixme" v="consider place=suburb, village or hamlet" />
		<tag k="name" v="Lavika" />
		<tag k="place" v="quarter" />
		<tag k="ssr:stedsnr" v="741050" />
	</node>
	<node id="-819798" lat="64.5158638924" lon="11.2802916711">
		<tag k="name" v="Skomsli" />
		<tag k="place" v="farm" />
		<tag k="ssr:stedsnr" v="303266" />
	</node>
	<node id="-819796" lat="64.513538893" lon="11.3113527727">
		<tag k="name" v="Øver-Engan" />
		<tag k="place" v="farm" />
		<tag k="ssr:stedsnr" v="257127" />
	</node>
	<node id="-819786" lat="64.6024833379" lon="11.5442444367">
		<tag k="name" v="Hylla" />
		<tag k="place" v="locality" />
		<tag k="ssr:stedsnr" v="75462" />
	</node>
	<node id="-819779" lat="64.5766333306" lon="11.2354499919">
		<tag k="name" v="Åen" />
		<tag k="place" v="farm" />
		<tag k="ssr:stedsnr" v="412534" />
	</node>
	<node id="-820320" lat="64.5750888915" lon="11.2309527781">
		<tag k="name" v="Stervika" />
		<tag k="place" v="farm" />
		<tag k="ssr:stedsnr" v="837576" />
	</node>
	<node id="-819768" lat="64.512088886" lon="11.5612916745">
		<tag k="name" v="Aunet" />
		<tag k="place" v="farm" />
		<tag k="ssr:stedsnr" v="803128" />
	</node>
	<node id="-819766" lat="64.4736972572" lon="11.6085330996">
		<tag k="alt_name" v="Stranden" />
		<tag k="fixme" v="consider place=hamlet" />
		<tag k="name" v="Stranda" />
		<tag k="place" v="farm" />
		<tag k="ssr:stedsnr" v="802062" />
	</node>
	<node id="-819762" lat="64.5521456761" lon="11.4171215401">
		<tag k="fixme" v="consider place=hamlet" />
		<tag k="name" v="Beisvågen" />
		<tag k="place" v="farm" />
		<tag k="ssr:stedsnr" v="742086" />
	</node>
	<node id="-819760" lat="64.3923194413" lon="11.3968805579">
		<tag k="name" v="Bangsund" />
		<tag k="place" v="village" />
		<tag k="ssr:stedsnr" v="681080" />
	</node>
	<node id="-819757" lat="64.3963638866" lon="11.3668750021">
		<tag k="name" v="Strandli" />
		<tag k="place" v="isolated_dwelling" />
		<tag k="ssr:stedsnr" v="14061" />
	</node>
	<node id="-819751" lat="64.5175027756" lon="11.2876194456">
		<tag k="name" v="Brekken" />
		<tag k="place" v="farm" />
		<tag k="ssr:stedsnr" v="970428" />
	</node>
	<node id="-819748" lat="64.5896361088" lon="11.2374000026">
		<tag k="name" v="Heggli" />
		<tag k="place" v="farm" />
		<tag k="ssr:stedsnr" v="925075" />
	</node>
	<node id="-819726" lat="64.5329805564" lon="11.3125583383">
		<tag k="name" v="Sørlia" />
		<tag k="place" v="farm" />
		<tag k="ssr:stedsnr" v="804212" />
	</node>
	<node id="-819725" lat="64.5581416629" lon="11.2672694355">
		<tag k="name" v="Nordset" />
		<tag k="place" v="farm" />
		<tag k="ssr:stedsnr" v="257116" />
	</node>
	<node id="-819719" lat="64.4743083371" lon="11.4495027761">
		<tag k="name" v="Granli" />
		<tag k="place" v="farm" />
		<tag k="ssr:stedsnr" v="377038" />
	</node>
	<node id="-819712" lat="64.5949694457" lon="11.2559361201">
		<tag k="name" v="Grønvik" />
		<tag k="place" v="farm" />
		<tag k="ssr:stedsnr" v="439435" />
	</node>
	<node id="-819711" lat="64.4714111092" lon="11.5591500021">
		<tag k="fixme" v="multiple name tags, choose one and add the other to alt_name" />
		<tag k="name" v="Høknes;Neset" />
		<tag k="place" v="farm" />
		<tag k="ssr:stedsnr" v="454564" />
	</node>
	<node id="-819704" lat="64.368096751" lon="11.3259934686">
		<tag k="alt_name" v="Reitan" />
		<tag k="name" v="Haugan" />
		<tag k="place" v="farm" />
		<tag k="ssr:stedsnr" v="559939" />
	</node>
	<node id="-819702" lat="64.5218527737" lon="11.6226888838">
		<tag k="name" v="Vassdalssetran" />
		<tag k="place" v="locality" />
		<tag k="ssr:stedsnr" v="743175" />
	</node>
	<node id="-819701" lat="64.514808335" lon="11.2846833386">
		<tag k="name" v="Midtre Skomsvoll" />
		<tag k="place" v="farm" />
		<tag k="ssr:stedsnr" v="888003" />
	</node>
	<node id="-819696" lat="64.4001194446" lon="11.3852500056">
		<tag k="building" v="industrial" />
		<tag k="industrial" v="factory" />
		<tag k="name" v="Bangdalsbruket" />
		<tag k="ssr:stedsnr" v="14055" />
	</node>
	<node id="-819692" lat="64.4706888885" lon="11.5058888849">
		<tag k="amenity" v="hospital" />
		<tag k="name" v="Sykehuset Namsos" />
		<tag k="old_name" v="Namdal Sykehus" />
		<tag k="ssr:stedsnr" v="696566" />
	</node>
	<node id="-819686" lat="64.4319861075" lon="11.4037499936">
		<tag k="name" v="Kvilheim" />
		<tag k="place" v="farm" />
		<tag k="ssr:stedsnr" v="438094" />
	</node>
	<node id="-818432" lat="64.6171444407" lon="11.6187750063">
		<tag k="name" v="Ganesvika" />
		<tag k="place" v="isolated_dwelling" />
		<tag k="ssr:stedsnr" v="257526" />
	</node>
	<node id="-819667" lat="64.3652166649" lon="11.3624055622">
		<tag k="name" v="Stranden" />
		<tag k="place" v="farm" />
		<tag k="ssr:stedsnr" v="584560" />
	</node>
	<node id="-819660" lat="64.5567388935" lon="11.5290194352">
		<tag k="name" v="Kjerstivika" />
		<tag k="place" v="isolated_dwelling" />
		<tag k="ssr:stedsnr" v="135103" />
	</node>
	<node id="-819659" lat="64.4746499993" lon="11.5610555455">
		<tag k="name" v="Nymoen" />
		<tag k="place" v="farm" />
		<tag k="ssr:stedsnr" v="256048" />
	</node>
	<node id="-819655" lat="64.5321305543" lon="11.6554416572">
		<tag k="name" v="Kløyvsetran" />
		<tag k="place" v="locality" />
		<tag k="ssr:stedsnr" v="925084" />
	</node>
	<node id="-819654" lat="64.5216545567" lon="11.5405141974">
		<tag k="fixme" v="consider place=hamlet" />
		<tag k="name" v="Alhus" />
		<tag k="place" v="farm" />
		<tag k="ssr:stedsnr" v="682168" />
	</node>
	<node id="-819652" lat="64.5538638928" lon="11.4215805545">
		<tag k="name" v="Fjellheim" />
		<tag k="place" v="farm" />
		<tag k="ssr:stedsnr" v="621114" />
	</node>
	<node id="-819636" lat="64.5463086293" lon="11.2606397102">
		<tag k="fixme" v="consider place=hamlet" />
		<tag k="name" v="Fossland" />
		<tag k="place" v="farm" />
		<tag k="ssr:stedsnr" v="742091" />
	</node>
	<node id="-819627" lat="64.5194694422" lon="11.2832361186">
		<tag k="name" v="Nyheim" />
		<tag k="place" v="farm" />
		<tag k="ssr:stedsnr" v="743186" />
	</node>
	<node id="-819618" lat="64.4319114474" lon="11.4509290051">
		<tag k="name" v="Selnesvikan" />
		<tag k="place" v="farm" />
		<tag k="ssr:stedsnr" v="742090" />
	</node>
	<node id="-819611" lat="64.474541666" lon="11.2664027715">
		<tag k="name" v="Strandval" />
		<tag k="place" v="farm" />
		<tag k="ssr:stedsnr" v="837098" />
	</node>
	<node id="-819609" lat="64.334186108" lon="11.3866638962">
		<tag k="name" v="Farkmoen" />
		<tag k="place" v="isolated_dwelling" />
		<tag k="ssr:stedsnr" v="742879" />
	</node>
	<node id="-819605" lat="64.5893777763" lon="11.2311694452">
		<tag k="name" v="Sjøberg" />
		<tag k="place" v="farm" />
		<tag k="ssr:stedsnr" v="560471" />
	</node>
	<node id="-819603" lat="64.5231583305" lon="11.2816250045">
		<tag k="name" v="Furuheim" />
		<tag k="place" v="farm" />
		<tag k="ssr:stedsnr" v="379174" />
	</node>
	<node id="-819598" lat="64.4725222221" lon="11.4466388977">
		<tag k="name" v="Stranda" />
		<tag k="place" v="quarter" />
		<tag k="ssr:stedsnr" v="454528" />
	</node>
	<node id="-819591" lat="64.3695361139" lon="11.4265083261">
		<tag k="name" v="Haugset" />
		<tag k="place" v="farm" />
		<tag k="ssr:stedsnr" v="584545" />
	</node>
	<node id="-819590" lat="64.6030055567" lon="11.4931750034">
		<tag k="name" v="Skjærivasstua" />
		<tag k="place" v="isolated_dwelling" />
		<tag k="ssr:stedsnr" v="290635" />
	</node>
	<node id="-819584" lat="64.4312611086" lon="11.4042694433">
		<tag k="name" v="Rønningen" />
		<tag k="place" v="isolated_dwelling" />
		<tag k="ssr:stedsnr" v="135093" />
	</node>
	<node id="-819583" lat="64.4188666685" lon="11.3618999941">
		<tag k="name" v="Straumsneset" />
		<tag k="place" v="farm" />
		<tag k="ssr:stedsnr" v="14045" />
	</node>
	<node id="-820628" lat="64.4907000023" lon="11.3617527784">
		<tag k="historic" v="shieling" />
		<tag k="name" v="Broemsetran" />
		<tag k="place" v="locality" />
		<tag k="ssr:stedsnr" v="351080" />
	</node>
	<node id="-819569" lat="64.5173111092" lon="11.290125005">
		<tag k="name" v="Hatlan" />
		<tag k="place" v="farm" />
		<tag k="ssr:stedsnr" v="485223" />
	</node>
	<node id="-819568" lat="64.6204777778" lon="11.146063892">
		<tag k="alt_name" v="Finnanger østre" />
		<tag k="name" v="Østre Finnanger" />
		<tag k="place" v="farm" />
		<tag k="ssr:stedsnr" v="958523" />
	</node>
	<node id="-819565" lat="64.4383444426" lon="11.5248500019">
		<tag k="alt_name" v="Tungramoen" />
		<tag k="name" v="Spillum" />
		<tag k="place" v="farm" />
		<tag k="ssr:stedsnr" v="74099" />
	</node>
	<node id="-819554" lat="64.5397527821" lon="11.2844777799">
		<tag k="fixme" v="consider place=hamlet" />
		<tag k="name" v="Øya" />
		<tag k="place" v="farm" />
		<tag k="ssr:stedsnr" v="378072" />
	</node>
	<node id="-819547" lat="64.5140472243" lon="11.3047305512">
		<tag k="name" v="Engan" />
		<tag k="place" v="farm" />
		<tag k="ssr:stedsnr" v="147526" />
	</node>
	<node id="-819535" lat="64.5881111154" lon="11.2517944363">
		<tag k="name" v="Solbakken" />
		<tag k="place" v="farm" />
		<tag k="ssr:stedsnr" v="14038" />
	</node>
	<node id="-819533" lat="64.322079219" lon="11.5856475459">
		<tag k="alt_name" v="Gravdalsetran" />
		<tag k="historic" v="shieling" />
		<tag k="name" v="Gravdalssetran" />
		<tag k="place" v="locality" />
		<tag k="ssr:stedsnr" v="837450" />
	</node>
	<node id="-819523" lat="64.2563361136" lon="11.6678777861">
		<tag k="alt_name" v="Rønningen" />
		<tag k="name" v="Øverrønningen" />
		<tag k="place" v="isolated_dwelling" />
		<tag k="ssr:stedsnr" v="681864" />
	</node>
	<node id="-819520" lat="64.429275003" lon="11.41200834">
		<tag k="fixme" v="consider place=hamlet" />
		<tag k="name" v="Selnes" />
		<tag k="place" v="farm" />
		<tag k="ssr:stedsnr" v="38795" />
	</node>
	<node id="-819512" lat="64.5166696414" lon="11.488733737">
		<tag k="fixme" v="consider place=hamlet" />
		<tag k="name" v="Ramsvika" />
		<tag k="place" v="farm" />
		<tag k="ssr:stedsnr" v="196141" />
	</node>
	<node id="-819508" lat="64.5748888923" lon="11.1925361047">
		<tag k="alt_name" v="Engan, store" />
		<tag k="loc_name" v="Engan" />
		<tag k="name" v="Store Engan" />
		<tag k="place" v="farm" />
		<tag k="ssr:stedsnr" v="620555" />
	</node>
	<node id="-819497" lat="64.3697976575" lon="11.4195478367">
		<tag k="fixme" v="consider place=hamlet" />
		<tag k="name" v="Flakk" />
		<tag k="place" v="farm" />
		<tag k="ssr:stedsnr" v="803941" />
	</node>
	<node id="-819492" lat="64.3863916702" lon="11.513750004">
		<tag k="alt_name" v="Skatmoen" />
		<tag k="name" v="Myrset" />
		<tag k="place" v="farm" />
		<tag k="ssr:stedsnr" v="499955" />
	</node>
	<node id="-819489" lat="64.482502774" lon="11.5405611074">
		<tag k="fixme" v="consider place=suburb, village or hamlet" />
		<tag k="name" v="Fossbrenna" />
		<tag k="place" v="quarter" />
		<tag k="ssr:stedsnr" v="446551" />
	</node>
	<node id="-819475" lat="64.4976666706" lon="11.4404749948">
		<tag k="name" v="Varpneset" />
		<tag k="place" v="farm" />
		<tag k="ssr:stedsnr" v="55085" />
	</node>
	<node id="-819473" lat="64.5365388853" lon="11.2888138955">
		<tag k="name" v="Granli" />
		<tag k="place" v="farm" />
		<tag k="ssr:stedsnr" v="742075" />
	</node>
	<node id="-819470" lat="64.5477388896" lon="11.2616722309">
		<tag k="name" v="Fossland" />
		<tag k="place" v="farm" />
		<tag k="ssr:stedsnr" v="940823" />
	</node>
	<node id="-819463" lat="64.5144000026" lon="11.2827111158">
		<tag k="name" v="Skomsvoll" />
		<tag k="place" v="farm" />
		<tag k="ssr:stedsnr" v="281006" />
	</node>
	<node id="-819453" lat="64.4454111072" lon="11.5212611121">
		<tag k="fixme" v="consider place=hamlet" />
		<tag k="name" v="Spillum" />
		<tag k="place" v="village" />
		<tag k="ssr:stedsnr" v="620013" />
	</node>
	<node id="-819450" lat="64.5668119682" lon="11.2179524874">
		<tag k="name" v="Dalen" />
		<tag k="place" v="locality" />
		<tag k="ssr:stedsnr" v="847529" />
	</node>
	<node id="-819443" lat="64.4785472185" lon="11.4873472305">
		<tag k="leisure" v="pitch" />
		<tag k="name" v="Namsos Ridesenter" />
		<tag k="ssr:stedsnr" v="362116" />
	</node>
	<node id="-819439" lat="64.5446500002" lon="11.5781638868">
		<tag k="alt_name" v="Lødding" />
		<tag k="name" v="Kvernmoen" />
		<tag k="place" v="farm" />
		<tag k="ssr:stedsnr" v="135077" />
	</node>
	<node id="-819437" lat="64.58790278" lon="11.6662249948">
		<tag k="name" v="Myrvoll" />
		<tag k="place" v="farm" />
		<tag k="ssr:stedsnr" v="499392" />
	</node>
	<node id="-819436" lat="64.3720466204" lon="11.365976847">
		<tag k="fixme" v="consider place=hamlet" />
		<tag k="name" v="Fjær" />
		<tag k="place" v="farm" />
		<tag k="ssr:stedsnr" v="499943" />
	</node>
	<node id="-819430" lat="64.5521361092" lon="11.2701749979">
		<tag k="name" v="Rønningen" />
		<tag k="place" v="farm" />
		<tag k="ssr:stedsnr" v="803094" />
	</node>
	<node id="-819429" lat="64.5969999976" lon="11.2571694487">
		<tag k="name" v="Vika" />
		<tag k="place" v="isolated_dwelling" />
		<tag k="ssr:stedsnr" v="560454" />
	</node>
	<node id="-819421" lat="64.5501222185" lon="11.4485111151">
		<tag k="name" v="Vikan" />
		<tag k="place" v="farm" />
		<tag k="ssr:stedsnr" v="135078" />
	</node>
	<node id="-819406" lat="64.574513885" lon="11.19678888">
		<tag k="name" v="Moen" />
		<tag k="place" v="farm" />
		<tag k="ssr:stedsnr" v="681573" />
	</node>
	<node id="-819575" lat="64.6079916628" lon="11.172924993">
		<tag k="historic" v="shieling" />
		<tag k="name" v="Tømmerviksetran" />
		<tag k="place" v="locality" />
		<tag k="ssr:stedsnr" v="412490" />
	</node>
	<node id="-819385" lat="64.5281388865" lon="11.6582027729">
		<tag k="name" v="Fugllisetran" />
		<tag k="place" v="locality" />
		<tag k="ssr:stedsnr" v="379164" />
	</node>
	<node id="-819374" lat="64.5833194488" lon="11.6327027739">
		<tag k="name" v="Bergem" />
		<tag k="place" v="farm" />
		<tag k="ssr:stedsnr" v="14023" />
	</node>
	<node id="-819370" lat="64.4056944462" lon="11.4400388926">
		<tag k="name" v="Skogmo" />
		<tag k="place" v="farm" />
		<tag k="ssr:stedsnr" v="257083" />
	</node>
	<node id="-819369" lat="64.5272555559" lon="11.5392388973">
		<tag k="name" v="Alhusstranda" />
		<tag k="place" v="farm" />
		<tag k="ssr:stedsnr" v="197209" />
	</node>
	<node id="-819365" lat="64.3947027752" lon="11.3164138893">
		<tag k="alt_name" v="Stangeråa" />
		<tag k="name" v="Stangaråa" />
		<tag k="place" v="isolated_dwelling" />
		<tag k="ssr:stedsnr" v="378056" />
	</node>
	<node id="-819362" lat="64.5473744719" lon="11.5301955431">
		<tag k="name" v="Landfallvika" />
		<tag k="place" v="farm" />
		<tag k="ssr:stedsnr" v="135076" />
	</node>
	<node id="-819356" lat="64.5770055599" lon="11.621936103">
		<tag k="name" v="Hestvika" />
		<tag k="place" v="farm" />
		<tag k="ssr:stedsnr" v="14024" />
	</node>
	<node id="-819352" lat="64.4556777761" lon="11.443438897">
		<tag k="alt_name" v="Merraneset" />
		<tag k="name" v="Mærraneset" />
		<tag k="place" v="farm" />
		<tag k="ssr:stedsnr" v="741005" />
	</node>
	<node id="-819853" lat="64.5671194431" lon="11.2160777689">
		<tag k="name" v="Botnet" />
		<tag k="place" v="farm" />
		<tag k="ssr:stedsnr" v="958581" />
	</node>
	<node id="-819344" lat="64.3672249989" lon="11.3548749933">
		<tag k="name" v="Fjær" />
		<tag k="place" v="hamlet" />
		<tag k="ssr:stedsnr" v="196940" />
	</node>
	<node id="-819333" lat="64.58802778" lon="11.2420305601">
		<tag k="name" v="Einstad" />
		<tag k="place" v="farm" />
		<tag k="ssr:stedsnr" v="378040" />
	</node>
	<node id="-819331" lat="64.6444972202" lon="11.0743027811">
		<tag k="name" v="Herreplassen" />
		<tag k="place" v="locality" />
		<tag k="ssr:stedsnr" v="958510" />
	</node>
	<node id="-819325" lat="64.4286722265" lon="11.4260111196">
		<tag k="name" v="Fagerheim" />
		<tag k="place" v="farm" />
		<tag k="ssr:stedsnr" v="706740" />
	</node>
	<node id="-819323" lat="64.5790168978" lon="11.1903387064">
		<tag k="fixme" v="consider place=hamlet" />
		<tag k="name" v="Skorstad" />
		<tag k="place" v="farm" />
		<tag k="ssr:stedsnr" v="48650" />
	</node>
	<node id="-819322" lat="64.5313999974" lon="11.5447305638">
		<tag k="name" v="Sørenget" />
		<tag k="place" v="farm" />
		<tag k="ssr:stedsnr" v="500203" />
	</node>
	<node id="-819321" lat="64.5263083329" lon="11.2058388869">
		<tag k="name" v="Litlkleiva" />
		<tag k="place" v="locality" />
		<tag k="ssr:stedsnr" v="136698" />
	</node>
	<node id="-819292" lat="64.5895222249" lon="11.2132750045">
		<tag k="name" v="Hestvika" />
		<tag k="place" v="farm" />
		<tag k="ssr:stedsnr" v="317547" />
	</node>
	<node id="-819287" lat="64.4655833354" lon="11.4978416597">
		<tag k="name" v="Namsos" />
		<tag k="place" v="town" />
		<tag k="ssr:stedsnr" v="317007" />
	</node>
	<node id="-819281" lat="64.5035202384" lon="11.4594027693">
		<tag k="name" v="Lænn" />
		<tag k="place" v="farm" />
		<tag k="ssr:stedsnr" v="402013" />
	</node>
	<node id="-819277" lat="64.5397666666" lon="11.266769451">
		<tag k="amenity" v="school" />
		<tag k="name" v="Otterøy skole" />
		<tag k="ssr:stedsnr" v="889229" />
	</node>
	<node id="-819266" lat="64.5418305529" lon="11.2647472234">
		<tag k="name" v="Høgda" />
		<tag k="place" v="farm" />
		<tag k="ssr:stedsnr" v="318081" />
	</node>
	<node id="-819263" lat="64.6317892218" lon="11.068673815">
		<tag k="fixme" v="consider place=hamlet" />
		<tag k="name" v="Aglen" />
		<tag k="place" v="farm" />
		<tag k="ssr:stedsnr" v="924484" />
	</node>
	<node id="-819261" lat="64.4868944434" lon="11.3304416575">
		<tag k="name" v="Engesmyra" />
		<tag k="place" v="isolated_dwelling" />
		<tag k="ssr:stedsnr" v="958077" />
	</node>
	<node id="-819260" lat="64.4595500025" lon="11.2245250044">
		<tag k="alt_name" v="Lervika" />
		<tag k="name" v="Leirvika" />
		<tag k="place" v="farm" />
		<tag k="ssr:stedsnr" v="74066" />
	</node>
	<node id="-819259" lat="64.5716136105" lon="11.1749697353">
		<tag k="name" v="Skorstad" />
		<tag k="place" v="hamlet" />
		<tag k="ssr:stedsnr" v="971440" />
	</node>
	<node id="-819257" lat="64.3379758471" lon="11.5485728763">
		<tag k="fixme" v="consider place=hamlet" />
		<tag k="name" v="Romstad" />
		<tag k="place" v="farm" />
		<tag k="ssr:stedsnr" v="329144" />
	</node>
	<node id="-820574" lat="64.4273666698" lon="11.4202583368">
		<tag k="fixme" v="consider place=hamlet" />
		<tag k="name" v="Selnes" />
		<tag k="place" v="village" />
		<tag k="ssr:stedsnr" v="924082" />
	</node>
	<node id="-819250" lat="64.409241665" lon="11.4781416662">
		<tag k="alt_name" v="Klingen" />
		<tag k="fixme" v="consider place=hamlet" />
		<tag k="name" v="Klinga" />
		<tag k="place" v="village" />
		<tag k="ssr:stedsnr" v="257071" />
	</node>
	<node id="-819242" lat="64.5457749996" lon="11.6342944446">
		<tag k="name" v="Skakkanovsetran" />
		<tag k="place" v="locality" />
		<tag k="ssr:stedsnr" v="803077" />
	</node>
	<node id="-819233" lat="64.386186113" lon="11.5113888855">
		<tag k="name" v="Solbakken" />
		<tag k="place" v="farm" />
		<tag k="ssr:stedsnr" v="159753" />
	</node>
	<node id="-819226" lat="64.6222055549" lon="11.6618277717">
		<tag k="name" v="Brunsetran" />
		<tag k="place" v="locality" />
		<tag k="ssr:stedsnr" v="439381" />
	</node>
	<node id="-819225" lat="64.5352750027" lon="11.300119441">
		<tag k="name" v="Breistranda" />
		<tag k="place" v="farm" />
		<tag k="ssr:stedsnr" v="697746" />
	</node>
	<node id="-818180" lat="64.4430833357" lon="11.5199055568">
		<tag k="name" v="Spillum" />
		<tag k="place" v="farm" />
		<tag k="ssr:stedsnr" v="29571" />
	</node>
	<node id="-819213" lat="64.5304333372" lon="11.3119249911">
		<tag k="name" v="Sørheim" />
		<tag k="place" v="farm" />
		<tag k="ssr:stedsnr" v="500196" />
	</node>
	<node id="-819209" lat="64.4341110274" lon="11.4095868065">
		<tag k="name" v="Selnes" />
		<tag k="place" v="farm" />
		<tag k="ssr:stedsnr" v="863104" />
	</node>
	<node id="-819205" lat="64.3381166703" lon="11.5490222249">
		<tag k="name" v="Romstad" />
		<tag k="place" v="hamlet" />
		<tag k="ssr:stedsnr" v="75929" />
	</node>
	<node id="-819204" lat="64.5270361125" lon="11.276680555">
		<tag k="name" v="Otterøy" />
		<tag k="place" v="farm" />
		<tag k="ssr:stedsnr" v="197191" />
	</node>
</osm>
