<?xml version="1.0" encoding="UTF-8"?>
<osm generator="osmapis" version="0.6">
	<node id="-826012" lat="64.4075111706" lon="11.2829217748">
		<tag k="fixme" v="consider boundary=protected_area and relevant protect_class if not nature reserve" />
		<tag k="leisure" v="nature_reserve" />
		<tag k="name" v="Hemna naturreservat" />
		<tag k="ssr:stedsnr" v="987917" />
	</node>
	<node id="-824628" lat="64.6208000002" lon="11.7830416714">
		<tag k="name" v="Alm og Ekorndal statsalmenning" />
		<tag k="place" v="locality" />
		<tag k="ssr:stedsnr" v="351290" />
	</node>
	<node id="-825995" lat="64.6022763068" lon="11.9031467737">
		<tag k="fixme" v="consider boundary=protected_area and relevant protect_class if not nature reserve" />
		<tag k="leisure" v="nature_reserve" />
		<tag k="name" v="Almdalen-Ekorndalen naturreservat" />
		<tag k="ssr:stedsnr" v="981204" />
	</node>
	<node id="-823882" lat="64.3563916664" lon="11.3386077619">
		<tag k="fixme" v="consider boundary=protected_area and relevant protect_class if not nature reserve" />
		<tag k="leisure" v="nature_reserve" />
		<tag k="name" v="Olsengelva naturreservat" />
		<tag k="ssr:stedsnr" v="981197" />
	</node>
	<node id="-825413" lat="64.5618361089" lon="11.7033722273">
		<tag k="fixme" v="consider boundary=protected_area and relevant protect_class if not nature reserve" />
		<tag k="leisure" v="nature_reserve" />
		<tag k="name" v="Lødding naturreservat" />
		<tag k="ssr:stedsnr" v="970155" />
	</node>
	<node id="-823939" lat="64.3963916656" lon="11.6539944427">
		<tag k="name" v="Finntjønn statsallmenning" />
		<tag k="place" v="locality" />
		<tag k="ssr:stedsnr" v="47367" />
	</node>
</osm>
