<?xml version="1.0" encoding="UTF-8"?>
<osm generator="osmapis" version="0.6">
	<node id="-825856" lat="64.4323972228" lon="11.4972861015">
		<tag k="bridge" v="yes" />
		<tag k="layer" v="1" />
		<tag k="name" v="Sævikbrua" />
		<tag k="ssr:stedsnr" v="533493" />
	</node>
	<node id="-823805" lat="64.4723000017" lon="11.5789249983">
		<tag k="aeroway" v="aerodrome" />
		<tag k="alt_name" v="Namsos" />
		<tag k="name" v="Namsos lufthavn" />
		<tag k="old_name" v="Namsos lufthavn Høknesøra" />
		<tag k="ssr:stedsnr" v="754011" />
	</node>
	<node id="-823927" lat="64.5445861081" lon="11.2616833261">
		<tag k="bridge" v="yes" />
		<tag k="layer" v="1" />
		<tag k="name" v="Fosslandselvbrua" />
		<tag k="ssr:stedsnr" v="169615" />
	</node>
	<node id="-824437" lat="64.4694916662" lon="11.4848555652">
		<tag k="barrier" v="toll_booth" />
		<tag k="name" v="Vestbyen" />
		<tag k="ssr:stedsnr" v="230581" />
	</node>
	<node id="-824177" lat="64.4873916693" lon="11.3825138905">
		<tag k="bridge" v="yes" />
		<tag k="layer" v="1" />
		<tag k="name" v="Skramstadelvbrua" />
		<tag k="ssr:stedsnr" v="291704" />
	</node>
	<node id="-824431" lat="64.4702972212" lon="11.5407138924">
		<tag k="bridge" v="yes" />
		<tag k="layer" v="1" />
		<tag k="name" v="Høyknesundergangen" />
		<tag k="ssr:stedsnr" v="48627" />
	</node>
	<node id="-824941" lat="64.5707138875" lon="11.1676805569">
		<tag k="bridge" v="yes" />
		<tag k="layer" v="1" />
		<tag k="name" v="Kvernhuselvbrua" />
		<tag k="ssr:stedsnr" v="776697" />
	</node>
	<node id="-825959" lat="64.4020750044" lon="11.4273999919">
		<tag k="junction" v="yes" />
		<tag k="name" v="Selneskorsen" />
		<tag k="place" v="locality" />
		<tag k="ssr:stedsnr" v="99781" />
	</node>
	<node id="-823522" lat="64.3467027745" lon="11.5676111024">
		<tag k="highway" v="path" />
		<tag k="name" v="Sjuttubakkan" />
		<tag k="ssr:stedsnr" v="38573" />
	</node>
	<node id="-824026" lat="64.4768083377" lon="11.4845611127">
		<tag k="barrier" v="toll_booth" />
		<tag k="name" v="Bråten" />
		<tag k="ssr:stedsnr" v="351581" />
	</node>
	<node id="-824529" lat="64.5010305566" lon="11.3305916694">
		<tag k="highway" v="path" />
		<tag k="name" v="Petterseterstien" />
		<tag k="ssr:stedsnr" v="412072" />
	</node>
	<node id="-823631" lat="64.4687277797" lon="11.5431833236">
		<tag k="bridge" v="yes" />
		<tag k="layer" v="1" />
		<tag k="name" v="Høykneshyllgangbrua" />
		<tag k="ssr:stedsnr" v="837687" />
	</node>
	<node id="-823502" lat="64.5120361079" lon="11.2982527785">
		<tag k="bridge" v="yes" />
		<tag k="layer" v="1" />
		<tag k="name" v="Vikaelvbrua" />
		<tag k="ssr:stedsnr" v="169548" />
	</node>
	<node id="-824010" lat="64.469944444" lon="11.5208138865">
		<tag k="barrier" v="toll_booth" />
		<tag k="name" v="Østbyen" />
		<tag k="ssr:stedsnr" v="48562" />
	</node>
	<node id="-825536" lat="64.3023555578" lon="11.5245527879">
		<tag k="ford" v="yes" />
		<tag k="name" v="Kuvadet" />
		<tag k="place" v="locality" />
		<tag k="ssr:stedsnr" v="169455" />
	</node>
	<node id="-825914" lat="64.5767972242" lon="11.2412666658">
		<tag k="bridge" v="yes" />
		<tag k="layer" v="1" />
		<tag k="name" v="Åbrua" />
		<tag k="ssr:stedsnr" v="837626" />
	</node>
	<node id="-825647" lat="64.2670583306" lon="11.6330611143">
		<tag k="ford" v="yes" />
		<tag k="name" v="Skognvadet" />
		<tag k="place" v="locality" />
		<tag k="ssr:stedsnr" v="351432" />
	</node>
	<node id="-825771" lat="64.4771527817" lon="11.5810361026">
		<tag k="bridge" v="yes" />
		<tag k="layer" v="1" />
		<tag k="name" v="Ålbergbrua" />
		<tag k="ssr:stedsnr" v="169494" />
	</node>
	<node id="-824232" lat="64.4673777781" lon="11.5955277855">
		<tag k="bridge" v="yes" />
		<tag k="layer" v="1" />
		<tag k="name" v="Tavlåbrua" />
		<tag k="ssr:stedsnr" v="776615" />
	</node>
	<node id="-825890" lat="64.4602833374" lon="11.5528944395">
		<tag k="bridge" v="yes" />
		<tag k="layer" v="1" />
		<tag k="name" v="Lauvhammarbrua" />
		<tag k="ssr:stedsnr" v="654640" />
	</node>
	<node id="-824481" lat="64.3830916708" lon="11.3964416693">
		<tag k="bridge" v="yes" />
		<tag k="layer" v="1" />
		<tag k="name" v="Lonundergangen" />
		<tag k="ssr:stedsnr" v="898685" />
	</node>
	<node id="-823968" lat="64.5541805572" lon="11.4287777733">
		<tag k="highway" v="path" />
		<tag k="name" v="Olastien" />
		<tag k="ssr:stedsnr" v="898619" />
	</node>
	<node id="-824087" lat="64.5129638922" lon="11.29756389">
		<tag k="bridge" v="yes" />
		<tag k="layer" v="1" />
		<tag k="name" v="Myraelvbrua" />
		<tag k="ssr:stedsnr" v="898659" />
	</node>
	<node id="-824598" lat="64.5918638879" lon="11.7220083355">
		<tag k="bridge" v="yes" />
		<tag k="layer" v="1" />
		<tag k="name" v="Fossvikbrua" />
		<tag k="ssr:stedsnr" v="472612" />
	</node>
	<node id="-824980" lat="64.4389972227" lon="11.5340527719">
		<tag k="highway" v="path" />
		<tag k="name" v="Fjellkleiva" />
		<tag k="ssr:stedsnr" v="454561" />
	</node>
	<node id="-825873" lat="64.5322777782" lon="11.3653749905">
		<tag k="highway" v="path" />
		<tag k="name" v="Gammelstien" />
		<tag k="ssr:stedsnr" v="333772" />
	</node>
	<node id="-824848" lat="64.4704416667" lon="11.5056722286">
		<tag k="aeroway" v="airstrip" />
		<tag k="name" v="Namsos helikopterplass, Sykehuset Namsos" />
		<tag k="ssr:stedsnr" v="102563" />
	</node>
	<node id="-823817" lat="64.4523499985" lon="11.5217805573">
		<tag k="barrier" v="toll_booth" />
		<tag k="name" v="Namsosbrua" />
		<tag k="ssr:stedsnr" v="169592" />
	</node>
	<node id="-825220" lat="64.4874638906" lon="11.4778777848">
		<tag k="bridge" v="yes" />
		<tag k="layer" v="1" />
		<tag k="name" v="Toddombrua" />
		<tag k="ssr:stedsnr" v="837537" />
	</node>
	<node id="-825387" lat="64.5797027781" lon="11.1892250002">
		<tag k="bridge" v="yes" />
		<tag k="layer" v="1" />
		<tag k="name" v="Storskorstadbrua" />
		<tag k="ssr:stedsnr" v="109625" />
	</node>
</osm>
