<?xml version="1.0" encoding="UTF-8"?>
<osm generator="osmapis" version="0.6">
	<node id="-825339" lat="64.6549027803" lon="10.8619583326">
		<tag k="name" v="Skaltaren" />
		<tag k="natural" v="shoal" />
		<tag k="place" v="locality" />
		<tag k="ssr:stedsnr" v="26576" />
	</node>
	<node id="-825334" lat="64.6398833322" lon="11.0542777739">
		<tag k="fixme" v="consider seamark:type=rock or natural=shoal" />
		<tag k="name" v="Skåkan" />
		<tag k="place" v="islet" />
		<tag k="ssr:stedsnr" v="560529" />
	</node>
	<node id="-825328" lat="64.4185138892" lon="11.3539083362">
		<tag k="name" v="Straumsneset" />
		<tag k="natural" v="cape" />
		<tag k="ssr:stedsnr" v="742118" />
	</node>
	<node id="-825327" lat="64.6689166664" lon="10.9543638843">
		<tag k="name" v="Leirknausen" />
		<tag k="natural" v="shoal" />
		<tag k="place" v="locality" />
		<tag k="ssr:stedsnr" v="208519" />
	</node>
	<node id="-825326" lat="64.6179833347" lon="11.2229999973">
		<tag k="name" v="Langstranda" />
		<tag k="natural" v="beach" />
		<tag k="place" v="locality" />
		<tag k="ssr:stedsnr" v="229123" />
	</node>
	<node id="-825322" lat="64.5711111095" lon="11.5288527767">
		<tag k="name" v="Tetbukta" />
		<tag k="natural" v="bay" />
		<tag k="old_name" v="Tetbugta" />
		<tag k="ssr:stedsnr" v="692392" />
	</node>
	<node id="-825310" lat="64.549738887" lon="11.139836112">
		<tag k="name" v="Larsvika" />
		<tag k="natural" v="bay" />
		<tag k="ssr:stedsnr" v="681646" />
	</node>
	<node id="-825306" lat="64.5771722216" lon="11.6082527789">
		<tag k="fixme" v="consider seamark:type=rock or natural=shoal" />
		<tag k="name" v="Rypnesskjæret" />
		<tag k="place" v="islet" />
		<tag k="ssr:stedsnr" v="206383" />
	</node>
	<node id="-825305" lat="64.6145805593" lon="11.036447213">
		<tag k="name" v="Rørvika" />
		<tag k="natural" v="bay" />
		<tag k="ssr:stedsnr" v="534957" />
	</node>
	<node id="-825304" lat="64.3914555583" lon="11.3351888874">
		<tag k="name" v="Løvsneset" />
		<tag k="natural" v="cape" />
		<tag k="ssr:stedsnr" v="149254" />
	</node>
	<node id="-825303" lat="64.6556750024" lon="10.9098472228">
		<tag k="name" v="Småtaran" />
		<tag k="natural" v="shoal" />
		<tag k="place" v="locality" />
		<tag k="ssr:stedsnr" v="754594" />
	</node>
	<node id="-825302" lat="64.5707111148" lon="11.3435333395">
		<tag k="name" v="Frøvarpstranda" />
		<tag k="natural" v="beach" />
		<tag k="place" v="locality" />
		<tag k="ssr:stedsnr" v="76017" />
	</node>
	<node id="-825293" lat="64.4973305594" lon="11.4401111177">
		<tag k="name" v="Varpneset" />
		<tag k="natural" v="cape" />
		<tag k="ssr:stedsnr" v="864253" />
	</node>
	<node id="-825288" lat="64.4890361133" lon="11.2669833335">
		<tag k="name" v="Ørnskaget" />
		<tag k="natural" v="cape" />
		<tag k="ssr:stedsnr" v="169418" />
	</node>
	<node id="-825286" lat="64.5860999993" lon="11.603899994">
		<tag k="name" v="Jektvikstraumen" />
		<tag k="natural" v="strait" />
		<tag k="old_name" v="Jægtvikstraumen" />
		<tag k="ssr:stedsnr" v="75490" />
	</node>
	<node id="-825276" lat="64.5312805535" lon="11.4413055517">
		<tag k="name" v="Groftvika" />
		<tag k="natural" v="bay" />
		<tag k="ssr:stedsnr" v="682206" />
	</node>
	<node id="-825275" lat="64.5616083291" lon="11.5630611087">
		<tag k="name" v="Raftøya" />
		<tag k="place" v="islet" />
		<tag k="ssr:stedsnr" v="76010" />
	</node>
	<node id="-825259" lat="64.5554361088" lon="11.5430861187">
		<tag k="name" v="Bjønndalsbukta" />
		<tag k="natural" v="bay" />
		<tag k="ssr:stedsnr" v="109608" />
	</node>
	<node id="-825246" lat="64.5150138845" lon="11.5091083341">
		<tag k="name" v="Bekkaleira" />
		<tag k="natural" v="bay" />
		<tag k="ssr:stedsnr" v="257150" />
	</node>
	<node id="-823621" lat="64.6191777766" lon="11.2063555514">
		<tag k="name" v="Leisundet" />
		<tag k="natural" v="strait" />
		<tag k="ssr:stedsnr" v="317454" />
	</node>
	<node id="-825244" lat="64.6932027763" lon="10.9487916754">
		<tag k="name" v="Angeltjuven" />
		<tag k="natural" v="shoal" />
		<tag k="place" v="locality" />
		<tag k="ssr:stedsnr" v="803985" />
	</node>
	<node id="-825238" lat="64.4112333327" lon="11.3598722305">
		<tag k="name" v="Kubbåtøya" />
		<tag k="place" v="islet" />
		<tag k="ssr:stedsnr" v="620067" />
	</node>
	<node id="-825233" lat="64.5648749972" lon="11.2794583263">
		<tag k="name" v="Hammaren" />
		<tag k="natural" v="cape" />
		<tag k="ssr:stedsnr" v="197007" />
	</node>
	<node id="-825226" lat="64.5190611153" lon="11.5291361183">
		<tag k="name" v="Vemundvikbukta" />
		<tag k="natural" v="bay" />
		<tag k="ssr:stedsnr" v="621146" />
	</node>
	<node id="-825225" lat="64.3716472195" lon="11.3960305621">
		<tag k="name" v="Flakkøya" />
		<tag k="place" v="islet" />
		<tag k="ssr:stedsnr" v="559961" />
	</node>
	<node id="-825222" lat="64.5452333352" lon="11.2836194356">
		<tag k="name" v="Litløya" />
		<tag k="place" v="islet" />
		<tag k="ssr:stedsnr" v="925112" />
	</node>
	<node id="-825217" lat="64.5588472837" lon="11.5176078034">
		<tag k="name" v="Litle Saltkjeløya" />
		<tag k="place" v="islet" />
		<tag k="ssr:stedsnr" v="978720" />
	</node>
	<node id="-825216" lat="64.55905833" lon="11.5483583396">
		<tag k="name" v="Tennholmen" />
		<tag k="old_name" v="Tenholmen" />
		<tag k="place" v="islet" />
		<tag k="ssr:stedsnr" v="692398" />
	</node>
	<node id="-825210" lat="64.5812638905" lon="11.1844694386">
		<tag k="name" v="Skorstadvika" />
		<tag k="natural" v="bay" />
		<tag k="ssr:stedsnr" v="134617" />
	</node>
	<node id="-825207" lat="64.6114138854" lon="11.2467361009">
		<tag k="name" v="Barøyodden" />
		<tag k="natural" v="cape" />
		<tag k="ssr:stedsnr" v="864528" />
	</node>
	<node id="-825201" lat="64.3732583357" lon="11.3307583347">
		<tag k="name" v="Fallbukta" />
		<tag k="natural" v="bay" />
		<tag k="ssr:stedsnr" v="888508" />
	</node>
	<node id="-825200" lat="64.5650611115" lon="11.5226694411">
		<tag k="name" v="Kjettøya" />
		<tag k="place" v="islet" />
		<tag k="ssr:stedsnr" v="76004" />
	</node>
	<node id="-825197" lat="64.4436861096" lon="11.4856972201">
		<tag k="name" v="Sandvika" />
		<tag k="natural" v="bay" />
		<tag k="ssr:stedsnr" v="90675" />
	</node>
	<node id="-825194" lat="64.5513638921" lon="11.1367305563">
		<tag k="name" v="Larsvikodden" />
		<tag k="natural" v="cape" />
		<tag k="ssr:stedsnr" v="715584" />
	</node>
	<node id="-823612" lat="64.5441944417" lon="11.4798694454">
		<tag k="name" v="Bukkøya" />
		<tag k="place" v="islet" />
		<tag k="ssr:stedsnr" v="500103" />
	</node>
	<node id="-825188" lat="64.5249527785" lon="11.4773750059">
		<tag k="name" v="Seterøya" />
		<tag k="place" v="islet" />
		<tag k="ssr:stedsnr" v="743202" />
	</node>
	<node id="-825187" lat="64.5556438811" lon="11.5180761347">
		<tag k="alt_name" v="Saltkjellholmen" />
		<tag k="name" v="Saltkjeløya" />
		<tag k="place" v="islet" />
		<tag k="ssr:stedsnr" v="742104" />
	</node>
	<node id="-825186" lat="64.6468833345" lon="11.0706944343">
		<tag k="name" v="Kringlotvika" />
		<tag k="natural" v="bay" />
		<tag k="ssr:stedsnr" v="109982" />
	</node>
	<node id="-825176" lat="64.6410277805" lon="11.1300055626">
		<tag k="name" v="Sandvikodden" />
		<tag k="natural" v="cape" />
		<tag k="ssr:stedsnr" v="714352" />
	</node>
	<node id="-825174" lat="64.5161722214" lon="11.4621333262">
		<tag k="name" v="Åkervikodden" />
		<tag k="natural" v="cape" />
		<tag k="ssr:stedsnr" v="879533" />
	</node>
	<node id="-825173" lat="64.4665555597" lon="11.5255999934">
		<tag k="fixme" v="consider seamark:type=rock or natural=shoal" />
		<tag k="name" v="Angelskjæret" />
		<tag k="place" v="islet" />
		<tag k="ssr:stedsnr" v="818571" />
	</node>
	<node id="-825172" lat="64.453390997" lon="11.3803223293">
		<tag k="name" v="Rørholmen" />
		<tag k="place" v="islet" />
		<tag k="ssr:stedsnr" v="543128" />
	</node>
	<node id="-825158" lat="64.6103083315" lon="11.5934999994">
		<tag k="bay" v="fjord" />
		<tag k="name" v="Røyklibotnet" />
		<tag k="natural" v="bay" />
		<tag k="ssr:stedsnr" v="196452" />
	</node>
	<node id="-825157" lat="64.5494027742" lon="11.3067305519">
		<tag k="fixme" v="consider seamark:type=rock or natural=shoal" />
		<tag k="name" v="Fosslandsskjæret" />
		<tag k="place" v="islet" />
		<tag k="ssr:stedsnr" v="14073" />
	</node>
	<node id="-825149" lat="64.5704027822" lon="11.5538000069">
		<tag k="name" v="Blikengbukta" />
		<tag k="natural" v="bay" />
		<tag k="ssr:stedsnr" v="655672" />
	</node>
	<node id="-825146" lat="64.5561777739" lon="11.1371388908">
		<tag k="name" v="Makrellholet" />
		<tag k="natural" v="bay" />
		<tag k="ssr:stedsnr" v="715579" />
	</node>
	<node id="-825144" lat="64.5839861126" lon="11.7279805566">
		<tag k="name" v="Hestvikodden" />
		<tag k="natural" v="cape" />
		<tag k="ssr:stedsnr" v="716362" />
	</node>
	<node id="-825140" lat="64.5635944488" lon="11.5043666749">
		<tag k="name" v="Sursildvika" />
		<tag k="natural" v="bay" />
		<tag k="ssr:stedsnr" v="838639" />
	</node>
	<node id="-825138" lat="64.5573611081" lon="11.5126749984">
		<tag k="name" v="Bjønnholmen" />
		<tag k="place" v="islet" />
		<tag k="ssr:stedsnr" v="109585" />
	</node>
	<node id="-823944" lat="64.4000694447" lon="11.3438027743">
		<tag k="name" v="sandvika" />
		<tag k="natural" v="bay" />
		<tag k="ssr:stedsnr" v="644759" />
	</node>
	<node id="-825134" lat="64.6186333324" lon="11.0274222249">
		<tag k="name" v="Nordodden" />
		<tag k="natural" v="cape" />
		<tag k="ssr:stedsnr" v="412932" />
	</node>
	<node id="-825131" lat="64.4302499992" lon="11.3809972234">
		<tag k="name" v="Breivika" />
		<tag k="natural" v="bay" />
		<tag k="ssr:stedsnr" v="742098" />
	</node>
	<node id="-825128" lat="64.633394446" lon="11.0385666642">
		<tag k="name" v="Smoholmen" />
		<tag k="place" v="islet" />
		<tag k="ssr:stedsnr" v="412933" />
	</node>
	<node id="-825118" lat="64.3998722194" lon="11.3679388851">
		<tag k="name" v="Tauskjerringholmen" />
		<tag k="place" v="islet" />
		<tag k="ssr:stedsnr" v="341792" />
	</node>
	<node id="-825108" lat="64.6197277803" lon="11.2125333341">
		<tag k="alt_name" v="Leiholmen" />
		<tag k="fixme" v="consider seamark:type=rock or natural=shoal" />
		<tag k="name" v="Leiskjæret" />
		<tag k="place" v="islet" />
		<tag k="ssr:stedsnr" v="878315" />
	</node>
	<node id="-825103" lat="64.5340083359" lon="11.1542833274">
		<tag k="name" v="Rapet" />
		<tag k="natural" v="cape" />
		<tag k="ssr:stedsnr" v="742656" />
	</node>
	<node id="-825101" lat="64.4357111077" lon="11.462491658">
		<tag k="name" v="Oldervika" />
		<tag k="natural" v="bay" />
		<tag k="ssr:stedsnr" v="924020" />
	</node>
	<node id="-825082" lat="64.5476805555" lon="11.4911499959">
		<tag k="fixme" v="consider seamark:type=rock or natural=shoal" />
		<tag k="name" v="Haukøyskjæret" />
		<tag k="place" v="islet" />
		<tag k="ssr:stedsnr" v="24388" />
	</node>
	<node id="-825080" lat="64.6700416656" lon="10.8918527678">
		<tag k="name" v="Nærøytaran" />
		<tag k="natural" v="shoal" />
		<tag k="place" v="locality" />
		<tag k="ssr:stedsnr" v="937558" />
	</node>
	<node id="-825069" lat="64.614949998" lon="11.241897229">
		<tag k="name" v="Setervika" />
		<tag k="natural" v="bay" />
		<tag k="ssr:stedsnr" v="229085" />
	</node>
	<node id="-825065" lat="64.561202777" lon="11.5811555456">
		<tag k="name" v="Kjeøya" />
		<tag k="place" v="islet" />
		<tag k="ssr:stedsnr" v="378097" />
	</node>
	<node id="-825060" lat="64.6081861071" lon="11.0239361195">
		<tag k="name" v="Knappholman" />
		<tag k="place" v="islet" />
		<tag k="ssr:stedsnr" v="813909" />
	</node>
	<node id="-825053" lat="64.5739500023" lon="11.1558944498">
		<tag k="name" v="Tøllevika" />
		<tag k="natural" v="bay" />
		<tag k="ssr:stedsnr" v="802625" />
	</node>
	<node id="-825050" lat="64.592322224" lon="11.6145888972">
		<tag k="name" v="Fossbukta" />
		<tag k="natural" v="bay" />
		<tag k="ssr:stedsnr" v="290680" />
	</node>
	<node id="-825048" lat="64.549730555" lon="11.5170805583">
		<tag k="name" v="Finnpongholman" />
		<tag k="place" v="islet" />
		<tag k="ssr:stedsnr" v="838657" />
	</node>
	<node id="-825035" lat="64.5558416631" lon="11.5853138796">
		<tag k="name" v="Stålholmen" />
		<tag k="place" v="islet" />
		<tag k="ssr:stedsnr" v="378093" />
	</node>
	<node id="-825034" lat="64.517558331" lon="11.4669500099">
		<tag k="name" v="Gåsneset" />
		<tag k="natural" v="cape" />
		<tag k="ssr:stedsnr" v="318146" />
	</node>
	<node id="-825025" lat="64.4618611088" lon="11.4771861153">
		<tag k="name" v="Beretvika" />
		<tag k="natural" v="bay" />
		<tag k="ssr:stedsnr" v="818576" />
	</node>
	<node id="-825023" lat="64.6134055584" lon="11.2576555458">
		<tag k="bay" v="fjord" />
		<tag k="name" v="Raudsunda" />
		<tag k="natural" v="bay" />
		<tag k="ssr:stedsnr" v="196447" />
	</node>
	<node id="-825022" lat="64.5440388893" lon="11.136094451">
		<tag k="name" v="Krokodden" />
		<tag k="natural" v="cape" />
		<tag k="ssr:stedsnr" v="378657" />
	</node>
	<node id="-825006" lat="64.4755166649" lon="11.4298388925">
		<tag k="name" v="Hermannsteinen" />
		<tag k="natural" v="cape" />
		<tag k="ssr:stedsnr" v="802060" />
	</node>
	<node id="-825000" lat="64.6040333344" lon="11.6047583414">
		<tag k="name" v="Litlbrannøya" />
		<tag k="place" v="islet" />
		<tag k="ssr:stedsnr" v="560492" />
	</node>
	<node id="-824993" lat="64.6063972218" lon="11.6071583405">
		<tag k="name" v="Storbrannøya" />
		<tag k="place" v="islet" />
		<tag k="ssr:stedsnr" v="560493" />
	</node>
	<node id="-824986" lat="64.5341000018" lon="11.4791388829">
		<tag k="alt_name" v="Aukan" />
		<tag k="fixme" v="multiple name tags, choose one and add the other to alt_name" />
		<tag k="name" v="Auka;Brannøya" />
		<tag k="place" v="islet" />
		<tag k="ssr:stedsnr" v="14059" />
	</node>
	<node id="-824984" lat="64.555813889" lon="11.2761555591">
		<tag k="name" v="Saltskaget" />
		<tag k="natural" v="cape" />
		<tag k="ssr:stedsnr" v="257115" />
	</node>
	<node id="-823577" lat="64.4917750001" lon="11.3560944421">
		<tag k="alt_name" v="Otterøy" />
		<tag k="name" v="Otterøya" />
		<tag k="place" v="island" />
		<tag k="ssr:stedsnr" v="742208" />
	</node>
	<node id="-824970" lat="64.6192611121" lon="11.1765138885">
		<tag k="name" v="Finnangerøya" />
		<tag k="place" v="islet" />
		<tag k="ssr:stedsnr" v="499431" />
	</node>
	<node id="-824961" lat="64.457988887" lon="11.2253555461">
		<tag k="name" v="Raudneset" />
		<tag k="natural" v="cape" />
		<tag k="ssr:stedsnr" v="317051" />
	</node>
	<node id="-824958" lat="64.4984333309" lon="11.1972805539">
		<tag k="alt_name" v="Namsfjorden" />
		<tag k="bay" v="fjord" />
		<tag k="name" v="Namsenfjorden" />
		<tag k="natural" v="bay" />
		<tag k="ssr:stedsnr" v="14333" />
	</node>
	<node id="-824952" lat="64.5300249989" lon="11.5201638955">
		<tag k="name" v="Saudalen" />
		<tag k="natural" v="bay" />
		<tag k="ssr:stedsnr" v="75177" />
	</node>
	<node id="-824951" lat="64.4695555563" lon="11.2786500032">
		<tag k="name" v="Langnesholmen" />
		<tag k="place" v="islet" />
		<tag k="ssr:stedsnr" v="817307" />
	</node>
	<node id="-825960" lat="64.5590027744" lon="11.3607888812">
		<tag k="name" v="Småvikan" />
		<tag k="natural" v="bay" />
		<tag k="ssr:stedsnr" v="473607" />
	</node>
	<node id="-824923" lat="64.6174333355" lon="11.2446416608">
		<tag k="name" v="Setervikodden" />
		<tag k="natural" v="cape" />
		<tag k="ssr:stedsnr" v="532102" />
	</node>
	<node id="-824919" lat="64.4923055599" lon="11.2997694369">
		<tag k="name" v="Broemsvågen" />
		<tag k="natural" v="bay" />
		<tag k="ssr:stedsnr" v="499147" />
	</node>
	<node id="-824917" lat="64.5586250036" lon="11.2774361118">
		<tag k="name" v="Svemoskjæret" />
		<tag k="natural" v="cape" />
		<tag k="ssr:stedsnr" v="621116" />
	</node>
	<node id="-824916" lat="64.6145444475" lon="11.60392499">
		<tag k="name" v="Ternholmen" />
		<tag k="old_name" v="Tennholmen" />
		<tag k="place" v="islet" />
		<tag k="ssr:stedsnr" v="560482" />
	</node>
	<node id="-824915" lat="64.3898805558" lon="11.3342861082">
		<tag k="name" v="Løgnesvika" />
		<tag k="natural" v="bay" />
		<tag k="ssr:stedsnr" v="378074" />
	</node>
	<node id="-823907" lat="64.6384944477" lon="11.1337944459">
		<tag k="name" v="Småvikodden" />
		<tag k="natural" v="cape" />
		<tag k="ssr:stedsnr" v="775372" />
	</node>
	<node id="-824906" lat="64.5603111137" lon="11.3481250068">
		<tag k="name" v="Kaldklauvvågen" />
		<tag k="natural" v="bay" />
		<tag k="ssr:stedsnr" v="257114" />
	</node>
	<node id="-824902" lat="64.6016833331" lon="11.6152277772">
		<tag k="name" v="Raudhammaren" />
		<tag k="natural" v="cape" />
		<tag k="ssr:stedsnr" v="351718" />
	</node>
	<node id="-824900" lat="64.5169694401" lon="11.4751888947">
		<tag k="name" v="Solneset" />
		<tag k="natural" v="cape" />
		<tag k="ssr:stedsnr" v="743188" />
	</node>
	<node id="-824897" lat="64.6316805523" lon="11.1395888792">
		<tag k="alt_name" v="Bokkavika" />
		<tag k="fixme" v="multiple name tags, choose one and add the other to alt_name" />
		<tag k="name" v="Jevika;Bukkavika" />
		<tag k="natural" v="bay" />
		<tag k="ssr:stedsnr" v="377030" />
	</node>
	<node id="-824893" lat="64.5975638866" lon="11.6169944417">
		<tag k="name" v="Litlfossbukta" />
		<tag k="natural" v="bay" />
		<tag k="ssr:stedsnr" v="776711" />
	</node>
	<node id="-824892" lat="64.4685499978" lon="11.4319888803">
		<tag k="name" v="Gullholmen" />
		<tag k="place" v="islet" />
		<tag k="ssr:stedsnr" v="317043" />
	</node>
	<node id="-824891" lat="64.4801666632" lon="11.4361833335">
		<tag k="name" v="Katmarkvika" />
		<tag k="natural" v="bay" />
		<tag k="ssr:stedsnr" v="818545" />
	</node>
	<node id="-824885" lat="64.6129694487" lon="11.2485249999">
		<tag k="name" v="Barøyodden" />
		<tag k="natural" v="cape" />
		<tag k="ssr:stedsnr" v="350109" />
	</node>
	<node id="-824870" lat="64.5805277767" lon="11.3194333323">
		<tag k="bay" v="fjord" />
		<tag k="name" v="Lyngholmfjorden" />
		<tag k="natural" v="bay" />
		<tag k="ssr:stedsnr" v="196427" />
	</node>
	<node id="-824869" lat="64.4708583313" lon="11.4401861179">
		<tag k="name" v="Gullholmstranda" />
		<tag k="natural" v="beach" />
		<tag k="place" v="locality" />
		<tag k="ssr:stedsnr" v="317041" />
	</node>
	<node id="-824868" lat="64.4753972235" lon="11.2732750084">
		<tag k="alt_name" v="Valavika" />
		<tag k="name" v="Valen" />
		<tag k="natural" v="bay" />
		<tag k="ssr:stedsnr" v="256044" />
	</node>
	<node id="-824860" lat="64.6091333371" lon="11.5811027732">
		<tag k="name" v="Nord - Vestgøtsundet" />
		<tag k="natural" v="strait" />
		<tag k="ssr:stedsnr" v="290637" />
	</node>
	<node id="-824859" lat="64.4383861152" lon="11.4801500048">
		<tag k="name" v="Prestvika" />
		<tag k="natural" v="bay" />
		<tag k="ssr:stedsnr" v="438085" />
	</node>
	<node id="-823556" lat="64.4890999995" lon="11.298236112">
		<tag k="name" v="Galten" />
		<tag k="natural" v="shoal" />
		<tag k="place" v="locality" />
		<tag k="ssr:stedsnr" v="513335" />
	</node>
	<node id="-824853" lat="64.5255111121" lon="11.1614555611">
		<tag k="name" v="Tjuven" />
		<tag k="natural" v="cape" />
		<tag k="ssr:stedsnr" v="803667" />
	</node>
	<node id="-824852" lat="64.5530999982" lon="11.3669499964">
		<tag k="name" v="Surviksundet" />
		<tag k="natural" v="strait" />
		<tag k="ssr:stedsnr" v="621089" />
	</node>
	<node id="-824850" lat="64.5759305529" lon="11.6566583392">
		<tag k="bay" v="fjord" />
		<tag k="name" v="Vetterhusbotnet" />
		<tag k="natural" v="bay" />
		<tag k="ssr:stedsnr" v="925055" />
	</node>
	<node id="-824840" lat="64.6991444448" lon="10.9506083423">
		<tag k="name" v="Ufstaren" />
		<tag k="natural" v="shoal" />
		<tag k="place" v="locality" />
		<tag k="ssr:stedsnr" v="938305" />
	</node>
	<node id="-824838" lat="64.3990249991" lon="11.3571083378">
		<tag k="name" v="Olaodden" />
		<tag k="natural" v="cape" />
		<tag k="ssr:stedsnr" v="523789" />
	</node>
	<node id="-824827" lat="64.5759805587" lon="11.6831722185">
		<tag k="name" v="Setervika" />
		<tag k="natural" v="bay" />
		<tag k="ssr:stedsnr" v="925056" />
	</node>
	<node id="-824819" lat="64.5997694443" lon="11.555699991">
		<tag k="name" v="Grønnvika" />
		<tag k="natural" v="bay" />
		<tag k="ssr:stedsnr" v="776677" />
	</node>
	<node id="-823549" lat="64.64445" lon="11.0049861058">
		<tag k="name" v="Stokkgrunnen" />
		<tag k="natural" v="shoal" />
		<tag k="place" v="locality" />
		<tag k="ssr:stedsnr" v="803531" />
	</node>
	<node id="-824811" lat="64.6327416649" lon="11.0415305511">
		<tag k="name" v="Smoet" />
		<tag k="natural" v="bay" />
		<tag k="ssr:stedsnr" v="109928" />
	</node>
	<node id="-824808" lat="64.5839027746" lon="11.1830277799">
		<tag k="name" v="Granodden" />
		<tag k="natural" v="cape" />
		<tag k="ssr:stedsnr" v="681590" />
	</node>
	<node id="-824805" lat="64.5707999984" lon="11.4926499985">
		<tag k="name" v="Hellsøya" />
		<tag k="place" v="island" />
		<tag k="ssr:stedsnr" v="925051" />
	</node>
	<node id="-824803" lat="64.6276694447" lon="11.043205551">
		<tag k="name" v="Hestvika" />
		<tag k="natural" v="bay" />
		<tag k="ssr:stedsnr" v="109926" />
	</node>
	<node id="-823547" lat="64.5628444449" lon="11.5303388842">
		<tag k="name" v="Galten" />
		<tag k="natural" v="shoal" />
		<tag k="place" v="locality" />
		<tag k="ssr:stedsnr" v="631401" />
	</node>
	<node id="-824797" lat="64.3853055516" lon="11.3916027691">
		<tag k="alt_name" v="Strømmen" />
		<tag k="name" v="Straumen" />
		<tag k="natural" v="strait" />
		<tag k="ssr:stedsnr" v="817278" />
	</node>
	<node id="-824796" lat="64.6989027749" lon="10.9140249968">
		<tag k="name" v="Buktknausen" />
		<tag k="natural" v="shoal" />
		<tag k="place" v="locality" />
		<tag k="ssr:stedsnr" v="938300" />
	</node>
	<node id="-824793" lat="64.5614416625" lon="11.3449500062">
		<tag k="name" v="Levra" />
		<tag k="place" v="islet" />
		<tag k="ssr:stedsnr" v="682140" />
	</node>
	<node id="-824785" lat="64.4238444418" lon="11.3365361065">
		<tag k="name" v="Melkbekkneset" />
		<tag k="natural" v="cape" />
		<tag k="ssr:stedsnr" v="817281" />
	</node>
	<node id="-824784" lat="64.3767138899" lon="11.3885722188">
		<tag k="name" v="Valdskiftholmen" />
		<tag k="place" v="islet" />
		<tag k="ssr:stedsnr" v="499966" />
	</node>
	<node id="-824780" lat="64.588783337" lon="11.2792499916">
		<tag k="name" v="Ingemarodden" />
		<tag k="natural" v="cape" />
		<tag k="ssr:stedsnr" v="897555" />
	</node>
	<node id="-824778" lat="64.5408666643" lon="11.143774996">
		<tag k="name" v="Steinen" />
		<tag k="natural" v="cape" />
		<tag k="ssr:stedsnr" v="742609" />
	</node>
	<node id="-824772" lat="64.5246055515" lon="11.4721916597">
		<tag k="alt_name" v="Levra" />
		<tag k="name" v="Leverøya" />
		<tag k="place" v="islet" />
		<tag k="ssr:stedsnr" v="804208" />
	</node>
	<node id="-824768" lat="64.5104083349" lon="11.209013895">
		<tag k="fixme" v="multiple name tags, choose one and add the other to alt_name" />
		<tag k="name" v="Hamnesvika;Varpvika" />
		<tag k="natural" v="bay" />
		<tag k="ssr:stedsnr" v="560726" />
	</node>
	<node id="-824767" lat="64.5376083358" lon="11.1493333374">
		<tag k="name" v="Matkroken" />
		<tag k="natural" v="cape" />
		<tag k="ssr:stedsnr" v="803674" />
	</node>
	<node id="-824766" lat="64.6163083318" lon="11.2277972275">
		<tag k="name" v="Storvika" />
		<tag k="natural" v="bay" />
		<tag k="ssr:stedsnr" v="350077" />
	</node>
	<node id="-824763" lat="64.5659777808" lon="11.3009499979">
		<tag k="alt_name" v="Løvøfjorden" />
		<tag k="bay" v="fjord" />
		<tag k="name" v="Lauvøyfjorden" />
		<tag k="natural" v="bay" />
		<tag k="ssr:stedsnr" v="500219" />
	</node>
	<node id="-824762" lat="64.465494443" lon="11.4412666687">
		<tag k="name" v="Kalvika" />
		<tag k="natural" v="bay" />
		<tag k="ssr:stedsnr" v="879493" />
	</node>
	<node id="-824760" lat="64.5735833356" lon="11.1533000069">
		<tag k="name" v="Lonesodden" />
		<tag k="natural" v="cape" />
		<tag k="ssr:stedsnr" v="74630" />
	</node>
	<node id="-823881" lat="64.6371472207" lon="11.13530001">
		<tag k="name" v="Småvikan" />
		<tag k="natural" v="bay" />
		<tag k="ssr:stedsnr" v="775370" />
	</node>
	<node id="-824756" lat="64.4786790544" lon="11.4174675942">
		<tag k="name" v="Krokvika" />
		<tag k="natural" v="bay" />
		<tag k="ssr:stedsnr" v="513534" />
	</node>
	<node id="-824755" lat="64.6215499974" lon="11.2212666614">
		<tag k="name" v="Kuvika" />
		<tag k="natural" v="bay" />
		<tag k="ssr:stedsnr" v="168106" />
	</node>
	<node id="-824749" lat="64.5442166673" lon="11.5014222203">
		<tag k="name" v="Saltbuvika" />
		<tag k="natural" v="bay" />
		<tag k="ssr:stedsnr" v="500223" />
	</node>
	<node id="-824748" lat="64.4128777786" lon="11.3435055475">
		<tag k="name" v="Kjeøya" />
		<tag k="place" v="islet" />
		<tag k="ssr:stedsnr" v="681070" />
	</node>
	<node id="-824747" lat="64.4690861114" lon="11.442399995">
		<tag k="name" v="Gullvika" />
		<tag k="natural" v="bay" />
		<tag k="ssr:stedsnr" v="879494" />
	</node>
	<node id="-824743" lat="64.4426777788" lon="11.4825555466">
		<tag k="name" v="Hansodden" />
		<tag k="natural" v="cape" />
		<tag k="ssr:stedsnr" v="513532" />
	</node>
	<node id="-824737" lat="64.4534972185" lon="11.4439222303">
		<tag k="name" v="Mærraneset" />
		<tag k="natural" v="cape" />
		<tag k="ssr:stedsnr" v="513533" />
	</node>
	<node id="-824727" lat="64.4560916702" lon="11.2068749934">
		<tag k="name" v="Litløya" />
		<tag k="place" v="islet" />
		<tag k="ssr:stedsnr" v="13492" />
	</node>
	<node id="-824724" lat="64.4529722204" lon="11.1949472237">
		<tag k="name" v="Huken" />
		<tag k="natural" v="cape" />
		<tag k="ssr:stedsnr" v="938311" />
	</node>
	<node id="-824722" lat="64.3988555598" lon="11.3763305458">
		<tag k="name" v="Skjæret" />
		<tag k="natural" v="cape" />
		<tag k="ssr:stedsnr" v="523782" />
	</node>
	<node id="-824711" lat="64.5280472261" lon="11.4845777807">
		<tag k="name" v="Gahaugrunnen" />
		<tag k="natural" v="shoal" />
		<tag k="place" v="locality" />
		<tag k="ssr:stedsnr" v="24339" />
	</node>
	<node id="-824709" lat="64.5492027737" lon="11.3481361189">
		<tag k="name" v="Litlhåkilen" />
		<tag k="natural" v="bay" />
		<tag k="ssr:stedsnr" v="135083" />
	</node>
	<node id="-824707" lat="64.5769055562" lon="11.2291277709">
		<tag k="alt_name" v="Brennholmen" />
		<tag k="name" v="Brannholmen" />
		<tag k="place" v="islet" />
		<tag k="ssr:stedsnr" v="925062" />
	</node>
	<node id="-823530" lat="64.4813722228" lon="11.420163881">
		<tag k="name" v="Holmen" />
		<tag k="place" v="islet" />
		<tag k="ssr:stedsnr" v="392566" />
	</node>
	<node id="-824697" lat="64.5856916627" lon="11.1951222209">
		<tag k="name" v="Botsvika" />
		<tag k="natural" v="bay" />
		<tag k="old_name" v="Borgsvika" />
		<tag k="ssr:stedsnr" v="681579" />
	</node>
	<node id="-824686" lat="64.58513056" lon="11.1534194461">
		<tag k="fixme" v="consider seamark:type=rock or natural=shoal" />
		<tag k="name" v="Svartskjæret" />
		<tag k="place" v="islet" />
		<tag k="ssr:stedsnr" v="317552" />
	</node>
	<node id="-824680" lat="64.6345388914" lon="11.0450888827">
		<tag k="name" v="Vågan" />
		<tag k="natural" v="bay" />
		<tag k="ssr:stedsnr" v="814181" />
	</node>
	<node id="-824679" lat="64.4029027797" lon="11.3204499902">
		<tag k="name" v="Brentberget" />
		<tag k="natural" v="cape" />
		<tag k="ssr:stedsnr" v="38777" />
	</node>
	<node id="-824673" lat="64.5234111144" lon="11.4861999955">
		<tag k="name" v="Rugøya" />
		<tag k="place" v="islet" />
		<tag k="ssr:stedsnr" v="440185" />
	</node>
	<node id="-824671" lat="64.4053388848" lon="11.382391657">
		<tag k="name" v="Nordvika" />
		<tag k="natural" v="bay" />
		<tag k="ssr:stedsnr" v="706725" />
	</node>
	<node id="-824670" lat="64.4337333363" lon="11.4448000032">
		<tag k="alt_name" v="Selnesvika" />
		<tag k="name" v="Vikan" />
		<tag k="natural" v="bay" />
		<tag k="ssr:stedsnr" v="803092" />
	</node>
	<node id="-824665" lat="64.4851694442" lon="11.3789694424">
		<tag k="fixme" v="consider seamark:type=rock or natural=shoal" />
		<tag k="name" v="Iverskjæret" />
		<tag k="place" v="islet" />
		<tag k="ssr:stedsnr" v="412078" />
	</node>
	<node id="-824664" lat="64.5920944458" lon="11.3659000036">
		<tag k="fixme" v="consider seamark:type=rock or natural=shoal" />
		<tag k="name" v="Storskjæret" />
		<tag k="place" v="islet" />
		<tag k="ssr:stedsnr" v="752350" />
	</node>
	<node id="-824660" lat="64.5559666642" lon="11.4946166598">
		<tag k="name" v="Langsundet" />
		<tag k="natural" v="strait" />
		<tag k="ssr:stedsnr" v="230610" />
	</node>
	<node id="-824658" lat="64.6138138915" lon="11.2175722221">
		<tag k="name" v="Naustholmen" />
		<tag k="place" v="islet" />
		<tag k="ssr:stedsnr" v="897122" />
	</node>
	<node id="-824657" lat="64.3672055579" lon="11.3940527786">
		<tag k="name" v="Saltbuvika" />
		<tag k="natural" v="bay" />
		<tag k="ssr:stedsnr" v="99550" />
	</node>
	<node id="-824650" lat="64.4426805533" lon="11.3752805588">
		<tag k="name" v="Flatholmen" />
		<tag k="place" v="islet" />
		<tag k="ssr:stedsnr" v="392328" />
	</node>
	<node id="-824649" lat="64.6463416641" lon="11.0641805577">
		<tag k="fixme" v="consider seamark:type=rock or natural=shoal" />
		<tag k="name" v="Jektskjæret" />
		<tag k="place" v="islet" />
		<tag k="ssr:stedsnr" v="924496" />
	</node>
	<node id="-824646" lat="64.4317638917" lon="11.3806388905">
		<tag k="name" v="Bjønnavika" />
		<tag k="natural" v="bay" />
		<tag k="ssr:stedsnr" v="159773" />
	</node>
	<node id="-824642" lat="64.5735694432" lon="11.4873527724">
		<tag k="name" v="Helsøyvalen" />
		<tag k="natural" v="shoal" />
		<tag k="place" v="locality" />
		<tag k="ssr:stedsnr" v="959634" />
	</node>
	<node id="-824641" lat="64.6724138897" lon="10.8437083402">
		<tag k="name" v="Bondfallet" />
		<tag k="natural" v="shoal" />
		<tag k="place" v="locality" />
		<tag k="ssr:stedsnr" v="560990" />
	</node>
	<node id="-824639" lat="64.517455555" lon="11.4942833358">
		<tag k="alt_name" v="Ramsvikbukta" />
		<tag k="name" v="Ramsvika" />
		<tag k="natural" v="bay" />
		<tag k="ssr:stedsnr" v="440187" />
	</node>
	<node id="-824634" lat="64.5985111141" lon="11.6055305619">
		<tag k="fixme" v="consider seamark:type=rock or natural=shoal" />
		<tag k="name" v="Knubbskjæret" />
		<tag k="place" v="islet" />
		<tag k="ssr:stedsnr" v="752352" />
	</node>
	<node id="-824633" lat="64.3906138925" lon="11.3757250042">
		<tag k="name" v="Botnleira" />
		<tag k="natural" v="bay" />
		<tag k="ssr:stedsnr" v="523769" />
	</node>
	<node id="-824630" lat="64.5577416667" lon="11.5035916613">
		<tag k="name" v="Småholman" />
		<tag k="place" v="islet" />
		<tag k="ssr:stedsnr" v="230612" />
	</node>
	<node id="-824626" lat="64.4816488294" lon="11.3238689861">
		<tag k="name" v="Oldervika" />
		<tag k="natural" v="bay" />
		<tag k="old_name" v="Oddervika" />
		<tag k="ssr:stedsnr" v="681032" />
	</node>
	<node id="-824606" lat="64.6535555561" lon="11.0972249997">
		<tag k="name" v="Islendingen" />
		<tag k="old_name" v="Islendingsholmen;Islendingholmen" />
		<tag k="place" v="islet" />
		<tag k="ssr:stedsnr" v="924506" />
	</node>
	<node id="-824602" lat="64.6715027764" lon="11.0575138922">
		<tag k="name" v="Flotra" />
		<tag k="place" v="islet" />
		<tag k="ssr:stedsnr" v="146142" />
	</node>
	<node id="-824595" lat="64.4054083373" lon="11.3676361104">
		<tag k="name" v="Kjølsøygrunnen" />
		<tag k="natural" v="shoal" />
		<tag k="place" v="locality" />
		<tag k="ssr:stedsnr" v="695287" />
	</node>
	<node id="-824591" lat="64.5665333373" lon="11.1424916698">
		<tag k="name" v="Trøavika" />
		<tag k="natural" v="bay" />
		<tag k="ssr:stedsnr" v="897547" />
	</node>
	<node id="-824588" lat="64.4195166677" lon="11.3313249956">
		<tag k="name" v="Andvika" />
		<tag k="natural" v="bay" />
		<tag k="ssr:stedsnr" v="559104" />
	</node>
	<node id="-824583" lat="64.479205555" lon="11.2715083295">
		<tag k="name" v="Stokkvika" />
		<tag k="natural" v="bay" />
		<tag k="ssr:stedsnr" v="715112" />
	</node>
	<node id="-824573" lat="64.569158335" lon="11.343774993">
		<tag k="name" v="Furutoppvika" />
		<tag k="natural" v="bay" />
		<tag k="ssr:stedsnr" v="655612" />
	</node>
	<node id="-824572" lat="64.4808055597" lon="11.2734944486">
		<tag k="name" v="Storstokkvika" />
		<tag k="natural" v="bay" />
		<tag k="ssr:stedsnr" v="715111" />
	</node>
	<node id="-824570" lat="64.6940666671" lon="10.9227638884">
		<tag k="name" v="Aldgårdtaren" />
		<tag k="natural" v="shoal" />
		<tag k="place" v="locality" />
		<tag k="ssr:stedsnr" v="560980" />
	</node>
	<node id="-824569" lat="64.577038885" lon="11.1576861199">
		<tag k="name" v="Tjeldholmen" />
		<tag k="place" v="islet" />
		<tag k="ssr:stedsnr" v="256545" />
	</node>
	<node id="-824567" lat="64.6628638899" lon="10.8982833354">
		<tag k="fixme" v="consider seamark:type=rock or natural=shoal" />
		<tag k="name" v="Nordhunden" />
		<tag k="place" v="islet" />
		<tag k="ssr:stedsnr" v="864993" />
	</node>
	<node id="-824565" lat="64.5481055551" lon="11.1406444376">
		<tag k="name" v="Krokvika" />
		<tag k="natural" v="bay" />
		<tag k="ssr:stedsnr" v="75684" />
	</node>
	<node id="-824562" lat="64.4700499961" lon="11.3431555549">
		<tag k="name" v="Gåsungen" />
		<tag k="place" v="islet" />
		<tag k="ssr:stedsnr" v="681047" />
	</node>
	<node id="-824559" lat="64.4407750002" lon="11.4588500034">
		<tag k="name" v="Kvaholmen" />
		<tag k="place" v="islet" />
		<tag k="ssr:stedsnr" v="14016" />
	</node>
	<node id="-824558" lat="64.5830472221" lon="11.2093861052">
		<tag k="name" v="Altbotnen" />
		<tag k="natural" v="bay" />
		<tag k="ssr:stedsnr" v="681581" />
	</node>
	<node id="-824550" lat="64.4153138922" lon="11.3494861152">
		<tag k="name" v="Brannøya" />
		<tag k="place" v="islet" />
		<tag k="ssr:stedsnr" v="742059" />
	</node>
	<node id="-824543" lat="64.4096416696" lon="11.3606055579">
		<tag k="name" v="Rønningsundet" />
		<tag k="natural" v="strait" />
		<tag k="ssr:stedsnr" v="38754" />
	</node>
	<node id="-823629" lat="64.4471166678" lon="11.4046638825">
		<tag k="name" v="Kvarvodden" />
		<tag k="natural" v="cape" />
		<tag k="ssr:stedsnr" v="635696" />
	</node>
	<node id="-824537" lat="64.5427722228" lon="11.4405861191">
		<tag k="name" v="Otervika" />
		<tag k="natural" v="bay" />
		<tag k="ssr:stedsnr" v="874419" />
	</node>
	<node id="-824536" lat="64.5980666692" lon="11.0313555563">
		<tag k="fixme" v="consider seamark:type=rock or natural=shoal" />
		<tag k="name" v="Trollsteinen" />
		<tag k="place" v="islet" />
		<tag k="ssr:stedsnr" v="392311" />
	</node>
	<node id="-824526" lat="64.6527277769" lon="10.8831444385">
		<tag k="fixme" v="consider seamark:type=rock or natural=shoal" />
		<tag k="name" v="Sørhunden" />
		<tag k="place" v="islet" />
		<tag k="ssr:stedsnr" v="620515" />
	</node>
	<node id="-824524" lat="64.4240694416" lon="11.3678555514">
		<tag k="name" v="Trettvikodden" />
		<tag k="natural" v="cape" />
		<tag k="ssr:stedsnr" v="837807" />
	</node>
	<node id="-824517" lat="64.5532972235" lon="11.5938361038">
		<tag k="name" v="Bjønnvika" />
		<tag k="natural" v="bay" />
		<tag k="ssr:stedsnr" v="351650" />
	</node>
	<node id="-824511" lat="64.6607916694" lon="10.9468666765">
		<tag k="name" v="Tørrestaren" />
		<tag k="natural" v="shoal" />
		<tag k="place" v="locality" />
		<tag k="ssr:stedsnr" v="451600" />
	</node>
	<node id="-824506" lat="64.5502972181" lon="11.4999805475">
		<tag k="name" v="Børnstranda" />
		<tag k="natural" v="beach" />
		<tag k="place" v="locality" />
		<tag k="ssr:stedsnr" v="716657" />
	</node>
	<node id="-824499" lat="64.5767083306" lon="11.6095055507">
		<tag k="name" v="Rypnesbukta" />
		<tag k="natural" v="bay" />
		<tag k="ssr:stedsnr" v="776626" />
	</node>
	<node id="-824490" lat="64.5362083311" lon="11.4495055491">
		<tag k="name" v="Hoøya" />
		<tag k="place" v="islet" />
		<tag k="ssr:stedsnr" v="135061" />
	</node>
	<node id="-824485" lat="64.4717138845" lon="11.2859138989">
		<tag k="name" v="Langnesskjæret" />
		<tag k="natural" v="shoal" />
		<tag k="place" v="locality" />
		<tag k="ssr:stedsnr" v="89327" />
	</node>
	<node id="-823835" lat="64.4637222229" lon="11.3698638795">
		<tag k="name" v="Innergåsøya" />
		<tag k="place" v="island" />
		<tag k="ssr:stedsnr" v="196045" />
	</node>
	<node id="-824475" lat="64.5274027746" lon="11.467880553">
		<tag k="name" v="Hoøygrunnen" />
		<tag k="natural" v="shoal" />
		<tag k="place" v="locality" />
		<tag k="ssr:stedsnr" v="752325" />
	</node>
	<node id="-824472" lat="64.6368805581" lon="11.0515861124">
		<tag k="name" v="Aglvika" />
		<tag k="natural" v="bay" />
		<tag k="ssr:stedsnr" v="271998" />
	</node>
	<node id="-824467" lat="64.5630277754" lon="11.4981138991">
		<tag k="name" v="Valsundet" />
		<tag k="natural" v="strait" />
		<tag k="ssr:stedsnr" v="716652" />
	</node>
	<node id="-823491" lat="64.4362694491" lon="11.4449027699">
		<tag k="fixme" v="consider seamark:type=rock or natural=shoal" />
		<tag k="name" v="Kobbskjæret" />
		<tag k="place" v="islet" />
		<tag k="ssr:stedsnr" v="392563" />
	</node>
	<node id="-824463" lat="64.5873249961" lon="11.3584388892">
		<tag k="name" v="Øyra" />
		<tag k="natural" v="cape" />
		<tag k="ssr:stedsnr" v="378039" />
	</node>
	<node id="-824460" lat="64.5468916688" lon="11.1380500023">
		<tag k="name" v="Kroken" />
		<tag k="natural" v="cape" />
		<tag k="ssr:stedsnr" v="803632" />
	</node>
	<node id="-824454" lat="64.578963885" lon="11.4795750025">
		<tag k="name" v="Sørvika" />
		<tag k="natural" v="bay" />
		<tag k="ssr:stedsnr" v="716647" />
	</node>
	<node id="-824448" lat="64.5417472242" lon="11.343044436">
		<tag k="name" v="Dølvika" />
		<tag k="natural" v="bay" />
		<tag k="ssr:stedsnr" v="757747" />
	</node>
	<node id="-824445" lat="64.5352916643" lon="11.4247249917">
		<tag k="name" v="Kuvika" />
		<tag k="natural" v="bay" />
		<tag k="ssr:stedsnr" v="776621" />
	</node>
	<node id="-824444" lat="64.5646222205" lon="11.4917944483">
		<tag k="fixme" v="consider seamark:type=rock or natural=shoal" />
		<tag k="name" v="Valskjæret" />
		<tag k="place" v="islet" />
		<tag k="ssr:stedsnr" v="230591" />
	</node>
	<node id="-824442" lat="64.4889111068" lon="11.2539333315">
		<tag k="name" v="Hestvika" />
		<tag k="natural" v="bay" />
		<tag k="ssr:stedsnr" v="741241" />
	</node>
	<node id="-824436" lat="64.5391444426" lon="11.4125083261">
		<tag k="name" v="Salamonvika" />
		<tag k="natural" v="bay" />
		<tag k="ssr:stedsnr" v="716669" />
	</node>
	<node id="-823486" lat="64.4640833356" lon="11.4809055554">
		<tag k="name" v="Annfinnvika" />
		<tag k="natural" v="bay" />
		<tag k="ssr:stedsnr" v="332557" />
	</node>
	<node id="-824434" lat="64.5823611125" lon="11.2012888971">
		<tag k="name" v="Skjærvika" />
		<tag k="natural" v="bay" />
		<tag k="ssr:stedsnr" v="145374" />
	</node>
	<node id="-824433" lat="64.6815055579" lon="10.8646194519">
		<tag k="name" v="Løkkefallet" />
		<tag k="natural" v="shoal" />
		<tag k="place" v="locality" />
		<tag k="ssr:stedsnr" v="864980" />
	</node>
	<node id="-824427" lat="64.5842972243" lon="11.1591944353">
		<tag k="name" v="Lyngholmen" />
		<tag k="place" v="islet" />
		<tag k="ssr:stedsnr" v="74591" />
	</node>
	<node id="-824416" lat="64.5119694401" lon="11.179799992">
		<tag k="name" v="Seglhylla" />
		<tag k="natural" v="cape" />
		<tag k="ssr:stedsnr" v="197738" />
	</node>
	<node id="-824411" lat="64.5813916682" lon="11.393025">
		<tag k="name" v="Elvalandet" />
		<tag k="place" v="island" />
		<tag k="ssr:stedsnr" v="742045" />
	</node>
	<node id="-824407" lat="64.5773083338" lon="11.1645138807">
		<tag k="name" v="Varpholmen" />
		<tag k="place" v="islet" />
		<tag k="ssr:stedsnr" v="317527" />
	</node>
	<node id="-824406" lat="64.6238888871" lon="10.996127784">
		<tag k="name" v="Mefalltaren" />
		<tag k="natural" v="shoal" />
		<tag k="place" v="locality" />
		<tag k="ssr:stedsnr" v="935937" />
	</node>
	<node id="-824402" lat="64.607924999" lon="11.6143777674">
		<tag k="fixme" v="consider seamark:type=rock or natural=shoal" />
		<tag k="name" v="Storskjæret" />
		<tag k="place" v="islet" />
		<tag k="ssr:stedsnr" v="874401" />
	</node>
	<node id="-824401" lat="64.4823083319" lon="11.2765805496">
		<tag k="fixme" v="consider seamark:type=rock or natural=shoal" />
		<tag k="name" v="Tjuvskjæret" />
		<tag k="place" v="islet" />
		<tag k="ssr:stedsnr" v="897118" />
	</node>
	<node id="-824397" lat="64.5511861068" lon="11.5775472172">
		<tag k="name" v="Bjønnrusodden" />
		<tag k="natural" v="cape" />
		<tag k="ssr:stedsnr" v="776639" />
	</node>
	<node id="-824395" lat="64.6226777781" lon="11.1606805555">
		<tag k="fixme" v="consider seamark:type=rock or natural=shoal" />
		<tag k="name" v="Vågskjæret" />
		<tag k="place" v="islet" />
		<tag k="ssr:stedsnr" v="878999" />
	</node>
	<node id="-824386" lat="64.4724138866" lon="11.276941658">
		<tag k="name" v="Langneset" />
		<tag k="natural" v="cape" />
		<tag k="ssr:stedsnr" v="438043" />
	</node>
	<node id="-823819" lat="64.5760666643" lon="11.3453722214">
		<tag k="name" v="Gongstøa" />
		<tag k="natural" v="bay" />
		<tag k="ssr:stedsnr" v="898590" />
	</node>
	<node id="-824383" lat="64.5499861079" lon="11.5230527672">
		<tag k="name" v="Landfallvika" />
		<tag k="natural" v="bay" />
		<tag k="ssr:stedsnr" v="48625" />
	</node>
	<node id="-823818" lat="64.5152444431" lon="11.2282666718">
		<tag k="name" v="Kløyvika" />
		<tag k="natural" v="bay" />
		<tag k="ssr:stedsnr" v="149440" />
	</node>
	<node id="-824355" lat="64.4890527743" lon="11.4222361127">
		<tag k="alt_name" v="Lennavika" />
		<tag k="name" v="Lænnavika" />
		<tag k="natural" v="bay" />
		<tag k="ssr:stedsnr" v="924221" />
	</node>
	<node id="-824352" lat="64.5753444415" lon="11.4877361189">
		<tag k="name" v="Helsøyholman" />
		<tag k="place" v="islet" />
		<tag k="ssr:stedsnr" v="351640" />
	</node>
	<node id="-824346" lat="64.5798583308" lon="11.6371499914">
		<tag k="name" v="Bakkabukta" />
		<tag k="natural" v="bay" />
		<tag k="ssr:stedsnr" v="378029" />
	</node>
	<node id="-824343" lat="64.6452222221" lon="11.0598138965">
		<tag k="name" v="Kubbholmen" />
		<tag k="place" v="islet" />
		<tag k="ssr:stedsnr" v="290969" />
	</node>
	<node id="-824340" lat="64.6654527767" lon="10.9824861084">
		<tag k="name" v="Steffaskallen" />
		<tag k="natural" v="shoal" />
		<tag k="place" v="locality" />
		<tag k="ssr:stedsnr" v="330645" />
	</node>
	<node id="-824338" lat="64.5132666667" lon="11.2660083365">
		<tag k="fixme" v="consider seamark:type=rock or natural=shoal" />
		<tag k="name" v="Skomsvollskjæra" />
		<tag k="place" v="islet" />
		<tag k="ssr:stedsnr" v="757763" />
	</node>
	<node id="-824324" lat="64.5422416666" lon="11.4873527879">
		<tag k="name" v="Språtasundet" />
		<tag k="natural" v="strait" />
		<tag k="ssr:stedsnr" v="874364" />
	</node>
	<node id="-824312" lat="64.554433331" lon="11.3740694455">
		<tag k="name" v="Fagervika" />
		<tag k="natural" v="bay" />
		<tag k="ssr:stedsnr" v="959594" />
	</node>
	<node id="-824306" lat="64.4382583316" lon="11.4166027848">
		<tag k="name" v="Selnesvika" />
		<tag k="natural" v="bay" />
		<tag k="ssr:stedsnr" v="742017" />
	</node>
	<node id="-824290" lat="64.5340027746" lon="11.4334027826">
		<tag k="name" v="Ottevika" />
		<tag k="natural" v="bay" />
		<tag k="ssr:stedsnr" v="48610" />
	</node>
	<node id="-824283" lat="64.397230556" lon="11.3552694449">
		<tag k="name" v="Kjølsøysundet" />
		<tag k="natural" v="strait" />
		<tag k="ssr:stedsnr" v="574304" />
	</node>
	<node id="-824273" lat="64.5667972212" lon="11.5212083355">
		<tag k="name" v="Kjettøyvalen" />
		<tag k="natural" v="strait" />
		<tag k="ssr:stedsnr" v="898664" />
	</node>
	<node id="-824271" lat="64.5541027748" lon="11.4986999995">
		<tag k="name" v="Haukøya" />
		<tag k="place" v="island" />
		<tag k="ssr:stedsnr" v="75108" />
	</node>
	<node id="-824270" lat="64.4066444487" lon="11.3426444388">
		<tag k="name" v="Kjeøygrunnen" />
		<tag k="natural" v="shoal" />
		<tag k="place" v="locality" />
		<tag k="ssr:stedsnr" v="89298" />
	</node>
	<node id="-824261" lat="64.4035202086" lon="11.3524964328">
		<tag k="name" v="Kjølsøya" />
		<tag k="place" v="island" />
		<tag k="ssr:stedsnr" v="803066" />
	</node>
	<node id="-824243" lat="64.4574666701" lon="11.5230166641">
		<tag k="name" v="Spillumsøra" />
		<tag k="natural" v="shoal" />
		<tag k="place" v="locality" />
		<tag k="ssr:stedsnr" v="149508" />
	</node>
	<node id="-824241" lat="64.4765361104" lon="11.2665666705">
		<tag k="name" v="Hoddøyvågen" />
		<tag k="natural" v="bay" />
		<tag k="ssr:stedsnr" v="74035" />
	</node>
	<node id="-824239" lat="64.3920111143" lon="11.3307416611">
		<tag k="name" v="Skaftodden" />
		<tag k="natural" v="cape" />
		<tag k="ssr:stedsnr" v="876148" />
	</node>
	<node id="-824235" lat="64.6746888899" lon="10.8738583372">
		<tag k="name" v="Innerleia" />
		<tag k="natural" v="strait" />
		<tag k="ssr:stedsnr" v="269512" />
	</node>
	<node id="-823451" lat="64.5729555584" lon="11.3442055603">
		<tag k="name" v="Brennvinholet" />
		<tag k="natural" v="bay" />
		<tag k="ssr:stedsnr" v="682019" />
	</node>
	<node id="-824224" lat="64.6818833289" lon="10.9749861187">
		<tag k="name" v="Leirryggen" />
		<tag k="natural" v="shoal" />
		<tag k="place" v="locality" />
		<tag k="ssr:stedsnr" v="878587" />
	</node>
	<node id="-824212" lat="64.4640472231" lon="11.2689777713">
		<tag k="name" v="Sundsråsa" />
		<tag k="natural" v="strait" />
		<tag k="ssr:stedsnr" v="715058" />
	</node>
	<node id="-824210" lat="64.6664944415" lon="10.8300888928">
		<tag k="name" v="Sørskåka" />
		<tag k="natural" v="shoal" />
		<tag k="place" v="locality" />
		<tag k="ssr:stedsnr" v="815551" />
	</node>
	<node id="-824209" lat="64.5169750033" lon="11.5213972173">
		<tag k="name" v="Hammarengneset" />
		<tag k="natural" v="cape" />
		<tag k="ssr:stedsnr" v="818433" />
	</node>
	<node id="-824208" lat="64.5342694403" lon="11.5066249926">
		<tag k="name" v="Ganesvika" />
		<tag k="natural" v="bay" />
		<tag k="ssr:stedsnr" v="803061" />
	</node>
	<node id="-824203" lat="64.5647416705" lon="11.5064222214">
		<tag k="name" v="Setervika" />
		<tag k="natural" v="bay" />
		<tag k="ssr:stedsnr" v="959600" />
	</node>
	<node id="-824194" lat="64.5416888887" lon="11.2819138917">
		<tag k="name" v="Øyavalen" />
		<tag k="natural" v="bay" />
		<tag k="ssr:stedsnr" v="757732" />
	</node>
	<node id="-824193" lat="64.6705805551" lon="10.9037722229">
		<tag k="name" v="Bjørøytaren" />
		<tag k="natural" v="shoal" />
		<tag k="place" v="locality" />
		<tag k="ssr:stedsnr" v="876537" />
	</node>
	<node id="-824188" lat="64.5502888918" lon="11.5896499901">
		<tag k="name" v="Saltbuvika" />
		<tag k="natural" v="bay" />
		<tag k="ssr:stedsnr" v="439075" />
	</node>
	<node id="-824187" lat="64.573972226" lon="11.4979638809">
		<tag k="name" v="Nordsundet" />
		<tag k="natural" v="strait" />
		<tag k="ssr:stedsnr" v="351604" />
	</node>
	<node id="-824186" lat="64.6405416627" lon="11.0710527683">
		<tag k="name" v="Tjønnavika" />
		<tag k="natural" v="bay" />
		<tag k="ssr:stedsnr" v="48980" />
	</node>
	<node id="-824184" lat="64.5756805523" lon="11.2140333378">
		<tag k="name" v="Tennholmen" />
		<tag k="old_name" v="Tenholmen" />
		<tag k="place" v="islet" />
		<tag k="ssr:stedsnr" v="510384" />
	</node>
	<node id="-824182" lat="64.6729999956" lon="10.9307833331">
		<tag k="name" v="Steinfallet" />
		<tag k="natural" v="shoal" />
		<tag k="place" v="locality" />
		<tag k="ssr:stedsnr" v="924986" />
	</node>
	<node id="-824179" lat="64.5963722256" lon="11.0444444385">
		<tag k="name" v="Langhylla" />
		<tag k="natural" v="bay" />
		<tag k="ssr:stedsnr" v="655914" />
	</node>
	<node id="-824175" lat="64.6054138935" lon="11.2493583273">
		<tag k="name" v="Tronvika" />
		<tag k="natural" v="bay" />
		<tag k="ssr:stedsnr" v="925540" />
	</node>
	<node id="-824173" lat="64.4486444431" lon="11.3964166653">
		<tag k="name" v="Kvarvøya" />
		<tag k="place" v="island" />
		<tag k="ssr:stedsnr" v="438013" />
	</node>
	<node id="-824169" lat="64.4458805576" lon="11.4240750066">
		<tag k="name" v="Selnesgrunnen" />
		<tag k="natural" v="shoal" />
		<tag k="place" v="locality" />
		<tag k="ssr:stedsnr" v="149500" />
	</node>
	<node id="-824167" lat="64.6512972186" lon="11.0883694448">
		<tag k="name" v="Djupholet" />
		<tag k="natural" v="bay" />
		<tag k="ssr:stedsnr" v="48978" />
	</node>
	<node id="-824163" lat="64.6260888934" lon="11.0443583258">
		<tag k="name" v="Bekkavika" />
		<tag k="natural" v="bay" />
		<tag k="ssr:stedsnr" v="230941" />
	</node>
	<node id="-824160" lat="64.6335749965" lon="11.033133339">
		<tag k="name" v="Lunnfallet" />
		<tag k="natural" v="strait" />
		<tag k="ssr:stedsnr" v="230942" />
	</node>
	<node id="-824158" lat="64.5772555548" lon="11.1274166717">
		<tag k="name" v="Altøya" />
		<tag k="place" v="island" />
		<tag k="ssr:stedsnr" v="195583" />
	</node>
	<node id="-824157" lat="64.438147225" lon="11.413811102">
		<tag k="alt_name" v="Kattaholmen" />
		<tag k="name" v="Kattholmen" />
		<tag k="place" v="islet" />
		<tag k="ssr:stedsnr" v="149499" />
	</node>
	<node id="-824155" lat="64.519216671" lon="11.4909416665">
		<tag k="alt_name" v="Sør-råsa" />
		<tag k="name" v="Sørråsa" />
		<tag k="natural" v="strait" />
		<tag k="ssr:stedsnr" v="560128" />
	</node>
	<node id="-824149" lat="64.487019448" lon="11.4198888944">
		<tag k="name" v="Djupvika" />
		<tag k="natural" v="bay" />
		<tag k="ssr:stedsnr" v="802243" />
	</node>
	<node id="-824142" lat="64.6460305577" lon="11.1053305496">
		<tag k="name" v="Lostranda" />
		<tag k="natural" v="beach" />
		<tag k="place" v="locality" />
		<tag k="ssr:stedsnr" v="681518" />
	</node>
	<node id="-824137" lat="64.5275972178" lon="11.5016972239">
		<tag k="name" v="Gahauet" />
		<tag k="natural" v="cape" />
		<tag k="ssr:stedsnr" v="145331" />
	</node>
	<node id="-824133" lat="64.3724777734" lon="11.3243916737">
		<tag k="name" v="Storskarbukta" />
		<tag k="natural" v="bay" />
		<tag k="ssr:stedsnr" v="341618" />
	</node>
	<node id="-824131" lat="64.4489027758" lon="11.5195833327">
		<tag k="name" v="Holland" />
		<tag k="natural" v="bay" />
		<tag k="ssr:stedsnr" v="74025" />
	</node>
	<node id="-824129" lat="64.5238666684" lon="11.5342527858">
		<tag k="name" v="Heivika" />
		<tag k="natural" v="bay" />
		<tag k="ssr:stedsnr" v="560131" />
	</node>
	<node id="-824122" lat="64.6484861144" lon="11.111513891">
		<tag k="name" v="Mellomodden" />
		<tag k="place" v="islet" />
		<tag k="ssr:stedsnr" v="472959" />
	</node>
	<node id="-824121" lat="64.5476750014" lon="11.4638611119">
		<tag k="name" v="Tennholmen" />
		<tag k="place" v="islet" />
		<tag k="ssr:stedsnr" v="351608" />
	</node>
	<node id="-824112" lat="64.5975472257" lon="11.0357499982">
		<tag k="name" v="Kvilarvika" />
		<tag k="natural" v="bay" />
		<tag k="ssr:stedsnr" v="230926" />
	</node>
	<node id="-824110" lat="64.5677694456" lon="11.4724611196">
		<tag k="name" v="Svartdalsodden" />
		<tag k="natural" v="cape" />
		<tag k="ssr:stedsnr" v="351592" />
	</node>
	<node id="-824107" lat="64.5425694439" lon="11.3236805558">
		<tag k="fixme" v="consider seamark:type=rock or natural=shoal" />
		<tag k="name" v="Staknesskjæra" />
		<tag k="place" v="islet" />
		<tag k="ssr:stedsnr" v="28460" />
	</node>
	<node id="-823431" lat="64.5378527756" lon="11.4848194464">
		<tag k="name" v="Storøya" />
		<tag k="place" v="island" />
		<tag k="ssr:stedsnr" v="500086" />
	</node>
	<node id="-824103" lat="64.5625777776" lon="11.4934055597">
		<tag k="name" v="Valvika" />
		<tag k="natural" v="bay" />
		<tag k="ssr:stedsnr" v="351594" />
	</node>
	<node id="-823770" lat="64.5774111091" lon="11.4781333278">
		<tag k="name" v="Røyrholodden" />
		<tag k="natural" v="cape" />
		<tag k="ssr:stedsnr" v="898613" />
	</node>
	<node id="-824089" lat="64.6569999957" lon="10.8756083246">
		<tag k="name" v="Storfallet" />
		<tag k="natural" v="shoal" />
		<tag k="place" v="locality" />
		<tag k="ssr:stedsnr" v="924996" />
	</node>
	<node id="-824084" lat="64.4566888856" lon="11.4061277842">
		<tag k="name" v="Kvitinggrunnen" />
		<tag k="natural" v="shoal" />
		<tag k="place" v="locality" />
		<tag k="ssr:stedsnr" v="634546" />
	</node>
	<node id="-824079" lat="64.5713722247" lon="11.4991861091">
		<tag k="name" v="Helsøyvika" />
		<tag k="natural" v="bay" />
		<tag k="ssr:stedsnr" v="48574" />
	</node>
	<node id="-824078" lat="64.5497055544" lon="11.338413884">
		<tag k="alt_name" v="Ånhammarodden" />
		<tag k="name" v="Ånhammaren" />
		<tag k="natural" v="cape" />
		<tag k="ssr:stedsnr" v="439066" />
	</node>
	<node id="-824071" lat="64.4467111136" lon="11.433483324">
		<tag k="name" v="Fjordgrunnen" />
		<tag k="natural" v="shoal" />
		<tag k="place" v="locality" />
		<tag k="ssr:stedsnr" v="634544" />
	</node>
	<node id="-824063" lat="64.5792944421" lon="11.4907499956">
		<tag k="name" v="Bjønnvika" />
		<tag k="natural" v="bay" />
		<tag k="ssr:stedsnr" v="898650" />
	</node>
	<node id="-824059" lat="64.5883416656" lon="11.1601277718">
		<tag k="name" v="Reindalsholmen" />
		<tag k="place" v="islet" />
		<tag k="ssr:stedsnr" v="559587" />
	</node>
	<node id="-824049" lat="64.6364027818" lon="11.0686555643">
		<tag k="name" v="Jovika" />
		<tag k="natural" v="bay" />
		<tag k="ssr:stedsnr" v="351985" />
	</node>
	<node id="-825703" lat="64.4757999993" lon="11.3871027796">
		<tag k="fixme" v="consider seamark:type=rock or natural=shoal" />
		<tag k="name" v="Hoøyskjæret" />
		<tag k="place" v="islet" />
		<tag k="ssr:stedsnr" v="271372" />
	</node>
	<node id="-824036" lat="64.5897722247" lon="11.1729138903">
		<tag k="name" v="Hestvika" />
		<tag k="natural" v="bay" />
		<tag k="ssr:stedsnr" v="472531" />
	</node>
	<node id="-824035" lat="64.4395361108" lon="11.4324083335">
		<tag k="name" v="Fangneset" />
		<tag k="natural" v="cape" />
		<tag k="ssr:stedsnr" v="803025" />
	</node>
	<node id="-824032" lat="64.5655888891" lon="11.5693694434">
		<tag k="bay" v="fjord" />
		<tag k="name" v="Blikkengfjorden" />
		<tag k="natural" v="bay" />
		<tag k="ssr:stedsnr" v="621002" />
	</node>
	<node id="-824031" lat="64.5948750042" lon="11.3753555587">
		<tag k="name" v="Jønnvika" />
		<tag k="natural" v="bay" />
		<tag k="ssr:stedsnr" v="924433" />
	</node>
	<node id="-824009" lat="64.3781750026" lon="11.387772232">
		<tag k="name" v="Tunnelodden" />
		<tag k="natural" v="cape" />
		<tag k="ssr:stedsnr" v="644742" />
	</node>
	<node id="-824005" lat="64.5716111114" lon="11.6112388905">
		<tag k="name" v="Rypnesflauget" />
		<tag k="natural" v="cape" />
		<tag k="ssr:stedsnr" v="291675" />
	</node>
	<node id="-824003" lat="64.5818861106" lon="11.3242972218">
		<tag k="fixme" v="consider seamark:type=rock or natural=shoal" />
		<tag k="name" v="Lyngholmskjæret" />
		<tag k="place" v="islet" />
		<tag k="ssr:stedsnr" v="351578" />
	</node>
	<node id="-823996" lat="64.6129333373" lon="11.0346944373">
		<tag k="fixme" v="consider seamark:type=rock or natural=shoal" />
		<tag k="name" v="Trollstein" />
		<tag k="place" v="islet" />
		<tag k="ssr:stedsnr" v="898997" />
	</node>
	<node id="-823992" lat="64.545852776" lon="11.5088166692">
		<tag k="name" v="Grånavika" />
		<tag k="natural" v="bay" />
		<tag k="ssr:stedsnr" v="75075" />
	</node>
	<node id="-823985" lat="64.445027775" lon="11.486961101">
		<tag k="name" v="Stuhaugodden" />
		<tag k="natural" v="cape" />
		<tag k="ssr:stedsnr" v="150675" />
	</node>
	<node id="-823978" lat="64.5804999987" lon="11.2056305454">
		<tag k="name" v="Lennavika" />
		<tag k="natural" v="bay" />
		<tag k="ssr:stedsnr" v="267349" />
	</node>
	<node id="-823974" lat="64.6360722268" lon="11.0625555534">
		<tag k="name" v="Aglvika" />
		<tag k="natural" v="bay" />
		<tag k="ssr:stedsnr" v="389156" />
	</node>
	<node id="-823969" lat="64.577580559" lon="11.4753444544">
		<tag k="name" v="Røyrholet" />
		<tag k="natural" v="bay" />
		<tag k="ssr:stedsnr" v="15036" />
	</node>
	<node id="-823966" lat="64.5496361078" lon="11.3608388862">
		<tag k="name" v="Storhåkilen" />
		<tag k="natural" v="bay" />
		<tag k="ssr:stedsnr" v="439063" />
	</node>
	<node id="-823963" lat="64.6370027761" lon="11.0324611009">
		<tag k="name" v="Nordfaksen" />
		<tag k="place" v="islet" />
		<tag k="ssr:stedsnr" v="899000" />
	</node>
	<node id="-823960" lat="64.4427305537" lon="11.4068555654">
		<tag k="name" v="Kvarven" />
		<tag k="natural" v="cape" />
		<tag k="ssr:stedsnr" v="803022" />
	</node>
	<node id="-823957" lat="64.5349444452" lon="11.4315805466">
		<tag k="name" v="Riddarspranget" />
		<tag k="natural" v="cape" />
		<tag k="ssr:stedsnr" v="439047" />
	</node>
	<node id="-825992" lat="64.6186277764" lon="11.2381916666">
		<tag k="name" v="Saltbuodden" />
		<tag k="natural" v="cape" />
		<tag k="ssr:stedsnr" v="621213" />
	</node>
	<node id="-825991" lat="64.5806388929" lon="11.6340333292">
		<tag k="name" v="Bergembukta" />
		<tag k="natural" v="bay" />
		<tag k="ssr:stedsnr" v="534663" />
	</node>
	<node id="-825985" lat="64.3583527803" lon="11.2830611044">
		<tag k="name" v="Skavika" />
		<tag k="natural" v="bay" />
		<tag k="ssr:stedsnr" v="438991" />
	</node>
	<node id="-823933" lat="64.5852833335" lon="11.1880666659">
		<tag k="name" v="Storvika" />
		<tag k="natural" v="bay" />
		<tag k="ssr:stedsnr" v="863601" />
	</node>
	<node id="-823931" lat="64.4822638908" lon="11.3311722317">
		<tag k="name" v="Tørrbergvika" />
		<tag k="natural" v="bay" />
		<tag k="ssr:stedsnr" v="134222" />
	</node>
	<node id="-823743" lat="64.5561194489" lon="11.3615055496">
		<tag k="name" v="Bjørkvika" />
		<tag k="natural" v="bay" />
		<tag k="ssr:stedsnr" v="271491" />
	</node>
	<node id="-823924" lat="64.4667444449" lon="11.5735944358">
		<tag k="name" v="Straumhylla" />
		<tag k="natural" v="cape" />
		<tag k="ssr:stedsnr" v="196051" />
	</node>
	<node id="-823919" lat="64.4003666674" lon="11.3613277872">
		<tag k="name" v="Kjøløysundet" />
		<tag k="natural" v="strait" />
		<tag k="ssr:stedsnr" v="705789" />
	</node>
	<node id="-823915" lat="64.4791499962" lon="11.3853083237">
		<tag k="name" v="Hoøya" />
		<tag k="place" v="island" />
		<tag k="ssr:stedsnr" v="559034" />
	</node>
	<node id="-823912" lat="64.5473388929" lon="11.4686472138">
		<tag k="name" v="Rundholmen" />
		<tag k="place" v="islet" />
		<tag k="ssr:stedsnr" v="898627" />
	</node>
	<node id="-825955" lat="64.5742805595" lon="11.2126888995">
		<tag k="alt_name" v="Somlevik;Somlavik" />
		<tag k="name" v="Somlavika" />
		<tag k="natural" v="bay" />
		<tag k="ssr:stedsnr" v="388357" />
	</node>
	<node id="-823905" lat="64.4811861134" lon="11.3359305515">
		<tag k="name" v="Varpnesodden" />
		<tag k="natural" v="cape" />
		<tag k="ssr:stedsnr" v="559036" />
	</node>
	<node id="-823903" lat="64.3887833308" lon="11.3834888949">
		<tag k="name" v="Valen" />
		<tag k="natural" v="cape" />
		<tag k="ssr:stedsnr" v="948784" />
	</node>
	<node id="-825949" lat="64.6743916641" lon="11.0497888812">
		<tag k="name" v="Aunknausen" />
		<tag k="natural" v="shoal" />
		<tag k="place" v="locality" />
		<tag k="ssr:stedsnr" v="89941" />
	</node>
	<node id="-823899" lat="64.4781944402" lon="11.4261027831">
		<tag k="name" v="Lokkaren" />
		<tag k="natural" v="strait" />
		<tag k="ssr:stedsnr" v="559037" />
	</node>
	<node id="-825946" lat="64.6869277742" lon="10.918297219">
		<tag k="fixme" v="consider seamark:type=rock or natural=shoal" />
		<tag k="name" v="Stabben" />
		<tag k="place" v="islet" />
		<tag k="ssr:stedsnr" v="87517" />
	</node>
	<node id="-823897" lat="64.4692944454" lon="11.3542888801">
		<tag k="name" v="Yttergåsøya" />
		<tag k="place" v="island" />
		<tag k="ssr:stedsnr" v="196047" />
	</node>
	<node id="-825944" lat="64.6842444444" lon="10.9259055654">
		<tag k="fixme" v="consider seamark:type=rock or natural=shoal" />
		<tag k="name" v="Bendikknausen" />
		<tag k="place" v="islet" />
		<tag k="ssr:stedsnr" v="390490" />
	</node>
	<node id="-825943" lat="64.5721749956" lon="11.6042611127">
		<tag k="alt_name" v="Tennholmen" />
		<tag k="name" v="Ternholmen" />
		<tag k="place" v="islet" />
		<tag k="ssr:stedsnr" v="804039" />
	</node>
	<node id="-825941" lat="64.5508583339" lon="11.369294451">
		<tag k="name" v="Håkilflaget" />
		<tag k="natural" v="cape" />
		<tag k="ssr:stedsnr" v="473609" />
	</node>
	<node id="-823892" lat="64.5704416628" lon="11.6113416596">
		<tag k="name" v="Olavika" />
		<tag k="natural" v="bay" />
		<tag k="ssr:stedsnr" v="15031" />
	</node>
	<node id="-823888" lat="64.5682527783" lon="11.5837138943">
		<tag k="name" v="Litlsauøya" />
		<tag k="place" v="islet" />
		<tag k="ssr:stedsnr" v="15029" />
	</node>
	<node id="-825934" lat="64.5870861142" lon="11.1901583389">
		<tag k="alt_name" v="Mulen" />
		<tag k="name" v="Digermulen" />
		<tag k="natural" v="cape" />
		<tag k="ssr:stedsnr" v="13608" />
	</node>
	<node id="-825929" lat="64.5434916696" lon="11.3440333292">
		<tag k="name" v="Røyrholet" />
		<tag k="natural" v="bay" />
		<tag k="old_name" v="Rørhullet" />
		<tag k="ssr:stedsnr" v="257220" />
	</node>
	<node id="-823876" lat="64.6305055601" lon="11.1428249921">
		<tag k="name" v="Varpodden" />
		<tag k="natural" v="cape" />
		<tag k="ssr:stedsnr" v="938999" />
	</node>
	<node id="-825922" lat="64.4008138851" lon="11.3713638947">
		<tag k="name" v="Drengkallholmen" />
		<tag k="place" v="islet" />
		<tag k="ssr:stedsnr" v="99774" />
	</node>
	<node id="-825921" lat="64.6071583306" lon="11.5693999955">
		<tag k="name" v="Kristoffervika" />
		<tag k="natural" v="bay" />
		<tag k="ssr:stedsnr" v="318515" />
	</node>
	<node id="-825920" lat="64.5851222186" lon="11.4717083306">
		<tag k="name" v="Pålvika" />
		<tag k="natural" v="bay" />
		<tag k="ssr:stedsnr" v="837625" />
	</node>
	<node id="-823869" lat="64.6256944469" lon="11.1528416719">
		<tag k="name" v="Jevikodden" />
		<tag k="natural" v="cape" />
		<tag k="ssr:stedsnr" v="257555" />
	</node>
	<node id="-823866" lat="64.5743277804" lon="11.1699666653">
		<tag k="name" v="Skorstadvågen" />
		<tag k="natural" v="bay" />
		<tag k="ssr:stedsnr" v="290493" />
	</node>
	<node id="-825913" lat="64.5835861099" lon="11.6159055648">
		<tag k="alt_name" v="Leirvikbukta" />
		<tag k="name" v="Leirvika" />
		<tag k="natural" v="bay" />
		<tag k="ssr:stedsnr" v="500066" />
	</node>
	<node id="-823864" lat="64.4077972185" lon="11.3593861062">
		<tag k="name" v="Kjølsøyodden" />
		<tag k="natural" v="cape" />
		<tag k="ssr:stedsnr" v="281759" />
	</node>
	<node id="-823862" lat="64.4666027162" lon="11.4870085986">
		<tag k="name" v="Lavika" />
		<tag k="natural" v="bay" />
		<tag k="ssr:stedsnr" v="499037" />
	</node>
	<node id="-825909" lat="64.5073527804" lon="11.2876611182">
		<tag k="name" v="Likosen" />
		<tag k="natural" v="bay" />
		<tag k="ssr:stedsnr" v="318230" />
	</node>
	<node id="-823859" lat="64.5607499978" lon="11.1346027699">
		<tag k="name" v="Ormtunga" />
		<tag k="natural" v="cape" />
		<tag k="ssr:stedsnr" v="351558" />
	</node>
	<node id="-825906" lat="64.5609000022" lon="11.5298000055">
		<tag k="name" v="Rundholmen" />
		<tag k="place" v="islet" />
		<tag k="ssr:stedsnr" v="682005" />
	</node>
	<node id="-825905" lat="64.6760222227" lon="11.0076555454">
		<tag k="name" v="Steingrunnen" />
		<tag k="natural" v="shoal" />
		<tag k="place" v="locality" />
		<tag k="ssr:stedsnr" v="89545" />
	</node>
	<node id="-823856" lat="64.6603305572" lon="10.890380546">
		<tag k="name" v="Skjærfallet" />
		<tag k="natural" v="shoal" />
		<tag k="place" v="locality" />
		<tag k="ssr:stedsnr" v="572596" />
	</node>
	<node id="-825902" lat="64.4429222183" lon="11.4023805652">
		<tag k="name" v="Juvika" />
		<tag k="natural" v="bay" />
		<tag k="ssr:stedsnr" v="879685" />
	</node>
	<node id="-823853" lat="64.5407305598" lon="11.3336222322">
		<tag k="name" v="Saltbuodden" />
		<tag k="natural" v="cape" />
		<tag k="ssr:stedsnr" v="818780" />
	</node>
	<node id="-823849" lat="64.6034666639" lon="11.5974694458">
		<tag k="fixme" v="consider seamark:type=rock or natural=shoal" />
		<tag k="name" v="Buktaskjæra" />
		<tag k="place" v="islet" />
		<tag k="ssr:stedsnr" v="534737" />
	</node>
	<node id="-823847" lat="64.5052916645" lon="11.2839500056">
		<tag k="name" v="Varpa" />
		<tag k="natural" v="cape" />
		<tag k="ssr:stedsnr" v="378233" />
	</node>
	<node id="-823846" lat="64.5562277806" lon="11.3291861064">
		<tag k="name" v="Lauvøytaren" />
		<tag k="natural" v="shoal" />
		<tag k="place" v="locality" />
		<tag k="ssr:stedsnr" v="271497" />
	</node>
	<node id="-823839" lat="64.3937583298" lon="11.3549444351">
		<tag k="name" v="Svartvika" />
		<tag k="natural" v="bay" />
		<tag k="ssr:stedsnr" v="888695" />
	</node>
	<node id="-825883" lat="64.5573762238" lon="11.3591342813">
		<tag k="name" v="Langnesodden" />
		<tag k="natural" v="cape" />
		<tag k="ssr:stedsnr" v="257215" />
	</node>
	<node id="-823827" lat="64.6257249967" lon="11.0415333231">
		<tag k="name" v="Bjørvika" />
		<tag k="natural" v="bay" />
		<tag k="ssr:stedsnr" v="378535" />
	</node>
	<node id="-825874" lat="64.5653138873" lon="11.3450222153">
		<tag k="name" v="Levervikan" />
		<tag k="natural" v="bay" />
		<tag k="ssr:stedsnr" v="594594" />
	</node>
	<node id="-823823" lat="64.5402916647" lon="11.3396499961">
		<tag k="name" v="Vika" />
		<tag k="natural" v="bay" />
		<tag k="ssr:stedsnr" v="75061" />
	</node>
	<node id="-825870" lat="64.6050583373" lon="11.0343749954">
		<tag k="name" v="Ettervika" />
		<tag k="natural" v="bay" />
		<tag k="ssr:stedsnr" v="169913" />
	</node>
	<node id="-823725" lat="64.5362611153" lon="11.4617777805">
		<tag k="fixme" v="consider seamark:type=rock or natural=shoal" />
		<tag k="name" v="Mefjordskjæret" />
		<tag k="place" v="islet" />
		<tag k="ssr:stedsnr" v="449334" />
	</node>
	<node id="-825867" lat="64.5267083336" lon="11.4484194344">
		<tag k="name" v="Krokneset" />
		<tag k="natural" v="cape" />
		<tag k="ssr:stedsnr" v="534657" />
	</node>
	<node id="-825866" lat="64.5934000009" lon="11.3768805513">
		<tag k="alt_name" v="Bjønnholmen" />
		<tag k="name" v="Bjørnholmen" />
		<tag k="place" v="islet" />
		<tag k="ssr:stedsnr" v="388354" />
	</node>
	<node id="-825864" lat="64.6695722219" lon="11.6779194411">
		<tag k="name" v="Heivikodden" />
		<tag k="natural" v="cape" />
		<tag k="ssr:stedsnr" v="109698" />
	</node>
	<node id="-825859" lat="64.6231611111" lon="11.1541722193">
		<tag k="alt_name" v="Vågen" />
		<tag k="name" v="Finnangervågen" />
		<tag k="natural" v="bay" />
		<tag k="ssr:stedsnr" v="14427" />
	</node>
	<node id="-823810" lat="64.5076333358" lon="11.2644805562">
		<tag k="name" v="Skomsvollgrunnen" />
		<tag k="natural" v="shoal" />
		<tag k="place" v="locality" />
		<tag k="ssr:stedsnr" v="878502" />
	</node>
	<node id="-823809" lat="64.6717777771" lon="10.8367527727">
		<tag k="name" v="Nordskåka" />
		<tag k="natural" v="shoal" />
		<tag k="place" v="locality" />
		<tag k="ssr:stedsnr" v="330561" />
	</node>
	<node id="-823808" lat="64.5397944482" lon="11.3211388924">
		<tag k="name" v="Husvika" />
		<tag k="natural" v="bay" />
		<tag k="ssr:stedsnr" v="818778" />
	</node>
	<node id="-825853" lat="64.5433416656" lon="11.4188750074">
		<tag k="name" v="Gongstøa" />
		<tag k="natural" v="cape" />
		<tag k="ssr:stedsnr" v="864066" />
	</node>
	<node id="-823804" lat="64.5725999978" lon="11.6624305496">
		<tag k="name" v="Kristianstranda" />
		<tag k="natural" v="beach" />
		<tag k="place" v="locality" />
		<tag k="ssr:stedsnr" v="15019" />
	</node>
	<node id="-825849" lat="64.3873527814" lon="11.3342305549">
		<tag k="name" v="Hesthammeren" />
		<tag k="natural" v="cape" />
		<tag k="ssr:stedsnr" v="584735" />
	</node>
	<node id="-823800" lat="64.4129194409" lon="11.3553861016">
		<tag k="name" v="Dragøya" />
		<tag k="place" v="islet" />
		<tag k="ssr:stedsnr" v="499044" />
	</node>
	<node id="-823797" lat="64.5162805585" lon="11.482152782">
		<tag k="name" v="Steinvika" />
		<tag k="natural" v="bay" />
		<tag k="ssr:stedsnr" v="267323" />
	</node>
	<node id="-825840" lat="64.5763805518" lon="11.6236249986">
		<tag k="name" v="Hestvikbukta" />
		<tag k="natural" v="bay" />
		<tag k="ssr:stedsnr" v="170659" />
	</node>
	<node id="-823786" lat="64.4832805532" lon="11.3678611082">
		<tag k="name" v="Langnesodden" />
		<tag k="natural" v="cape" />
		<tag k="ssr:stedsnr" v="472083" />
	</node>
	<node id="-825832" lat="64.5011694406" lon="11.280836103">
		<tag k="fixme" v="consider seamark:type=rock or natural=shoal" />
		<tag k="name" v="Sandvikskjæra" />
		<tag k="place" v="islet" />
		<tag k="ssr:stedsnr" v="453449" />
	</node>
	<node id="-823783" lat="64.589286109" lon="11.7564472251">
		<tag k="name" v="Tronga" />
		<tag k="natural" v="strait" />
		<tag k="ssr:stedsnr" v="594283" />
	</node>
	<node id="-823781" lat="64.5104805565" lon="11.2445472156">
		<tag k="name" v="Vikaleira" />
		<tag k="natural" v="bay" />
		<tag k="ssr:stedsnr" v="756438" />
	</node>
	<node id="-825826" lat="64.6689833355" lon="10.9334777696">
		<tag k="alt_name" v="Skårflesa, l" />
		<tag k="name" v="Litle Skårflesa" />
		<tag k="place" v="islet" />
		<tag k="ssr:stedsnr" v="135999" />
	</node>
	<node id="-825824" lat="64.4916499994" lon="11.2948472177">
		<tag k="name" v="Broemskjæra" />
		<tag k="natural" v="shoal" />
		<tag k="place" v="locality" />
		<tag k="ssr:stedsnr" v="756312" />
	</node>
	<node id="-823774" lat="64.6057805575" lon="11.5961416569">
		<tag k="name" v="Brannøysundet" />
		<tag k="natural" v="strait" />
		<tag k="ssr:stedsnr" v="170742" />
	</node>
	<node id="-825821" lat="64.5751416651" lon="11.3242638894">
		<tag k="name" v="Lyngholmtaren" />
		<tag k="natural" v="shoal" />
		<tag k="place" v="locality" />
		<tag k="ssr:stedsnr" v="695450" />
	</node>
	<node id="-823772" lat="64.6071972213" lon="11.5838416738">
		<tag k="name" v="Sør-Vestgøtsundet" />
		<tag k="natural" v="strait" />
		<tag k="ssr:stedsnr" v="594666" />
	</node>
	<node id="-825819" lat="64.4910694461" lon="11.2253999993">
		<tag k="name" v="Bekkaneset" />
		<tag k="natural" v="cape" />
		<tag k="ssr:stedsnr" v="438185" />
	</node>
	<node id="-825818" lat="64.4698055512" lon="11.2691555533">
		<tag k="name" v="Spikmofjæra" />
		<tag k="natural" v="beach" />
		<tag k="place" v="locality" />
		<tag k="ssr:stedsnr" v="351066" />
	</node>
	<node id="-825816" lat="64.6446166653" lon="11.0538027789">
		<tag k="name" v="Måholmen" />
		<tag k="place" v="islet" />
		<tag k="ssr:stedsnr" v="75543" />
	</node>
	<node id="-823760" lat="64.5711166632" lon="11.3413999971">
		<tag k="name" v="Stranda" />
		<tag k="natural" v="shoal" />
		<tag k="place" v="locality" />
		<tag k="ssr:stedsnr" v="271494" />
	</node>
	<node id="-825807" lat="64.4644555549" lon="11.5195611044">
		<tag k="alt_name" v="Tiendholmen" />
		<tag k="name" v="Tinholmen" />
		<tag k="natural" v="cape" />
		<tag k="ssr:stedsnr" v="13074" />
	</node>
	<node id="-825801" lat="64.5604489116" lon="11.5082869523">
		<tag k="name" v="Kuøya" />
		<tag k="place" v="islet" />
		<tag k="ssr:stedsnr" v="136001" />
	</node>
	<node id="-825796" lat="64.4847083377" lon="11.3728027836">
		<tag k="name" v="Langfallvika" />
		<tag k="natural" v="bay" />
		<tag k="ssr:stedsnr" v="195210" />
	</node>
	<node id="-825791" lat="64.430647224" lon="11.3747777689">
		<tag k="name" v="Breivikholmen" />
		<tag k="place" v="islet" />
		<tag k="ssr:stedsnr" v="620107" />
	</node>
	<node id="-823742" lat="64.5553027772" lon="11.3622055538">
		<tag k="name" v="Bjørkvikodden" />
		<tag k="natural" v="cape" />
		<tag k="ssr:stedsnr" v="898605" />
	</node>
	<node id="-825782" lat="64.4906166633" lon="11.2451416673">
		<tag k="name" v="Vågodden" />
		<tag k="natural" v="cape" />
		<tag k="ssr:stedsnr" v="195211" />
	</node>
	<node id="-823732" lat="64.5408916684" lon="11.3181611019">
		<tag k="name" v="Lakshammaren" />
		<tag k="natural" v="cape" />
		<tag k="ssr:stedsnr" v="818791" />
	</node>
	<node id="-823729" lat="64.6181194466" lon="11.1634777788">
		<tag k="name" v="Finnangerodden" />
		<tag k="natural" v="cape" />
		<tag k="ssr:stedsnr" v="230480" />
	</node>
	<node id="-825776" lat="64.4552916635" lon="11.4019916726">
		<tag k="fixme" v="consider seamark:type=rock or natural=shoal" />
		<tag k="name" v="Kvitingen" />
		<tag k="place" v="islet" />
		<tag k="ssr:stedsnr" v="89531" />
	</node>
	<node id="-825775" lat="64.5785833304" lon="11.284305561">
		<tag k="alt_name" v="Årnesgalten" />
		<tag k="name" v="Galten" />
		<tag k="natural" v="cape" />
		<tag k="ssr:stedsnr" v="197061" />
	</node>
	<node id="-823726" lat="64.6170166637" lon="11.5996805486">
		<tag k="name" v="Tennholmgrunnen" />
		<tag k="natural" v="shoal" />
		<tag k="place" v="locality" />
		<tag k="ssr:stedsnr" v="594673" />
	</node>
	<node id="-825773" lat="64.5497666663" lon="11.485219454">
		<tag k="fixme" v="consider seamark:type=rock or natural=shoal" />
		<tag k="name" v="Kuvikskjæret" />
		<tag k="place" v="islet" />
		<tag k="ssr:stedsnr" v="935416" />
	</node>
	<node id="-823720" lat="64.4915194426" lon="11.4415499959">
		<tag k="alt_name" v="Festhammaren" />
		<tag k="name" v="Sveaodden" />
		<tag k="natural" v="cape" />
		<tag k="ssr:stedsnr" v="14201" />
	</node>
	<node id="-825767" lat="64.5952472222" lon="11.6039000062">
		<tag k="name" v="Jektvika" />
		<tag k="natural" v="bay" />
		<tag k="old_name" v="Jægtvika" />
		<tag k="ssr:stedsnr" v="378464" />
	</node>
	<node id="-823717" lat="64.4866250006" lon="11.3897694379">
		<tag k="name" v="Hovikbukta" />
		<tag k="natural" v="bay" />
		<tag k="ssr:stedsnr" v="317186" />
	</node>
	<node id="-823714" lat="64.3979666703" lon="11.3181166593">
		<tag k="name" v="Nordsveet" />
		<tag k="natural" v="bay" />
		<tag k="ssr:stedsnr" v="402776" />
	</node>
	<node id="-825757" lat="64.5874555562" lon="11.1275277801">
		<tag k="name" v="Myanvika" />
		<tag k="natural" v="bay" />
		<tag k="ssr:stedsnr" v="28306" />
	</node>
	<node id="-825753" lat="64.5936499968" lon="11.6964916652">
		<tag k="name" v="Krammarvika" />
		<tag k="natural" v="bay" />
		<tag k="ssr:stedsnr" v="958284" />
	</node>
	<node id="-823704" lat="64.6164833308" lon="11.0347972141">
		<tag k="name" v="Drossavika" />
		<tag k="natural" v="bay" />
		<tag k="ssr:stedsnr" v="898957" />
	</node>
	<node id="-823703" lat="64.6409638928" lon="11.0438333396">
		<tag k="name" v="Hjelmen" />
		<tag k="natural" v="shoal" />
		<tag k="place" v="locality" />
		<tag k="ssr:stedsnr" v="575000" />
	</node>
	<node id="-825743" lat="64.6008527822" lon="11.5961527745">
		<tag k="name" v="Bukta" />
		<tag k="natural" v="bay" />
		<tag k="ssr:stedsnr" v="378451" />
	</node>
	<node id="-823694" lat="64.5393555524" lon="11.3277583291">
		<tag k="name" v="Gårdsvika" />
		<tag k="natural" v="bay" />
		<tag k="ssr:stedsnr" v="939768" />
	</node>
	<node id="-823691" lat="64.6195000007" lon="11.1932416582">
		<tag k="fixme" v="consider seamark:type=rock or natural=shoal" />
		<tag k="name" v="Jovalskjæret" />
		<tag k="place" v="islet" />
		<tag k="ssr:stedsnr" v="957109" />
	</node>
	<node id="-825737" lat="64.5383138916" lon="11.3034138894">
		<tag k="name" v="Breistrandleira" />
		<tag k="natural" v="bay" />
		<tag k="ssr:stedsnr" v="393732" />
	</node>
	<node id="-825735" lat="64.5577487845" lon="11.534959275">
		<tag k="name" v="Kjerstiholmen" />
		<tag k="place" v="islet" />
		<tag k="ssr:stedsnr" v="924091" />
	</node>
	<node id="-825732" lat="64.6186083342" lon="11.2013777858">
		<tag k="alt_name" v="Sauøyan" />
		<tag k="name" v="Sauøya" />
		<tag k="place" v="island" />
		<tag k="ssr:stedsnr" v="803503" />
	</node>
	<node id="-825731" lat="64.595427776" lon="11.6127472193">
		<tag k="name" v="Langodden" />
		<tag k="natural" v="cape" />
		<tag k="ssr:stedsnr" v="838755" />
	</node>
	<node id="-823680" lat="64.4463777819" lon="11.4998944419">
		<tag k="name" v="Digerneset" />
		<tag k="natural" v="cape" />
		<tag k="ssr:stedsnr" v="863020" />
	</node>
	<node id="-823676" lat="64.5442000002" lon="11.5387888982">
		<tag k="name" v="Valen" />
		<tag k="natural" v="bay" />
		<tag k="ssr:stedsnr" v="560078" />
	</node>
	<node id="-825723" lat="64.4877694412" lon="11.211688884">
		<tag k="name" v="Hoddøysanden" />
		<tag k="natural" v="beach" />
		<tag k="place" v="locality" />
		<tag k="ssr:stedsnr" v="230390" />
	</node>
	<node id="-823674" lat="64.5955861118" lon="11.2594388801">
		<tag k="name" v="Saltkjelvika" />
		<tag k="natural" v="bay" />
		<tag k="ssr:stedsnr" v="813340" />
	</node>
	<node id="-823673" lat="64.5656805592" lon="11.5496527724">
		<tag k="name" v="Blikengodden" />
		<tag k="natural" v="cape" />
		<tag k="ssr:stedsnr" v="473662" />
	</node>
	<node id="-825718" lat="64.5844805577" lon="11.3543333272">
		<tag k="name" v="Finnbukta" />
		<tag k="natural" v="bay" />
		<tag k="ssr:stedsnr" v="594570" />
	</node>
	<node id="-823669" lat="64.6084888892" lon="11.0232972279">
		<tag k="name" v="Lyktholmen" />
		<tag k="place" v="islet" />
		<tag k="ssr:stedsnr" v="351924" />
	</node>
	<node id="-823663" lat="64.4444861106" lon="11.4936277695">
		<tag k="name" v="Storvika" />
		<tag k="natural" v="bay" />
		<tag k="ssr:stedsnr" v="499013" />
	</node>
	<node id="-825710" lat="64.5501444465" lon="11.5528055576">
		<tag k="name" v="Hammersøya" />
		<tag k="place" v="island" />
		<tag k="ssr:stedsnr" v="935433" />
	</node>
	<node id="-823661" lat="64.5408500027" lon="11.4389499972">
		<tag k="name" v="Otervikodden" />
		<tag k="natural" v="cape" />
		<tag k="ssr:stedsnr" v="560062" />
	</node>
	<node id="-825706" lat="64.6446861142" lon="11.1201638797">
		<tag k="name" v="Maursetodden" />
		<tag k="natural" v="cape" />
		<tag k="ssr:stedsnr" v="593384" />
	</node>
	<node id="-823655" lat="64.5226194449" lon="11.4984444394">
		<tag k="name" v="Risøya" />
		<tag k="place" v="islet" />
		<tag k="ssr:stedsnr" v="865172" />
	</node>
	<node id="-823652" lat="64.5705611114" lon="11.5887138921">
		<tag k="name" v="Storsauøya" />
		<tag k="place" v="island" />
		<tag k="ssr:stedsnr" v="136044" />
	</node>
	<node id="-823651" lat="64.4476361129" lon="11.5051027678">
		<tag k="name" v="Spillumsvika" />
		<tag k="natural" v="bay" />
		<tag k="ssr:stedsnr" v="196018" />
	</node>
	<node id="-823650" lat="64.6086555565" lon="11.5846611147">
		<tag k="alt_name" v="Vestgotøya" />
		<tag k="name" v="Vestgøtøya" />
		<tag k="place" v="islet" />
		<tag k="ssr:stedsnr" v="621541" />
	</node>
	<node id="-823648" lat="64.542299999" lon="11.4049388809">
		<tag k="name" v="Rønneset" />
		<tag k="natural" v="cape" />
		<tag k="ssr:stedsnr" v="473645" />
	</node>
	<node id="-825690" lat="64.6368944489" lon="11.032661115">
		<tag k="fixme" v="consider seamark:type=rock or natural=shoal" />
		<tag k="name" v="Faksen" />
		<tag k="place" v="islet" />
		<tag k="ssr:stedsnr" v="75535" />
	</node>
	<node id="-823641" lat="64.5440194412" lon="11.5707166585">
		<tag k="name" v="Heimdalsbotnet" />
		<tag k="natural" v="strait" />
		<tag k="ssr:stedsnr" v="500100" />
	</node>
	<node id="-825686" lat="64.368338887" lon="11.312741669">
		<tag k="name" v="Nausthaugen" />
		<tag k="natural" v="cape" />
		<tag k="ssr:stedsnr" v="620918" />
	</node>
	<node id="-823632" lat="64.3796916692" lon="11.3984500085">
		<tag k="name" v="Kalvøya" />
		<tag k="natural" v="cape" />
		<tag k="ssr:stedsnr" v="827770" />
	</node>
	<node id="-825677" lat="64.5239416643" lon="11.4526416686">
		<tag k="name" v="Krognesholmen" />
		<tag k="natural" v="cape" />
		<tag k="ssr:stedsnr" v="388332" />
	</node>
	<node id="-823628" lat="64.5648055543" lon="11.134150009">
		<tag k="name" v="Stolen" />
		<tag k="natural" v="cape" />
		<tag k="ssr:stedsnr" v="196564" />
	</node>
	<node id="-825675" lat="64.678908335" lon="10.9157166589">
		<tag k="name" v="Austre Håfallet" />
		<tag k="natural" v="shoal" />
		<tag k="place" v="locality" />
		<tag k="ssr:stedsnr" v="135986" />
	</node>
	<node id="-823625" lat="64.5708444448" lon="11.5091638923">
		<tag k="name" v="Seliodden" />
		<tag k="natural" v="cape" />
		<tag k="ssr:stedsnr" v="291624" />
	</node>
	<node id="-825670" lat="64.5179416641" lon="11.4683805462">
		<tag k="name" v="Gåsnesodden" />
		<tag k="natural" v="cape" />
		<tag k="ssr:stedsnr" v="388329" />
	</node>
	<node id="-825669" lat="64.3741444421" lon="11.3245749916">
		<tag k="fixme" v="multiple name tags, choose one and add the other to alt_name" />
		<tag k="name" v="Saltbuodden;Valen" />
		<tag k="natural" v="cape" />
		<tag k="ssr:stedsnr" v="620917" />
	</node>
	<node id="-823618" lat="64.5690472193" lon="11.2197999976">
		<tag k="name" v="Langvika" />
		<tag k="natural" v="bay" />
		<tag k="ssr:stedsnr" v="813347" />
	</node>
	<node id="-825665" lat="64.4683027778" lon="11.2700638874">
		<tag k="name" v="Finnkovstranda" />
		<tag k="natural" v="beach" />
		<tag k="place" v="locality" />
		<tag k="ssr:stedsnr" v="13063" />
	</node>
	<node id="-823613" lat="64.6506416699" lon="11.1112777821">
		<tag k="alt_name" v="Stamnesodden" />
		<tag k="name" v="Stamneset" />
		<tag k="natural" v="cape" />
		<tag k="ssr:stedsnr" v="135511" />
	</node>
	<node id="-825660" lat="64.5260805591" lon="11.5216583353">
		<tag k="name" v="Strandholman" />
		<tag k="place" v="islet" />
		<tag k="ssr:stedsnr" v="85338" />
	</node>
	<node id="-823611" lat="64.6719166658" lon="10.918494437">
		<tag k="name" v="Steintaren" />
		<tag k="natural" v="shoal" />
		<tag k="place" v="locality" />
		<tag k="ssr:stedsnr" v="512553" />
	</node>
	<node id="-825658" lat="64.4860972223" lon="11.237588893">
		<tag k="name" v="Hoddøyvågen" />
		<tag k="natural" v="bay" />
		<tag k="ssr:stedsnr" v="438179" />
	</node>
	<node id="-823609" lat="64.4809067195" lon="11.3130888068">
		<tag k="name" v="Hestvika" />
		<tag k="natural" v="bay" />
		<tag k="ssr:stedsnr" v="331324" />
	</node>
	<node id="-825653" lat="64.6398166695" lon="11.0622583288">
		<tag k="name" v="Måssåholmen" />
		<tag k="place" v="islet" />
		<tag k="ssr:stedsnr" v="654980" />
	</node>
	<node id="-825652" lat="64.590063889" lon="11.3716361084">
		<tag k="alt_name" v="Strømmavågen" />
		<tag k="name" v="Straumsvika" />
		<tag k="natural" v="bay" />
		<tag k="ssr:stedsnr" v="392479" />
	</node>
	<node id="-823597" lat="64.4522125717" lon="11.3805996292">
		<tag k="name" v="Rørholman" />
		<tag k="place" v="islet" />
		<tag k="ssr:stedsnr" v="331320" />
	</node>
	<node id="-825643" lat="64.6361027785" lon="11.037763884">
		<tag k="name" v="Sørfaksen" />
		<tag k="place" v="islet" />
		<tag k="ssr:stedsnr" v="534999" />
	</node>
	<node id="-823590" lat="64.6510361109" lon="11.0747888976">
		<tag k="name" v="Skeiskaodden" />
		<tag k="natural" v="cape" />
		<tag k="ssr:stedsnr" v="135512" />
	</node>
	<node id="-825637" lat="64.5613025864" lon="11.5037636899">
		<tag k="name" v="Hellsøystraumen" />
		<tag k="natural" v="strait" />
		<tag k="ssr:stedsnr" v="560001" />
	</node>
	<node id="-825636" lat="64.5783166621" lon="11.3498916754">
		<tag k="name" v="Bryggskjæret" />
		<tag k="natural" v="cape" />
		<tag k="ssr:stedsnr" v="864022" />
	</node>
	<node id="-823584" lat="64.6715861092" lon="10.9410416645">
		<tag k="name" v="Austre Steinfallknausen" />
		<tag k="natural" v="shoal" />
		<tag k="place" v="locality" />
		<tag k="ssr:stedsnr" v="695534" />
	</node>
	<node id="-823581" lat="64.5829861135" lon="11.5962138956">
		<tag k="name" v="Røyrholet" />
		<tag k="natural" v="bay" />
		<tag k="ssr:stedsnr" v="75034" />
	</node>
	<node id="-823580" lat="64.5535000044" lon="11.4843305629">
		<tag k="name" v="Solbuenget" />
		<tag k="natural" v="bay" />
		<tag k="ssr:stedsnr" v="473630" />
	</node>
	<node id="-825625" lat="64.5399861079" lon="11.4319722323">
		<tag k="fixme" v="consider seamark:type=rock or natural=shoal" />
		<tag k="name" v="Oterskjæret" />
		<tag k="place" v="islet" />
		<tag k="ssr:stedsnr" v="570355" />
	</node>
	<node id="-823575" lat="64.4533833322" lon="11.5258166759">
		<tag k="name" v="Linbergodden" />
		<tag k="natural" v="cape" />
		<tag k="ssr:stedsnr" v="499004" />
	</node>
	<node id="-823574" lat="64.4011416671" lon="11.3510805505">
		<tag k="name" v="Svartvika" />
		<tag k="natural" v="bay" />
		<tag k="ssr:stedsnr" v="463743" />
	</node>
	<node id="-823570" lat="64.5750416667" lon="11.668069445">
		<tag k="name" v="Kristianodden" />
		<tag k="natural" v="cape" />
		<tag k="ssr:stedsnr" v="837262" />
	</node>
	<node id="-825614" lat="64.5641611134" lon="11.3251833332">
		<tag k="name" v="Lauvøya" />
		<tag k="place" v="islet" />
		<tag k="ssr:stedsnr" v="804009" />
	</node>
	<node id="-825610" lat="64.4694861079" lon="11.4070666699">
		<tag k="name" v="Ansnesgrunnen" />
		<tag k="natural" v="shoal" />
		<tag k="place" v="locality" />
		<tag k="ssr:stedsnr" v="271371" />
	</node>
	<node id="-825608" lat="64.5815499983" lon="11.1620972237">
		<tag k="bay" v="fjord" />
		<tag k="name" v="Altfjorden" />
		<tag k="natural" v="bay" />
		<tag k="ssr:stedsnr" v="756285" />
	</node>
	<node id="-825607" lat="64.391297225" lon="11.3819361108">
		<tag k="name" v="Bangsundbotnet" />
		<tag k="natural" v="bay" />
		<tag k="ssr:stedsnr" v="924060" />
	</node>
	<node id="-825605" lat="64.4662666647" lon="11.3764527697">
		<tag k="fixme" v="consider seamark:type=rock or natural=shoal" />
		<tag k="name" v="Styrmannskjæret" />
		<tag k="place" v="islet" />
		<tag k="ssr:stedsnr" v="271370" />
	</node>
	<node id="-825604" lat="64.5614583291" lon="11.4997361117">
		<tag k="fixme" v="consider seamark:type=rock or natural=shoal" />
		<tag k="name" v="Grisin" />
		<tag k="place" v="islet" />
		<tag k="ssr:stedsnr" v="170625" />
	</node>
	<node id="-825603" lat="64.3802027805" lon="11.3941833385">
		<tag k="name" v="Kalvvika" />
		<tag k="natural" v="bay" />
		<tag k="ssr:stedsnr" v="681953" />
	</node>
	<node id="-823553" lat="64.6967611113" lon="10.8959583284">
		<tag k="name" v="Tverrtaren" />
		<tag k="natural" v="shoal" />
		<tag k="place" v="locality" />
		<tag k="ssr:stedsnr" v="317971" />
	</node>
	<node id="-825597" lat="64.568144445" lon="11.5259444481">
		<tag k="name" v="Oldervika" />
		<tag k="natural" v="bay" />
		<tag k="ssr:stedsnr" v="570361" />
	</node>
	<node id="-825595" lat="64.5679111135" lon="11.6172833295">
		<tag k="name" v="Øltappen" />
		<tag k="place" v="islet" />
		<tag k="ssr:stedsnr" v="864020" />
	</node>
	<node id="-823541" lat="64.5729027816" lon="11.5601138788">
		<tag k="name" v="Bekkavika" />
		<tag k="natural" v="bay" />
		<tag k="ssr:stedsnr" v="439014" />
	</node>
	<node id="-823539" lat="64.5146083317" lon="11.4611111083">
		<tag k="name" v="Pedervika" />
		<tag k="natural" v="bay" />
		<tag k="ssr:stedsnr" v="332561" />
	</node>
	<node id="-825585" lat="64.5723027738" lon="11.2810611026">
		<tag k="name" v="Jektvikodden" />
		<tag k="natural" v="cape" />
		<tag k="ssr:stedsnr" v="804005" />
	</node>
	<node id="-825582" lat="64.5518583332" lon="11.4811138785">
		<tag k="name" v="Kuvika" />
		<tag k="natural" v="bay" />
		<tag k="ssr:stedsnr" v="534625" />
	</node>
	<node id="-825581" lat="64.5844500038" lon="11.2251666736">
		<tag k="name" v="Djupvika" />
		<tag k="natural" v="bay" />
		<tag k="ssr:stedsnr" v="682223" />
	</node>
	<node id="-825578" lat="64.5851222186" lon="11.4717083306">
		<tag k="name" v="Moavika" />
		<tag k="natural" v="bay" />
		<tag k="ssr:stedsnr" v="170629" />
	</node>
	<node id="-823528" lat="64.5584472198" lon="11.6050805613">
		<tag k="name" v="Litlbjørnvika" />
		<tag k="natural" v="bay" />
		<tag k="ssr:stedsnr" v="682009" />
	</node>
	<node id="-825566" lat="64.6163805551" lon="11.2320472215">
		<tag k="alt_name" v="Barøya" />
		<tag k="name" v="Bardøya" />
		<tag k="place" v="island" />
		<tag k="ssr:stedsnr" v="803486" />
	</node>
	<node id="-825565" lat="64.4428305555" lon="11.3866000008">
		<tag k="fixme" v="consider seamark:type=rock or natural=shoal" />
		<tag k="name" v="Tronskjæret" />
		<tag k="place" v="islet" />
		<tag k="ssr:stedsnr" v="756305" />
	</node>
	<node id="-823516" lat="64.4505472181" lon="11.3795583325">
		<tag k="name" v="Søre Rørholman" />
		<tag k="place" v="islet" />
		<tag k="ssr:stedsnr" v="785102" />
	</node>
	<node id="-825561" lat="64.6394138893" lon="11.1286388801">
		<tag k="name" v="Sandvika" />
		<tag k="natural" v="bay" />
		<tag k="ssr:stedsnr" v="864564" />
	</node>
	<node id="-825556" lat="64.6838166629" lon="10.8600833279">
		<tag k="name" v="Nordskåka" />
		<tag k="natural" v="shoal" />
		<tag k="place" v="locality" />
		<tag k="ssr:stedsnr" v="135976" />
	</node>
	<node id="-823501" lat="64.5861999999" lon="11.6151166722">
		<tag k="name" v="Sjåberget" />
		<tag k="natural" v="cape" />
		<tag k="ssr:stedsnr" v="534694" />
	</node>
	<node id="-825548" lat="64.6628722264" lon="10.9333138943">
		<tag k="alt_name" v="Skårflesa, store" />
		<tag k="fixme" v="consider seamark:type=rock or natural=shoal" />
		<tag k="name" v="Store Skårflesa" />
		<tag k="place" v="islet" />
		<tag k="ssr:stedsnr" v="258000" />
	</node>
	<node id="-823497" lat="64.4592694439" lon="11.3902333234">
		<tag k="name" v="Brannøya" />
		<tag k="place" v="island" />
		<tag k="ssr:stedsnr" v="863004" />
	</node>
	<node id="-825544" lat="64.485516666" lon="11.4446750061">
		<tag k="alt_name" v="Skjolden" />
		<tag k="name" v="Kattmarkodden" />
		<tag k="natural" v="cape" />
		<tag k="ssr:stedsnr" v="559202" />
	</node>
	<node id="-823494" lat="64.5790805521" lon="11.3212527865">
		<tag k="name" v="Lyngholmen" />
		<tag k="place" v="islet" />
		<tag k="ssr:stedsnr" v="439015" />
	</node>
	<node id="-825541" lat="64.3740666685" lon="11.3913083241">
		<tag k="name" v="Fjaløya" />
		<tag k="place" v="islet" />
		<tag k="ssr:stedsnr" v="74967" />
	</node>
	<node id="-823492" lat="64.3993833301" lon="11.3398249916">
		<tag k="name" v="Skaftodden" />
		<tag k="natural" v="cape" />
		<tag k="ssr:stedsnr" v="210304" />
	</node>
	<node id="-825539" lat="64.636572219" lon="11.0411361053">
		<tag k="name" v="Våghatten" />
		<tag k="natural" v="cape" />
		<tag k="ssr:stedsnr" v="439492" />
	</node>
	<node id="-825538" lat="64.4403416685" lon="11.3700694392">
		<tag k="alt_name" v="Kubatholmen" />
		<tag k="name" v="Kubbåtholmen" />
		<tag k="place" v="islet" />
		<tag k="ssr:stedsnr" v="271359" />
	</node>
	<node id="-825534" lat="64.6808166698" lon="10.9075916704">
		<tag k="name" v="Vestre Håfallet" />
		<tag k="natural" v="shoal" />
		<tag k="place" v="locality" />
		<tag k="ssr:stedsnr" v="378994" />
	</node>
	<node id="-825533" lat="64.5687999983" lon="11.6174111113">
		<tag k="name" v="Vetterhusstraumen" />
		<tag k="natural" v="strait" />
		<tag k="ssr:stedsnr" v="197038" />
	</node>
	<node id="-825532" lat="64.648677779" lon="11.1099500066">
		<tag k="name" v="Karvevika" />
		<tag k="natural" v="bay" />
		<tag k="ssr:stedsnr" v="229963" />
	</node>
	<node id="-825529" lat="64.5080805524" lon="11.2761833337">
		<tag k="fixme" v="consider seamark:type=rock or natural=shoal" />
		<tag k="name" v="Storskjæret" />
		<tag k="place" v="islet" />
		<tag k="ssr:stedsnr" v="196228" />
	</node>
	<node id="-825527" lat="64.4265388914" lon="11.3794555618">
		<tag k="name" v="Trettvika" />
		<tag k="natural" v="bay" />
		<tag k="ssr:stedsnr" v="48794" />
	</node>
	<node id="-823478" lat="64.4408888863" lon="11.3957055491">
		<tag k="name" v="Saltbuvika" />
		<tag k="natural" v="bay" />
		<tag k="ssr:stedsnr" v="635677" />
	</node>
	<node id="-825523" lat="64.5600555541" lon="11.4849444476">
		<tag k="name" v="Djupvika" />
		<tag k="natural" v="bay" />
		<tag k="ssr:stedsnr" v="803206" />
	</node>
	<node id="-825521" lat="64.493366664" lon="11.4338416584">
		<tag k="fixme" v="consider seamark:type=rock or natural=shoal" />
		<tag k="name" v="Lokkarskjæret" />
		<tag k="place" v="islet" />
		<tag k="ssr:stedsnr" v="439232" />
	</node>
	<node id="-825519" lat="64.6397805522" lon="11.0701000021">
		<tag k="name" v="Steinvika" />
		<tag k="natural" v="bay" />
		<tag k="ssr:stedsnr" v="210997" />
	</node>
	<node id="-823470" lat="64.5754222241" lon="11.4727138983">
		<tag k="name" v="Magnusvika" />
		<tag k="natural" v="bay" />
		<tag k="ssr:stedsnr" v="473616" />
	</node>
	<node id="-825515" lat="64.485572226" lon="11.2044722208">
		<tag k="name" v="Levra" />
		<tag k="natural" v="shoal" />
		<tag k="place" v="locality" />
		<tag k="ssr:stedsnr" v="149297" />
	</node>
	<node id="-825510" lat="64.5255611126" lon="11.501216672">
		<tag k="name" v="Nordråsa" />
		<tag k="natural" v="strait" />
		<tag k="ssr:stedsnr" v="621178" />
	</node>
	<node id="-825508" lat="64.4814299044" lon="11.3100903269">
		<tag k="name" v="Broemsneset" />
		<tag k="natural" v="cape" />
		<tag k="ssr:stedsnr" v="776411" />
	</node>
	<node id="-825503" lat="64.4944555533" lon="11.215452772">
		<tag k="name" v="Hoddøygrunnen" />
		<tag k="natural" v="shoal" />
		<tag k="place" v="locality" />
		<tag k="ssr:stedsnr" v="149298" />
	</node>
	<node id="-823453" lat="64.4624416647" lon="11.2059527682">
		<tag k="name" v="Litlhåkilen" />
		<tag k="natural" v="bay" />
		<tag k="ssr:stedsnr" v="317433" />
	</node>
	<node id="-823452" lat="64.5681694479" lon="11.5197472222">
		<tag k="name" v="Kjettin" />
		<tag k="natural" v="cape" />
		<tag k="ssr:stedsnr" v="654662" />
	</node>
	<node id="-825499" lat="64.6250888929" lon="11.0379694412">
		<tag k="name" v="Djupvika" />
		<tag k="natural" v="bay" />
		<tag k="ssr:stedsnr" v="473939" />
	</node>
	<node id="-825498" lat="64.6196666632" lon="11.2314777724">
		<tag k="name" v="Svartholet" />
		<tag k="natural" v="bay" />
		<tag k="ssr:stedsnr" v="257449" />
	</node>
	<node id="-823448" lat="64.3872888875" lon="11.389230565">
		<tag k="name" v="Naustholmen" />
		<tag k="place" v="islet" />
		<tag k="ssr:stedsnr" v="827752" />
	</node>
	<node id="-825483" lat="64.3640361138" lon="11.3005083395">
		<tag k="name" v="Mølnstranda" />
		<tag k="natural" v="beach" />
		<tag k="place" v="locality" />
		<tag k="ssr:stedsnr" v="803992" />
	</node>
	<node id="-825479" lat="64.6008833369" lon="11.2564444478">
		<tag k="name" v="Brennvinsholet" />
		<tag k="natural" v="bay" />
		<tag k="ssr:stedsnr" v="864540" />
	</node>
	<node id="-825477" lat="64.4822305557" lon="11.2140055567">
		<tag k="name" v="Hoddøya" />
		<tag k="place" v="island" />
		<tag k="ssr:stedsnr" v="378421" />
	</node>
	<node id="-823427" lat="64.5484555519" lon="11.4300305561">
		<tag k="name" v="Beisvågen" />
		<tag k="natural" v="bay" />
		<tag k="ssr:stedsnr" v="864086" />
	</node>
	<node id="-825469" lat="64.6053444476" lon="11.6044638806">
		<tag k="name" v="Brannøyan" />
		<tag k="place" v="island" />
		<tag k="ssr:stedsnr" v="655723" />
	</node>
	<node id="-825468" lat="64.6515944442" lon="11.1061388981">
		<tag k="name" v="Matkroken" />
		<tag k="natural" v="bay" />
		<tag k="ssr:stedsnr" v="534973" />
	</node>
	<node id="-823658" lat="64.6452722203" lon="11.1087916579">
		<tag k="name" v="Gardvika" />
		<tag k="natural" v="bay" />
		<tag k="ssr:stedsnr" v="108972" />
	</node>
	<node id="-825464" lat="64.6575222231" lon="10.9578388951">
		<tag k="name" v="Oksfotskallen" />
		<tag k="natural" v="shoal" />
		<tag k="place" v="locality" />
		<tag k="ssr:stedsnr" v="694581" />
	</node>
	<node id="-823415" lat="64.5496944435" lon="11.4346472158">
		<tag k="name" v="Dyrvika" />
		<tag k="natural" v="bay" />
		<tag k="ssr:stedsnr" v="473624" />
	</node>
	<node id="-823408" lat="64.5933861143" lon="11.6901944347">
		<tag k="name" v="Salstranda" />
		<tag k="natural" v="beach" />
		<tag k="place" v="locality" />
		<tag k="ssr:stedsnr" v="257499" />
	</node>
	<node id="-823407" lat="64.455916667" lon="11.3796305579">
		<tag k="name" v="Alvholmen" />
		<tag k="place" v="islet" />
		<tag k="ssr:stedsnr" v="725099" />
	</node>
	<node id="-823406" lat="64.5672805579" lon="11.4827666592">
		<tag k="bay" v="fjord" />
		<tag k="name" v="Svartdalsfjorden" />
		<tag k="natural" v="bay" />
		<tag k="ssr:stedsnr" v="388377" />
	</node>
	<node id="-825453" lat="64.641525003" lon="11.0718388938">
		<tag k="name" v="Hagavika" />
		<tag k="natural" v="bay" />
		<tag k="ssr:stedsnr" v="534979" />
	</node>
	<node id="-825449" lat="64.5852111095" lon="11.7557277849">
		<tag k="name" v="Indre Hestvika" />
		<tag k="natural" v="bay" />
		<tag k="ssr:stedsnr" v="655334" />
	</node>
	<node id="-825440" lat="64.4864972223" lon="11.271883331">
		<tag k="name" v="Valsetvika" />
		<tag k="natural" v="bay" />
		<tag k="ssr:stedsnr" v="48387" />
	</node>
	<node id="-825437" lat="64.6900444469" lon="10.926041667">
		<tag k="name" v="Aldgården" />
		<tag k="place" v="island" />
		<tag k="ssr:stedsnr" v="257984" />
	</node>
	<node id="-825428" lat="64.6556472234" lon="10.9446305571">
		<tag k="fixme" v="consider seamark:type=rock or natural=shoal" />
		<tag k="name" v="Oksfoten" />
		<tag k="place" v="islet" />
		<tag k="ssr:stedsnr" v="196491" />
	</node>
	<node id="-825424" lat="64.4125138889" lon="11.3607305522">
		<tag k="name" v="Bangsundstraumen" />
		<tag k="natural" v="strait" />
		<tag k="ssr:stedsnr" v="271325" />
	</node>
	<node id="-825423" lat="64.3682388896" lon="11.3809555628">
		<tag k="name" v="Fjalbotnet" />
		<tag k="natural" v="bay" />
		<tag k="ssr:stedsnr" v="742955" />
	</node>
	<node id="-825421" lat="64.6707944465" lon="11.0386611064">
		<tag k="name" v="Flottrataren" />
		<tag k="natural" v="shoal" />
		<tag k="place" v="locality" />
		<tag k="ssr:stedsnr" v="570322" />
	</node>
	<node id="-825417" lat="64.5139444435" lon="11.2265305616">
		<tag k="alt_name" v="Kløvvika" />
		<tag k="name" v="Kløyvvika" />
		<tag k="natural" v="bay" />
		<tag k="ssr:stedsnr" v="257162" />
	</node>
	<node id="-825412" lat="64.6134333333" lon="11.2215388985">
		<tag k="name" v="Tømmerviksundet" />
		<tag k="natural" v="strait" />
		<tag k="ssr:stedsnr" v="864549" />
	</node>
	<node id="-825410" lat="64.3963416703" lon="11.3413916596">
		<tag k="fixme" v="consider seamark:type=rock or natural=shoal" />
		<tag k="name" v="Kobbskjæret" />
		<tag k="place" v="islet" />
		<tag k="ssr:stedsnr" v="271322" />
	</node>
	<node id="-825408" lat="64.5709111095" lon="11.5213750049">
		<tag k="name" v="Kjettin" />
		<tag k="natural" v="bay" />
		<tag k="ssr:stedsnr" v="864016" />
	</node>
	<node id="-825405" lat="64.5207194458" lon="11.1659500058">
		<tag k="name" v="Kjevika" />
		<tag k="natural" v="bay" />
		<tag k="ssr:stedsnr" v="257712" />
	</node>
	<node id="-825403" lat="64.6208416665" lon="11.1640277678">
		<tag k="name" v="Skipsskjæret" />
		<tag k="natural" v="shoal" />
		<tag k="place" v="locality" />
		<tag k="ssr:stedsnr" v="332000" />
	</node>
	<node id="-825400" lat="64.510375001" lon="11.1874027721">
		<tag k="name" v="Kjerringmarkvika" />
		<tag k="natural" v="bay" />
		<tag k="ssr:stedsnr" v="803741" />
	</node>
	<node id="-825391" lat="64.5498861111" lon="11.3819249903">
		<tag k="fixme" v="consider seamark:type=rock or natural=shoal" />
		<tag k="name" v="Kråka" />
		<tag k="place" v="islet" />
		<tag k="ssr:stedsnr" v="574477" />
	</node>
	<node id="-825386" lat="64.6494277821" lon="11.0789500095">
		<tag k="name" v="Skeiskavika" />
		<tag k="natural" v="bay" />
		<tag k="ssr:stedsnr" v="170977" />
	</node>
	<node id="-825382" lat="64.4684055544" lon="11.2142750079">
		<tag k="name" v="Håkilen" />
		<tag k="natural" v="bay" />
		<tag k="ssr:stedsnr" v="620358" />
	</node>
	<node id="-825379" lat="64.6027638916" lon="11.2559527715">
		<tag k="name" v="Geitryggen" />
		<tag k="natural" v="cape" />
		<tag k="ssr:stedsnr" v="500579" />
	</node>
	<node id="-825378" lat="64.5628694434" lon="11.4778305514">
		<tag k="name" v="Sandvika" />
		<tag k="natural" v="bay" />
		<tag k="ssr:stedsnr" v="500016" />
	</node>
	<node id="-825370" lat="64.658427778" lon="10.8663694364">
		<tag k="name" v="Synstataren" />
		<tag k="natural" v="shoal" />
		<tag k="place" v="locality" />
		<tag k="ssr:stedsnr" v="26577" />
	</node>
	<node id="-825367" lat="64.4393638895" lon="11.4754666734">
		<tag k="name" v="Åneset" />
		<tag k="natural" v="cape" />
		<tag k="ssr:stedsnr" v="393681" />
	</node>
	<node id="-825363" lat="64.5016583311" lon="11.2707333268">
		<tag k="name" v="Sandviktaren" />
		<tag k="natural" v="shoal" />
		<tag k="place" v="locality" />
		<tag k="ssr:stedsnr" v="89459" />
	</node>
	<node id="-825358" lat="64.6015104149" lon="11.5597838247">
		<tag k="alt_name" v="Vestgoten" />
		<tag k="name" v="Vestgøten" />
		<tag k="natural" v="bay" />
		<tag k="ssr:stedsnr" v="742399" />
	</node>
	<node id="-825345" lat="64.678000004" lon="10.8573361106">
		<tag k="name" v="Sørskåka" />
		<tag k="natural" v="shoal" />
		<tag k="place" v="locality" />
		<tag k="ssr:stedsnr" v="439985" />
	</node>
</osm>
