<?xml version="1.0" encoding="UTF-8"?>
<osm generator="osmapis" version="0.6">
	<node id="-819199" lat="64.6238638859" lon="11.6308277739">
		<tag k="name" v="Røyklielva" />
		<tag k="ssr:stedsnr" v="864434" />
		<tag k="waterway" v="river" />
	</node>
	<node id="-819193" lat="64.4846833343" lon="11.6012805538">
		<tag k="name" v="Lauvskardtjønna" />
		<tag k="natural" v="water" />
		<tag k="ssr:stedsnr" v="147134" />
	</node>
	<node id="-819188" lat="64.6064361099" lon="11.701816668">
		<tag k="name" v="Lomtjønna" />
		<tag k="natural" v="water" />
		<tag k="ssr:stedsnr" v="351270" />
	</node>
	<node id="-819187" lat="64.559211108" lon="11.7346361168">
		<tag k="name" v="Lomtjønna" />
		<tag k="natural" v="water" />
		<tag k="ssr:stedsnr" v="925850" />
	</node>
	<node id="-819176" lat="64.5298944484" lon="11.2131750017">
		<tag k="name" v="Steinlivatnet" />
		<tag k="natural" v="water" />
		<tag k="ssr:stedsnr" v="879434" />
	</node>
	<node id="-819164" lat="64.4796583344" lon="11.6136972251">
		<tag k="name" v="Småvikan" />
		<tag k="natural" v="bay" />
		<tag k="ssr:stedsnr" v="447307" />
	</node>
	<node id="-819160" lat="64.3277250001" lon="11.4523611065">
		<tag k="name" v="Stordjupvatnet" />
		<tag k="natural" v="water" />
		<tag k="ssr:stedsnr" v="499913" />
	</node>
	<node id="-819152" lat="64.5554777788" lon="11.1711333402">
		<tag k="name" v="Auntjønna" />
		<tag k="natural" v="water" />
		<tag k="ssr:stedsnr" v="803646" />
	</node>
	<node id="-819138" lat="64.2896527794" lon="11.4987138948">
		<tag k="name" v="Mellangtjønna" />
		<tag k="natural" v="water" />
		<tag k="ssr:stedsnr" v="438834" />
	</node>
	<node id="-819135" lat="64.2881250002" lon="11.6206750031">
		<tag k="name" v="Pålabekken" />
		<tag k="ssr:stedsnr" v="256806" />
		<tag k="waterway" v="stream" />
	</node>
	<node id="-819127" lat="64.2943277822" lon="11.6924750001">
		<tag k="name" v="Svartelva" />
		<tag k="ssr:stedsnr" v="317798" />
		<tag k="waterway" v="stream" />
	</node>
	<node id="-819123" lat="64.3696749978" lon="11.600605557">
		<tag k="name" v="Andsjøbukta" />
		<tag k="natural" v="bay" />
		<tag k="ssr:stedsnr" v="715489" />
	</node>
	<node id="-819118" lat="64.3379444441" lon="11.3873416684">
		<tag k="name" v="Fiskemfossen" />
		<tag k="natural" v="waterfall" />
		<tag k="ssr:stedsnr" v="75923" />
	</node>
	<node id="-819116" lat="64.4223555548" lon="11.6180999937">
		<tag k="name" v="Lakstjønna" />
		<tag k="natural" v="water" />
		<tag k="ssr:stedsnr" v="75119" />
	</node>
	<node id="-819110" lat="64.4110916635" lon="11.4577944542">
		<tag k="name" v="Dølelva" />
		<tag k="ssr:stedsnr" v="135047" />
		<tag k="waterway" v="river" />
	</node>
	<node id="-819109" lat="64.2770555598" lon="11.6415277828">
		<tag k="name" v="Skorvfossholmen" />
		<tag k="place" v="islet" />
		<tag k="ssr:stedsnr" v="620787" />
	</node>
	<node id="-819106" lat="64.5337416687" lon="11.2223055555">
		<tag k="alt_name" v="Sjålivatnet" />
		<tag k="name" v="Skjålivatnet" />
		<tag k="natural" v="water" />
		<tag k="ssr:stedsnr" v="257060" />
	</node>
	<node id="-819105" lat="64.326288888" lon="11.5772138831">
		<tag k="alt_name" v="Balvatnet" />
		<tag k="name" v="Bølvatnet" />
		<tag k="natural" v="water" />
		<tag k="ssr:stedsnr" v="135860" />
	</node>
	<node id="-819096" lat="64.3378944484" lon="11.5847999929">
		<tag k="name" v="Litlvassbekken" />
		<tag k="ssr:stedsnr" v="958479" />
		<tag k="waterway" v="stream" />
	</node>
	<node id="-819095" lat="64.3179527809" lon="11.4705749962">
		<tag k="name" v="Klubbtjønna" />
		<tag k="natural" v="water" />
		<tag k="ssr:stedsnr" v="511134" />
	</node>
	<node id="-819082" lat="64.5968638892" lon="11.1304777848">
		<tag k="name" v="Setervatnet" />
		<tag k="natural" v="water" />
		<tag k="ssr:stedsnr" v="681542" />
	</node>
	<node id="-819073" lat="64.5913666687" lon="11.1036749909">
		<tag k="alt_name" v="Litl - Myanvikvatnet" />
		<tag k="name" v="Myanvikvatnet" />
		<tag k="natural" v="water" />
		<tag k="ssr:stedsnr" v="195599" />
	</node>
	<node id="-819069" lat="64.4530583361" lon="11.608699993">
		<tag k="name" v="Bukkbladtjønna" />
		<tag k="natural" v="water" />
		<tag k="ssr:stedsnr" v="447292" />
	</node>
	<node id="-819067" lat="64.5207277814" lon="11.4334249902">
		<tag k="name" v="Krokneselva" />
		<tag k="ssr:stedsnr" v="76194" />
		<tag k="waterway" v="stream" />
	</node>
	<node id="-819066" lat="64.5843444459" lon="11.3993444536">
		<tag k="name" v="Nøkktjønna" />
		<tag k="natural" v="water" />
		<tag k="ssr:stedsnr" v="318059" />
	</node>
	<node id="-819063" lat="64.5153361143" lon="11.4035361162">
		<tag k="name" v="Lauvlivatnet" />
		<tag k="natural" v="water" />
		<tag k="ssr:stedsnr" v="499090" />
	</node>
	<node id="-819061" lat="64.4321694431" lon="11.5922083432">
		<tag k="name" v="Kringlåtvatnet" />
		<tag k="natural" v="water" />
		<tag k="ssr:stedsnr" v="75112" />
	</node>
	<node id="-820701" lat="64.3837916686" lon="11.3602611123">
		<tag k="name" v="Botnbekken" />
		<tag k="ssr:stedsnr" v="584744" />
		<tag k="waterway" v="stream" />
	</node>
	<node id="-819051" lat="64.4895694479" lon="11.5232166655">
		<tag k="name" v="Havikbekken" />
		<tag k="ssr:stedsnr" v="90537" />
		<tag k="waterway" v="stream" />
	</node>
	<node id="-819049" lat="64.3382777753" lon="11.4278250101">
		<tag k="name" v="Singsbekken" />
		<tag k="ssr:stedsnr" v="899819" />
		<tag k="waterway" v="stream" />
	</node>
	<node id="-819048" lat="64.3624611125" lon="11.454111119">
		<tag k="name" v="Bjørktjønna" />
		<tag k="natural" v="water" />
		<tag k="ssr:stedsnr" v="924999" />
	</node>
	<node id="-819047" lat="64.5421805562" lon="11.1919999953">
		<tag k="name" v="Midterfuglvatnet" />
		<tag k="natural" v="water" />
		<tag k="ssr:stedsnr" v="439633" />
		<tag k="water" v="lake" />
	</node>
	<node id="-819035" lat="64.5123305535" lon="11.3896833322">
		<tag k="name" v="Dyravatnet" />
		<tag k="natural" v="water" />
		<tag k="ssr:stedsnr" v="439096" />
	</node>
	<node id="-819032" lat="64.502400002" lon="11.4090194459">
		<tag k="name" v="Langvatnet" />
		<tag k="natural" v="water" />
		<tag k="ssr:stedsnr" v="757723" />
	</node>
	<node id="-819029" lat="64.5390888889" lon="11.3651416764">
		<tag k="name" v="Håkilsetertjønna" />
		<tag k="natural" v="water" />
		<tag k="ssr:stedsnr" v="682086" />
	</node>
	<node id="-819027" lat="64.2836999986" lon="11.4450027854">
		<tag k="name" v="Litllangvatnet" />
		<tag k="natural" v="water" />
		<tag k="ssr:stedsnr" v="742820" />
	</node>
	<node id="-819014" lat="64.3210666694" lon="11.5620305602">
		<tag k="name" v="Gravdalsbekken" />
		<tag k="ssr:stedsnr" v="196912" />
		<tag k="waterway" v="stream" />
	</node>
	<node id="-819005" lat="64.5447027797" lon="11.6177499922">
		<tag k="name" v="Skakkanovelva" />
		<tag k="ssr:stedsnr" v="196082" />
		<tag k="waterway" v="stream" />
	</node>
	<node id="-819004" lat="64.3029749965" lon="11.4860861143">
		<tag k="name" v="Seterdalsbekken" />
		<tag k="ssr:stedsnr" v="196906" />
		<tag k="waterway" v="stream" />
	</node>
	<node id="-818993" lat="64.518636108" lon="11.5516833402">
		<tag k="name" v="Småberga" />
		<tag k="ssr:stedsnr" v="454430" />
		<tag k="waterway" v="stream" />
	</node>
	<node id="-818984" lat="64.3426694486" lon="11.4718472183">
		<tag k="name" v="Kattatjønna" />
		<tag k="natural" v="water" />
		<tag k="ssr:stedsnr" v="412798" />
	</node>
	<node id="-818976" lat="64.3269694449" lon="11.4619694529">
		<tag k="name" v="Djupvatna" />
		<tag k="natural" v="water" />
		<tag k="ssr:stedsnr" v="48601" />
	</node>
	<node id="-818974" lat="64.5311583339" lon="11.1722416685">
		<tag k="name" v="Skavdalsvatnet" />
		<tag k="natural" v="water" />
		<tag k="ssr:stedsnr" v="196639" />
	</node>
	<node id="-818967" lat="64.2550583302" lon="11.617980553">
		<tag k="name" v="Nyseterdammen" />
		<tag k="ssr:stedsnr" v="958453" />
		<tag k="waterway" v="dam" />
	</node>
	<node id="-818964" lat="64.4806916669" lon="11.6267861032">
		<tag k="alt_name" v="Tretvika" />
		<tag k="name" v="Trettvika" />
		<tag k="natural" v="bay" />
		<tag k="ssr:stedsnr" v="811328" />
	</node>
	<node id="-818953" lat="64.2793749996" lon="11.5557055586">
		<tag k="name" v="Langbakktjønnin" />
		<tag k="natural" v="water" />
		<tag k="ssr:stedsnr" v="438824" />
	</node>
	<node id="-818949" lat="64.5632333374" lon="11.4038999913">
		<tag k="name" v="Lomtjønna" />
		<tag k="natural" v="water" />
		<tag k="ssr:stedsnr" v="776607" />
	</node>
	<node id="-818938" lat="64.3007611134" lon="11.6465694416">
		<tag k="name" v="Høgvassbekken" />
		<tag k="ssr:stedsnr" v="196905" />
		<tag k="waterway" v="stream" />
	</node>
	<node id="-818927" lat="64.6659305555" lon="11.6984138898">
		<tag k="name" v="Hauka" />
		<tag k="ssr:stedsnr" v="291324" />
		<tag k="waterway" v="river" />
	</node>
	<node id="-818925" lat="64.2883305516" lon="11.6379388834">
		<tag k="name" v="Litlelva" />
		<tag k="ssr:stedsnr" v="74831" />
		<tag k="waterway" v="stream" />
	</node>
	<node id="-818912" lat="64.3539277796" lon="11.3357388826">
		<tag k="name" v="Seterbekken" />
		<tag k="ssr:stedsnr" v="341608" />
		<tag k="waterway" v="stream" />
	</node>
	<node id="-818908" lat="64.3983027772" lon="11.2925861059">
		<tag k="name" v="Stangaråa" />
		<tag k="ssr:stedsnr" v="196077" />
		<tag k="waterway" v="stream" />
	</node>
	<node id="-818899" lat="64.5450500044" lon="11.1964611067">
		<tag k="name" v="Rognlivatnet" />
		<tag k="natural" v="water" />
		<tag k="ssr:stedsnr" v="864675" />
	</node>
	<node id="-818897" lat="64.4288583346" lon="11.6254527873">
		<tag k="name" v="Gråbergtjønna" />
		<tag k="natural" v="water" />
		<tag k="ssr:stedsnr" v="499077" />
	</node>
	<node id="-818887" lat="64.2722388899" lon="11.6426805571">
		<tag k="name" v="Keipvika" />
		<tag k="natural" v="bay" />
		<tag k="ssr:stedsnr" v="256775" />
	</node>
	<node id="-818885" lat="64.4141694427" lon="11.3855138811">
		<tag k="name" v="Midtitjønna" />
		<tag k="natural" v="water" />
		<tag k="ssr:stedsnr" v="948801" />
	</node>
	<node id="-818882" lat="64.4990444411" lon="11.5309444529">
		<tag k="name" v="Tronvasstjønna" />
		<tag k="natural" v="water" />
		<tag k="ssr:stedsnr" v="575520" />
	</node>
	<node id="-818874" lat="64.2495805514" lon="11.6260916652">
		<tag k="name" v="Dekla" />
		<tag k="natural" v="water" />
		<tag k="ssr:stedsnr" v="412400" />
	</node>
	<node id="-818867" lat="64.5341522374" lon="11.4145872978">
		<tag k="name" v="Sura" />
		<tag k="ssr:stedsnr" v="196073" />
		<tag k="waterway" v="stream" />
	</node>
	<node id="-818865" lat="64.557900004" lon="11.4695000101">
		<tag k="name" v="Hattjønna" />
		<tag k="natural" v="water" />
		<tag k="ssr:stedsnr" v="48582" />
	</node>
	<node id="-820508" lat="64.3814111112" lon="11.458786109">
		<tag k="name" v="Øyafossen" />
		<tag k="natural" v="waterfall" />
		<tag k="ssr:stedsnr" v="463696" />
	</node>
	<node id="-818843" lat="64.4869861151" lon="11.4849499984">
		<tag k="name" v="Toddombekken" />
		<tag k="ssr:stedsnr" v="924189" />
		<tag k="waterway" v="stream" />
	</node>
	<node id="-818838" lat="64.5586194481" lon="11.166416672">
		<tag k="name" v="Store Litlskorstadvatnet" />
		<tag k="natural" v="water" />
		<tag k="ssr:stedsnr" v="863619" />
	</node>
	<node id="-818835" lat="64.5654722221" lon="11.6749361056">
		<tag k="name" v="Svartåsbekken" />
		<tag k="ssr:stedsnr" v="473331" />
		<tag k="waterway" v="stream" />
	</node>
	<node id="-818829" lat="64.3420027792" lon="11.4560999913">
		<tag k="name" v="Lomtjønna" />
		<tag k="natural" v="water" />
		<tag k="ssr:stedsnr" v="499890" />
	</node>
	<node id="-818820" lat="64.627052776" lon="11.8533722229">
		<tag k="name" v="Lossmenttjønna" />
		<tag k="natural" v="water" />
		<tag k="ssr:stedsnr" v="682899" />
	</node>
	<node id="-820449" lat="64.3721555523" lon="11.5421083241">
		<tag k="name" v="Bjortjønnin" />
		<tag k="natural" v="water" />
		<tag k="ssr:stedsnr" v="948633" />
	</node>
	<node id="-818809" lat="64.5944722206" lon="11.682111121">
		<tag k="name" v="Langstrandelva" />
		<tag k="ssr:stedsnr" v="898269" />
		<tag k="waterway" v="stream" />
	</node>
	<node id="-818807" lat="64.4315499986" lon="11.5341027878">
		<tag k="name" v="Eriktjønnbekken" />
		<tag k="ssr:stedsnr" v="47381" />
		<tag k="waterway" v="stream" />
	</node>
	<node id="-818801" lat="64.2753361102" lon="11.6012194369">
		<tag k="name" v="Hestholmfossen" />
		<tag k="natural" v="waterfall" />
		<tag k="ssr:stedsnr" v="378840" />
	</node>
	<node id="-818800" lat="64.2840277751" lon="11.5317916608">
		<tag k="name" v="Middagsbekken" />
		<tag k="ssr:stedsnr" v="742812" />
		<tag k="waterway" v="stream" />
	</node>
	<node id="-818792" lat="64.4853944457" lon="11.5754916608">
		<tag k="name" v="Ålbergelva" />
		<tag k="ssr:stedsnr" v="924185" />
		<tag k="waterway" v="stream" />
	</node>
	<node id="-818788" lat="64.4642972247" lon="11.6243499962">
		<tag k="name" v="Flytjønna" />
		<tag k="natural" v="water" />
		<tag k="ssr:stedsnr" v="508363" />
	</node>
	<node id="-818775" lat="64.2854250004" lon="11.475866658">
		<tag k="name" v="Bustholtjønna" />
		<tag k="natural" v="water" />
		<tag k="ssr:stedsnr" v="898622" />
	</node>
	<node id="-818774" lat="64.2922997916" lon="11.6657216113">
		<tag k="name" v="Høgvatnet" />
		<tag k="natural" v="water" />
		<tag k="ssr:stedsnr" v="135821" />
		<tag k="water" v="lake" />
	</node>
	<node id="-818768" lat="64.250919447" lon="11.6062916594">
		<tag k="name" v="Langvasselva" />
		<tag k="ssr:stedsnr" v="75885" />
		<tag k="waterway" v="stream" />
	</node>
	<node id="-818759" lat="64.5197027771" lon="11.3774500062">
		<tag k="name" v="Nordskardvatnet" />
		<tag k="natural" v="water" />
		<tag k="ssr:stedsnr" v="865201" />
	</node>
	<node id="-818751" lat="64.3802555535" lon="11.5849249967">
		<tag k="name" v="Vestre Fiskløysa" />
		<tag k="natural" v="water" />
		<tag k="ssr:stedsnr" v="47376" />
	</node>
	<node id="-818748" lat="64.379238885" lon="11.4631166671">
		<tag k="name" v="Litlhøla" />
		<tag k="place" v="locality" />
		<tag k="ssr:stedsnr" v="644740" />
	</node>
	<node id="-818746" lat="64.5991916686" lon="11.7225694504">
		<tag k="name" v="Gravvasselva" />
		<tag k="ssr:stedsnr" v="291294" />
		<tag k="waterway" v="river" />
	</node>
	<node id="-818742" lat="64.3806944464" lon="11.5872694353">
		<tag k="name" v="Fiskløysa" />
		<tag k="natural" v="water" />
		<tag k="ssr:stedsnr" v="13956" />
		<tag k="water" v="lake" />
	</node>
	<node id="-818734" lat="64.5060583345" lon="11.6120611086">
		<tag k="name" v="Heiabekken" />
		<tag k="ssr:stedsnr" v="412380" />
		<tag k="waterway" v="stream" />
	</node>
	<node id="-818727" lat="64.5755361112" lon="11.2504250016">
		<tag k="name" v="Åelva" />
		<tag k="ssr:stedsnr" v="682056" />
		<tag k="waterway" v="stream" />
	</node>
	<node id="-818718" lat="64.3420333366" lon="11.3286749997">
		<tag k="name" v="Svartfossen" />
		<tag k="natural" v="waterfall" />
		<tag k="ssr:stedsnr" v="499885" />
	</node>
	<node id="-818712" lat="64.497130559" lon="11.4051638972">
		<tag k="name" v="Heimfjellvatnet" />
		<tag k="natural" v="water" />
		<tag k="ssr:stedsnr" v="681239" />
	</node>
	<node id="-820741" lat="64.4625000018" lon="11.7416666761">
		<tag k="name" v="Namsen - Nååmesje" />
		<tag k="name:no" v="Namsen" />
		<tag k="name:sma" v="Nååmesje" />
		<tag k="ssr:stedsnr" v="863214" />
		<tag k="waterway" v="river" />
	</node>
	<node id="-820737" lat="64.4926916652" lon="11.5927166692">
		<tag k="name" v="Høgakseltjønna" />
		<tag k="natural" v="water" />
		<tag k="ssr:stedsnr" v="803243" />
	</node>
	<node id="-820735" lat="64.4875805586" lon="11.5307861146">
		<tag k="name" v="Havikvatnet" />
		<tag k="natural" v="water" />
		<tag k="ssr:stedsnr" v="438199" />
	</node>
	<node id="-820733" lat="64.3614666633" lon="11.3619055626">
		<tag k="name" v="Ilskarbekken" />
		<tag k="ssr:stedsnr" v="38548" />
		<tag k="waterway" v="stream" />
	</node>
	<node id="-818677" lat="64.5368694441" lon="11.3822777784">
		<tag k="name" v="Igltjønna" />
		<tag k="natural" v="water" />
		<tag k="ssr:stedsnr" v="635748" />
	</node>
	<node id="-820722" lat="64.3698833315" lon="11.6089777746">
		<tag k="name" v="Lomtjønna" />
		<tag k="natural" v="water" />
		<tag k="ssr:stedsnr" v="716490" />
	</node>
	<node id="-818670" lat="64.2956194419" lon="11.6044777678">
		<tag k="name" v="Stamvasstjønnin" />
		<tag k="natural" v="water" />
		<tag k="ssr:stedsnr" v="135818" />
	</node>
	<node id="-818665" lat="64.5674611088" lon="11.3849944478">
		<tag k="name" v="Krokvatnet" />
		<tag k="natural" v="water" />
		<tag k="ssr:stedsnr" v="318011" />
	</node>
	<node id="-818664" lat="64.6062888872" lon="11.5235000043">
		<tag k="name" v="Sagvatnet" />
		<tag k="natural" v="water" />
		<tag k="ssr:stedsnr" v="925533" />
		<tag k="water" v="lake" />
	</node>
	<node id="-818660" lat="64.4880805519" lon="11.4470916714">
		<tag k="name" v="Halsosen" />
		<tag k="natural" v="bay" />
		<tag k="ssr:stedsnr" v="377196" />
	</node>
	<node id="-818653" lat="64.5431805532" lon="11.154655565">
		<tag k="name" v="Krokvasstjønnin" />
		<tag k="natural" v="water" />
		<tag k="ssr:stedsnr" v="500690" />
	</node>
	<node id="-820698" lat="64.4983444413" lon="11.614747228">
		<tag k="name" v="Engaselva" />
		<tag k="ssr:stedsnr" v="803237" />
		<tag k="waterway" v="stream" />
	</node>
	<node id="-818649" lat="64.5791805599" lon="11.6208749907">
		<tag k="name" v="Rypnesvatnet" />
		<tag k="natural" v="water" />
		<tag k="ssr:stedsnr" v="682063" />
	</node>
	<node id="-820695" lat="64.5930611075" lon="11.7821305534">
		<tag k="name" v="Kvennbekken" />
		<tag k="ssr:stedsnr" v="958292" />
		<tag k="waterway" v="stream" />
	</node>
	<node id="-818641" lat="64.5838250021" lon="11.7938083233">
		<tag k="name" v="Ekorndalselva" />
		<tag k="ssr:stedsnr" v="14758" />
		<tag k="waterway" v="stream" />
	</node>
	<node id="-820686" lat="64.5800361071" lon="11.3915472317">
		<tag k="name" v="Setervatnet" />
		<tag k="natural" v="water" />
		<tag k="ssr:stedsnr" v="500077" />
	</node>
	<node id="-818637" lat="64.6031083342" lon="11.7296888981">
		<tag k="name" v="Lomtjønna" />
		<tag k="natural" v="water" />
		<tag k="ssr:stedsnr" v="898246" />
	</node>
	<node id="-818633" lat="64.4090999971" lon="11.3104249962">
		<tag k="alt_name" v="Storsteinvikbekken" />
		<tag k="name" v="Storsteinbekken" />
		<tag k="ssr:stedsnr" v="499054" />
		<tag k="waterway" v="stream" />
	</node>
	<node id="-820678" lat="64.3576500021" lon="11.5392416721">
		<tag k="name" v="Myråa" />
		<tag k="ssr:stedsnr" v="438998" />
		<tag k="waterway" v="stream" />
	</node>
	<node id="-820675" lat="64.4847111132" lon="11.599991659">
		<tag k="name" v="Lauvskarvatnet" />
		<tag k="natural" v="water" />
		<tag k="ssr:stedsnr" v="568321" />
		<tag k="water" v="lake" />
	</node>
	<node id="-818625" lat="64.5471250039" lon="11.7455249912">
		<tag k="name" v="Liakamvatna" />
		<tag k="natural" v="water" />
		<tag k="ssr:stedsnr" v="197956" />
	</node>
	<node id="-818624" lat="64.381599999" lon="11.3613333281">
		<tag k="name" v="Ilhammarbekken" />
		<tag k="ssr:stedsnr" v="644748" />
		<tag k="waterway" v="stream" />
	</node>
	<node id="-818622" lat="64.5617055568" lon="11.6385499974">
		<tag k="alt_name" v="Brurabekktjønna" />
		<tag k="name" v="Syningomvatnet" />
		<tag k="natural" v="water" />
		<tag k="ssr:stedsnr" v="257007" />
	</node>
	<node id="-818620" lat="64.6294194418" lon="11.0885583368">
		<tag k="name" v="Aglvatnet" />
		<tag k="natural" v="water" />
		<tag k="ssr:stedsnr" v="681509" />
		<tag k="water" v="lake" />
	</node>
	<node id="-818617" lat="64.5762750038" lon="11.7363555496">
		<tag k="name" v="Sagfossen" />
		<tag k="natural" v="waterfall" />
		<tag k="ssr:stedsnr" v="958373" />
	</node>
	<node id="-818614" lat="64.4130944456" lon="11.423025">
		<tag k="name" v="Selneselva" />
		<tag k="ssr:stedsnr" v="439039" />
		<tag k="waterway" v="river" />
	</node>
	<node id="-818607" lat="64.2716027754" lon="11.6051638845">
		<tag k="name" v="Middagsfossen" />
		<tag k="natural" v="waterfall" />
		<tag k="ssr:stedsnr" v="439836" />
	</node>
	<node id="-818602" lat="64.3843333371" lon="11.5309222275">
		<tag k="name" v="Sagfossen" />
		<tag k="natural" v="waterfall" />
		<tag k="ssr:stedsnr" v="705752" />
	</node>
	<node id="-820647" lat="64.3188217755" lon="11.6384800077">
		<tag k="name" v="Solemsvatnet" />
		<tag k="natural" v="water" />
		<tag k="ssr:stedsnr" v="134937" />
		<tag k="water" v="lake" />
	</node>
	<node id="-820646" lat="64.4975249965" lon="11.4896555492">
		<tag k="name" v="Bjørndalsbekken" />
		<tag k="ssr:stedsnr" v="514544" />
		<tag k="waterway" v="stream" />
	</node>
	<node id="-820644" lat="64.6102333338" lon="11.5042444511">
		<tag k="name" v="Revodden" />
		<tag k="natural" v="cape" />
		<tag k="ssr:stedsnr" v="350673" />
	</node>
	<node id="-818595" lat="64.3186833297" lon="11.3661527692">
		<tag k="name" v="Litlelva" />
		<tag k="ssr:stedsnr" v="899361" />
		<tag k="waterway" v="river" />
	</node>
	<node id="-820642" lat="64.3506083378" lon="11.2909527697">
		<tag k="name" v="Innerengelva" />
		<tag k="ssr:stedsnr" v="14971" />
		<tag k="waterway" v="stream" />
	</node>
	<node id="-820636" lat="64.6197666625" lon="11.7044694476">
		<tag k="name" v="Bjørklivatnet" />
		<tag k="natural" v="water" />
		<tag k="ssr:stedsnr" v="715311" />
	</node>
	<node id="-818585" lat="64.3293638907" lon="11.4092444493">
		<tag k="name" v="Svartvatnet" />
		<tag k="natural" v="water" />
		<tag k="ssr:stedsnr" v="499861" />
	</node>
	<node id="-820629" lat="64.607325004" lon="11.499522221">
		<tag k="name" v="Storgranvika" />
		<tag k="natural" v="bay" />
		<tag k="ssr:stedsnr" v="775671" />
	</node>
	<node id="-820626" lat="64.6421499993" lon="11.6592777675">
		<tag k="name" v="Røyklitjønna" />
		<tag k="natural" v="water" />
		<tag k="ssr:stedsnr" v="925463" />
	</node>
	<node id="-818576" lat="64.4128472266" lon="11.3887722259">
		<tag k="name" v="Stortjønna" />
		<tag k="natural" v="water" />
		<tag k="ssr:stedsnr" v="281765" />
	</node>
	<node id="-818575" lat="64.3983611139" lon="11.5916944467">
		<tag k="name" v="Spjøtvasstjøna" />
		<tag k="natural" v="water" />
		<tag k="ssr:stedsnr" v="775332" />
	</node>
	<node id="-818571" lat="64.6017111105" lon="11.1527055537">
		<tag k="name" v="Middagsfjellvatnet" />
		<tag k="natural" v="water" />
		<tag k="ssr:stedsnr" v="472510" />
	</node>
	<node id="-820618" lat="64.6001249955" lon="11.4978000084">
		<tag k="alt_name" v="Skjærivasselva" />
		<tag k="name" v="Skjerivasselva" />
		<tag k="ssr:stedsnr" v="135200" />
		<tag k="waterway" v="river" />
	</node>
	<node id="-818567" lat="64.2726611127" lon="11.4956916726">
		<tag k="name" v="Åltjønna" />
		<tag k="natural" v="water" />
		<tag k="ssr:stedsnr" v="803825" />
	</node>
	<node id="-820599" lat="64.6281611102" lon="11.704438894">
		<tag k="name" v="Auritjønnin" />
		<tag k="natural" v="water" />
		<tag k="ssr:stedsnr" v="168285" />
	</node>
	<node id="-820598" lat="64.4832527773" lon="11.5625722124">
		<tag k="name" v="Høykneselva" />
		<tag k="ssr:stedsnr" v="74202" />
		<tag k="waterway" v="stream" />
	</node>
	<node id="-818549" lat="64.5780916677" lon="11.7576916702">
		<tag k="name" v="Seterbekken" />
		<tag k="ssr:stedsnr" v="958372" />
		<tag k="waterway" v="stream" />
	</node>
	<node id="-818545" lat="64.424641669" lon="11.5816500067">
		<tag k="name" v="Fiskløysa" />
		<tag k="natural" v="water" />
		<tag k="ssr:stedsnr" v="864107" />
		<tag k="water" v="lake" />
	</node>
	<node id="-818541" lat="64.4344444444" lon="11.6340694389">
		<tag k="name" v="Svarttjønna" />
		<tag k="natural" v="water" />
		<tag k="ssr:stedsnr" v="775352" />
	</node>
	<node id="-818540" lat="64.5213611109" lon="11.3468083329">
		<tag k="name" v="Dugurdmålstjønna" />
		<tag k="natural" v="water" />
		<tag k="ssr:stedsnr" v="291644" />
	</node>
	<node id="-818534" lat="64.3556083313" lon="11.4802083386">
		<tag k="name" v="Langvatnet" />
		<tag k="natural" v="water" />
		<tag k="ssr:stedsnr" v="256994" />
	</node>
	<node id="-820581" lat="64.3696250017" lon="11.5532388912">
		<tag k="name" v="Langtjønna" />
		<tag k="natural" v="water" />
		<tag k="ssr:stedsnr" v="705635" />
	</node>
	<node id="-818532" lat="64.5941527819" lon="11.5930333418">
		<tag k="name" v="Jektvikelva" />
		<tag k="ssr:stedsnr" v="534724" />
		<tag k="waterway" v="stream" />
	</node>
	<node id="-820572" lat="64.6057166635" lon="11.6719472133">
		<tag k="name" v="Sommarhustjønna" />
		<tag k="natural" v="water" />
		<tag k="ssr:stedsnr" v="803495" />
	</node>
	<node id="-818523" lat="64.3884722242" lon="11.5526944426">
		<tag k="name" v="Nedre Fjeldsettjønna" />
		<tag k="natural" v="water" />
		<tag k="ssr:stedsnr" v="948766" />
	</node>
	<node id="-818516" lat="64.3371583295" lon="11.4755444542">
		<tag k="name" v="Habortjønna" />
		<tag k="natural" v="water" />
		<tag k="ssr:stedsnr" v="864909" />
	</node>
	<node id="-818515" lat="64.5535750014" lon="11.219461117">
		<tag k="name" v="Småellingan" />
		<tag k="natural" v="water" />
		<tag k="ssr:stedsnr" v="533568" />
	</node>
	<node id="-818514" lat="64.3168555573" lon="11.4219111057">
		<tag k="name" v="Ragnhildtjønna" />
		<tag k="natural" v="water" />
		<tag k="ssr:stedsnr" v="13932" />
	</node>
	<node id="-820561" lat="64.5623750009" lon="11.7671249966">
		<tag k="name" v="Bjørnheielva" />
		<tag k="ssr:stedsnr" v="136816" />
		<tag k="waterway" v="stream" />
	</node>
	<node id="-818510" lat="64.509213889" lon="11.324405565">
		<tag k="name" v="Listitjønna" />
		<tag k="natural" v="water" />
		<tag k="ssr:stedsnr" v="864115" />
	</node>
	<node id="-818506" lat="64.5480888874" lon="11.2311166744">
		<tag k="name" v="Synnafjellsvatnet" />
		<tag k="natural" v="water" />
		<tag k="ssr:stedsnr" v="533567" />
	</node>
	<node id="-820553" lat="64.4237666626" lon="11.3314277691">
		<tag k="name" v="Melkbekken" />
		<tag k="ssr:stedsnr" v="87122" />
		<tag k="waterway" v="stream" />
	</node>
	<node id="-820552" lat="64.3849999974" lon="11.4379111155">
		<tag k="name" v="Styggskjæret" />
		<tag k="place" v="islet" />
		<tag k="ssr:stedsnr" v="463689" />
	</node>
	<node id="-818502" lat="64.353724998" lon="11.4956194522">
		<tag k="name" v="Flakkbekken" />
		<tag k="ssr:stedsnr" v="256991" />
		<tag k="waterway" v="stream" />
	</node>
	<node id="-818501" lat="64.5569837597" lon="11.642357784">
		<tag k="name" v="Bjørkavatnet" />
		<tag k="natural" v="water" />
		<tag k="ssr:stedsnr" v="560088" />
	</node>
	<node id="-818499" lat="64.4746777756" lon="11.5875111194">
		<tag k="name" v="Storøya" />
		<tag k="place" v="islet" />
		<tag k="ssr:stedsnr" v="863042" />
	</node>
	<node id="-818498" lat="64.6114444464" lon="11.1492222191">
		<tag k="name" v="Svarttjønna" />
		<tag k="natural" v="water" />
		<tag k="ssr:stedsnr" v="472497" />
	</node>
	<node id="-820544" lat="64.5888611098" lon="11.5671111093">
		<tag k="name" v="Haltnesvatnet" />
		<tag k="natural" v="water" />
		<tag k="ssr:stedsnr" v="317414" />
	</node>
	<node id="-818491" lat="64.4903194472" lon="11.3852222136">
		<tag k="fixme" v="multiple name tags, choose one and add the other to alt_name" />
		<tag k="name" v="Seterelva;Skramstadelva" />
		<tag k="ssr:stedsnr" v="14204" />
		<tag k="waterway" v="stream" />
	</node>
	<node id="-818488" lat="64.4845833325" lon="11.5628999895">
		<tag k="name" v="Sagfossen" />
		<tag k="natural" v="waterfall" />
		<tag k="ssr:stedsnr" v="211557" />
	</node>
	<node id="-820535" lat="64.3374277819" lon="11.4574111098">
		<tag k="name" v="Nøkkeltjønna" />
		<tag k="natural" v="water" />
		<tag k="ssr:stedsnr" v="924885" />
	</node>
	<node id="-818486" lat="64.3064999963" lon="11.5721388866">
		<tag k="name" v="Auntjønnin" />
		<tag k="natural" v="water" />
		<tag k="ssr:stedsnr" v="13929" />
	</node>
	<node id="-818485" lat="64.358941665" lon="11.5520472198">
		<tag k="name" v="Kvennhusbekken" />
		<tag k="ssr:stedsnr" v="159613" />
		<tag k="waterway" v="stream" />
	</node>
	<node id="-818481" lat="64.4905888865" lon="11.5999305523">
		<tag k="name" v="Nonstjønna" />
		<tag k="natural" v="water" />
		<tag k="ssr:stedsnr" v="681230" />
	</node>
	<node id="-820527" lat="64.3437444486" lon="11.404397219">
		<tag k="name" v="Flakktjønnbekken" />
		<tag k="ssr:stedsnr" v="959799" />
		<tag k="waterway" v="stream" />
	</node>
	<node id="-820525" lat="64.578238887" lon="11.4987138906">
		<tag k="name" v="Klomptjønna" />
		<tag k="natural" v="water" />
		<tag k="ssr:stedsnr" v="170655" />
	</node>
	<node id="-818474" lat="64.5168527817" lon="11.302130552">
		<tag k="name" v="Litlelva" />
		<tag k="ssr:stedsnr" v="864116" />
		<tag k="waterway" v="stream" />
	</node>
	<node id="-820516" lat="64.5949444427" lon="11.5696916675">
		<tag k="name" v="Jektvikvatnet" />
		<tag k="natural" v="water" />
		<tag k="ssr:stedsnr" v="412645" />
	</node>
	<node id="-818466" lat="64.6104111125" lon="11.7642333233">
		<tag k="name" v="Klubbtjønna" />
		<tag k="natural" v="water" />
		<tag k="ssr:stedsnr" v="257802" />
	</node>
	<node id="-820509" lat="64.2963916643" lon="11.3453750081">
		<tag k="name" v="Rumptrolltjønna" />
		<tag k="natural" v="water" />
		<tag k="ssr:stedsnr" v="377910" />
	</node>
	<node id="-818460" lat="64.4495000025" lon="11.6074444439">
		<tag k="name" v="Straumhyllbekken" />
		<tag k="ssr:stedsnr" v="863021" />
		<tag k="waterway" v="stream" />
	</node>
	<node id="-818459" lat="64.5048027798" lon="11.3474638978">
		<tag k="name" v="Vikalangvatnet" />
		<tag k="natural" v="water" />
		<tag k="ssr:stedsnr" v="257259" />
	</node>
	<node id="-820506" lat="64.4366916683" lon="11.5441500008">
		<tag k="name" v="Ogntjønna" />
		<tag k="natural" v="water" />
		<tag k="ssr:stedsnr" v="924080" />
	</node>
	<node id="-818456" lat="64.5264555512" lon="11.2356083305">
		<tag k="name" v="Småhaugvatnet" />
		<tag k="natural" v="water" />
		<tag k="ssr:stedsnr" v="575429" />
	</node>
	<node id="-820502" lat="64.363852775" lon="11.6298861167">
		<tag k="name" v="Isakbukta" />
		<tag k="natural" v="bay" />
		<tag k="ssr:stedsnr" v="533483" />
	</node>
	<node id="-818453" lat="64.4964277741" lon="11.3174638921">
		<tag k="name" v="Broemselva" />
		<tag k="ssr:stedsnr" v="378220" />
		<tag k="waterway" v="stream" />
	</node>
	<node id="-820496" lat="64.5930861072" lon="11.5243916701">
		<tag k="name" v="Kringelvatnet" />
		<tag k="natural" v="water" />
		<tag k="ssr:stedsnr" v="317402" />
	</node>
	<node id="-820495" lat="64.2957500021" lon="11.3956027793">
		<tag k="name" v="Sølvbergtjønna" />
		<tag k="natural" v="water" />
		<tag k="ssr:stedsnr" v="924898" />
	</node>
	<node id="-820491" lat="64.343180555" lon="11.6351222294">
		<tag k="name" v="Engelsfossen" />
		<tag k="natural" v="waterfall" />
		<tag k="ssr:stedsnr" v="776445" />
	</node>
	<node id="-818434" lat="64.3556638865" lon="11.5640694388">
		<tag k="alt_name" v="Fjellkleivbekken" />
		<tag k="name" v="Fjellkløyvabekken" />
		<tag k="ssr:stedsnr" v="317991" />
		<tag k="waterway" v="stream" />
	</node>
	<node id="-818430" lat="64.5865555533" lon="11.378452772">
		<tag k="alt_name" v="Strømmavatnet" />
		<tag k="name" v="Straumavatnet" />
		<tag k="natural" v="water" />
		<tag k="ssr:stedsnr" v="75045" />
	</node>
	<node id="-820476" lat="64.6140027793" lon="11.6774027852">
		<tag k="name" v="Piprøyrvatnet" />
		<tag k="natural" v="water" />
		<tag k="ssr:stedsnr" v="318486" />
	</node>
	<node id="-818425" lat="64.6038250004" lon="11.8109805551">
		<tag k="name" v="Dunavatnet" />
		<tag k="natural" v="water" />
		<tag k="ssr:stedsnr" v="14732" />
	</node>
	<node id="-820472" lat="64.3506805518" lon="11.6069499901">
		<tag k="name" v="Spjøtvassbekken" />
		<tag k="ssr:stedsnr" v="742983" />
		<tag k="waterway" v="stream" />
	</node>
	<node id="-818417" lat="64.4057194467" lon="11.3171777862">
		<tag k="name" v="Haralibekken" />
		<tag k="ssr:stedsnr" v="402781" />
		<tag k="waterway" v="stream" />
	</node>
	<node id="-820464" lat="64.3817666662" lon="11.5703305509">
		<tag k="name" v="Kvenntjønna" />
		<tag k="natural" v="water" />
		<tag k="ssr:stedsnr" v="99740" />
	</node>
	<node id="-818415" lat="64.5778583346" lon="11.7552999953">
		<tag k="name" v="Novabekken" />
		<tag k="ssr:stedsnr" v="439813" />
		<tag k="waterway" v="stream" />
	</node>
	<node id="-818412" lat="64.5895777738" lon="11.6157916753">
		<tag k="name" v="Litlvatnet" />
		<tag k="natural" v="water" />
		<tag k="ssr:stedsnr" v="958754" />
	</node>
	<node id="-818411" lat="64.2743777809" lon="11.5227861119">
		<tag k="name" v="Middagstjønna" />
		<tag k="natural" v="water" />
		<tag k="ssr:stedsnr" v="803823" />
	</node>
	<node id="-820456" lat="64.3726861103" lon="11.621766659">
		<tag k="name" v="Gravdalsbukta" />
		<tag k="natural" v="bay" />
		<tag k="ssr:stedsnr" v="108486" />
	</node>
	<node id="-818404" lat="64.3489443978" lon="11.4072985163">
		<tag k="name" v="Flakktjønna" />
		<tag k="natural" v="water" />
		<tag k="ssr:stedsnr" v="256979" />
	</node>
	<node id="-818401" lat="64.5778194486" lon="11.7321777779">
		<tag k="name" v="Vetterhuselva" />
		<tag k="ssr:stedsnr" v="439812" />
		<tag k="waterway" v="stream" />
	</node>
	<node id="-820444" lat="64.3742000035" lon="11.4436944397">
		<tag k="name" v="Bjørktjønnbekken" />
		<tag k="ssr:stedsnr" v="438968" />
		<tag k="waterway" v="stream" />
	</node>
	<node id="-820443" lat="64.569474997" lon="11.6647472123">
		<tag k="name" v="Kvennelva" />
		<tag k="ssr:stedsnr" v="958278" />
		<tag k="waterway" v="river" />
	</node>
	<node id="-820441" lat="64.5195305588" lon="11.5986083338">
		<tag k="name" v="Leiråtjønna" />
		<tag k="natural" v="water" />
		<tag k="ssr:stedsnr" v="593385" />
	</node>
	<node id="-818390" lat="64.5755972259" lon="11.547624995">
		<tag k="name" v="Kvernvatnet" />
		<tag k="natural" v="water" />
		<tag k="ssr:stedsnr" v="682037" />
	</node>
	<node id="-820434" lat="64.5466500036" lon="11.1629888973">
		<tag k="name" v="Langvindskrokdalsvatnet" />
		<tag k="natural" v="water" />
		<tag k="ssr:stedsnr" v="716472" />
	</node>
	<node id="-820428" lat="64.3344472229" lon="11.6067222229">
		<tag k="name" v="Heimfjlltjønna" />
		<tag k="natural" v="water" />
		<tag k="ssr:stedsnr" v="48425" />
	</node>
	<node id="-818366" lat="64.5739555546" lon="11.5397444387">
		<tag k="name" v="Svartvatnet" />
		<tag k="natural" v="water" />
		<tag k="ssr:stedsnr" v="682033" />
	</node>
	<node id="-820404" lat="64.3114972246" lon="11.611194449">
		<tag k="name" v="Isaktjønna" />
		<tag k="natural" v="water" />
		<tag k="ssr:stedsnr" v="776437" />
	</node>
	<node id="-818355" lat="64.5943027781" lon="11.1262777695">
		<tag k="name" v="Nøkktjønna" />
		<tag k="natural" v="water" />
		<tag k="ssr:stedsnr" v="290458" />
	</node>
	<node id="-820398" lat="64.6121472233" lon="11.6554472252">
		<tag k="name" v="Ausvasstjønna" />
		<tag k="natural" v="water" />
		<tag k="ssr:stedsnr" v="135455" />
	</node>
	<node id="-820397" lat="64.3817999979" lon="11.4440138826">
		<tag k="name" v="Bjørbekken" />
		<tag k="ssr:stedsnr" v="705611" />
		<tag k="waterway" v="stream" />
	</node>
	<node id="-818347" lat="64.5386722207" lon="11.5775916606">
		<tag k="name" v="Sagelva" />
		<tag k="ssr:stedsnr" v="90408" />
		<tag k="waterway" v="river" />
	</node>
	<node id="-820393" lat="64.3766138857" lon="11.4542277757">
		<tag k="name" v="Bjørbekken" />
		<tag k="ssr:stedsnr" v="705610" />
		<tag k="waterway" v="stream" />
	</node>
	<node id="-818343" lat="64.3324250039" lon="11.4094500013">
		<tag k="name" v="Gjermundfossen" />
		<tag k="natural" v="waterfall" />
		<tag k="ssr:stedsnr" v="864890" />
	</node>
	<node id="-820386" lat="64.6139694454" lon="11.5134638797">
		<tag k="name" v="Tiurbekken" />
		<tag k="ssr:stedsnr" v="897689" />
		<tag k="waterway" v="stream" />
	</node>
	<node id="-820385" lat="64.3499055543" lon="11.4880416757">
		<tag k="name" v="Litltjønnholet" />
		<tag k="natural" v="water" />
		<tag k="ssr:stedsnr" v="48814" />
	</node>
	<node id="-820376" lat="64.5763916681" lon="11.462766657">
		<tag k="name" v="Trettengelva" />
		<tag k="ssr:stedsnr" v="864025" />
		<tag k="waterway" v="stream" />
	</node>
	<node id="-818320" lat="64.3595722224" lon="11.6113583284">
		<tag k="name" v="Spjøttvassholet" />
		<tag k="natural" v="bay" />
		<tag k="ssr:stedsnr" v="472453" />
	</node>
	<node id="-820367" lat="64.5027861156" lon="11.3604166629">
		<tag k="name" v="Broemslangvatnet" />
		<tag k="natural" v="water" />
		<tag k="ssr:stedsnr" v="75249" />
	</node>
	<node id="-820366" lat="64.3894388865" lon="11.61143612">
		<tag k="name" v="Tjønnrosin" />
		<tag k="natural" v="water" />
		<tag k="ssr:stedsnr" v="620092" />
		<tag k="water" v="lake" />
	</node>
	<node id="-820365" lat="64.2779777758" lon="11.602602772">
		<tag k="name" v="Hestholmen" />
		<tag k="place" v="islet" />
		<tag k="ssr:stedsnr" v="499778" />
	</node>
	<node id="-820364" lat="64.3334999987" lon="11.4670666731">
		<tag k="name" v="Sørholbekken" />
		<tag k="ssr:stedsnr" v="959785" />
		<tag k="waterway" v="stream" />
	</node>
	<node id="-818313" lat="64.617550003" lon="11.0797555585">
		<tag k="name" v="Aunaelva" />
		<tag k="ssr:stedsnr" v="776485" />
		<tag k="waterway" v="stream" />
	</node>
	<node id="-818312" lat="64.5967000018" lon="11.7440000047">
		<tag k="name" v="Utgangselva" />
		<tag k="ssr:stedsnr" v="621794" />
		<tag k="waterway" v="river" />
	</node>
	<node id="-818307" lat="64.5651777771" lon="11.3925166565">
		<tag k="name" v="Korsneskrokan" />
		<tag k="ssr:stedsnr" v="473628" />
		<tag k="waterway" v="stream" />
	</node>
	<node id="-818305" lat="64.2902444434" lon="11.40202499">
		<tag k="name" v="Tarmelva" />
		<tag k="ssr:stedsnr" v="863813" />
		<tag k="waterway" v="stream" />
	</node>
	<node id="-818302" lat="64.404777782" lon="11.2490222301">
		<tag k="name" v="Møssmørvatna" />
		<tag k="natural" v="water" />
		<tag k="ssr:stedsnr" v="560056" />
	</node>
	<node id="-820347" lat="64.4907138847" lon="11.4054527851">
		<tag k="name" v="Hestskardelva" />
		<tag k="ssr:stedsnr" v="196238" />
		<tag k="waterway" v="stream" />
	</node>
	<node id="-820345" lat="64.540213893" lon="11.2110500067">
		<tag k="name" v="Storåvatnet" />
		<tag k="natural" v="water" />
		<tag k="ssr:stedsnr" v="925688" />
	</node>
	<node id="-818293" lat="64.5935250044" lon="11.8221749997">
		<tag k="name" v="Dunaelva" />
		<tag k="ssr:stedsnr" v="682823" />
		<tag k="waterway" v="river" />
	</node>
	<node id="-818292" lat="64.5824249974" lon="11.7249500072">
		<tag k="name" v="Hestvika" />
		<tag k="natural" v="bay" />
		<tag k="ssr:stedsnr" v="439804" />
	</node>
	<node id="-820336" lat="64.5704416704" lon="11.1994888904">
		<tag k="name" v="Storelva" />
		<tag k="ssr:stedsnr" v="837578" />
		<tag k="waterway" v="river" />
	</node>
	<node id="-818284" lat="64.2776805519" lon="11.6455694341">
		<tag k="name" v="Skorvfossen" />
		<tag k="natural" v="waterfall" />
		<tag k="ssr:stedsnr" v="48099" />
	</node>
	<node id="-820330" lat="64.4745027757" lon="11.2374833427">
		<tag k="name" v="Aundalbekken" />
		<tag k="ssr:stedsnr" v="776400" />
		<tag k="waterway" v="stream" />
	</node>
	<node id="-818280" lat="64.2827250013" lon="11.5662888928">
		<tag k="name" v="Styggdalsbekken" />
		<tag k="ssr:stedsnr" v="655431" />
		<tag k="waterway" v="stream" />
	</node>
	<node id="-818278" lat="64.6043111122" lon="11.0661027696">
		<tag k="name" v="Myanvikvatnet" />
		<tag k="natural" v="water" />
		<tag k="ssr:stedsnr" v="864601" />
		<tag k="water" v="lake" />
	</node>
	<node id="-820323" lat="64.3268555565" lon="11.4617638829">
		<tag k="name" v="Midterdjupvatnet" />
		<tag k="natural" v="water" />
		<tag k="ssr:stedsnr" v="924869" />
	</node>
	<node id="-820317" lat="64.6166138865" lon="11.6415916623">
		<tag k="name" v="Ausvatnet" />
		<tag k="natural" v="water" />
		<tag k="ssr:stedsnr" v="742439" />
		<tag k="water" v="lake" />
	</node>
	<node id="-818256" lat="64.6301055545" lon="11.7223055478">
		<tag k="name" v="Langvatnet" />
		<tag k="natural" v="water" />
		<tag k="ssr:stedsnr" v="47293" />
	</node>
	<node id="-818255" lat="64.4890083308" lon="11.5076194342">
		<tag k="name" v="Havikvassbekken" />
		<tag k="ssr:stedsnr" v="211519" />
		<tag k="waterway" v="stream" />
	</node>
	<node id="-820302" lat="64.5093861104" lon="11.4144916692">
		<tag k="name" v="Rapfjellvatnet" />
		<tag k="natural" v="water" />
		<tag k="ssr:stedsnr" v="14117" />
	</node>
	<node id="-820301" lat="64.3788444409" lon="11.5239861017">
		<tag k="alt_name" v="Fjeldseterbekken;Fjeldsetbekken" />
		<tag k="name" v="Fjellsetbekken" />
		<tag k="ssr:stedsnr" v="742967" />
		<tag k="waterway" v="stream" />
	</node>
	<node id="-820299" lat="64.3647888859" lon="11.4285444523">
		<tag k="name" v="Heiholbekken" />
		<tag k="ssr:stedsnr" v="644587" />
		<tag k="waterway" v="stream" />
	</node>
	<node id="-818246" lat="64.6350944449" lon="11.1109250027">
		<tag k="name" v="Lomtjønna" />
		<tag k="natural" v="water" />
		<tag k="ssr:stedsnr" v="776474" />
	</node>
	<node id="-818245" lat="64.6221194426" lon="11.0884999981">
		<tag k="name" v="Kronvatnet" />
		<tag k="natural" v="water" />
		<tag k="ssr:stedsnr" v="290445" />
	</node>
	<node id="-820287" lat="64.5747583306" lon="11.3643305559">
		<tag k="name" v="Tuvavatnet" />
		<tag k="natural" v="water" />
		<tag k="ssr:stedsnr" v="837595" />
	</node>
	<node id="-818232" lat="64.3549000046" lon="11.4973944388">
		<tag k="name" v="Langvasselva" />
		<tag k="ssr:stedsnr" v="655829" />
		<tag k="waterway" v="river" />
	</node>
	<node id="-820278" lat="64.6226805576" lon="11.5283277797">
		<tag k="alt_name" v="Svartdalelva" />
		<tag k="name" v="Svartdalselva" />
		<tag k="ssr:stedsnr" v="257447" />
		<tag k="waterway" v="river" />
	</node>
	<node id="-819379" lat="64.5279999972" lon="11.565749994">
		<tag k="name" v="Heimdalsbekken" />
		<tag k="ssr:stedsnr" v="864178" />
		<tag k="waterway" v="stream" />
	</node>
	<node id="-820267" lat="64.3729527781" lon="11.5651888954">
		<tag k="name" v="Øvre Kverntjønna" />
		<tag k="natural" v="water" />
		<tag k="ssr:stedsnr" v="74966" />
	</node>
	<node id="-820261" lat="64.3143416678" lon="11.4449027789">
		<tag k="name" v="Nordvika" />
		<tag k="natural" v="bay" />
		<tag k="ssr:stedsnr" v="256913" />
	</node>
	<node id="-818212" lat="64.3914166665" lon="11.5619527765">
		<tag k="name" v="Midtre Fjeldsettjønna" />
		<tag k="natural" v="water" />
		<tag k="ssr:stedsnr" v="402735" />
	</node>
	<node id="-820254" lat="64.4370222262" lon="11.6279888982">
		<tag k="name" v="Steintjønna" />
		<tag k="natural" v="water" />
		<tag k="ssr:stedsnr" v="290358" />
	</node>
	<node id="-820253" lat="64.591919447" lon="11.3954527756">
		<tag k="alt_name" v="Brudalsvatnet" />
		<tag k="name" v="Brudalvatnet" />
		<tag k="natural" v="water" />
		<tag k="ssr:stedsnr" v="14389" />
	</node>
	<node id="-818203" lat="64.6100972233" lon="11.173419451">
		<tag k="name" v="Bekkavikvatnet" />
		<tag k="natural" v="water" />
		<tag k="ssr:stedsnr" v="108539" />
	</node>
	<node id="-818202" lat="64.5584444482" lon="11.1483277767">
		<tag k="name" v="Markrelltjønna" />
		<tag k="natural" v="water" />
		<tag k="ssr:stedsnr" v="741680" />
	</node>
	<node id="-820247" lat="64.2379777775" lon="11.5151833429">
		<tag k="name" v="Okstjønna" />
		<tag k="natural" v="water" />
		<tag k="ssr:stedsnr" v="351423" />
	</node>
	<node id="-818197" lat="64.5977222201" lon="11.1223583231">
		<tag k="name" v="Langtjønna" />
		<tag k="natural" v="water" />
		<tag k="ssr:stedsnr" v="776493" />
	</node>
	<node id="-820243" lat="64.5923583356" lon="11.5513388844">
		<tag k="name" v="Storfjelltjønna" />
		<tag k="natural" v="water" />
		<tag k="ssr:stedsnr" v="109650" />
	</node>
	<node id="-820242" lat="64.5625611078" lon="11.4414999906">
		<tag k="name" v="Lomtjønna" />
		<tag k="natural" v="water" />
		<tag k="ssr:stedsnr" v="804014" />
	</node>
	<node id="-818193" lat="64.3675472221" lon="11.6228638831">
		<tag k="name" v="Måsholmen" />
		<tag k="place" v="islet" />
		<tag k="ssr:stedsnr" v="472450" />
	</node>
	<node id="-818191" lat="64.2614777745" lon="11.6416527794">
		<tag k="name" v="Spøtta" />
		<tag k="ssr:stedsnr" v="499825" />
		<tag k="waterway" v="river" />
	</node>
	<node id="-818349" lat="64.6019749984" lon="11.757850006">
		<tag k="name" v="Utgangsvatnet" />
		<tag k="natural" v="water" />
		<tag k="ssr:stedsnr" v="378787" />
	</node>
	<node id="-818186" lat="64.3483000041" lon="11.3904333286">
		<tag k="name" v="Svartfossen" />
		<tag k="natural" v="waterfall" />
		<tag k="ssr:stedsnr" v="14982" />
	</node>
	<node id="-818183" lat="64.5331055542" lon="11.5762361176">
		<tag k="name" v="Leiråa" />
		<tag k="ssr:stedsnr" v="560053" />
		<tag k="waterway" v="stream" />
	</node>
	<node id="-818689" lat="64.3104527816" lon="11.5208416575">
		<tag k="name" v="Aunfossen" />
		<tag k="natural" v="waterfall" />
		<tag k="ssr:stedsnr" v="451151" />
	</node>
	<node id="-820227" lat="64.3655916699" lon="11.5075527695">
		<tag k="name" v="Seterengbekken" />
		<tag k="ssr:stedsnr" v="898835" />
		<tag k="waterway" v="stream" />
	</node>
	<node id="-820223" lat="64.4473444454" lon="11.624374996">
		<tag k="name" v="Kutjønna" />
		<tag k="natural" v="water" />
		<tag k="ssr:stedsnr" v="629322" />
	</node>
	<node id="-818173" lat="64.4134722264" lon="11.5396027757">
		<tag k="name" v="Høgfossen" />
		<tag k="natural" v="waterfall" />
		<tag k="ssr:stedsnr" v="593437" />
	</node>
	<node id="-820218" lat="64.5097611093" lon="11.343994437">
		<tag k="name" v="Svartvatnet" />
		<tag k="natural" v="water" />
		<tag k="ssr:stedsnr" v="14110" />
	</node>
	<node id="-818167" lat="64.3487916684" lon="11.3602583262">
		<tag k="name" v="Sagtjønna" />
		<tag k="natural" v="water" />
		<tag k="ssr:stedsnr" v="14986" />
	</node>
	<node id="-818345" lat="64.3607999959" lon="11.5560111203">
		<tag k="name" v="Nedre Kverntjønna" />
		<tag k="natural" v="water" />
		<tag k="ssr:stedsnr" v="14995" />
	</node>
	<node id="-820212" lat="64.4835378066" lon="11.5957675783">
		<tag k="name" v="Ålbergvatnet" />
		<tag k="natural" v="water" />
		<tag k="ssr:stedsnr" v="559193" />
	</node>
	<node id="-818161" lat="64.5692414723" lon="11.414126616">
		<tag k="name" v="Svanavatnet" />
		<tag k="natural" v="water" />
		<tag k="ssr:stedsnr" v="743017" />
		<tag k="water" v="lake" />
	</node>
	<node id="-820208" lat="64.5680000017" lon="11.7432750002">
		<tag k="name" v="Leiråelva" />
		<tag k="ssr:stedsnr" v="804798" />
		<tag k="waterway" v="stream" />
	</node>
	<node id="-818159" lat="64.4555166648" lon="11.6210388857">
		<tag k="name" v="Tavlåvatnet" />
		<tag k="natural" v="water" />
		<tag k="ssr:stedsnr" v="863010" />
	</node>
	<node id="-818158" lat="64.5989055529" lon="11.0720249965">
		<tag k="name" v="Nepdalsvatnet" />
		<tag k="natural" v="water" />
		<tag k="ssr:stedsnr" v="75566" />
	</node>
	<node id="-820205" lat="64.3829194409" lon="11.6043027747">
		<tag k="name" v="Østre Fiskløysa" />
		<tag k="natural" v="water" />
		<tag k="ssr:stedsnr" v="472353" />
	</node>
	<node id="-820204" lat="64.4977250032" lon="11.5640500098">
		<tag k="name" v="Høyknesvatnet" />
		<tag k="natural" v="water" />
		<tag k="ssr:stedsnr" v="439221" />
	</node>
	<node id="-820198" lat="64.422908332" lon="11.3163666594">
		<tag k="name" v="Melkbekken" />
		<tag k="ssr:stedsnr" v="256100" />
		<tag k="waterway" v="stream" />
	</node>
	<node id="-820195" lat="64.6014611073" lon="11.7937999936">
		<tag k="alt_name" v="Kvenntjønna" />
		<tag k="name" v="Kvernvatnet" />
		<tag k="natural" v="water" />
		<tag k="ssr:stedsnr" v="864798" />
	</node>
	<node id="-820189" lat="64.5010861144" lon="11.4118805581">
		<tag k="name" v="Hestskarvatnet" />
		<tag k="natural" v="water" />
		<tag k="ssr:stedsnr" v="333718" />
	</node>
	<node id="-820188" lat="64.513588893" lon="11.5252333242">
		<tag k="name" v="Oterbekken" />
		<tag k="ssr:stedsnr" v="742128" />
		<tag k="waterway" v="stream" />
	</node>
	<node id="-820463" lat="64.5708861125" lon="11.3980527811">
		<tag k="name" v="Litlvatnet" />
		<tag k="natural" v="water" />
		<tag k="ssr:stedsnr" v="500048" />
	</node>
	<node id="-820176" lat="64.3607333372" lon="11.417397226">
		<tag k="name" v="Middagsskarbekken" />
		<tag k="ssr:stedsnr" v="888523" />
		<tag k="waterway" v="stream" />
	</node>
	<node id="-820167" lat="64.3993444459" lon="11.5991555536">
		<tag k="name" v="Bøltjønna" />
		<tag k="natural" v="water" />
		<tag k="ssr:stedsnr" v="620087" />
	</node>
	<node id="-820154" lat="64.5954833349" lon="11.5146805496">
		<tag k="name" v="Hopan" />
		<tag k="ssr:stedsnr" v="803474" />
		<tag k="waterway" v="stream" />
	</node>
	<node id="-820153" lat="64.3982388878" lon="11.5828833405">
		<tag k="name" v="Barstadspøtvatnet" />
		<tag k="natural" v="water" />
		<tag k="ssr:stedsnr" v="620085" />
	</node>
	<node id="-820151" lat="64.4700416648" lon="11.6171472323">
		<tag k="name" v="Flybekken" />
		<tag k="ssr:stedsnr" v="204295" />
		<tag k="waterway" v="stream" />
	</node>
	<node id="-820137" lat="64.6203500022" lon="11.5811750005">
		<tag k="name" v="Tverrelva" />
		<tag k="ssr:stedsnr" v="75499" />
		<tag k="waterway" v="stream" />
	</node>
	<node id="-820136" lat="64.3346805576" lon="11.4516472208">
		<tag k="name" v="Djupvassbekken" />
		<tag k="ssr:stedsnr" v="351793" />
		<tag k="waterway" v="stream" />
	</node>
	<node id="-820135" lat="64.3830444454" lon="11.4477749969">
		<tag k="alt_name" v="Storøya" />
		<tag k="name" v="Øyan" />
		<tag k="place" v="islet" />
		<tag k="ssr:stedsnr" v="681945" />
	</node>
	<node id="-820132" lat="64.3665081048" lon="11.6177239348">
		<tag k="name" v="Spjøtvatnet" />
		<tag k="natural" v="water" />
		<tag k="ssr:stedsnr" v="742952" />
		<tag k="water" v="lake" />
	</node>
	<node id="-820124" lat="64.6606888888" lon="11.7700305622">
		<tag k="name" v="Øver Klakktjønna" />
		<tag k="natural" v="water" />
		<tag k="ssr:stedsnr" v="655729" />
	</node>
	<node id="-820118" lat="64.5934888855" lon="11.1451111089">
		<tag k="name" v="Jensvatnet" />
		<tag k="natural" v="water" />
		<tag k="ssr:stedsnr" v="560541" />
	</node>
	<node id="-820116" lat="64.4095277793" lon="11.5944694356">
		<tag k="name" v="Bølvatnet" />
		<tag k="natural" v="water" />
		<tag k="ssr:stedsnr" v="620080" />
	</node>
	<node id="-820718" lat="64.5945611093" lon="11.176961119">
		<tag k="name" v="Hestvikvatnet" />
		<tag k="natural" v="water" />
		<tag k="ssr:stedsnr" v="169528" />
	</node>
	<node id="-820100" lat="64.4950250015" lon="11.4560416664">
		<tag k="name" v="Halsbekken" />
		<tag k="ssr:stedsnr" v="499188" />
		<tag k="waterway" v="stream" />
	</node>
	<node id="-820096" lat="64.5058495028" lon="11.5331056667">
		<tag k="name" v="Otertjønna" />
		<tag k="natural" v="water" />
		<tag k="ssr:stedsnr" v="864254" />
	</node>
	<node id="-820095" lat="64.5554861112" lon="11.2120777719">
		<tag k="name" v="Svartholvatnet" />
		<tag k="natural" v="water" />
		<tag k="ssr:stedsnr" v="257701" />
	</node>
	<node id="-820089" lat="64.5703833343" lon="11.6837083257">
		<tag k="name" v="Toskardtjønna" />
		<tag k="natural" v="water" />
		<tag k="ssr:stedsnr" v="197020" />
	</node>
	<node id="-820085" lat="64.5057277748" lon="11.3617333235">
		<tag k="name" v="Skultjønna" />
		<tag k="natural" v="water" />
		<tag k="ssr:stedsnr" v="500286" />
	</node>
	<node id="-820083" lat="64.2988416649" lon="11.3830055564">
		<tag k="name" v="Vomma" />
		<tag k="natural" v="water" />
		<tag k="ssr:stedsnr" v="317885" />
		<tag k="water" v="lake" />
	</node>
	<node id="-820082" lat="64.6078892752" lon="11.7273981746">
		<tag k="name" v="Gravvatnet" />
		<tag k="natural" v="water" />
		<tag k="ssr:stedsnr" v="196743" />
	</node>
	<node id="-820080" lat="64.4276388916" lon="11.5088250099">
		<tag k="name" v="Sevielva" />
		<tag k="ssr:stedsnr" v="14092" />
		<tag k="waterway" v="river" />
	</node>
	<node id="-820072" lat="64.2939138861" lon="11.5507861062">
		<tag k="name" v="Strandfossen" />
		<tag k="natural" v="waterfall" />
		<tag k="ssr:stedsnr" v="681920" />
	</node>
	<node id="-820071" lat="64.5029305536" lon="11.5454361031">
		<tag k="name" v="Alhusvatnet" />
		<tag k="natural" v="water" />
		<tag k="ssr:stedsnr" v="864256" />
	</node>
	<node id="-820062" lat="64.4885222255" lon="11.5857194391">
		<tag k="name" v="Svarttjønna" />
		<tag k="natural" v="water" />
		<tag k="ssr:stedsnr" v="864251" />
	</node>
	<node id="-820059" lat="64.3033583322" lon="11.6355250063">
		<tag k="name" v="Svartvatnet" />
		<tag k="natural" v="water" />
		<tag k="ssr:stedsnr" v="256885" />
	</node>
	<node id="-818319" lat="64.3560249984" lon="11.635427775">
		<tag k="name" v="Spillumsbekken" />
		<tag k="ssr:stedsnr" v="256971" />
		<tag k="waterway" v="stream" />
	</node>
	<node id="-820708" lat="64.5301416673" lon="11.6736833413">
		<tag k="name" v="Gjartrudlitjønna" />
		<tag k="natural" v="water" />
		<tag k="ssr:stedsnr" v="864060" />
	</node>
	<node id="-820047" lat="64.4687138902" lon="11.2184027833">
		<tag k="name" v="Svartvatnet" />
		<tag k="natural" v="water" />
		<tag k="ssr:stedsnr" v="741057" />
	</node>
	<node id="-820046" lat="64.301397221" lon="11.3551277748">
		<tag k="name" v="Fjalsetertjønnin" />
		<tag k="natural" v="water" />
		<tag k="ssr:stedsnr" v="681916" />
	</node>
	<node id="-820042" lat="64.5221388908" lon="11.3673416612">
		<tag k="name" v="Vikatjønna" />
		<tag k="natural" v="water" />
		<tag k="ssr:stedsnr" v="15166" />
	</node>
	<node id="-820020" lat="64.37477778" lon="11.6258750061">
		<tag k="name" v="Bergspjøtvatnet" />
		<tag k="natural" v="water" />
		<tag k="ssr:stedsnr" v="411355" />
	</node>
	<node id="-820015" lat="64.3337722191" lon="11.4609722243">
		<tag k="name" v="Kakatjønna" />
		<tag k="natural" v="water" />
		<tag k="ssr:stedsnr" v="898824" />
	</node>
	<node id="-820013" lat="64.5994916635" lon="11.7646916714">
		<tag k="alt_name" v="Litlvatnet" />
		<tag k="name" v="Sørtjønna" />
		<tag k="natural" v="water" />
		<tag k="ssr:stedsnr" v="500819" />
	</node>
	<node id="-819994" lat="64.520105556" lon="11.1781166675">
		<tag k="name" v="Sandflya" />
		<tag k="natural" v="water" />
		<tag k="ssr:stedsnr" v="898443" />
	</node>
	<node id="-819988" lat="64.3477333357" lon="11.3486194479">
		<tag k="name" v="Nilsdalsbekken" />
		<tag k="ssr:stedsnr" v="351759" />
		<tag k="waterway" v="stream" />
	</node>
	<node id="-819981" lat="64.419916668" lon="11.55002499">
		<tag k="name" v="Spillumsvassbeken" />
		<tag k="ssr:stedsnr" v="351377" />
		<tag k="waterway" v="stream" />
	</node>
	<node id="-819978" lat="64.4974805601" lon="11.5339944371">
		<tag k="name" v="Langvatnet" />
		<tag k="natural" v="water" />
		<tag k="ssr:stedsnr" v="499185" />
	</node>
	<node id="-819971" lat="64.2949638882" lon="11.4440333337">
		<tag k="name" v="Gammelsagelva" />
		<tag k="ssr:stedsnr" v="438918" />
		<tag k="waterway" v="stream" />
	</node>
	<node id="-819949" lat="64.5159916679" lon="11.3435722254">
		<tag k="name" v="Setervatnet" />
		<tag k="natural" v="water" />
		<tag k="ssr:stedsnr" v="742121" />
	</node>
	<node id="-819943" lat="64.6496027771" lon="11.7697083238">
		<tag k="name" v="Ner Storengvatnet" />
		<tag k="natural" v="water" />
		<tag k="ssr:stedsnr" v="230703" />
	</node>
	<node id="-819938" lat="64.6439722263" lon="11.751477779">
		<tag k="name" v="Hopbekken" />
		<tag k="ssr:stedsnr" v="290289" />
		<tag k="waterway" v="stream" />
	</node>
	<node id="-819936" lat="64.3845944464" lon="11.540761101">
		<tag k="name" v="Fjeldsettjønnbekken" />
		<tag k="ssr:stedsnr" v="220754" />
		<tag k="waterway" v="stream" />
	</node>
	<node id="-819932" lat="64.5783555553" lon="11.5674194363">
		<tag k="name" v="Haltnesklompan" />
		<tag k="natural" v="water" />
		<tag k="ssr:stedsnr" v="655675" />
	</node>
	<node id="-819930" lat="64.6108222178" lon="11.0556277811">
		<tag k="name" v="Tjønnin" />
		<tag k="natural" v="water" />
		<tag k="ssr:stedsnr" v="958569" />
	</node>
	<node id="-819917" lat="64.5328861153" lon="11.6079555522">
		<tag k="name" v="Svartåsbekken" />
		<tag k="ssr:stedsnr" v="169401" />
		<tag k="waterway" v="stream" />
	</node>
	<node id="-819912" lat="64.6189194417" lon="11.6935166605">
		<tag k="name" v="Grånavatnet" />
		<tag k="natural" v="water" />
		<tag k="ssr:stedsnr" v="500549" />
	</node>
	<node id="-819907" lat="64.3826500007" lon="11.3374222252">
		<tag k="name" v="Almvika" />
		<tag k="natural" v="bay" />
		<tag k="ssr:stedsnr" v="341784" />
	</node>
	<node id="-819895" lat="64.3397666636" lon="11.580380562">
		<tag k="name" v="Litlvatnet" />
		<tag k="natural" v="water" />
		<tag k="ssr:stedsnr" v="14886" />
	</node>
	<node id="-819864" lat="64.3471083301" lon="11.3603388962">
		<tag k="name" v="Seterbekken" />
		<tag k="ssr:stedsnr" v="776740" />
		<tag k="waterway" v="stream" />
	</node>
	<node id="-819861" lat="64.3549083293" lon="11.5710277801">
		<tag k="name" v="Mølnhattjønnin" />
		<tag k="natural" v="water" />
		<tag k="ssr:stedsnr" v="196993" />
	</node>
	<node id="-819854" lat="64.5978555598" lon="11.2209972201">
		<tag k="name" v="Hestvikvatnet" />
		<tag k="natural" v="water" />
		<tag k="ssr:stedsnr" v="439437" />
	</node>
	<node id="-819849" lat="64.550750004" lon="11.1677499953">
		<tag k="name" v="Holmvatnet" />
		<tag k="natural" v="water" />
		<tag k="ssr:stedsnr" v="378666" />
	</node>
	<node id="-819847" lat="64.2936361092" lon="11.5519805506">
		<tag k="name" v="Bongna" />
		<tag k="ssr:stedsnr" v="742925" />
		<tag k="waterway" v="river" />
	</node>
	<node id="-819841" lat="64.4634638861" lon="11.6011805543">
		<tag k="alt_name" v="Tavlåelva" />
		<tag k="name" v="Tavlåa" />
		<tag k="ssr:stedsnr" v="620055" />
		<tag k="waterway" v="stream" />
	</node>
	<node id="-819838" lat="64.570652781" lon="11.7540694382">
		<tag k="name" v="Bjønnheifossen" />
		<tag k="natural" v="waterfall" />
		<tag k="ssr:stedsnr" v="776346" />
	</node>
	<node id="-819837" lat="64.3310305581" lon="11.6576583391">
		<tag k="name" v="Langtjønna" />
		<tag k="natural" v="water" />
		<tag k="ssr:stedsnr" v="317857" />
	</node>
	<node id="-819833" lat="64.4008100646" lon="11.6381826815">
		<tag k="name" v="Spillumssetertjønna" />
		<tag k="natural" v="water" />
		<tag k="ssr:stedsnr" v="836327" />
	</node>
	<node id="-819831" lat="64.3452861138" lon="11.4303555611">
		<tag k="name" v="Heitjønna" />
		<tag k="natural" v="water" />
		<tag k="ssr:stedsnr" v="14879" />
	</node>
	<node id="-819817" lat="64.6264472224" lon="11.6951972283">
		<tag k="name" v="Auritjønnelva" />
		<tag k="ssr:stedsnr" v="230282" />
		<tag k="waterway" v="stream" />
	</node>
	<node id="-819810" lat="64.2986083343" lon="11.6239666674">
		<tag k="name" v="Fiskløysa" />
		<tag k="natural" v="water" />
		<tag k="ssr:stedsnr" v="742917" />
	</node>
	<node id="-819799" lat="64.5711555546" lon="11.7270055592">
		<tag k="name" v="Fjellbekken" />
		<tag k="ssr:stedsnr" v="776345" />
		<tag k="waterway" v="stream" />
	</node>
	<node id="-819791" lat="64.4673722206" lon="11.2596500063">
		<tag k="name" v="Fjellmarkbekken" />
		<tag k="ssr:stedsnr" v="654102" />
		<tag k="waterway" v="stream" />
	</node>
	<node id="-819788" lat="64.6704499992" lon="11.7400416565">
		<tag k="name" v="Kvennfossen" />
		<tag k="natural" v="waterfall" />
		<tag k="ssr:stedsnr" v="48716" />
	</node>
	<node id="-819787" lat="64.4334694429" lon="11.5472166672">
		<tag k="name" v="Eriktjønna" />
		<tag k="natural" v="water" />
		<tag k="ssr:stedsnr" v="108384" />
	</node>
	<node id="-819785" lat="64.5463500019" lon="11.1424083275">
		<tag k="name" v="Krokelva" />
		<tag k="ssr:stedsnr" v="49490" />
		<tag k="waterway" v="stream" />
	</node>
	<node id="-819777" lat="64.520661111" lon="11.4068166639">
		<tag k="name" v="Survikholvatnet" />
		<tag k="natural" v="water" />
		<tag k="ssr:stedsnr" v="136198" />
	</node>
	<node id="-819775" lat="64.5922861076" lon="11.6552000066">
		<tag k="name" v="Brennfjellvatnet" />
		<tag k="natural" v="water" />
		<tag k="ssr:stedsnr" v="864508" />
	</node>
	<node id="-819773" lat="64.2661388878" lon="11.6189999992">
		<tag k="name" v="Storgranholmen" />
		<tag k="place" v="islet" />
		<tag k="ssr:stedsnr" v="291456" />
	</node>
	<node id="-819756" lat="64.4953416667" lon="11.5688916663">
		<tag k="name" v="Djupbekken" />
		<tag k="ssr:stedsnr" v="272504" />
		<tag k="waterway" v="stream" />
	</node>
	<node id="-819750" lat="64.5974583376" lon="11.6428666738">
		<tag k="name" v="Sørlibekken" />
		<tag k="ssr:stedsnr" v="776700" />
		<tag k="waterway" v="stream" />
	</node>
	<node id="-819746" lat="64.5974027792" lon="11.5349916569">
		<tag k="name" v="Svartvatnet" />
		<tag k="natural" v="water" />
		<tag k="ssr:stedsnr" v="75458" />
	</node>
	<node id="-819744" lat="64.6119000015" lon="11.8666750068">
		<tag k="name" v="Holmvatna" />
		<tag k="natural" v="water" />
		<tag k="ssr:stedsnr" v="499710" />
		<tag k="water" v="lake" />
	</node>
	<node id="-819738" lat="64.3366749963" lon="11.3262138954">
		<tag k="name" v="Olsengelva" />
		<tag k="ssr:stedsnr" v="317848" />
		<tag k="waterway" v="stream" />
	</node>
	<node id="-819737" lat="64.6099777742" lon="11.5134500062">
		<tag k="name" v="Båtsettet" />
		<tag k="natural" v="strait" />
		<tag k="ssr:stedsnr" v="836685" />
	</node>
	<node id="-819736" lat="64.5593833336" lon="11.3903416724">
		<tag k="name" v="Kaldklauvvatnet" />
		<tag k="natural" v="water" />
		<tag k="ssr:stedsnr" v="135111" />
	</node>
	<node id="-819732" lat="64.5537583299" lon="11.228008328">
		<tag k="name" v="Ellingsavatnet" />
		<tag k="natural" v="water" />
		<tag k="ssr:stedsnr" v="621104" />
	</node>
	<node id="-819728" lat="64.6016138898" lon="11.4953472234">
		<tag k="name" v="Skjærivassdammen" />
		<tag k="ssr:stedsnr" v="836677" />
		<tag k="waterway" v="dam" />
	</node>
	<node id="-819723" lat="64.4710194415" lon="11.2341111047">
		<tag k="name" v="Hoddøyvatnet" />
		<tag k="natural" v="water" />
		<tag k="ssr:stedsnr" v="256051" />
	</node>
	<node id="-819721" lat="64.4056027805" lon="11.5590722287">
		<tag k="name" v="Judittjønna" />
		<tag k="natural" v="water" />
		<tag k="ssr:stedsnr" v="229473" />
	</node>
	<node id="-819714" lat="64.6262777782" lon="11.6081555522">
		<tag k="name" v="Mossobekken" />
		<tag k="ssr:stedsnr" v="959683" />
		<tag k="waterway" v="stream" />
	</node>
	<node id="-819707" lat="64.5336138878" lon="11.3418916696">
		<tag k="name" v="Osbekken" />
		<tag k="ssr:stedsnr" v="804214" />
		<tag k="waterway" v="stream" />
	</node>
	<node id="-819706" lat="64.2736944466" lon="11.6389138888">
		<tag k="name" v="Solemsholmen" />
		<tag k="place" v="islet" />
		<tag k="ssr:stedsnr" v="473471" />
	</node>
	<node id="-819697" lat="64.5461916635" lon="11.6713944413">
		<tag k="name" v="Skakkanovtjønna" />
		<tag k="natural" v="water" />
		<tag k="ssr:stedsnr" v="742081" />
	</node>
	<node id="-819695" lat="64.3190944467" lon="11.4739249905">
		<tag k="name" v="Klubbtjønna" />
		<tag k="natural" v="water" />
		<tag k="ssr:stedsnr" v="147198" />
	</node>
	<node id="-819694" lat="64.6007861128" lon="11.5286555517">
		<tag k="name" v="Sagvasselva" />
		<tag k="ssr:stedsnr" v="864482" />
		<tag k="waterway" v="stream" />
	</node>
	<node id="-819690" lat="64.4460777746" lon="11.5684277785">
		<tag k="name" v="Storskardtjønna" />
		<tag k="natural" v="water" />
		<tag k="ssr:stedsnr" v="879518" />
	</node>
	<node id="-819689" lat="64.4055944406" lon="11.2598999934">
		<tag k="name" v="Bjørkvatnet" />
		<tag k="natural" v="water" />
		<tag k="ssr:stedsnr" v="14054" />
	</node>
	<node id="-819685" lat="64.3175444446" lon="11.4593027734">
		<tag k="name" v="Tordhaugtjønna" />
		<tag k="natural" v="water" />
		<tag k="ssr:stedsnr" v="26160" />
	</node>
	<node id="-819684" lat="64.5330222235" lon="11.3779194391">
		<tag k="name" v="Gammelsetervatnet" />
		<tag k="natural" v="water" />
		<tag k="ssr:stedsnr" v="75174" />
	</node>
	<node id="-819678" lat="64.3463055515" lon="11.5263722185">
		<tag k="name" v="Kastarhøla" />
		<tag k="place" v="locality" />
		<tag k="ssr:stedsnr" v="463534" />
	</node>
	<node id="-820643" lat="64.3598583312" lon="11.3903611093">
		<tag k="name" v="Aursunda" />
		<tag k="ssr:stedsnr" v="438980" />
		<tag k="waterway" v="river" />
	</node>
	<node id="-818253" lat="64.5843916696" lon="11.3782944422">
		<tag k="name" v="Storvikbekken" />
		<tag k="natural" v="bay" />
		<tag k="ssr:stedsnr" v="291610" />
	</node>
	<node id="-819657" lat="64.6216222256" lon="11.6722111071">
		<tag k="name" v="Auritjønnelva" />
		<tag k="ssr:stedsnr" v="135381" />
		<tag k="waterway" v="stream" />
	</node>
	<node id="-819656" lat="64.5425972193" lon="11.1784111132">
		<tag k="name" v="Vesterfuglvatnet" />
		<tag k="natural" v="water" />
		<tag k="ssr:stedsnr" v="14593" />
		<tag k="water" v="lake" />
	</node>
	<node id="-819648" lat="64.3032361087" lon="11.6169638828">
		<tag k="name" v="Pertjønna" />
		<tag k="natural" v="water" />
		<tag k="ssr:stedsnr" v="74903" />
	</node>
	<node id="-819642" lat="64.5251611075" lon="11.1824277683">
		<tag k="name" v="Rundberghaugvatnet" />
		<tag k="natural" v="water" />
		<tag k="ssr:stedsnr" v="594455" />
	</node>
	<node id="-819633" lat="64.6374694409" lon="11.5977027768">
		<tag k="name" v="Storvatnet" />
		<tag k="natural" v="water" />
		<tag k="ssr:stedsnr" v="500520" />
	</node>
	<node id="-819631" lat="64.6001361093" lon="11.2338694438">
		<tag k="name" v="Årvikbekken" />
		<tag k="ssr:stedsnr" v="864489" />
		<tag k="waterway" v="stream" />
	</node>
	<node id="-819630" lat="64.6260888876" lon="11.5723638824">
		<tag k="name" v="Haukøysetervatnet" />
		<tag k="natural" v="water" />
		<tag k="ssr:stedsnr" v="135374" />
	</node>
	<node id="-819629" lat="64.3700444454" lon="11.5358749927">
		<tag k="name" v="Bjørbekken" />
		<tag k="ssr:stedsnr" v="584568" />
		<tag k="waterway" v="stream" />
	</node>
	<node id="-819626" lat="64.5283249957" lon="11.3844111173">
		<tag k="name" v="Svarttjønna" />
		<tag k="natural" v="water" />
		<tag k="ssr:stedsnr" v="439157" />
	</node>
	<node id="-819623" lat="64.6355888932" lon="11.6942916693">
		<tag k="name" v="Auritjønna" />
		<tag k="natural" v="water" />
		<tag k="ssr:stedsnr" v="500522" />
	</node>
	<node id="-819621" lat="64.5405750039" lon="11.1941861033">
		<tag k="name" v="Austerfuglvatnet" />
		<tag k="natural" v="water" />
		<tag k="ssr:stedsnr" v="14590" />
		<tag k="water" v="lake" />
	</node>
	<node id="-819614" lat="64.3406138862" lon="11.5638583376">
		<tag k="name" v="Lauvåsbekken" />
		<tag k="ssr:stedsnr" v="463542" />
		<tag k="waterway" v="stream" />
	</node>
	<node id="-819604" lat="64.343013893" lon="11.6414972326">
		<tag k="name" v="Sandåa" />
		<tag k="ssr:stedsnr" v="317836" />
		<tag k="waterway" v="river" />
	</node>
	<node id="-819593" lat="64.6367416653" lon="11.7112138889">
		<tag k="name" v="Vakkervatnet" />
		<tag k="natural" v="water" />
		<tag k="ssr:stedsnr" v="136462" />
	</node>
	<node id="-819592" lat="64.3344583351" lon="11.437330562">
		<tag k="name" v="Singsvatnet" />
		<tag k="natural" v="water" />
		<tag k="ssr:stedsnr" v="742880" />
	</node>
	<node id="-819588" lat="64.5262416683" lon="11.6542972298">
		<tag k="name" v="Svartbekken" />
		<tag k="ssr:stedsnr" v="48298" />
		<tag k="waterway" v="stream" />
	</node>
	<node id="-819582" lat="64.4576000038" lon="11.587933337">
		<tag k="name" v="Kvennfossen" />
		<tag k="natural" v="waterfall" />
		<tag k="ssr:stedsnr" v="143289" />
	</node>
	<node id="-819580" lat="64.5541666639" lon="11.6704027723">
		<tag k="name" v="Vetterhusvatnet" />
		<tag k="natural" v="water" />
		<tag k="ssr:stedsnr" v="135096" />
	</node>
	<node id="-819579" lat="64.5590750023" lon="11.6117777758">
		<tag k="name" v="Bjørkabekken" />
		<tag k="ssr:stedsnr" v="865007" />
		<tag k="waterway" v="stream" />
	</node>
	<node id="-819572" lat="64.5567111088" lon="11.4243361168">
		<tag k="name" v="Dammen" />
		<tag k="natural" v="water" />
		<tag k="ssr:stedsnr" v="803112" />
	</node>
	<node id="-819564" lat="64.541111109" lon="11.2396555615">
		<tag k="name" v="Fosslandselva" />
		<tag k="ssr:stedsnr" v="378068" />
		<tag k="waterway" v="stream" />
	</node>
	<node id="-819562" lat="64.5514749998" lon="11.1844000038">
		<tag k="name" v="Aunan" />
		<tag k="natural" v="water" />
		<tag k="ssr:stedsnr" v="135638" />
		<tag k="water" v="lake" />
	</node>
	<node id="-819557" lat="64.6180749963" lon="11.8386999898">
		<tag k="name" v="Tovatna" />
		<tag k="natural" v="water" />
		<tag k="ssr:stedsnr" v="742873" />
		<tag k="water" v="lake" />
	</node>
	<node id="-819553" lat="64.6273083298" lon="11.7337750038">
		<tag k="name" v="Finnvatnet" />
		<tag k="natural" v="water" />
		<tag k="ssr:stedsnr" v="317841" />
	</node>
	<node id="-820624" lat="64.2942972248" lon="11.7258166671">
		<tag k="name" v="Spillumsbekken" />
		<tag k="ssr:stedsnr" v="959094" />
		<tag k="waterway" v="stream" />
	</node>
	<node id="-819548" lat="64.3234333378" lon="11.4657861147">
		<tag k="name" v="Litldjupvatnet" />
		<tag k="natural" v="water" />
		<tag k="ssr:stedsnr" v="559922" />
	</node>
	<node id="-819546" lat="64.2835749982" lon="11.5884999999">
		<tag k="name" v="Langbakkfossen" />
		<tag k="natural" v="waterfall" />
		<tag k="ssr:stedsnr" v="620811" />
	</node>
	<node id="-820623" lat="64.3830944414" lon="11.3501472201">
		<tag k="name" v="Fjærtjønna" />
		<tag k="natural" v="water" />
		<tag k="ssr:stedsnr" v="99767" />
	</node>
	<node id="-819537" lat="64.5261777807" lon="11.392441667">
		<tag k="alt_name" v="Lisstjønna" />
		<tag k="name" v="Lonevatnet" />
		<tag k="natural" v="water" />
		<tag k="ssr:stedsnr" v="379177" />
	</node>
	<node id="-819536" lat="64.3059222187" lon="11.6169305496">
		<tag k="name" v="Bukstjønnin" />
		<tag k="natural" v="water" />
		<tag k="ssr:stedsnr" v="135902" />
	</node>
	<node id="-819534" lat="64.5997583358" lon="11.2094638925">
		<tag k="name" v="Langvatnet" />
		<tag k="natural" v="water" />
		<tag k="ssr:stedsnr" v="897554" />
	</node>
	<node id="-819530" lat="64.602955555" lon="11.6920638852">
		<tag k="name" v="Holmtjønna" />
		<tag k="natural" v="water" />
		<tag k="ssr:stedsnr" v="632651" />
	</node>
	<node id="-819526" lat="64.6232277778" lon="11.8137250011">
		<tag k="name" v="Finnburtjønna - Buvriejaevrie" />
		<tag k="name:no" v="Finnburtjønna" />
		<tag k="name:sma" v="Buvriejaevrie" />
		<tag k="natural" v="water" />
		<tag k="ssr:stedsnr" v="317838" />
	</node>
	<node id="-819499" lat="64.4415249994" lon="11.5227472198">
		<tag k="name" v="Sjøbruelva" />
		<tag k="ssr:stedsnr" v="939564" />
		<tag k="waterway" v="stream" />
	</node>
	<node id="-819493" lat="64.3982750021" lon="11.2720000082">
		<tag k="name" v="Halsvatnet" />
		<tag k="natural" v="water" />
		<tag k="ssr:stedsnr" v="378059" />
	</node>
	<node id="-819488" lat="64.4388500038" lon="11.5774388941">
		<tag k="name" v="Langtjønna" />
		<tag k="natural" v="water" />
		<tag k="ssr:stedsnr" v="135085" />
	</node>
	<node id="-819485" lat="64.404005096" lon="11.6389282055">
		<tag k="name" v="Finntjønna" />
		<tag k="natural" v="water" />
		<tag k="ssr:stedsnr" v="742078" />
	</node>
	<node id="-819483" lat="64.590466669" lon="11.5104138842">
		<tag k="name" v="Tomasvatnet" />
		<tag k="natural" v="water" />
		<tag k="ssr:stedsnr" v="560464" />
	</node>
	<node id="-819478" lat="64.2902805521" lon="11.4827083422">
		<tag k="name" v="Mellangbekken" />
		<tag k="ssr:stedsnr" v="620820" />
		<tag k="waterway" v="stream" />
	</node>
	<node id="-819476" lat="64.2639694449" lon="11.5998416575">
		<tag k="name" v="Nonstjønnin" />
		<tag k="natural" v="water" />
		<tag k="ssr:stedsnr" v="14845" />
	</node>
	<node id="-819468" lat="64.6319972264" lon="11.0841361192">
		<tag k="name" v="Øset" />
		<tag k="natural" v="bay" />
		<tag k="ssr:stedsnr" v="958526" />
	</node>
	<node id="-819464" lat="64.5230472203" lon="11.6632111199">
		<tag k="name" v="Knuttjønna" />
		<tag k="natural" v="water" />
		<tag k="ssr:stedsnr" v="743171" />
	</node>
	<node id="-819462" lat="64.3789916679" lon="11.377852768">
		<tag k="name" v="Jakobvika" />
		<tag k="natural" v="bay" />
		<tag k="ssr:stedsnr" v="523784" />
	</node>
	<node id="-819459" lat="64.5493166705" lon="11.1705777768">
		<tag k="name" v="Isvatnet" />
		<tag k="natural" v="water" />
		<tag k="ssr:stedsnr" v="75698" />
	</node>
	<node id="-819457" lat="64.3946277796" lon="11.6234666603">
		<tag k="name" v="Svarttjønnin" />
		<tag k="natural" v="water" />
		<tag k="ssr:stedsnr" v="257093" />
	</node>
	<node id="-819451" lat="64.3431444436" lon="11.5208861132">
		<tag k="name" v="Nonsbekken" />
		<tag k="ssr:stedsnr" v="99565" />
		<tag k="waterway" v="stream" />
	</node>
	<node id="-819447" lat="64.3654944484" lon="11.5274888918">
		<tag k="name" v="Andsjøvatnet" />
		<tag k="natural" v="water" />
		<tag k="ssr:stedsnr" v="196947" />
		<tag k="water" v="lake" />
	</node>
	<node id="-819445" lat="64.3510305537" lon="11.3821583412">
		<tag k="name" v="Svartvatnet" />
		<tag k="natural" v="water" />
		<tag k="ssr:stedsnr" v="560985" />
	</node>
	<node id="-819441" lat="64.3260888929" lon="11.3337666637">
		<tag k="name" v="Aursundlitjønnin" />
		<tag k="natural" v="water" />
		<tag k="ssr:stedsnr" v="74878" />
	</node>
	<node id="-819428" lat="64.4133277734" lon="11.6046333305">
		<tag k="name" v="Løsvatnet" />
		<tag k="natural" v="water" />
		<tag k="ssr:stedsnr" v="378051" />
	</node>
	<node id="-819425" lat="64.5395166672" lon="11.177036117">
		<tag k="name" v="Krokvatnet" />
		<tag k="natural" v="water" />
		<tag k="ssr:stedsnr" v="318643" />
	</node>
	<node id="-819423" lat="64.3083138845" lon="11.61821112">
		<tag k="name" v="Langtjønna" />
		<tag k="natural" v="water" />
		<tag k="ssr:stedsnr" v="863927" />
	</node>
	<node id="-819414" lat="64.4629472188" lon="11.2358111071">
		<tag k="name" v="Brennfjelltjønna" />
		<tag k="natural" v="water" />
		<tag k="ssr:stedsnr" v="654425" />
	</node>
	<node id="-819400" lat="64.4053250018" lon="11.5743888985">
		<tag k="name" v="Spjølvassbekken" />
		<tag k="ssr:stedsnr" v="775459" />
		<tag k="waterway" v="river" />
	</node>
	<node id="-819392" lat="64.3007777741" lon="11.4320611198">
		<tag k="name" v="Seterbukta" />
		<tag k="natural" v="bay" />
		<tag k="ssr:stedsnr" v="559906" />
	</node>
	<node id="-819391" lat="64.6044666677" lon="11.6350611014">
		<tag k="name" v="Beradalbekken" />
		<tag k="ssr:stedsnr" v="898709" />
		<tag k="waterway" v="stream" />
	</node>
	<node id="-819390" lat="64.415038892" lon="11.5207916658">
		<tag k="name" v="Steinbekken" />
		<tag k="ssr:stedsnr" v="47472" />
		<tag k="waterway" v="stream" />
	</node>
	<node id="-819387" lat="64.5859099887" lon="11.524657255">
		<tag k="name" v="Kjettvatnet" />
		<tag k="natural" v="water" />
		<tag k="old_name" v="Skjettvatnet" />
		<tag k="ssr:stedsnr" v="14027" />
	</node>
	<node id="-819383" lat="64.5288305558" lon="11.6114305637">
		<tag k="name" v="Vassdalselva" />
		<tag k="ssr:stedsnr" v="197208" />
		<tag k="waterway" v="stream" />
	</node>
	<node id="-818206" lat="64.6208805563" lon="11.7172611196">
		<tag k="name" v="Finntjønna" />
		<tag k="natural" v="water" />
		<tag k="ssr:stedsnr" v="47292" />
	</node>
	<node id="-819378" lat="64.4062872391" lon="11.6161071656">
		<tag k="alt_name" v="Kroktjønna" />
		<tag k="name" v="Krokvatnet" />
		<tag k="natural" v="water" />
		<tag k="ssr:stedsnr" v="378055" />
	</node>
	<node id="-819371" lat="64.5920083298" lon="11.6274388783">
		<tag k="name" v="Fosselva" />
		<tag k="ssr:stedsnr" v="898712" />
		<tag k="waterway" v="stream" />
	</node>
	<node id="-819363" lat="64.5362666652" lon="11.2049305504">
		<tag k="name" v="Brunavatnet" />
		<tag k="natural" v="water" />
		<tag k="ssr:stedsnr" v="864717" />
	</node>
	<node id="-819360" lat="64.4534888888" lon="11.5712055577">
		<tag k="name" v="Nøkkgulltjønna" />
		<tag k="natural" v="water" />
		<tag k="ssr:stedsnr" v="256015" />
	</node>
	<node id="-819341" lat="64.5295250015" lon="11.4111000057">
		<tag k="name" v="Heimvatnet" />
		<tag k="natural" v="water" />
		<tag k="ssr:stedsnr" v="197202" />
		<tag k="water" v="lake" />
	</node>
	<node id="-819336" lat="64.5974916702" lon="11.5665666686">
		<tag k="name" v="Trappavatnet" />
		<tag k="natural" v="water" />
		<tag k="ssr:stedsnr" v="560441" />
	</node>
	<node id="-820588" lat="64.3485388931" lon="11.6141472133">
		<tag k="name" v="Dyrfossen" />
		<tag k="natural" v="waterfall" />
		<tag k="ssr:stedsnr" v="351459" />
	</node>
	<node id="-819328" lat="64.5273833365" lon="11.4269083396">
		<tag k="name" v="Karlsengvatnet" />
		<tag k="natural" v="water" />
		<tag k="ssr:stedsnr" v="197205" />
	</node>
	<node id="-819326" lat="64.6129111069" lon="11.688466672">
		<tag k="name" v="Langlibekken" />
		<tag k="ssr:stedsnr" v="716304" />
		<tag k="waterway" v="stream" />
	</node>
	<node id="-819318" lat="64.4266277813" lon="11.5656305596">
		<tag k="name" v="Spillumsvatnet" />
		<tag k="natural" v="water" />
		<tag k="ssr:stedsnr" v="196116" />
		<tag k="water" v="lake" />
	</node>
	<node id="-819313" lat="64.5982194435" lon="11.5132333375">
		<tag k="name" v="Båtsettet" />
		<tag k="natural" v="strait" />
		<tag k="ssr:stedsnr" v="957693" />
	</node>
	<node id="-819310" lat="64.5365916695" lon="11.3583527883">
		<tag k="alt_name" v="Kvernavatnet" />
		<tag k="name" v="Vindsetvatnet" />
		<tag k="natural" v="water" />
		<tag k="ssr:stedsnr" v="135066" />
	</node>
	<node id="-819304" lat="64.4106698077" lon="11.5647644601">
		<tag k="name" v="Barstadvatnet" />
		<tag k="natural" v="water" />
		<tag k="ssr:stedsnr" v="378050" />
		<tag k="water" v="lake" />
	</node>
	<node id="-819300" lat="64.253330555" lon="11.5066638792">
		<tag k="name" v="Daltjønna" />
		<tag k="natural" v="water" />
		<tag k="ssr:stedsnr" v="257891" />
		<tag k="water" v="lake" />
	</node>
	<node id="-819293" lat="64.4187000004" lon="11.3109222238">
		<tag k="name" v="Skrovla" />
		<tag k="ssr:stedsnr" v="378046" />
		<tag k="waterway" v="stream" />
	</node>
	<node id="-819291" lat="64.5877111104" lon="11.3824027711">
		<tag k="name" v="Setervika" />
		<tag k="natural" v="bay" />
		<tag k="ssr:stedsnr" v="655608" />
	</node>
	<node id="-819289" lat="64.5331431532" lon="11.59408309">
		<tag k="name" v="Løddingsvatnet" />
		<tag k="natural" v="water" />
		<tag k="ssr:stedsnr" v="560174" />
	</node>
	<node id="-819288" lat="64.5623861074" lon="11.1592222322">
		<tag k="name" v="Litle Litlskorstadvatnet" />
		<tag k="natural" v="water" />
		<tag k="ssr:stedsnr" v="438601" />
	</node>
	<node id="-819286" lat="64.3658805516" lon="11.6079583251">
		<tag k="name" v="Mikalodden" />
		<tag k="natural" v="cape" />
		<tag k="ssr:stedsnr" v="47459" />
	</node>
	<node id="-819285" lat="64.2819472252" lon="11.6769472325">
		<tag k="name" v="Munktjønna" />
		<tag k="natural" v="water" />
		<tag k="ssr:stedsnr" v="620801" />
	</node>
	<node id="-818189" lat="64.5867083377" lon="11.8975499976">
		<tag k="name" v="Ekornvatnet" />
		<tag k="natural" v="water" />
		<tag k="ssr:stedsnr" v="439801" />
		<tag k="water" v="lake" />
	</node>
	<node id="-819275" lat="64.4484444457" lon="11.5457611078">
		<tag k="name" v="Navelskardsbekken" />
		<tag k="ssr:stedsnr" v="681019" />
		<tag k="waterway" v="stream" />
	</node>
	<node id="-819272" lat="64.4363583369" lon="11.6065277832">
		<tag k="alt_name" v="Strømhyllvatna" />
		<tag k="name" v="Straumhyllvatna" />
		<tag k="natural" v="water" />
		<tag k="ssr:stedsnr" v="559092" />
	</node>
	<node id="-819262" lat="64.5225361139" lon="11.4208055494">
		<tag k="name" v="Fugllivatnet" />
		<tag k="natural" v="water" />
		<tag k="ssr:stedsnr" v="500193" />
	</node>
	<node id="-819551" lat="64.5561888895" lon="11.1896361182">
		<tag k="name" v="Storskorstadvatnet" />
		<tag k="natural" v="water" />
		<tag k="ssr:stedsnr" v="135632" />
	</node>
	<node id="-819255" lat="64.3097559729" lon="11.4354014565">
		<tag k="name" v="Storvatnet" />
		<tag k="natural" v="water" />
		<tag k="ssr:stedsnr" v="499923" />
		<tag k="water" v="lake" />
	</node>
	<node id="-819254" lat="64.5275388851" lon="11.3625777702">
		<tag k="name" v="Fuglvatnet" />
		<tag k="natural" v="water" />
		<tag k="ssr:stedsnr" v="864166" />
		<tag k="water" v="lake" />
	</node>
	<node id="-819252" lat="64.3367222248" lon="11.4927861121">
		<tag k="name" v="Bergsheitjønnin" />
		<tag k="natural" v="water" />
		<tag k="ssr:stedsnr" v="534832" />
	</node>
	<node id="-819249" lat="64.3906681595" lon="11.5671715668">
		<tag k="name" v="Fjellsettjønnin" />
		<tag k="natural" v="water" />
		<tag k="ssr:stedsnr" v="803078" />
	</node>
	<node id="-819245" lat="64.4580583291" lon="11.572194437">
		<tag k="name" v="Svarttjønna" />
		<tag k="natural" v="water" />
		<tag k="ssr:stedsnr" v="134009" />
	</node>
	<node id="-819239" lat="64.5513527819" lon="11.5953361036">
		<tag k="name" v="Oterbekken" />
		<tag k="ssr:stedsnr" v="351649" />
		<tag k="waterway" v="stream" />
	</node>
	<node id="-819236" lat="64.5114138897" lon="11.2056805476">
		<tag k="name" v="Sagfossen" />
		<tag k="natural" v="waterfall" />
		<tag k="ssr:stedsnr" v="879864" />
	</node>
	<node id="-819223" lat="64.3116777733" lon="11.349961115">
		<tag k="name" v="Brannfjellbekken" />
		<tag k="ssr:stedsnr" v="196926" />
		<tag k="waterway" v="stream" />
	</node>
	<node id="-819545" lat="64.5960500037" lon="11.5178500053">
		<tag k="name" v="Tomaselva" />
		<tag k="ssr:stedsnr" v="290642" />
		<tag k="waterway" v="river" />
	</node>
	<node id="-819215" lat="64.5131999988" lon="11.3168666569">
		<tag k="alt_name" v="Vikaelva" />
		<tag k="name" v="Vikelva" />
		<tag k="ssr:stedsnr" v="75129" />
		<tag k="waterway" v="stream" />
	</node>
	<node id="-819211" lat="64.4703861097" lon="11.5704138987">
		<tag k="name" v="Høyknesneset" />
		<tag k="natural" v="cape" />
		<tag k="ssr:stedsnr" v="74061" />
	</node>
	<node id="-819203" lat="64.5376861089" lon="11.346830549">
		<tag k="name" v="Sagbekken" />
		<tag k="ssr:stedsnr" v="757746" />
		<tag k="waterway" v="stream" />
	</node>
</osm>
