<?xml version="1.0" encoding="UTF-8"?>
<osm generator="osmapis" version="0.6">
	<node id="-471040" lat="60.261158331" lon="5.48986665932">
		<tag k="name" v="Heiane" />
		<tag k="place" v="locality" />
		<tag k="ssr:stedsnr" v="583222" />
	</node>
	<node id="-471039" lat="60.249222222" lon="5.52281110321">
		<tag k="name" v="Gullhaugane" />
		<tag k="natural" v="hill" />
		<tag k="place" v="locality" />
		<tag k="ssr:stedsnr" v="583220" />
	</node>
	<node id="-471038" lat="60.2442194483" lon="5.52435556152">
		<tag k="name" v="Lyhaugen" />
		<tag k="natural" v="hill" />
		<tag k="place" v="locality" />
		<tag k="ssr:stedsnr" v="583221" />
	</node>
	<node id="-471037" lat="60.1771583291" lon="5.44860554937">
		<tag k="name" v="Villelia" />
		<tag k="natural" v="slope" />
		<tag k="place" v="locality" />
		<tag k="ssr:stedsnr" v="583034" />
	</node>
	<node id="-471036" lat="60.2418305518" lon="5.46876944727">
		<tag k="fixme" v="consider natural=peak for the most distinct mountains in the district" />
		<tag k="name" v="Kleivåsen" />
		<tag k="natural" v="hill" />
		<tag k="place" v="locality" />
		<tag k="ssr:stedsnr" v="583012" />
	</node>
	<node id="-471035" lat="60.3273694432" lon="5.56966945259">
		<tag k="name" v="Svinningen" />
		<tag k="place" v="locality" />
		<tag k="ssr:stedsnr" v="583001" />
	</node>
	<node id="-471026" lat="60.2249194437" lon="5.42471111193">
		<tag k="name" v="Endalausdalen" />
		<tag k="natural" v="valley" />
		<tag k="place" v="locality" />
		<tag k="ssr:stedsnr" v="551873" />
	</node>
	<node id="-471024" lat="60.2845777749" lon="5.53146666095">
		<tag k="fixme" v="consider natural=peak for the most distinct mountains in the district" />
		<tag k="name" v="Midseterfjellet" />
		<tag k="natural" v="hill" />
		<tag k="place" v="locality" />
		<tag k="ssr:stedsnr" v="551260" />
	</node>
	<node id="-471023" lat="60.2465888882" lon="5.55376943709">
		<tag k="name" v="Bjørndalen" />
		<tag k="natural" v="valley" />
		<tag k="place" v="locality" />
		<tag k="ssr:stedsnr" v="551217" />
	</node>
	<node id="-471014" lat="60.1877416703" lon="5.3809111076">
		<tag k="fixme" v="consider natural=peak for the most distinct mountains in the district" />
		<tag k="name" v="Høgelikampen" />
		<tag k="natural" v="hill" />
		<tag k="place" v="locality" />
		<tag k="ssr:stedsnr" v="550804" />
	</node>
	<node id="-471011" lat="60.1733583296" lon="5.43553334014">
		<tag k="name" v="Grønhaugen" />
		<tag k="natural" v="hill" />
		<tag k="place" v="locality" />
		<tag k="ssr:stedsnr" v="550788" />
	</node>
	<node id="-471009" lat="60.2070722265" lon="5.43322777401">
		<tag k="fixme" v="consider natural=peak for the most distinct mountains in the district" />
		<tag k="name" v="Skogafjellet" />
		<tag k="natural" v="hill" />
		<tag k="place" v="locality" />
		<tag k="ssr:stedsnr" v="550742" />
	</node>
	<node id="-471006" lat="60.2131333366" lon="5.46860278534">
		<tag k="name" v="Tyssdal" />
		<tag k="natural" v="valley" />
		<tag k="place" v="locality" />
		<tag k="ssr:stedsnr" v="550037" />
	</node>
	<node id="-471003" lat="60.2284472242" lon="5.51509722931">
		<tag k="name" v="Øvste Stemmedalen" />
		<tag k="natural" v="valley" />
		<tag k="place" v="locality" />
		<tag k="ssr:stedsnr" v="523571" />
	</node>
	<node id="-470999" lat="60.2393944409" lon="5.50536944977">
		<tag k="name" v="Tømmerskaret" />
		<tag k="natural" v="hill" />
		<tag k="place" v="locality" />
		<tag k="ssr:stedsnr" v="523547" />
	</node>
	<node id="-470994" lat="60.1664138873" lon="5.35043334097">
		<tag k="fixme" v="consider natural=peak for the most distinct mountains in the district" />
		<tag k="name" v="Storfjellet" />
		<tag k="natural" v="hill" />
		<tag k="place" v="locality" />
		<tag k="ssr:stedsnr" v="523509" />
	</node>
	<node id="-470993" lat="60.2387916684" lon="5.5673861058">
		<tag k="name" v="Hella" />
		<tag k="natural" v="hill" />
		<tag k="place" v="locality" />
		<tag k="ssr:stedsnr" v="523390" />
	</node>
	<node id="-470992" lat="60.1738194418" lon="5.40638055529">
		<tag k="name" v="Skeisbotnen" />
		<tag k="natural" v="valley" />
		<tag k="place" v="locality" />
		<tag k="ssr:stedsnr" v="523388" />
	</node>
	<node id="-470985" lat="60.2047861134" lon="5.43671389056">
		<tag k="name" v="Svegadalen" />
		<tag k="natural" v="valley" />
		<tag k="place" v="locality" />
		<tag k="ssr:stedsnr" v="523334" />
	</node>
	<node id="-470984" lat="60.2748694414" lon="5.55430832547">
		<tag k="name" v="Høgakleiva" />
		<tag k="natural" v="hill" />
		<tag k="place" v="locality" />
		<tag k="ssr:stedsnr" v="523327" />
	</node>
	<node id="-470982" lat="60.2655277783" lon="5.55020555913">
		<tag k="name" v="Vallahaugen" />
		<tag k="natural" v="hill" />
		<tag k="place" v="locality" />
		<tag k="ssr:stedsnr" v="523313" />
	</node>
	<node id="-470976" lat="60.1849111086" lon="5.47791110569">
		<tag k="name" v="Lurane" />
		<tag k="place" v="locality" />
		<tag k="ssr:stedsnr" v="523283" />
	</node>
	<node id="-470972" lat="60.1970333358" lon="5.50039721722">
		<tag k="name" v="Skoltane" />
		<tag k="natural" v="hill" />
		<tag k="place" v="locality" />
		<tag k="ssr:stedsnr" v="523276" />
	</node>
	<node id="-470971" lat="60.2424888847" lon="5.43568055933">
		<tag k="fixme" v="consider natural=peak for the most distinct mountains in the district" />
		<tag k="name" v="Bjørnåsen" />
		<tag k="natural" v="hill" />
		<tag k="place" v="locality" />
		<tag k="ssr:stedsnr" v="523273" />
	</node>
	<node id="-470970" lat="60.2531166622" lon="5.45153611023">
		<tag k="name" v="Vetlebotnen" />
		<tag k="natural" v="valley" />
		<tag k="place" v="locality" />
		<tag k="ssr:stedsnr" v="523268" />
	</node>
	<node id="-470969" lat="60.2508055535" lon="5.52410278343">
		<tag k="name" v="Djupedalen" />
		<tag k="natural" v="valley" />
		<tag k="place" v="locality" />
		<tag k="ssr:stedsnr" v="523264" />
	</node>
	<node id="-470968" lat="60.2435972187" lon="5.40095833231">
		<tag k="name" v="Blomlia" />
		<tag k="natural" v="slope" />
		<tag k="place" v="locality" />
		<tag k="ssr:stedsnr" v="523260" />
	</node>
	<node id="-470965" lat="60.2553888925" lon="5.45205556121">
		<tag k="name" v="Tømmernesdalen" />
		<tag k="natural" v="valley" />
		<tag k="place" v="locality" />
		<tag k="ssr:stedsnr" v="523027" />
	</node>
	<node id="-470959" lat="60.3031305533" lon="5.56029722564">
		<tag k="name" v="Knutsbrekka" />
		<tag k="natural" v="slope" />
		<tag k="place" v="locality" />
		<tag k="ssr:stedsnr" v="522288" />
	</node>
	<node id="-470956" lat="60.1835694453" lon="5.39982500467">
		<tag k="fixme" v="consider natural=peak for the most distinct mountains in the district" />
		<tag k="name" v="Brekkekampen" />
		<tag k="natural" v="hill" />
		<tag k="ssr:stedsnr" v="523443" />
	</node>
	<node id="-470954" lat="60.21195833" lon="5.48892777468">
		<tag k="name" v="Høgehaugen" />
		<tag k="natural" v="hill" />
		<tag k="place" v="locality" />
		<tag k="ssr:stedsnr" v="523412" />
	</node>
	<node id="-470943" lat="60.1993222191" lon="5.34899445143">
		<tag k="fixme" v="consider natural=peak for the most distinct mountains in the district" />
		<tag k="name" v="Stora Stokkfjellet" />
		<tag k="natural" v="hill" />
		<tag k="place" v="locality" />
		<tag k="ssr:stedsnr" v="491620" />
	</node>
	<node id="-470942" lat="60.2607083359" lon="5.50799999395">
		<tag k="fixme" v="consider natural=peak for the most distinct mountains in the district" />
		<tag k="name" v="Reppåsen" />
		<tag k="natural" v="hill" />
		<tag k="place" v="locality" />
		<tag k="ssr:stedsnr" v="491315" />
	</node>
	<node id="-470941" lat="60.2583166658" lon="5.55636388938">
		<tag k="fixme" v="consider natural=peak for the most distinct mountains in the district" />
		<tag k="name" v="Kråka" />
		<tag k="natural" v="hill" />
		<tag k="place" v="locality" />
		<tag k="ssr:stedsnr" v="491313" />
	</node>
	<node id="-470937" lat="60.1491305597" lon="5.35288889095">
		<tag k="fixme" v="consider natural=peak for the most distinct mountains in the district" />
		<tag k="name" v="Husfjellet" />
		<tag k="natural" v="hill" />
		<tag k="place" v="locality" />
		<tag k="ssr:stedsnr" v="490938" />
	</node>
	<node id="-470933" lat="60.2205472219" lon="5.40032778009">
		<tag k="name" v="Sjøbøhaugane" />
		<tag k="natural" v="hill" />
		<tag k="place" v="locality" />
		<tag k="ssr:stedsnr" v="489849" />
	</node>
	<node id="-470931" lat="60.1834416703" lon="5.37134999328">
		<tag k="fixme" v="consider natural=peak for the most distinct mountains in the district" />
		<tag k="name" v="Oppsåta" />
		<tag k="natural" v="hill" />
		<tag k="place" v="locality" />
		<tag k="ssr:stedsnr" v="489809" />
	</node>
	<node id="-470925" lat="60.1605777775" lon="5.35343888257">
		<tag k="name" v="Kongshaugen" />
		<tag k="natural" v="hill" />
		<tag k="place" v="locality" />
		<tag k="ssr:stedsnr" v="462464" />
	</node>
	<node id="-470918" lat="60.1876111066" lon="5.40545832762">
		<tag k="name" v="Ådnedalshaugen" />
		<tag k="natural" v="hill" />
		<tag k="place" v="locality" />
		<tag k="ssr:stedsnr" v="462371" />
	</node>
	<node id="-470916" lat="60.2076694413" lon="5.52441944329">
		<tag k="name" v="Trollhøset" />
		<tag k="place" v="locality" />
		<tag k="ssr:stedsnr" v="462355" />
	</node>
	<node id="-470915" lat="60.2034638869" lon="5.47985832548">
		<tag k="name" v="Gletten" />
		<tag k="place" v="locality" />
		<tag k="ssr:stedsnr" v="462352" />
	</node>
	<node id="-470913" lat="60.247372222" lon="5.53425277422">
		<tag k="name" v="Nordre Knutsdalen" />
		<tag k="natural" v="valley" />
		<tag k="place" v="locality" />
		<tag k="ssr:stedsnr" v="462335" />
	</node>
	<node id="-470911" lat="60.1781722193" lon="5.43462222448">
		<tag k="fixme" v="consider natural=peak for the most distinct mountains in the district" />
		<tag k="name" v="Storevarden" />
		<tag k="natural" v="hill" />
		<tag k="ssr:stedsnr" v="462325" />
	</node>
	<node id="-470910" lat="60.2362194446" lon="5.56054722049">
		<tag k="fixme" v="consider natural=peak for the most distinct mountains in the district" />
		<tag k="name" v="Sjoaråsen" />
		<tag k="natural" v="hill" />
		<tag k="place" v="locality" />
		<tag k="ssr:stedsnr" v="462324" />
	</node>
	<node id="-470909" lat="60.2382388924" lon="5.56066111598">
		<tag k="fixme" v="consider natural=peak for the most distinct mountains in the district" />
		<tag k="name" v="Storåsen" />
		<tag k="natural" v="hill" />
		<tag k="place" v="locality" />
		<tag k="ssr:stedsnr" v="462322" />
	</node>
	<node id="-470907" lat="60.264894445" lon="5.50109444238">
		<tag k="name" v="Legena" />
		<tag k="place" v="locality" />
		<tag k="ssr:stedsnr" v="462316" />
	</node>
	<node id="-470906" lat="60.2769138917" lon="5.5249166579">
		<tag k="name" v="Bukkaberglia" />
		<tag k="natural" v="slope" />
		<tag k="place" v="locality" />
		<tag k="ssr:stedsnr" v="462309" />
	</node>
	<node id="-470905" lat="60.2760805563" lon="5.50621667332">
		<tag k="name" v="Bjørkestølsbotnen" />
		<tag k="natural" v="valley" />
		<tag k="place" v="locality" />
		<tag k="ssr:stedsnr" v="462299" />
	</node>
	<node id="-470904" lat="60.2392388846" lon="5.43776388115">
		<tag k="name" v="Heia" />
		<tag k="natural" v="hill" />
		<tag k="place" v="locality" />
		<tag k="ssr:stedsnr" v="462296" />
	</node>
	<node id="-470903" lat="60.2316249955" lon="5.42153610941">
		<tag k="fixme" v="consider natural=peak for the most distinct mountains in the district" />
		<tag k="name" v="Raunåsen" />
		<tag k="natural" v="hill" />
		<tag k="place" v="locality" />
		<tag k="ssr:stedsnr" v="462292" />
	</node>
	<node id="-470901" lat="60.2166472264" lon="5.54307222169">
		<tag k="name" v="Skjenet" />
		<tag k="place" v="locality" />
		<tag k="ssr:stedsnr" v="462282" />
	</node>
	<node id="-470899" lat="60.223452775" lon="5.38778889588">
		<tag k="name" v="Urhaugen" />
		<tag k="natural" v="hill" />
		<tag k="place" v="locality" />
		<tag k="ssr:stedsnr" v="462277" />
	</node>
	<node id="-470898" lat="60.2248250029" lon="5.39512499823">
		<tag k="name" v="Vassberget" />
		<tag k="natural" v="hill" />
		<tag k="place" v="locality" />
		<tag k="ssr:stedsnr" v="462274" />
	</node>
	<node id="-470896" lat="60.1989249969" lon="5.45018888381">
		<tag k="fixme" v="consider natural=peak for the most distinct mountains in the district" />
		<tag k="name" v="Vardafjellet" />
		<tag k="natural" v="hill" />
		<tag k="place" v="locality" />
		<tag k="ssr:stedsnr" v="462265" />
	</node>
	<node id="-470893" lat="60.2758444453" lon="5.54383332854">
		<tag k="name" v="Gjelet" />
		<tag k="natural" v="gorge" />
		<tag k="ssr:stedsnr" v="462248" />
	</node>
	<node id="-470892" lat="60.2802638915" lon="5.5404000028">
		<tag k="name" v="Sleipaskarvet" />
		<tag k="natural" v="hill" />
		<tag k="place" v="locality" />
		<tag k="ssr:stedsnr" v="462246" />
	</node>
	<node id="-470891" lat="60.2630583368" lon="5.55428888779">
		<tag k="name" v="Kåkedalen" />
		<tag k="natural" v="valley" />
		<tag k="place" v="locality" />
		<tag k="ssr:stedsnr" v="462244" />
	</node>
	<node id="-470890" lat="60.2702250023" lon="5.54852499602">
		<tag k="fixme" v="consider natural=peak for the most distinct mountains in the district" />
		<tag k="name" v="Stemåsen" />
		<tag k="natural" v="hill" />
		<tag k="place" v="locality" />
		<tag k="ssr:stedsnr" v="462240" />
	</node>
	<node id="-470889" lat="60.2969250012" lon="5.550875001">
		<tag k="name" v="Saubottshaugen" />
		<tag k="natural" v="hill" />
		<tag k="place" v="locality" />
		<tag k="ssr:stedsnr" v="462234" />
	</node>
	<node id="-470888" lat="60.2843999989" lon="5.55875556165">
		<tag k="name" v="Grålia" />
		<tag k="natural" v="slope" />
		<tag k="place" v="locality" />
		<tag k="ssr:stedsnr" v="462232" />
	</node>
	<node id="-470887" lat="60.2937833372" lon="5.56219721372">
		<tag k="name" v="Ulvakråa" />
		<tag k="place" v="locality" />
		<tag k="ssr:stedsnr" v="462231" />
	</node>
	<node id="-470886" lat="60.2085277798" lon="5.38668611705">
		<tag k="name" v="Helleskaret" />
		<tag k="natural" v="hill" />
		<tag k="place" v="locality" />
		<tag k="ssr:stedsnr" v="462229" />
	</node>
	<node id="-470885" lat="60.2413194488" lon="5.48972222462">
		<tag k="name" v="Stokkedalen" />
		<tag k="natural" v="valley" />
		<tag k="place" v="locality" />
		<tag k="ssr:stedsnr" v="462226" />
	</node>
	<node id="-470883" lat="60.2559277747" lon="5.49891388624">
		<tag k="name" v="Bjørndalen" />
		<tag k="natural" v="valley" />
		<tag k="place" v="locality" />
		<tag k="ssr:stedsnr" v="462223" />
	</node>
	<node id="-470882" lat="60.2192111119" lon="5.53258611738">
		<tag k="name" v="Geitaberget" />
		<tag k="natural" v="hill" />
		<tag k="place" v="locality" />
		<tag k="ssr:stedsnr" v="462222" />
	</node>
	<node id="-470879" lat="60.23581389" lon="5.42873054885">
		<tag k="name" v="Raunåsdalen" />
		<tag k="natural" v="valley" />
		<tag k="place" v="locality" />
		<tag k="ssr:stedsnr" v="462035" />
	</node>
	<node id="-470866" lat="60.2850999958" lon="5.57760000518">
		<tag k="fixme" v="consider natural=peak for the most distinct mountains in the district" />
		<tag k="name" v="Midtfjellet" />
		<tag k="natural" v="hill" />
		<tag k="place" v="locality" />
		<tag k="ssr:stedsnr" v="430246" />
	</node>
	<node id="-470865" lat="60.2434583375" lon="5.49290554842">
		<tag k="name" v="Øvreeidsdalen" />
		<tag k="natural" v="valley" />
		<tag k="place" v="locality" />
		<tag k="ssr:stedsnr" v="430194" />
	</node>
	<node id="-470853" lat="60.1999500036" lon="5.51818611413">
		<tag k="name" v="Moldadalen" />
		<tag k="natural" v="valley" />
		<tag k="place" v="locality" />
		<tag k="ssr:stedsnr" v="429084" />
	</node>
	<node id="-470836" lat="60.3181944481" lon="5.54984167434">
		<tag k="fixme" v="consider natural=peak for the most distinct mountains in the district" />
		<tag k="name" v="Sveningen" />
		<tag k="natural" v="hill" />
		<tag k="place" v="locality" />
		<tag k="ssr:stedsnr" v="248241" />
	</node>
	<node id="-470826" lat="60.1937722202" lon="5.39281111106">
		<tag k="fixme" v="consider natural=peak for the most distinct mountains in the district" />
		<tag k="name" v="Vardafjellet" />
		<tag k="natural" v="hill" />
		<tag k="place" v="locality" />
		<tag k="ssr:stedsnr" v="247758" />
	</node>
	<node id="-470814" lat="60.2255555597" lon="5.52144445254">
		<tag k="name" v="Gråkletten" />
		<tag k="place" v="locality" />
		<tag k="ssr:stedsnr" v="220545" />
	</node>
	<node id="-470813" lat="60.1566277788" lon="5.38979166797">
		<tag k="name" v="Skitnedalen" />
		<tag k="natural" v="valley" />
		<tag k="place" v="locality" />
		<tag k="ssr:stedsnr" v="220533" />
	</node>
	<node id="-470805" lat="60.1880916652" lon="5.46026388819">
		<tag k="name" v="Kleivane" />
		<tag k="natural" v="slope" />
		<tag k="place" v="locality" />
		<tag k="ssr:stedsnr" v="220441" />
	</node>
	<node id="-470801" lat="60.2391555579" lon="5.39599167093">
		<tag k="fixme" v="consider natural=peak for the most distinct mountains in the district" />
		<tag k="name" v="Rotlikampen" />
		<tag k="natural" v="hill" />
		<tag k="ssr:stedsnr" v="220418" />
	</node>
	<node id="-470800" lat="60.2143055514" lon="5.3913305514">
		<tag k="fixme" v="consider natural=peak for the most distinct mountains in the district" />
		<tag k="name" v="Vetle Revsåsen" />
		<tag k="natural" v="hill" />
		<tag k="place" v="locality" />
		<tag k="ssr:stedsnr" v="220384" />
	</node>
	<node id="-470797" lat="60.2368833337" lon="5.42118332583">
		<tag k="name" v="Rotabrekka" />
		<tag k="natural" v="slope" />
		<tag k="place" v="locality" />
		<tag k="ssr:stedsnr" v="220365" />
	</node>
	<node id="-470796" lat="60.2769638886" lon="5.58219722807">
		<tag k="name" v="Trollbotn" />
		<tag k="natural" v="valley" />
		<tag k="place" v="locality" />
		<tag k="ssr:stedsnr" v="220357" />
	</node>
	<node id="-470794" lat="60.2557222259" lon="5.47690833601">
		<tag k="name" v="Lonlia" />
		<tag k="natural" v="slope" />
		<tag k="place" v="locality" />
		<tag k="ssr:stedsnr" v="220351" />
	</node>
	<node id="-470793" lat="60.2672305568" lon="5.56022777683">
		<tag k="name" v="Svehaugen" />
		<tag k="natural" v="hill" />
		<tag k="place" v="locality" />
		<tag k="ssr:stedsnr" v="220337" />
	</node>
	<node id="-470789" lat="60.2593138845" lon="5.46634444503">
		<tag k="name" v="Illelia" />
		<tag k="natural" v="slope" />
		<tag k="place" v="locality" />
		<tag k="ssr:stedsnr" v="220305" />
	</node>
	<node id="-470787" lat="60.2419250043" lon="5.41276666847">
		<tag k="fixme" v="consider natural=peak for the most distinct mountains in the district" />
		<tag k="name" v="Vetla Lyshornet" />
		<tag k="natural" v="hill" />
		<tag k="ssr:stedsnr" v="220303" />
	</node>
	<node id="-470781" lat="60.2001000007" lon="5.50136667297">
		<tag k="name" v="Høgåsdalen" />
		<tag k="natural" v="valley" />
		<tag k="place" v="locality" />
		<tag k="ssr:stedsnr" v="219359" />
	</node>
	<node id="-470780" lat="60.2525666707" lon="5.56429166976">
		<tag k="name" v="Rødsliane" />
		<tag k="natural" v="slope" />
		<tag k="place" v="locality" />
		<tag k="ssr:stedsnr" v="219348" />
	</node>
	<node id="-470779" lat="60.2784138883" lon="5.51216110803">
		<tag k="name" v="Insta Bøskaret" />
		<tag k="natural" v="hill" />
		<tag k="place" v="locality" />
		<tag k="ssr:stedsnr" v="219335" />
	</node>
	<node id="-470778" lat="60.2106555524" lon="5.5326499967">
		<tag k="name" v="Tussaskarva" />
		<tag k="natural" v="hill" />
		<tag k="place" v="locality" />
		<tag k="ssr:stedsnr" v="219313" />
	</node>
	<node id="-470777" lat="60.2171888908" lon="5.54640000503">
		<tag k="name" v="Skjenabrotet" />
		<tag k="natural" v="hill" />
		<tag k="place" v="locality" />
		<tag k="ssr:stedsnr" v="219315" />
	</node>
	<node id="-470775" lat="60.2047388891" lon="5.43785278129">
		<tag k="name" v="Hesthaugen" />
		<tag k="natural" v="hill" />
		<tag k="place" v="locality" />
		<tag k="ssr:stedsnr" v="219295" />
	</node>
	<node id="-470774" lat="60.2157305585" lon="5.43465277745">
		<tag k="name" v="Vinddalshaugane" />
		<tag k="natural" v="hill" />
		<tag k="place" v="locality" />
		<tag k="ssr:stedsnr" v="219291" />
	</node>
	<node id="-470773" lat="60.2922083373" lon="5.57046110763">
		<tag k="name" v="Hilderen" />
		<tag k="natural" v="hill" />
		<tag k="place" v="locality" />
		<tag k="ssr:stedsnr" v="219282" />
	</node>
	<node id="-470772" lat="60.1500638911" lon="5.34262777755">
		<tag k="name" v="Ørnaberget" />
		<tag k="natural" v="hill" />
		<tag k="place" v="locality" />
		<tag k="ssr:stedsnr" v="219270" />
	</node>
	<node id="-470771" lat="60.2409694487" lon="5.43518611518">
		<tag k="name" v="Ljosalia" />
		<tag k="natural" v="slope" />
		<tag k="place" v="locality" />
		<tag k="ssr:stedsnr" v="219246" />
	</node>
	<node id="-470758" lat="60.302058331" lon="5.54049166278">
		<tag k="fixme" v="consider natural=peak for the most distinct mountains in the district" />
		<tag k="name" v="Sauskolten" />
		<tag k="natural" v="hill" />
		<tag k="place" v="locality" />
		<tag k="ssr:stedsnr" v="188267" />
	</node>
	<node id="-470749" lat="60.2434638893" lon="5.53000277807">
		<tag k="name" v="Gjemdalsskaret" />
		<tag k="natural" v="valley" />
		<tag k="place" v="locality" />
		<tag k="ssr:stedsnr" v="187199" />
	</node>
	<node id="-470730" lat="60.2212666692" lon="5.51533332912">
		<tag k="name" v="Insta Geitaberget" />
		<tag k="natural" v="hill" />
		<tag k="place" v="locality" />
		<tag k="ssr:stedsnr" v="159540" />
	</node>
	<node id="-470729" lat="60.2017916653" lon="5.46184444626">
		<tag k="name" v="Banktjørnhaugen" />
		<tag k="natural" v="hill" />
		<tag k="place" v="locality" />
		<tag k="ssr:stedsnr" v="159532" />
	</node>
	<node id="-470727" lat="60.1901944446" lon="5.34267777826">
		<tag k="fixme" v="consider natural=peak for the most distinct mountains in the district" />
		<tag k="name" v="Håkletten" />
		<tag k="natural" v="hill" />
		<tag k="ssr:stedsnr" v="159494" />
	</node>
	<node id="-470724" lat="60.2072000006" lon="5.51296110495">
		<tag k="name" v="Nordra Revskaret" />
		<tag k="natural" v="valley" />
		<tag k="place" v="locality" />
		<tag k="ssr:stedsnr" v="159408" />
	</node>
	<node id="-470723" lat="60.2069916628" lon="5.52755000466">
		<tag k="name" v="Kvernhushaugane" />
		<tag k="natural" v="hill" />
		<tag k="place" v="locality" />
		<tag k="ssr:stedsnr" v="159405" />
	</node>
	<node id="-470722" lat="60.2600333338" lon="5.54508888372">
		<tag k="fixme" v="consider natural=peak for the most distinct mountains in the district" />
		<tag k="name" v="Halvardsåsen" />
		<tag k="natural" v="hill" />
		<tag k="place" v="locality" />
		<tag k="ssr:stedsnr" v="159393" />
	</node>
	<node id="-470718" lat="60.2400222195" lon="5.53811110556">
		<tag k="name" v="Rishovda" />
		<tag k="place" v="locality" />
		<tag k="ssr:stedsnr" v="159372" />
	</node>
	<node id="-470716" lat="60.2259611105" lon="5.43281667526">
		<tag k="name" v="Spondalen" />
		<tag k="natural" v="valley" />
		<tag k="place" v="locality" />
		<tag k="ssr:stedsnr" v="159346" />
	</node>
	<node id="-470715" lat="60.2285277754" lon="5.47050555943">
		<tag k="name" v="Trongedalen" />
		<tag k="natural" v="valley" />
		<tag k="place" v="locality" />
		<tag k="ssr:stedsnr" v="159343" />
	</node>
	<node id="-470713" lat="60.2006777805" lon="5.52848054798">
		<tag k="name" v="Gråberget" />
		<tag k="natural" v="hill" />
		<tag k="place" v="locality" />
		<tag k="ssr:stedsnr" v="159328" />
	</node>
	<node id="-470711" lat="60.2732055593" lon="5.55549166154">
		<tag k="name" v="Lindedalen" />
		<tag k="natural" v="valley" />
		<tag k="place" v="locality" />
		<tag k="ssr:stedsnr" v="159318" />
	</node>
	<node id="-470710" lat="60.2085444415" lon="5.4636833273">
		<tag k="name" v="Spongbakkhaugen" />
		<tag k="natural" v="hill" />
		<tag k="place" v="locality" />
		<tag k="ssr:stedsnr" v="159317" />
	</node>
	<node id="-470707" lat="60.2343972218" lon="5.48707778379">
		<tag k="name" v="Langedalen" />
		<tag k="natural" v="valley" />
		<tag k="place" v="locality" />
		<tag k="ssr:stedsnr" v="159285" />
	</node>
	<node id="-470706" lat="60.3082000039" lon="5.57447499263">
		<tag k="name" v="Eikehola" />
		<tag k="place" v="locality" />
		<tag k="ssr:stedsnr" v="159271" />
	</node>
	<node id="-470704" lat="60.1967638897" lon="5.3637416691">
		<tag k="name" v="Fjærhovda" />
		<tag k="natural" v="hill" />
		<tag k="place" v="locality" />
		<tag k="ssr:stedsnr" v="159300" />
	</node>
	<node id="-470703" lat="60.2624611153" lon="5.45792222961">
		<tag k="fixme" v="consider natural=peak for the most distinct mountains in the district" />
		<tag k="name" v="Varden" />
		<tag k="natural" v="hill" />
		<tag k="ssr:stedsnr" v="159008" />
	</node>
	<node id="-470702" lat="60.2947416695" lon="5.54250555322">
		<tag k="name" v="Kampen" />
		<tag k="natural" v="hill" />
		<tag k="place" v="locality" />
		<tag k="ssr:stedsnr" v="158351" />
	</node>
	<node id="-470701" lat="60.2867361095" lon="5.5667277758">
		<tag k="name" v="Leina" />
		<tag k="natural" v="hill" />
		<tag k="place" v="locality" />
		<tag k="ssr:stedsnr" v="158305" />
	</node>
	<node id="-470700" lat="60.3034111083" lon="5.56130833923">
		<tag k="name" v="Knutshaugen" />
		<tag k="natural" v="hill" />
		<tag k="place" v="locality" />
		<tag k="ssr:stedsnr" v="158302" />
	</node>
	<node id="-470691" lat="60.2179250004" lon="5.5378111086">
		<tag k="fixme" v="consider natural=peak for the most distinct mountains in the district" />
		<tag k="name" v="Lauvåsen" />
		<tag k="natural" v="hill" />
		<tag k="place" v="locality" />
		<tag k="ssr:stedsnr" v="127647" />
	</node>
	<node id="-470688" lat="60.2249083371" lon="5.42003055853">
		<tag k="fixme" v="consider natural=peak for the most distinct mountains in the district" />
		<tag k="name" v="Lauvåsen" />
		<tag k="natural" v="hill" />
		<tag k="place" v="locality" />
		<tag k="ssr:stedsnr" v="126858" />
	</node>
	<node id="-470684" lat="60.2266888906" lon="5.49955554759">
		<tag k="fixme" v="consider natural=peak for the most distinct mountains in the district" />
		<tag k="name" v="Søra Såta" />
		<tag k="natural" v="hill" />
		<tag k="place" v="locality" />
		<tag k="ssr:stedsnr" v="126040" />
	</node>
	<node id="-470681" lat="60.2140777809" lon="5.52546667209">
		<tag k="fixme" v="consider natural=peak for the most distinct mountains in the district" />
		<tag k="name" v="Eidsåsen" />
		<tag k="natural" v="hill" />
		<tag k="place" v="locality" />
		<tag k="ssr:stedsnr" v="126024" />
	</node>
	<node id="-470680" lat="60.2110166637" lon="5.39831944032">
		<tag k="fixme" v="consider natural=peak for the most distinct mountains in the district" />
		<tag k="name" v="Storåsen" />
		<tag k="natural" v="hill" />
		<tag k="place" v="locality" />
		<tag k="ssr:stedsnr" v="125789" />
	</node>
	<node id="-470672" lat="60.2322444455" lon="5.50718611067">
		<tag k="name" v="Gavlen" />
		<tag k="natural" v="valley" />
		<tag k="place" v="locality" />
		<tag k="ssr:stedsnr" v="125063" />
	</node>
	<node id="-470671" lat="60.2296611085" lon="5.50120833969">
		<tag k="alt_name" v="Tøsdalsfjellet" />
		<tag k="fixme" v="consider natural=peak for the most distinct mountains in the district" />
		<tag k="name" v="Tyssdalsfjellet" />
		<tag k="natural" v="hill" />
		<tag k="place" v="locality" />
		<tag k="ssr:stedsnr" v="125061" />
	</node>
	<node id="-470666" lat="60.1668222217" lon="5.33088056112">
		<tag k="name" v="Håbergshaugen" />
		<tag k="natural" v="hill" />
		<tag k="place" v="locality" />
		<tag k="ssr:stedsnr" v="98496" />
	</node>
	<node id="-470665" lat="60.1606416636" lon="5.34839722185">
		<tag k="fixme" v="consider natural=peak for the most distinct mountains in the district" />
		<tag k="name" v="Kvitaråsen" />
		<tag k="natural" v="hill" />
		<tag k="place" v="locality" />
		<tag k="ssr:stedsnr" v="98489" />
	</node>
	<node id="-470662" lat="60.2010833311" lon="5.35029722227">
		<tag k="fixme" v="consider natural=peak for the most distinct mountains in the district" />
		<tag k="name" v="Vetla Stokkfjellet" />
		<tag k="natural" v="hill" />
		<tag k="place" v="locality" />
		<tag k="ssr:stedsnr" v="98443" />
	</node>
	<node id="-470660" lat="60.2000638932" lon="5.35398610676">
		<tag k="name" v="Furehaugen" />
		<tag k="natural" v="hill" />
		<tag k="place" v="locality" />
		<tag k="ssr:stedsnr" v="98440" />
	</node>
	<node id="-470658" lat="60.176844443" lon="5.46456667398">
		<tag k="name" v="Lakshammaren" />
		<tag k="natural" v="hill" />
		<tag k="place" v="locality" />
		<tag k="ssr:stedsnr" v="98409" />
	</node>
	<node id="-470655" lat="60.1837527744" lon="5.38561111611">
		<tag k="fixme" v="consider natural=peak for the most distinct mountains in the district" />
		<tag k="name" v="Vetlafjellet" />
		<tag k="natural" v="hill" />
		<tag k="place" v="locality" />
		<tag k="ssr:stedsnr" v="98387" />
	</node>
	<node id="-470654" lat="60.2359944434" lon="5.38966667011">
		<tag k="name" v="Gaddhaugane" />
		<tag k="natural" v="hill" />
		<tag k="place" v="locality" />
		<tag k="ssr:stedsnr" v="98364" />
	</node>
	<node id="-470650" lat="60.2163722219" lon="5.47811667463">
		<tag k="name" v="Brekkena" />
		<tag k="natural" v="slope" />
		<tag k="place" v="locality" />
		<tag k="ssr:stedsnr" v="98355" />
	</node>
	<node id="-470648" lat="60.2316222229" lon="5.55192778041">
		<tag k="name" v="Huldahaugane" />
		<tag k="natural" v="hill" />
		<tag k="place" v="locality" />
		<tag k="ssr:stedsnr" v="98246" />
	</node>
	<node id="-470645" lat="60.1961777772" lon="5.4973999941">
		<tag k="name" v="Kyrkjedalen" />
		<tag k="natural" v="valley" />
		<tag k="place" v="locality" />
		<tag k="ssr:stedsnr" v="98226" />
	</node>
	<node id="-470643" lat="60.1947277807" lon="5.47952222198">
		<tag k="name" v="Høgehaugen" />
		<tag k="natural" v="hill" />
		<tag k="place" v="locality" />
		<tag k="ssr:stedsnr" v="98224" />
	</node>
	<node id="-470641" lat="60.2483361084" lon="5.44860833611">
		<tag k="name" v="Storaleitet" />
		<tag k="natural" v="slope" />
		<tag k="place" v="locality" />
		<tag k="ssr:stedsnr" v="98219" />
	</node>
	<node id="-470639" lat="60.3178222226" lon="5.56178888166">
		<tag k="name" v="Lyningshaugane" />
		<tag k="natural" v="hill" />
		<tag k="place" v="locality" />
		<tag k="ssr:stedsnr" v="98216" />
	</node>
	<node id="-470636" lat="60.2156916628" lon="5.36027500418">
		<tag k="name" v="Lysøygrotta" />
		<tag k="natural" v="valley" />
		<tag k="place" v="locality" />
		<tag k="ssr:stedsnr" v="98323" />
	</node>
	<node id="-470635" lat="60.2158750039" lon="5.40165277824">
		<tag k="name" v="Florshaugane" />
		<tag k="natural" v="hill" />
		<tag k="place" v="locality" />
		<tag k="ssr:stedsnr" v="98311" />
	</node>
	<node id="-470630" lat="60.2229194432" lon="5.44882500475">
		<tag k="fixme" v="consider natural=peak for the most distinct mountains in the district" />
		<tag k="name" v="Galtåsen" />
		<tag k="natural" v="hill" />
		<tag k="place" v="locality" />
		<tag k="ssr:stedsnr" v="98296" />
	</node>
	<node id="-470629" lat="60.2810694468" lon="5.50391111779">
		<tag k="name" v="Tjørnhaugen" />
		<tag k="natural" v="hill" />
		<tag k="place" v="locality" />
		<tag k="ssr:stedsnr" v="98295" />
	</node>
	<node id="-470627" lat="60.2352722228" lon="5.398524992">
		<tag k="name" v="Eikedalen" />
		<tag k="natural" v="valley" />
		<tag k="place" v="locality" />
		<tag k="ssr:stedsnr" v="98285" />
	</node>
	<node id="-470625" lat="60.2026055579" lon="5.37279444803">
		<tag k="fixme" v="consider natural=peak for the most distinct mountains in the district" />
		<tag k="name" v="Skjelåsen" />
		<tag k="natural" v="hill" />
		<tag k="place" v="locality" />
		<tag k="ssr:stedsnr" v="98256" />
	</node>
	<node id="-470622" lat="60.2279416649" lon="5.39461944784">
		<tag k="name" v="Hola" />
		<tag k="place" v="locality" />
		<tag k="ssr:stedsnr" v="98009" />
	</node>
	<node id="-470615" lat="60.2261833312" lon="5.41672777192">
		<tag k="name" v="Langedalen" />
		<tag k="natural" v="valley" />
		<tag k="place" v="locality" />
		<tag k="ssr:stedsnr" v="66854" />
	</node>
	<node id="-470614" lat="60.290208329" lon="5.54098888681">
		<tag k="name" v="Bjørkestølsbotnen" />
		<tag k="natural" v="valley" />
		<tag k="place" v="locality" />
		<tag k="ssr:stedsnr" v="66280" />
	</node>
	<node id="-470613" lat="60.3226666665" lon="5.56694166181">
		<tag k="name" v="Fjellbotnen" />
		<tag k="natural" v="valley" />
		<tag k="place" v="locality" />
		<tag k="ssr:stedsnr" v="66230" />
	</node>
	<node id="-470612" lat="60.2427611126" lon="5.43183888104">
		<tag k="name" v="Rennedalen" />
		<tag k="natural" v="valley" />
		<tag k="place" v="locality" />
		<tag k="ssr:stedsnr" v="65832" />
	</node>
	<node id="-470611" lat="60.240722226" lon="5.40655276909">
		<tag k="fixme" v="consider natural=peak for the most distinct mountains in the district" />
		<tag k="name" v="Lyshornet" />
		<tag k="natural" v="hill" />
		<tag k="place" v="locality" />
		<tag k="ssr:stedsnr" v="65818" />
	</node>
	<node id="-470607" lat="60.1979666683" lon="5.40787499752">
		<tag k="fixme" v="consider natural=peak for the most distinct mountains in the district" />
		<tag k="name" v="Ulvenfjellet" />
		<tag k="natural" v="hill" />
		<tag k="place" v="locality" />
		<tag k="ssr:stedsnr" v="65773" />
	</node>
	<node id="-470602" lat="60.2222305511" lon="5.5451416603">
		<tag k="fixme" v="consider natural=peak for the most distinct mountains in the district" />
		<tag k="name" v="Tverråsen" />
		<tag k="natural" v="hill" />
		<tag k="place" v="locality" />
		<tag k="ssr:stedsnr" v="65034" />
	</node>
	<node id="-470601" lat="60.2041944422" lon="5.50681111596">
		<tag k="name" v="Furehaugen" />
		<tag k="natural" v="hill" />
		<tag k="place" v="locality" />
		<tag k="ssr:stedsnr" v="65010" />
	</node>
	<node id="-470599" lat="60.2261083317" lon="5.51623611616">
		<tag k="fixme" v="consider natural=peak for the most distinct mountains in the district" />
		<tag k="name" v="Kjerringafjellet" />
		<tag k="natural" v="hill" />
		<tag k="place" v="locality" />
		<tag k="ssr:stedsnr" v="38504" />
	</node>
	<node id="-470598" lat="60.1647305524" lon="5.34919166156">
		<tag k="name" v="Gjelet" />
		<tag k="natural" v="valley" />
		<tag k="place" v="locality" />
		<tag k="ssr:stedsnr" v="38488" />
	</node>
	<node id="-470593" lat="60.2693361104" lon="5.57511666352">
		<tag k="name" v="Haldorshaugen" />
		<tag k="natural" v="hill" />
		<tag k="place" v="locality" />
		<tag k="ssr:stedsnr" v="38324" />
	</node>
	<node id="-470592" lat="60.2752861093" lon="5.54138054696">
		<tag k="name" v="Risaryggen" />
		<tag k="natural" v="ridge" />
		<tag k="place" v="locality" />
		<tag k="ssr:stedsnr" v="38320" />
	</node>
	<node id="-470590" lat="60.2016166708" lon="5.41491666058">
		<tag k="name" v="Ulvenkleivane" />
		<tag k="natural" v="slope" />
		<tag k="place" v="locality" />
		<tag k="ssr:stedsnr" v="38307" />
	</node>
	<node id="-470588" lat="60.1921222256" lon="5.40870555998">
		<tag k="name" v="Askebotn" />
		<tag k="natural" v="valley" />
		<tag k="place" v="locality" />
		<tag k="ssr:stedsnr" v="37445" />
	</node>
	<node id="-470586" lat="60.1875638869" lon="5.46292223053">
		<tag k="name" v="Likbrekko" />
		<tag k="natural" v="slope" />
		<tag k="place" v="locality" />
		<tag k="ssr:stedsnr" v="37405" />
	</node>
	<node id="-470585" lat="60.1885750029" lon="5.38143056281">
		<tag k="name" v="Tømmerheiane" />
		<tag k="natural" v="hill" />
		<tag k="place" v="locality" />
		<tag k="ssr:stedsnr" v="37396" />
	</node>
	<node id="-470583" lat="60.2372638868" lon="5.41281665912">
		<tag k="name" v="Jordkuledalen" />
		<tag k="natural" v="valley" />
		<tag k="place" v="locality" />
		<tag k="ssr:stedsnr" v="37384" />
	</node>
	<node id="-470582" lat="60.2255444446" lon="5.40629722446">
		<tag k="name" v="Stabburshaugane" />
		<tag k="natural" v="hill" />
		<tag k="place" v="locality" />
		<tag k="ssr:stedsnr" v="37377" />
	</node>
	<node id="-470581" lat="60.1736972242" lon="5.44131666208">
		<tag k="name" v="Liadalen" />
		<tag k="natural" v="valley" />
		<tag k="place" v="locality" />
		<tag k="ssr:stedsnr" v="37376" />
	</node>
	<node id="-470579" lat="60.2457583299" lon="5.56728333178">
		<tag k="name" v="Aldalen" />
		<tag k="natural" v="valley" />
		<tag k="place" v="locality" />
		<tag k="ssr:stedsnr" v="37362" />
	</node>
	<node id="-470574" lat="60.181500004" lon="5.4408416662">
		<tag k="name" v="Havrheia" />
		<tag k="place" v="locality" />
		<tag k="ssr:stedsnr" v="37348" />
	</node>
	<node id="-470571" lat="60.1732250008" lon="5.41172499916">
		<tag k="name" v="Heia" />
		<tag k="natural" v="hill" />
		<tag k="place" v="locality" />
		<tag k="ssr:stedsnr" v="37342" />
	</node>
	<node id="-470567" lat="60.2794361103" lon="5.52130833331">
		<tag k="name" v="Kvituggen" />
		<tag k="place" v="locality" />
		<tag k="ssr:stedsnr" v="37326" />
	</node>
	<node id="-470565" lat="60.2265666684" lon="5.47194721769">
		<tag k="name" v="Almedalen" />
		<tag k="natural" v="valley" />
		<tag k="place" v="locality" />
		<tag k="ssr:stedsnr" v="37316" />
	</node>
	<node id="-470564" lat="60.2720888931" lon="5.51604444338">
		<tag k="name" v="Barlindlia" />
		<tag k="natural" v="slope" />
		<tag k="place" v="locality" />
		<tag k="ssr:stedsnr" v="37317" />
	</node>
	<node id="-470563" lat="60.2679472264" lon="5.51745556328">
		<tag k="name" v="Ytste Lamhusdalen" />
		<tag k="natural" v="valley" />
		<tag k="place" v="locality" />
		<tag k="ssr:stedsnr" v="37311" />
	</node>
	<node id="-470562" lat="60.2388583378" lon="5.45409166861">
		<tag k="name" v="Eikhaugen" />
		<tag k="natural" v="hill" />
		<tag k="place" v="locality" />
		<tag k="ssr:stedsnr" v="37310" />
	</node>
	<node id="-470561" lat="60.217341663" lon="5.48655833055">
		<tag k="name" v="Snøkkene" />
		<tag k="natural" v="hill" />
		<tag k="place" v="locality" />
		<tag k="ssr:stedsnr" v="37302" />
	</node>
	<node id="-470560" lat="60.263730556" lon="5.46281389065">
		<tag k="name" v="Vesterkulten" />
		<tag k="natural" v="hill" />
		<tag k="place" v="locality" />
		<tag k="ssr:stedsnr" v="37297" />
	</node>
	<node id="-470559" lat="60.2002999962" lon="5.4370361107">
		<tag k="name" v="Skarphaugen" />
		<tag k="natural" v="hill" />
		<tag k="place" v="locality" />
		<tag k="ssr:stedsnr" v="37293" />
	</node>
	<node id="-470557" lat="60.2207416702" lon="5.54888054779">
		<tag k="name" v="Skavhella" />
		<tag k="place" v="locality" />
		<tag k="ssr:stedsnr" v="37270" />
	</node>
	<node id="-470542" lat="60.2973083305" lon="5.53261666194">
		<tag k="fixme" v="consider natural=peak for the most distinct mountains in the district" />
		<tag k="name" v="Rindafjellet" />
		<tag k="natural" v="hill" />
		<tag k="place" v="locality" />
		<tag k="ssr:stedsnr" v="5277" />
	</node>
	<node id="-470540" lat="60.2394250038" lon="5.50193611632">
		<tag k="name" v="Stokkedalen" />
		<tag k="natural" v="valley" />
		<tag k="place" v="locality" />
		<tag k="ssr:stedsnr" v="5204" />
	</node>
	<node id="-470539" lat="60.2520750018" lon="5.54628611156">
		<tag k="name" v="Rødsfjellet" />
		<tag k="natural" v="hill" />
		<tag k="place" v="locality" />
		<tag k="ssr:stedsnr" v="5205" />
	</node>
	<node id="-470530" lat="60.1779361135" lon="5.43330554662">
		<tag k="fixme" v="consider natural=peak for the most distinct mountains in the district" />
		<tag k="name" v="Liafjellet" />
		<tag k="natural" v="hill" />
		<tag k="place" v="locality" />
		<tag k="ssr:stedsnr" v="4808" />
	</node>
	<node id="-470520" lat="60.2329027765" lon="5.48649445298">
		<tag k="name" v="Kolhushaugane" />
		<tag k="natural" v="hill" />
		<tag k="place" v="locality" />
		<tag k="ssr:stedsnr" v="4056" />
	</node>
	<node id="-470502" lat="60.2359027774" lon="5.51883889609">
		<tag k="name" v="Gjelhaugen" />
		<tag k="natural" v="hill" />
		<tag k="place" v="locality" />
		<tag k="ssr:stedsnr" v="887502" />
	</node>
	<node id="-470500" lat="60.1689500004" lon="5.34791111847">
		<tag k="fixme" v="consider natural=peak for the most distinct mountains in the district" />
		<tag k="name" v="Lauvåsen" />
		<tag k="natural" v="hill" />
		<tag k="place" v="locality" />
		<tag k="ssr:stedsnr" v="887456" />
	</node>
	<node id="-470498" lat="60.2020694417" lon="5.34588333454">
		<tag k="name" v="Korshaugen" />
		<tag k="natural" v="hill" />
		<tag k="place" v="locality" />
		<tag k="ssr:stedsnr" v="887431" />
	</node>
	<node id="-470497" lat="60.1927777812" lon="5.42378055865">
		<tag k="name" v="Vaksinen" />
		<tag k="place" v="locality" />
		<tag k="ssr:stedsnr" v="887417" />
	</node>
	<node id="-470492" lat="60.2332666703" lon="5.38320277883">
		<tag k="name" v="Geithaugen" />
		<tag k="natural" v="hill" />
		<tag k="place" v="locality" />
		<tag k="ssr:stedsnr" v="887374" />
	</node>
	<node id="-470491" lat="60.2048583313" lon="5.51414999194">
		<tag k="name" v="Lægda" />
		<tag k="place" v="locality" />
		<tag k="ssr:stedsnr" v="887375" />
	</node>
	<node id="-470487" lat="60.2369083327" lon="5.54293333834">
		<tag k="name" v="Hundhaugen" />
		<tag k="natural" v="hill" />
		<tag k="place" v="locality" />
		<tag k="ssr:stedsnr" v="887339" />
	</node>
	<node id="-470484" lat="60.2643277733" lon="5.48180554809">
		<tag k="name" v="Hakadalen" />
		<tag k="natural" v="valley" />
		<tag k="place" v="locality" />
		<tag k="ssr:stedsnr" v="887315" />
	</node>
	<node id="-470482" lat="60.1978777806" lon="5.4223833366">
		<tag k="name" v="Ulvensletta" />
		<tag k="place" v="locality" />
		<tag k="ssr:stedsnr" v="887308" />
	</node>
	<node id="-470481" lat="60.2816166705" lon="5.57764999501">
		<tag k="name" v="Setrabotn" />
		<tag k="natural" v="valley" />
		<tag k="place" v="locality" />
		<tag k="ssr:stedsnr" v="887299" />
	</node>
	<node id="-470479" lat="60.2040444401" lon="5.40524166174">
		<tag k="fixme" v="consider natural=peak for the most distinct mountains in the district" />
		<tag k="name" v="Søvikåsen" />
		<tag k="natural" v="hill" />
		<tag k="place" v="locality" />
		<tag k="ssr:stedsnr" v="887292" />
	</node>
	<node id="-470478" lat="60.2694027809" lon="5.53660555681">
		<tag k="name" v="Tevlemyrhaugane" />
		<tag k="natural" v="hill" />
		<tag k="place" v="locality" />
		<tag k="ssr:stedsnr" v="887288" />
	</node>
	<node id="-470477" lat="60.2691222244" lon="5.55623056026">
		<tag k="name" v="Vassleitet" />
		<tag k="place" v="locality" />
		<tag k="ssr:stedsnr" v="887286" />
	</node>
	<node id="-470476" lat="60.2012777813" lon="5.39931111142">
		<tag k="name" v="Gaddhaugen" />
		<tag k="natural" v="hill" />
		<tag k="place" v="locality" />
		<tag k="ssr:stedsnr" v="887279" />
	</node>
	<node id="-470475" lat="60.2493666688" lon="5.50536389589">
		<tag k="name" v="Gongedalen" />
		<tag k="natural" v="valley" />
		<tag k="place" v="locality" />
		<tag k="ssr:stedsnr" v="887274" />
	</node>
	<node id="-470471" lat="60.2643222249" lon="5.5105527796">
		<tag k="name" v="Eikeskaret" />
		<tag k="natural" v="hill" />
		<tag k="place" v="locality" />
		<tag k="ssr:stedsnr" v="887260" />
	</node>
	<node id="-470470" lat="60.2672222249" lon="5.47042777971">
		<tag k="name" v="Seterlia" />
		<tag k="natural" v="slope" />
		<tag k="place" v="locality" />
		<tag k="ssr:stedsnr" v="887258" />
	</node>
	<node id="-470469" lat="60.1963694433" lon="5.51731943596">
		<tag k="fixme" v="consider natural=peak for the most distinct mountains in the district" />
		<tag k="name" v="Moldaåsen" />
		<tag k="natural" v="hill" />
		<tag k="place" v="locality" />
		<tag k="ssr:stedsnr" v="887259" />
	</node>
	<node id="-470467" lat="60.2506388893" lon="5.45508610923">
		<tag k="name" v="Vedadalshaugen" />
		<tag k="natural" v="hill" />
		<tag k="place" v="locality" />
		<tag k="ssr:stedsnr" v="887243" />
	</node>
	<node id="-470466" lat="60.2561250019" lon="5.45749721857">
		<tag k="name" v="Rundehaugen" />
		<tag k="natural" v="hill" />
		<tag k="place" v="locality" />
		<tag k="ssr:stedsnr" v="887238" />
	</node>
	<node id="-470465" lat="60.2571833339" lon="5.44974722815">
		<tag k="fixme" v="consider natural=peak for the most distinct mountains in the district" />
		<tag k="name" v="Tømmernesåsen" />
		<tag k="natural" v="hill" />
		<tag k="place" v="locality" />
		<tag k="ssr:stedsnr" v="887235" />
	</node>
	<node id="-470464" lat="60.2407083341" lon="5.40939444468">
		<tag k="name" v="Lyshornskaret" />
		<tag k="natural" v="hill" />
		<tag k="place" v="locality" />
		<tag k="ssr:stedsnr" v="887233" />
	</node>
	<node id="-470463" lat="60.240819447" lon="5.39131944847">
		<tag k="name" v="Stemmehaugane" />
		<tag k="natural" v="hill" />
		<tag k="place" v="locality" />
		<tag k="ssr:stedsnr" v="887231" />
	</node>
	<node id="-470459" lat="60.2118944443" lon="5.49303888154">
		<tag k="name" v="Brunane" />
		<tag k="natural" v="hill" />
		<tag k="place" v="locality" />
		<tag k="ssr:stedsnr" v="402512" />
	</node>
	<node id="-470458" lat="60.1448222207" lon="5.4336999912">
		<tag k="name" v="Auredalen" />
		<tag k="natural" v="valley" />
		<tag k="place" v="locality" />
		<tag k="ssr:stedsnr" v="402501" />
	</node>
	<node id="-470453" lat="60.2707499978" lon="5.55677499485">
		<tag k="name" v="Tuldrenakken" />
		<tag k="natural" v="hill" />
		<tag k="place" v="locality" />
		<tag k="ssr:stedsnr" v="402325" />
	</node>
	<node id="-470452" lat="60.2721194447" lon="5.55958611048">
		<tag k="name" v="Trollbærshaugen" />
		<tag k="natural" v="hill" />
		<tag k="place" v="locality" />
		<tag k="ssr:stedsnr" v="402322" />
	</node>
	<node id="-470451" lat="60.2746999964" lon="5.57896110258">
		<tag k="name" v="Djupedalen" />
		<tag k="natural" v="valley" />
		<tag k="place" v="locality" />
		<tag k="ssr:stedsnr" v="402315" />
	</node>
	<node id="-470450" lat="60.2535750013" lon="5.49520556242">
		<tag k="name" v="Fossalia" />
		<tag k="natural" v="slope" />
		<tag k="place" v="locality" />
		<tag k="ssr:stedsnr" v="402292" />
	</node>
	<node id="-470449" lat="60.3163722229" lon="5.55450833446">
		<tag k="name" v="Søyestallane" />
		<tag k="place" v="locality" />
		<tag k="ssr:stedsnr" v="402280" />
	</node>
	<node id="-470448" lat="60.3118194401" lon="5.5706416697">
		<tag k="name" v="Dyrhaugane" />
		<tag k="natural" v="hill" />
		<tag k="place" v="locality" />
		<tag k="ssr:stedsnr" v="402273" />
	</node>
	<node id="-470447" lat="60.2404111113" lon="5.50593056345">
		<tag k="name" v="Tømmerskaret" />
		<tag k="natural" v="valley" />
		<tag k="place" v="locality" />
		<tag k="ssr:stedsnr" v="402267" />
	</node>
	<node id="-470444" lat="60.2198138897" lon="5.49626111599">
		<tag k="name" v="Gryteskaret" />
		<tag k="natural" v="hill" />
		<tag k="place" v="locality" />
		<tag k="ssr:stedsnr" v="402022" />
	</node>
	<node id="-470441" lat="60.1803361072" lon="5.45843332619">
		<tag k="name" v="Mongslehaugen" />
		<tag k="natural" v="hill" />
		<tag k="place" v="locality" />
		<tag k="ssr:stedsnr" v="401404" />
	</node>
	<node id="-470437" lat="60.2009666626" lon="5.50111110556">
		<tag k="fixme" v="consider natural=peak for the most distinct mountains in the district" />
		<tag k="name" v="Høgåsen" />
		<tag k="natural" v="hill" />
		<tag k="place" v="locality" />
		<tag k="ssr:stedsnr" v="401352" />
	</node>
	<node id="-470436" lat="60.1599027818" lon="5.45354999483">
		<tag k="name" v="Katlaberget" />
		<tag k="natural" v="hill" />
		<tag k="old_name" v="Kattaberget" />
		<tag k="place" v="locality" />
		<tag k="ssr:stedsnr" v="401346" />
	</node>
	<node id="-470433" lat="60.2399583364" lon="5.55536389226">
		<tag k="name" v="Galthovda" />
		<tag k="natural" v="hill" />
		<tag k="place" v="locality" />
		<tag k="ssr:stedsnr" v="401332" />
	</node>
	<node id="-470432" lat="60.2722277778" lon="5.50766389381">
		<tag k="name" v="Ytsta Bøskaret" />
		<tag k="natural" v="valley" />
		<tag k="place" v="locality" />
		<tag k="ssr:stedsnr" v="401308" />
	</node>
	<node id="-470428" lat="60.2189694424" lon="5.39957223007">
		<tag k="name" v="Stokkadalen" />
		<tag k="natural" v="valley" />
		<tag k="place" v="locality" />
		<tag k="ssr:stedsnr" v="401287" />
	</node>
	<node id="-470426" lat="60.2006194412" lon="5.37051111843">
		<tag k="fixme" v="consider natural=peak for the most distinct mountains in the district" />
		<tag k="name" v="Høge Skjelåsen" />
		<tag k="natural" v="hill" />
		<tag k="place" v="locality" />
		<tag k="ssr:stedsnr" v="401264" />
	</node>
	<node id="-470414" lat="60.2612000019" lon="5.5024472199">
		<tag k="name" v="Bjørndalen" />
		<tag k="natural" v="valley" />
		<tag k="place" v="locality" />
		<tag k="ssr:stedsnr" v="370633" />
	</node>
	<node id="-470411" lat="60.2688111136" lon="5.47195000297">
		<tag k="name" v="Ørnhaugen" />
		<tag k="natural" v="hill" />
		<tag k="place" v="locality" />
		<tag k="ssr:stedsnr" v="369294" />
	</node>
	<node id="-470409" lat="60.2820472253" lon="5.55826388606">
		<tag k="name" v="Gråliane" />
		<tag k="natural" v="slope" />
		<tag k="place" v="locality" />
		<tag k="ssr:stedsnr" v="369239" />
	</node>
	<node id="-470407" lat="60.1555333289" lon="5.34814166395">
		<tag k="name" v="Kolbakknova" />
		<tag k="natural" v="hill" />
		<tag k="place" v="locality" />
		<tag k="ssr:stedsnr" v="368963" />
	</node>
	<node id="-470400" lat="60.2436472205" lon="5.42438333603">
		<tag k="fixme" v="consider natural=peak for the most distinct mountains in the district" />
		<tag k="name" v="Blåheiane" />
		<tag k="natural" v="hill" />
		<tag k="place" v="locality" />
		<tag k="ssr:stedsnr" v="368854" />
	</node>
	<node id="-470395" lat="60.1680638893" lon="5.35760834065">
		<tag k="fixme" v="consider natural=peak for the most distinct mountains in the district" />
		<tag k="name" v="Hjortåsen" />
		<tag k="natural" v="hill" />
		<tag k="place" v="locality" />
		<tag k="ssr:stedsnr" v="368820" />
	</node>
	<node id="-470391" lat="60.205819443" lon="5.39058332554">
		<tag k="fixme" v="consider natural=peak for the most distinct mountains in the district" />
		<tag k="name" v="Søvikfjellet" />
		<tag k="natural" v="hill" />
		<tag k="place" v="locality" />
		<tag k="ssr:stedsnr" v="368793" />
	</node>
	<node id="-470390" lat="60.1984861134" lon="5.49378889303">
		<tag k="name" v="Bøkampen" />
		<tag k="natural" v="hill" />
		<tag k="place" v="locality" />
		<tag k="ssr:stedsnr" v="368140" />
	</node>
	<node id="-470388" lat="60.22610278" lon="5.55216666281">
		<tag k="fixme" v="consider natural=peak for the most distinct mountains in the district" />
		<tag k="name" v="Høgåsen" />
		<tag k="natural" v="hill" />
		<tag k="place" v="locality" />
		<tag k="ssr:stedsnr" v="368019" />
	</node>
	<node id="-470383" lat="60.2211527807" lon="5.51135277988">
		<tag k="name" v="Ytsta Geitaberget" />
		<tag k="natural" v="hill" />
		<tag k="place" v="locality" />
		<tag k="ssr:stedsnr" v="341542" />
	</node>
	<node id="-470379" lat="60.1718249978" lon="5.3569305648">
		<tag k="fixme" v="consider natural=peak for the most distinct mountains in the district" />
		<tag k="name" v="Såta" />
		<tag k="natural" v="hill" />
		<tag k="ssr:stedsnr" v="341504" />
	</node>
	<node id="-470375" lat="60.1741694453" lon="5.31720555119">
		<tag k="fixme" v="consider natural=peak for the most distinct mountains in the district" />
		<tag k="name" v="Storeklanten" />
		<tag k="natural" v="hill" />
		<tag k="ssr:stedsnr" v="341489" />
	</node>
	<node id="-470374" lat="60.1704027782" lon="5.31134443979">
		<tag k="name" v="Storhelleren" />
		<tag k="place" v="locality" />
		<tag k="ssr:stedsnr" v="341487" />
	</node>
	<node id="-470373" lat="60.1682444417" lon="5.33178611577">
		<tag k="name" v="Strønesjøen" />
		<tag k="place" v="locality" />
		<tag k="ssr:stedsnr" v="341481" />
	</node>
	<node id="-470371" lat="60.1473305535" lon="5.44589166589">
		<tag k="fixme" v="consider natural=peak for the most distinct mountains in the district" />
		<tag k="name" v="Stordalsåsen" />
		<tag k="natural" v="hill" />
		<tag k="place" v="locality" />
		<tag k="ssr:stedsnr" v="341465" />
	</node>
	<node id="-470368" lat="60.1775805516" lon="5.36727778377">
		<tag k="name" v="Sanddalen" />
		<tag k="natural" v="valley" />
		<tag k="place" v="locality" />
		<tag k="ssr:stedsnr" v="341426" />
	</node>
	<node id="-470365" lat="60.2372638891" lon="5.40375554845">
		<tag k="fixme" v="consider natural=peak for the most distinct mountains in the district" />
		<tag k="name" v="Furekampen" />
		<tag k="natural" v="hill" />
		<tag k="ssr:stedsnr" v="341405" />
	</node>
	<node id="-470364" lat="60.1724611096" lon="5.44777223119">
		<tag k="name" v="Kyrkjelia" />
		<tag k="natural" v="slope" />
		<tag k="place" v="locality" />
		<tag k="ssr:stedsnr" v="341397" />
	</node>
	<node id="-470363" lat="60.1679277784" lon="5.43438055561">
		<tag k="name" v="Tuendalen" />
		<tag k="natural" v="valley" />
		<tag k="place" v="locality" />
		<tag k="ssr:stedsnr" v="341395" />
	</node>
	<node id="-470362" lat="60.1807249998" lon="5.42242778023">
		<tag k="name" v="Trolldalen" />
		<tag k="natural" v="valley" />
		<tag k="place" v="locality" />
		<tag k="ssr:stedsnr" v="341372" />
	</node>
	<node id="-470361" lat="60.1956499985" lon="5.46659999127">
		<tag k="name" v="Sveo" />
		<tag k="place" v="locality" />
		<tag k="ssr:stedsnr" v="341369" />
	</node>
	<node id="-470354" lat="60.2498777756" lon="5.49878333465">
		<tag k="name" v="Øvreeidshalsen" />
		<tag k="place" v="locality" />
		<tag k="ssr:stedsnr" v="341326" />
	</node>
	<node id="-470353" lat="60.2063888894" lon="5.39471666956">
		<tag k="name" v="Søvikliane" />
		<tag k="natural" v="slope" />
		<tag k="place" v="locality" />
		<tag k="ssr:stedsnr" v="341317" />
	</node>
	<node id="-470352" lat="60.2059333368" lon="5.3811472154">
		<tag k="name" v="Uradalen" />
		<tag k="natural" v="valley" />
		<tag k="place" v="locality" />
		<tag k="ssr:stedsnr" v="341318" />
	</node>
	<node id="-470351" lat="60.2704750007" lon="5.53607221359">
		<tag k="name" v="Storhaugen" />
		<tag k="natural" v="hill" />
		<tag k="place" v="locality" />
		<tag k="ssr:stedsnr" v="341316" />
	</node>
	<node id="-470350" lat="60.1974111111" lon="5.36814165853">
		<tag k="name" v="Kollen" />
		<tag k="natural" v="hill" />
		<tag k="place" v="locality" />
		<tag k="ssr:stedsnr" v="341307" />
	</node>
	<node id="-470348" lat="60.1965555526" lon="5.49095834087">
		<tag k="fixme" v="consider natural=peak for the most distinct mountains in the district" />
		<tag k="name" v="Bøkampen" />
		<tag k="natural" v="hill" />
		<tag k="ssr:stedsnr" v="341282" />
	</node>
	<node id="-470346" lat="60.2414361155" lon="5.42398333465">
		<tag k="name" v="Høgalia" />
		<tag k="natural" v="slope" />
		<tag k="place" v="locality" />
		<tag k="ssr:stedsnr" v="341277" />
	</node>
	<node id="-470341" lat="60.2349722252" lon="5.53742778446">
		<tag k="name" v="Svartaberget" />
		<tag k="natural" v="hill" />
		<tag k="place" v="locality" />
		<tag k="ssr:stedsnr" v="340347" />
	</node>
	<node id="-470339" lat="60.2739277803" lon="5.52421667369">
		<tag k="name" v="Steindalen" />
		<tag k="natural" v="valley" />
		<tag k="place" v="locality" />
		<tag k="ssr:stedsnr" v="340333" />
	</node>
	<node id="-470338" lat="60.2625138856" lon="5.48991388371">
		<tag k="name" v="Naustlia" />
		<tag k="natural" v="slope" />
		<tag k="place" v="locality" />
		<tag k="ssr:stedsnr" v="340328" />
	</node>
	<node id="-470337" lat="60.2705694454" lon="5.48021944416">
		<tag k="name" v="Raudlia" />
		<tag k="natural" v="slope" />
		<tag k="place" v="locality" />
		<tag k="ssr:stedsnr" v="340325" />
	</node>
	<node id="-470336" lat="60.2132527802" lon="5.52178611841">
		<tag k="name" v="Tverrdalen" />
		<tag k="natural" v="valley" />
		<tag k="place" v="locality" />
		<tag k="ssr:stedsnr" v="340316" />
	</node>
	<node id="-470335" lat="60.2967611082" lon="5.56919999183">
		<tag k="name" v="Bydalsskorane" />
		<tag k="natural" v="hill" />
		<tag k="place" v="locality" />
		<tag k="ssr:stedsnr" v="340295" />
	</node>
	<node id="-470320" lat="60.2307000023" lon="5.41956111848">
		<tag k="fixme" v="consider natural=peak for the most distinct mountains in the district" />
		<tag k="name" v="Raunåsen" />
		<tag k="natural" v="hill" />
		<tag k="place" v="locality" />
		<tag k="ssr:stedsnr" v="308851" />
	</node>
	<node id="-470315" lat="60.2454638897" lon="5.55471943763">
		<tag k="name" v="Kletta" />
		<tag k="natural" v="hill" />
		<tag k="place" v="locality" />
		<tag k="ssr:stedsnr" v="308177" />
	</node>
	<node id="-470309" lat="60.268372225" lon="5.50234999258">
		<tag k="fixme" v="consider natural=peak for the most distinct mountains in the district" />
		<tag k="name" v="Skantane" />
		<tag k="natural" v="hill" />
		<tag k="place" v="locality" />
		<tag k="ssr:stedsnr" v="308271" />
	</node>
	<node id="-470307" lat="60.2829361153" lon="5.56939166149">
		<tag k="fixme" v="consider natural=peak for the most distinct mountains in the district" />
		<tag k="name" v="Gråfjellet" />
		<tag k="natural" v="hill" />
		<tag k="place" v="locality" />
		<tag k="ssr:stedsnr" v="308267" />
	</node>
	<node id="-470304" lat="60.2863027771" lon="5.58913056229">
		<tag k="fixme" v="consider natural=peak for the most distinct mountains in the district" />
		<tag k="name" v="Strandafjellet" />
		<tag k="natural" v="hill" />
		<tag k="place" v="locality" />
		<tag k="ssr:stedsnr" v="308236" />
	</node>
	<node id="-470303" lat="60.2296055554" lon="5.48159443781">
		<tag k="name" v="Nordra Såta" />
		<tag k="natural" v="hill" />
		<tag k="place" v="locality" />
		<tag k="ssr:stedsnr" v="307063" />
	</node>
	<node id="-470289" lat="60.2363749999" lon="5.50285555049">
		<tag k="name" v="Søyena" />
		<tag k="place" v="locality" />
		<tag k="ssr:stedsnr" v="280536" />
	</node>
	<node id="-470288" lat="60.2343694413" lon="5.50186110902">
		<tag k="name" v="Lyhaugen" />
		<tag k="natural" v="hill" />
		<tag k="place" v="locality" />
		<tag k="ssr:stedsnr" v="280533" />
	</node>
	<node id="-470287" lat="60.2322166649" lon="5.52539165992">
		<tag k="name" v="Tveitaskaret" />
		<tag k="natural" v="valley" />
		<tag k="place" v="locality" />
		<tag k="ssr:stedsnr" v="280532" />
	</node>
	<node id="-470286" lat="60.2286805539" lon="5.52195277276">
		<tag k="fixme" v="consider natural=peak for the most distinct mountains in the district" />
		<tag k="name" v="Vetlafjellet" />
		<tag k="natural" v="hill" />
		<tag k="place" v="locality" />
		<tag k="ssr:stedsnr" v="280529" />
	</node>
	<node id="-470284" lat="60.1573833345" lon="5.33991110448">
		<tag k="name" v="Russadalen" />
		<tag k="natural" v="valley" />
		<tag k="place" v="locality" />
		<tag k="ssr:stedsnr" v="280507" />
	</node>
	<node id="-470272" lat="60.1856694459" lon="5.42977778285">
		<tag k="fixme" v="consider natural=peak for the most distinct mountains in the district" />
		<tag k="name" v="Skoltane" />
		<tag k="natural" v="hill" />
		<tag k="ssr:stedsnr" v="280380" />
	</node>
	<node id="-470271" lat="60.1847388869" lon="5.37676944371">
		<tag k="name" v="Svehaugen" />
		<tag k="natural" v="hill" />
		<tag k="place" v="locality" />
		<tag k="ssr:stedsnr" v="280374" />
	</node>
	<node id="-470268" lat="60.2007222255" lon="5.5123138968">
		<tag k="name" v="Søra Revskaret" />
		<tag k="natural" v="valley" />
		<tag k="place" v="locality" />
		<tag k="ssr:stedsnr" v="280359" />
	</node>
	<node id="-470266" lat="60.2046027805" lon="5.50543610956">
		<tag k="name" v="Glupselia" />
		<tag k="natural" v="slope" />
		<tag k="place" v="locality" />
		<tag k="ssr:stedsnr" v="280352" />
	</node>
	<node id="-470264" lat="60.1557583353" lon="5.36335554964">
		<tag k="fixme" v="consider natural=peak for the most distinct mountains in the district" />
		<tag k="name" v="Strønevarden" />
		<tag k="natural" v="hill" />
		<tag k="ssr:stedsnr" v="280322" />
	</node>
	<node id="-470263" lat="60.2290111141" lon="5.5556555553">
		<tag k="name" v="Kamulen" />
		<tag k="natural" v="hill" />
		<tag k="place" v="locality" />
		<tag k="ssr:stedsnr" v="280316" />
	</node>
	<node id="-470261" lat="60.2152333371" lon="5.39199721424">
		<tag k="fixme" v="consider natural=peak for the most distinct mountains in the district" />
		<tag k="name" v="Store Revsåsen" />
		<tag k="natural" v="hill" />
		<tag k="place" v="locality" />
		<tag k="ssr:stedsnr" v="280299" />
	</node>
	<node id="-470259" lat="60.2132222218" lon="5.40451945061">
		<tag k="name" v="Storhaugen" />
		<tag k="natural" v="hill" />
		<tag k="place" v="locality" />
		<tag k="ssr:stedsnr" v="280295" />
	</node>
	<node id="-470257" lat="60.274913891" lon="5.50838888333">
		<tag k="name" v="Rotveltelia" />
		<tag k="natural" v="slope" />
		<tag k="place" v="locality" />
		<tag k="ssr:stedsnr" v="280282" />
	</node>
	<node id="-470256" lat="60.2368249997" lon="5.45930833376">
		<tag k="name" v="Fitjane" />
		<tag k="place" v="locality" />
		<tag k="ssr:stedsnr" v="280279" />
	</node>
	<node id="-470255" lat="60.2116444456" lon="5.54172500806">
		<tag k="name" v="Kilen" />
		<tag k="place" v="locality" />
		<tag k="ssr:stedsnr" v="280268" />
	</node>
	<node id="-470253" lat="60.2134194482" lon="5.50715278272">
		<tag k="name" v="Banddalen" />
		<tag k="natural" v="valley" />
		<tag k="place" v="locality" />
		<tag k="ssr:stedsnr" v="280258" />
	</node>
	<node id="-470249" lat="60.2667694445" lon="5.56781944592">
		<tag k="fixme" v="consider natural=peak for the most distinct mountains in the district" />
		<tag k="name" v="Sandbrekkåsen" />
		<tag k="natural" v="hill" />
		<tag k="place" v="locality" />
		<tag k="ssr:stedsnr" v="280243" />
	</node>
	<node id="-470248" lat="60.2052694424" lon="5.37735555355">
		<tag k="name" v="Nesjakampen" />
		<tag k="natural" v="hill" />
		<tag k="place" v="locality" />
		<tag k="ssr:stedsnr" v="280232" />
	</node>
	<node id="-470247" lat="60.2743083318" lon="5.53147221606">
		<tag k="name" v="Bukkaberget" />
		<tag k="natural" v="hill" />
		<tag k="place" v="locality" />
		<tag k="ssr:stedsnr" v="280224" />
	</node>
	<node id="-470246" lat="60.2912166631" lon="5.56199722971">
		<tag k="name" v="Raudberget" />
		<tag k="natural" v="hill" />
		<tag k="place" v="locality" />
		<tag k="ssr:stedsnr" v="280220" />
	</node>
	<node id="-470244" lat="60.2276111133" lon="5.55553332516">
		<tag k="fixme" v="consider natural=peak for the most distinct mountains in the district" />
		<tag k="name" v="Asalåsen" />
		<tag k="natural" v="hill" />
		<tag k="place" v="locality" />
		<tag k="ssr:stedsnr" v="280214" />
	</node>
	<node id="-470241" lat="60.2422777773" lon="5.4175944391">
		<tag k="name" v="Jordkuledalen" />
		<tag k="natural" v="valley" />
		<tag k="place" v="locality" />
		<tag k="ssr:stedsnr" v="280195" />
	</node>
	<node id="-470240" lat="60.260438891" lon="5.49419722383">
		<tag k="name" v="Stordalen" />
		<tag k="natural" v="valley" />
		<tag k="place" v="locality" />
		<tag k="ssr:stedsnr" v="280188" />
	</node>
	<node id="-470239" lat="60.2458805549" lon="5.43343332973">
		<tag k="name" v="Brattlia" />
		<tag k="natural" v="slope" />
		<tag k="place" v="locality" />
		<tag k="ssr:stedsnr" v="280187" />
	</node>
	<node id="-470238" lat="60.2070277747" lon="5.38276667091">
		<tag k="name" v="Nesjaryggen" />
		<tag k="natural" v="ridge" />
		<tag k="place" v="locality" />
		<tag k="ssr:stedsnr" v="280025" />
	</node>
	<node id="-470236" lat="60.2231638903" lon="5.49862222713">
		<tag k="name" v="Mjelkebakkane" />
		<tag k="natural" v="slope" />
		<tag k="place" v="locality" />
		<tag k="ssr:stedsnr" v="280013" />
	</node>
	<node id="-471514" lat="60.2363250031" lon="5.48016945291">
		<tag k="name" v="Fredagsbotnen" />
		<tag k="natural" v="valley" />
		<tag k="place" v="locality" />
		<tag k="ssr:stedsnr" v="948576" />
	</node>
	<node id="-471513" lat="60.2248944478" lon="5.47520833338">
		<tag k="name" v="Grasbotnen" />
		<tag k="natural" v="valley" />
		<tag k="place" v="locality" />
		<tag k="ssr:stedsnr" v="948568" />
	</node>
	<node id="-471506" lat="60.1891916709" lon="5.36995277953">
		<tag k="name" v="Storhellersbotnen" />
		<tag k="natural" v="valley" />
		<tag k="place" v="locality" />
		<tag k="ssr:stedsnr" v="948481" />
	</node>
	<node id="-471500" lat="60.1980111086" lon="5.4955666758">
		<tag k="name" v="Stølsskaret" />
		<tag k="natural" v="hill" />
		<tag k="place" v="locality" />
		<tag k="ssr:stedsnr" v="948400" />
	</node>
	<node id="-471499" lat="60.2328138913" lon="5.40422221699">
		<tag k="name" v="Brattvegen" />
		<tag k="natural" v="slope" />
		<tag k="place" v="locality" />
		<tag k="ssr:stedsnr" v="948395" />
	</node>
	<node id="-471498" lat="60.1998027795" lon="5.50530833317">
		<tag k="name" v="Lyhaugen" />
		<tag k="natural" v="hill" />
		<tag k="place" v="locality" />
		<tag k="ssr:stedsnr" v="948391" />
	</node>
	<node id="-471497" lat="60.1707722241" lon="5.44933333744">
		<tag k="name" v="Sletta" />
		<tag k="place" v="locality" />
		<tag k="ssr:stedsnr" v="948386" />
	</node>
	<node id="-471495" lat="60.1619888898" lon="5.42918055547">
		<tag k="name" v="Vikadalen" />
		<tag k="natural" v="valley" />
		<tag k="place" v="locality" />
		<tag k="ssr:stedsnr" v="948377" />
	</node>
	<node id="-471494" lat="60.2478416707" lon="5.56284444988">
		<tag k="name" v="Vollane" />
		<tag k="natural" v="hill" />
		<tag k="place" v="locality" />
		<tag k="ssr:stedsnr" v="948374" />
	</node>
	<node id="-471487" lat="60.2781805549" lon="5.4888499996">
		<tag k="name" v="Langanesliane" />
		<tag k="natural" v="slope" />
		<tag k="place" v="locality" />
		<tag k="ssr:stedsnr" v="948336" />
	</node>
	<node id="-471486" lat="60.2261722265" lon="5.3808055588">
		<tag k="name" v="Koladalen" />
		<tag k="natural" v="valley" />
		<tag k="place" v="locality" />
		<tag k="ssr:stedsnr" v="948332" />
	</node>
	<node id="-471485" lat="60.2027666693" lon="5.43258611319">
		<tag k="name" v="Klendalen" />
		<tag k="natural" v="valley" />
		<tag k="place" v="locality" />
		<tag k="ssr:stedsnr" v="948323" />
	</node>
	<node id="-471484" lat="60.2245527785" lon="5.5495527856">
		<tag k="name" v="Stordalshaugen" />
		<tag k="natural" v="hill" />
		<tag k="place" v="locality" />
		<tag k="ssr:stedsnr" v="948295" />
	</node>
	<node id="-471482" lat="60.2390027777" lon="5.52375277573">
		<tag k="name" v="Gjelet" />
		<tag k="natural" v="valley" />
		<tag k="place" v="locality" />
		<tag k="ssr:stedsnr" v="948290" />
	</node>
	<node id="-471480" lat="60.1957500031" lon="5.50907222779">
		<tag k="name" v="Moldadalen" />
		<tag k="natural" v="valley" />
		<tag k="place" v="locality" />
		<tag k="ssr:stedsnr" v="948283" />
	</node>
	<node id="-471477" lat="60.2486527758" lon="5.55685555729">
		<tag k="name" v="Bjørndalen" />
		<tag k="natural" v="valley" />
		<tag k="place" v="locality" />
		<tag k="ssr:stedsnr" v="948014" />
	</node>
	<node id="-471476" lat="60.2767861753" lon="5.49929394694">
		<tag k="name" v="Rundehaugen" />
		<tag k="natural" v="hill" />
		<tag k="place" v="locality" />
		<tag k="ssr:stedsnr" v="947328" />
	</node>
	<node id="-471461" lat="60.1362250036" lon="5.44235000724">
		<tag k="fixme" v="consider natural=peak for the most distinct mountains in the district" />
		<tag k="name" v="Bjørnaåsen" />
		<tag k="natural" v="hill" />
		<tag k="place" v="locality" />
		<tag k="ssr:stedsnr" v="915982" />
	</node>
	<node id="-471450" lat="60.2055527809" lon="5.50358333814">
		<tag k="name" v="Hegglandsdalen" />
		<tag k="natural" v="valley" />
		<tag k="place" v="locality" />
		<tag k="ssr:stedsnr" v="915011" />
	</node>
	<node id="-471445" lat="60.2362833349" lon="5.50698889166">
		<tag k="name" v="Lyhaugen" />
		<tag k="natural" v="hill" />
		<tag k="place" v="locality" />
		<tag k="ssr:stedsnr" v="914061" />
	</node>
	<node id="-471432" lat="60.1516277784" lon="5.45090000838">
		<tag k="fixme" v="consider natural=peak for the most distinct mountains in the district" />
		<tag k="name" v="Vassliåsen" />
		<tag k="natural" v="hill" />
		<tag k="place" v="locality" />
		<tag k="ssr:stedsnr" v="855000" />
	</node>
	<node id="-471428" lat="60.2478888906" lon="5.44565555687">
		<tag k="name" v="Sælhaugane" />
		<tag k="natural" v="hill" />
		<tag k="place" v="locality" />
		<tag k="ssr:stedsnr" v="854819" />
	</node>
	<node id="-471423" lat="60.1935444452" lon="5.41550832637">
		<tag k="fixme" v="consider natural=peak for the most distinct mountains in the district" />
		<tag k="name" v="Vetlafjellet" />
		<tag k="natural" v="hill" />
		<tag k="place" v="locality" />
		<tag k="ssr:stedsnr" v="854749" />
	</node>
	<node id="-471421" lat="60.2312861105" lon="5.53349443918">
		<tag k="name" v="Tveitaberget" />
		<tag k="natural" v="hill" />
		<tag k="place" v="locality" />
		<tag k="ssr:stedsnr" v="854039" />
	</node>
	<node id="-471419" lat="60.2087777771" lon="5.51809722775">
		<tag k="fixme" v="consider natural=peak for the most distinct mountains in the district" />
		<tag k="name" v="Nordåsen" />
		<tag k="natural" v="hill" />
		<tag k="place" v="locality" />
		<tag k="ssr:stedsnr" v="854011" />
	</node>
	<node id="-471417" lat="60.2368166711" lon="5.49059444751">
		<tag k="name" v="Ospedalen" />
		<tag k="natural" v="valley" />
		<tag k="place" v="locality" />
		<tag k="ssr:stedsnr" v="827543" />
	</node>
	<node id="-471413" lat="60.1832249992" lon="5.48174722604">
		<tag k="name" v="Langhamrane" />
		<tag k="natural" v="hill" />
		<tag k="place" v="locality" />
		<tag k="ssr:stedsnr" v="827517" />
	</node>
	<node id="-471406" lat="60.1352916694" lon="5.38275278346">
		<tag k="name" v="Ternhaugen" />
		<tag k="natural" v="hill" />
		<tag k="place" v="locality" />
		<tag k="ssr:stedsnr" v="827478" />
	</node>
	<node id="-471405" lat="60.1909444408" lon="5.39754444692">
		<tag k="fixme" v="consider natural=peak for the most distinct mountains in the district" />
		<tag k="name" v="Ospelikampen" />
		<tag k="natural" v="hill" />
		<tag k="ssr:stedsnr" v="827471" />
	</node>
	<node id="-471404" lat="60.1857111138" lon="5.37588334">
		<tag k="name" v="Djupedalen" />
		<tag k="natural" v="valley" />
		<tag k="place" v="locality" />
		<tag k="ssr:stedsnr" v="827469" />
	</node>
	<node id="-471398" lat="60.1875666623" lon="5.39844722118">
		<tag k="fixme" v="consider natural=peak for the most distinct mountains in the district" />
		<tag k="name" v="Nordnova" />
		<tag k="natural" v="hill" />
		<tag k="ssr:stedsnr" v="827421" />
	</node>
	<node id="-471394" lat="60.2297916659" lon="5.3828972251">
		<tag k="name" v="Bauskaret" />
		<tag k="natural" v="valley" />
		<tag k="place" v="locality" />
		<tag k="ssr:stedsnr" v="827339" />
	</node>
	<node id="-471393" lat="60.251758334" lon="5.50849165804">
		<tag k="name" v="Bismaren" />
		<tag k="place" v="locality" />
		<tag k="ssr:stedsnr" v="827328" />
	</node>
	<node id="-471392" lat="60.2510833332" lon="5.47438333768">
		<tag k="fixme" v="consider natural=peak for the most distinct mountains in the district" />
		<tag k="name" v="Åsen" />
		<tag k="natural" v="hill" />
		<tag k="place" v="locality" />
		<tag k="ssr:stedsnr" v="827329" />
	</node>
	<node id="-471391" lat="60.2448833363" lon="5.46878611824">
		<tag k="name" v="Stordalen" />
		<tag k="natural" v="valley" />
		<tag k="place" v="locality" />
		<tag k="ssr:stedsnr" v="827307" />
	</node>
	<node id="-471390" lat="60.2566222211" lon="5.50417776933">
		<tag k="name" v="Geitaskaret" />
		<tag k="natural" v="hill" />
		<tag k="place" v="locality" />
		<tag k="ssr:stedsnr" v="827306" />
	</node>
	<node id="-471389" lat="60.2440638904" lon="5.53529722495">
		<tag k="name" v="Heimste Knutsdalen" />
		<tag k="natural" v="valley" />
		<tag k="place" v="locality" />
		<tag k="ssr:stedsnr" v="827303" />
	</node>
	<node id="-471384" lat="60.2121305567" lon="5.50034167054">
		<tag k="name" v="Hegglandsliane" />
		<tag k="natural" v="slope" />
		<tag k="place" v="locality" />
		<tag k="ssr:stedsnr" v="826379" />
	</node>
	<node id="-471381" lat="60.2354083343" lon="5.56008889546">
		<tag k="name" v="Helleskaret" />
		<tag k="natural" v="hill" />
		<tag k="place" v="locality" />
		<tag k="ssr:stedsnr" v="826355" />
	</node>
	<node id="-471377" lat="60.2638027758" lon="5.51764444854">
		<tag k="name" v="Tjørnadalen" />
		<tag k="natural" v="valley" />
		<tag k="place" v="locality" />
		<tag k="ssr:stedsnr" v="826343" />
	</node>
	<node id="-471373" lat="60.2057944403" lon="5.45906110714">
		<tag k="name" v="Høgehaugen" />
		<tag k="natural" v="hill" />
		<tag k="place" v="locality" />
		<tag k="ssr:stedsnr" v="826315" />
	</node>
	<node id="-471372" lat="60.2113722238" lon="5.42461388843">
		<tag k="name" v="Røyrbotnen" />
		<tag k="natural" v="valley" />
		<tag k="place" v="locality" />
		<tag k="ssr:stedsnr" v="826309" />
	</node>
	<node id="-471371" lat="60.210613887" lon="5.43133889301">
		<tag k="name" v="Storebotnen" />
		<tag k="natural" v="valley" />
		<tag k="place" v="locality" />
		<tag k="ssr:stedsnr" v="826310" />
	</node>
	<node id="-471370" lat="60.2166083349" lon="5.46256388712">
		<tag k="name" v="Lyhaugen" />
		<tag k="natural" v="hill" />
		<tag k="place" v="locality" />
		<tag k="ssr:stedsnr" v="826304" />
	</node>
	<node id="-471368" lat="60.199355554" lon="5.38688889164">
		<tag k="name" v="Eikedalen" />
		<tag k="natural" v="valley" />
		<tag k="place" v="locality" />
		<tag k="ssr:stedsnr" v="826298" />
	</node>
	<node id="-471364" lat="60.1510527769" lon="5.33804999284">
		<tag k="name" v="Ravnaberget" />
		<tag k="natural" v="hill" />
		<tag k="place" v="locality" />
		<tag k="ssr:stedsnr" v="826281" />
	</node>
	<node id="-471363" lat="60.2424944482" lon="5.46276389243">
		<tag k="name" v="Sanddalen" />
		<tag k="natural" v="valley" />
		<tag k="place" v="locality" />
		<tag k="ssr:stedsnr" v="826264" />
	</node>
	<node id="-471362" lat="60.246816669" lon="5.45168888464">
		<tag k="name" v="Vetlaleitet" />
		<tag k="natural" v="slope" />
		<tag k="place" v="locality" />
		<tag k="ssr:stedsnr" v="826262" />
	</node>
	<node id="-471361" lat="60.2456027748" lon="5.44724167566">
		<tag k="name" v="Stonghaugen" />
		<tag k="natural" v="hill" />
		<tag k="place" v="locality" />
		<tag k="ssr:stedsnr" v="826260" />
	</node>
	<node id="-471360" lat="60.2438111121" lon="5.46774167424">
		<tag k="fixme" v="consider natural=peak for the most distinct mountains in the district" />
		<tag k="name" v="Heiåsen" />
		<tag k="natural" v="hill" />
		<tag k="place" v="locality" />
		<tag k="ssr:stedsnr" v="826261" />
	</node>
	<node id="-471350" lat="60.2313388888" lon="5.43053334159">
		<tag k="fixme" v="consider natural=peak for the most distinct mountains in the district" />
		<tag k="name" v="Søftelandsfjellet" />
		<tag k="natural" v="hill" />
		<tag k="place" v="locality" />
		<tag k="ssr:stedsnr" v="794853" />
	</node>
	<node id="-471344" lat="60.2739333345" lon="5.56950277551">
		<tag k="name" v="Stordalen" />
		<tag k="natural" v="valley" />
		<tag k="place" v="locality" />
		<tag k="ssr:stedsnr" v="794276" />
	</node>
	<node id="-471343" lat="60.2958888916" lon="5.54350000257">
		<tag k="name" v="Saubotnen" />
		<tag k="natural" v="valley" />
		<tag k="place" v="locality" />
		<tag k="ssr:stedsnr" v="794258" />
	</node>
	<node id="-471342" lat="60.30942778" lon="5.58362778243">
		<tag k="fixme" v="consider natural=peak for the most distinct mountains in the district" />
		<tag k="name" v="Utløfjellet" />
		<tag k="natural" v="hill" />
		<tag k="place" v="locality" />
		<tag k="ssr:stedsnr" v="794220" />
	</node>
	<node id="-471341" lat="60.2484333371" lon="5.49548334179">
		<tag k="name" v="Grønhovda" />
		<tag k="natural" v="hill" />
		<tag k="place" v="locality" />
		<tag k="ssr:stedsnr" v="794190" />
	</node>
	<node id="-471340" lat="60.2445444414" lon="5.56826389326">
		<tag k="name" v="Kolhaugen" />
		<tag k="natural" v="hill" />
		<tag k="place" v="locality" />
		<tag k="ssr:stedsnr" v="794182" />
	</node>
	<node id="-471327" lat="60.2330861147" lon="5.51998056122">
		<tag k="fixme" v="consider natural=peak for the most distinct mountains in the district" />
		<tag k="name" v="Møsnuken" />
		<tag k="natural" v="hill" />
		<tag k="place" v="locality" />
		<tag k="ssr:stedsnr" v="793059" />
	</node>
	<node id="-471326" lat="60.2167361069" lon="5.49489722983">
		<tag k="name" v="Snøkkekampen" />
		<tag k="natural" v="hill" />
		<tag k="place" v="locality" />
		<tag k="ssr:stedsnr" v="793031" />
	</node>
	<node id="-471320" lat="60.1620944463" lon="5.34497778222">
		<tag k="fixme" v="consider natural=peak for the most distinct mountains in the district" />
		<tag k="name" v="Øklandsåsen" />
		<tag k="natural" v="hill" />
		<tag k="place" v="locality" />
		<tag k="ssr:stedsnr" v="766454" />
	</node>
	<node id="-471314" lat="60.1909416691" lon="5.37885833129">
		<tag k="name" v="Skifteshaugen" />
		<tag k="natural" v="hill" />
		<tag k="place" v="locality" />
		<tag k="ssr:stedsnr" v="766422" />
	</node>
	<node id="-471313" lat="60.1948749983" lon="5.37420000067">
		<tag k="name" v="Gjelet" />
		<tag k="natural" v="valley" />
		<tag k="place" v="locality" />
		<tag k="ssr:stedsnr" v="766418" />
	</node>
	<node id="-471312" lat="60.201611115" lon="5.33213610863">
		<tag k="name" v="Vågakongen" />
		<tag k="place" v="locality" />
		<tag k="ssr:stedsnr" v="766416" />
	</node>
	<node id="-471306" lat="60.2778305556" lon="5.58374166175">
		<tag k="name" v="Høgalia" />
		<tag k="natural" v="slope" />
		<tag k="place" v="locality" />
		<tag k="ssr:stedsnr" v="766301" />
	</node>
	<node id="-471305" lat="60.2747888894" lon="5.54606111837">
		<tag k="name" v="Ravnagjelet" />
		<tag k="natural" v="gorge" />
		<tag k="ssr:stedsnr" v="766295" />
	</node>
	<node id="-471304" lat="60.2776583357" lon="5.53276110934">
		<tag k="name" v="Skorpedalen" />
		<tag k="natural" v="valley" />
		<tag k="place" v="locality" />
		<tag k="ssr:stedsnr" v="766281" />
	</node>
	<node id="-471303" lat="60.3111611098" lon="5.55529167371">
		<tag k="name" v="Skredlia" />
		<tag k="natural" v="slope" />
		<tag k="place" v="locality" />
		<tag k="ssr:stedsnr" v="766257" />
	</node>
	<node id="-471302" lat="60.3069833304" lon="5.54260277811">
		<tag k="name" v="Sauskolten" />
		<tag k="place" v="locality" />
		<tag k="ssr:stedsnr" v="766256" />
	</node>
	<node id="-471300" lat="60.3240000001" lon="5.56137778431">
		<tag k="name" v="Blomsterkråa" />
		<tag k="place" v="locality" />
		<tag k="ssr:stedsnr" v="766251" />
	</node>
	<node id="-471299" lat="60.2541583358" lon="5.49069166211">
		<tag k="name" v="Miledalen" />
		<tag k="natural" v="valley" />
		<tag k="place" v="locality" />
		<tag k="ssr:stedsnr" v="766247" />
	</node>
	<node id="-471298" lat="60.2463138926" lon="5.51496388251">
		<tag k="name" v="Lægdene" />
		<tag k="place" v="locality" />
		<tag k="ssr:stedsnr" v="766244" />
	</node>
	<node id="-471297" lat="60.2269555537" lon="5.51689167342">
		<tag k="name" v="Stemmedalen" />
		<tag k="natural" v="valley" />
		<tag k="place" v="locality" />
		<tag k="ssr:stedsnr" v="766012" />
	</node>
	<node id="-471295" lat="60.2373555592" lon="5.39472778116">
		<tag k="fixme" v="consider natural=peak for the most distinct mountains in the district" />
		<tag k="name" v="Grønhovda" />
		<tag k="natural" v="hill" />
		<tag k="ssr:stedsnr" v="765357" />
	</node>
	<node id="-471294" lat="60.2333805595" lon="5.41350833017">
		<tag k="name" v="Steinkula" />
		<tag k="place" v="locality" />
		<tag k="ssr:stedsnr" v="765355" />
	</node>
	<node id="-471293" lat="60.2062361069" lon="5.49024999581">
		<tag k="name" v="Haggardslia" />
		<tag k="natural" v="slope" />
		<tag k="place" v="locality" />
		<tag k="ssr:stedsnr" v="765350" />
	</node>
	<node id="-471292" lat="60.2301805518" lon="5.41426944174">
		<tag k="name" v="Raunåslia" />
		<tag k="natural" v="slope" />
		<tag k="place" v="locality" />
		<tag k="ssr:stedsnr" v="765351" />
	</node>
	<node id="-471288" lat="60.2419833303" lon="5.53357499383">
		<tag k="name" v="Gaupeskarkulten" />
		<tag k="natural" v="hill" />
		<tag k="place" v="locality" />
		<tag k="ssr:stedsnr" v="765327" />
	</node>
	<node id="-471284" lat="60.2278694453" lon="5.38439721518">
		<tag k="name" v="Lyhaugane" />
		<tag k="natural" v="hill" />
		<tag k="place" v="locality" />
		<tag k="ssr:stedsnr" v="765296" />
	</node>
	<node id="-471280" lat="60.2176222238" lon="5.53051945012">
		<tag k="name" v="Eidsbrekka" />
		<tag k="natural" v="slope" />
		<tag k="place" v="locality" />
		<tag k="ssr:stedsnr" v="765292" />
	</node>
	<node id="-471279" lat="60.2065028442" lon="5.42594929412">
		<tag k="fixme" v="consider natural=peak for the most distinct mountains in the district" />
		<tag k="name" v="Ingeborgkampen" />
		<tag k="natural" v="hill" />
		<tag k="ssr:stedsnr" v="765283" />
	</node>
	<node id="-471277" lat="60.2063555563" lon="5.40647777505">
		<tag k="fixme" v="consider natural=peak for the most distinct mountains in the district" />
		<tag k="name" v="Kyrkjeåsen" />
		<tag k="natural" v="hill" />
		<tag k="place" v="locality" />
		<tag k="ssr:stedsnr" v="765271" />
	</node>
	<node id="-471274" lat="60.2420944423" lon="5.39685277672">
		<tag k="name" v="Mikkjelstræet" />
		<tag k="natural" v="slope" />
		<tag k="place" v="locality" />
		<tag k="ssr:stedsnr" v="765226" />
	</node>
	<node id="-471273" lat="60.2278277799" lon="5.51514721557">
		<tag k="fixme" v="consider natural=peak for the most distinct mountains in the district" />
		<tag k="name" v="Midtfjellet" />
		<tag k="natural" v="hill" />
		<tag k="place" v="locality" />
		<tag k="ssr:stedsnr" v="766504" />
	</node>
	<node id="-471259" lat="60.1653527758" lon="5.41304444127">
		<tag k="name" v="Hovereio" />
		<tag k="natural" v="hill" />
		<tag k="place" v="locality" />
		<tag k="ssr:stedsnr" v="733777" />
	</node>
	<node id="-471253" lat="60.2723305593" lon="5.47976388948">
		<tag k="fixme" v="consider natural=peak for the most distinct mountains in the district" />
		<tag k="name" v="Raudlifjellet" />
		<tag k="natural" v="hill" />
		<tag k="place" v="locality" />
		<tag k="ssr:stedsnr" v="733246" />
	</node>
	<node id="-471249" lat="60.2182611148" lon="5.47525555218">
		<tag k="name" v="Eikebotn" />
		<tag k="natural" v="valley" />
		<tag k="place" v="locality" />
		<tag k="ssr:stedsnr" v="733053" />
	</node>
	<node id="-471243" lat="60.2269388852" lon="5.52809722124">
		<tag k="name" v="Bjørkeremen" />
		<tag k="place" v="locality" />
		<tag k="ssr:stedsnr" v="705575" />
	</node>
	<node id="-471242" lat="60.2291138865" lon="5.50512500841">
		<tag k="fixme" v="consider natural=peak for the most distinct mountains in the district" />
		<tag k="name" v="Storafjellet" />
		<tag k="natural" v="hill" />
		<tag k="place" v="locality" />
		<tag k="ssr:stedsnr" v="705569" />
	</node>
	<node id="-471240" lat="60.216072223" lon="5.42057222606">
		<tag k="name" v="Langelirenen" />
		<tag k="natural" v="slope" />
		<tag k="place" v="locality" />
		<tag k="ssr:stedsnr" v="705562" />
	</node>
	<node id="-471234" lat="60.1857194414" lon="5.36330278026">
		<tag k="fixme" v="consider natural=peak for the most distinct mountains in the district" />
		<tag k="name" v="Lauvåsen" />
		<tag k="natural" v="hill" />
		<tag k="place" v="locality" />
		<tag k="ssr:stedsnr" v="705500" />
	</node>
	<node id="-471233" lat="60.1916888913" lon="5.40243888448">
		<tag k="name" v="Ådnedalen" />
		<tag k="natural" v="valley" />
		<tag k="place" v="locality" />
		<tag k="ssr:stedsnr" v="705495" />
	</node>
	<node id="-471232" lat="60.1775083309" lon="5.45854445058">
		<tag k="name" v="Greidalen" />
		<tag k="natural" v="valley" />
		<tag k="place" v="locality" />
		<tag k="ssr:stedsnr" v="705462" />
	</node>
	<node id="-471231" lat="60.1867166641" lon="5.43453332902">
		<tag k="fixme" v="consider natural=peak for the most distinct mountains in the district" />
		<tag k="name" v="Lauvåsen" />
		<tag k="natural" v="hill" />
		<tag k="place" v="locality" />
		<tag k="ssr:stedsnr" v="705454" />
	</node>
	<node id="-471228" lat="60.1978027748" lon="5.50695554769">
		<tag k="name" v="Klyvalia" />
		<tag k="natural" v="slope" />
		<tag k="place" v="locality" />
		<tag k="ssr:stedsnr" v="705425" />
	</node>
	<node id="-471226" lat="60.2480694474" lon="5.56026944904">
		<tag k="name" v="Furhaugen" />
		<tag k="natural" v="hill" />
		<tag k="place" v="locality" />
		<tag k="ssr:stedsnr" v="705390" />
	</node>
	<node id="-471225" lat="60.235263885" lon="5.56693332594">
		<tag k="name" v="Kvitaberget" />
		<tag k="natural" v="hill" />
		<tag k="place" v="locality" />
		<tag k="ssr:stedsnr" v="705381" />
	</node>
	<node id="-471221" lat="60.2627583326" lon="5.49283610482">
		<tag k="name" v="Stordalen" />
		<tag k="natural" v="valley" />
		<tag k="place" v="locality" />
		<tag k="ssr:stedsnr" v="705355" />
	</node>
	<node id="-471219" lat="60.2158305581" lon="5.53576111601">
		<tag k="name" v="Lauvåsdalen" />
		<tag k="natural" v="valley" />
		<tag k="place" v="locality" />
		<tag k="ssr:stedsnr" v="705347" />
	</node>
	<node id="-471216" lat="60.2085055578" lon="5.47151110224">
		<tag k="name" v="Bjørnadalen" />
		<tag k="natural" v="valley" />
		<tag k="place" v="locality" />
		<tag k="ssr:stedsnr" v="705329" />
	</node>
	<node id="-471215" lat="60.2784083347" lon="5.56451943763">
		<tag k="name" v="Nulten" />
		<tag k="place" v="locality" />
		<tag k="ssr:stedsnr" v="705327" />
	</node>
	<node id="-471214" lat="60.267669449" lon="5.57300833581">
		<tag k="name" v="Olahaugen" />
		<tag k="natural" v="hill" />
		<tag k="place" v="locality" />
		<tag k="ssr:stedsnr" v="705324" />
	</node>
	<node id="-471213" lat="60.1989805527" lon="5.38471110839">
		<tag k="name" v="Elvakroken" />
		<tag k="place" v="locality" />
		<tag k="ssr:stedsnr" v="705314" />
	</node>
	<node id="-471212" lat="60.2724277743" lon="5.56824166176">
		<tag k="name" v="Stordalen" />
		<tag k="natural" v="valley" />
		<tag k="place" v="locality" />
		<tag k="ssr:stedsnr" v="705295" />
	</node>
	<node id="-471211" lat="60.2488361158" lon="5.45733889612">
		<tag k="name" v="Rennedalen" />
		<tag k="natural" v="valley" />
		<tag k="place" v="locality" />
		<tag k="ssr:stedsnr" v="705290" />
	</node>
	<node id="-471210" lat="60.2491222218" lon="5.43170833167">
		<tag k="fixme" v="consider natural=peak for the most distinct mountains in the district" />
		<tag k="name" v="Storemyråsen" />
		<tag k="natural" v="hill" />
		<tag k="place" v="locality" />
		<tag k="ssr:stedsnr" v="705284" />
	</node>
	<node id="-471209" lat="60.2517305517" lon="5.49140000663">
		<tag k="name" v="Hovdane" />
		<tag k="place" v="locality" />
		<tag k="ssr:stedsnr" v="705282" />
	</node>
	<node id="-471208" lat="60.2592444442" lon="5.46261944451">
		<tag k="fixme" v="consider natural=peak for the most distinct mountains in the district" />
		<tag k="name" v="Sælafjellet" />
		<tag k="natural" v="hill" />
		<tag k="place" v="locality" />
		<tag k="ssr:stedsnr" v="705281" />
	</node>
	<node id="-471205" lat="60.2278277745" lon="5.54943056005">
		<tag k="name" v="Stordalen" />
		<tag k="natural" v="valley" />
		<tag k="place" v="locality" />
		<tag k="ssr:stedsnr" v="705014" />
	</node>
	<node id="-471203" lat="60.1809194425" lon="5.43307499135">
		<tag k="fixme" v="consider natural=peak for the most distinct mountains in the district" />
		<tag k="name" v="Liafjellet" />
		<tag k="natural" v="hill" />
		<tag k="place" v="locality" />
		<tag k="ssr:stedsnr" v="705007" />
	</node>
	<node id="-471201" lat="60.2888499966" lon="5.54827500073">
		<tag k="name" v="Storhaugen" />
		<tag k="natural" v="hill" />
		<tag k="place" v="locality" />
		<tag k="ssr:stedsnr" v="704318" />
	</node>
	<node id="-471198" lat="60.2735138855" lon="5.5152972249">
		<tag k="name" v="Barlinddalen" />
		<tag k="natural" v="valley" />
		<tag k="place" v="locality" />
		<tag k="ssr:stedsnr" v="704304" />
	</node>
	<node id="-471197" lat="60.1707666684" lon="5.30751666837">
		<tag k="name" v="Skorpo" />
		<tag k="natural" v="hill" />
		<tag k="place" v="locality" />
		<tag k="ssr:stedsnr" v="705521" />
	</node>
	<node id="-471195" lat="60.1453861124" lon="5.44485000826">
		<tag k="fixme" v="consider natural=peak for the most distinct mountains in the district" />
		<tag k="name" v="Vassliåsen" />
		<tag k="natural" v="hill" />
		<tag k="place" v="locality" />
		<tag k="ssr:stedsnr" v="705504" />
	</node>
	<node id="-471168" lat="60.2233527803" lon="5.50536667342">
		<tag k="name" v="Hegglandsfjellet" />
		<tag k="natural" v="hill" />
		<tag k="place" v="locality" />
		<tag k="ssr:stedsnr" v="672049" />
	</node>
	<node id="-471166" lat="60.2071166659" lon="5.4833694384">
		<tag k="name" v="Borgafjellet" />
		<tag k="natural" v="hill" />
		<tag k="place" v="locality" />
		<tag k="ssr:stedsnr" v="672031" />
	</node>
	<node id="-471161" lat="60.2294166703" lon="5.52261111041">
		<tag k="name" v="Brunane" />
		<tag k="natural" v="hill" />
		<tag k="place" v="locality" />
		<tag k="ssr:stedsnr" v="671063" />
	</node>
	<node id="-471160" lat="60.2333749962" lon="5.55902499688">
		<tag k="fixme" v="consider natural=peak for the most distinct mountains in the district" />
		<tag k="name" v="Møsåsen" />
		<tag k="natural" v="hill" />
		<tag k="place" v="locality" />
		<tag k="ssr:stedsnr" v="671064" />
	</node>
	<node id="-471158" lat="60.2262944432" lon="5.49153054702">
		<tag k="name" v="Mjelkehaugane" />
		<tag k="natural" v="hill" />
		<tag k="place" v="locality" />
		<tag k="ssr:stedsnr" v="644537" />
	</node>
	<node id="-471157" lat="60.2221194411" lon="5.48940278354">
		<tag k="name" v="Grytelia" />
		<tag k="natural" v="slope" />
		<tag k="place" v="locality" />
		<tag k="ssr:stedsnr" v="644532" />
	</node>
	<node id="-471155" lat="60.1945277796" lon="5.50853333765">
		<tag k="name" v="Djupedalen" />
		<tag k="natural" v="valley" />
		<tag k="place" v="locality" />
		<tag k="ssr:stedsnr" v="644518" />
	</node>
	<node id="-471151" lat="60.1345972233" lon="5.44700832697">
		<tag k="name" v="Kista" />
		<tag k="place" v="locality" />
		<tag k="ssr:stedsnr" v="644466" />
	</node>
	<node id="-471150" lat="60.1922472218" lon="5.37246943948">
		<tag k="fixme" v="consider natural=peak for the most distinct mountains in the district" />
		<tag k="name" v="Drangsfjellet" />
		<tag k="natural" v="hill" />
		<tag k="place" v="locality" />
		<tag k="ssr:stedsnr" v="644461" />
	</node>
	<node id="-471145" lat="60.1792444442" lon="5.37868333434">
		<tag k="name" v="Heia" />
		<tag k="natural" v="hill" />
		<tag k="place" v="locality" />
		<tag k="ssr:stedsnr" v="644386" />
	</node>
	<node id="-471143" lat="60.2560666677" lon="5.53785277421">
		<tag k="name" v="Svartebotn" />
		<tag k="natural" v="valley" />
		<tag k="place" v="locality" />
		<tag k="ssr:stedsnr" v="644371" />
	</node>
	<node id="-471141" lat="60.255972222" lon="5.55074999558">
		<tag k="fixme" v="consider natural=peak for the most distinct mountains in the district" />
		<tag k="name" v="Kråkefjellet" />
		<tag k="natural" v="hill" />
		<tag k="place" v="locality" />
		<tag k="ssr:stedsnr" v="644357" />
	</node>
	<node id="-471140" lat="60.243561112" lon="5.549008332">
		<tag k="name" v="Raunevollen" />
		<tag k="natural" v="hill" />
		<tag k="place" v="locality" />
		<tag k="ssr:stedsnr" v="644356" />
	</node>
	<node id="-471139" lat="60.1831111074" lon="5.42158610699">
		<tag k="name" v="Fjellbotnen" />
		<tag k="natural" v="valley" />
		<tag k="place" v="locality" />
		<tag k="ssr:stedsnr" v="644352" />
	</node>
	<node id="-471136" lat="60.2242277766" lon="5.38335278461">
		<tag k="name" v="Trolldalen" />
		<tag k="natural" v="valley" />
		<tag k="place" v="locality" />
		<tag k="ssr:stedsnr" v="644319" />
	</node>
	<node id="-471134" lat="60.2029000026" lon="5.53259166651">
		<tag k="name" v="Svehaugen" />
		<tag k="natural" v="hill" />
		<tag k="place" v="locality" />
		<tag k="ssr:stedsnr" v="644314" />
	</node>
	<node id="-471132" lat="60.2789249985" lon="5.555874993">
		<tag k="name" v="Slåttedalen" />
		<tag k="natural" v="valley" />
		<tag k="place" v="locality" />
		<tag k="ssr:stedsnr" v="644299" />
	</node>
	<node id="-471131" lat="60.2126666642" lon="5.43832777656">
		<tag k="name" v="Løypet" />
		<tag k="place" v="locality" />
		<tag k="ssr:stedsnr" v="644298" />
	</node>
	<node id="-471127" lat="60.2672388854" lon="5.47243333324">
		<tag k="name" v="Fjelldalen" />
		<tag k="natural" v="valley" />
		<tag k="place" v="locality" />
		<tag k="ssr:stedsnr" v="644275" />
	</node>
	<node id="-471126" lat="60.3083527791" lon="5.56470554879">
		<tag k="name" v="Døsene" />
		<tag k="place" v="locality" />
		<tag k="ssr:stedsnr" v="644274" />
	</node>
	<node id="-471125" lat="60.3055527784" lon="5.57700554759">
		<tag k="name" v="Utløstallane" />
		<tag k="place" v="locality" />
		<tag k="ssr:stedsnr" v="644267" />
	</node>
	<node id="-471124" lat="60.2504055531" lon="5.5185305469">
		<tag k="name" v="Åreiane" />
		<tag k="place" v="locality" />
		<tag k="ssr:stedsnr" v="644257" />
	</node>
	<node id="-471121" lat="60.2927500027" lon="5.55197500624">
		<tag k="name" v="Gaddhaugen" />
		<tag k="natural" v="hill" />
		<tag k="place" v="locality" />
		<tag k="ssr:stedsnr" v="643279" />
	</node>
	<node id="-471119" lat="60.2795527752" lon="5.51750556142">
		<tag k="name" v="Munkalia" />
		<tag k="natural" v="slope" />
		<tag k="place" v="locality" />
		<tag k="ssr:stedsnr" v="643317" />
	</node>
	<node id="-471109" lat="60.2753333344" lon="5.51863611573">
		<tag k="fixme" v="consider natural=peak for the most distinct mountains in the district" />
		<tag k="name" v="Steindalsåsen" />
		<tag k="natural" v="hill" />
		<tag k="place" v="locality" />
		<tag k="ssr:stedsnr" v="612323" />
	</node>
	<node id="-471108" lat="60.2733666687" lon="5.57743332689">
		<tag k="fixme" v="consider natural=peak for the most distinct mountains in the district" />
		<tag k="name" v="Austerlifjellet" />
		<tag k="natural" v="hill" />
		<tag k="place" v="locality" />
		<tag k="ssr:stedsnr" v="612320" />
	</node>
	<node id="-471099" lat="60.232630554" lon="5.39592778279">
		<tag k="fixme" v="consider natural=peak for the most distinct mountains in the district" />
		<tag k="name" v="Skorafjellet" />
		<tag k="natural" v="hill" />
		<tag k="place" v="locality" />
		<tag k="ssr:stedsnr" v="611877" />
	</node>
	<node id="-471089" lat="60.2399944407" lon="5.52367499867">
		<tag k="name" v="Gjelet" />
		<tag k="natural" v="valley" />
		<tag k="place" v="locality" />
		<tag k="ssr:stedsnr" v="611189" />
	</node>
	<node id="-471087" lat="60.1986305541" lon="5.52697499497">
		<tag k="fixme" v="consider natural=peak for the most distinct mountains in the district" />
		<tag k="name" v="Moldaåsen" />
		<tag k="natural" v="hill" />
		<tag k="place" v="locality" />
		<tag k="ssr:stedsnr" v="611095" />
	</node>
	<node id="-471081" lat="60.230002779" lon="5.53140556033">
		<tag k="name" v="Askedalen" />
		<tag k="natural" v="valley" />
		<tag k="place" v="locality" />
		<tag k="ssr:stedsnr" v="583517" />
	</node>
	<node id="-471078" lat="60.2159305567" lon="5.39860277181">
		<tag k="name" v="Leirdalane" />
		<tag k="natural" v="valley" />
		<tag k="place" v="locality" />
		<tag k="ssr:stedsnr" v="583502" />
	</node>
	<node id="-471077" lat="60.1576111096" lon="5.44694722429">
		<tag k="name" v="Sjøsdalen" />
		<tag k="natural" v="valley" />
		<tag k="place" v="locality" />
		<tag k="ssr:stedsnr" v="583494" />
	</node>
	<node id="-471072" lat="60.1751361075" lon="5.3025000031">
		<tag k="name" v="Kløvahaugen" />
		<tag k="natural" v="hill" />
		<tag k="place" v="locality" />
		<tag k="ssr:stedsnr" v="583464" />
	</node>
	<node id="-471071" lat="60.1404944416" lon="5.43170556198">
		<tag k="name" v="Bjørnahiet" />
		<tag k="place" v="locality" />
		<tag k="ssr:stedsnr" v="583451" />
	</node>
	<node id="-471070" lat="60.1921749965" lon="5.36019722571">
		<tag k="fixme" v="consider natural=peak for the most distinct mountains in the district" />
		<tag k="name" v="Åsen" />
		<tag k="natural" v="hill" />
		<tag k="place" v="locality" />
		<tag k="ssr:stedsnr" v="583443" />
	</node>
	<node id="-471065" lat="60.1967416691" lon="5.42298333738">
		<tag k="name" v="Ulvensletta" />
		<tag k="place" v="locality" />
		<tag k="ssr:stedsnr" v="583381" />
	</node>
	<node id="-471063" lat="60.2541277796" lon="5.54518055175">
		<tag k="name" v="Kråkedalen" />
		<tag k="natural" v="valley" />
		<tag k="place" v="locality" />
		<tag k="ssr:stedsnr" v="583363" />
	</node>
	<node id="-471062" lat="60.1725222257" lon="5.4322055588">
		<tag k="fixme" v="consider natural=peak for the most distinct mountains in the district" />
		<tag k="name" v="Tuenfjellet" />
		<tag k="natural" v="hill" />
		<tag k="place" v="locality" />
		<tag k="ssr:stedsnr" v="583362" />
	</node>
	<node id="-471061" lat="60.2128611143" lon="5.48001943946">
		<tag k="name" v="Bjørnadalskampen" />
		<tag k="natural" v="hill" />
		<tag k="place" v="locality" />
		<tag k="ssr:stedsnr" v="583360" />
	</node>
	<node id="-471059" lat="60.2409749975" lon="5.56251388667">
		<tag k="name" v="Hundarullen" />
		<tag k="natural" v="hill" />
		<tag k="place" v="locality" />
		<tag k="ssr:stedsnr" v="583351" />
	</node>
	<node id="-471058" lat="60.2208694441" lon="5.4213472245">
		<tag k="name" v="Kvalsryggen" />
		<tag k="natural" v="ridge" />
		<tag k="place" v="locality" />
		<tag k="ssr:stedsnr" v="583329" />
	</node>
	<node id="-471057" lat="60.278397222" lon="5.52000556454">
		<tag k="name" v="Moshaugane" />
		<tag k="natural" v="hill" />
		<tag k="place" v="locality" />
		<tag k="ssr:stedsnr" v="583321" />
	</node>
	<node id="-471056" lat="60.2743861143" lon="5.51876110181">
		<tag k="fixme" v="consider natural=peak for the most distinct mountains in the district" />
		<tag k="name" v="Steindalsåsen" />
		<tag k="natural" v="hill" />
		<tag k="place" v="locality" />
		<tag k="ssr:stedsnr" v="583318" />
	</node>
	<node id="-471055" lat="60.269933337" lon="5.52191666594">
		<tag k="name" v="Inste Lamhusdalen" />
		<tag k="natural" v="valley" />
		<tag k="place" v="locality" />
		<tag k="ssr:stedsnr" v="583313" />
	</node>
	<node id="-471053" lat="60.2650138921" lon="5.49578055169">
		<tag k="name" v="Austerlia" />
		<tag k="natural" v="slope" />
		<tag k="place" v="locality" />
		<tag k="ssr:stedsnr" v="583306" />
	</node>
	<node id="-471051" lat="60.2079916672" lon="5.47694165788">
		<tag k="name" v="Allia" />
		<tag k="natural" v="slope" />
		<tag k="place" v="locality" />
		<tag k="ssr:stedsnr" v="583295" />
	</node>
	<node id="-471050" lat="60.2004583301" lon="5.46982222034">
		<tag k="name" v="Tranevadet" />
		<tag k="place" v="locality" />
		<tag k="ssr:stedsnr" v="583290" />
	</node>
	<node id="-471049" lat="60.2716444418" lon="5.5440777748">
		<tag k="name" v="Kråkehaugen" />
		<tag k="natural" v="hill" />
		<tag k="place" v="locality" />
		<tag k="ssr:stedsnr" v="583270" />
	</node>
	<node id="-471047" lat="60.2303055541" lon="5.55152223124">
		<tag k="name" v="Vikadalen" />
		<tag k="natural" v="valley" />
		<tag k="place" v="locality" />
		<tag k="ssr:stedsnr" v="583256" />
	</node>
	<node id="-471046" lat="60.2452777756" lon="5.53345554891">
		<tag k="name" v="Knultane" />
		<tag k="place" v="locality" />
		<tag k="ssr:stedsnr" v="583254" />
	</node>
	<node id="-471045" lat="60.222094447" lon="5.53878333655">
		<tag k="name" v="Skiftesdalen" />
		<tag k="natural" v="valley" />
		<tag k="place" v="locality" />
		<tag k="ssr:stedsnr" v="583253" />
	</node>
	<node id="-471044" lat="60.278436113" lon="5.56918333708">
		<tag k="name" v="Furestølane" />
		<tag k="place" v="locality" />
		<tag k="ssr:stedsnr" v="583243" />
	</node>
	<node id="-471043" lat="60.2662777759" lon="5.51048332718">
		<tag k="name" v="Bødalen" />
		<tag k="natural" v="valley" />
		<tag k="place" v="locality" />
		<tag k="ssr:stedsnr" v="583240" />
	</node>
	<node id="-471042" lat="60.3072555589" lon="5.56114166562">
		<tag k="name" v="Setret" />
		<tag k="place" v="locality" />
		<tag k="ssr:stedsnr" v="583231" />
	</node>
	<node id="-471041" lat="60.2555111116" lon="5.46922778519">
		<tag k="name" v="Seljedalen" />
		<tag k="natural" v="valley" />
		<tag k="place" v="locality" />
		<tag k="ssr:stedsnr" v="583223" />
	</node>
</osm>
