<?xml version="1.0" encoding="UTF-8"?>
<osm generator="osmapis" version="0.6">
	<node id="-472021" lat="60.2252499977" lon="5.50562222248">
		<tag k="historic" v="shieling" />
		<tag k="name" v="Grytestølen" />
		<tag k="place" v="locality" />
		<tag k="ssr:stedsnr" v="827530" />
	</node>
	<node id="-471930" lat="60.1933750008" lon="5.33611944892">
		<tag k="name" v="Lonemyra" />
		<tag k="natural" v="wetland" />
		<tag k="ssr:stedsnr" v="766486" />
	</node>
	<node id="-471508" lat="60.1980666623" lon="5.44140555134">
		<tag k="name" v="Kolskogen" />
		<tag k="place" v="locality" />
		<tag k="ssr:stedsnr" v="462273" />
	</node>
	<node id="-471668" lat="60.2455777734" lon="5.57267777878">
		<tag k="name" v="Rødssteinen" />
		<tag k="natural" v="stone" />
		<tag k="ssr:stedsnr" v="583353" />
	</node>
	<node id="-471044" lat="60.2373000031" lon="5.4261027816">
		<tag k="name" v="Raunåsmyrane" />
		<tag k="natural" v="wetland" />
		<tag k="ssr:stedsnr" v="401303" />
	</node>
	<node id="-471059" lat="60.1650055594" lon="5.36056944418">
		<tag k="name" v="Langamyra" />
		<tag k="natural" v="wetland" />
		<tag k="ssr:stedsnr" v="402025" />
	</node>
	<node id="-471021" lat="60.2838888851" lon="5.50125278279">
		<tag k="name" v="Raudlibøen" />
		<tag k="place" v="locality" />
		<tag k="ssr:stedsnr" v="369235" />
	</node>
	<node id="-471404" lat="60.2560166698" lon="5.49459723042">
		<tag k="name" v="Bastiansmyra" />
		<tag k="natural" v="wetland" />
		<tag k="ssr:stedsnr" v="220310" />
	</node>
	<node id="-471530" lat="60.194238888" lon="5.38468611491">
		<tag k="historic" v="shieling" />
		<tag k="name" v="Setret" />
		<tag k="place" v="locality" />
		<tag k="ssr:stedsnr" v="462414" />
	</node>
	<node id="-471529" lat="60.1870138862" lon="5.42172777121">
		<tag k="name" v="Rosemyra" />
		<tag k="natural" v="wetland" />
		<tag k="ssr:stedsnr" v="462402" />
	</node>
	<node id="-472037" lat="60.2194861109" lon="5.41753332746">
		<tag k="name" v="Endalausmarka" />
		<tag k="place" v="locality" />
		<tag k="ssr:stedsnr" v="854852" />
	</node>
	<node id="-471267" lat="60.2313222266" lon="5.4001916699">
		<tag k="name" v="Tveitane" />
		<tag k="place" v="locality" />
		<tag k="ssr:stedsnr" v="98360" />
	</node>
	<node id="-470882" lat="60.231691666" lon="5.4059583387">
		<tag k="name" v="Utgjerdet" />
		<tag k="place" v="locality" />
		<tag k="ssr:stedsnr" v="280356" />
	</node>
	<node id="-471261" lat="60.1510194417" lon="5.34829722892">
		<tag k="name" v="Storamyra" />
		<tag k="natural" v="wetland" />
		<tag k="ssr:stedsnr" v="98242" />
	</node>
	<node id="-471674" lat="60.1805972189" lon="5.37971945159">
		<tag k="name" v="Vågsmyra" />
		<tag k="natural" v="wetland" />
		<tag k="ssr:stedsnr" v="583386" />
	</node>
	<node id="-470869" lat="60.2274638884" lon="5.37509444204">
		<tag k="name" v="Fureskogmyra" />
		<tag k="natural" v="wetland" />
		<tag k="ssr:stedsnr" v="280266" />
	</node>
	<node id="-471764" lat="60.2129166653" lon="5.39363056152">
		<tag k="name" v="Skitmyrane" />
		<tag k="natural" v="wetland" />
		<tag k="ssr:stedsnr" v="644522" />
	</node>
	<node id="-470867" lat="60.2744249993" lon="5.5485138943">
		<tag k="name" v="Storura" />
		<tag k="natural" v="scree" />
		<tag k="ssr:stedsnr" v="280256" />
	</node>
	<node id="-471888" lat="60.2208333369" lon="5.4064083363">
		<tag k="name" v="Korsabrumyrane" />
		<tag k="natural" v="wetland" />
		<tag k="ssr:stedsnr" v="765293" />
	</node>
	<node id="-472015" lat="60.1770499977" lon="5.35020554706">
		<tag k="name" v="Svensvikamyrane" />
		<tag k="natural" v="wetland" />
		<tag k="ssr:stedsnr" v="827490" />
	</node>
	<node id="-471885" lat="60.1981388864" lon="5.37526666219">
		<tag k="name" v="Blåskogen" />
		<tag k="place" v="locality" />
		<tag k="ssr:stedsnr" v="765274" />
	</node>
	<node id="-471266" lat="60.2256444441" lon="5.41205278364">
		<tag k="name" v="Kristiansmyra" />
		<tag k="natural" v="wetland" />
		<tag k="ssr:stedsnr" v="98358" />
	</node>
	<node id="-471114" lat="60.1776083336" lon="5.34851943854">
		<tag k="name" v="Havnamyra" />
		<tag k="natural" v="wetland" />
		<tag k="ssr:stedsnr" v="887459" />
	</node>
	<node id="-470983" lat="60.1792138889" lon="5.36580000693">
		<tag k="landuse" v="meadow" />
		<tag k="name" v="Midtmarka" />
		<tag k="ssr:stedsnr" v="341427" />
	</node>
	<node id="-471750" lat="60.1594416627" lon="5.41174444451">
		<tag k="name" v="Storamyra" />
		<tag k="natural" v="wetland" />
		<tag k="ssr:stedsnr" v="644360" />
	</node>
	<node id="-471365" lat="60.2657388851" lon="5.50625833583">
		<tag k="historic" v="shieling" />
		<tag k="name" v="Bøsetret" />
		<tag k="place" v="locality" />
		<tag k="ssr:stedsnr" v="187297" />
	</node>
	<node id="-471491" lat="60.2549472231" lon="5.45906943911">
		<tag k="name" v="Slåttemyra" />
		<tag k="natural" v="wetland" />
		<tag k="ssr:stedsnr" v="462199" />
	</node>
	<node id="-470973" lat="60.2341888891" lon="5.41892500303">
		<tag k="name" v="Kråmyra" />
		<tag k="natural" v="wetland" />
		<tag k="ssr:stedsnr" v="341352" />
	</node>
	<node id="-470972" lat="60.2256972196" lon="5.42858056402">
		<tag k="name" v="Lonemyra" />
		<tag k="natural" v="wetland" />
		<tag k="ssr:stedsnr" v="341350" />
	</node>
	<node id="-471738" lat="60.2103111095" lon="5.4021972175">
		<tag k="name" v="Høljamyra" />
		<tag k="natural" v="wetland" />
		<tag k="ssr:stedsnr" v="644288" />
	</node>
	<node id="-471096" lat="60.255811107" lon="5.47543333616">
		<tag k="name" v="Strilamyra" />
		<tag k="natural" v="wetland" />
		<tag k="ssr:stedsnr" v="887307" />
	</node>
	<node id="-471478" lat="60.259294315" lon="5.56355071608">
		<tag k="name" v="Hestasteinen" />
		<tag k="natural" v="stone" />
		<tag k="ssr:stedsnr" v="430294" />
	</node>
	<node id="-470962" lat="60.2509138854" lon="5.46908889361">
		<tag k="name" v="Lonmyrane" />
		<tag k="natural" v="wetland" />
		<tag k="ssr:stedsnr" v="341276" />
	</node>
	<node id="-471599" lat="60.2268583327" lon="5.45377221606">
		<tag k="name" v="Hjellamarka" />
		<tag k="place" v="locality" />
		<tag k="ssr:stedsnr" v="523362" />
	</node>
	<node id="-470958" lat="60.1429055509" lon="5.43636388054">
		<tag k="name" v="Halhjemsmarkjo" />
		<tag k="place" v="locality" />
		<tag k="ssr:stedsnr" v="341004" />
	</node>
	<node id="-472107" lat="60.1967444476" lon="5.46643611338">
		<tag k="name" v="Prestegardskogen" />
		<tag k="place" v="locality" />
		<tag k="ssr:stedsnr" v="948440" />
	</node>
	<node id="-471623" lat="60.1865111138" lon="5.36130277156">
		<tag k="name" v="Storamyra" />
		<tag k="natural" v="wetland" />
		<tag k="ssr:stedsnr" v="550802" />
	</node>
	<node id="-471844" lat="60.1652361152" lon="5.35321388514">
		<tag k="name" v="Skiftesmyra" />
		<tag k="natural" v="wetland" />
		<tag k="ssr:stedsnr" v="705542" />
	</node>
	<node id="-471203" lat="60.1937861145" lon="5.40001944919">
		<tag k="name" v="Ådnedalsmyra" />
		<tag k="natural" v="wetland" />
		<tag k="ssr:stedsnr" v="37449" />
	</node>
	<node id="-471201" lat="60.2059305528" lon="5.35301388757">
		<tag k="name" v="Høljamyra" />
		<tag k="natural" v="wetland" />
		<tag k="ssr:stedsnr" v="37438" />
	</node>
	<node id="-472094" lat="60.226397219" lon="5.4643750071">
		<tag k="name" v="Hestamyra" />
		<tag k="natural" v="wetland" />
		<tag k="ssr:stedsnr" v="948346" />
	</node>
	<node id="-471087" lat="60.2844749977" lon="5.53603055969">
		<tag k="name" v="Gråura" />
		<tag k="natural" v="scree" />
		<tag k="ssr:stedsnr" v="887275" />
	</node>
	<node id="-471172" lat="60.2045583348" lon="5.46373611987">
		<tag k="name" v="Prestegardskogen" />
		<tag k="place" v="locality" />
		<tag k="ssr:stedsnr" v="37288" />
	</node>
	<node id="-471189" lat="60.2474194468" lon="5.53230278643">
		<tag k="name" v="Bjørkeskoghalsen" />
		<tag k="place" v="locality" />
		<tag k="ssr:stedsnr" v="37353" />
	</node>
	<node id="-471571" lat="60.2847416671" lon="5.54191944147">
		<tag k="name" v="Ospeskogen" />
		<tag k="place" v="locality" />
		<tag k="ssr:stedsnr" v="522336" />
	</node>
	<node id="-471442" lat="60.1814166689" lon="5.41278888238">
		<tag k="name" v="Skeismyrane" />
		<tag k="natural" v="wetland" />
		<tag k="ssr:stedsnr" v="247798" />
	</node>
	<node id="-471107" lat="60.1845722261" lon="5.36732776877">
		<tag k="name" v="Småmyrane" />
		<tag k="natural" v="wetland" />
		<tag k="ssr:stedsnr" v="887395" />
	</node>
	<node id="-471053" lat="60.1853277785" lon="5.40692777857">
		<tag k="name" v="Kloppamyra" />
		<tag k="natural" v="wetland" />
		<tag k="ssr:stedsnr" v="401382" />
	</node>
	<node id="-471688" lat="60.2279583348" lon="5.5074916686">
		<tag k="name" v="Storura" />
		<tag k="natural" v="scree" />
		<tag k="ssr:stedsnr" v="583513" />
	</node>
	<node id="-471245" lat="60.2245416625" lon="5.43306388216">
		<tag k="name" v="Storemyrane" />
		<tag k="natural" v="wetland" />
		<tag k="ssr:stedsnr" v="98297" />
	</node>
	<node id="-471942" lat="60.1980694428" lon="5.4457249948">
		<tag k="name" v="Kolskogen" />
		<tag k="place" v="locality" />
		<tag k="ssr:stedsnr" v="793811" />
	</node>
	<node id="-471428" lat="60.2205861077" lon="5.49182777885">
		<tag k="historic" v="shieling" />
		<tag k="name" v="Grytestølen" />
		<tag k="place" v="locality" />
		<tag k="ssr:stedsnr" v="220544" />
	</node>
	<node id="-471425" lat="60.2370638894" lon="5.52869445143">
		<tag k="historic" v="shieling" />
		<tag k="name" v="Steinsetra" />
		<tag k="place" v="locality" />
		<tag k="ssr:stedsnr" v="220525" />
	</node>
</osm>
