<?xml version="1.0" encoding="UTF-8"?>
<osm generator="osmapis" version="0.6">
	<node id="-471040" lat="60.2145824143" lon="5.42019031864">
		<tag k="name" v="Langelitjørna" />
		<tag k="natural" v="water" />
		<tag k="ssr:stedsnr" v="401272" />
	</node>
	<node id="-472060" lat="60.2927083292" lon="5.55634721639">
		<tag k="name" v="Øvredalselva" />
		<tag k="ssr:stedsnr" v="915268" />
		<tag k="waterway" v="river" />
	</node>
	<node id="-471034" lat="60.1947222188" lon="5.47240834086">
		<tag k="name" v="Oselva" />
		<tag k="ssr:stedsnr" v="389268" />
		<tag k="waterway" v="river" />
	</node>
	<node id="-472055" lat="60.2056000026" lon="5.50169723054">
		<tag k="name" v="Vallaelva" />
		<tag k="ssr:stedsnr" v="915004" />
		<tag k="waterway" v="stream" />
	</node>
	<node id="-472054" lat="60.2207722259" lon="5.45975832872">
		<tag k="name" v="Hetleflotvatnet" />
		<tag k="natural" v="water" />
		<tag k="ssr:stedsnr" v="914860" />
		<tag k="water" v="lake" />
	</node>
	<node id="-472052" lat="60.2076636106" lon="5.39667935369">
		<tag k="name" v="Søvikvatnet" />
		<tag k="natural" v="water" />
		<tag k="ssr:stedsnr" v="914773" />
	</node>
	<node id="-471538" lat="60.2249120369" lon="5.51170430853">
		<tag k="name" v="Hegglandstjørna" />
		<tag k="natural" v="water" />
		<tag k="ssr:stedsnr" v="462499" />
	</node>
	<node id="-472043" lat="60.2631777734" lon="5.47234166458">
		<tag k="name" v="Setrebekken" />
		<tag k="ssr:stedsnr" v="855304" />
		<tag k="waterway" v="stream" />
	</node>
	<node id="-472041" lat="60.3057555516" lon="5.55863054983">
		<tag k="name" v="Skredlielva" />
		<tag k="ssr:stedsnr" v="855249" />
		<tag k="waterway" v="stream" />
	</node>
	<node id="-472040" lat="60.2472907388" lon="5.50920388131">
		<tag k="name" v="Lønningdalstjørna" />
		<tag k="natural" v="water" />
		<tag k="ssr:stedsnr" v="855198" />
	</node>
	<node id="-471572" lat="60.2954777809" lon="5.55329167231">
		<tag k="name" v="Saubottsbekken" />
		<tag k="ssr:stedsnr" v="523001" />
		<tag k="waterway" v="stream" />
	</node>
	<node id="-471519" lat="60.2880416691" lon="5.5457750064">
		<tag k="name" v="Træselva" />
		<tag k="ssr:stedsnr" v="462318" />
		<tag k="waterway" v="river" />
	</node>
	<node id="-471006" lat="60.2117189751" lon="5.46001955205">
		<tag k="name" v="Tyssdalsvatnet" />
		<tag k="natural" v="water" />
		<tag k="ssr:stedsnr" v="368810" />
	</node>
	<node id="-471513" lat="60.2311666639" lon="5.44053333176">
		<tag k="name" v="Klubbsvika" />
		<tag k="natural" v="bay" />
		<tag k="ssr:stedsnr" v="462289" />
	</node>
	<node id="-472022" lat="60.238659672" lon="5.5046333054">
		<tag k="name" v="Tømmerskartjørna" />
		<tag k="natural" v="water" />
		<tag k="ssr:stedsnr" v="827540" />
	</node>
	<node id="-471506" lat="60.214986113" lon="5.44539722238">
		<tag k="name" v="Skogavika" />
		<tag k="natural" v="bay" />
		<tag k="ssr:stedsnr" v="462256" />
	</node>
	<node id="-471505" lat="60.2102811947" lon="5.4173703445">
		<tag k="name" v="Rundatjørna" />
		<tag k="natural" v="water" />
		<tag k="ssr:stedsnr" v="462254" />
	</node>
	<node id="-472002" lat="60.2389722186" lon="5.44755278406">
		<tag k="name" v="Oselva" />
		<tag k="ssr:stedsnr" v="827350" />
		<tag k="waterway" v="river" />
	</node>
	<node id="-472001" lat="60.232633334" lon="5.46518055982">
		<tag k="name" v="Nordra Straumsvika" />
		<tag k="natural" v="bay" />
		<tag k="ssr:stedsnr" v="827345" />
	</node>
	<node id="-470975" lat="60.2152378721" lon="5.41533245485">
		<tag k="name" v="Ospelitjørna" />
		<tag k="natural" v="water" />
		<tag k="ssr:stedsnr" v="341364" />
	</node>
	<node id="-470971" lat="60.2210611146" lon="5.4565833271">
		<tag k="name" v="Skiftesvika" />
		<tag k="natural" v="bay" />
		<tag k="ssr:stedsnr" v="341351" />
	</node>
	<node id="-471992" lat="60.2579977694" lon="5.52644304126">
		<tag k="name" v="Ytstatjørna" />
		<tag k="natural" v="water" />
		<tag k="ssr:stedsnr" v="827295" />
	</node>
	<node id="-471991" lat="60.2163527748" lon="5.39518332679">
		<tag k="name" v="Sjøbøelva" />
		<tag k="ssr:stedsnr" v="827008" />
		<tag k="waterway" v="river" />
	</node>
	<node id="-471987" lat="60.2683916692" lon="5.48990277755">
		<tag k="name" v="Grasholmen" />
		<tag k="place" v="islet" />
		<tag k="ssr:stedsnr" v="826350" />
	</node>
	<node id="-471986" lat="60.2127328222" lon="5.41459001868">
		<tag k="name" v="Hestatjørna" />
		<tag k="natural" v="water" />
		<tag k="ssr:stedsnr" v="826349" />
	</node>
	<node id="-471985" lat="60.2616573735" lon="5.5206192221">
		<tag k="name" v="Steindalstjørna" />
		<tag k="natural" v="water" />
		<tag k="ssr:stedsnr" v="826347" />
	</node>
	<node id="-471982" lat="60.2623595614" lon="5.46157260733">
		<tag k="name" v="Nordliskartjørna" />
		<tag k="natural" v="water" />
		<tag k="ssr:stedsnr" v="826324" />
		<tag k="water" v="pond" />
	</node>
	<node id="-471468" lat="60.1969366047" lon="5.37043575361">
		<tag k="name" v="Langavatnet" />
		<tag k="natural" v="water" />
		<tag k="ssr:stedsnr" v="429764" />
	</node>
	<node id="-470955" lat="60.2783777738" lon="5.49313055235">
		<tag k="name" v="Langaneset" />
		<tag k="natural" v="cape" />
		<tag k="ssr:stedsnr" v="340338" />
	</node>
	<node id="-471465" lat="60.2007333305" lon="5.38235000727">
		<tag k="name" v="Vikelva" />
		<tag k="ssr:stedsnr" v="429742" />
		<tag k="waterway" v="stream" />
	</node>
	<node id="-471452" lat="60.2653536196" lon="5.48927157967">
		<tag k="name" v="Ytsta Raudlivatnet" />
		<tag k="natural" v="water" />
		<tag k="ssr:stedsnr" v="248294" />
		<tag k="water" v="lake" />
	</node>
	<node id="-471451" lat="60.259658336" lon="5.5230500078">
		<tag k="name" v="Steindalselva" />
		<tag k="ssr:stedsnr" v="248283" />
		<tag k="waterway" v="stream" />
	</node>
	<node id="-471364" lat="60.2810361137" lon="5.50103332776">
		<tag k="name" v="Sølverelva" />
		<tag k="ssr:stedsnr" v="187236" />
		<tag k="waterway" v="stream" />
	</node>
	<node id="-470932" lat="60.1992343227" lon="5.46252049001">
		<tag k="name" v="Banktjørna" />
		<tag k="natural" v="water" />
		<tag k="ssr:stedsnr" v="308742" />
	</node>
	<node id="-470931" lat="60.2363000006" lon="5.47701944476">
		<tag k="name" v="Hundabekken" />
		<tag k="ssr:stedsnr" v="308178" />
		<tag k="waterway" v="stream" />
	</node>
	<node id="-471953" lat="60.277463518" lon="5.50371848765">
		<tag k="name" v="Insta Raudlitjørna" />
		<tag k="natural" v="water" />
		<tag k="ssr:stedsnr" v="794277" />
	</node>
	<node id="-471952" lat="60.275873366" lon="5.49425753757">
		<tag k="name" v="Insta Raudlivatnet" />
		<tag k="natural" v="water" />
		<tag k="ssr:stedsnr" v="794278" />
		<tag k="water" v="lake" />
	</node>
	<node id="-471437" lat="60.2069904415" lon="5.41278389056">
		<tag k="alt_name" v="Åsavatnet" />
		<tag k="name" v="Åsatjørnane" />
		<tag k="natural" v="water" />
		<tag k="ssr:stedsnr" v="247751" />
		<tag k="water" v="lake" />
	</node>
	<node id="-471436" lat="60.2382280703" lon="5.48201888807">
		<tag k="name" v="Hundabekktjørnane" />
		<tag k="natural" v="water" />
		<tag k="ssr:stedsnr" v="247191" />
		<tag k="water" v="lake" />
	</node>
	<node id="-470923" lat="60.2776678881" lon="5.55097958276">
		<tag k="name" v="Øvredalsvatnet" />
		<tag k="natural" v="water" />
		<tag k="ssr:stedsnr" v="308269" />
		<tag k="water" v="lake" />
	</node>
	<node id="-471433" lat="60.2156194486" lon="5.47768888411">
		<tag k="alt_name" v="Tøsdalselva" />
		<tag k="name" v="Tyssdalselva" />
		<tag k="ssr:stedsnr" v="247027" />
		<tag k="waterway" v="stream" />
	</node>
	<node id="-471938" lat="60.2098099204" lon="5.46257460786">
		<tag k="name" v="Tyssdals-Sponga" />
		<tag k="natural" v="water" />
		<tag k="ssr:stedsnr" v="793795" />
	</node>
	<node id="-471937" lat="60.1976213304" lon="5.39923251044">
		<tag k="name" v="Mikkelsvatnet" />
		<tag k="natural" v="water" />
		<tag k="ssr:stedsnr" v="793780" />
	</node>
	<node id="-471419" lat="60.1877405173" lon="5.43074956795">
		<tag k="name" v="Skoltabrottjørna" />
		<tag k="natural" v="water" />
		<tag k="ssr:stedsnr" v="220457" />
	</node>
	<node id="-471417" lat="60.1825145128" lon="5.40902639436">
		<tag k="fixme" v="multiple name tags, choose one and add the other to alt_name" />
		<tag k="name" v="Irgenstjørna;Skeistjørna" />
		<tag k="natural" v="water" />
		<tag k="ssr:stedsnr" v="220434" />
	</node>
	<node id="-470900" lat="60.2148408605" lon="5.41002674184">
		<tag k="name" v="Abbedstjørna" />
		<tag k="natural" v="water" />
		<tag k="ssr:stedsnr" v="280516" />
	</node>
	<node id="-471411" lat="60.2345222231" lon="5.449963895">
		<tag k="name" v="Trosavika" />
		<tag k="natural" v="bay" />
		<tag k="ssr:stedsnr" v="220374" />
	</node>
	<node id="-470898" lat="60.1921260152" lon="5.34072546572">
		<tag k="name" v="Ballandsvatnet" />
		<tag k="natural" v="water" />
		<tag k="ssr:stedsnr" v="280464" />
		<tag k="water" v="lake" />
	</node>
	<node id="-471408" lat="60.2473147779" lon="5.49903646591">
		<tag k="name" v="Øvreeidstjørna" />
		<tag k="natural" v="water" />
		<tag k="ssr:stedsnr" v="220350" />
	</node>
	<node id="-471403" lat="60.2571139856" lon="5.52387373995">
		<tag k="name" v="Svartebottstjørna" />
		<tag k="natural" v="water" />
		<tag k="ssr:stedsnr" v="220304" />
	</node>
	<node id="-471914" lat="60.2771555572" lon="5.57499999914">
		<tag k="name" v="Glåmsdalselva" />
		<tag k="ssr:stedsnr" v="766302" />
		<tag k="waterway" v="river" />
	</node>
	<node id="-471398" lat="60.2345750014" lon="5.4663722262">
		<tag k="name" v="Gåssandvatnet" />
		<tag k="natural" v="water" />
		<tag k="ssr:stedsnr" v="220033" />
		<tag k="water" v="lake" />
	</node>
	<node id="-471397" lat="60.2411999981" lon="5.47199443848">
		<tag k="name" v="Gåssandvatnet" />
		<tag k="natural" v="water" />
		<tag k="ssr:stedsnr" v="220027" />
		<tag k="water" v="lake" />
	</node>
	<node id="-471395" lat="60.2170710133" lon="5.49669607729">
		<tag k="name" v="Idlakleivtjørna" />
		<tag k="natural" v="water" />
		<tag k="ssr:stedsnr" v="219360" />
	</node>
	<node id="-470880" lat="60.2592483102" lon="5.53249758775">
		<tag k="name" v="Tjørnane" />
		<tag k="natural" v="water" />
		<tag k="ssr:stedsnr" v="280343" />
		<tag k="water" v="lake" />
	</node>
	<node id="-471184" lat="60.2288472186" lon="5.54313611085">
		<tag k="name" v="Tveitavatnet" />
		<tag k="natural" v="water" />
		<tag k="ssr:stedsnr" v="37338" />
		<tag k="water" v="lake" />
	</node>
	<node id="-470877" lat="60.1834320089" lon="5.43955378523">
		<tag k="name" v="Havrheitjørna" />
		<tag k="natural" v="water" />
		<tag k="ssr:stedsnr" v="280315" />
	</node>
	<node id="-470875" lat="60.2715055581" lon="5.48977778623">
		<tag k="name" v="Raudlistraumen" />
		<tag k="natural" v="strait" />
		<tag k="ssr:stedsnr" v="280296" />
	</node>
	<node id="-470873" lat="60.2281027749" lon="5.43806389211">
		<tag k="name" v="Grønavika" />
		<tag k="natural" v="bay" />
		<tag k="ssr:stedsnr" v="280291" />
	</node>
	<node id="-471893" lat="60.2262556352" lon="5.37877173347">
		<tag k="name" v="Lomatjørna" />
		<tag k="natural" v="water" />
		<tag k="ssr:stedsnr" v="765298" />
	</node>
	<node id="-471890" lat="60.2100924342" lon="5.50302615052">
		<tag k="name" v="Gottjørna" />
		<tag k="natural" v="water" />
		<tag k="ssr:stedsnr" v="765295" />
	</node>
	<node id="-470860" lat="60.2094083365" lon="5.38841667073">
		<tag k="name" v="Søvikelva" />
		<tag k="ssr:stedsnr" v="280217" />
		<tag k="waterway" v="river" />
	</node>
	<node id="-470852" lat="60.239772222" lon="5.47422222022">
		<tag k="name" v="Gåssandvatnet" />
		<tag k="natural" v="water" />
		<tag k="ssr:stedsnr" v="280022" />
		<tag k="water" v="lake" />
	</node>
	<node id="-471093" lat="60.2740666668" lon="5.55083333802">
		<tag k="name" v="Brakaneset" />
		<tag k="natural" v="cape" />
		<tag k="ssr:stedsnr" v="887297" />
	</node>
	<node id="-471867" lat="60.2252058157" lon="5.3926453149">
		<tag k="name" v="Holevatnet" />
		<tag k="natural" v="water" />
		<tag k="ssr:stedsnr" v="733857" />
	</node>
	<node id="-470921" lat="60.2794472224" lon="5.59049722451">
		<tag k="name" v="Strandaelva" />
		<tag k="ssr:stedsnr" v="308265" />
		<tag k="waterway" v="stream" />
	</node>
	<node id="-472030" lat="60.1906812182" lon="5.36685428642">
		<tag k="name" v="Mørkatjørna" />
		<tag k="natural" v="water" />
		<tag k="ssr:stedsnr" v="854752" />
	</node>
	<node id="-471858" lat="60.1977611135" lon="5.47294165907">
		<tag k="name" v="Oselva" />
		<tag k="ssr:stedsnr" v="733142" />
		<tag k="waterway" v="river" />
	</node>
	<node id="-471854" lat="60.2217954496" lon="5.38905308574">
		<tag k="name" v="Pøyla" />
		<tag k="natural" v="water" />
		<tag k="ssr:stedsnr" v="732839" />
	</node>
	<node id="-471339" lat="60.1914694432" lon="5.47148611885">
		<tag k="name" v="Oselva" />
		<tag k="ssr:stedsnr" v="159445" />
		<tag k="waterway" v="river" />
	</node>
	<node id="-471334" lat="60.2501880037" lon="5.53952570141">
		<tag k="name" v="Stemmetjørna" />
		<tag k="natural" v="water" />
		<tag k="ssr:stedsnr" v="159382" />
	</node>
	<node id="-471845" lat="60.2398231787" lon="5.47717471143">
		<tag k="name" v="Mørkevågen" />
		<tag k="natural" v="bay" />
		<tag k="ssr:stedsnr" v="705549" />
	</node>
	<node id="-470866" lat="60.1971055567" lon="5.43152221659">
		<tag k="name" v="Ulvenvatnet" />
		<tag k="natural" v="water" />
		<tag k="ssr:stedsnr" v="280254" />
		<tag k="water" v="lake" />
	</node>
	<node id="-471326" lat="60.2455000034" lon="5.47641389493">
		<tag k="name" v="Gåssandvatnet" />
		<tag k="natural" v="water" />
		<tag k="ssr:stedsnr" v="159324" />
		<tag k="water" v="lake" />
	</node>
	<node id="-471323" lat="60.2157583344" lon="5.4301055634">
		<tag k="name" v="Kvernavika" />
		<tag k="natural" v="bay" />
		<tag k="ssr:stedsnr" v="159309" />
	</node>
	<node id="-471322" lat="60.2806472229" lon="5.5488361077">
		<tag k="name" v="Ramsneset" />
		<tag k="natural" v="cape" />
		<tag k="ssr:stedsnr" v="159308" />
	</node>
	<node id="-471319" lat="60.2487804219" lon="5.50795267717">
		<tag k="name" v="Rundatjørna" />
		<tag k="natural" v="water" />
		<tag k="ssr:stedsnr" v="159268" />
	</node>
	<node id="-471825" lat="60.2666939434" lon="5.53375365559">
		<tag k="name" v="Langaneset" />
		<tag k="natural" v="cape" />
		<tag k="ssr:stedsnr" v="705340" />
	</node>
	<node id="-471824" lat="60.2438312271" lon="5.41161458141">
		<tag k="name" v="Mørkatjørna" />
		<tag k="natural" v="water" />
		<tag k="ssr:stedsnr" v="705336" />
	</node>
	<node id="-471299" lat="60.246166669" lon="5.479955548">
		<tag k="name" v="Klubben" />
		<tag k="natural" v="cape" />
		<tag k="ssr:stedsnr" v="126193" />
	</node>
	<node id="-471792" lat="60.2581985356" lon="5.53819410334">
		<tag k="name" v="Svartatjørna" />
		<tag k="natural" v="water" />
		<tag k="ssr:stedsnr" v="673317" />
	</node>
	<node id="-471779" lat="60.2018256198" lon="5.44324196433">
		<tag k="name" v="Mørkatjørna" />
		<tag k="natural" v="water" />
		<tag k="ssr:stedsnr" v="672749" />
	</node>
	<node id="-471778" lat="60.2453665595" lon="5.50273366866">
		<tag k="name" v="Svartatjørna" />
		<tag k="natural" v="water" />
		<tag k="ssr:stedsnr" v="672189" />
	</node>
	<node id="-471773" lat="60.2266912861" lon="5.44990151914">
		<tag k="name" v="Gåsakilen" />
		<tag k="natural" v="water" />
		<tag k="ssr:stedsnr" v="671860" />
	</node>
	<node id="-471770" lat="60.1928250023" lon="5.43683332658">
		<tag k="name" v="Ulvenvatnet" />
		<tag k="natural" v="water" />
		<tag k="ssr:stedsnr" v="671787" />
		<tag k="water" v="lake" />
	</node>
	<node id="-471254" lat="60.2575129959" lon="5.5313984897">
		<tag k="name" v="Instatjørna" />
		<tag k="natural" v="water" />
		<tag k="ssr:stedsnr" v="98220" />
	</node>
	<node id="-471252" lat="60.1906138858" lon="5.36110000146">
		<tag k="name" v="Langavasselva" />
		<tag k="ssr:stedsnr" v="98453" />
		<tag k="waterway" v="river" />
	</node>
	<node id="-471248" lat="60.2739378524" lon="5.49429409783">
		<tag k="name" v="Sineset" />
		<tag k="natural" v="cape" />
		<tag k="ssr:stedsnr" v="98309" />
	</node>
	<node id="-471247" lat="60.2223777751" lon="5.46200833586">
		<tag k="name" v="Teinavika" />
		<tag k="natural" v="bay" />
		<tag k="ssr:stedsnr" v="98302" />
	</node>
	<node id="-471246" lat="60.2203527772" lon="5.43274167521">
		<tag k="name" v="Teinavika" />
		<tag k="natural" v="bay" />
		<tag k="ssr:stedsnr" v="98299" />
	</node>
	<node id="-471240" lat="60.280044448" lon="5.55118888567">
		<tag k="name" v="Slåtteneset" />
		<tag k="natural" v="cape" />
		<tag k="ssr:stedsnr" v="98264" />
	</node>
	<node id="-471237" lat="60.2537138502" lon="5.47350926624">
		<tag k="name" v="Lona" />
		<tag k="natural" v="water" />
		<tag k="ssr:stedsnr" v="98015" />
		<tag k="water" v="lake" />
	</node>
	<node id="-471328" lat="60.2242000003" lon="5.46213888756">
		<tag k="name" v="Hatlevika" />
		<tag k="natural" v="bay" />
		<tag k="ssr:stedsnr" v="159340" />
	</node>
	<node id="-471741" lat="60.2416833339" lon="5.48624444699">
		<tag k="name" v="Stokkedalselva" />
		<tag k="ssr:stedsnr" v="644304" />
		<tag k="waterway" v="river" />
	</node>
	<node id="-471731" lat="60.253408335" lon="5.44842499136">
		<tag k="name" v="Botnabekken" />
		<tag k="ssr:stedsnr" v="644009" />
		<tag k="waterway" v="stream" />
	</node>
	<node id="-471730" lat="60.2280722235" lon="5.40558056277">
		<tag k="name" v="Klosterelva" />
		<tag k="ssr:stedsnr" v="644005" />
		<tag k="waterway" v="river" />
	</node>
	<node id="-471211" lat="60.1883472229" lon="5.45766389449">
		<tag k="name" v="Kvernelva" />
		<tag k="ssr:stedsnr" v="38485" />
		<tag k="waterway" v="river" />
	</node>
	<node id="-471718" lat="60.2518083327" lon="5.48842499369">
		<tag k="name" v="Sagelva" />
		<tag k="ssr:stedsnr" v="613612" />
		<tag k="waterway" v="river" />
	</node>
	<node id="-471205" lat="60.2691472258" lon="5.54756110388">
		<tag k="name" v="Midtseterelva" />
		<tag k="ssr:stedsnr" v="38319" />
		<tag k="waterway" v="river" />
	</node>
	<node id="-471715" lat="60.2567263335" lon="5.51504787796">
		<tag k="name" v="Krokvatnet" />
		<tag k="natural" v="water" />
		<tag k="ssr:stedsnr" v="612316" />
		<tag k="water" v="lake" />
	</node>
	<node id="-471706" lat="60.2182722208" lon="5.40263611126">
		<tag k="name" v="Sjøbøelva" />
		<tag k="ssr:stedsnr" v="611874" />
		<tag k="waterway" v="stream" />
	</node>
	<node id="-471705" lat="60.2460361089" lon="5.440666674">
		<tag k="name" v="Teinebekken" />
		<tag k="ssr:stedsnr" v="611844" />
		<tag k="waterway" v="stream" />
	</node>
	<node id="-471699" lat="60.214883687" lon="5.42575405412">
		<tag k="name" v="Kvernatjørna" />
		<tag k="natural" v="water" />
		<tag k="ssr:stedsnr" v="611792" />
	</node>
	<node id="-471696" lat="60.2400916692" lon="5.53696944125">
		<tag k="name" v="Spannsteigselva" />
		<tag k="old_name" v="Gjemna;Gjefna" />
		<tag k="ssr:stedsnr" v="611188" />
		<tag k="waterway" v="stream" />
	</node>
	<node id="-471692" lat="60.2158111137" lon="5.51897777381">
		<tag k="name" v="Hegglandsvatnet" />
		<tag k="natural" v="water" />
		<tag k="ssr:stedsnr" v="611032" />
		<tag k="water" v="lake" />
	</node>
	<node id="-471687" lat="60.2208444427" lon="5.5305388849">
		<tag k="name" v="Tveitavatnet" />
		<tag k="natural" v="water" />
		<tag k="ssr:stedsnr" v="583511" />
		<tag k="water" v="lake" />
	</node>
	<node id="-471489" lat="60.2036755388" lon="5.35144067092">
		<tag k="name" v="Drangsvatnet" />
		<tag k="natural" v="water" />
		<tag k="ssr:stedsnr" v="462008" />
		<tag k="water" v="lake" />
	</node>
	<node id="-471169" lat="60.2439546302" lon="5.40884539344">
		<tag k="name" v="Blomlitjørna" />
		<tag k="natural" v="water" />
		<tag k="ssr:stedsnr" v="37238" />
	</node>
	<node id="-472085" lat="60.220194445" lon="5.38956943885">
		<tag k="name" v="Sjøbøelva" />
		<tag k="ssr:stedsnr" v="948035" />
		<tag k="waterway" v="river" />
	</node>
	<node id="-471159" lat="60.2339805537" lon="5.46098888006">
		<tag k="name" v="Gåssandvatnet" />
		<tag k="natural" v="water" />
		<tag k="ssr:stedsnr" v="5844" />
		<tag k="water" v="lake" />
	</node>
	<node id="-471155" lat="60.3050472197" lon="5.57057500047">
		<tag k="name" v="Utløelva" />
		<tag k="ssr:stedsnr" v="5244" />
		<tag k="waterway" v="stream" />
	</node>
	<node id="-471663" lat="60.2392972226" lon="5.46013055671">
		<tag k="name" v="Oselva" />
		<tag k="ssr:stedsnr" v="583308" />
		<tag k="waterway" v="river" />
	</node>
	<node id="-471138" lat="60.1903596339" lon="5.38944917774">
		<tag k="name" v="Hovlandsvatnet" />
		<tag k="natural" v="water" />
		<tag k="ssr:stedsnr" v="4779" />
	</node>
	<node id="-471133" lat="60.2748902791" lon="5.49958211878">
		<tag k="name" v="Ytsta Raudlitjørna" />
		<tag k="natural" v="water" />
		<tag k="ssr:stedsnr" v="991171" />
	</node>
	<node id="-471640" lat="60.2576861085" lon="5.48367500827">
		<tag k="name" v="Nordelva" />
		<tag k="ssr:stedsnr" v="552650" />
		<tag k="waterway" v="river" />
	</node>
	<node id="-471637" lat="60.225577896" lon="5.44024263266">
		<tag k="name" v="Vinddalsvatnet" />
		<tag k="natural" v="water" />
		<tag k="ssr:stedsnr" v="551886" />
		<tag k="water" v="lake" />
	</node>
	<node id="-471480" lat="60.1427935804" lon="5.44314910666">
		<tag k="name" v="Bjørnavatnet" />
		<tag k="natural" v="water" />
		<tag k="ssr:stedsnr" v="430980" />
	</node>
	<node id="-471118" lat="60.2552638753" lon="5.43927294707">
		<tag k="name" v="Røykenesvatnet" />
		<tag k="natural" v="water" />
		<tag k="ssr:stedsnr" v="324090" />
		<tag k="water" v="lake" />
	</node>
	<node id="-471617" lat="60.2265833378" lon="5.54047500464">
		<tag k="name" v="Tveitavatnet" />
		<tag k="natural" v="water" />
		<tag k="ssr:stedsnr" v="550050" />
		<tag k="water" v="lake" />
	</node>
	<node id="-471103" lat="60.1646951029" lon="5.4411133914">
		<tag k="name" v="Lekvenvatnet" />
		<tag k="natural" v="water" />
		<tag k="ssr:stedsnr" v="887368" />
		<tag k="water" v="lake" />
	</node>
	<node id="-471612" lat="60.2226944434" lon="5.51503055795">
		<tag k="name" v="Kvernelva" />
		<tag k="ssr:stedsnr" v="523568" />
		<tag k="waterway" v="river" />
	</node>
	<node id="-471099" lat="60.1705611143" lon="5.41372222376">
		<tag k="name" v="Døsjaelva" />
		<tag k="ssr:stedsnr" v="887338" />
		<tag k="waterway" v="river" />
	</node>
	<node id="-471098" lat="60.2822742288" lon="5.53018937055">
		<tag k="name" v="Lammadiket" />
		<tag k="natural" v="water" />
		<tag k="ssr:stedsnr" v="887324" />
		<tag k="water" v="pond" />
	</node>
	<node id="-471605" lat="60.1706132504" lon="5.34320245457">
		<tag k="name" v="Strønevatnet" />
		<tag k="natural" v="water" />
		<tag k="ssr:stedsnr" v="523512" />
		<tag k="water" v="lake" />
	</node>
	<node id="-472116" lat="60.1960361104" lon="5.47701389464">
		<tag k="name" v="Vallaelva" />
		<tag k="ssr:stedsnr" v="948553" />
		<tag k="waterway" v="river" />
	</node>
	<node id="-472114" lat="60.1535444471" lon="5.33542222901">
		<tag k="name" v="Ervikabekken" />
		<tag k="ssr:stedsnr" v="948528" />
		<tag k="waterway" v="stream" />
	</node>
	<node id="-471598" lat="60.2321615895" lon="5.44227923603">
		<tag k="name" v="Rugdaneset" />
		<tag k="natural" v="cape" />
		<tag k="ssr:stedsnr" v="523351" />
	</node>
	<node id="-471593" lat="60.2161250033" lon="5.44933055641">
		<tag k="name" v="Brandneset" />
		<tag k="natural" v="cape" />
		<tag k="ssr:stedsnr" v="523315" />
	</node>
	<node id="-471587" lat="60.2124083341" lon="5.45417777703">
		<tag k="name" v="Hetlestraumen" />
		<tag k="natural" v="strait" />
		<tag k="ssr:stedsnr" v="523288" />
	</node>
	<node id="-472098" lat="60.1582927506" lon="5.39315363498">
		<tag k="name" v="Lepsøyvatnet" />
		<tag k="natural" v="water" />
		<tag k="ssr:stedsnr" v="948373" />
		<tag k="water" v="lake" />
	</node>
	<node id="-472096" lat="60.2275638889" lon="5.54173055458">
		<tag k="name" v="Tveitaholmen" />
		<tag k="place" v="islet" />
		<tag k="ssr:stedsnr" v="948364" />
	</node>
	<node id="-472095" lat="60.2292638849" lon="5.46063889378">
		<tag k="name" v="Storestraumen" />
		<tag k="natural" v="strait" />
		<tag k="ssr:stedsnr" v="948353" />
	</node>
	<node id="-471070" lat="60.228950003" lon="5.46142500515">
		<tag k="name" v="Søra Straumsvika" />
		<tag k="natural" v="bay" />
		<tag k="ssr:stedsnr" v="402500" />
	</node>
	<node id="-471577" lat="60.2000077417" lon="5.51944139955">
		<tag k="name" v="Lonaelva" />
		<tag k="ssr:stedsnr" v="523033" />
		<tag k="waterway" v="river" />
	</node>
	<node id="-471576" lat="60.2439472207" lon="5.44222500189">
		<tag k="name" v="Oselva" />
		<tag k="ssr:stedsnr" v="523028" />
		<tag k="waterway" v="river" />
	</node>
	<node id="-471573" lat="60.1485285682" lon="5.41888820272">
		<tag k="name" v="Iglavatnet" />
		<tag k="natural" v="water" />
		<tag k="ssr:stedsnr" v="523008" />
	</node>
	<node id="-472084" lat="60.2416666623" lon="5.45389444307">
		<tag k="name" v="Oselva" />
		<tag k="ssr:stedsnr" v="948016" />
		<tag k="waterway" v="river" />
	</node>
	<node id="-472071" lat="60.3219635646" lon="5.55192223829">
		<tag k="name" v="Langetjørnane" />
		<tag k="natural" v="water" />
		<tag k="ssr:stedsnr" v="931045" />
		<tag k="water" v="lake" />
	</node>
	<node id="-472070" lat="60.2661623474" lon="5.5304052251">
		<tag k="name" v="Steindalsvatnet" />
		<tag k="natural" v="water" />
		<tag k="ssr:stedsnr" v="916328" />
		<tag k="water" v="lake" />
	</node>
	<node id="-471043" lat="60.2335925329" lon="5.4648760303">
		<tag k="name" v="Sandholmen" />
		<tag k="place" v="islet" />
		<tag k="ssr:stedsnr" v="401298" />
	</node>
</osm>
