<?xml version="1.0" encoding="UTF-8"?>
<osm generator="osmapis" version="0.6">
	<node id="-471550" lat="60.2633555516" lon="5.5732750007">
		<tag k="name" v="Sandbrekka" />
		<tag k="place" v="farm" />
		<tag k="ssr:stedsnr" v="491311" />
	</node>
	<node id="-472061" lat="60.187719444" lon="5.35654722476">
		<tag k="name" v="Eidsvika" />
		<tag k="place" v="isolated_dwelling" />
		<tag k="ssr:stedsnr" v="915755" />
	</node>
	<node id="-472059" lat="60.2870505958" lon="5.55317422713">
		<tag k="fixme" v="consider place=hamlet" />
		<tag k="name" v="Øvredalen" />
		<tag k="place" v="farm" />
		<tag k="ssr:stedsnr" v="915232" />
	</node>
	<node id="-471546" lat="60.1661920314" lon="5.41937222885">
		<tag k="fixme" v="consider place=hamlet" />
		<tag k="name" v="Storom" />
		<tag k="place" v="farm" />
		<tag k="ssr:stedsnr" v="490795" />
	</node>
	<node id="-471545" lat="60.2783361077" lon="5.60120000204">
		<tag k="name" v="Sørbakken" />
		<tag k="place" v="farm" />
		<tag k="ssr:stedsnr" v="490284" />
	</node>
	<node id="-471031" lat="60.2394416684" lon="5.45234721954">
		<tag k="name" v="Søfteland" />
		<tag k="place" v="farm" />
		<tag k="ssr:stedsnr" v="384836" />
	</node>
	<node id="-471030" lat="60.2389055576" lon="5.44282500302">
		<tag k="name" v="Søfteland" />
		<tag k="place" v="farm" />
		<tag k="ssr:stedsnr" v="384832" />
	</node>
	<node id="-471029" lat="60.2371222225" lon="5.44756945093">
		<tag k="name" v="Søfteland" />
		<tag k="place" v="farm" />
		<tag k="ssr:stedsnr" v="384770" />
	</node>
	<node id="-471028" lat="60.2377138879" lon="5.44737778122">
		<tag k="name" v="Søfteland" />
		<tag k="place" v="farm" />
		<tag k="ssr:stedsnr" v="384768" />
	</node>
	<node id="-471536" lat="60.239555557" lon="5.49269443596">
		<tag k="historic" v="shieling" />
		<tag k="name" v="Stokkedalssetra" />
		<tag k="place" v="locality" />
		<tag k="ssr:stedsnr" v="462475" />
	</node>
	<node id="-471023" lat="60.2689750033" lon="5.58069721679">
		<tag k="name" v="Bogavika" />
		<tag k="place" v="farm" />
		<tag k="ssr:stedsnr" v="369270" />
	</node>
	<node id="-472046" lat="60.2380388877" lon="5.44998889063">
		<tag k="name" v="Søfteland" />
		<tag k="place" v="farm" />
		<tag k="ssr:stedsnr" v="870848" />
	</node>
	<node id="-472045" lat="60.2375555547" lon="5.45212777232">
		<tag k="name" v="Søfteland" />
		<tag k="place" v="farm" />
		<tag k="ssr:stedsnr" v="870774" />
	</node>
	<node id="-472044" lat="60.2333472227" lon="5.45249444364">
		<tag k="name" v="Søfteland" />
		<tag k="place" v="farm" />
		<tag k="ssr:stedsnr" v="870771" />
	</node>
	<node id="-472042" lat="60.2853583337" lon="5.54701944305">
		<tag k="name" v="Øvredalstrædet" />
		<tag k="place" v="farm" />
		<tag k="ssr:stedsnr" v="855262" />
	</node>
	<node id="-471015" lat="60.2162951012" lon="5.44065225272">
		<tag k="fixme" v="consider place=hamlet" />
		<tag k="name" v="Hetlefloten" />
		<tag k="place" v="farm" />
		<tag k="ssr:stedsnr" v="368877" />
	</node>
	<node id="-471012" lat="60.1860083351" lon="5.45105277787">
		<tag k="alt_name" v="Mobergstølane;Stølane" />
		<tag k="name" v="Mobergsstølane" />
		<tag k="place" v="farm" />
		<tag k="ssr:stedsnr" v="368845" />
	</node>
	<node id="-471011" lat="60.1846267828" lon="5.46907179639">
		<tag k="name" v="Osøyro" />
		<tag k="place" v="village" />
		<tag k="ssr:stedsnr" v="368844" />
	</node>
	<node id="-471010" lat="60.1724715247" lon="5.42163354137">
		<tag k="fixme" v="consider place=hamlet" />
		<tag k="name" v="Døsa" />
		<tag k="place" v="farm" />
		<tag k="ssr:stedsnr" v="368835" />
	</node>
	<node id="-472032" lat="60.1644379287" lon="5.42482062917">
		<tag k="alt_name" v="Særvold" />
		<tag k="fixme" v="consider place=hamlet" />
		<tag k="name" v="Særvoll" />
		<tag k="place" v="farm" />
		<tag k="ssr:stedsnr" v="854778" />
	</node>
	<node id="-471007" lat="60.2091138877" lon="5.44468888724">
		<tag k="name" v="Nygard" />
		<tag k="place" v="farm" />
		<tag k="ssr:stedsnr" v="368812" />
	</node>
	<node id="-472026" lat="60.2089888868" lon="5.53362499153">
		<tag k="name" v="Berge" />
		<tag k="place" v="farm" />
		<tag k="ssr:stedsnr" v="854021" />
	</node>
	<node id="-471119" lat="60.1515569432" lon="5.43329316154">
		<tag k="alt_name" v="Halhjem" />
		<tag k="fixme" v="consider place=hamlet" />
		<tag k="name" v="Haljem" />
		<tag k="place" v="farm" />
		<tag k="ssr:stedsnr" v="981453" />
	</node>
	<node id="-471000" lat="60.2048305519" lon="5.52655277564">
		<tag k="name" v="Lonane" />
		<tag k="place" v="isolated_dwelling" />
		<tag k="ssr:stedsnr" v="368015" />
	</node>
	<node id="-472020" lat="60.2217277741" lon="5.52502221676">
		<tag k="name" v="Heggland" />
		<tag k="place" v="farm" />
		<tag k="ssr:stedsnr" v="827525" />
	</node>
	<node id="-472018" lat="60.1612416648" lon="5.4415388878">
		<tag k="amenity" v="school" />
		<tag k="name" v="Søre Neset skule" />
		<tag k="ssr:stedsnr" v="827514" />
	</node>
	<node id="-472007" lat="60.1944555558" lon="5.450683339">
		<tag k="amenity" v="sports_centre" />
		<tag k="name" v="Os idrettshall" />
		<tag k="ssr:stedsnr" v="827441" />
	</node>
	<node id="-472005" lat="60.1810333376" lon="5.39704722141">
		<tag k="name" v="Hagavik" />
		<tag k="place" v="farm" />
		<tag k="ssr:stedsnr" v="827423" />
	</node>
	<node id="-472003" lat="60.1787666628" lon="5.41087499157">
		<tag k="amenity" v="school" />
		<tag k="name" v="Nore Neset skule" />
		<tag k="ssr:stedsnr" v="827413" />
	</node>
	<node id="-470974" lat="60.2121888878" lon="5.3898749921">
		<tag k="leisure" v="pitch" />
		<tag k="name" v="Idrettsplass" />
		<tag k="ssr:stedsnr" v="341355" />
	</node>
	<node id="-470970" lat="60.2606583296" lon="5.47688333042">
		<tag k="historic" v="shieling" />
		<tag k="name" v="Halvardsstølen" />
		<tag k="place" v="locality" />
		<tag k="ssr:stedsnr" v="341330" />
	</node>
	<node id="-471455" lat="60.2361861121" lon="5.44533055965">
		<tag k="name" v="Søfteland" />
		<tag k="place" v="farm" />
		<tag k="ssr:stedsnr" v="263861" />
	</node>
	<node id="-471989" lat="60.2430583379" lon="5.55594722548">
		<tag k="historic" v="shieling" />
		<tag k="name" v="Stølskleiva" />
		<tag k="place" v="locality" />
		<tag k="ssr:stedsnr" v="826364" />
	</node>
	<node id="-470964" lat="60.1913222181" lon="5.49101111908">
		<tag k="name" v="Midtbø" />
		<tag k="place" v="farm" />
		<tag k="ssr:stedsnr" v="341292" />
	</node>
	<node id="-471454" lat="60.238219449" lon="5.44200834062">
		<tag k="name" v="Søfteland" />
		<tag k="place" v="farm" />
		<tag k="ssr:stedsnr" v="263851" />
	</node>
	<node id="-471472" lat="60.1773499965" lon="5.40307499452">
		<tag k="name" v="Hagavik" />
		<tag k="place" v="farm" />
		<tag k="ssr:stedsnr" v="429812" />
	</node>
	<node id="-471983" lat="60.2658916708" lon="5.48246666822">
		<tag k="historic" v="shieling" />
		<tag k="name" v="Jonasetra" />
		<tag k="place" v="locality" />
		<tag k="ssr:stedsnr" v="826337" />
	</node>
	<node id="-470957" lat="60.2157694474" lon="5.48007499216">
		<tag k="historic" v="shieling" />
		<tag k="name" v="Botnastølen" />
		<tag k="place" v="locality" />
		<tag k="ssr:stedsnr" v="340360" />
	</node>
	<node id="-471466" lat="60.1996416713" lon="5.36420000409">
		<tag k="alt_name" v="Drange, in;Indra Drange" />
		<tag k="name" v="Indre Drange" />
		<tag k="place" v="farm" />
		<tag k="ssr:stedsnr" v="429745" />
	</node>
	<node id="-471976" lat="60.2113166631" lon="5.38884165874">
		<tag k="amenity" v="school" />
		<tag k="name" v="Lysekloster barneskule" />
		<tag k="old_name" v="Lysekloster skule" />
		<tag k="ssr:stedsnr" v="826301" />
	</node>
	<node id="-471463" lat="60.1932758554" lon="5.51520874676">
		<tag k="fixme" v="consider place=hamlet" />
		<tag k="name" v="Bjånes" />
		<tag k="place" v="farm" />
		<tag k="ssr:stedsnr" v="429083" />
	</node>
	<node id="-471462" lat="60.2356156046" lon="5.54715288105">
		<tag k="fixme" v="consider place=hamlet" />
		<tag k="name" v="Møs" />
		<tag k="place" v="farm" />
		<tag k="ssr:stedsnr" v="429055" />
	</node>
	<node id="-471461" lat="60.2185662842" lon="5.51862302547">
		<tag k="fixme" v="consider place=hamlet" />
		<tag k="name" v="Heggland" />
		<tag k="place" v="farm" />
		<tag k="ssr:stedsnr" v="429037" />
	</node>
	<node id="-471460" lat="60.1987000026" lon="5.44132221785">
		<tag k="name" v="Kolskogen" />
		<tag k="place" v="quarter" />
		<tag k="ssr:stedsnr" v="421917" />
	</node>
	<node id="-470943" lat="60.239875004" lon="5.4527527738">
		<tag k="name" v="Søfteland" />
		<tag k="place" v="farm" />
		<tag k="ssr:stedsnr" v="324843" />
	</node>
	<node id="-470942" lat="60.2375833291" lon="5.43887778695">
		<tag k="name" v="Søfteland" />
		<tag k="place" v="farm" />
		<tag k="ssr:stedsnr" v="324840" />
	</node>
	<node id="-470941" lat="60.2370305548" lon="5.45482777591">
		<tag k="name" v="Søfteland" />
		<tag k="place" v="farm" />
		<tag k="ssr:stedsnr" v="324770" />
	</node>
	<node id="-470940" lat="60.2600472238" lon="5.48057777382">
		<tag k="alt_name" v="Hattelia" />
		<tag k="name" v="Hatlelia" />
		<tag k="place" v="farm" />
		<tag k="ssr:stedsnr" v="309323" />
	</node>
	<node id="-471963" lat="60.1699333344" lon="5.40818056337">
		<tag k="name" v="Leiro" />
		<tag k="place" v="farm" />
		<tag k="ssr:stedsnr" v="814098" />
	</node>
	<node id="-470937" lat="60.1614381698" lon="5.44624427419">
		<tag k="fixme" v="consider place=hamlet" />
		<tag k="name" v="Lunde" />
		<tag k="place" v="farm" />
		<tag k="ssr:stedsnr" v="308948" />
	</node>
	<node id="-471960" lat="60.2378000007" lon="5.44641943629">
		<tag k="name" v="Søfteland" />
		<tag k="place" v="farm" />
		<tag k="ssr:stedsnr" v="809777" />
	</node>
	<node id="-470934" lat="60.2477502749" lon="5.43874493345">
		<tag k="name" v="Kampen" />
		<tag k="place" v="farm" />
		<tag k="ssr:stedsnr" v="308829" />
	</node>
	<node id="-471961" lat="60.2355555582" lon="5.44678610226">
		<tag k="name" v="Søfteland" />
		<tag k="place" v="farm" />
		<tag k="ssr:stedsnr" v="809778" />
	</node>
	<node id="-471444" lat="60.2234416677" lon="5.39574443702">
		<tag k="name" v="Rindedal" />
		<tag k="place" v="farm" />
		<tag k="ssr:stedsnr" v="247828" />
	</node>
	<node id="-471443" lat="60.2410744912" lon="5.45032729959">
		<tag k="fixme" v="consider place=hamlet" />
		<tag k="name" v="Sæla" />
		<tag k="place" v="farm" />
		<tag k="ssr:stedsnr" v="247807" />
	</node>
	<node id="-471954" lat="60.2704361135" lon="5.54177222459">
		<tag k="name" v="Kleiva" />
		<tag k="place" v="farm" />
		<tag k="ssr:stedsnr" v="794279" />
	</node>
	<node id="-471441" lat="60.1660747732" lon="5.33968700755">
		<tag k="fixme" v="consider place=hamlet" />
		<tag k="name" v="Nordstrøno" />
		<tag k="place" v="farm" />
		<tag k="ssr:stedsnr" v="247783" />
	</node>
	<node id="-470928" lat="60.1899773093" lon="5.48525016038">
		<tag k="fixme" v="consider place=hamlet" />
		<tag k="name" v="Hauge" />
		<tag k="place" v="farm" />
		<tag k="ssr:stedsnr" v="308098" />
	</node>
	<node id="-471438" lat="60.2074500008" lon="5.4553277792">
		<tag k="name" v="Fagertun" />
		<tag k="place" v="farm" />
		<tag k="ssr:stedsnr" v="247750" />
	</node>
	<node id="-470925" lat="60.225441666" lon="5.53280832712">
		<tag k="name" v="Øvereide" />
		<tag k="place" v="farm" />
		<tag k="ssr:stedsnr" v="308043" />
	</node>
	<node id="-471191" lat="60.1673305576" lon="5.40277776868">
		<tag k="amenity" v="nursing_home" />
		<tag k="name" v="Ravneberghaugen" />
		<tag k="ssr:stedsnr" v="37358" />
	</node>
	<node id="-471432" lat="60.1987409689" lon="5.47954550171">
		<tag k="fixme" v="consider place=hamlet" />
		<tag k="name" v="Borgen" />
		<tag k="place" v="farm" />
		<tag k="ssr:stedsnr" v="247008" />
	</node>
	<node id="-470917" lat="60.205956322" lon="5.53486550598">
		<tag k="alt_name" v="Hatvik" />
		<tag k="fixme" v="consider place=hamlet" />
		<tag k="name" v="Hattvik" />
		<tag k="place" v="farm" />
		<tag k="ssr:stedsnr" v="307018" />
	</node>
	<node id="-471958" lat="60.1409899725" lon="5.44948795123">
		<tag k="fixme" v="consider place=hamlet" />
		<tag k="name" v="Bjørnen" />
		<tag k="place" v="farm" />
		<tag k="ssr:stedsnr" v="794985" />
	</node>
	<node id="-471936" lat="60.1996092876" lon="5.36647554866">
		<tag k="fixme" v="consider place=hamlet" />
		<tag k="name" v="Bjoarvika" />
		<tag k="place" v="farm" />
		<tag k="ssr:stedsnr" v="793773" />
	</node>
	<node id="-471935" lat="60.1942408577" lon="5.4926525599">
		<tag k="fixme" v="consider place=hamlet" />
		<tag k="name" v="Bø" />
		<tag k="place" v="farm" />
		<tag k="ssr:stedsnr" v="793119" />
	</node>
	<node id="-471422" lat="60.1968250001" lon="5.35356944021">
		<tag k="alt_name" v="Drange, yt" />
		<tag k="fixme" v="consider place=hamlet" />
		<tag k="name" v="Ytre Drange" />
		<tag k="place" v="farm" />
		<tag k="ssr:stedsnr" v="220472" />
	</node>
	<node id="-471929" lat="60.1976888929" lon="5.47738055353">
		<tag k="name" v="Lund" />
		<tag k="place" v="farm" />
		<tag k="ssr:stedsnr" v="766482" />
	</node>
	<node id="-471928" lat="60.1738570336" lon="5.34874630598">
		<tag k="amenity" v="school" />
		<tag k="name" v="Strøno barneskule" />
		<tag k="old_name" v="Nore Øyane" />
		<tag k="ssr:stedsnr" v="766456" />
	</node>
	<node id="-471412" lat="60.2392083326" lon="5.46211666152">
		<tag k="fixme" v="consider place=hamlet" />
		<tag k="name" v="Sanden" />
		<tag k="place" v="farm" />
		<tag k="ssr:stedsnr" v="220376" />
	</node>
	<node id="-471917" lat="60.1418027734" lon="5.36586389207">
		<tag k="name" v="Sundøyhagen" />
		<tag k="place" v="farm" />
		<tag k="ssr:stedsnr" v="766412" />
	</node>
	<node id="-471915" lat="60.1768888861" lon="5.40853334172">
		<tag k="name" v="Skeie" />
		<tag k="place" v="farm" />
		<tag k="ssr:stedsnr" v="766376" />
	</node>
	<node id="-470890" lat="60.1931777772" lon="5.46974444445">
		<tag k="name" v="Utgjerdet" />
		<tag k="place" v="farm" />
		<tag k="ssr:stedsnr" v="280396" />
	</node>
	<node id="-470889" lat="60.1946277812" lon="5.47287221575">
		<tag k="name" v="Lyssandtræet" />
		<tag k="place" v="farm" />
		<tag k="ssr:stedsnr" v="280395" />
	</node>
	<node id="-470888" lat="60.1862638892" lon="5.45721389218">
		<tag k="fixme" v="consider place=hamlet" />
		<tag k="name" v="Indre Moberg" />
		<tag k="place" v="farm" />
		<tag k="ssr:stedsnr" v="280385" />
	</node>
	<node id="-470885" lat="60.1964472213" lon="5.44087778001">
		<tag k="amenity" v="school" />
		<tag k="name" v="Os yrkesskule" />
		<tag k="ssr:stedsnr" v="280369" />
	</node>
	<node id="-471908" lat="60.2872111087" lon="5.61220555074">
		<tag k="name" v="Myra" />
		<tag k="place" v="farm" />
		<tag k="ssr:stedsnr" v="766253" />
	</node>
	<node id="-471903" lat="60.1965777785" lon="5.47348889083">
		<tag k="name" v="Lundetræet" />
		<tag k="place" v="farm" />
		<tag k="ssr:stedsnr" v="765388" />
	</node>
	<node id="-471389" lat="60.2058972208" lon="5.44228611581">
		<tag k="name" v="Vaktdal" />
		<tag k="place" v="farm" />
		<tag k="ssr:stedsnr" v="219302" />
	</node>
	<node id="-471524" lat="60.2021055587" lon="5.48201388609">
		<tag k="name" v="Hjellakråa" />
		<tag k="place" v="farm" />
		<tag k="ssr:stedsnr" v="462344" />
	</node>
	<node id="-470865" lat="60.2069472184" lon="5.44423332841">
		<tag k="name" v="Nymark" />
		<tag k="place" v="farm" />
		<tag k="ssr:stedsnr" v="280250" />
	</node>
	<node id="-471374" lat="60.2432722245" lon="5.44213055404">
		<tag k="name" v="Søfteland" />
		<tag k="place" v="farm" />
		<tag k="ssr:stedsnr" v="203790" />
	</node>
	<node id="-471373" lat="60.2401527765" lon="5.44125000798">
		<tag k="name" v="Søfteland" />
		<tag k="place" v="farm" />
		<tag k="ssr:stedsnr" v="202857" />
	</node>
	<node id="-470858" lat="60.1895138875" lon="5.48404722923">
		<tag k="name" v="Hauge" />
		<tag k="place" v="farm" />
		<tag k="ssr:stedsnr" v="280207" />
	</node>
	<node id="-470857" lat="60.1947750037" lon="5.49670278611">
		<tag k="name" v="Bøtræet" />
		<tag k="place" v="farm" />
		<tag k="ssr:stedsnr" v="280202" />
	</node>
	<node id="-471368" lat="60.2231156264" lon="5.39223504849">
		<tag k="fixme" v="consider place=hamlet" />
		<tag k="name" v="Kalvatræ" />
		<tag k="place" v="farm" />
		<tag k="ssr:stedsnr" v="187854" />
	</node>
	<node id="-471877" lat="60.2118861151" lon="5.54190277201">
		<tag k="name" v="Kilen" />
		<tag k="place" v="locality" />
		<tag k="ssr:stedsnr" v="753865" />
	</node>
	<node id="-471350" lat="60.2366083295" lon="5.56759444273">
		<tag k="name" v="Ølskåra" />
		<tag k="place" v="isolated_dwelling" />
		<tag k="ssr:stedsnr" v="186064" />
	</node>
	<node id="-471873" lat="60.2385583365" lon="5.43768611793">
		<tag k="name" v="Søfteland" />
		<tag k="place" v="farm" />
		<tag k="ssr:stedsnr" v="748866" />
	</node>
	<node id="-471872" lat="60.2369808385" lon="5.44236927935">
		<tag k="fixme" v="consider place=hamlet" />
		<tag k="name" v="Søfteland" />
		<tag k="place" v="farm" />
		<tag k="ssr:stedsnr" v="748863" />
	</node>
	<node id="-471871" lat="60.2335527821" lon="5.44063332702">
		<tag k="name" v="Søfteland" />
		<tag k="place" v="farm" />
		<tag k="ssr:stedsnr" v="748857" />
	</node>
	<node id="-471870" lat="60.2389916629" lon="5.45219166819">
		<tag k="name" v="Søfteland" />
		<tag k="place" v="farm" />
		<tag k="ssr:stedsnr" v="748796" />
	</node>
	<node id="-471349" lat="60.2195484268" lon="5.527949295">
		<tag k="name" v="Eide" />
		<tag k="place" v="hamlet" />
		<tag k="ssr:stedsnr" v="186044" />
	</node>
	<node id="-471356" lat="60.1717277809" lon="5.31394166167">
		<tag k="name" v="Skorpo" />
		<tag k="place" v="isolated_dwelling" />
		<tag k="ssr:stedsnr" v="186829" />
	</node>
	<node id="-471355" lat="60.191074841" lon="5.44548449197">
		<tag k="fixme" v="consider place=hamlet" />
		<tag k="name" v="Kuven" />
		<tag k="place" v="farm" />
		<tag k="ssr:stedsnr" v="186815" />
	</node>
	<node id="-471354" lat="60.1628999968" lon="5.33980277197">
		<tag k="name" v="Øyjorda" />
		<tag k="place" v="isolated_dwelling" />
		<tag k="ssr:stedsnr" v="186812" />
	</node>
	<node id="-472031" lat="60.2117" lon="5.44319721439">
		<tag k="name" v="Skogen" />
		<tag k="place" v="farm" />
		<tag k="ssr:stedsnr" v="854766" />
	</node>
	<node id="-471351" lat="60.1972884428" lon="5.47675474425">
		<tag k="fixme" v="consider place=hamlet" />
		<tag k="name" v="Lunden" />
		<tag k="place" v="farm" />
		<tag k="ssr:stedsnr" v="186114" />
	</node>
	<node id="-471862" lat="60.2743665876" lon="5.53865162164">
		<tag k="alt_name" v="Midtseter" />
		<tag k="fixme" v="consider place=hamlet" />
		<tag k="name" v="Midsætret" />
		<tag k="place" v="farm" />
		<tag k="ssr:stedsnr" v="733287" />
	</node>
	<node id="-471861" lat="60.2857333342" lon="5.61141944751">
		<tag k="name" v="Ospevika" />
		<tag k="place" v="farm" />
		<tag k="ssr:stedsnr" v="733248" />
	</node>
	<node id="-471348" lat="60.2008428146" lon="5.48458353462">
		<tag k="fixme" v="consider place=hamlet" />
		<tag k="name" v="Hjella" />
		<tag k="place" v="farm" />
		<tag k="ssr:stedsnr" v="186006" />
	</node>
	<node id="-471859" lat="60.2440894159" lon="5.56327893117">
		<tag k="name" v="Rød" />
		<tag k="place" v="hamlet" />
		<tag k="ssr:stedsnr" v="733194" />
	</node>
	<node id="-470920" lat="60.2753106417" lon="5.59528188629">
		<tag k="fixme" v="consider place=hamlet" />
		<tag k="name" v="Bogstranda" />
		<tag k="place" v="farm" />
		<tag k="ssr:stedsnr" v="308264" />
	</node>
	<node id="-471260" lat="60.1965944472" lon="5.50903889089">
		<tag k="name" v="Geilane" />
		<tag k="place" v="farm" />
		<tag k="ssr:stedsnr" v="98228" />
	</node>
	<node id="-471843" lat="60.160183335" lon="5.35860000629">
		<tag k="name" v="Sør Strøno" />
		<tag k="place" v="farm" />
		<tag k="ssr:stedsnr" v="705539" />
	</node>
	<node id="-471837" lat="60.1839222265" lon="5.39293332609">
		<tag k="name" v="Hovland" />
		<tag k="place" v="farm" />
		<tag k="ssr:stedsnr" v="705445" />
	</node>
	<node id="-471836" lat="60.1801055584" lon="5.39261388006">
		<tag k="amenity" v="hospital" />
		<tag k="name" v="Kysthospitalet" />
		<tag k="ssr:stedsnr" v="705432" />
	</node>
	<node id="-471834" lat="60.1985194409" lon="5.48028611751">
		<tag k="name" v="Borgen" />
		<tag k="place" v="farm" />
		<tag k="ssr:stedsnr" v="705416" />
	</node>
	<node id="-471855" lat="60.2206862924" lon="5.39188262826">
		<tag k="fixme" v="consider place=hamlet" />
		<tag k="name" v="Sjøbøen" />
		<tag k="place" v="farm" />
		<tag k="ssr:stedsnr" v="732845" />
	</node>
	<node id="-471831" lat="60.2396805596" lon="5.54372499548">
		<tag k="historic" v="shieling" />
		<tag k="name" v="Høgestølen" />
		<tag k="place" v="locality" />
		<tag k="ssr:stedsnr" v="705378" />
	</node>
	<node id="-471830" lat="60.2191027801" lon="5.45046667057">
		<tag k="name" v="Træet" />
		<tag k="place" v="farm" />
		<tag k="ssr:stedsnr" v="705361" />
	</node>
	<node id="-471829" lat="60.2366222183" lon="5.45017777187">
		<tag k="amenity" v="school" />
		<tag k="name" v="Søfteland skule" />
		<tag k="ssr:stedsnr" v="705357" />
	</node>
	<node id="-471827" lat="60.2625722259" lon="5.49950555642">
		<tag k="historic" v="shieling" />
		<tag k="name" v="Maristølen" />
		<tag k="place" v="locality" />
		<tag k="ssr:stedsnr" v="705356" />
	</node>
	<node id="-471313" lat="60.1807611108" lon="5.40145833164">
		<tag k="fixme" v="consider place=suburb, village or hamlet" />
		<tag k="name" v="Hagavik" />
		<tag k="place" v="quarter" />
		<tag k="ssr:stedsnr" v="155517" />
	</node>
	<node id="-471310" lat="60.2123730167" lon="5.38502162398">
		<tag k="fixme" v="consider place=hamlet" />
		<tag k="loc_name" v="Søvika" />
		<tag k="name" v="Søvik" />
		<tag k="place" v="farm" />
		<tag k="ssr:stedsnr" v="146052" />
	</node>
	<node id="-471309" lat="60.2250916684" lon="5.375630563">
		<tag k="name" v="Leirvågen" />
		<tag k="place" v="farm" />
		<tag k="ssr:stedsnr" v="146050" />
	</node>
	<node id="-471307" lat="60.2344416674" lon="5.44265555965">
		<tag k="name" v="Søfteland" />
		<tag k="place" v="farm" />
		<tag k="ssr:stedsnr" v="141855" />
	</node>
	<node id="-471306" lat="60.238038892" lon="5.45361944965">
		<tag k="name" v="Søfteland" />
		<tag k="place" v="farm" />
		<tag k="ssr:stedsnr" v="141759" />
	</node>
	<node id="-471814" lat="60.1474638858" lon="5.37492500226">
		<tag k="amenity" v="school" />
		<tag k="name" v="Søre Øyane barneskule" />
		<tag k="old_name" v="Søre Øyane skule" />
		<tag k="ssr:stedsnr" v="705034" />
	</node>
	<node id="-471813" lat="60.2786472264" lon="5.60153054787">
		<tag k="name" v="Sørbakken" />
		<tag k="place" v="farm" />
		<tag k="ssr:stedsnr" v="705018" />
	</node>
	<node id="-471809" lat="60.2930333365" lon="5.55790000309">
		<tag k="historic" v="shieling" />
		<tag k="name" v="Stormyrstølen" />
		<tag k="place" v="locality" />
		<tag k="ssr:stedsnr" v="704320" />
	</node>
	<node id="-471296" lat="60.1952263288" lon="5.50223422348">
		<tag k="fixme" v="consider place=hamlet" />
		<tag k="name" v="Klyva" />
		<tag k="place" v="farm" />
		<tag k="ssr:stedsnr" v="126118" />
	</node>
	<node id="-471807" lat="60.28489722" lon="5.54755833466">
		<tag k="name" v="Træ" />
		<tag k="place" v="farm" />
		<tag k="ssr:stedsnr" v="704316" />
	</node>
	<node id="-471806" lat="60.2708611104" lon="5.52639167094">
		<tag k="historic" v="shieling" />
		<tag k="name" v="Steindalssetra" />
		<tag k="place" v="locality" />
		<tag k="ssr:stedsnr" v="704306" />
	</node>
	<node id="-471293" lat="60.2086364475" lon="5.41065926831">
		<tag k="name" v="Lidarås" />
		<tag k="place" v="farm" />
		<tag k="ssr:stedsnr" v="125788" />
	</node>
	<node id="-471281" lat="60.1634638934" lon="5.33381666861">
		<tag k="name" v="Sanderstølen" />
		<tag k="place" v="farm" />
		<tag k="ssr:stedsnr" v="98498" />
	</node>
	<node id="-471791" lat="60.282291669" lon="5.60725000601">
		<tag k="name" v="Ospeneset" />
		<tag k="place" v="farm" />
		<tag k="ssr:stedsnr" v="673318" />
	</node>
	<node id="-471790" lat="60.267382428" lon="5.55723569536">
		<tag k="fixme" v="consider place=hamlet" />
		<tag k="name" v="Løyningdalen" />
		<tag k="place" v="farm" />
		<tag k="ssr:stedsnr" v="673309" />
	</node>
	<node id="-471789" lat="60.2504704884" lon="5.44395780631">
		<tag k="fixme" v="consider place=hamlet" />
		<tag k="name" v="Tømmernes" />
		<tag k="place" v="farm" />
		<tag k="ssr:stedsnr" v="672992" />
	</node>
	<node id="-471785" lat="60.2336833326" lon="5.44115833857">
		<tag k="name" v="Grønli" />
		<tag k="place" v="isolated_dwelling" />
		<tag k="ssr:stedsnr" v="672872" />
	</node>
	<node id="-471784" lat="60.2450438123" lon="5.45637796535">
		<tag k="fixme" v="consider place=hamlet" />
		<tag k="name" v="Haukeland" />
		<tag k="place" v="farm" />
		<tag k="ssr:stedsnr" v="672835" />
	</node>
	<node id="-471271" lat="60.1892472245" lon="5.46864445075">
		<tag k="amenity" v="school" />
		<tag k="name" v="Os barneskule" />
		<tag k="old_name" v="Os skule;Os" />
		<tag k="ssr:stedsnr" v="98405" />
	</node>
	<node id="-471270" lat="60.1894722233" lon="5.4578222154">
		<tag k="name" v="Kuven" />
		<tag k="place" v="farm" />
		<tag k="ssr:stedsnr" v="98399" />
	</node>
	<node id="-471777" lat="60.1969531794" lon="5.48316044611">
		<tag k="fixme" v="consider place=hamlet" />
		<tag k="name" v="Valla" />
		<tag k="place" v="farm" />
		<tag k="ssr:stedsnr" v="672111" />
	</node>
	<node id="-471775" lat="60.2223194411" lon="5.52788055799">
		<tag k="name" v="Hegglandstræ" />
		<tag k="place" v="farm" />
		<tag k="ssr:stedsnr" v="672048" />
	</node>
	<node id="-471772" lat="60.2186505069" lon="5.38669086745">
		<tag k="fixme" v="consider place=hamlet" />
		<tag k="name" v="Sørstraumen" />
		<tag k="place" v="farm" />
		<tag k="ssr:stedsnr" v="671848" />
	</node>
	<node id="-471771" lat="60.1847888886" lon="5.40949721585">
		<tag k="name" v="Hjorthaugen" />
		<tag k="place" v="farm" />
		<tag k="ssr:stedsnr" v="671795" />
	</node>
	<node id="-471258" lat="60.1964805549" lon="5.48646945305">
		<tag k="name" v="Holen" />
		<tag k="place" v="farm" />
		<tag k="ssr:stedsnr" v="98223" />
	</node>
	<node id="-471767" lat="60.209141667" lon="5.38559166676">
		<tag k="name" v="Nesjaryggen" />
		<tag k="place" v="hamlet" />
		<tag k="ssr:stedsnr" v="654795" />
	</node>
	<node id="-471760" lat="60.1895638894" lon="5.35058610315">
		<tag k="fixme" v="consider place=hamlet" />
		<tag k="name" v="Balland" />
		<tag k="place" v="farm" />
		<tag k="ssr:stedsnr" v="644482" />
	</node>
	<node id="-471755" lat="60.1943805564" lon="5.45796944639">
		<tag k="amenity" v="school" />
		<tag k="name" v="Os gymnas" />
		<tag k="ssr:stedsnr" v="644430" />
	</node>
	<node id="-471754" lat="60.1883527788" lon="5.4697861079">
		<tag k="name" v="Os" />
		<tag k="place" v="farm" />
		<tag k="ssr:stedsnr" v="644424" />
	</node>
	<node id="-471752" lat="60.1686972196" lon="5.42399166405">
		<tag k="fixme" v="consider place=hamlet" />
		<tag k="name" v="Grindevoll" />
		<tag k="place" v="farm" />
		<tag k="ssr:stedsnr" v="644376" />
	</node>
	<node id="-471235" lat="60.2858111071" lon="5.60958333467">
		<tag k="name" v="Aspevik" />
		<tag k="place" v="farm" />
		<tag k="ssr:stedsnr" v="98003" />
	</node>
	<node id="-471745" lat="60.2155805575" lon="5.38443056177">
		<tag k="name" v="Høgestølen" />
		<tag k="place" v="farm" />
		<tag k="ssr:stedsnr" v="644340" />
	</node>
	<node id="-471743" lat="60.2274305573" lon="5.39721945174">
		<tag k="fixme" v="consider place=hamlet" />
		<tag k="name" v="Lysekloster" />
		<tag k="place" v="farm" />
		<tag k="ssr:stedsnr" v="644316" />
	</node>
	<node id="-471230" lat="60.2337777743" lon="5.45254166963">
		<tag k="name" v="Søfteland" />
		<tag k="place" v="farm" />
		<tag k="ssr:stedsnr" v="81778" />
	</node>
	<node id="-471157" lat="60.2542808138" lon="5.4853275818">
		<tag k="fixme" v="consider place=hamlet" />
		<tag k="name" v="Gåssand" />
		<tag k="place" v="farm" />
		<tag k="ssr:stedsnr" v="5279" />
	</node>
	<node id="-471242" lat="60.2344388915" lon="5.45577777157">
		<tag k="name" v="Bergstø" />
		<tag k="place" v="farm" />
		<tag k="ssr:stedsnr" v="98291" />
	</node>
	<node id="-471223" lat="60.1921166711" lon="5.45736110929">
		<tag k="name" v="Kuventræ" />
		<tag k="place" v="farm" />
		<tag k="ssr:stedsnr" v="65803" />
	</node>
	<node id="-471220" lat="60.2052361923" lon="5.37584054299">
		<tag k="fixme" v="consider place=hamlet" />
		<tag k="name" v="Salbuvika" />
		<tag k="place" v="farm" />
		<tag k="ssr:stedsnr" v="65762" />
	</node>
	<node id="-471217" lat="60.1885916658" lon="5.48684443944">
		<tag k="name" v="Solstrand" />
		<tag k="ssr:stedsnr" v="65068" />
		<tag k="tourism" v="hotel" />
	</node>
	<node id="-471728" lat="60.2874194405" lon="5.55240000111">
		<tag k="name" v="Øvredal" />
		<tag k="place" v="farm" />
		<tag k="ssr:stedsnr" v="643327" />
	</node>
	<node id="-472039" lat="60.2402256674" lon="5.55001033143">
		<tag k="fixme" v="consider place=hamlet" />
		<tag k="name" v="Gjemdal" />
		<tag k="place" v="farm" />
		<tag k="ssr:stedsnr" v="855190" />
	</node>
	<node id="-471721" lat="60.2102027824" lon="5.37955556211">
		<tag k="name" v="Søvikneset" />
		<tag k="place" v="farm" />
		<tag k="ssr:stedsnr" v="631055" />
	</node>
	<node id="-471719" lat="60.2331098067" lon="5.42819700296">
		<tag k="name" v="Søfteland" />
		<tag k="place" v="farm" />
		<tag k="ssr:stedsnr" v="627865" />
	</node>
	<node id="-471783" lat="60.1676388893" lon="5.44077221982">
		<tag k="name" v="Tuven" />
		<tag k="place" v="farm" />
		<tag k="ssr:stedsnr" v="672798" />
	</node>
	<node id="-471198" lat="60.175738892" lon="5.38268610354">
		<tag k="amenity" v="nursing_home" />
		<tag k="name" v="Askviknes sjukeheim" />
		<tag k="ssr:stedsnr" v="37390" />
	</node>
	<node id="-471703" lat="60.183604171" lon="5.39459813154">
		<tag k="fixme" v="consider place=hamlet" />
		<tag k="name" v="Hovland" />
		<tag k="place" v="farm" />
		<tag k="ssr:stedsnr" v="611820" />
	</node>
	<node id="-471190" lat="60.2421361122" lon="5.5614138817">
		<tag k="name" v="Træ" />
		<tag k="place" v="farm" />
		<tag k="ssr:stedsnr" v="37357" />
	</node>
	<node id="-471700" lat="60.2135267463" lon="5.46816049073">
		<tag k="alt_name" v="Tøsdal" />
		<tag k="fixme" v="consider place=hamlet" />
		<tag k="name" v="Tyssdal" />
		<tag k="place" v="farm" />
		<tag k="ssr:stedsnr" v="611797" />
	</node>
	<node id="-471183" lat="60.2170388916" lon="5.38521388962">
		<tag k="alt_name" v="Buene" />
		<tag k="name" v="Buena" />
		<tag k="place" v="farm" />
		<tag k="ssr:stedsnr" v="37333" />
	</node>
	<node id="-471693" lat="60.2344461051" lon="5.54651280648">
		<tag k="fixme" v="consider place=hamlet" />
		<tag k="name" v="Tveit" />
		<tag k="place" v="farm" />
		<tag k="ssr:stedsnr" v="611064" />
	</node>
	<node id="-471180" lat="60.2769083337" lon="5.52248888826">
		<tag k="historic" v="shieling" />
		<tag k="name" v="Pinnestølen" />
		<tag k="place" v="locality" />
		<tag k="ssr:stedsnr" v="37322" />
	</node>
	<node id="-471690" lat="60.1956140117" lon="5.45008807303">
		<tag k="amenity" v="school" />
		<tag k="name" v="Kuventræ barneskule" />
		<tag k="ssr:stedsnr" v="587515" />
	</node>
	<node id="-471682" lat="60.1621972255" lon="5.33865554672">
		<tag k="fixme" v="consider place=hamlet" />
		<tag k="name" v="Økland" />
		<tag k="place" v="farm" />
		<tag k="ssr:stedsnr" v="583480" />
	</node>
	<node id="-471165" lat="60.1975044001" lon="5.35910716326">
		<tag k="name" v="Drange" />
		<tag k="place" v="hamlet" />
		<tag k="ssr:stedsnr" v="25882" />
	</node>
	<node id="-471163" lat="60.2410111139" lon="5.45628888455">
		<tag k="name" v="Søfteland" />
		<tag k="place" v="farm" />
		<tag k="ssr:stedsnr" v="20802" />
	</node>
	<node id="-471162" lat="60.2391555565" lon="5.45441111561">
		<tag k="name" v="Søfteland" />
		<tag k="place" v="farm" />
		<tag k="ssr:stedsnr" v="20796" />
	</node>
	<node id="-471672" lat="60.1959638898" lon="5.4582833414">
		<tag k="name" v="Flåten" />
		<tag k="place" v="farm" />
		<tag k="ssr:stedsnr" v="583378" />
	</node>
	<node id="-471158" lat="60.2612027612" lon="5.54160580799">
		<tag k="historic" v="shieling" />
		<tag k="name" v="Rødssetra" />
		<tag k="place" v="locality" />
		<tag k="ssr:stedsnr" v="5285" />
	</node>
	<node id="-471401" lat="60.26075556" lon="5.51444166871">
		<tag k="historic" v="shieling" />
		<tag k="name" v="Eikestølen" />
		<tag k="place" v="locality" />
		<tag k="ssr:stedsnr" v="220302" />
	</node>
	<node id="-471151" lat="60.1630632318" lon="5.44919244936">
		<tag k="fixme" v="consider place=hamlet" />
		<tag k="name" v="Ferstad" />
		<tag k="place" v="farm" />
		<tag k="ssr:stedsnr" v="4969" />
	</node>
	<node id="-471147" lat="60.1599820044" lon="5.36033726187">
		<tag k="fixme" v="consider place=hamlet" />
		<tag k="name" v="Sørstrøno" />
		<tag k="place" v="farm" />
		<tag k="ssr:stedsnr" v="4958" />
	</node>
	<node id="-471146" lat="60.2202294305" lon="5.38403196133">
		<tag k="fixme" v="consider place=hamlet" />
		<tag k="name" v="Nordstraumen" />
		<tag k="place" v="farm" />
		<tag k="ssr:stedsnr" v="4856" />
	</node>
	<node id="-471440" lat="60.1764965016" lon="5.44477376001">
		<tag k="fixme" v="consider place=hamlet" />
		<tag k="name" v="Moberglia" />
		<tag k="place" v="farm" />
		<tag k="ssr:stedsnr" v="247780" />
	</node>
	<node id="-471140" lat="60.2058333376" lon="5.44972499672">
		<tag k="fixme" v="consider place=suburb, village or hamlet" />
		<tag k="name" v="Ulven" />
		<tag k="place" v="quarter" />
		<tag k="ssr:stedsnr" v="4794" />
	</node>
	<node id="-471139" lat="60.2129072122" lon="5.40726064141">
		<tag k="fixme" v="consider place=hamlet" />
		<tag k="name" v="Åsen" />
		<tag k="place" v="farm" />
		<tag k="ssr:stedsnr" v="4789" />
	</node>
	<node id="-471135" lat="60.2305610246" lon="5.56123636163">
		<tag k="alt_name" v="Lio" />
		<tag k="fixme" v="consider place=hamlet" />
		<tag k="name" v="Lia" />
		<tag k="place" v="farm" />
		<tag k="ssr:stedsnr" v="4062" />
	</node>
	<node id="-471482" lat="60.2406388889" lon="5.44302778451">
		<tag k="name" v="Søfteland" />
		<tag k="place" v="farm" />
		<tag k="ssr:stedsnr" v="445858" />
	</node>
	<node id="-471642" lat="60.2377361085" lon="5.44253889497">
		<tag k="name" v="Søfteland" />
		<tag k="place" v="farm" />
		<tag k="ssr:stedsnr" v="566862" />
	</node>
	<node id="-471641" lat="60.2362638911" lon="5.44608611354">
		<tag k="name" v="Søfteland" />
		<tag k="place" v="farm" />
		<tag k="ssr:stedsnr" v="566782" />
	</node>
	<node id="-471128" lat="60.1927507662" lon="5.49975785904">
		<tag k="fixme" v="consider place=hamlet" />
		<tag k="name" v="Molde" />
		<tag k="place" v="farm" />
		<tag k="ssr:stedsnr" v="989974" />
	</node>
	<node id="-471639" lat="60.2510272016" lon="5.44129151362">
		<tag k="fixme" v="consider place=hamlet" />
		<tag k="name" v="Røykenes" />
		<tag k="place" v="farm" />
		<tag k="ssr:stedsnr" v="552000" />
	</node>
	<node id="-471638" lat="60.1385936291" lon="5.36921199632">
		<tag k="fixme" v="consider place=hamlet" />
		<tag k="name" v="Røtinga" />
		<tag k="place" v="farm" />
		<tag k="ssr:stedsnr" v="551985" />
	</node>
	<node id="-471125" lat="60.2014577984" lon="5.4245241438">
		<tag k="fixme" v="consider place=hamlet" />
		<tag k="name" v="Ulven" />
		<tag k="place" v="farm" />
		<tag k="ssr:stedsnr" v="989967" />
	</node>
	<node id="-471124" lat="60.1412965461" lon="5.40638195342">
		<tag k="fixme" v="consider place=hamlet" />
		<tag k="name" v="Kvalesund" />
		<tag k="place" v="farm" />
		<tag k="ssr:stedsnr" v="989965" />
	</node>
	<node id="-471123" lat="60.146554759" lon="5.37198006719">
		<tag k="fixme" v="consider place=hamlet" />
		<tag k="name" v="Sunnøya" />
		<tag k="place" v="farm" />
		<tag k="ssr:stedsnr" v="989964" />
	</node>
	<node id="-471122" lat="60.1588630291" lon="5.32284723287">
		<tag k="fixme" v="consider place=hamlet" />
		<tag k="name" v="Forstrøno" />
		<tag k="place" v="farm" />
		<tag k="ssr:stedsnr" v="989959" />
	</node>
	<node id="-471121" lat="60.21232279" lon="5.36740406104">
		<tag k="fixme" v="consider place=hamlet" />
		<tag k="name" v="Lysøya" />
		<tag k="place" v="farm" />
		<tag k="ssr:stedsnr" v="989958" />
	</node>
	<node id="-471120" lat="60.2219623593" lon="5.37908905061">
		<tag k="fixme" v="consider place=hamlet" />
		<tag k="name" v="Sperrevika" />
		<tag k="place" v="farm" />
		<tag k="ssr:stedsnr" v="989957" />
	</node>
	<node id="-471631" lat="60.1486527815" lon="5.42934167355">
		<tag k="alt_name" v="Halhjem" />
		<tag k="fixme" v="consider place=suburb, village or hamlet" />
		<tag k="name" v="Haljem" />
		<tag k="place" v="quarter" />
		<tag k="ssr:stedsnr" v="550997" />
	</node>
	<node id="-471117" lat="60.1460149126" lon="5.39135734134">
		<tag k="name" v="Munkholmen" />
		<tag k="place" v="farm" />
		<tag k="ssr:stedsnr" v="897331" />
	</node>
	<node id="-471627" lat="60.2380305565" lon="5.45284999816">
		<tag k="name" v="Syfteland" />
		<tag k="place" v="village" />
		<tag k="ssr:stedsnr" v="550822" />
	</node>
	<node id="-471625" lat="60.183131198" lon="5.45277686423">
		<tag k="alt_name" v="Moberg" />
		<tag k="fixme" v="consider place=hamlet" />
		<tag k="name" v="Ytre Moberg" />
		<tag k="place" v="farm" />
		<tag k="ssr:stedsnr" v="550805" />
	</node>
	<node id="-471109" lat="60.1918138852" lon="5.45374443992">
		<tag k="name" v="Heia" />
		<tag k="place" v="farm" />
		<tag k="ssr:stedsnr" v="887410" />
	</node>
	<node id="-471620" lat="60.1798728495" lon="5.37717302913">
		<tag k="fixme" v="consider place=hamlet" />
		<tag k="name" v="Askvik" />
		<tag k="place" v="farm" />
		<tag k="ssr:stedsnr" v="550781" />
	</node>
	<node id="-471618" lat="60.1932449421" lon="5.48385836329">
		<tag k="fixme" v="consider place=hamlet" />
		<tag k="name" v="Lyssand" />
		<tag k="place" v="farm" />
		<tag k="ssr:stedsnr" v="550127" />
	</node>
	<node id="-471127" lat="60.2132775766" lon="5.44147370239">
		<tag k="fixme" v="consider place=hamlet" />
		<tag k="name" v="Garvik" />
		<tag k="place" v="farm" />
		<tag k="ssr:stedsnr" v="989971" />
	</node>
	<node id="-471086" lat="60.1882861116" lon="5.48650277196">
		<tag k="name" v="Solstrand fjordhotell" />
		<tag k="ssr:stedsnr" v="887267" />
		<tag k="tourism" v="hotel" />
	</node>
	<node id="-471596" lat="60.2021166708" lon="5.44993056188">
		<tag k="name" v="Varåsgrenda" />
		<tag k="place" v="quarter" />
		<tag k="ssr:stedsnr" v="523339" />
	</node>
	<node id="-471591" lat="60.2109805587" lon="5.41076944303">
		<tag k="name" v="Åsen" />
		<tag k="place" v="farm" />
		<tag k="ssr:stedsnr" v="523306" />
	</node>
	<node id="-472101" lat="60.1588166637" lon="5.43188612002">
		<tag k="name" v="Ytre Haugland" />
		<tag k="place" v="farm" />
		<tag k="ssr:stedsnr" v="948379" />
	</node>
	<node id="-471588" lat="60.2100333364" lon="5.38054166449">
		<tag k="name" v="Søviknes" />
		<tag k="place" v="farm" />
		<tag k="ssr:stedsnr" v="523296" />
	</node>
	<node id="-471073" lat="60.1438574709" lon="5.43944397954">
		<tag k="amenity" v="school" />
		<tag k="name" v="Halhjem barneskule" />
		<tag k="ssr:stedsnr" v="406512" />
	</node>
	<node id="-471301" lat="60.2881777807" lon="5.61322777869">
		<tag k="name" v="Myra" />
		<tag k="place" v="farm" />
		<tag k="ssr:stedsnr" v="126242" />
	</node>
	<node id="-471130" lat="60.2372432596" lon="5.54762798689">
		<tag k="fixme" v="consider place=hamlet" />
		<tag k="name" v="Heggeland" />
		<tag k="place" v="farm" />
		<tag k="ssr:stedsnr" v="989983" />
	</node>
	<node id="-471471" lat="60.1721979809" lon="5.41849731382">
		<tag k="fixme" v="consider place=hamlet" />
		<tag k="name" v="Skeie" />
		<tag k="place" v="farm" />
		<tag k="ssr:stedsnr" v="429791" />
	</node>
	<node id="-471396" lat="60.2029583321" lon="5.52243889573">
		<tag k="name" v="Steglet" />
		<tag k="place" v="farm" />
		<tag k="ssr:stedsnr" v="219363" />
	</node>
	<node id="-471574" lat="60.2278027751" lon="5.5377027792">
		<tag k="amenity" v="school" />
		<tag k="name" v="Hegglandsdalen barneskule" />
		<tag k="old_name" v="Hegglandsdalen" />
		<tag k="ssr:stedsnr" v="523018" />
	</node>
	<node id="-471129" lat="60.2101558094" lon="5.53571783693">
		<tag k="fixme" v="consider place=hamlet" />
		<tag k="name" v="Vestre Berge" />
		<tag k="place" v="farm" />
		<tag k="ssr:stedsnr" v="989981" />
	</node>
	<node id="-471369" lat="60.151383367" lon="5.38393048784">
		<tag k="fixme" v="consider place=hamlet" />
		<tag k="name" v="Lepsøy" />
		<tag k="place" v="farm" />
		<tag k="ssr:stedsnr" v="187937" />
	</node>
	<node id="-471567" lat="60.1786694437" lon="5.44881111705">
		<tag k="name" v="Mobergslia" />
		<tag k="place" v="farm" />
		<tag k="ssr:stedsnr" v="523453" />
	</node>
	<node id="-471565" lat="60.1676416703" lon="5.43031667122">
		<tag k="name" v="Tuen" />
		<tag k="place" v="hamlet" />
		<tag k="ssr:stedsnr" v="523414" />
	</node>
	<node id="-471052" lat="60.1801805535" lon="5.37704445082">
		<tag k="name" v="Askvik" />
		<tag k="place" v="farm" />
		<tag k="ssr:stedsnr" v="401367" />
	</node>
	<node id="-471554" lat="60.2193638853" lon="5.42935000779">
		<tag k="name" v="Søfteland" />
		<tag k="place" v="farm" />
		<tag k="ssr:stedsnr" v="506846" />
	</node>
	<node id="-472073" lat="60.2429472241" lon="5.44152222471">
		<tag k="name" v="Søfteland" />
		<tag k="place" v="farm" />
		<tag k="ssr:stedsnr" v="931868" />
	</node>
	<node id="-472072" lat="60.2384888876" lon="5.4501444446">
		<tag k="name" v="Søfteland" />
		<tag k="place" v="farm" />
		<tag k="ssr:stedsnr" v="931810" />
	</node>
	<node id="-471724" lat="60.1446916659" lon="5.3771555551">
		<tag k="fixme" v="consider place=suburb, village or hamlet" />
		<tag k="name" v="Søre Øyane" />
		<tag k="place" v="quarter" />
		<tag k="ssr:stedsnr" v="631549" />
	</node>
	<node id="-471863" lat="60.1993527766" lon="5.4235944385">
		<tag k="landuse" v="military" />
		<tag k="name" v="Ulven" />
		<tag k="ssr:stedsnr" v="733742" />
	</node>
	<node id="-471297" lat="60.1931055576" lon="5.50010278387">
		<tag k="name" v="Moldegård" />
		<tag k="place" v="farm" />
		<tag k="ssr:stedsnr" v="126119" />
	</node>
	<node id="-471126" lat="60.2024670772" lon="5.46606407398">
		<tag k="fixme" v="consider place=hamlet" />
		<tag k="name" v="Os prestegard" />
		<tag k="place" v="farm" />
		<tag k="ssr:stedsnr" v="989970" />
	</node>
	<node id="-472066" lat="60.1658521379" lon="5.43878873765">
		<tag k="name" v="Lekven" />
		<tag k="place" v="hamlet" />
		<tag k="ssr:stedsnr" v="915967" />
	</node>
	<node id="-472065" lat="60.1562041495" lon="5.43865440237">
		<tag k="name" v="Haugland" />
		<tag k="place" v="hamlet" />
		<tag k="ssr:stedsnr" v="915951" />
	</node>
</osm>
