<?xml version="1.0" encoding="UTF-8"?>
<osm generator="osmapis" version="0.6">
	<node id="-471118" lat="60.1788666671" lon="5.40793332962">
		<tag k="amenity" v="place_of_worship" />
		<tag k="denomination" v="lutheran" />
		<tag k="name" v="Nore Neset kyrkje" />
		<tag k="religion" v="christian" />
		<tag k="ssr:stedsnr" v="632938" />
	</node>
	<node id="-471452" lat="60.1870635365" lon="5.46959522512">
		<tag k="alt_name" v="Os" />
		<tag k="amenity" v="place_of_worship" />
		<tag k="denomination" v="lutheran" />
		<tag k="name" v="Os kyrkje" />
		<tag k="religion" v="christian" />
		<tag k="ssr:stedsnr" v="915077" />
	</node>
	<node id="-470651" lat="60.2273885942" lon="5.40526610663">
		<tag k="alt_name" v="Lyse Kloster Ruinar" />
		<tag k="name" v="Lyse kloster" />
		<tag k="ssr:stedsnr" v="98356" />
		<tag k="tourism" v="attraction" />
	</node>
	<node id="-471025" lat="60.225480557" lon="5.39873610949">
		<tag k="alt_name" v="Lysekloster" />
		<tag k="amenity" v="place_of_worship" />
		<tag k="denomination" v="lutheran" />
		<tag k="name" v="Lysekloster kapell" />
		<tag k="religion" v="christian" />
		<tag k="ssr:stedsnr" v="551871" />
	</node>
</osm>
