<?xml version="1.0" encoding="UTF-8"?>
<osm generator="osmapis" version="0.6">
	<node id="-471038" lat="60.1314166686" lon="5.41667499795">
		<tag k="name" v="Skaget" />
		<tag k="natural" v="shoal" />
		<tag k="place" v="locality" />
		<tag k="ssr:stedsnr" v="389994" />
	</node>
	<node id="-471037" lat="60.1315416679" lon="5.41932777619">
		<tag k="fixme" v="consider seamark:type=rock or natural=shoal" />
		<tag k="name" v="Jøtlandsskjeret" />
		<tag k="place" v="islet" />
		<tag k="ssr:stedsnr" v="389995" />
	</node>
	<node id="-471036" lat="60.1532249956" lon="5.36675277539">
		<tag k="name" v="Vågsholmen" />
		<tag k="place" v="islet" />
		<tag k="ssr:stedsnr" v="389979" />
	</node>
	<node id="-471035" lat="60.1709361079" lon="5.33335277215">
		<tag k="name" v="Vetla Langøya" />
		<tag k="place" v="island" />
		<tag k="ssr:stedsnr" v="389944" />
	</node>
	<node id="-471033" lat="60.1521166724" lon="5.42504726612">
		<tag k="name" v="Trollholmen" />
		<tag k="place" v="islet" />
		<tag k="ssr:stedsnr" v="389098" />
	</node>
	<node id="-471032" lat="60.2157361124" lon="5.370905556">
		<tag k="name" v="Notaneset" />
		<tag k="natural" v="cape" />
		<tag k="ssr:stedsnr" v="389060" />
	</node>
	<node id="-471026" lat="60.1495527765" lon="5.40842222376">
		<tag k="name" v="Stokkholneset" />
		<tag k="natural" v="cape" />
		<tag k="ssr:stedsnr" v="369998" />
	</node>
	<node id="-471025" lat="60.1839749973" lon="5.48251666961">
		<tag k="name" v="Haugsneset" />
		<tag k="natural" v="cape" />
		<tag k="ssr:stedsnr" v="369546" />
	</node>
	<node id="-471019" lat="60.1602416625" lon="5.38574166501">
		<tag k="name" v="Nordrevågen" />
		<tag k="natural" v="bay" />
		<tag k="ssr:stedsnr" v="368960" />
	</node>
	<node id="-471018" lat="60.1451611128" lon="5.35985555991">
		<tag k="name" v="Langøya" />
		<tag k="place" v="islet" />
		<tag k="ssr:stedsnr" v="368947" />
	</node>
	<node id="-471017" lat="60.1489138927" lon="5.38754443915">
		<tag k="name" v="Brimsholmen" />
		<tag k="place" v="islet" />
		<tag k="ssr:stedsnr" v="368945" />
	</node>
	<node id="-471016" lat="60.1329583341" lon="5.44156667067">
		<tag k="name" v="Bjørnatrynet" />
		<tag k="natural" v="cape" />
		<tag k="ssr:stedsnr" v="368904" />
	</node>
	<node id="-471014" lat="60.2144777743" lon="5.37590278411">
		<tag k="name" v="Seiasundet" />
		<tag k="natural" v="strait" />
		<tag k="ssr:stedsnr" v="368868" />
	</node>
	<node id="-471009" lat="60.1694944429" lon="5.4023111175">
		<tag k="name" v="Leiro" />
		<tag k="natural" v="cape" />
		<tag k="ssr:stedsnr" v="368823" />
	</node>
	<node id="-471005" lat="60.2116416628" lon="5.37904999382">
		<tag k="name" v="Vetlaneset" />
		<tag k="natural" v="cape" />
		<tag k="ssr:stedsnr" v="368805" />
	</node>
	<node id="-471002" lat="60.1999641787" lon="5.53627594677">
		<tag k="name" v="Baikroken" />
		<tag k="natural" v="bay" />
		<tag k="ssr:stedsnr" v="368114" />
	</node>
	<node id="-470999" lat="60.1675833344" lon="5.31933054846">
		<tag k="fixme" v="consider seamark:type=rock or natural=shoal" />
		<tag k="name" v="Straumskjeret" />
		<tag k="place" v="islet" />
		<tag k="ssr:stedsnr" v="357175" />
	</node>
	<node id="-470995" lat="60.1749833327" lon="5.39884444171">
		<tag k="name" v="Djupevika" />
		<tag k="natural" v="bay" />
		<tag k="ssr:stedsnr" v="341531" />
	</node>
	<node id="-470994" lat="60.1463305523" lon="5.42529167181">
		<tag k="bay" v="fjord" />
		<tag k="name" v="Halgjemssjøen" />
		<tag k="natural" v="bay" />
		<tag k="ssr:stedsnr" v="341518" />
	</node>
	<node id="-470993" lat="60.1610184284" lon="5.32897348825">
		<tag k="name" v="Lønnevågen" />
		<tag k="natural" v="bay" />
		<tag k="ssr:stedsnr" v="341505" />
	</node>
	<node id="-470991" lat="60.156766665" lon="5.3125361202">
		<tag k="name" v="Oksabåsen" />
		<tag k="natural" v="bay" />
		<tag k="ssr:stedsnr" v="341501" />
	</node>
	<node id="-470990" lat="60.2197888851" lon="5.35264721394">
		<tag k="name" v="Seiasundet" />
		<tag k="natural" v="strait" />
		<tag k="ssr:stedsnr" v="341497" />
	</node>
	<node id="-470989" lat="60.1718166661" lon="5.31871666229">
		<tag k="name" v="Lendevika" />
		<tag k="natural" v="bay" />
		<tag k="ssr:stedsnr" v="341490" />
	</node>
	<node id="-470985" lat="60.1673999959" lon="5.31044166254">
		<tag k="name" v="Teinevika" />
		<tag k="natural" v="bay" />
		<tag k="ssr:stedsnr" v="341477" />
	</node>
	<node id="-470981" lat="60.1789750041" lon="5.38569722165">
		<tag k="name" v="Askvikvågen" />
		<tag k="natural" v="bay" />
		<tag k="ssr:stedsnr" v="341408" />
	</node>
	<node id="-470959" lat="60.1460138894" lon="5.42004999148">
		<tag k="name" v="Innerøyna" />
		<tag k="place" v="island" />
		<tag k="ssr:stedsnr" v="341006" />
	</node>
	<node id="-470949" lat="60.1552472215" lon="5.45854165941">
		<tag k="name" v="Esjeneset" />
		<tag k="natural" v="cape" />
		<tag k="ssr:stedsnr" v="328986" />
	</node>
	<node id="-470948" lat="60.1974166671" lon="5.53259444237">
		<tag k="name" v="Salbuneset" />
		<tag k="natural" v="cape" />
		<tag k="ssr:stedsnr" v="328950" />
	</node>
	<node id="-470947" lat="60.1717444462" lon="5.45779166933">
		<tag k="name" v="Holsvika" />
		<tag k="natural" v="bay" />
		<tag k="ssr:stedsnr" v="328937" />
	</node>
	<node id="-470946" lat="60.1830722194" lon="5.35060278091">
		<tag k="name" v="Tjoholmen" />
		<tag k="place" v="islet" />
		<tag k="ssr:stedsnr" v="328046" />
	</node>
	<node id="-470945" lat="60.1882333365" lon="5.3166027788">
		<tag k="fixme" v="consider seamark:type=rock or natural=shoal" />
		<tag k="name" v="Grannen" />
		<tag k="place" v="islet" />
		<tag k="ssr:stedsnr" v="328039" />
	</node>
	<node id="-470944" lat="60.1938055571" lon="5.30918888808">
		<tag k="name" v="Aumaflua" />
		<tag k="natural" v="shoal" />
		<tag k="place" v="locality" />
		<tag k="ssr:stedsnr" v="328035" />
	</node>
	<node id="-470939" lat="60.1438750024" lon="5.3611333266">
		<tag k="name" v="Strøneosen" />
		<tag k="natural" v="strait" />
		<tag k="ssr:stedsnr" v="308985" />
	</node>
	<node id="-470938" lat="60.153522221" lon="5.32871110474">
		<tag k="name" v="Ervika" />
		<tag k="natural" v="bay" />
		<tag k="ssr:stedsnr" v="308954" />
	</node>
	<node id="-470936" lat="60.2237799699" lon="5.37265501767">
		<tag k="name" v="Leirvågen" />
		<tag k="natural" v="bay" />
		<tag k="ssr:stedsnr" v="308861" />
	</node>
	<node id="-470933" lat="60.1662638876" lon="5.31724165799">
		<tag k="name" v="Skorpeosen" />
		<tag k="natural" v="strait" />
		<tag k="ssr:stedsnr" v="308786" />
	</node>
	<node id="-470929" lat="60.2405694437" lon="5.57301667475">
		<tag k="name" v="Moldvika" />
		<tag k="natural" v="bay" />
		<tag k="ssr:stedsnr" v="308174" />
	</node>
	<node id="-470927" lat="60.1959361155" lon="5.53148332684">
		<tag k="name" v="Salbuvika" />
		<tag k="natural" v="bay" />
		<tag k="ssr:stedsnr" v="308085" />
	</node>
	<node id="-470926" lat="60.195030558" lon="5.54705000148">
		<tag k="bay" v="fjord" />
		<tag k="name" v="Fusafjorden" />
		<tag k="natural" v="bay" />
		<tag k="ssr:stedsnr" v="308083" />
	</node>
	<node id="-470897" lat="60.1788972227" lon="5.35467222672">
		<tag k="name" v="Svensvika" />
		<tag k="natural" v="bay" />
		<tag k="ssr:stedsnr" v="280450" />
	</node>
	<node id="-470896" lat="60.1357999998" lon="5.43320277599">
		<tag k="name" v="Mjølkevika" />
		<tag k="natural" v="bay" />
		<tag k="ssr:stedsnr" v="280440" />
	</node>
	<node id="-470895" lat="60.1340750014" lon="5.36582499105">
		<tag k="name" v="Skitnevågen" />
		<tag k="natural" v="bay" />
		<tag k="ssr:stedsnr" v="280433" />
	</node>
	<node id="-470894" lat="60.1317444447" lon="5.36299443891">
		<tag k="name" v="Rossnesklubben" />
		<tag k="natural" v="cape" />
		<tag k="ssr:stedsnr" v="280425" />
	</node>
	<node id="-470893" lat="60.1999194485" lon="5.33467778629">
		<tag k="name" v="Krabbevågen" />
		<tag k="natural" v="bay" />
		<tag k="ssr:stedsnr" v="280423" />
	</node>
	<node id="-470892" lat="60.2109555548" lon="5.34915555607">
		<tag k="name" v="Purkevika" />
		<tag k="natural" v="bay" />
		<tag k="ssr:stedsnr" v="280415" />
	</node>
	<node id="-470891" lat="60.1970638883" lon="5.3261555509">
		<tag k="name" v="Havreholmsundet" />
		<tag k="natural" v="strait" />
		<tag k="ssr:stedsnr" v="280405" />
	</node>
	<node id="-470884" lat="60.1787111139" lon="5.39365000107">
		<tag k="name" v="Hovlandsvika" />
		<tag k="natural" v="bay" />
		<tag k="ssr:stedsnr" v="280366" />
	</node>
	<node id="-472117" lat="60.1937416665" lon="5.35300277192">
		<tag k="name" v="Vågen" />
		<tag k="natural" v="bay" />
		<tag k="ssr:stedsnr" v="948558" />
	</node>
	<node id="-472115" lat="60.1630694432" lon="5.32452500601">
		<tag k="name" v="Vetlaneset" />
		<tag k="natural" v="cape" />
		<tag k="ssr:stedsnr" v="948536" />
	</node>
	<node id="-472113" lat="60.1433361081" lon="5.4541027814">
		<tag k="name" v="Labergsvika" />
		<tag k="natural" v="bay" />
		<tag k="ssr:stedsnr" v="948495" />
	</node>
	<node id="-472112" lat="60.1457416634" lon="5.42871389572">
		<tag k="name" v="Naustvågen" />
		<tag k="natural" v="bay" />
		<tag k="ssr:stedsnr" v="948487" />
	</node>
	<node id="-472110" lat="60.2092249986" lon="5.35473889788">
		<tag k="name" v="Kastavika" />
		<tag k="natural" v="bay" />
		<tag k="ssr:stedsnr" v="948467" />
	</node>
	<node id="-472109" lat="60.1490333372" lon="5.4041666708">
		<tag k="name" v="Porsholmane" />
		<tag k="place" v="islet" />
		<tag k="ssr:stedsnr" v="948450" />
	</node>
	<node id="-472108" lat="60.191297225" lon="5.43890000679">
		<tag k="name" v="Langaneset" />
		<tag k="natural" v="cape" />
		<tag k="ssr:stedsnr" v="948443" />
	</node>
	<node id="-472106" lat="60.1760666694" lon="5.37211111801">
		<tag k="name" v="Ramsvika" />
		<tag k="natural" v="bay" />
		<tag k="ssr:stedsnr" v="948406" />
	</node>
	<node id="-472097" lat="60.1546638846" lon="5.41167221817">
		<tag k="name" v="Klubbasundet" />
		<tag k="natural" v="strait" />
		<tag k="ssr:stedsnr" v="948369" />
	</node>
	<node id="-472089" lat="60.2133000034" lon="5.33950832785">
		<tag k="name" v="Mortholmosen" />
		<tag k="natural" v="strait" />
		<tag k="ssr:stedsnr" v="948293" />
	</node>
	<node id="-472087" lat="60.1888666624" lon="5.4896111087">
		<tag k="name" v="Lyssandfjæra" />
		<tag k="natural" v="bay" />
		<tag k="ssr:stedsnr" v="948288" />
	</node>
	<node id="-472081" lat="60.1470666712" lon="5.43137222358">
		<tag k="name" v="Naustvågen" />
		<tag k="natural" v="bay" />
		<tag k="ssr:stedsnr" v="935994" />
	</node>
	<node id="-472080" lat="60.1610833323" lon="5.37176388804">
		<tag k="name" v="Gangstøholmen" />
		<tag k="place" v="islet" />
		<tag k="ssr:stedsnr" v="935962" />
	</node>
	<node id="-472079" lat="60.1657694417" lon="5.32233055954">
		<tag k="name" v="Brattholmen" />
		<tag k="place" v="islet" />
		<tag k="ssr:stedsnr" v="935946" />
	</node>
	<node id="-472077" lat="60.1564555599" lon="5.42662221674">
		<tag k="name" v="Hauglandsosen" />
		<tag k="natural" v="bay" />
		<tag k="ssr:stedsnr" v="935089" />
	</node>
	<node id="-472076" lat="60.1542166696" lon="5.42756665776">
		<tag k="name" v="Storholmen" />
		<tag k="place" v="islet" />
		<tag k="ssr:stedsnr" v="935087" />
	</node>
	<node id="-472075" lat="60.17770447" lon="5.36249785281">
		<tag k="name" v="Hillershavn" />
		<tag k="natural" v="bay" />
		<tag k="ssr:stedsnr" v="935064" />
	</node>
	<node id="-472074" lat="60.21815833" lon="5.3563472309">
		<tag k="name" v="Supaneset" />
		<tag k="natural" v="cape" />
		<tag k="ssr:stedsnr" v="935050" />
	</node>
	<node id="-472069" lat="60.1370972215" lon="5.39066111192">
		<tag k="name" v="Bjørnarøyosen" />
		<tag k="natural" v="strait" />
		<tag k="ssr:stedsnr" v="915986" />
	</node>
	<node id="-472068" lat="60.1372694459" lon="5.39898610271">
		<tag k="name" v="Ytterøya" />
		<tag k="place" v="islet" />
		<tag k="ssr:stedsnr" v="915985" />
	</node>
	<node id="-472064" lat="60.1538916643" lon="5.44660554797">
		<tag k="name" v="Vargavågen" />
		<tag k="natural" v="bay" />
		<tag k="ssr:stedsnr" v="915949" />
	</node>
	<node id="-472063" lat="60.162263887" lon="5.38084444168">
		<tag k="alt_name" v="Nordrenes" />
		<tag k="name" v="Nordreneset" />
		<tag k="natural" v="cape" />
		<tag k="ssr:stedsnr" v="915786" />
	</node>
	<node id="-472062" lat="60.1743999972" lon="5.38108333466">
		<tag k="name" v="Askvikneset" />
		<tag k="natural" v="cape" />
		<tag k="ssr:stedsnr" v="915775" />
	</node>
	<node id="-472057" lat="60.1890416706" lon="5.50378610306">
		<tag k="name" v="Moldaneset" />
		<tag k="natural" v="cape" />
		<tag k="ssr:stedsnr" v="915073" />
	</node>
	<node id="-472053" lat="60.2212722245" lon="5.37883889723">
		<tag k="name" v="Sperrevika" />
		<tag k="natural" v="bay" />
		<tag k="ssr:stedsnr" v="914837" />
	</node>
	<node id="-472050" lat="60.1649861106" lon="5.46346111998">
		<tag k="name" v="Ferstadneset" />
		<tag k="natural" v="cape" />
		<tag k="ssr:stedsnr" v="874980" />
	</node>
	<node id="-472049" lat="60.1479916671" lon="5.41142500819">
		<tag k="name" v="Storestraumen" />
		<tag k="natural" v="strait" />
		<tag k="ssr:stedsnr" v="874116" />
	</node>
	<node id="-472048" lat="60.1520305533" lon="5.39304443894">
		<tag k="name" v="Mørkevågen" />
		<tag k="natural" v="bay" />
		<tag k="ssr:stedsnr" v="874114" />
	</node>
	<node id="-472047" lat="60.2049611076" lon="5.35985277375">
		<tag k="name" v="Ullstøholmen" />
		<tag k="place" v="islet" />
		<tag k="ssr:stedsnr" v="874071" />
	</node>
	<node id="-472036" lat="60.2159277767" lon="5.33159166525">
		<tag k="name" v="Nova" />
		<tag k="place" v="islet" />
		<tag k="ssr:stedsnr" v="854843" />
	</node>
	<node id="-472035" lat="60.218819447" lon="5.33518610245">
		<tag k="name" v="Store Brattholmen" />
		<tag k="place" v="islet" />
		<tag k="ssr:stedsnr" v="854841" />
	</node>
	<node id="-472033" lat="60.1837611067" lon="5.35157222081">
		<tag k="name" v="Leiholmen" />
		<tag k="place" v="islet" />
		<tag k="ssr:stedsnr" v="854787" />
	</node>
	<node id="-472028" lat="60.2036138861" lon="5.34697777319">
		<tag k="name" v="Drangsneset" />
		<tag k="natural" v="cape" />
		<tag k="ssr:stedsnr" v="854734" />
	</node>
	<node id="-472024" lat="60.208049998" lon="5.53713888867">
		<tag k="alt_name" v="Hatvika" />
		<tag k="name" v="Hattvika" />
		<tag k="natural" v="bay" />
		<tag k="ssr:stedsnr" v="854004" />
	</node>
	<node id="-472017" lat="60.1564805548" lon="5.32592222384">
		<tag k="name" v="Forstrønesundet" />
		<tag k="natural" v="strait" />
		<tag k="ssr:stedsnr" v="827501" />
	</node>
	<node id="-472016" lat="60.1877222261" lon="5.33288611859">
		<tag k="name" v="Toskavågen" />
		<tag k="natural" v="bay" />
		<tag k="ssr:stedsnr" v="827495" />
	</node>
	<node id="-472014" lat="60.1744916711" lon="5.3108194478">
		<tag k="name" v="Vestre Floren" />
		<tag k="natural" v="bay" />
		<tag k="ssr:stedsnr" v="827488" />
	</node>
	<node id="-472013" lat="60.1441333293" lon="5.42624167223">
		<tag k="name" v="Halgjemsosen" />
		<tag k="natural" v="strait" />
		<tag k="ssr:stedsnr" v="827483" />
	</node>
	<node id="-472009" lat="60.1488638848" lon="5.36675832974">
		<tag k="name" v="Brattholmen" />
		<tag k="place" v="islet" />
		<tag k="ssr:stedsnr" v="827454" />
	</node>
	<node id="-472008" lat="60.1918305532" lon="5.43243611898">
		<tag k="name" v="Haggardsvika" />
		<tag k="natural" v="bay" />
		<tag k="ssr:stedsnr" v="827444" />
	</node>
	<node id="-472006" lat="60.1812027744" lon="5.47366943887">
		<tag k="name" v="Steinneset" />
		<tag k="natural" v="cape" />
		<tag k="ssr:stedsnr" v="827431" />
	</node>
	<node id="-471994" lat="60.2765972254" lon="5.60018611266">
		<tag k="name" v="Flataneset" />
		<tag k="natural" v="cape" />
		<tag k="ssr:stedsnr" v="827299" />
	</node>
	<node id="-471993" lat="60.2730472235" lon="5.59099165905">
		<tag k="name" v="Ternestetten" />
		<tag k="natural" v="cape" />
		<tag k="ssr:stedsnr" v="827298" />
	</node>
	<node id="-471974" lat="60.2074277808" lon="5.36770000507">
		<tag k="name" v="Øyatangen" />
		<tag k="natural" v="cape" />
		<tag k="ssr:stedsnr" v="826293" />
	</node>
	<node id="-471973" lat="60.2093055554" lon="5.3595972178">
		<tag k="name" v="Steinavika" />
		<tag k="natural" v="bay" />
		<tag k="ssr:stedsnr" v="826292" />
	</node>
	<node id="-471972" lat="60.1526166636" lon="5.35814721394">
		<tag k="name" v="Selvågspollen" />
		<tag k="natural" v="bay" />
		<tag k="ssr:stedsnr" v="826284" />
	</node>
	<node id="-471966" lat="60.1392694437" lon="5.42791110982">
		<tag k="name" v="Bleikja" />
		<tag k="place" v="islet" />
		<tag k="ssr:stedsnr" v="814996" />
	</node>
	<node id="-471965" lat="60.1174222259" lon="5.36566110645">
		<tag k="name" v="Ytreskallen" />
		<tag k="natural" v="shoal" />
		<tag k="place" v="locality" />
		<tag k="ssr:stedsnr" v="814977" />
	</node>
	<node id="-471964" lat="60.1773722217" lon="5.31617777308">
		<tag k="fixme" v="consider seamark:type=rock or natural=shoal" />
		<tag k="name" v="Leieskjeret" />
		<tag k="place" v="islet" />
		<tag k="ssr:stedsnr" v="814953" />
	</node>
	<node id="-471962" lat="60.1788694418" lon="5.38618333474">
		<tag k="name" v="Askvikvågen" />
		<tag k="natural" v="bay" />
		<tag k="ssr:stedsnr" v="814086" />
	</node>
	<node id="-471959" lat="60.1357055574" lon="5.35302499518">
		<tag k="name" v="Synnøytangen" />
		<tag k="natural" v="cape" />
		<tag k="ssr:stedsnr" v="794990" />
	</node>
	<node id="-471956" lat="60.1756277739" lon="5.34666666936">
		<tag k="name" v="Gardvika" />
		<tag k="natural" v="bay" />
		<tag k="ssr:stedsnr" v="794606" />
	</node>
	<node id="-471955" lat="60.1713250042" lon="5.51357499358">
		<tag k="name" v="Sønsteflua" />
		<tag k="natural" v="shoal" />
		<tag k="place" v="locality" />
		<tag k="ssr:stedsnr" v="794387" />
	</node>
	<node id="-471946" lat="60.1682083373" lon="5.45429166955">
		<tag k="name" v="Lekvenvågen" />
		<tag k="natural" v="bay" />
		<tag k="ssr:stedsnr" v="793976" />
	</node>
	<node id="-471945" lat="60.2162166645" lon="5.34268888218">
		<tag k="name" v="Vetle Brattholmen" />
		<tag k="place" v="islet" />
		<tag k="ssr:stedsnr" v="793851" />
	</node>
	<node id="-471944" lat="60.1714222187" lon="5.3085277854">
		<tag k="name" v="Skorpo" />
		<tag k="place" v="island" />
		<tag k="ssr:stedsnr" v="793822" />
	</node>
	<node id="-471943" lat="60.1864525397" lon="5.35631892114">
		<tag k="name" v="Gardvika" />
		<tag k="natural" v="bay" />
		<tag k="ssr:stedsnr" v="793817" />
	</node>
	<node id="-471941" lat="60.1706666625" lon="5.37871667342">
		<tag k="name" v="Skeisosen" />
		<tag k="natural" v="strait" />
		<tag k="ssr:stedsnr" v="793809" />
	</node>
	<node id="-471940" lat="60.1674194484" lon="5.3714777689">
		<tag k="name" v="Ullsundet" />
		<tag k="natural" v="strait" />
		<tag k="ssr:stedsnr" v="793808" />
	</node>
	<node id="-471939" lat="60.1588499999" lon="5.32606110517">
		<tag k="name" v="Forstrønesundet" />
		<tag k="natural" v="strait" />
		<tag k="ssr:stedsnr" v="793806" />
	</node>
	<node id="-471931" lat="60.1960083322" lon="5.34037222066">
		<tag k="name" v="Størjepollholmen" />
		<tag k="place" v="islet" />
		<tag k="ssr:stedsnr" v="766489" />
	</node>
	<node id="-471926" lat="60.1601666669" lon="5.31726667124">
		<tag k="name" v="Purkevika" />
		<tag k="natural" v="bay" />
		<tag k="ssr:stedsnr" v="766452" />
	</node>
	<node id="-471925" lat="60.174730557" lon="5.34263332942">
		<tag k="name" v="Stokkavika" />
		<tag k="natural" v="bay" />
		<tag k="ssr:stedsnr" v="766448" />
	</node>
	<node id="-471924" lat="60.2186194448" lon="5.35734445031">
		<tag k="name" v="Lysøya" />
		<tag k="place" v="island" />
		<tag k="ssr:stedsnr" v="766445" />
	</node>
	<node id="-471923" lat="60.1771194421" lon="5.30541111183">
		<tag k="name" v="Sildavikneset" />
		<tag k="natural" v="cape" />
		<tag k="ssr:stedsnr" v="766435" />
	</node>
	<node id="-471922" lat="60.1473055545" lon="5.45636667077">
		<tag k="name" v="Asnesvika" />
		<tag k="natural" v="bay" />
		<tag k="ssr:stedsnr" v="766425" />
	</node>
	<node id="-471918" lat="60.206916668" lon="5.33744721912">
		<tag k="name" v="Olsknappen" />
		<tag k="natural" v="cape" />
		<tag k="ssr:stedsnr" v="766413" />
	</node>
	<node id="-471916" lat="60.1465472222" lon="5.4113972197">
		<tag k="name" v="Ytrepollen" />
		<tag k="natural" v="bay" />
		<tag k="ssr:stedsnr" v="766406" />
	</node>
	<node id="-471898" lat="60.155824996" lon="5.42193333865">
		<tag k="name" v="Hauglandssundet" />
		<tag k="natural" v="strait" />
		<tag k="ssr:stedsnr" v="765340" />
	</node>
	<node id="-471897" lat="60.1631472259" lon="5.40466111713">
		<tag k="name" v="Storumvågen" />
		<tag k="natural" v="bay" />
		<tag k="ssr:stedsnr" v="765337" />
	</node>
	<node id="-471896" lat="60.1617583367" lon="5.37142500463">
		<tag k="name" v="Gangstøholmane" />
		<tag k="place" v="islet" />
		<tag k="ssr:stedsnr" v="765334" />
	</node>
	<node id="-471894" lat="60.215075838" lon="5.37088754154">
		<tag k="name" v="Søre Notavika" />
		<tag k="natural" v="bay" />
		<tag k="ssr:stedsnr" v="765312" />
	</node>
	<node id="-471889" lat="60.2186266742" lon="5.38150782265">
		<tag k="name" v="Bordvikneset" />
		<tag k="natural" v="cape" />
		<tag k="ssr:stedsnr" v="765294" />
	</node>
	<node id="-471883" lat="60.1348111134" lon="5.35188332583">
		<tag k="name" v="Teinevika" />
		<tag k="natural" v="bay" />
		<tag k="ssr:stedsnr" v="765254" />
	</node>
	<node id="-471882" lat="60.1527138905" lon="5.31664166814">
		<tag k="fixme" v="consider seamark:type=rock or natural=shoal" />
		<tag k="name" v="Kuskjeret" />
		<tag k="place" v="islet" />
		<tag k="ssr:stedsnr" v="765252" />
	</node>
	<node id="-471879" lat="60.1276999991" lon="5.3825250052">
		<tag k="name" v="Gulholmflua" />
		<tag k="natural" v="shoal" />
		<tag k="place" v="locality" />
		<tag k="ssr:stedsnr" v="753969" />
	</node>
	<node id="-471878" lat="60.1595611071" lon="5.29117778068">
		<tag k="name" v="Osaflua" />
		<tag k="natural" v="shoal" />
		<tag k="place" v="locality" />
		<tag k="ssr:stedsnr" v="753930" />
	</node>
	<node id="-471876" lat="60.2718586043" lon="5.58741710124">
		<tag k="name" v="Oldervika" />
		<tag k="natural" v="bay" />
		<tag k="ssr:stedsnr" v="753812" />
	</node>
	<node id="-471875" lat="60.1484611152" lon="5.42543610629">
		<tag k="name" v="Søminga" />
		<tag k="natural" v="strait" />
		<tag k="ssr:stedsnr" v="753075" />
	</node>
	<node id="-471874" lat="60.1733472192" lon="5.3932305586">
		<tag k="fixme" v="consider seamark:type=rock or natural=shoal" />
		<tag k="name" v="Seinaskjeret" />
		<tag k="place" v="islet" />
		<tag k="ssr:stedsnr" v="753056" />
	</node>
	<node id="-471869" lat="60.150722219" lon="5.41208332525">
		<tag k="name" v="Indrepollen" />
		<tag k="natural" v="bay" />
		<tag k="ssr:stedsnr" v="733995" />
	</node>
	<node id="-471868" lat="60.2226333369" lon="5.34822499136">
		<tag k="name" v="Kløverholmen" />
		<tag k="place" v="islet" />
		<tag k="ssr:stedsnr" v="733860" />
	</node>
	<node id="-471865" lat="60.1885138928" lon="5.33523333902">
		<tag k="name" v="Skotøysundet" />
		<tag k="natural" v="strait" />
		<tag k="ssr:stedsnr" v="733748" />
	</node>
	<node id="-471864" lat="60.1918166624" lon="5.32455833407">
		<tag k="name" v="Stongholmen" />
		<tag k="place" v="islet" />
		<tag k="ssr:stedsnr" v="733743" />
	</node>
	<node id="-471857" lat="60.1791500021" lon="5.51409444286">
		<tag k="name" v="Sandholmane" />
		<tag k="place" v="islet" />
		<tag k="ssr:stedsnr" v="733073" />
	</node>
	<node id="-471853" lat="60.2060027785" lon="5.34617500011">
		<tag k="name" v="Vassvika" />
		<tag k="natural" v="bay" />
		<tag k="ssr:stedsnr" v="732768" />
	</node>
	<node id="-471848" lat="60.1943277786" lon="5.33499999315">
		<tag k="name" v="Ballandsneset" />
		<tag k="natural" v="cape" />
		<tag k="ssr:stedsnr" v="705565" />
	</node>
	<node id="-471842" lat="60.1659583344" lon="5.3206138877">
		<tag k="name" v="Brattholmen" />
		<tag k="place" v="islet" />
		<tag k="ssr:stedsnr" v="705536" />
	</node>
	<node id="-471811" lat="60.223850003" lon="5.53693334011">
		<tag k="name" v="Langeholmen" />
		<tag k="place" v="islet" />
		<tag k="ssr:stedsnr" v="705006" />
	</node>
	<node id="-471802" lat="60.1411249965" lon="5.4517333322">
		<tag k="name" v="Bjørnavika" />
		<tag k="natural" v="bay" />
		<tag k="ssr:stedsnr" v="692991" />
	</node>
	<node id="-471801" lat="60.1465611069" lon="5.4567361152">
		<tag k="name" v="Asneset" />
		<tag k="natural" v="cape" />
		<tag k="ssr:stedsnr" v="692986" />
	</node>
	<node id="-471800" lat="60.148883334" lon="5.3687277867">
		<tag k="name" v="Brattholmen" />
		<tag k="place" v="islet" />
		<tag k="ssr:stedsnr" v="692979" />
	</node>
	<node id="-471799" lat="60.163088887" lon="5.28978610574">
		<tag k="name" v="Teistaflua" />
		<tag k="natural" v="shoal" />
		<tag k="place" v="locality" />
		<tag k="ssr:stedsnr" v="692935" />
	</node>
	<node id="-471798" lat="60.1647472191" lon="5.32538333331">
		<tag k="fixme" v="consider seamark:type=rock or natural=shoal" />
		<tag k="name" v="Klammerskjeret" />
		<tag k="place" v="islet" />
		<tag k="ssr:stedsnr" v="692908" />
	</node>
	<node id="-471797" lat="60.1391083322" lon="5.44128333288">
		<tag k="name" v="Sørneset" />
		<tag k="natural" v="cape" />
		<tag k="ssr:stedsnr" v="692168" />
	</node>
	<node id="-471796" lat="60.170311107" lon="5.39701110785">
		<tag k="name" v="Baraflua" />
		<tag k="natural" v="shoal" />
		<tag k="place" v="locality" />
		<tag k="ssr:stedsnr" v="692083" />
	</node>
	<node id="-471794" lat="60.2051777774" lon="5.30958889614">
		<tag k="name" v="Uerseteskallen" />
		<tag k="natural" v="shoal" />
		<tag k="place" v="locality" />
		<tag k="ssr:stedsnr" v="692060" />
	</node>
	<node id="-471788" lat="60.1352138886" lon="5.42022222729">
		<tag k="name" v="Ramsholmen" />
		<tag k="place" v="islet" />
		<tag k="ssr:stedsnr" v="672985" />
	</node>
	<node id="-471787" lat="60.1311222199" lon="5.36771389399">
		<tag k="name" v="Kobbholmane" />
		<tag k="place" v="islet" />
		<tag k="ssr:stedsnr" v="672977" />
	</node>
	<node id="-471782" lat="60.1664666675" lon="5.30144721391">
		<tag k="name" v="Ternøya" />
		<tag k="place" v="islet" />
		<tag k="ssr:stedsnr" v="672791" />
	</node>
	<node id="-471781" lat="60.1719333322" lon="5.4037583394">
		<tag k="name" v="Skeisleira" />
		<tag k="natural" v="bay" />
		<tag k="ssr:stedsnr" v="672782" />
	</node>
	<node id="-471780" lat="60.1697277733" lon="5.37246388748">
		<tag k="name" v="Kattaneset" />
		<tag k="natural" v="cape" />
		<tag k="ssr:stedsnr" v="672778" />
	</node>
	<node id="-471762" lat="60.1634027773" lon="5.32944167533">
		<tag k="name" v="Øyjordsvika" />
		<tag k="natural" v="bay" />
		<tag k="ssr:stedsnr" v="644500" />
	</node>
	<node id="-471761" lat="60.189591665" lon="5.32225000065">
		<tag k="name" v="Laksholmen" />
		<tag k="place" v="islet" />
		<tag k="ssr:stedsnr" v="644484" />
	</node>
	<node id="-471757" lat="60.1431249975" lon="5.40561388905">
		<tag k="name" v="Kuholmen" />
		<tag k="place" v="islet" />
		<tag k="ssr:stedsnr" v="644441" />
	</node>
	<node id="-471756" lat="60.1518583291" lon="5.39269443624">
		<tag k="name" v="Mørkevågen" />
		<tag k="natural" v="bay" />
		<tag k="ssr:stedsnr" v="644439" />
	</node>
	<node id="-471746" lat="60.1735694413" lon="5.39209722978">
		<tag k="fixme" v="consider seamark:type=rock or natural=shoal" />
		<tag k="name" v="Seinaskjeret" />
		<tag k="place" v="islet" />
		<tag k="ssr:stedsnr" v="644349" />
	</node>
	<node id="-471737" lat="60.1500268298" lon="5.33276856707">
		<tag k="name" v="Langetangsvågen" />
		<tag k="natural" v="bay" />
		<tag k="ssr:stedsnr" v="644281" />
	</node>
	<node id="-471736" lat="60.149538891" lon="5.33320555006">
		<tag k="name" v="Langetangen" />
		<tag k="natural" v="cape" />
		<tag k="ssr:stedsnr" v="644280" />
	</node>
	<node id="-471725" lat="60.1800333327" lon="5.35159167436">
		<tag k="name" v="Jaktavika" />
		<tag k="natural" v="bay" />
		<tag k="ssr:stedsnr" v="631932" />
	</node>
	<node id="-471723" lat="60.1607305576" lon="5.42521943524">
		<tag k="name" v="Særvollvika" />
		<tag k="natural" v="bay" />
		<tag k="ssr:stedsnr" v="631091" />
	</node>
	<node id="-471722" lat="60.1620000004" lon="5.38978888329">
		<tag k="name" v="Strussvågen" />
		<tag k="natural" v="bay" />
		<tag k="ssr:stedsnr" v="631085" />
	</node>
	<node id="-471720" lat="60.2025388887" lon="5.33559999145">
		<tag k="fixme" v="consider seamark:type=rock or natural=shoal" />
		<tag k="name" v="Vågsskjeret" />
		<tag k="place" v="islet" />
		<tag k="ssr:stedsnr" v="631050" />
	</node>
	<node id="-471714" lat="60.2624138865" lon="5.56224721401">
		<tag k="name" v="Øyra" />
		<tag k="natural" v="shoal" />
		<tag k="place" v="locality" />
		<tag k="ssr:stedsnr" v="612314" />
	</node>
	<node id="-471713" lat="60.1467111107" lon="5.45538333061">
		<tag k="name" v="Ferstadvollen" />
		<tag k="natural" v="cape" />
		<tag k="ssr:stedsnr" v="611999" />
	</node>
	<node id="-471712" lat="60.1405238357" lon="5.42087892009">
		<tag k="name" v="Haljemsøya" />
		<tag k="place" v="island" />
		<tag k="ssr:stedsnr" v="611984" />
	</node>
	<node id="-471710" lat="60.1586194489" lon="5.31970277845">
		<tag k="name" v="Forstrøno" />
		<tag k="place" v="island" />
		<tag k="ssr:stedsnr" v="611968" />
	</node>
	<node id="-471709" lat="60.1585416699" lon="5.3994361165">
		<tag k="name" v="Geitarøya" />
		<tag k="place" v="islet" />
		<tag k="ssr:stedsnr" v="611962" />
	</node>
	<node id="-471708" lat="60.1422888884" lon="5.35051111445">
		<tag k="name" v="Husfjelltangen" />
		<tag k="natural" v="cape" />
		<tag k="ssr:stedsnr" v="611954" />
	</node>
	<node id="-471704" lat="60.1729083341" lon="5.30307500473">
		<tag k="name" v="Breiabukta" />
		<tag k="natural" v="bay" />
		<tag k="ssr:stedsnr" v="611823" />
	</node>
	<node id="-471702" lat="60.1822805554" lon="5.34567499641">
		<tag k="name" v="Teineholmen" />
		<tag k="place" v="islet" />
		<tag k="ssr:stedsnr" v="611814" />
	</node>
	<node id="-471701" lat="60.1810944428" lon="5.32759721508">
		<tag k="name" v="Bjørnarøya" />
		<tag k="place" v="islet" />
		<tag k="ssr:stedsnr" v="611815" />
	</node>
	<node id="-471698" lat="60.2104444438" lon="5.34065833776">
		<tag k="name" v="Løholmen" />
		<tag k="place" v="islet" />
		<tag k="ssr:stedsnr" v="611790" />
	</node>
	<node id="-471694" lat="60.1870333335" lon="5.52785832947">
		<tag k="name" v="Sandholmflua" />
		<tag k="natural" v="shoal" />
		<tag k="place" v="locality" />
		<tag k="ssr:stedsnr" v="611082" />
	</node>
	<node id="-471691" lat="60.2202277813" lon="5.5508694504">
		<tag k="name" v="Skavhellehola" />
		<tag k="natural" v="bay" />
		<tag k="ssr:stedsnr" v="611018" />
	</node>
	<node id="-471684" lat="60.1668166652" lon="5.30480555491">
		<tag k="name" v="Søre Ternevågen" />
		<tag k="natural" v="bay" />
		<tag k="ssr:stedsnr" v="583491" />
	</node>
	<node id="-471683" lat="60.1709083351" lon="5.33280833799">
		<tag k="name" v="Ytsta Langøya" />
		<tag k="place" v="island" />
		<tag k="ssr:stedsnr" v="583490" />
	</node>
	<node id="-471681" lat="60.2150388857" lon="5.33726945209">
		<tag k="name" v="Rundholmen" />
		<tag k="place" v="islet" />
		<tag k="ssr:stedsnr" v="583471" />
	</node>
	<node id="-471677" lat="60.136847219" lon="5.40665555692">
		<tag k="name" v="Kolneset" />
		<tag k="natural" v="cape" />
		<tag k="ssr:stedsnr" v="583419" />
	</node>
	<node id="-471676" lat="60.1936083323" lon="5.43218611383">
		<tag k="name" v="Bramdsneset" />
		<tag k="natural" v="cape" />
		<tag k="ssr:stedsnr" v="583411" />
	</node>
	<node id="-471675" lat="60.1899083317" lon="5.44150277434">
		<tag k="name" v="Breivika" />
		<tag k="natural" v="bay" />
		<tag k="ssr:stedsnr" v="583406" />
	</node>
	<node id="-471661" lat="60.2248638872" lon="5.36893888309">
		<tag k="name" v="Leirvågneset" />
		<tag k="natural" v="cape" />
		<tag k="ssr:stedsnr" v="583301" />
	</node>
	<node id="-471644" lat="60.1507972205" lon="5.37057223071">
		<tag k="fixme" v="consider seamark:type=rock or natural=shoal" />
		<tag k="name" v="Gulaskjeret" />
		<tag k="place" v="islet" />
		<tag k="ssr:stedsnr" v="571986" />
	</node>
	<node id="-471643" lat="60.16120733" lon="5.3272849911">
		<tag k="name" v="Blåbergholmen" />
		<tag k="place" v="islet" />
		<tag k="ssr:stedsnr" v="571939" />
	</node>
	<node id="-471632" lat="60.1420111131" lon="5.41060000479">
		<tag k="name" v="Påskapøyla" />
		<tag k="natural" v="bay" />
		<tag k="ssr:stedsnr" v="551000" />
	</node>
	<node id="-471630" lat="60.1525583342" lon="5.31250000514">
		<tag k="name" v="Flatøya" />
		<tag k="place" v="islet" />
		<tag k="ssr:stedsnr" v="550964" />
	</node>
	<node id="-471629" lat="60.1500138856" lon="5.32807222905">
		<tag k="name" v="Store Hestholmen" />
		<tag k="place" v="islet" />
		<tag k="ssr:stedsnr" v="550962" />
	</node>
	<node id="-471628" lat="60.1337111118" lon="5.42519721343">
		<tag k="name" v="Skjerholmen" />
		<tag k="place" v="islet" />
		<tag k="ssr:stedsnr" v="550902" />
	</node>
	<node id="-471626" lat="60.1679916704" lon="5.32568889568">
		<tag k="name" v="Sauøya" />
		<tag k="place" v="islet" />
		<tag k="ssr:stedsnr" v="550808" />
	</node>
	<node id="-471622" lat="60.1726805586" lon="5.45887778327">
		<tag k="name" v="Kuvågen" />
		<tag k="natural" v="bay" />
		<tag k="ssr:stedsnr" v="550789" />
	</node>
	<node id="-471611" lat="60.1961250016" lon="5.34350555954">
		<tag k="name" v="Drangsvågen" />
		<tag k="natural" v="bay" />
		<tag k="ssr:stedsnr" v="523565" />
	</node>
	<node id="-471610" lat="60.1453777783" lon="5.37064721661">
		<tag k="name" v="Tøkjesundet" />
		<tag k="natural" v="strait" />
		<tag k="ssr:stedsnr" v="523549" />
	</node>
	<node id="-471608" lat="60.1626444424" lon="5.32022778471">
		<tag k="name" v="Vetleknappen" />
		<tag k="natural" v="cape" />
		<tag k="ssr:stedsnr" v="523534" />
	</node>
	<node id="-471607" lat="60.2165805566" lon="5.33866111032">
		<tag k="name" v="Splintholmen" />
		<tag k="place" v="islet" />
		<tag k="ssr:stedsnr" v="523529" />
	</node>
	<node id="-471606" lat="60.176355552" lon="5.30544443681">
		<tag k="name" v="Vestre Floren" />
		<tag k="natural" v="strait" />
		<tag k="ssr:stedsnr" v="523518" />
	</node>
	<node id="-471601" lat="60.1679083326" lon="5.40186667277">
		<tag k="name" v="Skeisstøa" />
		<tag k="natural" v="bay" />
		<tag k="ssr:stedsnr" v="523380" />
	</node>
	<node id="-471600" lat="60.2163801728" lon="5.36962951351">
		<tag k="name" v="Nordre Notavika" />
		<tag k="natural" v="bay" />
		<tag k="ssr:stedsnr" v="523373" />
	</node>
	<node id="-471597" lat="60.1996722244" lon="5.53632778347">
		<tag k="name" v="Ytste Baikroken" />
		<tag k="natural" v="bay" />
		<tag k="ssr:stedsnr" v="523347" />
	</node>
	<node id="-471589" lat="60.2113694443" lon="5.38222777585">
		<tag k="name" v="Søvikvågen" />
		<tag k="natural" v="bay" />
		<tag k="ssr:stedsnr" v="523297" />
	</node>
	<node id="-471585" lat="60.2806527778" lon="5.60802778381">
		<tag k="name" v="Skrubbaneset" />
		<tag k="natural" v="cape" />
		<tag k="ssr:stedsnr" v="523282" />
	</node>
	<node id="-471584" lat="60.1866638916" lon="5.48465554827">
		<tag k="name" v="Solstrandfjæra" />
		<tag k="natural" v="bay" />
		<tag k="ssr:stedsnr" v="523280" />
	</node>
	<node id="-471583" lat="60.1914249961" lon="5.50274444341">
		<tag k="name" v="Smievågen" />
		<tag k="natural" v="bay" />
		<tag k="ssr:stedsnr" v="523277" />
	</node>
	<node id="-471568" lat="60.1531083374" lon="5.40010555336">
		<tag k="name" v="Blindasundet" />
		<tag k="natural" v="strait" />
		<tag k="ssr:stedsnr" v="523467" />
	</node>
	<node id="-471563" lat="60.1572777793" lon="5.42168888474">
		<tag k="name" v="Einingsneset" />
		<tag k="natural" v="cape" />
		<tag k="ssr:stedsnr" v="523409" />
	</node>
	<node id="-471562" lat="60.1350694452" lon="5.44645832505">
		<tag k="name" v="Kista" />
		<tag k="natural" v="cape" />
		<tag k="ssr:stedsnr" v="510990" />
	</node>
	<node id="-471561" lat="60.1668499999" lon="5.45658611492">
		<tag k="name" v="Ferstadvågen" />
		<tag k="natural" v="bay" />
		<tag k="ssr:stedsnr" v="510987" />
	</node>
	<node id="-471560" lat="60.1217611141" lon="5.35801389488">
		<tag k="name" v="Harpeskallen" />
		<tag k="natural" v="shoal" />
		<tag k="place" v="locality" />
		<tag k="ssr:stedsnr" v="510970" />
	</node>
	<node id="-471559" lat="60.1161249975" lon="5.35049444082">
		<tag k="name" v="Måsaskallen" />
		<tag k="natural" v="shoal" />
		<tag k="place" v="locality" />
		<tag k="ssr:stedsnr" v="510969" />
	</node>
	<node id="-471558" lat="60.1181416703" lon="5.37873055239">
		<tag k="name" v="Fluaskallen" />
		<tag k="natural" v="shoal" />
		<tag k="place" v="locality" />
		<tag k="ssr:stedsnr" v="510968" />
	</node>
	<node id="-471557" lat="60.1684833369" lon="5.29045832612">
		<tag k="name" v="Skorpeflua" />
		<tag k="natural" v="shoal" />
		<tag k="place" v="locality" />
		<tag k="ssr:stedsnr" v="510946" />
	</node>
	<node id="-471556" lat="60.204488893" lon="5.32839444218">
		<tag k="name" v="Havreholmflua" />
		<tag k="natural" v="shoal" />
		<tag k="place" v="locality" />
		<tag k="ssr:stedsnr" v="510052" />
	</node>
	<node id="-471555" lat="60.1897722255" lon="5.32279999318">
		<tag k="name" v="Laksholmen" />
		<tag k="place" v="islet" />
		<tag k="ssr:stedsnr" v="510043" />
	</node>
	<node id="-471549" lat="60.1473972181" lon="5.41808611396">
		<tag k="name" v="Innerøya" />
		<tag k="place" v="island" />
		<tag k="ssr:stedsnr" v="490999" />
	</node>
	<node id="-471548" lat="60.1374833343" lon="5.36241665867">
		<tag k="name" v="Vestrevågen" />
		<tag k="natural" v="bay" />
		<tag k="ssr:stedsnr" v="490985" />
	</node>
	<node id="-471544" lat="60.1819888918" lon="5.47945276942">
		<tag k="name" v="Langhamarneset" />
		<tag k="natural" v="cape" />
		<tag k="ssr:stedsnr" v="490084" />
	</node>
	<node id="-471542" lat="60.1772527816" lon="5.35896943767">
		<tag k="name" v="Krokane" />
		<tag k="natural" v="strait" />
		<tag k="ssr:stedsnr" v="489811" />
	</node>
	<node id="-471537" lat="60.1750138868" lon="5.31350000627">
		<tag k="name" v="Austre Floren" />
		<tag k="natural" v="strait" />
		<tag k="ssr:stedsnr" v="462484" />
	</node>
	<node id="-471534" lat="60.2185805514" lon="5.34509444166">
		<tag k="name" v="Sandsegene" />
		<tag k="place" v="island" />
		<tag k="ssr:stedsnr" v="462454" />
	</node>
	<node id="-471533" lat="60.1765472207" lon="5.31378333213">
		<tag k="name" v="Kjeholmane" />
		<tag k="place" v="islet" />
		<tag k="ssr:stedsnr" v="462442" />
	</node>
	<node id="-471532" lat="60.1683166659" lon="5.30299721917">
		<tag k="name" v="Nordre Ternevågen" />
		<tag k="natural" v="bay" />
		<tag k="ssr:stedsnr" v="462433" />
	</node>
	<node id="-471531" lat="60.1449000004" lon="5.38368054672">
		<tag k="name" v="Kjerringahavet" />
		<tag k="natural" v="strait" />
		<tag k="ssr:stedsnr" v="462427" />
	</node>
	<node id="-471527" lat="60.1953527802" lon="5.43902223081">
		<tag k="name" v="Klubben" />
		<tag k="natural" v="cape" />
		<tag k="ssr:stedsnr" v="462370" />
	</node>
	<node id="-471511" lat="60.2187111124" lon="5.35950555901">
		<tag k="name" v="Lysøya" />
		<tag k="place" v="island" />
		<tag k="ssr:stedsnr" v="462279" />
	</node>
	<node id="-471495" lat="60.1328638902" lon="5.35723055701">
		<tag k="name" v="Vestrevågen" />
		<tag k="natural" v="bay" />
		<tag k="ssr:stedsnr" v="462225" />
	</node>
	<node id="-471492" lat="60.1916888876" lon="5.49908055484">
		<tag k="name" v="Moldefjæra" />
		<tag k="natural" v="bay" />
		<tag k="ssr:stedsnr" v="462217" />
	</node>
	<node id="-471488" lat="60.1546333364" lon="5.37510833916">
		<tag k="name" v="Teistane" />
		<tag k="natural" v="shoal" />
		<tag k="place" v="locality" />
		<tag k="ssr:stedsnr" v="450997" />
	</node>
	<node id="-471487" lat="60.1914611108" lon="5.49956111562">
		<tag k="name" v="Moldevika" />
		<tag k="natural" v="bay" />
		<tag k="ssr:stedsnr" v="450953" />
	</node>
	<node id="-471486" lat="60.2783277747" lon="5.60312777444">
		<tag k="name" v="Kråkeneset" />
		<tag k="natural" v="cape" />
		<tag k="ssr:stedsnr" v="450937" />
	</node>
	<node id="-471485" lat="60.1653000034" lon="5.37669167472">
		<tag k="name" v="Hjelthavna" />
		<tag k="natural" v="bay" />
		<tag k="ssr:stedsnr" v="450926" />
	</node>
	<node id="-471484" lat="60.2198222231" lon="5.3583666631">
		<tag k="name" v="Furholmen" />
		<tag k="place" v="islet" />
		<tag k="ssr:stedsnr" v="450055" />
	</node>
	<node id="-471483" lat="60.1934222201" lon="5.31768054862">
		<tag k="fixme" v="consider seamark:type=rock or natural=shoal" />
		<tag k="name" v="Aumaskjeret" />
		<tag k="place" v="islet" />
		<tag k="ssr:stedsnr" v="450036" />
	</node>
	<node id="-471481" lat="60.1343972239" lon="5.37277778448">
		<tag k="name" v="Kobbavågen" />
		<tag k="natural" v="bay" />
		<tag k="ssr:stedsnr" v="430984" />
	</node>
	<node id="-471479" lat="60.1440444484" lon="5.37780555069">
		<tag k="name" v="Bruarøya" />
		<tag k="place" v="islet" />
		<tag k="ssr:stedsnr" v="430938" />
	</node>
	<node id="-471475" lat="60.1598805597" lon="5.34345556217">
		<tag k="name" v="Strøno" />
		<tag k="place" v="island" />
		<tag k="ssr:stedsnr" v="429960" />
	</node>
	<node id="-471474" lat="60.1467333337" lon="5.37419167454">
		<tag k="name" v="Sunnøya" />
		<tag k="place" v="islet" />
		<tag k="ssr:stedsnr" v="429947" />
	</node>
	<node id="-471473" lat="60.1440499988" lon="5.36845278238">
		<tag k="name" v="Tøkjet" />
		<tag k="natural" v="cape" />
		<tag k="ssr:stedsnr" v="429946" />
	</node>
	<node id="-471470" lat="60.1713305533" lon="5.38335000375">
		<tag k="name" v="Askvikeholmen" />
		<tag k="place" v="islet" />
		<tag k="ssr:stedsnr" v="429785" />
	</node>
	<node id="-471469" lat="60.1957638928" lon="5.32823054671">
		<tag k="name" v="Smørøya" />
		<tag k="place" v="islet" />
		<tag k="ssr:stedsnr" v="429775" />
	</node>
	<node id="-471467" lat="60.1881555588" lon="5.31285555912">
		<tag k="fixme" v="consider seamark:type=rock or natural=shoal" />
		<tag k="name" v="Hundaflesa" />
		<tag k="place" v="islet" />
		<tag k="ssr:stedsnr" v="429754" />
	</node>
	<node id="-471459" lat="60.1798944461" lon="5.46409445273">
		<tag k="name" v="Mobergsvika" />
		<tag k="natural" v="bay" />
		<tag k="ssr:stedsnr" v="268956" />
	</node>
	<node id="-471458" lat="60.1746361102" lon="5.46101388627">
		<tag k="name" v="Tellevika" />
		<tag k="natural" v="bay" />
		<tag k="ssr:stedsnr" v="268952" />
	</node>
	<node id="-471457" lat="60.1877861121" lon="5.3063999974">
		<tag k="name" v="Hundaflua" />
		<tag k="natural" v="shoal" />
		<tag k="place" v="locality" />
		<tag k="ssr:stedsnr" v="268032" />
	</node>
	<node id="-471456" lat="60.1629111103" lon="5.40544999721">
		<tag k="name" v="Storomsvågen" />
		<tag k="natural" v="bay" />
		<tag k="ssr:stedsnr" v="267070" />
	</node>
	<node id="-471453" lat="60.1696333353" lon="5.49811110556">
		<tag k="name" v="Holmabratten" />
		<tag k="natural" v="shoal" />
		<tag k="place" v="locality" />
		<tag k="ssr:stedsnr" v="248400" />
	</node>
	<node id="-471448" lat="60.1470944463" lon="5.40494166409">
		<tag k="name" v="Ytterøyosen" />
		<tag k="natural" v="strait" />
		<tag k="ssr:stedsnr" v="247998" />
	</node>
	<node id="-471447" lat="60.1413277803" lon="5.38953056221">
		<tag k="name" v="Bjørnarøya" />
		<tag k="place" v="islet" />
		<tag k="ssr:stedsnr" v="247983" />
	</node>
	<node id="-471446" lat="60.1404472255" lon="5.41765278251">
		<tag k="name" v="Langesundet" />
		<tag k="natural" v="strait" />
		<tag k="ssr:stedsnr" v="247980" />
	</node>
	<node id="-471445" lat="60.1585833377" lon="5.42227778322">
		<tag k="name" v="Nordstølen" />
		<tag k="natural" v="cape" />
		<tag k="ssr:stedsnr" v="247951" />
	</node>
	<node id="-471435" lat="60.1934249973" lon="5.52508889485">
		<tag k="name" v="Ådnavika" />
		<tag k="natural" v="bay" />
		<tag k="ssr:stedsnr" v="247079" />
	</node>
	<node id="-471434" lat="60.1758444422" lon="5.49207499793">
		<tag k="name" v="Nyskallen" />
		<tag k="natural" v="shoal" />
		<tag k="place" v="locality" />
		<tag k="ssr:stedsnr" v="247055" />
	</node>
	<node id="-471429" lat="60.1694333336" lon="5.33036389757">
		<tag k="name" v="Naustholmen" />
		<tag k="place" v="islet" />
		<tag k="ssr:stedsnr" v="268965" />
	</node>
	<node id="-471424" lat="60.169730552" lon="5.32762777209">
		<tag k="name" v="Store Naustholmen" />
		<tag k="place" v="islet" />
		<tag k="ssr:stedsnr" v="220492" />
	</node>
	<node id="-471423" lat="60.1307250041" lon="5.3793194442">
		<tag k="name" v="Momfrubakkneset" />
		<tag k="natural" v="cape" />
		<tag k="ssr:stedsnr" v="220477" />
	</node>
	<node id="-471421" lat="60.2091333308" lon="5.35085277746">
		<tag k="name" v="Brandaneset" />
		<tag k="natural" v="cape" />
		<tag k="ssr:stedsnr" v="220470" />
	</node>
	<node id="-471420" lat="60.1382555542" lon="5.38118055653">
		<tag k="name" v="Toreidpollen" />
		<tag k="natural" v="bay" />
		<tag k="ssr:stedsnr" v="220460" />
	</node>
	<node id="-471416" lat="60.1787916658" lon="5.39732500262">
		<tag k="name" v="Hagavika" />
		<tag k="natural" v="bay" />
		<tag k="ssr:stedsnr" v="220426" />
	</node>
	<node id="-471415" lat="60.1544305583" lon="5.42505554728">
		<tag k="name" v="Storholmen" />
		<tag k="place" v="islet" />
		<tag k="ssr:stedsnr" v="220422" />
	</node>
	<node id="-471405" lat="60.2077027743" lon="5.3740611203">
		<tag k="name" v="Ospevika" />
		<tag k="natural" v="bay" />
		<tag k="ssr:stedsnr" v="220331" />
	</node>
	<node id="-471399" lat="60.2189000027" lon="5.38434166043">
		<tag k="name" v="Sørstraumen" />
		<tag k="natural" v="cape" />
		<tag k="ssr:stedsnr" v="220037" />
	</node>
	<node id="-471383" lat="60.1551055574" lon="5.31091666321">
		<tag k="name" v="Sørevågen" />
		<tag k="natural" v="bay" />
		<tag k="ssr:stedsnr" v="220516" />
	</node>
	<node id="-471382" lat="60.1810916705" lon="5.3505333301">
		<tag k="name" v="Glireneset" />
		<tag k="natural" v="cape" />
		<tag k="ssr:stedsnr" v="220506" />
	</node>
	<node id="-471381" lat="60.1453083342" lon="5.37728888107">
		<tag k="name" v="Vedholmen" />
		<tag k="place" v="islet" />
		<tag k="ssr:stedsnr" v="207971" />
	</node>
	<node id="-471380" lat="60.1228388854" lon="5.37079166867">
		<tag k="name" v="Flua" />
		<tag k="natural" v="shoal" />
		<tag k="place" v="locality" />
		<tag k="ssr:stedsnr" v="207969" />
	</node>
	<node id="-471378" lat="60.1719777784" lon="5.36689999312">
		<tag k="name" v="Kvernavika" />
		<tag k="natural" v="bay" />
		<tag k="ssr:stedsnr" v="207926" />
	</node>
	<node id="-471377" lat="60.2722166702" lon="5.5897916679">
		<tag k="fixme" v="consider seamark:type=rock or natural=shoal" />
		<tag k="name" v="Strandaskjeret" />
		<tag k="place" v="islet" />
		<tag k="ssr:stedsnr" v="207838" />
	</node>
	<node id="-471376" lat="60.2088946094" lon="5.34795449529">
		<tag k="name" v="Straumsvika" />
		<tag k="natural" v="bay" />
		<tag k="ssr:stedsnr" v="207042" />
	</node>
	<node id="-471375" lat="60.1965388926" lon="5.29371667316">
		<tag k="name" v="Storahavet" />
		<tag k="natural" v="shoal" />
		<tag k="place" v="locality" />
		<tag k="ssr:stedsnr" v="207020" />
	</node>
	<node id="-471371" lat="60.1344999992" lon="5.40224444131">
		<tag k="name" v="Rogamælsholmen" />
		<tag k="place" v="islet" />
		<tag k="ssr:stedsnr" v="187965" />
	</node>
	<node id="-471370" lat="60.1585638927" lon="5.38938889408">
		<tag k="name" v="Lepsøya" />
		<tag k="place" v="island" />
		<tag k="ssr:stedsnr" v="187938" />
	</node>
	<node id="-471367" lat="60.1908499991" lon="5.51597499332">
		<tag k="name" v="Bjåneset" />
		<tag k="natural" v="cape" />
		<tag k="ssr:stedsnr" v="187560" />
	</node>
	<node id="-471366" lat="60.1707277746" lon="5.46895277138">
		<tag k="name" v="Raudholmane" />
		<tag k="place" v="islet" />
		<tag k="ssr:stedsnr" v="187391" />
	</node>
	<node id="-471362" lat="60.174808329" lon="5.47131110765">
		<tag k="name" v="Raudholmskallen" />
		<tag k="natural" v="shoal" />
		<tag k="place" v="locality" />
		<tag k="ssr:stedsnr" v="187056" />
	</node>
	<node id="-471361" lat="60.1518944408" lon="5.32795554863">
		<tag k="name" v="Vetle Hestholmen" />
		<tag k="place" v="islet" />
		<tag k="ssr:stedsnr" v="186956" />
	</node>
	<node id="-471360" lat="60.1568416683" lon="5.36000555198">
		<tag k="name" v="Strønevågen" />
		<tag k="natural" v="bay" />
		<tag k="ssr:stedsnr" v="186953" />
	</node>
	<node id="-471359" lat="60.2213777738" lon="5.35123610861">
		<tag k="name" v="Jonsholmen" />
		<tag k="place" v="islet" />
		<tag k="ssr:stedsnr" v="186853" />
	</node>
	<node id="-471358" lat="60.210077781" lon="5.35442499695">
		<tag k="name" v="Lysesundet" />
		<tag k="natural" v="strait" />
		<tag k="ssr:stedsnr" v="186791" />
	</node>
	<node id="-471357" lat="60.2150166683" lon="5.36115555278">
		<tag k="name" v="Lysøya" />
		<tag k="place" v="island" />
		<tag k="ssr:stedsnr" v="186783" />
	</node>
	<node id="-471353" lat="60.1740222186" lon="5.3370111133">
		<tag k="name" v="Langøya" />
		<tag k="place" v="islet" />
		<tag k="ssr:stedsnr" v="186803" />
	</node>
	<node id="-471352" lat="60.1302638922" lon="5.47115555849">
		<tag k="name" v="Storaflua" />
		<tag k="natural" v="shoal" />
		<tag k="place" v="locality" />
		<tag k="ssr:stedsnr" v="186430" />
	</node>
	<node id="-471347" lat="60.1832638852" lon="5.26274722473">
		<tag k="name" v="Drivflua" />
		<tag k="natural" v="shoal" />
		<tag k="place" v="locality" />
		<tag k="ssr:stedsnr" v="175169" />
	</node>
	<node id="-471342" lat="60.221552779" lon="5.34524721711">
		<tag k="name" v="Lindholmen" />
		<tag k="place" v="islet" />
		<tag k="ssr:stedsnr" v="159501" />
	</node>
	<node id="-471340" lat="60.1883777793" lon="5.34369166547">
		<tag k="name" v="Danielsvika" />
		<tag k="natural" v="bay" />
		<tag k="ssr:stedsnr" v="159491" />
	</node>
	<node id="-471335" lat="60.1633333333" lon="5.40233610421">
		<tag k="name" v="Notabuholmen" />
		<tag k="place" v="islet" />
		<tag k="ssr:stedsnr" v="159386" />
	</node>
	<node id="-471333" lat="60.153797222" lon="5.36620555001">
		<tag k="name" v="Strøneneset" />
		<tag k="natural" v="cape" />
		<tag k="ssr:stedsnr" v="159379" />
	</node>
	<node id="-471331" lat="60.1737055519" lon="5.38031110967">
		<tag k="name" v="Askvikneset" />
		<tag k="natural" v="cape" />
		<tag k="ssr:stedsnr" v="159364" />
	</node>
	<node id="-471312" lat="60.1400777797" lon="5.40466388951">
		<tag k="name" v="Kvalesundet" />
		<tag k="natural" v="strait" />
		<tag k="ssr:stedsnr" v="146997" />
	</node>
	<node id="-471311" lat="60.1124527757" lon="5.33309167006">
		<tag k="name" v="Hausen" />
		<tag k="natural" v="shoal" />
		<tag k="place" v="locality" />
		<tag k="ssr:stedsnr" v="146977" />
	</node>
	<node id="-471308" lat="60.2050944441" lon="5.37159444619">
		<tag k="name" v="Vikaflua" />
		<tag k="natural" v="shoal" />
		<tag k="place" v="locality" />
		<tag k="ssr:stedsnr" v="146048" />
	</node>
	<node id="-471304" lat="60.1462307567" lon="5.34577673911">
		<tag k="name" v="Stora Molvika" />
		<tag k="natural" v="bay" />
		<tag k="ssr:stedsnr" v="126938" />
	</node>
	<node id="-471303" lat="60.1516083359" lon="5.36029443576">
		<tag k="name" v="Selvågen" />
		<tag k="natural" v="bay" />
		<tag k="ssr:stedsnr" v="126932" />
	</node>
	<node id="-471300" lat="60.247169445" lon="5.57406666612">
		<tag k="fixme" v="consider seamark:type=rock or natural=shoal" />
		<tag k="name" v="Rødssteinskjera" />
		<tag k="place" v="islet" />
		<tag k="ssr:stedsnr" v="126192" />
	</node>
	<node id="-471292" lat="60.2131055522" lon="5.35246388186">
		<tag k="name" v="Mortholmen" />
		<tag k="place" v="islet" />
		<tag k="ssr:stedsnr" v="125785" />
	</node>
	<node id="-471291" lat="60.2150611141" lon="5.35854999558">
		<tag k="name" v="Lysevågen" />
		<tag k="natural" v="bay" />
		<tag k="ssr:stedsnr" v="125853" />
	</node>
	<node id="-471290" lat="60.1698361108" lon="5.29845555477">
		<tag k="name" v="Fluaneset" />
		<tag k="natural" v="cape" />
		<tag k="ssr:stedsnr" v="125827" />
	</node>
	<node id="-471289" lat="60.1778805536" lon="5.30298055183">
		<tag k="fixme" v="consider seamark:type=rock or natural=shoal" />
		<tag k="name" v="Låtreskjeret" />
		<tag k="place" v="islet" />
		<tag k="ssr:stedsnr" v="125816" />
	</node>
	<node id="-471288" lat="60.1651333352" lon="5.39557499179">
		<tag k="name" v="Skeisholmen" />
		<tag k="place" v="islet" />
		<tag k="ssr:stedsnr" v="125809" />
	</node>
	<node id="-471287" lat="60.1629250015" lon="5.30100277941">
		<tag k="fixme" v="consider seamark:type=rock or natural=shoal" />
		<tag k="name" v="Teistane" />
		<tag k="place" v="islet" />
		<tag k="ssr:stedsnr" v="125805" />
	</node>
	<node id="-471284" lat="60.2093333316" lon="5.54478610676">
		<tag k="alt_name" v="Hatvikneset" />
		<tag k="name" v="Hattvikneset" />
		<tag k="natural" v="cape" />
		<tag k="ssr:stedsnr" v="125012" />
	</node>
	<node id="-471278" lat="60.1863083355" lon="5.35579444676">
		<tag k="name" v="Eidsvika" />
		<tag k="natural" v="bay" />
		<tag k="ssr:stedsnr" v="98471" />
	</node>
	<node id="-471277" lat="60.1680916707" lon="5.31721667342">
		<tag k="name" v="Stallskjerneset" />
		<tag k="natural" v="cape" />
		<tag k="ssr:stedsnr" v="98464" />
	</node>
	<node id="-471275" lat="60.2164777788" lon="5.35113055555">
		<tag k="name" v="Skinneset" />
		<tag k="natural" v="cape" />
		<tag k="ssr:stedsnr" v="98439" />
	</node>
	<node id="-471273" lat="60.1444944486" lon="5.41354444741">
		<tag k="name" v="Innerøyna" />
		<tag k="place" v="island" />
		<tag k="ssr:stedsnr" v="98429" />
	</node>
	<node id="-471263" lat="60.1600416654" lon="5.42366944182">
		<tag k="name" v="Særvoldsvika" />
		<tag k="natural" v="bay" />
		<tag k="ssr:stedsnr" v="98352" />
	</node>
	<node id="-471251" lat="60.2617777799" lon="5.57210555689">
		<tag k="name" v="Fureneset" />
		<tag k="natural" v="cape" />
		<tag k="ssr:stedsnr" v="98350" />
	</node>
	<node id="-471238" lat="60.1550583289" lon="5.42610554828">
		<tag k="name" v="Indre Hauglandssjøen" />
		<tag k="natural" v="bay" />
		<tag k="ssr:stedsnr" v="98029" />
	</node>
	<node id="-471234" lat="60.142072219" lon="5.41686389343">
		<tag k="name" v="Langavika" />
		<tag k="natural" v="bay" />
		<tag k="ssr:stedsnr" v="86993" />
	</node>
	<node id="-471233" lat="60.193261115" lon="5.34719721884">
		<tag k="name" v="Notabuholmen" />
		<tag k="place" v="islet" />
		<tag k="ssr:stedsnr" v="86158" />
	</node>
	<node id="-471232" lat="60.1830361077" lon="5.34311666086">
		<tag k="fixme" v="consider seamark:type=rock or natural=shoal" />
		<tag k="name" v="Kvitaskjeret" />
		<tag k="place" v="islet" />
		<tag k="ssr:stedsnr" v="268067" />
	</node>
	<node id="-471231" lat="60.1879833366" lon="5.34586944222">
		<tag k="name" v="Danielsvika" />
		<tag k="natural" v="bay" />
		<tag k="ssr:stedsnr" v="268064" />
	</node>
	<node id="-471224" lat="60.1826777765" lon="5.33570278222">
		<tag k="name" v="Raudøya" />
		<tag k="place" v="islet" />
		<tag k="ssr:stedsnr" v="65806" />
	</node>
	<node id="-471222" lat="60.2128361124" lon="5.38157499314">
		<tag k="name" v="Søvika" />
		<tag k="natural" v="bay" />
		<tag k="ssr:stedsnr" v="65787" />
	</node>
	<node id="-471219" lat="60.2020229027" lon="5.36467911899">
		<tag k="name" v="Bjoarvika" />
		<tag k="natural" v="bay" />
		<tag k="ssr:stedsnr" v="65760" />
	</node>
	<node id="-471218" lat="60.1379055524" lon="5.36963333474">
		<tag k="name" v="Røtinga" />
		<tag k="place" v="island" />
		<tag k="ssr:stedsnr" v="66980" />
	</node>
	<node id="-471210" lat="60.1557666652" lon="5.32651389506">
		<tag k="name" v="Leirvågen" />
		<tag k="natural" v="bay" />
		<tag k="ssr:stedsnr" v="38469" />
	</node>
	<node id="-471209" lat="60.2000111151" lon="5.34010278211">
		<tag k="name" v="Hatlevika" />
		<tag k="natural" v="bay" />
		<tag k="ssr:stedsnr" v="38433" />
	</node>
	<node id="-471208" lat="60.2685777788" lon="5.58246388233">
		<tag k="name" v="Hestahola" />
		<tag k="natural" v="bay" />
		<tag k="ssr:stedsnr" v="38328" />
	</node>
	<node id="-471194" lat="60.2606500017" lon="5.56878611357">
		<tag k="name" v="Hetlevika" />
		<tag k="natural" v="bay" />
		<tag k="ssr:stedsnr" v="37366" />
	</node>
	<node id="-471192" lat="60.2606722187" lon="5.56433332904">
		<tag k="name" v="Notaneset" />
		<tag k="natural" v="cape" />
		<tag k="ssr:stedsnr" v="37363" />
	</node>
	<node id="-471187" lat="60.1721277815" lon="5.36652500116">
		<tag k="name" v="Kvernavika" />
		<tag k="natural" v="bay" />
		<tag k="ssr:stedsnr" v="37346" />
	</node>
	<node id="-471186" lat="60.2290444439" lon="5.54585554999">
		<tag k="name" v="Klubben" />
		<tag k="natural" v="cape" />
		<tag k="ssr:stedsnr" v="37345" />
	</node>
	<node id="-471182" lat="60.2171517069" lon="5.36720969409">
		<tag k="name" v="Midtneset" />
		<tag k="natural" v="cape" />
		<tag k="ssr:stedsnr" v="37332" />
	</node>
	<node id="-471170" lat="60.1911138892" lon="5.51178056063">
		<tag k="name" v="Bjånesfjæra" />
		<tag k="natural" v="bay" />
		<tag k="ssr:stedsnr" v="37255" />
	</node>
	<node id="-471168" lat="60.1913055598" lon="5.35197499436">
		<tag k="name" v="Korsvika" />
		<tag k="natural" v="bay" />
		<tag k="ssr:stedsnr" v="38463" />
	</node>
	<node id="-471167" lat="60.1458166675" lon="5.39100556001">
		<tag k="name" v="Brattholmen" />
		<tag k="place" v="islet" />
		<tag k="ssr:stedsnr" v="25994" />
	</node>
	<node id="-471166" lat="60.1440805549" lon="5.34847049878">
		<tag k="name" v="Vetla Molvika" />
		<tag k="natural" v="bay" />
		<tag k="ssr:stedsnr" v="25982" />
	</node>
	<node id="-471164" lat="60.211107589" lon="5.38300050003">
		<tag k="name" v="Søvikvågen" />
		<tag k="natural" v="bay" />
		<tag k="ssr:stedsnr" v="25054" />
	</node>
	<node id="-471161" lat="60.1415444431" lon="5.38074722145">
		<tag k="name" v="Brattholmen" />
		<tag k="place" v="islet" />
		<tag k="ssr:stedsnr" v="5972" />
	</node>
	<node id="-471160" lat="60.1299916633" lon="5.38191111396">
		<tag k="name" v="Gulholmane" />
		<tag k="place" v="islet" />
		<tag k="ssr:stedsnr" v="5958" />
	</node>
	<node id="-471152" lat="60.1741999994" lon="5.49378333085">
		<tag k="name" v="Skallen" />
		<tag k="natural" v="shoal" />
		<tag k="place" v="locality" />
		<tag k="ssr:stedsnr" v="5046" />
	</node>
	<node id="-471150" lat="60.1568944408" lon="5.30777778168">
		<tag k="name" v="Storeknappen" />
		<tag k="natural" v="cape" />
		<tag k="ssr:stedsnr" v="4963" />
	</node>
	<node id="-471149" lat="60.1506249957" lon="5.30860833418">
		<tag k="name" v="Alholmen" />
		<tag k="place" v="islet" />
		<tag k="ssr:stedsnr" v="4961" />
	</node>
	<node id="-471148" lat="60.1551055536" lon="5.37110556065">
		<tag k="name" v="Lepsøyosen" />
		<tag k="natural" v="strait" />
		<tag k="ssr:stedsnr" v="4960" />
	</node>
	<node id="-471145" lat="60.1638888933" lon="5.30361944462">
		<tag k="name" v="Teistaneset" />
		<tag k="natural" v="cape" />
		<tag k="ssr:stedsnr" v="4814" />
	</node>
	<node id="-471143" lat="60.2022055589" lon="5.32687777522">
		<tag k="name" v="Vetle Havreholmen" />
		<tag k="place" v="islet" />
		<tag k="ssr:stedsnr" v="4802" />
	</node>
	<node id="-471142" lat="60.1997583351" lon="5.32550556428">
		<tag k="name" v="Store Havreholmen" />
		<tag k="place" v="islet" />
		<tag k="ssr:stedsnr" v="4800" />
	</node>
	<node id="-471141" lat="60.1962972243" lon="5.33356944146">
		<tag k="name" v="Nesvågen" />
		<tag k="natural" v="bay" />
		<tag k="ssr:stedsnr" v="4798" />
	</node>
	<node id="-471137" lat="60.1891027775" lon="5.33043888862">
		<tag k="name" v="Skotøya" />
		<tag k="place" v="island" />
		<tag k="ssr:stedsnr" v="4778" />
	</node>
	<node id="-471136" lat="60.1926944456" lon="5.34924444997">
		<tag k="alt_name" v="Drangsvågen" />
		<tag k="name" v="Ytredrangsvågen" />
		<tag k="natural" v="bay" />
		<tag k="ssr:stedsnr" v="4773" />
	</node>
	<node id="-471132" lat="60.2861632734" lon="5.62616396805">
		<tag k="bay" v="fjord" />
		<tag k="name" v="Samnangerfjorden" />
		<tag k="natural" v="bay" />
		<tag k="ssr:stedsnr" v="794176" />
	</node>
	<node id="-471131" lat="60.1318185496" lon="5.36985208633">
		<tag k="name" v="Nordre Kobbholmen" />
		<tag k="place" v="islet" />
		<tag k="ssr:stedsnr" v="991041" />
	</node>
	<node id="-471112" lat="60.131016664" lon="5.37486944006">
		<tag k="name" v="Fløholmen" />
		<tag k="place" v="islet" />
		<tag k="ssr:stedsnr" v="887435" />
	</node>
	<node id="-471108" lat="60.1788527737" lon="5.36022221557">
		<tag k="name" v="Havnaklubben" />
		<tag k="natural" v="cape" />
		<tag k="ssr:stedsnr" v="887398" />
	</node>
	<node id="-471106" lat="60.1753250003" lon="5.39849443954">
		<tag k="name" v="Djupevika" />
		<tag k="natural" v="bay" />
		<tag k="ssr:stedsnr" v="887385" />
	</node>
	<node id="-471102" lat="60.1667611071" lon="5.37007778582">
		<tag k="name" v="Grønbakkvika" />
		<tag k="natural" v="bay" />
		<tag k="ssr:stedsnr" v="887343" />
	</node>
	<node id="-471101" lat="60.1675722248" lon="5.37597222481">
		<tag k="name" v="Ullsundholmane" />
		<tag k="place" v="islet" />
		<tag k="ssr:stedsnr" v="887344" />
	</node>
	<node id="-471085" lat="60.2799194447" lon="5.60594166272">
		<tag k="name" v="Leirhola" />
		<tag k="natural" v="cape" />
		<tag k="ssr:stedsnr" v="887262" />
	</node>
	<node id="-471081" lat="60.2823694415" lon="5.60856389426">
		<tag k="name" v="Åspenes" />
		<tag k="natural" v="cape" />
		<tag k="ssr:stedsnr" v="887249" />
	</node>
	<node id="-471075" lat="60.1953138884" lon="5.33142499923">
		<tag k="name" v="Smørsundet" />
		<tag k="natural" v="strait" />
		<tag k="ssr:stedsnr" v="887039" />
	</node>
	<node id="-471074" lat="60.1946388885" lon="5.44342500401">
		<tag k="name" v="Teinevika" />
		<tag k="natural" v="bay" />
		<tag k="ssr:stedsnr" v="887005" />
	</node>
	<node id="-471069" lat="60.1536805552" lon="5.32104999866">
		<tag k="name" v="Øksavågen" />
		<tag k="natural" v="bay" />
		<tag k="ssr:stedsnr" v="402486" />
	</node>
	<node id="-471068" lat="60.1885722248" lon="5.32912778296">
		<tag k="name" v="Labergvågen" />
		<tag k="natural" v="bay" />
		<tag k="ssr:stedsnr" v="402482" />
	</node>
	<node id="-471067" lat="60.1423333342" lon="5.42904722433">
		<tag k="name" v="Aurevika" />
		<tag k="natural" v="bay" />
		<tag k="ssr:stedsnr" v="402470" />
	</node>
	<node id="-471058" lat="60.1557611081" lon="5.39758611586">
		<tag k="name" v="Vestre Hølen" />
		<tag k="natural" v="bay" />
		<tag k="ssr:stedsnr" v="402024" />
	</node>
	<node id="-471056" lat="60.1325944429" lon="5.42153056312">
		<tag k="name" v="Lauvholmen" />
		<tag k="place" v="islet" />
		<tag k="ssr:stedsnr" v="401446" />
	</node>
	<node id="-471055" lat="60.208400003" lon="5.3427722274">
		<tag k="name" v="Vassvikatangen" />
		<tag k="natural" v="cape" />
		<tag k="ssr:stedsnr" v="401428" />
	</node>
	<node id="-471051" lat="60.1564944462" lon="5.42510277675">
		<tag k="name" v="Ytre Hauglandssjøen" />
		<tag k="natural" v="bay" />
		<tag k="ssr:stedsnr" v="401364" />
	</node>
	<node id="-471048" lat="60.1628166709" lon="5.38899999817">
		<tag k="name" v="Strussvågen" />
		<tag k="natural" v="bay" />
		<tag k="ssr:stedsnr" v="401340" />
	</node>
	<node id="-471047" lat="60.1565694471" lon="5.40122776978">
		<tag k="name" v="Austre Hølen" />
		<tag k="natural" v="bay" />
		<tag k="ssr:stedsnr" v="401338" />
	</node>
	<node id="-471042" lat="60.2036944427" lon="5.54038055378">
		<tag k="name" v="Inste Baikroken" />
		<tag k="natural" v="bay" />
		<tag k="ssr:stedsnr" v="401297" />
	</node>
</osm>
