<?xml version="1.0" encoding="UTF-8"?>
<osm generator="osmapis" version="0.6">
	<node id="-470385" lat="60.1847500029" lon="5.47130834201">
		<tag k="bridge" v="yes" />
		<tag k="layer" v="1" />
		<tag k="name" v="Osøyro" />
		<tag k="ssr:stedsnr" v="350214" />
	</node>
	<node id="-470384" lat="60.1937472249" lon="5.4942861025">
		<tag k="bridge" v="yes" />
		<tag k="layer" v="1" />
		<tag k="name" v="Bøtre" />
		<tag k="ssr:stedsnr" v="350211" />
	</node>
	<node id="-470765" lat="60.159255551" lon="5.36673610663">
		<tag k="fixme" v="verify maritime location" />
		<tag k="mooring" v="yes" />
		<tag k="name" v="Gangstøa" />
		<tag k="place" v="locality" />
		<tag k="ssr:stedsnr" v="207942" />
	</node>
	<node id="-470290" lat="60.2023472202" lon="5.45534999626">
		<tag k="bridge" v="yes" />
		<tag k="layer" v="1" />
		<tag k="name" v="Flåten" />
		<tag k="ssr:stedsnr" v="290228" />
	</node>
	<node id="-471244" lat="60.1803277783" lon="5.45212222404">
		<tag k="bridge" v="yes" />
		<tag k="layer" v="1" />
		<tag k="name" v="Villelibrua" />
		<tag k="ssr:stedsnr" v="715256" />
	</node>
	<node id="-470503" lat="60.1578416704" lon="5.40469443545">
		<tag k="bridge" v="yes" />
		<tag k="layer" v="1" />
		<tag k="name" v="Storum" />
		<tag k="ssr:stedsnr" v="897233" />
	</node>
	<node id="-471185" lat="60.1846416676" lon="5.44981944158">
		<tag k="layer" v="-1" />
		<tag k="name" v="Liafjellstunnelen" />
		<tag k="ssr:stedsnr" v="688542" />
		<tag k="tunnel" v="yes" />
	</node>
	<node id="-471005" lat="60.1777138917" lon="5.36138610742">
		<tag k="bridge" v="yes" />
		<tag k="layer" v="1" />
		<tag k="name" v="Strøno" />
		<tag k="ssr:stedsnr" v="533248" />
	</node>
	<node id="-471004" lat="60.2323638867" lon="5.45588889805">
		<tag k="bridge" v="yes" />
		<tag k="layer" v="1" />
		<tag k="name" v="Søfteland" />
		<tag k="ssr:stedsnr" v="533247" />
	</node>
	<node id="-471515" lat="60.153405558" lon="5.43248333939">
		<tag k="bridge" v="yes" />
		<tag k="layer" v="1" />
		<tag k="name" v="Halhjem" />
		<tag k="ssr:stedsnr" v="958244" />
	</node>
	<node id="-471374" lat="60.2084361082" lon="5.44777777547">
		<tag k="junction" v="yes" />
		<tag k="name" v="Ulvenskiftet" />
		<tag k="place" v="locality" />
		<tag k="ssr:stedsnr" v="826319" />
	</node>
	<node id="-471245" lat="60.1985916624" lon="5.48749443616">
		<tag k="bridge" v="yes" />
		<tag k="layer" v="1" />
		<tag k="name" v="Valla" />
		<tag k="ssr:stedsnr" v="715258" />
	</node>
	<node id="-470732" lat="60.1530333375" lon="5.39408056394">
		<tag k="bridge" v="yes" />
		<tag k="layer" v="1" />
		<tag k="name" v="Mørkevåg" />
		<tag k="ssr:stedsnr" v="169222" />
	</node>
	<node id="-470731" lat="60.2080833348" lon="5.43104166577">
		<tag k="layer" v="-1" />
		<tag k="name" v="Skogafjellstunnelen" />
		<tag k="ssr:stedsnr" v="162927" />
		<tag k="tunnel" v="yes" />
	</node>
	<node id="-470345" lat="60.2548666668" lon="5.49611665882">
		<tag k="landuse" v="industrial" />
		<tag k="name" v="Os El-verk" />
		<tag k="power" v="plant" />
		<tag k="ssr:stedsnr" v="341274" />
	</node>
	<node id="-470600" lat="60.1490527801" lon="5.38295277716">
		<tag k="bridge" v="yes" />
		<tag k="layer" v="1" />
		<tag k="name" v="Lepsøysundet" />
		<tag k="ssr:stedsnr" v="47244" />
	</node>
	<node id="-471239" lat="60.1917388911" lon="5.42121111821">
		<tag k="aeroway" v="airstrip" />
		<tag k="alt_name" v="Ulven flyplass" />
		<tag k="name" v="Os flyplass, Vaksinen" />
		<tag k="ssr:stedsnr" v="705555" />
	</node>
	<node id="-470837" lat="60.3003222241" lon="5.56047500711">
		<tag k="highway" v="path" />
		<tag k="name" v="Vegaskiftet" />
		<tag k="ssr:stedsnr" v="248240" />
	</node>
	<node id="-470960" lat="60.3030833316" lon="5.5690416749">
		<tag k="ford" v="yes" />
		<tag k="name" v="Utløvadet" />
		<tag k="place" v="locality" />
		<tag k="ssr:stedsnr" v="522289" />
	</node>
	<node id="-471516" lat="60.2606333331" lon="5.56260000851">
		<tag k="bridge" v="yes" />
		<tag k="layer" v="1" />
		<tag k="name" v="Lønningdal" />
		<tag k="ssr:stedsnr" v="958251" />
	</node>
	<node id="-470818" lat="60.1698916672" lon="5.44369166547">
		<tag k="bridge" v="yes" />
		<tag k="layer" v="1" />
		<tag k="name" v="Trolldalen" />
		<tag k="ssr:stedsnr" v="229249" />
	</node>
	<node id="-470817" lat="60.2621305587" lon="5.56253055245">
		<tag k="bridge" v="yes" />
		<tag k="layer" v="1" />
		<tag k="name" v="Lønningdal Nedre" />
		<tag k="ssr:stedsnr" v="229245" />
	</node>
	<node id="-471325" lat="60.1547722234" lon="5.39868332772">
		<tag k="bridge" v="yes" />
		<tag k="layer" v="1" />
		<tag k="name" v="Blindesund II" />
		<tag k="ssr:stedsnr" v="775220" />
	</node>
	<node id="-470930" lat="60.1780361143" lon="5.36258056422">
		<tag k="bridge" v="yes" />
		<tag k="layer" v="1" />
		<tag k="name" v="Hildershavn" />
		<tag k="ssr:stedsnr" v="472233" />
	</node>
	<node id="-470929" lat="60.2198000038" lon="5.38698888101">
		<tag k="bridge" v="yes" />
		<tag k="layer" v="1" />
		<tag k="name" v="Nore Straumen" />
		<tag k="ssr:stedsnr" v="472229" />
	</node>
	<node id="-470669" lat="60.208452777" lon="5.53704999456">
		<tag k="amenity" v="ferry_terminal" />
		<tag k="loc_name" v="Hattvik ferjekai" />
		<tag k="name" v="Hatvik ferjekai" />
		<tag k="ssr:stedsnr" v="108245" />
	</node>
	<node id="-470668" lat="60.1457000007" lon="5.42669166014">
		<tag k="amenity" v="ferry_terminal" />
		<tag k="name" v="Halhjem ferjekai" />
		<tag k="ssr:stedsnr" v="108234" />
	</node>
	<node id="-471048" lat="60.2032916656" lon="5.41231389561">
		<tag k="junction" v="yes" />
		<tag k="name" v="Åsaskiftet" />
		<tag k="place" v="locality" />
		<tag k="ssr:stedsnr" v="583265" />
	</node>
</osm>
