<?xml version="1.0" encoding="UTF-8"?>
<osm version="0.6" generator="osmapis">
	<node id="300132633" lat="60.7642938" lon="11.1553294" version="19" timestamp="2022-02-01T16:51:09Z" changeset="116876628" uid="3497659" user="NKA">
		<tag k="junction" v="yes" />
		<tag k="name" v="Holakrysset" />
		<tag k="ssr:stedsnr" v="665292" />
	</node>
	<node id="302142811" lat="60.7371532" lon="11.2915105" version="13" timestamp="2022-08-18T11:07:50Z" changeset="125056650" uid="12529922" user="Rapp GIS Bjørn L Rapp">
		<tag k="junction" v="yes" />
		<tag k="name" v="Mågårdskrysset" />
		<tag k="ssr:stedsnr" v="1074858" />
	</node>
	<node id="332420749" lat="60.770298" lon="11.1638191" version="30" timestamp="2022-05-24T12:27:41Z" changeset="121421670" uid="12529922" user="Rapp GIS Bjørn L Rapp">
		<tag k="junction" v="yes" />
		<tag k="name" v="Basterudkrysset" />
		<tag k="ssr:stedsnr" v="544260" />
	</node>
	<node id="427836232" lat="60.6470187" lon="11.2504907" version="4" timestamp="2022-02-01T16:51:09Z" changeset="116876628" uid="3497659" user="NKA">
		<tag k="junction" v="yes" />
		<tag k="name" v="Karusellen" />
		<tag k="ssr:stedsnr" v="301471" />
	</node>
	<node id="853964439" lat="60.6437164" lon="11.4390846" version="5" timestamp="2022-02-01T16:51:09Z" changeset="116876628" uid="3497659" user="NKA">
		<tag k="junction" v="yes" />
		<tag k="name" v="Slettholen" />
		<tag k="ssr:stedsnr" v="726902" />
	</node>
	<node id="7134861283" lat="60.7119146" lon="11.2897553" version="4" timestamp="2022-02-01T16:51:09Z" changeset="116876628" uid="3497659" user="NKA">
		<tag k="junction" v="yes" />
		<tag k="name" v="Korsbakken" />
		<tag k="ssr:stedsnr" v="239505" />
	</node>
	<node id="9462215371" lat="60.6287498" lon="11.2382701" version="1" timestamp="2022-01-31T06:16:31Z" changeset="116806593" uid="3497659" user="NKA">
		<tag k="name" v="Akselstua" />
		<tag k="place" v="hamlet" />
		<tag k="ssr:stedsnr" v="206119" />
	</node>
</osm>
