<?xml version="1.0" encoding="UTF-8"?>
<osm version="0.6" generator="osmapis">
	<node lat="60.86786944652063" lon="8.527955554300512" id="-40388">
		<tag k="bridge" v="yes" />
		<tag k="layer" v="1" />
		<tag k="name" v="Finset" />
		<tag k="ssr:stedsnr" v="46810" />
	</node>
	<node lat="60.85543055658281" lon="8.569724993355882" id="-40389">
		<tag k="bridge" v="yes" />
		<tag k="layer" v="1" />
		<tag k="name" v="Tottebekk" />
		<tag k="ssr:stedsnr" v="46812" />
	</node>
	<node lat="60.87914444409523" lon="8.484188892533036" id="-40422">
		<tag k="bridge" v="yes" />
		<tag k="layer" v="1" />
		<tag k="name" v="Tuv" />
		<tag k="ssr:stedsnr" v="107808" />
	</node>
	<node lat="60.87291111150534" lon="8.455047227367405" id="-40528">
		<tag k="bridge" v="yes" />
		<tag k="layer" v="1" />
		<tag k="name" v="Venås" />
		<tag k="ssr:stedsnr" v="228830" />
	</node>
	<node lat="60.87543333597408" lon="8.820772216104592" id="-40540">
		<tag k="fixme" v="consider highway=path" />
		<tag k="highway" v="track" />
		<tag k="name" v="Gamle Lykkjaveg" />
		<tag k="ssr:stedsnr" v="457593" />
	</node>
	<node lat="60.884519441844624" lon="8.87488888309942" id="-40546">
		<tag k="highway" v="path" />
		<tag k="name" v="Moavegen" />
		<tag k="ssr:stedsnr" v="458439" />
	</node>
	<node lat="60.795676446426405" lon="8.719287531872173" id="-40552">
		<tag k="fixme" v="consider highway=path" />
		<tag k="highway" v="track" />
		<tag k="name" v="Eikrevegen" />
		<tag k="ssr:stedsnr" v="275280" />
	</node>
	<node lat="60.8622000003213" lon="8.551808331737735" id="-40619">
		<tag k="bridge" v="yes" />
		<tag k="layer" v="1" />
		<tag k="name" v="Skogstad" />
		<tag k="ssr:stedsnr" v="471801" />
	</node>
	<node lat="60.97919166629096" lon="8.563838893040908" id="-40704">
		<tag k="fixme" v="consider highway=path" />
		<tag k="highway" v="track" />
		<tag k="name" v="Grinitu" />
		<tag k="ssr:stedsnr" v="457142" />
	</node>
	<node lat="60.85230833388016" lon="8.496308340536443" id="-40717">
		<tag k="fixme" v="consider highway=path" />
		<tag k="highway" v="track" />
		<tag k="name" v="Lialøypa" />
		<tag k="ssr:stedsnr" v="457713" />
	</node>
	<node lat="60.80139198925744" lon="8.69072224166144" id="-40738">
		<tag k="bridge" v="yes" />
		<tag k="layer" v="1" />
		<tag k="name" v="Ålrustbrune" />
		<tag k="ssr:stedsnr" v="471805" />
	</node>
	<node lat="60.85099722318778" lon="8.743380548740936" id="-40799">
		<tag k="ford" v="yes" />
		<tag k="name" v="Ødnersvadet" />
		<tag k="place" v="locality" />
		<tag k="ssr:stedsnr" v="518742" />
	</node>
	<node lat="60.804066662311484" lon="8.684675007947847" id="-40801">
		<tag k="bridge" v="yes" />
		<tag k="layer" v="1" />
		<tag k="name" v="Sandbekk" />
		<tag k="ssr:stedsnr" v="532794" />
	</node>
	<node lat="60.818772218916294" lon="8.65107499960082" id="-40925">
		<tag k="bridge" v="yes" />
		<tag k="layer" v="1" />
		<tag k="name" v="Skolt" />
		<tag k="ssr:stedsnr" v="714789" />
	</node>
	<node lat="60.7868666667672" lon="8.682177773784538" id="-40953">
		<tag k="fixme" v="consider highway=path" />
		<tag k="highway" v="track" />
		<tag k="name" v="Eikrevegen" />
		<tag k="ssr:stedsnr" v="760306" />
	</node>
	<node lat="60.86953611394658" lon="8.654222225182064" id="-41157">
		<tag k="highway" v="path" />
		<tag k="name" v="Nedre Medlivegen" />
		<tag k="ssr:stedsnr" v="32840" />
	</node>
	<node lat="60.870519442783845" lon="8.660986120334405" id="-41189">
		<tag k="highway" v="path" />
		<tag k="name" v="Øvre Medlivegen" />
		<tag k="ssr:stedsnr" v="93802" />
	</node>
	<node lat="60.86500555339551" lon="8.518566661494987" id="-41199">
		<tag k="name" v="Hollesvingen" />
		<tag k="place" v="locality" />
		<tag k="ssr:stedsnr" v="93101" />
	</node>
	<node lat="60.89864722574363" lon="8.278219447298135" id="-41258">
		<tag k="bridge" v="yes" />
		<tag k="layer" v="1" />
		<tag k="name" v="Bakkestøl" />
		<tag k="ssr:stedsnr" v="168783" />
	</node>
	<node lat="60.85204722635305" lon="8.740674994911094" id="-41259">
		<tag k="bridge" v="yes" />
		<tag k="layer" v="1" />
		<tag k="name" v="Heståni" />
		<tag k="ssr:stedsnr" v="168786" />
	</node>
	<node lat="60.82618333207318" lon="8.728641670444365" id="-41286">
		<tag k="fixme" v="consider highway=path" />
		<tag k="highway" v="track" />
		<tag k="name" v="Naustvegen" />
		<tag k="ssr:stedsnr" v="214592" />
	</node>
	<node lat="60.87708872533445" lon="8.559172271287448" id="-41307">
		<tag k="highway" v="path" />
		<tag k="name" v="Gravarbakkane" />
		<tag k="ssr:stedsnr" v="275160" />
	</node>
	<node lat="60.79176944361409" lon="8.725158339241634" id="-41321">
		<tag k="bridge" v="yes" />
		<tag k="layer" v="1" />
		<tag k="name" v="Dalbekk" />
		<tag k="ssr:stedsnr" v="289837" />
	</node>
	<node lat="60.82035833584777" lon="8.647697214536102" id="-41322">
		<tag k="bridge" v="yes" />
		<tag k="layer" v="1" />
		<tag k="name" v="Gravset" />
		<tag k="ssr:stedsnr" v="289841" />
	</node>
	<node lat="60.88147777565034" lon="8.750486104686301" id="-41369">
		<tag k="bridge" v="yes" />
		<tag k="layer" v="1" />
		<tag k="name" v="Hyndra" />
		<tag k="ssr:stedsnr" v="350773" />
	</node>
	<node lat="60.786213884608664" lon="8.744027785586649" id="-41370">
		<tag k="bridge" v="yes" />
		<tag k="layer" v="1" />
		<tag k="name" v="Eikre" />
		<tag k="ssr:stedsnr" v="350777" />
	</node>
	<node lat="60.86887222164631" lon="8.429400001636528" id="-41413">
		<tag k="alt_name" v="Skjøiten" />
		<tag k="bridge" v="yes" />
		<tag k="layer" v="1" />
		<tag k="name" v="Skøyten bru" />
		<tag k="ssr:stedsnr" v="410793" />
	</node>
	<node lat="60.78903611561305" lon="8.671347231191046" id="-41460">
		<tag k="fixme" v="consider highway=path" />
		<tag k="highway" v="track" />
		<tag k="name" v="Nedrestølvegen" />
		<tag k="ssr:stedsnr" v="518256" />
	</node>
	<node lat="60.90349166684407" lon="8.43013055208111" id="-41502">
		<tag k="ford" v="yes" />
		<tag k="name" v="Skjøldevadet" />
		<tag k="place" v="locality" />
		<tag k="ssr:stedsnr" v="578597" />
	</node>
	<node lat="60.88786388974344" lon="8.340316662557148" id="-41573">
		<tag k="bridge" v="yes" />
		<tag k="layer" v="1" />
		<tag k="name" v="Storeskar" />
		<tag k="ssr:stedsnr" v="653806" />
	</node>
	<node lat="60.86293611116686" lon="8.55326666989574" id="-41574">
		<tag k="bridge" v="yes" />
		<tag k="layer" v="1" />
		<tag k="name" v="Trøym" />
		<tag k="ssr:stedsnr" v="653807" />
	</node>
	<node lat="60.804308332933104" lon="8.754880554868175" id="-41614">
		<tag k="bridge" v="yes" />
		<tag k="layer" v="1" />
		<tag k="name" v="Huso" />
		<tag k="ssr:stedsnr" v="775777" />
	</node>
	<node lat="60.875200708522364" lon="8.494935657707476" id="-41615">
		<tag k="bridge" v="yes" />
		<tag k="layer" v="1" />
		<tag k="name" v="Hustadbrune" />
		<tag k="ssr:stedsnr" v="775779" />
	</node>
	<node lat="60.86761667100398" lon="8.537852779616061" id="-41770">
		<tag k="bridge" v="yes" />
		<tag k="layer" v="1" />
		<tag k="name" v="Haug" />
		<tag k="ssr:stedsnr" v="957790" />
	</node>
</osm>
